<?xml version="1.0" encoding="UTF-8"?>
<osm generator="osmapis" version="0.6">
	<node id="-296928" lat="58.5291182758" lon="7.94876241019">
		<tag k="name" v="Kateråsveien" />
		<tag k="ssr:date" v="2019-05-31" />
		<tag k="ssr:gruppe" v="veg" />
		<tag k="ssr:hovedgruppe" v="infrastruktur" />
		<tag k="ssr:stedsnr" v="1054296" />
		<tag k="ssr:type" v="adressenavn" />
	</node>
	<node id="-296927" lat="58.5711173576" lon="8.37773151997">
		<tag k="name" v="Gauslåveien" />
		<tag k="ssr:date" v="2019-05-31" />
		<tag k="ssr:gruppe" v="veg" />
		<tag k="ssr:hovedgruppe" v="infrastruktur" />
		<tag k="ssr:stedsnr" v="1054294" />
		<tag k="ssr:type" v="adressenavn" />
	</node>
	<node id="-296926" lat="58.2661737641" lon="8.25302889797">
		<tag k="name" v="Nordbøveien" />
		<tag k="ssr:date" v="2019-05-31" />
		<tag k="ssr:gruppe" v="veg" />
		<tag k="ssr:hovedgruppe" v="infrastruktur" />
		<tag k="ssr:stedsnr" v="1054292" />
		<tag k="ssr:type" v="adressenavn" />
	</node>
	<node id="-297405" lat="58.5711353476" lon="8.37774450813">
		<tag k="name" v="Monen" />
		<tag k="ssr:date" v="2019-04-25" />
		<tag k="ssr:gruppe" v="veg" />
		<tag k="ssr:hovedgruppe" v="infrastruktur" />
		<tag k="ssr:stedsnr" v="991111" />
		<tag k="ssr:type" v="adressetilleggsnavn" />
	</node>
	<node id="-297399" lat="58.4656536985" lon="8.11838356532">
		<tag k="name" v="Skoretjønnheia" />
		<tag k="ssr:date" v="2019-05-31" />
		<tag k="ssr:gruppe" v="veg" />
		<tag k="ssr:hovedgruppe" v="infrastruktur" />
		<tag k="ssr:stedsnr" v="983724" />
		<tag k="ssr:type" v="adressenavn" />
	</node>
	<node id="-297398" lat="58.4037192562" lon="8.10099647383">
		<tag k="name" v="Ogge" />
		<tag k="ssr:date" v="2019-05-31" />
		<tag k="ssr:gruppe" v="veg" />
		<tag k="ssr:hovedgruppe" v="infrastruktur" />
		<tag k="ssr:stedsnr" v="982509" />
		<tag k="ssr:type" v="adressenavn" />
	</node>
	<node id="-299592" lat="58.3348749959" lon="8.23296666145">
		<tag k="loc_name" v="Birkenes" />
		<tag k="name" v="Birkenes kommune" />
		<tag k="ssr:date" v="2016-05-10" />
		<tag k="ssr:gruppe" v="administrativeIndelinger" />
		<tag k="ssr:hovedgruppe" v="offentligAdministrasjon" />
		<tag k="ssr:stedsnr" v="630405" />
		<tag k="ssr:type" v="kommune" />
	</node>
	<node id="-296929" lat="58.5287253393" lon="8.35155654703">
		<tag k="name" v="Humlegardsheia" />
		<tag k="ssr:date" v="2019-05-31" />
		<tag k="ssr:gruppe" v="veg" />
		<tag k="ssr:hovedgruppe" v="infrastruktur" />
		<tag k="ssr:stedsnr" v="1054303" />
		<tag k="ssr:type" v="adressenavn" />
	</node>
</osm>
