<?xml version="1.0" encoding="UTF-8"?>
<osm version="0.6" generator="osmapis">
	<node lat="61.902236112843134" lon="5.901513891505995" id="-34284">
		<tag k="name" v="Leirvikberget" />
		<tag k="natural" v="cape" />
		<tag k="ssr:stedsnr" v="229820" />
	</node>
	<node lat="61.92599999798748" lon="5.517502780986639" id="-34302">
		<tag k="name" v="Midthjellsneset" />
		<tag k="natural" v="cape" />
		<tag k="ssr:stedsnr" v="10432" />
	</node>
	<node lat="62.10172221946318" lon="5.190063885768969" id="-34336">
		<tag k="name" v="Furestranda" />
		<tag k="natural" v="beach" />
		<tag k="ssr:stedsnr" v="11673" />
	</node>
	<node lat="62.126977780754494" lon="5.120333333899767" id="-34339">
		<tag k="name" v="Hoddevikneset" />
		<tag k="natural" v="cape" />
		<tag k="ssr:stedsnr" v="11712" />
	</node>
	<node lat="62.03001111172398" lon="5.410183330168868" id="-34342">
		<tag k="name" v="Lestovika" />
		<tag k="natural" v="bay" />
		<tag k="ssr:stedsnr" v="231927" />
	</node>
	<node lat="62.05282500372286" lon="5.321836116376763" id="-34343">
		<tag k="name" v="Skarveklubben" />
		<tag k="place" v="islet" />
		<tag k="ssr:stedsnr" v="231951" />
	</node>
	<node lat="62.07996944639165" lon="5.403625007757361" id="-34345">
		<tag k="name" v="Stigetangen" />
		<tag k="natural" v="cape" />
		<tag k="ssr:stedsnr" v="231991" />
	</node>
	<node lat="62.08308888518103" lon="5.399033336277899" id="-34346">
		<tag k="name" v="Furenesvika" />
		<tag k="natural" v="bay" />
		<tag k="ssr:stedsnr" v="231994" />
	</node>
	<node lat="62.16840278001507" lon="5.283149997367445" id="-34349">
		<tag k="name" v="Litleneset" />
		<tag k="natural" v="cape" />
		<tag k="ssr:stedsnr" v="232218" />
	</node>
	<node lat="62.184750001877916" lon="5.0913999939306835" id="-34353">
		<tag k="name" v="HendabÃ¥en" />
		<tag k="place" v="locality" />
		<tag k="seamark:type" v="rock" />
		<tag k="ssr:stedsnr" v="232474" />
	</node>
	<node lat="62.19454301801003" lon="5.177969619958234" id="-34354">
		<tag k="name" v="Gletteneset" />
		<tag k="natural" v="cape" />
		<tag k="ssr:stedsnr" v="232686" />
	</node>
</osm>
