<?xml version="1.0" encoding="UTF-8"?>
<osm version="0.6" generator="osmapis">
	<node lat="61.962380556828265" lon="5.994627777592216" id="-81441">
		<tag k="name" v="Fossane" />
		<tag k="natural" v="waterfall" />
		<tag k="ssr:stedsnr" v="229620" />
	</node>
	<node lat="61.87622777699708" lon="5.7957611035578385" id="-81446">
		<tag k="name" v="Ytreelva" />
		<tag k="ssr:stedsnr" v="229671" />
		<tag k="waterway" v="stream" />
	</node>
	<node lat="62.00545833357781" lon="6.215411119999362" id="-81457">
		<tag k="name" v="Ferlevatnet" />
		<tag k="natural" v="water" />
		<tag k="ssr:stedsnr" v="253578" />
	</node>
	<node lat="62.16249166511264" lon="5.112286112447883" id="-81463">
		<tag k="name" v="Lakseelva" />
		<tag k="ssr:stedsnr" v="231012" />
		<tag k="waterway" v="river" />
	</node>
	<node lat="62.15420278077746" lon="5.1848638851572675" id="-81465">
		<tag k="name" v="Hamnaneset" />
		<tag k="natural" v="cape" />
		<tag k="ssr:stedsnr" v="231054" />
	</node>
	<node lat="61.9534888866457" lon="6.360447215136721" id="-81493">
		<tag k="name" v="Blekgrova" />
		<tag k="ssr:stedsnr" v="10902" />
		<tag k="waterway" v="stream" />
	</node>
	<node lat="62.09062777319327" lon="5.275008326472653" id="-81500">
		<tag k="name" v="Vassdalsvatnet" />
		<tag k="natural" v="water" />
		<tag k="ssr:stedsnr" v="11429" />
	</node>
	<node lat="62.004768994641914" lon="5.269703071333747" id="-81502">
		<tag k="name" v="Djupedalsvatnet" />
		<tag k="natural" v="water" />
		<tag k="ssr:stedsnr" v="11187" />
		<tag k="water" v="lake" />
	</node>
	<node lat="61.95628333268401" lon="5.37906666715897" id="-81536">
		<tag k="name" v="Osen" />
		<tag k="natural" v="bay" />
		<tag k="ssr:stedsnr" v="33567" />
	</node>
	<node lat="61.86605000066776" lon="6.224505559844527" id="-81540">
		<tag k="name" v="Bakkegrova" />
		<tag k="ssr:stedsnr" v="39883" />
		<tag k="waterway" v="stream" />
	</node>
	<node lat="61.86720833115762" lon="6.258563893742897" id="-81556">
		<tag k="name" v="Andalgrova" />
		<tag k="ssr:stedsnr" v="47210" />
		<tag k="waterway" v="stream" />
	</node>
	<node lat="61.89863888956668" lon="6.11527776938503" id="-81557">
		<tag k="name" v="Midtre Nymarkelva" />
		<tag k="ssr:stedsnr" v="47274" />
		<tag k="waterway" v="stream" />
	</node>
	<node lat="61.955788887294226" lon="5.955513882417727" id="-81578">
		<tag k="name" v="Krokane" />
		<tag k="natural" v="cape" />
		<tag k="ssr:stedsnr" v="47910" />
	</node>
	<node lat="61.860713884803154" lon="6.225369446724716" id="-81581">
		<tag k="name" v="Gjølåna" />
		<tag k="ssr:stedsnr" v="47807" />
		<tag k="waterway" v="river" />
	</node>
	<node lat="61.965190303843976" lon="5.299824635253719" id="-81585">
		<tag k="name" v="Kroken" />
		<tag k="natural" v="bay" />
		<tag k="ssr:stedsnr" v="238882" />
	</node>
	<node lat="62.01720555207231" lon="5.354777782456455" id="-81587">
		<tag k="name" v="Øygardselva" />
		<tag k="ssr:stedsnr" v="49869" />
		<tag k="waterway" v="river" />
	</node>
	<node lat="61.9579305532241" lon="6.370938883835847" id="-81611">
		<tag k="name" v="Svagrova" />
		<tag k="ssr:stedsnr" v="70886" />
		<tag k="waterway" v="stream" />
	</node>
	<node lat="62.11124444302784" lon="5.2624027717909" id="-81617">
		<tag k="name" v="Litlelidvatnet" />
		<tag k="natural" v="water" />
		<tag k="ssr:stedsnr" v="71428" />
		<tag k="water" v="lake" />
	</node>
	<node lat="61.94678888625412" lon="6.036838885822223" id="-81625">
		<tag k="name" v="Iglevatnet" />
		<tag k="natural" v="water" />
		<tag k="ssr:stedsnr" v="71568" />
	</node>
	<node lat="61.88099999673107" lon="6.14884999190673" id="-81632">
		<tag k="name" v="Kinna" />
		<tag k="natural" v="water" />
		<tag k="ssr:stedsnr" v="71684" />
	</node>
	<node lat="61.901944444377335" lon="6.323472219097121" id="-81640">
		<tag k="name" v="Geilavatnet" />
		<tag k="natural" v="water" />
		<tag k="ssr:stedsnr" v="71960" />
	</node>
	<node lat="61.91085277633004" lon="6.304941667145612" id="-81641">
		<tag k="name" v="Skredeelva" />
		<tag k="ssr:stedsnr" v="71978" />
		<tag k="waterway" v="stream" />
	</node>
	<node lat="62.0051555513719" lon="6.186527783639059" id="-81642">
		<tag k="name" v="Byrjevatnet" />
		<tag k="natural" v="water" />
		<tag k="ssr:stedsnr" v="71979" />
	</node>
	<node lat="61.90691944661098" lon="6.276511107317334" id="-81680">
		<tag k="name" v="Setregjølet" />
		<tag k="ssr:stedsnr" v="108069" />
		<tag k="waterway" v="stream" />
	</node>
	<node lat="61.96705833191552" lon="6.250041661634332" id="-81690">
		<tag k="name" v="Fagredalselva" />
		<tag k="ssr:stedsnr" v="108492" />
		<tag k="waterway" v="stream" />
	</node>
	<node lat="61.98699722487147" lon="5.3207666745320745" id="-81708">
		<tag k="name" v="Røyrneselva" />
		<tag k="ssr:stedsnr" v="110907" />
		<tag k="waterway" v="river" />
	</node>
	<node lat="62.013338893195865" lon="5.4081166676508" id="-81710">
		<tag k="name" v="Osen" />
		<tag k="natural" v="bay" />
		<tag k="ssr:stedsnr" v="110911" />
	</node>
	<node lat="62.13062948079485" lon="5.285567571083875" id="-81718">
		<tag k="name" v="Dalskarvatnet" />
		<tag k="natural" v="water" />
		<tag k="ssr:stedsnr" v="111177" />
		<tag k="water" v="lake" />
	</node>
	<node lat="62.10751944043328" lon="5.2401027794148005" id="-81719">
		<tag k="name" v="Elvagjølet" />
		<tag k="place" v="locality" />
		<tag k="ssr:stedsnr" v="111184" />
	</node>
	<node lat="61.96600278076271" lon="5.676138889213745" id="-81733">
		<tag k="name" v="Ljådalsvatnet" />
		<tag k="natural" v="water" />
		<tag k="ssr:stedsnr" v="252005" />
	</node>
	<node lat="61.964519446431325" lon="5.629786116728049" id="-81736">
		<tag k="name" v="Duevatnet" />
		<tag k="natural" v="water" />
		<tag k="ssr:stedsnr" v="252021" />
	</node>
	<node lat="61.94143055493983" lon="5.5899083408870105" id="-81752">
		<tag k="name" v="Fjellstøylgrova" />
		<tag k="ssr:stedsnr" v="131469" />
		<tag k="waterway" v="stream" />
	</node>
	<node lat="61.96245000395228" lon="6.214277771720702" id="-81753">
		<tag k="name" v="Løkane" />
		<tag k="natural" v="water" />
		<tag k="ssr:stedsnr" v="131475" />
	</node>
	<node lat="61.9599583377658" lon="6.116486113619248" id="-81755">
		<tag k="name" v="Bjørnavatnet" />
		<tag k="natural" v="water" />
		<tag k="ssr:stedsnr" v="131478" />
	</node>
	<node lat="61.88637500202779" lon="5.9384444413037984" id="-81760">
		<tag k="name" v="Langevatnet" />
		<tag k="natural" v="water" />
		<tag k="ssr:stedsnr" v="131609" />
	</node>
	<node lat="62.01062777348533" lon="5.268833337969873" id="-81778">
		<tag k="alt_name" v="Myklebustvatnet" />
		<tag k="name" v="Fjellvatnet" />
		<tag k="natural" v="water" />
		<tag k="ssr:stedsnr" v="132268" />
	</node>
	<node lat="61.986812487949834" lon="5.925933119251838" id="-81790">
		<tag k="name" v="Kringlevatnet" />
		<tag k="natural" v="water" />
		<tag k="ssr:stedsnr" v="253347" />
	</node>
	<node lat="61.94599722357185" lon="5.891944451451352" id="-81824">
		<tag k="name" v="Tangane" />
		<tag k="natural" v="cape" />
		<tag k="ssr:stedsnr" v="166328" />
	</node>
	<node lat="61.92913888513538" lon="6.357516660459818" id="-81851">
		<tag k="name" v="Rognesneset" />
		<tag k="natural" v="cape" />
		<tag k="ssr:stedsnr" v="168775" />
	</node>
	<node lat="61.96000278186682" lon="5.634802780610258" id="-81878">
		<tag k="name" v="Dueelva" />
		<tag k="ssr:stedsnr" v="192013" />
		<tag k="waterway" v="stream" />
	</node>
	<node lat="61.962163886360976" lon="5.401083324857206" id="-81888">
		<tag k="name" v="Tverrelva" />
		<tag k="ssr:stedsnr" v="215910" />
		<tag k="waterway" v="river" />
	</node>
	<node lat="61.94700555175674" lon="6.1361166627907435" id="-81903">
		<tag k="name" v="Oshammeren" />
		<tag k="natural" v="cape" />
		<tag k="ssr:stedsnr" v="229304" />
	</node>
	<node lat="61.92801666361106" lon="5.609444442683537" id="-81911">
		<tag k="name" v="Ervikelva" />
		<tag k="ssr:stedsnr" v="229231" />
		<tag k="waterway" v="stream" />
	</node>
	<node lat="61.86758333221304" lon="6.25164444526435" id="-81913">
		<tag k="name" v="Alvåna" />
		<tag k="ssr:stedsnr" v="229234" />
		<tag k="waterway" v="stream" />
	</node>
	<node lat="61.8978722225134" lon="6.199952772134159" id="-81914">
		<tag k="name" v="Maragjølelva" />
		<tag k="ssr:stedsnr" v="229236" />
		<tag k="waterway" v="river" />
	</node>
	<node lat="61.98467499611822" lon="6.19133888757384" id="-81916">
		<tag k="name" v="Movass-stranda" />
		<tag k="natural" v="beach" />
		<tag k="ssr:stedsnr" v="229299" />
	</node>
	<node lat="62.014952779392885" lon="5.451394440377193" id="-81952">
		<tag k="name" v="Monseidet" />
		<tag k="place" v="locality" />
		<tag k="ssr:stedsnr" v="232499" />
	</node>
	<node lat="61.97733562850049" lon="5.2925340562457945" id="-81953">
		<tag k="name" v="Sandviksvatnet" />
		<tag k="natural" v="water" />
		<tag k="ssr:stedsnr" v="232706" />
		<tag k="water" v="lake" />
	</node>
	<node lat="62.10815277745064" lon="5.302352774972263" id="-81958">
		<tag k="name" v="Kupeelva" />
		<tag k="ssr:stedsnr" v="232837" />
		<tag k="waterway" v="river" />
	</node>
	<node lat="61.89213611036099" lon="5.978327778248172" id="-81972">
		<tag k="name" v="Osvatnet" />
		<tag k="natural" v="water" />
		<tag k="ssr:stedsnr" v="253636" />
	</node>
	<node lat="61.88741944199086" lon="6.118975005732569" id="-81973">
		<tag k="name" v="Trollevatnet" />
		<tag k="natural" v="water" />
		<tag k="ssr:stedsnr" v="253639" />
	</node>
	<node lat="61.9614777763655" lon="6.370441661087361" id="-81984">
		<tag k="alt_name" v="Ystesvora" />
		<tag k="name" v="Ytste Svora" />
		<tag k="ssr:stedsnr" v="253905" />
		<tag k="waterway" v="stream" />
	</node>
	<node lat="61.95376388656103" lon="5.3746305521203235" id="-81993">
		<tag k="name" v="Lunnane" />
		<tag k="natural" v="bay" />
		<tag k="ssr:stedsnr" v="457474" />
	</node>
	<node lat="61.97819166473385" lon="6.165513896837409" id="-82024">
		<tag k="name" v="Småfossedalselva" />
		<tag k="ssr:stedsnr" v="290306" />
		<tag k="waterway" v="river" />
	</node>
	<node lat="61.915025001002256" lon="6.086011113275751" id="-82031">
		<tag k="name" v="Kviafossen" />
		<tag k="natural" v="waterfall" />
		<tag k="ssr:stedsnr" v="290703" />
	</node>
	<node lat="61.90894999937431" lon="6.036241669641225" id="-82039">
		<tag k="name" v="Litleelva" />
		<tag k="ssr:stedsnr" v="290997" />
		<tag k="waterway" v="stream" />
	</node>
	<node lat="62.15358888693751" lon="5.180524990973577" id="-82048">
		<tag k="name" v="Flåvika" />
		<tag k="natural" v="bay" />
		<tag k="ssr:stedsnr" v="292183" />
	</node>
	<node lat="61.959961107416746" lon="5.424455553959083" id="-82075">
		<tag k="name" v="Svartevatnet" />
		<tag k="natural" v="water" />
		<tag k="ssr:stedsnr" v="313822" />
	</node>
	<node lat="61.91778889180263" lon="6.450761115643174" id="-82078">
		<tag k="name" v="Vikaelva" />
		<tag k="ssr:stedsnr" v="313929" />
		<tag k="waterway" v="stream" />
	</node>
	<node lat="61.92688055762512" lon="6.406613883850059" id="-82079">
		<tag k="name" v="Holmøyelva" />
		<tag k="ssr:stedsnr" v="313933" />
		<tag k="waterway" v="stream" />
	</node>
	<node lat="61.918738888544844" lon="6.118202785562529" id="-82105">
		<tag k="name" v="Vedvikvågen" />
		<tag k="natural" v="bay" />
		<tag k="ssr:stedsnr" v="471284" />
	</node>
	<node lat="61.948427777787664" lon="6.134916666113298" id="-82107">
		<tag k="name" v="Osen" />
		<tag k="natural" v="bay" />
		<tag k="ssr:stedsnr" v="471296" />
	</node>
	<node lat="61.87607499746481" lon="6.119286103903002" id="-82111">
		<tag k="name" v="Stølselva" />
		<tag k="ssr:stedsnr" v="471340" />
		<tag k="waterway" v="stream" />
	</node>
	<node lat="61.97413333567399" lon="5.47920000306328" id="-82114">
		<tag k="name" v="Vassdalselva" />
		<tag k="ssr:stedsnr" v="336812" />
		<tag k="waterway" v="river" />
	</node>
	<node lat="61.916702782208766" lon="6.063883331630851" id="-82120">
		<tag k="name" v="Notahusneset" />
		<tag k="natural" v="cape" />
		<tag k="ssr:stedsnr" v="471748" />
	</node>
	<node lat="61.90106944308687" lon="6.22338888113914" id="-82126">
		<tag k="name" v="Hundsvaelva" />
		<tag k="ssr:stedsnr" v="472101" />
		<tag k="waterway" v="river" />
	</node>
	<node lat="61.93553055160265" lon="6.203672231445264" id="-82128">
		<tag k="name" v="Litlevasselva" />
		<tag k="ssr:stedsnr" v="472023" />
		<tag k="waterway" v="stream" />
	</node>
	<node lat="61.940444442804534" lon="6.161922224045314" id="-82136">
		<tag k="name" v="Lomtjørna" />
		<tag k="natural" v="water" />
		<tag k="ssr:stedsnr" v="472399" />
	</node>
	<node lat="61.953744440559525" lon="6.064919444472158" id="-82140">
		<tag k="name" v="Fagredalselva" />
		<tag k="ssr:stedsnr" v="472637" />
		<tag k="waterway" v="river" />
	</node>
	<node lat="61.914438887769876" lon="5.983772224670751" id="-82146">
		<tag k="name" v="Presteelva" />
		<tag k="ssr:stedsnr" v="342906" />
		<tag k="waterway" v="river" />
	</node>
	<node lat="61.899344443479045" lon="6.113061109617829" id="-82164">
		<tag k="name" v="Ytste Nymarkelva" />
		<tag k="ssr:stedsnr" v="350236" />
		<tag k="waterway" v="stream" />
	</node>
	<node lat="61.905022224165435" lon="6.207411103472731" id="-82167">
		<tag k="name" v="Litlegjølstranda" />
		<tag k="natural" v="beach" />
		<tag k="ssr:stedsnr" v="350103" />
	</node>
	<node lat="61.95176110783027" lon="6.231216673265271" id="-82173">
		<tag k="name" v="Langeneset" />
		<tag k="natural" v="cape" />
		<tag k="ssr:stedsnr" v="350458" />
	</node>
	<node lat="62.165869441518126" lon="5.179033340676249" id="-82203">
		<tag k="name" v="Ferstadelva" />
		<tag k="ssr:stedsnr" v="352057" />
		<tag k="waterway" v="river" />
	</node>
	<node lat="62.085968430218" lon="5.320899844171175" id="-82205">
		<tag k="name" v="Ytste Geithornsvatnet" />
		<tag k="natural" v="water" />
		<tag k="ssr:stedsnr" v="352757" />
		<tag k="water" v="lake" />
	</node>
	<node lat="62.00153889213186" lon="5.398522227047198" id="-82221">
		<tag k="name" v="Lyngneset" />
		<tag k="natural" v="cape" />
		<tag k="ssr:stedsnr" v="474633" />
	</node>
	<node lat="62.00960000052878" lon="5.404580559752573" id="-82232">
		<tag k="name" v="Berstadelva" />
		<tag k="ssr:stedsnr" v="474899" />
		<tag k="waterway" v="river" />
	</node>
	<node lat="62.01281389254832" lon="5.393947226665634" id="-82233">
		<tag k="name" v="Øyarelva" />
		<tag k="ssr:stedsnr" v="474901" />
		<tag k="waterway" v="river" />
	</node>
	<node lat="62.08063888530405" lon="5.394758339316159" id="-82242">
		<tag k="name" v="Rekevikelva" />
		<tag k="ssr:stedsnr" v="474999" />
		<tag k="waterway" v="river" />
	</node>
	<node lat="62.059722226548786" lon="5.42984167113322" id="-82243">
		<tag k="alt_name" v="Årsheimelva" />
		<tag k="name" v="Årsheimselva" />
		<tag k="ssr:stedsnr" v="474943" />
		<tag k="waterway" v="river" />
	</node>
	<node lat="61.923116668053126" lon="5.985141663202941" id="-82271">
		<tag k="name" v="Kiselva" />
		<tag k="ssr:stedsnr" v="374541" />
		<tag k="waterway" v="stream" />
	</node>
	<node lat="61.951727774772024" lon="5.8347361132960875" id="-82292">
		<tag k="name" v="Litleelva" />
		<tag k="ssr:stedsnr" v="391533" />
		<tag k="waterway" v="stream" />
	</node>
	<node lat="61.93988055491239" lon="6.4244249921006595" id="-82308">
		<tag k="name" v="Storevika" />
		<tag k="natural" v="bay" />
		<tag k="ssr:stedsnr" v="411051" />
	</node>
	<node lat="61.864477780111315" lon="6.229058334653321" id="-82358">
		<tag k="name" v="Sæelva" />
		<tag k="ssr:stedsnr" v="435075" />
		<tag k="waterway" v="stream" />
	</node>
	<node lat="61.90809166338089" lon="6.201849996510328" id="-82373">
		<tag k="name" v="Fureneset" />
		<tag k="natural" v="cape" />
		<tag k="ssr:stedsnr" v="435610" />
	</node>
	<node lat="61.89891111455218" lon="6.229141659601818" id="-82383">
		<tag k="name" v="Furerindelva" />
		<tag k="ssr:stedsnr" v="435958" />
		<tag k="waterway" v="stream" />
	</node>
	<node lat="62.05895555475906" lon="5.398491671898459" id="-82387">
		<tag k="name" v="Sandvikseidet" />
		<tag k="place" v="locality" />
		<tag k="ssr:stedsnr" v="436294" />
	</node>
	<node lat="61.92661110790921" lon="6.3545166578985155" id="-82412">
		<tag k="name" v="Indre Fossaelva" />
		<tag k="ssr:stedsnr" v="472206" />
		<tag k="waterway" v="stream" />
	</node>
	<node lat="61.943427776969244" lon="6.332752785067025" id="-82413">
		<tag k="name" v="Skavika" />
		<tag k="natural" v="bay" />
		<tag k="ssr:stedsnr" v="472211" />
	</node>
	<node lat="61.954475002164834" lon="6.220994443325782" id="-82418">
		<tag k="name" v="Stegelva" />
		<tag k="ssr:stedsnr" v="472417" />
		<tag k="waterway" v="stream" />
	</node>
	<node lat="61.968263892598465" lon="6.2434055566603925" id="-82419">
		<tag k="name" v="Budaleelva" />
		<tag k="ssr:stedsnr" v="472460" />
		<tag k="waterway" v="stream" />
	</node>
	<node lat="62.04509519195947" lon="5.392581098740742" id="-82438">
		<tag k="name" v="Store Kjellkrokevatnet" />
		<tag k="natural" v="water" />
		<tag k="ssr:stedsnr" v="474902" />
		<tag k="water" v="lake" />
	</node>
	<node lat="62.040647224613174" lon="5.3604111162315755" id="-82441">
		<tag k="name" v="Hamreelva" />
		<tag k="ssr:stedsnr" v="474914" />
		<tag k="waterway" v="river" />
	</node>
	<node lat="61.96343332937813" lon="5.784011104558132" id="-82443">
		<tag k="name" v="Bauvatnet" />
		<tag k="natural" v="water" />
		<tag k="ssr:stedsnr" v="677011" />
	</node>
	<node lat="61.98282499656172" lon="5.879100007264403" id="-82450">
		<tag k="name" v="Støvelsvatnet" />
		<tag k="natural" v="water" />
		<tag k="ssr:stedsnr" v="677275" />
	</node>
	<node lat="61.93922777377384" lon="5.633277777924364" id="-82454">
		<tag k="name" v="Bera" />
		<tag k="ssr:stedsnr" v="677489" />
		<tag k="waterway" v="stream" />
	</node>
	<node lat="61.94974166707397" lon="5.866283339218573" id="-82455">
		<tag k="name" v="Bakkeelva" />
		<tag k="ssr:stedsnr" v="677492" />
		<tag k="waterway" v="stream" />
	</node>
	<node lat="61.885877774046975" lon="5.954050008033115" id="-82464">
		<tag k="name" v="Kringlevatnet" />
		<tag k="natural" v="water" />
		<tag k="ssr:stedsnr" v="677620" />
	</node>
	<node lat="62.00755000200958" lon="5.402141669574704" id="-82476">
		<tag k="name" v="Storelva" />
		<tag k="ssr:stedsnr" v="678159" />
		<tag k="waterway" v="stream" />
	</node>
	<node lat="62.097619443144026" lon="5.262644441742816" id="-82485">
		<tag k="name" v="Myrevatnet" />
		<tag k="natural" v="water" />
		<tag k="ssr:stedsnr" v="678460" />
	</node>
	<node lat="62.11156389147923" lon="5.173572230446085" id="-82487">
		<tag k="name" v="Skinavatnet" />
		<tag k="natural" v="water" />
		<tag k="ssr:stedsnr" v="678667" />
	</node>
	<node lat="61.96648333021684" lon="5.478902771108097" id="-82491">
		<tag k="name" v="Vassdalsvatnet" />
		<tag k="natural" v="water" />
		<tag k="ssr:stedsnr" v="495034" />
		<tag k="water" v="lake" />
	</node>
	<node lat="61.96864999622523" lon="5.504850005440302" id="-82492">
		<tag k="name" v="Trovatnet" />
		<tag k="natural" v="water" />
		<tag k="ssr:stedsnr" v="495037" />
	</node>
	<node lat="61.94111388680312" lon="5.569188888678115" id="-82502">
		<tag k="name" v="Liagrøvene" />
		<tag k="ssr:stedsnr" v="495482" />
		<tag k="waterway" v="stream" />
	</node>
	<node lat="61.97246111313715" lon="6.4116361103716475" id="-82507">
		<tag k="alt_name" v="Heimste Svora" />
		<tag k="name" v="Heimstesvora" />
		<tag k="ssr:stedsnr" v="495858" />
		<tag k="waterway" v="stream" />
	</node>
	<node lat="62.015788888385075" lon="5.387019446809555" id="-82514">
		<tag k="name" v="Hatlenesvatnet" />
		<tag k="natural" v="water" />
		<tag k="ssr:stedsnr" v="496307" />
	</node>
	<node lat="62.16089421028028" lon="5.133127735765732" id="-82523">
		<tag k="alt_name" v="Ervikvatnet" />
		<tag k="name" v="Storevatnet" />
		<tag k="natural" v="water" />
		<tag k="ssr:stedsnr" v="496703" />
		<tag k="water" v="lake" />
	</node>
	<node lat="61.91325555840558" lon="5.853066670742926" id="-82538">
		<tag k="name" v="Årosen" />
		<tag k="natural" v="bay" />
		<tag k="ssr:stedsnr" v="530109" />
	</node>
	<node lat="61.95784166775041" lon="5.67626666457381" id="-82558">
		<tag k="name" v="Holeelva" />
		<tag k="ssr:stedsnr" v="532390" />
		<tag k="waterway" v="stream" />
	</node>
	<node lat="61.94446944321415" lon="6.245627785428388" id="-82561">
		<tag k="name" v="Gamlesagløken" />
		<tag k="natural" v="water" />
		<tag k="ssr:stedsnr" v="532405" />
	</node>
	<node lat="61.96979444781557" lon="5.975877785935578" id="-82569">
		<tag k="name" v="Setreelva" />
		<tag k="ssr:stedsnr" v="532826" />
		<tag k="waterway" v="stream" />
	</node>
	<node lat="61.895525002522824" lon="5.971386103145264" id="-82598">
		<tag k="alt_name" v="Kvernaelva" />
		<tag k="name" v="Kvernhuselva" />
		<tag k="ssr:stedsnr" v="555564" />
		<tag k="waterway" v="stream" />
	</node>
	<node lat="62.03839999790224" lon="5.463638894622169" id="-82603">
		<tag k="name" v="Kvamsvatnet" />
		<tag k="natural" v="water" />
		<tag k="ssr:stedsnr" v="556304" />
	</node>
	<node lat="61.94384444451406" lon="6.165833338829431" id="-82615">
		<tag k="name" v="Villevatnet" />
		<tag k="natural" v="water" />
		<tag k="ssr:stedsnr" v="556576" />
	</node>
	<node lat="61.946072219530016" lon="5.362902774793018" id="-82629">
		<tag k="name" v="Løkaneset" />
		<tag k="natural" v="cape" />
		<tag k="ssr:stedsnr" v="578441" />
	</node>
	<node lat="61.94564166459493" lon="5.468052786594843" id="-82636">
		<tag k="name" v="Maurstadelva" />
		<tag k="ssr:stedsnr" v="579795" />
		<tag k="waterway" v="river" />
	</node>
	<node lat="61.94981666506181" lon="5.6840472307492185" id="-82642">
		<tag k="name" v="Myrafossen" />
		<tag k="natural" v="waterfall" />
		<tag k="ssr:stedsnr" v="592068" />
	</node>
	<node lat="61.90550555677856" lon="6.202036103966773" id="-82643">
		<tag k="name" v="Kviagrova" />
		<tag k="ssr:stedsnr" v="593119" />
		<tag k="waterway" v="stream" />
	</node>
	<node lat="61.9342481600988" lon="5.282827661119085" id="-82661">
		<tag k="name" v="Koppevatnet" />
		<tag k="natural" v="water" />
		<tag k="ssr:stedsnr" v="595754" />
		<tag k="water" v="lake" />
	</node>
	<node lat="62.08917452849371" lon="5.284976170641526" id="-82686">
		<tag k="name" v="Libervatnet" />
		<tag k="natural" v="water" />
		<tag k="ssr:stedsnr" v="717835" />
		<tag k="water" v="lake" />
	</node>
	<node lat="61.961352779896565" lon="5.697963885724331" id="-82687">
		<tag k="name" v="Langevatnet" />
		<tag k="natural" v="water" />
		<tag k="ssr:stedsnr" v="616008" />
	</node>
	<node lat="61.9410166644096" lon="5.738936103572236" id="-82700">
		<tag k="name" v="Tverrelva" />
		<tag k="ssr:stedsnr" v="616850" />
		<tag k="waterway" v="stream" />
	</node>
	<node lat="61.952597225923924" lon="5.450277780119098" id="-82727">
		<tag k="name" v="Noraelva" />
		<tag k="ssr:stedsnr" v="639776" />
		<tag k="waterway" v="river" />
	</node>
	<node lat="61.89792499584434" lon="6.116888887438278" id="-82745">
		<tag k="name" v="Inste Nymarkelva" />
		<tag k="ssr:stedsnr" v="653243" />
		<tag k="waterway" v="stream" />
	</node>
	<node lat="61.95212499818868" lon="5.732833332180265" id="-82760">
		<tag k="name" v="Løken" />
		<tag k="ssr:stedsnr" v="653988" />
		<tag k="waterway" v="stream" />
	</node>
	<node lat="61.954499997176555" lon="5.737863885935191" id="-82761">
		<tag k="name" v="Stille" />
		<tag k="ssr:stedsnr" v="653991" />
		<tag k="waterway" v="river" />
	</node>
	<node lat="61.907019441197804" lon="6.280672227216329" id="-82765">
		<tag k="name" v="Skafjellgjølet" />
		<tag k="ssr:stedsnr" v="654051" />
		<tag k="waterway" v="stream" />
	</node>
	<node lat="62.15950899815045" lon="5.134752996282165" id="-82782">
		<tag k="name" v="Holmestadneset" />
		<tag k="natural" v="cape" />
		<tag k="ssr:stedsnr" v="656038" />
	</node>
	<node lat="62.04233333172395" lon="5.471441667774273" id="-82791">
		<tag k="name" v="Kvamselva" />
		<tag k="ssr:stedsnr" v="656583" />
		<tag k="waterway" v="river" />
	</node>
	<node lat="62.07794167058797" lon="5.393113883845494" id="-82799">
		<tag k="name" v="Stigelva" />
		<tag k="ssr:stedsnr" v="656985" />
		<tag k="waterway" v="river" />
	</node>
	<node lat="61.94628055603754" lon="6.028324998432894" id="-82812">
		<tag k="name" v="Litlevatnet" />
		<tag k="natural" v="water" />
		<tag k="ssr:stedsnr" v="677510" />
	</node>
	<node lat="61.938213890069626" lon="6.042019438285454" id="-82814">
		<tag k="name" v="Stampelva" />
		<tag k="ssr:stedsnr" v="677513" />
		<tag k="waterway" v="stream" />
	</node>
	<node lat="61.98256389155766" lon="6.254255556001869" id="-82821">
		<tag k="name" v="Møreelva" />
		<tag k="ssr:stedsnr" v="677836" />
		<tag k="waterway" v="stream" />
	</node>
	<node lat="61.92686944524248" lon="6.384183332147079" id="-82826">
		<tag k="name" v="Såta" />
		<tag k="ssr:stedsnr" v="677929" />
		<tag k="waterway" v="stream" />
	</node>
	<node lat="62.00923611295502" lon="5.27718611054252" id="-82827">
		<tag k="name" v="Måseelva" />
		<tag k="ssr:stedsnr" v="678214" />
		<tag k="waterway" v="stream" />
	</node>
	<node lat="62.16005426397753" lon="5.113433273420308" id="-82834">
		<tag k="name" v="Litlevatnet" />
		<tag k="natural" v="water" />
		<tag k="ssr:stedsnr" v="678690" />
	</node>
	<node lat="61.932836115030554" lon="5.84696944471702" id="-82843">
		<tag k="name" v="Tjørne" />
		<tag k="natural" v="water" />
		<tag k="ssr:stedsnr" v="894393" />
	</node>
	<node lat="61.9825694568104" lon="5.482556036887779" id="-82854">
		<tag k="name" v="Øvre Mevatnet" />
		<tag k="natural" v="water" />
		<tag k="ssr:stedsnr" v="700812" />
		<tag k="water" v="lake" />
	</node>
	<node lat="61.90937222580974" lon="6.2825583366832465" id="-82866">
		<tag k="name" v="Skredestranda" />
		<tag k="natural" v="beach" />
		<tag k="ssr:stedsnr" v="897068" />
	</node>
	<node lat="61.94824444504909" lon="6.31945833313336" id="-82869">
		<tag k="name" v="Grimselva" />
		<tag k="ssr:stedsnr" v="897133" />
		<tag k="waterway" v="stream" />
	</node>
	<node lat="61.92135833627621" lon="6.180900005701119" id="-82870">
		<tag k="name" v="Inste Lindvikstranda" />
		<tag k="natural" v="beach" />
		<tag k="ssr:stedsnr" v="897097" />
	</node>
	<node lat="61.91946666294968" lon="5.885130553262252" id="-82871">
		<tag k="name" v="Åsetjørna" />
		<tag k="natural" v="water" />
		<tag k="ssr:stedsnr" v="897225" />
	</node>
	<node lat="61.926794443383095" lon="5.581022230741397" id="-82877">
		<tag k="name" v="Hauselva" />
		<tag k="ssr:stedsnr" v="897236" />
		<tag k="waterway" v="river" />
	</node>
	<node lat="61.911205558612345" lon="6.033355562723794" id="-82903">
		<tag k="name" v="Sanden" />
		<tag k="natural" v="cape" />
		<tag k="ssr:stedsnr" v="897988" />
	</node>
	<node lat="61.947924996678154" lon="5.691616676201083" id="-82905">
		<tag k="name" v="Svartevasselva" />
		<tag k="ssr:stedsnr" v="897991" />
		<tag k="waterway" v="stream" />
	</node>
	<node lat="61.87565277712153" lon="6.088158326404668" id="-82920">
		<tag k="name" v="Flåtegrova" />
		<tag k="ssr:stedsnr" v="714689" />
		<tag k="waterway" v="stream" />
	</node>
	<node lat="61.89646389139531" lon="5.950388891225845" id="-82938">
		<tag k="name" v="Takloelva" />
		<tag k="ssr:stedsnr" v="715834" />
		<tag k="waterway" v="stream" />
	</node>
	<node lat="61.995280727674064" lon="5.417687173080723" id="-82964">
		<tag k="name" v="Kasstuvatnet" />
		<tag k="natural" v="water" />
		<tag k="ssr:stedsnr" v="899629" />
		<tag k="water" v="lake" />
	</node>
	<node lat="62.05396168853034" lon="5.381858147378127" id="-82973">
		<tag k="name" v="Orrevatnet" />
		<tag k="natural" v="water" />
		<tag k="ssr:stedsnr" v="899956" />
		<tag k="water" v="lake" />
	</node>
	<node lat="61.94186111268136" lon="5.299252774216362" id="-83016">
		<tag k="alt_name" v="Pollavatnet" />
		<tag k="name" v="Nordpollvatnet" />
		<tag k="natural" v="water" />
		<tag k="ssr:stedsnr" v="738826" />
	</node>
	<node lat="62.081791663335764" lon="5.339419450867092" id="-83020">
		<tag k="name" v="Hestevatnet" />
		<tag k="natural" v="water" />
		<tag k="ssr:stedsnr" v="739410" />
	</node>
	<node lat="62.05204166776607" lon="5.390847220963095" id="-83022">
		<tag k="name" v="Kopevatnet" />
		<tag k="natural" v="water" />
		<tag k="ssr:stedsnr" v="739357" />
	</node>
	<node lat="62.14022777825084" lon="5.214794449507075" id="-83026">
		<tag k="name" v="Sætrevatnet" />
		<tag k="natural" v="water" />
		<tag k="ssr:stedsnr" v="739711" />
		<tag k="water" v="lake" />
	</node>
	<node lat="61.9063555589831" lon="6.181233332544908" id="-83061">
		<tag k="name" v="Skaugsetstranda" />
		<tag k="natural" v="beach" />
		<tag k="ssr:stedsnr" v="775001" />
	</node>
	<node lat="61.91627499559135" lon="6.114149995728073" id="-83065">
		<tag k="name" v="Årvikneset" />
		<tag k="natural" v="cape" />
		<tag k="ssr:stedsnr" v="775270" />
	</node>
	<node lat="62.162198275826825" lon="5.266903838294186" id="-83099">
		<tag k="name" v="Demningevatnet" />
		<tag k="natural" v="water" />
		<tag k="ssr:stedsnr" v="778214" />
		<tag k="water" v="lake" />
	</node>
	<node lat="62.05593888566184" lon="5.461252771954044" id="-83100">
		<tag k="name" v="Stokkeneselva" />
		<tag k="ssr:stedsnr" v="778578" />
		<tag k="waterway" v="river" />
	</node>
	<node lat="62.029774996972655" lon="5.443805556499834" id="-83117">
		<tag k="alt_name" v="Krokevatna" />
		<tag k="name" v="Krokvatnet" />
		<tag k="natural" v="water" />
		<tag k="ssr:stedsnr" v="799315" />
	</node>
	<node lat="62.1535833296101" lon="5.246036117200604" id="-83126">
		<tag k="name" v="Nykkevatnet" />
		<tag k="natural" v="water" />
		<tag k="ssr:stedsnr" v="799545" />
	</node>
	<node lat="61.94522500234118" lon="5.697208330878845" id="-83129">
		<tag k="name" v="Svartevatnet" />
		<tag k="natural" v="water" />
		<tag k="ssr:stedsnr" v="799491" />
	</node>
	<node lat="61.95876389192344" lon="6.333966660971835" id="-83134">
		<tag k="name" v="Holmevatnet" />
		<tag k="natural" v="water" />
		<tag k="ssr:stedsnr" v="799914" />
		<tag k="water" v="lake" />
	</node>
	<node lat="62.13767221937233" lon="5.239616657862744" id="-83139">
		<tag k="name" v="Sætreelva" />
		<tag k="ssr:stedsnr" v="800433" />
		<tag k="waterway" v="stream" />
	</node>
	<node lat="62.07368408903034" lon="5.378292582119377" id="-83143">
		<tag k="name" v="Grøtnipevatnet" />
		<tag k="natural" v="water" />
		<tag k="ssr:stedsnr" v="800320" />
	</node>
	<node lat="61.98165161606913" lon="5.481690089497227" id="-83154">
		<tag k="name" v="Mevatna" />
		<tag k="natural" v="water" />
		<tag k="ssr:stedsnr" v="816309" />
		<tag k="water" v="lake" />
	</node>
	<node lat="61.97842777457649" lon="5.923274999303322" id="-83157">
		<tag k="name" v="Storeggvatnet" />
		<tag k="natural" v="water" />
		<tag k="ssr:stedsnr" v="920245" />
	</node>
	<node lat="61.88586995362452" lon="5.9486220852695" id="-83162">
		<tag k="alt_name" v="Måsevatnet" />
		<tag k="name" v="Mosevatnet" />
		<tag k="natural" v="water" />
		<tag k="ssr:stedsnr" v="920610" />
	</node>
	<node lat="61.8894694426568" lon="6.184991661326655" id="-83164">
		<tag k="name" v="Gammeleirikaugo" />
		<tag k="place" v="locality" />
		<tag k="ssr:stedsnr" v="920628" />
	</node>
	<node lat="61.92651667032455" lon="5.325166660152987" id="-83183">
		<tag k="name" v="Blankevatnet" />
		<tag k="natural" v="water" />
		<tag k="ssr:stedsnr" v="822965" />
		<tag k="water" v="lake" />
	</node>
	<node lat="62.052512231041554" lon="5.3602266131511715" id="-83193">
		<tag k="alt_name" v="Kvernhusdalsvatnet" />
		<tag k="name" v="Kvernhusdalsvatna" />
		<tag k="natural" v="water" />
		<tag k="ssr:stedsnr" v="921403" />
		<tag k="water" v="lake" />
	</node>
	<node lat="61.86682500052623" lon="6.10309166973285" id="-83219">
		<tag k="name" v="Lotsbergelva" />
		<tag k="ssr:stedsnr" v="836705" />
		<tag k="waterway" v="river" />
	</node>
	<node lat="61.87457777591583" lon="6.103519438876401" id="-83220">
		<tag k="name" v="Fesseelva" />
		<tag k="ssr:stedsnr" v="836707" />
		<tag k="waterway" v="stream" />
	</node>
	<node lat="62.09712222489739" lon="5.354691672859527" id="-83247">
		<tag k="name" v="Strandaelva" />
		<tag k="ssr:stedsnr" v="839811" />
		<tag k="waterway" v="river" />
	</node>
	<node lat="61.9630527818806" lon="5.501116662161055" id="-83250">
		<tag k="name" v="Haugvatnet" />
		<tag k="natural" v="water" />
		<tag k="ssr:stedsnr" v="859017" />
	</node>
	<node lat="61.933294440653434" lon="5.832236112143584" id="-83253">
		<tag k="name" v="Slettebøvatnet" />
		<tag k="natural" v="water" />
		<tag k="ssr:stedsnr" v="859423" />
	</node>
	<node lat="61.93525277980335" lon="6.399880557605612" id="-83259">
		<tag k="alt_name" v="Neset" />
		<tag k="name" v="Holmøyneset" />
		<tag k="natural" v="cape" />
		<tag k="ssr:stedsnr" v="859904" />
	</node>
	<node lat="61.99492499773576" lon="6.194916667618616" id="-83265">
		<tag k="name" v="Tuvatnet" />
		<tag k="natural" v="water" />
		<tag k="ssr:stedsnr" v="860366" />
	</node>
	<node lat="62.169263891458115" lon="5.264983341902042" id="-83268">
		<tag k="name" v="Bogelva" />
		<tag k="ssr:stedsnr" v="860556" />
		<tag k="waterway" v="stream" />
	</node>
	<node lat="61.8855500042608" lon="5.957774992189453" id="-83279">
		<tag k="name" v="Blomvatnet" />
		<tag k="natural" v="water" />
		<tag k="ssr:stedsnr" v="860664" />
	</node>
	<node lat="62.071030552837826" lon="5.4001444425415075" id="-83287">
		<tag k="alt_name" v="Kvernhuselva" />
		<tag k="name" v="Litleelva" />
		<tag k="ssr:stedsnr" v="861309" />
		<tag k="waterway" v="stream" />
	</node>
	<node lat="62.07402777978107" lon="5.395477776990441" id="-83288">
		<tag k="alt_name" v="Stølselva" />
		<tag k="name" v="Støylselva" />
		<tag k="ssr:stedsnr" v="861310" />
		<tag k="waterway" v="stream" />
	</node>
	<node lat="61.94450833427918" lon="5.446702771904163" id="-83304">
		<tag k="name" v="Norafossen" />
		<tag k="natural" v="waterfall" />
		<tag k="ssr:stedsnr" v="883821" />
	</node>
	<node lat="61.923494447183735" lon="6.34666665889747" id="-83322">
		<tag k="name" v="Mellomgropa" />
		<tag k="ssr:stedsnr" v="897207" />
		<tag k="waterway" v="stream" />
	</node>
	<node lat="61.91672500092926" lon="6.125730550885027" id="-83330">
		<tag k="name" v="Løken" />
		<tag k="natural" v="water" />
		<tag k="ssr:stedsnr" v="897291" />
		<tag k="water" v="lake" />
	</node>
	<node lat="62.16043219667361" lon="5.134025624320593" id="-83342">
		<tag k="name" v="Storholmen" />
		<tag k="place" v="islet" />
		<tag k="ssr:stedsnr" v="899064" />
	</node>
	<node lat="61.996877779722396" lon="5.399197212662373" id="-83344">
		<tag k="name" v="Fureneset" />
		<tag k="natural" v="cape" />
		<tag k="ssr:stedsnr" v="899617" />
	</node>
	<node lat="61.98865833254699" lon="5.903561110163768" id="-83360">
		<tag k="name" v="Tjuvavatnet" />
		<tag k="natural" v="water" />
		<tag k="ssr:stedsnr" v="920291" />
	</node>
	<node lat="61.97181111320133" lon="5.42638888273457" id="-83369">
		<tag k="name" v="Svartevatnet" />
		<tag k="natural" v="water" />
		<tag k="ssr:stedsnr" v="920784" />
	</node>
	<node lat="61.92224722403445" lon="6.326402781948148" id="-83377">
		<tag k="name" v="Kongeneset" />
		<tag k="natural" v="cape" />
		<tag k="ssr:stedsnr" v="920913" />
	</node>
	<node lat="61.99726830639599" lon="5.395240244509329" id="-83380">
		<tag k="name" v="Berstadvatnet" />
		<tag k="natural" v="water" />
		<tag k="ssr:stedsnr" v="920889" />
		<tag k="water" v="lake" />
	</node>
	<node lat="62.14533888573652" lon="5.2762138820011995" id="-83388">
		<tag k="name" v="Kupevatnet" />
		<tag k="natural" v="water" />
		<tag k="ssr:stedsnr" v="921485" />
	</node>
	<node lat="62.10703610240062" lon="5.206310050326354" id="-83389">
		<tag k="alt_name" v="Geitnestjerna" />
		<tag k="name" v="Geitnestjørna" />
		<tag k="natural" v="water" />
		<tag k="ssr:stedsnr" v="921687" />
	</node>
	<node lat="61.91612500431156" lon="6.1052472183743784" id="-83409">
		<tag k="name" v="Trollestøa" />
		<tag k="natural" v="bay" />
		<tag k="ssr:stedsnr" v="957739" />
	</node>
	<node lat="62.04333897876528" lon="5.418851192896957" id="-83426">
		<tag k="name" v="Store Heiavatnet" />
		<tag k="natural" v="water" />
		<tag k="ssr:stedsnr" v="959904" />
		<tag k="water" v="lake" />
	</node>
	<node lat="62.06754722557849" lon="5.4196222166112875" id="-83430">
		<tag k="name" v="Sanddvikelva" />
		<tag k="ssr:stedsnr" v="959933" />
		<tag k="waterway" v="river" />
	</node>
	<node lat="62.07123888875021" lon="5.410916657479653" id="-83436">
		<tag k="name" v="Litleelva" />
		<tag k="natural" v="water" />
		<tag k="ssr:stedsnr" v="959987" />
		<tag k="water" v="lake" />
	</node>
	<node lat="61.90829444360128" lon="6.282997222262934" id="-83504">
		<tag k="name" v="Kolefonna" />
		<tag k="ssr:stedsnr" v="229067" />
		<tag k="waterway" v="stream" />
	</node>
	<node lat="61.96439166837534" lon="5.872011111821097" id="-83505">
		<tag k="name" v="Nesbakkelva" />
		<tag k="ssr:stedsnr" v="10255" />
		<tag k="waterway" v="stream" />
	</node>
	<node lat="61.91866666611903" lon="5.859047218946729" id="-83509">
		<tag k="alt_name" v="Naustdalselva" />
		<tag k="name" v="Hjalma" />
		<tag k="ssr:stedsnr" v="10266" />
		<tag k="waterway" v="river" />
	</node>
	<node lat="61.92873056003355" lon="6.159805558229006" id="-83521">
		<tag k="name" v="Skarvatnet" />
		<tag k="natural" v="water" />
		<tag k="ssr:stedsnr" v="10565" />
	</node>
	<node lat="62.062005553518084" lon="5.403780549414872" id="-83528">
		<tag k="name" v="Storelva" />
		<tag k="ssr:stedsnr" v="11308" />
		<tag k="waterway" v="stream" />
	</node>
	<node lat="61.96601389142159" lon="5.509058339399193" id="-83551">
		<tag k="name" v="Movasselva" />
		<tag k="ssr:stedsnr" v="33498" />
		<tag k="waterway" v="river" />
	</node>
	<node lat="61.97260046313741" lon="5.393010209635006" id="-83555">
		<tag k="name" v="Juvvatnet" />
		<tag k="natural" v="water" />
		<tag k="ssr:stedsnr" v="33766" />
		<tag k="water" v="lake" />
	</node>
	<node lat="61.95274444817004" lon="5.677950006716254" id="-83582">
		<tag k="name" v="Svarteelva" />
		<tag k="ssr:stedsnr" v="46068" />
		<tag k="waterway" v="stream" />
	</node>
	<node lat="61.903747223732175" lon="6.138833333627733" id="-83590">
		<tag k="name" v="Kvernhuselva" />
		<tag k="ssr:stedsnr" v="47286" />
		<tag k="waterway" v="stream" />
	</node>
	<node lat="61.90604722207761" lon="6.004999997204124" id="-83598">
		<tag k="name" v="Øya" />
		<tag k="natural" v="cape" />
		<tag k="ssr:stedsnr" v="47522" />
	</node>
	<node lat="61.8842277777323" lon="5.942300004061241" id="-83606">
		<tag k="name" v="Lomvatnet" />
		<tag k="natural" v="water" />
		<tag k="ssr:stedsnr" v="47835" />
	</node>
	<node lat="61.94202222517712" lon="6.262055564266321" id="-83621">
		<tag k="name" v="Heielva" />
		<tag k="ssr:stedsnr" v="47966" />
		<tag k="waterway" v="stream" />
	</node>
	<node lat="61.924561106967495" lon="6.347374995105634" id="-83623">
		<tag k="name" v="Fyrstegropa" />
		<tag k="ssr:stedsnr" v="229227" />
		<tag k="waterway" v="stream" />
	</node>
	<node lat="62.1547416700694" lon="5.1792083409440135" id="-83629">
		<tag k="name" v="Ferstadlegeneset" />
		<tag k="natural" v="cape" />
		<tag k="ssr:stedsnr" v="49057" />
	</node>
	<node lat="62.084945738344935" lon="5.328120349908294" id="-83637">
		<tag k="name" v="Inste Geithornsvatnet" />
		<tag k="natural" v="water" />
		<tag k="ssr:stedsnr" v="49785" />
		<tag k="water" v="lake" />
	</node>
	<node lat="62.05508422701011" lon="5.348821653081402" id="-83641">
		<tag k="name" v="Grytingselva" />
		<tag k="natural" v="water" />
		<tag k="ssr:stedsnr" v="49955" />
		<tag k="water" v="lake" />
	</node>
	<node lat="62.02250833660284" lon="5.432552773138331" id="-83647">
		<tag k="name" v="Røyrdalselva" />
		<tag k="ssr:stedsnr" v="49898" />
		<tag k="waterway" v="river" />
	</node>
	<node lat="62.04717239685306" lon="5.388990722754829" id="-83648">
		<tag k="name" v="Vesle Kjellkrokevatnet" />
		<tag k="natural" v="water" />
		<tag k="ssr:stedsnr" v="49910" />
		<tag k="water" v="lake" />
	</node>
	<node lat="62.14462500237377" lon="5.208355549219708" id="-83649">
		<tag k="name" v="Dyrneset" />
		<tag k="natural" v="cape" />
		<tag k="ssr:stedsnr" v="50129" />
	</node>
	<node lat="61.95559999907875" lon="5.504069451932908" id="-83671">
		<tag k="name" v="Klenevatnet" />
		<tag k="natural" v="water" />
		<tag k="ssr:stedsnr" v="70003" />
	</node>
	<node lat="61.95746110904281" lon="5.486950006050578" id="-83672">
		<tag k="name" v="Navevatnet" />
		<tag k="natural" v="water" />
		<tag k="ssr:stedsnr" v="70005" />
	</node>
	<node lat="61.9755944436148" lon="5.859866669514315" id="-83689">
		<tag k="loc_name" v="Holmevatnet" />
		<tag k="name" v="Vardevatnet" />
		<tag k="natural" v="water" />
		<tag k="ssr:stedsnr" v="71334" />
	</node>
	<node lat="61.89070000379024" lon="5.962499993507772" id="-83698">
		<tag k="name" v="Svartevatnet" />
		<tag k="natural" v="water" />
		<tag k="ssr:stedsnr" v="71652" />
	</node>
	<node lat="61.99631111493241" lon="6.2216500071558265" id="-83703">
		<tag k="name" v="Rokkevatnet" />
		<tag k="natural" v="water" />
		<tag k="ssr:stedsnr" v="71854" />
	</node>
	<node lat="61.95668889282955" lon="6.223369446012851" id="-83707">
		<tag k="name" v="Strupen" />
		<tag k="ssr:stedsnr" v="229431" />
		<tag k="waterway" v="river" />
	</node>
	<node lat="61.98006111107993" lon="5.4836138854720655" id="-83716">
		<tag k="name" v="Nedre Mevatnet" />
		<tag k="natural" v="water" />
		<tag k="ssr:stedsnr" v="93154" />
		<tag k="water" v="lake" />
	</node>
	<node lat="61.95688610707787" lon="5.375897216735263" id="-83717">
		<tag k="name" v="Ospeneset" />
		<tag k="natural" v="cape" />
		<tag k="ssr:stedsnr" v="93431" />
	</node>
	<node lat="61.91296389148316" lon="5.3253638884408945" id="-83718">
		<tag k="name" v="Kroketjørna" />
		<tag k="natural" v="water" />
		<tag k="ssr:stedsnr" v="93531" />
	</node>
	<node lat="61.95016111462541" lon="5.487044453178067" id="-83719">
		<tag k="name" v="Tverrelva" />
		<tag k="ssr:stedsnr" v="93730" />
		<tag k="waterway" v="river" />
	</node>
	<node lat="61.93263333364521" lon="5.47460833351395" id="-83722">
		<tag k="name" v="Åsnestjørna" />
		<tag k="natural" v="water" />
		<tag k="ssr:stedsnr" v="93754" />
	</node>
	<node lat="61.93254166785524" lon="5.823949992167861" id="-83730">
		<tag k="name" v="Vasselva" />
		<tag k="ssr:stedsnr" v="105061" />
		<tag k="waterway" v="river" />
	</node>
	<node lat="61.93168611386586" lon="5.892027782645078" id="-83732">
		<tag k="name" v="Tverrelva" />
		<tag k="ssr:stedsnr" v="106151" />
		<tag k="waterway" v="stream" />
	</node>
	<node lat="61.86485555834194" lon="6.229388890930354" id="-83738">
		<tag k="name" v="Katlafossen" />
		<tag k="natural" v="waterfall" />
		<tag k="ssr:stedsnr" v="107865" />
	</node>
	<node lat="61.93726944517972" lon="6.423997214651463" id="-83750">
		<tag k="name" v="Geilvika" />
		<tag k="natural" v="bay" />
		<tag k="ssr:stedsnr" v="108050" />
	</node>
	<node lat="61.91591944665018" lon="6.135808331749279" id="-83757">
		<tag k="name" v="Skjeret" />
		<tag k="natural" v="cape" />
		<tag k="ssr:stedsnr" v="108299" />
	</node>
	<node lat="61.89228888959058" lon="5.909869443557421" id="-83776">
		<tag k="name" v="Vetlevatnet" />
		<tag k="natural" v="water" />
		<tag k="ssr:stedsnr" v="108768" />
	</node>
	<node lat="61.9703833295974" lon="5.954497216780318" id="-83780">
		<tag k="name" v="Kjendalselva" />
		<tag k="ssr:stedsnr" v="108935" />
		<tag k="waterway" v="river" />
	</node>
	<node lat="62.144241670737614" lon="5.147772228697406" id="-83790">
		<tag k="name" v="Bakarfossen" />
		<tag k="natural" v="waterfall" />
		<tag k="ssr:stedsnr" v="110191" />
	</node>
	<node lat="61.99186666564722" lon="5.386086112562074" id="-83792">
		<tag k="name" v="Botneneset" />
		<tag k="natural" v="cape" />
		<tag k="ssr:stedsnr" v="110646" />
	</node>
	<node lat="62.05586944543344" lon="5.402352775957359" id="-83796">
		<tag k="name" v="Løkelva" />
		<tag k="ssr:stedsnr" v="110943" />
		<tag k="waterway" v="river" />
	</node>
	<node lat="62.14172500249359" lon="5.22180833639618" id="-83809">
		<tag k="name" v="Kvasseneset" />
		<tag k="natural" v="cape" />
		<tag k="ssr:stedsnr" v="111144" />
	</node>
	<node lat="62.04890555942694" lon="5.465822229237249" id="-83842">
		<tag k="name" v="Litlevatnet" />
		<tag k="natural" v="water" />
		<tag k="ssr:stedsnr" v="131258" />
	</node>
	<node lat="61.943597218900955" lon="6.464591669351828" id="-83862">
		<tag k="alt_name" v="Abbelholmen" />
		<tag k="name" v="Abelholmen" />
		<tag k="place" v="islet" />
		<tag k="ssr:stedsnr" v="131945" />
	</node>
	<node lat="61.91577777805345" lon="5.671997220052018" id="-83892">
		<tag k="name" v="Reksneselva" />
		<tag k="ssr:stedsnr" v="160897" />
		<tag k="waterway" v="river" />
	</node>
	<node lat="61.89512777573582" lon="5.870108328877822" id="-83905">
		<tag k="name" v="Storelva" />
		<tag k="ssr:stedsnr" v="168871" />
		<tag k="waterway" v="stream" />
	</node>
	<node lat="61.8959972207143" lon="5.843624997180026" id="-83919">
		<tag k="name" v="Fosselva" />
		<tag k="ssr:stedsnr" v="168154" />
		<tag k="waterway" v="stream" />
	</node>
	<node lat="61.87456944354544" lon="5.827619453220477" id="-83923">
		<tag k="name" v="Daleelva" />
		<tag k="ssr:stedsnr" v="168220" />
		<tag k="waterway" v="stream" />
	</node>
	<node lat="61.90137777654908" lon="5.992772215658538" id="-83928">
		<tag k="name" v="Storøya" />
		<tag k="place" v="island" />
		<tag k="ssr:stedsnr" v="168527" />
	</node>
	<node lat="61.912780557392566" lon="6.029774993103304" id="-83942">
		<tag k="name" v="Fåhølsfoss" />
		<tag k="natural" v="waterfall" />
		<tag k="ssr:stedsnr" v="168992" />
	</node>
	<node lat="61.974786108116106" lon="5.352813881758871" id="-83969">
		<tag k="name" v="Tverrfossen" />
		<tag k="natural" v="waterfall" />
		<tag k="ssr:stedsnr" v="171626" />
	</node>
	<node lat="61.958425000887395" lon="6.009016662078758" id="-83989">
		<tag k="name" v="Svartevatnet" />
		<tag k="natural" v="water" />
		<tag k="ssr:stedsnr" v="192299" />
	</node>
	<node lat="61.869241663779846" lon="5.825502782019291" id="-84000">
		<tag k="name" v="Sørevatnet" />
		<tag k="natural" v="water" />
		<tag k="ssr:stedsnr" v="192379" />
	</node>
	<node lat="61.94931666279499" lon="5.584166676572372" id="-84016">
		<tag k="fixme" v="multiple name tags, choose one and add the other to alt_name" />
		<tag k="name" v="Hausvatnet;Storevatnet" />
		<tag k="natural" v="water" />
		<tag k="ssr:stedsnr" v="192505" />
		<tag k="water" v="lake" />
	</node>
	<node lat="61.93610833390703" lon="5.5443305572774335" id="-84019">
		<tag k="name" v="Djupevatnet" />
		<tag k="natural" v="water" />
		<tag k="ssr:stedsnr" v="192516" />
	</node>
	<node lat="61.9273166684484" lon="6.285194445135928" id="-84024">
		<tag k="alt_name" v="Horninsdalsvatnet" />
		<tag k="name" v="Hornindalsvatnet" />
		<tag k="natural" v="water" />
		<tag k="ssr:stedsnr" v="192617" />
		<tag k="water" v="lake" />
	</node>
	<node lat="61.97222222203846" lon="6.400033340516355" id="-84043">
		<tag k="name" v="Fonna" />
		<tag k="ssr:stedsnr" v="192870" />
		<tag k="waterway" v="stream" />
	</node>
	<node lat="62.07020555120017" lon="5.379533335657119" id="-84054">
		<tag k="name" v="Tarvaldsdalsvatnet" />
		<tag k="natural" v="water" />
		<tag k="ssr:stedsnr" v="193349" />
	</node>
	<node lat="61.961572226005075" lon="5.500502784604417" id="-84078">
		<tag k="name" v="Rakeneset" />
		<tag k="natural" v="cape" />
		<tag k="ssr:stedsnr" v="215833" />
	</node>
	<node lat="61.95693055727043" lon="5.824925002828984" id="-84099">
		<tag k="name" v="Botnaelva" />
		<tag k="ssr:stedsnr" v="227309" />
		<tag k="waterway" v="river" />
	</node>
	<node lat="61.940314295357574" lon="5.383432415385832" id="-84109">
		<tag k="name" v="Holevatnet" />
		<tag k="natural" v="water" />
		<tag k="ssr:stedsnr" v="275977" />
		<tag k="water" v="lake" />
	</node>
	<node lat="61.990930551915206" lon="6.164661113951588" id="-84113">
		<tag k="name" v="Rannegrøelva" />
		<tag k="ssr:stedsnr" v="286645" />
		<tag k="waterway" v="stream" />
	</node>
	<node lat="61.92679722072628" lon="5.885927770339211" id="-84117">
		<tag k="name" v="Krokane" />
		<tag k="natural" v="cape" />
		<tag k="ssr:stedsnr" v="288153" />
	</node>
	<node lat="61.934233329123835" lon="6.218602780844055" id="-84122">
		<tag k="name" v="Botnaelva" />
		<tag k="ssr:stedsnr" v="290036" />
		<tag k="waterway" v="stream" />
	</node>
	<node lat="62.162092562701346" lon="5.1363774530446324" id="-84161">
		<tag k="name" v="Mågeneset" />
		<tag k="natural" v="cape" />
		<tag k="ssr:stedsnr" v="292051" />
	</node>
	<node lat="61.95717500077645" lon="5.911241674943975" id="-84199">
		<tag k="name" v="Daleelva" />
		<tag k="ssr:stedsnr" v="313257" />
		<tag k="waterway" v="stream" />
	</node>
	<node lat="61.997969449018285" lon="6.243011119533433" id="-84208">
		<tag k="name" v="Hattevatnet" />
		<tag k="natural" v="water" />
		<tag k="ssr:stedsnr" v="313859" />
	</node>
	<node lat="61.88279444211823" lon="6.200683333249437" id="-84210">
		<tag k="name" v="Svartevatnet" />
		<tag k="natural" v="water" />
		<tag k="ssr:stedsnr" v="313639" />
	</node>
	<node lat="61.86281944845896" lon="6.137725002511411" id="-84212">
		<tag k="name" v="Kjeavatnet" />
		<tag k="natural" v="water" />
		<tag k="ssr:stedsnr" v="313656" />
	</node>
	<node lat="61.924397221569244" lon="6.3638138798930814" id="-84219">
		<tag k="alt_name" v="Kvernhuselva" />
		<tag k="name" v="Rogneselva" />
		<tag k="ssr:stedsnr" v="313975" />
		<tag k="waterway" v="stream" />
	</node>
	<node lat="62.15471389158049" lon="5.185911102521788" id="-84227">
		<tag k="name" v="Dalsbøvatnet" />
		<tag k="natural" v="water" />
		<tag k="ssr:stedsnr" v="314692" />
		<tag k="water" v="lake" />
	</node>
	<node lat="61.968922222414854" lon="5.483658342730204" id="-84239">
		<tag k="name" v="Vassdalsstranda" />
		<tag k="natural" v="beach" />
		<tag k="ssr:stedsnr" v="336838" />
	</node>
	<node lat="61.952452780311006" lon="5.386244443080417" id="-84247">
		<tag k="name" v="Megardselva" />
		<tag k="ssr:stedsnr" v="337898" />
		<tag k="waterway" v="river" />
	</node>
	<node lat="61.948794444356835" lon="5.400261118961958" id="-84248">
		<tag k="name" v="Rimstadelva" />
		<tag k="ssr:stedsnr" v="337924" />
		<tag k="waterway" v="river" />
	</node>
	<node lat="61.94662222121871" lon="6.356863894102099" id="-84266">
		<tag k="name" v="Bjørnabykset" />
		<tag k="natural" v="cape" />
		<tag k="ssr:stedsnr" v="350175" />
	</node>
	<node lat="61.89594444565432" lon="5.832355551253832" id="-84267">
		<tag k="name" v="Gjølelva" />
		<tag k="ssr:stedsnr" v="350177" />
		<tag k="waterway" v="stream" />
	</node>
	<node lat="61.92606111059281" lon="6.35303889555301" id="-84270">
		<tag k="name" v="Ytre Fossaelva" />
		<tag k="ssr:stedsnr" v="350196" />
		<tag k="waterway" v="stream" />
	</node>
	<node lat="61.94009722496053" lon="6.4176944388046815" id="-84271">
		<tag k="name" v="Litlefurholmen" />
		<tag k="place" v="islet" />
		<tag k="ssr:stedsnr" v="350046" />
	</node>
	<node lat="61.98396388643332" lon="6.190372214453963" id="-84276">
		<tag k="name" v="Skorevika" />
		<tag k="natural" v="bay" />
		<tag k="ssr:stedsnr" v="350264" />
	</node>
	<node lat="61.91724999994412" lon="6.047480558100021" id="-84309">
		<tag k="name" v="Storegjølet" />
		<tag k="natural" v="cape" />
		<tag k="ssr:stedsnr" v="350996" />
	</node>
	<node lat="61.96085555885902" lon="5.305772230320909" id="-84324">
		<tag k="name" v="Kvernevikelva" />
		<tag k="ssr:stedsnr" v="352749" />
		<tag k="waterway" v="river" />
	</node>
	<node lat="61.93418333570227" lon="5.313572216832372" id="-84351">
		<tag k="name" v="Kattavatnet" />
		<tag k="natural" v="water" />
		<tag k="ssr:stedsnr" v="373240" />
	</node>
	<node lat="61.97120555982474" lon="5.989591670063771" id="-84364">
		<tag k="name" v="Grovelva" />
		<tag k="ssr:stedsnr" v="374280" />
		<tag k="waterway" v="stream" />
	</node>
	<node lat="61.98503611346939" lon="6.181866665068399" id="-84367">
		<tag k="alt_name" v="Movatn" />
		<tag k="name" v="Movatnet" />
		<tag k="natural" v="water" />
		<tag k="ssr:stedsnr" v="374334" />
		<tag k="water" v="lake" />
	</node>
	<node lat="61.938336106565515" lon="6.087883324726103" id="-84371">
		<tag k="name" v="Løken" />
		<tag k="place" v="locality" />
		<tag k="ssr:stedsnr" v="374513" />
	</node>
	<node lat="61.92692499987197" lon="5.941513888227338" id="-84372">
		<tag k="alt_name" v="Gautevatn" />
		<tag k="name" v="Gautevatnet" />
		<tag k="natural" v="water" />
		<tag k="ssr:stedsnr" v="374514" />
	</node>
	<node lat="61.8858421945818" lon="6.1876252035395" id="-84379">
		<tag k="name" v="Maragjølvatna" />
		<tag k="natural" v="water" />
		<tag k="ssr:stedsnr" v="374612" />
		<tag k="water" v="lake" />
	</node>
	<node lat="61.88091666898477" lon="6.206502776492104" id="-84380">
		<tag k="name" v="Kyrkjesteinvatnet" />
		<tag k="natural" v="water" />
		<tag k="ssr:stedsnr" v="374614" />
	</node>
	<node lat="62.119738890016514" lon="5.273755556286099" id="-84381">
		<tag k="name" v="Stavselva" />
		<tag k="ssr:stedsnr" v="374458" />
		<tag k="waterway" v="stream" />
	</node>
	<node lat="61.89908333209507" lon="6.052141664927182" id="-84386">
		<tag k="name" v="Bjørlovatnet" />
		<tag k="natural" v="water" />
		<tag k="ssr:stedsnr" v="374579" />
	</node>
	<node lat="61.9760777800681" lon="5.385325002710066" id="-84397">
		<tag k="name" v="Fiskevatnet" />
		<tag k="natural" v="water" />
		<tag k="ssr:stedsnr" v="374789" />
	</node>
	<node lat="62.05967500329785" lon="5.39126387970825" id="-84402">
		<tag k="name" v="Vassdalsvatnet" />
		<tag k="natural" v="water" />
		<tag k="ssr:stedsnr" v="375288" />
	</node>
	<node lat="62.1973666686945" lon="5.220202768812716" id="-84407">
		<tag k="name" v="Hestevatnet" />
		<tag k="natural" v="water" />
		<tag k="ssr:stedsnr" v="375550" />
	</node>
	<node lat="61.923406779310284" lon="5.355712754601141" id="-84429">
		<tag k="name" v="Raftevikvatnet" />
		<tag k="natural" v="water" />
		<tag k="ssr:stedsnr" v="397953" />
		<tag k="water" v="lake" />
	</node>
	<node lat="61.9637388880387" lon="6.372191660681124" id="-84456">
		<tag k="name" v="Inste Svora" />
		<tag k="ssr:stedsnr" v="411201" />
		<tag k="waterway" v="stream" />
	</node>
	<node lat="61.91631110775667" lon="6.0539722301822945" id="-84474">
		<tag k="name" v="Pineneset" />
		<tag k="natural" v="cape" />
		<tag k="ssr:stedsnr" v="411728" />
	</node>
	<node lat="61.96155833207434" lon="5.71691665948097" id="-84490">
		<tag k="name" v="Frobergselva" />
		<tag k="ssr:stedsnr" v="411971" />
		<tag k="waterway" v="stream" />
	</node>
	<node lat="62.157438884584785" lon="5.187038893582932" id="-84492">
		<tag k="name" v="Storeneset" />
		<tag k="natural" v="cape" />
		<tag k="ssr:stedsnr" v="413032" />
	</node>
	<node lat="62.10273888943691" lon="5.143730555529665" id="-84497">
		<tag k="name" v="Ryrskelva" />
		<tag k="ssr:stedsnr" v="414249" />
		<tag k="waterway" v="river" />
	</node>
	<node lat="62.08484167085056" lon="5.385597225271873" id="-84511">
		<tag k="name" v="Trollgjølelva" />
		<tag k="ssr:stedsnr" v="413982" />
		<tag k="waterway" v="river" />
	</node>
	<node lat="61.979252773604046" lon="5.317261106229718" id="-84525">
		<tag k="name" v="Flisterelva" />
		<tag k="ssr:stedsnr" v="414728" />
		<tag k="waterway" v="river" />
	</node>
	<node lat="61.94110833417197" lon="6.468363896794255" id="-84553">
		<tag k="name" v="Bjørnaholmen" />
		<tag k="place" v="islet" />
		<tag k="ssr:stedsnr" v="435952" />
	</node>
	<node lat="61.973975000150766" lon="5.877330558034251" id="-84556">
		<tag k="name" v="Kloveelva" />
		<tag k="ssr:stedsnr" v="435346" />
		<tag k="waterway" v="stream" />
	</node>
	<node lat="61.88578610745294" lon="5.831861102623673" id="-84560">
		<tag k="name" v="Nonsvatnet" />
		<tag k="natural" v="water" />
		<tag k="ssr:stedsnr" v="435458" />
	</node>
	<node lat="61.951436112591345" lon="6.070808340322984" id="-84563">
		<tag k="name" v="Holmen" />
		<tag k="place" v="islet" />
		<tag k="ssr:stedsnr" v="435533" />
	</node>
	<node lat="61.980707052180506" lon="5.908488795666056" id="-84579">
		<tag k="name" v="Blåfjellvatnet" />
		<tag k="natural" v="water" />
		<tag k="ssr:stedsnr" v="435856" />
	</node>
	<node lat="61.94766666975353" lon="6.029258323947957" id="-84591">
		<tag k="name" v="Storevatnet" />
		<tag k="natural" v="water" />
		<tag k="ssr:stedsnr" v="495499" />
	</node>
	<node lat="61.97739721826148" lon="5.420386107347989" id="-84602">
		<tag k="name" v="Storevatnet" />
		<tag k="natural" v="water" />
		<tag k="ssr:stedsnr" v="495775" />
	</node>
	<node lat="62.132450000004624" lon="5.2604805465718485" id="-84610">
		<tag k="name" v="Morkavatnet" />
		<tag k="natural" v="water" />
		<tag k="ssr:stedsnr" v="496509" />
	</node>
	<node lat="61.954369448695" lon="5.485491656950107" id="-84620">
		<tag k="name" v="Naveosen" />
		<tag k="natural" v="bay" />
		<tag k="ssr:stedsnr" v="518781" />
	</node>
	<node lat="61.939510830190656" lon="5.425602656782898" id="-84623">
		<tag k="name" v="Hessvikvatnet" />
		<tag k="natural" v="water" />
		<tag k="ssr:stedsnr" v="518988" />
		<tag k="water" v="lake" />
	</node>
	<node lat="61.9592555560308" lon="5.842124999290918" id="-84633">
		<tag k="name" v="Hovdegrova" />
		<tag k="ssr:stedsnr" v="530332" />
		<tag k="waterway" v="stream" />
	</node>
	<node lat="61.89698055691968" lon="5.792522230992801" id="-84634">
		<tag k="name" v="Storelva" />
		<tag k="ssr:stedsnr" v="530532" />
		<tag k="waterway" v="stream" />
	</node>
	<node lat="61.911577781550534" lon="6.113411108183292" id="-84635">
		<tag k="name" v="Gangstøa" />
		<tag k="natural" v="bay" />
		<tag k="ssr:stedsnr" v="532246" />
	</node>
	<node lat="61.91078055651155" lon="6.11516111996527" id="-84651">
		<tag k="name" v="Bakkeneset" />
		<tag k="natural" v="cape" />
		<tag k="ssr:stedsnr" v="532249" />
	</node>
	<node lat="61.96205277432134" lon="5.938172218905984" id="-84664">
		<tag k="name" v="Fosseholtgrova" />
		<tag k="ssr:stedsnr" v="532902" />
		<tag k="waterway" v="stream" />
	</node>
	<node lat="61.91572778095199" lon="6.051113892179111" id="-84671">
		<tag k="name" v="Storeneset" />
		<tag k="natural" v="cape" />
		<tag k="ssr:stedsnr" v="532996" />
	</node>
	<node lat="61.928197220614464" lon="5.351897229147664" id="-84712">
		<tag k="name" v="Totlandselva" />
		<tag k="ssr:stedsnr" v="555190" />
		<tag k="waterway" v="stream" />
	</node>
	<node lat="61.89484444292909" lon="5.929466671187985" id="-84717">
		<tag k="alt_name" v="Strandaelva" />
		<tag k="name" v="Strandelva" />
		<tag k="ssr:stedsnr" v="555553" />
		<tag k="waterway" v="stream" />
	</node>
	<node lat="61.88597222084676" lon="6.253191663206748" id="-84722">
		<tag k="name" v="Svartevatnet" />
		<tag k="natural" v="water" />
		<tag k="ssr:stedsnr" v="555974" />
	</node>
	<node lat="61.962427777313195" lon="6.009330554243876" id="-84724">
		<tag k="name" v="Langevatnet" />
		<tag k="natural" v="water" />
		<tag k="ssr:stedsnr" v="556338" />
	</node>
	<node lat="61.97974166389006" lon="5.889705556388821" id="-84730">
		<tag k="name" v="Klovevatnet" />
		<tag k="natural" v="water" />
		<tag k="ssr:stedsnr" v="556360" />
	</node>
	<node lat="62.02543055692977" lon="5.464952775920904" id="-84731">
		<tag k="name" v="Otnesvatnet" />
		<tag k="natural" v="water" />
		<tag k="ssr:stedsnr" v="556368" />
	</node>
	<node lat="62.136947224305416" lon="5.286633335473269" id="-84734">
		<tag k="name" v="Oklavatnet" />
		<tag k="natural" v="water" />
		<tag k="ssr:stedsnr" v="556482" />
	</node>
	<node lat="62.130893883130014" lon="5.23564795682746" id="-84741">
		<tag k="alt_name" v="Skjeljevatnet" />
		<tag k="name" v="Skjeljevatna" />
		<tag k="natural" v="water" />
		<tag k="ssr:stedsnr" v="557463" />
		<tag k="water" v="lake" />
	</node>
	<node lat="61.9526333339272" lon="5.633902780225611" id="-84744">
		<tag k="name" v="Gjeddalsvatnet" />
		<tag k="natural" v="water" />
		<tag k="ssr:stedsnr" v="556511" />
	</node>
	<node lat="61.95695000367441" lon="5.753016673644937" id="-84745">
		<tag k="name" v="Botnavatnet" />
		<tag k="natural" v="water" />
		<tag k="ssr:stedsnr" v="556515" />
	</node>
	<node lat="61.925444440264414" lon="5.909663882517109" id="-84765">
		<tag k="name" v="Sjurslielva" />
		<tag k="ssr:stedsnr" v="572476" />
		<tag k="waterway" v="stream" />
	</node>
	<node lat="61.93163333209791" lon="5.814550007122917" id="-84773">
		<tag k="alt_name" v="Nygårdselva" />
		<tag k="name" v="Nygardselva" />
		<tag k="ssr:stedsnr" v="590046" />
		<tag k="waterway" v="river" />
	</node>
	<node lat="61.93180555799187" lon="5.515358333408093" id="-84778">
		<tag k="name" v="Tjørna" />
		<tag k="natural" v="water" />
		<tag k="ssr:stedsnr" v="590445" />
	</node>
	<node lat="61.928905551756884" lon="5.542555559862295" id="-84780">
		<tag k="name" v="Svagrova" />
		<tag k="ssr:stedsnr" v="591383" />
		<tag k="waterway" v="stream" />
	</node>
	<node lat="61.8895250006764" lon="5.82945834123492" id="-84787">
		<tag k="name" v="Tverrelva" />
		<tag k="ssr:stedsnr" v="593197" />
		<tag k="waterway" v="stream" />
	</node>
	<node lat="61.94683888895793" lon="6.166744451211594" id="-84789">
		<tag k="name" v="Sendegrøtet" />
		<tag k="natural" v="cape" />
		<tag k="ssr:stedsnr" v="593281" />
	</node>
	<node lat="61.944627778868124" lon="6.137941675318176" id="-84790">
		<tag k="name" v="Lianeset" />
		<tag k="natural" v="cape" />
		<tag k="ssr:stedsnr" v="593287" />
	</node>
	<node lat="61.93126388648506" lon="6.385658342086547" id="-84811">
		<tag k="name" v="Litleneset" />
		<tag k="natural" v="cape" />
		<tag k="ssr:stedsnr" v="593744" />
	</node>
	<node lat="61.877838888929226" lon="5.989372214571917" id="-84817">
		<tag k="name" v="Rumpeelva" />
		<tag k="ssr:stedsnr" v="593770" />
		<tag k="waterway" v="stream" />
	</node>
	<node lat="61.95749999736626" lon="5.968261103470465" id="-84821">
		<tag k="name" v="Tangane" />
		<tag k="natural" v="cape" />
		<tag k="ssr:stedsnr" v="593892" />
	</node>
	<node lat="61.91362778044775" lon="6.041141659787286" id="-84825">
		<tag k="name" v="Hildeneset" />
		<tag k="natural" v="cape" />
		<tag k="ssr:stedsnr" v="593988" />
	</node>
	<node lat="61.993249996256694" lon="5.393336110787281" id="-84830">
		<tag k="name" v="Legeneset" />
		<tag k="natural" v="cape" />
		<tag k="ssr:stedsnr" v="595598" />
	</node>
	<node lat="62.06606944308393" lon="5.338788885455987" id="-84835">
		<tag k="name" v="Lisetelva" />
		<tag k="ssr:stedsnr" v="595983" />
		<tag k="waterway" v="stream" />
	</node>
	<node lat="61.96858888847676" lon="5.356922216604829" id="-84879">
		<tag k="name" v="Krokedalsvatnet" />
		<tag k="natural" v="water" />
		<tag k="ssr:stedsnr" v="616784" />
	</node>
	<node lat="61.979258202667694" lon="6.289035604276411" id="-84881">
		<tag k="alt_name" v="Grønedalsvatnet" />
		<tag k="name" v="Grøndalsvatnet" />
		<tag k="natural" v="water" />
		<tag k="ssr:stedsnr" v="616870" />
		<tag k="water" v="lake" />
	</node>
	<node lat="61.915441668735" lon="6.398647224097294" id="-84884">
		<tag k="name" v="Kvanndalsvatnet" />
		<tag k="natural" v="water" />
		<tag k="ssr:stedsnr" v="616965" />
	</node>
	<node lat="62.16392499650418" lon="5.150808341331028" id="-84886">
		<tag k="name" v="Storelva" />
		<tag k="ssr:stedsnr" v="617155" />
		<tag k="waterway" v="river" />
	</node>
	<node lat="61.87336111299193" lon="6.094688881163208" id="-84890">
		<tag k="alt_name" v="Saelva" />
		<tag k="name" v="Sagelva" />
		<tag k="ssr:stedsnr" v="617644" />
		<tag k="waterway" v="stream" />
	</node>
	<node lat="62.20459166355529" lon="5.19293054678092" id="-84909">
		<tag k="name" v="Storevatnet" />
		<tag k="natural" v="water" />
		<tag k="ssr:stedsnr" v="617769" />
	</node>
	<node lat="61.92274444434953" lon="5.3578138830517625" id="-84929">
		<tag k="name" v="Løypet" />
		<tag k="ssr:stedsnr" v="640952" />
		<tag k="waterway" v="stream" />
	</node>
	<node lat="61.9600888913762" lon="6.136358338840906" id="-84951">
		<tag k="name" v="Øyra" />
		<tag k="natural" v="cape" />
		<tag k="ssr:stedsnr" v="653286" />
	</node>
	<node lat="61.91498333765705" lon="6.323097214280308" id="-84957">
		<tag k="name" v="Skakkegrova" />
		<tag k="ssr:stedsnr" v="653824" />
		<tag k="waterway" v="stream" />
	</node>
	<node lat="61.96299722340381" lon="5.867408332029218" id="-84961">
		<tag k="name" v="Tverrelva" />
		<tag k="ssr:stedsnr" v="653670" />
		<tag k="waterway" v="river" />
	</node>
	<node lat="61.92528055588792" lon="6.085013883236051" id="-84964">
		<tag k="name" v="Leivdøla" />
		<tag k="ssr:stedsnr" v="653753" />
		<tag k="waterway" v="river" />
	</node>
	<node lat="61.906719448440434" lon="6.270511104486567" id="-84968">
		<tag k="name" v="Hoplandstøa" />
		<tag k="natural" v="beach" />
		<tag k="ssr:stedsnr" v="654055" />
	</node>
	<node lat="61.934408331462144" lon="5.804441675342144" id="-84970">
		<tag k="name" v="Krokagrova" />
		<tag k="ssr:stedsnr" v="653925" />
		<tag k="waterway" v="stream" />
	</node>
	<node lat="61.96403055347826" lon="6.283877778533692" id="-84983">
		<tag k="name" v="Raudgrøtselva" />
		<tag k="ssr:stedsnr" v="654481" />
		<tag k="waterway" v="river" />
	</node>
	<node lat="62.05504167031544" lon="5.371122220803213" id="-85014">
		<tag k="name" v="Orrehola" />
		<tag k="place" v="locality" />
		<tag k="ssr:stedsnr" v="656948" />
	</node>
	<node lat="61.876291669684804" lon="5.981094440364653" id="-85041">
		<tag k="name" v="Ystemarkgrova" />
		<tag k="ssr:stedsnr" v="714820" />
		<tag k="waterway" v="stream" />
	</node>
	<node lat="61.912072221374956" lon="6.106580551901274" id="-85042">
		<tag k="name" v="Nykkjevatnet" />
		<tag k="natural" v="water" />
		<tag k="ssr:stedsnr" v="714705" />
	</node>
	<node lat="61.94157499935222" lon="5.78240556107987" id="-85045">
		<tag k="name" v="Skarevatnet" />
		<tag k="natural" v="water" />
		<tag k="ssr:stedsnr" v="714948" />
		<tag k="water" v="lake" />
	</node>
	<node lat="61.92226111072349" lon="6.446697215968367" id="-85046">
		<tag k="name" v="Lidaelva" />
		<tag k="ssr:stedsnr" v="715044" />
		<tag k="waterway" v="river" />
	</node>
	<node lat="61.9134388879342" lon="6.03813333774945" id="-85063">
		<tag k="name" v="Øyrane" />
		<tag k="natural" v="cape" />
		<tag k="ssr:stedsnr" v="715988" />
	</node>
	<node lat="61.912219442937364" lon="6.03289721470218" id="-85064">
		<tag k="name" v="Lamøya" />
		<tag k="natural" v="cape" />
		<tag k="ssr:stedsnr" v="715995" />
	</node>
	<node lat="62.013822221965576" lon="5.499238885614992" id="-85078">
		<tag k="alt_name" v="Skorge-elva" />
		<tag k="name" v="Skorgeelva" />
		<tag k="ssr:stedsnr" v="717547" />
		<tag k="waterway" v="river" />
	</node>
	<node lat="62.06762672817907" lon="5.376029405916493" id="-85092">
		<tag k="name" v="Tarvaldsvatnet" />
		<tag k="natural" v="water" />
		<tag k="ssr:stedsnr" v="717968" />
		<tag k="water" v="lake" />
	</node>
	<node lat="62.104005556701225" lon="5.24730277981471" id="-85097">
		<tag k="name" v="Myreelva" />
		<tag k="ssr:stedsnr" v="717845" />
		<tag k="waterway" v="river" />
	</node>
	<node lat="61.87518610921304" lon="6.239755555330369" id="-85109">
		<tag k="name" v="Stølselva" />
		<tag k="ssr:stedsnr" v="738040" />
		<tag k="waterway" v="stream" />
	</node>
	<node lat="61.939488890847436" lon="6.410749994608955" id="-85141">
		<tag k="name" v="Langholmen" />
		<tag k="place" v="islet" />
		<tag k="ssr:stedsnr" v="738938" />
	</node>
	<node lat="61.97295555303174" lon="5.361233332041275" id="-85145">
		<tag k="name" v="Tverrfossevatnet" />
		<tag k="natural" v="water" />
		<tag k="ssr:stedsnr" v="738791" />
	</node>
	<node lat="61.970680557978696" lon="6.3877583259692345" id="-85146">
		<tag k="name" v="Storeelva" />
		<tag k="ssr:stedsnr" v="738870" />
		<tag k="waterway" v="stream" />
	</node>
	<node lat="62.06553888717084" lon="5.356950006905024" id="-85152">
		<tag k="alt_name" v="Lisetelva" />
		<tag k="name" v="Tarvaldselva" />
		<tag k="ssr:stedsnr" v="739311" />
		<tag k="waterway" v="river" />
	</node>
	<node lat="62.16997777634906" lon="5.210861113695953" id="-85163">
		<tag k="name" v="Sævatnet" />
		<tag k="natural" v="water" />
		<tag k="ssr:stedsnr" v="739698" />
	</node>
	<node lat="61.94930555825073" lon="5.490641662911252" id="-85168">
		<tag k="name" v="Fossen" />
		<tag k="natural" v="waterfall" />
		<tag k="ssr:stedsnr" v="761827" />
	</node>
	<node lat="61.94977499593707" lon="5.532788893960865" id="-85175">
		<tag k="alt_name" v="Seterelva" />
		<tag k="name" v="Sæterelva" />
		<tag k="ssr:stedsnr" v="772482" />
		<tag k="waterway" v="river" />
	</node>
	<node lat="61.93293055145386" lon="6.196322222920132" id="-85185">
		<tag k="name" v="Knutesvaelva" />
		<tag k="ssr:stedsnr" v="775027" />
		<tag k="waterway" v="river" />
	</node>
	<node lat="61.91808611420413" lon="6.2138027739427" id="-85194">
		<tag k="name" v="Hamnen" />
		<tag k="natural" v="bay" />
		<tag k="ssr:stedsnr" v="775092" />
	</node>
	<node lat="61.94869999836489" lon="6.236625000537362" id="-85207">
		<tag k="name" v="Langeneset" />
		<tag k="natural" v="cape" />
		<tag k="ssr:stedsnr" v="775389" />
	</node>
	<node lat="61.91260000221479" lon="6.025525005444641" id="-85213">
		<tag k="name" v="Åreina" />
		<tag k="natural" v="cape" />
		<tag k="ssr:stedsnr" v="775991" />
	</node>
	<node lat="61.932397818918204" lon="5.297036560869825" id="-85237">
		<tag k="name" v="Pollavatnet" />
		<tag k="natural" v="water" />
		<tag k="ssr:stedsnr" v="777764" />
		<tag k="water" v="lake" />
	</node>
	<node lat="61.961033333568714" lon="6.165633330943178" id="-85278">
		<tag k="name" v="Skåtahølen" />
		<tag k="place" v="locality" />
		<tag k="ssr:stedsnr" v="799516" />
	</node>
	<node lat="61.94674166956969" lon="5.995324993077511" id="-85279">
		<tag k="name" v="Kringlevatnet" />
		<tag k="natural" v="water" />
		<tag k="ssr:stedsnr" v="799529" />
	</node>
	<node lat="61.880974997290146" lon="6.081275000700446" id="-85285">
		<tag k="name" v="Navestøylelva" />
		<tag k="ssr:stedsnr" v="799662" />
		<tag k="waterway" v="stream" />
	</node>
	<node lat="61.862055552174255" lon="6.177033341371166" id="-85286">
		<tag k="name" v="Skveta" />
		<tag k="ssr:stedsnr" v="799677" />
		<tag k="waterway" v="stream" />
	</node>
	<node lat="61.897400000233915" lon="5.984875007393128" id="-85312">
		<tag k="name" v="Gjølelva" />
		<tag k="ssr:stedsnr" v="799615" />
		<tag k="waterway" v="stream" />
	</node>
	<node lat="61.94206667106947" lon="5.382752782603612" id="-85333">
		<tag k="name" v="Mevatnet" />
		<tag k="natural" v="water" />
		<tag k="ssr:stedsnr" v="822921" />
		<tag k="water" v="lake" />
	</node>
	<node lat="61.94634166734882" lon="5.340802785850955" id="-85334">
		<tag k="name" v="Storhølen" />
		<tag k="place" v="locality" />
		<tag k="ssr:stedsnr" v="822538" />
	</node>
	<node lat="61.93344167031935" lon="5.822902775029102" id="-85344">
		<tag k="name" v="Storelva" />
		<tag k="ssr:stedsnr" v="833047" />
		<tag k="waterway" v="river" />
	</node>
	<node lat="61.97451944411036" lon="6.269202783256185" id="-85377">
		<tag k="name" v="Vassenden" />
		<tag k="natural" v="bay" />
		<tag k="ssr:stedsnr" v="836444" />
	</node>
	<node lat="61.93525277374096" lon="6.1007472243383605" id="-85389">
		<tag k="name" v="Tungefossen" />
		<tag k="natural" v="waterfall" />
		<tag k="ssr:stedsnr" v="836663" />
	</node>
	<node lat="62.16280833384627" lon="5.13288889592583" id="-85412">
		<tag k="name" v="Kalveneset" />
		<tag k="natural" v="cape" />
		<tag k="ssr:stedsnr" v="838071" />
	</node>
	<node lat="61.881373588895514" lon="6.243758870084315" id="-85441">
		<tag k="alt_name" v="Fagredalstjønna" />
		<tag k="name" v="Fagredalstjørna" />
		<tag k="place" v="locality" />
		<tag k="ssr:stedsnr" v="859027" />
	</node>
	<node lat="62.09608889224108" lon="5.331288891076177" id="-85469">
		<tag k="name" v="Sandeelva" />
		<tag k="ssr:stedsnr" v="860488" />
		<tag k="waterway" v="stream" />
	</node>
	<node lat="61.867399997670795" lon="6.198052779321221" id="-85477">
		<tag k="name" v="Matelva" />
		<tag k="ssr:stedsnr" v="860697" />
		<tag k="waterway" v="river" />
	</node>
	<node lat="61.98066944804955" lon="5.379813882704805" id="-85485">
		<tag k="alt_name" v="Vaulevatnet" />
		<tag k="name" v="Vaulevatna" />
		<tag k="natural" v="water" />
		<tag k="ssr:stedsnr" v="860793" />
	</node>
	<node lat="61.904897226210515" lon="6.426452775508892" id="-85488">
		<tag k="name" v="Svartvatnet" />
		<tag k="natural" v="water" />
		<tag k="ssr:stedsnr" v="860992" />
	</node>
	<node lat="62.12429722380004" lon="5.246169437258763" id="-85490">
		<tag k="alt_name" v="Grøtrøysvatnet" />
		<tag k="name" v="Grøtrøysvatna" />
		<tag k="natural" v="water" />
		<tag k="ssr:stedsnr" v="861458" />
		<tag k="water" v="lake" />
	</node>
	<node lat="62.05139722407164" lon="5.376199992903179" id="-85492">
		<tag k="alt_name" v="Djupedalsvatnet" />
		<tag k="name" v="Djupedalsvatn" />
		<tag k="natural" v="water" />
		<tag k="ssr:stedsnr" v="861343" />
	</node>
	<node lat="61.96477222656799" lon="5.387077773674978" id="-85508">
		<tag k="name" v="Setrevatnet" />
		<tag k="natural" v="water" />
		<tag k="ssr:stedsnr" v="882679" />
		<tag k="water" v="lake" />
	</node>
	<node lat="61.969911115353696" lon="5.529394448691644" id="-85520">
		<tag k="name" v="Mivasselva" />
		<tag k="ssr:stedsnr" v="936359" />
		<tag k="waterway" v="river" />
	</node>
	<node lat="61.97410833305817" lon="5.50879445243155" id="-85523">
		<tag k="name" v="Tjørna" />
		<tag k="natural" v="water" />
		<tag k="ssr:stedsnr" v="943456" />
	</node>
	<node lat="61.967255554962364" lon="5.475916669630108" id="-85526">
		<tag k="name" v="Kalneset" />
		<tag k="natural" v="cape" />
		<tag k="ssr:stedsnr" v="943806" />
	</node>
	<node lat="61.983916665076606" lon="5.386005546557392" id="-85533">
		<tag k="name" v="Løypingselva" />
		<tag k="ssr:stedsnr" v="943979" />
		<tag k="waterway" v="river" />
	</node>
	<node lat="61.95849166343909" lon="5.872850004530461" id="-85544">
		<tag k="name" v="Styggefossen" />
		<tag k="natural" v="waterfall" />
		<tag k="ssr:stedsnr" v="955363" />
	</node>
	<node lat="61.90614444825561" lon="6.177902770568128" id="-85548">
		<tag k="name" v="Vikane" />
		<tag k="natural" v="bay" />
		<tag k="ssr:stedsnr" v="957001" />
	</node>
	<node lat="61.89844444438688" lon="6.061977778773388" id="-85574">
		<tag k="name" v="Lotsskarelva" />
		<tag k="ssr:stedsnr" v="957730" />
		<tag k="waterway" v="stream" />
	</node>
	<node lat="61.920213889139156" lon="5.767594447250431" id="-85576">
		<tag k="name" v="Stårheimselva" />
		<tag k="ssr:stedsnr" v="957528" />
		<tag k="waterway" v="river" />
	</node>
	<node lat="61.92704722427587" lon="6.249427774911786" id="-85587">
		<tag k="name" v="Vikane" />
		<tag k="natural" v="beach" />
		<tag k="ssr:stedsnr" v="957955" />
	</node>
	<node lat="61.933088766225815" lon="6.2494968991356545" id="-85588">
		<tag k="name" v="Melheimselva" />
		<tag k="ssr:stedsnr" v="957963" />
		<tag k="waterway" v="river" />
	</node>
	<node lat="62.1379722216261" lon="5.229849995418173" id="-85598">
		<tag k="name" v="Kredeneset" />
		<tag k="natural" v="cape" />
		<tag k="ssr:stedsnr" v="960119" />
	</node>
	<node lat="62.08310555122695" lon="5.3859861061097725" id="-85606">
		<tag k="name" v="Byteelva" />
		<tag k="ssr:stedsnr" v="959977" />
		<tag k="waterway" v="river" />
	</node>
	<node lat="62.11164444414518" lon="5.227119441943858" id="-85614">
		<tag k="name" v="Fossane" />
		<tag k="natural" v="waterfall" />
		<tag k="ssr:stedsnr" v="960162" />
	</node>
</osm>
