<?xml version="1.0" encoding="UTF-8"?>
<osm version="0.6" generator="osmapis">
	<node lat="61.91221388905986" lon="6.091041659320312" id="-34273">
		<tag k="name" v="Haugen" />
		<tag k="natural" v="hill" />
		<tag k="place" v="locality" />
		<tag k="ssr:stedsnr" v="229760" />
	</node>
	<node lat="61.96333333429496" lon="5.7352972310730435" id="-34274">
		<tag k="name" v="Hestelia" />
		<tag k="natural" v="slope" />
		<tag k="place" v="locality" />
		<tag k="ssr:stedsnr" v="229761" />
	</node>
	<node lat="61.92702777510049" lon="6.052655557736647" id="-34275">
		<tag k="name" v="Sagliberget" />
		<tag k="natural" v="hill" />
		<tag k="place" v="locality" />
		<tag k="ssr:stedsnr" v="229657" />
	</node>
	<node lat="61.9227416629274" lon="6.0651888904746185" id="-34276">
		<tag k="fixme" v="consider natural=peak for the most distinct mountains in the district" />
		<tag k="name" v="Høghammaren" />
		<tag k="natural" v="hill" />
		<tag k="place" v="locality" />
		<tag k="ssr:stedsnr" v="229664" />
	</node>
	<node lat="61.873819440219116" lon="6.089797224851938" id="-34278">
		<tag k="fixme" v="consider natural=peak for the most distinct mountains in the district" />
		<tag k="name" v="Fureåsen" />
		<tag k="natural" v="hill" />
		<tag k="place" v="locality" />
		<tag k="ssr:stedsnr" v="229714" />
	</node>
	<node lat="61.897330554133674" lon="6.08950555863088" id="-34279">
		<tag k="name" v="Rundshaugen" />
		<tag k="natural" v="hill" />
		<tag k="place" v="locality" />
		<tag k="ssr:stedsnr" v="229720" />
	</node>
	<node lat="61.90490000333532" lon="6.1007472247724" id="-34280">
		<tag k="name" v="Brendenakken" />
		<tag k="natural" v="hill" />
		<tag k="place" v="locality" />
		<tag k="ssr:stedsnr" v="229725" />
	</node>
	<node lat="61.89382500187559" lon="5.892652768278883" id="-34281">
		<tag k="name" v="Trollkonehaugen" />
		<tag k="natural" v="hill" />
		<tag k="place" v="locality" />
		<tag k="ssr:stedsnr" v="229786" />
	</node>
	<node lat="61.94895000307278" lon="5.80276666563177" id="-34282">
		<tag k="name" v="Svarthammarbotnen" />
		<tag k="natural" v="valley" />
		<tag k="place" v="locality" />
		<tag k="ssr:stedsnr" v="229836" />
	</node>
	<node lat="61.8942888878002" lon="5.926880558534198" id="-34283">
		<tag k="name" v="Strandagjølet" />
		<tag k="natural" v="gorge" />
		<tag k="ssr:stedsnr" v="229819" />
	</node>
	<node lat="61.866091669531535" lon="6.210577777316958" id="-34285">
		<tag k="name" v="Brunstigen" />
		<tag k="natural" v="hill" />
		<tag k="place" v="locality" />
		<tag k="ssr:stedsnr" v="229822" />
	</node>
	<node lat="61.89595556019148" lon="5.943261120017442" id="-34286">
		<tag k="name" v="Litlenakken" />
		<tag k="natural" v="hill" />
		<tag k="place" v="locality" />
		<tag k="ssr:stedsnr" v="229842" />
	</node>
	<node lat="61.965499997915906" lon="5.73613610279113" id="-34287">
		<tag k="name" v="Hestelia" />
		<tag k="natural" v="slope" />
		<tag k="place" v="locality" />
		<tag k="ssr:stedsnr" v="229852" />
	</node>
	<node lat="61.94573611476786" lon="5.931586106059772" id="-34289">
		<tag k="name" v="Grønlia" />
		<tag k="natural" v="slope" />
		<tag k="place" v="locality" />
		<tag k="ssr:stedsnr" v="229913" />
	</node>
	<node lat="61.9379888921556" lon="5.804275000230947" id="-34291">
		<tag k="name" v="Rystabakkane" />
		<tag k="natural" v="slope" />
		<tag k="place" v="locality" />
		<tag k="ssr:stedsnr" v="229920" />
	</node>
	<node lat="61.964997218745374" lon="5.950588898508676" id="-34292">
		<tag k="alt_name" v="Høgebakken" />
		<tag k="name" v="Høgebakkane" />
		<tag k="natural" v="slope" />
		<tag k="place" v="locality" />
		<tag k="ssr:stedsnr" v="229924" />
	</node>
	<node lat="62.207902780369416" lon="5.210727779022821" id="-34295">
		<tag k="name" v="Skibbehaugen" />
		<tag k="natural" v="hill" />
		<tag k="place" v="locality" />
		<tag k="ssr:stedsnr" v="231019" />
	</node>
	<node lat="62.15697499739852" lon="5.124899993521649" id="-34297">
		<tag k="name" v="Slettebakken" />
		<tag k="natural" v="slope" />
		<tag k="place" v="locality" />
		<tag k="ssr:stedsnr" v="231057" />
	</node>
	<node lat="62.15920555460298" lon="5.101669448089944" id="-34298">
		<tag k="name" v="Øvstehjellen" />
		<tag k="natural" v="slope" />
		<tag k="place" v="locality" />
		<tag k="ssr:stedsnr" v="231058" />
	</node>
	<node lat="62.16513333509551" lon="5.131672217948718" id="-34299">
		<tag k="name" v="Grønahaugen" />
		<tag k="natural" v="hill" />
		<tag k="place" v="locality" />
		<tag k="ssr:stedsnr" v="231072" />
	</node>
	<node lat="62.02329908578011" lon="5.447603458665108" id="-34300">
		<tag k="fixme" v="consider natural=peak for the most distinct mountains in the district" />
		<tag k="name" v="Geitskarhornet" />
		<tag k="natural" v="hill" />
		<tag k="place" v="locality" />
		<tag k="ssr:stedsnr" v="231408" />
	</node>
	<node lat="61.93569444376905" lon="5.317641666467602" id="-34301">
		<tag k="name" v="Bleikemerra" />
		<tag k="natural" v="hill" />
		<tag k="place" v="locality" />
		<tag k="ssr:stedsnr" v="10247" />
	</node>
	<node lat="61.95255555552176" lon="6.041683328664798" id="-34306">
		<tag k="fixme" v="consider natural=peak for the most distinct mountains in the district" />
		<tag k="name" v="Svartdalshornet" />
		<tag k="natural" v="hill" />
		<tag k="place" v="locality" />
		<tag k="ssr:stedsnr" v="10491" />
	</node>
	<node lat="61.94749444674617" lon="5.914375009187574" id="-34307">
		<tag k="name" v="Hjelmelandsdalen" />
		<tag k="natural" v="valley" />
		<tag k="place" v="locality" />
		<tag k="ssr:stedsnr" v="10493" />
	</node>
	<node lat="61.87889999941967" lon="5.943402785292901" id="-34312">
		<tag k="fixme" v="consider natural=peak for the most distinct mountains in the district" />
		<tag k="name" v="Svorafjellet" />
		<tag k="natural" v="hill" />
		<tag k="place" v="locality" />
		<tag k="ssr:stedsnr" v="10631" />
	</node>
	<node lat="61.939211907773014" lon="6.034274599615023" id="-34314">
		<tag k="fixme" v="consider natural=peak for the most distinct mountains in the district" />
		<tag k="name" v="Skambergegga" />
		<tag k="natural" v="hill" />
		<tag k="place" v="locality" />
		<tag k="ssr:stedsnr" v="10533" />
	</node>
	<node lat="61.966458332157" lon="5.311583340169402" id="-34322">
		<tag k="fixme" v="consider natural=peak for the most distinct mountains in the district" />
		<tag k="name" v="Blåfjellet" />
		<tag k="natural" v="hill" />
		<tag k="place" v="locality" />
		<tag k="ssr:stedsnr" v="10784" />
	</node>
	<node lat="61.95813889035569" lon="6.3504472136555465" id="-34323">
		<tag k="fixme" v="consider natural=peak for the most distinct mountains in the district" />
		<tag k="name" v="Mannsegga" />
		<tag k="natural" v="hill" />
		<tag k="place" v="locality" />
		<tag k="ssr:stedsnr" v="10901" />
	</node>
	<node lat="61.955866669382836" lon="6.2904222217594" id="-34325">
		<tag k="name" v="Svartesvedene" />
		<tag k="natural" v="slope" />
		<tag k="place" v="locality" />
		<tag k="ssr:stedsnr" v="10907" />
	</node>
	<node lat="61.88478332910809" lon="6.219680557273234" id="-34327">
		<tag k="name" v="Tverreggene" />
		<tag k="natural" v="hill" />
		<tag k="place" v="locality" />
		<tag k="ssr:stedsnr" v="10979" />
	</node>
	<node lat="62.12104166897987" lon="5.126891666437594" id="-34338">
		<tag k="fixme" v="consider natural=peak for the most distinct mountains in the district" />
		<tag k="name" v="Høgeheida" />
		<tag k="natural" v="hill" />
		<tag k="place" v="locality" />
		<tag k="ssr:stedsnr" v="11711" />
	</node>
	<node lat="62.03775555603959" lon="5.366372228642343" id="-34340">
		<tag k="name" v="Dyvedal" />
		<tag k="place" v="locality" />
		<tag k="ssr:stedsnr" v="231919" />
	</node>
	<node lat="62.03268055960269" lon="5.41045833175326" id="-34341">
		<tag k="name" v="Buhola" />
		<tag k="place" v="locality" />
		<tag k="ssr:stedsnr" v="231923" />
	</node>
	<node lat="62.051350001452114" lon="5.3857916716506695" id="-34344">
		<tag k="name" v="Høgeskjevane" />
		<tag k="natural" v="hill" />
		<tag k="place" v="locality" />
		<tag k="ssr:stedsnr" v="231964" />
	</node>
	<node lat="62.12693055578998" lon="5.259236118617393" id="-34347">
		<tag k="name" v="Kvannskaret" />
		<tag k="natural" v="valley" />
		<tag k="place" v="locality" />
		<tag k="ssr:stedsnr" v="232122" />
	</node>
	<node lat="62.135550001220594" lon="5.289047213756721" id="-34348">
		<tag k="name" v="Stavokla" />
		<tag k="natural" v="hill" />
		<tag k="place" v="locality" />
		<tag k="ssr:stedsnr" v="232125" />
	</node>
	<node lat="62.10689166443612" lon="5.218002774104459" id="-34351">
		<tag k="alt_name" v="Vetenakken" />
		<tag k="fixme" v="consider natural=peak for the most distinct mountains in the district" />
		<tag k="name" v="Vidanakken" />
		<tag k="natural" v="hill" />
		<tag k="place" v="locality" />
		<tag k="ssr:stedsnr" v="232156" />
	</node>
	<node lat="62.2036222182427" lon="5.182372219938549" id="-34352">
		<tag k="name" v="Fiksnesgjøtten" />
		<tag k="natural" v="valley" />
		<tag k="place" v="locality" />
		<tag k="ssr:stedsnr" v="232472" />
	</node>
	<node lat="62.19183055385346" lon="5.164222218263827" id="-34355">
		<tag k="name" v="Halsen" />
		<tag k="natural" v="hill" />
		<tag k="place" v="locality" />
		<tag k="ssr:stedsnr" v="232693" />
	</node>
</osm>
