<?xml version="1.0" encoding="UTF-8"?>
<osm version="0.6" generator="osmapis">
	<node lat="61.93673055669924" lon="5.801166657407446" id="-31354">
		<tag k="name" v="Breimyra" />
		<tag k="natural" v="wetland" />
		<tag k="ssr:stedsnr" v="229919" />
	</node>
	<node lat="61.93591111359834" lon="5.784527770700229" id="-31357">
		<tag k="name" v="Hushamremyrane" />
		<tag k="natural" v="wetland" />
		<tag k="ssr:stedsnr" v="229927" />
	</node>
	<node lat="62.16614444289632" lon="5.320380555725462" id="-31424">
		<tag k="name" v="Storeura" />
		<tag k="natural" v="scree" />
		<tag k="ssr:stedsnr" v="232875" />
	</node>
	<node lat="61.90543333372464" lon="6.285480564923196" id="-31448">
		<tag k="name" v="Gildremyra" />
		<tag k="natural" v="wetland" />
		<tag k="ssr:stedsnr" v="47072" />
	</node>
	<node lat="61.87960555244762" lon="5.813508330104804" id="-31452">
		<tag k="name" v="Hjellhyllemyra" />
		<tag k="natural" v="wetland" />
		<tag k="ssr:stedsnr" v="47181" />
	</node>
	<node lat="61.8797972262516" lon="5.865622225023133" id="-31453">
		<tag k="name" v="Bortremyra" />
		<tag k="natural" v="wetland" />
		<tag k="ssr:stedsnr" v="47184" />
	</node>
	<node lat="61.889374997621" lon="5.892133330289807" id="-31469">
		<tag k="name" v="Søre Vetestein" />
		<tag k="natural" v="stone" />
		<tag k="ssr:stedsnr" v="47787" />
	</node>
	<node lat="62.07391111389326" lon="5.407047217903641" id="-31483">
		<tag k="name" v="Tussura" />
		<tag k="natural" v="scree" />
		<tag k="ssr:stedsnr" v="49992" />
	</node>
	<node lat="62.09637499635956" lon="5.319933333542663" id="-31490">
		<tag k="name" v="Myrane" />
		<tag k="natural" v="wetland" />
		<tag k="ssr:stedsnr" v="50774" />
	</node>
	<node lat="61.92962222422527" lon="6.4411638843244" id="-31499">
		<tag k="name" v="Karimyra" />
		<tag k="natural" v="wetland" />
		<tag k="ssr:stedsnr" v="290052" />
	</node>
	<node lat="61.92844721915685" lon="6.378752786292588" id="-31500">
		<tag k="name" v="Fletene" />
		<tag k="place" v="locality" />
		<tag k="ssr:stedsnr" v="290742" />
	</node>
	<node lat="62.10520277527036" lon="5.279608327890908" id="-31509">
		<tag k="historic" v="shieling" />
		<tag k="name" v="Sætra" />
		<tag k="place" v="locality" />
		<tag k="ssr:stedsnr" v="71417" />
	</node>
	<node lat="61.943286109345784" lon="5.395230557245093" id="-31559">
		<tag k="name" v="Vassvika" />
		<tag k="natural" v="wetland" />
		<tag k="ssr:stedsnr" v="94923" />
	</node>
	<node lat="61.9517055554409" lon="5.823941674364801" id="-31565">
		<tag k="name" v="Klovsteinen" />
		<tag k="natural" v="stone" />
		<tag k="ssr:stedsnr" v="105315" />
	</node>
	<node lat="61.93388055605812" lon="6.406650006122391" id="-31569">
		<tag k="name" v="Haugaledet" />
		<tag k="place" v="locality" />
		<tag k="ssr:stedsnr" v="107811" />
	</node>
	<node lat="62.01424721853049" lon="5.337705557940061" id="-31607">
		<tag k="name" v="Bulegene" />
		<tag k="natural" v="scree" />
		<tag k="ssr:stedsnr" v="110879" />
	</node>
	<node lat="61.88897499749479" lon="5.747805550640775" id="-31634">
		<tag k="name" v="Urdene" />
		<tag k="natural" v="scree" />
		<tag k="ssr:stedsnr" v="252382" />
	</node>
	<node lat="61.98219444103272" lon="5.381588897981872" id="-31711">
		<tag k="name" v="Futimyra" />
		<tag k="natural" v="wetland" />
		<tag k="ssr:stedsnr" v="154998" />
	</node>
	<node lat="61.94679722215104" lon="5.527997230805499" id="-31714">
		<tag k="name" v="Slåttene" />
		<tag k="place" v="locality" />
		<tag k="ssr:stedsnr" v="165480" />
	</node>
	<node lat="61.91645278034696" lon="6.31645278290474" id="-31735">
		<tag k="name" v="Klovningen" />
		<tag k="place" v="locality" />
		<tag k="ssr:stedsnr" v="168803" />
	</node>
	<node lat="61.94264444495759" lon="5.445508331525511" id="-31778">
		<tag k="name" v="Hestemyra" />
		<tag k="place" v="locality" />
		<tag k="ssr:stedsnr" v="215807" />
	</node>
	<node lat="61.933566666888524" lon="5.529575009109764" id="-31787">
		<tag k="name" v="Furemyra" />
		<tag k="natural" v="wetland" />
		<tag k="ssr:stedsnr" v="227386" />
	</node>
	<node lat="61.88169721781986" lon="5.79789165876133" id="-31788">
		<tag k="name" v="Kuskormyra" />
		<tag k="natural" v="wetland" />
		<tag k="ssr:stedsnr" v="227533" />
	</node>
	<node lat="61.93452500112039" lon="5.516308333363064" id="-31789">
		<tag k="name" v="Høgemyra" />
		<tag k="natural" v="wetland" />
		<tag k="ssr:stedsnr" v="227435" />
	</node>
	<node lat="61.95526944532189" lon="5.6398527801037845" id="-31791">
		<tag k="name" v="Gjeddalsmyrane" />
		<tag k="natural" v="wetland" />
		<tag k="ssr:stedsnr" v="228104" />
	</node>
	<node lat="61.892969444755096" lon="6.01634999978173" id="-31810">
		<tag k="name" v="Gamletuftene" />
		<tag k="place" v="locality" />
		<tag k="ssr:stedsnr" v="229588" />
	</node>
	<node lat="61.887950000246335" lon="5.896294444306339" id="-31819">
		<tag k="name" v="Dalshaugmyra" />
		<tag k="natural" v="wetland" />
		<tag k="ssr:stedsnr" v="229779" />
	</node>
	<node lat="61.918827776217064" lon="5.714416659624843" id="-31820">
		<tag k="name" v="Neset" />
		<tag k="place" v="locality" />
		<tag k="ssr:stedsnr" v="229935" />
	</node>
	<node lat="61.93238333549502" lon="5.837769453573527" id="-31895">
		<tag k="name" v="Lokane" />
		<tag k="natural" v="wetland" />
		<tag k="ssr:stedsnr" v="287009" />
	</node>
	<node lat="61.919411107521526" lon="5.8312222236775195" id="-31898">
		<tag k="name" v="Lappura" />
		<tag k="natural" v="scree" />
		<tag k="ssr:stedsnr" v="287111" />
	</node>
	<node lat="62.10450832968877" lon="5.225624991336266" id="-31944">
		<tag k="name" v="Stigane" />
		<tag k="natural" v="scree" />
		<tag k="ssr:stedsnr" v="293188" />
	</node>
	<node lat="61.949936111325385" lon="5.653641671568525" id="-31991">
		<tag k="name" v="Samvadløkane" />
		<tag k="natural" v="wetland" />
		<tag k="ssr:stedsnr" v="471093" />
	</node>
	<node lat="61.95961666230885" lon="5.779683327774816" id="-32011">
		<tag k="name" v="Skitnemyrløkane" />
		<tag k="natural" v="wetland" />
		<tag k="ssr:stedsnr" v="471819" />
	</node>
	<node lat="61.93504166590661" lon="5.747091662249043" id="-32027">
		<tag k="name" v="Buska" />
		<tag k="place" v="locality" />
		<tag k="ssr:stedsnr" v="472554" />
	</node>
	<node lat="61.958819441641275" lon="5.8647444540723646" id="-32065">
		<tag k="name" v="Grønemyra" />
		<tag k="natural" v="wetland" />
		<tag k="ssr:stedsnr" v="350616" />
	</node>
	<node lat="62.02169999957776" lon="5.310172216886807" id="-32100">
		<tag k="name" v="Kråkesteinen" />
		<tag k="natural" v="stone" />
		<tag k="ssr:stedsnr" v="353776" />
	</node>
	<node lat="61.95437499886909" lon="5.478844446632349" id="-32184">
		<tag k="name" v="Grønemyrane" />
		<tag k="natural" v="wetland" />
		<tag k="ssr:stedsnr" v="397790" />
	</node>
	<node lat="61.95888888846296" lon="6.22431387981303" id="-32201">
		<tag k="name" v="Bjørnalogen" />
		<tag k="natural" v="wetland" />
		<tag k="ssr:stedsnr" v="411407" />
	</node>
	<node lat="61.934938887122954" lon="6.044208325826166" id="-32264">
		<tag k="name" v="Løken" />
		<tag k="natural" v="wetland" />
		<tag k="ssr:stedsnr" v="435570" />
	</node>
	<node lat="61.9369555545294" lon="5.367016657838844" id="-32281">
		<tag k="name" v="Lauparmyra" />
		<tag k="natural" v="wetland" />
		<tag k="ssr:stedsnr" v="457961" />
	</node>
	<node lat="61.91906666636561" lon="5.356208335783771" id="-32283">
		<tag k="name" v="Dynemyra" />
		<tag k="natural" v="wetland" />
		<tag k="ssr:stedsnr" v="458661" />
	</node>
	<node lat="61.935166662544255" lon="6.103519450595695" id="-32310">
		<tag k="name" v="Sollimyra" />
		<tag k="natural" v="wetland" />
		<tag k="ssr:stedsnr" v="472607" />
	</node>
	<node lat="62.116961112170856" lon="5.292450002447586" id="-32323">
		<tag k="name" v="Tuemyra" />
		<tag k="natural" v="wetland" />
		<tag k="ssr:stedsnr" v="474164" />
	</node>
	<node lat="62.03208889009344" lon="5.412513886863524" id="-32330">
		<tag k="name" v="Urene" />
		<tag k="natural" v="scree" />
		<tag k="ssr:stedsnr" v="474916" />
	</node>
</osm>
