<?xml version="1.0" encoding="UTF-8"?>
<osm version="0.6" generator="osmapis">
	<node lat="62.04892777797027" lon="5.34829445226398" id="-81990">
		<tag k="alt_name" v="Selje" />
		<tag k="amenity" v="place_of_worship" />
		<tag k="denomination" v="lutheran" />
		<tag k="name" v="Selje kyrkje" />
		<tag k="religion" v="christian" />
		<tag k="ssr:stedsnr" v="254337" />
	</node>
	<node lat="61.93503875373402" lon="6.266907446001752" id="-82470">
		<tag k="alt_name" v="Heggjabygda" />
		<tag k="amenity" v="place_of_worship" />
		<tag k="denomination" v="lutheran" />
		<tag k="name" v="Heggjabygda kyrkje" />
		<tag k="religion" v="christian" />
		<tag k="ssr:stedsnr" v="677951" />
	</node>
	<node lat="62.05135555538833" lon="5.297399992672126" id="-82622">
		<tag k="amenity" v="place_of_worship" />
		<tag k="fixme" v="specify religion=*, denomination=*, building=* etc" />
		<tag k="name" v="Selje kloster" />
		<tag k="old_name" v="St Sunniva kloster;Sankta Sunniva" />
		<tag k="ssr:stedsnr" v="557355" />
	</node>
	<node lat="61.91857221981814" lon="5.7658055647201865" id="-83929">
		<tag k="amenity" v="place_of_worship" />
		<tag k="denomination" v="lutheran" />
		<tag k="name" v="Stårheim kyrkje" />
		<tag k="religion" v="christian" />
		<tag k="ssr:stedsnr" v="168530" />
	</node>
	<node lat="62.11239722089581" lon="5.297394444366304" id="-84683">
		<tag k="name" v="Olavkrossen" />
		<tag k="place" v="locality" />
		<tag k="ssr:stedsnr" v="535161" />
	</node>
	<node lat="61.94960278052698" lon="5.524547225591051" id="-84746">
		<tag k="name" v="Gamlesætra" />
		<tag k="place" v="locality" />
		<tag k="ssr:stedsnr" v="556516" />
	</node>
	<node lat="62.11863611088681" lon="5.310894450635657" id="-85072">
		<tag k="amenity" v="place_of_worship" />
		<tag k="denomination" v="lutheran" />
		<tag k="name" v="Leikanger kyrkje" />
		<tag k="religion" v="christian" />
		<tag k="ssr:stedsnr" v="717158" />
	</node>
	<node lat="61.93245378124856" lon="5.38823834270687" id="-85114">
		<tag k="alt_name" v="Totland" />
		<tag k="amenity" v="place_of_worship" />
		<tag k="denomination" v="lutheran" />
		<tag k="name" v="Totland kyrkje" />
		<tag k="religion" v="christian" />
		<tag k="ssr:stedsnr" v="738243" />
	</node>
	<node lat="61.91133610885805" lon="5.985144448822213" id="-85449">
		<tag k="alt_name" v="Eide;Eid" />
		<tag k="amenity" v="place_of_worship" />
		<tag k="denomination" v="lutheran" />
		<tag k="name" v="Nordfjordeid kyrkje" />
		<tag k="religion" v="christian" />
		<tag k="ssr:stedsnr" v="859531" />
	</node>
</osm>
