<?xml version="1.0" encoding="UTF-8"?>
<osm version="0.6" generator="osmapis">
	<node lat="61.93328340879549" lon="5.8213008230796355" id="-31932">
		<tag k="name" v="Remme" />
		<tag k="place" v="hamlet" />
		<tag k="ssr:stedsnr" v="10434" />
	</node>
	<node lat="61.93067885385689" lon="5.812815399795494" id="-31933">
		<tag k="fixme" v="consider place=hamlet" />
		<tag k="name" v="Nygard" />
		<tag k="place" v="farm" />
		<tag k="ssr:stedsnr" v="10446" />
	</node>
	<node lat="61.947563887301065" lon="5.872475001207938" id="-31934">
		<tag k="name" v="Bakke" />
		<tag k="place" v="farm" />
		<tag k="ssr:stedsnr" v="10485" />
	</node>
	<node lat="61.94639340635996" lon="5.887407018832044" id="-31937">
		<tag k="fixme" v="consider place=hamlet" />
		<tag k="name" v="Tjørstad" />
		<tag k="place" v="farm" />
		<tag k="ssr:stedsnr" v="10494" />
	</node>
	<node lat="61.94273406561376" lon="5.8921626720302385" id="-31938">
		<tag k="fixme" v="consider place=hamlet" />
		<tag k="name" v="Engjeland" />
		<tag k="place" v="farm" />
		<tag k="ssr:stedsnr" v="10498" />
	</node>
	<node lat="61.91195000280188" lon="6.111925007760692" id="-31939">
		<tag k="name" v="Gangstøda" />
		<tag k="place" v="farm" />
		<tag k="ssr:stedsnr" v="10606" />
	</node>
	<node lat="61.8982773743281" lon="5.962703695511895" id="-31940">
		<tag k="fixme" v="consider place=hamlet" />
		<tag k="name" v="Åshammaren" />
		<tag k="place" v="farm" />
		<tag k="ssr:stedsnr" v="10608" />
	</node>
	<node lat="61.994280556804924" lon="5.3851833345506614" id="-31942">
		<tag k="historic" v="shieling" />
		<tag k="name" v="Setra" />
		<tag k="place" v="isolated_dwelling" />
		<tag k="ssr:stedsnr" v="231677" />
	</node>
	<node lat="61.92164440401509" lon="5.886259279690355" id="-31944">
		<tag k="fixme" v="consider place=hamlet" />
		<tag k="name" v="Haugen" />
		<tag k="place" v="farm" />
		<tag k="ssr:stedsnr" v="10547" />
	</node>
	<node lat="61.91774117903327" lon="6.078425136945498" id="-31945">
		<tag k="fixme" v="consider place=hamlet" />
		<tag k="name" v="Mona" />
		<tag k="place" v="farm" />
		<tag k="ssr:stedsnr" v="10581" />
	</node>
	<node lat="61.92886389262306" lon="5.469150003328738" id="-31948">
		<tag k="name" v="Åsnes" />
		<tag k="place" v="farm" />
		<tag k="ssr:stedsnr" v="10839" />
	</node>
	<node lat="61.987511012946655" lon="5.259944762240735" id="-31949">
		<tag k="fixme" v="consider place=hamlet" />
		<tag k="name" v="Venøya" />
		<tag k="place" v="farm" />
		<tag k="ssr:stedsnr" v="10881" />
	</node>
	<node lat="61.946533765941986" lon="6.328329111727482" id="-31950">
		<tag k="alt_name" v="Furefjerding ytre" />
		<tag k="fixme" v="consider place=hamlet" />
		<tag k="name" v="Ytre Furefjerdingen" />
		<tag k="place" v="farm" />
		<tag k="ssr:stedsnr" v="10896" />
	</node>
	<node lat="62.015678450488466" lon="5.468130565784484" id="-31958">
		<tag k="fixme" v="consider place=hamlet" />
		<tag k="name" v="Bakkebøen" />
		<tag k="place" v="farm" />
		<tag k="ssr:stedsnr" v="11287" />
	</node>
	<node lat="62.021198077053036" lon="5.392010057641118" id="-31959">
		<tag k="fixme" v="consider place=hamlet" />
		<tag k="name" v="Hatleneset" />
		<tag k="place" v="farm" />
		<tag k="ssr:stedsnr" v="11289" />
	</node>
	<node lat="62.14093106327418" lon="5.2461257436266955" id="-31961">
		<tag k="fixme" v="consider place=hamlet" />
		<tag k="name" v="Nygard" />
		<tag k="place" v="farm" />
		<tag k="ssr:stedsnr" v="11432" />
	</node>
	<node lat="62.10299780248767" lon="5.248070138822771" id="-31963">
		<tag k="fixme" v="consider place=hamlet" />
		<tag k="name" v="Austmyr" />
		<tag k="place" v="farm" />
		<tag k="ssr:stedsnr" v="11377" />
	</node>
	<node lat="62.1061416657928" lon="5.242547221317566" id="-31964">
		<tag k="alt_name" v="Drage Indre" />
		<tag k="name" v="Drage" />
		<tag k="place" v="farm" />
		<tag k="ssr:stedsnr" v="11378" />
	</node>
	<node lat="62.120713889615274" lon="5.1522277760175" id="-31966">
		<tag k="name" v="Furestøylen" />
		<tag k="place" v="locality" />
		<tag k="ssr:stedsnr" v="11704" />
	</node>
	<node lat="62.103591669074845" lon="5.235941658200686" id="-31979">
		<tag k="alt_name" v="Ytste Drage;Drage Ytre" />
		<tag k="name" v="Ytre Drage" />
		<tag k="place" v="hamlet" />
		<tag k="ssr:stedsnr" v="232155" />
	</node>
	<node lat="61.983251907386915" lon="5.304967323547695" id="-31985">
		<tag k="fixme" v="consider place=hamlet" />
		<tag k="name" v="Flister" />
		<tag k="place" v="farm" />
		<tag k="ssr:stedsnr" v="232773" />
	</node>
	<node lat="62.15694999810924" lon="5.325161110721663" id="-31988">
		<tag k="alt_name" v="Klovet" />
		<tag k="name" v="Kløvet" />
		<tag k="place" v="farm" />
		<tag k="ssr:stedsnr" v="232867" />
	</node>
	<node lat="61.93574675813631" lon="5.495061651564819" id="-31991">
		<tag k="fixme" v="consider place=hamlet" />
		<tag k="name" v="Lefdalsbakken" />
		<tag k="place" v="farm" />
		<tag k="ssr:stedsnr" v="20537" />
	</node>
	<node lat="62.11851944867601" lon="5.174747213819288" id="-31992">
		<tag k="name" v="Hoddevika" />
		<tag k="place" v="farm" />
		<tag k="ssr:stedsnr" v="24131" />
	</node>
	<node lat="61.93218611181929" lon="5.3868777747889345" id="-31993">
		<tag k="alt_name" v="Totland Indre" />
		<tag k="fixme" v="consider place=hamlet" />
		<tag k="name" v="Indre Totland" />
		<tag k="place" v="village" />
		<tag k="ssr:stedsnr" v="33203" />
	</node>
	<node lat="61.90958610805869" lon="5.986041675533439" id="-32000">
		<tag k="name" v="Nordøyrane" />
		<tag k="place" v="isolated_dwelling" />
		<tag k="ssr:stedsnr" v="39921" />
	</node>
	<node lat="61.94251110848196" lon="5.8441027831023415" id="-32001">
		<tag k="name" v="Nesesetra" />
		<tag k="place" v="locality" />
		<tag k="ssr:stedsnr" v="44009" />
	</node>
	<node lat="61.94778055379868" lon="5.827916670938154" id="-32003">
		<tag k="historic" v="shieling" />
		<tag k="name" v="Holesetra" />
		<tag k="place" v="isolated_dwelling" />
		<tag k="ssr:stedsnr" v="44302" />
	</node>
	<node lat="61.94489444473424" lon="5.83330833667476" id="-32004">
		<tag k="name" v="Hammarenden" />
		<tag k="place" v="locality" />
		<tag k="ssr:stedsnr" v="44309" />
	</node>
	<node lat="61.88080000249918" lon="5.859866662878716" id="-32019">
		<tag k="name" v="Reilimunnen" />
		<tag k="place" v="locality" />
		<tag k="ssr:stedsnr" v="47185" />
	</node>
	<node lat="61.957499998227085" lon="5.932941670033251" id="-32035">
		<tag k="name" v="Gamlelø" />
		<tag k="place" v="locality" />
		<tag k="ssr:stedsnr" v="47906" />
	</node>
	<node lat="62.19618055400166" lon="5.204113896825339" id="-32060">
		<tag k="name" v="Myra" />
		<tag k="place" v="farm" />
		<tag k="ssr:stedsnr" v="56201" />
	</node>
	<node lat="62.021863889845065" lon="5.351830558672878" id="-32062">
		<tag k="name" v="Sjøaker" />
		<tag k="place" v="farm" />
		<tag k="ssr:stedsnr" v="56881" />
	</node>
	<node lat="61.8521797950839" lon="6.128613284316699" id="-32066">
		<tag k="fixme" v="consider place=hamlet" />
		<tag k="name" v="Ytre Åsane" />
		<tag k="place" v="farm" />
		<tag k="ssr:stedsnr" v="70638" />
	</node>
	<node lat="61.94365781276096" lon="6.300950200696203" id="-32067">
		<tag k="fixme" v="consider place=hamlet" />
		<tag k="name" v="Grimslid" />
		<tag k="place" v="farm" />
		<tag k="ssr:stedsnr" v="70869" />
	</node>
	<node lat="61.949974507181935" lon="5.397116807116444" id="-32072">
		<tag k="name" v="Rimstad" />
		<tag k="place" v="hamlet" />
		<tag k="ssr:stedsnr" v="70789" />
	</node>
	<node lat="61.94847499677447" lon="5.758819449041658" id="-32078">
		<tag k="historic" v="shieling" />
		<tag k="name" v="Sigrona" />
		<tag k="place" v="isolated_dwelling" />
		<tag k="ssr:stedsnr" v="71516" />
	</node>
	<node lat="61.930008752322856" lon="5.489527556771191" id="-32079">
		<tag k="fixme" v="consider place=hamlet" />
		<tag k="name" v="Lefdalsneset" />
		<tag k="place" v="farm" />
		<tag k="ssr:stedsnr" v="71519" />
	</node>
	<node lat="61.94209295751005" lon="5.655517921232775" id="-32080">
		<tag k="fixme" v="consider place=hamlet" />
		<tag k="name" v="Eikåsen" />
		<tag k="place" v="farm" />
		<tag k="ssr:stedsnr" v="71525" />
	</node>
	<node lat="61.935691662815366" lon="6.163825002456747" id="-32085">
		<tag k="alt_name" v="Lindviksetra" />
		<tag k="historic" v="shieling" />
		<tag k="name" v="Lindviksætra" />
		<tag k="place" v="isolated_dwelling" />
		<tag k="ssr:stedsnr" v="71578" />
	</node>
	<node lat="61.960530555902395" lon="6.251141662770854" id="-32093">
		<tag k="historic" v="shieling" />
		<tag k="name" v="Øvre Heggjadalssætra" />
		<tag k="place" v="isolated_dwelling" />
		<tag k="ssr:stedsnr" v="71877" />
	</node>
	<node lat="62.01216737661713" lon="5.412699220654528" id="-32101">
		<tag k="fixme" v="consider place=hamlet" />
		<tag k="name" v="Berstad" />
		<tag k="place" v="farm" />
		<tag k="ssr:stedsnr" v="72188" />
	</node>
	<node lat="62.11378831684171" lon="5.326051205587337" id="-32104">
		<tag k="fixme" v="consider place=hamlet" />
		<tag k="name" v="Nedre Sjåstad" />
		<tag k="place" v="farm" />
		<tag k="ssr:stedsnr" v="81143" />
	</node>
	<node lat="61.92921667059197" lon="5.3891361143595375" id="-32105">
		<tag k="name" v="Fjordly" />
		<tag k="ssr:stedsnr" v="81202" />
		<tag k="tourism" v="camp_site" />
	</node>
	<node lat="61.92358163922198" lon="5.769484987434757" id="-32109">
		<tag k="fixme" v="consider place=hamlet" />
		<tag k="name" v="Vollen" />
		<tag k="place" v="farm" />
		<tag k="ssr:stedsnr" v="81544" />
	</node>
	<node lat="61.910041667898724" lon="6.115041674332711" id="-32143">
		<tag k="name" v="Fagerheim" />
		<tag k="place" v="farm" />
		<tag k="ssr:stedsnr" v="108274" />
	</node>
	<node lat="61.96542222562956" lon="5.328044439817282" id="-32179">
		<tag k="historic" v="shieling" />
		<tag k="name" v="Selshaugane" />
		<tag k="place" v="isolated_dwelling" />
		<tag k="ssr:stedsnr" v="111578" />
	</node>
	<node lat="62.0615694481792" lon="5.3413583285693615" id="-32187">
		<tag k="alt_name" v="Inste Liaseter" />
		<tag k="name" v="Inste Liset" />
		<tag k="place" v="farm" />
		<tag k="ssr:stedsnr" v="117581" />
	</node>
	<node lat="61.95253888498859" lon="5.512091670119878" id="-32190">
		<tag k="historic" v="shieling" />
		<tag k="name" v="Åsnessætra" />
		<tag k="place" v="isolated_dwelling" />
		<tag k="ssr:stedsnr" v="252002" />
	</node>
	<node lat="61.962302776108515" lon="5.651327775280442" id="-32192">
		<tag k="alt_name" v="Navestølen" />
		<tag k="historic" v="shieling" />
		<tag k="name" v="Navestøylen" />
		<tag k="place" v="isolated_dwelling" />
		<tag k="ssr:stedsnr" v="252012" />
	</node>
	<node lat="61.92319718466098" lon="5.811513757724242" id="-32198">
		<tag k="fixme" v="consider place=hamlet" />
		<tag k="name" v="Føllesdal" />
		<tag k="place" v="farm" />
		<tag k="ssr:stedsnr" v="252380" />
	</node>
	<node lat="61.922982635029776" lon="5.741493896020062" id="-32200">
		<tag k="historic" v="shieling" />
		<tag k="name" v="Bakkesætra" />
		<tag k="place" v="isolated_dwelling" />
		<tag k="ssr:stedsnr" v="252419" />
	</node>
	<node lat="61.91692777665993" lon="6.10524165846313" id="-32201">
		<tag k="name" v="Trollestøa" />
		<tag k="place" v="farm" />
		<tag k="ssr:stedsnr" v="252526" />
	</node>
	<node lat="61.92005833651454" lon="6.19881388447113" id="-32202">
		<tag k="name" v="Flatene" />
		<tag k="place" v="farm" />
		<tag k="ssr:stedsnr" v="252533" />
	</node>
	<node lat="61.90617222453929" lon="6.03289167036763" id="-32203">
		<tag k="name" v="Rotifloten" />
		<tag k="place" v="farm" />
		<tag k="ssr:stedsnr" v="252538" />
	</node>
	<node lat="61.900151784016856" lon="5.986290136088331" id="-32205">
		<tag k="fixme" v="consider place=hamlet" />
		<tag k="name" v="Os" />
		<tag k="place" v="farm" />
		<tag k="ssr:stedsnr" v="252553" />
	</node>
	<node lat="61.89259444603879" lon="5.97542777884854" id="-32206">
		<tag k="alt_name" v="Ossetra" />
		<tag k="historic" v="shieling" />
		<tag k="name" v="Ossætra" />
		<tag k="place" v="isolated_dwelling" />
		<tag k="ssr:stedsnr" v="252558" />
	</node>
	<node lat="61.85956841571697" lon="6.2174541407141515" id="-32208">
		<tag k="fixme" v="consider place=hamlet" />
		<tag k="name" v="Hennebygda" />
		<tag k="place" v="village" />
		<tag k="ssr:stedsnr" v="252625" />
	</node>
	<node lat="61.93801389342698" lon="5.7320305631866395" id="-32209">
		<tag k="historic" v="shieling" />
		<tag k="name" v="Orheimsbotnen" />
		<tag k="place" v="isolated_dwelling" />
		<tag k="ssr:stedsnr" v="131419" />
	</node>
	<node lat="61.94925107081545" lon="5.897618876264739" id="-32214">
		<tag k="fixme" v="consider place=hamlet" />
		<tag k="name" v="Espe" />
		<tag k="place" v="farm" />
		<tag k="ssr:stedsnr" v="131485" />
	</node>
	<node lat="61.95144999569897" lon="6.1503083316430045" id="-32216">
		<tag k="alt_name" v="Bakkesetra" />
		<tag k="historic" v="shieling" />
		<tag k="name" v="Bakkesætra" />
		<tag k="place" v="isolated_dwelling" />
		<tag k="ssr:stedsnr" v="131497" />
	</node>
	<node lat="61.94178055279756" lon="6.143294436942457" id="-32220">
		<tag k="historic" v="shieling" />
		<tag k="name" v="Storesætra" />
		<tag k="place" v="isolated_dwelling" />
		<tag k="ssr:stedsnr" v="131504" />
	</node>
	<node lat="61.89925489348516" lon="5.949636747952413" id="-32222">
		<tag k="fixme" v="consider place=hamlet" />
		<tag k="name" v="Taklo" />
		<tag k="place" v="farm" />
		<tag k="ssr:stedsnr" v="131588" />
	</node>
	<node lat="61.92591111421957" lon="6.448905556025331" id="-32231">
		<tag k="historic" v="shieling" />
		<tag k="name" v="Vikasætra" />
		<tag k="place" v="isolated_dwelling" />
		<tag k="ssr:stedsnr" v="131981" />
	</node>
	<node lat="61.98500633435899" lon="5.289865774122223" id="-32235">
		<tag k="fixme" v="consider place=hamlet" />
		<tag k="name" v="Sandvik" />
		<tag k="place" v="farm" />
		<tag k="ssr:stedsnr" v="252730" />
	</node>
	<node lat="62.13910692647197" lon="5.312059509105223" id="-32237">
		<tag k="fixme" v="consider place=hamlet" />
		<tag k="name" v="Beitveit" />
		<tag k="place" v="farm" />
		<tag k="ssr:stedsnr" v="132421" />
	</node>
	<node lat="61.944969570175196" lon="5.404108241505497" id="-32238">
		<tag k="fixme" v="consider place=hamlet" />
		<tag k="name" v="Gjesdal" />
		<tag k="place" v="farm" />
		<tag k="ssr:stedsnr" v="252787" />
	</node>
	<node lat="61.950073020680016" lon="6.358301181563322" id="-32247">
		<tag k="alt_name" v="Furefjerding, indre" />
		<tag k="fixme" v="consider place=hamlet" />
		<tag k="name" v="Indre Furefjerdingen" />
		<tag k="place" v="farm" />
		<tag k="ssr:stedsnr" v="252859" />
	</node>
	<node lat="62.03637500330579" lon="5.392744444348966" id="-32251">
		<tag k="name" v="Berge" />
		<tag k="place" v="farm" />
		<tag k="ssr:stedsnr" v="253288" />
	</node>
	<node lat="62.033623748915396" lon="5.404120612440703" id="-32252">
		<tag k="fixme" v="consider place=hamlet" />
		<tag k="name" v="Lesto" />
		<tag k="place" v="farm" />
		<tag k="ssr:stedsnr" v="253292" />
	</node>
	<node lat="61.93204474346521" lon="5.760578499959563" id="-32253">
		<tag k="fixme" v="consider place=hamlet" />
		<tag k="name" v="Berget" />
		<tag k="place" v="farm" />
		<tag k="ssr:stedsnr" v="253486" />
	</node>
	<node lat="62.05617826311993" lon="5.47169138338531" id="-32259">
		<tag k="fixme" v="consider place=hamlet" />
		<tag k="name" v="Stokke" />
		<tag k="place" v="farm" />
		<tag k="ssr:stedsnr" v="254313" />
	</node>
	<node lat="62.05246944565105" lon="5.4387194535496555" id="-32260">
		<tag k="name" v="Bergedal" />
		<tag k="place" v="farm" />
		<tag k="ssr:stedsnr" v="254316" />
	</node>
	<node lat="61.95359999777687" lon="6.155313887467423" id="-32261">
		<tag k="alt_name" v="Sagesetra" />
		<tag k="historic" v="shieling" />
		<tag k="name" v="Sagesætra" />
		<tag k="place" v="isolated_dwelling" />
		<tag k="ssr:stedsnr" v="253547" />
	</node>
	<node lat="61.932180559665795" lon="5.751352784603805" id="-32270">
		<tag k="historic" v="shieling" />
		<tag k="name" v="Orheimssætra" />
		<tag k="place" v="isolated_dwelling" />
		<tag k="ssr:stedsnr" v="141537" />
	</node>
	<node lat="62.16601944543894" lon="5.123441674823597" id="-32317">
		<tag k="name" v="Ervik" />
		<tag k="place" v="hamlet" />
		<tag k="ssr:stedsnr" v="170012" />
	</node>
	<node lat="62.19375677545585" lon="5.207070928680587" id="-32336">
		<tag k="fixme" v="consider place=hamlet" />
		<tag k="name" v="Indre Honningsvågen" />
		<tag k="place" v="farm" />
		<tag k="ssr:stedsnr" v="263331" />
	</node>
	<node lat="62.1178277798007" lon="5.177105561939145" id="-32339">
		<tag k="name" v="Hoddevika" />
		<tag k="place" v="farm" />
		<tag k="ssr:stedsnr" v="267153" />
	</node>
	<node lat="61.86875542994385" lon="5.8083022965966595" id="-32413">
		<tag k="fixme" v="consider place=hamlet" />
		<tag k="name" v="Indre Torheim" />
		<tag k="place" v="farm" />
		<tag k="ssr:stedsnr" v="495349" />
	</node>
	<node lat="61.9037861145369" lon="6.146180551005289" id="-32414">
		<tag k="alt_name" v="Geilane" />
		<tag k="name" v="Geilen" />
		<tag k="place" v="farm" />
		<tag k="ssr:stedsnr" v="452259" />
	</node>
	<node lat="61.955208334984974" lon="5.858455562419206" id="-32420">
		<tag k="historic" v="shieling" />
		<tag k="name" v="Hjelmelandssætra" />
		<tag k="place" v="isolated_dwelling" />
		<tag k="ssr:stedsnr" v="253322" />
	</node>
	<node lat="62.108702692749326" lon="5.34836041121867" id="-32424">
		<tag k="fixme" v="multiple name tags, choose one and add the other to alt_name; consider place=hamlet" />
		<tag k="name" v="Nollen;Sandenes;Sandnes" />
		<tag k="place" v="farm" />
		<tag k="ssr:stedsnr" v="253432" />
	</node>
	<node lat="61.96811251275561" lon="5.411478220717189" id="-32437">
		<tag k="historic" v="shieling" />
		<tag k="name" v="Myklebustsætra" />
		<tag k="place" v="isolated_dwelling" />
		<tag k="ssr:stedsnr" v="253798" />
	</node>
	<node lat="61.95845000406726" lon="6.242744450274121" id="-32439">
		<tag k="historic" v="shieling" />
		<tag k="name" v="Nedre Heggjadalssætra" />
		<tag k="place" v="isolated_dwelling" />
		<tag k="ssr:stedsnr" v="253875" />
	</node>
	<node lat="62.005893024239825" lon="5.451482944878965" id="-32442">
		<tag k="fixme" v="consider place=hamlet" />
		<tag k="name" v="Store Kjøde" />
		<tag k="place" v="farm" />
		<tag k="ssr:stedsnr" v="254173" />
	</node>
	<node lat="61.95778333531696" lon="5.918316663402159" id="-32464">
		<tag k="historic" v="shieling" />
		<tag k="name" v="Kjørstadsetra" />
		<tag k="place" v="isolated_dwelling" />
		<tag k="ssr:stedsnr" v="287312" />
	</node>
	<node lat="61.93448889023463" lon="6.197933330671313" id="-32468">
		<tag k="name" v="Åsebøsetra" />
		<tag k="place" v="locality" />
		<tag k="ssr:stedsnr" v="290027" />
	</node>
	<node lat="62.07285277523601" lon="5.338861110605619" id="-32508">
		<tag k="historic" v="shieling" />
		<tag k="name" v="Tørnesstølen" />
		<tag k="place" v="isolated_dwelling" />
		<tag k="ssr:stedsnr" v="292975" />
	</node>
	<node lat="61.93781667103589" lon="5.9954555496564295" id="-32520">
		<tag k="historic" v="shieling" />
		<tag k="name" v="Fossane" />
		<tag k="place" v="isolated_dwelling" />
		<tag k="ssr:stedsnr" v="313513" />
	</node>
	<node lat="61.953255559222285" lon="5.853213888286438" id="-32523">
		<tag k="historic" v="shieling" />
		<tag k="name" v="Sloka" />
		<tag k="place" v="isolated_dwelling" />
		<tag k="ssr:stedsnr" v="313278" />
	</node>
	<node lat="61.93107222457306" lon="5.4862277812599745" id="-32524">
		<tag k="historic" v="shieling" />
		<tag k="name" v="Nessætra" />
		<tag k="place" v="isolated_dwelling" />
		<tag k="ssr:stedsnr" v="313478" />
	</node>
	<node lat="61.95788379698407" lon="5.272446690406289" id="-32527">
		<tag k="fixme" v="consider place=hamlet" />
		<tag k="name" v="Håvik" />
		<tag k="place" v="farm" />
		<tag k="ssr:stedsnr" v="313809" />
	</node>
	<node lat="61.936447224770895" lon="6.444041670150318" id="-32531">
		<tag k="name" v="Åsli" />
		<tag k="place" v="farm" />
		<tag k="ssr:stedsnr" v="313926" />
	</node>
	<node lat="61.938912611089805" lon="6.4426030554949145" id="-32535">
		<tag k="fixme" v="consider place=hamlet" />
		<tag k="name" v="Holmøyvika" />
		<tag k="place" v="farm" />
		<tag k="ssr:stedsnr" v="313945" />
	</node>
	<node lat="62.01326196357459" lon="5.493319199618532" id="-32537">
		<tag k="fixme" v="consider place=hamlet" />
		<tag k="name" v="Skorge" />
		<tag k="place" v="farm" />
		<tag k="ssr:stedsnr" v="314215" />
	</node>
	<node lat="62.043038218990084" lon="5.476884849308237" id="-32538">
		<tag k="fixme" v="consider place=hamlet" />
		<tag k="name" v="Kvamme" />
		<tag k="place" v="farm" />
		<tag k="ssr:stedsnr" v="314302" />
	</node>
	<node lat="61.879366666284675" lon="6.080505562311368" id="-32546">
		<tag k="historic" v="shieling" />
		<tag k="name" v="Navestøylen" />
		<tag k="place" v="isolated_dwelling" />
		<tag k="ssr:stedsnr" v="323742" />
	</node>
	<node lat="61.9294555529106" lon="5.382833342135849" id="-32570">
		<tag k="name" v="Ytre Totland" />
		<tag k="place" v="hamlet" />
		<tag k="ssr:stedsnr" v="336864" />
	</node>
	<node lat="61.92583332917454" lon="6.442169449251663" id="-32586">
		<tag k="name" v="Gamlesetra" />
		<tag k="place" v="locality" />
		<tag k="ssr:stedsnr" v="472036" />
	</node>
	<node lat="61.974602781757" lon="6.3880722248428246" id="-32587">
		<tag k="historic" v="shieling" />
		<tag k="name" v="Høgesetra" />
		<tag k="place" v="isolated_dwelling" />
		<tag k="ssr:stedsnr" v="472045" />
	</node>
	<node lat="61.900738890056" lon="6.01126944514905" id="-32596">
		<tag k="name" v="Gardstølen" />
		<tag k="place" v="locality" />
		<tag k="ssr:stedsnr" v="472641" />
	</node>
	<node lat="61.92824444024152" lon="5.791644439272705" id="-32606">
		<tag k="name" v="Samegna" />
		<tag k="place" v="locality" />
		<tag k="ssr:stedsnr" v="472927" />
	</node>
	<node lat="61.94652222478628" lon="5.912052776876528" id="-32612">
		<tag k="historic" v="shieling" />
		<tag k="name" v="Mørsetra" />
		<tag k="place" v="isolated_dwelling" />
		<tag k="ssr:stedsnr" v="348278" />
	</node>
	<node lat="61.970672220118146" lon="6.383027770170668" id="-32614">
		<tag k="name" v="Setra" />
		<tag k="place" v="locality" />
		<tag k="ssr:stedsnr" v="350056" />
	</node>
	<node lat="61.901066663855545" lon="6.193622227798784" id="-32623">
		<tag k="historic" v="shieling" />
		<tag k="name" v="Nersetra" />
		<tag k="place" v="isolated_dwelling" />
		<tag k="ssr:stedsnr" v="350105" />
	</node>
	<node lat="61.940336106708166" lon="5.80588055467152" id="-32638">
		<tag k="name" v="Langemyra" />
		<tag k="place" v="locality" />
		<tag k="ssr:stedsnr" v="350913" />
	</node>
	<node lat="61.91990277588641" lon="5.943841670784195" id="-32644">
		<tag k="name" v="Nipa" />
		<tag k="place" v="isolated_dwelling" />
		<tag k="ssr:stedsnr" v="350819" />
	</node>
	<node lat="62.1558944429242" lon="5.274683330517471" id="-32649">
		<tag k="historic" v="shieling" />
		<tag k="name" v="Stølen" />
		<tag k="place" v="isolated_dwelling" />
		<tag k="ssr:stedsnr" v="474136" />
	</node>
	<node lat="62.19725000299966" lon="5.2005166649389025" id="-32701">
		<tag k="name" v="Kyrkjeneshaugen" />
		<tag k="place" v="farm" />
		<tag k="ssr:stedsnr" v="359219" />
	</node>
	<node lat="61.96434444208255" lon="5.526655559112792" id="-32709">
		<tag k="historic" v="shieling" />
		<tag k="name" v="Høgelida" />
		<tag k="place" v="isolated_dwelling" />
		<tag k="ssr:stedsnr" v="373017" />
	</node>
	<node lat="61.92015310110253" lon="5.773161632639743" id="-32710">
		<tag k="fixme" v="consider place=hamlet" />
		<tag k="name" v="Stårheim" />
		<tag k="place" v="farm" />
		<tag k="ssr:stedsnr" v="373419" />
	</node>
	<node lat="61.914953003370165" lon="5.966932118589434" id="-32711">
		<tag k="fixme" v="consider place=hamlet" />
		<tag k="name" v="Indre Skårhaug" />
		<tag k="place" v="farm" />
		<tag k="ssr:stedsnr" v="373578" />
	</node>
	<node lat="61.947911279549956" lon="5.462101483326379" id="-32712">
		<tag k="fixme" v="consider place=hamlet" />
		<tag k="name" v="Sollidbakke" />
		<tag k="place" v="farm" />
		<tag k="ssr:stedsnr" v="373802" />
	</node>
	<node lat="62.08968055279617" lon="5.358730554975431" id="-32717">
		<tag k="name" v="Kviteskjerven" />
		<tag k="place" v="isolated_dwelling" />
		<tag k="ssr:stedsnr" v="374424" />
	</node>
	<node lat="62.1646031985877" lon="5.283399353614491" id="-32722">
		<tag k="fixme" v="consider place=hamlet" />
		<tag k="name" v="Tungevågen" />
		<tag k="place" v="farm" />
		<tag k="ssr:stedsnr" v="374502" />
	</node>
	<node lat="62.0137335946957" lon="5.272292329141779" id="-32732">
		<tag k="fixme" v="consider place=hamlet" />
		<tag k="name" v="Myklebust" />
		<tag k="place" v="farm" />
		<tag k="ssr:stedsnr" v="375235" />
	</node>
	<node lat="62.04737500369613" lon="5.3155916573869755" id="-32733">
		<tag k="name" v="Bø" />
		<tag k="place" v="farm" />
		<tag k="ssr:stedsnr" v="375332" />
	</node>
	<node lat="61.92097777645764" lon="5.73348332788641" id="-32738">
		<tag k="historic" v="shieling" />
		<tag k="name" v="Rødsætra" />
		<tag k="place" v="isolated_dwelling" />
		<tag k="ssr:stedsnr" v="384513" />
	</node>
	<node lat="62.12563610881315" lon="5.167852769396514" id="-32742">
		<tag k="name" v="Hoddevika" />
		<tag k="place" v="farm" />
		<tag k="ssr:stedsnr" v="388141" />
	</node>
	<node lat="61.9614916660329" lon="5.4120527832355085" id="-32754">
		<tag k="historic" v="shieling" />
		<tag k="name" v="Geisdalsetra" />
		<tag k="place" v="isolated_dwelling" />
		<tag k="ssr:stedsnr" v="397931" />
	</node>
	<node lat="61.947961108039735" lon="6.138391668103594" id="-32765">
		<tag k="name" v="Reset" />
		<tag k="place" v="isolated_dwelling" />
		<tag k="ssr:stedsnr" v="411293" />
	</node>
	<node lat="61.8933361099069" lon="5.756305546396409" id="-32771">
		<tag k="historic" v="shieling" />
		<tag k="name" v="Vollsetsetra" />
		<tag k="place" v="isolated_dwelling" />
		<tag k="ssr:stedsnr" v="411646" />
	</node>
	<node lat="61.99243888984458" lon="5.4077499984826485" id="-32784">
		<tag k="historic" v="shieling" />
		<tag k="name" v="Ablestølen" />
		<tag k="place" v="isolated_dwelling" />
		<tag k="ssr:stedsnr" v="413636" />
	</node>
	<node lat="62.0636527749653" lon="5.335566660742554" id="-32791">
		<tag k="name" v="Liset" />
		<tag k="place" v="farm" />
		<tag k="ssr:stedsnr" v="413987" />
	</node>
	<node lat="61.92632500296868" lon="5.762716670657071" id="-32807">
		<tag k="name" v="Heimdal" />
		<tag k="place" v="farm" />
		<tag k="ssr:stedsnr" v="434411" />
	</node>
	<node lat="61.927252781381945" lon="6.123380547803006" id="-32808">
		<tag k="alt_name" v="Vedviksetra" />
		<tag k="historic" v="shieling" />
		<tag k="name" v="Vedviksætra" />
		<tag k="place" v="isolated_dwelling" />
		<tag k="ssr:stedsnr" v="434521" />
	</node>
	<node lat="61.92328352371369" lon="6.076769227592893" id="-32809">
		<tag k="alt_name" v="Reinene" />
		<tag k="fixme" v="consider place=hamlet" />
		<tag k="name" v="Reinane" />
		<tag k="place" v="farm" />
		<tag k="ssr:stedsnr" v="434526" />
	</node>
	<node lat="61.96158055235972" lon="5.607488898249809" id="-32810">
		<tag k="historic" v="shieling" />
		<tag k="name" v="Fossane" />
		<tag k="place" v="isolated_dwelling" />
		<tag k="ssr:stedsnr" v="435016" />
	</node>
	<node lat="61.937264042444255" lon="5.3955679613448035" id="-32812">
		<tag k="alt_name" v="Rundshaug" />
		<tag k="fixme" v="consider place=hamlet" />
		<tag k="name" v="Runnshaug" />
		<tag k="place" v="farm" />
		<tag k="ssr:stedsnr" v="435266" />
	</node>
	<node lat="62.03649201749234" lon="5.381825592413273" id="-32815">
		<tag k="fixme" v="consider place=hamlet" />
		<tag k="name" v="Bortnen" />
		<tag k="place" v="farm" />
		<tag k="ssr:stedsnr" v="435279" />
	</node>
	<node lat="61.953711113265335" lon="5.832008337409959" id="-32816">
		<tag k="name" v="Heida" />
		<tag k="place" v="isolated_dwelling" />
		<tag k="ssr:stedsnr" v="435502" />
	</node>
	<node lat="61.949733332662476" lon="5.600050004345729" id="-32817">
		<tag k="historic" v="shieling" />
		<tag k="name" v="Mosehaugane" />
		<tag k="place" v="isolated_dwelling" />
		<tag k="ssr:stedsnr" v="435507" />
	</node>
	<node lat="61.94273888899675" lon="5.747127771182087" id="-32819">
		<tag k="alt_name" v="Storesetra" />
		<tag k="name" v="Storesætra" />
		<tag k="place" v="locality" />
		<tag k="ssr:stedsnr" v="435514" />
	</node>
	<node lat="61.93423430578887" lon="5.502114255139717" id="-32820">
		<tag k="fixme" v="consider place=hamlet" />
		<tag k="name" v="Lefdal" />
		<tag k="place" v="farm" />
		<tag k="ssr:stedsnr" v="435515" />
	</node>
	<node lat="62.04334722593421" lon="5.316138891251363" id="-32822">
		<tag k="name" v="Heimly" />
		<tag k="place" v="farm" />
		<tag k="ssr:stedsnr" v="435408" />
	</node>
	<node lat="61.8986221348267" lon="5.79126116105051" id="-32824">
		<tag k="alt_name" v="Mørkesæter;Mørkeset" />
		<tag k="fixme" v="consider place=hamlet" />
		<tag k="name" v="Sørland" />
		<tag k="place" v="farm" />
		<tag k="ssr:stedsnr" v="435480" />
	</node>
	<node lat="61.9344218906044" lon="5.839564437091185" id="-32825">
		<tag k="fixme" v="consider place=hamlet" />
		<tag k="name" v="Veråsen" />
		<tag k="place" v="farm" />
		<tag k="ssr:stedsnr" v="435487" />
	</node>
	<node lat="61.87344576574503" lon="6.107893783557514" id="-32827">
		<tag k="historic" v="shieling" />
		<tag k="name" v="Lotsstøylen" />
		<tag k="place" v="isolated_dwelling" />
		<tag k="ssr:stedsnr" v="435660" />
	</node>
	<node lat="61.92243310354706" lon="5.9035325557298926" id="-32830">
		<tag k="fixme" v="consider place=hamlet" />
		<tag k="name" v="Seljebakken" />
		<tag k="place" v="farm" />
		<tag k="ssr:stedsnr" v="435578" />
	</node>
	<node lat="61.97531519363372" lon="5.235286820245028" id="-32832">
		<tag k="fixme" v="consider place=hamlet" />
		<tag k="name" v="Flatraket" />
		<tag k="place" v="farm" />
		<tag k="ssr:stedsnr" v="435774" />
	</node>
	<node lat="61.9516638905819" lon="5.427394452020059" id="-32835">
		<tag k="historic" v="shieling" />
		<tag k="name" v="Hesseviksætra" />
		<tag k="place" v="isolated_dwelling" />
		<tag k="ssr:stedsnr" v="435822" />
	</node>
	<node lat="62.110638885543516" lon="5.324505557482197" id="-32842">
		<tag k="name" v="Myra" />
		<tag k="place" v="farm" />
		<tag k="ssr:stedsnr" v="444321" />
	</node>
	<node lat="62.19836494725692" lon="5.186418426110307" id="-32844">
		<tag k="fixme" v="consider place=hamlet" />
		<tag k="name" v="Ytre Honningsvågen" />
		<tag k="place" v="farm" />
		<tag k="ssr:stedsnr" v="445303" />
	</node>
	<node lat="61.971466667136966" lon="5.234608336898501" id="-32853">
		<tag k="name" v="Flatraket" />
		<tag k="place" v="quarter" />
		<tag k="ssr:stedsnr" v="467276" />
	</node>
	<node lat="61.94158889171757" lon="6.135652783215072" id="-32860">
		<tag k="historic" v="shieling" />
		<tag k="name" v="Liasetra" />
		<tag k="place" v="isolated_dwelling" />
		<tag k="ssr:stedsnr" v="471419" />
	</node>
	<node lat="62.14604999620102" lon="5.3087583310990745" id="-32887">
		<tag k="name" v="Firkort" />
		<tag k="place" v="farm" />
		<tag k="ssr:stedsnr" v="474125" />
	</node>
	<node lat="61.93838610794266" lon="5.430322232042359" id="-32900">
		<tag k="name" v="Bryggja" />
		<tag k="place" v="hamlet" />
		<tag k="ssr:stedsnr" v="677220" />
	</node>
	<node lat="61.87285000057624" lon="5.776586112238866" id="-32904">
		<tag k="name" v="Torneset" />
		<tag k="place" v="farm" />
		<tag k="ssr:stedsnr" v="677373" />
	</node>
	<node lat="61.92459411099432" lon="5.582555522503978" id="-32905">
		<tag k="fixme" v="consider place=hamlet" />
		<tag k="name" v="Haus" />
		<tag k="place" v="farm" />
		<tag k="ssr:stedsnr" v="677447" />
	</node>
	<node lat="61.92309050851358" lon="5.6720741999804085" id="-32906">
		<tag k="fixme" v="consider place=hamlet" />
		<tag k="name" v="Årdalen" />
		<tag k="place" v="farm" />
		<tag k="ssr:stedsnr" v="677454" />
	</node>
</osm>
