<?xml version="1.0" encoding="UTF-8"?>
<osm generator="osmapis" version="0.6">
	<node id="-458238" lat="60.5436583339" lon="6.92530277916">
		<tag k="name" v="Toresviki" />
		<tag k="natural" v="bay" />
		<tag k="old_name" v="Toresvik" />
		<tag k="ssr:stedsnr" v="408485" />
	</node>
	<node id="-458794" lat="60.5810277748" lon="7.02657499701">
		<tag k="name" v="Krossen" />
		<tag k="natural" v="cape" />
		<tag k="ssr:stedsnr" v="706973" />
	</node>
	<node id="-458618" lat="60.5679111105" lon="6.91862777975">
		<tag k="name" v="Tysseviki" />
		<tag k="natural" v="bay" />
		<tag k="ssr:stedsnr" v="524519" />
	</node>
	<node id="-458871" lat="60.4777053877" lon="6.80488790635">
		<tag k="name" v="Haukagjelsneset" />
		<tag k="natural" v="cape" />
		<tag k="ssr:stedsnr" v="766988" />
	</node>
	<node id="-458614" lat="60.5295833292" lon="6.9509805578">
		<tag k="name" v="Veaneset" />
		<tag k="natural" v="cape" />
		<tag k="ssr:stedsnr" v="524452" />
	</node>
	<node id="-458741" lat="60.4890953286" lon="6.86225649895">
		<tag k="name" v="Smedviki" />
		<tag k="natural" v="bay" />
		<tag k="ssr:stedsnr" v="673447" />
	</node>
	<node id="-458484" lat="60.4885861145" lon="6.84580555912">
		<tag k="name" v="Furenes" />
		<tag k="natural" v="cape" />
		<tag k="ssr:stedsnr" v="220564" />
	</node>
	<node id="-458387" lat="60.4978194446" lon="6.89598333036">
		<tag k="name" v="Sandviki" />
		<tag k="natural" v="bay" />
		<tag k="ssr:stedsnr" v="126400" />
	</node>
	<node id="-458349" lat="60.5385166666" lon="6.92251111775">
		<tag k="name" v="Kvitanes" />
		<tag k="natural" v="cape" />
		<tag k="ssr:stedsnr" v="68784" />
	</node>
	<node id="-458987" lat="60.5438638915" lon="6.91658610976">
		<tag k="bay" v="fjord" />
		<tag k="name" v="Ulvikafjorden" />
		<tag k="natural" v="bay" />
		<tag k="ssr:stedsnr" v="932083" />
	</node>
	<node id="-458474" lat="60.5666444408" lon="6.94121944666">
		<tag k="name" v="Skjelaviki" />
		<tag k="natural" v="bay" />
		<tag k="ssr:stedsnr" v="189825" />
	</node>
	<node id="-458257" lat="60.5482555574" lon="6.92646943836">
		<tag k="name" v="Hadleviki" />
		<tag k="natural" v="bay" />
		<tag k="old_name" v="Hadlevik" />
		<tag k="ssr:stedsnr" v="893437" />
	</node>
	<node id="-458596" lat="60.5664944469" lon="6.92790278356">
		<tag k="name" v="Ulvikapollen" />
		<tag k="natural" v="bay" />
		<tag k="ssr:stedsnr" v="492793" />
	</node>
	<node id="-458336" lat="60.5190638892" lon="6.91610832701">
		<tag k="name" v="Staursnes" />
		<tag k="natural" v="cape" />
		<tag k="ssr:stedsnr" v="68026" />
	</node>
	<node id="-458746" lat="60.5325333308" lon="6.95585278539">
		<tag k="name" v="Furebergsneset" />
		<tag k="natural" v="cape" />
		<tag k="ssr:stedsnr" v="674043" />
	</node>
	<node id="-458839" lat="60.5696527773" lon="6.93799444162">
		<tag k="name" v="Snauholmen" />
		<tag k="place" v="islet" />
		<tag k="ssr:stedsnr" v="735839" />
	</node>
	<node id="-458198" lat="60.5379222245" lon="6.93956111098">
		<tag k="name" v="Djupeviki" />
		<tag k="natural" v="bay" />
		<tag k="ssr:stedsnr" v="371790" />
	</node>
	<node id="-458323" lat="60.5110722238" lon="6.92763610518">
		<tag k="bay" v="fjord" />
		<tag k="name" v="Osafjorden" />
		<tag k="natural" v="bay" />
		<tag k="ssr:stedsnr" v="66392" />
	</node>
	<node id="-458322" lat="60.4971777763" lon="6.9157444384">
		<tag k="name" v="Bergfallet" />
		<tag k="natural" v="cape" />
		<tag k="ssr:stedsnr" v="66386" />
	</node>
	<node id="-458446" lat="60.5133388869" lon="6.9385138866">
		<tag k="name" v="Halakroni" />
		<tag k="natural" v="cape" />
		<tag k="ssr:stedsnr" v="188019" />
	</node>
	<node id="-458317" lat="60.5846361136" lon="7.01909445149">
		<tag k="name" v="Ernes" />
		<tag k="natural" v="cape" />
		<tag k="ssr:stedsnr" v="38989" />
	</node>
	<node id="-458316" lat="60.5524111088" lon="6.98514445181">
		<tag k="name" v="Hetlenes" />
		<tag k="natural" v="cape" />
		<tag k="ssr:stedsnr" v="38978" />
	</node>
	<node id="-458954" lat="60.5624138929" lon="6.92800278231">
		<tag k="name" v="Hjeltnes" />
		<tag k="natural" v="cape" />
		<tag k="ssr:stedsnr" v="857843" />
	</node>
	<node id="-458569" lat="60.4914055521" lon="6.89381943671">
		<tag k="alt_name" v="Bruraviknes" />
		<tag k="name" v="Bruravikneset" />
		<tag k="natural" v="cape" />
		<tag k="ssr:stedsnr" v="463537" />
	</node>
	<node id="-458951" lat="60.543011113" lon="6.94415832604">
		<tag k="name" v="Salthella" />
		<tag k="natural" v="cape" />
		<tag k="ssr:stedsnr" v="857786" />
	</node>
	<node id="-459002" lat="60.5188305525" lon="6.94899443801">
		<tag k="alt_name" v="Bagnstrand" />
		<tag k="name" v="Bagnsstrondi" />
		<tag k="natural" v="beach" />
		<tag k="place" v="locality" />
		<tag k="ssr:stedsnr" v="949504" />
	</node>
	<node id="-458309" lat="60.513263886" lon="6.93690834158">
		<tag k="fixme" v="consider seamark:type=rock or natural=shoal" />
		<tag k="name" v="Halen" />
		<tag k="place" v="islet" />
		<tag k="ssr:stedsnr" v="38581" />
	</node>
	<node id="-458422" lat="60.4876583323" lon="6.87032499877">
		<tag k="name" v="Nesheim-sanden" />
		<tag k="natural" v="beach" />
		<tag k="place" v="locality" />
		<tag k="ssr:stedsnr" v="160474" />
	</node>
	<node id="-458305" lat="60.5743055582" lon="6.99757499856">
		<tag k="name" v="Melnes" />
		<tag k="natural" v="cape" />
		<tag k="ssr:stedsnr" v="38516" />
	</node>
	<node id="-458912" lat="60.5150750031" lon="6.94001389164">
		<tag k="name" v="Tymberviki" />
		<tag k="natural" v="bay" />
		<tag k="ssr:stedsnr" v="827624" />
	</node>
	<node id="-458101" lat="60.5024258855" lon="6.92567245615">
		<tag k="name" v="Sandviki" />
		<tag k="natural" v="bay" />
		<tag k="ssr:stedsnr" v="281587" />
	</node>
	<node id="-458681" lat="60.5656416682" lon="6.92794443856">
		<tag k="name" v="Ljosagrunna" />
		<tag k="natural" v="shoal" />
		<tag k="old_name" v="Ljosagrunnen" />
		<tag k="place" v="locality" />
		<tag k="ssr:stedsnr" v="589831" />
	</node>
	<node id="-458680" lat="60.5658527738" lon="7.0013749951">
		<tag k="name" v="Knarreviki" />
		<tag k="natural" v="bay" />
		<tag k="old_name" v="Knarrevik" />
		<tag k="ssr:stedsnr" v="589832" />
	</node>
	<node id="-458356" lat="60.5446166663" lon="6.91197499272">
		<tag k="name" v="Tveitastrondi" />
		<tag k="natural" v="cape" />
		<tag k="ssr:stedsnr" v="99518" />
	</node>
	<node id="-458678" lat="60.4868823423" lon="6.83082564929">
		<tag k="fixme" v="consider seamark:type=rock or natural=shoal" />
		<tag k="name" v="Måsesteinen" />
		<tag k="place" v="islet" />
		<tag k="ssr:stedsnr" v="589344" />
	</node>
	<node id="-458697" lat="60.5797250035" lon="7.00612778027">
		<tag k="name" v="Ryggviki" />
		<tag k="natural" v="bay" />
		<tag k="old_name" v="Ryggsvik" />
		<tag k="ssr:stedsnr" v="613155" />
	</node>
	<node id="-458158" lat="60.5501666698" lon="6.97989444482">
		<tag k="name" v="Kobbanes" />
		<tag k="natural" v="cape" />
		<tag k="ssr:stedsnr" v="342507" />
	</node>
	<node id="-458157" lat="60.5661743498" lon="6.91067711036">
		<tag k="name" v="Køylabukti" />
		<tag k="natural" v="bay" />
		<tag k="ssr:stedsnr" v="342503" />
	</node>
	<node id="-458412" lat="60.4896861071" lon="6.89821943921">
		<tag k="bay" v="fjord" />
		<tag k="name" v="Bagnsfjorden" />
		<tag k="natural" v="bay" />
		<tag k="ssr:stedsnr" v="142166" />
	</node>
	<node id="-458795" lat="60.5325666661" lon="6.91908611333">
		<tag k="name" v="Furo" />
		<tag k="natural" v="cape" />
		<tag k="ssr:stedsnr" v="711434" />
	</node>
	<node id="-458666" lat="60.4893888886" lon="6.89048055418">
		<tag k="fixme" v="consider seamark:type=rock or natural=shoal" />
		<tag k="name" v="Prestaskjer" />
		<tag k="place" v="islet" />
		<tag k="ssr:stedsnr" v="584562" />
	</node>
	<node id="-458924" lat="60.5631527814" lon="6.97713056195">
		<tag k="name" v="Røykjanes" />
		<tag k="natural" v="cape" />
		<tag k="ssr:stedsnr" v="833466" />
	</node>
	<node id="-458663" lat="60.5245388881" lon="6.94608889508">
		<tag k="name" v="Skrapeneset" />
		<tag k="natural" v="cape" />
		<tag k="ssr:stedsnr" v="584528" />
	</node>
	<node id="-458941" lat="60.5352472261" lon="6.93499167156">
		<tag k="name" v="Friarehaugviki" />
		<tag k="natural" v="bay" />
		<tag k="ssr:stedsnr" v="857048" />
	</node>
	<node id="-458660" lat="60.5672222186" lon="6.91690832997">
		<tag k="name" v="Brakanes" />
		<tag k="natural" v="cape" />
		<tag k="ssr:stedsnr" v="567097" />
	</node>
	<node id="-458403" lat="60.5396416635" lon="6.94063333975">
		<tag k="name" v="Strondi" />
		<tag k="natural" v="beach" />
		<tag k="place" v="locality" />
		<tag k="ssr:stedsnr" v="128787" />
	</node>
	<node id="-458784" lat="60.4849000026" lon="6.87815000038">
		<tag k="alt_name" v="Kaganes" />
		<tag k="name" v="Kagganeset" />
		<tag k="natural" v="cape" />
		<tag k="ssr:stedsnr" v="706508" />
	</node>
	<node id="-458910" lat="60.4938722267" lon="6.91141945167">
		<tag k="fixme" v="consider seamark:type=rock or natural=shoal" />
		<tag k="name" v="Bagnsnesskjer" />
		<tag k="place" v="islet" />
		<tag k="ssr:stedsnr" v="827606" />
	</node>
	<node id="-458181" lat="60.5828333343" lon="7.02805000194">
		<tag k="name" v="Salbuviki" />
		<tag k="natural" v="bay" />
		<tag k="ssr:stedsnr" v="370221" />
	</node>
	<node id="-458834" lat="60.5571805594" lon="6.91308888921">
		<tag k="name" v="Ryvaneset" />
		<tag k="natural" v="cape" />
		<tag k="ssr:stedsnr" v="735758" />
	</node>
	<node id="-458272" lat="60.4948277798" lon="6.91432777403">
		<tag k="name" v="Bagnsnes" />
		<tag k="natural" v="cape" />
		<tag k="ssr:stedsnr" v="5396" />
	</node>
	<node id="-458643" lat="60.5281972202" lon="6.92405000325">
		<tag k="name" v="Birgjetangen" />
		<tag k="natural" v="cape" />
		<tag k="ssr:stedsnr" v="553046" />
	</node>
	<node id="-458385" lat="60.5684194436" lon="6.94101666401">
		<tag k="name" v="Kvåleskjeret" />
		<tag k="natural" v="cape" />
		<tag k="old_name" v="Kvåleskjær" />
		<tag k="ssr:stedsnr" v="104799" />
	</node>
	<node id="-458256" lat="60.4865166699" lon="6.87123610256">
		<tag k="fixme" v="consider seamark:type=rock or natural=shoal" />
		<tag k="name" v="Likskjer" />
		<tag k="old_name" v="Likskjær" />
		<tag k="place" v="islet" />
		<tag k="ssr:stedsnr" v="893411" />
	</node>
	<node id="-458639" lat="60.5519805513" lon="6.91185555688">
		<tag k="name" v="Frysteneset" />
		<tag k="natural" v="cape" />
		<tag k="ssr:stedsnr" v="552830" />
	</node>
	<node id="-458637" lat="60.5597194435" lon="6.90829167487">
		<tag k="name" v="Vombeviki" />
		<tag k="natural" v="bay" />
		<tag k="ssr:stedsnr" v="552781" />
	</node>
	<node id="-458284" lat="60.5316642797" lon="6.95522039833">
		<tag k="name" v="Furebergviki" />
		<tag k="natural" v="bay" />
		<tag k="ssr:stedsnr" v="7039" />
	</node>
	<node id="-458627" lat="60.5376666684" lon="6.91030000276">
		<tag k="name" v="Botildebøen" />
		<tag k="place" v="locality" />
		<tag k="seamark:type" v="rock" />
		<tag k="ssr:stedsnr" v="529418" />
	</node>
	<node id="-459010" lat="60.5802222227" lon="7.01002499508">
		<tag k="name" v="Ryggsnes" />
		<tag k="natural" v="cape" />
		<tag k="ssr:stedsnr" v="949956" />
	</node>
	<node id="-458113" lat="60.4938630347" lon="6.89368264692">
		<tag k="name" v="Bruraviki" />
		<tag k="natural" v="bay" />
		<tag k="ssr:stedsnr" v="308370" />
	</node>
</osm>
