<?xml version="1.0" encoding="UTF-8"?>
<osm generator="osmapis" version="0.6">
	<node id="-457728" lat="60.5678111085" lon="6.94481110901">
		<tag k="name" v="Øyri" />
		<tag k="place" v="farm" />
		<tag k="ssr:stedsnr" v="88284" />
	</node>
	<node id="-457727" lat="60.6110333372" lon="6.92957778179">
		<tag k="historic" v="shieling" />
		<tag k="name" v="Øvre Skor" />
		<tag k="place" v="locality" />
		<tag k="ssr:stedsnr" v="82166" />
	</node>
	<node id="-457723" lat="60.5792499966" lon="7.5678722257">
		<tag k="historic" v="shieling" />
		<tag k="name" v="Torsstølen" />
		<tag k="place" v="locality" />
		<tag k="ssr:stedsnr" v="68316" />
	</node>
	<node id="-457713" lat="60.5289638919" lon="6.86292500779">
		<tag k="historic" v="shieling" />
		<tag k="name" v="Hellesete" />
		<tag k="place" v="locality" />
		<tag k="ssr:stedsnr" v="68044" />
	</node>
	<node id="-458224" lat="60.4877027769" lon="6.81108054921">
		<tag k="historic" v="shieling" />
		<tag k="name" v="Furesete" />
		<tag k="place" v="locality" />
		<tag k="ssr:stedsnr" v="766515" />
	</node>
	<node id="-458223" lat="60.492991671" lon="6.8591666621">
		<tag k="name" v="Messekleiv" />
		<tag k="place" v="farm" />
		<tag k="ssr:stedsnr" v="766513" />
	</node>
	<node id="-458222" lat="60.7339416712" lon="7.12044166838">
		<tag k="fixme" v="consider tourism=alpine_hut or tourism=chalet" />
		<tag k="name" v="Myrdal Fjellstove" />
		<tag k="ssr:stedsnr" v="753172" />
		<tag k="tourism" v="wilderness_hut" />
	</node>
	<node id="-458220" lat="60.5853749975" lon="6.87191944708">
		<tag k="historic" v="shieling" />
		<tag k="name" v="Løyning" />
		<tag k="place" v="locality" />
		<tag k="ssr:stedsnr" v="748061" />
	</node>
	<node id="-457704" lat="60.5907916708" lon="7.03706389749">
		<tag k="name" v="Folkvang" />
		<tag k="place" v="farm" />
		<tag k="ssr:stedsnr" v="67181" />
	</node>
	<node id="-458215" lat="60.5779638877" lon="6.92587500329">
		<tag k="alt_name" v="Uppheim" />
		<tag k="fixme" v="consider place=hamlet" />
		<tag k="name" v="Oppheim" />
		<tag k="place" v="farm" />
		<tag k="ssr:stedsnr" v="735862" />
	</node>
	<node id="-458213" lat="60.5679055559" lon="6.9164500076">
		<tag k="name" v="Ulvik" />
		<tag k="place" v="village" />
		<tag k="ssr:stedsnr" v="735836" />
	</node>
	<node id="-458210" lat="60.5526166682" lon="6.85173332896">
		<tag k="historic" v="shieling" />
		<tag k="name" v="Furesete" />
		<tag k="place" v="locality" />
		<tag k="ssr:stedsnr" v="735763" />
	</node>
	<node id="-457694" lat="60.5497083354" lon="6.92976667274">
		<tag k="name" v="Fjotle" />
		<tag k="place" v="farm" />
		<tag k="ssr:stedsnr" v="44435" />
	</node>
	<node id="-458204" lat="60.5979249984" lon="7.50697499547">
		<tag k="fixme" v="consider tourism=alpine_hut or tourism=chalet" />
		<tag k="name" v="Finsehytta" />
		<tag k="ssr:stedsnr" v="735280" />
		<tag k="tourism" v="wilderness_hut" />
	</node>
	<node id="-458203" lat="60.5973277822" lon="7.52667777776">
		<tag k="historic" v="shieling" />
		<tag k="name" v="Torbjørnsstølen" />
		<tag k="place" v="locality" />
		<tag k="ssr:stedsnr" v="735278" />
	</node>
	<node id="-458201" lat="60.6240000012" lon="7.37690000035">
		<tag k="name" v="Fagernut" />
		<tag k="place" v="isolated_dwelling" />
		<tag k="ssr:stedsnr" v="735198" />
	</node>
	<node id="-457685" lat="60.5718638898" lon="6.91861388268">
		<tag k="name" v="Rossvoll" />
		<tag k="place" v="farm" />
		<tag k="ssr:stedsnr" v="38586" />
	</node>
	<node id="-458196" lat="60.5647888887" lon="6.9999416578">
		<tag k="fixme" v="consider place=hamlet" />
		<tag k="name" v="Sygnestveit" />
		<tag k="place" v="farm" />
		<tag k="ssr:stedsnr" v="735163" />
	</node>
	<node id="-458189" lat="60.6509583352" lon="7.32779999089">
		<tag k="name" v="Låghellerhyttene" />
		<tag k="place" v="isolated_dwelling" />
		<tag k="ssr:stedsnr" v="735071" />
	</node>
	<node id="-457675" lat="60.5750999957" lon="6.89964722639">
		<tag k="fixme" v="consider place=hamlet" />
		<tag k="name" v="Litle Bergo" />
		<tag k="place" v="farm" />
		<tag k="ssr:stedsnr" v="27358" />
	</node>
	<node id="-457674" lat="60.6681305523" lon="7.24817499247">
		<tag k="fixme" v="consider tourism=alpine_hut or tourism=chalet" />
		<tag k="name" v="Hallingskeid" />
		<tag k="ssr:stedsnr" v="26236" />
		<tag k="tourism" v="wilderness_hut" />
	</node>
	<node id="-457673" lat="60.5645805521" lon="6.96600278665">
		<tag k="alt_name" v="Øydvin" />
		<tag k="fixme" v="consider place=hamlet" />
		<tag k="name" v="Øydve" />
		<tag k="place" v="farm" />
		<tag k="ssr:stedsnr" v="7840" />
	</node>
	<node id="-458184" lat="60.5304499987" lon="6.90923056326">
		<tag k="name" v="Haugen" />
		<tag k="place" v="isolated_dwelling" />
		<tag k="ssr:stedsnr" v="735045" />
	</node>
	<node id="-458181" lat="60.5090833308" lon="6.93628889376">
		<tag k="alt_name" v="Bolstad, indre;Bolstad" />
		<tag k="name" v="Indre Bolstad" />
		<tag k="place" v="farm" />
		<tag k="ssr:stedsnr" v="735018" />
	</node>
	<node id="-458179" lat="60.6001555596" lon="6.94480276879">
		<tag k="historic" v="shieling" />
		<tag k="name" v="Solsæ" />
		<tag k="place" v="locality" />
		<tag k="ssr:stedsnr" v="734937" />
	</node>
	<node id="-457661" lat="60.6025163057" lon="6.98182733033">
		<tag k="historic" v="shieling" />
		<tag k="name" v="Horgo" />
		<tag k="place" v="locality" />
		<tag k="ssr:stedsnr" v="7078" />
	</node>
	<node id="-458167" lat="60.5725388902" lon="6.95254723007">
		<tag k="fixme" v="consider place=hamlet" />
		<tag k="name" v="Nedre Lekve" />
		<tag k="place" v="farm" />
		<tag k="ssr:stedsnr" v="706555" />
	</node>
	<node id="-457644" lat="60.5542715857" lon="6.92848937511">
		<tag k="fixme" v="consider place=hamlet" />
		<tag k="name" v="Viknes" />
		<tag k="place" v="farm" />
		<tag k="ssr:stedsnr" v="987859" />
	</node>
	<node id="-457643" lat="60.5071482131" lon="6.93339651829">
		<tag k="fixme" v="consider place=hamlet" />
		<tag k="name" v="Bolstad" />
		<tag k="place" v="farm" />
		<tag k="ssr:stedsnr" v="987858" />
	</node>
	<node id="-457641" lat="60.661732465" lon="6.86249653854">
		<tag k="fixme" v="consider tourism=alpine_hut or tourism=chalet" />
		<tag k="name" v="BT-hytten" />
		<tag k="ssr:stedsnr" v="985792" />
		<tag k="tourism" v="wilderness_hut" />
	</node>
	<node id="-457636" lat="60.5677934529" lon="6.91048492686">
		<tag k="fixme" v="consider place=hamlet" />
		<tag k="name" v="Skeie" />
		<tag k="place" v="farm" />
		<tag k="ssr:stedsnr" v="985561" />
	</node>
	<node id="-458143" lat="60.5853710729" lon="6.89988984892">
		<tag k="alt_name" v="Kleppe" />
		<tag k="historic" v="shieling" />
		<tag k="name" v="Vestrheimskleppe" />
		<tag k="place" v="locality" />
		<tag k="ssr:stedsnr" v="674810" />
	</node>
	<node id="-458142" lat="60.5436833293" lon="6.87077499189">
		<tag k="historic" v="shieling" />
		<tag k="name" v="Sjusete" />
		<tag k="place" v="locality" />
		<tag k="ssr:stedsnr" v="674803" />
	</node>
	<node id="-458141" lat="60.5466333371" lon="6.90842499361">
		<tag k="name" v="Tveito" />
		<tag k="place" v="hamlet" />
		<tag k="ssr:stedsnr" v="674797" />
	</node>
	<node id="-457625" lat="60.5578111068" lon="6.96613055224">
		<tag k="name" v="Kalvagjere" />
		<tag k="place" v="farm" />
		<tag k="ssr:stedsnr" v="888545" />
	</node>
	<node id="-458134" lat="60.5859638869" lon="7.0410111097">
		<tag k="name" v="Hønsahjallen" />
		<tag k="place" v="farm" />
		<tag k="ssr:stedsnr" v="674159" />
	</node>
	<node id="-458132" lat="60.710625004" lon="6.99402499568">
		<tag k="alt_name" v="Dalsete" />
		<tag k="historic" v="shieling" />
		<tag k="name" v="Dalen" />
		<tag k="place" v="locality" />
		<tag k="ssr:stedsnr" v="674115" />
	</node>
	<node id="-457619" lat="60.4903250002" lon="6.85766944129">
		<tag k="name" v="Smedvika" />
		<tag k="place" v="farm" />
		<tag k="ssr:stedsnr" v="888466" />
	</node>
	<node id="-457618" lat="60.5966111075" lon="6.96358056299">
		<tag k="historic" v="shieling" />
		<tag k="name" v="Horgava" />
		<tag k="place" v="locality" />
		<tag k="ssr:stedsnr" v="887951" />
	</node>
	<node id="-458126" lat="60.6549249996" lon="7.32707500881">
		<tag k="name" v="Fokstova" />
		<tag k="place" v="isolated_dwelling" />
		<tag k="ssr:stedsnr" v="674081" />
	</node>
	<node id="-457613" lat="60.5598499968" lon="6.84896944618">
		<tag k="historic" v="shieling" />
		<tag k="name" v="Gamlestølen" />
		<tag k="place" v="locality" />
		<tag k="ssr:stedsnr" v="403586" />
	</node>
	<node id="-458119" lat="60.5001388853" lon="6.921836116">
		<tag k="name" v="Brunnen" />
		<tag k="place" v="farm" />
		<tag k="ssr:stedsnr" v="674011" />
	</node>
	<node id="-458117" lat="60.6103305577" lon="6.95763888777">
		<tag k="historic" v="shieling" />
		<tag k="name" v="Nedre Sveig" />
		<tag k="place" v="locality" />
		<tag k="ssr:stedsnr" v="673892" />
	</node>
	<node id="-457604" lat="60.5747032278" lon="6.95115660256">
		<tag k="fixme" v="consider place=hamlet" />
		<tag k="name" v="Øvre Lekve" />
		<tag k="place" v="farm" />
		<tag k="ssr:stedsnr" v="402636" />
	</node>
	<node id="-458115" lat="60.4974749976" lon="6.84354445241">
		<tag k="historic" v="shieling" />
		<tag k="name" v="Skarvet" />
		<tag k="place" v="locality" />
		<tag k="ssr:stedsnr" v="673427" />
	</node>
	<node id="-457601" lat="60.5677777743" lon="6.91418611569">
		<tag k="name" v="Brakanes" />
		<tag k="place" v="farm" />
		<tag k="ssr:stedsnr" v="402613" />
	</node>
	<node id="-458110" lat="60.4988611088" lon="6.89681110433">
		<tag k="name" v="Sandviki" />
		<tag k="place" v="locality" />
		<tag k="ssr:stedsnr" v="650386" />
	</node>
	<node id="-457594" lat="60.5983583298" lon="6.9677777833">
		<tag k="name" v="Horgagaren" />
		<tag k="place" v="farm" />
		<tag k="ssr:stedsnr" v="402578" />
	</node>
	<node id="-458102" lat="60.5731888903" lon="6.97777777758">
		<tag k="historic" v="shieling" />
		<tag k="name" v="Liastølane" />
		<tag k="place" v="locality" />
		<tag k="ssr:stedsnr" v="645552" />
	</node>
	<node id="-458100" lat="60.5344833377" lon="6.90765556341">
		<tag k="name" v="Årshaug" />
		<tag k="place" v="farm" />
		<tag k="ssr:stedsnr" v="645529" />
	</node>
	<node id="-457582" lat="60.5527888927" lon="7.47034722802">
		<tag k="name" v="Jøkulhytta" />
		<tag k="place" v="locality" />
		<tag k="ssr:stedsnr" v="386999" />
	</node>
	<node id="-458092" lat="60.5555277779" lon="7.60129165819">
		<tag k="name" v="Botnen" />
		<tag k="place" v="isolated_dwelling" />
		<tag k="ssr:stedsnr" v="644965" />
	</node>
	<node id="-458090" lat="60.5689743455" lon="6.94302355724">
		<tag k="fixme" v="consider place=hamlet" />
		<tag k="name" v="Holmen" />
		<tag k="place" v="farm" />
		<tag k="ssr:stedsnr" v="628082" />
	</node>
	<node id="-458089" lat="60.6086944402" lon="6.92702499719">
		<tag k="historic" v="shieling" />
		<tag k="name" v="Nedre Skor" />
		<tag k="place" v="locality" />
		<tag k="ssr:stedsnr" v="627481" />
	</node>
	<node id="-458087" lat="60.5959444401" lon="6.87553610333">
		<tag k="historic" v="shieling" />
		<tag k="name" v="Sotenos" />
		<tag k="place" v="locality" />
		<tag k="ssr:stedsnr" v="613913" />
	</node>
	<node id="-458086" lat="60.6273944409" lon="6.89275832796">
		<tag k="historic" v="shieling" />
		<tag k="name" v="Tyssedalsstølen" />
		<tag k="place" v="locality" />
		<tag k="ssr:stedsnr" v="613903" />
	</node>
	<node id="-458083" lat="60.5818250004" lon="6.88904166781">
		<tag k="fixme" v="consider place=hamlet" />
		<tag k="name" v="Aurdal" />
		<tag k="place" v="farm" />
		<tag k="ssr:stedsnr" v="613811" />
	</node>
	<node id="-458082" lat="60.5404777765" lon="6.81935277901">
		<tag k="historic" v="shieling" />
		<tag k="name" v="Beiteskar" />
		<tag k="place" v="locality" />
		<tag k="ssr:stedsnr" v="613784" />
	</node>
	<node id="-458080" lat="60.554138889" lon="6.8662583344">
		<tag k="historic" v="shieling" />
		<tag k="name" v="Øyane" />
		<tag k="place" v="locality" />
		<tag k="ssr:stedsnr" v="613759" />
	</node>
	<node id="-457567" lat="60.6618708094" lon="7.24307312425">
		<tag k="alt_name" v="Hallingskeidsæter" />
		<tag k="historic" v="shieling" />
		<tag k="name" v="Hallingskeid" />
		<tag k="place" v="locality" />
		<tag k="ssr:stedsnr" v="371080" />
	</node>
	<node id="-458077" lat="60.5735500016" lon="7.56912778126">
		<tag k="historic" v="shieling" />
		<tag k="name" v="Hansbu" />
		<tag k="place" v="locality" />
		<tag k="ssr:stedsnr" v="613311" />
	</node>
	<node id="-458076" lat="60.5550250031" lon="7.63162499091">
		<tag k="historic" v="shieling" />
		<tag k="name" v="Storuri" />
		<tag k="place" v="locality" />
		<tag k="ssr:stedsnr" v="613306" />
	</node>
	<node id="-458075" lat="60.6000583298" lon="6.99891111459">
		<tag k="historic" v="shieling" />
		<tag k="name" v="Olstølen" />
		<tag k="place" v="locality" />
		<tag k="ssr:stedsnr" v="613167" />
	</node>
	<node id="-457562" lat="60.5583888875" lon="6.90375833796">
		<tag k="name" v="Kroni" />
		<tag k="place" v="farm" />
		<tag k="ssr:stedsnr" v="370783" />
	</node>
	<node id="-457561" lat="60.5556861155" lon="6.89365000036">
		<tag k="fixme" v="consider place=hamlet" />
		<tag k="name" v="Lisebrekke" />
		<tag k="place" v="farm" />
		<tag k="ssr:stedsnr" v="370782" />
	</node>
	<node id="-457560" lat="60.5555194439" lon="6.92764167267">
		<tag k="alt_name" v="Viknes, indre;Viknes" />
		<tag k="name" v="Indre Viknes" />
		<tag k="place" v="farm" />
		<tag k="ssr:stedsnr" v="370776" />
	</node>
	<node id="-458070" lat="60.7091722208" lon="6.98456110628">
		<tag k="historic" v="shieling" />
		<tag k="name" v="Langvasstølen" />
		<tag k="place" v="locality" />
		<tag k="ssr:stedsnr" v="613115" />
	</node>
	<node id="-458064" lat="60.6137155413" lon="6.95635826941">
		<tag k="historic" v="shieling" />
		<tag k="name" v="Øvre Sveig" />
		<tag k="place" v="locality" />
		<tag k="ssr:stedsnr" v="612893" />
	</node>
	<node id="-458063" lat="60.4867861118" lon="6.87485278193">
		<tag k="fixme" v="consider place=hamlet" />
		<tag k="name" v="Nesheim" />
		<tag k="place" v="farm" />
		<tag k="ssr:stedsnr" v="612459" />
	</node>
	<node id="-458062" lat="60.4929583355" lon="6.85420554651">
		<tag k="fixme" v="consider place=hamlet" />
		<tag k="name" v="Hallanger" />
		<tag k="place" v="farm" />
		<tag k="ssr:stedsnr" v="612430" />
	</node>
	<node id="-458060" lat="60.5590111142" lon="6.96847777741">
		<tag k="name" v="Øydvenstod" />
		<tag k="place" v="farm" />
		<tag k="ssr:stedsnr" v="612165" />
	</node>
	<node id="-458054" lat="60.4930777805" lon="6.86190276972">
		<tag k="alt_name" v="Kallhagen" />
		<tag k="name" v="Kalvhagen" />
		<tag k="place" v="farm" />
		<tag k="ssr:stedsnr" v="589413" />
	</node>
	<node id="-457537" lat="60.5763138928" lon="6.95472499308">
		<tag k="name" v="Tunheim" />
		<tag k="place" v="farm" />
		<tag k="ssr:stedsnr" v="342524" />
	</node>
	<node id="-457780" lat="60.5800666695" lon="6.93355277927">
		<tag k="alt_name" v="Ljone" />
		<tag k="fixme" v="consider place=hamlet" />
		<tag k="name" v="Ljono" />
		<tag k="place" v="farm" />
		<tag k="ssr:stedsnr" v="128823" />
	</node>
	<node id="-458037" lat="60.5768555576" lon="6.843788887">
		<tag k="historic" v="shieling" />
		<tag k="name" v="Grostøl" />
		<tag k="place" v="locality" />
		<tag k="ssr:stedsnr" v="583943" />
	</node>
	<node id="-457523" lat="60.5539277809" lon="6.91019444147">
		<tag k="name" v="Leirhola" />
		<tag k="place" v="farm" />
		<tag k="ssr:stedsnr" v="341579" />
	</node>
	<node id="-458033" lat="60.6722193647" lon="6.8876291656">
		<tag k="historic" v="shieling" />
		<tag k="name" v="Mjølbotnen" />
		<tag k="place" v="locality" />
		<tag k="ssr:stedsnr" v="553992" />
	</node>
	<node id="-458032" lat="60.5668055581" lon="6.85011388383">
		<tag k="historic" v="shieling" />
		<tag k="name" v="Gunnarsete" />
		<tag k="place" v="locality" />
		<tag k="ssr:stedsnr" v="553864" />
	</node>
	<node id="-457519" lat="60.6844083361" lon="6.96376388424">
		<tag k="historic" v="shieling" />
		<tag k="name" v="Slondal" />
		<tag k="place" v="locality" />
		<tag k="ssr:stedsnr" v="310987" />
	</node>
	<node id="-457517" lat="60.5718666648" lon="6.89606111015">
		<tag k="name" v="Bergo" />
		<tag k="place" v="hamlet" />
		<tag k="ssr:stedsnr" v="310869" />
	</node>
	<node id="-458028" lat="60.5877249971" lon="7.55637499285">
		<tag k="name" v="Larsbu" />
		<tag k="place" v="isolated_dwelling" />
		<tag k="ssr:stedsnr" v="553264" />
	</node>
	<node id="-457515" lat="60.581174998" lon="6.9511888921">
		<tag k="name" v="Solhovden" />
		<tag k="place" v="farm" />
		<tag k="ssr:stedsnr" v="310825" />
	</node>
	<node id="-457513" lat="60.5501068156" lon="6.90665508042">
		<tag k="alt_name" v="Frøystein" />
		<tag k="fixme" v="consider place=hamlet" />
		<tag k="name" v="Fryste" />
		<tag k="place" v="farm" />
		<tag k="ssr:stedsnr" v="310799" />
	</node>
	<node id="-457512" lat="60.5577138879" lon="6.92503610341">
		<tag k="name" v="Solheim" />
		<tag k="place" v="farm" />
		<tag k="ssr:stedsnr" v="310764" />
	</node>
	<node id="-457509" lat="60.6020944442" lon="7.50254999286">
		<tag k="alt_name" v="Finse Hotell" />
		<tag k="name" v="Finse" />
		<tag k="ssr:stedsnr" v="310288" />
		<tag k="tourism" v="hotel" />
	</node>
	<node id="-458019" lat="60.5997249965" lon="6.99967499499">
		<tag k="historic" v="shieling" />
		<tag k="name" v="Vassdalane" />
		<tag k="place" v="locality" />
		<tag k="ssr:stedsnr" v="553060" />
	</node>
	<node id="-457506" lat="60.5906888846" lon="7.03254166254">
		<tag k="fixme" v="consider place=hamlet" />
		<tag k="name" v="Sævartveit" />
		<tag k="place" v="farm" />
		<tag k="ssr:stedsnr" v="310169" />
	</node>
	<node id="-457498" lat="60.6341944462" lon="7.2389000037">
		<tag k="name" v="Dyrahola" />
		<tag k="place" v="locality" />
		<tag k="ssr:stedsnr" v="310079" />
	</node>
	<node id="-457497" lat="60.6128777819" lon="7.31838055724">
		<tag k="name" v="Memorgebui" />
		<tag k="place" v="locality" />
		<tag k="ssr:stedsnr" v="310075" />
	</node>
	<node id="-457495" lat="60.5054333309" lon="6.93136667565">
		<tag k="alt_name" v="Bolstad, ytre;Bolstad" />
		<tag k="name" v="Ytre Bolstad" />
		<tag k="place" v="farm" />
		<tag k="ssr:stedsnr" v="310013" />
	</node>
	<node id="-458006" lat="60.5330805534" lon="6.99395833372">
		<tag k="historic" v="shieling" />
		<tag k="name" v="Taumasete" />
		<tag k="place" v="locality" />
		<tag k="ssr:stedsnr" v="552161" />
	</node>
	<node id="-458005" lat="60.5547277821" lon="7.16720000249">
		<tag k="name" v="Langvassbu" />
		<tag k="place" v="locality" />
		<tag k="ssr:stedsnr" v="552151" />
	</node>
	<node id="-458003" lat="60.4956805529" lon="6.80609999661">
		<tag k="historic" v="shieling" />
		<tag k="name" v="Dalsete" />
		<tag k="place" v="locality" />
		<tag k="ssr:stedsnr" v="551391" />
	</node>
	<node id="-458001" lat="60.4895416679" lon="6.83810555969">
		<tag k="name" v="Revhuset" />
		<tag k="place" v="isolated_dwelling" />
		<tag k="ssr:stedsnr" v="529334" />
	</node>
	<node id="-457470" lat="60.4896500013" lon="6.83699443899">
		<tag k="name" v="Kariteigen" />
		<tag k="place" v="farm" />
		<tag k="ssr:stedsnr" v="281517" />
	</node>
	<node id="-457975" lat="60.5641499991" lon="6.89648888357">
		<tag k="alt_name" v="Sponheim" />
		<tag k="fixme" v="consider place=hamlet" />
		<tag k="name" v="Spånheim" />
		<tag k="place" v="farm" />
		<tag k="ssr:stedsnr" v="492850" />
	</node>
	<node id="-457973" lat="60.5877000042" lon="6.91157500496">
		<tag k="historic" v="shieling" />
		<tag k="name" v="Røyneskor" />
		<tag k="place" v="locality" />
		<tag k="ssr:stedsnr" v="492822" />
	</node>
	<node id="-457970" lat="60.5534404984" lon="6.9294127431">
		<tag k="alt_name" v="Viknes, ytre;Viknes" />
		<tag k="name" v="Ytre Viknes" />
		<tag k="place" v="farm" />
		<tag k="ssr:stedsnr" v="492749" />
	</node>
	<node id="-457967" lat="60.5922666669" lon="7.03783334148">
		<tag k="fixme" v="consider place=hamlet" />
		<tag k="name" v="Osa" />
		<tag k="place" v="farm" />
		<tag k="ssr:stedsnr" v="492146" />
	</node>
	<node id="-457965" lat="60.6822416682" lon="7.21193888931">
		<tag k="historic" v="shieling" />
		<tag k="name" v="Tuftene" />
		<tag k="place" v="locality" />
		<tag k="ssr:stedsnr" v="492075" />
	</node>
	<node id="-457767" lat="60.5201861111" lon="6.95041665945">
		<tag k="name" v="Mjølstøl" />
		<tag k="place" v="farm" />
		<tag k="ssr:stedsnr" v="128023" />
	</node>
	<node id="-457960" lat="60.5225583297" lon="6.96570000673">
		<tag k="historic" v="shieling" />
		<tag k="name" v="Hellås" />
		<tag k="place" v="locality" />
		<tag k="ssr:stedsnr" v="492025" />
	</node>
	<node id="-457939" lat="60.6011111146" lon="6.89401944921">
		<tag k="historic" v="shieling" />
		<tag k="name" v="Favnastøl" />
		<tag k="place" v="locality" />
		<tag k="ssr:stedsnr" v="463493" />
	</node>
	<node id="-457937" lat="60.4927916626" lon="6.83139445082">
		<tag k="name" v="Tveitæ" />
		<tag k="place" v="farm" />
		<tag k="ssr:stedsnr" v="463479" />
	</node>
	<node id="-457934" lat="60.553241665" lon="6.98985000308">
		<tag k="alt_name" v="Øydvenstølen" />
		<tag k="historic" v="shieling" />
		<tag k="name" v="Øydvenselet" />
		<tag k="place" v="locality" />
		<tag k="ssr:stedsnr" v="462956" />
	</node>
	<node id="-457847" lat="60.5514277815" lon="6.94254999274">
		<tag k="fixme" v="consider place=hamlet" />
		<tag k="name" v="Vattatveit" />
		<tag k="place" v="farm" />
		<tag k="ssr:stedsnr" v="189780" />
	</node>
	<node id="-457926" lat="60.5624333337" lon="6.89410555433">
		<tag k="alt_name" v="Undeland" />
		<tag k="fixme" v="consider place=hamlet" />
		<tag k="name" v="Audnaland" />
		<tag k="place" v="farm" />
		<tag k="ssr:stedsnr" v="432839" />
	</node>
	<node id="-457915" lat="60.5294699083" lon="6.90925996754">
		<tag k="fixme" v="consider place=hamlet" />
		<tag k="name" v="Hetlenes" />
		<tag k="place" v="farm" />
		<tag k="ssr:stedsnr" v="432038" />
	</node>
	<node id="-457911" lat="60.5592277781" lon="6.84641944293">
		<tag k="historic" v="shieling" />
		<tag k="name" v="Skitnasete" />
		<tag k="place" v="locality" />
		<tag k="ssr:stedsnr" v="431785" />
	</node>
	<node id="-457910" lat="60.559199996" lon="7.59686666156">
		<tag k="historic" v="shieling" />
		<tag k="name" v="Oksabotnen" />
		<tag k="place" v="locality" />
		<tag k="ssr:stedsnr" v="431333" />
	</node>
	<node id="-457903" lat="60.5067027745" lon="6.94786110903">
		<tag k="historic" v="shieling" />
		<tag k="name" v="Liastølen" />
		<tag k="place" v="locality" />
		<tag k="ssr:stedsnr" v="431016" />
	</node>
	<node id="-457902" lat="60.4925833355" lon="6.85408888986">
		<tag k="fixme" v="consider place=hamlet" />
		<tag k="name" v="Vangsbygdi" />
		<tag k="place" v="village" />
		<tag k="ssr:stedsnr" v="430417" />
	</node>
	<node id="-457901" lat="60.4798683734" lon="6.80613249799">
		<tag k="name" v="Kvammen" />
		<tag k="place" v="farm" />
		<tag k="ssr:stedsnr" v="430410" />
	</node>
	<node id="-457899" lat="60.571250002" lon="6.95949999209">
		<tag k="fixme" v="consider place=hamlet" />
		<tag k="name" v="Torblå" />
		<tag k="place" v="farm" />
		<tag k="ssr:stedsnr" v="250822" />
	</node>
	<node id="-457898" lat="60.6028888894" lon="7.49241389692">
		<tag k="name" v="Finse" />
		<tag k="place" v="isolated_dwelling" />
		<tag k="ssr:stedsnr" v="250281" />
	</node>
	<node id="-457891" lat="60.5319805542" lon="6.89513333039">
		<tag k="historic" v="shieling" />
		<tag k="name" v="Øvstestølen" />
		<tag k="place" v="locality" />
		<tag k="ssr:stedsnr" v="250050" />
	</node>
	<node id="-457840" lat="60.6140999962" lon="7.41900000836">
		<tag k="name" v="Slirå" />
		<tag k="place" v="isolated_dwelling" />
		<tag k="ssr:stedsnr" v="189261" />
	</node>
	<node id="-457885" lat="60.5455500005" lon="6.92999166529">
		<tag k="fixme" v="consider place=hamlet" />
		<tag k="name" v="Rondestveit" />
		<tag k="place" v="farm" />
		<tag k="ssr:stedsnr" v="249796" />
	</node>
	<node id="-457880" lat="60.5406750002" lon="7.02667499995">
		<tag k="historic" v="shieling" />
		<tag k="name" v="Døgrdalsete" />
		<tag k="place" v="locality" />
		<tag k="ssr:stedsnr" v="249147" />
	</node>
	<node id="-458387" lat="60.5892416688" lon="7.04102777691">
		<tag k="name" v="Hjallane" />
		<tag k="place" v="farm" />
		<tag k="ssr:stedsnr" v="949960" />
	</node>
	<node id="-457874" lat="60.4855905088" lon="6.82612465164">
		<tag k="fixme" v="consider place=hamlet" />
		<tag k="name" v="Vallaviki" />
		<tag k="place" v="farm" />
		<tag k="ssr:stedsnr" v="248419" />
	</node>
	<node id="-457872" lat="60.6890722183" lon="7.2172749923">
		<tag k="name" v="Grøndalsbarakka" />
		<tag k="place" v="isolated_dwelling" />
		<tag k="ssr:stedsnr" v="221608" />
	</node>
	<node id="-458379" lat="60.5725472227" lon="6.92739444497">
		<tag k="fixme" v="consider place=hamlet" />
		<tag k="name" v="Nedre Hakastad" />
		<tag k="old_name" v="Hakestad" />
		<tag k="place" v="farm" />
		<tag k="ssr:stedsnr" v="949518" />
	</node>
	<node id="-458376" lat="60.4970638862" lon="6.88288888905">
		<tag k="name" v="Grønskål" />
		<tag k="place" v="farm" />
		<tag k="ssr:stedsnr" v="949501" />
	</node>
	<node id="-457494" lat="60.6039195138" lon="6.91099816515">
		<tag k="historic" v="shieling" />
		<tag k="name" v="Rubbelii" />
		<tag k="place" v="locality" />
		<tag k="ssr:stedsnr" v="309939" />
	</node>
	<node id="-457858" lat="60.4899583347" lon="6.86447778091">
		<tag k="fixme" v="consider place=hamlet" />
		<tag k="name" v="Vangen" />
		<tag k="place" v="farm" />
		<tag k="ssr:stedsnr" v="220562" />
	</node>
	<node id="-457851" lat="60.5746083321" lon="6.94063610244">
		<tag k="fixme" v="consider place=hamlet" />
		<tag k="name" v="Syse" />
		<tag k="place" v="farm" />
		<tag k="ssr:stedsnr" v="189849" />
	</node>
	<node id="-457850" lat="60.5658888904" lon="6.89176111201">
		<tag k="alt_name" v="Børsheim" />
		<tag k="fixme" v="consider place=hamlet" />
		<tag k="name" v="Byrse" />
		<tag k="place" v="farm" />
		<tag k="ssr:stedsnr" v="189841" />
	</node>
	<node id="-458359" lat="60.5780083326" lon="6.88116666524">
		<tag k="historic" v="shieling" />
		<tag k="name" v="Fitjo" />
		<tag k="place" v="locality" />
		<tag k="ssr:stedsnr" v="917875" />
	</node>
	<node id="-458358" lat="60.5739155713" lon="6.95115769043">
		<tag k="name" v="Lekve" />
		<tag k="place" v="hamlet" />
		<tag k="ssr:stedsnr" v="917863" />
	</node>
	<node id="-458357" lat="60.5749886548" lon="6.93692793758">
		<tag k="fixme" v="consider place=hamlet" />
		<tag k="name" v="Øvre Hakastad" />
		<tag k="place" v="farm" />
		<tag k="ssr:stedsnr" v="917861" />
	</node>
	<node id="-457841" lat="60.6142499983" lon="7.44715000146">
		<tag k="name" v="Sandå" />
		<tag k="place" v="isolated_dwelling" />
		<tag k="ssr:stedsnr" v="189262" />
	</node>
	<node id="-458352" lat="60.5710249994" lon="7.57392500782">
		<tag k="name" v="Kongsnut" />
		<tag k="place" v="isolated_dwelling" />
		<tag k="ssr:stedsnr" v="917276" />
	</node>
	<node id="-458349" lat="60.5891416628" lon="7.03543333656">
		<tag k="fixme" v="consider place=hamlet" />
		<tag k="name" v="Osa" />
		<tag k="place" v="village" />
		<tag k="ssr:stedsnr" v="917147" />
	</node>
	<node id="-458347" lat="60.6891583345" lon="7.22290000543">
		<tag k="name" v="Grøndal" />
		<tag k="place" v="isolated_dwelling" />
		<tag k="ssr:stedsnr" v="917089" />
	</node>
	<node id="-457833" lat="60.7019194447" lon="7.07960277594">
		<tag k="fixme" v="consider tourism=alpine_hut or tourism=chalet" />
		<tag k="name" v="Kaldavasshytta" />
		<tag k="ssr:stedsnr" v="189107" />
		<tag k="tourism" v="wilderness_hut" />
	</node>
	<node id="-457489" lat="60.5736950527" lon="6.93204174726">
		<tag k="name" v="Hakastad" />
		<tag k="place" v="hamlet" />
		<tag k="ssr:stedsnr" v="302135" />
	</node>
	<node id="-457828" lat="60.524521528" lon="6.95038652827">
		<tag k="alt_name" v="Holkasvik" />
		<tag k="fixme" v="consider place=hamlet" />
		<tag k="name" v="Holkasviki" />
		<tag k="place" v="farm" />
		<tag k="ssr:stedsnr" v="189028" />
	</node>
	<node id="-458338" lat="60.503424997" lon="6.88476388731">
		<tag k="historic" v="shieling" />
		<tag k="name" v="Øvstestølen" />
		<tag k="place" v="locality" />
		<tag k="ssr:stedsnr" v="917006" />
	</node>
	<node id="-457822" lat="60.5148888877" lon="6.94408334057">
		<tag k="alt_name" v="Slåtte" />
		<tag k="name" v="Slottet" />
		<tag k="place" v="farm" />
		<tag k="ssr:stedsnr" v="188020" />
	</node>
	<node id="-458333" lat="60.5628944408" lon="6.92925278312">
		<tag k="fixme" v="consider place=hamlet" />
		<tag k="name" v="Hjeltnes" />
		<tag k="place" v="farm" />
		<tag k="ssr:stedsnr" v="873636" />
	</node>
	<node id="-458332" lat="60.6616262582" lon="6.86220468039">
		<tag k="historic" v="shieling" />
		<tag k="name" v="Vesete" />
		<tag k="place" v="locality" />
		<tag k="ssr:stedsnr" v="857968" />
	</node>
	<node id="-458328" lat="60.5702166674" lon="6.90771943631">
		<tag k="fixme" v="consider place=hamlet" />
		<tag k="name" v="Hydle" />
		<tag k="place" v="farm" />
		<tag k="ssr:stedsnr" v="857840" />
	</node>
	<node id="-458327" lat="60.5438305521" lon="6.90255276943">
		<tag k="historic" v="shieling" />
		<tag k="name" v="Liastølen" />
		<tag k="place" v="locality" />
		<tag k="ssr:stedsnr" v="857789" />
	</node>
	<node id="-457813" lat="60.5716444452" lon="6.89611665794">
		<tag k="fixme" v="consider place=hamlet" />
		<tag k="name" v="Midtre Bergo" />
		<tag k="place" v="farm" />
		<tag k="ssr:stedsnr" v="161909" />
	</node>
	<node id="-458318" lat="60.6196333345" lon="7.06337499594">
		<tag k="historic" v="shieling" />
		<tag k="name" v="Ossete" />
		<tag k="place" v="locality" />
		<tag k="ssr:stedsnr" v="857075" />
	</node>
	<node id="-457800" lat="60.5680166695" lon="6.90408055433">
		<tag k="fixme" v="consider place=hamlet" />
		<tag k="name" v="Hjelmavoll" />
		<tag k="place" v="farm" />
		<tag k="ssr:stedsnr" v="160512" />
	</node>
	<node id="-458311" lat="60.5601861088" lon="6.89751388176">
		<tag k="name" v="Gjerdet" />
		<tag k="place" v="farm" />
		<tag k="ssr:stedsnr" v="856783" />
	</node>
	<node id="-458310" lat="60.5626916711" lon="6.96018611361">
		<tag k="fixme" v="consider place=hamlet" />
		<tag k="name" v="Håheim" />
		<tag k="place" v="farm" />
		<tag k="ssr:stedsnr" v="856778" />
	</node>
	<node id="-458309" lat="60.5944194438" lon="7.0383777801">
		<tag k="name" v="Haugen" />
		<tag k="place" v="farm" />
		<tag k="ssr:stedsnr" v="856193" />
	</node>
	<node id="-458308" lat="60.592636111" lon="6.97119444844">
		<tag k="historic" v="shieling" />
		<tag k="name" v="Jonstølen" />
		<tag k="place" v="locality" />
		<tag k="ssr:stedsnr" v="856184" />
	</node>
	<node id="-457785" lat="60.5168611125" lon="6.94663889608">
		<tag k="historic" v="shieling" />
		<tag k="name" v="Mjøstølen" />
		<tag k="place" v="locality" />
		<tag k="ssr:stedsnr" v="128876" />
	</node>
	<node id="-457784" lat="60.5665749989" lon="6.86704443777">
		<tag k="historic" v="shieling" />
		<tag k="name" v="Litlastøl" />
		<tag k="place" v="locality" />
		<tag k="ssr:stedsnr" v="128856" />
	</node>
	<node id="-457783" lat="60.5615444402" lon="6.90506944484">
		<tag k="fixme" v="consider place=hamlet" />
		<tag k="name" v="Vambheim" />
		<tag k="place" v="farm" />
		<tag k="ssr:stedsnr" v="128845" />
	</node>
	<node id="-458292" lat="60.5604999959" lon="6.99675555539">
		<tag k="alt_name" v="Mjølstølen" />
		<tag k="historic" v="shieling" />
		<tag k="name" v="Mjøstølen" />
		<tag k="place" v="locality" />
		<tag k="ssr:stedsnr" v="827977" />
	</node>
	<node id="-457774" lat="60.6030444436" lon="7.21893333392">
		<tag k="name" v="Austdølbu" />
		<tag k="place" v="locality" />
		<tag k="ssr:stedsnr" v="128140" />
	</node>
	<node id="-457769" lat="60.6455527745" lon="7.5215249976">
		<tag k="name" v="Klemsbu" />
		<tag k="place" v="locality" />
		<tag k="ssr:stedsnr" v="128165" />
	</node>
	<node id="-458279" lat="60.5603861149" lon="6.82612777233">
		<tag k="historic" v="shieling" />
		<tag k="name" v="Snipa" />
		<tag k="place" v="locality" />
		<tag k="ssr:stedsnr" v="810118" />
	</node>
	<node id="-457766" lat="60.5136025283" lon="6.95298999378">
		<tag k="fixme" v="consider place=hamlet" />
		<tag k="name" v="Bagne" />
		<tag k="place" v="farm" />
		<tag k="ssr:stedsnr" v="128013" />
	</node>
	<node id="-457577" lat="60.5762000037" lon="6.91638611017">
		<tag k="fixme" v="consider place=hamlet" />
		<tag k="name" v="Vestrheim" />
		<tag k="place" v="farm" />
		<tag k="ssr:stedsnr" v="371875" />
	</node>
	<node id="-457763" lat="60.4920555517" lon="6.88643332809">
		<tag k="fixme" v="consider place=hamlet" />
		<tag k="name" v="Åsheim" />
		<tag k="place" v="farm" />
		<tag k="ssr:stedsnr" v="126402" />
	</node>
	<node id="-458274" lat="60.5836999959" lon="6.88212778018">
		<tag k="fixme" v="consider place=hamlet" />
		<tag k="name" v="Solbjørgo" />
		<tag k="place" v="farm" />
		<tag k="ssr:stedsnr" v="796831" />
	</node>
	<node id="-458272" lat="60.5961250029" lon="7.46784999298">
		<tag k="name" v="Norenut" />
		<tag k="place" v="isolated_dwelling" />
		<tag k="ssr:stedsnr" v="796280" />
	</node>
	<node id="-458271" lat="60.5921500038" lon="7.5412250011">
		<tag k="name" v="Finsefeti" />
		<tag k="place" v="isolated_dwelling" />
		<tag k="ssr:stedsnr" v="796277" />
	</node>
	<node id="-457758" lat="60.5700361093" lon="6.89377500914">
		<tag k="fixme" v="consider place=hamlet" />
		<tag k="name" v="Store Bergo" />
		<tag k="place" v="farm" />
		<tag k="ssr:stedsnr" v="100910" />
	</node>
	<node id="-457742" lat="60.70541667" lon="6.98745555698">
		<tag k="historic" v="shieling" />
		<tag k="name" v="Gamlestølen" />
		<tag k="place" v="locality" />
		<tag k="ssr:stedsnr" v="99629" />
	</node>
	<node id="-457738" lat="60.5621229719" lon="6.87852170459">
		<tag k="fixme" v="consider place=hamlet" />
		<tag k="name" v="Lindebrekke" />
		<tag k="place" v="farm" />
		<tag k="ssr:stedsnr" v="99598" />
	</node>
	<node id="-458249" lat="60.5648666676" lon="6.93301388137">
		<tag k="name" v="Dammen" />
		<tag k="place" v="isolated_dwelling" />
		<tag k="ssr:stedsnr" v="772819" />
	</node>
	<node id="-458275" lat="60.5658055572" lon="6.95525000017">
		<tag k="fixme" v="consider place=hamlet" />
		<tag k="name" v="Kvåle" />
		<tag k="place" v="farm" />
		<tag k="ssr:stedsnr" v="796866" />
	</node>
</osm>
