<?xml version="1.0" encoding="UTF-8"?>
<osm generator="osmapis" version="0.6">
	<node id="-458233" lat="60.5742361073" lon="7.02367221469">
		<tag k="name" v="Tellskredbekken" />
		<tag k="ssr:stedsnr" v="765955" />
		<tag k="waterway" v="stream" />
	</node>
	<node id="-457717" lat="60.6041749154" lon="7.01463138505">
		<tag k="name" v="Svartavatnet" />
		<tag k="natural" v="water" />
		<tag k="ssr:stedsnr" v="68064" />
	</node>
	<node id="-457715" lat="60.6229305556" lon="7.27823332788">
		<tag k="alt_name" v="Kvilinganutvatnet, inste" />
		<tag k="name" v="Inste Kvilinganutvatnet" />
		<tag k="natural" v="water" />
		<tag k="ssr:stedsnr" v="68062" />
		<tag k="water" v="lake" />
	</node>
	<node id="-457712" lat="60.5237361153" lon="6.88650276902">
		<tag k="name" v="Trosetedalsbekken" />
		<tag k="ssr:stedsnr" v="68040" />
		<tag k="waterway" v="stream" />
	</node>
	<node id="-458218" lat="60.7064917536" lon="6.97742117312">
		<tag k="name" v="Langavatnet" />
		<tag k="natural" v="water" />
		<tag k="ssr:stedsnr" v="735957" />
		<tag k="water" v="lake" />
	</node>
	<node id="-457705" lat="60.5700027782" lon="7.01480277707">
		<tag k="name" v="Gurogrøbekken" />
		<tag k="ssr:stedsnr" v="67198" />
		<tag k="waterway" v="stream" />
	</node>
	<node id="-458216" lat="60.6341842528" lon="6.88522350796">
		<tag k="name" v="Fessavatnet" />
		<tag k="natural" v="water" />
		<tag k="ssr:stedsnr" v="735893" />
		<tag k="water" v="lake" />
	</node>
	<node id="-457703" lat="60.5384361092" lon="6.98392778255">
		<tag k="name" v="Døgro" />
		<tag k="old_name" v="Døgrå" />
		<tag k="ssr:stedsnr" v="67173" />
		<tag k="waterway" v="river" />
	</node>
	<node id="-457702" lat="60.5131666676" lon="6.87291111177">
		<tag k="name" v="Vedåvotni" />
		<tag k="natural" v="water" />
		<tag k="ssr:stedsnr" v="67034" />
		<tag k="water" v="lake" />
	</node>
	<node id="-458212" lat="60.5488000012" lon="6.88503055957">
		<tag k="name" v="Tverrelvi" />
		<tag k="ssr:stedsnr" v="735800" />
		<tag k="waterway" v="river" />
	</node>
	<node id="-457699" lat="60.4953751043" lon="6.80243603553">
		<tag k="name" v="Dalsetetjørni" />
		<tag k="natural" v="water" />
		<tag k="ssr:stedsnr" v="66394" />
	</node>
	<node id="-457693" lat="60.7136861139" lon="6.99251388537">
		<tag k="name" v="Dalaelvi" />
		<tag k="ssr:stedsnr" v="39555" />
		<tag k="waterway" v="river" />
	</node>
	<node id="-458202" lat="60.5925472187" lon="7.61042777004">
		<tag k="name" v="Tverråvatni" />
		<tag k="natural" v="water" />
		<tag k="ssr:stedsnr" v="735274" />
		<tag k="water" v="lake" />
	</node>
	<node id="-458199" lat="60.5998727696" lon="7.33726841472">
		<tag k="alt_name" v="Memorgevatnet, austre" />
		<tag k="name" v="Austre Memorgevatnet" />
		<tag k="natural" v="water" />
		<tag k="ssr:stedsnr" v="735177" />
	</node>
	<node id="-458194" lat="60.7251249993" lon="7.2058999913">
		<tag k="fixme" v="multiple name tags, choose one and add the other to alt_name" />
		<tag k="name" v="Moldåna;Moldåni" />
		<tag k="ssr:stedsnr" v="735104" />
		<tag k="waterway" v="river" />
	</node>
	<node id="-458193" lat="60.6681638922" lon="7.08664443806">
		<tag k="name" v="Ruvlenutvatnet" />
		<tag k="natural" v="water" />
		<tag k="ssr:stedsnr" v="735094" />
		<tag k="water" v="lake" />
	</node>
	<node id="-458191" lat="60.6597555594" lon="7.12343055487">
		<tag k="name" v="Nordrevatni" />
		<tag k="natural" v="water" />
		<tag k="ssr:stedsnr" v="735081" />
		<tag k="water" v="lake" />
	</node>
	<node id="-458190" lat="60.6620416258" lon="7.18650313197">
		<tag k="name" v="Dørmålsvatnet" />
		<tag k="natural" v="water" />
		<tag k="ssr:stedsnr" v="735078" />
	</node>
	<node id="-458188" lat="60.608308331" lon="6.9748250039">
		<tag k="fixme" v="multiple name tags, choose one and add the other to alt_name" />
		<tag k="name" v="Guddalselvi;Skrulselvi" />
		<tag k="ssr:stedsnr" v="735061" />
		<tag k="waterway" v="stream" />
	</node>
	<node id="-457669" lat="60.6766949103" lon="7.38330429554">
		<tag k="name" v="Vargabretjørni" />
		<tag k="natural" v="water" />
		<tag k="ssr:stedsnr" v="7221" />
	</node>
	<node id="-457668" lat="60.6235499962" lon="7.35430000198">
		<tag k="name" v="Tågavatni" />
		<tag k="natural" v="water" />
		<tag k="ssr:stedsnr" v="7199" />
		<tag k="water" v="lake" />
	</node>
	<node id="-457667" lat="60.6035499958" lon="7.0486749958">
		<tag k="alt_name" v="Norddølo" />
		<tag k="name" v="Norddøla" />
		<tag k="ssr:stedsnr" v="7181" />
		<tag k="waterway" v="river" />
	</node>
	<node id="-458177" lat="60.5713333356" lon="7.19278333214">
		<tag k="name" v="Reipstjørnane" />
		<tag k="natural" v="water" />
		<tag k="ssr:stedsnr" v="734190" />
		<tag k="water" v="lake" />
	</node>
	<node id="-458176" lat="60.5655493687" lon="7.11441670924">
		<tag k="name" v="Grasbotntjørni" />
		<tag k="natural" v="water" />
		<tag k="ssr:stedsnr" v="734188" />
	</node>
	<node id="-458174" lat="60.5675583313" lon="7.12239999906">
		<tag k="name" v="Lakjen" />
		<tag k="natural" v="bay" />
		<tag k="ssr:stedsnr" v="734186" />
	</node>
	<node id="-457660" lat="60.6105500022" lon="7.13765000497">
		<tag k="name" v="Floskefonnvatnet" />
		<tag k="natural" v="water" />
		<tag k="ssr:stedsnr" v="7075" />
		<tag k="water" v="lake" />
	</node>
	<node id="-457655" lat="60.6115111154" lon="6.94760277685">
		<tag k="name" v="Sveigselvi" />
		<tag k="ssr:stedsnr" v="6896" />
		<tag k="waterway" v="river" />
	</node>
	<node id="-457654" lat="60.5574682292" lon="6.8463486884">
		<tag k="name" v="Skitnasetetjørni" />
		<tag k="natural" v="water" />
		<tag k="ssr:stedsnr" v="6782" />
	</node>
	<node id="-457653" lat="60.5912722237" lon="7.12114443776">
		<tag k="name" v="Rossevatni" />
		<tag k="natural" v="water" />
		<tag k="ssr:stedsnr" v="6207" />
		<tag k="water" v="lake" />
	</node>
	<node id="-458164" lat="60.5780416654" lon="6.89161110222">
		<tag k="name" v="Verafossen" />
		<tag k="natural" v="waterfall" />
		<tag k="ssr:stedsnr" v="706537" />
	</node>
	<node id="-457651" lat="60.5939684776" lon="6.97854635216">
		<tag k="alt_name" v="Jonstølsvatnet" />
		<tag k="loc_name" v="Heimstavatnet" />
		<tag k="name" v="Heimavatnet" />
		<tag k="natural" v="water" />
		<tag k="ssr:stedsnr" v="6186" />
	</node>
	<node id="-457650" lat="60.6078166673" lon="7.31905833706">
		<tag k="alt_name" v="Memorgevatnet, vestre" />
		<tag k="name" v="Vestre Memorgevatnet" />
		<tag k="natural" v="water" />
		<tag k="old_name" v="Memorgevvt, vestre" />
		<tag k="ssr:stedsnr" v="6183" />
	</node>
	<node id="-457649" lat="60.5550957634" lon="7.14075020736">
		<tag k="name" v="Langvatnet" />
		<tag k="natural" v="water" />
		<tag k="ssr:stedsnr" v="6154" />
		<tag k="water" v="lake" />
	</node>
	<node id="-457648" lat="60.4921388854" lon="6.80217499193">
		<tag k="name" v="Demma" />
		<tag k="natural" v="water" />
		<tag k="ssr:stedsnr" v="5400" />
		<tag k="water" v="lake" />
	</node>
	<node id="-458154" lat="60.6011361146" lon="7.52721111896">
		<tag k="name" v="Torbjørnstølsbekken" />
		<tag k="ssr:stedsnr" v="705967" />
		<tag k="waterway" v="stream" />
	</node>
	<node id="-458148" lat="60.6744083295" lon="6.96223611689">
		<tag k="name" v="Bruåni" />
		<tag k="ssr:stedsnr" v="674997" />
		<tag k="waterway" v="river" />
	</node>
	<node id="-458147" lat="60.5956250003" lon="6.88691943669">
		<tag k="name" v="Tjørnåni" />
		<tag k="ssr:stedsnr" v="674904" />
		<tag k="waterway" v="river" />
	</node>
	<node id="-458146" lat="60.5931111128" lon="6.86635277973">
		<tag k="name" v="Espelandselvi" />
		<tag k="ssr:stedsnr" v="674900" />
		<tag k="waterway" v="river" />
	</node>
	<node id="-458144" lat="60.592133336" lon="6.94178610999">
		<tag k="name" v="Djupeviki" />
		<tag k="natural" v="bay" />
		<tag k="ssr:stedsnr" v="674826" />
	</node>
	<node id="-457794" lat="60.5958840038" lon="6.89537414077">
		<tag k="name" v="Tjørn" />
		<tag k="natural" v="water" />
		<tag k="ssr:stedsnr" v="160448" />
	</node>
	<node id="-457622" lat="60.5988500004" lon="6.94649722337">
		<tag k="name" v="Sauamjølka" />
		<tag k="ssr:stedsnr" v="888495" />
		<tag k="waterway" v="stream" />
	</node>
	<node id="-458131" lat="60.6633027745" lon="7.03259723028">
		<tag k="name" v="Fløyelsvatni" />
		<tag k="natural" v="water" />
		<tag k="ssr:stedsnr" v="674106" />
		<tag k="water" v="lake" />
	</node>
	<node id="-458130" lat="60.6524749997" lon="6.9959166587">
		<tag k="name" v="Kvannjolvatnet" />
		<tag k="natural" v="water" />
		<tag k="ssr:stedsnr" v="674103" />
		<tag k="water" v="lake" />
	</node>
	<node id="-458129" lat="60.6743027769" lon="6.99394999342">
		<tag k="name" v="Småfagerdalsvatni" />
		<tag k="natural" v="water" />
		<tag k="ssr:stedsnr" v="674097" />
		<tag k="water" v="lake" />
	</node>
	<node id="-458127" lat="60.651924996" lon="7.29130277713">
		<tag k="name" v="Høghellervatnet" />
		<tag k="natural" v="water" />
		<tag k="ssr:stedsnr" v="674083" />
		<tag k="water" v="lake" />
	</node>
	<node id="-458124" lat="60.6221250027" lon="7.07408056365">
		<tag k="name" v="Tverrelvi" />
		<tag k="ssr:stedsnr" v="674075" />
		<tag k="waterway" v="stream" />
	</node>
	<node id="-458123" lat="60.6120141918" lon="7.18372628136">
		<tag k="alt_name" v="Rundavatnet, vetle" />
		<tag k="name" v="Vetle Rundavatnet" />
		<tag k="natural" v="water" />
		<tag k="old_name" v="Rundavatnet, vle" />
		<tag k="ssr:stedsnr" v="674067" />
	</node>
	<node id="-458118" lat="60.6000916677" lon="6.96131666194">
		<tag k="name" v="Krokslielvi" />
		<tag k="ssr:stedsnr" v="673941" />
		<tag k="waterway" v="river" />
	</node>
	<node id="-457605" lat="60.5674388866" lon="6.95491665776">
		<tag k="name" v="Løken" />
		<tag k="natural" v="water" />
		<tag k="ssr:stedsnr" v="402639" />
		<tag k="water" v="lake" />
	</node>
	<node id="-457602" lat="60.5671119848" lon="6.87150324375">
		<tag k="name" v="Rundatjørn" />
		<tag k="natural" v="water" />
		<tag k="ssr:stedsnr" v="402619" />
	</node>
	<node id="-458112" lat="60.5715222261" lon="6.89802222954">
		<tag k="name" v="Bergabekken" />
		<tag k="ssr:stedsnr" v="665235" />
		<tag k="waterway" v="stream" />
	</node>
	<node id="-458109" lat="60.5833749994" lon="7.05535277469">
		<tag k="name" v="Austdølo" />
		<tag k="ssr:stedsnr" v="645982" />
		<tag k="waterway" v="river" />
	</node>
	<node id="-457596" lat="60.6121527796" lon="6.96040278081">
		<tag k="name" v="Hengelibekken" />
		<tag k="ssr:stedsnr" v="402587" />
		<tag k="waterway" v="stream" />
	</node>
	<node id="-458107" lat="60.5879111081" lon="7.05359444892">
		<tag k="name" v="Hestabekken" />
		<tag k="ssr:stedsnr" v="645600" />
		<tag k="waterway" v="stream" />
	</node>
	<node id="-458103" lat="60.5921833356" lon="6.81928889106">
		<tag k="name" v="Oldernes" />
		<tag k="natural" v="cape" />
		<tag k="ssr:stedsnr" v="645577" />
	</node>
	<node id="-457587" lat="60.4940138892" lon="6.834024996">
		<tag k="name" v="Kariteigelvi" />
		<tag k="ssr:stedsnr" v="402535" />
		<tag k="waterway" v="river" />
	</node>
	<node id="-458097" lat="60.594713892" lon="6.92601110421">
		<tag k="name" v="Klovdalsneset" />
		<tag k="natural" v="cape" />
		<tag k="ssr:stedsnr" v="645493" />
	</node>
	<node id="-458093" lat="60.6695777801" lon="7.23029443926">
		<tag k="name" v="Øyane" />
		<tag k="place" v="island" />
		<tag k="ssr:stedsnr" v="644969" />
	</node>
	<node id="-457580" lat="60.6844444477" lon="6.95435000709">
		<tag k="name" v="Slondalsvatnet" />
		<tag k="natural" v="water" />
		<tag k="ssr:stedsnr" v="371983" />
		<tag k="water" v="lake" />
	</node>
	<node id="-457579" lat="60.5930083331" lon="6.87428888896">
		<tag k="name" v="Sotenoselvi" />
		<tag k="ssr:stedsnr" v="371926" />
		<tag k="waterway" v="river" />
	</node>
	<node id="-457576" lat="60.5762251358" lon="6.82792513212">
		<tag k="name" v="Tjørnane" />
		<tag k="natural" v="water" />
		<tag k="ssr:stedsnr" v="371871" />
		<tag k="water" v="lake" />
	</node>
	<node id="-457617" lat="60.5591560029" lon="6.84443537262">
		<tag k="alt_name" v="Skitnasetbekkjen" />
		<tag k="name" v="Skitnasetbekken" />
		<tag k="ssr:stedsnr" v="887942" />
		<tag k="waterway" v="stream" />
	</node>
	<node id="-457572" lat="60.6103999966" lon="7.43670000511">
		<tag k="name" v="Sandåvatnet" />
		<tag k="natural" v="water" />
		<tag k="ssr:stedsnr" v="371274" />
		<tag k="water" v="lake" />
	</node>
	<node id="-457570" lat="60.675281781" lon="7.18132652112">
		<tag k="alt_name" v="Grøndalsvatnet, øvre" />
		<tag k="name" v="Øvre Grøndalsvatnet" />
		<tag k="natural" v="water" />
		<tag k="ssr:stedsnr" v="371087" />
		<tag k="water" v="lake" />
	</node>
	<node id="-457569" lat="60.676581403" lon="7.13800331656">
		<tag k="name" v="Austmannatjørni" />
		<tag k="natural" v="water" />
		<tag k="ssr:stedsnr" v="371086" />
	</node>
	<node id="-458079" lat="60.5590222195" lon="6.8732916729">
		<tag k="alt_name" v="Lindebrekkelvi" />
		<tag k="name" v="Audnalondselvi" />
		<tag k="ssr:stedsnr" v="613758" />
		<tag k="waterway" v="river" />
	</node>
	<node id="-457565" lat="60.6208429467" lon="7.20621085575">
		<tag k="name" v="Kvilinganutvatnet" />
		<tag k="natural" v="water" />
		<tag k="ssr:stedsnr" v="371059" />
		<tag k="water" v="lake" />
	</node>
	<node id="-457563" lat="60.6057277821" lon="6.95776111181">
		<tag k="name" v="Eitro" />
		<tag k="ssr:stedsnr" v="370945" />
		<tag k="waterway" v="stream" />
	</node>
	<node id="-458071" lat="60.7159077819" lon="6.99824402202">
		<tag k="name" v="Rundavatnet" />
		<tag k="natural" v="water" />
		<tag k="ssr:stedsnr" v="613120" />
	</node>
	<node id="-457556" lat="60.5981083373" lon="7.27537499511">
		<tag k="name" v="Austdøla" />
		<tag k="ssr:stedsnr" v="370215" />
		<tag k="waterway" v="river" />
	</node>
	<node id="-457553" lat="60.5501727254" lon="7.10883728897">
		<tag k="name" v="Kvilingavatnet" />
		<tag k="natural" v="water" />
		<tag k="ssr:stedsnr" v="370176" />
	</node>
	<node id="-457552" lat="60.5113666681" lon="6.89889444777">
		<tag k="loc_name" v="Atlåksbekken" />
		<tag k="name" v="Atlåsbekken" />
		<tag k="ssr:stedsnr" v="370029" />
		<tag k="waterway" v="stream" />
	</node>
	<node id="-458061" lat="60.5742738173" lon="7.14834632709">
		<tag k="name" v="Olbogavatnet" />
		<tag k="natural" v="water" />
		<tag k="ssr:stedsnr" v="612183" />
		<tag k="water" v="lake" />
	</node>
	<node id="-457545" lat="60.5472666624" lon="6.85463610484">
		<tag k="name" v="Kaasbekkjen" />
		<tag k="ssr:stedsnr" v="342561" />
		<tag k="waterway" v="stream" />
	</node>
	<node id="-457543" lat="60.587432944" lon="6.86313513798">
		<tag k="alt_name" v="Lomtjødn" />
		<tag k="name" v="Lomtjørn" />
		<tag k="natural" v="water" />
		<tag k="ssr:stedsnr" v="342550" />
	</node>
	<node id="-458051" lat="60.6948222227" lon="7.20314721659">
		<tag k="name" v="Grøndalselvi" />
		<tag k="ssr:stedsnr" v="584999" />
		<tag k="waterway" v="river" />
	</node>
	<node id="-458049" lat="60.6745916679" lon="7.20629721974">
		<tag k="name" v="Øvra Grøndalselvi" />
		<tag k="ssr:stedsnr" v="584652" />
		<tag k="waterway" v="river" />
	</node>
	<node id="-457536" lat="60.5764138907" lon="6.94592776904">
		<tag k="name" v="Sysebekken" />
		<tag k="ssr:stedsnr" v="342520" />
		<tag k="waterway" v="stream" />
	</node>
	<node id="-457533" lat="60.6039833314" lon="6.93560832552">
		<tag k="name" v="Løken" />
		<tag k="ssr:stedsnr" v="342479" />
		<tag k="waterway" v="stream" />
	</node>
	<node id="-457529" lat="60.6919694478" lon="7.20404999359">
		<tag k="name" v="Storehølen" />
		<tag k="place" v="locality" />
		<tag k="ssr:stedsnr" v="341999" />
	</node>
	<node id="-457525" lat="60.5975444445" lon="7.02768055318">
		<tag k="name" v="Langjekjosbekken" />
		<tag k="ssr:stedsnr" v="341978" />
		<tag k="waterway" v="stream" />
	</node>
	<node id="-457518" lat="60.5825194478" lon="6.87346110712">
		<tag k="name" v="Tysso" />
		<tag k="ssr:stedsnr" v="310872" />
		<tag k="waterway" v="river" />
	</node>
	<node id="-457516" lat="60.5884138926" lon="6.8602166604">
		<tag k="name" v="Drevtjørn" />
		<tag k="natural" v="water" />
		<tag k="ssr:stedsnr" v="310824" />
	</node>
	<node id="-458027" lat="60.6279777821" lon="7.55083333279">
		<tag k="name" v="Sanddalsvatnet" />
		<tag k="natural" v="water" />
		<tag k="ssr:stedsnr" v="553188" />
		<tag k="water" v="lake" />
	</node>
	<node id="-458025" lat="60.6211055538" lon="7.45492499226">
		<tag k="name" v="Sandåi" />
		<tag k="ssr:stedsnr" v="553176" />
		<tag k="waterway" v="stream" />
	</node>
	<node id="-458022" lat="60.6384277785" lon="7.18682499545">
		<tag k="alt_name" v="Grøndalsvatnet, s" />
		<tag k="name" v="Søre Grøndalsvatnet" />
		<tag k="natural" v="water" />
		<tag k="ssr:stedsnr" v="553080" />
		<tag k="water" v="lake" />
	</node>
	<node id="-458021" lat="60.62024782" lon="7.05847711507">
		<tag k="name" v="Ossetetjørni" />
		<tag k="natural" v="water" />
		<tag k="ssr:stedsnr" v="553067" />
	</node>
	<node id="-457606" lat="60.5655972199" lon="6.85952222844">
		<tag k="name" v="Jeltnebekken" />
		<tag k="ssr:stedsnr" v="402924" />
		<tag k="waterway" v="stream" />
	</node>
	<node id="-457505" lat="60.5983333335" lon="7.19627221955">
		<tag k="name" v="Austdøla" />
		<tag k="ssr:stedsnr" v="310167" />
		<tag k="waterway" v="river" />
	</node>
	<node id="-457504" lat="60.605268321" lon="7.17494495941">
		<tag k="name" v="Rundavatnet" />
		<tag k="natural" v="water" />
		<tag k="ssr:stedsnr" v="310165" />
		<tag k="water" v="lake" />
	</node>
	<node id="-457503" lat="60.6037000021" lon="7.06002500791">
		<tag k="name" v="Bjørndøla" />
		<tag k="ssr:stedsnr" v="310164" />
		<tag k="waterway" v="stream" />
	</node>
	<node id="-458013" lat="60.5529638893" lon="6.86728054826">
		<tag k="name" v="Vambheimselvi" />
		<tag k="ssr:stedsnr" v="552787" />
		<tag k="waterway" v="river" />
	</node>
	<node id="-458008" lat="60.5896199056" lon="7.14921272351">
		<tag k="name" v="Austdølnutvatnet" />
		<tag k="natural" v="water" />
		<tag k="ssr:stedsnr" v="552171" />
		<tag k="water" v="lake" />
	</node>
	<node id="-457492" lat="60.5621249964" lon="7.00073333002">
		<tag k="name" v="Balåi" />
		<tag k="ssr:stedsnr" v="309177" />
		<tag k="waterway" v="stream" />
	</node>
	<node id="-457999" lat="60.6002694472" lon="7.01308333983">
		<tag k="name" v="Olstølsvatna" />
		<tag k="natural" v="water" />
		<tag k="ssr:stedsnr" v="524967" />
		<tag k="water" v="lake" />
	</node>
	<node id="-457485" lat="60.6768861072" lon="7.24005833863">
		<tag k="name" v="Tjovadalsbekken" />
		<tag k="ssr:stedsnr" v="281971" />
		<tag k="waterway" v="stream" />
	</node>
	<node id="-457996" lat="60.5573361131" lon="6.83073889241">
		<tag k="name" v="Skraolebekkjen" />
		<tag k="ssr:stedsnr" v="524554" />
		<tag k="waterway" v="stream" />
	</node>
	<node id="-457990" lat="60.5331666698" lon="6.96717778635">
		<tag k="name" v="Gudlurbekken" />
		<tag k="ssr:stedsnr" v="524460" />
		<tag k="waterway" v="stream" />
	</node>
	<node id="-457474" lat="60.6102527763" lon="6.95189443881">
		<tag k="name" v="Stibekken" />
		<tag k="ssr:stedsnr" v="281565" />
		<tag k="waterway" v="stream" />
	</node>
	<node id="-457977" lat="60.6576499956" lon="6.86832499186">
		<tag k="name" v="Vesetvatnet" />
		<tag k="natural" v="water" />
		<tag k="ssr:stedsnr" v="492967" />
		<tag k="water" v="lake" />
	</node>
	<node id="-457972" lat="60.5468753179" lon="6.82233481578">
		<tag k="name" v="Litlalitjørni" />
		<tag k="natural" v="water" />
		<tag k="ssr:stedsnr" v="492795" />
		<tag k="water" v="lake" />
	</node>
	<node id="-457966" lat="60.5908572591" lon="7.00039519769">
		<tag k="name" v="Instavatnet" />
		<tag k="natural" v="water" />
		<tag k="ssr:stedsnr" v="492134" />
	</node>
	<node id="-457597" lat="60.6125199016" lon="6.96594750412">
		<tag k="name" v="Hengelitjørn" />
		<tag k="natural" v="water" />
		<tag k="ssr:stedsnr" v="402588" />
	</node>
	<node id="-457959" lat="60.5142327057" lon="6.87042101054">
		<tag k="name" v="Langetjørn" />
		<tag k="natural" v="water" />
		<tag k="ssr:stedsnr" v="492017" />
	</node>
	<node id="-457957" lat="60.6055361113" lon="6.94438610534">
		<tag k="name" v="Øyarstølselvi" />
		<tag k="ssr:stedsnr" v="491940" />
		<tag k="waterway" v="river" />
	</node>
	<node id="-457951" lat="60.5955734879" lon="6.972073029">
		<tag k="name" v="Jonstølselvi" />
		<tag k="ssr:stedsnr" v="463920" />
		<tag k="waterway" v="river" />
	</node>
	<node id="-457678" lat="60.7182416711" lon="7.01164721665">
		<tag k="name" v="Trettehaugsbekken" />
		<tag k="ssr:stedsnr" v="37994" />
		<tag k="waterway" v="stream" />
	</node>
	<node id="-457507" lat="60.5955249973" lon="7.48755278682">
		<tag k="name" v="Finseneset" />
		<tag k="natural" v="cape" />
		<tag k="ssr:stedsnr" v="310282" />
	</node>
	<node id="-457936" lat="60.7176666655" lon="7.01439166972">
		<tag k="name" v="Trettehaugstjørni" />
		<tag k="natural" v="water" />
		<tag k="ssr:stedsnr" v="463000" />
	</node>
	<node id="-457927" lat="60.5694905335" lon="6.87556900992">
		<tag k="name" v="Lomtjørn" />
		<tag k="natural" v="water" />
		<tag k="ssr:stedsnr" v="432881" />
	</node>
	<node id="-457924" lat="60.5472194421" lon="6.89124444865">
		<tag k="name" v="Krobekken" />
		<tag k="ssr:stedsnr" v="432795" />
		<tag k="waterway" v="stream" />
	</node>
	<node id="-457923" lat="60.5335754299" lon="6.85114536951">
		<tag k="name" v="Laugartjørni" />
		<tag k="natural" v="water" />
		<tag k="ssr:stedsnr" v="432773" />
	</node>
	<node id="-457918" lat="60.6499444428" lon="7.30756943777">
		<tag k="name" v="Låghellervatnet" />
		<tag k="natural" v="water" />
		<tag k="ssr:stedsnr" v="432074" />
		<tag k="water" v="lake" />
	</node>
	<node id="-458015" lat="60.5500315804" lon="6.83502441518">
		<tag k="name" v="Skjelmarhaugstjørni" />
		<tag k="natural" v="water" />
		<tag k="ssr:stedsnr" v="552838" />
	</node>
	<node id="-457906" lat="60.5402750017" lon="7.01898333855">
		<tag k="name" v="Døgrdalsvatnet" />
		<tag k="natural" v="water" />
		<tag k="ssr:stedsnr" v="431174" />
		<tag k="water" v="lake" />
	</node>
	<node id="-457905" lat="60.5302217724" lon="7.11576408266">
		<tag k="name" v="Istjørni" />
		<tag k="natural" v="water" />
		<tag k="ssr:stedsnr" v="431168" />
	</node>
	<node id="-457904" lat="60.5034194444" lon="6.8775749943">
		<tag k="name" v="Sandviksbekken" />
		<tag k="ssr:stedsnr" v="431018" />
		<tag k="waterway" v="stream" />
	</node>
	<node id="-457895" lat="60.6467999999" lon="7.03122499565">
		<tag k="name" v="Skipanutvatnet" />
		<tag k="natural" v="water" />
		<tag k="ssr:stedsnr" v="250094" />
		<tag k="water" v="lake" />
	</node>
	<node id="-457892" lat="60.6360944518" lon="7.33094321018">
		<tag k="name" v="Låghellertjørni" />
		<tag k="natural" v="water" />
		<tag k="ssr:stedsnr" v="250075" />
	</node>
	<node id="-457887" lat="60.581844445" lon="6.84933333609">
		<tag k="name" v="Grostølselvi" />
		<tag k="ssr:stedsnr" v="249823" />
		<tag k="waterway" v="river" />
	</node>
	<node id="-457882" lat="60.5495023497" lon="7.56025404191">
		<tag k="name" v="Torsteinsvatnet" />
		<tag k="natural" v="water" />
		<tag k="ssr:stedsnr" v="249298" />
	</node>
	<node id="-457753" lat="60.5739777757" lon="7.0147861026">
		<tag k="name" v="Kaldabekk" />
		<tag k="ssr:stedsnr" v="99977" />
		<tag k="waterway" v="stream" />
	</node>
	<node id="-457838" lat="60.6116250043" lon="7.49560276853">
		<tag k="name" v="Finseelvi" />
		<tag k="ssr:stedsnr" v="189255" />
		<tag k="waterway" v="stream" />
	</node>
	<node id="-457873" lat="60.511032271" lon="6.97306449345">
		<tag k="name" v="Demma" />
		<tag k="natural" v="water" />
		<tag k="ssr:stedsnr" v="248133" />
	</node>
	<node id="-458383" lat="60.7115166654" lon="6.98863889378">
		<tag k="name" v="Rustedølo" />
		<tag k="ssr:stedsnr" v="949565" />
		<tag k="waterway" v="river" />
	</node>
	<node id="-457865" lat="60.5719916667" lon="7.55427777309">
		<tag k="name" v="Hansbuelvi" />
		<tag k="ssr:stedsnr" v="220909" />
		<tag k="waterway" v="river" />
	</node>
	<node id="-457836" lat="60.6185861149" lon="7.41153333571">
		<tag k="name" v="Sliråni" />
		<tag k="ssr:stedsnr" v="189182" />
		<tag k="waterway" v="stream" />
	</node>
	<node id="-458211" lat="60.5411944402" lon="6.89387778451">
		<tag k="name" v="Frystebekken" />
		<tag k="ssr:stedsnr" v="735780" />
		<tag k="waterway" v="stream" />
	</node>
	<node id="-458364" lat="60.6814500013" lon="7.22226945142">
		<tag k="name" v="Smørsund" />
		<tag k="natural" v="strait" />
		<tag k="ssr:stedsnr" v="948974" />
	</node>
	<node id="-457846" lat="60.538580555" lon="6.89093054692">
		<tag k="name" v="Frystetjørni" />
		<tag k="natural" v="water" />
		<tag k="ssr:stedsnr" v="189759" />
	</node>
	<node id="-457844" lat="60.5757500012" lon="7.50915277276">
		<tag k="name" v="Styggelvane" />
		<tag k="ssr:stedsnr" v="189277" />
		<tag k="waterway" v="river" />
	</node>
	<node id="-457842" lat="60.5559750037" lon="7.640949992">
		<tag k="name" v="Nedsta Storurevatnet" />
		<tag k="natural" v="water" />
		<tag k="ssr:stedsnr" v="189263" />
	</node>
	<node id="-458350" lat="60.6159250002" lon="7.38072778615">
		<tag k="name" v="Fagervatnet" />
		<tag k="natural" v="water" />
		<tag k="ssr:stedsnr" v="917163" />
		<tag k="water" v="lake" />
	</node>
	<node id="-457837" lat="60.592499996" lon="7.47984444385">
		<tag k="name" v="Finsevatnet" />
		<tag k="natural" v="water" />
		<tag k="ssr:stedsnr" v="189248" />
		<tag k="water" v="lake" />
	</node>
	<node id="-458348" lat="60.5790194407" lon="7.06869999486">
		<tag k="alt_name" v="Austdøla" />
		<tag k="name" v="Austdølo" />
		<tag k="ssr:stedsnr" v="917123" />
		<tag k="waterway" v="river" />
	</node>
	<node id="-458346" lat="60.6981999971" lon="7.07952500092">
		<tag k="name" v="Kaldavatni" />
		<tag k="natural" v="water" />
		<tag k="ssr:stedsnr" v="917086" />
		<tag k="water" v="lake" />
	</node>
	<node id="-457831" lat="60.6837861081" lon="7.30741111363">
		<tag k="name" v="Skomavatnet" />
		<tag k="natural" v="water" />
		<tag k="ssr:stedsnr" v="189087" />
		<tag k="water" v="lake" />
	</node>
	<node id="-457832" lat="60.6863083291" lon="7.21382499845">
		<tag k="alt_name" v="Grøndalsvatnet, nedre;Nedra Grøndalsvatnet;Nedra Grønndalsvatnet" />
		<tag k="name" v="Nedre Grøndalsvatnet" />
		<tag k="natural" v="water" />
		<tag k="ssr:stedsnr" v="189101" />
		<tag k="water" v="lake" />
	</node>
	<node id="-458343" lat="60.5257805582" lon="6.85431110899">
		<tag k="name" v="Kræmaren" />
		<tag k="ssr:stedsnr" v="917039" />
		<tag k="waterway" v="stream" />
	</node>
	<node id="-457852" lat="60.592005787" lon="6.85077548416">
		<tag k="name" v="Stokkavatnet" />
		<tag k="natural" v="water" />
		<tag k="ssr:stedsnr" v="189907" />
		<tag k="water" v="lake" />
	</node>
	<node id="-457830" lat="60.6304083339" lon="7.07237499107">
		<tag k="name" v="Norddøla" />
		<tag k="ssr:stedsnr" v="189066" />
		<tag k="waterway" v="stream" />
	</node>
	<node id="-458336" lat="60.6102138851" lon="6.92584999538">
		<tag k="name" v="Skorelvi" />
		<tag k="ssr:stedsnr" v="916900" />
		<tag k="waterway" v="river" />
	</node>
	<node id="-457573" lat="60.6079000041" lon="7.39992500058">
		<tag k="name" v="Ustekveikvatnet" />
		<tag k="natural" v="water" />
		<tag k="ssr:stedsnr" v="371275" />
		<tag k="water" v="lake" />
	</node>
	<node id="-457820" lat="60.5056416627" lon="6.89633332887">
		<tag k="name" v="Vedåni" />
		<tag k="ssr:stedsnr" v="188016" />
		<tag k="waterway" v="river" />
	</node>
	<node id="-458331" lat="60.6580277738" lon="7.36754445135">
		<tag k="name" v="Svartavatnet" />
		<tag k="natural" v="water" />
		<tag k="ssr:stedsnr" v="857891" />
		<tag k="water" v="lake" />
	</node>
	<node id="-458330" lat="60.6688611079" lon="7.06341111231">
		<tag k="name" v="Kaldavatni" />
		<tag k="natural" v="water" />
		<tag k="ssr:stedsnr" v="857875" />
		<tag k="water" v="lake" />
	</node>
	<node id="-457487" lat="60.5850055556" lon="7.04903055838">
		<tag k="name" v="Røykjafossen" />
		<tag k="natural" v="waterfall" />
		<tag k="ssr:stedsnr" v="281995" />
	</node>
	<node id="-457815" lat="60.4849194457" lon="6.80703055336">
		<tag k="name" v="Kvammaelvi" />
		<tag k="ssr:stedsnr" v="187404" />
		<tag k="waterway" v="river" />
	</node>
	<node id="-457814" lat="60.5715833367" lon="6.89847499173">
		<tag k="name" v="Bergafossen" />
		<tag k="natural" v="waterfall" />
		<tag k="ssr:stedsnr" v="180211" />
	</node>
	<node id="-457913" lat="60.6051694433" lon="6.9514758619">
		<tag k="name" v="Rindatjørni" />
		<tag k="natural" v="water" />
		<tag k="ssr:stedsnr" v="431948" />
	</node>
	<node id="-458321" lat="60.646425001" lon="7.07637500225">
		<tag k="name" v="Skrulsvatnet" />
		<tag k="natural" v="water" />
		<tag k="ssr:stedsnr" v="857088" />
		<tag k="water" v="lake" />
	</node>
	<node id="-458320" lat="60.6296916664" lon="6.99138889366">
		<tag k="loc_name" v="Ljonaskrulen" />
		<tag k="name" v="Ljoneskrulen" />
		<tag k="natural" v="water" />
		<tag k="ssr:stedsnr" v="857084" />
		<tag k="water" v="lake" />
	</node>
	<node id="-457806" lat="60.5758249991" lon="6.93349722908">
		<tag k="name" v="Hakastadbekken" />
		<tag k="old_name" v="Hakastebekken" />
		<tag k="ssr:stedsnr" v="160542" />
		<tag k="waterway" v="stream" />
	</node>
	<node id="-458317" lat="60.529174999" lon="6.87099999676">
		<tag k="name" v="Eitro" />
		<tag k="ssr:stedsnr" v="857050" />
		<tag k="waterway" v="stream" />
	</node>
	<node id="-457804" lat="60.5738222198" lon="6.95750832621">
		<tag k="name" v="Gauro" />
		<tag k="ssr:stedsnr" v="160531" />
		<tag k="waterway" v="stream" />
	</node>
	<node id="-458315" lat="60.5280666708" lon="6.837955553">
		<tag k="name" v="Myrdalselvi" />
		<tag k="ssr:stedsnr" v="857049" />
		<tag k="waterway" v="river" />
	</node>
	<node id="-458314" lat="60.5210166646" lon="6.83844444146">
		<tag k="name" v="Ilagselvi" />
		<tag k="ssr:stedsnr" v="857036" />
		<tag k="waterway" v="river" />
	</node>
	<node id="-457798" lat="60.5067361106" lon="6.89001388043">
		<tag k="name" v="Veaonesbekken" />
		<tag k="ssr:stedsnr" v="160500" />
		<tag k="waterway" v="stream" />
	</node>
	<node id="-457795" lat="60.5242750045" lon="6.95351944908">
		<tag k="name" v="Høganutbekken" />
		<tag k="ssr:stedsnr" v="160452" />
		<tag k="waterway" v="stream" />
	</node>
	<node id="-458306" lat="60.5740805594" lon="7.06074721337">
		<tag k="name" v="Kyrelvi" />
		<tag k="ssr:stedsnr" v="856160" />
		<tag k="waterway" v="stream" />
	</node>
	<node id="-457793" lat="60.5905861121" lon="6.87774445056">
		<tag k="name" v="Bytesbekken" />
		<tag k="ssr:stedsnr" v="160445" />
		<tag k="waterway" v="stream" />
	</node>
	<node id="-458304" lat="60.597836107" lon="6.92622500088">
		<tag k="name" v="Solsævatnet" />
		<tag k="natural" v="water" />
		<tag k="ssr:stedsnr" v="855942" />
		<tag k="water" v="lake" />
	</node>
	<node id="-457790" lat="60.5499416686" lon="6.84115555594">
		<tag k="name" v="Skjelmhaugsbekkjen" />
		<tag k="ssr:stedsnr" v="159925" />
		<tag k="waterway" v="stream" />
	</node>
	<node id="-458298" lat="60.7101722249" lon="6.99550555451">
		<tag k="name" v="Dalabekken" />
		<tag k="ssr:stedsnr" v="828587" />
		<tag k="waterway" v="stream" />
	</node>
	<node id="-457652" lat="60.591325464" lon="6.99257247649">
		<tag k="name" v="Midvatnet" />
		<tag k="natural" v="water" />
		<tag k="ssr:stedsnr" v="6189" />
	</node>
	<node id="-458294" lat="60.5470527792" lon="6.9455361156">
		<tag k="name" v="Drivbekken" />
		<tag k="ssr:stedsnr" v="828542" />
		<tag k="waterway" v="stream" />
	</node>
	<node id="-458290" lat="60.5924249961" lon="7.55966388805">
		<tag k="name" v="Larsbuelvi" />
		<tag k="ssr:stedsnr" v="827974" />
		<tag k="waterway" v="river" />
	</node>
	<node id="-457782" lat="60.5938027818" lon="6.93817500674">
		<tag k="name" v="Klovdalsholmen" />
		<tag k="place" v="islet" />
		<tag k="ssr:stedsnr" v="128839" />
	</node>
	<node id="-457773" lat="60.5822305593" lon="7.11248610253">
		<tag k="name" v="Austdølvatnet" />
		<tag k="natural" v="water" />
		<tag k="ssr:stedsnr" v="128130" />
	</node>
	<node id="-458280" lat="60.6001222224" lon="6.8743583398">
		<tag k="name" v="Tyssedalselvi" />
		<tag k="ssr:stedsnr" v="828590" />
		<tag k="waterway" v="stream" />
	</node>
	<node id="-458276" lat="60.6607194471" lon="6.96731388507">
		<tag k="name" v="Kvanngjolo" />
		<tag k="ssr:stedsnr" v="796971" />
		<tag k="waterway" v="river" />
	</node>
	<node id="-457611" lat="60.5422305558" lon="6.85733332534">
		<tag k="name" v="Bytesbekkjen" />
		<tag k="ssr:stedsnr" v="403579" />
		<tag k="waterway" v="stream" />
	</node>
	<node id="-458270" lat="60.5888000018" lon="7.58389999352">
		<tag k="name" v="Tverråni" />
		<tag k="ssr:stedsnr" v="796273" />
		<tag k="waterway" v="stream" />
	</node>
	<node id="-457756" lat="60.7077528561" lon="6.99165010074">
		<tag k="name" v="Viki" />
		<tag k="natural" v="bay" />
		<tag k="ssr:stedsnr" v="99988" />
	</node>
	<node id="-458265" lat="60.6850555546" lon="6.99404999725">
		<tag k="name" v="Fagerdalsvatnet" />
		<tag k="natural" v="water" />
		<tag k="ssr:stedsnr" v="796095" />
		<tag k="water" v="lake" />
	</node>
	<node id="-458259" lat="60.5899091607" lon="6.93017855269">
		<tag k="name" v="Lomtjørn" />
		<tag k="natural" v="water" />
		<tag k="ssr:stedsnr" v="795842" />
	</node>
	<node id="-458256" lat="60.5531750002" lon="7.61869999754">
		<tag k="name" v="Øvsta Storurevatnet" />
		<tag k="natural" v="water" />
		<tag k="ssr:stedsnr" v="795337" />
	</node>
	<node id="-458251" lat="60.5158444463" lon="6.95374999522">
		<tag k="name" v="Bagnselvi" />
		<tag k="ssr:stedsnr" v="795033" />
		<tag k="waterway" v="river" />
	</node>
	<node id="-458248" lat="60.5719361071" lon="6.91463056446">
		<tag k="name" v="Slettarebekken" />
		<tag k="ssr:stedsnr" v="767614" />
		<tag k="waterway" v="stream" />
	</node>
	<node id="-457735" lat="60.6113388891" lon="6.95042778319">
		<tag k="name" v="Gjennstigelvi" />
		<tag k="ssr:stedsnr" v="99557" />
		<tag k="waterway" v="stream" />
	</node>
	<node id="-458243" lat="60.6926472217" lon="7.22289444596">
		<tag k="name" v="Grøndalsbekken" />
		<tag k="ssr:stedsnr" v="766963" />
		<tag k="waterway" v="stream" />
	</node>
	<node id="-458241" lat="60.6923363667" lon="6.97067706983">
		<tag k="name" v="Tjørni" />
		<tag k="natural" v="water" />
		<tag k="ssr:stedsnr" v="766628" />
	</node>
</osm>
