<?xml version="1.0" encoding="UTF-8"?>
<osm generator="osmapis" version="0.6">
	<node id="-861152" lat="63.0500527747" lon="9.71306111928">
		<tag k="name" v="Meldalstunet" />
		<tag k="ssr:stedsnr" v="950533" />
		<tag k="tourism" v="museum" />
	</node>
	<node id="-860028" lat="63.1247876112" lon="9.70506128757">
		<tag k="name" v="Løkken stasjon" />
		<tag k="ssr:stedsnr" v="343545" />
		<tag k="tourism" v="museum" />
	</node>
	<node id="-860695" lat="63.046024997" lon="9.71094722972">
		<tag k="amenity" v="community_centre" />
		<tag k="name" v="Meldal forsamlingshus" />
		<tag k="ssr:stedsnr" v="889568" />
	</node>
	<node id="-860470" lat="63.1260444415" lon="9.70520834001">
		<tag k="name" v="Meldal folkebibliotek" />
		<tag k="ssr:stedsnr" v="889562" />
		<tag k="tourism" v="museum" />
	</node>
	<node id="-861362" lat="63.1251858024" lon="9.70542047486">
		<tag k="name" v="Orkla industrimuseum" />
		<tag k="ssr:stedsnr" v="404530" />
		<tag k="tourism" v="museum" />
	</node>
	<node id="-860199" lat="63.125086109" lon="9.78933611089">
		<tag k="alt_name" v="Urvass-saga" />
		<tag k="name" v="Urvassaga" />
		<tag k="place" v="locality" />
		<tag k="ssr:stedsnr" v="150274" />
	</node>
	<node id="-861774" lat="63.1219694441" lon="9.70142221696">
		<tag k="name" v="Gammelgruva" />
		<tag k="ssr:stedsnr" v="646542" />
		<tag k="tourism" v="museum" />
	</node>
	<node id="-862125" lat="62.9622212688" lon="9.55177749871">
		<tag k="name" v="Finntrøa" />
		<tag k="place" v="locality" />
		<tag k="ssr:stedsnr" v="971333" />
	</node>
	<node id="-861607" lat="63.0450725451" lon="9.71913300911">
		<tag k="alt_name" v="Meldal" />
		<tag k="amenity" v="place_of_worship" />
		<tag k="denomination" v="lutheran" />
		<tag k="name" v="Meldal kirke" />
		<tag k="religion" v="christian" />
		<tag k="ssr:stedsnr" v="133567" />
	</node>
	<node id="-860103" lat="63.1079416644" lon="9.87857222647">
		<tag k="name" v="Litjbusaga" />
		<tag k="place" v="locality" />
		<tag k="ssr:stedsnr" v="635727" />
	</node>
	<node id="-861633" lat="63.127276507" lon="9.68282963292">
		<tag k="amenity" v="place_of_worship" />
		<tag k="denomination" v="lutheran" />
		<tag k="name" v="Løkken kirke" />
		<tag k="religion" v="christian" />
		<tag k="ssr:stedsnr" v="619525" />
	</node>
</osm>
