<?xml version="1.0" encoding="UTF-8"?>
<osm generator="osmapis" version="0.6">
	<node id="-860160" lat="62.9803222206" lon="9.63647778423">
		<tag k="name" v="Trostykkjmyran" />
		<tag k="natural" v="wetland" />
		<tag k="ssr:stedsnr" v="514241" />
	</node>
	<node id="-862208" lat="63.0936277775" lon="9.83595556216">
		<tag k="name" v="Granin" />
		<tag k="place" v="locality" />
		<tag k="ssr:stedsnr" v="271806" />
	</node>
	<node id="-862205" lat="62.9856722214" lon="9.76013889806">
		<tag k="name" v="Vuttun" />
		<tag k="place" v="locality" />
		<tag k="ssr:stedsnr" v="574116" />
	</node>
	<node id="-860156" lat="63.0552750038" lon="9.69660555487">
		<tag k="name" v="Johåggån" />
		<tag k="place" v="locality" />
		<tag k="ssr:stedsnr" v="392215" />
	</node>
	<node id="-860155" lat="63.0752999975" lon="9.51880278432">
		<tag k="name" v="Bukjølen" />
		<tag k="natural" v="wetland" />
		<tag k="ssr:stedsnr" v="12369" />
	</node>
	<node id="-862202" lat="63.1220611141" lon="9.61254445125">
		<tag k="name" v="Druglistrypet" />
		<tag k="place" v="locality" />
		<tag k="ssr:stedsnr" v="939279" />
	</node>
	<node id="-862201" lat="63.0956833299" lon="9.59313333858">
		<tag k="name" v="Storfuruåkeren" />
		<tag k="place" v="locality" />
		<tag k="ssr:stedsnr" v="332066" />
	</node>
	<node id="-862195" lat="63.1017805575" lon="9.81263889873">
		<tag k="name" v="Torvmyra" />
		<tag k="natural" v="wetland" />
		<tag k="ssr:stedsnr" v="514534" />
	</node>
	<node id="-860143" lat="62.9829444443" lon="9.52433055679">
		<tag k="name" v="Litlgjerdet" />
		<tag k="place" v="locality" />
		<tag k="ssr:stedsnr" v="271529" />
	</node>
	<node id="-860142" lat="63.0586111134" lon="9.5652388839">
		<tag k="name" v="Dombusenget" />
		<tag k="natural" v="wetland" />
		<tag k="ssr:stedsnr" v="271108" />
	</node>
	<node id="-862183" lat="63.0825972257" lon="9.55916388206">
		<tag k="name" v="Slåttøyan" />
		<tag k="place" v="locality" />
		<tag k="ssr:stedsnr" v="29116" />
	</node>
	<node id="-860133" lat="63.1007500024" lon="9.66789722178">
		<tag k="historic" v="shieling" />
		<tag k="name" v="Stendalsvollen" />
		<tag k="place" v="locality" />
		<tag k="ssr:stedsnr" v="29242" />
	</node>
	<node id="-860131" lat="63.1280055594" lon="9.50608889723">
		<tag k="landuse" v="meadow" />
		<tag k="name" v="Stakkenget" />
		<tag k="ssr:stedsnr" v="939403" />
	</node>
	<node id="-860130" lat="63.0089944478" lon="9.92203888678">
		<tag k="name" v="Svorkøyan" />
		<tag k="natural" v="wetland" />
		<tag k="ssr:stedsnr" v="635327" />
	</node>
	<node id="-860129" lat="63.0489305555" lon="9.69177222247">
		<tag k="name" v="Hårråøya" />
		<tag k="place" v="locality" />
		<tag k="ssr:stedsnr" v="211171" />
	</node>
	<node id="-860128" lat="63.0642555589" lon="9.56079167228">
		<tag k="name" v="Fjellslåttkjølen" />
		<tag k="natural" v="wetland" />
		<tag k="ssr:stedsnr" v="271106" />
	</node>
	<node id="-862173" lat="62.9878583333" lon="9.77265277755">
		<tag k="name" v="Fosskleva" />
		<tag k="place" v="locality" />
		<tag k="ssr:stedsnr" v="29112" />
	</node>
	<node id="-862172" lat="62.9919055564" lon="9.50675555771">
		<tag k="name" v="Håkkåslåttmyra" />
		<tag k="natural" v="wetland" />
		<tag k="ssr:stedsnr" v="574540" />
	</node>
	<node id="-862166" lat="63.0530138888" lon="9.89003055917">
		<tag k="name" v="Pissbakkmyra" />
		<tag k="natural" v="wetland" />
		<tag k="ssr:stedsnr" v="28724" />
	</node>
	<node id="-860117" lat="63.0624944474" lon="9.95932499279">
		<tag k="name" v="Kalvhåggån" />
		<tag k="place" v="locality" />
		<tag k="ssr:stedsnr" v="696402" />
	</node>
	<node id="-860115" lat="63.1325583314" lon="9.53995833715">
		<tag k="historic" v="shieling" />
		<tag k="name" v="Gammelsætra Drågset" />
		<tag k="place" v="locality" />
		<tag k="ssr:stedsnr" v="393026" />
	</node>
	<node id="-862157" lat="63.0287666651" lon="9.78437223187">
		<tag k="name" v="Øvre Høyluenget" />
		<tag k="place" v="locality" />
		<tag k="ssr:stedsnr" v="453458" />
	</node>
	<node id="-860104" lat="62.9808916632" lon="9.70344165883">
		<tag k="name" v="Nedståsmyra" />
		<tag k="natural" v="wetland" />
		<tag k="ssr:stedsnr" v="757249" />
	</node>
	<node id="-862149" lat="62.9858555542" lon="9.65986112016">
		<tag k="name" v="Rolegmyra" />
		<tag k="natural" v="wetland" />
		<tag k="ssr:stedsnr" v="454237" />
	</node>
	<node id="-860098" lat="62.9872805548" lon="9.7824277822">
		<tag k="name" v="Sandbrekka" />
		<tag k="place" v="locality" />
		<tag k="ssr:stedsnr" v="878132" />
	</node>
	<node id="-860097" lat="63.0867111154" lon="9.64704165944">
		<tag k="name" v="Tømret" />
		<tag k="place" v="locality" />
		<tag k="ssr:stedsnr" v="29236" />
	</node>
	<node id="-862144" lat="63.0948222229" lon="9.78095555891">
		<tag k="name" v="Stekpanna" />
		<tag k="place" v="locality" />
		<tag k="ssr:stedsnr" v="211457" />
	</node>
	<node id="-860095" lat="62.9880194488" lon="9.70074444543">
		<tag k="name" v="Korsmyra" />
		<tag k="natural" v="wetland" />
		<tag k="ssr:stedsnr" v="89237" />
	</node>
	<node id="-860092" lat="63.0264944486" lon="9.73842222466">
		<tag k="name" v="Brennan" />
		<tag k="place" v="locality" />
		<tag k="ssr:stedsnr" v="271512" />
	</node>
	<node id="-862136" lat="63.1579222192" lon="9.58922777216">
		<tag k="name" v="Storlykkjmyra" />
		<tag k="natural" v="wetland" />
		<tag k="ssr:stedsnr" v="211028" />
	</node>
	<node id="-860087" lat="62.9548833374" lon="9.60910277222">
		<tag k="name" v="Stogjerdet" />
		<tag k="place" v="locality" />
		<tag k="ssr:stedsnr" v="150250" />
	</node>
	<node id="-860086" lat="63.0845222241" lon="9.55710277267">
		<tag k="name" v="Saghåggån" />
		<tag k="place" v="locality" />
		<tag k="ssr:stedsnr" v="878134" />
	</node>
	<node id="-862132" lat="63.0961638896" lon="9.54378611742">
		<tag k="name" v="Såmmårfjøsvollen" />
		<tag k="place" v="locality" />
		<tag k="ssr:stedsnr" v="332057" />
	</node>
	<node id="-862128" lat="63.152819446" lon="9.46537777365">
		<tag k="name" v="Stuttlårekra" />
		<tag k="place" v="locality" />
		<tag k="ssr:stedsnr" v="878415" />
	</node>
	<node id="-859808" lat="62.9970694406" lon="9.73556943909">
		<tag k="name" v="Målagrinda" />
		<tag k="place" v="locality" />
		<tag k="ssr:stedsnr" v="878070" />
	</node>
	<node id="-860078" lat="62.9799083303" lon="9.59188332404">
		<tag k="name" v="Fjelldalskjølen" />
		<tag k="natural" v="wetland" />
		<tag k="ssr:stedsnr" v="29237" />
	</node>
	<node id="-862124" lat="62.9825444464" lon="9.73995833592">
		<tag k="name" v="Ragnhildhåggån" />
		<tag k="place" v="locality" />
		<tag k="ssr:stedsnr" v="574102" />
	</node>
	<node id="-860071" lat="63.1590194449" lon="9.60178888384">
		<tag k="name" v="Damtjønnmyrin" />
		<tag k="natural" v="wetland" />
		<tag k="ssr:stedsnr" v="862537" />
	</node>
	<node id="-860068" lat="62.9744083341" lon="9.69768333253">
		<tag k="name" v="Skulgjerdlotten" />
		<tag k="place" v="locality" />
		<tag k="ssr:stedsnr" v="150255" />
	</node>
	<node id="-860067" lat="62.9806555517" lon="9.78531944385">
		<tag k="name" v="Dulun" />
		<tag k="place" v="locality" />
		<tag k="ssr:stedsnr" v="878138" />
	</node>
	<node id="-862111" lat="63.0477833312" lon="9.61441388365">
		<tag k="name" v="Granin" />
		<tag k="place" v="locality" />
		<tag k="ssr:stedsnr" v="150126" />
	</node>
	<node id="-860062" lat="63.1015027749" lon="9.51690555448">
		<tag k="name" v="Lykkja" />
		<tag k="place" v="locality" />
		<tag k="ssr:stedsnr" v="818389" />
	</node>
	<node id="-860058" lat="62.9874638903" lon="9.51637222918">
		<tag k="name" v="Brandslåtta" />
		<tag k="place" v="locality" />
		<tag k="ssr:stedsnr" v="878552" />
	</node>
	<node id="-860057" lat="63.0374555556" lon="9.72683888007">
		<tag k="name" v="Hollstokalvhåggån" />
		<tag k="place" v="locality" />
		<tag k="ssr:stedsnr" v="818388" />
	</node>
	<node id="-860056" lat="63.0968749956" lon="9.44562222724">
		<tag k="name" v="Lykkja" />
		<tag k="place" v="locality" />
		<tag k="ssr:stedsnr" v="271507" />
	</node>
	<node id="-860055" lat="63.0889916661" lon="9.71484999028">
		<tag k="name" v="Bakklandet" />
		<tag k="place" v="locality" />
		<tag k="ssr:stedsnr" v="878541" />
	</node>
	<node id="-862099" lat="63.0099027822" lon="9.81929445035">
		<tag k="landuse" v="meadow" />
		<tag k="name" v="Bergenget" />
		<tag k="ssr:stedsnr" v="514099" />
	</node>
	<node id="-862098" lat="63.1076555581" lon="9.81524722879">
		<tag k="name" v="Kjerringhallet" />
		<tag k="place" v="locality" />
		<tag k="ssr:stedsnr" v="393306" />
	</node>
	<node id="-862097" lat="62.966694447" lon="9.51681389721">
		<tag k="name" v="Vasslåtta" />
		<tag k="place" v="locality" />
		<tag k="ssr:stedsnr" v="574524" />
	</node>
	<node id="-862093" lat="63.0819750018" lon="9.85163055185">
		<tag k="name" v="Blomligjerdet" />
		<tag k="place" v="locality" />
		<tag k="ssr:stedsnr" v="939707" />
	</node>
	<node id="-862091" lat="62.9088888894" lon="9.55046666517">
		<tag k="name" v="Skjeftholtet" />
		<tag k="place" v="locality" />
		<tag k="ssr:stedsnr" v="332494" />
	</node>
	<node id="-860039" lat="63.1448333316" lon="9.68383889466">
		<tag k="historic" v="shieling" />
		<tag k="name" v="Trøvollen" />
		<tag k="place" v="locality" />
		<tag k="ssr:stedsnr" v="757685" />
	</node>
	<node id="-860038" lat="62.9667749996" lon="9.6588138848">
		<tag k="name" v="Røsslåtta" />
		<tag k="place" v="locality" />
		<tag k="ssr:stedsnr" v="211157" />
	</node>
	<node id="-860036" lat="63.0841861135" lon="9.60906666924">
		<tag k="name" v="Kvernhusvollen" />
		<tag k="place" v="locality" />
		<tag k="ssr:stedsnr" v="332194" />
	</node>
	<node id="-862083" lat="62.9549861076" lon="9.53260833186">
		<tag k="name" v="Tulløya" />
		<tag k="place" v="locality" />
		<tag k="ssr:stedsnr" v="332491" />
	</node>
	<node id="-860032" lat="63.1107138865" lon="9.59542500385">
		<tag k="name" v="Kårlia" />
		<tag k="place" v="locality" />
		<tag k="ssr:stedsnr" v="757260" />
	</node>
	<node id="-860031" lat="63.1203111151" lon="9.57530556131">
		<tag k="name" v="Krullfuru" />
		<tag k="place" v="locality" />
		<tag k="ssr:stedsnr" v="878129" />
	</node>
	<node id="-862076" lat="63.0717583371" lon="9.65303055353">
		<tag k="name" v="Stormyra" />
		<tag k="natural" v="wetland" />
		<tag k="ssr:stedsnr" v="757555" />
	</node>
	<node id="-862075" lat="63.1173222225" lon="9.60814167527">
		<tag k="name" v="Brauten" />
		<tag k="place" v="locality" />
		<tag k="ssr:stedsnr" v="696282" />
	</node>
	<node id="-860026" lat="63.1063833351" lon="9.57440277738">
		<tag k="name" v="Husmannsplassen" />
		<tag k="place" v="locality" />
		<tag k="ssr:stedsnr" v="878128" />
	</node>
	<node id="-862072" lat="63.1177527768" lon="9.61571943526">
		<tag k="name" v="Lakkøya" />
		<tag k="place" v="locality" />
		<tag k="ssr:stedsnr" v="939282" />
	</node>
	<node id="-862071" lat="63.026749999" lon="9.72984722971">
		<tag k="name" v="Tuvan" />
		<tag k="place" v="locality" />
		<tag k="ssr:stedsnr" v="211451" />
	</node>
	<node id="-860021" lat="63.0933500008" lon="9.61779722629">
		<tag k="name" v="Ellerskogan" />
		<tag k="place" v="locality" />
		<tag k="ssr:stedsnr" v="514231" />
	</node>
	<node id="-860018" lat="62.9502055575" lon="9.6000972291">
		<tag k="historic" v="shieling" />
		<tag k="name" v="Trettvollen" />
		<tag k="place" v="locality" />
		<tag k="ssr:stedsnr" v="211161" />
	</node>
	<node id="-860016" lat="63.0963333307" lon="9.67745278277">
		<tag k="name" v="Tjurruhjellan" />
		<tag k="place" v="locality" />
		<tag k="ssr:stedsnr" v="29228" />
	</node>
	<node id="-862063" lat="63.0545055569" lon="9.73255554864">
		<tag k="alt_name" v="Kong Karls grube" />
		<tag k="landuse" v="quarry" />
		<tag k="name" v="Kong Karls gruve" />
		<tag k="ssr:stedsnr" v="740595" />
	</node>
	<node id="-862062" lat="63.1661722195" lon="9.46006944601">
		<tag k="name" v="Barbroenget" />
		<tag k="place" v="locality" />
		<tag k="ssr:stedsnr" v="878407" />
	</node>
	<node id="-862061" lat="63.1286111072" lon="9.82607778201">
		<tag k="landuse" v="quarry" />
		<tag k="name" v="Åmotsgruva" />
		<tag k="ssr:stedsnr" v="376064" />
	</node>
	<node id="-860008" lat="63.0282138894" lon="9.64424999323">
		<tag k="landuse" v="meadow" />
		<tag k="name" v="Toreenget" />
		<tag k="ssr:stedsnr" v="332175" />
	</node>
	<node id="-862054" lat="63.0860333344" lon="9.65641111399">
		<tag k="name" v="Håggåslættmyra" />
		<tag k="natural" v="wetland" />
		<tag k="ssr:stedsnr" v="635205" />
	</node>
	<node id="-862053" lat="63.0776138849" lon="9.64639165982">
		<tag k="name" v="Lauvøyskarsmyra" />
		<tag k="natural" v="wetland" />
		<tag k="ssr:stedsnr" v="757553" />
	</node>
	<node id="-862047" lat="63.1197222243" lon="9.55490278413">
		<tag k="name" v="Grevjan" />
		<tag k="place" v="locality" />
		<tag k="ssr:stedsnr" v="29101" />
	</node>
	<node id="-859998" lat="62.9499749993" lon="9.67359444121">
		<tag k="name" v="Nyløkkja" />
		<tag k="place" v="locality" />
		<tag k="ssr:stedsnr" v="332174" />
	</node>
	<node id="-859995" lat="63.0003305561" lon="9.69904999997">
		<tag k="name" v="Nonsbua" />
		<tag k="place" v="locality" />
		<tag k="ssr:stedsnr" v="574220" />
	</node>
	<node id="-862040" lat="63.1492055576" lon="9.69331944927">
		<tag k="name" v="Steindalsmyra" />
		<tag k="natural" v="wetland" />
		<tag k="ssr:stedsnr" v="392064" />
	</node>
	<node id="-859988" lat="63.065580553" lon="9.59515554878">
		<tag k="name" v="Lergrevjan" />
		<tag k="place" v="locality" />
		<tag k="ssr:stedsnr" v="150242" />
	</node>
	<node id="-859987" lat="63.0571750044" lon="9.92004722924">
		<tag k="name" v="Moen" />
		<tag k="place" v="locality" />
		<tag k="ssr:stedsnr" v="29640" />
	</node>
	<node id="-862179" lat="62.9847333374" lon="9.73100277327">
		<tag k="name" v="Torehåggån" />
		<tag k="place" v="locality" />
		<tag k="ssr:stedsnr" v="514113" />
	</node>
	<node id="-862031" lat="62.994199996" lon="9.73114444504">
		<tag k="name" v="Slø-øya" />
		<tag k="place" v="locality" />
		<tag k="ssr:stedsnr" v="29096" />
	</node>
	<node id="-859981" lat="63.0231361139" lon="9.48381665759">
		<tag k="landuse" v="meadow" />
		<tag k="name" v="Innerslåtta" />
		<tag k="ssr:stedsnr" v="635710" />
	</node>
	<node id="-862028" lat="63.0962611084" lon="9.60306110927">
		<tag k="name" v="Rønningsvollan" />
		<tag k="place" v="locality" />
		<tag k="ssr:stedsnr" v="392066" />
	</node>
	<node id="-862026" lat="63.0017361076" lon="9.74782499101">
		<tag k="name" v="Haugahåggån" />
		<tag k="place" v="locality" />
		<tag k="ssr:stedsnr" v="514081" />
	</node>
	<node id="-862023" lat="63.1081444471" lon="9.66493333516">
		<tag k="name" v="Stakkstongmyra" />
		<tag k="natural" v="wetland" />
		<tag k="ssr:stedsnr" v="271362" />
	</node>
	<node id="-862021" lat="63.1355694448" lon="9.69893889485">
		<tag k="name" v="Nordgjerdet" />
		<tag k="place" v="locality" />
		<tag k="ssr:stedsnr" v="271780" />
	</node>
	<node id="-859972" lat="63.0618861091" lon="9.58961945105">
		<tag k="name" v="Svartdiket" />
		<tag k="natural" v="wetland" />
		<tag k="ssr:stedsnr" v="150240" />
	</node>
	<node id="-862016" lat="63.0982916664" lon="9.53810278431">
		<tag k="name" v="Kjerringekra" />
		<tag k="place" v="locality" />
		<tag k="ssr:stedsnr" v="392061" />
	</node>
	<node id="-862015" lat="62.9932277785" lon="9.74931944779">
		<tag k="name" v="Fitjegga" />
		<tag k="place" v="locality" />
		<tag k="ssr:stedsnr" v="757105" />
	</node>
	<node id="-862191" lat="63.0867416632" lon="9.7542861023">
		<tag k="name" v="Kallhåggån" />
		<tag k="place" v="locality" />
		<tag k="ssr:stedsnr" v="392511" />
	</node>
	<node id="-859959" lat="62.9588944438" lon="9.65267499538">
		<tag k="name" v="Kvernhusøya" />
		<tag k="place" v="locality" />
		<tag k="ssr:stedsnr" v="211143" />
	</node>
	<node id="-862004" lat="63.1229000019" lon="9.82598055771">
		<tag k="name" v="Hestgrovmyra" />
		<tag k="natural" v="wetland" />
		<tag k="ssr:stedsnr" v="332465" />
	</node>
	<node id="-859954" lat="63.0340888871" lon="9.75360555516">
		<tag k="name" v="Kvithamran" />
		<tag k="place" v="locality" />
		<tag k="ssr:stedsnr" v="271505" />
	</node>
	<node id="-859952" lat="63.004486113" lon="9.77226388295">
		<tag k="name" v="Saumyran" />
		<tag k="natural" v="wetland" />
		<tag k="ssr:stedsnr" v="878086" />
	</node>
	<node id="-861995" lat="62.9731694422" lon="9.51077499144">
		<tag k="name" v="Vasslåtta" />
		<tag k="place" v="locality" />
		<tag k="ssr:stedsnr" v="29503" />
	</node>
	<node id="-861994" lat="62.9710555569" lon="9.50011945132">
		<tag k="name" v="Langvassenget" />
		<tag k="place" v="locality" />
		<tag k="ssr:stedsnr" v="514513" />
	</node>
	<node id="-859939" lat="63.0134944476" lon="9.67446389212">
		<tag k="name" v="Andersmyra" />
		<tag k="natural" v="wetland" />
		<tag k="ssr:stedsnr" v="574229" />
	</node>
	<node id="-859936" lat="62.979441668" lon="9.7843777833">
		<tag k="name" v="Kallhåggån" />
		<tag k="place" v="locality" />
		<tag k="ssr:stedsnr" v="453147" />
	</node>
	<node id="-861983" lat="62.9973527799" lon="9.74441387923">
		<tag k="name" v="Karsløet" />
		<tag k="place" v="locality" />
		<tag k="ssr:stedsnr" v="392072" />
	</node>
	<node id="-859930" lat="63.0486277806" lon="9.68633055475">
		<tag k="name" v="Skjerpan" />
		<tag k="place" v="locality" />
		<tag k="ssr:stedsnr" v="392195" />
	</node>
	<node id="-859928" lat="63.0862555569" lon="9.60079165999">
		<tag k="landuse" v="meadow" />
		<tag k="name" v="Jenshåggån" />
		<tag k="ssr:stedsnr" v="29214" />
	</node>
	<node id="-859926" lat="63.0876194476" lon="9.60163888153">
		<tag k="name" v="Gammellykkja" />
		<tag k="place" v="locality" />
		<tag k="ssr:stedsnr" v="89214" />
	</node>
	<node id="-859924" lat="63.0141388866" lon="9.69932778171">
		<tag k="name" v="Storhåggån" />
		<tag k="place" v="locality" />
		<tag k="ssr:stedsnr" v="29209" />
	</node>
	<node id="-861971" lat="62.9752916627" lon="9.73914167325">
		<tag k="name" v="Jerpstogjerdet" />
		<tag k="place" v="locality" />
		<tag k="ssr:stedsnr" v="757098" />
	</node>
	<node id="-859779" lat="63.0940138931" lon="9.593080551">
		<tag k="name" v="Skjervholtet" />
		<tag k="place" v="locality" />
		<tag k="ssr:stedsnr" v="878064" />
	</node>
	<node id="-859920" lat="63.0975250012" lon="9.51067222668">
		<tag k="name" v="Marstensøya" />
		<tag k="place" v="locality" />
		<tag k="ssr:stedsnr" v="271488" />
	</node>
	<node id="-861967" lat="63.1131027756" lon="9.7990472148">
		<tag k="name" v="Granåsrønningen" />
		<tag k="place" v="locality" />
		<tag k="ssr:stedsnr" v="271367" />
	</node>
	<node id="-859918" lat="63.0473366578" lon="9.71778356929">
		<tag k="name" v="Badstuvollen" />
		<tag k="place" v="locality" />
		<tag k="ssr:stedsnr" v="757664" />
	</node>
	<node id="-859917" lat="63.0291444477" lon="9.99828055421">
		<tag k="name" v="Vedløset" />
		<tag k="natural" v="wetland" />
		<tag k="ssr:stedsnr" v="696397" />
	</node>
	<node id="-861964" lat="63.1501555541" lon="9.52914444798">
		<tag k="name" v="Litjholtan" />
		<tag k="place" v="locality" />
		<tag k="ssr:stedsnr" v="332046" />
	</node>
	<node id="-859913" lat="62.976669441" lon="9.73879999403">
		<tag k="name" v="Båggåvollgjerdet" />
		<tag k="place" v="locality" />
		<tag k="ssr:stedsnr" v="453126" />
	</node>
	<node id="-859909" lat="63.0517833349" lon="9.54951666959">
		<tag k="name" v="Høgkjølen" />
		<tag k="natural" v="wetland" />
		<tag k="ssr:stedsnr" v="12341" />
	</node>
	<node id="-859905" lat="63.1194305519" lon="9.71182777395">
		<tag k="landuse" v="quarry" />
		<tag k="name" v="Kattdalsgruva" />
		<tag k="ssr:stedsnr" v="635723" />
	</node>
	<node id="-859903" lat="63.100505553" lon="9.50594166361">
		<tag k="name" v="Myragjerdet" />
		<tag k="place" v="locality" />
		<tag k="ssr:stedsnr" v="271486" />
	</node>
	<node id="-861949" lat="62.9753277775" lon="9.58526389501">
		<tag k="name" v="Storskårgangen" />
		<tag k="place" v="locality" />
		<tag k="ssr:stedsnr" v="818223" />
	</node>
	<node id="-859900" lat="63.089019444" lon="9.58959167617">
		<tag k="name" v="Raudtjønnmoen" />
		<tag k="place" v="locality" />
		<tag k="ssr:stedsnr" v="271062" />
	</node>
	<node id="-861947" lat="62.975591663" lon="9.62168889636">
		<tag k="name" v="Litjvidmyran" />
		<tag k="natural" v="wetland" />
		<tag k="ssr:stedsnr" v="454648" />
	</node>
	<node id="-859898" lat="62.9831305593" lon="9.7492249916">
		<tag k="name" v="Vollan" />
		<tag k="place" v="locality" />
		<tag k="ssr:stedsnr" v="453124" />
	</node>
	<node id="-861941" lat="63.043019442" lon="9.56448333797">
		<tag k="name" v="Skrøvlholtet" />
		<tag k="place" v="locality" />
		<tag k="ssr:stedsnr" v="150099" />
	</node>
	<node id="-859892" lat="63.0680277756" lon="9.55399166297">
		<tag k="name" v="Haukåmyran" />
		<tag k="natural" v="wetland" />
		<tag k="ssr:stedsnr" v="878108" />
	</node>
	<node id="-861984" lat="63.1613388853" lon="9.55288054956">
		<tag k="name" v="Bjørnaråa" />
		<tag k="place" v="locality" />
		<tag k="ssr:stedsnr" v="211009" />
	</node>
	<node id="-861937" lat="63.0975916682" lon="9.59188611469">
		<tag k="name" v="Gammelgarden" />
		<tag k="place" v="locality" />
		<tag k="ssr:stedsnr" v="514069" />
	</node>
	<node id="-861936" lat="63.0118833375" lon="9.69598610348">
		<tag k="name" v="Øyahåggån" />
		<tag k="place" v="locality" />
		<tag k="ssr:stedsnr" v="818222" />
	</node>
	<node id="-859887" lat="63.1371583374" lon="9.82822499207">
		<tag k="name" v="Melan" />
		<tag k="place" v="locality" />
		<tag k="ssr:stedsnr" v="635319" />
	</node>
	<node id="-861934" lat="63.0986999969" lon="9.44016667027">
		<tag k="name" v="Øvergjerdet" />
		<tag k="place" v="locality" />
		<tag k="ssr:stedsnr" v="453409" />
	</node>
	<node id="-861932" lat="63.1699694472" lon="9.56038888618">
		<tag k="name" v="Fluren" />
		<tag k="natural" v="wetland" />
		<tag k="ssr:stedsnr" v="271351" />
	</node>
	<node id="-861927" lat="63.0108833372" lon="9.77041388054">
		<tag k="name" v="Lotten" />
		<tag k="place" v="locality" />
		<tag k="ssr:stedsnr" v="574076" />
	</node>
	<node id="-859878" lat="62.9949166637" lon="9.77336944803">
		<tag k="name" v="Heggdalsgrinda" />
		<tag k="place" v="locality" />
		<tag k="ssr:stedsnr" v="453134" />
	</node>
	<node id="-859875" lat="63.0982444404" lon="9.60183610809">
		<tag k="name" v="Tussan" />
		<tag k="place" v="locality" />
		<tag k="ssr:stedsnr" v="271068" />
	</node>
	<node id="-859874" lat="63.1306055563" lon="9.48565833243">
		<tag k="name" v="Lortdiket" />
		<tag k="natural" v="wetland" />
		<tag k="ssr:stedsnr" v="696390" />
	</node>
	<node id="-859872" lat="63.0927361086" lon="9.49622222831">
		<tag k="name" v="Grindvollekra" />
		<tag k="place" v="locality" />
		<tag k="ssr:stedsnr" v="878513" />
	</node>
	<node id="-859871" lat="62.9747083319" lon="9.77672499338">
		<tag k="name" v="Loftet" />
		<tag k="place" v="locality" />
		<tag k="ssr:stedsnr" v="211131" />
	</node>
	<node id="-859861" lat="63.0884638901" lon="9.62834166806">
		<tag k="name" v="Kjerksvala" />
		<tag k="place" v="locality" />
		<tag k="ssr:stedsnr" v="89206" />
	</node>
	<node id="-859858" lat="63.1087388857" lon="9.66670000008">
		<tag k="name" v="Strypet" />
		<tag k="natural" v="wetland" />
		<tag k="ssr:stedsnr" v="635313" />
	</node>
	<node id="-861904" lat="63.061422222" lon="9.94817777839">
		<tag k="name" v="Skårgangen" />
		<tag k="place" v="locality" />
		<tag k="ssr:stedsnr" v="28690" />
	</node>
	<node id="-861901" lat="63.1189111123" lon="9.69955556179">
		<tag k="name" v="Tuftin" />
		<tag k="place" v="locality" />
		<tag k="ssr:stedsnr" v="393701" />
	</node>
	<node id="-859847" lat="63.0852222185" lon="9.62915556018">
		<tag k="name" v="Skarvsætra" />
		<tag k="place" v="locality" />
		<tag k="ssr:stedsnr" v="29200" />
	</node>
	<node id="-861891" lat="62.9594750023" lon="9.5742444487">
		<tag k="name" v="Langlimyran" />
		<tag k="natural" v="wetland" />
		<tag k="ssr:stedsnr" v="89073" />
	</node>
	<node id="-861890" lat="63.1586777789" lon="9.5101583241">
		<tag k="name" v="Kalposten" />
		<tag k="place" v="locality" />
		<tag k="ssr:stedsnr" v="878383" />
	</node>
	<node id="-861888" lat="63.0727027765" lon="9.86791943727">
		<tag k="name" v="Jonashåggån" />
		<tag k="place" v="locality" />
		<tag k="ssr:stedsnr" v="149706" />
	</node>
	<node id="-861883" lat="62.9796888865" lon="9.69321111232">
		<tag k="name" v="Øvståsmyra" />
		<tag k="natural" v="wetland" />
		<tag k="ssr:stedsnr" v="696256" />
	</node>
	<node id="-861881" lat="63.0871111076" lon="9.77005834279">
		<tag k="name" v="Malmmyra" />
		<tag k="natural" v="wetland" />
		<tag k="ssr:stedsnr" v="89489" />
	</node>
	<node id="-861880" lat="62.9957583341" lon="9.75922222671">
		<tag k="name" v="Fitjgjelan" />
		<tag k="place" v="locality" />
		<tag k="ssr:stedsnr" v="89078" />
	</node>
	<node id="-859829" lat="62.9559916655" lon="9.57040556011">
		<tag k="name" v="Sæterhusfloin" />
		<tag k="natural" v="wetland" />
		<tag k="ssr:stedsnr" v="878068" />
	</node>
	<node id="-859828" lat="62.9277499981" lon="9.63388611288">
		<tag k="name" v="Storslåttkjølen" />
		<tag k="natural" v="wetland" />
		<tag k="ssr:stedsnr" v="332165" />
	</node>
	<node id="-859827" lat="63.0554888928" lon="9.67035278254">
		<tag k="name" v="Rebergflotten" />
		<tag k="place" v="locality" />
		<tag k="ssr:stedsnr" v="574192" />
	</node>
	<node id="-859826" lat="62.9858138924" lon="9.62567221569">
		<tag k="name" v="Resfjellslåttkjølen" />
		<tag k="natural" v="wetland" />
		<tag k="ssr:stedsnr" v="757207" />
	</node>
	<node id="-861873" lat="62.9599027752" lon="9.56532221557">
		<tag k="landuse" v="meadow" />
		<tag k="name" v="Dalsenget" />
		<tag k="ssr:stedsnr" v="514080" />
	</node>
	<node id="-861870" lat="63.0147833302" lon="9.75216111994">
		<tag k="name" v="Kvernaringen" />
		<tag k="place" v="locality" />
		<tag k="ssr:stedsnr" v="89076" />
	</node>
	<node id="-861865" lat="63.1498194404" lon="9.6287777874">
		<tag k="landuse" v="meadow" />
		<tag k="name" v="Stakksenget" />
		<tag k="ssr:stedsnr" v="332033" />
	</node>
	<node id="-859816" lat="63.0331527747" lon="9.9472638815">
		<tag k="historic" v="shieling" />
		<tag k="name" v="Andivollen" />
		<tag k="place" v="locality" />
		<tag k="ssr:stedsnr" v="392585" />
	</node>
	<node id="-859814" lat="63.102416667" lon="9.56248611099">
		<tag k="name" v="Lykkjon" />
		<tag k="place" v="locality" />
		<tag k="ssr:stedsnr" v="211126" />
	</node>
	<node id="-859813" lat="63.046927775" lon="9.70679999175">
		<tag k="name" v="Bolrabben" />
		<tag k="place" v="locality" />
		<tag k="ssr:stedsnr" v="271473" />
	</node>
	<node id="-861860" lat="63.0187694415" lon="9.81593611974">
		<tag k="name" v="Holsmyran" />
		<tag k="natural" v="wetland" />
		<tag k="ssr:stedsnr" v="392473" />
	</node>
	<node id="-861856" lat="63.0019722262" lon="9.77075833082">
		<tag k="name" v="Jamnåsmyra" />
		<tag k="natural" v="wetland" />
		<tag k="ssr:stedsnr" v="29072" />
	</node>
	<node id="-859806" lat="63.02775" lon="9.92479167109">
		<tag k="name" v="Småvasskjølen" />
		<tag k="natural" v="wetland" />
		<tag k="ssr:stedsnr" v="392580" />
	</node>
	<node id="-861853" lat="63.154933337" lon="9.57631667636">
		<tag k="name" v="Skomakermyra" />
		<tag k="natural" v="wetland" />
		<tag k="ssr:stedsnr" v="332017" />
	</node>
	<node id="-859804" lat="62.9202861068" lon="9.61755833564">
		<tag k="name" v="Frostmyra" />
		<tag k="natural" v="wetland" />
		<tag k="ssr:stedsnr" v="574196" />
	</node>
	<node id="-861848" lat="63.1015083348" lon="9.46635276937">
		<tag k="name" v="Hundekra" />
		<tag k="place" v="locality" />
		<tag k="ssr:stedsnr" v="89483" />
	</node>
	<node id="-861844" lat="62.9335416686" lon="9.6583861024">
		<tag k="name" v="Blautmyra" />
		<tag k="natural" v="wetland" />
		<tag k="ssr:stedsnr" v="818184" />
	</node>
	<node id="-861843" lat="63.1084972181" lon="9.63054443746">
		<tag k="name" v="Vidmyra" />
		<tag k="natural" v="wetland" />
		<tag k="ssr:stedsnr" v="878356" />
	</node>
	<node id="-861840" lat="63.0509833315" lon="9.88200833361">
		<tag k="name" v="Holvollan" />
		<tag k="place" v="locality" />
		<tag k="ssr:stedsnr" v="271752" />
	</node>
	<node id="-861835" lat="63.0928916656" lon="9.78200277192">
		<tag k="name" v="Boggoslåtta" />
		<tag k="place" v="locality" />
		<tag k="ssr:stedsnr" v="89488" />
	</node>
	<node id="-859785" lat="63.1201555541" lon="9.8766388881">
		<tag k="historic" v="shieling" />
		<tag k="name" v="Nævsvollen" />
		<tag k="place" v="locality" />
		<tag k="ssr:stedsnr" v="818755" />
	</node>
	<node id="-861830" lat="63.059480556" lon="9.92020000785">
		<tag k="name" v="Kuøya" />
		<tag k="place" v="locality" />
		<tag k="ssr:stedsnr" v="696645" />
	</node>
	<node id="-861827" lat="63.1070861138" lon="9.46845833309">
		<tag k="name" v="Kinnbruna" />
		<tag k="place" v="locality" />
		<tag k="ssr:stedsnr" v="211421" />
	</node>
	<node id="-859776" lat="63.1292367" lon="9.61078678039">
		<tag k="name" v="Gammelgarden" />
		<tag k="place" v="locality" />
		<tag k="ssr:stedsnr" v="332585" />
	</node>
	<node id="-859775" lat="63.0999833377" lon="9.6035861103">
		<tag k="name" v="Skjervstrømøya" />
		<tag k="place" v="locality" />
		<tag k="ssr:stedsnr" v="878063" />
	</node>
	<node id="-861822" lat="62.9091555546" lon="9.57229167272">
		<tag k="landuse" v="meadow" />
		<tag k="name" v="Langvasslåtta" />
		<tag k="ssr:stedsnr" v="757078" />
	</node>
	<node id="-861862" lat="63.0001250022" lon="9.75110554607">
		<tag k="name" v="Øverjordsvollen" />
		<tag k="place" v="locality" />
		<tag k="ssr:stedsnr" v="514078" />
	</node>
	<node id="-859772" lat="63.0172638895" lon="9.66299444651">
		<tag k="name" v="Bjørnsledet" />
		<tag k="place" v="locality" />
		<tag k="ssr:stedsnr" v="574201" />
	</node>
	<node id="-859771" lat="63.0293666629" lon="9.94302222178">
		<tag k="name" v="Småvasskjølen" />
		<tag k="natural" v="wetland" />
		<tag k="ssr:stedsnr" v="817515" />
	</node>
	<node id="-861817" lat="62.989613887" lon="9.50313333186">
		<tag k="name" v="Vålåskarskjølen" />
		<tag k="natural" v="wetland" />
		<tag k="ssr:stedsnr" v="150504" />
	</node>
	<node id="-859767" lat="63.1605500004" lon="9.53787222325">
		<tag k="name" v="Heggflotten" />
		<tag k="place" v="locality" />
		<tag k="ssr:stedsnr" v="271054" />
	</node>
	<node id="-861813" lat="63.1055138863" lon="9.47844167558">
		<tag k="name" v="Slættrabben" />
		<tag k="place" v="locality" />
		<tag k="ssr:stedsnr" v="211409" />
	</node>
	<node id="-861808" lat="63.0236666649" lon="9.67257500501">
		<tag k="name" v="Langura" />
		<tag k="natural" v="scree" />
		<tag k="ssr:stedsnr" v="133309" />
	</node>
	<node id="-861805" lat="63.128288885" lon="9.69259444887">
		<tag k="name" v="Bakkgjerdet" />
		<tag k="place" v="locality" />
		<tag k="ssr:stedsnr" v="878750" />
	</node>
	<node id="-861803" lat="63.1604666683" lon="9.6085361192">
		<tag k="name" v="Gammellykkja" />
		<tag k="place" v="locality" />
		<tag k="ssr:stedsnr" v="392047" />
	</node>
	<node id="-861797" lat="63.0738305547" lon="9.67969723088">
		<tag k="name" v="Homyra" />
		<tag k="natural" v="wetland" />
		<tag k="ssr:stedsnr" v="544290" />
	</node>
	<node id="-861796" lat="62.9724805563" lon="9.53739166769">
		<tag k="name" v="Hestmyra" />
		<tag k="natural" v="wetland" />
		<tag k="ssr:stedsnr" v="332449" />
	</node>
	<node id="-859747" lat="63.1386749963" lon="9.47553054893">
		<tag k="name" v="Hamna" />
		<tag k="place" v="locality" />
		<tag k="ssr:stedsnr" v="696349" />
	</node>
	<node id="-861794" lat="63.0388000036" lon="9.81423889324">
		<tag k="name" v="Sølbergskjølen" />
		<tag k="natural" v="wetland" />
		<tag k="ssr:stedsnr" v="211411" />
	</node>
	<node id="-861792" lat="63.0551749975" lon="9.93911388943">
		<tag k="name" v="Holslykkja" />
		<tag k="natural" v="wetland" />
		<tag k="ssr:stedsnr" v="939645" />
	</node>
	<node id="-859743" lat="63.1223444447" lon="9.55386666051">
		<tag k="name" v="Litjkåsen" />
		<tag k="place" v="locality" />
		<tag k="ssr:stedsnr" v="211111" />
	</node>
	<node id="-861788" lat="63.0176916656" lon="9.91429999556">
		<tag k="name" v="Strypkjølen" />
		<tag k="natural" v="wetland" />
		<tag k="ssr:stedsnr" v="635561" />
	</node>
	<node id="-859739" lat="63.1660777814" lon="9.52793334164">
		<tag k="name" v="Kvernhusekra" />
		<tag k="place" v="locality" />
		<tag k="ssr:stedsnr" v="271037" />
	</node>
	<node id="-861785" lat="62.9750611143" lon="9.49395554736">
		<tag k="name" v="Fosslåtta" />
		<tag k="place" v="locality" />
		<tag k="ssr:stedsnr" v="757492" />
	</node>
	<node id="-861781" lat="62.9758444423" lon="9.50882222199">
		<tag k="name" v="Storslåtta" />
		<tag k="place" v="locality" />
		<tag k="ssr:stedsnr" v="150495" />
	</node>
	<node id="-859730" lat="63.1353416637" lon="9.63240555359">
		<tag k="name" v="Kvaksegga" />
		<tag k="place" v="locality" />
		<tag k="ssr:stedsnr" v="635293" />
	</node>
	<node id="-859728" lat="63.0581305588" lon="9.92378055694">
		<tag k="name" v="Stormyra" />
		<tag k="natural" v="wetland" />
		<tag k="ssr:stedsnr" v="150619" />
	</node>
	<node id="-859725" lat="63.1361305549" lon="9.63399999808">
		<tag k="name" v="Sandteigen" />
		<tag k="place" v="locality" />
		<tag k="ssr:stedsnr" v="635292" />
	</node>
	<node id="-859722" lat="63.0647749974" lon="9.66080832592">
		<tag k="name" v="Dammyra" />
		<tag k="natural" v="wetland" />
		<tag k="ssr:stedsnr" v="241281" />
	</node>
	<node id="-861769" lat="63.0973250031" lon="9.59667778493">
		<tag k="landuse" v="meadow" />
		<tag k="name" v="Fløttum" />
		<tag k="ssr:stedsnr" v="514062" />
	</node>
	<node id="-861768" lat="63.1384722192" lon="9.68921666751">
		<tag k="name" v="Ivaslykkja" />
		<tag k="place" v="locality" />
		<tag k="ssr:stedsnr" v="393694" />
	</node>
	<node id="-859718" lat="63.0582750041" lon="9.65621943973">
		<tag k="name" v="Litjringen" />
		<tag k="place" v="locality" />
		<tag k="ssr:stedsnr" v="332133" />
	</node>
	<node id="-861765" lat="63.0975750002" lon="9.72631110399">
		<tag k="name" v="Innlegget" />
		<tag k="place" v="locality" />
		<tag k="ssr:stedsnr" v="29478" />
	</node>
	<node id="-861764" lat="63.0789861137" lon="9.79045278369">
		<tag k="historic" v="shieling" />
		<tag k="name" v="Gammelsætra" />
		<tag k="place" v="locality" />
		<tag k="ssr:stedsnr" v="150498" />
	</node>
	<node id="-860205" lat="63.0503472245" lon="9.71528333675">
		<tag k="name" v="Gjelgrubba" />
		<tag k="place" v="locality" />
		<tag k="ssr:stedsnr" v="696446" />
	</node>
	<node id="-861761" lat="63.1209555549" lon="9.54545556331">
		<tag k="name" v="Kjølen" />
		<tag k="natural" v="wetland" />
		<tag k="ssr:stedsnr" v="29062" />
	</node>
	<node id="-861760" lat="62.9521083336" lon="9.56937778159">
		<tag k="name" v="Grøtslåtta" />
		<tag k="place" v="locality" />
		<tag k="ssr:stedsnr" v="574074" />
	</node>
	<node id="-861756" lat="63.1457833298" lon="9.62467500634">
		<tag k="name" v="Gammeldammyra" />
		<tag k="natural" v="wetland" />
		<tag k="ssr:stedsnr" v="392045" />
	</node>
	<node id="-861754" lat="63.1678916657" lon="9.52917223148">
		<tag k="name" v="Kvernhusvollen" />
		<tag k="place" v="locality" />
		<tag k="ssr:stedsnr" v="514039" />
	</node>
	<node id="-859705" lat="63.0398944471" lon="10.0019611207">
		<tag k="name" v="Skårmarka" />
		<tag k="place" v="locality" />
		<tag k="ssr:stedsnr" v="28379" />
	</node>
	<node id="-861751" lat="63.0992861152" lon="9.59396388085">
		<tag k="landuse" v="meadow" />
		<tag k="name" v="Jostugguenget" />
		<tag k="ssr:stedsnr" v="29058" />
	</node>
	<node id="-861748" lat="63.0357305549" lon="9.78098889098">
		<tag k="name" v="Tuvenget" />
		<tag k="place" v="locality" />
		<tag k="ssr:stedsnr" v="89471" />
	</node>
	<node id="-861743" lat="63.1648277794" lon="9.5926194481">
		<tag k="name" v="Nermarka" />
		<tag k="place" v="locality" />
		<tag k="ssr:stedsnr" v="392032" />
	</node>
	<node id="-861742" lat="63.0912833371" lon="9.53475278144">
		<tag k="name" v="Tjønnmyra" />
		<tag k="natural" v="wetland" />
		<tag k="ssr:stedsnr" v="89054" />
	</node>
	<node id="-859693" lat="63.006030558" lon="9.86378333117">
		<tag k="name" v="Grubba" />
		<tag k="natural" v="wetland" />
		<tag k="ssr:stedsnr" v="696363" />
	</node>
	<node id="-861738" lat="63.1559222257" lon="9.63672222535">
		<tag k="name" v="Råket" />
		<tag k="place" v="locality" />
		<tag k="ssr:stedsnr" v="514038" />
	</node>
	<node id="-861736" lat="63.1126027764" lon="9.55126388462">
		<tag k="name" v="Storslættet" />
		<tag k="place" v="locality" />
		<tag k="ssr:stedsnr" v="757097" />
	</node>
	<node id="-861731" lat="63.0837416663" lon="9.62887222147">
		<tag k="name" v="Lauvøya" />
		<tag k="place" v="locality" />
		<tag k="ssr:stedsnr" v="818195" />
	</node>
	<node id="-860080" lat="62.9968861105" lon="9.79155556492">
		<tag k="name" v="Torvmyra" />
		<tag k="natural" v="wetland" />
		<tag k="ssr:stedsnr" v="271086" />
	</node>
	<node id="-861726" lat="63.0322500003" lon="9.71440555117">
		<tag k="name" v="Kjeløyan" />
		<tag k="place" v="locality" />
		<tag k="ssr:stedsnr" v="211406" />
	</node>
	<node id="-859677" lat="63.0368250038" lon="9.6475277838">
		<tag k="name" v="Litlmyra" />
		<tag k="natural" v="wetland" />
		<tag k="ssr:stedsnr" v="150196" />
	</node>
	<node id="-861723" lat="63.1473861071" lon="9.59936666306">
		<tag k="name" v="Stakksengmyra" />
		<tag k="natural" v="wetland" />
		<tag k="ssr:stedsnr" v="514044" />
	</node>
	<node id="-861722" lat="62.9790777784" lon="9.63661667369">
		<tag k="name" v="Vidmyran" />
		<tag k="natural" v="wetland" />
		<tag k="ssr:stedsnr" v="862159" />
	</node>
	<node id="-861721" lat="63.1078805579" lon="9.72412499481">
		<tag k="name" v="Kuskhåggån" />
		<tag k="place" v="locality" />
		<tag k="ssr:stedsnr" v="878772" />
	</node>
	<node id="-861718" lat="63.082622223" lon="9.76123333553">
		<tag k="name" v="Hårråvika" />
		<tag k="place" v="locality" />
		<tag k="ssr:stedsnr" v="29470" />
	</node>
	<node id="-861717" lat="63.0508722198" lon="9.67142777615">
		<tag k="name" v="Vigdlotten" />
		<tag k="place" v="locality" />
		<tag k="ssr:stedsnr" v="635159" />
	</node>
	<node id="-861716" lat="63.1634694482" lon="9.5386222211">
		<tag k="landuse" v="meadow" />
		<tag k="name" v="Hulluenget" />
		<tag k="ssr:stedsnr" v="574053" />
	</node>
	<node id="-861712" lat="63.1274333366" lon="9.77795555704">
		<tag k="landuse" v="meadow" />
		<tag k="name" v="Omgangsenget" />
		<tag k="ssr:stedsnr" v="271319" />
	</node>
	<node id="-861707" lat="62.9316666642" lon="9.65824444851">
		<tag k="name" v="Midtstoen" />
		<tag k="place" v="locality" />
		<tag k="ssr:stedsnr" v="454183" />
	</node>
	<node id="-861706" lat="63.02221111" lon="9.96896388394">
		<tag k="name" v="Gammelhusa" />
		<tag k="place" v="locality" />
		<tag k="ssr:stedsnr" v="453389" />
	</node>
	<node id="-861700" lat="63.0720750025" lon="9.66550278073">
		<tag k="name" v="Lusmyra" />
		<tag k="natural" v="wetland" />
		<tag k="ssr:stedsnr" v="497384" />
	</node>
	<node id="-859646" lat="63.1451833293" lon="9.75751666022">
		<tag k="name" v="Gravråkslåtta" />
		<tag k="place" v="locality" />
		<tag k="ssr:stedsnr" v="635254" />
	</node>
	<node id="-859645" lat="63.1260027808" lon="9.80404166335">
		<tag k="name" v="Baklimyra" />
		<tag k="natural" v="wetland" />
		<tag k="ssr:stedsnr" v="939327" />
	</node>
	<node id="-859638" lat="63.108044445" lon="9.78704166105">
		<tag k="name" v="Granåsmyra" />
		<tag k="natural" v="wetland" />
		<tag k="ssr:stedsnr" v="939329" />
	</node>
	<node id="-861681" lat="63.0177416677" lon="9.80534165889">
		<tag k="landuse" v="meadow" />
		<tag k="name" v="Gammelslåtta" />
		<tag k="ssr:stedsnr" v="574479" />
	</node>
	<node id="-859627" lat="63.0304444402" lon="9.71855833603">
		<tag k="name" v="Maurskogen" />
		<tag k="place" v="locality" />
		<tag k="ssr:stedsnr" v="878458" />
	</node>
	<node id="-859626" lat="62.9769202938" lon="9.71844056957">
		<tag k="name" v="Pergjerdet" />
		<tag k="place" v="locality" />
		<tag k="ssr:stedsnr" v="211100" />
	</node>
	<node id="-859624" lat="63.03206667" lon="9.92994999839">
		<tag k="historic" v="shieling" />
		<tag k="name" v="Snikkarsætervollen" />
		<tag k="place" v="locality" />
		<tag k="ssr:stedsnr" v="211527" />
	</node>
	<node id="-861669" lat="62.9956027817" lon="9.83690276994">
		<tag k="name" v="Føssjøholtet" />
		<tag k="place" v="locality" />
		<tag k="ssr:stedsnr" v="939660" />
	</node>
	<node id="-861663" lat="63.0593111127" lon="9.72743056474">
		<tag k="alt_name" v="Viktoria" />
		<tag k="landuse" v="quarry" />
		<tag k="name" v="Viktoriagruva" />
		<tag k="ssr:stedsnr" v="73626" />
	</node>
	<node id="-859611" lat="63.0777166622" lon="9.71362500858">
		<tag k="name" v="Sigridfallet" />
		<tag k="place" v="locality" />
		<tag k="ssr:stedsnr" v="211515" />
	</node>
	<node id="-861657" lat="63.0981249956" lon="9.57133055819">
		<tag k="name" v="Kåret" />
		<tag k="place" v="locality" />
		<tag k="ssr:stedsnr" v="332005" />
	</node>
	<node id="-859607" lat="63.144780552" lon="9.61091388591">
		<tag k="name" v="Stormyra" />
		<tag k="natural" v="wetland" />
		<tag k="ssr:stedsnr" v="878041" />
	</node>
	<node id="-861653" lat="63.1468833342" lon="9.65705833813">
		<tag k="name" v="Gammellykkja" />
		<tag k="place" v="locality" />
		<tag k="ssr:stedsnr" v="514049" />
	</node>
	<node id="-861651" lat="63.030536107" lon="9.77222222489">
		<tag k="name" v="Nedre Høyluenget" />
		<tag k="place" v="locality" />
		<tag k="ssr:stedsnr" v="332433" />
	</node>
	<node id="-859601" lat="63.1286460598" lon="9.61724710801">
		<tag k="name" v="Hulludalsmoen" />
		<tag k="place" v="locality" />
		<tag k="ssr:stedsnr" v="29589" />
	</node>
	<node id="-861773" lat="63.1407638888" lon="9.68299721724">
		<tag k="name" v="Smimyra" />
		<tag k="natural" v="wetland" />
		<tag k="ssr:stedsnr" v="393693" />
	</node>
	<node id="-859596" lat="63.0459861129" lon="9.60797222742">
		<tag k="name" v="Kustoen" />
		<tag k="place" v="locality" />
		<tag k="ssr:stedsnr" v="514164" />
	</node>
	<node id="-859594" lat="63.0193416652" lon="9.87354445427">
		<tag k="name" v="Svartdiket" />
		<tag k="natural" v="wetland" />
		<tag k="ssr:stedsnr" v="332560" />
	</node>
	<node id="-861641" lat="63.1630027779" lon="9.45111388942">
		<tag k="historic" v="shieling" />
		<tag k="name" v="Lommundvollen" />
		<tag k="place" v="locality" />
		<tag k="ssr:stedsnr" v="332417" />
	</node>
	<node id="-861639" lat="63.0857888855" lon="9.70798889395">
		<tag k="name" v="Bergsrønningen" />
		<tag k="place" v="locality" />
		<tag k="ssr:stedsnr" v="757471" />
	</node>
	<node id="-859588" lat="63.0213666639" lon="9.88675277006">
		<tag k="name" v="Blautsetkjølen" />
		<tag k="natural" v="wetland" />
		<tag k="ssr:stedsnr" v="332558" />
	</node>
	<node id="-861635" lat="63.0985055534" lon="9.52281389055">
		<tag k="name" v="Brubakkhåggån" />
		<tag k="place" v="locality" />
		<tag k="ssr:stedsnr" v="89456" />
	</node>
	<node id="-861631" lat="63.1532583361" lon="9.52740832744">
		<tag k="name" v="Fluren" />
		<tag k="place" v="locality" />
		<tag k="ssr:stedsnr" v="89046" />
	</node>
	<node id="-861630" lat="62.9703444418" lon="9.82120555318">
		<tag k="name" v="Grytløkkja" />
		<tag k="place" v="locality" />
		<tag k="ssr:stedsnr" v="514025" />
	</node>
	<node id="-861629" lat="63.1027166671" lon="9.54213055474">
		<tag k="name" v="Åshåggån" />
		<tag k="place" v="locality" />
		<tag k="ssr:stedsnr" v="757049" />
	</node>
	<node id="-859580" lat="63.125480552" lon="9.88985833454">
		<tag k="name" v="Lomtjønnmyra" />
		<tag k="natural" v="wetland" />
		<tag k="ssr:stedsnr" v="786567" />
	</node>
	<node id="-861622" lat="62.9638805514" lon="9.70887500641">
		<tag k="name" v="Snuruhaugtronget" />
		<tag k="place" v="locality" />
		<tag k="ssr:stedsnr" v="392017" />
	</node>
	<node id="-859721" lat="63.1201500024" lon="9.6984611031">
		<tag k="landuse" v="quarry" />
		<tag k="name" v="Gammelgruva" />
		<tag k="ssr:stedsnr" v="384157" />
	</node>
	<node id="-861619" lat="63.0329361154" lon="10.0140305491">
		<tag k="name" v="Skotterødkjølen" />
		<tag k="natural" v="wetland" />
		<tag k="old_name" v="Skotterudkjølen" />
		<tag k="ssr:stedsnr" v="862666" />
	</node>
	<node id="-859570" lat="63.1189999994" lon="9.655000009">
		<tag k="name" v="Mokjølen" />
		<tag k="natural" v="wetland" />
		<tag k="ssr:stedsnr" v="862476" />
	</node>
	<node id="-859569" lat="63.0201055562" lon="9.93003056178">
		<tag k="name" v="Langkåsan" />
		<tag k="place" v="locality" />
		<tag k="ssr:stedsnr" v="211520" />
	</node>
	<node id="-859568" lat="63.0117777737" lon="9.7997361017">
		<tag k="name" v="Flyttan" />
		<tag k="place" v="locality" />
		<tag k="ssr:stedsnr" v="453094" />
	</node>
	<node id="-861615" lat="63.0421861106" lon="9.62251389337">
		<tag k="landuse" v="meadow" />
		<tag k="name" v="Huluenget" />
		<tag k="ssr:stedsnr" v="635120" />
	</node>
	<node id="-859565" lat="63.0486166633" lon="9.80600277087">
		<tag k="name" v="Oppstugguslåtta" />
		<tag k="place" v="locality" />
		<tag k="ssr:stedsnr" v="271452" />
	</node>
	<node id="-861612" lat="63.0210861068" lon="9.66488334019">
		<tag k="historic" v="shieling" />
		<tag k="name" v="Fagervollan" />
		<tag k="place" v="locality" />
		<tag k="ssr:stedsnr" v="696192" />
	</node>
	<node id="-861611" lat="63.1298611105" lon="9.76853888848">
		<tag k="name" v="Vaulsmyra" />
		<tag k="natural" v="wetland" />
		<tag k="ssr:stedsnr" v="271306" />
	</node>
	<node id="-861609" lat="63.0089111124" lon="9.72443333062">
		<tag k="name" v="Låfoten" />
		<tag k="place" v="locality" />
		<tag k="ssr:stedsnr" v="332412" />
	</node>
	<node id="-859552" lat="62.9587194448" lon="9.65481666754">
		<tag k="name" v="Storøya" />
		<tag k="place" v="locality" />
		<tag k="ssr:stedsnr" v="574155" />
	</node>
	<node id="-859549" lat="62.9766611079" lon="9.51655556043">
		<tag k="name" v="Vålåskarsøyan" />
		<tag k="natural" v="wetland" />
		<tag k="ssr:stedsnr" v="392548" />
	</node>
	<node id="-859548" lat="63.0418277781" lon="9.60610277019">
		<tag k="name" v="Klappdalsbrunin" />
		<tag k="place" v="locality" />
		<tag k="ssr:stedsnr" v="574156" />
	</node>
	<node id="-861594" lat="62.9250277772" lon="9.63591945214">
		<tag k="landuse" v="meadow" />
		<tag k="name" v="Grindalsenget" />
		<tag k="ssr:stedsnr" v="696189" />
	</node>
	<node id="-861593" lat="63.0509388925" lon="9.99665555093">
		<tag k="name" v="Rauva" />
		<tag k="place" v="locality" />
		<tag k="ssr:stedsnr" v="453373" />
	</node>
	<node id="-861591" lat="63.1002444477" lon="9.49127776867">
		<tag k="name" v="Stenset" />
		<tag k="place" v="locality" />
		<tag k="ssr:stedsnr" v="514460" />
	</node>
	<node id="-861589" lat="63.1494722233" lon="9.69868333792">
		<tag k="name" v="Råkmyra" />
		<tag k="natural" v="wetland" />
		<tag k="ssr:stedsnr" v="757047" />
	</node>
	<node id="-861588" lat="63.0864500028" lon="9.48925555821">
		<tag k="name" v="Litlstakksenget" />
		<tag k="place" v="locality" />
		<tag k="ssr:stedsnr" v="29454" />
	</node>
	<node id="-861587" lat="62.9693361115" lon="9.69791667008">
		<tag k="name" v="Helvete" />
		<tag k="place" v="locality" />
		<tag k="ssr:stedsnr" v="696188" />
	</node>
	<node id="-859538" lat="63.0964250008" lon="9.60711388664">
		<tag k="fixme" v="multiple name tags, choose one and add the other to alt_name" />
		<tag k="name" v="Rønningen;Litjøya" />
		<tag k="place" v="locality" />
		<tag k="ssr:stedsnr" v="878060" />
	</node>
	<node id="-859535" lat="63.1044833297" lon="9.69659999074">
		<tag k="name" v="Tuftin" />
		<tag k="place" v="locality" />
		<tag k="ssr:stedsnr" v="818743" />
	</node>
	<node id="-859534" lat="63.054625" lon="9.93289167292">
		<tag k="name" v="Holtan" />
		<tag k="natural" v="wetland" />
		<tag k="ssr:stedsnr" v="757611" />
	</node>
	<node id="-859533" lat="63.1441055526" lon="9.64411388674">
		<tag k="name" v="Smiåkeren" />
		<tag k="place" v="locality" />
		<tag k="ssr:stedsnr" v="635674" />
	</node>
	<node id="-861579" lat="63.1295944418" lon="9.48608332804">
		<tag k="landuse" v="meadow" />
		<tag k="name" v="Omgangsenget" />
		<tag k="ssr:stedsnr" v="211384" />
	</node>
	<node id="-861578" lat="63.1271083338" lon="9.61934444254">
		<tag k="name" v="Joegga" />
		<tag k="place" v="locality" />
		<tag k="ssr:stedsnr" v="878326" />
	</node>
	<node id="-861577" lat="63.1561305596" lon="9.60185000915">
		<tag k="historic" v="shieling" />
		<tag k="name" v="Sætra" />
		<tag k="place" v="locality" />
		<tag k="ssr:stedsnr" v="574046" />
	</node>
	<node id="-859528" lat="62.9565027773" lon="9.6373611072">
		<tag k="name" v="Stakksenghøylu" />
		<tag k="place" v="locality" />
		<tag k="ssr:stedsnr" v="89161" />
	</node>
	<node id="-861574" lat="63.0353472255" lon="9.64415833306">
		<tag k="name" v="Homyra" />
		<tag k="natural" v="wetland" />
		<tag k="ssr:stedsnr" v="939195" />
	</node>
	<node id="-861573" lat="63.1552972257" lon="9.52890834178">
		<tag k="name" v="Kvernhusvollen" />
		<tag k="place" v="locality" />
		<tag k="ssr:stedsnr" v="89040" />
	</node>
	<node id="-859524" lat="63.0937583344" lon="9.64128888549">
		<tag k="name" v="Nylykkjon" />
		<tag k="place" v="locality" />
		<tag k="ssr:stedsnr" v="757186" />
	</node>
	<node id="-859523" lat="63.0195249989" lon="9.92165000118">
		<tag k="historic" v="shieling" />
		<tag k="name" v="Kukkelvollen" />
		<tag k="place" v="locality" />
		<tag k="ssr:stedsnr" v="817512" />
	</node>
	<node id="-861569" lat="63.0998861112" lon="9.48183333482">
		<tag k="name" v="Garbergsmyran" />
		<tag k="natural" v="wetland" />
		<tag k="ssr:stedsnr" v="29450" />
	</node>
	<node id="-859517" lat="63.1230861068" lon="9.59328333529">
		<tag k="name" v="Lergreftin" />
		<tag k="place" v="locality" />
		<tag k="ssr:stedsnr" v="939334" />
	</node>
	<node id="-861562" lat="62.975466665" lon="9.5370500033">
		<tag k="name" v="Kjerkmyra" />
		<tag k="natural" v="wetland" />
		<tag k="ssr:stedsnr" v="757460" />
	</node>
	<node id="-859510" lat="63.1016138885" lon="9.73566111413">
		<tag k="name" v="Bakslættmyra" />
		<tag k="natural" v="wetland" />
		<tag k="ssr:stedsnr" v="453491" />
	</node>
	<node id="-859508" lat="63.0612638854" lon="9.96217499657">
		<tag k="name" v="Stormyra" />
		<tag k="natural" v="wetland" />
		<tag k="ssr:stedsnr" v="271442" />
	</node>
	<node id="-859507" lat="62.9601444474" lon="9.6506361034">
		<tag k="landuse" v="meadow" />
		<tag k="name" v="Ellingsenget" />
		<tag k="ssr:stedsnr" v="89150" />
	</node>
	<node id="-861554" lat="62.9983833316" lon="9.77693611645">
		<tag k="name" v="Stenhusmyra" />
		<tag k="natural" v="wetland" />
		<tag k="ssr:stedsnr" v="757067" />
	</node>
	<node id="-861549" lat="63.103375003" lon="9.47725833899">
		<tag k="name" v="Fjøshåggån" />
		<tag k="place" v="locality" />
		<tag k="ssr:stedsnr" v="574444" />
	</node>
	<node id="-859500" lat="62.9671583353" lon="9.64858333869">
		<tag k="landuse" v="meadow" />
		<tag k="name" v="Sjursslåtta" />
		<tag k="ssr:stedsnr" v="332115" />
	</node>
	<node id="-861547" lat="63.0205499995" lon="9.82135833885">
		<tag k="landuse" v="meadow" />
		<tag k="name" v="Stakkenget" />
		<tag k="ssr:stedsnr" v="514443" />
	</node>
	<node id="-859497" lat="63.0345166631" lon="9.71918887995">
		<tag k="name" v="Mohåggån" />
		<tag k="place" v="locality" />
		<tag k="ssr:stedsnr" v="878464" />
	</node>
	<node id="-859496" lat="63.1526749994" lon="9.52580000644">
		<tag k="name" v="Linvollen" />
		<tag k="place" v="locality" />
		<tag k="ssr:stedsnr" v="696335" />
	</node>
	<node id="-859492" lat="63.0808999981" lon="9.78866943849">
		<tag k="name" v="Blautslættet" />
		<tag k="natural" v="wetland" />
		<tag k="ssr:stedsnr" v="392549" />
	</node>
	<node id="-859491" lat="63.1318861072" lon="9.62650556316">
		<tag k="name" v="Bratteggin" />
		<tag k="place" v="locality" />
		<tag k="ssr:stedsnr" v="454301" />
	</node>
	<node id="-861538" lat="63.0669888934" lon="9.82805832677">
		<tag k="name" v="Bogtreslåtta" />
		<tag k="place" v="locality" />
		<tag k="ssr:stedsnr" v="757485" />
	</node>
	<node id="-861537" lat="62.9685555519" lon="9.74425556253">
		<tag k="name" v="Moaløkkja" />
		<tag k="place" v="locality" />
		<tag k="ssr:stedsnr" v="514013" />
	</node>
	<node id="-859488" lat="63.032630555" lon="9.70825832902">
		<tag k="name" v="Frøkornbakken" />
		<tag k="place" v="locality" />
		<tag k="ssr:stedsnr" v="878463" />
	</node>
	<node id="-861532" lat="63.135377778" lon="9.56336388305">
		<tag k="name" v="Tjurruvyrkmyra" />
		<tag k="natural" v="wetland" />
		<tag k="ssr:stedsnr" v="574026" />
	</node>
	<node id="-859706" lat="63.1252611112" lon="9.59498055651">
		<tag k="name" v="Kloppåslykkja" />
		<tag k="place" v="locality" />
		<tag k="ssr:stedsnr" v="818336" />
	</node>
	<node id="-859479" lat="63.1367499965" lon="9.63148889838">
		<tag k="name" v="Linkjelda" />
		<tag k="place" v="locality" />
		<tag k="ssr:stedsnr" v="454299" />
	</node>
	<node id="-861525" lat="63.0332166697" lon="9.66618055571">
		<tag k="historic" v="shieling" />
		<tag k="name" v="Samlingsvollan" />
		<tag k="place" v="locality" />
		<tag k="ssr:stedsnr" v="818171" />
	</node>
	<node id="-859474" lat="62.9835999979" lon="9.51381111736">
		<tag k="name" v="Kjølen" />
		<tag k="natural" v="wetland" />
		<tag k="ssr:stedsnr" v="392552" />
	</node>
	<node id="-861521" lat="62.9432861083" lon="9.56853055241">
		<tag k="historic" v="shieling" />
		<tag k="name" v="Øyavollen" />
		<tag k="place" v="locality" />
		<tag k="ssr:stedsnr" v="757064" />
	</node>
	<node id="-861518" lat="63.0101222229" lon="9.89170556491">
		<tag k="name" v="Grinda" />
		<tag k="natural" v="wetland" />
		<tag k="ssr:stedsnr" v="453360" />
	</node>
	<node id="-860045" lat="63.0489611084" lon="9.53561944214">
		<tag k="historic" v="shieling" />
		<tag k="name" v="Fossvollhøylua" />
		<tag k="place" v="locality" />
		<tag k="ssr:stedsnr" v="878543" />
	</node>
	<node id="-861503" lat="62.9597277792" lon="9.59471112086">
		<tag k="name" v="Flomyra" />
		<tag k="natural" v="wetland" />
		<tag k="ssr:stedsnr" v="271292" />
	</node>
	<node id="-861493" lat="62.9352027761" lon="9.53665000578">
		<tag k="name" v="Tuftjølenget" />
		<tag k="place" v="locality" />
		<tag k="ssr:stedsnr" v="150455" />
	</node>
	<node id="-861488" lat="63.0510388889" lon="9.53337221994">
		<tag k="historic" v="shieling" />
		<tag k="name" v="Henriksenget" />
		<tag k="place" v="locality" />
		<tag k="ssr:stedsnr" v="757477" />
	</node>
	<node id="-861487" lat="62.912052775" lon="9.60141944661">
		<tag k="name" v="Bjugnan" />
		<tag k="natural" v="wetland" />
		<tag k="ssr:stedsnr" v="696199" />
	</node>
	<node id="-861484" lat="62.9361250035" lon="9.5320166691">
		<tag k="name" v="Nedstuggujølenget" />
		<tag k="place" v="locality" />
		<tag k="ssr:stedsnr" v="150454" />
	</node>
	<node id="-861482" lat="63.0497277804" lon="9.97594444042">
		<tag k="name" v="Svartsætergjerdet" />
		<tag k="place" v="locality" />
		<tag k="ssr:stedsnr" v="817370" />
	</node>
	<node id="-861481" lat="63.1568027816" lon="9.57881388671">
		<tag k="name" v="Bumyra" />
		<tag k="natural" v="wetland" />
		<tag k="ssr:stedsnr" v="29026" />
	</node>
	<node id="-861479" lat="63.121997223" lon="9.88305834003">
		<tag k="name" v="Skarmyra" />
		<tag k="natural" v="wetland" />
		<tag k="ssr:stedsnr" v="453780" />
	</node>
	<node id="-861478" lat="63.0895666692" lon="9.62360832913">
		<tag k="name" v="Storgryta" />
		<tag k="place" v="locality" />
		<tag k="ssr:stedsnr" v="939205" />
	</node>
	<node id="-861471" lat="63.1058833302" lon="9.46683333942">
		<tag k="name" v="Sløgda" />
		<tag k="place" v="locality" />
		<tag k="ssr:stedsnr" v="332405" />
	</node>
	<node id="-861468" lat="63.0008972218" lon="9.74904722008">
		<tag k="landuse" v="meadow" />
		<tag k="name" v="Berghåggån" />
		<tag k="ssr:stedsnr" v="757056" />
	</node>
	<node id="-862084" lat="63.1660250022" lon="9.5552638868">
		<tag k="name" v="Joparten" />
		<tag k="place" v="locality" />
		<tag k="ssr:stedsnr" v="696283" />
	</node>
	<node id="-861453" lat="63.0172722226" lon="9.71362778163">
		<tag k="name" v="Båløya" />
		<tag k="place" v="locality" />
		<tag k="ssr:stedsnr" v="332389" />
	</node>
	<node id="-861445" lat="63.0935083366" lon="9.44448332559">
		<tag k="name" v="Flotten" />
		<tag k="place" v="locality" />
		<tag k="ssr:stedsnr" v="332390" />
	</node>
	<node id="-861443" lat="63.0994777773" lon="9.5745833276">
		<tag k="name" v="Tjurruhjellan" />
		<tag k="place" v="locality" />
		<tag k="ssr:stedsnr" v="514002" />
	</node>
	<node id="-861442" lat="63.108777774" lon="9.77290556015">
		<tag k="name" v="Lensmannslykkja" />
		<tag k="place" v="locality" />
		<tag k="ssr:stedsnr" v="453345" />
	</node>
	<node id="-861441" lat="62.9905083294" lon="9.81943611099">
		<tag k="landuse" v="meadow" />
		<tag k="name" v="Klevaenget" />
		<tag k="ssr:stedsnr" v="574013" />
	</node>
	<node id="-861438" lat="63.0981361147" lon="9.44104444757">
		<tag k="name" v="Gjerdahåggån" />
		<tag k="place" v="locality" />
		<tag k="ssr:stedsnr" v="89431" />
	</node>
	<node id="-860373" lat="63.0465666669" lon="9.70025832733">
		<tag k="name" v="Gildøya" />
		<tag k="place" v="locality" />
		<tag k="ssr:stedsnr" v="453194" />
	</node>
	<node id="-861436" lat="62.9903333359" lon="9.72120276908">
		<tag k="name" v="Sæterbrekka" />
		<tag k="place" v="locality" />
		<tag k="ssr:stedsnr" v="635096" />
	</node>
	<node id="-862079" lat="62.9675055526" lon="9.54217778082">
		<tag k="historic" v="shieling" />
		<tag k="name" v="Høyluvollen" />
		<tag k="place" v="locality" />
		<tag k="ssr:stedsnr" v="514525" />
	</node>
	<node id="-861432" lat="63.1605777768" lon="9.56289999834">
		<tag k="name" v="Skarvøya" />
		<tag k="place" v="locality" />
		<tag k="ssr:stedsnr" v="574014" />
	</node>
	<node id="-861430" lat="63.1579055601" lon="9.52857777131">
		<tag k="name" v="Knuthåggån" />
		<tag k="place" v="locality" />
		<tag k="ssr:stedsnr" v="150032" />
	</node>
	<node id="-861427" lat="63.0604861081" lon="9.67736945262">
		<tag k="name" v="Såmmårfjøsmyra" />
		<tag k="natural" v="wetland" />
		<tag k="ssr:stedsnr" v="454576" />
	</node>
	<node id="-861426" lat="63.1272780366" lon="9.61538037337">
		<tag k="name" v="Rognmoen" />
		<tag k="place" v="locality" />
		<tag k="ssr:stedsnr" v="939602" />
	</node>
	<node id="-859688" lat="63.0731555518" lon="9.50820833476">
		<tag k="name" v="Storslåtta" />
		<tag k="place" v="locality" />
		<tag k="ssr:stedsnr" v="878488" />
	</node>
	<node id="-861418" lat="62.9945888901" lon="9.72644999963">
		<tag k="name" v="Storøya" />
		<tag k="place" v="locality" />
		<tag k="ssr:stedsnr" v="635094" />
	</node>
	<node id="-862103" lat="63.165550003" lon="9.56340276934">
		<tag k="name" v="Fluren" />
		<tag k="place" v="locality" />
		<tag k="ssr:stedsnr" v="878012" />
	</node>
	<node id="-861414" lat="63.1250000038" lon="9.55236388396">
		<tag k="name" v="Svenskodden" />
		<tag k="place" v="locality" />
		<tag k="ssr:stedsnr" v="89019" />
	</node>
	<node id="-861407" lat="63.0487763323" lon="9.64036824796">
		<tag k="name" v="Sæterbrunin" />
		<tag k="place" v="locality" />
		<tag k="ssr:stedsnr" v="696167" />
	</node>
	<node id="-861402" lat="63.1298538237" lon="9.61658356109">
		<tag k="name" v="Kjerkhulludalsmoen" />
		<tag k="place" v="locality" />
		<tag k="ssr:stedsnr" v="696597" />
	</node>
	<node id="-861400" lat="63.0752972221" lon="9.65997778607">
		<tag k="name" v="Litjmyra" />
		<tag k="natural" v="wetland" />
		<tag k="ssr:stedsnr" v="879538" />
	</node>
	<node id="-861397" lat="63.0576388845" lon="9.72306111732">
		<tag k="name" v="Hestflotten" />
		<tag k="place" v="locality" />
		<tag k="ssr:stedsnr" v="514430" />
	</node>
	<node id="-861791" lat="63.0714333357" lon="9.56208055156">
		<tag k="name" v="Dalbruna" />
		<tag k="place" v="locality" />
		<tag k="ssr:stedsnr" v="150077" />
	</node>
	<node id="-861395" lat="62.9500388871" lon="9.53058610349">
		<tag k="historic" v="shieling" />
		<tag k="name" v="Høyluvollen" />
		<tag k="place" v="locality" />
		<tag k="ssr:stedsnr" v="150452" />
	</node>
	<node id="-859683" lat="63.1197805585" lon="9.72682777011">
		<tag k="name" v="Liggarflottmyra" />
		<tag k="natural" v="wetland" />
		<tag k="ssr:stedsnr" v="454762" />
	</node>
	<node id="-861385" lat="63.0150111125" lon="9.92914999413">
		<tag k="name" v="Storøya" />
		<tag k="place" v="locality" />
		<tag k="ssr:stedsnr" v="817331" />
	</node>
	<node id="-861382" lat="63.0269888858" lon="9.73554999738">
		<tag k="landuse" v="meadow" />
		<tag k="name" v="Løvehåggån" />
		<tag k="ssr:stedsnr" v="150444" />
	</node>
	<node id="-861556" lat="63.179099997" lon="9.53381111499">
		<tag k="name" v="Pølen" />
		<tag k="place" v="locality" />
		<tag k="ssr:stedsnr" v="29036" />
	</node>
	<node id="-861372" lat="62.9633000023" lon="9.65659443722">
		<tag k="name" v="Kåsan" />
		<tag k="place" v="locality" />
		<tag k="ssr:stedsnr" v="939165" />
	</node>
	<node id="-861370" lat="63.0312083326" lon="9.50681110729">
		<tag k="name" v="Skrivarhøylua" />
		<tag k="place" v="locality" />
		<tag k="ssr:stedsnr" v="29426" />
	</node>
	<node id="-861369" lat="63.0556527806" lon="9.82800277272">
		<tag k="name" v="Nedstugguslåtta" />
		<tag k="place" v="locality" />
		<tag k="ssr:stedsnr" v="332395" />
	</node>
	<node id="-861368" lat="63.1422472189" lon="9.78623611753">
		<tag k="name" v="Saggjerdet" />
		<tag k="place" v="locality" />
		<tag k="ssr:stedsnr" v="878296" />
	</node>
	<node id="-861357" lat="63.1514583352" lon="9.45588055934">
		<tag k="name" v="Gåsvassmyra" />
		<tag k="natural" v="wetland" />
		<tag k="ssr:stedsnr" v="514439" />
	</node>
	<node id="-861356" lat="63.0155472204" lon="9.8653500037">
		<tag k="name" v="Langkloppen" />
		<tag k="natural" v="wetland" />
		<tag k="ssr:stedsnr" v="453355" />
	</node>
	<node id="-861355" lat="62.970955552" lon="9.75964722484">
		<tag k="name" v="Halsan" />
		<tag k="place" v="locality" />
		<tag k="ssr:stedsnr" v="757014" />
	</node>
	<node id="-861340" lat="63.164352778" lon="9.55932778132">
		<tag k="historic" v="shieling" />
		<tag k="name" v="Vavollan" />
		<tag k="place" v="locality" />
		<tag k="ssr:stedsnr" v="89010" />
	</node>
	<node id="-859674" lat="63.0660361088" lon="9.5634861138">
		<tag k="name" v="Fjellslåtta" />
		<tag k="place" v="locality" />
		<tag k="ssr:stedsnr" v="211107" />
	</node>
	<node id="-861334" lat="63.146411109" lon="9.82008333271">
		<tag k="name" v="Goliksmyran" />
		<tag k="natural" v="wetland" />
		<tag k="ssr:stedsnr" v="878317" />
	</node>
	<node id="-861332" lat="63.1102916681" lon="9.51032222304">
		<tag k="name" v="Myraslåtta" />
		<tag k="place" v="locality" />
		<tag k="ssr:stedsnr" v="514410" />
	</node>
	<node id="-861326" lat="62.9741027746" lon="9.53068888962">
		<tag k="name" v="Kveldshomna" />
		<tag k="place" v="locality" />
		<tag k="ssr:stedsnr" v="757458" />
	</node>
	<node id="-861319" lat="63.1040583298" lon="9.47936111686">
		<tag k="name" v="Nylendet" />
		<tag k="place" v="locality" />
		<tag k="ssr:stedsnr" v="514416" />
	</node>
	<node id="-861318" lat="63.1306500038" lon="9.756738888">
		<tag k="name" v="Movollen" />
		<tag k="place" v="locality" />
		<tag k="ssr:stedsnr" v="878318" />
	</node>
	<node id="-861315" lat="62.9918361123" lon="9.76567221672">
		<tag k="name" v="Gjertrudhåggån" />
		<tag k="place" v="locality" />
		<tag k="ssr:stedsnr" v="635105" />
	</node>
	<node id="-861305" lat="63.0622305595" lon="9.69729445349">
		<tag k="name" v="Ertstuggumyra" />
		<tag k="natural" v="wetland" />
		<tag k="ssr:stedsnr" v="272514" />
	</node>
	<node id="-861304" lat="63.028980558" lon="9.73893889816">
		<tag k="name" v="Sarahåggån" />
		<tag k="place" v="locality" />
		<tag k="ssr:stedsnr" v="332383" />
	</node>
	<node id="-861303" lat="63.0523777809" lon="9.67488610811">
		<tag k="name" v="Bangen" />
		<tag k="place" v="locality" />
		<tag k="ssr:stedsnr" v="939176" />
	</node>
	<node id="-861299" lat="63.1539250035" lon="9.55967778621">
		<tag k="name" v="Tømmerlunnmyra" />
		<tag k="natural" v="wetland" />
		<tag k="ssr:stedsnr" v="150013" />
	</node>
	<node id="-861298" lat="63.111483331" lon="9.52037777065">
		<tag k="name" v="Dalsslåtta" />
		<tag k="place" v="locality" />
		<tag k="ssr:stedsnr" v="332384" />
	</node>
	<node id="-861295" lat="63.0672444429" lon="9.63261388675">
		<tag k="name" v="Skjulenget" />
		<tag k="place" v="locality" />
		<tag k="ssr:stedsnr" v="271278" />
	</node>
	<node id="-861294" lat="63.041247219" lon="9.69265278678">
		<tag k="name" v="Håggålia" />
		<tag k="place" v="locality" />
		<tag k="ssr:stedsnr" v="696173" />
	</node>
	<node id="-861293" lat="63.1233861095" lon="9.8715361077">
		<tag k="name" v="Trastøya" />
		<tag k="place" v="locality" />
		<tag k="ssr:stedsnr" v="392807" />
	</node>
	<node id="-861289" lat="62.9893749984" lon="9.76464443906">
		<tag k="name" v="Haugan" />
		<tag k="place" v="locality" />
		<tag k="ssr:stedsnr" v="635102" />
	</node>
	<node id="-859664" lat="63.0985861137" lon="9.52055555079">
		<tag k="name" v="Forskottet" />
		<tag k="place" v="locality" />
		<tag k="ssr:stedsnr" v="878491" />
	</node>
	<node id="-861261" lat="63.1548138908" lon="9.61502777402">
		<tag k="name" v="Gråhåmmårlykkja" />
		<tag k="place" v="locality" />
		<tag k="ssr:stedsnr" v="757030" />
	</node>
	<node id="-861260" lat="63.0977638929" lon="9.51073610227">
		<tag k="name" v="Gråtarvollen" />
		<tag k="place" v="locality" />
		<tag k="ssr:stedsnr" v="150425" />
	</node>
	<node id="-861258" lat="63.0425527741" lon="9.75821110827">
		<tag k="name" v="Messmyran" />
		<tag k="natural" v="wetland" />
		<tag k="ssr:stedsnr" v="133540" />
	</node>
	<node id="-861256" lat="63.0254388848" lon="9.73902500221">
		<tag k="name" v="Valbergshåggån" />
		<tag k="place" v="locality" />
		<tag k="ssr:stedsnr" v="29405" />
	</node>
	<node id="-861255" lat="62.9597277757" lon="9.64860832879">
		<tag k="name" v="Kvernabrekka" />
		<tag k="place" v="locality" />
		<tag k="ssr:stedsnr" v="696141" />
	</node>
	<node id="-861253" lat="62.9194694411" lon="9.55280277498">
		<tag k="landuse" v="meadow" />
		<tag k="name" v="Nestuggujølenget" />
		<tag k="ssr:stedsnr" v="635071" />
	</node>
	<node id="-859659" lat="63.0015583324" lon="9.70423889325">
		<tag k="name" v="Kårsklevhåggån" />
		<tag k="place" v="locality" />
		<tag k="ssr:stedsnr" v="757213" />
	</node>
	<node id="-861240" lat="63.0497805548" lon="9.61535278446">
		<tag k="name" v="Rebergstoen" />
		<tag k="place" v="locality" />
		<tag k="ssr:stedsnr" v="818114" />
	</node>
	<node id="-861239" lat="63.0049527816" lon="9.79436945401">
		<tag k="landuse" v="meadow" />
		<tag k="name" v="Sandøylykkja" />
		<tag k="ssr:stedsnr" v="635069" />
	</node>
	<node id="-861230" lat="63.023677778" lon="9.88308334084">
		<tag k="name" v="Blautsetet" />
		<tag k="natural" v="wetland" />
		<tag k="ssr:stedsnr" v="696567" />
	</node>
	<node id="-861229" lat="63.0818083332" lon="9.56429721379">
		<tag k="name" v="Slåttmyra" />
		<tag k="natural" v="wetland" />
		<tag k="ssr:stedsnr" v="818103" />
	</node>
	<node id="-861228" lat="63.1001722204" lon="9.55313611523">
		<tag k="name" v="Tangen" />
		<tag k="place" v="locality" />
		<tag k="ssr:stedsnr" v="454125" />
	</node>
	<node id="-861224" lat="63.0439944419" lon="9.60252778278">
		<tag k="name" v="Karistoen" />
		<tag k="place" v="locality" />
		<tag k="ssr:stedsnr" v="939141" />
	</node>
	<node id="-861223" lat="63.0104833297" lon="9.89118611755">
		<tag k="name" v="Lassengmyra" />
		<tag k="natural" v="wetland" />
		<tag k="ssr:stedsnr" v="392380" />
	</node>
	<node id="-861517" lat="63.1619194403" lon="9.59234167098">
		<tag k="name" v="Gjelmyra" />
		<tag k="natural" v="wetland" />
		<tag k="ssr:stedsnr" v="89033" />
	</node>
	<node id="-861214" lat="63.1693555558" lon="9.52080278214">
		<tag k="name" v="Plasshåggån" />
		<tag k="place" v="locality" />
		<tag k="ssr:stedsnr" v="89403" />
	</node>
	<node id="-861212" lat="63.0237888912" lon="9.96054165815">
		<tag k="name" v="Springarvadet" />
		<tag k="natural" v="wetland" />
		<tag k="ssr:stedsnr" v="29393" />
	</node>
	<node id="-861211" lat="63.0847000039" lon="9.57183333562">
		<tag k="name" v="Tingmyra" />
		<tag k="natural" v="wetland" />
		<tag k="ssr:stedsnr" v="696131" />
	</node>
	<node id="-861208" lat="63.0987000044" lon="9.55204165923">
		<tag k="name" v="Råøya" />
		<tag k="place" v="locality" />
		<tag k="ssr:stedsnr" v="454129" />
	</node>
	<node id="-861203" lat="63.0997805534" lon="9.8735388939">
		<tag k="name" v="Litjbumyran" />
		<tag k="natural" v="wetland" />
		<tag k="ssr:stedsnr" v="453743" />
	</node>
	<node id="-861191" lat="63.107163886" lon="9.8471305502">
		<tag k="name" v="Bergtjønnmyra" />
		<tag k="natural" v="wetland" />
		<tag k="ssr:stedsnr" v="817746" />
	</node>
	<node id="-861190" lat="63.0770555518" lon="9.50689722272">
		<tag k="name" v="Skarvkjølen" />
		<tag k="natural" v="wetland" />
		<tag k="ssr:stedsnr" v="150411" />
	</node>
	<node id="-861189" lat="62.9702694414" lon="9.68159999162">
		<tag k="landuse" v="meadow" />
		<tag k="name" v="Buaslåtta" />
		<tag k="ssr:stedsnr" v="696154" />
	</node>
	<node id="-861186" lat="63.1547749976" lon="9.57108610477">
		<tag k="historic" v="shieling" />
		<tag k="name" v="Svenskkoivollen" />
		<tag k="place" v="locality" />
		<tag k="ssr:stedsnr" v="757011" />
	</node>
	<node id="-861183" lat="63.0577055538" lon="9.97239723178">
		<tag k="name" v="Svartsætergjerdet" />
		<tag k="place" v="locality" />
		<tag k="ssr:stedsnr" v="89391" />
	</node>
	<node id="-861180" lat="62.9600972207" lon="9.64188888185">
		<tag k="name" v="Gammelgarden" />
		<tag k="place" v="locality" />
		<tag k="ssr:stedsnr" v="818127" />
	</node>
	<node id="-861178" lat="63.1812138856" lon="9.52229443588">
		<tag k="name" v="Kjølmyra" />
		<tag k="natural" v="wetland" />
		<tag k="ssr:stedsnr" v="89396" />
	</node>
	<node id="-861176" lat="63.0127666625" lon="9.82496110591">
		<tag k="name" v="Jonsholda" />
		<tag k="natural" v="wetland" />
		<tag k="ssr:stedsnr" v="635081" />
	</node>
	<node id="-861175" lat="63.0299333313" lon="9.91831388184">
		<tag k="historic" v="shieling" />
		<tag k="name" v="Holsstugguvollen" />
		<tag k="place" v="locality" />
		<tag k="ssr:stedsnr" v="696583" />
	</node>
	<node id="-861172" lat="63.1716194487" lon="9.57112222927">
		<tag k="name" v="Nordgjerdet" />
		<tag k="place" v="locality" />
		<tag k="ssr:stedsnr" v="453312" />
	</node>
	<node id="-861694" lat="63.1023166647" lon="9.47054445065">
		<tag k="name" v="Maritmælingen" />
		<tag k="place" v="locality" />
		<tag k="ssr:stedsnr" v="392449" />
	</node>
	<node id="-861169" lat="63.0816138899" lon="9.67887499563">
		<tag k="name" v="Tronggjelan" />
		<tag k="place" v="locality" />
		<tag k="ssr:stedsnr" v="271242" />
	</node>
	<node id="-861168" lat="63.154377781" lon="9.45793611908">
		<tag k="name" v="Kalvhåggån" />
		<tag k="place" v="locality" />
		<tag k="ssr:stedsnr" v="332344" />
	</node>
	<node id="-861159" lat="63.0552055513" lon="9.7312055571">
		<tag k="name" v="Småslåtta" />
		<tag k="place" v="locality" />
		<tag k="ssr:stedsnr" v="150403" />
	</node>
	<node id="-861158" lat="63.0165749988" lon="9.82321388332">
		<tag k="landuse" v="meadow" />
		<tag k="name" v="Holsstugguenget" />
		<tag k="ssr:stedsnr" v="635078" />
	</node>
	<node id="-862033" lat="63.093611114" lon="9.49463055938">
		<tag k="name" v="Liaekra" />
		<tag k="place" v="locality" />
		<tag k="ssr:stedsnr" v="211445" />
	</node>
	<node id="-861145" lat="63.0557777777" lon="9.63772499764">
		<tag k="name" v="Noemen" />
		<tag k="place" v="locality" />
		<tag k="ssr:stedsnr" v="939154" />
	</node>
	<node id="-861144" lat="63.0112166673" lon="9.90328333049">
		<tag k="name" v="Gammelslåtta" />
		<tag k="natural" v="wetland" />
		<tag k="ssr:stedsnr" v="332355" />
	</node>
	<node id="-862372" lat="63.1265361072" lon="9.55743056523">
		<tag k="name" v="Gammelvegen" />
		<tag k="place" v="locality" />
		<tag k="ssr:stedsnr" v="878017" />
	</node>
	<node id="-861141" lat="62.9812861111" lon="9.49979444051">
		<tag k="name" v="Romundstadkjølen" />
		<tag k="natural" v="wetland" />
		<tag k="ssr:stedsnr" v="635497" />
	</node>
	<node id="-861137" lat="63.0807249976" lon="9.80640832445">
		<tag k="name" v="Kjølen" />
		<tag k="natural" v="wetland" />
		<tag k="ssr:stedsnr" v="635496" />
	</node>
	<node id="-861134" lat="63.0528333327" lon="9.64025555729">
		<tag k="name" v="Klevamyra" />
		<tag k="natural" v="wetland" />
		<tag k="ssr:stedsnr" v="939157" />
	</node>
	<node id="-859980" lat="62.9762083303" lon="9.64110278342">
		<tag k="name" v="Storviholtet" />
		<tag k="place" v="locality" />
		<tag k="ssr:stedsnr" v="89228" />
	</node>
	<node id="-861124" lat="63.1371138869" lon="9.83664722753">
		<tag k="name" v="Kumyra" />
		<tag k="natural" v="wetland" />
		<tag k="ssr:stedsnr" v="939547" />
	</node>
	<node id="-861686" lat="63.0380055534" lon="9.82152499716">
		<tag k="landuse" v="meadow" />
		<tag k="name" v="Karienget" />
		<tag k="ssr:stedsnr" v="89462" />
	</node>
	<node id="-861118" lat="63.034052782" lon="9.67434167621">
		<tag k="name" v="Liamyra" />
		<tag k="natural" v="wetland" />
		<tag k="ssr:stedsnr" v="271233" />
	</node>
	<node id="-861116" lat="63.1083305523" lon="9.65182222322">
		<tag k="name" v="Røsslåtta" />
		<tag k="place" v="locality" />
		<tag k="ssr:stedsnr" v="211310" />
	</node>
	<node id="-861115" lat="63.1216888845" lon="9.54956388715">
		<tag k="name" v="Lykkja" />
		<tag k="place" v="locality" />
		<tag k="ssr:stedsnr" v="635046" />
	</node>
	<node id="-861109" lat="62.9757750041" lon="9.77154167475">
		<tag k="name" v="Sandlykkja" />
		<tag k="place" v="locality" />
		<tag k="ssr:stedsnr" v="939122" />
	</node>
	<node id="-861108" lat="63.091591663" lon="9.71871389017">
		<tag k="name" v="Blomtjønnmyra" />
		<tag k="natural" v="wetland" />
		<tag k="ssr:stedsnr" v="635465" />
	</node>
	<node id="-861091" lat="62.9782499992" lon="9.71911388412">
		<tag k="name" v="Nilsgjerdet" />
		<tag k="place" v="locality" />
		<tag k="ssr:stedsnr" v="696112" />
	</node>
	<node id="-860315" lat="63.0353972213" lon="9.72593611062">
		<tag k="name" v="Moflata" />
		<tag k="place" v="locality" />
		<tag k="ssr:stedsnr" v="818391" />
	</node>
	<node id="-861088" lat="62.9746527783" lon="9.72731667131">
		<tag k="name" v="Dålån" />
		<tag k="place" v="locality" />
		<tag k="ssr:stedsnr" v="818076" />
	</node>
	<node id="-862020" lat="63.1622166712" lon="9.53158332943">
		<tag k="name" v="Hulluvollen" />
		<tag k="place" v="locality" />
		<tag k="ssr:stedsnr" v="332044" />
	</node>
	<node id="-860313" lat="62.9931138856" lon="9.81865555899">
		<tag k="landuse" v="meadow" />
		<tag k="name" v="Hestenget" />
		<tag k="ssr:stedsnr" v="696002" />
	</node>
	<node id="-861075" lat="63.1708861071" lon="9.4716250091">
		<tag k="name" v="Syndre Gjerdet" />
		<tag k="place" v="locality" />
		<tag k="ssr:stedsnr" v="29373" />
	</node>
	<node id="-861074" lat="63.0844249994" lon="9.68831943806">
		<tag k="name" v="Malienget" />
		<tag k="place" v="locality" />
		<tag k="ssr:stedsnr" v="271239" />
	</node>
	<node id="-861073" lat="63.1378861073" lon="9.83673889166">
		<tag k="name" v="Skjetnråa" />
		<tag k="place" v="locality" />
		<tag k="ssr:stedsnr" v="696543" />
	</node>
	<node id="-861069" lat="63.0533555547" lon="9.91745833611">
		<tag k="name" v="Øvergjerdet" />
		<tag k="place" v="locality" />
		<tag k="ssr:stedsnr" v="453717" />
	</node>
	<node id="-861063" lat="63.0715861121" lon="9.88057777441">
		<tag k="name" v="Lergrovshåggån" />
		<tag k="place" v="locality" />
		<tag k="ssr:stedsnr" v="392763" />
	</node>
	<node id="-861062" lat="62.9906722258" lon="9.73659166301">
		<tag k="name" v="Gammelgarden" />
		<tag k="place" v="locality" />
		<tag k="ssr:stedsnr" v="818079" />
	</node>
	<node id="-861060" lat="63.1735666689" lon="9.49163611394">
		<tag k="name" v="Kleppin" />
		<tag k="natural" v="wetland" />
		<tag k="ssr:stedsnr" v="514378" />
	</node>
	<node id="-861058" lat="63.1573972215" lon="9.45900834064">
		<tag k="name" v="Vadet" />
		<tag k="natural" v="wetland" />
		<tag k="ssr:stedsnr" v="574384" />
	</node>
	<node id="-861057" lat="63.15100556" lon="9.64001111198">
		<tag k="name" v="Tuftin" />
		<tag k="place" v="locality" />
		<tag k="ssr:stedsnr" v="635036" />
	</node>
	<node id="-861674" lat="62.9667749967" lon="9.61025833143">
		<tag k="name" v="Smørøskja" />
		<tag k="place" v="locality" />
		<tag k="ssr:stedsnr" v="393246" />
	</node>
	<node id="-861047" lat="63.1087694476" lon="9.55379444985">
		<tag k="name" v="Gråmyra" />
		<tag k="natural" v="wetland" />
		<tag k="ssr:stedsnr" v="818096" />
	</node>
	<node id="-861044" lat="63.1555861135" lon="9.45854999275">
		<tag k="name" v="Sigridoddan" />
		<tag k="place" v="locality" />
		<tag k="ssr:stedsnr" v="89368" />
	</node>
	<node id="-861031" lat="63.0986388933" lon="9.55858889306">
		<tag k="name" v="Rokkmakerhåggån" />
		<tag k="place" v="locality" />
		<tag k="ssr:stedsnr" v="393139" />
	</node>
	<node id="-861029" lat="62.954124997" lon="9.55983333445">
		<tag k="name" v="Stormyra" />
		<tag k="natural" v="wetland" />
		<tag k="ssr:stedsnr" v="635058" />
	</node>
	<node id="-861023" lat="63.1125611106" lon="9.7006777691">
		<tag k="name" v="Linkjelda" />
		<tag k="place" v="locality" />
		<tag k="ssr:stedsnr" v="574779" />
	</node>
	<node id="-861022" lat="63.122950998" lon="9.68590354334">
		<tag k="name" v="Bergulmyra" />
		<tag k="natural" v="wetland" />
		<tag k="ssr:stedsnr" v="211723" />
	</node>
	<node id="-861015" lat="62.9787777738" lon="9.70076389626">
		<tag k="name" v="Midtåsmyra" />
		<tag k="natural" v="wetland" />
		<tag k="ssr:stedsnr" v="453286" />
	</node>
	<node id="-861014" lat="63.0619666637" lon="9.86461666513">
		<tag k="name" v="Kudaudmyra" />
		<tag k="natural" v="wetland" />
		<tag k="ssr:stedsnr" v="392745" />
	</node>
	<node id="-861011" lat="63.0710361074" lon="9.69883055634">
		<tag k="name" v="Koltjønnmyra" />
		<tag k="natural" v="wetland" />
		<tag k="ssr:stedsnr" v="393570" />
	</node>
	<node id="-861010" lat="63.0310916701" lon="9.52876945293">
		<tag k="name" v="Bakkjølen" />
		<tag k="natural" v="wetland" />
		<tag k="ssr:stedsnr" v="558329" />
	</node>
	<node id="-861007" lat="62.9560833364" lon="9.56470276965">
		<tag k="landuse" v="meadow" />
		<tag k="name" v="Stakksenget" />
		<tag k="ssr:stedsnr" v="635056" />
	</node>
	<node id="-861000" lat="63.0055999997" lon="9.85263611839">
		<tag k="name" v="Stormyran" />
		<tag k="natural" v="wetland" />
		<tag k="ssr:stedsnr" v="29362" />
	</node>
	<node id="-860999" lat="63.0487638853" lon="9.6142555633">
		<tag k="name" v="Kroklimyra" />
		<tag k="natural" v="wetland" />
		<tag k="ssr:stedsnr" v="939139" />
	</node>
	<node id="-860994" lat="62.9910277757" lon="9.76879167505">
		<tag k="name" v="Hokollen" />
		<tag k="place" v="locality" />
		<tag k="ssr:stedsnr" v="696121" />
	</node>
	<node id="-860990" lat="63.1365583354" lon="9.85865000089">
		<tag k="name" v="Sagmarka" />
		<tag k="place" v="locality" />
		<tag k="ssr:stedsnr" v="939555" />
	</node>
	<node id="-860989" lat="63.0888249977" lon="9.63060833582">
		<tag k="name" v="Kjerkgarden" />
		<tag k="place" v="locality" />
		<tag k="ssr:stedsnr" v="271226" />
	</node>
	<node id="-860985" lat="62.9182555563" lon="9.58829999224">
		<tag k="name" v="Druggudalsbjugnan" />
		<tag k="place" v="locality" />
		<tag k="ssr:stedsnr" v="271225" />
	</node>
	<node id="-860983" lat="63.1217833318" lon="9.78256110346">
		<tag k="name" v="Vidmyra" />
		<tag k="natural" v="wetland" />
		<tag k="ssr:stedsnr" v="194041" />
	</node>
	<node id="-860982" lat="63.0502416655" lon="9.55167500816">
		<tag k="name" v="Skrøvlholtmyran" />
		<tag k="natural" v="wetland" />
		<tag k="ssr:stedsnr" v="454085" />
	</node>
	<node id="-860978" lat="63.0334194416" lon="9.52366944373">
		<tag k="name" v="Stenkjølen" />
		<tag k="natural" v="wetland" />
		<tag k="ssr:stedsnr" v="635470" />
	</node>
	<node id="-860974" lat="63.1065472213" lon="9.54789444711">
		<tag k="name" v="Vakkerskårgangen" />
		<tag k="place" v="locality" />
		<tag k="ssr:stedsnr" v="635050" />
	</node>
	<node id="-862002" lat="62.9479861106" lon="9.67794444653">
		<tag k="name" v="Flotten" />
		<tag k="place" v="locality" />
		<tag k="ssr:stedsnr" v="635173" />
	</node>
	<node id="-860963" lat="63.1226416664" lon="9.86901110291">
		<tag k="historic" v="shieling" />
		<tag k="name" v="Slættvollen" />
		<tag k="place" v="locality" />
		<tag k="ssr:stedsnr" v="332742" />
	</node>
	<node id="-861659" lat="62.9482611146" lon="9.61499444266">
		<tag k="name" v="Resbogen" />
		<tag k="place" v="locality" />
		<tag k="ssr:stedsnr" v="635152" />
	</node>
	<node id="-860958" lat="62.9860972259" lon="9.52555554672">
		<tag k="name" v="Kåsin" />
		<tag k="place" v="locality" />
		<tag k="ssr:stedsnr" v="635468" />
	</node>
	<node id="-860952" lat="63.0217083337" lon="9.82299166667">
		<tag k="name" v="Lundakjølen" />
		<tag k="natural" v="wetland" />
		<tag k="ssr:stedsnr" v="315691" />
	</node>
	<node id="-860948" lat="63.1376472198" lon="9.54916389432">
		<tag k="name" v="Klopphaughåggån" />
		<tag k="place" v="locality" />
		<tag k="ssr:stedsnr" v="635022" />
	</node>
	<node id="-860945" lat="62.9710166676" lon="9.53695555207">
		<tag k="name" v="Elgmerkbruna" />
		<tag k="place" v="locality" />
		<tag k="ssr:stedsnr" v="696521" />
	</node>
	<node id="-860944" lat="63.0842250041" lon="9.75909444501">
		<tag k="name" v="Tullskogen" />
		<tag k="place" v="locality" />
		<tag k="ssr:stedsnr" v="818482" />
	</node>
	<node id="-860942" lat="63.0179083306" lon="9.91007778684">
		<tag k="name" v="Heggråa" />
		<tag k="place" v="locality" />
		<tag k="ssr:stedsnr" v="878632" />
	</node>
	<node id="-860938" lat="63.0411916654" lon="10.0063222262">
		<tag k="name" v="Holskjølen" />
		<tag k="natural" v="wetland" />
		<tag k="ssr:stedsnr" v="757367" />
	</node>
	<node id="-860936" lat="63.115986112" lon="9.62767222985">
		<tag k="name" v="Vatnet" />
		<tag k="place" v="locality" />
		<tag k="ssr:stedsnr" v="514344" />
	</node>
	<node id="-860934" lat="62.9869027809" lon="9.52293334314">
		<tag k="name" v="Brandslåtta" />
		<tag k="place" v="locality" />
		<tag k="ssr:stedsnr" v="818487" />
	</node>
	<node id="-860971" lat="63.1289055592" lon="9.70388888294">
		<tag k="landuse" v="meadow" />
		<tag k="name" v="Kjela" />
		<tag k="ssr:stedsnr" v="211289" />
	</node>
	<node id="-860928" lat="63.1096416672" lon="9.6856166674">
		<tag k="name" v="Gjerdet" />
		<tag k="place" v="locality" />
		<tag k="ssr:stedsnr" v="332726" />
	</node>
	<node id="-860921" lat="63.1205361121" lon="9.85515833211">
		<tag k="name" v="Slættmarka" />
		<tag k="place" v="locality" />
		<tag k="ssr:stedsnr" v="211712" />
	</node>
	<node id="-860920" lat="62.9865583307" lon="9.90930555648">
		<tag k="name" v="Raudhattfloan" />
		<tag k="natural" v="wetland" />
		<tag k="ssr:stedsnr" v="453683" />
	</node>
	<node id="-860917" lat="63.1011638858" lon="9.66908056405">
		<tag k="name" v="Steigamyra" />
		<tag k="natural" v="wetland" />
		<tag k="ssr:stedsnr" v="376483" />
	</node>
	<node id="-860914" lat="63.1362416688" lon="9.52826945109">
		<tag k="name" v="Lånnamyran" />
		<tag k="natural" v="wetland" />
		<tag k="ssr:stedsnr" v="635016" />
	</node>
	<node id="-860910" lat="63.0060111149" lon="9.7160638977">
		<tag k="name" v="Vallgjøtet" />
		<tag k="place" v="locality" />
		<tag k="ssr:stedsnr" v="635435" />
	</node>
	<node id="-860908" lat="63.0850750002" lon="9.60349722047">
		<tag k="name" v="Trettøya" />
		<tag k="place" v="locality" />
		<tag k="ssr:stedsnr" v="878217" />
	</node>
	<node id="-860904" lat="63.073350001" lon="9.8727277784">
		<tag k="name" v="Smørfatet" />
		<tag k="place" v="locality" />
		<tag k="ssr:stedsnr" v="574769" />
	</node>
	<node id="-861649" lat="63.0332944428" lon="9.65281388993">
		<tag k="historic" v="shieling" />
		<tag k="name" v="Gammelsætervollan" />
		<tag k="place" v="locality" />
		<tag k="ssr:stedsnr" v="696194" />
	</node>
	<node id="-860900" lat="63.0427083322" lon="9.58746666519">
		<tag k="name" v="Skarvmyra" />
		<tag k="natural" v="wetland" />
		<tag k="ssr:stedsnr" v="453276" />
	</node>
	<node id="-860892" lat="63.1412277753" lon="9.58825277572">
		<tag k="name" v="Høgmyran" />
		<tag k="natural" v="wetland" />
		<tag k="ssr:stedsnr" v="514351" />
	</node>
	<node id="-861433" lat="63.1742388854" lon="9.52937222598">
		<tag k="name" v="Moan" />
		<tag k="place" v="locality" />
		<tag k="ssr:stedsnr" v="757025" />
	</node>
	<node id="-860887" lat="63.0924527736" lon="9.58237221829">
		<tag k="name" v="Duluvollan" />
		<tag k="place" v="locality" />
		<tag k="ssr:stedsnr" v="818047" />
	</node>
	<node id="-860875" lat="63.1204583304" lon="9.7934194414">
		<tag k="name" v="Stenkåsmyran" />
		<tag k="natural" v="wetland" />
		<tag k="ssr:stedsnr" v="392325" />
	</node>
	<node id="-860874" lat="63.138097224" lon="9.8660611124">
		<tag k="name" v="Åmundshåggan" />
		<tag k="place" v="locality" />
		<tag k="ssr:stedsnr" v="89753" />
	</node>
	<node id="-860873" lat="62.9113527795" lon="9.55700554977">
		<tag k="historic" v="shieling" />
		<tag k="name" v="Gammelsætra" />
		<tag k="place" v="locality" />
		<tag k="ssr:stedsnr" v="939091" />
	</node>
	<node id="-861644" lat="63.1591888855" lon="9.6020527837">
		<tag k="name" v="Damtjønnmyra" />
		<tag k="natural" v="wetland" />
		<tag k="ssr:stedsnr" v="89043" />
	</node>
	<node id="-860961" lat="63.1027083352" lon="9.46421389639">
		<tag k="name" v="Hundholet" />
		<tag k="place" v="locality" />
		<tag k="ssr:stedsnr" v="757394" />
	</node>
	<node id="-860863" lat="63.1008972237" lon="9.46457499283">
		<tag k="name" v="Nylendet" />
		<tag k="place" v="locality" />
		<tag k="ssr:stedsnr" v="635455" />
	</node>
	<node id="-860862" lat="63.0284638918" lon="9.97984722069">
		<tag k="name" v="Langmyra" />
		<tag k="natural" v="wetland" />
		<tag k="ssr:stedsnr" v="757376" />
	</node>
	<node id="-860857" lat="63.0601972211" lon="9.82689443785">
		<tag k="name" v="Trevelstykket" />
		<tag k="place" v="locality" />
		<tag k="ssr:stedsnr" v="454484" />
	</node>
	<node id="-860856" lat="63.0750166641" lon="9.59687777938">
		<tag k="name" v="Pullan" />
		<tag k="place" v="locality" />
		<tag k="ssr:stedsnr" v="453257" />
	</node>
	<node id="-861675" lat="63.0848388908" lon="9.69166945382">
		<tag k="name" v="Vollan" />
		<tag k="place" v="locality" />
		<tag k="ssr:stedsnr" v="696224" />
	</node>
	<node id="-860848" lat="62.9203666659" lon="9.5752361135">
		<tag k="landuse" v="meadow" />
		<tag k="name" v="Sjursdalsenget" />
		<tag k="ssr:stedsnr" v="818066" />
	</node>
	<node id="-860845" lat="63.0305555557" lon="9.93587221529">
		<tag k="name" v="Rotåsglenna" />
		<tag k="natural" v="wetland" />
		<tag k="ssr:stedsnr" v="28536" />
	</node>
	<node id="-860841" lat="63.023652774" lon="9.73135556242">
		<tag k="name" v="Øksa" />
		<tag k="place" v="locality" />
		<tag k="ssr:stedsnr" v="635451" />
	</node>
	<node id="-860833" lat="63.1216944435" lon="9.86120277701">
		<tag k="name" v="Nordgardsslættet" />
		<tag k="place" v="locality" />
		<tag k="ssr:stedsnr" v="29756" />
	</node>
	<node id="-860830" lat="63.1487444477" lon="9.67151666745">
		<tag k="name" v="Stormyra" />
		<tag k="natural" v="wetland" />
		<tag k="ssr:stedsnr" v="635032" />
	</node>
	<node id="-860826" lat="63.0059222211" lon="9.81700276898">
		<tag k="name" v="Blæstret" />
		<tag k="place" v="locality" />
		<tag k="ssr:stedsnr" v="696099" />
	</node>
	<node id="-860824" lat="62.9939611091" lon="9.75885278452">
		<tag k="name" v="Holsstugguhåggån" />
		<tag k="place" v="locality" />
		<tag k="ssr:stedsnr" v="939110" />
	</node>
	<node id="-860822" lat="63.1105444435" lon="9.81003055986">
		<tag k="name" v="Kjølmyran" />
		<tag k="natural" v="wetland" />
		<tag k="ssr:stedsnr" v="574340" />
	</node>
	<node id="-860817" lat="62.9910138883" lon="9.74450278436">
		<tag k="name" v="Løssimoen" />
		<tag k="place" v="locality" />
		<tag k="ssr:stedsnr" v="939111" />
	</node>
	<node id="-860814" lat="63.1715472243" lon="9.51775000249">
		<tag k="name" v="Råkmyra" />
		<tag k="natural" v="wetland" />
		<tag k="ssr:stedsnr" v="757371" />
	</node>
	<node id="-860268" lat="63.0257944428" lon="9.82811388967">
		<tag k="name" v="Skjetna" />
		<tag k="place" v="locality" />
		<tag k="ssr:stedsnr" v="939451" />
	</node>
	<node id="-860806" lat="63.1110111107" lon="9.67776666302">
		<tag k="name" v="Mørkloftet" />
		<tag k="place" v="locality" />
		<tag k="ssr:stedsnr" v="332303" />
	</node>
	<node id="-860804" lat="63.1477305546" lon="9.82335555633">
		<tag k="name" v="Slåttmyran" />
		<tag k="natural" v="wetland" />
		<tag k="ssr:stedsnr" v="392314" />
	</node>
	<node id="-860797" lat="63.0165055598" lon="9.78044166633">
		<tag k="name" v="Slåtta" />
		<tag k="place" v="locality" />
		<tag k="ssr:stedsnr" v="696095" />
	</node>
	<node id="-860791" lat="63.1350305568" lon="9.81412223135">
		<tag k="name" v="Nordgardsskogen" />
		<tag k="place" v="locality" />
		<tag k="ssr:stedsnr" v="574344" />
	</node>
	<node id="-860788" lat="63.1115305533" lon="9.84165832788">
		<tag k="historic" v="shieling" />
		<tag k="name" v="Granåssætervollen" />
		<tag k="place" v="locality" />
		<tag k="ssr:stedsnr" v="332722" />
	</node>
	<node id="-860264" lat="63.1611805522" lon="9.58194443711">
		<tag k="name" v="Gammelgarden" />
		<tag k="place" v="locality" />
		<tag k="ssr:stedsnr" v="696025" />
	</node>
	<node id="-860778" lat="63.0146472193" lon="9.84365555926">
		<tag k="name" v="Endrelimyran" />
		<tag k="natural" v="wetland" />
		<tag k="ssr:stedsnr" v="150350" />
	</node>
	<node id="-860766" lat="62.9771805512" lon="9.71558332389">
		<tag k="name" v="Larsstuggu" />
		<tag k="place" v="locality" />
		<tag k="ssr:stedsnr" v="939104" />
	</node>
	<node id="-860764" lat="63.0046277799" lon="9.69696666315">
		<tag k="name" v="Tjønnmyran" />
		<tag k="natural" v="wetland" />
		<tag k="ssr:stedsnr" v="558301" />
	</node>
	<node id="-860763" lat="62.9813166672" lon="9.52698889679">
		<tag k="name" v="Storgjerdet" />
		<tag k="place" v="locality" />
		<tag k="ssr:stedsnr" v="696494" />
	</node>
	<node id="-860759" lat="63.1435833335" lon="9.46876387973">
		<tag k="name" v="Bekkøyan" />
		<tag k="place" v="locality" />
		<tag k="ssr:stedsnr" v="150342" />
	</node>
	<node id="-861966" lat="63.1525972212" lon="9.55998889372">
		<tag k="name" v="Brentmyra" />
		<tag k="natural" v="wetland" />
		<tag k="ssr:stedsnr" v="211010" />
	</node>
	<node id="-860751" lat="63.0190499958" lon="9.75642222745">
		<tag k="name" v="Hafella" />
		<tag k="place" v="locality" />
		<tag k="ssr:stedsnr" v="818455" />
	</node>
	<node id="-860746" lat="63.0958750009" lon="9.44809999464">
		<tag k="name" v="Blomronda" />
		<tag k="place" v="locality" />
		<tag k="ssr:stedsnr" v="818454" />
	</node>
	<node id="-859916" lat="63.1236499958" lon="9.72330555617">
		<tag k="name" v="Småmyran" />
		<tag k="natural" v="wetland" />
		<tag k="ssr:stedsnr" v="635725" />
	</node>
	<node id="-860740" lat="63.0540083357" lon="9.88099722702">
		<tag k="name" v="Holgjerdet" />
		<tag k="place" v="locality" />
		<tag k="ssr:stedsnr" v="574741" />
	</node>
	<node id="-860729" lat="63.0705694434" lon="9.54477778688">
		<tag k="name" v="Skåpen" />
		<tag k="place" v="locality" />
		<tag k="ssr:stedsnr" v="939496" />
	</node>
	<node id="-860726" lat="63.1295527809" lon="9.83482778591">
		<tag k="name" v="Krokmyra" />
		<tag k="natural" v="wetland" />
		<tag k="ssr:stedsnr" v="271592" />
	</node>
	<node id="-861961" lat="63.0944222245" lon="9.47219999732">
		<tag k="name" v="Baklimyra" />
		<tag k="natural" v="wetland" />
		<tag k="ssr:stedsnr" v="392483" />
	</node>
	<node id="-860720" lat="63.0746250035" lon="9.86975277016">
		<tag k="name" v="Grindvollhåggån" />
		<tag k="place" v="locality" />
		<tag k="ssr:stedsnr" v="332710" />
	</node>
	<node id="-860253" lat="63.0028388857" lon="9.73378332866">
		<tag k="name" v="Rønningan" />
		<tag k="place" v="locality" />
		<tag k="ssr:stedsnr" v="696450" />
	</node>
	<node id="-860710" lat="63.1012611078" lon="9.69052221578">
		<tag k="name" v="Nyhåggån" />
		<tag k="place" v="locality" />
		<tag k="ssr:stedsnr" v="211249" />
	</node>
	<node id="-860708" lat="63.1283388927" lon="9.86441666782">
		<tag k="name" v="Stormyra" />
		<tag k="natural" v="wetland" />
		<tag k="ssr:stedsnr" v="271604" />
	</node>
	<node id="-860707" lat="63.0967444474" lon="9.54366388887">
		<tag k="name" v="Trøa" />
		<tag k="place" v="locality" />
		<tag k="ssr:stedsnr" v="939060" />
	</node>
	<node id="-860701" lat="63.1247444421" lon="9.87460554617">
		<tag k="name" v="Benvegkåsen" />
		<tag k="place" v="locality" />
		<tag k="ssr:stedsnr" v="514737" />
	</node>
	<node id="-860694" lat="62.9659305552" lon="9.68754721305">
		<tag k="name" v="Trondsøya" />
		<tag k="place" v="locality" />
		<tag k="ssr:stedsnr" v="878193" />
	</node>
	<node id="-860682" lat="63.0976166636" lon="9.44207777078">
		<tag k="name" v="Blautekra" />
		<tag k="place" v="locality" />
		<tag k="ssr:stedsnr" v="635405" />
	</node>
	<node id="-860678" lat="63.1069500043" lon="9.76535000534">
		<tag k="name" v="Arnhåggån" />
		<tag k="place" v="locality" />
		<tag k="ssr:stedsnr" v="574748" />
	</node>
	<node id="-860676" lat="63.0593972185" lon="9.92479999984">
		<tag k="name" v="Småøyan" />
		<tag k="place" v="locality" />
		<tag k="ssr:stedsnr" v="453664" />
	</node>
	<node id="-860675" lat="63.1366361153" lon="9.54052777117">
		<tag k="landuse" v="quarry" />
		<tag k="name" v="Drågsetgruva" />
		<tag k="ssr:stedsnr" v="818024" />
	</node>
	<node id="-860673" lat="63.0710777779" lon="9.60586945307">
		<tag k="name" v="Vassnøtet" />
		<tag k="place" v="locality" />
		<tag k="ssr:stedsnr" v="453253" />
	</node>
	<node id="-860669" lat="62.9709111079" lon="9.69038889524">
		<tag k="name" v="Skjennstøflåtten" />
		<tag k="place" v="locality" />
		<tag k="ssr:stedsnr" v="878195" />
	</node>
	<node id="-860668" lat="63.108188886" lon="9.64484722295">
		<tag k="name" v="Litjskårgangen" />
		<tag k="place" v="locality" />
		<tag k="ssr:stedsnr" v="29316" />
	</node>
	<node id="-860667" lat="63.0558638852" lon="9.69566667153">
		<tag k="name" v="Perhåggån" />
		<tag k="place" v="locality" />
		<tag k="ssr:stedsnr" v="878211" />
	</node>
	<node id="-860663" lat="63.1542472224" lon="9.64431388575">
		<tag k="name" v="Botnen" />
		<tag k="place" v="locality" />
		<tag k="ssr:stedsnr" v="818043" />
	</node>
	<node id="-860660" lat="63.1493250009" lon="9.52524166633">
		<tag k="name" v="Litjholtet" />
		<tag k="place" v="locality" />
		<tag k="ssr:stedsnr" v="150332" />
	</node>
	<node id="-860649" lat="63.1438472226" lon="9.7801916672">
		<tag k="name" v="Grova" />
		<tag k="place" v="locality" />
		<tag k="ssr:stedsnr" v="514300" />
	</node>
	<node id="-861948" lat="63.1188111078" lon="9.80420554924">
		<tag k="landuse" v="meadow" />
		<tag k="name" v="Stakkenga" />
		<tag k="ssr:stedsnr" v="393290" />
	</node>
	<node id="-860645" lat="63.1066083329" lon="9.69535833692">
		<tag k="name" v="Nordgardsliin" />
		<tag k="place" v="locality" />
		<tag k="ssr:stedsnr" v="29736" />
	</node>
	<node id="-860644" lat="63.1508750045" lon="9.46583334">
		<tag k="name" v="Fransmyran" />
		<tag k="natural" v="wetland" />
		<tag k="ssr:stedsnr" v="757354" />
	</node>
	<node id="-860641" lat="63.0337222229" lon="9.85641943791">
		<tag k="name" v="Høgkjølen" />
		<tag k="natural" v="wetland" />
		<tag k="ssr:stedsnr" v="878623" />
	</node>
	<node id="-860640" lat="63.1514999969" lon="9.55640833097">
		<tag k="name" v="Kjerringmyra" />
		<tag k="natural" v="wetland" />
		<tag k="ssr:stedsnr" v="635006" />
	</node>
	<node id="-860635" lat="63.0918861091" lon="9.59003055728">
		<tag k="name" v="Heggøya" />
		<tag k="place" v="locality" />
		<tag k="ssr:stedsnr" v="818046" />
	</node>
	<node id="-860633" lat="63.0974277819" lon="9.68876667324">
		<tag k="name" v="Hulluskårgangen" />
		<tag k="place" v="locality" />
		<tag k="ssr:stedsnr" v="211247" />
	</node>
	<node id="-860629" lat="63.1302888893" lon="9.60975556179">
		<tag k="name" v="Misjonshåggån" />
		<tag k="place" v="locality" />
		<tag k="ssr:stedsnr" v="89319" />
	</node>
	<node id="-860628" lat="63.109505559" lon="9.69254166138">
		<tag k="name" v="Halstenenget" />
		<tag k="place" v="locality" />
		<tag k="ssr:stedsnr" v="514724" />
	</node>
	<node id="-860626" lat="63.0977222215" lon="9.53280277389">
		<tag k="name" v="Kvernhusøya" />
		<tag k="place" v="locality" />
		<tag k="ssr:stedsnr" v="818045" />
	</node>
	<node id="-860614" lat="63.0551666707" lon="9.91168333414">
		<tag k="name" v="Søtgjerdet" />
		<tag k="place" v="locality" />
		<tag k="ssr:stedsnr" v="574731" />
	</node>
	<node id="-860613" lat="63.1361138883" lon="9.71558056437">
		<tag k="name" v="Kattråa" />
		<tag k="place" v="locality" />
		<tag k="ssr:stedsnr" v="89310" />
	</node>
	<node id="-860608" lat="63.1463555523" lon="9.80824444709">
		<tag k="historic" v="shieling" />
		<tag k="name" v="Vakkervollen" />
		<tag k="place" v="locality" />
		<tag k="ssr:stedsnr" v="574317" />
	</node>
	<node id="-861600" lat="63.0356888894" lon="9.7410277711">
		<tag k="name" v="Midtskoren" />
		<tag k="place" v="locality" />
		<tag k="ssr:stedsnr" v="514463" />
	</node>
	<node id="-860604" lat="62.9510805527" lon="9.56969445136">
		<tag k="name" v="Gravorvollen" />
		<tag k="place" v="locality" />
		<tag k="ssr:stedsnr" v="939074" />
	</node>
	<node id="-860602" lat="63.0527305535" lon="9.54332776829">
		<tag k="name" v="Grønkjølen" />
		<tag k="natural" v="wetland" />
		<tag k="ssr:stedsnr" v="939500" />
	</node>
	<node id="-860599" lat="63.0903555587" lon="9.71411111813">
		<tag k="name" v="Lerhåggån" />
		<tag k="place" v="locality" />
		<tag k="ssr:stedsnr" v="939501" />
	</node>
	<node id="-860597" lat="63.1002861096" lon="9.47248055282">
		<tag k="historic" v="shieling" />
		<tag k="name" v="Huluvollen" />
		<tag k="place" v="locality" />
		<tag k="ssr:stedsnr" v="818461" />
	</node>
	<node id="-860595" lat="63.1457861089" lon="9.72546389259">
		<tag k="name" v="Hamrum" />
		<tag k="place" v="locality" />
		<tag k="ssr:stedsnr" v="514311" />
	</node>
	<node id="-860232" lat="62.9813916625" lon="9.90541666772">
		<tag k="name" v="Vaulfloan" />
		<tag k="natural" v="wetland" />
		<tag k="ssr:stedsnr" v="514677" />
	</node>
	<node id="-860581" lat="63.0981333336" lon="9.54536388051">
		<tag k="name" v="Furuflotten" />
		<tag k="place" v="locality" />
		<tag k="ssr:stedsnr" v="696067" />
	</node>
	<node id="-860577" lat="63.1333861155" lon="9.76282222369">
		<tag k="name" v="Bakken" />
		<tag k="place" v="locality" />
		<tag k="ssr:stedsnr" v="89311" />
	</node>
	<node id="-860576" lat="63.1219138895" lon="9.52728611167">
		<tag k="name" v="Spjøtåkjølen" />
		<tag k="natural" v="wetland" />
		<tag k="ssr:stedsnr" v="696066" />
	</node>
	<node id="-859888" lat="63.0568611089" lon="9.67160833455">
		<tag k="name" v="Bjørnaråa" />
		<tag k="place" v="locality" />
		<tag k="ssr:stedsnr" v="332159" />
	</node>
	<node id="-860574" lat="63.1492944432" lon="9.55490555837">
		<tag k="name" v="Skultledet" />
		<tag k="place" v="locality" />
		<tag k="ssr:stedsnr" v="818004" />
	</node>
	<node id="-860570" lat="63.0466222249" lon="9.90399722428">
		<tag k="name" v="Kaffemyra" />
		<tag k="natural" v="wetland" />
		<tag k="ssr:stedsnr" v="332680" />
	</node>
	<node id="-862143" lat="63.1149249973" lon="9.5394972167">
		<tag k="name" v="Mjoslættet" />
		<tag k="place" v="locality" />
		<tag k="ssr:stedsnr" v="332058" />
	</node>
	<node id="-860568" lat="63.1364388928" lon="9.74868610133">
		<tag k="name" v="Vidmyra" />
		<tag k="natural" v="wetland" />
		<tag k="ssr:stedsnr" v="574296" />
	</node>
	<node id="-860564" lat="63.0788472242" lon="9.60270833598">
		<tag k="name" v="Olderøya" />
		<tag k="place" v="locality" />
		<tag k="ssr:stedsnr" v="211231" />
	</node>
	<node id="-859886" lat="63.01505833" lon="9.68861944611">
		<tag k="name" v="Homyra" />
		<tag k="natural" v="wetland" />
		<tag k="ssr:stedsnr" v="29206" />
	</node>
	<node id="-860562" lat="63.0574638923" lon="9.64354443621">
		<tag k="name" v="Lusøya" />
		<tag k="place" v="locality" />
		<tag k="ssr:stedsnr" v="878170" />
	</node>
	<node id="-860561" lat="63.0212500012" lon="9.73489166125">
		<tag k="name" v="Teltålia" />
		<tag k="place" v="locality" />
		<tag k="ssr:stedsnr" v="939465" />
	</node>
	<node id="-860550" lat="62.9223888862" lon="9.5213861059">
		<tag k="name" v="Storfloin" />
		<tag k="natural" v="wetland" />
		<tag k="ssr:stedsnr" v="271572" />
	</node>
	<node id="-860537" lat="63.0655472205" lon="9.93294999141">
		<tag k="name" v="Slåvassmyran" />
		<tag k="natural" v="wetland" />
		<tag k="ssr:stedsnr" v="574716" />
	</node>
	<node id="-860533" lat="63.1100138904" lon="9.63750833917">
		<tag k="name" v="Kvernhusråa" />
		<tag k="place" v="locality" />
		<tag k="ssr:stedsnr" v="757310" />
	</node>
	<node id="-860531" lat="63.0996166676" lon="9.55330000846">
		<tag k="name" v="Råstenan" />
		<tag k="place" v="locality" />
		<tag k="ssr:stedsnr" v="271152" />
	</node>
	<node id="-860530" lat="63.1489694423" lon="9.6436361043">
		<tag k="name" v="Undøya" />
		<tag k="place" v="locality" />
		<tag k="ssr:stedsnr" v="939045" />
	</node>
	<node id="-860527" lat="63.1330500035" lon="9.75990834139">
		<tag k="name" v="Flotten" />
		<tag k="place" v="locality" />
		<tag k="ssr:stedsnr" v="514294" />
	</node>
	<node id="-860521" lat="63.1057722222" lon="9.65153334048">
		<tag k="landuse" v="meadow" />
		<tag k="name" v="Hestbeitet" />
		<tag k="ssr:stedsnr" v="150313" />
	</node>
	<node id="-860219" lat="63.0594138919" lon="9.53821111056">
		<tag k="name" v="Svartmeløyan" />
		<tag k="place" v="locality" />
		<tag k="ssr:stedsnr" v="393469" />
	</node>
	<node id="-860510" lat="62.944719448" lon="9.57561389568">
		<tag k="name" v="Snoensgravora" />
		<tag k="place" v="locality" />
		<tag k="ssr:stedsnr" v="393083" />
	</node>
	<node id="-860901" lat="63.0945833318" lon="9.74389723063">
		<tag k="name" v="Langmyra" />
		<tag k="natural" v="wetland" />
		<tag k="ssr:stedsnr" v="818476" />
	</node>
	<node id="-861527" lat="63.1521916704" lon="9.53926389195">
		<tag k="name" v="Kluftan" />
		<tag k="place" v="locality" />
		<tag k="ssr:stedsnr" v="150045" />
	</node>
	<node id="-860502" lat="63.1220388887" lon="9.86586111771">
		<tag k="historic" v="shieling" />
		<tag k="name" v="Åmotssætra" />
		<tag k="place" v="locality" />
		<tag k="ssr:stedsnr" v="922046" />
	</node>
	<node id="-860499" lat="62.9631166646" lon="9.67393611367">
		<tag k="name" v="Stigen" />
		<tag k="place" v="locality" />
		<tag k="ssr:stedsnr" v="878163" />
	</node>
	<node id="-860498" lat="63.0228750002" lon="9.90176388622">
		<tag k="historic" v="shieling" />
		<tag k="name" v="Aurebekksætra" />
		<tag k="place" v="locality" />
		<tag k="ssr:stedsnr" v="376706" />
	</node>
	<node id="-860496" lat="63.1727000025" lon="9.53191388817">
		<tag k="name" v="Ringakalvhåggån" />
		<tag k="place" v="locality" />
		<tag k="ssr:stedsnr" v="939036" />
	</node>
	<node id="-860486" lat="62.9870583355" lon="9.89766388579">
		<tag k="name" v="Raudhattfloen" />
		<tag k="natural" v="wetland" />
		<tag k="ssr:stedsnr" v="73772" />
	</node>
	<node id="-860483" lat="63.0868499962" lon="9.44221666338">
		<tag k="name" v="Middagsmyra" />
		<tag k="natural" v="wetland" />
		<tag k="ssr:stedsnr" v="939461" />
	</node>
	<node id="-860477" lat="63.1405222242" lon="9.77712500874">
		<tag k="name" v="Larsrabben" />
		<tag k="place" v="locality" />
		<tag k="ssr:stedsnr" v="514297" />
	</node>
	<node id="-860476" lat="63.0320055536" lon="9.76125834278">
		<tag k="name" v="Vidmyra" />
		<tag k="natural" v="wetland" />
		<tag k="ssr:stedsnr" v="939462" />
	</node>
	<node id="-860473" lat="62.9615722203" lon="9.71214444872">
		<tag k="name" v="Løkkja" />
		<tag k="place" v="locality" />
		<tag k="ssr:stedsnr" v="818015" />
	</node>
	<node id="-860469" lat="63.0777472259" lon="9.62709166889">
		<tag k="name" v="Dråggådalshåggån" />
		<tag k="place" v="locality" />
		<tag k="ssr:stedsnr" v="574285" />
	</node>
	<node id="-861576" lat="63.1044166658" lon="9.53183889331">
		<tag k="name" v="Hjellan" />
		<tag k="place" v="locality" />
		<tag k="ssr:stedsnr" v="150056" />
	</node>
	<node id="-860455" lat="63.1530472261" lon="9.49838055816">
		<tag k="name" v="Skjeftmyrholtet" />
		<tag k="natural" v="wetland" />
		<tag k="ssr:stedsnr" v="757328" />
	</node>
	<node id="-860454" lat="63.0484694478" lon="9.67457221898">
		<tag k="name" v="Klevan" />
		<tag k="place" v="locality" />
		<tag k="ssr:stedsnr" v="453206" />
	</node>
	<node id="-860450" lat="63.1096194458" lon="9.59896667167">
		<tag k="name" v="Mønsterplassen" />
		<tag k="place" v="locality" />
		<tag k="ssr:stedsnr" v="89292" />
	</node>
	<node id="-860441" lat="63.1061694446" lon="9.60736943514">
		<tag k="name" v="Ålykkja" />
		<tag k="place" v="locality" />
		<tag k="ssr:stedsnr" v="89290" />
	</node>
	<node id="-861572" lat="63.1005472248" lon="9.51538055289">
		<tag k="name" v="Lykkja" />
		<tag k="place" v="locality" />
		<tag k="ssr:stedsnr" v="89454" />
	</node>
	<node id="-860889" lat="63.0618472243" lon="9.63573611861">
		<tag k="name" v="Tauan" />
		<tag k="place" v="locality" />
		<tag k="ssr:stedsnr" v="453274" />
	</node>
	<node id="-860435" lat="63.1273083355" lon="9.51279721424">
		<tag k="landuse" v="meadow" />
		<tag k="name" v="Storstakksenget" />
		<tag k="ssr:stedsnr" v="635397" />
	</node>
	<node id="-860433" lat="63.135761108" lon="9.63494166878">
		<tag k="name" v="Undøya" />
		<tag k="place" v="locality" />
		<tag k="ssr:stedsnr" v="150308" />
	</node>
	<node id="-860429" lat="63.1007750005" lon="9.68991388101">
		<tag k="name" v="Trongegga" />
		<tag k="place" v="locality" />
		<tag k="ssr:stedsnr" v="392260" />
	</node>
	<node id="-860204" lat="63.0640805564" lon="9.5833111154">
		<tag k="name" v="Langslåtta" />
		<tag k="place" v="locality" />
		<tag k="ssr:stedsnr" v="574270" />
	</node>
	<node id="-860422" lat="63.1776055526" lon="9.47207776785">
		<tag k="landuse" v="meadow" />
		<tag k="name" v="Eriksenget" />
		<tag k="ssr:stedsnr" v="635395" />
	</node>
	<node id="-860416" lat="63.1735583344" lon="9.47191944514">
		<tag k="name" v="Stenskårgangen" />
		<tag k="place" v="locality" />
		<tag k="ssr:stedsnr" v="635394" />
	</node>
	<node id="-860413" lat="63.1344555524" lon="9.75277221285">
		<tag k="name" v="Litlmyra" />
		<tag k="natural" v="wetland" />
		<tag k="ssr:stedsnr" v="29282" />
	</node>
	<node id="-860411" lat="62.9652333364" lon="9.72490000566">
		<tag k="name" v="Gammelløkkja" />
		<tag k="place" v="locality" />
		<tag k="ssr:stedsnr" v="818008" />
	</node>
	<node id="-860405" lat="63.0950166626" lon="9.68100555033">
		<tag k="name" v="Kudauden" />
		<tag k="natural" v="wetland" />
		<tag k="ssr:stedsnr" v="211212" />
	</node>
	<node id="-860402" lat="63.1468138847" lon="9.63744721681">
		<tag k="name" v="Råket" />
		<tag k="place" v="locality" />
		<tag k="ssr:stedsnr" v="939050" />
	</node>
	<node id="-860401" lat="63.1344833301" lon="9.60286111635">
		<tag k="name" v="Linkjeldmyra" />
		<tag k="natural" v="wetland" />
		<tag k="ssr:stedsnr" v="150302" />
	</node>
	<node id="-860399" lat="63.034455558" lon="9.64691944892">
		<tag k="historic" v="shieling" />
		<tag k="name" v="Sætervollen" />
		<tag k="place" v="locality" />
		<tag k="ssr:stedsnr" v="453219" />
	</node>
	<node id="-860398" lat="63.0713222203" lon="9.61495278506">
		<tag k="name" v="Vika" />
		<tag k="place" v="locality" />
		<tag k="ssr:stedsnr" v="29279" />
	</node>
	<node id="-860394" lat="63.0932250034" lon="9.54764722153">
		<tag k="name" v="Pikkvollen" />
		<tag k="place" v="locality" />
		<tag k="ssr:stedsnr" v="393065" />
	</node>
	<node id="-862439" lat="62.9913666666" lon="9.77748888401">
		<tag k="name" v="Nilshåggån" />
		<tag k="place" v="locality" />
		<tag k="ssr:stedsnr" v="514133" />
	</node>
	<node id="-862433" lat="63.1098777791" lon="9.70983055735">
		<tag k="name" v="Gammelgarden" />
		<tag k="place" v="locality" />
		<tag k="ssr:stedsnr" v="696728" />
	</node>
	<node id="-860381" lat="63.0589555529" lon="9.62161111517">
		<tag k="name" v="Lotten" />
		<tag k="place" v="locality" />
		<tag k="ssr:stedsnr" v="514284" />
	</node>
	<node id="-860379" lat="63.0168250002" lon="9.88347778568">
		<tag k="name" v="Aurebekkjølen" />
		<tag k="natural" v="wetland" />
		<tag k="ssr:stedsnr" v="635363" />
	</node>
	<node id="-860378" lat="62.9639638887" lon="9.62499999154">
		<tag k="name" v="Kjølen" />
		<tag k="natural" v="wetland" />
		<tag k="ssr:stedsnr" v="514265" />
	</node>
	<node id="-862423" lat="63.0476972193" lon="9.99428332706">
		<tag k="name" v="Reta" />
		<tag k="place" v="locality" />
		<tag k="ssr:stedsnr" v="271417" />
	</node>
	<node id="-862421" lat="63.1782055542" lon="9.49403055153">
		<tag k="name" v="Stavenget" />
		<tag k="place" v="locality" />
		<tag k="ssr:stedsnr" v="271416" />
	</node>
	<node id="-862416" lat="63.079394444" lon="9.56654443811">
		<tag k="name" v="Tjønnenget" />
		<tag k="place" v="locality" />
		<tag k="ssr:stedsnr" v="332094" />
	</node>
	<node id="-860366" lat="63.1084888924" lon="9.5038638967">
		<tag k="name" v="Trongslåtta" />
		<tag k="place" v="locality" />
		<tag k="ssr:stedsnr" v="818401" />
	</node>
	<node id="-862412" lat="63.0313749998" lon="9.89363332576">
		<tag k="name" v="Blautsetkjølen" />
		<tag k="natural" v="wetland" />
		<tag k="ssr:stedsnr" v="29564" />
	</node>
	<node id="-860359" lat="62.9722888858" lon="9.71478888615">
		<tag k="landuse" v="meadow" />
		<tag k="name" v="Kallekra" />
		<tag k="ssr:stedsnr" v="696009" />
	</node>
	<node id="-860355" lat="63.064827779" lon="9.56687222015">
		<tag k="name" v="Synnerkroken" />
		<tag k="place" v="locality" />
		<tag k="ssr:stedsnr" v="271127" />
	</node>
	<node id="-860351" lat="63.1297916655" lon="9.7842083283">
		<tag k="name" v="Merkesmyra" />
		<tag k="natural" v="wetland" />
		<tag k="ssr:stedsnr" v="89278" />
	</node>
	<node id="-860349" lat="62.9941583304" lon="9.810686111">
		<tag k="landuse" v="meadow" />
		<tag k="name" v="Skarvenget" />
		<tag k="ssr:stedsnr" v="696004" />
	</node>
	<node id="-862396" lat="62.95253889" lon="9.6161916747">
		<tag k="name" v="Kvernhusøya" />
		<tag k="place" v="locality" />
		<tag k="ssr:stedsnr" v="818255" />
	</node>
	<node id="-862394" lat="63.1197805547" lon="9.73517777592">
		<tag k="name" v="Kringlflottmyra" />
		<tag k="natural" v="wetland" />
		<tag k="ssr:stedsnr" v="454721" />
	</node>
	<node id="-862393" lat="63.0761638854" lon="9.79489166433">
		<tag k="name" v="Stormyra" />
		<tag k="natural" v="wetland" />
		<tag k="ssr:stedsnr" v="211492" />
	</node>
	<node id="-862391" lat="63.094477776" lon="9.59472500966">
		<tag k="name" v="Bruøya" />
		<tag k="place" v="locality" />
		<tag k="ssr:stedsnr" v="211064" />
	</node>
	<node id="-862390" lat="63.0459305574" lon="9.61421944042">
		<tag k="name" v="Skavlen" />
		<tag k="place" v="locality" />
		<tag k="ssr:stedsnr" v="574147" />
	</node>
	<node id="-862383" lat="63.1736361108" lon="9.4860249997">
		<tag k="name" v="Stormyra" />
		<tag k="natural" v="wetland" />
		<tag k="ssr:stedsnr" v="878421" />
	</node>
	<node id="-860332" lat="63.1375888892" lon="9.71830832597">
		<tag k="name" v="Nordmarka" />
		<tag k="place" v="locality" />
		<tag k="ssr:stedsnr" v="150293" />
	</node>
	<node id="-860329" lat="63.0762083356" lon="9.64584444977">
		<tag k="name" v="Kvamslykkjon" />
		<tag k="place" v="locality" />
		<tag k="ssr:stedsnr" v="726297" />
	</node>
	<node id="-862375" lat="63.1761805568" lon="9.50316388014">
		<tag k="name" v="Stavåenget" />
		<tag k="place" v="locality" />
		<tag k="ssr:stedsnr" v="878420" />
	</node>
	<node id="-862203" lat="63.0970083376" lon="9.49688055164">
		<tag k="name" v="Panna" />
		<tag k="place" v="locality" />
		<tag k="ssr:stedsnr" v="453453" />
	</node>
	<node id="-860323" lat="63.1335583328" lon="9.71676666508">
		<tag k="name" v="Porten" />
		<tag k="place" v="locality" />
		<tag k="ssr:stedsnr" v="150286" />
	</node>
	<node id="-862369" lat="62.9718194415" lon="9.71383610223">
		<tag k="landuse" v="meadow" />
		<tag k="name" v="Dålåbrekka" />
		<tag k="ssr:stedsnr" v="271003" />
	</node>
	<node id="-862366" lat="63.1326222242" lon="9.8544194372">
		<tag k="name" v="Håggåmyra" />
		<tag k="natural" v="wetland" />
		<tag k="ssr:stedsnr" v="332529" />
	</node>
	<node id="-862364" lat="63.1324361085" lon="9.86612500871">
		<tag k="name" v="Olsslættmyra" />
		<tag k="natural" v="wetland" />
		<tag k="ssr:stedsnr" v="514567" />
	</node>
	<node id="-862363" lat="63.1761499996" lon="9.48717776805">
		<tag k="name" v="Huluenget" />
		<tag k="place" v="locality" />
		<tag k="ssr:stedsnr" v="878422" />
	</node>
	<node id="-860314" lat="63.1515805539" lon="9.56098333483">
		<tag k="name" v="Hopmyra" />
		<tag k="natural" v="wetland" />
		<tag k="ssr:stedsnr" v="939006" />
	</node>
	<node id="-862361" lat="63.110105559" lon="9.75396667236">
		<tag k="name" v="Vargmyra" />
		<tag k="natural" v="wetland" />
		<tag k="ssr:stedsnr" v="454723" />
	</node>
	<node id="-862358" lat="63.0544833289" lon="9.69061945405">
		<tag k="name" v="Gjelan" />
		<tag k="place" v="locality" />
		<tag k="ssr:stedsnr" v="150158" />
	</node>
	<node id="-862350" lat="63.0051138928" lon="9.97955832592">
		<tag k="name" v="Myrslettet" />
		<tag k="natural" v="wetland" />
		<tag k="ssr:stedsnr" v="878437" />
	</node>
	<node id="-860301" lat="63.0834499982" lon="9.67048054835">
		<tag k="name" v="Jonsmyra" />
		<tag k="natural" v="wetland" />
		<tag k="ssr:stedsnr" v="392244" />
	</node>
	<node id="-862346" lat="63.1360138891" lon="9.76702222761">
		<tag k="name" v="Bustadlykkja" />
		<tag k="place" v="locality" />
		<tag k="ssr:stedsnr" v="818274" />
	</node>
	<node id="-860294" lat="63.1267888876" lon="9.68681666371">
		<tag k="name" v="Kåsin" />
		<tag k="natural" v="wetland" />
		<tag k="ssr:stedsnr" v="757693" />
	</node>
	<node id="-859840" lat="63.0547166655" lon="9.63579167052">
		<tag k="name" v="Løfta" />
		<tag k="place" v="locality" />
		<tag k="ssr:stedsnr" v="392180" />
	</node>
	<node id="-860285" lat="63.1319111147" lon="9.7074944383">
		<tag k="name" v="Øya" />
		<tag k="place" v="locality" />
		<tag k="ssr:stedsnr" v="757275" />
	</node>
	<node id="-862331" lat="63.1193249992" lon="9.56104444503">
		<tag k="name" v="Lomtjønnmyra" />
		<tag k="natural" v="wetland" />
		<tag k="ssr:stedsnr" v="89136" />
	</node>
	<node id="-860281" lat="63.0955833369" lon="9.49927221924">
		<tag k="name" v="Tretta" />
		<tag k="place" v="locality" />
		<tag k="ssr:stedsnr" v="696455" />
	</node>
	<node id="-861545" lat="62.9849361109" lon="9.70446110175">
		<tag k="name" v="Brattmyra" />
		<tag k="natural" v="wetland" />
		<tag k="ssr:stedsnr" v="393223" />
	</node>
	<node id="-861544" lat="63.0509444456" lon="9.76310833788">
		<tag k="landuse" v="meadow" />
		<tag k="name" v="Øvre Høyluenget" />
		<tag k="ssr:stedsnr" v="332403" />
	</node>
	<node id="-862318" lat="63.0448805582" lon="9.98762221745">
		<tag k="name" v="Skåra" />
		<tag k="place" v="locality" />
		<tag k="ssr:stedsnr" v="271413" />
	</node>
	<node id="-862316" lat="63.1096333307" lon="9.64179723029">
		<tag k="name" v="Gjerdhåggån" />
		<tag k="place" v="locality" />
		<tag k="ssr:stedsnr" v="696311" />
	</node>
	<node id="-862312" lat="62.9730277799" lon="9.81586389672">
		<tag k="name" v="Springarstenen" />
		<tag k="place" v="locality" />
		<tag k="ssr:stedsnr" v="878027" />
	</node>
	<node id="-862310" lat="63.1165194484" lon="9.56081666782">
		<tag k="name" v="Kongmyra" />
		<tag k="natural" v="wetland" />
		<tag k="ssr:stedsnr" v="514128" />
	</node>
	<node id="-860261" lat="63.0763694445" lon="9.4698833247">
		<tag k="landuse" v="meadow" />
		<tag k="name" v="Slåttenget" />
		<tag k="ssr:stedsnr" v="818414" />
	</node>
	<node id="-862306" lat="63.050725002" lon="9.5579416586">
		<tag k="landuse" v="meadow" />
		<tag k="name" v="Stakkenget" />
		<tag k="ssr:stedsnr" v="332091" />
	</node>
	<node id="-862305" lat="63.1314416649" lon="9.62795278237">
		<tag k="name" v="Skulstugguekra" />
		<tag k="place" v="locality" />
		<tag k="ssr:stedsnr" v="939306" />
	</node>
	<node id="-860256" lat="63.0974416706" lon="9.51527777143">
		<tag k="name" v="Sagekra" />
		<tag k="place" v="locality" />
		<tag k="ssr:stedsnr" v="818419" />
	</node>
	<node id="-862303" lat="63.1469083329" lon="9.58787499701">
		<tag k="historic" v="shieling" />
		<tag k="name" v="Vakkervollan" />
		<tag k="place" v="locality" />
		<tag k="ssr:stedsnr" v="878030" />
	</node>
	<node id="-862301" lat="63.1183805574" lon="9.57453333775">
		<tag k="name" v="Dammen" />
		<tag k="place" v="locality" />
		<tag k="ssr:stedsnr" v="514126" />
	</node>
	<node id="-860252" lat="62.9549166675" lon="9.65110833752">
		<tag k="historic" v="shieling" />
		<tag k="name" v="Gammelsæterbrekka" />
		<tag k="place" v="locality" />
		<tag k="ssr:stedsnr" v="453184" />
	</node>
	<node id="-862299" lat="63.0457138888" lon="9.68550554755">
		<tag k="landuse" v="meadow" />
		<tag k="name" v="Blomenget" />
		<tag k="ssr:stedsnr" v="757161" />
	</node>
	<node id="-862298" lat="63.1107694481" lon="9.65959721703">
		<tag k="name" v="Kåsin" />
		<tag k="place" v="locality" />
		<tag k="ssr:stedsnr" v="696734" />
	</node>
	<node id="-860248" lat="62.9989166671" lon="9.7217527799">
		<tag k="name" v="Økjesåkeren" />
		<tag k="place" v="locality" />
		<tag k="ssr:stedsnr" v="696453" />
	</node>
	<node id="-862295" lat="63.0315916651" lon="9.93026389815">
		<tag k="historic" v="shieling" />
		<tag k="name" v="Søgardsvollen" />
		<tag k="place" v="locality" />
		<tag k="ssr:stedsnr" v="514551" />
	</node>
	<node id="-862294" lat="62.9914583354" lon="9.77264999515">
		<tag k="name" v="Stavelen" />
		<tag k="place" v="locality" />
		<tag k="ssr:stedsnr" v="514127" />
	</node>
	<node id="-862291" lat="63.0740222238" lon="9.56709721515">
		<tag k="name" v="Skarmyra" />
		<tag k="natural" v="wetland" />
		<tag k="ssr:stedsnr" v="89124" />
	</node>
	<node id="-860239" lat="63.0567305588" lon="9.91487500944">
		<tag k="name" v="Stormyra" />
		<tag k="natural" v="wetland" />
		<tag k="ssr:stedsnr" v="332640" />
	</node>
	<node id="-860236" lat="63.1133194422" lon="9.68006389327">
		<tag k="name" v="Klevamyra" />
		<tag k="natural" v="wetland" />
		<tag k="ssr:stedsnr" v="757712" />
	</node>
	<node id="-862280" lat="63.1311666641" lon="9.54621665893">
		<tag k="name" v="Åsskjerpet" />
		<tag k="place" v="locality" />
		<tag k="ssr:stedsnr" v="878031" />
	</node>
	<node id="-860225" lat="63.120869445" lon="9.57183610127">
		<tag k="name" v="Dammyra" />
		<tag k="natural" v="wetland" />
		<tag k="ssr:stedsnr" v="133442" />
	</node>
	<node id="-860224" lat="63.1169416682" lon="9.8302361082">
		<tag k="name" v="Gjetkløvmyra" />
		<tag k="natural" v="wetland" />
		<tag k="ssr:stedsnr" v="757708" />
	</node>
	<node id="-861877" lat="63.1603972239" lon="9.5038694347">
		<tag k="name" v="Gurimyra" />
		<tag k="natural" v="wetland" />
		<tag k="ssr:stedsnr" v="878386" />
	</node>
	<node id="-860220" lat="63.1104777793" lon="9.60183889473">
		<tag k="name" v="Rennbyggjerdet" />
		<tag k="place" v="locality" />
		<tag k="ssr:stedsnr" v="150271" />
	</node>
	<node id="-862267" lat="63.1108750042" lon="9.5885194515">
		<tag k="name" v="Kleva" />
		<tag k="place" v="locality" />
		<tag k="ssr:stedsnr" v="454272" />
	</node>
	<node id="-860218" lat="63.0959888924" lon="9.50344167594">
		<tag k="name" v="Ratstykket" />
		<tag k="place" v="locality" />
		<tag k="ssr:stedsnr" v="939447" />
	</node>
	<node id="-862260" lat="63.1194527751" lon="9.56877777606">
		<tag k="name" v="Høgmyra" />
		<tag k="natural" v="wetland" />
		<tag k="ssr:stedsnr" v="514130" />
	</node>
	<node id="-860211" lat="63.0159222215" lon="9.46106111806">
		<tag k="landuse" v="meadow" />
		<tag k="name" v="Bjørnslåtta" />
		<tag k="ssr:stedsnr" v="757705" />
	</node>
	<node id="-860207" lat="63.1132111105" lon="9.79435556322">
		<tag k="name" v="Lykkjrønningen" />
		<tag k="place" v="locality" />
		<tag k="ssr:stedsnr" v="757288" />
	</node>
	<node id="-862253" lat="63.1526388875" lon="9.51137778384">
		<tag k="name" v="Lykkjmyra" />
		<tag k="natural" v="wetland" />
		<tag k="ssr:stedsnr" v="271392" />
	</node>
	<node id="-862252" lat="62.9687611098" lon="9.53188333079">
		<tag k="name" v="Nedre Vasslåtta" />
		<tag k="place" v="locality" />
		<tag k="ssr:stedsnr" v="514532" />
	</node>
	<node id="-861874" lat="63.1098888907" lon="9.8191972211">
		<tag k="name" v="Bratthusmyra" />
		<tag k="natural" v="wetland" />
		<tag k="ssr:stedsnr" v="514504" />
	</node>
	<node id="-860167" lat="63.1223916659" lon="9.6098472199">
		<tag k="name" v="Foreningsåkeren" />
		<tag k="place" v="locality" />
		<tag k="ssr:stedsnr" v="150268" />
	</node>
	<node id="-862248" lat="63.1147611092" lon="9.74412222239">
		<tag k="landuse" v="quarry" />
		<tag k="name" v="Høydalsgruva" />
		<tag k="ssr:stedsnr" v="923031" />
	</node>
	<node id="-862247" lat="63.0443138896" lon="9.59687777193">
		<tag k="name" v="Gammelslåtta" />
		<tag k="place" v="locality" />
		<tag k="ssr:stedsnr" v="757133" />
	</node>
	<node id="-862246" lat="63.1458972216" lon="9.69011945383">
		<tag k="name" v="Vemmermyra" />
		<tag k="natural" v="wetland" />
		<tag k="ssr:stedsnr" v="211041" />
	</node>
	<node id="-862245" lat="63.0103111091" lon="9.80974722034">
		<tag k="name" v="Slåtta" />
		<tag k="place" v="locality" />
		<tag k="ssr:stedsnr" v="392091" />
	</node>
	<node id="-862242" lat="63.0774944451" lon="9.57291110858">
		<tag k="name" v="Flotten" />
		<tag k="place" v="locality" />
		<tag k="ssr:stedsnr" v="514107" />
	</node>
	<node id="-860193" lat="62.9698111126" lon="9.62801943591">
		<tag k="landuse" v="meadow" />
		<tag k="name" v="Litjslåtta" />
		<tag k="ssr:stedsnr" v="89257" />
	</node>
	<node id="-862240" lat="63.0655916672" lon="9.65714723103">
		<tag k="name" v="Myrhusmyra" />
		<tag k="natural" v="wetland" />
		<tag k="ssr:stedsnr" v="787261" />
	</node>
	<node id="-860189" lat="63.1099583368" lon="9.55661944733">
		<tag k="name" v="Damveta" />
		<tag k="place" v="locality" />
		<tag k="ssr:stedsnr" v="878119" />
	</node>
	<node id="-862236" lat="63.0902888898" lon="9.68951110502">
		<tag k="name" v="Bolet" />
		<tag k="place" v="locality" />
		<tag k="ssr:stedsnr" v="635201" />
	</node>
	<node id="-862234" lat="63.1143333323" lon="9.6043694542">
		<tag k="name" v="Restbakken" />
		<tag k="place" v="locality" />
		<tag k="ssr:stedsnr" v="939275" />
	</node>
	<node id="-862233" lat="62.95731944" lon="9.636063898">
		<tag k="historic" v="shieling" />
		<tag k="name" v="Seljflotten" />
		<tag k="place" v="locality" />
		<tag k="ssr:stedsnr" v="757134" />
	</node>
	<node id="-860184" lat="63.0978027747" lon="9.88475833366">
		<tag k="historic" v="shieling" />
		<tag k="name" v="Vollmosætra" />
		<tag k="place" v="locality" />
		<tag k="ssr:stedsnr" v="757677" />
	</node>
	<node id="-862230" lat="63.1306833371" lon="9.85476666643">
		<tag k="name" v="Granmomyra" />
		<tag k="natural" v="wetland" />
		<tag k="ssr:stedsnr" v="29540" />
	</node>
	<node id="-860178" lat="63.0318805526" lon="9.70846944366">
		<tag k="name" v="Brustugguhåggån" />
		<tag k="place" v="locality" />
		<tag k="ssr:stedsnr" v="696415" />
	</node>
	<node id="-860175" lat="62.9748750023" lon="9.62976110835">
		<tag k="name" v="Litlslåttkjølen" />
		<tag k="natural" v="wetland" />
		<tag k="ssr:stedsnr" v="332200" />
	</node>
	<node id="-860173" lat="63.0171472232" lon="9.91060833082">
		<tag k="name" v="Strypholta" />
		<tag k="natural" v="wetland" />
		<tag k="ssr:stedsnr" v="635333" />
	</node>
	<node id="-860172" lat="62.9684638875" lon="9.70264444287">
		<tag k="name" v="Letdållån" />
		<tag k="place" v="locality" />
		<tag k="ssr:stedsnr" v="211177" />
	</node>
	<node id="-862217" lat="63.1349194463" lon="9.8412472259">
		<tag k="name" v="Kloa" />
		<tag k="place" v="locality" />
		<tag k="ssr:stedsnr" v="29535" />
	</node>
	<node id="-862215" lat="62.9772612526" lon="9.71897415707">
		<tag k="name" v="Malistuggu" />
		<tag k="place" v="locality" />
		<tag k="ssr:stedsnr" v="89123" />
	</node>
	<node id="-862213" lat="63.0918027766" lon="9.82740000407">
		<tag k="historic" v="shieling" />
		<tag k="name" v="Kloppvollen" />
		<tag k="place" v="locality" />
		<tag k="ssr:stedsnr" v="332498" />
	</node>
	<node id="-862210" lat="62.9633916688" lon="9.68021388043">
		<tag k="name" v="Høylu" />
		<tag k="place" v="locality" />
		<tag k="ssr:stedsnr" v="150140" />
	</node>
</osm>
