<?xml version="1.0" encoding="UTF-8"?>
<osm generator="osmapis" version="0.6">
	<node id="-862454" lat="63.1110984161" lon="9.84613910126">
		<tag k="fixme" v="consider boundary=protected_area and relevant protect_class if not nature reserve" />
		<tag k="leisure" v="nature_reserve" />
		<tag k="name" v="Urvatnet-Litjbumyran naturreservat" />
		<tag k="ssr:stedsnr" v="990925" />
	</node>
	<node id="-861597" lat="63.0495861072" lon="9.66873055467">
		<tag k="fixme" v="specify shooting=range, clay_pigeon etc" />
		<tag k="leisure" v="pitch" />
		<tag k="name" v="Bjørset pistolskytebane" />
		<tag k="sport" v="shooting" />
		<tag k="ssr:stedsnr" v="950566" />
	</node>
	<node id="-860993" lat="63.0108805564" lon="9.74415555973">
		<tag k="military" v="range" />
		<tag k="name" v="Småberga" />
		<tag k="ssr:stedsnr" v="635054" />
	</node>
	<node id="-859562" lat="63.1274861151" lon="9.65350833541">
		<tag k="fixme" v="specify shooting=range, clay_pigeon etc" />
		<tag k="leisure" v="pitch" />
		<tag k="name" v="Løkken skytebane" />
		<tag k="sport" v="shooting" />
		<tag k="ssr:stedsnr" v="161553" />
	</node>
	<node id="-860009" lat="63.0109583294" lon="9.74376667368">
		<tag k="fixme" v="specify shooting=range, clay_pigeon etc" />
		<tag k="leisure" v="pitch" />
		<tag k="name" v="Småberga skytebane" />
		<tag k="sport" v="shooting" />
		<tag k="ssr:stedsnr" v="282534" />
	</node>
</osm>
