<?xml version="1.0" encoding="UTF-8"?>
<osm generator="osmapis" version="0.6">
	<node id="-860159" lat="63.1028277743" lon="9.62775000826">
		<tag k="name" v="Røsespåsen" />
		<tag k="place" v="farm" />
		<tag k="ssr:stedsnr" v="801443" />
	</node>
	<node id="-860154" lat="63.0335055513" lon="9.70155556365">
		<tag k="name" v="Søgard Systad" />
		<tag k="place" v="farm" />
		<tag k="ssr:stedsnr" v="574662" />
	</node>
	<node id="-862200" lat="63.1390128065" lon="9.83365439455">
		<tag k="name" v="Åmot" />
		<tag k="place" v="hamlet" />
		<tag k="ssr:stedsnr" v="454691" />
	</node>
	<node id="-860151" lat="62.967166671" lon="9.6542833297">
		<tag k="name" v="Grytbakksætra" />
		<tag k="place" v="isolated_dwelling" />
		<tag k="ssr:stedsnr" v="679130" />
	</node>
	<node id="-862196" lat="63.1471379253" lon="9.64146642497">
		<tag k="fixme" v="consider place=hamlet" />
		<tag k="name" v="Mjøa" />
		<tag k="place" v="farm" />
		<tag k="ssr:stedsnr" v="12553" />
	</node>
	<node id="-860146" lat="62.9772861146" lon="9.7639944441">
		<tag k="name" v="Søvollen" />
		<tag k="place" v="farm" />
		<tag k="ssr:stedsnr" v="89653" />
	</node>
	<node id="-859475" lat="63.0523694461" lon="9.65938054617">
		<tag k="name" v="Bjørset" />
		<tag k="place" v="farm" />
		<tag k="ssr:stedsnr" v="680413" />
	</node>
	<node id="-862192" lat="63.1321777757" lon="9.69976110211">
		<tag k="fixme" v="consider place=hamlet" />
		<tag k="name" v="Lia" />
		<tag k="place" v="farm" />
		<tag k="ssr:stedsnr" v="194430" />
	</node>
	<node id="-860140" lat="63.0867361107" lon="9.62916666084">
		<tag k="fixme" v="consider place=hamlet" />
		<tag k="name" v="Lo" />
		<tag k="place" v="farm" />
		<tag k="ssr:stedsnr" v="29663" />
	</node>
	<node id="-862185" lat="63.0133777811" lon="9.71006944791">
		<tag k="name" v="Kjerstohaugen" />
		<tag k="place" v="farm" />
		<tag k="ssr:stedsnr" v="939695" />
	</node>
	<node id="-860134" lat="62.9662888883" lon="9.65584167605">
		<tag k="historic" v="shieling" />
		<tag k="name" v="Resselsætra" />
		<tag k="place" v="locality" />
		<tag k="ssr:stedsnr" v="679129" />
	</node>
	<node id="-862181" lat="63.0918611077" lon="9.62574722472">
		<tag k="fixme" v="consider place=hamlet" />
		<tag k="name" v="Lo" />
		<tag k="place" v="farm" />
		<tag k="ssr:stedsnr" v="818668" />
	</node>
	<node id="-860132" lat="63.0007944462" lon="9.75391666408">
		<tag k="name" v="Ståkklihåggån" />
		<tag k="place" v="farm" />
		<tag k="ssr:stedsnr" v="514665" />
	</node>
	<node id="-860121" lat="63.0189472225" lon="9.70474721508">
		<tag k="name" v="Trostykket" />
		<tag k="place" v="farm" />
		<tag k="ssr:stedsnr" v="574665" />
	</node>
	<node id="-860120" lat="62.975308337" lon="9.72278333763">
		<tag k="name" v="Resellgjerdet" />
		<tag k="place" v="farm" />
		<tag k="ssr:stedsnr" v="514663" />
	</node>
	<node id="-860118" lat="63.1528060781" lon="9.52969682744">
		<tag k="name" v="Laksøyan" />
		<tag k="place" v="hamlet" />
		<tag k="ssr:stedsnr" v="194508" />
	</node>
	<node id="-860116" lat="63.1308972191" lon="9.65944443515">
		<tag k="name" v="Ingebriktplassen" />
		<tag k="place" v="farm" />
		<tag k="ssr:stedsnr" v="211597" />
	</node>
	<node id="-862163" lat="63.0588694439" lon="9.64710277279">
		<tag k="name" v="Forskottet" />
		<tag k="place" v="farm" />
		<tag k="ssr:stedsnr" v="787257" />
	</node>
	<node id="-860114" lat="62.9769999987" lon="9.74289165715">
		<tag k="name" v="Osplia" />
		<tag k="place" v="farm" />
		<tag k="ssr:stedsnr" v="332634" />
	</node>
	<node id="-860113" lat="63.164397219" lon="9.57246943481">
		<tag k="fixme" v="consider place=hamlet" />
		<tag k="name" v="Groegga" />
		<tag k="place" v="farm" />
		<tag k="ssr:stedsnr" v="574667" />
	</node>
	<node id="-860112" lat="63.1489194413" lon="9.46358610974">
		<tag k="name" v="Bjørnaråa" />
		<tag k="place" v="isolated_dwelling" />
		<tag k="ssr:stedsnr" v="296556" />
	</node>
	<node id="-860109" lat="62.9568972183" lon="9.69017221651">
		<tag k="historic" v="shieling" />
		<tag k="name" v="Rønningen" />
		<tag k="place" v="locality" />
		<tag k="ssr:stedsnr" v="211174" />
	</node>
	<node id="-860102" lat="63.1601666685" lon="9.56579167283">
		<tag k="name" v="Groeggøya" />
		<tag k="place" v="locality" />
		<tag k="ssr:stedsnr" v="574668" />
	</node>
	<node id="-862148" lat="63.095877777" lon="9.59779167597">
		<tag k="name" v="Ås-grenda" />
		<tag k="place" v="hamlet" />
		<tag k="ssr:stedsnr" v="631033" />
	</node>
	<node id="-862147" lat="63.1812662886" lon="9.54325146154">
		<tag k="fixme" v="consider place=hamlet" />
		<tag k="name" v="Vaulen" />
		<tag k="place" v="farm" />
		<tag k="ssr:stedsnr" v="680650" />
	</node>
	<node id="-860096" lat="62.9518666695" lon="9.67867778756">
		<tag k="historic" v="shieling" />
		<tag k="name" v="Grøtengsætra" />
		<tag k="place" v="locality" />
		<tag k="ssr:stedsnr" v="73214" />
	</node>
	<node id="-860093" lat="63.0518699444" lon="9.69875213727">
		<tag k="name" v="Voll" />
		<tag k="place" v="hamlet" />
		<tag k="ssr:stedsnr" v="12360" />
	</node>
	<node id="-860090" lat="62.9511805539" lon="9.59174166806">
		<tag k="historic" v="shieling" />
		<tag k="name" v="Kjerstosætra" />
		<tag k="place" v="locality" />
		<tag k="ssr:stedsnr" v="255159" />
	</node>
	<node id="-860089" lat="63.1088243868" lon="9.59251038756">
		<tag k="fixme" v="consider place=hamlet" />
		<tag k="name" v="Halset" />
		<tag k="place" v="farm" />
		<tag k="ssr:stedsnr" v="255434" />
	</node>
	<node id="-862135" lat="62.9554779269" lon="9.69887521744">
		<tag k="fixme" v="consider place=hamlet" />
		<tag k="name" v="Båggåvollsætra" />
		<tag k="place" v="farm" />
		<tag k="ssr:stedsnr" v="497137" />
	</node>
	<node id="-862133" lat="62.95412222" lon="9.66055555532">
		<tag k="historic" v="shieling" />
		<tag k="name" v="Jerpstosætrin" />
		<tag k="place" v="locality" />
		<tag k="ssr:stedsnr" v="194151" />
	</node>
	<node id="-860079" lat="63.0445555565" lon="9.68688611332">
		<tag k="leisure" v="pitch" />
		<tag k="name" v="Kløvsteinbakkan hoppanlegg" />
		<tag k="ssr:stedsnr" v="343541" />
	</node>
	<node id="-860077" lat="62.9678027752" lon="9.64276111997">
		<tag k="historic" v="shieling" />
		<tag k="name" v="Snoenssætra" />
		<tag k="place" v="locality" />
		<tag k="ssr:stedsnr" v="740135" />
	</node>
	<node id="-860074" lat="62.9532611145" lon="9.67388054713">
		<tag k="historic" v="shieling" />
		<tag k="name" v="Åsætra" />
		<tag k="place" v="locality" />
		<tag k="ssr:stedsnr" v="376145" />
	</node>
	<node id="-862120" lat="63.010869445" lon="9.81388054838">
		<tag k="historic" v="shieling" />
		<tag k="name" v="Stokkslåtta" />
		<tag k="place" v="locality" />
		<tag k="ssr:stedsnr" v="89109" />
	</node>
	<node id="-862119" lat="62.9540408997" lon="9.50750864309">
		<tag k="historic" v="shieling" />
		<tag k="name" v="Raudfjelløyan" />
		<tag k="place" v="locality" />
		<tag k="ssr:stedsnr" v="574522" />
	</node>
	<node id="-862117" lat="62.9610407444" lon="9.64147739207">
		<tag k="fixme" v="consider place=hamlet" />
		<tag k="name" v="Resdalssætra" />
		<tag k="place" v="farm" />
		<tag k="ssr:stedsnr" v="497139" />
	</node>
	<node id="-862115" lat="63.0846777821" lon="9.81057500451">
		<tag k="name" v="Svartvatnet" />
		<tag k="place" v="farm" />
		<tag k="ssr:stedsnr" v="454678" />
	</node>
	<node id="-860066" lat="63.0278555548" lon="9.70239721364">
		<tag k="name" v="Mobakken" />
		<tag k="place" v="farm" />
		<tag k="ssr:stedsnr" v="332616" />
	</node>
	<node id="-862113" lat="63.0469555511" lon="9.71168056136">
		<tag k="amenity" v="nursing_home" />
		<tag k="name" v="Meldal legekontor" />
		<tag k="ssr:stedsnr" v="100533" />
	</node>
	<node id="-860063" lat="63.110614086" lon="9.7047551914">
		<tag k="fixme" v="consider place=hamlet" />
		<tag k="name" v="Haugen" />
		<tag k="place" v="farm" />
		<tag k="ssr:stedsnr" v="211592" />
	</node>
	<node id="-860061" lat="63.1314305585" lon="9.66991944349">
		<tag k="leisure" v="pitch" />
		<tag k="name" v="Granatjønna skøytearena" />
		<tag k="ssr:stedsnr" v="464583" />
	</node>
	<node id="-862107" lat="63.0546916677" lon="9.63571388437">
		<tag k="name" v="Blåkkåskaret" />
		<tag k="place" v="isolated_dwelling" />
		<tag k="ssr:stedsnr" v="255349" />
	</node>
	<node id="-862105" lat="63.147693676" lon="9.71137338395">
		<tag k="alt_name" v="Skjøtskift" />
		<tag k="fixme" v="consider place=hamlet" />
		<tag k="name" v="Skjøtskiftet" />
		<tag k="place" v="farm" />
		<tag k="ssr:stedsnr" v="12543" />
	</node>
	<node id="-860052" lat="63.0263833377" lon="9.70300555467">
		<tag k="name" v="Håbjørga" />
		<tag k="place" v="farm" />
		<tag k="ssr:stedsnr" v="89641" />
	</node>
	<node id="-860051" lat="63.0989176336" lon="9.5134297662">
		<tag k="name" v="Skjervøyan" />
		<tag k="place" v="farm" />
		<tag k="ssr:stedsnr" v="514651" />
	</node>
	<node id="-860047" lat="63.105230559" lon="9.58349443909">
		<tag k="name" v="Espåslykkja" />
		<tag k="place" v="farm" />
		<tag k="ssr:stedsnr" v="801446" />
	</node>
	<node id="-860046" lat="62.9584888886" lon="9.52763889288">
		<tag k="name" v="Resheim" />
		<tag k="ssr:stedsnr" v="255154" />
		<tag k="tourism" v="hotel" />
	</node>
	<node id="-862092" lat="62.96377222" lon="9.67244443755">
		<tag k="historic" v="shieling" />
		<tag k="name" v="Bakksætra" />
		<tag k="place" v="locality" />
		<tag k="ssr:stedsnr" v="757138" />
	</node>
	<node id="-860043" lat="63.1043763287" lon="9.69312199891">
		<tag k="name" v="Steigen" />
		<tag k="place" v="farm" />
		<tag k="ssr:stedsnr" v="73484" />
	</node>
	<node id="-861847" lat="63.1005499984" lon="9.81619443866">
		<tag k="name" v="Tårnet" />
		<tag k="place" v="isolated_dwelling" />
		<tag k="ssr:stedsnr" v="757498" />
	</node>
	<node id="-862088" lat="63.0987534363" lon="9.44741923191">
		<tag k="name" v="Litjholtan" />
		<tag k="place" v="farm" />
		<tag k="ssr:stedsnr" v="558430" />
	</node>
	<node id="-860035" lat="63.1016333301" lon="9.46861111938">
		<tag k="name" v="Rønningen" />
		<tag k="place" v="farm" />
		<tag k="ssr:stedsnr" v="332624" />
	</node>
	<node id="-860030" lat="63.041105559" lon="9.70550833142">
		<tag k="leisure" v="pitch" />
		<tag k="name" v="Kolmoen idrettsanlegg" />
		<tag k="ssr:stedsnr" v="464591" />
	</node>
	<node id="-860027" lat="63.0911444488" lon="9.74445000757">
		<tag k="fixme" v="consider place=hamlet" />
		<tag k="name" v="Grønlia" />
		<tag k="place" v="farm" />
		<tag k="ssr:stedsnr" v="862533" />
	</node>
	<node id="-860025" lat="63.0996224153" lon="9.73668026845">
		<tag k="historic" v="shieling" />
		<tag k="name" v="Bakslættet" />
		<tag k="old_name" v="Bakslette" />
		<tag k="place" v="locality" />
		<tag k="ssr:stedsnr" v="922021" />
	</node>
	<node id="-860024" lat="63.090697225" lon="9.59578334028">
		<tag k="leisure" v="pitch" />
		<tag k="name" v="Heggøya stadion" />
		<tag k="ssr:stedsnr" v="343543" />
	</node>
	<node id="-860022" lat="63.1355527809" lon="9.51807778127">
		<tag k="historic" v="shieling" />
		<tag k="name" v="Dombusslættet" />
		<tag k="place" v="locality" />
		<tag k="ssr:stedsnr" v="818382" />
	</node>
	<node id="-862069" lat="63.0938085247" lon="9.89891068823">
		<tag k="fixme" v="consider place=hamlet" />
		<tag k="name" v="Vollmoen" />
		<tag k="place" v="farm" />
		<tag k="ssr:stedsnr" v="696709" />
	</node>
	<node id="-862068" lat="63.0622777752" lon="9.60996388287">
		<tag k="name" v="Arjalykkja" />
		<tag k="place" v="isolated_dwelling" />
		<tag k="ssr:stedsnr" v="818240" />
	</node>
	<node id="-860019" lat="62.9930974557" lon="9.74162926137">
		<tag k="fixme" v="consider place=hamlet" />
		<tag k="name" v="Rikstad" />
		<tag k="place" v="farm" />
		<tag k="ssr:stedsnr" v="29649" />
	</node>
	<node id="-860012" lat="63.0918805598" lon="9.60062222865">
		<tag k="amenity" v="kindergarten" />
		<tag k="name" v="Storås barnehage" />
		<tag k="ssr:stedsnr" v="343530" />
	</node>
	<node id="-860011" lat="63.0580233053" lon="9.63417439536">
		<tag k="name" v="Holan" />
		<tag k="place" v="farm" />
		<tag k="ssr:stedsnr" v="332605" />
	</node>
	<node id="-862058" lat="63.0496694477" lon="9.87928889581">
		<tag k="name" v="Holvollkneppet" />
		<tag k="place" v="isolated_dwelling" />
		<tag k="ssr:stedsnr" v="28708" />
	</node>
	<node id="-862056" lat="62.9980267809" lon="9.7494302077">
		<tag k="fixme" v="consider place=hamlet" />
		<tag k="name" v="Stokkan" />
		<tag k="place" v="farm" />
		<tag k="ssr:stedsnr" v="818687" />
	</node>
	<node id="-862052" lat="62.9766138922" lon="9.55479444538">
		<tag k="historic" v="shieling" />
		<tag k="name" v="Mjuksætra" />
		<tag k="place" v="locality" />
		<tag k="ssr:stedsnr" v="514103" />
	</node>
	<node id="-862051" lat="63.1305833317" lon="9.7090083322">
		<tag k="leisure" v="pitch" />
		<tag k="name" v="Løkken stadion" />
		<tag k="ssr:stedsnr" v="100527" />
	</node>
	<node id="-860001" lat="63.0778138923" lon="9.61436666417">
		<tag k="name" v="Solemsmoen" />
		<tag k="place" v="farm" />
		<tag k="ssr:stedsnr" v="332604" />
	</node>
	<node id="-862046" lat="63.080361109" lon="9.75861944093">
		<tag k="historic" v="shieling" />
		<tag k="name" v="Bergssætra" />
		<tag k="place" v="locality" />
		<tag k="ssr:stedsnr" v="514528" />
	</node>
	<node id="-862045" lat="63.1138444477" lon="9.59693611466">
		<tag k="name" v="Johåggån" />
		<tag k="place" v="locality" />
		<tag k="ssr:stedsnr" v="696278" />
	</node>
	<node id="-859996" lat="62.9935555515" lon="9.72536944015">
		<tag k="name" v="Uvøya" />
		<tag k="place" v="farm" />
		<tag k="ssr:stedsnr" v="29644" />
	</node>
	<node id="-862043" lat="63.0907916682" lon="9.7106916664">
		<tag k="fixme" v="consider place=hamlet" />
		<tag k="name" v="Svartbekken" />
		<tag k="place" v="farm" />
		<tag k="ssr:stedsnr" v="939675" />
	</node>
	<node id="-859991" lat="63.0100319492" lon="9.88324550294">
		<tag k="name" v="Gammelsætra" />
		<tag k="place" v="isolated_dwelling" />
		<tag k="ssr:stedsnr" v="740655" />
	</node>
	<node id="-859986" lat="63.0003361106" lon="9.74827776943">
		<tag k="name" v="Stokkberget" />
		<tag k="place" v="farm" />
		<tag k="ssr:stedsnr" v="150660" />
	</node>
	<node id="-862027" lat="63.1004827352" lon="9.49752545294">
		<tag k="fixme" v="consider place=hamlet" />
		<tag k="name" v="Myrhaug" />
		<tag k="place" v="farm" />
		<tag k="ssr:stedsnr" v="818651" />
	</node>
	<node id="-862024" lat="63.099861114" lon="9.45956389208">
		<tag k="name" v="Garberg" />
		<tag k="place" v="farm" />
		<tag k="ssr:stedsnr" v="818650" />
	</node>
	<node id="-859973" lat="62.9782333352" lon="9.63130833807">
		<tag k="name" v="Tisethytta" />
		<tag k="place" v="isolated_dwelling" />
		<tag k="ssr:stedsnr" v="29222" />
	</node>
	<node id="-859967" lat="63.1086999977" lon="9.61896110414">
		<tag k="name" v="Litjmoen" />
		<tag k="place" v="farm" />
		<tag k="ssr:stedsnr" v="437462" />
	</node>
	<node id="-862014" lat="63.0341723063" lon="9.70045174766">
		<tag k="name" v="Systogrenda" />
		<tag k="place" v="hamlet" />
		<tag k="ssr:stedsnr" v="740309" />
	</node>
	<node id="-862008" lat="63.1290146651" lon="9.60979566344">
		<tag k="fixme" v="consider place=hamlet" />
		<tag k="name" v="Blåkkån" />
		<tag k="place" v="farm" />
		<tag k="ssr:stedsnr" v="194418" />
	</node>
	<node id="-859958" lat="62.9525333362" lon="9.65720833836">
		<tag k="historic" v="shieling" />
		<tag k="name" v="Jerpstosætra" />
		<tag k="place" v="locality" />
		<tag k="ssr:stedsnr" v="376143" />
	</node>
	<node id="-859955" lat="63.1311972214" lon="9.84741111914">
		<tag k="name" v="Åkermoen" />
		<tag k="place" v="farm" />
		<tag k="ssr:stedsnr" v="757646" />
	</node>
	<node id="-862001" lat="63.0518222202" lon="9.69558332602">
		<tag k="name" v="Nordvoll" />
		<tag k="place" v="farm" />
		<tag k="ssr:stedsnr" v="635590" />
	</node>
	<node id="-861996" lat="63.0522000031" lon="9.88168611739">
		<tag k="historic" v="shieling" />
		<tag k="name" v="Holet" />
		<tag k="place" v="locality" />
		<tag k="ssr:stedsnr" v="740573" />
	</node>
	<node id="-859947" lat="63.1319055584" lon="9.84789166207">
		<tag k="name" v="Litlhåggån" />
		<tag k="place" v="farm" />
		<tag k="ssr:stedsnr" v="150653" />
	</node>
	<node id="-859945" lat="63.0119777813" lon="9.74914444968">
		<tag k="name" v="Haftorsløkkja" />
		<tag k="place" v="farm" />
		<tag k="ssr:stedsnr" v="740647" />
	</node>
	<node id="-861989" lat="62.9727465088" lon="9.71342009207">
		<tag k="fixme" v="consider place=hamlet" />
		<tag k="name" v="Grytbakken" />
		<tag k="place" v="farm" />
		<tag k="ssr:stedsnr" v="862161" />
	</node>
	<node id="-859938" lat="63.130652782" lon="9.84956388967">
		<tag k="name" v="Litlslættbakken" />
		<tag k="place" v="farm" />
		<tag k="ssr:stedsnr" v="150651" />
	</node>
	<node id="-859934" lat="63.0493972244" lon="9.70060000475">
		<tag k="name" v="Negarden" />
		<tag k="place" v="farm" />
		<tag k="ssr:stedsnr" v="332608" />
	</node>
	<node id="-859933" lat="62.9498777762" lon="9.56735277635">
		<tag k="historic" v="shieling" />
		<tag k="name" v="Børresætra" />
		<tag k="place" v="locality" />
		<tag k="ssr:stedsnr" v="878089" />
	</node>
	<node id="-859929" lat="63.0814683442" lon="9.54841919803">
		<tag k="fixme" v="consider place=hamlet" />
		<tag k="name" v="Hauklia" />
		<tag k="place" v="farm" />
		<tag k="ssr:stedsnr" v="263152" />
	</node>
	<node id="-861975" lat="63.0131111083" lon="9.7356861129">
		<tag k="name" v="Ulberget" />
		<tag k="place" v="farm" />
		<tag k="ssr:stedsnr" v="498700" />
	</node>
	<node id="-859925" lat="63.1618027794" lon="9.52203610526">
		<tag k="fixme" v="consider place=hamlet" />
		<tag k="name" v="Haldoslettet" />
		<tag k="place" v="farm" />
		<tag k="ssr:stedsnr" v="29633" />
	</node>
	<node id="-859922" lat="62.9886305546" lon="9.65742778731">
		<tag k="name" v="Blautsetet" />
		<tag k="place" v="isolated_dwelling" />
		<tag k="ssr:stedsnr" v="680194" />
	</node>
	<node id="-861968" lat="62.9719833366" lon="9.54776388978">
		<tag k="loc_name" v="Allmerket" />
		<tag k="name" v="Elgmerket" />
		<tag k="place" v="isolated_dwelling" />
		<tag k="ssr:stedsnr" v="862162" />
	</node>
	<node id="-862168" lat="63.0853555582" lon="9.60907221468">
		<tag k="fixme" v="consider place=hamlet" />
		<tag k="name" v="Lykkja" />
		<tag k="place" v="farm" />
		<tag k="ssr:stedsnr" v="818672" />
	</node>
	<node id="-861965" lat="62.9683972218" lon="9.62699721815">
		<tag k="historic" v="shieling" />
		<tag k="name" v="Mausætra" />
		<tag k="place" v="locality" />
		<tag k="ssr:stedsnr" v="558156" />
	</node>
	<node id="-860353" lat="62.950022226" lon="9.54955833998">
		<tag k="historic" v="shieling" />
		<tag k="name" v="Bakklivollen" />
		<tag k="place" v="locality" />
		<tag k="ssr:stedsnr" v="679147" />
	</node>
	<node id="-861960" lat="63.1420054061" lon="9.64425074281">
		<tag k="fixme" v="consider place=hamlet" />
		<tag k="name" v="Mågset" />
		<tag k="place" v="farm" />
		<tag k="ssr:stedsnr" v="12531" />
	</node>
	<node id="-861958" lat="62.9813264767" lon="9.77635038295">
		<tag k="fixme" v="consider place=hamlet" />
		<tag k="name" v="Grut" />
		<tag k="place" v="farm" />
		<tag k="ssr:stedsnr" v="696669" />
	</node>
	<node id="-859907" lat="63.1362500039" lon="9.62910556297">
		<tag k="name" v="Finnskjegglykkja" />
		<tag k="place" v="farm" />
		<tag k="ssr:stedsnr" v="514622" />
	</node>
	<node id="-861945" lat="63.0589583352" lon="9.65145833006">
		<tag k="alt_name" v="Øvrebu" />
		<tag k="name" v="Øverbu" />
		<tag k="place" v="farm" />
		<tag k="ssr:stedsnr" v="301229" />
	</node>
	<node id="-859895" lat="63.0575027805" lon="9.64952499801">
		<tag k="name" v="Dombu" />
		<tag k="place" v="hamlet" />
		<tag k="ssr:stedsnr" v="392172" />
	</node>
	<node id="-859894" lat="63.1047432204" lon="9.70045510691">
		<tag k="fixme" v="consider place=hamlet" />
		<tag k="name" v="Steigavollen" />
		<tag k="place" v="farm" />
		<tag k="ssr:stedsnr" v="514626" />
	</node>
	<node id="-859890" lat="63.1302444415" lon="9.66101111074">
		<tag k="name" v="Bakkan" />
		<tag k="place" v="farm" />
		<tag k="ssr:stedsnr" v="514627" />
	</node>
	<node id="-859889" lat="63.1330999991" lon="9.62250555117">
		<tag k="name" v="Hampstenen" />
		<tag k="place" v="farm" />
		<tag k="ssr:stedsnr" v="332590" />
	</node>
	<node id="-861933" lat="63.0681035637" lon="9.61177576738">
		<tag k="fixme" v="multiple name tags, choose one and add the other to alt_name" />
		<tag k="name" v="Fossen;Mosbronn" />
		<tag k="place" v="farm" />
		<tag k="ssr:stedsnr" v="558410" />
	</node>
	<node id="-859876" lat="63.0542031806" lon="9.96930066452">
		<tag k="fixme" v="consider place=hamlet" />
		<tag k="name" v="Svartsætra" />
		<tag k="place" v="farm" />
		<tag k="ssr:stedsnr" v="12606" />
	</node>
	<node id="-861921" lat="63.0968293988" lon="9.54567120543">
		<tag k="fixme" v="consider place=hamlet" />
		<tag k="name" v="Agholtet" />
		<tag k="place" v="farm" />
		<tag k="ssr:stedsnr" v="497398" />
	</node>
	<node id="-861918" lat="63.1285555535" lon="9.70709445293">
		<tag k="amenity" v="sports_centre" />
		<tag k="name" v="Løkken idrettsbygg og svømmehall" />
		<tag k="ssr:stedsnr" v="646584" />
	</node>
	<node id="-859869" lat="63.1046833368" lon="9.76190276854">
		<tag k="fixme" v="consider place=hamlet" />
		<tag k="name" v="Høydalen" />
		<tag k="place" v="farm" />
		<tag k="ssr:stedsnr" v="514630" />
	</node>
	<node id="-859868" lat="63.1257027766" lon="9.67903888464">
		<tag k="name" v="Gjerdet" />
		<tag k="place" v="farm" />
		<tag k="ssr:stedsnr" v="332600" />
	</node>
	<node id="-859867" lat="63.0126114961" lon="9.7257692856">
		<tag k="name" v="Snoensøya" />
		<tag k="place" v="farm" />
		<tag k="ssr:stedsnr" v="757659" />
	</node>
	<node id="-861913" lat="63.0860638854" lon="9.73138334058">
		<tag k="historic" v="shieling" />
		<tag k="name" v="Bergsætra" />
		<tag k="place" v="locality" />
		<tag k="ssr:stedsnr" v="922483" />
	</node>
	<node id="-861912" lat="62.9553396504" lon="9.6194942561">
		<tag k="fixme" v="consider place=hamlet" />
		<tag k="name" v="Stoin" />
		<tag k="place" v="farm" />
		<tag k="ssr:stedsnr" v="862176" />
	</node>
	<node id="-861909" lat="62.9962333351" lon="9.83871944506">
		<tag k="historic" v="shieling" />
		<tag k="name" v="Føssheim" />
		<tag k="place" v="locality" />
		<tag k="ssr:stedsnr" v="818665" />
	</node>
	<node id="-859859" lat="63.1070888857" lon="9.70132221881">
		<tag k="amenity" v="school" />
		<tag k="name" v="Meldal videregående skole" />
		<tag k="ssr:stedsnr" v="527032" />
	</node>
	<node id="-859856" lat="63.1051777761" lon="9.70811388163">
		<tag k="name" v="Sagegga" />
		<tag k="place" v="farm" />
		<tag k="ssr:stedsnr" v="89616" />
	</node>
	<node id="-859849" lat="62.9237666692" lon="9.62207499046">
		<tag k="name" v="Aunslættet" />
		<tag k="place" v="isolated_dwelling" />
		<tag k="ssr:stedsnr" v="332166" />
	</node>
	<node id="-859844" lat="62.9508833378" lon="9.51910554634">
		<tag k="name" v="Aaltoegeajnoe" />
		<tag k="name:sma" v="Aaltoegeajnoe" />
		<tag k="old_name:sma" v="Alteogeino" />
		<tag k="place" v="isolated_dwelling" />
		<tag k="ssr:stedsnr" v="801151" />
	</node>
	<node id="-859842" lat="63.1488666674" lon="9.63998610707">
		<tag k="fixme" v="consider place=hamlet" />
		<tag k="name" v="Mjøa" />
		<tag k="place" v="farm" />
		<tag k="ssr:stedsnr" v="150641" />
	</node>
	<node id="-861887" lat="63.0803222247" lon="9.86109999028">
		<tag k="fixme" v="consider place=hamlet" />
		<tag k="name" v="Fjølhaugen" />
		<tag k="place" v="farm" />
		<tag k="ssr:stedsnr" v="12525" />
	</node>
	<node id="-859838" lat="63.0002464089" lon="9.72224681779">
		<tag k="name" v="Snoen" />
		<tag k="place" v="hamlet" />
		<tag k="ssr:stedsnr" v="757657" />
	</node>
	<node id="-860209" lat="62.9168555582" lon="9.55445000308">
		<tag k="name" v="Håggåjøldalen" />
		<tag k="place" v="isolated_dwelling" />
		<tag k="ssr:stedsnr" v="498293" />
	</node>
	<node id="-859831" lat="63.0809001448" lon="9.84988406851">
		<tag k="fixme" v="consider place=hamlet" />
		<tag k="name" v="Blomlia" />
		<tag k="place" v="farm" />
		<tag k="ssr:stedsnr" v="862515" />
	</node>
	<node id="-861876" lat="63.0864888891" lon="9.76232499592">
		<tag k="name" v="Gunnarhåggån" />
		<tag k="place" v="isolated_dwelling" />
		<tag k="ssr:stedsnr" v="574505" />
	</node>
	<node id="-861869" lat="63.0461499959" lon="9.71120556407">
		<tag k="name" v="Meldal meieri" />
		<tag k="place" v="quarter" />
		<tag k="ssr:stedsnr" v="211428" />
	</node>
	<node id="-861867" lat="62.977872226" lon="9.8983888938">
		<tag k="historic" v="shieling" />
		<tag k="name" v="Vaulan" />
		<tag k="place" v="locality" />
		<tag k="ssr:stedsnr" v="376826" />
	</node>
	<node id="-861864" lat="62.9954260816" lon="9.73834480677">
		<tag k="fixme" v="consider place=hamlet" />
		<tag k="name" v="Rikstad" />
		<tag k="place" v="farm" />
		<tag k="ssr:stedsnr" v="939687" />
	</node>
	<node id="-859805" lat="62.9629888923" lon="9.67036666696">
		<tag k="historic" v="shieling" />
		<tag k="name" v="Nystuggusætra" />
		<tag k="place" v="locality" />
		<tag k="ssr:stedsnr" v="332146" />
	</node>
	<node id="-861850" lat="63.0851013966" lon="9.758815816">
		<tag k="fixme" v="consider place=hamlet" />
		<tag k="name" v="Stollsmoen" />
		<tag k="place" v="farm" />
		<tag k="ssr:stedsnr" v="12520" />
	</node>
	<node id="-859801" lat="63.1604694404" lon="9.53091111215">
		<tag k="name" v="Øyalia" />
		<tag k="place" v="farm" />
		<tag k="ssr:stedsnr" v="923593" />
	</node>
	<node id="-859800" lat="63.0323222248" lon="9.69567500701">
		<tag k="name" v="Systogjerdet" />
		<tag k="place" v="farm" />
		<tag k="ssr:stedsnr" v="29616" />
	</node>
	<node id="-859799" lat="63.1355361143" lon="9.51589444285">
		<tag k="building" v="industrial" />
		<tag k="industrial" v="factory" />
		<tag k="name" v="Drogsetgruvon" />
		<tag k="ssr:stedsnr" v="194480" />
	</node>
	<node id="-859758" lat="63.074144443" lon="9.61080555158">
		<tag k="name" v="Myrhaugen" />
		<tag k="place" v="farm" />
		<tag k="ssr:stedsnr" v="150631" />
	</node>
	<node id="-859790" lat="62.976622219" lon="9.55473333084">
		<tag k="alt_name" v="Mjukinnsætra" />
		<tag k="name" v="Mjuksætra" />
		<tag k="place" v="isolated_dwelling" />
		<tag k="ssr:stedsnr" v="133125" />
	</node>
	<node id="-861837" lat="63.11792222" lon="9.51690278111">
		<tag k="name" v="Halsetlykkja" />
		<tag k="place" v="isolated_dwelling" />
		<tag k="ssr:stedsnr" v="453400" />
	</node>
	<node id="-859788" lat="63.0370249986" lon="9.68885554779">
		<tag k="name" v="Systoflotten" />
		<tag k="place" v="farm" />
		<tag k="ssr:stedsnr" v="29619" />
	</node>
	<node id="-859786" lat="63.0384611098" lon="9.72259166279">
		<tag k="amenity" v="nursing_home" />
		<tag k="name" v="Meldal barnehjem" />
		<tag k="ssr:stedsnr" v="271469" />
	</node>
	<node id="-859784" lat="63.1306499957" lon="9.62381944809">
		<tag k="name" v="Uran" />
		<tag k="place" v="locality" />
		<tag k="ssr:stedsnr" v="514617" />
	</node>
	<node id="-861829" lat="63.0611277802" lon="9.64375000798">
		<tag k="name" v="Kvamsgjerdet" />
		<tag k="place" v="farm" />
		<tag k="ssr:stedsnr" v="544287" />
	</node>
	<node id="-861828" lat="62.9546527807" lon="9.55678056122">
		<tag k="historic" v="shieling" />
		<tag k="name" v="Vollen" />
		<tag k="place" v="locality" />
		<tag k="ssr:stedsnr" v="29070" />
	</node>
	<node id="-861824" lat="63.1324869863" lon="9.75694171226">
		<tag k="fixme" v="consider place=hamlet" />
		<tag k="name" v="Bustad" />
		<tag k="place" v="farm" />
		<tag k="ssr:stedsnr" v="437079" />
	</node>
	<node id="-859774" lat="63.1092888901" lon="9.59591944865">
		<tag k="name" v="Kariberget" />
		<tag k="place" v="farm" />
		<tag k="ssr:stedsnr" v="89603" />
	</node>
	<node id="-859773" lat="63.053702776" lon="9.74601945055">
		<tag k="name" v="Storslåtthaugen" />
		<tag k="place" v="isolated_dwelling" />
		<tag k="ssr:stedsnr" v="12598" />
	</node>
	<node id="-861819" lat="62.9851999583" lon="9.72864328196">
		<tag k="fixme" v="consider place=hamlet" />
		<tag k="name" v="Resell" />
		<tag k="place" v="farm" />
		<tag k="ssr:stedsnr" v="696647" />
	</node>
	<node id="-859768" lat="63.1301138911" lon="9.67101945253">
		<tag k="fixme" v="consider place=suburb, village or hamlet" />
		<tag k="name" v="Bjørnli" />
		<tag k="place" v="quarter" />
		<tag k="ssr:stedsnr" v="571125" />
	</node>
	<node id="-861815" lat="63.0145333297" lon="9.7140444517">
		<tag k="fixme" v="consider place=hamlet" />
		<tag k="name" v="Kjerstad" />
		<tag k="place" v="farm" />
		<tag k="ssr:stedsnr" v="271749" />
	</node>
	<node id="-859766" lat="63.1287388865" lon="9.62152778539">
		<tag k="name" v="Blåkkåeggin" />
		<tag k="place" v="farm" />
		<tag k="ssr:stedsnr" v="332583" />
	</node>
	<node id="-859765" lat="63.0386472239" lon="9.95395000249">
		<tag k="alt_name" v="Fossætra, vestre" />
		<tag k="name" v="Vestre Fossætra" />
		<tag k="place" v="isolated_dwelling" />
		<tag k="ssr:stedsnr" v="922535" />
	</node>
	<node id="-859763" lat="63.0806805572" lon="9.61068611425">
		<tag k="name" v="Marirønningen" />
		<tag k="place" v="quarter" />
		<tag k="ssr:stedsnr" v="150208" />
	</node>
	<node id="-861809" lat="63.0057583299" lon="9.71995833724">
		<tag k="fixme" v="consider place=hamlet" />
		<tag k="name" v="Snoen" />
		<tag k="place" v="village" />
		<tag k="ssr:stedsnr" v="558673" />
	</node>
	<node id="-861806" lat="63.1547361117" lon="9.52684999009">
		<tag k="alt_name" v="Laksøya" />
		<tag k="name" v="Laksøyan" />
		<tag k="place" v="farm" />
		<tag k="ssr:stedsnr" v="454642" />
	</node>
	<node id="-862141" lat="63.1265583341" lon="9.53413610422">
		<tag k="historic" v="shieling" />
		<tag k="name" v="Druglimosætra" />
		<tag k="place" v="locality" />
		<tag k="ssr:stedsnr" v="194425" />
	</node>
	<node id="-861804" lat="63.1450666688" lon="9.552055554">
		<tag k="name" v="Malisætra" />
		<tag k="place" v="isolated_dwelling" />
		<tag k="ssr:stedsnr" v="680606" />
	</node>
	<node id="-859754" lat="62.9931842477" lon="9.75890980221">
		<tag k="fixme" v="consider place=hamlet" />
		<tag k="name" v="Hol" />
		<tag k="place" v="farm" />
		<tag k="ssr:stedsnr" v="862765" />
	</node>
	<node id="-859752" lat="62.9746777749" lon="9.59393333607">
		<tag k="historic" v="shieling" />
		<tag k="name" v="Storslåtta" />
		<tag k="place" v="locality" />
		<tag k="ssr:stedsnr" v="316145" />
	</node>
	<node id="-861799" lat="63.001636115" lon="9.80147777388">
		<tag k="name" v="Olderslåtta" />
		<tag k="place" v="isolated_dwelling" />
		<tag k="ssr:stedsnr" v="498685" />
	</node>
	<node id="-859749" lat="63.0958777756" lon="9.59771111694">
		<tag k="name" v="Storås" />
		<tag k="place" v="village" />
		<tag k="ssr:stedsnr" v="679372" />
	</node>
	<node id="-861795" lat="63.1292833317" lon="9.70881666813">
		<tag k="fixme" v="consider place=suburb, village or hamlet" />
		<tag k="name" v="Stensmoen" />
		<tag k="place" v="quarter" />
		<tag k="ssr:stedsnr" v="271344" />
	</node>
	<node id="-859745" lat="63.1302527778" lon="9.60675556148">
		<tag k="name" v="Blåkkåhaugen" />
		<tag k="place" v="farm" />
		<tag k="ssr:stedsnr" v="89606" />
	</node>
	<node id="-859744" lat="62.9805972226" lon="9.73875834227">
		<tag k="fixme" v="consider place=hamlet" />
		<tag k="name" v="Båggåvoll" />
		<tag k="place" v="farm" />
		<tag k="ssr:stedsnr" v="150620" />
	</node>
	<node id="-861790" lat="63.1720785948" lon="9.55926803479">
		<tag k="fixme" v="consider place=hamlet" />
		<tag k="name" v="Stranda" />
		<tag k="place" v="farm" />
		<tag k="ssr:stedsnr" v="12516" />
	</node>
	<node id="-859741" lat="63.1257444461" lon="9.68571944657">
		<tag k="name" v="Gammelhåggån" />
		<tag k="place" v="farm" />
		<tag k="ssr:stedsnr" v="29606" />
	</node>
	<node id="-859740" lat="62.9879777788" lon="9.76128054656">
		<tag k="fixme" v="consider place=hamlet" />
		<tag k="name" v="Stene" />
		<tag k="place" v="farm" />
		<tag k="ssr:stedsnr" v="302049" />
	</node>
	<node id="-859736" lat="62.9532972196" lon="9.6904416706">
		<tag k="name" v="Skrivarsætra" />
		<tag k="old_name" v="Skrivarsetra" />
		<tag k="place" v="isolated_dwelling" />
		<tag k="ssr:stedsnr" v="194203" />
	</node>
	<node id="-859735" lat="62.9775861131" lon="9.75248333754">
		<tag k="name" v="Bakkgjerdet" />
		<tag k="place" v="farm" />
		<tag k="ssr:stedsnr" v="150618" />
	</node>
	<node id="-859734" lat="62.9712250028" lon="9.68243332398">
		<tag k="historic" v="shieling" />
		<tag k="name" v="Søstuggusætra" />
		<tag k="place" v="locality" />
		<tag k="ssr:stedsnr" v="514169" />
	</node>
	<node id="-862137" lat="63.0458333298" lon="9.72015556282">
		<tag k="amenity" v="kindergarten" />
		<tag k="name" v="Grefstad barnehage" />
		<tag k="ssr:stedsnr" v="161507" />
	</node>
	<node id="-859732" lat="63.0857972201" lon="9.75797776816">
		<tag k="name" v="Stollsmo" />
		<tag k="place" v="farm" />
		<tag k="ssr:stedsnr" v="757640" />
	</node>
	<node id="-859729" lat="63.0303864677" lon="9.92516222717">
		<tag k="historic" v="shieling" />
		<tag k="name" v="Holssætrin" />
		<tag k="place" v="locality" />
		<tag k="ssr:stedsnr" v="332567" />
	</node>
	<node id="-859727" lat="63.0297388925" lon="9.55262223066">
		<tag k="name" v="Systosætra" />
		<tag k="place" v="isolated_dwelling" />
		<tag k="ssr:stedsnr" v="12322" />
	</node>
	<node id="-859726" lat="63.1030912347" lon="9.50027035528">
		<tag k="name" v="Myra" />
		<tag k="place" v="farm" />
		<tag k="ssr:stedsnr" v="558479" />
	</node>
	<node id="-861771" lat="63.0099774934" lon="9.71007415159">
		<tag k="fixme" v="consider place=hamlet" />
		<tag k="name" v="Ry" />
		<tag k="place" v="farm" />
		<tag k="ssr:stedsnr" v="740286" />
	</node>
	<node id="-861770" lat="63.1403194444" lon="9.8402555552">
		<tag k="name" v="Bakken" />
		<tag k="place" v="farm" />
		<tag k="ssr:stedsnr" v="73093" />
	</node>
	<node id="-859719" lat="63.1797472234" lon="9.53614722171">
		<tag k="historic" v="shieling" />
		<tag k="name" v="Huluenget" />
		<tag k="place" v="locality" />
		<tag k="ssr:stedsnr" v="271035" />
	</node>
	<node id="-859713" lat="63.125347219" lon="9.69367223144">
		<tag k="amenity" v="kindergarten" />
		<tag k="name" v="Løkken barnehage" />
		<tag k="ssr:stedsnr" v="768522" />
	</node>
	<node id="-861758" lat="63.1607416641" lon="9.52412499517">
		<tag k="fixme" v="consider place=hamlet" />
		<tag k="name" v="Haldoslettet" />
		<tag k="place" v="farm" />
		<tag k="ssr:stedsnr" v="454644" />
	</node>
	<node id="-861757" lat="63.0607277785" lon="9.84597777188">
		<tag k="historic" v="shieling" />
		<tag k="name" v="Ofstosætrin" />
		<tag k="place" v="locality" />
		<tag k="ssr:stedsnr" v="801587" />
	</node>
	<node id="-859704" lat="63.1305416645" lon="9.66366110193">
		<tag k="name" v="Grana" />
		<tag k="place" v="farm" />
		<tag k="ssr:stedsnr" v="29605" />
	</node>
	<node id="-861750" lat="63.0662750016" lon="9.83212499163">
		<tag k="historic" v="shieling" />
		<tag k="name" v="Brekksætra" />
		<tag k="place" v="locality" />
		<tag k="ssr:stedsnr" v="73631" />
	</node>
	<node id="-861749" lat="63.0218673858" lon="9.73360444793">
		<tag k="name" v="Re" />
		<tag k="place" v="hamlet" />
		<tag k="ssr:stedsnr" v="393677" />
	</node>
	<node id="-859698" lat="63.0754750021" lon="9.55162222259">
		<tag k="historic" v="shieling" />
		<tag k="name" v="Litlslættet" />
		<tag k="place" v="locality" />
		<tag k="ssr:stedsnr" v="453107" />
	</node>
	<node id="-861745" lat="62.9678305521" lon="9.48047500472">
		<tag k="name" v="Langvatnet" />
		<tag k="place" v="isolated_dwelling" />
		<tag k="ssr:stedsnr" v="862156" />
	</node>
	<node id="-859695" lat="62.984990095" lon="9.76856715711">
		<tag k="name" v="Foss" />
		<tag k="place" v="hamlet" />
		<tag k="ssr:stedsnr" v="195771" />
	</node>
	<node id="-861789" lat="63.0996750014" lon="9.50651943829">
		<tag k="name" v="Myrvoll" />
		<tag k="place" v="farm" />
		<tag k="ssr:stedsnr" v="454641" />
	</node>
	<node id="-859690" lat="63.0231027759" lon="9.90150278483">
		<tag k="name" v="Aurebekkstuggu" />
		<tag k="place" v="isolated_dwelling" />
		<tag k="ssr:stedsnr" v="514605" />
	</node>
	<node id="-859689" lat="63.1109388856" lon="9.61294722293">
		<tag k="name" v="Granmo" />
		<tag k="place" v="farm" />
		<tag k="ssr:stedsnr" v="332572" />
	</node>
	<node id="-859687" lat="63.1023729385" lon="9.47281165207">
		<tag k="fixme" v="consider place=hamlet" />
		<tag k="name" v="Garberg" />
		<tag k="place" v="farm" />
		<tag k="ssr:stedsnr" v="558484" />
	</node>
	<node id="-861734" lat="63.0600000029" lon="9.72819722501">
		<tag k="name" v="Sætergilan" />
		<tag k="place" v="isolated_dwelling" />
		<tag k="ssr:stedsnr" v="802661" />
	</node>
	<node id="-859685" lat="62.9923528819" lon="9.76071473961">
		<tag k="name" v="Hol" />
		<tag k="place" v="hamlet" />
		<tag k="ssr:stedsnr" v="150612" />
	</node>
	<node id="-859682" lat="63.0940500001" lon="9.6634277747">
		<tag k="historic" v="shieling" />
		<tag k="name" v="Gårsengdalen" />
		<tag k="place" v="locality" />
		<tag k="ssr:stedsnr" v="757216" />
	</node>
	<node id="-859670" lat="63.0913361087" lon="9.69784723122">
		<tag k="name" v="Kassolittet (nedl.)" />
		<tag k="place" v="farm" />
		<tag k="ssr:stedsnr" v="757630" />
	</node>
	<node id="-859669" lat="62.9515638893" lon="9.66142778658">
		<tag k="historic" v="shieling" />
		<tag k="name" v="Ramosætra" />
		<tag k="place" v="locality" />
		<tag k="ssr:stedsnr" v="332140" />
	</node>
	<node id="-859665" lat="63.1616098704" lon="9.58142281576">
		<tag k="alt_name" v="Bjørkhaug" />
		<tag k="fixme" v="consider place=hamlet" />
		<tag k="name" v="Bjørkhaugen" />
		<tag k="place" v="farm" />
		<tag k="ssr:stedsnr" v="923596" />
	</node>
	<node id="-859661" lat="63.0682202752" lon="9.61175219429">
		<tag k="name" v="Hokollen" />
		<tag k="place" v="farm" />
		<tag k="ssr:stedsnr" v="680429" />
	</node>
	<node id="-859658" lat="63.1064805518" lon="9.70102778285">
		<tag k="amenity" v="sports_centre" />
		<tag k="name" v="Meldalshallen" />
		<tag k="ssr:stedsnr" v="525585" />
	</node>
	<node id="-861705" lat="62.9761749995" lon="9.71875556219">
		<tag k="name" v="Fagerhaugen" />
		<tag k="place" v="farm" />
		<tag k="ssr:stedsnr" v="939655" />
	</node>
	<node id="-861704" lat="63.1001861078" lon="9.45122777696">
		<tag k="name" v="Nyhus" />
		<tag k="place" v="farm" />
		<tag k="ssr:stedsnr" v="272585" />
	</node>
	<node id="-861703" lat="63.0212039445" lon="9.7345671095">
		<tag k="fixme" v="consider place=hamlet" />
		<tag k="name" v="Re" />
		<tag k="place" v="farm" />
		<tag k="ssr:stedsnr" v="194652" />
	</node>
	<node id="-861701" lat="63.0517250042" lon="9.52836388435">
		<tag k="historic" v="shieling" />
		<tag k="name" v="Kvamsmoenget" />
		<tag k="place" v="locality" />
		<tag k="ssr:stedsnr" v="150482" />
	</node>
	<node id="-859652" lat="63.0288083347" lon="9.83995000988">
		<tag k="name" v="Ryåndsjøhytta" />
		<tag k="place" v="isolated_dwelling" />
		<tag k="ssr:stedsnr" v="332554" />
	</node>
	<node id="-859650" lat="63.0393861106" lon="9.96541944302">
		<tag k="historic" v="shieling" />
		<tag k="name" v="Fossætrin" />
		<tag k="place" v="locality" />
		<tag k="ssr:stedsnr" v="28368" />
	</node>
	<node id="-861696" lat="63.0205888866" lon="9.70261945038">
		<tag k="name" v="Rønningen" />
		<tag k="place" v="farm" />
		<tag k="ssr:stedsnr" v="454626" />
	</node>
	<node id="-861693" lat="63.1515472256" lon="9.531891674">
		<tag k="name" v="Storøyan" />
		<tag k="place" v="farm" />
		<tag k="ssr:stedsnr" v="272583" />
	</node>
	<node id="-861692" lat="63.0240666669" lon="9.92305555915">
		<tag k="historic" v="shieling" />
		<tag k="name" v="Stormyran" />
		<tag k="place" v="locality" />
		<tag k="ssr:stedsnr" v="757504" />
	</node>
	<node id="-861691" lat="63.0199865771" lon="9.70658850997">
		<tag k="name" v="Hillstad" />
		<tag k="place" v="hamlet" />
		<tag k="ssr:stedsnr" v="437354" />
	</node>
	<node id="-859640" lat="63.0120404127" lon="9.71565457243">
		<tag k="fixme" v="consider place=hamlet" />
		<tag k="name" v="Kjerstad" />
		<tag k="place" v="farm" />
		<tag k="ssr:stedsnr" v="619340" />
	</node>
	<node id="-859636" lat="62.9848237674" lon="9.74135944034">
		<tag k="alt_name" v="Å Sentrum" />
		<tag k="name" v="Å" />
		<tag k="place" v="village" />
		<tag k="ssr:stedsnr" v="195768" />
	</node>
	<node id="-862180" lat="63.0383861075" lon="9.71159444596">
		<tag k="name" v="Systoengan" />
		<tag k="place" v="farm" />
		<tag k="ssr:stedsnr" v="939697" />
	</node>
	<node id="-860072" lat="63.0380833297" lon="9.52710000679">
		<tag k="historic" v="shieling" />
		<tag k="name" v="Mosbrunnsætra" />
		<tag k="place" v="locality" />
		<tag k="ssr:stedsnr" v="619399" />
	</node>
	<node id="-861678" lat="63.083455555" lon="9.60193334157">
		<tag k="name" v="Lykkjbrekka" />
		<tag k="place" v="quarter" />
		<tag k="ssr:stedsnr" v="363930" />
	</node>
	<node id="-859629" lat="62.9448361109" lon="9.60431666971">
		<tag k="historic" v="shieling" />
		<tag k="name" v="Aspligravora" />
		<tag k="place" v="locality" />
		<tag k="ssr:stedsnr" v="89176" />
	</node>
	<node id="-859628" lat="63.0640861086" lon="9.8531194453">
		<tag k="historic" v="shieling" />
		<tag k="name" v="Ressætrin" />
		<tag k="place" v="locality" />
		<tag k="ssr:stedsnr" v="376623" />
	</node>
	<node id="-859625" lat="63.0051722248" lon="9.71879722508">
		<tag k="fixme" v="consider place=hamlet" />
		<tag k="name" v="Snoen" />
		<tag k="place" v="farm" />
		<tag k="ssr:stedsnr" v="635662" />
	</node>
	<node id="-861668" lat="63.0673916651" lon="9.82746944457">
		<tag k="historic" v="shieling" />
		<tag k="name" v="Hollstosætra" />
		<tag k="place" v="locality" />
		<tag k="ssr:stedsnr" v="437624" />
	</node>
	<node id="-859617" lat="63.1400691139" lon="9.83169033861">
		<tag k="name" v="Åmot" />
		<tag k="place" v="farm" />
		<tag k="ssr:stedsnr" v="740082" />
	</node>
	<node id="-859615" lat="63.0040027787" lon="9.72466111472">
		<tag k="fixme" v="consider place=hamlet" />
		<tag k="name" v="Snoen" />
		<tag k="place" v="farm" />
		<tag k="ssr:stedsnr" v="635661" />
	</node>
	<node id="-859612" lat="62.999797221" lon="9.74202777452">
		<tag k="name" v="Stokkrønningen" />
		<tag k="place" v="farm" />
		<tag k="ssr:stedsnr" v="635660" />
	</node>
	<node id="-859606" lat="63.0398138912" lon="9.60235554671">
		<tag k="name" v="Holsslåtta" />
		<tag k="place" v="isolated_dwelling" />
		<tag k="ssr:stedsnr" v="680408" />
	</node>
	<node id="-861652" lat="63.1648218926" lon="9.55343184993">
		<tag k="fixme" v="consider place=hamlet" />
		<tag k="name" v="Sandvika" />
		<tag k="place" v="farm" />
		<tag k="ssr:stedsnr" v="12503" />
	</node>
	<node id="-861650" lat="63.124633334" lon="9.67638611875">
		<tag k="name" v="Ekran" />
		<tag k="place" v="farm" />
		<tag k="ssr:stedsnr" v="454605" />
	</node>
	<node id="-859599" lat="63.0704749971" lon="9.55116666265">
		<tag k="historic" v="shieling" />
		<tag k="name" v="Kjølaberget" />
		<tag k="place" v="locality" />
		<tag k="ssr:stedsnr" v="211091" />
	</node>
	<node id="-859598" lat="62.948074997" lon="9.59591944882">
		<tag k="historic" v="shieling" />
		<tag k="name" v="Resslåtta" />
		<tag k="place" v="locality" />
		<tag k="ssr:stedsnr" v="29169" />
	</node>
	<node id="-861645" lat="63.0520740321" lon="9.69504924155">
		<tag k="fixme" v="consider place=hamlet" />
		<tag k="name" v="Voll" />
		<tag k="place" v="farm" />
		<tag k="ssr:stedsnr" v="696622" />
	</node>
	<node id="-861637" lat="63.0347277806" lon="9.70119166163">
		<tag k="name" v="Nordgard Systad" />
		<tag k="place" v="farm" />
		<tag k="ssr:stedsnr" v="939627" />
	</node>
	<node id="-859586" lat="62.9665083306" lon="9.65509167129">
		<tag k="historic" v="shieling" />
		<tag k="name" v="Storstuggusætra" />
		<tag k="place" v="locality" />
		<tag k="ssr:stedsnr" v="574176" />
	</node>
	<node id="-861632" lat="63.1169916707" lon="9.5815222246">
		<tag k="fixme" v="consider place=hamlet" />
		<tag k="name" v="Svinsås" />
		<tag k="place" v="farm" />
		<tag k="ssr:stedsnr" v="818595" />
	</node>
	<node id="-861625" lat="62.9348555579" lon="9.62003334085">
		<tag k="historic" v="shieling" />
		<tag k="name" v="Nordigardsvartbekksætra" />
		<tag k="place" v="locality" />
		<tag k="ssr:stedsnr" v="12231" />
	</node>
	<node id="-859574" lat="63.0700027757" lon="9.61630000253">
		<tag k="name" v="Fossvollan" />
		<tag k="place" v="farm" />
		<tag k="ssr:stedsnr" v="255387" />
	</node>
	<node id="-859572" lat="62.96761111" lon="9.67694999203">
		<tag k="historic" v="shieling" />
		<tag k="name" v="Resellgjerdsætra" />
		<tag k="place" v="locality" />
		<tag k="ssr:stedsnr" v="514167" />
	</node>
	<node id="-861618" lat="63.1309583323" lon="9.65487222503">
		<tag k="name" v="Fagerlidalen" />
		<tag k="place" v="farm" />
		<tag k="ssr:stedsnr" v="272557" />
	</node>
	<node id="-859567" lat="63.0459249982" lon="9.71133889482">
		<tag k="amenity" v="townhall" />
		<tag k="name" v="Meldal rådhus" />
		<tag k="ssr:stedsnr" v="161561" />
	</node>
	<node id="-859566" lat="63.0617931843" lon="9.89999800232">
		<tag k="fixme" v="consider place=hamlet" />
		<tag k="name" v="Svahyllan" />
		<tag k="place" v="farm" />
		<tag k="ssr:stedsnr" v="680676" />
	</node>
	<node id="-859561" lat="62.9679055542" lon="9.48098610507">
		<tag k="fixme" v="consider place=hamlet" />
		<tag k="name" v="Langvatnet" />
		<tag k="place" v="farm" />
		<tag k="ssr:stedsnr" v="392546" />
	</node>
	<node id="-861608" lat="62.967402774" lon="9.63581667181">
		<tag k="historic" v="shieling" />
		<tag k="name" v="Snipen" />
		<tag k="place" v="locality" />
		<tag k="ssr:stedsnr" v="635119" />
	</node>
	<node id="-859559" lat="63.108700003" lon="9.59083055082">
		<tag k="name" v="Lornshåggån" />
		<tag k="place" v="farm" />
		<tag k="ssr:stedsnr" v="29581" />
	</node>
	<node id="-859558" lat="63.0950809711" lon="9.62601175233">
		<tag k="fixme" v="consider place=hamlet" />
		<tag k="name" v="Ry" />
		<tag k="place" v="farm" />
		<tag k="ssr:stedsnr" v="801399" />
	</node>
	<node id="-861602" lat="63.0379222264" lon="9.72440832894">
		<tag k="leisure" v="pitch" />
		<tag k="name" v="Margretehaugen handballbane" />
		<tag k="ssr:stedsnr" v="950565" />
	</node>
	<node id="-859551" lat="62.9682361142" lon="9.66215555413">
		<tag k="historic" v="shieling" />
		<tag k="name" v="Røsslåtta" />
		<tag k="place" v="locality" />
		<tag k="ssr:stedsnr" v="29163" />
	</node>
	<node id="-861596" lat="63.0507083316" lon="9.69313888367">
		<tag k="fixme" v="consider place=hamlet" />
		<tag k="name" v="Nordvoll" />
		<tag k="place" v="farm" />
		<tag k="ssr:stedsnr" v="696618" />
	</node>
	<node id="-859541" lat="63.0950999961" lon="9.48776111661">
		<tag k="name" v="Aunet" />
		<tag k="place" v="isolated_dwelling" />
		<tag k="ssr:stedsnr" v="679368" />
	</node>
	<node id="-859536" lat="63.0840499995" lon="9.8209250002">
		<tag k="historic" v="shieling" />
		<tag k="name" v="Ny-Prestsætra" />
		<tag k="place" v="locality" />
		<tag k="ssr:stedsnr" v="211512" />
	</node>
	<node id="-861583" lat="63.167513305" lon="9.56996713081">
		<tag k="fixme" v="consider place=hamlet" />
		<tag k="name" v="Groegga" />
		<tag k="place" v="farm" />
		<tag k="ssr:stedsnr" v="12500" />
	</node>
	<node id="-860397" lat="62.995601598" lon="9.75282547143">
		<tag k="fixme" v="consider place=hamlet" />
		<tag k="name" v="Fitjan" />
		<tag k="place" v="farm" />
		<tag k="ssr:stedsnr" v="801737" />
	</node>
	<node id="-859531" lat="63.0963722264" lon="9.69199166199">
		<tag k="landuse" v="winter_sports" />
		<tag k="name" v="Steigalia skitrekk" />
		<tag k="piste:type" v="downhill" />
		<tag k="ssr:stedsnr" v="161557" />
	</node>
	<node id="-859530" lat="63.1127692585" lon="9.63611345068">
		<tag k="fixme" v="consider place=hamlet" />
		<tag k="name" v="Damlia" />
		<tag k="place" v="farm" />
		<tag k="ssr:stedsnr" v="972133" />
	</node>
	<node id="-859521" lat="62.9510416656" lon="9.53309166674">
		<tag k="historic" v="shieling" />
		<tag k="name" v="Jøløyan" />
		<tag k="place" v="locality" />
		<tag k="ssr:stedsnr" v="211504" />
	</node>
	<node id="-861567" lat="63.0541861125" lon="9.67225833155">
		<tag k="name" v="Engly" />
		<tag k="place" v="farm" />
		<tag k="ssr:stedsnr" v="272564" />
	</node>
	<node id="-861566" lat="63.0541222178" lon="9.67870556049">
		<tag k="name" v="Ringen" />
		<tag k="place" v="farm" />
		<tag k="ssr:stedsnr" v="696185" />
	</node>
	<node id="-859516" lat="63.0423333362" lon="9.70221666179">
		<tag k="amenity" v="school" />
		<tag k="name" v="Meldal barne- og ungdomsskole" />
		<tag k="ssr:stedsnr" v="909007" />
	</node>
	<node id="-862100" lat="63.0088000017" lon="9.92901944044">
		<tag k="historic" v="shieling" />
		<tag k="name" v="Gammelsætra" />
		<tag k="place" v="locality" />
		<tag k="ssr:stedsnr" v="558693" />
	</node>
	<node id="-861557" lat="63.1342222262" lon="9.85646667291">
		<tag k="building" v="industrial" />
		<tag k="industrial" v="factory" />
		<tag k="name" v="Øversaga" />
		<tag k="ssr:stedsnr" v="635533" />
	</node>
	<node id="-859504" lat="63.1413166658" lon="9.50470554787">
		<tag k="name" v="Drogsetsætra" />
		<tag k="place" v="isolated_dwelling" />
		<tag k="ssr:stedsnr" v="923577" />
	</node>
	<node id="-861550" lat="62.9863701648" lon="9.76438660082">
		<tag k="name" v="Stene" />
		<tag k="place" v="hamlet" />
		<tag k="ssr:stedsnr" v="619805" />
	</node>
	<node id="-861546" lat="62.99486627" lon="9.74221910348">
		<tag k="name" v="Rikstad" />
		<tag k="place" v="hamlet" />
		<tag k="ssr:stedsnr" v="255813" />
	</node>
	<node id="-861543" lat="63.0271583305" lon="9.73473056055">
		<tag k="name" v="Svinsan" />
		<tag k="place" v="isolated_dwelling" />
		<tag k="ssr:stedsnr" v="740552" />
	</node>
	<node id="-861540" lat="63.1339472262" lon="9.62022777786">
		<tag k="name" v="Purklykkja" />
		<tag k="place" v="farm" />
		<tag k="ssr:stedsnr" v="818609" />
	</node>
	<node id="-859489" lat="63.0984750994" lon="9.44942965461">
		<tag k="name" v="Gården" />
		<tag k="place" v="farm" />
		<tag k="ssr:stedsnr" v="757605" />
	</node>
	<node id="-859487" lat="62.9834910812" lon="9.59793469168">
		<tag k="name" v="Ogjerdhøylu" />
		<tag k="place" v="locality" />
		<tag k="ssr:stedsnr" v="631758" />
	</node>
	<node id="-861534" lat="62.968602774" lon="9.85253054914">
		<tag k="historic" v="shieling" />
		<tag k="name" v="Haugastuggu" />
		<tag k="place" v="locality" />
		<tag k="ssr:stedsnr" v="271714" />
	</node>
	<node id="-859485" lat="63.0290666664" lon="9.70898610284">
		<tag k="name" v="Nyhåggån" />
		<tag k="place" v="farm" />
		<tag k="ssr:stedsnr" v="635668" />
	</node>
	<node id="-859480" lat="62.9938166628" lon="10.0083138861">
		<tag k="name" v="Grutsætra" />
		<tag k="place" v="isolated_dwelling" />
		<tag k="ssr:stedsnr" v="862756" />
	</node>
	<node id="-859476" lat="63.0465055571" lon="9.89369721695">
		<tag k="historic" v="shieling" />
		<tag k="name" v="Rikstosætra" />
		<tag k="place" v="locality" />
		<tag k="ssr:stedsnr" v="254566" />
	</node>
	<node id="-861523" lat="63.1379138892" lon="9.62736110365">
		<tag k="name" v="Brattråket" />
		<tag k="place" v="locality" />
		<tag k="ssr:stedsnr" v="818614" />
	</node>
	<node id="-861520" lat="63.05453056" lon="9.91809167093">
		<tag k="historic" v="shieling" />
		<tag k="name" v="Lundasætra" />
		<tag k="place" v="locality" />
		<tag k="ssr:stedsnr" v="679558" />
	</node>
	<node id="-861515" lat="63.1805055586" lon="9.54939166587">
		<tag k="name" v="Vaulhaugen" />
		<tag k="place" v="farm" />
		<tag k="ssr:stedsnr" v="696632" />
	</node>
	<node id="-861514" lat="62.9786694471" lon="9.72685278027">
		<tag k="fixme" v="consider place=hamlet" />
		<tag k="name" v="Resell" />
		<tag k="place" v="farm" />
		<tag k="ssr:stedsnr" v="271711" />
	</node>
	<node id="-861510" lat="62.9667222239" lon="9.67365832548">
		<tag k="historic" v="shieling" />
		<tag k="name" v="Litjstuggusætra" />
		<tag k="place" v="locality" />
		<tag k="ssr:stedsnr" v="454158" />
	</node>
	<node id="-861508" lat="63.047366663" lon="9.71184999911">
		<tag k="name" v="Tøftenget" />
		<tag k="place" v="neighbourhood" />
		<tag k="ssr:stedsnr" v="635950" />
	</node>
	<node id="-859702" lat="63.0453000004" lon="9.98998055159">
		<tag k="historic" v="shieling" />
		<tag k="name" v="Skåra" />
		<tag k="place" v="locality" />
		<tag k="ssr:stedsnr" v="12593" />
	</node>
	<node id="-860384" lat="63.138599523" lon="9.70602599826">
		<tag k="fixme" v="consider place=hamlet" />
		<tag k="name" v="Jerhus" />
		<tag k="place" v="farm" />
		<tag k="ssr:stedsnr" v="740454" />
	</node>
	<node id="-859701" lat="63.1281861138" lon="9.70996666133">
		<tag k="name" v="Sørgjerdet" />
		<tag k="place" v="farm" />
		<tag k="ssr:stedsnr" v="89599" />
	</node>
	<node id="-861499" lat="63.1123777746" lon="9.69788888125">
		<tag k="name" v="Konstjoekra" />
		<tag k="place" v="farm" />
		<tag k="ssr:stedsnr" v="454599" />
	</node>
	<node id="-861490" lat="63.12726667" lon="9.64686665863">
		<tag k="name" v="Moshaugen (nedl.)" />
		<tag k="place" v="farm" />
		<tag k="ssr:stedsnr" v="272554" />
	</node>
	<node id="-861477" lat="63.0305550144" lon="9.92379120743">
		<tag k="historic" v="shieling" />
		<tag k="name" v="Holsætra" />
		<tag k="place" v="locality" />
		<tag k="ssr:stedsnr" v="194637" />
	</node>
	<node id="-861474" lat="63.153675003" lon="9.64141945428">
		<tag k="name" v="Haukåsflata" />
		<tag k="place" v="farm" />
		<tag k="ssr:stedsnr" v="271721" />
	</node>
	<node id="-861460" lat="63.1150388902" lon="9.6096888962">
		<tag k="fixme" v="consider place=hamlet" />
		<tag k="name" v="Drågset" />
		<tag k="place" v="farm" />
		<tag k="ssr:stedsnr" v="818604" />
	</node>
	<node id="-861450" lat="63.0405055531" lon="9.69070555364">
		<tag k="leisure" v="pitch" />
		<tag k="name" v="Systobakkan langrennsanlegg" />
		<tag k="ssr:stedsnr" v="404527" />
	</node>
	<node id="-861448" lat="63.0957916697" lon="9.69238333434">
		<tag k="name" v="Steigaslættet" />
		<tag k="place" v="farm" />
		<tag k="ssr:stedsnr" v="393637" />
	</node>
	<node id="-860467" lat="63.106825002" lon="9.73151666363">
		<tag k="fixme" v="consider place=hamlet" />
		<tag k="name" v="Litj-Høydalen" />
		<tag k="place" v="farm" />
		<tag k="ssr:stedsnr" v="150724" />
	</node>
	<node id="-861435" lat="62.9748222191" lon="9.69627500355">
		<tag k="leisure" v="pitch" />
		<tag k="name" v="Otla langrennsanlegg" />
		<tag k="ssr:stedsnr" v="404528" />
	</node>
	<node id="-861431" lat="63.1030805553" lon="9.45946944282">
		<tag k="name" v="Fjelltun" />
		<tag k="place" v="isolated_dwelling" />
		<tag k="ssr:stedsnr" v="514426" />
	</node>
	<node id="-861425" lat="63.1325194441" lon="9.61068611163">
		<tag k="name" v="Blåkkågjerdet" />
		<tag k="place" v="farm" />
		<tag k="ssr:stedsnr" v="696599" />
	</node>
	<node id="-861422" lat="63.114363893" lon="9.6998666603">
		<tag k="name" v="Kroken" />
		<tag k="place" v="farm" />
		<tag k="ssr:stedsnr" v="939603" />
	</node>
	<node id="-861421" lat="62.987188892" lon="9.76980278244">
		<tag k="name" v="Flotthåggån" />
		<tag k="place" v="farm" />
		<tag k="ssr:stedsnr" v="271698" />
	</node>
	<node id="-861419" lat="63.0899111076" lon="9.74768055488">
		<tag k="alt_name" v="Karlstadsætra;Kallstadsætra" />
		<tag k="historic" v="shieling" />
		<tag k="name" v="Kalstadsætra" />
		<tag k="place" v="locality" />
		<tag k="ssr:stedsnr" v="255553" />
	</node>
	<node id="-861416" lat="63.0914261545" lon="9.70475598935">
		<tag k="fixme" v="consider place=hamlet" />
		<tag k="name" v="Storsten" />
		<tag k="place" v="farm" />
		<tag k="ssr:stedsnr" v="194371" />
	</node>
	<node id="-861412" lat="62.9902333336" lon="9.74367499047">
		<tag k="leisure" v="pitch" />
		<tag k="name" v="Å idrettsplass" />
		<tag k="ssr:stedsnr" v="404525" />
	</node>
	<node id="-859686" lat="62.9532499966" lon="9.64609443493">
		<tag k="historic" v="shieling" />
		<tag k="name" v="Innlegget" />
		<tag k="place" v="locality" />
		<tag k="ssr:stedsnr" v="514175" />
	</node>
	<node id="-861410" lat="62.959919443" lon="9.68437777313">
		<tag k="historic" v="shieling" />
		<tag k="name" v="Åsætra" />
		<tag k="place" v="locality" />
		<tag k="ssr:stedsnr" v="454148" />
	</node>
	<node id="-861406" lat="63.0364416693" lon="9.95787500466">
		<tag k="name" v="Steinsætra" />
		<tag k="place" v="isolated_dwelling" />
		<tag k="ssr:stedsnr" v="194635" />
	</node>
	<node id="-861399" lat="63.0923827808" lon="9.79525183568">
		<tag k="name" v="Skubbholtsætra" />
		<tag k="place" v="isolated_dwelling" />
		<tag k="ssr:stedsnr" v="740526" />
	</node>
	<node id="-862073" lat="63.0931166634" lon="9.72738610756">
		<tag k="name" v="Skårålia" />
		<tag k="place" v="farm" />
		<tag k="ssr:stedsnr" v="393737" />
	</node>
	<node id="-861392" lat="63.0149352455" lon="9.71083339601">
		<tag k="alt_name" v="Hillstad" />
		<tag k="name" v="Ogjerdet" />
		<tag k="place" v="farm" />
		<tag k="ssr:stedsnr" v="801281" />
	</node>
	<node id="-861388" lat="63.1539638901" lon="9.46106110176">
		<tag k="fixme" v="consider place=hamlet" />
		<tag k="name" v="Høglia" />
		<tag k="place" v="farm" />
		<tag k="ssr:stedsnr" v="211355" />
	</node>
	<node id="-861387" lat="63.1151722212" lon="9.58473610948">
		<tag k="fixme" v="consider place=hamlet" />
		<tag k="name" v="Svinsås" />
		<tag k="place" v="farm" />
		<tag k="ssr:stedsnr" v="939593" />
	</node>
	<node id="-861386" lat="62.9898027745" lon="9.72661111157">
		<tag k="leisure" v="pitch" />
		<tag k="name" v="Ospbakkan hoppanlegg" />
		<tag k="ssr:stedsnr" v="707541" />
	</node>
	<node id="-861384" lat="63.1160777736" lon="9.63130000981">
		<tag k="name" v="Sæterlia" />
		<tag k="place" v="farm" />
		<tag k="ssr:stedsnr" v="272541" />
	</node>
	<node id="-861383" lat="63.1385444423" lon="9.70540278053">
		<tag k="name" v="Jordhus" />
		<tag k="place" v="farm" />
		<tag k="ssr:stedsnr" v="939594" />
	</node>
	<node id="-862070" lat="63.1554402993" lon="9.64171312767">
		<tag k="name" v="Haukåsen" />
		<tag k="place" v="farm" />
		<tag k="ssr:stedsnr" v="316603" />
	</node>
	<node id="-861371" lat="62.9708583329" lon="9.71199722518">
		<tag k="name" v="Dålån" />
		<tag k="place" v="isolated_dwelling" />
		<tag k="ssr:stedsnr" v="392002" />
	</node>
	<node id="-861360" lat="63.1067388853" lon="9.61361389426">
		<tag k="name" v="Gjerdhåggån" />
		<tag k="place" v="farm" />
		<tag k="ssr:stedsnr" v="696589" />
	</node>
	<node id="-861359" lat="62.9543666659" lon="9.6624777785">
		<tag k="historic" v="shieling" />
		<tag k="name" v="Sæterløkkja" />
		<tag k="place" v="locality" />
		<tag k="ssr:stedsnr" v="818135" />
	</node>
	<node id="-861352" lat="63.0526694465" lon="9.69797499494">
		<tag k="name" v="Vollagrenda" />
		<tag k="place" v="hamlet" />
		<tag k="ssr:stedsnr" v="939168" />
	</node>
	<node id="-861349" lat="63.1340277789" lon="9.77021110534">
		<tag k="name" v="Bustobrekka" />
		<tag k="place" v="farm" />
		<tag k="ssr:stedsnr" v="878703" />
	</node>
	<node id="-861347" lat="63.0736277807" lon="9.48667777882">
		<tag k="historic" v="shieling" />
		<tag k="name" v="Liasætra" />
		<tag k="place" v="locality" />
		<tag k="ssr:stedsnr" v="29423" />
	</node>
	<node id="-861346" lat="63.0376372209" lon="9.6957506723">
		<tag k="fixme" v="consider place=hamlet" />
		<tag k="name" v="Systovollan" />
		<tag k="place" v="farm" />
		<tag k="ssr:stedsnr" v="862370" />
	</node>
	<node id="-861335" lat="63.1706648834" lon="9.52812681263">
		<tag k="fixme" v="consider place=hamlet" />
		<tag k="name" v="Ringen" />
		<tag k="place" v="farm" />
		<tag k="ssr:stedsnr" v="376529" />
	</node>
	<node id="-861327" lat="63.0602555574" lon="9.64513055758">
		<tag k="fixme" v="consider place=hamlet" />
		<tag k="name" v="Kvam" />
		<tag k="place" v="farm" />
		<tag k="ssr:stedsnr" v="558359" />
	</node>
	<node id="-861323" lat="62.9849583297" lon="9.77488332719">
		<tag k="fixme" v="multiple name tags, choose one and add the other to alt_name" />
		<tag k="name" v="Grut;Grutbakkan" />
		<tag k="place" v="farm" />
		<tag k="ssr:stedsnr" v="393624" />
	</node>
	<node id="-861321" lat="63.1219388846" lon="9.70986944344">
		<tag k="name" v="Grindvollan" />
		<tag k="place" v="farm" />
		<tag k="ssr:stedsnr" v="696607" />
	</node>
	<node id="-859781" lat="62.9987636491" lon="9.75194391803">
		<tag k="name" v="Stokkan" />
		<tag k="place" v="hamlet" />
		<tag k="ssr:stedsnr" v="862764" />
	</node>
	<node id="-861314" lat="63.0979178386" lon="9.50859855998">
		<tag k="name" v="Skjervlia" />
		<tag k="place" v="farm" />
		<tag k="ssr:stedsnr" v="194364" />
	</node>
	<node id="-862059" lat="63.020947226" lon="9.94264721368">
		<tag k="name" v="Hørvasstuggu" />
		<tag k="place" v="isolated_dwelling" />
		<tag k="ssr:stedsnr" v="437656" />
	</node>
	<node id="-861306" lat="63.0487833305" lon="9.77190278627">
		<tag k="name" v="Hollstoslåtta" />
		<tag k="old_name" v="Hollstosætra;Hollstadsætra;Hollstosetra" />
		<tag k="place" v="isolated_dwelling" />
		<tag k="ssr:stedsnr" v="801572" />
	</node>
	<node id="-861290" lat="63.0174449008" lon="9.70914749103">
		<tag k="fixme" v="multiple name tags, choose one and add the other to alt_name" />
		<tag k="name" v="Hillstad;Stuggu" />
		<tag k="place" v="farm" />
		<tag k="ssr:stedsnr" v="437316" />
	</node>
	<node id="-859780" lat="63.0480527751" lon="9.7012166762">
		<tag k="name" v="Nordvoll" />
		<tag k="place" v="farm" />
		<tag k="ssr:stedsnr" v="29612" />
	</node>
	<node id="-861280" lat="63.1256083347" lon="9.52083332425">
		<tag k="historic" v="shieling" />
		<tag k="name" v="Espåssætrin" />
		<tag k="place" v="locality" />
		<tag k="ssr:stedsnr" v="332379" />
	</node>
	<node id="-861279" lat="63.1473324955" lon="9.80851870386">
		<tag k="fixme" v="consider place=hamlet" />
		<tag k="name" v="Stavelia" />
		<tag k="place" v="farm" />
		<tag k="ssr:stedsnr" v="862119" />
	</node>
	<node id="-861277" lat="62.9939044856" lon="9.74451544759">
		<tag k="fixme" v="consider place=hamlet" />
		<tag k="name" v="Rikstad" />
		<tag k="place" v="farm" />
		<tag k="ssr:stedsnr" v="393628" />
	</node>
	<node id="-861275" lat="63.0580824554" lon="9.65275888147">
		<tag k="name" v="Dombu" />
		<tag k="place" v="hamlet" />
		<tag k="ssr:stedsnr" v="558364" />
	</node>
	<node id="-860004" lat="63.0349805562" lon="9.69771388378">
		<tag k="name" v="Oppigard Systad" />
		<tag k="place" v="farm" />
		<tag k="ssr:stedsnr" v="89635" />
	</node>
	<node id="-861264" lat="62.9793497785" lon="9.74817980336">
		<tag k="name" v="Jerpstad" />
		<tag k="place" v="hamlet" />
		<tag k="ssr:stedsnr" v="741833" />
	</node>
	<node id="-861263" lat="63.0376444452" lon="9.72556389478">
		<tag k="name" v="Margretehaugen" />
		<tag k="place" v="isolated_dwelling" />
		<tag k="ssr:stedsnr" v="679534" />
	</node>
	<node id="-861254" lat="63.1331799425" lon="9.6305933001">
		<tag k="fixme" v="consider place=hamlet" />
		<tag k="name" v="Langset" />
		<tag k="place" v="farm" />
		<tag k="ssr:stedsnr" v="316533" />
	</node>
	<node id="-861246" lat="62.9761805589" lon="9.72635277791">
		<tag k="name" v="Letet" />
		<tag k="place" v="farm" />
		<tag k="ssr:stedsnr" v="878683" />
	</node>
	<node id="-862389" lat="63.0386805559" lon="9.95386944151">
		<tag k="historic" v="shieling" />
		<tag k="name" v="Fossætra" />
		<tag k="place" v="locality" />
		<tag k="ssr:stedsnr" v="89551" />
	</node>
	<node id="-861244" lat="63.1695222206" lon="9.52879999737">
		<tag k="name" v="Blakstad" />
		<tag k="place" v="farm" />
		<tag k="ssr:stedsnr" v="393615" />
	</node>
	<node id="-861242" lat="63.0191388903" lon="9.91395834277">
		<tag k="historic" v="shieling" />
		<tag k="name" v="Strypet" />
		<tag k="old_name" v="Stripe" />
		<tag k="place" v="locality" />
		<tag k="ssr:stedsnr" v="194616" />
	</node>
	<node id="-861236" lat="63.1032009788" lon="9.50107303388">
		<tag k="fixme" v="consider place=hamlet" />
		<tag k="name" v="Myra" />
		<tag k="place" v="farm" />
		<tag k="ssr:stedsnr" v="393620" />
	</node>
	<node id="-861232" lat="62.9647861089" lon="9.64123611487">
		<tag k="historic" v="shieling" />
		<tag k="name" v="Grytbakksætra" />
		<tag k="place" v="locality" />
		<tag k="ssr:stedsnr" v="618129" />
	</node>
	<node id="-861221" lat="63.0468805567" lon="9.71189722537">
		<tag k="amenity" v="nursing_home" />
		<tag k="name" v="Meldal helsestasjon" />
		<tag k="ssr:stedsnr" v="950522" />
	</node>
	<node id="-861218" lat="62.9781611079" lon="9.75074999301">
		<tag k="name" v="Bakklia" />
		<tag k="place" v="farm" />
		<tag k="ssr:stedsnr" v="878675" />
	</node>
	<node id="-861215" lat="62.990944443" lon="9.74685000088">
		<tag k="amenity" v="kindergarten" />
		<tag k="name" v="Å barnehage" />
		<tag k="ssr:stedsnr" v="950523" />
	</node>
	<node id="-861205" lat="63.092466399" lon="9.49228304264">
		<tag k="fixme" v="consider place=hamlet" />
		<tag k="name" v="Lia" />
		<tag k="place" v="farm" />
		<tag k="ssr:stedsnr" v="972316" />
	</node>
	<node id="-861202" lat="62.9280249999" lon="9.53248610411">
		<tag k="historic" v="shieling" />
		<tag k="name" v="Åsætra" />
		<tag k="place" v="locality" />
		<tag k="ssr:stedsnr" v="740233" />
	</node>
	<node id="-861197" lat="63.0979361074" lon="9.81641389607">
		<tag k="name" v="Fjellheim" />
		<tag k="place" v="farm" />
		<tag k="ssr:stedsnr" v="437017" />
	</node>
	<node id="-861195" lat="63.124944442" lon="9.6927666746">
		<tag k="name" v="Smedhaugen" />
		<tag k="place" v="locality" />
		<tag k="ssr:stedsnr" v="393599" />
	</node>
	<node id="-861187" lat="63.0431333326" lon="9.72220277434">
		<tag k="amenity" v="nursing_home" />
		<tag k="name" v="Meldal sykehjem" />
		<tag k="ssr:stedsnr" v="150408" />
	</node>
	<node id="-861179" lat="63.0391222198" lon="9.96608611104">
		<tag k="alt_name" v="Fossætra, austre" />
		<tag k="historic" v="shieling" />
		<tag k="name" v="Austre Fossætra" />
		<tag k="place" v="locality" />
		<tag k="ssr:stedsnr" v="801560" />
	</node>
	<node id="-861174" lat="63.1549467823" lon="9.64149141185">
		<tag k="fixme" v="consider place=hamlet" />
		<tag k="name" v="Haukåsen" />
		<tag k="place" v="farm" />
		<tag k="ssr:stedsnr" v="878695" />
	</node>
	<node id="-861166" lat="63.1211749992" lon="9.60879444107">
		<tag k="fixme" v="consider place=hamlet" />
		<tag k="name" v="Druglia" />
		<tag k="place" v="farm" />
		<tag k="ssr:stedsnr" v="680563" />
	</node>
	<node id="-861164" lat="62.9662222258" lon="9.51598611492">
		<tag k="historic" v="shieling" />
		<tag k="name" v="Vasslåtta" />
		<tag k="place" v="locality" />
		<tag k="ssr:stedsnr" v="922132" />
	</node>
	<node id="-861161" lat="63.1615106625" lon="9.53925260716">
		<tag k="name" v="Laksøybygda" />
		<tag k="place" v="hamlet" />
		<tag k="ssr:stedsnr" v="449494" />
	</node>
	<node id="-861157" lat="63.0772452192" lon="9.87265376361">
		<tag k="fixme" v="consider place=hamlet" />
		<tag k="name" v="Grutsætra" />
		<tag k="place" v="farm" />
		<tag k="ssr:stedsnr" v="376515" />
	</node>
	<node id="-861156" lat="63.1363361073" lon="9.84114999783">
		<tag k="building" v="industrial" />
		<tag k="industrial" v="factory" />
		<tag k="name" v="Nersaga" />
		<tag k="ssr:stedsnr" v="818547" />
	</node>
	<node id="-861154" lat="63.0536444404" lon="9.6781861099">
		<tag k="name" v="Vigdtun" />
		<tag k="place" v="farm" />
		<tag k="ssr:stedsnr" v="393608" />
	</node>
	<node id="-861148" lat="63.1181944424" lon="9.61067500017">
		<tag k="name" v="Solset" />
		<tag k="place" v="farm" />
		<tag k="ssr:stedsnr" v="680560" />
	</node>
	<node id="-861147" lat="63.0558388926" lon="9.66033332719">
		<tag k="name" v="Finndalsslættet" />
		<tag k="place" v="farm" />
		<tag k="ssr:stedsnr" v="271666" />
	</node>
	<node id="-861142" lat="63.1119388886" lon="9.59986665857">
		<tag k="name" v="Granan" />
		<tag k="place" v="farm" />
		<tag k="ssr:stedsnr" v="619497" />
	</node>
	<node id="-861140" lat="63.0325902256" lon="9.73244060601">
		<tag k="name" v="Hollstad" />
		<tag k="place" v="hamlet" />
		<tag k="ssr:stedsnr" v="133529" />
	</node>
	<node id="-861136" lat="63.0520444476" lon="9.68788889182">
		<tag k="fixme" v="consider place=hamlet" />
		<tag k="name" v="Voll" />
		<tag k="place" v="farm" />
		<tag k="ssr:stedsnr" v="393604" />
	</node>
	<node id="-861688" lat="63.0432055548" lon="9.72183056527">
		<tag k="amenity" v="nursing_home" />
		<tag k="name" v="Meldal helsetun" />
		<tag k="ssr:stedsnr" v="829548" />
	</node>
	<node id="-861123" lat="63.0849694485" lon="9.73211110192">
		<tag k="historic" v="shieling" />
		<tag k="name" v="Frillsjøsætra" />
		<tag k="place" v="locality" />
		<tag k="ssr:stedsnr" v="255524" />
	</node>
	<node id="-861121" lat="63.0892484029" lon="9.6287139106">
		<tag k="name" v="Lo" />
		<tag k="place" v="hamlet" />
		<tag k="ssr:stedsnr" v="922388" />
	</node>
	<node id="-860320" lat="63.1041562981" lon="9.58516551387">
		<tag k="fixme" v="consider place=hamlet" />
		<tag k="name" v="Litlåsen" />
		<tag k="place" v="farm" />
		<tag k="ssr:stedsnr" v="255453" />
	</node>
	<node id="-861110" lat="63.082727781" lon="9.63198888452">
		<tag k="name" v="Lo" />
		<tag k="place" v="farm" />
		<tag k="ssr:stedsnr" v="922390" />
	</node>
	<node id="-861100" lat="63.0845694422" lon="9.70089721721">
		<tag k="name" v="Bergsrønningen" />
		<tag k="place" v="farm" />
		<tag k="ssr:stedsnr" v="922391" />
	</node>
	<node id="-861096" lat="63.0266367531" lon="9.71486701519">
		<tag k="fixme" v="multiple name tags, choose one and add the other to alt_name" />
		<tag k="name" v="Muan;Maum" />
		<tag k="place" v="hamlet" />
		<tag k="ssr:stedsnr" v="935296" />
	</node>
	<node id="-861094" lat="63.0671968142" lon="9.62048362842">
		<tag k="fixme" v="consider place=hamlet" />
		<tag k="name" v="Fossen" />
		<tag k="place" v="farm" />
		<tag k="ssr:stedsnr" v="972303" />
	</node>
	<node id="-861089" lat="63.1049788665" lon="9.69393675231">
		<tag k="name" v="Steigen" />
		<tag k="place" v="hamlet" />
		<tag k="ssr:stedsnr" v="878653" />
	</node>
	<node id="-861082" lat="63.0978527772" lon="9.84514166321">
		<tag k="name" v="Gravråkstuggu" />
		<tag k="place" v="isolated_dwelling" />
		<tag k="ssr:stedsnr" v="211727" />
	</node>
	<node id="-861080" lat="63.1223861143" lon="9.71037223166">
		<tag k="name" v="Smedplassen" />
		<tag k="place" v="farm" />
		<tag k="ssr:stedsnr" v="878654" />
	</node>
	<node id="-861072" lat="63.1591027781" lon="9.46063611594">
		<tag k="historic" v="shieling" />
		<tag k="name" v="Frekslisætra" />
		<tag k="place" v="locality" />
		<tag k="ssr:stedsnr" v="89373" />
	</node>
	<node id="-861067" lat="63.1539164504" lon="9.52208700616">
		<tag k="fixme" v="consider place=hamlet" />
		<tag k="name" v="Gjetsteen" />
		<tag k="place" v="farm" />
		<tag k="ssr:stedsnr" v="437570" />
	</node>
	<node id="-861066" lat="63.0933837927" lon="9.49605186309">
		<tag k="name" v="Korslia" />
		<tag k="place" v="locality" />
		<tag k="ssr:stedsnr" v="618385" />
	</node>
	<node id="-861065" lat="62.9749861098" lon="9.56001388144">
		<tag k="historic" v="shieling" />
		<tag k="name" v="Røsdalen" />
		<tag k="place" v="locality" />
		<tag k="ssr:stedsnr" v="696103" />
	</node>
	<node id="-861059" lat="63.0457611101" lon="9.89597221455">
		<tag k="historic" v="shieling" />
		<tag k="name" v="Rikstosætrin" />
		<tag k="place" v="locality" />
		<tag k="ssr:stedsnr" v="453716" />
	</node>
	<node id="-861056" lat="63.1177861132" lon="9.7035027812">
		<tag k="name" v="Øyahåggån" />
		<tag k="place" v="farm" />
		<tag k="ssr:stedsnr" v="393590" />
	</node>
	<node id="-861055" lat="62.9570694446" lon="9.68110000376">
		<tag k="historic" v="shieling" />
		<tag k="name" v="Åsætra" />
		<tag k="place" v="locality" />
		<tag k="ssr:stedsnr" v="393161" />
	</node>
	<node id="-861053" lat="63.1069387428" lon="9.59335524624">
		<tag k="alt_name" v="Espås" />
		<tag k="name" v="Espåsen" />
		<tag k="place" v="hamlet" />
		<tag k="ssr:stedsnr" v="316515" />
	</node>
	<node id="-861050" lat="62.9212749957" lon="9.54175556309">
		<tag k="name" v="Ågjerdsætra" />
		<tag k="place" v="isolated_dwelling" />
		<tag k="ssr:stedsnr" v="255246" />
	</node>
	<node id="-861673" lat="63.097744447" lon="9.56623333934">
		<tag k="name" v="Åsheim" />
		<tag k="place" v="farm" />
		<tag k="ssr:stedsnr" v="454631" />
	</node>
	<node id="-861042" lat="63.1279083323" lon="9.71126388175">
		<tag k="fixme" v="consider place=suburb, village or hamlet" />
		<tag k="name" v="Sørgjerdet" />
		<tag k="place" v="quarter" />
		<tag k="ssr:stedsnr" v="696561" />
	</node>
	<node id="-861037" lat="63.1468388877" lon="9.46185000627">
		<tag k="historic" v="shieling" />
		<tag k="name" v="Bårdshaugslættet" />
		<tag k="place" v="locality" />
		<tag k="ssr:stedsnr" v="89367" />
	</node>
	<node id="-861028" lat="63.0971398871" lon="9.84121303561">
		<tag k="fixme" v="consider place=hamlet" />
		<tag k="name" v="Storbuan" />
		<tag k="place" v="farm" />
		<tag k="ssr:stedsnr" v="437003" />
	</node>
	<node id="-861024" lat="63.1719291009" lon="9.49637647424">
		<tag k="alt_name" v="Kuli" />
		<tag k="fixme" v="consider place=hamlet" />
		<tag k="name" v="Kulia" />
		<tag k="place" v="farm" />
		<tag k="ssr:stedsnr" v="740501" />
	</node>
	<node id="-861135" lat="63.0648777758" lon="9.62365000274">
		<tag k="name" v="Gammelgarden" />
		<tag k="place" v="farm" />
		<tag k="ssr:stedsnr" v="271664" />
	</node>
	<node id="-861018" lat="63.1264916629" lon="9.70741944184">
		<tag k="amenity" v="school" />
		<tag k="name" v="Løkken Verk Montessoriskole" />
		<tag k="ssr:stedsnr" v="727847" />
	</node>
	<node id="-861017" lat="63.0298027813" lon="9.6905666635">
		<tag k="name" v="Holilykkja" />
		<tag k="place" v="farm" />
		<tag k="ssr:stedsnr" v="497313" />
	</node>
	<node id="-861009" lat="62.9711888897" lon="9.69920555645">
		<tag k="historic" v="shieling" />
		<tag k="name" v="Tørrløkkja" />
		<tag k="place" v="locality" />
		<tag k="ssr:stedsnr" v="618124" />
	</node>
	<node id="-859960" lat="63.0118694449" lon="9.80450277098">
		<tag k="historic" v="shieling" />
		<tag k="name" v="Flyttan" />
		<tag k="place" v="locality" />
		<tag k="ssr:stedsnr" v="740649" />
	</node>
	<node id="-861004" lat="63.1029384888" lon="9.86919486704">
		<tag k="fixme" v="consider place=hamlet" />
		<tag k="name" v="Litjbuan" />
		<tag k="place" v="farm" />
		<tag k="ssr:stedsnr" v="437002" />
	</node>
	<node id="-860997" lat="63.1149305582" lon="9.6163638949">
		<tag k="name" v="Saggjerdet" />
		<tag k="place" v="farm" />
		<tag k="ssr:stedsnr" v="393578" />
	</node>
	<node id="-860991" lat="62.9363666648" lon="9.46796388962">
		<tag k="name" v="Sausætra" />
		<tag k="place" v="isolated_dwelling" />
		<tag k="ssr:stedsnr" v="740226" />
	</node>
	<node id="-860980" lat="63.0987250024" lon="9.55469999606">
		<tag k="name" v="Råen" />
		<tag k="place" v="farm" />
		<tag k="ssr:stedsnr" v="12442" />
	</node>
	<node id="-860967" lat="63.0617055529" lon="9.84896388151">
		<tag k="historic" v="shieling" />
		<tag k="name" v="Ofstosætra" />
		<tag k="place" v="locality" />
		<tag k="ssr:stedsnr" v="817717" />
	</node>
	<node id="-860953" lat="63.0519839389" lon="9.44934930781">
		<tag k="fixme" v="consider place=hamlet" />
		<tag k="name" v="Snausen" />
		<tag k="place" v="farm" />
		<tag k="ssr:stedsnr" v="972309" />
	</node>
	<node id="-860949" lat="63.1450250038" lon="9.63320278369">
		<tag k="name" v="Helliaunet" />
		<tag k="place" v="isolated_dwelling" />
		<tag k="ssr:stedsnr" v="133506" />
	</node>
	<node id="-860947" lat="63.027661112" lon="9.91636388651">
		<tag k="historic" v="shieling" />
		<tag k="name" v="Stavåbakken" />
		<tag k="place" v="locality" />
		<tag k="ssr:stedsnr" v="878633" />
	</node>
	<node id="-860940" lat="62.9318527823" lon="9.60706943789">
		<tag k="name" v="Vollasvartbekksætra" />
		<tag k="place" v="isolated_dwelling" />
		<tag k="ssr:stedsnr" v="679206" />
	</node>
	<node id="-860933" lat="63.0249871098" lon="9.7334036899">
		<tag k="fixme" v="consider place=hamlet" />
		<tag k="name" v="Brekka" />
		<tag k="place" v="farm" />
		<tag k="ssr:stedsnr" v="12688" />
	</node>
	<node id="-860931" lat="63.0935305537" lon="9.72549445287">
		<tag k="name" v="Skarålia" />
		<tag k="place" v="farm" />
		<tag k="ssr:stedsnr" v="133509" />
	</node>
	<node id="-860929" lat="63.141402782" lon="9.50476665941">
		<tag k="historic" v="shieling" />
		<tag k="name" v="Drogsetsætra" />
		<tag k="place" v="locality" />
		<tag k="ssr:stedsnr" v="150374" />
	</node>
	<node id="-860926" lat="62.9639822082" lon="9.67331868416">
		<tag k="historic" v="shieling" />
		<tag k="name" v="Grytbakksætra" />
		<tag k="place" v="locality" />
		<tag k="ssr:stedsnr" v="315138" />
	</node>
	<node id="-860913" lat="62.9731388846" lon="9.56194722572">
		<tag k="name" v="Ryssætra" />
		<tag k="place" v="isolated_dwelling" />
		<tag k="ssr:stedsnr" v="315136" />
	</node>
	<node id="-859602" lat="62.9212694441" lon="9.54186666883">
		<tag k="historic" v="shieling" />
		<tag k="name" v="Ågjerdjøldalen" />
		<tag k="place" v="locality" />
		<tag k="ssr:stedsnr" v="211517" />
	</node>
	<node id="-860902" lat="63.0099805592" lon="9.92810554978">
		<tag k="historic" v="shieling" />
		<tag k="name" v="Gammelsætrin" />
		<tag k="place" v="locality" />
		<tag k="ssr:stedsnr" v="574354" />
	</node>
	<node id="-860899" lat="63.0180111137" lon="9.99276388759">
		<tag k="fixme" v="consider tourism=alpine_hut or tourism=chalet" />
		<tag k="name" v="Holsjøkoia" />
		<tag k="ssr:stedsnr" v="605217" />
		<tag k="tourism" v="wilderness_hut" />
	</node>
	<node id="-860894" lat="63.1360888847" lon="9.76986945212">
		<tag k="name" v="Pettershåggån" />
		<tag k="place" v="locality" />
		<tag k="ssr:stedsnr" v="211276" />
	</node>
	<node id="-860890" lat="63.0664694423" lon="9.97468888085">
		<tag k="fixme" v="consider place=hamlet" />
		<tag k="name" v="Djupli" />
		<tag k="place" v="farm" />
		<tag k="ssr:stedsnr" v="194572" />
	</node>
	<node id="-860888" lat="62.9478265092" lon="9.67123008822">
		<tag k="fixme" v="consider place=hamlet" />
		<tag k="name" v="Druggudalen" />
		<tag k="place" v="farm" />
		<tag k="ssr:stedsnr" v="619178" />
	</node>
	<node id="-860886" lat="63.1376083346" lon="9.76886944455">
		<tag k="name" v="Tjønnåsen" />
		<tag k="place" v="locality" />
		<tag k="ssr:stedsnr" v="211277" />
	</node>
	<node id="-860885" lat="63.1243777751" lon="9.67064721573">
		<tag k="name" v="Tømmermannsrommet" />
		<tag k="place" v="locality" />
		<tag k="ssr:stedsnr" v="211705" />
	</node>
	<node id="-860881" lat="63.106777778" lon="9.69090555934">
		<tag k="name" v="Røttereng" />
		<tag k="place" v="farm" />
		<tag k="ssr:stedsnr" v="376486" />
	</node>
	<node id="-860868" lat="62.9584249956" lon="9.54204721991">
		<tag k="name" v="Langlivollen" />
		<tag k="place" v="isolated_dwelling" />
		<tag k="ssr:stedsnr" v="939519" />
	</node>
	<node id="-860855" lat="63.1026138884" lon="9.71383055966">
		<tag k="alt_name" v="Sagvollan" />
		<tag k="name" v="Sagvollen" />
		<tag k="place" v="farm" />
		<tag k="ssr:stedsnr" v="741533" />
	</node>
	<node id="-861982" lat="63.0121416639" lon="9.74059722881">
		<tag k="name" v="Lundahåggån" />
		<tag k="place" v="farm" />
		<tag k="ssr:stedsnr" v="558688" />
	</node>
	<node id="-860838" lat="63.062601928" lon="9.95707268789">
		<tag k="historic" v="shieling" />
		<tag k="name" v="Bastiansætra" />
		<tag k="place" v="locality" />
		<tag k="ssr:stedsnr" v="194570" />
	</node>
	<node id="-860836" lat="63.0212990407" lon="9.96275120349">
		<tag k="historic" v="shieling" />
		<tag k="name" v="Raudåsen" />
		<tag k="place" v="locality" />
		<tag k="ssr:stedsnr" v="757373" />
	</node>
	<node id="-860821" lat="63.1521320058" lon="9.71217963046">
		<tag k="fixme" v="multiple name tags, choose one and add the other to alt_name" />
		<tag k="name" v="Langengen;Skjøtskift" />
		<tag k="place" v="farm" />
		<tag k="ssr:stedsnr" v="133500" />
	</node>
	<node id="-860807" lat="63.0613055557" lon="9.91880556392">
		<tag k="historic" v="shieling" />
		<tag k="name" v="Stokksætrin" />
		<tag k="place" v="locality" />
		<tag k="ssr:stedsnr" v="392729" />
	</node>
	<node id="-860805" lat="62.9562749986" lon="9.57522500162">
		<tag k="historic" v="shieling" />
		<tag k="name" v="Snoenssætra" />
		<tag k="place" v="locality" />
		<tag k="ssr:stedsnr" v="12157" />
	</node>
	<node id="-860800" lat="62.9811555556" lon="9.78754165971">
		<tag k="name" v="Pålslykkjhåggån" />
		<tag k="place" v="farm" />
		<tag k="ssr:stedsnr" v="558844" />
	</node>
	<node id="-860790" lat="62.9085111104" lon="9.56482221986">
		<tag k="historic" v="shieling" />
		<tag k="name" v="Jølkroken" />
		<tag k="place" v="locality" />
		<tag k="ssr:stedsnr" v="437262" />
	</node>
	<node id="-860787" lat="63.1403666638" lon="9.83121111688">
		<tag k="name" v="Nordre Åmot" />
		<tag k="place" v="farm" />
		<tag k="ssr:stedsnr" v="388528" />
	</node>
	<node id="-860786" lat="63.11724722" lon="9.59159444554">
		<tag k="name" v="Nerrabben" />
		<tag k="place" v="farm" />
		<tag k="ssr:stedsnr" v="878643" />
	</node>
	<node id="-860779" lat="62.9531472187" lon="9.68608611124">
		<tag k="historic" v="shieling" />
		<tag k="name" v="Nystuggusætra" />
		<tag k="place" v="locality" />
		<tag k="ssr:stedsnr" v="271198" />
	</node>
	<node id="-861287" lat="63.0793499972" lon="9.83443887925">
		<tag k="historic" v="shieling" />
		<tag k="name" v="Grønvollen" />
		<tag k="place" v="locality" />
		<tag k="ssr:stedsnr" v="680580" />
	</node>
	<node id="-860776" lat="63.1532861124" lon="9.46117499894">
		<tag k="name" v="Høglisætra" />
		<tag k="place" v="isolated_dwelling" />
		<tag k="ssr:stedsnr" v="255501" />
	</node>
	<node id="-860758" lat="62.9821479514" lon="9.52324401276">
		<tag k="name" v="Vålåskaret" />
		<tag k="place" v="hamlet" />
		<tag k="ssr:stedsnr" v="972243" />
	</node>
	<node id="-860753" lat="63.0642914654" lon="9.62596867255">
		<tag k="alt_name" v="Mosbrunn;Mosbrynd;Fossen" />
		<tag k="name" v="Mosbronn" />
		<tag k="place" v="farm" />
		<tag k="ssr:stedsnr" v="965619" />
	</node>
	<node id="-860742" lat="63.0192014359" lon="9.7510074642">
		<tag k="fixme" v="consider place=hamlet" />
		<tag k="name" v="Sølberg" />
		<tag k="place" v="farm" />
		<tag k="ssr:stedsnr" v="963386" />
	</node>
	<node id="-860738" lat="62.8572666666" lon="9.46731389632">
		<tag k="name" v="Hosetsætra" />
		<tag k="place" v="isolated_dwelling" />
		<tag k="ssr:stedsnr" v="498850" />
	</node>
	<node id="-860737" lat="63.1126935905" lon="9.63730029228">
		<tag k="alt_name" v="Damli;Smihaugen" />
		<tag k="name" v="Damlia" />
		<tag k="place" v="farm" />
		<tag k="ssr:stedsnr" v="741508" />
	</node>
	<node id="-860736" lat="63.1727052845" lon="9.47590896176">
		<tag k="fixme" v="consider place=hamlet" />
		<tag k="name" v="Stuppelvika" />
		<tag k="place" v="farm" />
		<tag k="ssr:stedsnr" v="73547" />
	</node>
	<node id="-860719" lat="63.0478277813" lon="9.65275833479">
		<tag k="historic" v="shieling" />
		<tag k="name" v="Dulusætra" />
		<tag k="place" v="locality" />
		<tag k="ssr:stedsnr" v="271178" />
	</node>
	<node id="-860716" lat="63.1400638923" lon="9.63210277885">
		<tag k="fixme" v="consider place=hamlet" />
		<tag k="name" v="Hellia" />
		<tag k="place" v="farm" />
		<tag k="ssr:stedsnr" v="498588" />
	</node>
	<node id="-860714" lat="62.9866388897" lon="9.78107777569">
		<tag k="name" v="Bjørkteigen" />
		<tag k="place" v="farm" />
		<tag k="ssr:stedsnr" v="801744" />
	</node>
	<node id="-860709" lat="63.0394888906" lon="9.9583055534">
		<tag k="historic" v="shieling" />
		<tag k="name" v="Oppigardssætra" />
		<tag k="place" v="locality" />
		<tag k="ssr:stedsnr" v="817648" />
	</node>
	<node id="-860706" lat="63.1413805555" lon="9.46840278691">
		<tag k="historic" v="shieling" />
		<tag k="name" v="Druglisætra" />
		<tag k="place" v="locality" />
		<tag k="ssr:stedsnr" v="133488" />
	</node>
	<node id="-860705" lat="63.0043460493" lon="9.74512464756">
		<tag k="name" v="Lund" />
		<tag k="place" v="hamlet" />
		<tag k="ssr:stedsnr" v="923669" />
	</node>
	<node id="-860693" lat="62.9832305515" lon="9.52299443548">
		<tag k="name" v="Tørhaugen" />
		<tag k="place" v="isolated_dwelling" />
		<tag k="ssr:stedsnr" v="939486" />
	</node>
	<node id="-860690" lat="63.1181416669" lon="9.82209165764">
		<tag k="name" v="Øya" />
		<tag k="place" v="locality" />
		<tag k="ssr:stedsnr" v="574333" />
	</node>
	<node id="-860687" lat="63.1310083309" lon="9.67503610452">
		<tag k="fixme" v="consider tourism=alpine_hut or tourism=chalet" />
		<tag k="name" v="Granastuggu" />
		<tag k="ssr:stedsnr" v="89732" />
		<tag k="tourism" v="wilderness_hut" />
	</node>
	<node id="-860665" lat="62.9461611111" lon="9.51638056028">
		<tag k="name" v="Hattan" />
		<tag k="place" v="isolated_dwelling" />
		<tag k="ssr:stedsnr" v="679196" />
	</node>
	<node id="-860664" lat="63.0181063146" lon="9.75281043216">
		<tag k="name" v="Sølberg" />
		<tag k="place" v="hamlet" />
		<tag k="ssr:stedsnr" v="12666" />
	</node>
	<node id="-860657" lat="62.9534361101" lon="9.63450277354">
		<tag k="historic" v="shieling" />
		<tag k="name" v="Osplisætra" />
		<tag k="place" v="locality" />
		<tag k="ssr:stedsnr" v="619175" />
	</node>
	<node id="-860653" lat="63.1225500034" lon="9.79654167115">
		<tag k="name" v="Bjørkhaugen" />
		<tag k="place" v="locality" />
		<tag k="ssr:stedsnr" v="29312" />
	</node>
	<node id="-860652" lat="62.9555242536" lon="9.69297813049">
		<tag k="historic" v="shieling" />
		<tag k="name" v="Lyngsætra" />
		<tag k="place" v="locality" />
		<tag k="ssr:stedsnr" v="437241" />
	</node>
	<node id="-860650" lat="63.1322305597" lon="9.67272222328">
		<tag k="name" v="Nordhåggån" />
		<tag k="place" v="quarter" />
		<tag k="ssr:stedsnr" v="211670" />
	</node>
	<node id="-860241" lat="63.0970176809" lon="9.58323047332">
		<tag k="name" v="Storås" />
		<tag k="place" v="hamlet" />
		<tag k="ssr:stedsnr" v="376423" />
	</node>
	<node id="-860643" lat="63.0102555595" lon="9.81379999086">
		<tag k="name" v="Bergenget" />
		<tag k="place" v="isolated_dwelling" />
		<tag k="ssr:stedsnr" v="923684" />
	</node>
	<node id="-860638" lat="63.1669722263" lon="9.55493889083">
		<tag k="name" v="Sollihaugen" />
		<tag k="place" v="isolated_dwelling" />
		<tag k="ssr:stedsnr" v="514306" />
	</node>
	<node id="-860631" lat="63.0407611115" lon="9.70735555225">
		<tag k="name" v="Kolmoen" />
		<tag k="place" v="locality" />
		<tag k="ssr:stedsnr" v="635425" />
	</node>
	<node id="-859897" lat="62.9394083366" lon="9.53830555186">
		<tag k="historic" v="shieling" />
		<tag k="name" v="Gravura" />
		<tag k="place" v="locality" />
		<tag k="ssr:stedsnr" v="497206" />
	</node>
	<node id="-860625" lat="63.0097907342" lon="9.88315439108">
		<tag k="historic" v="shieling" />
		<tag k="name" v="Gammelslåtta" />
		<tag k="place" v="locality" />
		<tag k="ssr:stedsnr" v="757350" />
	</node>
	<node id="-860622" lat="63.1049349044" lon="9.75167993354">
		<tag k="name" v="Høydalen" />
		<tag k="place" v="hamlet" />
		<tag k="ssr:stedsnr" v="194015" />
	</node>
	<node id="-860618" lat="62.9216138897" lon="9.46130833129">
		<tag k="name" v="Krokasætra" />
		<tag k="place" v="isolated_dwelling" />
		<tag k="ssr:stedsnr" v="801223" />
	</node>
	<node id="-860617" lat="63.1251603217" lon="9.62407890836">
		<tag k="fixme" v="consider place=hamlet" />
		<tag k="name" v="Moen" />
		<tag k="place" v="farm" />
		<tag k="ssr:stedsnr" v="740473" />
	</node>
	<node id="-860611" lat="62.9442652682" lon="9.6234255055">
		<tag k="name" v="Samskottsvartbekken" />
		<tag k="place" v="locality" />
		<tag k="ssr:stedsnr" v="133199" />
	</node>
	<node id="-860610" lat="63.1660624699" lon="9.5237363809">
		<tag k="fixme" v="consider place=hamlet" />
		<tag k="name" v="Blakkstadlia" />
		<tag k="place" v="farm" />
		<tag k="ssr:stedsnr" v="801501" />
	</node>
	<node id="-860371" lat="63.1044777815" lon="9.57799722813">
		<tag k="leisure" v="pitch" />
		<tag k="name" v="Litlåsen lysløype" />
		<tag k="ssr:stedsnr" v="40597" />
	</node>
	<node id="-860601" lat="63.142366664" lon="9.5766805477">
		<tag k="name" v="Vinterdalshytta" />
		<tag k="place" v="isolated_dwelling" />
		<tag k="ssr:stedsnr" v="150325" />
	</node>
	<node id="-860600" lat="63.0841941101" lon="9.60478214747">
		<tag k="fixme" v="consider place=hamlet" />
		<tag k="name" v="Lykkja" />
		<tag k="place" v="farm" />
		<tag k="ssr:stedsnr" v="12407" />
	</node>
	<node id="-860584" lat="63.0317083309" lon="9.66289166278">
		<tag k="historic" v="shieling" />
		<tag k="name" v="Nordgardssætra" />
		<tag k="place" v="locality" />
		<tag k="ssr:stedsnr" v="878207" />
	</node>
	<node id="-860580" lat="62.9815598195" lon="9.65939260285">
		<tag k="fixme" v="multiple name tags, choose one and add the other to alt_name" />
		<tag k="historic" v="shieling" />
		<tag k="name" v="Moasætra;Uvøysætra" />
		<tag k="place" v="locality" />
		<tag k="ssr:stedsnr" v="923162" />
	</node>
	<node id="-860560" lat="62.9878442889" lon="9.76512225158">
		<tag k="name" v="Stene" />
		<tag k="place" v="farm" />
		<tag k="ssr:stedsnr" v="727046" />
	</node>
	<node id="-860559" lat="62.9645277752" lon="9.63450834167">
		<tag k="name" v="Kjølstuggu" />
		<tag k="place" v="locality" />
		<tag k="ssr:stedsnr" v="271155" />
	</node>
	<node id="-860558" lat="63.044585856" lon="9.69923370446">
		<tag k="fixme" v="consider place=hamlet" />
		<tag k="name" v="Volløyan" />
		<tag k="place" v="farm" />
		<tag k="ssr:stedsnr" v="922337" />
	</node>
	<node id="-859885" lat="63.0343349899" lon="9.70279692597">
		<tag k="name" v="Systad" />
		<tag k="place" v="hamlet" />
		<tag k="ssr:stedsnr" v="571129" />
	</node>
	<node id="-860556" lat="63.0213027753" lon="9.70731111915">
		<tag k="fixme" v="consider place=hamlet" />
		<tag k="name" v="Hillstad" />
		<tag k="place" v="farm" />
		<tag k="ssr:stedsnr" v="89706" />
	</node>
	<node id="-860555" lat="63.1405111124" lon="9.83996111251">
		<tag k="name" v="Åmotsbakken" />
		<tag k="place" v="farm" />
		<tag k="ssr:stedsnr" v="332676" />
	</node>
	<node id="-860548" lat="63.1210194417" lon="9.5006666703">
		<tag k="name" v="Espåssætra" />
		<tag k="place" v="isolated_dwelling" />
		<tag k="ssr:stedsnr" v="801479" />
	</node>
	<node id="-860539" lat="62.9522555551" lon="9.68316110958">
		<tag k="historic" v="shieling" />
		<tag k="name" v="Druggubakken" />
		<tag k="place" v="locality" />
		<tag k="ssr:stedsnr" v="133195" />
	</node>
	<node id="-860535" lat="63.0883241361" lon="9.93662271916">
		<tag k="fixme" v="consider place=hamlet" />
		<tag k="name" v="Litlnæve" />
		<tag k="place" v="farm" />
		<tag k="ssr:stedsnr" v="133476" />
	</node>
	<node id="-860534" lat="63.1228027822" lon="9.6003138898">
		<tag k="name" v="Druglihaugen (nedl.)" />
		<tag k="place" v="locality" />
		<tag k="ssr:stedsnr" v="574300" />
	</node>
	<node id="-860528" lat="63.047912912" lon="9.7091090349">
		<tag k="name" v="Grefstad" />
		<tag k="place" v="hamlet" />
		<tag k="ssr:stedsnr" v="211659" />
	</node>
	<node id="-860520" lat="63.0655277815" lon="9.61197777734">
		<tag k="name" v="Halsgjerdhaugen" />
		<tag k="place" v="farm" />
		<tag k="ssr:stedsnr" v="938220" />
	</node>
	<node id="-860519" lat="63.110946417" lon="9.61333528438">
		<tag k="fixme" v="consider place=hamlet" />
		<tag k="name" v="Granmoen" />
		<tag k="place" v="farm" />
		<tag k="ssr:stedsnr" v="376452" />
	</node>
	<node id="-860515" lat="63.0113111103" lon="9.73164999566">
		<tag k="name" v="Rønningen" />
		<tag k="place" v="farm" />
		<tag k="ssr:stedsnr" v="332684" />
	</node>
	<node id="-860514" lat="63.0843361118" lon="9.63642778126">
		<tag k="name" v="Storlauva" />
		<tag k="place" v="farm" />
		<tag k="ssr:stedsnr" v="211650" />
	</node>
	<node id="-860512" lat="63.1684300828" lon="9.53025104878">
		<tag k="alt_name" v="Blakstad" />
		<tag k="fixme" v="consider place=hamlet" />
		<tag k="name" v="Blakkstad" />
		<tag k="place" v="farm" />
		<tag k="ssr:stedsnr" v="498571" />
	</node>
	<node id="-860777" lat="63.016100002" lon="9.78953055552">
		<tag k="name" v="Lundaslåtta" />
		<tag k="place" v="isolated_dwelling" />
		<tag k="ssr:stedsnr" v="818064" />
	</node>
	<node id="-860507" lat="63.0923944477" lon="9.69603889463">
		<tag k="name" v="Varsmoen" />
		<tag k="place" v="farm" />
		<tag k="ssr:stedsnr" v="211649" />
	</node>
	<node id="-860505" lat="63.0739777746" lon="9.87490000769">
		<tag k="historic" v="shieling" />
		<tag k="name" v="Nyplassen" />
		<tag k="place" v="locality" />
		<tag k="ssr:stedsnr" v="498572" />
	</node>
	<node id="-860494" lat="63.057665798" lon="9.67589520881">
		<tag k="fixme" v="consider place=hamlet" />
		<tag k="name" v="Reberg" />
		<tag k="place" v="farm" />
		<tag k="ssr:stedsnr" v="923394" />
	</node>
	<node id="-860557" lat="63.0996861123" lon="9.81765000449">
		<tag k="name" v="Villaen" />
		<tag k="place" v="isolated_dwelling" />
		<tag k="ssr:stedsnr" v="211658" />
	</node>
	<node id="-860490" lat="63.0851305564" lon="9.63914166561">
		<tag k="name" v="Henningshåggån" />
		<tag k="place" v="isolated_dwelling" />
		<tag k="ssr:stedsnr" v="453230" />
	</node>
	<node id="-860215" lat="63.0526694485" lon="9.69672222274">
		<tag k="fixme" v="consider place=hamlet" />
		<tag k="name" v="Kalstad" />
		<tag k="place" v="farm" />
		<tag k="ssr:stedsnr" v="211611" />
	</node>
	<node id="-860487" lat="62.9914325066" lon="9.73085882975">
		<tag k="fixme" v="consider place=hamlet" />
		<tag k="name" v="Øverøyan" />
		<tag k="place" v="farm" />
		<tag k="ssr:stedsnr" v="558821" />
	</node>
	<node id="-860481" lat="63.1161666624" lon="9.63253610735">
		<tag k="name" v="Damlilia" />
		<tag k="place" v="isolated_dwelling" />
		<tag k="ssr:stedsnr" v="376451" />
	</node>
	<node id="-859870" lat="62.9674750028" lon="9.54600277872">
		<tag k="historic" v="shieling" />
		<tag k="name" v="Krokbekksætra" />
		<tag k="place" v="locality" />
		<tag k="ssr:stedsnr" v="376135" />
	</node>
	<node id="-860466" lat="63.0862138887" lon="9.69309443917">
		<tag k="historic" v="shieling" />
		<tag k="name" v="Djupa" />
		<tag k="place" v="locality" />
		<tag k="ssr:stedsnr" v="211214" />
	</node>
	<node id="-860464" lat="63.0165471959" lon="9.75485585597">
		<tag k="fixme" v="consider place=hamlet" />
		<tag k="name" v="Sølberg" />
		<tag k="place" v="farm" />
		<tag k="ssr:stedsnr" v="89695" />
	</node>
	<node id="-860463" lat="62.9813722257" lon="9.91676667593">
		<tag k="historic" v="shieling" />
		<tag k="name" v="Fjellvollen" />
		<tag k="place" v="locality" />
		<tag k="ssr:stedsnr" v="574699" />
	</node>
	<node id="-860461" lat="63.0151916681" lon="9.75636111787">
		<tag k="name" v="Bergekra" />
		<tag k="place" v="farm" />
		<tag k="ssr:stedsnr" v="211643" />
	</node>
	<node id="-861730" lat="63.0634543664" lon="9.62934924024">
		<tag k="fixme" v="consider place=hamlet" />
		<tag k="name" v="Hove" />
		<tag k="place" v="farm" />
		<tag k="ssr:stedsnr" v="73366" />
	</node>
	<node id="-860453" lat="63.0681111111" lon="9.611588879">
		<tag k="alt_name" v="Fossen" />
		<tag k="name" v="Mosbronn" />
		<tag k="place" v="farm" />
		<tag k="ssr:stedsnr" v="116618" />
	</node>
	<node id="-860443" lat="63.0058749993" lon="9.79965833718">
		<tag k="name" v="Sandøyan" />
		<tag k="place" v="locality" />
		<tag k="ssr:stedsnr" v="923668" />
	</node>
	<node id="-860442" lat="62.9824345203" lon="9.77420785742">
		<tag k="name" v="Grut" />
		<tag k="place" v="hamlet" />
		<tag k="ssr:stedsnr" v="558809" />
	</node>
	<node id="-860440" lat="62.984368502" lon="9.73748203836">
		<tag k="name" v="Å" />
		<tag k="place" v="hamlet" />
		<tag k="ssr:stedsnr" v="972239" />
	</node>
	<node id="-860439" lat="62.9815916634" lon="9.65808888561">
		<tag k="historic" v="shieling" />
		<tag k="name" v="Otlsætra" />
		<tag k="place" v="locality" />
		<tag k="ssr:stedsnr" v="332236" />
	</node>
	<node id="-860436" lat="63.0639444463" lon="9.84873611846">
		<tag k="historic" v="shieling" />
		<tag k="name" v="Ressætra" />
		<tag k="place" v="locality" />
		<tag k="ssr:stedsnr" v="514699" />
	</node>
	<node id="-860424" lat="63.064453189" lon="9.62623817702">
		<tag k="alt_name" v="Mosbrunn" />
		<tag k="fixme" v="consider place=hamlet" />
		<tag k="name" v="Mosbronn" />
		<tag k="place" v="farm" />
		<tag k="ssr:stedsnr" v="574291" />
	</node>
	<node id="-860409" lat="63.0527076035" lon="9.88171376522">
		<tag k="name" v="Holet" />
		<tag k="place" v="farm" />
		<tag k="ssr:stedsnr" v="574706" />
	</node>
	<node id="-862447" lat="63.0600694465" lon="9.93354444222">
		<tag k="historic" v="shieling" />
		<tag k="name" v="Stokksætrin" />
		<tag k="place" v="locality" />
		<tag k="ssr:stedsnr" v="376609" />
	</node>
	<node id="-862446" lat="63.0637707787" lon="9.60736706247">
		<tag k="fixme" v="consider place=hamlet" />
		<tag k="name" v="Halsgjerd" />
		<tag k="place" v="farm" />
		<tag k="ssr:stedsnr" v="437415" />
	</node>
	<node id="-862445" lat="63.0732861132" lon="9.8042611055">
		<tag k="historic" v="shieling" />
		<tag k="name" v="Grefstosætra" />
		<tag k="place" v="locality" />
		<tag k="ssr:stedsnr" v="211496" />
	</node>
	<node id="-862441" lat="63.0537222259" lon="9.7071805618">
		<tag k="fixme" v="consider place=hamlet" />
		<tag k="name" v="Berg" />
		<tag k="place" v="farm" />
		<tag k="ssr:stedsnr" v="635642" />
	</node>
	<node id="-860391" lat="63.1119777768" lon="9.59012499382">
		<tag k="name" v="Rønningshåggån" />
		<tag k="place" v="locality" />
		<tag k="ssr:stedsnr" v="89283" />
	</node>
	<node id="-862438" lat="63.0725305568" lon="9.62331944401">
		<tag k="building" v="industrial" />
		<tag k="name" v="Meldal gjenbrukstorg" />
		<tag k="ssr:stedsnr" v="100564" />
	</node>
	<node id="-862434" lat="63.0730493404" lon="9.60627502082">
		<tag k="fixme" v="consider place=hamlet" />
		<tag k="name" v="Solem" />
		<tag k="place" v="farm" />
		<tag k="ssr:stedsnr" v="679344" />
	</node>
	<node id="-862432" lat="63.0477583339" lon="9.71353333953">
		<tag k="name" v="Flotten" />
		<tag k="place" v="farm" />
		<tag k="ssr:stedsnr" v="818698" />
	</node>
	<node id="-862431" lat="63.0812583317" lon="9.70008055736">
		<tag k="name" v="Midtskogen" />
		<tag k="place" v="farm" />
		<tag k="ssr:stedsnr" v="558456" />
	</node>
	<node id="-862428" lat="63.0200333349" lon="9.74569444031">
		<tag k="name" v="Ofstohåggån" />
		<tag k="place" v="locality" />
		<tag k="ssr:stedsnr" v="453473" />
	</node>
	<node id="-862427" lat="63.111938891" lon="9.69902221393">
		<tag k="name" v="Løvli" />
		<tag k="place" v="farm" />
		<tag k="ssr:stedsnr" v="696727" />
	</node>
	<node id="-860377" lat="63.1227526708" lon="9.68533051942">
		<tag k="leisure" v="pitch" />
		<tag k="name" v="Orkla motorsenter" />
		<tag k="ssr:stedsnr" v="40598" />
	</node>
	<node id="-860376" lat="63.0745777782" lon="9.79006110524">
		<tag k="historic" v="shieling" />
		<tag k="name" v="Oppigardssætra" />
		<tag k="place" v="locality" />
		<tag k="ssr:stedsnr" v="878560" />
	</node>
	<node id="-860372" lat="63.0666055564" lon="9.91289444069">
		<tag k="historic" v="shieling" />
		<tag k="name" v="Klipåsen" />
		<tag k="old_name" v="Steinsåsen;Stenåsen" />
		<tag k="place" v="locality" />
		<tag k="ssr:stedsnr" v="923640" />
	</node>
	<node id="-862419" lat="62.9392888917" lon="9.53856389671">
		<tag k="historic" v="shieling" />
		<tag k="name" v="Gravora" />
		<tag k="place" v="locality" />
		<tag k="ssr:stedsnr" v="453478" />
	</node>
	<node id="-860368" lat="63.1316888921" lon="9.84996110464">
		<tag k="name" v="Åmotshåggån" />
		<tag k="place" v="farm" />
		<tag k="ssr:stedsnr" v="514684" />
	</node>
	<node id="-860367" lat="62.9867722186" lon="9.74646945335">
		<tag k="fixme" v="consider place=suburb, village or hamlet" />
		<tag k="name" v="Fossmoan" />
		<tag k="place" v="quarter" />
		<tag k="ssr:stedsnr" v="271129" />
	</node>
	<node id="-862414" lat="63.1045361078" lon="9.66444444118">
		<tag k="name" v="Røslykkja" />
		<tag k="place" v="farm" />
		<tag k="ssr:stedsnr" v="862459" />
	</node>
	<node id="-860365" lat="62.9498333362" lon="9.56700000986">
		<tag k="historic" v="shieling" />
		<tag k="name" v="Gravurvollen" />
		<tag k="place" v="locality" />
		<tag k="ssr:stedsnr" v="740149" />
	</node>
	<node id="-860364" lat="63.1325420342" lon="9.61888710919">
		<tag k="fixme" v="consider place=hamlet" />
		<tag k="name" v="Suggustad" />
		<tag k="place" v="farm" />
		<tag k="ssr:stedsnr" v="437497" />
	</node>
	<node id="-860363" lat="63.0987842875" lon="9.51174108724">
		<tag k="fixme" v="consider place=hamlet" />
		<tag k="name" v="Skjervøyan" />
		<tag k="place" v="farm" />
		<tag k="ssr:stedsnr" v="12389" />
	</node>
	<node id="-862409" lat="63.0310853854" lon="9.72986811771">
		<tag k="fixme" v="consider place=hamlet" />
		<tag k="name" v="Hollstad" />
		<tag k="place" v="farm" />
		<tag k="ssr:stedsnr" v="818701" />
	</node>
	<node id="-862408" lat="62.9730611094" lon="9.71570833377">
		<tag k="name" v="Bukkstuggu" />
		<tag k="place" v="farm" />
		<tag k="ssr:stedsnr" v="635638" />
	</node>
	<node id="-862401" lat="63.0526388919" lon="9.71039165759">
		<tag k="name" v="Berg" />
		<tag k="place" v="hamlet" />
		<tag k="ssr:stedsnr" v="801366" />
	</node>
	<node id="-862400" lat="63.0471777782" lon="9.7139416758">
		<tag k="alt_name" v="Meldal Sentrum" />
		<tag k="name" v="Meldal" />
		<tag k="place" v="village" />
		<tag k="ssr:stedsnr" v="255370" />
	</node>
	<node id="-860346" lat="63.0759555587" lon="9.60916110862">
		<tag k="name" v="Myrhaugen" />
		<tag k="place" v="farm" />
		<tag k="ssr:stedsnr" v="332653" />
	</node>
	<node id="-860343" lat="62.949397549" lon="9.58760168164">
		<tag k="historic" v="shieling" />
		<tag k="name" v="Hillstosætra" />
		<tag k="old_name" v="Hilstosetra" />
		<tag k="place" v="locality" />
		<tag k="ssr:stedsnr" v="740145" />
	</node>
	<node id="-861897" lat="63.0608555527" lon="9.53446110661">
		<tag k="historic" v="shieling" />
		<tag k="name" v="Hestholtet" />
		<tag k="place" v="locality" />
		<tag k="ssr:stedsnr" v="332463" />
	</node>
	<node id="-860337" lat="63.0196777747" lon="9.89860278454">
		<tag k="name" v="Aurebekkhøylu" />
		<tag k="place" v="isolated_dwelling" />
		<tag k="ssr:stedsnr" v="453604" />
	</node>
	<node id="-862382" lat="63.0754083292" lon="9.80691388079">
		<tag k="historic" v="shieling" />
		<tag k="name" v="Grefstosætra" />
		<tag k="place" v="locality" />
		<tag k="ssr:stedsnr" v="194448" />
	</node>
	<node id="-862381" lat="63.1350888878" lon="9.62886666939">
		<tag k="name" v="Langsetflotten (nedl.)" />
		<tag k="place" v="farm" />
		<tag k="ssr:stedsnr" v="150576" />
	</node>
	<node id="-860331" lat="62.9540777806" lon="9.54264166776">
		<tag k="name" v="Børtnet" />
		<tag k="place" v="isolated_dwelling" />
		<tag k="ssr:stedsnr" v="878563" />
	</node>
	<node id="-860330" lat="62.952805555" lon="9.68634722796">
		<tag k="historic" v="shieling" />
		<tag k="name" v="Åsætra" />
		<tag k="place" v="locality" />
		<tag k="ssr:stedsnr" v="740146" />
	</node>
	<node id="-860328" lat="63.1023611108" lon="9.46201666174">
		<tag k="name" v="Fjelly" />
		<tag k="place" v="farm" />
		<tag k="ssr:stedsnr" v="211622" />
	</node>
	<node id="-862374" lat="63.054980552" lon="9.85134999454">
		<tag k="historic" v="shieling" />
		<tag k="name" v="Snurulisætra" />
		<tag k="place" v="locality" />
		<tag k="ssr:stedsnr" v="376610" />
	</node>
	<node id="-860324" lat="63.0865749986" lon="9.62390555135">
		<tag k="name" v="Litjgryta" />
		<tag k="place" v="isolated_dwelling" />
		<tag k="ssr:stedsnr" v="211195" />
	</node>
	<node id="-860321" lat="63.1258194416" lon="9.70518333145">
		<tag k="name" v="Løkken Verk" />
		<tag k="place" v="village" />
		<tag k="ssr:stedsnr" v="73511" />
	</node>
	<node id="-862368" lat="63.1256388915" lon="9.6703305575">
		<tag k="name" v="Mikkelplassen" />
		<tag k="place" v="locality" />
		<tag k="ssr:stedsnr" v="939722" />
	</node>
	<node id="-862362" lat="63.0863444486" lon="9.63248610834">
		<tag k="name" v="Lo" />
		<tag k="place" v="farm" />
		<tag k="ssr:stedsnr" v="635631" />
	</node>
	<node id="-860311" lat="63.1430250005" lon="9.71623610173">
		<tag k="name" v="Amundmoen" />
		<tag k="place" v="quarter" />
		<tag k="ssr:stedsnr" v="757280" />
	</node>
	<node id="-860309" lat="63.1024111112" lon="9.47761389231">
		<tag k="name" v="Garberg" />
		<tag k="place" v="farm" />
		<tag k="ssr:stedsnr" v="211623" />
	</node>
	<node id="-860308" lat="62.9820307883" lon="9.72717207912">
		<tag k="name" v="Resell" />
		<tag k="place" v="hamlet" />
		<tag k="ssr:stedsnr" v="437759" />
	</node>
	<node id="-860306" lat="63.0989777779" lon="9.44492500196">
		<tag k="fixme" v="consider place=hamlet" />
		<tag k="name" v="Litjholtan" />
		<tag k="place" v="farm" />
		<tag k="ssr:stedsnr" v="211626" />
	</node>
	<node id="-860303" lat="63.0988361083" lon="9.58203888933">
		<tag k="name" v="Korsen" />
		<tag k="place" v="farm" />
		<tag k="ssr:stedsnr" v="332658" />
	</node>
	<node id="-862338" lat="63.0205671212" lon="9.7417490775">
		<tag k="name" v="Ofstad" />
		<tag k="place" v="hamlet" />
		<tag k="ssr:stedsnr" v="73681" />
	</node>
	<node id="-860282" lat="63.0422361096" lon="9.72198611151">
		<tag k="leisure" v="pitch" />
		<tag k="name" v="Kølmoen idrettsanlegg" />
		<tag k="ssr:stedsnr" v="889525" />
	</node>
	<node id="-862329" lat="63.0582555565" lon="9.98358888153">
		<tag k="historic" v="shieling" />
		<tag k="name" v="Djuplilykkja" />
		<tag k="place" v="locality" />
		<tag k="ssr:stedsnr" v="149359" />
	</node>
	<node id="-862326" lat="63.1285861156" lon="9.82538888256">
		<tag k="name" v="Orkla Grube" />
		<tag k="place" v="locality" />
		<tag k="ssr:stedsnr" v="939317" />
	</node>
	<node id="-860277" lat="63.0840194436" lon="9.61493610127">
		<tag k="name" v="Marihåggån" />
		<tag k="place" v="farm" />
		<tag k="ssr:stedsnr" v="89672" />
	</node>
	<node id="-860275" lat="63.1713166684" lon="9.53069444924">
		<tag k="name" v="Berghaugen" />
		<tag k="place" v="farm" />
		<tag k="ssr:stedsnr" v="574669" />
	</node>
	<node id="-862322" lat="63.0628483887" lon="9.6312847824">
		<tag k="fixme" v="consider place=hamlet" />
		<tag k="name" v="Hove" />
		<tag k="place" v="farm" />
		<tag k="ssr:stedsnr" v="757586" />
	</node>
	<node id="-860273" lat="63.1153725157" lon="9.58173678655">
		<tag k="name" v="Svinsåsen" />
		<tag k="place" v="hamlet" />
		<tag k="ssr:stedsnr" v="558524" />
	</node>
	<node id="-862319" lat="62.9590277761" lon="9.61454167608">
		<tag k="historic" v="shieling" />
		<tag k="name" v="Gammelnedgardssætra" />
		<tag k="place" v="locality" />
		<tag k="ssr:stedsnr" v="635235" />
	</node>
	<node id="-860270" lat="63.0768472251" lon="9.60886111011">
		<tag k="name" v="Fosshåggån" />
		<tag k="place" v="farm" />
		<tag k="ssr:stedsnr" v="315355" />
	</node>
	<node id="-860266" lat="63.044344442" lon="9.98648610276">
		<tag k="historic" v="shieling" />
		<tag k="name" v="Skårvollan" />
		<tag k="place" v="locality" />
		<tag k="ssr:stedsnr" v="635373" />
	</node>
	<node id="-860258" lat="63.108033272" lon="9.68040521144">
		<tag k="fixme" v="consider place=hamlet" />
		<tag k="name" v="Snuruåsen" />
		<tag k="place" v="farm" />
		<tag k="ssr:stedsnr" v="255450" />
	</node>
	<node id="-860257" lat="63.1394333345" lon="9.83713611225">
		<tag k="name" v="Søre Åmot" />
		<tag k="place" v="farm" />
		<tag k="ssr:stedsnr" v="935556" />
	</node>
	<node id="-860254" lat="63.1240241332" lon="9.80189136208">
		<tag k="name" v="Urvassbua" />
		<tag k="old_name" v="Urvatnet" />
		<tag k="place" v="locality" />
		<tag k="ssr:stedsnr" v="757294" />
	</node>
	<node id="-860251" lat="63.1176719037" lon="9.70049821428">
		<tag k="name" v="Laushus" />
		<tag k="place" v="hamlet" />
		<tag k="ssr:stedsnr" v="150702" />
	</node>
	<node id="-860247" lat="62.9812361089" lon="9.74126667233">
		<tag k="name" v="Lyngen" />
		<tag k="place" v="farm" />
		<tag k="ssr:stedsnr" v="332639" />
	</node>
	<node id="-860245" lat="63.0781861123" lon="9.5919833358">
		<tag k="historic" v="shieling" />
		<tag k="name" v="Solemsrønningen" />
		<tag k="place" v="locality" />
		<tag k="ssr:stedsnr" v="514253" />
	</node>
	<node id="-860242" lat="63.0753736615" lon="9.86768463595">
		<tag k="fixme" v="consider place=hamlet" />
		<tag k="name" v="Haugen" />
		<tag k="place" v="farm" />
		<tag k="ssr:stedsnr" v="972223" />
	</node>
	<node id="-862289" lat="63.056775003" lon="9.54073055087">
		<tag k="name" v="Solemssætra" />
		<tag k="place" v="isolated_dwelling" />
		<tag k="ssr:stedsnr" v="680398" />
	</node>
	<node id="-860240" lat="63.0946499974" lon="9.59944999278">
		<tag k="name" v="Brubakkhåggån" />
		<tag k="place" v="farm" />
		<tag k="ssr:stedsnr" v="89673" />
	</node>
	<node id="-860238" lat="63.0141805537" lon="9.85146110765">
		<tag k="historic" v="shieling" />
		<tag k="name" v="Fjellet" />
		<tag k="place" v="locality" />
		<tag k="ssr:stedsnr" v="376682" />
	</node>
	<node id="-862221" lat="63.1184000037" lon="9.61175276969">
		<tag k="fixme" v="consider place=suburb, village or hamlet" />
		<tag k="name" v="Drogsetmoen" />
		<tag k="place" v="quarter" />
		<tag k="ssr:stedsnr" v="194438" />
	</node>
	<node id="-862284" lat="63.1290305555" lon="9.70709999813">
		<tag k="name" v="Stensmoen" />
		<tag k="place" v="farm" />
		<tag k="ssr:stedsnr" v="150563" />
	</node>
	<node id="-860235" lat="63.0468429283" lon="9.71961347776">
		<tag k="fixme" v="consider place=hamlet" />
		<tag k="name" v="Meldal prestegård" />
		<tag k="place" v="farm" />
		<tag k="ssr:stedsnr" v="972231" />
	</node>
	<node id="-860233" lat="63.0498748882" lon="9.71021541126">
		<tag k="fixme" v="consider place=hamlet" />
		<tag k="name" v="Bakken" />
		<tag k="place" v="farm" />
		<tag k="ssr:stedsnr" v="972230" />
	</node>
	<node id="-862279" lat="63.0143777792" lon="9.87106389571">
		<tag k="historic" v="shieling" />
		<tag k="name" v="Jamtslættet" />
		<tag k="old_name" v="Jamtslettet" />
		<tag k="place" v="locality" />
		<tag k="ssr:stedsnr" v="73673" />
	</node>
	<node id="-860230" lat="63.1061055555" lon="9.70242778551">
		<tag k="leisure" v="pitch" />
		<tag k="name" v="Løkken lysløypeanlegg" />
		<tag k="ssr:stedsnr" v="222534" />
	</node>
	<node id="-860226" lat="63.1522224104" lon="9.47350085793">
		<tag k="fixme" v="consider place=hamlet" />
		<tag k="name" v="Morka" />
		<tag k="place" v="farm" />
		<tag k="ssr:stedsnr" v="635368" />
	</node>
	<node id="-860223" lat="62.9769500031" lon="9.72301944822">
		<tag k="name" v="Resellmoen" />
		<tag k="place" v="farm" />
		<tag k="ssr:stedsnr" v="89662" />
	</node>
	<node id="-860216" lat="63.0958916625" lon="9.69593888717">
		<tag k="name" v="Skarpmoen" />
		<tag k="place" v="farm" />
		<tag k="ssr:stedsnr" v="89668" />
	</node>
	<node id="-862263" lat="63.066297224" lon="9.82994167325">
		<tag k="historic" v="shieling" />
		<tag k="name" v="Ressætra" />
		<tag k="place" v="locality" />
		<tag k="ssr:stedsnr" v="211483" />
	</node>
	<node id="-860212" lat="63.1282555568" lon="9.67281943708">
		<tag k="leisure" v="pitch" />
		<tag k="name" v="Bjørnlibakken hoppanlegg" />
		<tag k="ssr:stedsnr" v="768583" />
	</node>
	<node id="-862258" lat="63.0356055526" lon="9.95576944861">
		<tag k="historic" v="shieling" />
		<tag k="name" v="Nordgardssætra" />
		<tag k="place" v="locality" />
		<tag k="ssr:stedsnr" v="332517" />
	</node>
	<node id="-862257" lat="63.1309583372" lon="9.70628334333">
		<tag k="fixme" v="consider place=hamlet" />
		<tag k="name" v="Langeng" />
		<tag k="place" v="farm" />
		<tag k="ssr:stedsnr" v="150562" />
	</node>
	<node id="-862244" lat="62.9282138852" lon="9.5325972235">
		<tag k="historic" v="shieling" />
		<tag k="name" v="Åjøldalen" />
		<tag k="place" v="locality" />
		<tag k="ssr:stedsnr" v="332501" />
	</node>
	<node id="-860194" lat="63.040930555" lon="9.71300277439">
		<tag k="name" v="Engan" />
		<tag k="place" v="locality" />
		<tag k="ssr:stedsnr" v="696445" />
	</node>
	<node id="-862241" lat="62.9799527821" lon="9.74252221724">
		<tag k="name" v="Jerpstovollen" />
		<tag k="place" v="farm" />
		<tag k="ssr:stedsnr" v="635619" />
	</node>
	<node id="-860186" lat="63.1610305511" lon="9.50898056397">
		<tag k="fixme" v="consider place=hamlet" />
		<tag k="name" v="Trettvik" />
		<tag k="place" v="farm" />
		<tag k="ssr:stedsnr" v="635335" />
	</node>
	<node id="-861528" lat="63.1306749982" lon="9.67477776835">
		<tag k="fixme" v="consider tourism=alpine_hut or tourism=chalet" />
		<tag k="name" v="Fagerlimoen" />
		<tag k="ssr:stedsnr" v="878744" />
		<tag k="tourism" v="wilderness_hut" />
	</node>
	<node id="-862222" lat="63.1007722216" lon="9.82179167514">
		<tag k="historic" v="shieling" />
		<tag k="name" v="Gammel-Prestsætra" />
		<tag k="place" v="locality" />
		<tag k="ssr:stedsnr" v="89538" />
	</node>
	<node id="-859821" lat="63.0955638905" lon="9.69688054712">
		<tag k="name" v="Grefstad" />
		<tag k="place" v="farm" />
		<tag k="ssr:stedsnr" v="679378" />
	</node>
	<node id="-862220" lat="62.9522249958" lon="9.55968889028">
		<tag k="historic" v="shieling" />
		<tag k="name" v="Trostykkjsætra" />
		<tag k="place" v="locality" />
		<tag k="ssr:stedsnr" v="862182" />
	</node>
	<node id="-860171" lat="62.962966666" lon="9.67083056018">
		<tag k="historic" v="shieling" />
		<tag k="name" v="Resellsætra" />
		<tag k="place" v="locality" />
		<tag k="ssr:stedsnr" v="679133" />
	</node>
	<node id="-860170" lat="62.9946611106" lon="9.75857499365">
		<tag k="name" v="Rønningen" />
		<tag k="place" v="farm" />
		<tag k="ssr:stedsnr" v="89657" />
	</node>
	<node id="-862212" lat="62.967613892" lon="9.67734722373">
		<tag k="historic" v="shieling" />
		<tag k="name" v="Resellsætrin" />
		<tag k="place" v="locality" />
		<tag k="ssr:stedsnr" v="73136" />
	</node>
	<node id="-860163" lat="62.9868333344" lon="9.73640833169">
		<tag k="name" v="Grøtenget" />
		<tag k="place" v="farm" />
		<tag k="ssr:stedsnr" v="514661" />
	</node>
	<node id="-862209" lat="63.0581560942" lon="9.63357761892">
		<tag k="fixme" v="consider place=hamlet" />
		<tag k="name" v="Holan" />
		<tag k="place" v="farm" />
		<tag k="ssr:stedsnr" v="801355" />
	</node>
</osm>
