<?xml version="1.0" encoding="UTF-8"?>
<osm generator="osmapis" version="0.6">
	<node id="-860160" lat="63.1307805586" lon="9.87776110472">
		<tag k="name" v="Skjørosttjønna" />
		<tag k="natural" v="water" />
		<tag k="ssr:stedsnr" v="635544" />
	</node>
	<node id="-860159" lat="62.9628472237" lon="9.70735000803">
		<tag k="name" v="Raudmyrbekken" />
		<tag k="ssr:stedsnr" v="818162" />
		<tag k="waterway" v="stream" />
	</node>
	<node id="-858110" lat="63.0524611067" lon="10.0004138924">
		<tag k="name" v="Nedre Igltjønna" />
		<tag k="natural" v="water" />
		<tag k="ssr:stedsnr" v="315574" />
	</node>
	<node id="-858109" lat="63.1352305545" lon="9.83118334244">
		<tag k="name" v="Mælan" />
		<tag k="natural" v="water" />
		<tag k="ssr:stedsnr" v="740080" />
	</node>
	<node id="-860156" lat="62.9278736245" lon="9.45943766197">
		<tag k="name" v="Raudfjelltjønna" />
		<tag k="natural" v="water" />
		<tag k="old_name" v="Raudfjellvatnet" />
		<tag k="ssr:stedsnr" v="315210" />
		<tag k="water" v="lake" />
	</node>
	<node id="-860151" lat="63.0058138893" lon="9.70907777101">
		<tag k="name" v="Skratla" />
		<tag k="ssr:stedsnr" v="89457" />
		<tag k="waterway" v="stream" />
	</node>
	<node id="-858102" lat="62.9538472187" lon="9.66446666054">
		<tag k="name" v="Purktjønnin" />
		<tag k="natural" v="water" />
		<tag k="ssr:stedsnr" v="574175" />
	</node>
	<node id="-858090" lat="63.0780611104" lon="9.82713334224">
		<tag k="name" v="Rosstjønna" />
		<tag k="natural" v="water" />
		<tag k="ssr:stedsnr" v="453510" />
	</node>
	<node id="-858087" lat="63.0553555555" lon="9.64949444251">
		<tag k="name" v="Kjerringøya" />
		<tag k="natural" v="cape" />
		<tag k="ssr:stedsnr" v="89169" />
	</node>
	<node id="-858084" lat="63.0239055594" lon="9.66486665761">
		<tag k="name" v="Refsdalsbekken" />
		<tag k="ssr:stedsnr" v="150182" />
		<tag k="waterway" v="stream" />
	</node>
	<node id="-858083" lat="63.0552194478" lon="9.96049444917">
		<tag k="name" v="Hestskotjønna" />
		<tag k="natural" v="water" />
		<tag k="ssr:stedsnr" v="149392" />
	</node>
	<node id="-860129" lat="63.0775000007" lon="9.47297777598">
		<tag k="name" v="Slåttbekken" />
		<tag k="ssr:stedsnr" v="574463" />
		<tag k="waterway" v="stream" />
	</node>
	<node id="-860127" lat="63.085994446" lon="9.93260555904">
		<tag k="name" v="Kvernbekken" />
		<tag k="ssr:stedsnr" v="878735" />
		<tag k="waterway" v="stream" />
	</node>
	<node id="-858076" lat="63.037819445" lon="9.83161389545">
		<tag k="name" v="Råtjønna" />
		<tag k="natural" v="water" />
		<tag k="ssr:stedsnr" v="12582" />
	</node>
	<node id="-860117" lat="62.921661114" lon="9.59807777572">
		<tag k="name" v="Fremmer Bjugntjønna" />
		<tag k="natural" v="water" />
		<tag k="ssr:stedsnr" v="454176" />
	</node>
	<node id="-860114" lat="63.0992694401" lon="9.48074444986">
		<tag k="name" v="Vaulen" />
		<tag k="ssr:stedsnr" v="29451" />
		<tag k="waterway" v="stream" />
	</node>
	<node id="-860112" lat="62.9228527813" lon="9.6107388971">
		<tag k="name" v="Frostmyrtjønna" />
		<tag k="natural" v="water" />
		<tag k="ssr:stedsnr" v="454175" />
	</node>
	<node id="-858059" lat="63.0693416696" lon="9.93342499972">
		<tag k="name" v="Slåvatnet" />
		<tag k="natural" v="water" />
		<tag k="ssr:stedsnr" v="680677" />
	</node>
	<node id="-860105" lat="63.0028527807" lon="9.89340833062">
		<tag k="name" v="Stenslåttdalstjønna" />
		<tag k="natural" v="water" />
		<tag k="ssr:stedsnr" v="817356" />
	</node>
	<node id="-858052" lat="63.079688888" lon="9.70800555401">
		<tag k="name" v="Olskjeldsdalsbekken" />
		<tag k="ssr:stedsnr" v="255381" />
		<tag k="waterway" v="stream" />
	</node>
	<node id="-860098" lat="62.9834166671" lon="9.91222777712">
		<tag k="name" v="Kattjønna" />
		<tag k="natural" v="water" />
		<tag k="ssr:stedsnr" v="149668" />
	</node>
	<node id="-858049" lat="62.9916805552" lon="9.53164999882">
		<tag k="name" v="Vålåskarstjønnin" />
		<tag k="natural" v="water" />
		<tag k="ssr:stedsnr" v="453484" />
	</node>
	<node id="-860094" lat="62.9444138929" lon="9.51573888552">
		<tag k="name" v="Hattbekken" />
		<tag k="ssr:stedsnr" v="12229" />
		<tag k="waterway" v="stream" />
	</node>
	<node id="-858044" lat="62.9705277762" lon="9.56877222654">
		<tag k="name" v="Kjåkkåbentjønna" />
		<tag k="natural" v="water" />
		<tag k="ssr:stedsnr" v="211085" />
	</node>
	<node id="-858031" lat="63.0283277802" lon="9.99676111675">
		<tag k="name" v="Kluftbekken" />
		<tag k="ssr:stedsnr" v="149385" />
		<tag k="waterway" v="stream" />
	</node>
	<node id="-860829" lat="63.1137194412" lon="9.83504165899">
		<tag k="name" v="Purkskinnet" />
		<tag k="natural" v="water" />
		<tag k="ssr:stedsnr" v="696732" />
	</node>
	<node id="-858027" lat="63.051111107" lon="9.61844721301">
		<tag k="name" v="Kalkrokbekken" />
		<tag k="ssr:stedsnr" v="89152" />
		<tag k="waterway" v="stream" />
	</node>
	<node id="-860072" lat="63.1783555598" lon="9.51677777876">
		<tag k="name" v="Kjøltjønna" />
		<tag k="natural" v="water" />
		<tag k="ssr:stedsnr" v="453376" />
	</node>
	<node id="-860071" lat="63.049213893" lon="9.85723055887">
		<tag k="name" v="Smidalsbekken" />
		<tag k="ssr:stedsnr" v="801575" />
		<tag k="waterway" v="stream" />
	</node>
	<node id="-860066" lat="63.0408527786" lon="9.63956666403">
		<tag k="name" v="Litjvatnet" />
		<tag k="natural" v="water" />
		<tag k="ssr:stedsnr" v="454593" />
	</node>
	<node id="-858017" lat="63.0279083339" lon="9.84322500264">
		<tag k="name" v="Ryåndsjøen" />
		<tag k="natural" v="water" />
		<tag k="ssr:stedsnr" v="133644" />
	</node>
	<node id="-860061" lat="63.0648888893" lon="9.76807499434">
		<tag k="name" v="Kråktjønna" />
		<tag k="natural" v="water" />
		<tag k="ssr:stedsnr" v="498657" />
	</node>
	<node id="-858010" lat="63.1220416697" lon="9.51929722969">
		<tag k="name" v="Tverrbekken" />
		<tag k="ssr:stedsnr" v="878461" />
		<tag k="waterway" v="stream" />
	</node>
	<node id="-860051" lat="62.94278611" lon="9.56886110723">
		<tag k="name" v="Gråtaren" />
		<tag k="ssr:stedsnr" v="757068" />
		<tag k="waterway" v="stream" />
	</node>
	<node id="-857995" lat="63.0437916653" lon="9.9352138809">
		<tag k="name" v="Langvatnet" />
		<tag k="natural" v="water" />
		<tag k="ssr:stedsnr" v="254564" />
	</node>
	<node id="-860041" lat="63.1048250004" lon="9.65186389408">
		<tag k="name" v="Dambakken" />
		<tag k="ssr:stedsnr" v="878342" />
		<tag k="waterway" v="dam" />
	</node>
	<node id="-857991" lat="63.1308250005" lon="9.62873888216">
		<tag k="name" v="Kjela" />
		<tag k="natural" v="water" />
		<tag k="ssr:stedsnr" v="454300" />
		<tag k="water" v="lake" />
	</node>
	<node id="-860031" lat="63.134475003" lon="9.56979999685">
		<tag k="name" v="Druggu" />
		<tag k="ssr:stedsnr" v="574028" />
		<tag k="waterway" v="stream" />
	</node>
	<node id="-860025" lat="63.106661107" lon="9.88793610271">
		<tag k="name" v="Sætertjønna" />
		<tag k="natural" v="water" />
		<tag k="ssr:stedsnr" v="453779" />
	</node>
	<node id="-860021" lat="63.1024472245" lon="9.84457778178">
		<tag k="name" v="Lertjønna" />
		<tag k="natural" v="water" />
		<tag k="ssr:stedsnr" v="453778" />
	</node>
	<node id="-860008" lat="63.1382777778" lon="9.59927777145">
		<tag k="name" v="Segla" />
		<tag k="ssr:stedsnr" v="680597" />
		<tag k="waterway" v="stream" />
	</node>
	<node id="-860001" lat="63.1444083301" lon="9.6582222144">
		<tag k="name" v="Eggabekken" />
		<tag k="ssr:stedsnr" v="393658" />
		<tag k="waterway" v="stream" />
	</node>
	<node id="-859984" lat="63.120196865" lon="9.85028271935">
		<tag k="name" v="Sautjønnin" />
		<tag k="natural" v="water" />
		<tag k="ssr:stedsnr" v="437058" />
	</node>
	<node id="-859979" lat="62.9940055516" lon="9.97393332951">
		<tag k="name" v="Langvatnet" />
		<tag k="natural" v="water" />
		<tag k="ssr:stedsnr" v="619797" />
	</node>
	<node id="-859978" lat="62.9769750041" lon="9.9024250079">
		<tag k="name" v="Fjellbekken" />
		<tag k="ssr:stedsnr" v="271719" />
		<tag k="waterway" v="stream" />
	</node>
	<node id="-859973" lat="63.109374998" lon="9.82820277018">
		<tag k="name" v="Storbratthustjønna" />
		<tag k="natural" v="water" />
		<tag k="ssr:stedsnr" v="757475" />
	</node>
	<node id="-859971" lat="63.0544694407" lon="9.95927777351">
		<tag k="name" v="Hesteskotjønna" />
		<tag k="natural" v="water" />
		<tag k="ssr:stedsnr" v="801583" />
	</node>
	<node id="-859967" lat="63.0493722208" lon="9.93090833701">
		<tag k="name" v="Tittjønna" />
		<tag k="natural" v="water" />
		<tag k="ssr:stedsnr" v="133560" />
	</node>
	<node id="-860469" lat="63.0399499976" lon="9.54493888298">
		<tag k="name" v="Hånnåkambtjønnin" />
		<tag k="natural" v="water" />
		<tag k="ssr:stedsnr" v="574517" />
	</node>
	<node id="-859964" lat="63.1474000001" lon="9.83435556041">
		<tag k="name" v="Bukkbekken" />
		<tag k="ssr:stedsnr" v="817759" />
		<tag k="waterway" v="stream" />
	</node>
	<node id="-859961" lat="63.0708166704" lon="9.6997166687">
		<tag k="name" v="Bukkbubekken" />
		<tag k="ssr:stedsnr" v="665333" />
		<tag k="waterway" v="stream" />
	</node>
	<node id="-859952" lat="63.0527250042" lon="9.93655554912">
		<tag k="name" v="Middagstjønna" />
		<tag k="natural" v="water" />
		<tag k="ssr:stedsnr" v="271700" />
	</node>
	<node id="-859935" lat="63.1708972266" lon="9.53414999391">
		<tag k="name" v="Smågutholet" />
		<tag k="natural" v="bay" />
		<tag k="ssr:stedsnr" v="757026" />
	</node>
	<node id="-859929" lat="63.1640861083" lon="9.56004167047">
		<tag k="name" v="Trobekken" />
		<tag k="ssr:stedsnr" v="574016" />
		<tag k="waterway" v="stream" />
	</node>
	<node id="-859923" lat="63.1346083326" lon="9.83535556317">
		<tag k="name" v="Bergtjønna" />
		<tag k="natural" v="water" />
		<tag k="old_name" v="Borgtjørna;Borgtjønna" />
		<tag k="ssr:stedsnr" v="73067" />
	</node>
	<node id="-859921" lat="63.1048000029" lon="9.87834722884">
		<tag k="name" v="Fosstjønna" />
		<tag k="natural" v="water" />
		<tag k="ssr:stedsnr" v="376005" />
	</node>
	<node id="-859920" lat="63.0127944457" lon="9.90832777938">
		<tag k="name" v="Aurevatna" />
		<tag k="natural" v="water" />
		<tag k="ssr:stedsnr" v="194633" />
	</node>
	<node id="-859913" lat="63.1747583319" lon="9.55156667018">
		<tag k="name" v="Strandholmen" />
		<tag k="place" v="islet" />
		<tag k="ssr:stedsnr" v="878307" />
	</node>
	<node id="-859910" lat="63.0647861131" lon="9.97883055672">
		<tag k="name" v="Djuplibekken" />
		<tag k="ssr:stedsnr" v="574436" />
		<tag k="waterway" v="stream" />
	</node>
	<node id="-859905" lat="63.005169442" lon="9.96536666922">
		<tag k="name" v="Langvassbekken" />
		<tag k="ssr:stedsnr" v="392400" />
		<tag k="waterway" v="stream" />
	</node>
	<node id="-859903" lat="63.0323611082" lon="9.70889445424">
		<tag k="name" v="Syøset" />
		<tag k="ssr:stedsnr" v="89433" />
		<tag k="waterway" v="river" />
	</node>
	<node id="-859902" lat="63.0302833291" lon="9.69512499765">
		<tag k="name" v="Sya" />
		<tag k="ssr:stedsnr" v="133279" />
		<tag k="waterway" v="stream" />
	</node>
	<node id="-859893" lat="63.1304722209" lon="9.5427361046">
		<tag k="name" v="Postbekken" />
		<tag k="ssr:stedsnr" v="757017" />
		<tag k="waterway" v="stream" />
	</node>
	<node id="-859891" lat="63.1377833329" lon="9.69337221332">
		<tag k="name" v="Jerhustjønna" />
		<tag k="natural" v="water" />
		<tag k="ssr:stedsnr" v="575684" />
	</node>
	<node id="-859890" lat="63.0598833344" lon="9.62676666895">
		<tag k="name" v="Holtjønna" />
		<tag k="natural" v="water" />
		<tag k="ssr:stedsnr" v="558369" />
	</node>
	<node id="-859887" lat="62.9554055577" lon="9.71438332889">
		<tag k="name" v="Klevabekken" />
		<tag k="ssr:stedsnr" v="29013" />
		<tag k="waterway" v="stream" />
	</node>
	<node id="-859879" lat="63.0917638862" lon="9.82439999213">
		<tag k="name" v="Raudåa" />
		<tag k="ssr:stedsnr" v="376541" />
		<tag k="waterway" v="stream" />
	</node>
	<node id="-859873" lat="62.9761694475" lon="9.97523611511">
		<tag k="name" v="Skjetntjønnin" />
		<tag k="natural" v="water" />
		<tag k="ssr:stedsnr" v="453350" />
	</node>
	<node id="-859870" lat="62.956530554" lon="9.52392499066">
		<tag k="name" v="Stillresa" />
		<tag k="ssr:stedsnr" v="635510" />
		<tag k="waterway" v="river" />
	</node>
	<node id="-859854" lat="63.1629057692" lon="9.47487140539">
		<tag k="name" v="Kaldtjønna" />
		<tag k="natural" v="water" />
		<tag k="ssr:stedsnr" v="453353" />
	</node>
	<node id="-859853" lat="63.0150666629" lon="9.98131111528">
		<tag k="name" v="Skjellbreia" />
		<tag k="natural" v="water" />
		<tag k="ssr:stedsnr" v="574415" />
		<tag k="water" v="lake" />
	</node>
	<node id="-859851" lat="63.105674996" lon="9.82163888985">
		<tag k="name" v="Mjovatnet" />
		<tag k="natural" v="water" />
		<tag k="ssr:stedsnr" v="801014" />
		<tag k="water" v="lake" />
	</node>
	<node id="-859849" lat="63.0420861155" lon="9.74457778728">
		<tag k="name" v="Grøta" />
		<tag k="ssr:stedsnr" v="73600" />
		<tag k="waterway" v="stream" />
	</node>
	<node id="-859848" lat="63.0637666633" lon="9.86784166503">
		<tag k="name" v="Pungtjønna" />
		<tag k="natural" v="water" />
		<tag k="ssr:stedsnr" v="878720" />
	</node>
	<node id="-859824" lat="63.121372221" lon="9.74327221308">
		<tag k="name" v="Hestdalstjønna" />
		<tag k="natural" v="water" />
		<tag k="ssr:stedsnr" v="575670" />
	</node>
	<node id="-859813" lat="63.0778222179" lon="9.82737223161">
		<tag k="name" v="Raudåtjønna" />
		<tag k="natural" v="water" />
		<tag k="ssr:stedsnr" v="680581" />
	</node>
	<node id="-859803" lat="63.0763638907" lon="9.86162500363">
		<tag k="name" v="Falteinbekken" />
		<tag k="ssr:stedsnr" v="453754" />
		<tag k="waterway" v="stream" />
	</node>
	<node id="-859800" lat="63.0730611144" lon="9.67400000507">
		<tag k="name" v="Fugltjønna" />
		<tag k="natural" v="water" />
		<tag k="ssr:stedsnr" v="879540" />
	</node>
	<node id="-859788" lat="63.0459361087" lon="9.6365138986">
		<tag k="name" v="Storholmen" />
		<tag k="place" v="islet" />
		<tag k="ssr:stedsnr" v="818145" />
	</node>
	<node id="-859786" lat="63.0931833304" lon="9.89413611799">
		<tag k="name" v="Vollmovatnet" />
		<tag k="natural" v="water" />
		<tag k="ssr:stedsnr" v="740529" />
	</node>
	<node id="-859785" lat="62.9898249993" lon="9.97065277638">
		<tag k="name" v="Stentjønna" />
		<tag k="natural" v="water" />
		<tag k="ssr:stedsnr" v="211346" />
	</node>
	<node id="-859782" lat="63.1303555538" lon="9.4770249915">
		<tag k="name" v="Dalatjønna" />
		<tag k="natural" v="water" />
		<tag k="ssr:stedsnr" v="89414" />
	</node>
	<node id="-860097" lat="62.9737194465" lon="9.52527777351">
		<tag k="name" v="Storvika" />
		<tag k="natural" v="bay" />
		<tag k="ssr:stedsnr" v="150467" />
	</node>
	<node id="-859763" lat="63.0247444404" lon="9.9086638943">
		<tag k="name" v="Aurebekken" />
		<tag k="ssr:stedsnr" v="696575" />
		<tag k="waterway" v="stream" />
	</node>
	<node id="-859761" lat="62.983416671" lon="9.94597500771">
		<tag k="name" v="Djuptjønna" />
		<tag k="natural" v="water" />
		<tag k="ssr:stedsnr" v="936728" />
	</node>
	<node id="-859737" lat="62.9078888929" lon="9.57790278754">
		<tag k="name" v="Langvatnet" />
		<tag k="natural" v="water" />
		<tag k="ssr:stedsnr" v="635067" />
	</node>
	<node id="-859732" lat="63.0623611143" lon="9.95834166373">
		<tag k="name" v="Litlbekken" />
		<tag k="ssr:stedsnr" v="514404" />
		<tag k="waterway" v="stream" />
	</node>
	<node id="-859731" lat="62.9826861078" lon="9.77559721558">
		<tag k="name" v="Husbekken" />
		<tag k="ssr:stedsnr" v="818101" />
		<tag k="waterway" v="stream" />
	</node>
	<node id="-859721" lat="63.0393222228" lon="9.85178056116">
		<tag k="name" v="Kjeglvatnet" />
		<tag k="natural" v="water" />
		<tag k="ssr:stedsnr" v="73590" />
	</node>
	<node id="-859713" lat="62.9981666697" lon="9.84769999697">
		<tag k="name" v="Føssjøen" />
		<tag k="natural" v="water" />
		<tag k="ssr:stedsnr" v="680803" />
		<tag k="water" v="lake" />
	</node>
	<node id="-859710" lat="62.9506027756" lon="9.53690555902">
		<tag k="name" v="Treveløya" />
		<tag k="place" v="island" />
		<tag k="ssr:stedsnr" v="635506" />
	</node>
	<node id="-859706" lat="62.8975916652" lon="9.49481111992">
		<tag k="name" v="Grønlitjønna" />
		<tag k="natural" v="water" />
		<tag k="ssr:stedsnr" v="12194" />
	</node>
	<node id="-859705" lat="62.9549499976" lon="9.62791388467">
		<tag k="name" v="Fossen" />
		<tag k="natural" v="waterfall" />
		<tag k="ssr:stedsnr" v="818124" />
	</node>
	<node id="-859694" lat="62.9599916672" lon="9.67556388448">
		<tag k="name" v="Druggu" />
		<tag k="ssr:stedsnr" v="696156" />
		<tag k="waterway" v="river" />
	</node>
	<node id="-859674" lat="63.1096000021" lon="9.84218611621">
		<tag k="name" v="Glasmakertjønna" />
		<tag k="natural" v="water" />
		<tag k="ssr:stedsnr" v="817747" />
	</node>
	<node id="-859664" lat="62.9776750012" lon="9.94116388602">
		<tag k="name" v="Langdalsbekken" />
		<tag k="ssr:stedsnr" v="878686" />
		<tag k="waterway" v="stream" />
	</node>
	<node id="-859660" lat="62.9998888919" lon="9.90546110453">
		<tag k="name" v="Fjelldalsbekken" />
		<tag k="ssr:stedsnr" v="332354" />
		<tag k="waterway" v="stream" />
	</node>
	<node id="-859654" lat="62.97006389" lon="9.73063055518">
		<tag k="name" v="Huslidalsbekken" />
		<tag k="ssr:stedsnr" v="757006" />
		<tag k="waterway" v="stream" />
	</node>
	<node id="-859642" lat="63.0068749957" lon="9.73451111357">
		<tag k="name" v="Katthølen" />
		<tag k="place" v="locality" />
		<tag k="ssr:stedsnr" v="757420" />
	</node>
	<node id="-859639" lat="62.9649777804" lon="9.67122500559">
		<tag k="name" v="Sæterbekken" />
		<tag k="ssr:stedsnr" v="393172" />
		<tag k="waterway" v="stream" />
	</node>
	<node id="-859633" lat="62.9827666677" lon="9.81378889775">
		<tag k="name" v="Koltjønna" />
		<tag k="natural" v="water" />
		<tag k="ssr:stedsnr" v="119284" />
	</node>
	<node id="-858024" lat="62.9831194459" lon="9.75461389607">
		<tag k="name" v="Øya" />
		<tag k="place" v="island" />
		<tag k="ssr:stedsnr" v="392130" />
	</node>
	<node id="-859630" lat="63.1656972258" lon="9.516158333">
		<tag k="name" v="Svartbekken" />
		<tag k="ssr:stedsnr" v="332336" />
		<tag k="waterway" v="stream" />
	</node>
	<node id="-859628" lat="63.1041972255" lon="9.71513055241">
		<tag k="name" v="Vollbekken" />
		<tag k="ssr:stedsnr" v="211733" />
		<tag k="waterway" v="stream" />
	</node>
	<node id="-858023" lat="63.0496861084" lon="9.61446112062">
		<tag k="name" v="Skjerva" />
		<tag k="ssr:stedsnr" v="332116" />
		<tag k="waterway" v="river" />
	</node>
	<node id="-859623" lat="63.0945999986" lon="9.84038332624">
		<tag k="name" v="Buvatnet" />
		<tag k="natural" v="water" />
		<tag k="ssr:stedsnr" v="679497" />
	</node>
	<node id="-859622" lat="62.9835416704" lon="9.63832776936">
		<tag k="name" v="Storkulpen" />
		<tag k="place" v="locality" />
		<tag k="ssr:stedsnr" v="878253" />
	</node>
	<node id="-859613" lat="63.0035083364" lon="9.89702777222">
		<tag k="name" v="Stenslåttdalstjønna" />
		<tag k="natural" v="water" />
		<tag k="ssr:stedsnr" v="514374" />
	</node>
	<node id="-859602" lat="62.9996777822" lon="9.89729167009">
		<tag k="name" v="Fjelldalstjønna" />
		<tag k="natural" v="water" />
		<tag k="ssr:stedsnr" v="514373" />
	</node>
	<node id="-859596" lat="63.1275500021" lon="9.50903889344">
		<tag k="name" v="Ytre Espåstjønna" />
		<tag k="natural" v="water" />
		<tag k="ssr:stedsnr" v="757384" />
	</node>
	<node id="-859595" lat="63.1302222191" lon="9.79084722762">
		<tag k="name" v="Litjsjursåstjønna" />
		<tag k="natural" v="water" />
		<tag k="ssr:stedsnr" v="453302" />
	</node>
	<node id="-860407" lat="62.9652277787" lon="9.61162222459">
		<tag k="name" v="Litlslættbekken" />
		<tag k="ssr:stedsnr" v="939257" />
		<tag k="waterway" v="stream" />
	</node>
	<node id="-859588" lat="62.9237250034" lon="9.53929999709">
		<tag k="name" v="Jøla" />
		<tag k="ssr:stedsnr" v="376243" />
		<tag k="waterway" v="river" />
	</node>
	<node id="-859586" lat="63.0526638863" lon="9.96861388655">
		<tag k="name" v="Svartsætertjønna" />
		<tag k="natural" v="water" />
		<tag k="ssr:stedsnr" v="757385" />
	</node>
	<node id="-859581" lat="63.157924999" lon="9.49404444476">
		<tag k="name" v="Lomtjønna" />
		<tag k="natural" v="water" />
		<tag k="ssr:stedsnr" v="89378" />
	</node>
	<node id="-859580" lat="63.1702249992" lon="9.5449249996">
		<tag k="name" v="Ringavatnet" />
		<tag k="natural" v="water" />
		<tag k="ssr:stedsnr" v="255522" />
		<tag k="water" v="lake" />
	</node>
	<node id="-860405" lat="63.1263055529" lon="9.73283610449">
		<tag k="name" v="Styggtjønna" />
		<tag k="natural" v="water" />
		<tag k="ssr:stedsnr" v="801061" />
	</node>
	<node id="-859556" lat="62.9659555559" lon="9.64229167094">
		<tag k="name" v="Trongbekken" />
		<tag k="ssr:stedsnr" v="393141" />
		<tag k="waterway" v="stream" />
	</node>
	<node id="-859551" lat="63.0135527801" lon="9.91415833426">
		<tag k="name" v="Aurevatnet" />
		<tag k="natural" v="water" />
		<tag k="ssr:stedsnr" v="332321" />
		<tag k="water" v="lake" />
	</node>
	<node id="-859546" lat="63.1638805598" lon="9.49145277078">
		<tag k="name" v="Storsegltjønna" />
		<tag k="natural" v="water" />
		<tag k="ssr:stedsnr" v="29367" />
	</node>
	<node id="-860738" lat="63.0610972224" lon="9.61488333693">
		<tag k="name" v="Lykkjbekken" />
		<tag k="ssr:stedsnr" v="818239" />
		<tag k="waterway" v="stream" />
	</node>
	<node id="-859530" lat="63.0125111079" lon="9.93509166757">
		<tag k="name" v="Litlbekken" />
		<tag k="ssr:stedsnr" v="514363" />
		<tag k="waterway" v="stream" />
	</node>
	<node id="-859513" lat="62.9743361119" lon="9.76071666105">
		<tag k="name" v="Halsbekken" />
		<tag k="ssr:stedsnr" v="696126" />
		<tag k="waterway" v="stream" />
	</node>
	<node id="-860734" lat="63.1064388925" lon="9.87756667229">
		<tag k="name" v="Sætertjønna" />
		<tag k="natural" v="water" />
		<tag k="ssr:stedsnr" v="923033" />
	</node>
	<node id="-859505" lat="62.9216055516" lon="9.59803612041">
		<tag k="name" v="Bjogntjønnin" />
		<tag k="natural" v="water" />
		<tag k="ssr:stedsnr" v="255243" />
	</node>
	<node id="-859497" lat="63.1602722264" lon="9.5217416761">
		<tag k="name" v="Nåvårdalsbekken" />
		<tag k="ssr:stedsnr" v="29358" />
		<tag k="waterway" v="stream" />
	</node>
	<node id="-859491" lat="62.9335722188" lon="9.61173334247">
		<tag k="name" v="Svartbekken" />
		<tag k="ssr:stedsnr" v="376235" />
		<tag k="waterway" v="stream" />
	</node>
	<node id="-859487" lat="63.045613887" lon="9.62721667193">
		<tag k="name" v="Lomtjønnbekken" />
		<tag k="ssr:stedsnr" v="939129" />
		<tag k="waterway" v="stream" />
	</node>
	<node id="-859482" lat="63.1079916693" lon="9.62142499095">
		<tag k="name" v="Litjmobekken" />
		<tag k="ssr:stedsnr" v="393577" />
		<tag k="waterway" v="stream" />
	</node>
	<node id="-859476" lat="63.0983944486" lon="9.60535277525">
		<tag k="name" v="Vakkerøra" />
		<tag k="natural" v="shoal" />
		<tag k="place" v="locality" />
		<tag k="ssr:stedsnr" v="635049" />
	</node>
	<node id="-859475" lat="63.0640472201" lon="9.71621110578">
		<tag k="name" v="Vigda" />
		<tag k="ssr:stedsnr" v="818521" />
		<tag k="waterway" v="stream" />
	</node>
	<node id="-859474" lat="63.1274527736" lon="9.47424166013">
		<tag k="name" v="Litldalstjønna" />
		<tag k="natural" v="water" />
		<tag k="ssr:stedsnr" v="150378" />
	</node>
	<node id="-859472" lat="63.1379111125" lon="9.87271388418">
		<tag k="name" v="Åmundsvika" />
		<tag k="natural" v="bay" />
		<tag k="ssr:stedsnr" v="939558" />
	</node>
	<node id="-859461" lat="62.9849555595" lon="9.52692222253">
		<tag k="name" v="Sæterbekken" />
		<tag k="ssr:stedsnr" v="818484" />
		<tag k="waterway" v="stream" />
	</node>
	<node id="-859460" lat="63.1401111096" lon="9.54911666698">
		<tag k="name" v="Malisæterbekken" />
		<tag k="ssr:stedsnr" v="635023" />
		<tag k="waterway" v="stream" />
	</node>
	<node id="-859442" lat="63.1193722204" lon="9.85312499103">
		<tag k="name" v="Storsautjønna" />
		<tag k="natural" v="water" />
		<tag k="ssr:stedsnr" v="211711" />
	</node>
	<node id="-859437" lat="63.0180555576" lon="9.51656388933">
		<tag k="name" v="Tortjønna" />
		<tag k="natural" v="water" />
		<tag k="ssr:stedsnr" v="73286" />
	</node>
	<node id="-859432" lat="62.9711194402" lon="9.54133610477">
		<tag k="name" v="Krokbekken" />
		<tag k="ssr:stedsnr" v="315135" />
		<tag k="waterway" v="stream" />
	</node>
	<node id="-859429" lat="63.0860777811" lon="9.73810000486">
		<tag k="name" v="Frillsjøen" />
		<tag k="natural" v="water" />
		<tag k="ssr:stedsnr" v="801513" />
	</node>
	<node id="-859422" lat="63.0357583347" lon="9.82731666812">
		<tag k="name" v="Råtjønna" />
		<tag k="natural" v="water" />
		<tag k="ssr:stedsnr" v="635436" />
	</node>
	<node id="-859417" lat="63.1220166674" lon="9.71472499409">
		<tag k="name" v="Smedbekken" />
		<tag k="ssr:stedsnr" v="332735" />
		<tag k="waterway" v="stream" />
	</node>
	<node id="-859416" lat="63.0214981386" lon="9.94344948506">
		<tag k="name" v="Hørrvassbekken" />
		<tag k="ssr:stedsnr" v="28542" />
		<tag k="waterway" v="stream" />
	</node>
	<node id="-859415" lat="63.1629833361" lon="9.6021111125">
		<tag k="name" v="Stokkvatnet" />
		<tag k="natural" v="water" />
		<tag k="ssr:stedsnr" v="740480" />
	</node>
	<node id="-859408" lat="63.0952388851" lon="9.86859166398">
		<tag k="name" v="Lomtjønna" />
		<tag k="natural" v="water" />
		<tag k="ssr:stedsnr" v="437549" />
	</node>
	<node id="-859407" lat="63.1466888911" lon="9.84998610978">
		<tag k="name" v="Bukkvatnet" />
		<tag k="natural" v="water" />
		<tag k="ssr:stedsnr" v="618091" />
	</node>
	<node id="-859406" lat="63.0831388917" lon="9.61263611302">
		<tag k="name" v="Maristilla" />
		<tag k="natural" v="water" />
		<tag k="ssr:stedsnr" v="878219" />
		<tag k="water" v="lake" />
	</node>
	<node id="-859403" lat="62.9112333355" lon="9.55291666894">
		<tag k="name" v="Langtjønna" />
		<tag k="natural" v="water" />
		<tag k="ssr:stedsnr" v="939088" />
	</node>
	<node id="-859401" lat="63.1200777803" lon="9.76683610509">
		<tag k="name" v="Storlitjønna" />
		<tag k="natural" v="water" />
		<tag k="ssr:stedsnr" v="558056" />
	</node>
	<node id="-859394" lat="62.9055805539" lon="9.48935556492">
		<tag k="loc_name" v="Halvforentjønna" />
		<tag k="name" v="Langtjønna" />
		<tag k="natural" v="water" />
		<tag k="ssr:stedsnr" v="801229" />
		<tag k="water" v="lake" />
	</node>
	<node id="-859390" lat="63.1147749974" lon="9.54701667637">
		<tag k="name" v="Hansslættbekken" />
		<tag k="ssr:stedsnr" v="696077" />
		<tag k="waterway" v="stream" />
	</node>
	<node id="-859387" lat="63.1441694407" lon="9.76916110633">
		<tag k="name" v="Lomtjønna" />
		<tag k="natural" v="water" />
		<tag k="ssr:stedsnr" v="211278" />
	</node>
	<node id="-857983" lat="63.0171777803" lon="9.93723334071">
		<tag k="name" v="Lomtjønna" />
		<tag k="natural" v="water" />
		<tag k="ssr:stedsnr" v="939339" />
	</node>
	<node id="-859380" lat="63.0610972264" lon="9.94422500972">
		<tag k="name" v="Heggøya" />
		<tag k="place" v="island" />
		<tag k="ssr:stedsnr" v="453689" />
	</node>
	<node id="-859377" lat="63.0248638927" lon="9.90382499928">
		<tag k="name" v="Aurebekken" />
		<tag k="ssr:stedsnr" v="939927" />
		<tag k="waterway" v="stream" />
	</node>
	<node id="-859370" lat="63.1035055512" lon="9.6590833275">
		<tag k="name" v="Holbekken" />
		<tag k="ssr:stedsnr" v="332296" />
		<tag k="waterway" v="stream" />
	</node>
	<node id="-859369" lat="62.9369472192" lon="9.56505555746">
		<tag k="name" v="Gravurtjønna" />
		<tag k="natural" v="water" />
		<tag k="ssr:stedsnr" v="255229" />
	</node>
	<node id="-859368" lat="62.9956861091" lon="9.90572499178">
		<tag k="name" v="Svorka" />
		<tag k="ssr:stedsnr" v="741795" />
		<tag k="waterway" v="river" />
	</node>
	<node id="-859364" lat="62.974897226" lon="9.89628333314">
		<tag k="name" v="Blankvatnet" />
		<tag k="natural" v="water" />
		<tag k="ssr:stedsnr" v="801770" />
	</node>
	<node id="-859363" lat="63.1448666702" lon="9.58858054841">
		<tag k="name" v="Seglvatnet" />
		<tag k="natural" v="water" />
		<tag k="ssr:stedsnr" v="558576" />
	</node>
	<node id="-859357" lat="63.0680249998" lon="9.91584722136">
		<tag k="name" v="Slåvassbekken" />
		<tag k="ssr:stedsnr" v="211695" />
		<tag k="waterway" v="stream" />
	</node>
	<node id="-859356" lat="63.0265277776" lon="9.92592499172">
		<tag k="name" v="Småvatna" />
		<tag k="natural" v="water" />
		<tag k="ssr:stedsnr" v="939536" />
		<tag k="water" v="lake" />
	</node>
	<node id="-859354" lat="63.1078527774" lon="9.83337500083">
		<tag k="name" v="Litjbratthustjønna" />
		<tag k="natural" v="water" />
		<tag k="ssr:stedsnr" v="89750" />
	</node>
	<node id="-859352" lat="63.1294027809" lon="9.68180555066">
		<tag k="name" v="Bjørnlivatnet" />
		<tag k="natural" v="water" />
		<tag k="ssr:stedsnr" v="680530" />
	</node>
	<node id="-859345" lat="63.0983388847" lon="9.71162777269">
		<tag k="name" v="Skaråa" />
		<tag k="ssr:stedsnr" v="741531" />
		<tag k="waterway" v="stream" />
	</node>
	<node id="-859337" lat="63.0291749967" lon="9.99044166826">
		<tag k="name" v="Trivja" />
		<tag k="ssr:stedsnr" v="12679" />
		<tag k="waterway" v="river" />
	</node>
	<node id="-859330" lat="63.1433861156" lon="9.85658055883">
		<tag k="name" v="Gortjønna" />
		<tag k="natural" v="water" />
		<tag k="ssr:stedsnr" v="271606" />
	</node>
	<node id="-859328" lat="63.0700611102" lon="9.81775833698">
		<tag k="name" v="Holbekken" />
		<tag k="ssr:stedsnr" v="454487" />
		<tag k="waterway" v="stream" />
	</node>
	<node id="-858081" lat="63.1039805536" lon="9.65448611244">
		<tag k="name" v="Litjvatnet" />
		<tag k="natural" v="water" />
		<tag k="ssr:stedsnr" v="558477" />
	</node>
	<node id="-859318" lat="63.1356333308" lon="9.55007222445">
		<tag k="fixme" v="multiple name tags, choose one and add the other to alt_name" />
		<tag k="name" v="Gruvdammen;Nedre Gruvdammen" />
		<tag k="natural" v="water" />
		<tag k="ssr:stedsnr" v="73553" />
	</node>
	<node id="-859312" lat="63.0886166666" lon="9.81204999949">
		<tag k="name" v="Vestre Nertjønna" />
		<tag k="natural" v="water" />
		<tag k="ssr:stedsnr" v="939528" />
	</node>
	<node id="-859306" lat="63.136263891" lon="9.58041111006">
		<tag k="name" v="Litjvatnet" />
		<tag k="natural" v="water" />
		<tag k="ssr:stedsnr" v="437542" />
	</node>
	<node id="-859295" lat="63.0667611077" lon="9.9824805565">
		<tag k="name" v="Djuplitjønna" />
		<tag k="natural" v="water" />
		<tag k="ssr:stedsnr" v="194566" />
	</node>
	<node id="-859292" lat="63.0481083301" lon="9.89159167184">
		<tag k="name" v="Ortjønnbekken" />
		<tag k="ssr:stedsnr" v="817692" />
		<tag k="waterway" v="stream" />
	</node>
	<node id="-859283" lat="63.1301722245" lon="9.69530000213">
		<tag k="name" v="Bjørnlibekken" />
		<tag k="ssr:stedsnr" v="211693" />
		<tag k="waterway" v="stream" />
	</node>
	<node id="-859282" lat="62.9935527751" lon="9.95035277056">
		<tag k="name" v="Kringltjønna" />
		<tag k="natural" v="water" />
		<tag k="ssr:stedsnr" v="453677" />
	</node>
	<node id="-859280" lat="63.1384416677" lon="9.56317500393">
		<tag k="name" v="Mjovatnet" />
		<tag k="natural" v="water" />
		<tag k="ssr:stedsnr" v="73552" />
	</node>
	<node id="-859279" lat="62.9523694488" lon="9.60310278096">
		<tag k="name" v="Holbekken" />
		<tag k="ssr:stedsnr" v="211265" />
		<tag k="waterway" v="stream" />
	</node>
	<node id="-859277" lat="63.1138194484" lon="9.87678888914">
		<tag k="name" v="Regnfossen" />
		<tag k="natural" v="waterfall" />
		<tag k="ssr:stedsnr" v="29752" />
	</node>
	<node id="-859262" lat="63.1042277743" lon="9.67954444633">
		<tag k="name" v="Skjetnbekkloppa" />
		<tag k="ssr:stedsnr" v="29325" />
		<tag k="waterway" v="stream" />
	</node>
	<node id="-859260" lat="63.1676666688" lon="9.55822499769">
		<tag k="name" v="Groeggvika" />
		<tag k="natural" v="bay" />
		<tag k="ssr:stedsnr" v="437530" />
	</node>
	<node id="-859255" lat="63.1430194422" lon="9.57211110776">
		<tag k="name" v="Hoslenga" />
		<tag k="natural" v="water" />
		<tag k="ssr:stedsnr" v="73550" />
	</node>
	<node id="-859244" lat="63.1076750013" lon="9.81025832617">
		<tag k="name" v="Nodalstjønna" />
		<tag k="natural" v="water" />
		<tag k="ssr:stedsnr" v="574328" />
	</node>
	<node id="-859243" lat="62.9742388854" lon="9.58643332619">
		<tag k="name" v="Storela" />
		<tag k="ssr:stedsnr" v="453247" />
		<tag k="waterway" v="river" />
	</node>
	<node id="-859225" lat="63.0447361139" lon="9.63435556226">
		<tag k="name" v="Litjholmen" />
		<tag k="place" v="islet" />
		<tag k="ssr:stedsnr" v="271189" />
	</node>
	<node id="-859222" lat="63.1237888908" lon="9.79440000171">
		<tag k="name" v="Bjørkhaugtjønna" />
		<tag k="natural" v="water" />
		<tag k="ssr:stedsnr" v="574331" />
	</node>
	<node id="-860345" lat="63.1177861089" lon="9.83032222194">
		<tag k="name" v="Hola" />
		<tag k="ssr:stedsnr" v="878759" />
		<tag k="waterway" v="stream" />
	</node>
	<node id="-859214" lat="63.0412499961" lon="9.94048889605">
		<tag k="name" v="Langvasstjønna" />
		<tag k="natural" v="water" />
		<tag k="ssr:stedsnr" v="817647" />
	</node>
	<node id="-859210" lat="63.1353972204" lon="9.6093166624">
		<tag k="name" v="Tverrbekken" />
		<tag k="ssr:stedsnr" v="332288" />
		<tag k="waterway" v="stream" />
	</node>
	<node id="-859198" lat="63.0066277733" lon="9.86745833941">
		<tag k="name" v="Gammelslåttjønna" />
		<tag k="natural" v="water" />
		<tag k="ssr:stedsnr" v="696890" />
	</node>
	<node id="-859194" lat="62.9911055513" lon="9.9128888857">
		<tag k="name" v="Raudhattjønna" />
		<tag k="natural" v="water" />
		<tag k="ssr:stedsnr" v="392715" />
	</node>
	<node id="-859191" lat="62.9840861079" lon="9.92288889166">
		<tag k="name" v="Raudhattbekken" />
		<tag k="ssr:stedsnr" v="801746" />
		<tag k="waterway" v="stream" />
	</node>
	<node id="-859189" lat="62.9850916642" lon="9.52390556102">
		<tag k="name" v="Rattjønna" />
		<tag k="natural" v="water" />
		<tag k="ssr:stedsnr" v="939488" />
	</node>
	<node id="-859187" lat="62.9398555538" lon="9.47190000185">
		<tag k="name" v="Raudfjellbekken" />
		<tag k="ssr:stedsnr" v="255220" />
		<tag k="waterway" v="river" />
	</node>
	<node id="-859181" lat="63.1274611138" lon="9.50920554908">
		<tag k="name" v="Espåsvatnet" />
		<tag k="natural" v="water" />
		<tag k="ssr:stedsnr" v="740461" />
	</node>
	<node id="-859180" lat="63.0522302484" lon="9.7314474829">
		<tag k="name" v="Bjørnslebekken" />
		<tag k="ssr:stedsnr" v="497565" />
		<tag k="waterway" v="stream" />
	</node>
	<node id="-859176" lat="63.1131333313" lon="9.8135611056">
		<tag k="name" v="Merratjønna" />
		<tag k="natural" v="water" />
		<tag k="ssr:stedsnr" v="574335" />
	</node>
	<node id="-859157" lat="63.0682277792" lon="9.94673611109">
		<tag k="name" v="Pungtjønna" />
		<tag k="natural" v="water" />
		<tag k="ssr:stedsnr" v="817667" />
	</node>
	<node id="-859152" lat="63.1375916675" lon="9.67251944371">
		<tag k="name" v="Liahaugtjønna" />
		<tag k="natural" v="water" />
		<tag k="ssr:stedsnr" v="133483" />
	</node>
	<node id="-859149" lat="63.1399833291" lon="9.71149999528">
		<tag k="name" v="Raubekken" />
		<tag k="ssr:stedsnr" v="642698" />
		<tag k="waterway" v="stream" />
	</node>
	<node id="-859147" lat="63.1657638926" lon="9.48905832557">
		<tag k="name" v="Litjsegltjønna" />
		<tag k="natural" v="water" />
		<tag k="ssr:stedsnr" v="757348" />
	</node>
	<node id="-859146" lat="63.0161361086" lon="9.689719435">
		<tag k="name" v="Homyrtjønna" />
		<tag k="natural" v="water" />
		<tag k="ssr:stedsnr" v="453237" />
	</node>
	<node id="-859140" lat="63.0146055571" lon="9.62358054862">
		<tag k="name" v="Storsya" />
		<tag k="ssr:stedsnr" v="497279" />
		<tag k="waterway" v="stream" />
	</node>
	<node id="-859133" lat="63.0916361152" lon="9.64103054601">
		<tag k="name" v="Nylykkjbekken" />
		<tag k="ssr:stedsnr" v="878215" />
		<tag k="waterway" v="stream" />
	</node>
	<node id="-858003" lat="63.0710361074" lon="9.69883055634">
		<tag k="name" v="Koltjønna" />
		<tag k="natural" v="water" />
		<tag k="ssr:stedsnr" v="29575" />
	</node>
	<node id="-859116" lat="63.0632361138" lon="9.8560277729">
		<tag k="name" v="Snurulibekken" />
		<tag k="ssr:stedsnr" v="89713" />
		<tag k="waterway" v="stream" />
	</node>
	<node id="-859115" lat="63.1040111141" lon="9.5384888949">
		<tag k="name" v="Stavåa" />
		<tag k="ssr:stedsnr" v="696070" />
		<tag k="waterway" v="stream" />
	</node>
	<node id="-859113" lat="63.1794888891" lon="9.55206667251">
		<tag k="name" v="Vaulen" />
		<tag k="natural" v="strait" />
		<tag k="ssr:stedsnr" v="514308" />
	</node>
	<node id="-859108" lat="63.1804361087" lon="9.55365555322">
		<tag k="name" v="Litjklubben" />
		<tag k="natural" v="cape" />
		<tag k="ssr:stedsnr" v="514309" />
	</node>
	<node id="-859106" lat="63.1207861139" lon="9.84679167412">
		<tag k="name" v="Litjsautjønna" />
		<tag k="natural" v="water" />
		<tag k="ssr:stedsnr" v="29730" />
	</node>
	<node id="-859104" lat="63.0484111097" lon="9.73916389398">
		<tag k="name" v="Hammerbekken" />
		<tag k="ssr:stedsnr" v="862583" />
		<tag k="waterway" v="stream" />
	</node>
	<node id="-859082" lat="63.0956111148" lon="9.82557777834">
		<tag k="name" v="Sandåa" />
		<tag k="ssr:stedsnr" v="271575" />
		<tag k="waterway" v="river" />
	</node>
	<node id="-859081" lat="63.0786611156" lon="9.92530833272">
		<tag k="name" v="Stordamvatnet" />
		<tag k="natural" v="water" />
		<tag k="ssr:stedsnr" v="498569" />
	</node>
	<node id="-859080" lat="63.1080111146" lon="9.54885832391">
		<tag k="name" v="Fromslibekken" />
		<tag k="ssr:stedsnr" v="393074" />
		<tag k="waterway" v="stream" />
	</node>
	<node id="-859074" lat="63.0204055525" lon="9.9369749992">
		<tag k="name" v="Gammelsagdammen" />
		<tag k="natural" v="water" />
		<tag k="ssr:stedsnr" v="878582" />
		<tag k="water" v="lake" />
	</node>
	<node id="-859058" lat="63.1332277749" lon="9.73723334059">
		<tag k="name" v="Bustovatnet" />
		<tag k="natural" v="water" />
		<tag k="ssr:stedsnr" v="618058" />
	</node>
	<node id="-859056" lat="63.077263891" lon="9.75943055058">
		<tag k="name" v="Vollabekken" />
		<tag k="ssr:stedsnr" v="73530" />
		<tag k="waterway" v="stream" />
	</node>
	<node id="-859054" lat="63.1533944426" lon="9.64658611638">
		<tag k="name" v="Haukåsøya" />
		<tag k="natural" v="cape" />
		<tag k="ssr:stedsnr" v="939044" />
	</node>
	<node id="-859052" lat="63.0687444489" lon="9.58105832941">
		<tag k="name" v="Storslåttbekken" />
		<tag k="ssr:stedsnr" v="392264" />
		<tag k="waterway" v="stream" />
	</node>
	<node id="-859050" lat="63.0744027756" lon="9.90339999578">
		<tag k="name" v="Klipråa" />
		<tag k="ssr:stedsnr" v="514709" />
		<tag k="waterway" v="stream" />
	</node>
	<node id="-859049" lat="63.0860472202" lon="9.48230834088">
		<tag k="name" v="Skjerva" />
		<tag k="ssr:stedsnr" v="696467" />
		<tag k="waterway" v="river" />
	</node>
	<node id="-859047" lat="62.9893250013" lon="9.70129444783">
		<tag k="name" v="Vargdalsbekken" />
		<tag k="ssr:stedsnr" v="211234" />
		<tag k="waterway" v="stream" />
	</node>
	<node id="-859038" lat="63.0105361156" lon="9.98083054754">
		<tag k="name" v="Holsjøvika" />
		<tag k="natural" v="bay" />
		<tag k="ssr:stedsnr" v="635382" />
	</node>
	<node id="-859035" lat="63.1325194469" lon="9.56532500765">
		<tag k="name" v="Drugguvatnet" />
		<tag k="natural" v="water" />
		<tag k="ssr:stedsnr" v="801473" />
	</node>
	<node id="-859034" lat="62.9681472266" lon="9.53741387912">
		<tag k="name" v="Krokbekken" />
		<tag k="ssr:stedsnr" v="878575" />
		<tag k="waterway" v="stream" />
	</node>
	<node id="-859033" lat="63.0727111136" lon="9.92052222648">
		<tag k="name" v="Røyadalstjønna" />
		<tag k="natural" v="water" />
		<tag k="ssr:stedsnr" v="574718" />
	</node>
	<node id="-859027" lat="63.1219111101" lon="9.71685555546">
		<tag k="name" v="Fossen" />
		<tag k="natural" v="waterfall" />
		<tag k="ssr:stedsnr" v="757721" />
	</node>
	<node id="-859026" lat="63.1300027772" lon="9.56558888041">
		<tag k="name" v="Langdalsvatnet" />
		<tag k="natural" v="water" />
		<tag k="ssr:stedsnr" v="801472" />
	</node>
	<node id="-859017" lat="63.1087277801" lon="9.6259527733">
		<tag k="name" v="Litmobekken" />
		<tag k="ssr:stedsnr" v="332259" />
		<tag k="waterway" v="stream" />
	</node>
	<node id="-859015" lat="63.1344500001" lon="9.7810277761">
		<tag k="name" v="Breva" />
		<tag k="ssr:stedsnr" v="89294" />
		<tag k="waterway" v="river" />
	</node>
	<node id="-859000" lat="63.0526361149" lon="9.91436666592">
		<tag k="name" v="Kålådalsbekken" />
		<tag k="ssr:stedsnr" v="332683" />
		<tag k="waterway" v="stream" />
	</node>
	<node id="-858997" lat="63.0101972205" lon="9.96526110747">
		<tag k="name" v="Raudåstjønna" />
		<tag k="natural" v="water" />
		<tag k="ssr:stedsnr" v="635378" />
	</node>
	<node id="-858989" lat="63.1160555543" lon="9.83833054802">
		<tag k="name" v="Litjsvarttjønna" />
		<tag k="natural" v="water" />
		<tag k="ssr:stedsnr" v="922047" />
	</node>
	<node id="-858988" lat="63.0354277748" lon="9.94615832475">
		<tag k="name" v="Stavåa" />
		<tag k="ssr:stedsnr" v="862559" />
		<tag k="waterway" v="stream" />
	</node>
	<node id="-858984" lat="63.0519916658" lon="9.72087778573">
		<tag k="name" v="Horva" />
		<tag k="ssr:stedsnr" v="194544" />
		<tag k="waterway" v="stream" />
	</node>
	<node id="-858968" lat="63.0795166692" lon="9.88623333808">
		<tag k="name" v="Langvatnet" />
		<tag k="natural" v="water" />
		<tag k="ssr:stedsnr" v="558543" />
	</node>
	<node id="-858965" lat="63.163640008" lon="9.47462174208">
		<tag k="name" v="Svarttjønna" />
		<tag k="natural" v="water" />
		<tag k="ssr:stedsnr" v="133465" />
	</node>
	<node id="-858958" lat="63.0555750041" lon="9.92209445368">
		<tag k="name" v="Litlbekken" />
		<tag k="ssr:stedsnr" v="211645" />
		<tag k="waterway" v="stream" />
	</node>
	<node id="-858956" lat="63.0268305535" lon="9.73365833732">
		<tag k="name" v="Nørdre Skilsåa" />
		<tag k="ssr:stedsnr" v="635399" />
		<tag k="waterway" v="stream" />
	</node>
	<node id="-858954" lat="63.0610138906" lon="9.94793611738">
		<tag k="name" v="Kjerringøya" />
		<tag k="natural" v="cape" />
		<tag k="ssr:stedsnr" v="574700" />
	</node>
	<node id="-858946" lat="63.075624999" lon="9.79003055255">
		<tag k="name" v="Sæterbekken" />
		<tag k="ssr:stedsnr" v="271558" />
		<tag k="waterway" v="stream" />
	</node>
	<node id="-858943" lat="62.9794222209" lon="9.77770832525">
		<tag k="name" v="Måssåosen" />
		<tag k="natural" v="bay" />
		<tag k="ssr:stedsnr" v="271151" />
	</node>
	<node id="-860288" lat="63.0114166686" lon="9.82683611553">
		<tag k="name" v="Jonsholdbekken" />
		<tag k="ssr:stedsnr" v="150082" />
		<tag k="waterway" v="stream" />
	</node>
	<node id="-858941" lat="63.146869446" lon="9.80048610638">
		<tag k="name" v="Bukkdalsbekken" />
		<tag k="ssr:stedsnr" v="150297" />
		<tag k="waterway" v="stream" />
	</node>
	<node id="-858937" lat="63.0736666636" lon="9.84799166674">
		<tag k="name" v="Storlibekken" />
		<tag k="ssr:stedsnr" v="133460" />
		<tag k="waterway" v="stream" />
	</node>
	<node id="-858934" lat="63.163666665" lon="9.49151389325">
		<tag k="name" v="Koltjønna" />
		<tag k="natural" v="water" />
		<tag k="ssr:stedsnr" v="558546" />
	</node>
	<node id="-858932" lat="62.9721888934" lon="9.74399723173">
		<tag k="name" v="Skaråsbekken" />
		<tag k="ssr:stedsnr" v="818009" />
		<tag k="waterway" v="stream" />
	</node>
	<node id="-858930" lat="63.0875194464" lon="9.81438332594">
		<tag k="name" v="Østre Nertjønna" />
		<tag k="natural" v="water" />
		<tag k="ssr:stedsnr" v="271568" />
	</node>
	<node id="-858928" lat="63.1485249969" lon="9.5658277797">
		<tag k="name" v="Øvre Pungtjønna" />
		<tag k="natural" v="water" />
		<tag k="ssr:stedsnr" v="454008" />
	</node>
	<node id="-858927" lat="63.0097166711" lon="9.99866944695">
		<tag k="name" v="Holsjøen" />
		<tag k="natural" v="water" />
		<tag k="ssr:stedsnr" v="923662" />
		<tag k="water" v="lake" />
	</node>
	<node id="-858926" lat="62.9776249959" lon="9.9350749971">
		<tag k="name" v="Fjellvollbekken" />
		<tag k="ssr:stedsnr" v="498826" />
		<tag k="waterway" v="stream" />
	</node>
	<node id="-858923" lat="63.1312250005" lon="9.66701388829">
		<tag k="name" v="Granatjønna" />
		<tag k="natural" v="water" />
		<tag k="ssr:stedsnr" v="514701" />
	</node>
	<node id="-860968" lat="62.9775500003" lon="9.45556111175">
		<tag k="name" v="Langvatnet" />
		<tag k="natural" v="water" />
		<tag k="ssr:stedsnr" v="73174" />
		<tag k="water" v="lake" />
	</node>
	<node id="-860965" lat="63.0658777778" lon="9.58335277757">
		<tag k="name" v="Langslåttbekken" />
		<tag k="ssr:stedsnr" v="635228" />
		<tag k="waterway" v="stream" />
	</node>
	<node id="-858912" lat="63.0629333335" lon="9.69689443494">
		<tag k="name" v="Kråkbekken" />
		<tag k="ssr:stedsnr" v="969293" />
		<tag k="waterway" v="stream" />
	</node>
	<node id="-860959" lat="63.0146249968" lon="9.69299445224">
		<tag k="name" v="Oa" />
		<tag k="ssr:stedsnr" v="315280" />
		<tag k="waterway" v="stream" />
	</node>
	<node id="-860953" lat="63.1429722219" lon="9.57201111669">
		<tag k="name" v="Hoslynga" />
		<tag k="natural" v="water" />
		<tag k="ssr:stedsnr" v="878023" />
		<tag k="water" v="lake" />
	</node>
	<node id="-858902" lat="63.044944443" lon="9.63536110344">
		<tag k="alt_name" v="Lomtjønna" />
		<tag k="name" v="Storvatnet" />
		<tag k="natural" v="water" />
		<tag k="ssr:stedsnr" v="618339" />
	</node>
	<node id="-858898" lat="62.9729444439" lon="9.81101111355">
		<tag k="name" v="Gryta" />
		<tag k="ssr:stedsnr" v="862832" />
		<tag k="waterway" v="stream" />
	</node>
	<node id="-860945" lat="62.9570972223" lon="9.57494167522">
		<tag k="name" v="Sæterbekken" />
		<tag k="ssr:stedsnr" v="211071" />
		<tag k="waterway" v="stream" />
	</node>
	<node id="-858896" lat="62.9821861079" lon="9.88462777042">
		<tag k="name" v="Svartvatna" />
		<tag k="natural" v="water" />
		<tag k="ssr:stedsnr" v="498829" />
		<tag k="water" v="lake" />
	</node>
	<node id="-860941" lat="63.1463750015" lon="9.7011583403">
		<tag k="name" v="Vemmertjønna" />
		<tag k="natural" v="water" />
		<tag k="ssr:stedsnr" v="453059" />
	</node>
	<node id="-860938" lat="63.1336694418" lon="9.55174165959">
		<tag k="name" v="Øvre Gruvdammen" />
		<tag k="natural" v="water" />
		<tag k="ssr:stedsnr" v="935107" />
	</node>
	<node id="-858883" lat="63.1141777796" lon="9.63181943738">
		<tag k="name" v="Damlivatnet" />
		<tag k="natural" v="water" />
		<tag k="ssr:stedsnr" v="680481" />
	</node>
	<node id="-858879" lat="62.9835583327" lon="9.98911666772">
		<tag k="name" v="Skjetna" />
		<tag k="ssr:stedsnr" v="73763" />
		<tag k="waterway" v="stream" />
	</node>
	<node id="-860920" lat="63.1378777787" lon="9.67128888635">
		<tag k="name" v="Litjvatnet" />
		<tag k="natural" v="water" />
		<tag k="ssr:stedsnr" v="696724" />
		<tag k="water" v="lake" />
	</node>
	<node id="-860918" lat="63.0562249975" lon="9.44292500704">
		<tag k="name" v="Stabbvatnet" />
		<tag k="natural" v="water" />
		<tag k="ssr:stedsnr" v="498472" />
	</node>
	<node id="-860627" lat="62.9462138854" lon="9.49431666545">
		<tag k="name" v="Raufjellbekken" />
		<tag k="ssr:stedsnr" v="211461" />
		<tag k="waterway" v="stream" />
	</node>
	<node id="-860911" lat="63.0652083318" lon="9.90459443503">
		<tag k="name" v="Stenåsfossen" />
		<tag k="natural" v="waterfall" />
		<tag k="ssr:stedsnr" v="696719" />
	</node>
	<node id="-858861" lat="62.9921666647" lon="9.53177777488">
		<tag k="name" v="Snipvatna" />
		<tag k="natural" v="water" />
		<tag k="ssr:stedsnr" v="741214" />
	</node>
	<node id="-858859" lat="62.9044305572" lon="9.59044443751">
		<tag k="name" v="Langvatnet" />
		<tag k="natural" v="water" />
		<tag k="ssr:stedsnr" v="498296" />
	</node>
	<node id="-860902" lat="62.9082138882" lon="9.51801665891">
		<tag k="name" v="Fremmer Bekkdalsbekken" />
		<tag k="ssr:stedsnr" v="574559" />
		<tag k="waterway" v="stream" />
	</node>
	<node id="-858853" lat="63.0011833315" lon="9.99989999886">
		<tag k="name" v="Ljøsåa" />
		<tag k="ssr:stedsnr" v="619671" />
		<tag k="waterway" v="stream" />
	</node>
	<node id="-860900" lat="63.080108331" lon="9.68097223207">
		<tag k="name" v="Sæteråsen" />
		<tag k="natural" v="water" />
		<tag k="ssr:stedsnr" v="29561" />
	</node>
	<node id="-858848" lat="63.0469361079" lon="9.9513249911">
		<tag k="name" v="Fisklaustjønna" />
		<tag k="natural" v="water" />
		<tag k="ssr:stedsnr" v="211634" />
	</node>
	<node id="-858847" lat="63.0024305592" lon="9.72671667626">
		<tag k="name" v="Undteighølen" />
		<tag k="place" v="locality" />
		<tag k="ssr:stedsnr" v="939442" />
	</node>
	<node id="-860893" lat="63.0780222259" lon="9.61757499826">
		<tag k="name" v="Bruhølen" />
		<tag k="place" v="locality" />
		<tag k="ssr:stedsnr" v="818259" />
	</node>
	<node id="-858843" lat="62.9883333368" lon="9.93070277569">
		<tag k="name" v="Litjperholtjønna" />
		<tag k="natural" v="water" />
		<tag k="ssr:stedsnr" v="332652" />
	</node>
	<node id="-860887" lat="63.0099972205" lon="9.98998888222">
		<tag k="name" v="Ravholmen" />
		<tag k="place" v="islet" />
		<tag k="ssr:stedsnr" v="696291" />
	</node>
	<node id="-860883" lat="63.0610194425" lon="9.90040555059">
		<tag k="name" v="Holbekken" />
		<tag k="ssr:stedsnr" v="696718" />
		<tag k="waterway" v="stream" />
	</node>
	<node id="-860881" lat="62.9608222236" lon="9.5971027844">
		<tag k="name" v="Stobekken" />
		<tag k="ssr:stedsnr" v="73150" />
		<tag k="waterway" v="stream" />
	</node>
	<node id="-860876" lat="63.1399277754" lon="9.71155277353">
		<tag k="name" v="Raubekken" />
		<tag k="ssr:stedsnr" v="696293" />
		<tag k="waterway" v="stream" />
	</node>
	<node id="-860875" lat="63.0843166689" lon="9.58914166151">
		<tag k="name" v="Merkesbekken" />
		<tag k="ssr:stedsnr" v="453051" />
		<tag k="waterway" v="stream" />
	</node>
	<node id="-858825" lat="63.147627775" lon="9.46043333835">
		<tag k="name" v="Bårdshaugbekken" />
		<tag k="ssr:stedsnr" v="635354" />
		<tag k="waterway" v="stream" />
	</node>
	<node id="-858821" lat="63.0301444418" lon="9.5045055652">
		<tag k="name" v="Stangabokbekken" />
		<tag k="ssr:stedsnr" v="939432" />
		<tag k="waterway" v="stream" />
	</node>
	<node id="-860863" lat="63.0576583356" lon="9.67842499855">
		<tag k="name" v="Gjelbekken" />
		<tag k="ssr:stedsnr" v="757166" />
		<tag k="waterway" v="stream" />
	</node>
	<node id="-858814" lat="63.0727333295" lon="9.87093888954">
		<tag k="name" v="Frantzbekken" />
		<tag k="ssr:stedsnr" v="757692" />
		<tag k="waterway" v="stream" />
	</node>
	<node id="-858813" lat="63.1573583305" lon="9.54519999471">
		<tag k="name" v="Bjøråa" />
		<tag k="ssr:stedsnr" v="862542" />
		<tag k="waterway" v="stream" />
	</node>
	<node id="-858811" lat="62.9843972262" lon="9.65671110858">
		<tag k="name" v="Tverrbekken" />
		<tag k="ssr:stedsnr" v="332231" />
		<tag k="waterway" v="stream" />
	</node>
	<node id="-858809" lat="62.9691666675" lon="9.61445555454">
		<tag k="name" v="Eldammen" />
		<tag k="ssr:stedsnr" v="29263" />
		<tag k="waterway" v="dam" />
	</node>
	<node id="-860856" lat="63.0071777807" lon="9.81330554861">
		<tag k="name" v="Blæsterbekken" />
		<tag k="ssr:stedsnr" v="332083" />
		<tag k="waterway" v="stream" />
	</node>
	<node id="-860855" lat="63.0915666639" lon="9.83937778242">
		<tag k="name" v="Grantjønna" />
		<tag k="natural" v="water" />
		<tag k="ssr:stedsnr" v="696741" />
	</node>
	<node id="-858804" lat="63.1265111069" lon="9.55275555808">
		<tag k="name" v="Bjørtjønna" />
		<tag k="natural" v="water" />
		<tag k="ssr:stedsnr" v="437504" />
	</node>
	<node id="-860275" lat="62.9182722191" lon="9.62147500032">
		<tag k="name" v="Frostmyrtjønna" />
		<tag k="natural" v="water" />
		<tag k="ssr:stedsnr" v="12242" />
	</node>
	<node id="-858799" lat="63.0611777821" lon="9.9517111104">
		<tag k="name" v="Skomakerøya" />
		<tag k="place" v="island" />
		<tag k="ssr:stedsnr" v="89680" />
	</node>
	<node id="-858797" lat="63.038763888" lon="9.59793888584">
		<tag k="name" v="Fjellbekken" />
		<tag k="ssr:stedsnr" v="514270" />
		<tag k="waterway" v="stream" />
	</node>
	<node id="-860843" lat="63.0100888881" lon="9.77121389068">
		<tag k="name" v="Ryånda" />
		<tag k="ssr:stedsnr" v="437668" />
		<tag k="waterway" v="stream" />
	</node>
	<node id="-860839" lat="63.0962884641" lon="9.87025933944">
		<tag k="name" v="Lomtjønna" />
		<tag k="natural" v="water" />
		<tag k="ssr:stedsnr" v="28744" />
	</node>
	<node id="-858789" lat="62.9820916688" lon="9.91863611259">
		<tag k="name" v="Langtjønnbekken" />
		<tag k="ssr:stedsnr" v="89679" />
		<tag k="waterway" v="stream" />
	</node>
	<node id="-858785" lat="63.0495555581" lon="9.93078889821">
		<tag k="name" v="Storortjønna" />
		<tag k="natural" v="water" />
		<tag k="ssr:stedsnr" v="332644" />
	</node>
	<node id="-858781" lat="63.1226805537" lon="9.6789361095">
		<tag k="name" v="Fagerlivatnet" />
		<tag k="natural" v="water" />
		<tag k="ssr:stedsnr" v="757714" />
		<tag k="water" v="lake" />
	</node>
	<node id="-860824" lat="63.0980416689" lon="9.79576945096">
		<tag k="name" v="Prestbuvatnet" />
		<tag k="natural" v="water" />
		<tag k="ssr:stedsnr" v="12557" />
		<tag k="water" v="lake" />
	</node>
	<node id="-860823" lat="62.9930999975" lon="9.73862776808">
		<tag k="name" v="Damøya" />
		<tag k="place" v="island" />
		<tag k="ssr:stedsnr" v="89125" />
	</node>
	<node id="-858774" lat="63.0471444437" lon="9.61043332587">
		<tag k="name" v="Mosbrunnskjerva" />
		<tag k="ssr:stedsnr" v="923387" />
		<tag k="waterway" v="stream" />
	</node>
	<node id="-858771" lat="63.092099997" lon="9.66574444143">
		<tag k="fixme" v="multiple name tags, choose one and add the other to alt_name" />
		<tag k="name" v="Slåttjønna;Gårsengdalstjønna" />
		<tag k="natural" v="water" />
		<tag k="ssr:stedsnr" v="376425" />
	</node>
	<node id="-858769" lat="63.1159444418" lon="9.52420556421">
		<tag k="name" v="Råbekken" />
		<tag k="ssr:stedsnr" v="680487" />
		<tag k="waterway" v="stream" />
	</node>
	<node id="-860815" lat="63.0167583368" lon="9.65000000684">
		<tag k="name" v="Litjsya" />
		<tag k="ssr:stedsnr" v="315274" />
		<tag k="waterway" v="stream" />
	</node>
	<node id="-860812" lat="63.1320916647" lon="9.76125277699">
		<tag k="name" v="Bustobekken" />
		<tag k="ssr:stedsnr" v="818268" />
		<tag k="waterway" v="stream" />
	</node>
	<node id="-860811" lat="63.0153527811" lon="9.9827055512">
		<tag k="name" v="Skjelbreidtjønna" />
		<tag k="natural" v="water" />
		<tag k="ssr:stedsnr" v="73676" />
	</node>
	<node id="-860800" lat="63.0958055528" lon="9.85728333753">
		<tag k="name" v="Vaulen" />
		<tag k="natural" v="bay" />
		<tag k="ssr:stedsnr" v="149761" />
	</node>
	<node id="-860798" lat="63.1412833367" lon="9.88616111806">
		<tag k="name" v="Orvika" />
		<tag k="natural" v="bay" />
		<tag k="ssr:stedsnr" v="939733" />
	</node>
	<node id="-860266" lat="63.113377777" lon="9.48668055708">
		<tag k="name" v="Myrhaugbekken" />
		<tag k="ssr:stedsnr" v="194393" />
		<tag k="waterway" v="stream" />
	</node>
	<node id="-860793" lat="62.980558337" lon="9.71819999628">
		<tag k="name" v="Kjellbekken" />
		<tag k="ssr:stedsnr" v="332087" />
		<tag k="waterway" v="stream" />
	</node>
	<node id="-858730" lat="63.0496500006" lon="9.44760834238">
		<tag k="name" v="Snausvatnet" />
		<tag k="natural" v="water" />
		<tag k="ssr:stedsnr" v="923384" />
	</node>
	<node id="-860777" lat="63.1197388933" lon="9.77483888067">
		<tag k="name" v="Lomtjønna" />
		<tag k="natural" v="water" />
		<tag k="ssr:stedsnr" v="619053" />
	</node>
	<node id="-860776" lat="63.0783472219" lon="9.69455276976">
		<tag k="name" v="Olskjelda" />
		<tag k="natural" v="spring" />
		<tag k="ssr:stedsnr" v="787290" />
	</node>
	<node id="-860774" lat="62.9713972185" lon="9.60134166435">
		<tag k="name" v="Ela" />
		<tag k="ssr:stedsnr" v="73142" />
		<tag k="waterway" v="river" />
	</node>
	<node id="-860770" lat="63.1309194462" lon="9.78526111005">
		<tag k="name" v="Storsjursåstjønna" />
		<tag k="natural" v="water" />
		<tag k="ssr:stedsnr" v="818271" />
	</node>
	<node id="-860769" lat="62.9872194471" lon="9.63203333779">
		<tag k="name" v="Tverrotla" />
		<tag k="ssr:stedsnr" v="635202" />
		<tag k="waterway" v="stream" />
	</node>
	<node id="-858719" lat="63.0746888872" lon="9.92593611612">
		<tag k="name" v="Litjdamvatnet" />
		<tag k="natural" v="water" />
		<tag k="ssr:stedsnr" v="558531" />
	</node>
	<node id="-860766" lat="63.0863138914" lon="9.71481945031">
		<tag k="name" v="Svartbekken" />
		<tag k="ssr:stedsnr" v="211472" />
		<tag k="waterway" v="stream" />
	</node>
	<node id="-860765" lat="63.0909694431" lon="9.50310555291">
		<tag k="name" v="Liabekken" />
		<tag k="ssr:stedsnr" v="453451" />
		<tag k="waterway" v="stream" />
	</node>
	<node id="-858712" lat="63.0459194406" lon="9.92677777672">
		<tag k="name" v="Langvassbekken" />
		<tag k="ssr:stedsnr" v="574681" />
		<tag k="waterway" v="stream" />
	</node>
	<node id="-858711" lat="62.9823972244" lon="9.72137777215">
		<tag k="name" v="Kronoffkjelda" />
		<tag k="ssr:stedsnr" v="271117" />
		<tag k="waterway" v="stream" />
	</node>
	<node id="-858710" lat="63.0758506657" lon="9.93466277744">
		<tag k="name" v="Igltjønna" />
		<tag k="natural" v="water" />
		<tag k="ssr:stedsnr" v="558532" />
	</node>
	<node id="-858709" lat="62.9896888891" lon="9.72224722934">
		<tag k="name" v="Uva" />
		<tag k="ssr:stedsnr" v="558796" />
		<tag k="waterway" v="stream" />
	</node>
	<node id="-860259" lat="63.1596555568" lon="9.45074721669">
		<tag k="name" v="Sagbekken" />
		<tag k="ssr:stedsnr" v="574472" />
		<tag k="waterway" v="stream" />
	</node>
	<node id="-860750" lat="62.9057166699" lon="9.5830916748">
		<tag k="name" v="Langvatnet" />
		<tag k="natural" v="water" />
		<tag k="ssr:stedsnr" v="332072" />
	</node>
	<node id="-858701" lat="63.1291388873" lon="9.68837500558">
		<tag k="name" v="Bjørnlivassdammen" />
		<tag k="ssr:stedsnr" v="150694" />
		<tag k="waterway" v="dam" />
	</node>
	<node id="-860747" lat="62.9534500037" lon="9.56533333164">
		<tag k="name" v="Høylukneppbekken" />
		<tag k="ssr:stedsnr" v="332069" />
		<tag k="waterway" v="stream" />
	</node>
	<node id="-858696" lat="63.1219361142" lon="9.87117221284">
		<tag k="name" v="Slættbekken" />
		<tag k="ssr:stedsnr" v="635737" />
		<tag k="waterway" v="stream" />
	</node>
	<node id="-858694" lat="63.1585083314" lon="9.5658861015">
		<tag k="name" v="Langbekken" />
		<tag k="ssr:stedsnr" v="194510" />
		<tag k="waterway" v="stream" />
	</node>
	<node id="-860740" lat="62.9928499983" lon="9.71036666516">
		<tag k="name" v="Vargdalsbekken" />
		<tag k="ssr:stedsnr" v="514105" />
		<tag k="waterway" v="stream" />
	</node>
	<node id="-858690" lat="63.1159388896" lon="9.75398889748">
		<tag k="name" v="Gruvtjønna" />
		<tag k="natural" v="water" />
		<tag k="ssr:stedsnr" v="150685" />
	</node>
	<node id="-858689" lat="62.9587472192" lon="9.70592777485">
		<tag k="name" v="Krokan" />
		<tag k="ssr:stedsnr" v="211175" />
		<tag k="waterway" v="stream" />
	</node>
	<node id="-858688" lat="63.1488805591" lon="9.51811667533">
		<tag k="name" v="Gjelvollbekken" />
		<tag k="ssr:stedsnr" v="635334" />
		<tag k="waterway" v="stream" />
	</node>
	<node id="-858686" lat="62.9735750028" lon="9.62007222362">
		<tag k="name" v="Litjela" />
		<tag k="ssr:stedsnr" v="332203" />
		<tag k="waterway" v="stream" />
	</node>
	<node id="-860733" lat="62.9830277784" lon="9.62952222357">
		<tag k="name" v="Langotla" />
		<tag k="ssr:stedsnr" v="635199" />
		<tag k="waterway" v="stream" />
	</node>
	<node id="-858677" lat="63.1082027758" lon="9.85030833258">
		<tag k="name" v="Bergtjønna" />
		<tag k="natural" v="water" />
		<tag k="ssr:stedsnr" v="498034" />
	</node>
	<node id="-860594" lat="62.975397225" lon="9.5640527784">
		<tag k="name" v="Daltjønna" />
		<tag k="natural" v="water" />
		<tag k="ssr:stedsnr" v="89100" />
	</node>
	<node id="-858666" lat="63.0419194403" lon="9.95684167447">
		<tag k="name" v="Oppigardstjønna" />
		<tag k="natural" v="water" />
		<tag k="ssr:stedsnr" v="89660" />
	</node>
	<node id="-858661" lat="63.0614166678" lon="9.52866110491">
		<tag k="name" v="Solemsbekken" />
		<tag k="ssr:stedsnr" v="878538" />
		<tag k="waterway" v="stream" />
	</node>
	<node id="-860703" lat="63.1270777797" lon="9.76745556337">
		<tag k="name" v="Raudbekken" />
		<tag k="ssr:stedsnr" v="939269" />
		<tag k="waterway" v="stream" />
	</node>
	<node id="-858645" lat="63.1249138894" lon="9.64431945418">
		<tag k="name" v="Skavlitjønna" />
		<tag k="natural" v="water" />
		<tag k="ssr:stedsnr" v="757670" />
	</node>
	<node id="-858644" lat="63.0634249968" lon="9.62298333951">
		<tag k="name" v="Sagbekken" />
		<tag k="ssr:stedsnr" v="757250" />
		<tag k="waterway" v="stream" />
	</node>
	<node id="-860690" lat="63.0548555545" lon="9.6507888804">
		<tag k="name" v="Øya" />
		<tag k="natural" v="cape" />
		<tag k="ssr:stedsnr" v="255352" />
	</node>
	<node id="-860931" lat="63.1129000041" lon="9.79300834289">
		<tag k="name" v="Rønningstjønna" />
		<tag k="natural" v="water" />
		<tag k="ssr:stedsnr" v="939303" />
	</node>
	<node id="-860685" lat="63.0941611082" lon="9.75695000012">
		<tag k="name" v="Okstjønna" />
		<tag k="natural" v="water" />
		<tag k="ssr:stedsnr" v="211468" />
	</node>
	<node id="-858635" lat="63.1255111082" lon="9.65089166039">
		<tag k="name" v="Moshaugtjønna" />
		<tag k="natural" v="water" />
		<tag k="ssr:stedsnr" v="150676" />
	</node>
	<node id="-860678" lat="63.0001583325" lon="9.86276388397">
		<tag k="name" v="Daltjønna" />
		<tag k="natural" v="water" />
		<tag k="ssr:stedsnr" v="752520" />
	</node>
	<node id="-860674" lat="63.0413555578" lon="9.87527778567">
		<tag k="name" v="Kjeglvassbekken" />
		<tag k="ssr:stedsnr" v="696693" />
		<tag k="waterway" v="stream" />
	</node>
	<node id="-860672" lat="63.0878611079" lon="9.75275556041">
		<tag k="name" v="Merkesbekken" />
		<tag k="ssr:stedsnr" v="392510" />
		<tag k="waterway" v="stream" />
	</node>
	<node id="-860658" lat="62.9878166709" lon="9.98118610145">
		<tag k="name" v="Boltjønna" />
		<tag k="natural" v="water" />
		<tag k="ssr:stedsnr" v="149330" />
	</node>
	<node id="-860653" lat="63.1580472242" lon="9.48418333839">
		<tag k="name" v="Gårdslykkjtjønna" />
		<tag k="natural" v="water" />
		<tag k="ssr:stedsnr" v="878413" />
	</node>
	<node id="-860647" lat="63.060883331" lon="9.91146389837">
		<tag k="name" v="Lomtjønna" />
		<tag k="natural" v="water" />
		<tag k="ssr:stedsnr" v="939715" />
	</node>
	<node id="-858597" lat="63.0248916709" lon="9.68651944538">
		<tag k="name" v="Serja" />
		<tag k="ssr:stedsnr" v="574232" />
		<tag k="waterway" v="stream" />
	</node>
	<node id="-858579" lat="63.1092055587" lon="9.55914167594">
		<tag k="name" v="Spjøtåa" />
		<tag k="ssr:stedsnr" v="255436" />
		<tag k="waterway" v="stream" />
	</node>
	<node id="-858578" lat="63.0770314235" lon="9.94630946051">
		<tag k="name" v="Middagstjønna" />
		<tag k="natural" v="water" />
		<tag k="ssr:stedsnr" v="454815" />
	</node>
	<node id="-858574" lat="63.1296861112" lon="9.65472499389">
		<tag k="name" v="Dalatjønna" />
		<tag k="natural" v="water" />
		<tag k="ssr:stedsnr" v="498530" />
	</node>
	<node id="-858568" lat="62.9627972247" lon="9.52272778266">
		<tag k="name" v="Resvatnet" />
		<tag k="natural" v="water" />
		<tag k="ssr:stedsnr" v="679139" />
		<tag k="water" v="lake" />
	</node>
	<node id="-860608" lat="63.0727055586" lon="9.93167500935">
		<tag k="name" v="Svarttjønna" />
		<tag k="natural" v="water" />
		<tag k="ssr:stedsnr" v="818684" />
	</node>
	<node id="-858557" lat="63.1303027734" lon="9.78630555576">
		<tag k="name" v="Sjurdsåstjønnin" />
		<tag k="natural" v="water" />
		<tag k="ssr:stedsnr" v="315062" />
	</node>
	<node id="-858551" lat="63.1149027754" lon="9.59941388325">
		<tag k="name" v="Litjdruggu" />
		<tag k="ssr:stedsnr" v="757265" />
		<tag k="waterway" v="stream" />
	</node>
	<node id="-858549" lat="63.121938886" lon="9.47703332933">
		<tag k="name" v="Merratjønna" />
		<tag k="natural" v="water" />
		<tag k="ssr:stedsnr" v="558512" />
	</node>
	<node id="-858546" lat="63.0083333324" lon="9.94709167391">
		<tag k="name" v="Bjørnatjønna" />
		<tag k="natural" v="water" />
		<tag k="ssr:stedsnr" v="635339" />
	</node>
	<node id="-860591" lat="63.1420722239" lon="9.87426110132">
		<tag k="name" v="Røyadalstjønna" />
		<tag k="natural" v="water" />
		<tag k="ssr:stedsnr" v="271802" />
	</node>
	<node id="-860590" lat="63.1375861074" lon="9.5280944377">
		<tag k="name" v="Nonskarstjønna" />
		<tag k="natural" v="water" />
		<tag k="ssr:stedsnr" v="211023" />
	</node>
	<node id="-860579" lat="63.1368666684" lon="9.78909999281">
		<tag k="name" v="Sagåstjønna" />
		<tag k="natural" v="water" />
		<tag k="ssr:stedsnr" v="801078" />
	</node>
	<node id="-858529" lat="63.0106444411" lon="9.96646944598">
		<tag k="name" v="Raudåstjønna" />
		<tag k="natural" v="water" />
		<tag k="ssr:stedsnr" v="255689" />
	</node>
	<node id="-858524" lat="63.0848333326" lon="9.65211389588">
		<tag k="name" v="Lauva" />
		<tag k="ssr:stedsnr" v="574243" />
		<tag k="waterway" v="stream" />
	</node>
	<node id="-858523" lat="63.128655557" lon="9.59729444089">
		<tag k="name" v="Druggu" />
		<tag k="ssr:stedsnr" v="133423" />
		<tag k="waterway" v="stream" />
	</node>
	<node id="-860568" lat="63.006624998" lon="9.86775278089">
		<tag k="name" v="Gammelslåttjønnan" />
		<tag k="natural" v="water" />
		<tag k="ssr:stedsnr" v="73658" />
	</node>
	<node id="-858519" lat="63.1339000027" lon="9.8895333337">
		<tag k="name" v="Litjholmen" />
		<tag k="place" v="islet" />
		<tag k="ssr:stedsnr" v="392609" />
	</node>
	<node id="-858516" lat="62.9624027742" lon="9.50276666098">
		<tag k="name" v="Tittjønna" />
		<tag k="natural" v="water" />
		<tag k="ssr:stedsnr" v="801144" />
	</node>
	<node id="-860227" lat="63.1461111101" lon="9.62611389331">
		<tag k="name" v="Gammeldammen" />
		<tag k="ssr:stedsnr" v="514042" />
		<tag k="waterway" v="stream" />
	</node>
	<node id="-858509" lat="63.116569448" lon="9.8411722127">
		<tag k="name" v="Lorttjønna" />
		<tag k="natural" v="water" />
		<tag k="ssr:stedsnr" v="635712" />
	</node>
	<node id="-858508" lat="63.1355666666" lon="9.84723889142">
		<tag k="name" v="Sagelva" />
		<tag k="ssr:stedsnr" v="133421" />
		<tag k="waterway" v="river" />
	</node>
	<node id="-860233" lat="63.0763499392" lon="9.94674446668">
		<tag k="name" v="Middagstjønna" />
		<tag k="natural" v="water" />
		<tag k="ssr:stedsnr" v="316571" />
	</node>
	<node id="-860552" lat="63.1242055584" lon="9.66572499224">
		<tag k="name" v="Liahaugtjønna" />
		<tag k="natural" v="water" />
		<tag k="ssr:stedsnr" v="271783" />
	</node>
	<node id="-858503" lat="63.0067611071" lon="9.7959277719">
		<tag k="name" v="Sandåa" />
		<tag k="ssr:stedsnr" v="878092" />
		<tag k="waterway" v="stream" />
	</node>
	<node id="-858502" lat="63.0632999962" lon="9.75608334029">
		<tag k="name" v="Vollabekktjønna" />
		<tag k="natural" v="water" />
		<tag k="ssr:stedsnr" v="12618" />
	</node>
	<node id="-858501" lat="63.0610722189" lon="9.63843334297">
		<tag k="name" v="Tengardstraumen" />
		<tag k="ssr:stedsnr" v="757234" />
		<tag k="waterway" v="rapids" />
	</node>
	<node id="-860548" lat="62.9609166637" lon="9.7122361202">
		<tag k="name" v="Fagerdalsbekken" />
		<tag k="ssr:stedsnr" v="453013" />
		<tag k="waterway" v="stream" />
	</node>
	<node id="-858494" lat="63.0967722204" lon="9.46891944675">
		<tag k="name" v="Baklibekken" />
		<tag k="ssr:stedsnr" v="271498" />
		<tag k="waterway" v="stream" />
	</node>
	<node id="-858488" lat="62.9859555562" lon="9.93940833287">
		<tag k="name" v="Langtjønna" />
		<tag k="natural" v="water" />
		<tag k="ssr:stedsnr" v="498785" />
	</node>
	<node id="-858485" lat="63.1454333372" lon="9.85903888397">
		<tag k="name" v="Gortjønna" />
		<tag k="natural" v="water" />
		<tag k="ssr:stedsnr" v="392607" />
	</node>
	<node id="-858484" lat="63.0806916671" lon="9.78622777973">
		<tag k="name" v="Bogoslåtta" />
		<tag k="ssr:stedsnr" v="862509" />
		<tag k="waterway" v="stream" />
	</node>
	<node id="-858480" lat="63.0703500018" lon="9.51568611431">
		<tag k="name" v="Haukåa" />
		<tag k="ssr:stedsnr" v="376401" />
		<tag k="waterway" v="stream" />
	</node>
	<node id="-858479" lat="63.0126333304" lon="9.80196666962">
		<tag k="name" v="Stordalsbekken" />
		<tag k="ssr:stedsnr" v="878095" />
		<tag k="waterway" v="stream" />
	</node>
	<node id="-860524" lat="62.9539249977" lon="9.62573055313">
		<tag k="name" v="Dammen" />
		<tag k="place" v="locality" />
		<tag k="ssr:stedsnr" v="939255" />
	</node>
	<node id="-860520" lat="62.9892888909" lon="9.51613610568">
		<tag k="alt_name" v="Jøssåa" />
		<tag k="name" v="Ljøsåa" />
		<tag k="ssr:stedsnr" v="195201" />
		<tag k="waterway" v="stream" />
	</node>
	<node id="-858471" lat="63.1357499987" lon="9.88337777273">
		<tag k="name" v="Svorksjøen" />
		<tag k="natural" v="water" />
		<tag k="ssr:stedsnr" v="817542" />
		<tag k="water" v="lake" />
	</node>
	<node id="-860518" lat="63.0454388861" lon="9.78381388783">
		<tag k="name" v="Messa" />
		<tag k="ssr:stedsnr" v="740577" />
		<tag k="waterway" v="stream" />
	</node>
	<node id="-860516" lat="63.0759583352" lon="9.81782222068">
		<tag k="name" v="Pungtjønna" />
		<tag k="natural" v="water" />
		<tag k="ssr:stedsnr" v="514508" />
	</node>
	<node id="-860512" lat="62.9985166707" lon="9.71545555036">
		<tag k="name" v="Snoa" />
		<tag k="ssr:stedsnr" v="211437" />
		<tag k="waterway" v="stream" />
	</node>
	<node id="-858462" lat="63.1033999983" lon="9.52473334208">
		<tag k="name" v="Bergbekken" />
		<tag k="ssr:stedsnr" v="73475" />
		<tag k="waterway" v="stream" />
	</node>
	<node id="-858460" lat="62.9327000039" lon="9.56986945265">
		<tag k="name" v="Siltjønna" />
		<tag k="natural" v="water" />
		<tag k="ssr:stedsnr" v="271079" />
	</node>
	<node id="-860506" lat="63.0191972188" lon="9.80475278576">
		<tag k="name" v="Slåttbekken" />
		<tag k="ssr:stedsnr" v="392486" />
		<tag k="waterway" v="stream" />
	</node>
	<node id="-858452" lat="63.1711388855" lon="9.4681027804">
		<tag k="name" v="Kvernbekken" />
		<tag k="ssr:stedsnr" v="939378" />
		<tag k="waterway" v="stream" />
	</node>
	<node id="-858451" lat="63.0815722246" lon="9.91931944886">
		<tag k="name" v="Jutultjønna" />
		<tag k="natural" v="water" />
		<tag k="ssr:stedsnr" v="150654" />
	</node>
	<node id="-858444" lat="63.0705527781" lon="9.58311944809">
		<tag k="fixme" v="multiple name tags, choose one and add the other to alt_name" />
		<tag k="name" v="Toråa;Lykkjbekken" />
		<tag k="ssr:stedsnr" v="376406" />
		<tag k="waterway" v="stream" />
	</node>
	<node id="-860491" lat="63.0070444432" lon="9.73166110791">
		<tag k="name" v="Tørbersøya" />
		<tag k="place" v="islet" />
		<tag k="ssr:stedsnr" v="73653" />
	</node>
	<node id="-860486" lat="63.0333305564" lon="9.558505548">
		<tag k="name" v="Stylbekken" />
		<tag k="ssr:stedsnr" v="29088" />
		<tag k="waterway" v="stream" />
	</node>
	<node id="-858432" lat="62.9686333379" lon="9.59578332797">
		<tag k="name" v="Åstjønna" />
		<tag k="natural" v="water" />
		<tag k="ssr:stedsnr" v="757244" />
	</node>
	<node id="-860476" lat="62.9793055598" lon="9.69136944218">
		<tag k="name" v="Otla" />
		<tag k="ssr:stedsnr" v="194136" />
		<tag k="waterway" v="river" />
	</node>
	<node id="-860895" lat="63.1687527782" lon="9.58877222701">
		<tag k="name" v="Kottjønna" />
		<tag k="natural" v="water" />
		<tag k="ssr:stedsnr" v="878018" />
	</node>
	<node id="-858423" lat="63.0538305543" lon="9.68096110318">
		<tag k="name" v="Vigda" />
		<tag k="ssr:stedsnr" v="332163" />
		<tag k="waterway" v="stream" />
	</node>
	<node id="-858421" lat="62.8676250013" lon="9.48559722789">
		<tag k="name" v="Fjellbekken" />
		<tag k="ssr:stedsnr" v="12868" />
		<tag k="waterway" v="stream" />
	</node>
	<node id="-860464" lat="63.0220222196" lon="9.63350277404">
		<tag k="name" v="Rånnåmelbekken" />
		<tag k="ssr:stedsnr" v="255336" />
		<tag k="waterway" v="stream" />
	</node>
	<node id="-858415" lat="63.102380556" lon="9.84401943783">
		<tag k="name" v="Leirtjønna" />
		<tag k="natural" v="water" />
		<tag k="ssr:stedsnr" v="922004" />
	</node>
	<node id="-858410" lat="63.0181361117" lon="9.99814721746">
		<tag k="name" v="Dammen" />
		<tag k="place" v="locality" />
		<tag k="ssr:stedsnr" v="696399" />
	</node>
	<node id="-860453" lat="63.0678249992" lon="9.53557222054">
		<tag k="name" v="Jøngbekken" />
		<tag k="ssr:stedsnr" v="558409" />
		<tag k="waterway" v="stream" />
	</node>
	<node id="-860451" lat="63.0965500009" lon="9.564819441">
		<tag k="name" v="Åsskjerva" />
		<tag k="ssr:stedsnr" v="497396" />
		<tag k="waterway" v="river" />
	</node>
	<node id="-858400" lat="63.1374416643" lon="9.50906110474">
		<tag k="name" v="Laksåa" />
		<tag k="ssr:stedsnr" v="862519" />
		<tag k="waterway" v="stream" />
	</node>
	<node id="-858393" lat="63.0574916689" lon="9.78974167489">
		<tag k="name" v="Fjelltjønna" />
		<tag k="natural" v="water" />
		<tag k="ssr:stedsnr" v="12609" />
	</node>
	<node id="-860439" lat="63.0479499964" lon="9.90727777785">
		<tag k="name" v="Litjortjønna" />
		<tag k="natural" v="water" />
		<tag k="ssr:stedsnr" v="939691" />
	</node>
	<node id="-858388" lat="63.1026111136" lon="9.75765833865">
		<tag k="name" v="Katt-tjønna" />
		<tag k="natural" v="water" />
		<tag k="ssr:stedsnr" v="878524" />
	</node>
	<node id="-860435" lat="63.0839305574" lon="9.80558055523">
		<tag k="name" v="Svartvatnet" />
		<tag k="natural" v="water" />
		<tag k="ssr:stedsnr" v="922481" />
		<tag k="water" v="lake" />
	</node>
	<node id="-860433" lat="63.0185333326" lon="9.94461945386">
		<tag k="alt_name" v="Hørrvatnet" />
		<tag k="name" v="Hørvatnet" />
		<tag k="natural" v="water" />
		<tag k="ssr:stedsnr" v="558678" />
	</node>
	<node id="-860430" lat="63.0275250017" lon="9.8149750021">
		<tag k="name" v="Skittenbekken" />
		<tag k="ssr:stedsnr" v="376571" />
		<tag k="waterway" v="stream" />
	</node>
	<node id="-858371" lat="62.9130611112" lon="9.59364166473">
		<tag k="name" v="Ytter Bjugntjønna" />
		<tag k="natural" v="water" />
		<tag k="ssr:stedsnr" v="574213" />
	</node>
	<node id="-860415" lat="62.9730138867" lon="9.94571945295">
		<tag k="name" v="Pikhåmmårtjønna" />
		<tag k="natural" v="water" />
		<tag k="old_name" v="Piktjørna;Piktjønna" />
		<tag k="ssr:stedsnr" v="376823" />
	</node>
	<node id="-860413" lat="63.1501361096" lon="9.57828055158">
		<tag k="name" v="Lomtjønna" />
		<tag k="natural" v="water" />
		<tag k="ssr:stedsnr" v="332027" />
	</node>
	<node id="-858362" lat="62.97877778" lon="9.77892223199">
		<tag k="name" v="Øyan" />
		<tag k="place" v="island" />
		<tag k="ssr:stedsnr" v="211132" />
	</node>
	<node id="-858361" lat="63.0749999966" lon="9.78013610606">
		<tag k="name" v="Fjøsbekken" />
		<tag k="ssr:stedsnr" v="497490" />
		<tag k="waterway" v="stream" />
	</node>
	<node id="-858359" lat="63.0483111098" lon="9.91358889171">
		<tag k="name" v="Midtortjønna" />
		<tag k="natural" v="water" />
		<tag k="ssr:stedsnr" v="757656" />
	</node>
	<node id="-858357" lat="62.9703472205" lon="9.98308056279">
		<tag k="name" v="Ljøsåa" />
		<tag k="ssr:stedsnr" v="939392" />
		<tag k="waterway" v="stream" />
	</node>
	<node id="-858355" lat="63.1046083347" lon="9.85850834069">
		<tag k="name" v="Auretjønna" />
		<tag k="natural" v="water" />
		<tag k="ssr:stedsnr" v="922001" />
	</node>
	<node id="-860398" lat="63.0269611142" lon="9.82665277063">
		<tag k="name" v="Skjetnbekken" />
		<tag k="ssr:stedsnr" v="392475" />
		<tag k="waterway" v="stream" />
	</node>
	<node id="-858348" lat="63.0674916638" lon="9.79994166629">
		<tag k="name" v="Lonflåa" />
		<tag k="ssr:stedsnr" v="316668" />
		<tag k="waterway" v="stream" />
	</node>
	<node id="-860385" lat="62.9663333357" lon="9.59775834056">
		<tag k="name" v="Sæterbekken" />
		<tag k="ssr:stedsnr" v="939261" />
		<tag k="waterway" v="stream" />
	</node>
	<node id="-860500" lat="63.1229527783" lon="9.55717221251">
		<tag k="name" v="Kaldvetlet" />
		<tag k="natural" v="spring" />
		<tag k="ssr:stedsnr" v="453019" />
	</node>
	<node id="-858332" lat="63.060433331" lon="9.91240555123">
		<tag k="name" v="Lomtjønna" />
		<tag k="natural" v="water" />
		<tag k="ssr:stedsnr" v="12603" />
	</node>
	<node id="-858330" lat="62.9662305581" lon="9.69086389443">
		<tag k="name" v="Resa" />
		<tag k="ssr:stedsnr" v="437164" />
		<tag k="waterway" v="river" />
	</node>
	<node id="-860372" lat="63.0150916699" lon="9.93658888023">
		<tag k="name" v="Lomtjønna" />
		<tag k="natural" v="water" />
		<tag k="ssr:stedsnr" v="878387" />
	</node>
	<node id="-860371" lat="63.1195694413" lon="9.83638888559">
		<tag k="name" v="Storsvarttjønna" />
		<tag k="natural" v="water" />
		<tag k="ssr:stedsnr" v="740035" />
	</node>
	<node id="-860195" lat="62.9178166676" lon="9.59777777616">
		<tag k="name" v="Midter Bjugntjønna" />
		<tag k="natural" v="water" />
		<tag k="ssr:stedsnr" v="454186" />
	</node>
	<node id="-860365" lat="63.0098416678" lon="9.99305832614">
		<tag k="name" v="Litjholmen" />
		<tag k="place" v="islet" />
		<tag k="ssr:stedsnr" v="271339" />
	</node>
	<node id="-860362" lat="63.0231583342" lon="9.49020000105">
		<tag k="name" v="Stubbhosso" />
		<tag k="ssr:stedsnr" v="878756" />
		<tag k="waterway" v="stream" />
	</node>
	<node id="-858310" lat="63.065188885" lon="9.66568056508">
		<tag k="name" v="Lusa" />
		<tag k="ssr:stedsnr" v="740378" />
		<tag k="waterway" v="stream" />
	</node>
	<node id="-858305" lat="63.1540944466" lon="9.48317777285">
		<tag k="name" v="Morrtjønna" />
		<tag k="natural" v="water" />
		<tag k="ssr:stedsnr" v="923594" />
	</node>
	<node id="-858302" lat="63.0420138893" lon="9.60105276811">
		<tag k="name" v="Slåttbekken" />
		<tag k="ssr:stedsnr" v="392160" />
		<tag k="waterway" v="stream" />
	</node>
	<node id="-858301" lat="63.1150305579" lon="9.87660277867">
		<tag k="name" v="Litjbufossen" />
		<tag k="natural" v="waterfall" />
		<tag k="ssr:stedsnr" v="818756" />
	</node>
	<node id="-860346" lat="63.0699055537" lon="9.46658056024">
		<tag k="name" v="Litlholtvatnet" />
		<tag k="natural" v="water" />
		<tag k="ssr:stedsnr" v="558402" />
	</node>
	<node id="-858297" lat="63.1514444419" lon="9.46120554891">
		<tag k="name" v="Holbekken" />
		<tag k="ssr:stedsnr" v="939360" />
		<tag k="waterway" v="stream" />
	</node>
	<node id="-860873" lat="63.113194447" lon="9.71011111464">
		<tag k="name" v="Ospengbekken" />
		<tag k="ssr:stedsnr" v="696740" />
		<tag k="waterway" v="stream" />
	</node>
	<node id="-858290" lat="62.989872224" lon="10.0014916591">
		<tag k="name" v="Liatjønna" />
		<tag k="natural" v="water" />
		<tag k="ssr:stedsnr" v="696351" />
	</node>
	<node id="-860189" lat="63.126830556" lon="9.51713888812">
		<tag k="name" v="Fremre Espåstjønna" />
		<tag k="natural" v="water" />
		<tag k="ssr:stedsnr" v="211398" />
	</node>
	<node id="-860325" lat="63.1070944476" lon="9.60565832411">
		<tag k="name" v="Trettøya" />
		<tag k="place" v="island" />
		<tag k="ssr:stedsnr" v="393263" />
	</node>
	<node id="-858268" lat="62.9910333324" lon="9.77956110905">
		<tag k="name" v="Vinna" />
		<tag k="ssr:stedsnr" v="211120" />
		<tag k="waterway" v="stream" />
	</node>
	<node id="-860315" lat="63.0342055531" lon="9.67520278526">
		<tag k="name" v="Liamyrbekken" />
		<tag k="ssr:stedsnr" v="939218" />
		<tag k="waterway" v="stream" />
	</node>
	<node id="-860311" lat="63.1218416658" lon="9.5802638929">
		<tag k="name" v="Kattjønna" />
		<tag k="natural" v="water" />
		<tag k="ssr:stedsnr" v="619539" />
	</node>
	<node id="-860306" lat="62.9901166709" lon="9.79484723113">
		<tag k="name" v="Føssa" />
		<tag k="ssr:stedsnr" v="619809" />
		<tag k="waterway" v="stream" />
	</node>
	<node id="-860300" lat="63.1437611139" lon="9.7164166675">
		<tag k="name" v="Håmmårbekken" />
		<tag k="ssr:stedsnr" v="271343" />
		<tag k="waterway" v="stream" />
	</node>
	<node id="-858246" lat="63.0859638918" lon="9.67922499715">
		<tag k="name" v="Djupbekken" />
		<tag k="ssr:stedsnr" v="801415" />
		<tag k="waterway" v="stream" />
	</node>
	<node id="-860293" lat="63.0334527802" lon="9.64724721672">
		<tag k="name" v="Klappdalsbekken" />
		<tag k="ssr:stedsnr" v="818183" />
		<tag k="waterway" v="stream" />
	</node>
	<node id="-860292" lat="63.0143583321" lon="9.75416388233">
		<tag k="name" v="Gjelarhølen" />
		<tag k="place" v="locality" />
		<tag k="ssr:stedsnr" v="574072" />
	</node>
	<node id="-860289" lat="63.0573194481" lon="9.80439444132">
		<tag k="name" v="Rogntjønna" />
		<tag k="natural" v="water" />
		<tag k="ssr:stedsnr" v="679562" />
	</node>
	<node id="-858240" lat="63.1096888851" lon="9.67193332391">
		<tag k="name" v="Bjørndalstjønna" />
		<tag k="natural" v="water" />
		<tag k="ssr:stedsnr" v="748138" />
	</node>
	<node id="-860285" lat="63.1178861068" lon="9.8611194417">
		<tag k="name" v="Langtjønna" />
		<tag k="natural" v="water" />
		<tag k="ssr:stedsnr" v="801037" />
	</node>
	<node id="-858227" lat="63.0692178433" lon="9.68684953313">
		<tag k="name" v="Lomtjønna" />
		<tag k="natural" v="water" />
		<tag k="ssr:stedsnr" v="680434" />
	</node>
	<node id="-858223" lat="63.0494111121" lon="9.65484722182">
		<tag k="name" v="Dulubekken" />
		<tag k="ssr:stedsnr" v="514174" />
		<tag k="waterway" v="stream" />
	</node>
	<node id="-858218" lat="62.901952782" lon="9.57983333898">
		<tag k="name" v="Fjellbekken" />
		<tag k="ssr:stedsnr" v="878083" />
		<tag k="waterway" v="stream" />
	</node>
	<node id="-860265" lat="63.1111611109" lon="9.78578887909">
		<tag k="name" v="Lykkjtjønna" />
		<tag k="natural" v="water" />
		<tag k="ssr:stedsnr" v="255037" />
	</node>
	<node id="-858470" lat="63.0127999972" lon="9.90594722934">
		<tag k="name" v="Aurevatnet" />
		<tag k="natural" v="water" />
		<tag k="ssr:stedsnr" v="939374" />
		<tag k="water" v="lake" />
	</node>
	<node id="-860859" lat="62.9214750041" lon="9.56807777511">
		<tag k="name" v="Finntjønna" />
		<tag k="natural" v="water" />
		<tag k="ssr:stedsnr" v="332082" />
	</node>
	<node id="-858199" lat="63.0403055531" lon="9.99264722514">
		<tag k="name" v="Pungtjønna" />
		<tag k="natural" v="water" />
		<tag k="ssr:stedsnr" v="28374" />
	</node>
	<node id="-860241" lat="63.1162638881" lon="9.87578056193">
		<tag k="name" v="Slættfossen" />
		<tag k="natural" v="waterfall" />
		<tag k="ssr:stedsnr" v="878773" />
	</node>
	<node id="-860237" lat="63.0976222189" lon="9.78044445228">
		<tag k="name" v="Boggo" />
		<tag k="ssr:stedsnr" v="514473" />
		<tag k="waterway" v="river" />
	</node>
	<node id="-858188" lat="63.1678111067" lon="9.47764723025">
		<tag k="name" v="Damtjønna" />
		<tag k="natural" v="water" />
		<tag k="ssr:stedsnr" v="862498" />
	</node>
	<node id="-858186" lat="62.9452305548" lon="9.58959722501">
		<tag k="name" v="Gråtaren" />
		<tag k="ssr:stedsnr" v="574188" />
		<tag k="waterway" v="stream" />
	</node>
	<node id="-858185" lat="62.9820055536" lon="9.72476944368">
		<tag k="name" v="Slera" />
		<tag k="ssr:stedsnr" v="453111" />
		<tag k="waterway" v="stream" />
	</node>
	<node id="-858183" lat="63.0618000002" lon="9.76453887962">
		<tag k="name" v="Rogntjønna" />
		<tag k="natural" v="water" />
		<tag k="ssr:stedsnr" v="453522" />
	</node>
	<node id="-858179" lat="63.1357611095" lon="9.83734722286">
		<tag k="name" v="Killingøya" />
		<tag k="place" v="island" />
		<tag k="ssr:stedsnr" v="211530" />
	</node>
	<node id="-860222" lat="63.023366666" lon="9.94868334207">
		<tag k="name" v="Svorkøyan" />
		<tag k="place" v="island" />
		<tag k="ssr:stedsnr" v="757509" />
	</node>
	<node id="-858169" lat="62.9925305599" lon="9.83557500434">
		<tag k="name" v="Litlføssjøen" />
		<tag k="natural" v="water" />
		<tag k="ssr:stedsnr" v="114290" />
	</node>
	<node id="-860852" lat="63.1431999964" lon="9.65915554748">
		<tag k="name" v="Litjvassbekken" />
		<tag k="ssr:stedsnr" v="635652" />
		<tag k="waterway" v="stream" />
	</node>
	<node id="-858153" lat="63.12072778" lon="9.81281110176">
		<tag k="name" v="Urvatnet" />
		<tag k="natural" v="water" />
		<tag k="ssr:stedsnr" v="874954" />
		<tag k="water" v="lake" />
	</node>
	<node id="-860198" lat="63.0612527752" lon="9.960108337">
		<tag k="name" v="Ratøya" />
		<tag k="place" v="island" />
		<tag k="ssr:stedsnr" v="817395" />
	</node>
	<node id="-860196" lat="62.9967111113" lon="9.83726666434">
		<tag k="name" v="Føssjødammen" />
		<tag k="ssr:stedsnr" v="939658" />
		<tag k="waterway" v="dam" />
	</node>
	<node id="-858147" lat="63.0433611089" lon="9.45446944765">
		<tag k="name" v="Rundvatnet" />
		<tag k="natural" v="water" />
		<tag k="ssr:stedsnr" v="376370" />
	</node>
	<node id="-860192" lat="63.0870333332" lon="9.69363889658">
		<tag k="name" v="Djupa" />
		<tag k="ssr:stedsnr" v="696227" />
		<tag k="waterway" v="stream" />
	</node>
	<node id="-858141" lat="63.0369416672" lon="9.76506388503">
		<tag k="name" v="Tronnotjønna" />
		<tag k="natural" v="water" />
		<tag k="ssr:stedsnr" v="12585" />
	</node>
	<node id="-858138" lat="62.9660611132" lon="9.63253611282">
		<tag k="name" v="Storela" />
		<tag k="ssr:stedsnr" v="332120" />
		<tag k="waterway" v="river" />
	</node>
	<node id="-858128" lat="63.0603333335" lon="9.75145277965">
		<tag k="name" v="Horvtjønna" />
		<tag k="natural" v="water" />
		<tag k="ssr:stedsnr" v="680669" />
	</node>
	<node id="-858126" lat="63.1434361156" lon="9.54664721734">
		<tag k="name" v="Malisætertjønna" />
		<tag k="natural" v="water" />
		<tag k="ssr:stedsnr" v="923576" />
	</node>
	<node id="-860167" lat="62.9370666695" lon="9.56403333534">
		<tag k="name" v="Kroktjønna" />
		<tag k="natural" v="water" />
		<tag k="ssr:stedsnr" v="150068" />
	</node>
	<node id="-858114" lat="63.141249997" lon="9.80118333974">
		<tag k="name" v="Stavelitjønna" />
		<tag k="natural" v="water" />
		<tag k="ssr:stedsnr" v="740079" />
	</node>
</osm>
