<?xml version="1.0" encoding="UTF-8"?>
<osm generator="osmapis" version="0.6">
	<node id="-860830" lat="63.0659750038" lon="9.53326110277">
		<tag k="highway" v="path" />
		<tag k="name" v="Kluftan" />
		<tag k="ssr:stedsnr" v="211478" />
	</node>
	<node id="-859119" lat="63.1313305801" lon="9.71293546312">
		<tag k="highway" v="path" />
		<tag k="name" v="Kleva" />
		<tag k="ssr:stedsnr" v="332276" />
	</node>
	<node id="-858042" lat="62.9904611149" lon="9.78073611364">
		<tag k="ford" v="yes" />
		<tag k="name" v="Kålåsvadet" />
		<tag k="place" v="locality" />
		<tag k="ssr:stedsnr" v="332106" />
	</node>
	<node id="-859769" lat="63.1390611153" lon="9.59857777681">
		<tag k="highway" v="path" />
		<tag k="name" v="Vadet" />
		<tag k="ssr:stedsnr" v="211335" />
	</node>
	<node id="-859992" lat="63.0041472231" lon="9.77531110715">
		<tag k="highway" v="path" />
		<tag k="name" v="Saumyrbakken" />
		<tag k="ssr:stedsnr" v="757062" />
	</node>
	<node id="-858935" lat="63.0892694421" lon="9.55480278613">
		<tag k="ford" v="yes" />
		<tag k="name" v="Breivadet" />
		<tag k="place" v="locality" />
		<tag k="ssr:stedsnr" v="271150" />
	</node>
	<node id="-859094" lat="63.132472221" lon="9.58263888209">
		<tag k="highway" v="path" />
		<tag k="name" v="Dombusvegen" />
		<tag k="ssr:stedsnr" v="150330" />
	</node>
	<node id="-858163" lat="62.9913638851" lon="9.7200027861">
		<tag k="fixme" v="consider highway=path" />
		<tag k="highway" v="track" />
		<tag k="name" v="Uvbakken" />
		<tag k="ssr:stedsnr" v="453108" />
	</node>
	<node id="-860563" lat="63.0727055543" lon="9.58571110517">
		<tag k="ford" v="yes" />
		<tag k="name" v="Stenurvadet" />
		<tag k="place" v="locality" />
		<tag k="ssr:stedsnr" v="818244" />
	</node>
	<node id="-859823" lat="63.0960333353" lon="9.57292777014">
		<tag k="name" v="Furuledet" />
		<tag k="place" v="locality" />
		<tag k="ssr:stedsnr" v="574005" />
	</node>
	<node id="-858446" lat="63.1276166644" lon="9.84781943592">
		<tag k="ford" v="yes" />
		<tag k="name" v="Buvadet" />
		<tag k="place" v="locality" />
		<tag k="ssr:stedsnr" v="453559" />
	</node>
	<node id="-860327" lat="63.0769638896" lon="9.69618056162">
		<tag k="name" v="Olskastgrinda" />
		<tag k="place" v="locality" />
		<tag k="ssr:stedsnr" v="544291" />
	</node>
	<node id="-859335" lat="63.1358888909" lon="9.61204166436">
		<tag k="highway" v="path" />
		<tag k="name" v="Storgrendskleiva" />
		<tag k="ssr:stedsnr" v="514332" />
	</node>
	<node id="-858150" lat="63.0565416646" lon="9.62884444092">
		<tag k="highway" v="path" />
		<tag k="name" v="Råket" />
		<tag k="ssr:stedsnr" v="514156" />
	</node>
	<node id="-858166" lat="63.0413555591" lon="9.69979445219">
		<tag k="fixme" v="consider highway=path" />
		<tag k="highway" v="track" />
		<tag k="name" v="Nyguttu" />
		<tag k="ssr:stedsnr" v="89181" />
	</node>
	<node id="-859778" lat="63.0533222198" lon="9.88871388944">
		<tag k="highway" v="path" />
		<tag k="name" v="Pissbakken" />
		<tag k="ssr:stedsnr" v="878716" />
	</node>
</osm>
