<?xml version="1.0" encoding="UTF-8"?>
<osm generator="osmapis" version="0.6">
	<node id="-733564" lat="68.59664714" lon="15.8217551888">
		<tag k="name" v="Kvitbergveien" />
		<tag k="ssr:date" v="2019-05-30" />
		<tag k="ssr:gruppe" v="veg" />
		<tag k="ssr:hovedgruppe" v="infrastruktur" />
		<tag k="ssr:stedsnr" v="1036853" />
		<tag k="ssr:type" v="adressenavn" />
	</node>
	<node id="-733563" lat="68.6180682693" lon="15.6802742198">
		<tag k="name" v="Langvatnet" />
		<tag k="ssr:date" v="2019-05-30" />
		<tag k="ssr:gruppe" v="veg" />
		<tag k="ssr:hovedgruppe" v="infrastruktur" />
		<tag k="ssr:stedsnr" v="1036845" />
		<tag k="ssr:type" v="adressenavn" />
	</node>
	<node id="-733562" lat="68.5615473157" lon="15.7533445193">
		<tag k="name" v="Løbergsbukta" />
		<tag k="ssr:date" v="2019-05-30" />
		<tag k="ssr:gruppe" v="veg" />
		<tag k="ssr:hovedgruppe" v="infrastruktur" />
		<tag k="ssr:stedsnr" v="1036840" />
		<tag k="ssr:type" v="adressenavn" />
	</node>
	<node id="-733561" lat="68.6149509075" lon="15.7430936119">
		<tag k="name" v="Djupbuktveien" />
		<tag k="ssr:date" v="2019-05-30" />
		<tag k="ssr:gruppe" v="veg" />
		<tag k="ssr:hovedgruppe" v="infrastruktur" />
		<tag k="ssr:stedsnr" v="1036822" />
		<tag k="ssr:type" v="adressenavn" />
	</node>
	<node id="-734445" lat="68.8452833296" lon="16.1005277641">
		<tag k="name" v="Eldaflesene" />
		<tag k="old_name" v="Eldaflesan" />
		<tag k="ssr:date" v="2016-05-10" />
		<tag k="ssr:gruppe" v="navigasjon" />
		<tag k="ssr:hovedgruppe" v="infrastruktur" />
		<tag k="ssr:stedsnr" v="442025" />
		<tag k="ssr:type" v="fyrlykt" />
	</node>
	<node id="-735064" lat="68.6484305566" lon="15.9252944348">
		<tag k="name" v="Lyså" />
		<tag k="ssr:date" v="2016-05-11" />
		<tag k="ssr:gruppe" v="navigasjon" />
		<tag k="ssr:hovedgruppe" v="infrastruktur" />
		<tag k="ssr:stedsnr" v="782870" />
		<tag k="ssr:type" v="fyrlykt" />
	</node>
	<node id="-734035" lat="68.7720111095" lon="16.17294166">
		<tag k="name" v="Kvæfjord kommune" />
		<tag k="ssr:date" v="2016-05-10" />
		<tag k="ssr:gruppe" v="administrativeIndelinger" />
		<tag k="ssr:hovedgruppe" v="offentligAdministrasjon" />
		<tag k="ssr:stedsnr" v="86927" />
		<tag k="ssr:type" v="kommune" />
	</node>
	<node id="-735441" lat="68.4849327361" lon="16.2297866207">
		<tag k="fixme" v="multiple name tags, choose one and add the other to alt_name" />
		<tag k="name" v="Nord-Noreg;Nord-Norge" />
		<tag k="ssr:date" v="2017-05-18" />
		<tag k="ssr:gruppe" v="administrativeIndelinger" />
		<tag k="ssr:hovedgruppe" v="offentligAdministrasjon" />
		<tag k="ssr:stedsnr" v="976106" />
		<tag k="ssr:type" v="annenAdministrativInndeling" />
	</node>
	<node id="-733884" lat="68.6222099563" lon="15.6740817841">
		<tag k="name" v="Litjevatnet" />
		<tag k="ssr:date" v="2019-05-30" />
		<tag k="ssr:gruppe" v="veg" />
		<tag k="ssr:hovedgruppe" v="infrastruktur" />
		<tag k="ssr:stedsnr" v="1035055" />
		<tag k="ssr:type" v="adressenavn" />
	</node>
	<node id="-733883" lat="68.6684066186" lon="16.1095937673">
		<tag k="name" v="Flathågveien" />
		<tag k="ssr:date" v="2019-05-30" />
		<tag k="ssr:gruppe" v="veg" />
		<tag k="ssr:hovedgruppe" v="infrastruktur" />
		<tag k="ssr:stedsnr" v="1031419" />
		<tag k="ssr:type" v="adressenavn" />
	</node>
	<node id="-733882" lat="68.729652858" lon="16.0562388828">
		<tag k="name" v="Brekkaveien" />
		<tag k="ssr:date" v="2019-05-30" />
		<tag k="ssr:gruppe" v="veg" />
		<tag k="ssr:hovedgruppe" v="infrastruktur" />
		<tag k="ssr:stedsnr" v="1031415" />
		<tag k="ssr:type" v="adressenavn" />
	</node>
	<node id="-733881" lat="68.7289427955" lon="16.0579097825">
		<tag k="name" v="Øvre Hemmestadveien" />
		<tag k="ssr:date" v="2019-05-30" />
		<tag k="ssr:gruppe" v="veg" />
		<tag k="ssr:hovedgruppe" v="infrastruktur" />
		<tag k="ssr:stedsnr" v="1031413" />
		<tag k="ssr:type" v="adressenavn" />
	</node>
	<node id="-733880" lat="68.7407097319" lon="16.0652646437">
		<tag k="name" v="Sandvikveien" />
		<tag k="ssr:date" v="2019-05-30" />
		<tag k="ssr:gruppe" v="veg" />
		<tag k="ssr:hovedgruppe" v="infrastruktur" />
		<tag k="ssr:stedsnr" v="1031406" />
		<tag k="ssr:type" v="adressenavn" />
	</node>
	<node id="-733879" lat="68.6370873999" lon="15.9046400601">
		<tag k="name" v="Vassvika" />
		<tag k="ssr:date" v="2019-05-30" />
		<tag k="ssr:gruppe" v="veg" />
		<tag k="ssr:hovedgruppe" v="infrastruktur" />
		<tag k="ssr:stedsnr" v="1031389" />
		<tag k="ssr:type" v="adressenavn" />
	</node>
	<node id="-733878" lat="68.637641247" lon="16.046221147">
		<tag k="name" v="Aspenesdalen" />
		<tag k="ssr:date" v="2019-05-30" />
		<tag k="ssr:gruppe" v="veg" />
		<tag k="ssr:hovedgruppe" v="infrastruktur" />
		<tag k="ssr:stedsnr" v="1031380" />
		<tag k="ssr:type" v="adressenavn" />
	</node>
	<node id="-733877" lat="68.6547645588" lon="15.9458540642">
		<tag k="name" v="Lysåveien" />
		<tag k="ssr:date" v="2019-05-30" />
		<tag k="ssr:gruppe" v="veg" />
		<tag k="ssr:hovedgruppe" v="infrastruktur" />
		<tag k="ssr:stedsnr" v="1031374" />
		<tag k="ssr:type" v="adressenavn" />
	</node>
	<node id="-733876" lat="68.6351206337" lon="16.0775909836">
		<tag k="name" v="Botnjorda" />
		<tag k="ssr:date" v="2019-05-30" />
		<tag k="ssr:gruppe" v="veg" />
		<tag k="ssr:hovedgruppe" v="infrastruktur" />
		<tag k="ssr:stedsnr" v="1031370" />
		<tag k="ssr:type" v="adressenavn" />
	</node>
	<node id="-733875" lat="68.7137664855" lon="16.302232612">
		<tag k="name" v="Straumseterveien" />
		<tag k="ssr:date" v="2019-05-30" />
		<tag k="ssr:gruppe" v="veg" />
		<tag k="ssr:hovedgruppe" v="infrastruktur" />
		<tag k="ssr:stedsnr" v="1021690" />
		<tag k="ssr:type" v="adressenavn" />
	</node>
	<node id="-733874" lat="68.7146144441" lon="16.3057354905">
		<tag k="name" v="Nord-Øvstemoa" />
		<tag k="ssr:date" v="2019-05-30" />
		<tag k="ssr:gruppe" v="veg" />
		<tag k="ssr:hovedgruppe" v="infrastruktur" />
		<tag k="ssr:stedsnr" v="1021682" />
		<tag k="ssr:type" v="adressenavn" />
	</node>
	<node id="-733873" lat="68.7404451751" lon="16.282088217">
		<tag k="name" v="Vei 20110" />
		<tag k="ssr:date" v="2019-05-30" />
		<tag k="ssr:gruppe" v="veg" />
		<tag k="ssr:hovedgruppe" v="infrastruktur" />
		<tag k="ssr:stedsnr" v="1021669" />
		<tag k="ssr:type" v="adressenavn" />
	</node>
	<node id="-733872" lat="68.713713548" lon="16.3067720553">
		<tag k="name" v="Øvstemoa" />
		<tag k="ssr:date" v="2019-05-30" />
		<tag k="ssr:gruppe" v="veg" />
		<tag k="ssr:hovedgruppe" v="infrastruktur" />
		<tag k="ssr:stedsnr" v="1021677" />
		<tag k="ssr:type" v="adressenavn" />
	</node>
	<node id="-733871" lat="68.7462713829" lon="16.2944635276">
		<tag k="name" v="Rossåveien" />
		<tag k="ssr:date" v="2019-05-30" />
		<tag k="ssr:gruppe" v="veg" />
		<tag k="ssr:hovedgruppe" v="infrastruktur" />
		<tag k="ssr:stedsnr" v="1021675" />
		<tag k="ssr:type" v="adressenavn" />
	</node>
	<node id="-733870" lat="68.7358151336" lon="16.2437907534">
		<tag k="name" v="Straumsveien" />
		<tag k="ssr:date" v="2019-05-30" />
		<tag k="ssr:gruppe" v="veg" />
		<tag k="ssr:hovedgruppe" v="infrastruktur" />
		<tag k="ssr:stedsnr" v="1021674" />
		<tag k="ssr:type" v="adressenavn" />
	</node>
	<node id="-733869" lat="68.6855550135" lon="16.3046354396">
		<tag k="name" v="Korsvatnet" />
		<tag k="ssr:date" v="2019-05-30" />
		<tag k="ssr:gruppe" v="veg" />
		<tag k="ssr:hovedgruppe" v="infrastruktur" />
		<tag k="ssr:stedsnr" v="1021650" />
		<tag k="ssr:type" v="adressenavn" />
	</node>
	<node id="-733868" lat="68.705301056" lon="16.3135109042">
		<tag k="name" v="Vikesætran" />
		<tag k="ssr:date" v="2019-05-30" />
		<tag k="ssr:gruppe" v="veg" />
		<tag k="ssr:hovedgruppe" v="infrastruktur" />
		<tag k="ssr:stedsnr" v="1021643" />
		<tag k="ssr:type" v="adressenavn" />
	</node>
	<node id="-733867" lat="68.7091181047" lon="16.2852583462">
		<tag k="name" v="Straumsdalen" />
		<tag k="ssr:date" v="2019-05-30" />
		<tag k="ssr:gruppe" v="veg" />
		<tag k="ssr:hovedgruppe" v="infrastruktur" />
		<tag k="ssr:stedsnr" v="1021640" />
		<tag k="ssr:type" v="adressenavn" />
	</node>
	<node id="-733866" lat="68.7063254826" lon="16.2911375102">
		<tag k="name" v="Vollan" />
		<tag k="ssr:date" v="2019-05-30" />
		<tag k="ssr:gruppe" v="veg" />
		<tag k="ssr:hovedgruppe" v="infrastruktur" />
		<tag k="ssr:stedsnr" v="1021632" />
		<tag k="ssr:type" v="adressenavn" />
	</node>
	<node id="-733865" lat="68.6720366696" lon="16.3614095039">
		<tag k="name" v="Øvergårdsveien" />
		<tag k="ssr:date" v="2019-05-30" />
		<tag k="ssr:gruppe" v="veg" />
		<tag k="ssr:hovedgruppe" v="infrastruktur" />
		<tag k="ssr:stedsnr" v="1021619" />
		<tag k="ssr:type" v="adressenavn" />
	</node>
	<node id="-733864" lat="68.6693304716" lon="16.3599390816">
		<tag k="name" v="Hulderberget" />
		<tag k="ssr:date" v="2019-05-30" />
		<tag k="ssr:gruppe" v="veg" />
		<tag k="ssr:hovedgruppe" v="infrastruktur" />
		<tag k="ssr:stedsnr" v="1021611" />
		<tag k="ssr:type" v="adressenavn" />
	</node>
	<node id="-733863" lat="68.6764265586" lon="16.355416217">
		<tag k="name" v="Gammelheimveien" />
		<tag k="ssr:date" v="2019-05-30" />
		<tag k="ssr:gruppe" v="veg" />
		<tag k="ssr:hovedgruppe" v="infrastruktur" />
		<tag k="ssr:stedsnr" v="1021606" />
		<tag k="ssr:type" v="adressenavn" />
	</node>
	<node id="-733862" lat="68.6755091591" lon="16.2997847321">
		<tag k="name" v="Steinvatnet" />
		<tag k="ssr:date" v="2019-05-30" />
		<tag k="ssr:gruppe" v="veg" />
		<tag k="ssr:hovedgruppe" v="infrastruktur" />
		<tag k="ssr:stedsnr" v="1021663" />
		<tag k="ssr:type" v="adressenavn" />
	</node>
	<node id="-733861" lat="68.6775239761" lon="16.3381551275">
		<tag k="name" v="Gammel-Storjordveien" />
		<tag k="ssr:date" v="2019-05-30" />
		<tag k="ssr:gruppe" v="veg" />
		<tag k="ssr:hovedgruppe" v="infrastruktur" />
		<tag k="ssr:stedsnr" v="1021657" />
		<tag k="ssr:type" v="adressenavn" />
	</node>
	<node id="-733860" lat="68.7027146564" lon="16.3104225287">
		<tag k="name" v="Ruddasætra" />
		<tag k="ssr:date" v="2019-05-30" />
		<tag k="ssr:gruppe" v="veg" />
		<tag k="ssr:hovedgruppe" v="infrastruktur" />
		<tag k="ssr:stedsnr" v="1021655" />
		<tag k="ssr:type" v="adressenavn" />
	</node>
	<node id="-733859" lat="68.7448140641" lon="16.2653307384">
		<tag k="name" v="Vikevågen" />
		<tag k="ssr:date" v="2019-05-30" />
		<tag k="ssr:gruppe" v="veg" />
		<tag k="ssr:hovedgruppe" v="infrastruktur" />
		<tag k="ssr:stedsnr" v="1021414" />
		<tag k="ssr:type" v="adressenavn" />
	</node>
	<node id="-733858" lat="68.8326069973" lon="16.1801645182">
		<tag k="name" v="Lahågveien" />
		<tag k="ssr:date" v="2019-05-30" />
		<tag k="ssr:gruppe" v="veg" />
		<tag k="ssr:hovedgruppe" v="infrastruktur" />
		<tag k="ssr:stedsnr" v="1016297" />
		<tag k="ssr:type" v="adressenavn" />
	</node>
	<node id="-733857" lat="68.8454583216" lon="16.1530597206">
		<tag k="name" v="Slåtteveien" />
		<tag k="ssr:date" v="2019-05-30" />
		<tag k="ssr:gruppe" v="veg" />
		<tag k="ssr:hovedgruppe" v="infrastruktur" />
		<tag k="ssr:stedsnr" v="1016188" />
		<tag k="ssr:type" v="adressenavn" />
	</node>
	<node id="-733856" lat="68.7829595421" lon="16.1473700134">
		<tag k="name" v="Trastadmarka" />
		<tag k="ssr:date" v="2019-05-30" />
		<tag k="ssr:gruppe" v="veg" />
		<tag k="ssr:hovedgruppe" v="infrastruktur" />
		<tag k="ssr:stedsnr" v="1015001" />
		<tag k="ssr:type" v="adressenavn" />
	</node>
	<node id="-733855" lat="68.8115339906" lon="16.0994713273">
		<tag k="name" v="Utstrandmarka" />
		<tag k="ssr:date" v="2019-05-30" />
		<tag k="ssr:gruppe" v="veg" />
		<tag k="ssr:hovedgruppe" v="infrastruktur" />
		<tag k="ssr:stedsnr" v="1014999" />
		<tag k="ssr:type" v="adressenavn" />
	</node>
	<node id="-733854" lat="68.7960806259" lon="16.1234918892">
		<tag k="name" v="Dalemarka" />
		<tag k="ssr:date" v="2019-05-30" />
		<tag k="ssr:gruppe" v="veg" />
		<tag k="ssr:hovedgruppe" v="infrastruktur" />
		<tag k="ssr:stedsnr" v="1014998" />
		<tag k="ssr:type" v="adressenavn" />
	</node>
	<node id="-733853" lat="68.8226513403" lon="16.1067262229">
		<tag k="name" v="Rismålsveien" />
		<tag k="ssr:date" v="2019-05-30" />
		<tag k="ssr:gruppe" v="veg" />
		<tag k="ssr:hovedgruppe" v="infrastruktur" />
		<tag k="ssr:stedsnr" v="1014993" />
		<tag k="ssr:type" v="adressenavn" />
	</node>
	<node id="-733852" lat="68.8219326674" lon="16.0958251826">
		<tag k="name" v="Kårmyrholla" />
		<tag k="ssr:date" v="2019-05-30" />
		<tag k="ssr:gruppe" v="veg" />
		<tag k="ssr:hovedgruppe" v="infrastruktur" />
		<tag k="ssr:stedsnr" v="1014991" />
		<tag k="ssr:type" v="adressenavn" />
	</node>
	<node id="-733851" lat="68.7810786868" lon="16.3316055502">
		<tag k="name" v="Blomåsveien" />
		<tag k="ssr:date" v="2019-05-30" />
		<tag k="ssr:gruppe" v="veg" />
		<tag k="ssr:hovedgruppe" v="infrastruktur" />
		<tag k="ssr:stedsnr" v="1014946" />
		<tag k="ssr:type" v="adressenavn" />
	</node>
	<node id="-733850" lat="68.7652255897" lon="16.3172774429">
		<tag k="name" v="Gåsvassveien" />
		<tag k="ssr:date" v="2019-05-30" />
		<tag k="ssr:gruppe" v="veg" />
		<tag k="ssr:hovedgruppe" v="infrastruktur" />
		<tag k="ssr:stedsnr" v="1014910" />
		<tag k="ssr:type" v="adressenavn" />
	</node>
	<node id="-733849" lat="68.7951140655" lon="16.2230962968">
		<tag k="name" v="Moa" />
		<tag k="ssr:date" v="2019-05-30" />
		<tag k="ssr:gruppe" v="veg" />
		<tag k="ssr:hovedgruppe" v="infrastruktur" />
		<tag k="ssr:stedsnr" v="1014880" />
		<tag k="ssr:type" v="adressenavn" />
	</node>
	<node id="-733848" lat="68.789396802" lon="16.2665751918">
		<tag k="name" v="Strandveien" />
		<tag k="ssr:date" v="2019-05-30" />
		<tag k="ssr:gruppe" v="veg" />
		<tag k="ssr:hovedgruppe" v="infrastruktur" />
		<tag k="ssr:stedsnr" v="1014856" />
		<tag k="ssr:type" v="adressenavn" />
	</node>
	<node id="-734615" lat="68.6746999984" lon="15.9988416643">
		<tag k="name" v="Lysåhella" />
		<tag k="ssr:date" v="2016-05-10" />
		<tag k="ssr:gruppe" v="navigasjon" />
		<tag k="ssr:hovedgruppe" v="infrastruktur" />
		<tag k="ssr:stedsnr" v="540896" />
		<tag k="ssr:type" v="lanterne" />
	</node>
	<node id="-733846" lat="68.7366554287" lon="16.2647692053">
		<tag k="name" v="Åsryggen" />
		<tag k="ssr:date" v="2019-05-30" />
		<tag k="ssr:gruppe" v="veg" />
		<tag k="ssr:hovedgruppe" v="infrastruktur" />
		<tag k="ssr:stedsnr" v="1010395" />
		<tag k="ssr:type" v="adressenavn" />
	</node>
	<node id="-733843" lat="68.7696945915" lon="16.1951261887">
		<tag k="name" v="Gåraveien" />
		<tag k="ssr:date" v="2019-12-05" />
		<tag k="ssr:gruppe" v="veg" />
		<tag k="ssr:hovedgruppe" v="infrastruktur" />
		<tag k="ssr:stedsnr" v="1073737" />
		<tag k="ssr:type" v="adressenavn" />
	</node>
	<node id="-733847" lat="68.7917809833" lon="16.1986845119">
		<tag k="name" v="Huldhågen" />
		<tag k="ssr:date" v="2019-05-30" />
		<tag k="ssr:gruppe" v="veg" />
		<tag k="ssr:hovedgruppe" v="infrastruktur" />
		<tag k="ssr:stedsnr" v="1014823" />
		<tag k="ssr:type" v="adressenavn" />
	</node>
	<node id="-734855" lat="68.8244805578" lon="15.9611083296">
		<tag k="name" v="Gapøy" />
		<tag k="ssr:date" v="2016-05-11" />
		<tag k="ssr:gruppe" v="navigasjon" />
		<tag k="ssr:hovedgruppe" v="infrastruktur" />
		<tag k="ssr:stedsnr" v="685107" />
		<tag k="ssr:type" v="fyrlykt" />
	</node>
</osm>
