<?xml version="1.0" encoding="UTF-8"?>
<osm generator="osmapis" version="0.6">
	<node id="-734719" lat="68.6342833348" lon="15.8816416549">
		<tag k="name" v="Kvitsteinura" />
		<tag k="natural" v="scree" />
		<tag k="ssr:stedsnr" v="598994" />
	</node>
	<node id="-734718" lat="68.5957333344" lon="15.7860999928">
		<tag k="name" v="Oterura" />
		<tag k="natural" v="scree" />
		<tag k="ssr:stedsnr" v="598937" />
	</node>
	<node id="-733693" lat="68.6812111121" lon="15.8855416761">
		<tag k="name" v="Lavollen" />
		<tag k="natural" v="wetland" />
		<tag k="ssr:stedsnr" v="355129" />
	</node>
	<node id="-733688" lat="68.6401111092" lon="15.9059444528">
		<tag k="name" v="Skarmyra" />
		<tag k="natural" v="wetland" />
		<tag k="ssr:stedsnr" v="355093" />
	</node>
	<node id="-734198" lat="68.6565138863" lon="16.0878194541">
		<tag k="name" v="Skarmyra" />
		<tag k="natural" v="wetland" />
		<tag k="ssr:stedsnr" v="173417" />
	</node>
	<node id="-735220" lat="68.647905552" lon="15.9242611102">
		<tag k="alt_name" v="Nebbsteinhella" />
		<tag k="name" v="Nebbesteinhella" />
		<tag k="natural" v="stone" />
		<tag k="ssr:stedsnr" v="867338" />
	</node>
	<node id="-733694" lat="68.6657694415" lon="15.8170916719">
		<tag k="name" v="Langemyra" />
		<tag k="natural" v="wetland" />
		<tag k="ssr:stedsnr" v="355154" />
	</node>
	<node id="-735212" lat="68.8288055555" lon="16.165572229">
		<tag k="name" v="Svartdalsmyran" />
		<tag k="natural" v="wetland" />
		<tag k="ssr:stedsnr" v="867153" />
	</node>
	<node id="-733674" lat="68.7382611085" lon="16.2786638885">
		<tag k="name" v="Voktormyra" />
		<tag k="natural" v="wetland" />
		<tag k="ssr:stedsnr" v="354530" />
	</node>
	<node id="-734182" lat="68.6374444475" lon="15.9079083287">
		<tag k="name" v="Trollmyra" />
		<tag k="natural" v="wetland" />
		<tag k="ssr:stedsnr" v="173068" />
	</node>
	<node id="-734180" lat="68.6518111153" lon="15.9398888853">
		<tag k="name" v="Storsteinen" />
		<tag k="natural" v="stone" />
		<tag k="ssr:stedsnr" v="173039" />
	</node>
	<node id="-734179" lat="68.6721055583" lon="16.0193444519">
		<tag k="name" v="Juvikmyran" />
		<tag k="natural" v="wetland" />
		<tag k="ssr:stedsnr" v="173022" />
	</node>
	<node id="-734177" lat="68.6795666695" lon="15.9090777674">
		<tag k="name" v="Djupedalsmyra" />
		<tag k="natural" v="wetland" />
		<tag k="ssr:stedsnr" v="173104" />
	</node>
	<node id="-735200" lat="68.6285444411" lon="15.8190555564">
		<tag k="name" v="Heimjorda" />
		<tag k="place" v="locality" />
		<tag k="ssr:stedsnr" v="841968" />
	</node>
	<node id="-733663" lat="68.5969138906" lon="15.8169833384">
		<tag k="name" v="Galten" />
		<tag k="place" v="locality" />
		<tag k="ssr:stedsnr" v="354205" />
	</node>
	<node id="-735187" lat="68.8583750037" lon="16.2417583338">
		<tag k="name" v="Oksholtan" />
		<tag k="place" v="locality" />
		<tag k="ssr:stedsnr" v="841630" />
	</node>
	<node id="-734674" lat="68.6615055549" lon="15.8021499871">
		<tag k="name" v="Storura" />
		<tag k="natural" v="scree" />
		<tag k="ssr:stedsnr" v="597145" />
	</node>
	<node id="-734625" lat="68.5305666648" lon="15.7991722292">
		<tag k="name" v="Stormyra" />
		<tag k="natural" v="wetland" />
		<tag k="ssr:stedsnr" v="563185" />
	</node>
	<node id="-733732" lat="68.6805166703" lon="16.4114888957">
		<tag k="name" v="Storjorda" />
		<tag k="place" v="locality" />
		<tag k="ssr:stedsnr" v="355944" />
	</node>
	<node id="-733686" lat="68.649272224" lon="15.9541611064">
		<tag k="name" v="Slettesteinen" />
		<tag k="natural" v="stone" />
		<tag k="ssr:stedsnr" v="355046" />
	</node>
	<node id="-735169" lat="68.6651055549" lon="15.8265083399">
		<tag k="name" v="Tverrskogen" />
		<tag k="place" v="locality" />
		<tag k="ssr:stedsnr" v="841154" />
	</node>
	<node id="-735167" lat="68.6884999987" lon="15.8622833346">
		<tag k="name" v="Langemyra" />
		<tag k="natural" v="wetland" />
		<tag k="ssr:stedsnr" v="841106" />
	</node>
	<node id="-734137" lat="68.8626805583" lon="16.0341111057">
		<tag k="name" v="Gamvikmyra" />
		<tag k="natural" v="wetland" />
		<tag k="ssr:stedsnr" v="139036" />
	</node>
	<node id="-734196" lat="68.7477250005" lon="16.155236103">
		<tag k="name" v="Orkattura" />
		<tag k="natural" v="scree" />
		<tag k="ssr:stedsnr" v="173324" />
	</node>
	<node id="-733617" lat="68.6135777777" lon="15.9047583287">
		<tag k="name" v="Storura" />
		<tag k="natural" v="scree" />
		<tag k="ssr:stedsnr" v="295989" />
	</node>
	<node id="-734126" lat="68.760727775" lon="16.3003027883">
		<tag k="name" v="Stormyra" />
		<tag k="natural" v="wetland" />
		<tag k="ssr:stedsnr" v="138450" />
	</node>
	<node id="-735143" lat="68.7139833316" lon="16.2198111147">
		<tag k="name" v="Snøkofta" />
		<tag k="natural" v="glacier" />
		<tag k="ssr:stedsnr" v="840412" />
	</node>
	<node id="-735138" lat="68.8834444424" lon="16.0696500051">
		<tag k="name" v="Seingsmyra" />
		<tag k="natural" v="wetland" />
		<tag k="ssr:stedsnr" v="840390" />
	</node>
	<node id="-735137" lat="68.8511694475" lon="16.0136333304">
		<tag k="name" v="Dikmyra" />
		<tag k="natural" v="wetland" />
		<tag k="ssr:stedsnr" v="840385" />
	</node>
	<node id="-734112" lat="68.8474527753" lon="16.2114694465">
		<tag k="name" v="Lysmyra" />
		<tag k="natural" v="wetland" />
		<tag k="ssr:stedsnr" v="138038" />
	</node>
	<node id="-734623" lat="68.774688888" lon="16.2066305599">
		<tag k="name" v="Prestemyra" />
		<tag k="natural" v="wetland" />
		<tag k="ssr:stedsnr" v="563173" />
	</node>
	<node id="-734107" lat="68.6288638904" lon="15.9019222329">
		<tag k="name" v="Stormyra" />
		<tag k="natural" v="wetland" />
		<tag k="ssr:stedsnr" v="113990" />
	</node>
	<node id="-734447" lat="68.8556916665" lon="16.0123138881">
		<tag k="alt_name" v="Våskarmyra" />
		<tag k="name" v="Vålskardmyra" />
		<tag k="natural" v="wetland" />
		<tag k="ssr:stedsnr" v="442045" />
	</node>
	<node id="-734613" lat="68.771416666" lon="16.2924361138">
		<tag k="name" v="Blomlimyra" />
		<tag k="natural" v="wetland" />
		<tag k="ssr:stedsnr" v="537988" />
	</node>
	<node id="-734612" lat="68.6296666684" lon="15.9201861073">
		<tag k="name" v="Tjukkeskogen" />
		<tag k="place" v="locality" />
		<tag k="ssr:stedsnr" v="537987" />
	</node>
	<node id="-733585" lat="68.7560305564" lon="16.1260277797">
		<tag k="name" v="Reinsura" />
		<tag k="natural" v="scree" />
		<tag k="ssr:stedsnr" v="294381" />
	</node>
	<node id="-733581" lat="68.6745833333" lon="15.9248944329">
		<tag k="name" v="Flesnesøyra" />
		<tag k="place" v="locality" />
		<tag k="ssr:stedsnr" v="294160" />
	</node>
	<node id="-733580" lat="68.6664916662" lon="15.8877750074">
		<tag k="name" v="Blåura" />
		<tag k="natural" v="scree" />
		<tag k="ssr:stedsnr" v="294150" />
	</node>
	<node id="-734089" lat="68.8012527806" lon="16.1310527704">
		<tag k="name" v="Langmyra" />
		<tag k="natural" v="wetland" />
		<tag k="ssr:stedsnr" v="112726" />
	</node>
	<node id="-734592" lat="68.8564694417" lon="16.2366888824">
		<tag k="name" v="Merremyra" />
		<tag k="natural" v="wetland" />
		<tag k="ssr:stedsnr" v="537623" />
	</node>
	<node id="-734591" lat="68.8395944423" lon="16.1946027729">
		<tag k="name" v="Hestemyra" />
		<tag k="natural" v="wetland" />
		<tag k="ssr:stedsnr" v="537610" />
	</node>
	<node id="-734075" lat="68.7034333313" lon="16.3308999863">
		<tag k="name" v="Reingårdsmyra" />
		<tag k="natural" v="wetland" />
		<tag k="ssr:stedsnr" v="112580" />
	</node>
	<node id="-734583" lat="68.6406583319" lon="16.0926833404">
		<tag k="name" v="Liskogen" />
		<tag k="place" v="locality" />
		<tag k="ssr:stedsnr" v="537442" />
	</node>
	<node id="-734068" lat="68.7060500021" lon="15.9495777825">
		<tag k="name" v="Storsteinan" />
		<tag k="natural" v="stone" />
		<tag k="ssr:stedsnr" v="112471" />
	</node>
	<node id="-734575" lat="68.6748361076" lon="15.9222416704">
		<tag k="name" v="Nyjorda" />
		<tag k="place" v="locality" />
		<tag k="ssr:stedsnr" v="537156" />
	</node>
	<node id="-734572" lat="68.6842999986" lon="15.8805833272">
		<tag k="name" v="Hesjevollen" />
		<tag k="natural" v="wetland" />
		<tag k="ssr:stedsnr" v="537103" />
	</node>
	<node id="-735161" lat="68.642847227" lon="15.9528722154">
		<tag k="name" v="Leira" />
		<tag k="place" v="locality" />
		<tag k="ssr:stedsnr" v="841048" />
	</node>
	<node id="-734053" lat="68.6383222187" lon="16.0515833353">
		<tag k="name" v="Botnleira" />
		<tag k="place" v="locality" />
		<tag k="ssr:stedsnr" v="112068" />
	</node>
	<node id="-734052" lat="68.6431222197" lon="16.0539999909">
		<tag k="name" v="Urteigen" />
		<tag k="place" v="locality" />
		<tag k="ssr:stedsnr" v="112066" />
	</node>
	<node id="-734049" lat="68.6478666692" lon="15.9531972332">
		<tag k="name" v="Finnkannsteinen" />
		<tag k="natural" v="stone" />
		<tag k="ssr:stedsnr" v="112061" />
	</node>
	<node id="-734560" lat="68.562369448" lon="15.7885110996">
		<tag k="name" v="Kobbesteinan" />
		<tag k="natural" v="stone" />
		<tag k="ssr:stedsnr" v="536940" />
	</node>
	<node id="-734553" lat="68.68566389" lon="16.0415333444">
		<tag k="name" v="Orresteinen" />
		<tag k="natural" v="stone" />
		<tag k="ssr:stedsnr" v="536483" />
	</node>
	<node id="-735062" lat="68.7790555583" lon="16.2588500092">
		<tag k="name" v="Hoppelimyra" />
		<tag k="natural" v="wetland" />
		<tag k="ssr:stedsnr" v="780981" />
	</node>
	<node id="-735049" lat="68.8362694472" lon="16.1880333286">
		<tag k="name" v="Tomasåkeren" />
		<tag k="place" v="locality" />
		<tag k="ssr:stedsnr" v="780560" />
	</node>
	<node id="-735042" lat="68.7261972254" lon="16.2540333397">
		<tag k="name" v="Stiuran" />
		<tag k="natural" v="scree" />
		<tag k="ssr:stedsnr" v="780451" />
	</node>
	<node id="-734012" lat="68.7741305574" lon="16.2824555545">
		<tag k="name" v="Stormyra" />
		<tag k="natural" v="wetland" />
		<tag k="ssr:stedsnr" v="78467" />
	</node>
	<node id="-735033" lat="68.6621000011" lon="15.8378277721">
		<tag k="name" v="Klevensteinen" />
		<tag k="natural" v="stone" />
		<tag k="ssr:stedsnr" v="780148" />
	</node>
	<node id="-734007" lat="68.7643472238" lon="16.2865416751">
		<tag k="name" v="Lemyra" />
		<tag k="natural" v="wetland" />
		<tag k="ssr:stedsnr" v="78448" />
	</node>
	<node id="-735030" lat="68.6924916691" lon="15.8418499896">
		<tag k="name" v="Storura" />
		<tag k="natural" v="scree" />
		<tag k="ssr:stedsnr" v="780121" />
	</node>
	<node id="-735027" lat="68.6475111149" lon="16.0445138963">
		<tag k="name" v="Kvanntomyran" />
		<tag k="natural" v="wetland" />
		<tag k="ssr:stedsnr" v="780065" />
	</node>
	<node id="-735024" lat="68.6574027807" lon="16.0865388908">
		<tag k="name" v="Forrholtan" />
		<tag k="place" v="locality" />
		<tag k="ssr:stedsnr" v="780048" />
	</node>
	<node id="-735014" lat="68.6924027827" lon="15.9470305453">
		<tag k="name" v="Grønneslåtten" />
		<tag k="place" v="locality" />
		<tag k="ssr:stedsnr" v="779505" />
	</node>
	<node id="-733988" lat="68.519366665" lon="15.7535555654">
		<tag k="name" v="Høljejorda" />
		<tag k="place" v="locality" />
		<tag k="ssr:stedsnr" v="52771" />
	</node>
	<node id="-735007" lat="68.7621611114" lon="16.1029555558">
		<tag k="name" v="Durmålshella" />
		<tag k="natural" v="stone" />
		<tag k="ssr:stedsnr" v="779385" />
	</node>
	<node id="-733981" lat="68.8435083318" lon="16.1735388797">
		<tag k="name" v="Kvitmyra" />
		<tag k="natural" v="wetland" />
		<tag k="ssr:stedsnr" v="52598" />
	</node>
	<node id="-734767" lat="68.7461027763" lon="16.3188777762">
		<tag k="name" v="Toskevassmyra" />
		<tag k="natural" v="wetland" />
		<tag k="ssr:stedsnr" v="624802" />
	</node>
	<node id="-734984" lat="68.8254944435" lon="16.1415722332">
		<tag k="name" v="Kjærlighetsmyra" />
		<tag k="natural" v="wetland" />
		<tag k="ssr:stedsnr" v="746129" />
	</node>
	<node id="-733959" lat="68.6779805545" lon="15.840952773">
		<tag k="name" v="Trollkirka" />
		<tag k="natural" v="stone" />
		<tag k="ssr:stedsnr" v="52087" />
	</node>
	<node id="-733958" lat="68.6912388915" lon="15.8462194516">
		<tag k="name" v="Gråsteinen" />
		<tag k="natural" v="stone" />
		<tag k="ssr:stedsnr" v="52085" />
	</node>
	<node id="-734469" lat="68.5505666662" lon="15.8528916754">
		<tag k="name" v="Stormyra" />
		<tag k="natural" v="wetland" />
		<tag k="ssr:stedsnr" v="442891" />
	</node>
	<node id="-733951" lat="68.5358166648" lon="15.7491027677">
		<tag k="name" v="Krestengamsteinen" />
		<tag k="natural" v="stone" />
		<tag k="ssr:stedsnr" v="51843" />
	</node>
	<node id="-734460" lat="68.7253472245" lon="15.992386109">
		<tag k="alt_name" v="Hemmestadsætran" />
		<tag k="historic" v="shieling" />
		<tag k="name" v="Hemmestadsætra" />
		<tag k="place" v="locality" />
		<tag k="ssr:stedsnr" v="442457" />
	</node>
	<node id="-733946" lat="68.5489722188" lon="15.7460277834">
		<tag k="name" v="Erlandsteinen" />
		<tag k="natural" v="stone" />
		<tag k="ssr:stedsnr" v="51784" />
	</node>
	<node id="-733940" lat="68.7380083294" lon="16.081636115">
		<tag k="name" v="Storura" />
		<tag k="natural" v="scree" />
		<tag k="ssr:stedsnr" v="51528" />
	</node>
	<node id="-733822" lat="68.8160083369" lon="16.1059583247">
		<tag k="name" v="Kårmyrholla" />
		<tag k="natural" v="wetland" />
		<tag k="ssr:stedsnr" v="476651" />
	</node>
	<node id="-734962" lat="68.7769333352" lon="16.3127305649">
		<tag k="name" v="Jenssokkmyra" />
		<tag k="natural" v="wetland" />
		<tag k="ssr:stedsnr" v="745462" />
	</node>
	<node id="-733936" lat="68.7166027773" lon="16.2119750074">
		<tag k="name" v="Preikestolen" />
		<tag k="natural" v="stone" />
		<tag k="ssr:stedsnr" v="51466" />
	</node>
	<node id="-734959" lat="68.7771138866" lon="16.3394916562">
		<tag k="name" v="Steinholmyra" />
		<tag k="natural" v="wetland" />
		<tag k="ssr:stedsnr" v="719964" />
	</node>
	<node id="-733932" lat="68.6091611129" lon="15.8205555541">
		<tag k="name" v="Ura" />
		<tag k="natural" v="scree" />
		<tag k="ssr:stedsnr" v="51217" />
	</node>
	<node id="-734436" lat="68.7992861107" lon="16.1332972215">
		<tag k="name" v="Grønnlimyra" />
		<tag k="natural" v="wetland" />
		<tag k="ssr:stedsnr" v="416696" />
	</node>
	<node id="-734502" lat="68.7782472205" lon="16.2100333354">
		<tag k="fixme" v="multiple name tags, choose one and add the other to alt_name" />
		<tag k="name" v="Sjurbakkmyra;Sjustakkmyra" />
		<tag k="natural" v="wetland" />
		<tag k="ssr:stedsnr" v="503163" />
	</node>
	<node id="-734433" lat="68.7742138877" lon="16.2404555669">
		<tag k="name" v="Harshågmyra" />
		<tag k="natural" v="wetland" />
		<tag k="ssr:stedsnr" v="416638" />
	</node>
	<node id="-734941" lat="68.7757416698" lon="16.2378194363">
		<tag k="name" v="Skittendikmyra" />
		<tag k="natural" v="wetland" />
		<tag k="ssr:stedsnr" v="719610" />
	</node>
	<node id="-734428" lat="68.7023972226" lon="16.2572444542">
		<tag k="name" v="Langmyra" />
		<tag k="natural" v="wetland" />
		<tag k="ssr:stedsnr" v="416581" />
	</node>
	<node id="-733913" lat="68.6537527819" lon="15.782866656">
		<tag k="name" v="Storurda" />
		<tag k="natural" v="scree" />
		<tag k="ssr:stedsnr" v="18262" />
	</node>
	<node id="-735268" lat="68.6818888874" lon="15.8981166779">
		<tag k="name" v="Tortlenesmyran" />
		<tag k="natural" v="wetland" />
		<tag k="ssr:stedsnr" v="901099" />
	</node>
	<node id="-734930" lat="68.6797472256" lon="15.9156361083">
		<tag k="name" v="Holandskogmyra" />
		<tag k="natural" v="wetland" />
		<tag k="ssr:stedsnr" v="719106" />
	</node>
	<node id="-734416" lat="68.757744449" lon="16.1393666654">
		<tag k="name" v="Andreas-Bendiksamyra" />
		<tag k="natural" v="wetland" />
		<tag k="ssr:stedsnr" v="416340" />
	</node>
	<node id="-734926" lat="68.6462027746" lon="15.9523361054">
		<tag k="name" v="Tjukkeskogen" />
		<tag k="place" v="locality" />
		<tag k="ssr:stedsnr" v="719040" />
	</node>
	<node id="-734413" lat="68.6610361104" lon="15.8902833365">
		<tag k="name" v="Elveøyra" />
		<tag k="place" v="locality" />
		<tag k="ssr:stedsnr" v="416156" />
	</node>
	<node id="-734920" lat="68.703680557" lon="15.9662472328">
		<tag k="name" v="Litjeåsmyra" />
		<tag k="natural" v="wetland" />
		<tag k="ssr:stedsnr" v="719414" />
	</node>
	<node id="-734406" lat="68.6698277785" lon="16.0851638897">
		<tag k="name" v="Olderteigura" />
		<tag k="natural" v="scree" />
		<tag k="ssr:stedsnr" v="416045" />
	</node>
	<node id="-735416" lat="68.7065805597" lon="15.97249723">
		<tag k="name" v="Bjørnmyra" />
		<tag k="natural" v="wetland" />
		<tag k="ssr:stedsnr" v="962437" />
	</node>
	<node id="-734388" lat="68.7795833297" lon="16.0872249931">
		<tag k="name" v="Bulisteinen" />
		<tag k="natural" v="stone" />
		<tag k="ssr:stedsnr" v="415427" />
	</node>
	<node id="-735411" lat="68.6846666694" lon="15.8743416789">
		<tag k="name" v="Skavskjulmyra" />
		<tag k="natural" v="wetland" />
		<tag k="ssr:stedsnr" v="962108" />
	</node>
	<node id="-735379" lat="68.6818833312" lon="16.0456611056">
		<tag k="name" v="Innerholtan" />
		<tag k="place" v="locality" />
		<tag k="ssr:stedsnr" v="961486" />
	</node>
	<node id="-733831" lat="68.5857861082" lon="15.7870361071">
		<tag k="name" v="Lysmyra" />
		<tag k="natural" v="wetland" />
		<tag k="ssr:stedsnr" v="476864" />
	</node>
	<node id="-733568" lat="68.8827555507" lon="16.0681333424">
		<tag k="name" v="Gulføttingsmyra" />
		<tag k="natural" v="wetland" />
		<tag k="ssr:stedsnr" v="294407" />
	</node>
	<node id="-734846" lat="68.8467138925" lon="16.0066444543">
		<tag k="name" v="Dikmyra" />
		<tag k="natural" v="wetland" />
		<tag k="ssr:stedsnr" v="685020" />
	</node>
	<node id="-734843" lat="68.7683027817" lon="16.2652638882">
		<tag k="name" v="Esumyra" />
		<tag k="natural" v="wetland" />
		<tag k="ssr:stedsnr" v="658984" />
	</node>
	<node id="-734328" lat="68.6802694474" lon="16.1949833392">
		<tag k="name" v="Melåmyran" />
		<tag k="natural" v="wetland" />
		<tag k="ssr:stedsnr" v="260313" />
	</node>
	<node id="-734325" lat="68.7302166695" lon="16.1920333338">
		<tag k="name" v="Storura" />
		<tag k="natural" v="scree" />
		<tag k="ssr:stedsnr" v="234770" />
	</node>
	<node id="-734827" lat="68.8406722246" lon="16.2053694486">
		<tag k="name" v="Godmyran" />
		<tag k="natural" v="wetland" />
		<tag k="ssr:stedsnr" v="658640" />
	</node>
	<node id="-733802" lat="68.7108555543" lon="15.9478472297">
		<tag k="name" v="Revura" />
		<tag k="natural" v="scree" />
		<tag k="ssr:stedsnr" v="476440" />
	</node>
	<node id="-733801" lat="68.7068388918" lon="15.9657805575">
		<tag k="name" v="Storåsmyra" />
		<tag k="natural" v="wetland" />
		<tag k="ssr:stedsnr" v="476441" />
	</node>
	<node id="-733800" lat="68.7110750038" lon="15.9790055511">
		<tag k="name" v="Rørvikmyra" />
		<tag k="natural" v="wetland" />
		<tag k="ssr:stedsnr" v="476439" />
	</node>
	<node id="-734308" lat="68.6255750001" lon="15.7704444476">
		<tag k="landuse" v="meadow" />
		<tag k="name" v="Petterteigen" />
		<tag k="ssr:stedsnr" v="233810" />
	</node>
	<node id="-734817" lat="68.7354694463" lon="16.2743500072">
		<tag k="name" v="Hågmyran" />
		<tag k="natural" v="wetland" />
		<tag k="ssr:stedsnr" v="658492" />
	</node>
	<node id="-734304" lat="68.7297500011" lon="16.2318055668">
		<tag k="name" v="Mikalmyra" />
		<tag k="natural" v="wetland" />
		<tag k="ssr:stedsnr" v="233779" />
	</node>
	<node id="-733789" lat="68.5605527795" lon="15.7615916749">
		<tag k="name" v="Slåttejorda" />
		<tag k="place" v="locality" />
		<tag k="ssr:stedsnr" v="475760" />
	</node>
	<node id="-734296" lat="68.7028138896" lon="15.9742861214">
		<tag k="name" v="Elveøyra" />
		<tag k="place" v="locality" />
		<tag k="ssr:stedsnr" v="233480" />
	</node>
	<node id="-734807" lat="68.6845805539" lon="15.8682305621">
		<tag k="name" v="Danmark" />
		<tag k="natural" v="wetland" />
		<tag k="ssr:stedsnr" v="658109" />
	</node>
	<node id="-734805" lat="68.645930558" lon="15.9163416607">
		<tag k="name" v="Oterura" />
		<tag k="natural" v="scree" />
		<tag k="ssr:stedsnr" v="658097" />
	</node>
	<node id="-733777" lat="68.8621805521" lon="16.0183027715">
		<tag k="name" v="Molvikskogen" />
		<tag k="place" v="locality" />
		<tag k="ssr:stedsnr" v="475404" />
	</node>
	<node id="-734798" lat="68.6173222268" lon="15.6658444413">
		<tag k="name" v="Andreassteinen" />
		<tag k="natural" v="stone" />
		<tag k="ssr:stedsnr" v="657739" />
	</node>
	<node id="-734282" lat="68.6762055547" lon="15.9055694458">
		<tag k="name" v="Banmyra" />
		<tag k="natural" v="wetland" />
		<tag k="ssr:stedsnr" v="233182" />
	</node>
	<node id="-734793" lat="68.7382361145" lon="16.0592611236">
		<tag k="landuse" v="meadow" />
		<tag k="name" v="Lesjaåkran" />
		<tag k="ssr:stedsnr" v="657489" />
	</node>
	<node id="-733793" lat="68.641291665" lon="15.9191250059">
		<tag k="name" v="Henrikslåtta" />
		<tag k="place" v="locality" />
		<tag k="ssr:stedsnr" v="476101" />
	</node>
	<node id="-735298" lat="68.7172833359" lon="16.338172229">
		<tag k="name" v="Nils-Persamyra" />
		<tag k="natural" v="wetland" />
		<tag k="ssr:stedsnr" v="901585" />
	</node>
	<node id="-733760" lat="68.7988166656" lon="16.1259972306">
		<tag k="alt_name" v="Kutjørnmyra" />
		<tag k="name" v="Kutjønnmyra" />
		<tag k="natural" v="wetland" />
		<tag k="ssr:stedsnr" v="382101" />
	</node>
	<node id="-734111" lat="68.8350972247" lon="16.1661666604">
		<tag k="alt_name" v="Lahaugsmyra" />
		<tag k="name" v="Lahågmyran" />
		<tag k="natural" v="wetland" />
		<tag k="ssr:stedsnr" v="138010" />
	</node>
	<node id="-735412" lat="68.6649249988" lon="15.8048111189">
		<tag k="name" v="Hesjevollmyra" />
		<tag k="natural" v="wetland" />
		<tag k="ssr:stedsnr" v="962143" />
	</node>
	<node id="-735279" lat="68.7175805517" lon="16.1951555546">
		<tag k="name" v="Benjaminsteinen" />
		<tag k="natural" v="stone" />
		<tag k="ssr:stedsnr" v="901432" />
	</node>
	<node id="-735272" lat="68.6674611121" lon="15.8696666709">
		<tag k="name" v="Pålslåtta" />
		<tag k="place" v="locality" />
		<tag k="ssr:stedsnr" v="901158" />
	</node>
	<node id="-733735" lat="68.7669333301" lon="16.2784027792">
		<tag k="name" v="Røsselbekkmyra" />
		<tag k="natural" v="wetland" />
		<tag k="ssr:stedsnr" v="355992" />
	</node>
	<node id="-733733" lat="68.6046777807" lon="15.7867805589">
		<tag k="name" v="Bømarkøyra" />
		<tag k="place" v="locality" />
		<tag k="ssr:stedsnr" v="355951" />
	</node>
	<node id="-734244" lat="68.8563361109" lon="16.0245250114">
		<tag k="name" v="Storvikmyra" />
		<tag k="natural" v="wetland" />
		<tag k="ssr:stedsnr" v="200040" />
	</node>
	<node id="-735267" lat="68.6831333307" lon="15.887524995">
		<tag k="name" v="Rundskogmyran" />
		<tag k="natural" v="wetland" />
		<tag k="ssr:stedsnr" v="901097" />
	</node>
	<node id="-733724" lat="68.7267638913" lon="16.1352305588">
		<tag k="name" v="Per-Andreasmyra" />
		<tag k="natural" v="wetland" />
		<tag k="ssr:stedsnr" v="355696" />
	</node>
	<node id="-733720" lat="68.8378916703" lon="16.1515944462">
		<tag k="name" v="Forsemyran" />
		<tag k="natural" v="wetland" />
		<tag k="ssr:stedsnr" v="355605" />
	</node>
	<node id="-733718" lat="68.8439833332" lon="16.1785138895">
		<tag k="name" v="Lars Sjursa myra" />
		<tag k="natural" v="wetland" />
		<tag k="ssr:stedsnr" v="355600" />
	</node>
	<node id="-734228" lat="68.7280722218" lon="16.1545083264">
		<tag k="name" v="Hundstadskogen" />
		<tag k="place" v="locality" />
		<tag k="ssr:stedsnr" v="199437" />
	</node>
	<node id="-735269" lat="68.6788583383" lon="15.9064472122">
		<tag k="name" v="Skarmyra" />
		<tag k="natural" v="wetland" />
		<tag k="ssr:stedsnr" v="901106" />
	</node>
	<node id="-734728" lat="68.8757777747" lon="16.0592666587">
		<tag k="alt_name" v="Teisturda" />
		<tag k="name" v="Teistura" />
		<tag k="natural" v="scree" />
		<tag k="ssr:stedsnr" v="624064" />
	</node>
	<node id="-733701" lat="68.6985027767" lon="15.9660555642">
		<tag k="name" v="Tausjorda" />
		<tag k="place" v="locality" />
		<tag k="ssr:stedsnr" v="355441" />
	</node>
	<node id="-734211" lat="68.7991750022" lon="16.1626638917">
		<tag k="name" v="Titterskogen" />
		<tag k="place" v="locality" />
		<tag k="ssr:stedsnr" v="173676" />
	</node>
</osm>
