<?xml version="1.0" encoding="UTF-8"?>
<osm generator="osmapis" version="0.6">
	<node id="-733150" lat="68.6209527797" lon="15.9053722219">
		<tag k="name" v="Holmenesset" />
		<tag k="natural" v="cape" />
		<tag k="ssr:stedsnr" v="416989" />
	</node>
	<node id="-733149" lat="68.6199388855" lon="15.9048166536">
		<tag k="name" v="Holmen" />
		<tag k="place" v="islet" />
		<tag k="ssr:stedsnr" v="416986" />
	</node>
	<node id="-733137" lat="68.8193472236" lon="16.2310666757">
		<tag k="name" v="Vikelandselvvatnet" />
		<tag k="natural" v="water" />
		<tag k="ssr:stedsnr" v="416600" />
	</node>
	<node id="-733117" lat="68.713469442" lon="15.9121027766">
		<tag k="name" v="Sørdalsvatnan" />
		<tag k="natural" v="water" />
		<tag k="ssr:stedsnr" v="416098" />
		<tag k="water" v="lake" />
	</node>
	<node id="-733106" lat="68.5902333343" lon="15.8386666568">
		<tag k="name" v="Tverrelva" />
		<tag k="ssr:stedsnr" v="415863" />
		<tag k="waterway" v="stream" />
	</node>
	<node id="-733103" lat="68.7382555557" lon="16.2829750039">
		<tag k="name" v="Valsebekken" />
		<tag k="ssr:stedsnr" v="415558" />
		<tag k="waterway" v="stream" />
	</node>
	<node id="-733097" lat="68.6658805552" lon="16.1149027806">
		<tag k="name" v="Dalfossen" />
		<tag k="natural" v="waterfall" />
		<tag k="ssr:stedsnr" v="415468" />
	</node>
	<node id="-733096" lat="68.6902055574" lon="16.2445583342">
		<tag k="name" v="Kjeipvatnet" />
		<tag k="natural" v="water" />
		<tag k="ssr:stedsnr" v="415447" />
	</node>
	<node id="-733088" lat="68.6656777808" lon="16.2124916576">
		<tag k="name" v="Andrevatnet" />
		<tag k="natural" v="water" />
		<tag k="ssr:stedsnr" v="263108" />
	</node>
	<node id="-733084" lat="68.7318416637" lon="16.3311999864">
		<tag k="name" v="Ramnskardvatnan" />
		<tag k="natural" v="water" />
		<tag k="ssr:stedsnr" v="261961" />
		<tag k="water" v="lake" />
	</node>
	<node id="-733081" lat="68.7302638894" lon="16.1309249972">
		<tag k="alt_name" v="Vebestadelva" />
		<tag k="name" v="Vebbestadelva" />
		<tag k="ssr:stedsnr" v="261447" />
		<tag k="waterway" v="stream" />
	</node>
	<node id="-733079" lat="68.8014666625" lon="16.1166194426">
		<tag k="name" v="Skallevasselva" />
		<tag k="ssr:stedsnr" v="261084" />
		<tag k="waterway" v="stream" />
	</node>
	<node id="-733077" lat="68.7897194483" lon="16.1423999993">
		<tag k="name" v="Dalelva" />
		<tag k="ssr:stedsnr" v="261067" />
		<tag k="waterway" v="stream" />
	</node>
	<node id="-733076" lat="68.7176249977" lon="16.3672527683">
		<tag k="loc_name" v="Olhammarvatnet" />
		<tag k="name" v="Hanshammarvatnet" />
		<tag k="natural" v="water" />
		<tag k="ssr:stedsnr" v="260996" />
	</node>
	<node id="-733073" lat="68.5558916679" lon="15.8191972199">
		<tag k="name" v="Tverrbakkelva" />
		<tag k="ssr:stedsnr" v="260908" />
		<tag k="waterway" v="stream" />
	</node>
	<node id="-733067" lat="68.5836166711" lon="15.7345805452">
		<tag k="name" v="Rundskardvatnet" />
		<tag k="natural" v="water" />
		<tag k="ssr:stedsnr" v="260861" />
	</node>
	<node id="-733062" lat="68.6928805544" lon="15.8646138823">
		<tag k="fixme" v="multiple name tags, choose one and add the other to alt_name" />
		<tag k="name" v="Lebekkelva;Tverrelva" />
		<tag k="ssr:stedsnr" v="260243" />
		<tag k="waterway" v="stream" />
	</node>
	<node id="-733055" lat="68.8048083313" lon="16.1304972282">
		<tag k="alt_name" v="Skallvatnet" />
		<tag k="name" v="Skallevatnet" />
		<tag k="natural" v="water" />
		<tag k="ssr:stedsnr" v="260146" />
	</node>
	<node id="-733053" lat="68.8492555572" lon="16.1760722119">
		<tag k="name" v="Bremneselva" />
		<tag k="ssr:stedsnr" v="260046" />
		<tag k="waterway" v="stream" />
	</node>
	<node id="-733044" lat="68.7542166701" lon="16.3200222219">
		<tag k="name" v="Tortenbakkvatnet" />
		<tag k="natural" v="water" />
		<tag k="ssr:stedsnr" v="260349" />
	</node>
	<node id="-733042" lat="68.6627805524" lon="15.9773388845">
		<tag k="name" v="Skredbekken" />
		<tag k="ssr:stedsnr" v="260339" />
		<tag k="waterway" v="stream" />
	</node>
	<node id="-733041" lat="68.6600388904" lon="16.0097110993">
		<tag k="name" v="Juvikvatnet" />
		<tag k="natural" v="water" />
		<tag k="ssr:stedsnr" v="260336" />
	</node>
	<node id="-733037" lat="68.6742277818" lon="16.1442888825">
		<tag k="alt_name" v="Melåa" />
		<tag k="name" v="Melåelva" />
		<tag k="ssr:stedsnr" v="260331" />
		<tag k="waterway" v="river" />
	</node>
	<node id="-733036" lat="68.6748194455" lon="16.0870555643">
		<tag k="name" v="Bjørnlibekken" />
		<tag k="ssr:stedsnr" v="260318" />
		<tag k="waterway" v="stream" />
	</node>
	<node id="-733033" lat="68.785386111" lon="16.3179472264">
		<tag k="name" v="Blomåsbekken" />
		<tag k="ssr:stedsnr" v="234995" />
		<tag k="waterway" v="stream" />
	</node>
	<node id="-733022" lat="68.5702944484" lon="15.7847055458">
		<tag k="name" v="Nerfossen" />
		<tag k="natural" v="waterfall" />
		<tag k="ssr:stedsnr" v="233878" />
	</node>
	<node id="-733020" lat="68.5423277745" lon="15.764583332">
		<tag k="name" v="Håelva" />
		<tag k="ssr:stedsnr" v="233843" />
		<tag k="waterway" v="stream" />
	</node>
	<node id="-733007" lat="68.6632972226" lon="16.3712555519">
		<tag k="name" v="Myrvasselva" />
		<tag k="ssr:stedsnr" v="233653" />
		<tag k="waterway" v="stream" />
	</node>
	<node id="-733002" lat="68.6738305539" lon="16.1861638935">
		<tag k="name" v="Førstevatnet" />
		<tag k="natural" v="water" />
		<tag k="ssr:stedsnr" v="233467" />
		<tag k="water" v="lake" />
	</node>
	<node id="-732990" lat="68.6752833373" lon="15.90004722">
		<tag k="name" v="Kvanntodalbekken" />
		<tag k="ssr:stedsnr" v="233183" />
		<tag k="waterway" v="stream" />
	</node>
	<node id="-732985" lat="68.6905138907" lon="15.8921638867">
		<tag k="name" v="Kvannbekken" />
		<tag k="ssr:stedsnr" v="233122" />
		<tag k="waterway" v="stream" />
	</node>
	<node id="-732984" lat="68.6925083345" lon="15.8069472342">
		<tag k="name" v="Andre Tverrelva" />
		<tag k="ssr:stedsnr" v="233118" />
		<tag k="waterway" v="stream" />
	</node>
	<node id="-732970" lat="68.6530499966" lon="16.2262527839">
		<tag k="name" v="Femtevatnet" />
		<tag k="natural" v="water" />
		<tag k="ssr:stedsnr" v="202050" />
		<tag k="water" v="lake" />
	</node>
	<node id="-732966" lat="68.6249666629" lon="15.8443694443">
		<tag k="name" v="Hestneselva" />
		<tag k="ssr:stedsnr" v="200356" />
		<tag k="waterway" v="stream" />
	</node>
	<node id="-732965" lat="68.6242972259" lon="15.6610722291">
		<tag k="alt_name" v="Litlvatnet" />
		<tag k="name" v="Litjevatnet" />
		<tag k="natural" v="water" />
		<tag k="ssr:stedsnr" v="200354" />
	</node>
	<node id="-732955" lat="68.6836972219" lon="16.0551194351">
		<tag k="alt_name" v="Mølneelva" />
		<tag k="name" v="Mølnelva" />
		<tag k="ssr:stedsnr" v="200251" />
		<tag k="waterway" v="stream" />
	</node>
	<node id="-732950" lat="68.7237027791" lon="16.2567944379">
		<tag k="name" v="Klaveselva" />
		<tag k="ssr:stedsnr" v="199985" />
		<tag k="waterway" v="stream" />
	</node>
	<node id="-732945" lat="68.5725305599" lon="15.7385444355">
		<tag k="name" v="Våtvollelva" />
		<tag k="ssr:stedsnr" v="199847" />
		<tag k="waterway" v="stream" />
	</node>
	<node id="-732943" lat="68.5455722179" lon="15.8081333439">
		<tag k="name" v="Hundnesvatnan" />
		<tag k="natural" v="water" />
		<tag k="ssr:stedsnr" v="199779" />
	</node>
	<node id="-732939" lat="68.7154000007" lon="16.0736555529">
		<tag k="name" v="Hornelva" />
		<tag k="ssr:stedsnr" v="199470" />
		<tag k="waterway" v="stream" />
	</node>
	<node id="-732938" lat="68.7078583356" lon="16.105830566">
		<tag k="name" v="Kaltdalsvatnan" />
		<tag k="natural" v="water" />
		<tag k="ssr:stedsnr" v="199460" />
		<tag k="water" v="lake" />
	</node>
	<node id="-732933" lat="68.6597749964" lon="15.9661611063">
		<tag k="alt_name" v="Stigbekken" />
		<tag k="name" v="Stibekken" />
		<tag k="ssr:stedsnr" v="199308" />
		<tag k="waterway" v="stream" />
	</node>
	<node id="-732921" lat="68.7297194482" lon="16.1775055613">
		<tag k="name" v="Stilldamman" />
		<tag k="natural" v="water" />
		<tag k="ssr:stedsnr" v="173721" />
		<tag k="water" v="pond" />
	</node>
	<node id="-732915" lat="68.7665833308" lon="16.2316472276">
		<tag k="name" v="Gåraelva" />
		<tag k="ssr:stedsnr" v="173600" />
		<tag k="waterway" v="stream" />
	</node>
	<node id="-732913" lat="68.7174861157" lon="16.2573499892">
		<tag k="name" v="Åsevatnet" />
		<tag k="natural" v="water" />
		<tag k="ssr:stedsnr" v="173582" />
	</node>
	<node id="-732909" lat="68.724466664" lon="16.339786109">
		<tag k="name" v="Ol Larsavatnet" />
		<tag k="natural" v="water" />
		<tag k="ssr:stedsnr" v="173483" />
	</node>
	<node id="-732904" lat="68.7102527789" lon="15.9649861199">
		<tag k="name" v="Hattebekken" />
		<tag k="ssr:stedsnr" v="173413" />
		<tag k="waterway" v="stream" />
	</node>
	<node id="-732892" lat="68.6817305543" lon="15.8910833347">
		<tag k="name" v="Storfossen" />
		<tag k="natural" v="waterfall" />
		<tag k="ssr:stedsnr" v="173096" />
	</node>
	<node id="-732882" lat="68.6144416671" lon="15.7216749926">
		<tag k="name" v="Djupbukta" />
		<tag k="natural" v="bay" />
		<tag k="ssr:stedsnr" v="172814" />
	</node>
	<node id="-732860" lat="68.6041916686" lon="15.8259916553">
		<tag k="alt_name" v="Svartebekkan" />
		<tag k="name" v="Svartbekken" />
		<tag k="ssr:stedsnr" v="139796" />
		<tag k="waterway" v="stream" />
	</node>
	<node id="-732859" lat="68.7477388855" lon="16.3549861085">
		<tag k="alt_name" v="Småvatnet, vestre" />
		<tag k="name" v="Vestre Småvatn" />
		<tag k="natural" v="water" />
		<tag k="ssr:stedsnr" v="139781" />
	</node>
	<node id="-732856" lat="68.7785861112" lon="16.2864722292">
		<tag k="name" v="Vikelandselva" />
		<tag k="ssr:stedsnr" v="139495" />
		<tag k="waterway" v="river" />
	</node>
	<node id="-732852" lat="68.6585749976" lon="15.8738555517">
		<tag k="alt_name" v="Sommersetbekken" />
		<tag k="name" v="Sommarsetbekken" />
		<tag k="ssr:stedsnr" v="139297" />
		<tag k="waterway" v="stream" />
	</node>
	<node id="-732850" lat="68.6832944451" lon="16.1321250011">
		<tag k="name" v="Tverrfjellelva" />
		<tag k="ssr:stedsnr" v="139263" />
		<tag k="waterway" v="stream" />
	</node>
	<node id="-732847" lat="68.6853999973" lon="15.7934694499">
		<tag k="name" v="Langvatnet" />
		<tag k="natural" v="water" />
		<tag k="ssr:stedsnr" v="139248" />
	</node>
	<node id="-732845" lat="68.8144472239" lon="16.1242527822">
		<tag k="name" v="Eldaelva" />
		<tag k="ssr:stedsnr" v="139121" />
		<tag k="waterway" v="stream" />
	</node>
	<node id="-732842" lat="68.7223527789" lon="16.3495361052">
		<tag k="name" v="Røvatnet" />
		<tag k="natural" v="water" />
		<tag k="ssr:stedsnr" v="138983" />
	</node>
	<node id="-732840" lat="68.5547416653" lon="15.7141333282">
		<tag k="name" v="Olnilsavatnet" />
		<tag k="natural" v="water" />
		<tag k="ssr:stedsnr" v="138870" />
	</node>
	<node id="-732837" lat="68.5821999995" lon="15.7735194552">
		<tag k="name" v="Skjellneselva" />
		<tag k="ssr:stedsnr" v="138839" />
		<tag k="waterway" v="stream" />
	</node>
	<node id="-732832" lat="68.6320472196" lon="15.8980388827">
		<tag k="alt_name" v="Ørnhaugbekken" />
		<tag k="name" v="Ørnhågbekken" />
		<tag k="ssr:stedsnr" v="138366" />
		<tag k="waterway" v="stream" />
	</node>
	<node id="-732826" lat="68.6384888905" lon="15.7054361138">
		<tag k="name" v="Sæterdalsvatnan" />
		<tag k="natural" v="water" />
		<tag k="ssr:stedsnr" v="138345" />
		<tag k="water" v="lake" />
	</node>
	<node id="-732795" lat="68.7778888882" lon="16.1961389001">
		<tag k="name" v="Langlibekken" />
		<tag k="ssr:stedsnr" v="112700" />
		<tag k="waterway" v="stream" />
	</node>
	<node id="-732793" lat="68.8187388889" lon="16.2116555539">
		<tag k="name" v="Dalelvvatnet" />
		<tag k="natural" v="water" />
		<tag k="ssr:stedsnr" v="112663" />
	</node>
	<node id="-732792" lat="68.8424861125" lon="16.2011916685">
		<tag k="name" v="Stilla" />
		<tag k="natural" v="water" />
		<tag k="ssr:stedsnr" v="112636" />
		<tag k="water" v="lake" />
	</node>
	<node id="-732783" lat="68.5726666691" lon="15.8305777892">
		<tag k="name" v="Nordelva" />
		<tag k="ssr:stedsnr" v="112903" />
		<tag k="waterway" v="stream" />
	</node>
	<node id="-732778" lat="68.6887277814" lon="15.9384916574">
		<tag k="name" v="Småvassbekken" />
		<tag k="ssr:stedsnr" v="112504" />
		<tag k="waterway" v="stream" />
	</node>
	<node id="-732772" lat="68.6722222189" lon="16.1426166645">
		<tag k="name" v="Fjellfossen" />
		<tag k="natural" v="waterfall" />
		<tag k="ssr:stedsnr" v="112458" />
	</node>
	<node id="-732768" lat="68.6793833362" lon="16.3700222232">
		<tag k="name" v="Myrvatnet" />
		<tag k="natural" v="water" />
		<tag k="ssr:stedsnr" v="112615" />
	</node>
	<node id="-732767" lat="68.6719749991" lon="16.2782750078">
		<tag k="name" v="Vaddasvatnet" />
		<tag k="natural" v="water" />
		<tag k="ssr:stedsnr" v="112610" />
	</node>
	<node id="-732748" lat="68.6208027767" lon="15.6771472117">
		<tag k="name" v="Vassbotn" />
		<tag k="natural" v="bay" />
		<tag k="ssr:stedsnr" v="111723" />
	</node>
	<node id="-732741" lat="68.6871305563" lon="16.2755888879">
		<tag k="alt_name" v="Litle Korsvatnet" />
		<tag k="name" v="Litje Korsvatnet" />
		<tag k="natural" v="water" />
		<tag k="ssr:stedsnr" v="81144" />
		<tag k="water" v="lake" />
	</node>
	<node id="-732740" lat="68.6810944424" lon="16.231030543">
		<tag k="name" v="Sennevatnet" />
		<tag k="natural" v="water" />
		<tag k="ssr:stedsnr" v="81120" />
	</node>
	<node id="-732738" lat="68.5913499997" lon="15.755330547">
		<tag k="name" v="Rundskardelva" />
		<tag k="ssr:stedsnr" v="79796" />
		<tag k="waterway" v="stream" />
	</node>
	<node id="-732736" lat="68.6119249962" lon="15.8930083262">
		<tag k="alt_name" v="Gullholmskardelva" />
		<tag k="name" v="Gullmolmskarelva" />
		<tag k="ssr:stedsnr" v="79350" />
		<tag k="waterway" v="stream" />
	</node>
	<node id="-732735" lat="68.6091277785" lon="15.8226722113">
		<tag k="name" v="Urdbekken" />
		<tag k="ssr:stedsnr" v="79348" />
		<tag k="waterway" v="stream" />
	</node>
	<node id="-732734" lat="68.6675416676" lon="16.1902083327">
		<tag k="name" v="Melåvatnan" />
		<tag k="natural" v="water" />
		<tag k="ssr:stedsnr" v="79283" />
		<tag k="water" v="lake" />
	</node>
	<node id="-732733" lat="68.6653305533" lon="15.8738138814">
		<tag k="name" v="Bogelva" />
		<tag k="ssr:stedsnr" v="79252" />
		<tag k="waterway" v="stream" />
	</node>
	<node id="-732731" lat="68.7113722198" lon="16.3226833357">
		<tag k="name" v="Asenbakkbekken" />
		<tag k="ssr:stedsnr" v="78897" />
		<tag k="waterway" v="stream" />
	</node>
	<node id="-732729" lat="68.5628388893" lon="15.8444472209">
		<tag k="name" v="Dalvatnet" />
		<tag k="natural" v="water" />
		<tag k="ssr:stedsnr" v="78876" />
	</node>
	<node id="-732724" lat="68.5280472182" lon="15.7389083276">
		<tag k="name" v="Skjellelva" />
		<tag k="ssr:stedsnr" v="78773" />
		<tag k="waterway" v="stream" />
	</node>
	<node id="-732720" lat="68.7059861085" lon="15.9700333293">
		<tag k="alt_name" v="Finnebekken" />
		<tag k="name" v="Finnbekken" />
		<tag k="ssr:stedsnr" v="78470" />
		<tag k="waterway" v="stream" />
	</node>
	<node id="-732716" lat="68.7303861088" lon="15.9835694328">
		<tag k="name" v="Skredbekken" />
		<tag k="ssr:stedsnr" v="78459" />
		<tag k="waterway" v="stream" />
	</node>
	<node id="-732713" lat="68.6155222198" lon="16.0176388817">
		<tag k="name" v="Jovatnet" />
		<tag k="natural" v="water" />
		<tag k="ssr:stedsnr" v="78357" />
	</node>
	<node id="-732710" lat="68.6265111107" lon="15.6675999925">
		<tag k="name" v="Sandelva" />
		<tag k="ssr:stedsnr" v="78329" />
		<tag k="waterway" v="stream" />
	</node>
	<node id="-732707" lat="68.6957972231" lon="16.1867666606">
		<tag k="name" v="Straumtverrvatnet" />
		<tag k="natural" v="water" />
		<tag k="ssr:stedsnr" v="78281" />
	</node>
	<node id="-732696" lat="68.5944416654" lon="15.7677083234">
		<tag k="name" v="Småvatnan" />
		<tag k="natural" v="water" />
		<tag k="ssr:stedsnr" v="52852" />
		<tag k="water" v="lake" />
	</node>
	<node id="-732690" lat="68.7994333294" lon="16.2259555449">
		<tag k="name" v="Høgfossen" />
		<tag k="natural" v="waterfall" />
		<tag k="ssr:stedsnr" v="52677" />
	</node>
	<node id="-732683" lat="68.7458249997" lon="16.3055555645">
		<tag k="name" v="Skarelva" />
		<tag k="ssr:stedsnr" v="52512" />
		<tag k="waterway" v="stream" />
	</node>
	<node id="-732679" lat="68.6542888919" lon="16.0907527756">
		<tag k="name" v="Gårdsbekken" />
		<tag k="ssr:stedsnr" v="52417" />
		<tag k="waterway" v="stream" />
	</node>
	<node id="-732674" lat="68.7572111109" lon="16.2445666614">
		<tag k="name" v="Øyra" />
		<tag k="natural" v="bay" />
		<tag k="ssr:stedsnr" v="52269" />
	</node>
	<node id="-732654" lat="68.6250083317" lon="15.6529360995">
		<tag k="name" v="Marenbekken" />
		<tag k="ssr:stedsnr" v="51791" />
		<tag k="waterway" v="stream" />
	</node>
	<node id="-732648" lat="68.6880138858" lon="15.9494833247">
		<tag k="name" v="Valvatnet" />
		<tag k="natural" v="water" />
		<tag k="ssr:stedsnr" v="51543" />
	</node>
	<node id="-732646" lat="68.6684972228" lon="16.2015388965">
		<tag k="name" v="Revet" />
		<tag k="natural" v="cape" />
		<tag k="ssr:stedsnr" v="51475" />
	</node>
	<node id="-732644" lat="68.7162333302" lon="16.244475005">
		<tag k="name" v="Brillevatnet" />
		<tag k="natural" v="water" />
		<tag k="ssr:stedsnr" v="51468" />
	</node>
	<node id="-732633" lat="68.6554638879" lon="16.3521472259">
		<tag k="fixme" v="multiple name tags, choose one and add the other to alt_name" />
		<tag k="name" v="Aurvatnet;Dagborvatnet - Dápmokborjávri" />
		<tag k="name:no" v="Aurvatnet;Dagborvatnet" />
		<tag k="name:se" v="Dápmokborjávri" />
		<tag k="natural" v="water" />
		<tag k="ssr:stedsnr" v="20048" />
		<tag k="water" v="lake" />
	</node>
	<node id="-732632" lat="68.6391027738" lon="16.2478972223">
		<tag k="name" v="Sjuendevatnet" />
		<tag k="natural" v="water" />
		<tag k="ssr:stedsnr" v="20029" />
		<tag k="water" v="lake" />
	</node>
	<node id="-732626" lat="68.7447361073" lon="16.2910416702">
		<tag k="name" v="Vikelva" />
		<tag k="ssr:stedsnr" v="18762" />
		<tag k="waterway" v="stream" />
	</node>
	<node id="-732624" lat="68.7971833325" lon="16.2843388984">
		<tag k="name" v="Tørklevatnet" />
		<tag k="natural" v="water" />
		<tag k="ssr:stedsnr" v="18459" />
	</node>
	<node id="-732621" lat="68.6113500036" lon="16.052166671">
		<tag k="name" v="Jonsheimvatnan - Čoarddajávrrik" />
		<tag k="name:no" v="Jonsheimvatnan" />
		<tag k="name:se" v="Čoarddajávrrik" />
		<tag k="natural" v="water" />
		<tag k="ssr:stedsnr" v="18325" />
		<tag k="water" v="lake" />
	</node>
	<node id="-732619" lat="68.6827555575" lon="16.0377305638">
		<tag k="name" v="Gårdsbekken" />
		<tag k="ssr:stedsnr" v="18240" />
		<tag k="waterway" v="stream" />
	</node>
	<node id="-732618" lat="68.6881388929" lon="16.1223666623">
		<tag k="name" v="Tverrfjellvatnet" />
		<tag k="natural" v="water" />
		<tag k="ssr:stedsnr" v="18230" />
	</node>
	<node id="-732617" lat="68.8108888919" lon="16.1130777892">
		<tag k="name" v="Utstrandvatnet" />
		<tag k="natural" v="water" />
		<tag k="ssr:stedsnr" v="18107" />
	</node>
	<node id="-732615" lat="68.804174998" lon="16.1564527672">
		<tag k="name" v="Trollvatnet" />
		<tag k="natural" v="water" />
		<tag k="ssr:stedsnr" v="18103" />
	</node>
	<node id="-732611" lat="68.8319277735" lon="16.1555861149">
		<tag k="name" v="Finnevatnet" />
		<tag k="natural" v="water" />
		<tag k="ssr:stedsnr" v="18009" />
	</node>
	<node id="-732610" lat="68.5489749986" lon="15.778986104">
		<tag k="name" v="Kvalbuktelva" />
		<tag k="ssr:stedsnr" v="17890" />
		<tag k="waterway" v="stream" />
	</node>
	<node id="-732604" lat="68.6506666707" lon="16.1364194448">
		<tag k="name" v="Tverrelvvatnan" />
		<tag k="natural" v="water" />
		<tag k="ssr:stedsnr" v="17359" />
		<tag k="water" v="lake" />
	</node>
	<node id="-732602" lat="68.7548444409" lon="16.2995360986">
		<tag k="name" v="Justevatnet" />
		<tag k="natural" v="water" />
		<tag k="ssr:stedsnr" v="17337" />
	</node>
	<node id="-732601" lat="68.6854027795" lon="15.8662805677">
		<tag k="name" v="Storelva" />
		<tag k="ssr:stedsnr" v="17236" />
		<tag k="waterway" v="river" />
	</node>
	<node id="-732540" lat="68.5108249974" lon="15.7310583268">
		<tag k="name" v="Skredhågvatnet" />
		<tag k="natural" v="water" />
		<tag k="ssr:stedsnr" v="476793" />
	</node>
	<node id="-732538" lat="68.731099996" lon="16.2200750085">
		<tag k="name" v="Skjellbekken" />
		<tag k="ssr:stedsnr" v="476767" />
		<tag k="waterway" v="stream" />
	</node>
	<node id="-732537" lat="68.7266222205" lon="16.124094449">
		<tag k="name" v="Lågvasselva" />
		<tag k="ssr:stedsnr" v="476750" />
		<tag k="waterway" v="stream" />
	</node>
	<node id="-732533" lat="68.8337333305" lon="16.1360583196">
		<tag k="name" v="Sommerslettbekken" />
		<tag k="ssr:stedsnr" v="476637" />
		<tag k="waterway" v="stream" />
	</node>
	<node id="-732521" lat="68.7418777777" lon="16.2787638905">
		<tag k="name" v="Storelva" />
		<tag k="ssr:stedsnr" v="476485" />
		<tag k="waterway" v="stream" />
	</node>
	<node id="-732500" lat="68.560227781" lon="15.7182388921">
		<tag k="name" v="Ol-Eriksaelva" />
		<tag k="ssr:stedsnr" v="475758" />
		<tag k="waterway" v="stream" />
	</node>
	<node id="-732496" lat="68.6910416622" lon="15.9455083382">
		<tag k="name" v="Libekken" />
		<tag k="ssr:stedsnr" v="475501" />
		<tag k="waterway" v="stream" />
	</node>
	<node id="-732484" lat="68.6654166642" lon="16.3655833284">
		<tag k="loc_name:se" v="Siidajávri" />
		<tag k="name" v="Heimvatnet" />
		<tag k="name:no" v="Heimvatnet" />
		<tag k="natural" v="water" />
		<tag k="ssr:stedsnr" v="384073" />
		<tag k="water" v="lake" />
	</node>
	<node id="-732481" lat="68.6833027739" lon="16.3768944514">
		<tag k="alt_name" v="Storskardvatnet" />
		<tag k="name" v="Storskarvatnet" />
		<tag k="natural" v="water" />
		<tag k="ssr:stedsnr" v="383117" />
	</node>
	<node id="-732478" lat="68.8601499955" lon="16.2296944468">
		<tag k="name" v="Nupsbekken" />
		<tag k="ssr:stedsnr" v="382608" />
		<tag k="waterway" v="stream" />
	</node>
	<node id="-732474" lat="68.6692222228" lon="15.849830548">
		<tag k="name" v="Hjulbakkelva" />
		<tag k="ssr:stedsnr" v="382259" />
		<tag k="waterway" v="stream" />
	</node>
	<node id="-732468" lat="68.5443416683" lon="15.7260750022">
		<tag k="name" v="Brattelva" />
		<tag k="ssr:stedsnr" v="381895" />
		<tag k="waterway" v="stream" />
	</node>
	<node id="-732466" lat="68.5884388855" lon="15.8649972187">
		<tag k="name" v="Ingeborgvatnet" />
		<tag k="natural" v="water" />
		<tag k="ssr:stedsnr" v="381853" />
	</node>
	<node id="-732465" lat="68.5234611089" lon="15.8148805482">
		<tag k="name" v="Springarbekken" />
		<tag k="ssr:stedsnr" v="381816" />
		<tag k="waterway" v="stream" />
	</node>
	<node id="-732461" lat="68.6324083327" lon="16.0328166541">
		<tag k="name" v="Labruelva" />
		<tag k="ssr:stedsnr" v="381338" />
		<tag k="waterway" v="stream" />
	</node>
	<node id="-732458" lat="68.6480333303" lon="16.0540222226">
		<tag k="name" v="Skjellelva" />
		<tag k="ssr:stedsnr" v="381323" />
		<tag k="waterway" v="stream" />
	</node>
	<node id="-732456" lat="68.6775055588" lon="16.0782611003">
		<tag k="alt_name" v="Stridelva" />
		<tag k="name" v="Strielva" />
		<tag k="ssr:stedsnr" v="381289" />
		<tag k="waterway" v="stream" />
	</node>
	<node id="-732455" lat="68.6864416689" lon="15.8349166695">
		<tag k="alt_name" v="Trollkjerkelva" />
		<tag k="name" v="Trollkirkeelva" />
		<tag k="ssr:stedsnr" v="381281" />
		<tag k="waterway" v="stream" />
	</node>
	<node id="-732446" lat="68.6152583291" lon="15.8460361062">
		<tag k="name" v="Trollvatnet" />
		<tag k="natural" v="water" />
		<tag k="ssr:stedsnr" v="355970" />
	</node>
	<node id="-732435" lat="68.7691499974" lon="16.2158138783">
		<tag k="name" v="Strandelva" />
		<tag k="ssr:stedsnr" v="355646" />
		<tag k="waterway" v="stream" />
	</node>
	<node id="-732433" lat="68.8287361111" lon="16.2033499954">
		<tag k="name" v="Hornvatnet" />
		<tag k="natural" v="water" />
		<tag k="ssr:stedsnr" v="355610" />
	</node>
	<node id="-732428" lat="68.7020611122" lon="16.2834333402">
		<tag k="name" v="Djupebekken" />
		<tag k="ssr:stedsnr" v="355592" />
		<tag k="waterway" v="stream" />
	</node>
	<node id="-732426" lat="68.7144249979" lon="16.2703500098">
		<tag k="name" v="Trollbekken" />
		<tag k="ssr:stedsnr" v="355586" />
		<tag k="waterway" v="stream" />
	</node>
	<node id="-732425" lat="68.7113916657" lon="16.2516194528">
		<tag k="name" v="Trollvatnet" />
		<tag k="natural" v="water" />
		<tag k="ssr:stedsnr" v="355584" />
	</node>
	<node id="-732423" lat="68.7060472198" lon="16.2675500098">
		<tag k="name" v="Hallbekken" />
		<tag k="ssr:stedsnr" v="355583" />
		<tag k="waterway" v="stream" />
	</node>
	<node id="-732422" lat="68.6684388916" lon="16.3516222244">
		<tag k="name" v="Heimvasselva" />
		<tag k="ssr:stedsnr" v="355576" />
		<tag k="waterway" v="stream" />
	</node>
	<node id="-732412" lat="68.6508861133" lon="16.1032972346">
		<tag k="name" v="Skredbekken" />
		<tag k="ssr:stedsnr" v="355419" />
		<tag k="waterway" v="stream" />
	</node>
	<node id="-732394" lat="68.6246861141" lon="16.0237555632">
		<tag k="name" v="Botnbekken" />
		<tag k="ssr:stedsnr" v="355006" />
		<tag k="waterway" v="stream" />
	</node>
	<node id="-732387" lat="68.5700777821" lon="15.7800083317">
		<tag k="name" v="Øverfossen" />
		<tag k="natural" v="waterfall" />
		<tag k="ssr:stedsnr" v="354769" />
	</node>
	<node id="-732380" lat="68.71943889" lon="16.1849777678">
		<tag k="name" v="Bålnesset" />
		<tag k="natural" v="cape" />
		<tag k="ssr:stedsnr" v="354426" />
	</node>
	<node id="-732374" lat="68.5918361129" lon="15.8284972238">
		<tag k="name" v="Litjevatnet" />
		<tag k="natural" v="water" />
		<tag k="ssr:stedsnr" v="354199" />
	</node>
	<node id="-732372" lat="68.6801972235" lon="16.3482611088">
		<tag k="name" v="Grytvatnet" />
		<tag k="natural" v="water" />
		<tag k="ssr:stedsnr" v="323136" />
	</node>
	<node id="-732364" lat="68.5946611105" lon="15.8278944467">
		<tag k="name" v="Gullholmelva" />
		<tag k="ssr:stedsnr" v="321810" />
		<tag k="waterway" v="stream" />
	</node>
	<node id="-732357" lat="68.7026777752" lon="16.0619944539">
		<tag k="name" v="Hesjedalselva" />
		<tag k="ssr:stedsnr" v="321453" />
		<tag k="waterway" v="stream" />
	</node>
	<node id="-732354" lat="68.7317861129" lon="15.9457805542">
		<tag k="name" v="Skjelltindvatnet" />
		<tag k="natural" v="water" />
		<tag k="ssr:stedsnr" v="321435" />
	</node>
	<node id="-732352" lat="68.6121833343" lon="15.9068472341">
		<tag k="name" v="Botnelva" />
		<tag k="ssr:stedsnr" v="321345" />
		<tag k="waterway" v="stream" />
	</node>
	<node id="-732350" lat="68.6205166668" lon="15.921841678">
		<tag k="alt_name" v="Forrelva" />
		<tag k="name" v="Forelva" />
		<tag k="ssr:stedsnr" v="321331" />
		<tag k="waterway" v="stream" />
	</node>
	<node id="-732349" lat="68.641455555" lon="15.9643388871">
		<tag k="fixme" v="multiple name tags, choose one and add the other to alt_name" />
		<tag k="name" v="Skardbekken;Stortindbekken" />
		<tag k="ssr:stedsnr" v="321310" />
		<tag k="waterway" v="stream" />
	</node>
	<node id="-732338" lat="68.8274944415" lon="16.127674999">
		<tag k="alt_name" v="Resmålskarelva" />
		<tag k="name" v="Rismålsskardelva" />
		<tag k="ssr:stedsnr" v="321114" />
		<tag k="waterway" v="stream" />
	</node>
	<node id="-732332" lat="68.8313694424" lon="16.1814333374">
		<tag k="name" v="Lomvatnet" />
		<tag k="natural" v="water" />
		<tag k="ssr:stedsnr" v="321003" />
	</node>
	<node id="-732310" lat="68.7163749987" lon="15.9885305654">
		<tag k="name" v="Rørvikbekken" />
		<tag k="ssr:stedsnr" v="294465" />
		<tag k="waterway" v="stream" />
	</node>
	<node id="-732307" lat="68.6613638886" lon="16.1274944325">
		<tag k="name" v="Kildebekken" />
		<tag k="ssr:stedsnr" v="294451" />
		<tag k="waterway" v="stream" />
	</node>
	<node id="-732300" lat="68.6742888892" lon="16.3073527716">
		<tag k="name" v="Kirkenesset" />
		<tag k="natural" v="cape" />
		<tag k="ssr:stedsnr" v="294632" />
	</node>
	<node id="-732294" lat="68.6357527777" lon="15.7827694381">
		<tag k="name" v="Bekkenesbekken" />
		<tag k="ssr:stedsnr" v="294166" />
		<tag k="waterway" v="stream" />
	</node>
	<node id="-732287" lat="68.6254583339" lon="16.0380055509">
		<tag k="name" v="Kammersdalsbekken" />
		<tag k="ssr:stedsnr" v="294010" />
		<tag k="waterway" v="stream" />
	</node>
	<node id="-732285" lat="68.6187388872" lon="15.7187388948">
		<tag k="name" v="Tennsteinen" />
		<tag k="place" v="islet" />
		<tag k="ssr:stedsnr" v="293781" />
	</node>
	<node id="-734133" lat="68.7317694401" lon="16.3331083429">
		<tag k="name" v="Ramnskarvatnet" />
		<tag k="natural" v="water" />
		<tag k="ssr:stedsnr" v="962546" />
		<tag k="water" v="lake" />
	</node>
	<node id="-734130" lat="68.7638472256" lon="16.3311138791">
		<tag k="name" v="Mølnbekken" />
		<tag k="ssr:stedsnr" v="962536" />
		<tag k="waterway" v="stream" />
	</node>
	<node id="-734118" lat="68.6815388846" lon="15.8176583361">
		<tag k="name" v="Grunnvatnet" />
		<tag k="natural" v="water" />
		<tag k="ssr:stedsnr" v="962102" />
	</node>
	<node id="-734117" lat="68.7152777818" lon="15.9207749888">
		<tag k="name" v="Sørdalselva" />
		<tag k="ssr:stedsnr" v="962095" />
		<tag k="waterway" v="stream" />
	</node>
	<node id="-734104" lat="68.6241166681" lon="16.0731361198">
		<tag k="name" v="Sjurdammen" />
		<tag k="natural" v="water" />
		<tag k="ssr:stedsnr" v="962013" />
		<tag k="water" v="lake" />
	</node>
	<node id="-734103" lat="68.6287055551" lon="16.070772226">
		<tag k="name" v="Holmenesset" />
		<tag k="natural" v="cape" />
		<tag k="ssr:stedsnr" v="962007" />
	</node>
	<node id="-734074" lat="68.6605611094" lon="16.3028305511">
		<tag k="name" v="Stakketindvatnan" />
		<tag k="natural" v="water" />
		<tag k="ssr:stedsnr" v="930066" />
		<tag k="water" v="lake" />
	</node>
	<node id="-734073" lat="68.7245027748" lon="16.3199999933">
		<tag k="name" v="Vikevatnet" />
		<tag k="natural" v="water" />
		<tag k="ssr:stedsnr" v="928985" />
	</node>
	<node id="-734069" lat="68.5631166676" lon="15.7260444354">
		<tag k="name" v="Løbergsvatnet" />
		<tag k="natural" v="water" />
		<tag k="ssr:stedsnr" v="928831" />
		<tag k="water" v="lake" />
	</node>
	<node id="-734068" lat="68.5986194464" lon="16.0616972328">
		<tag k="name" v="Langdalsvatnan" />
		<tag k="natural" v="water" />
		<tag k="ssr:stedsnr" v="928802" />
		<tag k="water" v="lake" />
	</node>
	<node id="-734067" lat="68.6011972244" lon="15.8894305613">
		<tag k="name" v="Trollvatnan" />
		<tag k="natural" v="water" />
		<tag k="ssr:stedsnr" v="928797" />
	</node>
	<node id="-734066" lat="68.5058277778" lon="15.6789250061">
		<tag k="name" v="Ivervatnet" />
		<tag k="natural" v="water" />
		<tag k="ssr:stedsnr" v="928775" />
	</node>
	<node id="-734065" lat="68.5271638922" lon="15.7770277835">
		<tag k="name" v="Tverrelva" />
		<tag k="ssr:stedsnr" v="928753" />
		<tag k="waterway" v="stream" />
	</node>
	<node id="-734055" lat="68.6090999989" lon="15.6880111022">
		<tag k="name" v="Tverrelva" />
		<tag k="ssr:stedsnr" v="928334" />
		<tag k="waterway" v="river" />
	</node>
	<node id="-734053" lat="68.6300138931" lon="16.2154444486">
		<tag k="name" v="Vinkelvatnet" />
		<tag k="natural" v="water" />
		<tag k="ssr:stedsnr" v="928318" />
	</node>
	<node id="-734052" lat="68.6270250036" lon="15.9672833342">
		<tag k="name" v="Langvatnet" />
		<tag k="natural" v="water" />
		<tag k="ssr:stedsnr" v="928308" />
	</node>
	<node id="-734041" lat="68.6853249959" lon="15.9294472159">
		<tag k="name" v="Valbekken" />
		<tag k="ssr:stedsnr" v="928230" />
		<tag k="waterway" v="stream" />
	</node>
	<node id="-734040" lat="68.6803472193" lon="15.8388972141">
		<tag k="alt_name" v="Trollkjerkvatnan" />
		<tag k="name" v="Trollkirkevatnan" />
		<tag k="natural" v="water" />
		<tag k="ssr:stedsnr" v="928219" />
		<tag k="water" v="lake" />
	</node>
	<node id="-734039" lat="68.7055749987" lon="16.2779805491">
		<tag k="name" v="Tverrelva" />
		<tag k="ssr:stedsnr" v="928161" />
		<tag k="waterway" v="stream" />
	</node>
	<node id="-734038" lat="68.5115361116" lon="15.7368055481">
		<tag k="name" v="Lakselva" />
		<tag k="ssr:stedsnr" v="928160" />
		<tag k="waterway" v="river" />
	</node>
	<node id="-734019" lat="68.5536166661" lon="15.8058583227">
		<tag k="name" v="Hundneselva" />
		<tag k="ssr:stedsnr" v="901952" />
		<tag k="waterway" v="stream" />
	</node>
	<node id="-734014" lat="68.5928055575" lon="15.7838999929">
		<tag k="name" v="Ytste Tømmerbekken" />
		<tag k="ssr:stedsnr" v="901851" />
		<tag k="waterway" v="stream" />
	</node>
	<node id="-734007" lat="68.8450749983" lon="16.1694888936">
		<tag k="name" v="Skoleelva" />
		<tag k="ssr:stedsnr" v="901645" />
		<tag k="waterway" v="stream" />
	</node>
	<node id="-733995" lat="68.6876611095" lon="16.036688892">
		<tag k="name" v="Akselbekken" />
		<tag k="ssr:stedsnr" v="901486" />
		<tag k="waterway" v="stream" />
	</node>
	<node id="-733993" lat="68.7295555598" lon="15.9382277674">
		<tag k="name" v="Tjønna" />
		<tag k="natural" v="water" />
		<tag k="ssr:stedsnr" v="901476" />
	</node>
	<node id="-733989" lat="68.6691027779" lon="16.1345277864">
		<tag k="name" v="Elvekrokan" />
		<tag k="natural" v="bay" />
		<tag k="ssr:stedsnr" v="901451" />
	</node>
	<node id="-733973" lat="68.6556916712" lon="16.0468499982">
		<tag k="name" v="Verbekken" />
		<tag k="ssr:stedsnr" v="901044" />
		<tag k="waterway" v="stream" />
	</node>
	<node id="-733970" lat="68.6572666631" lon="16.0538583348">
		<tag k="name" v="Tomasbekken" />
		<tag k="ssr:stedsnr" v="901030" />
		<tag k="waterway" v="stream" />
	</node>
	<node id="-733969" lat="68.6651055593" lon="16.0452305646">
		<tag k="name" v="Småbekken" />
		<tag k="ssr:stedsnr" v="901026" />
		<tag k="waterway" v="stream" />
	</node>
	<node id="-733962" lat="68.6941444478" lon="16.2416888873">
		<tag k="fixme" v="multiple name tags, choose one and add the other to alt_name" />
		<tag k="name" v="Bakre Kjeipelva;Indre Keipelva" />
		<tag k="ssr:stedsnr" v="870161" />
		<tag k="waterway" v="river" />
	</node>
	<node id="-733961" lat="68.7010250003" lon="16.2734611101">
		<tag k="name" v="Tømmeråsvatnet" />
		<tag k="natural" v="water" />
		<tag k="ssr:stedsnr" v="870160" />
		<tag k="water" v="lake" />
	</node>
	<node id="-733957" lat="68.6498388912" lon="16.2428027799">
		<tag k="name" v="Sjettevatnet" />
		<tag k="natural" v="water" />
		<tag k="ssr:stedsnr" v="869034" />
	</node>
	<node id="-733955" lat="68.5868138927" lon="16.0207277674">
		<tag k="name" v="Storvatnet - Muorjejávri" />
		<tag k="name:no" v="Storvatnet" />
		<tag k="name:se" v="Muorjejávri" />
		<tag k="natural" v="water" />
		<tag k="ssr:stedsnr" v="868780" />
		<tag k="water" v="lake" />
	</node>
	<node id="-733953" lat="68.7400166625" lon="16.0610694452">
		<tag k="fixme" v="multiple name tags, choose one and add the other to alt_name" />
		<tag k="name" v="Negårdsosen;Osen" />
		<tag k="natural" v="bay" />
		<tag k="ssr:stedsnr" v="868439" />
	</node>
	<node id="-733952" lat="68.7336555517" lon="16.0751638949">
		<tag k="name" v="Hemmestadvatnet" />
		<tag k="natural" v="water" />
		<tag k="ssr:stedsnr" v="868431" />
	</node>
	<node id="-733945" lat="68.7381888904" lon="16.3592333349">
		<tag k="name" v="Storhøgdvatnet" />
		<tag k="natural" v="water" />
		<tag k="ssr:stedsnr" v="867950" />
	</node>
	<node id="-733942" lat="68.5290638901" lon="15.7636194564">
		<tag k="name" v="Seljebekken" />
		<tag k="ssr:stedsnr" v="867787" />
		<tag k="waterway" v="stream" />
	</node>
	<node id="-733941" lat="68.6980944482" lon="15.9535833288">
		<tag k="alt_name" v="Årmolsbekken" />
		<tag k="name" v="Årmålsbekken" />
		<tag k="ssr:stedsnr" v="867512" />
		<tag k="waterway" v="stream" />
	</node>
	<node id="-733940" lat="68.7738111117" lon="16.3452694548">
		<tag k="name" v="Nakkebekken" />
		<tag k="ssr:stedsnr" v="867490" />
		<tag k="waterway" v="stream" />
	</node>
	<node id="-733939" lat="68.7814361084" lon="16.3136944337">
		<tag k="name" v="Kroktåa" />
		<tag k="ssr:stedsnr" v="867487" />
		<tag k="waterway" v="river" />
	</node>
	<node id="-733931" lat="68.6310750048" lon="15.8569972133">
		<tag k="name" v="Husbyelva" />
		<tag k="ssr:stedsnr" v="867358" />
		<tag k="waterway" v="stream" />
	</node>
	<node id="-733930" lat="68.6421083314" lon="16.0917972313">
		<tag k="alt_name" v="Djupskardbekken" />
		<tag k="name" v="Djupskarelva" />
		<tag k="ssr:stedsnr" v="867353" />
		<tag k="waterway" v="stream" />
	</node>
	<node id="-733929" lat="68.6444472184" lon="16.052819445">
		<tag k="alt_name" v="Hinnstinnelva" />
		<tag k="name" v="Hinnsteinelva" />
		<tag k="ssr:stedsnr" v="867339" />
		<tag k="waterway" v="stream" />
	</node>
	<node id="-733927" lat="68.648975001" lon="15.8185666644">
		<tag k="name" v="Sæterbekken" />
		<tag k="ssr:stedsnr" v="867336" />
		<tag k="waterway" v="stream" />
	</node>
	<node id="-733926" lat="68.6685527816" lon="16.0102805501">
		<tag k="name" v="Juvikelva" />
		<tag k="ssr:stedsnr" v="867324" />
		<tag k="waterway" v="stream" />
	</node>
	<node id="-733919" lat="68.5680083359" lon="15.608361116">
		<tag k="name" v="Løbergsvatnet" />
		<tag k="natural" v="water" />
		<tag k="ssr:stedsnr" v="867144" />
	</node>
	<node id="-733913" lat="68.8383916664" lon="16.141405559">
		<tag k="fixme" v="multiple name tags, choose one and add the other to alt_name" />
		<tag k="name" v="Aspelva;Aspeneselva" />
		<tag k="ssr:stedsnr" v="867008" />
		<tag k="waterway" v="stream" />
	</node>
	<node id="-733910" lat="68.6231222228" lon="15.9143222151">
		<tag k="name" v="Elvenesset" />
		<tag k="natural" v="cape" />
		<tag k="ssr:stedsnr" v="841992" />
	</node>
	<node id="-733905" lat="68.5057305584" lon="15.7186833243">
		<tag k="name" v="Revhøljet" />
		<tag k="place" v="locality" />
		<tag k="ssr:stedsnr" v="841781" />
	</node>
	<node id="-733889" lat="68.7507027755" lon="16.2554749953">
		<tag k="name" v="Dragebekken" />
		<tag k="ssr:stedsnr" v="841543" />
		<tag k="waterway" v="stream" />
	</node>
	<node id="-733883" lat="68.7042416656" lon="15.9489249904">
		<tag k="name" v="Kvannbekken" />
		<tag k="ssr:stedsnr" v="841439" />
		<tag k="waterway" v="stream" />
	</node>
	<node id="-733879" lat="68.6674000031" lon="15.7964277705">
		<tag k="name" v="Atterslåttbekken" />
		<tag k="ssr:stedsnr" v="841168" />
		<tag k="waterway" v="stream" />
	</node>
	<node id="-733867" lat="68.6609027765" lon="16.0246805647">
		<tag k="name" v="Frammerfjellvatnet" />
		<tag k="natural" v="water" />
		<tag k="ssr:stedsnr" v="841029" />
	</node>
	<node id="-733865" lat="68.6151944469" lon="16.0786722221">
		<tag k="name" v="Jonsebekken" />
		<tag k="ssr:stedsnr" v="841007" />
		<tag k="waterway" v="stream" />
	</node>
	<node id="-733860" lat="68.6159583372" lon="15.7382277802">
		<tag k="name" v="Sennenesset" />
		<tag k="natural" v="cape" />
		<tag k="ssr:stedsnr" v="840793" />
	</node>
	<node id="-733858" lat="68.681477774" lon="16.3516999909">
		<tag k="name" v="Lampeelva" />
		<tag k="ssr:stedsnr" v="840589" />
		<tag k="waterway" v="stream" />
	</node>
	<node id="-733852" lat="68.7246361102" lon="15.9858805632">
		<tag k="name" v="Sæterbekken" />
		<tag k="ssr:stedsnr" v="840479" />
		<tag k="waterway" v="stream" />
	</node>
	<node id="-733839" lat="68.5992277773" lon="16.0628527733">
		<tag k="name" v="Biergojávri" />
		<tag k="name:se" v="Biergojávri" />
		<tag k="natural" v="water" />
		<tag k="ssr:stedsnr" v="829334" />
		<tag k="water" v="lake" />
	</node>
	<node id="-733833" lat="68.6603305542" lon="16.3817444453">
		<tag k="name" v="Myrvatnet - Jeaggejávri" />
		<tag k="name:no" v="Myrvatnet" />
		<tag k="name:se" v="Jeaggejávri" />
		<tag k="natural" v="water" />
		<tag k="ssr:stedsnr" v="809079" />
		<tag k="water" v="lake" />
	</node>
	<node id="-733832" lat="68.6672555508" lon="16.2808527863">
		<tag k="name" v="Skredvatnet" />
		<tag k="natural" v="water" />
		<tag k="ssr:stedsnr" v="809076" />
	</node>
	<node id="-733820" lat="68.6724999988" lon="16.1109111131">
		<tag k="alt_name" v="Brattlielva" />
		<tag k="name" v="Brattlibekken" />
		<tag k="ssr:stedsnr" v="807261" />
		<tag k="waterway" v="stream" />
	</node>
	<node id="-733818" lat="68.7932444454" lon="16.130549993">
		<tag k="name" v="Rundebekken" />
		<tag k="ssr:stedsnr" v="807101" />
		<tag k="waterway" v="stream" />
	</node>
	<node id="-733816" lat="68.7108222235" lon="16.2624277777">
		<tag k="loc_name" v="Finnkonvatnet" />
		<tag k="name" v="Finnkonevatnet" />
		<tag k="natural" v="water" />
		<tag k="ssr:stedsnr" v="806981" />
	</node>
	<node id="-733811" lat="68.5749944485" lon="15.8865722306">
		<tag k="name" v="Grytvatnan" />
		<tag k="natural" v="water" />
		<tag k="ssr:stedsnr" v="806862" />
	</node>
	<node id="-733810" lat="68.5772388854" lon="15.843499994">
		<tag k="name" v="Ingeborgelva" />
		<tag k="ssr:stedsnr" v="806860" />
		<tag k="waterway" v="stream" />
	</node>
	<node id="-733807" lat="68.6953388899" lon="15.8818833377">
		<tag k="name" v="Kvitelva" />
		<tag k="ssr:stedsnr" v="806477" />
		<tag k="waterway" v="stream" />
	</node>
	<node id="-733806" lat="68.7230861082" lon="16.1103583269">
		<tag k="name" v="Lågdalsvatnan" />
		<tag k="natural" v="water" />
		<tag k="ssr:stedsnr" v="806469" />
		<tag k="water" v="lake" />
	</node>
	<node id="-733802" lat="68.6258972264" lon="15.9121138786">
		<tag k="name" v="Vassvikvatnet" />
		<tag k="natural" v="water" />
		<tag k="ssr:stedsnr" v="806354" />
		<tag k="water" v="lake" />
	</node>
	<node id="-733799" lat="68.6289000036" lon="16.0629861025">
		<tag k="name" v="Middagsbekken" />
		<tag k="ssr:stedsnr" v="806346" />
		<tag k="waterway" v="stream" />
	</node>
	<node id="-733795" lat="68.6296111133" lon="15.7389388801">
		<tag k="name" v="Sæterelva" />
		<tag k="ssr:stedsnr" v="806341" />
		<tag k="waterway" v="stream" />
	</node>
	<node id="-733794" lat="68.630047221" lon="15.6793499949">
		<tag k="name" v="Olinavatnet" />
		<tag k="natural" v="water" />
		<tag k="ssr:stedsnr" v="806339" />
	</node>
	<node id="-733788" lat="68.6499388899" lon="16.0362277731">
		<tag k="name" v="Skjellelvvatnet" />
		<tag k="natural" v="water" />
		<tag k="ssr:stedsnr" v="806317" />
	</node>
	<node id="-733786" lat="68.6537138904" lon="16.0535333447">
		<tag k="name" v="Djupbekken" />
		<tag k="ssr:stedsnr" v="806300" />
		<tag k="waterway" v="stream" />
	</node>
	<node id="-733784" lat="68.6808416698" lon="16.0712000054">
		<tag k="alt_name" v="Storhaugbekken" />
		<tag k="name" v="Storhågbekken" />
		<tag k="ssr:stedsnr" v="806280" />
		<tag k="waterway" v="stream" />
	</node>
	<node id="-733783" lat="68.6890749959" lon="16.1632999998">
		<tag k="name" v="Bonstervatnet" />
		<tag k="natural" v="water" />
		<tag k="ssr:stedsnr" v="806270" />
	</node>
	<node id="-733781" lat="68.615608336" lon="15.7571944416">
		<tag k="name" v="Langvasselva" />
		<tag k="ssr:stedsnr" v="806186" />
		<tag k="waterway" v="river" />
	</node>
	<node id="-733771" lat="68.7750166684" lon="16.3094388832">
		<tag k="name" v="Jenssokkvatnet" />
		<tag k="natural" v="water" />
		<tag k="ssr:stedsnr" v="780989" />
	</node>
	<node id="-733756" lat="68.7186444412" lon="16.252202775">
		<tag k="name" v="Lomvatnet" />
		<tag k="natural" v="water" />
		<tag k="ssr:stedsnr" v="780548" />
	</node>
	<node id="-733753" lat="68.6755166666" lon="16.2991666735">
		<tag k="name" v="Steinvassholmen" />
		<tag k="place" v="islet" />
		<tag k="ssr:stedsnr" v="780535" />
	</node>
	<node id="-733740" lat="68.6813305543" lon="15.9254861124">
		<tag k="name" v="Rødsandbekken" />
		<tag k="ssr:stedsnr" v="780125" />
		<tag k="waterway" v="stream" />
	</node>
	<node id="-733739" lat="68.6914388933" lon="15.8242111025">
		<tag k="name" v="Første Tverrelva" />
		<tag k="ssr:stedsnr" v="780120" />
		<tag k="waterway" v="stream" />
	</node>
	<node id="-733714" lat="68.5964833367" lon="15.8324999946">
		<tag k="name" v="Skellarbekkan" />
		<tag k="ssr:stedsnr" v="779166" />
		<tag k="waterway" v="stream" />
	</node>
	<node id="-733709" lat="68.693313891" lon="16.3485416745">
		<tag k="name" v="Tverrelva" />
		<tag k="ssr:stedsnr" v="748151" />
		<tag k="waterway" v="river" />
	</node>
	<node id="-733708" lat="68.6787666618" lon="16.3254361206">
		<tag k="name" v="Storelva" />
		<tag k="ssr:stedsnr" v="748121" />
		<tag k="waterway" v="stream" />
	</node>
	<node id="-733706" lat="68.6693888927" lon="16.2905277899">
		<tag k="name" v="Skredelva" />
		<tag k="ssr:stedsnr" v="748106" />
		<tag k="waterway" v="stream" />
	</node>
	<node id="-733705" lat="68.6525388911" lon="16.310188886">
		<tag k="name" v="Hesjevatnet" />
		<tag k="natural" v="water" />
		<tag k="ssr:stedsnr" v="748046" />
	</node>
	<node id="-733701" lat="68.6120083334" lon="15.8795472098">
		<tag k="name" v="Gullholmskardvatnet" />
		<tag k="natural" v="water" />
		<tag k="ssr:stedsnr" v="746354" />
	</node>
	<node id="-733694" lat="68.6885805535" lon="16.0988583269">
		<tag k="name" v="Stridelvvatnan" />
		<tag k="natural" v="water" />
		<tag k="ssr:stedsnr" v="746243" />
		<tag k="water" v="lake" />
	</node>
	<node id="-733693" lat="68.6849416635" lon="15.8177083393">
		<tag k="name" v="Svartvatnet" />
		<tag k="natural" v="water" />
		<tag k="ssr:stedsnr" v="746235" />
	</node>
	<node id="-733691" lat="68.8124805519" lon="16.1515583211">
		<tag k="alt_name" v="Kvantobekken" />
		<tag k="name" v="Kvanntobekken" />
		<tag k="ssr:stedsnr" v="746121" />
		<tag k="waterway" v="stream" />
	</node>
	<node id="-733689" lat="68.7991527818" lon="16.1493027852">
		<tag k="name" v="Øverlandsvatnet" />
		<tag k="natural" v="water" />
		<tag k="ssr:stedsnr" v="746094" />
	</node>
	<node id="-733685" lat="68.5669722259" lon="15.8457611067">
		<tag k="name" v="Moelva" />
		<tag k="ssr:stedsnr" v="745875" />
		<tag k="waterway" v="stream" />
	</node>
	<node id="-733684" lat="68.5775500043" lon="15.7138444394">
		<tag k="name" v="Våtvolldalsvatnet" />
		<tag k="natural" v="water" />
		<tag k="ssr:stedsnr" v="745866" />
	</node>
	<node id="-733682" lat="68.5309500006" lon="15.7159055504">
		<tag k="name" v="Vesterelva" />
		<tag k="ssr:stedsnr" v="745805" />
		<tag k="waterway" v="river" />
	</node>
	<node id="-733681" lat="68.6364999964" lon="16.0403916542">
		<tag k="name" v="Kulielva" />
		<tag k="ssr:stedsnr" v="745360" />
		<tag k="waterway" v="stream" />
	</node>
	<node id="-733678" lat="68.6473472221" lon="15.9595805441">
		<tag k="name" v="Durmålsbekken" />
		<tag k="ssr:stedsnr" v="745346" />
		<tag k="waterway" v="stream" />
	</node>
	<node id="-733666" lat="68.769019448" lon="16.3328305584">
		<tag k="name" v="Mellaelven" />
		<tag k="ssr:stedsnr" v="719965" />
		<tag k="waterway" v="stream" />
	</node>
	<node id="-733665" lat="68.6229444429" lon="15.8485333247">
		<tag k="name" v="Hestnesvatnet" />
		<tag k="natural" v="water" />
		<tag k="ssr:stedsnr" v="719962" />
	</node>
	<node id="-733660" lat="68.5575166638" lon="15.8480277695">
		<tag k="name" v="Litjevatnet" />
		<tag k="natural" v="water" />
		<tag k="ssr:stedsnr" v="719912" />
	</node>
	<node id="-733657" lat="68.5473055521" lon="15.74076666">
		<tag k="name" v="Litjevåtvollvatnet" />
		<tag k="natural" v="water" />
		<tag k="ssr:stedsnr" v="719802" />
	</node>
	<node id="-733655" lat="68.7292833347" lon="16.1766583445">
		<tag k="name" v="Elvekrokan" />
		<tag k="natural" v="bay" />
		<tag k="ssr:stedsnr" v="719731" />
	</node>
	<node id="-733653" lat="68.7332499986" lon="16.1406499884">
		<tag k="name" v="Birgitta-Jontebekken" />
		<tag k="ssr:stedsnr" v="719718" />
		<tag k="waterway" v="stream" />
	</node>
	<node id="-733646" lat="68.6723805544" lon="16.3201777854">
		<tag k="name" v="Kirkebukta" />
		<tag k="natural" v="bay" />
		<tag k="ssr:stedsnr" v="719573" />
	</node>
	<node id="-733633" lat="68.6606027771" lon="16.0446750023">
		<tag k="name" v="Åkloelva" />
		<tag k="ssr:stedsnr" v="719030" />
		<tag k="waterway" v="stream" />
	</node>
	<node id="-733622" lat="68.6596500012" lon="16.1943055491">
		<tag k="name" v="Fjerdevatnet" />
		<tag k="natural" v="water" />
		<tag k="ssr:stedsnr" v="718453" />
		<tag k="water" v="lake" />
	</node>
	<node id="-733619" lat="68.7209555574" lon="16.220963895">
		<tag k="name" v="Salfjellvatnet" />
		<tag k="natural" v="water" />
		<tag k="ssr:stedsnr" v="718431" />
	</node>
	<node id="-733615" lat="68.5825666627" lon="15.8301166551">
		<tag k="name" v="Tennholmbekken" />
		<tag k="ssr:stedsnr" v="718921" />
		<tag k="waterway" v="stream" />
	</node>
	<node id="-733608" lat="68.6999000029" lon="16.3253111162">
		<tag k="name" v="Ruddaelva" />
		<tag k="ssr:stedsnr" v="688168" />
		<tag k="waterway" v="river" />
	</node>
	<node id="-733604" lat="68.7122888858" lon="16.2346750004">
		<tag k="name" v="Klaveselvvatnet" />
		<tag k="natural" v="water" />
		<tag k="ssr:stedsnr" v="685998" />
	</node>
	<node id="-733602" lat="68.5611000009" lon="15.887922218">
		<tag k="name" v="Steinvatnan" />
		<tag k="natural" v="water" />
		<tag k="ssr:stedsnr" v="685865" />
	</node>
	<node id="-733600" lat="68.5643999992" lon="15.6894750053">
		<tag k="name" v="Løbergselva" />
		<tag k="ssr:stedsnr" v="685844" />
		<tag k="waterway" v="river" />
	</node>
	<node id="-733597" lat="68.5425472257" lon="15.8502083439">
		<tag k="name" v="Eidevatnet - Áidejávri" />
		<tag k="name:no" v="Eidevatnet" />
		<tag k="name:se" v="Áidejávri" />
		<tag k="natural" v="water" />
		<tag k="ssr:stedsnr" v="685742" />
	</node>
	<node id="-733596" lat="68.5322416655" lon="15.7089472297">
		<tag k="alt_name" v="Tjørna" />
		<tag k="name" v="Tjønna" />
		<tag k="natural" v="water" />
		<tag k="ssr:stedsnr" v="685736" />
	</node>
	<node id="-733592" lat="68.7023916692" lon="15.8638694405">
		<tag k="alt_name" v="Lebbikvatnet" />
		<tag k="name" v="Lebekkvatnet" />
		<tag k="natural" v="water" />
		<tag k="ssr:stedsnr" v="685476" />
		<tag k="water" v="lake" />
	</node>
	<node id="-733586" lat="68.7250138856" lon="16.1764444503">
		<tag k="name" v="Salelva" />
		<tag k="ssr:stedsnr" v="685426" />
		<tag k="waterway" v="stream" />
	</node>
	<node id="-733579" lat="68.6326777771" lon="16.0477249887">
		<tag k="name" v="Austerbekken - Čoarddavákkijohka" />
		<tag k="name:no" v="Austerbekken" />
		<tag k="name:se" v="Čoarddavákkijohka" />
		<tag k="ssr:stedsnr" v="685328" />
		<tag k="waterway" v="stream" />
	</node>
	<node id="-733573" lat="68.6557305523" lon="16.0291638759">
		<tag k="name" v="Åklovatnet" />
		<tag k="natural" v="water" />
		<tag k="ssr:stedsnr" v="685293" />
	</node>
	<node id="-733571" lat="68.6539388885" lon="15.8404027718">
		<tag k="alt_name" v="Gårdsbekken" />
		<tag k="name" v="Gårdsdalsbekken" />
		<tag k="ssr:stedsnr" v="685288" />
		<tag k="waterway" v="stream" />
	</node>
	<node id="-733568" lat="68.6883083318" lon="16.2048194366">
		<tag k="name" v="Steinvatnet" />
		<tag k="natural" v="water" />
		<tag k="ssr:stedsnr" v="685246" />
	</node>
	<node id="-733562" lat="68.792405552" lon="16.1520194341">
		<tag k="name" v="Tverrbekken" />
		<tag k="ssr:stedsnr" v="685086" />
		<tag k="waterway" v="stream" />
	</node>
	<node id="-733545" lat="68.553933333" lon="15.8526611047">
		<tag k="name" v="Eidet" />
		<tag k="natural" v="strait" />
		<tag k="ssr:stedsnr" v="658909" />
	</node>
	<node id="-733543" lat="68.5697611093" lon="15.8288111121">
		<tag k="name" v="Olavatnet" />
		<tag k="natural" v="water" />
		<tag k="ssr:stedsnr" v="658889" />
	</node>
	<node id="-733538" lat="68.59694722" lon="15.7528138931">
		<tag k="name" v="Norddalselva" />
		<tag k="ssr:stedsnr" v="658823" />
		<tag k="waterway" v="stream" />
	</node>
	<node id="-733533" lat="68.6731305537" lon="16.363563892">
		<tag k="name" v="Øvergårdselva" />
		<tag k="ssr:stedsnr" v="658615" />
		<tag k="waterway" v="stream" />
	</node>
	<node id="-733532" lat="68.6694222207" lon="16.3273166657">
		<tag k="name" v="Steinvasshalsen" />
		<tag k="natural" v="bay" />
		<tag k="ssr:stedsnr" v="658613" />
	</node>
	<node id="-733529" lat="68.7527833361" lon="16.3120694354">
		<tag k="name" v="Tortenbakkbekken" />
		<tag k="ssr:stedsnr" v="658555" />
		<tag k="waterway" v="stream" />
	</node>
	<node id="-733527" lat="68.7282249969" lon="16.3456611171">
		<tag k="name" v="Sørkjosen" />
		<tag k="natural" v="bay" />
		<tag k="ssr:stedsnr" v="658531" />
	</node>
	<node id="-733509" lat="68.6590500015" lon="16.0838305659">
		<tag k="name" v="Skjellbekken" />
		<tag k="ssr:stedsnr" v="658036" />
		<tag k="waterway" v="stream" />
	</node>
	<node id="-733499" lat="68.6721333364" lon="16.1881111043">
		<tag k="name" v="Kortelva" />
		<tag k="ssr:stedsnr" v="657443" />
		<tag k="waterway" v="river" />
	</node>
	<node id="-733498" lat="68.6587444404" lon="16.2061499936">
		<tag k="name" v="Langelva" />
		<tag k="ssr:stedsnr" v="657441" />
		<tag k="waterway" v="river" />
	</node>
	<node id="-733490" lat="68.696277774" lon="16.3683555644">
		<tag k="name" v="Tverrelvvatnan" />
		<tag k="natural" v="water" />
		<tag k="ssr:stedsnr" v="627171" />
		<tag k="water" v="lake" />
	</node>
	<node id="-733489" lat="68.6858472217" lon="16.3696222109">
		<tag k="alt_name" v="Holavatnet" />
		<tag k="name" v="Hollevatnet" />
		<tag k="natural" v="water" />
		<tag k="ssr:stedsnr" v="627169" />
		<tag k="water" v="lake" />
	</node>
	<node id="-733486" lat="68.6640000032" lon="16.3356833321">
		<tag k="name" v="Stinaelva" />
		<tag k="ssr:stedsnr" v="626087" />
		<tag k="waterway" v="stream" />
	</node>
	<node id="-733485" lat="68.6584194407" lon="16.2275972273">
		<tag k="name" v="Tredjevatnet" />
		<tag k="natural" v="water" />
		<tag k="ssr:stedsnr" v="626074" />
	</node>
	<node id="-733482" lat="68.7451611122" lon="16.3280444436">
		<tag k="name" v="Toskevatnet" />
		<tag k="natural" v="water" />
		<tag k="ssr:stedsnr" v="624944" />
	</node>
	<node id="-733477" lat="68.5919666633" lon="15.784144441">
		<tag k="fixme" v="multiple name tags, choose one and add the other to alt_name" />
		<tag k="name" v="Inste Tømmerbekken;Tømmerbekken" />
		<tag k="ssr:stedsnr" v="624812" />
		<tag k="waterway" v="stream" />
	</node>
	<node id="-733473" lat="68.7007277802" lon="15.9376222135">
		<tag k="alt_name" v="Litlevatnet" />
		<tag k="name" v="Litjeelvvatnet" />
		<tag k="natural" v="water" />
		<tag k="ssr:stedsnr" v="624502" />
	</node>
	<node id="-733472" lat="68.7042527808" lon="15.9547361133">
		<tag k="alt_name" v="Litleelva" />
		<tag k="name" v="Litjeelva" />
		<tag k="ssr:stedsnr" v="624499" />
		<tag k="waterway" v="stream" />
	</node>
	<node id="-733466" lat="68.7783722195" lon="16.3459777802">
		<tag k="name" v="Kvæfjordeidet" />
		<tag k="natural" v="strait" />
		<tag k="ssr:stedsnr" v="624478" />
	</node>
	<node id="-733465" lat="68.7062361089" lon="15.9509472284">
		<tag k="name" v="Storelva" />
		<tag k="ssr:stedsnr" v="624475" />
		<tag k="waterway" v="stream" />
	</node>
	<node id="-733461" lat="68.6006277761" lon="15.7485777838">
		<tag k="alt_name" v="Bjørnhaugvatnet" />
		<tag k="name" v="Bjørnhågvatnet" />
		<tag k="natural" v="water" />
		<tag k="ssr:stedsnr" v="624388" />
	</node>
	<node id="-733458" lat="68.6195749966" lon="15.9900944348">
		<tag k="name" v="Botnvatnet" />
		<tag k="natural" v="water" />
		<tag k="ssr:stedsnr" v="624369" />
	</node>
	<node id="-733457" lat="68.617308331" lon="15.7109638803">
		<tag k="name" v="Langvatnet" />
		<tag k="natural" v="water" />
		<tag k="ssr:stedsnr" v="624363" />
		<tag k="water" v="lake" />
	</node>
	<node id="-733450" lat="68.6657861117" lon="16.1449055606">
		<tag k="name" v="Tverrelva" />
		<tag k="ssr:stedsnr" v="624305" />
		<tag k="waterway" v="stream" />
	</node>
	<node id="-733445" lat="68.6447361107" lon="16.0931222261">
		<tag k="name" v="Djupbekken" />
		<tag k="ssr:stedsnr" v="624213" />
		<tag k="waterway" v="stream" />
	</node>
	<node id="-733444" lat="68.617725002" lon="15.6859166688">
		<tag k="name" v="Langneset" />
		<tag k="natural" v="cape" />
		<tag k="ssr:stedsnr" v="624211" />
	</node>
	<node id="-733439" lat="68.7942305555" lon="16.1216388813">
		<tag k="name" v="Aspebekken" />
		<tag k="ssr:stedsnr" v="624099" />
		<tag k="waterway" v="stream" />
	</node>
	<node id="-733434" lat="68.8388277792" lon="16.2219694468">
		<tag k="name" v="Bremnesvatnet" />
		<tag k="natural" v="water" />
		<tag k="ssr:stedsnr" v="624023" />
		<tag k="water" v="lake" />
	</node>
	<node id="-733433" lat="68.8428222216" lon="16.2095583435">
		<tag k="name" v="Stilla" />
		<tag k="natural" v="bay" />
		<tag k="ssr:stedsnr" v="624024" />
	</node>
	<node id="-733431" lat="68.4810861104" lon="15.6832388918">
		<tag k="name" v="Nedre Matvatnet" />
		<tag k="natural" v="water" />
		<tag k="old_name" v="Matvatnet, nedre" />
		<tag k="ssr:stedsnr" v="623170" />
		<tag k="water" v="lake" />
	</node>
	<node id="-733428" lat="68.6330777735" lon="15.9068055528">
		<tag k="name" v="Vassvikelva" />
		<tag k="ssr:stedsnr" v="598997" />
		<tag k="waterway" v="river" />
	</node>
	<node id="-733416" lat="68.509294441" lon="15.7296250026">
		<tag k="name" v="Bjørnhøljet" />
		<tag k="place" v="locality" />
		<tag k="ssr:stedsnr" v="597795" />
	</node>
	<node id="-733400" lat="68.7290138929" lon="16.2885472148">
		<tag k="name" v="Vednessbekken" />
		<tag k="ssr:stedsnr" v="597524" />
		<tag k="waterway" v="stream" />
	</node>
	<node id="-733394" lat="68.7383055571" lon="16.0643749878">
		<tag k="name" v="Nergårdselva" />
		<tag k="ssr:stedsnr" v="597467" />
		<tag k="waterway" v="stream" />
	</node>
	<node id="-733381" lat="68.6462944457" lon="15.9207027697">
		<tag k="name" v="Seglbekken" />
		<tag k="ssr:stedsnr" v="597096" />
		<tag k="waterway" v="stream" />
	</node>
	<node id="-733380" lat="68.6394277758" lon="16.0472666717">
		<tag k="name" v="Slåttemyrbekken" />
		<tag k="ssr:stedsnr" v="597068" />
		<tag k="waterway" v="stream" />
	</node>
	<node id="-733377" lat="68.6433527778" lon="16.0459055562">
		<tag k="name" v="Kirkesteinelva" />
		<tag k="ssr:stedsnr" v="597057" />
		<tag k="waterway" v="stream" />
	</node>
	<node id="-733373" lat="68.666483334" lon="16.04099722">
		<tag k="name" v="Oselva" />
		<tag k="ssr:stedsnr" v="597030" />
		<tag k="waterway" v="stream" />
	</node>
	<node id="-733363" lat="68.6928416623" lon="16.2537861124">
		<tag k="alt_name" v="Ytre Kjeipelva;Kjeipelva" />
		<tag k="name" v="Ytre Keipelva" />
		<tag k="ssr:stedsnr" v="566151" />
		<tag k="waterway" v="river" />
	</node>
	<node id="-733362" lat="68.6965972175" lon="16.3194000079">
		<tag k="name" v="Blomstervatnet" />
		<tag k="natural" v="water" />
		<tag k="ssr:stedsnr" v="566147" />
		<tag k="water" v="lake" />
	</node>
	<node id="-733361" lat="68.6815916682" lon="16.2845694462">
		<tag k="loc_name:se" v="Kruossajávri" />
		<tag k="name" v="Korsvatnet" />
		<tag k="name:no" v="Korsvatnet" />
		<tag k="natural" v="water" />
		<tag k="ssr:stedsnr" v="566120" />
		<tag k="water" v="lake" />
	</node>
	<node id="-733350" lat="68.6971722251" lon="16.1669333237">
		<tag k="name" v="Langdalsvatnet" />
		<tag k="natural" v="water" />
		<tag k="ssr:stedsnr" v="563475" />
	</node>
	<node id="-733349" lat="68.7173972268" lon="16.18685277">
		<tag k="name" v="Salvatnet" />
		<tag k="natural" v="water" />
		<tag k="ssr:stedsnr" v="563466" />
	</node>
	<node id="-733348" lat="68.7182583365" lon="15.9188083216">
		<tag k="name" v="Storelvvatnet" />
		<tag k="natural" v="water" />
		<tag k="ssr:stedsnr" v="563462" />
	</node>
	<node id="-733343" lat="68.6183166677" lon="16.123586108">
		<tag k="name" v="Djupskardvatnan" />
		<tag k="natural" v="water" />
		<tag k="ssr:stedsnr" v="563342" />
	</node>
	<node id="-733342" lat="68.6343472185" lon="15.7652861171">
		<tag k="name" v="Kvitelva" />
		<tag k="ssr:stedsnr" v="563327" />
		<tag k="waterway" v="stream" />
	</node>
	<node id="-733339" lat="68.643469448" lon="15.9556194349">
		<tag k="fixme" v="multiple name tags, choose one and add the other to alt_name" />
		<tag k="name" v="Lavatnet;Nordvatnet" />
		<tag k="natural" v="water" />
		<tag k="ssr:stedsnr" v="563305" />
	</node>
	<node id="-733336" lat="68.6631888918" lon="15.8177222251">
		<tag k="alt_name" v="Gombogelva" />
		<tag k="name" v="Gambogelva" />
		<tag k="ssr:stedsnr" v="563273" />
		<tag k="waterway" v="stream" />
	</node>
	<node id="-733332" lat="68.7753472216" lon="16.1883000009">
		<tag k="name" v="Råelva" />
		<tag k="ssr:stedsnr" v="563181" />
		<tag k="waterway" v="stream" />
	</node>
	<node id="-733329" lat="68.82023889" lon="16.1556305674">
		<tag k="name" v="Steinvatnet" />
		<tag k="natural" v="water" />
		<tag k="ssr:stedsnr" v="563125" />
	</node>
	<node id="-733328" lat="68.813838891" lon="16.1471583216">
		<tag k="name" v="Steinbekken" />
		<tag k="ssr:stedsnr" v="563126" />
		<tag k="waterway" v="stream" />
	</node>
	<node id="-733324" lat="68.458575001" lon="15.6358750113">
		<tag k="name" v="Øvre Matvatnet" />
		<tag k="natural" v="water" />
		<tag k="old_name" v="Matvatnet, øvre" />
		<tag k="ssr:stedsnr" v="562160" />
		<tag k="water" v="lake" />
	</node>
	<node id="-733312" lat="68.6025083345" lon="15.7742277776">
		<tag k="name" v="Bømarkelva" />
		<tag k="ssr:stedsnr" v="537823" />
		<tag k="waterway" v="stream" />
	</node>
	<node id="-733309" lat="68.7330777758" lon="16.134297217">
		<tag k="name" v="Elvekrokan" />
		<tag k="natural" v="bay" />
		<tag k="ssr:stedsnr" v="537718" />
	</node>
	<node id="-733281" lat="68.6824944435" lon="15.8860138762">
		<tag k="name" v="Laksholla" />
		<tag k="place" v="locality" />
		<tag k="ssr:stedsnr" v="537105" />
	</node>
	<node id="-733270" lat="68.6362055571" lon="16.0484499899">
		<tag k="name" v="Aspeneselva" />
		<tag k="ssr:stedsnr" v="537004" />
		<tag k="waterway" v="river" />
	</node>
	<node id="-733264" lat="68.7578138872" lon="16.2557916645">
		<tag k="name" v="Elvekrokan" />
		<tag k="natural" v="bay" />
		<tag k="ssr:stedsnr" v="536535" />
	</node>
	<node id="-733259" lat="68.6663111157" lon="16.1036472148">
		<tag k="name" v="Labakkfossen" />
		<tag k="natural" v="waterfall" />
		<tag k="ssr:stedsnr" v="536428" />
	</node>
	<node id="-733248" lat="68.6972500007" lon="16.3037361224">
		<tag k="name" v="Botnelva" />
		<tag k="ssr:stedsnr" v="506162" />
		<tag k="waterway" v="river" />
	</node>
	<node id="-733232" lat="68.5365611132" lon="15.6796749912">
		<tag k="name" v="Vestervatnan" />
		<tag k="natural" v="water" />
		<tag k="ssr:stedsnr" v="503700" />
		<tag k="water" v="lake" />
	</node>
	<node id="-733229" lat="68.7158083288" lon="16.127797229">
		<tag k="name" v="Vebbestadvatnet" />
		<tag k="natural" v="water" />
		<tag k="ssr:stedsnr" v="503455" />
		<tag k="water" v="lake" />
	</node>
	<node id="-733227" lat="68.7823555562" lon="16.237372215">
		<tag k="name" v="Leåsvatnet" />
		<tag k="natural" v="water" />
		<tag k="ssr:stedsnr" v="503445" />
	</node>
	<node id="-733221" lat="68.6225833314" lon="16.0745833422">
		<tag k="name" v="Austerelva" />
		<tag k="ssr:stedsnr" v="503338" />
		<tag k="waterway" v="river" />
	</node>
	<node id="-733220" lat="68.6169027805" lon="15.9353305675">
		<tag k="alt_name" v="Forrvatnet" />
		<tag k="name" v="Forvatnet" />
		<tag k="natural" v="water" />
		<tag k="ssr:stedsnr" v="503334" />
	</node>
	<node id="-733216" lat="68.641641671" lon="15.7969194446">
		<tag k="name" v="Pøylbekken" />
		<tag k="ssr:stedsnr" v="503301" />
		<tag k="waterway" v="stream" />
	</node>
	<node id="-733215" lat="68.651030556" lon="15.9564055493">
		<tag k="name" v="Lysåelva" />
		<tag k="ssr:stedsnr" v="503294" />
		<tag k="waterway" v="stream" />
	</node>
	<node id="-733214" lat="68.6650861093" lon="15.8601833227">
		<tag k="name" v="Bogvatnet" />
		<tag k="natural" v="water" />
		<tag k="ssr:stedsnr" v="503254" />
	</node>
	<node id="-733191" lat="68.6942333336" lon="16.3814527806">
		<tag k="name" v="Langvasselva" />
		<tag k="ssr:stedsnr" v="445151" />
		<tag k="waterway" v="river" />
	</node>
	<node id="-733189" lat="68.6712722217" lon="16.3094694375">
		<tag k="loc_name:se" v="Báktejávri" />
		<tag k="name" v="Steinvatnet" />
		<tag k="name:no" v="Steinvatnet" />
		<tag k="natural" v="water" />
		<tag k="ssr:stedsnr" v="444102" />
		<tag k="water" v="lake" />
	</node>
	<node id="-733188" lat="68.6687638878" lon="16.3392583216">
		<tag k="loc_name:se" v="Luobbarjávri" />
		<tag k="name" v="Gunnarvatnet" />
		<tag k="name:no" v="Gunnarvatnet" />
		<tag k="natural" v="water" />
		<tag k="ssr:stedsnr" v="444100" />
		<tag k="water" v="lake" />
	</node>
	<node id="-733187" lat="68.6697472189" lon="16.249827765">
		<tag k="alt_name" v="Keipvatnet, store;Storkjeipvatnet" />
		<tag k="name" v="Store Keipvatnet" />
		<tag k="natural" v="water" />
		<tag k="ssr:stedsnr" v="444099" />
	</node>
	<node id="-733185" lat="68.6040944472" lon="15.9906611211">
		<tag k="name" v="Veilivatnan" />
		<tag k="natural" v="water" />
		<tag k="ssr:stedsnr" v="443791" />
		<tag k="water" v="lake" />
	</node>
</osm>
