<?xml version="1.0" encoding="UTF-8"?>
<osm generator="osmapis" version="0.6">
	<node id="-734431" lat="68.813808334" lon="16.0989111004">
		<tag k="highway" v="path" />
		<tag k="name" v="Nautegotta" />
		<tag k="ssr:stedsnr" v="416603" />
	</node>
	<node id="-733726" lat="68.7335527795" lon="16.2387944374">
		<tag k="highway" v="path" />
		<tag k="name" v="Hesteveien" />
		<tag k="ssr:stedsnr" v="355715" />
	</node>
	<node id="-733817" lat="68.6620777734" lon="16.384122224">
		<tag k="highway" v="path" />
		<tag k="name" v="Sandveien" />
		<tag k="ssr:stedsnr" v="476609" />
	</node>
	<node id="-735034" lat="68.6624583307" lon="15.8304833225">
		<tag k="ford" v="yes" />
		<tag k="name" v="Attervaet" />
		<tag k="place" v="locality" />
		<tag k="ssr:stedsnr" v="780149" />
	</node>
	<node id="-734713" lat="68.5997305548" lon="15.7650722274">
		<tag k="ford" v="yes" />
		<tag k="name" v="Frammervadet" />
		<tag k="place" v="locality" />
		<tag k="ssr:stedsnr" v="597853" />
	</node>
	<node id="-735191" lat="68.7924388921" lon="16.2005888862">
		<tag k="ford" v="yes" />
		<tag k="name" v="Jonsavaet" />
		<tag k="place" v="locality" />
		<tag k="ssr:stedsnr" v="841693" />
	</node>
	<node id="-734614" lat="68.4889250034" lon="15.686136116">
		<tag k="layer" v="-1" />
		<tag k="name" v="Sørdaltunnelen" />
		<tag k="ssr:stedsnr" v="538934" />
		<tag k="tunnel" v="yes" />
	</node>
	<node id="-734841" lat="68.780541666" lon="16.3336861154">
		<tag k="fixme" v="consider highway=path" />
		<tag k="highway" v="track" />
		<tag k="name" v="Trettebakkveien" />
		<tag k="ssr:stedsnr" v="658964" />
	</node>
	<node id="-733684" lat="68.6179055532" lon="16.0274055504">
		<tag k="ford" v="yes" />
		<tag k="name" v="Kuvaet" />
		<tag k="place" v="locality" />
		<tag k="ssr:stedsnr" v="355015" />
	</node>
	<node id="-734579" lat="68.7556833368" lon="16.146808331">
		<tag k="highway" v="path" />
		<tag k="name" v="Øyveien" />
		<tag k="ssr:stedsnr" v="537356" />
	</node>
	<node id="-735314" lat="68.6129972237" lon="15.8116583319">
		<tag k="fixme" v="verify maritime location" />
		<tag k="mooring" v="yes" />
		<tag k="name" v="Brattestøa" />
		<tag k="place" v="locality" />
		<tag k="ssr:stedsnr" v="901981" />
	</node>
	<node id="-734286" lat="68.6732138928" lon="15.9137638858">
		<tag k="fixme" v="verify maritime location" />
		<tag k="mooring" v="yes" />
		<tag k="name" v="Gammelnauststøa" />
		<tag k="place" v="locality" />
		<tag k="ssr:stedsnr" v="233198" />
	</node>
	<node id="-733964" lat="68.6760111145" lon="15.9211833342">
		<tag k="ford" v="yes" />
		<tag k="name" v="Grunnvaet" />
		<tag k="place" v="locality" />
		<tag k="ssr:stedsnr" v="52161" />
	</node>
	<node id="-734418" lat="68.7005611094" lon="15.9681638914">
		<tag k="highway" v="path" />
		<tag k="name" v="Mølneveien" />
		<tag k="ssr:stedsnr" v="416397" />
	</node>
	<node id="-734314" lat="68.5931194418" lon="15.7570111205">
		<tag k="ford" v="yes" />
		<tag k="name" v="Attervadet" />
		<tag k="place" v="locality" />
		<tag k="ssr:stedsnr" v="233873" />
	</node>
	<node id="-735273" lat="68.6728472216" lon="15.9081638865">
		<tag k="highway" v="path" />
		<tag k="name" v="Breiveien" />
		<tag k="ssr:stedsnr" v="901168" />
	</node>
	<node id="-734280" lat="68.6588388899" lon="15.8418388997">
		<tag k="ford" v="yes" />
		<tag k="name" v="Fremmervaet" />
		<tag k="place" v="locality" />
		<tag k="ssr:stedsnr" v="233161" />
	</node>
	<node id="-734597" lat="68.7878194477" lon="16.2079944388">
		<tag k="highway" v="path" />
		<tag k="name" v="Nessefeveien" />
		<tag k="ssr:stedsnr" v="537676" />
	</node>
	<node id="-734209" lat="68.7470194427" lon="16.31593334">
		<tag k="fixme" v="consider highway=path" />
		<tag k="highway" v="track" />
		<tag k="name" v="Munkhollveien" />
		<tag k="ssr:stedsnr" v="173512" />
	</node>
</osm>
