<?xml version="1.0" encoding="UTF-8"?>
<osm generator="osmapis" version="0.6">
	<node id="-733739" lat="68.7680083325" lon="16.0803944554">
		<tag k="name" v="Grønlia" />
		<tag k="place" v="farm" />
		<tag k="ssr:stedsnr" v="381171" />
	</node>
	<node id="-735215" lat="68.6697916631" lon="15.9025611196">
		<tag k="fixme" v="consider place=hamlet" />
		<tag k="name" v="Lamarka" />
		<tag k="place" v="farm" />
		<tag k="ssr:stedsnr" v="867314" />
	</node>
	<node id="-735204" lat="68.727233338" lon="16.0658083297">
		<tag k="alt_name" v="Øvre Hemmestad" />
		<tag k="name" v="Hemmestad øvre" />
		<tag k="place" v="farm" />
		<tag k="ssr:stedsnr" v="844179" />
	</node>
	<node id="-735203" lat="68.7273638877" lon="16.0594166744">
		<tag k="alt_name" v="Øvre Hemmestad" />
		<tag k="name" v="Hemmestad øvre" />
		<tag k="place" v="farm" />
		<tag k="ssr:stedsnr" v="844178" />
	</node>
	<node id="-733664" lat="68.7570444464" lon="16.1097361046">
		<tag k="fixme" v="consider place=hamlet" />
		<tag k="name" v="Gardløs" />
		<tag k="place" v="village" />
		<tag k="ssr:stedsnr" v="354349" />
	</node>
	<node id="-734683" lat="68.7804861107" lon="16.0610833387">
		<tag k="name" v="Leite" />
		<tag k="place" v="farm" />
		<tag k="ssr:stedsnr" v="597402" />
	</node>
	<node id="-733654" lat="68.7247444484" lon="16.2986333392">
		<tag k="name" v="Solheim" />
		<tag k="place" v="farm" />
		<tag k="ssr:stedsnr" v="321970" />
	</node>
	<node id="-735186" lat="68.8245222236" lon="16.1040277677">
		<tag k="fixme" v="consider place=hamlet" />
		<tag k="name" v="Elde" />
		<tag k="place" v="village" />
		<tag k="ssr:stedsnr" v="841619" />
	</node>
	<node id="-734160" lat="68.8225833293" lon="16.1077138919">
		<tag k="name" v="Elda" />
		<tag k="place" v="farm" />
		<tag k="ssr:stedsnr" v="161149" />
	</node>
	<node id="-734671" lat="68.638041666" lon="16.0447861062">
		<tag k="name" v="Sætran" />
		<tag k="place" v="locality" />
		<tag k="ssr:stedsnr" v="597065" />
	</node>
	<node id="-734158" lat="68.7699500005" lon="16.077544445">
		<tag k="fixme" v="consider place=hamlet" />
		<tag k="name" v="Haug" />
		<tag k="place" v="village" />
		<tag k="ssr:stedsnr" v="158676" />
	</node>
	<node id="-734157" lat="68.6675500005" lon="15.9140972189">
		<tag k="name" v="Lanes" />
		<tag k="place" v="farm" />
		<tag k="ssr:stedsnr" v="158648" />
	</node>
	<node id="-735179" lat="68.7231305584" lon="16.2601583352">
		<tag k="name" v="Gammelsætran" />
		<tag k="place" v="locality" />
		<tag k="ssr:stedsnr" v="841507" />
	</node>
	<node id="-733641" lat="68.7440472209" lon="16.0687222317">
		<tag k="name" v="Sandvika" />
		<tag k="place" v="farm" />
		<tag k="ssr:stedsnr" v="321406" />
	</node>
	<node id="-734659" lat="68.8217750003" lon="16.0980499899">
		<tag k="name" v="Elda" />
		<tag k="place" v="farm" />
		<tag k="ssr:stedsnr" v="585137" />
	</node>
	<node id="-734658" lat="68.824594447" lon="16.1032250032">
		<tag k="name" v="Elda" />
		<tag k="place" v="farm" />
		<tag k="ssr:stedsnr" v="585129" />
	</node>
	<node id="-734656" lat="68.8643749992" lon="16.1952722255">
		<tag k="fixme" v="consider place=hamlet" />
		<tag k="name" v="Bremnes" />
		<tag k="place" v="village" />
		<tag k="ssr:stedsnr" v="571984" />
	</node>
	<node id="-734652" lat="68.7191361102" lon="16.2999666665">
		<tag k="name" v="Lavollen" />
		<tag k="place" v="farm" />
		<tag k="ssr:stedsnr" v="563987" />
	</node>
	<node id="-734650" lat="68.7085472189" lon="16.3055361181">
		<tag k="name" v="Nygård" />
		<tag k="place" v="farm" />
		<tag k="ssr:stedsnr" v="563905" />
	</node>
	<node id="-734136" lat="68.7109722247" lon="16.2822388957">
		<tag k="alt_name" v="Straumssætran" />
		<tag k="historic" v="shieling" />
		<tag k="name" v="Strømssætran" />
		<tag k="place" v="locality" />
		<tag k="ssr:stedsnr" v="138987" />
	</node>
	<node id="-734110" lat="68.6803305587" lon="16.0385527871">
		<tag k="alt_name" v="Refsnes" />
		<tag k="name" v="Revsnes" />
		<tag k="place" v="farm" />
		<tag k="ssr:stedsnr" v="119188" />
	</node>
	<node id="-735154" lat="68.5717638866" lon="15.8298999909">
		<tag k="amenity" v="school" />
		<tag k="name" v="Moelv skole" />
		<tag k="ssr:stedsnr" v="840905" />
	</node>
	<node id="-734128" lat="68.7664305595" lon="16.3269500076">
		<tag k="historic" v="shieling" />
		<tag k="name" v="Storhaugen" />
		<tag k="place" v="locality" />
		<tag k="ssr:stedsnr" v="138454" />
	</node>
	<node id="-734638" lat="68.7426777781" lon="16.1030805535">
		<tag k="name" v="Garnbukta" />
		<tag k="place" v="isolated_dwelling" />
		<tag k="ssr:stedsnr" v="563413" />
	</node>
	<node id="-734636" lat="68.8070638909" lon="16.2287861077">
		<tag k="name" v="Koven" />
		<tag k="place" v="isolated_dwelling" />
		<tag k="ssr:stedsnr" v="563362" />
	</node>
	<node id="-735147" lat="68.7582277789" lon="16.0994333251">
		<tag k="fixme" v="consider place=hamlet" />
		<tag k="name" v="Skår" />
		<tag k="place" v="village" />
		<tag k="ssr:stedsnr" v="840488" />
	</node>
	<node id="-733607" lat="68.7162027778" lon="16.3182777806">
		<tag k="name" v="Aletsætran" />
		<tag k="place" v="locality" />
		<tag k="ssr:stedsnr" v="294593" />
	</node>
	<node id="-734117" lat="68.7529916641" lon="16.2531777838">
		<tag k="name" v="Vikeland" />
		<tag k="place" v="farm" />
		<tag k="ssr:stedsnr" v="138322" />
	</node>
	<node id="-734114" lat="68.7816083324" lon="16.1374194429">
		<tag k="name" v="Trastad Gård" />
		<tag k="place" v="farm" />
		<tag k="ssr:stedsnr" v="138083" />
	</node>
	<node id="-734363" lat="68.5850388901" lon="15.8224083336">
		<tag k="name" v="Tennholmen" />
		<tag k="place" v="farm" />
		<tag k="ssr:stedsnr" v="260865" />
	</node>
	<node id="-734622" lat="68.7543166658" lon="16.1644361099">
		<tag k="name" v="Hokland" />
		<tag k="place" v="farm" />
		<tag k="ssr:stedsnr" v="563155" />
	</node>
	<node id="-735130" lat="68.8264638867" lon="16.1177833233">
		<tag k="name" v="Elda" />
		<tag k="place" v="farm" />
		<tag k="ssr:stedsnr" v="828117" />
	</node>
	<node id="-735129" lat="68.7714722261" lon="16.3452138798">
		<tag k="historic" v="shieling" />
		<tag k="name" v="Vikelandsstølen" />
		<tag k="place" v="locality" />
		<tag k="ssr:stedsnr" v="827984" />
	</node>
	<node id="-733592" lat="68.7757305556" lon="16.1777944383">
		<tag k="name" v="Øvre Huseby" />
		<tag k="place" v="farm" />
		<tag k="ssr:stedsnr" v="294706" />
	</node>
	<node id="-735127" lat="68.8383249997" lon="16.1226000005">
		<tag k="name" v="Bonstadvik" />
		<tag k="place" v="isolated_dwelling" />
		<tag k="ssr:stedsnr" v="824890" />
	</node>
	<node id="-735126" lat="68.6809" lon="16.3326722327">
		<tag k="name" v="Frydenlund" />
		<tag k="place" v="farm" />
		<tag k="ssr:stedsnr" v="809134" />
	</node>
	<node id="-734101" lat="68.5878444449" lon="15.8224277836">
		<tag k="name" v="Åsheim" />
		<tag k="place" v="farm" />
		<tag k="ssr:stedsnr" v="112840" />
	</node>
	<node id="-735123" lat="68.677119441" lon="16.3533722148">
		<tag k="historic" v="shieling" />
		<tag k="name" v="Gammelheimen" />
		<tag k="place" v="locality" />
		<tag k="ssr:stedsnr" v="808099" />
	</node>
	<node id="-735122" lat="68.735513885" lon="16.2654250072">
		<tag k="name" v="Rydningen" />
		<tag k="place" v="farm" />
		<tag k="ssr:stedsnr" v="807969" />
	</node>
	<node id="-735121" lat="68.732505559" lon="16.2478861018">
		<tag k="name" v="Vika" />
		<tag k="place" v="farm" />
		<tag k="ssr:stedsnr" v="807945" />
	</node>
	<node id="-733583" lat="68.7585083335" lon="16.2459249926">
		<tag k="name" v="Gamman" />
		<tag k="place" v="locality" />
		<tag k="ssr:stedsnr" v="294286" />
	</node>
	<node id="-735118" lat="68.7322416639" lon="16.0575444541">
		<tag k="fixme" v="consider place=hamlet" />
		<tag k="name" v="Hemmestad" />
		<tag k="place" v="village" />
		<tag k="ssr:stedsnr" v="807428" />
	</node>
	<node id="-734090" lat="68.7889500042" lon="16.1215583409">
		<tag k="fixme" v="consider place=hamlet" />
		<tag k="name" v="Dale" />
		<tag k="place" v="village" />
		<tag k="ssr:stedsnr" v="112730" />
	</node>
	<node id="-735111" lat="68.6790694433" lon="16.0484583343">
		<tag k="alt_name" v="Refsnes" />
		<tag k="fixme" v="consider place=hamlet" />
		<tag k="name" v="Revsnes" />
		<tag k="place" v="village" />
		<tag k="ssr:stedsnr" v="807246" />
	</node>
	<node id="-735106" lat="68.7218611125" lon="16.2989694533">
		<tag k="name" v="Voktarstranda" />
		<tag k="place" v="isolated_dwelling" />
		<tag k="ssr:stedsnr" v="806976" />
	</node>
	<node id="-735095" lat="68.7720138882" lon="16.3305388991">
		<tag k="historic" v="shieling" />
		<tag k="name" v="Prestlahaugen" />
		<tag k="place" v="locality" />
		<tag k="ssr:stedsnr" v="806436" />
	</node>
	<node id="-735085" lat="68.6409138931" lon="16.0898999934">
		<tag k="name" v="Seljeneset" />
		<tag k="place" v="isolated_dwelling" />
		<tag k="ssr:stedsnr" v="806338" />
	</node>
	<node id="-735084" lat="68.6350083362" lon="16.0778416585">
		<tag k="name" v="Botnjorda" />
		<tag k="place" v="isolated_dwelling" />
		<tag k="ssr:stedsnr" v="806333" />
	</node>
	<node id="-734561" lat="68.6336749977" lon="16.0427694326">
		<tag k="name" v="Moa" />
		<tag k="place" v="farm" />
		<tag k="ssr:stedsnr" v="537005" />
	</node>
	<node id="-733602" lat="68.7406805592" lon="16.0668694416">
		<tag k="fixme" v="consider place=hamlet" />
		<tag k="name" v="Sandvik" />
		<tag k="place" v="farm" />
		<tag k="ssr:stedsnr" v="294493" />
	</node>
	<node id="-735070" lat="68.7569722225" lon="16.108158336">
		<tag k="alt_name" v="Gardløs" />
		<tag k="name" v="Gardløys" />
		<tag k="place" v="farm" />
		<tag k="ssr:stedsnr" v="806145" />
	</node>
	<node id="-734545" lat="68.5994638901" lon="15.8231916695">
		<tag k="name" v="Leirvikvågen" />
		<tag k="place" v="farm" />
		<tag k="ssr:stedsnr" v="536186" />
	</node>
	<node id="-734543" lat="68.7394666709" lon="16.0647360995">
		<tag k="name" v="Nergård" />
		<tag k="place" v="farm" />
		<tag k="ssr:stedsnr" v="522666" />
	</node>
	<node id="-734349" lat="68.8244305555" lon="16.1021083293">
		<tag k="fixme" v="consider place=hamlet" />
		<tag k="name" v="Elda" />
		<tag k="place" v="farm" />
		<tag k="ssr:stedsnr" v="260154" />
	</node>
	<node id="-734538" lat="68.6707861079" lon="16.3699027702">
		<tag k="name" v="Øvergården" />
		<tag k="place" v="farm" />
		<tag k="ssr:stedsnr" v="505114" />
	</node>
	<node id="-734025" lat="68.6719694481" lon="15.9129194396">
		<tag k="fixme" v="consider place=hamlet" />
		<tag k="name" v="Flesnes" />
		<tag k="place" v="village" />
		<tag k="ssr:stedsnr" v="79245" />
	</node>
	<node id="-734535" lat="68.5709139152" lon="15.7957724936">
		<tag k="fixme" v="consider place=hamlet" />
		<tag k="name" v="Våtvoll" />
		<tag k="place" v="village" />
		<tag k="ssr:stedsnr" v="503806" />
	</node>
	<node id="-734533" lat="68.5714999964" lon="15.8279027886">
		<tag k="alt_name" v="Moelv" />
		<tag k="fixme" v="consider place=hamlet" />
		<tag k="name" v="Moelva" />
		<tag k="place" v="village" />
		<tag k="ssr:stedsnr" v="503801" />
	</node>
	<node id="-734020" lat="68.5731333306" lon="15.8243694349">
		<tag k="alt_name" v="Gammalgården" />
		<tag k="name" v="Gammelgården" />
		<tag k="place" v="farm" />
		<tag k="ssr:stedsnr" v="78859" />
	</node>
	<node id="-734018" lat="68.5356972211" lon="15.7516111193">
		<tag k="fixme" v="consider place=hamlet" />
		<tag k="loc_name:se" v="Skájeaggi" />
		<tag k="name" v="Gullesfjordbotn" />
		<tag k="name:no" v="Gullesfjordbotn" />
		<tag k="place" v="farm" />
		<tag k="ssr:stedsnr" v="78774" />
	</node>
	<node id="-734527" lat="68.5944333363" lon="15.8159944557">
		<tag k="name" v="Skinnhallaren" />
		<tag k="place" v="farm" />
		<tag k="ssr:stedsnr" v="503783" />
	</node>
	<node id="-734522" lat="68.691033331" lon="15.9537944386">
		<tag k="name" v="Holand" />
		<tag k="place" v="farm" />
		<tag k="ssr:stedsnr" v="503461" />
	</node>
	<node id="-734510" lat="68.6317777798" lon="15.8576250016">
		<tag k="alt_name" v="Huseby" />
		<tag k="fixme" v="consider place=hamlet" />
		<tag k="name" v="Husby" />
		<tag k="place" v="farm" />
		<tag k="ssr:stedsnr" v="503315" />
	</node>
	<node id="-734503" lat="68.673386115" lon="16.0772139003">
		<tag k="name" v="Bjørnlia" />
		<tag k="place" v="farm" />
		<tag k="ssr:stedsnr" v="503235" />
	</node>
	<node id="-734500" lat="68.790327779" lon="16.1216805555">
		<tag k="name" v="Dale" />
		<tag k="place" v="farm" />
		<tag k="ssr:stedsnr" v="503073" />
	</node>
	<node id="-733659" lat="68.6793333369" lon="16.3361611015">
		<tag k="name" v="Skoglund" />
		<tag k="place" v="isolated_dwelling" />
		<tag k="ssr:stedsnr" v="323134" />
	</node>
	<node id="-733982" lat="68.8468750033" lon="16.1613027736">
		<tag k="fixme" v="consider place=hamlet" />
		<tag k="name" v="Molvik" />
		<tag k="place" v="village" />
		<tag k="ssr:stedsnr" v="52608" />
	</node>
	<node id="-735003" lat="68.7361722205" lon="16.2443972125">
		<tag k="name" v="Straumen" />
		<tag k="place" v="hamlet" />
		<tag k="ssr:stedsnr" v="753032" />
	</node>
	<node id="-735002" lat="68.5939194425" lon="16.0652277657">
		<tag k="fixme" v="consider tourism=alpine_hut or tourism=chalet" />
		<tag k="name" v="Haakonsbu" />
		<tag k="old_name" v="Håkonsbu" />
		<tag k="ssr:stedsnr" v="750155" />
		<tag k="tourism" v="wilderness_hut" />
	</node>
	<node id="-734489" lat="68.821124996" lon="16.1028055486">
		<tag k="name" v="Elda" />
		<tag k="place" v="farm" />
		<tag k="ssr:stedsnr" v="464143" />
	</node>
	<node id="-734488" lat="68.7760111152" lon="16.1652083273">
		<tag k="name" v="Berg" />
		<tag k="place" v="farm" />
		<tag k="ssr:stedsnr" v="462673" />
	</node>
	<node id="-734487" lat="68.8493888857" lon="16.1687138888">
		<tag k="name" v="Elva" />
		<tag k="place" v="farm" />
		<tag k="ssr:stedsnr" v="460901" />
	</node>
	<node id="-734486" lat="68.7612333354" lon="16.2425333216">
		<tag k="fixme" v="consider place=hamlet" />
		<tag k="name" v="Gåra" />
		<tag k="place" v="village" />
		<tag k="ssr:stedsnr" v="450039" />
	</node>
	<node id="-733971" lat="68.647122222" lon="16.0935111174">
		<tag k="name" v="Finnviken" />
		<tag k="place" v="farm" />
		<tag k="ssr:stedsnr" v="52416" />
	</node>
	<node id="-734479" lat="68.733636108" lon="16.2750111111">
		<tag k="name" v="Kristligflata" />
		<tag k="place" v="farm" />
		<tag k="ssr:stedsnr" v="443947" />
	</node>
	<node id="-733966" lat="68.7501555531" lon="16.1732749979">
		<tag k="name" v="Hamn" />
		<tag k="place" v="farm" />
		<tag k="ssr:stedsnr" v="52268" />
	</node>
	<node id="-734979" lat="68.5616500024" lon="15.746583324">
		<tag k="name" v="Løbergsbukta" />
		<tag k="place" v="isolated_dwelling" />
		<tag k="ssr:stedsnr" v="745891" />
	</node>
	<node id="-734978" lat="68.5646388936" lon="15.8260333259">
		<tag k="fixme" v="consider place=hamlet" />
		<tag k="loc_name:se" v="Áidi" />
		<tag k="name" v="Eidet" />
		<tag k="name:no" v="Eidet" />
		<tag k="place" v="farm" />
		<tag k="ssr:stedsnr" v="745878" />
	</node>
	<node id="-734465" lat="68.7414833313" lon="16.284594432">
		<tag k="name" v="Voktor" />
		<tag k="place" v="farm" />
		<tag k="ssr:stedsnr" v="442826" />
	</node>
	<node id="-734458" lat="68.761783331" lon="16.2415305658">
		<tag k="alt_name" v="Gåra, in" />
		<tag k="name" v="Indre Gåra" />
		<tag k="place" v="farm" />
		<tag k="ssr:stedsnr" v="442444" />
	</node>
	<node id="-733945" lat="68.6942583333" lon="16.3420416675">
		<tag k="name" v="Almenningssætran" />
		<tag k="place" v="locality" />
		<tag k="ssr:stedsnr" v="51640" />
	</node>
	<node id="-734964" lat="68.7540999994" lon="16.1285749891">
		<tag k="alt_name" v="Vebostad" />
		<tag k="name" v="Vebbestad" />
		<tag k="place" v="farm" />
		<tag k="ssr:stedsnr" v="745182" />
	</node>
	<node id="-734961" lat="68.7621499973" lon="16.249499998">
		<tag k="name" v="Skallan" />
		<tag k="place" v="farm" />
		<tag k="ssr:stedsnr" v="745446" />
	</node>
	<node id="-734960" lat="68.6821166665" lon="16.0341750117">
		<tag k="alt_name" v="Refsnes" />
		<tag k="name" v="Revsnes" />
		<tag k="place" v="farm" />
		<tag k="ssr:stedsnr" v="726124" />
	</node>
	<node id="-734956" lat="68.7833638874" lon="16.3336138896">
		<tag k="name" v="Kvilheim" />
		<tag k="place" v="isolated_dwelling" />
		<tag k="ssr:stedsnr" v="719960" />
	</node>
	<node id="-733921" lat="68.5958333331" lon="15.8174555589">
		<tag k="name" v="Skjåberget" />
		<tag k="place" v="farm" />
		<tag k="ssr:stedsnr" v="18784" />
	</node>
	<node id="-734944" lat="68.7827055569" lon="16.1327361229">
		<tag k="fixme" v="consider place=hamlet" />
		<tag k="name" v="Trastad" />
		<tag k="place" v="village" />
		<tag k="ssr:stedsnr" v="719691" />
	</node>
	<node id="-733918" lat="68.7422500038" lon="16.2748916663">
		<tag k="name" v="Vik" />
		<tag k="place" v="farm" />
		<tag k="ssr:stedsnr" v="18761" />
	</node>
	<node id="-734159" lat="68.6542055539" lon="16.0824472219">
		<tag k="name" v="Finnvik" />
		<tag k="place" v="locality" />
		<tag k="ssr:stedsnr" v="158681" />
	</node>
	<node id="-733909" lat="68.8082916686" lon="16.1022861224">
		<tag k="fixme" v="consider place=hamlet" />
		<tag k="name" v="Utstrand" />
		<tag k="place" v="village" />
		<tag k="ssr:stedsnr" v="18104" />
	</node>
	<node id="-734928" lat="68.6432083375" lon="16.0602722212">
		<tag k="name" v="Aspenes" />
		<tag k="place" v="farm" />
		<tag k="ssr:stedsnr" v="719051" />
	</node>
	<node id="-734491" lat="68.8271333313" lon="16.1100499888">
		<tag k="name" v="Elda" />
		<tag k="place" v="farm" />
		<tag k="ssr:stedsnr" v="464147" />
	</node>
	<node id="-733897" lat="68.6528055521" lon="15.8512805498">
		<tag k="alt_name" v="Gambogen" />
		<tag k="fixme" v="consider place=hamlet" />
		<tag k="name" v="Gombogen" />
		<tag k="place" v="farm" />
		<tag k="ssr:stedsnr" v="17347" />
	</node>
	<node id="-735431" lat="68.8430222202" lon="16.1290888817">
		<tag k="name" v="Aspenes" />
		<tag k="place" v="farm" />
		<tag k="ssr:stedsnr" v="962621" />
	</node>
	<node id="-735426" lat="68.6687638923" lon="16.3637277881">
		<tag k="name" v="Storjorda" />
		<tag k="place" v="farm" />
		<tag k="ssr:stedsnr" v="962590" />
	</node>
	<node id="-734904" lat="68.8249055527" lon="16.101974989">
		<tag k="name" v="Elda" />
		<tag k="place" v="farm" />
		<tag k="ssr:stedsnr" v="707140" />
	</node>
	<node id="-734902" lat="68.8362611152" lon="16.1199166606">
		<tag k="name" v="Myrvik" />
		<tag k="place" v="isolated_dwelling" />
		<tag k="ssr:stedsnr" v="703893" />
	</node>
	<node id="-734901" lat="68.7501388873" lon="16.1707444498">
		<tag k="fixme" v="consider place=hamlet" />
		<tag k="name" v="Hundstad" />
		<tag k="old_name" v="Hunstad" />
		<tag k="place" v="village" />
		<tag k="ssr:stedsnr" v="693986" />
	</node>
	<node id="-734897" lat="68.6813499996" lon="16.3282305639">
		<tag k="name" v="Tungebakken" />
		<tag k="place" v="farm" />
		<tag k="ssr:stedsnr" v="688127" />
	</node>
	<node id="-734895" lat="68.7171519622" lon="16.3025875156">
		<tag k="name" v="Storlia" />
		<tag k="place" v="farm" />
		<tag k="ssr:stedsnr" v="685986" />
	</node>
	<node id="-734375" lat="68.7355197757" lon="16.2043538249">
		<tag k="name" v="Hoklandsætran" />
		<tag k="place" v="farm" />
		<tag k="ssr:stedsnr" v="261453" />
	</node>
	<node id="-734881" lat="68.7808611112" lon="16.3498499908">
		<tag k="name" v="Bjørklund" />
		<tag k="place" v="farm" />
		<tag k="ssr:stedsnr" v="685446" />
	</node>
	<node id="-734879" lat="68.7277694441" lon="16.0660055608">
		<tag k="alt_name" v="Hemmestad, øvre" />
		<tag k="name" v="Øvre Hemmestad" />
		<tag k="place" v="farm" />
		<tag k="ssr:stedsnr" v="685427" />
	</node>
	<node id="-734875" lat="68.6051218837" lon="15.775666299">
		<tag k="alt_name" v="Bømarken" />
		<tag k="fixme" v="consider place=hamlet" />
		<tag k="name" v="Bømarka" />
		<tag k="place" v="farm" />
		<tag k="ssr:stedsnr" v="685349" />
	</node>
	<node id="-734046" lat="68.6167083304" lon="16.0243444397">
		<tag k="name" v="Knut-Jonsaheimen" />
		<tag k="place" v="locality" />
		<tag k="ssr:stedsnr" v="112012" />
	</node>
	<node id="-734358" lat="68.7640500047" lon="16.2278249908">
		<tag k="alt_name" v="Gåra, yt" />
		<tag k="name" v="Ytre Gåra" />
		<tag k="place" v="farm" />
		<tag k="ssr:stedsnr" v="260471" />
	</node>
	<node id="-734868" lat="68.6326305523" lon="15.9089222136">
		<tag k="name" v="Vassvika" />
		<tag k="place" v="hamlet" />
		<tag k="ssr:stedsnr" v="685309" />
	</node>
	<node id="-733839" lat="68.5710356206" lon="15.7956036045">
		<tag k="fixme" v="consider place=hamlet" />
		<tag k="name" v="Våtvoll" />
		<tag k="place" v="farm" />
		<tag k="ssr:stedsnr" v="1073130" />
	</node>
	<node id="-735374" lat="68.7339722216" lon="16.0545833389">
		<tag k="name" v="Brekka" />
		<tag k="place" v="farm" />
		<tag k="ssr:stedsnr" v="961416" />
	</node>
	<node id="-735373" lat="68.7366333331" lon="16.0566666591">
		<tag k="name" v="Hemmestad indre" />
		<tag k="place" v="farm" />
		<tag k="ssr:stedsnr" v="961415" />
	</node>
	<node id="-734347" lat="68.8466527793" lon="16.1610527791">
		<tag k="alt_name" v="Molvika;Molvik" />
		<tag k="name" v="Mollvik" />
		<tag k="place" v="farm" />
		<tag k="ssr:stedsnr" v="260053" />
	</node>
	<node id="-733834" lat="68.6531527798" lon="15.8506861098">
		<tag k="name" v="Solvik" />
		<tag k="place" v="farm" />
		<tag k="ssr:stedsnr" v="886663" />
	</node>
	<node id="-734857" lat="68.7613153369" lon="16.0948339793">
		<tag k="name" v="Skår" />
		<tag k="place" v="farm" />
		<tag k="ssr:stedsnr" v="685172" />
	</node>
	<node id="-734344" lat="68.8329083364" lon="15.9738472317">
		<tag k="name" v="Gapøy" />
		<tag k="place" v="isolated_dwelling" />
		<tag k="ssr:stedsnr" v="260016" />
	</node>
	<node id="-735367" lat="68.6732888925" lon="16.3497972136">
		<tag k="fixme" v="consider place=hamlet" />
		<tag k="name" v="Storjorda" />
		<tag k="place" v="village" />
		<tag k="ssr:stedsnr" v="930111" />
	</node>
	<node id="-734341" lat="68.6349527813" lon="16.0480833436">
		<tag k="fixme" v="consider tourism=alpine_hut or tourism=chalet" />
		<tag k="name" v="Fossestua" />
		<tag k="ssr:stedsnr" v="260376" />
		<tag k="tourism" v="wilderness_hut" />
	</node>
	<node id="-735364" lat="68.7354499985" lon="16.2439111175">
		<tag k="fixme" v="consider place=hamlet" />
		<tag k="name" v="Straumen" />
		<tag k="place" v="farm" />
		<tag k="ssr:stedsnr" v="928947" />
	</node>
	<node id="-735363" lat="68.5457722206" lon="15.761211116">
		<tag k="alt_name" v="Våtvoll, l" />
		<tag k="name" v="Litle Våtvoll" />
		<tag k="place" v="farm" />
		<tag k="ssr:stedsnr" v="928860" />
	</node>
	<node id="-734336" lat="68.6572638891" lon="16.0815805525">
		<tag k="name" v="Forholtan" />
		<tag k="place" v="isolated_dwelling" />
		<tag k="ssr:stedsnr" v="260348" />
	</node>
	<node id="-735354" lat="68.7135972193" lon="16.0528416725">
		<tag k="alt_name" v="Skommesvika" />
		<tag k="name" v="Skommesvik" />
		<tag k="place" v="farm" />
		<tag k="ssr:stedsnr" v="928442" />
	</node>
	<node id="-735351" lat="68.7390166646" lon="16.1248000018">
		<tag k="alt_name" v="Vebestadsætran" />
		<tag k="name" v="Vebbestadsætran" />
		<tag k="place" v="isolated_dwelling" />
		<tag k="ssr:stedsnr" v="928413" />
	</node>
	<node id="-735349" lat="68.7488999997" lon="16.165241674">
		<tag k="name" v="Hundstad" />
		<tag k="place" v="farm" />
		<tag k="ssr:stedsnr" v="928393" />
	</node>
	<node id="-734323" lat="68.7406249976" lon="16.2815250053">
		<tag k="fixme" v="consider place=hamlet" />
		<tag k="name" v="Vik" />
		<tag k="place" v="village" />
		<tag k="ssr:stedsnr" v="234531" />
	</node>
	<node id="-735346" lat="68.6178722211" lon="15.7603416739">
		<tag k="fixme" v="consider place=hamlet" />
		<tag k="loc_name" v="Langvassbukt" />
		<tag k="name" v="Langvassbukta" />
		<tag k="place" v="village" />
		<tag k="ssr:stedsnr" v="928321" />
	</node>
	<node id="-735342" lat="68.6234638851" lon="15.7720722246">
		<tag k="alt_name" v="Forøysætran" />
		<tag k="name" v="Forøysæter" />
		<tag k="place" v="isolated_dwelling" />
		<tag k="ssr:stedsnr" v="928300" />
	</node>
	<node id="-734215" lat="68.7322888926" lon="16.1871277775">
		<tag k="name" v="Salsætran" />
		<tag k="place" v="isolated_dwelling" />
		<tag k="ssr:stedsnr" v="173723" />
	</node>
	<node id="-734828" lat="68.7712416638" lon="16.1887250108">
		<tag k="fixme" v="consider place=hamlet" />
		<tag k="name" v="Rå" />
		<tag k="place" v="village" />
		<tag k="ssr:stedsnr" v="658684" />
	</node>
	<node id="-735334" lat="68.6614555574" lon="15.8857166698">
		<tag k="fixme" v="consider place=hamlet" />
		<tag k="name" v="Bogen" />
		<tag k="place" v="village" />
		<tag k="ssr:stedsnr" v="928244" />
	</node>
	<node id="-734812" lat="68.7523944406" lon="16.1380805464">
		<tag k="fixme" v="consider place=hamlet" />
		<tag k="name" v="Vebostad" />
		<tag k="place" v="village" />
		<tag k="ssr:stedsnr" v="658390" />
	</node>
	<node id="-735323" lat="68.7659194457" lon="16.2207666734">
		<tag k="name" v="Strand" />
		<tag k="place" v="farm" />
		<tag k="ssr:stedsnr" v="927471" />
	</node>
	<node id="-734290" lat="68.7688388843" lon="16.2007472241">
		<tag k="fixme" v="consider place=hamlet" />
		<tag k="name" v="Strand" />
		<tag k="place" v="village" />
		<tag k="ssr:stedsnr" v="233325" />
	</node>
	<node id="-734444" lat="68.6835888883" lon="16.0310638888">
		<tag k="alt_name" v="Refsnes" />
		<tag k="name" v="Revsnes" />
		<tag k="place" v="farm" />
		<tag k="ssr:stedsnr" v="423128" />
	</node>
	<node id="-735312" lat="68.6025555537" lon="15.7873472096">
		<tag k="name" v="Torsete" />
		<tag k="place" v="farm" />
		<tag k="ssr:stedsnr" v="901963" />
	</node>
	<node id="-735309" lat="68.5757222225" lon="15.8260361092">
		<tag k="name" v="Solfjell" />
		<tag k="place" v="farm" />
		<tag k="ssr:stedsnr" v="901937" />
	</node>
	<node id="-735308" lat="68.5800555568" lon="15.8260194376">
		<tag k="name" v="Holten" />
		<tag k="place" v="farm" />
		<tag k="ssr:stedsnr" v="901935" />
	</node>
	<node id="-733767" lat="68.5976027811" lon="15.8238666791">
		<tag k="alt_name:no" v="Gulholmen;Gullholm" />
		<tag k="fixme" v="consider place=hamlet" />
		<tag k="loc_name:se" v="Gollesuolu" />
		<tag k="name" v="Gullholmen" />
		<tag k="name:no" v="Gullholmen" />
		<tag k="place" v="farm" />
		<tag k="ssr:stedsnr" v="382804" />
	</node>
	<node id="-734316" lat="68.5863083371" lon="15.7902361169">
		<tag k="name" v="Bergli" />
		<tag k="place" v="farm" />
		<tag k="ssr:stedsnr" v="233880" />
	</node>
	<node id="-735301" lat="68.8424138908" lon="16.1389805657">
		<tag k="name" v="Haugen" />
		<tag k="place" v="farm" />
		<tag k="ssr:stedsnr" v="901652" />
	</node>
	<node id="-734788" lat="68.7820249991" lon="16.0654333354">
		<tag k="fixme" v="consider place=hamlet" />
		<tag k="name" v="Øynes" />
		<tag k="place" v="village" />
		<tag k="ssr:stedsnr" v="657418" />
	</node>
	<node id="-734786" lat="68.7554194471" lon="16.1627083392">
		<tag k="fixme" v="consider place=hamlet" />
		<tag k="name" v="Hokland" />
		<tag k="place" v="village" />
		<tag k="ssr:stedsnr" v="657376" />
	</node>
	<node id="-734780" lat="68.7008972254" lon="16.3081194452">
		<tag k="historic" v="shieling" />
		<tag k="name" v="Rudda" />
		<tag k="place" v="locality" />
		<tag k="ssr:stedsnr" v="627155" />
	</node>
	<node id="-734267" lat="68.546763891" lon="15.7438333415">
		<tag k="alt_name" v="Litle Våtvoll" />
		<tag k="name" v="Litjevåtvoll" />
		<tag k="place" v="locality" />
		<tag k="ssr:stedsnr" v="219684" />
	</node>
	<node id="-734490" lat="68.8220638876" lon="16.0963277646">
		<tag k="name" v="Elda" />
		<tag k="place" v="farm" />
		<tag k="ssr:stedsnr" v="464144" />
	</node>
	<node id="-734775" lat="68.7383750015" lon="16.2712111001">
		<tag k="name" v="Kleiva" />
		<tag k="place" v="isolated_dwelling" />
		<tag k="ssr:stedsnr" v="624965" />
	</node>
	<node id="-734262" lat="68.7107666688" lon="16.3019277784">
		<tag k="name" v="Solheim" />
		<tag k="place" v="farm" />
		<tag k="ssr:stedsnr" v="200868" />
	</node>
	<node id="-734773" lat="68.7379777772" lon="16.2582861139">
		<tag k="name" v="Lamhagan" />
		<tag k="place" v="farm" />
		<tag k="ssr:stedsnr" v="624942" />
	</node>
	<node id="-734771" lat="68.705761113" lon="16.3286305648">
		<tag k="fixme" v="multiple name tags, choose one and add the other to alt_name" />
		<tag k="name" v="Vikesætran;Viksætra" />
		<tag k="place" v="locality" />
		<tag k="ssr:stedsnr" v="624870" />
	</node>
	<node id="-734770" lat="68.708122219" lon="16.3019750019">
		<tag k="name" v="Vollan" />
		<tag k="place" v="farm" />
		<tag k="ssr:stedsnr" v="624867" />
	</node>
	<node id="-734768" lat="68.7448472235" lon="16.2627944542">
		<tag k="name" v="Bartega" />
		<tag k="place" v="farm" />
		<tag k="ssr:stedsnr" v="624804" />
	</node>
	<node id="-734254" lat="68.6641805592" lon="16.0816722196">
		<tag k="alt_name" v="Melå;Melåen" />
		<tag k="fixme" v="consider place=hamlet" />
		<tag k="name" v="Melåa" />
		<tag k="place" v="village" />
		<tag k="ssr:stedsnr" v="200298" />
	</node>
	<node id="-734763" lat="68.7969611075" lon="16.2647638986">
		<tag k="name" v="Gammen" />
		<tag k="place" v="locality" />
		<tag k="ssr:stedsnr" v="624498" />
	</node>
	<node id="-734761" lat="68.7178361131" lon="16.1977638981">
		<tag k="name" v="Saldalskråa" />
		<tag k="place" v="isolated_dwelling" />
		<tag k="ssr:stedsnr" v="624487" />
	</node>
	<node id="-733634" lat="68.650219447" lon="16.0916444551">
		<tag k="name" v="Skreden" />
		<tag k="place" v="isolated_dwelling" />
		<tag k="ssr:stedsnr" v="321286" />
	</node>
	<node id="-734755" lat="68.7350666702" lon="16.1485027684">
		<tag k="historic" v="shieling" />
		<tag k="name" v="Hundstadsætran" />
		<tag k="old_name" v="Hunstadsætran" />
		<tag k="place" v="locality" />
		<tag k="ssr:stedsnr" v="624461" />
	</node>
	<node id="-734241" lat="68.7272555532" lon="16.2919138818">
		<tag k="name" v="Vonheim" />
		<tag k="place" v="farm" />
		<tag k="ssr:stedsnr" v="199979" />
	</node>
	<node id="-734745" lat="68.6542166705" lon="15.9429972197">
		<tag k="name" v="Lyså" />
		<tag k="place" v="isolated_dwelling" />
		<tag k="ssr:stedsnr" v="624313" />
	</node>
	<node id="-734740" lat="68.6665555514" lon="16.0458472323">
		<tag k="fixme" v="consider place=hamlet" />
		<tag k="name" v="Kjengsnes" />
		<tag k="place" v="farm" />
		<tag k="ssr:stedsnr" v="624291" />
	</node>
	<node id="-734227" lat="68.6502361151" lon="16.091675003">
		<tag k="name" v="Einlia" />
		<tag k="place" v="isolated_dwelling" />
		<tag k="ssr:stedsnr" v="199321" />
	</node>
	<node id="-735248" lat="68.7348833305" lon="16.2243666555">
		<tag k="alt_name" v="Hestevik;Heslevika" />
		<tag k="name" v="Hestvika" />
		<tag k="place" v="farm" />
		<tag k="ssr:stedsnr" v="868925" />
	</node>
	<node id="-734222" lat="68.7726111127" lon="16.1711472156">
		<tag k="name" v="Borkenes" />
		<tag k="place" v="village" />
		<tag k="ssr:stedsnr" v="199188" />
	</node>
	<node id="-734221" lat="68.6805944463" lon="16.0333666716">
		<tag k="alt_name" v="Refsnes" />
		<tag k="name" v="Revsnes" />
		<tag k="place" v="farm" />
		<tag k="ssr:stedsnr" v="180191" />
	</node>
	<node id="-735148" lat="68.6879611118" lon="15.9467999903">
		<tag k="name" v="Holand" />
		<tag k="place" v="hamlet" />
		<tag k="ssr:stedsnr" v="840499" />
	</node>
	<node id="-734213" lat="68.7351666628" lon="16.2319111078">
		<tag k="name" v="Vikran" />
		<tag k="place" v="isolated_dwelling" />
		<tag k="ssr:stedsnr" v="173708" />
	</node>
	<node id="-734722" lat="68.6852166667" lon="16.0284749988">
		<tag k="alt_name" v="Refsnes" />
		<tag k="name" v="Revsnes" />
		<tag k="place" v="farm" />
		<tag k="ssr:stedsnr" v="604199" />
	</node>
	<node id="-734721" lat="68.6828416654" lon="16.0471750079">
		<tag k="fixme" v="consider place=hamlet" />
		<tag k="name" v="Revsnes" />
		<tag k="place" v="farm" />
		<tag k="ssr:stedsnr" v="604139" />
	</node>
</osm>
