<?xml version="1.0" encoding="UTF-8"?>
<osm generator="osmapis" version="0.6">
	<node id="-187294" lat="67.692640122" lon="12.7003727596">
		<tag k="fixme" v="consider place=hamlet" />
		<tag k="name" v="Nordland" />
		<tag k="place" v="farm" />
		<tag k="ssr:date" v="2020-03-06" />
		<tag k="ssr:gruppe" v="gardsbebyggelse" />
		<tag k="ssr:hovedgruppe" v="bebyggelse" />
		<tag k="ssr:stedsnr" v="1075886" />
		<tag k="ssr:type" v="gard" />
	</node>
	<node id="-187293" lat="67.6927220138" lon="12.7130222173">
		<tag k="name" v="Værøy prestegård" />
		<tag k="place" v="locality" />
		<tag k="ssr:date" v="2020-03-06" />
		<tag k="ssr:gruppe" v="gardsbebyggelse" />
		<tag k="ssr:hovedgruppe" v="bebyggelse" />
		<tag k="ssr:stedsnr" v="1075885" />
		<tag k="ssr:type" v="eiendom" />
	</node>
	<node id="-187292" lat="67.6694673152" lon="12.6847441087">
		<tag k="fixme" v="consider place=hamlet" />
		<tag k="name" v="Sørland" />
		<tag k="place" v="farm" />
		<tag k="ssr:date" v="2020-03-06" />
		<tag k="ssr:gruppe" v="gardsbebyggelse" />
		<tag k="ssr:hovedgruppe" v="bebyggelse" />
		<tag k="ssr:stedsnr" v="1075882" />
		<tag k="ssr:type" v="gard" />
	</node>
	<node id="-187291" lat="67.6300444437" lon="12.5678666631">
		<tag k="name" v="Bøan" />
		<tag k="natural" v="shoal" />
		<tag k="place" v="locality" />
		<tag k="ssr:date" v="2016-05-11" />
		<tag k="ssr:gruppe" v="grunnerISjø" />
		<tag k="ssr:hovedgruppe" v="sjø" />
		<tag k="ssr:stedsnr" v="958674" />
		<tag k="ssr:type" v="grunneISjø" />
	</node>
	<node id="-187290" lat="67.7698944416" lon="12.7568888927">
		<tag k="name" v="Sørbuholmen" />
		<tag k="place" v="islet" />
		<tag k="ssr:date" v="2016-05-11" />
		<tag k="ssr:gruppe" v="kystkontur" />
		<tag k="ssr:hovedgruppe" v="sjø" />
		<tag k="ssr:stedsnr" v="951682" />
		<tag k="ssr:type" v="holmeISjø" />
	</node>
	<node id="-187289" lat="67.7573333305" lon="12.7356611172">
		<tag k="fixme" v="consider seamark:type=rock or natural=shoal" />
		<tag k="name" v="Hornskarskjeran" />
		<tag k="place" v="islet" />
		<tag k="ssr:date" v="2016-05-11" />
		<tag k="ssr:gruppe" v="grunnerISjø" />
		<tag k="ssr:hovedgruppe" v="sjø" />
		<tag k="ssr:stedsnr" v="951681" />
		<tag k="ssr:type" v="skjærISjø" />
	</node>
	<node id="-187288" lat="67.7525388878" lon="12.7497638961">
		<tag k="alt_name" v="Avløysa" />
		<tag k="name" v="Avløysneset" />
		<tag k="natural" v="cape" />
		<tag k="ssr:date" v="2016-05-11" />
		<tag k="ssr:gruppe" v="kystkontur" />
		<tag k="ssr:hovedgruppe" v="sjø" />
		<tag k="ssr:stedsnr" v="867090" />
		<tag k="ssr:type" v="nesISjø" />
	</node>
	<node id="-187287" lat="67.611530552" lon="12.6637916684">
		<tag k="name" v="Båen" />
		<tag k="natural" v="shoal" />
		<tag k="place" v="locality" />
		<tag k="ssr:date" v="2016-05-11" />
		<tag k="ssr:gruppe" v="grunnerISjø" />
		<tag k="ssr:hovedgruppe" v="sjø" />
		<tag k="ssr:stedsnr" v="866404" />
		<tag k="ssr:type" v="grunneISjø" />
	</node>
	<node id="-187286" lat="67.6297027751" lon="12.6554138877">
		<tag k="name" v="Småskallan" />
		<tag k="natural" v="shoal" />
		<tag k="place" v="locality" />
		<tag k="ssr:date" v="2016-05-11" />
		<tag k="ssr:gruppe" v="grunnerISjø" />
		<tag k="ssr:hovedgruppe" v="sjø" />
		<tag k="ssr:stedsnr" v="865466" />
		<tag k="ssr:type" v="grunneISjø" />
	</node>
	<node id="-187285" lat="67.6272055577" lon="12.5816138888">
		<tag k="name" v="Tavla" />
		<tag k="natural" v="shoal" />
		<tag k="place" v="locality" />
		<tag k="ssr:date" v="2016-05-11" />
		<tag k="ssr:gruppe" v="grunnerISjø" />
		<tag k="ssr:hovedgruppe" v="sjø" />
		<tag k="ssr:stedsnr" v="865464" />
		<tag k="ssr:type" v="grunneISjø" />
	</node>
	<node id="-187284" lat="67.6099722263" lon="12.5867250082">
		<tag k="name" v="Skiten" />
		<tag k="natural" v="shoal" />
		<tag k="place" v="locality" />
		<tag k="ssr:date" v="2016-05-11" />
		<tag k="ssr:gruppe" v="grunnerISjø" />
		<tag k="ssr:hovedgruppe" v="sjø" />
		<tag k="ssr:stedsnr" v="865458" />
		<tag k="ssr:type" v="grunneISjø" />
	</node>
	<node id="-187283" lat="67.6089888873" lon="12.5046694427">
		<tag k="name" v="Storfjellbåen" />
		<tag k="natural" v="shoal" />
		<tag k="place" v="locality" />
		<tag k="ssr:date" v="2016-05-11" />
		<tag k="ssr:gruppe" v="grunnerISjø" />
		<tag k="ssr:hovedgruppe" v="sjø" />
		<tag k="ssr:stedsnr" v="865456" />
		<tag k="ssr:type" v="grunneISjø" />
	</node>
	<node id="-187282" lat="67.6074611126" lon="12.5291749953">
		<tag k="name" v="Nupskallen" />
		<tag k="natural" v="shoal" />
		<tag k="place" v="locality" />
		<tag k="ssr:date" v="2016-05-11" />
		<tag k="ssr:gruppe" v="grunnerISjø" />
		<tag k="ssr:hovedgruppe" v="sjø" />
		<tag k="ssr:stedsnr" v="865455" />
		<tag k="ssr:type" v="grunneISjø" />
	</node>
	<node id="-187281" lat="67.6396277735" lon="12.5724166694">
		<tag k="alt_name" v="Sæingsnesan" />
		<tag k="name" v="Sædingsneset" />
		<tag k="natural" v="cape" />
		<tag k="ssr:date" v="2016-05-11" />
		<tag k="ssr:gruppe" v="kystkontur" />
		<tag k="ssr:hovedgruppe" v="sjø" />
		<tag k="ssr:stedsnr" v="865454" />
		<tag k="ssr:type" v="nesISjø" />
	</node>
	<node id="-187279" lat="67.6578916669" lon="12.6667499941">
		<tag k="alt_name" v="Sørlandsbukta" />
		<tag k="name" v="Sørlandsvika" />
		<tag k="natural" v="bay" />
		<tag k="ssr:date" v="2016-05-11" />
		<tag k="ssr:gruppe" v="kystkontur" />
		<tag k="ssr:hovedgruppe" v="sjø" />
		<tag k="ssr:stedsnr" v="865446" />
		<tag k="ssr:type" v="vikISjø" />
	</node>
	<node id="-187278" lat="67.6449638859" lon="12.6760916634">
		<tag k="fixme" v="consider seamark:type=rock or natural=shoal" />
		<tag k="name" v="Rogndisken" />
		<tag k="place" v="islet" />
		<tag k="ssr:date" v="2016-05-11" />
		<tag k="ssr:gruppe" v="grunnerISjø" />
		<tag k="ssr:hovedgruppe" v="sjø" />
		<tag k="ssr:stedsnr" v="865435" />
		<tag k="ssr:type" v="skjærISjø" />
	</node>
	<node id="-187277" lat="67.679219443" lon="12.7311611092">
		<tag k="fixme" v="multiple name tags, choose one and add the other to alt_name" />
		<tag k="name" v="Buholmen;Løngholmen" />
		<tag k="place" v="islet" />
		<tag k="ssr:date" v="2016-05-11" />
		<tag k="ssr:gruppe" v="kystkontur" />
		<tag k="ssr:hovedgruppe" v="sjø" />
		<tag k="ssr:stedsnr" v="865417" />
		<tag k="ssr:type" v="holmeISjø" />
	</node>
	<node id="-187276" lat="67.6787055565" lon="12.7059527839">
		<tag k="fixme" v="consider natural=peak for the most distinct mountains in the district" />
		<tag k="name" v="Nevkollen" />
		<tag k="natural" v="hill" />
		<tag k="place" v="locality" />
		<tag k="ssr:date" v="2016-05-11" />
		<tag k="ssr:gruppe" v="høyder" />
		<tag k="ssr:hovedgruppe" v="terreng" />
		<tag k="ssr:stedsnr" v="865413" />
		<tag k="ssr:type" v="ås" />
	</node>
	<node id="-187275" lat="67.6794333348" lon="12.7041805567">
		<tag k="alt_name" v="Mekollen" />
		<tag k="fixme" v="consider natural=peak for the most distinct mountains in the district" />
		<tag k="name" v="Medkollen" />
		<tag k="natural" v="hill" />
		<tag k="place" v="locality" />
		<tag k="ssr:date" v="2016-05-11" />
		<tag k="ssr:gruppe" v="høyder" />
		<tag k="ssr:hovedgruppe" v="terreng" />
		<tag k="ssr:stedsnr" v="865412" />
		<tag k="ssr:type" v="ås" />
	</node>
	<node id="-187274" lat="67.6986555562" lon="12.730941676">
		<tag k="fixme" v="multiple name tags, choose one and add the other to alt_name; consider seamark:type=rock or natural=shoal" />
		<tag k="name" v="Skarvskjeret;Storskarvskjeret" />
		<tag k="place" v="islet" />
		<tag k="ssr:date" v="2016-05-11" />
		<tag k="ssr:gruppe" v="grunnerISjø" />
		<tag k="ssr:hovedgruppe" v="sjø" />
		<tag k="ssr:stedsnr" v="865397" />
		<tag k="ssr:type" v="skjærISjø" />
	</node>
	<node id="-187273" lat="67.7148472239" lon="12.5121388799">
		<tag k="name" v="Versetskallen" />
		<tag k="natural" v="shoal" />
		<tag k="place" v="locality" />
		<tag k="ssr:date" v="2016-05-11" />
		<tag k="ssr:gruppe" v="grunnerISjø" />
		<tag k="ssr:hovedgruppe" v="sjø" />
		<tag k="ssr:stedsnr" v="865386" />
		<tag k="ssr:type" v="grunneISjø" />
	</node>
	<node id="-187271" lat="67.6271305536" lon="12.5860000104">
		<tag k="name" v="Flaget" />
		<tag k="natural" v="shoal" />
		<tag k="place" v="locality" />
		<tag k="ssr:date" v="2016-05-11" />
		<tag k="ssr:gruppe" v="grunnerISjø" />
		<tag k="ssr:hovedgruppe" v="sjø" />
		<tag k="ssr:stedsnr" v="830814" />
		<tag k="ssr:type" v="grunneISjø" />
	</node>
	<node id="-187270" lat="67.7556305529" lon="12.7598166766">
		<tag k="name" v="Reiret" />
		<tag k="natural" v="valley" />
		<tag k="place" v="locality" />
		<tag k="ssr:date" v="2016-05-11" />
		<tag k="ssr:gruppe" v="senkninger" />
		<tag k="ssr:hovedgruppe" v="terreng" />
		<tag k="ssr:stedsnr" v="830696" />
		<tag k="ssr:type" v="skar" />
	</node>
	<node id="-187269" lat="67.6665499992" lon="12.7133416719">
		<tag k="name" v="Mælan" />
		<tag k="natural" v="slope" />
		<tag k="place" v="locality" />
		<tag k="ssr:date" v="2016-05-11" />
		<tag k="ssr:gruppe" v="skråninger" />
		<tag k="ssr:hovedgruppe" v="terreng" />
		<tag k="ssr:stedsnr" v="830678" />
		<tag k="ssr:type" v="li" />
	</node>
	<node id="-187268" lat="67.6514555529" lon="12.6492527656">
		<tag k="name" v="Omnan" />
		<tag k="natural" v="hill" />
		<tag k="place" v="locality" />
		<tag k="ssr:date" v="2016-05-11" />
		<tag k="ssr:gruppe" v="høyder" />
		<tag k="ssr:hovedgruppe" v="terreng" />
		<tag k="ssr:stedsnr" v="830661" />
		<tag k="ssr:type" v="berg" />
	</node>
	<node id="-187267" lat="67.7411888905" lon="12.7578361102">
		<tag k="name" v="Råkberget" />
		<tag k="natural" v="hill" />
		<tag k="place" v="locality" />
		<tag k="ssr:date" v="2016-05-11" />
		<tag k="ssr:gruppe" v="høyder" />
		<tag k="ssr:hovedgruppe" v="terreng" />
		<tag k="ssr:stedsnr" v="830612" />
		<tag k="ssr:type" v="berg" />
	</node>
	<node id="-187266" lat="67.7482527784" lon="12.7643583346">
		<tag k="name" v="Hattberget" />
		<tag k="natural" v="cape" />
		<tag k="ssr:date" v="2016-05-11" />
		<tag k="ssr:gruppe" v="kystkontur" />
		<tag k="ssr:hovedgruppe" v="sjø" />
		<tag k="ssr:stedsnr" v="830604" />
		<tag k="ssr:type" v="nesISjø" />
	</node>
	<node id="-187265" lat="67.7489027741" lon="12.7646027886">
		<tag k="name" v="Sørkrokan" />
		<tag k="natural" v="bay" />
		<tag k="ssr:date" v="2016-05-11" />
		<tag k="ssr:gruppe" v="kystkontur" />
		<tag k="ssr:hovedgruppe" v="sjø" />
		<tag k="ssr:stedsnr" v="830603" />
		<tag k="ssr:type" v="vikISjø" />
	</node>
	<node id="-187264" lat="67.7517638872" lon="12.764613881">
		<tag k="name" v="Brattlian" />
		<tag k="natural" v="slope" />
		<tag k="place" v="locality" />
		<tag k="ssr:date" v="2016-05-11" />
		<tag k="ssr:gruppe" v="skråninger" />
		<tag k="ssr:hovedgruppe" v="terreng" />
		<tag k="ssr:stedsnr" v="830600" />
		<tag k="ssr:type" v="li" />
	</node>
	<node id="-187263" lat="67.7573749988" lon="12.7705944413">
		<tag k="name" v="Forhammarneset" />
		<tag k="natural" v="cape" />
		<tag k="ssr:date" v="2016-05-11" />
		<tag k="ssr:gruppe" v="kystkontur" />
		<tag k="ssr:hovedgruppe" v="sjø" />
		<tag k="ssr:stedsnr" v="830597" />
		<tag k="ssr:type" v="nesISjø" />
	</node>
	<node id="-187262" lat="67.6619944445" lon="12.6191833239">
		<tag k="name" v="Mottollgrævan" />
		<tag k="natural" v="valley" />
		<tag k="place" v="locality" />
		<tag k="ssr:date" v="2016-05-11" />
		<tag k="ssr:gruppe" v="senkninger" />
		<tag k="ssr:hovedgruppe" v="terreng" />
		<tag k="ssr:stedsnr" v="828692" />
		<tag k="ssr:type" v="skar" />
	</node>
	<node id="-187261" lat="67.6751416683" lon="12.7136166609">
		<tag k="fixme" v="consider seamark:type=rock or natural=shoal" />
		<tag k="name" v="Skarvskjeret" />
		<tag k="place" v="islet" />
		<tag k="ssr:date" v="2016-05-11" />
		<tag k="ssr:gruppe" v="grunnerISjø" />
		<tag k="ssr:hovedgruppe" v="sjø" />
		<tag k="ssr:stedsnr" v="828662" />
		<tag k="ssr:type" v="skjærISjø" />
	</node>
	<node id="-187260" lat="67.678933331" lon="12.6771527746">
		<tag k="name" v="Hamran" />
		<tag k="natural" v="hill" />
		<tag k="place" v="locality" />
		<tag k="ssr:date" v="2016-05-11" />
		<tag k="ssr:gruppe" v="høyder" />
		<tag k="ssr:hovedgruppe" v="terreng" />
		<tag k="ssr:stedsnr" v="828652" />
		<tag k="ssr:type" v="berg" />
	</node>
	<node id="-187259" lat="67.6702472237" lon="12.6392361226">
		<tag k="name" v="Heia" />
		<tag k="natural" v="hill" />
		<tag k="place" v="locality" />
		<tag k="ssr:date" v="2016-05-11" />
		<tag k="ssr:gruppe" v="høyder" />
		<tag k="ssr:hovedgruppe" v="terreng" />
		<tag k="ssr:stedsnr" v="828648" />
		<tag k="ssr:type" v="hei" />
	</node>
	<node id="-187258" lat="67.7679555565" lon="12.7269555544">
		<tag k="alt_name" v="Skjettenskarvholmen" />
		<tag k="name" v="Skitenskarvholman" />
		<tag k="place" v="islet" />
		<tag k="ssr:date" v="2016-05-11" />
		<tag k="ssr:gruppe" v="kystkontur" />
		<tag k="ssr:hovedgruppe" v="sjø" />
		<tag k="ssr:stedsnr" v="806063" />
		<tag k="ssr:type" v="holmeISjø" />
	</node>
	<node id="-187257" lat="67.624472226" lon="12.5971333332">
		<tag k="name" v="Skarven" />
		<tag k="natural" v="shoal" />
		<tag k="place" v="locality" />
		<tag k="ssr:date" v="2016-05-11" />
		<tag k="ssr:gruppe" v="grunnerISjø" />
		<tag k="ssr:hovedgruppe" v="sjø" />
		<tag k="ssr:stedsnr" v="805448" />
		<tag k="ssr:type" v="grunneISjø" />
	</node>
	<node id="-187256" lat="67.6536194427" lon="12.7489888905">
		<tag k="name" v="Kristofferskallen" />
		<tag k="natural" v="shoal" />
		<tag k="place" v="locality" />
		<tag k="ssr:date" v="2016-05-11" />
		<tag k="ssr:gruppe" v="grunnerISjø" />
		<tag k="ssr:hovedgruppe" v="sjø" />
		<tag k="ssr:stedsnr" v="805395" />
		<tag k="ssr:type" v="grunneISjø" />
	</node>
	<node id="-187255" lat="67.665403822" lon="12.6949577698">
		<tag k="alt_name" v="Sørland kirke" />
		<tag k="amenity" v="place_of_worship" />
		<tag k="denomination" v="lutheran" />
		<tag k="name" v="Værøy kirke" />
		<tag k="religion" v="christian" />
		<tag k="ssr:date" v="2020-03-06" />
		<tag k="ssr:gruppe" v="kulturinstitusjoner" />
		<tag k="ssr:hovedgruppe" v="kultur" />
		<tag k="ssr:stedsnr" v="805378" />
		<tag k="ssr:type" v="kirke" />
	</node>
	<node id="-187254" lat="67.6657333294" lon="12.7116916635">
		<tag k="fixme" v="consider natural=peak for the most distinct mountains in the district" />
		<tag k="name" v="Stormelen" />
		<tag k="natural" v="hill" />
		<tag k="place" v="locality" />
		<tag k="ssr:date" v="2016-05-11" />
		<tag k="ssr:gruppe" v="høyder" />
		<tag k="ssr:hovedgruppe" v="terreng" />
		<tag k="ssr:stedsnr" v="805377" />
		<tag k="ssr:type" v="ås" />
	</node>
	<node id="-187253" lat="67.6668805559" lon="12.7083083264">
		<tag k="alt_name" v="Valttinden" />
		<tag k="fixme" v="consider natural=peak for the most distinct mountains in the district" />
		<tag k="name" v="Valltinden" />
		<tag k="natural" v="hill" />
		<tag k="place" v="locality" />
		<tag k="ssr:date" v="2016-05-11" />
		<tag k="ssr:gruppe" v="høyder" />
		<tag k="ssr:hovedgruppe" v="terreng" />
		<tag k="ssr:stedsnr" v="805375" />
		<tag k="ssr:type" v="ås" />
	</node>
	<node id="-187252" lat="67.6948611153" lon="12.7870666681">
		<tag k="name" v="Kvitholmbåen" />
		<tag k="natural" v="shoal" />
		<tag k="place" v="locality" />
		<tag k="ssr:date" v="2016-05-11" />
		<tag k="ssr:gruppe" v="grunnerISjø" />
		<tag k="ssr:hovedgruppe" v="sjø" />
		<tag k="ssr:stedsnr" v="805367" />
		<tag k="ssr:type" v="grunneISjø" />
	</node>
	<node id="-187251" lat="67.6906472246" lon="12.7909500028">
		<tag k="alt_name" v="Stikkskallen" />
		<tag k="name" v="Stokkskallen" />
		<tag k="natural" v="shoal" />
		<tag k="place" v="locality" />
		<tag k="ssr:date" v="2016-05-11" />
		<tag k="ssr:gruppe" v="grunnerISjø" />
		<tag k="ssr:hovedgruppe" v="sjø" />
		<tag k="ssr:stedsnr" v="805359" />
		<tag k="ssr:type" v="grunneISjø" />
	</node>
	<node id="-187250" lat="67.7012305553" lon="12.7739722301">
		<tag k="name" v="Nordbåen" />
		<tag k="natural" v="shoal" />
		<tag k="place" v="locality" />
		<tag k="ssr:date" v="2016-05-11" />
		<tag k="ssr:gruppe" v="grunnerISjø" />
		<tag k="ssr:hovedgruppe" v="sjø" />
		<tag k="ssr:stedsnr" v="805356" />
		<tag k="ssr:type" v="grunneISjø" />
	</node>
	<node id="-187249" lat="67.737747221" lon="12.6537305479">
		<tag k="name" v="Sørnakken" />
		<tag k="place" v="islet" />
		<tag k="ssr:date" v="2016-05-11" />
		<tag k="ssr:gruppe" v="kystkontur" />
		<tag k="ssr:hovedgruppe" v="sjø" />
		<tag k="ssr:stedsnr" v="805334" />
		<tag k="ssr:type" v="holmeISjø" />
	</node>
	<node id="-187248" lat="67.657225001" lon="12.5803250024">
		<tag k="name" v="Svadodden" />
		<tag k="natural" v="cape" />
		<tag k="ssr:date" v="2016-05-11" />
		<tag k="ssr:gruppe" v="kystkontur" />
		<tag k="ssr:hovedgruppe" v="sjø" />
		<tag k="ssr:stedsnr" v="776593" />
		<tag k="ssr:type" v="nesISjø" />
	</node>
	<node id="-187247" lat="67.6449444406" lon="12.721591659">
		<tag k="name" v="Seiklakkflua" />
		<tag k="natural" v="shoal" />
		<tag k="place" v="locality" />
		<tag k="ssr:date" v="2016-05-11" />
		<tag k="ssr:gruppe" v="grunnerISjø" />
		<tag k="ssr:hovedgruppe" v="sjø" />
		<tag k="ssr:stedsnr" v="775622" />
		<tag k="ssr:type" v="grunneISjø" />
	</node>
	<node id="-187245" lat="67.67941111" lon="12.6373722171">
		<tag k="alt_name" v="Slørvnakkan" />
		<tag k="name" v="Slurvnakkan" />
		<tag k="natural" v="cape" />
		<tag k="ssr:date" v="2016-05-11" />
		<tag k="ssr:gruppe" v="kystkontur" />
		<tag k="ssr:hovedgruppe" v="sjø" />
		<tag k="ssr:stedsnr" v="775613" />
		<tag k="ssr:type" v="nesISjø" />
	</node>
	<node id="-187244" lat="67.6379083375" lon="12.5714166724">
		<tag k="fixme" v="consider seamark:type=rock or natural=shoal" />
		<tag k="name" v="Sæingsskjeret" />
		<tag k="place" v="islet" />
		<tag k="ssr:date" v="2016-05-11" />
		<tag k="ssr:gruppe" v="grunnerISjø" />
		<tag k="ssr:hovedgruppe" v="sjø" />
		<tag k="ssr:stedsnr" v="769772" />
		<tag k="ssr:type" v="skjærISjø" />
	</node>
	<node id="-187243" lat="67.6577" lon="12.6918416701">
		<tag k="name" v="Vardan" />
		<tag k="natural" v="hill" />
		<tag k="place" v="locality" />
		<tag k="ssr:date" v="2016-05-11" />
		<tag k="ssr:gruppe" v="høyder" />
		<tag k="ssr:hovedgruppe" v="terreng" />
		<tag k="ssr:stedsnr" v="769638" />
		<tag k="ssr:type" v="haug" />
	</node>
	<node id="-187242" lat="67.6648944408" lon="12.7092083331">
		<tag k="amenity" v="nursing_home" />
		<tag k="name" v="Værøy helseheim" />
		<tag k="ssr:date" v="2016-05-11" />
		<tag k="ssr:gruppe" v="institusjoner" />
		<tag k="ssr:hovedgruppe" v="bebyggelse" />
		<tag k="ssr:stedsnr" v="769635" />
		<tag k="ssr:type" v="helseinstitusjon" />
	</node>
	<node id="-187241" lat="67.7392055598" lon="12.7584750064">
		<tag k="name" v="Migan" />
		<tag k="natural" v="hill" />
		<tag k="place" v="locality" />
		<tag k="ssr:date" v="2016-05-11" />
		<tag k="ssr:gruppe" v="høyder" />
		<tag k="ssr:hovedgruppe" v="terreng" />
		<tag k="ssr:stedsnr" v="769605" />
		<tag k="ssr:type" v="berg" />
	</node>
	<node id="-187240" lat="67.7472916683" lon="12.7557611158">
		<tag k="name" v="Nordlia" />
		<tag k="natural" v="slope" />
		<tag k="place" v="locality" />
		<tag k="ssr:date" v="2016-05-11" />
		<tag k="ssr:gruppe" v="skråninger" />
		<tag k="ssr:hovedgruppe" v="terreng" />
		<tag k="ssr:stedsnr" v="769600" />
		<tag k="ssr:type" v="li" />
	</node>
	<node id="-187239" lat="67.658925" lon="12.6106361054">
		<tag k="alt_name" v="Klakktuven" />
		<tag k="name" v="Klakktuva" />
		<tag k="natural" v="hill" />
		<tag k="place" v="locality" />
		<tag k="ssr:date" v="2016-05-11" />
		<tag k="ssr:gruppe" v="høyder" />
		<tag k="ssr:hovedgruppe" v="terreng" />
		<tag k="ssr:stedsnr" v="744349" />
		<tag k="ssr:type" v="haug" />
	</node>
	<node id="-187238" lat="67.6783805544" lon="12.7341472235">
		<tag k="alt_name" v="Hundholmen" />
		<tag k="name" v="Hundholman" />
		<tag k="place" v="islet" />
		<tag k="ssr:date" v="2016-05-11" />
		<tag k="ssr:gruppe" v="kystkontur" />
		<tag k="ssr:hovedgruppe" v="sjø" />
		<tag k="ssr:stedsnr" v="744344" />
		<tag k="ssr:type" v="holmeISjø" />
	</node>
	<node id="-187237" lat="67.6633444487" lon="12.7151638834">
		<tag k="fixme" v="multiple name tags, choose one and add the other to alt_name; consider natural=peak for the most distinct mountains in the district" />
		<tag k="name" v="Gullaksla;Storfjellet" />
		<tag k="natural" v="hill" />
		<tag k="place" v="locality" />
		<tag k="ssr:date" v="2016-05-11" />
		<tag k="ssr:gruppe" v="høyder" />
		<tag k="ssr:hovedgruppe" v="terreng" />
		<tag k="ssr:stedsnr" v="744340" />
		<tag k="ssr:type" v="ås" />
	</node>
	<node id="-187236" lat="67.6546694437" lon="12.5875138789">
		<tag k="fixme" v="consider natural=peak for the most distinct mountains in the district" />
		<tag k="name" v="Breidfjellet" />
		<tag k="natural" v="hill" />
		<tag k="place" v="locality" />
		<tag k="ssr:date" v="2016-05-11" />
		<tag k="ssr:gruppe" v="høyder" />
		<tag k="ssr:hovedgruppe" v="terreng" />
		<tag k="ssr:stedsnr" v="744339" />
		<tag k="ssr:type" v="ås" />
	</node>
	<node id="-187235" lat="67.7316583325" lon="12.7441944426">
		<tag k="alt_name" v="Hikjelen" />
		<tag k="fixme" v="consider seamark:type=rock or natural=shoal" />
		<tag k="name" v="Hekkelen" />
		<tag k="place" v="islet" />
		<tag k="ssr:date" v="2016-05-11" />
		<tag k="ssr:gruppe" v="grunnerISjø" />
		<tag k="ssr:hovedgruppe" v="sjø" />
		<tag k="ssr:stedsnr" v="744302" />
		<tag k="ssr:type" v="skjærISjø" />
	</node>
	<node id="-187234" lat="67.7143583356" lon="12.655627778">
		<tag k="name" v="Snøskitan" />
		<tag k="natural" v="shoal" />
		<tag k="place" v="locality" />
		<tag k="ssr:date" v="2016-05-11" />
		<tag k="ssr:gruppe" v="grunnerISjø" />
		<tag k="ssr:hovedgruppe" v="sjø" />
		<tag k="ssr:stedsnr" v="744295" />
		<tag k="ssr:type" v="grunneISjø" />
	</node>
	<node id="-187233" lat="67.7175444418" lon="12.7063444536">
		<tag k="bay" v="fjord" />
		<tag k="name" v="Nordlandsflaget" />
		<tag k="natural" v="bay" />
		<tag k="ssr:date" v="2016-05-11" />
		<tag k="ssr:gruppe" v="farvann" />
		<tag k="ssr:hovedgruppe" v="sjø" />
		<tag k="ssr:stedsnr" v="744294" />
		<tag k="ssr:type" v="fjord" />
	</node>
	<node id="-187231" lat="67.7433333307" lon="12.7007805492">
		<tag k="name" v="Slåklakkleia" />
		<tag k="natural" v="strait" />
		<tag k="ssr:date" v="2016-05-11" />
		<tag k="ssr:gruppe" v="kystkontur" />
		<tag k="ssr:hovedgruppe" v="sjø" />
		<tag k="ssr:stedsnr" v="744286" />
		<tag k="ssr:type" v="sundISjø" />
	</node>
	<node id="-187230" lat="67.6026444432" lon="12.5862472312">
		<tag k="name" v="Sørfallet" />
		<tag k="natural" v="shoal" />
		<tag k="place" v="locality" />
		<tag k="ssr:date" v="2016-05-11" />
		<tag k="ssr:gruppe" v="grunnerISjø" />
		<tag k="ssr:hovedgruppe" v="sjø" />
		<tag k="ssr:stedsnr" v="744389" />
		<tag k="ssr:type" v="grunneISjø" />
	</node>
	<node id="-187229" lat="67.651327775" lon="12.5638083401">
		<tag k="fixme" v="consider seamark:type=rock or natural=shoal" />
		<tag k="name" v="Nattmålsteinan" />
		<tag k="place" v="islet" />
		<tag k="ssr:date" v="2016-05-10" />
		<tag k="ssr:gruppe" v="grunnerISjø" />
		<tag k="ssr:hovedgruppe" v="sjø" />
		<tag k="ssr:stedsnr" v="654616" />
		<tag k="ssr:type" v="skjærISjø" />
	</node>
	<node id="-187228" lat="67.6586083361" lon="12.5939333231">
		<tag k="name" v="Stranda" />
		<tag k="natural" v="beach" />
		<tag k="place" v="locality" />
		<tag k="ssr:date" v="2016-05-10" />
		<tag k="ssr:gruppe" v="kystkontur" />
		<tag k="ssr:hovedgruppe" v="sjø" />
		<tag k="ssr:stedsnr" v="647833" />
		<tag k="ssr:type" v="strandISjø" />
	</node>
	<node id="-187227" lat="67.6405166632" lon="12.6989666663">
		<tag k="name" v="Høgsandhausen" />
		<tag k="natural" v="hill" />
		<tag k="place" v="locality" />
		<tag k="ssr:date" v="2016-05-10" />
		<tag k="ssr:gruppe" v="høyder" />
		<tag k="ssr:hovedgruppe" v="terreng" />
		<tag k="ssr:stedsnr" v="647824" />
		<tag k="ssr:type" v="haug" />
	</node>
	<node id="-187226" lat="67.63796667" lon="12.5862111223">
		<tag k="name" v="Bruna" />
		<tag k="natural" v="ridge" />
		<tag k="place" v="locality" />
		<tag k="ssr:date" v="2016-05-10" />
		<tag k="ssr:gruppe" v="høyder" />
		<tag k="ssr:hovedgruppe" v="terreng" />
		<tag k="ssr:stedsnr" v="647822" />
		<tag k="ssr:type" v="rygg" />
	</node>
	<node id="-187225" lat="67.6315888909" lon="12.5852861133">
		<tag k="name" v="Brunnesholmen" />
		<tag k="natural" v="cape" />
		<tag k="ssr:date" v="2016-05-10" />
		<tag k="ssr:gruppe" v="kystkontur" />
		<tag k="ssr:hovedgruppe" v="sjø" />
		<tag k="ssr:stedsnr" v="647789" />
		<tag k="ssr:type" v="nesISjø" />
	</node>
	<node id="-187224" lat="67.7429138907" lon="12.7552083438">
		<tag k="name" v="Korsan" />
		<tag k="natural" v="hill" />
		<tag k="place" v="locality" />
		<tag k="ssr:date" v="2016-05-10" />
		<tag k="ssr:gruppe" v="høyder" />
		<tag k="ssr:hovedgruppe" v="terreng" />
		<tag k="ssr:stedsnr" v="647609" />
		<tag k="ssr:type" v="berg" />
	</node>
	<node id="-187223" lat="67.7472305578" lon="12.7658277812">
		<tag k="name" v="Hattbergmolla" />
		<tag k="natural" v="bay" />
		<tag k="ssr:date" v="2016-05-10" />
		<tag k="ssr:gruppe" v="kystkontur" />
		<tag k="ssr:hovedgruppe" v="sjø" />
		<tag k="ssr:stedsnr" v="647602" />
		<tag k="ssr:type" v="vikISjø" />
	</node>
	<node id="-187221" lat="67.6625944481" lon="12.6825388815">
		<tag k="name" v="Brønnsvika" />
		<tag k="natural" v="bay" />
		<tag k="ssr:date" v="2016-05-10" />
		<tag k="ssr:gruppe" v="kystkontur" />
		<tag k="ssr:hovedgruppe" v="sjø" />
		<tag k="ssr:stedsnr" v="645606" />
		<tag k="ssr:type" v="vikISjø" />
	</node>
	<node id="-187220" lat="67.678386113" lon="12.7082250069">
		<tag k="name" v="Nevan" />
		<tag k="natural" v="cape" />
		<tag k="ssr:date" v="2016-05-10" />
		<tag k="ssr:gruppe" v="kystkontur" />
		<tag k="ssr:hovedgruppe" v="sjø" />
		<tag k="ssr:stedsnr" v="645722" />
		<tag k="ssr:type" v="nesISjø" />
	</node>
	<node id="-187219" lat="67.7874749991" lon="12.7931805451">
		<tag k="name" v="Iflesa" />
		<tag k="place" v="islet" />
		<tag k="ssr:date" v="2016-05-10" />
		<tag k="ssr:gruppe" v="kystkontur" />
		<tag k="ssr:hovedgruppe" v="sjø" />
		<tag k="ssr:stedsnr" v="623095" />
		<tag k="ssr:type" v="holmeISjø" />
	</node>
	<node id="-187218" lat="67.7811444477" lon="12.8250027868">
		<tag k="name" v="Svarvan" />
		<tag k="place" v="islet" />
		<tag k="ssr:date" v="2016-05-10" />
		<tag k="ssr:gruppe" v="kystkontur" />
		<tag k="ssr:hovedgruppe" v="sjø" />
		<tag k="ssr:stedsnr" v="623077" />
		<tag k="ssr:type" v="holmeISjø" />
	</node>
	<node id="-187217" lat="67.6425555597" lon="12.7137833388">
		<tag k="fixme" v="consider seamark:type=rock or natural=shoal" />
		<tag k="name" v="Tindskjeret" />
		<tag k="place" v="islet" />
		<tag k="ssr:date" v="2016-05-10" />
		<tag k="ssr:gruppe" v="grunnerISjø" />
		<tag k="ssr:hovedgruppe" v="sjø" />
		<tag k="ssr:stedsnr" v="622400" />
		<tag k="ssr:type" v="skjærISjø" />
	</node>
	<node id="-187216" lat="67.6404638923" lon="12.5948638908">
		<tag k="name" v="Staupan" />
		<tag k="place" v="locality" />
		<tag k="ssr:date" v="2016-05-10" />
		<tag k="ssr:gruppe" v="terrengdetaljer" />
		<tag k="ssr:hovedgruppe" v="terreng" />
		<tag k="ssr:stedsnr" v="622385" />
		<tag k="ssr:type" v="annenTerrengdetalj" />
	</node>
	<node id="-187214" lat="67.6728777775" lon="12.7353361021">
		<tag k="name" v="Drangen" />
		<tag k="place" v="islet" />
		<tag k="ssr:date" v="2016-05-10" />
		<tag k="ssr:gruppe" v="kystkontur" />
		<tag k="ssr:hovedgruppe" v="sjø" />
		<tag k="ssr:stedsnr" v="622372" />
		<tag k="ssr:type" v="holmeISjø" />
	</node>
	<node id="-187213" lat="67.663597222" lon="12.738274991">
		<tag k="name" v="Erikflua" />
		<tag k="natural" v="shoal" />
		<tag k="place" v="locality" />
		<tag k="ssr:date" v="2016-05-10" />
		<tag k="ssr:gruppe" v="grunnerISjø" />
		<tag k="ssr:hovedgruppe" v="sjø" />
		<tag k="ssr:stedsnr" v="622368" />
		<tag k="ssr:type" v="grunneISjø" />
	</node>
	<node id="-187212" lat="67.7028277751" lon="12.5823805444">
		<tag k="alt_name" v="Flesa" />
		<tag k="fixme" v="consider seamark:type=rock or natural=shoal" />
		<tag k="name" v="Ytreflesa" />
		<tag k="place" v="islet" />
		<tag k="ssr:date" v="2016-05-10" />
		<tag k="ssr:gruppe" v="grunnerISjø" />
		<tag k="ssr:hovedgruppe" v="sjø" />
		<tag k="ssr:stedsnr" v="622343" />
		<tag k="ssr:type" v="skjærISjø" />
	</node>
	<node id="-187211" lat="67.6306833352" lon="12.7010583252">
		<tag k="alt_name" v="Bordbakkskjeret" />
		<tag k="fixme" v="consider seamark:type=rock or natural=shoal" />
		<tag k="name" v="Bårbakkskjeret" />
		<tag k="place" v="islet" />
		<tag k="ssr:date" v="2016-05-10" />
		<tag k="ssr:gruppe" v="grunnerISjø" />
		<tag k="ssr:hovedgruppe" v="sjø" />
		<tag k="ssr:stedsnr" v="622420" />
		<tag k="ssr:type" v="skjærISjø" />
	</node>
	<node id="-187210" lat="67.6296027776" lon="12.5986472268">
		<tag k="name" v="Månesbåan" />
		<tag k="natural" v="shoal" />
		<tag k="place" v="locality" />
		<tag k="ssr:date" v="2016-05-10" />
		<tag k="ssr:gruppe" v="grunnerISjø" />
		<tag k="ssr:hovedgruppe" v="sjø" />
		<tag k="ssr:stedsnr" v="622416" />
		<tag k="ssr:type" v="grunneISjø" />
	</node>
	<node id="-187209" lat="67.6037527759" lon="12.6076111063">
		<tag k="name" v="Gullfiskskallen" />
		<tag k="natural" v="shoal" />
		<tag k="place" v="locality" />
		<tag k="ssr:date" v="2016-05-10" />
		<tag k="ssr:gruppe" v="grunnerISjø" />
		<tag k="ssr:hovedgruppe" v="sjø" />
		<tag k="ssr:stedsnr" v="622413" />
		<tag k="ssr:type" v="grunneISjø" />
	</node>
	<node id="-187208" lat="67.6092472239" lon="12.5756361094">
		<tag k="fixme" v="consider seamark:type=rock or natural=shoal" />
		<tag k="name" v="Kallen" />
		<tag k="place" v="islet" />
		<tag k="ssr:date" v="2016-05-10" />
		<tag k="ssr:gruppe" v="grunnerISjø" />
		<tag k="ssr:hovedgruppe" v="sjø" />
		<tag k="ssr:stedsnr" v="622405" />
		<tag k="ssr:type" v="skjærISjø" />
	</node>
	<node id="-187207" lat="67.6539555597" lon="12.5870972149">
		<tag k="name" v="Breifjellmoan" />
		<tag k="place" v="locality" />
		<tag k="ssr:date" v="2016-05-10" />
		<tag k="ssr:gruppe" v="flater" />
		<tag k="ssr:hovedgruppe" v="terreng" />
		<tag k="ssr:stedsnr" v="586816" />
		<tag k="ssr:type" v="mo" />
	</node>
	<node id="-187206" lat="67.6528861082" lon="12.6971944336">
		<tag k="fixme" v="consider natural=peak for the most distinct mountains in the district" />
		<tag k="name" v="Yttertinden" />
		<tag k="natural" v="hill" />
		<tag k="place" v="locality" />
		<tag k="ssr:date" v="2016-05-10" />
		<tag k="ssr:gruppe" v="høyder" />
		<tag k="ssr:hovedgruppe" v="terreng" />
		<tag k="ssr:stedsnr" v="586639" />
		<tag k="ssr:type" v="ås" />
	</node>
	<node id="-187205" lat="67.6918666688" lon="12.6841416787">
		<tag k="name" v="Bogen" />
		<tag k="natural" v="bay" />
		<tag k="ssr:date" v="2016-05-10" />
		<tag k="ssr:gruppe" v="kystkontur" />
		<tag k="ssr:hovedgruppe" v="sjø" />
		<tag k="ssr:stedsnr" v="586691" />
		<tag k="ssr:type" v="vikISjø" />
	</node>
	<node id="-187204" lat="67.692086108" lon="12.7162916726">
		<tag k="name" v="Vardetjønna" />
		<tag k="natural" v="water" />
		<tag k="ssr:date" v="2016-05-10" />
		<tag k="ssr:gruppe" v="stilleståendeVann" />
		<tag k="ssr:hovedgruppe" v="ferskvann" />
		<tag k="ssr:stedsnr" v="586685" />
		<tag k="ssr:type" v="tjern" />
	</node>
	<node id="-187203" lat="67.7536888928" lon="12.7576333442">
		<tag k="name" v="Hanslian" />
		<tag k="natural" v="slope" />
		<tag k="place" v="locality" />
		<tag k="ssr:date" v="2016-05-10" />
		<tag k="ssr:gruppe" v="skråninger" />
		<tag k="ssr:hovedgruppe" v="terreng" />
		<tag k="ssr:stedsnr" v="586678" />
		<tag k="ssr:type" v="li" />
	</node>
	<node id="-187202" lat="67.7522805575" lon="12.7543583226">
		<tag k="name" v="Hanslistranden" />
		<tag k="natural" v="beach" />
		<tag k="place" v="locality" />
		<tag k="ssr:date" v="2016-05-10" />
		<tag k="ssr:gruppe" v="kystkontur" />
		<tag k="ssr:hovedgruppe" v="sjø" />
		<tag k="ssr:stedsnr" v="586676" />
		<tag k="ssr:type" v="strandISjø" />
	</node>
	<node id="-187201" lat="67.7496555578" lon="12.753450009">
		<tag k="name" v="Yttersanden" />
		<tag k="natural" v="beach" />
		<tag k="place" v="locality" />
		<tag k="ssr:date" v="2016-05-10" />
		<tag k="ssr:gruppe" v="kystkontur" />
		<tag k="ssr:hovedgruppe" v="sjø" />
		<tag k="ssr:stedsnr" v="586674" />
		<tag k="ssr:type" v="strandISjø" />
	</node>
	<node id="-187200" lat="67.749044444" lon="12.754099994">
		<tag k="name" v="Ramnhågen" />
		<tag k="natural" v="hill" />
		<tag k="place" v="locality" />
		<tag k="ssr:date" v="2016-05-10" />
		<tag k="ssr:gruppe" v="høyder" />
		<tag k="ssr:hovedgruppe" v="terreng" />
		<tag k="ssr:stedsnr" v="586673" />
		<tag k="ssr:type" v="haug" />
	</node>
	<node id="-187199" lat="67.6547222242" lon="12.6510722264">
		<tag k="name" v="Skathalsen" />
		<tag k="natural" v="valley" />
		<tag k="place" v="locality" />
		<tag k="ssr:date" v="2016-05-10" />
		<tag k="ssr:gruppe" v="senkninger" />
		<tag k="ssr:hovedgruppe" v="terreng" />
		<tag k="ssr:stedsnr" v="586659" />
		<tag k="ssr:type" v="skar" />
	</node>
	<node id="-187198" lat="67.7415083309" lon="12.748361104">
		<tag k="name" v="Sørsanden" />
		<tag k="natural" v="beach" />
		<tag k="place" v="locality" />
		<tag k="ssr:date" v="2016-05-10" />
		<tag k="ssr:gruppe" v="kystkontur" />
		<tag k="ssr:hovedgruppe" v="sjø" />
		<tag k="ssr:stedsnr" v="586596" />
		<tag k="ssr:type" v="strandISjø" />
	</node>
	<node id="-187197" lat="67.6657750012" lon="12.6514583347">
		<tag k="name" v="Hagmolla" />
		<tag k="place" v="locality" />
		<tag k="ssr:date" v="2016-05-10" />
		<tag k="ssr:gruppe" v="flater" />
		<tag k="ssr:hovedgruppe" v="terreng" />
		<tag k="ssr:stedsnr" v="585696" />
		<tag k="ssr:type" v="mo" />
	</node>
	<node id="-187196" lat="67.671347219" lon="12.6296833298">
		<tag k="name" v="Saubønnan" />
		<tag k="natural" v="slope" />
		<tag k="place" v="locality" />
		<tag k="ssr:date" v="2016-05-10" />
		<tag k="ssr:gruppe" v="skråninger" />
		<tag k="ssr:hovedgruppe" v="terreng" />
		<tag k="ssr:stedsnr" v="585683" />
		<tag k="ssr:type" v="li" />
	</node>
	<node id="-187195" lat="67.7430583303" lon="12.606366658">
		<tag k="name" v="Nordhandtaren" />
		<tag k="natural" v="shoal" />
		<tag k="place" v="locality" />
		<tag k="ssr:date" v="2016-05-10" />
		<tag k="ssr:gruppe" v="grunnerISjø" />
		<tag k="ssr:hovedgruppe" v="sjø" />
		<tag k="ssr:stedsnr" v="562327" />
		<tag k="ssr:type" v="grunneISjø" />
	</node>
	<node id="-187194" lat="67.6458027799" lon="12.6543972275">
		<tag k="fixme" v="consider seamark:type=rock or natural=shoal" />
		<tag k="name" v="Delskjeran" />
		<tag k="place" v="islet" />
		<tag k="ssr:date" v="2016-05-10" />
		<tag k="ssr:gruppe" v="grunnerISjø" />
		<tag k="ssr:hovedgruppe" v="sjø" />
		<tag k="ssr:stedsnr" v="561399" />
		<tag k="ssr:type" v="skjærISjø" />
	</node>
	<node id="-187193" lat="67.735588892" lon="12.6534638873">
		<tag k="name" v="Sørleia" />
		<tag k="natural" v="strait" />
		<tag k="ssr:date" v="2016-05-10" />
		<tag k="ssr:gruppe" v="kystkontur" />
		<tag k="ssr:hovedgruppe" v="sjø" />
		<tag k="ssr:stedsnr" v="561342" />
		<tag k="ssr:type" v="sundISjø" />
	</node>
	<node id="-187192" lat="67.6616277788" lon="12.5790694381">
		<tag k="name" v="Fløa" />
		<tag k="natural" v="shoal" />
		<tag k="place" v="locality" />
		<tag k="ssr:date" v="2016-05-10" />
		<tag k="ssr:gruppe" v="grunnerISjø" />
		<tag k="ssr:hovedgruppe" v="sjø" />
		<tag k="ssr:stedsnr" v="561389" />
		<tag k="ssr:type" v="grunneISjø" />
	</node>
	<node id="-187191" lat="67.6121055562" lon="12.5584388852">
		<tag k="name" v="Veltan" />
		<tag k="natural" v="shoal" />
		<tag k="place" v="locality" />
		<tag k="ssr:date" v="2016-05-10" />
		<tag k="ssr:gruppe" v="grunnerISjø" />
		<tag k="ssr:hovedgruppe" v="sjø" />
		<tag k="ssr:stedsnr" v="533642" />
		<tag k="ssr:type" v="grunneISjø" />
	</node>
	<node id="-187190" lat="67.646161111" lon="12.5651916581">
		<tag k="name" v="Krykkjebakkan" />
		<tag k="natural" v="slope" />
		<tag k="place" v="locality" />
		<tag k="ssr:date" v="2016-05-10" />
		<tag k="ssr:gruppe" v="skråninger" />
		<tag k="ssr:hovedgruppe" v="terreng" />
		<tag k="ssr:stedsnr" v="526795" />
		<tag k="ssr:type" v="bakke" />
	</node>
	<node id="-187189" lat="67.6939083335" lon="12.7174388994">
		<tag k="name" v="Ebergan" />
		<tag k="natural" v="hill" />
		<tag k="place" v="locality" />
		<tag k="ssr:date" v="2016-05-10" />
		<tag k="ssr:gruppe" v="høyder" />
		<tag k="ssr:hovedgruppe" v="terreng" />
		<tag k="ssr:stedsnr" v="526696" />
		<tag k="ssr:type" v="berg" />
	</node>
	<node id="-187188" lat="67.7461416688" lon="12.74010278">
		<tag k="fixme" v="consider seamark:type=rock or natural=shoal" />
		<tag k="name" v="Steffenliskjeret" />
		<tag k="place" v="islet" />
		<tag k="ssr:date" v="2016-05-10" />
		<tag k="ssr:gruppe" v="grunnerISjø" />
		<tag k="ssr:hovedgruppe" v="sjø" />
		<tag k="ssr:stedsnr" v="526690" />
		<tag k="ssr:type" v="skjærISjø" />
	</node>
	<node id="-187187" lat="67.7460805592" lon="12.7454833325">
		<tag k="name" v="Steffenlia" />
		<tag k="natural" v="slope" />
		<tag k="place" v="locality" />
		<tag k="ssr:date" v="2016-05-10" />
		<tag k="ssr:gruppe" v="skråninger" />
		<tag k="ssr:hovedgruppe" v="terreng" />
		<tag k="ssr:stedsnr" v="526689" />
		<tag k="ssr:type" v="li" />
	</node>
	<node id="-187186" lat="67.6555111084" lon="12.6847916726">
		<tag k="name" v="Grindvika" />
		<tag k="natural" v="bay" />
		<tag k="ssr:date" v="2016-05-10" />
		<tag k="ssr:gruppe" v="kystkontur" />
		<tag k="ssr:hovedgruppe" v="sjø" />
		<tag k="ssr:stedsnr" v="526666" />
		<tag k="ssr:type" v="vikISjø" />
	</node>
	<node id="-187185" lat="67.6528861109" lon="12.7226861037">
		<tag k="name" v="Langodden" />
		<tag k="natural" v="cape" />
		<tag k="ssr:date" v="2016-05-10" />
		<tag k="ssr:gruppe" v="kystkontur" />
		<tag k="ssr:hovedgruppe" v="sjø" />
		<tag k="ssr:stedsnr" v="526653" />
		<tag k="ssr:type" v="nesISjø" />
	</node>
	<node id="-187184" lat="67.6892527803" lon="12.6998694501">
		<tag k="fixme" v="consider natural=peak for the most distinct mountains in the district" />
		<tag k="name" v="Nordlandsaksla" />
		<tag k="natural" v="hill" />
		<tag k="place" v="locality" />
		<tag k="ssr:date" v="2016-05-10" />
		<tag k="ssr:gruppe" v="høyder" />
		<tag k="ssr:hovedgruppe" v="terreng" />
		<tag k="ssr:stedsnr" v="524696" />
		<tag k="ssr:type" v="fjell" />
	</node>
	<node id="-187183" lat="67.6678861135" lon="12.6721055446">
		<tag k="name" v="Austervågen" />
		<tag k="natural" v="bay" />
		<tag k="ssr:date" v="2016-05-10" />
		<tag k="ssr:gruppe" v="kystkontur" />
		<tag k="ssr:hovedgruppe" v="sjø" />
		<tag k="ssr:stedsnr" v="524690" />
		<tag k="ssr:type" v="vikISjø" />
	</node>
	<node id="-187182" lat="67.664158331" lon="12.6173138925">
		<tag k="name" v="Hundsloppan" />
		<tag k="natural" v="slope" />
		<tag k="place" v="locality" />
		<tag k="ssr:date" v="2016-05-10" />
		<tag k="ssr:gruppe" v="skråninger" />
		<tag k="ssr:hovedgruppe" v="terreng" />
		<tag k="ssr:stedsnr" v="524679" />
		<tag k="ssr:type" v="li" />
	</node>
	<node id="-187181" lat="67.686213893" lon="12.7210416572">
		<tag k="fixme" v="consider seamark:type=rock or natural=shoal" />
		<tag k="name" v="Teisthammarskjeran" />
		<tag k="place" v="islet" />
		<tag k="ssr:date" v="2016-05-10" />
		<tag k="ssr:gruppe" v="grunnerISjø" />
		<tag k="ssr:hovedgruppe" v="sjø" />
		<tag k="ssr:stedsnr" v="524646" />
		<tag k="ssr:type" v="skjærISjø" />
	</node>
	<node id="-187180" lat="67.6730777814" lon="12.6761722123">
		<tag k="name" v="Marka" />
		<tag k="place" v="locality" />
		<tag k="ssr:date" v="2016-05-10" />
		<tag k="ssr:gruppe" v="dyrkamark" />
		<tag k="ssr:hovedgruppe" v="markslag" />
		<tag k="ssr:stedsnr" v="524639" />
		<tag k="ssr:type" v="utmark" />
	</node>
	<node id="-187179" lat="67.6723750006" lon="12.6503750088">
		<tag k="name" v="Bjørka" />
		<tag k="natural" v="slope" />
		<tag k="place" v="locality" />
		<tag k="ssr:date" v="2016-05-10" />
		<tag k="ssr:gruppe" v="skråninger" />
		<tag k="ssr:hovedgruppe" v="terreng" />
		<tag k="ssr:stedsnr" v="524635" />
		<tag k="ssr:type" v="li" />
	</node>
	<node id="-187178" lat="67.6437861088" lon="12.5479916632">
		<tag k="name" v="Eldbåen" />
		<tag k="place" v="locality" />
		<tag k="seamark:type" v="rock" />
		<tag k="ssr:date" v="2016-05-10" />
		<tag k="ssr:gruppe" v="grunnerISjø" />
		<tag k="ssr:hovedgruppe" v="sjø" />
		<tag k="ssr:stedsnr" v="412572" />
		<tag k="ssr:type" v="båeISjø" />
	</node>
	<node id="-187177" lat="67.6487416656" lon="12.5642638991">
		<tag k="fixme" v="consider seamark:type=rock or natural=shoal" />
		<tag k="name" v="Sjøbakken" />
		<tag k="place" v="islet" />
		<tag k="ssr:date" v="2016-05-10" />
		<tag k="ssr:gruppe" v="grunnerISjø" />
		<tag k="ssr:hovedgruppe" v="sjø" />
		<tag k="ssr:stedsnr" v="412570" />
		<tag k="ssr:type" v="skjærISjø" />
	</node>
	<node id="-187176" lat="67.6529888885" lon="12.7352444341">
		<tag k="name" v="Langflua" />
		<tag k="natural" v="shoal" />
		<tag k="place" v="locality" />
		<tag k="ssr:date" v="2016-05-10" />
		<tag k="ssr:gruppe" v="grunnerISjø" />
		<tag k="ssr:hovedgruppe" v="sjø" />
		<tag k="ssr:stedsnr" v="411628" />
		<tag k="ssr:type" v="grunneISjø" />
	</node>
	<node id="-187175" lat="67.6374305525" lon="12.693941673">
		<tag k="name" v="Littjsundet" />
		<tag k="natural" v="strait" />
		<tag k="ssr:date" v="2016-05-10" />
		<tag k="ssr:gruppe" v="kystkontur" />
		<tag k="ssr:hovedgruppe" v="sjø" />
		<tag k="ssr:stedsnr" v="405835" />
		<tag k="ssr:type" v="sundISjø" />
	</node>
	<node id="-187174" lat="67.6856638912" lon="12.6638527669">
		<tag k="name" v="Sandhausan" />
		<tag k="natural" v="hill" />
		<tag k="place" v="locality" />
		<tag k="ssr:date" v="2016-05-10" />
		<tag k="ssr:gruppe" v="høyder" />
		<tag k="ssr:hovedgruppe" v="terreng" />
		<tag k="ssr:stedsnr" v="405747" />
		<tag k="ssr:type" v="haug" />
	</node>
	<node id="-187173" lat="67.6632416635" lon="12.6996249941">
		<tag k="name" v="Langholmen" />
		<tag k="natural" v="cape" />
		<tag k="ssr:date" v="2016-05-10" />
		<tag k="ssr:gruppe" v="kystkontur" />
		<tag k="ssr:hovedgruppe" v="sjø" />
		<tag k="ssr:stedsnr" v="405686" />
		<tag k="ssr:type" v="nesISjø" />
	</node>
	<node id="-187172" lat="67.6570749989" lon="12.6413111158">
		<tag k="name" v="Nesan" />
		<tag k="natural" v="slope" />
		<tag k="place" v="locality" />
		<tag k="ssr:date" v="2016-05-10" />
		<tag k="ssr:gruppe" v="skråninger" />
		<tag k="ssr:hovedgruppe" v="terreng" />
		<tag k="ssr:stedsnr" v="405682" />
		<tag k="ssr:type" v="li" />
	</node>
	<node id="-187171" lat="67.7847249995" lon="12.8052194387">
		<tag k="name" v="Høgholmen" />
		<tag k="place" v="islet" />
		<tag k="ssr:date" v="2016-05-10" />
		<tag k="ssr:gruppe" v="kystkontur" />
		<tag k="ssr:hovedgruppe" v="sjø" />
		<tag k="ssr:stedsnr" v="381082" />
		<tag k="ssr:type" v="holmeISjø" />
	</node>
	<node id="-187170" lat="67.5941194477" lon="12.5124194438">
		<tag k="name" v="Møkkelgarden" />
		<tag k="natural" v="shoal" />
		<tag k="place" v="locality" />
		<tag k="ssr:date" v="2016-05-10" />
		<tag k="ssr:gruppe" v="grunnerISjø" />
		<tag k="ssr:hovedgruppe" v="sjø" />
		<tag k="ssr:stedsnr" v="380449" />
		<tag k="ssr:type" v="grunneISjø" />
	</node>
	<node id="-187169" lat="67.6135361077" lon="12.642919448">
		<tag k="name" v="Eirgrunnen" />
		<tag k="natural" v="shoal" />
		<tag k="place" v="locality" />
		<tag k="ssr:date" v="2016-05-10" />
		<tag k="ssr:gruppe" v="grunnerISjø" />
		<tag k="ssr:hovedgruppe" v="sjø" />
		<tag k="ssr:stedsnr" v="380441" />
		<tag k="ssr:type" v="grunneISjø" />
	</node>
	<node id="-187168" lat="67.6334138879" lon="12.58472501">
		<tag k="name" v="Stakk" />
		<tag k="natural" v="cape" />
		<tag k="ssr:date" v="2016-05-10" />
		<tag k="ssr:gruppe" v="kystkontur" />
		<tag k="ssr:hovedgruppe" v="sjø" />
		<tag k="ssr:stedsnr" v="380437" />
		<tag k="ssr:type" v="nesISjø" />
	</node>
	<node id="-187167" lat="67.6521305528" lon="12.6481944476">
		<tag k="fixme" v="multiple name tags, choose one and add the other to alt_name; consider natural=peak for the most distinct mountains in the district" />
		<tag k="name" v="Nupen;Nuphetta" />
		<tag k="natural" v="hill" />
		<tag k="place" v="locality" />
		<tag k="ssr:date" v="2016-05-10" />
		<tag k="ssr:gruppe" v="høyder" />
		<tag k="ssr:hovedgruppe" v="terreng" />
		<tag k="ssr:stedsnr" v="380419" />
		<tag k="ssr:type" v="ås" />
	</node>
	<node id="-187166" lat="67.648227779" lon="12.6782999892">
		<tag k="name" v="Rognan" />
		<tag k="place" v="islet" />
		<tag k="ssr:date" v="2016-05-10" />
		<tag k="ssr:gruppe" v="kystkontur" />
		<tag k="ssr:hovedgruppe" v="sjø" />
		<tag k="ssr:stedsnr" v="380409" />
		<tag k="ssr:type" v="holmegruppeISjø" />
	</node>
	<node id="-187165" lat="67.6575166694" lon="12.5854444346">
		<tag k="alt_name" v="Kalkluomnan" />
		<tag k="name" v="Kalkomnan" />
		<tag k="natural" v="cape" />
		<tag k="ssr:date" v="2016-05-10" />
		<tag k="ssr:gruppe" v="kystkontur" />
		<tag k="ssr:hovedgruppe" v="sjø" />
		<tag k="ssr:stedsnr" v="380391" />
		<tag k="ssr:type" v="nesISjø" />
	</node>
	<node id="-187164" lat="67.664911107" lon="12.7134027798">
		<tag k="fixme" v="consider natural=peak for the most distinct mountains in the district" />
		<tag k="name" v="Litlmelen" />
		<tag k="natural" v="hill" />
		<tag k="place" v="locality" />
		<tag k="ssr:date" v="2016-05-10" />
		<tag k="ssr:gruppe" v="høyder" />
		<tag k="ssr:hovedgruppe" v="terreng" />
		<tag k="ssr:stedsnr" v="380384" />
		<tag k="ssr:type" v="ås" />
	</node>
	<node id="-187163" lat="67.7457777759" lon="12.7554305443">
		<tag k="name" v="Mosken" />
		<tag k="place" v="island" />
		<tag k="ssr:date" v="2016-05-10" />
		<tag k="ssr:gruppe" v="kystkontur" />
		<tag k="ssr:hovedgruppe" v="sjø" />
		<tag k="ssr:stedsnr" v="380357" />
		<tag k="ssr:type" v="øyISjø" />
	</node>
	<node id="-187162" lat="67.6673444482" lon="12.7030250007">
		<tag k="fixme" v="consider natural=peak for the most distinct mountains in the district" />
		<tag k="name" v="Gångskårtinden" />
		<tag k="natural" v="hill" />
		<tag k="place" v="locality" />
		<tag k="ssr:date" v="2016-05-10" />
		<tag k="ssr:gruppe" v="høyder" />
		<tag k="ssr:hovedgruppe" v="terreng" />
		<tag k="ssr:stedsnr" v="379371" />
		<tag k="ssr:type" v="ås" />
	</node>
	<node id="-187161" lat="67.6862333304" lon="12.687911106">
		<tag k="fixme" v="consider natural=peak for the most distinct mountains in the district" />
		<tag k="name" v="Ånhammaren" />
		<tag k="natural" v="hill" />
		<tag k="place" v="locality" />
		<tag k="ssr:date" v="2016-05-10" />
		<tag k="ssr:gruppe" v="høyder" />
		<tag k="ssr:hovedgruppe" v="terreng" />
		<tag k="ssr:stedsnr" v="379358" />
		<tag k="ssr:type" v="ås" />
	</node>
	<node id="-187160" lat="67.6879833321" lon="12.6780222143">
		<tag k="fixme" v="multiple name tags, choose one and add the other to alt_name" />
		<tag k="name" v="Hagen;Nordlandshagen" />
		<tag k="place" v="locality" />
		<tag k="ssr:date" v="2016-05-10" />
		<tag k="ssr:gruppe" v="terrengdetaljer" />
		<tag k="ssr:hovedgruppe" v="terreng" />
		<tag k="ssr:stedsnr" v="379346" />
		<tag k="ssr:type" v="annenTerrengdetalj" />
	</node>
	<node id="-187159" lat="67.7237583359" lon="12.5254722156">
		<tag k="name" v="Slettgjerdskallen" />
		<tag k="natural" v="shoal" />
		<tag k="place" v="locality" />
		<tag k="ssr:date" v="2016-05-10" />
		<tag k="ssr:gruppe" v="grunnerISjø" />
		<tag k="ssr:hovedgruppe" v="sjø" />
		<tag k="ssr:stedsnr" v="379340" />
		<tag k="ssr:type" v="grunneISjø" />
	</node>
	<node id="-187158" lat="67.6761027773" lon="12.6320861019">
		<tag k="name" v="Høystøsteinan" />
		<tag k="natural" v="scree" />
		<tag k="ssr:date" v="2016-05-10" />
		<tag k="ssr:gruppe" v="løsmasseavsetninger" />
		<tag k="ssr:hovedgruppe" v="markslag" />
		<tag k="ssr:stedsnr" v="344755" />
		<tag k="ssr:type" v="ur" />
	</node>
	<node id="-187157" lat="67.7511527782" lon="12.7533777822">
		<tag k="name" v="Steinberget" />
		<tag k="natural" v="hill" />
		<tag k="place" v="locality" />
		<tag k="ssr:date" v="2016-05-10" />
		<tag k="ssr:gruppe" v="høyder" />
		<tag k="ssr:hovedgruppe" v="terreng" />
		<tag k="ssr:stedsnr" v="344697" />
		<tag k="ssr:type" v="berg" />
	</node>
	<node id="-187156" lat="67.6807638909" lon="12.6328916778">
		<tag k="name" v="Høgholmen" />
		<tag k="natural" v="shoal" />
		<tag k="place" v="locality" />
		<tag k="ssr:date" v="2016-05-10" />
		<tag k="ssr:gruppe" v="grunnerISjø" />
		<tag k="ssr:hovedgruppe" v="sjø" />
		<tag k="ssr:stedsnr" v="344750" />
		<tag k="ssr:type" v="grunneISjø" />
	</node>
	<node id="-187155" lat="67.6662555581" lon="12.7013611062">
		<tag k="name" v="Sponga" />
		<tag k="place" v="farm" />
		<tag k="ssr:date" v="2016-05-10" />
		<tag k="ssr:gruppe" v="gardsbebyggelse" />
		<tag k="ssr:hovedgruppe" v="bebyggelse" />
		<tag k="ssr:stedsnr" v="344670" />
		<tag k="ssr:type" v="bruk" />
	</node>
	<node id="-187154" lat="67.658625004" lon="12.6835416773">
		<tag k="name" v="Bensvika" />
		<tag k="natural" v="bay" />
		<tag k="ssr:date" v="2016-05-10" />
		<tag k="ssr:gruppe" v="kystkontur" />
		<tag k="ssr:hovedgruppe" v="sjø" />
		<tag k="ssr:stedsnr" v="344668" />
		<tag k="ssr:type" v="vikISjø" />
	</node>
	<node id="-187153" lat="67.6665944439" lon="12.6823333283">
		<tag k="name" v="Sprengern" />
		<tag k="natural" v="cape" />
		<tag k="ssr:date" v="2016-05-10" />
		<tag k="ssr:gruppe" v="kystkontur" />
		<tag k="ssr:hovedgruppe" v="sjø" />
		<tag k="ssr:stedsnr" v="342670" />
		<tag k="ssr:type" v="nesISjø" />
	</node>
	<node id="-187152" lat="67.7402861141" lon="12.6874333394">
		<tag k="name" v="Breidsundet" />
		<tag k="natural" v="strait" />
		<tag k="ssr:date" v="2016-05-10" />
		<tag k="ssr:gruppe" v="kystkontur" />
		<tag k="ssr:hovedgruppe" v="sjø" />
		<tag k="ssr:stedsnr" v="320345" />
		<tag k="ssr:type" v="sundISjø" />
	</node>
	<node id="-187151" lat="67.6211749986" lon="12.6706638807">
		<tag k="alt_name" v="Moskenskallen" />
		<tag k="name" v="Moskeskallen" />
		<tag k="natural" v="shoal" />
		<tag k="place" v="locality" />
		<tag k="ssr:date" v="2016-05-10" />
		<tag k="ssr:gruppe" v="grunnerISjø" />
		<tag k="ssr:hovedgruppe" v="sjø" />
		<tag k="ssr:stedsnr" v="319417" />
		<tag k="ssr:type" v="grunneISjø" />
	</node>
	<node id="-187150" lat="67.5996944425" lon="12.507574993">
		<tag k="name" v="Brandsgrunnen" />
		<tag k="natural" v="shoal" />
		<tag k="place" v="locality" />
		<tag k="ssr:date" v="2016-05-10" />
		<tag k="ssr:gruppe" v="grunnerISjø" />
		<tag k="ssr:hovedgruppe" v="sjø" />
		<tag k="ssr:stedsnr" v="319410" />
		<tag k="ssr:type" v="grunneISjø" />
	</node>
	<node id="-187149" lat="67.6339888882" lon="12.5674611096">
		<tag k="fixme" v="consider seamark:type=rock or natural=shoal" />
		<tag k="name" v="Koppskjeret" />
		<tag k="place" v="islet" />
		<tag k="ssr:date" v="2016-05-10" />
		<tag k="ssr:gruppe" v="grunnerISjø" />
		<tag k="ssr:hovedgruppe" v="sjø" />
		<tag k="ssr:stedsnr" v="319395" />
		<tag k="ssr:type" v="skjærISjø" />
	</node>
	<node id="-187148" lat="67.6383416657" lon="12.6950333384">
		<tag k="name" v="Kvalnesodden" />
		<tag k="natural" v="cape" />
		<tag k="ssr:date" v="2016-05-10" />
		<tag k="ssr:gruppe" v="kystkontur" />
		<tag k="ssr:hovedgruppe" v="sjø" />
		<tag k="ssr:stedsnr" v="319386" />
		<tag k="ssr:type" v="nesISjø" />
	</node>
	<node id="-187147" lat="67.6333722265" lon="12.5911777733">
		<tag k="name" v="Stakkhalsen" />
		<tag k="natural" v="valley" />
		<tag k="place" v="locality" />
		<tag k="ssr:date" v="2016-05-10" />
		<tag k="ssr:gruppe" v="senkninger" />
		<tag k="ssr:hovedgruppe" v="terreng" />
		<tag k="ssr:stedsnr" v="319381" />
		<tag k="ssr:type" v="skar" />
	</node>
	<node id="-187146" lat="67.6547916694" lon="12.7268166667">
		<tag k="name" v="Tabbisodden" />
		<tag k="natural" v="cape" />
		<tag k="ssr:date" v="2016-05-10" />
		<tag k="ssr:gruppe" v="kystkontur" />
		<tag k="ssr:hovedgruppe" v="sjø" />
		<tag k="ssr:stedsnr" v="319369" />
		<tag k="ssr:type" v="nesISjø" />
	</node>
	<node id="-187145" lat="67.6605055561" lon="12.6148749976">
		<tag k="alt_name" v="Littjhåen" />
		<tag k="name" v="Litlhåen" />
		<tag k="natural" v="hill" />
		<tag k="place" v="locality" />
		<tag k="ssr:date" v="2016-05-10" />
		<tag k="ssr:gruppe" v="høyder" />
		<tag k="ssr:hovedgruppe" v="terreng" />
		<tag k="ssr:stedsnr" v="319367" />
		<tag k="ssr:type" v="haug" />
	</node>
	<node id="-187144" lat="67.6606249993" lon="12.6404361071">
		<tag k="fixme" v="multiple name tags, choose one and add the other to alt_name; consider natural=peak for the most distinct mountains in the district" />
		<tag k="name" v="Kamheia;Skamheia" />
		<tag k="natural" v="hill" />
		<tag k="place" v="locality" />
		<tag k="ssr:date" v="2016-05-10" />
		<tag k="ssr:gruppe" v="høyder" />
		<tag k="ssr:hovedgruppe" v="terreng" />
		<tag k="ssr:stedsnr" v="319365" />
		<tag k="ssr:type" v="ås" />
	</node>
	<node id="-187143" lat="67.665241667" lon="12.7418750059">
		<tag k="name" v="Hallbåen" />
		<tag k="natural" v="shoal" />
		<tag k="place" v="locality" />
		<tag k="ssr:date" v="2016-05-10" />
		<tag k="ssr:gruppe" v="grunnerISjø" />
		<tag k="ssr:hovedgruppe" v="sjø" />
		<tag k="ssr:stedsnr" v="319361" />
		<tag k="ssr:type" v="grunneISjø" />
	</node>
	<node id="-187141" lat="67.7114944414" lon="12.6807111143">
		<tag k="name" v="Stabben" />
		<tag k="natural" v="shoal" />
		<tag k="place" v="locality" />
		<tag k="ssr:date" v="2016-05-10" />
		<tag k="ssr:gruppe" v="grunnerISjø" />
		<tag k="ssr:hovedgruppe" v="sjø" />
		<tag k="ssr:stedsnr" v="319343" />
		<tag k="ssr:type" v="grunneISjø" />
	</node>
	<node id="-187140" lat="67.7282694421" lon="12.644133344">
		<tag k="fixme" v="consider seamark:type=rock or natural=shoal" />
		<tag k="name" v="Småskjeran" />
		<tag k="place" v="islet" />
		<tag k="ssr:date" v="2016-05-10" />
		<tag k="ssr:gruppe" v="grunnerISjø" />
		<tag k="ssr:hovedgruppe" v="sjø" />
		<tag k="ssr:stedsnr" v="319338" />
		<tag k="ssr:type" v="skjærISjø" />
	</node>
	<node id="-187138" lat="67.5750500024" lon="12.4399861089">
		<tag k="name" v="Røsthavet" />
		<tag k="place" v="sea" />
		<tag k="ssr:date" v="2019-12-27" />
		<tag k="ssr:gruppe" v="farvann" />
		<tag k="ssr:hovedgruppe" v="sjø" />
		<tag k="ssr:stedsnr" v="198400" />
		<tag k="ssr:type" v="havområde" />
	</node>
	<node id="-187137" lat="67.6145194483" lon="12.6125333335">
		<tag k="name" v="Torbåan" />
		<tag k="natural" v="shoal" />
		<tag k="place" v="locality" />
		<tag k="ssr:date" v="2016-05-10" />
		<tag k="ssr:gruppe" v="grunnerISjø" />
		<tag k="ssr:hovedgruppe" v="sjø" />
		<tag k="ssr:stedsnr" v="198395" />
		<tag k="ssr:type" v="grunneISjø" />
	</node>
	<node id="-187136" lat="67.6527305597" lon="12.6178083446">
		<tag k="alt_name" v="Måstadbukta" />
		<tag k="name" v="Måstadvika" />
		<tag k="natural" v="bay" />
		<tag k="ssr:date" v="2016-05-10" />
		<tag k="ssr:gruppe" v="kystkontur" />
		<tag k="ssr:hovedgruppe" v="sjø" />
		<tag k="ssr:stedsnr" v="198372" />
		<tag k="ssr:type" v="vikISjø" />
	</node>
	<node id="-187135" lat="67.6482138876" lon="12.5950638854">
		<tag k="fixme" v="multiple name tags, choose one and add the other to alt_name" />
		<tag k="name" v="Oterberget;Storhaugen" />
		<tag k="natural" v="hill" />
		<tag k="place" v="locality" />
		<tag k="ssr:date" v="2016-05-10" />
		<tag k="ssr:gruppe" v="høyder" />
		<tag k="ssr:hovedgruppe" v="terreng" />
		<tag k="ssr:stedsnr" v="198369" />
		<tag k="ssr:type" v="haug" />
	</node>
	<node id="-187134" lat="67.6514222203" lon="12.6526055526">
		<tag k="name" v="Nupsneset" />
		<tag k="natural" v="cape" />
		<tag k="ssr:date" v="2016-05-10" />
		<tag k="ssr:gruppe" v="kystkontur" />
		<tag k="ssr:hovedgruppe" v="sjø" />
		<tag k="ssr:stedsnr" v="198366" />
		<tag k="ssr:type" v="nesISjø" />
	</node>
	<node id="-187133" lat="67.6485638872" lon="12.6982055489">
		<tag k="fixme" v="consider natural=peak for the most distinct mountains in the district" />
		<tag k="name" v="Sålbotstinden" />
		<tag k="natural" v="hill" />
		<tag k="place" v="locality" />
		<tag k="ssr:date" v="2016-05-10" />
		<tag k="ssr:gruppe" v="høyder" />
		<tag k="ssr:hovedgruppe" v="terreng" />
		<tag k="ssr:stedsnr" v="198363" />
		<tag k="ssr:type" v="ås" />
	</node>
	<node id="-187132" lat="67.6426777799" lon="12.5711361">
		<tag k="alt_name" v="Rødlii;Rødlibergan" />
		<tag k="name" v="Røliberget" />
		<tag k="natural" v="hill" />
		<tag k="place" v="locality" />
		<tag k="ssr:date" v="2016-05-10" />
		<tag k="ssr:gruppe" v="høyder" />
		<tag k="ssr:hovedgruppe" v="terreng" />
		<tag k="ssr:stedsnr" v="198360" />
		<tag k="ssr:type" v="berg" />
	</node>
	<node id="-187131" lat="67.6625555534" lon="12.6139138833">
		<tag k="alt_name" v="Yttertussen" />
		<tag k="name" v="Ytretussen" />
		<tag k="natural" v="cape" />
		<tag k="ssr:date" v="2016-05-10" />
		<tag k="ssr:gruppe" v="kystkontur" />
		<tag k="ssr:hovedgruppe" v="sjø" />
		<tag k="ssr:stedsnr" v="198358" />
		<tag k="ssr:type" v="nesISjø" />
	</node>
	<node id="-187130" lat="67.7378555552" lon="12.7560944485">
		<tag k="fixme" v="consider seamark:type=rock or natural=shoal" />
		<tag k="name" v="Migskjeret" />
		<tag k="place" v="islet" />
		<tag k="ssr:date" v="2016-05-10" />
		<tag k="ssr:gruppe" v="grunnerISjø" />
		<tag k="ssr:hovedgruppe" v="sjø" />
		<tag k="ssr:stedsnr" v="162636" />
		<tag k="ssr:type" v="skjærISjø" />
	</node>
	<node id="-187129" lat="67.7437416661" lon="12.752288893">
		<tag k="name" v="Dalen" />
		<tag k="natural" v="valley" />
		<tag k="place" v="locality" />
		<tag k="ssr:date" v="2016-05-10" />
		<tag k="ssr:gruppe" v="senkninger" />
		<tag k="ssr:hovedgruppe" v="terreng" />
		<tag k="ssr:stedsnr" v="162630" />
		<tag k="ssr:type" v="dal" />
	</node>
	<node id="-187128" lat="67.7402194399" lon="12.7648638933">
		<tag k="name" v="Austlimolla" />
		<tag k="natural" v="bay" />
		<tag k="ssr:date" v="2016-05-10" />
		<tag k="ssr:gruppe" v="kystkontur" />
		<tag k="ssr:hovedgruppe" v="sjø" />
		<tag k="ssr:stedsnr" v="162628" />
		<tag k="ssr:type" v="vikISjø" />
	</node>
	<node id="-187127" lat="67.6823388917" lon="12.6468527835">
		<tag k="name" v="Storura" />
		<tag k="natural" v="scree" />
		<tag k="ssr:date" v="2016-05-10" />
		<tag k="ssr:gruppe" v="løsmasseavsetninger" />
		<tag k="ssr:hovedgruppe" v="markslag" />
		<tag k="ssr:stedsnr" v="162748" />
		<tag k="ssr:type" v="ur" />
	</node>
	<node id="-187126" lat="67.6890972265" lon="12.709780559">
		<tag k="name" v="Stor-Andneven" />
		<tag k="natural" v="slope" />
		<tag k="place" v="locality" />
		<tag k="ssr:date" v="2016-05-10" />
		<tag k="ssr:gruppe" v="skråninger" />
		<tag k="ssr:hovedgruppe" v="terreng" />
		<tag k="ssr:stedsnr" v="160691" />
		<tag k="ssr:type" v="li" />
	</node>
	<node id="-187125" lat="67.6612222184" lon="12.6216694358">
		<tag k="name" v="Grotte" />
		<tag k="natural" v="cave_entrance" />
		<tag k="ssr:date" v="2016-05-10" />
		<tag k="ssr:gruppe" v="terrengdetaljer" />
		<tag k="ssr:hovedgruppe" v="terreng" />
		<tag k="ssr:stedsnr" v="160683" />
		<tag k="ssr:type" v="grotte" />
	</node>
	<node id="-187124" lat="67.6317277794" lon="12.5958027721">
		<tag k="alt_name" v="Måneset" />
		<tag k="name" v="Månesodden" />
		<tag k="natural" v="cape" />
		<tag k="ssr:date" v="2016-05-10" />
		<tag k="ssr:gruppe" v="kystkontur" />
		<tag k="ssr:hovedgruppe" v="sjø" />
		<tag k="ssr:stedsnr" v="137417" />
		<tag k="ssr:type" v="nesISjø" />
	</node>
	<node id="-187123" lat="67.6303805525" lon="12.5879055665">
		<tag k="fixme" v="consider seamark:type=rock or natural=shoal" />
		<tag k="name" v="Rubbelskjeret" />
		<tag k="place" v="islet" />
		<tag k="ssr:date" v="2016-05-10" />
		<tag k="ssr:gruppe" v="grunnerISjø" />
		<tag k="ssr:hovedgruppe" v="sjø" />
		<tag k="ssr:stedsnr" v="137414" />
		<tag k="ssr:type" v="skjærISjø" />
	</node>
	<node id="-187122" lat="67.6067555522" lon="12.5528111177">
		<tag k="name" v="Oddskallen" />
		<tag k="natural" v="shoal" />
		<tag k="place" v="locality" />
		<tag k="ssr:date" v="2016-05-10" />
		<tag k="ssr:gruppe" v="grunnerISjø" />
		<tag k="ssr:hovedgruppe" v="sjø" />
		<tag k="ssr:stedsnr" v="137404" />
		<tag k="ssr:type" v="grunneISjø" />
	</node>
	<node id="-187121" lat="67.6368805534" lon="12.6859638769">
		<tag k="name" v="Oksen" />
		<tag k="natural" v="shoal" />
		<tag k="place" v="locality" />
		<tag k="ssr:date" v="2016-05-10" />
		<tag k="ssr:gruppe" v="grunnerISjø" />
		<tag k="ssr:hovedgruppe" v="sjø" />
		<tag k="ssr:stedsnr" v="137392" />
		<tag k="ssr:type" v="grunneISjø" />
	</node>
	<node id="-187120" lat="67.635152778" lon="12.5883833225">
		<tag k="fixme" v="consider natural=peak for the most distinct mountains in the district" />
		<tag k="name" v="Måhornet" />
		<tag k="natural" v="hill" />
		<tag k="place" v="locality" />
		<tag k="ssr:date" v="2016-05-10" />
		<tag k="ssr:gruppe" v="høyder" />
		<tag k="ssr:hovedgruppe" v="terreng" />
		<tag k="ssr:stedsnr" v="137388" />
		<tag k="ssr:type" v="fjell" />
	</node>
	<node id="-187119" lat="67.654019447" lon="12.6477472258">
		<tag k="fixme" v="multiple name tags, choose one and add the other to alt_name; consider natural=peak for the most distinct mountains in the district" />
		<tag k="name" v="Høgtuva;Nupen" />
		<tag k="natural" v="hill" />
		<tag k="place" v="locality" />
		<tag k="ssr:date" v="2016-05-10" />
		<tag k="ssr:gruppe" v="høyder" />
		<tag k="ssr:hovedgruppe" v="terreng" />
		<tag k="ssr:stedsnr" v="137387" />
		<tag k="ssr:type" v="ås" />
	</node>
	<node id="-187118" lat="67.6615111123" lon="12.6003583336">
		<tag k="alt_name" v="Eidbukta;Eidebukta" />
		<tag k="name" v="Eidvika" />
		<tag k="natural" v="bay" />
		<tag k="ssr:date" v="2016-05-10" />
		<tag k="ssr:gruppe" v="kystkontur" />
		<tag k="ssr:hovedgruppe" v="sjø" />
		<tag k="ssr:stedsnr" v="137369" />
		<tag k="ssr:type" v="vikISjø" />
	</node>
	<node id="-187117" lat="67.6720277796" lon="12.757875011">
		<tag k="name" v="Rolflua" />
		<tag k="natural" v="shoal" />
		<tag k="place" v="locality" />
		<tag k="ssr:date" v="2016-05-10" />
		<tag k="ssr:gruppe" v="grunnerISjø" />
		<tag k="ssr:hovedgruppe" v="sjø" />
		<tag k="ssr:stedsnr" v="137363" />
		<tag k="ssr:type" v="grunneISjø" />
	</node>
	<node id="-187116" lat="67.6718250029" lon="12.6938499908">
		<tag k="name" v="Skardsurda" />
		<tag k="natural" v="scree" />
		<tag k="ssr:date" v="2016-05-10" />
		<tag k="ssr:gruppe" v="løsmasseavsetninger" />
		<tag k="ssr:hovedgruppe" v="markslag" />
		<tag k="ssr:stedsnr" v="137347" />
		<tag k="ssr:type" v="ur" />
	</node>
	<node id="-187115" lat="67.6820472216" lon="12.6910833429">
		<tag k="alt_name" v="Breiddalen" />
		<tag k="name" v="Breivikdalen" />
		<tag k="natural" v="valley" />
		<tag k="place" v="locality" />
		<tag k="ssr:date" v="2016-05-10" />
		<tag k="ssr:gruppe" v="senkninger" />
		<tag k="ssr:hovedgruppe" v="terreng" />
		<tag k="ssr:stedsnr" v="137343" />
		<tag k="ssr:type" v="dal" />
	</node>
	<node id="-187114" lat="67.6800805576" lon="12.6494388917">
		<tag k="name" v="Hornet" />
		<tag k="natural" v="hill" />
		<tag k="place" v="locality" />
		<tag k="ssr:date" v="2016-05-10" />
		<tag k="ssr:gruppe" v="høyder" />
		<tag k="ssr:hovedgruppe" v="terreng" />
		<tag k="ssr:stedsnr" v="137340" />
		<tag k="ssr:type" v="berg" />
	</node>
	<node id="-187113" lat="67.7429361118" lon="12.7128583429">
		<tag k="alt_name" v="Kullskjeran" />
		<tag k="fixme" v="consider seamark:type=rock or natural=shoal" />
		<tag k="name" v="Kolskjeran" />
		<tag k="place" v="islet" />
		<tag k="ssr:date" v="2016-05-10" />
		<tag k="ssr:gruppe" v="grunnerISjø" />
		<tag k="ssr:hovedgruppe" v="sjø" />
		<tag k="ssr:stedsnr" v="137332" />
		<tag k="ssr:type" v="skjærISjø" />
	</node>
	<node id="-187112" lat="67.7328222215" lon="12.7953499885">
		<tag k="name" v="Slåklakkskallen" />
		<tag k="natural" v="shoal" />
		<tag k="place" v="locality" />
		<tag k="ssr:date" v="2016-05-10" />
		<tag k="ssr:gruppe" v="grunnerISjø" />
		<tag k="ssr:hovedgruppe" v="sjø" />
		<tag k="ssr:stedsnr" v="137330" />
		<tag k="ssr:type" v="grunneISjø" />
	</node>
	<node id="-187111" lat="67.7456722249" lon="12.7554666645">
		<tag k="alt_name" v="Wilhelmstind" />
		<tag k="fixme" v="consider natural=peak for the most distinct mountains in the district" />
		<tag k="name" v="Wilhelmtinden" />
		<tag k="natural" v="hill" />
		<tag k="place" v="locality" />
		<tag k="ssr:date" v="2016-05-10" />
		<tag k="ssr:gruppe" v="høyder" />
		<tag k="ssr:hovedgruppe" v="terreng" />
		<tag k="ssr:stedsnr" v="137325" />
		<tag k="ssr:type" v="fjell" />
	</node>
	<node id="-187110" lat="67.7420194433" lon="12.7562749908">
		<tag k="name" v="Heia" />
		<tag k="natural" v="hill" />
		<tag k="place" v="locality" />
		<tag k="ssr:date" v="2016-05-10" />
		<tag k="ssr:gruppe" v="høyder" />
		<tag k="ssr:hovedgruppe" v="terreng" />
		<tag k="ssr:stedsnr" v="137324" />
		<tag k="ssr:type" v="haug" />
	</node>
	<node id="-187109" lat="67.740286115" lon="12.7802638806">
		<tag k="name" v="Austlibåan" />
		<tag k="natural" v="shoal" />
		<tag k="place" v="locality" />
		<tag k="ssr:date" v="2016-05-10" />
		<tag k="ssr:gruppe" v="grunnerISjø" />
		<tag k="ssr:hovedgruppe" v="sjø" />
		<tag k="ssr:stedsnr" v="108255" />
		<tag k="ssr:type" v="grunneISjø" />
	</node>
	<node id="-187107" lat="67.6314194403" lon="12.582286102">
		<tag k="name" v="Småleian" />
		<tag k="natural" v="bay" />
		<tag k="ssr:date" v="2016-05-10" />
		<tag k="ssr:gruppe" v="kystkontur" />
		<tag k="ssr:hovedgruppe" v="sjø" />
		<tag k="ssr:stedsnr" v="101769" />
		<tag k="ssr:type" v="vikISjø" />
	</node>
	<node id="-187106" lat="67.6350611097" lon="12.7028222206">
		<tag k="name" v="Breisundet" />
		<tag k="natural" v="strait" />
		<tag k="ssr:date" v="2016-05-10" />
		<tag k="ssr:gruppe" v="kystkontur" />
		<tag k="ssr:hovedgruppe" v="sjø" />
		<tag k="ssr:stedsnr" v="101721" />
		<tag k="ssr:type" v="sundISjø" />
	</node>
	<node id="-187105" lat="67.6978000001" lon="12.7217388832">
		<tag k="fixme" v="consider seamark:type=rock or natural=shoal" />
		<tag k="name" v="Jokkomskjeret" />
		<tag k="place" v="islet" />
		<tag k="ssr:date" v="2016-05-10" />
		<tag k="ssr:gruppe" v="grunnerISjø" />
		<tag k="ssr:hovedgruppe" v="sjø" />
		<tag k="ssr:stedsnr" v="101709" />
		<tag k="ssr:type" v="skjærISjø" />
	</node>
	<node id="-187104" lat="67.7572416623" lon="12.761533342">
		<tag k="name" v="Reinlian" />
		<tag k="natural" v="slope" />
		<tag k="place" v="locality" />
		<tag k="ssr:date" v="2016-05-10" />
		<tag k="ssr:gruppe" v="skråninger" />
		<tag k="ssr:hovedgruppe" v="terreng" />
		<tag k="ssr:stedsnr" v="101695" />
		<tag k="ssr:type" v="li" />
	</node>
	<node id="-187103" lat="67.7443944401" lon="12.7396555603">
		<tag k="name" v="Oterhollan" />
		<tag k="natural" v="bay" />
		<tag k="ssr:date" v="2016-05-10" />
		<tag k="ssr:gruppe" v="kystkontur" />
		<tag k="ssr:hovedgruppe" v="sjø" />
		<tag k="ssr:stedsnr" v="101683" />
		<tag k="ssr:type" v="vikISjø" />
	</node>
	<node id="-187102" lat="67.6599000038" lon="12.6932527745">
		<tag k="name" v="Grindvika" />
		<tag k="place" v="quarter" />
		<tag k="ssr:date" v="2016-05-10" />
		<tag k="ssr:gruppe" v="bebyggelsesområder" />
		<tag k="ssr:hovedgruppe" v="bebyggelse" />
		<tag k="ssr:stedsnr" v="101659" />
		<tag k="ssr:type" v="boligfelt" />
	</node>
	<node id="-187101" lat="67.652336108" lon="12.6506499897">
		<tag k="name" v="Nupsdalen" />
		<tag k="natural" v="valley" />
		<tag k="place" v="locality" />
		<tag k="ssr:date" v="2016-05-10" />
		<tag k="ssr:gruppe" v="senkninger" />
		<tag k="ssr:hovedgruppe" v="terreng" />
		<tag k="ssr:stedsnr" v="101649" />
		<tag k="ssr:type" v="dal" />
	</node>
	<node id="-187100" lat="67.656883331" lon="12.6981944364">
		<tag k="name" v="Tynesleina" />
		<tag k="place" v="locality" />
		<tag k="ssr:date" v="2016-05-10" />
		<tag k="ssr:gruppe" v="flater" />
		<tag k="ssr:hovedgruppe" v="terreng" />
		<tag k="ssr:stedsnr" v="101635" />
		<tag k="ssr:type" v="mo" />
	</node>
	<node id="-187099" lat="67.6600833377" lon="12.682077767">
		<tag k="name" v="Ramnberget" />
		<tag k="natural" v="hill" />
		<tag k="place" v="locality" />
		<tag k="ssr:date" v="2016-05-10" />
		<tag k="ssr:gruppe" v="høyder" />
		<tag k="ssr:hovedgruppe" v="terreng" />
		<tag k="ssr:stedsnr" v="100616" />
		<tag k="ssr:type" v="berg" />
	</node>
	<node id="-187098" lat="67.6870000015" lon="12.6992388853">
		<tag k="fixme" v="consider natural=peak for the most distinct mountains in the district" />
		<tag k="name" v="Breiviknupen" />
		<tag k="natural" v="hill" />
		<tag k="place" v="locality" />
		<tag k="ssr:date" v="2016-05-10" />
		<tag k="ssr:gruppe" v="høyder" />
		<tag k="ssr:hovedgruppe" v="terreng" />
		<tag k="ssr:stedsnr" v="100688" />
		<tag k="ssr:type" v="fjell" />
	</node>
	<node id="-187097" lat="67.6239999974" lon="12.6119333432">
		<tag k="name" v="Storfjellskallen" />
		<tag k="natural" v="shoal" />
		<tag k="place" v="locality" />
		<tag k="ssr:date" v="2016-05-10" />
		<tag k="ssr:gruppe" v="grunnerISjø" />
		<tag k="ssr:hovedgruppe" v="sjø" />
		<tag k="ssr:stedsnr" v="77444" />
		<tag k="ssr:type" v="grunneISjø" />
	</node>
	<node id="-187096" lat="67.6726472206" lon="12.4178805583">
		<tag k="name" v="Brunskallan" />
		<tag k="natural" v="shoal" />
		<tag k="place" v="locality" />
		<tag k="ssr:date" v="2016-05-10" />
		<tag k="ssr:gruppe" v="grunnerISjø" />
		<tag k="ssr:hovedgruppe" v="sjø" />
		<tag k="ssr:stedsnr" v="76392" />
		<tag k="ssr:type" v="grunneISjø" />
	</node>
	<node id="-187095" lat="67.6758638913" lon="12.7344361099">
		<tag k="name" v="Storholmen" />
		<tag k="place" v="islet" />
		<tag k="ssr:date" v="2016-05-10" />
		<tag k="ssr:gruppe" v="kystkontur" />
		<tag k="ssr:hovedgruppe" v="sjø" />
		<tag k="ssr:stedsnr" v="76389" />
		<tag k="ssr:type" v="holmeISjø" />
	</node>
	<node id="-187094" lat="67.6877666669" lon="12.7020444405">
		<tag k="alt_name" v="Nordlandsnubben" />
		<tag k="name" v="Nordlandsnupen" />
		<tag k="natural" v="hill" />
		<tag k="place" v="locality" />
		<tag k="ssr:date" v="2016-05-10" />
		<tag k="ssr:gruppe" v="høyder" />
		<tag k="ssr:hovedgruppe" v="terreng" />
		<tag k="ssr:stedsnr" v="76383" />
		<tag k="ssr:type" v="berg" />
	</node>
	<node id="-187093" lat="67.6839138881" lon="12.7011944413">
		<tag k="name" v="Børan" />
		<tag k="natural" v="hill" />
		<tag k="place" v="locality" />
		<tag k="ssr:date" v="2016-05-10" />
		<tag k="ssr:gruppe" v="høyder" />
		<tag k="ssr:hovedgruppe" v="terreng" />
		<tag k="ssr:stedsnr" v="76379" />
		<tag k="ssr:type" v="berg" />
	</node>
	<node id="-187092" lat="67.6963305528" lon="12.7264388899">
		<tag k="alt_name" v="Littj-Skarvskjeret" />
		<tag k="fixme" v="consider seamark:type=rock or natural=shoal" />
		<tag k="name" v="Litlskarvskjeret" />
		<tag k="place" v="islet" />
		<tag k="ssr:date" v="2016-05-10" />
		<tag k="ssr:gruppe" v="grunnerISjø" />
		<tag k="ssr:hovedgruppe" v="sjø" />
		<tag k="ssr:stedsnr" v="76374" />
		<tag k="ssr:type" v="skjærISjø" />
	</node>
	<node id="-187091" lat="67.693338885" lon="12.7032250048">
		<tag k="fixme" v="consider place=hamlet" />
		<tag k="name" v="Nordland" />
		<tag k="place" v="village" />
		<tag k="ssr:date" v="2016-05-10" />
		<tag k="ssr:gruppe" v="bebyggelsesområder" />
		<tag k="ssr:hovedgruppe" v="bebyggelse" />
		<tag k="ssr:stedsnr" v="76370" />
		<tag k="ssr:type" v="bygdelagBygd" />
	</node>
	<node id="-187090" lat="67.6388500006" lon="12.6004833241">
		<tag k="name" v="Litlkleiva" />
		<tag k="natural" v="slope" />
		<tag k="place" v="locality" />
		<tag k="ssr:date" v="2016-05-10" />
		<tag k="ssr:gruppe" v="skråninger" />
		<tag k="ssr:hovedgruppe" v="terreng" />
		<tag k="ssr:stedsnr" v="77436" />
		<tag k="ssr:type" v="bakke" />
	</node>
	<node id="-187089" lat="67.6476722195" lon="12.7525722277">
		<tag k="name" v="Grunnågskallen" />
		<tag k="natural" v="shoal" />
		<tag k="place" v="locality" />
		<tag k="ssr:date" v="2016-05-10" />
		<tag k="ssr:gruppe" v="grunnerISjø" />
		<tag k="ssr:hovedgruppe" v="sjø" />
		<tag k="ssr:stedsnr" v="77434" />
		<tag k="ssr:type" v="grunneISjø" />
	</node>
	<node id="-187088" lat="67.6531194412" lon="12.6413749957">
		<tag k="name" v="Nesan" />
		<tag k="natural" v="cape" />
		<tag k="ssr:date" v="2016-05-10" />
		<tag k="ssr:gruppe" v="kystkontur" />
		<tag k="ssr:hovedgruppe" v="sjø" />
		<tag k="ssr:stedsnr" v="77412" />
		<tag k="ssr:type" v="nesISjø" />
	</node>
	<node id="-187087" lat="67.6464833331" lon="12.5777722204">
		<tag k="fixme" v="multiple name tags, choose one and add the other to alt_name" />
		<tag k="name" v="Heia;Måstadheia" />
		<tag k="natural" v="slope" />
		<tag k="place" v="locality" />
		<tag k="ssr:date" v="2016-05-10" />
		<tag k="ssr:gruppe" v="skråninger" />
		<tag k="ssr:hovedgruppe" v="terreng" />
		<tag k="ssr:stedsnr" v="77405" />
		<tag k="ssr:type" v="li" />
	</node>
	<node id="-187086" lat="67.6282777756" lon="12.5422277787">
		<tag k="name" v="Brandsflua" />
		<tag k="natural" v="shoal" />
		<tag k="place" v="locality" />
		<tag k="ssr:date" v="2016-05-10" />
		<tag k="ssr:gruppe" v="grunnerISjø" />
		<tag k="ssr:hovedgruppe" v="sjø" />
		<tag k="ssr:stedsnr" v="48618" />
		<tag k="ssr:type" v="grunneISjø" />
	</node>
	<node id="-187085" lat="67.6697944465" lon="12.6180638846">
		<tag k="alt_name" v="Gjura" />
		<tag k="name" v="Jura" />
		<tag k="natural" v="cape" />
		<tag k="ssr:date" v="2016-05-10" />
		<tag k="ssr:gruppe" v="kystkontur" />
		<tag k="ssr:hovedgruppe" v="sjø" />
		<tag k="ssr:stedsnr" v="48616" />
		<tag k="ssr:type" v="nesISjø" />
	</node>
	<node id="-187084" lat="67.7800833337" lon="12.7105333274">
		<tag k="name" v="Nordskallen" />
		<tag k="natural" v="shoal" />
		<tag k="place" v="locality" />
		<tag k="ssr:date" v="2016-05-10" />
		<tag k="ssr:gruppe" v="grunnerISjø" />
		<tag k="ssr:hovedgruppe" v="sjø" />
		<tag k="ssr:stedsnr" v="47255" />
		<tag k="ssr:type" v="grunneISjø" />
	</node>
	<node id="-187083" lat="67.7570888924" lon="12.7681333441">
		<tag k="name" v="Forhammarbukta" />
		<tag k="natural" v="bay" />
		<tag k="ssr:date" v="2016-05-10" />
		<tag k="ssr:gruppe" v="kystkontur" />
		<tag k="ssr:hovedgruppe" v="sjø" />
		<tag k="ssr:stedsnr" v="41598" />
		<tag k="ssr:type" v="vikISjø" />
	</node>
	<node id="-187082" lat="67.6561722232" lon="12.596774996">
		<tag k="name" v="Hagslettbruna" />
		<tag k="natural" v="ridge" />
		<tag k="place" v="locality" />
		<tag k="ssr:date" v="2016-05-10" />
		<tag k="ssr:gruppe" v="høyder" />
		<tag k="ssr:hovedgruppe" v="terreng" />
		<tag k="ssr:stedsnr" v="40836" />
		<tag k="ssr:type" v="rygg" />
	</node>
	<node id="-187081" lat="67.6607166671" lon="12.6072583274">
		<tag k="name" v="Klømra" />
		<tag k="natural" v="bay" />
		<tag k="ssr:date" v="2016-05-10" />
		<tag k="ssr:gruppe" v="kystkontur" />
		<tag k="ssr:hovedgruppe" v="sjø" />
		<tag k="ssr:stedsnr" v="40833" />
		<tag k="ssr:type" v="vikISjø" />
	</node>
	<node id="-187080" lat="67.6776083339" lon="12.6332083423">
		<tag k="name" v="Kalvvika" />
		<tag k="natural" v="bay" />
		<tag k="ssr:date" v="2016-05-10" />
		<tag k="ssr:gruppe" v="kystkontur" />
		<tag k="ssr:hovedgruppe" v="sjø" />
		<tag k="ssr:stedsnr" v="40749" />
		<tag k="ssr:type" v="vikISjø" />
	</node>
	<node id="-187079" lat="67.7837611088" lon="12.7980361049">
		<tag k="name" v="Keilholmen" />
		<tag k="place" v="islet" />
		<tag k="ssr:date" v="2016-05-10" />
		<tag k="ssr:gruppe" v="kystkontur" />
		<tag k="ssr:hovedgruppe" v="sjø" />
		<tag k="ssr:stedsnr" v="17089" />
		<tag k="ssr:type" v="holmeISjø" />
	</node>
	<node id="-187078" lat="67.7764472195" lon="12.7705111038">
		<tag k="name" v="Buholmflaget" />
		<tag k="place" v="locality" />
		<tag k="ssr:date" v="2016-05-10" />
		<tag k="ssr:gruppe" v="farvann" />
		<tag k="ssr:hovedgruppe" v="sjø" />
		<tag k="ssr:stedsnr" v="17080" />
		<tag k="ssr:type" v="sjøstykke" />
	</node>
	<node id="-187077" lat="67.5922250022" lon="12.565430548">
		<tag k="alt_name" v="Steinsgrunnen" />
		<tag k="name" v="Steingrunnen" />
		<tag k="natural" v="shoal" />
		<tag k="place" v="locality" />
		<tag k="ssr:date" v="2016-05-10" />
		<tag k="ssr:gruppe" v="grunnerISjø" />
		<tag k="ssr:hovedgruppe" v="sjø" />
		<tag k="ssr:stedsnr" v="16422" />
		<tag k="ssr:type" v="grunneISjø" />
	</node>
	<node id="-187076" lat="67.6166361109" lon="12.5868166689">
		<tag k="name" v="Storflua" />
		<tag k="natural" v="shoal" />
		<tag k="place" v="locality" />
		<tag k="ssr:date" v="2016-05-10" />
		<tag k="ssr:gruppe" v="grunnerISjø" />
		<tag k="ssr:hovedgruppe" v="sjø" />
		<tag k="ssr:stedsnr" v="16406" />
		<tag k="ssr:type" v="grunneISjø" />
	</node>
	<node id="-187075" lat="67.6271833346" lon="12.5951888994">
		<tag k="name" v="Stabben" />
		<tag k="natural" v="shoal" />
		<tag k="place" v="locality" />
		<tag k="ssr:date" v="2016-05-10" />
		<tag k="ssr:gruppe" v="grunnerISjø" />
		<tag k="ssr:hovedgruppe" v="sjø" />
		<tag k="ssr:stedsnr" v="16403" />
		<tag k="ssr:type" v="grunneISjø" />
	</node>
	<node id="-187074" lat="67.6281499964" lon="12.5344222176">
		<tag k="name" v="Båan" />
		<tag k="natural" v="shoal" />
		<tag k="place" v="locality" />
		<tag k="ssr:date" v="2016-05-10" />
		<tag k="ssr:gruppe" v="grunnerISjø" />
		<tag k="ssr:hovedgruppe" v="sjø" />
		<tag k="ssr:stedsnr" v="16401" />
		<tag k="ssr:type" v="grunneISjø" />
	</node>
	<node id="-187073" lat="67.6402277799" lon="12.6037527685">
		<tag k="alt_name" v="Buneset" />
		<tag k="name" v="Bunesodden" />
		<tag k="natural" v="cape" />
		<tag k="ssr:date" v="2016-05-10" />
		<tag k="ssr:gruppe" v="kystkontur" />
		<tag k="ssr:hovedgruppe" v="sjø" />
		<tag k="ssr:stedsnr" v="16385" />
		<tag k="ssr:type" v="nesISjø" />
	</node>
	<node id="-187072" lat="67.6541722179" lon="12.7049583338">
		<tag k="name" v="Tjuvneset" />
		<tag k="natural" v="cape" />
		<tag k="ssr:date" v="2016-05-10" />
		<tag k="ssr:gruppe" v="kystkontur" />
		<tag k="ssr:hovedgruppe" v="sjø" />
		<tag k="ssr:stedsnr" v="16366" />
		<tag k="ssr:type" v="nesISjø" />
	</node>
	<node id="-187071" lat="67.6512361084" lon="12.7004194336">
		<tag k="fixme" v="consider natural=peak for the most distinct mountains in the district" />
		<tag k="name" v="Svinkammen" />
		<tag k="natural" v="hill" />
		<tag k="place" v="locality" />
		<tag k="ssr:date" v="2016-05-10" />
		<tag k="ssr:gruppe" v="høyder" />
		<tag k="ssr:hovedgruppe" v="terreng" />
		<tag k="ssr:stedsnr" v="16364" />
		<tag k="ssr:type" v="ås" />
	</node>
	<node id="-187070" lat="67.64960833" lon="12.5843583226">
		<tag k="fixme" v="consider natural=peak for the most distinct mountains in the district" />
		<tag k="name" v="Måstadfjellet" />
		<tag k="natural" v="hill" />
		<tag k="place" v="locality" />
		<tag k="ssr:date" v="2016-05-10" />
		<tag k="ssr:gruppe" v="høyder" />
		<tag k="ssr:hovedgruppe" v="terreng" />
		<tag k="ssr:stedsnr" v="16363" />
		<tag k="ssr:type" v="ås" />
	</node>
	<node id="-187069" lat="67.6574944432" lon="12.603149991">
		<tag k="name" v="Eidet" />
		<tag k="place" v="locality" />
		<tag k="ssr:date" v="2016-05-10" />
		<tag k="ssr:gruppe" v="kystkontur" />
		<tag k="ssr:hovedgruppe" v="sjø" />
		<tag k="ssr:stedsnr" v="16362" />
		<tag k="ssr:type" v="eidISjø" />
	</node>
	<node id="-187067" lat="67.6939638915" lon="12.7421888843">
		<tag k="name" v="Auka" />
		<tag k="place" v="islet" />
		<tag k="ssr:date" v="2016-05-11" />
		<tag k="ssr:gruppe" v="kystkontur" />
		<tag k="ssr:hovedgruppe" v="sjø" />
		<tag k="ssr:stedsnr" v="951724" />
		<tag k="ssr:type" v="holmeISjø" />
	</node>
	<node id="-187066" lat="67.6902638868" lon="12.6952361051">
		<tag k="name" v="Kalvdalen" />
		<tag k="natural" v="valley" />
		<tag k="place" v="locality" />
		<tag k="ssr:date" v="2016-05-11" />
		<tag k="ssr:gruppe" v="senkninger" />
		<tag k="ssr:hovedgruppe" v="terreng" />
		<tag k="ssr:stedsnr" v="951715" />
		<tag k="ssr:type" v="dal" />
	</node>
	<node id="-187065" lat="67.7560500017" lon="12.758475011">
		<tag k="name" v="Reirhalsen" />
		<tag k="natural" v="cape" />
		<tag k="ssr:date" v="2016-05-11" />
		<tag k="ssr:gruppe" v="kystkontur" />
		<tag k="ssr:hovedgruppe" v="sjø" />
		<tag k="ssr:stedsnr" v="951709" />
		<tag k="ssr:type" v="nesISjø" />
	</node>
	<node id="-187064" lat="67.6637861095" lon="12.6899944368">
		<tag k="leisure" v="pitch" />
		<tag k="name" v="Værøy idrettsplass" />
		<tag k="ssr:date" v="2016-05-11" />
		<tag k="ssr:gruppe" v="fritidsanlegg" />
		<tag k="ssr:hovedgruppe" v="bebyggelse" />
		<tag k="ssr:stedsnr" v="951675" />
		<tag k="ssr:type" v="idrettsanlegg" />
	</node>
	<node id="-187063" lat="67.6614222204" lon="12.6839277803">
		<tag k="name" v="Ramvoll" />
		<tag k="place" v="farm" />
		<tag k="ssr:date" v="2016-05-11" />
		<tag k="ssr:gruppe" v="gardsbebyggelse" />
		<tag k="ssr:hovedgruppe" v="bebyggelse" />
		<tag k="ssr:stedsnr" v="951672" />
		<tag k="ssr:type" v="bruk" />
	</node>
	<node id="-187062" lat="67.7718833357" lon="12.7643777716">
		<tag k="fixme" v="consider seamark:type=rock or natural=shoal" />
		<tag k="name" v="Buholmskjeran" />
		<tag k="place" v="islet" />
		<tag k="ssr:date" v="2016-05-11" />
		<tag k="ssr:gruppe" v="grunnerISjø" />
		<tag k="ssr:hovedgruppe" v="sjø" />
		<tag k="ssr:stedsnr" v="951624" />
		<tag k="ssr:type" v="skjærISjø" />
	</node>
	<node id="-187061" lat="67.7457083331" lon="12.7654055465">
		<tag k="name" v="Gabriellia" />
		<tag k="natural" v="slope" />
		<tag k="place" v="locality" />
		<tag k="ssr:date" v="2016-05-11" />
		<tag k="ssr:gruppe" v="skråninger" />
		<tag k="ssr:hovedgruppe" v="terreng" />
		<tag k="ssr:stedsnr" v="951617" />
		<tag k="ssr:type" v="li" />
	</node>
	<node id="-187060" lat="67.7562444435" lon="12.7660833373">
		<tag k="name" v="Hesten" />
		<tag k="natural" v="hill" />
		<tag k="place" v="locality" />
		<tag k="ssr:date" v="2016-05-11" />
		<tag k="ssr:gruppe" v="høyder" />
		<tag k="ssr:hovedgruppe" v="terreng" />
		<tag k="ssr:stedsnr" v="951614" />
		<tag k="ssr:type" v="berg" />
	</node>
	<node id="-187059" lat="67.7542666686" lon="12.7657972146">
		<tag k="name" v="Godbonåkeren" />
		<tag k="natural" v="bay" />
		<tag k="ssr:date" v="2016-05-11" />
		<tag k="ssr:gruppe" v="kystkontur" />
		<tag k="ssr:hovedgruppe" v="sjø" />
		<tag k="ssr:stedsnr" v="951612" />
		<tag k="ssr:type" v="vikISjø" />
	</node>
	<node id="-187058" lat="67.6740805541" lon="12.6944833338">
		<tag k="name" v="Skarsvollen" />
		<tag k="place" v="farm" />
		<tag k="ssr:date" v="2016-05-11" />
		<tag k="ssr:gruppe" v="gardsbebyggelse" />
		<tag k="ssr:hovedgruppe" v="bebyggelse" />
		<tag k="ssr:stedsnr" v="949655" />
		<tag k="ssr:type" v="bruk" />
	</node>
	<node id="-187057" lat="67.6888277761" lon="12.7123583321">
		<tag k="name" v="Teisthammaren" />
		<tag k="natural" v="hill" />
		<tag k="place" v="locality" />
		<tag k="ssr:date" v="2016-05-11" />
		<tag k="ssr:gruppe" v="høyder" />
		<tag k="ssr:hovedgruppe" v="terreng" />
		<tag k="ssr:stedsnr" v="865406" />
		<tag k="ssr:type" v="berg" />
	</node>
	<node id="-187056" lat="67.6943638881" lon="12.730858335">
		<tag k="name" v="Lamholmsundet" />
		<tag k="natural" v="strait" />
		<tag k="ssr:date" v="2016-05-11" />
		<tag k="ssr:gruppe" v="kystkontur" />
		<tag k="ssr:hovedgruppe" v="sjø" />
		<tag k="ssr:stedsnr" v="865405" />
		<tag k="ssr:type" v="sundISjø" />
	</node>
	<node id="-187055" lat="67.6475277819" lon="12.721316666">
		<tag k="fixme" v="consider seamark:type=rock or natural=shoal" />
		<tag k="name" v="Seiklakken" />
		<tag k="place" v="islet" />
		<tag k="ssr:date" v="2016-05-11" />
		<tag k="ssr:gruppe" v="grunnerISjø" />
		<tag k="ssr:hovedgruppe" v="sjø" />
		<tag k="ssr:stedsnr" v="805424" />
		<tag k="ssr:type" v="skjærISjø" />
	</node>
	<node id="-187054" lat="67.6340777777" lon="12.7063833292">
		<tag k="fixme" v="consider seamark:type=rock or natural=shoal" />
		<tag k="name" v="Alkskjeret" />
		<tag k="place" v="islet" />
		<tag k="ssr:date" v="2016-05-11" />
		<tag k="ssr:gruppe" v="grunnerISjø" />
		<tag k="ssr:hovedgruppe" v="sjø" />
		<tag k="ssr:stedsnr" v="805421" />
		<tag k="ssr:type" v="skjærISjø" />
	</node>
	<node id="-187053" lat="67.6388305545" lon="12.7159194458">
		<tag k="name" v="Kvalbakflua" />
		<tag k="natural" v="shoal" />
		<tag k="place" v="locality" />
		<tag k="ssr:date" v="2016-05-11" />
		<tag k="ssr:gruppe" v="grunnerISjø" />
		<tag k="ssr:hovedgruppe" v="sjø" />
		<tag k="ssr:stedsnr" v="805420" />
		<tag k="ssr:type" v="grunneISjø" />
	</node>
	<node id="-187052" lat="67.6550166643" lon="12.7215444558">
		<tag k="fixme" v="consider place=suburb, village or hamlet" />
		<tag k="name" v="Røssnesvågen" />
		<tag k="place" v="quarter" />
		<tag k="ssr:date" v="2016-05-11" />
		<tag k="ssr:gruppe" v="bebyggelsesområder" />
		<tag k="ssr:hovedgruppe" v="bebyggelse" />
		<tag k="ssr:stedsnr" v="805408" />
		<tag k="ssr:type" v="tettbebyggelse" />
	</node>
	<node id="-187051" lat="67.6918749996" lon="12.6218277693">
		<tag k="fixme" v="consider seamark:type=rock or natural=shoal" />
		<tag k="name" v="Hagsteinan" />
		<tag k="place" v="islet" />
		<tag k="ssr:date" v="2016-05-11" />
		<tag k="ssr:gruppe" v="grunnerISjø" />
		<tag k="ssr:hovedgruppe" v="sjø" />
		<tag k="ssr:stedsnr" v="805353" />
		<tag k="ssr:type" v="skjærISjø" />
	</node>
	<node id="-187050" lat="67.6415416634" lon="12.5823999887">
		<tag k="fixme" v="consider natural=peak for the most distinct mountains in the district" />
		<tag k="name" v="Reka" />
		<tag k="natural" v="hill" />
		<tag k="place" v="locality" />
		<tag k="ssr:date" v="2016-05-11" />
		<tag k="ssr:gruppe" v="høyder" />
		<tag k="ssr:hovedgruppe" v="terreng" />
		<tag k="ssr:stedsnr" v="926401" />
		<tag k="ssr:type" v="fjell" />
	</node>
	<node id="-187049" lat="67.6344583355" lon="12.5757111019">
		<tag k="name" v="Storgropa" />
		<tag k="natural" v="valley" />
		<tag k="place" v="locality" />
		<tag k="ssr:date" v="2016-05-11" />
		<tag k="ssr:gruppe" v="senkninger" />
		<tag k="ssr:hovedgruppe" v="terreng" />
		<tag k="ssr:stedsnr" v="926400" />
		<tag k="ssr:type" v="søkk" />
	</node>
	<node id="-187048" lat="67.6357027782" lon="12.5738472333">
		<tag k="name" v="Koppnakkan" />
		<tag k="natural" v="slope" />
		<tag k="place" v="locality" />
		<tag k="ssr:date" v="2016-05-11" />
		<tag k="ssr:gruppe" v="skråninger" />
		<tag k="ssr:hovedgruppe" v="terreng" />
		<tag k="ssr:stedsnr" v="926399" />
		<tag k="ssr:type" v="li" />
	</node>
	<node id="-187047" lat="67.6397833347" lon="12.5654722209">
		<tag k="name" v="Eldsetvika" />
		<tag k="natural" v="bay" />
		<tag k="ssr:date" v="2016-05-11" />
		<tag k="ssr:gruppe" v="kystkontur" />
		<tag k="ssr:hovedgruppe" v="sjø" />
		<tag k="ssr:stedsnr" v="926398" />
		<tag k="ssr:type" v="vikISjø" />
	</node>
	<node id="-187046" lat="67.6562083363" lon="12.7253138966">
		<tag k="name" v="Kvitvarden" />
		<tag k="ssr:date" v="2016-05-11" />
		<tag k="ssr:gruppe" v="kulturminner" />
		<tag k="ssr:hovedgruppe" v="kultur" />
		<tag k="ssr:stedsnr" v="926384" />
		<tag k="ssr:type" v="utsiktspunkt" />
		<tag k="tourism" v="viewpoint" />
	</node>
	<node id="-187045" lat="67.6580583336" lon="12.6350527693">
		<tag k="name" v="Repphellaren" />
		<tag k="place" v="islet" />
		<tag k="ssr:date" v="2016-05-11" />
		<tag k="ssr:gruppe" v="kystkontur" />
		<tag k="ssr:hovedgruppe" v="sjø" />
		<tag k="ssr:stedsnr" v="926382" />
		<tag k="ssr:type" v="holmeISjø" />
	</node>
	<node id="-187044" lat="67.6445805553" lon="12.5674749961">
		<tag k="name" v="Eldet" />
		<tag k="place" v="locality" />
		<tag k="ssr:date" v="2016-05-11" />
		<tag k="ssr:gruppe" v="terrengdetaljer" />
		<tag k="ssr:hovedgruppe" v="terreng" />
		<tag k="ssr:stedsnr" v="926377" />
		<tag k="ssr:type" v="annenTerrengdetalj" />
	</node>
	<node id="-187043" lat="67.6730277756" lon="12.6903611154">
		<tag k="name" v="Bjørgan" />
		<tag k="natural" v="slope" />
		<tag k="place" v="locality" />
		<tag k="ssr:date" v="2016-05-11" />
		<tag k="ssr:gruppe" v="skråninger" />
		<tag k="ssr:hovedgruppe" v="terreng" />
		<tag k="ssr:stedsnr" v="926368" />
		<tag k="ssr:type" v="li" />
	</node>
	<node id="-187042" lat="67.6771916646" lon="12.7010722147">
		<tag k="name" v="Breivika" />
		<tag k="natural" v="bay" />
		<tag k="old_name" v="Breidvika" />
		<tag k="ssr:date" v="2016-05-11" />
		<tag k="ssr:gruppe" v="kystkontur" />
		<tag k="ssr:hovedgruppe" v="sjø" />
		<tag k="ssr:stedsnr" v="926360" />
		<tag k="ssr:type" v="vikISjø" />
	</node>
	<node id="-187041" lat="67.6852194411" lon="12.6849138885">
		<tag k="alt_name" v="Kalvskardet" />
		<tag k="name" v="Kalvskaret" />
		<tag k="natural" v="valley" />
		<tag k="place" v="locality" />
		<tag k="ssr:date" v="2016-05-11" />
		<tag k="ssr:gruppe" v="senkninger" />
		<tag k="ssr:hovedgruppe" v="terreng" />
		<tag k="ssr:stedsnr" v="926352" />
		<tag k="ssr:type" v="skar" />
	</node>
	<node id="-187040" lat="67.6852138932" lon="12.4809361199">
		<tag k="name" v="Råkhalsfluan" />
		<tag k="natural" v="shoal" />
		<tag k="place" v="locality" />
		<tag k="ssr:date" v="2016-05-11" />
		<tag k="ssr:gruppe" v="grunnerISjø" />
		<tag k="ssr:hovedgruppe" v="sjø" />
		<tag k="ssr:stedsnr" v="926349" />
		<tag k="ssr:type" v="grunneISjø" />
	</node>
	<node id="-187039" lat="67.7258083366" lon="12.7809805611">
		<tag k="name" v="Flima" />
		<tag k="place" v="islet" />
		<tag k="ssr:date" v="2016-05-11" />
		<tag k="ssr:gruppe" v="kystkontur" />
		<tag k="ssr:hovedgruppe" v="sjø" />
		<tag k="ssr:stedsnr" v="926337" />
		<tag k="ssr:type" v="holmeISjø" />
	</node>
	<node id="-187038" lat="67.6406666625" lon="12.9191972312">
		<tag k="name" v="Vestfjorden" />
		<tag k="place" v="sea" />
		<tag k="ssr:date" v="2019-12-27" />
		<tag k="ssr:gruppe" v="farvann" />
		<tag k="ssr:hovedgruppe" v="sjø" />
		<tag k="ssr:stedsnr" v="926139" />
		<tag k="ssr:type" v="havområde" />
	</node>
	<node id="-187037" lat="67.6877388911" lon="12.6671888828">
		<tag k="name" v="Langmolla" />
		<tag k="natural" v="beach" />
		<tag k="place" v="locality" />
		<tag k="ssr:date" v="2016-05-11" />
		<tag k="ssr:gruppe" v="kystkontur" />
		<tag k="ssr:hovedgruppe" v="sjø" />
		<tag k="ssr:stedsnr" v="769734" />
		<tag k="ssr:type" v="strandISjø" />
	</node>
	<node id="-187036" lat="67.6917777741" lon="12.7056916639">
		<tag k="name" v="Lenatjønna" />
		<tag k="natural" v="water" />
		<tag k="ssr:date" v="2016-05-11" />
		<tag k="ssr:gruppe" v="stilleståendeVann" />
		<tag k="ssr:hovedgruppe" v="ferskvann" />
		<tag k="ssr:stedsnr" v="769691" />
		<tag k="ssr:type" v="tjern" />
	</node>
	<node id="-187035" lat="67.6928055552" lon="12.7176638853">
		<tag k="cemetery" v="grave" />
		<tag k="name" v="Værøy kirkegård" />
		<tag k="place" v="locality" />
		<tag k="ssr:date" v="2016-05-11" />
		<tag k="ssr:gruppe" v="kulturinstitusjoner" />
		<tag k="ssr:hovedgruppe" v="kultur" />
		<tag k="ssr:stedsnr" v="769690" />
		<tag k="ssr:type" v="gravplass" />
	</node>
	<node id="-187034" lat="67.6625194423" lon="12.6473000054">
		<tag k="name" v="Hagsletta" />
		<tag k="place" v="locality" />
		<tag k="ssr:date" v="2016-05-11" />
		<tag k="ssr:gruppe" v="flater" />
		<tag k="ssr:hovedgruppe" v="terreng" />
		<tag k="ssr:stedsnr" v="767712" />
		<tag k="ssr:type" v="slette" />
	</node>
	<node id="-187033" lat="67.6587111154" lon="12.642749993">
		<tag k="fixme" v="consider natural=peak for the most distinct mountains in the district" />
		<tag k="name" v="Kammen" />
		<tag k="natural" v="hill" />
		<tag k="place" v="locality" />
		<tag k="ssr:date" v="2016-05-11" />
		<tag k="ssr:gruppe" v="høyder" />
		<tag k="ssr:hovedgruppe" v="terreng" />
		<tag k="ssr:stedsnr" v="767711" />
		<tag k="ssr:type" v="ås" />
	</node>
	<node id="-187032" lat="67.6604277746" lon="12.6460694431">
		<tag k="name" v="Saubønnan" />
		<tag k="natural" v="slope" />
		<tag k="place" v="locality" />
		<tag k="ssr:date" v="2016-05-11" />
		<tag k="ssr:gruppe" v="skråninger" />
		<tag k="ssr:hovedgruppe" v="terreng" />
		<tag k="ssr:stedsnr" v="767710" />
		<tag k="ssr:type" v="li" />
	</node>
	<node id="-187031" lat="67.672999997" lon="12.704927767">
		<tag k="name" v="Breivikbukta" />
		<tag k="natural" v="bay" />
		<tag k="ssr:date" v="2016-05-11" />
		<tag k="ssr:gruppe" v="kystkontur" />
		<tag k="ssr:hovedgruppe" v="sjø" />
		<tag k="ssr:stedsnr" v="767672" />
		<tag k="ssr:type" v="vikISjø" />
	</node>
	<node id="-187030" lat="67.6886777737" lon="12.7265888783">
		<tag k="fixme" v="consider seamark:type=rock or natural=shoal" />
		<tag k="name" v="Perjørgensaskjeret" />
		<tag k="place" v="islet" />
		<tag k="ssr:date" v="2016-05-11" />
		<tag k="ssr:gruppe" v="grunnerISjø" />
		<tag k="ssr:hovedgruppe" v="sjø" />
		<tag k="ssr:stedsnr" v="767670" />
		<tag k="ssr:type" v="skjærISjø" />
	</node>
	<node id="-187029" lat="67.5895166636" lon="12.5279055531">
		<tag k="name" v="Grunnaregga" />
		<tag k="natural" v="shoal" />
		<tag k="place" v="locality" />
		<tag k="ssr:date" v="2016-05-11" />
		<tag k="ssr:gruppe" v="grunnerISjø" />
		<tag k="ssr:hovedgruppe" v="sjø" />
		<tag k="ssr:stedsnr" v="744415" />
		<tag k="ssr:type" v="grunneISjø" />
	</node>
	<node id="-187028" lat="67.6535805572" lon="12.6954472227">
		<tag k="fixme" v="consider natural=peak for the most distinct mountains in the district" />
		<tag k="name" v="Klaumertinden" />
		<tag k="natural" v="hill" />
		<tag k="place" v="locality" />
		<tag k="ssr:date" v="2016-05-11" />
		<tag k="ssr:gruppe" v="høyder" />
		<tag k="ssr:hovedgruppe" v="terreng" />
		<tag k="ssr:stedsnr" v="744361" />
		<tag k="ssr:type" v="ås" />
	</node>
	<node id="-187027" lat="67.6576277804" lon="12.7454250103">
		<tag k="name" v="Mikkjelsgrunnen" />
		<tag k="natural" v="shoal" />
		<tag k="place" v="locality" />
		<tag k="ssr:date" v="2016-05-11" />
		<tag k="ssr:gruppe" v="grunnerISjø" />
		<tag k="ssr:hovedgruppe" v="sjø" />
		<tag k="ssr:stedsnr" v="744353" />
		<tag k="ssr:type" v="grunneISjø" />
	</node>
	<node id="-187026" lat="67.6779583375" lon="12.7276249905">
		<tag k="fixme" v="consider seamark:type=rock or natural=shoal" />
		<tag k="name" v="Sandskjeret" />
		<tag k="place" v="islet" />
		<tag k="ssr:date" v="2016-05-11" />
		<tag k="ssr:gruppe" v="grunnerISjø" />
		<tag k="ssr:hovedgruppe" v="sjø" />
		<tag k="ssr:stedsnr" v="744325" />
		<tag k="ssr:type" v="skjærISjø" />
	</node>
	<node id="-187025" lat="67.6756305523" lon="12.700491657">
		<tag k="alt_name" v="Alveneset" />
		<tag k="name" v="Alvneset" />
		<tag k="natural" v="cape" />
		<tag k="ssr:date" v="2016-05-11" />
		<tag k="ssr:gruppe" v="kystkontur" />
		<tag k="ssr:hovedgruppe" v="sjø" />
		<tag k="ssr:stedsnr" v="744323" />
		<tag k="ssr:type" v="nesISjø" />
	</node>
	<node id="-187024" lat="67.7103694445" lon="12.8057611143">
		<tag k="name" v="Seiskallen" />
		<tag k="natural" v="shoal" />
		<tag k="place" v="locality" />
		<tag k="ssr:date" v="2016-05-11" />
		<tag k="ssr:gruppe" v="grunnerISjø" />
		<tag k="ssr:hovedgruppe" v="sjø" />
		<tag k="ssr:stedsnr" v="897244" />
		<tag k="ssr:type" v="grunneISjø" />
	</node>
	<node id="-187023" lat="67.6784794777" lon="12.6970748103">
		<tag k="fixme" v="consider place=hamlet" />
		<tag k="name" v="Breivika" />
		<tag k="place" v="farm" />
		<tag k="ssr:date" v="2020-03-06" />
		<tag k="ssr:gruppe" v="gardsbebyggelse" />
		<tag k="ssr:hovedgruppe" v="bebyggelse" />
		<tag k="ssr:stedsnr" v="714625" />
		<tag k="ssr:type" v="gard" />
	</node>
	<node id="-187022" lat="67.6968249987" lon="12.7660361016">
		<tag k="name" v="Kvitholmen" />
		<tag k="place" v="islet" />
		<tag k="ssr:date" v="2016-05-11" />
		<tag k="ssr:gruppe" v="kystkontur" />
		<tag k="ssr:hovedgruppe" v="sjø" />
		<tag k="ssr:stedsnr" v="714620" />
		<tag k="ssr:type" v="holmeISjø" />
	</node>
	<node id="-187021" lat="67.6439361108" lon="12.6990111204">
		<tag k="name" v="Ferskvågen" />
		<tag k="natural" v="bay" />
		<tag k="ssr:date" v="2016-05-11" />
		<tag k="ssr:gruppe" v="kystkontur" />
		<tag k="ssr:hovedgruppe" v="sjø" />
		<tag k="ssr:stedsnr" v="890829" />
		<tag k="ssr:type" v="vikISjø" />
	</node>
	<node id="-187020" lat="67.6913916682" lon="12.7147305569">
		<tag k="name" v="Varden" />
		<tag k="natural" v="hill" />
		<tag k="place" v="locality" />
		<tag k="ssr:date" v="2016-05-11" />
		<tag k="ssr:gruppe" v="høyder" />
		<tag k="ssr:hovedgruppe" v="terreng" />
		<tag k="ssr:stedsnr" v="890729" />
		<tag k="ssr:type" v="haug" />
	</node>
	<node id="-187019" lat="67.6998277772" lon="12.7327166652">
		<tag k="fixme" v="consider seamark:type=rock or natural=shoal" />
		<tag k="name" v="Brørn" />
		<tag k="place" v="islet" />
		<tag k="ssr:date" v="2016-05-11" />
		<tag k="ssr:gruppe" v="grunnerISjø" />
		<tag k="ssr:hovedgruppe" v="sjø" />
		<tag k="ssr:stedsnr" v="890727" />
		<tag k="ssr:type" v="skjærISjø" />
	</node>
	<node id="-187018" lat="67.7117805567" lon="12.7165527856">
		<tag k="name" v="Aurholmskjeret" />
		<tag k="natural" v="shoal" />
		<tag k="place" v="locality" />
		<tag k="ssr:date" v="2016-05-11" />
		<tag k="ssr:gruppe" v="grunnerISjø" />
		<tag k="ssr:hovedgruppe" v="sjø" />
		<tag k="ssr:stedsnr" v="890719" />
		<tag k="ssr:type" v="grunneISjø" />
	</node>
	<node id="-187017" lat="67.7581305524" lon="12.7719888875">
		<tag k="name" v="Forhammarsundet" />
		<tag k="natural" v="strait" />
		<tag k="ssr:date" v="2016-05-11" />
		<tag k="ssr:gruppe" v="kystkontur" />
		<tag k="ssr:hovedgruppe" v="sjø" />
		<tag k="ssr:stedsnr" v="890616" />
		<tag k="ssr:type" v="sundISjø" />
	</node>
	<node id="-187016" lat="67.6639222193" lon="12.6825027869">
		<tag k="name" v="Kvitsanden" />
		<tag k="natural" v="cape" />
		<tag k="ssr:date" v="2016-05-11" />
		<tag k="ssr:gruppe" v="kystkontur" />
		<tag k="ssr:hovedgruppe" v="sjø" />
		<tag k="ssr:stedsnr" v="889713" />
		<tag k="ssr:type" v="nesISjø" />
	</node>
	<node id="-187015" lat="67.6625277772" lon="12.6311611139">
		<tag k="fixme" v="consider natural=peak for the most distinct mountains in the district" />
		<tag k="name" v="Grunnereggtua" />
		<tag k="natural" v="hill" />
		<tag k="place" v="locality" />
		<tag k="ssr:date" v="2016-05-11" />
		<tag k="ssr:gruppe" v="høyder" />
		<tag k="ssr:hovedgruppe" v="terreng" />
		<tag k="ssr:stedsnr" v="889709" />
		<tag k="ssr:type" v="ås" />
	</node>
	<node id="-187014" lat="67.677069444" lon="12.7134777739">
		<tag k="fixme" v="consider seamark:type=rock or natural=shoal" />
		<tag k="name" v="Nevskjeret" />
		<tag k="place" v="islet" />
		<tag k="ssr:date" v="2016-05-11" />
		<tag k="ssr:gruppe" v="grunnerISjø" />
		<tag k="ssr:hovedgruppe" v="sjø" />
		<tag k="ssr:stedsnr" v="889675" />
		<tag k="ssr:type" v="skjærISjø" />
	</node>
	<node id="-187013" lat="67.6757999971" lon="12.6676416699">
		<tag k="name" v="Myran" />
		<tag k="natural" v="wetland" />
		<tag k="ssr:date" v="2016-05-11" />
		<tag k="ssr:gruppe" v="våtmark" />
		<tag k="ssr:hovedgruppe" v="markslag" />
		<tag k="ssr:stedsnr" v="889666" />
		<tag k="ssr:type" v="myr" />
	</node>
	<node id="-187012" lat="67.6355055531" lon="12.5964083407">
		<tag k="name" v="Storkleiva" />
		<tag k="natural" v="slope" />
		<tag k="place" v="locality" />
		<tag k="ssr:date" v="2016-05-11" />
		<tag k="ssr:gruppe" v="skråninger" />
		<tag k="ssr:hovedgruppe" v="terreng" />
		<tag k="ssr:stedsnr" v="683378" />
		<tag k="ssr:type" v="bakke" />
	</node>
	<node id="-187011" lat="67.6370861079" lon="12.5964111184">
		<tag k="fixme" v="multiple name tags, choose one and add the other to alt_name" />
		<tag k="name" v="Hensneset;Mannsneset" />
		<tag k="natural" v="cape" />
		<tag k="ssr:date" v="2016-05-11" />
		<tag k="ssr:gruppe" v="kystkontur" />
		<tag k="ssr:hovedgruppe" v="sjø" />
		<tag k="ssr:stedsnr" v="683377" />
		<tag k="ssr:type" v="nesISjø" />
	</node>
	<node id="-187010" lat="67.6555583308" lon="12.5956277687">
		<tag k="name" v="Hagslett" />
		<tag k="place" v="locality" />
		<tag k="ssr:date" v="2016-05-11" />
		<tag k="ssr:gruppe" v="flater" />
		<tag k="ssr:hovedgruppe" v="terreng" />
		<tag k="ssr:stedsnr" v="683369" />
		<tag k="ssr:type" v="slette" />
	</node>
	<node id="-187009" lat="67.6433299954" lon="12.5931021784">
		<tag k="fixme" v="consider place=hamlet" />
		<tag k="name" v="Måstad" />
		<tag k="place" v="farm" />
		<tag k="ssr:date" v="2020-03-06" />
		<tag k="ssr:gruppe" v="gardsbebyggelse" />
		<tag k="ssr:hovedgruppe" v="bebyggelse" />
		<tag k="ssr:stedsnr" v="683366" />
		<tag k="ssr:type" v="gard" />
	</node>
	<node id="-187008" lat="67.6642388855" lon="12.455333342">
		<tag k="name" v="Høgtuvskallan" />
		<tag k="natural" v="shoal" />
		<tag k="place" v="locality" />
		<tag k="ssr:date" v="2016-05-11" />
		<tag k="ssr:gruppe" v="grunnerISjø" />
		<tag k="ssr:hovedgruppe" v="sjø" />
		<tag k="ssr:stedsnr" v="683359" />
		<tag k="ssr:type" v="grunneISjø" />
	</node>
	<node id="-187007" lat="67.7270833288" lon="12.5443194506">
		<tag k="name" v="Kalvvikskallan" />
		<tag k="natural" v="shoal" />
		<tag k="place" v="locality" />
		<tag k="ssr:date" v="2016-05-11" />
		<tag k="ssr:gruppe" v="grunnerISjø" />
		<tag k="ssr:hovedgruppe" v="sjø" />
		<tag k="ssr:stedsnr" v="683326" />
		<tag k="ssr:type" v="grunneISjø" />
	</node>
	<node id="-187006" lat="67.729113886" lon="12.7418361114">
		<tag k="name" v="Langrumpholmen" />
		<tag k="place" v="islet" />
		<tag k="ssr:date" v="2016-05-11" />
		<tag k="ssr:gruppe" v="kystkontur" />
		<tag k="ssr:hovedgruppe" v="sjø" />
		<tag k="ssr:stedsnr" v="683322" />
		<tag k="ssr:type" v="holmeISjø" />
	</node>
	<node id="-187005" lat="67.7364527783" lon="12.6497611109">
		<tag k="fixme" v="consider seamark:type=rock or natural=shoal" />
		<tag k="name" v="Sørleiskjeret" />
		<tag k="place" v="islet" />
		<tag k="ssr:date" v="2016-05-11" />
		<tag k="ssr:gruppe" v="grunnerISjø" />
		<tag k="ssr:hovedgruppe" v="sjø" />
		<tag k="ssr:stedsnr" v="683305" />
		<tag k="ssr:type" v="skjærISjø" />
	</node>
	<node id="-187004" lat="67.6569611125" lon="12.6495055544">
		<tag k="name" v="Piklia" />
		<tag k="natural" v="slope" />
		<tag k="place" v="locality" />
		<tag k="ssr:date" v="2016-05-10" />
		<tag k="ssr:gruppe" v="skråninger" />
		<tag k="ssr:hovedgruppe" v="terreng" />
		<tag k="ssr:stedsnr" v="647665" />
		<tag k="ssr:type" v="li" />
	</node>
	<node id="-187003" lat="67.6951138861" lon="12.7428111006">
		<tag k="name" v="Båthellarneset" />
		<tag k="natural" v="cape" />
		<tag k="ssr:date" v="2016-05-10" />
		<tag k="ssr:gruppe" v="kystkontur" />
		<tag k="ssr:hovedgruppe" v="sjø" />
		<tag k="ssr:stedsnr" v="647711" />
		<tag k="ssr:type" v="nesISjø" />
	</node>
	<node id="-187002" lat="67.670327782" lon="12.6343416578">
		<tag k="name" v="Stavan" />
		<tag k="natural" v="hill" />
		<tag k="place" v="locality" />
		<tag k="ssr:date" v="2016-05-10" />
		<tag k="ssr:gruppe" v="høyder" />
		<tag k="ssr:hovedgruppe" v="terreng" />
		<tag k="ssr:stedsnr" v="645660" />
		<tag k="ssr:type" v="berg" />
	</node>
	<node id="-187001" lat="67.6532111078" lon="12.5721027742">
		<tag k="name" v="Branden" />
		<tag k="natural" v="hill" />
		<tag k="place" v="locality" />
		<tag k="ssr:date" v="2016-05-11" />
		<tag k="ssr:gruppe" v="høyder" />
		<tag k="ssr:hovedgruppe" v="terreng" />
		<tag k="ssr:stedsnr" v="715618" />
		<tag k="ssr:type" v="haug" />
	</node>
	<node id="-187000" lat="67.671558332" lon="12.6579361124">
		<tag k="name" v="Hagskaret" />
		<tag k="natural" v="valley" />
		<tag k="place" v="locality" />
		<tag k="ssr:date" v="2016-05-10" />
		<tag k="ssr:gruppe" v="senkninger" />
		<tag k="ssr:hovedgruppe" v="terreng" />
		<tag k="ssr:stedsnr" v="585653" />
		<tag k="ssr:type" v="skar" />
	</node>
	<node id="-186999" lat="67.6591388926" lon="12.6050833286">
		<tag k="name" v="Sauhellaren" />
		<tag k="natural" v="hill" />
		<tag k="place" v="locality" />
		<tag k="ssr:date" v="2016-05-11" />
		<tag k="ssr:gruppe" v="høyder" />
		<tag k="ssr:hovedgruppe" v="terreng" />
		<tag k="ssr:stedsnr" v="708808" />
		<tag k="ssr:type" v="berg" />
	</node>
	<node id="-186998" lat="67.6918000016" lon="12.7213499909">
		<tag k="name" v="Barnberget" />
		<tag k="natural" v="hill" />
		<tag k="place" v="locality" />
		<tag k="ssr:date" v="2016-05-11" />
		<tag k="ssr:gruppe" v="høyder" />
		<tag k="ssr:hovedgruppe" v="terreng" />
		<tag k="ssr:stedsnr" v="708694" />
		<tag k="ssr:type" v="berg" />
	</node>
	<node id="-186997" lat="67.7752305521" lon="12.7558805468">
		<tag k="fixme" v="consider seamark:type=rock or natural=shoal" />
		<tag k="name" v="Buholmskaftan" />
		<tag k="place" v="islet" />
		<tag k="ssr:date" v="2016-05-11" />
		<tag k="ssr:gruppe" v="grunnerISjø" />
		<tag k="ssr:hovedgruppe" v="sjø" />
		<tag k="ssr:stedsnr" v="708671" />
		<tag k="ssr:type" v="skjærISjø" />
	</node>
	<node id="-186996" lat="67.6607583333" lon="12.6980277883">
		<tag k="name" v="Hjellholmen" />
		<tag k="natural" v="cape" />
		<tag k="ssr:date" v="2016-05-11" />
		<tag k="ssr:gruppe" v="kystkontur" />
		<tag k="ssr:hovedgruppe" v="sjø" />
		<tag k="ssr:stedsnr" v="708662" />
		<tag k="ssr:type" v="nesISjø" />
	</node>
	<node id="-186995" lat="67.6660861133" lon="12.6889194483">
		<tag k="amenity" v="school" />
		<tag k="name" v="Værøy skole" />
		<tag k="ssr:date" v="2016-05-11" />
		<tag k="ssr:gruppe" v="institusjoner" />
		<tag k="ssr:hovedgruppe" v="bebyggelse" />
		<tag k="ssr:stedsnr" v="708659" />
		<tag k="ssr:type" v="skole" />
	</node>
	<node id="-186994" lat="67.6546444455" lon="12.7042138914">
		<tag k="name" v="Tynes" />
		<tag k="place" v="quarter" />
		<tag k="ssr:date" v="2016-05-11" />
		<tag k="ssr:gruppe" v="bebyggelsesområder" />
		<tag k="ssr:hovedgruppe" v="bebyggelse" />
		<tag k="ssr:stedsnr" v="708646" />
		<tag k="ssr:type" v="boligfelt" />
	</node>
	<node id="-186993" lat="67.6809722208" lon="12.7089888773">
		<tag k="name" v="Vassvika" />
		<tag k="natural" v="bay" />
		<tag k="ssr:date" v="2016-05-11" />
		<tag k="ssr:gruppe" v="kystkontur" />
		<tag k="ssr:hovedgruppe" v="sjø" />
		<tag k="ssr:stedsnr" v="706728" />
		<tag k="ssr:type" v="vikISjø" />
	</node>
	<node id="-186992" lat="67.6858305599" lon="12.7073361168">
		<tag k="name" v="Gjerdbakkan" />
		<tag k="natural" v="slope" />
		<tag k="place" v="locality" />
		<tag k="ssr:date" v="2016-05-11" />
		<tag k="ssr:gruppe" v="skråninger" />
		<tag k="ssr:hovedgruppe" v="terreng" />
		<tag k="ssr:stedsnr" v="706722" />
		<tag k="ssr:type" v="bakke" />
	</node>
	<node id="-186991" lat="67.6765472258" lon="12.6981138835">
		<tag k="name" v="Leite" />
		<tag k="place" v="farm" />
		<tag k="ssr:date" v="2016-05-11" />
		<tag k="ssr:gruppe" v="gardsbebyggelse" />
		<tag k="ssr:hovedgruppe" v="bebyggelse" />
		<tag k="ssr:stedsnr" v="706676" />
		<tag k="ssr:type" v="bruk" />
	</node>
	<node id="-186990" lat="67.6816638891" lon="12.7166666587">
		<tag k="fixme" v="consider seamark:type=rock or natural=shoal" />
		<tag k="name" v="Oternesskjeran" />
		<tag k="place" v="islet" />
		<tag k="ssr:date" v="2016-05-11" />
		<tag k="ssr:gruppe" v="grunnerISjø" />
		<tag k="ssr:hovedgruppe" v="sjø" />
		<tag k="ssr:stedsnr" v="706662" />
		<tag k="ssr:type" v="skjærISjø" />
	</node>
	<node id="-186989" lat="67.663349996" lon="12.6858361015">
		<tag k="name" v="Stølen" />
		<tag k="place" v="farm" />
		<tag k="ssr:date" v="2016-05-10" />
		<tag k="ssr:gruppe" v="gardsbebyggelse" />
		<tag k="ssr:hovedgruppe" v="bebyggelse" />
		<tag k="ssr:stedsnr" v="561380" />
		<tag k="ssr:type" v="bruk" />
	</node>
	<node id="-186988" lat="67.6704222215" lon="12.6570111016">
		<tag k="name" v="Tverrberget" />
		<tag k="natural" v="hill" />
		<tag k="place" v="locality" />
		<tag k="ssr:date" v="2016-05-10" />
		<tag k="ssr:gruppe" v="høyder" />
		<tag k="ssr:hovedgruppe" v="terreng" />
		<tag k="ssr:stedsnr" v="561376" />
		<tag k="ssr:type" v="berg" />
	</node>
	<node id="-186987" lat="67.6394055519" lon="12.5992166672">
		<tag k="fixme" v="consider natural=peak for the most distinct mountains in the district" />
		<tag k="name" v="Tinden" />
		<tag k="natural" v="hill" />
		<tag k="place" v="locality" />
		<tag k="ssr:date" v="2016-05-10" />
		<tag k="ssr:gruppe" v="høyder" />
		<tag k="ssr:hovedgruppe" v="terreng" />
		<tag k="ssr:stedsnr" v="561418" />
		<tag k="ssr:type" v="ås" />
	</node>
	<node id="-186986" lat="67.6498472197" lon="12.7521166756">
		<tag k="name" v="Tverrbergskallen" />
		<tag k="natural" v="shoal" />
		<tag k="place" v="locality" />
		<tag k="ssr:date" v="2016-05-10" />
		<tag k="ssr:gruppe" v="grunnerISjø" />
		<tag k="ssr:hovedgruppe" v="sjø" />
		<tag k="ssr:stedsnr" v="561413" />
		<tag k="ssr:type" v="grunneISjø" />
	</node>
	<node id="-186985" lat="67.6450472194" lon="12.7046083287">
		<tag k="name" v="Kvalneset" />
		<tag k="natural" v="cape" />
		<tag k="ssr:date" v="2016-05-10" />
		<tag k="ssr:gruppe" v="kystkontur" />
		<tag k="ssr:hovedgruppe" v="sjø" />
		<tag k="ssr:stedsnr" v="561412" />
		<tag k="ssr:type" v="nesISjø" />
	</node>
	<node id="-186984" lat="67.6356916668" lon="12.6908722174">
		<tag k="fixme" v="consider seamark:type=rock or natural=shoal" />
		<tag k="name" v="Oddskjeran" />
		<tag k="place" v="islet" />
		<tag k="ssr:date" v="2016-05-10" />
		<tag k="ssr:gruppe" v="grunnerISjø" />
		<tag k="ssr:hovedgruppe" v="sjø" />
		<tag k="ssr:stedsnr" v="561409" />
		<tag k="ssr:type" v="skjærISjø" />
	</node>
	<node id="-186982" lat="67.6528972266" lon="12.579258324">
		<tag k="name" v="Nordlandsura" />
		<tag k="natural" v="scree" />
		<tag k="ssr:date" v="2016-05-10" />
		<tag k="ssr:gruppe" v="løsmasseavsetninger" />
		<tag k="ssr:hovedgruppe" v="markslag" />
		<tag k="ssr:stedsnr" v="526824" />
		<tag k="ssr:type" v="ur" />
	</node>
	<node id="-186981" lat="67.6462611109" lon="12.7168194481">
		<tag k="name" v="Littj-Seiklakken" />
		<tag k="place" v="islet" />
		<tag k="ssr:date" v="2016-05-10" />
		<tag k="ssr:gruppe" v="kystkontur" />
		<tag k="ssr:hovedgruppe" v="sjø" />
		<tag k="ssr:stedsnr" v="526820" />
		<tag k="ssr:type" v="holmeISjø" />
	</node>
	<node id="-186980" lat="67.7941361141" lon="12.8296444522">
		<tag k="name" v="Svarvskallan" />
		<tag k="natural" v="shoal" />
		<tag k="place" v="locality" />
		<tag k="ssr:date" v="2016-05-11" />
		<tag k="ssr:gruppe" v="grunnerISjø" />
		<tag k="ssr:hovedgruppe" v="sjø" />
		<tag k="ssr:stedsnr" v="684074" />
		<tag k="ssr:type" v="grunneISjø" />
	</node>
	<node id="-186979" lat="67.7715861145" lon="12.7577222229">
		<tag k="name" v="Buholman" />
		<tag k="place" v="islet" />
		<tag k="ssr:date" v="2016-05-11" />
		<tag k="ssr:gruppe" v="kystkontur" />
		<tag k="ssr:hovedgruppe" v="sjø" />
		<tag k="ssr:stedsnr" v="684058" />
		<tag k="ssr:type" v="holmegruppeISjø" />
	</node>
	<node id="-186978" lat="67.6326361108" lon="12.6359666612">
		<tag k="name" v="Vestrehella" />
		<tag k="natural" v="shoal" />
		<tag k="place" v="locality" />
		<tag k="ssr:date" v="2016-05-11" />
		<tag k="ssr:gruppe" v="grunnerISjø" />
		<tag k="ssr:hovedgruppe" v="sjø" />
		<tag k="ssr:stedsnr" v="683401" />
		<tag k="ssr:type" v="grunneISjø" />
	</node>
	<node id="-186977" lat="67.6842500029" lon="12.7848833229">
		<tag k="name" v="Slåklakkskallen" />
		<tag k="natural" v="shoal" />
		<tag k="place" v="locality" />
		<tag k="ssr:date" v="2016-05-11" />
		<tag k="ssr:gruppe" v="grunnerISjø" />
		<tag k="ssr:hovedgruppe" v="sjø" />
		<tag k="ssr:stedsnr" v="683351" />
		<tag k="ssr:type" v="grunneISjø" />
	</node>
	<node id="-186976" lat="67.6690888903" lon="12.7075500009">
		<tag k="name" v="Skjersvikneset" />
		<tag k="natural" v="cape" />
		<tag k="ssr:date" v="2016-05-11" />
		<tag k="ssr:gruppe" v="kystkontur" />
		<tag k="ssr:hovedgruppe" v="sjø" />
		<tag k="ssr:stedsnr" v="683350" />
		<tag k="ssr:type" v="nesISjø" />
	</node>
	<node id="-186975" lat="67.7097861087" lon="12.7130833375">
		<tag k="name" v="Aurholmen" />
		<tag k="place" v="islet" />
		<tag k="ssr:date" v="2016-05-11" />
		<tag k="ssr:gruppe" v="kystkontur" />
		<tag k="ssr:hovedgruppe" v="sjø" />
		<tag k="ssr:stedsnr" v="683334" />
		<tag k="ssr:type" v="holmeISjø" />
	</node>
	<node id="-186974" lat="67.6374194469" lon="12.7122777692">
		<tag k="fixme" v="consider seamark:type=rock or natural=shoal" />
		<tag k="name" v="Kvalbaken" />
		<tag k="place" v="islet" />
		<tag k="ssr:date" v="2016-05-11" />
		<tag k="ssr:gruppe" v="grunnerISjø" />
		<tag k="ssr:hovedgruppe" v="sjø" />
		<tag k="ssr:stedsnr" v="683383" />
		<tag k="ssr:type" v="skjærISjø" />
	</node>
	<node id="-186973" lat="67.6894194407" lon="12.6849722123">
		<tag k="name" v="Gåstjønna" />
		<tag k="natural" v="water" />
		<tag k="ssr:date" v="2016-05-10" />
		<tag k="ssr:gruppe" v="stilleståendeVann" />
		<tag k="ssr:hovedgruppe" v="ferskvann" />
		<tag k="ssr:stedsnr" v="501336" />
		<tag k="ssr:type" v="tjern" />
	</node>
	<node id="-186972" lat="67.6825472212" lon="12.6501388778">
		<tag k="name" v="Skiphalsen" />
		<tag k="natural" v="cape" />
		<tag k="ssr:date" v="2016-05-10" />
		<tag k="ssr:gruppe" v="kystkontur" />
		<tag k="ssr:hovedgruppe" v="sjø" />
		<tag k="ssr:stedsnr" v="501334" />
		<tag k="ssr:type" v="nesISjø" />
	</node>
	<node id="-186971" lat="67.7373666663" lon="12.6571277802">
		<tag k="name" v="Sørholmen" />
		<tag k="place" v="islet" />
		<tag k="ssr:date" v="2016-05-10" />
		<tag k="ssr:gruppe" v="kystkontur" />
		<tag k="ssr:hovedgruppe" v="sjø" />
		<tag k="ssr:stedsnr" v="501328" />
		<tag k="ssr:type" v="holmeISjø" />
	</node>
	<node id="-186970" lat="67.720666665" lon="12.5101694436">
		<tag k="name" v="Ytretusskallen" />
		<tag k="natural" v="shoal" />
		<tag k="place" v="locality" />
		<tag k="ssr:date" v="2016-05-10" />
		<tag k="ssr:gruppe" v="grunnerISjø" />
		<tag k="ssr:hovedgruppe" v="sjø" />
		<tag k="ssr:stedsnr" v="501319" />
		<tag k="ssr:type" v="grunneISjø" />
	</node>
	<node id="-186969" lat="67.7393555564" lon="12.6649027693">
		<tag k="name" v="Nordnakken" />
		<tag k="place" v="islet" />
		<tag k="ssr:date" v="2016-05-10" />
		<tag k="ssr:gruppe" v="kystkontur" />
		<tag k="ssr:hovedgruppe" v="sjø" />
		<tag k="ssr:stedsnr" v="501311" />
		<tag k="ssr:type" v="holmeISjø" />
	</node>
	<node id="-186968" lat="67.6670444407" lon="12.6202555548">
		<tag k="name" v="Helveteshågen" />
		<tag k="natural" v="hill" />
		<tag k="place" v="locality" />
		<tag k="ssr:date" v="2016-05-10" />
		<tag k="ssr:gruppe" v="høyder" />
		<tag k="ssr:hovedgruppe" v="terreng" />
		<tag k="ssr:stedsnr" v="464727" />
		<tag k="ssr:type" v="haug" />
	</node>
	<node id="-186966" lat="67.6600027786" lon="12.7176333326">
		<tag k="name" v="Torvvågan" />
		<tag k="place" v="quarter" />
		<tag k="ssr:date" v="2016-05-10" />
		<tag k="ssr:gruppe" v="bebyggelsesområder" />
		<tag k="ssr:hovedgruppe" v="bebyggelse" />
		<tag k="ssr:stedsnr" v="405666" />
		<tag k="ssr:type" v="boligfelt" />
	</node>
	<node id="-186965" lat="67.7419611111" lon="12.7597027662">
		<tag k="name" v="Fuggelskaret" />
		<tag k="natural" v="valley" />
		<tag k="place" v="locality" />
		<tag k="ssr:date" v="2016-05-10" />
		<tag k="ssr:gruppe" v="senkninger" />
		<tag k="ssr:hovedgruppe" v="terreng" />
		<tag k="ssr:stedsnr" v="405624" />
		<tag k="ssr:type" v="skar" />
	</node>
	<node id="-186964" lat="67.743319444" lon="12.7652305456">
		<tag k="name" v="Austlian" />
		<tag k="natural" v="slope" />
		<tag k="place" v="locality" />
		<tag k="ssr:date" v="2016-05-10" />
		<tag k="ssr:gruppe" v="skråninger" />
		<tag k="ssr:hovedgruppe" v="terreng" />
		<tag k="ssr:stedsnr" v="405623" />
		<tag k="ssr:type" v="li" />
	</node>
	<node id="-186962" lat="67.6929249995" lon="12.7095250048">
		<tag k="amenity" v="place_of_worship" />
		<tag k="denomination" v="lutheran" />
		<tag k="loc_name" v="Værøy" />
		<tag k="name" v="Nordland kirke" />
		<tag k="religion" v="christian" />
		<tag k="ssr:date" v="2020-03-10" />
		<tag k="ssr:gruppe" v="kulturinstitusjoner" />
		<tag k="ssr:hovedgruppe" v="kultur" />
		<tag k="ssr:stedsnr" v="405710" />
		<tag k="ssr:type" v="kirke" />
	</node>
	<node id="-186961" lat="67.690280559" lon="12.7129249975">
		<tag k="name" v="Steinvarden" />
		<tag k="natural" v="hill" />
		<tag k="place" v="locality" />
		<tag k="ssr:date" v="2016-05-10" />
		<tag k="ssr:gruppe" v="høyder" />
		<tag k="ssr:hovedgruppe" v="terreng" />
		<tag k="ssr:stedsnr" v="405709" />
		<tag k="ssr:type" v="haug" />
	</node>
	<node id="-186960" lat="67.682661114" lon="12.7040305516">
		<tag k="name" v="Larslihalsen" />
		<tag k="natural" v="valley" />
		<tag k="place" v="locality" />
		<tag k="ssr:date" v="2016-05-10" />
		<tag k="ssr:gruppe" v="senkninger" />
		<tag k="ssr:hovedgruppe" v="terreng" />
		<tag k="ssr:stedsnr" v="403714" />
		<tag k="ssr:type" v="skar" />
	</node>
	<node id="-186959" lat="67.6767611131" lon="12.6929944341">
		<tag k="name" v="Djupdalen" />
		<tag k="natural" v="valley" />
		<tag k="place" v="locality" />
		<tag k="ssr:date" v="2016-05-10" />
		<tag k="ssr:gruppe" v="senkninger" />
		<tag k="ssr:hovedgruppe" v="terreng" />
		<tag k="ssr:stedsnr" v="403713" />
		<tag k="ssr:type" v="dal" />
	</node>
	<node id="-186958" lat="67.6875583378" lon="12.7075694348">
		<tag k="name" v="Prestlihalsen" />
		<tag k="natural" v="valley" />
		<tag k="place" v="locality" />
		<tag k="ssr:date" v="2016-05-10" />
		<tag k="ssr:gruppe" v="senkninger" />
		<tag k="ssr:hovedgruppe" v="terreng" />
		<tag k="ssr:stedsnr" v="403709" />
		<tag k="ssr:type" v="skar" />
	</node>
	<node id="-186957" lat="67.6237916674" lon="12.529097218">
		<tag k="name" v="Svadbruna" />
		<tag k="natural" v="shoal" />
		<tag k="place" v="locality" />
		<tag k="ssr:date" v="2016-05-10" />
		<tag k="ssr:gruppe" v="grunnerISjø" />
		<tag k="ssr:hovedgruppe" v="sjø" />
		<tag k="ssr:stedsnr" v="501409" />
		<tag k="ssr:type" v="grunneISjø" />
	</node>
	<node id="-186956" lat="67.6359777817" lon="12.6985388859">
		<tag k="alt_name" v="Svartskjeran" />
		<tag k="fixme" v="consider seamark:type=rock or natural=shoal" />
		<tag k="name" v="Svartskjeret" />
		<tag k="place" v="islet" />
		<tag k="ssr:date" v="2016-05-10" />
		<tag k="ssr:gruppe" v="grunnerISjø" />
		<tag k="ssr:hovedgruppe" v="sjø" />
		<tag k="ssr:stedsnr" v="501386" />
		<tag k="ssr:type" v="skjærISjø" />
	</node>
	<node id="-186955" lat="67.6317083346" lon="12.5956444375">
		<tag k="name" v="Månestuva" />
		<tag k="natural" v="hill" />
		<tag k="place" v="locality" />
		<tag k="ssr:date" v="2016-05-10" />
		<tag k="ssr:gruppe" v="høyder" />
		<tag k="ssr:hovedgruppe" v="terreng" />
		<tag k="ssr:stedsnr" v="501381" />
		<tag k="ssr:type" v="haug" />
	</node>
	<node id="-186954" lat="67.6366277778" lon="12.639744438">
		<tag k="name" v="Fauskan" />
		<tag k="natural" v="shoal" />
		<tag k="place" v="locality" />
		<tag k="ssr:date" v="2016-05-10" />
		<tag k="ssr:gruppe" v="grunnerISjø" />
		<tag k="ssr:hovedgruppe" v="sjø" />
		<tag k="ssr:stedsnr" v="501378" />
		<tag k="ssr:type" v="grunneISjø" />
	</node>
	<node id="-186953" lat="67.6566083376" lon="12.6455555487">
		<tag k="alt_name" v="Tjyvskaret" />
		<tag k="name" v="Tjuvskardet" />
		<tag k="natural" v="valley" />
		<tag k="place" v="locality" />
		<tag k="ssr:date" v="2016-05-10" />
		<tag k="ssr:gruppe" v="senkninger" />
		<tag k="ssr:hovedgruppe" v="terreng" />
		<tag k="ssr:stedsnr" v="501374" />
		<tag k="ssr:type" v="skar" />
	</node>
	<node id="-186952" lat="67.6533777811" lon="12.5699388866">
		<tag k="name" v="Knappen" />
		<tag k="natural" v="cape" />
		<tag k="ssr:date" v="2016-05-10" />
		<tag k="ssr:gruppe" v="kystkontur" />
		<tag k="ssr:hovedgruppe" v="sjø" />
		<tag k="ssr:stedsnr" v="501363" />
		<tag k="ssr:type" v="nesISjø" />
	</node>
	<node id="-186951" lat="67.6709722207" lon="12.6211305535">
		<tag k="name" v="Slettstranda" />
		<tag k="natural" v="beach" />
		<tag k="place" v="locality" />
		<tag k="ssr:date" v="2016-05-10" />
		<tag k="ssr:gruppe" v="kystkontur" />
		<tag k="ssr:hovedgruppe" v="sjø" />
		<tag k="ssr:stedsnr" v="501357" />
		<tag k="ssr:type" v="strandISjø" />
	</node>
	<node id="-186950" lat="67.6953833309" lon="12.7369972326">
		<tag k="name" v="Lamholmen" />
		<tag k="place" v="islet" />
		<tag k="ssr:date" v="2016-05-10" />
		<tag k="ssr:gruppe" v="kystkontur" />
		<tag k="ssr:hovedgruppe" v="sjø" />
		<tag k="ssr:stedsnr" v="501344" />
		<tag k="ssr:type" v="holmeISjø" />
	</node>
	<node id="-186949" lat="67.69055833" lon="12.7159694472">
		<tag k="name" v="Mollan" />
		<tag k="natural" v="hill" />
		<tag k="place" v="locality" />
		<tag k="ssr:date" v="2016-05-10" />
		<tag k="ssr:gruppe" v="høyder" />
		<tag k="ssr:hovedgruppe" v="terreng" />
		<tag k="ssr:stedsnr" v="344722" />
		<tag k="ssr:type" v="haug" />
	</node>
	<node id="-186948" lat="67.7380750037" lon="12.6615750052">
		<tag k="name" v="Skarvholman" />
		<tag k="place" v="island" />
		<tag k="ssr:date" v="2016-05-10" />
		<tag k="ssr:gruppe" v="kystkontur" />
		<tag k="ssr:hovedgruppe" v="sjø" />
		<tag k="ssr:stedsnr" v="472247" />
		<tag k="ssr:type" v="øyISjø" />
	</node>
	<node id="-186947" lat="67.6579666622" lon="12.7222416747">
		<tag k="name" v="Torvvågen" />
		<tag k="natural" v="bay" />
		<tag k="ssr:date" v="2016-05-10" />
		<tag k="ssr:gruppe" v="kystkontur" />
		<tag k="ssr:hovedgruppe" v="sjø" />
		<tag k="ssr:stedsnr" v="471652" />
		<tag k="ssr:type" v="vikISjø" />
	</node>
	<node id="-186946" lat="67.6495555535" lon="12.5827138929">
		<tag k="fixme" v="consider natural=peak for the most distinct mountains in the district" />
		<tag k="name" v="Lundsteinen" />
		<tag k="natural" v="hill" />
		<tag k="place" v="locality" />
		<tag k="ssr:date" v="2016-05-10" />
		<tag k="ssr:gruppe" v="høyder" />
		<tag k="ssr:hovedgruppe" v="terreng" />
		<tag k="ssr:stedsnr" v="465825" />
		<tag k="ssr:type" v="fjell" />
	</node>
	<node id="-186945" lat="67.6429222219" lon="12.5615638976">
		<tag k="fixme" v="consider seamark:type=rock or natural=shoal" />
		<tag k="name" v="Krykkjesteinan" />
		<tag k="place" v="islet" />
		<tag k="ssr:date" v="2016-05-10" />
		<tag k="ssr:gruppe" v="grunnerISjø" />
		<tag k="ssr:hovedgruppe" v="sjø" />
		<tag k="ssr:stedsnr" v="465777" />
		<tag k="ssr:type" v="skjærISjø" />
	</node>
	<node id="-186944" lat="67.6966527758" lon="12.7378916694">
		<tag k="name" v="Nordsundet" />
		<tag k="natural" v="strait" />
		<tag k="ssr:date" v="2016-05-10" />
		<tag k="ssr:gruppe" v="kystkontur" />
		<tag k="ssr:hovedgruppe" v="sjø" />
		<tag k="ssr:stedsnr" v="465697" />
		<tag k="ssr:type" v="sundISjø" />
	</node>
	<node id="-186943" lat="67.66740556" lon="12.6989138811">
		<tag k="name" v="Tjyvberget" />
		<tag k="natural" v="hill" />
		<tag k="place" v="locality" />
		<tag k="ssr:date" v="2016-05-10" />
		<tag k="ssr:gruppe" v="høyder" />
		<tag k="ssr:hovedgruppe" v="terreng" />
		<tag k="ssr:stedsnr" v="465661" />
		<tag k="ssr:type" v="berg" />
	</node>
	<node id="-186942" lat="67.6905833307" lon="12.6759305494">
		<tag k="name" v="Kvilsteinan" />
		<tag k="natural" v="stone" />
		<tag k="ssr:date" v="2016-05-10" />
		<tag k="ssr:gruppe" v="løsmasseavsetninger" />
		<tag k="ssr:hovedgruppe" v="markslag" />
		<tag k="ssr:stedsnr" v="465644" />
		<tag k="ssr:type" v="stein" />
	</node>
	<node id="-186941" lat="67.6585472236" lon="12.7148555624">
		<tag k="name" v="Venes" />
		<tag k="place" v="quarter" />
		<tag k="ssr:date" v="2016-05-10" />
		<tag k="ssr:gruppe" v="bebyggelsesområder" />
		<tag k="ssr:hovedgruppe" v="bebyggelse" />
		<tag k="ssr:stedsnr" v="465634" />
		<tag k="ssr:type" v="boligfelt" />
	</node>
	<node id="-186940" lat="67.683902775" lon="12.7054916716">
		<tag k="name" v="Høggjerdan" />
		<tag k="place" v="locality" />
		<tag k="ssr:date" v="2016-05-10" />
		<tag k="ssr:gruppe" v="flater" />
		<tag k="ssr:hovedgruppe" v="terreng" />
		<tag k="ssr:stedsnr" v="464738" />
		<tag k="ssr:type" v="mo" />
	</node>
	<node id="-186939" lat="67.6604166693" lon="12.6333805471">
		<tag k="name" v="Repphellaren" />
		<tag k="natural" v="hill" />
		<tag k="place" v="locality" />
		<tag k="ssr:date" v="2016-05-10" />
		<tag k="ssr:gruppe" v="høyder" />
		<tag k="ssr:hovedgruppe" v="terreng" />
		<tag k="ssr:stedsnr" v="464730" />
		<tag k="ssr:type" v="berg" />
	</node>
	<node id="-186938" lat="67.6695499962" lon="12.7020777873">
		<tag k="name" v="Einingan" />
		<tag k="place" v="locality" />
		<tag k="ssr:date" v="2016-05-10" />
		<tag k="ssr:gruppe" v="flater" />
		<tag k="ssr:hovedgruppe" v="terreng" />
		<tag k="ssr:stedsnr" v="464700" />
		<tag k="ssr:type" v="mo" />
	</node>
	<node id="-186937" lat="67.6436055526" lon="12.7282833437">
		<tag k="name" v="Sørlandsvågen" />
		<tag k="natural" v="bay" />
		<tag k="ssr:date" v="2016-05-10" />
		<tag k="ssr:gruppe" v="kystkontur" />
		<tag k="ssr:hovedgruppe" v="sjø" />
		<tag k="ssr:stedsnr" v="258409" />
		<tag k="ssr:type" v="vikISjø" />
	</node>
	<node id="-186936" lat="67.6826222203" lon="12.6734111073">
		<tag k="fixme" v="consider natural=peak for the most distinct mountains in the district" />
		<tag k="name" v="Gjerdheia" />
		<tag k="natural" v="hill" />
		<tag k="place" v="locality" />
		<tag k="ssr:date" v="2016-05-10" />
		<tag k="ssr:gruppe" v="høyder" />
		<tag k="ssr:hovedgruppe" v="terreng" />
		<tag k="ssr:stedsnr" v="258372" />
		<tag k="ssr:type" v="ås" />
	</node>
	<node id="-186935" lat="67.6868194421" lon="12.671980557">
		<tag k="name" v="Sandtjønna" />
		<tag k="natural" v="water" />
		<tag k="ssr:date" v="2016-05-10" />
		<tag k="ssr:gruppe" v="stilleståendeVann" />
		<tag k="ssr:hovedgruppe" v="ferskvann" />
		<tag k="ssr:stedsnr" v="258364" />
		<tag k="ssr:type" v="tjern" />
	</node>
	<node id="-186934" lat="67.6917777751" lon="12.6905277668">
		<tag k="name" v="Grindgården" />
		<tag k="place" v="farm" />
		<tag k="ssr:date" v="2016-05-10" />
		<tag k="ssr:gruppe" v="gardsbebyggelse" />
		<tag k="ssr:hovedgruppe" v="bebyggelse" />
		<tag k="ssr:stedsnr" v="258361" />
		<tag k="ssr:type" v="bruk" />
	</node>
	<node id="-186933" lat="67.6891888858" lon="12.6750305507">
		<tag k="name" v="Ørntuva" />
		<tag k="natural" v="hill" />
		<tag k="place" v="locality" />
		<tag k="ssr:date" v="2016-05-10" />
		<tag k="ssr:gruppe" v="høyder" />
		<tag k="ssr:hovedgruppe" v="terreng" />
		<tag k="ssr:stedsnr" v="258360" />
		<tag k="ssr:type" v="haug" />
	</node>
	<node id="-186932" lat="67.7607750031" lon="12.7855583261">
		<tag k="name" v="Forhammarbåen" />
		<tag k="natural" v="shoal" />
		<tag k="place" v="locality" />
		<tag k="ssr:date" v="2016-05-10" />
		<tag k="ssr:gruppe" v="grunnerISjø" />
		<tag k="ssr:hovedgruppe" v="sjø" />
		<tag k="ssr:stedsnr" v="442089" />
		<tag k="ssr:type" v="grunneISjø" />
	</node>
	<node id="-186931" lat="67.7766694473" lon="12.7444444555">
		<tag k="name" v="Buholmskallan" />
		<tag k="natural" v="shoal" />
		<tag k="place" v="locality" />
		<tag k="ssr:date" v="2016-05-10" />
		<tag k="ssr:gruppe" v="grunnerISjø" />
		<tag k="ssr:hovedgruppe" v="sjø" />
		<tag k="ssr:stedsnr" v="442086" />
		<tag k="ssr:type" v="grunneISjø" />
	</node>
	<node id="-186930" lat="67.6108027805" lon="12.5986777755">
		<tag k="name" v="Heimrefallet" />
		<tag k="natural" v="shoal" />
		<tag k="place" v="locality" />
		<tag k="ssr:date" v="2016-05-10" />
		<tag k="ssr:gruppe" v="grunnerISjø" />
		<tag k="ssr:hovedgruppe" v="sjø" />
		<tag k="ssr:stedsnr" v="441420" />
		<tag k="ssr:type" v="grunneISjø" />
	</node>
	<node id="-186929" lat="67.6405527813" lon="12.6728805607">
		<tag k="name" v="Austrehella" />
		<tag k="natural" v="shoal" />
		<tag k="place" v="locality" />
		<tag k="ssr:date" v="2016-05-10" />
		<tag k="ssr:gruppe" v="grunnerISjø" />
		<tag k="ssr:hovedgruppe" v="sjø" />
		<tag k="ssr:stedsnr" v="441408" />
		<tag k="ssr:type" v="grunneISjø" />
	</node>
	<node id="-186928" lat="67.6494138867" lon="12.5744055471">
		<tag k="alt_name" v="Lundurda" />
		<tag k="name" v="Lundura" />
		<tag k="natural" v="scree" />
		<tag k="ssr:date" v="2016-05-10" />
		<tag k="ssr:gruppe" v="løsmasseavsetninger" />
		<tag k="ssr:hovedgruppe" v="markslag" />
		<tag k="ssr:stedsnr" v="441397" />
		<tag k="ssr:type" v="ur" />
	</node>
	<node id="-186927" lat="67.6723499993" lon="12.7031444394">
		<tag k="name" v="Skjersvika" />
		<tag k="natural" v="bay" />
		<tag k="ssr:date" v="2016-05-10" />
		<tag k="ssr:gruppe" v="kystkontur" />
		<tag k="ssr:hovedgruppe" v="sjø" />
		<tag k="ssr:stedsnr" v="440397" />
		<tag k="ssr:type" v="vikISjø" />
	</node>
	<node id="-186926" lat="67.6933305587" lon="12.7255249887">
		<tag k="name" v="Prestholmen" />
		<tag k="natural" v="cape" />
		<tag k="ssr:date" v="2016-05-10" />
		<tag k="ssr:gruppe" v="kystkontur" />
		<tag k="ssr:hovedgruppe" v="sjø" />
		<tag k="ssr:stedsnr" v="440392" />
		<tag k="ssr:type" v="nesISjø" />
	</node>
	<node id="-186925" lat="67.6544972246" lon="12.7268222212">
		<tag k="aeroway" v="aerodrome" />
		<tag k="alt_name" v="Tabbisodden" />
		<tag k="name" v="Værøy helikopterhavn, Tabbisodden" />
		<tag k="old_name" v="Værøy helikopterplass" />
		<tag k="ssr:date" v="2016-05-10" />
		<tag k="ssr:gruppe" v="luftfart" />
		<tag k="ssr:hovedgruppe" v="infrastruktur" />
		<tag k="ssr:stedsnr" v="440381" />
		<tag k="ssr:type" v="flyplass" />
	</node>
	<node id="-186924" lat="67.7160194448" lon="12.7920638868">
		<tag k="alt_name" v="Flesa" />
		<tag k="fixme" v="consider seamark:type=rock or natural=shoal" />
		<tag k="name" v="Indreflesa" />
		<tag k="place" v="islet" />
		<tag k="ssr:date" v="2016-05-10" />
		<tag k="ssr:gruppe" v="grunnerISjø" />
		<tag k="ssr:hovedgruppe" v="sjø" />
		<tag k="ssr:stedsnr" v="440375" />
		<tag k="ssr:type" v="skjærISjø" />
	</node>
	<node id="-186923" lat="67.7127666689" lon="12.5328361137">
		<tag k="alt_name" v="Tusskallan" />
		<tag k="name" v="Tusskallen" />
		<tag k="natural" v="shoal" />
		<tag k="place" v="locality" />
		<tag k="ssr:date" v="2016-05-10" />
		<tag k="ssr:gruppe" v="grunnerISjø" />
		<tag k="ssr:hovedgruppe" v="sjø" />
		<tag k="ssr:stedsnr" v="440374" />
		<tag k="ssr:type" v="grunneISjø" />
	</node>
	<node id="-186922" lat="67.6146249994" lon="12.5647166765">
		<tag k="name" v="Kalltåga" />
		<tag k="natural" v="shoal" />
		<tag k="place" v="locality" />
		<tag k="ssr:date" v="2016-05-10" />
		<tag k="ssr:gruppe" v="grunnerISjø" />
		<tag k="ssr:hovedgruppe" v="sjø" />
		<tag k="ssr:stedsnr" v="198414" />
		<tag k="ssr:type" v="grunneISjø" />
	</node>
	<node id="-186921" lat="67.6164277782" lon="12.5186388972">
		<tag k="alt_name" v="Rørliskallan" />
		<tag k="name" v="Røliskallan" />
		<tag k="natural" v="shoal" />
		<tag k="place" v="locality" />
		<tag k="ssr:date" v="2016-05-10" />
		<tag k="ssr:gruppe" v="grunnerISjø" />
		<tag k="ssr:hovedgruppe" v="sjø" />
		<tag k="ssr:stedsnr" v="198413" />
		<tag k="ssr:type" v="grunneISjø" />
	</node>
	<node id="-186920" lat="67.5994416631" lon="12.6131694383">
		<tag k="name" v="Foten" />
		<tag k="natural" v="shoal" />
		<tag k="place" v="locality" />
		<tag k="ssr:date" v="2016-05-10" />
		<tag k="ssr:gruppe" v="grunnerISjø" />
		<tag k="ssr:hovedgruppe" v="sjø" />
		<tag k="ssr:stedsnr" v="198403" />
		<tag k="ssr:type" v="grunneISjø" />
	</node>
	<node id="-186919" lat="67.6635527745" lon="12.6268833222">
		<tag k="fixme" v="multiple name tags, choose one and add the other to alt_name; consider natural=peak for the most distinct mountains in the district" />
		<tag k="name" v="Håen;Håtua" />
		<tag k="natural" v="hill" />
		<tag k="place" v="locality" />
		<tag k="ssr:date" v="2016-05-10" />
		<tag k="ssr:gruppe" v="høyder" />
		<tag k="ssr:hovedgruppe" v="terreng" />
		<tag k="ssr:stedsnr" v="198355" />
		<tag k="ssr:type" v="fjell" />
	</node>
	<node id="-186918" lat="67.6664222249" lon="12.6354194346">
		<tag k="fixme" v="multiple name tags, choose one and add the other to alt_name; consider natural=peak for the most distinct mountains in the district" />
		<tag k="name" v="Heia;Håheia" />
		<tag k="natural" v="hill" />
		<tag k="place" v="locality" />
		<tag k="ssr:date" v="2016-05-10" />
		<tag k="ssr:gruppe" v="høyder" />
		<tag k="ssr:hovedgruppe" v="terreng" />
		<tag k="ssr:stedsnr" v="198354" />
		<tag k="ssr:type" v="ås" />
	</node>
	<node id="-186917" lat="67.6778000025" lon="12.6640000024">
		<tag k="alt_name" v="Værøy" />
		<tag k="name" v="Værøya" />
		<tag k="place" v="island" />
		<tag k="ssr:date" v="2016-05-10" />
		<tag k="ssr:gruppe" v="kystkontur" />
		<tag k="ssr:hovedgruppe" v="sjø" />
		<tag k="ssr:stedsnr" v="198346" />
		<tag k="ssr:type" v="øyISjø" />
	</node>
	<node id="-186916" lat="67.6656361094" lon="12.6978388885">
		<tag k="name" v="Sørland" />
		<tag k="place" v="village" />
		<tag k="ssr:date" v="2016-05-10" />
		<tag k="ssr:gruppe" v="bebyggelsesområder" />
		<tag k="ssr:hovedgruppe" v="bebyggelse" />
		<tag k="ssr:stedsnr" v="198332" />
		<tag k="ssr:type" v="tettsted" />
	</node>
	<node id="-186915" lat="67.7334472259" lon="12.7019749911">
		<tag k="alt_name" v="Kullskjeret" />
		<tag k="fixme" v="consider seamark:type=rock or natural=shoal" />
		<tag k="name" v="Kolskjeret" />
		<tag k="place" v="islet" />
		<tag k="ssr:date" v="2016-05-10" />
		<tag k="ssr:gruppe" v="grunnerISjø" />
		<tag k="ssr:hovedgruppe" v="sjø" />
		<tag k="ssr:stedsnr" v="198316" />
		<tag k="ssr:type" v="skjærISjø" />
	</node>
	<node id="-186914" lat="67.7465611108" lon="12.6976583251">
		<tag k="alt_name" v="Vesterslåklakken" />
		<tag k="fixme" v="multiple name tags, choose one and add the other to alt_name" />
		<tag k="name" v="Slåklakkan;Vestreslåklakken" />
		<tag k="place" v="islet" />
		<tag k="ssr:date" v="2016-05-10" />
		<tag k="ssr:gruppe" v="kystkontur" />
		<tag k="ssr:hovedgruppe" v="sjø" />
		<tag k="ssr:stedsnr" v="198311" />
		<tag k="ssr:type" v="holmeISjø" />
	</node>
	<node id="-186913" lat="67.7481250039" lon="12.751822223">
		<tag k="name" v="Salen" />
		<tag k="natural" v="hill" />
		<tag k="place" v="locality" />
		<tag k="ssr:date" v="2016-05-10" />
		<tag k="ssr:gruppe" v="høyder" />
		<tag k="ssr:hovedgruppe" v="terreng" />
		<tag k="ssr:stedsnr" v="198309" />
		<tag k="ssr:type" v="berg" />
	</node>
	<node id="-186912" lat="67.6335638843" lon="12.5738444552">
		<tag k="name" v="Koppan" />
		<tag k="natural" v="cape" />
		<tag k="ssr:date" v="2016-05-10" />
		<tag k="ssr:gruppe" v="kystkontur" />
		<tag k="ssr:hovedgruppe" v="sjø" />
		<tag k="ssr:stedsnr" v="290588" />
		<tag k="ssr:type" v="nesISjø" />
	</node>
	<node id="-186911" lat="67.6414138878" lon="12.6977499952">
		<tag k="fixme" v="consider natural=peak for the most distinct mountains in the district" />
		<tag k="name" v="Fersktuva" />
		<tag k="natural" v="hill" />
		<tag k="place" v="locality" />
		<tag k="ssr:date" v="2016-05-10" />
		<tag k="ssr:gruppe" v="høyder" />
		<tag k="ssr:hovedgruppe" v="terreng" />
		<tag k="ssr:stedsnr" v="283815" />
		<tag k="ssr:type" v="ås" />
	</node>
	<node id="-186910" lat="67.6469222263" lon="12.5644749914">
		<tag k="name" v="Jordneset" />
		<tag k="natural" v="cape" />
		<tag k="ssr:date" v="2016-05-10" />
		<tag k="ssr:gruppe" v="kystkontur" />
		<tag k="ssr:hovedgruppe" v="sjø" />
		<tag k="ssr:stedsnr" v="283813" />
		<tag k="ssr:type" v="nesISjø" />
	</node>
	<node id="-186909" lat="67.6305722247" lon="12.5917027792">
		<tag k="name" v="Stakkbukta" />
		<tag k="natural" v="bay" />
		<tag k="ssr:date" v="2016-05-10" />
		<tag k="ssr:gruppe" v="kystkontur" />
		<tag k="ssr:hovedgruppe" v="sjø" />
		<tag k="ssr:stedsnr" v="283800" />
		<tag k="ssr:type" v="vikISjø" />
	</node>
	<node id="-186908" lat="67.6397722264" lon="12.5785083273">
		<tag k="name" v="Skarvhamran" />
		<tag k="natural" v="hill" />
		<tag k="place" v="locality" />
		<tag k="ssr:date" v="2016-05-10" />
		<tag k="ssr:gruppe" v="høyder" />
		<tag k="ssr:hovedgruppe" v="terreng" />
		<tag k="ssr:stedsnr" v="283765" />
		<tag k="ssr:type" v="berg" />
	</node>
	<node id="-186907" lat="67.6429666677" lon="12.5814083363">
		<tag k="fixme" v="consider natural=peak for the most distinct mountains in the district" />
		<tag k="name" v="Blåbrekkrabben" />
		<tag k="natural" v="hill" />
		<tag k="place" v="locality" />
		<tag k="ssr:date" v="2016-05-10" />
		<tag k="ssr:gruppe" v="høyder" />
		<tag k="ssr:hovedgruppe" v="terreng" />
		<tag k="ssr:stedsnr" v="283762" />
		<tag k="ssr:type" v="fjell" />
	</node>
	<node id="-186906" lat="67.6973666709" lon="12.7429027786">
		<tag k="fixme" v="consider seamark:type=rock or natural=shoal" />
		<tag k="name" v="Lamholmskjeran" />
		<tag k="place" v="islet" />
		<tag k="ssr:date" v="2016-05-10" />
		<tag k="ssr:gruppe" v="grunnerISjø" />
		<tag k="ssr:hovedgruppe" v="sjø" />
		<tag k="ssr:stedsnr" v="283688" />
		<tag k="ssr:type" v="skjærISjø" />
	</node>
	<node id="-186905" lat="67.6488027812" lon="12.7016944411">
		<tag k="name" v="Kvalnessteinan" />
		<tag k="natural" v="cape" />
		<tag k="ssr:date" v="2016-05-10" />
		<tag k="ssr:gruppe" v="kystkontur" />
		<tag k="ssr:hovedgruppe" v="sjø" />
		<tag k="ssr:stedsnr" v="283629" />
		<tag k="ssr:type" v="nesISjø" />
	</node>
	<node id="-186904" lat="67.6536305574" lon="12.7246416716">
		<tag k="name" v="Håkjerringvika" />
		<tag k="natural" v="bay" />
		<tag k="ssr:date" v="2016-05-10" />
		<tag k="ssr:gruppe" v="kystkontur" />
		<tag k="ssr:hovedgruppe" v="sjø" />
		<tag k="ssr:stedsnr" v="283628" />
		<tag k="ssr:type" v="vikISjø" />
	</node>
	<node id="-186903" lat="67.6580888924" lon="12.7046333267">
		<tag k="name" v="Sørlandsvågen" />
		<tag k="natural" v="bay" />
		<tag k="ssr:date" v="2016-05-10" />
		<tag k="ssr:gruppe" v="kystkontur" />
		<tag k="ssr:hovedgruppe" v="sjø" />
		<tag k="ssr:stedsnr" v="283612" />
		<tag k="ssr:type" v="vågISjø" />
	</node>
	<node id="-186902" lat="67.6541166668" lon="12.6923111018">
		<tag k="fixme" v="consider natural=peak for the most distinct mountains in the district" />
		<tag k="name" v="Hermertinden" />
		<tag k="natural" v="hill" />
		<tag k="place" v="locality" />
		<tag k="ssr:date" v="2016-05-10" />
		<tag k="ssr:gruppe" v="høyder" />
		<tag k="ssr:hovedgruppe" v="terreng" />
		<tag k="ssr:stedsnr" v="283611" />
		<tag k="ssr:type" v="ås" />
	</node>
	<node id="-186901" lat="67.6771555522" lon="12.7376888891">
		<tag k="fixme" v="consider seamark:type=rock or natural=shoal" />
		<tag k="name" v="Trollet" />
		<tag k="place" v="islet" />
		<tag k="ssr:date" v="2016-05-10" />
		<tag k="ssr:gruppe" v="grunnerISjø" />
		<tag k="ssr:hovedgruppe" v="sjø" />
		<tag k="ssr:stedsnr" v="282656" />
		<tag k="ssr:type" v="skjærISjø" />
	</node>
	<node id="-186900" lat="67.6337000003" lon="12.5925861024">
		<tag k="name" v="Osætan" />
		<tag k="natural" v="hill" />
		<tag k="place" v="locality" />
		<tag k="ssr:date" v="2016-05-10" />
		<tag k="ssr:gruppe" v="høyder" />
		<tag k="ssr:hovedgruppe" v="terreng" />
		<tag k="ssr:stedsnr" v="162822" />
		<tag k="ssr:type" v="berg" />
	</node>
	<node id="-186899" lat="67.641602778" lon="12.5712000093">
		<tag k="fixme" v="consider seamark:type=rock or natural=shoal" />
		<tag k="name" v="Omfløddholmen" />
		<tag k="place" v="islet" />
		<tag k="ssr:date" v="2016-05-10" />
		<tag k="ssr:gruppe" v="grunnerISjø" />
		<tag k="ssr:hovedgruppe" v="sjø" />
		<tag k="ssr:stedsnr" v="162806" />
		<tag k="ssr:type" v="skjærISjø" />
	</node>
	<node id="-186898" lat="67.6643527757" lon="12.7084361126">
		<tag k="name" v="Vågstranda" />
		<tag k="place" v="quarter" />
		<tag k="ssr:date" v="2016-05-10" />
		<tag k="ssr:gruppe" v="bebyggelsesområder" />
		<tag k="ssr:hovedgruppe" v="bebyggelse" />
		<tag k="ssr:stedsnr" v="162673" />
		<tag k="ssr:type" v="boligfelt" />
	</node>
	<node id="-186897" lat="67.6638666632" lon="12.7044944458">
		<tag k="name" v="Leiran" />
		<tag k="place" v="locality" />
		<tag k="ssr:date" v="2016-05-10" />
		<tag k="ssr:gruppe" v="løsmasseavsetninger" />
		<tag k="ssr:hovedgruppe" v="markslag" />
		<tag k="ssr:stedsnr" v="162672" />
		<tag k="ssr:type" v="øyr" />
	</node>
	<node id="-186896" lat="67.6913749964" lon="12.7083305531">
		<tag k="name" v="Kildmyra" />
		<tag k="natural" v="wetland" />
		<tag k="ssr:date" v="2016-05-10" />
		<tag k="ssr:gruppe" v="våtmark" />
		<tag k="ssr:hovedgruppe" v="markslag" />
		<tag k="ssr:stedsnr" v="162711" />
		<tag k="ssr:type" v="myr" />
	</node>
	<node id="-186895" lat="67.738197218" lon="12.6621611169">
		<tag k="name" v="Nordholmen" />
		<tag k="place" v="islet" />
		<tag k="ssr:date" v="2016-05-10" />
		<tag k="ssr:gruppe" v="kystkontur" />
		<tag k="ssr:hovedgruppe" v="sjø" />
		<tag k="ssr:stedsnr" v="137317" />
		<tag k="ssr:type" v="holmeISjø" />
	</node>
	<node id="-186894" lat="67.758233335" lon="12.7729277836">
		<tag k="name" v="Forhammaren" />
		<tag k="place" v="islet" />
		<tag k="ssr:date" v="2016-05-10" />
		<tag k="ssr:gruppe" v="kystkontur" />
		<tag k="ssr:hovedgruppe" v="sjø" />
		<tag k="ssr:stedsnr" v="260100" />
		<tag k="ssr:type" v="holmeISjø" />
	</node>
	<node id="-186893" lat="67.7319416685" lon="12.5599138815">
		<tag k="name" v="Sørhandtaren" />
		<tag k="natural" v="shoal" />
		<tag k="place" v="locality" />
		<tag k="ssr:date" v="2016-05-10" />
		<tag k="ssr:gruppe" v="grunnerISjø" />
		<tag k="ssr:hovedgruppe" v="sjø" />
		<tag k="ssr:stedsnr" v="258348" />
		<tag k="ssr:type" v="grunneISjø" />
	</node>
	<node id="-186892" lat="67.7456972233" lon="12.7120444546">
		<tag k="alt_name" v="Austerslåklakken" />
		<tag k="name" v="Austreslåklakken" />
		<tag k="place" v="islet" />
		<tag k="ssr:date" v="2016-05-10" />
		<tag k="ssr:gruppe" v="kystkontur" />
		<tag k="ssr:hovedgruppe" v="sjø" />
		<tag k="ssr:stedsnr" v="258347" />
		<tag k="ssr:type" v="holmeISjø" />
	</node>
	<node id="-186891" lat="67.6786111134" lon="12.7390361046">
		<tag k="alt_name" v="Vettmålskjeret" />
		<tag k="fixme" v="consider seamark:type=rock or natural=shoal" />
		<tag k="name" v="Vetmålsskjeret" />
		<tag k="place" v="islet" />
		<tag k="ssr:date" v="2016-05-10" />
		<tag k="ssr:gruppe" v="grunnerISjø" />
		<tag k="ssr:hovedgruppe" v="sjø" />
		<tag k="ssr:stedsnr" v="258394" />
		<tag k="ssr:type" v="skjærISjø" />
	</node>
	<node id="-186890" lat="67.6552555517" lon="12.5768222146">
		<tag k="alt_name" v="Svaneset" />
		<tag k="name" v="Svadneset" />
		<tag k="natural" v="cape" />
		<tag k="ssr:date" v="2016-05-10" />
		<tag k="ssr:gruppe" v="kystkontur" />
		<tag k="ssr:hovedgruppe" v="sjø" />
		<tag k="ssr:stedsnr" v="258387" />
		<tag k="ssr:type" v="nesISjø" />
	</node>
	<node id="-186889" lat="67.6656000026" lon="12.6754472304">
		<tag k="name" v="Holmen" />
		<tag k="natural" v="cape" />
		<tag k="ssr:date" v="2016-05-10" />
		<tag k="ssr:gruppe" v="kystkontur" />
		<tag k="ssr:hovedgruppe" v="sjø" />
		<tag k="ssr:stedsnr" v="258385" />
		<tag k="ssr:type" v="nesISjø" />
	</node>
	<node id="-186887" lat="67.6911027745" lon="12.7190083301">
		<tag k="name" v="Sjybakkan" />
		<tag k="natural" v="slope" />
		<tag k="place" v="locality" />
		<tag k="ssr:date" v="2016-05-10" />
		<tag k="ssr:gruppe" v="skråninger" />
		<tag k="ssr:hovedgruppe" v="terreng" />
		<tag k="ssr:stedsnr" v="41704" />
		<tag k="ssr:type" v="bakke" />
	</node>
	<node id="-186886" lat="67.6927083294" lon="12.7208861159">
		<tag k="name" v="Sjyberget" />
		<tag k="natural" v="hill" />
		<tag k="place" v="locality" />
		<tag k="ssr:date" v="2016-05-10" />
		<tag k="ssr:gruppe" v="høyder" />
		<tag k="ssr:hovedgruppe" v="terreng" />
		<tag k="ssr:stedsnr" v="41702" />
		<tag k="ssr:type" v="berg" />
	</node>
	<node id="-186885" lat="67.7391444461" lon="12.7605638776">
		<tag k="name" v="Mighalsen" />
		<tag k="natural" v="valley" />
		<tag k="place" v="locality" />
		<tag k="ssr:date" v="2016-05-10" />
		<tag k="ssr:gruppe" v="senkninger" />
		<tag k="ssr:hovedgruppe" v="terreng" />
		<tag k="ssr:stedsnr" v="41604" />
		<tag k="ssr:type" v="skar" />
	</node>
	<node id="-186884" lat="67.6675027797" lon="12.6164805573">
		<tag k="name" v="Kringla" />
		<tag k="natural" v="bay" />
		<tag k="ssr:date" v="2016-05-10" />
		<tag k="ssr:gruppe" v="kystkontur" />
		<tag k="ssr:hovedgruppe" v="sjø" />
		<tag k="ssr:stedsnr" v="39655" />
		<tag k="ssr:type" v="vikISjø" />
	</node>
	<node id="-186883" lat="67.6445388897" lon="12.5616583294">
		<tag k="name" v="Eldsneset" />
		<tag k="natural" v="cape" />
		<tag k="ssr:date" v="2016-05-10" />
		<tag k="ssr:gruppe" v="kystkontur" />
		<tag k="ssr:hovedgruppe" v="sjø" />
		<tag k="ssr:stedsnr" v="230594" />
		<tag k="ssr:type" v="nesISjø" />
	</node>
	<node id="-186882" lat="67.7348027822" lon="12.8076166712">
		<tag k="name" v="Brunskallen" />
		<tag k="natural" v="shoal" />
		<tag k="place" v="locality" />
		<tag k="ssr:date" v="2016-05-10" />
		<tag k="ssr:gruppe" v="grunnerISjø" />
		<tag k="ssr:hovedgruppe" v="sjø" />
		<tag k="ssr:stedsnr" v="229259" />
		<tag k="ssr:type" v="grunneISjø" />
	</node>
	<node id="-186881" lat="67.6429583305" lon="12.4589111024">
		<tag k="name" v="Toppskallan" />
		<tag k="natural" v="shoal" />
		<tag k="place" v="locality" />
		<tag k="ssr:date" v="2016-05-10" />
		<tag k="ssr:gruppe" v="grunnerISjø" />
		<tag k="ssr:hovedgruppe" v="sjø" />
		<tag k="ssr:stedsnr" v="16354" />
		<tag k="ssr:type" v="grunneISjø" />
	</node>
	<node id="-186880" lat="67.6600555534" lon="12.6265027829">
		<tag k="fixme" v="multiple name tags, choose one and add the other to alt_name" />
		<tag k="name" v="Rund-Sanden;Sanden" />
		<tag k="natural" v="cape" />
		<tag k="ssr:date" v="2016-05-10" />
		<tag k="ssr:gruppe" v="kystkontur" />
		<tag k="ssr:hovedgruppe" v="sjø" />
		<tag k="ssr:stedsnr" v="16344" />
		<tag k="ssr:type" v="nesISjø" />
	</node>
	<node id="-186879" lat="67.6756194485" lon="12.7634111023">
		<tag k="name" v="Småbrotflua" />
		<tag k="natural" v="shoal" />
		<tag k="place" v="locality" />
		<tag k="ssr:date" v="2016-05-10" />
		<tag k="ssr:gruppe" v="grunnerISjø" />
		<tag k="ssr:hovedgruppe" v="sjø" />
		<tag k="ssr:stedsnr" v="16343" />
		<tag k="ssr:type" v="grunneISjø" />
	</node>
	<node id="-186878" lat="67.670341668" lon="12.7620472123">
		<tag k="name" v="Hammarskallen" />
		<tag k="natural" v="shoal" />
		<tag k="place" v="locality" />
		<tag k="ssr:date" v="2016-05-10" />
		<tag k="ssr:gruppe" v="grunnerISjø" />
		<tag k="ssr:hovedgruppe" v="sjø" />
		<tag k="ssr:stedsnr" v="16342" />
		<tag k="ssr:type" v="grunneISjø" />
	</node>
	<node id="-186877" lat="67.6648861101" lon="12.6515000073">
		<tag k="name" v="Sørlandshagen" />
		<tag k="natural" v="beach" />
		<tag k="place" v="locality" />
		<tag k="ssr:date" v="2016-05-10" />
		<tag k="ssr:gruppe" v="kystkontur" />
		<tag k="ssr:hovedgruppe" v="sjø" />
		<tag k="ssr:stedsnr" v="16338" />
		<tag k="ssr:type" v="strandISjø" />
	</node>
	<node id="-186876" lat="67.6943555582" lon="12.7504027849">
		<tag k="fixme" v="consider seamark:type=rock or natural=shoal" />
		<tag k="name" v="Lamholmskjeret" />
		<tag k="place" v="islet" />
		<tag k="ssr:date" v="2016-05-10" />
		<tag k="ssr:gruppe" v="grunnerISjø" />
		<tag k="ssr:hovedgruppe" v="sjø" />
		<tag k="ssr:stedsnr" v="16325" />
		<tag k="ssr:type" v="skjærISjø" />
	</node>
	<node id="-186875" lat="67.6849027732" lon="12.6558777842">
		<tag k="fixme" v="multiple name tags, choose one and add the other to alt_name" />
		<tag k="name" v="Heimretussen;Tussen" />
		<tag k="natural" v="cape" />
		<tag k="ssr:date" v="2016-05-10" />
		<tag k="ssr:gruppe" v="kystkontur" />
		<tag k="ssr:hovedgruppe" v="sjø" />
		<tag k="ssr:stedsnr" v="16318" />
		<tag k="ssr:type" v="nesISjø" />
	</node>
	<node id="-186874" lat="67.6545694431" lon="12.583119434">
		<tag k="name" v="Svaan" />
		<tag k="natural" v="slope" />
		<tag k="place" v="locality" />
		<tag k="ssr:date" v="2016-05-10" />
		<tag k="ssr:gruppe" v="skråninger" />
		<tag k="ssr:hovedgruppe" v="terreng" />
		<tag k="ssr:stedsnr" v="223844" />
		<tag k="ssr:type" v="li" />
	</node>
	<node id="-186873" lat="67.646544446" lon="12.6988277766">
		<tag k="fixme" v="consider natural=peak for the most distinct mountains in the district" />
		<tag k="name" v="Statsfjellet" />
		<tag k="natural" v="hill" />
		<tag k="place" v="locality" />
		<tag k="ssr:date" v="2016-05-10" />
		<tag k="ssr:gruppe" v="høyder" />
		<tag k="ssr:hovedgruppe" v="terreng" />
		<tag k="ssr:stedsnr" v="223841" />
		<tag k="ssr:type" v="fjell" />
	</node>
	<node id="-186872" lat="67.6366249984" lon="12.6959777682">
		<tag k="name" v="Oddsundet" />
		<tag k="natural" v="strait" />
		<tag k="ssr:date" v="2016-05-10" />
		<tag k="ssr:gruppe" v="kystkontur" />
		<tag k="ssr:hovedgruppe" v="sjø" />
		<tag k="ssr:stedsnr" v="223839" />
		<tag k="ssr:type" v="sundISjø" />
	</node>
	<node id="-186871" lat="67.6861805583" lon="12.67993055">
		<tag k="name" v="Djupbekkerhågen" />
		<tag k="natural" v="hill" />
		<tag k="place" v="locality" />
		<tag k="ssr:date" v="2016-05-10" />
		<tag k="ssr:gruppe" v="høyder" />
		<tag k="ssr:hovedgruppe" v="terreng" />
		<tag k="ssr:stedsnr" v="223762" />
		<tag k="ssr:type" v="haug" />
	</node>
	<node id="-186870" lat="67.6916388861" lon="12.7003916742">
		<tag k="name" v="Olsdalen" />
		<tag k="natural" v="valley" />
		<tag k="place" v="locality" />
		<tag k="ssr:date" v="2016-05-10" />
		<tag k="ssr:gruppe" v="senkninger" />
		<tag k="ssr:hovedgruppe" v="terreng" />
		<tag k="ssr:stedsnr" v="223723" />
		<tag k="ssr:type" v="dal" />
	</node>
	<node id="-186869" lat="67.7481138909" lon="12.7517500074">
		<tag k="name" v="Bukksætan" />
		<tag k="natural" v="slope" />
		<tag k="place" v="locality" />
		<tag k="ssr:date" v="2016-05-10" />
		<tag k="ssr:gruppe" v="skråninger" />
		<tag k="ssr:hovedgruppe" v="terreng" />
		<tag k="ssr:stedsnr" v="223717" />
		<tag k="ssr:type" v="li" />
	</node>
	<node id="-186868" lat="67.7728555595" lon="12.7608250061">
		<tag k="name" v="Nordbuholmen" />
		<tag k="place" v="islet" />
		<tag k="ssr:date" v="2016-05-10" />
		<tag k="ssr:gruppe" v="kystkontur" />
		<tag k="ssr:hovedgruppe" v="sjø" />
		<tag k="ssr:stedsnr" v="223707" />
		<tag k="ssr:type" v="holmeISjø" />
	</node>
	<node id="-186867" lat="67.6682194484" lon="12.7031750086">
		<tag k="name" v="Gångskaret" />
		<tag k="natural" v="valley" />
		<tag k="place" v="locality" />
		<tag k="ssr:date" v="2016-05-10" />
		<tag k="ssr:gruppe" v="senkninger" />
		<tag k="ssr:hovedgruppe" v="terreng" />
		<tag k="ssr:stedsnr" v="223703" />
		<tag k="ssr:type" v="skar" />
	</node>
	<node id="-186866" lat="67.6738861112" lon="12.6283194555">
		<tag k="fixme" v="multiple name tags, choose one and add the other to alt_name" />
		<tag k="name" v="Kalvvika;Kavringmolla" />
		<tag k="natural" v="bay" />
		<tag k="ssr:date" v="2016-05-10" />
		<tag k="ssr:gruppe" v="kystkontur" />
		<tag k="ssr:hovedgruppe" v="sjø" />
		<tag k="ssr:stedsnr" v="223702" />
		<tag k="ssr:type" v="vikISjø" />
	</node>
	<node id="-186865" lat="67.659397218" lon="12.681744442">
		<tag k="name" v="Sørvika" />
		<tag k="natural" v="bay" />
		<tag k="ssr:date" v="2016-05-10" />
		<tag k="ssr:gruppe" v="kystkontur" />
		<tag k="ssr:hovedgruppe" v="sjø" />
		<tag k="ssr:stedsnr" v="223691" />
		<tag k="ssr:type" v="vikISjø" />
	</node>
	<node id="-186864" lat="67.7394499994" lon="12.7566277786">
		<tag k="name" v="Råkhalsen" />
		<tag k="natural" v="valley" />
		<tag k="place" v="locality" />
		<tag k="ssr:date" v="2016-05-10" />
		<tag k="ssr:gruppe" v="senkninger" />
		<tag k="ssr:hovedgruppe" v="terreng" />
		<tag k="ssr:stedsnr" v="223639" />
		<tag k="ssr:type" v="skar" />
	</node>
	<node id="-186863" lat="67.744147225" lon="12.7588555595">
		<tag k="fixme" v="consider natural=peak for the most distinct mountains in the district" />
		<tag k="name" v="Fuggelheia" />
		<tag k="natural" v="hill" />
		<tag k="place" v="locality" />
		<tag k="ssr:date" v="2016-05-10" />
		<tag k="ssr:gruppe" v="høyder" />
		<tag k="ssr:hovedgruppe" v="terreng" />
		<tag k="ssr:stedsnr" v="223637" />
		<tag k="ssr:type" v="ås" />
	</node>
	<node id="-186862" lat="67.7418666642" lon="12.7444444359">
		<tag k="name" v="Teistberget" />
		<tag k="natural" v="hill" />
		<tag k="place" v="locality" />
		<tag k="ssr:date" v="2016-05-10" />
		<tag k="ssr:gruppe" v="høyder" />
		<tag k="ssr:hovedgruppe" v="terreng" />
		<tag k="ssr:stedsnr" v="223636" />
		<tag k="ssr:type" v="berg" />
	</node>
	<node id="-186861" lat="67.7446972215" lon="12.7669694455">
		<tag k="name" v="Alkhalsen" />
		<tag k="natural" v="valley" />
		<tag k="place" v="locality" />
		<tag k="ssr:date" v="2016-05-10" />
		<tag k="ssr:gruppe" v="senkninger" />
		<tag k="ssr:hovedgruppe" v="terreng" />
		<tag k="ssr:stedsnr" v="223633" />
		<tag k="ssr:type" v="skar" />
	</node>
	<node id="-186860" lat="67.6827583361" lon="12.7088638961">
		<tag k="name" v="Oternesan" />
		<tag k="natural" v="cape" />
		<tag k="ssr:date" v="2016-05-10" />
		<tag k="ssr:gruppe" v="kystkontur" />
		<tag k="ssr:hovedgruppe" v="sjø" />
		<tag k="ssr:stedsnr" v="221687" />
		<tag k="ssr:type" v="nesISjø" />
	</node>
	<node id="-186859" lat="67.6758138887" lon="12.6449333247">
		<tag k="name" v="Rømdalen" />
		<tag k="natural" v="valley" />
		<tag k="place" v="locality" />
		<tag k="ssr:date" v="2016-05-10" />
		<tag k="ssr:gruppe" v="senkninger" />
		<tag k="ssr:hovedgruppe" v="terreng" />
		<tag k="ssr:stedsnr" v="221629" />
		<tag k="ssr:type" v="dal" />
	</node>
</osm>
