<?xml version="1.0" encoding="UTF-8"?>
<osm generator="osmapis" version="0.6">
	<node id="-371567" lat="58.028711575" lon="7.30527904336">
		<tag k="name" v="Østre Tjømshalen" />
		<tag k="ssr:date" v="2019-05-30" />
		<tag k="ssr:gruppe" v="veg" />
		<tag k="ssr:hovedgruppe" v="infrastruktur" />
		<tag k="ssr:stedsnr" v="977638" />
		<tag k="ssr:type" v="adressenavn" />
	</node>
	<node id="-371566" lat="58.0304381416" lon="7.22849190692">
		<tag k="name" v="Hammarøy" />
		<tag k="ssr:date" v="2019-05-30" />
		<tag k="ssr:gruppe" v="veg" />
		<tag k="ssr:hovedgruppe" v="infrastruktur" />
		<tag k="ssr:stedsnr" v="977633" />
		<tag k="ssr:type" v="adressenavn" />
	</node>
	<node id="-371565" lat="58.0321194267" lon="7.22596744019">
		<tag k="name" v="Skipskransholmen" />
		<tag k="ssr:date" v="2019-05-30" />
		<tag k="ssr:gruppe" v="veg" />
		<tag k="ssr:hovedgruppe" v="infrastruktur" />
		<tag k="ssr:stedsnr" v="977632" />
		<tag k="ssr:type" v="adressenavn" />
	</node>
	<node id="-371564" lat="58.0298987382" lon="7.22563597539">
		<tag k="name" v="Svinør" />
		<tag k="ssr:date" v="2019-05-30" />
		<tag k="ssr:gruppe" v="veg" />
		<tag k="ssr:hovedgruppe" v="infrastruktur" />
		<tag k="ssr:stedsnr" v="977603" />
		<tag k="ssr:type" v="adressenavn" />
	</node>
	<node id="-371563" lat="58.0307630199" lon="7.30336990006">
		<tag k="name" v="Ospholmen" />
		<tag k="ssr:date" v="2019-05-30" />
		<tag k="ssr:gruppe" v="veg" />
		<tag k="ssr:hovedgruppe" v="infrastruktur" />
		<tag k="ssr:stedsnr" v="977530" />
		<tag k="ssr:type" v="adressenavn" />
	</node>
	<node id="-369227" lat="58.027166668" lon="7.18759166987">
		<tag k="name" v="Imsa" />
		<tag k="ssr:date" v="2016-05-10" />
		<tag k="ssr:gruppe" v="navigasjon" />
		<tag k="ssr:hovedgruppe" v="infrastruktur" />
		<tag k="ssr:stedsnr" v="182676" />
		<tag k="ssr:type" v="fyrlykt" />
	</node>
	<node id="-368833" lat="57.9791027806" lon="7.21096666149">
		<tag k="name" v="Utvåre" />
		<tag k="ssr:date" v="2016-05-10" />
		<tag k="ssr:gruppe" v="navigasjon" />
		<tag k="ssr:hovedgruppe" v="infrastruktur" />
		<tag k="ssr:stedsnr" v="82305" />
		<tag k="ssr:type" v="fyrlykt" />
	</node>
	<node id="-370235" lat="57.9937694447" lon="7.08915556328">
		<tag k="name" v="Litlehavn, nedre" />
		<tag k="ssr:date" v="2016-05-10" />
		<tag k="ssr:gruppe" v="navigasjon" />
		<tag k="ssr:hovedgruppe" v="infrastruktur" />
		<tag k="ssr:stedsnr" v="586008" />
		<tag k="ssr:type" v="fyrlykt" />
	</node>
	<node id="-368553" lat="58.024811115" lon="7.24973888729">
		<tag k="name" v="Svinør" />
		<tag k="old_name" v="Grønningen" />
		<tag k="ssr:date" v="2016-05-10" />
		<tag k="ssr:gruppe" v="navigasjon" />
		<tag k="ssr:hovedgruppe" v="infrastruktur" />
		<tag k="ssr:stedsnr" v="680" />
		<tag k="ssr:type" v="fyrlykt" />
	</node>
	<node id="-370471" lat="58.0843583346" lon="7.30162499765">
		<tag k="alt_name" v="Lindesnes" />
		<tag k="name" v="Lindesnes kommune" />
		<tag k="ssr:date" v="2016-05-10" />
		<tag k="ssr:gruppe" v="administrativeIndelinger" />
		<tag k="ssr:hovedgruppe" v="offentligAdministrasjon" />
		<tag k="ssr:stedsnr" v="630224" />
		<tag k="ssr:type" v="kommune" />
	</node>
	<node id="-368548" lat="58.0381726209" lon="7.20702054979">
		<tag k="name" v="Otilies hage" />
		<tag k="ssr:date" v="2019-05-30" />
		<tag k="ssr:gruppe" v="veg" />
		<tag k="ssr:hovedgruppe" v="infrastruktur" />
		<tag k="ssr:stedsnr" v="1009171" />
		<tag k="ssr:type" v="adressenavn" />
	</node>
	<node id="-368547" lat="58.030423418" lon="7.25730288161">
		<tag k="name" v="Pålsholmen" />
		<tag k="ssr:date" v="2019-05-30" />
		<tag k="ssr:gruppe" v="veg" />
		<tag k="ssr:hovedgruppe" v="infrastruktur" />
		<tag k="ssr:stedsnr" v="1009170" />
		<tag k="ssr:type" v="adressenavn" />
	</node>
	<node id="-368546" lat="58.0295289736" lon="7.2002590931">
		<tag k="name" v="Store Bjørnen" />
		<tag k="ssr:date" v="2019-05-30" />
		<tag k="ssr:gruppe" v="veg" />
		<tag k="ssr:hovedgruppe" v="infrastruktur" />
		<tag k="ssr:stedsnr" v="1009166" />
		<tag k="ssr:type" v="adressenavn" />
	</node>
	<node id="-368545" lat="58.0405073845" lon="7.18444369913">
		<tag k="name" v="Villimsa" />
		<tag k="ssr:date" v="2019-05-30" />
		<tag k="ssr:gruppe" v="veg" />
		<tag k="ssr:hovedgruppe" v="infrastruktur" />
		<tag k="ssr:stedsnr" v="1009165" />
		<tag k="ssr:type" v="adressenavn" />
	</node>
	<node id="-368544" lat="58.0869445383" lon="7.31313711514">
		<tag k="name" v="Valvikveien" />
		<tag k="ssr:date" v="2019-05-30" />
		<tag k="ssr:gruppe" v="veg" />
		<tag k="ssr:hovedgruppe" v="infrastruktur" />
		<tag k="ssr:stedsnr" v="987753" />
		<tag k="ssr:type" v="adressenavn" />
	</node>
	<node id="-368543" lat="58.0341150336" lon="7.17468986506">
		<tag k="name" v="Folkeimsa" />
		<tag k="ssr:date" v="2019-05-30" />
		<tag k="ssr:gruppe" v="veg" />
		<tag k="ssr:hovedgruppe" v="infrastruktur" />
		<tag k="ssr:stedsnr" v="987684" />
		<tag k="ssr:type" v="adressenavn" />
	</node>
	<node id="-368542" lat="58.0337351202" lon="7.20228345353">
		<tag k="name" v="Finnøya" />
		<tag k="ssr:date" v="2019-05-30" />
		<tag k="ssr:gruppe" v="veg" />
		<tag k="ssr:hovedgruppe" v="infrastruktur" />
		<tag k="ssr:stedsnr" v="987622" />
		<tag k="ssr:type" v="adressenavn" />
	</node>
	<node id="-371097" lat="57.9937694447" lon="7.08915556328">
		<tag k="name" v="Litlehavn, øvre" />
		<tag k="ssr:date" v="2016-05-11" />
		<tag k="ssr:gruppe" v="navigasjon" />
		<tag k="ssr:hovedgruppe" v="infrastruktur" />
		<tag k="ssr:stedsnr" v="829020" />
		<tag k="ssr:type" v="fyrlykt" />
	</node>
	<node id="-371480" lat="58.0333030503" lon="7.218899693">
		<tag k="name" v="Åvik" />
		<tag k="ssr:date" v="2018-06-05" />
		<tag k="ssr:gruppe" v="navigasjon" />
		<tag k="ssr:hovedgruppe" v="infrastruktur" />
		<tag k="ssr:stedsnr" v="935186" />
		<tag k="ssr:type" v="fyrlykt" />
	</node>
	<node id="-368525" lat="58.0277861138" lon="7.11465556351">
		<tag k="alt_name" v="Småskjæra" />
		<tag k="name" v="Småskjeran" />
		<tag k="ssr:date" v="2016-05-11" />
		<tag k="ssr:gruppe" v="navigasjon" />
		<tag k="ssr:hovedgruppe" v="infrastruktur" />
		<tag k="ssr:stedsnr" v="894260" />
		<tag k="ssr:type" v="lanterne" />
	</node>
	<node id="-370497" lat="57.9925611139" lon="7.10028333663">
		<tag k="name" v="Svarte Hillegarn" />
		<tag k="ssr:date" v="2016-05-10" />
		<tag k="ssr:gruppe" v="navigasjon" />
		<tag k="ssr:hovedgruppe" v="infrastruktur" />
		<tag k="ssr:stedsnr" v="650210" />
		<tag k="ssr:type" v="lanterne" />
	</node>
	<node id="-370049" lat="57.9824944409" lon="7.0466749934">
		<tag k="alt_name" v="Lindesnes fyr" />
		<tag k="name" v="Lindesnes" />
		<tag k="old_name" v="Lindesnes Fyr" />
		<tag k="ssr:date" v="2016-05-10" />
		<tag k="ssr:gruppe" v="navigasjon" />
		<tag k="ssr:hovedgruppe" v="infrastruktur" />
		<tag k="ssr:stedsnr" v="546023" />
		<tag k="ssr:type" v="fyrstasjon" />
	</node>
</osm>
