<?xml version="1.0" encoding="UTF-8"?>
<osm generator="osmapis" version="0.6">
	<node id="-187775" lat="59.7750388887" lon="9.9758750077">
		<tag k="name" v="Langemyr" />
		<tag k="natural" v="wetland" />
		<tag k="ssr:stedsnr" v="812738" />
	</node>
	<node id="-187387" lat="59.6809083349" lon="10.0223499982">
		<tag k="name" v="Eftasmyra" />
		<tag k="natural" v="wetland" />
		<tag k="ssr:stedsnr" v="331147" />
	</node>
	<node id="-187379" lat="59.7781416625" lon="10.0518166683">
		<tag k="name" v="Høymyr" />
		<tag k="natural" v="wetland" />
		<tag k="ssr:stedsnr" v="326527" />
	</node>
	<node id="-187503" lat="59.787172218" lon="10.0482888935">
		<tag k="name" v="Tarmmyr" />
		<tag k="natural" v="wetland" />
		<tag k="ssr:stedsnr" v="22481" />
	</node>
	<node id="-187374" lat="59.7027749966" lon="10.0575555483">
		<tag k="name" v="Katthusmyra" />
		<tag k="natural" v="wetland" />
		<tag k="ssr:stedsnr" v="306305" />
	</node>
	<node id="-187628" lat="59.6703666639" lon="10.0101111041">
		<tag k="name" v="Ospesnarmyr" />
		<tag k="natural" v="wetland" />
		<tag k="ssr:stedsnr" v="452228" />
	</node>
	<node id="-187626" lat="59.7982194483" lon="10.0104138919">
		<tag k="name" v="Tarmmyr" />
		<tag k="natural" v="wetland" />
		<tag k="ssr:stedsnr" v="451739" />
	</node>
	<node id="-187624" lat="59.8264388909" lon="10.0216500018">
		<tag k="name" v="Okseøye" />
		<tag k="natural" v="wetland" />
		<tag k="ssr:stedsnr" v="450526" />
	</node>
	<node id="-187836" lat="59.7732555563" lon="10.0179750074">
		<tag k="name" v="Bjørnemyr" />
		<tag k="natural" v="wetland" />
		<tag k="ssr:stedsnr" v="933977" />
	</node>
	<node id="-187735" lat="59.6899611099" lon="10.0373611196">
		<tag k="name" v="Løkmyra" />
		<tag k="natural" v="wetland" />
		<tag k="ssr:stedsnr" v="731151" />
	</node>
	<node id="-187596" lat="59.7282083321" lon="10.0771972221">
		<tag k="name" v="Treholtmyra" />
		<tag k="natural" v="wetland" />
		<tag k="ssr:stedsnr" v="265583" />
	</node>
	<node id="-187723" lat="59.7844277795" lon="10.00503334">
		<tag k="name" v="Rypemyr" />
		<tag k="natural" v="wetland" />
		<tag k="ssr:stedsnr" v="690957" />
	</node>
	<node id="-187681" lat="59.8055138901" lon="10.0316222285">
		<tag k="name" v="Storura" />
		<tag k="natural" v="scree" />
		<tag k="ssr:stedsnr" v="572742" />
	</node>
	<node id="-187841" lat="59.7913111142" lon="9.99805833302">
		<tag k="name" v="Spærmyr" />
		<tag k="natural" v="wetland" />
		<tag k="ssr:stedsnr" v="937777" />
	</node>
	<node id="-187580" lat="59.8241444462" lon="10.0275472182">
		<tag k="name" v="Ringmyr" />
		<tag k="natural" v="wetland" />
		<tag k="ssr:stedsnr" v="207479" />
	</node>
	<node id="-187835" lat="59.7697166687" lon="10.0143166699">
		<tag k="name" v="Oremyr" />
		<tag k="natural" v="wetland" />
		<tag k="ssr:stedsnr" v="933974" />
	</node>
	<node id="-187704" lat="59.7107194423" lon="10.0801722174">
		<tag k="landuse" v="quarry" />
		<tag k="name" v="Nikkerudgruvene" />
		<tag k="ssr:stedsnr" v="646348" />
	</node>
	<node id="-187572" lat="59.7420888912" lon="10.0514583332">
		<tag k="name" v="Barlindmyra" />
		<tag k="natural" v="wetland" />
		<tag k="ssr:stedsnr" v="204519" />
	</node>
	<node id="-187571" lat="59.7864138923" lon="10.0235027842">
		<tag k="name" v="Tømmermyr" />
		<tag k="natural" v="wetland" />
		<tag k="ssr:stedsnr" v="204914" />
	</node>
	<node id="-187813" lat="59.6904249992" lon="10.0243916739">
		<tag k="name" v="Kloppmyra" />
		<tag k="natural" v="wetland" />
		<tag k="ssr:stedsnr" v="913179" />
	</node>
	<node id="-187556" lat="59.7972555522" lon="10.0147111026">
		<tag k="name" v="Langmyrene" />
		<tag k="natural" v="wetland" />
		<tag k="ssr:stedsnr" v="147711" />
	</node>
	<node id="-187810" lat="59.7965805526" lon="10.0244861163">
		<tag k="name" v="Solbergvannsmyra" />
		<tag k="natural" v="wetland" />
		<tag k="ssr:stedsnr" v="876753" />
	</node>
	<node id="-187553" lat="59.7843277775" lon="9.98599723112">
		<tag k="name" v="Flårane" />
		<tag k="natural" v="wetland" />
		<tag k="ssr:stedsnr" v="143956" />
	</node>
	<node id="-187812" lat="59.6963888858" lon="9.99703888739">
		<tag k="name" v="Vintermyrene" />
		<tag k="natural" v="wetland" />
		<tag k="ssr:stedsnr" v="877145" />
	</node>
	<node id="-187550" lat="59.7812611078" lon="10.0200444391">
		<tag k="name" v="Blakkmyr" />
		<tag k="natural" v="wetland" />
		<tag k="ssr:stedsnr" v="143944" />
	</node>
	<node id="-187549" lat="59.7668249998" lon="10.009941669">
		<tag k="name" v="Langløkka" />
		<tag k="place" v="locality" />
		<tag k="ssr:stedsnr" v="143913" />
	</node>
	<node id="-187802" lat="59.7323777787" lon="10.0873805532">
		<tag k="name" v="Langemyr" />
		<tag k="natural" v="wetland" />
		<tag k="ssr:stedsnr" v="872620" />
	</node>
	<node id="-187372" lat="59.7173888922" lon="10.0773972241">
		<tag k="name" v="Kavlemyra" />
		<tag k="natural" v="wetland" />
		<tag k="ssr:stedsnr" v="306242" />
	</node>
	<node id="-187398" lat="59.7866472225" lon="10.0780416653">
		<tag k="name" v="Eggebekkmyra" />
		<tag k="natural" v="wetland" />
		<tag k="ssr:stedsnr" v="386479" />
	</node>
	<node id="-187778" lat="59.7968916701" lon="10.0306083269">
		<tag k="name" v="Vesleura" />
		<tag k="natural" v="scree" />
		<tag k="ssr:stedsnr" v="815720" />
	</node>
</osm>
