<?xml version="1.0" encoding="UTF-8"?>
<osm generator="osmapis" version="0.6">
	<node id="-187508" lat="59.7515472238" lon="10.0282222192">
		<tag k="bridge" v="yes" />
		<tag k="layer" v="1" />
		<tag k="name" v="Mjøndalslokket bru" />
		<tag k="ssr:stedsnr" v="714944" />
	</node>
	<node id="-187617" lat="59.7466305536" lon="10.0380833277">
		<tag k="bridge" v="yes" />
		<tag k="layer" v="1" />
		<tag k="name" v="Miletjern" />
		<tag k="ssr:stedsnr" v="957932" />
	</node>
	<node id="-187360" lat="59.7526805593" lon="10.0024694385">
		<tag k="bridge" v="yes" />
		<tag k="layer" v="1" />
		<tag k="name" v="Evje" />
		<tag k="ssr:stedsnr" v="228953" />
	</node>
	<node id="-187481" lat="59.7442777799" lon="10.0273083385">
		<tag k="bridge" v="yes" />
		<tag k="layer" v="1" />
		<tag k="name" v="Mile" />
		<tag k="ssr:stedsnr" v="653936" />
	</node>
	<node id="-187480" lat="59.7546916631" lon="10.0108333309">
		<tag k="bridge" v="yes" />
		<tag k="layer" v="1" />
		<tag k="name" v="Eknes" />
		<tag k="ssr:stedsnr" v="653893" />
	</node>
	<node id="-187556" lat="59.7518111105" lon="10.0311611091">
		<tag k="bridge" v="yes" />
		<tag k="layer" v="1" />
		<tag k="name" v="Os" />
		<tag k="ssr:stedsnr" v="835954" />
	</node>
	<node id="-187353" lat="59.7509527733" lon="10.011352782">
		<tag k="name" v="Mjøndalen stasjon" />
		<tag k="railway" v="station" />
		<tag k="ssr:stedsnr" v="205788" />
		<tag k="train" v="yes" />
	</node>
	<node id="-187202" lat="59.7595489694" lon="9.96170356056">
		<tag k="name" v="Steinberg stasjon" />
		<tag k="railway" v="station" />
		<tag k="ssr:stedsnr" v="985137" />
		<tag k="train" v="yes" />
	</node>
	<node id="-187197" lat="59.7521472223" lon="10.0238722208">
		<tag k="bridge" v="yes" />
		<tag k="layer" v="1" />
		<tag k="name" v="Strandsonen" />
		<tag k="ssr:stedsnr" v="410946" />
	</node>
	<node id="-187196" lat="59.7521361139" lon="10.0252833251">
		<tag k="bridge" v="yes" />
		<tag k="layer" v="1" />
		<tag k="name" v="Mjøndalen Va-Kulvert" />
		<tag k="ssr:stedsnr" v="410945" />
	</node>
	<node id="-187195" lat="59.7553444438" lon="10.0256611042">
		<tag k="bridge" v="yes" />
		<tag k="layer" v="1" />
		<tag k="name" v="Eiker nedre" />
		<tag k="ssr:stedsnr" v="410895" />
	</node>
	<node id="-187445" lat="59.7749972266" lon="10.0731166657">
		<tag k="bridge" v="yes" />
		<tag k="layer" v="1" />
		<tag k="name" v="St. Hansbrua" />
		<tag k="ssr:stedsnr" v="568478" />
	</node>
	<node id="-187428" lat="59.7491833377" lon="9.98341943571">
		<tag k="bridge" v="yes" />
		<tag k="layer" v="1" />
		<tag k="name" v="Skalpe" />
		<tag k="ssr:stedsnr" v="532926" />
	</node>
	<node id="-187427" lat="59.752649998" lon="10.0002277761">
		<tag k="bridge" v="yes" />
		<tag k="layer" v="1" />
		<tag k="name" v="Verket" />
		<tag k="ssr:stedsnr" v="532922" />
	</node>
	<node id="-187426" lat="59.742938889" lon="10.0982666648">
		<tag k="bridge" v="yes" />
		<tag k="layer" v="1" />
		<tag k="name" v="Narverud" />
		<tag k="ssr:stedsnr" v="532919" />
	</node>
	<node id="-187165" lat="59.746305558" lon="10.0421222261">
		<tag k="bridge" v="yes" />
		<tag k="layer" v="1" />
		<tag k="name" v="Rygh" />
		<tag k="ssr:stedsnr" v="349964" />
	</node>
	<node id="-187286" lat="59.7603499966" lon="10.0846888869">
		<tag k="bridge" v="yes" />
		<tag k="layer" v="1" />
		<tag k="name" v="Ulverud" />
		<tag k="ssr:stedsnr" v="46956" />
	</node>
	<node id="-187285" lat="59.7551666709" lon="10.0083916694">
		<tag k="bridge" v="yes" />
		<tag k="layer" v="1" />
		<tag k="name" v="Bruveien" />
		<tag k="ssr:stedsnr" v="46911" />
	</node>
	<node id="-187281" lat="59.7493444446" lon="10.0682249991">
		<tag k="barrier" v="lift_gate" />
		<tag k="name" v="Dalerovergangen" />
		<tag k="place" v="locality" />
		<tag k="ssr:stedsnr" v="22929" />
	</node>
	<node id="-187530" lat="59.770275001" lon="10.0200249953">
		<tag k="highway" v="path" />
		<tag k="name" v="Vrierne" />
		<tag k="ssr:stedsnr" v="750960" />
	</node>
	<node id="-187146" lat="59.755550003" lon="10.0322638868">
		<tag k="alt_name" v="Steinseth" />
		<tag k="bridge" v="yes" />
		<tag k="layer" v="1" />
		<tag k="name" v="Steinset" />
		<tag k="ssr:stedsnr" v="289974" />
	</node>
	<node id="-187145" lat="59.7483416664" lon="10.0058833296">
		<tag k="bridge" v="yes" />
		<tag k="layer" v="1" />
		<tag k="name" v="Veia" />
		<tag k="ssr:stedsnr" v="289972" />
	</node>
</osm>
