<?xml version="1.0" encoding="UTF-8"?>
<osm generator="osmapis" version="0.6">
	<node id="-187391" lat="59.7383250009" lon="10.0535138877">
		<tag k="fixme" v="consider natural=peak for the most distinct mountains in the district" />
		<tag k="name" v="Ryggåsen" />
		<tag k="natural" v="hill" />
		<tag k="place" v="locality" />
		<tag k="ssr:stedsnr" v="447528" />
	</node>
	<node id="-187384" lat="59.8065083343" lon="10.0507638927">
		<tag k="fixme" v="consider natural=peak for the most distinct mountains in the district" />
		<tag k="name" v="Kleiveren" />
		<tag k="natural" v="hill" />
		<tag k="place" v="locality" />
		<tag k="ssr:stedsnr" v="428212" />
	</node>
	<node id="-187378" lat="59.7278194416" lon="9.98407777211">
		<tag k="name" v="Steinkleiv" />
		<tag k="natural" v="valley" />
		<tag k="place" v="locality" />
		<tag k="ssr:stedsnr" v="267986" />
	</node>
	<node id="-187376" lat="59.7513194488" lon="10.0553749965">
		<tag k="name" v="Nerkollen" />
		<tag k="natural" v="ridge" />
		<tag k="place" v="locality" />
		<tag k="ssr:stedsnr" v="265910" />
	</node>
	<node id="-187375" lat="59.774394448" lon="10.0988805503">
		<tag k="name" v="Barlinddokkåsen" />
		<tag k="natural" v="slope" />
		<tag k="place" v="locality" />
		<tag k="ssr:stedsnr" v="265777" />
	</node>
	<node id="-187367" lat="59.790899997" lon="10.0383527689">
		<tag k="fixme" v="consider natural=peak for the most distinct mountains in the district" />
		<tag k="name" v="Lokkeråsen" />
		<tag k="natural" v="hill" />
		<tag k="place" v="locality" />
		<tag k="ssr:stedsnr" v="247133" />
	</node>
	<node id="-187364" lat="59.813838891" lon="10.0715888801">
		<tag k="name" v="Kampenhaug" />
		<tag k="natural" v="hill" />
		<tag k="place" v="locality" />
		<tag k="ssr:stedsnr" v="246220" />
	</node>
	<node id="-187358" lat="59.7938083358" lon="10.0098333307">
		<tag k="name" v="Grisedal" />
		<tag k="natural" v="valley" />
		<tag k="place" v="locality" />
		<tag k="ssr:stedsnr" v="208746" />
	</node>
	<node id="-187354" lat="59.7263472184" lon="9.99697500129">
		<tag k="fixme" v="consider natural=peak for the most distinct mountains in the district" />
		<tag k="name" v="Lefsemyråsen" />
		<tag k="natural" v="hill" />
		<tag k="place" v="locality" />
		<tag k="ssr:stedsnr" v="206950" />
	</node>
	<node id="-187349" lat="59.7371361142" lon="10.0685611135">
		<tag k="name" v="Kortspillsletta" />
		<tag k="place" v="locality" />
		<tag k="ssr:stedsnr" v="204544" />
	</node>
	<node id="-187345" lat="59.7846583299" lon="10.0128583412">
		<tag k="name" v="Eknesdalen" />
		<tag k="natural" v="valley" />
		<tag k="place" v="locality" />
		<tag k="ssr:stedsnr" v="204910" />
	</node>
	<node id="-187340" lat="59.7861611071" lon="10.0960694391">
		<tag k="fixme" v="consider natural=peak for the most distinct mountains in the district" />
		<tag k="name" v="Gladbakk" />
		<tag k="natural" v="hill" />
		<tag k="place" v="locality" />
		<tag k="ssr:stedsnr" v="186134" />
	</node>
	<node id="-187338" lat="59.7025638864" lon="10.0696666716">
		<tag k="fixme" v="consider natural=peak for the most distinct mountains in the district" />
		<tag k="name" v="Brentåsen" />
		<tag k="natural" v="hill" />
		<tag k="place" v="locality" />
		<tag k="ssr:stedsnr" v="185296" />
	</node>
	<node id="-187335" lat="59.7113305552" lon="10.0592305633">
		<tag k="fixme" v="consider natural=peak for the most distinct mountains in the district" />
		<tag k="name" v="Lauvåsen" />
		<tag k="natural" v="hill" />
		<tag k="place" v="locality" />
		<tag k="ssr:stedsnr" v="185251" />
	</node>
	<node id="-187329" lat="59.7330888869" lon="10.0077222269">
		<tag k="name" v="Korpen" />
		<tag k="natural" v="hill" />
		<tag k="place" v="locality" />
		<tag k="ssr:stedsnr" v="143961" />
	</node>
	<node id="-187327" lat="59.7863861111" lon="9.9797249956">
		<tag k="fixme" v="consider natural=peak for the most distinct mountains in the district" />
		<tag k="name" v="Balatjernsåsen" />
		<tag k="natural" v="hill" />
		<tag k="place" v="locality" />
		<tag k="ssr:stedsnr" v="143955" />
	</node>
	<node id="-187318" lat="59.7829388888" lon="10.0783527781">
		<tag k="name" v="Øvre Isberget" />
		<tag k="natural" v="slope" />
		<tag k="place" v="locality" />
		<tag k="ssr:stedsnr" v="143498" />
	</node>
	<node id="-187317" lat="59.780358331" lon="10.0522527732">
		<tag k="name" v="Aslakkane" />
		<tag k="natural" v="slope" />
		<tag k="place" v="locality" />
		<tag k="ssr:stedsnr" v="143496" />
	</node>
	<node id="-187314" lat="59.8228277776" lon="10.0558472256">
		<tag k="fixme" v="consider natural=peak for the most distinct mountains in the district" />
		<tag k="name" v="Rognkleivåsen" />
		<tag k="natural" v="hill" />
		<tag k="place" v="locality" />
		<tag k="ssr:stedsnr" v="125224" />
	</node>
	<node id="-187311" lat="59.7768999976" lon="10.0146222307">
		<tag k="fixme" v="multiple name tags, choose one and add the other to alt_name" />
		<tag k="name" v="Hestholfjellet;Stutdalsfjellet" />
		<tag k="natural" v="hill" />
		<tag k="place" v="locality" />
		<tag k="ssr:stedsnr" v="125160" />
	</node>
	<node id="-187309" lat="59.7330555526" lon="10.0757638975">
		<tag k="fixme" v="consider natural=peak for the most distinct mountains in the district" />
		<tag k="name" v="Narverudåsen" />
		<tag k="natural" v="hill" />
		<tag k="place" v="locality" />
		<tag k="ssr:stedsnr" v="124312" />
	</node>
	<node id="-187303" lat="59.6740944428" lon="10.0090222281">
		<tag k="name" v="Kittilsdalen" />
		<tag k="natural" v="valley" />
		<tag k="place" v="locality" />
		<tag k="ssr:stedsnr" v="88199" />
	</node>
	<node id="-187302" lat="59.7681666704" lon="10.0278027853">
		<tag k="fixme" v="consider natural=peak for the most distinct mountains in the district" />
		<tag k="name" v="Lemenåsen" />
		<tag k="natural" v="hill" />
		<tag k="place" v="locality" />
		<tag k="ssr:stedsnr" v="83962" />
	</node>
	<node id="-187301" lat="59.7488583322" lon="10.0546194485">
		<tag k="name" v="Øverkollen" />
		<tag k="natural" v="ridge" />
		<tag k="place" v="locality" />
		<tag k="ssr:stedsnr" v="83921" />
	</node>
	<node id="-187299" lat="59.73314167" lon="10.0744805523">
		<tag k="name" v="Dalerbrenna" />
		<tag k="natural" v="hill" />
		<tag k="place" v="locality" />
		<tag k="ssr:stedsnr" v="83576" />
	</node>
	<node id="-187298" lat="59.78665278" lon="10.0567083419">
		<tag k="fixme" v="consider natural=peak for the most distinct mountains in the district" />
		<tag k="name" v="Hoggsfjell" />
		<tag k="natural" v="hill" />
		<tag k="place" v="locality" />
		<tag k="ssr:stedsnr" v="83484" />
	</node>
	<node id="-187294" lat="59.7792305601" lon="10.0422833282">
		<tag k="fixme" v="consider natural=peak for the most distinct mountains in the district" />
		<tag k="name" v="Solbergvarden" />
		<tag k="natural" v="hill" />
		<tag k="place" v="locality" />
		<tag k="ssr:stedsnr" v="65149" />
	</node>
	<node id="-187293" lat="59.7220750022" lon="10.0264416674">
		<tag k="fixme" v="consider natural=peak for the most distinct mountains in the district" />
		<tag k="name" v="Malmmyråsen" />
		<tag k="natural" v="hill" />
		<tag k="place" v="locality" />
		<tag k="ssr:stedsnr" v="64272" />
	</node>
	<node id="-187290" lat="59.6859138908" lon="10.0219499975">
		<tag k="fixme" v="consider natural=peak for the most distinct mountains in the district" />
		<tag k="name" v="Bråtaåsen" />
		<tag k="natural" v="hill" />
		<tag k="place" v="locality" />
		<tag k="ssr:stedsnr" v="64234" />
	</node>
	<node id="-187283" lat="59.6829666664" lon="10.0331888843">
		<tag k="name" v="Baklia" />
		<tag k="natural" v="slope" />
		<tag k="place" v="locality" />
		<tag k="ssr:stedsnr" v="27126" />
	</node>
	<node id="-187275" lat="59.7806805565" lon="9.99176111515">
		<tag k="name" v="Krokstadkollen" />
		<tag k="natural" v="hill" />
		<tag k="place" v="locality" />
		<tag k="ssr:stedsnr" v="4158" />
	</node>
	<node id="-187198" lat="59.854888892" lon="10.0704361156">
		<tag k="fixme" v="consider natural=peak for the most distinct mountains in the district" />
		<tag k="name" v="Glitreåsen" />
		<tag k="natural" v="hill" />
		<tag k="place" v="locality" />
		<tag k="ssr:stedsnr" v="890714" />
	</node>
	<node id="-187194" lat="59.8536583319" lon="10.0536166633">
		<tag k="fixme" v="consider natural=peak for the most distinct mountains in the district" />
		<tag k="name" v="Kampen" />
		<tag k="natural" v="hill" />
		<tag k="place" v="locality" />
		<tag k="ssr:stedsnr" v="404675" />
	</node>
	<node id="-187192" lat="59.6704027821" lon="10.0054083256">
		<tag k="fixme" v="consider natural=peak for the most distinct mountains in the district" />
		<tag k="name" v="Langtjernåsen" />
		<tag k="natural" v="hill" />
		<tag k="place" v="locality" />
		<tag k="ssr:stedsnr" v="391252" />
	</node>
	<node id="-187191" lat="59.6893499972" lon="10.0297555487">
		<tag k="name" v="Kirkebrenna" />
		<tag k="natural" v="ridge" />
		<tag k="place" v="locality" />
		<tag k="ssr:stedsnr" v="391150" />
	</node>
	<node id="-187189" lat="59.8086000001" lon="10.02271945">
		<tag k="fixme" v="consider natural=peak for the most distinct mountains in the district" />
		<tag k="name" v="Lommetjernåsen" />
		<tag k="natural" v="hill" />
		<tag k="place" v="locality" />
		<tag k="ssr:stedsnr" v="390720" />
	</node>
	<node id="-187188" lat="59.8342222186" lon="10.0303861056">
		<tag k="name" v="Solund" />
		<tag k="natural" v="slope" />
		<tag k="place" v="locality" />
		<tag k="ssr:stedsnr" v="389632" />
	</node>
	<node id="-187186" lat="59.7378972196" lon="10.0190111033">
		<tag k="fixme" v="consider natural=peak for the most distinct mountains in the district" />
		<tag k="name" v="Midtåsen" />
		<tag k="natural" v="hill" />
		<tag k="place" v="locality" />
		<tag k="ssr:stedsnr" v="388961" />
	</node>
	<node id="-187183" lat="59.7788250037" lon="10.0251083374">
		<tag k="name" v="Hestemyrhullet" />
		<tag k="natural" v="valley" />
		<tag k="place" v="locality" />
		<tag k="ssr:stedsnr" v="386950" />
	</node>
	<node id="-187182" lat="59.7788555562" lon="10.0037083273">
		<tag k="name" v="Mælen" />
		<tag k="natural" v="slope" />
		<tag k="place" v="locality" />
		<tag k="ssr:stedsnr" v="386910" />
	</node>
	<node id="-187181" lat="59.7509472221" lon="10.0531472191">
		<tag k="name" v="Ryggkollen" />
		<tag k="natural" v="ridge" />
		<tag k="place" v="locality" />
		<tag k="ssr:stedsnr" v="386904" />
	</node>
	<node id="-187176" lat="59.7753638847" lon="10.0636305611">
		<tag k="name" v="Kjevlingen" />
		<tag k="natural" v="valley" />
		<tag k="place" v="locality" />
		<tag k="ssr:stedsnr" v="386480" />
	</node>
	<node id="-187172" lat="59.8393666643" lon="10.0306888928">
		<tag k="fixme" v="consider natural=peak for the most distinct mountains in the district" />
		<tag k="name" v="Kampen" />
		<tag k="natural" v="hill" />
		<tag k="place" v="locality" />
		<tag k="ssr:stedsnr" v="368319" />
	</node>
	<node id="-187170" lat="59.7396499974" lon="10.0572083387">
		<tag k="alt_name" v="Strykenåsen" />
		<tag k="fixme" v="consider natural=peak for the most distinct mountains in the district" />
		<tag k="name" v="Strykåsen" />
		<tag k="natural" v="hill" />
		<tag k="place" v="locality" />
		<tag k="ssr:stedsnr" v="367307" />
	</node>
	<node id="-187169" lat="59.7030500005" lon="10.019177769">
		<tag k="fixme" v="consider natural=peak for the most distinct mountains in the district" />
		<tag k="name" v="Røysåsen" />
		<tag k="natural" v="hill" />
		<tag k="place" v="locality" />
		<tag k="ssr:stedsnr" v="367232" />
	</node>
	<node id="-187168" lat="59.718311111" lon="10.044574996">
		<tag k="fixme" v="consider natural=peak for the most distinct mountains in the district" />
		<tag k="name" v="Bremsåsen" />
		<tag k="natural" v="hill" />
		<tag k="place" v="locality" />
		<tag k="ssr:stedsnr" v="367218" />
	</node>
	<node id="-187161" lat="59.722886113" lon="10.0186972233">
		<tag k="name" v="Hansebråten" />
		<tag k="natural" v="hill" />
		<tag k="place" v="locality" />
		<tag k="ssr:stedsnr" v="326970" />
	</node>
	<node id="-187150" lat="59.705916667" lon="9.99710278121">
		<tag k="name" v="Brillene" />
		<tag k="natural" v="hill" />
		<tag k="place" v="locality" />
		<tag k="ssr:stedsnr" v="306266" />
	</node>
	<node id="-187143" lat="59.788527776" lon="10.0007916729">
		<tag k="name" v="Steinbergjuvet" />
		<tag k="natural" v="gorge" />
		<tag k="ssr:stedsnr" v="269766" />
	</node>
	<node id="-187604" lat="59.7288527781" lon="10.0730777771">
		<tag k="name" v="Glettaberget" />
		<tag k="natural" v="hill" />
		<tag k="place" v="locality" />
		<tag k="ssr:stedsnr" v="933602" />
	</node>
	<node id="-187603" lat="59.7261055514" lon="10.0771805532">
		<tag k="fixme" v="consider natural=peak for the most distinct mountains in the district" />
		<tag k="name" v="Helgerudåsen" />
		<tag k="natural" v="hill" />
		<tag k="place" v="locality" />
		<tag k="ssr:stedsnr" v="933601" />
	</node>
	<node id="-187601" lat="59.784622226" lon="10.082658333">
		<tag k="name" v="Gravningsjota" />
		<tag k="natural" v="slope" />
		<tag k="place" v="locality" />
		<tag k="ssr:stedsnr" v="933540" />
	</node>
	<node id="-187599" lat="59.7731888901" lon="10.0593527704">
		<tag k="fixme" v="consider natural=peak for the most distinct mountains in the district" />
		<tag k="name" v="Knabben" />
		<tag k="natural" v="hill" />
		<tag k="place" v="locality" />
		<tag k="ssr:stedsnr" v="933537" />
	</node>
	<node id="-187598" lat="59.79718333" lon="10.0202194406">
		<tag k="fixme" v="consider natural=peak for the most distinct mountains in the district" />
		<tag k="name" v="Seteråsen" />
		<tag k="natural" v="hill" />
		<tag k="place" v="locality" />
		<tag k="ssr:stedsnr" v="915499" />
	</node>
	<node id="-187586" lat="59.794211109" lon="10.0330305492">
		<tag k="name" v="Vadalen" />
		<tag k="natural" v="valley" />
		<tag k="place" v="locality" />
		<tag k="ssr:stedsnr" v="876754" />
	</node>
	<node id="-187584" lat="59.8192916643" lon="10.0063999928">
		<tag k="name" v="Øyvannsbrenna" />
		<tag k="natural" v="ridge" />
		<tag k="place" v="locality" />
		<tag k="ssr:stedsnr" v="875488" />
	</node>
	<node id="-187580" lat="59.7743638883" lon="9.98705556261">
		<tag k="name" v="Steinsbrøtt" />
		<tag k="natural" v="slope" />
		<tag k="place" v="locality" />
		<tag k="ssr:stedsnr" v="872929" />
	</node>
	<node id="-187575" lat="59.7769916641" lon="10.0383638836">
		<tag k="name" v="Vadalen" />
		<tag k="natural" v="valley" />
		<tag k="place" v="locality" />
		<tag k="ssr:stedsnr" v="872529" />
	</node>
	<node id="-187573" lat="59.838038891" lon="10.0822583252">
		<tag k="fixme" v="consider natural=peak for the most distinct mountains in the district" />
		<tag k="name" v="Trettekollen" />
		<tag k="natural" v="hill" />
		<tag k="place" v="locality" />
		<tag k="ssr:stedsnr" v="854269" />
	</node>
	<node id="-187567" lat="59.6955527796" lon="10.0075861131">
		<tag k="name" v="Vestknabben" />
		<tag k="natural" v="hill" />
		<tag k="place" v="locality" />
		<tag k="ssr:stedsnr" v="853286" />
	</node>
	<node id="-187554" lat="59.7892722184" lon="10.0309777732">
		<tag k="fixme" v="consider natural=peak for the most distinct mountains in the district" />
		<tag k="name" v="Kollevollåsene" />
		<tag k="natural" v="hill" />
		<tag k="place" v="locality" />
		<tag k="ssr:stedsnr" v="815724" />
	</node>
	<node id="-187552" lat="59.8201027752" lon="10.0217833358">
		<tag k="name" v="Kølabonn" />
		<tag k="natural" v="valley" />
		<tag k="place" v="locality" />
		<tag k="ssr:stedsnr" v="814518" />
	</node>
	<node id="-187548" lat="59.7821250008" lon="10.0286472268">
		<tag k="name" v="Sleppinga" />
		<tag k="natural" v="slope" />
		<tag k="place" v="locality" />
		<tag k="ssr:stedsnr" v="811911" />
	</node>
	<node id="-187547" lat="59.7774638876" lon="10.0179277726">
		<tag k="name" v="Migen" />
		<tag k="natural" v="slope" />
		<tag k="place" v="locality" />
		<tag k="ssr:stedsnr" v="811900" />
	</node>
	<node id="-187546" lat="59.7703944414" lon="10.0051416755">
		<tag k="name" v="Steinkleiv" />
		<tag k="natural" v="slope" />
		<tag k="place" v="locality" />
		<tag k="ssr:stedsnr" v="811898" />
	</node>
	<node id="-187541" lat="59.773625" lon="10.0353249925">
		<tag k="fixme" v="consider natural=peak for the most distinct mountains in the district" />
		<tag k="name" v="Svarttjernåsen" />
		<tag k="natural" v="hill" />
		<tag k="place" v="locality" />
		<tag k="ssr:stedsnr" v="811474" />
	</node>
	<node id="-187533" lat="59.695725003" lon="10.0604055578">
		<tag k="name" v="Katthusdalen" />
		<tag k="natural" v="valley" />
		<tag k="place" v="locality" />
		<tag k="ssr:stedsnr" v="791199" />
	</node>
	<node id="-187526" lat="59.7773472205" lon="10.0868388873">
		<tag k="fixme" v="consider natural=peak for the most distinct mountains in the district" />
		<tag k="name" v="Tjurueldsåsen" />
		<tag k="natural" v="hill" />
		<tag k="place" v="locality" />
		<tag k="ssr:stedsnr" v="750481" />
	</node>
	<node id="-187525" lat="59.7779944419" lon="10.0771499994">
		<tag k="name" v="Nedre Isberget" />
		<tag k="natural" v="slope" />
		<tag k="place" v="locality" />
		<tag k="ssr:stedsnr" v="750478" />
	</node>
	<node id="-187520" lat="59.8306444483" lon="10.0110611059">
		<tag k="fixme" v="consider natural=peak for the most distinct mountains in the district" />
		<tag k="name" v="Kattåsen" />
		<tag k="natural" v="hill" />
		<tag k="place" v="locality" />
		<tag k="ssr:stedsnr" v="732210" />
	</node>
	<node id="-187515" lat="59.7373361138" lon="10.0696750053">
		<tag k="fixme" v="consider natural=peak for the most distinct mountains in the district" />
		<tag k="name" v="Daleråsen" />
		<tag k="natural" v="hill" />
		<tag k="place" v="locality" />
		<tag k="ssr:stedsnr" v="731324" />
	</node>
	<node id="-187514" lat="59.7073749986" lon="10.0494888857">
		<tag k="fixme" v="consider natural=peak for the most distinct mountains in the district" />
		<tag k="name" v="Steinbakkåsen" />
		<tag k="natural" v="hill" />
		<tag k="place" v="locality" />
		<tag k="ssr:stedsnr" v="731258" />
	</node>
	<node id="-187506" lat="59.678702777" lon="10.0194833329">
		<tag k="fixme" v="consider natural=peak for the most distinct mountains in the district" />
		<tag k="name" v="Nyseteråsen" />
		<tag k="natural" v="hill" />
		<tag k="place" v="locality" />
		<tag k="ssr:stedsnr" v="695248" />
	</node>
	<node id="-187503" lat="59.8006055576" lon="10.0002277779">
		<tag k="fixme" v="consider natural=peak for the most distinct mountains in the district" />
		<tag k="name" v="Horgenseteråsen" />
		<tag k="natural" v="hill" />
		<tag k="place" v="locality" />
		<tag k="ssr:stedsnr" v="694709" />
	</node>
	<node id="-187494" lat="59.7777222202" lon="10.0928861038">
		<tag k="name" v="Ulverudbakk" />
		<tag k="natural" v="slope" />
		<tag k="place" v="locality" />
		<tag k="ssr:stedsnr" v="690767" />
	</node>
	<node id="-187492" lat="59.7828611095" lon="10.0877500062">
		<tag k="name" v="Midtskogen" />
		<tag k="natural" v="slope" />
		<tag k="place" v="locality" />
		<tag k="ssr:stedsnr" v="690553" />
	</node>
	<node id="-187477" lat="59.667649996" lon="10.0039222208">
		<tag k="fixme" v="consider natural=peak for the most distinct mountains in the district" />
		<tag k="name" v="Steinbruåsen" />
		<tag k="natural" v="hill" />
		<tag k="place" v="locality" />
		<tag k="ssr:stedsnr" v="634257" />
	</node>
	<node id="-187474" lat="59.7258694463" lon="10.0273555579">
		<tag k="name" v="Brattbakk" />
		<tag k="natural" v="slope" />
		<tag k="place" v="locality" />
		<tag k="ssr:stedsnr" v="630955" />
	</node>
	<node id="-187469" lat="59.780133334" lon="9.97222221347">
		<tag k="fixme" v="consider natural=peak for the most distinct mountains in the district" />
		<tag k="name" v="Kobberdokkfjellet" />
		<tag k="natural" v="hill" />
		<tag k="place" v="locality" />
		<tag k="ssr:stedsnr" v="629727" />
	</node>
	<node id="-187468" lat="59.7239916662" lon="10.062830554">
		<tag k="name" v="Overdalen" />
		<tag k="natural" v="valley" />
		<tag k="place" v="locality" />
		<tag k="ssr:stedsnr" v="629568" />
	</node>
	<node id="-187466" lat="59.7417749997" lon="10.0556194419">
		<tag k="name" v="Hviteberget" />
		<tag k="natural" v="hill" />
		<tag k="place" v="locality" />
		<tag k="ssr:stedsnr" v="609361" />
	</node>
	<node id="-187459" lat="59.7170722262" lon="9.97325833863">
		<tag k="name" v="Dammyrhaugene" />
		<tag k="natural" v="hill" />
		<tag k="place" v="locality" />
		<tag k="ssr:stedsnr" v="573171" />
	</node>
	<node id="-187457" lat="59.6927694446" lon="10.0214277717">
		<tag k="name" v="Skaråsen" />
		<tag k="natural" v="slope" />
		<tag k="place" v="locality" />
		<tag k="ssr:stedsnr" v="573138" />
	</node>
	<node id="-187455" lat="59.8083527754" lon="9.99525000879">
		<tag k="name" v="Livkleiv" />
		<tag k="natural" v="slope" />
		<tag k="place" v="locality" />
		<tag k="ssr:stedsnr" v="572736" />
	</node>
	<node id="-187452" lat="59.7787111112" lon="9.9866722146">
		<tag k="name" v="Tjernsbakk" />
		<tag k="natural" v="slope" />
		<tag k="place" v="locality" />
		<tag k="ssr:stedsnr" v="568911" />
	</node>
	<node id="-187449" lat="59.731619444" lon="10.0831888945">
		<tag k="fixme" v="consider natural=peak for the most distinct mountains in the district" />
		<tag k="name" v="Lauparåsen" />
		<tag k="natural" v="hill" />
		<tag k="place" v="locality" />
		<tag k="ssr:stedsnr" v="568577" />
	</node>
	<node id="-187447" lat="59.7241805593" lon="10.0386499977">
		<tag k="name" v="Grisedalen" />
		<tag k="natural" v="valley" />
		<tag k="place" v="locality" />
		<tag k="ssr:stedsnr" v="568550" />
	</node>
	<node id="-187446" lat="59.7699583362" lon="10.0614722166">
		<tag k="name" v="Storlia" />
		<tag k="natural" v="slope" />
		<tag k="place" v="locality" />
		<tag k="ssr:stedsnr" v="568481" />
	</node>
	<node id="-187444" lat="59.7681583293" lon="10.0371472238">
		<tag k="name" v="Ormedalen" />
		<tag k="natural" v="valley" />
		<tag k="place" v="locality" />
		<tag k="ssr:stedsnr" v="568473" />
	</node>
	<node id="-187443" lat="59.7765666703" lon="10.0454722268">
		<tag k="name" v="Høymyrdalen" />
		<tag k="natural" v="valley" />
		<tag k="place" v="locality" />
		<tag k="ssr:stedsnr" v="568472" />
	</node>
	<node id="-187441" lat="59.7972805569" lon="10.0514361117">
		<tag k="fixme" v="consider natural=peak for the most distinct mountains in the district" />
		<tag k="name" v="Hoggskollen" />
		<tag k="natural" v="hill" />
		<tag k="place" v="locality" />
		<tag k="ssr:stedsnr" v="610291" />
	</node>
	<node id="-187440" lat="59.7696499969" lon="10.0495166738">
		<tag k="fixme" v="consider natural=peak for the most distinct mountains in the district" />
		<tag k="name" v="Solbergfjellet" />
		<tag k="natural" v="hill" />
		<tag k="place" v="locality" />
		<tag k="ssr:stedsnr" v="610197" />
	</node>
	<node id="-187439" lat="59.8009666694" lon="10.0106583334">
		<tag k="fixme" v="consider natural=peak for the most distinct mountains in the district" />
		<tag k="name" v="Høgåsen" />
		<tag k="natural" v="hill" />
		<tag k="place" v="locality" />
		<tag k="ssr:stedsnr" v="550501" />
	</node>
	<node id="-187436" lat="59.730052782" lon="9.99879999824">
		<tag k="fixme" v="consider natural=peak for the most distinct mountains in the district" />
		<tag k="name" v="Korpåsen" />
		<tag k="natural" v="hill" />
		<tag k="place" v="locality" />
		<tag k="ssr:stedsnr" v="549363" />
	</node>
	<node id="-187430" lat="59.7015055571" lon="9.99388055465">
		<tag k="fixme" v="consider natural=peak for the most distinct mountains in the district" />
		<tag k="name" v="Seteråsen" />
		<tag k="natural" v="hill" />
		<tag k="place" v="locality" />
		<tag k="ssr:stedsnr" v="549024" />
	</node>
	<node id="-187420" lat="59.7822972228" lon="10.0139527814">
		<tag k="name" v="Sandva" />
		<tag k="natural" v="slope" />
		<tag k="place" v="locality" />
		<tag k="ssr:stedsnr" v="508929" />
	</node>
	<node id="-187406" lat="59.7111638896" lon="10.0017027778">
		<tag k="name" v="Ertekollen" />
		<tag k="natural" v="hill" />
		<tag k="place" v="locality" />
		<tag k="ssr:stedsnr" v="488248" />
	</node>
	<node id="-187404" lat="59.6836361098" lon="10.003961116">
		<tag k="alt_name" v="Lortholdalen" />
		<tag k="name" v="Lorttjerndalen" />
		<tag k="natural" v="valley" />
		<tag k="place" v="locality" />
		<tag k="ssr:stedsnr" v="488205" />
	</node>
	<node id="-187402" lat="59.8068083354" lon="10.0003972285">
		<tag k="name" v="Huskombusk" />
		<tag k="natural" v="slope" />
		<tag k="place" v="locality" />
		<tag k="ssr:stedsnr" v="451746" />
	</node>
	<node id="-187400" lat="59.8233611112" lon="10.0099333253">
		<tag k="name" v="Helvetesbakk" />
		<tag k="natural" v="slope" />
		<tag k="place" v="locality" />
		<tag k="ssr:stedsnr" v="450528" />
	</node>
	<node id="-187395" lat="59.7773611099" lon="10.0284861071">
		<tag k="fixme" v="consider natural=peak for the most distinct mountains in the district" />
		<tag k="name" v="Bakkeseterfjellet" />
		<tag k="natural" v="hill" />
		<tag k="place" v="locality" />
		<tag k="ssr:stedsnr" v="447904" />
	</node>
	<node id="-187393" lat="59.7684972221" lon="10.0964638865">
		<tag k="name" v="Breihella" />
		<tag k="natural" v="slope" />
		<tag k="place" v="locality" />
		<tag k="ssr:stedsnr" v="447716" />
	</node>
</osm>
