<?xml version="1.0" encoding="UTF-8"?>
<osm generator="osmapis" version="0.6">
	<node id="-187392" lat="59.7492500018" lon="10.107238896">
		<tag k="name" v="Bråtan" />
		<tag k="place" v="farm" />
		<tag k="ssr:stedsnr" v="447583" />
	</node>
	<node id="-187390" lat="59.7788138898" lon="10.0361361165">
		<tag k="name" v="Vadalstua" />
		<tag k="place" v="isolated_dwelling" />
		<tag k="ssr:stedsnr" v="447460" />
	</node>
	<node id="-187389" lat="59.7535305566" lon="9.99558333581">
		<tag k="building" v="industrial" />
		<tag k="industrial" v="factory" />
		<tag k="name" v="Eker papirfabrikk" />
		<tag k="ssr:stedsnr" v="448791" />
	</node>
	<node id="-187388" lat="59.7581666658" lon="10.0058944413">
		<tag k="name" v="Krokstadelva" />
		<tag k="place" v="village" />
		<tag k="ssr:stedsnr" v="429158" />
	</node>
	<node id="-187386" lat="59.7246861072" lon="10.0580333364">
		<tag k="name" v="Dalen" />
		<tag k="place" v="isolated_dwelling" />
		<tag k="ssr:stedsnr" v="428239" />
	</node>
	<node id="-187382" lat="59.7628111075" lon="10.058311117">
		<tag k="name" v="Solberg" />
		<tag k="place" v="farm" />
		<tag k="ssr:stedsnr" v="428159" />
	</node>
	<node id="-187381" lat="59.7507250001" lon="10.0459722275">
		<tag k="name" v="Rygg" />
		<tag k="place" v="farm" />
		<tag k="ssr:stedsnr" v="428071" />
	</node>
	<node id="-187380" lat="59.7487388883" lon="10.0782833402">
		<tag k="name" v="Daler" />
		<tag k="place" v="farm" />
		<tag k="ssr:stedsnr" v="427388" />
	</node>
	<node id="-187379" lat="59.7410250029" lon="9.99460832821">
		<tag k="name" v="Korsgården" />
		<tag k="place" v="farm" />
		<tag k="ssr:stedsnr" v="427383" />
	</node>
	<node id="-187374" lat="59.7658277778" lon="9.96970278173">
		<tag k="name" v="Korshorgen" />
		<tag k="place" v="farm" />
		<tag k="ssr:stedsnr" v="265766" />
	</node>
	<node id="-187373" lat="59.763233335" lon="10.1070333316">
		<tag k="name" v="Vinnesbråtan" />
		<tag k="place" v="farm" />
		<tag k="ssr:stedsnr" v="265616" />
	</node>
	<node id="-187370" lat="59.7586027744" lon="9.94787222688">
		<tag k="alt_name" v="Temtemoen øvre" />
		<tag k="name" v="Øvre Temtemoen" />
		<tag k="place" v="farm" />
		<tag k="ssr:stedsnr" v="265537" />
	</node>
	<node id="-187368" lat="59.7922833327" lon="10.0199111055">
		<tag k="historic" v="shieling" />
		<tag k="name" v="Eknessetra" />
		<tag k="place" v="locality" />
		<tag k="ssr:stedsnr" v="247132" />
	</node>
	<node id="-187366" lat="59.7175999958" lon="10.0155500042">
		<tag k="name" v="Bråtaseter" />
		<tag k="place" v="isolated_dwelling" />
		<tag k="ssr:stedsnr" v="246264" />
	</node>
	<node id="-187365" lat="59.7293055572" lon="10.0317000082">
		<tag k="name" v="Haugen" />
		<tag k="place" v="farm" />
		<tag k="ssr:stedsnr" v="246250" />
	</node>
	<node id="-187363" lat="59.7627805531" lon="10.0696000083">
		<tag k="name" v="Bjørhus" />
		<tag k="place" v="farm" />
		<tag k="ssr:stedsnr" v="246186" />
	</node>
	<node id="-187362" lat="59.7640055548" lon="10.0222499991">
		<tag k="name" v="Bjørkedokk" />
		<tag k="place" v="farm" />
		<tag k="ssr:stedsnr" v="246185" />
	</node>
	<node id="-187361" lat="59.7515500004" lon="9.9853861082">
		<tag k="name" v="Grav" />
		<tag k="place" v="farm" />
		<tag k="ssr:stedsnr" v="246070" />
	</node>
	<node id="-187352" lat="59.7671194419" lon="9.97457222394">
		<tag k="name" v="Sollien" />
		<tag k="place" v="isolated_dwelling" />
		<tag k="ssr:stedsnr" v="205750" />
	</node>
	<node id="-187351" lat="59.7566666632" lon="10.0587249942">
		<tag k="name" v="Herstrøm" />
		<tag k="place" v="farm" />
		<tag k="ssr:stedsnr" v="204883" />
	</node>
	<node id="-187350" lat="59.7513750045" lon="10.0942555523">
		<tag k="alt_name" v="Narverud mellom" />
		<tag k="name" v="Mellom-Narverud" />
		<tag k="place" v="farm" />
		<tag k="ssr:stedsnr" v="204560" />
	</node>
	<node id="-187348" lat="59.7433138872" lon="10.0861722157">
		<tag k="name" v="Brattli" />
		<tag k="place" v="farm" />
		<tag k="ssr:stedsnr" v="204541" />
	</node>
	<node id="-187343" lat="59.7332499958" lon="10.0440666616">
		<tag k="name" v="Solsetra" />
		<tag k="place" v="farm" />
		<tag k="ssr:stedsnr" v="202982" />
	</node>
	<node id="-187339" lat="59.7731250042" lon="10.0750249932">
		<tag k="name" v="Solbergbråtan" />
		<tag k="place" v="farm" />
		<tag k="ssr:stedsnr" v="186162" />
	</node>
	<node id="-187337" lat="59.7461666694" lon="10.040241669">
		<tag k="alt_name" v="Rygg lille" />
		<tag k="name" v="Mile" />
		<tag k="place" v="farm" />
		<tag k="ssr:stedsnr" v="185354" />
	</node>
	<node id="-187336" lat="59.7121611142" lon="10.0776749932">
		<tag k="name" v="Nikkerud" />
		<tag k="place" v="farm" />
		<tag k="ssr:stedsnr" v="185281" />
	</node>
	<node id="-187333" lat="59.7645833306" lon="9.97108054869">
		<tag k="alt_name" v="Horgen" />
		<tag k="name" v="Søndre Horgen" />
		<tag k="place" v="farm" />
		<tag k="ssr:stedsnr" v="185162" />
	</node>
	<node id="-187332" lat="59.7600638879" lon="9.98301389402">
		<tag k="alt_name" v="Stenberg" />
		<tag k="name" v="Steinberg" />
		<tag k="place" v="farm" />
		<tag k="ssr:stedsnr" v="185161" />
	</node>
	<node id="-187330" lat="59.7370972215" lon="10.005036113">
		<tag k="name" v="Vikåsen" />
		<tag k="place" v="farm" />
		<tag k="ssr:stedsnr" v="145945" />
	</node>
	<node id="-187322" lat="59.7696249983" lon="9.98971389601">
		<tag k="name" v="Fabrikkroken" />
		<tag k="place" v="farm" />
		<tag k="ssr:stedsnr" v="143906" />
	</node>
	<node id="-187321" lat="59.7523083363" lon="10.0845583306">
		<tag k="name" v="Daler" />
		<tag k="place" v="farm" />
		<tag k="ssr:stedsnr" v="143903" />
	</node>
	<node id="-187320" lat="59.765841665" lon="10.0774722308">
		<tag k="name" v="Sagstua" />
		<tag k="place" v="farm" />
		<tag k="ssr:stedsnr" v="143856" />
	</node>
	<node id="-187319" lat="59.7504472235" lon="10.101816669">
		<tag k="name" v="Steinsmyra" />
		<tag k="place" v="farm" />
		<tag k="ssr:stedsnr" v="143596" />
	</node>
	<node id="-187316" lat="59.7516000003" lon="9.96092777855">
		<tag k="name" v="Nedberg" />
		<tag k="place" v="farm" />
		<tag k="ssr:stedsnr" v="125599" />
	</node>
	<node id="-187313" lat="59.7588499975" lon="10.0656666623">
		<tag k="alt_name" v="Herstrøm" />
		<tag k="name" v="Hærstrøm" />
		<tag k="place" v="farm" />
		<tag k="ssr:stedsnr" v="125202" />
	</node>
	<node id="-187310" lat="59.7531527743" lon="10.0638000019">
		<tag k="name" v="Stryken" />
		<tag k="place" v="farm" />
		<tag k="ssr:stedsnr" v="125075" />
	</node>
	<node id="-187308" lat="59.7475277795" lon="9.98337778621">
		<tag k="name" v="Bråtan" />
		<tag k="place" v="farm" />
		<tag k="ssr:stedsnr" v="124297" />
	</node>
	<node id="-187297" lat="59.7507944452" lon="9.97474443726">
		<tag k="name" v="Nedberg" />
		<tag k="place" v="farm" />
		<tag k="ssr:stedsnr" v="83481" />
	</node>
	<node id="-187295" lat="59.7634111077" lon="10.0787055483">
		<tag k="name" v="Solbergelva" />
		<tag k="place" v="village" />
		<tag k="ssr:stedsnr" v="65170" />
	</node>
	<node id="-187289" lat="59.6796138852" lon="10.0268666723">
		<tag k="alt_name" v="Nyseter" />
		<tag k="name" v="Nysetra" />
		<tag k="place" v="isolated_dwelling" />
		<tag k="ssr:stedsnr" v="64232" />
	</node>
	<node id="-187287" lat="59.7438555528" lon="10.0036083257">
		<tag k="name" v="Vika" />
		<tag k="place" v="farm" />
		<tag k="ssr:stedsnr" v="63370" />
	</node>
	<node id="-187282" lat="59.7356527777" lon="10.0243555507">
		<tag k="name" v="Pilterud" />
		<tag k="place" v="farm" />
		<tag k="ssr:stedsnr" v="24932" />
	</node>
	<node id="-187280" lat="59.7597249973" lon="10.1058388821">
		<tag k="alt_name" v="Vinnes store" />
		<tag k="name" v="Store Vinnes" />
		<tag k="place" v="farm" />
		<tag k="ssr:stedsnr" v="22577" />
	</node>
	<node id="-187279" lat="59.7643111083" lon="10.092311107">
		<tag k="name" v="Myre" />
		<tag k="place" v="farm" />
		<tag k="ssr:stedsnr" v="22574" />
	</node>
	<node id="-187276" lat="59.7690777782" lon="9.98951111518">
		<tag k="name" v="Skogly" />
		<tag k="place" v="farm" />
		<tag k="ssr:stedsnr" v="4184" />
	</node>
	<node id="-187273" lat="59.770075003" lon="9.96635277379">
		<tag k="name" v="Temte" />
		<tag k="place" v="farm" />
		<tag k="ssr:stedsnr" v="3577" />
	</node>
	<node id="-187272" lat="59.7462944431" lon="10.10331389">
		<tag k="name" v="Narverud" />
		<tag k="place" v="farm" />
		<tag k="ssr:stedsnr" v="3326" />
	</node>
	<node id="-187271" lat="59.738288888" lon="10.0160249946">
		<tag k="name" v="Åsen" />
		<tag k="place" v="farm" />
		<tag k="ssr:stedsnr" v="3325" />
	</node>
	<node id="-187270" lat="59.7388916682" lon="10.0298583255">
		<tag k="name" v="Bålerud" />
		<tag k="place" v="farm" />
		<tag k="ssr:stedsnr" v="3322" />
	</node>
	<node id="-187269" lat="59.7435972183" lon="9.96823333398">
		<tag k="name" v="Nikkelsrud" />
		<tag k="place" v="farm" />
		<tag k="ssr:stedsnr" v="3314" />
	</node>
	<node id="-187266" lat="59.697322225" lon="10.001527778">
		<tag k="name" v="Gosen" />
		<tag k="place" v="isolated_dwelling" />
		<tag k="ssr:stedsnr" v="3274" />
	</node>
	<node id="-187262" lat="59.7613749979" lon="10.0899166713">
		<tag k="name" v="Åserud" />
		<tag k="place" v="farm" />
		<tag k="ssr:stedsnr" v="3064" />
	</node>
	<node id="-187201" lat="59.7565551264" lon="9.99949074744">
		<tag k="building" v="commercial" />
		<tag k="name" v="Buskerud storsenter" />
		<tag k="ssr:stedsnr" v="982419" />
	</node>
	<node id="-187200" lat="59.7551955923" lon="10.0025249419">
		<tag k="name" v="Sandplassen" />
		<tag k="place" v="farm" />
		<tag k="ssr:stedsnr" v="982416" />
	</node>
	<node id="-187193" lat="59.664532913" lon="10.0065097898">
		<tag k="name" v="Edvardstua" />
		<tag k="place" v="locality" />
		<tag k="ssr:stedsnr" v="403856" />
	</node>
	<node id="-187190" lat="59.6833361106" lon="10.0033916639">
		<tag k="name" v="Langtjernstua" />
		<tag k="place" v="isolated_dwelling" />
		<tag k="ssr:stedsnr" v="391149" />
	</node>
	<node id="-187180" lat="59.7461694433" lon="10.1018305516">
		<tag k="name" v="Nygård" />
		<tag k="place" v="farm" />
		<tag k="ssr:stedsnr" v="386598" />
	</node>
	<node id="-187179" lat="59.7543805579" lon="10.1029194429">
		<tag k="name" v="Strandhagen gartneri" />
		<tag k="place" v="farm" />
		<tag k="ssr:stedsnr" v="386571" />
	</node>
	<node id="-187178" lat="59.7346027786" lon="10.0948555539">
		<tag k="name" v="Toppen" />
		<tag k="place" v="isolated_dwelling" />
		<tag k="ssr:stedsnr" v="386551" />
	</node>
	<node id="-187177" lat="59.7568638911" lon="9.95410834052">
		<tag k="alt_name" v="Skistad nedre" />
		<tag k="name" v="Nedre Skistad" />
		<tag k="place" v="farm" />
		<tag k="ssr:stedsnr" v="386498" />
	</node>
	<node id="-187174" lat="59.7545527821" lon="9.9669638869">
		<tag k="name" v="Nedberg" />
		<tag k="place" v="farm" />
		<tag k="ssr:stedsnr" v="386477" />
	</node>
	<node id="-187173" lat="59.7581782185" lon="9.9623847666">
		<tag k="name" v="Steinberg" />
		<tag k="place" v="farm" />
		<tag k="ssr:stedsnr" v="368630" />
	</node>
	<node id="-187167" lat="59.7299499974" lon="9.98556666094">
		<tag k="name" v="Portåsen" />
		<tag k="place" v="farm" />
		<tag k="ssr:stedsnr" v="367203" />
	</node>
	<node id="-187160" lat="59.7476166681" lon="9.98326110505">
		<tag k="name" v="Skalpe" />
		<tag k="place" v="farm" />
		<tag k="ssr:stedsnr" v="326804" />
	</node>
	<node id="-187158" lat="59.7356722201" lon="10.0446138864">
		<tag k="name" v="Olsesetra" />
		<tag k="place" v="farm" />
		<tag k="ssr:stedsnr" v="326585" />
	</node>
	<node id="-187157" lat="59.7587944475" lon="9.97206666335">
		<tag k="amenity" v="school" />
		<tag k="name" v="Steinberg skole" />
		<tag k="ssr:stedsnr" v="326540" />
	</node>
	<node id="-187155" lat="59.7637444445" lon="9.96810833541">
		<tag k="name" v="Holmen" />
		<tag k="place" v="farm" />
		<tag k="ssr:stedsnr" v="326525" />
	</node>
	<node id="-187152" lat="59.7507472253" lon="10.0247666705">
		<tag k="name" v="Mjøndalen" />
		<tag k="place" v="village" />
		<tag k="ssr:stedsnr" v="306356" />
	</node>
	<node id="-187615" lat="59.8301888883" lon="10.0263138851">
		<tag k="name" v="Lysakerstua" />
		<tag k="place" v="isolated_dwelling" />
		<tag k="ssr:stedsnr" v="936517" />
	</node>
	<node id="-187614" lat="59.7552972243" lon="10.0125305495">
		<tag k="building" v="industrial" />
		<tag k="industrial" v="factory" />
		<tag k="name" v="Viking Mjøndalen" />
		<tag k="ssr:stedsnr" v="934994" />
	</node>
	<node id="-187613" lat="59.742336107" lon="10.007272216">
		<tag k="name" v="Søndre Viken" />
		<tag k="place" v="farm" />
		<tag k="ssr:stedsnr" v="934939" />
	</node>
	<node id="-187608" lat="59.7517611087" lon="10.069538886">
		<tag k="name" v="Nordenga" />
		<tag k="place" v="farm" />
		<tag k="ssr:stedsnr" v="933949" />
	</node>
	<node id="-187607" lat="59.747766669" lon="9.9944777867">
		<tag k="name" v="Kjøya" />
		<tag k="place" v="quarter" />
		<tag k="ssr:stedsnr" v="933785" />
	</node>
	<node id="-187602" lat="59.7554583298" lon="9.96203333168">
		<tag k="name" v="Smaljordet" />
		<tag k="place" v="farm" />
		<tag k="ssr:stedsnr" v="933557" />
	</node>
	<node id="-187600" lat="59.7672249997" lon="10.0778305565">
		<tag k="name" v="Solberg Spinderi" />
		<tag k="place" v="quarter" />
		<tag k="ssr:stedsnr" v="933541" />
	</node>
	<node id="-187597" lat="59.6993055601" lon="10.0294638813">
		<tag k="name" v="Fjellfritt" />
		<tag k="place" v="isolated_dwelling" />
		<tag k="ssr:stedsnr" v="914306" />
	</node>
	<node id="-187593" lat="59.8255500011" lon="10.08735833">
		<tag k="historic" v="shieling" />
		<tag k="name" v="Svarthamnsetra" />
		<tag k="place" v="locality" />
		<tag k="ssr:stedsnr" v="914214" />
	</node>
	<node id="-187592" lat="59.8188027793" lon="10.0303138891">
		<tag k="alt_name" v="Lysåkersætra" />
		<tag k="fixme" v="multiple name tags, choose one and add the other to alt_name" />
		<tag k="historic" v="shieling" />
		<tag k="name" v="Lysakervollen;Lysåkersetra" />
		<tag k="place" v="locality" />
		<tag k="ssr:stedsnr" v="914206" />
	</node>
	<node id="-187590" lat="59.738352781" lon="10.0991333377">
		<tag k="landuse" v="winter_sports" />
		<tag k="name" v="Ytterkolløypa" />
		<tag k="piste:type" v="downhill" />
		<tag k="ssr:stedsnr" v="913363" />
	</node>
	<node id="-187589" lat="59.71566111" lon="9.99375000285">
		<tag k="name" v="Korsgårdsetra" />
		<tag k="place" v="isolated_dwelling" />
		<tag k="ssr:stedsnr" v="913256" />
	</node>
	<node id="-187583" lat="59.7312833365" lon="9.98139444811">
		<tag k="name" v="Åseplassen" />
		<tag k="place" v="farm" />
		<tag k="ssr:stedsnr" v="873988" />
	</node>
	<node id="-187582" lat="59.7431527774" lon="10.0289027799">
		<tag k="name" v="Mjøndalen gård" />
		<tag k="place" v="farm" />
		<tag k="ssr:stedsnr" v="873971" />
	</node>
	<node id="-187579" lat="59.7476583368" lon="10.0796138864">
		<tag k="name" v="Daler" />
		<tag k="place" v="farm" />
		<tag k="ssr:stedsnr" v="872924" />
	</node>
	<node id="-187576" lat="59.7236222199" lon="10.0729499997">
		<tag k="name" v="Helgerud" />
		<tag k="place" v="isolated_dwelling" />
		<tag k="ssr:stedsnr" v="872597" />
	</node>
	<node id="-187572" lat="59.775975002" lon="10.0780750063">
		<tag k="alt_name" v="Huldreheim" />
		<tag k="name" v="Ulverudplassen" />
		<tag k="place" v="isolated_dwelling" />
		<tag k="ssr:stedsnr" v="854142" />
	</node>
	<node id="-187570" lat="59.7374111118" lon="9.97472500558">
		<tag k="alt_name" v="Kårvoll" />
		<tag k="name" v="Korvald" />
		<tag k="place" v="farm" />
		<tag k="ssr:stedsnr" v="853360" />
	</node>
	<node id="-187569" lat="59.7363749985" lon="9.99399166842">
		<tag k="alt_name" v="Pålsåsen" />
		<tag k="name" v="Åsen" />
		<tag k="place" v="farm" />
		<tag k="ssr:stedsnr" v="853358" />
	</node>
	<node id="-187568" lat="59.7106750025" lon="10.0345222296">
		<tag k="name" v="Kikkut" />
		<tag k="place" v="isolated_dwelling" />
		<tag k="ssr:stedsnr" v="853295" />
	</node>
	<node id="-187564" lat="59.7127055535" lon="10.0320388841">
		<tag k="name" v="Hellesetra" />
		<tag k="place" v="isolated_dwelling" />
		<tag k="ssr:stedsnr" v="853251" />
	</node>
	<node id="-187563" lat="59.724836115" lon="9.99283056206">
		<tag k="alt_name" v="Hanseseter" />
		<tag k="name" v="Hansaseter" />
		<tag k="place" v="isolated_dwelling" />
		<tag k="ssr:stedsnr" v="853232" />
	</node>
	<node id="-187559" lat="59.7574777752" lon="10.0826833408">
		<tag k="name" v="Killingrud" />
		<tag k="place" v="farm" />
		<tag k="ssr:stedsnr" v="853149" />
	</node>
	<node id="-187558" lat="59.7526499965" lon="9.99060000851">
		<tag k="name" v="Skramnes" />
		<tag k="place" v="farm" />
		<tag k="ssr:stedsnr" v="853056" />
	</node>
	<node id="-187557" lat="59.74706111" lon="10.0001277715">
		<tag k="name" v="Krok" />
		<tag k="place" v="farm" />
		<tag k="ssr:stedsnr" v="852353" />
	</node>
	<node id="-187555" lat="59.6725166658" lon="10.0126027807">
		<tag k="name" v="Kittilsbu" />
		<tag k="place" v="isolated_dwelling" />
		<tag k="ssr:stedsnr" v="816256" />
	</node>
	<node id="-187551" lat="59.7367916645" lon="10.0120499949">
		<tag k="name" v="Lodden-Åsen" />
		<tag k="place" v="farm" />
		<tag k="ssr:stedsnr" v="813919" />
	</node>
	<node id="-187539" lat="59.7303166705" lon="10.0365305611">
		<tag k="name" v="Dammen" />
		<tag k="place" v="farm" />
		<tag k="ssr:stedsnr" v="792352" />
	</node>
	<node id="-187536" lat="59.668224997" lon="9.99932777764">
		<tag k="name" v="Edvardstua" />
		<tag k="place" v="isolated_dwelling" />
		<tag k="ssr:stedsnr" v="792141" />
	</node>
	<node id="-187535" lat="59.7497527762" lon="9.99038055728">
		<tag k="name" v="Krok" />
		<tag k="place" v="farm" />
		<tag k="ssr:stedsnr" v="792072" />
	</node>
	<node id="-187534" lat="59.7553805189" lon="10.0045238368">
		<tag k="name" v="Sand" />
		<tag k="place" v="farm" />
		<tag k="ssr:stedsnr" v="792071" />
	</node>
	<node id="-187532" lat="59.7624833346" lon="10.0293249973">
		<tag k="name" v="Plassen" />
		<tag k="place" v="farm" />
		<tag k="ssr:stedsnr" v="751998" />
	</node>
	<node id="-187531" lat="59.7479166681" lon="9.99875833953">
		<tag k="amenity" v="school" />
		<tag k="name" v="Veiavangen skole" />
		<tag k="ssr:stedsnr" v="751793" />
	</node>
	<node id="-187529" lat="59.7657888858" lon="10.0063861179">
		<tag k="name" v="Gosen" />
		<tag k="place" v="farm" />
		<tag k="ssr:stedsnr" v="750903" />
	</node>
	<node id="-187527" lat="59.7430083324" lon="10.0418111142">
		<tag k="name" v="Franseplassen" />
		<tag k="place" v="farm" />
		<tag k="ssr:stedsnr" v="750556" />
	</node>
	<node id="-187523" lat="59.760055557" lon="9.95495278305">
		<tag k="name" v="Steinberg" />
		<tag k="place" v="village" />
		<tag k="ssr:stedsnr" v="732609" />
	</node>
	<node id="-187521" lat="59.804538887" lon="10.0983472223">
		<tag k="name" v="Ragnhildstøl" />
		<tag k="place" v="isolated_dwelling" />
		<tag k="ssr:stedsnr" v="732253" />
	</node>
	<node id="-187519" lat="59.7604999976" lon="10.0113500084">
		<tag k="name" v="Eknes" />
		<tag k="place" v="farm" />
		<tag k="ssr:stedsnr" v="732201" />
	</node>
	<node id="-187517" lat="59.7637222226" lon="10.0842694357">
		<tag k="name" v="Ulverud" />
		<tag k="place" v="farm" />
		<tag k="ssr:stedsnr" v="732085" />
	</node>
	<node id="-187516" lat="59.733099998" lon="10.0460083318">
		<tag k="name" v="Ryggsetra" />
		<tag k="place" v="farm" />
		<tag k="ssr:stedsnr" v="731326" />
	</node>
	<node id="-187512" lat="59.7206277814" lon="10.0500999993">
		<tag k="name" v="Viksetra" />
		<tag k="place" v="farm" />
		<tag k="ssr:stedsnr" v="731214" />
	</node>
	<node id="-187504" lat="59.8045194473" lon="9.99392500823">
		<tag k="name" v="Horgenseter" />
		<tag k="place" v="isolated_dwelling" />
		<tag k="ssr:stedsnr" v="694711" />
	</node>
	<node id="-187501" lat="59.7641888902" lon="10.0069055592">
		<tag k="name" v="Gosen" />
		<tag k="place" v="farm" />
		<tag k="ssr:stedsnr" v="691980" />
	</node>
	<node id="-187500" lat="59.7395805583" lon="10.0032222249">
		<tag k="leisure" v="pitch" />
		<tag k="name" v="Vikkollen" />
		<tag k="ssr:stedsnr" v="691945" />
	</node>
	<node id="-187497" lat="59.7496861088" lon="10.0475361068">
		<tag k="alt_name" v="Rygg nedre" />
		<tag k="name" v="Nedre Rygg" />
		<tag k="place" v="farm" />
		<tag k="ssr:stedsnr" v="690920" />
	</node>
	<node id="-187496" lat="59.7523527765" lon="10.0418500078">
		<tag k="alt_name" v="Rygg mellem" />
		<tag k="name" v="Mellom-Rygg" />
		<tag k="place" v="farm" />
		<tag k="ssr:stedsnr" v="690919" />
	</node>
	<node id="-187495" lat="59.7617333364" lon="10.088513884">
		<tag k="name" v="Vøllo" />
		<tag k="place" v="farm" />
		<tag k="ssr:stedsnr" v="690891" />
	</node>
	<node id="-187493" lat="59.7663416688" lon="10.0899777845">
		<tag k="name" v="Bjørkelund" />
		<tag k="place" v="farm" />
		<tag k="ssr:stedsnr" v="690557" />
	</node>
	<node id="-187490" lat="59.7526583326" lon="9.97213611387">
		<tag k="name" v="Nedberg" />
		<tag k="place" v="farm" />
		<tag k="ssr:stedsnr" v="690547" />
	</node>
	<node id="-187488" lat="59.7567334154" lon="10.0314614304">
		<tag k="name" v="Steinset" />
		<tag k="place" v="quarter" />
		<tag k="ssr:stedsnr" v="671178" />
	</node>
	<node id="-187487" lat="59.7518361104" lon="9.97495000179">
		<tag k="alt_name" v="Neberg" />
		<tag k="name" v="Nedberg" />
		<tag k="place" v="farm" />
		<tag k="ssr:stedsnr" v="671074" />
	</node>
	<node id="-187475" lat="59.7418166705" lon="10.028741661">
		<tag k="name" v="Bakkebruddet" />
		<tag k="place" v="quarter" />
		<tag k="ssr:stedsnr" v="630957" />
	</node>
	<node id="-187472" lat="59.7545972203" lon="10.0391583331">
		<tag k="name" v="Papyrus P M" />
		<tag k="place" v="quarter" />
		<tag k="ssr:stedsnr" v="629913" />
	</node>
	<node id="-187471" lat="59.7620222218" lon="10.0770583322">
		<tag k="amenity" v="school" />
		<tag k="name" v="Killingrud ungdomsskole" />
		<tag k="ssr:stedsnr" v="629888" />
	</node>
	<node id="-187465" lat="59.7405611101" lon="10.0315277714">
		<tag k="name" v="Bakken" />
		<tag k="place" v="farm" />
		<tag k="ssr:stedsnr" v="609359" />
	</node>
	<node id="-187463" lat="59.7310694416" lon="9.97535832517">
		<tag k="name" v="Myra" />
		<tag k="place" v="farm" />
		<tag k="ssr:stedsnr" v="609353" />
	</node>
	<node id="-187454" lat="59.75515" lon="10.0177583287">
		<tag k="name" v="Møllenhof" />
		<tag k="place" v="farm" />
		<tag k="ssr:stedsnr" v="569989" />
	</node>
	<node id="-187453" lat="59.7608972246" lon="10.0631777839">
		<tag k="name" v="Hjelmeng" />
		<tag k="place" v="farm" />
		<tag k="ssr:stedsnr" v="568926" />
	</node>
	<node id="-187451" lat="59.7663083378" lon="9.98464999393">
		<tag k="name" v="Kornløkka" />
		<tag k="place" v="farm" />
		<tag k="ssr:stedsnr" v="568910" />
	</node>
	<node id="-187448" lat="59.7332333332" lon="10.1004277717">
		<tag k="name" v="Baustrømplassen" />
		<tag k="place" v="isolated_dwelling" />
		<tag k="ssr:stedsnr" v="568557" />
	</node>
	<node id="-187442" lat="59.7702027733" lon="9.9948333377">
		<tag k="name" v="Hovjordet" />
		<tag k="place" v="quarter" />
		<tag k="ssr:stedsnr" v="566192" />
	</node>
	<node id="-187435" lat="59.7128027775" lon="9.98090277807">
		<tag k="name" v="Dammyr" />
		<tag k="place" v="farm" />
		<tag k="ssr:stedsnr" v="549287" />
	</node>
	<node id="-187433" lat="59.7215277762" lon="10.036299996">
		<tag k="name" v="Kroksetra" />
		<tag k="place" v="isolated_dwelling" />
		<tag k="ssr:stedsnr" v="549270" />
	</node>
	<node id="-187432" lat="59.8062527777" lon="10.0700249959">
		<tag k="historic" v="shieling" />
		<tag k="name" v="Solbergsetra" />
		<tag k="place" v="locality" />
		<tag k="ssr:stedsnr" v="549232" />
	</node>
	<node id="-187431" lat="59.7571083367" lon="10.0999472202">
		<tag k="name" v="Vinnes" />
		<tag k="place" v="farm" />
		<tag k="ssr:stedsnr" v="549086" />
	</node>
	<node id="-187424" lat="59.8323888918" lon="10.0249138938">
		<tag k="name" v="Vranglevollen" />
		<tag k="place" v="locality" />
		<tag k="ssr:stedsnr" v="511596" />
	</node>
	<node id="-187423" lat="59.7552472241" lon="10.0093861078">
		<tag k="leisure" v="park" />
		<tag k="name" v="Bjørkelund" />
		<tag k="ssr:stedsnr" v="509990" />
	</node>
	<node id="-187422" lat="59.7310666685" lon="9.98468888592">
		<tag k="name" v="Sagbråten" />
		<tag k="place" v="farm" />
		<tag k="ssr:stedsnr" v="509984" />
	</node>
	<node id="-187419" lat="59.7632666624" lon="9.98281110294">
		<tag k="name" v="Brekke" />
		<tag k="place" v="farm" />
		<tag k="ssr:stedsnr" v="508777" />
	</node>
	<node id="-187417" lat="59.7568055601" lon="10.0994333276">
		<tag k="name" v="Vinnes gartneri" />
		<tag k="place" v="farm" />
		<tag k="ssr:stedsnr" v="508617" />
	</node>
	<node id="-187415" lat="59.7613861076" lon="10.0963333318">
		<tag k="name" v="Vinnes" />
		<tag k="place" v="farm" />
		<tag k="ssr:stedsnr" v="508611" />
	</node>
	<node id="-187414" lat="59.7973499997" lon="10.0422972177">
		<tag k="fixme" v="multiple name tags, choose one and add the other to alt_name" />
		<tag k="historic" v="shieling" />
		<tag k="name" v="Smedsetra;Smedvollen" />
		<tag k="place" v="locality" />
		<tag k="ssr:stedsnr" v="489281" />
	</node>
	<node id="-187410" lat="59.764036108" lon="9.99415555099">
		<tag k="alt_name" v="Krogstad" />
		<tag k="name" v="Krokstad" />
		<tag k="place" v="farm" />
		<tag k="ssr:stedsnr" v="489209" />
	</node>
	<node id="-187408" lat="59.7361138861" lon="10.0324583365">
		<tag k="name" v="Hestemyra" />
		<tag k="place" v="farm" />
		<tag k="ssr:stedsnr" v="488341" />
	</node>
	<node id="-187407" lat="59.7152500028" lon="10.0671916611">
		<tag k="name" v="Riseplassen" />
		<tag k="place" v="locality" />
		<tag k="ssr:stedsnr" v="488258" />
	</node>
	<node id="-187397" lat="59.7319138893" lon="10.009372219">
		<tag k="name" v="Åslund" />
		<tag k="place" v="farm" />
		<tag k="ssr:stedsnr" v="449900" />
	</node>
	<node id="-187394" lat="59.7564361123" lon="10.0881111137">
		<tag k="name" v="Åserud teglverk" />
		<tag k="place" v="quarter" />
		<tag k="ssr:stedsnr" v="447856" />
	</node>
</osm>
