<?xml version="1.0" encoding="UTF-8"?>
<osm generator="osmapis" version="0.6">
	<node id="-187424" lat="59.7574729149" lon="10.0378743344">
		<tag k="amenity" v="place_of_worship" />
		<tag k="fixme" v="specify religion=*, denomination=*, building=* etc" />
		<tag k="name" v="Nedre Eiker kapell" />
		<tag k="ssr:stedsnr" v="981351" />
	</node>
	<node id="-187551" lat="59.7829111118" lon="10.0028305494">
		<tag k="name" v="Utsikten" />
		<tag k="ssr:stedsnr" v="143947" />
		<tag k="tourism" v="viewpoint" />
	</node>
	<node id="-187675" lat="59.759625001" lon="10.0427583335">
		<tag k="name" v="Batteriet" />
		<tag k="place" v="locality" />
		<tag k="ssr:stedsnr" v="568872" />
	</node>
	<node id="-187703" lat="59.7631557211" lon="10.078531871">
		<tag k="alt_name" v="Solberg" />
		<tag k="amenity" v="place_of_worship" />
		<tag k="fixme" v="multiple name tags, choose one and add the other to alt_name; specify religion=*, denomination=*, building=* etc" />
		<tag k="name" v="Fredtun;Solberg kapell" />
		<tag k="ssr:stedsnr" v="640841" />
	</node>
	<node id="-187762" lat="59.7566092926" lon="10.0382658436">
		<tag k="alt_name" v="Nedre Eiker" />
		<tag k="amenity" v="place_of_worship" />
		<tag k="denomination" v="lutheran" />
		<tag k="name" v="Nedre Eiker kirke" />
		<tag k="religion" v="christian" />
		<tag k="ssr:stedsnr" v="792180" />
	</node>
	<node id="-187529" lat="59.7476916645" lon="10.0063583361">
		<tag k="alt_name" v="Mjøndalen" />
		<tag k="amenity" v="place_of_worship" />
		<tag k="denomination" v="lutheran" />
		<tag k="name" v="Mjøndalen kirke" />
		<tag k="religion" v="christian" />
		<tag k="ssr:stedsnr" v="94015" />
	</node>
</osm>
