<?xml version="1.0" encoding="UTF-8"?>
<osm generator="osmapis" version="0.6">
	<node id="-187387" lat="59.7886999995" lon="10.0844638935">
		<tag k="name" v="Gravningsbekken" />
		<tag k="ssr:stedsnr" v="429127" />
		<tag k="waterway" v="stream" />
	</node>
	<node id="-187385" lat="59.8003249999" lon="10.077855564">
		<tag k="name" v="Nerdammen" />
		<tag k="natural" v="water" />
		<tag k="ssr:stedsnr" v="428214" />
	</node>
	<node id="-187383" lat="59.8093722212" lon="10.0158972228">
		<tag k="name" v="Lommetjern" />
		<tag k="natural" v="water" />
		<tag k="ssr:stedsnr" v="428208" />
	</node>
	<node id="-187377" lat="59.7799472179" lon="10.0077222136">
		<tag k="name" v="Klopptjern" />
		<tag k="natural" v="water" />
		<tag k="ssr:stedsnr" v="265956" />
	</node>
	<node id="-187372" lat="59.7316250046" lon="10.0624916588">
		<tag k="name" v="Rørvikbekken" />
		<tag k="ssr:stedsnr" v="265609" />
		<tag k="waterway" v="stream" />
	</node>
	<node id="-187369" lat="59.8315305588" lon="10.0288722283">
		<tag k="name" v="Vrangla" />
		<tag k="natural" v="water" />
		<tag k="ssr:stedsnr" v="247259" />
		<tag k="water" v="lake" />
	</node>
	<node id="-187359" lat="59.6776916638" lon="10.0068333418">
		<tag k="name" v="Langtjern" />
		<tag k="natural" v="water" />
		<tag k="ssr:stedsnr" v="210168" />
	</node>
	<node id="-187357" lat="59.8028194448" lon="10.0178694426">
		<tag k="name" v="Aureputt" />
		<tag k="natural" v="water" />
		<tag k="ssr:stedsnr" v="208735" />
		<tag k="water" v="pond" />
	</node>
	<node id="-187356" lat="59.8053666661" lon="10.0057361065">
		<tag k="name" v="Haraputt" />
		<tag k="natural" v="water" />
		<tag k="ssr:stedsnr" v="208725" />
		<tag k="water" v="pond" />
	</node>
	<node id="-187344" lat="59.7694027785" lon="10.077905555">
		<tag k="name" v="Karindammen" />
		<tag k="ssr:stedsnr" v="204450" />
		<tag k="waterway" v="dam" />
	</node>
	<node id="-187342" lat="59.8559055561" lon="10.0611333337">
		<tag k="name" v="Bordvika" />
		<tag k="natural" v="bay" />
		<tag k="ssr:stedsnr" v="186266" />
	</node>
	<node id="-187341" lat="59.7784138852" lon="10.0697611097">
		<tag k="name" v="Vasshella" />
		<tag k="natural" v="water" />
		<tag k="ssr:stedsnr" v="186150" />
	</node>
	<node id="-187334" lat="59.6864305565" lon="10.031183332">
		<tag k="alt_name" v="Åsseterbekken" />
		<tag k="name" v="Åseterbekken" />
		<tag k="ssr:stedsnr" v="185167" />
		<tag k="waterway" v="stream" />
	</node>
	<node id="-187323" lat="59.7553916667" lon="10.0386388865">
		<tag k="name" v="Stegla" />
		<tag k="ssr:stedsnr" v="143914" />
		<tag k="waterway" v="rapids" />
	</node>
	<node id="-187315" lat="59.8012055534" lon="10.0283611178">
		<tag k="alt_name" v="Solbergvann" />
		<tag k="name" v="Solbergvannet" />
		<tag k="natural" v="water" />
		<tag k="ssr:stedsnr" v="125261" />
		<tag k="water" v="lake" />
	</node>
	<node id="-187312" lat="59.7824861129" lon="9.98242777329">
		<tag k="alt_name" v="Balatjern" />
		<tag k="name" v="Ballatjern" />
		<tag k="natural" v="water" />
		<tag k="ssr:stedsnr" v="125161" />
	</node>
	<node id="-187307" lat="59.7058166673" lon="10.0747833254">
		<tag k="name" v="Sagdammen" />
		<tag k="natural" v="water" />
		<tag k="ssr:stedsnr" v="124256" />
	</node>
	<node id="-187306" lat="59.723000003" lon="10.0787500081">
		<tag k="name" v="Ormetjern" />
		<tag k="natural" v="water" />
		<tag k="ssr:stedsnr" v="124206" />
	</node>
	<node id="-187305" lat="59.8391361081" lon="10.0504527773">
		<tag k="name" v="Tretjerna" />
		<tag k="natural" v="water" />
		<tag k="ssr:stedsnr" v="125316" />
	</node>
	<node id="-187300" lat="59.7561166675" lon="10.0609472198">
		<tag k="name" v="Herstrømøya" />
		<tag k="place" v="island" />
		<tag k="ssr:stedsnr" v="83888" />
	</node>
	<node id="-187296" lat="59.803080554" lon="10.0502555524">
		<tag k="fixme" v="multiple name tags, choose one and add the other to alt_name" />
		<tag k="name" v="Kringla;Kringletjern" />
		<tag k="natural" v="water" />
		<tag k="ssr:stedsnr" v="81196" />
	</node>
	<node id="-187292" lat="59.8473555512" lon="10.0635277708">
		<tag k="name" v="Langvassbekken" />
		<tag k="ssr:stedsnr" v="64248" />
		<tag k="waterway" v="stream" />
	</node>
	<node id="-187291" lat="59.6779611104" lon="10.0067000046">
		<tag k="name" v="Langetjern" />
		<tag k="natural" v="water" />
		<tag k="ssr:stedsnr" v="64235" />
	</node>
	<node id="-187288" lat="59.8162095793" lon="10.0320485685">
		<tag k="alt_name" v="Ulvannet;Urdvatnet;Ulvann" />
		<tag k="loc_name" v="Urdevannet;Urdvannet" />
		<tag k="name" v="Urdevann" />
		<tag k="natural" v="water" />
		<tag k="old_name" v="Ulvevandet;Ulvandet" />
		<tag k="ssr:stedsnr" v="64209" />
		<tag k="water" v="lake" />
	</node>
	<node id="-187284" lat="59.8113583362" lon="10.024711116">
		<tag k="name" v="Tunga" />
		<tag k="natural" v="water" />
		<tag k="ssr:stedsnr" v="25479" />
		<tag k="water" v="pond" />
	</node>
	<node id="-187277" lat="59.8320527747" lon="10.083016661">
		<tag k="name" v="Auretjern" />
		<tag k="natural" v="water" />
		<tag k="ssr:stedsnr" v="4272" />
	</node>
	<node id="-187274" lat="59.7867250033" lon="10.0755000019">
		<tag k="alt_name" v="Solbergbekken" />
		<tag k="name" v="Solbergelva" />
		<tag k="ssr:stedsnr" v="4136" />
		<tag k="waterway" v="stream" />
	</node>
	<node id="-187268" lat="59.7007472218" lon="10.0139777707">
		<tag k="name" v="Nebergdammane" />
		<tag k="natural" v="water" />
		<tag k="ssr:stedsnr" v="3280" />
	</node>
	<node id="-187267" lat="59.7034583363" lon="10.0078416676">
		<tag k="name" v="Vesle Kroktjern" />
		<tag k="natural" v="water" />
		<tag k="ssr:stedsnr" v="3279" />
	</node>
	<node id="-187265" lat="59.7108888887" lon="10.0162527812">
		<tag k="name" v="Storbekken" />
		<tag k="ssr:stedsnr" v="3260" />
		<tag k="waterway" v="stream" />
	</node>
	<node id="-187264" lat="59.718466114" lon="10.06384318">
		<tag k="name" v="Grunntjern" />
		<tag k="natural" v="water" />
		<tag k="ssr:stedsnr" v="3238" />
	</node>
	<node id="-187263" lat="59.6897666646" lon="9.99844166893">
		<tag k="name" v="Lauvtjern" />
		<tag k="place" v="locality" />
		<tag k="ssr:stedsnr" v="3167" />
	</node>
	<node id="-187187" lat="59.821066668" lon="10.0311222163">
		<tag k="name" v="Kalvetjern" />
		<tag k="natural" v="water" />
		<tag k="ssr:stedsnr" v="389510" />
		<tag k="water" v="pond" />
	</node>
	<node id="-187185" lat="59.7711138914" lon="10.0305083303">
		<tag k="name" v="Svarttjernbekken" />
		<tag k="ssr:stedsnr" v="386963" />
		<tag k="waterway" v="stream" />
	</node>
	<node id="-187184" lat="59.7807472238" lon="9.99860000447">
		<tag k="name" v="Sagelva" />
		<tag k="ssr:stedsnr" v="386960" />
		<tag k="waterway" v="stream" />
	</node>
	<node id="-187171" lat="59.7996055598" lon="10.09323056">
		<tag k="name" v="Marivannet" />
		<tag k="natural" v="water" />
		<tag k="ssr:stedsnr" v="368276" />
	</node>
	<node id="-187166" lat="59.7493861142" lon="10.122205556">
		<tag k="alt_name" v="Langøya" />
		<tag k="name" v="Langesøya" />
		<tag k="old_name" v="Langøen" />
		<tag k="place" v="island" />
		<tag k="ssr:stedsnr" v="366367" />
	</node>
	<node id="-187163" lat="59.8164861132" lon="10.0289722156">
		<tag k="name" v="Temtetangen" />
		<tag k="natural" v="cape" />
		<tag k="ssr:stedsnr" v="329488" />
	</node>
	<node id="-187162" lat="59.8234777811" lon="10.0052777742">
		<tag k="name" v="Vesle Øyvann" />
		<tag k="natural" v="water" />
		<tag k="ssr:stedsnr" v="329486" />
	</node>
	<node id="-187159" lat="59.7252305512" lon="10.0575361171">
		<tag k="name" v="Dalevika" />
		<tag k="natural" v="bay" />
		<tag k="ssr:stedsnr" v="326610" />
	</node>
	<node id="-187154" lat="59.8023749996" lon="9.99547777489">
		<tag k="name" v="Horgensetertjern" />
		<tag k="natural" v="water" />
		<tag k="ssr:stedsnr" v="307266" />
	</node>
	<node id="-187153" lat="59.7794277776" lon="10.0133472211">
		<tag k="name" v="Lampetjern" />
		<tag k="natural" v="water" />
		<tag k="ssr:stedsnr" v="307166" />
	</node>
	<node id="-187148" lat="59.6778555576" lon="10.0302444385">
		<tag k="name" v="Nysetertjern" />
		<tag k="natural" v="water" />
		<tag k="ssr:stedsnr" v="306221" />
	</node>
	<node id="-187147" lat="59.6896916641" lon="10.0107305556">
		<tag k="alt_name" v="Esbergtjern" />
		<tag k="name" v="Espertjern" />
		<tag k="place" v="locality" />
		<tag k="ssr:stedsnr" v="306183" />
	</node>
	<node id="-187144" lat="59.6808694445" lon="10.0165805643">
		<tag k="name" v="Kroktjern" />
		<tag k="natural" v="water" />
		<tag k="ssr:stedsnr" v="270154" />
	</node>
	<node id="-187612" lat="59.7553027738" lon="10.0331361097">
		<tag k="alt_name" v="Stensetøya" />
		<tag k="name" v="Steinsetøya" />
		<tag k="place" v="island" />
		<tag k="ssr:stedsnr" v="933998" />
	</node>
	<node id="-187609" lat="59.7683777776" lon="10.0205416731">
		<tag k="name" v="Inntaksdammen" />
		<tag k="natural" v="water" />
		<tag k="ssr:stedsnr" v="933971" />
	</node>
	<node id="-187606" lat="59.7250694425" lon="10.0509916692">
		<tag k="name" v="Kariøya" />
		<tag k="place" v="island" />
		<tag k="ssr:stedsnr" v="933608" />
	</node>
	<node id="-187605" lat="59.7264111107" lon="10.0419249946">
		<tag k="name" v="Vinterstøa" />
		<tag k="natural" v="bay" />
		<tag k="ssr:stedsnr" v="933605" />
	</node>
	<node id="-187596" lat="59.8064222212" lon="10.0765833277">
		<tag k="name" v="Mellomdammen" />
		<tag k="natural" v="water" />
		<tag k="ssr:stedsnr" v="914257" />
	</node>
	<node id="-187595" lat="59.8059499979" lon="10.0143194432">
		<tag k="alt_name" v="Korptjern" />
		<tag k="name" v="Korpetjern" />
		<tag k="natural" v="water" />
		<tag k="ssr:stedsnr" v="914255" />
	</node>
	<node id="-187594" lat="59.8109277803" lon="10.0606388902">
		<tag k="name" v="Furtebekken" />
		<tag k="ssr:stedsnr" v="914235" />
		<tag k="waterway" v="stream" />
	</node>
	<node id="-187591" lat="59.755908333" lon="10.071927783">
		<tag k="alt_name" v="Fallaksøya" />
		<tag k="name" v="Fallagsøya" />
		<tag k="natural" v="cape" />
		<tag k="ssr:stedsnr" v="914066" />
	</node>
	<node id="-187581" lat="59.7550083366" lon="9.98040555287">
		<tag k="name" v="Kilen" />
		<tag k="ssr:stedsnr" v="873780" />
		<tag k="waterway" v="stream" />
	</node>
	<node id="-187578" lat="59.7611944441" lon="10.0841277776">
		<tag k="name" v="Ulverudbekken" />
		<tag k="ssr:stedsnr" v="872877" />
		<tag k="waterway" v="stream" />
	</node>
	<node id="-187574" lat="59.8420083312" lon="10.0785805643">
		<tag k="alt_name" v="Haretjern" />
		<tag k="name" v="Haratjern" />
		<tag k="natural" v="water" />
		<tag k="ssr:stedsnr" v="854273" />
	</node>
	<node id="-187571" lat="59.7818472254" lon="10.0940138808">
		<tag k="alt_name" v="Smiabekken;Smibekken" />
		<tag k="name" v="Smiebekken" />
		<tag k="ssr:stedsnr" v="854143" />
		<tag k="waterway" v="stream" />
	</node>
	<node id="-187566" lat="59.7208250012" lon="10.0104250021">
		<tag k="name" v="Grytjerna" />
		<tag k="natural" v="water" />
		<tag k="ssr:stedsnr" v="853259" />
	</node>
	<node id="-187565" lat="59.7161861124" lon="10.0024583395">
		<tag k="name" v="Aurtjern" />
		<tag k="natural" v="water" />
		<tag k="ssr:stedsnr" v="853256" />
	</node>
	<node id="-187562" lat="59.7955111071" lon="10.0889083312">
		<tag k="name" v="Gravningen" />
		<tag k="natural" v="water" />
		<tag k="ssr:stedsnr" v="853218" />
	</node>
	<node id="-187561" lat="59.7928750012" lon="10.1012777865">
		<tag k="name" v="Stormyrputten" />
		<tag k="natural" v="water" />
		<tag k="ssr:stedsnr" v="853216" />
	</node>
	<node id="-187560" lat="59.8128250017" lon="10.0916500026">
		<tag k="name" v="Vrangen" />
		<tag k="natural" v="water" />
		<tag k="ssr:stedsnr" v="853184" />
		<tag k="water" v="lake" />
	</node>
	<node id="-187549" lat="59.744780559" lon="9.97648055696">
		<tag k="name" v="Skalpebekken" />
		<tag k="ssr:stedsnr" v="812546" />
		<tag k="waterway" v="stream" />
	</node>
	<node id="-187545" lat="59.7277111102" lon="10.058319436">
		<tag k="name" v="Rørvika" />
		<tag k="natural" v="bay" />
		<tag k="ssr:stedsnr" v="811582" />
	</node>
	<node id="-187544" lat="59.7346527765" lon="10.0726000054">
		<tag k="name" v="Svartkulp" />
		<tag k="natural" v="water" />
		<tag k="ssr:stedsnr" v="811579" />
		<tag k="water" v="pond" />
	</node>
	<node id="-187543" lat="59.7603944423" lon="10.1039499964">
		<tag k="name" v="Vinnesbekken" />
		<tag k="ssr:stedsnr" v="811568" />
		<tag k="waterway" v="stream" />
	</node>
	<node id="-187542" lat="59.7794750035" lon="10.0602249995">
		<tag k="name" v="Høymyrbekken" />
		<tag k="ssr:stedsnr" v="811480" />
		<tag k="waterway" v="stream" />
	</node>
	<node id="-187540" lat="59.7695055547" lon="10.0273611069">
		<tag k="name" v="Borgetjern" />
		<tag k="natural" v="water" />
		<tag k="ssr:stedsnr" v="793168" />
	</node>
	<node id="-187538" lat="59.8040000042" lon="10.1019833316">
		<tag k="name" v="Toblebekken" />
		<tag k="ssr:stedsnr" v="792230" />
		<tag k="waterway" v="stream" />
	</node>
	<node id="-187528" lat="59.7576333371" lon="10.0641083394">
		<tag k="name" v="Bukta" />
		<tag k="natural" v="water" />
		<tag k="ssr:stedsnr" v="750858" />
	</node>
	<node id="-187524" lat="59.8324499958" lon="10.0674305523">
		<tag k="alt_name" v="Langvatn" />
		<tag k="name" v="Langvannet" />
		<tag k="natural" v="water" />
		<tag k="ssr:stedsnr" v="733476" />
		<tag k="water" v="lake" />
	</node>
	<node id="-187522" lat="59.8481249993" lon="10.0651250051">
		<tag k="name" v="Briskemyrputten" />
		<tag k="natural" v="water" />
		<tag k="ssr:stedsnr" v="732272" />
	</node>
	<node id="-187518" lat="59.7844888854" lon="9.99520555677">
		<tag k="name" v="Krokstadelva" />
		<tag k="ssr:stedsnr" v="732152" />
		<tag k="waterway" v="stream" />
	</node>
	<node id="-187513" lat="59.7166388899" lon="10.0492999931">
		<tag k="name" v="Bremsetjern" />
		<tag k="natural" v="water" />
		<tag k="ssr:stedsnr" v="731217" />
	</node>
	<node id="-187511" lat="59.7272555545" lon="10.0215333377">
		<tag k="alt_name" v="Svarttjern" />
		<tag k="name" v="Svarttjernet" />
		<tag k="natural" v="water" />
		<tag k="ssr:stedsnr" v="731204" />
	</node>
	<node id="-187509" lat="59.8209388889" lon="10.001419437">
		<tag k="alt_name" v="Øyvann;Øyvatnet" />
		<tag k="name" v="Øyvannet" />
		<tag k="natural" v="water" />
		<tag k="ssr:stedsnr" v="724169" />
		<tag k="water" v="lake" />
	</node>
	<node id="-187507" lat="59.8301388885" lon="10.0733972164">
		<tag k="name" v="Plomasen" />
		<tag k="natural" v="water" />
		<tag k="ssr:stedsnr" v="698515" />
	</node>
	<node id="-187505" lat="59.7997305588" lon="10.031030551">
		<tag k="name" v="Den brente øya" />
		<tag k="place" v="island" />
		<tag k="ssr:stedsnr" v="694719" />
	</node>
	<node id="-187502" lat="59.8135333362" lon="10.0322749916">
		<tag k="name" v="Fleskehiken" />
		<tag k="natural" v="bay" />
		<tag k="ssr:stedsnr" v="693513" />
	</node>
	<node id="-187499" lat="59.7311527775" lon="10.0311111122">
		<tag k="name" v="Mjøndalsbekken" />
		<tag k="ssr:stedsnr" v="691919" />
		<tag k="waterway" v="stream" />
	</node>
	<node id="-187491" lat="59.7745027794" lon="10.0561305514">
		<tag k="name" v="Tjernsøyet" />
		<tag k="natural" v="water" />
		<tag k="ssr:stedsnr" v="690549" />
	</node>
	<node id="-187489" lat="59.8350333353" lon="10.0189750005">
		<tag k="name" v="Vranglebekken" />
		<tag k="ssr:stedsnr" v="671302" />
		<tag k="waterway" v="stream" />
	</node>
	<node id="-187486" lat="59.7288750029" lon="10.0488805616">
		<tag k="name" v="Hagatjern" />
		<tag k="natural" v="water" />
		<tag k="ssr:stedsnr" v="670245" />
		<tag k="water" v="lake" />
	</node>
	<node id="-187485" lat="59.6819333326" lon="10.0094333377">
		<tag k="alt_name" v="Lortholtjern" />
		<tag k="name" v="Lorttjern" />
		<tag k="natural" v="water" />
		<tag k="ssr:stedsnr" v="670229" />
	</node>
	<node id="-187484" lat="59.665555553" lon="10.0099833365">
		<tag k="name" v="Nyseterbekken" />
		<tag k="ssr:stedsnr" v="670219" />
		<tag k="waterway" v="stream" />
	</node>
	<node id="-187483" lat="59.8142916673" lon="10.007333336">
		<tag k="alt_name" v="Grunnvann" />
		<tag k="name" v="Grunntjern" />
		<tag k="natural" v="water" />
		<tag k="ssr:stedsnr" v="671217" />
	</node>
	<node id="-187482" lat="59.8149166689" lon="10.0157694418">
		<tag k="name" v="Dobletjern" />
		<tag k="natural" v="water" />
		<tag k="ssr:stedsnr" v="671216" />
	</node>
	<node id="-187473" lat="59.7280777786" lon="10.0070749953">
		<tag k="name" v="Grytjernbekken" />
		<tag k="ssr:stedsnr" v="630936" />
		<tag k="waterway" v="stream" />
	</node>
	<node id="-187470" lat="59.7475138894" lon="10.0336305526">
		<tag k="name" v="Øra" />
		<tag k="ssr:stedsnr" v="629760" />
		<tag k="waterway" v="stream" />
	</node>
	<node id="-187467" lat="59.7039888906" lon="10.0281277732">
		<tag k="name" v="Leitjernbekken" />
		<tag k="ssr:stedsnr" v="610346" />
		<tag k="waterway" v="stream" />
	</node>
	<node id="-187464" lat="59.7349749966" lon="10.0209000058">
		<tag k="name" v="Åsendammen" />
		<tag k="natural" v="water" />
		<tag k="ssr:stedsnr" v="609358" />
	</node>
	<node id="-187462" lat="59.6756916623" lon="10.0336944531">
		<tag k="alt_name" v="Plassantjern" />
		<tag k="name" v="Plassanetjern" />
		<tag k="natural" v="water" />
		<tag k="ssr:stedsnr" v="609221" />
	</node>
	<node id="-187461" lat="59.6957333359" lon="10.0294805588">
		<tag k="alt_name" v="Leitjerna" />
		<tag k="name" v="Øvre Leitjern" />
		<tag k="natural" v="water" />
		<tag k="ssr:stedsnr" v="609196" />
	</node>
	<node id="-187460" lat="59.6874666642" lon="9.99249444557">
		<tag k="alt_name" v="Ytre Fisketjern" />
		<tag k="name" v="Fisketretjerna" />
		<tag k="natural" v="water" />
		<tag k="ssr:stedsnr" v="609185" />
	</node>
	<node id="-187458" lat="59.6986611153" lon="10.0267027732">
		<tag k="name" v="Nedre Leitjern" />
		<tag k="natural" v="water" />
		<tag k="ssr:stedsnr" v="573139" />
	</node>
	<node id="-187438" lat="59.8395861081" lon="10.0614777737">
		<tag k="name" v="Elgskottjern" />
		<tag k="natural" v="water" />
		<tag k="ssr:stedsnr" v="550285" />
	</node>
	<node id="-187437" lat="59.7717638856" lon="10.04158889">
		<tag k="name" v="Svarttjern" />
		<tag k="natural" v="water" />
		<tag k="ssr:stedsnr" v="550177" />
	</node>
	<node id="-187434" lat="59.7151888902" lon="9.97820554819">
		<tag k="name" v="Dammyrtjern" />
		<tag k="natural" v="water" />
		<tag k="ssr:stedsnr" v="549274" />
	</node>
	<node id="-187429" lat="59.7482083311" lon="10.0407861147">
		<tag k="alt_name" v="Mile" />
		<tag k="name" v="Miletjern" />
		<tag k="natural" v="water" />
		<tag k="ssr:stedsnr" v="548384" />
	</node>
	<node id="-187425" lat="59.8096166696" lon="10.0760333277">
		<tag k="name" v="Kulpen" />
		<tag k="natural" v="water" />
		<tag k="ssr:stedsnr" v="516530" />
	</node>
	<node id="-187421" lat="59.7797333305" lon="10.00196667">
		<tag k="name" v="Lampetjernbekken" />
		<tag k="ssr:stedsnr" v="508971" />
		<tag k="waterway" v="stream" />
	</node>
	<node id="-187418" lat="59.7497416638" lon="10.0036472157">
		<tag k="name" v="Evja" />
		<tag k="ssr:stedsnr" v="508771" />
		<tag k="waterway" v="river" />
	</node>
	<node id="-187416" lat="59.7410583292" lon="10.0788527799">
		<tag k="name" v="Skjellsbekk" />
		<tag k="ssr:stedsnr" v="508618" />
		<tag k="waterway" v="stream" />
	</node>
	<node id="-187413" lat="59.7957083357" lon="10.0436277788">
		<tag k="name" v="Steinarvanna" />
		<tag k="natural" v="water" />
		<tag k="ssr:stedsnr" v="489279" />
		<tag k="water" v="lake" />
	</node>
	<node id="-187412" lat="59.8186111102" lon="10.0155611138">
		<tag k="name" v="Steindammen" />
		<tag k="natural" v="water" />
		<tag k="ssr:stedsnr" v="489248" />
	</node>
	<node id="-187411" lat="59.8237749955" lon="10.0430500067">
		<tag k="name" v="Ormetjern" />
		<tag k="natural" v="water" />
		<tag k="ssr:stedsnr" v="489226" />
	</node>
	<node id="-187409" lat="59.7737861145" lon="9.99613333518">
		<tag k="name" v="Årbogen" />
		<tag k="natural" v="water" />
		<tag k="ssr:stedsnr" v="489193" />
	</node>
	<node id="-187405" lat="59.7250388847" lon="9.97903610626">
		<tag k="name" v="Veia" />
		<tag k="ssr:stedsnr" v="488221" />
		<tag k="waterway" v="stream" />
	</node>
	<node id="-187398" lat="59.7618722256" lon="9.99703333948">
		<tag k="name" v="Krokstadbekken" />
		<tag k="ssr:stedsnr" v="449984" />
		<tag k="waterway" v="stream" />
	</node>
	<node id="-187396" lat="59.7632388927" lon="10.0173750043">
		<tag k="name" v="Møllenhofbekken" />
		<tag k="ssr:stedsnr" v="448989" />
		<tag k="waterway" v="stream" />
	</node>
</osm>
