<?xml version="1.0" encoding="UTF-8"?>
<osm generator="osmapis" version="0.6">
	<node id="-187842" lat="59.7466305536" lon="10.0380833277">
		<tag k="bridge" v="yes" />
		<tag k="layer" v="1" />
		<tag k="name" v="Miletjern" />
		<tag k="ssr:stedsnr" v="957932" />
	</node>
	<node id="-187841" lat="59.7913111142" lon="9.99805833302">
		<tag k="name" v="Spærmyr" />
		<tag k="natural" v="wetland" />
		<tag k="ssr:stedsnr" v="937777" />
	</node>
	<node id="-187840" lat="59.8301888883" lon="10.0263138851">
		<tag k="name" v="Lysakerstua" />
		<tag k="place" v="isolated_dwelling" />
		<tag k="ssr:stedsnr" v="936517" />
	</node>
	<node id="-187839" lat="59.7552972243" lon="10.0125305495">
		<tag k="building" v="industrial" />
		<tag k="industrial" v="factory" />
		<tag k="name" v="Viking Mjøndalen" />
		<tag k="ssr:stedsnr" v="934994" />
	</node>
	<node id="-187838" lat="59.742336107" lon="10.007272216">
		<tag k="name" v="Søndre Viken" />
		<tag k="place" v="farm" />
		<tag k="ssr:stedsnr" v="934939" />
	</node>
	<node id="-187837" lat="59.7553027738" lon="10.0331361097">
		<tag k="alt_name" v="Stensetøya" />
		<tag k="name" v="Steinsetøya" />
		<tag k="place" v="island" />
		<tag k="ssr:stedsnr" v="933998" />
	</node>
	<node id="-187836" lat="59.7732555563" lon="10.0179750074">
		<tag k="name" v="Bjørnemyr" />
		<tag k="natural" v="wetland" />
		<tag k="ssr:stedsnr" v="933977" />
	</node>
	<node id="-187835" lat="59.7697166687" lon="10.0143166699">
		<tag k="name" v="Oremyr" />
		<tag k="natural" v="wetland" />
		<tag k="ssr:stedsnr" v="933974" />
	</node>
	<node id="-187834" lat="59.7683777776" lon="10.0205416731">
		<tag k="name" v="Inntaksdammen" />
		<tag k="natural" v="water" />
		<tag k="ssr:stedsnr" v="933971" />
	</node>
	<node id="-187833" lat="59.7515059118" lon="10.0694099625">
		<tag k="fixme" v="consider place=hamlet" />
		<tag k="name" v="Nordenga" />
		<tag k="place" v="farm" />
		<tag k="ssr:stedsnr" v="933949" />
	</node>
	<node id="-187832" lat="59.747766669" lon="9.9944777867">
		<tag k="name" v="Kjøya" />
		<tag k="place" v="quarter" />
		<tag k="ssr:stedsnr" v="933785" />
	</node>
	<node id="-187831" lat="59.7250694425" lon="10.0509916692">
		<tag k="name" v="Kariøya" />
		<tag k="place" v="island" />
		<tag k="ssr:stedsnr" v="933608" />
	</node>
	<node id="-187830" lat="59.7264111107" lon="10.0419249946">
		<tag k="name" v="Vinterstøa" />
		<tag k="natural" v="bay" />
		<tag k="ssr:stedsnr" v="933605" />
	</node>
	<node id="-187829" lat="59.7288527781" lon="10.0730777771">
		<tag k="name" v="Glettaberget" />
		<tag k="natural" v="hill" />
		<tag k="place" v="locality" />
		<tag k="ssr:stedsnr" v="933602" />
	</node>
	<node id="-187828" lat="59.7261055514" lon="10.0771805532">
		<tag k="fixme" v="consider natural=peak for the most distinct mountains in the district" />
		<tag k="name" v="Helgerudåsen" />
		<tag k="natural" v="hill" />
		<tag k="place" v="locality" />
		<tag k="ssr:stedsnr" v="933601" />
	</node>
	<node id="-187827" lat="59.7554583298" lon="9.96203333168">
		<tag k="name" v="Smaljordet" />
		<tag k="place" v="farm" />
		<tag k="ssr:stedsnr" v="933557" />
	</node>
	<node id="-187826" lat="59.784622226" lon="10.082658333">
		<tag k="name" v="Gravningsjota" />
		<tag k="natural" v="slope" />
		<tag k="place" v="locality" />
		<tag k="ssr:stedsnr" v="933540" />
	</node>
	<node id="-187825" lat="59.7672249997" lon="10.0778305565">
		<tag k="name" v="Solberg Spinderi" />
		<tag k="place" v="quarter" />
		<tag k="ssr:stedsnr" v="933541" />
	</node>
	<node id="-187824" lat="59.7731888901" lon="10.0593527704">
		<tag k="fixme" v="consider natural=peak for the most distinct mountains in the district" />
		<tag k="name" v="Knabben" />
		<tag k="natural" v="hill" />
		<tag k="place" v="locality" />
		<tag k="ssr:stedsnr" v="933537" />
	</node>
	<node id="-187823" lat="59.79718333" lon="10.0202194406">
		<tag k="fixme" v="consider natural=peak for the most distinct mountains in the district" />
		<tag k="name" v="Seteråsen" />
		<tag k="natural" v="hill" />
		<tag k="place" v="locality" />
		<tag k="ssr:stedsnr" v="915499" />
	</node>
	<node id="-187822" lat="59.6993055601" lon="10.0294638813">
		<tag k="name" v="Fjellfritt" />
		<tag k="place" v="isolated_dwelling" />
		<tag k="ssr:stedsnr" v="914306" />
	</node>
	<node id="-187821" lat="59.8064222212" lon="10.0765833277">
		<tag k="name" v="Mellomdammen" />
		<tag k="natural" v="water" />
		<tag k="ssr:stedsnr" v="914257" />
		<tag k="water" v="lake" />
	</node>
	<node id="-187820" lat="59.8059499979" lon="10.0143194432">
		<tag k="alt_name" v="Korptjern" />
		<tag k="name" v="Korpetjern" />
		<tag k="natural" v="water" />
		<tag k="ssr:stedsnr" v="914255" />
	</node>
	<node id="-187819" lat="59.8109277803" lon="10.0606388902">
		<tag k="name" v="Furtebekken" />
		<tag k="ssr:stedsnr" v="914235" />
		<tag k="waterway" v="stream" />
	</node>
	<node id="-187818" lat="59.8255500011" lon="10.08735833">
		<tag k="historic" v="shieling" />
		<tag k="name" v="Svarthamnsetra" />
		<tag k="place" v="locality" />
		<tag k="ssr:stedsnr" v="914214" />
	</node>
	<node id="-187817" lat="59.8188027793" lon="10.0303138891">
		<tag k="alt_name" v="Lysåkersætra" />
		<tag k="fixme" v="multiple name tags, choose one and add the other to alt_name" />
		<tag k="historic" v="shieling" />
		<tag k="name" v="Lysakervollen;Lysåkersetra" />
		<tag k="place" v="locality" />
		<tag k="ssr:stedsnr" v="914206" />
	</node>
	<node id="-187816" lat="59.7558766038" lon="10.0719037525">
		<tag k="alt_name" v="Fallaksøya" />
		<tag k="name" v="Fallagsøya" />
		<tag k="natural" v="cape" />
		<tag k="ssr:stedsnr" v="914066" />
	</node>
	<node id="-187815" lat="59.738352781" lon="10.0991333377">
		<tag k="landuse" v="winter_sports" />
		<tag k="name" v="Ytterkolløypa" />
		<tag k="piste:type" v="downhill" />
		<tag k="ssr:stedsnr" v="913363" />
	</node>
	<node id="-187814" lat="59.71566111" lon="9.99375000285">
		<tag k="name" v="Korsgårdsetra" />
		<tag k="place" v="isolated_dwelling" />
		<tag k="ssr:stedsnr" v="913256" />
	</node>
	<node id="-187813" lat="59.6904249992" lon="10.0243916739">
		<tag k="name" v="Kloppmyra" />
		<tag k="natural" v="wetland" />
		<tag k="ssr:stedsnr" v="913179" />
	</node>
	<node id="-187812" lat="59.6963888858" lon="9.99703888739">
		<tag k="name" v="Vintermyrene" />
		<tag k="natural" v="wetland" />
		<tag k="ssr:stedsnr" v="877145" />
	</node>
	<node id="-187811" lat="59.794211109" lon="10.0330305492">
		<tag k="name" v="Vadalen" />
		<tag k="natural" v="valley" />
		<tag k="place" v="locality" />
		<tag k="ssr:stedsnr" v="876754" />
	</node>
	<node id="-187810" lat="59.7965805526" lon="10.0244861163">
		<tag k="name" v="Solbergvannsmyra" />
		<tag k="natural" v="wetland" />
		<tag k="ssr:stedsnr" v="876753" />
	</node>
	<node id="-187809" lat="59.8192916643" lon="10.0063999928">
		<tag k="name" v="Øyvannsbrenna" />
		<tag k="natural" v="ridge" />
		<tag k="place" v="locality" />
		<tag k="ssr:stedsnr" v="875488" />
	</node>
	<node id="-187808" lat="59.7312833365" lon="9.98139444811">
		<tag k="name" v="Åseplassen" />
		<tag k="place" v="farm" />
		<tag k="ssr:stedsnr" v="873988" />
	</node>
	<node id="-187807" lat="59.7435597234" lon="10.0286157021">
		<tag k="alt_name" v="Mjøndalen gård" />
		<tag k="fixme" v="consider place=hamlet" />
		<tag k="name" v="Mjøndalen" />
		<tag k="place" v="farm" />
		<tag k="ssr:stedsnr" v="873971" />
	</node>
	<node id="-187806" lat="59.7550083366" lon="9.98040555287">
		<tag k="name" v="Kilen" />
		<tag k="ssr:stedsnr" v="873780" />
		<tag k="waterway" v="stream" />
	</node>
	<node id="-187805" lat="59.7743638883" lon="9.98705556261">
		<tag k="name" v="Steinsbrøtt" />
		<tag k="natural" v="slope" />
		<tag k="place" v="locality" />
		<tag k="ssr:stedsnr" v="872929" />
	</node>
	<node id="-187804" lat="59.7476583368" lon="10.0796138864">
		<tag k="name" v="Daler" />
		<tag k="place" v="farm" />
		<tag k="ssr:stedsnr" v="872924" />
	</node>
	<node id="-187803" lat="59.7611944441" lon="10.0841277776">
		<tag k="name" v="Ulverudbekken" />
		<tag k="ssr:stedsnr" v="872877" />
		<tag k="waterway" v="stream" />
	</node>
	<node id="-187802" lat="59.7323777787" lon="10.0873805532">
		<tag k="name" v="Langemyr" />
		<tag k="natural" v="wetland" />
		<tag k="ssr:stedsnr" v="872620" />
	</node>
	<node id="-187801" lat="59.7236222199" lon="10.0729499997">
		<tag k="name" v="Helgerud" />
		<tag k="place" v="isolated_dwelling" />
		<tag k="ssr:stedsnr" v="872597" />
	</node>
	<node id="-187800" lat="59.7769916641" lon="10.0383638836">
		<tag k="name" v="Vadalen" />
		<tag k="natural" v="valley" />
		<tag k="place" v="locality" />
		<tag k="ssr:stedsnr" v="872529" />
	</node>
	<node id="-187799" lat="59.8420083312" lon="10.0785805643">
		<tag k="alt_name" v="Haretjern" />
		<tag k="name" v="Haratjern" />
		<tag k="natural" v="water" />
		<tag k="ssr:stedsnr" v="854273" />
	</node>
	<node id="-187798" lat="59.838038891" lon="10.0822583252">
		<tag k="fixme" v="consider natural=peak for the most distinct mountains in the district" />
		<tag k="name" v="Trettekollen" />
		<tag k="natural" v="hill" />
		<tag k="place" v="locality" />
		<tag k="ssr:stedsnr" v="854269" />
	</node>
	<node id="-187797" lat="59.775975002" lon="10.0780750063">
		<tag k="alt_name" v="Huldreheim" />
		<tag k="name" v="Ulverudplassen" />
		<tag k="place" v="isolated_dwelling" />
		<tag k="ssr:stedsnr" v="854142" />
	</node>
	<node id="-187796" lat="59.7818472254" lon="10.0940138808">
		<tag k="alt_name" v="Smiabekken;Smibekken" />
		<tag k="name" v="Smiebekken" />
		<tag k="ssr:stedsnr" v="854143" />
		<tag k="waterway" v="stream" />
	</node>
	<node id="-187795" lat="59.7375238672" lon="9.97599410852">
		<tag k="alt_name" v="Kårvoll" />
		<tag k="name" v="Korvald" />
		<tag k="place" v="hamlet" />
		<tag k="ssr:stedsnr" v="853360" />
	</node>
	<node id="-187794" lat="59.7363749985" lon="9.99399166842">
		<tag k="alt_name" v="Pålsåsen" />
		<tag k="name" v="Åsen" />
		<tag k="place" v="farm" />
		<tag k="ssr:stedsnr" v="853358" />
	</node>
	<node id="-187793" lat="59.7106750025" lon="10.0345222296">
		<tag k="name" v="Kikkut" />
		<tag k="place" v="isolated_dwelling" />
		<tag k="ssr:stedsnr" v="853295" />
	</node>
	<node id="-187792" lat="59.6955527796" lon="10.0075861131">
		<tag k="name" v="Vestknabben" />
		<tag k="natural" v="hill" />
		<tag k="place" v="locality" />
		<tag k="ssr:stedsnr" v="853286" />
	</node>
	<node id="-187791" lat="59.7208250012" lon="10.0104250021">
		<tag k="name" v="Grytjerna" />
		<tag k="natural" v="water" />
		<tag k="ssr:stedsnr" v="853259" />
	</node>
	<node id="-187790" lat="59.7160821802" lon="10.0024163511">
		<tag k="name" v="Aurtjern" />
		<tag k="natural" v="water" />
		<tag k="ssr:stedsnr" v="853256" />
	</node>
	<node id="-187789" lat="59.7127055535" lon="10.0320388841">
		<tag k="name" v="Hellesetra" />
		<tag k="place" v="isolated_dwelling" />
		<tag k="ssr:stedsnr" v="853251" />
	</node>
	<node id="-187788" lat="59.724836115" lon="9.99283056206">
		<tag k="alt_name" v="Hanseseter" />
		<tag k="name" v="Hansaseter" />
		<tag k="place" v="isolated_dwelling" />
		<tag k="ssr:stedsnr" v="853232" />
	</node>
	<node id="-187787" lat="59.7955111071" lon="10.0889083312">
		<tag k="name" v="Gravningen" />
		<tag k="natural" v="water" />
		<tag k="ssr:stedsnr" v="853218" />
	</node>
	<node id="-187786" lat="59.7928750012" lon="10.1012777865">
		<tag k="name" v="Stormyrputten" />
		<tag k="natural" v="water" />
		<tag k="ssr:stedsnr" v="853216" />
	</node>
	<node id="-187785" lat="59.8128250017" lon="10.0916500026">
		<tag k="name" v="Vrangen" />
		<tag k="natural" v="water" />
		<tag k="ssr:stedsnr" v="853184" />
		<tag k="water" v="lake" />
	</node>
	<node id="-187784" lat="59.7574777752" lon="10.0826833408">
		<tag k="name" v="Killingrud" />
		<tag k="place" v="farm" />
		<tag k="ssr:stedsnr" v="853149" />
	</node>
	<node id="-187783" lat="59.7525854363" lon="9.99122905164">
		<tag k="fixme" v="consider place=hamlet" />
		<tag k="name" v="Skramnes" />
		<tag k="place" v="farm" />
		<tag k="ssr:stedsnr" v="853056" />
	</node>
	<node id="-187782" lat="59.74706111" lon="10.0001277715">
		<tag k="name" v="Krok" />
		<tag k="place" v="farm" />
		<tag k="ssr:stedsnr" v="852353" />
	</node>
	<node id="-187781" lat="59.7518111105" lon="10.0311611091">
		<tag k="bridge" v="yes" />
		<tag k="layer" v="1" />
		<tag k="name" v="Os" />
		<tag k="ssr:stedsnr" v="835954" />
	</node>
	<node id="-187780" lat="59.6725166658" lon="10.0126027807">
		<tag k="name" v="Kittilsbu" />
		<tag k="place" v="isolated_dwelling" />
		<tag k="ssr:stedsnr" v="816256" />
	</node>
	<node id="-187779" lat="59.7892722184" lon="10.0309777732">
		<tag k="fixme" v="consider natural=peak for the most distinct mountains in the district" />
		<tag k="name" v="Kollevollåsene" />
		<tag k="natural" v="hill" />
		<tag k="place" v="locality" />
		<tag k="ssr:stedsnr" v="815724" />
	</node>
	<node id="-187778" lat="59.7968916701" lon="10.0306083269">
		<tag k="name" v="Vesleura" />
		<tag k="natural" v="scree" />
		<tag k="ssr:stedsnr" v="815720" />
	</node>
	<node id="-187777" lat="59.8201027752" lon="10.0217833358">
		<tag k="name" v="Kølabonn" />
		<tag k="natural" v="valley" />
		<tag k="place" v="locality" />
		<tag k="ssr:stedsnr" v="814518" />
	</node>
	<node id="-187776" lat="59.7367916645" lon="10.0120499949">
		<tag k="name" v="Lodden-Åsen" />
		<tag k="place" v="farm" />
		<tag k="ssr:stedsnr" v="813919" />
	</node>
	<node id="-187775" lat="59.7750388887" lon="9.9758750077">
		<tag k="name" v="Langemyr" />
		<tag k="natural" v="wetland" />
		<tag k="ssr:stedsnr" v="812738" />
	</node>
	<node id="-187774" lat="59.744780559" lon="9.97648055696">
		<tag k="name" v="Skalpebekken" />
		<tag k="ssr:stedsnr" v="812546" />
		<tag k="waterway" v="stream" />
	</node>
	<node id="-187773" lat="59.7821250008" lon="10.0286472268">
		<tag k="name" v="Sleppinga" />
		<tag k="natural" v="slope" />
		<tag k="place" v="locality" />
		<tag k="ssr:stedsnr" v="811911" />
	</node>
	<node id="-187772" lat="59.7774638876" lon="10.0179277726">
		<tag k="name" v="Migen" />
		<tag k="natural" v="slope" />
		<tag k="place" v="locality" />
		<tag k="ssr:stedsnr" v="811900" />
	</node>
	<node id="-187771" lat="59.7703944414" lon="10.0051416755">
		<tag k="name" v="Steinkleiv" />
		<tag k="natural" v="slope" />
		<tag k="place" v="locality" />
		<tag k="ssr:stedsnr" v="811898" />
	</node>
	<node id="-187770" lat="59.7277111102" lon="10.058319436">
		<tag k="name" v="Rørvika" />
		<tag k="natural" v="bay" />
		<tag k="ssr:stedsnr" v="811582" />
	</node>
	<node id="-187769" lat="59.7346527765" lon="10.0726000054">
		<tag k="name" v="Svartkulp" />
		<tag k="natural" v="water" />
		<tag k="ssr:stedsnr" v="811579" />
		<tag k="water" v="pond" />
	</node>
	<node id="-187768" lat="59.7603944423" lon="10.1039499964">
		<tag k="name" v="Vinnesbekken" />
		<tag k="ssr:stedsnr" v="811568" />
		<tag k="waterway" v="stream" />
	</node>
	<node id="-187767" lat="59.7794750035" lon="10.0602249995">
		<tag k="name" v="Høymyrbekken" />
		<tag k="ssr:stedsnr" v="811480" />
		<tag k="waterway" v="stream" />
	</node>
	<node id="-187766" lat="59.773625" lon="10.0353249925">
		<tag k="fixme" v="consider natural=peak for the most distinct mountains in the district" />
		<tag k="name" v="Svarttjernåsen" />
		<tag k="natural" v="hill" />
		<tag k="place" v="locality" />
		<tag k="ssr:stedsnr" v="811474" />
	</node>
	<node id="-187765" lat="59.7695055547" lon="10.0273611069">
		<tag k="name" v="Borgetjern" />
		<tag k="natural" v="water" />
		<tag k="ssr:stedsnr" v="793168" />
	</node>
	<node id="-187764" lat="59.7303166705" lon="10.0365305611">
		<tag k="name" v="Dammen" />
		<tag k="place" v="farm" />
		<tag k="ssr:stedsnr" v="792352" />
	</node>
	<node id="-187763" lat="59.8040000042" lon="10.1019833316">
		<tag k="name" v="Toblebekken" />
		<tag k="ssr:stedsnr" v="792230" />
		<tag k="waterway" v="stream" />
	</node>
	<node id="-187762" lat="59.7566092926" lon="10.0382658436">
		<tag k="alt_name" v="Nedre Eiker" />
		<tag k="amenity" v="place_of_worship" />
		<tag k="denomination" v="lutheran" />
		<tag k="name" v="Nedre Eiker kirke" />
		<tag k="religion" v="christian" />
		<tag k="ssr:stedsnr" v="792180" />
	</node>
	<node id="-187761" lat="59.668224997" lon="9.99932777764">
		<tag k="name" v="Edvardstua" />
		<tag k="place" v="isolated_dwelling" />
		<tag k="ssr:stedsnr" v="792141" />
	</node>
	<node id="-187760" lat="59.7492413462" lon="9.99535089413">
		<tag k="fixme" v="consider place=hamlet" />
		<tag k="name" v="Krok" />
		<tag k="place" v="farm" />
		<tag k="ssr:stedsnr" v="792072" />
	</node>
	<node id="-187759" lat="59.7553805189" lon="10.0045238368">
		<tag k="name" v="Sand" />
		<tag k="place" v="farm" />
		<tag k="ssr:stedsnr" v="792071" />
	</node>
	<node id="-187758" lat="59.695725003" lon="10.0604055578">
		<tag k="name" v="Katthusdalen" />
		<tag k="natural" v="valley" />
		<tag k="place" v="locality" />
		<tag k="ssr:stedsnr" v="791199" />
	</node>
	<node id="-187757" lat="59.7624833346" lon="10.0293249973">
		<tag k="name" v="Plassen" />
		<tag k="place" v="farm" />
		<tag k="ssr:stedsnr" v="751998" />
	</node>
	<node id="-187756" lat="59.7479166681" lon="9.99875833953">
		<tag k="amenity" v="school" />
		<tag k="name" v="Veiavangen skole" />
		<tag k="ssr:stedsnr" v="751793" />
	</node>
	<node id="-187755" lat="59.770275001" lon="10.0200249953">
		<tag k="highway" v="path" />
		<tag k="name" v="Vrierne" />
		<tag k="ssr:stedsnr" v="750960" />
	</node>
	<node id="-187754" lat="59.7657888858" lon="10.0063861179">
		<tag k="name" v="Gosen" />
		<tag k="place" v="farm" />
		<tag k="ssr:stedsnr" v="750903" />
	</node>
	<node id="-187753" lat="59.7576333371" lon="10.0641083394">
		<tag k="name" v="Bukta" />
		<tag k="natural" v="water" />
		<tag k="ssr:stedsnr" v="750858" />
	</node>
	<node id="-187752" lat="59.7430083324" lon="10.0418111142">
		<tag k="name" v="Franseplassen" />
		<tag k="place" v="farm" />
		<tag k="ssr:stedsnr" v="750556" />
	</node>
	<node id="-187751" lat="59.7773472205" lon="10.0868388873">
		<tag k="fixme" v="consider natural=peak for the most distinct mountains in the district" />
		<tag k="name" v="Tjurueldsåsen" />
		<tag k="natural" v="hill" />
		<tag k="place" v="locality" />
		<tag k="ssr:stedsnr" v="750481" />
	</node>
	<node id="-187750" lat="59.7779944419" lon="10.0771499994">
		<tag k="name" v="Nedre Isberget" />
		<tag k="natural" v="slope" />
		<tag k="place" v="locality" />
		<tag k="ssr:stedsnr" v="750478" />
	</node>
	<node id="-187749" lat="59.83099643" lon="10.0668426272">
		<tag k="alt_name" v="Langvatn" />
		<tag k="name" v="Langvannet" />
		<tag k="natural" v="water" />
		<tag k="ssr:stedsnr" v="733476" />
		<tag k="water" v="lake" />
	</node>
	<node id="-187748" lat="59.760055557" lon="9.95495278305">
		<tag k="name" v="Steinberg" />
		<tag k="place" v="village" />
		<tag k="ssr:stedsnr" v="732609" />
	</node>
	<node id="-187747" lat="59.8481249993" lon="10.0651250051">
		<tag k="name" v="Briskemyrputten" />
		<tag k="natural" v="water" />
		<tag k="ssr:stedsnr" v="732272" />
	</node>
	<node id="-187746" lat="59.804538887" lon="10.0983472223">
		<tag k="name" v="Ragnhildstøl" />
		<tag k="place" v="isolated_dwelling" />
		<tag k="ssr:stedsnr" v="732253" />
	</node>
	<node id="-187745" lat="59.8306444483" lon="10.0110611059">
		<tag k="fixme" v="consider natural=peak for the most distinct mountains in the district" />
		<tag k="name" v="Kattåsen" />
		<tag k="natural" v="hill" />
		<tag k="place" v="locality" />
		<tag k="ssr:stedsnr" v="732210" />
	</node>
	<node id="-187744" lat="59.7606867764" lon="10.0118765385">
		<tag k="name" v="Eknes" />
		<tag k="place" v="hamlet" />
		<tag k="ssr:stedsnr" v="732201" />
	</node>
	<node id="-187743" lat="59.7844888854" lon="9.99520555677">
		<tag k="name" v="Krokstadelva" />
		<tag k="ssr:stedsnr" v="732152" />
		<tag k="waterway" v="stream" />
	</node>
	<node id="-187742" lat="59.7639668941" lon="10.0839589562">
		<tag k="fixme" v="consider place=hamlet" />
		<tag k="name" v="Ulverud" />
		<tag k="place" v="farm" />
		<tag k="ssr:stedsnr" v="732085" />
	</node>
	<node id="-187741" lat="59.733099998" lon="10.0460083318">
		<tag k="name" v="Ryggsetra" />
		<tag k="place" v="farm" />
		<tag k="ssr:stedsnr" v="731326" />
	</node>
	<node id="-187740" lat="59.7373361138" lon="10.0696750053">
		<tag k="fixme" v="consider natural=peak for the most distinct mountains in the district" />
		<tag k="name" v="Daleråsen" />
		<tag k="natural" v="hill" />
		<tag k="place" v="locality" />
		<tag k="ssr:stedsnr" v="731324" />
	</node>
	<node id="-187739" lat="59.7073749986" lon="10.0494888857">
		<tag k="fixme" v="consider natural=peak for the most distinct mountains in the district" />
		<tag k="name" v="Steinbakkåsen" />
		<tag k="natural" v="hill" />
		<tag k="place" v="locality" />
		<tag k="ssr:stedsnr" v="731258" />
	</node>
	<node id="-187738" lat="59.7166388899" lon="10.0492999931">
		<tag k="name" v="Bremsetjern" />
		<tag k="natural" v="water" />
		<tag k="ssr:stedsnr" v="731217" />
	</node>
	<node id="-187737" lat="59.7206277814" lon="10.0500999993">
		<tag k="name" v="Viksetra" />
		<tag k="place" v="farm" />
		<tag k="ssr:stedsnr" v="731214" />
	</node>
	<node id="-187736" lat="59.7272555545" lon="10.0215333377">
		<tag k="alt_name" v="Svarttjern" />
		<tag k="name" v="Svarttjernet" />
		<tag k="natural" v="water" />
		<tag k="ssr:stedsnr" v="731204" />
	</node>
	<node id="-187735" lat="59.6899611099" lon="10.0373611196">
		<tag k="name" v="Løkmyra" />
		<tag k="natural" v="wetland" />
		<tag k="ssr:stedsnr" v="731151" />
	</node>
	<node id="-187734" lat="59.8229317871" lon="9.99330935574">
		<tag k="alt_name" v="Øyvann;Øyvatnet" />
		<tag k="name" v="Øyvannet" />
		<tag k="natural" v="water" />
		<tag k="ssr:stedsnr" v="724169" />
		<tag k="water" v="lake" />
	</node>
	<node id="-187733" lat="59.7515472238" lon="10.0282222192">
		<tag k="bridge" v="yes" />
		<tag k="layer" v="1" />
		<tag k="name" v="Mjøndalslokket bru" />
		<tag k="ssr:stedsnr" v="714944" />
	</node>
	<node id="-187732" lat="59.8301388885" lon="10.0733972164">
		<tag k="name" v="Plomasen" />
		<tag k="natural" v="water" />
		<tag k="ssr:stedsnr" v="698515" />
	</node>
	<node id="-187731" lat="59.678702777" lon="10.0194833329">
		<tag k="fixme" v="consider natural=peak for the most distinct mountains in the district" />
		<tag k="name" v="Nyseteråsen" />
		<tag k="natural" v="hill" />
		<tag k="place" v="locality" />
		<tag k="ssr:stedsnr" v="695248" />
	</node>
	<node id="-187730" lat="59.7997305588" lon="10.031030551">
		<tag k="name" v="Den brente øya" />
		<tag k="place" v="island" />
		<tag k="ssr:stedsnr" v="694719" />
	</node>
	<node id="-187729" lat="59.8045194473" lon="9.99392500823">
		<tag k="name" v="Horgenseter" />
		<tag k="place" v="isolated_dwelling" />
		<tag k="ssr:stedsnr" v="694711" />
	</node>
	<node id="-187728" lat="59.8006055576" lon="10.0002277779">
		<tag k="fixme" v="consider natural=peak for the most distinct mountains in the district" />
		<tag k="name" v="Horgenseteråsen" />
		<tag k="natural" v="hill" />
		<tag k="place" v="locality" />
		<tag k="ssr:stedsnr" v="694709" />
	</node>
	<node id="-187727" lat="59.8135333362" lon="10.0322749916">
		<tag k="name" v="Fleskehiken" />
		<tag k="natural" v="bay" />
		<tag k="ssr:stedsnr" v="693513" />
	</node>
	<node id="-187726" lat="59.7641888902" lon="10.0069055592">
		<tag k="name" v="Gosen" />
		<tag k="place" v="farm" />
		<tag k="ssr:stedsnr" v="691980" />
	</node>
	<node id="-187725" lat="59.7395805583" lon="10.0032222249">
		<tag k="leisure" v="pitch" />
		<tag k="name" v="Vikkollen" />
		<tag k="ssr:stedsnr" v="691945" />
	</node>
	<node id="-187724" lat="59.7311527775" lon="10.0311111122">
		<tag k="name" v="Mjøndalsbekken" />
		<tag k="ssr:stedsnr" v="691919" />
		<tag k="waterway" v="stream" />
	</node>
	<node id="-187723" lat="59.7844277795" lon="10.00503334">
		<tag k="name" v="Rypemyr" />
		<tag k="natural" v="wetland" />
		<tag k="ssr:stedsnr" v="690957" />
	</node>
	<node id="-187722" lat="59.7496861088" lon="10.0475361068">
		<tag k="alt_name" v="Rygg nedre" />
		<tag k="name" v="Nedre Rygg" />
		<tag k="place" v="farm" />
		<tag k="ssr:stedsnr" v="690920" />
	</node>
	<node id="-187721" lat="59.7523527765" lon="10.0418500078">
		<tag k="alt_name" v="Rygg mellem" />
		<tag k="name" v="Mellom-Rygg" />
		<tag k="place" v="farm" />
		<tag k="ssr:stedsnr" v="690919" />
	</node>
	<node id="-187720" lat="59.7617333364" lon="10.088513884">
		<tag k="name" v="Vøllo" />
		<tag k="place" v="farm" />
		<tag k="ssr:stedsnr" v="690891" />
	</node>
	<node id="-187719" lat="59.7777222202" lon="10.0928861038">
		<tag k="name" v="Ulverudbakk" />
		<tag k="natural" v="slope" />
		<tag k="place" v="locality" />
		<tag k="ssr:stedsnr" v="690767" />
	</node>
	<node id="-187718" lat="59.7663416688" lon="10.0899777845">
		<tag k="name" v="Bjørkelund" />
		<tag k="place" v="farm" />
		<tag k="ssr:stedsnr" v="690557" />
	</node>
	<node id="-187717" lat="59.7828611095" lon="10.0877500062">
		<tag k="name" v="Midtskogen" />
		<tag k="natural" v="slope" />
		<tag k="place" v="locality" />
		<tag k="ssr:stedsnr" v="690553" />
	</node>
	<node id="-187716" lat="59.7745027794" lon="10.0561305514">
		<tag k="name" v="Tjernsøyet" />
		<tag k="natural" v="water" />
		<tag k="ssr:stedsnr" v="690549" />
	</node>
	<node id="-187715" lat="59.7526583326" lon="9.97213611387">
		<tag k="name" v="Nedberg" />
		<tag k="place" v="farm" />
		<tag k="ssr:stedsnr" v="690547" />
	</node>
	<node id="-187714" lat="59.8350333353" lon="10.0189750005">
		<tag k="name" v="Vranglebekken" />
		<tag k="ssr:stedsnr" v="671302" />
		<tag k="waterway" v="stream" />
	</node>
	<node id="-187713" lat="59.7567334154" lon="10.0314614304">
		<tag k="name" v="Steinset" />
		<tag k="place" v="quarter" />
		<tag k="ssr:stedsnr" v="671178" />
	</node>
	<node id="-187712" lat="59.7524851484" lon="9.97523203679">
		<tag k="alt_name" v="Neberg" />
		<tag k="name" v="Nedberg" />
		<tag k="place" v="hamlet" />
		<tag k="ssr:stedsnr" v="671074" />
	</node>
	<node id="-187711" lat="59.7288750029" lon="10.0488805616">
		<tag k="name" v="Hagatjern" />
		<tag k="natural" v="water" />
		<tag k="ssr:stedsnr" v="670245" />
		<tag k="water" v="lake" />
	</node>
	<node id="-187710" lat="59.6819333326" lon="10.0094333377">
		<tag k="alt_name" v="Lortholtjern" />
		<tag k="name" v="Lorttjern" />
		<tag k="natural" v="water" />
		<tag k="ssr:stedsnr" v="670229" />
	</node>
	<node id="-187709" lat="59.665555553" lon="10.0099833365">
		<tag k="name" v="Nyseterbekken" />
		<tag k="ssr:stedsnr" v="670219" />
		<tag k="waterway" v="stream" />
	</node>
	<node id="-187708" lat="59.8142916673" lon="10.007333336">
		<tag k="alt_name" v="Grunnvann" />
		<tag k="name" v="Grunntjern" />
		<tag k="natural" v="water" />
		<tag k="ssr:stedsnr" v="671217" />
	</node>
	<node id="-187707" lat="59.8149166689" lon="10.0157694418">
		<tag k="name" v="Dobletjern" />
		<tag k="natural" v="water" />
		<tag k="ssr:stedsnr" v="671216" />
	</node>
	<node id="-187706" lat="59.7442777799" lon="10.0273083385">
		<tag k="bridge" v="yes" />
		<tag k="layer" v="1" />
		<tag k="name" v="Mile" />
		<tag k="ssr:stedsnr" v="653936" />
	</node>
	<node id="-187705" lat="59.7546916631" lon="10.0108333309">
		<tag k="bridge" v="yes" />
		<tag k="layer" v="1" />
		<tag k="name" v="Eknes" />
		<tag k="ssr:stedsnr" v="653893" />
	</node>
	<node id="-187704" lat="59.7107194423" lon="10.0801722174">
		<tag k="landuse" v="quarry" />
		<tag k="name" v="Nikkerudgruvene" />
		<tag k="ssr:stedsnr" v="646348" />
	</node>
	<node id="-187703" lat="59.7631557211" lon="10.078531871">
		<tag k="alt_name" v="Solberg" />
		<tag k="amenity" v="place_of_worship" />
		<tag k="fixme" v="multiple name tags, choose one and add the other to alt_name; specify religion=*, denomination=*, building=* etc" />
		<tag k="name" v="Fredtun;Solberg kapell" />
		<tag k="ssr:stedsnr" v="640841" />
	</node>
	<node id="-187702" lat="59.667649996" lon="10.0039222208">
		<tag k="fixme" v="consider natural=peak for the most distinct mountains in the district" />
		<tag k="name" v="Steinbruåsen" />
		<tag k="natural" v="hill" />
		<tag k="place" v="locality" />
		<tag k="ssr:stedsnr" v="634257" />
	</node>
	<node id="-187700" lat="59.7418166705" lon="10.028741661">
		<tag k="name" v="Bakkebruddet" />
		<tag k="place" v="quarter" />
		<tag k="ssr:stedsnr" v="630957" />
	</node>
	<node id="-187699" lat="59.7258694463" lon="10.0273555579">
		<tag k="name" v="Brattbakk" />
		<tag k="natural" v="slope" />
		<tag k="place" v="locality" />
		<tag k="ssr:stedsnr" v="630955" />
	</node>
	<node id="-187698" lat="59.7280777786" lon="10.0070749953">
		<tag k="name" v="Grytjernbekken" />
		<tag k="ssr:stedsnr" v="630936" />
		<tag k="waterway" v="stream" />
	</node>
	<node id="-187697" lat="59.7545972203" lon="10.0391583331">
		<tag k="name" v="Papyrus P M" />
		<tag k="place" v="quarter" />
		<tag k="ssr:stedsnr" v="629913" />
	</node>
	<node id="-187696" lat="59.7620222218" lon="10.0770583322">
		<tag k="amenity" v="school" />
		<tag k="name" v="Killingrud ungdomsskole" />
		<tag k="ssr:stedsnr" v="629888" />
	</node>
	<node id="-187695" lat="59.7475138894" lon="10.0336305526">
		<tag k="name" v="Øra" />
		<tag k="ssr:stedsnr" v="629760" />
		<tag k="waterway" v="stream" />
	</node>
	<node id="-187694" lat="59.780133334" lon="9.97222221347">
		<tag k="fixme" v="consider natural=peak for the most distinct mountains in the district" />
		<tag k="name" v="Kobberdokkfjellet" />
		<tag k="natural" v="hill" />
		<tag k="place" v="locality" />
		<tag k="ssr:stedsnr" v="629727" />
	</node>
	<node id="-187693" lat="59.7239916662" lon="10.062830554">
		<tag k="name" v="Overdalen" />
		<tag k="natural" v="valley" />
		<tag k="place" v="locality" />
		<tag k="ssr:stedsnr" v="629568" />
	</node>
	<node id="-187692" lat="59.7039888906" lon="10.0281277732">
		<tag k="name" v="Leitjernbekken" />
		<tag k="ssr:stedsnr" v="610346" />
		<tag k="waterway" v="stream" />
	</node>
	<node id="-187691" lat="59.7417749997" lon="10.0556194419">
		<tag k="name" v="Hviteberget" />
		<tag k="natural" v="hill" />
		<tag k="place" v="locality" />
		<tag k="ssr:stedsnr" v="609361" />
	</node>
	<node id="-187690" lat="59.7405611101" lon="10.0315277714">
		<tag k="name" v="Bakken" />
		<tag k="place" v="farm" />
		<tag k="ssr:stedsnr" v="609359" />
	</node>
	<node id="-187689" lat="59.7349749966" lon="10.0209000058">
		<tag k="name" v="Åsendammen" />
		<tag k="natural" v="water" />
		<tag k="ssr:stedsnr" v="609358" />
	</node>
	<node id="-187688" lat="59.7310694416" lon="9.97535832517">
		<tag k="name" v="Myra" />
		<tag k="place" v="farm" />
		<tag k="ssr:stedsnr" v="609353" />
	</node>
	<node id="-187687" lat="59.6756916623" lon="10.0336944531">
		<tag k="alt_name" v="Plassantjern" />
		<tag k="name" v="Plassanetjern" />
		<tag k="natural" v="water" />
		<tag k="ssr:stedsnr" v="609221" />
	</node>
	<node id="-187686" lat="59.6957333359" lon="10.0294805588">
		<tag k="alt_name" v="Leitjerna" />
		<tag k="name" v="Øvre Leitjern" />
		<tag k="natural" v="water" />
		<tag k="ssr:stedsnr" v="609196" />
	</node>
	<node id="-187685" lat="59.6874666642" lon="9.99249444557">
		<tag k="alt_name" v="Ytre Fisketjern" />
		<tag k="name" v="Fisketretjerna" />
		<tag k="natural" v="water" />
		<tag k="ssr:stedsnr" v="609185" />
	</node>
	<node id="-187684" lat="59.7170722262" lon="9.97325833863">
		<tag k="name" v="Dammyrhaugene" />
		<tag k="natural" v="hill" />
		<tag k="place" v="locality" />
		<tag k="ssr:stedsnr" v="573171" />
	</node>
	<node id="-187683" lat="59.6986611153" lon="10.0267027732">
		<tag k="name" v="Nedre Leitjern" />
		<tag k="natural" v="water" />
		<tag k="ssr:stedsnr" v="573139" />
	</node>
	<node id="-187682" lat="59.6927694446" lon="10.0214277717">
		<tag k="name" v="Skaråsen" />
		<tag k="natural" v="slope" />
		<tag k="place" v="locality" />
		<tag k="ssr:stedsnr" v="573138" />
	</node>
	<node id="-187681" lat="59.8055138901" lon="10.0316222285">
		<tag k="name" v="Storura" />
		<tag k="natural" v="scree" />
		<tag k="ssr:stedsnr" v="572742" />
	</node>
	<node id="-187680" lat="59.8083527754" lon="9.99525000879">
		<tag k="name" v="Livkleiv" />
		<tag k="natural" v="slope" />
		<tag k="place" v="locality" />
		<tag k="ssr:stedsnr" v="572736" />
	</node>
	<node id="-187679" lat="59.7553431378" lon="10.0185190182">
		<tag k="fixme" v="consider place=hamlet" />
		<tag k="name" v="Møllenhof" />
		<tag k="place" v="farm" />
		<tag k="ssr:stedsnr" v="569989" />
	</node>
	<node id="-187678" lat="59.7608972246" lon="10.0631777839">
		<tag k="name" v="Hjelmeng" />
		<tag k="place" v="farm" />
		<tag k="ssr:stedsnr" v="568926" />
	</node>
	<node id="-187677" lat="59.7787111112" lon="9.9866722146">
		<tag k="name" v="Tjernsbakk" />
		<tag k="natural" v="slope" />
		<tag k="place" v="locality" />
		<tag k="ssr:stedsnr" v="568911" />
	</node>
	<node id="-187676" lat="59.7663083378" lon="9.98464999393">
		<tag k="name" v="Kornløkka" />
		<tag k="place" v="farm" />
		<tag k="ssr:stedsnr" v="568910" />
	</node>
	<node id="-187675" lat="59.759625001" lon="10.0427583335">
		<tag k="name" v="Batteriet" />
		<tag k="place" v="locality" />
		<tag k="ssr:stedsnr" v="568872" />
	</node>
	<node id="-187674" lat="59.731619444" lon="10.0831888945">
		<tag k="fixme" v="consider natural=peak for the most distinct mountains in the district" />
		<tag k="name" v="Lauparåsen" />
		<tag k="natural" v="hill" />
		<tag k="place" v="locality" />
		<tag k="ssr:stedsnr" v="568577" />
	</node>
	<node id="-187673" lat="59.7332333332" lon="10.1004277717">
		<tag k="name" v="Baustrømplassen" />
		<tag k="place" v="isolated_dwelling" />
		<tag k="ssr:stedsnr" v="568557" />
	</node>
	<node id="-187672" lat="59.7241805593" lon="10.0386499977">
		<tag k="name" v="Grisedalen" />
		<tag k="natural" v="valley" />
		<tag k="place" v="locality" />
		<tag k="ssr:stedsnr" v="568550" />
	</node>
	<node id="-187671" lat="59.7699583362" lon="10.0614722166">
		<tag k="name" v="Storlia" />
		<tag k="natural" v="slope" />
		<tag k="place" v="locality" />
		<tag k="ssr:stedsnr" v="568481" />
	</node>
	<node id="-187670" lat="59.7749972266" lon="10.0731166657">
		<tag k="bridge" v="yes" />
		<tag k="layer" v="1" />
		<tag k="name" v="St. Hansbrua" />
		<tag k="ssr:stedsnr" v="568478" />
	</node>
	<node id="-187669" lat="59.7681583293" lon="10.0371472238">
		<tag k="name" v="Ormedalen" />
		<tag k="natural" v="valley" />
		<tag k="place" v="locality" />
		<tag k="ssr:stedsnr" v="568473" />
	</node>
	<node id="-187668" lat="59.7765666703" lon="10.0454722268">
		<tag k="name" v="Høymyrdalen" />
		<tag k="natural" v="valley" />
		<tag k="place" v="locality" />
		<tag k="ssr:stedsnr" v="568472" />
	</node>
	<node id="-187667" lat="59.7702027733" lon="9.9948333377">
		<tag k="name" v="Hovjordet" />
		<tag k="place" v="quarter" />
		<tag k="ssr:stedsnr" v="566192" />
	</node>
	<node id="-187666" lat="59.7972805569" lon="10.0514361117">
		<tag k="fixme" v="consider natural=peak for the most distinct mountains in the district" />
		<tag k="name" v="Hoggskollen" />
		<tag k="natural" v="hill" />
		<tag k="place" v="locality" />
		<tag k="ssr:stedsnr" v="610291" />
	</node>
	<node id="-187665" lat="59.7696499969" lon="10.0495166738">
		<tag k="fixme" v="consider natural=peak for the most distinct mountains in the district" />
		<tag k="name" v="Solbergfjellet" />
		<tag k="natural" v="hill" />
		<tag k="place" v="locality" />
		<tag k="ssr:stedsnr" v="610197" />
	</node>
	<node id="-187664" lat="59.8009666694" lon="10.0106583334">
		<tag k="fixme" v="consider natural=peak for the most distinct mountains in the district" />
		<tag k="name" v="Høgåsen" />
		<tag k="natural" v="hill" />
		<tag k="place" v="locality" />
		<tag k="ssr:stedsnr" v="550501" />
	</node>
	<node id="-187663" lat="59.8395861081" lon="10.0614777737">
		<tag k="name" v="Elgskottjern" />
		<tag k="natural" v="water" />
		<tag k="ssr:stedsnr" v="550285" />
	</node>
	<node id="-187662" lat="59.7717638856" lon="10.04158889">
		<tag k="name" v="Svarttjern" />
		<tag k="natural" v="water" />
		<tag k="ssr:stedsnr" v="550177" />
	</node>
	<node id="-187661" lat="59.730052782" lon="9.99879999824">
		<tag k="fixme" v="consider natural=peak for the most distinct mountains in the district" />
		<tag k="name" v="Korpåsen" />
		<tag k="natural" v="hill" />
		<tag k="place" v="locality" />
		<tag k="ssr:stedsnr" v="549363" />
	</node>
	<node id="-187660" lat="59.7128027775" lon="9.98090277807">
		<tag k="name" v="Dammyr" />
		<tag k="place" v="farm" />
		<tag k="ssr:stedsnr" v="549287" />
	</node>
	<node id="-187659" lat="59.7152447798" lon="9.98096317445">
		<tag k="name" v="Dammyrtjern" />
		<tag k="natural" v="water" />
		<tag k="ssr:stedsnr" v="549274" />
	</node>
	<node id="-187658" lat="59.7215277762" lon="10.036299996">
		<tag k="name" v="Kroksetra" />
		<tag k="place" v="isolated_dwelling" />
		<tag k="ssr:stedsnr" v="549270" />
	</node>
	<node id="-187657" lat="59.8062527777" lon="10.0700249959">
		<tag k="historic" v="shieling" />
		<tag k="name" v="Solbergsetra" />
		<tag k="place" v="locality" />
		<tag k="ssr:stedsnr" v="549232" />
	</node>
	<node id="-187656" lat="59.7578398066" lon="10.0999121014">
		<tag k="name" v="Vinnes" />
		<tag k="place" v="hamlet" />
		<tag k="ssr:stedsnr" v="549086" />
	</node>
	<node id="-187655" lat="59.7015055571" lon="9.99388055465">
		<tag k="fixme" v="consider natural=peak for the most distinct mountains in the district" />
		<tag k="name" v="Seteråsen" />
		<tag k="natural" v="hill" />
		<tag k="place" v="locality" />
		<tag k="ssr:stedsnr" v="549024" />
	</node>
	<node id="-187654" lat="59.7482083311" lon="10.0407861147">
		<tag k="alt_name" v="Mile" />
		<tag k="name" v="Miletjern" />
		<tag k="natural" v="water" />
		<tag k="ssr:stedsnr" v="548384" />
	</node>
	<node id="-187653" lat="59.7491833377" lon="9.98341943571">
		<tag k="bridge" v="yes" />
		<tag k="layer" v="1" />
		<tag k="name" v="Skalpe" />
		<tag k="ssr:stedsnr" v="532926" />
	</node>
	<node id="-187652" lat="59.752649998" lon="10.0002277761">
		<tag k="bridge" v="yes" />
		<tag k="layer" v="1" />
		<tag k="name" v="Verket" />
		<tag k="ssr:stedsnr" v="532922" />
	</node>
	<node id="-187651" lat="59.742938889" lon="10.0982666648">
		<tag k="bridge" v="yes" />
		<tag k="layer" v="1" />
		<tag k="name" v="Narverud" />
		<tag k="ssr:stedsnr" v="532919" />
	</node>
	<node id="-187650" lat="59.8087105852" lon="10.0746816435">
		<tag k="name" v="Kulpen" />
		<tag k="natural" v="water" />
		<tag k="ssr:stedsnr" v="516530" />
	</node>
	<node id="-187649" lat="59.8323888918" lon="10.0249138938">
		<tag k="name" v="Vranglevollen" />
		<tag k="place" v="locality" />
		<tag k="ssr:stedsnr" v="511596" />
	</node>
	<node id="-187648" lat="59.7552472241" lon="10.0093861078">
		<tag k="leisure" v="park" />
		<tag k="name" v="Bjørkelund" />
		<tag k="ssr:stedsnr" v="509990" />
	</node>
	<node id="-187647" lat="59.7310666685" lon="9.98468888592">
		<tag k="name" v="Sagbråten" />
		<tag k="place" v="farm" />
		<tag k="ssr:stedsnr" v="509984" />
	</node>
	<node id="-187646" lat="59.7797333305" lon="10.00196667">
		<tag k="name" v="Lampetjernbekken" />
		<tag k="ssr:stedsnr" v="508971" />
		<tag k="waterway" v="stream" />
	</node>
	<node id="-187645" lat="59.7822972228" lon="10.0139527814">
		<tag k="name" v="Sandva" />
		<tag k="natural" v="slope" />
		<tag k="place" v="locality" />
		<tag k="ssr:stedsnr" v="508929" />
	</node>
	<node id="-187644" lat="59.7630661241" lon="9.98352560586">
		<tag k="fixme" v="consider place=hamlet" />
		<tag k="name" v="Brekke" />
		<tag k="place" v="farm" />
		<tag k="ssr:stedsnr" v="508777" />
	</node>
	<node id="-187643" lat="59.7497416638" lon="10.0036472157">
		<tag k="name" v="Evja" />
		<tag k="ssr:stedsnr" v="508771" />
		<tag k="waterway" v="river" />
	</node>
	<node id="-187642" lat="59.7568055601" lon="10.0994333276">
		<tag k="name" v="Vinnes gartneri" />
		<tag k="place" v="farm" />
		<tag k="ssr:stedsnr" v="508617" />
	</node>
	<node id="-187641" lat="59.7410583292" lon="10.0788527799">
		<tag k="name" v="Skjellsbekk" />
		<tag k="ssr:stedsnr" v="508618" />
		<tag k="waterway" v="stream" />
	</node>
	<node id="-187640" lat="59.7613861076" lon="10.0963333318">
		<tag k="name" v="Vinnes" />
		<tag k="place" v="farm" />
		<tag k="ssr:stedsnr" v="508611" />
	</node>
	<node id="-187639" lat="59.7973499997" lon="10.0422972177">
		<tag k="fixme" v="multiple name tags, choose one and add the other to alt_name" />
		<tag k="historic" v="shieling" />
		<tag k="name" v="Smedsetra;Smedvollen" />
		<tag k="place" v="locality" />
		<tag k="ssr:stedsnr" v="489281" />
	</node>
	<node id="-187638" lat="59.7957083357" lon="10.0436277788">
		<tag k="name" v="Steinarvanna" />
		<tag k="natural" v="water" />
		<tag k="ssr:stedsnr" v="489279" />
		<tag k="water" v="lake" />
	</node>
	<node id="-187637" lat="59.8186111102" lon="10.0155611138">
		<tag k="name" v="Steindammen" />
		<tag k="natural" v="water" />
		<tag k="ssr:stedsnr" v="489248" />
	</node>
	<node id="-187636" lat="59.8237749955" lon="10.0430500067">
		<tag k="name" v="Ormetjern" />
		<tag k="natural" v="water" />
		<tag k="ssr:stedsnr" v="489226" />
	</node>
	<node id="-187635" lat="59.7645335034" lon="9.99328629475">
		<tag k="alt_name" v="Krogstad" />
		<tag k="fixme" v="consider place=hamlet" />
		<tag k="name" v="Krokstad" />
		<tag k="place" v="farm" />
		<tag k="ssr:stedsnr" v="489209" />
	</node>
	<node id="-187634" lat="59.7737861145" lon="9.99613333518">
		<tag k="name" v="Årbogen" />
		<tag k="natural" v="water" />
		<tag k="ssr:stedsnr" v="489193" />
	</node>
	<node id="-187633" lat="59.7361138861" lon="10.0324583365">
		<tag k="name" v="Hestemyra" />
		<tag k="place" v="farm" />
		<tag k="ssr:stedsnr" v="488341" />
	</node>
	<node id="-187632" lat="59.7152500028" lon="10.0671916611">
		<tag k="name" v="Riseplassen" />
		<tag k="place" v="locality" />
		<tag k="ssr:stedsnr" v="488258" />
	</node>
	<node id="-187631" lat="59.7111638896" lon="10.0017027778">
		<tag k="name" v="Ertekollen" />
		<tag k="natural" v="hill" />
		<tag k="place" v="locality" />
		<tag k="ssr:stedsnr" v="488248" />
	</node>
	<node id="-187630" lat="59.7250388847" lon="9.97903610626">
		<tag k="name" v="Veia" />
		<tag k="ssr:stedsnr" v="488221" />
		<tag k="waterway" v="stream" />
	</node>
	<node id="-187629" lat="59.6836361098" lon="10.003961116">
		<tag k="alt_name" v="Lortholdalen" />
		<tag k="name" v="Lorttjerndalen" />
		<tag k="natural" v="valley" />
		<tag k="place" v="locality" />
		<tag k="ssr:stedsnr" v="488205" />
	</node>
	<node id="-187628" lat="59.6703666639" lon="10.0101111041">
		<tag k="name" v="Ospesnarmyr" />
		<tag k="natural" v="wetland" />
		<tag k="ssr:stedsnr" v="452228" />
	</node>
	<node id="-187627" lat="59.8068083354" lon="10.0003972285">
		<tag k="name" v="Huskombusk" />
		<tag k="natural" v="slope" />
		<tag k="place" v="locality" />
		<tag k="ssr:stedsnr" v="451746" />
	</node>
	<node id="-187626" lat="59.7982194483" lon="10.0104138919">
		<tag k="name" v="Tarmmyr" />
		<tag k="natural" v="wetland" />
		<tag k="ssr:stedsnr" v="451739" />
	</node>
	<node id="-187625" lat="59.8233611112" lon="10.0099333253">
		<tag k="name" v="Helvetesbakk" />
		<tag k="natural" v="slope" />
		<tag k="place" v="locality" />
		<tag k="ssr:stedsnr" v="450528" />
	</node>
	<node id="-187624" lat="59.8264388909" lon="10.0216500018">
		<tag k="name" v="Okseøye" />
		<tag k="natural" v="wetland" />
		<tag k="ssr:stedsnr" v="450526" />
	</node>
	<node id="-187623" lat="59.7618722256" lon="9.99703333948">
		<tag k="name" v="Krokstadbekken" />
		<tag k="ssr:stedsnr" v="449984" />
		<tag k="waterway" v="stream" />
	</node>
	<node id="-187622" lat="59.7319138893" lon="10.009372219">
		<tag k="name" v="Åslund" />
		<tag k="place" v="farm" />
		<tag k="ssr:stedsnr" v="449900" />
	</node>
	<node id="-187621" lat="59.7632388927" lon="10.0173750043">
		<tag k="name" v="Møllenhofbekken" />
		<tag k="ssr:stedsnr" v="448989" />
		<tag k="waterway" v="stream" />
	</node>
	<node id="-187620" lat="59.7773611099" lon="10.0284861071">
		<tag k="fixme" v="consider natural=peak for the most distinct mountains in the district" />
		<tag k="name" v="Bakkeseterfjellet" />
		<tag k="natural" v="hill" />
		<tag k="place" v="locality" />
		<tag k="ssr:stedsnr" v="447904" />
	</node>
	<node id="-187619" lat="59.7564361123" lon="10.0881111137">
		<tag k="name" v="Åserud teglverk" />
		<tag k="place" v="quarter" />
		<tag k="ssr:stedsnr" v="447856" />
	</node>
	<node id="-187618" lat="59.7684972221" lon="10.0964638865">
		<tag k="name" v="Breihella" />
		<tag k="natural" v="slope" />
		<tag k="place" v="locality" />
		<tag k="ssr:stedsnr" v="447716" />
	</node>
	<node id="-187617" lat="59.7492500018" lon="10.107238896">
		<tag k="name" v="Bråtan" />
		<tag k="place" v="farm" />
		<tag k="ssr:stedsnr" v="447583" />
	</node>
	<node id="-187616" lat="59.7383250009" lon="10.0535138877">
		<tag k="fixme" v="consider natural=peak for the most distinct mountains in the district" />
		<tag k="name" v="Ryggåsen" />
		<tag k="natural" v="hill" />
		<tag k="place" v="locality" />
		<tag k="ssr:stedsnr" v="447528" />
	</node>
	<node id="-187615" lat="59.7788138898" lon="10.0361361165">
		<tag k="name" v="Vadalstua" />
		<tag k="place" v="isolated_dwelling" />
		<tag k="ssr:stedsnr" v="447460" />
	</node>
	<node id="-187614" lat="59.7535305566" lon="9.99558333581">
		<tag k="building" v="industrial" />
		<tag k="industrial" v="factory" />
		<tag k="name" v="Eker papirfabrikk" />
		<tag k="ssr:stedsnr" v="448791" />
	</node>
	<node id="-187613" lat="59.7581666658" lon="10.0058944413">
		<tag k="name" v="Krokstadelva" />
		<tag k="place" v="village" />
		<tag k="ssr:stedsnr" v="429158" />
	</node>
	<node id="-187612" lat="59.7886999995" lon="10.0844638935">
		<tag k="name" v="Gravningsbekken" />
		<tag k="ssr:stedsnr" v="429127" />
		<tag k="waterway" v="stream" />
	</node>
	<node id="-187611" lat="59.7246861072" lon="10.0580333364">
		<tag k="name" v="Dalen" />
		<tag k="place" v="isolated_dwelling" />
		<tag k="ssr:stedsnr" v="428239" />
	</node>
	<node id="-187610" lat="59.8003249999" lon="10.077855564">
		<tag k="name" v="Nerdammen" />
		<tag k="natural" v="water" />
		<tag k="ssr:stedsnr" v="428214" />
	</node>
	<node id="-187609" lat="59.8065083343" lon="10.0507638927">
		<tag k="fixme" v="consider natural=peak for the most distinct mountains in the district" />
		<tag k="name" v="Kleiveren" />
		<tag k="natural" v="hill" />
		<tag k="place" v="locality" />
		<tag k="ssr:stedsnr" v="428212" />
	</node>
	<node id="-187608" lat="59.8078381507" lon="10.0182516614">
		<tag k="name" v="Lommetjern" />
		<tag k="natural" v="water" />
		<tag k="ssr:stedsnr" v="428208" />
	</node>
	<node id="-187607" lat="59.7625683157" lon="10.0580867979">
		<tag k="fixme" v="consider place=hamlet" />
		<tag k="name" v="Solberg" />
		<tag k="place" v="farm" />
		<tag k="ssr:stedsnr" v="428159" />
	</node>
	<node id="-187606" lat="59.7502704365" lon="10.0478105144">
		<tag k="name" v="Rygg" />
		<tag k="place" v="hamlet" />
		<tag k="ssr:stedsnr" v="428071" />
	</node>
	<node id="-187605" lat="59.7487388883" lon="10.0782833402">
		<tag k="name" v="Daler" />
		<tag k="place" v="farm" />
		<tag k="ssr:stedsnr" v="427388" />
	</node>
	<node id="-187604" lat="59.7411575336" lon="9.99486815129">
		<tag k="fixme" v="consider place=hamlet" />
		<tag k="name" v="Korsgården" />
		<tag k="place" v="farm" />
		<tag k="ssr:stedsnr" v="427383" />
	</node>
	<node id="-187603" lat="59.7278194416" lon="9.98407777211">
		<tag k="name" v="Steinkleiv" />
		<tag k="natural" v="valley" />
		<tag k="place" v="locality" />
		<tag k="ssr:stedsnr" v="267986" />
	</node>
	<node id="-187602" lat="59.7799472179" lon="10.0077222136">
		<tag k="name" v="Klopptjern" />
		<tag k="natural" v="water" />
		<tag k="ssr:stedsnr" v="265956" />
	</node>
	<node id="-187601" lat="59.7513194488" lon="10.0553749965">
		<tag k="name" v="Nerkollen" />
		<tag k="natural" v="ridge" />
		<tag k="place" v="locality" />
		<tag k="ssr:stedsnr" v="265910" />
	</node>
	<node id="-187600" lat="59.774394448" lon="10.0988805503">
		<tag k="name" v="Barlinddokkåsen" />
		<tag k="natural" v="slope" />
		<tag k="place" v="locality" />
		<tag k="ssr:stedsnr" v="265777" />
	</node>
	<node id="-187599" lat="59.7659756217" lon="9.9693882699">
		<tag k="fixme" v="consider place=hamlet" />
		<tag k="name" v="Korshorgen" />
		<tag k="place" v="farm" />
		<tag k="ssr:stedsnr" v="265766" />
	</node>
	<node id="-187598" lat="59.763233335" lon="10.1070333316">
		<tag k="name" v="Vinnesbråtan" />
		<tag k="place" v="farm" />
		<tag k="ssr:stedsnr" v="265616" />
	</node>
	<node id="-187597" lat="59.7316250046" lon="10.0624916588">
		<tag k="name" v="Rørvikbekken" />
		<tag k="ssr:stedsnr" v="265609" />
		<tag k="waterway" v="stream" />
	</node>
	<node id="-187596" lat="59.7282083321" lon="10.0771972221">
		<tag k="name" v="Treholtmyra" />
		<tag k="natural" v="wetland" />
		<tag k="ssr:stedsnr" v="265583" />
	</node>
	<node id="-187595" lat="59.7586027744" lon="9.94787222688">
		<tag k="alt_name" v="Temtemoen øvre" />
		<tag k="name" v="Øvre Temtemoen" />
		<tag k="place" v="farm" />
		<tag k="ssr:stedsnr" v="265537" />
	</node>
	<node id="-187594" lat="59.830475806" lon="10.0419023013">
		<tag k="name" v="Vrangla" />
		<tag k="natural" v="water" />
		<tag k="ssr:stedsnr" v="247259" />
		<tag k="water" v="lake" />
	</node>
	<node id="-187593" lat="59.7922833327" lon="10.0199111055">
		<tag k="historic" v="shieling" />
		<tag k="name" v="Eknessetra" />
		<tag k="place" v="locality" />
		<tag k="ssr:stedsnr" v="247132" />
	</node>
	<node id="-187592" lat="59.790899997" lon="10.0383527689">
		<tag k="fixme" v="consider natural=peak for the most distinct mountains in the district" />
		<tag k="name" v="Lokkeråsen" />
		<tag k="natural" v="hill" />
		<tag k="place" v="locality" />
		<tag k="ssr:stedsnr" v="247133" />
	</node>
	<node id="-187591" lat="59.7175999958" lon="10.0155500042">
		<tag k="name" v="Bråtaseter" />
		<tag k="place" v="isolated_dwelling" />
		<tag k="ssr:stedsnr" v="246264" />
	</node>
	<node id="-187590" lat="59.7293055572" lon="10.0317000082">
		<tag k="name" v="Haugen" />
		<tag k="place" v="farm" />
		<tag k="ssr:stedsnr" v="246250" />
	</node>
	<node id="-187589" lat="59.813838891" lon="10.0715888801">
		<tag k="name" v="Kampenhaug" />
		<tag k="natural" v="hill" />
		<tag k="place" v="locality" />
		<tag k="ssr:stedsnr" v="246220" />
	</node>
	<node id="-187588" lat="59.7627805531" lon="10.0696000083">
		<tag k="name" v="Bjørhus" />
		<tag k="place" v="farm" />
		<tag k="ssr:stedsnr" v="246186" />
	</node>
	<node id="-187587" lat="59.7640055548" lon="10.0222499991">
		<tag k="name" v="Bjørkedokk" />
		<tag k="place" v="farm" />
		<tag k="ssr:stedsnr" v="246185" />
	</node>
	<node id="-187586" lat="59.7517374024" lon="9.98569720916">
		<tag k="fixme" v="consider place=hamlet" />
		<tag k="name" v="Grav" />
		<tag k="place" v="farm" />
		<tag k="ssr:stedsnr" v="246070" />
	</node>
	<node id="-187585" lat="59.7526805593" lon="10.0024694385">
		<tag k="bridge" v="yes" />
		<tag k="layer" v="1" />
		<tag k="name" v="Evje" />
		<tag k="ssr:stedsnr" v="228953" />
	</node>
	<node id="-187584" lat="59.6776916638" lon="10.0068333418">
		<tag k="name" v="Langtjern" />
		<tag k="natural" v="water" />
		<tag k="ssr:stedsnr" v="210168" />
	</node>
	<node id="-187583" lat="59.7938083358" lon="10.0098333307">
		<tag k="name" v="Grisedal" />
		<tag k="natural" v="valley" />
		<tag k="place" v="locality" />
		<tag k="ssr:stedsnr" v="208746" />
	</node>
	<node id="-187582" lat="59.8028194448" lon="10.0178694426">
		<tag k="name" v="Aureputt" />
		<tag k="natural" v="water" />
		<tag k="ssr:stedsnr" v="208735" />
		<tag k="water" v="pond" />
	</node>
	<node id="-187581" lat="59.8053666661" lon="10.0057361065">
		<tag k="name" v="Haraputt" />
		<tag k="natural" v="water" />
		<tag k="ssr:stedsnr" v="208725" />
		<tag k="water" v="pond" />
	</node>
	<node id="-187580" lat="59.8241444462" lon="10.0275472182">
		<tag k="name" v="Ringmyr" />
		<tag k="natural" v="wetland" />
		<tag k="ssr:stedsnr" v="207479" />
	</node>
	<node id="-187579" lat="59.7263472184" lon="9.99697500129">
		<tag k="fixme" v="consider natural=peak for the most distinct mountains in the district" />
		<tag k="name" v="Lefsemyråsen" />
		<tag k="natural" v="hill" />
		<tag k="place" v="locality" />
		<tag k="ssr:stedsnr" v="206950" />
	</node>
	<node id="-187578" lat="59.7509527733" lon="10.011352782">
		<tag k="name" v="Mjøndalen stasjon" />
		<tag k="railway" v="station" />
		<tag k="ssr:stedsnr" v="205788" />
		<tag k="train" v="yes" />
	</node>
	<node id="-187577" lat="59.7671194419" lon="9.97457222394">
		<tag k="name" v="Sollien" />
		<tag k="place" v="isolated_dwelling" />
		<tag k="ssr:stedsnr" v="205750" />
	</node>
	<node id="-187576" lat="59.7566666632" lon="10.0587249942">
		<tag k="name" v="Herstrøm" />
		<tag k="place" v="farm" />
		<tag k="ssr:stedsnr" v="204883" />
	</node>
	<node id="-187575" lat="59.7513750045" lon="10.0942555523">
		<tag k="alt_name" v="Narverud mellom" />
		<tag k="name" v="Mellom-Narverud" />
		<tag k="place" v="farm" />
		<tag k="ssr:stedsnr" v="204560" />
	</node>
	<node id="-187574" lat="59.7371361142" lon="10.0685611135">
		<tag k="name" v="Kortspillsletta" />
		<tag k="place" v="locality" />
		<tag k="ssr:stedsnr" v="204544" />
	</node>
	<node id="-187573" lat="59.7433138872" lon="10.0861722157">
		<tag k="name" v="Brattli" />
		<tag k="place" v="farm" />
		<tag k="ssr:stedsnr" v="204541" />
	</node>
	<node id="-187572" lat="59.7420888912" lon="10.0514583332">
		<tag k="name" v="Barlindmyra" />
		<tag k="natural" v="wetland" />
		<tag k="ssr:stedsnr" v="204519" />
	</node>
	<node id="-187571" lat="59.7864138923" lon="10.0235027842">
		<tag k="name" v="Tømmermyr" />
		<tag k="natural" v="wetland" />
		<tag k="ssr:stedsnr" v="204914" />
	</node>
	<node id="-187570" lat="59.7846583299" lon="10.0128583412">
		<tag k="name" v="Eknesdalen" />
		<tag k="natural" v="valley" />
		<tag k="place" v="locality" />
		<tag k="ssr:stedsnr" v="204910" />
	</node>
	<node id="-187569" lat="59.7694027785" lon="10.077905555">
		<tag k="name" v="Karindammen" />
		<tag k="ssr:stedsnr" v="204450" />
		<tag k="waterway" v="dam" />
	</node>
	<node id="-187568" lat="59.7332499958" lon="10.0440666616">
		<tag k="name" v="Solsetra" />
		<tag k="place" v="farm" />
		<tag k="ssr:stedsnr" v="202982" />
	</node>
	<node id="-187567" lat="59.8559055561" lon="10.0611333337">
		<tag k="name" v="Bordvika" />
		<tag k="natural" v="bay" />
		<tag k="ssr:stedsnr" v="186266" />
	</node>
	<node id="-187566" lat="59.7784138852" lon="10.0697611097">
		<tag k="name" v="Vasshella" />
		<tag k="natural" v="water" />
		<tag k="ssr:stedsnr" v="186150" />
	</node>
	<node id="-187565" lat="59.7861611071" lon="10.0960694391">
		<tag k="fixme" v="consider natural=peak for the most distinct mountains in the district" />
		<tag k="name" v="Gladbakk" />
		<tag k="natural" v="hill" />
		<tag k="place" v="locality" />
		<tag k="ssr:stedsnr" v="186134" />
	</node>
	<node id="-187564" lat="59.7731250042" lon="10.0750249932">
		<tag k="name" v="Solbergbråtan" />
		<tag k="place" v="farm" />
		<tag k="ssr:stedsnr" v="186162" />
	</node>
	<node id="-187563" lat="59.7025638864" lon="10.0696666716">
		<tag k="fixme" v="consider natural=peak for the most distinct mountains in the district" />
		<tag k="name" v="Brentåsen" />
		<tag k="natural" v="hill" />
		<tag k="place" v="locality" />
		<tag k="ssr:stedsnr" v="185296" />
	</node>
	<node id="-187562" lat="59.7461666694" lon="10.040241669">
		<tag k="alt_name" v="Rygg lille" />
		<tag k="name" v="Mile" />
		<tag k="place" v="farm" />
		<tag k="ssr:stedsnr" v="185354" />
	</node>
	<node id="-187561" lat="59.7121611142" lon="10.0776749932">
		<tag k="name" v="Nikkerud" />
		<tag k="place" v="farm" />
		<tag k="ssr:stedsnr" v="185281" />
	</node>
	<node id="-187560" lat="59.7113305552" lon="10.0592305633">
		<tag k="fixme" v="consider natural=peak for the most distinct mountains in the district" />
		<tag k="name" v="Lauvåsen" />
		<tag k="natural" v="hill" />
		<tag k="place" v="locality" />
		<tag k="ssr:stedsnr" v="185251" />
	</node>
	<node id="-187559" lat="59.6864305565" lon="10.031183332">
		<tag k="alt_name" v="Åsseterbekken" />
		<tag k="name" v="Åseterbekken" />
		<tag k="ssr:stedsnr" v="185167" />
		<tag k="waterway" v="stream" />
	</node>
	<node id="-187558" lat="59.7652370995" lon="9.97141969173">
		<tag k="alt_name" v="Horgen" />
		<tag k="fixme" v="consider place=hamlet" />
		<tag k="name" v="Søndre Horgen" />
		<tag k="place" v="farm" />
		<tag k="ssr:stedsnr" v="185162" />
	</node>
	<node id="-187557" lat="59.7598841438" lon="9.98301090878">
		<tag k="alt_name" v="Stenberg" />
		<tag k="fixme" v="consider place=hamlet" />
		<tag k="name" v="Steinberg" />
		<tag k="place" v="farm" />
		<tag k="ssr:stedsnr" v="185161" />
	</node>
	<node id="-187556" lat="59.7972555522" lon="10.0147111026">
		<tag k="name" v="Langmyrene" />
		<tag k="natural" v="wetland" />
		<tag k="ssr:stedsnr" v="147711" />
	</node>
	<node id="-187555" lat="59.7370972215" lon="10.005036113">
		<tag k="name" v="Vikåsen" />
		<tag k="place" v="farm" />
		<tag k="ssr:stedsnr" v="145945" />
	</node>
	<node id="-187554" lat="59.7330888869" lon="10.0077222269">
		<tag k="name" v="Korpen" />
		<tag k="natural" v="hill" />
		<tag k="place" v="locality" />
		<tag k="ssr:stedsnr" v="143961" />
	</node>
	<node id="-187553" lat="59.7843277775" lon="9.98599723112">
		<tag k="name" v="Flårane" />
		<tag k="natural" v="wetland" />
		<tag k="ssr:stedsnr" v="143956" />
	</node>
	<node id="-187552" lat="59.7863861111" lon="9.9797249956">
		<tag k="fixme" v="consider natural=peak for the most distinct mountains in the district" />
		<tag k="name" v="Balatjernsåsen" />
		<tag k="natural" v="hill" />
		<tag k="place" v="locality" />
		<tag k="ssr:stedsnr" v="143955" />
	</node>
	<node id="-187551" lat="59.7829111118" lon="10.0028305494">
		<tag k="name" v="Utsikten" />
		<tag k="ssr:stedsnr" v="143947" />
		<tag k="tourism" v="viewpoint" />
	</node>
	<node id="-187550" lat="59.7812611078" lon="10.0200444391">
		<tag k="name" v="Blakkmyr" />
		<tag k="natural" v="wetland" />
		<tag k="ssr:stedsnr" v="143944" />
	</node>
	<node id="-187549" lat="59.7668249998" lon="10.009941669">
		<tag k="name" v="Langløkka" />
		<tag k="place" v="locality" />
		<tag k="ssr:stedsnr" v="143913" />
	</node>
	<node id="-187548" lat="59.7553916667" lon="10.0386388865">
		<tag k="name" v="Stegla" />
		<tag k="ssr:stedsnr" v="143914" />
		<tag k="waterway" v="rapids" />
	</node>
	<node id="-187547" lat="59.7696249983" lon="9.98971389601">
		<tag k="name" v="Fabrikkroken" />
		<tag k="place" v="farm" />
		<tag k="ssr:stedsnr" v="143906" />
	</node>
	<node id="-187546" lat="59.751644601" lon="10.0830221622">
		<tag k="name" v="Daler" />
		<tag k="place" v="hamlet" />
		<tag k="ssr:stedsnr" v="143903" />
	</node>
	<node id="-187545" lat="59.765841665" lon="10.0774722308">
		<tag k="name" v="Sagstua" />
		<tag k="place" v="farm" />
		<tag k="ssr:stedsnr" v="143856" />
	</node>
	<node id="-187544" lat="59.7504472235" lon="10.101816669">
		<tag k="name" v="Steinsmyra" />
		<tag k="place" v="farm" />
		<tag k="ssr:stedsnr" v="143596" />
	</node>
	<node id="-187543" lat="59.7829388888" lon="10.0783527781">
		<tag k="name" v="Øvre Isberget" />
		<tag k="natural" v="slope" />
		<tag k="place" v="locality" />
		<tag k="ssr:stedsnr" v="143498" />
	</node>
	<node id="-187542" lat="59.780358331" lon="10.0522527732">
		<tag k="name" v="Aslakkane" />
		<tag k="natural" v="slope" />
		<tag k="place" v="locality" />
		<tag k="ssr:stedsnr" v="143496" />
	</node>
	<node id="-187541" lat="59.7516000003" lon="9.96092777855">
		<tag k="name" v="Nedberg" />
		<tag k="place" v="farm" />
		<tag k="ssr:stedsnr" v="125599" />
	</node>
	<node id="-187540" lat="59.80278744" lon="10.0355921332">
		<tag k="alt_name" v="Solbergvann" />
		<tag k="name" v="Solbergvannet" />
		<tag k="natural" v="water" />
		<tag k="ssr:stedsnr" v="125261" />
		<tag k="water" v="lake" />
	</node>
	<node id="-187539" lat="59.8228277776" lon="10.0558472256">
		<tag k="fixme" v="consider natural=peak for the most distinct mountains in the district" />
		<tag k="name" v="Rognkleivåsen" />
		<tag k="natural" v="hill" />
		<tag k="place" v="locality" />
		<tag k="ssr:stedsnr" v="125224" />
	</node>
	<node id="-187538" lat="59.7582910798" lon="10.062952527">
		<tag k="alt_name" v="Herstrøm" />
		<tag k="fixme" v="consider place=hamlet" />
		<tag k="name" v="Hærstrøm" />
		<tag k="place" v="farm" />
		<tag k="ssr:stedsnr" v="125202" />
	</node>
	<node id="-187537" lat="59.7824861129" lon="9.98242777329">
		<tag k="alt_name" v="Balatjern" />
		<tag k="name" v="Ballatjern" />
		<tag k="natural" v="water" />
		<tag k="ssr:stedsnr" v="125161" />
	</node>
	<node id="-187536" lat="59.7768999976" lon="10.0146222307">
		<tag k="fixme" v="multiple name tags, choose one and add the other to alt_name" />
		<tag k="name" v="Hestholfjellet;Stutdalsfjellet" />
		<tag k="natural" v="hill" />
		<tag k="place" v="locality" />
		<tag k="ssr:stedsnr" v="125160" />
	</node>
	<node id="-187535" lat="59.7531527743" lon="10.0638000019">
		<tag k="name" v="Stryken" />
		<tag k="place" v="farm" />
		<tag k="ssr:stedsnr" v="125075" />
	</node>
	<node id="-187534" lat="59.7330555526" lon="10.0757638975">
		<tag k="fixme" v="consider natural=peak for the most distinct mountains in the district" />
		<tag k="name" v="Narverudåsen" />
		<tag k="natural" v="hill" />
		<tag k="place" v="locality" />
		<tag k="ssr:stedsnr" v="124312" />
	</node>
	<node id="-187533" lat="59.745056982" lon="9.99072041266">
		<tag k="fixme" v="consider place=hamlet" />
		<tag k="name" v="Bråtan" />
		<tag k="place" v="farm" />
		<tag k="ssr:stedsnr" v="124297" />
	</node>
	<node id="-187532" lat="59.7066899704" lon="10.0738503303">
		<tag k="name" v="Sagdammen" />
		<tag k="natural" v="water" />
		<tag k="ssr:stedsnr" v="124256" />
	</node>
	<node id="-187531" lat="59.723000003" lon="10.0787500081">
		<tag k="name" v="Ormetjern" />
		<tag k="natural" v="water" />
		<tag k="ssr:stedsnr" v="124206" />
	</node>
	<node id="-187530" lat="59.8391361081" lon="10.0504527773">
		<tag k="name" v="Tretjerna" />
		<tag k="natural" v="water" />
		<tag k="ssr:stedsnr" v="125316" />
	</node>
	<node id="-187529" lat="59.7476916645" lon="10.0063583361">
		<tag k="alt_name" v="Mjøndalen" />
		<tag k="amenity" v="place_of_worship" />
		<tag k="denomination" v="lutheran" />
		<tag k="name" v="Mjøndalen kirke" />
		<tag k="religion" v="christian" />
		<tag k="ssr:stedsnr" v="94015" />
	</node>
	<node id="-187528" lat="59.6740944428" lon="10.0090222281">
		<tag k="name" v="Kittilsdalen" />
		<tag k="natural" v="valley" />
		<tag k="place" v="locality" />
		<tag k="ssr:stedsnr" v="88199" />
	</node>
	<node id="-187527" lat="59.7681666704" lon="10.0278027853">
		<tag k="fixme" v="consider natural=peak for the most distinct mountains in the district" />
		<tag k="name" v="Lemenåsen" />
		<tag k="natural" v="hill" />
		<tag k="place" v="locality" />
		<tag k="ssr:stedsnr" v="83962" />
	</node>
	<node id="-187526" lat="59.7488583322" lon="10.0546194485">
		<tag k="name" v="Øverkollen" />
		<tag k="natural" v="ridge" />
		<tag k="place" v="locality" />
		<tag k="ssr:stedsnr" v="83921" />
	</node>
	<node id="-187525" lat="59.7561166675" lon="10.0609472198">
		<tag k="name" v="Herstrømøya" />
		<tag k="place" v="island" />
		<tag k="ssr:stedsnr" v="83888" />
	</node>
	<node id="-187524" lat="59.73314167" lon="10.0744805523">
		<tag k="name" v="Dalerbrenna" />
		<tag k="natural" v="hill" />
		<tag k="place" v="locality" />
		<tag k="ssr:stedsnr" v="83576" />
	</node>
	<node id="-187523" lat="59.78665278" lon="10.0567083419">
		<tag k="fixme" v="consider natural=peak for the most distinct mountains in the district" />
		<tag k="name" v="Hoggsfjell" />
		<tag k="natural" v="hill" />
		<tag k="place" v="locality" />
		<tag k="ssr:stedsnr" v="83484" />
	</node>
	<node id="-187522" lat="59.7507944452" lon="9.97474443726">
		<tag k="name" v="Nedberg" />
		<tag k="place" v="farm" />
		<tag k="ssr:stedsnr" v="83481" />
	</node>
	<node id="-187521" lat="59.803080554" lon="10.0502555524">
		<tag k="fixme" v="multiple name tags, choose one and add the other to alt_name" />
		<tag k="name" v="Kringla;Kringletjern" />
		<tag k="natural" v="water" />
		<tag k="ssr:stedsnr" v="81196" />
	</node>
	<node id="-187520" lat="59.7634111077" lon="10.0787055483">
		<tag k="name" v="Solbergelva" />
		<tag k="place" v="village" />
		<tag k="ssr:stedsnr" v="65170" />
	</node>
	<node id="-187519" lat="59.7792305601" lon="10.0422833282">
		<tag k="fixme" v="consider natural=peak for the most distinct mountains in the district" />
		<tag k="name" v="Solbergvarden" />
		<tag k="natural" v="hill" />
		<tag k="place" v="locality" />
		<tag k="ssr:stedsnr" v="65149" />
	</node>
	<node id="-187518" lat="59.7220750022" lon="10.0264416674">
		<tag k="fixme" v="consider natural=peak for the most distinct mountains in the district" />
		<tag k="name" v="Malmmyråsen" />
		<tag k="natural" v="hill" />
		<tag k="place" v="locality" />
		<tag k="ssr:stedsnr" v="64272" />
	</node>
	<node id="-187517" lat="59.8473555512" lon="10.0635277708">
		<tag k="name" v="Langvassbekken" />
		<tag k="ssr:stedsnr" v="64248" />
		<tag k="waterway" v="stream" />
	</node>
	<node id="-187516" lat="59.6779611104" lon="10.0067000046">
		<tag k="name" v="Langetjern" />
		<tag k="natural" v="water" />
		<tag k="ssr:stedsnr" v="64235" />
	</node>
	<node id="-187515" lat="59.6859138908" lon="10.0219499975">
		<tag k="fixme" v="consider natural=peak for the most distinct mountains in the district" />
		<tag k="name" v="Bråtaåsen" />
		<tag k="natural" v="hill" />
		<tag k="place" v="locality" />
		<tag k="ssr:stedsnr" v="64234" />
	</node>
	<node id="-187514" lat="59.6796138852" lon="10.0268666723">
		<tag k="alt_name" v="Nyseter" />
		<tag k="name" v="Nysetra" />
		<tag k="place" v="isolated_dwelling" />
		<tag k="ssr:stedsnr" v="64232" />
	</node>
	<node id="-187513" lat="59.8162095793" lon="10.0320485685">
		<tag k="alt_name" v="Ulvannet;Urdvatnet;Ulvann" />
		<tag k="loc_name" v="Urdevannet;Urdvannet" />
		<tag k="name" v="Urdevann" />
		<tag k="natural" v="water" />
		<tag k="old_name" v="Ulvevandet;Ulvandet" />
		<tag k="ssr:stedsnr" v="64209" />
		<tag k="water" v="lake" />
	</node>
	<node id="-187512" lat="59.7439471683" lon="10.002914537">
		<tag k="name" v="Vika" />
		<tag k="place" v="hamlet" />
		<tag k="ssr:stedsnr" v="63370" />
	</node>
	<node id="-187511" lat="59.7603499966" lon="10.0846888869">
		<tag k="bridge" v="yes" />
		<tag k="layer" v="1" />
		<tag k="name" v="Ulverud" />
		<tag k="ssr:stedsnr" v="46956" />
	</node>
	<node id="-187510" lat="59.7551666709" lon="10.0083916694">
		<tag k="bridge" v="yes" />
		<tag k="layer" v="1" />
		<tag k="name" v="Bruveien" />
		<tag k="ssr:stedsnr" v="46911" />
	</node>
	<node id="-187509" lat="59.8113583362" lon="10.024711116">
		<tag k="name" v="Tunga" />
		<tag k="natural" v="water" />
		<tag k="ssr:stedsnr" v="25479" />
		<tag k="water" v="pond" />
	</node>
	<node id="-187508" lat="59.6829666664" lon="10.0331888843">
		<tag k="name" v="Baklia" />
		<tag k="natural" v="slope" />
		<tag k="place" v="locality" />
		<tag k="ssr:stedsnr" v="27126" />
	</node>
	<node id="-187507" lat="59.7356527777" lon="10.0243555507">
		<tag k="name" v="Pilterud" />
		<tag k="place" v="farm" />
		<tag k="ssr:stedsnr" v="24932" />
	</node>
	<node id="-187506" lat="59.7493444446" lon="10.0682249991">
		<tag k="barrier" v="lift_gate" />
		<tag k="name" v="Dalerovergangen" />
		<tag k="place" v="locality" />
		<tag k="ssr:stedsnr" v="22929" />
	</node>
	<node id="-187505" lat="59.7597249973" lon="10.1058388821">
		<tag k="alt_name" v="Vinnes store" />
		<tag k="name" v="Store Vinnes" />
		<tag k="place" v="farm" />
		<tag k="ssr:stedsnr" v="22577" />
	</node>
	<node id="-187504" lat="59.7643111083" lon="10.092311107">
		<tag k="name" v="Myre" />
		<tag k="place" v="farm" />
		<tag k="ssr:stedsnr" v="22574" />
	</node>
	<node id="-187503" lat="59.787172218" lon="10.0482888935">
		<tag k="name" v="Tarmmyr" />
		<tag k="natural" v="wetland" />
		<tag k="ssr:stedsnr" v="22481" />
	</node>
	<node id="-187502" lat="59.8320527747" lon="10.083016661">
		<tag k="name" v="Auretjern" />
		<tag k="natural" v="water" />
		<tag k="ssr:stedsnr" v="4272" />
	</node>
	<node id="-187501" lat="59.7690777782" lon="9.98951111518">
		<tag k="name" v="Skogly" />
		<tag k="place" v="farm" />
		<tag k="ssr:stedsnr" v="4184" />
	</node>
	<node id="-187500" lat="59.7806805565" lon="9.99176111515">
		<tag k="name" v="Krokstadkollen" />
		<tag k="natural" v="hill" />
		<tag k="place" v="locality" />
		<tag k="ssr:stedsnr" v="4158" />
	</node>
	<node id="-187499" lat="59.7867250033" lon="10.0755000019">
		<tag k="alt_name" v="Solbergbekken" />
		<tag k="name" v="Solbergelva" />
		<tag k="ssr:stedsnr" v="4136" />
		<tag k="waterway" v="stream" />
	</node>
	<node id="-187498" lat="59.7697839302" lon="9.96559460507">
		<tag k="name" v="Temte" />
		<tag k="place" v="hamlet" />
		<tag k="ssr:stedsnr" v="3577" />
	</node>
	<node id="-187497" lat="59.751338392" lon="10.0988416655">
		<tag k="name" v="Narverud" />
		<tag k="place" v="hamlet" />
		<tag k="ssr:stedsnr" v="3326" />
	</node>
	<node id="-187496" lat="59.7380659242" lon="10.0149642149">
		<tag k="name" v="Åsen" />
		<tag k="place" v="hamlet" />
		<tag k="ssr:stedsnr" v="3325" />
	</node>
	<node id="-187495" lat="59.7388916682" lon="10.0298583255">
		<tag k="name" v="Bålerud" />
		<tag k="place" v="farm" />
		<tag k="ssr:stedsnr" v="3322" />
	</node>
	<node id="-187494" lat="59.743567092" lon="9.96911377493">
		<tag k="fixme" v="consider place=hamlet" />
		<tag k="name" v="Nikkelsrud" />
		<tag k="place" v="farm" />
		<tag k="ssr:stedsnr" v="3314" />
	</node>
	<node id="-187493" lat="59.7007472218" lon="10.0139777707">
		<tag k="name" v="Nebergdammane" />
		<tag k="natural" v="water" />
		<tag k="ssr:stedsnr" v="3280" />
	</node>
	<node id="-187492" lat="59.7034583363" lon="10.0078416676">
		<tag k="name" v="Vesle Kroktjern" />
		<tag k="natural" v="water" />
		<tag k="ssr:stedsnr" v="3279" />
	</node>
	<node id="-187491" lat="59.697322225" lon="10.001527778">
		<tag k="name" v="Gosen" />
		<tag k="place" v="isolated_dwelling" />
		<tag k="ssr:stedsnr" v="3274" />
	</node>
	<node id="-187490" lat="59.7108888887" lon="10.0162527812">
		<tag k="name" v="Storbekken" />
		<tag k="ssr:stedsnr" v="3260" />
		<tag k="waterway" v="stream" />
	</node>
	<node id="-187489" lat="59.718466114" lon="10.06384318">
		<tag k="name" v="Grunntjern" />
		<tag k="natural" v="water" />
		<tag k="ssr:stedsnr" v="3238" />
	</node>
	<node id="-187488" lat="59.6897666646" lon="9.99844166893">
		<tag k="name" v="Lauvtjern" />
		<tag k="place" v="locality" />
		<tag k="ssr:stedsnr" v="3167" />
	</node>
	<node id="-187487" lat="59.7612157221" lon="10.0899003735">
		<tag k="fixme" v="consider place=hamlet" />
		<tag k="name" v="Åserud" />
		<tag k="place" v="farm" />
		<tag k="ssr:stedsnr" v="3064" />
	</node>
	<node id="-187428" lat="59.7229056422" lon="9.98141673598">
		<tag k="fixme" v="consider boundary=protected_area and relevant protect_class if not nature reserve" />
		<tag k="leisure" v="nature_reserve" />
		<tag k="name" v="Veia naturreservat" />
		<tag k="ssr:stedsnr" v="991092" />
	</node>
	<node id="-187427" lat="59.7595489694" lon="9.96170356056">
		<tag k="name" v="Steinberg stasjon" />
		<tag k="railway" v="station" />
		<tag k="ssr:stedsnr" v="985137" />
		<tag k="train" v="yes" />
	</node>
	<node id="-187426" lat="59.7565551264" lon="9.99949074744">
		<tag k="building" v="commercial" />
		<tag k="name" v="Buskerud storsenter" />
		<tag k="ssr:stedsnr" v="982419" />
	</node>
	<node id="-187425" lat="59.7551955923" lon="10.0025249419">
		<tag k="name" v="Sandplassen" />
		<tag k="place" v="farm" />
		<tag k="ssr:stedsnr" v="982416" />
	</node>
	<node id="-187424" lat="59.7574729149" lon="10.0378743344">
		<tag k="amenity" v="place_of_worship" />
		<tag k="fixme" v="specify religion=*, denomination=*, building=* etc" />
		<tag k="name" v="Nedre Eiker kapell" />
		<tag k="ssr:stedsnr" v="981351" />
	</node>
	<node id="-187423" lat="59.8637291419" lon="10.0621514206">
		<tag k="alt_name" v="Glitrevann;Glitrevatnet" />
		<tag k="name" v="Glitre" />
		<tag k="natural" v="water" />
		<tag k="ssr:stedsnr" v="854319" />
		<tag k="water" v="lake" />
	</node>
	<node id="-187421" lat="59.854888892" lon="10.0704361156">
		<tag k="fixme" v="consider natural=peak for the most distinct mountains in the district" />
		<tag k="name" v="Glitreåsen" />
		<tag k="natural" v="hill" />
		<tag k="place" v="locality" />
		<tag k="ssr:stedsnr" v="890714" />
	</node>
	<node id="-187420" lat="59.7521472223" lon="10.0238722208">
		<tag k="bridge" v="yes" />
		<tag k="layer" v="1" />
		<tag k="name" v="Strandsonen" />
		<tag k="ssr:stedsnr" v="410946" />
	</node>
	<node id="-187419" lat="59.7521361139" lon="10.0252833251">
		<tag k="bridge" v="yes" />
		<tag k="layer" v="1" />
		<tag k="name" v="Mjøndalen Va-Kulvert" />
		<tag k="ssr:stedsnr" v="410945" />
	</node>
	<node id="-187418" lat="59.7553444438" lon="10.0256611042">
		<tag k="bridge" v="yes" />
		<tag k="layer" v="1" />
		<tag k="name" v="Eiker nedre" />
		<tag k="ssr:stedsnr" v="410895" />
	</node>
	<node id="-187417" lat="59.8536583319" lon="10.0536166633">
		<tag k="fixme" v="consider natural=peak for the most distinct mountains in the district" />
		<tag k="name" v="Kampen" />
		<tag k="natural" v="hill" />
		<tag k="place" v="locality" />
		<tag k="ssr:stedsnr" v="404675" />
	</node>
	<node id="-187416" lat="59.664532913" lon="10.0065097898">
		<tag k="name" v="Edvardstua" />
		<tag k="place" v="locality" />
		<tag k="ssr:stedsnr" v="403856" />
	</node>
	<node id="-187415" lat="59.6704027821" lon="10.0054083256">
		<tag k="fixme" v="consider natural=peak for the most distinct mountains in the district" />
		<tag k="name" v="Langtjernåsen" />
		<tag k="natural" v="hill" />
		<tag k="place" v="locality" />
		<tag k="ssr:stedsnr" v="391252" />
	</node>
	<node id="-187414" lat="59.6893499972" lon="10.0297555487">
		<tag k="name" v="Kirkebrenna" />
		<tag k="natural" v="ridge" />
		<tag k="place" v="locality" />
		<tag k="ssr:stedsnr" v="391150" />
	</node>
	<node id="-187413" lat="59.6833361106" lon="10.0033916639">
		<tag k="name" v="Langtjernstua" />
		<tag k="place" v="isolated_dwelling" />
		<tag k="ssr:stedsnr" v="391149" />
	</node>
	<node id="-187412" lat="59.8086000001" lon="10.02271945">
		<tag k="fixme" v="consider natural=peak for the most distinct mountains in the district" />
		<tag k="name" v="Lommetjernåsen" />
		<tag k="natural" v="hill" />
		<tag k="place" v="locality" />
		<tag k="ssr:stedsnr" v="390720" />
	</node>
	<node id="-187411" lat="59.8342222186" lon="10.0303861056">
		<tag k="name" v="Solund" />
		<tag k="natural" v="slope" />
		<tag k="place" v="locality" />
		<tag k="ssr:stedsnr" v="389632" />
	</node>
	<node id="-187410" lat="59.821066668" lon="10.0311222163">
		<tag k="name" v="Kalvetjern" />
		<tag k="natural" v="water" />
		<tag k="ssr:stedsnr" v="389510" />
		<tag k="water" v="pond" />
	</node>
	<node id="-187409" lat="59.7378972196" lon="10.0190111033">
		<tag k="fixme" v="consider natural=peak for the most distinct mountains in the district" />
		<tag k="name" v="Midtåsen" />
		<tag k="natural" v="hill" />
		<tag k="place" v="locality" />
		<tag k="ssr:stedsnr" v="388961" />
	</node>
	<node id="-187408" lat="59.7711138914" lon="10.0305083303">
		<tag k="name" v="Svarttjernbekken" />
		<tag k="ssr:stedsnr" v="386963" />
		<tag k="waterway" v="stream" />
	</node>
	<node id="-187407" lat="59.7807472238" lon="9.99860000447">
		<tag k="name" v="Sagelva" />
		<tag k="ssr:stedsnr" v="386960" />
		<tag k="waterway" v="stream" />
	</node>
	<node id="-187406" lat="59.7788250037" lon="10.0251083374">
		<tag k="name" v="Hestemyrhullet" />
		<tag k="natural" v="valley" />
		<tag k="place" v="locality" />
		<tag k="ssr:stedsnr" v="386950" />
	</node>
	<node id="-187405" lat="59.7788555562" lon="10.0037083273">
		<tag k="name" v="Mælen" />
		<tag k="natural" v="slope" />
		<tag k="place" v="locality" />
		<tag k="ssr:stedsnr" v="386910" />
	</node>
	<node id="-187404" lat="59.7509472221" lon="10.0531472191">
		<tag k="name" v="Ryggkollen" />
		<tag k="natural" v="ridge" />
		<tag k="place" v="locality" />
		<tag k="ssr:stedsnr" v="386904" />
	</node>
	<node id="-187403" lat="59.7461694433" lon="10.1018305516">
		<tag k="name" v="Nygård" />
		<tag k="place" v="farm" />
		<tag k="ssr:stedsnr" v="386598" />
	</node>
	<node id="-187402" lat="59.7543805579" lon="10.1029194429">
		<tag k="name" v="Strandhagen gartneri" />
		<tag k="place" v="farm" />
		<tag k="ssr:stedsnr" v="386571" />
	</node>
	<node id="-187401" lat="59.7346027786" lon="10.0948555539">
		<tag k="name" v="Toppen" />
		<tag k="place" v="isolated_dwelling" />
		<tag k="ssr:stedsnr" v="386551" />
	</node>
	<node id="-187400" lat="59.7568638911" lon="9.95410834052">
		<tag k="alt_name" v="Skistad nedre" />
		<tag k="name" v="Nedre Skistad" />
		<tag k="place" v="farm" />
		<tag k="ssr:stedsnr" v="386498" />
	</node>
	<node id="-187399" lat="59.7753638847" lon="10.0636305611">
		<tag k="name" v="Kjevlingen" />
		<tag k="natural" v="valley" />
		<tag k="place" v="locality" />
		<tag k="ssr:stedsnr" v="386480" />
	</node>
	<node id="-187398" lat="59.7866472225" lon="10.0780416653">
		<tag k="name" v="Eggebekkmyra" />
		<tag k="natural" v="wetland" />
		<tag k="ssr:stedsnr" v="386479" />
	</node>
	<node id="-187397" lat="59.7545527821" lon="9.9669638869">
		<tag k="name" v="Nedberg" />
		<tag k="place" v="farm" />
		<tag k="ssr:stedsnr" v="386477" />
	</node>
	<node id="-187396" lat="59.7581782185" lon="9.9623847666">
		<tag k="name" v="Steinberg" />
		<tag k="place" v="farm" />
		<tag k="ssr:stedsnr" v="368630" />
	</node>
	<node id="-187395" lat="59.8393666643" lon="10.0306888928">
		<tag k="fixme" v="consider natural=peak for the most distinct mountains in the district" />
		<tag k="name" v="Kampen" />
		<tag k="natural" v="hill" />
		<tag k="place" v="locality" />
		<tag k="ssr:stedsnr" v="368319" />
	</node>
	<node id="-187394" lat="59.7996055598" lon="10.09323056">
		<tag k="name" v="Marivannet" />
		<tag k="natural" v="water" />
		<tag k="ssr:stedsnr" v="368276" />
	</node>
	<node id="-187393" lat="59.7396499974" lon="10.0572083387">
		<tag k="alt_name" v="Strykenåsen" />
		<tag k="fixme" v="consider natural=peak for the most distinct mountains in the district" />
		<tag k="name" v="Strykåsen" />
		<tag k="natural" v="hill" />
		<tag k="place" v="locality" />
		<tag k="ssr:stedsnr" v="367307" />
	</node>
	<node id="-187392" lat="59.7030500005" lon="10.019177769">
		<tag k="fixme" v="consider natural=peak for the most distinct mountains in the district" />
		<tag k="name" v="Røysåsen" />
		<tag k="natural" v="hill" />
		<tag k="place" v="locality" />
		<tag k="ssr:stedsnr" v="367232" />
	</node>
	<node id="-187391" lat="59.718311111" lon="10.044574996">
		<tag k="fixme" v="consider natural=peak for the most distinct mountains in the district" />
		<tag k="name" v="Bremsåsen" />
		<tag k="natural" v="hill" />
		<tag k="place" v="locality" />
		<tag k="ssr:stedsnr" v="367218" />
	</node>
	<node id="-187390" lat="59.7299499974" lon="9.98556666094">
		<tag k="name" v="Portåsen" />
		<tag k="place" v="farm" />
		<tag k="ssr:stedsnr" v="367203" />
	</node>
	<node id="-187389" lat="59.7503047764" lon="10.117487497">
		<tag k="alt_name" v="Langøya" />
		<tag k="name" v="Langesøya" />
		<tag k="old_name" v="Langøen" />
		<tag k="place" v="island" />
		<tag k="ssr:stedsnr" v="366367" />
	</node>
	<node id="-187388" lat="59.746305558" lon="10.0421222261">
		<tag k="bridge" v="yes" />
		<tag k="layer" v="1" />
		<tag k="name" v="Rygh" />
		<tag k="ssr:stedsnr" v="349964" />
	</node>
	<node id="-187387" lat="59.6809083349" lon="10.0223499982">
		<tag k="name" v="Eftasmyra" />
		<tag k="natural" v="wetland" />
		<tag k="ssr:stedsnr" v="331147" />
	</node>
	<node id="-187386" lat="59.8164861132" lon="10.0289722156">
		<tag k="name" v="Temtetangen" />
		<tag k="natural" v="cape" />
		<tag k="ssr:stedsnr" v="329488" />
	</node>
	<node id="-187385" lat="59.8234777811" lon="10.0052777742">
		<tag k="name" v="Vesle Øyvann" />
		<tag k="natural" v="water" />
		<tag k="ssr:stedsnr" v="329486" />
	</node>
	<node id="-187384" lat="59.722886113" lon="10.0186972233">
		<tag k="name" v="Hansebråten" />
		<tag k="natural" v="hill" />
		<tag k="place" v="locality" />
		<tag k="ssr:stedsnr" v="326970" />
	</node>
	<node id="-187383" lat="59.7473008416" lon="9.98404211625">
		<tag k="fixme" v="consider place=hamlet" />
		<tag k="name" v="Skalpe" />
		<tag k="place" v="farm" />
		<tag k="ssr:stedsnr" v="326804" />
	</node>
	<node id="-187382" lat="59.7252305512" lon="10.0575361171">
		<tag k="name" v="Dalevika" />
		<tag k="natural" v="bay" />
		<tag k="ssr:stedsnr" v="326610" />
	</node>
	<node id="-187381" lat="59.7356722201" lon="10.0446138864">
		<tag k="name" v="Olsesetra" />
		<tag k="place" v="farm" />
		<tag k="ssr:stedsnr" v="326585" />
	</node>
	<node id="-187380" lat="59.7587944475" lon="9.97206666335">
		<tag k="amenity" v="school" />
		<tag k="name" v="Steinberg skole" />
		<tag k="ssr:stedsnr" v="326540" />
	</node>
	<node id="-187379" lat="59.7781416625" lon="10.0518166683">
		<tag k="name" v="Høymyr" />
		<tag k="natural" v="wetland" />
		<tag k="ssr:stedsnr" v="326527" />
	</node>
	<node id="-187378" lat="59.7637444445" lon="9.96810833541">
		<tag k="name" v="Holmen" />
		<tag k="place" v="farm" />
		<tag k="ssr:stedsnr" v="326525" />
	</node>
	<node id="-187377" lat="59.8023749996" lon="9.99547777489">
		<tag k="name" v="Horgensetertjern" />
		<tag k="natural" v="water" />
		<tag k="ssr:stedsnr" v="307266" />
	</node>
	<node id="-187376" lat="59.7794277776" lon="10.0133472211">
		<tag k="name" v="Lampetjern" />
		<tag k="natural" v="water" />
		<tag k="ssr:stedsnr" v="307166" />
	</node>
	<node id="-187375" lat="59.7507472253" lon="10.0247666705">
		<tag k="name" v="Mjøndalen" />
		<tag k="place" v="village" />
		<tag k="ssr:stedsnr" v="306356" />
	</node>
	<node id="-187374" lat="59.7027749966" lon="10.0575555483">
		<tag k="name" v="Katthusmyra" />
		<tag k="natural" v="wetland" />
		<tag k="ssr:stedsnr" v="306305" />
	</node>
	<node id="-187373" lat="59.705916667" lon="9.99710278121">
		<tag k="name" v="Brillene" />
		<tag k="natural" v="hill" />
		<tag k="place" v="locality" />
		<tag k="ssr:stedsnr" v="306266" />
	</node>
	<node id="-187372" lat="59.7173888922" lon="10.0773972241">
		<tag k="name" v="Kavlemyra" />
		<tag k="natural" v="wetland" />
		<tag k="ssr:stedsnr" v="306242" />
	</node>
	<node id="-187371" lat="59.6779293626" lon="10.0308386121">
		<tag k="name" v="Nysetertjern" />
		<tag k="natural" v="water" />
		<tag k="ssr:stedsnr" v="306221" />
	</node>
	<node id="-187370" lat="59.6896916641" lon="10.0107305556">
		<tag k="alt_name" v="Esbergtjern" />
		<tag k="name" v="Espertjern" />
		<tag k="place" v="locality" />
		<tag k="ssr:stedsnr" v="306183" />
	</node>
	<node id="-187369" lat="59.755550003" lon="10.0322638868">
		<tag k="alt_name" v="Steinseth" />
		<tag k="bridge" v="yes" />
		<tag k="layer" v="1" />
		<tag k="name" v="Steinset" />
		<tag k="ssr:stedsnr" v="289974" />
	</node>
	<node id="-187368" lat="59.7483416664" lon="10.0058833296">
		<tag k="bridge" v="yes" />
		<tag k="layer" v="1" />
		<tag k="name" v="Veia" />
		<tag k="ssr:stedsnr" v="289972" />
	</node>
	<node id="-187367" lat="59.6808694445" lon="10.0165805643">
		<tag k="name" v="Kroktjern" />
		<tag k="natural" v="water" />
		<tag k="ssr:stedsnr" v="270154" />
	</node>
	<node id="-187366" lat="59.788527776" lon="10.0007916729">
		<tag k="name" v="Steinbergjuvet" />
		<tag k="natural" v="gorge" />
		<tag k="ssr:stedsnr" v="269766" />
	</node>
</osm>
