<?xml version="1.0" encoding="UTF-8"?>
<osm generator="osmapis" version="0.6">
	<node id="-75904" lat="60.864530559" lon="11.5774138975">
		<tag k="name" v="Bureiserfeltet" />
		<tag k="ssr:date" v="2019-05-30" />
		<tag k="ssr:gruppe" v="veg" />
		<tag k="ssr:hovedgruppe" v="infrastruktur" />
		<tag k="ssr:stedsnr" v="907388" />
		<tag k="ssr:type" v="adressenavn" />
	</node>
	<node id="-74368" lat="60.8319666686" lon="11.6535888866">
		<tag k="name" v="Sigdtjernvegen" />
		<tag k="ssr:date" v="2019-05-30" />
		<tag k="ssr:gruppe" v="veg" />
		<tag k="ssr:hovedgruppe" v="infrastruktur" />
		<tag k="ssr:stedsnr" v="222473" />
		<tag k="ssr:type" v="adressenavn" />
	</node>
	<node id="-73470" lat="60.8815888912" lon="11.563141658">
		<tag k="name" v="Elverum kommune" />
		<tag k="ssr:date" v="2016-05-10" />
		<tag k="ssr:gruppe" v="administrativeIndelinger" />
		<tag k="ssr:hovedgruppe" v="offentligAdministrasjon" />
		<tag k="ssr:stedsnr" v="329046" />
		<tag k="ssr:type" v="kommune" />
	</node>
	<node id="-73725" lat="60.8816232311" lon="11.5648773071">
		<tag k="name" v="Ole Paus' gate" />
		<tag k="ssr:date" v="2019-12-10" />
		<tag k="ssr:gruppe" v="veg" />
		<tag k="ssr:hovedgruppe" v="infrastruktur" />
		<tag k="ssr:stedsnr" v="1073958" />
		<tag k="ssr:type" v="adressenavn" />
	</node>
	<node id="-75383" lat="60.8506388891" lon="11.7878805593">
		<tag k="name" v="Sør-Agåsen" />
		<tag k="ssr:date" v="2019-05-30" />
		<tag k="ssr:gruppe" v="veg" />
		<tag k="ssr:hovedgruppe" v="infrastruktur" />
		<tag k="ssr:stedsnr" v="708620" />
		<tag k="ssr:type" v="adressenavn" />
	</node>
	<node id="-74217" lat="60.8294749981" lon="11.6061277788">
		<tag k="name" v="Kraftvegen" />
		<tag k="ssr:date" v="2019-05-30" />
		<tag k="ssr:gruppe" v="veg" />
		<tag k="ssr:hovedgruppe" v="infrastruktur" />
		<tag k="ssr:stedsnr" v="163862" />
		<tag k="ssr:type" v="adressenavn" />
	</node>
	<node id="-74430" lat="60.8800444485" lon="11.5721444474">
		<tag k="name" v="Jotunvegen" />
		<tag k="ssr:date" v="2019-05-30" />
		<tag k="ssr:gruppe" v="veg" />
		<tag k="ssr:hovedgruppe" v="infrastruktur" />
		<tag k="ssr:stedsnr" v="239874" />
		<tag k="ssr:type" v="adressenavn" />
	</node>
	<node id="-74737" lat="60.9115777778" lon="11.8023388813">
		<tag k="name" v="Lisjøvegen" />
		<tag k="ssr:date" v="2019-05-30" />
		<tag k="ssr:gruppe" v="veg" />
		<tag k="ssr:hovedgruppe" v="infrastruktur" />
		<tag k="ssr:stedsnr" v="466666" />
		<tag k="ssr:type" v="adressenavn" />
	</node>
	<node id="-74862" lat="60.8979527761" lon="11.518800007">
		<tag k="name" v="Duevegen" />
		<tag k="ssr:date" v="2019-05-30" />
		<tag k="ssr:gruppe" v="veg" />
		<tag k="ssr:hovedgruppe" v="infrastruktur" />
		<tag k="ssr:stedsnr" v="525288" />
		<tag k="ssr:type" v="adressenavn" />
	</node>
	<node id="-73837" lat="60.8257611132" lon="11.5769777837">
		<tag k="name" v="Skjærsjøen" />
		<tag k="ssr:date" v="2019-05-30" />
		<tag k="ssr:gruppe" v="veg" />
		<tag k="ssr:hovedgruppe" v="infrastruktur" />
		<tag k="ssr:stedsnr" v="40547" />
		<tag k="ssr:type" v="adressenavn" />
	</node>
	<node id="-74371" lat="60.9846527788" lon="11.4982861074">
		<tag k="name" v="Strandsætervegen" />
		<tag k="ssr:date" v="2019-05-30" />
		<tag k="ssr:gruppe" v="veg" />
		<tag k="ssr:hovedgruppe" v="infrastruktur" />
		<tag k="ssr:stedsnr" v="222760" />
		<tag k="ssr:type" v="adressenavn" />
	</node>
	<node id="-75879" lat="60.99967222" lon="11.5978722277">
		<tag k="name" v="Herstadsætra" />
		<tag k="ssr:date" v="2019-05-30" />
		<tag k="ssr:gruppe" v="veg" />
		<tag k="ssr:hovedgruppe" v="infrastruktur" />
		<tag k="ssr:stedsnr" v="909804" />
		<tag k="ssr:type" v="adressenavn" />
	</node>
	<node id="-74725" lat="60.7888555543" lon="11.479352777">
		<tag k="name" v="Østre Skogbygdveg" />
		<tag k="ssr:date" v="2019-05-30" />
		<tag k="ssr:gruppe" v="veg" />
		<tag k="ssr:hovedgruppe" v="infrastruktur" />
		<tag k="ssr:stedsnr" v="465397" />
		<tag k="ssr:type" v="adressenavn" />
	</node>
	<node id="-73838" lat="60.7544055547" lon="11.6509777821">
		<tag k="name" v="Bjølsetsætra" />
		<tag k="ssr:date" v="2019-05-30" />
		<tag k="ssr:gruppe" v="veg" />
		<tag k="ssr:hovedgruppe" v="infrastruktur" />
		<tag k="ssr:stedsnr" v="40812" />
		<tag k="ssr:type" v="adressenavn" />
	</node>
	<node id="-74080" lat="60.9329111075" lon="11.8909500023">
		<tag k="name" v="Rustavegen" />
		<tag k="ssr:date" v="2019-05-30" />
		<tag k="ssr:gruppe" v="veg" />
		<tag k="ssr:hovedgruppe" v="infrastruktur" />
		<tag k="ssr:stedsnr" v="118489" />
		<tag k="ssr:type" v="adressenavn" />
	</node>
	<node id="-74079" lat="61.0898222205" lon="11.5885472179">
		<tag k="name" v="Ryssjøvegen" />
		<tag k="ssr:date" v="2019-05-30" />
		<tag k="ssr:gruppe" v="veg" />
		<tag k="ssr:hovedgruppe" v="infrastruktur" />
		<tag k="ssr:stedsnr" v="118486" />
		<tag k="ssr:type" v="adressenavn" />
	</node>
	<node id="-74078" lat="60.8910472219" lon="11.9411527798">
		<tag k="name" v="Houmsvegen" />
		<tag k="ssr:date" v="2019-05-30" />
		<tag k="ssr:gruppe" v="veg" />
		<tag k="ssr:hovedgruppe" v="infrastruktur" />
		<tag k="ssr:stedsnr" v="118069" />
		<tag k="ssr:type" v="adressenavn" />
	</node>
	<node id="-74205" lat="61.1209805536" lon="11.8190555549">
		<tag k="name" v="Graslandet" />
		<tag k="ssr:date" v="2019-05-30" />
		<tag k="ssr:gruppe" v="veg" />
		<tag k="ssr:hovedgruppe" v="infrastruktur" />
		<tag k="ssr:stedsnr" v="161775" />
		<tag k="ssr:type" v="adressenavn" />
	</node>
	<node id="-76124" lat="60.5908609473" lon="9.63819281559">
		<tag k="fixme" v="multiple name tags, choose one and add the other to alt_name" />
		<tag k="name" v="Austlandet;Østlandet" />
		<tag k="ssr:date" v="2018-01-09" />
		<tag k="ssr:gruppe" v="administrativeIndelinger" />
		<tag k="ssr:hovedgruppe" v="offentligAdministrasjon" />
		<tag k="ssr:stedsnr" v="974775" />
		<tag k="ssr:type" v="annenAdministrativInndeling" />
	</node>
	<node id="-75226" lat="60.8646388909" lon="11.5585972166">
		<tag k="name" v="Bjørnebovegen" />
		<tag k="ssr:date" v="2019-05-30" />
		<tag k="ssr:gruppe" v="veg" />
		<tag k="ssr:hovedgruppe" v="infrastruktur" />
		<tag k="ssr:stedsnr" v="648483" />
		<tag k="ssr:type" v="adressenavn" />
	</node>
	<node id="-75609" lat="60.8768361146" lon="11.6605944383">
		<tag k="name" v="Hospitsvegen" />
		<tag k="ssr:date" v="2019-05-30" />
		<tag k="ssr:gruppe" v="veg" />
		<tag k="ssr:hovedgruppe" v="infrastruktur" />
		<tag k="ssr:stedsnr" v="787817" />
		<tag k="ssr:type" v="adressenavn" />
	</node>
	<node id="-75224" lat="60.8570277758" lon="11.9434444448">
		<tag k="name" v="Kynndalsvegen" />
		<tag k="ssr:date" v="2019-05-30" />
		<tag k="ssr:gruppe" v="veg" />
		<tag k="ssr:hovedgruppe" v="infrastruktur" />
		<tag k="ssr:stedsnr" v="648098" />
		<tag k="ssr:type" v="adressenavn" />
	</node>
	<node id="-73731" lat="61.0648178395" lon="12.0103005702">
		<tag k="name" v="Akersvegen" />
		<tag k="ssr:date" v="2019-05-30" />
		<tag k="ssr:gruppe" v="veg" />
		<tag k="ssr:hovedgruppe" v="infrastruktur" />
		<tag k="ssr:stedsnr" v="1004886" />
		<tag k="ssr:type" v="adressenavn" />
	</node>
	<node id="-73552" lat="61.0207472212" lon="11.6504083307">
		<tag k="name" v="Nøtselsætervegen" />
		<tag k="ssr:date" v="2019-05-30" />
		<tag k="ssr:gruppe" v="veg" />
		<tag k="ssr:hovedgruppe" v="infrastruktur" />
		<tag k="ssr:stedsnr" v="362545" />
		<tag k="ssr:type" v="adressenavn" />
	</node>
	<node id="-73735" lat="61.0525310255" lon="12.065995138">
		<tag k="name" v="Håberget" />
		<tag k="ssr:date" v="2019-05-30" />
		<tag k="ssr:gruppe" v="veg" />
		<tag k="ssr:hovedgruppe" v="infrastruktur" />
		<tag k="ssr:stedsnr" v="1006619" />
		<tag k="ssr:type" v="adressenavn" />
	</node>
	<node id="-73676" lat="61.050808337" lon="11.937511117">
		<tag k="name" v="Svankjølknappvegen" />
		<tag k="ssr:date" v="2019-05-30" />
		<tag k="ssr:gruppe" v="veg" />
		<tag k="ssr:hovedgruppe" v="infrastruktur" />
		<tag k="ssr:stedsnr" v="406621" />
		<tag k="ssr:type" v="adressenavn" />
	</node>
	<node id="-73737" lat="60.9939895269" lon="11.3380926986">
		<tag k="name" v="Nordhue" />
		<tag k="ssr:date" v="2019-05-30" />
		<tag k="ssr:gruppe" v="veg" />
		<tag k="ssr:hovedgruppe" v="infrastruktur" />
		<tag k="ssr:stedsnr" v="1007524" />
		<tag k="ssr:type" v="adressenavn" />
	</node>
	<node id="-74871" lat="60.9701527808" lon="11.8953500023">
		<tag k="name" v="Rensjøvegen" />
		<tag k="ssr:date" v="2019-05-30" />
		<tag k="ssr:gruppe" v="veg" />
		<tag k="ssr:hovedgruppe" v="infrastruktur" />
		<tag k="ssr:stedsnr" v="525510" />
		<tag k="ssr:type" v="adressenavn" />
	</node>
	<node id="-75720" lat="61.0237194404" lon="11.8623500079">
		<tag k="name" v="Kjæstadvegen" />
		<tag k="ssr:date" v="2019-05-30" />
		<tag k="ssr:gruppe" v="veg" />
		<tag k="ssr:hovedgruppe" v="infrastruktur" />
		<tag k="ssr:stedsnr" v="831820" />
		<tag k="ssr:type" v="adressenavn" />
	</node>
	<node id="-73284" lat="60.9917694425" lon="11.4699861177">
		<tag k="name" v="Gobakkvegen" />
		<tag k="ssr:date" v="2019-05-30" />
		<tag k="ssr:gruppe" v="veg" />
		<tag k="ssr:hovedgruppe" v="infrastruktur" />
		<tag k="ssr:stedsnr" v="283769" />
		<tag k="ssr:type" v="adressenavn" />
	</node>
	<node id="-75062" lat="61.032011112" lon="11.5416694363">
		<tag k="name" v="Kråkbergsvegen" />
		<tag k="ssr:date" v="2019-05-30" />
		<tag k="ssr:gruppe" v="veg" />
		<tag k="ssr:hovedgruppe" v="infrastruktur" />
		<tag k="ssr:stedsnr" v="587879" />
		<tag k="ssr:type" v="adressenavn" />
	</node>
	<node id="-74946" lat="61.0102249982" lon="11.8179750083">
		<tag k="name" v="Karibrennavegen" />
		<tag k="ssr:date" v="2019-05-30" />
		<tag k="ssr:gruppe" v="veg" />
		<tag k="ssr:hovedgruppe" v="infrastruktur" />
		<tag k="ssr:stedsnr" v="544850" />
		<tag k="ssr:type" v="adressenavn" />
	</node>
	<node id="-73739" lat="60.9138582818" lon="11.6816705312">
		<tag k="name" v="Aarstadvegen" />
		<tag k="ssr:date" v="2019-05-30" />
		<tag k="ssr:gruppe" v="veg" />
		<tag k="ssr:hovedgruppe" v="infrastruktur" />
		<tag k="ssr:stedsnr" v="1008125" />
		<tag k="ssr:type" v="adressenavn" />
	</node>
	<node id="-73662" lat="61.0322472213" lon="11.8761583284">
		<tag k="name" v="Agnåsvegen" />
		<tag k="ssr:date" v="2019-05-30" />
		<tag k="ssr:gruppe" v="veg" />
		<tag k="ssr:hovedgruppe" v="infrastruktur" />
		<tag k="ssr:stedsnr" v="404682" />
		<tag k="ssr:type" v="adressenavn" />
	</node>
	<node id="-75709" lat="61.0436750023" lon="11.7348000058">
		<tag k="name" v="Skarpbergsvegen" />
		<tag k="ssr:date" v="2019-05-30" />
		<tag k="ssr:gruppe" v="veg" />
		<tag k="ssr:hovedgruppe" v="infrastruktur" />
		<tag k="ssr:stedsnr" v="829566" />
		<tag k="ssr:type" v="adressenavn" />
	</node>
	<node id="-75708" lat="61.0512888899" lon="11.9368138862">
		<tag k="name" v="Rogstadbakkvollen" />
		<tag k="ssr:date" v="2019-05-30" />
		<tag k="ssr:gruppe" v="veg" />
		<tag k="ssr:hovedgruppe" v="infrastruktur" />
		<tag k="ssr:stedsnr" v="829533" />
		<tag k="ssr:type" v="adressenavn" />
	</node>
	<node id="-73738" lat="60.8317417342" lon="11.905437529">
		<tag k="name" v="Nord-Flatåsen" />
		<tag k="ssr:date" v="2019-05-30" />
		<tag k="ssr:gruppe" v="veg" />
		<tag k="ssr:hovedgruppe" v="infrastruktur" />
		<tag k="ssr:stedsnr" v="1007526" />
		<tag k="ssr:type" v="adressenavn" />
	</node>
	<node id="-75446" lat="60.8823944475" lon="11.6319000018">
		<tag k="name" v="Årtjennsvegen" />
		<tag k="ssr:date" v="2019-05-30" />
		<tag k="ssr:gruppe" v="veg" />
		<tag k="ssr:hovedgruppe" v="infrastruktur" />
		<tag k="ssr:stedsnr" v="726568" />
		<tag k="ssr:type" v="adressenavn" />
	</node>
	<node id="-74569" lat="60.9015361103" lon="11.5945638938">
		<tag k="name" v="Motrevegen" />
		<tag k="ssr:date" v="2019-05-30" />
		<tag k="ssr:gruppe" v="veg" />
		<tag k="ssr:hovedgruppe" v="infrastruktur" />
		<tag k="ssr:stedsnr" v="419206" />
		<tag k="ssr:type" v="adressenavn" />
	</node>
	<node id="-74035" lat="61.0821888852" lon="11.8361916574">
		<tag k="name" v="Nysætra" />
		<tag k="ssr:date" v="2019-05-30" />
		<tag k="ssr:gruppe" v="veg" />
		<tag k="ssr:hovedgruppe" v="infrastruktur" />
		<tag k="ssr:stedsnr" v="102772" />
		<tag k="ssr:type" v="adressenavn" />
	</node>
	<node id="-75058" lat="61.0580916637" lon="11.6143500081">
		<tag k="name" v="Strandkjølvegen" />
		<tag k="ssr:date" v="2019-05-30" />
		<tag k="ssr:gruppe" v="veg" />
		<tag k="ssr:hovedgruppe" v="infrastruktur" />
		<tag k="ssr:stedsnr" v="587618" />
		<tag k="ssr:type" v="adressenavn" />
	</node>
	<node id="-74031" lat="61.1661666695" lon="11.746594449">
		<tag k="name" v="Fuglbergsvegen" />
		<tag k="ssr:date" v="2019-05-30" />
		<tag k="ssr:gruppe" v="veg" />
		<tag k="ssr:hovedgruppe" v="infrastruktur" />
		<tag k="ssr:stedsnr" v="102249" />
		<tag k="ssr:type" v="adressenavn" />
	</node>
	<node id="-76073" lat="60.7885138928" lon="11.650047218">
		<tag k="name" v="Stormyrvegen" />
		<tag k="ssr:date" v="2019-05-30" />
		<tag k="ssr:gruppe" v="veg" />
		<tag k="ssr:hovedgruppe" v="infrastruktur" />
		<tag k="ssr:stedsnr" v="966437" />
		<tag k="ssr:type" v="adressenavn" />
	</node>
	<node id="-74022" lat="60.9267138909" lon="11.9050249923">
		<tag k="name" v="Sørsætervegen" />
		<tag k="ssr:date" v="2019-05-30" />
		<tag k="ssr:gruppe" v="veg" />
		<tag k="ssr:hovedgruppe" v="infrastruktur" />
		<tag k="ssr:stedsnr" v="101605" />
		<tag k="ssr:type" v="adressenavn" />
	</node>
	<node id="-74277" lat="60.7995138925" lon="11.7813972166">
		<tag k="name" v="Borgåsvegen" />
		<tag k="ssr:date" v="2019-05-30" />
		<tag k="ssr:gruppe" v="veg" />
		<tag k="ssr:hovedgruppe" v="infrastruktur" />
		<tag k="ssr:stedsnr" v="180986" />
		<tag k="ssr:type" v="adressenavn" />
	</node>
	<node id="-74019" lat="61.1090250035" lon="11.5536999991">
		<tag k="name" v="Blikbergsvegen" />
		<tag k="ssr:date" v="2019-05-30" />
		<tag k="ssr:gruppe" v="veg" />
		<tag k="ssr:hovedgruppe" v="infrastruktur" />
		<tag k="ssr:stedsnr" v="100744" />
		<tag k="ssr:type" v="adressenavn" />
	</node>
	<node id="-75554" lat="60.8691555538" lon="11.8557916682">
		<tag k="name" v="Kvasstadsætervegen" />
		<tag k="ssr:date" v="2019-05-30" />
		<tag k="ssr:gruppe" v="veg" />
		<tag k="ssr:hovedgruppe" v="infrastruktur" />
		<tag k="ssr:stedsnr" v="770861" />
		<tag k="ssr:type" v="adressenavn" />
	</node>
	<node id="-75296" lat="60.8727111106" lon="11.8782583291">
		<tag k="name" v="Gardbergsvegen" />
		<tag k="ssr:date" v="2019-05-30" />
		<tag k="ssr:gruppe" v="veg" />
		<tag k="ssr:hovedgruppe" v="infrastruktur" />
		<tag k="ssr:stedsnr" v="666976" />
		<tag k="ssr:type" v="adressenavn" />
	</node>
	<node id="-73886" lat="61.0645111122" lon="11.839486104">
		<tag k="name" v="Monsfallia" />
		<tag k="ssr:date" v="2019-05-30" />
		<tag k="ssr:gruppe" v="veg" />
		<tag k="ssr:hovedgruppe" v="infrastruktur" />
		<tag k="ssr:stedsnr" v="57677" />
		<tag k="ssr:type" v="adressenavn" />
	</node>
	<node id="-75076" lat="60.9832194477" lon="11.751536117">
		<tag k="name" v="Skogen" />
		<tag k="ssr:date" v="2019-05-30" />
		<tag k="ssr:gruppe" v="veg" />
		<tag k="ssr:hovedgruppe" v="infrastruktur" />
		<tag k="ssr:stedsnr" v="601157" />
		<tag k="ssr:type" v="adressenavn" />
	</node>
	<node id="-74396" lat="60.9872916694" lon="11.8524861054">
		<tag k="name" v="Nøtbergsætra" />
		<tag k="ssr:date" v="2019-05-30" />
		<tag k="ssr:gruppe" v="veg" />
		<tag k="ssr:hovedgruppe" v="infrastruktur" />
		<tag k="ssr:stedsnr" v="237194" />
		<tag k="ssr:type" v="adressenavn" />
	</node>
	<node id="-74395" lat="61.0300027757" lon="11.8596749992">
		<tag k="name" v="Ulvådalsvegen" />
		<tag k="ssr:date" v="2019-05-30" />
		<tag k="ssr:gruppe" v="veg" />
		<tag k="ssr:hovedgruppe" v="infrastruktur" />
		<tag k="ssr:stedsnr" v="237466" />
		<tag k="ssr:type" v="adressenavn" />
	</node>
	<node id="-74394" lat="60.9310166626" lon="11.8841694495">
		<tag k="name" v="Vesterkjølvegen" />
		<tag k="ssr:date" v="2019-05-30" />
		<tag k="ssr:gruppe" v="veg" />
		<tag k="ssr:hovedgruppe" v="infrastruktur" />
		<tag k="ssr:stedsnr" v="237462" />
		<tag k="ssr:type" v="adressenavn" />
	</node>
	<node id="-73540" lat="60.922975002" lon="11.973991666">
		<tag k="name" v="Granåsvegen" />
		<tag k="ssr:date" v="2019-05-30" />
		<tag k="ssr:gruppe" v="veg" />
		<tag k="ssr:hovedgruppe" v="infrastruktur" />
		<tag k="ssr:stedsnr" v="361967" />
		<tag k="ssr:type" v="adressenavn" />
	</node>
	<node id="-75923" lat="60.8943749989" lon="11.7663472307">
		<tag k="name" v="Agåvegen" />
		<tag k="ssr:date" v="2019-05-30" />
		<tag k="ssr:gruppe" v="veg" />
		<tag k="ssr:hovedgruppe" v="infrastruktur" />
		<tag k="ssr:stedsnr" v="908160" />
		<tag k="ssr:type" v="adressenavn" />
	</node>
	<node id="-73854" lat="60.8562555549" lon="11.7606444467">
		<tag k="name" v="Europavegen" />
		<tag k="ssr:date" v="2019-05-30" />
		<tag k="ssr:gruppe" v="veg" />
		<tag k="ssr:hovedgruppe" v="infrastruktur" />
		<tag k="ssr:stedsnr" v="41933" />
		<tag k="ssr:type" v="adressenavn" />
	</node>
	<node id="-75395" lat="61.0486333305" lon="11.7919805619">
		<tag k="name" v="Knettlivegen" />
		<tag k="ssr:date" v="2019-05-30" />
		<tag k="ssr:gruppe" v="veg" />
		<tag k="ssr:hovedgruppe" v="infrastruktur" />
		<tag k="ssr:stedsnr" v="709856" />
		<tag k="ssr:type" v="adressenavn" />
	</node>
	<node id="-74381" lat="60.8530888858" lon="11.7753333378">
		<tag k="name" v="Nordre Agåssæter" />
		<tag k="ssr:date" v="2019-05-30" />
		<tag k="ssr:gruppe" v="veg" />
		<tag k="ssr:hovedgruppe" v="infrastruktur" />
		<tag k="ssr:stedsnr" v="223778" />
		<tag k="ssr:type" v="adressenavn" />
	</node>
	<node id="-75787" lat="60.8064916675" lon="11.7097694395">
		<tag k="name" v="Lømovegen" />
		<tag k="ssr:date" v="2019-05-30" />
		<tag k="ssr:gruppe" v="veg" />
		<tag k="ssr:hovedgruppe" v="infrastruktur" />
		<tag k="ssr:stedsnr" v="848696" />
		<tag k="ssr:type" v="adressenavn" />
	</node>
	<node id="-76042" lat="61.0323750012" lon="11.8747611193">
		<tag k="name" v="Ormåsvegen" />
		<tag k="ssr:date" v="2019-05-30" />
		<tag k="ssr:gruppe" v="veg" />
		<tag k="ssr:hovedgruppe" v="infrastruktur" />
		<tag k="ssr:stedsnr" v="950706" />
		<tag k="ssr:type" v="adressenavn" />
	</node>
	<node id="-76041" lat="61.0490194465" lon="11.7300361128">
		<tag k="name" v="Stabergsvegen" />
		<tag k="ssr:date" v="2019-05-30" />
		<tag k="ssr:gruppe" v="veg" />
		<tag k="ssr:hovedgruppe" v="infrastruktur" />
		<tag k="ssr:stedsnr" v="950577" />
		<tag k="ssr:type" v="adressenavn" />
	</node>
	<node id="-73736" lat="61.0479757591" lon="11.7447124044">
		<tag k="name" v="Ringsåsvegen" />
		<tag k="ssr:date" v="2019-05-30" />
		<tag k="ssr:gruppe" v="veg" />
		<tag k="ssr:hovedgruppe" v="infrastruktur" />
		<tag k="ssr:stedsnr" v="1007497" />
		<tag k="ssr:type" v="adressenavn" />
	</node>
	<node id="-75783" lat="60.9861166626" lon="11.5895499981">
		<tag k="name" v="Kålsætervegen" />
		<tag k="ssr:date" v="2019-05-30" />
		<tag k="ssr:gruppe" v="veg" />
		<tag k="ssr:hovedgruppe" v="infrastruktur" />
		<tag k="ssr:stedsnr" v="848584" />
		<tag k="ssr:type" v="adressenavn" />
	</node>
	<node id="-73734" lat="61.1333929989" lon="11.675936891">
		<tag k="name" v="Gransjøbergsvegen" />
		<tag k="ssr:date" v="2019-05-30" />
		<tag k="ssr:gruppe" v="veg" />
		<tag k="ssr:hovedgruppe" v="infrastruktur" />
		<tag k="ssr:stedsnr" v="1006058" />
		<tag k="ssr:type" v="adressenavn" />
	</node>
	<node id="-73733" lat="60.8924949532" lon="11.5835845687">
		<tag k="name" v="Granittgata" />
		<tag k="ssr:date" v="2019-05-30" />
		<tag k="ssr:gruppe" v="veg" />
		<tag k="ssr:hovedgruppe" v="infrastruktur" />
		<tag k="ssr:stedsnr" v="1006057" />
		<tag k="ssr:type" v="adressenavn" />
	</node>
	<node id="-73732" lat="61.0063767792" lon="12.0872463087">
		<tag k="name" v="Flisberget" />
		<tag k="ssr:date" v="2019-05-30" />
		<tag k="ssr:gruppe" v="veg" />
		<tag k="ssr:hovedgruppe" v="infrastruktur" />
		<tag k="ssr:stedsnr" v="1005584" />
		<tag k="ssr:type" v="adressenavn" />
	</node>
	<node id="-73475" lat="61.0846277816" lon="11.6077472176">
		<tag k="name" v="Grasbergvegen" />
		<tag k="ssr:date" v="2019-05-30" />
		<tag k="ssr:gruppe" v="veg" />
		<tag k="ssr:hovedgruppe" v="infrastruktur" />
		<tag k="ssr:stedsnr" v="342966" />
		<tag k="ssr:type" v="adressenavn" />
	</node>
	<node id="-74369" lat="60.900133331" lon="11.5499138886">
		<tag k="name" v="Prestøya" />
		<tag k="ssr:date" v="2019-05-30" />
		<tag k="ssr:gruppe" v="veg" />
		<tag k="ssr:hovedgruppe" v="infrastruktur" />
		<tag k="ssr:stedsnr" v="222482" />
		<tag k="ssr:type" v="adressenavn" />
	</node>
</osm>
