<?xml version="1.0" encoding="UTF-8"?>
<osm version="0.6" generator="osmapis">
	<node lat="67.10372194288742" lon="15.430506399447447" id="-19467">
		<tag k="old_name" v="Blodvegen" />
		<tag k="ssr:date" v="2019-05-30" />
		<tag k="ssr:gruppe" v="veg" />
		<tag k="ssr:hovedgruppe" v="infrastruktur" />
		<tag k="ssr:stedsnr" v="931226" />
		<tag k="ssr:type" v="adressenavn" />
	</node>
	<node lat="67.09668129073685" lon="15.400433183359862" id="-19565">
		<tag k="old_name" v="Ch D Kohmanns veg" />
		<tag k="ssr:date" v="2019-05-30" />
		<tag k="ssr:gruppe" v="veg" />
		<tag k="ssr:hovedgruppe" v="infrastruktur" />
		<tag k="ssr:stedsnr" v="1000680" />
		<tag k="ssr:type" v="adressenavn" />
	</node>
	<node lat="67.10106106467724" lon="15.392659071316727" id="-19570">
		<tag k="old_name" v="Parkvegen" />
		<tag k="ssr:date" v="2019-05-30" />
		<tag k="ssr:gruppe" v="veg" />
		<tag k="ssr:hovedgruppe" v="infrastruktur" />
		<tag k="ssr:stedsnr" v="1001226" />
		<tag k="ssr:type" v="adressenavn" />
	</node>
	<node lat="66.98261927465836" lon="15.312654478703834" id="-19571">
		<tag k="old_name" v="Jarbruvegen" />
		<tag k="ssr:date" v="2019-05-30" />
		<tag k="ssr:gruppe" v="veg" />
		<tag k="ssr:hovedgruppe" v="infrastruktur" />
		<tag k="ssr:stedsnr" v="1001265" />
		<tag k="ssr:type" v="adressenavn" />
	</node>
	<node lat="67.09156529854313" lon="15.375956007794226" id="-19574">
		<tag k="old_name" v="Prestegårdsvegen" />
		<tag k="ssr:date" v="2019-05-30" />
		<tag k="ssr:gruppe" v="veg" />
		<tag k="ssr:hovedgruppe" v="infrastruktur" />
		<tag k="ssr:stedsnr" v="1001176" />
		<tag k="ssr:type" v="adressenavn" />
	</node>
	<node lat="67.09682217952493" lon="15.421636019608005" id="-19578">
		<tag k="old_name" v="Sommerfelts veg" />
		<tag k="ssr:date" v="2019-05-30" />
		<tag k="ssr:gruppe" v="veg" />
		<tag k="ssr:hovedgruppe" v="infrastruktur" />
		<tag k="ssr:stedsnr" v="1001586" />
		<tag k="ssr:type" v="adressenavn" />
	</node>
	<node lat="67.09694628703008" lon="15.427588281287527" id="-19579">
		<tag k="old_name" v="Snevegen" />
		<tag k="ssr:date" v="2019-05-30" />
		<tag k="ssr:gruppe" v="veg" />
		<tag k="ssr:hovedgruppe" v="infrastruktur" />
		<tag k="ssr:stedsnr" v="1001588" />
		<tag k="ssr:type" v="adressenavn" />
	</node>
	<node lat="67.099062883843" lon="15.397013401116249" id="-19580">
		<tag k="old_name" v="Tyrivegen" />
		<tag k="ssr:date" v="2019-05-30" />
		<tag k="ssr:gruppe" v="veg" />
		<tag k="ssr:hovedgruppe" v="infrastruktur" />
		<tag k="ssr:stedsnr" v="1001716" />
		<tag k="ssr:type" v="adressenavn" />
	</node>
	<node lat="67.09268039214264" lon="15.379075813621991" id="-19581">
		<tag k="old_name" v="Tømmervegen" />
		<tag k="ssr:date" v="2019-05-30" />
		<tag k="ssr:gruppe" v="veg" />
		<tag k="ssr:hovedgruppe" v="infrastruktur" />
		<tag k="ssr:stedsnr" v="1001725" />
		<tag k="ssr:type" v="adressenavn" />
	</node>
	<node lat="67.10190840135479" lon="15.385856000401263" id="-19583">
		<tag k="old_name" v="Vikvegen" />
		<tag k="ssr:date" v="2019-05-30" />
		<tag k="ssr:gruppe" v="veg" />
		<tag k="ssr:hovedgruppe" v="infrastruktur" />
		<tag k="ssr:stedsnr" v="1001735" />
		<tag k="ssr:type" v="adressenavn" />
	</node>
	<node lat="67.10191834470376" lon="15.399971602489302" id="-19584">
		<tag k="old_name" v="Østengvegen" />
		<tag k="ssr:date" v="2019-05-30" />
		<tag k="ssr:gruppe" v="veg" />
		<tag k="ssr:hovedgruppe" v="infrastruktur" />
		<tag k="ssr:stedsnr" v="1001769" />
		<tag k="ssr:type" v="adressenavn" />
	</node>
	<node lat="67.10214082269474" lon="15.427357524347471" id="-19585">
		<tag k="old_name" v="Tunvegen" />
		<tag k="ssr:date" v="2019-05-30" />
		<tag k="ssr:gruppe" v="veg" />
		<tag k="ssr:hovedgruppe" v="infrastruktur" />
		<tag k="ssr:stedsnr" v="1001814" />
		<tag k="ssr:type" v="adressenavn" />
	</node>
	<node lat="67.09591365325113" lon="15.381283902736511" id="-19586">
		<tag k="old_name" v="Rønningvegen" />
		<tag k="ssr:date" v="2019-05-30" />
		<tag k="ssr:gruppe" v="veg" />
		<tag k="ssr:hovedgruppe" v="infrastruktur" />
		<tag k="ssr:stedsnr" v="1001868" />
		<tag k="ssr:type" v="adressenavn" />
	</node>
	<node lat="67.1018812874965" lon="15.397999509530246" id="-19589">
		<tag k="old_name" v="Sandbakkvegen" />
		<tag k="ssr:date" v="2019-05-30" />
		<tag k="ssr:gruppe" v="veg" />
		<tag k="ssr:hovedgruppe" v="infrastruktur" />
		<tag k="ssr:stedsnr" v="1002168" />
		<tag k="ssr:type" v="adressenavn" />
	</node>
	<node lat="67.09556295311533" lon="15.392005853418944" id="-20975">
		<tag k="old_name" v="Furuvegen" />
		<tag k="ssr:date" v="2019-05-30" />
		<tag k="ssr:gruppe" v="veg" />
		<tag k="ssr:hovedgruppe" v="infrastruktur" />
		<tag k="ssr:stedsnr" v="1000719" />
		<tag k="ssr:type" v="adressenavn" />
	</node>
	<node lat="67.09482967308622" lon="15.404321376173469" id="-20976">
		<tag k="old_name" v="Flyplassvegen" />
		<tag k="ssr:date" v="2019-05-30" />
		<tag k="ssr:gruppe" v="veg" />
		<tag k="ssr:hovedgruppe" v="infrastruktur" />
		<tag k="ssr:stedsnr" v="1000722" />
		<tag k="ssr:type" v="adressenavn" />
	</node>
	<node lat="66.99547415030601" lon="15.317146046327963" id="-20977">
		<tag k="old_name" v="Fløyvegen" />
		<tag k="ssr:date" v="2019-05-30" />
		<tag k="ssr:gruppe" v="veg" />
		<tag k="ssr:hovedgruppe" v="infrastruktur" />
		<tag k="ssr:stedsnr" v="1000735" />
		<tag k="ssr:type" v="adressenavn" />
	</node>
	<node lat="67.0898623108433" lon="15.37745259504502" id="-20978">
		<tag k="old_name" v="Fredheimvegen" />
		<tag k="ssr:date" v="2019-05-30" />
		<tag k="ssr:gruppe" v="veg" />
		<tag k="ssr:hovedgruppe" v="infrastruktur" />
		<tag k="ssr:stedsnr" v="1000740" />
		<tag k="ssr:type" v="adressenavn" />
	</node>
	<node lat="67.09366748312662" lon="15.38115554066438" id="-20979">
		<tag k="old_name" v="Engevegen" />
		<tag k="ssr:date" v="2019-05-30" />
		<tag k="ssr:gruppe" v="veg" />
		<tag k="ssr:hovedgruppe" v="infrastruktur" />
		<tag k="ssr:stedsnr" v="1000609" />
		<tag k="ssr:type" v="adressenavn" />
	</node>
	<node lat="66.99475184733163" lon="15.31983294414597" id="-20981">
		<tag k="old_name" v="Ekornvegen" />
		<tag k="ssr:date" v="2019-05-30" />
		<tag k="ssr:gruppe" v="veg" />
		<tag k="ssr:hovedgruppe" v="infrastruktur" />
		<tag k="ssr:stedsnr" v="1000629" />
		<tag k="ssr:type" v="adressenavn" />
	</node>
	<node lat="66.99630631760716" lon="15.318192230770144" id="-20984">
		<tag k="ssr:date" v="2019-05-30" />
		<tag k="ssr:gruppe" v="veg" />
		<tag k="ssr:hovedgruppe" v="infrastruktur" />
		<tag k="ssr:stedsnr" v="1000708" />
		<tag k="ssr:type" v="adressenavn" />
	</node>
	<node lat="67.07956855190508" lon="15.35159243874411" id="-20985">
		<tag k="old_name" v="Bregnevegen" />
		<tag k="ssr:date" v="2019-05-30" />
		<tag k="ssr:gruppe" v="veg" />
		<tag k="ssr:hovedgruppe" v="infrastruktur" />
		<tag k="ssr:stedsnr" v="1000847" />
		<tag k="ssr:type" v="adressenavn" />
	</node>
	<node lat="67.10156792039773" lon="15.385284011359468" id="-20987">
		<tag k="old_name" v="Dalvegen" />
		<tag k="ssr:date" v="2019-05-30" />
		<tag k="ssr:gruppe" v="veg" />
		<tag k="ssr:hovedgruppe" v="infrastruktur" />
		<tag k="ssr:stedsnr" v="1000658" />
		<tag k="ssr:type" v="adressenavn" />
	</node>
	<node lat="67.10107898041588" lon="15.394815025816921" id="-20988">
		<tag k="old_name" v="Osvegen" />
		<tag k="ssr:date" v="2019-05-30" />
		<tag k="ssr:gruppe" v="veg" />
		<tag k="ssr:hovedgruppe" v="infrastruktur" />
		<tag k="ssr:stedsnr" v="1000899" />
		<tag k="ssr:type" v="adressenavn" />
	</node>
	<node lat="67.09990364202558" lon="15.424612094776379" id="-20992">
		<tag k="old_name" v="Erling Engans veg" />
		<tag k="ssr:date" v="2019-05-30" />
		<tag k="ssr:gruppe" v="veg" />
		<tag k="ssr:hovedgruppe" v="infrastruktur" />
		<tag k="ssr:stedsnr" v="1000751" />
		<tag k="ssr:type" v="adressenavn" />
	</node>
	<node lat="67.08280125662692" lon="15.35615678903707" id="-20993">
		<tag k="old_name" v="Fiolvegen" />
		<tag k="ssr:date" v="2019-05-30" />
		<tag k="ssr:gruppe" v="veg" />
		<tag k="ssr:hovedgruppe" v="infrastruktur" />
		<tag k="ssr:stedsnr" v="1000755" />
		<tag k="ssr:type" v="adressenavn" />
	</node>
	<node lat="66.99916950308156" lon="15.32106726093525" id="-20994">
		<tag k="old_name" v="Fjellvegen" />
		<tag k="ssr:date" v="2019-05-30" />
		<tag k="ssr:gruppe" v="veg" />
		<tag k="ssr:hovedgruppe" v="infrastruktur" />
		<tag k="ssr:stedsnr" v="1000761" />
		<tag k="ssr:type" v="adressenavn" />
	</node>
	<node lat="67.09827699682742" lon="15.399381852111661" id="-20995">
		<tag k="old_name" v="Myrvegen" />
		<tag k="ssr:date" v="2019-05-30" />
		<tag k="ssr:gruppe" v="veg" />
		<tag k="ssr:hovedgruppe" v="infrastruktur" />
		<tag k="ssr:stedsnr" v="1000946" />
		<tag k="ssr:type" v="adressenavn" />
	</node>
	<node lat="67.08579673836779" lon="15.37743740363354" id="-20996">
		<tag k="old_name" v="Lagervegen" />
		<tag k="ssr:date" v="2019-05-30" />
		<tag k="ssr:gruppe" v="veg" />
		<tag k="ssr:hovedgruppe" v="infrastruktur" />
		<tag k="ssr:stedsnr" v="1001057" />
		<tag k="ssr:type" v="adressenavn" />
	</node>
	<node lat="66.97742000082151" lon="15.302556716716511" id="-20998">
		<tag k="old_name" v="Lillealmenningvegen" />
		<tag k="ssr:date" v="2019-05-30" />
		<tag k="ssr:gruppe" v="veg" />
		<tag k="ssr:hovedgruppe" v="infrastruktur" />
		<tag k="ssr:stedsnr" v="1001133" />
		<tag k="ssr:type" v="adressenavn" />
	</node>
	<node lat="67.09700856102121" lon="15.397551035322323" id="-21000">
		<tag k="old_name" v="Movegen" />
		<tag k="ssr:date" v="2019-05-30" />
		<tag k="ssr:gruppe" v="veg" />
		<tag k="ssr:hovedgruppe" v="infrastruktur" />
		<tag k="ssr:stedsnr" v="1001011" />
		<tag k="ssr:type" v="adressenavn" />
	</node>
	<node lat="67.09264938590867" lon="15.377586248680256" id="-21001">
		<tag k="old_name" v="Preben von Ahnens veg" />
		<tag k="ssr:date" v="2019-05-30" />
		<tag k="ssr:gruppe" v="veg" />
		<tag k="ssr:hovedgruppe" v="infrastruktur" />
		<tag k="ssr:stedsnr" v="1001208" />
		<tag k="ssr:type" v="adressenavn" />
	</node>
	<node lat="67.09904065262413" lon="15.389837578884533" id="-21002">
		<tag k="old_name" v="Høgbakkvegen" />
		<tag k="ssr:date" v="2019-05-30" />
		<tag k="ssr:gruppe" v="veg" />
		<tag k="ssr:hovedgruppe" v="infrastruktur" />
		<tag k="ssr:stedsnr" v="1001282" />
		<tag k="ssr:type" v="adressenavn" />
	</node>
	<node lat="67.09388836294863" lon="15.39480146996338" id="-21005">
		<tag k="old_name" v="Henrik Braseths veg" />
		<tag k="ssr:date" v="2019-05-30" />
		<tag k="ssr:gruppe" v="veg" />
		<tag k="ssr:hovedgruppe" v="infrastruktur" />
		<tag k="ssr:stedsnr" v="1001297" />
		<tag k="ssr:type" v="adressenavn" />
	</node>
	<node lat="67.10029286034093" lon="15.422622230070187" id="-21006">
		<tag k="old_name" v="Hilmar Hansens veg" />
		<tag k="ssr:date" v="2019-05-30" />
		<tag k="ssr:gruppe" v="veg" />
		<tag k="ssr:hovedgruppe" v="infrastruktur" />
		<tag k="ssr:stedsnr" v="1001298" />
		<tag k="ssr:type" v="adressenavn" />
	</node>
	<node lat="67.09678971748711" lon="15.39789722428684" id="-21010">
		<tag k="old_name" v="Idrettsvegen" />
		<tag k="ssr:date" v="2019-05-30" />
		<tag k="ssr:gruppe" v="veg" />
		<tag k="ssr:hovedgruppe" v="infrastruktur" />
		<tag k="ssr:stedsnr" v="1001258" />
		<tag k="ssr:type" v="adressenavn" />
	</node>
	<node lat="66.99541242910946" lon="15.31988082624768" id="-21012">
		<tag k="old_name" v="Konglevegen" />
		<tag k="ssr:date" v="2019-05-30" />
		<tag k="ssr:gruppe" v="veg" />
		<tag k="ssr:hovedgruppe" v="infrastruktur" />
		<tag k="ssr:stedsnr" v="1001349" />
		<tag k="ssr:type" v="adressenavn" />
	</node>
	<node lat="67.10052454789276" lon="15.414724663345325" id="-21013">
		<tag k="old_name" v="Junkervegen" />
		<tag k="ssr:date" v="2019-05-30" />
		<tag k="ssr:gruppe" v="veg" />
		<tag k="ssr:hovedgruppe" v="infrastruktur" />
		<tag k="ssr:stedsnr" v="1001458" />
		<tag k="ssr:type" v="adressenavn" />
	</node>
	<node lat="66.99465081535142" lon="15.319618372155476" id="-21017">
		<tag k="old_name" v="Stabburvegen" />
		<tag k="ssr:date" v="2019-05-30" />
		<tag k="ssr:gruppe" v="veg" />
		<tag k="ssr:hovedgruppe" v="infrastruktur" />
		<tag k="ssr:stedsnr" v="1001600" />
		<tag k="ssr:type" v="adressenavn" />
	</node>
	<node lat="67.09638065090662" lon="15.409327793346387" id="-21023">
		<tag k="old_name" v="Standardvegen" />
		<tag k="ssr:date" v="2019-05-30" />
		<tag k="ssr:gruppe" v="veg" />
		<tag k="ssr:hovedgruppe" v="infrastruktur" />
		<tag k="ssr:stedsnr" v="1001562" />
		<tag k="ssr:type" v="adressenavn" />
	</node>
	<node lat="67.09719889199441" lon="15.387304915794791" id="-21024">
		<tag k="old_name" v="Skolevegen" />
		<tag k="ssr:date" v="2019-05-30" />
		<tag k="ssr:gruppe" v="veg" />
		<tag k="ssr:hovedgruppe" v="infrastruktur" />
		<tag k="ssr:stedsnr" v="1001660" />
		<tag k="ssr:type" v="adressenavn" />
	</node>
	<node lat="67.1018812874965" lon="15.397999509530246" id="-21026">
		<tag k="old_name" v="Tjeldmyrvegen" />
		<tag k="ssr:date" v="2019-05-30" />
		<tag k="ssr:gruppe" v="veg" />
		<tag k="ssr:hovedgruppe" v="infrastruktur" />
		<tag k="ssr:stedsnr" v="1001772" />
		<tag k="ssr:type" v="adressenavn" />
	</node>
	<node lat="66.9950446999909" lon="15.31989366714837" id="-21027">
		<tag k="old_name" v="Tiurvegen" />
		<tag k="ssr:date" v="2019-05-30" />
		<tag k="ssr:gruppe" v="veg" />
		<tag k="ssr:hovedgruppe" v="infrastruktur" />
		<tag k="ssr:stedsnr" v="1001778" />
		<tag k="ssr:type" v="adressenavn" />
	</node>
	<node lat="67.1034855442566" lon="15.430114108606093" id="-21028">
		<tag k="old_name" v="Trygve Hoffs veg" />
		<tag k="ssr:date" v="2019-05-30" />
		<tag k="ssr:gruppe" v="veg" />
		<tag k="ssr:hovedgruppe" v="infrastruktur" />
		<tag k="ssr:stedsnr" v="1001785" />
		<tag k="ssr:type" v="adressenavn" />
	</node>
	<node lat="67.07876494208101" lon="15.351972630800324" id="-21029">
		<tag k="old_name" v="Røsslyngvegen" />
		<tag k="ssr:date" v="2019-05-30" />
		<tag k="ssr:gruppe" v="veg" />
		<tag k="ssr:hovedgruppe" v="infrastruktur" />
		<tag k="ssr:stedsnr" v="1001893" />
		<tag k="ssr:type" v="adressenavn" />
	</node>
	<node lat="67.09284625318946" lon="15.380509517482643" id="-21032">
		<tag k="old_name" v="Skogvegen" />
		<tag k="ssr:date" v="2019-05-30" />
		<tag k="ssr:gruppe" v="veg" />
		<tag k="ssr:hovedgruppe" v="infrastruktur" />
		<tag k="ssr:stedsnr" v="1002046" />
		<tag k="ssr:type" v="adressenavn" />
	</node>
	<node lat="67.10164861344876" lon="15.388816877624638" id="-21034">
		<tag k="old_name" v="Rognvegen" />
		<tag k="ssr:date" v="2019-05-30" />
		<tag k="ssr:gruppe" v="veg" />
		<tag k="ssr:hovedgruppe" v="infrastruktur" />
		<tag k="ssr:stedsnr" v="1001951" />
		<tag k="ssr:type" v="adressenavn" />
	</node>
	<node lat="67.09716568681385" lon="15.42809642875753" id="-21036">
		<tag k="ssr:date" v="2019-05-30" />
		<tag k="ssr:gruppe" v="veg" />
		<tag k="ssr:hovedgruppe" v="infrastruktur" />
		<tag k="ssr:stedsnr" v="1002111" />
		<tag k="ssr:type" v="adressenavn" />
	</node>
	<node lat="67.10090066903848" lon="15.423512594655337" id="-21037">
		<tag k="ssr:date" v="2019-05-30" />
		<tag k="ssr:gruppe" v="veg" />
		<tag k="ssr:hovedgruppe" v="infrastruktur" />
		<tag k="ssr:stedsnr" v="1002154" />
		<tag k="ssr:type" v="adressenavn" />
	</node>
	<node lat="66.98954174743938" lon="15.319433265063605" id="-21041">
		<tag k="ssr:date" v="2019-12-10" />
		<tag k="ssr:gruppe" v="veg" />
		<tag k="ssr:hovedgruppe" v="infrastruktur" />
		<tag k="ssr:stedsnr" v="1073957" />
		<tag k="ssr:type" v="adressenavn" />
	</node>
	<node lat="67.04975037603211" lon="15.289745737784342" id="-21053">
		<tag k="ssr:date" v="2021-03-01" />
		<tag k="ssr:gruppe" v="veg" />
		<tag k="ssr:hovedgruppe" v="infrastruktur" />
		<tag k="ssr:stedsnr" v="1076611" />
		<tag k="ssr:type" v="adressenavn" />
	</node>
	<node lat="67.07490799063002" lon="15.37190557871997" id="-21068">
		<tag k="old_name" v="Bjønnøvveien" />
		<tag k="ssr:date" v="2021-05-12" />
		<tag k="ssr:gruppe" v="veg" />
		<tag k="ssr:hovedgruppe" v="infrastruktur" />
		<tag k="ssr:stedsnr" v="1080122" />
		<tag k="ssr:type" v="adressenavn" />
	</node>
	<node lat="67.10578408330746" lon="15.46141011379023" id="-21069">
		<tag k="old_name" v="Saksenvikveien" />
		<tag k="ssr:date" v="2021-05-12" />
		<tag k="ssr:gruppe" v="veg" />
		<tag k="ssr:hovedgruppe" v="infrastruktur" />
		<tag k="ssr:stedsnr" v="1080123" />
		<tag k="ssr:type" v="adressenavn" />
	</node>
	<node lat="67.0309432775455" lon="15.367311964138946" id="-21071">
		<tag k="ssr:date" v="2021-02-23" />
		<tag k="ssr:gruppe" v="veg" />
		<tag k="ssr:hovedgruppe" v="infrastruktur" />
		<tag k="ssr:stedsnr" v="1080133" />
		<tag k="ssr:type" v="adressenavn" />
	</node>
	<node lat="67.09722077051055" lon="15.267223055676848" id="-21073">
		<tag k="ssr:date" v="2021-01-29" />
		<tag k="ssr:gruppe" v="veg" />
		<tag k="ssr:hovedgruppe" v="infrastruktur" />
		<tag k="ssr:stedsnr" v="1079804" />
		<tag k="ssr:type" v="adressenavn" />
	</node>
	<node lat="66.8519693917905" lon="15.047050879293206" id="-21077">
		<tag k="ssr:date" v="2021-01-29" />
		<tag k="ssr:gruppe" v="veg" />
		<tag k="ssr:hovedgruppe" v="infrastruktur" />
		<tag k="ssr:stedsnr" v="1079809" />
		<tag k="ssr:type" v="adressenavn" />
	</node>
	<node lat="66.73911161462536" lon="15.576735830476625" id="-21079">
		<tag k="ssr:date" v="2021-02-05" />
		<tag k="ssr:gruppe" v="veg" />
		<tag k="ssr:hovedgruppe" v="infrastruktur" />
		<tag k="ssr:stedsnr" v="1079881" />
		<tag k="ssr:type" v="adressenavn" />
	</node>
	<node lat="66.75254553806323" lon="15.425679037979448" id="-21080">
		<tag k="ssr:date" v="2021-02-05" />
		<tag k="ssr:gruppe" v="veg" />
		<tag k="ssr:hovedgruppe" v="infrastruktur" />
		<tag k="ssr:stedsnr" v="1079880" />
		<tag k="ssr:type" v="adressenavn" />
	</node>
	<node lat="67.17172698415472" lon="15.579754884901558" id="-21085">
		<tag k="ssr:date" v="2021-02-05" />
		<tag k="ssr:gruppe" v="veg" />
		<tag k="ssr:hovedgruppe" v="infrastruktur" />
		<tag k="ssr:stedsnr" v="1079889" />
		<tag k="ssr:type" v="adressenavn" />
	</node>
	<node lat="66.8686892368551" lon="15.3767342263882" id="-21093">
		<tag k="ssr:date" v="2021-02-11" />
		<tag k="ssr:gruppe" v="veg" />
		<tag k="ssr:hovedgruppe" v="infrastruktur" />
		<tag k="ssr:stedsnr" v="1079953" />
		<tag k="ssr:type" v="adressenavn" />
	</node>
	<node lat="67.04960459346427" lon="15.278373661463718" id="-21099">
		<tag k="ssr:date" v="2021-02-11" />
		<tag k="ssr:gruppe" v="veg" />
		<tag k="ssr:hovedgruppe" v="infrastruktur" />
		<tag k="ssr:stedsnr" v="1079960" />
		<tag k="ssr:type" v="adressenavn" />
	</node>
	<node lat="67.16674662019624" lon="15.485968224369516" id="-21101">
		<tag k="ssr:date" v="2021-02-16" />
		<tag k="ssr:gruppe" v="veg" />
		<tag k="ssr:hovedgruppe" v="infrastruktur" />
		<tag k="ssr:stedsnr" v="1080008" />
		<tag k="ssr:type" v="adressenavn" />
	</node>
	<node lat="67.12064663678508" lon="15.391416384614075" id="-21102">
		<tag k="ssr:date" v="2021-02-16" />
		<tag k="ssr:gruppe" v="veg" />
		<tag k="ssr:hovedgruppe" v="infrastruktur" />
		<tag k="ssr:stedsnr" v="1080009" />
		<tag k="ssr:type" v="adressenavn" />
	</node>
	<node lat="67.16292716473811" lon="15.494111315622161" id="-21103">
		<tag k="ssr:date" v="2021-02-16" />
		<tag k="ssr:gruppe" v="veg" />
		<tag k="ssr:hovedgruppe" v="infrastruktur" />
		<tag k="ssr:stedsnr" v="1080010" />
		<tag k="ssr:type" v="adressenavn" />
	</node>
	<node lat="67.13727969619165" lon="15.451931507710139" id="-21104">
		<tag k="old_name" v="Lunneveiein" />
		<tag k="ssr:date" v="2021-02-16" />
		<tag k="ssr:gruppe" v="veg" />
		<tag k="ssr:hovedgruppe" v="infrastruktur" />
		<tag k="ssr:stedsnr" v="1080011" />
		<tag k="ssr:type" v="adressenavn" />
	</node>
	<node lat="67.06151674633931" lon="15.371171532524281" id="-21112">
		<tag k="ssr:date" v="2021-02-17" />
		<tag k="ssr:gruppe" v="veg" />
		<tag k="ssr:hovedgruppe" v="infrastruktur" />
		<tag k="ssr:stedsnr" v="1080028" />
		<tag k="ssr:type" v="adressenavn" />
	</node>
	<node lat="66.81510501560119" lon="15.388636271390078" id="-21116">
		<tag k="ssr:date" v="2021-02-18" />
		<tag k="ssr:gruppe" v="veg" />
		<tag k="ssr:hovedgruppe" v="infrastruktur" />
		<tag k="ssr:stedsnr" v="1080053" />
		<tag k="ssr:type" v="adressenavn" />
	</node>
	<node lat="67.11849966764883" lon="15.38898477023825" id="-21119">
		<tag k="ssr:date" v="2021-02-18" />
		<tag k="ssr:gruppe" v="veg" />
		<tag k="ssr:hovedgruppe" v="infrastruktur" />
		<tag k="ssr:stedsnr" v="1080056" />
		<tag k="ssr:type" v="adressenavn" />
	</node>
	<node lat="67.04453289149792" lon="15.379918967029923" id="-21120">
		<tag k="ssr:date" v="2021-02-18" />
		<tag k="ssr:gruppe" v="veg" />
		<tag k="ssr:hovedgruppe" v="infrastruktur" />
		<tag k="ssr:stedsnr" v="1080057" />
		<tag k="ssr:type" v="adressenavn" />
	</node>
	<node lat="67.06235279469125" lon="15.967180534716242" id="-21125">
		<tag k="ssr:date" v="2021-02-11" />
		<tag k="ssr:gruppe" v="veg" />
		<tag k="ssr:hovedgruppe" v="infrastruktur" />
		<tag k="ssr:stedsnr" v="1079964" />
		<tag k="ssr:type" v="adressenavn" />
	</node>
	<node lat="67.01709724370573" lon="15.213395189806032" id="-21126">
		<tag k="ssr:date" v="2021-02-11" />
		<tag k="ssr:gruppe" v="veg" />
		<tag k="ssr:hovedgruppe" v="infrastruktur" />
		<tag k="ssr:stedsnr" v="1079965" />
		<tag k="ssr:type" v="adressenavn" />
	</node>
	<node lat="66.97238161620481" lon="16.010118550922407" id="-21127">
		<tag k="ssr:date" v="2021-02-11" />
		<tag k="ssr:gruppe" v="veg" />
		<tag k="ssr:hovedgruppe" v="infrastruktur" />
		<tag k="ssr:stedsnr" v="1079966" />
		<tag k="ssr:type" v="adressenavn" />
	</node>
	<node lat="67.11060384342075" lon="15.460511244097876" id="-21131">
		<tag k="ssr:date" v="2021-02-12" />
		<tag k="ssr:gruppe" v="veg" />
		<tag k="ssr:hovedgruppe" v="infrastruktur" />
		<tag k="ssr:stedsnr" v="1079989" />
		<tag k="ssr:type" v="adressenavn" />
	</node>
	<node lat="66.80621437799522" lon="15.571916278762938" id="-21145">
		<tag k="ssr:date" v="2021-02-23" />
		<tag k="ssr:gruppe" v="veg" />
		<tag k="ssr:hovedgruppe" v="infrastruktur" />
		<tag k="ssr:stedsnr" v="1080110" />
		<tag k="ssr:type" v="adressenavn" />
	</node>
	<node lat="66.92129259133587" lon="15.315095924411818" id="-21146">
		<tag k="ssr:date" v="2021-02-23" />
		<tag k="ssr:gruppe" v="veg" />
		<tag k="ssr:hovedgruppe" v="infrastruktur" />
		<tag k="ssr:stedsnr" v="1080111" />
		<tag k="ssr:type" v="adressenavn" />
	</node>
	<node lat="66.98617803384603" lon="15.317772078898848" id="-21152">
		<tag k="ssr:date" v="2022-01-18" />
		<tag k="ssr:gruppe" v="administrativeIndelinger" />
		<tag k="ssr:hovedgruppe" v="offentligAdministrasjon" />
		<tag k="ssr:stedsnr" v="1083450" />
		<tag k="ssr:type" v="poststed" />
	</node>
</osm>
