<?xml version="1.0" encoding="UTF-8"?>
<osm generator="osmapis" version="0.6">
	<node id="-66207" lat="58.4924760913" lon="8.63804970443">
		<tag k="name" v="Klebersteinsveien" />
		<tag k="ssr:date" v="2020-02-17" />
		<tag k="ssr:gruppe" v="veg" />
		<tag k="ssr:hovedgruppe" v="infrastruktur" />
		<tag k="ssr:stedsnr" v="1075196" />
		<tag k="ssr:type" v="adressenavn" />
	</node>
	<node id="-66206" lat="58.498302181" lon="8.6434456811">
		<tag k="name" v="Feltspatveien" />
		<tag k="ssr:date" v="2020-02-17" />
		<tag k="ssr:gruppe" v="veg" />
		<tag k="ssr:hovedgruppe" v="infrastruktur" />
		<tag k="ssr:stedsnr" v="1075194" />
		<tag k="ssr:type" v="adressenavn" />
	</node>
	<node id="-66205" lat="58.4974626568" lon="8.64515269082">
		<tag k="name" v="MÃ¸llaveien" />
		<tag k="ssr:date" v="2020-02-17" />
		<tag k="ssr:gruppe" v="veg" />
		<tag k="ssr:hovedgruppe" v="infrastruktur" />
		<tag k="ssr:stedsnr" v="1075193" />
		<tag k="ssr:type" v="adressenavn" />
	</node>
	<node id="-66204" lat="58.4919200319" lon="8.63515641942">
		<tag k="name" v="Kvartsveien" />
		<tag k="ssr:date" v="2020-02-17" />
		<tag k="ssr:gruppe" v="veg" />
		<tag k="ssr:hovedgruppe" v="infrastruktur" />
		<tag k="ssr:stedsnr" v="1075195" />
		<tag k="ssr:type" v="adressenavn" />
	</node>
	<node id="-66203" lat="58.1511039845" lon="7.99409139476">
		<tag k="name" v="Agder fylke" />
		<tag k="ssr:date" v="2020-01-13" />
		<tag k="ssr:gruppe" v="administrativeIndelinger" />
		<tag k="ssr:hovedgruppe" v="offentligAdministrasjon" />
		<tag k="ssr:stedsnr" v="1073974" />
		<tag k="ssr:type" v="fylke" />
	</node>
	<node id="-62122" lat="58.507230555" lon="8.62931666216">
		<tag k="alt_name" v="Froland" />
		<tag k="name" v="Froland kommune" />
		<tag k="ssr:date" v="2020-02-06" />
		<tag k="ssr:gruppe" v="administrativeIndelinger" />
		<tag k="ssr:hovedgruppe" v="offentligAdministrasjon" />
		<tag k="ssr:stedsnr" v="267050" />
		<tag k="ssr:type" v="kommune" />
	</node>
</osm>
