<?xml version="1.0" encoding="UTF-8"?>
<osm generator="osmapis" version="0.6">
	<node id="-55200" lat="59.3789583339" lon="9.01766667291">
		<tag k="name" v="Øygardsgrinda" />
		<tag k="ssr:date" v="2019-12-27" />
		<tag k="ssr:gruppe" v="veg" />
		<tag k="ssr:hovedgruppe" v="infrastruktur" />
		<tag k="ssr:stedsnr" v="633394" />
		<tag k="ssr:type" v="vegstrekning" />
	</node>
	<node id="-55632" lat="59.3887055574" lon="9.24285556115">
		<tag k="name" v="Idungsås" />
		<tag k="ssr:date" v="2019-12-27" />
		<tag k="ssr:gruppe" v="veg" />
		<tag k="ssr:hovedgruppe" v="infrastruktur" />
		<tag k="ssr:stedsnr" v="969593" />
		<tag k="ssr:type" v="adressenavn" />
	</node>
	<node id="-54586" lat="59.3865916677" lon="9.24483056088">
		<tag k="name" v="Eyraberg" />
		<tag k="ssr:date" v="2019-12-27" />
		<tag k="ssr:gruppe" v="veg" />
		<tag k="ssr:hovedgruppe" v="infrastruktur" />
		<tag k="ssr:stedsnr" v="302583" />
		<tag k="ssr:type" v="adressenavn" />
	</node>
	<node id="-55578" lat="59.4031277805" lon="8.90397777258">
		<tag k="name" v="Sandstulvegen" />
		<tag k="ssr:date" v="2019-12-27" />
		<tag k="ssr:gruppe" v="veg" />
		<tag k="ssr:hovedgruppe" v="infrastruktur" />
		<tag k="ssr:stedsnr" v="876140" />
		<tag k="ssr:type" v="vegstrekning" />
	</node>
	<node id="-55635" lat="59.4720942988" lon="9.38513025824">
		<tag k="name" v="Eiangen" />
		<tag k="ssr:date" v="2019-12-27" />
		<tag k="ssr:gruppe" v="veg" />
		<tag k="ssr:hovedgruppe" v="infrastruktur" />
		<tag k="ssr:stedsnr" v="976871" />
		<tag k="ssr:type" v="adressenavn" />
	</node>
	<node id="-55634" lat="59.454379099" lon="9.35582680671">
		<tag k="name" v="Stutebuvegen" />
		<tag k="ssr:date" v="2019-12-27" />
		<tag k="ssr:gruppe" v="veg" />
		<tag k="ssr:hovedgruppe" v="infrastruktur" />
		<tag k="ssr:stedsnr" v="976803" />
		<tag k="ssr:type" v="adressenavn" />
	</node>
	<node id="-55665" lat="59.2161476784" lon="9.61110301692">
		<tag k="name" v="Vestfold og Telemark fylke" />
		<tag k="ssr:date" v="2020-01-13" />
		<tag k="ssr:gruppe" v="administrativeIndelinger" />
		<tag k="ssr:hovedgruppe" v="offentligAdministrasjon" />
		<tag k="ssr:stedsnr" v="1073927" />
		<tag k="ssr:type" v="fylke" />
	</node>
	<node id="-55664" lat="59.4128520097" lon="9.06593054854">
		<tag k="name" v="Midt-Telemark kommune" />
		<tag k="ssr:date" v="2019-12-27" />
		<tag k="ssr:gruppe" v="administrativeIndelinger" />
		<tag k="ssr:hovedgruppe" v="offentligAdministrasjon" />
		<tag k="ssr:stedsnr" v="1073886" />
		<tag k="ssr:type" v="kommune" />
	</node>
	<node id="-55663" lat="59.4630634157" lon="9.44604020598">
		<tag k="name" v="Eiangsvegen" />
		<tag k="ssr:date" v="2019-12-27" />
		<tag k="ssr:gruppe" v="veg" />
		<tag k="ssr:hovedgruppe" v="infrastruktur" />
		<tag k="ssr:stedsnr" v="1053645" />
		<tag k="ssr:type" v="adressenavn" />
	</node>
	<node id="-55662" lat="59.5139427665" lon="9.29036795061">
		<tag k="name" v="Søndre Vestsidaveg" />
		<tag k="ssr:date" v="2019-12-27" />
		<tag k="ssr:gruppe" v="veg" />
		<tag k="ssr:hovedgruppe" v="infrastruktur" />
		<tag k="ssr:stedsnr" v="1050344" />
		<tag k="ssr:type" v="adressenavn" />
	</node>
	<node id="-55661" lat="59.4487477551" lon="9.33849634985">
		<tag k="name" v="Haugedalsvegen" />
		<tag k="ssr:date" v="2019-12-27" />
		<tag k="ssr:gruppe" v="veg" />
		<tag k="ssr:hovedgruppe" v="infrastruktur" />
		<tag k="ssr:stedsnr" v="1049285" />
		<tag k="ssr:type" v="adressenavn" />
	</node>
	<node id="-55660" lat="59.4812528924" lon="9.02167751067">
		<tag k="name" v="Kikkutrustin" />
		<tag k="ssr:date" v="2019-12-27" />
		<tag k="ssr:gruppe" v="veg" />
		<tag k="ssr:hovedgruppe" v="infrastruktur" />
		<tag k="ssr:stedsnr" v="1048587" />
		<tag k="ssr:type" v="adressenavn" />
	</node>
	<node id="-55659" lat="59.4822244971" lon="9.00278744071">
		<tag k="name" v="Lifjell" />
		<tag k="ssr:date" v="2019-12-27" />
		<tag k="ssr:gruppe" v="veg" />
		<tag k="ssr:hovedgruppe" v="infrastruktur" />
		<tag k="ssr:stedsnr" v="1048571" />
		<tag k="ssr:type" v="adressenavn" />
	</node>
	<node id="-53737" lat="59.4649111105" lon="9.21761667077">
		<tag k="name" v="Nybu-vegen" />
		<tag k="ssr:date" v="2019-12-27" />
		<tag k="ssr:gruppe" v="veg" />
		<tag k="ssr:hovedgruppe" v="infrastruktur" />
		<tag k="ssr:stedsnr" v="711175" />
		<tag k="ssr:type" v="vegstrekning" />
	</node>
	<node id="-53388" lat="59.3917277799" lon="9.04621666028">
		<tag k="name" v="Fenteholet" />
		<tag k="ssr:date" v="2019-12-27" />
		<tag k="ssr:gruppe" v="veg" />
		<tag k="ssr:hovedgruppe" v="infrastruktur" />
		<tag k="ssr:stedsnr" v="694284" />
		<tag k="ssr:type" v="vegstrekning" />
	</node>
	<node id="-55633" lat="59.4204609595" lon="9.32836099776">
		<tag k="name" v="Børtevegen" />
		<tag k="ssr:date" v="2019-12-27" />
		<tag k="ssr:gruppe" v="veg" />
		<tag k="ssr:hovedgruppe" v="infrastruktur" />
		<tag k="ssr:stedsnr" v="976764" />
		<tag k="ssr:type" v="adressenavn" />
	</node>
	<node id="-55524" lat="59.3883416651" lon="9.24503610458">
		<tag k="name" v="Kråkenabben" />
		<tag k="ssr:date" v="2019-12-27" />
		<tag k="ssr:gruppe" v="veg" />
		<tag k="ssr:hovedgruppe" v="infrastruktur" />
		<tag k="ssr:stedsnr" v="848588" />
		<tag k="ssr:type" v="adressenavn" />
	</node>
	<node id="-53922" lat="59.4782138913" lon="9.20783055402">
		<tag k="name" v="Roheim-Vidsjå-vegen" />
		<tag k="ssr:date" v="2019-12-27" />
		<tag k="ssr:gruppe" v="veg" />
		<tag k="ssr:hovedgruppe" v="infrastruktur" />
		<tag k="ssr:stedsnr" v="833165" />
		<tag k="ssr:type" v="vegstrekning" />
	</node>
</osm>
