<?xml version="1.0" encoding="UTF-8"?>
<osm generator="osmapis" version="0.6">
	<node id="-292437" lat="58.5057555552" lon="8.50244721437">
		<tag k="historic" v="boundary_stone" />
		<tag k="man_made" v="cairn" />
		<tag k="name" v="Tollesteinen" />
		<tag k="place" v="locality" />
		<tag k="ssr:stedsnr" v="656419" />
	</node>
	<node id="-291466" lat="58.5563166691" lon="8.45229721811">
		<tag k="historic" v="boundary_stone" />
		<tag k="man_made" v="cairn" />
		<tag k="name" v="Lauvraksteinen" />
		<tag k="place" v="locality" />
		<tag k="ssr:stedsnr" v="235626" />
	</node>
	<node id="-292697" lat="58.485161109" lon="8.44638888997">
		<tag k="historic" v="boundary_stone" />
		<tag k="man_made" v="cairn" />
		<tag k="name" v="Blautekjerrsteinen" />
		<tag k="place" v="locality" />
		<tag k="ssr:stedsnr" v="717707" />
	</node>
	<node id="-290360" lat="58.4749444439" lon="8.5342583326">
		<tag k="historic" v="boundary_stone" />
		<tag k="man_made" v="cairn" />
		<tag k="name" v="Fotvarden" />
		<tag k="place" v="locality" />
		<tag k="ssr:stedsnr" v="879892" />
	</node>
	<node id="-291477" lat="58.5446222238" lon="8.65740556008">
		<tag k="historic" v="boundary_stone" />
		<tag k="man_made" v="cairn" />
		<tag k="name" v="Stabbesteinen" />
		<tag k="place" v="locality" />
		<tag k="ssr:stedsnr" v="235800" />
	</node>
	<node id="-292493" lat="58.6446055543" lon="8.60106667012">
		<tag k="historic" v="boundary_stone" />
		<tag k="man_made" v="cairn" />
		<tag k="name" v="Skurkmyrsteinen" />
		<tag k="place" v="locality" />
		<tag k="ssr:stedsnr" v="659081" />
	</node>
	<node id="-290146" lat="58.4990368415" lon="8.50167470094">
		<tag k="historic" v="boundary_stone" />
		<tag k="man_made" v="cairn" />
		<tag k="name" v="SandtjennrÃ¸ysa" />
		<tag k="place" v="locality" />
		<tag k="ssr:stedsnr" v="413442" />
	</node>
	<node id="-293162" lat="58.6276388872" lon="8.14023888854">
		<tag k="historic" v="boundary_stone" />
		<tag k="man_made" v="cairn" />
		<tag k="name" v="Skrellen" />
		<tag k="place" v="locality" />
		<tag k="ssr:stedsnr" v="790225" />
	</node>
	<node id="-293289" lat="58.6586388902" lon="8.29854722509">
		<tag k="historic" v="boundary_stone" />
		<tag k="man_made" v="cairn" />
		<tag k="name" v="Ronnebergsteinen" />
		<tag k="place" v="locality" />
		<tag k="ssr:stedsnr" v="841621" />
	</node>
	<node id="-290248" lat="58.652977775" lon="8.12478610706">
		<tag k="historic" v="boundary_stone" />
		<tag k="man_made" v="cairn" />
		<tag k="name" v="Karpussteinen" />
		<tag k="place" v="locality" />
		<tag k="ssr:stedsnr" v="477545" />
	</node>
	<node id="-293769" lat="58.6292222216" lon="8.37025277015">
		<tag k="fixme" v="specify shooting=range, clay_pigeon etc" />
		<tag k="leisure" v="pitch" />
		<tag k="name" v="Mykland skytebane" />
		<tag k="sport" v="shooting" />
		<tag k="ssr:stedsnr" v="962331" />
	</node>
	<node id="-291363" lat="58.570060566" lon="8.4449828797">
		<tag k="alt_name" v="Skiftesteinen" />
		<tag k="historic" v="boundary_stone" />
		<tag k="man_made" v="cairn" />
		<tag k="name" v="Kobbusteinen" />
		<tag k="place" v="locality" />
		<tag k="ssr:stedsnr" v="234232" />
	</node>
	<node id="-292194" lat="58.6432805558" lon="8.23366389734">
		<tag k="historic" v="boundary_stone" />
		<tag k="man_made" v="cairn" />
		<tag k="name" v="Kvitilhella" />
		<tag k="place" v="locality" />
		<tag k="ssr:stedsnr" v="597225" />
	</node>
	<node id="-289665" lat="58.6232361091" lon="8.43625833535">
		<tag k="historic" v="boundary_stone" />
		<tag k="man_made" v="cairn" />
		<tag k="name" v="Endestaven" />
		<tag k="place" v="locality" />
		<tag k="ssr:stedsnr" v="295476" />
	</node>
</osm>
