<?xml version="1.0" encoding="UTF-8"?>
<osm generator="osmapis" version="0.6">
	<node id="-290813" lat="58.6253138862" lon="8.25746111228">
		<tag k="name" v="Trytetjønn" />
		<tag k="natural" v="water" />
		<tag k="ssr:stedsnr" v="174604" />
	</node>
	<node id="-290807" lat="58.6764305532" lon="8.19113055931">
		<tag k="name" v="Poddetjønn" />
		<tag k="natural" v="water" />
		<tag k="ssr:stedsnr" v="174573" />
	</node>
	<node id="-291127" lat="58.5941222259" lon="8.34416388409">
		<tag k="alt_name" v="Femøretjørna" />
		<tag k="name" v="Femøretjønna" />
		<tag k="natural" v="water" />
		<tag k="ssr:stedsnr" v="243146" />
	</node>
	<node id="-292853" lat="58.5690916697" lon="8.73563889461">
		<tag k="name" v="Lislebekk" />
		<tag k="ssr:stedsnr" v="823273" />
		<tag k="waterway" v="stream" />
	</node>
	<node id="-292852" lat="58.5727305576" lon="8.7258972142">
		<tag k="name" v="Råna" />
		<tag k="natural" v="strait" />
		<tag k="ssr:stedsnr" v="823270" />
	</node>
	<node id="-292851" lat="58.6053277747" lon="8.72368055373">
		<tag k="name" v="Lona" />
		<tag k="natural" v="water" />
		<tag k="ssr:stedsnr" v="823247" />
		<tag k="water" v="lake" />
	</node>
	<node id="-292850" lat="58.6158944421" lon="8.74615554864">
		<tag k="name" v="Bjorpåltjenn" />
		<tag k="natural" v="water" />
		<tag k="ssr:stedsnr" v="823245" />
	</node>
	<node id="-292846" lat="58.479122218" lon="8.65319722663">
		<tag k="name" v="Svartetjenn" />
		<tag k="natural" v="water" />
		<tag k="ssr:stedsnr" v="823180" />
	</node>
	<node id="-292844" lat="58.5940861091" lon="8.69053888255">
		<tag k="name" v="Orremyrtjennene" />
		<tag k="natural" v="water" />
		<tag k="ssr:stedsnr" v="823143" />
	</node>
	<node id="-290794" lat="58.6824972181" lon="8.22235277121">
		<tag k="name" v="Dalebekken" />
		<tag k="ssr:stedsnr" v="174552" />
		<tag k="waterway" v="stream" />
	</node>
	<node id="-292838" lat="58.6178722186" lon="8.68641944671">
		<tag k="name" v="Leirkilen" />
		<tag k="natural" v="bay" />
		<tag k="ssr:stedsnr" v="823120" />
	</node>
	<node id="-292836" lat="58.505730553" lon="8.56507499199">
		<tag k="name" v="Hisåa" />
		<tag k="ssr:stedsnr" v="823064" />
		<tag k="waterway" v="river" />
	</node>
	<node id="-290786" lat="58.6231388859" lon="8.34858610759">
		<tag k="name" v="Spriken" />
		<tag k="natural" v="strait" />
		<tag k="ssr:stedsnr" v="174484" />
	</node>
	<node id="-292833" lat="58.4972638883" lon="8.59475278599">
		<tag k="name" v="Kjerringvika" />
		<tag k="natural" v="bay" />
		<tag k="ssr:stedsnr" v="823042" />
	</node>
	<node id="-292830" lat="58.5387861068" lon="8.5599611071">
		<tag k="name" v="Stemtjenn" />
		<tag k="natural" v="water" />
		<tag k="ssr:stedsnr" v="823019" />
	</node>
	<node id="-290781" lat="58.6067944408" lon="8.19952222308">
		<tag k="name" v="Presttjønn" />
		<tag k="natural" v="water" />
		<tag k="ssr:stedsnr" v="174542" />
	</node>
	<node id="-290777" lat="58.5764111079" lon="8.29726110568">
		<tag k="name" v="Paddetjønn" />
		<tag k="natural" v="water" />
		<tag k="ssr:stedsnr" v="174352" />
	</node>
	<node id="-290187" lat="58.6512749973" lon="8.53902778171">
		<tag k="name" v="Løytingstjønn" />
		<tag k="natural" v="water" />
		<tag k="ssr:stedsnr" v="52812" />
	</node>
	<node id="-290775" lat="58.6227750032" lon="8.28867500758">
		<tag k="name" v="Mjunåstjønn" />
		<tag k="natural" v="water" />
		<tag k="ssr:stedsnr" v="174317" />
	</node>
	<node id="-292822" lat="58.6387361129" lon="8.52824722434">
		<tag k="alt_name" v="Tolltjørn" />
		<tag k="name" v="Tolltjønn" />
		<tag k="natural" v="water" />
		<tag k="ssr:stedsnr" v="790970" />
	</node>
	<node id="-292821" lat="58.6455861125" lon="8.51826945159">
		<tag k="alt_name" v="Kalstjern" />
		<tag k="name" v="Kalstjønn" />
		<tag k="natural" v="water" />
		<tag k="ssr:stedsnr" v="790969" />
	</node>
	<node id="-292818" lat="58.6355138863" lon="8.58160555447">
		<tag k="name" v="Svartetjørn" />
		<tag k="natural" v="water" />
		<tag k="ssr:stedsnr" v="790798" />
	</node>
	<node id="-292817" lat="58.6289972258" lon="8.65648888873">
		<tag k="alt_name" v="Kvernhustjørnane" />
		<tag k="name" v="Kvennhustjønnene" />
		<tag k="natural" v="water" />
		<tag k="ssr:stedsnr" v="790793" />
	</node>
	<node id="-292816" lat="58.5107722223" lon="8.49558611371">
		<tag k="alt_name" v="Gjøssevatnet" />
		<tag k="name" v="Gjøssevatn" />
		<tag k="natural" v="water" />
		<tag k="ssr:stedsnr" v="790755" />
	</node>
	<node id="-292809" lat="58.6913944451" lon="8.17645832644">
		<tag k="name" v="Suggebekken" />
		<tag k="ssr:stedsnr" v="790475" />
		<tag k="waterway" v="stream" />
	</node>
	<node id="-292807" lat="58.6301777759" lon="8.18649166051">
		<tag k="name" v="Espedalsbukta" />
		<tag k="natural" v="bay" />
		<tag k="ssr:stedsnr" v="790366" />
	</node>
	<node id="-292806" lat="58.6320388931" lon="8.2340583354">
		<tag k="alt_name" v="Ralleivsåna" />
		<tag k="name" v="Rolleivsåna" />
		<tag k="ssr:stedsnr" v="790360" />
		<tag k="waterway" v="river" />
	</node>
	<node id="-292805" lat="58.6218777743" lon="8.22758056386">
		<tag k="alt_name" v="Mjålandsvatnet" />
		<tag k="name" v="Mjålandsvatn" />
		<tag k="natural" v="water" />
		<tag k="ssr:stedsnr" v="790359" />
		<tag k="water" v="lake" />
	</node>
	<node id="-292804" lat="58.6236472199" lon="8.11538611516">
		<tag k="alt_name" v="Salvesodden" />
		<tag k="name" v="Salvesodde" />
		<tag k="natural" v="cape" />
		<tag k="ssr:stedsnr" v="790358" />
	</node>
	<node id="-292802" lat="58.6226666644" lon="8.44204167143">
		<tag k="alt_name" v="Fivvatnet, nedre" />
		<tag k="name" v="Nedre Fivvatnet" />
		<tag k="natural" v="water" />
		<tag k="ssr:stedsnr" v="790335" />
	</node>
	<node id="-292801" lat="58.63281944" lon="8.13832221619">
		<tag k="fixme" v="multiple name tags, choose one and add the other to alt_name" />
		<tag k="name" v="Risdal-Sandkil;Sandkilen, nordre" />
		<tag k="natural" v="water" />
		<tag k="ssr:stedsnr" v="790229" />
	</node>
	<node id="-292799" lat="58.5381972241" lon="8.46111666315">
		<tag k="alt_name" v="Blengsvatnet" />
		<tag k="loc_name" v="Blengsvann" />
		<tag k="name" v="Blengsvatn" />
		<tag k="natural" v="water" />
		<tag k="ssr:stedsnr" v="790157" />
		<tag k="water" v="lake" />
	</node>
	<node id="-290805" lat="58.5927916688" lon="8.48557222326">
		<tag k="name" v="Kleivtjønn" />
		<tag k="natural" v="water" />
		<tag k="ssr:stedsnr" v="174956" />
	</node>
	<node id="-292796" lat="58.5716555523" lon="8.31588610803">
		<tag k="alt_name" v="Geittjørn" />
		<tag k="name" v="Geittjønn" />
		<tag k="natural" v="water" />
		<tag k="ssr:stedsnr" v="790116" />
	</node>
	<node id="-292795" lat="58.5647833346" lon="8.27079722286">
		<tag k="alt_name" v="Lomstjørn" />
		<tag k="name" v="Lomstjønn" />
		<tag k="natural" v="water" />
		<tag k="ssr:stedsnr" v="790115" />
	</node>
	<node id="-290746" lat="58.6097416673" lon="8.3995083292">
		<tag k="name" v="Stene" />
		<tag k="natural" v="cape" />
		<tag k="ssr:stedsnr" v="174010" />
	</node>
	<node id="-292793" lat="58.5752083328" lon="8.29867499533">
		<tag k="alt_name" v="Marimesstjørn, store" />
		<tag k="name" v="Store Marimesstjønn" />
		<tag k="natural" v="water" />
		<tag k="ssr:stedsnr" v="790103" />
	</node>
	<node id="-289761" lat="58.5707722202" lon="8.72493332671">
		<tag k="name" v="Herselneset" />
		<tag k="natural" v="cape" />
		<tag k="ssr:stedsnr" v="398282" />
	</node>
	<node id="-290804" lat="58.5871250025" lon="8.47532499402">
		<tag k="name" v="Lille Plasstjønn" />
		<tag k="natural" v="water" />
		<tag k="ssr:stedsnr" v="174954" />
	</node>
	<node id="-290742" lat="58.6506972211" lon="8.56794722783">
		<tag k="name" v="Heldølskilen" />
		<tag k="natural" v="bay" />
		<tag k="ssr:stedsnr" v="173852" />
	</node>
	<node id="-292787" lat="58.6101527795" lon="8.62933333012">
		<tag k="alt_name" v="Igletjern" />
		<tag k="name" v="Igletjønn" />
		<tag k="natural" v="water" />
		<tag k="ssr:stedsnr" v="789803" />
	</node>
	<node id="-292786" lat="58.6094333358" lon="8.64147222458">
		<tag k="alt_name" v="Homstjern" />
		<tag k="name" v="Homstjønn" />
		<tag k="natural" v="water" />
		<tag k="ssr:stedsnr" v="789800" />
	</node>
	<node id="-292785" lat="58.6097194405" lon="8.72909722574">
		<tag k="alt_name" v="Haugsjåvannet" />
		<tag k="name" v="Haugsjåvatnet" />
		<tag k="natural" v="water" />
		<tag k="ssr:stedsnr" v="789796" />
	</node>
	<node id="-292784" lat="58.6247416629" lon="8.57465834085">
		<tag k="name" v="Uvatn" />
		<tag k="natural" v="water" />
		<tag k="ssr:stedsnr" v="789770" />
	</node>
	<node id="-292781" lat="58.4942055558" lon="8.54032500016">
		<tag k="alt_name" v="Stemmetjern" />
		<tag k="name" v="Stemtjenn" />
		<tag k="natural" v="water" />
		<tag k="ssr:stedsnr" v="789700" />
	</node>
	<node id="-292780" lat="58.48822778" lon="8.55152499515">
		<tag k="alt_name" v="Langetjenn" />
		<tag k="name" v="Langetjern" />
		<tag k="natural" v="water" />
		<tag k="ssr:stedsnr" v="789696" />
	</node>
	<node id="-292779" lat="58.5354444438" lon="8.50258055715">
		<tag k="alt_name" v="Mjåvatnet" />
		<tag k="name" v="Mjåvatna" />
		<tag k="natural" v="water" />
		<tag k="ssr:stedsnr" v="789692" />
	</node>
	<node id="-290728" lat="58.6317305512" lon="8.06694723065">
		<tag k="name" v="Siristjønn" />
		<tag k="natural" v="water" />
		<tag k="ssr:stedsnr" v="173757" />
	</node>
	<node id="-292775" lat="58.5451666658" lon="8.55341110579">
		<tag k="alt_name" v="Igletjern" />
		<tag k="name" v="Igletjønn" />
		<tag k="natural" v="water" />
		<tag k="ssr:stedsnr" v="789661" />
	</node>
	<node id="-292774" lat="58.5547981624" lon="8.69950545923">
		<tag k="name" v="Solheimsvannet" />
		<tag k="natural" v="water" />
		<tag k="ssr:stedsnr" v="789659" />
		<tag k="water" v="lake" />
	</node>
	<node id="-292772" lat="58.5526527766" lon="8.59143888301">
		<tag k="name" v="Stemmetjenn" />
		<tag k="natural" v="water" />
		<tag k="ssr:stedsnr" v="789636" />
	</node>
	<node id="-292770" lat="58.6703027779" lon="7.99950000776">
		<tag k="alt_name" v="Kjosvatnet" />
		<tag k="name" v="Kjosevatn" />
		<tag k="natural" v="water" />
		<tag k="ssr:stedsnr" v="789599" />
		<tag k="water" v="lake" />
	</node>
	<node id="-290719" lat="58.6582416683" lon="8.15870556163">
		<tag k="name" v="Neset" />
		<tag k="natural" v="cape" />
		<tag k="ssr:stedsnr" v="173551" />
	</node>
	<node id="-290718" lat="58.6461583352" lon="8.51119166609">
		<tag k="name" v="Lauvdalstjønn" />
		<tag k="natural" v="water" />
		<tag k="ssr:stedsnr" v="173432" />
	</node>
	<node id="-292765" lat="58.6165777735" lon="8.3472472248">
		<tag k="name" v="Bellandsvatnet" />
		<tag k="natural" v="water" />
		<tag k="ssr:stedsnr" v="789360" />
		<tag k="water" v="lake" />
	</node>
	<node id="-292763" lat="58.6015666705" lon="8.21620556238">
		<tag k="name" v="Fiskehøl" />
		<tag k="natural" v="bay" />
		<tag k="ssr:stedsnr" v="789350" />
	</node>
	<node id="-292761" lat="58.6072416636" lon="8.4376611117">
		<tag k="alt_name" v="Skjersæ" />
		<tag k="name" v="Skjærsæ" />
		<tag k="natural" v="water" />
		<tag k="ssr:stedsnr" v="789337" />
		<tag k="water" v="lake" />
	</node>
	<node id="-292760" lat="58.6612000021" lon="8.29027222828">
		<tag k="alt_name" v="Geitetjørn" />
		<tag k="name" v="Geitetjønn" />
		<tag k="natural" v="water" />
		<tag k="ssr:stedsnr" v="789290" />
	</node>
	<node id="-292759" lat="58.6469833301" lon="8.34247778018">
		<tag k="alt_name" v="Skinnfettjørn" />
		<tag k="name" v="Skinnfettjønn" />
		<tag k="natural" v="water" />
		<tag k="ssr:stedsnr" v="789284" />
	</node>
	<node id="-292758" lat="58.6491500043" lon="8.3114555482">
		<tag k="alt_name" v="Jordstjørn" />
		<tag k="name" v="Jordestjønn" />
		<tag k="natural" v="water" />
		<tag k="ssr:stedsnr" v="789282" />
	</node>
	<node id="-292757" lat="58.6558416653" lon="8.23837777004">
		<tag k="name" v="Lauvrakstjørnane" />
		<tag k="natural" v="water" />
		<tag k="ssr:stedsnr" v="789277" />
	</node>
	<node id="-292756" lat="58.6532305513" lon="8.29249722986">
		<tag k="alt_name" v="Sledetjørn" />
		<tag k="name" v="Sledetjønn" />
		<tag k="natural" v="water" />
		<tag k="ssr:stedsnr" v="789274" />
	</node>
	<node id="-292753" lat="58.5497416653" lon="8.26774166545">
		<tag k="name" v="Uldalstjørn" />
		<tag k="natural" v="bay" />
		<tag k="ssr:stedsnr" v="789248" />
	</node>
	<node id="-292752" lat="58.5543500042" lon="8.25241943608">
		<tag k="alt_name" v="Breidtjørn" />
		<tag k="name" v="Breidtjønn" />
		<tag k="natural" v="water" />
		<tag k="ssr:stedsnr" v="789237" />
	</node>
	<node id="-290703" lat="58.5949666689" lon="8.5126805612">
		<tag k="name" v="Bjønndalstjønn" />
		<tag k="natural" v="water" />
		<tag k="ssr:stedsnr" v="173358" />
	</node>
	<node id="-292749" lat="58.59043056" lon="8.22928889371">
		<tag k="alt_name" v="Lianstjørnane" />
		<tag k="name" v="Lianstjønnane" />
		<tag k="natural" v="water" />
		<tag k="ssr:stedsnr" v="789186" />
	</node>
	<node id="-290699" lat="58.6987166657" lon="8.00566945208">
		<tag k="name" v="Fiskeland" />
		<tag k="natural" v="bay" />
		<tag k="ssr:stedsnr" v="172984" />
	</node>
	<node id="-292745" lat="58.6006000024" lon="8.46278610887">
		<tag k="name" v="Vaulene" />
		<tag k="place" v="locality" />
		<tag k="ssr:stedsnr" v="781995" />
	</node>
	<node id="-290113" lat="58.4995138901" lon="8.5059444515">
		<tag k="name" v="Sandtjennfossen" />
		<tag k="natural" v="waterfall" />
		<tag k="ssr:stedsnr" v="49463" />
	</node>
	<node id="-290692" lat="58.4831694419" lon="8.52803611059">
		<tag k="name" v="Bjortjenn" />
		<tag k="natural" v="water" />
		<tag k="ssr:stedsnr" v="171935" />
	</node>
	<node id="-290691" lat="58.465780554" lon="8.54893888451">
		<tag k="name" v="Lauvåsodden" />
		<tag k="natural" v="cape" />
		<tag k="ssr:stedsnr" v="171913" />
	</node>
	<node id="-290690" lat="58.461813891" lon="8.54085277475">
		<tag k="name" v="Brattebergslona" />
		<tag k="natural" v="strait" />
		<tag k="ssr:stedsnr" v="171909" />
	</node>
	<node id="-289691" lat="58.5969555558" lon="8.54376388288">
		<tag k="loc_name" v="Hundevannet" />
		<tag k="name" v="Hundevatnet" />
		<tag k="natural" v="water" />
		<tag k="ssr:stedsnr" v="364797" />
	</node>
	<node id="-290687" lat="58.491469446" lon="8.39312500626">
		<tag k="name" v="Krokka" />
		<tag k="natural" v="water" />
		<tag k="ssr:stedsnr" v="171751" />
	</node>
	<node id="-289429" lat="58.6123444437" lon="8.47125833191">
		<tag k="alt_name" v="Åletjern" />
		<tag k="name" v="Åletjønn" />
		<tag k="natural" v="water" />
		<tag k="ssr:stedsnr" v="304769" />
	</node>
	<node id="-292732" lat="58.5436777757" lon="8.63208611597">
		<tag k="name" v="Bjorshavehøllen" />
		<tag k="place" v="locality" />
		<tag k="ssr:stedsnr" v="781810" />
	</node>
	<node id="-292730" lat="58.6799472196" lon="8.25189444513">
		<tag k="name" v="Lille Tjørneheitjønn" />
		<tag k="natural" v="water" />
		<tag k="ssr:stedsnr" v="781800" />
	</node>
	<node id="-290681" lat="58.5087555523" lon="8.51120833167">
		<tag k="name" v="Bomtjenn" />
		<tag k="natural" v="water" />
		<tag k="ssr:stedsnr" v="171410" />
	</node>
	<node id="-290679" lat="58.5244888915" lon="8.40061388075">
		<tag k="name" v="Ålkartjenn" />
		<tag k="natural" v="water" />
		<tag k="ssr:stedsnr" v="171172" />
	</node>
	<node id="-292725" lat="58.5530000028" lon="8.58309444532">
		<tag k="name" v="Preskotjønn" />
		<tag k="natural" v="water" />
		<tag k="ssr:stedsnr" v="781731" />
	</node>
	<node id="-290674" lat="58.4589638875" lon="8.55156389032">
		<tag k="name" v="Auretjenn" />
		<tag k="natural" v="water" />
		<tag k="ssr:stedsnr" v="170898" />
	</node>
	<node id="-290673" lat="58.4583111072" lon="8.55743611596">
		<tag k="name" v="Sautjenn" />
		<tag k="natural" v="water" />
		<tag k="ssr:stedsnr" v="170883" />
	</node>
	<node id="-292717" lat="58.6637583358" lon="8.27804721999">
		<tag k="name" v="Trytetjønn" />
		<tag k="natural" v="water" />
		<tag k="ssr:stedsnr" v="781657" />
	</node>
	<node id="-291327" lat="58.5455277734" lon="8.50271667173">
		<tag k="alt_name" v="Hespentjørn" />
		<tag k="name" v="Hespetjønn" />
		<tag k="natural" v="water" />
		<tag k="ssr:stedsnr" v="425655" />
	</node>
	<node id="-290666" lat="58.5781527779" lon="8.74845555739">
		<tag k="name" v="Flottjenn" />
		<tag k="natural" v="water" />
		<tag k="ssr:stedsnr" v="155324" />
	</node>
	<node id="-290661" lat="58.5911555529" lon="8.72664444181">
		<tag k="name" v="Elsesnes" />
		<tag k="natural" v="cape" />
		<tag k="ssr:stedsnr" v="155276" />
	</node>
	<node id="-290790" lat="58.5485138908" lon="8.45432777273">
		<tag k="name" v="Saurtjønnene" />
		<tag k="natural" v="water" />
		<tag k="ssr:stedsnr" v="174494" />
	</node>
	<node id="-291131" lat="58.609152782" lon="8.28657221386">
		<tag k="name" v="Fiskevatnet" />
		<tag k="natural" v="water" />
		<tag k="ssr:stedsnr" v="243321" />
	</node>
	<node id="-289758" lat="58.6083611079" lon="8.72610277787">
		<tag k="name" v="Neset" />
		<tag k="natural" v="cape" />
		<tag k="ssr:stedsnr" v="398263" />
	</node>
	<node id="-292700" lat="58.5973000043" lon="8.34501944512">
		<tag k="name" v="Stormyrhølen" />
		<tag k="place" v="locality" />
		<tag k="ssr:stedsnr" v="781506" />
	</node>
	<node id="-290650" lat="58.5492833348" lon="8.69813610667">
		<tag k="name" v="Vestre Råna" />
		<tag k="natural" v="strait" />
		<tag k="ssr:stedsnr" v="155190" />
	</node>
	<node id="-291471" lat="58.6658666657" lon="8.51887777245">
		<tag k="alt_name" v="Sangebutjern" />
		<tag k="name" v="Sangebutjønn" />
		<tag k="natural" v="water" />
		<tag k="ssr:stedsnr" v="486914" />
	</node>
	<node id="-290642" lat="58.5153583305" lon="8.56021389378">
		<tag k="name" v="Gjørgjelstjenn" />
		<tag k="natural" v="water" />
		<tag k="ssr:stedsnr" v="155070" />
	</node>
	<node id="-290641" lat="58.5104527771" lon="8.56749999581">
		<tag k="name" v="Einerkjerrbekken" />
		<tag k="ssr:stedsnr" v="155066" />
		<tag k="waterway" v="stream" />
	</node>
	<node id="-290638" lat="58.5162222198" lon="8.68559722133">
		<tag k="name" v="Øvre Dybletjenn" />
		<tag k="natural" v="water" />
		<tag k="ssr:stedsnr" v="155040" />
	</node>
	<node id="-290637" lat="58.4927972238" lon="8.66434166535">
		<tag k="name" v="Kvelpetjenn" />
		<tag k="natural" v="water" />
		<tag k="ssr:stedsnr" v="155034" />
	</node>
	<node id="-290636" lat="58.5292027813" lon="8.56730278125">
		<tag k="name" v="Støletjenn" />
		<tag k="natural" v="water" />
		<tag k="ssr:stedsnr" v="155025" />
	</node>
	<node id="-290634" lat="58.4913361073" lon="8.56523611729">
		<tag k="name" v="Hegretjenn" />
		<tag k="natural" v="water" />
		<tag k="ssr:stedsnr" v="155002" />
	</node>
	<node id="-291394" lat="58.5641222231" lon="8.69426388948">
		<tag k="name" v="Langeidstryket" />
		<tag k="ssr:stedsnr" v="459145" />
		<tag k="waterway" v="rapids" />
	</node>
	<node id="-292680" lat="58.6155249984" lon="8.58514444966">
		<tag k="name" v="Bjortjønn" />
		<tag k="natural" v="water" />
		<tag k="ssr:stedsnr" v="781184" />
	</node>
	<node id="-290631" lat="58.6491305589" lon="8.65822777023">
		<tag k="alt_name" v="Svanøy" />
		<tag k="name" v="Svanøya" />
		<tag k="place" v="islet" />
		<tag k="ssr:stedsnr" v="122997" />
	</node>
	<node id="-292678" lat="58.6196027819" lon="8.59041666435">
		<tag k="name" v="Gullkisttjønn" />
		<tag k="natural" v="water" />
		<tag k="ssr:stedsnr" v="781181" />
	</node>
	<node id="-290629" lat="58.5685611134" lon="8.73047777729">
		<tag k="alt_name" v="Herselvannet" />
		<tag k="name" v="Herselvatnet" />
		<tag k="natural" v="water" />
		<tag k="ssr:stedsnr" v="122844" />
		<tag k="water" v="lake" />
	</node>
	<node id="-290628" lat="58.5728805518" lon="8.72196945049">
		<tag k="name" v="Bøylestadvannet" />
		<tag k="natural" v="water" />
		<tag k="ssr:stedsnr" v="122845" />
		<tag k="water" v="lake" />
	</node>
	<node id="-292675" lat="58.5591277792" lon="8.34767777116">
		<tag k="name" v="Andekilen" />
		<tag k="natural" v="water" />
		<tag k="ssr:stedsnr" v="781154" />
		<tag k="water" v="lake" />
	</node>
	<node id="-290626" lat="58.5590361139" lon="8.50508611854">
		<tag k="name" v="Hovann" />
		<tag k="natural" v="water" />
		<tag k="ssr:stedsnr" v="122838" />
		<tag k="water" v="lake" />
	</node>
	<node id="-292671" lat="58.6092472257" lon="8.45731665913">
		<tag k="name" v="Lyngøya" />
		<tag k="place" v="islet" />
		<tag k="ssr:stedsnr" v="781127" />
	</node>
	<node id="-290621" lat="58.5884472237" lon="8.72265555706">
		<tag k="name" v="Mossevannet" />
		<tag k="natural" v="water" />
		<tag k="ssr:stedsnr" v="122809" />
	</node>
	<node id="-292666" lat="58.5789527802" lon="8.50279167217">
		<tag k="name" v="Gauslåtjønn" />
		<tag k="natural" v="water" />
		<tag k="ssr:stedsnr" v="781007" />
	</node>
	<node id="-290617" lat="58.506041664" lon="8.60214167525">
		<tag k="name" v="Boråstjenn" />
		<tag k="natural" v="water" />
		<tag k="ssr:stedsnr" v="122748" />
	</node>
	<node id="-290615" lat="58.5115055582" lon="8.47268332869">
		<tag k="alt_name" v="Heievatnet" />
		<tag k="name" v="Heivatn" />
		<tag k="natural" v="water" />
		<tag k="ssr:stedsnr" v="122718" />
	</node>
	<node id="-292662" lat="58.6752944488" lon="8.31796666142">
		<tag k="name" v="Kattetjønn" />
		<tag k="natural" v="water" />
		<tag k="ssr:stedsnr" v="780850" />
	</node>
	<node id="-290611" lat="58.5242888913" lon="8.47772500709">
		<tag k="alt_name" v="Fjelltjernet" />
		<tag k="name" v="Fjelltjern" />
		<tag k="natural" v="water" />
		<tag k="ssr:stedsnr" v="122694" />
	</node>
	<node id="-290607" lat="58.5617055585" lon="8.55910555462">
		<tag k="alt_name" v="Saurtjern" />
		<tag k="name" v="Saurtjønn" />
		<tag k="natural" v="water" />
		<tag k="ssr:stedsnr" v="122629" />
	</node>
	<node id="-289235" lat="58.4959361142" lon="8.51095555001">
		<tag k="name" v="Hellarstjenn" />
		<tag k="natural" v="water" />
		<tag k="ssr:stedsnr" v="292928" />
	</node>
	<node id="-292648" lat="58.6650388926" lon="8.25498611217">
		<tag k="name" v="Berghøl" />
		<tag k="place" v="locality" />
		<tag k="ssr:stedsnr" v="780648" />
	</node>
	<node id="-290597" lat="58.6040388866" lon="8.35939165946">
		<tag k="alt_name" v="Sandtjørn" />
		<tag k="name" v="Sandtjønn" />
		<tag k="natural" v="water" />
		<tag k="ssr:stedsnr" v="122337" />
	</node>
	<node id="-290596" lat="58.6768611103" lon="8.1593250061">
		<tag k="alt_name" v="Tvitjørnane" />
		<tag k="name" v="Tvitjønnane" />
		<tag k="natural" v="water" />
		<tag k="ssr:stedsnr" v="122329" />
	</node>
	<node id="-290595" lat="58.6640333289" lon="8.17022500236">
		<tag k="name" v="Lindåstjørnane" />
		<tag k="natural" v="water" />
		<tag k="ssr:stedsnr" v="122307" />
	</node>
	<node id="-290592" lat="58.6502055547" lon="8.21530555054">
		<tag k="name" v="Formubekken" />
		<tag k="ssr:stedsnr" v="122286" />
		<tag k="waterway" v="river" />
	</node>
	<node id="-290591" lat="58.6453611153" lon="8.31091389741">
		<tag k="alt_name" v="Vestretjørn" />
		<tag k="name" v="Vestretjønn" />
		<tag k="natural" v="water" />
		<tag k="ssr:stedsnr" v="122269" />
	</node>
	<node id="-290589" lat="58.5413805561" lon="8.42308055291">
		<tag k="alt_name" v="Naglebærtjørn" />
		<tag k="name" v="Naglebutjønn" />
		<tag k="natural" v="water" />
		<tag k="ssr:stedsnr" v="122182" />
	</node>
	<node id="-292636" lat="58.6572444458" lon="8.17376943831">
		<tag k="name" v="Bergetjønn" />
		<tag k="natural" v="water" />
		<tag k="ssr:stedsnr" v="780483" />
	</node>
	<node id="-290586" lat="58.6094805599" lon="8.7070138926">
		<tag k="name" v="Kastefossen" />
		<tag k="natural" v="waterfall" />
		<tag k="ssr:stedsnr" v="121789" />
	</node>
	<node id="-290584" lat="58.4853027752" lon="8.57610276936">
		<tag k="alt_name" v="Auglandstjenn" />
		<tag k="name" v="Auglandstjern" />
		<tag k="natural" v="water" />
		<tag k="ssr:stedsnr" v="121686" />
	</node>
	<node id="-292631" lat="58.5853111108" lon="8.46172221555">
		<tag k="name" v="Sandvika" />
		<tag k="natural" v="bay" />
		<tag k="ssr:stedsnr" v="780346" />
	</node>
	<node id="-290582" lat="58.5494694475" lon="8.55195278546">
		<tag k="alt_name" v="Grunnevatnet" />
		<tag k="name" v="Grunnevatn" />
		<tag k="natural" v="water" />
		<tag k="ssr:stedsnr" v="121651" />
	</node>
	<node id="-290580" lat="58.463275003" lon="8.58558889401">
		<tag k="name" v="Reiersølvannet" />
		<tag k="natural" v="water" />
		<tag k="ssr:stedsnr" v="121646" />
		<tag k="water" v="lake" />
	</node>
	<node id="-292627" lat="58.630713892" lon="8.48562500832">
		<tag k="name" v="Øvre Fisketjønn" />
		<tag k="natural" v="water" />
		<tag k="ssr:stedsnr" v="780285" />
	</node>
	<node id="-292626" lat="58.6263500001" lon="8.40966944211">
		<tag k="name" v="Sagbekken" />
		<tag k="ssr:stedsnr" v="780278" />
		<tag k="waterway" v="stream" />
	</node>
	<node id="-290576" lat="58.5691305599" lon="8.63563333697">
		<tag k="name" v="Koltjønn" />
		<tag k="natural" v="water" />
		<tag k="ssr:stedsnr" v="114942" />
	</node>
	<node id="-291546" lat="58.670949999" lon="8.27866111786">
		<tag k="name" v="Vardetjønn" />
		<tag k="natural" v="water" />
		<tag k="ssr:stedsnr" v="536656" />
	</node>
	<node id="-290572" lat="58.5540138927" lon="8.62544166073">
		<tag k="name" v="Lusstjønn" />
		<tag k="natural" v="water" />
		<tag k="ssr:stedsnr" v="114822" />
	</node>
	<node id="-290569" lat="58.5898972234" lon="8.29977222891">
		<tag k="name" v="Lauvvika" />
		<tag k="natural" v="bay" />
		<tag k="ssr:stedsnr" v="114607" />
	</node>
	<node id="-290566" lat="58.6066305582" lon="8.19329444569">
		<tag k="name" v="Vierbukta" />
		<tag k="natural" v="bay" />
		<tag k="ssr:stedsnr" v="114544" />
	</node>
	<node id="-289409" lat="58.5969361078" lon="8.2985500047">
		<tag k="alt_name" v="Saurdalsvatnet" />
		<tag k="name" v="Saurdalsvatn" />
		<tag k="natural" v="water" />
		<tag k="ssr:stedsnr" v="304322" />
		<tag k="water" v="lake" />
	</node>
	<node id="-290563" lat="58.6155249955" lon="8.20995277173">
		<tag k="name" v="Lonedalstjønn" />
		<tag k="natural" v="water" />
		<tag k="ssr:stedsnr" v="114531" />
	</node>
	<node id="-290559" lat="58.6088194449" lon="8.2965749995">
		<tag k="name" v="Ytre Langevatnet" />
		<tag k="natural" v="water" />
		<tag k="ssr:stedsnr" v="114478" />
		<tag k="water" v="lake" />
	</node>
	<node id="-292605" lat="58.6459250009" lon="8.24672499246">
		<tag k="name" v="Bjørnstjønn" />
		<tag k="natural" v="water" />
		<tag k="ssr:stedsnr" v="779199" />
	</node>
	<node id="-290554" lat="58.5618500003" lon="8.35324166709">
		<tag k="name" v="Lille Lomstjønn" />
		<tag k="natural" v="water" />
		<tag k="ssr:stedsnr" v="114387" />
	</node>
	<node id="-290553" lat="58.5702277787" lon="8.30104166174">
		<tag k="name" v="Sandtjønn" />
		<tag k="natural" v="water" />
		<tag k="ssr:stedsnr" v="114355" />
	</node>
	<node id="-292598" lat="58.6433777802" lon="8.17634999142">
		<tag k="name" v="Strånda" />
		<tag k="natural" v="beach" />
		<tag k="ssr:stedsnr" v="779034" />
	</node>
	<node id="-290982" lat="58.6736111083" lon="8.05630832885">
		<tag k="name" v="Vindfetåna" />
		<tag k="ssr:stedsnr" v="233886" />
		<tag k="waterway" v="river" />
	</node>
	<node id="-289406" lat="58.6438416669" lon="8.17984444016">
		<tag k="name" v="Sidekil" />
		<tag k="natural" v="bay" />
		<tag k="ssr:stedsnr" v="304253" />
	</node>
	<node id="-292593" lat="58.512502779" lon="8.41018332939">
		<tag k="name" v="Hoskulstjenn" />
		<tag k="natural" v="water" />
		<tag k="ssr:stedsnr" v="778084" />
	</node>
	<node id="-292589" lat="58.4945333378" lon="8.5115333334">
		<tag k="name" v="Nordheipytten" />
		<tag k="natural" v="water" />
		<tag k="ssr:stedsnr" v="777919" />
	</node>
	<node id="-290770" lat="58.6167972196" lon="8.59241389384">
		<tag k="name" v="Steinbruneset" />
		<tag k="natural" v="cape" />
		<tag k="ssr:stedsnr" v="174209" />
	</node>
	<node id="-290535" lat="58.6068333378" lon="8.45765554891">
		<tag k="name" v="Sagbekken" />
		<tag k="ssr:stedsnr" v="114096" />
		<tag k="waterway" v="stream" />
	</node>
	<node id="-292582" lat="58.455575004" lon="8.55576110599">
		<tag k="name" v="Svartetjenn" />
		<tag k="natural" v="water" />
		<tag k="ssr:stedsnr" v="777838" />
	</node>
	<node id="-289413" lat="58.6351277803" lon="8.36594444249">
		<tag k="alt_name" v="Sauetjørn" />
		<tag k="name" v="Sauetjønn" />
		<tag k="natural" v="water" />
		<tag k="ssr:stedsnr" v="304362" />
	</node>
	<node id="-290529" lat="58.6651055524" lon="8.06524444978">
		<tag k="name" v="Vassfossen" />
		<tag k="natural" v="waterfall" />
		<tag k="ssr:stedsnr" v="113964" />
	</node>
	<node id="-291254" lat="58.5554277769" lon="8.23655833813">
		<tag k="name" v="Bjortjønn" />
		<tag k="natural" v="water" />
		<tag k="ssr:stedsnr" v="417161" />
	</node>
	<node id="-292571" lat="58.6011305598" lon="8.72444721935">
		<tag k="name" v="Skottkjerrtjenn" />
		<tag k="natural" v="water" />
		<tag k="ssr:stedsnr" v="762308" />
	</node>
	<node id="-292568" lat="58.5514472256" lon="8.73097222609">
		<tag k="name" v="Skifjelltjenn" />
		<tag k="natural" v="water" />
		<tag k="ssr:stedsnr" v="762276" />
	</node>
	<node id="-289401" lat="58.580000004" lon="8.22887222331">
		<tag k="alt_name" v="Kiletjørn" />
		<tag k="name" v="Kiletjønn" />
		<tag k="natural" v="water" />
		<tag k="ssr:stedsnr" v="304158" />
	</node>
	<node id="-290516" lat="58.6613888879" lon="8.53507499272">
		<tag k="name" v="Bjørkeholtstjønn" />
		<tag k="natural" v="water" />
		<tag k="ssr:stedsnr" v="113813" />
	</node>
	<node id="-292562" lat="58.5105805551" lon="8.60499167165">
		<tag k="name" v="Ormetjenn" />
		<tag k="natural" v="water" />
		<tag k="ssr:stedsnr" v="762224" />
	</node>
	<node id="-292558" lat="58.5249888885" lon="8.60561111388">
		<tag k="name" v="Rislandtjenn" />
		<tag k="natural" v="water" />
		<tag k="ssr:stedsnr" v="762196" />
	</node>
	<node id="-290508" lat="58.6433138873" lon="8.08955556277">
		<tag k="name" v="Holebekk" />
		<tag k="ssr:stedsnr" v="113758" />
		<tag k="waterway" v="stream" />
	</node>
	<node id="-292553" lat="58.5438249959" lon="8.68613056409">
		<tag k="name" v="Svarttjønn" />
		<tag k="natural" v="water" />
		<tag k="ssr:stedsnr" v="762173" />
	</node>
	<node id="-289398" lat="58.5137416668" lon="8.46194999957">
		<tag k="name" v="Hersvassbekken" />
		<tag k="ssr:stedsnr" v="304006" />
		<tag k="waterway" v="stream" />
	</node>
	<node id="-290497" lat="58.689050001" lon="8.17907499675">
		<tag k="name" v="Ånondalstjønn" />
		<tag k="natural" v="water" />
		<tag k="ssr:stedsnr" v="113591" />
	</node>
	<node id="-290491" lat="58.5476222205" lon="8.48723054853">
		<tag k="name" v="Grisehaugtjønn" />
		<tag k="natural" v="water" />
		<tag k="ssr:stedsnr" v="113555" />
	</node>
	<node id="-289207" lat="58.4867083338" lon="8.64853888636">
		<tag k="name" v="Lindtjenn" />
		<tag k="natural" v="water" />
		<tag k="ssr:stedsnr" v="277194" />
	</node>
	<node id="-293187" lat="58.6879611116" lon="8.24129445013">
		<tag k="name" v="Store Lauvbutjønn" />
		<tag k="natural" v="water" />
		<tag k="ssr:stedsnr" v="902587" />
	</node>
	<node id="-292536" lat="58.527824997" lon="8.58006389157">
		<tag k="name" v="Tretjennene" />
		<tag k="natural" v="water" />
		<tag k="ssr:stedsnr" v="762007" />
	</node>
	<node id="-290420" lat="58.6306833345" lon="8.26584166779">
		<tag k="name" v="Skarkedalsbekken" />
		<tag k="ssr:stedsnr" v="112233" />
		<tag k="waterway" v="stream" />
	</node>
	<node id="-289395" lat="58.5037055599" lon="8.39702222968">
		<tag k="alt_name" v="Espestølsvatnet" />
		<tag k="name" v="Espestølsvatn" />
		<tag k="natural" v="water" />
		<tag k="ssr:stedsnr" v="304001" />
		<tag k="water" v="lake" />
	</node>
	<node id="-290025" lat="58.5068305515" lon="8.47212222378">
		<tag k="alt_name" v="Kvernvatnet" />
		<tag k="name" v="Kvennetjenn" />
		<tag k="natural" v="water" />
		<tag k="ssr:stedsnr" v="746" />
	</node>
	<node id="-289736" lat="58.5353694458" lon="8.7102222221">
		<tag k="name" v="Svarttjenn" />
		<tag k="natural" v="water" />
		<tag k="ssr:stedsnr" v="398054" />
	</node>
	<node id="-292526" lat="58.5800777795" lon="8.58707777015">
		<tag k="alt_name" v="Gåsetjern" />
		<tag k="name" v="Gåsetjønn" />
		<tag k="natural" v="water" />
		<tag k="ssr:stedsnr" v="729830" />
	</node>
	<node id="-292525" lat="58.6156333344" lon="8.59036111839">
		<tag k="name" v="Tosetjenn" />
		<tag k="natural" v="water" />
		<tag k="ssr:stedsnr" v="729822" />
	</node>
	<node id="-292524" lat="58.6147027752" lon="8.63720000441">
		<tag k="name" v="Matbuvatnet" />
		<tag k="natural" v="water" />
		<tag k="ssr:stedsnr" v="729817" />
	</node>
	<node id="-290475" lat="58.6600388892" lon="8.11375833358">
		<tag k="name" v="Norfjelltjønn" />
		<tag k="natural" v="water" />
		<tag k="ssr:stedsnr" v="113476" />
	</node>
	<node id="-292517" lat="58.5317777798" lon="8.61280833558">
		<tag k="alt_name" v="Djupetjenn" />
		<tag k="name" v="Djupetjern" />
		<tag k="natural" v="water" />
		<tag k="ssr:stedsnr" v="729703" />
	</node>
	<node id="-292514" lat="58.5519277801" lon="8.73997222142">
		<tag k="name" v="Merstjenn" />
		<tag k="natural" v="water" />
		<tag k="ssr:stedsnr" v="729677" />
	</node>
	<node id="-290463" lat="58.6284333376" lon="8.27996666044">
		<tag k="name" v="Bjønnåstjønn" />
		<tag k="natural" v="water" />
		<tag k="ssr:stedsnr" v="113331" />
	</node>
	<node id="-290462" lat="58.62473611" lon="8.29450277147">
		<tag k="name" v="St. Hansøya" />
		<tag k="place" v="islet" />
		<tag k="ssr:stedsnr" v="113267" />
	</node>
	<node id="-292509" lat="58.5652444419" lon="8.7171805589">
		<tag k="alt_name" v="Steinstjenn" />
		<tag k="name" v="Steinstjern" />
		<tag k="natural" v="water" />
		<tag k="ssr:stedsnr" v="729637" />
	</node>
	<node id="-290459" lat="58.5729472225" lon="8.48955556166">
		<tag k="name" v="Kinnfokktjønn" />
		<tag k="natural" v="water" />
		<tag k="ssr:stedsnr" v="113186" />
	</node>
	<node id="-290458" lat="58.6064805598" lon="8.59383333367">
		<tag k="name" v="Lonene" />
		<tag k="natural" v="water" />
		<tag k="ssr:stedsnr" v="113183" />
		<tag k="water" v="lake" />
	</node>
	<node id="-292504" lat="58.690013893" lon="8.29451943832">
		<tag k="alt_name" v="Fisketjørn" />
		<tag k="name" v="Fisketjønn" />
		<tag k="natural" v="water" />
		<tag k="ssr:stedsnr" v="729447" />
	</node>
	<node id="-290454" lat="58.6236222206" lon="8.55389999568">
		<tag k="name" v="Krossbekk" />
		<tag k="ssr:stedsnr" v="113163" />
		<tag k="waterway" v="stream" />
	</node>
	<node id="-292497" lat="58.6473916704" lon="8.41008332766">
		<tag k="alt_name" v="Beråstjørn" />
		<tag k="name" v="Beråstjønn" />
		<tag k="natural" v="water" />
		<tag k="ssr:stedsnr" v="729284" />
	</node>
	<node id="-290447" lat="58.6254138904" lon="8.50946666474">
		<tag k="name" v="Suggevika" />
		<tag k="natural" v="bay" />
		<tag k="ssr:stedsnr" v="113119" />
	</node>
	<node id="-292493" lat="58.5612666635" lon="8.28671666464">
		<tag k="alt_name" v="Tonetjørn" />
		<tag k="name" v="Tonestjønn" />
		<tag k="natural" v="water" />
		<tag k="ssr:stedsnr" v="729157" />
	</node>
	<node id="-292491" lat="58.5705416629" lon="8.3281249992">
		<tag k="alt_name" v="Hovtjørn, store" />
		<tag k="name" v="Hovtjønn" />
		<tag k="natural" v="water" />
		<tag k="ssr:stedsnr" v="729138" />
	</node>
	<node id="-292490" lat="58.5148444471" lon="8.41413054783">
		<tag k="alt_name" v="Fiskevatnet" />
		<tag k="name" v="Fiskevatn" />
		<tag k="natural" v="water" />
		<tag k="ssr:stedsnr" v="729066" />
	</node>
	<node id="-289609" lat="58.5867944451" lon="8.28989445034">
		<tag k="name" v="Flekevasskilen" />
		<tag k="natural" v="bay" />
		<tag k="ssr:stedsnr" v="356502" />
	</node>
	<node id="-290440" lat="58.5683000043" lon="8.49727500577">
		<tag k="name" v="Vatnetjønn" />
		<tag k="natural" v="water" />
		<tag k="ssr:stedsnr" v="113039" />
	</node>
	<node id="-292487" lat="58.4971000017" lon="8.46918611746">
		<tag k="name" v="Hersvatn" />
		<tag k="natural" v="water" />
		<tag k="old_name" v="Heisvatn" />
		<tag k="ssr:stedsnr" v="728660" />
	</node>
	<node id="-290753" lat="58.6543138901" lon="8.07998888695">
		<tag k="name" v="Risholmen" />
		<tag k="place" v="islet" />
		<tag k="ssr:stedsnr" v="173979" />
	</node>
	<node id="-290435" lat="58.7036527744" lon="7.98465555461">
		<tag k="name" v="Fjelltjønn" />
		<tag k="natural" v="water" />
		<tag k="ssr:stedsnr" v="112949" />
	</node>
	<node id="-290433" lat="58.6652000022" lon="8.49042500143">
		<tag k="name" v="Småtjønnene" />
		<tag k="natural" v="water" />
		<tag k="ssr:stedsnr" v="113644" />
	</node>
	<node id="-290432" lat="58.6691416691" lon="8.52070000745">
		<tag k="name" v="Mørkelitjønn" />
		<tag k="natural" v="water" />
		<tag k="ssr:stedsnr" v="113641" />
	</node>
	<node id="-290431" lat="58.6698388852" lon="8.50536388781">
		<tag k="name" v="Sautjønn" />
		<tag k="natural" v="water" />
		<tag k="ssr:stedsnr" v="113633" />
	</node>
	<node id="-290410" lat="58.5090805553" lon="8.49796389456">
		<tag k="name" v="Gjøssevasslonene" />
		<tag k="natural" v="water" />
		<tag k="ssr:stedsnr" v="110437" />
		<tag k="water" v="lake" />
	</node>
	<node id="-292474" lat="58.5894111126" lon="8.60620000381">
		<tag k="name" v="Færåstjønn" />
		<tag k="natural" v="water" />
		<tag k="ssr:stedsnr" v="721465" />
	</node>
	<node id="-289614" lat="58.6027416628" lon="8.42682223004">
		<tag k="name" v="Borodden" />
		<tag k="natural" v="cape" />
		<tag k="ssr:stedsnr" v="356539" />
	</node>
	<node id="-292470" lat="58.5979166708" lon="8.61896388129">
		<tag k="name" v="Jomåstjønn" />
		<tag k="natural" v="water" />
		<tag k="ssr:stedsnr" v="721418" />
	</node>
	<node id="-292469" lat="58.5642472203" lon="8.31219165873">
		<tag k="name" v="Lillebirtjønn" />
		<tag k="natural" v="water" />
		<tag k="ssr:stedsnr" v="721296" />
	</node>
	<node id="-292468" lat="58.5743361116" lon="8.32258334028">
		<tag k="name" v="Småtjønnene" />
		<tag k="natural" v="water" />
		<tag k="ssr:stedsnr" v="721291" />
	</node>
	<node id="-290419" lat="58.6783583291" lon="8.03199166233">
		<tag k="name" v="Høgtjønn" />
		<tag k="natural" v="bay" />
		<tag k="ssr:stedsnr" v="112115" />
	</node>
	<node id="-292465" lat="58.5687499985" lon="8.22237499233">
		<tag k="name" v="Skjeggedalsåna" />
		<tag k="ssr:stedsnr" v="721256" />
		<tag k="waterway" v="river" />
	</node>
	<node id="-290416" lat="58.470694443" lon="8.53943611723">
		<tag k="name" v="Øyketjenn" />
		<tag k="natural" v="water" />
		<tag k="ssr:stedsnr" v="110927" />
	</node>
	<node id="-290414" lat="58.4715805574" lon="8.5568333356">
		<tag k="name" v="Tollodden" />
		<tag k="natural" v="cape" />
		<tag k="ssr:stedsnr" v="110895" />
	</node>
	<node id="-292461" lat="58.5932166702" lon="8.4509888954">
		<tag k="name" v="Lille Rambeistjønn" />
		<tag k="natural" v="water" />
		<tag k="ssr:stedsnr" v="720958" />
	</node>
	<node id="-292460" lat="58.6290388929" lon="8.04333888826">
		<tag k="name" v="Beisdalstjønn" />
		<tag k="natural" v="water" />
		<tag k="ssr:stedsnr" v="720887" />
	</node>
	<node id="-292458" lat="58.6633083301" lon="8.5193861068">
		<tag k="name" v="Lille Sangebutjønn" />
		<tag k="natural" v="water" />
		<tag k="ssr:stedsnr" v="720850" />
	</node>
	<node id="-290409" lat="58.5092833326" lon="8.52959999537">
		<tag k="name" v="Bovassbekken" />
		<tag k="ssr:stedsnr" v="110428" />
		<tag k="waterway" v="stream" />
	</node>
	<node id="-290407" lat="58.5060694435" lon="8.47927500523">
		<tag k="name" v="Haugåsdaltjenn" />
		<tag k="natural" v="water" />
		<tag k="ssr:stedsnr" v="110398" />
	</node>
	<node id="-292454" lat="58.6565583312" lon="8.48659444382">
		<tag k="name" v="Bukketjønn" />
		<tag k="natural" v="water" />
		<tag k="ssr:stedsnr" v="720694" />
	</node>
	<node id="-290405" lat="58.4847277765" lon="8.395763895">
		<tag k="name" v="Åletjenn" />
		<tag k="natural" v="water" />
		<tag k="ssr:stedsnr" v="110755" />
	</node>
	<node id="-292452" lat="58.6476750022" lon="8.26431944042">
		<tag k="name" v="Slåttedalsbekken" />
		<tag k="ssr:stedsnr" v="720673" />
		<tag k="waterway" v="stream" />
	</node>
	<node id="-289382" lat="58.5920250043" lon="8.31261110715">
		<tag k="name" v="Eintilja" />
		<tag k="natural" v="water" />
		<tag k="ssr:stedsnr" v="296569" />
		<tag k="water" v="lake" />
	</node>
	<node id="-292448" lat="58.6537750021" lon="8.30123055099">
		<tag k="name" v="Heitjønn" />
		<tag k="natural" v="water" />
		<tag k="ssr:stedsnr" v="720659" />
	</node>
	<node id="-290399" lat="58.4948944479" lon="8.47663889087">
		<tag k="name" v="Urentjenn" />
		<tag k="natural" v="water" />
		<tag k="ssr:stedsnr" v="110709" />
	</node>
	<node id="-292445" lat="58.6037583331" lon="8.22578610806">
		<tag k="name" v="Kvennes" />
		<tag k="natural" v="cape" />
		<tag k="ssr:stedsnr" v="720627" />
	</node>
	<node id="-290396" lat="58.5284333327" lon="8.52260555752">
		<tag k="name" v="Mjåvatselva" />
		<tag k="ssr:stedsnr" v="110046" />
		<tag k="waterway" v="river" />
	</node>
	<node id="-289722" lat="58.6539861127" lon="8.58104166209">
		<tag k="name" v="Veøya" />
		<tag k="place" v="islet" />
		<tag k="ssr:stedsnr" v="365990" />
	</node>
	<node id="-290388" lat="58.5145138858" lon="8.55135833531">
		<tag k="name" v="Uvasstjenn" />
		<tag k="natural" v="water" />
		<tag k="ssr:stedsnr" v="95057" />
	</node>
	<node id="-292545" lat="58.6395916666" lon="8.66872222147">
		<tag k="name" v="Grassøya" />
		<tag k="place" v="islet" />
		<tag k="ssr:stedsnr" v="762132" />
	</node>
	<node id="-289408" lat="58.6035499978" lon="8.34656111303">
		<tag k="alt_name" v="Ålekjerrtjørna" />
		<tag k="name" v="Ålekjerrtjønn" />
		<tag k="natural" v="water" />
		<tag k="ssr:stedsnr" v="304316" />
	</node>
	<node id="-292429" lat="58.5609166712" lon="8.31051389117">
		<tag k="name" v="Bjortjønn" />
		<tag k="natural" v="water" />
		<tag k="ssr:stedsnr" v="721345" />
	</node>
	<node id="-290840" lat="58.5657416698" lon="8.65213889393">
		<tag k="name" v="Hestetjønn" />
		<tag k="natural" v="water" />
		<tag k="ssr:stedsnr" v="175823" />
	</node>
	<node id="-292426" lat="58.5680833376" lon="8.27910277934">
		<tag k="name" v="Lille Lomstjønn" />
		<tag k="natural" v="water" />
		<tag k="ssr:stedsnr" v="721333" />
	</node>
	<node id="-292424" lat="58.6166583334" lon="8.35141389028">
		<tag k="name" v="Tolletangen" />
		<tag k="natural" v="cape" />
		<tag k="ssr:stedsnr" v="720497" />
	</node>
	<node id="-289377" lat="58.6196222217" lon="8.21828055219">
		<tag k="name" v="Maritjønn" />
		<tag k="natural" v="water" />
		<tag k="ssr:stedsnr" v="296482" />
	</node>
	<node id="-292420" lat="58.6054305594" lon="8.29959444293">
		<tag k="name" v="Hellesbekken" />
		<tag k="ssr:stedsnr" v="720462" />
		<tag k="waterway" v="stream" />
	</node>
	<node id="-292418" lat="58.6194111068" lon="8.34299721793">
		<tag k="name" v="Bellandsvannholmen" />
		<tag k="place" v="islet" />
		<tag k="ssr:stedsnr" v="720448" />
	</node>
	<node id="-292408" lat="58.605755552" lon="8.53322500437">
		<tag k="name" v="Lille Grisantjønn" />
		<tag k="natural" v="water" />
		<tag k="ssr:stedsnr" v="720175" />
	</node>
	<node id="-292407" lat="58.6101638901" lon="8.52500276974">
		<tag k="name" v="Flingretjønn" />
		<tag k="natural" v="water" />
		<tag k="ssr:stedsnr" v="720165" />
	</node>
	<node id="-291081" lat="58.5729000043" lon="8.22343888414">
		<tag k="name" v="Plankebukta" />
		<tag k="natural" v="bay" />
		<tag k="ssr:stedsnr" v="235301" />
	</node>
	<node id="-292403" lat="58.6130111071" lon="8.48356388186">
		<tag k="name" v="Lille Lauvlandstjønn" />
		<tag k="natural" v="water" />
		<tag k="ssr:stedsnr" v="720148" />
	</node>
	<node id="-290739" lat="58.6651166675" lon="8.27216666243">
		<tag k="name" v="Ormegrovtjønn" />
		<tag k="natural" v="water" />
		<tag k="ssr:stedsnr" v="173727" />
	</node>
	<node id="-290352" lat="58.6536222238" lon="8.63631389731">
		<tag k="name" v="Lillefoss" />
		<tag k="natural" v="waterfall" />
		<tag k="ssr:stedsnr" v="93360" />
	</node>
	<node id="-290350" lat="58.6571555558" lon="8.62257500435">
		<tag k="name" v="Storholmen" />
		<tag k="place" v="islet" />
		<tag k="ssr:stedsnr" v="87850" />
	</node>
	<node id="-290397" lat="58.5211722181" lon="8.50955278025">
		<tag k="name" v="Kroktjenn" />
		<tag k="natural" v="water" />
		<tag k="ssr:stedsnr" v="110050" />
	</node>
	<node id="-290347" lat="58.6497972207" lon="8.64826111315">
		<tag k="name" v="Homannstø" />
		<tag k="natural" v="bay" />
		<tag k="ssr:stedsnr" v="78881" />
	</node>
	<node id="-290343" lat="58.5729194445" lon="8.56593333326">
		<tag k="name" v="Tiksletjenn" />
		<tag k="natural" v="water" />
		<tag k="ssr:stedsnr" v="62871" />
	</node>
	<node id="-290737" lat="58.6982888861" lon="8.30384444226">
		<tag k="name" v="Auestadkilen" />
		<tag k="ssr:stedsnr" v="173710" />
		<tag k="waterway" v="river" />
	</node>
	<node id="-292388" lat="58.7008472187" lon="8.08366666291">
		<tag k="name" v="Store Brokkelinetjønn" />
		<tag k="natural" v="water" />
		<tag k="ssr:stedsnr" v="719976" />
	</node>
	<node id="-292386" lat="58.664774998" lon="8.10731111105">
		<tag k="name" v="Rossenes" />
		<tag k="natural" v="cape" />
		<tag k="ssr:stedsnr" v="719959" />
	</node>
	<node id="-290337" lat="58.5133611099" lon="8.68323333209">
		<tag k="name" v="Døbletjenn" />
		<tag k="natural" v="water" />
		<tag k="ssr:stedsnr" v="62738" />
	</node>
	<node id="-292379" lat="58.6748916688" lon="8.06184444523">
		<tag k="name" v="Lomsvassodden" />
		<tag k="natural" v="cape" />
		<tag k="ssr:stedsnr" v="719852" />
	</node>
	<node id="-289711" lat="58.5152722211" lon="8.54278889476">
		<tag k="name" v="Uvatn" />
		<tag k="natural" v="water" />
		<tag k="ssr:stedsnr" v="365736" />
		<tag k="water" v="lake" />
	</node>
	<node id="-290326" lat="58.6334083352" lon="8.30649721526">
		<tag k="alt_name" v="Langevatnet" />
		<tag k="name" v="Langevatn" />
		<tag k="natural" v="water" />
		<tag k="ssr:stedsnr" v="62371" />
	</node>
	<node id="-290325" lat="58.6252416632" lon="8.27357221864">
		<tag k="alt_name" v="Kvernåna" />
		<tag k="name" v="Kvennåna" />
		<tag k="ssr:stedsnr" v="62370" />
		<tag k="waterway" v="river" />
	</node>
	<node id="-290323" lat="58.6314055532" lon="8.34236111831">
		<tag k="alt_name" v="Kverntjørn" />
		<tag k="name" v="Kvennetjønn" />
		<tag k="natural" v="water" />
		<tag k="ssr:stedsnr" v="62365" />
	</node>
	<node id="-292370" lat="58.6631111119" lon="8.23328333874">
		<tag k="name" v="Rakketjønn" />
		<tag k="natural" v="water" />
		<tag k="ssr:stedsnr" v="719699" />
	</node>
	<node id="-290319" lat="58.6408666625" lon="8.32019444128">
		<tag k="alt_name" v="Kjørketjørn" />
		<tag k="name" v="Kyrkjetjønn" />
		<tag k="natural" v="water" />
		<tag k="ssr:stedsnr" v="62245" />
	</node>
	<node id="-292364" lat="58.6871110992" lon="8.33800644447">
		<tag k="name" v="Lille Skavlitjønn" />
		<tag k="natural" v="water" />
		<tag k="ssr:stedsnr" v="719601" />
	</node>
	<node id="-290315" lat="58.5670249992" lon="8.24326111892">
		<tag k="alt_name" v="Kvernetjørn" />
		<tag k="name" v="Kvernetjønn" />
		<tag k="natural" v="water" />
		<tag k="ssr:stedsnr" v="62131" />
	</node>
	<node id="-290314" lat="58.5754361131" lon="8.74652221467">
		<tag k="alt_name" v="Igletjenn" />
		<tag k="name" v="Igletjern" />
		<tag k="natural" v="water" />
		<tag k="ssr:stedsnr" v="61858" />
	</node>
	<node id="-292360" lat="58.6021222209" lon="8.53095556082">
		<tag k="name" v="Tjørgrovtjønn" />
		<tag k="natural" v="water" />
		<tag k="ssr:stedsnr" v="719359" />
	</node>
	<node id="-292354" lat="58.5742972219" lon="8.45733333783">
		<tag k="name" v="Styggtjønn" />
		<tag k="natural" v="water" />
		<tag k="ssr:stedsnr" v="719239" />
	</node>
	<node id="-292353" lat="58.6463083313" lon="8.21522221384">
		<tag k="name" v="Jurdalshølen" />
		<tag k="place" v="locality" />
		<tag k="ssr:stedsnr" v="719233" />
	</node>
	<node id="-290301" lat="58.5360916678" lon="8.47424999971">
		<tag k="name" v="Grandalselva" />
		<tag k="ssr:stedsnr" v="61671" />
		<tag k="waterway" v="stream" />
	</node>
	<node id="-292348" lat="58.6408861139" lon="8.15373888303">
		<tag k="name" v="Hesthomtjønn" />
		<tag k="natural" v="water" />
		<tag k="ssr:stedsnr" v="719039" />
	</node>
	<node id="-292344" lat="58.6909333302" lon="8.36052777407">
		<tag k="name" v="Ljosevassbekken" />
		<tag k="ssr:stedsnr" v="719443" />
		<tag k="waterway" v="stream" />
	</node>
	<node id="-290293" lat="58.6715111109" lon="8.08241110473">
		<tag k="name" v="Bjørndalsbekken" />
		<tag k="ssr:stedsnr" v="61585" />
		<tag k="waterway" v="stream" />
	</node>
	<node id="-292340" lat="58.4701805518" lon="8.56328888468">
		<tag k="name" v="Lyngholmen" />
		<tag k="place" v="islet" />
		<tag k="ssr:stedsnr" v="717910" />
	</node>
	<node id="-291070" lat="58.6115861107" lon="8.45102222266">
		<tag k="name" v="Nordstrand" />
		<tag k="natural" v="beach" />
		<tag k="ssr:stedsnr" v="235133" />
	</node>
	<node id="-289704" lat="58.6987527792" lon="8.28785555361">
		<tag k="alt_name" v="Bjortjørn" />
		<tag k="name" v="Bjortjønn" />
		<tag k="natural" v="water" />
		<tag k="ssr:stedsnr" v="365477" />
	</node>
	<node id="-290286" lat="58.6874805559" lon="8.34614721595">
		<tag k="alt_name" v="Ljosevatnet" />
		<tag k="name" v="Ljosevatn" />
		<tag k="natural" v="water" />
		<tag k="ssr:stedsnr" v="61440" />
		<tag k="water" v="lake" />
	</node>
	<node id="-290285" lat="58.6068750018" lon="8.36613611689">
		<tag k="name" v="Tvetjørnane" />
		<tag k="natural" v="water" />
		<tag k="ssr:stedsnr" v="61316" />
	</node>
	<node id="-292332" lat="58.4991777774" lon="8.49906666054">
		<tag k="name" v="Sandtjenn" />
		<tag k="natural" v="water" />
		<tag k="ssr:stedsnr" v="717437" />
	</node>
	<node id="-290283" lat="58.654808331" lon="8.21469722382">
		<tag k="alt_name" v="Formuvatnet" />
		<tag k="name" v="Furumovatnet" />
		<tag k="natural" v="water" />
		<tag k="ssr:stedsnr" v="61274" />
		<tag k="water" v="lake" />
	</node>
	<node id="-292330" lat="58.5161694483" lon="8.46818055268">
		<tag k="name" v="Trollheia" />
		<tag k="natural" v="water" />
		<tag k="ssr:stedsnr" v="717103" />
	</node>
	<node id="-290727" lat="58.654675004" lon="8.24376110845">
		<tag k="name" v="Lauvrakstjønn" />
		<tag k="natural" v="water" />
		<tag k="ssr:stedsnr" v="173701" />
	</node>
	<node id="-292328" lat="58.4612833339" lon="8.58693888208">
		<tag k="name" v="Kvennbekken" />
		<tag k="ssr:stedsnr" v="716869" />
		<tag k="waterway" v="stream" />
	</node>
	<node id="-290279" lat="58.5857722238" lon="8.21096666427">
		<tag k="name" v="Kolstraumfjorden" />
		<tag k="natural" v="water" />
		<tag k="ssr:stedsnr" v="61159" />
		<tag k="water" v="lake" />
	</node>
	<node id="-292325" lat="58.5313583338" lon="8.53901110527">
		<tag k="name" v="Eiklistemmen" />
		<tag k="ssr:stedsnr" v="717048" />
		<tag k="waterway" v="dam" />
	</node>
	<node id="-290726" lat="58.6053833308" lon="8.2740500064">
		<tag k="name" v="Bjorhusa" />
		<tag k="natural" v="beach" />
		<tag k="ssr:stedsnr" v="173699" />
	</node>
	<node id="-292322" lat="58.5374527816" lon="8.39951944701">
		<tag k="name" v="Lille Ljosvatn" />
		<tag k="natural" v="water" />
		<tag k="ssr:stedsnr" v="716186" />
		<tag k="water" v="lake" />
	</node>
	<node id="-292319" lat="58.5286138922" lon="8.72045277174">
		<tag k="name" v="Steilstjenn" />
		<tag k="natural" v="water" />
		<tag k="ssr:stedsnr" v="701433" />
	</node>
	<node id="-289701" lat="58.6237555561" lon="8.3358999952">
		<tag k="alt_name" v="Rasvassvatnet" />
		<tag k="name" v="Rasvasstjønn" />
		<tag k="natural" v="water" />
		<tag k="ssr:stedsnr" v="365368" />
	</node>
	<node id="-291066" lat="58.6252194485" lon="8.48450834128">
		<tag k="name" v="Elstjønn" />
		<tag k="natural" v="water" />
		<tag k="ssr:stedsnr" v="235057" />
	</node>
	<node id="-292313" lat="58.507633335" lon="8.62589167347">
		<tag k="name" v="Songebekken" />
		<tag k="ssr:stedsnr" v="701275" />
		<tag k="waterway" v="stream" />
	</node>
	<node id="-292312" lat="58.5208833378" lon="8.61276667416">
		<tag k="name" v="Tverrbekken" />
		<tag k="ssr:stedsnr" v="701236" />
		<tag k="waterway" v="stream" />
	</node>
	<node id="-289699" lat="58.6520805535" lon="8.3368222281">
		<tag k="alt_name" v="Svarttjørn" />
		<tag k="name" v="Svartetjønn" />
		<tag k="natural" v="water" />
		<tag k="ssr:stedsnr" v="365283" />
	</node>
	<node id="-292303" lat="58.5157749963" lon="8.56521389112">
		<tag k="name" v="Ytre Hellertjenn" />
		<tag k="natural" v="water" />
		<tag k="ssr:stedsnr" v="701083" />
	</node>
	<node id="-292301" lat="58.4992555571" lon="8.57117499175">
		<tag k="name" v="Andbubekken" />
		<tag k="ssr:stedsnr" v="701061" />
		<tag k="waterway" v="stream" />
	</node>
	<node id="-290250" lat="58.6769694431" lon="8.1491027792">
		<tag k="name" v="Skjeggedalsåna" />
		<tag k="ssr:stedsnr" v="53605" />
		<tag k="waterway" v="river" />
	</node>
	<node id="-291313" lat="58.5683111111" lon="8.61732499471">
		<tag k="name" v="Kleivtjønn" />
		<tag k="natural" v="water" />
		<tag k="ssr:stedsnr" v="417910" />
	</node>
	<node id="-290246" lat="58.5452166657" lon="8.47626943873">
		<tag k="name" v="Svartevik" />
		<tag k="natural" v="bay" />
		<tag k="ssr:stedsnr" v="53582" />
	</node>
	<node id="-290245" lat="58.6893388869" lon="8.23076944763">
		<tag k="name" v="Tristikla" />
		<tag k="natural" v="water" />
		<tag k="ssr:stedsnr" v="53572" />
		<tag k="water" v="pond" />
	</node>
	<node id="-292292" lat="58.5808777823" lon="8.60900000095">
		<tag k="alt_name" v="Bjelletjern" />
		<tag k="name" v="Bjelletjønn" />
		<tag k="natural" v="water" />
		<tag k="ssr:stedsnr" v="668863" />
	</node>
	<node id="-292290" lat="58.6273500038" lon="8.65064166722">
		<tag k="alt_name" v="Store Rundetjønn" />
		<tag k="name" v="Rundtjern" />
		<tag k="natural" v="water" />
		<tag k="ssr:stedsnr" v="668786" />
	</node>
	<node id="-292289" lat="58.6130083374" lon="8.49878888358">
		<tag k="alt_name" v="Lauvlandstjørn" />
		<tag k="name" v="Lauvlandstjønn" />
		<tag k="natural" v="water" />
		<tag k="ssr:stedsnr" v="668781" />
	</node>
	<node id="-290240" lat="58.5836055563" lon="8.31684167018">
		<tag k="name" v="Langbekk" />
		<tag k="ssr:stedsnr" v="53513" />
		<tag k="waterway" v="stream" />
	</node>
	<node id="-289696" lat="58.5900277816" lon="8.30417500655">
		<tag k="alt_name" v="Flekevatnet" />
		<tag k="name" v="Flekevatn" />
		<tag k="natural" v="water" />
		<tag k="ssr:stedsnr" v="365177" />
		<tag k="water" v="lake" />
	</node>
	<node id="-291207" lat="58.6676972255" lon="8.15500554852">
		<tag k="name" v="Kvennebekken" />
		<tag k="ssr:stedsnr" v="416538" />
		<tag k="waterway" v="stream" />
	</node>
	<node id="-292284" lat="58.5280361083" lon="8.55815556391">
		<tag k="alt_name" v="Svarttjenn" />
		<tag k="name" v="Svartetjern" />
		<tag k="natural" v="water" />
		<tag k="ssr:stedsnr" v="668722" />
	</node>
	<node id="-292283" lat="58.5491694417" lon="8.67189722774">
		<tag k="name" v="Eivindstadtjenn" />
		<tag k="natural" v="water" />
		<tag k="ssr:stedsnr" v="668684" />
	</node>
	<node id="-292280" lat="58.5506666635" lon="8.49871388182">
		<tag k="alt_name" v="Sautjørn" />
		<tag k="name" v="Sautjønn" />
		<tag k="natural" v="water" />
		<tag k="ssr:stedsnr" v="668660" />
	</node>
	<node id="-290230" lat="58.5602694441" lon="8.34900000167">
		<tag k="name" v="Jonsfoss" />
		<tag k="natural" v="waterfall" />
		<tag k="ssr:stedsnr" v="53379" />
	</node>
	<node id="-292276" lat="58.6758055591" lon="8.06470000192">
		<tag k="alt_name" v="Lomsvatn" />
		<tag k="name" v="Lomsvatnet" />
		<tag k="natural" v="water" />
		<tag k="ssr:stedsnr" v="668617" />
	</node>
	<node id="-289812" lat="58.632113888" lon="8.15262777271">
		<tag k="name" v="Stemtjønn" />
		<tag k="natural" v="water" />
		<tag k="ssr:stedsnr" v="476053" />
	</node>
	<node id="-290035" lat="58.5183000026" lon="8.40386944909">
		<tag k="name" v="Båtsteintjørna" />
		<tag k="natural" v="water" />
		<tag k="ssr:stedsnr" v="1083" />
	</node>
	<node id="-290224" lat="58.6067138923" lon="8.64783611261">
		<tag k="name" v="Svartehøl" />
		<tag k="place" v="locality" />
		<tag k="ssr:stedsnr" v="53233" />
	</node>
	<node id="-289880" lat="58.6650416632" lon="8.12418054906">
		<tag k="name" v="Bjornes" />
		<tag k="natural" v="cape" />
		<tag k="ssr:stedsnr" v="477476" />
	</node>
	<node id="-290220" lat="58.6111972179" lon="8.55377222348">
		<tag k="name" v="Signestjønn" />
		<tag k="natural" v="water" />
		<tag k="ssr:stedsnr" v="53197" />
	</node>
	<node id="-292267" lat="58.6302472197" lon="8.20891389106">
		<tag k="alt_name" v="Jordestjørn" />
		<tag k="name" v="Jordestjønn" />
		<tag k="natural" v="water" />
		<tag k="ssr:stedsnr" v="668403" />
	</node>
	<node id="-290218" lat="58.6166583303" lon="8.5106750027">
		<tag k="name" v="Kalstjønn" />
		<tag k="natural" v="water" />
		<tag k="ssr:stedsnr" v="53161" />
	</node>
	<node id="-292265" lat="58.6054694482" lon="8.20326111451">
		<tag k="alt_name" v="Myklandstjørn" />
		<tag k="name" v="Myklandstjønnane" />
		<tag k="natural" v="water" />
		<tag k="ssr:stedsnr" v="668365" />
	</node>
	<node id="-292264" lat="58.6032805541" lon="8.22938333506">
		<tag k="name" v="Lonane" />
		<tag k="natural" v="bay" />
		<tag k="ssr:stedsnr" v="668359" />
	</node>
	<node id="-292263" lat="58.6732111104" lon="8.15891943814">
		<tag k="name" v="Åsdalsbekken" />
		<tag k="ssr:stedsnr" v="668337" />
		<tag k="waterway" v="river" />
	</node>
	<node id="-290211" lat="58.5821666646" lon="8.55891389674">
		<tag k="name" v="Jomåstjønn" />
		<tag k="natural" v="water" />
		<tag k="ssr:stedsnr" v="53118" />
	</node>
	<node id="-292257" lat="58.6727194469" lon="8.34882221842">
		<tag k="name" v="Ålevatnet" />
		<tag k="natural" v="water" />
		<tag k="ssr:stedsnr" v="668307" />
		<tag k="water" v="lake" />
	</node>
	<node id="-292254" lat="58.551227782" lon="8.25365000012">
		<tag k="alt_name" v="Andetjørn" />
		<tag k="name" v="Andetjønn" />
		<tag k="natural" v="water" />
		<tag k="ssr:stedsnr" v="668248" />
	</node>
	<node id="-292252" lat="58.5917555582" lon="8.44615555428">
		<tag k="alt_name" v="Rambeitjørn;Rambeistjørn" />
		<tag k="name" v="Rambeistjønn" />
		<tag k="natural" v="water" />
		<tag k="ssr:stedsnr" v="668201" />
	</node>
	<node id="-292250" lat="58.5824222251" lon="8.29231389622">
		<tag k="alt_name" v="Berketjørn" />
		<tag k="name" v="Berketjønn" />
		<tag k="natural" v="water" />
		<tag k="ssr:stedsnr" v="668184" />
	</node>
	<node id="-292249" lat="58.5848305564" lon="8.30655833564">
		<tag k="alt_name" v="Kroktjørn" />
		<tag k="name" v="Kroktjønn" />
		<tag k="natural" v="water" />
		<tag k="ssr:stedsnr" v="668182" />
	</node>
	<node id="-292248" lat="58.5853277754" lon="8.31374445148">
		<tag k="alt_name" v="Tiksletjørn" />
		<tag k="name" v="Tikseltjønn" />
		<tag k="natural" v="water" />
		<tag k="ssr:stedsnr" v="668180" />
	</node>
	<node id="-292247" lat="58.6008055595" lon="8.44561944643">
		<tag k="alt_name" v="Mellistjørn" />
		<tag k="name" v="Mellistjønn" />
		<tag k="natural" v="water" />
		<tag k="ssr:stedsnr" v="668171" />
	</node>
	<node id="-293289" lat="58.6355194411" lon="8.34155278114">
		<tag k="fixme" v="multiple name tags, choose one and add the other to alt_name" />
		<tag k="name" v="Jordestjønn;Ytretjørn" />
		<tag k="natural" v="water" />
		<tag k="ssr:stedsnr" v="911386" />
	</node>
	<node id="-292245" lat="58.5690805532" lon="8.25940554704">
		<tag k="alt_name" v="Hundstjørn" />
		<tag k="name" v="Hundstjønn" />
		<tag k="natural" v="water" />
		<tag k="ssr:stedsnr" v="668135" />
	</node>
	<node id="-292244" lat="58.5757972234" lon="8.34260556213">
		<tag k="alt_name" v="Lauvrakstjørna" />
		<tag k="name" v="Lauvrakstjønn" />
		<tag k="natural" v="water" />
		<tag k="ssr:stedsnr" v="668124" />
	</node>
	<node id="-292242" lat="58.5034166662" lon="8.44101667452">
		<tag k="alt_name" v="Tiksletjørna" />
		<tag k="name" v="Tiksletjenn" />
		<tag k="natural" v="water" />
		<tag k="ssr:stedsnr" v="668004" />
	</node>
	<node id="-290193" lat="58.6553666673" lon="8.01274166208">
		<tag k="name" v="Stavdalstjønn" />
		<tag k="natural" v="water" />
		<tag k="ssr:stedsnr" v="52840" />
	</node>
	<node id="-290712" lat="58.5738027773" lon="8.47221666229">
		<tag k="name" v="Lona" />
		<tag k="natural" v="water" />
		<tag k="ssr:stedsnr" v="173240" />
		<tag k="water" v="lake" />
	</node>
	<node id="-292238" lat="58.4850916711" lon="8.65865000592">
		<tag k="alt_name" v="Mårvann" />
		<tag k="name" v="Mårvannet" />
		<tag k="natural" v="water" />
		<tag k="ssr:stedsnr" v="667620" />
		<tag k="water" v="lake" />
	</node>
	<node id="-292236" lat="58.5725138916" lon="8.57878610644">
		<tag k="name" v="Kyrtjønn" />
		<tag k="natural" v="water" />
		<tag k="ssr:stedsnr" v="660967" />
	</node>
	<node id="-293442" lat="58.6813194478" lon="8.33717500025">
		<tag k="name" v="Njuketjønn" />
		<tag k="natural" v="water" />
		<tag k="ssr:stedsnr" v="962745" />
	</node>
	<node id="-292229" lat="58.5643444426" lon="8.64068333148">
		<tag k="name" v="Kråkebekken" />
		<tag k="ssr:stedsnr" v="660840" />
		<tag k="waterway" v="stream" />
	</node>
	<node id="-290179" lat="58.5521166658" lon="8.50283888202">
		<tag k="name" v="Styggetjønn" />
		<tag k="natural" v="water" />
		<tag k="ssr:stedsnr" v="52643" />
	</node>
	<node id="-292226" lat="58.5571722263" lon="8.61678889445">
		<tag k="name" v="Løvjomåstjønn" />
		<tag k="natural" v="water" />
		<tag k="ssr:stedsnr" v="660790" />
	</node>
	<node id="-290175" lat="58.6481388922" lon="8.23567499877">
		<tag k="name" v="Strålesund" />
		<tag k="natural" v="strait" />
		<tag k="ssr:stedsnr" v="52617" />
	</node>
	<node id="-292221" lat="58.5520527799" lon="8.46838333856">
		<tag k="name" v="Flåtterelva" />
		<tag k="ssr:stedsnr" v="660548" />
		<tag k="waterway" v="river" />
	</node>
	<node id="-290169" lat="58.6177694481" lon="8.22919721822">
		<tag k="name" v="Bjørnestøyløyane" />
		<tag k="place" v="islet" />
		<tag k="ssr:stedsnr" v="52539" />
	</node>
	<node id="-290708" lat="58.6264777802" lon="8.21578333146">
		<tag k="name" v="Høgetjønn" />
		<tag k="natural" v="water" />
		<tag k="ssr:stedsnr" v="173213" />
	</node>
	<node id="-290165" lat="58.6639249994" lon="8.17036667515">
		<tag k="name" v="Nedre Lindåstjønn" />
		<tag k="natural" v="water" />
		<tag k="ssr:stedsnr" v="52516" />
	</node>
	<node id="-290163" lat="58.6457305521" lon="8.65666944556">
		<tag k="name" v="Svanekilen" />
		<tag k="natural" v="bay" />
		<tag k="ssr:stedsnr" v="52508" />
	</node>
	<node id="-292210" lat="58.578680553" lon="8.46923611499">
		<tag k="name" v="Strekksundet" />
		<tag k="natural" v="strait" />
		<tag k="ssr:stedsnr" v="660210" />
	</node>
	<node id="-290160" lat="58.5952027801" lon="8.50074722082">
		<tag k="name" v="Jakobstjønn" />
		<tag k="natural" v="water" />
		<tag k="ssr:stedsnr" v="52379" />
	</node>
	<node id="-290158" lat="58.6371333312" lon="8.33786111634">
		<tag k="name" v="Nesa" />
		<tag k="natural" v="cape" />
		<tag k="ssr:stedsnr" v="52338" />
	</node>
	<node id="-290155" lat="58.6051444447" lon="8.20721944929">
		<tag k="name" v="Høgetjønn" />
		<tag k="natural" v="water" />
		<tag k="ssr:stedsnr" v="52250" />
	</node>
	<node id="-292201" lat="58.670488885" lon="8.25572500015">
		<tag k="name" v="Blondebekken" />
		<tag k="ssr:stedsnr" v="659846" />
		<tag k="waterway" v="stream" />
	</node>
	<node id="-292198" lat="58.6795361081" lon="8.34922778265">
		<tag k="name" v="Fisketjønn" />
		<tag k="natural" v="water" />
		<tag k="ssr:stedsnr" v="659756" />
	</node>
	<node id="-289680" lat="58.7046166685" lon="8.04762777961">
		<tag k="name" v="Storlibekken" />
		<tag k="ssr:stedsnr" v="364584" />
		<tag k="waterway" v="stream" />
	</node>
	<node id="-290142" lat="58.6934472235" lon="8.02136944457">
		<tag k="name" v="Badstuvika" />
		<tag k="natural" v="bay" />
		<tag k="ssr:stedsnr" v="51980" />
	</node>
	<node id="-292187" lat="58.6245916627" lon="8.22200832751">
		<tag k="name" v="Vinterdalsbukta" />
		<tag k="natural" v="bay" />
		<tag k="ssr:stedsnr" v="659632" />
	</node>
	<node id="-290900" lat="58.5652722228" lon="8.51948055162">
		<tag k="alt_name" v="Ormtjerna" />
		<tag k="name" v="Ormetjønn" />
		<tag k="natural" v="water" />
		<tag k="ssr:stedsnr" v="183855" />
	</node>
	<node id="-292180" lat="58.6029027734" lon="8.19694444149">
		<tag k="name" v="Stridstangen" />
		<tag k="natural" v="cape" />
		<tag k="ssr:stedsnr" v="659605" />
	</node>
	<node id="-290130" lat="58.6339027795" lon="8.19126666479">
		<tag k="name" v="Lille Svanetjønn" />
		<tag k="natural" v="water" />
		<tag k="ssr:stedsnr" v="51236" />
	</node>
	<node id="-292177" lat="58.6884777817" lon="8.21071944466">
		<tag k="name" v="Surtepytt" />
		<tag k="natural" v="water" />
		<tag k="ssr:stedsnr" v="659598" />
	</node>
	<node id="-290128" lat="58.6444722188" lon="8.2562194446">
		<tag k="name" v="Førbustøltjønn" />
		<tag k="natural" v="water" />
		<tag k="ssr:stedsnr" v="51211" />
	</node>
	<node id="-292175" lat="58.6821361106" lon="8.15191110919">
		<tag k="name" v="Indre Støtjønn" />
		<tag k="natural" v="water" />
		<tag k="ssr:stedsnr" v="659570" />
	</node>
	<node id="-290124" lat="58.4672972185" lon="8.54906665886">
		<tag k="name" v="Liestoet" />
		<tag k="natural" v="cape" />
		<tag k="ssr:stedsnr" v="49912" />
	</node>
	<node id="-290123" lat="58.4617972255" lon="8.58049999736">
		<tag k="name" v="Rugdelitjenn" />
		<tag k="natural" v="water" />
		<tag k="ssr:stedsnr" v="49881" />
	</node>
	<node id="-290114" lat="58.5121694429" lon="8.4970805587">
		<tag k="name" v="Stuvtjern" />
		<tag k="natural" v="water" />
		<tag k="ssr:stedsnr" v="49474" />
	</node>
	<node id="-292747" lat="58.5981250038" lon="8.4252611108">
		<tag k="fixme" v="multiple name tags, choose one and add the other to alt_name" />
		<tag k="name" v="Setetjørn, vestre;Østre Setetjønn" />
		<tag k="natural" v="water" />
		<tag k="ssr:stedsnr" v="789178" />
	</node>
	<node id="-292160" lat="58.6057111085" lon="8.29328055906">
		<tag k="name" v="Hundsbekk" />
		<tag k="ssr:stedsnr" v="659459" />
		<tag k="waterway" v="stream" />
	</node>
	<node id="-290110" lat="58.5063194401" lon="8.53061667019">
		<tag k="name" v="Dapen" />
		<tag k="natural" v="water" />
		<tag k="ssr:stedsnr" v="49450" />
	</node>
	<node id="-289674" lat="58.6003999982" lon="8.20444167256">
		<tag k="name" v="Tveitkilen" />
		<tag k="natural" v="bay" />
		<tag k="ssr:stedsnr" v="364317" />
	</node>
	<node id="-290106" lat="58.5219333347" lon="8.50316944564">
		<tag k="name" v="Fugletjenn" />
		<tag k="natural" v="water" />
		<tag k="ssr:stedsnr" v="49063" />
	</node>
	<node id="-292153" lat="58.5887444427" lon="8.53872500222">
		<tag k="name" v="Hundevassfossen" />
		<tag k="natural" v="waterfall" />
		<tag k="ssr:stedsnr" v="659396" />
	</node>
	<node id="-292150" lat="58.6431638889" lon="8.61938332958">
		<tag k="name" v="Lilletjønn" />
		<tag k="natural" v="water" />
		<tag k="ssr:stedsnr" v="659375" />
	</node>
	<node id="-292149" lat="58.6264555546" lon="8.46111943973">
		<tag k="name" v="Heitjønn" />
		<tag k="natural" v="water" />
		<tag k="ssr:stedsnr" v="659307" />
	</node>
	<node id="-290099" lat="58.6179277793" lon="8.70130555754">
		<tag k="name" v="Kvernhusøya" />
		<tag k="place" v="islet" />
		<tag k="ssr:stedsnr" v="34303" />
	</node>
	<node id="-289331" lat="58.6611722221" lon="8.24226944857">
		<tag k="name" v="Langebekk" />
		<tag k="ssr:stedsnr" v="295716" />
		<tag k="waterway" v="stream" />
	</node>
	<node id="-292143" lat="58.6244638909" lon="8.62869166157">
		<tag k="name" v="Røytjønn" />
		<tag k="natural" v="water" />
		<tag k="ssr:stedsnr" v="659234" />
	</node>
	<node id="-290094" lat="58.5476777754" lon="8.73241388996">
		<tag k="name" v="Moltetjenn" />
		<tag k="natural" v="water" />
		<tag k="ssr:stedsnr" v="34268" />
	</node>
	<node id="-290087" lat="58.5079972227" lon="8.66328610631">
		<tag k="name" v="Yttertjenn" />
		<tag k="natural" v="water" />
		<tag k="ssr:stedsnr" v="34187" />
	</node>
	<node id="-290085" lat="58.5584194458" lon="8.70740832677">
		<tag k="name" v="Herselkilen" />
		<tag k="natural" v="bay" />
		<tag k="ssr:stedsnr" v="34183" />
	</node>
	<node id="-292132" lat="58.6118472251" lon="8.46681943865">
		<tag k="name" v="Åletjønnbekken" />
		<tag k="ssr:stedsnr" v="659134" />
		<tag k="waterway" v="stream" />
	</node>
	<node id="-290080" lat="58.6408000031" lon="8.66535277535">
		<tag k="name" v="Skakøya" />
		<tag k="place" v="islet" />
		<tag k="ssr:stedsnr" v="34148" />
	</node>
	<node id="-289328" lat="58.5559611138" lon="8.51154444202">
		<tag k="name" v="Storøy" />
		<tag k="place" v="islet" />
		<tag k="ssr:stedsnr" v="295687" />
	</node>
	<node id="-292125" lat="58.6320250013" lon="8.53131943729">
		<tag k="name" v="Lillevatn" />
		<tag k="natural" v="water" />
		<tag k="ssr:stedsnr" v="659047" />
		<tag k="water" v="lake" />
	</node>
	<node id="-290074" lat="58.5333444463" lon="8.6748611112">
		<tag k="name" v="Svarttjenn" />
		<tag k="natural" v="water" />
		<tag k="ssr:stedsnr" v="34067" />
	</node>
	<node id="-292120" lat="58.6215444435" lon="8.44560277744">
		<tag k="name" v="Lona" />
		<tag k="natural" v="water" />
		<tag k="ssr:stedsnr" v="659030" />
		<tag k="water" v="lake" />
	</node>
	<node id="-292116" lat="58.6940499987" lon="8.06544444077">
		<tag k="name" v="Vestre Befjelltjønn" />
		<tag k="natural" v="water" />
		<tag k="ssr:stedsnr" v="658882" />
	</node>
	<node id="-292115" lat="58.6921444481" lon="8.10279722203">
		<tag k="name" v="Revetjønn" />
		<tag k="natural" v="water" />
		<tag k="ssr:stedsnr" v="658871" />
	</node>
	<node id="-292114" lat="58.6907916678" lon="8.10789445114">
		<tag k="name" v="Lille Øygardstjønn" />
		<tag k="natural" v="water" />
		<tag k="ssr:stedsnr" v="658869" />
	</node>
	<node id="-290065" lat="58.4806499977" lon="8.5846083311">
		<tag k="name" v="Butjenn" />
		<tag k="natural" v="water" />
		<tag k="ssr:stedsnr" v="34011" />
	</node>
	<node id="-290063" lat="58.4870416632" lon="8.57193888329">
		<tag k="name" v="Annetjenn" />
		<tag k="natural" v="water" />
		<tag k="ssr:stedsnr" v="34004" />
	</node>
	<node id="-290061" lat="58.6408055579" lon="8.65947221393">
		<tag k="alt_name" v="Bjørnvasskilen" />
		<tag k="name" v="Bjønnvasskilen" />
		<tag k="natural" v="bay" />
		<tag k="ssr:stedsnr" v="1975" />
	</node>
	<node id="-290059" lat="58.570355558" lon="8.739233341">
		<tag k="alt_name" v="Lisletjenn" />
		<tag k="name" v="Lisletjern" />
		<tag k="natural" v="water" />
		<tag k="ssr:stedsnr" v="1863" />
	</node>
	<node id="-290058" lat="58.5599888914" lon="8.47154721723">
		<tag k="alt_name" v="Pompetjørn" />
		<tag k="name" v="Pompetjønn" />
		<tag k="natural" v="water" />
		<tag k="ssr:stedsnr" v="1855" />
	</node>
	<node id="-291372" lat="58.5648777747" lon="8.51065832668">
		<tag k="name" v="Hovasstjenna" />
		<tag k="natural" v="water" />
		<tag k="ssr:stedsnr" v="426860" />
	</node>
	<node id="-290054" lat="58.6170027782" lon="8.74219444196">
		<tag k="alt_name" v="Haugsjåtjenn" />
		<tag k="name" v="Hausjatjern" />
		<tag k="natural" v="water" />
		<tag k="ssr:stedsnr" v="1794" />
	</node>
	<node id="-292101" lat="58.5528611074" lon="8.51436944454">
		<tag k="name" v="Berodden" />
		<tag k="natural" v="cape" />
		<tag k="ssr:stedsnr" v="658673" />
	</node>
	<node id="-292100" lat="58.5551972207" lon="8.51250555357">
		<tag k="name" v="Larsnes" />
		<tag k="natural" v="cape" />
		<tag k="ssr:stedsnr" v="658672" />
	</node>
	<node id="-290049" lat="58.5259916682" lon="8.6952583285">
		<tag k="alt_name" v="Øygardstjern" />
		<tag k="name" v="Øygardstjenn" />
		<tag k="natural" v="water" />
		<tag k="ssr:stedsnr" v="1708" />
	</node>
	<node id="-290048" lat="58.52550278" lon="8.60434166403">
		<tag k="alt_name" v="Rislandstjenn" />
		<tag k="name" v="Rislandstjern" />
		<tag k="natural" v="water" />
		<tag k="ssr:stedsnr" v="1700" />
	</node>
	<node id="-290045" lat="58.6904694429" lon="8.09718610416">
		<tag k="name" v="Befjelltjørn" />
		<tag k="natural" v="water" />
		<tag k="ssr:stedsnr" v="1475" />
	</node>
	<node id="-292092" lat="58.5669444408" lon="8.45999722166">
		<tag k="name" v="Kråkevass-stoet" />
		<tag k="natural" v="cape" />
		<tag k="ssr:stedsnr" v="658250" />
	</node>
	<node id="-292089" lat="58.6267305566" lon="8.22447500438">
		<tag k="name" v="Fiskodden" />
		<tag k="natural" v="cape" />
		<tag k="ssr:stedsnr" v="658184" />
	</node>
	<node id="-290038" lat="58.5699333303" lon="8.25134443707">
		<tag k="alt_name" v="Sniptjønn" />
		<tag k="name" v="Sniptjørn" />
		<tag k="natural" v="water" />
		<tag k="ssr:stedsnr" v="1157" />
	</node>
	<node id="-292083" lat="58.6438361089" lon="8.17622777805">
		<tag k="name" v="Sidekilmoen" />
		<tag k="natural" v="cape" />
		<tag k="ssr:stedsnr" v="658026" />
	</node>
	<node id="-292082" lat="58.6929388884" lon="8.02844444751">
		<tag k="name" v="Badstuvikbekken" />
		<tag k="ssr:stedsnr" v="657977" />
		<tag k="waterway" v="stream" />
	</node>
	<node id="-290030" lat="58.6252138883" lon="8.50127222508">
		<tag k="alt_name" v="Heidalstjørn" />
		<tag k="name" v="Heidalstjønn" />
		<tag k="natural" v="water" />
		<tag k="ssr:stedsnr" v="771" />
	</node>
	<node id="-292077" lat="58.4954388929" lon="8.42879444349">
		<tag k="name" v="Kjerbertjenn" />
		<tag k="natural" v="water" />
		<tag k="ssr:stedsnr" v="656739" />
	</node>
	<node id="-292076" lat="58.4783805543" lon="8.45546389406">
		<tag k="name" v="Kyrodden" />
		<tag k="natural" v="cape" />
		<tag k="ssr:stedsnr" v="656726" />
	</node>
	<node id="-290027" lat="58.6287027786" lon="8.68865278412">
		<tag k="name" v="Flatenfoss" />
		<tag k="natural" v="waterfall" />
		<tag k="ssr:stedsnr" v="758" />
	</node>
	<node id="-292073" lat="58.5108138894" lon="8.53545556149">
		<tag k="name" v="Nordlibekken" />
		<tag k="ssr:stedsnr" v="656410" />
		<tag k="waterway" v="stream" />
	</node>
	<node id="-290024" lat="58.6863444431" lon="7.9901472263">
		<tag k="alt_name" v="Bjorbekken, s" />
		<tag k="name" v="Søndre Bjorbekken" />
		<tag k="ssr:stedsnr" v="606" />
		<tag k="waterway" v="stream" />
	</node>
	<node id="-290684" lat="58.4889694433" lon="8.47859445191">
		<tag k="name" v="Rundetjenn" />
		<tag k="natural" v="water" />
		<tag k="ssr:stedsnr" v="171718" />
	</node>
	<node id="-290022" lat="58.6176555575" lon="8.2945083293">
		<tag k="name" v="Hellesbekken" />
		<tag k="ssr:stedsnr" v="356" />
		<tag k="waterway" v="stream" />
	</node>
	<node id="-291025" lat="58.6670888934" lon="8.27658889665">
		<tag k="name" v="Grasdalstjønn" />
		<tag k="natural" v="water" />
		<tag k="ssr:stedsnr" v="234649" />
	</node>
	<node id="-290019" lat="58.5479944429" lon="8.73998333046">
		<tag k="name" v="Fiskebekken" />
		<tag k="ssr:stedsnr" v="666" />
		<tag k="waterway" v="stream" />
	</node>
	<node id="-290017" lat="58.6116194475" lon="8.31922778619">
		<tag k="name" v="Øyvatnet" />
		<tag k="natural" v="water" />
		<tag k="ssr:stedsnr" v="347" />
	</node>
	<node id="-290015" lat="58.6045222205" lon="8.44313055263">
		<tag k="alt_name" v="Hestenestjørna" />
		<tag k="name" v="Hestenestjønna" />
		<tag k="natural" v="water" />
		<tag k="ssr:stedsnr" v="326" />
	</node>
	<node id="-291237" lat="58.6489305576" lon="8.10079166138">
		<tag k="name" v="Frobekk" />
		<tag k="ssr:stedsnr" v="416987" />
		<tag k="waterway" v="stream" />
	</node>
	<node id="-290341" lat="58.5672555598" lon="8.56010276916">
		<tag k="alt_name" v="Hanebutjerna" />
		<tag k="name" v="Hanebutjønn" />
		<tag k="natural" v="water" />
		<tag k="ssr:stedsnr" v="62860" />
	</node>
	<node id="-290011" lat="58.550836111" lon="8.29141667377">
		<tag k="fixme" v="multiple name tags, choose one and add the other to alt_name" />
		<tag k="name" v="Igletjønn;Stemtjørn" />
		<tag k="natural" v="water" />
		<tag k="ssr:stedsnr" v="246" />
	</node>
	<node id="-290007" lat="58.6245111084" lon="8.08861110877">
		<tag k="alt_name" v="Førevatnet" />
		<tag k="name" v="Førevatn" />
		<tag k="natural" v="water" />
		<tag k="ssr:stedsnr" v="365554" />
		<tag k="water" v="lake" />
	</node>
	<node id="-290006" lat="58.6231166698" lon="8.10604999843">
		<tag k="name" v="Storøya" />
		<tag k="place" v="islet" />
		<tag k="ssr:stedsnr" v="244370" />
	</node>
	<node id="-292050" lat="58.5717638898" lon="8.74370000421">
		<tag k="name" v="Mellomtjenn" />
		<tag k="natural" v="water" />
		<tag k="ssr:stedsnr" v="640342" />
	</node>
	<node id="-290001" lat="58.6144027758" lon="8.70466943702">
		<tag k="name" v="Brenteberget" />
		<tag k="place" v="islet" />
		<tag k="ssr:stedsnr" v="92628" />
	</node>
	<node id="-289994" lat="58.6610029634" lon="8.58147240546">
		<tag k="name" v="Kubbesund" />
		<tag k="natural" v="strait" />
		<tag k="ssr:stedsnr" v="92669" />
	</node>
	<node id="-289993" lat="58.4963361087" lon="8.38729444385">
		<tag k="name" v="Lauvlitjenn" />
		<tag k="natural" v="water" />
		<tag k="ssr:stedsnr" v="413756" />
	</node>
	<node id="-289991" lat="58.6219899345" lon="8.18366930125">
		<tag k="alt_name" v="Beresundet" />
		<tag k="name" v="Beresund" />
		<tag k="natural" v="strait" />
		<tag k="ssr:stedsnr" v="122364" />
	</node>
	<node id="-292036" lat="58.5156027795" lon="8.64623889558">
		<tag k="name" v="Hurveevja" />
		<tag k="ssr:stedsnr" v="640230" />
		<tag k="waterway" v="river" />
	</node>
	<node id="-292034" lat="58.5513527762" lon="8.71122221515">
		<tag k="name" v="Bjønnumstjenn" />
		<tag k="natural" v="water" />
		<tag k="ssr:stedsnr" v="640206" />
	</node>
	<node id="-291355" lat="58.6274583298" lon="8.29850832989">
		<tag k="alt_name" v="Myklandsvatnet" />
		<tag k="name" v="Myklandsvatna" />
		<tag k="natural" v="water" />
		<tag k="ssr:stedsnr" v="426336" />
		<tag k="water" v="lake" />
	</node>
	<node id="-292028" lat="58.574827777" lon="8.66725554717">
		<tag k="name" v="Breihøl" />
		<tag k="place" v="locality" />
		<tag k="ssr:stedsnr" v="640174" />
	</node>
	<node id="-291304" lat="58.6791638893" lon="8.25138055631">
		<tag k="name" v="Store Tjørneheitjønn" />
		<tag k="natural" v="water" />
		<tag k="ssr:stedsnr" v="417810" />
	</node>
	<node id="-289977" lat="58.5084000034" lon="8.68625833909">
		<tag k="name" v="Svartetjenn" />
		<tag k="natural" v="water" />
		<tag k="ssr:stedsnr" v="884050" />
	</node>
	<node id="-292024" lat="58.5034444451" lon="8.61270556197">
		<tag k="name" v="Blikkstjenn" />
		<tag k="natural" v="water" />
		<tag k="ssr:stedsnr" v="640098" />
	</node>
	<node id="-292022" lat="58.5008444413" lon="8.55482778439">
		<tag k="name" v="Hestetjenn" />
		<tag k="natural" v="water" />
		<tag k="ssr:stedsnr" v="640080" />
	</node>
	<node id="-292018" lat="58.5292583308" lon="8.68986111739">
		<tag k="name" v="Svarttjenn" />
		<tag k="natural" v="water" />
		<tag k="ssr:stedsnr" v="640033" />
	</node>
	<node id="-289969" lat="58.5928555588" lon="8.71649721465">
		<tag k="name" v="Ospetangen" />
		<tag k="natural" v="cape" />
		<tag k="ssr:stedsnr" v="883430" />
	</node>
	<node id="-292016" lat="58.4888611126" lon="8.59545555082">
		<tag k="name" v="Nestjenn" />
		<tag k="natural" v="water" />
		<tag k="ssr:stedsnr" v="640012" />
	</node>
	<node id="-292008" lat="58.6440694483" lon="8.55119722676">
		<tag k="name" v="Heldøla" />
		<tag k="ssr:stedsnr" v="607961" />
		<tag k="waterway" v="stream" />
	</node>
	<node id="-292006" lat="58.675600001" lon="8.49897222378">
		<tag k="alt_name" v="Urdnipetjørn" />
		<tag k="name" v="Urniptjønn" />
		<tag k="natural" v="water" />
		<tag k="ssr:stedsnr" v="607930" />
	</node>
	<node id="-292004" lat="58.6666861136" lon="8.52487778449">
		<tag k="alt_name" v="Andrestjern" />
		<tag k="name" v="Andrestjønn" />
		<tag k="natural" v="water" />
		<tag k="ssr:stedsnr" v="607904" />
	</node>
	<node id="-292001" lat="58.590872223" lon="8.51495278227">
		<tag k="alt_name" v="Bjørnedalsbekken" />
		<tag k="name" v="Bjønndalsbekken" />
		<tag k="ssr:stedsnr" v="607826" />
		<tag k="waterway" v="stream" />
	</node>
	<node id="-291998" lat="58.6237277765" lon="8.59462778197">
		<tag k="name" v="Omdalstjenn" />
		<tag k="natural" v="water" />
		<tag k="ssr:stedsnr" v="607772" />
	</node>
	<node id="-289949" lat="58.5681194405" lon="8.67791944571">
		<tag k="name" v="Skålholmen" />
		<tag k="place" v="islet" />
		<tag k="ssr:stedsnr" v="883167" />
	</node>
	<node id="-289942" lat="58.4804861137" lon="8.55326944537">
		<tag k="name" v="Butjenn" />
		<tag k="natural" v="water" />
		<tag k="ssr:stedsnr" v="883012" />
	</node>
	<node id="-291988" lat="58.5022722192" lon="8.52401944784">
		<tag k="name" v="Lonene" />
		<tag k="natural" v="water" />
		<tag k="ssr:stedsnr" v="607526" />
	</node>
	<node id="-291983" lat="58.6889777781" lon="8.12065277311">
		<tag k="alt_name" v="Spesidalstjørn" />
		<tag k="name" v="Spesiedalstjønn" />
		<tag k="natural" v="water" />
		<tag k="ssr:stedsnr" v="607452" />
	</node>
	<node id="-289934" lat="58.5804999966" lon="8.21442778626">
		<tag k="name" v="Kolstraumfjorden" />
		<tag k="natural" v="water" />
		<tag k="ssr:stedsnr" v="478619" />
		<tag k="water" v="lake" />
	</node>
	<node id="-290669" lat="58.6171972228" lon="8.70913055272">
		<tag k="name" v="Sørenskil" />
		<tag k="natural" v="bay" />
		<tag k="ssr:stedsnr" v="155341" />
	</node>
	<node id="-291980" lat="58.6302277815" lon="8.37608611944">
		<tag k="alt_name" v="Rambuvatnet" />
		<tag k="name" v="Rambergvatn" />
		<tag k="natural" v="water" />
		<tag k="ssr:stedsnr" v="607385" />
	</node>
	<node id="-291977" lat="58.6252944422" lon="8.34615555584">
		<tag k="alt_name" v="Sandtjørn" />
		<tag k="name" v="Sandtjønn" />
		<tag k="natural" v="water" />
		<tag k="ssr:stedsnr" v="607368" />
	</node>
	<node id="-291976" lat="58.6104000033" lon="8.45984721448">
		<tag k="name" v="Rossneset" />
		<tag k="natural" v="cape" />
		<tag k="ssr:stedsnr" v="607349" />
	</node>
	<node id="-291975" lat="58.6028861087" lon="8.37180000451">
		<tag k="name" v="Holbekken" />
		<tag k="ssr:stedsnr" v="607335" />
		<tag k="waterway" v="stream" />
	</node>
	<node id="-291974" lat="58.6067861136" lon="8.40621667337">
		<tag k="alt_name" v="Lomtjørn" />
		<tag k="name" v="Lomtjønn" />
		<tag k="natural" v="water" />
		<tag k="ssr:stedsnr" v="607333" />
	</node>
	<node id="-291970" lat="58.6657777739" lon="8.14849444395">
		<tag k="name" v="Steane" />
		<tag k="place" v="locality" />
		<tag k="ssr:stedsnr" v="607304" />
	</node>
	<node id="-291968" lat="58.6546888912" lon="8.1505805546">
		<tag k="alt_name" v="Lyretjørn" />
		<tag k="name" v="Lyretjønn" />
		<tag k="natural" v="water" />
		<tag k="ssr:stedsnr" v="607297" />
	</node>
	<node id="-291967" lat="58.6504611068" lon="8.16137499865">
		<tag k="alt_name" v="Grobekkilen" />
		<tag k="name" v="Gobekkilen" />
		<tag k="natural" v="bay" />
		<tag k="ssr:stedsnr" v="607283" />
	</node>
	<node id="-291964" lat="58.6393472252" lon="8.19948334024">
		<tag k="alt_name" v="Gåsetjørn" />
		<tag k="name" v="Store Gåsetjønn" />
		<tag k="natural" v="water" />
		<tag k="ssr:stedsnr" v="607270" />
	</node>
	<node id="-291963" lat="58.6300333334" lon="8.14212777584">
		<tag k="fixme" v="multiple name tags, choose one and add the other to alt_name" />
		<tag k="name" v="Nystøl Sandkil;Sandkilen, s" />
		<tag k="natural" v="water" />
		<tag k="ssr:stedsnr" v="607261" />
	</node>
	<node id="-291962" lat="58.5548722261" lon="8.23417499862">
		<tag k="name" v="Persøyna" />
		<tag k="natural" v="cape" />
		<tag k="ssr:stedsnr" v="607238" />
	</node>
	<node id="-291958" lat="58.5841638859" lon="8.33852499207">
		<tag k="name" v="Heimrebekken" />
		<tag k="ssr:stedsnr" v="607186" />
		<tag k="waterway" v="stream" />
	</node>
	<node id="-291957" lat="58.5959833371" lon="8.44917221421">
		<tag k="alt_name" v="Bjortjørn" />
		<tag k="name" v="Bjortjønn" />
		<tag k="natural" v="water" />
		<tag k="ssr:stedsnr" v="607172" />
	</node>
	<node id="-291956" lat="58.5644305581" lon="8.31985278608">
		<tag k="alt_name" v="Blankevatnet" />
		<tag k="name" v="Blankevatn" />
		<tag k="natural" v="water" />
		<tag k="ssr:stedsnr" v="607162" />
	</node>
	<node id="-289907" lat="58.6720527798" lon="8.50973333066">
		<tag k="name" v="Hammeheitjønnene" />
		<tag k="natural" v="water" />
		<tag k="ssr:stedsnr" v="477697" />
	</node>
	<node id="-289903" lat="58.6795666636" lon="8.11455277586">
		<tag k="name" v="Stemtjønn" />
		<tag k="natural" v="water" />
		<tag k="ssr:stedsnr" v="477640" />
	</node>
	<node id="-291949" lat="58.555853297" lon="8.69863083123">
		<tag k="name" v="Østre Solheimsvannet" />
		<tag k="natural" v="water" />
		<tag k="ssr:stedsnr" v="601218" />
	</node>
	<node id="-291948" lat="58.5559055581" lon="8.69843888904">
		<tag k="name" v="Vestre Solheimsvannet" />
		<tag k="natural" v="water" />
		<tag k="ssr:stedsnr" v="601211" />
	</node>
	<node id="-291346" lat="58.5804111137" lon="8.25035555226">
		<tag k="alt_name" v="Ormetjørn" />
		<tag k="name" v="Ormetjønn" />
		<tag k="natural" v="water" />
		<tag k="ssr:stedsnr" v="426176" />
	</node>
	<node id="-289898" lat="58.6742638867" lon="8.1569972137">
		<tag k="name" v="Einstaptjønn" />
		<tag k="natural" v="water" />
		<tag k="ssr:stedsnr" v="477598" />
	</node>
	<node id="-291945" lat="58.5698611099" lon="8.64723610513">
		<tag k="name" v="Sleikbekken" />
		<tag k="ssr:stedsnr" v="599932" />
		<tag k="waterway" v="stream" />
	</node>
	<node id="-289896" lat="58.6227555538" lon="8.22619723059">
		<tag k="name" v="Den heimre øya" />
		<tag k="place" v="islet" />
		<tag k="ssr:stedsnr" v="477592" />
	</node>
	<node id="-293361" lat="58.4960083345" lon="8.49920832821">
		<tag k="name" v="Polletjenn" />
		<tag k="natural" v="water" />
		<tag k="ssr:stedsnr" v="959918" />
	</node>
	<node id="-289889" lat="58.5991277755" lon="8.20081666793">
		<tag k="name" v="Vågsdalsfjorden" />
		<tag k="ssr:stedsnr" v="477555" />
		<tag k="waterway" v="river" />
	</node>
	<node id="-291936" lat="58.5407555535" lon="8.6197888898">
		<tag k="name" v="Orrebekken" />
		<tag k="ssr:stedsnr" v="599753" />
		<tag k="waterway" v="stream" />
	</node>
	<node id="-291344" lat="58.5711166706" lon="8.23356945258">
		<tag k="alt_name" v="Tritjørnane" />
		<tag k="name" v="Tretjønnane" />
		<tag k="natural" v="water" />
		<tag k="ssr:stedsnr" v="426145" />
	</node>
	<node id="-291933" lat="58.5504500013" lon="8.59438056294">
		<tag k="name" v="Karlstjønn" />
		<tag k="natural" v="water" />
		<tag k="ssr:stedsnr" v="599695" />
	</node>
	<node id="-289255" lat="58.6262222201" lon="8.41578054821">
		<tag k="name" v="Sagtjønn" />
		<tag k="natural" v="water" />
		<tag k="ssr:stedsnr" v="294356" />
	</node>
	<node id="-289295" lat="58.5898055521" lon="8.54617500589">
		<tag k="name" v="Lomstjønn" />
		<tag k="natural" v="water" />
		<tag k="ssr:stedsnr" v="295401" />
	</node>
	<node id="-291928" lat="58.5514499991" lon="8.47125000533">
		<tag k="name" v="Kvernfossen" />
		<tag k="natural" v="waterfall" />
		<tag k="ssr:stedsnr" v="599546" />
	</node>
	<node id="-291926" lat="58.6037055524" lon="8.41669166355">
		<tag k="name" v="Hynnekleivbekken" />
		<tag k="ssr:stedsnr" v="599525" />
		<tag k="waterway" v="stream" />
	</node>
	<node id="-289877" lat="58.5406888915" lon="8.46794722623">
		<tag k="name" v="Moltetjønn" />
		<tag k="natural" v="water" />
		<tag k="ssr:stedsnr" v="477461" />
	</node>
	<node id="-291924" lat="58.5909583377" lon="8.33158055808">
		<tag k="name" v="Klefjelltjønn" />
		<tag k="natural" v="water" />
		<tag k="ssr:stedsnr" v="599514" />
	</node>
	<node id="-289875" lat="58.5942888906" lon="8.57606666845">
		<tag k="name" v="Bukketjønn" />
		<tag k="natural" v="water" />
		<tag k="ssr:stedsnr" v="477434" />
	</node>
	<node id="-289873" lat="58.5899805598" lon="8.54194443614">
		<tag k="name" v="Stemtjønn" />
		<tag k="natural" v="water" />
		<tag k="ssr:stedsnr" v="477416" />
	</node>
	<node id="-291916" lat="58.5745361128" lon="8.33178055726">
		<tag k="name" v="Bikkjetjønn" />
		<tag k="natural" v="water" />
		<tag k="ssr:stedsnr" v="599344" />
	</node>
	<node id="-289634" lat="58.5819638872" lon="8.22138333098">
		<tag k="name" v="Eptevatn" />
		<tag k="natural" v="water" />
		<tag k="ssr:stedsnr" v="356633" />
		<tag k="water" v="lake" />
	</node>
	<node id="-290999" lat="58.6074972237" lon="8.56249444411">
		<tag k="name" v="Beltetjønn" />
		<tag k="natural" v="water" />
		<tag k="ssr:stedsnr" v="234182" />
	</node>
	<node id="-291573" lat="58.6036638876" lon="8.52523332599">
		<tag k="name" v="Svarttjønn" />
		<tag k="natural" v="water" />
		<tag k="ssr:stedsnr" v="537361" />
	</node>
	<node id="-290316" lat="58.5389416646" lon="8.44143055856">
		<tag k="alt_name" v="Spuntertjørn" />
		<tag k="name" v="Spontertjern" />
		<tag k="natural" v="water" />
		<tag k="ssr:stedsnr" v="62179" />
	</node>
	<node id="-291910" lat="58.5793138878" lon="8.44304165951">
		<tag k="name" v="Moltetjønn" />
		<tag k="natural" v="water" />
		<tag k="ssr:stedsnr" v="599203" />
	</node>
	<node id="-289974" lat="58.4906944416" lon="8.58793332708">
		<tag k="name" v="Pollen" />
		<tag k="natural" v="bay" />
		<tag k="ssr:stedsnr" v="884005" />
	</node>
	<node id="-289856" lat="58.6396027772" lon="8.55425277377">
		<tag k="name" v="Lefsetjønn" />
		<tag k="natural" v="water" />
		<tag k="ssr:stedsnr" v="477038" />
	</node>
	<node id="-289855" lat="58.5665305554" lon="8.53357777819">
		<tag k="name" v="Bakkehølen" />
		<tag k="place" v="locality" />
		<tag k="ssr:stedsnr" v="477036" />
	</node>
	<node id="-291901" lat="58.6528888863" lon="8.06201665897">
		<tag k="name" v="Lislelibekken" />
		<tag k="ssr:stedsnr" v="598977" />
		<tag k="waterway" v="stream" />
	</node>
	<node id="-289846" lat="58.6877166696" lon="8.04920833596">
		<tag k="name" v="Ånnebekken" />
		<tag k="ssr:stedsnr" v="476901" />
		<tag k="waterway" v="stream" />
	</node>
	<node id="-289845" lat="58.6821111084" lon="8.09536389677">
		<tag k="name" v="Kjulpetjønn" />
		<tag k="natural" v="water" />
		<tag k="ssr:stedsnr" v="476885" />
	</node>
	<node id="-289842" lat="58.6590416682" lon="8.03931944214">
		<tag k="name" v="Brennesbekken" />
		<tag k="ssr:stedsnr" v="476838" />
		<tag k="waterway" v="stream" />
	</node>
	<node id="-289837" lat="58.6079861083" lon="8.27381666784">
		<tag k="name" v="Holsvasskilen" />
		<tag k="natural" v="bay" />
		<tag k="ssr:stedsnr" v="476738" />
	</node>
	<node id="-289970" lat="58.6111472251" lon="8.70138888102">
		<tag k="name" v="Langekil" />
		<tag k="natural" v="bay" />
		<tag k="ssr:stedsnr" v="883445" />
	</node>
	<node id="-289414" lat="58.6351583335" lon="8.19105276985">
		<tag k="alt_name" v="Svanetjørn" />
		<tag k="name" v="Svanetjønn" />
		<tag k="natural" v="water" />
		<tag k="ssr:stedsnr" v="304375" />
	</node>
	<node id="-289832" lat="58.6854083372" lon="8.3511027771">
		<tag k="name" v="Fåretjønn" />
		<tag k="natural" v="water" />
		<tag k="ssr:stedsnr" v="476636" />
	</node>
	<node id="-291878" lat="58.6512611138" lon="8.31703333654">
		<tag k="name" v="Surtepytt" />
		<tag k="natural" v="water" />
		<tag k="ssr:stedsnr" v="598629" />
		<tag k="water" v="pond" />
	</node>
	<node id="-291877" lat="58.5460222265" lon="8.52875278387">
		<tag k="name" v="Hulltjønn" />
		<tag k="natural" v="water" />
		<tag k="ssr:stedsnr" v="598623" />
	</node>
	<node id="-289825" lat="58.64383889" lon="8.21557776945">
		<tag k="name" v="Formobekken" />
		<tag k="ssr:stedsnr" v="476241" />
		<tag k="waterway" v="stream" />
	</node>
	<node id="-289824" lat="58.5682055551" lon="8.44726667088">
		<tag k="name" v="Kobbubekken" />
		<tag k="ssr:stedsnr" v="476233" />
		<tag k="waterway" v="stream" />
	</node>
	<node id="-289285" lat="58.5459944409" lon="8.28612778339">
		<tag k="name" v="Uldalsåna" />
		<tag k="ssr:stedsnr" v="295201" />
		<tag k="waterway" v="river" />
	</node>
	<node id="-289820" lat="58.6891194425" lon="8.01515555527">
		<tag k="name" v="Storøy" />
		<tag k="place" v="islet" />
		<tag k="ssr:stedsnr" v="476180" />
	</node>
	<node id="-291867" lat="58.6587472267" lon="8.21274721685">
		<tag k="name" v="Butangen" />
		<tag k="natural" v="cape" />
		<tag k="ssr:stedsnr" v="598550" />
	</node>
	<node id="-289817" lat="58.6838472232" lon="8.02064166879">
		<tag k="name" v="Tornebuskodden" />
		<tag k="natural" v="shoal" />
		<tag k="place" v="locality" />
		<tag k="ssr:stedsnr" v="476167" />
	</node>
	<node id="-291864" lat="58.6895527771" lon="8.23690832928">
		<tag k="name" v="Lille Lauvbutjønn" />
		<tag k="natural" v="water" />
		<tag k="ssr:stedsnr" v="598546" />
	</node>
	<node id="-289284" lat="58.5489944479" lon="8.28560277453">
		<tag k="name" v="Ålekjerrvika" />
		<tag k="natural" v="bay" />
		<tag k="ssr:stedsnr" v="295199" />
	</node>
	<node id="-290412" lat="58.46014167" lon="8.5507138946">
		<tag k="name" v="Trytetjenn" />
		<tag k="natural" v="water" />
		<tag k="ssr:stedsnr" v="110881" />
	</node>
	<node id="-291861" lat="58.596808337" lon="8.50295278021">
		<tag k="name" v="Årlitjønn" />
		<tag k="natural" v="water" />
		<tag k="ssr:stedsnr" v="598359" />
	</node>
	<node id="-291860" lat="58.6309500005" lon="8.34819721754">
		<tag k="name" v="Åletjønn" />
		<tag k="natural" v="water" />
		<tag k="ssr:stedsnr" v="598351" />
	</node>
	<node id="-289811" lat="58.6438250031" lon="8.18628611844">
		<tag k="name" v="Gåsetjønnbekken" />
		<tag k="ssr:stedsnr" v="476032" />
		<tag k="waterway" v="stream" />
	</node>
	<node id="-289808" lat="58.6284555596" lon="8.12648611448">
		<tag k="name" v="Risdals teinelag" />
		<tag k="natural" v="strait" />
		<tag k="ssr:stedsnr" v="476024" />
	</node>
	<node id="-290139" lat="58.6931388886" lon="8.08994166838">
		<tag k="name" v="Den lange tjønna" />
		<tag k="natural" v="water" />
		<tag k="ssr:stedsnr" v="51913" />
	</node>
	<node id="-291847" lat="58.6350305598" lon="8.54794723071">
		<tag k="name" v="Moltetjønn" />
		<tag k="natural" v="water" />
		<tag k="ssr:stedsnr" v="598037" />
	</node>
	<node id="-291846" lat="58.5651833347" lon="8.52561666993">
		<tag k="name" v="Lilletjønn" />
		<tag k="natural" v="water" />
		<tag k="ssr:stedsnr" v="598035" />
	</node>
	<node id="-289796" lat="58.4945555568" lon="8.4723500041">
		<tag k="name" v="Mosetjenn" />
		<tag k="natural" v="water" />
		<tag k="ssr:stedsnr" v="474698" />
	</node>
	<node id="-289795" lat="58.504347226" lon="8.54441666585">
		<tag k="name" v="Haugaas-bekken" />
		<tag k="ssr:stedsnr" v="474417" />
		<tag k="waterway" v="stream" />
	</node>
	<node id="-289794" lat="58.5166888912" lon="8.54733888672">
		<tag k="name" v="Brennevinsbekken" />
		<tag k="ssr:stedsnr" v="474414" />
		<tag k="waterway" v="stream" />
	</node>
	<node id="-289793" lat="58.5071944447" lon="8.44282499996">
		<tag k="name" v="Kulpetjenn" />
		<tag k="natural" v="water" />
		<tag k="ssr:stedsnr" v="474389" />
	</node>
	<node id="-291838" lat="58.6931277777" lon="8.25287778435">
		<tag k="name" v="Fisketjønn" />
		<tag k="natural" v="water" />
		<tag k="ssr:stedsnr" v="597760" />
	</node>
	<node id="-290002" lat="58.466441671" lon="8.55860832837">
		<tag k="name" v="Lislevann" />
		<tag k="natural" v="water" />
		<tag k="ssr:stedsnr" v="413885" />
	</node>
	<node id="-289787" lat="58.5308555562" lon="8.47229999939">
		<tag k="name" v="Lomåstjenn" />
		<tag k="natural" v="water" />
		<tag k="ssr:stedsnr" v="474009" />
	</node>
	<node id="-291834" lat="58.6359916701" lon="8.1827305583">
		<tag k="name" v="Raunedalsbukta" />
		<tag k="natural" v="bay" />
		<tag k="ssr:stedsnr" v="597241" />
	</node>
	<node id="-289279" lat="58.607633335" lon="8.50407222844">
		<tag k="name" v="Teigtjønn" />
		<tag k="natural" v="water" />
		<tag k="ssr:stedsnr" v="295164" />
	</node>
	<node id="-289783" lat="58.5030861104" lon="8.5071222194">
		<tag k="name" v="Den utgravde tjerna" />
		<tag k="natural" v="water" />
		<tag k="ssr:stedsnr" v="413439" />
	</node>
	<node id="-291829" lat="58.6283555575" lon="8.22429722887">
		<tag k="name" v="Ågapet" />
		<tag k="natural" v="bay" />
		<tag k="ssr:stedsnr" v="597182" />
	</node>
	<node id="-289778" lat="58.5363361117" lon="8.51832499401">
		<tag k="name" v="Planketjenn" />
		<tag k="natural" v="water" />
		<tag k="ssr:stedsnr" v="413031" />
	</node>
	<node id="-292349" lat="58.6279611079" lon="8.2242111182">
		<tag k="name" v="Sommerfjøsodden" />
		<tag k="natural" v="cape" />
		<tag k="ssr:stedsnr" v="719172" />
	</node>
	<node id="-291435" lat="58.5407000021" lon="8.26659166825">
		<tag k="name" v="Samkom" />
		<tag k="natural" v="water" />
		<tag k="ssr:stedsnr" v="486179" />
		<tag k="water" v="lake" />
	</node>
	<node id="-291818" lat="58.4671555551" lon="8.55556111913">
		<tag k="name" v="Geitetjenn" />
		<tag k="natural" v="water" />
		<tag k="ssr:stedsnr" v="595868" />
	</node>
	<node id="-289767" lat="58.6177277819" lon="8.69949167373">
		<tag k="name" v="Ospetangen" />
		<tag k="natural" v="cape" />
		<tag k="ssr:stedsnr" v="398308" />
	</node>
	<node id="-291812" lat="58.5090222198" lon="8.4824555569">
		<tag k="name" v="Søyletjenn" />
		<tag k="natural" v="water" />
		<tag k="ssr:stedsnr" v="595374" />
	</node>
	<node id="-289958" lat="58.5166249977" lon="8.613461119">
		<tag k="name" v="Besstjenn" />
		<tag k="natural" v="water" />
		<tag k="ssr:stedsnr" v="883272" />
	</node>
	<node id="-291809" lat="58.5266944432" lon="8.49894722927">
		<tag k="name" v="Barlindtjenn" />
		<tag k="natural" v="water" />
		<tag k="ssr:stedsnr" v="595044" />
	</node>
	<node id="-291807" lat="58.5295472245" lon="8.49274165806">
		<tag k="name" v="Tranbertjern" />
		<tag k="natural" v="water" />
		<tag k="ssr:stedsnr" v="595023" />
	</node>
	<node id="-291806" lat="58.6478805524" lon="8.15290000694">
		<tag k="name" v="Stompedalsbekken" />
		<tag k="ssr:stedsnr" v="598503" />
		<tag k="waterway" v="stream" />
	</node>
	<node id="-291801" lat="58.6418805531" lon="8.52447222725">
		<tag k="name" v="Småtjønnane" />
		<tag k="natural" v="water" />
		<tag k="ssr:stedsnr" v="598455" />
	</node>
	<node id="-291800" lat="58.5479666676" lon="8.43266943891">
		<tag k="name" v="Øygardstjønn" />
		<tag k="natural" v="water" />
		<tag k="ssr:stedsnr" v="598445" />
	</node>
	<node id="-289749" lat="58.5316861109" lon="8.70717222434">
		<tag k="name" v="Nøkkstjenn" />
		<tag k="natural" v="water" />
		<tag k="ssr:stedsnr" v="398186" />
	</node>
	<node id="-289747" lat="58.5723499962" lon="8.66989999689">
		<tag k="name" v="Kollemyrtjenn" />
		<tag k="natural" v="water" />
		<tag k="ssr:stedsnr" v="398158" />
	</node>
	<node id="-291794" lat="58.5575833354" lon="8.73317499561">
		<tag k="name" v="Kjellertjenn" />
		<tag k="natural" v="water" />
		<tag k="ssr:stedsnr" v="580282" />
	</node>
	<node id="-291793" lat="58.6157916638" lon="8.69076944866">
		<tag k="name" v="Elvemyrtjenn" />
		<tag k="natural" v="water" />
		<tag k="ssr:stedsnr" v="580275" />
	</node>
	<node id="-289741" lat="58.6299749979" lon="8.67763888236">
		<tag k="name" v="Steivasstemmen" />
		<tag k="ssr:stedsnr" v="398128" />
		<tag k="waterway" v="dam" />
	</node>
	<node id="-289739" lat="58.6197999972" lon="8.687105558">
		<tag k="name" v="Kilansfoss" />
		<tag k="natural" v="waterfall" />
		<tag k="ssr:stedsnr" v="398119" />
	</node>
	<node id="-289738" lat="58.5088888884" lon="8.58544999951">
		<tag k="name" v="Jonsplasstjenn" />
		<tag k="natural" v="water" />
		<tag k="ssr:stedsnr" v="398077" />
	</node>
	<node id="-291319" lat="58.6690277748" lon="8.18908611545">
		<tag k="alt_name" v="Fårlitjørn" />
		<tag k="name" v="Forlitjønn" />
		<tag k="natural" v="water" />
		<tag k="ssr:stedsnr" v="425294" />
	</node>
	<node id="-291784" lat="58.4842888894" lon="8.65626666773">
		<tag k="name" v="Stoet" />
		<tag k="natural" v="cape" />
		<tag k="ssr:stedsnr" v="580176" />
	</node>
	<node id="-289733" lat="58.5296138895" lon="8.58643611042">
		<tag k="name" v="Ormetjenn" />
		<tag k="natural" v="water" />
		<tag k="ssr:stedsnr" v="398026" />
	</node>
	<node id="-291772" lat="58.5169999968" lon="8.58524444945">
		<tag k="name" v="Killebubekken" />
		<tag k="ssr:stedsnr" v="580056" />
		<tag k="waterway" v="stream" />
	</node>
	<node id="-291770" lat="58.5312638875" lon="8.68578889214">
		<tag k="name" v="Fåtjenn" />
		<tag k="natural" v="water" />
		<tag k="ssr:stedsnr" v="580047" />
	</node>
	<node id="-289721" lat="58.6449361135" lon="8.61784443913">
		<tag k="alt_name" v="Øyråstjern" />
		<tag k="name" v="Øyråstjønn" />
		<tag k="natural" v="water" />
		<tag k="ssr:stedsnr" v="365982" />
	</node>
	<node id="-289719" lat="58.6583249997" lon="8.58698611938">
		<tag k="name" v="Basstovøya" />
		<tag k="place" v="islet" />
		<tag k="ssr:stedsnr" v="365955" />
	</node>
	<node id="-289718" lat="58.5686083316" lon="8.50265278205">
		<tag k="alt_name" v="Geiteråstjerna" />
		<tag k="name" v="Geiteråstjønna" />
		<tag k="natural" v="water" />
		<tag k="ssr:stedsnr" v="365892" />
	</node>
	<node id="-291765" lat="58.5220999994" lon="8.57018333618">
		<tag k="name" v="Hulletjenn" />
		<tag k="natural" v="water" />
		<tag k="ssr:stedsnr" v="580022" />
	</node>
	<node id="-289716" lat="58.6073583309" lon="8.49077221829">
		<tag k="alt_name" v="Langtjern" />
		<tag k="name" v="Langetjønn" />
		<tag k="natural" v="water" />
		<tag k="ssr:stedsnr" v="365823" />
	</node>
	<node id="-289712" lat="58.5164472262" lon="8.50459444829">
		<tag k="name" v="Bovann" />
		<tag k="natural" v="water" />
		<tag k="ssr:stedsnr" v="365737" />
	</node>
	<node id="-291759" lat="58.5764722178" lon="8.7232277755">
		<tag k="name" v="Røyodden" />
		<tag k="natural" v="cape" />
		<tag k="ssr:stedsnr" v="579354" />
	</node>
	<node id="-291758" lat="58.5504277783" lon="8.72689166147">
		<tag k="name" v="Sautjenn" />
		<tag k="natural" v="water" />
		<tag k="ssr:stedsnr" v="579348" />
	</node>
	<node id="-291753" lat="58.5972944459" lon="8.71160833773">
		<tag k="name" v="Bøylefoss" />
		<tag k="natural" v="waterfall" />
		<tag k="ssr:stedsnr" v="579163" />
	</node>
	<node id="-291752" lat="58.6346583322" lon="8.66491945179">
		<tag k="name" v="Gåsvikkilen" />
		<tag k="natural" v="bay" />
		<tag k="ssr:stedsnr" v="579136" />
	</node>
	<node id="-291750" lat="58.6449583349" lon="8.17162221672">
		<tag k="name" v="Mjåsund" />
		<tag k="natural" v="strait" />
		<tag k="ssr:stedsnr" v="566017" />
	</node>
	<node id="-291749" lat="58.6409444429" lon="8.50061110614">
		<tag k="alt_name" v="Asjebuvatna, øvre" />
		<tag k="name" v="Øvre Asjebuvatn" />
		<tag k="natural" v="water" />
		<tag k="ssr:stedsnr" v="547997" />
	</node>
	<node id="-291748" lat="58.632544447" lon="8.49001111053">
		<tag k="name" v="Fisketjernane" />
		<tag k="natural" v="water" />
		<tag k="ssr:stedsnr" v="547986" />
	</node>
	<node id="-291747" lat="58.6467166624" lon="8.59999445009">
		<tag k="alt_name" v="Styggetjern" />
		<tag k="name" v="Styggetjønn" />
		<tag k="natural" v="water" />
		<tag k="ssr:stedsnr" v="547980" />
	</node>
	<node id="-289698" lat="58.5817722235" lon="8.44663610444">
		<tag k="alt_name" v="Langtjørn" />
		<tag k="name" v="Langetjønn" />
		<tag k="natural" v="water" />
		<tag k="ssr:stedsnr" v="365189" />
	</node>
	<node id="-289697" lat="58.5918805561" lon="8.42655277739">
		<tag k="alt_name" v="Sønnristjørn" />
		<tag k="name" v="Sønnristjønn" />
		<tag k="natural" v="water" />
		<tag k="ssr:stedsnr" v="365187" />
	</node>
	<node id="-291744" lat="58.5702527756" lon="8.52595555355">
		<tag k="name" v="Båselandsvatnet" />
		<tag k="natural" v="water" />
		<tag k="ssr:stedsnr" v="547889" />
		<tag k="water" v="lake" />
	</node>
	<node id="-289695" lat="58.5651000032" lon="8.43955554773">
		<tag k="alt_name" v="Holebekken" />
		<tag k="name" v="Holbekken" />
		<tag k="ssr:stedsnr" v="365157" />
		<tag k="waterway" v="stream" />
	</node>
	<node id="-289694" lat="58.5564277784" lon="8.23990277548">
		<tag k="alt_name" v="Ormtjørn" />
		<tag k="name" v="Ormetjønn" />
		<tag k="natural" v="water" />
		<tag k="ssr:stedsnr" v="365155" />
	</node>
	<node id="-291741" lat="58.6185222214" lon="8.72231389015">
		<tag k="alt_name" v="Gjermundstjenn" />
		<tag k="name" v="Gjermundtjern" />
		<tag k="natural" v="water" />
		<tag k="ssr:stedsnr" v="547828" />
	</node>
	<node id="-291739" lat="58.5189777809" lon="8.55667222463">
		<tag k="alt_name" v="Indre Hellertjenn" />
		<tag k="name" v="Hellertjerna" />
		<tag k="natural" v="water" />
		<tag k="ssr:stedsnr" v="547761" />
	</node>
	<node id="-291735" lat="58.6372638907" lon="8.08647499439">
		<tag k="alt_name" v="Frobekktjørna" />
		<tag k="name" v="Frobekktjønna" />
		<tag k="natural" v="water" />
		<tag k="ssr:stedsnr" v="547599" />
	</node>
	<node id="-289686" lat="58.4913638889" lon="8.51334166278">
		<tag k="alt_name" v="Grunnetjern" />
		<tag k="name" v="Grunnetjenn" />
		<tag k="natural" v="water" />
		<tag k="ssr:stedsnr" v="364705" />
	</node>
	<node id="-289685" lat="58.540311107" lon="8.48233332795">
		<tag k="alt_name" v="Mønetjørn" />
		<tag k="name" v="Mønetjenn" />
		<tag k="natural" v="water" />
		<tag k="ssr:stedsnr" v="364676" />
	</node>
	<node id="-291730" lat="58.6571833319" lon="8.24671389236">
		<tag k="alt_name" v="Libekken" />
		<tag k="name" v="Libekk" />
		<tag k="ssr:stedsnr" v="547309" />
		<tag k="waterway" v="stream" />
	</node>
	<node id="-291728" lat="58.5772166677" lon="8.22022222679">
		<tag k="name" v="Kiløyna" />
		<tag k="natural" v="cape" />
		<tag k="ssr:stedsnr" v="547179" />
	</node>
	<node id="-291727" lat="58.5941722232" lon="8.40349443861">
		<tag k="name" v="Botnefjorden" />
		<tag k="natural" v="water" />
		<tag k="ssr:stedsnr" v="547175" />
		<tag k="water" v="lake" />
	</node>
	<node id="-291726" lat="58.5987944476" lon="8.43457777058">
		<tag k="fixme" v="multiple name tags, choose one and add the other to alt_name" />
		<tag k="name" v="Hasletjønn;Setetjørn, austre" />
		<tag k="natural" v="water" />
		<tag k="ssr:stedsnr" v="547170" />
	</node>
	<node id="-289677" lat="58.6121805585" lon="8.28511667505">
		<tag k="name" v="Holsvasskilen" />
		<tag k="natural" v="bay" />
		<tag k="ssr:stedsnr" v="364359" />
	</node>
	<node id="-291724" lat="58.5568750018" lon="8.25613611267">
		<tag k="alt_name" v="Kringletjørn" />
		<tag k="name" v="Kringletjønn" />
		<tag k="natural" v="water" />
		<tag k="ssr:stedsnr" v="547160" />
	</node>
	<node id="-291722" lat="58.5794583321" lon="8.30275556097">
		<tag k="alt_name" v="Marimesstjørn, l" />
		<tag k="name" v="Lille Marimesstjønn" />
		<tag k="natural" v="water" />
		<tag k="ssr:stedsnr" v="547140" />
	</node>
	<node id="-289673" lat="58.6718472218" lon="8.20895833963">
		<tag k="alt_name" v="Eggholane" />
		<tag k="name" v="Eggeholane" />
		<tag k="natural" v="water" />
		<tag k="ssr:stedsnr" v="364313" />
	</node>
	<node id="-291718" lat="58.5854833348" lon="8.48594722083">
		<tag k="alt_name" v="Massævvatnet" />
		<tag k="name" v="Massævatnet" />
		<tag k="natural" v="water" />
		<tag k="ssr:stedsnr" v="546814" />
	</node>
	<node id="-289669" lat="58.6532250042" lon="8.24729445215">
		<tag k="name" v="Lauvraksbekken" />
		<tag k="ssr:stedsnr" v="364281" />
		<tag k="waterway" v="river" />
	</node>
	<node id="-291714" lat="58.6143083311" lon="8.67120277953">
		<tag k="alt_name" v="Tjennsnestjennene" />
		<tag k="name" v="Kjensnestjørnane" />
		<tag k="natural" v="water" />
		<tag k="ssr:stedsnr" v="546779" />
	</node>
	<node id="-289665" lat="58.6190083304" lon="8.65474166339">
		<tag k="alt_name" v="Kroktjern" />
		<tag k="name" v="Kroktjønn" />
		<tag k="natural" v="water" />
		<tag k="ssr:stedsnr" v="364832" />
	</node>
	<node id="-289600" lat="58.5953805587" lon="8.57234166619">
		<tag k="name" v="Småmyrtjønn" />
		<tag k="natural" v="water" />
		<tag k="ssr:stedsnr" v="356445" />
	</node>
	<node id="-289661" lat="58.5985638933" lon="8.48503610874">
		<tag k="name" v="Våtåstjønnene" />
		<tag k="natural" v="water" />
		<tag k="ssr:stedsnr" v="356948" />
	</node>
	<node id="-289656" lat="58.6600333377" lon="8.52597222159">
		<tag k="name" v="Refstjønn" />
		<tag k="natural" v="water" />
		<tag k="ssr:stedsnr" v="356832" />
	</node>
	<node id="-291702" lat="58.6130472195" lon="8.30511667025">
		<tag k="alt_name" v="Espelandsvatnet" />
		<tag k="name" v="Espelandstjønn" />
		<tag k="natural" v="water" />
		<tag k="ssr:stedsnr" v="546318" />
	</node>
	<node id="-290281" lat="58.6394638892" lon="8.17502777526">
		<tag k="name" v="Nystølfjorden" />
		<tag k="natural" v="water" />
		<tag k="ssr:stedsnr" v="61250" />
		<tag k="water" v="lake" />
	</node>
	<node id="-289652" lat="58.6747305579" lon="8.2216999928">
		<tag k="name" v="Brennevinsbekken" />
		<tag k="ssr:stedsnr" v="356819" />
		<tag k="waterway" v="stream" />
	</node>
	<node id="-291699" lat="58.6542249961" lon="8.07635277184">
		<tag k="fixme" v="multiple name tags, choose one and add the other to alt_name" />
		<tag k="name" v="Tovdalsåna;Vatndalselva;Vatnedalsåna" />
		<tag k="ssr:stedsnr" v="546269" />
		<tag k="waterway" v="river" />
	</node>
	<node id="-289648" lat="58.5900138857" lon="8.42042777091">
		<tag k="name" v="Tvitjønn" />
		<tag k="natural" v="water" />
		<tag k="ssr:stedsnr" v="356733" />
	</node>
	<node id="-290280" lat="58.5532305514" lon="8.23469167074">
		<tag k="name" v="Bukkefjorden" />
		<tag k="natural" v="water" />
		<tag k="ssr:stedsnr" v="61221" />
		<tag k="water" v="lake" />
	</node>
	<node id="-289247" lat="58.6301888909" lon="8.19893055073">
		<tag k="name" v="Djupetjønn" />
		<tag k="natural" v="water" />
		<tag k="ssr:stedsnr" v="294208" />
	</node>
	<node id="-291690" lat="58.5436833292" lon="8.46003610481">
		<tag k="name" v="Sandnes" />
		<tag k="natural" v="cape" />
		<tag k="ssr:stedsnr" v="539533" />
	</node>
	<node id="-291689" lat="58.5515444465" lon="8.46441666941">
		<tag k="name" v="Sauefossen" />
		<tag k="natural" v="waterfall" />
		<tag k="ssr:stedsnr" v="539521" />
	</node>
	<node id="-291687" lat="58.5775027802" lon="8.47301389293">
		<tag k="name" v="St. Hans-øya" />
		<tag k="place" v="islet" />
		<tag k="ssr:stedsnr" v="539173" />
	</node>
	<node id="-289636" lat="58.6600833333" lon="8.28429445176">
		<tag k="name" v="Bakketjønn" />
		<tag k="natural" v="water" />
		<tag k="ssr:stedsnr" v="356652" />
	</node>
	<node id="-291683" lat="58.5793638873" lon="8.57356388957">
		<tag k="name" v="Røynelitjønn" />
		<tag k="natural" v="water" />
		<tag k="ssr:stedsnr" v="539101" />
	</node>
	<node id="-291682" lat="58.5974027747" lon="8.46174723029">
		<tag k="name" v="Tjørnene" />
		<tag k="natural" v="water" />
		<tag k="ssr:stedsnr" v="538992" />
	</node>
	<node id="-290277" lat="58.5234111077" lon="8.46788055729">
		<tag k="fixme" v="multiple name tags, choose one and add the other to alt_name" />
		<tag k="name" v="Heivatnet;Strandtjern" />
		<tag k="natural" v="water" />
		<tag k="ssr:stedsnr" v="61021" />
	</node>
	<node id="-289626" lat="58.6786777821" lon="8.14595277037">
		<tag k="name" v="Heimre Støtjønn" />
		<tag k="natural" v="water" />
		<tag k="ssr:stedsnr" v="356595" />
	</node>
	<node id="-289621" lat="58.5506138929" lon="8.47394444372">
		<tag k="name" v="Kjerringvika" />
		<tag k="natural" v="bay" />
		<tag k="ssr:stedsnr" v="356570" />
	</node>
	<node id="-291668" lat="58.6583777748" lon="8.47893055321">
		<tag k="name" v="Maltetjønn" />
		<tag k="natural" v="water" />
		<tag k="ssr:stedsnr" v="538685" />
	</node>
	<node id="-291667" lat="58.667699997" lon="8.47435556144">
		<tag k="name" v="Eikåstjønn" />
		<tag k="natural" v="water" />
		<tag k="ssr:stedsnr" v="538680" />
	</node>
	<node id="-291662" lat="58.5809083347" lon="8.21729721587">
		<tag k="name" v="Nesane" />
		<tag k="natural" v="cape" />
		<tag k="ssr:stedsnr" v="538634" />
	</node>
	<node id="-289933" lat="58.6009888931" lon="8.40707500273">
		<tag k="name" v="Sagehølen" />
		<tag k="place" v="locality" />
		<tag k="ssr:stedsnr" v="478533" />
	</node>
	<node id="-289612" lat="58.6716722215" lon="8.20916666181">
		<tag k="name" v="Store Fisketjønn" />
		<tag k="natural" v="water" />
		<tag k="ssr:stedsnr" v="356520" />
	</node>
	<node id="-291657" lat="58.5525638904" lon="8.48362222306">
		<tag k="name" v="Blåveisbukta" />
		<tag k="natural" v="bay" />
		<tag k="ssr:stedsnr" v="538600" />
	</node>
	<node id="-289606" lat="58.5420277768" lon="8.41851388341">
		<tag k="name" v="Kvenntjenn" />
		<tag k="natural" v="water" />
		<tag k="ssr:stedsnr" v="356459" />
	</node>
	<node id="-291648" lat="58.6026611141" lon="8.43304999221">
		<tag k="name" v="Haukedalskilen" />
		<tag k="natural" v="bay" />
		<tag k="ssr:stedsnr" v="538553" />
	</node>
	<node id="-289248" lat="58.6312666678" lon="8.2129555612">
		<tag k="name" v="Jordesbekken" />
		<tag k="ssr:stedsnr" v="294222" />
		<tag k="waterway" v="stream" />
	</node>
	<node id="-291644" lat="58.653491666" lon="8.11275833358">
		<tag k="name" v="Krokste" />
		<tag k="natural" v="cape" />
		<tag k="ssr:stedsnr" v="538529" />
	</node>
	<node id="-289594" lat="58.5806222262" lon="8.28576944251">
		<tag k="name" v="Lille Berketjønn" />
		<tag k="natural" v="water" />
		<tag k="ssr:stedsnr" v="356311" />
	</node>
	<node id="-290271" lat="58.5592916661" lon="8.63528888198">
		<tag k="name" v="Urdalsbekken" />
		<tag k="ssr:stedsnr" v="53867" />
		<tag k="waterway" v="stream" />
	</node>
	<node id="-291639" lat="58.6091638898" lon="8.2761888952">
		<tag k="name" v="Pollane" />
		<tag k="natural" v="water" />
		<tag k="ssr:stedsnr" v="538479" />
		<tag k="water" v="pond" />
	</node>
	<node id="-289590" lat="58.6248805587" lon="8.32304166072">
		<tag k="name" v="Blekketjønn" />
		<tag k="natural" v="water" />
		<tag k="ssr:stedsnr" v="356267" />
	</node>
	<node id="-289588" lat="58.6247805523" lon="8.63347776942">
		<tag k="name" v="Raudtjønn" />
		<tag k="natural" v="water" />
		<tag k="ssr:stedsnr" v="356220" />
	</node>
	<node id="-290749" lat="58.65508889" lon="8.59131111287">
		<tag k="name" v="Jerpedalsstoet" />
		<tag k="natural" v="bay" />
		<tag k="ssr:stedsnr" v="173843" />
	</node>
	<node id="-291632" lat="58.605627778" lon="8.19348888476">
		<tag k="name" v="Ferjestadfjellet" />
		<tag k="natural" v="cape" />
		<tag k="ssr:stedsnr" v="538277" />
	</node>
	<node id="-289582" lat="58.6091909371" lon="8.46212049454">
		<tag k="name" v="Landbrukkilen" />
		<tag k="natural" v="bay" />
		<tag k="ssr:stedsnr" v="356119" />
	</node>
	<node id="-291629" lat="58.6154083322" lon="8.64679999291">
		<tag k="name" v="Smaletjønn" />
		<tag k="natural" v="water" />
		<tag k="ssr:stedsnr" v="538221" />
	</node>
	<node id="-289578" lat="58.6555916647" lon="8.05908055847">
		<tag k="name" v="Hidalsbekken" />
		<tag k="ssr:stedsnr" v="355982" />
		<tag k="waterway" v="stream" />
	</node>
	<node id="-292109" lat="58.6967166677" lon="8.29225833463">
		<tag k="name" v="Øystretjønn" />
		<tag k="natural" v="water" />
		<tag k="ssr:stedsnr" v="658738" />
	</node>
	<node id="-289576" lat="58.6567222255" lon="8.10332778596">
		<tag k="name" v="Ormetjønn" />
		<tag k="natural" v="water" />
		<tag k="ssr:stedsnr" v="355971" />
	</node>
	<node id="-291292" lat="58.5530055522" lon="8.47986111653">
		<tag k="name" v="Stallbukta" />
		<tag k="natural" v="bay" />
		<tag k="ssr:stedsnr" v="417633" />
	</node>
	<node id="-291633" lat="58.578897219" lon="8.31049166795">
		<tag k="name" v="Døpelen" />
		<tag k="natural" v="water" />
		<tag k="ssr:stedsnr" v="538325" />
	</node>
	<node id="-291619" lat="58.6030166657" lon="8.45778610374">
		<tag k="name" v="Bjåvatnet" />
		<tag k="natural" v="water" />
		<tag k="ssr:stedsnr" v="538130" />
		<tag k="water" v="lake" />
	</node>
	<node id="-290112" lat="58.4983083333" lon="8.50782500732">
		<tag k="name" v="Lonene" />
		<tag k="natural" v="water" />
		<tag k="ssr:stedsnr" v="49462" />
		<tag k="water" v="lake" />
	</node>
	<node id="-291613" lat="58.6363333338" lon="8.54719443772">
		<tag k="name" v="Futjønn" />
		<tag k="natural" v="water" />
		<tag k="ssr:stedsnr" v="538047" />
	</node>
	<node id="-292972" lat="58.542977774" lon="8.26284999584">
		<tag k="name" v="Monknatten" />
		<tag k="natural" v="cape" />
		<tag k="ssr:stedsnr" v="842170" />
	</node>
	<node id="-289585" lat="58.6147999987" lon="8.51290555479">
		<tag k="name" v="Ormetjønn" />
		<tag k="natural" v="water" />
		<tag k="ssr:stedsnr" v="356160" />
	</node>
	<node id="-291601" lat="58.6579749965" lon="8.60579999313">
		<tag k="name" v="Dyrenestjønn" />
		<tag k="natural" v="water" />
		<tag k="ssr:stedsnr" v="537833" />
	</node>
	<node id="-289550" lat="58.6622944458" lon="8.17613333832">
		<tag k="name" v="Øvre Lindåstjønn" />
		<tag k="natural" v="water" />
		<tag k="ssr:stedsnr" v="355514" />
	</node>
	<node id="-289549" lat="58.5941583307" lon="8.5040972221">
		<tag k="name" v="Klapptjønn" />
		<tag k="natural" v="water" />
		<tag k="ssr:stedsnr" v="355367" />
	</node>
	<node id="-291590" lat="58.6957055556" lon="8.25554166339">
		<tag k="name" v="Djupetjønn" />
		<tag k="natural" v="water" />
		<tag k="ssr:stedsnr" v="537717" />
	</node>
	<node id="-291589" lat="58.6557916684" lon="8.2396027851">
		<tag k="name" v="Koltjønn" />
		<tag k="natural" v="water" />
		<tag k="ssr:stedsnr" v="537709" />
	</node>
	<node id="-291584" lat="58.7022833376" lon="8.16854166816">
		<tag k="name" v="Raulandstjønn" />
		<tag k="natural" v="water" />
		<tag k="ssr:stedsnr" v="537664" />
	</node>
	<node id="-291582" lat="58.6143166698" lon="8.25731389535">
		<tag k="name" v="Torskebuhylen" />
		<tag k="place" v="locality" />
		<tag k="ssr:stedsnr" v="537626" />
	</node>
	<node id="-291625" lat="58.6058083329" lon="8.52520833995">
		<tag k="name" v="Øvre Svarttjønn" />
		<tag k="natural" v="water" />
		<tag k="ssr:stedsnr" v="538168" />
	</node>
	<node id="-289522" lat="58.4798249991" lon="8.54609166389">
		<tag k="name" v="Stemtjenn" />
		<tag k="natural" v="water" />
		<tag k="ssr:stedsnr" v="353929" />
	</node>
	<node id="-289521" lat="58.4862472252" lon="8.54375278505">
		<tag k="name" v="Kjemperøistjenn" />
		<tag k="natural" v="water" />
		<tag k="ssr:stedsnr" v="353922" />
	</node>
	<node id="-291624" lat="58.6163888929" lon="8.52896667243">
		<tag k="name" v="Salstjønn" />
		<tag k="natural" v="water" />
		<tag k="ssr:stedsnr" v="538153" />
	</node>
	<node id="-291565" lat="58.630941667" lon="8.21741667497">
		<tag k="name" v="Svinevika" />
		<tag k="natural" v="bay" />
		<tag k="ssr:stedsnr" v="537219" />
	</node>
	<node id="-289516" lat="58.5282944477" lon="8.48542500593">
		<tag k="name" v="Svenbutjern" />
		<tag k="natural" v="water" />
		<tag k="ssr:stedsnr" v="414018" />
	</node>
	<node id="-291561" lat="58.6321777762" lon="8.22204167455">
		<tag k="name" v="Myklandsvika" />
		<tag k="natural" v="bay" />
		<tag k="ssr:stedsnr" v="537171" />
	</node>
	<node id="-289916" lat="58.6554111105" lon="8.52336944706">
		<tag k="name" v="Ormstjønn" />
		<tag k="natural" v="water" />
		<tag k="ssr:stedsnr" v="477878" />
	</node>
	<node id="-291557" lat="58.6438638881" lon="8.18242778394">
		<tag k="name" v="Kvernhusbekken" />
		<tag k="ssr:stedsnr" v="537043" />
		<tag k="waterway" v="stream" />
	</node>
	<node id="-291555" lat="58.636530558" lon="8.11191111617">
		<tag k="name" v="Slarpedalstjønn" />
		<tag k="natural" v="water" />
		<tag k="ssr:stedsnr" v="537035" />
	</node>
	<node id="-291554" lat="58.6236027782" lon="8.12934444288">
		<tag k="name" v="Eikebergåskilen" />
		<tag k="natural" v="bay" />
		<tag k="ssr:stedsnr" v="537032" />
	</node>
	<node id="-290939" lat="58.5513194433" lon="8.7112527827">
		<tag k="name" v="Bjønnumstjønn" />
		<tag k="natural" v="water" />
		<tag k="ssr:stedsnr" v="216266" />
	</node>
	<node id="-291552" lat="58.6410999962" lon="8.17822500166">
		<tag k="name" v="Mjålandsberga" />
		<tag k="natural" v="cape" />
		<tag k="ssr:stedsnr" v="537014" />
	</node>
	<node id="-289503" lat="58.5227555519" lon="8.54094722067">
		<tag k="name" v="Størrtjenn" />
		<tag k="natural" v="water" />
		<tag k="ssr:stedsnr" v="353054" />
	</node>
	<node id="-291548" lat="58.6411611086" lon="8.19403333739">
		<tag k="name" v="Gåsetjønnbekken" />
		<tag k="ssr:stedsnr" v="537002" />
		<tag k="waterway" v="stream" />
	</node>
	<node id="-289499" lat="58.4605250036" lon="8.54504445201">
		<tag k="name" v="Storeneset" />
		<tag k="natural" v="cape" />
		<tag k="ssr:stedsnr" v="352899" />
	</node>
	<node id="-289498" lat="58.4695777735" lon="8.56424443937">
		<tag k="name" v="Bjørknes" />
		<tag k="natural" v="cape" />
		<tag k="ssr:stedsnr" v="352895" />
	</node>
	<node id="-291545" lat="58.4880500036" lon="8.5467805615">
		<tag k="name" v="Grunnetjenn" />
		<tag k="natural" v="water" />
		<tag k="ssr:stedsnr" v="535925" />
	</node>
	<node id="-289496" lat="58.4685694486" lon="8.55119722089">
		<tag k="name" v="Lilona" />
		<tag k="natural" v="water" />
		<tag k="ssr:stedsnr" v="352887" />
		<tag k="water" v="lake" />
	</node>
	<node id="-289494" lat="58.4875805567" lon="8.40154166476">
		<tag k="name" v="Snaretangen" />
		<tag k="natural" v="cape" />
		<tag k="ssr:stedsnr" v="352720" />
	</node>
	<node id="-291541" lat="58.4740305527" lon="8.58820832501">
		<tag k="name" v="Snippetjenn" />
		<tag k="natural" v="water" />
		<tag k="ssr:stedsnr" v="535899" />
	</node>
	<node id="-289490" lat="58.4764055587" lon="8.46898333707">
		<tag k="name" v="Rautelitangen" />
		<tag k="natural" v="cape" />
		<tag k="ssr:stedsnr" v="352696" />
	</node>
	<node id="-289571" lat="58.6549583355" lon="8.5518944499">
		<tag k="name" v="Nelaugtjønn" />
		<tag k="natural" v="water" />
		<tag k="ssr:stedsnr" v="355830" />
	</node>
	<node id="-289488" lat="58.535325001" lon="8.43868054868">
		<tag k="name" v="Viemyrtjenna" />
		<tag k="natural" v="water" />
		<tag k="ssr:stedsnr" v="352158" />
	</node>
	<node id="-291535" lat="58.5272999977" lon="8.4035333365">
		<tag k="name" v="Stuttjenn" />
		<tag k="natural" v="water" />
		<tag k="ssr:stedsnr" v="535196" />
	</node>
	<node id="-291533" lat="58.515683334" lon="8.49527500064">
		<tag k="name" v="Luretjenn" />
		<tag k="natural" v="water" />
		<tag k="ssr:stedsnr" v="535099" />
	</node>
	<node id="-289484" lat="58.6168055572" lon="8.68964721912">
		<tag k="name" v="Rekevika" />
		<tag k="natural" v="bay" />
		<tag k="ssr:stedsnr" v="337368" />
	</node>
	<node id="-289483" lat="58.6116916699" lon="8.69903888694">
		<tag k="name" v="Heftekil" />
		<tag k="natural" v="bay" />
		<tag k="ssr:stedsnr" v="337355" />
	</node>
	<node id="-291529" lat="58.5197666673" lon="8.45703611288">
		<tag k="name" v="Sundet" />
		<tag k="natural" v="strait" />
		<tag k="ssr:stedsnr" v="535014" />
	</node>
	<node id="-291833" lat="58.6462500016" lon="8.24026389503">
		<tag k="name" v="Fisketjønn" />
		<tag k="natural" v="water" />
		<tag k="ssr:stedsnr" v="597233" />
	</node>
	<node id="-289910" lat="58.6538888851" lon="8.23995555111">
		<tag k="name" v="Teinelaget" />
		<tag k="natural" v="bay" />
		<tag k="ssr:stedsnr" v="477762" />
	</node>
	<node id="-291520" lat="58.6177388922" lon="8.69570556123">
		<tag k="name" v="Katterompa" />
		<tag k="natural" v="cape" />
		<tag k="ssr:stedsnr" v="519376" />
	</node>
	<node id="-291519" lat="58.5321833364" lon="8.73635277292">
		<tag k="name" v="Spigrontjenn" />
		<tag k="natural" v="water" />
		<tag k="ssr:stedsnr" v="519373" />
	</node>
	<node id="-291518" lat="58.6121277801" lon="8.68614444684">
		<tag k="name" v="Maurdalstjenn" />
		<tag k="natural" v="water" />
		<tag k="ssr:stedsnr" v="519361" />
	</node>
	<node id="-289467" lat="58.4759027776" lon="8.65056111486">
		<tag k="name" v="Utjern" />
		<tag k="natural" v="water" />
		<tag k="ssr:stedsnr" v="337214" />
	</node>
	<node id="-291511" lat="58.5894361101" lon="8.73444999471">
		<tag k="name" v="Lonene" />
		<tag k="natural" v="water" />
		<tag k="ssr:stedsnr" v="519291" />
		<tag k="water" v="lake" />
	</node>
	<node id="-291509" lat="58.4924638849" lon="8.5822777797">
		<tag k="name" v="Kleivekilen" />
		<tag k="natural" v="bay" />
		<tag k="ssr:stedsnr" v="519259" />
	</node>
	<node id="-290709" lat="58.6354138876" lon="8.2178916731">
		<tag k="name" v="Sundet" />
		<tag k="natural" v="strait" />
		<tag k="ssr:stedsnr" v="173219" />
	</node>
	<node id="-291505" lat="58.4838388868" lon="8.61864444413">
		<tag k="name" v="Tangen" />
		<tag k="natural" v="cape" />
		<tag k="ssr:stedsnr" v="519229" />
	</node>
	<node id="-291321" lat="58.6000222254" lon="8.22787222318">
		<tag k="name" v="Steinbrukilen" />
		<tag k="natural" v="bay" />
		<tag k="ssr:stedsnr" v="425335" />
	</node>
	<node id="-291494" lat="58.63259167" lon="8.67455277832">
		<tag k="name" v="Neskilen" />
		<tag k="natural" v="bay" />
		<tag k="ssr:stedsnr" v="519145" />
	</node>
	<node id="-289442" lat="58.6058194443" lon="8.64652221945">
		<tag k="alt_name" v="Sangeelva;Songeelva" />
		<tag k="name" v="Songelva" />
		<tag k="ssr:stedsnr" v="304858" />
		<tag k="waterway" v="river" />
	</node>
	<node id="-289441" lat="58.5878194446" lon="8.62141111239">
		<tag k="fixme" v="multiple name tags, choose one and add the other to alt_name" />
		<tag k="name" v="Kroktjern;Kråketjønn" />
		<tag k="natural" v="water" />
		<tag k="ssr:stedsnr" v="304839" />
	</node>
	<node id="-291239" lat="58.6162500012" lon="8.38870556245">
		<tag k="name" v="Evja" />
		<tag k="natural" v="water" />
		<tag k="ssr:stedsnr" v="417015" />
		<tag k="water" v="lake" />
	</node>
	<node id="-291484" lat="58.5361361078" lon="8.56107777357">
		<tag k="name" v="Killebutjenn" />
		<tag k="natural" v="water" />
		<tag k="ssr:stedsnr" v="519030" />
	</node>
	<node id="-291482" lat="58.6530944467" lon="8.63359166283">
		<tag k="name" v="Lillefossøya" />
		<tag k="place" v="island" />
		<tag k="ssr:stedsnr" v="503818" />
	</node>
	<node id="-291481" lat="58.6529555584" lon="8.53000833659">
		<tag k="alt_name" v="Olandstjønn" />
		<tag k="name" v="Olandstjern" />
		<tag k="natural" v="water" />
		<tag k="ssr:stedsnr" v="486992" />
	</node>
	<node id="-289432" lat="58.6219611134" lon="8.58600832923">
		<tag k="alt_name" v="Løyntjørn" />
		<tag k="name" v="Løyntjønn" />
		<tag k="natural" v="water" />
		<tag k="ssr:stedsnr" v="304776" />
	</node>
	<node id="-289431" lat="58.625455553" lon="8.66872222994">
		<tag k="alt_name" v="Trytetjenn" />
		<tag k="name" v="Olsbutjern" />
		<tag k="natural" v="water" />
		<tag k="ssr:stedsnr" v="304774" />
	</node>
	<node id="-291477" lat="58.5785944409" lon="8.61644721966">
		<tag k="fixme" v="multiple name tags, choose one and add the other to alt_name" />
		<tag k="name" v="Hellertjern;Nordmyrtjønn" />
		<tag k="natural" v="water" />
		<tag k="ssr:stedsnr" v="486874" />
	</node>
	<node id="-291476" lat="58.5675027785" lon="8.54347500224">
		<tag k="name" v="Sinåtjørnane" />
		<tag k="natural" v="water" />
		<tag k="ssr:stedsnr" v="486869" />
	</node>
	<node id="-289427" lat="58.5175833321" lon="8.48639166761">
		<tag k="alt_name" v="Svartupstjørn;Svartupstjern" />
		<tag k="name" v="Svartufstjern" />
		<tag k="natural" v="water" />
		<tag k="ssr:stedsnr" v="304739" />
	</node>
	<node id="-291474" lat="58.5740611096" lon="8.49995555022">
		<tag k="alt_name" v="Tellaugtjørn" />
		<tag k="name" v="Tellaugtjønn" />
		<tag k="natural" v="water" />
		<tag k="ssr:stedsnr" v="486865" />
	</node>
	<node id="-291472" lat="58.5682361112" lon="8.67962777592">
		<tag k="name" v="Borvannet" />
		<tag k="natural" v="water" />
		<tag k="ssr:stedsnr" v="486851" />
	</node>
	<node id="-293519" lat="58.5590500041" lon="8.4992888956">
		<tag k="name" v="Rennebekkbukta" />
		<tag k="natural" v="bay" />
		<tag k="ssr:stedsnr" v="963701" />
	</node>
	<node id="-291470" lat="58.6370444469" lon="8.61429999455">
		<tag k="fixme" v="multiple name tags, choose one and add the other to alt_name" />
		<tag k="name" v="Havet;Tjernåstjønn" />
		<tag k="natural" v="water" />
		<tag k="ssr:stedsnr" v="486786" />
	</node>
	<node id="-289901" lat="58.68910556" lon="8.22183888941">
		<tag k="name" v="Tverrbekk" />
		<tag k="ssr:stedsnr" v="477624" />
		<tag k="waterway" v="stream" />
	</node>
	<node id="-291468" lat="58.6272416709" lon="8.7523638838">
		<tag k="alt_name" v="Tjenndalstjenn" />
		<tag k="name" v="Tjerndalstjerna" />
		<tag k="natural" v="water" />
		<tag k="ssr:stedsnr" v="486769" />
	</node>
	<node id="-293514" lat="58.5603611129" lon="8.44326944098">
		<tag k="name" v="Fisketjønn" />
		<tag k="natural" v="water" />
		<tag k="ssr:stedsnr" v="963647" />
	</node>
	<node id="-290583" lat="58.4828111155" lon="8.47552776971">
		<tag k="alt_name" v="Snøløstjern" />
		<tag k="name" v="Snøløstjenn" />
		<tag k="natural" v="water" />
		<tag k="ssr:stedsnr" v="121672" />
	</node>
	<node id="-289416" lat="58.6919638849" lon="8.16728332801">
		<tag k="fixme" v="multiple name tags, choose one and add the other to alt_name" />
		<tag k="name" v="Pattetjønn;Raulandstjørn" />
		<tag k="natural" v="water" />
		<tag k="ssr:stedsnr" v="304456" />
	</node>
	<node id="-289415" lat="58.6818500004" lon="8.30471111392">
		<tag k="alt_name" v="Åletjørn" />
		<tag k="name" v="Åletjønn" />
		<tag k="natural" v="water" />
		<tag k="ssr:stedsnr" v="304435" />
	</node>
	<node id="-290578" lat="58.4782888884" lon="8.40102499339">
		<tag k="name" v="Leiktjønn" />
		<tag k="natural" v="water" />
		<tag k="ssr:stedsnr" v="121442" />
	</node>
	<node id="-291461" lat="58.5643527801" lon="8.74139166001">
		<tag k="alt_name" v="Løtjenn" />
		<tag k="name" v="Løtjern" />
		<tag k="natural" v="water" />
		<tag k="ssr:stedsnr" v="486660" />
	</node>
	<node id="-289412" lat="58.6262277813" lon="8.39752500162">
		<tag k="name" v="Øyna" />
		<tag k="place" v="islet" />
		<tag k="ssr:stedsnr" v="304357" />
	</node>
	<node id="-289411" lat="58.6252361136" lon="8.31830555224">
		<tag k="alt_name" v="Heitjørn" />
		<tag k="name" v="Heitjønn" />
		<tag k="natural" v="water" />
		<tag k="ssr:stedsnr" v="304351" />
	</node>
	<node id="-289410" lat="58.621266669" lon="8.43084166124">
		<tag k="alt_name" v="Garitjørn" />
		<tag k="name" v="Guristjønn" />
		<tag k="natural" v="water" />
		<tag k="ssr:stedsnr" v="304349" />
	</node>
	<node id="-293505" lat="58.5961388872" lon="8.40671111313">
		<tag k="name" v="Botnefjordøya" />
		<tag k="natural" v="cape" />
		<tag k="ssr:stedsnr" v="963579" />
	</node>
	<node id="-291456" lat="58.696275002" lon="8.00923055887">
		<tag k="alt_name" v="Homstølvatnet" />
		<tag k="name" v="Homstølvatn" />
		<tag k="natural" v="water" />
		<tag k="ssr:stedsnr" v="486572" />
		<tag k="water" v="lake" />
	</node>
	<node id="-293502" lat="58.591591666" lon="8.34538888624">
		<tag k="name" v="Rafoss" />
		<tag k="natural" v="waterfall" />
		<tag k="ssr:stedsnr" v="963565" />
	</node>
	<node id="-289404" lat="58.6386305556" lon="8.33513888693">
		<tag k="alt_name" v="Brubakktjørna" />
		<tag k="name" v="Brubakkstjønn" />
		<tag k="natural" v="water" />
		<tag k="ssr:stedsnr" v="304239" />
	</node>
	<node id="-289402" lat="58.575927777" lon="8.22498611795">
		<tag k="name" v="Kilane" />
		<tag k="natural" v="bay" />
		<tag k="ssr:stedsnr" v="304160" />
	</node>
	<node id="-291449" lat="58.6908250043" lon="8.10806389673">
		<tag k="name" v="Øygardstjørnane" />
		<tag k="natural" v="water" />
		<tag k="ssr:stedsnr" v="486479" />
	</node>
	<node id="-291448" lat="58.6963166694" lon="8.15750832933">
		<tag k="alt_name" v="Verevatnet" />
		<tag k="name" v="Vervatn" />
		<tag k="natural" v="water" />
		<tag k="ssr:stedsnr" v="486478" />
		<tag k="water" v="lake" />
	</node>
	<node id="-291446" lat="58.6811333345" lon="8.20818888977">
		<tag k="alt_name" v="Hushovdvatnet" />
		<tag k="name" v="Hushovdtjønn" />
		<tag k="natural" v="water" />
		<tag k="ssr:stedsnr" v="486465" />
	</node>
	<node id="-291445" lat="58.6064055579" lon="8.22486388823">
		<tag k="alt_name" v="Bjelkebørlona" />
		<tag k="name" v="Bjelkeberglona" />
		<tag k="natural" v="bay" />
		<tag k="ssr:stedsnr" v="486353" />
	</node>
	<node id="-291443" lat="58.6764694472" lon="8.1821500051">
		<tag k="alt_name" v="Bjortjørn" />
		<tag k="name" v="Bjortjønn" />
		<tag k="natural" v="water" />
		<tag k="ssr:stedsnr" v="486340" />
	</node>
	<node id="-289394" lat="58.4798666692" lon="8.63818056179">
		<tag k="name" v="Messelvannet" />
		<tag k="natural" v="water" />
		<tag k="ssr:stedsnr" v="303664" />
		<tag k="water" v="lake" />
	</node>
	<node id="-291441" lat="58.6589611123" lon="8.12253610661">
		<tag k="alt_name" v="Frobekken" />
		<tag k="name" v="Frobekk" />
		<tag k="ssr:stedsnr" v="486301" />
		<tag k="waterway" v="stream" />
	</node>
	<node id="-290920" lat="58.5144000024" lon="8.55496945205">
		<tag k="name" v="Langedalsbukta" />
		<tag k="natural" v="water" />
		<tag k="ssr:stedsnr" v="216070" />
	</node>
	<node id="-293486" lat="58.5677472251" lon="8.34629444257">
		<tag k="name" v="Persstehølen" />
		<tag k="place" v="locality" />
		<tag k="ssr:stedsnr" v="963395" />
	</node>
	<node id="-293485" lat="58.5705416707" lon="8.35345556013">
		<tag k="name" v="Lomstjønn" />
		<tag k="natural" v="water" />
		<tag k="ssr:stedsnr" v="963393" />
	</node>
	<node id="-291436" lat="58.537588893" lon="8.43097222078">
		<tag k="alt_name" v="Jordetjørn" />
		<tag k="name" v="Jorestjenn" />
		<tag k="natural" v="water" />
		<tag k="ssr:stedsnr" v="486196" />
	</node>
	<node id="-293483" lat="58.5648527756" lon="8.30217221941">
		<tag k="name" v="Svaldalstjønn" />
		<tag k="natural" v="water" />
		<tag k="ssr:stedsnr" v="963359" />
	</node>
	<node id="-291434" lat="58.585049996" lon="8.26815000108">
		<tag k="alt_name" v="Bjortjørn" />
		<tag k="name" v="Bjortjønn" />
		<tag k="natural" v="water" />
		<tag k="ssr:stedsnr" v="486162" />
	</node>
	<node id="-289385" lat="58.5433611126" lon="8.59725833905">
		<tag k="name" v="Lonene" />
		<tag k="natural" v="water" />
		<tag k="ssr:stedsnr" v="296676" />
		<tag k="water" v="lake" />
	</node>
	<node id="-289383" lat="58.5979250044" lon="8.20723889069">
		<tag k="name" v="Drittjønn" />
		<tag k="natural" v="water" />
		<tag k="ssr:stedsnr" v="296584" />
	</node>
	<node id="-291430" lat="58.5996305578" lon="8.31751388475">
		<tag k="alt_name" v="Solåstjørna" />
		<tag k="name" v="Solåstjønn" />
		<tag k="natural" v="water" />
		<tag k="ssr:stedsnr" v="486139" />
	</node>
	<node id="-291429" lat="58.5702972244" lon="8.30092776947">
		<tag k="name" v="Sandtjørn" />
		<tag k="natural" v="water" />
		<tag k="ssr:stedsnr" v="486115" />
	</node>
	<node id="-289378" lat="58.6034861123" lon="8.4291805489">
		<tag k="name" v="Neset" />
		<tag k="natural" v="cape" />
		<tag k="ssr:stedsnr" v="296495" />
	</node>
	<node id="-291425" lat="58.5765083297" lon="8.30812500644">
		<tag k="alt_name" v="Uldalstjørna" />
		<tag k="name" v="Uldalstjønn" />
		<tag k="natural" v="water" />
		<tag k="ssr:stedsnr" v="486098" />
	</node>
	<node id="-291424" lat="58.6414666709" lon="8.09874999792">
		<tag k="alt_name" v="Frobekken" />
		<tag k="name" v="Frobekk" />
		<tag k="ssr:stedsnr" v="486096" />
		<tag k="waterway" v="stream" />
	</node>
	<node id="-291423" lat="58.5165666629" lon="8.44683610923">
		<tag k="alt_name" v="Bjorvatnet" />
		<tag k="name" v="Bjorvatn" />
		<tag k="natural" v="water" />
		<tag k="ssr:stedsnr" v="486043" />
		<tag k="water" v="lake" />
	</node>
	<node id="-291422" lat="58.6691166678" lon="8.32943889651">
		<tag k="name" v="Dalebekken" />
		<tag k="ssr:stedsnr" v="486314" />
		<tag k="waterway" v="stream" />
	</node>
	<node id="-289371" lat="58.5838416697" lon="8.57454999323">
		<tag k="name" v="Tverrbekken" />
		<tag k="ssr:stedsnr" v="296405" />
		<tag k="waterway" v="stream" />
	</node>
	<node id="-289365" lat="58.5818833315" lon="8.58189721717">
		<tag k="name" v="Løyntjønn" />
		<tag k="natural" v="water" />
		<tag k="ssr:stedsnr" v="296094" />
	</node>
	<node id="-293316" lat="58.4838083337" lon="8.56176943646">
		<tag k="name" v="Fremstetjennene" />
		<tag k="natural" v="water" />
		<tag k="ssr:stedsnr" v="944005" />
	</node>
	<node id="-293458" lat="58.5746777755" lon="8.50406667423">
		<tag k="name" v="Fotstjønn" />
		<tag k="natural" v="water" />
		<tag k="ssr:stedsnr" v="963015" />
	</node>
	<node id="-290232" lat="58.5945944464" lon="8.58714444553">
		<tag k="name" v="Dyblemyrtjønn" />
		<tag k="natural" v="water" />
		<tag k="ssr:stedsnr" v="53454" />
	</node>
	<node id="-291406" lat="58.624319442" lon="8.73821666996">
		<tag k="name" v="Blåtjenn" />
		<tag k="natural" v="water" />
		<tag k="ssr:stedsnr" v="459281" />
	</node>
	<node id="-291404" lat="58.5872527767" lon="8.73762778385">
		<tag k="name" v="Stavetjenn" />
		<tag k="natural" v="water" />
		<tag k="ssr:stedsnr" v="459261" />
	</node>
	<node id="-289354" lat="58.6611611068" lon="8.57826944465">
		<tag k="name" v="Kubben" />
		<tag k="natural" v="cape" />
		<tag k="ssr:stedsnr" v="295865" />
	</node>
	<node id="-291401" lat="58.5380472243" lon="8.62306111542">
		<tag k="name" v="Trolldalstjenn" />
		<tag k="natural" v="water" />
		<tag k="ssr:stedsnr" v="459194" />
	</node>
	<node id="-289350" lat="58.6639472264" lon="8.52621111946">
		<tag k="name" v="Paddetjønn" />
		<tag k="natural" v="water" />
		<tag k="ssr:stedsnr" v="295843" />
	</node>
	<node id="-293444" lat="58.632219447" lon="8.05728610632">
		<tag k="name" v="Mattistjønn" />
		<tag k="natural" v="water" />
		<tag k="ssr:stedsnr" v="962768" />
	</node>
	<node id="-293443" lat="58.641816671" lon="8.07889166927">
		<tag k="name" v="Kjulpen" />
		<tag k="natural" v="water" />
		<tag k="ssr:stedsnr" v="962751" />
		<tag k="water" v="pond" />
	</node>
	<node id="-289346" lat="58.6382583335" lon="8.07057222933">
		<tag k="name" v="Berlandstjønn" />
		<tag k="natural" v="water" />
		<tag k="ssr:stedsnr" v="295780" />
	</node>
	<node id="-291391" lat="58.6306694476" lon="8.67240556368">
		<tag k="name" v="Nestjenn" />
		<tag k="natural" v="water" />
		<tag k="ssr:stedsnr" v="459135" />
	</node>
	<node id="-291390" lat="58.5114444408" lon="8.60351945301">
		<tag k="name" v="Ormetjenn" />
		<tag k="natural" v="water" />
		<tag k="ssr:stedsnr" v="459093" />
	</node>
	<node id="-293433" lat="58.6488694483" lon="8.48030277471">
		<tag k="name" v="Beinåstjønn" />
		<tag k="natural" v="water" />
		<tag k="ssr:stedsnr" v="962664" />
	</node>
	<node id="-291419" lat="58.4772916649" lon="8.59291667063">
		<tag k="alt_name" v="Grandalstjenn" />
		<tag k="name" v="Grandalstjern" />
		<tag k="natural" v="water" />
		<tag k="ssr:stedsnr" v="485630" />
	</node>
	<node id="-291379" lat="58.502013891" lon="8.67483333087">
		<tag k="name" v="Blautebekk" />
		<tag k="ssr:stedsnr" v="459019" />
		<tag k="waterway" v="stream" />
	</node>
	<node id="-291378" lat="58.5388944437" lon="8.55673056341">
		<tag k="name" v="Helgestjenn" />
		<tag k="natural" v="water" />
		<tag k="ssr:stedsnr" v="459015" />
	</node>
	<node id="-289329" lat="58.6572111124" lon="8.48973054979">
		<tag k="name" v="Svarttjønn" />
		<tag k="natural" v="water" />
		<tag k="ssr:stedsnr" v="295691" />
	</node>
	<node id="-293424" lat="58.6487833353" lon="8.24213055794">
		<tag k="name" v="Lomstjønn" />
		<tag k="natural" v="water" />
		<tag k="ssr:stedsnr" v="962633" />
	</node>
	<node id="-289327" lat="58.6105777788" lon="8.23041945173">
		<tag k="name" v="Straumen" />
		<tag k="ssr:stedsnr" v="295673" />
		<tag k="waterway" v="rapids" />
	</node>
	<node id="-291374" lat="58.6368944443" lon="8.50740277092">
		<tag k="alt_name" v="Asjebuvatna, nedre" />
		<tag k="name" v="Nedre Asjebuvatn" />
		<tag k="natural" v="water" />
		<tag k="ssr:stedsnr" v="426976" />
	</node>
	<node id="-293421" lat="58.6556305598" lon="8.1699888851">
		<tag k="name" v="Trolldalstjønn" />
		<tag k="natural" v="water" />
		<tag k="ssr:stedsnr" v="962532" />
	</node>
	<node id="-289888" lat="58.6100638891" lon="8.18930000372">
		<tag k="name" v="Telleikleivtangen" />
		<tag k="natural" v="cape" />
		<tag k="ssr:stedsnr" v="477556" />
	</node>
	<node id="-291370" lat="58.5878833296" lon="8.69198888391">
		<tag k="alt_name" v="Tvitjennene" />
		<tag k="name" v="Tvitjørnane" />
		<tag k="natural" v="water" />
		<tag k="ssr:stedsnr" v="426833" />
	</node>
	<node id="-291369" lat="58.6188361076" lon="8.6936111193">
		<tag k="alt_name" v="Kilandsfjorden" />
		<tag k="name" v="Kilandsfjord" />
		<tag k="place" v="locality" />
		<tag k="ssr:stedsnr" v="426811" />
	</node>
	<node id="-291365" lat="58.5378027819" lon="8.67705276996">
		<tag k="name" v="Solheimstjenna" />
		<tag k="natural" v="water" />
		<tag k="ssr:stedsnr" v="426692" />
	</node>
	<node id="-290600" lat="58.6168111073" lon="8.24002778063">
		<tag k="alt_name" v="Fjermundtjørn" />
		<tag k="name" v="Fjermundtjønn" />
		<tag k="natural" v="water" />
		<tag k="ssr:stedsnr" v="122355" />
	</node>
	<node id="-291661" lat="58.6014361128" lon="8.21329443839">
		<tag k="name" v="Smalefoss" />
		<tag k="natural" v="waterfall" />
		<tag k="ssr:stedsnr" v="538624" />
	</node>
	<node id="-293410" lat="58.5996472241" lon="8.53651944041">
		<tag k="name" v="Tvitjønn" />
		<tag k="natural" v="water" />
		<tag k="ssr:stedsnr" v="962361" />
	</node>
	<node id="-290986" lat="58.6943722242" lon="8.11498888958">
		<tag k="name" v="Store Øygardstjønn" />
		<tag k="natural" v="water" />
		<tag k="ssr:stedsnr" v="233940" />
	</node>
	<node id="-293406" lat="58.6264194477" lon="8.28890554738">
		<tag k="name" v="Jordøyna" />
		<tag k="place" v="island" />
		<tag k="ssr:stedsnr" v="962318" />
	</node>
	<node id="-291357" lat="58.6890638924" lon="8.28560555874">
		<tag k="alt_name" v="Kvenntjørn" />
		<tag k="name" v="Kverntjønn" />
		<tag k="natural" v="water" />
		<tag k="ssr:stedsnr" v="426428" />
	</node>
	<node id="-289307" lat="58.6608750035" lon="8.16588888485">
		<tag k="name" v="Hampetjønn" />
		<tag k="natural" v="water" />
		<tag k="ssr:stedsnr" v="295559" />
	</node>
	<node id="-293402" lat="58.6055111119" lon="8.22607222345">
		<tag k="name" v="Lonsnes" />
		<tag k="natural" v="cape" />
		<tag k="ssr:stedsnr" v="962257" />
	</node>
	<node id="-293400" lat="58.6879222197" lon="8.0110472211">
		<tag k="name" v="Dritsund" />
		<tag k="natural" v="strait" />
		<tag k="ssr:stedsnr" v="962170" />
	</node>
	<node id="-289302" lat="58.6402777811" lon="8.51275556037">
		<tag k="name" v="Byttingstjønn" />
		<tag k="natural" v="water" />
		<tag k="ssr:stedsnr" v="295475" />
	</node>
	<node id="-293397" lat="58.6786361076" lon="8.03505555615">
		<tag k="name" v="Mjåvatsstykket" />
		<tag k="natural" v="cape" />
		<tag k="ssr:stedsnr" v="962091" />
	</node>
	<node id="-291348" lat="58.6379083332" lon="8.30882777328">
		<tag k="alt_name" v="Kjellingtjørn" />
		<tag k="name" v="Kjellingtjønn" />
		<tag k="natural" v="water" />
		<tag k="ssr:stedsnr" v="426248" />
	</node>
	<node id="-291347" lat="58.5594361136" lon="8.46079167065">
		<tag k="alt_name" v="Flottervatnet" />
		<tag k="name" v="Flåttervatnet" />
		<tag k="natural" v="water" />
		<tag k="ssr:stedsnr" v="426240" />
	</node>
	<node id="-293394" lat="58.6358250032" lon="8.50309721436">
		<tag k="name" v="Auretjønn" />
		<tag k="natural" v="water" />
		<tag k="ssr:stedsnr" v="962044" />
	</node>
	<node id="-293392" lat="58.5776111079" lon="8.29353055241">
		<tag k="name" v="Gullbergstjønn" />
		<tag k="natural" v="water" />
		<tag k="ssr:stedsnr" v="963327" />
	</node>
	<node id="-291343" lat="58.5176527761" lon="8.45900555662">
		<tag k="fixme" v="multiple name tags, choose one and add the other to alt_name" />
		<tag k="name" v="Bjorvatn;Nedre Bjorvatn;Nervatnet" />
		<tag k="natural" v="water" />
		<tag k="ssr:stedsnr" v="426047" />
	</node>
	<node id="-293389" lat="58.6689833321" lon="8.28761389162">
		<tag k="name" v="Andrestjønn" />
		<tag k="natural" v="water" />
		<tag k="ssr:stedsnr" v="961678" />
	</node>
	<node id="-293388" lat="58.6296166629" lon="8.46208888262">
		<tag k="name" v="Hauglitjønn" />
		<tag k="natural" v="water" />
		<tag k="ssr:stedsnr" v="961320" />
	</node>
	<node id="-293387" lat="58.633883332" lon="8.3963333278">
		<tag k="name" v="Bjørkeløetjønn" />
		<tag k="natural" v="water" />
		<tag k="ssr:stedsnr" v="961290" />
	</node>
	<node id="-289289" lat="58.6288250014" lon="8.2991916609">
		<tag k="name" v="Bøykenesa" />
		<tag k="natural" v="cape" />
		<tag k="ssr:stedsnr" v="295345" />
	</node>
	<node id="-289288" lat="58.6443694477" lon="8.40170832816">
		<tag k="name" v="Flatelandsfjorden" />
		<tag k="natural" v="water" />
		<tag k="ssr:stedsnr" v="295314" />
		<tag k="water" v="lake" />
	</node>
	<node id="-293383" lat="58.6444666664" lon="8.24208056365">
		<tag k="name" v="Lille Fisketjønn" />
		<tag k="natural" v="water" />
		<tag k="ssr:stedsnr" v="961207" />
	</node>
	<node id="-293381" lat="58.6327416637" lon="8.2209861038">
		<tag k="name" v="Kyrkjeodden" />
		<tag k="natural" v="cape" />
		<tag k="ssr:stedsnr" v="961173" />
	</node>
	<node id="-291332" lat="58.546130557" lon="8.64489723009">
		<tag k="alt_name" v="Tvitjørnane" />
		<tag k="name" v="Tvitjønnane" />
		<tag k="natural" v="water" />
		<tag k="ssr:stedsnr" v="425667" />
	</node>
	<node id="-293379" lat="58.6319083295" lon="8.1584472158">
		<tag k="name" v="Lauvbekktjønn" />
		<tag k="natural" v="water" />
		<tag k="ssr:stedsnr" v="961040" />
	</node>
	<node id="-291329" lat="58.5406111107" lon="8.72608889161">
		<tag k="alt_name" v="Seljestølvannet" />
		<tag k="name" v="Seljestølvatnet" />
		<tag k="natural" v="water" />
		<tag k="ssr:stedsnr" v="425660" />
	</node>
	<node id="-293375" lat="58.6447444454" lon="8.18851945212">
		<tag k="name" v="Deildebekk" />
		<tag k="ssr:stedsnr" v="961003" />
		<tag k="waterway" v="stream" />
	</node>
	<node id="-293374" lat="58.4730583326" lon="8.55985832636">
		<tag k="name" v="Buodden" />
		<tag k="natural" v="cape" />
		<tag k="ssr:stedsnr" v="960885" />
	</node>
	<node id="-291325" lat="58.6947027757" lon="7.99079444508">
		<tag k="alt_name" v="Bjorbekken, nordre" />
		<tag k="name" v="Nordre Bjorbekken" />
		<tag k="ssr:stedsnr" v="425608" />
		<tag k="waterway" v="stream" />
	</node>
	<node id="-291324" lat="58.6809472266" lon="8.07778889662">
		<tag k="name" v="Surtemyrbekken" />
		<tag k="ssr:stedsnr" v="425592" />
		<tag k="waterway" v="stream" />
	</node>
	<node id="-293369" lat="58.5026861139" lon="8.50154722127">
		<tag k="name" v="Gjøssevassbekken" />
		<tag k="ssr:stedsnr" v="960418" />
		<tag k="waterway" v="stream" />
	</node>
	<node id="-291320" lat="58.6019972254" lon="8.22066943738">
		<tag k="name" v="Tveitåna" />
		<tag k="ssr:stedsnr" v="425334" />
		<tag k="waterway" v="river" />
	</node>
	<node id="-293367" lat="58.5118722258" lon="8.44152777555">
		<tag k="name" v="Granåstjenn" />
		<tag k="natural" v="water" />
		<tag k="ssr:stedsnr" v="960104" />
	</node>
	<node id="-291318" lat="58.5603916659" lon="8.4434638974">
		<tag k="alt_name" v="Fisketjønn" />
		<tag k="name" v="Fisketjørn" />
		<tag k="natural" v="water" />
		<tag k="ssr:stedsnr" v="425219" />
	</node>
	<node id="-291317" lat="58.5632166677" lon="8.26690277338">
		<tag k="alt_name" v="Småtjørnane" />
		<tag k="name" v="Småtjønnane" />
		<tag k="natural" v="water" />
		<tag k="ssr:stedsnr" v="425154" />
	</node>
	<node id="-289267" lat="58.6960305553" lon="8.08263889011">
		<tag k="name" v="Lille Brokkelinetjønn" />
		<tag k="natural" v="water" />
		<tag k="ssr:stedsnr" v="294908" />
	</node>
	<node id="-289266" lat="58.6909500027" lon="8.09818611528">
		<tag k="name" v="Befjelltjønn" />
		<tag k="natural" v="water" />
		<tag k="ssr:stedsnr" v="294892" />
	</node>
	<node id="-289265" lat="58.6771777804" lon="8.07113332519">
		<tag k="name" v="Surtemyrtjønn" />
		<tag k="natural" v="water" />
		<tag k="ssr:stedsnr" v="294882" />
	</node>
	<node id="-291311" lat="58.5528472252" lon="8.64884723035">
		<tag k="name" v="Fisketjønn" />
		<tag k="natural" v="water" />
		<tag k="ssr:stedsnr" v="417859" />
	</node>
	<node id="-293353" lat="58.6206416662" lon="8.67506666382">
		<tag k="name" v="Sagebekken" />
		<tag k="ssr:stedsnr" v="944369" />
		<tag k="waterway" v="stream" />
	</node>
	<node id="-293352" lat="58.5722027772" lon="8.74618889432">
		<tag k="name" v="Pytten" />
		<tag k="natural" v="water" />
		<tag k="ssr:stedsnr" v="944363" />
		<tag k="water" v="pond" />
	</node>
	<node id="-291303" lat="58.539997225" lon="8.64059444901">
		<tag k="name" v="Sanderhøllen" />
		<tag k="place" v="locality" />
		<tag k="ssr:stedsnr" v="417805" />
	</node>
	<node id="-291302" lat="58.5933444485" lon="8.41981389737">
		<tag k="name" v="Vestre Setetjønn" />
		<tag k="natural" v="water" />
		<tag k="ssr:stedsnr" v="417765" />
	</node>
	<node id="-289252" lat="58.6648055516" lon="8.12175277703">
		<tag k="name" v="Reiershøl" />
		<tag k="place" v="locality" />
		<tag k="ssr:stedsnr" v="294289" />
	</node>
	<node id="-291296" lat="58.6678083354" lon="8.27820554979">
		<tag k="name" v="Kroktjønn" />
		<tag k="natural" v="water" />
		<tag k="ssr:stedsnr" v="417697" />
	</node>
	<node id="-291295" lat="58.543711113" lon="8.52323056368">
		<tag k="name" v="Gjuvatstjønn" />
		<tag k="natural" v="water" />
		<tag k="ssr:stedsnr" v="417679" />
	</node>
	<node id="-289246" lat="58.6405416691" lon="8.24869166173">
		<tag k="name" v="Styggetjønn" />
		<tag k="natural" v="water" />
		<tag k="ssr:stedsnr" v="294201" />
	</node>
	<node id="-289245" lat="58.6470083332" lon="8.23581666879">
		<tag k="name" v="Lauvrakstjønn" />
		<tag k="natural" v="water" />
		<tag k="ssr:stedsnr" v="294195" />
	</node>
	<node id="-293340" lat="58.5662611094" lon="8.66013333781">
		<tag k="name" v="Hakkebudam" />
		<tag k="ssr:stedsnr" v="944147" />
		<tag k="waterway" v="dam" />
	</node>
	<node id="-291289" lat="58.5468805558" lon="8.48240278093">
		<tag k="name" v="Rossebekken" />
		<tag k="ssr:stedsnr" v="417607" />
		<tag k="waterway" v="stream" />
	</node>
	<node id="-293336" lat="58.5011944428" lon="8.5896305592">
		<tag k="name" v="Trekilen" />
		<tag k="natural" v="bay" />
		<tag k="ssr:stedsnr" v="944072" />
	</node>
	<node id="-289239" lat="58.627683329" lon="8.13096665869">
		<tag k="name" v="Skjebbetjønn" />
		<tag k="natural" v="water" />
		<tag k="ssr:stedsnr" v="294025" />
	</node>
	<node id="-290802" lat="58.6390805567" lon="8.06254166423">
		<tag k="name" v="Huseheitjønn" />
		<tag k="natural" v="water" />
		<tag k="ssr:stedsnr" v="174794" />
	</node>
	<node id="-293331" lat="58.5165999968" lon="8.6055500059">
		<tag k="name" v="Keitjenn" />
		<tag k="natural" v="water" />
		<tag k="ssr:stedsnr" v="944258" />
	</node>
	<node id="-289233" lat="58.4810472203" lon="8.54714165891">
		<tag k="name" v="Bjønnetjenn" />
		<tag k="natural" v="water" />
		<tag k="ssr:stedsnr" v="292921" />
	</node>
	<node id="-291280" lat="58.6080500019" lon="8.30041389183">
		<tag k="name" v="Espelandsbekk" />
		<tag k="ssr:stedsnr" v="417486" />
		<tag k="waterway" v="stream" />
	</node>
	<node id="-289231" lat="58.4697250004" lon="8.56037222944">
		<tag k="name" v="Kalveodden" />
		<tag k="natural" v="cape" />
		<tag k="ssr:stedsnr" v="292908" />
	</node>
	<node id="-291277" lat="58.6207416661" lon="8.34325278566">
		<tag k="name" v="Øvrevann" />
		<tag k="natural" v="water" />
		<tag k="ssr:stedsnr" v="417481" />
		<tag k="water" v="lake" />
	</node>
	<node id="-293320" lat="58.4894361144" lon="8.56670832875">
		<tag k="name" v="Trandletjenn" />
		<tag k="natural" v="water" />
		<tag k="ssr:stedsnr" v="944001" />
	</node>
	<node id="-291270" lat="58.5786972192" lon="8.34163889439">
		<tag k="name" v="Leirtangen" />
		<tag k="natural" v="cape" />
		<tag k="ssr:stedsnr" v="417382" />
	</node>
	<node id="-290209" lat="58.5727777804" lon="8.52758888875">
		<tag k="name" v="Neset" />
		<tag k="natural" v="cape" />
		<tag k="ssr:stedsnr" v="53040" />
	</node>
	<node id="-291268" lat="58.5770444469" lon="8.30368888866">
		<tag k="name" v="Bjønnskjeggtjønn" />
		<tag k="natural" v="water" />
		<tag k="ssr:stedsnr" v="417330" />
	</node>
	<node id="-293314" lat="58.642944442" lon="8.48095277362">
		<tag k="name" v="Hevdesbekken" />
		<tag k="ssr:stedsnr" v="911998" />
		<tag k="waterway" v="stream" />
	</node>
	<node id="-291264" lat="58.6195416661" lon="8.30059166736">
		<tag k="name" v="Bontekilen" />
		<tag k="natural" v="bay" />
		<tag k="ssr:stedsnr" v="417272" />
	</node>
	<node id="-293311" lat="58.6599416653" lon="8.59798333955">
		<tag k="name" v="Lauvøya" />
		<tag k="place" v="islet" />
		<tag k="ssr:stedsnr" v="911930" />
	</node>
	<node id="-289213" lat="58.5386694469" lon="8.42221945092">
		<tag k="name" v="Graskleivtjern" />
		<tag k="natural" v="water" />
		<tag k="ssr:stedsnr" v="291175" />
	</node>
	<node id="-289710" lat="58.5249583292" lon="8.67323889741">
		<tag k="alt_name" v="Hurvedalstjenn;Horvedalstjern" />
		<tag k="name" v="Horvedalstjenn" />
		<tag k="natural" v="water" />
		<tag k="ssr:stedsnr" v="365724" />
	</node>
	<node id="-293306" lat="58.6165527746" lon="8.49026665905">
		<tag k="alt_name" v="Floketjern" />
		<tag k="name" v="Floketjønn" />
		<tag k="natural" v="water" />
		<tag k="ssr:stedsnr" v="911767" />
	</node>
	<node id="-291255" lat="58.5483777794" lon="8.24239444263">
		<tag k="name" v="Bukkefjorden" />
		<tag k="ssr:stedsnr" v="417163" />
		<tag k="waterway" v="river" />
	</node>
	<node id="-293302" lat="58.5416500033" lon="8.51701111615">
		<tag k="name" v="Gjuvvatnet" />
		<tag k="natural" v="water" />
		<tag k="ssr:stedsnr" v="911674" />
	</node>
	<node id="-293300" lat="58.5604250039" lon="8.71873332693">
		<tag k="name" v="Styggtjenn" />
		<tag k="natural" v="water" />
		<tag k="ssr:stedsnr" v="911652" />
	</node>
	<node id="-293298" lat="58.6939055568" lon="8.0656388949">
		<tag k="name" v="Befjelltjørna" />
		<tag k="natural" v="water" />
		<tag k="ssr:stedsnr" v="911636" />
	</node>
	<node id="-289201" lat="58.4971277799" lon="8.59239722861">
		<tag k="name" v="Kalvodden" />
		<tag k="natural" v="cape" />
		<tag k="ssr:stedsnr" v="277039" />
	</node>
	<node id="-291247" lat="58.6143694456" lon="8.46395000208">
		<tag k="name" v="Vassenden" />
		<tag k="natural" v="bay" />
		<tag k="ssr:stedsnr" v="417113" />
	</node>
	<node id="-289232" lat="58.4879638905" lon="8.52778332823">
		<tag k="name" v="Raundalskilen" />
		<tag k="natural" v="bay" />
		<tag k="ssr:stedsnr" v="292920" />
	</node>
	<node id="-291240" lat="58.5621916664" lon="8.46498888057">
		<tag k="name" v="Sauebekken" />
		<tag k="ssr:stedsnr" v="417027" />
		<tag k="waterway" v="stream" />
	</node>
	<node id="-293287" lat="58.6219861088" lon="8.40467500169">
		<tag k="alt_name" v="Ålkroken" />
		<tag k="name" v="Åkroken" />
		<tag k="natural" v="bay" />
		<tag k="ssr:stedsnr" v="911361" />
	</node>
	<node id="-293286" lat="58.6153138919" lon="8.27813055109">
		<tag k="alt_name" v="Grunnetjørn" />
		<tag k="name" v="Grunnetjønn" />
		<tag k="natural" v="water" />
		<tag k="ssr:stedsnr" v="911355" />
	</node>
	<node id="-293285" lat="58.614038888" lon="8.41921110785">
		<tag k="alt_name" v="Beråstjørn" />
		<tag k="name" v="Beråstjønn" />
		<tag k="natural" v="water" />
		<tag k="ssr:stedsnr" v="911351" />
	</node>
	<node id="-293284" lat="58.6052138917" lon="8.31413332912">
		<tag k="alt_name" v="Oksletjørn" />
		<tag k="name" v="Oksletjønn" />
		<tag k="natural" v="water" />
		<tag k="ssr:stedsnr" v="911338" />
	</node>
	<node id="-293282" lat="58.6441916696" lon="8.1798444508">
		<tag k="name" v="Åsundet" />
		<tag k="natural" v="strait" />
		<tag k="ssr:stedsnr" v="911296" />
	</node>
	<node id="-291227" lat="58.6659166627" lon="8.51246667413">
		<tag k="name" v="Kjempetjønn" />
		<tag k="natural" v="water" />
		<tag k="ssr:stedsnr" v="416804" />
	</node>
	<node id="-293280" lat="58.6413333366" lon="8.36628333539">
		<tag k="alt_name" v="Bjortjørn" />
		<tag k="name" v="Bjortjønn" />
		<tag k="natural" v="water" />
		<tag k="ssr:stedsnr" v="911271" />
	</node>
	<node id="-293279" lat="58.5552888925" lon="8.28788611346">
		<tag k="alt_name" v="Svobekktjørn" />
		<tag k="name" v="Svobekktjønn" />
		<tag k="natural" v="water" />
		<tag k="ssr:stedsnr" v="911259" />
	</node>
	<node id="-293278" lat="58.5553027813" lon="8.2950666681">
		<tag k="alt_name" v="Flesketjørn" />
		<tag k="name" v="Flesketjønn" />
		<tag k="natural" v="water" />
		<tag k="ssr:stedsnr" v="911251" />
	</node>
	<node id="-293276" lat="58.5985722215" lon="8.36041110321">
		<tag k="alt_name" v="Svarttjørn" />
		<tag k="name" v="Svarttjønn" />
		<tag k="natural" v="water" />
		<tag k="ssr:stedsnr" v="911154" />
	</node>
	<node id="-293275" lat="58.5629055529" lon="8.29389444669">
		<tag k="alt_name" v="Klovestjørn" />
		<tag k="name" v="Klovestjønn" />
		<tag k="natural" v="water" />
		<tag k="ssr:stedsnr" v="911152" />
	</node>
	<node id="-289519" lat="58.5017527734" lon="8.53739167099">
		<tag k="name" v="Svarttjennbekken" />
		<tag k="ssr:stedsnr" v="353436" />
		<tag k="waterway" v="stream" />
	</node>
	<node id="-293272" lat="58.5669861094" lon="8.46198333297">
		<tag k="name" v="Kråkevatnet" />
		<tag k="natural" v="water" />
		<tag k="ssr:stedsnr" v="911142" />
	</node>
	<node id="-293271" lat="58.5688694474" lon="8.2385277708">
		<tag k="alt_name" v="Ålekjerrtjørna" />
		<tag k="name" v="Ålekjerrtjønn" />
		<tag k="natural" v="water" />
		<tag k="ssr:stedsnr" v="911135" />
	</node>
	<node id="-291222" lat="58.7003833364" lon="8.28362500496">
		<tag k="name" v="Beintjønn" />
		<tag k="natural" v="water" />
		<tag k="ssr:stedsnr" v="416717" />
	</node>
	<node id="-293273" lat="58.5705833335" lon="8.32197221795">
		<tag k="alt_name" v="Hovtjørn, l" />
		<tag k="name" v="Lille Hovtjønn" />
		<tag k="natural" v="water" />
		<tag k="ssr:stedsnr" v="911141" />
	</node>
	<node id="-293268" lat="58.5036111113" lon="8.4278777738">
		<tag k="alt_name" v="Kovelandstjørna" />
		<tag k="name" v="Kovelandstjenn" />
		<tag k="natural" v="water" />
		<tag k="ssr:stedsnr" v="911007" />
	</node>
	<node id="-293266" lat="58.4965749986" lon="8.61510000098">
		<tag k="alt_name" v="Åvelandstjerna" />
		<tag k="name" v="Ovelandstjenn" />
		<tag k="natural" v="water" />
		<tag k="ssr:stedsnr" v="910685" />
	</node>
	<node id="-293264" lat="58.4728138908" lon="8.43272778155">
		<tag k="name" v="Storrtjønn" />
		<tag k="natural" v="water" />
		<tag k="ssr:stedsnr" v="910490" />
	</node>
	<node id="-291215" lat="58.6669750039" lon="8.25199721785">
		<tag k="name" v="Telleisbekk" />
		<tag k="ssr:stedsnr" v="416667" />
		<tag k="waterway" v="stream" />
	</node>
	<node id="-291211" lat="58.6490027807" lon="8.30541111121">
		<tag k="name" v="Vesterbekk" />
		<tag k="ssr:stedsnr" v="416589" />
		<tag k="waterway" v="stream" />
	</node>
	<node id="-291223" lat="58.6400666699" lon="8.07914999312">
		<tag k="name" v="Bjønnestokktjønn" />
		<tag k="natural" v="water" />
		<tag k="ssr:stedsnr" v="416736" />
	</node>
	<node id="-291564" lat="58.6261638933" lon="8.18569722138">
		<tag k="name" v="Stevnbukta" />
		<tag k="natural" v="bay" />
		<tag k="ssr:stedsnr" v="537211" />
	</node>
	<node id="-293254" lat="58.5541833349" lon="8.55740278418">
		<tag k="name" v="Vertjønn" />
		<tag k="natural" v="water" />
		<tag k="ssr:stedsnr" v="903705" />
	</node>
	<node id="-291204" lat="58.6522861081" lon="8.16766667016">
		<tag k="name" v="Rossnes" />
		<tag k="natural" v="cape" />
		<tag k="ssr:stedsnr" v="416499" />
	</node>
	<node id="-293270" lat="58.5171250039" lon="8.41327500348">
		<tag k="alt_name" v="Øynavatnet" />
		<tag k="fixme" v="multiple name tags, choose one and add the other to alt_name" />
		<tag k="name" v="Fiskevatn;Øynavatn" />
		<tag k="natural" v="water" />
		<tag k="ssr:stedsnr" v="911042" />
	</node>
	<node id="-293249" lat="58.6093666706" lon="8.19111111265">
		<tag k="name" v="Telleikleivbukta" />
		<tag k="natural" v="bay" />
		<tag k="ssr:stedsnr" v="903510" />
	</node>
	<node id="-293248" lat="58.5998555519" lon="8.41151110315">
		<tag k="name" v="Badehølen" />
		<tag k="place" v="locality" />
		<tag k="ssr:stedsnr" v="903502" />
	</node>
	<node id="-291195" lat="58.6250388924" lon="8.39607223021">
		<tag k="name" v="Stormyrelva" />
		<tag k="ssr:stedsnr" v="416273" />
		<tag k="waterway" v="river" />
	</node>
	<node id="-291220" lat="58.6146444431" lon="8.39058055981">
		<tag k="name" v="Tovdalselva" />
		<tag k="ssr:stedsnr" v="416713" />
		<tag k="waterway" v="river" />
	</node>
	<node id="-293238" lat="58.5771222261" lon="8.22621943652">
		<tag k="name" v="Kiloddane" />
		<tag k="natural" v="cape" />
		<tag k="ssr:stedsnr" v="903256" />
	</node>
	<node id="-293235" lat="58.5811361125" lon="8.47677221609">
		<tag k="name" v="Kråkenes" />
		<tag k="natural" v="cape" />
		<tag k="ssr:stedsnr" v="903193" />
	</node>
	<node id="-291185" lat="58.5617805591" lon="8.46205000214">
		<tag k="name" v="Flåttervatn" />
		<tag k="natural" v="water" />
		<tag k="ssr:stedsnr" v="416029" />
		<tag k="water" v="lake" />
	</node>
	<node id="-293232" lat="58.5586166622" lon="8.35188888042">
		<tag k="name" v="Andekilsunda" />
		<tag k="natural" v="water" />
		<tag k="ssr:stedsnr" v="903141" />
		<tag k="water" v="lake" />
	</node>
	<node id="-293228" lat="58.655336114" lon="8.09374443885">
		<tag k="name" v="Geistjønn" />
		<tag k="natural" v="water" />
		<tag k="ssr:stedsnr" v="902985" />
	</node>
	<node id="-290194" lat="58.6461083304" lon="8.55750277347">
		<tag k="name" v="Gulaugshøl" />
		<tag k="place" v="locality" />
		<tag k="ssr:stedsnr" v="52843" />
	</node>
	<node id="-289511" lat="58.5090083306" lon="8.49041666301">
		<tag k="name" v="Steintjenn" />
		<tag k="natural" v="water" />
		<tag k="ssr:stedsnr" v="353125" />
	</node>
	<node id="-291175" lat="58.6368361088" lon="8.12526944641">
		<tag k="name" v="Kroktjønnane" />
		<tag k="natural" v="water" />
		<tag k="ssr:stedsnr" v="415043" />
	</node>
	<node id="-291174" lat="58.6228666696" lon="8.12055556373">
		<tag k="name" v="Skårsteinelaget" />
		<tag k="ssr:stedsnr" v="415022" />
		<tag k="waterway" v="stream" />
	</node>
	<node id="-291172" lat="58.6432277737" lon="8.18961111948">
		<tag k="name" v="Lille Gåsetjønn" />
		<tag k="natural" v="water" />
		<tag k="ssr:stedsnr" v="415001" />
	</node>
	<node id="-293218" lat="58.656222223" lon="8.62634167061">
		<tag k="name" v="Lilleholmen" />
		<tag k="place" v="islet" />
		<tag k="ssr:stedsnr" v="902885" />
	</node>
	<node id="-291821" lat="58.465102779" lon="8.54564722087">
		<tag k="name" v="Nordvannene" />
		<tag k="natural" v="water" />
		<tag k="ssr:stedsnr" v="595904" />
		<tag k="water" v="lake" />
	</node>
	<node id="-291480" lat="58.651905553" lon="8.54308055741">
		<tag k="alt_name" v="Jerpedalstjørnane" />
		<tag k="name" v="Jerpedalstjønn" />
		<tag k="natural" v="water" />
		<tag k="ssr:stedsnr" v="486991" />
	</node>
	<node id="-293214" lat="58.6643694421" lon="8.50672500709">
		<tag k="name" v="Lyngtjønn" />
		<tag k="natural" v="water" />
		<tag k="ssr:stedsnr" v="902850" />
	</node>
	<node id="-289509" lat="58.5088333305" lon="8.38774166642">
		<tag k="name" v="Kjerketjenn" />
		<tag k="natural" v="water" />
		<tag k="ssr:stedsnr" v="353109" />
	</node>
	<node id="-291164" lat="58.6119805589" lon="8.57240277171">
		<tag k="name" v="Ramsvatnet" />
		<tag k="natural" v="water" />
		<tag k="ssr:stedsnr" v="244811" />
	</node>
	<node id="-291163" lat="58.6337916701" lon="8.56176389114">
		<tag k="alt_name" v="Nelaugtjørn" />
		<tag k="name" v="Nelaugtjønn" />
		<tag k="natural" v="water" />
		<tag k="ssr:stedsnr" v="244795" />
	</node>
	<node id="-291162" lat="58.5286333367" lon="8.500155564">
		<tag k="alt_name" v="Langtjørn" />
		<tag k="name" v="Langtjenn" />
		<tag k="natural" v="water" />
		<tag k="ssr:stedsnr" v="244719" />
	</node>
	<node id="-289682" lat="58.5498666659" lon="8.58080277645">
		<tag k="name" v="Orrebekken" />
		<tag k="ssr:stedsnr" v="364656" />
		<tag k="waterway" v="stream" />
	</node>
	<node id="-293207" lat="58.656597226" lon="8.24507777471">
		<tag k="name" v="Pråmsnes" />
		<tag k="natural" v="cape" />
		<tag k="ssr:stedsnr" v="902753" />
	</node>
	<node id="-291157" lat="58.6968972232" lon="8.29251389447">
		<tag k="name" v="Austretjørn" />
		<tag k="natural" v="water" />
		<tag k="ssr:stedsnr" v="244450" />
	</node>
	<node id="-291156" lat="58.6204166668" lon="8.45821666062">
		<tag k="alt_name" v="Vassbrekktjørna" />
		<tag k="name" v="Vassbrekktjønna" />
		<tag k="natural" v="water" />
		<tag k="ssr:stedsnr" v="244350" />
	</node>
	<node id="-293203" lat="58.5540972237" lon="8.51612499642">
		<tag k="name" v="Skåtholmen" />
		<tag k="place" v="islet" />
		<tag k="ssr:stedsnr" v="902694" />
	</node>
	<node id="-291152" lat="58.6594722219" lon="8.51144445044">
		<tag k="alt_name" v="Hammetjern" />
		<tag k="name" v="Hammetjønn" />
		<tag k="natural" v="water" />
		<tag k="ssr:stedsnr" v="243975" />
	</node>
	<node id="-291149" lat="58.5924944407" lon="8.55598889313">
		<tag k="alt_name" v="Smørtjern" />
		<tag k="name" v="Smørtjønn" />
		<tag k="natural" v="water" />
		<tag k="ssr:stedsnr" v="243820" />
	</node>
	<node id="-291144" lat="58.5315055558" lon="8.47755555718">
		<tag k="alt_name" v="Heitjørn" />
		<tag k="name" v="Heitjenn" />
		<tag k="natural" v="water" />
		<tag k="ssr:stedsnr" v="243695" />
	</node>
	<node id="-290188" lat="58.6573611098" lon="8.54608333466">
		<tag k="name" v="Nautenes" />
		<tag k="natural" v="cape" />
		<tag k="ssr:stedsnr" v="52814" />
	</node>
	<node id="-291140" lat="58.5495666684" lon="8.53271111897">
		<tag k="name" v="Brattelandsvatnet" />
		<tag k="natural" v="water" />
		<tag k="ssr:stedsnr" v="243656" />
	</node>
	<node id="-291139" lat="58.6797055587" lon="7.96403611121">
		<tag k="alt_name" v="Brahjelmtjørna" />
		<tag k="name" v="Brahjelmstjønna" />
		<tag k="natural" v="water" />
		<tag k="ssr:stedsnr" v="243615" />
	</node>
	<node id="-291138" lat="58.6764805553" lon="8.0414722169">
		<tag k="alt_name" v="Eptevatnet" />
		<tag k="name" v="Eptevatn" />
		<tag k="natural" v="water" />
		<tag k="ssr:stedsnr" v="243602" />
		<tag k="water" v="lake" />
	</node>
	<node id="-291137" lat="58.5016499997" lon="8.4853861105">
		<tag k="alt_name" v="Kloppetjernet" />
		<tag k="name" v="Klappetjenn" />
		<tag k="natural" v="water" />
		<tag k="ssr:stedsnr" v="243539" />
	</node>
	<node id="-293184" lat="58.6581750044" lon="8.16785278054">
		<tag k="name" v="Leirtjønn" />
		<tag k="natural" v="water" />
		<tag k="ssr:stedsnr" v="902577" />
	</node>
	<node id="-290241" lat="58.6723638878" lon="8.18568888042">
		<tag k="name" v="Hushovdtjønnane" />
		<tag k="natural" v="water" />
		<tag k="ssr:stedsnr" v="53521" />
	</node>
	<node id="-289433" lat="58.6375333289" lon="8.63017499214">
		<tag k="alt_name" v="Bolletjern" />
		<tag k="name" v="Bolletjønn" />
		<tag k="natural" v="water" />
		<tag k="ssr:stedsnr" v="304790" />
	</node>
	<node id="-293180" lat="58.6227694433" lon="8.38744721968">
		<tag k="name" v="Stormyrtjønn" />
		<tag k="natural" v="water" />
		<tag k="ssr:stedsnr" v="902531" />
	</node>
	<node id="-293179" lat="58.6084388846" lon="8.31498611058">
		<tag k="name" v="Dyvasstjønn" />
		<tag k="natural" v="water" />
		<tag k="ssr:stedsnr" v="902501" />
	</node>
	<node id="-293177" lat="58.551652778" lon="8.41835000158">
		<tag k="name" v="Store Ormetjønn" />
		<tag k="natural" v="water" />
		<tag k="ssr:stedsnr" v="902496" />
	</node>
	<node id="-293175" lat="58.5917750019" lon="8.56986388873">
		<tag k="name" v="Dyblan" />
		<tag k="natural" v="water" />
		<tag k="ssr:stedsnr" v="902483" />
		<tag k="water" v="pond" />
	</node>
	<node id="-291373" lat="58.5717472256" lon="8.66511944875">
		<tag k="name" v="Bjellebekken" />
		<tag k="ssr:stedsnr" v="426864" />
		<tag k="waterway" v="stream" />
	</node>
	<node id="-293251" lat="58.5884027737" lon="8.30725555797">
		<tag k="name" v="Stoplestaden" />
		<tag k="natural" v="cape" />
		<tag k="ssr:stedsnr" v="903580" />
	</node>
	<node id="-293170" lat="58.6008916682" lon="8.5237777802">
		<tag k="name" v="Krossbottjønn" />
		<tag k="natural" v="water" />
		<tag k="ssr:stedsnr" v="902404" />
	</node>
	<node id="-291032" lat="58.5562777734" lon="8.5080416618">
		<tag k="name" v="Lilløy" />
		<tag k="place" v="islet" />
		<tag k="ssr:stedsnr" v="234684" />
	</node>
	<node id="-289296" lat="58.5880388897" lon="8.5834611043">
		<tag k="name" v="Storemyr" />
		<tag k="natural" v="water" />
		<tag k="ssr:stedsnr" v="295433" />
	</node>
	<node id="-291113" lat="58.5937194489" lon="8.43315833802">
		<tag k="name" v="Bronstjønn" />
		<tag k="natural" v="water" />
		<tag k="ssr:stedsnr" v="235759" />
	</node>
	<node id="-293160" lat="58.6075444465" lon="8.56695000613">
		<tag k="name" v="Smaltjønn" />
		<tag k="natural" v="water" />
		<tag k="ssr:stedsnr" v="902199" />
	</node>
	<node id="-289500" lat="58.4540777739" lon="8.54681388248">
		<tag k="name" v="Tretjennlona" />
		<tag k="natural" v="water" />
		<tag k="ssr:stedsnr" v="352903" />
		<tag k="water" v="lake" />
	</node>
	<node id="-290523" lat="58.6517388898" lon="8.58001111338">
		<tag k="name" v="Kolbånnen" />
		<tag k="natural" v="bay" />
		<tag k="ssr:stedsnr" v="113841" />
	</node>
	<node id="-290864" lat="58.599258335" lon="8.56654722394">
		<tag k="alt_name" v="Saurtjern" />
		<tag k="name" v="Saurtjønn" />
		<tag k="natural" v="water" />
		<tag k="ssr:stedsnr" v="182820" />
	</node>
	<node id="-291102" lat="58.6006555521" lon="8.30201667093">
		<tag k="name" v="Sauekilen" />
		<tag k="natural" v="bay" />
		<tag k="ssr:stedsnr" v="235621" />
	</node>
	<node id="-293149" lat="58.5664999956" lon="8.52929721689">
		<tag k="name" v="Sommerfjøstjønn" />
		<tag k="natural" v="water" />
		<tag k="ssr:stedsnr" v="902034" />
	</node>
	<node id="-293148" lat="58.5641194476" lon="8.45215833299">
		<tag k="name" v="Holebekkstjønn" />
		<tag k="natural" v="water" />
		<tag k="ssr:stedsnr" v="902017" />
	</node>
	<node id="-293147" lat="58.7042638932" lon="8.00517778248">
		<tag k="name" v="Storfisktjønn" />
		<tag k="natural" v="water" />
		<tag k="ssr:stedsnr" v="901989" />
	</node>
	<node id="-291098" lat="58.5481749995" lon="8.48041388773">
		<tag k="name" v="Rosstjønnbukta" />
		<tag k="natural" v="bay" />
		<tag k="ssr:stedsnr" v="235606" />
	</node>
	<node id="-291097" lat="58.5437222261" lon="8.46594445101">
		<tag k="name" v="Skavliodden" />
		<tag k="natural" v="cape" />
		<tag k="ssr:stedsnr" v="235591" />
	</node>
	<node id="-289497" lat="58.4733111104" lon="8.56443332969">
		<tag k="name" v="Treftevika" />
		<tag k="natural" v="bay" />
		<tag k="ssr:stedsnr" v="352889" />
	</node>
	<node id="-293139" lat="58.7103416622" lon="8.21297221797">
		<tag k="name" v="Stavtjønn" />
		<tag k="natural" v="water" />
		<tag k="ssr:stedsnr" v="901714" />
	</node>
	<node id="-291090" lat="58.5943166708" lon="8.62987778101">
		<tag k="name" v="Kjempetjønn" />
		<tag k="natural" v="water" />
		<tag k="ssr:stedsnr" v="235486" />
	</node>
	<node id="-291089" lat="58.6104444484" lon="8.34930554747">
		<tag k="name" v="Omfløyt" />
		<tag k="place" v="locality" />
		<tag k="ssr:stedsnr" v="235478" />
	</node>
	<node id="-289436" lat="58.6111777744" lon="8.5329194411">
		<tag k="name" v="Grisantjenna" />
		<tag k="natural" v="water" />
		<tag k="ssr:stedsnr" v="304811" />
	</node>
	<node id="-291084" lat="58.5740027748" lon="8.34166388217">
		<tag k="name" v="Gruvekjerringa" />
		<tag k="place" v="islet" />
		<tag k="ssr:stedsnr" v="235377" />
	</node>
	<node id="-291082" lat="58.5699527759" lon="8.22788610891">
		<tag k="name" v="Kilebunnen" />
		<tag k="natural" v="bay" />
		<tag k="ssr:stedsnr" v="235302" />
	</node>
	<node id="-293129" lat="58.6307416642" lon="8.22233889673">
		<tag k="name" v="Nesa" />
		<tag k="natural" v="cape" />
		<tag k="ssr:stedsnr" v="901164" />
	</node>
	<node id="-293125" lat="58.6845222201" lon="8.03070277175">
		<tag k="name" v="Loppero" />
		<tag k="natural" v="cape" />
		<tag k="ssr:stedsnr" v="901068" />
	</node>
	<node id="-293124" lat="58.6897972242" lon="8.05882777228">
		<tag k="name" v="Børufstjønn" />
		<tag k="natural" v="water" />
		<tag k="ssr:stedsnr" v="901066" />
	</node>
	<node id="-291073" lat="58.5782249971" lon="8.44797222517">
		<tag k="name" v="Skinnfjordene" />
		<tag k="natural" v="water" />
		<tag k="ssr:stedsnr" v="235224" />
	</node>
	<node id="-293120" lat="58.6392222264" lon="8.12344444499">
		<tag k="name" v="Lefsetjønn" />
		<tag k="natural" v="water" />
		<tag k="ssr:stedsnr" v="901028" />
	</node>
	<node id="-293118" lat="58.6211111071" lon="8.12697221986">
		<tag k="name" v="Skårs Sandkil" />
		<tag k="natural" v="strait" />
		<tag k="ssr:stedsnr" v="901013" />
	</node>
	<node id="-293117" lat="58.6904666675" lon="8.00268888436">
		<tag k="name" v="Butangen" />
		<tag k="natural" v="shoal" />
		<tag k="place" v="locality" />
		<tag k="ssr:stedsnr" v="900979" />
	</node>
	<node id="-293116" lat="58.6989972246" lon="8.03768055389">
		<tag k="name" v="Lille Storlitjønn" />
		<tag k="natural" v="water" />
		<tag k="ssr:stedsnr" v="900969" />
	</node>
	<node id="-289204" lat="58.5525972233" lon="8.69230555867">
		<tag k="name" v="Langeneskilen" />
		<tag k="natural" v="bay" />
		<tag k="ssr:stedsnr" v="277163" />
	</node>
	<node id="-293112" lat="58.4711388927" lon="8.56423611104">
		<tag k="name" v="Lilløy" />
		<tag k="place" v="islet" />
		<tag k="ssr:stedsnr" v="899910" />
	</node>
	<node id="-291062" lat="58.6146527788" lon="8.39216388437">
		<tag k="name" v="Gamle Svenes" />
		<tag k="natural" v="cape" />
		<tag k="ssr:stedsnr" v="235020" />
	</node>
	<node id="-290857" lat="58.4961500024" lon="8.58808610792">
		<tag k="name" v="Trevann" />
		<tag k="natural" v="water" />
		<tag k="ssr:stedsnr" v="182687" />
		<tag k="water" v="lake" />
	</node>
	<node id="-291060" lat="58.607038891" lon="8.40030000085">
		<tag k="name" v="Fergestaden" />
		<tag k="ssr:stedsnr" v="235008" />
		<tag k="waterway" v="river" />
	</node>
	<node id="-289635" lat="58.5918944402" lon="8.21590277635">
		<tag k="name" v="Eptevatn" />
		<tag k="natural" v="water" />
		<tag k="ssr:stedsnr" v="356634" />
		<tag k="water" v="lake" />
	</node>
	<node id="-291055" lat="58.598619445" lon="8.3458944361">
		<tag k="name" v="Vrangefoss" />
		<tag k="natural" v="waterfall" />
		<tag k="ssr:stedsnr" v="235537" />
	</node>
	<node id="-293101" lat="58.5168583328" lon="8.53917221622">
		<tag k="name" v="Tollodden" />
		<tag k="natural" v="cape" />
		<tag k="ssr:stedsnr" v="899419" />
	</node>
	<node id="-291051" lat="58.6524888865" lon="8.62573055571">
		<tag k="name" v="Øyråskilen" />
		<tag k="natural" v="bay" />
		<tag k="ssr:stedsnr" v="234884" />
	</node>
	<node id="-293093" lat="58.5158944489" lon="8.47641666743">
		<tag k="alt_name" v="Foletjern" />
		<tag k="name" v="Foletjenn" />
		<tag k="natural" v="water" />
		<tag k="ssr:stedsnr" v="851710" />
	</node>
	<node id="-293092" lat="58.5193277743" lon="8.46880555656">
		<tag k="alt_name" v="Holtjørn" />
		<tag k="name" v="Holtjern" />
		<tag k="natural" v="water" />
		<tag k="ssr:stedsnr" v="851707" />
	</node>
	<node id="-289830" lat="58.6269777817" lon="8.36732500593">
		<tag k="name" v="Melestjønn" />
		<tag k="natural" v="water" />
		<tag k="ssr:stedsnr" v="476372" />
	</node>
	<node id="-290862" lat="58.621477778" lon="8.48040278458">
		<tag k="alt_name" v="Igletjern" />
		<tag k="name" v="Igletjønn" />
		<tag k="natural" v="water" />
		<tag k="ssr:stedsnr" v="182753" />
	</node>
	<node id="-289763" lat="58.6026000004" lon="8.72168610322">
		<tag k="name" v="Svartehøl" />
		<tag k="place" v="locality" />
		<tag k="ssr:stedsnr" v="398289" />
	</node>
	<node id="-290853" lat="58.4708694439" lon="8.56162222095">
		<tag k="name" v="Mørløsvannet" />
		<tag k="natural" v="water" />
		<tag k="ssr:stedsnr" v="182656" />
		<tag k="water" v="lake" />
	</node>
	<node id="-293084" lat="58.5887472216" lon="8.34403054966">
		<tag k="name" v="Austrebekken" />
		<tag k="ssr:stedsnr" v="851167" />
		<tag k="waterway" v="river" />
	</node>
	<node id="-293083" lat="58.5857583351" lon="8.25785000723">
		<tag k="alt_name" v="Lauvtjørn" />
		<tag k="name" v="Lauvtjønn" />
		<tag k="natural" v="water" />
		<tag k="ssr:stedsnr" v="851162" />
	</node>
	<node id="-293082" lat="58.5593750022" lon="8.22706388519">
		<tag k="name" v="Skripelandsfjorden" />
		<tag k="natural" v="water" />
		<tag k="ssr:stedsnr" v="851145" />
		<tag k="water" v="lake" />
	</node>
	<node id="-293081" lat="58.5714805595" lon="8.30676111348">
		<tag k="alt_name" v="Ormetjørn" />
		<tag k="name" v="Ormetjønn" />
		<tag k="natural" v="water" />
		<tag k="ssr:stedsnr" v="851132" />
	</node>
	<node id="-293080" lat="58.5820027786" lon="8.46496389406">
		<tag k="name" v="Rosævatnet" />
		<tag k="natural" v="water" />
		<tag k="ssr:stedsnr" v="851124" />
		<tag k="water" v="lake" />
	</node>
	<node id="-291030" lat="58.5529888896" lon="8.51050277421">
		<tag k="name" v="Kolhusodden" />
		<tag k="natural" v="cape" />
		<tag k="ssr:stedsnr" v="234683" />
	</node>
	<node id="-293077" lat="58.6579722196" lon="8.55266667133">
		<tag k="alt_name" v="Røyselandsvatnet" />
		<tag k="name" v="Røyslandsvatn" />
		<tag k="natural" v="water" />
		<tag k="ssr:stedsnr" v="850928" />
	</node>
	<node id="-293073" lat="58.595605559" lon="8.59455556345">
		<tag k="name" v="Stebekken" />
		<tag k="ssr:stedsnr" v="850840" />
		<tag k="waterway" v="stream" />
	</node>
	<node id="-289485" lat="58.5234388891" lon="8.72885277614">
		<tag k="name" v="Lilleelv" />
		<tag k="ssr:stedsnr" v="337372" />
		<tag k="waterway" v="stream" />
	</node>
	<node id="-291363" lat="58.5308000004" lon="8.48632499268">
		<tag k="alt_name" v="Fugltjerna" />
		<tag k="name" v="Faultjern" />
		<tag k="natural" v="water" />
		<tag k="ssr:stedsnr" v="426688" />
	</node>
	<node id="-293065" lat="58.625680559" lon="8.73520833297">
		<tag k="alt_name" v="Storstetjenn" />
		<tag k="name" v="Størstetjern" />
		<tag k="natural" v="water" />
		<tag k="ssr:stedsnr" v="850746" />
	</node>
	<node id="-293064" lat="58.5096749976" lon="8.6009500029">
		<tag k="name" v="Tveittjenn" />
		<tag k="natural" v="water" />
		<tag k="ssr:stedsnr" v="850739" />
	</node>
	<node id="-293062" lat="58.5391694483" lon="8.73783333319">
		<tag k="alt_name" v="Jovannet" />
		<tag k="name" v="Jovatnet" />
		<tag k="natural" v="water" />
		<tag k="ssr:stedsnr" v="850680" />
	</node>
	<node id="-293061" lat="58.5364416636" lon="8.53467222474">
		<tag k="fixme" v="multiple name tags, choose one and add the other to alt_name" />
		<tag k="name" v="Brattlandselva;Åselva" />
		<tag k="ssr:stedsnr" v="850670" />
		<tag k="waterway" v="stream" />
	</node>
	<node id="-290861" lat="58.6284750005" lon="8.48859721531">
		<tag k="alt_name" v="Jøstjern" />
		<tag k="name" v="Jøstjønn" />
		<tag k="natural" v="water" />
		<tag k="ssr:stedsnr" v="182749" />
	</node>
	<node id="-291531" lat="58.5297694415" lon="8.50542777174">
		<tag k="name" v="Rundtjenn" />
		<tag k="natural" v="water" />
		<tag k="ssr:stedsnr" v="535035" />
	</node>
	<node id="-293056" lat="58.540755555" lon="8.58230278286">
		<tag k="name" v="Rislandsbekken" />
		<tag k="ssr:stedsnr" v="850642" />
		<tag k="waterway" v="stream" />
	</node>
	<node id="-290322" lat="58.6210583336" lon="8.23957777759">
		<tag k="alt_name" v="Trytetjørn" />
		<tag k="name" v="Trytetjønn" />
		<tag k="natural" v="water" />
		<tag k="ssr:stedsnr" v="62356" />
	</node>
	<node id="-293052" lat="58.4978277742" lon="8.43488889751">
		<tag k="name" v="Ongletjønn" />
		<tag k="natural" v="water" />
		<tag k="ssr:stedsnr" v="850464" />
	</node>
	<node id="-293050" lat="58.6132944467" lon="8.33343888765">
		<tag k="alt_name" v="Hauketjønn" />
		<tag k="name" v="Hauktjørn" />
		<tag k="natural" v="water" />
		<tag k="ssr:stedsnr" v="850346" />
	</node>
	<node id="-291000" lat="58.6060861137" lon="8.59943888421">
		<tag k="name" v="Lillestem" />
		<tag k="ssr:stedsnr" v="234193" />
		<tag k="waterway" v="dam" />
	</node>
	<node id="-293047" lat="58.60791111" lon="8.45107500549">
		<tag k="name" v="Tømmerøya" />
		<tag k="place" v="islet" />
		<tag k="ssr:stedsnr" v="850317" />
	</node>
	<node id="-293045" lat="58.5920388881" lon="8.21593611909">
		<tag k="name" v="Eptevatna" />
		<tag k="natural" v="water" />
		<tag k="ssr:stedsnr" v="850301" />
		<tag k="water" v="lake" />
	</node>
	<node id="-293327" lat="58.4782888884" lon="8.60969166083">
		<tag k="name" v="Ålitjenn" />
		<tag k="natural" v="water" />
		<tag k="ssr:stedsnr" v="944239" />
	</node>
	<node id="-290992" lat="58.619141664" lon="8.49664166568">
		<tag k="name" v="Tanrekstjønn" />
		<tag k="natural" v="water" />
		<tag k="ssr:stedsnr" v="234132" />
	</node>
	<node id="-291528" lat="58.4655333323" lon="8.55313611901">
		<tag k="name" v="Geitetjennkilen" />
		<tag k="natural" v="bay" />
		<tag k="ssr:stedsnr" v="534880" />
	</node>
	<node id="-293038" lat="58.5197000008" lon="8.42636944453">
		<tag k="alt_name" v="Bjortjørn, nedre" />
		<tag k="name" v="Bjortjenn" />
		<tag k="natural" v="water" />
		<tag k="ssr:stedsnr" v="850044" />
	</node>
	<node id="-290987" lat="58.7034055585" lon="8.01249999721">
		<tag k="name" v="Gjuvvassosen" />
		<tag k="natural" v="bay" />
		<tag k="ssr:stedsnr" v="233992" />
	</node>
	<node id="-293034" lat="58.5868777767" lon="8.47023610981">
		<tag k="name" v="Plassetjønn" />
		<tag k="natural" v="water" />
		<tag k="ssr:stedsnr" v="842953" />
	</node>
	<node id="-293030" lat="58.5517194442" lon="8.61903610621">
		<tag k="name" v="Lomstjønn" />
		<tag k="natural" v="water" />
		<tag k="ssr:stedsnr" v="842783" />
	</node>
	<node id="-293026" lat="58.5430083361" lon="8.53509444504">
		<tag k="name" v="Osmundsfoss" />
		<tag k="natural" v="waterfall" />
		<tag k="ssr:stedsnr" v="842650" />
	</node>
	<node id="-290975" lat="58.6290250041" lon="8.26008055415">
		<tag k="name" v="Kyrkjetjønn" />
		<tag k="natural" v="water" />
		<tag k="ssr:stedsnr" v="233187" />
	</node>
	<node id="-290974" lat="58.6692944432" lon="8.02627499768">
		<tag k="name" v="Stavtjønn" />
		<tag k="natural" v="water" />
		<tag k="ssr:stedsnr" v="233065" />
	</node>
	<node id="-290972" lat="58.6247888902" lon="8.13906110804">
		<tag k="name" v="Eikebergåstjønn" />
		<tag k="natural" v="water" />
		<tag k="ssr:stedsnr" v="233018" />
	</node>
	<node id="-293019" lat="58.5515472248" lon="8.52576944594">
		<tag k="name" v="Skottlona" />
		<tag k="natural" v="water" />
		<tag k="ssr:stedsnr" v="842619" />
		<tag k="water" v="lake" />
	</node>
	<node id="-293018" lat="58.5403333313" lon="8.54897222791">
		<tag k="name" v="Gofestjønn" />
		<tag k="natural" v="water" />
		<tag k="ssr:stedsnr" v="842611" />
	</node>
	<node id="-293017" lat="58.5459222232" lon="8.51209444342">
		<tag k="name" v="Gåsetjønn" />
		<tag k="natural" v="water" />
		<tag k="ssr:stedsnr" v="842612" />
	</node>
	<node id="-290968" lat="58.4744722241" lon="8.56315555277">
		<tag k="name" v="Auglandskilen" />
		<tag k="natural" v="bay" />
		<tag k="ssr:stedsnr" v="231912" />
	</node>
	<node id="-293014" lat="58.595369446" lon="8.29306944166">
		<tag k="name" v="Flottorvkilen" />
		<tag k="natural" v="bay" />
		<tag k="ssr:stedsnr" v="842604" />
	</node>
	<node id="-293016" lat="58.5939472259" lon="8.31458610476">
		<tag k="name" v="Fleketjønn" />
		<tag k="natural" v="water" />
		<tag k="ssr:stedsnr" v="842609" />
	</node>
	<node id="-290962" lat="58.5058222179" lon="8.50711388624">
		<tag k="name" v="Romeheitjenn" />
		<tag k="natural" v="water" />
		<tag k="ssr:stedsnr" v="231459" />
	</node>
	<node id="-293009" lat="58.6865027801" lon="8.15876110327">
		<tag k="name" v="Risdølhølen" />
		<tag k="place" v="locality" />
		<tag k="ssr:stedsnr" v="842580" />
	</node>
	<node id="-289816" lat="58.689711107" lon="8.01794166951">
		<tag k="name" v="Steinsund" />
		<tag k="natural" v="strait" />
		<tag k="ssr:stedsnr" v="476164" />
	</node>
	<node id="-290958" lat="58.5368305544" lon="8.41266944951">
		<tag k="name" v="Herefosstjønnene" />
		<tag k="natural" v="water" />
		<tag k="ssr:stedsnr" v="231186" />
	</node>
	<node id="-290956" lat="58.5220194427" lon="8.47193611145">
		<tag k="name" v="Tveitjennene" />
		<tag k="natural" v="water" />
		<tag k="ssr:stedsnr" v="231030" />
	</node>
	<node id="-290954" lat="58.5191138855" lon="8.45481943846">
		<tag k="name" v="Neset" />
		<tag k="natural" v="cape" />
		<tag k="ssr:stedsnr" v="231022" />
	</node>
	<node id="-292999" lat="58.6521694476" lon="8.18858054999">
		<tag k="name" v="Skarpetjønn" />
		<tag k="natural" v="water" />
		<tag k="ssr:stedsnr" v="842538" />
	</node>
	<node id="-292998" lat="58.5966861122" lon="8.40603888952">
		<tag k="name" v="Smalfoss" />
		<tag k="natural" v="waterfall" />
		<tag k="ssr:stedsnr" v="842530" />
	</node>
	<node id="-292997" lat="58.5968027783" lon="8.40818888403">
		<tag k="name" v="Leveringshølen" />
		<tag k="place" v="locality" />
		<tag k="ssr:stedsnr" v="842528" />
	</node>
	<node id="-292995" lat="58.6781666658" lon="8.19372223007">
		<tag k="name" v="Stenulvtjønn" />
		<tag k="natural" v="water" />
		<tag k="ssr:stedsnr" v="842516" />
	</node>
	<node id="-290944" lat="58.5647444453" lon="8.72512499308">
		<tag k="name" v="Grønnland" />
		<tag k="place" v="islet" />
		<tag k="ssr:stedsnr" v="216294" />
	</node>
	<node id="-292991" lat="58.5923250003" lon="8.61853055364">
		<tag k="name" v="Søysdalsbekken" />
		<tag k="ssr:stedsnr" v="842481" />
		<tag k="waterway" v="stream" />
	</node>
	<node id="-290942" lat="58.5651111141" lon="8.73108888063">
		<tag k="name" v="Løtjennbekken" />
		<tag k="ssr:stedsnr" v="216286" />
		<tag k="waterway" v="stream" />
	</node>
	<node id="-292987" lat="58.5412999965" lon="8.46350000388">
		<tag k="name" v="Kirkegård" />
		<tag k="natural" v="cape" />
		<tag k="ssr:stedsnr" v="842452" />
	</node>
	<node id="-289781" lat="58.5002999964" lon="8.48925833964">
		<tag k="name" v="Fugleleiktjenn" />
		<tag k="natural" v="water" />
		<tag k="ssr:stedsnr" v="413120" />
	</node>
	<node id="-289471" lat="58.484538888" lon="8.59568889417">
		<tag k="name" v="Grunntjenn" />
		<tag k="natural" v="water" />
		<tag k="ssr:stedsnr" v="337252" />
	</node>
	<node id="-291352" lat="58.6462499987" lon="8.17142500502">
		<tag k="alt_name" v="Mjåvassfjorden" />
		<tag k="name" v="Mjåvatsfjorden" />
		<tag k="natural" v="water" />
		<tag k="ssr:stedsnr" v="426287" />
		<tag k="water" v="lake" />
	</node>
	<node id="-290934" lat="58.4756777791" lon="8.55097222353">
		<tag k="name" v="Grandalsbekken" />
		<tag k="ssr:stedsnr" v="216213" />
		<tag k="waterway" v="stream" />
	</node>
	<node id="-290381" lat="58.5803305598" lon="8.72261944902">
		<tag k="name" v="Blennebekk" />
		<tag k="ssr:stedsnr" v="94395" />
		<tag k="waterway" v="stream" />
	</node>
	<node id="-292975" lat="58.622525" lon="8.63368611613">
		<tag k="name" v="Tritjernene" />
		<tag k="natural" v="water" />
		<tag k="ssr:stedsnr" v="842194" />
	</node>
	<node id="-292974" lat="58.5722777813" lon="8.48594444364">
		<tag k="name" v="Lille Kinnfokktjønn" />
		<tag k="natural" v="water" />
		<tag k="ssr:stedsnr" v="842177" />
	</node>
	<node id="-290924" lat="58.6221055536" lon="8.66781111405">
		<tag k="name" v="Olsbuvannet" />
		<tag k="natural" v="water" />
		<tag k="ssr:stedsnr" v="216107" />
		<tag k="water" v="lake" />
	</node>
	<node id="-290922" lat="58.6241583337" lon="8.68612222932">
		<tag k="name" v="Øyene" />
		<tag k="place" v="islet" />
		<tag k="ssr:stedsnr" v="216102" />
	</node>
	<node id="-292968" lat="58.6062472198" lon="8.54163889148">
		<tag k="name" v="Svarttjønn" />
		<tag k="natural" v="water" />
		<tag k="ssr:stedsnr" v="842148" />
	</node>
	<node id="-290918" lat="58.519591666" lon="8.65354722337">
		<tag k="name" v="Hurvevja" />
		<tag k="ssr:stedsnr" v="216059" />
		<tag k="waterway" v="river" />
	</node>
	<node id="-290912" lat="58.4820805563" lon="8.55245556386">
		<tag k="name" v="Leiktjennene" />
		<tag k="natural" v="water" />
		<tag k="ssr:stedsnr" v="216003" />
	</node>
	<node id="-291335" lat="58.6277083346" lon="8.51327777979">
		<tag k="name" v="Heldalsvann" />
		<tag k="natural" v="water" />
		<tag k="ssr:stedsnr" v="425780" />
	</node>
	<node id="-292956" lat="58.6507305544" lon="8.10179166053">
		<tag k="name" v="Holebekk" />
		<tag k="ssr:stedsnr" v="841981" />
		<tag k="waterway" v="stream" />
	</node>
	<node id="-292953" lat="58.6330694451" lon="8.03911388187">
		<tag k="name" v="Homstjønn" />
		<tag k="natural" v="water" />
		<tag k="ssr:stedsnr" v="841878" />
	</node>
	<node id="-292948" lat="58.6764555591" lon="8.32299721797">
		<tag k="name" v="Heietjønn" />
		<tag k="natural" v="water" />
		<tag k="ssr:stedsnr" v="841847" />
	</node>
	<node id="-290899" lat="58.6227194476" lon="8.74494166785">
		<tag k="alt_name" v="Kalstadtjenn" />
		<tag k="name" v="Kallstadtjern" />
		<tag k="natural" v="water" />
		<tag k="ssr:stedsnr" v="183765" />
	</node>
	<node id="-290897" lat="58.5846583369" lon="8.68868055868">
		<tag k="name" v="Bumyrtjenn" />
		<tag k="natural" v="water" />
		<tag k="ssr:stedsnr" v="183835" />
	</node>
	<node id="-292944" lat="58.6275944403" lon="8.08970832726">
		<tag k="name" v="Skrivardalsbukta" />
		<tag k="natural" v="bay" />
		<tag k="ssr:stedsnr" v="841761" />
	</node>
	<node id="-290895" lat="58.6129527795" lon="8.51993611087">
		<tag k="alt_name" v="Kroktveittjernane" />
		<tag k="name" v="Kroktveittjønn" />
		<tag k="natural" v="water" />
		<tag k="ssr:stedsnr" v="183823" />
	</node>
	<node id="-290890" lat="58.5251722187" lon="8.62927777826">
		<tag k="name" v="Songeelva" />
		<tag k="ssr:stedsnr" v="183710" />
		<tag k="waterway" v="river" />
	</node>
	<node id="-290889" lat="58.5283694456" lon="8.53180555233">
		<tag k="alt_name" v="Fjelltjern" />
		<tag k="name" v="Fjelltjenn" />
		<tag k="natural" v="water" />
		<tag k="ssr:stedsnr" v="183705" />
	</node>
	<node id="-292936" lat="58.6047499957" lon="8.25951666594">
		<tag k="name" v="Astridshyl" />
		<tag k="place" v="locality" />
		<tag k="ssr:stedsnr" v="841711" />
	</node>
	<node id="-289493" lat="58.494747221" lon="8.38415834138">
		<tag k="name" v="Djupetjenn" />
		<tag k="natural" v="water" />
		<tag k="ssr:stedsnr" v="352712" />
	</node>
	<node id="-290885" lat="58.6769805554" lon="7.98492777487">
		<tag k="alt_name" v="Grautkleivtjørnane" />
		<tag k="name" v="Grautkleivtjønnane" />
		<tag k="natural" v="water" />
		<tag k="ssr:stedsnr" v="183590" />
	</node>
	<node id="-290884" lat="58.6346861074" lon="8.06370278516">
		<tag k="alt_name" v="Beindalstjørna" />
		<tag k="name" v="Beindalstjønn" />
		<tag k="natural" v="water" />
		<tag k="ssr:stedsnr" v="183525" />
	</node>
	<node id="-290882" lat="58.4990055531" lon="8.52804999377">
		<tag k="alt_name" v="Svartetjern" />
		<tag k="name" v="Svarttjenn" />
		<tag k="natural" v="water" />
		<tag k="ssr:stedsnr" v="183494" />
	</node>
	<node id="-290880" lat="58.6600111128" lon="8.06744721451">
		<tag k="alt_name" v="Vassvatnet" />
		<tag k="name" v="Vassvatn" />
		<tag k="natural" v="water" />
		<tag k="ssr:stedsnr" v="183476" />
		<tag k="water" v="lake" />
	</node>
	<node id="-292926" lat="58.6568416692" lon="8.15874999305">
		<tag k="name" v="Ågapet" />
		<tag k="natural" v="bay" />
		<tag k="ssr:stedsnr" v="841578" />
	</node>
	<node id="-292925" lat="58.6209833348" lon="8.22870277907">
		<tag k="name" v="Den midtre øya" />
		<tag k="place" v="islet" />
		<tag k="ssr:stedsnr" v="841567" />
	</node>
	<node id="-292923" lat="58.6181083297" lon="8.18441945295">
		<tag k="name" v="Flatelandsfjorden" />
		<tag k="ssr:stedsnr" v="841552" />
		<tag k="waterway" v="river" />
	</node>
	<node id="-290874" lat="58.618855554" lon="8.27214722295">
		<tag k="alt_name" v="Heitjørn" />
		<tag k="name" v="Heitjønn" />
		<tag k="natural" v="water" />
		<tag k="ssr:stedsnr" v="183325" />
	</node>
	<node id="-290869" lat="58.6415222226" lon="8.12966111875">
		<tag k="alt_name" v="Heddefjelltjørna" />
		<tag k="name" v="Heddefjelltjønna" />
		<tag k="natural" v="water" />
		<tag k="ssr:stedsnr" v="183239" />
	</node>
	<node id="-290867" lat="58.640463891" lon="8.39568054886">
		<tag k="alt_name" v="Kverntjørn" />
		<tag k="name" v="Kvenntjønn" />
		<tag k="natural" v="water" />
		<tag k="ssr:stedsnr" v="183233" />
	</node>
	<node id="-292913" lat="58.6434361089" lon="8.37921666563">
		<tag k="name" v="Føllsettjønn" />
		<tag k="natural" v="water" />
		<tag k="ssr:stedsnr" v="841366" />
	</node>
	<node id="-292912" lat="58.6243361122" lon="8.29932500007">
		<tag k="name" v="Timmerøyna" />
		<tag k="place" v="island" />
		<tag k="ssr:stedsnr" v="841358" />
	</node>
	<node id="-292911" lat="58.6376888852" lon="8.28119443799">
		<tag k="name" v="Hampetjønn" />
		<tag k="natural" v="water" />
		<tag k="ssr:stedsnr" v="841354" />
	</node>
	<node id="-292910" lat="58.6328194458" lon="8.4899861076">
		<tag k="name" v="Nedre Fisketjønn" />
		<tag k="natural" v="water" />
		<tag k="ssr:stedsnr" v="841316" />
	</node>
	<node id="-291538" lat="58.4956250036" lon="8.52434721589">
		<tag k="name" v="Svarttjenn" />
		<tag k="natural" v="water" />
		<tag k="ssr:stedsnr" v="535432" />
	</node>
	<node id="-292908" lat="58.631736111" lon="8.22760277035">
		<tag k="name" v="Åkroken" />
		<tag k="place" v="locality" />
		<tag k="ssr:stedsnr" v="841189" />
	</node>
	<node id="-292905" lat="58.6316361079" lon="8.56927778335">
		<tag k="name" v="Lille Nelaugtjønn" />
		<tag k="natural" v="water" />
		<tag k="ssr:stedsnr" v="841056" />
	</node>
	<node id="-292901" lat="58.6378249979" lon="8.50477499324">
		<tag k="name" v="Trytetjønn" />
		<tag k="natural" v="water" />
		<tag k="ssr:stedsnr" v="841044" />
	</node>
	<node id="-289798" lat="58.4894666684" lon="8.40593333226">
		<tag k="name" v="Storøy" />
		<tag k="place" v="islet" />
		<tag k="ssr:stedsnr" v="474736" />
	</node>
	<node id="-290850" lat="58.6948527745" lon="7.97624999905">
		<tag k="fixme" v="multiple name tags, choose one and add the other to alt_name" />
		<tag k="name" v="Bjortjønn;Krosstjørn" />
		<tag k="natural" v="water" />
		<tag k="ssr:stedsnr" v="182556" />
	</node>
	<node id="-292897" lat="58.6958944413" lon="8.10093888502">
		<tag k="name" v="Sauetjønn" />
		<tag k="natural" v="water" />
		<tag k="ssr:stedsnr" v="840977" />
	</node>
	<node id="-290848" lat="58.6120805534" lon="8.38488610995">
		<tag k="alt_name" v="Hjalestadtjørnane" />
		<tag k="name" v="Hjalestadtjønnane" />
		<tag k="natural" v="water" />
		<tag k="ssr:stedsnr" v="182335" />
	</node>
	<node id="-290847" lat="58.6062500011" lon="8.27646110633">
		<tag k="name" v="Hundsvatnet" />
		<tag k="natural" v="water" />
		<tag k="ssr:stedsnr" v="182322" />
	</node>
	<node id="-290846" lat="58.608266669" lon="8.31891389567">
		<tag k="name" v="Grønlitjørn" />
		<tag k="natural" v="water" />
		<tag k="ssr:stedsnr" v="182318" />
	</node>
	<node id="-290843" lat="58.5582222199" lon="8.27320556328">
		<tag k="alt_name" v="Lisletjørn" />
		<tag k="name" v="Lisletjønn" />
		<tag k="natural" v="water" />
		<tag k="ssr:stedsnr" v="182144" />
	</node>
	<node id="-290842" lat="58.4865472255" lon="8.40010278068">
		<tag k="name" v="Krokvannet" />
		<tag k="natural" v="water" />
		<tag k="ssr:stedsnr" v="181463" />
		<tag k="water" v="lake" />
	</node>
	<node id="-293174" lat="58.5996361141" lon="8.57212221829">
		<tag k="name" v="Dyngedalstjønn" />
		<tag k="natural" v="water" />
		<tag k="ssr:stedsnr" v="902439" />
	</node>
	<node id="-291161" lat="58.5637027763" lon="8.57568055056">
		<tag k="alt_name" v="Fjåbbutjern" />
		<tag k="name" v="Fjåbutjønn" />
		<tag k="natural" v="water" />
		<tag k="ssr:stedsnr" v="244671" />
	</node>
	<node id="-290835" lat="58.5590083323" lon="8.22723054791">
		<tag k="name" v="Likholmen" />
		<tag k="place" v="islet" />
		<tag k="ssr:stedsnr" v="175141" />
	</node>
	<node id="-292878" lat="58.5227361075" lon="8.41248889403">
		<tag k="name" v="Oksmyrtjenn" />
		<tag k="natural" v="water" />
		<tag k="ssr:stedsnr" v="839200" />
	</node>
	<node id="-292877" lat="58.5140944406" lon="8.48289722296">
		<tag k="name" v="Rompetjenn" />
		<tag k="natural" v="water" />
		<tag k="ssr:stedsnr" v="839098" />
	</node>
	<node id="-292876" lat="58.5063805587" lon="8.40146389624">
		<tag k="name" v="Nyklingtjenn" />
		<tag k="natural" v="water" />
		<tag k="ssr:stedsnr" v="839082" />
	</node>
	<node id="-292875" lat="58.4976000035" lon="8.39491110639">
		<tag k="name" v="Holtebuvatn" />
		<tag k="natural" v="water" />
		<tag k="ssr:stedsnr" v="839073" />
		<tag k="water" v="lake" />
	</node>
	<node id="-291159" lat="58.698136108" lon="8.12679167433">
		<tag k="alt_name" v="Veredalsbekken" />
		<tag k="name" v="Verdalsbekken" />
		<tag k="ssr:stedsnr" v="244480" />
		<tag k="waterway" v="stream" />
	</node>
	<node id="-292872" lat="58.5299083367" lon="8.52001944044">
		<tag k="name" v="Sagstemmen" />
		<tag k="ssr:stedsnr" v="839037" />
		<tag k="waterway" v="dam" />
	</node>
	<node id="-290476" lat="58.6764555601" lon="8.20860834154">
		<tag k="name" v="Lille Fisketjønn" />
		<tag k="natural" v="water" />
		<tag k="ssr:stedsnr" v="113495" />
	</node>
	<node id="-292868" lat="58.489414616" lon="8.51911085561">
		<tag k="name" v="Nordkilen" />
		<tag k="natural" v="bay" />
		<tag k="ssr:stedsnr" v="838937" />
	</node>
	<node id="-292865" lat="58.4983083333" lon="8.50782500732">
		<tag k="name" v="Lonene" />
		<tag k="natural" v="water" />
		<tag k="ssr:stedsnr" v="839429" />
	</node>
</osm>
