<?xml version="1.0" encoding="UTF-8"?>
<osm generator="osmapis" version="0.6">
	<node id="-77306" lat="63.0488583292" lon="9.1965999978">
		<tag k="name" v="Saga Trollheimen Hotel" />
		<tag k="old_name" v="Saga skysstasjon" />
		<tag k="place" v="locality" />
		<tag k="ssr:stedsnr" v="389783" />
	</node>
	<node id="-78070" lat="63.1588" lon="9.4263527858">
		<tag k="amenity" v="place_of_worship" />
		<tag k="fixme" v="specify religion=*, denomination=*, building=* etc" />
		<tag k="name" v="Lomundsjø bedehus" />
		<tag k="ssr:stedsnr" v="467092" />
	</node>
	<node id="-78418" lat="63.0513833338" lon="9.2112388814">
		<tag k="amenity" v="place_of_worship" />
		<tag k="denomination" v="lutheran" />
		<tag k="name" v="Rindal" />
		<tag k="religion" v="christian" />
		<tag k="ssr:stedsnr" v="679579" />
	</node>
	<node id="-77872" lat="63.1029027751" lon="9.39245277994">
		<tag k="amenity" v="place_of_worship" />
		<tag k="fixme" v="specify religion=*, denomination=*, building=* etc" />
		<tag k="name" v="Fredly bedehus" />
		<tag k="ssr:stedsnr" v="220057" />
	</node>
	<node id="-78446" lat="62.8430166672" lon="9.237000003">
		<tag k="name" v="Uriasen" />
		<tag k="place" v="locality" />
		<tag k="ssr:stedsnr" v="692217" />
	</node>
	<node id="-78730" lat="63.0977666657" lon="9.32193611894">
		<tag k="amenity" v="place_of_worship" />
		<tag k="fixme" v="specify religion=*, denomination=*, building=* etc" />
		<tag k="name" v="Øvre RIndal kapell" />
		<tag k="ssr:stedsnr" v="826986" />
	</node>
	<node id="-77960" lat="63.0977749979" lon="9.32198610947">
		<tag k="amenity" v="place_of_worship" />
		<tag k="denomination" v="lutheran" />
		<tag k="name" v="Øvre Rindal" />
		<tag k="religion" v="christian" />
		<tag k="ssr:stedsnr" v="437431" />
	</node>
</osm>
