<?xml version="1.0" encoding="UTF-8"?>
<osm generator="osmapis" version="0.6">
	<node id="-77817" lat="62.9196972252" lon="9.1668000066">
		<tag k="name" v="Storgrøa" />
		<tag k="natural" v="slope" />
		<tag k="place" v="locality" />
		<tag k="ssr:stedsnr" v="207286" />
	</node>
	<node id="-77815" lat="62.8694222235" lon="9.3381388808">
		<tag k="name" v="Govrenmehkie" />
		<tag k="name:sma" v="Govrenmehkie" />
		<tag k="natural" v="valley" />
		<tag k="place" v="locality" />
		<tag k="ssr:stedsnr" v="207136" />
	</node>
	<node id="-77813" lat="62.9979888866" lon="9.4905083301">
		<tag k="name" v="Arvehaugen" />
		<tag k="natural" v="hill" />
		<tag k="place" v="locality" />
		<tag k="ssr:stedsnr" v="206473" />
	</node>
	<node id="-77812" lat="63.0244638919" lon="9.42507500151">
		<tag k="fixme" v="consider natural=peak for the most distinct mountains in the district" />
		<tag k="name" v="Beitåsen" />
		<tag k="natural" v="hill" />
		<tag k="place" v="locality" />
		<tag k="ssr:stedsnr" v="206469" />
	</node>
	<node id="-77805" lat="62.9795027734" lon="9.17051111162">
		<tag k="fixme" v="consider natural=peak for the most distinct mountains in the district" />
		<tag k="name" v="Storgeitaknebba" />
		<tag k="natural" v="hill" />
		<tag k="place" v="locality" />
		<tag k="ssr:stedsnr" v="195463" />
	</node>
	<node id="-77799" lat="63.1061277813" lon="9.05137778702">
		<tag k="name" v="Sauråpiken" />
		<tag k="natural" v="hill" />
		<tag k="place" v="locality" />
		<tag k="ssr:stedsnr" v="194714" />
	</node>
	<node id="-77794" lat="63.174327779" lon="9.40718611108">
		<tag k="name" v="Rørbekkdalen" />
		<tag k="natural" v="valley" />
		<tag k="place" v="locality" />
		<tag k="ssr:stedsnr" v="194468" />
	</node>
	<node id="-77793" lat="63.1766027761" lon="9.42135834074">
		<tag k="fixme" v="consider natural=peak for the most distinct mountains in the district" />
		<tag k="name" v="Perlifjellet" />
		<tag k="natural" v="hill" />
		<tag k="place" v="locality" />
		<tag k="ssr:stedsnr" v="194466" />
	</node>
	<node id="-77791" lat="63.1587083336" lon="9.33741388801">
		<tag k="fixme" v="consider natural=peak for the most distinct mountains in the district" />
		<tag k="name" v="Svarthamran" />
		<tag k="natural" v="hill" />
		<tag k="place" v="locality" />
		<tag k="ssr:stedsnr" v="194444" />
	</node>
	<node id="-77785" lat="63.0597388916" lon="9.36487499145">
		<tag k="fixme" v="consider natural=peak for the most distinct mountains in the district" />
		<tag k="name" v="Tifjellet" />
		<tag k="natural" v="hill" />
		<tag k="place" v="locality" />
		<tag k="ssr:stedsnr" v="194359" />
	</node>
	<node id="-77780" lat="62.9253222228" lon="9.29356943664">
		<tag k="fixme" v="consider natural=peak for the most distinct mountains in the district" />
		<tag k="name" v="Rypfjellet" />
		<tag k="natural" v="hill" />
		<tag k="place" v="locality" />
		<tag k="ssr:stedsnr" v="194219" />
	</node>
	<node id="-77779" lat="62.973044443" lon="9.4390888869">
		<tag k="fixme" v="consider natural=peak for the most distinct mountains in the district" />
		<tag k="name" v="Litlraudfjellet" />
		<tag k="natural" v="hill" />
		<tag k="place" v="locality" />
		<tag k="ssr:stedsnr" v="194129" />
	</node>
	<node id="-77778" lat="62.9468833303" lon="9.15776944577">
		<tag k="name" v="Storbekkdalen" />
		<tag k="natural" v="valley" />
		<tag k="place" v="locality" />
		<tag k="ssr:stedsnr" v="194033" />
	</node>
	<node id="-77777" lat="63.1305583294" lon="9.45607499526">
		<tag k="name" v="Skjetndalen" />
		<tag k="natural" v="valley" />
		<tag k="place" v="locality" />
		<tag k="ssr:stedsnr" v="164945" />
	</node>
	<node id="-77774" lat="63.1228999987" lon="9.41797499552">
		<tag k="name" v="Rørberget" />
		<tag k="natural" v="hill" />
		<tag k="place" v="locality" />
		<tag k="ssr:stedsnr" v="163236" />
	</node>
	<node id="-77773" lat="63.1052527786" lon="9.44207222994">
		<tag k="name" v="Ruggurdalen" />
		<tag k="natural" v="valley" />
		<tag k="place" v="locality" />
		<tag k="ssr:stedsnr" v="163223" />
	</node>
	<node id="-77771" lat="63.1452527745" lon="9.4333666653">
		<tag k="name" v="Kalkberget" />
		<tag k="natural" v="hill" />
		<tag k="place" v="locality" />
		<tag k="ssr:stedsnr" v="163037" />
	</node>
	<node id="-77768" lat="62.8362138932" lon="9.40615833629">
		<tag k="name" v="Småfjella" />
		<tag k="natural" v="ridge" />
		<tag k="place" v="locality" />
		<tag k="ssr:stedsnr" v="162099" />
	</node>
	<node id="-77766" lat="63.0680305577" lon="9.29586110551">
		<tag k="name" v="Holtet" />
		<tag k="natural" v="slope" />
		<tag k="place" v="locality" />
		<tag k="ssr:stedsnr" v="160846" />
	</node>
	<node id="-77765" lat="63.0199249996" lon="9.42973332722">
		<tag k="name" v="Litlslættet" />
		<tag k="place" v="locality" />
		<tag k="ssr:stedsnr" v="160590" />
	</node>
	<node id="-77764" lat="63.0212583335" lon="9.42035833974">
		<tag k="fixme" v="consider natural=peak for the most distinct mountains in the district" />
		<tag k="name" v="Langmyråsen" />
		<tag k="natural" v="hill" />
		<tag k="place" v="locality" />
		<tag k="ssr:stedsnr" v="160583" />
	</node>
	<node id="-77763" lat="63.0182361156" lon="9.46466666557">
		<tag k="name" v="Bukkslåtta" />
		<tag k="place" v="locality" />
		<tag k="ssr:stedsnr" v="160572" />
	</node>
	<node id="-77761" lat="63.0508250028" lon="9.41535554769">
		<tag k="name" v="Kveldshamna" />
		<tag k="natural" v="slope" />
		<tag k="place" v="locality" />
		<tag k="ssr:stedsnr" v="160229" />
	</node>
	<node id="-77759" lat="63.0896777754" lon="9.2878444424">
		<tag k="name" v="Spikdalen" />
		<tag k="natural" v="valley" />
		<tag k="place" v="locality" />
		<tag k="ssr:stedsnr" v="159981" />
	</node>
	<node id="-77757" lat="63.0847666655" lon="9.28579166073">
		<tag k="name" v="Skaret" />
		<tag k="natural" v="valley" />
		<tag k="place" v="locality" />
		<tag k="ssr:stedsnr" v="159978" />
	</node>
	<node id="-77756" lat="63.0893361072" lon="9.28399444627">
		<tag k="name" v="Stokkan" />
		<tag k="natural" v="hill" />
		<tag k="place" v="locality" />
		<tag k="ssr:stedsnr" v="159976" />
	</node>
	<node id="-77754" lat="63.1286388871" lon="9.2831999941">
		<tag k="name" v="Tordalen" />
		<tag k="natural" v="valley" />
		<tag k="place" v="locality" />
		<tag k="ssr:stedsnr" v="159900" />
	</node>
	<node id="-77753" lat="63.1309722194" lon="9.28880278232">
		<tag k="name" v="Granlia" />
		<tag k="natural" v="slope" />
		<tag k="place" v="locality" />
		<tag k="ssr:stedsnr" v="159899" />
	</node>
	<node id="-77752" lat="63.0629972261" lon="9.42078610622">
		<tag k="name" v="Seterslættet" />
		<tag k="place" v="locality" />
		<tag k="ssr:stedsnr" v="159769" />
	</node>
	<node id="-77751" lat="63.0049083358" lon="9.33734999297">
		<tag k="name" v="Tortdalen" />
		<tag k="natural" v="valley" />
		<tag k="place" v="locality" />
		<tag k="ssr:stedsnr" v="159519" />
	</node>
	<node id="-77750" lat="63.0056277782" lon="9.38028888007">
		<tag k="name" v="Storlia" />
		<tag k="natural" v="slope" />
		<tag k="place" v="locality" />
		<tag k="ssr:stedsnr" v="159450" />
	</node>
	<node id="-77747" lat="62.999299999" lon="9.5001472181">
		<tag k="name" v="Reslia" />
		<tag k="natural" v="slope" />
		<tag k="place" v="locality" />
		<tag k="ssr:stedsnr" v="159430" />
	</node>
	<node id="-77746" lat="63.0145972186" lon="9.40985554949">
		<tag k="name" v="Storlia" />
		<tag k="natural" v="slope" />
		<tag k="place" v="locality" />
		<tag k="ssr:stedsnr" v="159415" />
	</node>
	<node id="-77745" lat="63.1731444471" lon="9.29420278582">
		<tag k="name" v="Gråorkjølen" />
		<tag k="natural" v="ridge" />
		<tag k="place" v="locality" />
		<tag k="ssr:stedsnr" v="159101" />
	</node>
	<node id="-77744" lat="62.9812277769" lon="9.48072221404">
		<tag k="fixme" v="consider natural=peak for the most distinct mountains in the district" />
		<tag k="name" v="Langvassåsen" />
		<tag k="natural" v="hill" />
		<tag k="place" v="locality" />
		<tag k="ssr:stedsnr" v="159145" />
	</node>
	<node id="-77743" lat="62.9811194443" lon="9.46075833976">
		<tag k="name" v="Langvasslettet" />
		<tag k="place" v="locality" />
		<tag k="ssr:stedsnr" v="159143" />
	</node>
	<node id="-77739" lat="63.0587305596" lon="9.10760556238">
		<tag k="name" v="Gomokjølen" />
		<tag k="natural" v="hill" />
		<tag k="place" v="locality" />
		<tag k="ssr:stedsnr" v="158992" />
	</node>
	<node id="-77738" lat="63.0518472197" lon="9.10263333519">
		<tag k="fixme" v="consider natural=peak for the most distinct mountains in the district" />
		<tag k="name" v="Limåsen" />
		<tag k="natural" v="hill" />
		<tag k="place" v="locality" />
		<tag k="ssr:stedsnr" v="158991" />
	</node>
	<node id="-77733" lat="63.0246888872" lon="9.12515833579">
		<tag k="name" v="Vettaslættet" />
		<tag k="place" v="locality" />
		<tag k="ssr:stedsnr" v="158892" />
	</node>
	<node id="-77732" lat="63.0273999961" lon="9.11479722822">
		<tag k="name" v="Sættan" />
		<tag k="natural" v="slope" />
		<tag k="place" v="locality" />
		<tag k="ssr:stedsnr" v="158935" />
	</node>
	<node id="-77729" lat="63.0635638856" lon="9.19188332355">
		<tag k="name" v="Reithaugen" />
		<tag k="natural" v="hill" />
		<tag k="place" v="locality" />
		<tag k="ssr:stedsnr" v="158196" />
	</node>
	<node id="-77727" lat="63.0572694468" lon="9.23135833613">
		<tag k="name" v="Høghaugen" />
		<tag k="natural" v="hill" />
		<tag k="place" v="locality" />
		<tag k="ssr:stedsnr" v="158141" />
	</node>
	<node id="-77726" lat="63.0438305521" lon="9.16807778069">
		<tag k="name" v="Dalan" />
		<tag k="natural" v="valley" />
		<tag k="place" v="locality" />
		<tag k="ssr:stedsnr" v="158080" />
	</node>
	<node id="-77721" lat="62.8234027739" lon="9.38656944175">
		<tag k="name" v="Litlsvartådalen" />
		<tag k="natural" v="valley" />
		<tag k="place" v="locality" />
		<tag k="ssr:stedsnr" v="158010" />
	</node>
	<node id="-77719" lat="63.0641861129" lon="9.10598054768">
		<tag k="name" v="Grytdalen" />
		<tag k="natural" v="valley" />
		<tag k="place" v="locality" />
		<tag k="ssr:stedsnr" v="157953" />
	</node>
	<node id="-77718" lat="63.0854583306" lon="9.13045278462">
		<tag k="name" v="Litlskåkleiva" />
		<tag k="natural" v="valley" />
		<tag k="place" v="locality" />
		<tag k="ssr:stedsnr" v="157838" />
	</node>
	<node id="-77716" lat="63.0811777733" lon="9.21617776965">
		<tag k="name" v="Fosseiddalen" />
		<tag k="natural" v="valley" />
		<tag k="place" v="locality" />
		<tag k="ssr:stedsnr" v="158225" />
	</node>
	<node id="-77715" lat="63.0673277759" lon="9.17631944032">
		<tag k="name" v="Eldmyrdalen" />
		<tag k="natural" v="valley" />
		<tag k="place" v="locality" />
		<tag k="ssr:stedsnr" v="158202" />
	</node>
	<node id="-77713" lat="63.0268472254" lon="9.18415833016">
		<tag k="name" v="Gammelhøylømyran" />
		<tag k="natural" v="hill" />
		<tag k="place" v="locality" />
		<tag k="ssr:stedsnr" v="157569" />
	</node>
	<node id="-77711" lat="63.0238750042" lon="9.156897217">
		<tag k="name" v="Gjøtet" />
		<tag k="place" v="locality" />
		<tag k="ssr:stedsnr" v="157370" />
	</node>
	<node id="-77710" lat="63.0052944469" lon="9.26037776988">
		<tag k="name" v="Sandåhaugen" />
		<tag k="natural" v="hill" />
		<tag k="place" v="locality" />
		<tag k="ssr:stedsnr" v="157357" />
	</node>
	<node id="-77709" lat="63.1059944402" lon="9.26444166913">
		<tag k="name" v="Morgosråket" />
		<tag k="natural" v="valley" />
		<tag k="place" v="locality" />
		<tag k="ssr:stedsnr" v="157355" />
	</node>
	<node id="-77708" lat="63.0762305597" lon="9.26344722255">
		<tag k="name" v="Kleivhaugen" />
		<tag k="natural" v="hill" />
		<tag k="place" v="locality" />
		<tag k="ssr:stedsnr" v="157199" />
	</node>
	<node id="-77706" lat="63.1163416676" lon="9.20996389142">
		<tag k="fixme" v="consider natural=peak for the most distinct mountains in the district" />
		<tag k="name" v="Ytter Høgfjellet" />
		<tag k="natural" v="hill" />
		<tag k="place" v="locality" />
		<tag k="ssr:stedsnr" v="157068" />
	</node>
	<node id="-77705" lat="63.1052999959" lon="9.20608611087">
		<tag k="fixme" v="consider natural=peak for the most distinct mountains in the district" />
		<tag k="name" v="Trøknavassfjellet" />
		<tag k="natural" v="hill" />
		<tag k="place" v="locality" />
		<tag k="ssr:stedsnr" v="157064" />
	</node>
	<node id="-77701" lat="63.0296111099" lon="9.17193334122">
		<tag k="name" v="Middagshaugen" />
		<tag k="natural" v="hill" />
		<tag k="place" v="locality" />
		<tag k="ssr:stedsnr" v="146738" />
	</node>
	<node id="-77698" lat="62.9871472245" lon="9.3558583343">
		<tag k="fixme" v="consider natural=peak for the most distinct mountains in the district" />
		<tag k="name" v="Litlfjellet" />
		<tag k="natural" v="hill" />
		<tag k="place" v="locality" />
		<tag k="ssr:stedsnr" v="146352" />
	</node>
	<node id="-77696" lat="63.1316722223" lon="9.20759721246">
		<tag k="fixme" v="consider natural=peak for the most distinct mountains in the district" />
		<tag k="name" v="Vargatela" />
		<tag k="natural" v="hill" />
		<tag k="place" v="locality" />
		<tag k="ssr:stedsnr" v="146242" />
	</node>
	<node id="-77695" lat="63.0087194446" lon="9.3162888908">
		<tag k="name" v="Nonsgrevdalen" />
		<tag k="natural" v="valley" />
		<tag k="place" v="locality" />
		<tag k="ssr:stedsnr" v="146030" />
	</node>
	<node id="-77692" lat="62.9129277738" lon="9.16815832706">
		<tag k="name" v="Gardlia" />
		<tag k="natural" v="slope" />
		<tag k="place" v="locality" />
		<tag k="ssr:stedsnr" v="144479" />
	</node>
	<node id="-77684" lat="63.0925458694" lon="9.13061224084">
		<tag k="fixme" v="consider natural=peak for the most distinct mountains in the district" />
		<tag k="name" v="Skåkleiva" />
		<tag k="natural" v="hill" />
		<tag k="place" v="locality" />
		<tag k="ssr:stedsnr" v="133709" />
	</node>
	<node id="-77677" lat="63.0199500042" lon="9.26458611241">
		<tag k="name" v="Trondshaugen" />
		<tag k="natural" v="hill" />
		<tag k="place" v="locality" />
		<tag k="ssr:stedsnr" v="133305" />
	</node>
	<node id="-77676" lat="63.0134000038" lon="9.49835000841">
		<tag k="name" v="Ljøsådalen" />
		<tag k="natural" v="valley" />
		<tag k="place" v="locality" />
		<tag k="ssr:stedsnr" v="133295" />
	</node>
	<node id="-77674" lat="62.9212611143" lon="9.33558332562">
		<tag k="fixme" v="consider natural=peak for the most distinct mountains in the district" />
		<tag k="name" v="Nonstelet" />
		<tag k="natural" v="hill" />
		<tag k="place" v="locality" />
		<tag k="ssr:stedsnr" v="133214" />
	</node>
	<node id="-77673" lat="62.8971444436" lon="9.35821111968">
		<tag k="fixme" v="consider natural=peak for the most distinct mountains in the district" />
		<tag k="name" v="Rindhatten" />
		<tag k="natural" v="hill" />
		<tag k="place" v="locality" />
		<tag k="ssr:stedsnr" v="133178" />
	</node>
	<node id="-77668" lat="62.9219194484" lon="9.42782221548">
		<tag k="fixme" v="consider natural=peak for the most distinct mountains in the district" />
		<tag k="name" v="Midthatten" />
		<tag k="natural" v="hill" />
		<tag k="place" v="locality" />
		<tag k="ssr:stedsnr" v="111757" />
	</node>
	<node id="-77667" lat="63.0877333377" lon="9.40713332874">
		<tag k="name" v="Ratøyan" />
		<tag k="place" v="locality" />
		<tag k="ssr:stedsnr" v="104192" />
	</node>
	<node id="-77666" lat="63.1436111083" lon="9.4112333264">
		<tag k="fixme" v="consider natural=peak for the most distinct mountains in the district" />
		<tag k="name" v="Sollia" />
		<tag k="natural" v="hill" />
		<tag k="place" v="locality" />
		<tag k="ssr:stedsnr" v="103951" />
	</node>
	<node id="-77665" lat="63.1353805561" lon="9.41778333414">
		<tag k="name" v="Steinsnipen" />
		<tag k="place" v="locality" />
		<tag k="ssr:stedsnr" v="103934" />
	</node>
	<node id="-77662" lat="63.1500638847" lon="9.43669443489">
		<tag k="name" v="Marsteinlia" />
		<tag k="natural" v="slope" />
		<tag k="place" v="locality" />
		<tag k="ssr:stedsnr" v="103045" />
	</node>
	<node id="-77657" lat="63.1357111152" lon="9.3190888893">
		<tag k="name" v="Innlegget" />
		<tag k="natural" v="slope" />
		<tag k="place" v="locality" />
		<tag k="ssr:stedsnr" v="99901" />
	</node>
	<node id="-77654" lat="63.0194305578" lon="9.40380277529">
		<tag k="fixme" v="consider natural=peak for the most distinct mountains in the district" />
		<tag k="name" v="Sigridåsen" />
		<tag k="natural" v="hill" />
		<tag k="place" v="locality" />
		<tag k="ssr:stedsnr" v="99680" />
	</node>
	<node id="-77653" lat="63.0290583355" lon="9.39993054652">
		<tag k="name" v="Setervassbaklia" />
		<tag k="natural" v="slope" />
		<tag k="place" v="locality" />
		<tag k="ssr:stedsnr" v="99672" />
	</node>
	<node id="-77652" lat="62.99530833" lon="9.46153610275">
		<tag k="name" v="Bjønnavassslættet" />
		<tag k="place" v="locality" />
		<tag k="ssr:stedsnr" v="99187" />
	</node>
	<node id="-77650" lat="62.9930722231" lon="9.42836388284">
		<tag k="name" v="Slettet" />
		<tag k="place" v="locality" />
		<tag k="ssr:stedsnr" v="99137" />
	</node>
	<node id="-77645" lat="63.1841416649" lon="9.28471389174">
		<tag k="name" v="Melalia" />
		<tag k="natural" v="slope" />
		<tag k="place" v="locality" />
		<tag k="ssr:stedsnr" v="99093" />
	</node>
	<node id="-77643" lat="63.1162583317" lon="9.39671666927">
		<tag k="fixme" v="consider natural=peak for the most distinct mountains in the district" />
		<tag k="name" v="Skaråsen" />
		<tag k="natural" v="hill" />
		<tag k="place" v="locality" />
		<tag k="ssr:stedsnr" v="99048" />
	</node>
	<node id="-77639" lat="63.0534833364" lon="9.3255611193">
		<tag k="name" v="Durmålhaugen" />
		<tag k="natural" v="hill" />
		<tag k="place" v="locality" />
		<tag k="ssr:stedsnr" v="99002" />
	</node>
	<node id="-77638" lat="63.0445416702" lon="9.30845277249">
		<tag k="name" v="Bjørkholtet" />
		<tag k="natural" v="slope" />
		<tag k="place" v="locality" />
		<tag k="ssr:stedsnr" v="99001" />
	</node>
	<node id="-77631" lat="63.0152611145" lon="9.27826944038">
		<tag k="name" v="Urdalen" />
		<tag k="natural" v="valley" />
		<tag k="place" v="locality" />
		<tag k="ssr:stedsnr" v="98408" />
	</node>
	<node id="-77630" lat="63.0237527784" lon="9.31524721369">
		<tag k="name" v="Døluøya" />
		<tag k="place" v="locality" />
		<tag k="ssr:stedsnr" v="98277" />
	</node>
	<node id="-77629" lat="63.0189500004" lon="9.29899999187">
		<tag k="name" v="Almlia" />
		<tag k="natural" v="slope" />
		<tag k="place" v="locality" />
		<tag k="ssr:stedsnr" v="98263" />
	</node>
	<node id="-77624" lat="63.0330083289" lon="9.13538612006">
		<tag k="name" v="Helvetesdalen" />
		<tag k="natural" v="valley" />
		<tag k="place" v="locality" />
		<tag k="ssr:stedsnr" v="97926" />
	</node>
	<node id="-77622" lat="63.1351277746" lon="9.08391665883">
		<tag k="name" v="Fosshaugen" />
		<tag k="natural" v="hill" />
		<tag k="place" v="locality" />
		<tag k="ssr:stedsnr" v="97897" />
	</node>
	<node id="-77621" lat="63.0207916708" lon="9.13280278109">
		<tag k="name" v="Langmyrlia" />
		<tag k="natural" v="slope" />
		<tag k="place" v="locality" />
		<tag k="ssr:stedsnr" v="97882" />
	</node>
	<node id="-77620" lat="63.0691722263" lon="9.11348055851">
		<tag k="name" v="Grytslettlia" />
		<tag k="natural" v="slope" />
		<tag k="place" v="locality" />
		<tag k="ssr:stedsnr" v="97961" />
	</node>
	<node id="-77619" lat="63.1151750034" lon="9.10573056187">
		<tag k="name" v="Porkryggen" />
		<tag k="natural" v="ridge" />
		<tag k="place" v="locality" />
		<tag k="ssr:stedsnr" v="97785" />
	</node>
	<node id="-77617" lat="63.0101194421" lon="9.24632778698">
		<tag k="name" v="Øyan" />
		<tag k="place" v="locality" />
		<tag k="ssr:stedsnr" v="97418" />
	</node>
	<node id="-77615" lat="63.0020861148" lon="9.17574721484">
		<tag k="name" v="Fjelldalen" />
		<tag k="natural" v="valley" />
		<tag k="place" v="locality" />
		<tag k="ssr:stedsnr" v="97376" />
	</node>
	<node id="-77614" lat="63.0147000004" lon="9.1884472202">
		<tag k="name" v="Ormslætthaugen" />
		<tag k="natural" v="hill" />
		<tag k="place" v="locality" />
		<tag k="ssr:stedsnr" v="97370" />
	</node>
	<node id="-77613" lat="63.0135694435" lon="9.17437777993">
		<tag k="name" v="Seterlia" />
		<tag k="natural" v="slope" />
		<tag k="place" v="locality" />
		<tag k="ssr:stedsnr" v="97367" />
	</node>
	<node id="-77612" lat="63.0132250019" lon="9.18623610395">
		<tag k="name" v="Ormslættet" />
		<tag k="place" v="locality" />
		<tag k="ssr:stedsnr" v="97368" />
	</node>
	<node id="-77611" lat="63.0147638889" lon="9.15423056419">
		<tag k="name" v="Kjerringhaket" />
		<tag k="natural" v="cliff" />
		<tag k="ssr:stedsnr" v="97352" />
	</node>
	<node id="-77609" lat="63.0329611121" lon="9.2656694416">
		<tag k="name" v="Krokøyan" />
		<tag k="place" v="locality" />
		<tag k="ssr:stedsnr" v="97300" />
	</node>
	<node id="-77608" lat="63.0191749998" lon="9.23557222324">
		<tag k="name" v="Knivshaugen" />
		<tag k="natural" v="hill" />
		<tag k="place" v="locality" />
		<tag k="ssr:stedsnr" v="97286" />
	</node>
	<node id="-77606" lat="63.0442944428" lon="9.16065832684">
		<tag k="fixme" v="consider natural=peak for the most distinct mountains in the district" />
		<tag k="name" v="Brattåsen" />
		<tag k="natural" v="hill" />
		<tag k="place" v="locality" />
		<tag k="ssr:stedsnr" v="97058" />
	</node>
	<node id="-77604" lat="63.0225361122" lon="9.19579166824">
		<tag k="name" v="Pongtjønna" />
		<tag k="natural" v="valley" />
		<tag k="place" v="locality" />
		<tag k="ssr:stedsnr" v="97621" />
	</node>
	<node id="-77602" lat="63.1029527745" lon="9.0970527703">
		<tag k="name" v="Benstigtela" />
		<tag k="natural" v="slope" />
		<tag k="place" v="locality" />
		<tag k="ssr:stedsnr" v="96821" />
	</node>
	<node id="-77599" lat="63.0267222234" lon="9.18897500535">
		<tag k="name" v="Gammelhøyløhaugen" />
		<tag k="natural" v="hill" />
		<tag k="place" v="locality" />
		<tag k="ssr:stedsnr" v="96602" />
	</node>
	<node id="-77598" lat="63.0978944401" lon="9.24486945391">
		<tag k="name" v="Tjuvdalen" />
		<tag k="natural" v="valley" />
		<tag k="place" v="locality" />
		<tag k="ssr:stedsnr" v="96033" />
	</node>
	<node id="-77596" lat="63.1346638874" lon="9.09992222564">
		<tag k="name" v="Kårøylia" />
		<tag k="natural" v="slope" />
		<tag k="place" v="locality" />
		<tag k="ssr:stedsnr" v="94836" />
	</node>
	<node id="-77595" lat="63.1381472225" lon="9.21819722722">
		<tag k="name" v="Langmyrdalen" />
		<tag k="natural" v="valley" />
		<tag k="place" v="locality" />
		<tag k="ssr:stedsnr" v="86770" />
	</node>
	<node id="-77594" lat="63.0480638904" lon="9.37572500638">
		<tag k="fixme" v="consider natural=peak for the most distinct mountains in the district" />
		<tag k="name" v="Nonsklimpen" />
		<tag k="natural" v="hill" />
		<tag k="place" v="locality" />
		<tag k="ssr:stedsnr" v="86766" />
	</node>
	<node id="-77593" lat="63.1428916675" lon="9.2235249947">
		<tag k="name" v="Dåmpa" />
		<tag k="natural" v="valley" />
		<tag k="place" v="locality" />
		<tag k="ssr:stedsnr" v="86738" />
	</node>
	<node id="-77592" lat="62.972552778" lon="9.41814722635">
		<tag k="name" v="Seterdalen" />
		<tag k="natural" v="valley" />
		<tag k="place" v="locality" />
		<tag k="ssr:stedsnr" v="86338" />
	</node>
	<node id="-77589" lat="63.0036277736" lon="9.15649722925">
		<tag k="name" v="Grønhaugan" />
		<tag k="natural" v="hill" />
		<tag k="place" v="locality" />
		<tag k="ssr:stedsnr" v="84435" />
	</node>
	<node id="-77585" lat="63.1952833335" lon="9.33920833239">
		<tag k="fixme" v="consider natural=peak for the most distinct mountains in the district" />
		<tag k="name" v="Kofta" />
		<tag k="natural" v="hill" />
		<tag k="place" v="locality" />
		<tag k="ssr:stedsnr" v="73617" />
	</node>
	<node id="-77583" lat="63.137183333" lon="9.37667500312">
		<tag k="name" v="Lomunddalen" />
		<tag k="natural" v="valley" />
		<tag k="place" v="locality" />
		<tag k="ssr:stedsnr" v="73561" />
	</node>
	<node id="-77578" lat="63.1228916694" lon="9.43412499952">
		<tag k="name" v="Ratbekkdalen" />
		<tag k="natural" v="valley" />
		<tag k="place" v="locality" />
		<tag k="ssr:stedsnr" v="73507" />
	</node>
	<node id="-77571" lat="63.0842305541" lon="9.27893054862">
		<tag k="fixme" v="consider natural=peak for the most distinct mountains in the district" />
		<tag k="name" v="Vettåsen" />
		<tag k="natural" v="hill" />
		<tag k="place" v="locality" />
		<tag k="ssr:stedsnr" v="73431" />
	</node>
	<node id="-77567" lat="63.0101611131" lon="9.35724165702">
		<tag k="fixme" v="consider natural=peak for the most distinct mountains in the district" />
		<tag k="name" v="Liabrunin" />
		<tag k="natural" v="hill" />
		<tag k="place" v="locality" />
		<tag k="ssr:stedsnr" v="73291" />
	</node>
	<node id="-77566" lat="62.8996083343" lon="9.38296944878">
		<tag k="name" v="Bjørnaråa - Biessenmehkie" />
		<tag k="name:no" v="Bjørnaråa" />
		<tag k="name:sma" v="Biessenmehkie" />
		<tag k="natural" v="valley" />
		<tag k="place" v="locality" />
		<tag k="ssr:stedsnr" v="73185" />
	</node>
	<node id="-77561" lat="63.1405194428" lon="9.40432223101">
		<tag k="name" v="Kalkberget" />
		<tag k="natural" v="hill" />
		<tag k="place" v="locality" />
		<tag k="ssr:stedsnr" v="42941" />
	</node>
	<node id="-77559" lat="63.110830553" lon="9.42186943647">
		<tag k="name" v="Bergan" />
		<tag k="natural" v="hill" />
		<tag k="place" v="locality" />
		<tag k="ssr:stedsnr" v="42246" />
	</node>
	<node id="-77558" lat="63.161069443" lon="9.41153056296">
		<tag k="name" v="Dyrhaugen" />
		<tag k="natural" v="hill" />
		<tag k="place" v="locality" />
		<tag k="ssr:stedsnr" v="42114" />
	</node>
	<node id="-77554" lat="63.0635333304" lon="9.44044721827">
		<tag k="name" v="Snausskarslættet" />
		<tag k="place" v="locality" />
		<tag k="ssr:stedsnr" v="38749" />
	</node>
	<node id="-77552" lat="63.0097388861" lon="9.35944166518">
		<tag k="name" v="Kråkgullberget" />
		<tag k="natural" v="hill" />
		<tag k="place" v="locality" />
		<tag k="ssr:stedsnr" v="38477" />
	</node>
	<node id="-77551" lat="63.0133055592" lon="9.37292776933">
		<tag k="name" v="Ljøsåsnipen" />
		<tag k="natural" v="ridge" />
		<tag k="place" v="locality" />
		<tag k="ssr:stedsnr" v="38413" />
	</node>
	<node id="-77550" lat="63.0150944489" lon="9.48117777428">
		<tag k="name" v="Kattugldalen" />
		<tag k="natural" v="valley" />
		<tag k="place" v="locality" />
		<tag k="ssr:stedsnr" v="38159" />
	</node>
	<node id="-77548" lat="63.0114083313" lon="9.47308333766">
		<tag k="name" v="Tretthaugen" />
		<tag k="natural" v="hill" />
		<tag k="place" v="locality" />
		<tag k="ssr:stedsnr" v="38156" />
	</node>
	<node id="-77547" lat="62.9904194467" lon="9.48126389567">
		<tag k="name" v="Bjørklislettet" />
		<tag k="place" v="locality" />
		<tag k="ssr:stedsnr" v="38145" />
	</node>
	<node id="-77546" lat="62.9922861087" lon="9.46974999476">
		<tag k="name" v="Bjønnavasslettet" />
		<tag k="place" v="locality" />
		<tag k="ssr:stedsnr" v="38142" />
	</node>
	<node id="-77544" lat="63.0387638871" lon="9.32740278664">
		<tag k="name" v="Urdalsbrona" />
		<tag k="natural" v="ridge" />
		<tag k="place" v="locality" />
		<tag k="ssr:stedsnr" v="38119" />
	</node>
	<node id="-77540" lat="63.1087555516" lon="9.39348611627">
		<tag k="fixme" v="consider natural=peak for the most distinct mountains in the district" />
		<tag k="name" v="Brannåsen" />
		<tag k="natural" v="hill" />
		<tag k="place" v="locality" />
		<tag k="ssr:stedsnr" v="38048" />
	</node>
	<node id="-77535" lat="63.0901444401" lon="9.29237221268">
		<tag k="name" v="Fagerlibrona" />
		<tag k="natural" v="ridge" />
		<tag k="place" v="locality" />
		<tag k="ssr:stedsnr" v="37979" />
	</node>
	<node id="-77534" lat="63.0233666643" lon="9.13122777126">
		<tag k="name" v="Lavalia" />
		<tag k="natural" v="slope" />
		<tag k="place" v="locality" />
		<tag k="ssr:stedsnr" v="37900" />
	</node>
	<node id="-77533" lat="63.0065777811" lon="9.45312500096">
		<tag k="name" v="Tortlia" />
		<tag k="natural" v="slope" />
		<tag k="place" v="locality" />
		<tag k="ssr:stedsnr" v="37416" />
	</node>
	<node id="-77532" lat="63.0146777748" lon="9.27088610905">
		<tag k="name" v="Fekkenslættet" />
		<tag k="place" v="locality" />
		<tag k="ssr:stedsnr" v="37410" />
	</node>
	<node id="-77531" lat="63.0232972244" lon="9.32028889342">
		<tag k="name" v="Trongdalen" />
		<tag k="natural" v="valley" />
		<tag k="place" v="locality" />
		<tag k="ssr:stedsnr" v="37294" />
	</node>
	<node id="-77526" lat="63.0551500002" lon="9.28686112075">
		<tag k="name" v="Røyurdalen" />
		<tag k="natural" v="valley" />
		<tag k="place" v="locality" />
		<tag k="ssr:stedsnr" v="37009" />
	</node>
	<node id="-77525" lat="63.0617333299" lon="9.10081667399">
		<tag k="name" v="Grytdalsora" />
		<tag k="place" v="locality" />
		<tag k="ssr:stedsnr" v="36968" />
	</node>
	<node id="-77524" lat="63.1205083361" lon="9.12254723127">
		<tag k="name" v="Stor-Nilsnasen" />
		<tag k="natural" v="ridge" />
		<tag k="place" v="locality" />
		<tag k="ssr:stedsnr" v="36779" />
	</node>
	<node id="-77523" lat="63.1159583305" lon="9.13998888551">
		<tag k="name" v="Brandålia" />
		<tag k="natural" v="slope" />
		<tag k="place" v="locality" />
		<tag k="ssr:stedsnr" v="36778" />
	</node>
	<node id="-77520" lat="63.0201388896" lon="9.19963610323">
		<tag k="name" v="Kudalen" />
		<tag k="natural" v="valley" />
		<tag k="place" v="locality" />
		<tag k="ssr:stedsnr" v="36564" />
	</node>
	<node id="-77519" lat="62.9986250001" lon="9.2608500085">
		<tag k="fixme" v="consider natural=peak for the most distinct mountains in the district" />
		<tag k="name" v="Trivardan" />
		<tag k="natural" v="hill" />
		<tag k="place" v="locality" />
		<tag k="ssr:stedsnr" v="36390" />
	</node>
	<node id="-77518" lat="63.0296361133" lon="9.1582361116">
		<tag k="name" v="Liaslættet" />
		<tag k="place" v="locality" />
		<tag k="ssr:stedsnr" v="36381" />
	</node>
	<node id="-77517" lat="63.0120916689" lon="9.17052777229">
		<tag k="name" v="Bekkerseterlia" />
		<tag k="natural" v="slope" />
		<tag k="place" v="locality" />
		<tag k="ssr:stedsnr" v="36331" />
	</node>
	<node id="-77515" lat="63.0348027743" lon="9.2098833345">
		<tag k="name" v="Andalia" />
		<tag k="natural" v="slope" />
		<tag k="place" v="locality" />
		<tag k="ssr:stedsnr" v="36242" />
	</node>
	<node id="-77514" lat="63.0708472206" lon="9.26916112081">
		<tag k="name" v="Litlhaugen" />
		<tag k="natural" v="hill" />
		<tag k="place" v="locality" />
		<tag k="ssr:stedsnr" v="36200" />
	</node>
	<node id="-77512" lat="63.1264722212" lon="9.2492388934">
		<tag k="name" v="Smørdalen" />
		<tag k="natural" v="valley" />
		<tag k="place" v="locality" />
		<tag k="ssr:stedsnr" v="36165" />
	</node>
	<node id="-77511" lat="63.0630472242" lon="9.17802500352">
		<tag k="name" v="Kvitsunnhaugen" />
		<tag k="natural" v="hill" />
		<tag k="place" v="locality" />
		<tag k="ssr:stedsnr" v="36144" />
	</node>
	<node id="-77508" lat="63.1062527737" lon="9.00754167442">
		<tag k="name" v="Kjølen" />
		<tag k="place" v="locality" />
		<tag k="ssr:stedsnr" v="36080" />
	</node>
	<node id="-77504" lat="63.0890472255" lon="9.15057776981">
		<tag k="name" v="Litlskåkleivdalen" />
		<tag k="natural" v="valley" />
		<tag k="place" v="locality" />
		<tag k="ssr:stedsnr" v="35039" />
	</node>
	<node id="-77502" lat="63.1567555513" lon="9.44687777062">
		<tag k="name" v="Sagbakken" />
		<tag k="natural" v="slope" />
		<tag k="place" v="locality" />
		<tag k="ssr:stedsnr" v="29435" />
	</node>
	<node id="-77499" lat="63.114380558" lon="9.41225556121">
		<tag k="name" v="Haugalia" />
		<tag k="natural" v="slope" />
		<tag k="place" v="locality" />
		<tag k="ssr:stedsnr" v="25774" />
	</node>
	<node id="-77498" lat="63.1107777788" lon="9.41616945248">
		<tag k="name" v="Øverbergdalen" />
		<tag k="natural" v="valley" />
		<tag k="place" v="locality" />
		<tag k="ssr:stedsnr" v="25773" />
	</node>
	<node id="-77496" lat="62.9901861073" lon="9.46195555637">
		<tag k="name" v="Storslættet" />
		<tag k="place" v="locality" />
		<tag k="ssr:stedsnr" v="25305" />
	</node>
	<node id="-77493" lat="63.0071750034" lon="9.16982499124">
		<tag k="name" v="Vasslifjellet" />
		<tag k="place" v="locality" />
		<tag k="ssr:stedsnr" v="25249" />
	</node>
	<node id="-77492" lat="63.0915722181" lon="9.35317221312">
		<tag k="name" v="Bjørkholtet" />
		<tag k="natural" v="slope" />
		<tag k="place" v="locality" />
		<tag k="ssr:stedsnr" v="24492" />
	</node>
	<node id="-77491" lat="62.9496944467" lon="9.39574721247">
		<tag k="name" v="Grønhaugen" />
		<tag k="natural" v="hill" />
		<tag k="place" v="locality" />
		<tag k="ssr:stedsnr" v="24410" />
	</node>
	<node id="-77490" lat="62.8206527766" lon="9.21804166088">
		<tag k="name" v="Storlihalsen" />
		<tag k="natural" v="valley" />
		<tag k="place" v="locality" />
		<tag k="ssr:stedsnr" v="24226" />
	</node>
	<node id="-77489" lat="62.9882138858" lon="9.14308055584">
		<tag k="name" v="Seggamyrhaugen" />
		<tag k="natural" v="hill" />
		<tag k="place" v="locality" />
		<tag k="ssr:stedsnr" v="24102" />
	</node>
	<node id="-77488" lat="63.1328027747" lon="9.17648332904">
		<tag k="fixme" v="consider natural=peak for the most distinct mountains in the district" />
		<tag k="name" v="Gravfjellet" />
		<tag k="natural" v="hill" />
		<tag k="place" v="locality" />
		<tag k="ssr:stedsnr" v="21092" />
	</node>
	<node id="-77486" lat="63.1170722182" lon="9.21066110581">
		<tag k="fixme" v="consider natural=peak for the most distinct mountains in the district" />
		<tag k="name" v="Trønsdalshøgfjellet" />
		<tag k="natural" v="hill" />
		<tag k="place" v="locality" />
		<tag k="ssr:stedsnr" v="12705" />
	</node>
	<node id="-77479" lat="63.1560111149" lon="9.37681944346">
		<tag k="fixme" v="consider natural=peak for the most distinct mountains in the district" />
		<tag k="name" v="Høgåsen" />
		<tag k="natural" v="hill" />
		<tag k="place" v="locality" />
		<tag k="ssr:stedsnr" v="12488" />
	</node>
	<node id="-77470" lat="63.0760166703" lon="9.39652777526">
		<tag k="fixme" v="consider natural=peak for the most distinct mountains in the district" />
		<tag k="name" v="Litlfjellet" />
		<tag k="natural" v="hill" />
		<tag k="place" v="locality" />
		<tag k="ssr:stedsnr" v="12363" />
	</node>
	<node id="-77466" lat="62.9052027814" lon="9.30771111325">
		<tag k="fixme" v="multiple name tags, choose one and add the other to alt_name; consider natural=peak for the most distinct mountains in the district" />
		<tag k="name" v="Botnfjellet;Knektfjellet" />
		<tag k="natural" v="hill" />
		<tag k="place" v="locality" />
		<tag k="ssr:stedsnr" v="12240" />
	</node>
	<node id="-77463" lat="63.0099194456" lon="9.32145555736">
		<tag k="name" v="Bjørnsengdalen" />
		<tag k="natural" v="valley" />
		<tag k="place" v="locality" />
		<tag k="ssr:stedsnr" v="267445" />
	</node>
	<node id="-77462" lat="62.9170158084" lon="9.1779164326">
		<tag k="fixme" v="multiple name tags, choose one and add the other to alt_name; consider natural=peak for the most distinct mountains in the district" />
		<tag k="name" v="Gardfjellet;Storgrøhausen" />
		<tag k="natural" v="hill" />
		<tag k="place" v="locality" />
		<tag k="ssr:stedsnr" v="12016" />
	</node>
	<node id="-77461" lat="63.0115527803" lon="9.49788610279">
		<tag k="name" v="Bakliin" />
		<tag k="natural" v="slope" />
		<tag k="place" v="locality" />
		<tag k="ssr:stedsnr" v="696730" />
	</node>
	<node id="-77460" lat="63.1286646733" lon="9.41122387237">
		<tag k="name" v="Rørdalen" />
		<tag k="natural" v="valley" />
		<tag k="place" v="locality" />
		<tag k="ssr:stedsnr" v="981727" />
	</node>
	<node id="-77457" lat="63.0094694445" lon="9.56509445083">
		<tag k="name" v="Skjortfonnhammaren" />
		<tag k="place" v="locality" />
		<tag k="ssr:stedsnr" v="893087" />
	</node>
	<node id="-77454" lat="63.1479055549" lon="9.42170000919">
		<tag k="name" v="Fagerlia" />
		<tag k="natural" v="slope" />
		<tag k="place" v="locality" />
		<tag k="ssr:stedsnr" v="892123" />
	</node>
	<node id="-77448" lat="63.1414305552" lon="9.29347223054">
		<tag k="name" v="Bordtrelia" />
		<tag k="natural" v="slope" />
		<tag k="place" v="locality" />
		<tag k="ssr:stedsnr" v="888879" />
	</node>
	<node id="-77447" lat="63.0682638906" lon="9.2806750055">
		<tag k="name" v="Kringla" />
		<tag k="natural" v="hill" />
		<tag k="place" v="locality" />
		<tag k="ssr:stedsnr" v="888845" />
	</node>
	<node id="-77446" lat="63.031533332" lon="9.44575555464">
		<tag k="name" v="Krokvasshaugen" />
		<tag k="natural" v="hill" />
		<tag k="place" v="locality" />
		<tag k="ssr:stedsnr" v="888618" />
	</node>
	<node id="-77444" lat="63.0215583314" lon="9.47144721688">
		<tag k="name" v="Skråphaugen" />
		<tag k="natural" v="hill" />
		<tag k="place" v="locality" />
		<tag k="ssr:stedsnr" v="888600" />
	</node>
	<node id="-77442" lat="63.0415472233" lon="9.39901944827">
		<tag k="name" v="Langripa" />
		<tag k="natural" v="ridge" />
		<tag k="place" v="locality" />
		<tag k="ssr:stedsnr" v="888238" />
	</node>
	<node id="-77441" lat="62.9774888933" lon="9.47194444716">
		<tag k="name" v="Haugaslettet" />
		<tag k="place" v="locality" />
		<tag k="ssr:stedsnr" v="888104" />
	</node>
	<node id="-77440" lat="62.9862888915" lon="9.42346666008">
		<tag k="name" v="Langvassbekkslettet" />
		<tag k="place" v="locality" />
		<tag k="ssr:stedsnr" v="888095" />
	</node>
	<node id="-77439" lat="62.9609083342" lon="9.40059165856">
		<tag k="name" v="Grønhaugen" />
		<tag k="natural" v="hill" />
		<tag k="place" v="locality" />
		<tag k="ssr:stedsnr" v="888091" />
	</node>
	<node id="-77435" lat="63.0631305571" lon="9.35571944663">
		<tag k="fixme" v="consider natural=peak for the most distinct mountains in the district" />
		<tag k="name" v="Varden" />
		<tag k="natural" v="hill" />
		<tag k="place" v="locality" />
		<tag k="ssr:stedsnr" v="888081" />
	</node>
	<node id="-77433" lat="63.1033972213" lon="9.39120278603">
		<tag k="name" v="Grøsetrabben" />
		<tag k="natural" v="slope" />
		<tag k="place" v="locality" />
		<tag k="ssr:stedsnr" v="888036" />
	</node>
	<node id="-77431" lat="63.0496388902" lon="9.29574444632">
		<tag k="name" v="Baklia" />
		<tag k="natural" v="slope" />
		<tag k="place" v="locality" />
		<tag k="ssr:stedsnr" v="888004" />
	</node>
	<node id="-77430" lat="63.0968888868" lon="9.3326027787">
		<tag k="name" v="Storbergslia" />
		<tag k="natural" v="slope" />
		<tag k="place" v="locality" />
		<tag k="ssr:stedsnr" v="887985" />
	</node>
	<node id="-77428" lat="63.1400027783" lon="9.4201083353">
		<tag k="name" v="Kleiva" />
		<tag k="natural" v="valley" />
		<tag k="place" v="locality" />
		<tag k="ssr:stedsnr" v="892958" />
	</node>
	<node id="-77426" lat="63.1314194423" lon="9.42448333427">
		<tag k="name" v="Kringelåsen" />
		<tag k="natural" v="hill" />
		<tag k="place" v="locality" />
		<tag k="ssr:stedsnr" v="892931" />
	</node>
	<node id="-77424" lat="63.0028611068" lon="9.38581944108">
		<tag k="name" v="Rindmelan" />
		<tag k="natural" v="slope" />
		<tag k="place" v="locality" />
		<tag k="ssr:stedsnr" v="887415" />
	</node>
	<node id="-77423" lat="63.0025611107" lon="9.45394444141">
		<tag k="name" v="Almdalen" />
		<tag k="natural" v="valley" />
		<tag k="place" v="locality" />
		<tag k="ssr:stedsnr" v="887407" />
	</node>
	<node id="-77422" lat="62.9998972253" lon="9.45291943853">
		<tag k="name" v="Grasdalen" />
		<tag k="natural" v="valley" />
		<tag k="place" v="locality" />
		<tag k="ssr:stedsnr" v="887402" />
	</node>
	<node id="-77420" lat="63.0290222189" lon="9.31770556298">
		<tag k="name" v="Skaret" />
		<tag k="natural" v="valley" />
		<tag k="place" v="locality" />
		<tag k="ssr:stedsnr" v="887302" />
	</node>
	<node id="-77419" lat="63.1500333319" lon="9.19542221768">
		<tag k="fixme" v="consider natural=peak for the most distinct mountains in the district" />
		<tag k="name" v="Kleven" />
		<tag k="natural" v="hill" />
		<tag k="place" v="locality" />
		<tag k="ssr:stedsnr" v="887183" />
	</node>
	<node id="-77417" lat="63.1810611154" lon="9.18230554918">
		<tag k="name" v="Borstadskardet" />
		<tag k="natural" v="valley" />
		<tag k="place" v="locality" />
		<tag k="ssr:stedsnr" v="887148" />
	</node>
	<node id="-77413" lat="63.0445361139" lon="9.29137499589">
		<tag k="name" v="Våtdalen" />
		<tag k="natural" v="valley" />
		<tag k="place" v="locality" />
		<tag k="ssr:stedsnr" v="887017" />
	</node>
	<node id="-77412" lat="63.0403750033" lon="9.28822221633">
		<tag k="name" v="Svervassdalen" />
		<tag k="natural" v="valley" />
		<tag k="place" v="locality" />
		<tag k="ssr:stedsnr" v="887018" />
	</node>
	<node id="-77410" lat="63.0395611089" lon="9.13610555096">
		<tag k="name" v="Bjorøya" />
		<tag k="place" v="locality" />
		<tag k="ssr:stedsnr" v="886950" />
	</node>
	<node id="-77406" lat="63.0280305529" lon="9.12996389014">
		<tag k="name" v="Blomlia" />
		<tag k="natural" v="slope" />
		<tag k="place" v="locality" />
		<tag k="ssr:stedsnr" v="886889" />
	</node>
	<node id="-77404" lat="62.9899972259" lon="9.21099444197">
		<tag k="name" v="Aksla" />
		<tag k="place" v="locality" />
		<tag k="ssr:stedsnr" v="886543" />
	</node>
	<node id="-77402" lat="63.0326527794" lon="9.14483889675">
		<tag k="name" v="Sliparberga" />
		<tag k="natural" v="hill" />
		<tag k="place" v="locality" />
		<tag k="ssr:stedsnr" v="886405" />
	</node>
	<node id="-77401" lat="63.014058335" lon="9.21923333186">
		<tag k="name" v="Bjønnarabben" />
		<tag k="natural" v="hill" />
		<tag k="place" v="locality" />
		<tag k="ssr:stedsnr" v="886385" />
	</node>
	<node id="-77400" lat="63.0049111134" lon="9.18385832537">
		<tag k="fixme" v="consider natural=peak for the most distinct mountains in the district" />
		<tag k="name" v="Heimerfjellet" />
		<tag k="natural" v="hill" />
		<tag k="place" v="locality" />
		<tag k="ssr:stedsnr" v="886360" />
	</node>
	<node id="-77397" lat="63.036052782" lon="9.24546665772">
		<tag k="name" v="Marteinslia" />
		<tag k="natural" v="slope" />
		<tag k="place" v="locality" />
		<tag k="ssr:stedsnr" v="886289" />
	</node>
	<node id="-77396" lat="63.0714305521" lon="9.22593054841">
		<tag k="name" v="Kvennhushaugen" />
		<tag k="natural" v="hill" />
		<tag k="place" v="locality" />
		<tag k="ssr:stedsnr" v="886189" />
	</node>
	<node id="-77395" lat="63.0649500035" lon="9.22485556451">
		<tag k="name" v="Gjøålia" />
		<tag k="natural" v="slope" />
		<tag k="place" v="locality" />
		<tag k="ssr:stedsnr" v="886187" />
	</node>
	<node id="-77394" lat="63.1351722245" lon="9.22253055959">
		<tag k="name" v="Steindalen" />
		<tag k="natural" v="valley" />
		<tag k="place" v="locality" />
		<tag k="ssr:stedsnr" v="886185" />
	</node>
	<node id="-77393" lat="63.0634527781" lon="9.21878054829">
		<tag k="name" v="Kjerkbakken" />
		<tag k="natural" v="slope" />
		<tag k="place" v="locality" />
		<tag k="ssr:stedsnr" v="886182" />
	</node>
	<node id="-77392" lat="63.0754083298" lon="9.24650555281">
		<tag k="name" v="Tjørnhjellia" />
		<tag k="natural" v="slope" />
		<tag k="place" v="locality" />
		<tag k="ssr:stedsnr" v="886179" />
	</node>
	<node id="-77391" lat="63.1230861116" lon="9.23457222093">
		<tag k="name" v="Trongdalen" />
		<tag k="natural" v="valley" />
		<tag k="place" v="locality" />
		<tag k="ssr:stedsnr" v="886073" />
	</node>
	<node id="-77389" lat="63.103880552" lon="9.22349722845">
		<tag k="name" v="Liahaugen" />
		<tag k="natural" v="hill" />
		<tag k="place" v="locality" />
		<tag k="ssr:stedsnr" v="886067" />
	</node>
	<node id="-77388" lat="63.0396222268" lon="9.14679999094">
		<tag k="name" v="Kvennhusøya" />
		<tag k="place" v="locality" />
		<tag k="ssr:stedsnr" v="886049" />
	</node>
	<node id="-77386" lat="63.0602611121" lon="9.14939166379">
		<tag k="fixme" v="consider natural=peak for the most distinct mountains in the district" />
		<tag k="name" v="Seteråsen" />
		<tag k="natural" v="hill" />
		<tag k="place" v="locality" />
		<tag k="ssr:stedsnr" v="886044" />
	</node>
	<node id="-77385" lat="63.0587388911" lon="9.17031388777">
		<tag k="name" v="Grytdalen" />
		<tag k="natural" v="valley" />
		<tag k="place" v="locality" />
		<tag k="ssr:stedsnr" v="886045" />
	</node>
	<node id="-77381" lat="63.089027776" lon="9.26278332971">
		<tag k="name" v="Nygarden" />
		<tag k="natural" v="slope" />
		<tag k="place" v="locality" />
		<tag k="ssr:stedsnr" v="885021" />
	</node>
	<node id="-77380" lat="63.0846777822" lon="9.23009166344">
		<tag k="name" v="Søtrotberget" />
		<tag k="natural" v="hill" />
		<tag k="place" v="locality" />
		<tag k="ssr:stedsnr" v="885018" />
	</node>
	<node id="-77378" lat="63.1275166656" lon="9.0871888836">
		<tag k="name" v="Lienden" />
		<tag k="natural" v="slope" />
		<tag k="place" v="locality" />
		<tag k="ssr:stedsnr" v="883852" />
	</node>
	<node id="-77377" lat="63.1037194476" lon="9.12971389104">
		<tag k="fixme" v="consider natural=peak for the most distinct mountains in the district" />
		<tag k="name" v="Høgfjellet" />
		<tag k="natural" v="hill" />
		<tag k="place" v="locality" />
		<tag k="ssr:stedsnr" v="883827" />
	</node>
	<node id="-77374" lat="63.0904750006" lon="9.4311249953">
		<tag k="name" v="Grøtdalen" />
		<tag k="natural" v="valley" />
		<tag k="place" v="locality" />
		<tag k="ssr:stedsnr" v="407196" />
	</node>
	<node id="-77370" lat="63.1435888849" lon="9.4206138958">
		<tag k="name" v="Ormberget" />
		<tag k="natural" v="hill" />
		<tag k="place" v="locality" />
		<tag k="ssr:stedsnr" v="406965" />
	</node>
	<node id="-77368" lat="63.1610250025" lon="9.40523611392">
		<tag k="name" v="Skruvfurubakken" />
		<tag k="natural" v="slope" />
		<tag k="place" v="locality" />
		<tag k="ssr:stedsnr" v="406115" />
	</node>
	<node id="-77367" lat="62.8400805587" lon="9.40619165935">
		<tag k="name" v="Bukkhøgda" />
		<tag k="natural" v="hill" />
		<tag k="place" v="locality" />
		<tag k="ssr:stedsnr" v="405091" />
	</node>
	<node id="-77364" lat="63.0240805539" lon="9.43697223105">
		<tag k="fixme" v="consider natural=peak for the most distinct mountains in the district" />
		<tag k="name" v="Frekslættåsen" />
		<tag k="natural" v="hill" />
		<tag k="place" v="locality" />
		<tag k="ssr:stedsnr" v="402699" />
	</node>
	<node id="-77361" lat="63.0338611121" lon="9.42218610614">
		<tag k="name" v="Kjølslættet" />
		<tag k="place" v="locality" />
		<tag k="ssr:stedsnr" v="402684" />
	</node>
	<node id="-77359" lat="63.0087805525" lon="9.39863611408">
		<tag k="name" v="Skåpen" />
		<tag k="natural" v="hill" />
		<tag k="place" v="locality" />
		<tag k="ssr:stedsnr" v="402408" />
	</node>
	<node id="-77358" lat="62.9553777758" lon="9.41482778265">
		<tag k="name" v="Aksla" />
		<tag k="place" v="locality" />
		<tag k="ssr:stedsnr" v="402116" />
	</node>
	<node id="-77357" lat="62.9831888889" lon="9.45274722548">
		<tag k="name" v="Langvasslettet" />
		<tag k="place" v="locality" />
		<tag k="ssr:stedsnr" v="402115" />
	</node>
	<node id="-77356" lat="63.0646222233" lon="9.36229443864">
		<tag k="name" v="Steinkjerkdalen" />
		<tag k="natural" v="valley" />
		<tag k="place" v="locality" />
		<tag k="ssr:stedsnr" v="402092" />
	</node>
	<node id="-77349" lat="63.0553055521" lon="9.35753611225">
		<tag k="fixme" v="consider natural=peak for the most distinct mountains in the district" />
		<tag k="name" v="Tifjellet" />
		<tag k="natural" v="hill" />
		<tag k="place" v="locality" />
		<tag k="ssr:stedsnr" v="402023" />
	</node>
	<node id="-77347" lat="63.0542972212" lon="9.31360554767">
		<tag k="name" v="Fjelldalen" />
		<tag k="natural" v="valley" />
		<tag k="place" v="locality" />
		<tag k="ssr:stedsnr" v="402003" />
	</node>
	<node id="-77343" lat="63.086013893" lon="9.38116110707">
		<tag k="name" v="Langdalen" />
		<tag k="natural" v="valley" />
		<tag k="place" v="locality" />
		<tag k="ssr:stedsnr" v="401960" />
	</node>
	<node id="-77341" lat="63.0363194433" lon="9.39492500168">
		<tag k="name" v="Seterliin" />
		<tag k="natural" v="slope" />
		<tag k="place" v="locality" />
		<tag k="ssr:stedsnr" v="401925" />
	</node>
	<node id="-77340" lat="63.030105555" lon="9.34361944381">
		<tag k="name" v="Sautjønnhaugen" />
		<tag k="natural" v="hill" />
		<tag k="place" v="locality" />
		<tag k="ssr:stedsnr" v="401912" />
	</node>
	<node id="-77337" lat="63.1353527767" lon="9.09680833662">
		<tag k="name" v="Slættet" />
		<tag k="place" v="locality" />
		<tag k="ssr:stedsnr" v="401870" />
	</node>
	<node id="-77336" lat="63.1247583369" lon="9.3133861055">
		<tag k="name" v="Merkesliin" />
		<tag k="natural" v="slope" />
		<tag k="place" v="locality" />
		<tag k="ssr:stedsnr" v="401864" />
	</node>
	<node id="-77335" lat="63.0311944436" lon="9.32976666809">
		<tag k="name" v="Springarbakkan" />
		<tag k="natural" v="slope" />
		<tag k="place" v="locality" />
		<tag k="ssr:stedsnr" v="401280" />
	</node>
	<node id="-77334" lat="63.0212583308" lon="9.27448055175">
		<tag k="name" v="Seterlibrona" />
		<tag k="natural" v="ridge" />
		<tag k="place" v="locality" />
		<tag k="ssr:stedsnr" v="401242" />
	</node>
	<node id="-77332" lat="63.1256527779" lon="9.22086944059">
		<tag k="name" v="Slettdalen" />
		<tag k="natural" v="valley" />
		<tag k="place" v="locality" />
		<tag k="ssr:stedsnr" v="401193" />
	</node>
	<node id="-77331" lat="63.0725138909" lon="9.33203054978">
		<tag k="name" v="Ivahammaren" />
		<tag k="natural" v="hill" />
		<tag k="place" v="locality" />
		<tag k="ssr:stedsnr" v="401172" />
	</node>
	<node id="-77330" lat="63.1827972192" lon="9.19436666655">
		<tag k="fixme" v="consider natural=peak for the most distinct mountains in the district" />
		<tag k="name" v="Møkkelgardsfjellet" />
		<tag k="natural" v="hill" />
		<tag k="place" v="locality" />
		<tag k="ssr:stedsnr" v="401158" />
	</node>
	<node id="-77329" lat="63.1767583363" lon="9.16904166531">
		<tag k="fixme" v="consider natural=peak for the most distinct mountains in the district" />
		<tag k="name" v="Rutdompa" />
		<tag k="natural" v="hill" />
		<tag k="place" v="locality" />
		<tag k="ssr:stedsnr" v="401156" />
	</node>
	<node id="-77328" lat="63.0744055556" lon="9.15852500864">
		<tag k="name" v="Ljøsådalsbrona" />
		<tag k="natural" v="ridge" />
		<tag k="place" v="locality" />
		<tag k="ssr:stedsnr" v="401144" />
	</node>
	<node id="-77326" lat="63.0518583352" lon="9.19262777375">
		<tag k="name" v="Rindhaugen" />
		<tag k="natural" v="hill" />
		<tag k="place" v="locality" />
		<tag k="ssr:stedsnr" v="401052" />
	</node>
	<node id="-77325" lat="63.0413111107" lon="9.17113332558">
		<tag k="name" v="Bølludalen" />
		<tag k="natural" v="valley" />
		<tag k="place" v="locality" />
		<tag k="ssr:stedsnr" v="401040" />
	</node>
	<node id="-77324" lat="63.0575777781" lon="9.28046944209">
		<tag k="name" v="Femtjønndalen" />
		<tag k="natural" v="valley" />
		<tag k="place" v="locality" />
		<tag k="ssr:stedsnr" v="401013" />
	</node>
	<node id="-77323" lat="63.0419861138" lon="9.13903332749">
		<tag k="name" v="Grønhaugen" />
		<tag k="natural" v="hill" />
		<tag k="place" v="locality" />
		<tag k="ssr:stedsnr" v="400951" />
	</node>
	<node id="-77322" lat="63.0776916644" lon="9.09837778064">
		<tag k="name" v="Finnråhauet" />
		<tag k="place" v="locality" />
		<tag k="ssr:stedsnr" v="400949" />
	</node>
	<node id="-77319" lat="63.0133583309" lon="9.19915277089">
		<tag k="name" v="Pellhaugen" />
		<tag k="natural" v="hill" />
		<tag k="place" v="locality" />
		<tag k="ssr:stedsnr" v="400362" />
	</node>
	<node id="-77317" lat="63.0249777812" lon="9.22216943763">
		<tag k="name" v="Skaret" />
		<tag k="natural" v="valley" />
		<tag k="place" v="locality" />
		<tag k="ssr:stedsnr" v="400278" />
	</node>
	<node id="-77316" lat="63.0321805545" lon="9.21006666961">
		<tag k="name" v="Fagerhaugen" />
		<tag k="natural" v="hill" />
		<tag k="place" v="locality" />
		<tag k="ssr:stedsnr" v="400270" />
	</node>
	<node id="-77314" lat="63.0776416662" lon="9.26748611812">
		<tag k="name" v="Liabronin" />
		<tag k="natural" v="slope" />
		<tag k="place" v="locality" />
		<tag k="ssr:stedsnr" v="400232" />
	</node>
	<node id="-77313" lat="63.1290888898" lon="9.25849444536">
		<tag k="fixme" v="consider natural=peak for the most distinct mountains in the district" />
		<tag k="name" v="Smørdalsfjellet" />
		<tag k="natural" v="hill" />
		<tag k="place" v="locality" />
		<tag k="ssr:stedsnr" v="400192" />
	</node>
	<node id="-77311" lat="63.1069222256" lon="9.25484166428">
		<tag k="fixme" v="consider natural=peak for the most distinct mountains in the district" />
		<tag k="name" v="Løfallåsen" />
		<tag k="natural" v="hill" />
		<tag k="place" v="locality" />
		<tag k="ssr:stedsnr" v="400091" />
	</node>
	<node id="-77310" lat="63.0848222267" lon="9.01662778272">
		<tag k="fixme" v="consider natural=peak for the most distinct mountains in the district" />
		<tag k="name" v="Gunhildfjellet" />
		<tag k="natural" v="hill" />
		<tag k="place" v="locality" />
		<tag k="ssr:stedsnr" v="400084" />
	</node>
	<node id="-77309" lat="62.9850916706" lon="9.34479443764">
		<tag k="fixme" v="consider natural=peak for the most distinct mountains in the district" />
		<tag k="name" v="Stortelet" />
		<tag k="natural" v="hill" />
		<tag k="place" v="locality" />
		<tag k="ssr:stedsnr" v="400055" />
	</node>
	<node id="-77304" lat="63.0107361089" lon="9.19157222024">
		<tag k="name" v="Lomtjønndalen" />
		<tag k="natural" v="valley" />
		<tag k="place" v="locality" />
		<tag k="ssr:stedsnr" v="389747" />
	</node>
	<node id="-77303" lat="63.1575916683" lon="9.24636666524">
		<tag k="name" v="Gammelhøyløslættet" />
		<tag k="place" v="locality" />
		<tag k="ssr:stedsnr" v="389489" />
	</node>
	<node id="-77302" lat="63.1456944407" lon="9.3024416744">
		<tag k="name" v="Grisolaberget" />
		<tag k="natural" v="hill" />
		<tag k="place" v="locality" />
		<tag k="ssr:stedsnr" v="389463" />
	</node>
	<node id="-77301" lat="63.1294527772" lon="9.24470555761">
		<tag k="name" v="Purkryggan" />
		<tag k="natural" v="hill" />
		<tag k="place" v="locality" />
		<tag k="ssr:stedsnr" v="389406" />
	</node>
	<node id="-77300" lat="62.9977388909" lon="9.51286944199">
		<tag k="name" v="Resberga" />
		<tag k="natural" v="hill" />
		<tag k="place" v="locality" />
		<tag k="ssr:stedsnr" v="389376" />
	</node>
	<node id="-77298" lat="62.9676472247" lon="9.16169166494">
		<tag k="name" v="Storkinna" />
		<tag k="place" v="locality" />
		<tag k="ssr:stedsnr" v="389020" />
	</node>
	<node id="-77297" lat="63.0329055572" lon="9.40770554891">
		<tag k="name" v="Hallvarddalen" />
		<tag k="natural" v="valley" />
		<tag k="place" v="locality" />
		<tag k="ssr:stedsnr" v="388391" />
	</node>
	<node id="-77294" lat="63.1227277808" lon="9.31798333453">
		<tag k="name" v="Langhaugen" />
		<tag k="natural" v="hill" />
		<tag k="place" v="locality" />
		<tag k="ssr:stedsnr" v="388347" />
	</node>
	<node id="-77293" lat="62.8946388867" lon="9.17285278018">
		<tag k="name" v="Langøylia" />
		<tag k="natural" v="slope" />
		<tag k="place" v="locality" />
		<tag k="ssr:stedsnr" v="388323" />
	</node>
	<node id="-77292" lat="62.9774805588" lon="9.22488887934">
		<tag k="name" v="Finnburabban" />
		<tag k="natural" v="slope" />
		<tag k="place" v="locality" />
		<tag k="ssr:stedsnr" v="387477" />
	</node>
	<node id="-77291" lat="63.1103444403" lon="9.19220278052">
		<tag k="name" v="Vaulan" />
		<tag k="natural" v="mountain_range" />
		<tag k="ssr:stedsnr" v="384084" />
	</node>
	<node id="-77290" lat="63.1022694433" lon="9.19016667381">
		<tag k="fixme" v="consider natural=peak for the most distinct mountains in the district" />
		<tag k="name" v="Korpfjellet" />
		<tag k="natural" v="hill" />
		<tag k="place" v="locality" />
		<tag k="ssr:stedsnr" v="384081" />
	</node>
	<node id="-77273" lat="63.018399997" lon="9.28357499068">
		<tag k="fixme" v="consider natural=peak for the most distinct mountains in the district" />
		<tag k="name" v="Høglia" />
		<tag k="natural" v="hill" />
		<tag k="place" v="locality" />
		<tag k="ssr:stedsnr" v="376489" />
	</node>
	<node id="-77267" lat="63.0357916631" lon="9.33229166161">
		<tag k="name" v="Urddalen" />
		<tag k="natural" v="valley" />
		<tag k="place" v="locality" />
		<tag k="ssr:stedsnr" v="376322" />
	</node>
	<node id="-77265" lat="63.0088000025" lon="9.53549445341">
		<tag k="fixme" v="consider natural=peak for the most distinct mountains in the district" />
		<tag k="name" v="Småfjella" />
		<tag k="natural" v="hill" />
		<tag k="place" v="locality" />
		<tag k="ssr:stedsnr" v="376289" />
	</node>
	<node id="-77262" lat="62.9272805599" lon="9.42398055388">
		<tag k="fixme" v="consider natural=peak for the most distinct mountains in the district" />
		<tag k="name" v="Svarthatten" />
		<tag k="natural" v="hill" />
		<tag k="place" v="locality" />
		<tag k="ssr:stedsnr" v="376229" />
	</node>
	<node id="-77258" lat="62.936597226" lon="9.15363055831">
		<tag k="name" v="Slompan" />
		<tag k="natural" v="hill" />
		<tag k="place" v="locality" />
		<tag k="ssr:stedsnr" v="362784" />
	</node>
	<node id="-77254" lat="63.0848444468" lon="9.40093612051">
		<tag k="name" v="Luggurommet" />
		<tag k="natural" v="slope" />
		<tag k="place" v="locality" />
		<tag k="ssr:stedsnr" v="346178" />
	</node>
	<node id="-77252" lat="63.1408111082" lon="9.41250278396">
		<tag k="name" v="Røvarberget" />
		<tag k="natural" v="hill" />
		<tag k="place" v="locality" />
		<tag k="ssr:stedsnr" v="345958" />
	</node>
	<node id="-77250" lat="63.1146916662" lon="9.4299500045">
		<tag k="name" v="Fagerlidalen" />
		<tag k="natural" v="valley" />
		<tag k="place" v="locality" />
		<tag k="ssr:stedsnr" v="345266" />
	</node>
	<node id="-77246" lat="63.0716583301" lon="9.28726944541">
		<tag k="name" v="Geilhaugen" />
		<tag k="natural" v="hill" />
		<tag k="place" v="locality" />
		<tag k="ssr:stedsnr" v="342566" />
	</node>
	<node id="-77245" lat="63.0160166676" lon="9.46043889065">
		<tag k="name" v="Bjønnslåtta" />
		<tag k="place" v="locality" />
		<tag k="ssr:stedsnr" v="342564" />
	</node>
	<node id="-77244" lat="63.0564055549" lon="9.40661389251">
		<tag k="name" v="Jånnådalen" />
		<tag k="natural" v="valley" />
		<tag k="place" v="locality" />
		<tag k="ssr:stedsnr" v="342251" />
	</node>
	<node id="-77243" lat="63.0002499993" lon="9.46787500572">
		<tag k="name" v="Almdalen" />
		<tag k="natural" v="valley" />
		<tag k="place" v="locality" />
		<tag k="ssr:stedsnr" v="342166" />
	</node>
	<node id="-77242" lat="63.0094111108" lon="9.48858610548">
		<tag k="name" v="Sjurslåtthaugen" />
		<tag k="natural" v="hill" />
		<tag k="place" v="locality" />
		<tag k="ssr:stedsnr" v="342140" />
	</node>
	<node id="-77241" lat="63.0714666661" lon="9.30841389001">
		<tag k="name" v="Sløbekkdalen" />
		<tag k="natural" v="valley" />
		<tag k="place" v="locality" />
		<tag k="ssr:stedsnr" v="342096" />
	</node>
	<node id="-77240" lat="63.0351750031" lon="9.34208611176">
		<tag k="name" v="Urdalen" />
		<tag k="natural" v="valley" />
		<tag k="place" v="locality" />
		<tag k="ssr:stedsnr" v="341940" />
	</node>
	<node id="-77238" lat="63.0276472266" lon="9.3890750072">
		<tag k="fixme" v="consider natural=peak for the most distinct mountains in the district" />
		<tag k="name" v="Rotåsen" />
		<tag k="natural" v="hill" />
		<tag k="place" v="locality" />
		<tag k="ssr:stedsnr" v="341919" />
	</node>
	<node id="-77237" lat="63.1403333323" lon="9.30660554839">
		<tag k="name" v="Kjerringhaugen" />
		<tag k="natural" v="hill" />
		<tag k="place" v="locality" />
		<tag k="ssr:stedsnr" v="341904" />
	</node>
	<node id="-77236" lat="63.0748277786" lon="9.40017222935">
		<tag k="fixme" v="consider natural=peak for the most distinct mountains in the district" />
		<tag k="name" v="Litlfjellet" />
		<tag k="natural" v="hill" />
		<tag k="place" v="locality" />
		<tag k="ssr:stedsnr" v="341772" />
	</node>
	<node id="-77233" lat="63.0078666627" lon="9.31472222874">
		<tag k="name" v="Middagsdalen" />
		<tag k="natural" v="valley" />
		<tag k="place" v="locality" />
		<tag k="ssr:stedsnr" v="341464" />
	</node>
	<node id="-77231" lat="63.0163611114" lon="9.30695555175">
		<tag k="name" v="Kamman" />
		<tag k="natural" v="ridge" />
		<tag k="place" v="locality" />
		<tag k="ssr:stedsnr" v="341425" />
	</node>
	<node id="-77229" lat="63.0692305538" lon="9.31993611296">
		<tag k="name" v="Bakliin" />
		<tag k="natural" v="slope" />
		<tag k="place" v="locality" />
		<tag k="ssr:stedsnr" v="341144" />
	</node>
	<node id="-77228" lat="62.9898166643" lon="9.4118333312">
		<tag k="name" v="Bruslettet" />
		<tag k="place" v="locality" />
		<tag k="ssr:stedsnr" v="341124" />
	</node>
	<node id="-77225" lat="63.1689472178" lon="9.31203611856">
		<tag k="alt_name" v="Gråora" />
		<tag k="fixme" v="consider natural=peak for the most distinct mountains in the district" />
		<tag k="name" v="Gråura" />
		<tag k="natural" v="hill" />
		<tag k="place" v="locality" />
		<tag k="ssr:stedsnr" v="341090" />
	</node>
	<node id="-77220" lat="63.0577444414" lon="9.09876110223">
		<tag k="name" v="Langvasskjølen" />
		<tag k="natural" v="hill" />
		<tag k="place" v="locality" />
		<tag k="ssr:stedsnr" v="340988" />
	</node>
	<node id="-77219" lat="63.0953277803" lon="9.3274222302">
		<tag k="name" v="Knatten" />
		<tag k="natural" v="hill" />
		<tag k="place" v="locality" />
		<tag k="ssr:stedsnr" v="340985" />
	</node>
	<node id="-77218" lat="63.0983361145" lon="9.37971944045">
		<tag k="name" v="Svarthammaren" />
		<tag k="place" v="locality" />
		<tag k="ssr:stedsnr" v="340964" />
	</node>
	<node id="-77217" lat="63.0309000012" lon="9.12845556424">
		<tag k="name" v="Furruhaugen" />
		<tag k="natural" v="hill" />
		<tag k="place" v="locality" />
		<tag k="ssr:stedsnr" v="340937" />
	</node>
	<node id="-77216" lat="63.0302027777" lon="9.12105000815">
		<tag k="name" v="Kjeberga" />
		<tag k="natural" v="hill" />
		<tag k="place" v="locality" />
		<tag k="ssr:stedsnr" v="340934" />
	</node>
	<node id="-77213" lat="63.1109055559" lon="9.07800833187">
		<tag k="name" v="Hammaren" />
		<tag k="natural" v="hill" />
		<tag k="place" v="locality" />
		<tag k="ssr:stedsnr" v="340771" />
	</node>
	<node id="-77210" lat="63.010052781" lon="9.44452499643">
		<tag k="name" v="Tjønnhaugen" />
		<tag k="natural" v="hill" />
		<tag k="place" v="locality" />
		<tag k="ssr:stedsnr" v="340399" />
	</node>
	<node id="-77209" lat="63.0280666669" lon="9.27929166707">
		<tag k="name" v="Gåstjønnmoen" />
		<tag k="place" v="locality" />
		<tag k="ssr:stedsnr" v="340273" />
	</node>
	<node id="-77204" lat="63.1322111138" lon="9.22411110285">
		<tag k="name" v="Vargtelet" />
		<tag k="place" v="locality" />
		<tag k="ssr:stedsnr" v="340186" />
	</node>
	<node id="-77203" lat="63.0741583333" lon="9.25574722412">
		<tag k="name" v="Småslågdin" />
		<tag k="natural" v="slope" />
		<tag k="place" v="locality" />
		<tag k="ssr:stedsnr" v="340184" />
	</node>
	<node id="-77201" lat="63.1551527753" lon="9.21491111244">
		<tag k="name" v="Kleiva" />
		<tag k="natural" v="valley" />
		<tag k="place" v="locality" />
		<tag k="ssr:stedsnr" v="340178" />
	</node>
	<node id="-77200" lat="63.0507694425" lon="9.26315832922">
		<tag k="name" v="Beitaligreiva" />
		<tag k="natural" v="slope" />
		<tag k="place" v="locality" />
		<tag k="ssr:stedsnr" v="340121" />
	</node>
	<node id="-77199" lat="62.9426361135" lon="9.36919444228">
		<tag k="name" v="Storhaugen" />
		<tag k="natural" v="hill" />
		<tag k="place" v="locality" />
		<tag k="ssr:stedsnr" v="340073" />
	</node>
	<node id="-77197" lat="62.9932361102" lon="9.34101666836">
		<tag k="name" v="Kvenngrøkroken" />
		<tag k="natural" v="slope" />
		<tag k="place" v="locality" />
		<tag k="ssr:stedsnr" v="340066" />
	</node>
	<node id="-77196" lat="62.9933611123" lon="9.35859999377">
		<tag k="name" v="Solbrona" />
		<tag k="natural" v="hill" />
		<tag k="place" v="locality" />
		<tag k="ssr:stedsnr" v="340064" />
	</node>
	<node id="-77194" lat="62.9566500032" lon="9.36164167415">
		<tag k="fixme" v="consider natural=peak for the most distinct mountains in the district" />
		<tag k="name" v="Høgtelet" />
		<tag k="natural" v="hill" />
		<tag k="place" v="locality" />
		<tag k="ssr:stedsnr" v="340049" />
	</node>
	<node id="-77193" lat="62.9561222181" lon="9.12380833023">
		<tag k="name" v="Halsen" />
		<tag k="natural" v="ridge" />
		<tag k="place" v="locality" />
		<tag k="ssr:stedsnr" v="340048" />
	</node>
	<node id="-77192" lat="62.94579722" lon="9.13891666478">
		<tag k="name" v="Gråhauglia" />
		<tag k="natural" v="slope" />
		<tag k="place" v="locality" />
		<tag k="ssr:stedsnr" v="340041" />
	</node>
	<node id="-77190" lat="63.0387666656" lon="9.28402499465">
		<tag k="fixme" v="consider natural=peak for the most distinct mountains in the district" />
		<tag k="name" v="Espåsen" />
		<tag k="natural" v="hill" />
		<tag k="place" v="locality" />
		<tag k="ssr:stedsnr" v="340019" />
	</node>
	<node id="-77188" lat="63.0441833348" lon="9.11517500354">
		<tag k="name" v="Svorkakammen" />
		<tag k="natural" v="ridge" />
		<tag k="place" v="locality" />
		<tag k="ssr:stedsnr" v="339941" />
	</node>
	<node id="-77185" lat="63.0284833349" lon="9.20261388969">
		<tag k="name" v="Høgstoslættet" />
		<tag k="place" v="locality" />
		<tag k="ssr:stedsnr" v="339584" />
	</node>
	<node id="-77184" lat="63.012933329" lon="9.20259443516">
		<tag k="name" v="Bolmseterlia" />
		<tag k="natural" v="slope" />
		<tag k="place" v="locality" />
		<tag k="ssr:stedsnr" v="339401" />
	</node>
	<node id="-77183" lat="63.0686972245" lon="9.24955277208">
		<tag k="name" v="Høghaugen" />
		<tag k="natural" v="hill" />
		<tag k="place" v="locality" />
		<tag k="ssr:stedsnr" v="339235" />
	</node>
	<node id="-77182" lat="63.0655888882" lon="9.2691416744">
		<tag k="name" v="Skaret" />
		<tag k="natural" v="valley" />
		<tag k="place" v="locality" />
		<tag k="ssr:stedsnr" v="339232" />
	</node>
	<node id="-77181" lat="63.1139388933" lon="9.23269999657">
		<tag k="name" v="Høyløskaret" />
		<tag k="natural" v="valley" />
		<tag k="place" v="locality" />
		<tag k="ssr:stedsnr" v="339093" />
	</node>
	<node id="-77180" lat="62.9559305565" lon="9.13296667228">
		<tag k="name" v="Stakkholet" />
		<tag k="natural" v="valley" />
		<tag k="place" v="locality" />
		<tag k="ssr:stedsnr" v="339019" />
	</node>
	<node id="-77179" lat="63.0900166693" lon="9.17697222695">
		<tag k="name" v="Småkløftin" />
		<tag k="natural" v="valley" />
		<tag k="place" v="locality" />
		<tag k="ssr:stedsnr" v="338030" />
	</node>
	<node id="-77178" lat="63.0997111121" lon="9.23521943722">
		<tag k="name" v="Geilen" />
		<tag k="natural" v="slope" />
		<tag k="place" v="locality" />
		<tag k="ssr:stedsnr" v="338014" />
	</node>
	<node id="-77172" lat="63.0999833303" lon="9.10697500103">
		<tag k="fixme" v="consider natural=peak for the most distinct mountains in the district" />
		<tag k="name" v="Beinstigtela" />
		<tag k="natural" v="hill" />
		<tag k="place" v="locality" />
		<tag k="ssr:stedsnr" v="327488" />
	</node>
	<node id="-77171" lat="62.9836472221" lon="9.28807777753">
		<tag k="name" v="Folddalsråket" />
		<tag k="natural" v="slope" />
		<tag k="place" v="locality" />
		<tag k="ssr:stedsnr" v="327425" />
	</node>
	<node id="-77170" lat="62.9958055573" lon="9.25223055824">
		<tag k="name" v="Grisolaholet" />
		<tag k="natural" v="hill" />
		<tag k="place" v="locality" />
		<tag k="ssr:stedsnr" v="327421" />
	</node>
	<node id="-77169" lat="63.0123527769" lon="9.29626111765">
		<tag k="name" v="Nonsdalen" />
		<tag k="natural" v="valley" />
		<tag k="place" v="locality" />
		<tag k="ssr:stedsnr" v="328042" />
	</node>
	<node id="-77167" lat="63.1182833376" lon="9.17457223155">
		<tag k="fixme" v="consider natural=peak for the most distinct mountains in the district" />
		<tag k="name" v="Fagerlifjellet" />
		<tag k="natural" v="hill" />
		<tag k="place" v="locality" />
		<tag k="ssr:stedsnr" v="323477" />
	</node>
	<node id="-77157" lat="62.9720055528" lon="9.1420805461">
		<tag k="name" v="Bjørnadalen" />
		<tag k="natural" v="valley" />
		<tag k="place" v="locality" />
		<tag k="ssr:stedsnr" v="316508" />
	</node>
	<node id="-77155" lat="62.9089694428" lon="9.35524445412">
		<tag k="fixme" v="consider natural=peak for the most distinct mountains in the district" />
		<tag k="name" v="Middagstelet" />
		<tag k="natural" v="hill" />
		<tag k="place" v="locality" />
		<tag k="ssr:stedsnr" v="316274" />
	</node>
	<node id="-77149" lat="63.1082027759" lon="9.26986666933">
		<tag k="fixme" v="consider natural=peak for the most distinct mountains in the district" />
		<tag k="name" v="Åsen" />
		<tag k="natural" v="hill" />
		<tag k="place" v="locality" />
		<tag k="ssr:stedsnr" v="315449" />
	</node>
	<node id="-77136" lat="63.1009027736" lon="9.42228888309">
		<tag k="name" v="Storholtkleiva" />
		<tag k="place" v="locality" />
		<tag k="ssr:stedsnr" v="285174" />
	</node>
	<node id="-77133" lat="63.1049472228" lon="9.41278611856">
		<tag k="name" v="Kuhaugen" />
		<tag k="natural" v="hill" />
		<tag k="place" v="locality" />
		<tag k="ssr:stedsnr" v="285247" />
	</node>
	<node id="-77128" lat="63.0616750023" lon="9.28524165893">
		<tag k="name" v="Marikåpråa" />
		<tag k="natural" v="valley" />
		<tag k="place" v="locality" />
		<tag k="ssr:stedsnr" v="281904" />
	</node>
	<node id="-77127" lat="63.0655916708" lon="9.27450277712">
		<tag k="fixme" v="consider natural=peak for the most distinct mountains in the district" />
		<tag k="name" v="Sagåsen" />
		<tag k="natural" v="hill" />
		<tag k="place" v="locality" />
		<tag k="ssr:stedsnr" v="281897" />
	</node>
	<node id="-77123" lat="63.0785166679" lon="9.41235278502">
		<tag k="name" v="Tiådalen" />
		<tag k="natural" v="valley" />
		<tag k="place" v="locality" />
		<tag k="ssr:stedsnr" v="281735" />
	</node>
	<node id="-77122" lat="63.0365333302" lon="9.44431666356">
		<tag k="name" v="Storslættet" />
		<tag k="place" v="locality" />
		<tag k="ssr:stedsnr" v="281672" />
	</node>
	<node id="-77121" lat="63.0280194402" lon="9.4195916578">
		<tag k="name" v="Ospaslættet" />
		<tag k="place" v="locality" />
		<tag k="ssr:stedsnr" v="281668" />
	</node>
	<node id="-77120" lat="63.0211916708" lon="9.48877500704">
		<tag k="name" v="Furutobaklia" />
		<tag k="natural" v="slope" />
		<tag k="place" v="locality" />
		<tag k="ssr:stedsnr" v="281665" />
	</node>
	<node id="-77119" lat="63.0345416665" lon="9.45977499264">
		<tag k="name" v="Årbuslettet" />
		<tag k="place" v="locality" />
		<tag k="ssr:stedsnr" v="281659" />
	</node>
	<node id="-77117" lat="62.9992972266" lon="9.40995278436">
		<tag k="fixme" v="consider natural=peak for the most distinct mountains in the district" />
		<tag k="name" v="Langtjønnåsen" />
		<tag k="natural" v="hill" />
		<tag k="place" v="locality" />
		<tag k="ssr:stedsnr" v="281400" />
	</node>
	<node id="-77116" lat="63.0518638931" lon="9.40530833989">
		<tag k="name" v="Storhaugen" />
		<tag k="natural" v="hill" />
		<tag k="place" v="locality" />
		<tag k="ssr:stedsnr" v="281299" />
	</node>
	<node id="-77115" lat="62.9841611067" lon="9.47960833659">
		<tag k="name" v="Seterbuslettet" />
		<tag k="place" v="locality" />
		<tag k="ssr:stedsnr" v="281135" />
	</node>
	<node id="-77113" lat="62.9906388893" lon="9.45504999748">
		<tag k="name" v="Storslettet" />
		<tag k="place" v="locality" />
		<tag k="ssr:stedsnr" v="281115" />
	</node>
	<node id="-77108" lat="63.2030749975" lon="9.35024722735">
		<tag k="name" v="Vollaliene" />
		<tag k="natural" v="slope" />
		<tag k="place" v="locality" />
		<tag k="ssr:stedsnr" v="281070" />
	</node>
	<node id="-77107" lat="63.1935722231" lon="9.31109166004">
		<tag k="name" v="Dyrlia" />
		<tag k="natural" v="slope" />
		<tag k="place" v="locality" />
		<tag k="ssr:stedsnr" v="281069" />
	</node>
	<node id="-77101" lat="63.0893694443" lon="9.30531666405">
		<tag k="name" v="Urdalen" />
		<tag k="natural" v="valley" />
		<tag k="place" v="locality" />
		<tag k="ssr:stedsnr" v="280975" />
	</node>
	<node id="-77099" lat="63.0877055548" lon="9.35215833097">
		<tag k="name" v="Kollalia" />
		<tag k="natural" v="slope" />
		<tag k="place" v="locality" />
		<tag k="ssr:stedsnr" v="280956" />
	</node>
	<node id="-77097" lat="62.9863249995" lon="9.15869444671">
		<tag k="name" v="Heimeseterlia" />
		<tag k="natural" v="slope" />
		<tag k="place" v="locality" />
		<tag k="ssr:stedsnr" v="280579" />
	</node>
	<node id="-77095" lat="63.0128361093" lon="9.30532499302">
		<tag k="name" v="Sjurdalsbrona" />
		<tag k="natural" v="ridge" />
		<tag k="place" v="locality" />
		<tag k="ssr:stedsnr" v="280377" />
	</node>
	<node id="-77094" lat="63.0151194433" lon="9.29208611274">
		<tag k="name" v="Baklia" />
		<tag k="natural" v="slope" />
		<tag k="place" v="locality" />
		<tag k="ssr:stedsnr" v="280372" />
	</node>
	<node id="-77093" lat="63.0375000008" lon="9.31368610457">
		<tag k="name" v="Stormyrhaugen" />
		<tag k="natural" v="hill" />
		<tag k="place" v="locality" />
		<tag k="ssr:stedsnr" v="280236" />
	</node>
	<node id="-77092" lat="63.0214638926" lon="9.29020833547">
		<tag k="name" v="Bekkjabaklia" />
		<tag k="natural" v="slope" />
		<tag k="place" v="locality" />
		<tag k="ssr:stedsnr" v="280197" />
	</node>
	<node id="-77091" lat="63.1595555553" lon="9.17276666746">
		<tag k="fixme" v="consider natural=peak for the most distinct mountains in the district" />
		<tag k="name" v="Bartfjellet" />
		<tag k="natural" v="hill" />
		<tag k="place" v="locality" />
		<tag k="ssr:stedsnr" v="280132" />
	</node>
	<node id="-77090" lat="63.162758335" lon="9.19045834245">
		<tag k="name" v="Kinnan" />
		<tag k="place" v="locality" />
		<tag k="ssr:stedsnr" v="280130" />
	</node>
	<node id="-77087" lat="62.8374083373" lon="9.40806389319">
		<tag k="name" v="Småfjella" />
		<tag k="place" v="locality" />
		<tag k="ssr:stedsnr" v="280093" />
	</node>
	<node id="-77084" lat="62.9319166708" lon="9.15395832495">
		<tag k="fixme" v="consider natural=peak for the most distinct mountains in the district" />
		<tag k="name" v="Inner Slompen" />
		<tag k="natural" v="hill" />
		<tag k="place" v="locality" />
		<tag k="ssr:stedsnr" v="279688" />
	</node>
	<node id="-77083" lat="63.0324638846" lon="9.18114999143">
		<tag k="name" v="Middagsgreiva" />
		<tag k="natural" v="valley" />
		<tag k="place" v="locality" />
		<tag k="ssr:stedsnr" v="279623" />
	</node>
	<node id="-77081" lat="63.0145972186" lon="9.24327777995">
		<tag k="name" v="Storslættet" />
		<tag k="place" v="locality" />
		<tag k="ssr:stedsnr" v="279431" />
	</node>
	<node id="-77079" lat="62.9997972223" lon="9.24515555346">
		<tag k="name" v="Litlbølludalen" />
		<tag k="natural" v="valley" />
		<tag k="place" v="locality" />
		<tag k="ssr:stedsnr" v="279402" />
	</node>
	<node id="-77078" lat="63.0122749994" lon="9.16308889806">
		<tag k="name" v="Merralia" />
		<tag k="natural" v="slope" />
		<tag k="place" v="locality" />
		<tag k="ssr:stedsnr" v="279353" />
	</node>
	<node id="-77077" lat="63.0321333302" lon="9.26155277504">
		<tag k="name" v="Livshaugen" />
		<tag k="natural" v="hill" />
		<tag k="place" v="locality" />
		<tag k="ssr:stedsnr" v="279294" />
	</node>
	<node id="-77075" lat="63.075480557" lon="9.22717499805">
		<tag k="name" v="Skaret" />
		<tag k="natural" v="valley" />
		<tag k="place" v="locality" />
		<tag k="ssr:stedsnr" v="279189" />
	</node>
	<node id="-77074" lat="63.0586583319" lon="9.2493944519">
		<tag k="name" v="Stordalen" />
		<tag k="natural" v="valley" />
		<tag k="place" v="locality" />
		<tag k="ssr:stedsnr" v="279095" />
	</node>
	<node id="-77073" lat="63.1141777741" lon="9.26407222987">
		<tag k="fixme" v="consider natural=peak for the most distinct mountains in the district" />
		<tag k="name" v="Todalen" />
		<tag k="natural" v="hill" />
		<tag k="place" v="locality" />
		<tag k="ssr:stedsnr" v="279088" />
	</node>
	<node id="-77072" lat="63.0552388909" lon="9.15410556472">
		<tag k="name" v="Sauråket" />
		<tag k="natural" v="slope" />
		<tag k="place" v="locality" />
		<tag k="ssr:stedsnr" v="279053" />
	</node>
	<node id="-77071" lat="63.048002774" lon="9.15018055138">
		<tag k="name" v="Svevøra" />
		<tag k="place" v="locality" />
		<tag k="ssr:stedsnr" v="279051" />
	</node>
	<node id="-77068" lat="63.0438305578" lon="9.25018333432">
		<tag k="name" v="Solegga" />
		<tag k="natural" v="ridge" />
		<tag k="place" v="locality" />
		<tag k="ssr:stedsnr" v="279022" />
	</node>
	<node id="-77063" lat="63.0600972246" lon="9.10196389334">
		<tag k="name" v="Langvasslættet" />
		<tag k="place" v="locality" />
		<tag k="ssr:stedsnr" v="278993" />
	</node>
	<node id="-77061" lat="63.0975888907" lon="9.09167500157">
		<tag k="name" v="Skåkleivdalen" />
		<tag k="natural" v="valley" />
		<tag k="place" v="locality" />
		<tag k="ssr:stedsnr" v="278847" />
	</node>
	<node id="-77060" lat="63.0967277735" lon="9.11483888888">
		<tag k="name" v="Åkeren" />
		<tag k="place" v="locality" />
		<tag k="ssr:stedsnr" v="278846" />
	</node>
	<node id="-77059" lat="63.1012750028" lon="9.10588332707">
		<tag k="name" v="Småøyan" />
		<tag k="place" v="locality" />
		<tag k="ssr:stedsnr" v="278844" />
	</node>
	<node id="-77056" lat="63.1031249964" lon="9.23165556253">
		<tag k="name" v="Slættet" />
		<tag k="place" v="locality" />
		<tag k="ssr:stedsnr" v="278020" />
	</node>
	<node id="-78916" lat="62.8423119774" lon="9.40326152107">
		<tag k="name" v="Svartådalen" />
		<tag k="natural" v="valley" />
		<tag k="place" v="locality" />
		<tag k="ssr:stedsnr" v="971598" />
	</node>
	<node id="-78914" lat="63.1163194402" lon="9.42584721354">
		<tag k="name" v="Limsteindalen" />
		<tag k="natural" v="valley" />
		<tag k="place" v="locality" />
		<tag k="ssr:stedsnr" v="952293" />
	</node>
	<node id="-78908" lat="63.0768361142" lon="9.41023610896">
		<tag k="name" v="Vierskogslættet" />
		<tag k="place" v="locality" />
		<tag k="ssr:stedsnr" v="949661" />
	</node>
	<node id="-78907" lat="63.0366000009" lon="9.42167221555">
		<tag k="name" v="Fjellslættet" />
		<tag k="place" v="locality" />
		<tag k="ssr:stedsnr" v="949589" />
	</node>
	<node id="-78906" lat="63.0193083359" lon="9.47010000578">
		<tag k="name" v="Syllhaug" />
		<tag k="natural" v="hill" />
		<tag k="place" v="locality" />
		<tag k="ssr:stedsnr" v="949574" />
	</node>
	<node id="-78905" lat="63.0162111097" lon="9.43937500001">
		<tag k="name" v="Kalvhågåhaugen" />
		<tag k="natural" v="hill" />
		<tag k="place" v="locality" />
		<tag k="ssr:stedsnr" v="949560" />
	</node>
	<node id="-78904" lat="63.0146416686" lon="9.47360000012">
		<tag k="name" v="Geithaugen" />
		<tag k="natural" v="hill" />
		<tag k="place" v="locality" />
		<tag k="ssr:stedsnr" v="949151" />
	</node>
	<node id="-78903" lat="63.0937333347" lon="9.31058056344">
		<tag k="name" v="Øyalia" />
		<tag k="natural" v="slope" />
		<tag k="place" v="locality" />
		<tag k="ssr:stedsnr" v="948982" />
	</node>
	<node id="-78902" lat="63.0991305599" lon="9.33693055342">
		<tag k="name" v="Skogsletta" />
		<tag k="place" v="locality" />
		<tag k="ssr:stedsnr" v="948967" />
	</node>
	<node id="-78901" lat="63.1469305561" lon="9.33351111903">
		<tag k="name" v="Halgunsetbakken" />
		<tag k="natural" v="slope" />
		<tag k="place" v="locality" />
		<tag k="ssr:stedsnr" v="948951" />
	</node>
	<node id="-78896" lat="63.1347416683" lon="9.30533888713">
		<tag k="name" v="Almbergen" />
		<tag k="natural" v="hill" />
		<tag k="place" v="locality" />
		<tag k="ssr:stedsnr" v="948918" />
	</node>
	<node id="-78895" lat="63.004413888" lon="9.33606943618">
		<tag k="name" v="Småøyan" />
		<tag k="place" v="locality" />
		<tag k="ssr:stedsnr" v="948545" />
	</node>
	<node id="-78893" lat="63.0079527803" lon="9.49974723071">
		<tag k="name" v="Småfjelliin" />
		<tag k="natural" v="slope" />
		<tag k="place" v="locality" />
		<tag k="ssr:stedsnr" v="948478" />
	</node>
	<node id="-78892" lat="62.999488886" lon="9.47585833413">
		<tag k="name" v="Tjørnhjellhaugen" />
		<tag k="natural" v="hill" />
		<tag k="place" v="locality" />
		<tag k="ssr:stedsnr" v="948477" />
	</node>
	<node id="-78891" lat="63.0049361106" lon="9.44114167047">
		<tag k="name" v="Haukberget" />
		<tag k="natural" v="hill" />
		<tag k="place" v="locality" />
		<tag k="ssr:stedsnr" v="948445" />
	</node>
	<node id="-78890" lat="63.0160777819" lon="9.27539167112">
		<tag k="name" v="Berga" />
		<tag k="natural" v="hill" />
		<tag k="place" v="locality" />
		<tag k="ssr:stedsnr" v="948437" />
	</node>
	<node id="-78888" lat="62.9952333376" lon="9.43941110634">
		<tag k="name" v="Åsbekkøyan" />
		<tag k="place" v="locality" />
		<tag k="ssr:stedsnr" v="948431" />
	</node>
	<node id="-78886" lat="63.011594444" lon="9.28897778401">
		<tag k="name" v="Nonsberga" />
		<tag k="natural" v="hill" />
		<tag k="place" v="locality" />
		<tag k="ssr:stedsnr" v="948421" />
	</node>
	<node id="-78885" lat="63.0062722256" lon="9.44478332527">
		<tag k="name" v="Tittbekkhaugen" />
		<tag k="natural" v="hill" />
		<tag k="place" v="locality" />
		<tag k="ssr:stedsnr" v="948420" />
	</node>
	<node id="-78884" lat="63.0108861148" lon="9.28609166669">
		<tag k="name" v="Nonsbergskallen" />
		<tag k="natural" v="hill" />
		<tag k="place" v="locality" />
		<tag k="ssr:stedsnr" v="948417" />
	</node>
	<node id="-78881" lat="63.0372805581" lon="9.3251027754">
		<tag k="name" v="Storurdalen" />
		<tag k="natural" v="valley" />
		<tag k="place" v="locality" />
		<tag k="ssr:stedsnr" v="948318" />
	</node>
	<node id="-78879" lat="63.0235249987" lon="9.29515000052">
		<tag k="fixme" v="consider natural=peak for the most distinct mountains in the district" />
		<tag k="name" v="Åsen" />
		<tag k="natural" v="hill" />
		<tag k="place" v="locality" />
		<tag k="ssr:stedsnr" v="948279" />
	</node>
	<node id="-78874" lat="62.843052779" lon="9.41173333642">
		<tag k="name" v="Tjønnhaugen" />
		<tag k="natural" v="hill" />
		<tag k="place" v="locality" />
		<tag k="ssr:stedsnr" v="948129" />
	</node>
	<node id="-78873" lat="62.8992611107" lon="9.3923527687">
		<tag k="name" v="Porkryggen" />
		<tag k="natural" v="ridge" />
		<tag k="place" v="locality" />
		<tag k="ssr:stedsnr" v="948121" />
	</node>
	<node id="-78872" lat="62.8541444414" lon="9.42011389849">
		<tag k="name" v="Langfjellsida" />
		<tag k="place" v="locality" />
		<tag k="ssr:stedsnr" v="948113" />
	</node>
	<node id="-78869" lat="63.111155558" lon="9.29274721534">
		<tag k="fixme" v="consider natural=peak for the most distinct mountains in the district" />
		<tag k="name" v="Liabronåsen" />
		<tag k="natural" v="hill" />
		<tag k="place" v="locality" />
		<tag k="ssr:stedsnr" v="948055" />
	</node>
	<node id="-78865" lat="63.054608335" lon="9.29617499845">
		<tag k="name" v="Isvassbaklia" />
		<tag k="natural" v="slope" />
		<tag k="place" v="locality" />
		<tag k="ssr:stedsnr" v="948007" />
	</node>
	<node id="-78863" lat="63.1289416666" lon="9.11905278346">
		<tag k="fixme" v="consider natural=peak for the most distinct mountains in the district" />
		<tag k="name" v="Geitskardfjellet" />
		<tag k="natural" v="hill" />
		<tag k="place" v="locality" />
		<tag k="ssr:stedsnr" v="947894" />
	</node>
	<node id="-78860" lat="63.0731472235" lon="9.21472222892">
		<tag k="name" v="Jamtøya" />
		<tag k="place" v="locality" />
		<tag k="ssr:stedsnr" v="947216" />
	</node>
	<node id="-78859" lat="63.0726833341" lon="9.23744166881">
		<tag k="name" v="Skaraberget" />
		<tag k="natural" v="hill" />
		<tag k="place" v="locality" />
		<tag k="ssr:stedsnr" v="947212" />
	</node>
	<node id="-78858" lat="63.0391333301" lon="9.18828611831">
		<tag k="name" v="Sjellalia" />
		<tag k="natural" v="slope" />
		<tag k="place" v="locality" />
		<tag k="ssr:stedsnr" v="947205" />
	</node>
	<node id="-78855" lat="63.0645944468" lon="9.149444439">
		<tag k="name" v="Grytkleiva" />
		<tag k="natural" v="valley" />
		<tag k="place" v="locality" />
		<tag k="ssr:stedsnr" v="947126" />
	</node>
	<node id="-78854" lat="62.8372583322" lon="9.34888333959">
		<tag k="name" v="Ner Svartådalen" />
		<tag k="natural" v="valley" />
		<tag k="place" v="locality" />
		<tag k="ssr:stedsnr" v="947072" />
	</node>
	<node id="-78851" lat="63.0495888894" lon="9.18604167233">
		<tag k="name" v="Prestøya" />
		<tag k="place" v="locality" />
		<tag k="ssr:stedsnr" v="947044" />
	</node>
	<node id="-78850" lat="63.0861166697" lon="9.21546667056">
		<tag k="name" v="Holtan" />
		<tag k="natural" v="slope" />
		<tag k="place" v="locality" />
		<tag k="ssr:stedsnr" v="947018" />
	</node>
	<node id="-78847" lat="63.096247221" lon="9.06867222034">
		<tag k="name" v="Fjelnvasslia" />
		<tag k="natural" v="slope" />
		<tag k="place" v="locality" />
		<tag k="ssr:stedsnr" v="946835" />
	</node>
	<node id="-78844" lat="63.026472219" lon="9.16773332551">
		<tag k="name" v="Tjønnslætthaugen" />
		<tag k="natural" v="hill" />
		<tag k="place" v="locality" />
		<tag k="ssr:stedsnr" v="946570" />
	</node>
	<node id="-78843" lat="63.0009472254" lon="9.25095278557">
		<tag k="name" v="Gammelseterdalen" />
		<tag k="natural" v="valley" />
		<tag k="place" v="locality" />
		<tag k="ssr:stedsnr" v="946389" />
	</node>
	<node id="-78840" lat="63.0311583376" lon="9.22548888992">
		<tag k="name" v="Somundslættet" />
		<tag k="place" v="locality" />
		<tag k="ssr:stedsnr" v="946236" />
	</node>
	<node id="-78839" lat="63.1084361135" lon="9.26972500888">
		<tag k="fixme" v="consider natural=peak for the most distinct mountains in the district" />
		<tag k="name" v="Liåsen" />
		<tag k="natural" v="hill" />
		<tag k="place" v="locality" />
		<tag k="ssr:stedsnr" v="946097" />
	</node>
	<node id="-78837" lat="63.1017611108" lon="9.19756944837">
		<tag k="name" v="Nestuskaret" />
		<tag k="natural" v="valley" />
		<tag k="place" v="locality" />
		<tag k="ssr:stedsnr" v="946027" />
	</node>
	<node id="-78835" lat="63.0846250023" lon="9.25364445271">
		<tag k="name" v="Baklihaugen" />
		<tag k="natural" v="hill" />
		<tag k="place" v="locality" />
		<tag k="ssr:stedsnr" v="946016" />
	</node>
	<node id="-78833" lat="63.0391416637" lon="9.3558388898">
		<tag k="name" v="Holtskaret" />
		<tag k="natural" v="valley" />
		<tag k="place" v="locality" />
		<tag k="ssr:stedsnr" v="935761" />
	</node>
	<node id="-78831" lat="62.9163166702" lon="9.29529167239">
		<tag k="name" v="Solveggin" />
		<tag k="natural" v="slope" />
		<tag k="place" v="locality" />
		<tag k="ssr:stedsnr" v="935745" />
	</node>
	<node id="-78829" lat="62.9924444457" lon="9.36514167235">
		<tag k="name" v="Setermarka" />
		<tag k="natural" v="valley" />
		<tag k="place" v="locality" />
		<tag k="ssr:stedsnr" v="935289" />
	</node>
	<node id="-78828" lat="62.8906722258" lon="9.37162499876">
		<tag k="name" v="Biessendurrie" />
		<tag k="name:sma" v="Biessendurrie" />
		<tag k="natural" v="valley" />
		<tag k="place" v="locality" />
		<tag k="ssr:stedsnr" v="935135" />
	</node>
	<node id="-78813" lat="62.9816027797" lon="9.46707499302">
		<tag k="fixme" v="consider natural=peak for the most distinct mountains in the district" />
		<tag k="name" v="Storslættkjølen" />
		<tag k="natural" v="hill" />
		<tag k="place" v="locality" />
		<tag k="ssr:stedsnr" v="923216" />
	</node>
	<node id="-78809" lat="63.1457388927" lon="9.03938333372">
		<tag k="fixme" v="consider natural=peak for the most distinct mountains in the district" />
		<tag k="name" v="Anderslifjellet" />
		<tag k="natural" v="hill" />
		<tag k="place" v="locality" />
		<tag k="ssr:stedsnr" v="922700" />
	</node>
	<node id="-78808" lat="63.1291881383" lon="9.11783093329">
		<tag k="fixme" v="consider natural=peak for the most distinct mountains in the district" />
		<tag k="name" v="Øverfjellet" />
		<tag k="natural" v="hill" />
		<tag k="place" v="locality" />
		<tag k="ssr:stedsnr" v="922678" />
	</node>
	<node id="-78807" lat="63.0518527808" lon="9.13776944568">
		<tag k="name" v="Tørsetlia" />
		<tag k="natural" v="slope" />
		<tag k="place" v="locality" />
		<tag k="ssr:stedsnr" v="922594" />
	</node>
	<node id="-78806" lat="63.0872583369" lon="9.23151388257">
		<tag k="name" v="Langmyrhaugen" />
		<tag k="natural" v="hill" />
		<tag k="place" v="locality" />
		<tag k="ssr:stedsnr" v="922385" />
	</node>
	<node id="-78803" lat="63.0212305587" lon="9.44980554874">
		<tag k="fixme" v="consider natural=peak for the most distinct mountains in the district" />
		<tag k="name" v="Kinna" />
		<tag k="natural" v="hill" />
		<tag k="place" v="locality" />
		<tag k="ssr:stedsnr" v="922314" />
	</node>
	<node id="-78799" lat="62.932330559" lon="9.28926667622">
		<tag k="name" v="Trollhøttråa" />
		<tag k="natural" v="valley" />
		<tag k="place" v="locality" />
		<tag k="ssr:stedsnr" v="922216" />
	</node>
	<node id="-78797" lat="62.9674249994" lon="9.44526667578">
		<tag k="name" v="Storgreva" />
		<tag k="natural" v="valley" />
		<tag k="place" v="locality" />
		<tag k="ssr:stedsnr" v="922131" />
	</node>
	<node id="-78796" lat="63.1668444476" lon="9.34306944948">
		<tag k="fixme" v="consider natural=peak for the most distinct mountains in the district" />
		<tag k="name" v="Torfjellet" />
		<tag k="natural" v="hill" />
		<tag k="place" v="locality" />
		<tag k="ssr:stedsnr" v="909999" />
	</node>
	<node id="-78794" lat="62.8569777781" lon="9.33988333435">
		<tag k="name" v="Litlhelvetet" />
		<tag k="natural" v="valley" />
		<tag k="place" v="locality" />
		<tag k="ssr:stedsnr" v="878903" />
	</node>
	<node id="-78791" lat="63.0929388927" lon="9.37630277883">
		<tag k="fixme" v="consider natural=peak for the most distinct mountains in the district" />
		<tag k="name" v="Svarthåmmåren" />
		<tag k="natural" v="hill" />
		<tag k="place" v="locality" />
		<tag k="ssr:stedsnr" v="875752" />
	</node>
	<node id="-78788" lat="63.1380277822" lon="9.28563888519">
		<tag k="name" v="Knebba" />
		<tag k="natural" v="hill" />
		<tag k="place" v="locality" />
		<tag k="ssr:stedsnr" v="873452" />
	</node>
	<node id="-78787" lat="62.9479416705" lon="9.16554167385">
		<tag k="name" v="Greva" />
		<tag k="natural" v="valley" />
		<tag k="place" v="locality" />
		<tag k="ssr:stedsnr" v="873447" />
	</node>
	<node id="-78783" lat="63.0318083367" lon="9.13077499806">
		<tag k="name" v="Aunliin" />
		<tag k="natural" v="slope" />
		<tag k="place" v="locality" />
		<tag k="ssr:stedsnr" v="862659" />
	</node>
	<node id="-78781" lat="63.1527805525" lon="9.3100527751">
		<tag k="fixme" v="consider natural=peak for the most distinct mountains in the district" />
		<tag k="name" v="Langskarven" />
		<tag k="natural" v="hill" />
		<tag k="place" v="locality" />
		<tag k="ssr:stedsnr" v="862488" />
	</node>
	<node id="-78779" lat="63.1149138855" lon="9.35947778595">
		<tag k="fixme" v="consider natural=peak for the most distinct mountains in the district" />
		<tag k="name" v="Høgåsen" />
		<tag k="natural" v="hill" />
		<tag k="place" v="locality" />
		<tag k="ssr:stedsnr" v="862457" />
	</node>
	<node id="-78776" lat="63.0693527737" lon="9.23818056394">
		<tag k="fixme" v="consider natural=peak for the most distinct mountains in the district" />
		<tag k="name" v="Høglia" />
		<tag k="natural" v="hill" />
		<tag k="place" v="locality" />
		<tag k="ssr:stedsnr" v="862394" />
	</node>
	<node id="-78775" lat="63.0436805593" lon="9.40852499151">
		<tag k="fixme" v="consider natural=peak for the most distinct mountains in the district" />
		<tag k="name" v="Stokkfjellet" />
		<tag k="natural" v="hill" />
		<tag k="place" v="locality" />
		<tag k="ssr:stedsnr" v="862374" />
	</node>
	<node id="-78771" lat="63.015886107" lon="9.31612499595">
		<tag k="name" v="Bjørnalia" />
		<tag k="natural" v="valley" />
		<tag k="place" v="locality" />
		<tag k="ssr:stedsnr" v="862341" />
	</node>
	<node id="-78767" lat="63.1961944487" lon="9.27951111121">
		<tag k="name" v="Melahaugen" />
		<tag k="natural" v="hill" />
		<tag k="place" v="locality" />
		<tag k="ssr:stedsnr" v="862588" />
	</node>
	<node id="-78766" lat="63.1459055593" lon="9.28605277642">
		<tag k="name" v="Austre Fossdalen" />
		<tag k="natural" v="valley" />
		<tag k="place" v="locality" />
		<tag k="ssr:stedsnr" v="862531" />
	</node>
	<node id="-78762" lat="63.1437083364" lon="9.43616665941">
		<tag k="name" v="Geilhaugen" />
		<tag k="natural" v="hill" />
		<tag k="place" v="locality" />
		<tag k="ssr:stedsnr" v="832941" />
	</node>
	<node id="-78761" lat="63.0850472247" lon="9.41869721345">
		<tag k="name" v="Storbekklia" />
		<tag k="natural" v="slope" />
		<tag k="place" v="locality" />
		<tag k="ssr:stedsnr" v="832197" />
	</node>
	<node id="-78760" lat="63.0839111067" lon="9.43425555735">
		<tag k="name" v="Kløftan" />
		<tag k="natural" v="valley" />
		<tag k="place" v="locality" />
		<tag k="ssr:stedsnr" v="832195" />
	</node>
	<node id="-78750" lat="63.1406444403" lon="9.30131944369">
		<tag k="name" v="Okslia" />
		<tag k="natural" v="slope" />
		<tag k="place" v="locality" />
		<tag k="ssr:stedsnr" v="827904" />
	</node>
	<node id="-78749" lat="63.0686722214" lon="9.27991666605">
		<tag k="name" v="Guruberga" />
		<tag k="natural" v="hill" />
		<tag k="place" v="locality" />
		<tag k="ssr:stedsnr" v="827891" />
	</node>
	<node id="-78747" lat="63.0649833325" lon="9.41043333626">
		<tag k="name" v="Dalslætthaugen" />
		<tag k="natural" v="hill" />
		<tag k="place" v="locality" />
		<tag k="ssr:stedsnr" v="827768" />
	</node>
	<node id="-78746" lat="63.0655555529" lon="9.4264166734">
		<tag k="name" v="Bergslættet" />
		<tag k="place" v="locality" />
		<tag k="ssr:stedsnr" v="827766" />
	</node>
	<node id="-78745" lat="63.0079972258" lon="9.3592638985">
		<tag k="name" v="Slættet" />
		<tag k="place" v="locality" />
		<tag k="ssr:stedsnr" v="827515" />
	</node>
	<node id="-78743" lat="63.0022361073" lon="9.40916666156">
		<tag k="name" v="Lyngslettdalen" />
		<tag k="natural" v="valley" />
		<tag k="place" v="locality" />
		<tag k="ssr:stedsnr" v="827410" />
	</node>
	<node id="-78742" lat="63.0031916643" lon="9.39727778332">
		<tag k="name" v="Granslettlia" />
		<tag k="natural" v="slope" />
		<tag k="place" v="locality" />
		<tag k="ssr:stedsnr" v="827406" />
	</node>
	<node id="-78740" lat="63.0153388877" lon="9.48458332678">
		<tag k="name" v="Tømmerdalen" />
		<tag k="natural" v="valley" />
		<tag k="place" v="locality" />
		<tag k="ssr:stedsnr" v="827157" />
	</node>
	<node id="-78739" lat="62.9904333363" lon="9.43312221505">
		<tag k="name" v="Tytlinghaugen" />
		<tag k="natural" v="hill" />
		<tag k="place" v="locality" />
		<tag k="ssr:stedsnr" v="827123" />
	</node>
	<node id="-78733" lat="63.1202722246" lon="9.30936110438">
		<tag k="name" v="Merkesliin" />
		<tag k="natural" v="slope" />
		<tag k="place" v="locality" />
		<tag k="ssr:stedsnr" v="827033" />
	</node>
	<node id="-78731" lat="63.0518611116" lon="9.30465277366">
		<tag k="name" v="Styggdalen" />
		<tag k="natural" v="valley" />
		<tag k="place" v="locality" />
		<tag k="ssr:stedsnr" v="827002" />
	</node>
	<node id="-78726" lat="62.997422221" lon="9.305155565">
		<tag k="name" v="Litlbaklia" />
		<tag k="natural" v="slope" />
		<tag k="place" v="locality" />
		<tag k="ssr:stedsnr" v="826452" />
	</node>
	<node id="-78725" lat="63.0008833367" lon="9.27287777238">
		<tag k="name" v="Kjølslættet" />
		<tag k="place" v="locality" />
		<tag k="ssr:stedsnr" v="826450" />
	</node>
	<node id="-78724" lat="63.0006500003" lon="9.37100000231">
		<tag k="fixme" v="consider natural=peak for the most distinct mountains in the district" />
		<tag k="name" v="Raudfjellet" />
		<tag k="natural" v="hill" />
		<tag k="place" v="locality" />
		<tag k="ssr:stedsnr" v="826416" />
	</node>
	<node id="-78723" lat="63.0150472258" lon="9.314122221">
		<tag k="name" v="Risbrulia" />
		<tag k="natural" v="slope" />
		<tag k="place" v="locality" />
		<tag k="ssr:stedsnr" v="826400" />
	</node>
	<node id="-78722" lat="63.0169777803" lon="9.15499999064">
		<tag k="name" v="Grådalshaugen" />
		<tag k="natural" v="hill" />
		<tag k="place" v="locality" />
		<tag k="ssr:stedsnr" v="826334" />
	</node>
	<node id="-78716" lat="63.0766916673" lon="9.23174166118">
		<tag k="name" v="Høghaugen" />
		<tag k="natural" v="hill" />
		<tag k="place" v="locality" />
		<tag k="ssr:stedsnr" v="826188" />
	</node>
	<node id="-78714" lat="63.1369638866" lon="9.19654722167">
		<tag k="fixme" v="consider natural=peak for the most distinct mountains in the district" />
		<tag k="name" v="Jørenskarfjell" />
		<tag k="natural" v="hill" />
		<tag k="place" v="locality" />
		<tag k="ssr:stedsnr" v="826180" />
	</node>
	<node id="-78712" lat="62.9131499989" lon="9.38893055633">
		<tag k="name" v="Kvenndalen" />
		<tag k="natural" v="valley" />
		<tag k="place" v="locality" />
		<tag k="ssr:stedsnr" v="826081" />
	</node>
	<node id="-78709" lat="63.0603555513" lon="9.18781944129">
		<tag k="name" v="Auster Dalen" />
		<tag k="natural" v="valley" />
		<tag k="place" v="locality" />
		<tag k="ssr:stedsnr" v="826063" />
	</node>
	<node id="-78706" lat="63.1342833338" lon="9.07168333189">
		<tag k="name" v="Fosshaugen" />
		<tag k="natural" v="hill" />
		<tag k="place" v="locality" />
		<tag k="ssr:stedsnr" v="826029" />
	</node>
	<node id="-78705" lat="63.0455972256" lon="9.22499167354">
		<tag k="name" v="Prestgardslættet" />
		<tag k="natural" v="slope" />
		<tag k="place" v="locality" />
		<tag k="ssr:stedsnr" v="826023" />
	</node>
	<node id="-78703" lat="63.0339305571" lon="9.11148055643">
		<tag k="name" v="Ytter Aunbakken" />
		<tag k="natural" v="slope" />
		<tag k="place" v="locality" />
		<tag k="ssr:stedsnr" v="825915" />
	</node>
	<node id="-78702" lat="63.0990166711" lon="9.04814166021">
		<tag k="fixme" v="consider natural=peak for the most distinct mountains in the district" />
		<tag k="name" v="Fagerfjellet" />
		<tag k="natural" v="hill" />
		<tag k="place" v="locality" />
		<tag k="ssr:stedsnr" v="825835" />
	</node>
	<node id="-78699" lat="63.0336083306" lon="9.19611666771">
		<tag k="name" v="Litlslætthaugen" />
		<tag k="natural" v="hill" />
		<tag k="place" v="locality" />
		<tag k="ssr:stedsnr" v="825578" />
	</node>
	<node id="-78697" lat="63.0374916669" lon="9.16595000654">
		<tag k="name" v="Grøndalen" />
		<tag k="natural" v="valley" />
		<tag k="place" v="locality" />
		<tag k="ssr:stedsnr" v="825356" />
	</node>
	<node id="-78694" lat="63.0808222206" lon="9.26936388672">
		<tag k="name" v="Bjønnslættet" />
		<tag k="place" v="locality" />
		<tag k="ssr:stedsnr" v="825178" />
	</node>
	<node id="-78693" lat="63.0641666624" lon="9.25242500849">
		<tag k="name" v="Møssmørkleiva" />
		<tag k="natural" v="valley" />
		<tag k="place" v="locality" />
		<tag k="ssr:stedsnr" v="825174" />
	</node>
	<node id="-78690" lat="63.1109194474" lon="9.22411388257">
		<tag k="name" v="Grashølu" />
		<tag k="natural" v="valley" />
		<tag k="place" v="locality" />
		<tag k="ssr:stedsnr" v="825051" />
	</node>
	<node id="-78689" lat="62.9324472229" lon="9.28215556155">
		<tag k="name" v="Rypfjellhalsen" />
		<tag k="place" v="locality" />
		<tag k="ssr:stedsnr" v="825038" />
	</node>
	<node id="-78688" lat="62.9778666687" lon="9.13843610917">
		<tag k="name" v="Hungerhaugan" />
		<tag k="natural" v="hill" />
		<tag k="place" v="locality" />
		<tag k="ssr:stedsnr" v="825017" />
	</node>
	<node id="-78686" lat="63.0916944474" lon="9.18329444829">
		<tag k="name" v="Storkløftin" />
		<tag k="natural" v="valley" />
		<tag k="place" v="locality" />
		<tag k="ssr:stedsnr" v="824048" />
	</node>
	<node id="-78685" lat="63.1019888924" lon="9.19987499964">
		<tag k="fixme" v="consider natural=peak for the most distinct mountains in the district" />
		<tag k="name" v="Furuhaugfjellet" />
		<tag k="natural" v="hill" />
		<tag k="place" v="locality" />
		<tag k="ssr:stedsnr" v="824043" />
	</node>
	<node id="-78684" lat="63.0839027743" lon="9.16279444469">
		<tag k="fixme" v="consider natural=peak for the most distinct mountains in the district" />
		<tag k="name" v="Fjellibrona" />
		<tag k="natural" v="hill" />
		<tag k="place" v="locality" />
		<tag k="ssr:stedsnr" v="824036" />
	</node>
	<node id="-78683" lat="63.0917833374" lon="9.23134721838">
		<tag k="name" v="Ytter Åøya" />
		<tag k="place" v="locality" />
		<tag k="ssr:stedsnr" v="824021" />
	</node>
	<node id="-78678" lat="62.9926916677" lon="9.25263889233">
		<tag k="fixme" v="consider natural=peak for the most distinct mountains in the district" />
		<tag k="name" v="Gråknubben" />
		<tag k="natural" v="hill" />
		<tag k="place" v="locality" />
		<tag k="ssr:stedsnr" v="814792" />
	</node>
	<node id="-78676" lat="63.1246805573" lon="9.22008055305">
		<tag k="name" v="Slettdalen" />
		<tag k="natural" v="valley" />
		<tag k="place" v="locality" />
		<tag k="ssr:stedsnr" v="814359" />
	</node>
	<node id="-78675" lat="63.0696833347" lon="9.15693056519">
		<tag k="fixme" v="consider natural=peak for the most distinct mountains in the district" />
		<tag k="name" v="Tørsåsen" />
		<tag k="natural" v="hill" />
		<tag k="place" v="locality" />
		<tag k="ssr:stedsnr" v="814295" />
	</node>
	<node id="-78674" lat="63.0017138872" lon="9.43619443791">
		<tag k="fixme" v="consider natural=peak for the most distinct mountains in the district" />
		<tag k="name" v="Teliåsen" />
		<tag k="natural" v="hill" />
		<tag k="place" v="locality" />
		<tag k="ssr:stedsnr" v="814289" />
	</node>
	<node id="-78672" lat="63.1306055584" lon="9.25788333153">
		<tag k="fixme" v="consider natural=peak for the most distinct mountains in the district" />
		<tag k="name" v="Løfallhøgfjellet" />
		<tag k="natural" v="hill" />
		<tag k="place" v="locality" />
		<tag k="ssr:stedsnr" v="814056" />
	</node>
	<node id="-78670" lat="63.1214861083" lon="9.25069999458">
		<tag k="name" v="Smørdalen" />
		<tag k="natural" v="valley" />
		<tag k="place" v="locality" />
		<tag k="ssr:stedsnr" v="809143" />
	</node>
	<node id="-78668" lat="62.8145083293" lon="9.37348611681">
		<tag k="name" v="Litlsvartådalen" />
		<tag k="natural" v="valley" />
		<tag k="place" v="locality" />
		<tag k="ssr:stedsnr" v="801783" />
	</node>
	<node id="-78661" lat="63.1714138881" lon="9.36275833902">
		<tag k="fixme" v="consider natural=peak for the most distinct mountains in the district" />
		<tag k="name" v="Prestlifjellet" />
		<tag k="natural" v="hill" />
		<tag k="place" v="locality" />
		<tag k="ssr:stedsnr" v="801504" />
	</node>
	<node id="-78660" lat="63.0251388851" lon="9.4713388823">
		<tag k="fixme" v="consider natural=peak for the most distinct mountains in the district" />
		<tag k="name" v="Høgåsen" />
		<tag k="natural" v="hill" />
		<tag k="place" v="locality" />
		<tag k="ssr:stedsnr" v="801458" />
	</node>
	<node id="-78651" lat="63.0290388874" lon="9.36330278262">
		<tag k="name" v="Lubakken" />
		<tag k="natural" v="slope" />
		<tag k="place" v="locality" />
		<tag k="ssr:stedsnr" v="801314" />
	</node>
	<node id="-78647" lat="62.8896166648" lon="9.43570832504">
		<tag k="name" v="Åkerdalen" />
		<tag k="natural" v="valley" />
		<tag k="place" v="locality" />
		<tag k="ssr:stedsnr" v="801187" />
	</node>
	<node id="-78644" lat="62.9873861071" lon="9.33054166518">
		<tag k="fixme" v="consider natural=peak for the most distinct mountains in the district" />
		<tag k="name" v="Stortelet" />
		<tag k="natural" v="hill" />
		<tag k="place" v="locality" />
		<tag k="ssr:stedsnr" v="801165" />
	</node>
	<node id="-78643" lat="62.954188885" lon="9.42973054951">
		<tag k="fixme" v="consider natural=peak for the most distinct mountains in the district" />
		<tag k="name" v="Raudfjellet" />
		<tag k="natural" v="hill" />
		<tag k="place" v="locality" />
		<tag k="ssr:stedsnr" v="801152" />
	</node>
	<node id="-78637" lat="63.1472805531" lon="9.44423056467">
		<tag k="name" v="Tortbakken" />
		<tag k="natural" v="slope" />
		<tag k="place" v="locality" />
		<tag k="ssr:stedsnr" v="770052" />
	</node>
	<node id="-78635" lat="63.0369416657" lon="9.40548054651">
		<tag k="name" v="Seterdalen" />
		<tag k="natural" v="valley" />
		<tag k="place" v="locality" />
		<tag k="ssr:stedsnr" v="767624" />
	</node>
	<node id="-78634" lat="63.0294444469" lon="9.41146111118">
		<tag k="name" v="Krokvasslættet" />
		<tag k="place" v="locality" />
		<tag k="ssr:stedsnr" v="767620" />
	</node>
	<node id="-78633" lat="63.0174138901" lon="9.45486111162">
		<tag k="name" v="Skathaugen" />
		<tag k="natural" v="hill" />
		<tag k="place" v="locality" />
		<tag k="ssr:stedsnr" v="767607" />
	</node>
	<node id="-78631" lat="63.0722138871" lon="9.41927222496">
		<tag k="name" v="Brattbakken" />
		<tag k="natural" v="slope" />
		<tag k="place" v="locality" />
		<tag k="ssr:stedsnr" v="766747" />
	</node>
	<node id="-78629" lat="63.0562611084" lon="9.42137777207">
		<tag k="fixme" v="consider natural=peak for the most distinct mountains in the district" />
		<tag k="name" v="Litlstabben" />
		<tag k="natural" v="hill" />
		<tag k="place" v="locality" />
		<tag k="ssr:stedsnr" v="766277" />
	</node>
	<node id="-78623" lat="63.1108333359" lon="9.36152222088">
		<tag k="fixme" v="consider natural=peak for the most distinct mountains in the district" />
		<tag k="name" v="Litlåsen" />
		<tag k="natural" v="hill" />
		<tag k="place" v="locality" />
		<tag k="ssr:stedsnr" v="766040" />
	</node>
	<node id="-78621" lat="63.1222833289" lon="9.2738694403">
		<tag k="name" v="Stordalen" />
		<tag k="natural" v="valley" />
		<tag k="place" v="locality" />
		<tag k="ssr:stedsnr" v="766033" />
	</node>
	<node id="-78618" lat="63.0523000004" lon="9.31421388149">
		<tag k="name" v="Marikåpdalen" />
		<tag k="natural" v="valley" />
		<tag k="place" v="locality" />
		<tag k="ssr:stedsnr" v="766002" />
	</node>
	<node id="-78617" lat="63.1025999992" lon="9.31704167138">
		<tag k="name" v="Midtihaugen" />
		<tag k="natural" v="hill" />
		<tag k="place" v="locality" />
		<tag k="ssr:stedsnr" v="765987" />
	</node>
	<node id="-78616" lat="63.0973055581" lon="9.34689167152">
		<tag k="fixme" v="consider natural=peak for the most distinct mountains in the district" />
		<tag k="name" v="Damåsen" />
		<tag k="natural" v="hill" />
		<tag k="place" v="locality" />
		<tag k="ssr:stedsnr" v="765964" />
	</node>
	<node id="-78615" lat="63.0203999998" lon="9.36151387995">
		<tag k="name" v="Liin" />
		<tag k="natural" v="slope" />
		<tag k="place" v="locality" />
		<tag k="ssr:stedsnr" v="765937" />
	</node>
	<node id="-78613" lat="63.0370333358" lon="9.36335277133">
		<tag k="name" v="Tjuvdalen" />
		<tag k="natural" v="valley" />
		<tag k="place" v="locality" />
		<tag k="ssr:stedsnr" v="765936" />
	</node>
	<node id="-78612" lat="63.0276249975" lon="9.34136665953">
		<tag k="name" v="Skruhaugen" />
		<tag k="natural" v="hill" />
		<tag k="place" v="locality" />
		<tag k="ssr:stedsnr" v="765928" />
	</node>
	<node id="-78610" lat="63.0282111155" lon="9.13615277277">
		<tag k="name" v="Seterdalen" />
		<tag k="natural" v="valley" />
		<tag k="place" v="locality" />
		<tag k="ssr:stedsnr" v="765870" />
	</node>
	<node id="-78609" lat="63.0083500036" lon="9.32048333149">
		<tag k="name" v="Kluftin" />
		<tag k="natural" v="valley" />
		<tag k="place" v="locality" />
		<tag k="ssr:stedsnr" v="765424" />
	</node>
	<node id="-78608" lat="63.0068888851" lon="9.45965000866">
		<tag k="name" v="Tortlihaugen" />
		<tag k="natural" v="hill" />
		<tag k="place" v="locality" />
		<tag k="ssr:stedsnr" v="765392" />
	</node>
	<node id="-78604" lat="63.0270361153" lon="9.30020000412">
		<tag k="name" v="Porkhaugen" />
		<tag k="natural" v="hill" />
		<tag k="place" v="locality" />
		<tag k="ssr:stedsnr" v="765234" />
	</node>
	<node id="-78602" lat="63.1552972265" lon="9.17050834309">
		<tag k="fixme" v="consider natural=peak for the most distinct mountains in the district" />
		<tag k="name" v="Nonsfjellet" />
		<tag k="natural" v="hill" />
		<tag k="place" v="locality" />
		<tag k="ssr:stedsnr" v="765177" />
	</node>
	<node id="-78600" lat="63.080683333" lon="9.16233333652">
		<tag k="name" v="Stokkådalen" />
		<tag k="natural" v="valley" />
		<tag k="place" v="locality" />
		<tag k="ssr:stedsnr" v="765134" />
	</node>
	<node id="-78599" lat="63.0496111115" lon="9.21967221557">
		<tag k="name" v="Seljebrekka" />
		<tag k="natural" v="slope" />
		<tag k="place" v="locality" />
		<tag k="ssr:stedsnr" v="765114" />
	</node>
	<node id="-78594" lat="63.0843833343" lon="9.21126110611">
		<tag k="name" v="Kjerringslættet" />
		<tag k="place" v="locality" />
		<tag k="ssr:stedsnr" v="765026" />
	</node>
	<node id="-78593" lat="62.8986333358" lon="9.36428332733">
		<tag k="fixme" v="consider natural=peak for the most distinct mountains in the district" />
		<tag k="name" v="Bakhatten" />
		<tag k="natural" v="hill" />
		<tag k="place" v="locality" />
		<tag k="ssr:stedsnr" v="765014" />
	</node>
	<node id="-78591" lat="63.0550249963" lon="9.11663055497">
		<tag k="name" v="Gomodalen" />
		<tag k="natural" v="valley" />
		<tag k="place" v="locality" />
		<tag k="ssr:stedsnr" v="764992" />
	</node>
	<node id="-78588" lat="63.0720916667" lon="9.10912223093">
		<tag k="name" v="Tjønnslette" />
		<tag k="place" v="locality" />
		<tag k="ssr:stedsnr" v="764960" />
	</node>
	<node id="-78585" lat="63.0794000017" lon="9.13433611023">
		<tag k="fixme" v="consider natural=peak for the most distinct mountains in the district" />
		<tag k="name" v="Tørsetfjellet" />
		<tag k="natural" v="hill" />
		<tag k="place" v="locality" />
		<tag k="ssr:stedsnr" v="764930" />
	</node>
	<node id="-78583" lat="63.0358000012" lon="9.23374166175">
		<tag k="name" v="Skjennstøhaugen" />
		<tag k="natural" v="hill" />
		<tag k="place" v="locality" />
		<tag k="ssr:stedsnr" v="764258" />
	</node>
	<node id="-78582" lat="63.0239111078" lon="9.26373888752">
		<tag k="name" v="Krokhøglia" />
		<tag k="natural" v="slope" />
		<tag k="place" v="locality" />
		<tag k="ssr:stedsnr" v="764259" />
	</node>
	<node id="-78581" lat="63.0249500018" lon="9.21920554977">
		<tag k="name" v="Trosslia" />
		<tag k="natural" v="slope" />
		<tag k="place" v="locality" />
		<tag k="ssr:stedsnr" v="764257" />
	</node>
	<node id="-78579" lat="63.1387777813" lon="9.19302777605">
		<tag k="fixme" v="consider natural=peak for the most distinct mountains in the district" />
		<tag k="name" v="Gravan" />
		<tag k="natural" v="hill" />
		<tag k="place" v="locality" />
		<tag k="ssr:stedsnr" v="764151" />
	</node>
	<node id="-78577" lat="63.0957472243" lon="8.99239166237">
		<tag k="name" v="Bergslettet" />
		<tag k="place" v="locality" />
		<tag k="ssr:stedsnr" v="764091" />
	</node>
	<node id="-78576" lat="63.1172777738" lon="9.21882778512">
		<tag k="name" v="Slettdalen" />
		<tag k="natural" v="valley" />
		<tag k="place" v="locality" />
		<tag k="ssr:stedsnr" v="764078" />
	</node>
	<node id="-78574" lat="62.9499833332" lon="9.13786111011">
		<tag k="name" v="Kebba" />
		<tag k="natural" v="ridge" />
		<tag k="place" v="locality" />
		<tag k="ssr:stedsnr" v="764043" />
	</node>
	<node id="-78573" lat="62.9595249971" lon="9.13002500061">
		<tag k="name" v="Høgjøta" />
		<tag k="natural" v="hill" />
		<tag k="place" v="locality" />
		<tag k="ssr:stedsnr" v="764024" />
	</node>
	<node id="-78572" lat="62.9595194445" lon="9.13658611438">
		<tag k="name" v="Geitaramslia" />
		<tag k="natural" v="slope" />
		<tag k="place" v="locality" />
		<tag k="ssr:stedsnr" v="764025" />
	</node>
	<node id="-78569" lat="63.026833334" lon="9.23119722167">
		<tag k="name" v="Ilura" />
		<tag k="place" v="locality" />
		<tag k="ssr:stedsnr" v="753771" />
	</node>
	<node id="-78568" lat="62.9493888908" lon="9.35475000456">
		<tag k="fixme" v="consider natural=peak for the most distinct mountains in the district" />
		<tag k="name" v="Høgtelet" />
		<tag k="natural" v="hill" />
		<tag k="place" v="locality" />
		<tag k="ssr:stedsnr" v="753736" />
	</node>
	<node id="-78567" lat="63.0054555583" lon="9.20161666564">
		<tag k="name" v="Stortelet" />
		<tag k="place" v="locality" />
		<tag k="ssr:stedsnr" v="753249" />
	</node>
	<node id="-78566" lat="63.1167472223" lon="9.23769999424">
		<tag k="name" v="Småfjella" />
		<tag k="place" v="locality" />
		<tag k="ssr:stedsnr" v="753233" />
	</node>
	<node id="-78565" lat="63.0565222228" lon="9.18395833398">
		<tag k="name" v="Sunna" />
		<tag k="natural" v="slope" />
		<tag k="place" v="locality" />
		<tag k="ssr:stedsnr" v="753204" />
	</node>
	<node id="-78564" lat="62.9548000034" lon="9.30592777081">
		<tag k="fixme" v="consider natural=peak for the most distinct mountains in the district" />
		<tag k="name" v="Svarthåmmåren" />
		<tag k="natural" v="hill" />
		<tag k="place" v="locality" />
		<tag k="ssr:stedsnr" v="753203" />
	</node>
	<node id="-78562" lat="63.0621638847" lon="9.21951388368">
		<tag k="name" v="Jøåbakken" />
		<tag k="natural" v="slope" />
		<tag k="place" v="locality" />
		<tag k="ssr:stedsnr" v="753152" />
	</node>
	<node id="-78561" lat="63.0917916652" lon="9.46144999528">
		<tag k="fixme" v="consider natural=peak for the most distinct mountains in the district" />
		<tag k="name" v="Almdalsåsen" />
		<tag k="natural" v="hill" />
		<tag k="place" v="locality" />
		<tag k="ssr:stedsnr" v="752471" />
	</node>
	<node id="-78560" lat="62.9973138849" lon="9.17596666737">
		<tag k="name" v="Gråknebba" />
		<tag k="natural" v="hill" />
		<tag k="place" v="locality" />
		<tag k="ssr:stedsnr" v="752389" />
	</node>
	<node id="-78557" lat="62.9513277755" lon="9.29170278004">
		<tag k="name" v="Kløvsteinan" />
		<tag k="place" v="locality" />
		<tag k="ssr:stedsnr" v="751489" />
	</node>
	<node id="-78553" lat="62.9775055532" lon="9.29771111837">
		<tag k="fixme" v="consider natural=peak for the most distinct mountains in the district" />
		<tag k="name" v="Gaddfjellet" />
		<tag k="natural" v="hill" />
		<tag k="place" v="locality" />
		<tag k="ssr:stedsnr" v="741224" />
	</node>
	<node id="-78550" lat="63.1869333359" lon="9.1937055511">
		<tag k="fixme" v="multiple name tags, choose one and add the other to alt_name; consider natural=peak for the most distinct mountains in the district" />
		<tag k="name" v="Vardskarfjellet;Tverrfjellet" />
		<tag k="natural" v="hill" />
		<tag k="place" v="locality" />
		<tag k="ssr:stedsnr" v="740796" />
	</node>
	<node id="-78549" lat="63.0869833363" lon="9.0267500059">
		<tag k="fixme" v="consider natural=peak for the most distinct mountains in the district" />
		<tag k="name" v="Gunnhildfjellet" />
		<tag k="natural" v="hill" />
		<tag k="place" v="locality" />
		<tag k="ssr:stedsnr" v="740715" />
	</node>
	<node id="-78548" lat="63.1243472222" lon="9.04586111127">
		<tag k="name" v="Fossdalen" />
		<tag k="natural" v="valley" />
		<tag k="place" v="locality" />
		<tag k="ssr:stedsnr" v="740695" />
	</node>
	<node id="-78546" lat="63.1580944426" lon="9.2365499917">
		<tag k="fixme" v="consider natural=peak for the most distinct mountains in the district" />
		<tag k="name" v="Seterfjellet" />
		<tag k="natural" v="hill" />
		<tag k="place" v="locality" />
		<tag k="ssr:stedsnr" v="740477" />
	</node>
	<node id="-78537" lat="63.0202694422" lon="9.37761667594">
		<tag k="name" v="Kjerkholtbakken" />
		<tag k="natural" v="slope" />
		<tag k="place" v="locality" />
		<tag k="ssr:stedsnr" v="740333" />
	</node>
	<node id="-78534" lat="62.9431416673" lon="9.30359999988">
		<tag k="fixme" v="multiple name tags, choose one and add the other to alt_name; consider natural=peak for the most distinct mountains in the district" />
		<tag k="name" v="Trollhøtta;Folddalstrollhøtta" />
		<tag k="natural" v="hill" />
		<tag k="place" v="locality" />
		<tag k="ssr:stedsnr" v="740207" />
	</node>
	<node id="-78533" lat="62.9453444414" lon="9.28626110902">
		<tag k="name" v="Trollhøttbotnen" />
		<tag k="natural" v="valley" />
		<tag k="place" v="locality" />
		<tag k="ssr:stedsnr" v="740206" />
	</node>
	<node id="-78532" lat="63.1283472192" lon="9.44098611178">
		<tag k="name" v="Bergslættet" />
		<tag k="place" v="locality" />
		<tag k="ssr:stedsnr" v="710945" />
	</node>
	<node id="-78528" lat="63.0661249984" lon="9.30925278729">
		<tag k="name" v="Solliin" />
		<tag k="natural" v="slope" />
		<tag k="place" v="locality" />
		<tag k="ssr:stedsnr" v="706856" />
	</node>
	<node id="-78527" lat="63.0258527733" lon="9.43753055594">
		<tag k="name" v="Stakkenget" />
		<tag k="natural" v="slope" />
		<tag k="place" v="locality" />
		<tag k="ssr:stedsnr" v="706621" />
	</node>
	<node id="-78526" lat="63.019227775" lon="9.44635554994">
		<tag k="name" v="Kinnslættet" />
		<tag k="place" v="locality" />
		<tag k="ssr:stedsnr" v="706591" />
	</node>
	<node id="-78523" lat="63.0919166685" lon="9.29135833651">
		<tag k="name" v="Fagerlia" />
		<tag k="natural" v="slope" />
		<tag k="place" v="locality" />
		<tag k="ssr:stedsnr" v="705978" />
	</node>
	<node id="-78522" lat="63.098027776" lon="9.35535278341">
		<tag k="name" v="Storhaugen" />
		<tag k="natural" v="hill" />
		<tag k="place" v="locality" />
		<tag k="ssr:stedsnr" v="705951" />
	</node>
	<node id="-78521" lat="63.026066669" lon="9.3903833368">
		<tag k="name" v="Høyløbakken" />
		<tag k="natural" v="slope" />
		<tag k="place" v="locality" />
		<tag k="ssr:stedsnr" v="705934" />
	</node>
	<node id="-78520" lat="63.0242083363" lon="9.34648889473">
		<tag k="name" v="Urhaugan" />
		<tag k="natural" v="hill" />
		<tag k="place" v="locality" />
		<tag k="ssr:stedsnr" v="705933" />
	</node>
	<node id="-78513" lat="63.0099111152" lon="9.50629722279">
		<tag k="name" v="Stortåin" />
		<tag k="natural" v="hill" />
		<tag k="place" v="locality" />
		<tag k="ssr:stedsnr" v="705498" />
	</node>
	<node id="-78512" lat="63.0025972229" lon="9.44447222648">
		<tag k="name" v="Kuberget" />
		<tag k="natural" v="hill" />
		<tag k="place" v="locality" />
		<tag k="ssr:stedsnr" v="705476" />
	</node>
	<node id="-78510" lat="63.0087222206" lon="9.43873054857">
		<tag k="name" v="Furuhaugan" />
		<tag k="natural" v="hill" />
		<tag k="place" v="locality" />
		<tag k="ssr:stedsnr" v="705474" />
	</node>
	<node id="-78508" lat="62.9986722244" lon="9.4413111173">
		<tag k="name" v="Åsbekkøyan" />
		<tag k="natural" v="ridge" />
		<tag k="place" v="locality" />
		<tag k="ssr:stedsnr" v="705457" />
	</node>
	<node id="-78507" lat="63.0128166655" lon="9.30536389714">
		<tag k="name" v="Sjurdalen" />
		<tag k="natural" v="valley" />
		<tag k="place" v="locality" />
		<tag k="ssr:stedsnr" v="705448" />
	</node>
	<node id="-78505" lat="63.0087138865" lon="9.4153944507">
		<tag k="name" v="Kvennhushaugen" />
		<tag k="natural" v="slope" />
		<tag k="place" v="locality" />
		<tag k="ssr:stedsnr" v="705434" />
	</node>
	<node id="-78502" lat="63.0003361086" lon="9.42145555321">
		<tag k="name" v="Midtdalen" />
		<tag k="natural" v="valley" />
		<tag k="place" v="locality" />
		<tag k="ssr:stedsnr" v="705428" />
	</node>
	<node id="-78501" lat="63.0270222265" lon="9.32435832534">
		<tag k="name" v="Flåa" />
		<tag k="place" v="locality" />
		<tag k="ssr:stedsnr" v="705332" />
	</node>
	<node id="-78494" lat="63.1767138882" lon="9.1847666719">
		<tag k="name" v="Gråberga" />
		<tag k="natural" v="hill" />
		<tag k="place" v="locality" />
		<tag k="ssr:stedsnr" v="705151" />
	</node>
	<node id="-78493" lat="62.98828056" lon="9.44150833887">
		<tag k="name" v="Halvslettet" />
		<tag k="place" v="locality" />
		<tag k="ssr:stedsnr" v="705140" />
	</node>
	<node id="-78491" lat="63.0740805514" lon="9.28160554765">
		<tag k="name" v="Rabban" />
		<tag k="natural" v="slope" />
		<tag k="place" v="locality" />
		<tag k="ssr:stedsnr" v="705119" />
	</node>
	<node id="-78489" lat="63.1152388852" lon="9.29398333695">
		<tag k="name" v="Bjønnahaugen" />
		<tag k="natural" v="hill" />
		<tag k="place" v="locality" />
		<tag k="ssr:stedsnr" v="705047" />
	</node>
	<node id="-78487" lat="63.0473111149" lon="9.27375000273">
		<tag k="name" v="Våtdalen" />
		<tag k="natural" v="valley" />
		<tag k="place" v="locality" />
		<tag k="ssr:stedsnr" v="705012" />
	</node>
	<node id="-78486" lat="63.0589499977" lon="9.30578333395">
		<tag k="name" v="Bergstøggu" />
		<tag k="natural" v="hill" />
		<tag k="place" v="locality" />
		<tag k="ssr:stedsnr" v="705002" />
	</node>
	<node id="-78485" lat="63.0514361126" lon="9.10594444517">
		<tag k="name" v="Krokslættet" />
		<tag k="place" v="locality" />
		<tag k="ssr:stedsnr" v="704986" />
	</node>
	<node id="-78482" lat="62.9505666698" lon="9.14427777334">
		<tag k="name" v="Stortelet" />
		<tag k="place" v="locality" />
		<tag k="ssr:stedsnr" v="704639" />
	</node>
	<node id="-78480" lat="63.0215305581" lon="9.19746389369">
		<tag k="name" v="Baklidalshaugen" />
		<tag k="natural" v="hill" />
		<tag k="place" v="locality" />
		<tag k="ssr:stedsnr" v="704585" />
	</node>
	<node id="-78477" lat="63.0007694423" lon="9.29651944972">
		<tag k="name" v="Grønlia" />
		<tag k="natural" v="slope" />
		<tag k="place" v="locality" />
		<tag k="ssr:stedsnr" v="705514" />
	</node>
	<node id="-78476" lat="62.9194527744" lon="9.36625554668">
		<tag k="name" v="Rogndalen" />
		<tag k="natural" v="valley" />
		<tag k="place" v="locality" />
		<tag k="ssr:stedsnr" v="704056" />
	</node>
	<node id="-78475" lat="63.059355556" lon="9.18520276798">
		<tag k="name" v="Ytter Dalen" />
		<tag k="natural" v="valley" />
		<tag k="place" v="locality" />
		<tag k="ssr:stedsnr" v="704045" />
	</node>
	<node id="-78474" lat="63.0478361128" lon="9.20904443662">
		<tag k="loc_name" v="Bjergin" />
		<tag k="name" v="Bjerga" />
		<tag k="natural" v="hill" />
		<tag k="place" v="locality" />
		<tag k="ssr:stedsnr" v="704021" />
	</node>
	<node id="-78472" lat="63.0930888854" lon="9.04369165831">
		<tag k="name" v="Bøverøyan" />
		<tag k="place" v="locality" />
		<tag k="ssr:stedsnr" v="703856" />
	</node>
	<node id="-78469" lat="63.1135194446" lon="9.0865305476">
		<tag k="name" v="Fjelndalen" />
		<tag k="natural" v="valley" />
		<tag k="place" v="locality" />
		<tag k="ssr:stedsnr" v="703783" />
	</node>
	<node id="-78468" lat="63.0347694444" lon="9.18721944831">
		<tag k="name" v="Øverlia" />
		<tag k="natural" v="slope" />
		<tag k="place" v="locality" />
		<tag k="ssr:stedsnr" v="703620" />
	</node>
	<node id="-78467" lat="63.0349111071" lon="9.15697222763">
		<tag k="name" v="Eikeslia" />
		<tag k="natural" v="slope" />
		<tag k="place" v="locality" />
		<tag k="ssr:stedsnr" v="703444" />
	</node>
	<node id="-78466" lat="63.0351805584" lon="9.14701945212">
		<tag k="name" v="Standarhaugen" />
		<tag k="natural" v="hill" />
		<tag k="place" v="locality" />
		<tag k="ssr:stedsnr" v="703443" />
	</node>
	<node id="-78464" lat="63.0221666622" lon="9.20861944661">
		<tag k="name" v="Storfagerdalen" />
		<tag k="natural" v="valley" />
		<tag k="place" v="locality" />
		<tag k="ssr:stedsnr" v="703319" />
	</node>
	<node id="-78462" lat="63.0343361101" lon="9.21728055108">
		<tag k="name" v="Kudalen" />
		<tag k="natural" v="valley" />
		<tag k="place" v="locality" />
		<tag k="ssr:stedsnr" v="703312" />
	</node>
	<node id="-78461" lat="63.0713611101" lon="9.2614416598">
		<tag k="name" v="Skjennaberget" />
		<tag k="natural" v="hill" />
		<tag k="place" v="locality" />
		<tag k="ssr:stedsnr" v="703293" />
	</node>
	<node id="-78460" lat="63.0792472237" lon="9.25427499621">
		<tag k="name" v="Kjølen" />
		<tag k="natural" v="hill" />
		<tag k="place" v="locality" />
		<tag k="ssr:stedsnr" v="703220" />
	</node>
	<node id="-78458" lat="63.1267500032" lon="9.20347778478">
		<tag k="fixme" v="consider natural=peak for the most distinct mountains in the district" />
		<tag k="name" v="Vaulkongen" />
		<tag k="natural" v="hill" />
		<tag k="place" v="locality" />
		<tag k="ssr:stedsnr" v="703068" />
	</node>
	<node id="-78457" lat="63.1011722222" lon="9.19238610274">
		<tag k="name" v="Korpdalen" />
		<tag k="natural" v="valley" />
		<tag k="place" v="locality" />
		<tag k="ssr:stedsnr" v="703036" />
	</node>
	<node id="-78456" lat="62.9498027753" lon="9.39563056103">
		<tag k="name" v="Halsen" />
		<tag k="natural" v="ridge" />
		<tag k="place" v="locality" />
		<tag k="ssr:stedsnr" v="701813" />
	</node>
	<node id="-78454" lat="63.1291055567" lon="9.2577888805">
		<tag k="name" v="Slågda" />
		<tag k="natural" v="slope" />
		<tag k="place" v="locality" />
		<tag k="ssr:stedsnr" v="693761" />
	</node>
	<node id="-78453" lat="63.1203166672" lon="9.4691583298">
		<tag k="fixme" v="consider natural=peak for the most distinct mountains in the district" />
		<tag k="name" v="Høgneset" />
		<tag k="natural" v="hill" />
		<tag k="place" v="locality" />
		<tag k="ssr:stedsnr" v="693424" />
	</node>
	<node id="-78452" lat="63.0053611152" lon="9.35514999713">
		<tag k="name" v="Kvilarøya" />
		<tag k="place" v="locality" />
		<tag k="ssr:stedsnr" v="692786" />
	</node>
	<node id="-78451" lat="62.9802138899" lon="9.1972888969">
		<tag k="name" v="Hestfjellet" />
		<tag k="natural" v="hill" />
		<tag k="place" v="locality" />
		<tag k="ssr:stedsnr" v="692409" />
	</node>
	<node id="-78448" lat="62.9612027777" lon="9.29180000192">
		<tag k="name" v="Ruglsteinen" />
		<tag k="place" v="locality" />
		<tag k="ssr:stedsnr" v="692302" />
	</node>
	<node id="-78445" lat="62.9720694442" lon="9.24062777584">
		<tag k="name" v="Busteinlia" />
		<tag k="natural" v="slope" />
		<tag k="place" v="locality" />
		<tag k="ssr:stedsnr" v="691494" />
	</node>
	<node id="-78443" lat="62.8734083292" lon="9.19657222204">
		<tag k="name" v="Kringlåtøylia" />
		<tag k="natural" v="slope" />
		<tag k="place" v="locality" />
		<tag k="ssr:stedsnr" v="691451" />
	</node>
	<node id="-78441" lat="63.1152833367" lon="9.04711111377">
		<tag k="fixme" v="consider natural=peak for the most distinct mountains in the district" />
		<tag k="name" v="Nonsfjellet" />
		<tag k="natural" v="hill" />
		<tag k="place" v="locality" />
		<tag k="ssr:stedsnr" v="680751" />
	</node>
	<node id="-78436" lat="63.1762333322" lon="9.26567500446">
		<tag k="fixme" v="consider natural=peak for the most distinct mountains in the district" />
		<tag k="name" v="Tuva" />
		<tag k="natural" v="hill" />
		<tag k="place" v="locality" />
		<tag k="ssr:stedsnr" v="680595" />
	</node>
	<node id="-78432" lat="63.0544138906" lon="9.26672223111">
		<tag k="fixme" v="consider natural=peak for the most distinct mountains in the district" />
		<tag k="name" v="Tiursåsen" />
		<tag k="natural" v="hill" />
		<tag k="place" v="locality" />
		<tag k="ssr:stedsnr" v="680516" />
	</node>
	<node id="-78424" lat="63.0021055584" lon="9.46161110188">
		<tag k="name" v="Tortlia" />
		<tag k="natural" v="slope" />
		<tag k="place" v="locality" />
		<tag k="ssr:stedsnr" v="680314" />
	</node>
	<node id="-78420" lat="62.8160281079" lon="9.42159050848">
		<tag k="fixme" v="multiple name tags, choose one and add the other to alt_name; consider natural=peak for the most distinct mountains in the district" />
		<tag k="name" v="Svarthøtta;Salåthøa" />
		<tag k="natural" v="hill" />
		<tag k="place" v="locality" />
		<tag k="ssr:stedsnr" v="679798" />
	</node>
	<node id="-78410" lat="63.1231527779" lon="9.42250555015">
		<tag k="name" v="Seterlia" />
		<tag k="natural" v="slope" />
		<tag k="place" v="locality" />
		<tag k="ssr:stedsnr" v="649241" />
	</node>
	<node id="-78405" lat="63.0285583369" lon="9.45471666977">
		<tag k="name" v="Krokslættet" />
		<tag k="place" v="locality" />
		<tag k="ssr:stedsnr" v="645615" />
	</node>
	<node id="-78404" lat="63.0247111115" lon="9.41311389535">
		<tag k="fixme" v="consider natural=peak for the most distinct mountains in the district" />
		<tag k="name" v="Skreddaråsen" />
		<tag k="natural" v="hill" />
		<tag k="place" v="locality" />
		<tag k="ssr:stedsnr" v="645608" />
	</node>
	<node id="-78402" lat="63.0232888918" lon="9.48344166303">
		<tag k="name" v="Indreslåtta" />
		<tag k="place" v="locality" />
		<tag k="ssr:stedsnr" v="645591" />
	</node>
	<node id="-78400" lat="63.0394277755" lon="9.43983611817">
		<tag k="name" v="Storslættet" />
		<tag k="place" v="locality" />
		<tag k="ssr:stedsnr" v="645238" />
	</node>
	<node id="-78399" lat="63.0880583368" lon="9.37887499952">
		<tag k="fixme" v="consider natural=peak for the most distinct mountains in the district" />
		<tag k="name" v="Storslåttåsen" />
		<tag k="natural" v="hill" />
		<tag k="place" v="locality" />
		<tag k="ssr:stedsnr" v="644970" />
	</node>
	<node id="-78398" lat="63.0886888882" lon="9.33928332873">
		<tag k="name" v="Bakliberget" />
		<tag k="natural" v="hill" />
		<tag k="place" v="locality" />
		<tag k="ssr:stedsnr" v="644966" />
	</node>
	<node id="-78397" lat="63.0321777771" lon="9.37241666037">
		<tag k="fixme" v="consider natural=peak for the most distinct mountains in the district" />
		<tag k="name" v="Havåsen" />
		<tag k="natural" v="hill" />
		<tag k="place" v="locality" />
		<tag k="ssr:stedsnr" v="644949" />
	</node>
	<node id="-78393" lat="63.0231999969" lon="9.27714722324">
		<tag k="name" v="Lykkjbrona" />
		<tag k="natural" v="ridge" />
		<tag k="place" v="locality" />
		<tag k="ssr:stedsnr" v="644273" />
	</node>
	<node id="-78391" lat="63.0335527798" lon="9.29832777661">
		<tag k="name" v="Geitatjønnhaugen" />
		<tag k="natural" v="hill" />
		<tag k="place" v="locality" />
		<tag k="ssr:stedsnr" v="644261" />
	</node>
	<node id="-78389" lat="62.8395055558" lon="9.41068889776">
		<tag k="name" v="Bukkhøgda" />
		<tag k="natural" v="hill" />
		<tag k="place" v="locality" />
		<tag k="ssr:stedsnr" v="644101" />
	</node>
	<node id="-78383" lat="63.0255194426" lon="9.13981665915">
		<tag k="name" v="Seterhaugen" />
		<tag k="natural" v="hill" />
		<tag k="place" v="locality" />
		<tag k="ssr:stedsnr" v="643886" />
	</node>
	<node id="-78382" lat="63.0181666702" lon="9.13362500673">
		<tag k="name" v="Langmyrslættet" />
		<tag k="place" v="locality" />
		<tag k="ssr:stedsnr" v="643878" />
	</node>
	<node id="-78381" lat="62.9336361117" lon="9.15463333278">
		<tag k="name" v="Slompskaret" />
		<tag k="natural" v="valley" />
		<tag k="place" v="locality" />
		<tag k="ssr:stedsnr" v="643664" />
	</node>
	<node id="-78380" lat="62.9325583353" lon="9.15322778576">
		<tag k="name" v="Slompkjerringa" />
		<tag k="natural" v="cliff" />
		<tag k="ssr:stedsnr" v="643663" />
	</node>
	<node id="-78379" lat="62.9953611083" lon="9.4828083314">
		<tag k="name" v="Damvassråa" />
		<tag k="place" v="locality" />
		<tag k="ssr:stedsnr" v="645154" />
	</node>
	<node id="-78378" lat="63.0131694406" lon="9.46681110346">
		<tag k="name" v="Kvennabakken" />
		<tag k="natural" v="slope" />
		<tag k="place" v="locality" />
		<tag k="ssr:stedsnr" v="645139" />
	</node>
	<node id="-78374" lat="63.0782833346" lon="8.96780833683">
		<tag k="name" v="Bakliene" />
		<tag k="natural" v="slope" />
		<tag k="place" v="locality" />
		<tag k="ssr:stedsnr" v="643102" />
	</node>
	<node id="-78373" lat="63.0458277792" lon="9.17998889718">
		<tag k="name" v="Storgreiva" />
		<tag k="natural" v="valley" />
		<tag k="place" v="locality" />
		<tag k="ssr:stedsnr" v="643070" />
	</node>
	<node id="-78372" lat="63.0566138906" lon="9.2052777857">
		<tag k="name" v="Brandhaugen" />
		<tag k="natural" v="hill" />
		<tag k="place" v="locality" />
		<tag k="ssr:stedsnr" v="643062" />
	</node>
	<node id="-78371" lat="63.0399000032" lon="9.24435555252">
		<tag k="name" v="Bærhaugan" />
		<tag k="natural" v="hill" />
		<tag k="place" v="locality" />
		<tag k="ssr:stedsnr" v="643037" />
	</node>
	<node id="-78367" lat="63.0897495933" lon="9.10480307829">
		<tag k="fixme" v="consider natural=peak for the most distinct mountains in the district" />
		<tag k="name" v="Vestre Skåkleiva" />
		<tag k="natural" v="hill" />
		<tag k="place" v="locality" />
		<tag k="ssr:stedsnr" v="642807" />
	</node>
	<node id="-78366" lat="63.0345583335" lon="9.20396945253">
		<tag k="name" v="Bølludalen" />
		<tag k="natural" v="valley" />
		<tag k="place" v="locality" />
		<tag k="ssr:stedsnr" v="642611" />
	</node>
	<node id="-78365" lat="63.0359888878" lon="9.17636388629">
		<tag k="name" v="Blomlia" />
		<tag k="natural" v="slope" />
		<tag k="place" v="locality" />
		<tag k="ssr:stedsnr" v="642596" />
	</node>
	<node id="-78364" lat="63.0327555583" lon="9.15561111464">
		<tag k="name" v="Litlslættet" />
		<tag k="place" v="locality" />
		<tag k="ssr:stedsnr" v="642403" />
	</node>
	<node id="-78363" lat="63.003047223" lon="9.1816750072">
		<tag k="fixme" v="consider natural=peak for the most distinct mountains in the district" />
		<tag k="name" v="Børsetfjellet" />
		<tag k="natural" v="hill" />
		<tag k="place" v="locality" />
		<tag k="ssr:stedsnr" v="642344" />
	</node>
	<node id="-78362" lat="63.0209222221" lon="9.22043610549">
		<tag k="name" v="Midtslættet" />
		<tag k="place" v="locality" />
		<tag k="ssr:stedsnr" v="642255" />
	</node>
	<node id="-78361" lat="63.0201333369" lon="9.22503332782">
		<tag k="name" v="Langlimarka" />
		<tag k="natural" v="slope" />
		<tag k="place" v="locality" />
		<tag k="ssr:stedsnr" v="642253" />
	</node>
	<node id="-78359" lat="62.9167083373" lon="9.43227221342">
		<tag k="fixme" v="consider natural=peak for the most distinct mountains in the district" />
		<tag k="name" v="Børtre Hatten" />
		<tag k="natural" v="hill" />
		<tag k="place" v="locality" />
		<tag k="ssr:stedsnr" v="640812" />
	</node>
	<node id="-78358" lat="63.1067944485" lon="9.26111667035">
		<tag k="fixme" v="consider natural=peak for the most distinct mountains in the district" />
		<tag k="name" v="Tyberåsen" />
		<tag k="natural" v="hill" />
		<tag k="place" v="locality" />
		<tag k="ssr:stedsnr" v="642104" />
	</node>
	<node id="-78357" lat="62.9959444414" lon="9.30028054756">
		<tag k="name" v="Storhaugen" />
		<tag k="natural" v="hill" />
		<tag k="place" v="locality" />
		<tag k="ssr:stedsnr" v="632334" />
	</node>
	<node id="-78355" lat="63.0261222239" lon="9.45491666833">
		<tag k="fixme" v="consider natural=peak for the most distinct mountains in the district" />
		<tag k="name" v="Husåsen" />
		<tag k="natural" v="hill" />
		<tag k="place" v="locality" />
		<tag k="ssr:stedsnr" v="631448" />
	</node>
	<node id="-78353" lat="63.1391472197" lon="9.39800832781">
		<tag k="name" v="Røvarberget" />
		<tag k="natural" v="hill" />
		<tag k="place" v="locality" />
		<tag k="ssr:stedsnr" v="631278" />
	</node>
	<node id="-78351" lat="62.9647166636" lon="9.13404721985">
		<tag k="name" v="Storbekklia" />
		<tag k="natural" v="slope" />
		<tag k="place" v="locality" />
		<tag k="ssr:stedsnr" v="631249" />
	</node>
	<node id="-78350" lat="62.9924972215" lon="9.44989444928">
		<tag k="name" v="Åsbekkøyan" />
		<tag k="place" v="locality" />
		<tag k="ssr:stedsnr" v="631224" />
	</node>
	<node id="-78346" lat="63.1543972226" lon="9.14488611559">
		<tag k="name" v="Kleiva" />
		<tag k="natural" v="slope" />
		<tag k="place" v="locality" />
		<tag k="ssr:stedsnr" v="630432" />
	</node>
	<node id="-78345" lat="62.8957500013" lon="9.25573889281">
		<tag k="name" v="Kongensgrøa" />
		<tag k="natural" v="valley" />
		<tag k="place" v="locality" />
		<tag k="ssr:stedsnr" v="630425" />
	</node>
	<node id="-78344" lat="62.9366083307" lon="9.27823889308">
		<tag k="name" v="Kleiva" />
		<tag k="natural" v="slope" />
		<tag k="place" v="locality" />
		<tag k="ssr:stedsnr" v="630413" />
	</node>
	<node id="-78343" lat="63.1199305573" lon="9.1153138911">
		<tag k="fixme" v="consider natural=peak for the most distinct mountains in the district" />
		<tag k="name" v="Geitskarfjellet" />
		<tag k="natural" v="hill" />
		<tag k="place" v="locality" />
		<tag k="ssr:stedsnr" v="619726" />
	</node>
	<node id="-78342" lat="63.0253472265" lon="9.13182777699">
		<tag k="fixme" v="consider natural=peak for the most distinct mountains in the district" />
		<tag k="name" v="Duvåsen" />
		<tag k="natural" v="hill" />
		<tag k="place" v="locality" />
		<tag k="ssr:stedsnr" v="619704" />
	</node>
	<node id="-78339" lat="63.1775750001" lon="9.36291666064">
		<tag k="name" v="Grådalen" />
		<tag k="natural" v="valley" />
		<tag k="place" v="locality" />
		<tag k="ssr:stedsnr" v="619565" />
	</node>
	<node id="-78329" lat="63.0620833322" lon="9.28113332467">
		<tag k="fixme" v="consider natural=peak for the most distinct mountains in the district" />
		<tag k="name" v="Vaulåsen" />
		<tag k="natural" v="hill" />
		<tag k="place" v="locality" />
		<tag k="ssr:stedsnr" v="619446" />
	</node>
	<node id="-78321" lat="62.9547111076" lon="9.19615000164">
		<tag k="fixme" v="consider natural=peak for the most distinct mountains in the district" />
		<tag k="name" v="Ura" />
		<tag k="natural" v="hill" />
		<tag k="place" v="locality" />
		<tag k="ssr:stedsnr" v="618035" />
	</node>
	<node id="-78314" lat="63.1372277746" lon="9.31913888606">
		<tag k="name" v="Høglia" />
		<tag k="natural" v="slope" />
		<tag k="place" v="locality" />
		<tag k="ssr:stedsnr" v="584908" />
	</node>
	<node id="-78313" lat="63.1398111109" lon="9.28459443916">
		<tag k="name" v="Baklia" />
		<tag k="natural" v="slope" />
		<tag k="place" v="locality" />
		<tag k="ssr:stedsnr" v="584904" />
	</node>
	<node id="-78310" lat="63.0257833336" lon="9.40619721287">
		<tag k="name" v="Popplatjønnskaret" />
		<tag k="natural" v="valley" />
		<tag k="place" v="locality" />
		<tag k="ssr:stedsnr" v="584663" />
	</node>
	<node id="-78308" lat="63.0108666679" lon="9.38536110349">
		<tag k="name" v="Hamran" />
		<tag k="natural" v="slope" />
		<tag k="place" v="locality" />
		<tag k="ssr:stedsnr" v="584425" />
	</node>
	<node id="-78305" lat="63.0016055579" lon="9.46782499291">
		<tag k="fixme" v="consider natural=peak for the most distinct mountains in the district" />
		<tag k="name" v="Almdalsåsen" />
		<tag k="natural" v="hill" />
		<tag k="place" v="locality" />
		<tag k="ssr:stedsnr" v="584151" />
	</node>
	<node id="-78304" lat="62.9865111088" lon="9.39729721265">
		<tag k="name" v="Litlhøylødalen" />
		<tag k="natural" v="valley" />
		<tag k="place" v="locality" />
		<tag k="ssr:stedsnr" v="584138" />
	</node>
	<node id="-78303" lat="62.9862527789" lon="9.43182778412">
		<tag k="fixme" v="consider natural=peak for the most distinct mountains in the district" />
		<tag k="name" v="Snurruåsen" />
		<tag k="natural" v="hill" />
		<tag k="place" v="locality" />
		<tag k="ssr:stedsnr" v="584136" />
	</node>
	<node id="-78297" lat="63.13486389" lon="9.36920555151">
		<tag k="name" v="Bakliin" />
		<tag k="natural" v="slope" />
		<tag k="place" v="locality" />
		<tag k="ssr:stedsnr" v="584034" />
	</node>
	<node id="-78295" lat="63.1151527801" lon="9.28486667411">
		<tag k="name" v="Farkhaugen" />
		<tag k="natural" v="hill" />
		<tag k="place" v="locality" />
		<tag k="ssr:stedsnr" v="584030" />
	</node>
	<node id="-78294" lat="63.0518833334" lon="9.30101388565">
		<tag k="name" v="Askjellsådalen" />
		<tag k="natural" v="valley" />
		<tag k="place" v="locality" />
		<tag k="ssr:stedsnr" v="584004" />
	</node>
	<node id="-78292" lat="63.0864027783" lon="9.36528055876">
		<tag k="name" v="Omundtrøberget" />
		<tag k="natural" v="hill" />
		<tag k="place" v="locality" />
		<tag k="ssr:stedsnr" v="583955" />
	</node>
	<node id="-78290" lat="63.0362777768" lon="9.37883888863">
		<tag k="name" v="Hundholet" />
		<tag k="natural" v="valley" />
		<tag k="place" v="locality" />
		<tag k="ssr:stedsnr" v="583937" />
	</node>
	<node id="-78289" lat="63.0297027805" lon="9.39390833117">
		<tag k="name" v="Setervassbakliin" />
		<tag k="natural" v="slope" />
		<tag k="place" v="locality" />
		<tag k="ssr:stedsnr" v="583935" />
	</node>
	<node id="-78288" lat="63.0188305532" lon="9.35520000428">
		<tag k="name" v="Storhaugen" />
		<tag k="natural" v="hill" />
		<tag k="place" v="locality" />
		<tag k="ssr:stedsnr" v="583930" />
	</node>
	<node id="-78286" lat="63.0360777734" lon="9.34156389391">
		<tag k="name" v="Urdalsbrona" />
		<tag k="natural" v="ridge" />
		<tag k="place" v="locality" />
		<tag k="ssr:stedsnr" v="583925" />
	</node>
	<node id="-78282" lat="63.0137138924" lon="9.45535833919">
		<tag k="name" v="Furuslåtthaugen" />
		<tag k="natural" v="hill" />
		<tag k="place" v="locality" />
		<tag k="ssr:stedsnr" v="583403" />
	</node>
	<node id="-78281" lat="63.0075777792" lon="9.45618056527">
		<tag k="name" v="Bjørkholtskaret" />
		<tag k="natural" v="valley" />
		<tag k="place" v="locality" />
		<tag k="ssr:stedsnr" v="583400" />
	</node>
	<node id="-78280" lat="63.0107805555" lon="9.28000833731">
		<tag k="name" v="Pekkhaugen" />
		<tag k="natural" v="hill" />
		<tag k="place" v="locality" />
		<tag k="ssr:stedsnr" v="583394" />
	</node>
	<node id="-78279" lat="62.9992222232" lon="9.45064721856">
		<tag k="name" v="Høglia" />
		<tag k="natural" v="slope" />
		<tag k="place" v="locality" />
		<tag k="ssr:stedsnr" v="583393" />
	</node>
	<node id="-78275" lat="63.0421777804" lon="9.11998610499">
		<tag k="name" v="Almbergsøya" />
		<tag k="place" v="locality" />
		<tag k="ssr:stedsnr" v="582957" />
	</node>
	<node id="-78269" lat="63.000222218" lon="9.1537500074">
		<tag k="name" v="Varghaugen" />
		<tag k="natural" v="hill" />
		<tag k="place" v="locality" />
		<tag k="ssr:stedsnr" v="582336" />
	</node>
	<node id="-78268" lat="63.0340222247" lon="9.22351389254">
		<tag k="name" v="Sandådalen" />
		<tag k="natural" v="valley" />
		<tag k="place" v="locality" />
		<tag k="ssr:stedsnr" v="582320" />
	</node>
	<node id="-78267" lat="63.0177361142" lon="9.24167222446">
		<tag k="name" v="Krokkjølen" />
		<tag k="natural" v="hill" />
		<tag k="place" v="locality" />
		<tag k="ssr:stedsnr" v="582317" />
	</node>
	<node id="-78265" lat="63.0708305584" lon="9.25416388026">
		<tag k="name" v="Geilhaugen" />
		<tag k="natural" v="hill" />
		<tag k="place" v="locality" />
		<tag k="ssr:stedsnr" v="582267" />
	</node>
	<node id="-78263" lat="63.0663249995" lon="9.23385555924">
		<tag k="name" v="Pålbakken" />
		<tag k="natural" v="slope" />
		<tag k="place" v="locality" />
		<tag k="ssr:stedsnr" v="582212" />
	</node>
	<node id="-78262" lat="63.0707694415" lon="9.21647499659">
		<tag k="name" v="Landsemndalen" />
		<tag k="natural" v="valley" />
		<tag k="place" v="locality" />
		<tag k="ssr:stedsnr" v="582208" />
	</node>
	<node id="-78260" lat="63.1374805563" lon="9.20821943539">
		<tag k="name" v="Aksla" />
		<tag k="place" v="locality" />
		<tag k="ssr:stedsnr" v="582180" />
	</node>
	<node id="-78258" lat="63.1245250043" lon="9.21457500459">
		<tag k="name" v="Vargatelet" />
		<tag k="natural" v="slope" />
		<tag k="place" v="locality" />
		<tag k="ssr:stedsnr" v="582078" />
	</node>
	<node id="-78257" lat="63.123358333" lon="9.22994166197">
		<tag k="fixme" v="consider natural=peak for the most distinct mountains in the district" />
		<tag k="name" v="Høgfjellet" />
		<tag k="natural" v="hill" />
		<tag k="place" v="locality" />
		<tag k="ssr:stedsnr" v="582076" />
	</node>
	<node id="-78256" lat="63.1063694446" lon="9.22140833241">
		<tag k="name" v="Seterlia" />
		<tag k="natural" v="slope" />
		<tag k="place" v="locality" />
		<tag k="ssr:stedsnr" v="582075" />
	</node>
	<node id="-78255" lat="63.113030552" lon="9.17200832922">
		<tag k="name" v="Fjellvåkveggen" />
		<tag k="place" v="locality" />
		<tag k="ssr:stedsnr" v="582072" />
	</node>
	<node id="-78254" lat="63.1125416638" lon="9.19804721777">
		<tag k="name" v="Bjørklia" />
		<tag k="natural" v="slope" />
		<tag k="place" v="locality" />
		<tag k="ssr:stedsnr" v="582065" />
	</node>
	<node id="-78252" lat="62.9930583292" lon="9.33301944152">
		<tag k="name" v="Kvenngrøhammaren" />
		<tag k="natural" v="hill" />
		<tag k="place" v="locality" />
		<tag k="ssr:stedsnr" v="582051" />
	</node>
	<node id="-78251" lat="62.9404083352" lon="9.12603611309">
		<tag k="name" v="Gråhaugen" />
		<tag k="natural" v="hill" />
		<tag k="place" v="locality" />
		<tag k="ssr:stedsnr" v="582040" />
	</node>
	<node id="-78250" lat="63.040455553" lon="9.18138610492">
		<tag k="name" v="Litlrøruhaugen" />
		<tag k="natural" v="hill" />
		<tag k="place" v="locality" />
		<tag k="ssr:stedsnr" v="582031" />
	</node>
	<node id="-78248" lat="63.0733638855" lon="9.13046110422">
		<tag k="name" v="Skinndalsbrona" />
		<tag k="place" v="locality" />
		<tag k="ssr:stedsnr" v="581930" />
	</node>
	<node id="-78247" lat="63.1040305568" lon="9.02476667306">
		<tag k="fixme" v="consider natural=peak for the most distinct mountains in the district" />
		<tag k="name" v="Liakjølen" />
		<tag k="natural" v="hill" />
		<tag k="place" v="locality" />
		<tag k="ssr:stedsnr" v="581858" />
	</node>
	<node id="-78246" lat="63.1216166623" lon="9.0894000052">
		<tag k="name" v="Finnråa" />
		<tag k="natural" v="slope" />
		<tag k="place" v="locality" />
		<tag k="ssr:stedsnr" v="581812" />
	</node>
	<node id="-78243" lat="62.9837361113" lon="9.24072221326">
		<tag k="name" v="Dyrdalen" />
		<tag k="natural" v="valley" />
		<tag k="place" v="locality" />
		<tag k="ssr:stedsnr" v="571770" />
	</node>
	<node id="-78241" lat="63.0124638898" lon="9.23700833552">
		<tag k="name" v="Storslættbruna" />
		<tag k="natural" v="hill" />
		<tag k="place" v="locality" />
		<tag k="ssr:stedsnr" v="571733" />
	</node>
	<node id="-78240" lat="62.9484722182" lon="9.36262221842">
		<tag k="name" v="Storøya" />
		<tag k="place" v="locality" />
		<tag k="ssr:stedsnr" v="571726" />
	</node>
	<node id="-78238" lat="63.157613886" lon="9.22959999135">
		<tag k="name" v="Litljoskaret" />
		<tag k="natural" v="valley" />
		<tag k="place" v="locality" />
		<tag k="ssr:stedsnr" v="571390" />
	</node>
	<node id="-78237" lat="62.9481972208" lon="9.23365278369">
		<tag k="fixme" v="consider natural=peak for the most distinct mountains in the district" />
		<tag k="name" v="Medkveldsklempen" />
		<tag k="natural" v="hill" />
		<tag k="place" v="locality" />
		<tag k="ssr:stedsnr" v="571388" />
	</node>
	<node id="-78236" lat="63.0268638874" lon="9.21143889109">
		<tag k="name" v="Seterlia" />
		<tag k="natural" v="valley" />
		<tag k="place" v="locality" />
		<tag k="ssr:stedsnr" v="571316" />
	</node>
	<node id="-78234" lat="63.0003638853" lon="9.51196944742">
		<tag k="name" v="Steindalen" />
		<tag k="natural" v="valley" />
		<tag k="place" v="locality" />
		<tag k="ssr:stedsnr" v="571271" />
	</node>
	<node id="-78232" lat="63.1168805572" lon="9.28190277729">
		<tag k="name" v="Tordalen" />
		<tag k="natural" v="valley" />
		<tag k="place" v="locality" />
		<tag k="ssr:stedsnr" v="571235" />
	</node>
	<node id="-78228" lat="62.8855944452" lon="9.28229722522">
		<tag k="name" v="Rypfjellhalsen" />
		<tag k="natural" v="valley" />
		<tag k="place" v="locality" />
		<tag k="ssr:stedsnr" v="570218" />
	</node>
	<node id="-78226" lat="63.1524027789" lon="9.26343334053">
		<tag k="name" v="Kringlåthaugen" />
		<tag k="natural" v="hill" />
		<tag k="place" v="locality" />
		<tag k="ssr:stedsnr" v="569468" />
	</node>
	<node id="-78225" lat="63.0691472205" lon="9.12863054931">
		<tag k="name" v="Gammelseterøyan" />
		<tag k="place" v="locality" />
		<tag k="ssr:stedsnr" v="569449" />
	</node>
	<node id="-78222" lat="63.1477999988" lon="9.18326665847">
		<tag k="fixme" v="consider natural=peak for the most distinct mountains in the district" />
		<tag k="name" v="Snipen" />
		<tag k="natural" v="hill" />
		<tag k="place" v="locality" />
		<tag k="ssr:stedsnr" v="558738" />
	</node>
	<node id="-78216" lat="63.1403194411" lon="9.42305555411">
		<tag k="fixme" v="consider natural=peak for the most distinct mountains in the district" />
		<tag k="name" v="Åsen" />
		<tag k="natural" v="hill" />
		<tag k="place" v="locality" />
		<tag k="ssr:stedsnr" v="558565" />
	</node>
	<node id="-78213" lat="63.125794448" lon="9.2311111188">
		<tag k="fixme" v="consider natural=peak for the most distinct mountains in the district" />
		<tag k="name" v="Storfjellet" />
		<tag k="natural" v="hill" />
		<tag k="place" v="locality" />
		<tag k="ssr:stedsnr" v="558499" />
	</node>
	<node id="-78208" lat="63.0788000002" lon="9.25120277861">
		<tag k="fixme" v="consider natural=peak for the most distinct mountains in the district" />
		<tag k="name" v="Tiuråsen" />
		<tag k="natural" v="hill" />
		<tag k="place" v="locality" />
		<tag k="ssr:stedsnr" v="558459" />
	</node>
	<node id="-78196" lat="62.8597527806" lon="9.42245556318">
		<tag k="fixme" v="consider natural=peak for the most distinct mountains in the district" />
		<tag k="name" v="Langfjellet" />
		<tag k="natural" v="hill" />
		<tag k="place" v="locality" />
		<tag k="ssr:stedsnr" v="558221" />
	</node>
	<node id="-78195" lat="62.8520138902" lon="9.32444165781">
		<tag k="fixme" v="consider natural=peak for the most distinct mountains in the district" />
		<tag k="name" v="Trollhøtta" />
		<tag k="natural" v="hill" />
		<tag k="place" v="locality" />
		<tag k="ssr:stedsnr" v="558217" />
	</node>
	<node id="-78194" lat="62.9726249973" lon="9.410936113">
		<tag k="fixme" v="consider natural=peak for the most distinct mountains in the district" />
		<tag k="name" v="Rindåsen" />
		<tag k="natural" v="hill" />
		<tag k="place" v="locality" />
		<tag k="ssr:stedsnr" v="558191" />
	</node>
	<node id="-78193" lat="62.9888111076" lon="9.28774443808">
		<tag k="fixme" v="consider natural=peak for the most distinct mountains in the district" />
		<tag k="name" v="Vardfjellet" />
		<tag k="natural" v="hill" />
		<tag k="place" v="locality" />
		<tag k="ssr:stedsnr" v="558186" />
	</node>
	<node id="-78192" lat="62.9649861075" lon="9.37985832514">
		<tag k="fixme" v="consider natural=peak for the most distinct mountains in the district" />
		<tag k="name" v="Stormyrtelet" />
		<tag k="natural" v="hill" />
		<tag k="place" v="locality" />
		<tag k="ssr:stedsnr" v="558145" />
	</node>
	<node id="-78191" lat="62.936597226" lon="9.15363055831">
		<tag k="alt_name" v="Gråhaugen" />
		<tag k="name" v="Heimer Slompen" />
		<tag k="natural" v="hill" />
		<tag k="place" v="locality" />
		<tag k="ssr:stedsnr" v="558063" />
	</node>
	<node id="-78185" lat="63.1358666642" lon="9.4433611116">
		<tag k="name" v="Holtslættet" />
		<tag k="place" v="locality" />
		<tag k="ssr:stedsnr" v="528933" />
	</node>
	<node id="-78183" lat="63.0965583291" lon="9.41619445244">
		<tag k="name" v="Moshaugen" />
		<tag k="natural" v="hill" />
		<tag k="place" v="locality" />
		<tag k="ssr:stedsnr" v="528199" />
	</node>
	<node id="-78177" lat="63.0750694435" lon="9.42736667505">
		<tag k="name" v="Langmyrdalen" />
		<tag k="natural" v="valley" />
		<tag k="place" v="locality" />
		<tag k="ssr:stedsnr" v="524653" />
	</node>
	<node id="-78176" lat="63.0224055594" lon="9.43663610232">
		<tag k="name" v="Frekslættet" />
		<tag k="place" v="locality" />
		<tag k="ssr:stedsnr" v="524600" />
	</node>
	<node id="-78175" lat="63.0162277782" lon="9.48216945048">
		<tag k="name" v="Bakliene" />
		<tag k="natural" v="slope" />
		<tag k="place" v="locality" />
		<tag k="ssr:stedsnr" v="524585" />
	</node>
	<node id="-78171" lat="63.086727782" lon="9.2736194358">
		<tag k="name" v="Brenthaugen" />
		<tag k="natural" v="hill" />
		<tag k="place" v="locality" />
		<tag k="ssr:stedsnr" v="523971" />
	</node>
	<node id="-78169" lat="63.0279916623" lon="9.39374999873">
		<tag k="name" v="Almdalen" />
		<tag k="natural" v="valley" />
		<tag k="place" v="locality" />
		<tag k="ssr:stedsnr" v="523939" />
	</node>
	<node id="-78168" lat="63.0294916678" lon="9.37558612035">
		<tag k="fixme" v="consider natural=peak for the most distinct mountains in the district" />
		<tag k="name" v="Åsen" />
		<tag k="natural" v="hill" />
		<tag k="place" v="locality" />
		<tag k="ssr:stedsnr" v="523937" />
	</node>
	<node id="-78166" lat="63.0265666707" lon="9.3832694401">
		<tag k="name" v="Langhaugen" />
		<tag k="natural" v="hill" />
		<tag k="place" v="locality" />
		<tag k="ssr:stedsnr" v="523911" />
	</node>
	<node id="-78164" lat="63.1280500014" lon="9.31355277914">
		<tag k="name" v="Toråhaugen" />
		<tag k="natural" v="hill" />
		<tag k="place" v="locality" />
		<tag k="ssr:stedsnr" v="523900" />
	</node>
	<node id="-78163" lat="63.1376361109" lon="9.30178055888">
		<tag k="name" v="Vedalia" />
		<tag k="natural" v="slope" />
		<tag k="place" v="locality" />
		<tag k="ssr:stedsnr" v="523894" />
	</node>
	<node id="-78159" lat="63.0307305522" lon="9.32236388427">
		<tag k="name" v="Klokkdalen" />
		<tag k="natural" v="valley" />
		<tag k="place" v="locality" />
		<tag k="ssr:stedsnr" v="523328" />
	</node>
	<node id="-78157" lat="63.0271999994" lon="9.28588333022">
		<tag k="name" v="Supmjølhaugen" />
		<tag k="natural" v="hill" />
		<tag k="place" v="locality" />
		<tag k="ssr:stedsnr" v="523271" />
	</node>
	<node id="-78155" lat="62.9757694415" lon="9.43711666143">
		<tag k="name" v="Seterdalen" />
		<tag k="natural" v="valley" />
		<tag k="place" v="locality" />
		<tag k="ssr:stedsnr" v="523142" />
	</node>
	<node id="-78147" lat="63.0252583342" lon="9.12286111323">
		<tag k="name" v="Vettan" />
		<tag k="natural" v="ridge" />
		<tag k="place" v="locality" />
		<tag k="ssr:stedsnr" v="522876" />
	</node>
	<node id="-78141" lat="63.0720416703" lon="9.2169277698">
		<tag k="name" v="Djupdalen" />
		<tag k="natural" v="valley" />
		<tag k="place" v="locality" />
		<tag k="ssr:stedsnr" v="522201" />
	</node>
	<node id="-78140" lat="63.0540666637" lon="9.22638055903">
		<tag k="name" v="Gråkallen" />
		<tag k="natural" v="slope" />
		<tag k="place" v="locality" />
		<tag k="ssr:stedsnr" v="522119" />
	</node>
	<node id="-78139" lat="63.0497194453" lon="9.24393054577">
		<tag k="name" v="Luggubekkbrona" />
		<tag k="natural" v="ridge" />
		<tag k="place" v="locality" />
		<tag k="ssr:stedsnr" v="522117" />
	</node>
	<node id="-78138" lat="62.9192249982" lon="9.37059721936">
		<tag k="name" v="Slettlirabben" />
		<tag k="place" v="locality" />
		<tag k="ssr:stedsnr" v="522081" />
	</node>
	<node id="-78137" lat="63.0403222237" lon="9.21086944377">
		<tag k="name" v="Rønningsbakken" />
		<tag k="natural" v="slope" />
		<tag k="place" v="locality" />
		<tag k="ssr:stedsnr" v="522023" />
	</node>
	<node id="-78132" lat="63.089461108" lon="9.02648611022">
		<tag k="name" v="Gunhildfjellia" />
		<tag k="natural" v="slope" />
		<tag k="place" v="locality" />
		<tag k="ssr:stedsnr" v="521838" />
	</node>
	<node id="-78129" lat="62.9902805546" lon="9.24039722803">
		<tag k="name" v="Knebban" />
		<tag k="place" v="locality" />
		<tag k="ssr:stedsnr" v="521553" />
	</node>
	<node id="-78128" lat="63.0024999968" lon="9.25220277086">
		<tag k="name" v="Seterhaugen" />
		<tag k="natural" v="hill" />
		<tag k="place" v="locality" />
		<tag k="ssr:stedsnr" v="521420" />
	</node>
	<node id="-78125" lat="63.0087888901" lon="9.15764722415">
		<tag k="name" v="Mjøstohaugen" />
		<tag k="natural" v="hill" />
		<tag k="place" v="locality" />
		<tag k="ssr:stedsnr" v="521343" />
	</node>
	<node id="-78124" lat="63.018961114" lon="9.22322222368">
		<tag k="name" v="Lassengdalen" />
		<tag k="natural" v="valley" />
		<tag k="place" v="locality" />
		<tag k="ssr:stedsnr" v="521267" />
	</node>
	<node id="-78122" lat="63.1083861074" lon="9.22176389733">
		<tag k="name" v="Flekkotberget" />
		<tag k="natural" v="hill" />
		<tag k="place" v="locality" />
		<tag k="ssr:stedsnr" v="521069" />
	</node>
	<node id="-78114" lat="63.1170567595" lon="9.17397061203">
		<tag k="fixme" v="consider natural=peak for the most distinct mountains in the district" />
		<tag k="name" v="Gaddfjellet" />
		<tag k="natural" v="hill" />
		<tag k="place" v="locality" />
		<tag k="ssr:stedsnr" v="510816" />
	</node>
	<node id="-78113" lat="62.9354111147" lon="9.13395277698">
		<tag k="name" v="Gråhaugan" />
		<tag k="natural" v="hill" />
		<tag k="place" v="locality" />
		<tag k="ssr:stedsnr" v="510814" />
	</node>
	<node id="-78112" lat="62.9577138867" lon="9.23656666136">
		<tag k="name" v="Bjørklia" />
		<tag k="natural" v="slope" />
		<tag k="place" v="locality" />
		<tag k="ssr:stedsnr" v="510774" />
	</node>
	<node id="-78111" lat="63.111377781" lon="9.05945277961">
		<tag k="fixme" v="consider natural=peak for the most distinct mountains in the district" />
		<tag k="name" v="Gulen" />
		<tag k="natural" v="hill" />
		<tag k="place" v="locality" />
		<tag k="ssr:stedsnr" v="510759" />
	</node>
	<node id="-78109" lat="62.9512055579" lon="9.34688888487">
		<tag k="name" v="Sauberga" />
		<tag k="natural" v="hill" />
		<tag k="place" v="locality" />
		<tag k="ssr:stedsnr" v="510291" />
	</node>
	<node id="-78108" lat="63.0344944424" lon="9.46003055507">
		<tag k="name" v="Årbuslættet" />
		<tag k="place" v="locality" />
		<tag k="ssr:stedsnr" v="510239" />
	</node>
	<node id="-78106" lat="63.0869222243" lon="9.25741665754">
		<tag k="name" v="Kollalia" />
		<tag k="natural" v="slope" />
		<tag k="place" v="locality" />
		<tag k="ssr:stedsnr" v="509420" />
	</node>
	<node id="-78105" lat="62.9251138872" lon="9.20331945158">
		<tag k="name" v="Kvenngrøhausen" />
		<tag k="natural" v="hill" />
		<tag k="place" v="locality" />
		<tag k="ssr:stedsnr" v="509349" />
	</node>
	<node id="-78102" lat="63.1689583323" lon="9.24511667176">
		<tag k="name" v="Ljøsådalen" />
		<tag k="natural" v="valley" />
		<tag k="place" v="locality" />
		<tag k="ssr:stedsnr" v="498574" />
	</node>
	<node id="-78099" lat="63.1328250019" lon="9.38647500798">
		<tag k="fixme" v="consider natural=peak for the most distinct mountains in the district" />
		<tag k="name" v="Byåsen" />
		<tag k="natural" v="hill" />
		<tag k="place" v="locality" />
		<tag k="ssr:stedsnr" v="498517" />
	</node>
	<node id="-78096" lat="63.065638885" lon="9.43352777665">
		<tag k="fixme" v="consider natural=peak for the most distinct mountains in the district" />
		<tag k="name" v="Middagsfjellet" />
		<tag k="natural" v="hill" />
		<tag k="place" v="locality" />
		<tag k="ssr:stedsnr" v="498450" />
	</node>
	<node id="-78095" lat="63.0395249974" lon="9.47761944758">
		<tag k="fixme" v="consider natural=peak for the most distinct mountains in the district" />
		<tag k="name" v="Dugurdmålsfjellet" />
		<tag k="natural" v="hill" />
		<tag k="place" v="locality" />
		<tag k="ssr:stedsnr" v="498421" />
	</node>
	<node id="-78092" lat="62.9923166696" lon="9.48271389408">
		<tag k="fixme" v="consider natural=peak for the most distinct mountains in the district" />
		<tag k="name" v="Vålåskarskjølen" />
		<tag k="natural" v="hill" />
		<tag k="place" v="locality" />
		<tag k="ssr:stedsnr" v="498217" />
	</node>
	<node id="-78085" lat="63.0885916663" lon="9.37965000292">
		<tag k="fixme" v="multiple name tags, choose one and add the other to alt_name; consider natural=peak for the most distinct mountains in the district" />
		<tag k="name" v="Storslåttåsen;Tifjellknatten" />
		<tag k="natural" v="hill" />
		<tag k="place" v="locality" />
		<tag k="ssr:stedsnr" v="497407" />
	</node>
	<node id="-78084" lat="63.0717111117" lon="9.36781111287">
		<tag k="name" v="Langura" />
		<tag k="place" v="locality" />
		<tag k="ssr:stedsnr" v="497374" />
	</node>
	<node id="-78076" lat="63.1388611124" lon="9.41917500613">
		<tag k="name" v="Skosslan" />
		<tag k="natural" v="slope" />
		<tag k="place" v="locality" />
		<tag k="ssr:stedsnr" v="467973" />
	</node>
	<node id="-78075" lat="63.1181055577" lon="9.42458333772">
		<tag k="name" v="Gammelseterdalen" />
		<tag k="natural" v="valley" />
		<tag k="place" v="locality" />
		<tag k="ssr:stedsnr" v="467265" />
	</node>
	<node id="-78073" lat="63.1131249991" lon="9.39977776883">
		<tag k="name" v="Litlslåtta" />
		<tag k="place" v="locality" />
		<tag k="ssr:stedsnr" v="467253" />
	</node>
	<node id="-78072" lat="63.1204388933" lon="9.42912499195">
		<tag k="name" v="Storlidalen" />
		<tag k="natural" v="valley" />
		<tag k="place" v="locality" />
		<tag k="ssr:stedsnr" v="467252" />
	</node>
	<node id="-78071" lat="63.1478583362" lon="9.42818333105">
		<tag k="fixme" v="consider natural=peak for the most distinct mountains in the district" />
		<tag k="name" v="Ytter Brannåsen" />
		<tag k="natural" v="hill" />
		<tag k="place" v="locality" />
		<tag k="ssr:stedsnr" v="467125" />
	</node>
	<node id="-78065" lat="63.1543555545" lon="9.31077778559">
		<tag k="name" v="Skarven" />
		<tag k="place" v="locality" />
		<tag k="ssr:stedsnr" v="463949" />
	</node>
	<node id="-78060" lat="63.0164333353" lon="9.42731666592">
		<tag k="name" v="Øverbakkslættet" />
		<tag k="place" v="locality" />
		<tag k="ssr:stedsnr" v="463633" />
	</node>
	<node id="-78059" lat="63.0176916669" lon="9.40378334039">
		<tag k="name" v="Sigridslættet" />
		<tag k="place" v="locality" />
		<tag k="ssr:stedsnr" v="463631" />
	</node>
	<node id="-78057" lat="63.0534166694" lon="9.41297499216">
		<tag k="name" v="Kajdalen" />
		<tag k="natural" v="valley" />
		<tag k="place" v="locality" />
		<tag k="ssr:stedsnr" v="463260" />
	</node>
	<node id="-78056" lat="62.9862833306" lon="9.48813333148">
		<tag k="name" v="Kringlåttslåtta" />
		<tag k="natural" v="slope" />
		<tag k="place" v="locality" />
		<tag k="ssr:stedsnr" v="463120" />
	</node>
	<node id="-78055" lat="62.9825194438" lon="9.40623055473">
		<tag k="name" v="Rindøyan" />
		<tag k="place" v="locality" />
		<tag k="ssr:stedsnr" v="463104" />
	</node>
	<node id="-78054" lat="62.9685416684" lon="9.42055278183">
		<tag k="name" v="Høgråket" />
		<tag k="place" v="locality" />
		<tag k="ssr:stedsnr" v="463103" />
	</node>
	<node id="-78052" lat="63.1688611099" lon="9.30585834226">
		<tag k="name" v="Brattråket" />
		<tag k="place" v="locality" />
		<tag k="ssr:stedsnr" v="463081" />
	</node>
	<node id="-78049" lat="63.0776000022" lon="9.2852750028">
		<tag k="name" v="Skansen" />
		<tag k="natural" v="hill" />
		<tag k="place" v="locality" />
		<tag k="ssr:stedsnr" v="463077" />
	</node>
	<node id="-78047" lat="63.1839916672" lon="9.30540556059">
		<tag k="name" v="Storhauglia" />
		<tag k="natural" v="slope" />
		<tag k="place" v="locality" />
		<tag k="ssr:stedsnr" v="463071" />
	</node>
	<node id="-78033" lat="63.005594449" lon="9.31346665826">
		<tag k="name" v="Styggversstøggudalen" />
		<tag k="natural" v="valley" />
		<tag k="place" v="locality" />
		<tag k="ssr:stedsnr" v="462420" />
	</node>
	<node id="-78032" lat="63.0334499984" lon="9.32381388231">
		<tag k="name" v="Høydalen" />
		<tag k="natural" v="valley" />
		<tag k="place" v="locality" />
		<tag k="ssr:stedsnr" v="462261" />
	</node>
	<node id="-78031" lat="63.0348333357" lon="9.32751388309">
		<tag k="name" v="Litlurdalen" />
		<tag k="natural" v="valley" />
		<tag k="place" v="locality" />
		<tag k="ssr:stedsnr" v="462258" />
	</node>
	<node id="-78027" lat="63.0478555531" lon="9.28855277661">
		<tag k="fixme" v="consider natural=peak for the most distinct mountains in the district" />
		<tag k="name" v="Svartvassåsen" />
		<tag k="natural" v="hill" />
		<tag k="place" v="locality" />
		<tag k="ssr:stedsnr" v="462019" />
	</node>
	<node id="-78025" lat="63.0558694402" lon="9.12825832772">
		<tag k="name" v="Kårlia" />
		<tag k="natural" v="slope" />
		<tag k="place" v="locality" />
		<tag k="ssr:stedsnr" v="461985" />
	</node>
	<node id="-78020" lat="63.0672222199" lon="9.13988055125">
		<tag k="fixme" v="consider natural=peak for the most distinct mountains in the district" />
		<tag k="name" v="Tørsåsen" />
		<tag k="natural" v="hill" />
		<tag k="place" v="locality" />
		<tag k="ssr:stedsnr" v="461920" />
	</node>
	<node id="-78019" lat="63.0242083377" lon="9.14142222091">
		<tag k="name" v="Storslættet" />
		<tag k="place" v="locality" />
		<tag k="ssr:stedsnr" v="461888" />
	</node>
	<node id="-78018" lat="63.0280777795" lon="9.14478055266">
		<tag k="name" v="Storlia" />
		<tag k="natural" v="slope" />
		<tag k="place" v="locality" />
		<tag k="ssr:stedsnr" v="461886" />
	</node>
	<node id="-78017" lat="63.1188472185" lon="9.04401389714">
		<tag k="name" v="Fossdalsbaklia" />
		<tag k="natural" v="slope" />
		<tag k="place" v="locality" />
		<tag k="ssr:stedsnr" v="461781" />
	</node>
	<node id="-78015" lat="63.0349722235" lon="9.16068888709">
		<tag k="name" v="Skrommeldalen" />
		<tag k="natural" v="valley" />
		<tag k="place" v="locality" />
		<tag k="ssr:stedsnr" v="461414" />
	</node>
	<node id="-78014" lat="63.1315444449" lon="9.25153054937">
		<tag k="name" v="Seterbronin" />
		<tag k="place" v="locality" />
		<tag k="ssr:stedsnr" v="461213" />
	</node>
	<node id="-78011" lat="63.0663999988" lon="9.17696667263">
		<tag k="name" v="Eldmyrhaugen" />
		<tag k="natural" v="hill" />
		<tag k="place" v="locality" />
		<tag k="ssr:stedsnr" v="461189" />
	</node>
	<node id="-78009" lat="63.0757694475" lon="9.1587805626">
		<tag k="name" v="Ljøsådalen" />
		<tag k="natural" v="valley" />
		<tag k="place" v="locality" />
		<tag k="ssr:stedsnr" v="461128" />
	</node>
	<node id="-78008" lat="63.1147777813" lon="9.23319999478">
		<tag k="name" v="Slettdalskinn" />
		<tag k="natural" v="ridge" />
		<tag k="place" v="locality" />
		<tag k="ssr:stedsnr" v="461086" />
	</node>
	<node id="-78007" lat="62.9452138893" lon="9.13352223109">
		<tag k="name" v="Nyhøyløslættet" />
		<tag k="place" v="locality" />
		<tag k="ssr:stedsnr" v="461047" />
	</node>
	<node id="-78002" lat="62.9645805585" lon="9.13285278045">
		<tag k="name" v="Rundhaugen" />
		<tag k="natural" v="hill" />
		<tag k="place" v="locality" />
		<tag k="ssr:stedsnr" v="461013" />
	</node>
	<node id="-78001" lat="63.1211166635" lon="9.08893332513">
		<tag k="name" v="Finnhøtthaugen" />
		<tag k="natural" v="hill" />
		<tag k="place" v="locality" />
		<tag k="ssr:stedsnr" v="460799" />
	</node>
	<node id="-78000" lat="63.0351694469" lon="9.22554444446">
		<tag k="name" v="Tysslia" />
		<tag k="natural" v="slope" />
		<tag k="place" v="locality" />
		<tag k="ssr:stedsnr" v="461306" />
	</node>
	<node id="-77993" lat="63.0006305514" lon="9.42289166522">
		<tag k="name" v="Skavlia" />
		<tag k="natural" v="slope" />
		<tag k="place" v="locality" />
		<tag k="ssr:stedsnr" v="450316" />
	</node>
	<node id="-77990" lat="63.1380277822" lon="9.28563888519">
		<tag k="name" v="Knebban" />
		<tag k="natural" v="hill" />
		<tag k="place" v="locality" />
		<tag k="ssr:stedsnr" v="448498" />
	</node>
	<node id="-77989" lat="62.8715305547" lon="9.25820277935">
		<tag k="name" v="Haugalia" />
		<tag k="natural" v="slope" />
		<tag k="place" v="locality" />
		<tag k="ssr:stedsnr" v="448490" />
	</node>
	<node id="-77984" lat="63.1980499965" lon="9.31658055371">
		<tag k="name" v="Vollahaugen" />
		<tag k="natural" v="hill" />
		<tag k="place" v="locality" />
		<tag k="ssr:stedsnr" v="437614" />
	</node>
	<node id="-77983" lat="63.1830194426" lon="9.41185833973">
		<tag k="fixme" v="consider natural=peak for the most distinct mountains in the district" />
		<tag k="name" v="Jolifjellet" />
		<tag k="natural" v="hill" />
		<tag k="place" v="locality" />
		<tag k="ssr:stedsnr" v="437599" />
	</node>
	<node id="-77973" lat="62.8634972211" lon="9.39338610133">
		<tag k="fixme" v="consider natural=peak for the most distinct mountains in the district" />
		<tag k="name" v="Piksteinhøa" />
		<tag k="natural" v="hill" />
		<tag k="place" v="locality" />
		<tag k="ssr:stedsnr" v="437234" />
	</node>
	<node id="-77972" lat="62.8987555512" lon="9.44729443995">
		<tag k="fixme" v="multiple name tags, choose one and add the other to alt_name; consider natural=peak for the most distinct mountains in the district" />
		<tag k="name" v="Tovdalsberga;Solliin" />
		<tag k="natural" v="hill" />
		<tag k="place" v="locality" />
		<tag k="ssr:stedsnr" v="437217" />
	</node>
	<node id="-77966" lat="62.946247225" lon="9.2085499976">
		<tag k="fixme" v="consider natural=peak for the most distinct mountains in the district" />
		<tag k="name" v="Urarabben" />
		<tag k="natural" v="hill" />
		<tag k="place" v="locality" />
		<tag k="ssr:stedsnr" v="437051" />
	</node>
	<node id="-77962" lat="63.1077499958" lon="9.24915555715">
		<tag k="fixme" v="consider natural=peak for the most distinct mountains in the district" />
		<tag k="name" v="Åsen" />
		<tag k="natural" v="hill" />
		<tag k="place" v="locality" />
		<tag k="ssr:stedsnr" v="437472" />
	</node>
	<node id="-77958" lat="63.0545000036" lon="9.43361944439">
		<tag k="fixme" v="consider natural=peak for the most distinct mountains in the district" />
		<tag k="name" v="Snausstabben" />
		<tag k="natural" v="hill" />
		<tag k="place" v="locality" />
		<tag k="ssr:stedsnr" v="437427" />
	</node>
	<node id="-77953" lat="62.9314555523" lon="9.1495138952">
		<tag k="name" v="Slumpan" />
		<tag k="place" v="locality" />
		<tag k="ssr:stedsnr" v="268276" />
	</node>
	<node id="-77949" lat="63.1373861143" lon="9.19672778524">
		<tag k="fixme" v="consider natural=peak for the most distinct mountains in the district" />
		<tag k="name" v="Jørundholet" />
		<tag k="natural" v="hill" />
		<tag k="old_name" v="Jorenskardfjellet;Jørenskardfjellet;Jønskardfjellet" />
		<tag k="place" v="locality" />
		<tag k="ssr:stedsnr" v="255734" />
	</node>
	<node id="-77947" lat="63.0615500036" lon="9.10087778602">
		<tag k="name" v="Gomåkjølen" />
		<tag k="natural" v="hill" />
		<tag k="place" v="locality" />
		<tag k="ssr:stedsnr" v="255658" />
	</node>
	<node id="-77945" lat="63.1487694488" lon="9.39605277741">
		<tag k="name" v="Hermundslia" />
		<tag k="natural" v="slope" />
		<tag k="place" v="locality" />
		<tag k="ssr:stedsnr" v="255554" />
	</node>
	<node id="-77944" lat="63.1461722249" lon="9.25383334017">
		<tag k="name" v="Løfallseterdalen" />
		<tag k="natural" v="valley" />
		<tag k="place" v="locality" />
		<tag k="ssr:stedsnr" v="255551" />
	</node>
	<node id="-77941" lat="63.1751638891" lon="9.34340556526">
		<tag k="fixme" v="consider natural=peak for the most distinct mountains in the district" />
		<tag k="name" v="Gråurfjellet" />
		<tag k="natural" v="hill" />
		<tag k="place" v="locality" />
		<tag k="ssr:stedsnr" v="255519" />
	</node>
	<node id="-77935" lat="62.9636000012" lon="9.1676194496">
		<tag k="fixme" v="consider natural=peak for the most distinct mountains in the district" />
		<tag k="name" v="Skrommelvasshausen" />
		<tag k="natural" v="hill" />
		<tag k="place" v="locality" />
		<tag k="ssr:stedsnr" v="255447" />
	</node>
	<node id="-77932" lat="63.1126111083" lon="9.40493334113">
		<tag k="fixme" v="consider natural=peak for the most distinct mountains in the district" />
		<tag k="name" v="Brannåsen" />
		<tag k="natural" v="hill" />
		<tag k="place" v="locality" />
		<tag k="ssr:stedsnr" v="255442" />
	</node>
	<node id="-77920" lat="62.908336109" lon="9.44007778033">
		<tag k="name" v="Skaret" />
		<tag k="natural" v="valley" />
		<tag k="place" v="locality" />
		<tag k="ssr:stedsnr" v="255254" />
	</node>
	<node id="-77919" lat="62.9241027734" lon="9.30600000622">
		<tag k="fixme" v="consider natural=peak for the most distinct mountains in the district" />
		<tag k="name" v="Tverrveggen" />
		<tag k="natural" v="hill" />
		<tag k="place" v="locality" />
		<tag k="ssr:stedsnr" v="255233" />
	</node>
	<node id="-77912" lat="62.9654805516" lon="9.28129165866">
		<tag k="fixme" v="consider natural=peak for the most distinct mountains in the district" />
		<tag k="name" v="Litltrollhøtta" />
		<tag k="natural" v="hill" />
		<tag k="place" v="locality" />
		<tag k="ssr:stedsnr" v="255145" />
	</node>
	<node id="-77911" lat="62.9356361087" lon="9.16495833258">
		<tag k="fixme" v="consider natural=peak for the most distinct mountains in the district" />
		<tag k="name" v="Midtveggen" />
		<tag k="natural" v="hill" />
		<tag k="place" v="locality" />
		<tag k="ssr:stedsnr" v="255064" />
	</node>
	<node id="-77910" lat="62.9485527808" lon="9.17730554995">
		<tag k="fixme" v="consider natural=peak for the most distinct mountains in the district" />
		<tag k="name" v="Langurveggen" />
		<tag k="natural" v="hill" />
		<tag k="place" v="locality" />
		<tag k="ssr:stedsnr" v="255050" />
	</node>
	<node id="-77909" lat="63.1425583365" lon="9.44362221776">
		<tag k="name" v="Gammeltrøa" />
		<tag k="place" v="locality" />
		<tag k="ssr:stedsnr" v="225953" />
	</node>
	<node id="-77908" lat="63.1654805567" lon="9.42202778681">
		<tag k="name" v="Brattlia" />
		<tag k="natural" v="slope" />
		<tag k="place" v="locality" />
		<tag k="ssr:stedsnr" v="225126" />
	</node>
	<node id="-77907" lat="63.0087666672" lon="9.53029999631">
		<tag k="name" v="Styggråket" />
		<tag k="natural" v="cliff" />
		<tag k="ssr:stedsnr" v="225113" />
	</node>
	<node id="-77905" lat="63.1158805597" lon="9.40463055652">
		<tag k="name" v="Svarthammaren" />
		<tag k="place" v="locality" />
		<tag k="ssr:stedsnr" v="224253" />
	</node>
	<node id="-77904" lat="63.1227083323" lon="9.43921665758">
		<tag k="name" v="Kåsan" />
		<tag k="natural" v="hill" />
		<tag k="place" v="locality" />
		<tag k="ssr:stedsnr" v="224249" />
	</node>
	<node id="-77903" lat="63.1080500025" lon="9.41931388577">
		<tag k="name" v="Øverliin" />
		<tag k="natural" v="slope" />
		<tag k="place" v="locality" />
		<tag k="ssr:stedsnr" v="224246" />
	</node>
	<node id="-77901" lat="63.1661555515" lon="9.40777777855">
		<tag k="name" v="Kråkberget" />
		<tag k="natural" v="hill" />
		<tag k="place" v="locality" />
		<tag k="ssr:stedsnr" v="224123" />
	</node>
	<node id="-77900" lat="63.1538083308" lon="9.43782221232">
		<tag k="fixme" v="consider natural=peak for the most distinct mountains in the district" />
		<tag k="name" v="Auster Brannåsen" />
		<tag k="natural" v="hill" />
		<tag k="place" v="locality" />
		<tag k="ssr:stedsnr" v="224055" />
	</node>
	<node id="-77893" lat="63.0374305556" lon="9.41114721901">
		<tag k="name" v="Bjønnaskallen" />
		<tag k="natural" v="hill" />
		<tag k="place" v="locality" />
		<tag k="ssr:stedsnr" v="221594" />
	</node>
	<node id="-77892" lat="63.0346638887" lon="9.40437222762">
		<tag k="name" v="Seterlia" />
		<tag k="natural" v="slope" />
		<tag k="place" v="locality" />
		<tag k="ssr:stedsnr" v="221591" />
	</node>
	<node id="-77891" lat="63.0207249964" lon="9.47014999243">
		<tag k="name" v="Haugadalen" />
		<tag k="natural" v="valley" />
		<tag k="place" v="locality" />
		<tag k="ssr:stedsnr" v="221587" />
	</node>
	<node id="-77889" lat="63.0224722223" lon="9.33537221497">
		<tag k="name" v="Bergulhaugen" />
		<tag k="natural" v="hill" />
		<tag k="place" v="locality" />
		<tag k="ssr:stedsnr" v="220931" />
	</node>
	<node id="-77888" lat="63.0233472261" lon="9.37403610571">
		<tag k="name" v="Grønhaugen" />
		<tag k="natural" v="hill" />
		<tag k="place" v="locality" />
		<tag k="ssr:stedsnr" v="220910" />
	</node>
	<node id="-77886" lat="63.0006805541" lon="9.34023333539">
		<tag k="name" v="Tjønnslættet" />
		<tag k="place" v="locality" />
		<tag k="ssr:stedsnr" v="220532" />
	</node>
	<node id="-77885" lat="63.0148111153" lon="9.37447777415">
		<tag k="name" v="Kirkholtgjerde" />
		<tag k="natural" v="slope" />
		<tag k="place" v="locality" />
		<tag k="ssr:stedsnr" v="220529" />
	</node>
	<node id="-77884" lat="63.0005416666" lon="9.48685278211">
		<tag k="name" v="Pelldalen" />
		<tag k="natural" v="valley" />
		<tag k="place" v="locality" />
		<tag k="ssr:stedsnr" v="220473" />
	</node>
	<node id="-77883" lat="63.0054583321" lon="9.51005556287">
		<tag k="name" v="Storbaklia" />
		<tag k="natural" v="slope" />
		<tag k="place" v="locality" />
		<tag k="ssr:stedsnr" v="220438" />
	</node>
	<node id="-77882" lat="63.0274861115" lon="9.32996389606">
		<tag k="name" v="Hjortkalvhagen" />
		<tag k="natural" v="slope" />
		<tag k="place" v="locality" />
		<tag k="ssr:stedsnr" v="220349" />
	</node>
	<node id="-77881" lat="62.9872416677" lon="9.41061666462">
		<tag k="name" v="Hølstolslettet" />
		<tag k="place" v="locality" />
		<tag k="ssr:stedsnr" v="220158" />
	</node>
	<node id="-77880" lat="62.9621027822" lon="9.4117694418">
		<tag k="name" v="Øygardslia" />
		<tag k="natural" v="slope" />
		<tag k="place" v="locality" />
		<tag k="ssr:stedsnr" v="220144" />
	</node>
	<node id="-77879" lat="63.0751972257" lon="9.35091387904">
		<tag k="name" v="Blomlia" />
		<tag k="natural" v="slope" />
		<tag k="place" v="locality" />
		<tag k="ssr:stedsnr" v="220133" />
	</node>
	<node id="-77878" lat="63.081063893" lon="9.29373333289">
		<tag k="name" v="Luberget" />
		<tag k="natural" v="hill" />
		<tag k="place" v="locality" />
		<tag k="ssr:stedsnr" v="220121" />
	</node>
	<node id="-77877" lat="63.1814555582" lon="9.3939388981">
		<tag k="name" v="Espedalen" />
		<tag k="natural" v="valley" />
		<tag k="place" v="locality" />
		<tag k="ssr:stedsnr" v="220075" />
	</node>
	<node id="-77876" lat="63.1937805579" lon="9.36587499389">
		<tag k="name" v="Skruvtellia" />
		<tag k="natural" v="slope" />
		<tag k="place" v="locality" />
		<tag k="ssr:stedsnr" v="220071" />
	</node>
	<node id="-77874" lat="63.1134055548" lon="9.37890555116">
		<tag k="name" v="Litldalen" />
		<tag k="natural" v="valley" />
		<tag k="place" v="locality" />
		<tag k="ssr:stedsnr" v="220065" />
	</node>
	<node id="-77873" lat="63.107519444" lon="9.36329444211">
		<tag k="name" v="Geilhaugen" />
		<tag k="natural" v="hill" />
		<tag k="place" v="locality" />
		<tag k="ssr:stedsnr" v="220061" />
	</node>
	<node id="-77868" lat="63.0524166707" lon="9.32268055341">
		<tag k="name" v="Knutslia" />
		<tag k="natural" v="slope" />
		<tag k="place" v="locality" />
		<tag k="ssr:stedsnr" v="220010" />
	</node>
	<node id="-77865" lat="63.0997638927" lon="9.28233333821">
		<tag k="name" v="Stordalen" />
		<tag k="natural" v="valley" />
		<tag k="place" v="locality" />
		<tag k="ssr:stedsnr" v="219975" />
	</node>
	<node id="-77864" lat="63.0899166644" lon="9.27860555857">
		<tag k="name" v="Storhaugen" />
		<tag k="natural" v="hill" />
		<tag k="place" v="locality" />
		<tag k="ssr:stedsnr" v="219976" />
	</node>
	<node id="-77863" lat="63.097655559" lon="9.39205277569">
		<tag k="name" v="Svahylla" />
		<tag k="natural" v="hill" />
		<tag k="place" v="locality" />
		<tag k="ssr:stedsnr" v="219970" />
	</node>
	<node id="-77861" lat="62.994033329" lon="9.17993056273">
		<tag k="name" v="Skaret" />
		<tag k="natural" v="valley" />
		<tag k="place" v="locality" />
		<tag k="ssr:stedsnr" v="219568" />
	</node>
	<node id="-77860" lat="63.0222166671" lon="9.30850277924">
		<tag k="name" v="Svartegga" />
		<tag k="natural" v="hill" />
		<tag k="place" v="locality" />
		<tag k="ssr:stedsnr" v="219290" />
	</node>
	<node id="-77859" lat="63.0322805515" lon="9.3049055467">
		<tag k="name" v="Kåshaugan" />
		<tag k="natural" v="hill" />
		<tag k="place" v="locality" />
		<tag k="ssr:stedsnr" v="219245" />
	</node>
	<node id="-77858" lat="63.0689666692" lon="9.17693889815">
		<tag k="name" v="Seljpilhaugen" />
		<tag k="natural" v="hill" />
		<tag k="place" v="locality" />
		<tag k="ssr:stedsnr" v="219175" />
	</node>
	<node id="-77857" lat="63.0680472265" lon="9.19234167315">
		<tag k="name" v="Bjønnadalen" />
		<tag k="natural" v="valley" />
		<tag k="place" v="locality" />
		<tag k="ssr:stedsnr" v="219173" />
	</node>
	<node id="-77855" lat="63.1436749964" lon="9.19338054975">
		<tag k="fixme" v="consider natural=peak for the most distinct mountains in the district" />
		<tag k="name" v="Hompan" />
		<tag k="natural" v="hill" />
		<tag k="place" v="locality" />
		<tag k="ssr:stedsnr" v="219160" />
	</node>
	<node id="-77853" lat="63.0700194486" lon="9.1668972127">
		<tag k="name" v="Tørsdalen" />
		<tag k="natural" v="valley" />
		<tag k="place" v="locality" />
		<tag k="ssr:stedsnr" v="219134" />
	</node>
	<node id="-77852" lat="62.8292499961" lon="9.39844167284">
		<tag k="name" v="Litlsvartådalen" />
		<tag k="natural" v="valley" />
		<tag k="place" v="locality" />
		<tag k="ssr:stedsnr" v="219129" />
	</node>
	<node id="-77851" lat="63.0549166703" lon="9.27413889168">
		<tag k="name" v="Sagøya" />
		<tag k="place" v="locality" />
		<tag k="ssr:stedsnr" v="219009" />
	</node>
	<node id="-77850" lat="63.0470694426" lon="9.13679166354">
		<tag k="name" v="Almdalen" />
		<tag k="natural" v="valley" />
		<tag k="place" v="locality" />
		<tag k="ssr:stedsnr" v="218993" />
	</node>
	<node id="-77849" lat="63.0600250022" lon="9.114441664">
		<tag k="name" v="Råslættet" />
		<tag k="place" v="locality" />
		<tag k="ssr:stedsnr" v="218989" />
	</node>
	<node id="-77848" lat="63.0800555544" lon="9.10789444166">
		<tag k="fixme" v="consider natural=peak for the most distinct mountains in the district" />
		<tag k="name" v="Halvarfjellet" />
		<tag k="natural" v="hill" />
		<tag k="place" v="locality" />
		<tag k="ssr:stedsnr" v="218966" />
	</node>
	<node id="-77845" lat="63.0413888925" lon="9.12676389822">
		<tag k="name" v="Sølvsmedøya" />
		<tag k="place" v="locality" />
		<tag k="ssr:stedsnr" v="218945" />
	</node>
	<node id="-77844" lat="63.0568499967" lon="9.23690278348">
		<tag k="name" v="Litldalen" />
		<tag k="natural" v="valley" />
		<tag k="place" v="locality" />
		<tag k="ssr:stedsnr" v="219117" />
	</node>
	<node id="-77842" lat="63.0213722187" lon="9.16672777183">
		<tag k="name" v="Storslættet" />
		<tag k="place" v="locality" />
		<tag k="ssr:stedsnr" v="218581" />
	</node>
	<node id="-77841" lat="63.0232583311" lon="9.17945833949">
		<tag k="name" v="Seterbuslættet" />
		<tag k="natural" v="valley" />
		<tag k="place" v="locality" />
		<tag k="ssr:stedsnr" v="218576" />
	</node>
	<node id="-77840" lat="62.9832583332" lon="9.2128166643">
		<tag k="name" v="Bukta" />
		<tag k="place" v="locality" />
		<tag k="ssr:stedsnr" v="218534" />
	</node>
	<node id="-77839" lat="63.0331083319" lon="9.15034443885">
		<tag k="name" v="Gråslættet" />
		<tag k="place" v="locality" />
		<tag k="ssr:stedsnr" v="218412" />
	</node>
	<node id="-77837" lat="63.1077361088" lon="9.26542499035">
		<tag k="name" v="Himmelskaret" />
		<tag k="natural" v="valley" />
		<tag k="place" v="locality" />
		<tag k="ssr:stedsnr" v="218392" />
	</node>
	<node id="-77836" lat="63.0333138862" lon="9.24297776858">
		<tag k="name" v="Sponstolhaugen" />
		<tag k="natural" v="hill" />
		<tag k="place" v="locality" />
		<tag k="ssr:stedsnr" v="218280" />
	</node>
	<node id="-77835" lat="63.0234611094" lon="9.23141110196">
		<tag k="name" v="Geitostdalen" />
		<tag k="natural" v="valley" />
		<tag k="place" v="locality" />
		<tag k="ssr:stedsnr" v="218279" />
	</node>
	<node id="-77833" lat="63.0235638887" lon="9.22167499693">
		<tag k="name" v="Skarslættet" />
		<tag k="place" v="locality" />
		<tag k="ssr:stedsnr" v="218271" />
	</node>
	<node id="-77831" lat="63.1057000002" lon="9.22992778248">
		<tag k="name" v="Sletthaugan" />
		<tag k="natural" v="hill" />
		<tag k="place" v="locality" />
		<tag k="ssr:stedsnr" v="218087" />
	</node>
	<node id="-77829" lat="63.1080916672" lon="9.21699999295">
		<tag k="fixme" v="consider natural=peak for the most distinct mountains in the district" />
		<tag k="name" v="Trøknavassfjellet" />
		<tag k="natural" v="hill" />
		<tag k="place" v="locality" />
		<tag k="ssr:stedsnr" v="218065" />
	</node>
	<node id="-77828" lat="63.0802666639" lon="9.2490805552">
		<tag k="name" v="Skroggholet" />
		<tag k="natural" v="valley" />
		<tag k="place" v="locality" />
		<tag k="ssr:stedsnr" v="218194" />
	</node>
	<node id="-77827" lat="63.0990611111" lon="9.1703472136">
		<tag k="fixme" v="consider natural=peak for the most distinct mountains in the district" />
		<tag k="name" v="Vasslifjellet" />
		<tag k="natural" v="hill" />
		<tag k="place" v="locality" />
		<tag k="ssr:stedsnr" v="217037" />
	</node>
	<node id="-77826" lat="63.0925444418" lon="9.23930832538">
		<tag k="name" v="Auster Åøya" />
		<tag k="place" v="locality" />
		<tag k="ssr:stedsnr" v="217020" />
	</node>
	<node id="-77825" lat="62.9180083369" lon="9.37561111208">
		<tag k="fixme" v="consider natural=peak for the most distinct mountains in the district" />
		<tag k="name" v="Bakhatten" />
		<tag k="natural" v="hill" />
		<tag k="place" v="locality" />
		<tag k="ssr:stedsnr" v="210910" />
	</node>
</osm>
