<?xml version="1.0" encoding="UTF-8"?>
<osm generator="osmapis" version="0.6">
	<node id="-77824" lat="63.000216669" lon="9.213886113">
		<tag k="name" v="Stillbølu" />
		<tag k="place" v="locality" />
		<tag k="ssr:stedsnr" v="210786" />
	</node>
	<node id="-77820" lat="63.0169916667" lon="9.21136666301">
		<tag k="name" v="Storstoen" />
		<tag k="natural" v="waterfall" />
		<tag k="ssr:stedsnr" v="207734" />
	</node>
	<node id="-77819" lat="63.1286583324" lon="9.04445556396">
		<tag k="name" v="Snotbekken" />
		<tag k="ssr:stedsnr" v="207729" />
		<tag k="waterway" v="stream" />
	</node>
	<node id="-77816" lat="63.0789972198" lon="9.15242777493">
		<tag k="fixme" v="consider water=pond" />
		<tag k="name" v="Stokkåtjønna" />
		<tag k="natural" v="water" />
		<tag k="ssr:stedsnr" v="207277" />
		<tag k="water" v="lake" />
	</node>
	<node id="-77814" lat="62.9885666638" lon="9.31606944097">
		<tag k="name" v="Fjellbekken" />
		<tag k="ssr:stedsnr" v="207036" />
		<tag k="waterway" v="stream" />
	</node>
	<node id="-77811" lat="62.8982944469" lon="9.20451111698">
		<tag k="name" v="Reinsvika" />
		<tag k="natural" v="bay" />
		<tag k="ssr:stedsnr" v="206305" />
	</node>
	<node id="-77810" lat="63.0583861138" lon="9.09690555946">
		<tag k="name" v="Langvatnet" />
		<tag k="natural" v="water" />
		<tag k="ssr:stedsnr" v="203095" />
		<tag k="water" v="lake" />
	</node>
	<node id="-77804" lat="62.9971833331" lon="9.48218055875">
		<tag k="fixme" v="consider water=pond" />
		<tag k="name" v="Damvatnet" />
		<tag k="natural" v="water" />
		<tag k="ssr:stedsnr" v="195188" />
		<tag k="water" v="lake" />
	</node>
	<node id="-77803" lat="62.9818305532" lon="9.2753388899">
		<tag k="name" v="Litlbølu" />
		<tag k="ssr:stedsnr" v="195186" />
		<tag k="waterway" v="stream" />
	</node>
	<node id="-77802" lat="62.9941555543" lon="9.26084166009">
		<tag k="fixme" v="consider water=pond" />
		<tag k="name" v="Totjønnin" />
		<tag k="natural" v="water" />
		<tag k="ssr:stedsnr" v="195179" />
		<tag k="water" v="lake" />
	</node>
	<node id="-77800" lat="63.0941999991" lon="9.1616611086">
		<tag k="fixme" v="consider water=pond" />
		<tag k="name" v="Lomtjønna" />
		<tag k="natural" v="water" />
		<tag k="ssr:stedsnr" v="194727" />
		<tag k="water" v="lake" />
	</node>
	<node id="-77798" lat="63.0898194476" lon="8.99643334304">
		<tag k="name" v="Litlbøvra" />
		<tag k="ssr:stedsnr" v="194698" />
		<tag k="waterway" v="river" />
	</node>
	<node id="-77797" lat="63.1137000041" lon="9.14723889196">
		<tag k="fixme" v="consider water=pond" />
		<tag k="name" v="Geitskardvatna" />
		<tag k="natural" v="water" />
		<tag k="ssr:stedsnr" v="194673" />
		<tag k="water" v="lake" />
	</node>
	<node id="-77788" lat="63.0873499963" lon="9.42276110365">
		<tag k="name" v="Storbekken" />
		<tag k="ssr:stedsnr" v="194377" />
		<tag k="waterway" v="stream" />
	</node>
	<node id="-77787" lat="63.0917277812" lon="9.32503055506">
		<tag k="fixme" v="consider water=pond" />
		<tag k="name" v="Øyatjønna" />
		<tag k="natural" v="water" />
		<tag k="ssr:stedsnr" v="194374" />
		<tag k="water" v="lake" />
	</node>
	<node id="-77781" lat="63.0286999963" lon="9.42329445285">
		<tag k="name" v="Krokvassbekken" />
		<tag k="ssr:stedsnr" v="194292" />
		<tag k="waterway" v="stream" />
	</node>
	<node id="-77775" lat="63.1230833289" lon="9.41471388655">
		<tag k="name" v="Vaulosen" />
		<tag k="natural" v="bay" />
		<tag k="ssr:stedsnr" v="163245" />
	</node>
	<node id="-77762" lat="63.0538194465" lon="9.41539999159">
		<tag k="name" v="Stokkbekken" />
		<tag k="ssr:stedsnr" v="160232" />
		<tag k="waterway" v="stream" />
	</node>
	<node id="-77740" lat="63.1757916701" lon="9.2980361081">
		<tag k="fixme" v="consider water=pond" />
		<tag k="name" v="Nedre Gråortjern" />
		<tag k="natural" v="water" />
		<tag k="ssr:stedsnr" v="159106" />
		<tag k="water" v="lake" />
	</node>
	<node id="-77735" lat="63.1243472183" lon="9.36136110613">
		<tag k="fixme" v="consider water=pond" />
		<tag k="name" v="Lomtjønna" />
		<tag k="natural" v="water" />
		<tag k="ssr:stedsnr" v="159028" />
		<tag k="water" v="lake" />
	</node>
	<node id="-77731" lat="63.0294611153" lon="9.10457499241">
		<tag k="name" v="Ferjemannshølen" />
		<tag k="place" v="locality" />
		<tag k="ssr:stedsnr" v="158911" />
	</node>
	<node id="-77730" lat="63.0321999991" lon="9.29806944858">
		<tag k="name" v="Skjørbekken" />
		<tag k="ssr:stedsnr" v="158269" />
		<tag k="waterway" v="stream" />
	</node>
	<node id="-77722" lat="63.0542972236" lon="9.27995276904">
		<tag k="fixme" v="consider water=pond" />
		<tag k="name" v="Ratdammen" />
		<tag k="natural" v="water" />
		<tag k="ssr:stedsnr" v="158022" />
		<tag k="water" v="lake" />
	</node>
	<node id="-77720" lat="63.0782694448" lon="9.02739166901">
		<tag k="fixme" v="consider water=pond" />
		<tag k="name" v="Kutjønna" />
		<tag k="natural" v="water" />
		<tag k="ssr:stedsnr" v="157975" />
		<tag k="water" v="lake" />
	</node>
	<node id="-77707" lat="63.1099166671" lon="9.24217223207">
		<tag k="fixme" v="consider water=pond" />
		<tag k="name" v="Dilderpælen" />
		<tag k="natural" v="water" />
		<tag k="ssr:stedsnr" v="157077" />
		<tag k="water" v="lake" />
	</node>
	<node id="-77704" lat="63.0895555598" lon="9.2169305533">
		<tag k="name" v="Røskvisla" />
		<tag k="ssr:stedsnr" v="156011" />
		<tag k="waterway" v="stream" />
	</node>
	<node id="-77700" lat="62.9497666627" lon="9.13795833751">
		<tag k="name" v="Reinvassbekken" />
		<tag k="ssr:stedsnr" v="146732" />
		<tag k="waterway" v="stream" />
	</node>
	<node id="-77697" lat="63.1012277737" lon="9.17728887909">
		<tag k="name" v="Litlbrandåvatnet" />
		<tag k="natural" v="water" />
		<tag k="ssr:stedsnr" v="146344" />
		<tag k="water" v="lake" />
	</node>
	<node id="-77693" lat="63.0157472259" lon="9.16821667191">
		<tag k="fixme" v="consider water=pond" />
		<tag k="name" v="Børsetbogsvatnet" />
		<tag k="natural" v="water" />
		<tag k="ssr:stedsnr" v="144544" />
		<tag k="water" v="lake" />
	</node>
	<node id="-77680" lat="63.1696194457" lon="9.40626667">
		<tag k="name" v="Rørbekken" />
		<tag k="ssr:stedsnr" v="133466" />
		<tag k="waterway" v="stream" />
	</node>
	<node id="-77679" lat="63.1582805558" lon="9.44072777787">
		<tag k="name" v="Lomunda" />
		<tag k="ssr:stedsnr" v="133445" />
		<tag k="waterway" v="river" />
	</node>
	<node id="-77675" lat="63.0342166711" lon="9.3938638907">
		<tag k="fixme" v="consider water=pond" />
		<tag k="name" v="Setervatnet" />
		<tag k="natural" v="water" />
		<tag k="ssr:stedsnr" v="133289" />
		<tag k="water" v="lake" />
	</node>
	<node id="-77672" lat="63.0012694444" lon="9.42863333972">
		<tag k="name" v="Åsbekken" />
		<tag k="ssr:stedsnr" v="133171" />
		<tag k="waterway" v="stream" />
	</node>
	<node id="-77671" lat="63.0138611137" lon="9.36409999266">
		<tag k="name" v="Rinda" />
		<tag k="ssr:stedsnr" v="133166" />
		<tag k="waterway" v="river" />
	</node>
	<node id="-77670" lat="62.9715277804" lon="9.34478056059">
		<tag k="alt_name" v="Borter Stormyrbekken;Stormyrbekken, bortre" />
		<tag k="name" v="Bortre Stormyrbekken" />
		<tag k="ssr:stedsnr" v="133120" />
		<tag k="waterway" v="stream" />
	</node>
	<node id="-77669" lat="62.9280638855" lon="9.17483888579">
		<tag k="name" v="Skrantemyrvatnet" />
		<tag k="natural" v="water" />
		<tag k="ssr:stedsnr" v="133042" />
		<tag k="water" v="lake" />
	</node>
	<node id="-77655" lat="63.0712138909" lon="9.41455000515">
		<tag k="name" v="Tiåa" />
		<tag k="ssr:stedsnr" v="99755" />
		<tag k="waterway" v="river" />
	</node>
	<node id="-77646" lat="63.0759333309" lon="9.30744445118">
		<tag k="name" v="Holmen" />
		<tag k="place" v="islet" />
		<tag k="ssr:stedsnr" v="99098" />
	</node>
	<node id="-77637" lat="63.0871972259" lon="9.29315278716">
		<tag k="fixme" v="consider water=pond" />
		<tag k="name" v="Pungtjønna" />
		<tag k="natural" v="water" />
		<tag k="ssr:stedsnr" v="98975" />
		<tag k="water" v="lake" />
	</node>
	<node id="-77636" lat="63.0946833362" lon="9.32983611526">
		<tag k="fixme" v="consider water=pond" />
		<tag k="name" v="Svarttjønna" />
		<tag k="natural" v="water" />
		<tag k="ssr:stedsnr" v="98976" />
		<tag k="water" v="lake" />
	</node>
	<node id="-77628" lat="63.179241667" lon="9.22721388728">
		<tag k="name" v="Ljøsådalsbekken" />
		<tag k="ssr:stedsnr" v="98137" />
		<tag k="waterway" v="stream" />
	</node>
	<node id="-77627" lat="62.8357138914" lon="9.41275555844">
		<tag k="name" v="Litlsvartåa" />
		<tag k="ssr:stedsnr" v="98123" />
		<tag k="waterway" v="stream" />
	</node>
	<node id="-77626" lat="62.8374027815" lon="9.33927222968">
		<tag k="fixme" v="consider water=pond" />
		<tag k="name" v="Tjønnin" />
		<tag k="natural" v="water" />
		<tag k="ssr:stedsnr" v="98058" />
		<tag k="water" v="lake" />
	</node>
	<node id="-77625" lat="63.0532333332" lon="9.28664167608">
		<tag k="name" v="Vaulstoen" />
		<tag k="natural" v="waterfall" />
		<tag k="ssr:stedsnr" v="98010" />
	</node>
	<node id="-77616" lat="62.9956888915" lon="9.25825556116">
		<tag k="fixme" v="consider water=pond" />
		<tag k="name" v="Bjønnhilitjønna" />
		<tag k="natural" v="water" />
		<tag k="ssr:stedsnr" v="97414" />
		<tag k="water" v="lake" />
	</node>
	<node id="-77582" lat="63.1383888897" lon="9.40894722395">
		<tag k="fixme" v="consider water=pond" />
		<tag k="name" v="Grøsettjønnin" />
		<tag k="natural" v="water" />
		<tag k="ssr:stedsnr" v="73558" />
		<tag k="water" v="lake" />
	</node>
	<node id="-77579" lat="63.1228027798" lon="9.37436666328">
		<tag k="fixme" v="consider water=pond" />
		<tag k="name" v="Høgåsvatnet" />
		<tag k="natural" v="water" />
		<tag k="ssr:stedsnr" v="73506" />
		<tag k="water" v="lake" />
	</node>
	<node id="-77572" lat="63.0840277811" lon="9.34177500966">
		<tag k="fixme" v="consider water=pond" />
		<tag k="name" v="Laslættjønna" />
		<tag k="natural" v="water" />
		<tag k="ssr:stedsnr" v="73435" />
		<tag k="water" v="lake" />
	</node>
	<node id="-77568" lat="63.0019805548" lon="9.36539445342">
		<tag k="name" v="Litlbekken" />
		<tag k="ssr:stedsnr" v="73293" />
		<tag k="waterway" v="stream" />
	</node>
	<node id="-77565" lat="62.9775500003" lon="9.45556111175">
		<tag k="name" v="Langvatnet" />
		<tag k="natural" v="water" />
		<tag k="ssr:stedsnr" v="73174" />
		<tag k="water" v="lake" />
	</node>
	<node id="-77563" lat="63.0982000004" lon="9.39876666747">
		<tag k="fixme" v="consider water=pond" />
		<tag k="name" v="Tjønnbakktjønna" />
		<tag k="natural" v="water" />
		<tag k="ssr:stedsnr" v="43166" />
		<tag k="water" v="lake" />
	</node>
	<node id="-77562" lat="63.1716833334" lon="9.43392221855">
		<tag k="name" v="Merkesbekken" />
		<tag k="ssr:stedsnr" v="43080" />
		<tag k="waterway" v="stream" />
	</node>
	<node id="-77553" lat="63.0253888921" lon="9.39608888243">
		<tag k="name" v="Merrabekken" />
		<tag k="ssr:stedsnr" v="38657" />
		<tag k="waterway" v="stream" />
	</node>
	<node id="-77549" lat="63.0151388875" lon="9.47199722601">
		<tag k="name" v="Stangabogbekken" />
		<tag k="ssr:stedsnr" v="38157" />
		<tag k="waterway" v="stream" />
	</node>
	<node id="-77543" lat="63.0644166636" lon="9.40178888025">
		<tag k="name" v="Seterbekken" />
		<tag k="ssr:stedsnr" v="38105" />
		<tag k="waterway" v="stream" />
	</node>
	<node id="-77542" lat="63.1992472226" lon="9.36681389278">
		<tag k="name" v="Kvennbekken" />
		<tag k="ssr:stedsnr" v="38051" />
		<tag k="waterway" v="stream" />
	</node>
	<node id="-77538" lat="63.1422666696" lon="9.37566389422">
		<tag k="name" v="Storbekken" />
		<tag k="ssr:stedsnr" v="38038" />
		<tag k="waterway" v="stream" />
	</node>
	<node id="-77537" lat="63.0383694427" lon="9.34375277459">
		<tag k="fixme" v="consider water=pond" />
		<tag k="name" v="Otertjønna" />
		<tag k="natural" v="water" />
		<tag k="ssr:stedsnr" v="38012" />
		<tag k="water" v="lake" />
	</node>
	<node id="-77530" lat="63.017216663" lon="9.29226944133">
		<tag k="fixme" v="consider water=pond" />
		<tag k="name" v="Høglitjønna" />
		<tag k="natural" v="water" />
		<tag k="ssr:stedsnr" v="37246" />
		<tag k="water" v="lake" />
	</node>
	<node id="-77529" lat="63.1564555595" lon="9.20536389353">
		<tag k="name" v="Ellevbekken" />
		<tag k="ssr:stedsnr" v="37194" />
		<tag k="waterway" v="stream" />
	</node>
	<node id="-77527" lat="63.0451555525" lon="9.21610555537">
		<tag k="name" v="Vikahølen" />
		<tag k="place" v="locality" />
		<tag k="ssr:stedsnr" v="37020" />
	</node>
	<node id="-77522" lat="63.0356083295" lon="9.18510833283">
		<tag k="name" v="Kolbekken" />
		<tag k="ssr:stedsnr" v="36570" />
		<tag k="waterway" v="stream" />
	</node>
	<node id="-77521" lat="63.0364861133" lon="9.194616666">
		<tag k="name" v="Merrabekken" />
		<tag k="ssr:stedsnr" v="36569" />
		<tag k="waterway" v="stream" />
	</node>
	<node id="-77516" lat="62.9999638914" lon="9.15046944325">
		<tag k="name" v="Skeftmyrbekken" />
		<tag k="ssr:stedsnr" v="36288" />
		<tag k="waterway" v="stream" />
	</node>
	<node id="-77509" lat="63.1289999977" lon="9.18179444042">
		<tag k="name" v="Grønbekken" />
		<tag k="ssr:stedsnr" v="36135" />
		<tag k="waterway" v="stream" />
	</node>
	<node id="-77506" lat="62.9634416693" lon="9.13126666608">
		<tag k="name" v="Hyllbekken" />
		<tag k="ssr:stedsnr" v="36026" />
		<tag k="waterway" v="stream" />
	</node>
	<node id="-77505" lat="63.1268361114" lon="9.17061666638">
		<tag k="name" v="Trøkna" />
		<tag k="ssr:stedsnr" v="35064" />
		<tag k="waterway" v="stream" />
	</node>
	<node id="-77503" lat="63.0905388859" lon="9.25483056383">
		<tag k="name" v="Kvennabekken" />
		<tag k="ssr:stedsnr" v="35030" />
		<tag k="waterway" v="stream" />
	</node>
	<node id="-77497" lat="63.1336222238" lon="9.24196387993">
		<tag k="name" v="Bjørnaråa" />
		<tag k="ssr:stedsnr" v="25750" />
		<tag k="waterway" v="stream" />
	</node>
	<node id="-77485" lat="63.0763555584" lon="9.09028056147">
		<tag k="fixme" v="consider water=pond" />
		<tag k="name" v="Finnråvatnet" />
		<tag k="natural" v="water" />
		<tag k="ssr:stedsnr" v="12646" />
		<tag k="water" v="lake" />
	</node>
	<node id="-77483" lat="63.188616664" lon="9.27613054824">
		<tag k="name" v="Ljøsåa" />
		<tag k="ssr:stedsnr" v="12596" />
		<tag k="waterway" v="river" />
	</node>
	<node id="-77472" lat="63.0829583378" lon="9.41036111464">
		<tag k="name" v="Tiåa" />
		<tag k="ssr:stedsnr" v="12400" />
		<tag k="waterway" v="river" />
	</node>
	<node id="-77468" lat="63.0305749989" lon="9.38057777155">
		<tag k="fixme" v="consider water=pond" />
		<tag k="name" v="Kutjønna" />
		<tag k="natural" v="water" />
		<tag k="ssr:stedsnr" v="12324" />
		<tag k="water" v="lake" />
	</node>
	<node id="-77465" lat="62.8839972245" lon="9.40278610588">
		<tag k="name" v="Brebekken" />
		<tag k="ssr:stedsnr" v="12200" />
		<tag k="waterway" v="stream" />
	</node>
	<node id="-77464" lat="62.9942194416" lon="9.42729722826">
		<tag k="fixme" v="consider water=pond" />
		<tag k="name" v="Kringlåttjønna" />
		<tag k="natural" v="water" />
		<tag k="ssr:stedsnr" v="12181" />
		<tag k="water" v="lake" />
	</node>
	<node id="-77459" lat="63.1750500038" lon="9.44806111718">
		<tag k="name" v="Kvennbekken" />
		<tag k="ssr:stedsnr" v="893094" />
		<tag k="waterway" v="stream" />
	</node>
	<node id="-77455" lat="63.0990861155" lon="9.39905277605">
		<tag k="name" v="Litlåa" />
		<tag k="ssr:stedsnr" v="892190" />
		<tag k="waterway" v="stream" />
	</node>
	<node id="-77445" lat="63.0168833304" lon="9.42253610653">
		<tag k="name" v="Merkesbekken" />
		<tag k="ssr:stedsnr" v="888615" />
		<tag k="waterway" v="stream" />
	</node>
	<node id="-77443" lat="63.0093638878" lon="9.50967222762">
		<tag k="fixme" v="consider water=pond" />
		<tag k="name" v="Fjelltjønna" />
		<tag k="natural" v="water" />
		<tag k="ssr:stedsnr" v="888374" />
		<tag k="water" v="lake" />
	</node>
	<node id="-77438" lat="62.9130305584" lon="9.40419722665">
		<tag k="name" v="Breivadbekken" />
		<tag k="ssr:stedsnr" v="888088" />
		<tag k="waterway" v="stream" />
	</node>
	<node id="-77432" lat="63.1155749982" lon="9.2790333409">
		<tag k="name" v="Sløå" />
		<tag k="ssr:stedsnr" v="888037" />
		<tag k="waterway" v="stream" />
	</node>
	<node id="-77429" lat="63.0900444487" lon="9.34047777142">
		<tag k="fixme" v="consider water=pond" />
		<tag k="name" v="Kattjønna" />
		<tag k="natural" v="water" />
		<tag k="ssr:stedsnr" v="887963" />
		<tag k="water" v="lake" />
	</node>
	<node id="-77425" lat="63.0072222178" lon="9.38442778652">
		<tag k="name" v="Jeppelistoen" />
		<tag k="natural" v="waterfall" />
		<tag k="ssr:stedsnr" v="887418" />
	</node>
	<node id="-77418" lat="63.1599194409" lon="9.23885833965">
		<tag k="fixme" v="consider water=pond" />
		<tag k="name" v="Setertjønna" />
		<tag k="natural" v="water" />
		<tag k="ssr:stedsnr" v="887181" />
		<tag k="water" v="lake" />
	</node>
	<node id="-77408" lat="63.0307833315" lon="9.12493611744">
		<tag k="name" v="Føruhaugbekken" />
		<tag k="ssr:stedsnr" v="886926" />
		<tag k="waterway" v="stream" />
	</node>
	<node id="-77407" lat="63.0314055557" lon="9.10529443495">
		<tag k="name" v="Skarpsundet" />
		<tag k="natural" v="strait" />
		<tag k="place" v="locality" />
		<tag k="ssr:stedsnr" v="886906" />
	</node>
	<node id="-77405" lat="63.0252694453" lon="9.16600277844">
		<tag k="fixme" v="consider water=pond" />
		<tag k="name" v="Tjønnslettjønna" />
		<tag k="natural" v="water" />
		<tag k="ssr:stedsnr" v="886609" />
		<tag k="water" v="lake" />
	</node>
	<node id="-77398" lat="63.0142611109" lon="9.16260833712">
		<tag k="name" v="Bokksvassbekken" />
		<tag k="ssr:stedsnr" v="886338" />
		<tag k="waterway" v="stream" />
	</node>
	<node id="-77390" lat="63.1206972226" lon="9.25289167417">
		<tag k="name" v="Storbekken" />
		<tag k="ssr:stedsnr" v="886074" />
		<tag k="waterway" v="stream" />
	</node>
	<node id="-77383" lat="62.9551777756" lon="9.13616111863">
		<tag k="name" v="Myrabekken" />
		<tag k="ssr:stedsnr" v="886037" />
		<tag k="waterway" v="stream" />
	</node>
	<node id="-77382" lat="62.9626305545" lon="9.12838889735">
		<tag k="name" v="Gammelløbekken" />
		<tag k="ssr:stedsnr" v="886025" />
		<tag k="waterway" v="stream" />
	</node>
	<node id="-77379" lat="63.096261109" lon="9.22211110229">
		<tag k="name" v="Stortrøkna" />
		<tag k="ssr:stedsnr" v="885014" />
		<tag k="waterway" v="stream" />
	</node>
	<node id="-77375" lat="63.0906944432" lon="9.42461943874">
		<tag k="name" v="Steinbekken" />
		<tag k="ssr:stedsnr" v="407203" />
		<tag k="waterway" v="stream" />
	</node>
	<node id="-77372" lat="63.1644166691" lon="9.44451666971">
		<tag k="name" v="Furudalsbekken" />
		<tag k="ssr:stedsnr" v="407123" />
		<tag k="waterway" v="stream" />
	</node>
	<node id="-77371" lat="63.0068694463" lon="9.53650277309">
		<tag k="fixme" v="consider water=pond" />
		<tag k="name" v="Auster Fjelltjønna" />
		<tag k="natural" v="water" />
		<tag k="ssr:stedsnr" v="407119" />
		<tag k="water" v="lake" />
	</node>
	<node id="-77365" lat="63.0679611079" lon="9.40911388566">
		<tag k="name" v="Dalslættbekken" />
		<tag k="ssr:stedsnr" v="402759" />
		<tag k="waterway" v="stream" />
	</node>
	<node id="-77362" lat="63.0355055582" lon="9.44740000279">
		<tag k="name" v="Langvassbekken" />
		<tag k="ssr:stedsnr" v="402691" />
		<tag k="waterway" v="stream" />
	</node>
	<node id="-77355" lat="62.8447277776" lon="9.44128055275">
		<tag k="name" v="Stillhølen" />
		<tag k="place" v="locality" />
		<tag k="ssr:stedsnr" v="402087" />
	</node>
	<node id="-77353" lat="63.1444916703" lon="9.38058054659">
		<tag k="name" v="Lykkjabekken" />
		<tag k="ssr:stedsnr" v="402040" />
		<tag k="waterway" v="stream" />
	</node>
	<node id="-77348" lat="63.0442527756" lon="9.37400833456">
		<tag k="name" v="Arndalsbekken" />
		<tag k="ssr:stedsnr" v="402019" />
		<tag k="waterway" v="stream" />
	</node>
	<node id="-77339" lat="63.0267166635" lon="9.38604167605">
		<tag k="fixme" v="consider water=pond" />
		<tag k="name" v="Åstjønna" />
		<tag k="natural" v="water" />
		<tag k="ssr:stedsnr" v="401889" />
		<tag k="water" v="lake" />
	</node>
	<node id="-77338" lat="63.0244805531" lon="9.37869445396">
		<tag k="name" v="Merrabekken" />
		<tag k="ssr:stedsnr" v="401883" />
		<tag k="waterway" v="stream" />
	</node>
	<node id="-77320" lat="63.0109083346" lon="9.18962777932">
		<tag k="fixme" v="consider water=pond" />
		<tag k="name" v="Lomtjønna" />
		<tag k="natural" v="water" />
		<tag k="ssr:stedsnr" v="400367" />
		<tag k="water" v="lake" />
	</node>
	<node id="-77318" lat="63.0193888898" lon="9.26358333402">
		<tag k="fixme" v="consider water=pond" />
		<tag k="name" v="Trondstjønna" />
		<tag k="natural" v="water" />
		<tag k="ssr:stedsnr" v="400292" />
		<tag k="water" v="lake" />
	</node>
	<node id="-77312" lat="63.1057583358" lon="9.24583332371">
		<tag k="fixme" v="consider water=pond" />
		<tag k="name" v="Åstjønna" />
		<tag k="natural" v="water" />
		<tag k="ssr:stedsnr" v="400092" />
		<tag k="water" v="lake" />
	</node>
	<node id="-77305" lat="63.0660138856" lon="9.37595555714">
		<tag k="name" v="Dalaslættbekken" />
		<tag k="ssr:stedsnr" v="389751" />
		<tag k="waterway" v="stream" />
	</node>
	<node id="-77299" lat="63.0912611123" lon="9.34445555077">
		<tag k="fixme" v="consider water=pond" />
		<tag k="name" v="Sagatjønna" />
		<tag k="natural" v="water" />
		<tag k="ssr:stedsnr" v="389346" />
		<tag k="water" v="lake" />
	</node>
	<node id="-77296" lat="62.99223333" lon="9.30718610737">
		<tag k="fixme" v="consider water=pond" />
		<tag k="name" v="Heggemstjønnin" />
		<tag k="natural" v="water" />
		<tag k="ssr:stedsnr" v="388388" />
		<tag k="water" v="lake" />
	</node>
	<node id="-77295" lat="62.9069138868" lon="9.21925278113">
		<tag k="fixme" v="consider water=pond" />
		<tag k="name" v="Kvernabekktjønna" />
		<tag k="natural" v="water" />
		<tag k="ssr:stedsnr" v="388348" />
		<tag k="water" v="lake" />
	</node>
	<node id="-77289" lat="63.0929888876" lon="9.17333054758">
		<tag k="fixme" v="consider water=pond" />
		<tag k="name" v="Setertjønna" />
		<tag k="natural" v="water" />
		<tag k="ssr:stedsnr" v="376772" />
		<tag k="water" v="lake" />
	</node>
	<node id="-77288" lat="63.0955666692" lon="9.18796945363">
		<tag k="name" v="Brandåa" />
		<tag k="ssr:stedsnr" v="376769" />
		<tag k="waterway" v="stream" />
	</node>
	<node id="-77287" lat="63.0973444425" lon="9.06689166222">
		<tag k="fixme" v="consider water=pond" />
		<tag k="name" v="Fjelnvatnet" />
		<tag k="natural" v="water" />
		<tag k="ssr:stedsnr" v="376768" />
		<tag k="water" v="lake" />
	</node>
	<node id="-77286" lat="63.0545777797" lon="9.13135277672">
		<tag k="fixme" v="consider water=pond" />
		<tag k="name" v="Kårvatnet" />
		<tag k="natural" v="water" />
		<tag k="ssr:stedsnr" v="376658" />
		<tag k="water" v="lake" />
	</node>
	<node id="-77284" lat="63.1515388896" lon="9.41666943466">
		<tag k="name" v="Lomundsjøen" />
		<tag k="natural" v="water" />
		<tag k="ssr:stedsnr" v="376552" />
		<tag k="water" v="lake" />
	</node>
	<node id="-77281" lat="63.1773944488" lon="9.32052499368">
		<tag k="fixme" v="consider water=pond" />
		<tag k="name" v="Storvatnet" />
		<tag k="natural" v="water" />
		<tag k="ssr:stedsnr" v="376531" />
		<tag k="water" v="lake" />
	</node>
	<node id="-77276" lat="62.9956416676" lon="9.21578889195">
		<tag k="name" v="Bølu" />
		<tag k="ssr:stedsnr" v="376497" />
		<tag k="waterway" v="river" />
	</node>
	<node id="-77274" lat="63.0471694448" lon="9.29360554855">
		<tag k="fixme" v="consider water=pond" />
		<tag k="name" v="Svartvatnet" />
		<tag k="natural" v="water" />
		<tag k="ssr:stedsnr" v="376490" />
		<tag k="water" v="lake" />
	</node>
	<node id="-77269" lat="63.0188305568" lon="9.47989165966">
		<tag k="name" v="Stangabogbekken" />
		<tag k="ssr:stedsnr" v="376344" />
		<tag k="waterway" v="stream" />
	</node>
	<node id="-77268" lat="63.00043611" lon="9.28697499238">
		<tag k="name" v="Sandåa" />
		<tag k="ssr:stedsnr" v="376335" />
		<tag k="waterway" v="stream" />
	</node>
	<node id="-77264" lat="63.0072333345" lon="9.49056389718">
		<tag k="name" v="Sjurslåttbekken" />
		<tag k="ssr:stedsnr" v="376287" />
		<tag k="waterway" v="stream" />
	</node>
	<node id="-77260" lat="62.9582027802" lon="9.34439166292">
		<tag k="name" v="Trollhøttbekken" />
		<tag k="ssr:stedsnr" v="376138" />
		<tag k="waterway" v="river" />
	</node>
	<node id="-77256" lat="63.1289722184" lon="9.45680834077">
		<tag k="fixme" v="consider water=pond" />
		<tag k="name" v="Lomtjønna" />
		<tag k="natural" v="water" />
		<tag k="ssr:stedsnr" v="346944" />
		<tag k="water" v="lake" />
	</node>
	<node id="-77253" lat="63.0856888879" lon="9.40809167603">
		<tag k="name" v="Stoen" />
		<tag k="ssr:stedsnr" v="346175" />
		<tag k="waterway" v="rapids" />
	</node>
	<node id="-77251" lat="63.1496611081" lon="9.4134305563">
		<tag k="name" v="Sandbekken" />
		<tag k="ssr:stedsnr" v="345949" />
		<tag k="waterway" v="stream" />
	</node>
	<node id="-77235" lat="63.0128111083" lon="9.33750833067">
		<tag k="fixme" v="consider water=pond" />
		<tag k="name" v="Damtjønna" />
		<tag k="natural" v="water" />
		<tag k="ssr:stedsnr" v="341530" />
		<tag k="water" v="lake" />
	</node>
	<node id="-77234" lat="63.0103916687" lon="9.35043888802">
		<tag k="fixme" v="consider water=pond" />
		<tag k="name" v="Litltjønna" />
		<tag k="natural" v="water" />
		<tag k="ssr:stedsnr" v="341524" />
		<tag k="water" v="lake" />
	</node>
	<node id="-77224" lat="63.1145222222" lon="9.37202777404">
		<tag k="fixme" v="consider water=pond" />
		<tag k="name" v="Granåstjønna" />
		<tag k="natural" v="water" />
		<tag k="ssr:stedsnr" v="341046" />
		<tag k="water" v="lake" />
	</node>
	<node id="-77223" lat="63.1208722182" lon="9.4064888851">
		<tag k="name" v="Rørvatnet" />
		<tag k="natural" v="water" />
		<tag k="ssr:stedsnr" v="341035" />
		<tag k="water" v="lake" />
	</node>
	<node id="-77222" lat="63.0528027784" lon="9.13328056498">
		<tag k="name" v="Kårvassbekken" />
		<tag k="ssr:stedsnr" v="340992" />
		<tag k="waterway" v="stream" />
	</node>
	<node id="-77215" lat="63.0391249966" lon="9.11153056504">
		<tag k="name" v="Småøyan" />
		<tag k="place" v="island" />
		<tag k="ssr:stedsnr" v="340929" />
	</node>
	<node id="-77214" lat="63.030527781" lon="9.13455000536">
		<tag k="name" v="Seterdalsbekken" />
		<tag k="ssr:stedsnr" v="340889" />
		<tag k="waterway" v="stream" />
	</node>
	<node id="-77207" lat="63.0979444427" lon="9.15956388815">
		<tag k="name" v="Vasslivatnet" />
		<tag k="natural" v="water" />
		<tag k="ssr:stedsnr" v="340238" />
		<tag k="water" v="lake" />
	</node>
	<node id="-77205" lat="63.0620055554" lon="9.23145554783">
		<tag k="name" v="Kaldvassbekken" />
		<tag k="ssr:stedsnr" v="340194" />
		<tag k="waterway" v="stream" />
	</node>
	<node id="-77202" lat="63.1566833352" lon="9.25164166573">
		<tag k="name" v="Seterbekken" />
		<tag k="ssr:stedsnr" v="340177" />
		<tag k="waterway" v="stream" />
	</node>
	<node id="-77198" lat="62.9287111071" lon="9.38957777643">
		<tag k="name" v="Nonshaugbekken" />
		<tag k="ssr:stedsnr" v="340070" />
		<tag k="waterway" v="stream" />
	</node>
	<node id="-77191" lat="63.0847666699" lon="9.21798055188">
		<tag k="name" v="Langmyrhaugbekken" />
		<tag k="ssr:stedsnr" v="340018" />
		<tag k="waterway" v="stream" />
	</node>
	<node id="-77189" lat="63.0660083306" lon="9.10200833296">
		<tag k="fixme" v="consider water=pond" />
		<tag k="name" v="Grytdalstjønna" />
		<tag k="natural" v="water" />
		<tag k="ssr:stedsnr" v="339946" />
		<tag k="water" v="lake" />
	</node>
	<node id="-77187" lat="63.0755666711" lon="9.14278612068">
		<tag k="name" v="Ljøsåa" />
		<tag k="ssr:stedsnr" v="339905" />
		<tag k="waterway" v="stream" />
	</node>
	<node id="-77186" lat="62.9497916666" lon="9.24869723094">
		<tag k="name" v="Kaldbøllu" />
		<tag k="ssr:stedsnr" v="339813" />
		<tag k="waterway" v="river" />
	</node>
	<node id="-77174" lat="62.931772222" lon="9.17726666264">
		<tag k="name" v="Kjølbekken" />
		<tag k="ssr:stedsnr" v="328733" />
		<tag k="waterway" v="stream" />
	</node>
	<node id="-77162" lat="63.160866665" lon="9.40358333315">
		<tag k="name" v="Storbekken" />
		<tag k="ssr:stedsnr" v="316570" />
		<tag k="waterway" v="stream" />
	</node>
	<node id="-77160" lat="63.1321888858" lon="9.45982499351">
		<tag k="name" v="Bårdshaugbekken" />
		<tag k="ssr:stedsnr" v="316540" />
		<tag k="waterway" v="stream" />
	</node>
	<node id="-77158" lat="63.1341750028" lon="9.42762777856">
		<tag k="name" v="Langvatnet" />
		<tag k="natural" v="water" />
		<tag k="ssr:stedsnr" v="316527" />
		<tag k="water" v="lake" />
	</node>
	<node id="-77154" lat="62.8541750018" lon="9.34691667093">
		<tag k="fixme" v="consider water=pond" />
		<tag k="name" v="Trollauget" />
		<tag k="natural" v="water" />
		<tag k="old_name" v="Litlhelvete" />
		<tag k="ssr:stedsnr" v="316235" />
		<tag k="water" v="lake" />
	</node>
	<node id="-77153" lat="62.9860250003" lon="9.26996388097">
		<tag k="fixme" v="consider water=pond" />
		<tag k="name" v="Gaukholet" />
		<tag k="natural" v="water" />
		<tag k="ssr:stedsnr" v="316191" />
		<tag k="water" v="lake" />
	</node>
	<node id="-77152" lat="63.0486583378" lon="9.41988888051">
		<tag k="fixme" v="consider water=pond" />
		<tag k="name" v="Stokkfjelltjønna" />
		<tag k="natural" v="water" />
		<tag k="ssr:stedsnr" v="316403" />
		<tag k="water" v="lake" />
	</node>
	<node id="-77151" lat="62.8192833312" lon="9.37696110234">
		<tag k="name" v="Litlsvartåa" />
		<tag k="ssr:stedsnr" v="315812" />
		<tag k="waterway" v="river" />
	</node>
	<node id="-77150" lat="63.19983889" lon="9.36583888212">
		<tag k="name" v="Merkesbekken" />
		<tag k="ssr:stedsnr" v="315579" />
		<tag k="waterway" v="stream" />
	</node>
	<node id="-77147" lat="63.0905083347" lon="9.31280000271">
		<tag k="fixme" v="consider water=pond" />
		<tag k="name" v="Urvatnet" />
		<tag k="natural" v="water" />
		<tag k="ssr:stedsnr" v="315394" />
		<tag k="water" v="lake" />
	</node>
	<node id="-77143" lat="62.9980972249" lon="9.14525000338">
		<tag k="name" v="Folda" />
		<tag k="ssr:stedsnr" v="315325" />
		<tag k="waterway" v="river" />
	</node>
	<node id="-77140" lat="62.9309750036" lon="9.30298055215">
		<tag k="name" v="Trollhøttråbekken" />
		<tag k="ssr:stedsnr" v="315213" />
		<tag k="waterway" v="stream" />
	</node>
	<node id="-77139" lat="62.9574555527" lon="9.25511388566">
		<tag k="name" v="Rennslivatnet" />
		<tag k="natural" v="water" />
		<tag k="ssr:stedsnr" v="315133" />
		<tag k="water" v="lake" />
	</node>
	<node id="-77137" lat="63.1330277783" lon="9.41205000197">
		<tag k="name" v="Gjerdabekken" />
		<tag k="ssr:stedsnr" v="285930" />
		<tag k="waterway" v="stream" />
	</node>
	<node id="-77126" lat="63.0674750033" lon="9.28053332461">
		<tag k="name" v="Isvasstoen" />
		<tag k="natural" v="waterfall" />
		<tag k="ssr:stedsnr" v="281888" />
	</node>
	<node id="-77118" lat="62.9971694415" lon="9.40137221678">
		<tag k="name" v="Setermarkstoen" />
		<tag k="natural" v="waterfall" />
		<tag k="ssr:stedsnr" v="281402" />
	</node>
	<node id="-77114" lat="62.9949749958" lon="9.41844445177">
		<tag k="fixme" v="consider water=pond" />
		<tag k="name" v="Langtjønna" />
		<tag k="natural" v="water" />
		<tag k="ssr:stedsnr" v="281118" />
		<tag k="water" v="lake" />
	</node>
	<node id="-77111" lat="63.0777750034" lon="9.33588055646">
		<tag k="fixme" v="consider water=pond" />
		<tag k="name" v="Drøftingtjønna" />
		<tag k="natural" v="water" />
		<tag k="ssr:stedsnr" v="281097" />
		<tag k="water" v="lake" />
	</node>
	<node id="-77109" lat="63.2016472249" lon="9.36359721939">
		<tag k="name" v="Skruvtelbekken" />
		<tag k="ssr:stedsnr" v="281072" />
		<tag k="waterway" v="stream" />
	</node>
	<node id="-77096" lat="62.9988527741" lon="9.38293888048">
		<tag k="name" v="Setermarkbekken" />
		<tag k="ssr:stedsnr" v="280384" />
		<tag k="waterway" v="stream" />
	</node>
	<node id="-77088" lat="62.8390111087" lon="9.41703055129">
		<tag k="name" v="Litlsvartåstoen" />
		<tag k="natural" v="waterfall" />
		<tag k="ssr:stedsnr" v="280095" />
	</node>
	<node id="-77085" lat="63.0385305532" lon="9.1138472282">
		<tag k="name" v="Fagghølen" />
		<tag k="place" v="island" />
		<tag k="ssr:stedsnr" v="279924" />
	</node>
	<node id="-77082" lat="62.9899138885" lon="9.26358888537">
		<tag k="name" v="Gaukholvatna" />
		<tag k="natural" v="water" />
		<tag k="ssr:stedsnr" v="279565" />
		<tag k="water" v="lake" />
	</node>
	<node id="-77076" lat="63.0283777739" lon="9.23423888763">
		<tag k="name" v="Ilurbekken" />
		<tag k="ssr:stedsnr" v="279285" />
		<tag k="waterway" v="stream" />
	</node>
	<node id="-77066" lat="62.9542722198" lon="9.14275832665">
		<tag k="name" v="Reinvassbekken" />
		<tag k="ssr:stedsnr" v="279017" />
		<tag k="waterway" v="stream" />
	</node>
	<node id="-77064" lat="62.9563111093" lon="9.14399444747">
		<tag k="name" v="Storstakkslættbekken" />
		<tag k="ssr:stedsnr" v="279013" />
		<tag k="waterway" v="stream" />
	</node>
	<node id="-78900" lat="63.0345555558" lon="9.38387777053">
		<tag k="name" v="Litlkysinga" />
		<tag k="ssr:stedsnr" v="948950" />
		<tag k="waterway" v="stream" />
	</node>
	<node id="-78899" lat="63.0193083351" lon="9.37168611352">
		<tag k="name" v="Storstoen" />
		<tag k="natural" v="waterfall" />
		<tag k="ssr:stedsnr" v="948939" />
	</node>
	<node id="-78878" lat="63.0348194458" lon="9.29947222939">
		<tag k="name" v="Kvennåa" />
		<tag k="ssr:stedsnr" v="948270" />
		<tag k="waterway" v="stream" />
	</node>
	<node id="-78871" lat="63.1233916632" lon="9.39040278203">
		<tag k="name" v="Kvennabekken" />
		<tag k="ssr:stedsnr" v="948070" />
		<tag k="waterway" v="stream" />
	</node>
	<node id="-78868" lat="63.139236109" lon="9.35180277889">
		<tag k="name" v="Husbekken" />
		<tag k="ssr:stedsnr" v="948048" />
		<tag k="waterway" v="stream" />
	</node>
	<node id="-78864" lat="63.0566083308" lon="9.2975638852">
		<tag k="name" v="Litlisvatnet" />
		<tag k="natural" v="water" />
		<tag k="ssr:stedsnr" v="948005" />
		<tag k="water" v="lake" />
	</node>
	<node id="-78862" lat="63.1499305579" lon="9.36108611887">
		<tag k="name" v="Storbekken" />
		<tag k="ssr:stedsnr" v="947889" />
		<tag k="waterway" v="stream" />
	</node>
	<node id="-78857" lat="63.1615027801" lon="9.26186667222">
		<tag k="name" v="Finnbekken" />
		<tag k="ssr:stedsnr" v="947156" />
		<tag k="waterway" v="stream" />
	</node>
	<node id="-78852" lat="63.0413499997" lon="9.1802833377">
		<tag k="name" v="Kolbekken" />
		<tag k="ssr:stedsnr" v="947049" />
		<tag k="waterway" v="stream" />
	</node>
	<node id="-78848" lat="63.0507611074" lon="9.28016111711">
		<tag k="fixme" v="consider water=pond" />
		<tag k="name" v="Vaultjønna" />
		<tag k="natural" v="water" />
		<tag k="ssr:stedsnr" v="947016" />
		<tag k="water" v="lake" />
	</node>
	<node id="-78846" lat="62.9707249969" lon="9.19820833015">
		<tag k="name" v="Skrommelvassbekken" />
		<tag k="ssr:stedsnr" v="946675" />
		<tag k="waterway" v="stream" />
	</node>
	<node id="-78842" lat="63.0116750017" lon="9.19981665906">
		<tag k="name" v="Vikahølen" />
		<tag k="place" v="locality" />
		<tag k="ssr:stedsnr" v="946319" />
	</node>
	<node id="-78841" lat="63.009883331" lon="9.15913610531">
		<tag k="name" v="Merralibekken" />
		<tag k="ssr:stedsnr" v="946311" />
		<tag k="waterway" v="stream" />
	</node>
	<node id="-78838" lat="63.1103916649" lon="9.25098333899">
		<tag k="name" v="Kvennåbekken" />
		<tag k="ssr:stedsnr" v="946066" />
		<tag k="waterway" v="stream" />
	</node>
	<node id="-78832" lat="63.1381472225" lon="9.21819722722">
		<tag k="fixme" v="consider water=pond" />
		<tag k="name" v="Dåsa" />
		<tag k="natural" v="water" />
		<tag k="ssr:stedsnr" v="935748" />
		<tag k="water" v="lake" />
	</node>
	<node id="-78830" lat="63.0993249977" lon="9.02773332846">
		<tag k="name" v="Storbekken" />
		<tag k="ssr:stedsnr" v="935743" />
		<tag k="waterway" v="stream" />
	</node>
	<node id="-78826" lat="63.1033805566" lon="9.15633889731">
		<tag k="name" v="Brandåvatnet" />
		<tag k="natural" v="water" />
		<tag k="ssr:stedsnr" v="923761" />
		<tag k="water" v="lake" />
	</node>
	<node id="-78825" lat="63.0848222192" lon="9.12269722913">
		<tag k="fixme" v="consider water=pond" />
		<tag k="name" v="Skåkleivtjønna" />
		<tag k="natural" v="water" />
		<tag k="ssr:stedsnr" v="923742" />
		<tag k="water" v="lake" />
	</node>
	<node id="-78822" lat="63.1757499958" lon="9.29788333845">
		<tag k="fixme" v="consider water=pond" />
		<tag k="name" v="Gråurtjønnin" />
		<tag k="natural" v="water" />
		<tag k="ssr:stedsnr" v="923573" />
		<tag k="water" v="lake" />
	</node>
	<node id="-78819" lat="63.060386107" lon="9.43853610434">
		<tag k="fixme" v="consider water=pond" />
		<tag k="name" v="Snausskartjønna" />
		<tag k="natural" v="water" />
		<tag k="ssr:stedsnr" v="923444" />
		<tag k="water" v="lake" />
	</node>
	<node id="-78818" lat="63.0581444467" lon="9.22159444079">
		<tag k="fixme" v="consider water=pond" />
		<tag k="name" v="Igltjønna" />
		<tag k="natural" v="water" />
		<tag k="ssr:stedsnr" v="923441" />
		<tag k="water" v="lake" />
	</node>
	<node id="-78817" lat="63.0604027821" lon="9.24441944161">
		<tag k="name" v="Svartåa" />
		<tag k="ssr:stedsnr" v="923438" />
		<tag k="waterway" v="stream" />
	</node>
	<node id="-78816" lat="63.0411722255" lon="9.28279166679">
		<tag k="fixme" v="consider water=pond" />
		<tag k="name" v="Svervatnet" />
		<tag k="natural" v="water" />
		<tag k="ssr:stedsnr" v="923409" />
		<tag k="water" v="lake" />
	</node>
	<node id="-78814" lat="62.8864694462" lon="9.35580000061">
		<tag k="name" v="Langvatnet - Bijjiejaevrie" />
		<tag k="name:no" v="Langvatnet" />
		<tag k="name:sma" v="Bijjiejaevrie" />
		<tag k="natural" v="water" />
		<tag k="ssr:stedsnr" v="923230" />
		<tag k="water" v="lake" />
	</node>
	<node id="-78811" lat="62.9898194419" lon="9.26688056254">
		<tag k="fixme" v="consider water=pond" />
		<tag k="name" v="Langtjønna" />
		<tag k="natural" v="water" />
		<tag k="ssr:stedsnr" v="923212" />
		<tag k="water" v="lake" />
	</node>
	<node id="-78801" lat="63.0332249964" lon="9.38634165923">
		<tag k="fixme" v="consider water=pond" />
		<tag k="name" v="Litlvatnet" />
		<tag k="natural" v="water" />
		<tag k="ssr:stedsnr" v="922297" />
		<tag k="water" v="lake" />
	</node>
	<node id="-78792" lat="62.9676472243" lon="9.19720556405">
		<tag k="name" v="Storbekken" />
		<tag k="ssr:stedsnr" v="875785" />
		<tag k="waterway" v="stream" />
	</node>
	<node id="-78790" lat="62.9388500014" lon="9.24626388141">
		<tag k="name" v="Ytre Bøluvatnet" />
		<tag k="natural" v="water" />
		<tag k="ssr:stedsnr" v="875061" />
		<tag k="water" v="lake" />
	</node>
	<node id="-78789" lat="62.9352166644" lon="9.2698722172">
		<tag k="name" v="Austre Bøluvatnet" />
		<tag k="natural" v="water" />
		<tag k="ssr:stedsnr" v="875059" />
		<tag k="water" v="lake" />
	</node>
	<node id="-78786" lat="63.0992916654" lon="9.15732778525">
		<tag k="fixme" v="consider water=pond" />
		<tag k="name" v="Ljåen" />
		<tag k="natural" v="water" />
		<tag k="ssr:stedsnr" v="862746" />
		<tag k="water" v="lake" />
	</node>
	<node id="-78785" lat="63.1038499969" lon="9.20650833724">
		<tag k="name" v="Trøkna" />
		<tag k="ssr:stedsnr" v="862738" />
		<tag k="waterway" v="stream" />
	</node>
	<node id="-78782" lat="63.0639666669" lon="9.14039722473">
		<tag k="name" v="Gryta" />
		<tag k="ssr:stedsnr" v="862616" />
		<tag k="waterway" v="stream" />
	</node>
	<node id="-78774" lat="63.0491833377" lon="9.27015278211">
		<tag k="fixme" v="consider water=pond" />
		<tag k="name" v="Auntjønna" />
		<tag k="natural" v="water" />
		<tag k="ssr:stedsnr" v="862362" />
		<tag k="water" v="lake" />
	</node>
	<node id="-78773" lat="63.0208527768" lon="9.29475277802">
		<tag k="name" v="Høglibekken" />
		<tag k="ssr:stedsnr" v="862342" />
		<tag k="waterway" v="stream" />
	</node>
	<node id="-78769" lat="62.8929111135" lon="9.42415277812">
		<tag k="name" v="Urvassbekken" />
		<tag k="ssr:stedsnr" v="862226" />
		<tag k="waterway" v="stream" />
	</node>
	<node id="-78768" lat="62.9822527813" lon="9.36315833002">
		<tag k="alt_name" v="Stormyrbekken, heimre;Heimer Stormyrbekken" />
		<tag k="name" v="Heimre Stormyrbekken" />
		<tag k="ssr:stedsnr" v="862211" />
		<tag k="waterway" v="stream" />
	</node>
	<node id="-78765" lat="63.1413916684" lon="9.28892499198">
		<tag k="name" v="Toråa" />
		<tag k="ssr:stedsnr" v="862525" />
		<tag k="waterway" v="river" />
	</node>
	<node id="-78758" lat="63.0070861071" lon="9.54304444457">
		<tag k="fixme" v="consider water=pond" />
		<tag k="name" v="Slåstarvollen" />
		<tag k="natural" v="water" />
		<tag k="ssr:stedsnr" v="832091" />
		<tag k="water" v="lake" />
	</node>
	<node id="-78757" lat="63.1253055566" lon="9.41409721751">
		<tag k="name" v="Vaulen" />
		<tag k="natural" v="shoal" />
		<tag k="place" v="locality" />
		<tag k="ssr:stedsnr" v="831987" />
	</node>
	<node id="-78754" lat="63.1309305569" lon="9.42272221514">
		<tag k="name" v="Sagbekken" />
		<tag k="ssr:stedsnr" v="831934" />
		<tag k="waterway" v="stream" />
	</node>
	<node id="-78751" lat="63.0641472221" lon="9.27319167611">
		<tag k="fixme" v="consider water=pond" />
		<tag k="name" v="Lomtjønnin" />
		<tag k="natural" v="water" />
		<tag k="ssr:stedsnr" v="828855" />
		<tag k="water" v="lake" />
	</node>
	<node id="-78744" lat="63.0079250025" lon="9.52910277409">
		<tag k="name" v="Fjelltjønnbekken" />
		<tag k="ssr:stedsnr" v="827463" />
		<tag k="waterway" v="stream" />
	</node>
	<node id="-78736" lat="62.8417638909" lon="9.41253334088">
		<tag k="name" v="Sauhusøya" />
		<tag k="place" v="island" />
		<tag k="ssr:stedsnr" v="827102" />
	</node>
	<node id="-78735" lat="62.8907805555" lon="9.40372222454">
		<tag k="name" v="Brebekken" />
		<tag k="ssr:stedsnr" v="827093" />
		<tag k="waterway" v="stream" />
	</node>
	<node id="-78734" lat="63.105161107" lon="9.37343610426">
		<tag k="name" v="Dalabekken" />
		<tag k="ssr:stedsnr" v="827050" />
		<tag k="waterway" v="stream" />
	</node>
	<node id="-78729" lat="63.0950444418" lon="9.29765278269">
		<tag k="name" v="Tiosen" />
		<tag k="natural" v="bay" />
		<tag k="ssr:stedsnr" v="826978" />
	</node>
	<node id="-78727" lat="62.9951305526" lon="9.1564999918">
		<tag k="name" v="Skartjønnbekken" />
		<tag k="ssr:stedsnr" v="826562" />
		<tag k="waterway" v="stream" />
	</node>
	<node id="-78721" lat="63.0312611142" lon="9.32107500552">
		<tag k="name" v="Klokkdalsbekken" />
		<tag k="ssr:stedsnr" v="826318" />
		<tag k="waterway" v="stream" />
	</node>
	<node id="-78713" lat="63.1739277803" lon="9.1923527807">
		<tag k="name" v="Slettbekken" />
		<tag k="ssr:stedsnr" v="826164" />
		<tag k="waterway" v="stream" />
	</node>
	<node id="-78711" lat="63.0553555564" lon="9.14726666721">
		<tag k="name" v="Langtrøbakken" />
		<tag k="ssr:stedsnr" v="826080" />
		<tag k="waterway" v="stream" />
	</node>
	<node id="-78708" lat="62.9886166698" lon="9.32356389114">
		<tag k="name" v="Sagbekken" />
		<tag k="ssr:stedsnr" v="826061" />
		<tag k="waterway" v="stream" />
	</node>
	<node id="-78704" lat="63.0806527739" lon="9.09803333458">
		<tag k="name" v="Skåkleivbekken" />
		<tag k="ssr:stedsnr" v="825965" />
		<tag k="waterway" v="stream" />
	</node>
	<node id="-78701" lat="63.1136750032" lon="9.14244445203">
		<tag k="name" v="Brandåvatnet" />
		<tag k="natural" v="water" />
		<tag k="ssr:stedsnr" v="825764" />
		<tag k="water" v="lake" />
	</node>
	<node id="-78698" lat="63.019138892" lon="9.16635277068">
		<tag k="fixme" v="consider water=pond" />
		<tag k="name" v="Damvatnet" />
		<tag k="natural" v="water" />
		<tag k="ssr:stedsnr" v="825565" />
		<tag k="water" v="lake" />
	</node>
	<node id="-78696" lat="63.0171472256" lon="9.17644999491">
		<tag k="fixme" v="consider water=pond" />
		<tag k="name" v="Bergtjønna" />
		<tag k="natural" v="water" />
		<tag k="ssr:stedsnr" v="825318" />
		<tag k="water" v="lake" />
	</node>
	<node id="-78695" lat="63.0362972217" lon="9.23620833315">
		<tag k="name" v="Bjønnabekken" />
		<tag k="ssr:stedsnr" v="825228" />
		<tag k="waterway" v="stream" />
	</node>
	<node id="-78692" lat="63.0759055566" lon="9.2473305513">
		<tag k="name" v="Tjørnhjellibekken" />
		<tag k="ssr:stedsnr" v="825132" />
		<tag k="waterway" v="stream" />
	</node>
	<node id="-78691" lat="63.0903805567" lon="9.00958056128">
		<tag k="fixme" v="consider water=pond" />
		<tag k="name" v="Stårrtjønna" />
		<tag k="natural" v="water" />
		<tag k="ssr:stedsnr" v="825057" />
		<tag k="water" v="lake" />
	</node>
	<node id="-78687" lat="62.9649083371" lon="9.12870277047">
		<tag k="name" v="Larsslættbekken" />
		<tag k="ssr:stedsnr" v="825008" />
		<tag k="waterway" v="stream" />
	</node>
	<node id="-78677" lat="63.1640944447" lon="9.36326667419">
		<tag k="name" v="Presten" />
		<tag k="natural" v="waterfall" />
		<tag k="ssr:stedsnr" v="814423" />
	</node>
	<node id="-78673" lat="62.8922305519" lon="9.39330000501">
		<tag k="name" v="Gaskejohke" />
		<tag k="name:sma" v="Gaskejohke" />
		<tag k="ssr:stedsnr" v="814162" />
		<tag k="waterway" v="river" />
	</node>
	<node id="-78659" lat="63.1286555532" lon="9.4214000072">
		<tag k="fixme" v="consider water=pond" />
		<tag k="name" v="Litlvatnet" />
		<tag k="natural" v="water" />
		<tag k="ssr:stedsnr" v="801457" />
		<tag k="water" v="lake" />
	</node>
	<node id="-78657" lat="62.9726000014" lon="9.1750055617">
		<tag k="name" v="Skrommelvatna" />
		<tag k="natural" v="water" />
		<tag k="ssr:stedsnr" v="801436" />
		<tag k="water" v="lake" />
	</node>
	<node id="-78656" lat="63.0588444435" lon="9.41678333167">
		<tag k="fixme" v="consider water=pond" />
		<tag k="name" v="Tiåvatnet" />
		<tag k="natural" v="water" />
		<tag k="ssr:stedsnr" v="801390" />
		<tag k="water" v="lake" />
	</node>
	<node id="-78655" lat="63.061538887" lon="9.26642777289">
		<tag k="fixme" v="consider water=pond" />
		<tag k="name" v="Svartvatnet" />
		<tag k="natural" v="water" />
		<tag k="ssr:stedsnr" v="801387" />
		<tag k="water" v="lake" />
	</node>
	<node id="-78653" lat="63.0395000038" lon="9.38456388012">
		<tag k="name" v="Stokkvatnet" />
		<tag k="natural" v="water" />
		<tag k="ssr:stedsnr" v="801359" />
		<tag k="water" v="lake" />
	</node>
	<node id="-78652" lat="63.0263388882" lon="9.36561944999">
		<tag k="name" v="Kysinga" />
		<tag k="ssr:stedsnr" v="801335" />
		<tag k="waterway" v="stream" />
	</node>
	<node id="-78650" lat="63.03578056" lon="9.37645000331">
		<tag k="fixme" v="consider water=pond" />
		<tag k="name" v="Liavatnet" />
		<tag k="natural" v="water" />
		<tag k="ssr:stedsnr" v="801310" />
		<tag k="water" v="lake" />
	</node>
	<node id="-78648" lat="62.853749996" lon="9.455783325">
		<tag k="name" v="Turen" />
		<tag k="ssr:stedsnr" v="801207" />
		<tag k="waterway" v="stream" />
	</node>
	<node id="-78646" lat="62.8851250043" lon="9.30826944154">
		<tag k="name" v="Tangvatna - Njuanajaevrieh" />
		<tag k="name:no" v="Tangvatna" />
		<tag k="name:sma" v="Njuanajaevrieh" />
		<tag k="natural" v="water" />
		<tag k="ssr:stedsnr" v="801183" />
		<tag k="water" v="lake" />
	</node>
	<node id="-78645" lat="62.9979508593" lon="9.47087004797">
		<tag k="fixme" v="consider water=pond" />
		<tag k="name" v="Almdalsvatnet" />
		<tag k="natural" v="water" />
		<tag k="ssr:stedsnr" v="801168" />
		<tag k="water" v="lake" />
	</node>
	<node id="-78642" lat="62.9268916674" lon="9.16030000067">
		<tag k="name" v="Sekkvatnet" />
		<tag k="natural" v="water" />
		<tag k="ssr:stedsnr" v="801044" />
		<tag k="water" v="lake" />
	</node>
	<node id="-78632" lat="63.0709972247" lon="9.31178054598">
		<tag k="name" v="Sløbekken" />
		<tag k="ssr:stedsnr" v="767105" />
		<tag k="waterway" v="stream" />
	</node>
	<node id="-78628" lat="63.0398944429" lon="9.4103444502">
		<tag k="fixme" v="consider water=pond" />
		<tag k="name" v="Slettjønna" />
		<tag k="natural" v="water" />
		<tag k="ssr:stedsnr" v="766268" />
		<tag k="water" v="lake" />
	</node>
	<node id="-78627" lat="63.0399916648" lon="9.42811666331">
		<tag k="fixme" v="consider water=pond" />
		<tag k="name" v="Eiklægtjønna" />
		<tag k="natural" v="water" />
		<tag k="ssr:stedsnr" v="766267" />
		<tag k="water" v="lake" />
	</node>
	<node id="-78625" lat="63.182480554" lon="9.32515833403">
		<tag k="fixme" v="consider water=pond" />
		<tag k="name" v="Rundtjerna" />
		<tag k="natural" v="water" />
		<tag k="ssr:stedsnr" v="766082" />
		<tag k="water" v="lake" />
	</node>
	<node id="-78624" lat="63.1927083372" lon="9.29755278423">
		<tag k="name" v="Sagbekken" />
		<tag k="ssr:stedsnr" v="766067" />
		<tag k="waterway" v="stream" />
	</node>
	<node id="-78611" lat="63.1335444402" lon="9.09246388224">
		<tag k="name" v="Slættbekken" />
		<tag k="ssr:stedsnr" v="765889" />
		<tag k="waterway" v="stream" />
	</node>
	<node id="-78598" lat="63.0501055551" lon="9.14590555998">
		<tag k="name" v="Liabekken" />
		<tag k="ssr:stedsnr" v="765068" />
		<tag k="waterway" v="stream" />
	</node>
	<node id="-78595" lat="63.0474527744" lon="9.18657778162">
		<tag k="name" v="Gammelelva" />
		<tag k="ssr:stedsnr" v="765048" />
		<tag k="waterway" v="stream" />
	</node>
	<node id="-78589" lat="63.0708055559" lon="9.10784444344">
		<tag k="fixme" v="consider water=pond" />
		<tag k="name" v="Tjønnsletttjønna" />
		<tag k="natural" v="water" />
		<tag k="ssr:stedsnr" v="764963" />
		<tag k="water" v="lake" />
	</node>
	<node id="-78586" lat="63.0396499966" lon="9.12126665974">
		<tag k="name" v="Faggveita" />
		<tag k="ssr:stedsnr" v="764958" />
		<tag k="waterway" v="stream" />
	</node>
	<node id="-78584" lat="63.0251833317" lon="9.19600278257">
		<tag k="name" v="Bokkvassbekken" />
		<tag k="ssr:stedsnr" v="764607" />
		<tag k="waterway" v="stream" />
	</node>
	<node id="-78580" lat="63.130738889" lon="9.17866943713">
		<tag k="name" v="Gravbekken" />
		<tag k="ssr:stedsnr" v="764153" />
		<tag k="waterway" v="stream" />
	</node>
	<node id="-78578" lat="63.1278972214" lon="9.18321110277">
		<tag k="name" v="Kojbekken" />
		<tag k="ssr:stedsnr" v="764148" />
		<tag k="waterway" v="stream" />
	</node>
	<node id="-78575" lat="63.1143277748" lon="9.16108611487">
		<tag k="fixme" v="consider water=pond" />
		<tag k="name" v="Fjelljøveggtjønna" />
		<tag k="natural" v="water" />
		<tag k="ssr:stedsnr" v="764070" />
		<tag k="water" v="lake" />
	</node>
	<node id="-78571" lat="63.1018916648" lon="9.23520278559">
		<tag k="name" v="Liabekken" />
		<tag k="ssr:stedsnr" v="763022" />
		<tag k="waterway" v="stream" />
	</node>
	<node id="-78563" lat="62.9594749971" lon="9.22439722552">
		<tag k="name" v="Urabekken" />
		<tag k="ssr:stedsnr" v="753195" />
		<tag k="waterway" v="stream" />
	</node>
	<node id="-78558" lat="63.0861249971" lon="9.34223611085">
		<tag k="fixme" v="consider water=pond" />
		<tag k="name" v="Djupvatnet" />
		<tag k="natural" v="water" />
		<tag k="ssr:stedsnr" v="751539" />
		<tag k="water" v="lake" />
	</node>
	<node id="-78556" lat="63.0767916665" lon="9.16367499366">
		<tag k="name" v="Ljøsåa" />
		<tag k="ssr:stedsnr" v="748664" />
		<tag k="waterway" v="stream" />
	</node>
	<node id="-78554" lat="63.0514916625" lon="9.30304166928">
		<tag k="name" v="Askjellsåa" />
		<tag k="ssr:stedsnr" v="741415" />
		<tag k="waterway" v="stream" />
	</node>
	<node id="-78551" lat="62.9944888875" lon="9.41747222229">
		<tag k="fixme" v="consider water=pond" />
		<tag k="name" v="Langtjønna" />
		<tag k="natural" v="water" />
		<tag k="ssr:stedsnr" v="741218" />
		<tag k="water" v="lake" />
	</node>
	<node id="-78542" lat="63.1216250045" lon="9.35839165766">
		<tag k="name" v="Rørbekken" />
		<tag k="ssr:stedsnr" v="740448" />
		<tag k="waterway" v="stream" />
	</node>
	<node id="-78538" lat="63.0937666638" lon="9.34299721966">
		<tag k="fixme" v="consider water=pond" />
		<tag k="name" v="Litlvatnet" />
		<tag k="natural" v="water" />
		<tag k="ssr:stedsnr" v="740380" />
		<tag k="water" v="lake" />
	</node>
	<node id="-78531" lat="63.0083472236" lon="9.57047776978">
		<tag k="fixme" v="consider water=pond" />
		<tag k="name" v="Istjønna" />
		<tag k="natural" v="water" />
		<tag k="ssr:stedsnr" v="710068" />
		<tag k="water" v="lake" />
	</node>
	<node id="-78495" lat="63.1833527818" lon="9.22425277201">
		<tag k="name" v="Vasskardbekken" />
		<tag k="ssr:stedsnr" v="705153" />
		<tag k="waterway" v="stream" />
	</node>
	<node id="-78484" lat="63.076025004" lon="9.14129444417">
		<tag k="name" v="Ljøsåkrokan" />
		<tag k="natural" v="cape" />
		<tag k="place" v="locality" />
		<tag k="ssr:stedsnr" v="704906" />
	</node>
	<node id="-78481" lat="62.9496722194" lon="9.15393055283">
		<tag k="name" v="Langurveggbekken" />
		<tag k="ssr:stedsnr" v="704636" />
		<tag k="waterway" v="stream" />
	</node>
	<node id="-78479" lat="63.0594388877" lon="9.24213888606">
		<tag k="name" v="Askjellsåa" />
		<tag k="ssr:stedsnr" v="704186" />
		<tag k="waterway" v="stream" />
	</node>
	<node id="-78478" lat="63.067552775" lon="9.1970361166">
		<tag k="name" v="Bjønnabekken" />
		<tag k="ssr:stedsnr" v="704167" />
		<tag k="waterway" v="stream" />
	</node>
	<node id="-78473" lat="63.040427782" lon="9.24016110574">
		<tag k="name" v="Storstoen" />
		<tag k="natural" v="waterfall" />
		<tag k="ssr:stedsnr" v="704017" />
	</node>
	<node id="-78470" lat="63.0971527776" lon="9.13285000527">
		<tag k="fixme" v="consider water=pond" />
		<tag k="name" v="Broka" />
		<tag k="natural" v="water" />
		<tag k="ssr:stedsnr" v="703843" />
		<tag k="water" v="lake" />
	</node>
	<node id="-78465" lat="63.028855558" lon="9.23855833491">
		<tag k="name" v="Sandåstoen" />
		<tag k="natural" v="waterfall" />
		<tag k="ssr:stedsnr" v="703330" />
	</node>
	<node id="-78459" lat="63.1208472221" lon="9.17630276871">
		<tag k="fixme" v="consider water=pond" />
		<tag k="name" v="Vaultjønna" />
		<tag k="natural" v="water" />
		<tag k="ssr:stedsnr" v="703074" />
		<tag k="water" v="lake" />
	</node>
	<node id="-78450" lat="63.0108972247" lon="9.25966943932">
		<tag k="fixme" v="consider water=pond" />
		<tag k="name" v="Hanstjønna" />
		<tag k="natural" v="water" />
		<tag k="ssr:stedsnr" v="692404" />
		<tag k="water" v="lake" />
	</node>
	<node id="-78444" lat="63.0828472181" lon="9.14330277217">
		<tag k="fixme" v="consider water=pond" />
		<tag k="name" v="Ljøsåtjønna" />
		<tag k="natural" v="water" />
		<tag k="ssr:stedsnr" v="691473" />
		<tag k="water" v="lake" />
	</node>
	<node id="-78433" lat="62.9942333364" lon="9.17624444362">
		<tag k="fixme" v="consider water=pond" />
		<tag k="name" v="Skartjønna" />
		<tag k="natural" v="water" />
		<tag k="ssr:stedsnr" v="680523" />
		<tag k="water" v="lake" />
	</node>
	<node id="-78430" lat="63.0572777789" lon="9.30095000929">
		<tag k="fixme" v="consider water=pond" />
		<tag k="name" v="Isvatnet" />
		<tag k="natural" v="water" />
		<tag k="ssr:stedsnr" v="680443" />
		<tag k="water" v="lake" />
	</node>
	<node id="-78429" lat="63.0720833376" lon="9.23701388078">
		<tag k="fixme" v="consider water=pond" />
		<tag k="name" v="Djupdalsvatnet" />
		<tag k="natural" v="water" />
		<tag k="ssr:stedsnr" v="680421" />
		<tag k="water" v="lake" />
	</node>
	<node id="-78423" lat="62.9196999986" lon="9.35413332739">
		<tag k="name" v="Middagsbekken" />
		<tag k="ssr:stedsnr" v="680265" />
		<tag k="waterway" v="stream" />
	</node>
	<node id="-78421" lat="62.9848305518" lon="9.47230834129">
		<tag k="fixme" v="consider water=pond" />
		<tag k="name" v="Svarttjønna" />
		<tag k="natural" v="water" />
		<tag k="ssr:stedsnr" v="680197" />
		<tag k="water" v="lake" />
	</node>
	<node id="-78419" lat="63.1352777751" lon="9.18417777717">
		<tag k="fixme" v="consider water=pond" />
		<tag k="name" v="Øvre Gravtjønna" />
		<tag k="natural" v="water" />
		<tag k="ssr:stedsnr" v="679700" />
		<tag k="water" v="lake" />
	</node>
	<node id="-78412" lat="63.1475000027" lon="9.4521333321">
		<tag k="name" v="Seterlibekken" />
		<tag k="ssr:stedsnr" v="649943" />
		<tag k="waterway" v="stream" />
	</node>
	<node id="-78411" lat="63.144644441" lon="9.43326665963">
		<tag k="fixme" v="consider water=pond" />
		<tag k="name" v="Kattatjønna" />
		<tag k="natural" v="water" />
		<tag k="ssr:stedsnr" v="649940" />
		<tag k="water" v="lake" />
	</node>
	<node id="-78403" lat="63.074811112" lon="9.2879999968">
		<tag k="name" v="Litlslættvika" />
		<tag k="natural" v="bay" />
		<tag k="ssr:stedsnr" v="645596" />
	</node>
	<node id="-78401" lat="63.0505972213" lon="9.40328611685">
		<tag k="fixme" v="consider water=pond" />
		<tag k="name" v="Buormtjønna" />
		<tag k="natural" v="water" />
		<tag k="ssr:stedsnr" v="645248" />
		<tag k="water" v="lake" />
	</node>
	<node id="-78396" lat="63.0313611129" lon="9.34759444384">
		<tag k="fixme" v="consider water=pond" />
		<tag k="name" v="Sautjønna" />
		<tag k="natural" v="water" />
		<tag k="ssr:stedsnr" v="644942" />
		<tag k="water" v="lake" />
	</node>
	<node id="-78395" lat="63.0114972226" lon="9.34228333568">
		<tag k="name" v="Nonsgreiva" />
		<tag k="ssr:stedsnr" v="644519" />
		<tag k="waterway" v="stream" />
	</node>
	<node id="-78394" lat="63.0035194461" lon="9.29182776989">
		<tag k="fixme" v="consider water=pond" />
		<tag k="name" v="Grønlitjønna" />
		<tag k="natural" v="water" />
		<tag k="ssr:stedsnr" v="644469" />
		<tag k="water" v="lake" />
	</node>
	<node id="-78392" lat="63.03208611" lon="9.30173889211">
		<tag k="fixme" v="consider water=pond" />
		<tag k="name" v="Røsstjønna" />
		<tag k="natural" v="water" />
		<tag k="ssr:stedsnr" v="644262" />
		<tag k="water" v="lake" />
	</node>
	<node id="-78388" lat="63.1685166666" lon="9.34302777936">
		<tag k="fixme" v="consider water=pond" />
		<tag k="name" v="Kvennabekktjønna" />
		<tag k="natural" v="water" />
		<tag k="ssr:stedsnr" v="644051" />
		<tag k="water" v="lake" />
	</node>
	<node id="-78369" lat="63.0458666654" lon="9.23264999675">
		<tag k="name" v="Sverbekken" />
		<tag k="ssr:stedsnr" v="643022" />
		<tag k="waterway" v="stream" />
	</node>
	<node id="-78368" lat="63.0589694411" lon="9.27885000867">
		<tag k="fixme" v="consider water=pond" />
		<tag k="name" v="Bergtjønna" />
		<tag k="natural" v="water" />
		<tag k="ssr:stedsnr" v="643008" />
		<tag k="water" v="lake" />
	</node>
	<node id="-78360" lat="62.9710055513" lon="9.14445000385">
		<tag k="name" v="Bjønnabekken" />
		<tag k="ssr:stedsnr" v="642017" />
		<tag k="waterway" v="stream" />
	</node>
	<node id="-78354" lat="63.0196138918" lon="9.44104721977">
		<tag k="name" v="Myrbekken" />
		<tag k="ssr:stedsnr" v="631360" />
		<tag k="waterway" v="stream" />
	</node>
	<node id="-78349" lat="63.0704722208" lon="9.15139443468">
		<tag k="fixme" v="consider water=pond" />
		<tag k="name" v="Tørstjønna" />
		<tag k="natural" v="water" />
		<tag k="ssr:stedsnr" v="631216" />
		<tag k="water" v="lake" />
	</node>
	<node id="-78348" lat="63.035730553" lon="9.42102776914">
		<tag k="fixme" v="consider water=pond" />
		<tag k="name" v="Svarttjønna" />
		<tag k="natural" v="water" />
		<tag k="ssr:stedsnr" v="631214" />
		<tag k="water" v="lake" />
	</node>
	<node id="-78347" lat="62.949644443" lon="9.24838610432">
		<tag k="name" v="Kaldbølu" />
		<tag k="ssr:stedsnr" v="630433" />
		<tag k="waterway" v="stream" />
	</node>
	<node id="-78341" lat="63.1820583294" lon="9.29357777408">
		<tag k="name" v="Sagbekken" />
		<tag k="ssr:stedsnr" v="619623" />
		<tag k="waterway" v="stream" />
	</node>
	<node id="-78338" lat="63.1590833307" lon="9.2844944512">
		<tag k="name" v="Gråurbekken" />
		<tag k="ssr:stedsnr" v="619544" />
		<tag k="waterway" v="stream" />
	</node>
	<node id="-78334" lat="63.0730888926" lon="9.29825832533">
		<tag k="name" v="Grønlivatnet" />
		<tag k="natural" v="water" />
		<tag k="ssr:stedsnr" v="619488" />
		<tag k="water" v="lake" />
	</node>
	<node id="-78328" lat="63.0657555599" lon="9.35619999236">
		<tag k="fixme" v="consider water=pond" />
		<tag k="name" v="Steinkjerkvatnet" />
		<tag k="natural" v="water" />
		<tag k="ssr:stedsnr" v="619437" />
		<tag k="water" v="lake" />
	</node>
	<node id="-78326" lat="63.077719444" lon="9.33596111581">
		<tag k="fixme" v="consider water=pond" />
		<tag k="name" v="Setertjønna" />
		<tag k="natural" v="water" />
		<tag k="ssr:stedsnr" v="619416" />
		<tag k="water" v="lake" />
	</node>
	<node id="-78324" lat="63.0523027787" lon="9.27639443561">
		<tag k="fixme" v="consider water=pond" />
		<tag k="name" v="Lomtjønna" />
		<tag k="natural" v="water" />
		<tag k="ssr:stedsnr" v="619386" />
		<tag k="water" v="lake" />
	</node>
	<node id="-78322" lat="63.0852999963" lon="9.23490833224">
		<tag k="fixme" v="consider water=pond" />
		<tag k="name" v="Langmyrhaugtjønna" />
		<tag k="natural" v="water" />
		<tag k="ssr:stedsnr" v="618400" />
		<tag k="water" v="lake" />
	</node>
	<node id="-78312" lat="63.0641861069" lon="9.29125278157">
		<tag k="name" v="Vaulan" />
		<tag k="natural" v="strait" />
		<tag k="place" v="locality" />
		<tag k="ssr:stedsnr" v="584870" />
	</node>
	<node id="-78309" lat="63.0076333324" lon="9.35502778426">
		<tag k="fixme" v="consider water=pond" />
		<tag k="name" v="Stortjønna" />
		<tag k="natural" v="water" />
		<tag k="ssr:stedsnr" v="584482" />
		<tag k="water" v="lake" />
	</node>
	<node id="-78306" lat="63.0399888866" lon="9.44766111378">
		<tag k="name" v="Langvassbekken" />
		<tag k="ssr:stedsnr" v="584288" />
		<tag k="waterway" v="stream" />
	</node>
	<node id="-78299" lat="63.1164194422" lon="9.37789722182">
		<tag k="name" v="Valbekken" />
		<tag k="ssr:stedsnr" v="584049" />
		<tag k="waterway" v="stream" />
	</node>
	<node id="-78284" lat="63.1519611071" lon="9.3942666738">
		<tag k="name" v="Brattbekken" />
		<tag k="ssr:stedsnr" v="583902" />
		<tag k="waterway" v="stream" />
	</node>
	<node id="-78277" lat="63.0557277794" lon="9.28661945251">
		<tag k="fixme" v="consider water=pond" />
		<tag k="name" v="Tvibotntjønna" />
		<tag k="natural" v="water" />
		<tag k="ssr:stedsnr" v="583013" />
		<tag k="water" v="lake" />
	</node>
	<node id="-78276" lat="62.8419083316" lon="9.3694305478">
		<tag k="name" v="Trollhøttbekken" />
		<tag k="ssr:stedsnr" v="583007" />
		<tag k="waterway" v="stream" />
	</node>
	<node id="-78274" lat="63.0694611112" lon="9.12165832696">
		<tag k="name" v="Vestre Skinna" />
		<tag k="ssr:stedsnr" v="582921" />
		<tag k="waterway" v="stream" />
	</node>
	<node id="-78266" lat="63.0285638927" lon="9.22575000371">
		<tag k="name" v="Grytbekken" />
		<tag k="ssr:stedsnr" v="582294" />
		<tag k="waterway" v="stream" />
	</node>
	<node id="-78264" lat="63.0604666645" lon="9.25002221467">
		<tag k="name" v="Svartåa" />
		<tag k="ssr:stedsnr" v="582255" />
		<tag k="waterway" v="stream" />
	</node>
	<node id="-78253" lat="63.0541194444" lon="9.15690277037">
		<tag k="name" v="Husbekken" />
		<tag k="ssr:stedsnr" v="582059" />
		<tag k="waterway" v="stream" />
	</node>
	<node id="-78244" lat="63.0102027763" lon="9.2517388813">
		<tag k="fixme" v="consider water=pond" />
		<tag k="name" v="Ormtjønna" />
		<tag k="natural" v="water" />
		<tag k="ssr:stedsnr" v="581437" />
		<tag k="water" v="lake" />
	</node>
	<node id="-78242" lat="62.9934638876" lon="9.20712500826">
		<tag k="name" v="Fjellbekken" />
		<tag k="ssr:stedsnr" v="571732" />
		<tag k="waterway" v="stream" />
	</node>
	<node id="-78239" lat="63.1011416707" lon="9.03878332875">
		<tag k="fixme" v="consider water=pond" />
		<tag k="name" v="Furutjønna" />
		<tag k="natural" v="water" />
		<tag k="ssr:stedsnr" v="571706" />
		<tag k="water" v="lake" />
	</node>
	<node id="-78229" lat="62.8015166686" lon="9.28863055355">
		<tag k="name" v="Årinn" />
		<tag k="ssr:stedsnr" v="570236" />
		<tag k="waterway" v="stream" />
	</node>
	<node id="-78227" lat="62.9765055517" lon="9.24356388355">
		<tag k="name" v="Busteinbekken" />
		<tag k="ssr:stedsnr" v="569521" />
		<tag k="waterway" v="stream" />
	</node>
	<node id="-78220" lat="63.0228527764" lon="9.1918277774">
		<tag k="fixme" v="consider water=pond" />
		<tag k="name" v="Bolmbogsvatnet" />
		<tag k="natural" v="water" />
		<tag k="ssr:stedsnr" v="558704" />
		<tag k="water" v="lake" />
	</node>
	<node id="-78219" lat="63.0825972203" lon="9.19907777516">
		<tag k="name" v="Stokkåa" />
		<tag k="ssr:stedsnr" v="558669" />
		<tag k="waterway" v="stream" />
	</node>
	<node id="-78207" lat="63.0883805522" lon="9.34731111122">
		<tag k="fixme" v="consider water=pond" />
		<tag k="name" v="Storvatnet" />
		<tag k="natural" v="water" />
		<tag k="ssr:stedsnr" v="558444" />
		<tag k="water" v="lake" />
	</node>
	<node id="-78204" lat="63.0645249981" lon="9.2877638879">
		<tag k="name" v="Isvassbekken" />
		<tag k="ssr:stedsnr" v="558404" />
		<tag k="waterway" v="stream" />
	</node>
	<node id="-78200" lat="63.0381777813" lon="9.35475278542">
		<tag k="fixme" v="consider water=pond" />
		<tag k="name" v="Kysingvatnet" />
		<tag k="natural" v="water" />
		<tag k="ssr:stedsnr" v="558332" />
		<tag k="water" v="lake" />
	</node>
	<node id="-78199" lat="63.0064361122" lon="9.43705278303">
		<tag k="name" v="Titbekken" />
		<tag k="ssr:stedsnr" v="558295" />
		<tag k="waterway" v="stream" />
	</node>
	<node id="-78198" lat="62.9161777813" lon="9.3330666623">
		<tag k="name" v="Nonsbekken" />
		<tag k="ssr:stedsnr" v="558251" />
		<tag k="waterway" v="stream" />
	</node>
	<node id="-78197" lat="62.9392333293" lon="9.25134999291">
		<tag k="name" v="Bøluvatna" />
		<tag k="natural" v="water" />
		<tag k="ssr:stedsnr" v="558226" />
		<tag k="water" v="lake" />
	</node>
	<node id="-78187" lat="63.1258500004" lon="9.44848888088">
		<tag k="name" v="Ratbekken" />
		<tag k="ssr:stedsnr" v="528937" />
		<tag k="waterway" v="stream" />
	</node>
	<node id="-78186" lat="63.1365666705" lon="9.43955833518">
		<tag k="name" v="Holtbekken" />
		<tag k="ssr:stedsnr" v="528936" />
		<tag k="waterway" v="stream" />
	</node>
	<node id="-78173" lat="63.1614805588" lon="9.42059443966">
		<tag k="name" v="Rørbekken" />
		<tag k="ssr:stedsnr" v="524048" />
		<tag k="waterway" v="stream" />
	</node>
	<node id="-78170" lat="63.0996611149" lon="9.34324722512">
		<tag k="name" v="Tiåa" />
		<tag k="ssr:stedsnr" v="523967" />
		<tag k="waterway" v="stream" />
	</node>
	<node id="-78162" lat="63.1258666634" lon="9.29861667131">
		<tag k="name" v="Beksa" />
		<tag k="ssr:stedsnr" v="523892" />
		<tag k="waterway" v="stream" />
	</node>
	<node id="-78153" lat="62.9397027783" lon="9.41325556004">
		<tag k="name" v="Hølbekken" />
		<tag k="ssr:stedsnr" v="523112" />
		<tag k="waterway" v="stream" />
	</node>
	<node id="-78152" lat="63.1042333314" lon="9.3114472196">
		<tag k="name" v="Grindabekken" />
		<tag k="ssr:stedsnr" v="523043" />
		<tag k="waterway" v="stream" />
	</node>
	<node id="-78151" lat="63.0673166668" lon="9.12836944279">
		<tag k="name" v="Grytkrokan" />
		<tag k="natural" v="cape" />
		<tag k="place" v="locality" />
		<tag k="ssr:stedsnr" v="522911" />
	</node>
	<node id="-78146" lat="62.9881138858" lon="9.20610833535">
		<tag k="name" v="Hestfjellet" />
		<tag k="natural" v="water" />
		<tag k="ssr:stedsnr" v="522558" />
		<tag k="water" v="lake" />
	</node>
	<node id="-78142" lat="63.1556250032" lon="9.27488610698">
		<tag k="name" v="Toråa" />
		<tag k="ssr:stedsnr" v="522207" />
		<tag k="waterway" v="river" />
	</node>
	<node id="-78136" lat="63.0487555581" lon="9.13515556488">
		<tag k="name" v="Almbekken" />
		<tag k="ssr:stedsnr" v="521992" />
		<tag k="waterway" v="stream" />
	</node>
	<node id="-78133" lat="63.0744305572" lon="9.12866944741">
		<tag k="name" v="Østre Skinna" />
		<tag k="ssr:stedsnr" v="521918" />
		<tag k="waterway" v="stream" />
	</node>
	<node id="-78131" lat="63.0942333357" lon="9.0522111178">
		<tag k="fixme" v="consider water=pond" />
		<tag k="name" v="Rasmustjønna" />
		<tag k="natural" v="water" />
		<tag k="ssr:stedsnr" v="521835" />
		<tag k="water" v="lake" />
	</node>
	<node id="-78130" lat="63.1243861151" lon="9.10080278249">
		<tag k="name" v="Geitskarbekken" />
		<tag k="ssr:stedsnr" v="521799" />
		<tag k="waterway" v="stream" />
	</node>
	<node id="-78127" lat="63.0095305518" lon="9.20285556277">
		<tag k="name" v="Storbøllu" />
		<tag k="ssr:stedsnr" v="521404" />
		<tag k="waterway" v="river" />
	</node>
	<node id="-78121" lat="63.0047249957" lon="9.45023333916">
		<tag k="name" v="Almdalsbekken" />
		<tag k="ssr:stedsnr" v="523458" />
		<tag k="waterway" v="stream" />
	</node>
	<node id="-78119" lat="63.0891611107" lon="9.25286944889">
		<tag k="name" v="Krokbekken" />
		<tag k="ssr:stedsnr" v="521023" />
		<tag k="waterway" v="stream" />
	</node>
	<node id="-78100" lat="63.1213611146" lon="9.40796944851">
		<tag k="name" v="Rørvatnet" />
		<tag k="natural" v="water" />
		<tag k="ssr:stedsnr" v="498536" />
		<tag k="water" v="lake" />
	</node>
	<node id="-78094" lat="62.9001194446" lon="9.40824166212">
		<tag k="name" v="Storrindvatnet - Vueliejaevrie" />
		<tag k="name:no" v="Storrindvatnet" />
		<tag k="name:sma" v="Vueliejaevrie" />
		<tag k="natural" v="water" />
		<tag k="ssr:stedsnr" v="498229" />
		<tag k="water" v="lake" />
	</node>
	<node id="-78093" lat="62.9856666661" lon="9.41685276804">
		<tag k="name" v="Langvassbekken" />
		<tag k="ssr:stedsnr" v="498221" />
		<tag k="waterway" v="stream" />
	</node>
	<node id="-78091" lat="62.982327781" lon="9.33593055718">
		<tag k="fixme" v="consider water=pond" />
		<tag k="name" v="Kvenngrøtjønna" />
		<tag k="natural" v="water" />
		<tag k="ssr:stedsnr" v="498214" />
		<tag k="water" v="lake" />
	</node>
	<node id="-78090" lat="62.993544444" lon="9.27916944024">
		<tag k="fixme" v="consider water=pond" />
		<tag k="name" v="Bjørnahelitjønnin" />
		<tag k="natural" v="water" />
		<tag k="ssr:stedsnr" v="498194" />
		<tag k="water" v="lake" />
	</node>
	<node id="-78087" lat="63.015305553" lon="9.55870555816">
		<tag k="name" v="Ljøsåa" />
		<tag k="ssr:stedsnr" v="497447" />
		<tag k="waterway" v="stream" />
	</node>
	<node id="-78082" lat="63.0244916657" lon="9.44654999642">
		<tag k="fixme" v="consider water=pond" />
		<tag k="name" v="Husåsvatnet" />
		<tag k="natural" v="water" />
		<tag k="ssr:stedsnr" v="497339" />
		<tag k="water" v="lake" />
	</node>
	<node id="-78079" lat="63.0266111119" lon="9.28330277504">
		<tag k="fixme" v="consider water=pond" />
		<tag k="name" v="Gåstjønna" />
		<tag k="natural" v="water" />
		<tag k="ssr:stedsnr" v="497312" />
		<tag k="water" v="lake" />
	</node>
	<node id="-78078" lat="62.9230138858" lon="9.29409721839">
		<tag k="fixme" v="consider water=pond" />
		<tag k="name" v="Rypfjellvatnet" />
		<tag k="natural" v="water" />
		<tag k="ssr:stedsnr" v="497226" />
		<tag k="water" v="lake" />
	</node>
	<node id="-78077" lat="62.9330888888" lon="9.36896944195">
		<tag k="name" v="Litlrinda" />
		<tag k="ssr:stedsnr" v="497209" />
		<tag k="waterway" v="river" />
	</node>
	<node id="-78074" lat="63.1233638901" lon="9.40719166609">
		<tag k="name" v="Odden" />
		<tag k="natural" v="cape" />
		<tag k="place" v="locality" />
		<tag k="ssr:stedsnr" v="467257" />
	</node>
	<node id="-78064" lat="63.1325499989" lon="9.28348055174">
		<tag k="name" v="Tordalsbekken" />
		<tag k="ssr:stedsnr" v="463888" />
		<tag k="waterway" v="stream" />
	</node>
	<node id="-78063" lat="63.062372226" lon="9.29533055256">
		<tag k="name" v="Fjellbekken" />
		<tag k="ssr:stedsnr" v="463878" />
		<tag k="waterway" v="stream" />
	</node>
	<node id="-78061" lat="63.071225002" lon="9.42558888654">
		<tag k="name" v="Krokbekken" />
		<tag k="ssr:stedsnr" v="463709" />
		<tag k="waterway" v="stream" />
	</node>
	<node id="-78051" lat="63.0767749988" lon="9.29361944863">
		<tag k="name" v="Lulibekken" />
		<tag k="ssr:stedsnr" v="463080" />
		<tag k="waterway" v="stream" />
	</node>
	<node id="-78050" lat="63.1750194436" lon="9.30800000154">
		<tag k="fixme" v="consider water=pond" />
		<tag k="name" v="Midtre Gråortjern" />
		<tag k="natural" v="water" />
		<tag k="old_name" v="Mitre Gråortjern" />
		<tag k="ssr:stedsnr" v="463079" />
		<tag k="water" v="lake" />
	</node>
	<node id="-78046" lat="63.2091916705" lon="9.34808610397">
		<tag k="name" v="Søvatnet" />
		<tag k="natural" v="water" />
		<tag k="ssr:stedsnr" v="463064" />
		<tag k="water" v="lake" />
	</node>
	<node id="-78039" lat="63.0939444465" lon="9.32359722759">
		<tag k="name" v="Øyabekken" />
		<tag k="ssr:stedsnr" v="462983" />
		<tag k="waterway" v="stream" />
	</node>
	<node id="-78036" lat="63.0385944429" lon="9.3887972185">
		<tag k="name" v="Stokkvassbekken" />
		<tag k="ssr:stedsnr" v="462926" />
		<tag k="waterway" v="stream" />
	</node>
	<node id="-78034" lat="63.1504861123" lon="9.3842944471">
		<tag k="name" v="Høgåsdalsbekken" />
		<tag k="ssr:stedsnr" v="462902" />
		<tag k="waterway" v="stream" />
	</node>
	<node id="-78029" lat="63.1545666623" lon="9.19340556285">
		<tag k="name" v="Snipbekken" />
		<tag k="ssr:stedsnr" v="462159" />
		<tag k="waterway" v="stream" />
	</node>
	<node id="-78021" lat="63.0384749977" lon="9.14143332715">
		<tag k="name" v="Vargøya" />
		<tag k="place" v="island" />
		<tag k="ssr:stedsnr" v="461930" />
	</node>
	<node id="-78012" lat="63.0717000024" lon="9.22894722032">
		<tag k="name" v="Djupdalsbekken" />
		<tag k="ssr:stedsnr" v="461192" />
		<tag k="waterway" v="stream" />
	</node>
	<node id="-78010" lat="63.0704055585" lon="9.20340833752">
		<tag k="name" v="Kvennabekken" />
		<tag k="ssr:stedsnr" v="461187" />
		<tag k="waterway" v="stream" />
	</node>
	<node id="-78005" lat="63.0508583301" lon="9.19355000816">
		<tag k="name" v="Rindøyhølen" />
		<tag k="place" v="locality" />
		<tag k="ssr:stedsnr" v="461028" />
	</node>
	<node id="-77996" lat="63.0982833372" lon="9.02089723194">
		<tag k="fixme" v="consider water=pond" />
		<tag k="name" v="Storbekkdalstjønna" />
		<tag k="natural" v="water" />
		<tag k="ssr:stedsnr" v="450851" />
		<tag k="water" v="lake" />
	</node>
	<node id="-77995" lat="62.9754166674" lon="9.22970555557">
		<tag k="name" v="Børtre Stillbølu" />
		<tag k="place" v="locality" />
		<tag k="ssr:stedsnr" v="450756" />
	</node>
	<node id="-77994" lat="63.0723500026" lon="9.16422777766">
		<tag k="name" v="Møssmørbekken" />
		<tag k="ssr:stedsnr" v="450381" />
		<tag k="waterway" v="stream" />
	</node>
	<node id="-77992" lat="63.0964611088" lon="9.12680833543">
		<tag k="fixme" v="consider water=pond" />
		<tag k="name" v="Åkertjønna" />
		<tag k="natural" v="water" />
		<tag k="ssr:stedsnr" v="450250" />
		<tag k="water" v="lake" />
	</node>
	<node id="-77987" lat="63.0926250022" lon="8.96611110648">
		<tag k="fixme" v="consider water=pond" />
		<tag k="name" v="Langvatnet" />
		<tag k="natural" v="water" />
		<tag k="ssr:stedsnr" v="437741" />
		<tag k="water" v="lake" />
	</node>
	<node id="-77986" lat="63.0863194489" lon="8.98613888486">
		<tag k="name" v="Holmvassbekken" />
		<tag k="ssr:stedsnr" v="437719" />
		<tag k="waterway" v="stream" />
	</node>
	<node id="-77985" lat="63.1292250035" lon="9.16436945229">
		<tag k="fixme" v="consider water=pond" />
		<tag k="name" v="Skavltjønnin" />
		<tag k="natural" v="water" />
		<tag k="ssr:stedsnr" v="437694" />
		<tag k="water" v="lake" />
	</node>
	<node id="-77982" lat="63.1300166711" lon="9.33629444904">
		<tag k="name" v="Kvernabekken" />
		<tag k="ssr:stedsnr" v="437561" />
		<tag k="waterway" v="stream" />
	</node>
	<node id="-77981" lat="63.110469448" lon="9.22654999191">
		<tag k="name" v="Litltrøkna" />
		<tag k="ssr:stedsnr" v="437512" />
		<tag k="waterway" v="stream" />
	</node>
	<node id="-77979" lat="63.0821916643" lon="9.3377500076">
		<tag k="fixme" v="consider water=pond" />
		<tag k="name" v="Stangavatnet" />
		<tag k="natural" v="water" />
		<tag k="ssr:stedsnr" v="437401" />
		<tag k="water" v="lake" />
	</node>
	<node id="-77976" lat="63.0309388879" lon="9.44002777992">
		<tag k="name" v="Krokvatnet" />
		<tag k="natural" v="water" />
		<tag k="ssr:stedsnr" v="437345" />
		<tag k="water" v="lake" />
	</node>
	<node id="-77975" lat="63.0128888849" lon="9.4916416665">
		<tag k="name" v="Ljøsåa" />
		<tag k="ssr:stedsnr" v="437319" />
		<tag k="waterway" v="river" />
	</node>
	<node id="-77974" lat="63.0042305527" lon="9.47832776935">
		<tag k="name" v="Åkerbekken" />
		<tag k="ssr:stedsnr" v="437306" />
		<tag k="waterway" v="stream" />
	</node>
	<node id="-77971" lat="62.9884555534" lon="9.37975277224">
		<tag k="name" v="Setermarkbekken" />
		<tag k="ssr:stedsnr" v="437209" />
		<tag k="waterway" v="stream" />
	</node>
	<node id="-77970" lat="62.9996027822" lon="9.27935000925">
		<tag k="fixme" v="consider water=pond" />
		<tag k="name" v="Sandevatnet" />
		<tag k="natural" v="water" />
		<tag k="ssr:stedsnr" v="437193" />
		<tag k="water" v="lake" />
	</node>
	<node id="-77967" lat="62.9226777787" lon="9.16886110721">
		<tag k="fixme" v="consider water=pond" />
		<tag k="name" v="Storgrøvatnet" />
		<tag k="natural" v="water" />
		<tag k="ssr:stedsnr" v="437068" />
		<tag k="water" v="lake" />
	</node>
	<node id="-77964" lat="62.9845555577" lon="9.15574166801">
		<tag k="name" v="Brynnølbekken" />
		<tag k="ssr:stedsnr" v="437485" />
		<tag k="waterway" v="stream" />
	</node>
	<node id="-77959" lat="63.0677750025" lon="9.27237222445">
		<tag k="name" v="Jøåa" />
		<tag k="ssr:stedsnr" v="437426" />
		<tag k="waterway" v="stream" />
	</node>
	<node id="-77955" lat="63.1286583324" lon="9.04445556396">
		<tag k="name" v="Storbekken" />
		<tag k="ssr:stedsnr" v="268742" />
		<tag k="waterway" v="stream" />
	</node>
	<node id="-77951" lat="63.1069638863" lon="9.21013610298">
		<tag k="name" v="Trøknvatnet" />
		<tag k="natural" v="water" />
		<tag k="ssr:stedsnr" v="263098" />
		<tag k="water" v="lake" />
	</node>
	<node id="-77948" lat="63.121366671" lon="9.03656110853">
		<tag k="name" v="Fosselva" />
		<tag k="ssr:stedsnr" v="255715" />
		<tag k="waterway" v="river" />
	</node>
	<node id="-77943" lat="63.147475" lon="9.23004444663">
		<tag k="name" v="Storbekken" />
		<tag k="ssr:stedsnr" v="255549" />
		<tag k="waterway" v="stream" />
	</node>
	<node id="-77942" lat="63.1492" lon="9.45144443683">
		<tag k="fixme" v="consider water=pond" />
		<tag k="name" v="Høglitjønna" />
		<tag k="natural" v="water" />
		<tag k="ssr:stedsnr" v="255541" />
		<tag k="water" v="lake" />
	</node>
	<node id="-77939" lat="63.1167166653" lon="9.28162499385">
		<tag k="name" v="Kvernåa" />
		<tag k="ssr:stedsnr" v="255491" />
		<tag k="waterway" v="stream" />
	</node>
	<node id="-77931" lat="62.9655166683" lon="9.11928055713">
		<tag k="name" v="Foldsjøen" />
		<tag k="natural" v="water" />
		<tag k="ssr:stedsnr" v="255437" />
		<tag k="water" v="lake" />
	</node>
	<node id="-77928" lat="63.0594583333" lon="9.32490555995">
		<tag k="name" v="Fjellbekken" />
		<tag k="ssr:stedsnr" v="255397" />
		<tag k="waterway" v="stream" />
	</node>
	<node id="-77924" lat="63.0272000035" lon="9.40944166239">
		<tag k="fixme" v="consider water=pond" />
		<tag k="name" v="Poppeltjønna" />
		<tag k="natural" v="water" />
		<tag k="ssr:stedsnr" v="255340" />
		<tag k="water" v="lake" />
	</node>
	<node id="-77921" lat="63.0002583338" lon="9.2786805615">
		<tag k="fixme" v="consider water=pond" />
		<tag k="name" v="Sandåvatnet" />
		<tag k="natural" v="water" />
		<tag k="ssr:stedsnr" v="255293" />
		<tag k="water" v="lake" />
	</node>
	<node id="-77918" lat="62.9295083332" lon="9.35498055449">
		<tag k="name" v="Litlrindvatnet" />
		<tag k="natural" v="water" />
		<tag k="ssr:stedsnr" v="255223" />
		<tag k="water" v="lake" />
	</node>
	<node id="-77917" lat="62.8980249978" lon="9.31489721836">
		<tag k="fixme" v="consider water=pond" />
		<tag k="name" v="Nonstjønna" />
		<tag k="natural" v="water" />
		<tag k="ssr:stedsnr" v="255192" />
		<tag k="water" v="lake" />
	</node>
	<node id="-77916" lat="62.9943499974" lon="9.46593887903">
		<tag k="fixme" v="consider water=pond" />
		<tag k="name" v="Bjørnavatnet" />
		<tag k="natural" v="water" />
		<tag k="ssr:stedsnr" v="255185" />
		<tag k="water" v="lake" />
	</node>
	<node id="-77914" lat="63.005777775" lon="9.31432222264">
		<tag k="name" v="Sagbekken" />
		<tag k="ssr:stedsnr" v="255181" />
		<tag k="waterway" v="stream" />
	</node>
	<node id="-77890" lat="63.0971583295" lon="9.35015555264">
		<tag k="name" v="Kvennabekken" />
		<tag k="ssr:stedsnr" v="220950" />
		<tag k="waterway" v="stream" />
	</node>
	<node id="-77887" lat="63.1252750013" lon="9.29881666209">
		<tag k="name" v="Tordalsbekken" />
		<tag k="ssr:stedsnr" v="220894" />
		<tag k="waterway" v="stream" />
	</node>
	<node id="-77875" lat="63.1940361075" lon="9.35076388501">
		<tag k="name" v="Skruvtelbekken" />
		<tag k="ssr:stedsnr" v="220066" />
		<tag k="waterway" v="stream" />
	</node>
	<node id="-77871" lat="63.117283332" lon="9.32155277948">
		<tag k="name" v="Merkesbekken" />
		<tag k="ssr:stedsnr" v="220047" />
		<tag k="waterway" v="stream" />
	</node>
	<node id="-77870" lat="63.1235194473" lon="9.31743054962">
		<tag k="fixme" v="consider water=pond" />
		<tag k="name" v="Kattjønna" />
		<tag k="natural" v="water" />
		<tag k="ssr:stedsnr" v="220043" />
		<tag k="water" v="lake" />
	</node>
	<node id="-77869" lat="63.0444749966" lon="9.33748888049">
		<tag k="name" v="Fjelldalsbekken" />
		<tag k="ssr:stedsnr" v="220041" />
		<tag k="waterway" v="stream" />
	</node>
	<node id="-77862" lat="63.0393361068" lon="9.2016111087">
		<tag k="name" v="Bøllu" />
		<tag k="ssr:stedsnr" v="219934" />
		<tag k="waterway" v="river" />
	</node>
	<node id="-77856" lat="63.1672333316" lon="9.19083888281">
		<tag k="name" v="Reinvassbekken" />
		<tag k="ssr:stedsnr" v="219170" />
		<tag k="waterway" v="stream" />
	</node>
	<node id="-77854" lat="63.1693972226" lon="9.19844165942">
		<tag k="name" v="Reinvassbekken" />
		<tag k="ssr:stedsnr" v="219141" />
		<tag k="waterway" v="stream" />
	</node>
	<node id="-77843" lat="63.0940694483" lon="9.07717499598">
		<tag k="fixme" v="consider water=pond" />
		<tag k="name" v="Stenvegtjønna" />
		<tag k="natural" v="water" />
		<tag k="ssr:stedsnr" v="218791" />
		<tag k="water" v="lake" />
	</node>
	<node id="-77838" lat="63.0371083306" lon="9.16013055302">
		<tag k="name" v="Kvennabekken" />
		<tag k="ssr:stedsnr" v="218410" />
		<tag k="waterway" v="stream" />
	</node>
	<node id="-77832" lat="63.0397416652" lon="9.20296666382">
		<tag k="name" v="Sandåa" />
		<tag k="ssr:stedsnr" v="218254" />
		<tag k="waterway" v="river" />
	</node>
	<node id="-77830" lat="63.1122499959" lon="9.25830832878">
		<tag k="name" v="Merkesbekken" />
		<tag k="ssr:stedsnr" v="218083" />
		<tag k="waterway" v="stream" />
	</node>
</osm>
