<?xml version="1.0" encoding="UTF-8"?>
<osm generator="osmapis" version="0.6">
	<node id="-77809" lat="63.0919683033" lon="9.21587711085">
		<tag k="fixme" v="consider place=hamlet" />
		<tag k="name" v="Røen" />
		<tag k="place" v="farm" />
		<tag k="ssr:stedsnr" v="202761" />
	</node>
	<node id="-77808" lat="63.101646673" lon="9.39197027179">
		<tag k="name" v="Grøset" />
		<tag k="place" v="farm" />
		<tag k="ssr:stedsnr" v="195488" />
	</node>
	<node id="-77807" lat="63.1004749986" lon="9.43103333714">
		<tag k="name" v="Tømmerhaugen" />
		<tag k="place" v="locality" />
		<tag k="ssr:stedsnr" v="195485" />
	</node>
	<node id="-77806" lat="63.1060828403" lon="9.36538623722">
		<tag k="alt_name" v="Tiset, litle" />
		<tag k="fixme" v="consider place=hamlet" />
		<tag k="name" v="Litle Tiset" />
		<tag k="place" v="farm" />
		<tag k="ssr:stedsnr" v="195472" />
	</node>
	<node id="-77801" lat="62.8438583296" lon="9.43540278607">
		<tag k="name" v="Retåssætra" />
		<tag k="place" v="isolated_dwelling" />
		<tag k="ssr:stedsnr" v="194821" />
	</node>
	<node id="-77796" lat="63.0389472182" lon="9.1367777699">
		<tag k="name" v="Trøa" />
		<tag k="place" v="farm" />
		<tag k="ssr:stedsnr" v="194588" />
	</node>
	<node id="-77795" lat="63.0453438614" lon="9.1734945312">
		<tag k="fixme" v="consider place=hamlet" />
		<tag k="name" v="Bolmen" />
		<tag k="place" v="farm" />
		<tag k="ssr:stedsnr" v="194575" />
	</node>
	<node id="-77792" lat="63.1673166649" lon="9.44048611219">
		<tag k="name" v="Perlimoen" />
		<tag k="place" v="farm" />
		<tag k="ssr:stedsnr" v="194457" />
	</node>
	<node id="-77790" lat="63.1556775907" lon="9.41097817996">
		<tag k="fixme" v="consider place=hamlet" />
		<tag k="name" v="Hermundslia" />
		<tag k="place" v="farm" />
		<tag k="ssr:stedsnr" v="194439" />
	</node>
	<node id="-77789" lat="63.1277611152" lon="9.35878333759">
		<tag k="name" v="Rørdal" />
		<tag k="place" v="farm" />
		<tag k="ssr:stedsnr" v="194414" />
	</node>
	<node id="-77786" lat="63.0911475673" lon="9.24839785397">
		<tag k="fixme" v="consider place=hamlet" />
		<tag k="name" v="Øya" />
		<tag k="place" v="farm" />
		<tag k="ssr:stedsnr" v="194368" />
	</node>
	<node id="-77784" lat="63.0614805513" lon="9.32481388068">
		<tag k="name" v="Grønlisetra" />
		<tag k="place" v="isolated_dwelling" />
		<tag k="ssr:stedsnr" v="194358" />
	</node>
	<node id="-77783" lat="63.0146999987" lon="9.36806110751">
		<tag k="name" v="Brubakken" />
		<tag k="place" v="farm" />
		<tag k="ssr:stedsnr" v="194304" />
	</node>
	<node id="-77782" lat="63.0293805532" lon="9.30303332953">
		<tag k="name" v="Romundstad" />
		<tag k="place" v="farm" />
		<tag k="ssr:stedsnr" v="194298" />
	</node>
	<node id="-77776" lat="63.1268166644" lon="9.40096943611">
		<tag k="name" v="Skarset" />
		<tag k="place" v="farm" />
		<tag k="ssr:stedsnr" v="163953" />
	</node>
	<node id="-77772" lat="63.1454972264" lon="9.45011665957">
		<tag k="name" v="Seterlia" />
		<tag k="place" v="isolated_dwelling" />
		<tag k="ssr:stedsnr" v="163039" />
	</node>
	<node id="-77760" lat="63.1171416679" lon="9.33910278479">
		<tag k="name" v="Høgholt" />
		<tag k="place" v="farm" />
		<tag k="ssr:stedsnr" v="160042" />
	</node>
	<node id="-77758" lat="63.096919446" lon="9.31016667103">
		<tag k="name" v="Vintervoll" />
		<tag k="place" v="farm" />
		<tag k="ssr:stedsnr" v="159979" />
	</node>
	<node id="-77755" lat="63.147736107" lon="9.37876666843">
		<tag k="name" v="Høglia" />
		<tag k="place" v="farm" />
		<tag k="ssr:stedsnr" v="159910" />
	</node>
	<node id="-77748" lat="63.0155888866" lon="9.38392221359">
		<tag k="name" v="Østre Holten" />
		<tag k="place" v="farm" />
		<tag k="ssr:stedsnr" v="159444" />
	</node>
	<node id="-77741" lat="63.0726527797" lon="9.34354999794">
		<tag k="historic" v="shieling" />
		<tag k="name" v="Tisetsetrin" />
		<tag k="place" v="locality" />
		<tag k="ssr:stedsnr" v="159118" />
	</node>
	<node id="-77737" lat="63.1430888875" lon="9.38108611921">
		<tag k="name" v="Negardssetra" />
		<tag k="place" v="farm" />
		<tag k="ssr:stedsnr" v="159042" />
	</node>
	<node id="-77734" lat="63.1272249974" lon="9.34193056195">
		<tag k="name" v="Skogland" />
		<tag k="place" v="isolated_dwelling" />
		<tag k="ssr:stedsnr" v="159026" />
	</node>
	<node id="-77728" lat="62.8434611151" lon="9.43548333488">
		<tag k="name" v="Reitåssætra" />
		<tag k="place" v="isolated_dwelling" />
		<tag k="ssr:stedsnr" v="158152" />
	</node>
	<node id="-77725" lat="63.0456555526" lon="9.18708055233">
		<tag k="name" v="Bolmøyan" />
		<tag k="place" v="farm" />
		<tag k="ssr:stedsnr" v="158062" />
	</node>
	<node id="-77724" lat="63.0447666661" lon="9.17389444196">
		<tag k="name" v="Bakken" />
		<tag k="place" v="farm" />
		<tag k="ssr:stedsnr" v="158060" />
	</node>
	<node id="-77723" lat="63.0429000008" lon="9.23819722848">
		<tag k="name" v="Langøya" />
		<tag k="place" v="farm" />
		<tag k="ssr:stedsnr" v="158044" />
	</node>
	<node id="-77717" lat="63.0456555526" lon="9.18708055233">
		<tag k="name" v="Kamsletta" />
		<tag k="place" v="farm" />
		<tag k="ssr:stedsnr" v="158228" />
	</node>
	<node id="-77691" lat="62.8702138851" lon="9.24171945423">
		<tag k="name" v="Haugagarden" />
		<tag k="place" v="farm" />
		<tag k="ssr:stedsnr" v="144471" />
	</node>
	<node id="-77690" lat="63.1030423655" lon="9.38203393552">
		<tag k="fixme" v="consider place=hamlet" />
		<tag k="name" v="Nedgarden" />
		<tag k="place" v="farm" />
		<tag k="ssr:stedsnr" v="141138" />
	</node>
	<node id="-77689" lat="63.105080557" lon="9.30031110617">
		<tag k="name" v="Liagjerdet" />
		<tag k="place" v="farm" />
		<tag k="ssr:stedsnr" v="134497" />
	</node>
	<node id="-77688" lat="63.0470000034" lon="9.22985000566">
		<tag k="name" v="Løsetmoen" />
		<tag k="place" v="farm" />
		<tag k="ssr:stedsnr" v="134423" />
	</node>
	<node id="-77687" lat="63.0379651372" lon="9.21869740341">
		<tag k="fixme" v="consider place=hamlet" />
		<tag k="name" v="Langlia" />
		<tag k="place" v="farm" />
		<tag k="ssr:stedsnr" v="134415" />
	</node>
	<node id="-77686" lat="63.045774999" lon="9.25424444337">
		<tag k="name" v="Langholten" />
		<tag k="place" v="farm" />
		<tag k="ssr:stedsnr" v="134413" />
	</node>
	<node id="-77685" lat="62.8493611142" lon="9.45569723016">
		<tag k="name" v="Åssetra" />
		<tag k="place" v="locality" />
		<tag k="ssr:stedsnr" v="133819" />
	</node>
	<node id="-77683" lat="63.0360510204" lon="9.11659804205">
		<tag k="fixme" v="consider place=hamlet" />
		<tag k="name" v="Aunen" />
		<tag k="place" v="farm" />
		<tag k="ssr:stedsnr" v="133652" />
	</node>
	<node id="-77682" lat="63.0545611147" lon="9.17563611718">
		<tag k="name" v="Tørsetholten" />
		<tag k="place" v="farm" />
		<tag k="ssr:stedsnr" v="133593" />
	</node>
	<node id="-77681" lat="63.1450166632" lon="9.4455444515">
		<tag k="alt_name" v="Gåsvatn;Nordgard" />
		<tag k="name" v="Gåsvasstrøa" />
		<tag k="place" v="farm" />
		<tag k="ssr:stedsnr" v="133504" />
	</node>
	<node id="-77678" lat="63.0821444411" lon="9.31110277476">
		<tag k="name" v="Solheim" />
		<tag k="place" v="farm" />
		<tag k="ssr:stedsnr" v="133375" />
	</node>
	<node id="-77664" lat="63.127983329" lon="9.40721389103">
		<tag k="name" v="Odnes" />
		<tag k="place" v="farm" />
		<tag k="ssr:stedsnr" v="103929" />
	</node>
	<node id="-77663" lat="63.1182416695" lon="9.40178054791">
		<tag k="name" v="Lykkja" />
		<tag k="place" v="isolated_dwelling" />
		<tag k="ssr:stedsnr" v="103241" />
	</node>
	<node id="-77660" lat="63.0926254767" lon="9.26936424403">
		<tag k="fixme" v="consider place=hamlet" />
		<tag k="name" v="Holten" />
		<tag k="place" v="farm" />
		<tag k="ssr:stedsnr" v="100202" />
	</node>
	<node id="-77649" lat="63.0504694473" lon="9.33224722238">
		<tag k="name" v="Spranget" />
		<tag k="place" v="locality" />
		<tag k="ssr:stedsnr" v="99121" />
	</node>
	<node id="-77648" lat="63.0757944456" lon="9.34986667043">
		<tag k="historic" v="shieling" />
		<tag k="name" v="Furuhaugsetrin" />
		<tag k="place" v="locality" />
		<tag k="ssr:stedsnr" v="99116" />
	</node>
	<node id="-77642" lat="63.1401027774" lon="9.38209444704">
		<tag k="historic" v="shieling" />
		<tag k="name" v="Bakkasetra" />
		<tag k="place" v="locality" />
		<tag k="ssr:stedsnr" v="99037" />
	</node>
	<node id="-77632" lat="63.1489472218" lon="9.39644165927">
		<tag k="name" v="Sjøli" />
		<tag k="place" v="farm" />
		<tag k="ssr:stedsnr" v="98899" />
	</node>
	<node id="-77623" lat="63.0323000017" lon="9.10729167124">
		<tag k="name" v="Utistu Aune" />
		<tag k="place" v="farm" />
		<tag k="ssr:stedsnr" v="97909" />
	</node>
	<node id="-77607" lat="63.1126472266" lon="9.19088056143">
		<tag k="historic" v="shieling" />
		<tag k="name" v="Vaulanseter" />
		<tag k="place" v="locality" />
		<tag k="ssr:stedsnr" v="97068" />
	</node>
	<node id="-77605" lat="63.0513500019" lon="9.17153889367">
		<tag k="amenity" v="sports_centre" />
		<tag k="name" v="Torshall" />
		<tag k="ssr:stedsnr" v="97037" />
	</node>
	<node id="-77588" lat="63.0903222179" lon="9.16765555753">
		<tag k="historic" v="shieling" />
		<tag k="name" v="Bjørnåssetra" />
		<tag k="place" v="locality" />
		<tag k="ssr:stedsnr" v="73732" />
	</node>
	<node id="-77587" lat="63.1192138867" lon="9.1939333289">
		<tag k="name" v="Trønsdalssetra" />
		<tag k="place" v="isolated_dwelling" />
		<tag k="ssr:stedsnr" v="73708" />
	</node>
	<node id="-77586" lat="63.2048250034" lon="9.33064999981">
		<tag k="fixme" v="consider place=farm" />
		<tag k="name" v="Perlivollen" />
		<tag k="place" v="isolated_dwelling" />
		<tag k="ssr:stedsnr" v="73625" />
	</node>
	<node id="-77584" lat="63.1959638901" lon="9.30431388048">
		<tag k="name" v="Storhaugen" />
		<tag k="place" v="isolated_dwelling" />
		<tag k="ssr:stedsnr" v="73615" />
	</node>
	<node id="-77581" lat="63.168405559" lon="9.45098611327">
		<tag k="name" v="Asplund" />
		<tag k="place" v="farm" />
		<tag k="ssr:stedsnr" v="73535" />
	</node>
	<node id="-77580" lat="63.1582119955" lon="9.41764207873">
		<tag k="fixme" v="consider place=hamlet" />
		<tag k="name" v="Frekslia" />
		<tag k="place" v="farm" />
		<tag k="ssr:stedsnr" v="73524" />
	</node>
	<node id="-77577" lat="63.1354305519" lon="9.32264167235">
		<tag k="name" v="Råket" />
		<tag k="place" v="farm" />
		<tag k="ssr:stedsnr" v="73491" />
	</node>
	<node id="-77576" lat="63.131511111" lon="9.41501387931">
		<tag k="name" v="Øverås" />
		<tag k="place" v="farm" />
		<tag k="ssr:stedsnr" v="73487" />
	</node>
	<node id="-77575" lat="63.1022083345" lon="9.41259721722">
		<tag k="name" v="Lykkja" />
		<tag k="place" v="farm" />
		<tag k="ssr:stedsnr" v="73479" />
	</node>
	<node id="-77574" lat="63.1137861102" lon="9.33667499525">
		<tag k="name" v="Høgholtgjerdet" />
		<tag k="place" v="farm" />
		<tag k="ssr:stedsnr" v="73463" />
	</node>
	<node id="-77573" lat="63.1015916629" lon="9.36512223044">
		<tag k="name" v="Såmmårvollen" />
		<tag k="place" v="farm" />
		<tag k="ssr:stedsnr" v="73464" />
	</node>
	<node id="-77570" lat="63.017956678" lon="9.35225491667">
		<tag k="fixme" v="consider place=hamlet" />
		<tag k="name" v="Kattem" />
		<tag k="place" v="farm" />
		<tag k="ssr:stedsnr" v="73332" />
	</node>
	<node id="-77569" lat="63.0274560937" lon="9.31370652679">
		<tag k="fixme" v="consider place=hamlet" />
		<tag k="name" v="Romundstad" />
		<tag k="place" v="farm" />
		<tag k="ssr:stedsnr" v="73317" />
	</node>
	<node id="-77564" lat="62.9496666707" lon="9.26864443826">
		<tag k="name" v="Helgetunholtsetra" />
		<tag k="place" v="isolated_dwelling" />
		<tag k="ssr:stedsnr" v="73145" />
	</node>
	<node id="-77560" lat="63.1291194412" lon="9.41254721429">
		<tag k="name" v="Lian" />
		<tag k="place" v="farm" />
		<tag k="ssr:stedsnr" v="42928" />
	</node>
	<node id="-77539" lat="63.1053194477" lon="9.3829083417">
		<tag k="fixme" v="consider place=hamlet" />
		<tag k="name" v="Simonset" />
		<tag k="place" v="farm" />
		<tag k="ssr:stedsnr" v="38042" />
	</node>
	<node id="-77528" lat="63.0415583312" lon="9.14700832511">
		<tag k="name" v="Høgås" />
		<tag k="place" v="farm" />
		<tag k="ssr:stedsnr" v="37070" />
	</node>
	<node id="-77513" lat="63.0917916683" lon="9.26557777834">
		<tag k="name" v="Utigard" />
		<tag k="place" v="farm" />
		<tag k="ssr:stedsnr" v="36190" />
	</node>
	<node id="-77510" lat="63.0635638856" lon="9.19188332355">
		<tag k="name" v="Nygarden" />
		<tag k="place" v="farm" />
		<tag k="ssr:stedsnr" v="36141" />
	</node>
	<node id="-77507" lat="63.0467694473" lon="9.24931945304">
		<tag k="name" v="Ner-Løset" />
		<tag k="place" v="farm" />
		<tag k="ssr:stedsnr" v="36031" />
	</node>
	<node id="-77494" lat="63.0666944463" lon="9.14737500076">
		<tag k="name" v="Tørsåsløa" />
		<tag k="place" v="locality" />
		<tag k="ssr:stedsnr" v="25250" />
	</node>
	<node id="-77487" lat="63.0987305574" lon="9.08117777465">
		<tag k="historic" v="shieling" />
		<tag k="name" v="Tørsetsetra" />
		<tag k="place" v="locality" />
		<tag k="ssr:stedsnr" v="12740" />
	</node>
	<node id="-77484" lat="63.0493163657" lon="9.13219947508">
		<tag k="fixme" v="consider place=hamlet" />
		<tag k="name" v="Almberg" />
		<tag k="place" v="farm" />
		<tag k="ssr:stedsnr" v="12626" />
	</node>
	<node id="-77482" lat="63.1748527767" lon="9.24041945189">
		<tag k="name" v="Møkkelgardssetra" />
		<tag k="place" v="locality" />
		<tag k="ssr:stedsnr" v="12523" />
	</node>
	<node id="-77481" lat="63.1727138893" lon="9.45073610821">
		<tag k="name" v="Sagvoll" />
		<tag k="place" v="farm" />
		<tag k="ssr:stedsnr" v="12517" />
	</node>
	<node id="-77480" lat="63.1639955812" lon="9.43140817582">
		<tag k="fixme" v="consider place=hamlet" />
		<tag k="name" v="Pelia" />
		<tag k="place" v="farm" />
		<tag k="ssr:stedsnr" v="12509" />
	</node>
	<node id="-77478" lat="62.9963583328" lon="9.15619721908">
		<tag k="historic" v="shieling" />
		<tag k="name" v="Aunsetra" />
		<tag k="place" v="locality" />
		<tag k="ssr:stedsnr" v="12468" />
	</node>
	<node id="-77477" lat="63.1272166635" lon="9.40121111577">
		<tag k="name" v="Engli" />
		<tag k="place" v="farm" />
		<tag k="ssr:stedsnr" v="12465" />
	</node>
	<node id="-77476" lat="63.0933500031" lon="9.25404166666">
		<tag k="name" v="Lyngset" />
		<tag k="place" v="farm" />
		<tag k="ssr:stedsnr" v="12458" />
	</node>
	<node id="-77475" lat="63.096724997" lon="9.24909999827">
		<tag k="name" v="Trønset" />
		<tag k="place" v="farm" />
		<tag k="ssr:stedsnr" v="12456" />
	</node>
	<node id="-77474" lat="63.1017388905" lon="9.26164443912">
		<tag k="name" v="Hafella" />
		<tag k="place" v="farm" />
		<tag k="ssr:stedsnr" v="12434" />
	</node>
	<node id="-77473" lat="63.1051333323" lon="9.38616389119">
		<tag k="name" v="Semundset" />
		<tag k="place" v="farm" />
		<tag k="ssr:stedsnr" v="12429" />
	</node>
	<node id="-77471" lat="63.0705240078" lon="9.26430507826">
		<tag k="fixme" v="consider place=hamlet" />
		<tag k="name" v="Alshogden" />
		<tag k="place" v="farm" />
		<tag k="ssr:stedsnr" v="12370" />
	</node>
	<node id="-77469" lat="63.0427194407" lon="9.26973610304">
		<tag k="name" v="Løsethaugen" />
		<tag k="place" v="farm" />
		<tag k="ssr:stedsnr" v="12357" />
	</node>
	<node id="-77467" lat="63.008426067" lon="9.47179852972">
		<tag k="fixme" v="consider place=hamlet" />
		<tag k="name" v="Tretta" />
		<tag k="place" v="farm" />
		<tag k="ssr:stedsnr" v="12284" />
	</node>
	<node id="-77458" lat="63.1694960206" lon="9.44599187376">
		<tag k="fixme" v="consider place=hamlet" />
		<tag k="name" v="Jolia" />
		<tag k="place" v="farm" />
		<tag k="ssr:stedsnr" v="893095" />
	</node>
	<node id="-77456" lat="63.1023651942" lon="9.41121333069">
		<tag k="fixme" v="consider place=hamlet" />
		<tag k="name" v="Litllykkja" />
		<tag k="place" v="farm" />
		<tag k="ssr:stedsnr" v="892239" />
	</node>
	<node id="-77453" lat="63.1454972264" lon="9.45011665957">
		<tag k="name" v="Seterlia" />
		<tag k="place" v="isolated_dwelling" />
		<tag k="ssr:stedsnr" v="892033" />
	</node>
	<node id="-77436" lat="63.0756638918" lon="9.33488333672">
		<tag k="historic" v="shieling" />
		<tag k="name" v="Ivasetra" />
		<tag k="place" v="locality" />
		<tag k="ssr:stedsnr" v="888084" />
	</node>
	<node id="-77434" lat="63.0800527773" lon="9.28899166256">
		<tag k="name" v="Rotli" />
		<tag k="place" v="isolated_dwelling" />
		<tag k="ssr:stedsnr" v="888073" />
	</node>
	<node id="-77421" lat="63.0706722188" lon="9.26411111166">
		<tag k="name" v="Elshaugen" />
		<tag k="place" v="farm" />
		<tag k="ssr:stedsnr" v="279252" />
	</node>
	<node id="-77416" lat="62.9944861106" lon="9.3876638909">
		<tag k="historic" v="shieling" />
		<tag k="name" v="Setermarkløa" />
		<tag k="place" v="locality" />
		<tag k="ssr:stedsnr" v="887065" />
	</node>
	<node id="-77399" lat="63.0142333298" lon="9.16963610457">
		<tag k="historic" v="shieling" />
		<tag k="name" v="Børsetseterstølen" />
		<tag k="place" v="locality" />
		<tag k="ssr:stedsnr" v="886354" />
	</node>
	<node id="-77376" lat="63.0294388856" lon="9.30206666399">
		<tag k="name" v="Romundstad" />
		<tag k="place" v="farm" />
		<tag k="ssr:stedsnr" v="475749" />
	</node>
	<node id="-77363" lat="63.0757027767" lon="9.28749165827">
		<tag k="name" v="Rabben" />
		<tag k="place" v="isolated_dwelling" />
		<tag k="ssr:stedsnr" v="402694" />
	</node>
	<node id="-77360" lat="63.0119055581" lon="9.39355278021">
		<tag k="historic" v="shieling" />
		<tag k="name" v="Sæterholt" />
		<tag k="place" v="locality" />
		<tag k="ssr:stedsnr" v="402426" />
	</node>
	<node id="-77351" lat="63.1248694435" lon="9.38209167007">
		<tag k="name" v="Åsly" />
		<tag k="place" v="farm" />
		<tag k="ssr:stedsnr" v="402032" />
	</node>
	<node id="-77350" lat="63.1307666639" lon="9.34099721507">
		<tag k="name" v="Lomunda" />
		<tag k="place" v="farm" />
		<tag k="ssr:stedsnr" v="402026" />
	</node>
	<node id="-77345" lat="63.0983444489" lon="9.32480832485">
		<tag k="name" v="Tiset" />
		<tag k="place" v="neighbourhood" />
		<tag k="ssr:stedsnr" v="401985" />
	</node>
	<node id="-77344" lat="63.1020277807" lon="9.29575277802">
		<tag k="fixme" v="consider place=hamlet" />
		<tag k="name" v="Sunnaholten" />
		<tag k="place" v="farm" />
		<tag k="ssr:stedsnr" v="401966" />
	</node>
	<node id="-77342" lat="63.1021416643" lon="9.38858332431">
		<tag k="amenity" v="school" />
		<tag k="name" v="Skogen skule" />
		<tag k="ssr:stedsnr" v="401958" />
	</node>
	<node id="-77333" lat="63.0476472249" lon="9.18047499027">
		<tag k="name" v="Bolmvollen" />
		<tag k="place" v="farm" />
		<tag k="ssr:stedsnr" v="401211" />
	</node>
	<node id="-77321" lat="63.0350749979" lon="9.11044167342">
		<tag k="name" v="Oppistu Aune" />
		<tag k="place" v="farm" />
		<tag k="ssr:stedsnr" v="400921" />
	</node>
	<node id="-77308" lat="63.0519027806" lon="9.39388889357">
		<tag k="historic" v="shieling" />
		<tag k="name" v="Haltlisetra" />
		<tag k="place" v="locality" />
		<tag k="ssr:stedsnr" v="397818" />
	</node>
	<node id="-77285" lat="63.0463797257" lon="9.15436354159">
		<tag k="fixme" v="consider place=hamlet" />
		<tag k="name" v="Børset" />
		<tag k="place" v="farm" />
		<tag k="ssr:stedsnr" v="376641" />
	</node>
	<node id="-77283" lat="63.1413694406" lon="9.30874443914">
		<tag k="name" v="Torhøtta" />
		<tag k="place" v="locality" />
		<tag k="ssr:stedsnr" v="376548" />
	</node>
	<node id="-77282" lat="63.1384374376" lon="9.34727739806">
		<tag k="fixme" v="consider place=hamlet" />
		<tag k="name" v="Halgunset" />
		<tag k="place" v="farm" />
		<tag k="ssr:stedsnr" v="376545" />
	</node>
	<node id="-77280" lat="63.1660416666" lon="9.25972500677">
		<tag k="name" v="Møkkelgardssetra" />
		<tag k="place" v="isolated_dwelling" />
		<tag k="ssr:stedsnr" v="376524" />
	</node>
	<node id="-77277" lat="63.1114500349" lon="9.31620453878">
		<tag k="fixme" v="consider place=hamlet" />
		<tag k="name" v="Håkkåslia" />
		<tag k="place" v="farm" />
		<tag k="ssr:stedsnr" v="376505" />
	</node>
	<node id="-77275" lat="63.1333446157" lon="9.34315616222">
		<tag k="fixme" v="consider place=hamlet" />
		<tag k="name" v="Grøtan" />
		<tag k="place" v="farm" />
		<tag k="ssr:stedsnr" v="376493" />
	</node>
	<node id="-77272" lat="63.0428666632" lon="9.23776667054">
		<tag k="name" v="Løsetøyan" />
		<tag k="place" v="farm" />
		<tag k="ssr:stedsnr" v="376388" />
	</node>
	<node id="-77271" lat="63.044211113" lon="9.27883332489">
		<tag k="name" v="Lulia" />
		<tag k="place" v="isolated_dwelling" />
		<tag k="ssr:stedsnr" v="376383" />
	</node>
	<node id="-77270" lat="63.0424222236" lon="9.27653888843">
		<tag k="historic" v="shieling" />
		<tag k="name" v="Svervasslykkja" />
		<tag k="place" v="locality" />
		<tag k="ssr:stedsnr" v="376381" />
	</node>
	<node id="-77266" lat="63.0252916678" lon="9.32472500859">
		<tag k="name" v="Romundstadgjerdet" />
		<tag k="place" v="farm" />
		<tag k="ssr:stedsnr" v="376311" />
	</node>
	<node id="-77263" lat="62.924830556" lon="9.35112222917">
		<tag k="historic" v="shieling" />
		<tag k="name" v="Storlisetra" />
		<tag k="place" v="locality" />
		<tag k="ssr:stedsnr" v="376237" />
	</node>
	<node id="-77259" lat="62.971794441" lon="9.40633332866">
		<tag k="name" v="Løsetsetra" />
		<tag k="place" v="isolated_dwelling" />
		<tag k="ssr:stedsnr" v="376127" />
	</node>
	<node id="-77230" lat="63.0108777734" lon="9.41041667394">
		<tag k="name" v="Storli" />
		<tag k="place" v="farm" />
		<tag k="ssr:stedsnr" v="341411" />
	</node>
	<node id="-77227" lat="63.0703555529" lon="9.37372499804">
		<tag k="name" v="Langurhytta" />
		<tag k="place" v="isolated_dwelling" />
		<tag k="ssr:stedsnr" v="341100" />
	</node>
	<node id="-77226" lat="62.8418555577" lon="9.40598055586">
		<tag k="name" v="Søstugusætra" />
		<tag k="place" v="isolated_dwelling" />
		<tag k="ssr:stedsnr" v="341097" />
	</node>
	<node id="-77206" lat="63.0450861113" lon="9.17498889717">
		<tag k="name" v="Austistua" />
		<tag k="place" v="farm" />
		<tag k="ssr:stedsnr" v="340206" />
	</node>
	<node id="-77173" lat="63.1038361079" lon="9.29699444294">
		<tag k="name" v="Liagrenda" />
		<tag k="place" v="hamlet" />
		<tag k="ssr:stedsnr" v="328343" />
	</node>
	<node id="-77166" lat="63.0945861068" lon="9.01370554928">
		<tag k="historic" v="shieling" />
		<tag k="name" v="Tørsetsetra" />
		<tag k="place" v="locality" />
		<tag k="ssr:stedsnr" v="316786" />
	</node>
	<node id="-77165" lat="63.1129166664" lon="9.08385278118">
		<tag k="historic" v="shieling" />
		<tag k="name" v="Tørsetsetra" />
		<tag k="place" v="locality" />
		<tag k="ssr:stedsnr" v="316742" />
	</node>
	<node id="-77163" lat="63.1789277816" lon="9.45983889529">
		<tag k="name" v="Østbø" />
		<tag k="place" v="farm" />
		<tag k="ssr:stedsnr" v="316585" />
	</node>
	<node id="-77161" lat="63.127016663" lon="9.42750555205">
		<tag k="name" v="Haugasetrin" />
		<tag k="place" v="isolated_dwelling" />
		<tag k="ssr:stedsnr" v="316543" />
	</node>
	<node id="-77159" lat="63.1283861081" lon="9.36297500014">
		<tag k="name" v="Holtan" />
		<tag k="place" v="farm" />
		<tag k="ssr:stedsnr" v="316526" />
	</node>
	<node id="-77156" lat="63.0706216095" lon="9.28405363219">
		<tag k="fixme" v="consider place=hamlet" />
		<tag k="name" v="Grønlia" />
		<tag k="place" v="farm" />
		<tag k="ssr:stedsnr" v="316444" />
	</node>
	<node id="-77148" lat="63.0796083325" lon="9.28488610989">
		<tag k="name" v="Vettåsen" />
		<tag k="place" v="farm" />
		<tag k="ssr:stedsnr" v="315411" />
	</node>
	<node id="-77146" lat="63.099311012" lon="9.41677392921">
		<tag k="fixme" v="consider place=hamlet" />
		<tag k="name" v="Litlmoen" />
		<tag k="place" v="farm" />
		<tag k="ssr:stedsnr" v="315383" />
	</node>
	<node id="-77145" lat="63.0988842076" lon="9.42754040858">
		<tag k="fixme" v="consider place=hamlet" />
		<tag k="name" v="Storholten" />
		<tag k="place" v="farm" />
		<tag k="ssr:stedsnr" v="315382" />
	</node>
	<node id="-77144" lat="63.0667750026" lon="9.2216999985">
		<tag k="fixme" v="consider place=hamlet" />
		<tag k="name" v="Landsemn" />
		<tag k="place" v="farm" />
		<tag k="ssr:stedsnr" v="315360" />
	</node>
	<node id="-77142" lat="63.0318861082" lon="9.27854999746">
		<tag k="name" v="Berglund" />
		<tag k="place" v="farm" />
		<tag k="ssr:stedsnr" v="315296" />
	</node>
	<node id="-77141" lat="63.009102774" lon="9.24859445309">
		<tag k="name" v="Nedgardsmosetra" />
		<tag k="place" v="isolated_dwelling" />
		<tag k="ssr:stedsnr" v="315283" />
	</node>
	<node id="-77138" lat="62.9530722265" lon="9.13726666382">
		<tag k="historic" v="shieling" />
		<tag k="name" v="Aunsetra" />
		<tag k="old_name" v="Aunesetra" />
		<tag k="place" v="locality" />
		<tag k="ssr:stedsnr" v="315037" />
	</node>
	<node id="-77135" lat="63.1011777745" lon="9.40421666106">
		<tag k="name" v="Haugagjerdet" />
		<tag k="place" v="farm" />
		<tag k="ssr:stedsnr" v="285171" />
	</node>
	<node id="-77125" lat="63.0632527754" lon="9.39753610335">
		<tag k="name" v="Storholtsetra Utistu" />
		<tag k="place" v="isolated_dwelling" />
		<tag k="ssr:stedsnr" v="281752" />
	</node>
	<node id="-77124" lat="63.0798638891" lon="9.4010777765">
		<tag k="historic" v="shieling" />
		<tag k="name" v="Gammel Grøsetsetrin" />
		<tag k="place" v="locality" />
		<tag k="ssr:stedsnr" v="281737" />
	</node>
	<node id="-77110" lat="63.0768944464" lon="9.32257499502">
		<tag k="name" v="Luli" />
		<tag k="place" v="farm" />
		<tag k="ssr:stedsnr" v="281086" />
	</node>
	<node id="-77106" lat="63.129777774" lon="9.3753194371">
		<tag k="historic" v="shieling" />
		<tag k="name" v="Negardssetra" />
		<tag k="place" v="locality" />
		<tag k="ssr:stedsnr" v="281037" />
	</node>
	<node id="-77103" lat="63.1451666673" lon="9.38696944367">
		<tag k="name" v="Heggbotn" />
		<tag k="place" v="farm" />
		<tag k="ssr:stedsnr" v="281024" />
	</node>
	<node id="-77102" lat="63.1113472191" lon="9.32788055085">
		<tag k="name" v="Litløya" />
		<tag k="place" v="farm" />
		<tag k="ssr:stedsnr" v="281016" />
	</node>
	<node id="-77100" lat="63.095161113" lon="9.27787499281">
		<tag k="name" v="Bruholt" />
		<tag k="place" v="farm" />
		<tag k="ssr:stedsnr" v="280964" />
	</node>
	<node id="-77098" lat="63.1480166669" lon="9.39365278238">
		<tag k="name" v="Stenset" />
		<tag k="place" v="farm" />
		<tag k="ssr:stedsnr" v="280911" />
	</node>
	<node id="-77089" lat="63.1907805521" lon="9.25297499187">
		<tag k="name" v="Storslettet" />
		<tag k="place" v="isolated_dwelling" />
		<tag k="ssr:stedsnr" v="280123" />
	</node>
	<node id="-77069" lat="63.042780558" lon="9.17166667457">
		<tag k="name" v="Dalheim" />
		<tag k="place" v="farm" />
		<tag k="ssr:stedsnr" v="279034" />
	</node>
	<node id="-77067" lat="63.0455111126" lon="9.26290278694">
		<tag k="name" v="Oppistu Løset" />
		<tag k="place" v="farm" />
		<tag k="ssr:stedsnr" v="279020" />
	</node>
	<node id="-78918" lat="63.070636543" lon="9.28346713338">
		<tag k="name" v="Utistu Grønlia" />
		<tag k="place" v="farm" />
		<tag k="ssr:stedsnr" v="974745" />
	</node>
	<node id="-78917" lat="63.0338162721" lon="9.11199630871">
		<tag k="fixme" v="consider place=hamlet" />
		<tag k="name" v="Aunbakken" />
		<tag k="place" v="farm" />
		<tag k="ssr:stedsnr" v="971645" />
	</node>
	<node id="-78913" lat="63.1032833335" lon="9.3994583348">
		<tag k="fixme" v="consider place=hamlet" />
		<tag k="name" v="Grøset" />
		<tag k="place" v="farm" />
		<tag k="ssr:stedsnr" v="952274" />
	</node>
	<node id="-78898" lat="63.1473694459" lon="9.3912694542">
		<tag k="name" v="Bjørkly" />
		<tag k="place" v="farm" />
		<tag k="ssr:stedsnr" v="948934" />
	</node>
	<node id="-78897" lat="63.1472055538" lon="9.38646389101">
		<tag k="name" v="Nyløkken" />
		<tag k="place" v="farm" />
		<tag k="ssr:stedsnr" v="948930" />
	</node>
	<node id="-78887" lat="63.0133694456" lon="9.31156111152">
		<tag k="historic" v="shieling" />
		<tag k="name" v="Romundstadsetra" />
		<tag k="place" v="locality" />
		<tag k="ssr:stedsnr" v="948428" />
	</node>
	<node id="-78883" lat="63.0111944424" lon="9.40020000128">
		<tag k="name" v="Storligjerdet" />
		<tag k="place" v="locality" />
		<tag k="ssr:stedsnr" v="948416" />
	</node>
	<node id="-78866" lat="63.0569694455" lon="9.31806111087">
		<tag k="name" v="Kleivaløa" />
		<tag k="place" v="locality" />
		<tag k="ssr:stedsnr" v="948012" />
	</node>
	<node id="-78856" lat="63.1753583347" lon="9.20579443648">
		<tag k="name" v="Møkkelgardssetra" />
		<tag k="place" v="isolated_dwelling" />
		<tag k="ssr:stedsnr" v="947141" />
	</node>
	<node id="-78853" lat="63.0558194483" lon="9.18722221959">
		<tag k="name" v="Bjørnstad" />
		<tag k="place" v="farm" />
		<tag k="ssr:stedsnr" v="947058" />
	</node>
	<node id="-78836" lat="63.0917916683" lon="9.26557777834">
		<tag k="name" v="Holten" />
		<tag k="place" v="farm" />
		<tag k="ssr:stedsnr" v="946017" />
	</node>
	<node id="-78827" lat="63.092858335" lon="9.17935556222">
		<tag k="historic" v="shieling" />
		<tag k="name" v="Brønstadsetra" />
		<tag k="place" v="locality" />
		<tag k="ssr:stedsnr" v="923768" />
	</node>
	<node id="-78824" lat="63.1917938875" lon="9.2822847842">
		<tag k="fixme" v="consider place=hamlet" />
		<tag k="name" v="Melan" />
		<tag k="place" v="farm" />
		<tag k="ssr:stedsnr" v="923623" />
	</node>
	<node id="-78823" lat="63.1374233344" lon="9.42706544337">
		<tag k="fixme" v="consider place=hamlet" />
		<tag k="name" v="Gåsvatn" />
		<tag k="place" v="farm" />
		<tag k="ssr:stedsnr" v="923583" />
	</node>
	<node id="-78821" lat="63.1672083309" lon="9.44646110934">
		<tag k="name" v="Nyheim" />
		<tag k="place" v="farm" />
		<tag k="ssr:stedsnr" v="923566" />
	</node>
	<node id="-78815" lat="63.048036108" lon="9.23675833661">
		<tag k="name" v="Glennhaugen" />
		<tag k="place" v="farm" />
		<tag k="ssr:stedsnr" v="923392" />
	</node>
	<node id="-78812" lat="62.996477779" lon="9.33058611085">
		<tag k="name" v="Kattemssetra" />
		<tag k="place" v="isolated_dwelling" />
		<tag k="ssr:stedsnr" v="923214" />
	</node>
	<node id="-78810" lat="62.8424999969" lon="9.40698888504">
		<tag k="name" v="Kjellandsetra" />
		<tag k="place" v="locality" />
		<tag k="ssr:stedsnr" v="922816" />
	</node>
	<node id="-78805" lat="63.0765944425" lon="9.31169999597">
		<tag k="name" v="Vassenden" />
		<tag k="place" v="farm" />
		<tag k="ssr:stedsnr" v="922348" />
	</node>
	<node id="-78804" lat="63.0235559078" lon="9.33799724229">
		<tag k="fixme" v="consider place=hamlet" />
		<tag k="name" v="Heggem" />
		<tag k="place" v="farm" />
		<tag k="ssr:stedsnr" v="922321" />
	</node>
	<node id="-78802" lat="63.011729995" lon="9.4452749654">
		<tag k="fixme" v="consider place=hamlet" />
		<tag k="name" v="Helgetun" />
		<tag k="place" v="farm" />
		<tag k="ssr:stedsnr" v="922301" />
	</node>
	<node id="-78800" lat="63.0037055589" lon="9.48760000093">
		<tag k="name" v="Røssetra" />
		<tag k="place" v="locality" />
		<tag k="ssr:stedsnr" v="922260" />
	</node>
	<node id="-78798" lat="62.9404916694" lon="9.39226666135">
		<tag k="historic" v="shieling" />
		<tag k="name" v="Helgetunsetra" />
		<tag k="place" v="locality" />
		<tag k="ssr:stedsnr" v="922205" />
	</node>
	<node id="-78784" lat="63.0848583307" lon="8.99998332854">
		<tag k="historic" v="shieling" />
		<tag k="name" v="Tørsetsetra" />
		<tag k="place" v="locality" />
		<tag k="ssr:stedsnr" v="862717" />
	</node>
	<node id="-78780" lat="63.1215499994" lon="9.34179722087">
		<tag k="name" v="Osphaugen" />
		<tag k="place" v="farm" />
		<tag k="ssr:stedsnr" v="862474" />
	</node>
	<node id="-78778" lat="63.1085777769" lon="9.42790555367">
		<tag k="name" v="Øverlia" />
		<tag k="place" v="locality" />
		<tag k="ssr:stedsnr" v="862449" />
	</node>
	<node id="-78777" lat="63.0785555534" lon="9.3056805499">
		<tag k="name" v="Fjellheim" />
		<tag k="place" v="farm" />
		<tag k="ssr:stedsnr" v="862436" />
	</node>
	<node id="-78772" lat="63.0158916692" lon="9.35948611631">
		<tag k="name" v="Rindliin" />
		<tag k="place" v="farm" />
		<tag k="ssr:stedsnr" v="862340" />
	</node>
	<node id="-78770" lat="63.0234249981" lon="9.32179999126">
		<tag k="fixme" v="consider place=farm" />
		<tag k="name" v="Bruhaugen" />
		<tag k="place" v="isolated_dwelling" />
		<tag k="ssr:stedsnr" v="862331" />
	</node>
	<node id="-78759" lat="63.1594638917" lon="9.42768610238">
		<tag k="amenity" v="school" />
		<tag k="name" v="Lomundsjø skule" />
		<tag k="ssr:stedsnr" v="832097" />
	</node>
	<node id="-78756" lat="63.1401222193" lon="9.40587500074">
		<tag k="historic" v="shieling" />
		<tag k="name" v="Grøsetsetra" />
		<tag k="place" v="locality" />
		<tag k="ssr:stedsnr" v="831955" />
	</node>
	<node id="-78755" lat="63.132566669" lon="9.41853611459">
		<tag k="name" v="Austli" />
		<tag k="place" v="isolated_dwelling" />
		<tag k="ssr:stedsnr" v="831936" />
	</node>
	<node id="-78738" lat="63.075872221" lon="9.33469167137">
		<tag k="historic" v="shieling" />
		<tag k="name" v="Rabbasetra" />
		<tag k="place" v="locality" />
		<tag k="ssr:stedsnr" v="827110" />
	</node>
	<node id="-78737" lat="62.8421583357" lon="9.40873889498">
		<tag k="name" v="Bågåvollsætra" />
		<tag k="place" v="isolated_dwelling" />
		<tag k="ssr:stedsnr" v="827106" />
	</node>
	<node id="-78719" lat="63.0276861071" lon="9.3120527697">
		<tag k="name" v="Romundstad" />
		<tag k="place" v="farm" />
		<tag k="ssr:stedsnr" v="826312" />
	</node>
	<node id="-78717" lat="63.041813887" lon="9.18567223208">
		<tag k="name" v="Sjellen" />
		<tag k="place" v="farm" />
		<tag k="ssr:stedsnr" v="826205" />
	</node>
	<node id="-78707" lat="63.0454722247" lon="9.24324999463">
		<tag k="name" v="Løset" />
		<tag k="place" v="hamlet" />
		<tag k="ssr:stedsnr" v="826039" />
	</node>
	<node id="-78682" lat="62.8473694414" lon="9.44723888316">
		<tag k="name" v="Nordstuggusætra" />
		<tag k="place" v="isolated_dwelling" />
		<tag k="ssr:stedsnr" v="817791" />
	</node>
	<node id="-78669" lat="62.8433388879" lon="9.43506110685">
		<tag k="name" v="Myrsætra" />
		<tag k="place" v="isolated_dwelling" />
		<tag k="ssr:stedsnr" v="801803" />
	</node>
	<node id="-78667" lat="63.1113083372" lon="9.08469999601">
		<tag k="historic" v="shieling" />
		<tag k="name" v="Sjølsetsetra" />
		<tag k="place" v="locality" />
		<tag k="ssr:stedsnr" v="801681" />
	</node>
	<node id="-78666" lat="63.0794472261" lon="9.21320277752">
		<tag k="name" v="Brubakken" />
		<tag k="place" v="farm" />
		<tag k="ssr:stedsnr" v="801634" />
	</node>
	<node id="-78665" lat="63.0599851111" lon="9.17512813843">
		<tag k="fixme" v="consider place=hamlet" />
		<tag k="name" v="Grytbakken" />
		<tag k="place" v="farm" />
		<tag k="ssr:stedsnr" v="801619" />
	</node>
	<node id="-78664" lat="63.0519476085" lon="9.15889045808">
		<tag k="fixme" v="consider place=hamlet" />
		<tag k="name" v="Tørset" />
		<tag k="place" v="farm" />
		<tag k="ssr:stedsnr" v="801615" />
	</node>
	<node id="-78663" lat="63.1461843982" lon="9.29029842715">
		<tag k="name" v="Fossan" />
		<tag k="place" v="isolated_dwelling" />
		<tag k="ssr:stedsnr" v="801545" />
	</node>
	<node id="-78662" lat="63.1426638866" lon="9.3939055631">
		<tag k="name" v="Nordvang" />
		<tag k="place" v="farm" />
		<tag k="ssr:stedsnr" v="801529" />
	</node>
	<node id="-78658" lat="63.1011111122" lon="9.25119999917">
		<tag k="name" v="Heimestua" />
		<tag k="place" v="farm" />
		<tag k="ssr:stedsnr" v="801437" />
	</node>
	<node id="-78654" lat="63.0669888847" lon="9.26515277061">
		<tag k="name" v="Saghaug" />
		<tag k="place" v="farm" />
		<tag k="ssr:stedsnr" v="801381" />
	</node>
	<node id="-78649" lat="62.9243638857" lon="9.35103888011">
		<tag k="name" v="Stomprødsetra" />
		<tag k="place" v="isolated_dwelling" />
		<tag k="ssr:stedsnr" v="801218" />
	</node>
	<node id="-78640" lat="63.1700500006" lon="9.45081666094">
		<tag k="name" v="Nertun" />
		<tag k="place" v="farm" />
		<tag k="ssr:stedsnr" v="771105" />
	</node>
	<node id="-78639" lat="63.1727583315" lon="9.45083611923">
		<tag k="name" v="Jolia" />
		<tag k="place" v="farm" />
		<tag k="ssr:stedsnr" v="771095" />
	</node>
	<node id="-78638" lat="63.0975250006" lon="9.43256388027">
		<tag k="name" v="Storholt" />
		<tag k="place" v="farm" />
		<tag k="ssr:stedsnr" v="770148" />
	</node>
	<node id="-78622" lat="63.1030694433" lon="9.38675277353">
		<tag k="name" v="Litlbakkgrenda" />
		<tag k="place" v="hamlet" />
		<tag k="ssr:stedsnr" v="766035" />
	</node>
	<node id="-78620" lat="63.1243305599" lon="9.37436111357">
		<tag k="name" v="Seterhaug" />
		<tag k="place" v="farm" />
		<tag k="ssr:stedsnr" v="766029" />
	</node>
	<node id="-78607" lat="63.0258972236" lon="9.31784165721">
		<tag k="amenity" v="school" />
		<tag k="name" v="Romundstad skule" />
		<tag k="ssr:stedsnr" v="765284" />
	</node>
	<node id="-78606" lat="63.0276750015" lon="9.30553332604">
		<tag k="name" v="Nergård" />
		<tag k="place" v="farm" />
		<tag k="ssr:stedsnr" v="765276" />
	</node>
	<node id="-78605" lat="63.0382833292" lon="9.27231111001">
		<tag k="name" v="Løsettrøa" />
		<tag k="place" v="isolated_dwelling" />
		<tag k="ssr:stedsnr" v="765233" />
	</node>
	<node id="-78601" lat="63.1905999989" lon="9.24385000533">
		<tag k="name" v="Bendikvoll" />
		<tag k="place" v="isolated_dwelling" />
		<tag k="ssr:stedsnr" v="765162" />
	</node>
	<node id="-78597" lat="63.0486416697" lon="9.17121111161">
		<tag k="name" v="Limerholtet" />
		<tag k="place" v="farm" />
		<tag k="ssr:stedsnr" v="765054" />
	</node>
	<node id="-78596" lat="63.0418000003" lon="9.18005833991">
		<tag k="name" v="Plassen" />
		<tag k="place" v="locality" />
		<tag k="ssr:stedsnr" v="765051" />
	</node>
	<node id="-78592" lat="63.0581888927" lon="9.30293055877">
		<tag k="name" v="Langholtløa" />
		<tag k="place" v="locality" />
		<tag k="ssr:stedsnr" v="765002" />
	</node>
	<node id="-78590" lat="63.0471722229" lon="9.11350834235">
		<tag k="name" v="Nordvold" />
		<tag k="place" v="farm" />
		<tag k="ssr:stedsnr" v="764989" />
	</node>
	<node id="-78555" lat="63.1006749981" lon="9.34374999419">
		<tag k="fixme" v="consider place=hamlet" />
		<tag k="name" v="Furuhaugen" />
		<tag k="place" v="farm" />
		<tag k="ssr:stedsnr" v="741519" />
	</node>
	<node id="-78552" lat="62.9967444411" lon="9.31607777452">
		<tag k="name" v="Heggemssetrin" />
		<tag k="place" v="isolated_dwelling" />
		<tag k="ssr:stedsnr" v="741219" />
	</node>
	<node id="-78547" lat="63.1463277793" lon="9.38135833915">
		<tag k="name" v="Hermundsligjerdet" />
		<tag k="place" v="farm" />
		<tag k="ssr:stedsnr" v="740542" />
	</node>
	<node id="-78545" lat="63.1171000009" lon="9.34001944249">
		<tag k="name" v="Rise" />
		<tag k="place" v="farm" />
		<tag k="ssr:stedsnr" v="740470" />
	</node>
	<node id="-78544" lat="63.1323436545" lon="9.33367493915">
		<tag k="fixme" v="consider place=hamlet" />
		<tag k="name" v="Møkkelgarden" />
		<tag k="place" v="farm" />
		<tag k="ssr:stedsnr" v="740456" />
	</node>
	<node id="-78543" lat="63.1278861132" lon="9.40951111741">
		<tag k="name" v="Solvik" />
		<tag k="place" v="farm" />
		<tag k="ssr:stedsnr" v="740452" />
	</node>
	<node id="-78541" lat="63.0933083321" lon="9.27432500019">
		<tag k="name" v="Holten" />
		<tag k="place" v="farm" />
		<tag k="ssr:stedsnr" v="740443" />
	</node>
	<node id="-78540" lat="63.0991020799" lon="9.26450421032">
		<tag k="fixme" v="consider place=hamlet" />
		<tag k="name" v="Løfall" />
		<tag k="place" v="farm" />
		<tag k="ssr:stedsnr" v="740439" />
	</node>
	<node id="-78539" lat="63.0799749964" lon="9.28900556032">
		<tag k="name" v="Myrås" />
		<tag k="place" v="farm" />
		<tag k="ssr:stedsnr" v="740405" />
	</node>
	<node id="-78536" lat="63.012657002" lon="9.42486375622">
		<tag k="fixme" v="consider place=hamlet" />
		<tag k="name" v="Øygarden" />
		<tag k="place" v="farm" />
		<tag k="ssr:stedsnr" v="740321" />
	</node>
	<node id="-78535" lat="63.0326055589" lon="9.28021945418">
		<tag k="name" v="Røsberg" />
		<tag k="place" v="farm" />
		<tag k="ssr:stedsnr" v="740318" />
	</node>
	<node id="-78525" lat="63.0717527744" lon="9.30743333971">
		<tag k="name" v="Sløbekkstøggu" />
		<tag k="place" v="isolated_dwelling" />
		<tag k="ssr:stedsnr" v="706093" />
	</node>
	<node id="-78524" lat="63.1441611101" lon="9.35587499219">
		<tag k="name" v="Fagerlia" />
		<tag k="place" v="farm" />
		<tag k="ssr:stedsnr" v="706028" />
	</node>
	<node id="-78519" lat="63.0238166673" lon="9.36071945393">
		<tag k="fixme" v="consider place=hamlet" />
		<tag k="name" v="Haltlia" />
		<tag k="place" v="farm" />
		<tag k="ssr:stedsnr" v="705932" />
	</node>
	<node id="-78515" lat="63.0079722242" lon="9.33798056355">
		<tag k="historic" v="shieling" />
		<tag k="name" v="Gammelsetra" />
		<tag k="place" v="locality" />
		<tag k="ssr:stedsnr" v="705560" />
	</node>
	<node id="-78506" lat="63.0115388879" lon="9.4168166689">
		<tag k="name" v="Trøahaugen" />
		<tag k="place" v="locality" />
		<tag k="ssr:stedsnr" v="705441" />
	</node>
	<node id="-78504" lat="63.0099111111" lon="9.41626667556">
		<tag k="name" v="Råkatrøa" />
		<tag k="place" v="locality" />
		<tag k="ssr:stedsnr" v="705435" />
	</node>
	<node id="-78499" lat="63.0293083368" lon="9.29696944245">
		<tag k="name" v="Hegglund" />
		<tag k="place" v="farm" />
		<tag k="ssr:stedsnr" v="705289" />
	</node>
	<node id="-78496" lat="63.1625861099" lon="9.27098889409">
		<tag k="name" v="Trøsetra" />
		<tag k="place" v="isolated_dwelling" />
		<tag k="ssr:stedsnr" v="705166" />
	</node>
	<node id="-78490" lat="63.1030527736" lon="9.38259444814">
		<tag k="name" v="Negård" />
		<tag k="place" v="farm" />
		<tag k="ssr:stedsnr" v="705064" />
	</node>
	<node id="-78488" lat="63.1143805582" lon="9.3181888919">
		<tag k="name" v="Håkonsligjerdet" />
		<tag k="place" v="isolated_dwelling" />
		<tag k="ssr:stedsnr" v="705042" />
	</node>
	<node id="-78483" lat="63.0363444465" lon="9.1130027771">
		<tag k="name" v="Utigard Aune" />
		<tag k="place" v="farm" />
		<tag k="ssr:stedsnr" v="704891" />
	</node>
	<node id="-78442" lat="62.9114694423" lon="9.16429166788">
		<tag k="name" v="Garden" />
		<tag k="place" v="isolated_dwelling" />
		<tag k="ssr:stedsnr" v="691439" />
	</node>
	<node id="-78440" lat="63.0722480107" lon="9.20122720833">
		<tag k="fixme" v="consider place=hamlet" />
		<tag k="name" v="Bjørnåsen" />
		<tag k="place" v="farm" />
		<tag k="ssr:stedsnr" v="680696" />
	</node>
	<node id="-78439" lat="63.0674055513" lon="9.21628054924">
		<tag k="name" v="Voll" />
		<tag k="place" v="farm" />
		<tag k="ssr:stedsnr" v="680694" />
	</node>
	<node id="-78438" lat="63.1392666665" lon="9.24078054863">
		<tag k="name" v="Løfallsetrin" />
		<tag k="place" v="isolated_dwelling" />
		<tag k="ssr:stedsnr" v="680604" />
	</node>
	<node id="-78437" lat="63.1399277814" lon="9.43391945173">
		<tag k="name" v="Gåsbakk" />
		<tag k="place" v="farm" />
		<tag k="ssr:stedsnr" v="680603" />
	</node>
	<node id="-78435" lat="63.1750277823" lon="9.23911111895">
		<tag k="name" v="Sjølsvollsetra" />
		<tag k="place" v="isolated_dwelling" />
		<tag k="ssr:stedsnr" v="680593" />
	</node>
	<node id="-78434" lat="63.1242999979" lon="9.37511943757">
		<tag k="name" v="Åsvang" />
		<tag k="place" v="farm" />
		<tag k="ssr:stedsnr" v="680550" />
	</node>
	<node id="-78431" lat="63.1035750621" lon="9.34039768946">
		<tag k="alt_name" v="Tiset, store" />
		<tag k="fixme" v="consider place=hamlet" />
		<tag k="name" v="Store Tiset" />
		<tag k="place" v="farm" />
		<tag k="ssr:stedsnr" v="680498" />
	</node>
	<node id="-78428" lat="63.0415000012" lon="9.24121389217">
		<tag k="name" v="Fosshaug" />
		<tag k="place" v="farm" />
		<tag k="ssr:stedsnr" v="680414" />
	</node>
	<node id="-78427" lat="63.0486444471" lon="9.22185554971">
		<tag k="name" v="Fagerbakken" />
		<tag k="place" v="farm" />
		<tag k="ssr:stedsnr" v="680389" />
	</node>
	<node id="-78426" lat="63.0508555553" lon="9.23664444383">
		<tag k="name" v="Løfta" />
		<tag k="place" v="farm" />
		<tag k="ssr:stedsnr" v="680388" />
	</node>
	<node id="-78425" lat="63.0517596246" lon="9.22185606411">
		<tag k="fixme" v="consider place=hamlet" />
		<tag k="name" v="Rindalsholten" />
		<tag k="place" v="farm" />
		<tag k="ssr:stedsnr" v="680385" />
	</node>
	<node id="-78422" lat="62.8950555593" lon="9.38714166328">
		<tag k="name" v="Bjørnaråa" />
		<tag k="place" v="isolated_dwelling" />
		<tag k="ssr:stedsnr" v="680212" />
	</node>
	<node id="-78417" lat="63.0796388919" lon="9.30288056303">
		<tag k="name" v="Husby" />
		<tag k="place" v="farm" />
		<tag k="ssr:stedsnr" v="679399" />
	</node>
	<node id="-78416" lat="63.0744000037" lon="9.2606666605">
		<tag k="name" v="Kleiva" />
		<tag k="place" v="farm" />
		<tag k="ssr:stedsnr" v="679395" />
	</node>
	<node id="-78415" lat="63.0900638925" lon="9.25033055973">
		<tag k="name" v="Øyaholten" />
		<tag k="place" v="farm" />
		<tag k="ssr:stedsnr" v="679381" />
	</node>
	<node id="-78414" lat="63.0279320654" lon="9.30494989314">
		<tag k="fixme" v="consider place=hamlet" />
		<tag k="name" v="Nedgarden" />
		<tag k="place" v="farm" />
		<tag k="ssr:stedsnr" v="679270" />
	</node>
	<node id="-78413" lat="63.0701388846" lon="9.26197776965">
		<tag k="name" v="Oppigard" />
		<tag k="place" v="farm" />
		<tag k="ssr:stedsnr" v="666818" />
	</node>
	<node id="-78407" lat="63.1747194463" lon="9.45499722931">
		<tag k="name" v="Jolia" />
		<tag k="place" v="farm" />
		<tag k="ssr:stedsnr" v="649081" />
	</node>
	<node id="-78387" lat="63.1394027756" lon="9.36666388861">
		<tag k="name" v="Liabø" />
		<tag k="place" v="farm" />
		<tag k="ssr:stedsnr" v="644036" />
	</node>
	<node id="-78384" lat="63.0366888884" lon="9.11382221472">
		<tag k="name" v="Austigard Aune" />
		<tag k="place" v="farm" />
		<tag k="ssr:stedsnr" v="643912" />
	</node>
	<node id="-78375" lat="63.0445805549" lon="9.19284444032">
		<tag k="name" v="Moan" />
		<tag k="place" v="farm" />
		<tag k="ssr:stedsnr" v="643220" />
	</node>
	<node id="-78370" lat="63.0452749994" lon="9.2663944464">
		<tag k="name" v="Austigard Løset" />
		<tag k="place" v="farm" />
		<tag k="ssr:stedsnr" v="643026" />
	</node>
	<node id="-78356" lat="63.1677500005" lon="9.2283472318">
		<tag k="name" v="Lortåtsetra" />
		<tag k="place" v="isolated_dwelling" />
		<tag k="ssr:stedsnr" v="631757" />
	</node>
	<node id="-78340" lat="63.1421148812" lon="9.43788001584">
		<tag k="name" v="Gåsvatn" />
		<tag k="place" v="farm" />
		<tag k="ssr:stedsnr" v="619574" />
	</node>
	<node id="-78337" lat="63.1165194417" lon="9.33469999456">
		<tag k="fixme" v="consider place=hamlet" />
		<tag k="name" v="Høgholten" />
		<tag k="place" v="farm" />
		<tag k="ssr:stedsnr" v="619534" />
	</node>
	<node id="-78336" lat="63.1188888928" lon="9.33863332507">
		<tag k="name" v="Nordli" />
		<tag k="place" v="farm" />
		<tag k="ssr:stedsnr" v="619528" />
	</node>
	<node id="-78335" lat="63.1042500009" lon="9.37870276979">
		<tag k="fixme" v="consider place=hamlet" />
		<tag k="name" v="Bakken" />
		<tag k="place" v="farm" />
		<tag k="ssr:stedsnr" v="619512" />
	</node>
	<node id="-78333" lat="63.0784833348" lon="9.2982555466">
		<tag k="name" v="Liberg" />
		<tag k="place" v="farm" />
		<tag k="ssr:stedsnr" v="619486" />
	</node>
	<node id="-78332" lat="63.0773055585" lon="9.29050277059">
		<tag k="name" v="Vesterheim" />
		<tag k="place" v="farm" />
		<tag k="ssr:stedsnr" v="619484" />
	</node>
	<node id="-78331" lat="63.078300004" lon="9.29532499954">
		<tag k="name" v="Langset" />
		<tag k="place" v="farm" />
		<tag k="ssr:stedsnr" v="619480" />
	</node>
	<node id="-78330" lat="63.0623916652" lon="9.39394999033">
		<tag k="name" v="Storholtsetra" />
		<tag k="place" v="isolated_dwelling" />
		<tag k="ssr:stedsnr" v="619459" />
	</node>
	<node id="-78327" lat="63.077319445" lon="9.31715000029">
		<tag k="name" v="Grønset" />
		<tag k="place" v="farm" />
		<tag k="ssr:stedsnr" v="619419" />
	</node>
	<node id="-78325" lat="63.0374138907" lon="9.27037777509">
		<tag k="name" v="Gardlia" />
		<tag k="place" v="farm" />
		<tag k="ssr:stedsnr" v="619405" />
	</node>
	<node id="-78323" lat="63.0936916697" lon="9.22201944697">
		<tag k="fixme" v="consider place=farm" />
		<tag k="name" v="Trøknaholten" />
		<tag k="place" v="isolated_dwelling" />
		<tag k="ssr:stedsnr" v="618443" />
	</node>
	<node id="-78319" lat="63.1446472228" lon="9.40206667055">
		<tag k="historic" v="shieling" />
		<tag k="name" v="Grøsetsetra" />
		<tag k="place" v="locality" />
		<tag k="ssr:stedsnr" v="588959" />
	</node>
	<node id="-78316" lat="63.160077778" lon="9.30157222034">
		<tag k="historic" v="shieling" />
		<tag k="name" v="Gråursetra" />
		<tag k="place" v="locality" />
		<tag k="ssr:stedsnr" v="584954" />
	</node>
	<node id="-78311" lat="63.0619083301" lon="9.41997778151">
		<tag k="name" v="Storholtsetra Midstu" />
		<tag k="place" v="isolated_dwelling" />
		<tag k="ssr:stedsnr" v="584736" />
	</node>
	<node id="-78307" lat="63.0159027784" lon="9.38271111282">
		<tag k="name" v="Kirkholtholt" />
		<tag k="place" v="farm" />
		<tag k="ssr:stedsnr" v="584417" />
	</node>
	<node id="-78301" lat="63.0738583294" lon="9.33236943708">
		<tag k="historic" v="shieling" />
		<tag k="name" v="Ivasetra" />
		<tag k="place" v="locality" />
		<tag k="ssr:stedsnr" v="584109" />
	</node>
	<node id="-78300" lat="63.0785250023" lon="9.30224444877">
		<tag k="name" v="Vassli" />
		<tag k="place" v="farm" />
		<tag k="ssr:stedsnr" v="584105" />
	</node>
	<node id="-78298" lat="63.121640451" lon="9.34071533884">
		<tag k="fixme" v="consider place=hamlet" />
		<tag k="name" v="Asphaugen" />
		<tag k="place" v="farm" />
		<tag k="ssr:stedsnr" v="584044" />
	</node>
	<node id="-78296" lat="63.1379694466" lon="9.37024443744">
		<tag k="historic" v="shieling" />
		<tag k="name" v="Høgholtsetra" />
		<tag k="place" v="locality" />
		<tag k="ssr:stedsnr" v="584032" />
	</node>
	<node id="-78285" lat="63.1465111134" lon="9.38170000634">
		<tag k="name" v="Høgset" />
		<tag k="place" v="farm" />
		<tag k="ssr:stedsnr" v="583904" />
	</node>
	<node id="-78278" lat="63.0262444478" lon="9.32814444819">
		<tag k="name" v="Flålia" />
		<tag k="place" v="farm" />
		<tag k="ssr:stedsnr" v="583284" />
	</node>
	<node id="-78245" lat="63.0284583334" lon="9.15737499895">
		<tag k="name" v="Liahytta" />
		<tag k="place" v="isolated_dwelling" />
		<tag k="ssr:stedsnr" v="581628" />
	</node>
	<node id="-78235" lat="62.9783305559" lon="9.38731667595">
		<tag k="name" v="Stormyrløa" />
		<tag k="place" v="locality" />
		<tag k="ssr:stedsnr" v="571284" />
	</node>
	<node id="-78233" lat="62.9671694422" lon="9.40813055048">
		<tag k="name" v="Øygardssetra" />
		<tag k="place" v="locality" />
		<tag k="ssr:stedsnr" v="571249" />
	</node>
	<node id="-78231" lat="63.0554694402" lon="9.2115055597">
		<tag k="name" v="Rindal" />
		<tag k="place" v="village" />
		<tag k="ssr:stedsnr" v="570611" />
	</node>
	<node id="-78230" lat="62.869344446" lon="9.20708055595">
		<tag k="name" v="Utiton" />
		<tag k="place" v="isolated_dwelling" />
		<tag k="ssr:stedsnr" v="570237" />
	</node>
	<node id="-78224" lat="63.1905333295" lon="9.21855278513">
		<tag k="historic" v="shieling" />
		<tag k="name" v="Vardskarssetra" />
		<tag k="place" v="locality" />
		<tag k="ssr:stedsnr" v="566138" />
	</node>
	<node id="-78223" lat="63.0823444447" lon="9.20271111579">
		<tag k="name" v="Stokke" />
		<tag k="place" v="farm" />
		<tag k="ssr:stedsnr" v="558756" />
	</node>
	<node id="-78221" lat="63.1311228002" lon="9.07268733344">
		<tag k="historic" v="shieling" />
		<tag k="name" v="Fossan" />
		<tag k="place" v="locality" />
		<tag k="ssr:stedsnr" v="558716" />
	</node>
	<node id="-78218" lat="63.0418361134" lon="9.16292777266">
		<tag k="name" v="Reitan" />
		<tag k="place" v="farm" />
		<tag k="ssr:stedsnr" v="558657" />
	</node>
	<node id="-78217" lat="63.0610285365" lon="9.18582219873">
		<tag k="fixme" v="consider place=hamlet" />
		<tag k="name" v="Bjørnstad" />
		<tag k="place" v="farm" />
		<tag k="ssr:stedsnr" v="558655" />
	</node>
	<node id="-78215" lat="63.1232583306" lon="9.36786944746">
		<tag k="name" v="Åsmo" />
		<tag k="place" v="farm" />
		<tag k="ssr:stedsnr" v="558519" />
	</node>
	<node id="-78214" lat="63.1316805706" lon="9.322783632">
		<tag k="fixme" v="consider place=hamlet" />
		<tag k="name" v="Storlykkja" />
		<tag k="place" v="farm" />
		<tag k="ssr:stedsnr" v="558503" />
	</node>
	<node id="-78212" lat="63.0956499998" lon="9.23211667609">
		<tag k="name" v="Østerholten" />
		<tag k="place" v="farm" />
		<tag k="ssr:stedsnr" v="558492" />
	</node>
	<node id="-78211" lat="63.0973088451" lon="9.2651746156">
		<tag k="name" v="Løfallia" />
		<tag k="place" v="farm" />
		<tag k="ssr:stedsnr" v="558488" />
	</node>
	<node id="-78210" lat="63.1060111146" lon="9.43000556375">
		<tag k="name" v="Sollia" />
		<tag k="place" v="isolated_dwelling" />
		<tag k="ssr:stedsnr" v="558481" />
	</node>
	<node id="-78209" lat="63.1019444412" lon="9.37066943462">
		<tag k="name" v="Bakklia" />
		<tag k="place" v="farm" />
		<tag k="ssr:stedsnr" v="558470" />
	</node>
	<node id="-78206" lat="63.0963250016" lon="9.28758888188">
		<tag k="name" v="Bruset" />
		<tag k="place" v="farm" />
		<tag k="ssr:stedsnr" v="558428" />
	</node>
	<node id="-78205" lat="63.0972777775" lon="9.31013610143">
		<tag k="alt_name" v="Øya, øvre" />
		<tag k="name" v="Øvre Øya" />
		<tag k="place" v="farm" />
		<tag k="ssr:stedsnr" v="558426" />
	</node>
	<node id="-78203" lat="63.0672777798" lon="9.25898054837">
		<tag k="name" v="Elstad" />
		<tag k="place" v="farm" />
		<tag k="ssr:stedsnr" v="558394" />
	</node>
	<node id="-78202" lat="63.0166449559" lon="9.37099525287">
		<tag k="fixme" v="consider place=hamlet" />
		<tag k="name" v="Kjerkholten" />
		<tag k="place" v="farm" />
		<tag k="ssr:stedsnr" v="558338" />
	</node>
	<node id="-78201" lat="63.011051766" lon="9.45820330091">
		<tag k="fixme" v="consider place=hamlet" />
		<tag k="name" v="Setra" />
		<tag k="place" v="farm" />
		<tag k="ssr:stedsnr" v="558336" />
	</node>
	<node id="-78190" lat="62.9381305578" lon="9.14024722307">
		<tag k="historic" v="shieling" />
		<tag k="name" v="Aunbakksetra" />
		<tag k="place" v="locality" />
		<tag k="ssr:stedsnr" v="558062" />
	</node>
	<node id="-78188" lat="63.0492166702" lon="9.19651945369">
		<tag k="building" v="hotel" />
		<tag k="name" v="Saga Trollheimen Hotel" />
		<tag k="ssr:stedsnr" v="538765" />
		<tag k="tourism" v="hotel" />
	</node>
	<node id="-78184" lat="63.107938893" lon="9.41203889757">
		<tag k="name" v="Ruggurdalen" />
		<tag k="place" v="farm" />
		<tag k="ssr:stedsnr" v="528262" />
	</node>
	<node id="-78181" lat="63.1006861122" lon="9.40631943581">
		<tag k="name" v="Haugabekken" />
		<tag k="place" v="farm" />
		<tag k="ssr:stedsnr" v="527174" />
	</node>
	<node id="-78165" lat="63.1470166664" lon="9.383977777">
		<tag k="name" v="Bjørkås" />
		<tag k="place" v="farm" />
		<tag k="ssr:stedsnr" v="523905" />
	</node>
	<node id="-78161" lat="63.0160749956" lon="9.37191389825">
		<tag k="name" v="Kirkholt Oppistu" />
		<tag k="place" v="farm" />
		<tag k="ssr:stedsnr" v="523545" />
	</node>
	<node id="-78160" lat="63.0157083367" lon="9.37073610767">
		<tag k="name" v="Lømo" />
		<tag k="place" v="farm" />
		<tag k="ssr:stedsnr" v="523546" />
	</node>
	<node id="-78158" lat="63.0267083348" lon="9.30773611772">
		<tag k="name" v="Negard Romundstad" />
		<tag k="place" v="farm" />
		<tag k="ssr:stedsnr" v="523322" />
	</node>
	<node id="-78156" lat="63.0366249963" lon="9.27221943551">
		<tag k="name" v="Hagen" />
		<tag k="place" v="farm" />
		<tag k="ssr:stedsnr" v="523270" />
	</node>
	<node id="-78149" lat="63.0781749983" lon="9.13509721418">
		<tag k="name" v="Fjellstuggu" />
		<tag k="place" v="isolated_dwelling" />
		<tag k="ssr:stedsnr" v="522903" />
	</node>
	<node id="-78148" lat="63.0348638922" lon="9.12013889495">
		<tag k="name" v="Oppigard Aune" />
		<tag k="place" v="farm" />
		<tag k="ssr:stedsnr" v="522898" />
	</node>
	<node id="-78145" lat="63.046566665" lon="9.15340276835">
		<tag k="name" v="Austigard Børset" />
		<tag k="place" v="farm" />
		<tag k="ssr:stedsnr" v="522242" />
	</node>
	<node id="-78144" lat="63.0468416663" lon="9.19776945292">
		<tag k="name" v="Bolmsaga" />
		<tag k="place" v="farm" />
		<tag k="ssr:stedsnr" v="522225" />
	</node>
	<node id="-78143" lat="63.1393944423" lon="9.24131111886">
		<tag k="historic" v="shieling" />
		<tag k="name" v="Bekkjadalsetra" />
		<tag k="place" v="locality" />
		<tag k="ssr:stedsnr" v="522208" />
	</node>
	<node id="-78134" lat="63.047947224" lon="9.10577776886">
		<tag k="name" v="Henriksråa" />
		<tag k="place" v="farm" />
		<tag k="ssr:stedsnr" v="521983" />
	</node>
	<node id="-78126" lat="63.0117916682" lon="9.19389722241">
		<tag k="historic" v="shieling" />
		<tag k="name" v="Heimstusetra" />
		<tag k="place" v="locality" />
		<tag k="ssr:stedsnr" v="521361" />
	</node>
	<node id="-78120" lat="63.0519027806" lon="9.39388889357">
		<tag k="historic" v="shieling" />
		<tag k="name" v="Gråursetra" />
		<tag k="place" v="locality" />
		<tag k="ssr:stedsnr" v="519811" />
	</node>
	<node id="-78118" lat="63.0968972187" lon="9.23458334245">
		<tag k="name" v="Solvang" />
		<tag k="place" v="farm" />
		<tag k="ssr:stedsnr" v="521021" />
	</node>
	<node id="-78110" lat="62.8192000024" lon="9.21824444677">
		<tag k="historic" v="shieling" />
		<tag k="name" v="Litlsetra" />
		<tag k="place" v="locality" />
		<tag k="ssr:stedsnr" v="510309" />
	</node>
	<node id="-78107" lat="62.9028944423" lon="9.16621110767">
		<tag k="historic" v="shieling" />
		<tag k="name" v="Aunsetra" />
		<tag k="place" v="locality" />
		<tag k="ssr:stedsnr" v="509466" />
	</node>
	<node id="-78104" lat="63.0866248052" lon="9.20540330499">
		<tag k="fixme" v="consider place=hamlet" />
		<tag k="name" v="Brønstad" />
		<tag k="place" v="farm" />
		<tag k="ssr:stedsnr" v="506082" />
	</node>
	<node id="-78103" lat="63.1416354296" lon="9.34532321741">
		<tag k="fixme" v="consider place=hamlet" />
		<tag k="name" v="Fjellet" />
		<tag k="place" v="farm" />
		<tag k="ssr:stedsnr" v="498592" />
	</node>
	<node id="-78101" lat="63.1261583292" lon="9.39140277044">
		<tag k="name" v="Rørvang" />
		<tag k="place" v="farm" />
		<tag k="ssr:stedsnr" v="498542" />
	</node>
	<node id="-78098" lat="63.0988715146" lon="9.23997264987">
		<tag k="fixme" v="consider place=hamlet" />
		<tag k="name" v="Trønsdalen" />
		<tag k="place" v="farm" />
		<tag k="ssr:stedsnr" v="498510" />
	</node>
	<node id="-78097" lat="63.1088888895" lon="9.31279722274">
		<tag k="name" v="Ingbrigtslia" />
		<tag k="place" v="farm" />
		<tag k="ssr:stedsnr" v="498500" />
	</node>
	<node id="-78089" lat="63.1084694432" lon="9.09145000924">
		<tag k="historic" v="shieling" />
		<tag k="name" v="Alshogdsetra" />
		<tag k="place" v="locality" />
		<tag k="ssr:stedsnr" v="497735" />
	</node>
	<node id="-78086" lat="63.0952888907" lon="9.2381944357">
		<tag k="name" v="Volleng" />
		<tag k="place" v="farm" />
		<tag k="ssr:stedsnr" v="497437" />
	</node>
	<node id="-78081" lat="63.0261754969" lon="9.31948318341">
		<tag k="fixme" v="consider place=hamlet" />
		<tag k="name" v="Romundstad" />
		<tag k="place" v="village" />
		<tag k="ssr:stedsnr" v="497317" />
	</node>
	<node id="-78080" lat="63.0310999994" lon="9.28690277803">
		<tag k="name" v="Nerbu" />
		<tag k="place" v="farm" />
		<tag k="ssr:stedsnr" v="497318" />
	</node>
	<node id="-78066" lat="63.1015083314" lon="9.35144722487">
		<tag k="name" v="Furuhaugen" />
		<tag k="place" v="farm" />
		<tag k="ssr:stedsnr" v="463952" />
	</node>
	<node id="-78044" lat="63.1031027813" lon="9.3547472256">
		<tag k="name" v="Oppheim" />
		<tag k="place" v="farm" />
		<tag k="ssr:stedsnr" v="463037" />
	</node>
	<node id="-78043" lat="63.1027138879" lon="9.39613055814">
		<tag k="name" v="Grøset" />
		<tag k="place" v="farm" />
		<tag k="ssr:stedsnr" v="463033" />
	</node>
	<node id="-78042" lat="63.1034083338" lon="9.29486388724">
		<tag k="name" v="Sverkelia" />
		<tag k="place" v="farm" />
		<tag k="ssr:stedsnr" v="463030" />
	</node>
	<node id="-78041" lat="63.1332888894" lon="9.35799166891">
		<tag k="name" v="Ner-Grøtan" />
		<tag k="place" v="farm" />
		<tag k="ssr:stedsnr" v="463020" />
	</node>
	<node id="-78037" lat="63.0997638927" lon="9.28233333821">
		<tag k="name" v="Krokstad" />
		<tag k="place" v="farm" />
		<tag k="ssr:stedsnr" v="462970" />
	</node>
	<node id="-78035" lat="63.1459638867" lon="9.38967500856">
		<tag k="name" v="Engset" />
		<tag k="place" v="isolated_dwelling" />
		<tag k="ssr:stedsnr" v="462912" />
	</node>
	<node id="-78028" lat="63.1748583331" lon="9.2404666686">
		<tag k="name" v="Ljøsådalseter" />
		<tag k="place" v="isolated_dwelling" />
		<tag k="ssr:stedsnr" v="462125" />
	</node>
	<node id="-78026" lat="63.046033337" lon="9.13053888909">
		<tag k="name" v="Almberg" />
		<tag k="place" v="farm" />
		<tag k="ssr:stedsnr" v="461990" />
	</node>
	<node id="-78024" lat="63.041783331" lon="9.13001667473">
		<tag k="name" v="Bølluøya" />
		<tag k="place" v="farm" />
		<tag k="ssr:stedsnr" v="461954" />
	</node>
	<node id="-78023" lat="63.0415277779" lon="9.12392222138">
		<tag k="name" v="Aune" />
		<tag k="place" v="farm" />
		<tag k="ssr:stedsnr" v="461950" />
	</node>
	<node id="-78022" lat="63.0777166666" lon="9.09335278583">
		<tag k="historic" v="shieling" />
		<tag k="name" v="Finnråa" />
		<tag k="place" v="locality" />
		<tag k="ssr:stedsnr" v="461945" />
	</node>
	<node id="-78006" lat="63.0523473112" lon="9.20639366604">
		<tag k="fixme" v="consider place=hamlet" />
		<tag k="name" v="Rindalen" />
		<tag k="place" v="farm" />
		<tag k="ssr:stedsnr" v="461042" />
	</node>
	<node id="-78003" lat="62.9623611141" lon="9.13023332472">
		<tag k="name" v="Gammelløa" />
		<tag k="place" v="locality" />
		<tag k="ssr:stedsnr" v="461015" />
	</node>
	<node id="-77988" lat="63.0609982878" lon="9.19210841348">
		<tag k="fixme" v="consider place=hamlet" />
		<tag k="name" v="Sjølsvollen" />
		<tag k="place" v="farm" />
		<tag k="ssr:stedsnr" v="445077" />
	</node>
	<node id="-77980" lat="63.1261583317" lon="9.39695277223">
		<tag k="name" v="Bergheim" />
		<tag k="place" v="farm" />
		<tag k="ssr:stedsnr" v="437507" />
	</node>
	<node id="-77978" lat="63.0447272253" lon="9.25553570537">
		<tag k="fixme" v="consider place=hamlet" />
		<tag k="name" v="Løset" />
		<tag k="place" v="farm" />
		<tag k="ssr:stedsnr" v="437390" />
	</node>
	<node id="-77977" lat="63.0257527738" lon="9.34591110164">
		<tag k="name" v="Haltlia" />
		<tag k="place" v="farm" />
		<tag k="ssr:stedsnr" v="437361" />
	</node>
	<node id="-77969" lat="62.9540472196" lon="9.35905276864">
		<tag k="name" v="Kjerkholtsetra" />
		<tag k="place" v="locality" />
		<tag k="ssr:stedsnr" v="437183" />
	</node>
	<node id="-77968" lat="62.9491055556" lon="9.2669444502">
		<tag k="name" v="Nedgardssetra" />
		<tag k="place" v="isolated_dwelling" />
		<tag k="ssr:stedsnr" v="437171" />
	</node>
	<node id="-77965" lat="63.0998694401" lon="9.29196110542">
		<tag k="name" v="Synnaholten" />
		<tag k="place" v="farm" />
		<tag k="ssr:stedsnr" v="437488" />
	</node>
	<node id="-77963" lat="63.1036332299" lon="9.40412966868">
		<tag k="fixme" v="consider place=hamlet" />
		<tag k="name" v="Haugen" />
		<tag k="place" v="farm" />
		<tag k="ssr:stedsnr" v="437483" />
	</node>
	<node id="-77961" lat="63.0816833372" lon="9.30783055209">
		<tag k="name" v="Kråkstad" />
		<tag k="place" v="farm" />
		<tag k="ssr:stedsnr" v="437455" />
	</node>
	<node id="-77957" lat="63.0725722257" lon="9.39970833105">
		<tag k="name" v="Litlmosetra" />
		<tag k="place" v="isolated_dwelling" />
		<tag k="ssr:stedsnr" v="437410" />
	</node>
	<node id="-77952" lat="63.1901944437" lon="9.24474166196">
		<tag k="name" v="Bendiksetra" />
		<tag k="place" v="isolated_dwelling" />
		<tag k="ssr:stedsnr" v="263154" />
	</node>
	<node id="-77950" lat="62.8419666663" lon="9.40845554834">
		<tag k="historic" v="shieling" />
		<tag k="name" v="Bruholtsetra" />
		<tag k="place" v="locality" />
		<tag k="ssr:stedsnr" v="255855" />
	</node>
	<node id="-77946" lat="63.0797249997" lon="9.20114999603">
		<tag k="name" v="Lauvlia" />
		<tag k="place" v="farm" />
		<tag k="ssr:stedsnr" v="255651" />
	</node>
	<node id="-77940" lat="63.1703799149" lon="9.44789320963">
		<tag k="name" v="Jolia" />
		<tag k="place" v="farm" />
		<tag k="ssr:stedsnr" v="255517" />
	</node>
	<node id="-77938" lat="63.1244694477" lon="9.38453888308">
		<tag k="name" v="Solås" />
		<tag k="place" v="farm" />
		<tag k="ssr:stedsnr" v="255483" />
	</node>
	<node id="-77937" lat="63.124430557" lon="9.38943610485">
		<tag k="name" v="Damlia" />
		<tag k="place" v="farm" />
		<tag k="ssr:stedsnr" v="255481" />
	</node>
	<node id="-77936" lat="63.1334861084" lon="9.30974721428">
		<tag k="name" v="Trøa" />
		<tag k="place" v="farm" />
		<tag k="ssr:stedsnr" v="255469" />
	</node>
	<node id="-77934" lat="63.1035869158" lon="9.29395502422">
		<tag k="fixme" v="consider place=hamlet" />
		<tag k="name" v="Sverkelia" />
		<tag k="place" v="farm" />
		<tag k="ssr:stedsnr" v="255446" />
	</node>
	<node id="-77933" lat="63.1033416686" lon="9.36761666523">
		<tag k="name" v="Vollen" />
		<tag k="place" v="farm" />
		<tag k="ssr:stedsnr" v="255445" />
	</node>
	<node id="-77930" lat="63.0779000029" lon="9.29302499169">
		<tag k="name" v="Løvset" />
		<tag k="place" v="farm" />
		<tag k="ssr:stedsnr" v="255427" />
	</node>
	<node id="-77929" lat="63.0759121029" lon="9.22287975271">
		<tag k="fixme" v="consider place=hamlet" />
		<tag k="name" v="Fosseide" />
		<tag k="place" v="farm" />
		<tag k="ssr:stedsnr" v="255424" />
	</node>
	<node id="-77927" lat="63.0352416637" lon="9.27160555985">
		<tag k="name" v="Røslykkja" />
		<tag k="place" v="farm" />
		<tag k="ssr:stedsnr" v="255360" />
	</node>
	<node id="-77926" lat="63.0368083309" lon="9.27001388202">
		<tag k="name" v="Løsetlia" />
		<tag k="place" v="farm" />
		<tag k="ssr:stedsnr" v="255361" />
	</node>
	<node id="-77925" lat="63.0348774238" lon="9.27549566911">
		<tag k="fixme" v="consider place=hamlet" />
		<tag k="name" v="Røen" />
		<tag k="place" v="farm" />
		<tag k="ssr:stedsnr" v="255359" />
	</node>
	<node id="-77923" lat="63.0210000036" lon="9.35274999667">
		<tag k="name" v="Granlund" />
		<tag k="place" v="farm" />
		<tag k="ssr:stedsnr" v="255341" />
	</node>
	<node id="-77922" lat="63.0106455052" lon="9.40901354366">
		<tag k="fixme" v="consider place=hamlet" />
		<tag k="name" v="Stomprød" />
		<tag k="place" v="farm" />
		<tag k="ssr:stedsnr" v="255331" />
	</node>
	<node id="-77915" lat="62.9858305578" lon="9.22787221394">
		<tag k="name" v="Bolmsetrin" />
		<tag k="place" v="isolated_dwelling" />
		<tag k="ssr:stedsnr" v="255183" />
	</node>
	<node id="-77913" lat="62.9531166648" lon="9.26741389201">
		<tag k="name" v="Dørgesetra" />
		<tag k="place" v="isolated_dwelling" />
		<tag k="ssr:stedsnr" v="255153" />
	</node>
	<node id="-77906" lat="63.1671777784" lon="9.43991388956">
		<tag k="name" v="Moen" />
		<tag k="place" v="farm" />
		<tag k="ssr:stedsnr" v="225101" />
	</node>
	<node id="-77902" lat="63.1539972199" lon="9.41314722345">
		<tag k="name" v="Øytun" />
		<tag k="place" v="farm" />
		<tag k="ssr:stedsnr" v="224122" />
	</node>
	<node id="-77847" lat="63.0401888852" lon="9.12430277368">
		<tag k="name" v="Aune" />
		<tag k="place" v="farm" />
		<tag k="ssr:stedsnr" v="218954" />
	</node>
	<node id="-77846" lat="63.0447472236" lon="9.13795833619">
		<tag k="name" v="Børset" />
		<tag k="place" v="farm" />
		<tag k="ssr:stedsnr" v="218952" />
	</node>
</osm>
