<?xml version="1.0" encoding="UTF-8"?>
<osm generator="osmapis" version="0.6">
	<node id="-587330" lat="62.6741527748" lon="6.91283888933">
		<tag k="name" v="Valtflua" />
		<tag k="natural" v="shoal" />
		<tag k="place" v="locality" />
		<tag k="ssr:stedsnr" v="960721" />
	</node>
	<node id="-587329" lat="62.6816888932" lon="6.92135277528">
		<tag k="name" v="Kleppskjærgrunnen" />
		<tag k="natural" v="shoal" />
		<tag k="place" v="locality" />
		<tag k="ssr:stedsnr" v="960720" />
	</node>
	<node id="-587324" lat="62.7489138856" lon="6.92178056059">
		<tag k="name" v="Stavika" />
		<tag k="natural" v="bay" />
		<tag k="ssr:stedsnr" v="941715" />
	</node>
	<node id="-587316" lat="62.6812027749" lon="6.92048610503">
		<tag k="fixme" v="consider seamark:type=rock or natural=shoal" />
		<tag k="name" v="Kleppskjeret" />
		<tag k="place" v="islet" />
		<tag k="ssr:stedsnr" v="941469" />
	</node>
	<node id="-587309" lat="62.6767083313" lon="6.59364999077">
		<tag k="name" v="Litledigerneset" />
		<tag k="natural" v="cape" />
		<tag k="ssr:stedsnr" v="940369" />
	</node>
	<node id="-587307" lat="62.7401166654" lon="6.70616389661">
		<tag k="name" v="Søre Grønningen" />
		<tag k="place" v="islet" />
		<tag k="ssr:stedsnr" v="940171" />
	</node>
	<node id="-587306" lat="62.6537472204" lon="6.56534444604">
		<tag k="name" v="Grønneset" />
		<tag k="natural" v="cape" />
		<tag k="ssr:stedsnr" v="940170" />
	</node>
	<node id="-587305" lat="62.7412777812" lon="6.71335000015">
		<tag k="fixme" v="consider seamark:type=rock or natural=shoal" />
		<tag k="name" v="Vålongskjeret" />
		<tag k="place" v="islet" />
		<tag k="ssr:stedsnr" v="940166" />
	</node>
	<node id="-587304" lat="62.6623305578" lon="6.57081666821">
		<tag k="name" v="Drynjasundneset" />
		<tag k="natural" v="cape" />
		<tag k="ssr:stedsnr" v="940167" />
	</node>
	<node id="-587303" lat="62.7406583331" lon="6.71699445353">
		<tag k="name" v="Stokkvika" />
		<tag k="natural" v="bay" />
		<tag k="ssr:stedsnr" v="940165" />
	</node>
	<node id="-587300" lat="62.6570361072" lon="6.64606111295">
		<tag k="name" v="Storvikneset" />
		<tag k="natural" v="cape" />
		<tag k="ssr:stedsnr" v="940025" />
	</node>
	<node id="-587299" lat="62.6501999989" lon="6.57778333326">
		<tag k="name" v="Flesjebukta" />
		<tag k="natural" v="bay" />
		<tag k="ssr:stedsnr" v="940007" />
	</node>
	<node id="-587293" lat="62.6950388911" lon="6.64326388957">
		<tag k="name" v="Bjørnaremsbukta" />
		<tag k="natural" v="bay" />
		<tag k="ssr:stedsnr" v="931047" />
	</node>
	<node id="-587285" lat="62.6733305554" lon="6.65278611499">
		<tag k="name" v="Leirvikholmen" />
		<tag k="place" v="islet" />
		<tag k="ssr:stedsnr" v="922938" />
	</node>
	<node id="-587283" lat="62.7064611093" lon="6.59795277086">
		<tag k="name" v="Steinflua" />
		<tag k="natural" v="shoal" />
		<tag k="place" v="locality" />
		<tag k="ssr:stedsnr" v="922905" />
	</node>
	<node id="-587282" lat="62.6492944441" lon="6.56325277658">
		<tag k="name" v="Drynjasundet" />
		<tag k="natural" v="strait" />
		<tag k="ssr:stedsnr" v="922452" />
	</node>
	<node id="-587281" lat="62.6861777776" lon="6.59811110516">
		<tag k="name" v="Hamnaneset" />
		<tag k="natural" v="cape" />
		<tag k="ssr:stedsnr" v="922243" />
	</node>
	<node id="-587279" lat="62.6742350005" lon="6.8966794453">
		<tag k="name" v="Tautra" />
		<tag k="place" v="island" />
		<tag k="ssr:stedsnr" v="922057" />
	</node>
	<node id="-587276" lat="62.7369361113" lon="6.73675554625">
		<tag k="fixme" v="consider seamark:type=rock or natural=shoal" />
		<tag k="name" v="Grøningen" />
		<tag k="place" v="islet" />
		<tag k="ssr:stedsnr" v="921121" />
	</node>
	<node id="-587274" lat="62.7240388884" lon="6.69939166833">
		<tag k="name" v="Kvalvikleira" />
		<tag k="natural" v="shoal" />
		<tag k="place" v="locality" />
		<tag k="ssr:stedsnr" v="900835" />
	</node>
	<node id="-587273" lat="62.6906722232" lon="6.86197500287">
		<tag k="name" v="Bogen" />
		<tag k="natural" v="shoal" />
		<tag k="place" v="locality" />
		<tag k="ssr:stedsnr" v="900734" />
	</node>
	<node id="-587271" lat="62.6689777752" lon="6.67146111508">
		<tag k="name" v="Gråmyrtaren" />
		<tag k="natural" v="shoal" />
		<tag k="place" v="locality" />
		<tag k="ssr:stedsnr" v="900723" />
	</node>
	<node id="-587257" lat="62.7231916675" lon="6.93428332476">
		<tag k="name" v="Svinnsetbukta" />
		<tag k="natural" v="bay" />
		<tag k="ssr:stedsnr" v="880558" />
	</node>
	<node id="-587255" lat="62.7402388919" lon="6.85166944782">
		<tag k="name" v="Ræstadbukta" />
		<tag k="natural" v="bay" />
		<tag k="ssr:stedsnr" v="880547" />
	</node>
	<node id="-587254" lat="62.7426000003" lon="6.846625004">
		<tag k="fixme" v="consider seamark:type=rock or natural=shoal" />
		<tag k="name" v="Milteskjeret" />
		<tag k="place" v="islet" />
		<tag k="ssr:stedsnr" v="880519" />
	</node>
	<node id="-587252" lat="62.6687916643" lon="6.87141388956">
		<tag k="name" v="Holmesundet" />
		<tag k="natural" v="strait" />
		<tag k="ssr:stedsnr" v="880496" />
	</node>
	<node id="-587249" lat="62.6719972222" lon="6.73263887976">
		<tag k="name" v="Morteberget" />
		<tag k="natural" v="cape" />
		<tag k="ssr:stedsnr" v="880486" />
	</node>
	<node id="-587247" lat="62.6711305599" lon="6.89163888253">
		<tag k="name" v="Mjukebertleira" />
		<tag k="natural" v="beach" />
		<tag k="place" v="locality" />
		<tag k="ssr:stedsnr" v="880371" />
	</node>
	<node id="-587241" lat="62.6851194475" lon="6.79748889293">
		<tag k="name" v="Pina" />
		<tag k="place" v="islet" />
		<tag k="ssr:stedsnr" v="880268" />
	</node>
	<node id="-587238" lat="62.677483331" lon="6.74871389217">
		<tag k="alt_name" v="Klausetbukta" />
		<tag k="name" v="Orebukta" />
		<tag k="natural" v="bay" />
		<tag k="ssr:stedsnr" v="880244" />
	</node>
	<node id="-587235" lat="62.6548590701" lon="6.56389919566">
		<tag k="alt_name" v="Kuskjæret" />
		<tag k="fixme" v="consider seamark:type=rock or natural=shoal" />
		<tag k="name" v="Kuskjeret" />
		<tag k="place" v="islet" />
		<tag k="ssr:stedsnr" v="880166" />
	</node>
	<node id="-587234" lat="62.6662166682" lon="6.58017222888">
		<tag k="name" v="Storvika" />
		<tag k="natural" v="bay" />
		<tag k="ssr:stedsnr" v="880162" />
	</node>
	<node id="-587230" lat="62.6704583375" lon="6.66722778208">
		<tag k="name" v="Geitapina" />
		<tag k="natural" v="cape" />
		<tag k="ssr:stedsnr" v="880016" />
	</node>
	<node id="-587226" lat="62.7387083369" lon="6.69467222206">
		<tag k="name" v="Hånetholmen" />
		<tag k="place" v="islet" />
		<tag k="ssr:stedsnr" v="879158" />
	</node>
	<node id="-587224" lat="62.7273805535" lon="6.68318333032">
		<tag k="fixme" v="consider seamark:type=rock or natural=shoal" />
		<tag k="name" v="Kuskjeret" />
		<tag k="place" v="islet" />
		<tag k="ssr:stedsnr" v="879048" />
	</node>
	<node id="-587214" lat="62.678397221" lon="6.66391666628">
		<tag k="name" v="Stuttneset" />
		<tag k="natural" v="cape" />
		<tag k="ssr:stedsnr" v="861982" />
	</node>
	<node id="-587213" lat="62.6797555569" lon="6.66351944868">
		<tag k="name" v="Breivika" />
		<tag k="natural" v="bay" />
		<tag k="ssr:stedsnr" v="861983" />
	</node>
	<node id="-587206" lat="62.6641250025" lon="6.69251944248">
		<tag k="name" v="Geitvika" />
		<tag k="natural" v="bay" />
		<tag k="ssr:stedsnr" v="861467" />
	</node>
	<node id="-587204" lat="62.6801833313" lon="6.92899999347">
		<tag k="fixme" v="consider seamark:type=rock or natural=shoal" />
		<tag k="name" v="Måsskjeret" />
		<tag k="place" v="islet" />
		<tag k="ssr:stedsnr" v="861061" />
	</node>
	<node id="-587200" lat="62.7160083297" lon="6.65652777785">
		<tag k="name" v="Leira" />
		<tag k="natural" v="bay" />
		<tag k="ssr:stedsnr" v="861928" />
	</node>
	<node id="-587199" lat="62.7057222191" lon="6.69578889398">
		<tag k="name" v="Ugelvika" />
		<tag k="natural" v="bay" />
		<tag k="ssr:stedsnr" v="861920" />
	</node>
	<node id="-587198" lat="62.7057638881" lon="6.6506916601">
		<tag k="name" v="Søre Kvaløysundet" />
		<tag k="natural" v="strait" />
		<tag k="ssr:stedsnr" v="861917" />
	</node>
	<node id="-587197" lat="62.7012027746" lon="6.69017776966">
		<tag k="name" v="Tennholmen" />
		<tag k="place" v="islet" />
		<tag k="ssr:stedsnr" v="861912" />
	</node>
	<node id="-587196" lat="62.7024472225" lon="6.64250833929">
		<tag k="name" v="Bjørnøya" />
		<tag k="place" v="island" />
		<tag k="ssr:stedsnr" v="861906" />
	</node>
	<node id="-587195" lat="62.6998388927" lon="6.63206110206">
		<tag k="fixme" v="consider seamark:type=rock or natural=shoal" />
		<tag k="name" v="Strandskjæret" />
		<tag k="place" v="islet" />
		<tag k="ssr:stedsnr" v="861903" />
	</node>
	<node id="-587191" lat="62.6987027805" lon="6.8996249942">
		<tag k="name" v="Tauterberget" />
		<tag k="natural" v="cape" />
		<tag k="ssr:stedsnr" v="820701" />
	</node>
	<node id="-587187" lat="62.6990499967" lon="6.63392500905">
		<tag k="name" v="Stranda" />
		<tag k="natural" v="beach" />
		<tag k="place" v="locality" />
		<tag k="ssr:stedsnr" v="819870" />
	</node>
	<node id="-587186" lat="62.7009583305" lon="6.64384721463">
		<tag k="name" v="Vølbukta" />
		<tag k="natural" v="bay" />
		<tag k="ssr:stedsnr" v="819860" />
	</node>
	<node id="-587182" lat="62.7059611108" lon="6.69384721591">
		<tag k="name" v="Asmundsholmen" />
		<tag k="place" v="islet" />
		<tag k="ssr:stedsnr" v="819604" />
	</node>
	<node id="-587180" lat="62.7298888849" lon="6.93373888517">
		<tag k="name" v="Nautneskråna" />
		<tag k="natural" v="bay" />
		<tag k="ssr:stedsnr" v="819559" />
	</node>
	<node id="-587179" lat="62.7491527814" lon="6.84296666242">
		<tag k="alt_name" v="Maurongskjeret" />
		<tag k="fixme" v="consider seamark:type=rock or natural=shoal" />
		<tag k="name" v="Maurungskjæret" />
		<tag k="place" v="islet" />
		<tag k="ssr:stedsnr" v="819537" />
	</node>
	<node id="-587178" lat="62.6666527736" lon="6.8703611034">
		<tag k="name" v="Løbukta" />
		<tag k="natural" v="bay" />
		<tag k="ssr:stedsnr" v="819510" />
	</node>
	<node id="-587176" lat="62.6929638867" lon="6.60794723172">
		<tag k="fixme" v="consider seamark:type=rock or natural=shoal" />
		<tag k="name" v="Kjelsvikskjeret" />
		<tag k="place" v="islet" />
		<tag k="ssr:stedsnr" v="819402" />
	</node>
	<node id="-587175" lat="62.6821805519" lon="6.59859166892">
		<tag k="name" v="Trollholmen" />
		<tag k="place" v="islet" />
		<tag k="ssr:stedsnr" v="819401" />
	</node>
	<node id="-587174" lat="62.6856166682" lon="6.81886389795">
		<tag k="name" v="Sanden" />
		<tag k="natural" v="beach" />
		<tag k="place" v="locality" />
		<tag k="ssr:stedsnr" v="819390" />
	</node>
	<node id="-587172" lat="62.6942027819" lon="6.61457221932">
		<tag k="name" v="Tynnevika" />
		<tag k="natural" v="bay" />
		<tag k="ssr:stedsnr" v="819334" />
	</node>
	<node id="-587169" lat="62.6880388897" lon="6.66221943689">
		<tag k="name" v="Litleselvika" />
		<tag k="natural" v="bay" />
		<tag k="ssr:stedsnr" v="819316" />
	</node>
	<node id="-587168" lat="62.6842666642" lon="6.7995583257">
		<tag k="name" v="Forneset" />
		<tag k="natural" v="cape" />
		<tag k="ssr:stedsnr" v="819297" />
	</node>
	<node id="-587167" lat="62.6793750019" lon="6.77052499799">
		<tag k="name" v="Kattholmen" />
		<tag k="place" v="islet" />
		<tag k="ssr:stedsnr" v="819284" />
	</node>
	<node id="-587166" lat="62.6789555572" lon="6.75932778709">
		<tag k="name" v="Grønvika" />
		<tag k="natural" v="bay" />
		<tag k="ssr:stedsnr" v="819277" />
	</node>
	<node id="-587165" lat="62.7274722238" lon="6.6627138959">
		<tag k="alt_name" v="Tresskjæra" />
		<tag k="fixme" v="consider seamark:type=rock or natural=shoal" />
		<tag k="name" v="Tresskjeret" />
		<tag k="place" v="islet" />
		<tag k="ssr:stedsnr" v="819206" />
	</node>
	<node id="-587164" lat="62.7202638921" lon="6.66931111997">
		<tag k="name" v="Øyarenden" />
		<tag k="natural" v="cape" />
		<tag k="ssr:stedsnr" v="819190" />
	</node>
	<node id="-587163" lat="62.7386499975" lon="6.72424443519">
		<tag k="name" v="Båtnesbukta" />
		<tag k="natural" v="bay" />
		<tag k="ssr:stedsnr" v="819188" />
	</node>
	<node id="-587156" lat="62.7285444454" lon="6.75276110532">
		<tag k="name" v="Vebergvika" />
		<tag k="natural" v="bay" />
		<tag k="ssr:stedsnr" v="819020" />
	</node>
	<node id="-587155" lat="62.6507388926" lon="6.5704416733">
		<tag k="name" v="Pettervika" />
		<tag k="natural" v="bay" />
		<tag k="ssr:stedsnr" v="819006" />
	</node>
	<node id="-587153" lat="62.6701972254" lon="6.8697055493">
		<tag k="alt_name" v="Longeneset" />
		<tag k="name" v="Langneset" />
		<tag k="natural" v="cape" />
		<tag k="ssr:stedsnr" v="816723" />
	</node>
	<node id="-587149" lat="62.6626305537" lon="6.67871389878">
		<tag k="name" v="Korsvika" />
		<tag k="natural" v="bay" />
		<tag k="ssr:stedsnr" v="809072" />
	</node>
	<node id="-587148" lat="62.6763888873" lon="6.5851138841">
		<tag k="fixme" v="consider seamark:type=rock or natural=shoal" />
		<tag k="name" v="Stordalskjæra" />
		<tag k="place" v="islet" />
		<tag k="ssr:stedsnr" v="801997" />
	</node>
	<node id="-587143" lat="62.6623166686" lon="6.68028056195">
		<tag k="name" v="Årneset" />
		<tag k="natural" v="cape" />
		<tag k="ssr:stedsnr" v="801943" />
	</node>
	<node id="-587142" lat="62.6975916698" lon="6.66789999154">
		<tag k="name" v="Akslaholman" />
		<tag k="place" v="islet" />
		<tag k="ssr:stedsnr" v="801888" />
	</node>
	<node id="-587141" lat="62.6999166654" lon="6.61542221762">
		<tag k="fixme" v="consider seamark:type=rock or natural=shoal" />
		<tag k="name" v="Midtskjæret" />
		<tag k="place" v="islet" />
		<tag k="ssr:stedsnr" v="801885" />
	</node>
	<node id="-587140" lat="62.6512916688" lon="6.53373055534">
		<tag k="name" v="Gjerdsnessnagen" />
		<tag k="natural" v="cape" />
		<tag k="ssr:stedsnr" v="801476" />
	</node>
	<node id="-587139" lat="62.6484166665" lon="6.5810083417">
		<tag k="fixme" v="consider seamark:type=rock or natural=shoal" />
		<tag k="name" v="Flesjeskjeret" />
		<tag k="place" v="islet" />
		<tag k="ssr:stedsnr" v="801474" />
	</node>
	<node id="-587137" lat="62.7208499964" lon="6.67287222383">
		<tag k="name" v="Ivarsholmen" />
		<tag k="place" v="islet" />
		<tag k="ssr:stedsnr" v="800920" />
	</node>
	<node id="-587135" lat="62.7346361135" lon="6.67452777125">
		<tag k="name" v="Ålesundstaren" />
		<tag k="natural" v="shoal" />
		<tag k="place" v="locality" />
		<tag k="ssr:stedsnr" v="800816" />
	</node>
	<node id="-587134" lat="62.7395250026" lon="6.70977500782">
		<tag k="name" v="Myrbærneset" />
		<tag k="natural" v="cape" />
		<tag k="ssr:stedsnr" v="800812" />
	</node>
	<node id="-587125" lat="62.6687027777" lon="6.85500556371">
		<tag k="name" v="Kroppungsfluene" />
		<tag k="natural" v="shoal" />
		<tag k="place" v="locality" />
		<tag k="ssr:stedsnr" v="778731" />
	</node>
	<node id="-587113" lat="62.7498527803" lon="6.92090554923">
		<tag k="name" v="Storhaugneset" />
		<tag k="natural" v="cape" />
		<tag k="ssr:stedsnr" v="758740" />
	</node>
	<node id="-587105" lat="62.7331888886" lon="6.93526388273">
		<tag k="name" v="Rongkallen" />
		<tag k="natural" v="bay" />
		<tag k="ssr:stedsnr" v="758588" />
	</node>
	<node id="-587104" lat="62.7241027735" lon="6.93480000702">
		<tag k="name" v="Morteberget" />
		<tag k="natural" v="cape" />
		<tag k="ssr:stedsnr" v="758570" />
	</node>
	<node id="-587103" lat="62.7411805589" lon="6.84032777473">
		<tag k="name" v="Storvika" />
		<tag k="natural" v="bay" />
		<tag k="ssr:stedsnr" v="758554" />
	</node>
	<node id="-587102" lat="62.7545888924" lon="6.86841666894">
		<tag k="alt_name" v="Midtre Skarvholmen" />
		<tag k="name" v="Minste Skarvholmen" />
		<tag k="place" v="islet" />
		<tag k="ssr:stedsnr" v="758549" />
	</node>
	<node id="-587098" lat="62.6842416701" lon="6.60819721635">
		<tag k="name" v="Sandan" />
		<tag k="natural" v="beach" />
		<tag k="place" v="locality" />
		<tag k="ssr:stedsnr" v="758406" />
	</node>
	<node id="-587089" lat="62.7394611097" lon="6.7252222155">
		<tag k="name" v="Båtneset" />
		<tag k="natural" v="cape" />
		<tag k="ssr:stedsnr" v="758221" />
	</node>
	<node id="-587086" lat="62.6612555514" lon="6.5774888917">
		<tag k="name" v="Drynjasundvågen" />
		<tag k="natural" v="bay" />
		<tag k="ssr:stedsnr" v="758192" />
	</node>
	<node id="-587084" lat="62.6381999977" lon="6.51523055381">
		<tag k="fixme" v="consider seamark:type=rock or natural=shoal" />
		<tag k="name" v="Pølsa" />
		<tag k="place" v="islet" />
		<tag k="ssr:stedsnr" v="758147" />
	</node>
	<node id="-587079" lat="62.7243137923" lon="6.70150152637">
		<tag k="name" v="Døftevika" />
		<tag k="natural" v="bay" />
		<tag k="ssr:stedsnr" v="758063" />
	</node>
	<node id="-587074" lat="62.7166027805" lon="6.67760277051">
		<tag k="name" v="Skjelvika" />
		<tag k="natural" v="bay" />
		<tag k="ssr:stedsnr" v="749209" />
	</node>
	<node id="-587069" lat="62.6921611083" lon="6.65460555569">
		<tag k="name" v="Jørholmane" />
		<tag k="place" v="islet" />
		<tag k="ssr:stedsnr" v="740987" />
	</node>
	<node id="-587066" lat="62.7476083371" lon="6.69444167291">
		<tag k="name" v="Bondeflua" />
		<tag k="natural" v="shoal" />
		<tag k="place" v="locality" />
		<tag k="ssr:stedsnr" v="740829" />
	</node>
	<node id="-587059" lat="62.7244055512" lon="6.73301944263">
		<tag k="name" v="Rakvågen" />
		<tag k="natural" v="bay" />
		<tag k="ssr:stedsnr" v="739072" />
	</node>
	<node id="-587056" lat="62.727869448" lon="6.68930832976">
		<tag k="name" v="Ålesundsleira" />
		<tag k="natural" v="shoal" />
		<tag k="place" v="locality" />
		<tag k="ssr:stedsnr" v="718815" />
	</node>
	<node id="-587055" lat="62.6724611086" lon="6.87192223056">
		<tag k="name" v="Storbrauta" />
		<tag k="place" v="locality" />
		<tag k="ssr:stedsnr" v="718727" />
	</node>
	<node id="-587054" lat="62.6728277796" lon="6.73823610841">
		<tag k="name" v="Myraflua" />
		<tag k="natural" v="shoal" />
		<tag k="place" v="locality" />
		<tag k="ssr:stedsnr" v="718728" />
	</node>
	<node id="-587053" lat="62.679508329" lon="6.76284999316">
		<tag k="name" v="Strandaneset" />
		<tag k="natural" v="cape" />
		<tag k="ssr:stedsnr" v="718710" />
	</node>
	<node id="-587051" lat="62.746627775" lon="6.74296389025">
		<tag k="name" v="Breidgrunnen" />
		<tag k="natural" v="shoal" />
		<tag k="place" v="locality" />
		<tag k="ssr:stedsnr" v="718154" />
	</node>
	<node id="-587046" lat="62.745561112" lon="6.92269721652">
		<tag k="name" v="Småvika" />
		<tag k="natural" v="bay" />
		<tag k="ssr:stedsnr" v="698687" />
	</node>
	<node id="-587031" lat="62.7089972186" lon="6.72390833326">
		<tag k="name" v="Kattholmen" />
		<tag k="place" v="islet" />
		<tag k="ssr:stedsnr" v="697582" />
	</node>
	<node id="-587023" lat="62.6919249978" lon="6.64077778759">
		<tag k="name" v="Sjøvika" />
		<tag k="natural" v="bay" />
		<tag k="ssr:stedsnr" v="697317" />
	</node>
	<node id="-587022" lat="62.682927782" lon="6.78620832484">
		<tag k="name" v="Båtnesvika" />
		<tag k="natural" v="bay" />
		<tag k="ssr:stedsnr" v="697302" />
	</node>
	<node id="-587008" lat="62.6823277803" lon="6.65736111941">
		<tag k="name" v="Mjelkeneset" />
		<tag k="natural" v="cape" />
		<tag k="ssr:stedsnr" v="688039" />
	</node>
	<node id="-587007" lat="62.6908555568" lon="6.66723888812">
		<tag k="name" v="Galtenesbukta" />
		<tag k="natural" v="bay" />
		<tag k="ssr:stedsnr" v="688038" />
	</node>
	<node id="-587004" lat="62.7506583291" lon="6.85579166627">
		<tag k="name" v="Kalvøya" />
		<tag k="place" v="islet" />
		<tag k="ssr:stedsnr" v="680906" />
	</node>
	<node id="-587001" lat="62.6614888918" lon="6.54205832608">
		<tag k="fixme" v="consider seamark:type=rock or natural=shoal" />
		<tag k="name" v="Syneldskjeret" />
		<tag k="place" v="islet" />
		<tag k="ssr:stedsnr" v="679928" />
	</node>
	<node id="-586998" lat="62.6875916673" lon="6.61040832956">
		<tag k="name" v="Nørdre Sandan" />
		<tag k="natural" v="beach" />
		<tag k="place" v="locality" />
		<tag k="ssr:stedsnr" v="679883" />
	</node>
	<node id="-586997" lat="62.7408333359" lon="6.70789167267">
		<tag k="name" v="Grønningen" />
		<tag k="place" v="islet" />
		<tag k="ssr:stedsnr" v="679833" />
	</node>
	<node id="-586996" lat="62.6474500007" lon="6.52768610602">
		<tag k="name" v="Storsteinvika" />
		<tag k="natural" v="bay" />
		<tag k="ssr:stedsnr" v="679454" />
	</node>
	<node id="-586990" lat="62.7345499978" lon="6.78583054706">
		<tag k="name" v="Rørsetholmen" />
		<tag k="place" v="islet" />
		<tag k="ssr:stedsnr" v="678129" />
	</node>
	<node id="-586989" lat="62.7456055586" lon="6.86790556455">
		<tag k="alt_name" v="Litleholmen" />
		<tag k="name" v="Bendsetholmen" />
		<tag k="place" v="islet" />
		<tag k="ssr:stedsnr" v="678106" />
	</node>
	<node id="-586987" lat="62.6681166643" lon="6.58020278211">
		<tag k="name" v="Småfluene" />
		<tag k="natural" v="shoal" />
		<tag k="place" v="locality" />
		<tag k="ssr:stedsnr" v="657594" />
	</node>
	<node id="-586985" lat="62.6606888904" lon="6.68005833932">
		<tag k="fixme" v="consider seamark:type=rock or natural=shoal" />
		<tag k="name" v="Årnesklubben" />
		<tag k="place" v="islet" />
		<tag k="ssr:stedsnr" v="643693" />
	</node>
	<node id="-586984" lat="62.7024499994" lon="6.91190000347">
		<tag k="name" v="Osen" />
		<tag k="natural" v="bay" />
		<tag k="ssr:stedsnr" v="643682" />
	</node>
	<node id="-586980" lat="62.695188885" lon="6.88538334077">
		<tag k="alt_name" v="Buaberget" />
		<tag k="name" v="Vikaberget" />
		<tag k="natural" v="cape" />
		<tag k="ssr:stedsnr" v="637752" />
	</node>
	<node id="-586979" lat="62.7505500022" lon="6.91670000117">
		<tag k="fixme" v="consider seamark:type=rock or natural=shoal" />
		<tag k="name" v="Storhaugskjeret" />
		<tag k="place" v="islet" />
		<tag k="ssr:stedsnr" v="637751" />
	</node>
	<node id="-586970" lat="62.6677194468" lon="6.87048612024">
		<tag k="name" v="Grønebukta" />
		<tag k="natural" v="bay" />
		<tag k="ssr:stedsnr" v="637531" />
	</node>
	<node id="-586964" lat="62.6975333367" lon="6.62549722077">
		<tag k="name" v="Åtleggstøa" />
		<tag k="natural" v="beach" />
		<tag k="place" v="locality" />
		<tag k="ssr:stedsnr" v="636855" />
	</node>
	<node id="-586963" lat="62.7037750023" lon="6.64392221454">
		<tag k="name" v="Geitvika" />
		<tag k="natural" v="bay" />
		<tag k="ssr:stedsnr" v="636848" />
	</node>
	<node id="-586962" lat="62.7150194463" lon="6.73108055255">
		<tag k="name" v="Saltvikneset" />
		<tag k="natural" v="cape" />
		<tag k="ssr:stedsnr" v="636648" />
	</node>
	<node id="-586956" lat="62.6814972241" lon="6.65648332888">
		<tag k="name" v="Torveneset" />
		<tag k="natural" v="cape" />
		<tag k="ssr:stedsnr" v="636306" />
	</node>
	<node id="-586955" lat="62.7429638857" lon="6.850508326">
		<tag k="alt_name" v="Kalveskjeret" />
		<tag k="fixme" v="consider seamark:type=rock or natural=shoal" />
		<tag k="name" v="Kalveskjæret" />
		<tag k="place" v="islet" />
		<tag k="ssr:stedsnr" v="636537" />
	</node>
	<node id="-586953" lat="62.6807250008" lon="6.77467500411">
		<tag k="name" v="Naustberget" />
		<tag k="natural" v="cape" />
		<tag k="ssr:stedsnr" v="636265" />
	</node>
	<node id="-586952" lat="62.7396083326" lon="6.71927778705">
		<tag k="name" v="Kjelsvika" />
		<tag k="natural" v="bay" />
		<tag k="ssr:stedsnr" v="636168" />
	</node>
	<node id="-586950" lat="62.672013888" lon="6.6604277715">
		<tag k="name" v="Torveneset" />
		<tag k="natural" v="cape" />
		<tag k="ssr:stedsnr" v="636026" />
	</node>
	<node id="-586943" lat="62.6781805591" lon="6.67220833656">
		<tag k="name" v="Flekken" />
		<tag k="natural" v="shoal" />
		<tag k="place" v="locality" />
		<tag k="ssr:stedsnr" v="627050" />
	</node>
	<node id="-586935" lat="62.708130552" lon="6.66020276923">
		<tag k="name" v="Kvaløya" />
		<tag k="place" v="island" />
		<tag k="ssr:stedsnr" v="618902" />
	</node>
	<node id="-586934" lat="62.6931722242" lon="6.6133388942">
		<tag k="name" v="Kjelsviknesja" />
		<tag k="natural" v="cape" />
		<tag k="ssr:stedsnr" v="618877" />
	</node>
	<node id="-586930" lat="62.6382472231" lon="6.51710277671">
		<tag k="name" v="Storholmen" />
		<tag k="place" v="islet" />
		<tag k="ssr:stedsnr" v="618468" />
	</node>
	<node id="-586929" lat="62.6416916624" lon="6.51594999704">
		<tag k="name" v="Eiremsneset" />
		<tag k="natural" v="cape" />
		<tag k="ssr:stedsnr" v="618455" />
	</node>
	<node id="-586918" lat="62.7315527751" lon="6.9376333399">
		<tag k="name" v="Nautneset" />
		<tag k="natural" v="cape" />
		<tag k="ssr:stedsnr" v="618062" />
	</node>
	<node id="-586917" lat="62.6650777805" lon="6.8560277698">
		<tag k="alt_name" v="Klungreholmen" />
		<tag k="name" v="Klungerholmen" />
		<tag k="place" v="islet" />
		<tag k="ssr:stedsnr" v="618050" />
	</node>
	<node id="-586916" lat="62.6653277737" lon="6.84413888649">
		<tag k="alt_name" v="Skarveholmen" />
		<tag k="name" v="Storholmen" />
		<tag k="place" v="islet" />
		<tag k="ssr:stedsnr" v="618049" />
	</node>
	<node id="-586915" lat="62.7574722223" lon="6.69090833496">
		<tag k="name" v="Tangeflua" />
		<tag k="natural" v="shoal" />
		<tag k="place" v="locality" />
		<tag k="ssr:stedsnr" v="618047" />
	</node>
	<node id="-586914" lat="62.6632111074" lon="6.84661667047">
		<tag k="fixme" v="consider seamark:type=rock or natural=shoal" />
		<tag k="name" v="Skarveskjæret" />
		<tag k="place" v="islet" />
		<tag k="ssr:stedsnr" v="596707" />
	</node>
	<node id="-586912" lat="62.7327777789" lon="6.93701945405">
		<tag k="name" v="Løvika" />
		<tag k="natural" v="bay" />
		<tag k="ssr:stedsnr" v="596132" />
	</node>
	<node id="-586910" lat="62.7029833325" lon="6.9141472306">
		<tag k="name" v="Reitabukta" />
		<tag k="natural" v="bay" />
		<tag k="ssr:stedsnr" v="577726" />
	</node>
	<node id="-586904" lat="62.7483305512" lon="6.92618333703">
		<tag k="name" v="Stavikneset" />
		<tag k="natural" v="cape" />
		<tag k="ssr:stedsnr" v="576742" />
	</node>
	<node id="-586898" lat="62.712061107" lon="6.72857222631">
		<tag k="name" v="Rakvågstraumen" />
		<tag k="natural" v="strait" />
		<tag k="ssr:stedsnr" v="576603" />
	</node>
	<node id="-586897" lat="62.7395777813" lon="6.92833333395">
		<tag k="name" v="Midtvika" />
		<tag k="natural" v="bay" />
		<tag k="ssr:stedsnr" v="576588" />
	</node>
	<node id="-586896" lat="62.7340611123" lon="6.93208334119">
		<tag k="name" v="Haustvika" />
		<tag k="natural" v="bay" />
		<tag k="ssr:stedsnr" v="576555" />
	</node>
	<node id="-586895" lat="62.720461109" lon="6.93599999283">
		<tag k="name" v="Haugabukta" />
		<tag k="natural" v="bay" />
		<tag k="ssr:stedsnr" v="576538" />
	</node>
	<node id="-586894" lat="62.7541027796" lon="6.86394166977">
		<tag k="fixme" v="consider seamark:type=rock or natural=shoal" />
		<tag k="name" v="Tobiasflua" />
		<tag k="place" v="islet" />
		<tag k="ssr:stedsnr" v="576525" />
	</node>
	<node id="-586887" lat="62.6842722261" lon="6.81978611479">
		<tag k="name" v="Langneset" />
		<tag k="natural" v="cape" />
		<tag k="ssr:stedsnr" v="576360" />
	</node>
	<node id="-586886" lat="62.6912666629" lon="6.66710834071">
		<tag k="name" v="Galteneset" />
		<tag k="natural" v="cape" />
		<tag k="ssr:stedsnr" v="576274" />
	</node>
	<node id="-586880" lat="62.7384388901" lon="6.74131944526">
		<tag k="alt_name" v="Kleppskjeret" />
		<tag k="fixme" v="consider seamark:type=rock or natural=shoal" />
		<tag k="name" v="Kleppskjæret" />
		<tag k="place" v="islet" />
		<tag k="ssr:stedsnr" v="576054" />
	</node>
	<node id="-586879" lat="62.7193583316" lon="6.73002777687">
		<tag k="name" v="Raknesneset" />
		<tag k="natural" v="cape" />
		<tag k="ssr:stedsnr" v="576048" />
	</node>
	<node id="-586878" lat="62.7335305522" lon="6.77979167026">
		<tag k="name" v="Skjervika" />
		<tag k="natural" v="bay" />
		<tag k="ssr:stedsnr" v="576018" />
	</node>
	<node id="-586871" lat="62.6848083299" lon="6.82820555263">
		<tag k="alt_name" v="Digerneset" />
		<tag k="name" v="Degerneset" />
		<tag k="natural" v="cape" />
		<tag k="ssr:stedsnr" v="572687" />
	</node>
	<node id="-586866" lat="62.7062666629" lon="6.69203889447">
		<tag k="name" v="Lyngholmen" />
		<tag k="natural" v="cape" />
		<tag k="ssr:stedsnr" v="566202" />
	</node>
	<node id="-586856" lat="62.6396055533" lon="6.51836943986">
		<tag k="name" v="Holmebukta" />
		<tag k="natural" v="bay" />
		<tag k="ssr:stedsnr" v="557444" />
	</node>
	<node id="-586855" lat="62.7348694488" lon="6.74102222569">
		<tag k="name" v="Hellarenden" />
		<tag k="natural" v="cape" />
		<tag k="ssr:stedsnr" v="557113" />
	</node>
	<node id="-586853" lat="62.7422861118" lon="6.92979721479">
		<tag k="name" v="Fiskeneset" />
		<tag k="natural" v="cape" />
		<tag k="ssr:stedsnr" v="557111" />
	</node>
	<node id="-586850" lat="62.6628166629" lon="6.83973055384">
		<tag k="fixme" v="consider seamark:type=rock or natural=shoal" />
		<tag k="name" v="Håskjeret" />
		<tag k="place" v="islet" />
		<tag k="ssr:stedsnr" v="557054" />
	</node>
	<node id="-586849" lat="62.681355559" lon="6.92575277087">
		<tag k="name" v="Apalholmen" />
		<tag k="place" v="islet" />
		<tag k="ssr:stedsnr" v="557051" />
	</node>
	<node id="-586846" lat="62.637291669" lon="6.51274999174">
		<tag k="fixme" v="consider seamark:type=rock or natural=shoal" />
		<tag k="name" v="Skjæret" />
		<tag k="place" v="islet" />
		<tag k="ssr:stedsnr" v="536898" />
	</node>
	<node id="-586845" lat="62.7522055538" lon="6.71580555289">
		<tag k="name" v="Klakken" />
		<tag k="natural" v="shoal" />
		<tag k="place" v="locality" />
		<tag k="ssr:stedsnr" v="536857" />
	</node>
	<node id="-586844" lat="62.6831000026" lon="6.79225833726">
		<tag k="fixme" v="consider seamark:type=rock or natural=shoal" />
		<tag k="name" v="Vikaskjæret" />
		<tag k="place" v="islet" />
		<tag k="ssr:stedsnr" v="536730" />
	</node>
	<node id="-586843" lat="62.7637222178" lon="6.81663888614">
		<tag k="fixme" v="consider seamark:type=rock or natural=shoal" />
		<tag k="name" v="Kvernholmskjæret" />
		<tag k="place" v="islet" />
		<tag k="ssr:stedsnr" v="536654" />
	</node>
	<node id="-586842" lat="62.7395833335" lon="6.74596945399">
		<tag k="name" v="Hellertaren" />
		<tag k="natural" v="shoal" />
		<tag k="place" v="locality" />
		<tag k="ssr:stedsnr" v="536149" />
	</node>
	<node id="-586839" lat="62.7498472265" lon="6.90714999068">
		<tag k="fixme" v="consider seamark:type=rock or natural=shoal" />
		<tag k="name" v="Knubben" />
		<tag k="place" v="islet" />
		<tag k="ssr:stedsnr" v="516744" />
	</node>
	<node id="-586832" lat="62.667700004" lon="6.87353333031">
		<tag k="fixme" v="consider seamark:type=rock or natural=shoal" />
		<tag k="name" v="Kalven" />
		<tag k="place" v="islet" />
		<tag k="ssr:stedsnr" v="516485" />
	</node>
	<node id="-586831" lat="62.673008333" lon="6.88216666944">
		<tag k="name" v="Storbrautbukta" />
		<tag k="natural" v="bay" />
		<tag k="ssr:stedsnr" v="516445" />
	</node>
	<node id="-586819" lat="62.7109361118" lon="6.7220000014">
		<tag k="name" v="Krafsebukta" />
		<tag k="natural" v="bay" />
		<tag k="ssr:stedsnr" v="515618" />
	</node>
	<node id="-586816" lat="62.714180559" lon="6.68360832989">
		<tag k="name" v="Skjelvika" />
		<tag k="natural" v="bay" />
		<tag k="ssr:stedsnr" v="515598" />
	</node>
	<node id="-586813" lat="62.6775805535" lon="6.59315833119">
		<tag k="name" v="Digernesvika" />
		<tag k="natural" v="bay" />
		<tag k="ssr:stedsnr" v="515379" />
	</node>
	<node id="-586811" lat="62.6811916699" lon="6.64171666778">
		<tag k="name" v="Fetaholmen" />
		<tag k="place" v="islet" />
		<tag k="ssr:stedsnr" v="515306" />
	</node>
	<node id="-586807" lat="62.6560666686" lon="6.61081388767">
		<tag k="name" v="Ramsvika" />
		<tag k="natural" v="bay" />
		<tag k="ssr:stedsnr" v="515142" />
	</node>
	<node id="-586806" lat="62.6553833363" lon="6.60490832814">
		<tag k="name" v="Gangstadbukta" />
		<tag k="natural" v="bay" />
		<tag k="ssr:stedsnr" v="515140" />
	</node>
	<node id="-586805" lat="62.7252027813" lon="6.72398054704">
		<tag k="name" v="Raknesgjerdet" />
		<tag k="natural" v="beach" />
		<tag k="place" v="locality" />
		<tag k="ssr:stedsnr" v="515055" />
	</node>
	<node id="-586803" lat="62.7379833317" lon="6.70603888734">
		<tag k="name" v="Naustvågen" />
		<tag k="natural" v="bay" />
		<tag k="ssr:stedsnr" v="515039" />
	</node>
	<node id="-586802" lat="62.7307138881" lon="6.76038055424">
		<tag k="name" v="Steinvika" />
		<tag k="natural" v="bay" />
		<tag k="ssr:stedsnr" v="515026" />
	</node>
	<node id="-586794" lat="62.6656666673" lon="6.70180277109">
		<tag k="name" v="Juvikneset" />
		<tag k="natural" v="cape" />
		<tag k="ssr:stedsnr" v="506065" />
	</node>
	<node id="-586792" lat="62.7272805576" lon="6.72622222007">
		<tag k="name" v="Orvika" />
		<tag k="natural" v="bay" />
		<tag k="ssr:stedsnr" v="505338" />
	</node>
	<node id="-586786" lat="62.6989388864" lon="6.61606111305">
		<tag k="name" v="Lamholmen" />
		<tag k="place" v="islet" />
		<tag k="ssr:stedsnr" v="497904" />
	</node>
	<node id="-586785" lat="62.7010583343" lon="6.69298333074">
		<tag k="name" v="Notaholmen" />
		<tag k="place" v="islet" />
		<tag k="ssr:stedsnr" v="497901" />
	</node>
	<node id="-586784" lat="62.6861638914" lon="6.60837500104">
		<tag k="name" v="Søre Sandan" />
		<tag k="natural" v="beach" />
		<tag k="place" v="locality" />
		<tag k="ssr:stedsnr" v="497883" />
	</node>
	<node id="-586780" lat="62.7173888885" lon="6.65160556194">
		<tag k="name" v="Magerøya" />
		<tag k="place" v="island" />
		<tag k="ssr:stedsnr" v="496916" />
	</node>
	<node id="-586779" lat="62.7290324933" lon="6.67772687581">
		<tag k="name" v="Ålesundsneset" />
		<tag k="natural" v="cape" />
		<tag k="ssr:stedsnr" v="496819" />
	</node>
	<node id="-586778" lat="62.7247694446" lon="6.68549999494">
		<tag k="name" v="Kvalvika" />
		<tag k="natural" v="bay" />
		<tag k="ssr:stedsnr" v="496820" />
	</node>
	<node id="-586777" lat="62.7094249976" lon="6.93802222697">
		<tag k="name" v="Heggeneset" />
		<tag k="natural" v="cape" />
		<tag k="ssr:stedsnr" v="496039" />
	</node>
	<node id="-586771" lat="62.6966833296" lon="6.68009167428">
		<tag k="name" v="Krabbevikneset" />
		<tag k="natural" v="cape" />
		<tag k="ssr:stedsnr" v="455923" />
	</node>
	<node id="-586766" lat="62.6981916643" lon="6.68944166551">
		<tag k="name" v="Akslabukta" />
		<tag k="natural" v="bay" />
		<tag k="ssr:stedsnr" v="455556" />
	</node>
	<node id="-586765" lat="62.7060666713" lon="6.93066945019">
		<tag k="name" v="Heggevika" />
		<tag k="natural" v="bay" />
		<tag k="ssr:stedsnr" v="455544" />
	</node>
	<node id="-586762" lat="62.671016668" lon="6.72943610746">
		<tag k="alt_name" v="Skjeret" />
		<tag k="fixme" v="consider seamark:type=rock or natural=shoal" />
		<tag k="name" v="Klausetskjæret" />
		<tag k="place" v="islet" />
		<tag k="ssr:stedsnr" v="455461" />
	</node>
	<node id="-586760" lat="62.6706888892" lon="6.8722083421">
		<tag k="name" v="Ufsevika" />
		<tag k="natural" v="bay" />
		<tag k="ssr:stedsnr" v="455367" />
	</node>
	<node id="-586757" lat="62.6944527821" lon="6.64399165833">
		<tag k="name" v="Neset" />
		<tag k="natural" v="cape" />
		<tag k="ssr:stedsnr" v="455289" />
	</node>
	<node id="-586756" lat="62.6850055537" lon="6.63929444292">
		<tag k="name" v="Nygårdsvika" />
		<tag k="natural" v="bay" />
		<tag k="ssr:stedsnr" v="455280" />
	</node>
	<node id="-586755" lat="62.690388893" lon="6.85925556058">
		<tag k="fixme" v="consider seamark:type=rock or natural=shoal" />
		<tag k="name" v="Skjeret" />
		<tag k="place" v="islet" />
		<tag k="ssr:stedsnr" v="455256" />
	</node>
	<node id="-586751" lat="62.7337388857" lon="6.80156388483">
		<tag k="name" v="Tømmervikneset" />
		<tag k="natural" v="cape" />
		<tag k="ssr:stedsnr" v="455212" />
	</node>
	<node id="-586749" lat="62.6738750033" lon="6.59553055281">
		<tag k="name" v="Stordalsfjøra" />
		<tag k="natural" v="beach" />
		<tag k="place" v="locality" />
		<tag k="ssr:stedsnr" v="455124" />
	</node>
	<node id="-586747" lat="62.6397166664" lon="6.5203805568">
		<tag k="name" v="Tarekastet" />
		<tag k="natural" v="cape" />
		<tag k="old_name" v="Torekastet" />
		<tag k="ssr:stedsnr" v="455114" />
	</node>
	<node id="-586745" lat="62.7211611156" lon="6.68209445152">
		<tag k="name" v="Brennvinsholå" />
		<tag k="natural" v="bay" />
		<tag k="ssr:stedsnr" v="455078" />
	</node>
	<node id="-586743" lat="62.7371750037" lon="6.72141667114">
		<tag k="name" v="Buanesleira" />
		<tag k="place" v="locality" />
		<tag k="ssr:stedsnr" v="455046" />
	</node>
	<node id="-586739" lat="62.6552555555" lon="6.62542778027">
		<tag k="name" v="Sveneset" />
		<tag k="natural" v="cape" />
		<tag k="ssr:stedsnr" v="455003" />
	</node>
	<node id="-586735" lat="62.6963416672" lon="6.89385276797">
		<tag k="alt_name" v="Flesjane" />
		<tag k="fixme" v="consider seamark:type=rock or natural=shoal" />
		<tag k="name" v="Flesja" />
		<tag k="place" v="islet" />
		<tag k="ssr:stedsnr" v="456705" />
	</node>
	<node id="-586733" lat="62.7334722232" lon="6.6878333329">
		<tag k="name" v="Fagergåsvika" />
		<tag k="natural" v="bay" />
		<tag k="ssr:stedsnr" v="445205" />
	</node>
	<node id="-586729" lat="62.6688305525" lon="6.67689166893">
		<tag k="name" v="Heimstevika" />
		<tag k="natural" v="bay" />
		<tag k="ssr:stedsnr" v="445060" />
	</node>
	<node id="-586727" lat="62.6691055522" lon="6.6753361093">
		<tag k="name" v="Gråmyrneset" />
		<tag k="natural" v="shoal" />
		<tag k="place" v="locality" />
		<tag k="ssr:stedsnr" v="445053" />
	</node>
	<node id="-586724" lat="62.753047221" lon="6.70255556149">
		<tag k="name" v="Bondflutaren" />
		<tag k="natural" v="shoal" />
		<tag k="place" v="locality" />
		<tag k="ssr:stedsnr" v="437066" />
	</node>
	<node id="-586721" lat="62.6687777759" lon="6.61194444307">
		<tag k="name" v="Midøya" />
		<tag k="place" v="island" />
		<tag k="ssr:stedsnr" v="436955" />
	</node>
	<node id="-586715" lat="62.6895861106" lon="6.6063583402">
		<tag k="name" v="Myrbærholmen" />
		<tag k="place" v="islet" />
		<tag k="ssr:stedsnr" v="436884" />
	</node>
	<node id="-586711" lat="62.7144638888" lon="6.72857499655">
		<tag k="name" v="Torsvika" />
		<tag k="natural" v="bay" />
		<tag k="ssr:stedsnr" v="436086" />
	</node>
	<node id="-586710" lat="62.7545888924" lon="6.86841666894">
		<tag k="name" v="Store Skarvholmen" />
		<tag k="place" v="islet" />
		<tag k="ssr:stedsnr" v="419605" />
	</node>
	<node id="-586709" lat="62.6627388851" lon="6.66556666502">
		<tag k="name" v="Høgsetneset" />
		<tag k="natural" v="cape" />
		<tag k="ssr:stedsnr" v="419144" />
	</node>
	<node id="-586707" lat="62.6988777761" lon="6.89930833768">
		<tag k="name" v="Tautreberget" />
		<tag k="natural" v="cape" />
		<tag k="ssr:stedsnr" v="415692" />
	</node>
	<node id="-586706" lat="62.6529027802" lon="6.57143055955">
		<tag k="name" v="Kuleira" />
		<tag k="natural" v="shoal" />
		<tag k="place" v="locality" />
		<tag k="ssr:stedsnr" v="415649" />
	</node>
	<node id="-586705" lat="62.6773111129" lon="6.4776611172">
		<tag k="name" v="Midtfjordskallen" />
		<tag k="natural" v="shoal" />
		<tag k="place" v="locality" />
		<tag k="ssr:stedsnr" v="415643" />
	</node>
	<node id="-586704" lat="62.7181194456" lon="6.73533888462">
		<tag k="name" v="Torsvikbukta" />
		<tag k="natural" v="bay" />
		<tag k="ssr:stedsnr" v="415147" />
	</node>
	<node id="-586703" lat="62.6999277808" lon="6.67868332373">
		<tag k="name" v="Akslaflua" />
		<tag k="natural" v="shoal" />
		<tag k="place" v="locality" />
		<tag k="ssr:stedsnr" v="414692" />
	</node>
	<node id="-586701" lat="62.7296305524" lon="6.68403610633">
		<tag k="name" v="Ålesundsleira" />
		<tag k="natural" v="bay" />
		<tag k="ssr:stedsnr" v="263228" />
	</node>
	<node id="-586694" lat="62.7622833363" lon="6.82812778667">
		<tag k="name" v="Kvernholmen" />
		<tag k="place" v="islet" />
		<tag k="ssr:stedsnr" v="255870" />
	</node>
	<node id="-586693" lat="62.6791333329" lon="6.59221666362">
		<tag k="name" v="Store Digerneset" />
		<tag k="natural" v="cape" />
		<tag k="ssr:stedsnr" v="254996" />
	</node>
	<node id="-586689" lat="62.6581805533" lon="6.57341665908">
		<tag k="name" v="Korsvika" />
		<tag k="natural" v="bay" />
		<tag k="ssr:stedsnr" v="254922" />
	</node>
	<node id="-586688" lat="62.7142055516" lon="6.68374445188">
		<tag k="name" v="Ufsevika" />
		<tag k="natural" v="bay" />
		<tag k="ssr:stedsnr" v="254910" />
	</node>
	<node id="-586687" lat="62.7408583358" lon="6.68590278115">
		<tag k="fixme" v="consider seamark:type=rock or natural=shoal" />
		<tag k="name" v="Blea" />
		<tag k="place" v="islet" />
		<tag k="ssr:stedsnr" v="254832" />
	</node>
	<node id="-586686" lat="62.7391666675" lon="6.70483056157">
		<tag k="name" v="Langholmen" />
		<tag k="place" v="islet" />
		<tag k="ssr:stedsnr" v="254817" />
	</node>
	<node id="-586675" lat="62.6453527748" lon="6.53045555955">
		<tag k="name" v="Dryna" />
		<tag k="place" v="island" />
		<tag k="ssr:stedsnr" v="254437" />
	</node>
	<node id="-586672" lat="62.6593111105" lon="6.65816111214">
		<tag k="name" v="Kobbestranda" />
		<tag k="natural" v="beach" />
		<tag k="place" v="locality" />
		<tag k="ssr:stedsnr" v="247043" />
	</node>
	<node id="-586671" lat="62.671674998" lon="6.52840276886">
		<tag k="name" v="Synholdskjærskallan" />
		<tag k="natural" v="shoal" />
		<tag k="place" v="locality" />
		<tag k="ssr:stedsnr" v="232520" />
	</node>
	<node id="-586670" lat="62.7349138895" lon="6.73487500198">
		<tag k="name" v="Orviktangen" />
		<tag k="natural" v="cape" />
		<tag k="ssr:stedsnr" v="232141" />
	</node>
	<node id="-586669" lat="62.6669972227" lon="6.53449443938">
		<tag k="name" v="Matløysdjupet" />
		<tag k="place" v="locality" />
		<tag k="ssr:stedsnr" v="227258" />
	</node>
	<node id="-586658" lat="62.7538555516" lon="6.89530833657">
		<tag k="name" v="Litle Kyrholmen" />
		<tag k="place" v="islet" />
		<tag k="ssr:stedsnr" v="212740" />
	</node>
	<node id="-586655" lat="62.7117416632" lon="6.68941943954">
		<tag k="name" v="Risvika" />
		<tag k="natural" v="bay" />
		<tag k="ssr:stedsnr" v="212588" />
	</node>
	<node id="-586653" lat="62.7060666713" lon="6.93066945019">
		<tag k="name" v="Grønlandsneset" />
		<tag k="natural" v="cape" />
		<tag k="ssr:stedsnr" v="212572" />
	</node>
	<node id="-586649" lat="62.6698305538" lon="6.87179444615">
		<tag k="name" v="Kråa" />
		<tag k="natural" v="bay" />
		<tag k="ssr:stedsnr" v="212498" />
	</node>
	<node id="-586644" lat="62.6864333371" lon="6.65795000052">
		<tag k="alt_name" v="Selvikneset" />
		<tag k="name" v="Digerneset" />
		<tag k="natural" v="cape" />
		<tag k="ssr:stedsnr" v="212288" />
	</node>
	<node id="-586643" lat="62.6806333302" lon="6.63983333325">
		<tag k="name" v="Fetabukta" />
		<tag k="natural" v="bay" />
		<tag k="ssr:stedsnr" v="212283" />
	</node>
	<node id="-586638" lat="62.6694444405" lon="6.58803610918">
		<tag k="name" v="Gardvika" />
		<tag k="natural" v="bay" />
		<tag k="ssr:stedsnr" v="212127" />
	</node>
	<node id="-586634" lat="62.7379416629" lon="6.7280055623">
		<tag k="name" v="Buaneset" />
		<tag k="natural" v="cape" />
		<tag k="ssr:stedsnr" v="212049" />
	</node>
	<node id="-586633" lat="62.73594167" lon="6.73328055837">
		<tag k="fixme" v="consider seamark:type=rock or natural=shoal" />
		<tag k="name" v="Svartskjeret" />
		<tag k="place" v="islet" />
		<tag k="ssr:stedsnr" v="212047" />
	</node>
	<node id="-586632" lat="62.7216583322" lon="6.74040000164">
		<tag k="name" v="Breivika" />
		<tag k="natural" v="bay" />
		<tag k="ssr:stedsnr" v="212017" />
	</node>
	<node id="-586619" lat="62.6989444427" lon="6.69422776882">
		<tag k="name" v="Evjeneset" />
		<tag k="natural" v="cape" />
		<tag k="ssr:stedsnr" v="194899" />
	</node>
	<node id="-586618" lat="62.7000277751" lon="6.63861388868">
		<tag k="name" v="Vølveita" />
		<tag k="natural" v="strait" />
		<tag k="ssr:stedsnr" v="194894" />
	</node>
	<node id="-586617" lat="62.6882194452" lon="6.60048611738">
		<tag k="name" v="Hamnholmen" />
		<tag k="place" v="islet" />
		<tag k="ssr:stedsnr" v="194875" />
	</node>
	<node id="-586613" lat="62.7403083332" lon="6.73259999873">
		<tag k="alt_name" v="Oterskjeret" />
		<tag k="fixme" v="consider seamark:type=rock or natural=shoal" />
		<tag k="name" v="Oterskjæret" />
		<tag k="place" v="islet" />
		<tag k="ssr:stedsnr" v="193093" />
	</node>
	<node id="-586611" lat="62.6671416636" lon="6.86763610281">
		<tag k="fixme" v="multiple name tags, choose one and add the other to alt_name" />
		<tag k="name" v="Futholmen;Løholmen" />
		<tag k="place" v="islet" />
		<tag k="ssr:stedsnr" v="193060" />
	</node>
	<node id="-586608" lat="62.6450444422" lon="6.51448054721">
		<tag k="name" v="Eiremsgrunna" />
		<tag k="natural" v="shoal" />
		<tag k="place" v="locality" />
		<tag k="ssr:stedsnr" v="172900" />
	</node>
	<node id="-586606" lat="62.6670500028" lon="6.57310277556">
		<tag k="name" v="Sjurflua" />
		<tag k="natural" v="shoal" />
		<tag k="place" v="locality" />
		<tag k="ssr:stedsnr" v="172624" />
	</node>
	<node id="-586604" lat="62.7335500029" lon="6.74611666372">
		<tag k="name" v="Hellerflua" />
		<tag k="natural" v="shoal" />
		<tag k="place" v="locality" />
		<tag k="ssr:stedsnr" v="172139" />
	</node>
	<node id="-586603" lat="62.7388499957" lon="6.71063056143">
		<tag k="name" v="Kjellsvika" />
		<tag k="natural" v="bay" />
		<tag k="ssr:stedsnr" v="172134" />
	</node>
	<node id="-586602" lat="62.7493055514" lon="6.92834722735">
		<tag k="name" v="Geitskinnflua" />
		<tag k="natural" v="shoal" />
		<tag k="place" v="locality" />
		<tag k="ssr:stedsnr" v="172127" />
	</node>
	<node id="-586601" lat="62.7051555566" lon="6.68815000795">
		<tag k="name" v="Kobbefluene" />
		<tag k="natural" v="shoal" />
		<tag k="place" v="locality" />
		<tag k="ssr:stedsnr" v="171740" />
	</node>
	<node id="-586600" lat="62.661136108" lon="6.83476110511">
		<tag k="name" v="Håskjærflua" />
		<tag k="natural" v="shoal" />
		<tag k="place" v="locality" />
		<tag k="ssr:stedsnr" v="171760" />
	</node>
	<node id="-586587" lat="62.6953916695" lon="6.61793611292">
		<tag k="name" v="Morteberget" />
		<tag k="natural" v="cape" />
		<tag k="ssr:stedsnr" v="151326" />
	</node>
	<node id="-586585" lat="62.6535166681" lon="6.57136666118">
		<tag k="name" v="Makkevågen" />
		<tag k="natural" v="bay" />
		<tag k="ssr:stedsnr" v="151179" />
	</node>
	<node id="-586584" lat="62.7406583356" lon="6.70731111351">
		<tag k="name" v="Stor-Grønningen" />
		<tag k="place" v="islet" />
		<tag k="ssr:stedsnr" v="151175" />
	</node>
	<node id="-586581" lat="62.7207416639" lon="6.72597222627">
		<tag k="name" v="Pålsettet" />
		<tag k="natural" v="bay" />
		<tag k="ssr:stedsnr" v="151055" />
	</node>
	<node id="-586579" lat="62.736424998" lon="6.6994527755">
		<tag k="name" v="Mekvika" />
		<tag k="natural" v="bay" />
		<tag k="ssr:stedsnr" v="151041" />
	</node>
	<node id="-586578" lat="62.732741663" lon="6.76715834197">
		<tag k="name" v="Grønvika" />
		<tag k="natural" v="bay" />
		<tag k="ssr:stedsnr" v="151018" />
	</node>
	<node id="-586567" lat="62.7148416701" lon="6.64157777209">
		<tag k="name" v="Grøtneset" />
		<tag k="natural" v="cape" />
		<tag k="ssr:stedsnr" v="132919" />
	</node>
	<node id="-586565" lat="62.7420777802" lon="6.8431222195">
		<tag k="name" v="Ræstadtangen" />
		<tag k="natural" v="cape" />
		<tag k="ssr:stedsnr" v="132101" />
	</node>
	<node id="-586564" lat="62.7492499976" lon="6.8483166577">
		<tag k="fixme" v="consider seamark:type=rock or natural=shoal" />
		<tag k="name" v="Maurungan" />
		<tag k="place" v="islet" />
		<tag k="ssr:stedsnr" v="132087" />
	</node>
	<node id="-586560" lat="62.6580666708" lon="6.54611389401">
		<tag k="name" v="Vågskjeft" />
		<tag k="natural" v="bay" />
		<tag k="ssr:stedsnr" v="112613" />
	</node>
	<node id="-586559" lat="62.6975833347" lon="6.5903638928">
		<tag k="name" v="Gullflua" />
		<tag k="natural" v="shoal" />
		<tag k="place" v="locality" />
		<tag k="ssr:stedsnr" v="111665" />
	</node>
	<node id="-586549" lat="62.7359138904" lon="6.81088889457">
		<tag k="name" v="Ræstadvika" />
		<tag k="natural" v="bay" />
		<tag k="ssr:stedsnr" v="92624" />
	</node>
	<node id="-586545" lat="62.7449861075" lon="6.92297500555">
		<tag k="name" v="Peliksneset" />
		<tag k="natural" v="cape" />
		<tag k="ssr:stedsnr" v="91725" />
	</node>
	<node id="-586541" lat="62.7135277778" lon="6.73159443573">
		<tag k="name" v="Saltvika" />
		<tag k="natural" v="bay" />
		<tag k="ssr:stedsnr" v="91637" />
	</node>
	<node id="-586539" lat="62.7393500028" lon="6.92901111061">
		<tag k="name" v="Midtvikneset" />
		<tag k="natural" v="cape" />
		<tag k="ssr:stedsnr" v="91598" />
	</node>
	<node id="-586536" lat="62.7126972203" lon="6.9381527832">
		<tag k="name" v="Gubben" />
		<tag k="natural" v="cape" />
		<tag k="ssr:stedsnr" v="91587" />
	</node>
	<node id="-586534" lat="62.6799888925" lon="6.91500278574">
		<tag k="name" v="Leira" />
		<tag k="natural" v="bay" />
		<tag k="ssr:stedsnr" v="91503" />
	</node>
	<node id="-586531" lat="62.6749249972" lon="6.9114805515">
		<tag k="name" v="Vatlebukta" />
		<tag k="natural" v="bay" />
		<tag k="ssr:stedsnr" v="91496" />
	</node>
	<node id="-586522" lat="62.6810055533" lon="6.65588611492">
		<tag k="fixme" v="consider seamark:type=rock or natural=shoal" />
		<tag k="name" v="Storflua" />
		<tag k="place" v="islet" />
		<tag k="ssr:stedsnr" v="91308" />
	</node>
	<node id="-586514" lat="62.7341611096" lon="6.77411389872">
		<tag k="fixme" v="consider seamark:type=rock or natural=shoal" />
		<tag k="name" v="Litleskjeret" />
		<tag k="place" v="islet" />
		<tag k="ssr:stedsnr" v="91013" />
	</node>
	<node id="-586512" lat="62.6556972253" lon="6.62914166302">
		<tag k="name" v="Rosvika" />
		<tag k="natural" v="bay" />
		<tag k="ssr:stedsnr" v="91002" />
	</node>
	<node id="-586501" lat="62.7537666659" lon="6.91927778706">
		<tag k="name" v="Bollholmen" />
		<tag k="place" v="islet" />
		<tag k="ssr:stedsnr" v="73847" />
	</node>
	<node id="-586497" lat="62.6844361074" lon="6.66363888609">
		<tag k="name" v="Selvika" />
		<tag k="natural" v="bay" />
		<tag k="ssr:stedsnr" v="72974" />
	</node>
	<node id="-586493" lat="62.7130222253" lon="6.66363055391">
		<tag k="name" v="Tustra" />
		<tag k="place" v="islet" />
		<tag k="ssr:stedsnr" v="72913" />
	</node>
	<node id="-586490" lat="62.6660249988" lon="6.70041666494">
		<tag k="name" v="Juvika" />
		<tag k="natural" v="bay" />
		<tag k="ssr:stedsnr" v="72463" />
	</node>
	<node id="-586483" lat="62.6387861073" lon="6.51451666907">
		<tag k="name" v="Drynjaholmane" />
		<tag k="place" v="islet" />
		<tag k="ssr:stedsnr" v="51896" />
	</node>
	<node id="-586482" lat="62.6850944408" lon="6.82618889575">
		<tag k="name" v="Orsetbukta" />
		<tag k="natural" v="bay" />
		<tag k="ssr:stedsnr" v="51760" />
	</node>
	<node id="-586481" lat="62.7338777752" lon="6.7689333271">
		<tag k="fixme" v="consider seamark:type=rock or natural=shoal" />
		<tag k="name" v="Steinane" />
		<tag k="place" v="islet" />
		<tag k="ssr:stedsnr" v="51157" />
	</node>
	<node id="-586479" lat="62.7356500022" lon="6.93086944982">
		<tag k="alt_name" v="Remkollbukta" />
		<tag k="name" v="Romkallbukta" />
		<tag k="natural" v="bay" />
		<tag k="ssr:stedsnr" v="51138" />
	</node>
	<node id="-586478" lat="62.7568166694" lon="6.69681943498">
		<tag k="name" v="Søreflua" />
		<tag k="natural" v="shoal" />
		<tag k="place" v="locality" />
		<tag k="ssr:stedsnr" v="50815" />
	</node>
	<node id="-586477" lat="62.6669138911" lon="6.84673889578">
		<tag k="fixme" v="consider seamark:type=rock or natural=shoal" />
		<tag k="name" v="Tenneknubbane" />
		<tag k="place" v="islet" />
		<tag k="ssr:stedsnr" v="50692" />
	</node>
	<node id="-586476" lat="62.6905111152" lon="6.93210832842">
		<tag k="name" v="Tautreflua" />
		<tag k="natural" v="shoal" />
		<tag k="place" v="locality" />
		<tag k="ssr:stedsnr" v="50688" />
	</node>
	<node id="-586468" lat="62.7021972244" lon="6.61474167221">
		<tag k="fixme" v="consider seamark:type=rock or natural=shoal" />
		<tag k="name" v="Blydråtten" />
		<tag k="place" v="islet" />
		<tag k="ssr:stedsnr" v="30821" />
	</node>
	<node id="-586467" lat="62.7533333309" lon="6.86673888304">
		<tag k="name" v="Inste Skarvholmen" />
		<tag k="place" v="islet" />
		<tag k="ssr:stedsnr" v="30748" />
	</node>
	<node id="-586463" lat="62.7412944442" lon="6.92793332642">
		<tag k="name" v="Håneskråna" />
		<tag k="natural" v="bay" />
		<tag k="ssr:stedsnr" v="30578" />
	</node>
	<node id="-586460" lat="62.7138944486" lon="6.93433889215">
		<tag k="alt_name" v="Sølvika" />
		<tag k="name" v="Sølvikbukta" />
		<tag k="natural" v="bay" />
		<tag k="ssr:stedsnr" v="30563" />
	</node>
	<node id="-586457" lat="62.7174361076" lon="6.93485555933">
		<tag k="name" v="Inste Kjeberget" />
		<tag k="natural" v="cape" />
		<tag k="ssr:stedsnr" v="30523" />
	</node>
	<node id="-586453" lat="62.7432027795" lon="6.92384167321">
		<tag k="name" v="Hagebukta" />
		<tag k="natural" v="bay" />
		<tag k="ssr:stedsnr" v="30713" />
	</node>
	<node id="-586451" lat="62.6916472188" lon="6.61458333641">
		<tag k="name" v="Kjelsvika" />
		<tag k="natural" v="bay" />
		<tag k="ssr:stedsnr" v="30375" />
	</node>
	<node id="-586450" lat="62.6903666708" lon="6.60235277239">
		<tag k="alt_name" v="Skurvene" />
		<tag k="fixme" v="consider seamark:type=rock or natural=shoal" />
		<tag k="name" v="Skorven/Svartskjeret" />
		<tag k="place" v="islet" />
		<tag k="ssr:stedsnr" v="30372" />
	</node>
	<node id="-586440" lat="62.7393361088" lon="6.70597221917">
		<tag k="name" v="Kontholmen" />
		<tag k="place" v="islet" />
		<tag k="ssr:stedsnr" v="30162" />
	</node>
	<node id="-586438" lat="62.6516416636" lon="6.55701944126">
		<tag k="name" v="Vardnesbukta" />
		<tag k="natural" v="bay" />
		<tag k="ssr:stedsnr" v="30159" />
	</node>
	<node id="-586435" lat="62.7170805585" lon="6.72774721453">
		<tag k="name" v="Nerlandsbukta" />
		<tag k="natural" v="bay" />
		<tag k="ssr:stedsnr" v="30018" />
	</node>
	<node id="-586429" lat="62.6697916653" lon="6.66227777968">
		<tag k="name" v="Innerneset" />
		<tag k="natural" v="cape" />
		<tag k="ssr:stedsnr" v="21068" />
	</node>
	<node id="-586425" lat="62.6657305567" lon="6.6819666656">
		<tag k="name" v="Trollvika" />
		<tag k="natural" v="bay" />
		<tag k="ssr:stedsnr" v="12945" />
	</node>
	<node id="-586422" lat="62.655394444" lon="6.63260277769">
		<tag k="name" v="Oksvollneset" />
		<tag k="natural" v="cape" />
		<tag k="ssr:stedsnr" v="12480" />
	</node>
	<node id="-586420" lat="62.638216671" lon="6.52258333485">
		<tag k="name" v="Litleholmen" />
		<tag k="place" v="islet" />
		<tag k="ssr:stedsnr" v="12471" />
	</node>
	<node id="-586419" lat="62.7118916708" lon="6.66002499994">
		<tag k="name" v="Nørdre Kvaløysundet" />
		<tag k="natural" v="strait" />
		<tag k="ssr:stedsnr" v="11905" />
	</node>
	<node id="-586416" lat="62.7138583309" lon="6.78683334069">
		<tag k="name" v="Otrøya" />
		<tag k="place" v="island" />
		<tag k="ssr:stedsnr" v="11035" />
	</node>
	<node id="-586411" lat="62.7339109635" lon="6.7251318937">
		<tag k="name" v="Sandvika" />
		<tag k="natural" v="bay" />
		<tag k="ssr:stedsnr" v="985855" />
	</node>
	<node id="-586398" lat="62.6391444431" lon="6.52215554758">
		<tag k="name" v="Nørebukta" />
		<tag k="natural" v="bay" />
		<tag k="ssr:stedsnr" v="476887" />
	</node>
	<node id="-586397" lat="62.6968250046" lon="6.62375834069">
		<tag k="name" v="Åtlegget" />
		<tag k="natural" v="cape" />
		<tag k="ssr:stedsnr" v="475683" />
	</node>
	<node id="-586396" lat="62.6662805594" lon="6.57484443806">
		<tag k="fixme" v="consider seamark:type=rock or natural=shoal" />
		<tag k="name" v="Haugskjæret" />
		<tag k="place" v="islet" />
		<tag k="ssr:stedsnr" v="475601" />
	</node>
	<node id="-586395" lat="62.728602775" lon="6.93355277739">
		<tag k="name" v="Setbukta" />
		<tag k="natural" v="bay" />
		<tag k="ssr:stedsnr" v="475127" />
	</node>
	<node id="-586388" lat="62.703233332" lon="6.91733888703">
		<tag k="name" v="Reitaneset" />
		<tag k="natural" v="bay" />
		<tag k="ssr:stedsnr" v="395728" />
	</node>
	<node id="-586381" lat="62.7519638885" lon="6.90867776952">
		<tag k="fixme" v="consider seamark:type=rock or natural=shoal" />
		<tag k="name" v="Grønskjeret" />
		<tag k="place" v="islet" />
		<tag k="ssr:stedsnr" v="394754" />
	</node>
	<node id="-586380" lat="62.7514055516" lon="6.91036389482">
		<tag k="fixme" v="consider seamark:type=rock or natural=shoal" />
		<tag k="name" v="Grønskjerflua" />
		<tag k="place" v="islet" />
		<tag k="ssr:stedsnr" v="394753" />
	</node>
	<node id="-586374" lat="62.7514222199" lon="6.85590277172">
		<tag k="fixme" v="consider seamark:type=rock or natural=shoal" />
		<tag k="name" v="Litlkalvøya" />
		<tag k="place" v="islet" />
		<tag k="ssr:stedsnr" v="394523" />
	</node>
	<node id="-586371" lat="62.6911416643" lon="6.61096111643">
		<tag k="name" v="Kjelsvikholmen" />
		<tag k="place" v="islet" />
		<tag k="ssr:stedsnr" v="394373" />
	</node>
	<node id="-586369" lat="62.6791611148" lon="6.59021944476">
		<tag k="fixme" v="consider seamark:type=rock or natural=shoal" />
		<tag k="name" v="Pølsa" />
		<tag k="place" v="islet" />
		<tag k="ssr:stedsnr" v="394365" />
	</node>
	<node id="-586368" lat="62.6856388896" lon="6.81271389849">
		<tag k="alt_name" v="Skottgardbukta" />
		<tag k="name" v="Skotgårdbukta" />
		<tag k="natural" v="bay" />
		<tag k="ssr:stedsnr" v="394360" />
	</node>
	<node id="-586363" lat="62.7183805583" lon="6.66948610778">
		<tag k="name" v="Småholman" />
		<tag k="place" v="islet" />
		<tag k="ssr:stedsnr" v="394165" />
	</node>
	<node id="-586362" lat="62.7188166649" lon="6.6723888853">
		<tag k="name" v="Magerøysundet" />
		<tag k="natural" v="strait" />
		<tag k="ssr:stedsnr" v="394163" />
	</node>
	<node id="-586360" lat="62.6669111142" lon="6.57899445105">
		<tag k="alt_name" v="Vikeskjæret" />
		<tag k="fixme" v="consider seamark:type=rock or natural=shoal" />
		<tag k="name" v="Vikaskjera" />
		<tag k="place" v="islet" />
		<tag k="ssr:stedsnr" v="394146" />
	</node>
	<node id="-586359" lat="62.6679305586" lon="6.58229166171">
		<tag k="name" v="Båtvika" />
		<tag k="natural" v="bay" />
		<tag k="ssr:stedsnr" v="394145" />
	</node>
	<node id="-586356" lat="62.6502694431" lon="6.5331638894">
		<tag k="name" v="Stombekastet" />
		<tag k="natural" v="bay" />
		<tag k="ssr:stedsnr" v="394096" />
	</node>
	<node id="-586354" lat="62.6832416706" lon="6.79075555259">
		<tag k="name" v="Evjeneset" />
		<tag k="natural" v="cape" />
		<tag k="ssr:stedsnr" v="390655" />
	</node>
	<node id="-586349" lat="62.7386499966" lon="6.74116388575">
		<tag k="fixme" v="consider seamark:type=rock or natural=shoal" />
		<tag k="name" v="Grasskjæret" />
		<tag k="place" v="islet" />
		<tag k="ssr:stedsnr" v="384144" />
	</node>
	<node id="-586343" lat="62.7586333294" lon="6.87784444878">
		<tag k="name" v="Sæmundsholmen" />
		<tag k="place" v="islet" />
		<tag k="ssr:stedsnr" v="376872" />
	</node>
	<node id="-586342" lat="62.756863887" lon="6.86836666045">
		<tag k="name" v="Skarvholman" />
		<tag k="place" v="islet" />
		<tag k="ssr:stedsnr" v="376867" />
	</node>
	<node id="-586336" lat="62.7112138892" lon="6.67873611525">
		<tag k="name" v="Skrapasholman" />
		<tag k="place" v="islet" />
		<tag k="ssr:stedsnr" v="375909" />
	</node>
	<node id="-586335" lat="62.7052194475" lon="6.61316944958">
		<tag k="fixme" v="consider seamark:type=rock or natural=shoal" />
		<tag k="name" v="Blydrotten" />
		<tag k="place" v="islet" />
		<tag k="ssr:stedsnr" v="375908" />
	</node>
	<node id="-586332" lat="62.7012388921" lon="6.6077805498">
		<tag k="fixme" v="consider seamark:type=rock or natural=shoal" />
		<tag k="name" v="Søre Skjæret" />
		<tag k="place" v="islet" />
		<tag k="ssr:stedsnr" v="375889" />
	</node>
	<node id="-586330" lat="62.7329805532" lon="6.68031388145">
		<tag k="name" v="Ålesundsholmen" />
		<tag k="place" v="islet" />
		<tag k="ssr:stedsnr" v="375812" />
	</node>
	<node id="-586329" lat="62.7484805526" lon="6.90970277462">
		<tag k="name" v="Hansholmen" />
		<tag k="place" v="islet" />
		<tag k="ssr:stedsnr" v="375081" />
	</node>
	<node id="-586324" lat="62.6573027755" lon="6.87293054984">
		<tag k="name" v="Stabbefluna" />
		<tag k="natural" v="shoal" />
		<tag k="place" v="locality" />
		<tag k="ssr:stedsnr" v="354817" />
	</node>
	<node id="-586323" lat="62.6930194437" lon="6.87335833892">
		<tag k="fixme" v="consider seamark:type=rock or natural=shoal" />
		<tag k="name" v="Kobbeskjæret" />
		<tag k="place" v="islet" />
		<tag k="ssr:stedsnr" v="354751" />
	</node>
	<node id="-586322" lat="62.6923305575" lon="6.880619449">
		<tag k="name" v="Skallen" />
		<tag k="natural" v="shoal" />
		<tag k="place" v="locality" />
		<tag k="ssr:stedsnr" v="354749" />
	</node>
	<node id="-586321" lat="62.7053777798" lon="6.93060000777">
		<tag k="name" v="Jensetflua" />
		<tag k="natural" v="shoal" />
		<tag k="place" v="locality" />
		<tag k="ssr:stedsnr" v="354658" />
	</node>
	<node id="-586320" lat="62.7481722234" lon="6.76039166095">
		<tag k="name" v="Rørsetskallen" />
		<tag k="natural" v="shoal" />
		<tag k="place" v="locality" />
		<tag k="ssr:stedsnr" v="354168" />
	</node>
	<node id="-586319" lat="62.6809083306" lon="6.93248610886">
		<tag k="name" v="Måseskjærflua" />
		<tag k="natural" v="shoal" />
		<tag k="place" v="locality" />
		<tag k="ssr:stedsnr" v="353740" />
	</node>
	<node id="-586318" lat="62.6892499981" lon="6.65282500817">
		<tag k="name" v="Midsundet" />
		<tag k="natural" v="strait" />
		<tag k="ssr:stedsnr" v="353721" />
	</node>
	<node id="-586310" lat="62.7045305571" lon="6.92220277942">
		<tag k="name" v="Sørebukta" />
		<tag k="natural" v="bay" />
		<tag k="ssr:stedsnr" v="334688" />
	</node>
	<node id="-586309" lat="62.7376638861" lon="6.93033054636">
		<tag k="alt_name" v="Rongkallneset" />
		<tag k="name" v="Romkallneset" />
		<tag k="natural" v="cape" />
		<tag k="ssr:stedsnr" v="334567" />
	</node>
	<node id="-586302" lat="62.6779277758" lon="6.92370832468">
		<tag k="alt_name" v="Storskardbukta" />
		<tag k="name" v="Storskarbukta" />
		<tag k="natural" v="bay" />
		<tag k="ssr:stedsnr" v="334462" />
	</node>
	<node id="-586296" lat="62.6920750029" lon="6.86230833289">
		<tag k="name" v="Bogen" />
		<tag k="natural" v="bay" />
		<tag k="ssr:stedsnr" v="334252" />
	</node>
	<node id="-586295" lat="62.687350001" lon="6.83933333609">
		<tag k="name" v="Osen" />
		<tag k="natural" v="bay" />
		<tag k="ssr:stedsnr" v="334242" />
	</node>
	<node id="-586290" lat="62.7122194443" lon="6.65403610772">
		<tag k="name" v="Neset" />
		<tag k="natural" v="cape" />
		<tag k="ssr:stedsnr" v="333850" />
	</node>
	<node id="-586281" lat="62.679547218" lon="6.59288054969">
		<tag k="name" v="Trollvika" />
		<tag k="natural" v="bay" />
		<tag k="ssr:stedsnr" v="333398" />
	</node>
	<node id="-586279" lat="62.673447223" lon="6.66297499491">
		<tag k="name" v="Midsundholmen" />
		<tag k="place" v="islet" />
		<tag k="ssr:stedsnr" v="333328" />
	</node>
	<node id="-586277" lat="62.6814611073" lon="6.77457500329">
		<tag k="name" v="Heggdalsbukta" />
		<tag k="natural" v="bay" />
		<tag k="ssr:stedsnr" v="333302" />
	</node>
	<node id="-586276" lat="62.6786611078" lon="6.75549443739">
		<tag k="name" v="Stokkvika" />
		<tag k="natural" v="bay" />
		<tag k="ssr:stedsnr" v="333296" />
	</node>
	<node id="-586275" lat="62.7193416683" lon="6.66061110516">
		<tag k="name" v="Fagervika" />
		<tag k="natural" v="bay" />
		<tag k="ssr:stedsnr" v="333212" />
	</node>
	<node id="-586274" lat="62.717588885" lon="6.66372222924">
		<tag k="name" v="Langvika" />
		<tag k="natural" v="bay" />
		<tag k="ssr:stedsnr" v="333207" />
	</node>
	<node id="-586273" lat="62.6538611107" lon="6.55319445331">
		<tag k="name" v="Vardneset" />
		<tag k="natural" v="cape" />
		<tag k="ssr:stedsnr" v="333197" />
	</node>
	<node id="-586272" lat="62.6651222213" lon="6.57527499582">
		<tag k="fixme" v="consider seamark:type=rock or natural=shoal" />
		<tag k="name" v="Moldskjeret" />
		<tag k="place" v="islet" />
		<tag k="ssr:stedsnr" v="333186" />
	</node>
	<node id="-586266" lat="62.7183249999" lon="6.73033611168">
		<tag k="name" v="Spissneset" />
		<tag k="natural" v="cape" />
		<tag k="ssr:stedsnr" v="333015" />
	</node>
	<node id="-586257" lat="62.7527888914" lon="6.8909888851">
		<tag k="name" v="Kyrholmen" />
		<tag k="place" v="islet" />
		<tag k="ssr:stedsnr" v="315886" />
	</node>
	<node id="-586255" lat="62.6755833343" lon="6.67445556462">
		<tag k="name" v="Midsundbukta" />
		<tag k="natural" v="bay" />
		<tag k="ssr:stedsnr" v="315944" />
	</node>
	<node id="-586253" lat="62.7191527803" lon="6.67603889137">
		<tag k="name" v="Korveneset" />
		<tag k="natural" v="cape" />
		<tag k="ssr:stedsnr" v="315923" />
	</node>
	<node id="-586252" lat="62.707816663" lon="6.68557499338">
		<tag k="name" v="Hamnaneset" />
		<tag k="natural" v="cape" />
		<tag k="ssr:stedsnr" v="315915" />
	</node>
	<node id="-586248" lat="62.7417472234" lon="6.94761111887">
		<tag k="name" v="Julsundet" />
		<tag k="natural" v="strait" />
		<tag k="ssr:stedsnr" v="315113" />
	</node>
	<node id="-586245" lat="62.7388222213" lon="6.69471666473">
		<tag k="name" v="Honitholmen" />
		<tag k="place" v="islet" />
		<tag k="ssr:stedsnr" v="314831" />
	</node>
	<node id="-586244" lat="62.7086916626" lon="6.6842722236">
		<tag k="name" v="Brandholmen" />
		<tag k="place" v="islet" />
		<tag k="ssr:stedsnr" v="72903" />
	</node>
	<node id="-586243" lat="62.6401111084" lon="6.51586944718">
		<tag k="name" v="Sørebukta" />
		<tag k="natural" v="bay" />
		<tag k="ssr:stedsnr" v="294887" />
	</node>
	<node id="-586242" lat="62.7237361077" lon="6.64861943969">
		<tag k="name" v="Magerøyrengene" />
		<tag k="natural" v="shoal" />
		<tag k="place" v="locality" />
		<tag k="ssr:stedsnr" v="293836" />
	</node>
	<node id="-586241" lat="62.6844194419" lon="6.79499445158">
		<tag k="name" v="Vikabukta" />
		<tag k="natural" v="bay" />
		<tag k="ssr:stedsnr" v="293725" />
	</node>
	<node id="-586239" lat="62.6839472205" lon="6.78727222896">
		<tag k="name" v="Sandberget" />
		<tag k="natural" v="cape" />
		<tag k="ssr:stedsnr" v="293723" />
	</node>
	<node id="-586238" lat="62.6631972212" lon="6.56215000506">
		<tag k="name" v="Stabben" />
		<tag k="natural" v="shoal" />
		<tag k="place" v="locality" />
		<tag k="ssr:stedsnr" v="293607" />
	</node>
	<node id="-586237" lat="62.656941665" lon="6.55987221716">
		<tag k="alt_name" v="Sjærfluene" />
		<tag k="name" v="Skjerfluene" />
		<tag k="natural" v="shoal" />
		<tag k="place" v="locality" />
		<tag k="ssr:stedsnr" v="293605" />
	</node>
	<node id="-586236" lat="62.6658916664" lon="6.58032500186">
		<tag k="name" v="Vikane" />
		<tag k="natural" v="bay" />
		<tag k="ssr:stedsnr" v="293600" />
	</node>
	<node id="-586235" lat="62.6888555555" lon="6.55559999353">
		<tag k="name" v="Mongskallen" />
		<tag k="natural" v="shoal" />
		<tag k="place" v="locality" />
		<tag k="ssr:stedsnr" v="293574" />
	</node>
	<node id="-586234" lat="62.7561666666" lon="6.91865832499">
		<tag k="name" v="Bollholmsundet" />
		<tag k="natural" v="strait" />
		<tag k="ssr:stedsnr" v="293159" />
	</node>
	<node id="-586230" lat="62.6715194476" lon="6.64371388655">
		<tag k="name" v="Bløbukta" />
		<tag k="natural" v="bay" />
		<tag k="ssr:stedsnr" v="273965" />
	</node>
	<node id="-586229" lat="62.6980722182" lon="6.64470832904">
		<tag k="name" v="Kremmarberget" />
		<tag k="natural" v="cape" />
		<tag k="ssr:stedsnr" v="273874" />
	</node>
	<node id="-586225" lat="62.7074333373" lon="6.68999166908">
		<tag k="name" v="Sendingsbukta" />
		<tag k="natural" v="bay" />
		<tag k="ssr:stedsnr" v="273584" />
	</node>
	<node id="-586222" lat="62.7199250032" lon="6.93743055488">
		<tag k="name" v="Solholmen" />
		<tag k="place" v="islet" />
		<tag k="ssr:stedsnr" v="273516" />
	</node>
	<node id="-586221" lat="62.7183083339" lon="6.93611111285">
		<tag k="name" v="Ytste Kjeberget" />
		<tag k="natural" v="cape" />
		<tag k="ssr:stedsnr" v="273517" />
	</node>
	<node id="-586218" lat="62.675980559" lon="6.58475556162">
		<tag k="fixme" v="consider seamark:type=rock or natural=shoal" />
		<tag k="name" v="Dalskjera" />
		<tag k="place" v="islet" />
		<tag k="ssr:stedsnr" v="273363" />
	</node>
	<node id="-586216" lat="62.6812694425" lon="6.78070277676">
		<tag k="name" v="Båtneset" />
		<tag k="natural" v="cape" />
		<tag k="ssr:stedsnr" v="273260" />
	</node>
	<node id="-586213" lat="62.7340888886" lon="6.7794916577">
		<tag k="fixme" v="consider seamark:type=rock or natural=shoal" />
		<tag k="name" v="Langskjeret" />
		<tag k="place" v="islet" />
		<tag k="ssr:stedsnr" v="273026" />
	</node>
	<node id="-586212" lat="62.6990166631" lon="6.64418055169">
		<tag k="name" v="Biskopshammaren" />
		<tag k="natural" v="cape" />
		<tag k="ssr:stedsnr" v="272824" />
	</node>
	<node id="-586205" lat="62.6798138908" lon="6.91078888016">
		<tag k="name" v="Nordigardsbukta" />
		<tag k="natural" v="bay" />
		<tag k="ssr:stedsnr" v="269687" />
	</node>
</osm>
