<?xml version="1.0" encoding="UTF-8"?>
<osm generator="osmapis" version="0.6">
	<node id="-586240" lat="62.6860611142" lon="6.80345000845">
		<tag k="name" v="Vikanes" />
		<tag k="place" v="farm" />
		<tag k="ssr:stedsnr" v="293722" />
	</node>
	<node id="-587258" lat="62.7047861089" lon="6.70759722833">
		<tag k="name" v="Bakken" />
		<tag k="place" v="farm" />
		<tag k="ssr:stedsnr" v="880604" />
	</node>
	<node id="-586741" lat="62.6522083372" lon="6.55156667127">
		<tag k="name" v="Varnes" />
		<tag k="place" v="farm" />
		<tag k="ssr:stedsnr" v="455011" />
	</node>
	<node id="-587251" lat="62.6740166694" lon="6.90138333751">
		<tag k="name" v="Neromberga" />
		<tag k="place" v="farm" />
		<tag k="ssr:stedsnr" v="880492" />
	</node>
	<node id="-586738" lat="62.7054777738" lon="6.75861944776">
		<tag k="name" v="Grøvla" />
		<tag k="place" v="isolated_dwelling" />
		<tag k="ssr:stedsnr" v="451688" />
	</node>
	<node id="-586224" lat="62.7364916632" lon="6.92800832995">
		<tag k="alt_name" v="Rongkallen" />
		<tag k="fixme" v="consider place=hamlet" />
		<tag k="name" v="Romkallen" />
		<tag k="place" v="farm" />
		<tag k="ssr:stedsnr" v="273529" />
	</node>
	<node id="-586223" lat="62.7265784664" lon="6.9315874929">
		<tag k="fixme" v="consider place=hamlet" />
		<tag k="name" v="Setet" />
		<tag k="place" v="farm" />
		<tag k="ssr:stedsnr" v="273522" />
	</node>
	<node id="-587244" lat="62.6875500038" lon="6.81449999596">
		<tag k="name" v="Heimtun" />
		<tag k="place" v="farm" />
		<tag k="ssr:stedsnr" v="880344" />
	</node>
	<node id="-587242" lat="62.6795666631" lon="6.63748889755">
		<tag k="name" v="Hagen" />
		<tag k="place" v="farm" />
		<tag k="ssr:stedsnr" v="880275" />
	</node>
	<node id="-586728" lat="62.6770777808" lon="6.67804167189">
		<tag k="name" v="Teigan" />
		<tag k="place" v="farm" />
		<tag k="ssr:stedsnr" v="445057" />
	</node>
	<node id="-587237" lat="62.6908166665" lon="6.85467777944">
		<tag k="name" v="Midttun" />
		<tag k="place" v="farm" />
		<tag k="ssr:stedsnr" v="880239" />
	</node>
	<node id="-586722" lat="62.6854833367" lon="6.66454999876">
		<tag k="name" v="Selvik" />
		<tag k="place" v="farm" />
		<tag k="ssr:stedsnr" v="436966" />
	</node>
	<node id="-586719" lat="62.6649416649" lon="6.59407221619">
		<tag k="name" v="Midttun" />
		<tag k="place" v="farm" />
		<tag k="ssr:stedsnr" v="436928" />
	</node>
	<node id="-586718" lat="62.7166130136" lon="6.65316628494">
		<tag k="fixme" v="consider place=hamlet" />
		<tag k="name" v="Magerøya" />
		<tag k="place" v="farm" />
		<tag k="ssr:stedsnr" v="436914" />
	</node>
	<node id="-586716" lat="62.6978611112" lon="6.6415638915">
		<tag k="name" v="Sanden" />
		<tag k="place" v="farm" />
		<tag k="ssr:stedsnr" v="436895" />
	</node>
	<node id="-586713" lat="62.7338833373" lon="6.71727776793">
		<tag k="name" v="Gjerdet" />
		<tag k="place" v="farm" />
		<tag k="ssr:stedsnr" v="436826" />
	</node>
	<node id="-586712" lat="62.741427776" lon="6.84596944498">
		<tag k="name" v="Ræstadtangen" />
		<tag k="place" v="farm" />
		<tag k="ssr:stedsnr" v="436109" />
	</node>
	<node id="-587222" lat="62.7289333291" lon="6.76234444608">
		<tag k="name" v="Nyland" />
		<tag k="place" v="farm" />
		<tag k="ssr:stedsnr" v="876701" />
	</node>
	<node id="-587221" lat="62.6571249979" lon="6.61692499889">
		<tag k="name" v="Ramsvik" />
		<tag k="place" v="hamlet" />
		<tag k="ssr:stedsnr" v="870477" />
	</node>
	<node id="-587220" lat="62.7346527803" lon="6.70428888485">
		<tag k="name" v="Hjellen" />
		<tag k="place" v="farm" />
		<tag k="ssr:stedsnr" v="870224" />
	</node>
	<node id="-587219" lat="62.7260916638" lon="6.72150277605">
		<tag k="name" v="Lassegarden" />
		<tag k="place" v="farm" />
		<tag k="ssr:stedsnr" v="870217" />
	</node>
	<node id="-587216" lat="62.6761833327" lon="6.8990777724">
		<tag k="name" v="Haugen" />
		<tag k="place" v="farm" />
		<tag k="ssr:stedsnr" v="869380" />
	</node>
	<node id="-587212" lat="62.6714805582" lon="6.67995555611">
		<tag k="name" v="Bøen" />
		<tag k="place" v="farm" />
		<tag k="ssr:stedsnr" v="861978" />
	</node>
	<node id="-587211" lat="62.6677722211" lon="6.59530555275">
		<tag k="name" v="Fjelltun" />
		<tag k="place" v="farm" />
		<tag k="ssr:stedsnr" v="861966" />
	</node>
	<node id="-587210" lat="62.671599996" lon="6.64836111472">
		<tag k="name" v="Leirvika" />
		<tag k="place" v="farm" />
		<tag k="ssr:stedsnr" v="861956" />
	</node>
	<node id="-587209" lat="62.6584825733" lon="6.6005309661">
		<tag k="fixme" v="consider place=hamlet" />
		<tag k="name" v="Gangstad" />
		<tag k="place" v="farm" />
		<tag k="ssr:stedsnr" v="861952" />
	</node>
	<node id="-586696" lat="62.7065985578" lon="6.73791128955">
		<tag k="fixme" v="consider place=hamlet" />
		<tag k="name" v="Hole" />
		<tag k="place" v="farm" />
		<tag k="ssr:stedsnr" v="262332" />
	</node>
	<node id="-587207" lat="62.7232333352" lon="6.71571389151">
		<tag k="name" v="Nygjerdet" />
		<tag k="place" v="farm" />
		<tag k="ssr:stedsnr" v="861825" />
	</node>
	<node id="-586401" lat="62.6747878976" lon="6.90030100841">
		<tag k="name" v="Tautra" />
		<tag k="place" v="hamlet" />
		<tag k="ssr:stedsnr" v="981300" />
	</node>
	<node id="-586692" lat="62.6946916667" lon="6.69334443852">
		<tag k="name" v="Aksla" />
		<tag k="place" v="farm" />
		<tag k="ssr:stedsnr" v="254989" />
	</node>
	<node id="-587203" lat="62.6736634645" lon="6.73138644832">
		<tag k="name" v="Klauset" />
		<tag k="place" v="hamlet" />
		<tag k="ssr:stedsnr" v="861058" />
	</node>
	<node id="-586571" lat="62.6675527822" lon="6.58524999883">
		<tag k="name" v="Storvik" />
		<tag k="place" v="farm" />
		<tag k="ssr:stedsnr" v="133957" />
	</node>
	<node id="-586684" lat="62.7190158928" lon="6.93400647862">
		<tag k="fixme" v="consider place=hamlet" />
		<tag k="name" v="Solholmen" />
		<tag k="place" v="farm" />
		<tag k="ssr:stedsnr" v="254067" />
	</node>
	<node id="-586682" lat="62.6998277743" lon="6.79103056315">
		<tag k="name" v="Sømmehytta" />
		<tag k="place" v="isolated_dwelling" />
		<tag k="ssr:stedsnr" v="254042" />
	</node>
	<node id="-586679" lat="62.6887421859" lon="6.84532192471">
		<tag k="fixme" v="consider place=hamlet" />
		<tag k="name" v="Opstad" />
		<tag k="place" v="farm" />
		<tag k="ssr:stedsnr" v="254035" />
	</node>
	<node id="-586677" lat="62.6565239188" lon="6.6169198706">
		<tag k="fixme" v="consider place=hamlet" />
		<tag k="name" v="Ramsvik" />
		<tag k="place" v="farm" />
		<tag k="ssr:stedsnr" v="254466" />
	</node>
	<node id="-586673" lat="62.646096067" lon="6.54818717248">
		<tag k="fixme" v="consider place=hamlet" />
		<tag k="name" v="Dryna" />
		<tag k="place" v="farm" />
		<tag k="ssr:stedsnr" v="254432" />
	</node>
	<node id="-586659" lat="62.7351277755" lon="6.83801666529">
		<tag k="name" v="Garden" />
		<tag k="place" v="farm" />
		<tag k="ssr:stedsnr" v="213585" />
	</node>
	<node id="-586656" lat="62.7050250015" lon="6.70226944625">
		<tag k="name" v="Trondgarden" />
		<tag k="place" v="farm" />
		<tag k="ssr:stedsnr" v="212593" />
	</node>
	<node id="-587154" lat="62.721605557" lon="6.72206111555">
		<tag k="fixme" v="consider place=hamlet" />
		<tag k="name" v="Raknes" />
		<tag k="place" v="village" />
		<tag k="ssr:stedsnr" v="819004" />
	</node>
	<node id="-587152" lat="62.6931583371" lon="6.63056111584">
		<tag k="name" v="Bjørnarem" />
		<tag k="place" v="hamlet" />
		<tag k="ssr:stedsnr" v="809487" />
	</node>
	<node id="-587151" lat="62.705077776" lon="6.72552223096">
		<tag k="name" v="Vågane" />
		<tag k="place" v="farm" />
		<tag k="ssr:stedsnr" v="809226" />
	</node>
	<node id="-587150" lat="62.7265138893" lon="6.71799166766">
		<tag k="amenity" v="school" />
		<tag k="name" v="Raknes skule" />
		<tag k="ssr:stedsnr" v="809204" />
	</node>
	<node id="-587147" lat="62.6813277762" lon="6.6386750047">
		<tag k="name" v="Solbakken" />
		<tag k="place" v="farm" />
		<tag k="ssr:stedsnr" v="801977" />
	</node>
	<node id="-587146" lat="62.6797611068" lon="6.67625832684">
		<tag k="name" v="Bakken" />
		<tag k="place" v="farm" />
		<tag k="ssr:stedsnr" v="801974" />
	</node>
	<node id="-587145" lat="62.6618250035" lon="6.59246943937">
		<tag k="name" v="Litlebø" />
		<tag k="place" v="farm" />
		<tag k="ssr:stedsnr" v="801952" />
	</node>
	<node id="-586732" lat="62.7307500007" lon="6.7327527783">
		<tag k="name" v="Lunta" />
		<tag k="place" v="farm" />
		<tag k="ssr:stedsnr" v="445200" />
	</node>
	<node id="-586628" lat="62.7286444403" lon="6.72292776941">
		<tag k="name" v="Tomasgarden" />
		<tag k="place" v="farm" />
		<tag k="ssr:stedsnr" v="203239" />
	</node>
	<node id="-586627" lat="62.7305583304" lon="6.73490000976">
		<tag k="name" v="Søre Hellaren" />
		<tag k="place" v="farm" />
		<tag k="ssr:stedsnr" v="203237" />
	</node>
	<node id="-586626" lat="62.7158284014" lon="6.72660512736">
		<tag k="name" v="Nerland" />
		<tag k="place" v="hamlet" />
		<tag k="ssr:stedsnr" v="203233" />
	</node>
	<node id="-586304" lat="62.7414583352" lon="6.84542221858">
		<tag k="name" v="Ræstadholm" />
		<tag k="place" v="farm" />
		<tag k="ssr:stedsnr" v="334483" />
	</node>
	<node id="-586622" lat="62.6738722193" lon="6.67412222989">
		<tag k="name" v="Midsund" />
		<tag k="place" v="village" />
		<tag k="ssr:stedsnr" v="194946" />
	</node>
	<node id="-587132" lat="62.7472452564" lon="6.91694852855">
		<tag k="alt_name" v="Sundsbø" />
		<tag k="fixme" v="consider place=hamlet" />
		<tag k="name" v="Sundsbøen" />
		<tag k="place" v="farm" />
		<tag k="ssr:stedsnr" v="800089" />
	</node>
	<node id="-586615" lat="62.7195275455" lon="6.71668614152">
		<tag k="fixme" v="consider place=hamlet" />
		<tag k="name" v="Raknes" />
		<tag k="place" v="farm" />
		<tag k="ssr:stedsnr" v="194255" />
	</node>
	<node id="-586614" lat="62.7359166662" lon="6.72191943691">
		<tag k="name" v="Sandvika" />
		<tag k="place" v="farm" />
		<tag k="ssr:stedsnr" v="193115" />
	</node>
	<node id="-586609" lat="62.6861380594" lon="6.80571726021">
		<tag k="fixme" v="consider place=hamlet" />
		<tag k="name" v="Skottgarden" />
		<tag k="place" v="farm" />
		<tag k="ssr:stedsnr" v="193035" />
	</node>
	<node id="-586607" lat="62.7065694487" lon="6.92690000379">
		<tag k="name" v="Hammarholen" />
		<tag k="place" v="isolated_dwelling" />
		<tag k="ssr:stedsnr" v="172658" />
	</node>
	<node id="-587111" lat="62.7471083355" lon="6.91332499614">
		<tag k="name" v="Sundsbø" />
		<tag k="place" v="hamlet" />
		<tag k="ssr:stedsnr" v="758723" />
	</node>
	<node id="-586597" lat="62.7333972186" lon="6.8410805651">
		<tag k="name" v="Dalsbø" />
		<tag k="place" v="farm" />
		<tag k="ssr:stedsnr" v="152576" />
	</node>
	<node id="-587108" lat="62.7052111155" lon="6.71827499077">
		<tag k="name" v="Lunheim" />
		<tag k="place" v="farm" />
		<tag k="ssr:stedsnr" v="758618" />
	</node>
	<node id="-586591" lat="62.7036861128" lon="6.69899721267">
		<tag k="name" v="Røberg" />
		<tag k="place" v="farm" />
		<tag k="ssr:stedsnr" v="151570" />
	</node>
	<node id="-586583" lat="62.6609638932" lon="6.58821389407">
		<tag k="name" v="Seberg" />
		<tag k="place" v="farm" />
		<tag k="ssr:stedsnr" v="151166" />
	</node>
	<node id="-586582" lat="62.7300277813" lon="6.73003610262">
		<tag k="name" v="Orvika" />
		<tag k="place" v="farm" />
		<tag k="ssr:stedsnr" v="151061" />
	</node>
	<node id="-587091" lat="62.6873583317" lon="6.8298444542">
		<tag k="name" v="Porsmyra" />
		<tag k="place" v="farm" />
		<tag k="ssr:stedsnr" v="758307" />
	</node>
	<node id="-587090" lat="62.7329750043" lon="6.80033055783">
		<tag k="name" v="Haugen" />
		<tag k="place" v="farm" />
		<tag k="ssr:stedsnr" v="758271" />
	</node>
	<node id="-586576" lat="62.7052836736" lon="6.91036041097">
		<tag k="fixme" v="consider place=hamlet" />
		<tag k="name" v="Reiten" />
		<tag k="place" v="farm" />
		<tag k="ssr:stedsnr" v="148707" />
	</node>
	<node id="-586808" lat="62.6575666651" lon="6.60592500204">
		<tag k="name" v="Gangstadreiten" />
		<tag k="place" v="farm" />
		<tag k="ssr:stedsnr" v="515145" />
	</node>
	<node id="-586574" lat="62.7206527814" lon="6.71776944718">
		<tag k="name" v="Veltane" />
		<tag k="place" v="hamlet" />
		<tag k="ssr:stedsnr" v="143720" />
	</node>
	<node id="-586573" lat="62.7075003257" lon="6.69597828636">
		<tag k="name" v="Uglvik" />
		<tag k="place" v="hamlet" />
		<tag k="ssr:stedsnr" v="142444" />
	</node>
	<node id="-586572" lat="62.7173527819" lon="6.73879999306">
		<tag k="name" v="Lægda" />
		<tag k="place" v="farm" />
		<tag k="ssr:stedsnr" v="142226" />
	</node>
	<node id="-587083" lat="62.6583361107" lon="6.60240832755">
		<tag k="name" v="Gangstadlia" />
		<tag k="place" v="farm" />
		<tag k="ssr:stedsnr" v="758142" />
	</node>
	<node id="-586569" lat="62.6643305557" lon="6.58757221437">
		<tag k="name" v="Drynjasundreiten" />
		<tag k="place" v="farm" />
		<tag k="ssr:stedsnr" v="133941" />
	</node>
	<node id="-586566" lat="62.7277722204" lon="6.71708332622">
		<tag k="name" v="Myrstad" />
		<tag k="place" v="farm" />
		<tag k="ssr:stedsnr" v="132816" />
	</node>
	<node id="-587076" lat="62.6915333309" lon="6.85626944543">
		<tag k="name" v="Gjerdet" />
		<tag k="place" v="farm" />
		<tag k="ssr:stedsnr" v="755677" />
	</node>
	<node id="-587075" lat="62.7190583375" lon="6.73854444513">
		<tag k="name" v="Skjelvika" />
		<tag k="place" v="farm" />
		<tag k="ssr:stedsnr" v="749211" />
	</node>
	<node id="-586408" lat="62.716201197" lon="6.72544342134">
		<tag k="fixme" v="consider place=hamlet" />
		<tag k="name" v="Nerland" />
		<tag k="place" v="farm" />
		<tag k="ssr:stedsnr" v="981325" />
	</node>
	<node id="-586555" lat="62.7245972256" lon="6.9161416708">
		<tag k="name" v="Gamlesetra" />
		<tag k="place" v="locality" />
		<tag k="ssr:stedsnr" v="92905" />
	</node>
	<node id="-587065" lat="62.6526166697" lon="6.55038888248">
		<tag k="name" v="Vardneset" />
		<tag k="place" v="farm" />
		<tag k="ssr:stedsnr" v="740472" />
	</node>
	<node id="-587064" lat="62.6523166647" lon="6.57438332665">
		<tag k="name" v="Flesjebukthaugen" />
		<tag k="place" v="isolated_dwelling" />
		<tag k="ssr:stedsnr" v="740471" />
	</node>
	<node id="-587063" lat="62.6564666679" lon="6.60428610331">
		<tag k="name" v="Gangstad" />
		<tag k="place" v="farm" />
		<tag k="ssr:stedsnr" v="740248" />
	</node>
	<node id="-587061" lat="62.7205921179" lon="6.72326993709">
		<tag k="fixme" v="consider place=hamlet" />
		<tag k="name" v="Raknes" />
		<tag k="place" v="farm" />
		<tag k="ssr:stedsnr" v="739916" />
	</node>
	<node id="-587060" lat="62.7289694425" lon="6.7105333352">
		<tag k="name" v="Solheim" />
		<tag k="place" v="farm" />
		<tag k="ssr:stedsnr" v="739831" />
	</node>
	<node id="-587058" lat="62.7323038547" lon="6.79293740085">
		<tag k="fixme" v="consider place=hamlet" />
		<tag k="name" v="Rørset" />
		<tag k="place" v="farm" />
		<tag k="ssr:stedsnr" v="739071" />
	</node>
	<node id="-587057" lat="62.7147343612" lon="6.93121017671">
		<tag k="fixme" v="consider place=hamlet" />
		<tag k="name" v="Sølvika" />
		<tag k="place" v="farm" />
		<tag k="ssr:stedsnr" v="739046" />
	</node>
	<node id="-586540" lat="62.7058361111" lon="6.70170000852">
		<tag k="name" v="Jogarden" />
		<tag k="place" v="farm" />
		<tag k="ssr:stedsnr" v="91606" />
	</node>
	<node id="-586535" lat="62.6976249984" lon="6.6976138921">
		<tag k="name" v="Akselvoll" />
		<tag k="place" v="hamlet" />
		<tag k="ssr:stedsnr" v="91584" />
	</node>
	<node id="-587045" lat="62.7338944419" lon="6.83106110209">
		<tag k="name" v="Plassen" />
		<tag k="place" v="farm" />
		<tag k="ssr:stedsnr" v="698588" />
	</node>
	<node id="-587042" lat="62.7368499966" lon="6.84484999494">
		<tag k="name" v="Leitet" />
		<tag k="place" v="farm" />
		<tag k="ssr:stedsnr" v="698527" />
	</node>
	<node id="-587040" lat="62.7338916667" lon="6.836027771">
		<tag k="name" v="Stegan" />
		<tag k="place" v="farm" />
		<tag k="ssr:stedsnr" v="698516" />
	</node>
	<node id="-586517" lat="62.6658527773" lon="6.5959722269">
		<tag k="name" v="Nyheim" />
		<tag k="place" v="farm" />
		<tag k="ssr:stedsnr" v="91126" />
	</node>
	<node id="-586798" lat="62.7130083358" lon="6.74602778334">
		<tag k="name" v="Stølhaugen" />
		<tag k="place" v="farm" />
		<tag k="ssr:stedsnr" v="506231" />
	</node>
	<node id="-586456" lat="62.739061112" lon="6.85656666057">
		<tag k="name" v="Bjerkeland" />
		<tag k="place" v="farm" />
		<tag k="ssr:stedsnr" v="30520" />
	</node>
	<node id="-586509" lat="62.7323527791" lon="6.79821388162">
		<tag k="name" v="Lunheim" />
		<tag k="place" v="farm" />
		<tag k="ssr:stedsnr" v="87684" />
	</node>
	<node id="-586508" lat="62.7112349813" lon="6.73704729622">
		<tag k="fixme" v="consider place=hamlet" />
		<tag k="name" v="Rakvåg" />
		<tag k="place" v="farm" />
		<tag k="ssr:stedsnr" v="81242" />
	</node>
	<node id="-587019" lat="62.6626738959" lon="6.58585527936">
		<tag k="fixme" v="consider place=hamlet" />
		<tag k="name" v="Drynjasund" />
		<tag k="place" v="farm" />
		<tag k="ssr:stedsnr" v="697151" />
	</node>
	<node id="-586506" lat="62.7160722251" lon="6.74336111818">
		<tag k="name" v="Rakvåg" />
		<tag k="place" v="farm" />
		<tag k="ssr:stedsnr" v="81237" />
	</node>
	<node id="-586505" lat="62.7278416676" lon="6.72154165912">
		<tag k="name" v="Svenskegarden" />
		<tag k="place" v="farm" />
		<tag k="ssr:stedsnr" v="81217" />
	</node>
	<node id="-586503" lat="62.6711083302" lon="6.66854999746">
		<tag k="fixme" v="consider natural=beach + surface=sand" />
		<tag k="leisure" v="swimming_area" />
		<tag k="name" v="Leirvika" />
		<tag k="place" v="locality" />
		<tag k="ssr:stedsnr" v="81053" />
	</node>
	<node id="-586502" lat="62.6795111125" lon="6.67575000389">
		<tag k="name" v="Bakkane" />
		<tag k="place" v="farm" />
		<tag k="ssr:stedsnr" v="81044" />
	</node>
	<node id="-586500" lat="62.6936472256" lon="6.68683889482">
		<tag k="name" v="Nygård" />
		<tag k="place" v="farm" />
		<tag k="ssr:stedsnr" v="72989" />
	</node>
	<node id="-586499" lat="62.6858500014" lon="6.63763333517">
		<tag k="name" v="Nygårdsvika" />
		<tag k="place" v="isolated_dwelling" />
		<tag k="ssr:stedsnr" v="72987" />
	</node>
	<node id="-586496" lat="62.670622219" lon="6.65865278694">
		<tag k="name" v="Ramberget" />
		<tag k="place" v="farm" />
		<tag k="ssr:stedsnr" v="72948" />
	</node>
	<node id="-586495" lat="62.6630555556" lon="6.57833333974">
		<tag k="name" v="Drynjasundet" />
		<tag k="place" v="farm" />
		<tag k="ssr:stedsnr" v="72928" />
	</node>
	<node id="-586494" lat="62.6667194485" lon="6.58841943741">
		<tag k="name" v="Stormyr" />
		<tag k="place" v="farm" />
		<tag k="ssr:stedsnr" v="72926" />
	</node>
	<node id="-586492" lat="62.6558888848" lon="6.57110556488">
		<tag k="name" v="Leirstad" />
		<tag k="place" v="farm" />
		<tag k="ssr:stedsnr" v="72471" />
	</node>
	<node id="-586491" lat="62.6592500033" lon="6.6503750034">
		<tag k="name" v="Søberg" />
		<tag k="place" v="farm" />
		<tag k="ssr:stedsnr" v="72465" />
	</node>
	<node id="-587002" lat="62.6637805535" lon="6.6635472254">
		<tag k="name" v="Håbet" />
		<tag k="place" v="farm" />
		<tag k="ssr:stedsnr" v="679936" />
	</node>
	<node id="-587000" lat="62.7090751629" lon="6.69087432107">
		<tag k="fixme" v="consider place=hamlet" />
		<tag k="name" v="Hamna" />
		<tag k="place" v="farm" />
		<tag k="ssr:stedsnr" v="679906" />
	</node>
	<node id="-586999" lat="62.7042083365" lon="6.71051666333">
		<tag k="name" v="Sletten" />
		<tag k="place" v="farm" />
		<tag k="ssr:stedsnr" v="679902" />
	</node>
	<node id="-586995" lat="62.6515833311" lon="6.56837500209">
		<tag k="name" v="Berget" />
		<tag k="place" v="farm" />
		<tag k="ssr:stedsnr" v="679451" />
	</node>
	<node id="-586994" lat="62.6564944422" lon="6.62851388149">
		<tag k="name" v="Rosvik" />
		<tag k="place" v="farm" />
		<tag k="ssr:stedsnr" v="679448" />
	</node>
	<node id="-586988" lat="62.6987166635" lon="6.6999916604">
		<tag k="name" v="Naustvik" />
		<tag k="place" v="farm" />
		<tag k="ssr:stedsnr" v="657681" />
	</node>
	<node id="-586471" lat="62.7069972244" lon="6.86543056259">
		<tag k="name" v="Gurosetra" />
		<tag k="place" v="locality" />
		<tag k="ssr:stedsnr" v="31526" />
	</node>
	<node id="-586790" lat="62.6934071661" lon="6.63243266618">
		<tag k="fixme" v="consider place=hamlet" />
		<tag k="name" v="Bjørnarem" />
		<tag k="place" v="farm" />
		<tag k="ssr:stedsnr" v="497989" />
	</node>
	<node id="-586462" lat="62.7046527774" lon="6.72816944978">
		<tag k="name" v="Strømme" />
		<tag k="place" v="farm" />
		<tag k="ssr:stedsnr" v="30572" />
	</node>
	<node id="-586461" lat="62.7074888907" lon="6.92863888138">
		<tag k="name" v="Jenset" />
		<tag k="place" v="farm" />
		<tag k="ssr:stedsnr" v="30566" />
	</node>
	<node id="-586972" lat="62.7367444475" lon="6.84134443882">
		<tag k="name" v="Nytun" />
		<tag k="place" v="farm" />
		<tag k="ssr:stedsnr" v="637578" />
	</node>
	<node id="-586971" lat="62.7083388922" lon="6.86285000117">
		<tag k="name" v="Gurisetra" />
		<tag k="place" v="locality" />
		<tag k="ssr:stedsnr" v="637566" />
	</node>
	<node id="-586968" lat="62.6764666699" lon="6.90412499475">
		<tag k="name" v="Larsgarden" />
		<tag k="place" v="farm" />
		<tag k="ssr:stedsnr" v="637495" />
	</node>
	<node id="-586959" lat="62.6737666682" lon="6.73460833454">
		<tag k="name" v="Klauset" />
		<tag k="place" v="hamlet" />
		<tag k="ssr:stedsnr" v="636410" />
	</node>
	<node id="-586530" lat="62.6751833348" lon="6.89961944353">
		<tag k="name" v="Jogarden" />
		<tag k="place" v="farm" />
		<tag k="ssr:stedsnr" v="91479" />
	</node>
	<node id="-586954" lat="62.7380277737" lon="6.83453333853">
		<tag k="name" v="Naustplassen" />
		<tag k="place" v="locality" />
		<tag k="ssr:stedsnr" v="636523" />
	</node>
	<node id="-586441" lat="62.7273611154" lon="6.75926388275">
		<tag k="name" v="Lyngstad" />
		<tag k="place" v="farm" />
		<tag k="ssr:stedsnr" v="30252" />
	</node>
	<node id="-586948" lat="62.6710694411" lon="6.71959167101">
		<tag k="name" v="Myrvoll" />
		<tag k="place" v="farm" />
		<tag k="ssr:stedsnr" v="633699" />
	</node>
	<node id="-586946" lat="62.7296027792" lon="6.72871666756">
		<tag k="name" v="Skulplassen" />
		<tag k="place" v="farm" />
		<tag k="ssr:stedsnr" v="627219" />
	</node>
	<node id="-586699" lat="62.6809666699" lon="6.67148611851">
		<tag k="name" v="Ytre Midsund" />
		<tag k="place" v="hamlet" />
		<tag k="ssr:stedsnr" v="263067" />
	</node>
	<node id="-586944" lat="62.6721249973" lon="6.67539444898">
		<tag k="name" v="Indre Midsund" />
		<tag k="place" v="hamlet" />
		<tag k="ssr:stedsnr" v="627054" />
	</node>
	<node id="-586431" lat="62.7077186989" lon="6.69841845566">
		<tag k="fixme" v="consider place=hamlet" />
		<tag k="name" v="Uglvik" />
		<tag k="place" v="farm" />
		<tag k="ssr:stedsnr" v="21252" />
	</node>
	<node id="-586940" lat="62.6763055569" lon="6.9072749968">
		<tag k="name" v="Nordigarden" />
		<tag k="place" v="farm" />
		<tag k="ssr:stedsnr" v="626377" />
	</node>
	<node id="-586698" lat="62.6804194413" lon="6.67323056495">
		<tag k="name" v="Myrane" />
		<tag k="place" v="farm" />
		<tag k="ssr:stedsnr" v="263065" />
	</node>
	<node id="-586936" lat="62.7124444446" lon="6.69281943963">
		<tag k="name" v="Risvika" />
		<tag k="place" v="farm" />
		<tag k="ssr:stedsnr" v="618907" />
	</node>
	<node id="-586423" lat="62.6964583368" lon="6.68420834117">
		<tag k="name" v="Stølen" />
		<tag k="place" v="farm" />
		<tag k="ssr:stedsnr" v="12908" />
	</node>
	<node id="-586933" lat="62.6938277756" lon="6.62591666289">
		<tag k="fixme" v="multiple name tags, choose one and add the other to alt_name" />
		<tag k="name" v="Nordheim;Buhaugen" />
		<tag k="place" v="farm" />
		<tag k="ssr:stedsnr" v="618872" />
	</node>
	<node id="-586932" lat="62.7352805582" lon="6.71196389394">
		<tag k="fixme" v="consider place=hamlet" />
		<tag k="name" v="Tangen" />
		<tag k="place" v="village" />
		<tag k="ssr:stedsnr" v="618807" />
	</node>
	<node id="-586927" lat="62.7407490235" lon="6.87011990584">
		<tag k="fixme" v="consider place=hamlet" />
		<tag k="name" v="Bendset" />
		<tag k="place" v="farm" />
		<tag k="ssr:stedsnr" v="618101" />
	</node>
	<node id="-586926" lat="62.7323416701" lon="6.73767778283">
		<tag k="name" v="Nørdre Hellaren" />
		<tag k="place" v="farm" />
		<tag k="ssr:stedsnr" v="618098" />
	</node>
	<node id="-586923" lat="62.7106388909" lon="6.74019444486">
		<tag k="fixme" v="consider place=hamlet" />
		<tag k="name" v="Rakvåg" />
		<tag k="place" v="village" />
		<tag k="ssr:stedsnr" v="618079" />
	</node>
	<node id="-586920" lat="62.7094805564" lon="6.89388055613">
		<tag k="name" v="Stølen" />
		<tag k="place" v="locality" />
		<tag k="ssr:stedsnr" v="618072" />
	</node>
	<node id="-586407" lat="62.6960006411" lon="6.69464975027">
		<tag k="fixme" v="consider place=hamlet" />
		<tag k="name" v="Akselvoll" />
		<tag k="place" v="farm" />
		<tag k="ssr:stedsnr" v="981307" />
	</node>
	<node id="-586406" lat="62.6835170223" lon="6.63908860961">
		<tag k="fixme" v="consider place=hamlet" />
		<tag k="name" v="Bløfeta" />
		<tag k="place" v="farm" />
		<tag k="ssr:stedsnr" v="981306" />
	</node>
	<node id="-586405" lat="62.6810446072" lon="6.67157319271">
		<tag k="fixme" v="consider place=hamlet" />
		<tag k="name" v="Ytre Midsund" />
		<tag k="place" v="farm" />
		<tag k="ssr:stedsnr" v="981304" />
	</node>
	<node id="-586404" lat="62.673521796" lon="6.66301234219">
		<tag k="fixme" v="consider place=hamlet" />
		<tag k="name" v="Midsundholmen" />
		<tag k="place" v="farm" />
		<tag k="ssr:stedsnr" v="981303" />
	</node>
	<node id="-586403" lat="62.672698927" lon="6.67731864381">
		<tag k="fixme" v="consider place=hamlet" />
		<tag k="name" v="Indre Midsund" />
		<tag k="place" v="farm" />
		<tag k="ssr:stedsnr" v="981302" />
	</node>
	<node id="-586913" lat="62.738830557" lon="6.85502778149">
		<tag k="alt_name" v="Gulnes" />
		<tag k="name" v="Gullneset" />
		<tag k="place" v="farm" />
		<tag k="ssr:stedsnr" v="596624" />
	</node>
	<node id="-586691" lat="62.6943083344" lon="6.68266110257">
		<tag k="name" v="Krabbevika" />
		<tag k="place" v="farm" />
		<tag k="ssr:stedsnr" v="254985" />
	</node>
	<node id="-586384" lat="62.7346638897" lon="6.84590554959">
		<tag k="name" v="Sørstølan" />
		<tag k="place" v="farm" />
		<tag k="ssr:stedsnr" v="395556" />
	</node>
	<node id="-586377" lat="62.706708332" lon="6.69947222584">
		<tag k="name" v="Myra" />
		<tag k="place" v="farm" />
		<tag k="ssr:stedsnr" v="394576" />
	</node>
	<node id="-586884" lat="62.731233333" lon="6.77250000819">
		<tag k="name" v="Remmen" />
		<tag k="place" v="farm" />
		<tag k="ssr:stedsnr" v="576226" />
	</node>
	<node id="-586883" lat="62.6636500035" lon="6.5801472203">
		<tag k="name" v="Drynjasundremma" />
		<tag k="place" v="farm" />
		<tag k="ssr:stedsnr" v="576146" />
	</node>
	<node id="-586361" lat="62.6588388848" lon="6.58103610305">
		<tag k="name" v="Lyngstad" />
		<tag k="place" v="farm" />
		<tag k="ssr:stedsnr" v="394148" />
	</node>
	<node id="-586772" lat="62.7352249987" lon="6.84795556027">
		<tag k="name" v="Grønstøl" />
		<tag k="place" v="farm" />
		<tag k="ssr:stedsnr" v="456544" />
	</node>
	<node id="-586358" lat="62.6931833327" lon="6.81157777645">
		<tag k="name" v="Orsetsetra" />
		<tag k="place" v="locality" />
		<tag k="ssr:stedsnr" v="394113" />
	</node>
	<node id="-586868" lat="62.7379111091" lon="6.71726944102">
		<tag k="name" v="Myran" />
		<tag k="place" v="farm" />
		<tag k="ssr:stedsnr" v="566208" />
	</node>
	<node id="-586353" lat="62.6835694422" lon="6.63865834312">
		<tag k="name" v="Bløfeta" />
		<tag k="place" v="hamlet" />
		<tag k="ssr:stedsnr" v="384563" />
	</node>
	<node id="-586350" lat="62.7126083294" lon="6.73605000869">
		<tag k="name" v="Vollane" />
		<tag k="place" v="farm" />
		<tag k="ssr:stedsnr" v="384205" />
	</node>
	<node id="-586860" lat="62.6810305518" lon="6.66773888604">
		<tag k="name" v="Kolbeingjerdet" />
		<tag k="place" v="quarter" />
		<tag k="ssr:stedsnr" v="566048" />
	</node>
	<node id="-586347" lat="62.6945722181" lon="6.68895555535">
		<tag k="name" v="Løken" />
		<tag k="place" v="farm" />
		<tag k="ssr:stedsnr" v="384065" />
	</node>
	<node id="-586857" lat="62.662313889" lon="6.65956388125">
		<tag k="name" v="Ospeteigen" />
		<tag k="place" v="farm" />
		<tag k="ssr:stedsnr" v="557934" />
	</node>
	<node id="-586428" lat="62.7289888897" lon="6.72567221838">
		<tag k="name" v="Bakken" />
		<tag k="place" v="farm" />
		<tag k="ssr:stedsnr" v="20192" />
	</node>
	<node id="-586337" lat="62.720630559" lon="6.71687222282">
		<tag k="name" v="Hagen" />
		<tag k="place" v="farm" />
		<tag k="ssr:stedsnr" v="375919" />
	</node>
	<node id="-586847" lat="62.7029315975" lon="6.90483802479">
		<tag k="fixme" v="consider place=hamlet" />
		<tag k="name" v="Nord-Heggdal" />
		<tag k="place" v="farm" />
		<tag k="ssr:stedsnr" v="557025" />
	</node>
	<node id="-586334" lat="62.7016833367" lon="6.70468610433">
		<tag k="name" v="Gråhaugen" />
		<tag k="place" v="farm" />
		<tag k="ssr:stedsnr" v="375898" />
	</node>
	<node id="-586333" lat="62.6997833347" lon="6.64156666874">
		<tag k="name" v="Vølen" />
		<tag k="place" v="farm" />
		<tag k="ssr:stedsnr" v="375893" />
	</node>
	<node id="-586840" lat="62.7224527764" lon="6.89803333883">
		<tag k="name" v="Myrsetstølen" />
		<tag k="place" v="locality" />
		<tag k="ssr:stedsnr" v="516921" />
	</node>
	<node id="-586596" lat="62.7084527744" lon="6.7411444515">
		<tag k="name" v="Hole" />
		<tag k="place" v="hamlet" />
		<tag k="ssr:stedsnr" v="151759" />
	</node>
	<node id="-586326" lat="62.6962554084" lon="6.88124669508">
		<tag k="fixme" v="consider place=hamlet" />
		<tag k="name" v="Hagset" />
		<tag k="place" v="farm" />
		<tag k="ssr:stedsnr" v="375034" />
	</node>
	<node id="-586325" lat="62.7075388908" lon="6.69656666319">
		<tag k="fixme" v="multiple name tags, choose one and add the other to alt_name" />
		<tag k="name" v="Remma;Uglvik" />
		<tag k="place" v="farm" />
		<tag k="ssr:stedsnr" v="357854" />
	</node>
	<node id="-586825" lat="62.6479083372" lon="6.53416110205">
		<tag k="name" v="Fjøsan" />
		<tag k="place" v="locality" />
		<tag k="ssr:stedsnr" v="516116" />
	</node>
	<node id="-586822" lat="62.6953861155" lon="6.79053889152">
		<tag k="name" v="Vikasetra" />
		<tag k="place" v="locality" />
		<tag k="ssr:stedsnr" v="515719" />
	</node>
	<node id="-587328" lat="62.7482694426" lon="6.923327777">
		<tag k="name" v="Stavik" />
		<tag k="place" v="farm" />
		<tag k="ssr:stedsnr" v="951060" />
	</node>
	<node id="-586809" lat="62.7311527776" lon="6.77468611749">
		<tag k="name" v="Nyheim" />
		<tag k="place" v="farm" />
		<tag k="ssr:stedsnr" v="515254" />
	</node>
	<node id="-587320" lat="62.7231375147" lon="6.93022767761">
		<tag k="alt_name" v="Svinset" />
		<tag k="fixme" v="consider place=hamlet" />
		<tag k="name" v="Svinnset" />
		<tag k="place" v="farm" />
		<tag k="ssr:stedsnr" v="941539" />
	</node>
	<node id="-587319" lat="62.7131333366" lon="6.85909167215">
		<tag k="name" v="Vatnestølen" />
		<tag k="place" v="locality" />
		<tag k="ssr:stedsnr" v="941531" />
	</node>
	<node id="-587314" lat="62.6938583318" lon="6.84991666891">
		<tag k="name" v="Setra" />
		<tag k="place" v="locality" />
		<tag k="ssr:stedsnr" v="941232" />
	</node>
	<node id="-587310" lat="62.6968333349" lon="6.69311943957">
		<tag k="name" v="Akslahaugen" />
		<tag k="old_name" v="Akselvoll" />
		<tag k="place" v="farm" />
		<tag k="ssr:stedsnr" v="940555" />
	</node>
	<node id="-586797" lat="62.7151916709" lon="6.74920556136">
		<tag k="name" v="Elvasletta" />
		<tag k="place" v="farm" />
		<tag k="ssr:stedsnr" v="506230" />
	</node>
	<node id="-586284" lat="62.6837710318" lon="6.77039952415">
		<tag k="name" v="Sør Heggdal" />
		<tag k="place" v="hamlet" />
		<tag k="ssr:stedsnr" v="333478" />
	</node>
	<node id="-586795" lat="62.7299944473" lon="6.73117222234">
		<tag k="name" v="Rabben" />
		<tag k="place" v="farm" />
		<tag k="ssr:stedsnr" v="506206" />
	</node>
	<node id="-586791" lat="62.6903611096" lon="6.6388972202">
		<tag k="name" v="Sjøvika" />
		<tag k="place" v="farm" />
		<tag k="ssr:stedsnr" v="497991" />
	</node>
	<node id="-587302" lat="62.7355798925" lon="6.71429382518">
		<tag k="fixme" v="consider place=hamlet" />
		<tag k="name" v="Raknestangen" />
		<tag k="place" v="farm" />
		<tag k="ssr:stedsnr" v="940065" />
	</node>
	<node id="-586789" lat="62.6825194433" lon="6.63766388382">
		<tag k="name" v="Nygard" />
		<tag k="place" v="farm" />
		<tag k="ssr:stedsnr" v="497974" />
	</node>
	<node id="-586788" lat="62.6587611147" lon="6.60076388693">
		<tag k="name" v="Lia" />
		<tag k="place" v="farm" />
		<tag k="ssr:stedsnr" v="497948" />
	</node>
	<node id="-586246" lat="62.6832369316" lon="6.77174254751">
		<tag k="fixme" v="consider place=hamlet" />
		<tag k="name" v="Sør-Heggdal" />
		<tag k="place" v="farm" />
		<tag k="ssr:stedsnr" v="315034" />
	</node>
	<node id="-587297" lat="62.7332527794" lon="6.93294721256">
		<tag k="name" v="Løneset" />
		<tag k="place" v="isolated_dwelling" />
		<tag k="ssr:stedsnr" v="937719" />
	</node>
	<node id="-587296" lat="62.7081472263" lon="6.69286112045">
		<tag k="name" v="Teigane" />
		<tag k="place" v="farm" />
		<tag k="ssr:stedsnr" v="931200" />
	</node>
	<node id="-587295" lat="62.6734027822" lon="6.67747777851">
		<tag k="name" v="Lyngja" />
		<tag k="place" v="farm" />
		<tag k="ssr:stedsnr" v="931060" />
	</node>
	<node id="-586620" lat="62.663527775" lon="6.59498611552">
		<tag k="name" v="Nordheim" />
		<tag k="place" v="farm" />
		<tag k="ssr:stedsnr" v="194925" />
	</node>
	<node id="-587291" lat="62.7351500033" lon="6.71290556435">
		<tag k="name" v="Vollen" />
		<tag k="place" v="farm" />
		<tag k="ssr:stedsnr" v="931217" />
	</node>
	<node id="-587289" lat="62.6884583324" lon="6.67124999628">
		<tag k="name" v="Stormyra" />
		<tag k="place" v="farm" />
		<tag k="ssr:stedsnr" v="922994" />
	</node>
	<node id="-586264" lat="62.7347750015" lon="6.83336111962">
		<tag k="name" v="Bøtun" />
		<tag k="place" v="farm" />
		<tag k="ssr:stedsnr" v="330728" />
	</node>
	<node id="-586262" lat="62.7147166666" lon="6.74567499431">
		<tag k="name" v="Nyheim" />
		<tag k="place" v="farm" />
		<tag k="ssr:stedsnr" v="324228" />
	</node>
	<node id="-587284" lat="62.6602760655" lon="6.65827415271">
		<tag k="fixme" v="consider place=hamlet" />
		<tag k="name" v="Høgset" />
		<tag k="place" v="farm" />
		<tag k="ssr:stedsnr" v="922935" />
	</node>
	<node id="-586769" lat="62.6998861103" lon="6.79127500825">
		<tag k="historic" v="shieling" />
		<tag k="name" v="Heggdalssetra" />
		<tag k="place" v="locality" />
		<tag k="ssr:stedsnr" v="455694" />
	</node>
	<node id="-586256" lat="62.6699550293" lon="6.64298656591">
		<tag k="fixme" v="consider place=hamlet" />
		<tag k="name" v="Blø" />
		<tag k="place" v="farm" />
		<tag k="ssr:stedsnr" v="315948" />
	</node>
	<node id="-586250" lat="62.7348100972" lon="6.8411243571">
		<tag k="fixme" v="consider place=hamlet" />
		<tag k="name" v="Ræstad" />
		<tag k="place" v="farm" />
		<tag k="ssr:stedsnr" v="315122" />
	</node>
	<node id="-587272" lat="62.6991861118" lon="6.89651110222">
		<tag k="name" v="Kleiva" />
		<tag k="place" v="farm" />
		<tag k="ssr:stedsnr" v="900731" />
	</node>
	<node id="-586247" lat="62.6879237277" lon="6.82116261052">
		<tag k="fixme" v="consider place=hamlet" />
		<tag k="name" v="Orset" />
		<tag k="place" v="farm" />
		<tag k="ssr:stedsnr" v="315050" />
	</node>
	<node id="-587270" lat="62.7445972261" lon="6.88715000258">
		<tag k="name" v="Bendsethagen" />
		<tag k="place" v="locality" />
		<tag k="ssr:stedsnr" v="900658" />
	</node>
	<node id="-587267" lat="62.7061323753" lon="6.92306439585">
		<tag k="fixme" v="consider place=hamlet" />
		<tag k="name" v="Jenset" />
		<tag k="place" v="farm" />
		<tag k="ssr:stedsnr" v="881693" />
	</node>
</osm>
