<?xml version="1.0" encoding="UTF-8"?>
<osm generator="osmapis" version="0.6">
	<node id="-587392" lat="62.7256777815" lon="6.79033333931">
		<tag k="highway" v="path" />
		<tag k="name" v="Mjåstien" />
		<tag k="ssr:stedsnr" v="91243" />
	</node>
	<node id="-587136" lat="62.6510222229" lon="6.55922221924">
		<tag k="bridge" v="yes" />
		<tag k="layer" v="1" />
		<tag k="name" v="Drynjasundbrua" />
		<tag k="ssr:stedsnr" v="330310" />
	</node>
	<node id="-587228" lat="62.7166694466" lon="6.74940554974">
		<tag k="bridge" v="yes" />
		<tag k="layer" v="1" />
		<tag k="name" v="Torsvikbrua" />
		<tag k="ssr:stedsnr" v="391320" />
	</node>
	<node id="-587833" lat="62.7077083366" lon="6.93372500894">
		<tag k="fixme" v="verify maritime location" />
		<tag k="mooring" v="yes" />
		<tag k="name" v="Båtolastøa" />
		<tag k="place" v="locality" />
		<tag k="ssr:stedsnr" v="636594" />
	</node>
	<node id="-587672" lat="62.6998388877" lon="6.70374722139">
		<tag k="bridge" v="yes" />
		<tag k="layer" v="1" />
		<tag k="name" v="Kyrkjebrua" />
		<tag k="ssr:stedsnr" v="512301" />
	</node>
	<node id="-587673" lat="62.7193805559" lon="6.93767777932">
		<tag k="amenity" v="ferry_terminal" />
		<tag k="name" v="Solholmen ferjekai" />
		<tag k="ssr:stedsnr" v="512708" />
	</node>
	<node id="-587249" lat="62.7014722253" lon="6.69656388736">
		<tag k="landuse" v="harbour" />
		<tag k="name" v="Ugelvikhamna" />
		<tag k="seamark:type" v="harbour" />
		<tag k="ssr:stedsnr" v="394564" />
	</node>
	<node id="-587448" lat="62.6727666712" lon="6.66665000424">
		<tag k="bridge" v="yes" />
		<tag k="layer" v="1" />
		<tag k="name" v="Midsundbrua" />
		<tag k="ssr:stedsnr" v="148321" />
	</node>
	<node id="-587885" lat="62.7115222223" lon="6.72851111396">
		<tag k="bridge" v="yes" />
		<tag k="layer" v="1" />
		<tag k="name" v="Straumsbrua" />
		<tag k="ssr:stedsnr" v="694266" />
	</node>
	<node id="-587688" lat="62.7033750038" lon="6.70961666294">
		<tag k="highway" v="path" />
		<tag k="name" v="Fjøsbakken" />
		<tag k="ssr:stedsnr" v="515588" />
	</node>
	<node id="-587305" lat="62.7229944422" lon="6.93371943606">
		<tag k="bridge" v="yes" />
		<tag k="layer" v="1" />
		<tag k="name" v="Svinnsetbrua" />
		<tag k="ssr:stedsnr" v="27312" />
	</node>
	<node id="-587176" lat="62.6841666628" lon="6.77208333971">
		<tag k="bridge" v="yes" />
		<tag k="layer" v="1" />
		<tag k="name" v="Sørheggdalsbrua" />
		<tag k="ssr:stedsnr" v="334476" />
	</node>
	<node id="-587079" lat="62.6787416649" lon="6.67634721867">
		<tag k="bridge" v="yes" />
		<tag k="layer" v="1" />
		<tag k="name" v="Bakkebrua" />
		<tag k="ssr:stedsnr" v="270317" />
	</node>
	<node id="-587080" lat="62.7345916696" lon="6.83875555668">
		<tag k="bridge" v="yes" />
		<tag k="layer" v="1" />
		<tag k="name" v="Ræstadbrua" />
		<tag k="ssr:stedsnr" v="270321" />
	</node>
	<node id="-587889" lat="62.7177777801" lon="6.7191611143">
		<tag k="highway" v="path" />
		<tag k="name" v="Buråsvegen" />
		<tag k="ssr:stedsnr" v="697049" />
	</node>
	<node id="-587780" lat="62.7037388885" lon="6.90799444035">
		<tag k="bridge" v="yes" />
		<tag k="layer" v="1" />
		<tag k="name" v="Nordheggdalsbrua" />
		<tag k="ssr:stedsnr" v="577503" />
	</node>
	<node id="-587747" lat="62.7433805587" lon="6.88193055078">
		<tag k="bridge" v="yes" />
		<tag k="layer" v="1" />
		<tag k="name" v="Bendsetbrua" />
		<tag k="ssr:stedsnr" v="573295" />
	</node>
	<node id="-587106" lat="62.6397499974" lon="6.52360000317">
		<tag k="amenity" v="ferry_terminal" />
		<tag k="name" v="Dryna ferjekai" />
		<tag k="ssr:stedsnr" v="277305" />
	</node>
	<node id="-587649" lat="62.6810555548" lon="6.76130555013">
		<tag k="amenity" v="parking" />
		<tag k="name" v="Klausethjellen P-plass" />
		<tag k="ssr:stedsnr" v="464911" />
	</node>
</osm>
