<?xml version="1.0" encoding="UTF-8"?>
<osm generator="osmapis" version="0.6">
	<node id="-587776" lat="62.6951472255" lon="6.79463611828">
		<tag k="name" v="Vikanakken" />
		<tag k="natural" v="ridge" />
		<tag k="place" v="locality" />
		<tag k="ssr:stedsnr" v="576738" />
	</node>
	<node id="-587775" lat="62.7142277787" lon="6.79567777405">
		<tag k="name" v="Einseldekta" />
		<tag k="place" v="locality" />
		<tag k="ssr:stedsnr" v="576735" />
	</node>
	<node id="-587774" lat="62.7023999956" lon="6.77727222422">
		<tag k="name" v="Helgebotnen" />
		<tag k="natural" v="valley" />
		<tag k="place" v="locality" />
		<tag k="ssr:stedsnr" v="576724" />
	</node>
	<node id="-587773" lat="62.7077916627" lon="6.75778334149">
		<tag k="name" v="Skotet" />
		<tag k="natural" v="ridge" />
		<tag k="place" v="locality" />
		<tag k="ssr:stedsnr" v="576716" />
	</node>
	<node id="-587772" lat="62.6742527795" lon="6.73755276999">
		<tag k="name" v="Smihaugen" />
		<tag k="natural" v="hill" />
		<tag k="place" v="locality" />
		<tag k="ssr:stedsnr" v="576676" />
	</node>
	<node id="-587766" lat="62.6755750001" lon="6.91791943594">
		<tag k="name" v="Torveliberget" />
		<tag k="natural" v="hill" />
		<tag k="place" v="locality" />
		<tag k="ssr:stedsnr" v="576484" />
	</node>
	<node id="-587765" lat="62.673447225" lon="6.90199165795">
		<tag k="name" v="Nausthaugen" />
		<tag k="natural" v="hill" />
		<tag k="place" v="locality" />
		<tag k="ssr:stedsnr" v="576470" />
	</node>
	<node id="-587764" lat="62.6766333333" lon="6.89888054752">
		<tag k="name" v="Ragnhildhola" />
		<tag k="natural" v="valley" />
		<tag k="place" v="locality" />
		<tag k="ssr:stedsnr" v="576462" />
	</node>
	<node id="-587762" lat="62.6795388846" lon="6.59505000614">
		<tag k="name" v="Kjerringgrava" />
		<tag k="natural" v="valley" />
		<tag k="place" v="locality" />
		<tag k="ssr:stedsnr" v="576381" />
	</node>
	<node id="-587755" lat="62.6647500037" lon="6.59776666391">
		<tag k="name" v="Oterhaugen" />
		<tag k="natural" v="hill" />
		<tag k="place" v="locality" />
		<tag k="ssr:stedsnr" v="576119" />
	</node>
	<node id="-587754" lat="62.6598361122" lon="6.60604445112">
		<tag k="name" v="Malihaugen" />
		<tag k="natural" v="hill" />
		<tag k="place" v="locality" />
		<tag k="ssr:stedsnr" v="576110" />
	</node>
	<node id="-587750" lat="62.7325916705" lon="6.68966944883">
		<tag k="name" v="Stormyrhaugen" />
		<tag k="natural" v="hill" />
		<tag k="place" v="locality" />
		<tag k="ssr:stedsnr" v="575085" />
	</node>
	<node id="-587749" lat="62.7296749963" lon="6.67973333226">
		<tag k="name" v="Ålesundshaugen" />
		<tag k="natural" v="hill" />
		<tag k="place" v="locality" />
		<tag k="ssr:stedsnr" v="575081" />
	</node>
	<node id="-587746" lat="62.7016999996" lon="6.72783889087">
		<tag k="name" v="Ormedalsletta" />
		<tag k="place" v="locality" />
		<tag k="ssr:stedsnr" v="572693" />
	</node>
	<node id="-587745" lat="62.687516663" lon="6.78970833607">
		<tag k="name" v="Svarthammaren" />
		<tag k="natural" v="hill" />
		<tag k="place" v="locality" />
		<tag k="ssr:stedsnr" v="572686" />
	</node>
	<node id="-587742" lat="62.6934333332" lon="6.67223333696">
		<tag k="name" v="Kristofferberget" />
		<tag k="natural" v="hill" />
		<tag k="place" v="locality" />
		<tag k="ssr:stedsnr" v="567043" />
	</node>
	<node id="-587740" lat="62.7189138851" lon="6.71066667246">
		<tag k="name" v="Skoratua" />
		<tag k="natural" v="hill" />
		<tag k="place" v="locality" />
		<tag k="ssr:stedsnr" v="566204" />
	</node>
	<node id="-587738" lat="62.7070361096" lon="6.71960833305">
		<tag k="name" v="Fløhammaren" />
		<tag k="natural" v="hill" />
		<tag k="place" v="locality" />
		<tag k="ssr:stedsnr" v="566200" />
	</node>
	<node id="-587736" lat="62.6631361147" lon="6.6760916633">
		<tag k="name" v="Korsvikberga" />
		<tag k="natural" v="hill" />
		<tag k="place" v="locality" />
		<tag k="ssr:stedsnr" v="566064" />
	</node>
	<node id="-587732" lat="62.6712111119" lon="6.59158889533">
		<tag k="name" v="Skarvhamran" />
		<tag k="natural" v="hill" />
		<tag k="place" v="locality" />
		<tag k="ssr:stedsnr" v="557950" />
	</node>
	<node id="-587727" lat="62.7386055559" lon="6.91478611366">
		<tag k="name" v="Nakken" />
		<tag k="natural" v="hill" />
		<tag k="place" v="locality" />
		<tag k="ssr:stedsnr" v="557110" />
	</node>
	<node id="-587725" lat="62.7184444434" lon="6.85902777062">
		<tag k="name" v="Vassknausen" />
		<tag k="natural" v="hill" />
		<tag k="place" v="locality" />
		<tag k="ssr:stedsnr" v="557092" />
	</node>
	<node id="-587724" lat="62.7272305516" lon="6.8382555587">
		<tag k="name" v="Ræstaddalen" />
		<tag k="natural" v="valley" />
		<tag k="place" v="locality" />
		<tag k="ssr:stedsnr" v="557082" />
	</node>
	<node id="-587721" lat="62.7000972244" lon="6.77691387943">
		<tag k="fixme" v="consider natural=peak for the most distinct mountains in the district" />
		<tag k="name" v="Skiftingsvarden" />
		<tag k="natural" v="hill" />
		<tag k="place" v="locality" />
		<tag k="ssr:stedsnr" v="557040" />
	</node>
	<node id="-587711" lat="62.7037388884" lon="6.87350833791">
		<tag k="name" v="Korsen" />
		<tag k="place" v="locality" />
		<tag k="ssr:stedsnr" v="516741" />
	</node>
	<node id="-587710" lat="62.699366671" lon="6.88432777722">
		<tag k="name" v="Nøre Jølet" />
		<tag k="natural" v="cliff" />
		<tag k="ssr:stedsnr" v="516699" />
	</node>
	<node id="-587709" lat="62.6997055547" lon="6.88928054757">
		<tag k="name" v="Veaberga" />
		<tag k="natural" v="slope" />
		<tag k="place" v="locality" />
		<tag k="ssr:stedsnr" v="516698" />
	</node>
	<node id="-587708" lat="62.7386638895" lon="6.91492499409">
		<tag k="name" v="Krokstigen" />
		<tag k="natural" v="hill" />
		<tag k="place" v="locality" />
		<tag k="ssr:stedsnr" v="516690" />
	</node>
	<node id="-587707" lat="62.7137166703" lon="6.91117221667">
		<tag k="name" v="Gamleseterhaugane" />
		<tag k="natural" v="hill" />
		<tag k="place" v="locality" />
		<tag k="ssr:stedsnr" v="516659" />
	</node>
	<node id="-587706" lat="62.7372749976" lon="6.83286943645">
		<tag k="name" v="Nausthaugen" />
		<tag k="natural" v="hill" />
		<tag k="place" v="locality" />
		<tag k="ssr:stedsnr" v="516605" />
	</node>
	<node id="-587703" lat="62.674363888" lon="6.8900138862">
		<tag k="name" v="Gjerdet" />
		<tag k="natural" v="slope" />
		<tag k="place" v="locality" />
		<tag k="ssr:stedsnr" v="516442" />
	</node>
	<node id="-587702" lat="62.6719222206" lon="6.87778610807">
		<tag k="name" v="Skogen" />
		<tag k="natural" v="slope" />
		<tag k="place" v="locality" />
		<tag k="ssr:stedsnr" v="516367" />
	</node>
	<node id="-587701" lat="62.6924777811" lon="6.81917778553">
		<tag k="name" v="Småhamrane" />
		<tag k="natural" v="cliff" />
		<tag k="ssr:stedsnr" v="516354" />
	</node>
	<node id="-587700" lat="62.6860833294" lon="6.83028054722">
		<tag k="name" v="Porshaugane" />
		<tag k="natural" v="hill" />
		<tag k="place" v="locality" />
		<tag k="ssr:stedsnr" v="516269" />
	</node>
	<node id="-587699" lat="62.6905194446" lon="6.84096111334">
		<tag k="name" v="Hjellen" />
		<tag k="place" v="locality" />
		<tag k="ssr:stedsnr" v="516264" />
	</node>
	<node id="-587697" lat="62.6482500016" lon="6.5467444445">
		<tag k="name" v="Drynahellaren" />
		<tag k="place" v="locality" />
		<tag k="ssr:stedsnr" v="516014" />
	</node>
	<node id="-587696" lat="62.6978583315" lon="6.63380278643">
		<tag k="name" v="Strandhaugen" />
		<tag k="natural" v="hill" />
		<tag k="place" v="locality" />
		<tag k="ssr:stedsnr" v="515861" />
	</node>
	<node id="-587694" lat="62.7118638926" lon="6.7578416678">
		<tag k="name" v="Heggdalen" />
		<tag k="natural" v="valley" />
		<tag k="place" v="locality" />
		<tag k="ssr:stedsnr" v="515707" />
	</node>
	<node id="-587693" lat="62.7048999975" lon="6.76556944851">
		<tag k="name" v="Nakken" />
		<tag k="natural" v="ridge" />
		<tag k="place" v="locality" />
		<tag k="ssr:stedsnr" v="515695" />
	</node>
	<node id="-587687" lat="62.6729944475" lon="6.71899999319">
		<tag k="name" v="Hjellen" />
		<tag k="place" v="locality" />
		<tag k="ssr:stedsnr" v="515484" />
	</node>
	<node id="-587685" lat="62.6894861157" lon="6.74366111881">
		<tag k="name" v="Litleheia" />
		<tag k="natural" v="hill" />
		<tag k="place" v="locality" />
		<tag k="ssr:stedsnr" v="515366" />
	</node>
	<node id="-587683" lat="62.6761166636" lon="6.6364444465">
		<tag k="name" v="Brenthaugen" />
		<tag k="natural" v="hill" />
		<tag k="place" v="locality" />
		<tag k="ssr:stedsnr" v="515298" />
	</node>
	<node id="-587677" lat="62.7309916684" lon="6.70838889727">
		<tag k="name" v="Bjergan" />
		<tag k="natural" v="hill" />
		<tag k="place" v="locality" />
		<tag k="ssr:stedsnr" v="515044" />
	</node>
	<node id="-587669" lat="62.7035166628" lon="6.74209443733">
		<tag k="name" v="Litlehestøyra" />
		<tag k="natural" v="hill" />
		<tag k="place" v="locality" />
		<tag k="ssr:stedsnr" v="506229" />
	</node>
	<node id="-587666" lat="62.6747555573" lon="6.6555472253">
		<tag k="name" v="Reitsletta" />
		<tag k="place" v="locality" />
		<tag k="ssr:stedsnr" v="506051" />
	</node>
	<node id="-587660" lat="62.7060472248" lon="6.71070277711">
		<tag k="name" v="Jutulskaret" />
		<tag k="natural" v="valley" />
		<tag k="place" v="locality" />
		<tag k="ssr:stedsnr" v="497920" />
	</node>
	<node id="-587655" lat="62.6986916646" lon="6.75627777181">
		<tag k="name" v="Skarsheia" />
		<tag k="natural" v="slope" />
		<tag k="place" v="locality" />
		<tag k="ssr:stedsnr" v="497041" />
	</node>
	<node id="-587654" lat="62.6957999996" lon="6.80733888676">
		<tag k="fixme" v="consider natural=peak for the most distinct mountains in the district" />
		<tag k="name" v="Vikanakken" />
		<tag k="natural" v="hill" />
		<tag k="place" v="locality" />
		<tag k="ssr:stedsnr" v="497033" />
	</node>
	<node id="-587648" lat="62.7242638913" lon="6.9207249996">
		<tag k="fixme" v="consider natural=peak for the most distinct mountains in the district" />
		<tag k="name" v="Åsen" />
		<tag k="natural" v="hill" />
		<tag k="place" v="locality" />
		<tag k="ssr:stedsnr" v="456930" />
	</node>
	<node id="-587647" lat="62.7133861141" lon="6.82536387896">
		<tag k="name" v="Ræstaddalen" />
		<tag k="natural" v="valley" />
		<tag k="place" v="locality" />
		<tag k="ssr:stedsnr" v="456893" />
	</node>
	<node id="-587646" lat="62.7071138853" lon="6.91500832471">
		<tag k="fixme" v="consider natural=peak for the most distinct mountains in the district" />
		<tag k="name" v="Bruåsen" />
		<tag k="natural" v="hill" />
		<tag k="place" v="locality" />
		<tag k="ssr:stedsnr" v="456699" />
	</node>
	<node id="-587640" lat="62.7118083332" lon="6.73270834259">
		<tag k="name" v="Langhaugen" />
		<tag k="natural" v="hill" />
		<tag k="place" v="locality" />
		<tag k="ssr:stedsnr" v="455599" />
	</node>
	<node id="-587637" lat="62.7045111105" lon="6.74281945012">
		<tag k="name" v="Vasshaugen" />
		<tag k="natural" v="hill" />
		<tag k="place" v="locality" />
		<tag k="ssr:stedsnr" v="455523" />
	</node>
	<node id="-587636" lat="62.6703166688" lon="6.87157222548">
		<tag k="name" v="Hesthaugen" />
		<tag k="natural" v="hill" />
		<tag k="place" v="locality" />
		<tag k="ssr:stedsnr" v="455491" />
	</node>
	<node id="-587634" lat="62.6714083309" lon="6.87494167517">
		<tag k="name" v="Skogsfløyhammaren" />
		<tag k="natural" v="cliff" />
		<tag k="ssr:stedsnr" v="455366" />
	</node>
	<node id="-587632" lat="62.6809416689" lon="6.74022221913">
		<tag k="name" v="Dyrskarhaugen" />
		<tag k="natural" v="hill" />
		<tag k="place" v="locality" />
		<tag k="ssr:stedsnr" v="455340" />
	</node>
	<node id="-587627" lat="62.6830555591" lon="6.75907499691">
		<tag k="name" v="Hatten" />
		<tag k="natural" v="hill" />
		<tag k="place" v="locality" />
		<tag k="ssr:stedsnr" v="455251" />
	</node>
	<node id="-587626" lat="62.6935777764" lon="6.85688056297">
		<tag k="name" v="Hagen" />
		<tag k="natural" v="slope" />
		<tag k="place" v="locality" />
		<tag k="ssr:stedsnr" v="455235" />
	</node>
	<node id="-587625" lat="62.7214222206" lon="6.75564445321">
		<tag k="name" v="Fjellsenden" />
		<tag k="natural" v="ridge" />
		<tag k="place" v="locality" />
		<tag k="ssr:stedsnr" v="455222" />
	</node>
	<node id="-587623" lat="62.6904444488" lon="6.81373611588">
		<tag k="name" v="Fornakken" />
		<tag k="natural" v="ridge" />
		<tag k="place" v="locality" />
		<tag k="ssr:stedsnr" v="455130" />
	</node>
	<node id="-587621" lat="62.6453777765" lon="6.5314472232">
		<tag k="name" v="Franskehellaren" />
		<tag k="place" v="locality" />
		<tag k="ssr:stedsnr" v="455116" />
	</node>
	<node id="-587619" lat="62.7284888928" lon="6.68811666395">
		<tag k="name" v="Tjeldberga" />
		<tag k="natural" v="hill" />
		<tag k="place" v="locality" />
		<tag k="ssr:stedsnr" v="455094" />
	</node>
	<node id="-587617" lat="62.7217583353" lon="6.68636944968">
		<tag k="name" v="Kråkestauå" />
		<tag k="natural" v="hill" />
		<tag k="place" v="locality" />
		<tag k="ssr:stedsnr" v="455058" />
	</node>
	<node id="-587615" lat="62.6523666682" lon="6.54213055951">
		<tag k="name" v="Nøsa" />
		<tag k="natural" v="ridge" />
		<tag k="place" v="locality" />
		<tag k="ssr:stedsnr" v="455018" />
	</node>
	<node id="-587613" lat="62.6738777806" lon="6.62219167051">
		<tag k="name" v="Vasshaugen" />
		<tag k="natural" v="hill" />
		<tag k="place" v="locality" />
		<tag k="ssr:stedsnr" v="455007" />
	</node>
	<node id="-587610" lat="62.6799888899" lon="6.77267500147">
		<tag k="name" v="Bukken" />
		<tag k="natural" v="hill" />
		<tag k="place" v="locality" />
		<tag k="ssr:stedsnr" v="451681" />
	</node>
	<node id="-587609" lat="62.7148666644" lon="6.89128888383">
		<tag k="name" v="Lierhaugen" />
		<tag k="natural" v="hill" />
		<tag k="place" v="locality" />
		<tag k="ssr:stedsnr" v="456737" />
	</node>
	<node id="-587607" lat="62.6884499977" lon="6.62018888202">
		<tag k="name" v="Kvitskjervane" />
		<tag k="place" v="locality" />
		<tag k="ssr:stedsnr" v="446057" />
	</node>
	<node id="-587604" lat="62.7207500036" lon="6.70339722779">
		<tag k="name" v="Prekestolhaugen" />
		<tag k="natural" v="hill" />
		<tag k="place" v="locality" />
		<tag k="ssr:stedsnr" v="445194" />
	</node>
	<node id="-587603" lat="62.6617777774" lon="6.67889167585">
		<tag k="name" v="Årnesberga" />
		<tag k="natural" v="hill" />
		<tag k="place" v="locality" />
		<tag k="ssr:stedsnr" v="445065" />
	</node>
	<node id="-587599" lat="62.6781861113" lon="6.67123333488">
		<tag k="fixme" v="consider natural=peak for the most distinct mountains in the district" />
		<tag k="name" v="Flekkberga" />
		<tag k="natural" v="hill" />
		<tag k="place" v="locality" />
		<tag k="ssr:stedsnr" v="445051" />
	</node>
	<node id="-587598" lat="62.6555472233" lon="6.59346666063">
		<tag k="fixme" v="consider natural=peak for the most distinct mountains in the district" />
		<tag k="name" v="Rossfjellet" />
		<tag k="natural" v="hill" />
		<tag k="place" v="locality" />
		<tag k="ssr:stedsnr" v="437513" />
	</node>
	<node id="-587575" lat="62.696602781" lon="6.68616666915">
		<tag k="name" v="Rabbane" />
		<tag k="place" v="locality" />
		<tag k="ssr:stedsnr" v="263252" />
	</node>
	<node id="-587573" lat="62.7247694401" lon="6.70729721344">
		<tag k="name" v="Remmane" />
		<tag k="place" v="locality" />
		<tag k="ssr:stedsnr" v="263224" />
	</node>
	<node id="-587568" lat="62.6693388847" lon="6.87624721708">
		<tag k="name" v="Vethaugen" />
		<tag k="natural" v="hill" />
		<tag k="place" v="locality" />
		<tag k="ssr:stedsnr" v="262327" />
	</node>
	<node id="-587563" lat="62.6760777746" lon="6.61518610224">
		<tag k="fixme" v="consider natural=peak for the most distinct mountains in the district" />
		<tag k="name" v="Lågfjellet" />
		<tag k="natural" v="hill" />
		<tag k="place" v="locality" />
		<tag k="ssr:stedsnr" v="254944" />
	</node>
	<node id="-587558" lat="62.7421527816" lon="6.91304721471">
		<tag k="name" v="Holten" />
		<tag k="natural" v="hill" />
		<tag k="place" v="locality" />
		<tag k="ssr:stedsnr" v="254094" />
	</node>
	<node id="-587556" lat="62.7283444414" lon="6.85525833209">
		<tag k="fixme" v="consider natural=peak for the most distinct mountains in the district" />
		<tag k="name" v="Manfjellet" />
		<tag k="natural" v="hill" />
		<tag k="place" v="locality" />
		<tag k="ssr:stedsnr" v="254061" />
	</node>
	<node id="-587554" lat="62.7066722242" lon="6.81586111075">
		<tag k="name" v="Foksåta" />
		<tag k="natural" v="hill" />
		<tag k="place" v="locality" />
		<tag k="ssr:stedsnr" v="254041" />
	</node>
	<node id="-587551" lat="62.6956416677" lon="6.73408610675">
		<tag k="fixme" v="consider natural=peak for the most distinct mountains in the district" />
		<tag k="name" v="Hestøyra" />
		<tag k="natural" v="hill" />
		<tag k="place" v="locality" />
		<tag k="ssr:stedsnr" v="254033" />
	</node>
	<node id="-587549" lat="62.6479055559" lon="6.54131111602">
		<tag k="fixme" v="consider natural=peak for the most distinct mountains in the district" />
		<tag k="name" v="Drynjahatten" />
		<tag k="natural" v="hill" />
		<tag k="place" v="locality" />
		<tag k="ssr:stedsnr" v="254436" />
	</node>
	<node id="-587541" lat="62.7344638921" lon="6.88370555807">
		<tag k="name" v="Sundsbøfjella" />
		<tag k="place" v="locality" />
		<tag k="ssr:stedsnr" v="213931" />
	</node>
	<node id="-587540" lat="62.7136000043" lon="6.8057083376">
		<tag k="name" v="Voksdalen" />
		<tag k="natural" v="valley" />
		<tag k="place" v="locality" />
		<tag k="ssr:stedsnr" v="213898" />
	</node>
	<node id="-587539" lat="62.7093583376" lon="6.81683610178">
		<tag k="name" v="Porkegjølet" />
		<tag k="natural" v="gorge" />
		<tag k="ssr:stedsnr" v="213897" />
	</node>
	<node id="-587538" lat="62.7062750022" lon="6.82643054819">
		<tag k="name" v="Sauråket" />
		<tag k="natural" v="slope" />
		<tag k="place" v="locality" />
		<tag k="ssr:stedsnr" v="213895" />
	</node>
	<node id="-587537" lat="62.706044447" lon="6.89455833454">
		<tag k="name" v="Rabben" />
		<tag k="natural" v="hill" />
		<tag k="place" v="locality" />
		<tag k="ssr:stedsnr" v="213763" />
	</node>
	<node id="-587536" lat="62.7056361069" lon="6.89868889305">
		<tag k="name" v="Hola" />
		<tag k="natural" v="valley" />
		<tag k="place" v="locality" />
		<tag k="ssr:stedsnr" v="213738" />
	</node>
	<node id="-587535" lat="62.7013055567" lon="6.88600276974">
		<tag k="name" v="Sauelia" />
		<tag k="natural" v="slope" />
		<tag k="place" v="locality" />
		<tag k="ssr:stedsnr" v="213730" />
	</node>
	<node id="-587534" lat="62.7314388898" lon="6.83340277191">
		<tag k="name" v="Storhaugen" />
		<tag k="natural" v="hill" />
		<tag k="place" v="locality" />
		<tag k="ssr:stedsnr" v="213647" />
	</node>
	<node id="-587533" lat="62.7292499982" lon="6.86349722998">
		<tag k="name" v="Beinsetdalen" />
		<tag k="natural" v="valley" />
		<tag k="place" v="locality" />
		<tag k="ssr:stedsnr" v="213588" />
	</node>
	<node id="-587530" lat="62.7407555597" lon="6.90747499404">
		<tag k="name" v="Sundsbølia" />
		<tag k="natural" v="slope" />
		<tag k="place" v="locality" />
		<tag k="ssr:stedsnr" v="212708" />
	</node>
	<node id="-587527" lat="62.7075222226" lon="6.70976665697">
		<tag k="name" v="Hatlehaugen" />
		<tag k="natural" v="hill" />
		<tag k="place" v="locality" />
		<tag k="ssr:stedsnr" v="212579" />
	</node>
	<node id="-587524" lat="62.700022221" lon="6.7649250074">
		<tag k="name" v="Holslia" />
		<tag k="natural" v="slope" />
		<tag k="place" v="locality" />
		<tag k="ssr:stedsnr" v="212531" />
	</node>
	<node id="-587523" lat="62.7165361077" lon="6.93394722032">
		<tag k="name" v="Ausphaugen" />
		<tag k="natural" v="hill" />
		<tag k="place" v="locality" />
		<tag k="ssr:stedsnr" v="212528" />
	</node>
	<node id="-587518" lat="62.6899527764" lon="6.62779167258">
		<tag k="fixme" v="consider natural=peak for the most distinct mountains in the district" />
		<tag k="name" v="Nonsfjellet" />
		<tag k="natural" v="hill" />
		<tag k="place" v="locality" />
		<tag k="ssr:stedsnr" v="212303" />
	</node>
	<node id="-587515" lat="62.6882083347" lon="6.77989444435">
		<tag k="name" v="Raudehamrane" />
		<tag k="natural" v="hill" />
		<tag k="place" v="locality" />
		<tag k="ssr:stedsnr" v="212269" />
	</node>
	<node id="-587514" lat="62.6537416681" lon="6.58595833706">
		<tag k="name" v="Ørnetuehaugen" />
		<tag k="natural" v="hill" />
		<tag k="place" v="locality" />
		<tag k="ssr:stedsnr" v="212161" />
	</node>
	<node id="-587513" lat="62.6586916644" lon="6.58911111045">
		<tag k="name" v="Litleseberget" />
		<tag k="natural" v="hill" />
		<tag k="place" v="locality" />
		<tag k="ssr:stedsnr" v="212152" />
	</node>
	<node id="-587512" lat="62.6592222218" lon="6.5835611133">
		<tag k="name" v="Torvhaugen" />
		<tag k="natural" v="hill" />
		<tag k="place" v="locality" />
		<tag k="ssr:stedsnr" v="212150" />
	</node>
	<node id="-587510" lat="62.6692416698" lon="6.58680277099">
		<tag k="name" v="Gardvikhammaren" />
		<tag k="natural" v="hill" />
		<tag k="place" v="locality" />
		<tag k="ssr:stedsnr" v="212121" />
	</node>
	<node id="-587508" lat="62.7175749983" lon="6.70514167366">
		<tag k="name" v="Skarshaugen" />
		<tag k="natural" v="hill" />
		<tag k="place" v="locality" />
		<tag k="ssr:stedsnr" v="212089" />
	</node>
	<node id="-587504" lat="62.6500416685" lon="6.5573222178">
		<tag k="name" v="Jaktøyeta" />
		<tag k="natural" v="slope" />
		<tag k="place" v="locality" />
		<tag k="ssr:stedsnr" v="212006" />
	</node>
	<node id="-587503" lat="62.7044027746" lon="6.7167138873">
		<tag k="name" v="Våsletta" />
		<tag k="place" v="locality" />
		<tag k="ssr:stedsnr" v="203256" />
	</node>
	<node id="-587497" lat="62.6679194473" lon="6.6489694438">
		<tag k="name" v="Langhaugen" />
		<tag k="natural" v="hill" />
		<tag k="place" v="locality" />
		<tag k="ssr:stedsnr" v="203075" />
	</node>
	<node id="-587496" lat="62.6907861094" lon="6.71706388101">
		<tag k="name" v="Blåhammaren" />
		<tag k="natural" v="hill" />
		<tag k="place" v="locality" />
		<tag k="ssr:stedsnr" v="194984" />
	</node>
	<node id="-587494" lat="62.6673055536" lon="6.63971666818">
		<tag k="name" v="Bløfloga" />
		<tag k="natural" v="hill" />
		<tag k="place" v="locality" />
		<tag k="ssr:stedsnr" v="194939" />
	</node>
	<node id="-587485" lat="62.7085444446" lon="6.91000000299">
		<tag k="fixme" v="consider natural=peak for the most distinct mountains in the district" />
		<tag k="name" v="Reitaåsen" />
		<tag k="natural" v="hill" />
		<tag k="place" v="locality" />
		<tag k="ssr:stedsnr" v="193077" />
	</node>
	<node id="-587483" lat="62.6817194438" lon="6.72000834137">
		<tag k="fixme" v="consider natural=peak for the most distinct mountains in the district" />
		<tag k="name" v="Klausethornet" />
		<tag k="natural" v="hill" />
		<tag k="place" v="locality" />
		<tag k="ssr:stedsnr" v="193037" />
	</node>
	<node id="-587478" lat="62.7313722199" lon="6.76828055662">
		<tag k="name" v="Rishaugen" />
		<tag k="natural" v="hill" />
		<tag k="place" v="locality" />
		<tag k="ssr:stedsnr" v="172138" />
	</node>
	<node id="-587471" lat="62.7047638867" lon="6.92504167257">
		<tag k="name" v="Jensethaugen" />
		<tag k="natural" v="hill" />
		<tag k="place" v="locality" />
		<tag k="ssr:stedsnr" v="152727" />
	</node>
	<node id="-587468" lat="62.7023888916" lon="6.7636361039">
		<tag k="name" v="Høgsetkroken" />
		<tag k="natural" v="valley" />
		<tag k="place" v="locality" />
		<tag k="ssr:stedsnr" v="151703" />
	</node>
	<node id="-587467" lat="62.7127638901" lon="6.72784444349">
		<tag k="name" v="Brekkehammaren" />
		<tag k="natural" v="cliff" />
		<tag k="ssr:stedsnr" v="151619" />
	</node>
	<node id="-587466" lat="62.711430554" lon="6.71243334257">
		<tag k="name" v="Raudhaugan" />
		<tag k="natural" v="hill" />
		<tag k="place" v="locality" />
		<tag k="ssr:stedsnr" v="151587" />
	</node>
	<node id="-587465" lat="62.7132555568" lon="6.92894444042">
		<tag k="name" v="Sølviklia" />
		<tag k="natural" v="slope" />
		<tag k="place" v="locality" />
		<tag k="ssr:stedsnr" v="151580" />
	</node>
	<node id="-587463" lat="62.6775916711" lon="6.60448056033">
		<tag k="name" v="Stordalskleiva" />
		<tag k="natural" v="slope" />
		<tag k="place" v="locality" />
		<tag k="ssr:stedsnr" v="151392" />
	</node>
	<node id="-587462" lat="62.694244442" lon="6.83060833754">
		<tag k="name" v="Bufornakken" />
		<tag k="natural" v="ridge" />
		<tag k="place" v="locality" />
		<tag k="ssr:stedsnr" v="151390" />
	</node>
	<node id="-587461" lat="62.6938888908" lon="6.82216389251">
		<tag k="name" v="Storfjellet" />
		<tag k="natural" v="hill" />
		<tag k="place" v="locality" />
		<tag k="ssr:stedsnr" v="151388" />
	</node>
	<node id="-587459" lat="62.7231333319" lon="6.75812778335">
		<tag k="name" v="Djupdalen" />
		<tag k="natural" v="valley" />
		<tag k="place" v="locality" />
		<tag k="ssr:stedsnr" v="151244" />
	</node>
	<node id="-587450" lat="62.6477499993" lon="6.54854721812">
		<tag k="name" v="Drynaskaret" />
		<tag k="natural" v="valley" />
		<tag k="place" v="locality" />
		<tag k="ssr:stedsnr" v="151019" />
	</node>
	<node id="-587441" lat="62.7143777793" lon="6.6924749942">
		<tag k="name" v="Ramnhella" />
		<tag k="natural" v="hill" />
		<tag k="place" v="locality" />
		<tag k="ssr:stedsnr" v="132923" />
	</node>
	<node id="-587435" lat="62.7018750029" lon="6.82272777331">
		<tag k="name" v="Slettheia" />
		<tag k="natural" v="hill" />
		<tag k="place" v="locality" />
		<tag k="ssr:stedsnr" v="132039" />
	</node>
	<node id="-587431" lat="62.7351388907" lon="6.92327499909">
		<tag k="name" v="Løneslia" />
		<tag k="natural" v="slope" />
		<tag k="place" v="locality" />
		<tag k="ssr:stedsnr" v="92911" />
	</node>
	<node id="-587430" lat="62.7308222252" lon="6.87902778398">
		<tag k="name" v="Keipen" />
		<tag k="natural" v="cliff" />
		<tag k="ssr:stedsnr" v="92909" />
	</node>
	<node id="-587429" lat="62.7344126227" lon="6.90366531572">
		<tag k="alt_name" v="Romkolldalen" />
		<tag k="name" v="Romkalldalen" />
		<tag k="natural" v="valley" />
		<tag k="place" v="locality" />
		<tag k="ssr:stedsnr" v="92907" />
	</node>
	<node id="-587427" lat="62.7002749957" lon="6.87812222117">
		<tag k="name" v="Søre Jølset" />
		<tag k="natural" v="cliff" />
		<tag k="ssr:stedsnr" v="92743" />
	</node>
	<node id="-587425" lat="62.7094027779" lon="6.88349443842">
		<tag k="name" v="Seterhola" />
		<tag k="natural" v="valley" />
		<tag k="place" v="locality" />
		<tag k="ssr:stedsnr" v="92727" />
	</node>
	<node id="-587424" lat="62.7024749997" lon="6.89574721494">
		<tag k="name" v="Forhaugen" />
		<tag k="natural" v="hill" />
		<tag k="place" v="locality" />
		<tag k="ssr:stedsnr" v="92719" />
	</node>
	<node id="-587423" lat="62.7110416635" lon="6.90503888714">
		<tag k="name" v="Seterskaret" />
		<tag k="natural" v="valley" />
		<tag k="place" v="locality" />
		<tag k="ssr:stedsnr" v="92702" />
	</node>
	<node id="-587420" lat="62.7430444447" lon="6.87103332453">
		<tag k="name" v="Beinsethaugen" />
		<tag k="natural" v="hill" />
		<tag k="place" v="locality" />
		<tag k="ssr:stedsnr" v="91765" />
	</node>
	<node id="-587419" lat="62.7472944428" lon="6.91965833842">
		<tag k="name" v="Myrbærhaugen" />
		<tag k="natural" v="hill" />
		<tag k="place" v="locality" />
		<tag k="ssr:stedsnr" v="91727" />
	</node>
	<node id="-587417" lat="62.7409499958" lon="6.91542222197">
		<tag k="name" v="Sundsbødalen" />
		<tag k="natural" v="valley" />
		<tag k="place" v="locality" />
		<tag k="ssr:stedsnr" v="91723" />
	</node>
	<node id="-587415" lat="62.7131861105" lon="6.77677222893">
		<tag k="name" v="Selifløya" />
		<tag k="natural" v="valley" />
		<tag k="place" v="locality" />
		<tag k="ssr:stedsnr" v="91716" />
	</node>
	<node id="-587410" lat="62.7109527822" lon="6.93563889238">
		<tag k="name" v="Midtrøra" />
		<tag k="natural" v="ridge" />
		<tag k="place" v="locality" />
		<tag k="ssr:stedsnr" v="91589" />
	</node>
	<node id="-587406" lat="62.6799111108" lon="6.92074167294">
		<tag k="name" v="Nordre Storskarhaugen" />
		<tag k="natural" v="hill" />
		<tag k="place" v="locality" />
		<tag k="ssr:stedsnr" v="91504" />
	</node>
	<node id="-587405" lat="62.6797722249" lon="6.90818333678">
		<tag k="alt_name" v="Notaberget" />
		<tag k="name" v="Fiskeberga" />
		<tag k="natural" v="hill" />
		<tag k="place" v="locality" />
		<tag k="ssr:stedsnr" v="91502" />
	</node>
	<node id="-587402" lat="62.6733361096" lon="6.88604165768">
		<tag k="name" v="Storbrauthaugen" />
		<tag k="natural" v="hill" />
		<tag k="place" v="locality" />
		<tag k="ssr:stedsnr" v="91478" />
	</node>
	<node id="-587400" lat="62.689191668" lon="6.82766666322">
		<tag k="name" v="Myrhjellen" />
		<tag k="place" v="locality" />
		<tag k="ssr:stedsnr" v="91402" />
	</node>
	<node id="-587398" lat="62.6927944439" lon="6.75301665864">
		<tag k="name" v="Skarshaugan" />
		<tag k="natural" v="hill" />
		<tag k="place" v="locality" />
		<tag k="ssr:stedsnr" v="91393" />
	</node>
	<node id="-587396" lat="62.6835916635" lon="6.62273056239">
		<tag k="name" v="Mariaksla" />
		<tag k="place" v="locality" />
		<tag k="ssr:stedsnr" v="91315" />
	</node>
	<node id="-587391" lat="62.6588805553" lon="6.59590277248">
		<tag k="name" v="Rothaugen" />
		<tag k="natural" v="hill" />
		<tag k="place" v="locality" />
		<tag k="ssr:stedsnr" v="91138" />
	</node>
	<node id="-587386" lat="62.6585749956" lon="6.63436666146">
		<tag k="name" v="Nøsahammaren" />
		<tag k="natural" v="cliff" />
		<tag k="ssr:stedsnr" v="91006" />
	</node>
	<node id="-587384" lat="62.7207472188" lon="6.69801666323">
		<tag k="name" v="Oshaugan" />
		<tag k="natural" v="hill" />
		<tag k="place" v="locality" />
		<tag k="ssr:stedsnr" v="90065" />
	</node>
	<node id="-587377" lat="62.6724555593" lon="6.67843333625">
		<tag k="name" v="Bukthaugen" />
		<tag k="natural" v="hill" />
		<tag k="place" v="locality" />
		<tag k="ssr:stedsnr" v="81061" />
	</node>
	<node id="-587371" lat="62.6910277817" lon="6.68473610172">
		<tag k="name" v="Aksla" />
		<tag k="place" v="locality" />
		<tag k="ssr:stedsnr" v="72981" />
	</node>
	<node id="-587362" lat="62.6841722186" lon="6.62342499225">
		<tag k="name" v="Breidalen" />
		<tag k="natural" v="valley" />
		<tag k="place" v="locality" />
		<tag k="ssr:stedsnr" v="72251" />
	</node>
	<node id="-587361" lat="62.7236916638" lon="6.81794999381">
		<tag k="fixme" v="consider natural=peak for the most distinct mountains in the district" />
		<tag k="name" v="Ræstadhornet" />
		<tag k="natural" v="hill" />
		<tag k="place" v="locality" />
		<tag k="ssr:stedsnr" v="72091" />
	</node>
	<node id="-587358" lat="62.6706416643" lon="6.88121110388">
		<tag k="name" v="Storbrauthaugen" />
		<tag k="natural" v="hill" />
		<tag k="place" v="locality" />
		<tag k="ssr:stedsnr" v="72061" />
	</node>
	<node id="-587357" lat="62.70246944" lon="6.87500277436">
		<tag k="fixme" v="consider natural=peak for the most distinct mountains in the district" />
		<tag k="name" v="Heggdalshornet" />
		<tag k="natural" v="hill" />
		<tag k="place" v="locality" />
		<tag k="ssr:stedsnr" v="72033" />
	</node>
	<node id="-587347" lat="62.7179222261" lon="6.88128888555">
		<tag k="name" v="Fremste Tåhaugen" />
		<tag k="natural" v="hill" />
		<tag k="place" v="locality" />
		<tag k="ssr:stedsnr" v="31968" />
	</node>
	<node id="-587346" lat="62.7262833343" lon="6.91912222248">
		<tag k="name" v="Bergestølhaugen" />
		<tag k="natural" v="hill" />
		<tag k="place" v="locality" />
		<tag k="ssr:stedsnr" v="31932" />
	</node>
	<node id="-587345" lat="62.7234194464" lon="6.9121000003">
		<tag k="name" v="Fagerlia" />
		<tag k="natural" v="slope" />
		<tag k="place" v="locality" />
		<tag k="ssr:stedsnr" v="31928" />
	</node>
	<node id="-587339" lat="62.7145972209" lon="6.77129443576">
		<tag k="name" v="Lia" />
		<tag k="natural" v="slope" />
		<tag k="place" v="locality" />
		<tag k="ssr:stedsnr" v="30698" />
	</node>
	<node id="-587338" lat="62.7012555557" lon="6.75499167123">
		<tag k="name" v="Litle-Trollhaugen" />
		<tag k="natural" v="hill" />
		<tag k="place" v="locality" />
		<tag k="ssr:stedsnr" v="30695" />
	</node>
	<node id="-587337" lat="62.7083888871" lon="6.73651944024">
		<tag k="name" v="Nausthaugen" />
		<tag k="natural" v="hill" />
		<tag k="place" v="locality" />
		<tag k="ssr:stedsnr" v="30598" />
	</node>
	<node id="-587332" lat="62.7145944443" lon="6.74307221968">
		<tag k="name" v="Hytta" />
		<tag k="natural" v="hill" />
		<tag k="place" v="locality" />
		<tag k="ssr:stedsnr" v="30551" />
	</node>
	<node id="-587331" lat="62.6963333312" lon="6.75229723178">
		<tag k="name" v="Skarshaugen" />
		<tag k="natural" v="hill" />
		<tag k="place" v="locality" />
		<tag k="ssr:stedsnr" v="30536" />
	</node>
	<node id="-587327" lat="62.6765666677" lon="6.90098610154">
		<tag k="name" v="Bustenhaugen" />
		<tag k="natural" v="hill" />
		<tag k="place" v="locality" />
		<tag k="ssr:stedsnr" v="30471" />
	</node>
	<node id="-587322" lat="62.6867499976" lon="6.75591944429">
		<tag k="name" v="Myrbærholten" />
		<tag k="natural" v="hill" />
		<tag k="place" v="locality" />
		<tag k="ssr:stedsnr" v="30366" />
	</node>
	<node id="-587321" lat="62.6869444447" lon="6.80048334114">
		<tag k="name" v="Reset" />
		<tag k="natural" v="ridge" />
		<tag k="place" v="locality" />
		<tag k="ssr:stedsnr" v="30299" />
	</node>
	<node id="-587320" lat="62.690416671" lon="6.63055276948">
		<tag k="name" v="Ordalen" />
		<tag k="natural" v="valley" />
		<tag k="place" v="locality" />
		<tag k="ssr:stedsnr" v="30323" />
	</node>
	<node id="-587319" lat="62.7245138852" lon="6.770927776">
		<tag k="name" v="Saulia" />
		<tag k="natural" v="slope" />
		<tag k="place" v="locality" />
		<tag k="ssr:stedsnr" v="30245" />
	</node>
	<node id="-587318" lat="62.7247972266" lon="6.79586389721">
		<tag k="name" v="Ramnskarheia" />
		<tag k="natural" v="hill" />
		<tag k="place" v="locality" />
		<tag k="ssr:stedsnr" v="30230" />
	</node>
	<node id="-587316" lat="62.6887777821" lon="6.80338056183">
		<tag k="name" v="Storgoshammaren" />
		<tag k="natural" v="hill" />
		<tag k="place" v="locality" />
		<tag k="ssr:stedsnr" v="30129" />
	</node>
	<node id="-587315" lat="62.6658638847" lon="6.59247778538">
		<tag k="name" v="Kvithaugen" />
		<tag k="natural" v="hill" />
		<tag k="place" v="locality" />
		<tag k="ssr:stedsnr" v="30125" />
	</node>
	<node id="-587312" lat="62.6542222249" lon="6.56761389721">
		<tag k="name" v="Kuhammaren" />
		<tag k="natural" v="hill" />
		<tag k="place" v="locality" />
		<tag k="ssr:stedsnr" v="30160" />
	</node>
	<node id="-587310" lat="62.6538000014" lon="6.57729999343">
		<tag k="name" v="Vågshaugen" />
		<tag k="natural" v="hill" />
		<tag k="place" v="locality" />
		<tag k="ssr:stedsnr" v="30157" />
	</node>
	<node id="-587309" lat="62.7207138916" lon="6.71287500526">
		<tag k="name" v="Kobben" />
		<tag k="natural" v="hill" />
		<tag k="place" v="locality" />
		<tag k="ssr:stedsnr" v="30092" />
	</node>
	<node id="-587303" lat="62.7158305581" lon="6.71902222661">
		<tag k="name" v="Slåttaskardet" />
		<tag k="natural" v="valley" />
		<tag k="place" v="locality" />
		<tag k="ssr:stedsnr" v="21233" />
	</node>
	<node id="-587300" lat="62.6775277807" lon="6.63444999855">
		<tag k="name" v="Kløvnakken" />
		<tag k="natural" v="valley" />
		<tag k="place" v="locality" />
		<tag k="ssr:stedsnr" v="12980" />
	</node>
	<node id="-587299" lat="62.6866333298" lon="6.70315555531">
		<tag k="fixme" v="consider natural=peak for the most distinct mountains in the district" />
		<tag k="name" v="Digergubben" />
		<tag k="natural" v="hill" />
		<tag k="place" v="locality" />
		<tag k="ssr:stedsnr" v="12975" />
	</node>
	<node id="-587294" lat="62.6674138922" lon="6.69044721417">
		<tag k="name" v="Bødalen" />
		<tag k="natural" v="valley" />
		<tag k="place" v="locality" />
		<tag k="ssr:stedsnr" v="12477" />
	</node>
	<node id="-587291" lat="62.7194361137" lon="6.80128333121">
		<tag k="name" v="Ramnskarheia" />
		<tag k="natural" v="slope" />
		<tag k="place" v="locality" />
		<tag k="ssr:stedsnr" v="11073" />
	</node>
	<node id="-587290" lat="62.7204499984" lon="6.85334444683">
		<tag k="name" v="Tjernskaret" />
		<tag k="natural" v="valley" />
		<tag k="place" v="locality" />
		<tag k="ssr:stedsnr" v="11068" />
	</node>
	<node id="-587267" lat="62.7276638891" lon="6.89258888493">
		<tag k="name" v="Myrsetdalen" />
		<tag k="natural" v="valley" />
		<tag k="place" v="locality" />
		<tag k="ssr:stedsnr" v="395933" />
	</node>
	<node id="-587266" lat="62.7067527783" lon="6.81608610684">
		<tag k="fixme" v="consider natural=peak for the most distinct mountains in the district" />
		<tag k="name" v="Foksåta" />
		<tag k="natural" v="hill" />
		<tag k="place" v="locality" />
		<tag k="ssr:stedsnr" v="395899" />
	</node>
	<node id="-587264" lat="62.7154805578" lon="6.86920000161">
		<tag k="name" v="Vassknausen" />
		<tag k="natural" v="hill" />
		<tag k="place" v="locality" />
		<tag k="ssr:stedsnr" v="395752" />
	</node>
	<node id="-587263" lat="62.7067805601" lon="6.91826111999">
		<tag k="name" v="Forhaugen" />
		<tag k="natural" v="hill" />
		<tag k="place" v="locality" />
		<tag k="ssr:stedsnr" v="395735" />
	</node>
	<node id="-587262" lat="62.7109611085" lon="6.92715833228">
		<tag k="name" v="Skjenhamrane" />
		<tag k="natural" v="cliff" />
		<tag k="ssr:stedsnr" v="395733" />
	</node>
	<node id="-587260" lat="62.7150777755" lon="6.90829999836">
		<tag k="name" v="Langelia" />
		<tag k="natural" v="slope" />
		<tag k="place" v="locality" />
		<tag k="ssr:stedsnr" v="395692" />
	</node>
	<node id="-587259" lat="62.7162583355" lon="6.82541943534">
		<tag k="name" v="Tverrfjellet" />
		<tag k="natural" v="ridge" />
		<tag k="place" v="locality" />
		<tag k="ssr:stedsnr" v="395645" />
	</node>
	<node id="-587258" lat="62.7346166628" lon="6.82356943984">
		<tag k="name" v="Ræstadhagen" />
		<tag k="natural" v="slope" />
		<tag k="place" v="locality" />
		<tag k="ssr:stedsnr" v="395639" />
	</node>
	<node id="-587255" lat="62.6674194425" lon="6.64316389225">
		<tag k="name" v="Flogan" />
		<tag k="natural" v="cliff" />
		<tag k="ssr:stedsnr" v="394953" />
	</node>
	<node id="-587248" lat="62.7246888868" lon="6.93156944244">
		<tag k="name" v="Setkleiva" />
		<tag k="natural" v="slope" />
		<tag k="place" v="locality" />
		<tag k="ssr:stedsnr" v="394536" />
	</node>
	<node id="-587246" lat="62.6781750045" lon="6.90507222261">
		<tag k="name" v="Liahola" />
		<tag k="natural" v="valley" />
		<tag k="place" v="locality" />
		<tag k="ssr:stedsnr" v="394483" />
	</node>
	<node id="-587245" lat="62.6744833364" lon="6.89532500888">
		<tag k="name" v="Bjerkahaugen" />
		<tag k="natural" v="hill" />
		<tag k="place" v="locality" />
		<tag k="ssr:stedsnr" v="394465" />
	</node>
	<node id="-587243" lat="62.683249996" lon="6.60700555743">
		<tag k="name" v="Klubben" />
		<tag k="natural" v="hill" />
		<tag k="place" v="locality" />
		<tag k="ssr:stedsnr" v="394370" />
	</node>
	<node id="-587240" lat="62.6926305575" lon="6.75744443617">
		<tag k="name" v="Heggdalskaret" />
		<tag k="natural" v="valley" />
		<tag k="place" v="locality" />
		<tag k="ssr:stedsnr" v="394354" />
	</node>
	<node id="-587238" lat="62.6836805513" lon="6.61870832551">
		<tag k="name" v="Sauhellaren" />
		<tag k="place" v="locality" />
		<tag k="ssr:stedsnr" v="394292" />
	</node>
	<node id="-587237" lat="62.6798166627" lon="6.75763056083">
		<tag k="name" v="Dektahaugan" />
		<tag k="natural" v="hill" />
		<tag k="place" v="locality" />
		<tag k="ssr:stedsnr" v="394275" />
	</node>
	<node id="-587230" lat="62.6573222188" lon="6.60904166207">
		<tag k="name" v="Reitakleiva" />
		<tag k="natural" v="ridge" />
		<tag k="place" v="locality" />
		<tag k="ssr:stedsnr" v="394109" />
	</node>
	<node id="-587225" lat="62.679052779" lon="6.9199944403">
		<tag k="name" v="Storskardet" />
		<tag k="natural" v="valley" />
		<tag k="place" v="locality" />
		<tag k="ssr:stedsnr" v="384365" />
	</node>
	<node id="-587224" lat="62.6984583302" lon="6.69255555699">
		<tag k="name" v="Holehaugen" />
		<tag k="natural" v="hill" />
		<tag k="place" v="locality" />
		<tag k="ssr:stedsnr" v="384224" />
	</node>
	<node id="-587219" lat="62.6630694428" lon="6.66018889241">
		<tag k="name" v="Haugbukkskylet" />
		<tag k="place" v="locality" />
		<tag k="ssr:stedsnr" v="384064" />
	</node>
	<node id="-587217" lat="62.682391665" lon="6.61554167197">
		<tag k="name" v="Bjørnaremshellaran" />
		<tag k="natural" v="hill" />
		<tag k="place" v="locality" />
		<tag k="ssr:stedsnr" v="383938" />
	</node>
	<node id="-587214" lat="62.6687916675" lon="6.66133610786">
		<tag k="name" v="Ramberget" />
		<tag k="natural" v="hill" />
		<tag k="place" v="locality" />
		<tag k="ssr:stedsnr" v="375953" />
	</node>
	<node id="-587213" lat="62.6739527742" lon="6.59851944103">
		<tag k="name" v="Stordalen" />
		<tag k="natural" v="valley" />
		<tag k="place" v="locality" />
		<tag k="ssr:stedsnr" v="375941" />
	</node>
	<node id="-587211" lat="62.6652194406" lon="6.65445556545">
		<tag k="fixme" v="consider natural=peak for the most distinct mountains in the district" />
		<tag k="name" v="Ørnekula" />
		<tag k="natural" v="hill" />
		<tag k="place" v="locality" />
		<tag k="ssr:stedsnr" v="375934" />
	</node>
	<node id="-587204" lat="62.6867916695" lon="6.62849166544">
		<tag k="fixme" v="consider natural=peak for the most distinct mountains in the district" />
		<tag k="name" v="Høgfjellet" />
		<tag k="natural" v="hill" />
		<tag k="place" v="locality" />
		<tag k="ssr:stedsnr" v="375879" />
	</node>
	<node id="-587201" lat="62.7090111108" lon="6.79273054721">
		<tag k="fixme" v="consider natural=peak for the most distinct mountains in the district" />
		<tag k="name" v="Skåla" />
		<tag k="natural" v="hill" />
		<tag k="place" v="locality" />
		<tag k="ssr:stedsnr" v="375070" />
	</node>
	<node id="-587200" lat="62.7344833334" lon="6.86516667171">
		<tag k="fixme" v="consider natural=peak for the most distinct mountains in the district" />
		<tag k="name" v="Bendsethornet" />
		<tag k="natural" v="hill" />
		<tag k="place" v="locality" />
		<tag k="ssr:stedsnr" v="375068" />
	</node>
	<node id="-587190" lat="62.7180805556" lon="6.86493332486">
		<tag k="fixme" v="consider natural=peak for the most distinct mountains in the district" />
		<tag k="name" v="Vassfjellet" />
		<tag k="natural" v="hill" />
		<tag k="place" v="locality" />
		<tag k="ssr:stedsnr" v="334975" />
	</node>
	<node id="-587189" lat="62.7240472196" lon="6.90771667222">
		<tag k="name" v="Fagerlihaugane" />
		<tag k="natural" v="hill" />
		<tag k="place" v="locality" />
		<tag k="ssr:stedsnr" v="334912" />
	</node>
	<node id="-587188" lat="62.7074305518" lon="6.8881111203">
		<tag k="name" v="Hjortnakken" />
		<tag k="natural" v="ridge" />
		<tag k="place" v="locality" />
		<tag k="ssr:stedsnr" v="334723" />
	</node>
	<node id="-587187" lat="62.7069138855" lon="6.90376665873">
		<tag k="name" v="Kjehammaren" />
		<tag k="natural" v="cliff" />
		<tag k="ssr:stedsnr" v="334694" />
	</node>
	<node id="-587185" lat="62.7464888872" lon="6.91346945169">
		<tag k="name" v="Smihaugen" />
		<tag k="natural" v="hill" />
		<tag k="place" v="locality" />
		<tag k="ssr:stedsnr" v="334691" />
	</node>
	<node id="-587184" lat="62.7450361067" lon="6.91452500145">
		<tag k="name" v="Trollskaret" />
		<tag k="natural" v="valley" />
		<tag k="place" v="locality" />
		<tag k="ssr:stedsnr" v="334689" />
	</node>
	<node id="-587181" lat="62.7165749967" lon="6.83795556046">
		<tag k="name" v="Storskaret" />
		<tag k="natural" v="valley" />
		<tag k="place" v="locality" />
		<tag k="ssr:stedsnr" v="334529" />
	</node>
	<node id="-587180" lat="62.7277833364" lon="6.85487223017">
		<tag k="fixme" v="consider natural=peak for the most distinct mountains in the district" />
		<tag k="name" v="Njupen" />
		<tag k="natural" v="hill" />
		<tag k="place" v="locality" />
		<tag k="ssr:stedsnr" v="334525" />
	</node>
	<node id="-587178" lat="62.7089027756" lon="6.84910834258">
		<tag k="name" v="Storrishaugen" />
		<tag k="natural" v="hill" />
		<tag k="place" v="locality" />
		<tag k="ssr:stedsnr" v="334491" />
	</node>
	<node id="-587171" lat="62.6889916636" lon="6.81697777859">
		<tag k="name" v="Storhjellen" />
		<tag k="place" v="locality" />
		<tag k="ssr:stedsnr" v="334339" />
	</node>
	<node id="-587170" lat="62.6879694444" lon="6.82312221365">
		<tag k="name" v="Brua" />
		<tag k="natural" v="slope" />
		<tag k="place" v="locality" />
		<tag k="ssr:stedsnr" v="334327" />
	</node>
	<node id="-587167" lat="62.6414527818" lon="6.52140277961">
		<tag k="name" v="Eiremskaret" />
		<tag k="natural" v="valley" />
		<tag k="place" v="locality" />
		<tag k="ssr:stedsnr" v="334107" />
	</node>
	<node id="-587166" lat="62.6659999996" lon="6.64807223044">
		<tag k="name" v="Hellaren" />
		<tag k="place" v="locality" />
		<tag k="ssr:stedsnr" v="333950" />
	</node>
	<node id="-587165" lat="62.7012333347" lon="6.63547222013">
		<tag k="name" v="Trollholå" />
		<tag k="natural" v="hill" />
		<tag k="place" v="locality" />
		<tag k="ssr:stedsnr" v="333868" />
	</node>
	<node id="-587164" lat="62.6969583366" lon="6.63642223127">
		<tag k="name" v="Fåtjønnhaugen" />
		<tag k="natural" v="hill" />
		<tag k="place" v="locality" />
		<tag k="ssr:stedsnr" v="333863" />
	</node>
	<node id="-587162" lat="62.7137083347" lon="6.75874444638">
		<tag k="name" v="Domhella" />
		<tag k="place" v="locality" />
		<tag k="ssr:stedsnr" v="333688" />
	</node>
	<node id="-587161" lat="62.6800194437" lon="6.73278334182">
		<tag k="name" v="Midthaugen" />
		<tag k="natural" v="hill" />
		<tag k="place" v="locality" />
		<tag k="ssr:stedsnr" v="333650" />
	</node>
	<node id="-587160" lat="62.7142305535" lon="6.72723333002">
		<tag k="name" v="Jakthammaren" />
		<tag k="natural" v="hill" />
		<tag k="place" v="locality" />
		<tag k="ssr:stedsnr" v="333615" />
	</node>
	<node id="-587159" lat="62.697711114" lon="6.74600278041">
		<tag k="name" v="Hestlia" />
		<tag k="natural" v="slope" />
		<tag k="place" v="locality" />
		<tag k="ssr:stedsnr" v="333548" />
	</node>
	<node id="-587158" lat="62.7021500008" lon="6.74083054831">
		<tag k="name" v="Akslen" />
		<tag k="place" v="locality" />
		<tag k="ssr:stedsnr" v="333540" />
	</node>
	<node id="-587156" lat="62.6823805523" lon="6.61366666287">
		<tag k="name" v="Oterdalen" />
		<tag k="natural" v="valley" />
		<tag k="place" v="locality" />
		<tag k="ssr:stedsnr" v="333403" />
	</node>
	<node id="-587153" lat="62.6732250031" lon="6.61043054857">
		<tag k="fixme" v="consider natural=peak for the most distinct mountains in the district" />
		<tag k="name" v="Lågfjellet" />
		<tag k="natural" v="hill" />
		<tag k="place" v="locality" />
		<tag k="ssr:stedsnr" v="333396" />
	</node>
	<node id="-587151" lat="62.6800055595" lon="6.76259444482">
		<tag k="name" v="Orebukta" />
		<tag k="natural" v="hill" />
		<tag k="place" v="locality" />
		<tag k="ssr:stedsnr" v="333318" />
	</node>
	<node id="-587142" lat="62.6624611113" lon="6.60269999702">
		<tag k="name" v="Gangstadaksla" />
		<tag k="place" v="locality" />
		<tag k="ssr:stedsnr" v="333133" />
	</node>
	<node id="-587141" lat="62.6678805577" lon="6.59805555287">
		<tag k="name" v="Grødalen" />
		<tag k="natural" v="valley" />
		<tag k="place" v="locality" />
		<tag k="ssr:stedsnr" v="333128" />
	</node>
	<node id="-587138" lat="62.6644000022" lon="6.64025555215">
		<tag k="name" v="Havredalen" />
		<tag k="natural" v="valley" />
		<tag k="place" v="locality" />
		<tag k="ssr:stedsnr" v="333009" />
	</node>
	<node id="-587134" lat="62.7163111092" lon="6.68306944367">
		<tag k="name" v="Ørnehaugen" />
		<tag k="natural" v="hill" />
		<tag k="place" v="locality" />
		<tag k="ssr:stedsnr" v="324201" />
	</node>
	<node id="-587133" lat="62.6568027774" lon="6.63626388836">
		<tag k="name" v="Oksvollane" />
		<tag k="place" v="locality" />
		<tag k="ssr:stedsnr" v="324043" />
	</node>
	<node id="-587132" lat="62.6710611107" lon="6.65927778033">
		<tag k="fixme" v="consider natural=peak for the most distinct mountains in the district" />
		<tag k="name" v="Osphammaren" />
		<tag k="natural" v="hill" />
		<tag k="place" v="locality" />
		<tag k="ssr:stedsnr" v="324039" />
	</node>
	<node id="-587124" lat="62.6477611124" lon="6.54955832698">
		<tag k="name" v="Litle Dryna" />
		<tag k="natural" v="hill" />
		<tag k="place" v="locality" />
		<tag k="ssr:stedsnr" v="315480" />
	</node>
	<node id="-587122" lat="62.7449555523" lon="6.90090556169">
		<tag k="name" v="Keipen" />
		<tag k="natural" v="hill" />
		<tag k="place" v="locality" />
		<tag k="ssr:stedsnr" v="315118" />
	</node>
	<node id="-587105" lat="62.7098944487" lon="6.88075276777">
		<tag k="name" v="Barlia" />
		<tag k="natural" v="slope" />
		<tag k="place" v="locality" />
		<tag k="ssr:stedsnr" v="274497" />
	</node>
	<node id="-587104" lat="62.698849996" lon="6.84800000736">
		<tag k="name" v="Ufsa" />
		<tag k="natural" v="cliff" />
		<tag k="ssr:stedsnr" v="274486" />
	</node>
	<node id="-587101" lat="62.7144833331" lon="6.75841112019">
		<tag k="name" v="Durmålshaugen" />
		<tag k="natural" v="hill" />
		<tag k="place" v="locality" />
		<tag k="ssr:stedsnr" v="273731" />
	</node>
	<node id="-587100" lat="62.713336115" lon="6.7683916644">
		<tag k="name" v="Selihaugen" />
		<tag k="natural" v="hill" />
		<tag k="place" v="locality" />
		<tag k="ssr:stedsnr" v="273728" />
	</node>
	<node id="-587093" lat="62.7414749957" lon="6.84428889422">
		<tag k="name" v="Holmehaugan" />
		<tag k="natural" v="hill" />
		<tag k="place" v="locality" />
		<tag k="ssr:stedsnr" v="273502" />
	</node>
	<node id="-587092" lat="62.6919722184" lon="6.82314723215">
		<tag k="name" v="Geitanebben" />
		<tag k="place" v="locality" />
		<tag k="ssr:stedsnr" v="273368" />
	</node>
	<node id="-587090" lat="62.6868277818" lon="6.77816111422">
		<tag k="name" v="Kjehaugen" />
		<tag k="natural" v="hill" />
		<tag k="place" v="locality" />
		<tag k="ssr:stedsnr" v="273272" />
	</node>
	<node id="-587088" lat="62.7262999956" lon="6.79638888029">
		<tag k="name" v="Keipen" />
		<tag k="natural" v="ridge" />
		<tag k="place" v="locality" />
		<tag k="ssr:stedsnr" v="273235" />
	</node>
	<node id="-587087" lat="62.669072224" lon="6.61468610274">
		<tag k="fixme" v="consider natural=peak for the most distinct mountains in the district" />
		<tag k="name" v="Høgfjellet" />
		<tag k="natural" v="hill" />
		<tag k="place" v="locality" />
		<tag k="ssr:stedsnr" v="273114" />
	</node>
	<node id="-587084" lat="62.6783055569" lon="6.72882222011">
		<tag k="name" v="Svorahaugen" />
		<tag k="natural" v="hill" />
		<tag k="place" v="locality" />
		<tag k="ssr:stedsnr" v="272616" />
	</node>
	<node id="-587083" lat="62.6945333309" lon="6.70262499778">
		<tag k="name" v="Uraberget" />
		<tag k="natural" v="hill" />
		<tag k="place" v="locality" />
		<tag k="ssr:stedsnr" v="272612" />
	</node>
	<node id="-587081" lat="62.7199277754" lon="6.69242778183">
		<tag k="name" v="Grønskarhaugan" />
		<tag k="natural" v="hill" />
		<tag k="place" v="locality" />
		<tag k="ssr:stedsnr" v="272066" />
	</node>
	<node id="-588200" lat="62.7211361116" lon="6.86751944964">
		<tag k="name" v="Litlebeinsetdalen" />
		<tag k="natural" v="valley" />
		<tag k="place" v="locality" />
		<tag k="ssr:stedsnr" v="941968" />
	</node>
	<node id="-588199" lat="62.7333749979" lon="6.90974722238">
		<tag k="fixme" v="consider natural=peak for the most distinct mountains in the district" />
		<tag k="name" v="Mereftafjellet" />
		<tag k="natural" v="hill" />
		<tag k="place" v="locality" />
		<tag k="ssr:stedsnr" v="941930" />
	</node>
	<node id="-588198" lat="62.7027111149" lon="6.80822778543">
		<tag k="name" v="Bergenden" />
		<tag k="natural" v="ridge" />
		<tag k="place" v="locality" />
		<tag k="ssr:stedsnr" v="941881" />
	</node>
	<node id="-588196" lat="62.74496667" lon="6.90080832353">
		<tag k="name" v="Båsen" />
		<tag k="natural" v="hill" />
		<tag k="place" v="locality" />
		<tag k="ssr:stedsnr" v="941697" />
	</node>
	<node id="-588195" lat="62.7294277794" lon="6.83076667481">
		<tag k="name" v="Ræstadlia" />
		<tag k="natural" v="slope" />
		<tag k="place" v="locality" />
		<tag k="ssr:stedsnr" v="941599" />
	</node>
	<node id="-588194" lat="62.7343305537" lon="6.8650055652">
		<tag k="name" v="Kløvhaugen" />
		<tag k="natural" v="hill" />
		<tag k="place" v="locality" />
		<tag k="ssr:stedsnr" v="941544" />
	</node>
	<node id="-588190" lat="62.7048222236" lon="6.85351111431">
		<tag k="name" v="Storskaret" />
		<tag k="natural" v="valley" />
		<tag k="place" v="locality" />
		<tag k="ssr:stedsnr" v="941513" />
	</node>
	<node id="-588186" lat="62.7115361116" lon="6.76094167014">
		<tag k="name" v="Strupen" />
		<tag k="natural" v="gorge" />
		<tag k="ssr:stedsnr" v="940688" />
	</node>
	<node id="-588185" lat="62.6863611076" lon="6.74382500127">
		<tag k="name" v="Storlihaugan" />
		<tag k="natural" v="hill" />
		<tag k="place" v="locality" />
		<tag k="ssr:stedsnr" v="940653" />
	</node>
	<node id="-588184" lat="62.6918972205" lon="6.67872222458">
		<tag k="name" v="Ormehaugen" />
		<tag k="natural" v="hill" />
		<tag k="place" v="locality" />
		<tag k="ssr:stedsnr" v="940648" />
	</node>
	<node id="-588181" lat="62.7206277818" lon="6.7618611059">
		<tag k="name" v="Bjørnehola" />
		<tag k="natural" v="valley" />
		<tag k="place" v="locality" />
		<tag k="ssr:stedsnr" v="940238" />
	</node>
	<node id="-588174" lat="62.7332000024" lon="6.71344445386">
		<tag k="name" v="Bollethaugen" />
		<tag k="natural" v="hill" />
		<tag k="place" v="locality" />
		<tag k="ssr:stedsnr" v="940045" />
	</node>
	<node id="-588167" lat="62.6682833376" lon="6.6478055527">
		<tag k="name" v="Bolthaugen" />
		<tag k="natural" v="hill" />
		<tag k="place" v="locality" />
		<tag k="ssr:stedsnr" v="931055" />
	</node>
	<node id="-588165" lat="62.6935166709" lon="6.642647229">
		<tag k="fixme" v="consider natural=peak for the most distinct mountains in the district" />
		<tag k="name" v="Sjøvikhammaren" />
		<tag k="natural" v="hill" />
		<tag k="place" v="locality" />
		<tag k="ssr:stedsnr" v="931046" />
	</node>
	<node id="-588161" lat="62.678183255" lon="6.68801172494">
		<tag k="fixme" v="consider natural=peak for the most distinct mountains in the district" />
		<tag k="name" v="Midsundhornet" />
		<tag k="natural" v="hill" />
		<tag k="place" v="locality" />
		<tag k="ssr:stedsnr" v="922970" />
	</node>
	<node id="-588160" lat="62.6851361102" lon="6.68683889161">
		<tag k="fixme" v="consider natural=peak for the most distinct mountains in the district" />
		<tag k="name" v="Akslahornet" />
		<tag k="natural" v="hill" />
		<tag k="place" v="locality" />
		<tag k="ssr:stedsnr" v="922965" />
	</node>
	<node id="-588159" lat="62.6691166664" lon="6.60773611503">
		<tag k="name" v="Litlekulten" />
		<tag k="natural" v="hill" />
		<tag k="place" v="locality" />
		<tag k="ssr:stedsnr" v="922943" />
	</node>
	<node id="-588153" lat="62.7260861142" lon="6.88029165763">
		<tag k="fixme" v="consider natural=peak for the most distinct mountains in the district" />
		<tag k="name" v="Myrsethornet" />
		<tag k="natural" v="hill" />
		<tag k="place" v="locality" />
		<tag k="ssr:stedsnr" v="922079" />
	</node>
	<node id="-588151" lat="62.692483337" lon="6.75723610694">
		<tag k="alt_name" v="Heggedalskaret" />
		<tag k="name" v="Skaret" />
		<tag k="natural" v="valley" />
		<tag k="place" v="locality" />
		<tag k="ssr:stedsnr" v="922041" />
	</node>
	<node id="-588150" lat="62.6876694466" lon="6.7398749996">
		<tag k="name" v="Lappedalen" />
		<tag k="natural" v="valley" />
		<tag k="place" v="locality" />
		<tag k="ssr:stedsnr" v="922038" />
	</node>
	<node id="-588148" lat="62.7142499981" lon="6.82455278412">
		<tag k="fixme" v="consider natural=peak for the most distinct mountains in the district" />
		<tag k="name" v="Grøtet" />
		<tag k="natural" v="hill" />
		<tag k="place" v="locality" />
		<tag k="ssr:stedsnr" v="921073" />
	</node>
	<node id="-588139" lat="62.708250002" lon="6.92314999458">
		<tag k="name" v="Lynghaugen" />
		<tag k="natural" v="hill" />
		<tag k="place" v="locality" />
		<tag k="ssr:stedsnr" v="881694" />
	</node>
	<node id="-588138" lat="62.718411115" lon="6.82185833477">
		<tag k="name" v="Kvenndalen" />
		<tag k="natural" v="valley" />
		<tag k="place" v="locality" />
		<tag k="ssr:stedsnr" v="881609" />
	</node>
	<node id="-588136" lat="62.6965250025" lon="6.83199721572">
		<tag k="name" v="Kjerringryggane" />
		<tag k="natural" v="ridge" />
		<tag k="place" v="locality" />
		<tag k="ssr:stedsnr" v="881500" />
	</node>
	<node id="-588135" lat="62.7034555593" lon="6.85880832512">
		<tag k="name" v="Kyrabotnen" />
		<tag k="natural" v="valley" />
		<tag k="place" v="locality" />
		<tag k="ssr:stedsnr" v="881488" />
	</node>
	<node id="-588134" lat="62.7031222253" lon="6.7915527785">
		<tag k="name" v="Seterlia" />
		<tag k="natural" v="slope" />
		<tag k="place" v="locality" />
		<tag k="ssr:stedsnr" v="880739" />
	</node>
	<node id="-588133" lat="62.7017222215" lon="6.75830555191">
		<tag k="name" v="Store-Trollhaugen" />
		<tag k="natural" v="hill" />
		<tag k="place" v="locality" />
		<tag k="ssr:stedsnr" v="880725" />
	</node>
	<node id="-588129" lat="62.7245611128" lon="6.92751943558">
		<tag k="fixme" v="consider natural=peak for the most distinct mountains in the district" />
		<tag k="name" v="Svinnsetåsen" />
		<tag k="natural" v="hill" />
		<tag k="place" v="locality" />
		<tag k="ssr:stedsnr" v="880552" />
	</node>
	<node id="-588126" lat="62.6721694408" lon="6.70789722233">
		<tag k="name" v="Seterhaugen" />
		<tag k="natural" v="hill" />
		<tag k="place" v="locality" />
		<tag k="ssr:stedsnr" v="880497" />
	</node>
	<node id="-588123" lat="62.6697472214" lon="6.7228500001">
		<tag k="name" v="Jakophammaren" />
		<tag k="natural" v="cliff" />
		<tag k="ssr:stedsnr" v="880489" />
	</node>
	<node id="-588121" lat="62.671722225" lon="6.89050555106">
		<tag k="name" v="Mjukeberthaugen" />
		<tag k="natural" v="hill" />
		<tag k="place" v="locality" />
		<tag k="ssr:stedsnr" v="880372" />
	</node>
	<node id="-588118" lat="62.6855861112" lon="6.75192778704">
		<tag k="name" v="Velsignehaugen" />
		<tag k="natural" v="hill" />
		<tag k="place" v="locality" />
		<tag k="ssr:stedsnr" v="880349" />
	</node>
	<node id="-588116" lat="62.6896416646" lon="6.62208333575">
		<tag k="name" v="Kleivahaugen" />
		<tag k="natural" v="hill" />
		<tag k="place" v="locality" />
		<tag k="ssr:stedsnr" v="880287" />
	</node>
	<node id="-588112" lat="62.6881388911" lon="6.82814722164">
		<tag k="name" v="Botnahaugen" />
		<tag k="natural" v="hill" />
		<tag k="place" v="locality" />
		<tag k="ssr:stedsnr" v="880255" />
	</node>
	<node id="-588106" lat="62.644091663" lon="6.52140555258">
		<tag k="name" v="Droga" />
		<tag k="natural" v="valley" />
		<tag k="place" v="locality" />
		<tag k="ssr:stedsnr" v="880112" />
	</node>
	<node id="-588104" lat="62.6486805549" lon="6.54292778277">
		<tag k="name" v="Storsteinholen" />
		<tag k="natural" v="valley" />
		<tag k="place" v="locality" />
		<tag k="ssr:stedsnr" v="880021" />
	</node>
	<node id="-588102" lat="62.6503111124" lon="6.55998055461">
		<tag k="name" v="Engahaugen" />
		<tag k="natural" v="hill" />
		<tag k="place" v="locality" />
		<tag k="ssr:stedsnr" v="880008" />
	</node>
	<node id="-588101" lat="62.6910277785" lon="6.68259165848">
		<tag k="name" v="Hellaren" />
		<tag k="natural" v="cliff" />
		<tag k="ssr:stedsnr" v="879641" />
	</node>
	<node id="-588100" lat="62.7192388867" lon="6.67603333796">
		<tag k="name" v="Korven" />
		<tag k="natural" v="hill" />
		<tag k="place" v="locality" />
		<tag k="ssr:stedsnr" v="879166" />
	</node>
	<node id="-588096" lat="62.7186361103" lon="6.72526110994">
		<tag k="name" v="Kråkhaugen" />
		<tag k="natural" v="hill" />
		<tag k="place" v="locality" />
		<tag k="ssr:stedsnr" v="879017" />
	</node>
	<node id="-588091" lat="62.6664138869" lon="6.70533055829">
		<tag k="name" v="Juvikberga" />
		<tag k="natural" v="hill" />
		<tag k="place" v="locality" />
		<tag k="ssr:stedsnr" v="870072" />
	</node>
	<node id="-588090" lat="62.6864388911" lon="6.67335832943">
		<tag k="name" v="Breskarhaugen" />
		<tag k="natural" v="hill" />
		<tag k="place" v="locality" />
		<tag k="ssr:stedsnr" v="870053" />
	</node>
	<node id="-588088" lat="62.67920833" lon="6.61131944491">
		<tag k="name" v="Rånddalshornet" />
		<tag k="natural" v="hill" />
		<tag k="place" v="locality" />
		<tag k="ssr:stedsnr" v="861996" />
	</node>
	<node id="-588081" lat="62.6647944416" lon="6.62921666128">
		<tag k="fixme" v="consider natural=peak for the most distinct mountains in the district" />
		<tag k="name" v="Bløkallen" />
		<tag k="natural" v="hill" />
		<tag k="place" v="locality" />
		<tag k="ssr:stedsnr" v="861950" />
	</node>
	<node id="-588078" lat="62.7162111092" lon="6.91290277498">
		<tag k="name" v="Storhaugen" />
		<tag k="natural" v="hill" />
		<tag k="place" v="locality" />
		<tag k="ssr:stedsnr" v="861083" />
	</node>
	<node id="-588074" lat="62.6987055514" lon="6.84069166611">
		<tag k="fixme" v="consider natural=peak for the most distinct mountains in the district" />
		<tag k="name" v="Opstadhornet" />
		<tag k="natural" v="hill" />
		<tag k="place" v="locality" />
		<tag k="ssr:stedsnr" v="861029" />
	</node>
	<node id="-588067" lat="62.7253305592" lon="6.9206388796">
		<tag k="name" v="Tunga" />
		<tag k="natural" v="ridge" />
		<tag k="place" v="locality" />
		<tag k="ssr:stedsnr" v="820926" />
	</node>
	<node id="-588065" lat="62.69674444" lon="6.88952776912">
		<tag k="name" v="Vollarøra" />
		<tag k="natural" v="ridge" />
		<tag k="place" v="locality" />
		<tag k="ssr:stedsnr" v="820733" />
	</node>
	<node id="-588063" lat="62.7087916651" lon="6.92115278736">
		<tag k="name" v="Gjerdhaugen" />
		<tag k="natural" v="hill" />
		<tag k="place" v="locality" />
		<tag k="ssr:stedsnr" v="820696" />
	</node>
	<node id="-588062" lat="62.7209166666" lon="6.85572500565">
		<tag k="name" v="Kvennskaret" />
		<tag k="natural" v="valley" />
		<tag k="place" v="locality" />
		<tag k="ssr:stedsnr" v="820548" />
	</node>
	<node id="-588061" lat="62.7216249968" lon="6.83963333651">
		<tag k="name" v="Seterlia" />
		<tag k="natural" v="slope" />
		<tag k="place" v="locality" />
		<tag k="ssr:stedsnr" v="820546" />
	</node>
	<node id="-588058" lat="62.744072218" lon="6.91966110606">
		<tag k="name" v="Lehaugen" />
		<tag k="natural" v="hill" />
		<tag k="place" v="locality" />
		<tag k="ssr:stedsnr" v="819729" />
	</node>
	<node id="-588050" lat="62.6751305595" lon="6.90260556155">
		<tag k="name" v="Hundehola" />
		<tag k="natural" v="valley" />
		<tag k="place" v="locality" />
		<tag k="ssr:stedsnr" v="819479" />
	</node>
	<node id="-588046" lat="62.6916361123" lon="6.63237499309">
		<tag k="name" v="Rabben" />
		<tag k="natural" v="ridge" />
		<tag k="place" v="locality" />
		<tag k="ssr:stedsnr" v="819337" />
	</node>
	<node id="-588044" lat="62.6875750024" lon="6.63413054952">
		<tag k="name" v="Insteaksla" />
		<tag k="place" v="locality" />
		<tag k="ssr:stedsnr" v="819318" />
	</node>
	<node id="-588043" lat="62.6792222264" lon="6.67193611109">
		<tag k="name" v="Midsundbakken" />
		<tag k="natural" v="slope" />
		<tag k="place" v="locality" />
		<tag k="ssr:stedsnr" v="819315" />
	</node>
	<node id="-588035" lat="62.6596194426" lon="6.58768333338">
		<tag k="name" v="Seberget" />
		<tag k="natural" v="hill" />
		<tag k="place" v="locality" />
		<tag k="ssr:stedsnr" v="819167" />
	</node>
	<node id="-588033" lat="62.7302416707" lon="6.69930000336">
		<tag k="name" v="Reitamyrhaugen" />
		<tag k="natural" v="hill" />
		<tag k="place" v="locality" />
		<tag k="ssr:stedsnr" v="819099" />
	</node>
	<node id="-588032" lat="62.723005558" lon="6.69687499463">
		<tag k="name" v="Fannstadhaugen" />
		<tag k="natural" v="hill" />
		<tag k="place" v="locality" />
		<tag k="ssr:stedsnr" v="819097" />
	</node>
	<node id="-588031" lat="62.718463892" lon="6.72398611837">
		<tag k="name" v="Skjorahaugen" />
		<tag k="natural" v="hill" />
		<tag k="place" v="locality" />
		<tag k="ssr:stedsnr" v="819088" />
	</node>
	<node id="-588017" lat="62.6644833351" lon="6.64494166856">
		<tag k="fixme" v="consider natural=peak for the most distinct mountains in the district" />
		<tag k="name" v="Kjerringryggen" />
		<tag k="natural" v="hill" />
		<tag k="place" v="locality" />
		<tag k="ssr:stedsnr" v="801947" />
	</node>
	<node id="-588006" lat="62.7382722184" lon="6.9002249907">
		<tag k="fixme" v="consider natural=peak for the most distinct mountains in the district" />
		<tag k="name" v="Sundsbørøra" />
		<tag k="natural" v="hill" />
		<tag k="place" v="locality" />
		<tag k="ssr:stedsnr" v="800106" />
	</node>
	<node id="-588004" lat="62.7122972205" lon="6.7611750034">
		<tag k="name" v="Tverrberga" />
		<tag k="natural" v="ridge" />
		<tag k="place" v="locality" />
		<tag k="ssr:stedsnr" v="800075" />
	</node>
	<node id="-588003" lat="62.7107083361" lon="6.86396666283">
		<tag k="name" v="Trollhaugen" />
		<tag k="natural" v="hill" />
		<tag k="place" v="locality" />
		<tag k="ssr:stedsnr" v="800073" />
	</node>
	<node id="-588001" lat="62.7256777782" lon="6.7886694384">
		<tag k="fixme" v="consider natural=peak for the most distinct mountains in the district" />
		<tag k="name" v="Rørsethornet" />
		<tag k="natural" v="hill" />
		<tag k="place" v="locality" />
		<tag k="ssr:stedsnr" v="800067" />
	</node>
	<node id="-588000" lat="62.7300527783" lon="6.91088889358">
		<tag k="alt_name" v="Remkollheia" />
		<tag k="fixme" v="consider natural=peak for the most distinct mountains in the district" />
		<tag k="name" v="Rongkallheia" />
		<tag k="natural" v="hill" />
		<tag k="place" v="locality" />
		<tag k="ssr:stedsnr" v="800065" />
	</node>
	<node id="-587999" lat="62.6945555529" lon="6.72025278366">
		<tag k="name" v="Blåhamaren" />
		<tag k="natural" v="hill" />
		<tag k="place" v="locality" />
		<tag k="ssr:stedsnr" v="800041" />
	</node>
	<node id="-587996" lat="62.7173166644" lon="6.88836943544">
		<tag k="name" v="Snerskaret" />
		<tag k="natural" v="valley" />
		<tag k="place" v="locality" />
		<tag k="ssr:stedsnr" v="759965" />
	</node>
	<node id="-587994" lat="62.6962944413" lon="6.81023056238">
		<tag k="fixme" v="consider natural=peak for the most distinct mountains in the district" />
		<tag k="name" v="Storhaugen" />
		<tag k="natural" v="hill" />
		<tag k="place" v="locality" />
		<tag k="ssr:stedsnr" v="759892" />
	</node>
	<node id="-587992" lat="62.7131111129" lon="6.8739638907">
		<tag k="name" v="Kleninghaugen" />
		<tag k="natural" v="hill" />
		<tag k="place" v="locality" />
		<tag k="ssr:stedsnr" v="759720" />
	</node>
	<node id="-587991" lat="62.714174998" lon="6.85272777328">
		<tag k="name" v="Benkane" />
		<tag k="natural" v="ridge" />
		<tag k="place" v="locality" />
		<tag k="ssr:stedsnr" v="759536" />
	</node>
	<node id="-587989" lat="62.7073861138" lon="6.85369722765">
		<tag k="name" v="Drøftelihamrane" />
		<tag k="place" v="locality" />
		<tag k="ssr:stedsnr" v="759530" />
	</node>
	<node id="-587988" lat="62.6947749973" lon="6.84814444455">
		<tag k="name" v="Svarthammaren" />
		<tag k="natural" v="cliff" />
		<tag k="ssr:stedsnr" v="759496" />
	</node>
	<node id="-587987" lat="62.7393722262" lon="6.89262778353">
		<tag k="name" v="Gullnebben" />
		<tag k="natural" v="ridge" />
		<tag k="place" v="locality" />
		<tag k="ssr:stedsnr" v="758753" />
	</node>
	<node id="-587985" lat="62.7056111076" lon="6.78420833684">
		<tag k="name" v="Seterfjellet" />
		<tag k="natural" v="hill" />
		<tag k="place" v="locality" />
		<tag k="ssr:stedsnr" v="758726" />
	</node>
	<node id="-587983" lat="62.7101083308" lon="6.75895277743">
		<tag k="name" v="Varden" />
		<tag k="natural" v="hill" />
		<tag k="place" v="locality" />
		<tag k="ssr:stedsnr" v="758715" />
	</node>
	<node id="-587982" lat="62.6938444487" lon="6.69491667385">
		<tag k="name" v="Kariberget" />
		<tag k="natural" v="hill" />
		<tag k="place" v="locality" />
		<tag k="ssr:stedsnr" v="758679" />
	</node>
	<node id="-587979" lat="62.7270888927" lon="6.93236388959">
		<tag k="name" v="Sethaugen" />
		<tag k="natural" v="hill" />
		<tag k="place" v="locality" />
		<tag k="ssr:stedsnr" v="758590" />
	</node>
	<node id="-587974" lat="62.6786305586" lon="6.90699999243">
		<tag k="name" v="Orabakkhaugen" />
		<tag k="natural" v="hill" />
		<tag k="place" v="locality" />
		<tag k="ssr:stedsnr" v="758516" />
	</node>
	<node id="-587973" lat="62.6759194463" lon="6.90573056116">
		<tag k="name" v="Grønbakken" />
		<tag k="natural" v="slope" />
		<tag k="place" v="locality" />
		<tag k="ssr:stedsnr" v="758508" />
	</node>
	<node id="-587972" lat="62.6738805588" lon="6.89560000172">
		<tag k="name" v="Moldstihaugen" />
		<tag k="natural" v="hill" />
		<tag k="place" v="locality" />
		<tag k="ssr:stedsnr" v="758496" />
	</node>
	<node id="-587970" lat="62.6893777746" lon="6.76363610348">
		<tag k="name" v="Kvennhushaugen" />
		<tag k="natural" v="hill" />
		<tag k="place" v="locality" />
		<tag k="ssr:stedsnr" v="758399" />
	</node>
	<node id="-587969" lat="62.6873638872" lon="6.76620554895">
		<tag k="name" v="Hjellen" />
		<tag k="place" v="locality" />
		<tag k="ssr:stedsnr" v="758396" />
	</node>
	<node id="-587966" lat="62.6895472266" lon="6.85585555702">
		<tag k="name" v="Røysa" />
		<tag k="natural" v="slope" />
		<tag k="place" v="locality" />
		<tag k="ssr:stedsnr" v="758320" />
	</node>
	<node id="-587958" lat="62.664755555" lon="6.58192223201">
		<tag k="name" v="Leivikhaugen" />
		<tag k="natural" v="hill" />
		<tag k="place" v="locality" />
		<tag k="ssr:stedsnr" v="758188" />
	</node>
	<node id="-587955" lat="62.6699555591" lon="6.60002777143">
		<tag k="name" v="Nygardsaksla" />
		<tag k="place" v="locality" />
		<tag k="ssr:stedsnr" v="758135" />
	</node>
	<node id="-587954" lat="62.6433916627" lon="6.5347694429">
		<tag k="name" v="Stølen" />
		<tag k="natural" v="slope" />
		<tag k="place" v="locality" />
		<tag k="ssr:stedsnr" v="758136" />
	</node>
	<node id="-587953" lat="62.71745833" lon="6.71084722098">
		<tag k="name" v="Vethaugan" />
		<tag k="natural" v="hill" />
		<tag k="place" v="locality" />
		<tag k="ssr:stedsnr" v="758107" />
	</node>
	<node id="-587951" lat="62.7355277804" lon="6.72446943674">
		<tag k="name" v="Sandvikhaugen" />
		<tag k="natural" v="hill" />
		<tag k="place" v="locality" />
		<tag k="ssr:stedsnr" v="758062" />
	</node>
	<node id="-587950" lat="62.6603972241" lon="6.64253611238">
		<tag k="name" v="Korgarhaugen" />
		<tag k="natural" v="hill" />
		<tag k="place" v="locality" />
		<tag k="ssr:stedsnr" v="758019" />
	</node>
	<node id="-587946" lat="62.6628972185" lon="6.68945000792">
		<tag k="name" v="Geitvikberga" />
		<tag k="natural" v="hill" />
		<tag k="place" v="locality" />
		<tag k="ssr:stedsnr" v="749054" />
	</node>
	<node id="-587945" lat="62.666311114" lon="6.69791389732">
		<tag k="name" v="Kviteberget" />
		<tag k="natural" v="hill" />
		<tag k="place" v="locality" />
		<tag k="ssr:stedsnr" v="748059" />
	</node>
	<node id="-587943" lat="62.694730553" lon="6.68753332898">
		<tag k="name" v="Flathaugen" />
		<tag k="natural" v="hill" />
		<tag k="place" v="locality" />
		<tag k="ssr:stedsnr" v="748052" />
	</node>
	<node id="-587941" lat="62.6747972251" lon="6.70469999311">
		<tag k="name" v="Prekestolen" />
		<tag k="place" v="locality" />
		<tag k="ssr:stedsnr" v="740964" />
	</node>
	<node id="-587940" lat="62.6670055526" lon="6.59986112043">
		<tag k="name" v="Hatlebakkhammaren" />
		<tag k="natural" v="hill" />
		<tag k="place" v="locality" />
		<tag k="ssr:stedsnr" v="740931" />
	</node>
	<node id="-587935" lat="62.6703805526" lon="6.62283055988">
		<tag k="fixme" v="consider natural=peak for the most distinct mountains in the district" />
		<tag k="name" v="Høgfjellet" />
		<tag k="natural" v="hill" />
		<tag k="place" v="locality" />
		<tag k="ssr:stedsnr" v="740246" />
	</node>
	<node id="-587925" lat="62.6563394457" lon="6.57146760044">
		<tag k="name" v="Røysa" />
		<tag k="place" v="locality" />
		<tag k="ssr:stedsnr" v="718608" />
	</node>
	<node id="-587923" lat="62.7207833331" lon="6.87876945207">
		<tag k="name" v="Beinsetreset" />
		<tag k="natural" v="slope" />
		<tag k="place" v="locality" />
		<tag k="ssr:stedsnr" v="698961" />
	</node>
	<node id="-587922" lat="62.7265194435" lon="6.88878333671">
		<tag k="name" v="Myrsetheia" />
		<tag k="natural" v="hill" />
		<tag k="place" v="locality" />
		<tag k="ssr:stedsnr" v="698937" />
	</node>
	<node id="-587921" lat="62.7207833331" lon="6.87876945207">
		<tag k="name" v="Langelia" />
		<tag k="natural" v="slope" />
		<tag k="place" v="locality" />
		<tag k="ssr:stedsnr" v="698911" />
	</node>
	<node id="-587920" lat="62.7475722181" lon="6.91669167566">
		<tag k="name" v="Stauhaugen" />
		<tag k="natural" v="hill" />
		<tag k="place" v="locality" />
		<tag k="ssr:stedsnr" v="698690" />
	</node>
	<node id="-587917" lat="62.7109888894" lon="6.9271972205">
		<tag k="name" v="Skjenhammarskaret" />
		<tag k="natural" v="valley" />
		<tag k="place" v="locality" />
		<tag k="ssr:stedsnr" v="698556" />
	</node>
	<node id="-587916" lat="62.7253416692" lon="6.84716389332">
		<tag k="fixme" v="consider natural=peak for the most distinct mountains in the district" />
		<tag k="name" v="Middagstua" />
		<tag k="natural" v="hill" />
		<tag k="place" v="locality" />
		<tag k="ssr:stedsnr" v="698531" />
	</node>
	<node id="-587914" lat="62.732288891" lon="6.84836388216">
		<tag k="name" v="Rørsetaksla" />
		<tag k="place" v="locality" />
		<tag k="ssr:stedsnr" v="698524" />
	</node>
	<node id="-587912" lat="62.6776138892" lon="6.90899999591">
		<tag k="name" v="Smihaugen" />
		<tag k="natural" v="hill" />
		<tag k="place" v="locality" />
		<tag k="ssr:stedsnr" v="698435" />
	</node>
	<node id="-587911" lat="62.6759583309" lon="6.89462500843">
		<tag k="name" v="Bekkhola" />
		<tag k="natural" v="valley" />
		<tag k="place" v="locality" />
		<tag k="ssr:stedsnr" v="698427" />
	</node>
	<node id="-587910" lat="62.6928027806" lon="6.83983054621">
		<tag k="name" v="Linhammaren" />
		<tag k="natural" v="cliff" />
		<tag k="ssr:stedsnr" v="698227" />
	</node>
	<node id="-587908" lat="62.6693083344" lon="6.64882221592">
		<tag k="name" v="Bollhaugen" />
		<tag k="natural" v="hill" />
		<tag k="place" v="locality" />
		<tag k="ssr:stedsnr" v="697945" />
	</node>
	<node id="-587906" lat="62.7132777784" lon="6.79727500283">
		<tag k="name" v="Skålhammaren" />
		<tag k="natural" v="cliff" />
		<tag k="ssr:stedsnr" v="697698" />
	</node>
	<node id="-587905" lat="62.7091583294" lon="6.73708332933">
		<tag k="name" v="Sendingshaugen" />
		<tag k="natural" v="hill" />
		<tag k="place" v="locality" />
		<tag k="ssr:stedsnr" v="697588" />
	</node>
	<node id="-587903" lat="62.7027999985" lon="6.70995555256">
		<tag k="name" v="Gråhaugen" />
		<tag k="natural" v="hill" />
		<tag k="place" v="locality" />
		<tag k="ssr:stedsnr" v="697565" />
	</node>
	<node id="-587901" lat="62.6969111112" lon="6.75717500908">
		<tag k="name" v="Hestebakken" />
		<tag k="natural" v="slope" />
		<tag k="place" v="locality" />
		<tag k="ssr:stedsnr" v="697522" />
	</node>
	<node id="-587900" lat="62.6896361126" lon="6.75512778333">
		<tag k="name" v="Hålå" />
		<tag k="natural" v="slope" />
		<tag k="place" v="locality" />
		<tag k="ssr:stedsnr" v="697366" />
	</node>
	<node id="-587898" lat="62.6851083307" lon="6.62476944246">
		<tag k="name" v="Trollhellaren" />
		<tag k="place" v="locality" />
		<tag k="ssr:stedsnr" v="697323" />
	</node>
	<node id="-587897" lat="62.6832277787" lon="6.61981388175">
		<tag k="name" v="Geithellaren" />
		<tag k="place" v="locality" />
		<tag k="ssr:stedsnr" v="697322" />
	</node>
	<node id="-587894" lat="62.6815611082" lon="6.76909166">
		<tag k="name" v="Storhaugen" />
		<tag k="natural" v="hill" />
		<tag k="place" v="locality" />
		<tag k="ssr:stedsnr" v="697301" />
	</node>
	<node id="-587893" lat="62.7405750044" lon="6.71967221822">
		<tag k="name" v="Kjelsvikhammaren" />
		<tag k="natural" v="cliff" />
		<tag k="ssr:stedsnr" v="697180" />
	</node>
	<node id="-587891" lat="62.6721277771" lon="6.60205833963">
		<tag k="name" v="Stordalshaugen" />
		<tag k="natural" v="hill" />
		<tag k="place" v="locality" />
		<tag k="ssr:stedsnr" v="697132" />
	</node>
	<node id="-587890" lat="62.7172222216" lon="6.68996667266">
		<tag k="name" v="Ørnehaugen" />
		<tag k="natural" v="hill" />
		<tag k="place" v="locality" />
		<tag k="ssr:stedsnr" v="697079" />
	</node>
	<node id="-587888" lat="62.7313972234" lon="6.71921388635">
		<tag k="name" v="Måshaugen" />
		<tag k="natural" v="hill" />
		<tag k="place" v="locality" />
		<tag k="ssr:stedsnr" v="697046" />
	</node>
	<node id="-587884" lat="62.7051722205" lon="6.71546110787">
		<tag k="name" v="Løkhaugen" />
		<tag k="natural" v="hill" />
		<tag k="place" v="locality" />
		<tag k="ssr:stedsnr" v="688209" />
	</node>
	<node id="-587882" lat="62.6866499982" lon="6.66434165846">
		<tag k="name" v="Selvikhaugen" />
		<tag k="natural" v="hill" />
		<tag k="place" v="locality" />
		<tag k="ssr:stedsnr" v="688040" />
	</node>
	<node id="-587879" lat="62.69334722" lon="6.62955832923">
		<tag k="name" v="Storhaugen" />
		<tag k="natural" v="hill" />
		<tag k="place" v="locality" />
		<tag k="ssr:stedsnr" v="688037" />
	</node>
	<node id="-587878" lat="62.6901555597" lon="6.64150555539">
		<tag k="name" v="Morteberget" />
		<tag k="natural" v="hill" />
		<tag k="place" v="locality" />
		<tag k="ssr:stedsnr" v="688036" />
	</node>
	<node id="-587866" lat="62.7241055512" lon="6.92028888626">
		<tag k="fixme" v="consider natural=peak for the most distinct mountains in the district" />
		<tag k="name" v="Svinnsetåsen" />
		<tag k="natural" v="hill" />
		<tag k="place" v="locality" />
		<tag k="ssr:stedsnr" v="679091" />
	</node>
	<node id="-587865" lat="62.7248222192" lon="6.76466388467">
		<tag k="name" v="Saulia" />
		<tag k="natural" v="slope" />
		<tag k="place" v="locality" />
		<tag k="ssr:stedsnr" v="679083" />
	</node>
	<node id="-587864" lat="62.7302000028" lon="6.89171943956">
		<tag k="fixme" v="consider natural=peak for the most distinct mountains in the district" />
		<tag k="name" v="Tverrheia" />
		<tag k="natural" v="hill" />
		<tag k="place" v="locality" />
		<tag k="ssr:stedsnr" v="679077" />
	</node>
	<node id="-587859" lat="62.6808361101" lon="6.76161667014">
		<tag k="name" v="Klausethjellen" />
		<tag k="place" v="locality" />
		<tag k="ssr:stedsnr" v="647086" />
	</node>
	<node id="-587856" lat="62.7205638859" lon="6.86546944822">
		<tag k="name" v="Tjønnskaret" />
		<tag k="natural" v="valley" />
		<tag k="place" v="locality" />
		<tag k="ssr:stedsnr" v="637977" />
	</node>
	<node id="-587855" lat="62.7170222216" lon="6.89107778529">
		<tag k="name" v="Heimste Tåhaugen" />
		<tag k="natural" v="valley" />
		<tag k="place" v="locality" />
		<tag k="ssr:stedsnr" v="637940" />
	</node>
	<node id="-587854" lat="62.721872226" lon="6.91381389759">
		<tag k="name" v="Svinsetdalen" />
		<tag k="natural" v="valley" />
		<tag k="place" v="locality" />
		<tag k="ssr:stedsnr" v="637927" />
	</node>
	<node id="-587851" lat="62.7378777747" lon="6.87548888781">
		<tag k="name" v="Staken" />
		<tag k="natural" v="hill" />
		<tag k="place" v="locality" />
		<tag k="ssr:stedsnr" v="637743" />
	</node>
	<node id="-587850" lat="62.6993055568" lon="6.89604721487">
		<tag k="name" v="Høgreset" />
		<tag k="natural" v="slope" />
		<tag k="place" v="locality" />
		<tag k="ssr:stedsnr" v="637724" />
	</node>
	<node id="-587848" lat="62.7098666693" lon="6.89921943746">
		<tag k="name" v="Slettevollen" />
		<tag k="natural" v="slope" />
		<tag k="place" v="locality" />
		<tag k="ssr:stedsnr" v="637720" />
	</node>
	<node id="-587842" lat="62.6784027738" lon="6.91948611">
		<tag k="name" v="Søre Storskarhaugen" />
		<tag k="natural" v="hill" />
		<tag k="place" v="locality" />
		<tag k="ssr:stedsnr" v="637506" />
	</node>
	<node id="-587840" lat="62.6861527766" lon="6.82391665704">
		<tag k="name" v="Orsethaugane" />
		<tag k="natural" v="hill" />
		<tag k="place" v="locality" />
		<tag k="ssr:stedsnr" v="637361" />
	</node>
	<node id="-587839" lat="62.689241669" lon="6.83512776854">
		<tag k="name" v="Kvennhusnakken" />
		<tag k="natural" v="ridge" />
		<tag k="place" v="locality" />
		<tag k="ssr:stedsnr" v="637275" />
	</node>
	<node id="-587838" lat="62.6876194445" lon="6.84258333831">
		<tag k="name" v="Kvennhushaugen" />
		<tag k="natural" v="hill" />
		<tag k="place" v="locality" />
		<tag k="ssr:stedsnr" v="637266" />
	</node>
	<node id="-587834" lat="62.7150583343" lon="6.72130832484">
		<tag k="name" v="Tipphaugen" />
		<tag k="natural" v="hill" />
		<tag k="place" v="locality" />
		<tag k="ssr:stedsnr" v="636631" />
	</node>
	<node id="-587831" lat="62.6924805589" lon="6.76546943771">
		<tag k="name" v="Bakken" />
		<tag k="natural" v="slope" />
		<tag k="place" v="locality" />
		<tag k="ssr:stedsnr" v="636367" />
	</node>
	<node id="-587824" lat="62.6578833318" lon="6.59169166483">
		<tag k="name" v="Halsan" />
		<tag k="natural" v="ridge" />
		<tag k="place" v="locality" />
		<tag k="ssr:stedsnr" v="636150" />
	</node>
	<node id="-587822" lat="62.6588361145" lon="6.62984445269">
		<tag k="name" v="Ullahammaren" />
		<tag k="natural" v="cliff" />
		<tag k="ssr:stedsnr" v="636004" />
	</node>
	<node id="-587820" lat="62.7291861156" lon="6.70280000475">
		<tag k="name" v="Bergreset" />
		<tag k="natural" v="hill" />
		<tag k="place" v="locality" />
		<tag k="ssr:stedsnr" v="627221" />
	</node>
	<node id="-587815" lat="62.6555000009" lon="6.59335556274">
		<tag k="name" v="Naustneset" />
		<tag k="natural" v="hill" />
		<tag k="place" v="locality" />
		<tag k="ssr:stedsnr" v="626937" />
	</node>
	<node id="-587812" lat="62.6839833317" lon="6.62828054848">
		<tag k="name" v="Blåbærskaret" />
		<tag k="natural" v="valley" />
		<tag k="place" v="locality" />
		<tag k="ssr:stedsnr" v="618968" />
	</node>
	<node id="-587810" lat="62.6763527783" lon="6.7009444451">
		<tag k="fixme" v="consider natural=peak for the most distinct mountains in the district" />
		<tag k="name" v="Trollhesten" />
		<tag k="natural" v="hill" />
		<tag k="place" v="locality" />
		<tag k="ssr:stedsnr" v="618960" />
	</node>
	<node id="-587804" lat="62.7285555537" lon="6.69414721933">
		<tag k="name" v="Grønbakken" />
		<tag k="natural" v="slope" />
		<tag k="place" v="locality" />
		<tag k="ssr:stedsnr" v="618794" />
	</node>
	<node id="-587798" lat="62.718597218" lon="6.77706943694">
		<tag k="name" v="Vågsdalen" />
		<tag k="natural" v="valley" />
		<tag k="place" v="locality" />
		<tag k="ssr:stedsnr" v="618084" />
	</node>
	<node id="-587795" lat="62.7063583298" lon="6.76795555056">
		<tag k="name" v="Vardlia" />
		<tag k="natural" v="slope" />
		<tag k="place" v="locality" />
		<tag k="ssr:stedsnr" v="618076" />
	</node>
	<node id="-587794" lat="62.7074194471" lon="6.84326110458">
		<tag k="name" v="Råkbakken" />
		<tag k="natural" v="slope" />
		<tag k="place" v="locality" />
		<tag k="ssr:stedsnr" v="618075" />
	</node>
	<node id="-587792" lat="62.7331472183" lon="6.87761388419">
		<tag k="name" v="Bendsetdalen" />
		<tag k="natural" v="valley" />
		<tag k="place" v="locality" />
		<tag k="ssr:stedsnr" v="618066" />
	</node>
	<node id="-587782" lat="62.7114666645" lon="6.87430833928">
		<tag k="name" v="Botnen" />
		<tag k="natural" v="valley" />
		<tag k="place" v="locality" />
		<tag k="ssr:stedsnr" v="577531" />
	</node>
	<node id="-587781" lat="62.708241665" lon="6.87689721367">
		<tag k="name" v="Veafalhaugen" />
		<tag k="natural" v="hill" />
		<tag k="place" v="locality" />
		<tag k="ssr:stedsnr" v="577528" />
	</node>
	<node id="-587779" lat="62.6638388889" lon="6.65005832957">
		<tag k="name" v="Mildrihaugen" />
		<tag k="natural" v="hill" />
		<tag k="place" v="locality" />
		<tag k="ssr:stedsnr" v="576955" />
	</node>
	<node id="-587778" lat="62.7486638875" lon="6.91856389216">
		<tag k="name" v="Storhaugen" />
		<tag k="natural" v="hill" />
		<tag k="place" v="locality" />
		<tag k="ssr:stedsnr" v="576744" />
	</node>
</osm>
