<?xml version="1.0" encoding="UTF-8"?>
<osm generator="osmapis" version="0.6">
	<node id="-587264" lat="62.7326694436" lon="6.80689443618">
		<tag k="name" v="Rørsetura" />
		<tag k="natural" v="scree" />
		<tag k="ssr:stedsnr" v="881607" />
	</node>
	<node id="-586616" lat="62.6561277733" lon="6.58508333084">
		<tag k="name" v="Leitemyran" />
		<tag k="natural" v="wetland" />
		<tag k="ssr:stedsnr" v="194435" />
	</node>
	<node id="-586580" lat="62.7186083322" lon="6.69873333131">
		<tag k="name" v="Grønskarmyra" />
		<tag k="natural" v="wetland" />
		<tag k="ssr:stedsnr" v="151044" />
	</node>
	<node id="-587120" lat="62.7125250025" lon="6.88541943513">
		<tag k="name" v="Kvilaran" />
		<tag k="natural" v="stone" />
		<tag k="ssr:stedsnr" v="759719" />
	</node>
	<node id="-587117" lat="62.7076444424" lon="6.8758833358">
		<tag k="name" v="Veafalmyra" />
		<tag k="natural" v="wetland" />
		<tag k="ssr:stedsnr" v="759534" />
	</node>
	<node id="-586258" lat="62.7196166656" lon="6.89988888526">
		<tag k="name" v="Håkåbumyra" />
		<tag k="natural" v="wetland" />
		<tag k="ssr:stedsnr" v="92898" />
	</node>
	<node id="-586345" lat="62.6933944471" lon="6.61784167571">
		<tag k="name" v="Hellarmyra" />
		<tag k="natural" v="wetland" />
		<tag k="ssr:stedsnr" v="384052" />
	</node>
	<node id="-587240" lat="62.6855444485" lon="6.76059722345">
		<tag k="name" v="Mølet" />
		<tag k="natural" v="wetland" />
		<tag k="ssr:stedsnr" v="880265" />
	</node>
	<node id="-586976" lat="62.7035499993" lon="6.90075834286">
		<tag k="name" v="Bjørasteinen" />
		<tag k="natural" v="stone" />
		<tag k="ssr:stedsnr" v="637721" />
	</node>
	<node id="-586392" lat="62.6965888889" lon="6.86848611447">
		<tag k="name" v="Skaflåna" />
		<tag k="place" v="locality" />
		<tag k="ssr:stedsnr" v="395771" />
	</node>
	<node id="-586973" lat="62.7355416657" lon="6.85099445314">
		<tag k="name" v="Hansplassen" />
		<tag k="place" v="locality" />
		<tag k="ssr:stedsnr" v="637582" />
	</node>
	<node id="-586714" lat="62.6865916706" lon="6.61453333753">
		<tag k="name" v="Hellarmyra" />
		<tag k="natural" v="wetland" />
		<tag k="ssr:stedsnr" v="436883" />
	</node>
	<node id="-586383" lat="62.7077000013" lon="6.84272500551">
		<tag k="name" v="Rabbane" />
		<tag k="natural" v="scree" />
		<tag k="ssr:stedsnr" v="395515" />
	</node>
	<node id="-586455" lat="62.6694388904" lon="6.71382778364">
		<tag k="name" v="Leitet" />
		<tag k="place" v="locality" />
		<tag k="ssr:stedsnr" v="30503" />
	</node>
	<node id="-587094" lat="62.6761166636" lon="6.6364444465">
		<tag k="name" v="Instemyra" />
		<tag k="natural" v="wetland" />
		<tag k="ssr:stedsnr" v="758341" />
	</node>
	<node id="-587092" lat="62.6846361068" lon="6.75907222933">
		<tag k="name" v="Gullbergmyra" />
		<tag k="natural" v="wetland" />
		<tag k="ssr:stedsnr" v="758312" />
	</node>
	<node id="-587088" lat="62.6568055527" lon="6.57746944292">
		<tag k="name" v="Djupemyran" />
		<tag k="natural" v="wetland" />
		<tag k="ssr:stedsnr" v="758199" />
	</node>
	<node id="-587087" lat="62.6580777748" lon="6.57528888597">
		<tag k="name" v="Kvamskjerven" />
		<tag k="place" v="locality" />
		<tag k="ssr:stedsnr" v="758194" />
	</node>
	<node id="-586957" lat="62.6942388877" lon="6.63498332624">
		<tag k="name" v="Ytstemyra" />
		<tag k="natural" v="wetland" />
		<tag k="ssr:stedsnr" v="636318" />
	</node>
	<node id="-586444" lat="62.6682805591" lon="6.59168333315">
		<tag k="name" v="Øygardsskjerven" />
		<tag k="place" v="locality" />
		<tag k="ssr:stedsnr" v="30128" />
	</node>
	<node id="-587232" lat="62.6615777798" lon="6.63711666256">
		<tag k="name" v="Grønlimyra" />
		<tag k="natural" v="wetland" />
		<tag k="ssr:stedsnr" v="880025" />
	</node>
	<node id="-586697" lat="62.6871888909" lon="6.62113887912">
		<tag k="name" v="Skjervamyra" />
		<tag k="natural" v="wetland" />
		<tag k="ssr:stedsnr" v="263061" />
	</node>
	<node id="-586434" lat="62.6592750026" lon="6.61900832515">
		<tag k="name" v="Øvresvean" />
		<tag k="place" v="locality" />
		<tag k="ssr:stedsnr" v="30003" />
	</node>
	<node id="-586945" lat="62.6929027806" lon="6.69087500495">
		<tag k="name" v="Langåkermyra" />
		<tag k="natural" v="wetland" />
		<tag k="ssr:stedsnr" v="627060" />
	</node>
	<node id="-587071" lat="62.6636305536" lon="6.68566110486">
		<tag k="name" v="Korsvikmyra" />
		<tag k="natural" v="wetland" />
		<tag k="ssr:stedsnr" v="748057" />
	</node>
	<node id="-586864" lat="62.6678444428" lon="6.7059472184">
		<tag k="name" v="Juvikmyrane" />
		<tag k="natural" v="wetland" />
		<tag k="ssr:stedsnr" v="566071" />
	</node>
	<node id="-586301" lat="62.6754194413" lon="6.91139722107">
		<tag k="name" v="Vatle" />
		<tag k="place" v="locality" />
		<tag k="ssr:stedsnr" v="334438" />
	</node>
	<node id="-586300" lat="62.673749997" lon="6.89204445329">
		<tag k="name" v="Stegane" />
		<tag k="place" v="locality" />
		<tag k="ssr:stedsnr" v="334425" />
	</node>
	<node id="-586299" lat="62.6710722244" lon="6.87873610995">
		<tag k="name" v="Brensla" />
		<tag k="natural" v="wetland" />
		<tag k="ssr:stedsnr" v="334358" />
	</node>
	<node id="-587193" lat="62.7195277737" lon="6.91171388948">
		<tag k="name" v="Langlimyrane" />
		<tag k="natural" v="wetland" />
		<tag k="ssr:stedsnr" v="820919" />
	</node>
	<node id="-586313" lat="62.7127083354" lon="6.91292222803">
		<tag k="name" v="Langemyra" />
		<tag k="natural" v="wetland" />
		<tag k="ssr:stedsnr" v="334692" />
	</node>
	<node id="-587315" lat="62.6752666623" lon="6.90666944686">
		<tag k="name" v="Leitamyra" />
		<tag k="natural" v="wetland" />
		<tag k="ssr:stedsnr" v="941461" />
	</node>
	<node id="-586674" lat="62.6442499975" lon="6.53872500527">
		<tag k="name" v="Terningen" />
		<tag k="natural" v="stone" />
		<tag k="ssr:stedsnr" v="254434" />
	</node>
	<node id="-586399" lat="62.7162083309" lon="6.89666388403">
		<tag k="name" v="Myrsetvaet" />
		<tag k="natural" v="wetland" />
		<tag k="ssr:stedsnr" v="881903" />
	</node>
	<node id="-586543" lat="62.7089694458" lon="6.75884722735">
		<tag k="name" v="Skotura" />
		<tag k="natural" v="scree" />
		<tag k="ssr:stedsnr" v="91720" />
	</node>
	<node id="-586271" lat="62.6551833342" lon="6.58879444558">
		<tag k="name" v="Botnmyran" />
		<tag k="natural" v="wetland" />
		<tag k="ssr:stedsnr" v="333179" />
	</node>
	<node id="-586282" lat="62.6787472217" lon="6.6026083252">
		<tag k="name" v="Grøsokvollen" />
		<tag k="place" v="locality" />
		<tag k="ssr:stedsnr" v="333400" />
	</node>
	<node id="-586524" lat="62.6893694445" lon="6.77064721704">
		<tag k="name" v="Diplane" />
		<tag k="natural" v="wetland" />
		<tag k="ssr:stedsnr" v="91389" />
	</node>
	<node id="-586528" lat="62.6715166712" lon="6.88712222311">
		<tag k="name" v="Nestemyrane" />
		<tag k="natural" v="wetland" />
		<tag k="ssr:stedsnr" v="91415" />
	</node>
	<node id="-586783" lat="62.723919441" lon="6.74861111794">
		<tag k="name" v="Vågsmyran" />
		<tag k="natural" v="wetland" />
		<tag k="ssr:stedsnr" v="497076" />
	</node>
	<node id="-586270" lat="62.6575583299" lon="6.5872361094">
		<tag k="name" v="Sebergskjerven" />
		<tag k="place" v="locality" />
		<tag k="ssr:stedsnr" v="333178" />
	</node>
	<node id="-586629" lat="62.7323611091" lon="6.69543611845">
		<tag k="name" v="Torvemyrane" />
		<tag k="natural" v="wetland" />
		<tag k="ssr:stedsnr" v="203242" />
	</node>
	<node id="-587036" lat="62.6659305561" lon="6.66005000892">
		<tag k="name" v="Gråura" />
		<tag k="natural" v="scree" />
		<tag k="ssr:stedsnr" v="697951" />
	</node>
	<node id="-587290" lat="62.7311194447" lon="6.69228055676">
		<tag k="name" v="Stormyra" />
		<tag k="natural" v="wetland" />
		<tag k="ssr:stedsnr" v="931212" />
	</node>
	<node id="-587034" lat="62.696799998" lon="6.63161387992">
		<tag k="name" v="Hjellmyra" />
		<tag k="natural" v="wetland" />
		<tag k="ssr:stedsnr" v="697872" />
	</node>
	<node id="-587161" lat="62.6713749979" lon="6.59938889666">
		<tag k="name" v="Nygardssletta" />
		<tag k="place" v="locality" />
		<tag k="ssr:stedsnr" v="819117" />
	</node>
	<node id="-586648" lat="62.6742777734" lon="6.90576110615">
		<tag k="name" v="Nestemyra" />
		<tag k="natural" v="wetland" />
		<tag k="ssr:stedsnr" v="212454" />
	</node>
	<node id="-586647" lat="62.6753555517" lon="6.89335833213">
		<tag k="name" v="Ekra" />
		<tag k="place" v="locality" />
		<tag k="ssr:stedsnr" v="212451" />
	</node>
	<node id="-586646" lat="62.6784583372" lon="6.60063054675">
		<tag k="name" v="Digernesmyran" />
		<tag k="natural" v="wetland" />
		<tag k="ssr:stedsnr" v="212364" />
	</node>
	<node id="-586515" lat="62.6463138875" lon="6.5303111019">
		<tag k="name" v="Trollkjerka" />
		<tag k="natural" v="stone" />
		<tag k="ssr:stedsnr" v="91111" />
	</node>
	<node id="-587026" lat="62.6903305544" lon="6.61867778415">
		<tag k="name" v="Langemyra" />
		<tag k="natural" v="wetland" />
		<tag k="ssr:stedsnr" v="697329" />
	</node>
	<node id="-586520" lat="62.6928833301" lon="6.84985000593">
		<tag k="name" v="Skatmyra" />
		<tag k="natural" v="wetland" />
		<tag k="ssr:stedsnr" v="91271" />
	</node>
	<node id="-586861" lat="62.6687666643" lon="6.64947500361">
		<tag k="name" v="Rambergmyrane" />
		<tag k="natural" v="wetland" />
		<tag k="ssr:stedsnr" v="566051" />
	</node>
	<node id="-586636" lat="62.6646888925" lon="6.59977500945">
		<tag k="name" v="Ådalssletta" />
		<tag k="place" v="locality" />
		<tag k="ssr:stedsnr" v="212112" />
	</node>
	<node id="-586890" lat="62.6696972225" lon="6.88388889474">
		<tag k="name" v="Kløvningen" />
		<tag k="natural" v="stone" />
		<tag k="ssr:stedsnr" v="576394" />
	</node>
	<node id="-586888" lat="62.6897333378" lon="6.83183888673">
		<tag k="name" v="Storsteinane" />
		<tag k="natural" v="stone" />
		<tag k="ssr:stedsnr" v="576379" />
	</node>
	<node id="-586911" lat="62.6953777778" lon="6.87464443756">
		<tag k="name" v="Rabben" />
		<tag k="natural" v="scree" />
		<tag k="ssr:stedsnr" v="577773" />
	</node>
	<node id="-586758" lat="62.6870666662" lon="6.66897500209">
		<tag k="name" v="Stormyra" />
		<tag k="natural" v="wetland" />
		<tag k="ssr:stedsnr" v="455324" />
	</node>
	<node id="-586885" lat="62.6827638848" lon="6.75289721733">
		<tag k="name" v="Liamyra" />
		<tag k="natural" v="wetland" />
		<tag k="ssr:stedsnr" v="576256" />
	</node>
	<node id="-586487" lat="62.7192138885" lon="6.89815555913">
		<tag k="name" v="Myran" />
		<tag k="natural" v="wetland" />
		<tag k="ssr:stedsnr" v="72090" />
	</node>
	<node id="-587010" lat="62.6687666643" lon="6.64986388521">
		<tag k="name" v="Høgsetmyrane" />
		<tag k="natural" v="wetland" />
		<tag k="ssr:stedsnr" v="688045" />
	</node>
	<node id="-586625" lat="62.7024527806" lon="6.71159166825">
		<tag k="name" v="Gråhaugmyra" />
		<tag k="natural" v="wetland" />
		<tag k="ssr:stedsnr" v="203230" />
	</node>
</osm>
