<?xml version="1.0" encoding="UTF-8"?>
<osm generator="osmapis" version="0.6">
	<node id="-587902" lat="62.7071972222" lon="6.74729721793">
		<tag k="name" v="Holselva" />
		<tag k="ssr:stedsnr" v="697525" />
		<tag k="waterway" v="river" />
	</node>
	<node id="-587389" lat="62.6639277745" lon="6.59960276836">
		<tag k="name" v="Ådalselva" />
		<tag k="ssr:stedsnr" v="91120" />
		<tag k="waterway" v="stream" />
	</node>
	<node id="-587643" lat="62.7391222233" lon="6.88168610424">
		<tag k="name" v="Beinsetelva" />
		<tag k="ssr:stedsnr" v="455729" />
		<tag k="waterway" v="river" />
	</node>
	<node id="-587641" lat="62.7076944458" lon="6.76301944297">
		<tag k="name" v="Grøvlelva" />
		<tag k="ssr:stedsnr" v="455685" />
		<tag k="waterway" v="river" />
	</node>
	<node id="-587876" lat="62.6795472204" lon="6.63014444493">
		<tag k="name" v="Fetaelva" />
		<tag k="ssr:stedsnr" v="679970" />
		<tag k="waterway" v="stream" />
	</node>
	<node id="-587380" lat="62.6991694447" lon="6.75039165744">
		<tag k="name" v="Løkane" />
		<tag k="ssr:stedsnr" v="81239" />
		<tag k="waterway" v="stream" />
	</node>
	<node id="-587251" lat="62.7082361155" lon="6.70450833073">
		<tag k="name" v="Våtå" />
		<tag k="ssr:stedsnr" v="394577" />
		<tag k="waterway" v="river" />
	</node>
	<node id="-587887" lat="62.6732750012" lon="6.63785276826">
		<tag k="name" v="Kvennelva" />
		<tag k="ssr:stedsnr" v="697014" />
		<tag k="waterway" v="stream" />
	</node>
	<node id="-588142" lat="62.7082972244" lon="6.89762222734">
		<tag k="name" v="Nord-Heggdalselva" />
		<tag k="ssr:stedsnr" v="900645" />
		<tag k="waterway" v="river" />
	</node>
	<node id="-588011" lat="62.7156944432" lon="6.70602500797">
		<tag k="name" v="Velteløken" />
		<tag k="ssr:stedsnr" v="800922" />
		<tag k="waterway" v="stream" />
	</node>
	<node id="-587886" lat="62.7163611132" lon="6.75943611185">
		<tag k="name" v="Torsvikelva" />
		<tag k="ssr:stedsnr" v="694685" />
		<tag k="waterway" v="river" />
	</node>
	<node id="-587239" lat="62.6902083351" lon="6.75178332954">
		<tag k="name" v="Hestelielva" />
		<tag k="ssr:stedsnr" v="394350" />
		<tag k="waterway" v="stream" />
	</node>
	<node id="-587748" lat="62.7192749957" lon="6.7002916665">
		<tag k="name" v="Oselva" />
		<tag k="ssr:stedsnr" v="575077" />
		<tag k="waterway" v="river" />
	</node>
	<node id="-588002" lat="62.713972224" lon="6.86189444924">
		<tag k="name" v="Heggdalsvatnet" />
		<tag k="natural" v="water" />
		<tag k="ssr:stedsnr" v="800070" />
	</node>
	<node id="-587359" lat="62.7137666698" lon="6.89465000614">
		<tag k="name" v="Tverråna" />
		<tag k="ssr:stedsnr" v="72076" />
		<tag k="waterway" v="stream" />
	</node>
	<node id="-587099" lat="62.7007777809" lon="6.7677000019">
		<tag k="name" v="Holslielva" />
		<tag k="ssr:stedsnr" v="273724" />
		<tag k="waterway" v="stream" />
	</node>
	<node id="-588132" lat="62.7086277821" lon="6.71651389408">
		<tag k="name" v="Leirgrova" />
		<tag k="ssr:stedsnr" v="880617" />
		<tag k="waterway" v="stream" />
	</node>
	<node id="-587221" lat="62.6932916697" lon="6.69400832868">
		<tag k="name" v="Sivertdammen" />
		<tag k="natural" v="water" />
		<tag k="ssr:stedsnr" v="384067" />
	</node>
	<node id="-587348" lat="62.7167944472" lon="6.87482778341">
		<tag k="name" v="Foselva" />
		<tag k="ssr:stedsnr" v="31976" />
		<tag k="waterway" v="river" />
	</node>
	<node id="-587731" lat="62.6647916651" lon="6.62275277185">
		<tag k="name" v="Bløvatnet" />
		<tag k="natural" v="water" />
		<tag k="ssr:stedsnr" v="557940" />
	</node>
	<node id="-587472" lat="62.7132222221" lon="6.87044722632">
		<tag k="name" v="Klingelva" />
		<tag k="ssr:stedsnr" v="152747" />
		<tag k="waterway" v="river" />
	</node>
	<node id="-587343" lat="62.7008472213" lon="6.85989166274">
		<tag k="name" v="Kyrabotnelva" />
		<tag k="ssr:stedsnr" v="31511" />
		<tag k="waterway" v="stream" />
	</node>
	<node id="-587342" lat="62.6709666692" lon="6.64460000143">
		<tag k="name" v="Junkerelva" />
		<tag k="ssr:stedsnr" v="30955" />
		<tag k="waterway" v="stream" />
	</node>
	<node id="-588109" lat="62.7262472218" lon="6.77908332903">
		<tag k="name" v="Svora" />
		<tag k="ssr:stedsnr" v="880214" />
		<tag k="waterway" v="stream" />
	</node>
	<node id="-587212" lat="62.6725055549" lon="6.61500277826">
		<tag k="name" v="Stordalsvatnet" />
		<tag k="natural" v="water" />
		<tag k="ssr:stedsnr" v="375942" />
	</node>
	<node id="-587082" lat="62.7227333351" lon="6.70501944762">
		<tag k="name" v="Osen" />
		<tag k="natural" v="bay" />
		<tag k="ssr:stedsnr" v="272100" />
	</node>
	<node id="-587593" lat="62.6750277762" lon="6.62316110753">
		<tag k="name" v="Svartevatnet" />
		<tag k="natural" v="water" />
		<tag k="ssr:stedsnr" v="436952" />
	</node>
	<node id="-587801" lat="62.7366750014" lon="6.91300277596">
		<tag k="alt_name" v="Rongkallelva" />
		<tag k="name" v="Romkallelva" />
		<tag k="ssr:stedsnr" v="618104" />
		<tag k="waterway" v="stream" />
	</node>
	<node id="-587980" lat="62.712447221" lon="6.74143888594">
		<tag k="name" v="Kjerringvatnet" />
		<tag k="natural" v="water" />
		<tag k="ssr:stedsnr" v="758604" />
		<tag k="water" v="lake" />
	</node>
	<node id="-587590" lat="62.6991416709" lon="6.70851945164">
		<tag k="name" v="Kyrkjeelva" />
		<tag k="ssr:stedsnr" v="436902" />
		<tag k="waterway" v="stream" />
	</node>
	<node id="-588098" lat="62.7333777803" lon="6.73478611257">
		<tag k="name" v="Stortjønna" />
		<tag k="natural" v="water" />
		<tag k="ssr:stedsnr" v="879062" />
	</node>
	<node id="-587968" lat="62.677149997" lon="6.73953054687">
		<tag k="name" v="Rennelva" />
		<tag k="ssr:stedsnr" v="758389" />
		<tag k="waterway" v="stream" />
	</node>
	<node id="-587325" lat="62.689563893" lon="6.61450554774">
		<tag k="name" v="Kvennelva" />
		<tag k="ssr:stedsnr" v="30376" />
		<tag k="waterway" v="stream" />
	</node>
	<node id="-587995" lat="62.7217305584" lon="6.90935278257">
		<tag k="name" v="Svinsetelva" />
		<tag k="ssr:stedsnr" v="759922" />
		<tag k="waterway" v="stream" />
	</node>
	<node id="-587252" lat="62.6880666707" lon="6.74735833293">
		<tag k="name" v="Lappedalselva" />
		<tag k="ssr:stedsnr" v="394657" />
		<tag k="waterway" v="river" />
	</node>
	<node id="-587273" lat="62.7251944448" lon="6.91785833111">
		<tag k="name" v="Leteelva" />
		<tag k="ssr:stedsnr" v="881920" />
		<tag k="waterway" v="stream" />
	</node>
	<node id="-587691" lat="62.7085694486" lon="6.72898055924">
		<tag k="name" v="Innafor straumen" />
		<tag k="natural" v="water" />
		<tag k="ssr:stedsnr" v="515609" />
		<tag k="water" v="lake" />
	</node>
	<node id="-587443" lat="62.6718472245" lon="6.62728332755">
		<tag k="name" v="Bløelva" />
		<tag k="ssr:stedsnr" v="133954" />
		<tag k="waterway" v="stream" />
	</node>
	<node id="-587735" lat="62.6794138875" lon="6.67789444139">
		<tag k="name" v="Bakkelva" />
		<tag k="ssr:stedsnr" v="566061" />
		<tag k="waterway" v="river" />
	</node>
	<node id="-587436" lat="62.7113527794" lon="6.8125638947">
		<tag k="name" v="Mørkevatnet" />
		<tag k="natural" v="water" />
		<tag k="ssr:stedsnr" v="132069" />
	</node>
	<node id="-587179" lat="62.7132472204" lon="6.86124443518">
		<tag k="name" v="Vatneneset" />
		<tag k="natural" v="cape" />
		<tag k="ssr:stedsnr" v="334502" />
	</node>
	<node id="-587434" lat="62.7034750002" lon="6.75088332573">
		<tag k="name" v="Holsvatnet" />
		<tag k="natural" v="water" />
		<tag k="ssr:stedsnr" v="132038" />
		<tag k="water" v="lake" />
	</node>
	<node id="-587847" lat="62.7250027815" lon="6.8309444439">
		<tag k="name" v="Ræstadelva" />
		<tag k="ssr:stedsnr" v="637644" />
		<tag k="waterway" v="river" />
	</node>
	<node id="-587690" lat="62.7101583348" lon="6.72336945354">
		<tag k="name" v="Kattaneset" />
		<tag k="natural" v="cape" />
		<tag k="ssr:stedsnr" v="515607" />
	</node>
	<node id="-587811" lat="62.6813055556" lon="6.69862500694">
		<tag k="name" v="Midsundvatnet" />
		<tag k="natural" v="water" />
		<tag k="ssr:stedsnr" v="618964" />
	</node>
	<node id="-587426" lat="62.7120972209" lon="6.8801694435">
		<tag k="name" v="Balliskarelva" />
		<tag k="ssr:stedsnr" v="92726" />
		<tag k="waterway" v="river" />
	</node>
	<node id="-587553" lat="62.6981527772" lon="6.78955276922">
		<tag k="name" v="Heggdalselva" />
		<tag k="ssr:stedsnr" v="254036" />
		<tag k="waterway" v="stream" />
	</node>
	<node id="-588191" lat="62.7084333311" lon="6.88065278577">
		<tag k="name" v="Seterelva" />
		<tag k="ssr:stedsnr" v="941529" />
		<tag k="waterway" v="stream" />
	</node>
	<node id="-587421" lat="62.7252416673" lon="6.84923333357">
		<tag k="name" v="Litlevatnet" />
		<tag k="natural" v="water" />
		<tag k="ssr:stedsnr" v="92555" />
	</node>
	<node id="-587674" lat="62.6643694465" lon="6.61481111903">
		<tag k="name" v="Åndalsvatnet" />
		<tag k="natural" v="water" />
		<tag k="ssr:stedsnr" v="515005" />
		<tag k="water" v="lake" />
	</node>
	<node id="-588057" lat="62.6851722205" lon="6.71300555534">
		<tag k="name" v="Digergubbvatnet" />
		<tag k="natural" v="water" />
		<tag k="ssr:stedsnr" v="819678" />
	</node>
	<node id="-587306" lat="62.7254138906" lon="6.86838889788">
		<tag k="name" v="Beinsetvatnet" />
		<tag k="natural" v="water" />
		<tag k="ssr:stedsnr" v="27705" />
	</node>
	<node id="-588054" lat="62.6971361104" lon="6.70264443801">
		<tag k="name" v="Holåelva" />
		<tag k="ssr:stedsnr" v="819580" />
		<tag k="waterway" v="river" />
	</node>
	<node id="-587797" lat="62.719891668" lon="6.83570000192">
		<tag k="name" v="Ræstadvatnet" />
		<tag k="natural" v="water" />
		<tag k="ssr:stedsnr" v="618081" />
	</node>
	<node id="-587411" lat="62.7093305551" lon="6.92826389229">
		<tag k="name" v="Jensetelva" />
		<tag k="ssr:stedsnr" v="91594" />
		<tag k="waterway" v="stream" />
	</node>
	<node id="-588056" lat="62.6783444488" lon="6.73362500261">
		<tag k="name" v="Svorabekken" />
		<tag k="ssr:stedsnr" v="819673" />
		<tag k="waterway" v="stream" />
	</node>
	<node id="-588171" lat="62.697497225" lon="6.81974443924">
		<tag k="name" v="Opstadvatnet" />
		<tag k="natural" v="water" />
		<tag k="ssr:stedsnr" v="937720" />
	</node>
	<node id="-588119" lat="62.6838000043" lon="6.74639999804">
		<tag k="name" v="Hålåelva" />
		<tag k="ssr:stedsnr" v="880351" />
		<tag k="waterway" v="stream" />
	</node>
	<node id="-587399" lat="62.6845499999" lon="6.74942499766">
		<tag k="name" v="Hålå" />
		<tag k="ssr:stedsnr" v="91395" />
		<tag k="waterway" v="stream" />
	</node>
	<node id="-588030" lat="62.7267111097" lon="6.72143333532">
		<tag k="name" v="Svenskegrova" />
		<tag k="ssr:stedsnr" v="819057" />
		<tag k="waterway" v="stream" />
	</node>
	<node id="-587525" lat="62.7227749995" lon="6.93049721504">
		<tag k="name" v="Svinnsetelva" />
		<tag k="ssr:stedsnr" v="212541" />
		<tag k="waterway" v="stream" />
	</node>
	<node id="-587140" lat="62.6736388916" lon="6.60789999286">
		<tag k="name" v="Stordalselva" />
		<tag k="ssr:stedsnr" v="333124" />
		<tag k="waterway" v="stream" />
	</node>
	<node id="-587394" lat="62.6854000036" lon="6.78851666609">
		<tag k="name" v="Vikaelva" />
		<tag k="ssr:stedsnr" v="91302" />
		<tag k="waterway" v="stream" />
	</node>
	<node id="-588075" lat="62.7052138849" lon="6.80586111903">
		<tag k="name" v="Lomtjørna" />
		<tag k="natural" v="water" />
		<tag k="ssr:stedsnr" v="861045" />
	</node>
</osm>
