<?xml version="1.0" encoding="UTF-8"?>
<osm version="0.6" generator="osmapis">
	<node lat="68.73638414178541" lon="17.322120211192157" id="-96404">
		<tag k="name" v="Lille Grøsnes" />
		<tag k="old_name" v="Grøsnes, l" />
		<tag k="ssr:date" v="2020-09-17" />
		<tag k="ssr:gruppe" v="navigasjon" />
		<tag k="ssr:hovedgruppe" v="infrastruktur" />
		<tag k="ssr:stedsnr" v="503873" />
		<tag k="ssr:type" v="fyrlykt" />
	</node>
	<node lat="68.6927277735936" lon="17.531844445789623" id="-96801">
		<tag k="alt_name:no" v="Gratangen" />
		<tag k="loc_name:se" v="Rivttága suohkan" />
		<tag k="name" v="Gratangen kommune" />
		<tag k="name:no" v="Gratangen kommune" />
		<tag k="ssr:date" v="2019-12-27" />
		<tag k="ssr:gruppe" v="administrativeIndelinger" />
		<tag k="ssr:hovedgruppe" v="offentligAdministrasjon" />
		<tag k="ssr:stedsnr" v="511075" />
		<tag k="ssr:type" v="kommune" />
	</node>
	<node lat="68.80910277327254" lon="17.382163891722108" id="-96983">
		<tag k="name" v="Tåga" />
		<tag k="ssr:date" v="2019-12-27" />
		<tag k="ssr:gruppe" v="sjøbunn" />
		<tag k="ssr:hovedgruppe" v="sjø" />
		<tag k="ssr:stedsnr" v="879963" />
		<tag k="ssr:type" v="havdyp" />
	</node>
</osm>
