<?xml version="1.0" encoding="UTF-8"?>
<<<<<<< HEAD
<osm version="0.6" generator="osmapis">
	<node lat="68.28831666766654" lon="15.046002783430398" id="-17147">
		<tag k="name" v="Pundslettvatnet" />
		<tag k="natural" v="water" />
		<tag k="ssr:stedsnr" v="17061" />
	</node>
	<node lat="68.25290000373681" lon="14.55216389076589" id="-17169">
		<tag k="name" v="Knutvatnet" />
		<tag k="natural" v="water" />
		<tag k="ssr:stedsnr" v="17703" />
	</node>
	<node lat="68.35813611191756" lon="14.762791669061608" id="-17183">
		<tag k="name" v="Åselva" />
		<tag k="ssr:stedsnr" v="22801" />
		<tag k="waterway" v="stream" />
	</node>
	<node lat="68.36210555686513" lon="14.72889998943794" id="-17184">
		<tag k="name" v="Langlielva" />
		<tag k="ssr:stedsnr" v="22803" />
		<tag k="waterway" v="stream" />
	</node>
	<node lat="68.27600833705577" lon="15.01845556704844" id="-17187">
		<tag k="name" v="Storelva" />
		<tag k="ssr:stedsnr" v="25177" />
		<tag k="waterway" v="river" />
	</node>
	<node lat="68.30236944589006" lon="14.749938888682534" id="-17198">
		<tag k="name" v="Bakkjordelva" />
		<tag k="ssr:stedsnr" v="28415" />
		<tag k="waterway" v="river" />
	</node>
	<node lat="68.29152221937223" lon="14.692627782924433" id="-17199">
		<tag k="name" v="Oterbekken" />
		<tag k="ssr:stedsnr" v="28422" />
		<tag k="waterway" v="stream" />
	</node>
	<node lat="68.3249388898608" lon="14.52211944941788" id="-17203">
		<tag k="name" v="Eidet" />
		<tag k="place" v="locality" />
		<tag k="ssr:stedsnr" v="42873" />
	</node>
	<node lat="68.27270833500074" lon="14.342897219993612" id="-17208">
		<tag k="name" v="Middagselva" />
		<tag k="ssr:stedsnr" v="239682" />
		<tag k="waterway" v="stream" />
	</node>
	<node lat="68.30246388430288" lon="14.348294449402792" id="-17214">
		<tag k="name" v="Dalvatnet" />
		<tag k="natural" v="water" />
		<tag k="ssr:stedsnr" v="57721" />
	</node>
	<node lat="68.26309444260832" lon="14.394833334512555" id="-17215">
		<tag k="name" v="Memerendtjønna" />
		<tag k="natural" v="water" />
		<tag k="ssr:stedsnr" v="57674" />
		<tag k="water" v="lake" />
	</node>
	<node lat="68.2845583366508" lon="14.161633342078197" id="-17217">
		<tag k="alt_name" v="Gjendalselva" />
		<tag k="name" v="Jenndalselva" />
		<tag k="ssr:stedsnr" v="59474" />
		<tag k="waterway" v="stream" />
	</node>
	<node lat="68.320027778809" lon="15.120091670265493" id="-17224">
		<tag k="name" v="Litlvatnet" />
		<tag k="natural" v="water" />
		<tag k="ssr:stedsnr" v="77001" />
	</node>
	<node lat="68.34307778026499" lon="14.530408343946819" id="-17235">
		<tag k="name" v="Omndalsvatnet" />
		<tag k="natural" v="water" />
		<tag k="ssr:stedsnr" v="77400" />
	</node>
	<node lat="68.34358888711051" lon="14.683216663937515" id="-17236">
		<tag k="name" v="Lomstjørna" />
		<tag k="natural" v="water" />
		<tag k="ssr:stedsnr" v="77401" />
	</node>
	<node lat="68.289802775909" lon="14.153419439246232" id="-17251">
		<tag k="name" v="Ånevatnet" />
		<tag k="natural" v="water" />
		<tag k="ssr:stedsnr" v="78065" />
	</node>
	<node lat="68.22528055774617" lon="14.452119435964796" id="-17255">
		<tag k="alt_name" v="Svarttjørna" />
		<tag k="name" v="Svarttjønna" />
		<tag k="natural" v="water" />
		<tag k="ssr:stedsnr" v="78305" />
	</node>
	<node lat="68.3291999974368" lon="14.802911105261769" id="-17259">
		<tag k="name" v="Durmålselva" />
		<tag k="ssr:stedsnr" v="78411" />
		<tag k="waterway" v="stream" />
	</node>
	<node lat="68.32759166386548" lon="14.522016669905694" id="-17261">
		<tag k="alt_name" v="Lillevatnet" />
		<tag k="name" v="Litlvatnet" />
		<tag k="natural" v="water" />
		<tag k="ssr:stedsnr" v="78414" />
	</node>
	<node lat="68.32934166928821" lon="14.574952778756554" id="-17263">
		<tag k="alt_name" v="Mørkdalsvatnet, in;Indre Mørkdalsvatn" />
		<tag k="name" v="Indre Mørkdalsvatnet" />
		<tag k="natural" v="water" />
		<tag k="ssr:stedsnr" v="78418" />
	</node>
	<node lat="68.31665278163734" lon="14.545697222832068" id="-17267">
		<tag k="name" v="Storvatnet" />
		<tag k="natural" v="water" />
		<tag k="ssr:stedsnr" v="78517" />
		<tag k="water" v="lake" />
	</node>
	<node lat="68.32181110820653" lon="14.893713899349343" id="-17269">
		<tag k="name" v="Litlvatnet" />
		<tag k="natural" v="water" />
		<tag k="ssr:stedsnr" v="78544" />
	</node>
	<node lat="68.32083333524524" lon="15.026297229482301" id="-17286">
		<tag k="name" v="Oselva" />
		<tag k="ssr:stedsnr" v="86106" />
		<tag k="waterway" v="stream" />
	</node>
	<node lat="68.35823888560027" lon="14.569766671953062" id="-17293">
		<tag k="name" v="Heimerelva" />
		<tag k="ssr:stedsnr" v="88129" />
		<tag k="waterway" v="stream" />
	</node>
	<node lat="68.38557778166681" lon="14.465624998056137" id="-17308">
		<tag k="name" v="Høljan" />
		<tag k="natural" v="water" />
		<tag k="ssr:stedsnr" v="101780" />
	</node>
	<node lat="68.24019721831887" lon="14.28506666484143" id="-17314">
		<tag k="name" v="Fabrikkelva" />
		<tag k="ssr:stedsnr" v="105012" />
		<tag k="waterway" v="stream" />
	</node>
	<node lat="68.31539166830777" lon="14.149755556920384" id="-17330">
		<tag k="name" v="Storvadhaugvatnet" />
		<tag k="natural" v="water" />
		<tag k="ssr:stedsnr" v="119303" />
	</node>
	<node lat="68.23902500188272" lon="14.265113899387922" id="-17332">
		<tag k="name" v="Arnelva" />
		<tag k="ssr:stedsnr" v="119502" />
		<tag k="waterway" v="stream" />
	</node>
	<node lat="68.2523916703543" lon="14.360966665690274" id="-17338">
		<tag k="name" v="Klubbelva" />
		<tag k="ssr:stedsnr" v="137106" />
		<tag k="waterway" v="stream" />
	</node>
	<node lat="68.2387166657517" lon="14.494674995945685" id="-17340">
		<tag k="name" v="Mellavatnet" />
		<tag k="natural" v="water" />
		<tag k="ssr:stedsnr" v="137211" />
	</node>
	<node lat="68.32329444562589" lon="15.078136110053094" id="-17343">
		<tag k="alt_name" v="Vatnvågvatnet, øvre" />
		<tag k="fixme" v="multiple name tags, choose one and add the other to alt_name" />
		<tag k="name" v="Øvrevatnet;Øvre Vatnvågvatnet" />
		<tag k="natural" v="water" />
		<tag k="ssr:stedsnr" v="137933" />
	</node>
	<node lat="68.28230277797893" lon="14.176488891191818" id="-17348">
		<tag k="alt_name" v="Jenndalsvatnet, nedre;Nedre Gjendalsvatn" />
		<tag k="name" v="Nedre Jenndalsvatnet" />
		<tag k="natural" v="water" />
		<tag k="ssr:stedsnr" v="138237" />
		<tag k="water" v="lake" />
	</node>
	<node lat="68.18632221862116" lon="14.326947209292634" id="-17361">
		<tag k="name" v="Kallevatnet" />
		<tag k="natural" v="water" />
		<tag k="ssr:stedsnr" v="138393" />
	</node>
	<node lat="68.21175833702726" lon="14.38425834124554" id="-17371">
		<tag k="name" v="Elvløkka" />
		<tag k="place" v="locality" />
		<tag k="ssr:stedsnr" v="143806" />
	</node>
	<node lat="68.32696389298711" lon="14.692488878077555" id="-17381">
		<tag k="name" v="Tofttjønna" />
		<tag k="natural" v="water" />
		<tag k="ssr:stedsnr" v="149424" />
	</node>
	<node lat="68.37540833320446" lon="14.47794443460268" id="-17384">
		<tag k="name" v="Høystakkelva" />
		<tag k="ssr:stedsnr" v="149458" />
		<tag k="waterway" v="stream" />
	</node>
	<node lat="68.31535833083746" lon="14.56119721122705" id="-17410">
		<tag k="name" v="Storgjota" />
		<tag k="natural" v="bay" />
		<tag k="ssr:stedsnr" v="161913" />
	</node>
	<node lat="68.33323333395604" lon="14.139333336617389" id="-17422">
		<tag k="fixme" v="multiple name tags, choose one and add the other to alt_name" />
		<tag k="name" v="Mølnvatnet;Hallingshaugvatnet" />
		<tag k="natural" v="water" />
		<tag k="ssr:stedsnr" v="260101" />
	</node>
	<node lat="68.1946111075461" lon="14.247622214679621" id="-17430">
		<tag k="name" v="Moan" />
		<tag k="place" v="locality" />
		<tag k="ssr:stedsnr" v="260432" />
	</node>
	<node lat="68.32354722422201" lon="14.778386117612518" id="-17433">
		<tag k="name" v="Elvene" />
		<tag k="ssr:stedsnr" v="260441" />
		<tag k="waterway" v="stream" />
	</node>
	<node lat="68.26043055820885" lon="14.882883342971969" id="-17442">
		<tag k="name" v="Borkvikvatnet" />
		<tag k="natural" v="water" />
		<tag k="ssr:stedsnr" v="260678" />
		<tag k="water" v="lake" />
	</node>
	<node lat="68.25534167007508" lon="14.618222211012057" id="-17445">
		<tag k="name" v="Jomfruvatnan" />
		<tag k="natural" v="water" />
		<tag k="ssr:stedsnr" v="260692" />
		<tag k="water" v="lake" />
	</node>
	<node lat="68.26113611363134" lon="14.538788878504759" id="-17458">
		<tag k="name" v="Nordavindsbukta" />
		<tag k="natural" v="bay" />
		<tag k="ssr:stedsnr" v="264164" />
	</node>
	<node lat="68.2590527764765" lon="14.538186117684665" id="-17459">
		<tag k="name" v="Myggbukta" />
		<tag k="natural" v="bay" />
		<tag k="ssr:stedsnr" v="264167" />
	</node>
	<node lat="68.25803610900465" lon="14.268397223708586" id="-17466">
		<tag k="name" v="Stortjønna" />
		<tag k="natural" v="water" />
		<tag k="ssr:stedsnr" v="265157" />
	</node>
	<node lat="68.31551944412257" lon="15.126277785474604" id="-17471">
		<tag k="name" v="Ramsosen" />
		<tag k="natural" v="bay" />
		<tag k="ssr:stedsnr" v="199003" />
	</node>
	<node lat="68.30469166690872" lon="14.176988886623457" id="-17472">
		<tag k="alt_name" v="Sortvatnet, store;Store Sortevatn" />
		<tag k="name" v="Store Sortvatnet" />
		<tag k="natural" v="water" />
		<tag k="ssr:stedsnr" v="199023" />
	</node>
	<node lat="68.3535694456013" lon="14.519722224492577" id="-17487">
		<tag k="name" v="Rangeldalsvatnet" />
		<tag k="natural" v="water" />
		<tag k="ssr:stedsnr" v="199402" />
	</node>
	<node lat="68.29247499908453" lon="14.9135944339106" id="-17497">
		<tag k="name" v="Litltindvatnet" />
		<tag k="natural" v="water" />
		<tag k="ssr:stedsnr" v="199611" />
	</node>
	<node lat="68.28561666289544" lon="14.597841666569039" id="-17499">
		<tag k="name" v="Fjelltjørnan" />
		<tag k="natural" v="water" />
		<tag k="ssr:stedsnr" v="199616" />
		<tag k="water" v="lake" />
	</node>
	<node lat="68.35521388938442" lon="14.743258336996423" id="-17504">
		<tag k="name" v="Heimergårdselva" />
		<tag k="ssr:stedsnr" v="204789" />
		<tag k="waterway" v="stream" />
	</node>
	<node lat="68.21700555856809" lon="14.438116669297415" id="-17507">
		<tag k="name" v="Mølnelva" />
		<tag k="ssr:stedsnr" v="204817" />
		<tag k="waterway" v="river" />
	</node>
	<node lat="68.36838889066027" lon="14.46436110502389" id="-17512">
		<tag k="name" v="Hesttjønna" />
		<tag k="natural" v="water" />
		<tag k="ssr:stedsnr" v="210027" />
	</node>
	<node lat="68.33039167093152" lon="14.81323055389525" id="-17515">
		<tag k="name" v="Svarthola" />
		<tag k="ssr:stedsnr" v="210224" />
		<tag k="waterway" v="river" />
	</node>
	<node lat="68.31385833487595" lon="14.595563894755038" id="-17531">
		<tag k="name" v="Mellomvatnet" />
		<tag k="natural" v="water" />
		<tag k="ssr:stedsnr" v="222916" />
	</node>
	<node lat="68.35495000211388" lon="14.551405565973631" id="-17535">
		<tag k="name" v="Heimre Hesthausvatnet" />
		<tag k="natural" v="water" />
		<tag k="ssr:stedsnr" v="271193" />
		<tag k="water" v="lake" />
	</node>
	<node lat="68.32858055631718" lon="14.516608330104527" id="-17537">
		<tag k="name" v="Lillevatnholmen" />
		<tag k="place" v="islet" />
		<tag k="ssr:stedsnr" v="224883" />
	</node>
	<node lat="68.3932444472347" lon="14.493261100463693" id="-17539">
		<tag k="name" v="Nordelva" />
		<tag k="ssr:stedsnr" v="271500" />
		<tag k="waterway" v="stream" />
	</node>
	<node lat="68.25316944546076" lon="14.801730549607695" id="-17563">
		<tag k="name" v="Budalselva" />
		<tag k="ssr:stedsnr" v="241837" />
		<tag k="waterway" v="stream" />
	</node>
	<node lat="68.29491944177246" lon="15.05838610029464" id="-17564">
		<tag k="name" v="Pundslettelva" />
		<tag k="ssr:stedsnr" v="451639" />
		<tag k="waterway" v="river" />
	</node>
	<node lat="68.31115277502411" lon="14.713869438276715" id="-17575">
		<tag k="name" v="Småskjærosen" />
		<tag k="natural" v="bay" />
		<tag k="ssr:stedsnr" v="453439" />
	</node>
	<node lat="68.38103611403346" lon="14.528591668643479" id="-17577">
		<tag k="name" v="Mølndalselva" />
		<tag k="ssr:stedsnr" v="453454" />
		<tag k="waterway" v="stream" />
	</node>
	<node lat="68.33363610966157" lon="14.807777769105696" id="-17583">
		<tag k="name" v="Krokan" />
		<tag k="ssr:stedsnr" v="453232" />
		<tag k="waterway" v="stream" />
	</node>
	<node lat="68.3083527785528" lon="15.056225007475781" id="-17587">
		<tag k="name" v="Strauman" />
		<tag k="natural" v="bay" />
		<tag k="ssr:stedsnr" v="259007" />
	</node>
	<node lat="68.22700555436491" lon="14.546075007029255" id="-17602">
		<tag k="name" v="Osan" />
		<tag k="natural" v="bay" />
		<tag k="ssr:stedsnr" v="259258" />
	</node>
	<node lat="68.29291666530865" lon="14.934730559438098" id="-17613">
		<tag k="name" v="Skarvatnan" />
		<tag k="natural" v="water" />
		<tag k="ssr:stedsnr" v="259579" />
		<tag k="water" v="lake" />
	</node>
	<node lat="68.30213610776522" lon="14.246888885583108" id="-17624">
		<tag k="name" v="Svartåsvatnet" />
		<tag k="natural" v="water" />
		<tag k="ssr:stedsnr" v="260064" />
	</node>
	<node lat="68.28447222652272" lon="14.36283054713203" id="-17630">
		<tag k="name" v="Storelva" />
		<tag k="ssr:stedsnr" v="260264" />
		<tag k="waterway" v="stream" />
	</node>
	<node lat="68.20285555144692" lon="14.338913894490231" id="-17639">
		<tag k="name" v="Kalvtjønna" />
		<tag k="natural" v="water" />
		<tag k="ssr:stedsnr" v="260513" />
	</node>
	<node lat="68.25069444725911" lon="14.817422217318184" id="-17643">
		<tag k="name" v="Budalsvatnet" />
		<tag k="natural" v="water" />
		<tag k="ssr:stedsnr" v="260715" />
	</node>
	<node lat="68.18351944230004" lon="14.284897219044167" id="-17645">
		<tag k="name" v="Migand" />
		<tag k="ssr:stedsnr" v="502372" />
		<tag k="waterway" v="stream" />
	</node>
	<node lat="68.2168444397494" lon="14.453944451691157" id="-17647">
		<tag k="name" v="Madsvasselva" />
		<tag k="ssr:stedsnr" v="264179" />
		<tag k="waterway" v="stream" />
	</node>
	<node lat="68.27671666902367" lon="14.618130567275152" id="-17663">
		<tag k="name" v="Sæterelva" />
		<tag k="ssr:stedsnr" v="270881" />
		<tag k="waterway" v="stream" />
	</node>
	<node lat="68.33095833103809" lon="14.513355551626738" id="-17682">
		<tag k="name" v="Mørkdalselva" />
		<tag k="ssr:stedsnr" v="284898" />
		<tag k="waterway" v="stream" />
	</node>
	<node lat="68.27837222098427" lon="14.204063880083071" id="-17699">
		<tag k="name" v="Holmen" />
		<tag k="natural" v="cape" />
		<tag k="ssr:stedsnr" v="301302" />
	</node>
	<node lat="68.31769166342124" lon="14.661322221474371" id="-17701">
		<tag k="name" v="Gressløyselva" />
		<tag k="ssr:stedsnr" v="301826" />
		<tag k="waterway" v="stream" />
	</node>
	<node lat="68.32065555783589" lon="14.120061114553812" id="-17705">
		<tag k="name" v="Torvskjåvatnet" />
		<tag k="natural" v="water" />
		<tag k="ssr:stedsnr" v="464447" />
	</node>
	<node lat="68.39425833258788" lon="14.470602773299841" id="-17712">
		<tag k="name" v="Gravbekken" />
		<tag k="ssr:stedsnr" v="465791" />
		<tag k="waterway" v="stream" />
	</node>
	<node lat="68.32949722583943" lon="14.51387222351278" id="-17714">
		<tag k="name" v="Lilleelva" />
		<tag k="ssr:stedsnr" v="466890" />
		<tag k="waterway" v="stream" />
	</node>
	<node lat="68.25720555695139" lon="14.398305555433089" id="-17720">
		<tag k="alt_name" v="Memrinnelva" />
		<tag k="name" v="Memerendelva" />
		<tag k="ssr:stedsnr" v="320150" />
		<tag k="waterway" v="stream" />
	</node>
	<node lat="68.31194444348031" lon="15.035561105195871" id="-17722">
		<tag k="name" v="Holmvatnet" />
		<tag k="natural" v="water" />
		<tag k="ssr:stedsnr" v="320016" />
	</node>
	<node lat="68.22569721828067" lon="14.484622231369325" id="-17729">
		<tag k="name" v="Prestvatnet" />
		<tag k="natural" v="water" />
		<tag k="ssr:stedsnr" v="320308" />
	</node>
	<node lat="68.22698610695639" lon="14.355413891402987" id="-17734">
		<tag k="name" v="Tredjevatnet" />
		<tag k="natural" v="water" />
		<tag k="ssr:stedsnr" v="320545" />
	</node>
	<node lat="68.30228055523406" lon="14.67041110713083" id="-17735">
		<tag k="name" v="Kvanndalsvatnet" />
		<tag k="natural" v="water" />
		<tag k="ssr:stedsnr" v="320503" />
	</node>
	<node lat="68.28406666333534" lon="14.649177783820585" id="-17742">
		<tag k="name" v="Saltvatnet" />
		<tag k="natural" v="water" />
		<tag k="ssr:stedsnr" v="320607" />
	</node>
	<node lat="68.21704999861622" lon="14.362147211407578" id="-17753">
		<tag k="name" v="Ørsneselva" />
		<tag k="ssr:stedsnr" v="325779" />
		<tag k="waterway" v="stream" />
	</node>
	<node lat="68.24400555480652" lon="14.461013888879876" id="-17755">
		<tag k="name" v="Bogdalselva" />
		<tag k="ssr:stedsnr" v="325824" />
		<tag k="waterway" v="stream" />
	</node>
	<node lat="68.37699444860083" lon="14.554469455851834" id="-17766">
		<tag k="name" v="Spanneset" />
		<tag k="natural" v="cape" />
		<tag k="ssr:stedsnr" v="331193" />
	</node>
	<node lat="68.3230055543411" lon="14.714088895384068" id="-17768">
		<tag k="name" v="Nestjønna" />
		<tag k="natural" v="water" />
		<tag k="ssr:stedsnr" v="331417" />
	</node>
	<node lat="68.32116944562031" lon="14.540733332608617" id="-17779">
		<tag k="name" v="Grindneset" />
		<tag k="natural" v="cape" />
		<tag k="ssr:stedsnr" v="343941" />
	</node>
	<node lat="68.3185166635875" lon="15.03329165565618" id="-17794">
		<tag k="fixme" v="multiple name tags, choose one and add the other to alt_name" />
		<tag k="name" v="Søndre Rødsandvatn;Digermulvatnet" />
		<tag k="natural" v="water" />
		<tag k="ssr:stedsnr" v="380004" />
	</node>
	<node lat="68.32085833654624" lon="14.336608325745667" id="-17795">
		<tag k="name" v="Krokelva" />
		<tag k="ssr:stedsnr" v="380103" />
		<tag k="waterway" v="stream" />
	</node>
	<node lat="68.31622221851785" lon="14.099713879608467" id="-17798">
		<tag k="name" v="Jordendsvatnet" />
		<tag k="natural" v="water" />
		<tag k="ssr:stedsnr" v="380111" />
	</node>
	<node lat="68.29514166670918" lon="14.518127772399852" id="-17808">
		<tag k="name" v="Isvatnet" />
		<tag k="natural" v="water" />
		<tag k="ssr:stedsnr" v="380523" />
		<tag k="water" v="lake" />
	</node>
	<node lat="68.31328055683007" lon="14.704980552773625" id="-17810">
		<tag k="name" v="Småskjærvatnet" />
		<tag k="natural" v="water" />
		<tag k="ssr:stedsnr" v="380534" />
	</node>
	<node lat="68.31488055442419" lon="14.394405543693555" id="-17819">
		<tag k="name" v="Mølnelva" />
		<tag k="ssr:stedsnr" v="381014" />
		<tag k="waterway" v="stream" />
	</node>
	<node lat="68.36867778191751" lon="14.553847228812577" id="-17826">
		<tag k="name" v="Storneset" />
		<tag k="natural" v="cape" />
		<tag k="ssr:stedsnr" v="381079" />
	</node>
	<node lat="68.36483055907054" lon="14.567000005482372" id="-17834">
		<tag k="name" v="Osan" />
		<tag k="natural" v="water" />
		<tag k="ssr:stedsnr" v="381474" />
	</node>
	<node lat="68.25158055866636" lon="14.833302770098596" id="-17835">
		<tag k="alt_name" v="Heggdalsvatnet" />
		<tag k="name" v="Heggedalsvatnet" />
		<tag k="natural" v="water" />
		<tag k="ssr:stedsnr" v="381705" />
	</node>
	<node lat="68.2052277809863" lon="14.24531945650476" id="-17847">
		<tag k="name" v="Rørvikelva" />
		<tag k="ssr:stedsnr" v="385808" />
		<tag k="waterway" v="river" />
	</node>
	<node lat="68.32545833133399" lon="14.15554443755403" id="-17862">
		<tag k="name" v="Saupstadkanalen" />
		<tag k="ssr:stedsnr" v="483352" />
		<tag k="waterway" v="stream" />
	</node>
	<node lat="68.39479999771397" lon="14.498702769453605" id="-17881">
		<tag k="name" v="Vadet" />
		<tag k="ssr:stedsnr" v="392488" />
		<tag k="waterway" v="stream" />
	</node>
	<node lat="68.3182055589386" lon="14.530119439619611" id="-17892">
		<tag k="name" v="Ellingneset" />
		<tag k="natural" v="cape" />
		<tag k="ssr:stedsnr" v="404886" />
	</node>
	<node lat="68.36068888548125" lon="14.681700005350088" id="-17932">
		<tag k="name" v="Nattmålsvatnet" />
		<tag k="natural" v="water" />
		<tag k="ssr:stedsnr" v="442489" />
	</node>
	<node lat="68.28861389245947" lon="14.451777781163337" id="-17935">
		<tag k="name" v="Langvatnet" />
		<tag k="natural" v="water" />
		<tag k="ssr:stedsnr" v="442610" />
	</node>
	<node lat="68.27389999712432" lon="14.884300006387422" id="-17937">
		<tag k="name" v="Mølna" />
		<tag k="ssr:stedsnr" v="442587" />
		<tag k="waterway" v="stream" />
	</node>
	<node lat="68.33989444385415" lon="14.133908342914188" id="-17940">
		<tag k="fixme" v="multiple name tags, choose one and add the other to alt_name" />
		<tag k="name" v="Arvikvatnet;Arvidvatnet" />
		<tag k="natural" v="water" />
		<tag k="ssr:stedsnr" v="442901" />
	</node>
	<node lat="68.22131666914423" lon="14.325627772203774" id="-17946">
		<tag k="name" v="Skreddalselva" />
		<tag k="ssr:stedsnr" v="446806" />
		<tag k="waterway" v="stream" />
	</node>
	<node lat="68.35658332857923" lon="14.585725010906819" id="-17961">
		<tag k="name" v="Hertvikskreda" />
		<tag k="natural" v="cape" />
		<tag k="ssr:stedsnr" v="453205" />
	</node>
	<node lat="68.31023610977789" lon="14.14841944811493" id="-17970">
		<tag k="name" v="Steinvatnet" />
		<tag k="natural" v="water" />
		<tag k="ssr:stedsnr" v="464459" />
	</node>
	<node lat="68.33372778233108" lon="14.382544440743875" id="-17984">
		<tag k="name" v="Kvanntoelva" />
		<tag k="ssr:stedsnr" v="483577" />
		<tag k="waterway" v="stream" />
	</node>
	<node lat="68.30870000249061" lon="14.087280566832002" id="-17986">
		<tag k="name" v="Sinesvatnet" />
		<tag k="natural" v="water" />
		<tag k="ssr:stedsnr" v="502020" />
	</node>
	<node lat="68.17311666804689" lon="14.23118889338879" id="-17999">
		<tag k="name" v="Heiavatnet" />
		<tag k="natural" v="water" />
		<tag k="ssr:stedsnr" v="502427" />
	</node>
	<node lat="68.3542055512014" lon="14.767166673365342" id="-18025">
		<tag k="name" v="Sandbekken" />
		<tag k="ssr:stedsnr" v="507803" />
		<tag k="waterway" v="stream" />
	</node>
	<node lat="68.21251944492552" lon="14.300463878143765" id="-18029">
		<tag k="name" v="Loftelva" />
		<tag k="ssr:stedsnr" v="507816" />
		<tag k="waterway" v="river" />
	</node>
	<node lat="68.30258333642594" lon="14.934261114509699" id="-18031">
		<tag k="name" v="Pollvatnet" />
		<tag k="natural" v="water" />
		<tag k="ssr:stedsnr" v="510721" />
		<tag k="water" v="lake" />
	</node>
	<node lat="68.29854166924642" lon="15.034205561617611" id="-18032">
		<tag k="name" v="Valrenna" />
		<tag k="natural" v="bay" />
		<tag k="ssr:stedsnr" v="510908" />
	</node>
	<node lat="68.20733333654417" lon="14.26446389048569" id="-18070">
		<tag k="name" v="Rørvikvatnet" />
		<tag k="natural" v="water" />
		<tag k="ssr:stedsnr" v="684438" />
		<tag k="water" v="lake" />
	</node>
	<node lat="68.26281666420796" lon="14.546313883559781" id="-18079">
		<tag k="name" v="Øvre Svolværvatnet" />
		<tag k="natural" v="water" />
		<tag k="ssr:stedsnr" v="684573" />
		<tag k="water" v="lake" />
	</node>
	<node lat="68.26295277972807" lon="14.494411119682066" id="-18080">
		<tag k="alt_name" v="Nøkkvatnet, austre" />
		<tag k="name" v="Austre Nøkkvatnet" />
		<tag k="natural" v="water" />
		<tag k="ssr:stedsnr" v="684574" />
	</node>
	<node lat="68.31353889031524" lon="14.568069451288979" id="-18083">
		<tag k="alt_name" v="Storvassbotnen" />
		<tag k="name" v="Storvassbotn" />
		<tag k="natural" v="bay" />
		<tag k="ssr:stedsnr" v="684545" />
	</node>
	<node lat="68.31503888563775" lon="14.489686108443658" id="-18095">
		<tag k="name" v="Krokelva" />
		<tag k="ssr:stedsnr" v="685054" />
		<tag k="waterway" v="stream" />
	</node>
	<node lat="68.34306666517868" lon="15.125102780550803" id="-18098">
		<tag k="name" v="Trollvatnet" />
		<tag k="natural" v="water" />
		<tag k="ssr:stedsnr" v="684977" />
	</node>
	<node lat="68.23521667069896" lon="14.243800000827433" id="-18105">
		<tag k="name" v="Kringelelva" />
		<tag k="ssr:stedsnr" v="530021" />
		<tag k="waterway" v="stream" />
	</node>
	<node lat="68.26894444626485" lon="14.32555556674777" id="-18109">
		<tag k="name" v="Dalvatnet" />
		<tag k="natural" v="water" />
		<tag k="ssr:stedsnr" v="543669" />
	</node>
	<node lat="68.24631389278741" lon="14.53435832773719" id="-18116">
		<tag k="name" v="Svarthola" />
		<tag k="natural" v="bay" />
		<tag k="ssr:stedsnr" v="689178" />
	</node>
	<node lat="68.25283611254768" lon="14.618758325110912" id="-18122">
		<tag k="name" v="Steinurdalelva" />
		<tag k="ssr:stedsnr" v="690176" />
		<tag k="waterway" v="stream" />
	</node>
	<node lat="68.23868055663034" lon="14.436441666414295" id="-18123">
		<tag k="name" v="Damelva" />
		<tag k="ssr:stedsnr" v="692064" />
		<tag k="waterway" v="stream" />
	</node>
	<node lat="68.22923333288337" lon="14.463936109255922" id="-18127">
		<tag k="name" v="Kristenbukta" />
		<tag k="natural" v="bay" />
		<tag k="ssr:stedsnr" v="567856" />
	</node>
	<node lat="68.25322221917916" lon="14.623933340431757" id="-18129">
		<tag k="name" v="Jomfruelva" />
		<tag k="ssr:stedsnr" v="568170" />
		<tag k="waterway" v="river" />
	</node>
	<node lat="68.37284166630907" lon="14.545694441907136" id="-18140">
		<tag k="name" v="Trolldalselva" />
		<tag k="ssr:stedsnr" v="573150" />
		<tag k="waterway" v="stream" />
	</node>
	<node lat="68.34586944326229" lon="14.503250009109735" id="-18163">
		<tag k="name" v="Breineselva" />
		<tag k="ssr:stedsnr" v="585907" />
		<tag k="waterway" v="stream" />
	</node>
	<node lat="68.31816111046165" lon="15.072836110920528" id="-18184">
		<tag k="name" v="Vatnvågsvatnan" />
		<tag k="natural" v="water" />
		<tag k="ssr:stedsnr" v="604411" />
		<tag k="water" v="lake" />
	</node>
	<node lat="68.32599722390373" lon="14.340680559426183" id="-18203">
		<tag k="name" v="Mølnelva" />
		<tag k="ssr:stedsnr" v="623117" />
		<tag k="waterway" v="stream" />
	</node>
	<node lat="68.22114166273268" lon="14.435527779653281" id="-18210">
		<tag k="name" v="Karlsvatnet" />
		<tag k="natural" v="water" />
		<tag k="ssr:stedsnr" v="623303" />
	</node>
	<node lat="68.35436944201432" lon="14.70078611180916" id="-18215">
		<tag k="name" v="Bergelva" />
		<tag k="ssr:stedsnr" v="623409" />
		<tag k="waterway" v="stream" />
	</node>
	<node lat="68.32264444700493" lon="14.66250832337519" id="-18216">
		<tag k="alt_name" v="Vestpolltjørna" />
		<tag k="name" v="Vestpolltjønna" />
=======
<osm generator="osmapis" version="0.6">
	<node id="-194559" lat="68.1433888893" lon="14.200447221">
		<tag k="name" v="Litj-Kvannholmen" />
		<tag k="place" v="islet" />
		<tag k="ssr:stedsnr" v="392770" />
	</node>
	<node id="-194557" lat="68.3947999977" lon="14.4987027695">
		<tag k="name" v="Vadet" />
		<tag k="ssr:stedsnr" v="392488" />
		<tag k="waterway" v="stream" />
	</node>
	<node id="-194530" lat="68.2200166636" lon="14.4085055512">
		<tag k="name" v="Albertelva" />
		<tag k="ssr:stedsnr" v="385841" />
		<tag k="waterway" v="stream" />
	</node>
	<node id="-192478" lat="68.3201555597" lon="14.2029444436">
		<tag k="name" v="Kleivaelva" />
		<tag k="ssr:stedsnr" v="441119" />
		<tag k="waterway" v="stream" />
	</node>
	<node id="-194524" lat="68.2470277814" lon="14.5504500004">
		<tag k="name" v="Sommartjønna" />
		<tag k="natural" v="water" />
		<tag k="ssr:stedsnr" v="385180" />
	</node>
	<node id="-194516" lat="68.2515805587" lon="14.8333027701">
		<tag k="alt_name" v="Heggdalsvatnet" />
		<tag k="name" v="Heggedalsvatnet" />
		<tag k="natural" v="water" />
		<tag k="ssr:stedsnr" v="381705" />
	</node>
	<node id="-194515" lat="68.2484333296" lon="14.540141656">
		<tag k="name" v="Nedre Svolværvatnet" />
		<tag k="natural" v="water" />
		<tag k="ssr:stedsnr" v="381690" />
		<tag k="water" v="lake" />
	</node>
	<node id="-194513" lat="68.265169449" lon="14.6363027748">
		<tag k="name" v="Smørelva" />
		<tag k="ssr:stedsnr" v="381586" />
		<tag k="waterway" v="stream" />
	</node>
	<node id="-194507" lat="68.3119833371" lon="14.8708194485">
		<tag k="name" v="Storvikelva" />
		<tag k="ssr:stedsnr" v="381550" />
		<tag k="waterway" v="stream" />
	</node>
	<node id="-194503" lat="68.3195194472" lon="14.5095000029">
		<tag k="name" v="Lomvasselva" />
		<tag k="ssr:stedsnr" v="381526" />
		<tag k="waterway" v="stream" />
	</node>
	<node id="-194502" lat="68.1974527812" lon="14.2595694426">
		<tag k="name" v="Djupfjordvatnet" />
		<tag k="natural" v="water" />
		<tag k="ssr:stedsnr" v="381490" />
	</node>
	<node id="-194499" lat="68.3648305591" lon="14.5670000055">
		<tag k="name" v="Osan" />
		<tag k="natural" v="water" />
		<tag k="ssr:stedsnr" v="381474" />
	</node>
	<node id="-192450" lat="68.2856166629" lon="14.5978416666">
		<tag k="name" v="Fjelltjørnan" />
		<tag k="natural" v="water" />
		<tag k="ssr:stedsnr" v="199616" />
		<tag k="water" v="lake" />
	</node>
	<node id="-192448" lat="68.2924749991" lon="14.9135944339">
		<tag k="name" v="Litltindvatnet" />
		<tag k="natural" v="water" />
		<tag k="ssr:stedsnr" v="199611" />
	</node>
	<node id="-194494" lat="68.3351861111" lon="14.7980055485">
		<tag k="name" v="Kvanntoelva" />
		<tag k="ssr:stedsnr" v="381430" />
		<tag k="waterway" v="stream" />
	</node>
	<node id="-192442" lat="68.3535694456" lon="14.5197222245">
		<tag k="name" v="Rangeldalsvatnet" />
		<tag k="natural" v="water" />
		<tag k="ssr:stedsnr" v="199402" />
	</node>
	<node id="-192433" lat="68.3155194441" lon="15.1262777855">
		<tag k="name" v="Ramsosen" />
		<tag k="natural" v="bay" />
		<tag k="ssr:stedsnr" v="199003" />
	</node>
	<node id="-194472" lat="68.3161277781" lon="14.3354861024">
		<tag k="alt_name" v="Øvervatnet" />
		<tag k="name" v="Øvrevatnet" />
		<tag k="natural" v="water" />
		<tag k="ssr:stedsnr" v="381134" />
	</node>
	<node id="-194469" lat="68.3686777819" lon="14.5538472288">
		<tag k="name" v="Storneset" />
		<tag k="natural" v="cape" />
		<tag k="ssr:stedsnr" v="381079" />
	</node>
	<node id="-194460" lat="68.3148805544" lon="14.3944055437">
		<tag k="name" v="Mølnelva" />
		<tag k="ssr:stedsnr" v="381014" />
		<tag k="waterway" v="stream" />
	</node>
	<node id="-192410" lat="68.330958331" lon="14.5133555516">
		<tag k="name" v="Mørkdalselva" />
		<tag k="ssr:stedsnr" v="284898" />
		<tag k="waterway" v="stream" />
	</node>
	<node id="-194447" lat="68.3132805568" lon="14.7049805528">
		<tag k="name" v="Småskjærvatnet" />
		<tag k="natural" v="water" />
		<tag k="ssr:stedsnr" v="380534" />
	</node>
	<node id="-194445" lat="68.2951416667" lon="14.5181277724">
		<tag k="name" v="Isvatnet" />
		<tag k="natural" v="water" />
		<tag k="ssr:stedsnr" v="380523" />
		<tag k="water" v="lake" />
	</node>
	<node id="-194443" lat="68.2183972227" lon="14.3516027746">
		<tag k="name" v="Førstevatnet" />
		<tag k="natural" v="water" />
		<tag k="ssr:stedsnr" v="380482" />
	</node>
	<node id="-194441" lat="68.3341888908" lon="14.4561749938">
		<tag k="fixme" v="multiple name tags, choose one and add the other to alt_name" />
		<tag k="name" v="Nøkktjørna;Nøkkvatnet" />
		<tag k="natural" v="water" />
		<tag k="ssr:stedsnr" v="380451" />
	</node>
	<node id="-194433" lat="68.22991944" lon="14.4487305605">
		<tag k="name" v="Sæterbukta" />
		<tag k="natural" v="bay" />
		<tag k="ssr:stedsnr" v="380296" />
	</node>
	<node id="-192383" lat="68.3153583308" lon="14.5611972112">
		<tag k="name" v="Storgjota" />
		<tag k="natural" v="bay" />
		<tag k="ssr:stedsnr" v="161913" />
	</node>
	<node id="-194424" lat="68.2366694472" lon="14.4973555498">
		<tag k="name" v="Kongselva" />
		<tag k="ssr:stedsnr" v="380250" />
		<tag k="waterway" v="stream" />
	</node>
	<node id="-192374" lat="68.3754083332" lon="14.4779444346">
		<tag k="name" v="Høystakkelva" />
		<tag k="ssr:stedsnr" v="149458" />
		<tag k="waterway" v="stream" />
	</node>
	<node id="-192373" lat="68.326963893" lon="14.6924888781">
		<tag k="name" v="Tofttjønna" />
		<tag k="natural" v="water" />
		<tag k="ssr:stedsnr" v="149424" />
	</node>
	<node id="-194415" lat="68.3162222185" lon="14.0997138796">
		<tag k="name" v="Jordendsvatnet" />
		<tag k="natural" v="water" />
		<tag k="ssr:stedsnr" v="380111" />
	</node>
	<node id="-194412" lat="68.3208583365" lon="14.3366083257">
		<tag k="name" v="Krokelva" />
		<tag k="ssr:stedsnr" v="380103" />
		<tag k="waterway" v="stream" />
	</node>
	<node id="-192361" lat="68.3932444472" lon="14.4932611005">
		<tag k="name" v="Nordelva" />
		<tag k="ssr:stedsnr" v="271500" />
		<tag k="waterway" v="stream" />
	</node>
	<node id="-194406" lat="68.3383555535" lon="14.7604222309">
		<tag k="name" v="Storråna" />
		<tag k="ssr:stedsnr" v="362866" />
		<tag k="waterway" v="stream" />
	</node>
	<node id="-192354" lat="68.3549500021" lon="14.551405566">
		<tag k="name" v="Heimre Hesthausvatnet" />
		<tag k="natural" v="water" />
		<tag k="ssr:stedsnr" v="271193" />
		<tag k="water" v="lake" />
	</node>
	<node id="-192350" lat="68.276716669" lon="14.6181305673">
		<tag k="name" v="Sæterelva" />
		<tag k="ssr:stedsnr" v="270881" />
		<tag k="waterway" v="stream" />
	</node>
	<node id="-194385" lat="68.3372638915" lon="14.5233194496">
		<tag k="name" v="Omnelva" />
		<tag k="ssr:stedsnr" v="343971" />
		<tag k="waterway" v="stream" />
	</node>
	<node id="-194383" lat="68.3211694456" lon="14.5407333326">
		<tag k="name" v="Grindneset" />
		<tag k="natural" v="cape" />
		<tag k="ssr:stedsnr" v="343941" />
	</node>
	<node id="-194379" lat="68.3401333342" lon="14.1400194371">
		<tag k="name" v="Gløstjønna" />
		<tag k="natural" v="water" />
		<tag k="ssr:stedsnr" v="342380" />
	</node>
	<node id="-192325" lat="68.2523916704" lon="14.3609666657">
		<tag k="name" v="Klubbelva" />
		<tag k="ssr:stedsnr" v="137106" />
		<tag k="waterway" v="stream" />
	</node>
	<node id="-194369" lat="68.3230055543" lon="14.7140888954">
		<tag k="name" v="Nestjønna" />
		<tag k="natural" v="water" />
		<tag k="ssr:stedsnr" v="331417" />
	</node>
	<node id="-194367" lat="68.3769944486" lon="14.5544694559">
		<tag k="name" v="Spanneset" />
		<tag k="natural" v="cape" />
		<tag k="ssr:stedsnr" v="331193" />
	</node>
	<node id="-194357" lat="68.3027222185" lon="15.0200666618">
		<tag k="name" v="Valelva" />
		<tag k="ssr:stedsnr" v="328887" />
		<tag k="waterway" v="river" />
	</node>
	<node id="-192304" lat="68.2168444397" lon="14.4539444517">
		<tag k="name" v="Madsvasselva" />
		<tag k="ssr:stedsnr" v="264179" />
		<tag k="waterway" v="stream" />
	</node>
	<node id="-194351" lat="68.2170499986" lon="14.3621472114">
		<tag k="name" v="Ørsneselva" />
		<tag k="ssr:stedsnr" v="325779" />
		<tag k="waterway" v="stream" />
	</node>
	<node id="-192302" lat="68.2611361136" lon="14.5387888785">
		<tag k="name" v="Nordavindsbukta" />
		<tag k="natural" v="bay" />
		<tag k="ssr:stedsnr" v="264164" />
	</node>
	<node id="-192300" lat="68.3353472209" lon="14.7626638952">
		<tag k="name" v="Hestelva" />
		<tag k="ssr:stedsnr" v="120854" />
		<tag k="waterway" v="stream" />
	</node>
	<node id="-194343" lat="68.3240527788" lon="15.1219583274">
		<tag k="name" v="Ramsosvatnet" />
		<tag k="natural" v="water" />
		<tag k="ssr:stedsnr" v="320949" />
	</node>
	<node id="-192285" lat="68.2506944473" lon="14.8174222173">
		<tag k="name" v="Budalsvatnet" />
		<tag k="natural" v="water" />
		<tag k="ssr:stedsnr" v="260715" />
	</node>
	<node id="-192283" lat="68.2553416701" lon="14.618222211">
		<tag k="name" v="Jomfruvatnan" />
		<tag k="natural" v="water" />
		<tag k="ssr:stedsnr" v="260692" />
		<tag k="water" v="lake" />
	</node>
	<node id="-194330" lat="68.2840666633" lon="14.6491777838">
		<tag k="name" v="Saltvatnet" />
		<tag k="natural" v="water" />
		<tag k="ssr:stedsnr" v="320607" />
	</node>
	<node id="-192276" lat="68.2028555514" lon="14.3389138945">
		<tag k="name" v="Kalvtjønna" />
		<tag k="natural" v="water" />
		<tag k="ssr:stedsnr" v="260513" />
	</node>
	<node id="-192272" lat="68.3235472242" lon="14.7783861176">
		<tag k="name" v="Elvene" />
		<tag k="ssr:stedsnr" v="260441" />
		<tag k="waterway" v="stream" />
	</node>
	<node id="-192269" lat="68.1946111075" lon="14.2476222147">
		<tag k="name" v="Moan" />
		<tag k="natural" v="strait" />
		<tag k="ssr:stedsnr" v="260432" />
	</node>
	<node id="-194315" lat="68.226986107" lon="14.3554138914">
		<tag k="name" v="Tredjevatnet" />
		<tag k="natural" v="water" />
		<tag k="ssr:stedsnr" v="320545" />
	</node>
	<node id="-192263" lat="68.2844722265" lon="14.3628305471">
		<tag k="name" v="Storelva" />
		<tag k="ssr:stedsnr" v="260264" />
		<tag k="waterway" v="stream" />
	</node>
	<node id="-194308" lat="68.3022805552" lon="14.6704111071">
		<tag k="name" v="Kvanndalsvatnet" />
		<tag k="natural" v="water" />
		<tag k="ssr:stedsnr" v="320503" />
	</node>
	<node id="-192259" lat="68.333233334" lon="14.1393333366">
		<tag k="fixme" v="multiple name tags, choose one and add the other to alt_name" />
		<tag k="name" v="Hallingshaugvatnet;Mølnvatnet" />
		<tag k="natural" v="water" />
		<tag k="ssr:stedsnr" v="260101" />
	</node>
	<node id="-192255" lat="68.3021361078" lon="14.2468888856">
		<tag k="name" v="Svartåsvatnet" />
		<tag k="natural" v="water" />
		<tag k="ssr:stedsnr" v="260064" />
	</node>
	<node id="-194296" lat="68.2470250041" lon="14.4331555596">
		<tag k="name" v="Nøkkvatnet" />
		<tag k="natural" v="water" />
		<tag k="ssr:stedsnr" v="320350" />
	</node>
	<node id="-192468" lat="68.2966972203" lon="14.6949277685">
		<tag k="name" v="Stordalselva" />
		<tag k="ssr:stedsnr" v="298767" />
		<tag k="waterway" v="stream" />
	</node>
	<node id="-194293" lat="68.2256972183" lon="14.4846222314">
		<tag k="name" v="Prestvatnet" />
		<tag k="natural" v="water" />
		<tag k="ssr:stedsnr" v="320308" />
	</node>
	<node id="-192244" lat="68.2929166653" lon="14.9347305594">
		<tag k="name" v="Skarvatnan" />
		<tag k="natural" v="water" />
		<tag k="ssr:stedsnr" v="259579" />
		<tag k="water" v="lake" />
	</node>
	<node id="-192234" lat="68.2604305582" lon="14.882883343">
		<tag k="name" v="Borkvikvatnet" />
		<tag k="natural" v="water" />
		<tag k="ssr:stedsnr" v="260678" />
		<tag k="water" v="lake" />
	</node>
	<node id="-192217" lat="68.2270055544" lon="14.546075007">
		<tag k="name" v="Osan" />
		<tag k="natural" v="bay" />
		<tag k="ssr:stedsnr" v="259258" />
	</node>
	<node id="-194264" lat="68.257205557" lon="14.3983055554">
		<tag k="alt_name" v="Memrinnelva" />
		<tag k="name" v="Memerendelva" />
		<tag k="ssr:stedsnr" v="320150" />
		<tag k="waterway" v="stream" />
	</node>
	<node id="-194252" lat="68.3065861139" lon="14.3908583442">
		<tag k="name" v="Kvanndalsvatnet" />
		<tag k="natural" v="water" />
		<tag k="ssr:stedsnr" v="320023" />
	</node>
	<node id="-192203" lat="68.3582388856" lon="14.569766672">
		<tag k="name" v="Heimerelva" />
		<tag k="ssr:stedsnr" v="88129" />
		<tag k="waterway" v="stream" />
	</node>
	<node id="-192198" lat="68.3208333352" lon="15.0262972295">
		<tag k="name" v="Oselva" />
		<tag k="ssr:stedsnr" v="86106" />
		<tag k="waterway" v="stream" />
	</node>
	<node id="-192196" lat="68.2419083365" lon="14.5312055562">
		<tag k="name" v="Høyerbukta" />
		<tag k="natural" v="bay" />
		<tag k="ssr:stedsnr" v="82854" />
	</node>
	<node id="-192194" lat="68.2100527791" lon="14.3295805558">
		<tag k="name" v="Teinelva" />
		<tag k="ssr:stedsnr" v="82813" />
		<tag k="waterway" v="stream" />
	</node>
	<node id="-192180" lat="68.2858388855" lon="14.3773249899">
		<tag k="name" v="Nøkkåsvatnet" />
		<tag k="natural" v="water" />
		<tag k="ssr:stedsnr" v="78230" />
	</node>
	<node id="-194225" lat="68.3303916709" lon="14.8132305539">
		<tag k="name" v="Svarthola" />
		<tag k="ssr:stedsnr" v="210224" />
		<tag k="waterway" v="river" />
	</node>
	<node id="-192176" lat="68.2204999981" lon="14.4582444351">
		<tag k="name" v="Madsvatnet" />
		<tag k="natural" v="water" />
		<tag k="ssr:stedsnr" v="78210" />
	</node>
	<node id="-194223" lat="68.3524777787" lon="14.5931305629">
		<tag k="name" v="Hekkjelstjønna" />
		<tag k="natural" v="water" />
		<tag k="ssr:stedsnr" v="210201" />
	</node>
	<node id="-194222" lat="68.357863891" lon="14.5978749966">
		<tag k="name" v="Steindalselva" />
		<tag k="ssr:stedsnr" v="210200" />
		<tag k="waterway" v="stream" />
	</node>
	<node id="-194221" lat="68.3679694444" lon="14.5559333433">
		<tag k="name" v="Litjneset" />
		<tag k="natural" v="cape" />
		<tag k="ssr:stedsnr" v="210189" />
	</node>
	<node id="-192169" lat="68.2531694455" lon="14.8017305496">
		<tag k="name" v="Budalselva" />
		<tag k="ssr:stedsnr" v="241837" />
		<tag k="waterway" v="stream" />
	</node>
	<node id="-194215" lat="68.3683888907" lon="14.464361105">
		<tag k="name" v="Hesttjønna" />
		<tag k="natural" v="water" />
		<tag k="ssr:stedsnr" v="210027" />
	</node>
	<node id="-192454" lat="68.2834083337" lon="14.5007527678">
		<tag k="name" v="Botnvatnet" />
		<tag k="natural" v="water" />
		<tag k="ssr:stedsnr" v="199639" />
		<tag k="water" v="lake" />
	</node>
	<node id="-194207" lat="68.2348611147" lon="14.4290388801">
		<tag k="alt_name" v="Kolbeindalelva" />
		<tag k="name" v="Kolbeinelva" />
		<tag k="ssr:stedsnr" v="207053" />
		<tag k="waterway" v="river" />
	</node>
	<node id="-194203" lat="68.2170055586" lon="14.4381166693">
		<tag k="name" v="Mølnelva" />
		<tag k="ssr:stedsnr" v="204817" />
		<tag k="waterway" v="river" />
	</node>
	<node id="-194200" lat="68.3552138894" lon="14.743258337">
		<tag k="name" v="Heimergårdselva" />
		<tag k="ssr:stedsnr" v="204789" />
		<tag k="waterway" v="stream" />
	</node>
	<node id="-192141" lat="68.2915222194" lon="14.6926277829">
		<tag k="name" v="Oterbekken" />
		<tag k="ssr:stedsnr" v="28422" />
		<tag k="waterway" v="stream" />
	</node>
	<node id="-192140" lat="68.3023694459" lon="14.7499388887">
		<tag k="name" v="Bakkjordelva" />
		<tag k="ssr:stedsnr" v="28415" />
		<tag k="waterway" v="river" />
	</node>
	<node id="-192163" lat="68.272708335" lon="14.34289722">
		<tag k="name" v="Middagselva" />
		<tag k="ssr:stedsnr" v="239682" />
		<tag k="waterway" v="stream" />
	</node>
	<node id="-194177" lat="68.274033337" lon="14.5852305497">
		<tag k="name" v="Hellevatnan" />
		<tag k="natural" v="water" />
		<tag k="ssr:stedsnr" v="199571" />
		<tag k="water" v="lake" />
	</node>
	<node id="-192125" lat="68.3621055569" lon="14.7288999894">
		<tag k="name" v="Langlielva" />
		<tag k="ssr:stedsnr" v="22803" />
		<tag k="waterway" v="stream" />
	</node>
	<node id="-192124" lat="68.3581361119" lon="14.7627916691">
		<tag k="name" v="Åselva" />
		<tag k="ssr:stedsnr" v="22801" />
		<tag k="waterway" v="stream" />
	</node>
	<node id="-192121" lat="68.3285805563" lon="14.5166083301">
		<tag k="name" v="Lillevatnholmen" />
		<tag k="place" v="islet" />
		<tag k="ssr:stedsnr" v="224883" />
	</node>
	<node id="-194167" lat="68.3594388902" lon="14.5783944393">
		<tag k="name" v="Innervatnet" />
		<tag k="natural" v="water" />
		<tag k="ssr:stedsnr" v="199465" />
		<tag k="water" v="lake" />
	</node>
	<node id="-192118" lat="68.2529000037" lon="14.5521638908">
		<tag k="name" v="Knutvatnet" />
		<tag k="natural" v="water" />
		<tag k="ssr:stedsnr" v="17703" />
	</node>
	<node id="-192113" lat="68.3512083297" lon="14.5541333306">
		<tag k="name" v="Hesthausdalsvatnan" />
		<tag k="natural" v="water" />
		<tag k="ssr:stedsnr" v="17423" />
	</node>
	<node id="-194143" lat="68.296850001" lon="14.2077555607">
		<tag k="alt_name" v="Trolldalstjørna" />
		<tag k="name" v="Trolldalstjønnen" />
		<tag k="natural" v="water" />
		<tag k="ssr:stedsnr" v="199063" />
	</node>
	<node id="-194135" lat="68.3046916669" lon="14.1769888866">
		<tag k="alt_name" v="Sortvatnet, store;Store Sortevatn" />
		<tag k="name" v="Store Sortvatnet" />
		<tag k="natural" v="water" />
		<tag k="ssr:stedsnr" v="199023" />
	</node>
	<node id="-192084" lat="68.3346999988" lon="14.5427416767">
		<tag k="name" v="Tøymarkneset" />
		<tag k="natural" v="cape" />
		<tag k="ssr:stedsnr" v="222951" />
	</node>
	<node id="-194131" lat="68.3274722234" lon="14.6778944398">
		<tag k="name" v="Kråelva" />
		<tag k="ssr:stedsnr" v="180835" />
		<tag k="waterway" v="stream" />
	</node>
	<node id="-192082" lat="68.3138583349" lon="14.5955638948">
		<tag k="name" v="Mellomvatnet" />
		<tag k="natural" v="water" />
		<tag k="ssr:stedsnr" v="222916" />
	</node>
	<node id="-194116" lat="68.2594694423" lon="14.3315694357">
		<tag k="name" v="Ågjela" />
		<tag k="ssr:stedsnr" v="179682" />
		<tag k="waterway" v="stream" />
	</node>
	<node id="-194110" lat="68.3283166677" lon="14.527486101">
		<tag k="name" v="Skjelodden" />
		<tag k="natural" v="cape" />
		<tag k="ssr:stedsnr" v="163889" />
	</node>
	<node id="-194095" lat="68.2690916672" lon="14.7426805538">
		<tag k="name" v="Skittenbekken" />
		<tag k="ssr:stedsnr" v="149938" />
		<tag k="waterway" v="stream" />
	</node>
	<node id="-194094" lat="68.1429611126" lon="14.2034611178">
		<tag k="name" v="Vartangen" />
		<tag k="place" v="island" />
		<tag k="ssr:stedsnr" v="149731" />
	</node>
	<node id="-194088" lat="68.3043444464" lon="14.7088111132">
		<tag k="name" v="Brønnelva" />
		<tag k="ssr:stedsnr" v="149400" />
		<tag k="waterway" v="stream" />
	</node>
	<node id="-194070" lat="68.3169750012" lon="15.0724527878">
		<tag k="name" v="Meåselva" />
		<tag k="ssr:stedsnr" v="146129" />
		<tag k="waterway" v="river" />
	</node>
	<node id="-194066" lat="68.2445916685" lon="14.5417861093">
		<tag k="name" v="Strandelva" />
		<tag k="ssr:stedsnr" v="143823" />
		<tag k="waterway" v="river" />
	</node>
	<node id="-194065" lat="68.211758337" lon="14.3842583412">
		<tag k="name" v="Elvløkka" />
		<tag k="place" v="locality" />
		<tag k="ssr:stedsnr" v="143806" />
	</node>
	<node id="-194043" lat="68.2348722268" lon="14.2611944385">
		<tag k="alt_name" v="Bordewikvatnet" />
		<tag k="name" v="Bordewichvatnet" />
		<tag k="natural" v="water" />
		<tag k="ssr:stedsnr" v="138622" />
	</node>
	<node id="-194034" lat="68.3059611147" lon="14.5259583431">
		<tag k="name" v="Lomvatnan" />
		<tag k="natural" v="water" />
		<tag k="ssr:stedsnr" v="138553" />
	</node>
	<node id="-194031" lat="68.3274694455" lon="14.8648583454">
		<tag k="name" v="Rørhopvatnet" />
		<tag k="natural" v="water" />
		<tag k="ssr:stedsnr" v="138546" />
		<tag k="water" v="lake" />
	</node>
	<node id="-194029" lat="68.2990194475" lon="14.5352138927">
		<tag k="name" v="Strumpvatnet" />
		<tag k="natural" v="water" />
		<tag k="ssr:stedsnr" v="138536" />
		<tag k="water" v="lake" />
	</node>
	<node id="-194023" lat="68.2117333318" lon="14.3182583374">
		<tag k="name" v="Hopsvatnet" />
		<tag k="natural" v="water" />
		<tag k="ssr:stedsnr" v="138437" />
	</node>
	<node id="-194013" lat="68.1863222186" lon="14.3269472093">
		<tag k="name" v="Kallevatnet" />
>>>>>>> e1d4bc35ff8a6074a6f2e91616a996b547c36f15
		<tag k="natural" v="water" />
		<tag k="ssr:stedsnr" v="138393" />
	</node>
<<<<<<< HEAD
	<node lat="68.37741388617265" lon="14.44621666164414" id="-18221">
		<tag k="name" v="Årvikelva" />
		<tag k="ssr:stedsnr" v="623465" />
		<tag k="waterway" v="stream" />
	</node>
	<node lat="68.37246389309308" lon="14.448669442634289" id="-18225">
		<tag k="name" v="Måsvatnet" />
		<tag k="natural" v="water" />
		<tag k="ssr:stedsnr" v="623512" />
	</node>
	<node lat="68.30145000366637" lon="14.467813889507843" id="-18227">
		<tag k="name" v="Blålyngvatnan" />
		<tag k="natural" v="water" />
		<tag k="ssr:stedsnr" v="623520" />
		<tag k="water" v="lake" />
	</node>
	<node lat="68.2408333313556" lon="14.526577783425738" id="-18235">
		<tag k="name" v="Spissen" />
		<tag k="natural" v="cape" />
		<tag k="ssr:stedsnr" v="628810" />
	</node>
	<node lat="68.25453333127824" lon="14.297374998365347" id="-18236">
		<tag k="name" v="Rundholmen" />
		<tag k="place" v="islet" />
		<tag k="ssr:stedsnr" v="629143" />
	</node>
	<node lat="68.29793610777519" lon="14.694400011094762" id="-18249">
		<tag k="name" v="Litjelva" />
		<tag k="ssr:stedsnr" v="634433" />
		<tag k="waterway" v="stream" />
	</node>
	<node lat="68.31620555396874" lon="14.558852767387434" id="-18253">
		<tag k="name" v="Nilsjordneset" />
		<tag k="natural" v="cape" />
		<tag k="ssr:stedsnr" v="646907" />
	</node>
	<node lat="68.3160000004255" lon="14.610247214399202" id="-18258">
		<tag k="name" v="Tennvatnet" />
		<tag k="natural" v="water" />
		<tag k="ssr:stedsnr" v="646916" />
		<tag k="water" v="lake" />
	</node>
	<node lat="68.31203055673815" lon="14.554227766932078" id="-18270">
		<tag k="name" v="Finnrødet" />
		<tag k="natural" v="cape" />
		<tag k="ssr:stedsnr" v="707930" />
	</node>
	<node lat="68.24224167093399" lon="14.327841673058352" id="-18278">
		<tag k="name" v="Jordelva" />
		<tag k="ssr:stedsnr" v="664614" />
		<tag k="waterway" v="stream" />
	</node>
	<node lat="68.32228055898771" lon="14.512133324811758" id="-18285">
		<tag k="name" v="Storelva" />
		<tag k="ssr:stedsnr" v="709889" />
		<tag k="waterway" v="river" />
	</node>
	<node lat="68.23548055094535" lon="14.51131667530233" id="-18336">
		<tag k="name" v="Øya" />
		<tag k="place" v="islet" />
		<tag k="ssr:stedsnr" v="689810" />
	</node>
	<node lat="68.30902777920917" lon="14.157994440097546" id="-18373">
		<tag k="name" v="Kretjønna" />
		<tag k="natural" v="water" />
		<tag k="ssr:stedsnr" v="726319" />
	</node>
	<node lat="68.25488333571231" lon="14.355963882870213" id="-18374">
		<tag k="alt_name" v="Lomtjørna" />
		<tag k="name" v="Lomtjønna" />
		<tag k="natural" v="water" />
		<tag k="ssr:stedsnr" v="744107" />
	</node>
	<node lat="68.2536194433199" lon="14.385444443757534" id="-18375">
		<tag k="name" v="Finnstrandelva" />
		<tag k="ssr:stedsnr" v="744109" />
		<tag k="waterway" v="stream" />
	</node>
	<node lat="68.3202694407063" lon="14.113186122018373" id="-18390">
		<tag k="name" v="Gårdsvatnet" />
		<tag k="natural" v="water" />
		<tag k="ssr:stedsnr" v="745103" />
	</node>
	<node lat="68.27923055925704" lon="14.53879443681498" id="-18408">
		<tag k="name" v="Svartvatnet" />
		<tag k="natural" v="water" />
		<tag k="ssr:stedsnr" v="745620" />
		<tag k="water" v="lake" />
	</node>
	<node lat="68.31532500364816" lon="14.599511123678656" id="-18412">
		<tag k="name" v="Ternvatnan" />
		<tag k="natural" v="water" />
		<tag k="ssr:stedsnr" v="745520" />
	</node>
	<node lat="68.25393333580239" lon="14.666513894818628" id="-18419">
		<tag k="name" v="Storvatnet" />
		<tag k="natural" v="water" />
		<tag k="ssr:stedsnr" v="750111" />
	</node>
	<node lat="68.25241666740457" lon="14.549530544247155" id="-18420">
		<tag k="name" v="Knutelva" />
		<tag k="ssr:stedsnr" v="750124" />
		<tag k="waterway" v="stream" />
	</node>
	<node lat="68.27348333637092" lon="14.607483339079673" id="-18435">
		<tag k="name" v="Storbukta" />
		<tag k="natural" v="bay" />
		<tag k="ssr:stedsnr" v="756208" />
	</node>
	<node lat="68.39271666434179" lon="14.48578889546168" id="-18439">
		<tag k="name" v="Naustvikbekken" />
		<tag k="ssr:stedsnr" v="756449" />
		<tag k="waterway" v="stream" />
	</node>
	<node lat="68.25592222000698" lon="14.308402773345689" id="-18451">
		<tag k="name" v="Gjertruddalselva" />
		<tag k="ssr:stedsnr" v="907638" />
		<tag k="waterway" v="stream" />
	</node>
	<node lat="68.23409444762399" lon="14.305388885317615" id="-18452">
		<tag k="name" v="Breifjellelva" />
		<tag k="ssr:stedsnr" v="907591" />
		<tag k="waterway" v="stream" />
	</node>
	<node lat="68.25120277360911" lon="14.872216671576417" id="-18474">
		<tag k="name" v="Gullvikvatnet" />
		<tag k="natural" v="water" />
		<tag k="ssr:stedsnr" v="805214" />
	</node>
	<node lat="68.32551666384896" lon="15.073197218669167" id="-18484">
		<tag k="name" v="Storelva" />
		<tag k="ssr:stedsnr" v="814194" />
		<tag k="waterway" v="stream" />
	</node>
	<node lat="68.3184722178051" lon="14.561402786760768" id="-18499">
		<tag k="name" v="Nilsjordelva" />
		<tag k="ssr:stedsnr" v="829926" />
		<tag k="waterway" v="stream" />
	</node>
	<node lat="68.3113277781108" lon="14.394183321294577" id="-18514">
		<tag k="alt_name" v="Mølndalsvatnet" />
		<tag k="name" v="Mølnvatnet" />
		<tag k="natural" v="water" />
		<tag k="ssr:stedsnr" v="927029" />
	</node>
	<node lat="68.31685277589415" lon="14.372597229834026" id="-18516">
		<tag k="name" v="Trolldalsvatnet" />
		<tag k="natural" v="water" />
		<tag k="ssr:stedsnr" v="927002" />
	</node>
	<node lat="68.28614722605478" lon="15.077088877738932" id="-18529">
		<tag k="name" v="Langosen" />
		<tag k="natural" v="bay" />
		<tag k="ssr:stedsnr" v="927097" />
	</node>
	<node lat="68.24554999786895" lon="14.838836120257135" id="-18538">
		<tag k="name" v="Brettesnesvatnet" />
		<tag k="natural" v="water" />
		<tag k="ssr:stedsnr" v="927297" />
	</node>
	<node lat="68.33276388788961" lon="14.6355444385544" id="-18544">
		<tag k="alt_name" v="Kvitfosselva" />
		<tag k="name" v="Kvitforselva" />
		<tag k="ssr:stedsnr" v="927433" />
		<tag k="waterway" v="stream" />
	</node>
	<node lat="68.33860833353134" lon="15.18262778306904" id="-18563">
		<tag k="name" v="Storfjellvatnet" />
		<tag k="natural" v="water" />
		<tag k="ssr:stedsnr" v="867955" />
	</node>
	<node lat="68.19793055844094" lon="14.324100007790852" id="-18566">
		<tag k="name" v="Trolldalselva" />
		<tag k="ssr:stedsnr" v="871785" />
		<tag k="waterway" v="river" />
	</node>
	<node lat="68.25272777620202" lon="14.53175277424664" id="-18569">
		<tag k="name" v="Hans Meyer-elva" />
		<tag k="ssr:stedsnr" v="932164" />
		<tag k="waterway" v="stream" />
	</node>
	<node lat="68.39666666252033" lon="14.486513898344217" id="-18597">
		<tag k="name" v="Olatjønna" />
		<tag k="natural" v="water" />
		<tag k="ssr:stedsnr" v="890783" />
		<tag k="water" v="pond" />
	</node>
	<node lat="68.32905833055383" lon="14.682263883036988" id="-18619">
		<tag k="name" v="Toftelva" />
		<tag k="ssr:stedsnr" v="908869" />
		<tag k="waterway" v="stream" />
	</node>
	<node lat="68.28435277854418" lon="14.627933321660596" id="-18648">
		<tag k="name" v="Hellskarelva" />
		<tag k="ssr:stedsnr" v="927606" />
		<tag k="waterway" v="stream" />
	</node>
	<node lat="68.32455277776762" lon="15.0348416556562" id="-18658">
		<tag k="alt_name" v="Rødsandvatnan" />
		<tag k="name" v="Rødsandvatn" />
		<tag k="natural" v="water" />
		<tag k="ssr:stedsnr" v="927954" />
	</node>
	<node lat="68.27513333674338" lon="14.596716678139448" id="-18681">
		<tag k="name" v="Nervatnet" />
		<tag k="natural" v="water" />
		<tag k="ssr:stedsnr" v="938207" />
		<tag k="water" v="lake" />
	</node>
	<node lat="68.27458055101914" lon="14.587608335752154" id="-18682">
		<tag k="name" v="Øverelva" />
		<tag k="ssr:stedsnr" v="938208" />
		<tag k="waterway" v="river" />
	</node>
	<node lat="68.28172500239343" lon="14.60839721555366" id="-18683">
		<tag k="name" v="Fjøsforsen" />
		<tag k="natural" v="waterfall" />
		<tag k="ssr:stedsnr" v="938209" />
	</node>
	<node lat="68.32884721850918" lon="14.693161113250342" id="-18709">
		<tag k="name" v="Bekkhaugelva" />
		<tag k="ssr:stedsnr" v="968840" />
		<tag k="waterway" v="stream" />
	</node>
	<node lat="68.32430555800856" lon="14.664302774019031" id="-18710">
		<tag k="name" v="Hestvågodden" />
		<tag k="natural" v="cape" />
		<tag k="ssr:stedsnr" v="968843" />
	</node>
	<node lat="68.30715555766926" lon="14.105041669328994" id="-18720">
		<tag k="name" v="Steinvatnet" />
		<tag k="natural" v="water" />
		<tag k="ssr:stedsnr" v="17015" />
	</node>
	<node lat="68.30879167016268" lon="14.180600008118994" id="-18721">
		<tag k="alt_name" v="Sortvatnet, l;Lille Sortevatn" />
		<tag k="name" v="Litle Sortvatnet" />
		<tag k="natural" v="water" />
		<tag k="ssr:stedsnr" v="17017" />
	</node>
	<node lat="68.35120832968475" lon="14.554133330591391" id="-18756">
		<tag k="name" v="Hesthausdalsvatnan" />
		<tag k="natural" v="water" />
		<tag k="ssr:stedsnr" v="17423" />
	</node>
	<node lat="68.31471388777004" lon="14.558080543347868" id="-18766">
		<tag k="name" v="Rundholmen" />
		<tag k="place" v="islet" />
		<tag k="ssr:stedsnr" v="17543" />
	</node>
	<node lat="68.2379777778211" lon="14.294683326992523" id="-18775">
		<tag k="fixme" v="multiple name tags, choose one and add the other to alt_name" />
		<tag k="name" v="Storvatnet;Haugevatnet" />
		<tag k="natural" v="water" />
		<tag k="ssr:stedsnr" v="17641" />
		<tag k="water" v="lake" />
	</node>
	<node lat="68.26311666349702" lon="14.89177223282284" id="-18780">
		<tag k="name" v="Trollvatnet" />
		<tag k="natural" v="water" />
		<tag k="ssr:stedsnr" v="17689" />
	</node>
	<node lat="68.3750277777851" lon="14.555763896665818" id="-18789">
		<tag k="name" v="Spegjelneset" />
		<tag k="natural" v="cape" />
		<tag k="ssr:stedsnr" v="28145" />
	</node>
	<node lat="68.35313610758386" lon="14.58971666018187" id="-18792">
		<tag k="name" v="Hekkjelstjønnelva" />
		<tag k="ssr:stedsnr" v="28192" />
		<tag k="waterway" v="river" />
	</node>
	<node lat="68.30662777401139" lon="14.075555542743968" id="-18807">
		<tag k="name" v="Sineselva" />
		<tag k="ssr:stedsnr" v="39399" />
		<tag k="waterway" v="stream" />
	</node>
	<node lat="68.27483611482955" lon="14.359225004603575" id="-18821">
		<tag k="name" v="Skjellelva" />
		<tag k="ssr:stedsnr" v="57646" />
		<tag k="waterway" v="stream" />
	</node>
	<node lat="68.25297222140397" lon="14.293883330956067" id="-18834">
		<tag k="name" v="Kleppstadvatnet" />
		<tag k="natural" v="water" />
		<tag k="ssr:stedsnr" v="77147" />
	</node>
	<node lat="68.22049999812423" lon="14.458244435084872" id="-18859">
		<tag k="name" v="Madsvatnet" />
		<tag k="natural" v="water" />
		<tag k="ssr:stedsnr" v="78210" />
	</node>
	<node lat="68.28583888552593" lon="14.377324989905897" id="-18863">
		<tag k="name" v="Nøkkåsvatnet" />
		<tag k="natural" v="water" />
		<tag k="ssr:stedsnr" v="78230" />
	</node>
	<node lat="68.31627222315241" lon="14.752411104080945" id="-18882">
		<tag k="name" v="Saltvasselva" />
		<tag k="ssr:stedsnr" v="78539" />
		<tag k="waterway" v="stream" />
	</node>
	<node lat="68.23709722216712" lon="14.277780554375196" id="-18883">
		<tag k="name" v="Toppvatnet" />
		<tag k="natural" v="water" />
		<tag k="ssr:stedsnr" v="78606" />
	</node>
	<node lat="68.23087777671819" lon="14.314958329126485" id="-18884">
		<tag k="fixme" v="multiple name tags, choose one and add the other to alt_name" />
		<tag k="name" v="Middagsdalsvatnet;Breifjellvatnet" />
		<tag k="natural" v="water" />
		<tag k="ssr:stedsnr" v="78607" />
	</node>
	<node lat="68.19985555421185" lon="14.315594451808789" id="-18886">
		<tag k="name" v="Trolldalsvatnet" />
		<tag k="natural" v="water" />
		<tag k="ssr:stedsnr" v="78486" />
	</node>
	<node lat="68.30033055670616" lon="15.00237498856325" id="-18888">
		<tag k="name" v="Valøyan" />
		<tag k="place" v="island" />
		<tag k="ssr:stedsnr" v="78592" />
	</node>
	<node lat="68.24190833649479" lon="14.531205556172235" id="-18892">
		<tag k="name" v="Høyerbukta" />
		<tag k="natural" v="bay" />
		<tag k="ssr:stedsnr" v="82854" />
	</node>
	<node lat="68.21005277908621" lon="14.329580555780185" id="-18894">
		<tag k="name" v="Teinelva" />
		<tag k="ssr:stedsnr" v="82813" />
		<tag k="waterway" v="stream" />
	</node>
	<node lat="68.31655833434004" lon="14.588555563673047" id="-18925">
		<tag k="name" v="Tjukkskogelva" />
		<tag k="ssr:stedsnr" v="100920" />
		<tag k="waterway" v="stream" />
	</node>
	<node lat="68.27643055436776" lon="14.216261113898982" id="-18933">
		<tag k="name" v="Botnelva" />
		<tag k="ssr:stedsnr" v="119334" />
		<tag k="waterway" v="stream" />
	</node>
	<node lat="68.31223611140013" lon="14.615669455088725" id="-18941">
		<tag k="name" v="Tennvasselva" />
		<tag k="ssr:stedsnr" v="119858" />
		<tag k="waterway" v="stream" />
	</node>
	<node lat="68.33534722085795" lon="14.762663895175143" id="-18944">
		<tag k="name" v="Hestelva" />
		<tag k="ssr:stedsnr" v="120854" />
		<tag k="waterway" v="stream" />
	</node>
	<node lat="68.2388166654792" lon="14.52305000528825" id="-18966">
		<tag k="name" v="Litl-Kongsvatnet" />
		<tag k="natural" v="water" />
		<tag k="ssr:stedsnr" v="138288" />
	</node>
	<node lat="68.24112222625752" lon="14.843822217964187" id="-18974">
		<tag k="name" v="Bretteneselva" />
		<tag k="ssr:stedsnr" v="138321" />
		<tag k="waterway" v="stream" />
	</node>
	<node lat="68.21173333176694" lon="14.318258337366302" id="-18982">
		<tag k="name" v="Hopsvatnet" />
		<tag k="natural" v="water" />
		<tag k="ssr:stedsnr" v="138437" />
	</node>
	<node lat="68.32746944550235" lon="14.864858345431283" id="-18983">
		<tag k="name" v="Rørhopvatnet" />
		<tag k="natural" v="water" />
		<tag k="ssr:stedsnr" v="138546" />
		<tag k="water" v="lake" />
	</node>
	<node lat="68.29901944754498" lon="14.535213892661552" id="-18987">
		<tag k="name" v="Strumpvatnet" />
		<tag k="natural" v="water" />
		<tag k="ssr:stedsnr" v="138536" />
		<tag k="water" v="lake" />
	</node>
	<node lat="68.23487222680319" lon="14.261194438457425" id="-18988">
		<tag k="alt_name" v="Bordewikvatnet" />
		<tag k="name" v="Bordewichvatnet" />
		<tag k="natural" v="water" />
		<tag k="ssr:stedsnr" v="138622" />
	</node>
	<node lat="68.30596111469916" lon="14.525958343127698" id="-18995">
		<tag k="name" v="Lomvatnan" />
		<tag k="natural" v="water" />
		<tag k="ssr:stedsnr" v="138553" />
	</node>
	<node lat="68.2445916684982" lon="14.541786109273803" id="-19014">
		<tag k="name" v="Strandelva" />
		<tag k="ssr:stedsnr" v="143823" />
		<tag k="waterway" v="river" />
	</node>
	<node lat="68.31697500124798" lon="15.072452787767505" id="-19022">
		<tag k="name" v="Meåselva" />
		<tag k="ssr:stedsnr" v="146129" />
		<tag k="waterway" v="river" />
	</node>
	<node lat="68.3043444463842" lon="14.708811113155924" id="-19038">
		<tag k="name" v="Brønnelva" />
		<tag k="ssr:stedsnr" v="149400" />
		<tag k="waterway" v="stream" />
	</node>
	<node lat="68.14296111263572" lon="14.203461117799328" id="-19041">
		<tag k="name" v="Vartangen" />
		<tag k="place" v="island" />
		<tag k="ssr:stedsnr" v="149731" />
	</node>
	<node lat="68.2690916671717" lon="14.742680553812326" id="-19042">
		<tag k="name" v="Skittenbekken" />
		<tag k="ssr:stedsnr" v="149938" />
		<tag k="waterway" v="stream" />
	</node>
	<node lat="68.32831666767514" lon="14.52748610098612" id="-19054">
		<tag k="name" v="Skjelodden" />
		<tag k="natural" v="cape" />
		<tag k="ssr:stedsnr" v="163889" />
	</node>
	<node lat="68.25946944233336" lon="14.331569435693767" id="-19069">
		<tag k="name" v="Ågjela" />
		<tag k="ssr:stedsnr" v="179682" />
		<tag k="waterway" v="stream" />
	</node>
	<node lat="68.32747222335732" lon="14.677894439813919" id="-19082">
		<tag k="name" v="Kråelva" />
		<tag k="ssr:stedsnr" v="180835" />
		<tag k="waterway" v="stream" />
	</node>
	<node lat="68.29685000101162" lon="14.207755560708089" id="-19091">
		<tag k="alt_name" v="Trolldalstjørna" />
		<tag k="name" v="Trolldalstjønnen" />
		<tag k="natural" v="water" />
		<tag k="ssr:stedsnr" v="199063" />
	</node>
	<node lat="68.35943889020429" lon="14.578394439255897" id="-19115">
		<tag k="name" v="Innervatnet" />
		<tag k="natural" v="water" />
		<tag k="ssr:stedsnr" v="199465" />
		<tag k="water" v="lake" />
	</node>
	<node lat="68.28340833365026" lon="14.500752767753424" id="-19125">
		<tag k="name" v="Botnvatnet" />
		<tag k="natural" v="water" />
		<tag k="ssr:stedsnr" v="199639" />
		<tag k="water" v="lake" />
	</node>
	<node lat="68.23486111468695" lon="14.429038880061077" id="-19143">
		<tag k="alt_name" v="Kolbeindalelva" />
		<tag k="name" v="Kolbeinelva" />
		<tag k="ssr:stedsnr" v="207053" />
		<tag k="waterway" v="river" />
	</node>
	<node lat="68.36796944439467" lon="14.555933343348991" id="-19158">
		<tag k="name" v="Litjneset" />
		<tag k="natural" v="cape" />
		<tag k="ssr:stedsnr" v="210189" />
	</node>
	<node lat="68.35786389104163" lon="14.597874996621178" id="-19159">
		<tag k="name" v="Steindalselva" />
		<tag k="ssr:stedsnr" v="210200" />
		<tag k="waterway" v="stream" />
	</node>
	<node lat="68.35156308080647" lon="14.595718079162921" id="-19160">
		<tag k="name" v="Hekkjelstjønna" />
		<tag k="natural" v="water" />
		<tag k="ssr:stedsnr" v="210201" />
	</node>
	<node lat="68.33469999876166" lon="14.542741676730733" id="-19173">
		<tag k="name" v="Tøymarkneset" />
		<tag k="natural" v="cape" />
		<tag k="ssr:stedsnr" v="222951" />
	</node>
	<node lat="68.29669722026664" lon="14.694927768507993" id="-19195">
		<tag k="name" v="Stordalselva" />
		<tag k="ssr:stedsnr" v="298767" />
		<tag k="waterway" v="stream" />
	</node>
	<node lat="68.30658611389202" lon="14.390858344236632" id="-19209">
		<tag k="name" v="Kvanndalsvatnet" />
		<tag k="natural" v="water" />
		<tag k="ssr:stedsnr" v="320023" />
	</node>
	<node lat="68.29602500065069" lon="14.922972211068192" id="-19241">
		<tag k="name" v="Molgavlelva" />
		<tag k="ssr:stedsnr" v="320499" />
		<tag k="waterway" v="stream" />
	</node>
	<node lat="68.32405277877207" lon="15.12195832742186" id="-19276">
		<tag k="name" v="Ramsosvatnet" />
		<tag k="natural" v="water" />
		<tag k="ssr:stedsnr" v="320949" />
	</node>
	<node lat="68.30272221848088" lon="15.020066661751535" id="-19289">
		<tag k="name" v="Valelva" />
		<tag k="ssr:stedsnr" v="328887" />
		<tag k="waterway" v="river" />
	</node>
	<node lat="68.34013333418538" lon="14.140019437068915" id="-19303">
		<tag k="name" v="Gløstjønna" />
		<tag k="natural" v="water" />
		<tag k="ssr:stedsnr" v="342380" />
	</node>
	<node lat="68.33726389145686" lon="14.523319449620825" id="-19307">
		<tag k="name" v="Omnelva" />
		<tag k="ssr:stedsnr" v="343971" />
		<tag k="waterway" v="stream" />
	</node>
	<node lat="68.39258333372567" lon="14.459911112363459" id="-19331">
		<tag k="name" v="Nordtjønna" />
		<tag k="natural" v="water" />
		<tag k="ssr:stedsnr" v="362561" />
	</node>
	<node lat="68.33835555348891" lon="14.760422230865984" id="-19334">
		<tag k="name" v="Storråna" />
		<tag k="ssr:stedsnr" v="362866" />
		<tag k="waterway" v="stream" />
	</node>
	<node lat="68.3341888907502" lon="14.456174993827924" id="-19336">
		<tag k="fixme" v="multiple name tags, choose one and add the other to alt_name" />
		<tag k="name" v="Nøkktjørna;Nøkkvatnet" />
		<tag k="natural" v="water" />
		<tag k="ssr:stedsnr" v="380451" />
	</node>
	<node lat="68.22991943998471" lon="14.44873056049811" id="-19350">
		<tag k="name" v="Sæterbukta" />
		<tag k="natural" v="bay" />
		<tag k="ssr:stedsnr" v="380296" />
	</node>
	<node lat="68.2484333296375" lon="14.540141656024819" id="-19352">
		<tag k="name" v="Nedre Svolværvatnet" />
		<tag k="natural" v="water" />
		<tag k="ssr:stedsnr" v="381690" />
		<tag k="water" v="lake" />
	</node>
	<node lat="68.23666944721751" lon="14.497355549825592" id="-19356">
		<tag k="name" v="Kongselva" />
		<tag k="ssr:stedsnr" v="380250" />
		<tag k="waterway" v="stream" />
	</node>
	<node lat="68.21839722272846" lon="14.351602774604265" id="-19358">
		<tag k="name" v="Førstevatnet" />
		<tag k="natural" v="water" />
		<tag k="ssr:stedsnr" v="380482" />
	</node>
	<node lat="68.3161277780555" lon="14.335486102431716" id="-19367">
		<tag k="alt_name" v="Øvervatnet" />
		<tag k="name" v="Øvrevatnet" />
		<tag k="natural" v="water" />
		<tag k="ssr:stedsnr" v="381134" />
	</node>
	<node lat="68.33518611111185" lon="14.798005548497649" id="-19380">
		<tag k="name" v="Kvanntoelva" />
		<tag k="ssr:stedsnr" v="381430" />
		<tag k="waterway" v="stream" />
	</node>
	<node lat="68.3195194472319" lon="14.50950000289385" id="-19385">
		<tag k="name" v="Lomvasselva" />
		<tag k="ssr:stedsnr" v="381526" />
		<tag k="waterway" v="stream" />
	</node>
	<node lat="68.31198333713182" lon="14.870819448488144" id="-19389">
		<tag k="name" v="Storvikelva" />
		<tag k="ssr:stedsnr" v="381550" />
		<tag k="waterway" v="stream" />
	</node>
	<node lat="68.19745278121185" lon="14.25956944261845" id="-19395">
		<tag k="name" v="Djupfjordvatnet" />
=======
	<node id="-194011" lat="68.2411222263" lon="14.843822218">
		<tag k="name" v="Bretteneselva" />
		<tag k="ssr:stedsnr" v="138321" />
		<tag k="waterway" v="stream" />
	</node>
	<node id="-194008" lat="68.2388166655" lon="14.5230500053">
		<tag k="name" v="Litl-Kongsvatnet" />
		<tag k="natural" v="water" />
		<tag k="ssr:stedsnr" v="138288" />
	</node>
	<node id="-193990" lat="68.3232944456" lon="15.0781361101">
		<tag k="alt_name" v="Vatnvågvatnet, øvre" />
		<tag k="fixme" v="multiple name tags, choose one and add the other to alt_name" />
		<tag k="name" v="Øvrevatnet;Øvre Vatnvågvatnet" />
		<tag k="natural" v="water" />
		<tag k="ssr:stedsnr" v="137933" />
	</node>
	<node id="-193986" lat="68.2387166658" lon="14.4946749959">
		<tag k="name" v="Mellavatnet" />
		<tag k="natural" v="water" />
		<tag k="ssr:stedsnr" v="137211" />
	</node>
	<node id="-193973" lat="68.2390250019" lon="14.2651138994">
		<tag k="name" v="Arnelva" />
		<tag k="ssr:stedsnr" v="119502" />
		<tag k="waterway" v="stream" />
	</node>
	<node id="-193972" lat="68.3122361114" lon="14.6156694551">
		<tag k="name" v="Tennvasselva" />
		<tag k="ssr:stedsnr" v="119858" />
		<tag k="waterway" v="stream" />
	</node>
	<node id="-193971" lat="68.2764305544" lon="14.2162611139">
		<tag k="name" v="Botnelva" />
		<tag k="ssr:stedsnr" v="119334" />
		<tag k="waterway" v="stream" />
	</node>
	<node id="-193965" lat="68.3153916683" lon="14.1497555569">
		<tag k="name" v="Storvadhaugvatnet" />
		<tag k="natural" v="water" />
		<tag k="ssr:stedsnr" v="119303" />
	</node>
	<node id="-193952" lat="68.2401972183" lon="14.2850666648">
		<tag k="name" v="Fabrikkelva" />
		<tag k="ssr:stedsnr" v="105012" />
		<tag k="waterway" v="stream" />
	</node>
	<node id="-193944" lat="68.3855777817" lon="14.4656249981">
		<tag k="name" v="Høljan" />
		<tag k="natural" v="water" />
		<tag k="ssr:stedsnr" v="101780" />
	</node>
	<node id="-193942" lat="68.3165583343" lon="14.5885555637">
		<tag k="name" v="Tjukkskogelva" />
		<tag k="ssr:stedsnr" v="100920" />
		<tag k="waterway" v="stream" />
	</node>
	<node id="-192748" lat="68.3087000025" lon="14.0872805668">
		<tag k="name" v="Sinesvatnet" />
		<tag k="natural" v="water" />
		<tag k="ssr:stedsnr" v="502020" />
	</node>
	<node id="-193889" lat="68.2308777767" lon="14.3149583291">
		<tag k="fixme" v="multiple name tags, choose one and add the other to alt_name" />
		<tag k="name" v="Breifjellvatnet;Middagsdalsvatnet" />
		<tag k="natural" v="water" />
		<tag k="ssr:stedsnr" v="78607" />
	</node>
	<node id="-193888" lat="68.2370972222" lon="14.2777805544">
		<tag k="name" v="Toppvatnet" />
		<tag k="natural" v="water" />
		<tag k="ssr:stedsnr" v="78606" />
	</node>
	<node id="-193887" lat="68.3003305567" lon="15.0023749886">
		<tag k="name" v="Valøyan" />
		<tag k="place" v="island" />
		<tag k="ssr:stedsnr" v="78592" />
	</node>
	<node id="-193882" lat="68.3218111082" lon="14.8937138993">
		<tag k="name" v="Litlvatnet" />
		<tag k="natural" v="water" />
		<tag k="ssr:stedsnr" v="78544" />
	</node>
	<node id="-193881" lat="68.3162722232" lon="14.7524111041">
		<tag k="name" v="Saltvasselva" />
		<tag k="ssr:stedsnr" v="78539" />
		<tag k="waterway" v="stream" />
	</node>
	<node id="-193878" lat="68.3166527816" lon="14.5456972228">
		<tag k="name" v="Storvatnet" />
		<tag k="natural" v="water" />
		<tag k="ssr:stedsnr" v="78517" />
		<tag k="water" v="lake" />
	</node>
	<node id="-193877" lat="68.1998555542" lon="14.3155944518">
		<tag k="name" v="Trolldalsvatnet" />
		<tag k="natural" v="water" />
		<tag k="ssr:stedsnr" v="78486" />
	</node>
	<node id="-193870" lat="68.3293416693" lon="14.5749527788">
		<tag k="alt_name" v="Mørkdalsvatnet, in;Indre Mørkdalsvatn" />
		<tag k="name" v="Indre Mørkdalsvatnet" />
		<tag k="natural" v="water" />
		<tag k="ssr:stedsnr" v="78418" />
	</node>
	<node id="-193868" lat="68.3275916639" lon="14.5220166699">
		<tag k="alt_name" v="Lillevatnet" />
		<tag k="name" v="Litlvatnet" />
		<tag k="natural" v="water" />
		<tag k="ssr:stedsnr" v="78414" />
	</node>
	<node id="-193866" lat="68.3291999974" lon="14.8029111053">
		<tag k="name" v="Durmålselva" />
		<tag k="ssr:stedsnr" v="78411" />
		<tag k="waterway" v="stream" />
	</node>
	<node id="-193860" lat="68.2252805577" lon="14.452119436">
		<tag k="alt_name" v="Svarttjørna" />
		<tag k="name" v="Svarttjønna" />
		<tag k="natural" v="water" />
		<tag k="ssr:stedsnr" v="78305" />
	</node>
	<node id="-193846" lat="68.2898027759" lon="14.1534194392">
		<tag k="name" v="Ånevatnet" />
		<tag k="natural" v="water" />
		<tag k="ssr:stedsnr" v="78065" />
	</node>
	<node id="-193819" lat="68.2529722214" lon="14.293883331">
		<tag k="name" v="Kleppstadvatnet" />
		<tag k="natural" v="water" />
		<tag k="ssr:stedsnr" v="77147" />
	</node>
	<node id="-193812" lat="68.3200277788" lon="15.1200916703">
		<tag k="name" v="Litlvatnet" />
		<tag k="natural" v="water" />
		<tag k="ssr:stedsnr" v="77001" />
	</node>
	<node id="-193811" lat="68.3435888871" lon="14.6832166639">
		<tag k="name" v="Lomstjørna" />
		<tag k="natural" v="water" />
		<tag k="ssr:stedsnr" v="77401" />
	</node>
	<node id="-193810" lat="68.3430777803" lon="14.5304083439">
		<tag k="name" v="Omndalsvatnet" />
		<tag k="natural" v="water" />
		<tag k="ssr:stedsnr" v="77400" />
	</node>
	<node id="-193799" lat="68.2845583367" lon="14.1616333421">
		<tag k="name" v="Gjendalselva" />
		<tag k="ssr:stedsnr" v="59474" />
		<tag k="waterway" v="stream" />
	</node>
	<node id="-193795" lat="68.3024638843" lon="14.3482944494">
		<tag k="name" v="Dalvatnet" />
		<tag k="natural" v="water" />
		<tag k="ssr:stedsnr" v="57721" />
	</node>
	<node id="-193791" lat="68.2630944426" lon="14.3948333345">
		<tag k="name" v="Memerendtjønna" />
		<tag k="natural" v="water" />
		<tag k="ssr:stedsnr" v="57674" />
		<tag k="water" v="lake" />
	</node>
	<node id="-193789" lat="68.2748361148" lon="14.3592250046">
		<tag k="name" v="Skjellelva" />
		<tag k="ssr:stedsnr" v="57646" />
		<tag k="waterway" v="stream" />
	</node>
	<node id="-193780" lat="68.3249388899" lon="14.5221194494">
		<tag k="name" v="Eidet" />
		<tag k="natural" v="strait" />
		<tag k="ssr:stedsnr" v="42873" />
	</node>
	<node id="-193774" lat="68.306627774" lon="14.0755555427">
		<tag k="name" v="Sineselva" />
		<tag k="ssr:stedsnr" v="39399" />
		<tag k="waterway" v="stream" />
	</node>
	<node id="-193752" lat="68.3750277778" lon="14.5557638967">
		<tag k="name" v="Spegjelneset" />
		<tag k="natural" v="cape" />
		<tag k="ssr:stedsnr" v="28145" />
	</node>
	<node id="-193750" lat="68.3531361076" lon="14.5897166602">
		<tag k="name" v="Hekkjelstjønnelva" />
		<tag k="ssr:stedsnr" v="28192" />
		<tag k="waterway" v="river" />
	</node>
	<node id="-193747" lat="68.2760083371" lon="15.018455567">
		<tag k="name" v="Storelva" />
		<tag k="ssr:stedsnr" v="25177" />
		<tag k="waterway" v="river" />
	</node>
	<node id="-193734" lat="68.2631166635" lon="14.8917722328">
		<tag k="name" v="Trollvatnet" />
		<tag k="natural" v="water" />
		<tag k="ssr:stedsnr" v="17689" />
	</node>
	<node id="-193732" lat="68.2379777778" lon="14.294683327">
		<tag k="fixme" v="multiple name tags, choose one and add the other to alt_name" />
		<tag k="name" v="Haugevatnet;Storvatnet" />
		<tag k="natural" v="water" />
		<tag k="ssr:stedsnr" v="17641" />
		<tag k="water" v="lake" />
	</node>
	<node id="-193721" lat="68.3147138878" lon="14.5580805433">
		<tag k="name" v="Rundholmen" />
		<tag k="place" v="islet" />
		<tag k="ssr:stedsnr" v="17543" />
	</node>
	<node id="-193681" lat="68.2883166677" lon="15.0460027834">
		<tag k="name" v="Pundslettvatnet" />
		<tag k="natural" v="water" />
		<tag k="ssr:stedsnr" v="17061" />
	</node>
	<node id="-193680" lat="68.3087916702" lon="14.1806000081">
		<tag k="alt_name" v="Sortvatnet, l;Lille Sortevatn" />
		<tag k="name" v="Litle Sortvatnet" />
		<tag k="natural" v="water" />
		<tag k="ssr:stedsnr" v="17017" />
	</node>
	<node id="-193679" lat="68.3071555577" lon="14.1050416693">
		<tag k="name" v="Steinvatnet" />
		<tag k="natural" v="water" />
		<tag k="ssr:stedsnr" v="17015" />
	</node>
	<node id="-193670" lat="68.392213886" lon="14.4541999935">
		<tag k="name" v="Vestertjønna" />
		<tag k="natural" v="water" />
		<tag k="ssr:stedsnr" v="969574" />
	</node>
	<node id="-193664" lat="68.322802778" lon="14.6884388871">
		<tag k="name" v="Koneselva" />
		<tag k="ssr:stedsnr" v="968858" />
		<tag k="waterway" v="stream" />
	</node>
	<node id="-194409" lat="68.3185166636" lon="15.0332916557">
		<tag k="fixme" v="multiple name tags, choose one and add the other to alt_name" />
		<tag k="name" v="Digermulvatnet;Søndre Rødsandvatn" />
		<tag k="natural" v="water" />
		<tag k="ssr:stedsnr" v="380004" />
	</node>
	<node id="-193651" lat="68.2817250024" lon="14.6083972156">
		<tag k="name" v="Fjøsforsen" />
		<tag k="natural" v="waterfall" />
		<tag k="ssr:stedsnr" v="938209" />
	</node>
	<node id="-193650" lat="68.274580551" lon="14.5876083358">
		<tag k="name" v="Øverelva" />
		<tag k="ssr:stedsnr" v="938208" />
		<tag k="waterway" v="river" />
	</node>
	<node id="-193649" lat="68.2751333367" lon="14.5967166781">
		<tag k="name" v="Nervatnet" />
		<tag k="natural" v="water" />
		<tag k="ssr:stedsnr" v="938207" />
		<tag k="water" v="lake" />
	</node>
	<node id="-193599" lat="68.2787722261" lon="14.7587944474">
		<tag k="name" v="Sæterdalen" />
		<tag k="ssr:stedsnr" v="938956" />
		<tag k="waterway" v="stream" />
	</node>
	<node id="-193581" lat="68.3537694416" lon="14.5876472201">
		<tag k="name" v="Hekkjelstjønnsmoa" />
		<tag k="natural" v="strait" />
		<tag k="ssr:stedsnr" v="938160" />
	</node>
	<node id="-193570" lat="68.2971444433" lon="15.0322527788">
		<tag k="name" v="Andosen" />
		<tag k="natural" v="bay" />
		<tag k="ssr:stedsnr" v="935894" />
	</node>
	<node id="-193556" lat="68.2527277762" lon="14.5317527742">
		<tag k="name" v="Hans Meyer-elva" />
		<tag k="ssr:stedsnr" v="932164" />
		<tag k="waterway" v="stream" />
	</node>
	<node id="-193546" lat="68.3258416657" lon="14.7918055664">
		<tag k="name" v="Litjslettelva" />
		<tag k="ssr:stedsnr" v="817053" />
		<tag k="waterway" v="stream" />
	</node>
	<node id="-193537" lat="68.3245527778" lon="15.0348416557">
		<tag k="alt_name" v="Rødsandvatnan" />
		<tag k="name" v="Rødsandvatn" />
		<tag k="natural" v="water" />
		<tag k="ssr:stedsnr" v="927954" />
	</node>
	<node id="-193523" lat="68.3006555561" lon="14.8311555588">
		<tag k="name" v="Kveitvikvatnet" />
		<tag k="natural" v="water" />
		<tag k="ssr:stedsnr" v="806504" />
	</node>
	<node id="-193519" lat="68.3344916646" lon="14.504613895">
		<tag k="name" v="Sandslettvatnet" />
		<tag k="natural" v="water" />
		<tag k="ssr:stedsnr" v="806417" />
	</node>
	<node id="-193498" lat="68.2843527785" lon="14.6279333217">
		<tag k="name" v="Hellskarelva" />
		<tag k="ssr:stedsnr" v="927606" />
		<tag k="waterway" v="stream" />
	</node>
	<node id="-192335" lat="68.282302778" lon="14.1764888912">
		<tag k="alt_name" v="Jenndalsvatnet, nedre;Nedre Gjendalsvatn" />
		<tag k="name" v="Nedre Jenndalsvatnet" />
		<tag k="natural" v="water" />
		<tag k="ssr:stedsnr" v="138237" />
		<tag k="water" v="lake" />
	</node>
	<node id="-193484" lat="68.2512027736" lon="14.8722166716">
		<tag k="name" v="Gullvikvatnet" />
		<tag k="natural" v="water" />
		<tag k="ssr:stedsnr" v="805214" />
	</node>
	<node id="-193474" lat="68.3327638879" lon="14.6355444386">
		<tag k="alt_name" v="Kvitfosselva" />
		<tag k="name" v="Kvitforselva" />
		<tag k="ssr:stedsnr" v="927433" />
		<tag k="waterway" v="stream" />
	</node>
	<node id="-193458" lat="68.2455499979" lon="14.8388361203">
		<tag k="name" v="Brettesnesvatnet" />
		<tag k="natural" v="water" />
		<tag k="ssr:stedsnr" v="927297" />
	</node>
	<node id="-193436" lat="68.2861472261" lon="15.0770888777">
		<tag k="name" v="Langosen" />
		<tag k="natural" v="bay" />
		<tag k="ssr:stedsnr" v="927097" />
	</node>
	<node id="-193429" lat="68.3113277781" lon="14.3941833213">
		<tag k="alt_name" v="Mølndalsvatnet" />
		<tag k="name" v="Mølnvatnet" />
		<tag k="natural" v="water" />
		<tag k="ssr:stedsnr" v="927029" />
	</node>
	<node id="-193426" lat="68.3168527759" lon="14.3725972298">
		<tag k="name" v="Trolldalsvatnet" />
		<tag k="natural" v="water" />
		<tag k="ssr:stedsnr" v="927002" />
	</node>
	<node id="-193418" lat="68.2734833364" lon="14.6074833391">
		<tag k="name" v="Storbukta" />
		<tag k="natural" v="bay" />
		<tag k="ssr:stedsnr" v="756208" />
	</node>
	<node id="-193414" lat="68.3290583306" lon="14.682263883">
		<tag k="name" v="Toftelva" />
		<tag k="ssr:stedsnr" v="908869" />
		<tag k="waterway" v="stream" />
	</node>
	<node id="-193402" lat="68.25592222" lon="14.3084027733">
		<tag k="name" v="Gjertruddalselva" />
		<tag k="ssr:stedsnr" v="907638" />
		<tag k="waterway" v="stream" />
	</node>
	<node id="-192319" lat="68.258036109" lon="14.2683972237">
		<tag k="name" v="Stortjønna" />
		<tag k="natural" v="water" />
		<tag k="ssr:stedsnr" v="265157" />
	</node>
	<node id="-193398" lat="68.2524166674" lon="14.5495305442">
		<tag k="name" v="Knutelva" />
		<tag k="ssr:stedsnr" v="750124" />
		<tag k="waterway" v="stream" />
	</node>
	<node id="-193397" lat="68.2539333358" lon="14.6665138948">
		<tag k="name" v="Storvatnet" />
		<tag k="natural" v="water" />
		<tag k="ssr:stedsnr" v="750111" />
	</node>
	<node id="-193395" lat="68.2340944476" lon="14.3053888853">
		<tag k="name" v="Breifjellelva" />
		<tag k="ssr:stedsnr" v="907591" />
		<tag k="waterway" v="stream" />
	</node>
	<node id="-193393" lat="68.3358305513" lon="15.1436944475">
		<tag k="name" v="Gunnarkilen" />
		<tag k="natural" v="water" />
		<tag k="ssr:stedsnr" v="745961" />
		<tag k="water" v="lake" />
	</node>
	<node id="-193386" lat="68.2728638927" lon="14.8577416623">
		<tag k="name" v="Svartvatnet" />
		<tag k="natural" v="water" />
		<tag k="ssr:stedsnr" v="745555" />
	</node>
	<node id="-193385" lat="68.2236666644" lon="14.34836111">
		<tag k="name" v="Andrevatnet" />
		<tag k="natural" v="water" />
		<tag k="ssr:stedsnr" v="745553" />
	</node>
	<node id="-193384" lat="68.3153250036" lon="14.5995111237">
		<tag k="name" v="Ternvatnan" />
		<tag k="natural" v="water" />
		<tag k="ssr:stedsnr" v="745520" />
	</node>
	<node id="-193380" lat="68.3516361147" lon="14.5958388782">
		<tag k="alt_name" v="Hekkelstjørna" />
		<tag k="name" v="Hekkjelstjønna" />
		<tag k="natural" v="water" />
		<tag k="ssr:stedsnr" v="745421" />
	</node>
	<node id="-193366" lat="68.3202694407" lon="14.113186122">
		<tag k="name" v="Gårdsvatnet" />
		<tag k="natural" v="water" />
		<tag k="ssr:stedsnr" v="745103" />
	</node>
	<node id="-195408" lat="68.324305558" lon="14.664302774">
		<tag k="name" v="Hestvågodden" />
		<tag k="natural" v="cape" />
		<tag k="ssr:stedsnr" v="968843" />
	</node>
	<node id="-195407" lat="68.3288472185" lon="14.6931611133">
		<tag k="name" v="Bekkhaugelva" />
		<tag k="ssr:stedsnr" v="968840" />
		<tag k="waterway" v="stream" />
	</node>
	<node id="-193358" lat="68.2536194433" lon="14.3854444438">
		<tag k="name" v="Finnstrandelva" />
		<tag k="ssr:stedsnr" v="744109" />
		<tag k="waterway" v="stream" />
	</node>
	<node id="-193357" lat="68.2548833357" lon="14.3559638829">
		<tag k="alt_name" v="Lomtjørna" />
		<tag k="name" v="Lomtjønna" />
		<tag k="natural" v="water" />
		<tag k="ssr:stedsnr" v="744107" />
	</node>
	<node id="-193351" lat="68.2723611148" lon="14.3593666594">
		<tag k="name" v="Storåstjønnen" />
		<tag k="natural" v="water" />
		<tag k="ssr:stedsnr" v="725635" />
		<tag k="water" v="lake" />
	</node>
	<node id="-195388" lat="68.3521805546" lon="14.5014361172">
		<tag k="name" v="Mølnelva" />
		<tag k="ssr:stedsnr" v="950899" />
		<tag k="waterway" v="stream" />
	</node>
	<node id="-193327" lat="68.3966666625" lon="14.4865138983">
		<tag k="name" v="Olatjønna" />
		<tag k="natural" v="water" />
		<tag k="ssr:stedsnr" v="890783" />
		<tag k="water" v="pond" />
	</node>
	<node id="-195372" lat="68.1979305584" lon="14.3241000078">
		<tag k="name" v="Trolldalselva" />
		<tag k="ssr:stedsnr" v="871785" />
		<tag k="waterway" v="river" />
	</node>
	<node id="-195371" lat="68.2225638881" lon="14.4980083437">
		<tag k="name" v="Åvikelva" />
		<tag k="ssr:stedsnr" v="871147" />
		<tag k="waterway" v="stream" />
	</node>
	<node id="-193320" lat="68.3408055585" lon="14.1313750006">
		<tag k="name" v="Alkoelva" />
		<tag k="ssr:stedsnr" v="889419" />
		<tag k="waterway" v="stream" />
	</node>
	<node id="-195365" lat="68.3386083335" lon="15.1826277831">
		<tag k="name" v="Storfjellvatnet" />
		<tag k="natural" v="water" />
		<tag k="ssr:stedsnr" v="867955" />
	</node>
	<node id="-195359" lat="68.2517138914" lon="14.5621027757">
		<tag k="name" v="Grønnåsvatnet" />
		<tag k="natural" v="water" />
		<tag k="ssr:stedsnr" v="867681" />
	</node>
	<node id="-195358" lat="68.2462416676" lon="14.4374722331">
		<tag k="alt_name" v="Nøkkvatnet, vestre;Vestre Nøkkvatn" />
		<tag k="name" v="Vestre Nøkkvatnet" />
		<tag k="natural" v="water" />
		<tag k="ssr:stedsnr" v="867680" />
	</node>
	<node id="-195357" lat="68.2566277762" lon="14.470194437">
		<tag k="name" v="Stornøkkvatnet" />
		<tag k="natural" v="water" />
		<tag k="ssr:stedsnr" v="867679" />
		<tag k="water" v="lake" />
	</node>
	<node id="-192303" lat="68.2590527765" lon="14.5381861177">
		<tag k="name" v="Myggbukta" />
		<tag k="natural" v="bay" />
		<tag k="ssr:stedsnr" v="264167" />
	</node>
	<node id="-193299" lat="68.3135388903" lon="14.5680694513">
		<tag k="alt_name" v="Storvassbotnen" />
		<tag k="name" v="Storvassbotn" />
		<tag k="natural" v="bay" />
		<tag k="ssr:stedsnr" v="684545" />
	</node>
	<node id="-195322" lat="68.3030916669" lon="15.1024777672">
		<tag k="alt_name" v="Vågen" />
		<tag k="name" v="Holandsvågen" />
		<tag k="natural" v="bay" />
		<tag k="ssr:stedsnr" v="867077" />
	</node>
	<node id="-195321" lat="68.3175527803" lon="14.6390333356">
		<tag k="name" v="Lakselva" />
		<tag k="ssr:stedsnr" v="867069" />
		<tag k="waterway" v="river" />
	</node>
	<node id="-195320" lat="68.2930694438" lon="14.239919445">
		<tag k="name" v="Barstrandvatnet" />
		<tag k="natural" v="water" />
		<tag k="ssr:stedsnr" v="867054" />
	</node>
	<node id="-195318" lat="68.305513893" lon="14.227044457">
		<tag k="fixme" v="multiple name tags, choose one and add the other to alt_name" />
		<tag k="name" v="Sandsdalsvatnet;Stengelvatnet" />
		<tag k="natural" v="water" />
		<tag k="ssr:stedsnr" v="867021" />
	</node>
	<node id="-193263" lat="68.3138527795" lon="14.4661638905">
		<tag k="name" v="Blålyngelva" />
		<tag k="ssr:stedsnr" v="664724" />
		<tag k="waterway" v="stream" />
	</node>
	<node id="-193260" lat="68.3907888897" lon="14.5057750033">
		<tag k="name" v="Sevtjønna" />
		<tag k="natural" v="water" />
		<tag k="ssr:stedsnr" v="877440" />
	</node>
	<node id="-195302" lat="68.2918444426" lon="15.011216675">
		<tag k="fixme" v="multiple name tags, choose one and add the other to alt_name" />
		<tag k="name" v="Lilleårsteinvatnet;Årsteinvatnet" />
		<tag k="natural" v="water" />
		<tag k="ssr:stedsnr" v="866573" />
	</node>
	<node id="-193253" lat="68.3395666672" lon="14.7922666741">
		<tag k="name" v="Kvanndalsvatnet" />
		<tag k="natural" v="water" />
		<tag k="ssr:stedsnr" v="877280" />
		<tag k="water" v="lake" />
	</node>
	<node id="-195294" lat="68.3126027772" lon="14.7478388875">
		<tag k="name" v="Saltvatnet" />
		<tag k="natural" v="water" />
		<tag k="ssr:stedsnr" v="866481" />
	</node>
	<node id="-195284" lat="68.3498027806" lon="14.7008694525">
		<tag k="name" v="Hamnelva" />
		<tag k="ssr:stedsnr" v="866380" />
		<tag k="waterway" v="stream" />
	</node>
	<node id="-195282" lat="68.3478444428" lon="14.7669833281">
		<tag k="alt_name" v="Skjennelva" />
		<tag k="name" v="Skinelva" />
		<tag k="ssr:stedsnr" v="866351" />
		<tag k="waterway" v="stream" />
	</node>
	<node id="-193232" lat="68.3160000004" lon="14.6102472144">
		<tag k="name" v="Tennvatnet" />
		<tag k="natural" v="water" />
		<tag k="ssr:stedsnr" v="646916" />
		<tag k="water" v="lake" />
	</node>
	<node id="-193227" lat="68.316205554" lon="14.5588527674">
		<tag k="name" v="Nilsjordneset" />
		<tag k="natural" v="cape" />
		<tag k="ssr:stedsnr" v="646907" />
	</node>
	<node id="-195270" lat="68.264011111" lon="14.3933583399">
		<tag k="name" v="Botnelva" />
		<tag k="ssr:stedsnr" v="867161" />
		<tag k="waterway" v="stream" />
	</node>
	<node id="-193220" lat="68.354466669" lon="14.5867888856">
		<tag k="name" v="Rødsanden" />
		<tag k="natural" v="water" />
		<tag k="ssr:stedsnr" v="634166" />
		<tag k="water" v="lake" />
	</node>
	<node id="-193219" lat="68.3549638928" lon="14.5699861124">
		<tag k="name" v="Innerelva" />
		<tag k="ssr:stedsnr" v="634161" />
		<tag k="waterway" v="stream" />
	</node>
	<node id="-195263" lat="68.3178666702" lon="14.1288027683">
		<tag k="alt_name" v="Vetthaugvatnet" />
		<tag k="name" v="Vethaugvatnet" />
		<tag k="natural" v="water" />
		<tag k="ssr:stedsnr" v="866080" />
	</node>
	<node id="-195259" lat="68.3062916669" lon="15.062808335">
		<tag k="name" v="Rømbunken" />
		<tag k="natural" v="bay" />
		<tag k="ssr:stedsnr" v="866037" />
	</node>
	<node id="-193208" lat="68.2408333314" lon="14.5265777834">
		<tag k="name" v="Spissen" />
		<tag k="natural" v="cape" />
		<tag k="ssr:stedsnr" v="628810" />
	</node>
	<node id="-195252" lat="68.3337472263" lon="14.7668055575">
		<tag k="name" v="Grøttingselva" />
		<tag k="ssr:stedsnr" v="848851" />
		<tag k="waterway" v="stream" />
	</node>
	<node id="-193201" lat="68.3250972236" lon="14.6564305473">
		<tag k="name" v="Lønesan" />
		<tag k="natural" v="cape" />
		<tag k="ssr:stedsnr" v="726848" />
	</node>
	<node id="-193196" lat="68.3090277792" lon="14.1579944401">
		<tag k="name" v="Kretjønna" />
		<tag k="natural" v="water" />
		<tag k="ssr:stedsnr" v="726319" />
	</node>
	<node id="-193189" lat="68.2618444481" lon="14.3866638915">
		<tag k="name" v="Finnstrandtjønna" />
		<tag k="natural" v="water" />
		<tag k="ssr:stedsnr" v="725659" />
	</node>
	<node id="-193187" lat="68.332891662" lon="14.8066666757">
		<tag k="name" v="Krokelva" />
		<tag k="ssr:stedsnr" v="623433" />
		<tag k="waterway" v="stream" />
	</node>
	<node id="-193183" lat="68.322644447" lon="14.6625083234">
		<tag k="alt_name" v="Vestpolltjørna" />
		<tag k="name" v="Vestpolltjønna" />
		<tag k="natural" v="water" />
		<tag k="ssr:stedsnr" v="623414" />
		<tag k="water" v="lake" />
	</node>
	<node id="-193182" lat="68.354369442" lon="14.7007861118">
		<tag k="name" v="Bergelva" />
		<tag k="ssr:stedsnr" v="623409" />
		<tag k="waterway" v="stream" />
	</node>
	<node id="-193177" lat="68.2211416627" lon="14.4355277797">
		<tag k="name" v="Karlsvatnet" />
		<tag k="natural" v="water" />
		<tag k="ssr:stedsnr" v="623303" />
	</node>
	<node id="-193171" lat="68.3181611105" lon="15.0728361109">
		<tag k="name" v="Vatnvågsvatnan" />
		<tag k="natural" v="water" />
		<tag k="ssr:stedsnr" v="604411" />
		<tag k="water" v="lake" />
	</node>
	<node id="-193167" lat="68.2733888896" lon="14.3161527856">
		<tag k="name" v="Dalelva" />
		<tag k="ssr:stedsnr" v="603635" />
		<tag k="waterway" v="stream" />
	</node>
	<node id="-195211" lat="68.2912388863" lon="14.2535249936">
		<tag k="name" v="Barstrandelva" />
		<tag k="ssr:stedsnr" v="831313" />
		<tag k="waterway" v="stream" />
	</node>
	<node id="-195208" lat="68.3184722178" lon="14.5614027868">
		<tag k="name" v="Nilsjordelva" />
		<tag k="ssr:stedsnr" v="829926" />
		<tag k="waterway" v="stream" />
	</node>
	<node id="-193159" lat="68.3130277736" lon="14.5897111179">
		<tag k="name" v="Yttervatnet" />
		<tag k="natural" v="water" />
		<tag k="ssr:stedsnr" v="585918" />
	</node>
	<node id="-193156" lat="68.3458694433" lon="14.5032500091">
		<tag k="name" v="Breineselva" />
		<tag k="ssr:stedsnr" v="585907" />
		<tag k="waterway" v="stream" />
	</node>
	<node id="-193155" lat="68.322280559" lon="14.5121333248">
		<tag k="name" v="Storelva" />
		<tag k="ssr:stedsnr" v="709889" />
		<tag k="waterway" v="river" />
	</node>
	<node id="-193153" lat="68.3120305567" lon="14.5542277669">
		<tag k="name" v="Finnrødet" />
		<tag k="natural" v="cape" />
		<tag k="ssr:stedsnr" v="707930" />
	</node>
	<node id="-195184" lat="68.169469447" lon="14.6620916781">
		<tag k="name" v="Randebekken" />
		<tag k="ssr:stedsnr" v="817165" />
		<tag k="waterway" v="stream" />
	</node>
	<node id="-195177" lat="68.3255166638" lon="15.0731972187">
		<tag k="name" v="Storelva" />
		<tag k="ssr:stedsnr" v="814194" />
		<tag k="waterway" v="stream" />
	</node>
	<node id="-195165" lat="68.2366861092" lon="14.4888166582">
		<tag k="name" v="Dammen" />
		<tag k="ssr:stedsnr" v="810856" />
		<tag k="waterway" v="dam" />
	</node>
	<node id="-193115" lat="68.3325861111" lon="14.5438999909">
		<tag k="name" v="Simonodden" />
		<tag k="natural" v="cape" />
		<tag k="ssr:stedsnr" v="562425" />
	</node>
	<node id="-193114" lat="68.3337805591" lon="14.5509388953">
		<tag k="name" v="Mørkdalsvatnet" />
		<tag k="natural" v="water" />
		<tag k="ssr:stedsnr" v="562423" />
		<tag k="water" v="lake" />
	</node>
	<node id="-195160" lat="68.2201083324" lon="14.336997219">
		<tag k="name" v="Soterelva" />
		<tag k="ssr:stedsnr" v="810829" />
		<tag k="waterway" v="stream" />
	</node>
	<node id="-193107" lat="68.2359472256" lon="14.4726472347">
		<tag k="name" v="Stor-Kongsvatnet" />
		<tag k="natural" v="water" />
		<tag k="ssr:stedsnr" v="562229" />
		<tag k="water" v="lake" />
	</node>
	<node id="-195153" lat="68.2661888911" lon="14.9028111211">
		<tag k="name" v="Fremnesvikvatnet" />
		<tag k="natural" v="water" />
		<tag k="ssr:stedsnr" v="806671" />
	</node>
	<node id="-193103" lat="68.3139833315" lon="15.0679527765">
		<tag k="alt_name" v="Vatnvågvatnet, nedre" />
		<tag k="fixme" v="multiple name tags, choose one and add the other to alt_name" />
		<tag k="name" v="Nervatnet;Nedre Vatnvågvatnet" />
>>>>>>> e1d4bc35ff8a6074a6f2e91616a996b547c36f15
		<tag k="natural" v="water" />
		<tag k="ssr:stedsnr" v="562008" />
	</node>
<<<<<<< HEAD
	<node lat="68.26516944895351" lon="14.636302774786786" id="-19399">
		<tag k="name" v="Smørelva" />
		<tag k="ssr:stedsnr" v="381586" />
		<tag k="waterway" v="stream" />
	</node>
	<node lat="68.28951944707633" lon="14.440375007595883" id="-19401">
		<tag k="name" v="Kroktindvatnet" />
		<tag k="natural" v="water" />
		<tag k="ssr:stedsnr" v="381615" />
	</node>
	<node lat="68.29297777670371" lon="14.584238880210053" id="-19402">
		<tag k="name" v="Hellskarvatnet" />
		<tag k="natural" v="water" />
		<tag k="ssr:stedsnr" v="381616" />
	</node>
	<node lat="68.24702778135975" lon="14.550450000354832" id="-19407">
		<tag k="name" v="Sommartjønna" />
=======
	<node id="-193102" lat="68.3200861072" lon="15.0575305441">
		<tag k="name" v="Varglivatnet" />
		<tag k="natural" v="water" />
		<tag k="ssr:stedsnr" v="562006" />
	</node>
	<node id="-193097" lat="68.3615972216" lon="14.7007388901">
		<tag k="name" v="Nattmålselva" />
		<tag k="ssr:stedsnr" v="750762" />
		<tag k="waterway" v="river" />
	</node>
	<node id="-195143" lat="68.261119447" lon="14.5746499999">
		<tag k="fixme" v="multiple name tags, choose one and add the other to alt_name" />
		<tag k="name" v="Blåtindvatnet;Tuvvatnet" />
>>>>>>> e1d4bc35ff8a6074a6f2e91616a996b547c36f15
		<tag k="natural" v="water" />
		<tag k="ssr:stedsnr" v="806570" />
	</node>
<<<<<<< HEAD
	<node lat="68.22001666360394" lon="14.408505551214635" id="-19412">
		<tag k="name" v="Albertelva" />
		<tag k="ssr:stedsnr" v="385841" />
		<tag k="waterway" v="stream" />
	</node>
	<node lat="68.36734444323855" lon="14.479347230714415" id="-19420">
		<tag k="name" v="Brennvinsbekken" />
		<tag k="ssr:stedsnr" v="392024" />
		<tag k="waterway" v="stream" />
	</node>
	<node lat="68.31178333301371" lon="14.707413887792926" id="-19438">
		<tag k="name" v="Småskjærelva" />
		<tag k="ssr:stedsnr" v="392458" />
		<tag k="waterway" v="stream" />
	</node>
	<node lat="68.14338888932993" lon="14.200447221009238" id="-19445">
		<tag k="name" v="Litj-Kvannholmen" />
		<tag k="place" v="islet" />
		<tag k="ssr:stedsnr" v="392770" />
	</node>
	<node lat="68.39766667140864" lon="14.491041655826697" id="-19451">
		<tag k="name" v="Haraldtjønna" />
		<tag k="natural" v="water" />
		<tag k="ssr:stedsnr" v="404739" />
		<tag k="water" v="pond" />
	</node>
	<node lat="68.31319444406509" lon="14.559833323830887" id="-19455">
		<tag k="name" v="Gjerdeholmen" />
		<tag k="natural" v="cape" />
		<tag k="ssr:stedsnr" v="404928" />
	</node>
	<node lat="68.33525833482096" lon="14.573775012290847" id="-19456">
		<tag k="name" v="Heimerelva" />
		<tag k="ssr:stedsnr" v="404964" />
		<tag k="waterway" v="stream" />
	</node>
	<node lat="68.32015555971411" lon="14.202944443640561" id="-19497">
		<tag k="name" v="Kleivaelva" />
		<tag k="ssr:stedsnr" v="441119" />
		<tag k="waterway" v="stream" />
	</node>
	<node lat="68.27963611185614" lon="14.207774998912939" id="-19518">
		<tag k="alt_name" v="Jenndalsvatnet, øvre;Øvre Gjendalsvatn" />
		<tag k="name" v="Øvre Jenndalsvatnet" />
		<tag k="natural" v="water" />
		<tag k="ssr:stedsnr" v="442253" />
		<tag k="water" v="lake" />
	</node>
	<node lat="68.37538611345612" lon="14.470288882415728" id="-19526">
		<tag k="name" v="Akselvatnet" />
		<tag k="natural" v="water" />
		<tag k="ssr:stedsnr" v="442454" />
	</node>
	<node lat="68.3579277798156" lon="14.749041665128464" id="-19527">
		<tag k="name" v="Eidevatnet" />
		<tag k="natural" v="water" />
		<tag k="ssr:stedsnr" v="442479" />
	</node>
	<node lat="68.34990000039355" lon="15.220097218272082" id="-19572">
		<tag k="name" v="Tortenbakkelva" />
		<tag k="ssr:stedsnr" v="502900" />
		<tag k="waterway" v="stream" />
	</node>
	<node lat="68.37533333533918" lon="14.45067500334423" id="-19594">
		<tag k="name" v="Svartvatnet" />
		<tag k="natural" v="water" />
		<tag k="ssr:stedsnr" v="502454" />
	</node>
	<node lat="68.30462500225649" lon="14.557302784286017" id="-19598">
		<tag k="name" v="Reinslettvatnet" />
		<tag k="natural" v="water" />
		<tag k="ssr:stedsnr" v="502548" />
	</node>
	<node lat="68.28466666448277" lon="14.74921665577984" id="-19603">
		<tag k="name" v="Sætervatnet" />
		<tag k="natural" v="water" />
		<tag k="ssr:stedsnr" v="502618" />
	</node>
	<node lat="68.25586389096607" lon="14.540666679199411" id="-19607">
		<tag k="name" v="Straumen" />
		<tag k="ssr:stedsnr" v="503042" />
		<tag k="waterway" v="rapids" />
	</node>
	<node lat="68.22159999728777" lon="14.4090722106678" id="-19613">
		<tag k="name" v="Ner-Albertvatnet" />
		<tag k="natural" v="water" />
		<tag k="ssr:stedsnr" v="507839" />
	</node>
	<node lat="68.2617527818186" lon="14.542622228384971" id="-19616">
		<tag k="name" v="Kaninholmen" />
		<tag k="place" v="islet" />
		<tag k="ssr:stedsnr" v="507145" />
	</node>
	<node lat="68.27316944417302" lon="14.570241674913438" id="-19628">
		<tag k="name" v="Øvervatnet" />
		<tag k="natural" v="water" />
		<tag k="ssr:stedsnr" v="513238" />
		<tag k="water" v="lake" />
	</node>
	<node lat="68.39465555327854" lon="14.50438612220379" id="-19632">
		<tag k="name" v="Nordbekken" />
		<tag k="ssr:stedsnr" v="513479" />
		<tag k="waterway" v="stream" />
	</node>
	<node lat="68.33978889068474" lon="14.093536103269898" id="-19638">
		<tag k="name" v="Smetvatnet" />
		<tag k="natural" v="water" />
		<tag k="ssr:stedsnr" v="525454" />
	</node>
	<node lat="68.33379166667393" lon="14.575866669215236" id="-19643">
		<tag k="name" v="Annerelva" />
		<tag k="ssr:stedsnr" v="525947" />
		<tag k="waterway" v="stream" />
	</node>
	<node lat="68.35619444373413" lon="14.485411107570483" id="-19646">
		<tag k="name" v="Jordodden" />
		<tag k="natural" v="cape" />
		<tag k="ssr:stedsnr" v="525901" />
	</node>
	<node lat="68.29509444413745" lon="14.879700004762032" id="-19665">
		<tag k="name" v="Storelva" />
		<tag k="ssr:stedsnr" v="544243" />
		<tag k="waterway" v="stream" />
	</node>
	<node lat="68.320086107183" lon="15.057530544105713" id="-19674">
		<tag k="name" v="Varglivatnet" />
		<tag k="natural" v="water" />
		<tag k="ssr:stedsnr" v="562006" />
	</node>
	<node lat="68.3139833314609" lon="15.067952776522102" id="-19675">
		<tag k="alt_name" v="Vatnvågvatnet, nedre" />
		<tag k="fixme" v="multiple name tags, choose one and add the other to alt_name" />
		<tag k="name" v="Nervatnet;Nedre Vatnvågvatnet" />
		<tag k="natural" v="water" />
		<tag k="ssr:stedsnr" v="562008" />
	</node>
	<node lat="68.32781388431431" lon="14.13405278261667" id="-19691">
		<tag k="name" v="Stengvatnet" />
		<tag k="natural" v="water" />
		<tag k="ssr:stedsnr" v="562073" />
	</node>
	<node lat="68.2359472255891" lon="14.472647234684157" id="-19700">
		<tag k="name" v="Stor-Kongsvatnet" />
		<tag k="natural" v="water" />
		<tag k="ssr:stedsnr" v="562229" />
		<tag k="water" v="lake" />
	</node>
	<node lat="68.33378055907242" lon="14.550938895328079" id="-19710">
		<tag k="name" v="Mørkdalsvatnet" />
		<tag k="natural" v="water" />
		<tag k="ssr:stedsnr" v="562423" />
		<tag k="water" v="lake" />
	</node>
	<node lat="68.24014722369198" lon="14.432680550117682" id="-19715">
		<tag k="name" v="Damvatnet" />
		<tag k="natural" v="water" />
		<tag k="ssr:stedsnr" v="562338" />
	</node>
	<node lat="68.34112778232766" lon="14.689424991433157" id="-19719">
		<tag k="name" v="Ivarelva" />
		<tag k="ssr:stedsnr" v="562372" />
		<tag k="waterway" v="stream" />
	</node>
	<node lat="68.33258611109659" lon="14.543899990899572" id="-19720">
		<tag k="name" v="Simonodden" />
		<tag k="natural" v="cape" />
		<tag k="ssr:stedsnr" v="562425" />
	</node>
	<node lat="68.37321666922541" lon="14.511769437203458" id="-19722">
		<tag k="name" v="Mølndalsvatnan" />
		<tag k="natural" v="water" />
		<tag k="ssr:stedsnr" v="562442" />
		<tag k="water" v="lake" />
	</node>
	<node lat="68.37654722074548" lon="14.466199994700569" id="-19723">
		<tag k="name" v="Rømyrtjønna" />
		<tag k="natural" v="water" />
		<tag k="ssr:stedsnr" v="562446" />
	</node>
	<node lat="68.22433055856067" lon="14.398322213293383" id="-19781">
		<tag k="name" v="Øver-Albertvatnet" />
		<tag k="natural" v="water" />
		<tag k="ssr:stedsnr" v="567831" />
	</node>
	<node lat="68.24095833026834" lon="14.518583325511113" id="-19782">
		<tag k="name" v="Sommarfjøsbukta" />
		<tag k="natural" v="bay" />
		<tag k="ssr:stedsnr" v="567844" />
	</node>
	<node lat="68.3607694461283" lon="14.713847215821378" id="-19786">
		<tag k="name" v="Morfjordelva" />
		<tag k="ssr:stedsnr" v="567801" />
		<tag k="waterway" v="river" />
	</node>
	<node lat="68.35293055697237" lon="14.603672216879156" id="-19803">
		<tag k="name" v="Kvitforsen" />
		<tag k="natural" v="waterfall" />
		<tag k="ssr:stedsnr" v="573179" />
	</node>
	<node lat="68.37834167042139" lon="14.555094445963876" id="-19805">
		<tag k="name" v="Teinelva" />
		<tag k="natural" v="bay" />
		<tag k="ssr:stedsnr" v="573190" />
	</node>
	<node lat="68.29350833417412" lon="14.737983327709479" id="-19806">
		<tag k="name" v="Fleskvikelva" />
		<tag k="ssr:stedsnr" v="573368" />
		<tag k="waterway" v="river" />
	</node>
	<node lat="68.29397222518921" lon="14.690388895208574" id="-19808">
		<tag k="name" v="Torvhaugvatnet" />
		<tag k="natural" v="water" />
		<tag k="ssr:stedsnr" v="573384" />
	</node>
	<node lat="68.31302777355457" lon="14.58971111790529" id="-19817">
		<tag k="name" v="Yttervatnet" />
		<tag k="natural" v="water" />
		<tag k="ssr:stedsnr" v="585918" />
	</node>
	<node lat="68.27338888957054" lon="14.316152785606873" id="-19824">
		<tag k="name" v="Dalelva" />
		<tag k="ssr:stedsnr" v="603635" />
		<tag k="waterway" v="stream" />
	</node>
	<node lat="68.2892277815289" lon="14.264758336516554" id="-19830">
		<tag k="name" v="Lilleelva" />
		<tag k="ssr:stedsnr" v="604319" />
		<tag k="waterway" v="stream" />
	</node>
	<node lat="68.30975555819948" lon="14.124844449441795" id="-19834">
		<tag k="name" v="Rødvatnet" />
		<tag k="natural" v="water" />
		<tag k="ssr:stedsnr" v="623021" />
	</node>
	<node lat="68.34406110720542" lon="14.652774996231843" id="-19876">
		<tag k="name" v="Kvitforsvatnan" />
		<tag k="natural" v="water" />
		<tag k="ssr:stedsnr" v="623394" />
		<tag k="water" v="lake" />
	</node>
	<node lat="68.33289166201638" lon="14.806666675726865" id="-19878">
		<tag k="name" v="Krokelva" />
		<tag k="ssr:stedsnr" v="623433" />
		<tag k="waterway" v="stream" />
	</node>
	<node lat="68.30338055567452" lon="14.701188896797326" id="-19884">
=======
	<node id="-195142" lat="68.227177781" lon="14.2615805551">
		<tag k="alt_name" v="Farsdalsvatnet" />
		<tag k="name" v="Forsdalsvatnet" />
		<tag k="natural" v="water" />
		<tag k="ssr:stedsnr" v="806558" />
	</node>
	<node id="-195138" lat="68.3713166687" lon="14.5547194532">
		<tag k="name" v="Heimervatnet" />
		<tag k="natural" v="water" />
		<tag k="ssr:stedsnr" v="806486" />
		<tag k="water" v="lake" />
	</node>
	<node id="-193081" lat="68.2386805566" lon="14.4364416664">
		<tag k="name" v="Damelva" />
		<tag k="ssr:stedsnr" v="692064" />
		<tag k="waterway" v="stream" />
	</node>
	<node id="-193079" lat="68.2528361125" lon="14.6187583251">
		<tag k="name" v="Steinurdalelva" />
		<tag k="ssr:stedsnr" v="690176" />
		<tag k="waterway" v="stream" />
	</node>
	<node id="-193072" lat="68.2354805509" lon="14.5113166753">
		<tag k="name" v="Øya" />
		<tag k="place" v="islet" />
		<tag k="ssr:stedsnr" v="689810" />
	</node>
	<node id="-193069" lat="68.2352166707" lon="14.2438000008">
		<tag k="name" v="Kringelelva" />
		<tag k="ssr:stedsnr" v="530021" />
		<tag k="waterway" v="stream" />
	</node>
	<node id="-193065" lat="68.2463138928" lon="14.5343583277">
		<tag k="name" v="Svarthola" />
		<tag k="natural" v="bay" />
		<tag k="ssr:stedsnr" v="689178" />
	</node>
	<node id="-193057" lat="68.3150388856" lon="14.4896861084">
		<tag k="name" v="Krokelva" />
		<tag k="ssr:stedsnr" v="685054" />
		<tag k="waterway" v="stream" />
	</node>
	<node id="-193055" lat="68.3430666652" lon="15.1251027806">
		<tag k="name" v="Trollvatnet" />
		<tag k="natural" v="water" />
		<tag k="ssr:stedsnr" v="684977" />
	</node>
	<node id="-193044" lat="68.2985416692" lon="15.0342055616">
		<tag k="name" v="Valrenna" />
		<tag k="natural" v="bay" />
		<tag k="ssr:stedsnr" v="510908" />
	</node>
	<node id="-194307" lat="68.2960250007" lon="14.9229722111">
		<tag k="name" v="Molgavlelva" />
		<tag k="ssr:stedsnr" v="320499" />
		<tag k="waterway" v="stream" />
	</node>
	<node id="-193034" lat="68.2629527797" lon="14.4944111197">
		<tag k="alt_name" v="Nøkkvatnet, austre" />
		<tag k="name" v="Austre Nøkkvatnet" />
		<tag k="natural" v="water" />
		<tag k="ssr:stedsnr" v="684574" />
	</node>
	<node id="-193033" lat="68.2628166642" lon="14.5463138836">
		<tag k="name" v="Øvre Svolværvatnet" />
		<tag k="natural" v="water" />
		<tag k="ssr:stedsnr" v="684573" />
		<tag k="water" v="lake" />
	</node>
	<node id="-195077" lat="68.3230388851" lon="14.3456916585">
		<tag k="name" v="Åneset" />
		<tag k="natural" v="cape" />
		<tag k="ssr:stedsnr" v="785699" />
	</node>
	<node id="-193004" lat="68.2073333365" lon="14.2644638905">
		<tag k="name" v="Rørvikvatnet" />
		<tag k="natural" v="water" />
		<tag k="ssr:stedsnr" v="684438" />
		<tag k="water" v="lake" />
	</node>
	<node id="-195041" lat="68.3927166643" lon="14.4857888955">
		<tag k="name" v="Naustvikbekken" />
		<tag k="ssr:stedsnr" v="756449" />
		<tag k="waterway" v="stream" />
	</node>
	<node id="-195037" lat="68.3208250023" lon="14.7050944421">
		<tag k="name" v="Sildpolltjønna" />
		<tag k="natural" v="water" />
		<tag k="ssr:stedsnr" v="756425" />
	</node>
	<node id="-194980" lat="68.33625278" lon="14.5839277734">
		<tag k="alt_name" v="Øverdalsvatnet" />
		<tag k="name" v="Øvredalsvatnet" />
		<tag k="natural" v="water" />
		<tag k="ssr:stedsnr" v="745437" />
	</node>
	<node id="-195007" lat="68.2847749989" lon="14.9356500117">
		<tag k="name" v="Ulvågvatnet" />
		<tag k="natural" v="water" />
		<tag k="ssr:stedsnr" v="753648" />
		<tag k="water" v="lake" />
	</node>
	<node id="-192945" lat="68.3254583313" lon="14.1555444376">
		<tag k="name" v="Saupstadkanalen" />
		<tag k="ssr:stedsnr" v="483352" />
		<tag k="waterway" v="stream" />
	</node>
	<node id="-194988" lat="68.2792305593" lon="14.5387944368">
		<tag k="name" v="Svartvatnet" />
		<tag k="natural" v="water" />
		<tag k="ssr:stedsnr" v="745620" />
		<tag k="water" v="lake" />
	</node>
	<node id="-192936" lat="68.3102361098" lon="14.1484194481">
		<tag k="name" v="Steinvatnet" />
		<tag k="natural" v="water" />
		<tag k="ssr:stedsnr" v="464459" />
	</node>
	<node id="-192932" lat="68.3285138877" lon="14.6468444479">
		<tag k="name" v="Tverrelva" />
		<tag k="ssr:stedsnr" v="665862" />
		<tag k="waterway" v="stream" />
	</node>
	<node id="-192928" lat="68.2422416709" lon="14.3278416731">
		<tag k="name" v="Jordelva" />
		<tag k="ssr:stedsnr" v="664614" />
		<tag k="waterway" v="stream" />
	</node>
	<node id="-192922" lat="68.3336361097" lon="14.8077777691">
		<tag k="name" v="Krokan" />
		<tag k="ssr:stedsnr" v="453232" />
		<tag k="waterway" v="stream" />
	</node>
	<node id="-192917" lat="68.3565833286" lon="14.5857250109">
		<tag k="name" v="Hertvikskreda" />
		<tag k="natural" v="cape" />
		<tag k="ssr:stedsnr" v="453205" />
	</node>
	<node id="-192900" lat="68.2213166691" lon="14.3256277722">
		<tag k="name" v="Skreddalselva" />
		<tag k="ssr:stedsnr" v="446806" />
		<tag k="waterway" v="stream" />
	</node>
	<node id="-194940" lat="68.3208499959" lon="14.3477694509">
		<tag k="alt_name" v="Nervatnet" />
		<tag k="name" v="Nedrevatnet" />
		<tag k="natural" v="water" />
		<tag k="ssr:stedsnr" v="745001" />
	</node>
	<node id="-194936" lat="68.3047611144" lon="14.254730557">
		<tag k="name" v="Ytterrantjønna" />
		<tag k="natural" v="water" />
		<tag k="ssr:stedsnr" v="648359" />
	</node>
	<node id="-192886" lat="68.3946555533" lon="14.5043861222">
		<tag k="name" v="Nordbekken" />
		<tag k="ssr:stedsnr" v="513479" />
		<tag k="waterway" v="stream" />
	</node>
	<node id="-194932" lat="68.3328972266" lon="14.5664888918">
		<tag k="name" v="Mellomvasselva" />
		<tag k="ssr:stedsnr" v="646948" />
		<tag k="waterway" v="stream" />
	</node>
	<node id="-192883" lat="68.2731694442" lon="14.5702416749">
		<tag k="name" v="Øvervatnet" />
		<tag k="natural" v="water" />
		<tag k="ssr:stedsnr" v="513238" />
		<tag k="water" v="lake" />
	</node>
	<node id="-194922" lat="68.3872972235" lon="14.4826638983">
		<tag k="name" v="Røelva" />
		<tag k="ssr:stedsnr" v="634475" />
		<tag k="waterway" v="stream" />
	</node>
	<node id="-194918" lat="68.2979361078" lon="14.6944000111">
		<tag k="name" v="Litjelva" />
		<tag k="ssr:stedsnr" v="634433" />
		<tag k="waterway" v="stream" />
	</node>
	<node id="-192868" lat="68.3025833364" lon="14.9342611145">
		<tag k="name" v="Pollvatnet" />
		<tag k="natural" v="water" />
		<tag k="ssr:stedsnr" v="510721" />
		<tag k="water" v="lake" />
	</node>
	<node id="-192864" lat="68.3352583348" lon="14.5737750123">
		<tag k="name" v="Heimerelva" />
		<tag k="ssr:stedsnr" v="404964" />
		<tag k="waterway" v="stream" />
	</node>
	<node id="-192863" lat="68.3131944441" lon="14.5598333238">
		<tag k="name" v="Gjerdeholmen" />
		<tag k="natural" v="cape" />
		<tag k="ssr:stedsnr" v="404928" />
	</node>
	<node id="-192857" lat="68.2215999973" lon="14.4090722107">
		<tag k="name" v="Ner-Albertvatnet" />
		<tag k="natural" v="water" />
		<tag k="ssr:stedsnr" v="507839" />
	</node>
	<node id="-194904" lat="68.2545333313" lon="14.2973749984">
		<tag k="name" v="Rundholmen" />
		<tag k="place" v="islet" />
		<tag k="ssr:stedsnr" v="629143" />
	</node>
	<node id="-192854" lat="68.2125194449" lon="14.3004638781">
		<tag k="name" v="Loftelva" />
		<tag k="ssr:stedsnr" v="507816" />
		<tag k="waterway" v="river" />
	</node>
	<node id="-192850" lat="68.3542055512" lon="14.7671666734">
		<tag k="name" v="Sandbekken" />
		<tag k="ssr:stedsnr" v="507803" />
		<tag k="waterway" v="stream" />
	</node>
	<node id="-192844" lat="68.2617527818" lon="14.5426222284">
		<tag k="name" v="Kaninholmen" />
		<tag k="place" v="islet" />
		<tag k="ssr:stedsnr" v="507145" />
	</node>
	<node id="-192839" lat="68.311783333" lon="14.7074138878">
		<tag k="name" v="Småskjærelva" />
		<tag k="ssr:stedsnr" v="392458" />
		<tag k="waterway" v="stream" />
	</node>
	<node id="-192831" lat="68.3673444432" lon="14.4793472307">
		<tag k="name" v="Brennvinsbekken" />
		<tag k="ssr:stedsnr" v="392024" />
		<tag k="waterway" v="stream" />
	</node>
	<node id="-194870" lat="68.3033805557" lon="14.7011888968">
>>>>>>> e1d4bc35ff8a6074a6f2e91616a996b547c36f15
		<tag k="name" v="Stordalsvatnet" />
		<tag k="natural" v="water" />
		<tag k="ssr:stedsnr" v="623550" />
	</node>
<<<<<<< HEAD
	<node lat="68.3549638927755" lon="14.56998611238523" id="-19918">
		<tag k="name" v="Innerelva" />
		<tag k="ssr:stedsnr" v="634161" />
		<tag k="waterway" v="stream" />
	</node>
	<node lat="68.35446666899685" lon="14.58678888557781" id="-19919">
		<tag k="name" v="Rødsanden" />
		<tag k="natural" v="water" />
		<tag k="ssr:stedsnr" v="634166" />
		<tag k="water" v="lake" />
	</node>
	<node lat="68.38729722350239" lon="14.482663898289925" id="-19923">
		<tag k="name" v="Røelva" />
		<tag k="ssr:stedsnr" v="634475" />
		<tag k="waterway" v="stream" />
	</node>
	<node lat="68.33289722660945" lon="14.566488891771126" id="-19935">
		<tag k="name" v="Mellomvasselva" />
		<tag k="ssr:stedsnr" v="646948" />
		<tag k="waterway" v="stream" />
	</node>
	<node lat="68.30476111443895" lon="14.254730556974717" id="-19938">
		<tag k="name" v="Ytterrantjønna" />
		<tag k="natural" v="water" />
		<tag k="ssr:stedsnr" v="648359" />
	</node>
	<node lat="68.31385277945421" lon="14.466163890540416" id="-19953">
		<tag k="name" v="Blålyngelva" />
		<tag k="ssr:stedsnr" v="664724" />
		<tag k="waterway" v="stream" />
	</node>
	<node lat="68.32851388771051" lon="14.646844447885755" id="-19956">
		<tag k="name" v="Tverrelva" />
		<tag k="ssr:stedsnr" v="665862" />
		<tag k="waterway" v="stream" />
	</node>
	<node lat="68.29714444333445" lon="15.032252778783668" id="-19963">
		<tag k="name" v="Andosen" />
		<tag k="natural" v="bay" />
		<tag k="ssr:stedsnr" v="935894" />
	</node>
	<node lat="68.27236111480325" lon="14.359366659397322" id="-19971">
		<tag k="name" v="Storåstjønnen" />
		<tag k="natural" v="water" />
		<tag k="ssr:stedsnr" v="725635" />
		<tag k="water" v="lake" />
	</node>
	<node lat="68.26184444810744" lon="14.38666389151741" id="-19974">
		<tag k="name" v="Finnstrandtjønna" />
		<tag k="natural" v="water" />
		<tag k="ssr:stedsnr" v="725659" />
	</node>
	<node lat="68.32509722357747" lon="14.656430547301772" id="-19980">
		<tag k="name" v="Lønesan" />
		<tag k="natural" v="cape" />
		<tag k="ssr:stedsnr" v="726848" />
	</node>
	<node lat="68.32084999585734" lon="14.34776945094706" id="-19987">
		<tag k="alt_name" v="Nervatnet" />
		<tag k="name" v="Nedrevatnet" />
		<tag k="natural" v="water" />
		<tag k="ssr:stedsnr" v="745001" />
	</node>
	<node lat="68.33625278004841" lon="14.583927773361681" id="-20007">
		<tag k="alt_name" v="Øverdalsvatnet" />
		<tag k="name" v="Øvredalsvatnet" />
		<tag k="natural" v="water" />
		<tag k="ssr:stedsnr" v="745437" />
	</node>
	<node lat="68.22366666442025" lon="14.34836111001902" id="-20021">
		<tag k="name" v="Andrevatnet" />
		<tag k="natural" v="water" />
		<tag k="ssr:stedsnr" v="745553" />
	</node>
	<node lat="68.27286389269771" lon="14.857741662276263" id="-20022">
		<tag k="name" v="Svartvatnet" />
		<tag k="natural" v="water" />
		<tag k="ssr:stedsnr" v="745555" />
	</node>
	<node lat="68.33583055129728" lon="15.143694447516229" id="-20029">
		<tag k="name" v="Gunnarkilen" />
		<tag k="natural" v="water" />
		<tag k="ssr:stedsnr" v="745961" />
		<tag k="water" v="lake" />
	</node>
	<node lat="68.36159722157507" lon="14.700738890101665" id="-20033">
		<tag k="name" v="Nattmålselva" />
		<tag k="ssr:stedsnr" v="750762" />
		<tag k="waterway" v="river" />
	</node>
	<node lat="68.28477499886444" lon="14.935650011706528" id="-20044">
		<tag k="name" v="Ulvågvatnet" />
		<tag k="natural" v="water" />
		<tag k="ssr:stedsnr" v="753648" />
		<tag k="water" v="lake" />
	</node>
	<node lat="68.3208250023199" lon="14.705094442129024" id="-20062">
		<tag k="name" v="Sildpolltjønna" />
		<tag k="natural" v="water" />
		<tag k="ssr:stedsnr" v="756425" />
	</node>
	<node lat="68.32303888506333" lon="14.345691658520817" id="-20088">
		<tag k="name" v="Åneset" />
		<tag k="natural" v="cape" />
		<tag k="ssr:stedsnr" v="785699" />
	</node>
	<node lat="68.26618889109865" lon="14.902811121091831" id="-20144">
		<tag k="name" v="Fremnesvikvatnet" />
		<tag k="natural" v="water" />
		<tag k="ssr:stedsnr" v="806671" />
	</node>
	<node lat="68.334491664628" lon="14.504613894966019" id="-20154">
		<tag k="name" v="Sandslettvatnet" />
		<tag k="natural" v="water" />
		<tag k="ssr:stedsnr" v="806417" />
	</node>
	<node lat="68.37131666874997" lon="14.55471945319625" id="-20163">
		<tag k="name" v="Heimervatnet" />
		<tag k="natural" v="water" />
		<tag k="ssr:stedsnr" v="806486" />
		<tag k="water" v="lake" />
	</node>
	<node lat="68.30065555606039" lon="14.83115555878995" id="-20164">
		<tag k="name" v="Kveitvikvatnet" />
		<tag k="natural" v="water" />
		<tag k="ssr:stedsnr" v="806504" />
	</node>
	<node lat="68.22717778103036" lon="14.261580555120295" id="-20172">
		<tag k="alt_name" v="Farsdalsvatnet" />
		<tag k="name" v="Forsdalsvatnet" />
		<tag k="natural" v="water" />
		<tag k="ssr:stedsnr" v="806558" />
	</node>
	<node lat="68.26111944702572" lon="14.574649999874326" id="-20173">
		<tag k="fixme" v="multiple name tags, choose one and add the other to alt_name" />
		<tag k="name" v="Tuvvatnet;Blåtindvatnet" />
		<tag k="natural" v="water" />
		<tag k="ssr:stedsnr" v="806570" />
	</node>
	<node lat="68.22010833239686" lon="14.336997218993526" id="-20184">
		<tag k="name" v="Soterelva" />
		<tag k="ssr:stedsnr" v="810829" />
		<tag k="waterway" v="stream" />
	</node>
	<node lat="68.23668610919354" lon="14.488816658246275" id="-20189">
		<tag k="name" v="Dammen" />
		<tag k="ssr:stedsnr" v="810856" />
		<tag k="waterway" v="dam" />
	</node>
	<node lat="68.32584166569484" lon="14.791805566368886" id="-20204">
		<tag k="name" v="Litjslettelva" />
		<tag k="ssr:stedsnr" v="817053" />
		<tag k="waterway" v="stream" />
	</node>
	<node lat="68.16996153601679" lon="14.661958033419136" id="-20213">
		<tag k="name" v="Randebekken" />
		<tag k="ssr:stedsnr" v="817165" />
		<tag k="waterway" v="stream" />
	</node>
	<node lat="68.29123888632813" lon="14.253524993594853" id="-20227">
		<tag k="name" v="Barstrandelva" />
		<tag k="ssr:stedsnr" v="831313" />
		<tag k="waterway" v="stream" />
	</node>
	<node lat="68.33374722632462" lon="14.766805557519746" id="-20263">
		<tag k="name" v="Grøttingselva" />
		<tag k="ssr:stedsnr" v="848851" />
		<tag k="waterway" v="stream" />
	</node>
	<node lat="68.30629166685398" lon="15.06280833495433" id="-20271">
		<tag k="name" v="Rømbunken" />
		<tag k="natural" v="bay" />
		<tag k="ssr:stedsnr" v="866037" />
	</node>
	<node lat="68.31786667018879" lon="14.128802768331921" id="-20275">
		<tag k="alt_name" v="Vetthaugvatnet" />
		<tag k="name" v="Vethaugvatnet" />
		<tag k="natural" v="water" />
		<tag k="ssr:stedsnr" v="866080" />
	</node>
	<node lat="68.34784444281901" lon="14.766983328095222" id="-20291">
		<tag k="alt_name" v="Skjennelva" />
		<tag k="name" v="Skinelva" />
		<tag k="ssr:stedsnr" v="866351" />
		<tag k="waterway" v="stream" />
	</node>
	<node lat="68.34980278063924" lon="14.700869452493405" id="-20293">
		<tag k="name" v="Hamnelva" />
		<tag k="ssr:stedsnr" v="866380" />
		<tag k="waterway" v="stream" />
	</node>
	<node lat="68.31260277717763" lon="14.747838887520581" id="-20311">
		<tag k="name" v="Saltvatnet" />
		<tag k="natural" v="water" />
		<tag k="ssr:stedsnr" v="866481" />
	</node>
	<node lat="68.29184444259754" lon="15.011216674950344" id="-20316">
		<tag k="fixme" v="multiple name tags, choose one and add the other to alt_name" />
		<tag k="name" v="Lilleårsteinvatnet;Årsteinvatnet" />
		<tag k="natural" v="water" />
		<tag k="ssr:stedsnr" v="866573" />
	</node>
	<node lat="68.305513892965" lon="14.22704445702361" id="-20331">
		<tag k="fixme" v="multiple name tags, choose one and add the other to alt_name" />
		<tag k="name" v="Sandsdalsvatnet;Stengelvatnet" />
		<tag k="natural" v="water" />
		<tag k="ssr:stedsnr" v="867021" />
	</node>
	<node lat="68.29306944378642" lon="14.239919445038128" id="-20342">
		<tag k="name" v="Barstrandvatnet" />
		<tag k="natural" v="water" />
		<tag k="ssr:stedsnr" v="867054" />
	</node>
	<node lat="68.31755278030978" lon="14.639033335552035" id="-20343">
		<tag k="name" v="Lakselva" />
		<tag k="ssr:stedsnr" v="867069" />
		<tag k="waterway" v="river" />
	</node>
	<node lat="68.30309166686136" lon="15.102477767173266" id="-20344">
		<tag k="alt_name" v="Vågen" />
		<tag k="name" v="Holandsvågen" />
		<tag k="natural" v="bay" />
		<tag k="ssr:stedsnr" v="867077" />
	</node>
	<node lat="68.26401111097496" lon="14.393358339856219" id="-20346">
		<tag k="name" v="Botnelva" />
		<tag k="ssr:stedsnr" v="867161" />
		<tag k="waterway" v="stream" />
	</node>
	<node lat="68.25662777621228" lon="14.470194436971301" id="-20378">
		<tag k="name" v="Stornøkkvatnet" />
		<tag k="natural" v="water" />
		<tag k="ssr:stedsnr" v="867679" />
		<tag k="water" v="lake" />
	</node>
	<node lat="68.24624166760826" lon="14.437472233089563" id="-20379">
		<tag k="alt_name" v="Nøkkvatnet, vestre;Vestre Nøkkvatn" />
		<tag k="fixme" v="multiple name tags, choose one and add the other to alt_name" />
		<tag k="name" v="Nøkkvatnet;Vestre Nøkkvatnet" />
		<tag k="natural" v="water" />
		<tag k="ssr:stedsnr" v="867680" />
	</node>
	<node lat="68.25171389137166" lon="14.562102775704373" id="-20380">
		<tag k="name" v="Grønnåsvatnet" />
		<tag k="natural" v="water" />
		<tag k="ssr:stedsnr" v="867681" />
	</node>
	<node lat="68.22256388814039" lon="14.498008343729252" id="-20388">
		<tag k="name" v="Åvikelva" />
		<tag k="ssr:stedsnr" v="871147" />
		<tag k="waterway" v="stream" />
	</node>
	<node lat="68.33956666716826" lon="14.792266674130037" id="-20408">
		<tag k="name" v="Kvanndalsvatnet" />
		<tag k="natural" v="water" />
		<tag k="ssr:stedsnr" v="877280" />
		<tag k="water" v="lake" />
	</node>
	<node lat="68.39078888965649" lon="14.505775003331369" id="-20416">
		<tag k="name" v="Sevtjønna" />
		<tag k="natural" v="water" />
		<tag k="ssr:stedsnr" v="877440" />
	</node>
	<node lat="68.34080555851703" lon="14.131375000560269" id="-20421">
		<tag k="name" v="Alkoelva" />
		<tag k="ssr:stedsnr" v="889419" />
		<tag k="waterway" v="stream" />
	</node>
	<node lat="68.35376944160296" lon="14.58764722009983" id="-20431">
		<tag k="name" v="Hekkjelstjønnsmoa" />
		<tag k="place" v="locality" />
		<tag k="ssr:stedsnr" v="938160" />
	</node>
	<node lat="68.27877222613391" lon="14.758794447384945" id="-20441">
		<tag k="name" v="Sæterdalen" />
		<tag k="ssr:stedsnr" v="938956" />
		<tag k="waterway" v="stream" />
	</node>
	<node lat="68.35218055464874" lon="14.501436117194368" id="-20448">
		<tag k="name" v="Mølnelva" />
		<tag k="ssr:stedsnr" v="950899" />
		<tag k="waterway" v="stream" />
	</node>
	<node lat="68.39221388601713" lon="14.454199993480213" id="-20464">
		<tag k="name" v="Vestertjønna" />
		<tag k="natural" v="water" />
		<tag k="ssr:stedsnr" v="969574" />
	</node>
	<node lat="68.32280277797145" lon="14.688438887124905" id="-20466">
		<tag k="name" v="Koneselva" />
		<tag k="ssr:stedsnr" v="968858" />
		<tag k="waterway" v="stream" />
=======
	<node id="-194864" lat="68.3014500037" lon="14.4678138895">
		<tag k="name" v="Blålyngvatnan" />
		<tag k="natural" v="water" />
		<tag k="ssr:stedsnr" v="623520" />
		<tag k="water" v="lake" />
	</node>
	<node id="-194862" lat="68.3724638931" lon="14.4486694426">
		<tag k="name" v="Måsvatnet" />
		<tag k="natural" v="water" />
		<tag k="ssr:stedsnr" v="623512" />
	</node>
	<node id="-192811" lat="68.205227781" lon="14.2453194565">
		<tag k="name" v="Rørvikelva" />
		<tag k="ssr:stedsnr" v="385808" />
		<tag k="waterway" v="river" />
	</node>
	<node id="-192810" lat="68.255863891" lon="14.5406666792">
		<tag k="name" v="Straumen" />
		<tag k="ssr:stedsnr" v="503042" />
		<tag k="waterway" v="rapids" />
	</node>
	<node id="-194856" lat="68.3774138862" lon="14.4462166616">
		<tag k="name" v="Årvikelva" />
		<tag k="ssr:stedsnr" v="623465" />
		<tag k="waterway" v="stream" />
	</node>
	<node id="-192806" lat="68.3499000004" lon="15.2200972183">
		<tag k="name" v="Tortenbakkelva" />
		<tag k="ssr:stedsnr" v="502900" />
		<tag k="waterway" v="stream" />
	</node>
	<node id="-194852" lat="68.3440611072" lon="14.6527749962">
		<tag k="name" v="Kvitforsvatnan" />
		<tag k="natural" v="water" />
		<tag k="ssr:stedsnr" v="623394" />
		<tag k="water" v="lake" />
	</node>
	<node id="-192802" lat="68.2846666645" lon="14.7492166558">
		<tag k="name" v="Sætervatnet" />
		<tag k="natural" v="water" />
		<tag k="ssr:stedsnr" v="502618" />
	</node>
	<node id="-192796" lat="68.3046250023" lon="14.5573027843">
		<tag k="name" v="Reinslettvatnet" />
		<tag k="natural" v="water" />
		<tag k="ssr:stedsnr" v="502548" />
	</node>
	<node id="-192789" lat="68.173116668" lon="14.2311888934">
		<tag k="name" v="Heiavatnet" />
		<tag k="natural" v="water" />
		<tag k="ssr:stedsnr" v="502427" />
	</node>
	<node id="-192772" lat="68.3753333353" lon="14.4506750033">
		<tag k="name" v="Svartvatnet" />
		<tag k="natural" v="water" />
		<tag k="ssr:stedsnr" v="502454" />
	</node>
	<node id="-194819" lat="68.3259972239" lon="14.3406805594">
		<tag k="name" v="Mølnelva" />
		<tag k="ssr:stedsnr" v="623117" />
		<tag k="waterway" v="stream" />
	</node>
	<node id="-194804" lat="68.3097555582" lon="14.1248444494">
		<tag k="name" v="Rødvatnet" />
		<tag k="natural" v="water" />
		<tag k="ssr:stedsnr" v="623021" />
	</node>
	<node id="-192754" lat="68.1835194423" lon="14.284897219">
		<tag k="name" v="Migand" />
		<tag k="ssr:stedsnr" v="502372" />
		<tag k="waterway" v="stream" />
	</node>
	<node id="-194796" lat="68.2892277815" lon="14.2647583365">
		<tag k="name" v="Lilleelva" />
		<tag k="ssr:stedsnr" v="604319" />
		<tag k="waterway" v="stream" />
	</node>
	<node id="-192741" lat="68.2929777767" lon="14.5842388802">
		<tag k="name" v="Hellskarvatnet" />
		<tag k="natural" v="water" />
		<tag k="ssr:stedsnr" v="381616" />
	</node>
	<node id="-192740" lat="68.2895194471" lon="14.4403750076">
		<tag k="name" v="Kroktindvatnet" />
		<tag k="natural" v="water" />
		<tag k="ssr:stedsnr" v="381615" />
	</node>
	<node id="-192738" lat="68.3925833337" lon="14.4599111124">
		<tag k="name" v="Nordtjønna" />
		<tag k="natural" v="water" />
		<tag k="ssr:stedsnr" v="362561" />
	</node>
	<node id="-192718" lat="68.3337277823" lon="14.3825444407">
		<tag k="name" v="Kvanntoelva" />
		<tag k="ssr:stedsnr" v="483577" />
		<tag k="waterway" v="stream" />
	</node>
	<node id="-194763" lat="68.2939722252" lon="14.6903888952">
		<tag k="name" v="Torvhaugvatnet" />
		<tag k="natural" v="water" />
		<tag k="ssr:stedsnr" v="573384" />
	</node>
	<node id="-194757" lat="68.3783416704" lon="14.555094446">
		<tag k="name" v="Teinelva" />
		<tag k="natural" v="bay" />
		<tag k="ssr:stedsnr" v="573190" />
	</node>
	<node id="-194755" lat="68.352930557" lon="14.6036722169">
		<tag k="name" v="Kvitforsen" />
		<tag k="natural" v="waterfall" />
		<tag k="ssr:stedsnr" v="573179" />
	</node>
	<node id="-194754" lat="68.2935083342" lon="14.7379833277">
		<tag k="name" v="Fleskvikelva" />
		<tag k="ssr:stedsnr" v="573368" />
		<tag k="waterway" v="river" />
	</node>
	<node id="-194251" lat="68.3119444435" lon="15.0355611052">
		<tag k="name" v="Holmvatnet" />
		<tag k="natural" v="water" />
		<tag k="ssr:stedsnr" v="320016" />
	</node>
	<node id="-194751" lat="68.3728416663" lon="14.5456944419">
		<tag k="name" v="Trolldalselva" />
		<tag k="ssr:stedsnr" v="573150" />
		<tag k="waterway" v="stream" />
	</node>
	<node id="-192697" lat="68.2440055548" lon="14.4610138889">
		<tag k="name" v="Bogdalselva" />
		<tag k="ssr:stedsnr" v="325824" />
		<tag k="waterway" v="stream" />
	</node>
	<node id="-194743" lat="68.2532222192" lon="14.6239333404">
		<tag k="name" v="Jomfruelva" />
		<tag k="ssr:stedsnr" v="568170" />
		<tag k="waterway" v="river" />
	</node>
	<node id="-194737" lat="68.2292333329" lon="14.4639361093">
		<tag k="name" v="Kristenbukta" />
		<tag k="natural" v="bay" />
		<tag k="ssr:stedsnr" v="567856" />
	</node>
	<node id="-194735" lat="68.2409583303" lon="14.5185833255">
		<tag k="name" v="Sommarfjøsbukta" />
		<tag k="natural" v="bay" />
		<tag k="ssr:stedsnr" v="567844" />
	</node>
	<node id="-194734" lat="68.2243305586" lon="14.3983222133">
		<tag k="name" v="Øver-Albertvatnet" />
		<tag k="natural" v="water" />
		<tag k="ssr:stedsnr" v="567831" />
	</node>
	<node id="-194731" lat="68.3607694461" lon="14.7138472158">
		<tag k="name" v="Morfjordelva" />
		<tag k="ssr:stedsnr" v="567801" />
		<tag k="waterway" v="river" />
	</node>
	<node id="-192670" lat="68.3176916634" lon="14.6613222215">
		<tag k="name" v="Gressløyselva" />
		<tag k="ssr:stedsnr" v="301826" />
		<tag k="waterway" v="stream" />
	</node>
	<node id="-192668" lat="68.278372221" lon="14.2040638801">
		<tag k="name" v="Holmen" />
		<tag k="natural" v="cape" />
		<tag k="ssr:stedsnr" v="301302" />
	</node>
	<node id="-192666" lat="68.3294972258" lon="14.5138722235">
		<tag k="name" v="Lilleelva" />
		<tag k="ssr:stedsnr" v="466890" />
		<tag k="waterway" v="stream" />
	</node>
	<node id="-192664" lat="68.3942583326" lon="14.4706027733">
		<tag k="name" v="Gravbekken" />
		<tag k="ssr:stedsnr" v="465791" />
		<tag k="waterway" v="stream" />
	</node>
	<node id="-192658" lat="68.3206555578" lon="14.1200611146">
		<tag k="name" v="Torvskjåvatnet" />
		<tag k="natural" v="water" />
		<tag k="ssr:stedsnr" v="464447" />
	</node>
	<node id="-194675" lat="68.3765472207" lon="14.4661999947">
		<tag k="name" v="Rømyrtjønna" />
		<tag k="natural" v="water" />
		<tag k="ssr:stedsnr" v="562446" />
	</node>
	<node id="-194674" lat="68.3732166692" lon="14.5117694372">
		<tag k="name" v="Mølndalsvatnan" />
		<tag k="natural" v="water" />
		<tag k="ssr:stedsnr" v="562442" />
		<tag k="water" v="lake" />
	</node>
	<node id="-192625" lat="68.3083527786" lon="15.0562250075">
		<tag k="name" v="Strauman" />
		<tag k="natural" v="bay" />
		<tag k="ssr:stedsnr" v="259007" />
	</node>
	<node id="-194670" lat="68.3411277823" lon="14.6894249914">
		<tag k="name" v="Ivarelva" />
		<tag k="ssr:stedsnr" v="562372" />
		<tag k="waterway" v="stream" />
	</node>
	<node id="-194666" lat="68.2401472237" lon="14.4326805501">
		<tag k="name" v="Damvatnet" />
		<tag k="natural" v="water" />
		<tag k="ssr:stedsnr" v="562338" />
	</node>
	<node id="-192613" lat="68.381036114" lon="14.5285916686">
		<tag k="name" v="Mølndalselva" />
		<tag k="ssr:stedsnr" v="453454" />
		<tag k="waterway" v="stream" />
	</node>
	<node id="-192611" lat="68.311152775" lon="14.7138694383">
		<tag k="name" v="Småskjærosen" />
		<tag k="natural" v="bay" />
		<tag k="ssr:stedsnr" v="453439" />
	</node>
	<node id="-194648" lat="68.3278138843" lon="14.1340527826">
		<tag k="name" v="Stengvatnet" />
		<tag k="natural" v="water" />
		<tag k="ssr:stedsnr" v="562073" />
	</node>
	<node id="-192592" lat="68.2949194418" lon="15.0583861003">
		<tag k="name" v="Pundslettelva" />
		<tag k="ssr:stedsnr" v="451639" />
		<tag k="waterway" v="river" />
	</node>
	<node id="-194634" lat="68.2950944441" lon="14.8797000048">
		<tag k="name" v="Storelva" />
		<tag k="ssr:stedsnr" v="544243" />
		<tag k="waterway" v="stream" />
	</node>
	<node id="-194631" lat="68.2689444463" lon="14.3255555667">
		<tag k="name" v="Dalvatnet" />
		<tag k="natural" v="water" />
		<tag k="ssr:stedsnr" v="543669" />
	</node>
	<node id="-192563" lat="68.3398944439" lon="14.1339083429">
		<tag k="fixme" v="multiple name tags, choose one and add the other to alt_name" />
		<tag k="name" v="Arvidvatnet;Arvikvatnet" />
		<tag k="natural" v="water" />
		<tag k="ssr:stedsnr" v="442901" />
	</node>
	<node id="-192561" lat="68.2886138925" lon="14.4517777812">
		<tag k="name" v="Langvatnet" />
		<tag k="natural" v="water" />
		<tag k="ssr:stedsnr" v="442610" />
	</node>
	<node id="-194608" lat="68.3337916667" lon="14.5758666692">
		<tag k="name" v="Annerelva" />
		<tag k="ssr:stedsnr" v="525947" />
		<tag k="waterway" v="stream" />
	</node>
	<node id="-192557" lat="68.2738999971" lon="14.8843000064">
		<tag k="name" v="Mølna" />
		<tag k="ssr:stedsnr" v="442587" />
		<tag k="waterway" v="stream" />
	</node>
	<node id="-194603" lat="68.3397888907" lon="14.0935361033">
		<tag k="name" v="Smetvatnet" />
		<tag k="natural" v="water" />
		<tag k="ssr:stedsnr" v="525454" />
	</node>
	<node id="-194599" lat="68.3561944437" lon="14.4854111076">
		<tag k="name" v="Jordodden" />
		<tag k="natural" v="cape" />
		<tag k="ssr:stedsnr" v="525901" />
	</node>
	<node id="-192548" lat="68.3606888855" lon="14.6817000054">
		<tag k="name" v="Nattmålsvatnet" />
		<tag k="natural" v="water" />
		<tag k="ssr:stedsnr" v="442489" />
	</node>
	<node id="-192547" lat="68.3579277798" lon="14.7490416651">
		<tag k="name" v="Eidevatnet" />
		<tag k="natural" v="water" />
		<tag k="ssr:stedsnr" v="442479" />
	</node>
	<node id="-192546" lat="68.3753861135" lon="14.4702888824">
		<tag k="name" v="Akselvatnet" />
		<tag k="natural" v="water" />
		<tag k="ssr:stedsnr" v="442454" />
	</node>
	<node id="-192531" lat="68.2796361119" lon="14.2077749989">
		<tag k="alt_name" v="Jenndalsvatnet, øvre;Øvre Gjendalsvatn" />
		<tag k="name" v="Øvre Jenndalsvatnet" />
		<tag k="natural" v="water" />
		<tag k="ssr:stedsnr" v="442253" />
		<tag k="water" v="lake" />
	</node>
	<node id="-194571" lat="68.3182055589" lon="14.5301194396">
		<tag k="name" v="Ellingneset" />
		<tag k="natural" v="cape" />
		<tag k="ssr:stedsnr" v="404886" />
	</node>
	<node id="-194568" lat="68.3976666714" lon="14.4910416558">
		<tag k="name" v="Haraldtjønna" />
		<tag k="natural" v="water" />
		<tag k="ssr:stedsnr" v="404739" />
		<tag k="water" v="pond" />
>>>>>>> e1d4bc35ff8a6074a6f2e91616a996b547c36f15
	</node>
</osm>
