<?xml version="1.0" encoding="UTF-8"?>
<osm version="0.6" generator="osmapis">
	<node lat="68.37009444090346" lon="14.561549990431464" id="-21550">
		<tag k="highway" v="path" />
		<tag k="name" v="Moldvegan" />
		<tag k="ssr:stedsnr" v="28179" />
	</node>
	<node lat="68.21358611231288" lon="14.398397218378511" id="-21637">
		<tag k="junction" v="yes" />
		<tag k="name" v="Sløyfa" />
		<tag k="place" v="locality" />
		<tag k="ssr:stedsnr" v="82831" />
	</node>
	<node lat="68.24358900227033" lon="14.635748946505306" id="-21671">
		<tag k="layer" v="-1" />
		<tag k="name" v="Børra" />
		<tag k="ssr:stedsnr" v="105412" />
		<tag k="tunnel" v="yes" />
	</node>
	<node lat="68.35927777360263" lon="14.350894447301435" id="-21797">
		<tag k="name" v="Båtleia" />
		<tag k="place" v="locality" />
		<tag k="ssr:stedsnr" v="168711" />
	</node>
	<node lat="68.26316954931521" lon="14.242148902231328" id="-21833">
		<tag k="bridge" v="yes" />
		<tag k="layer" v="1" />
		<tag k="name" v="Gimsøystraumbrua" />
		<tag k="ssr:stedsnr" v="199161" />
	</node>
	<node lat="68.39584444799542" lon="14.481736104093324" id="-21920">
		<tag k="name" v="Fredrikstøa" />
		<tag k="place" v="locality" />
		<tag k="ssr:stedsnr" v="453471" />
	</node>
	<node lat="68.37768888960696" lon="14.47612777353023" id="-21928">
		<tag k="highway" v="path" />
		<tag k="name" v="Geitvegan" />
		<tag k="ssr:stedsnr" v="453135" />
	</node>
	<node lat="68.1676037215591" lon="14.219845152659495" id="-22126">
		<tag k="bridge" v="yes" />
		<tag k="layer" v="1" />
		<tag k="name" v="Engøysundbura" />
		<tag k="ssr:stedsnr" v="331214" />
	</node>
	<node lat="68.15359722346247" lon="14.237402769184685" id="-22399">
		<tag k="name" v="Henningsværleia" />
		<tag k="place" v="locality" />
		<tag k="ssr:stedsnr" v="513200" />
	</node>
	<node lat="68.26038611345987" lon="14.735497219499432" id="-22516">
		<tag k="landuse" v="harbour" />
		<tag k="name" v="Hamna" />
		<tag k="seamark:type" v="harbour" />
		<tag k="ssr:stedsnr" v="695247" />
	</node>
	<node lat="68.16487222621575" lon="14.712388900554243" id="-22520">
		<tag k="landuse" v="harbour" />
		<tag k="name" v="Nautøyvågen" />
		<tag k="seamark:type" v="harbour" />
		<tag k="ssr:stedsnr" v="695893" />
	</node>
	<node lat="68.23625430251815" lon="14.557782147462941" id="-22702">
		<tag k="layer" v="-1" />
		<tag k="name" v="Nonshaugen" />
		<tag k="ssr:stedsnr" v="894391" />
		<tag k="tunnel" v="yes" />
	</node>
	<node lat="68.23480833366762" lon="14.552280556352443" id="-22801">
		<tag k="man_made" v="quay" />
		<tag k="name" v="Ferjekai" />
		<tag k="place" v="locality" />
		<tag k="ssr:stedsnr" v="905837" />
	</node>
	<node lat="68.23034444766648" lon="14.566177786134292" id="-22802">
		<tag k="man_made" v="quay" />
		<tag k="name" v="Rutebåtkai" />
		<tag k="place" v="locality" />
		<tag k="ssr:stedsnr" v="905838" />
	</node>
	<node lat="68.375949998013" lon="14.55618332339374" id="-22851">
		<tag k="name" v="Stenga" />
		<tag k="place" v="locality" />
		<tag k="ssr:stedsnr" v="817203" />
	</node>
	<node lat="68.13457500123435" lon="14.10184167441205" id="-22967">
		<tag k="name" v="Stampeleia" />
		<tag k="place" v="locality" />
		<tag k="ssr:stedsnr" v="897660" />
	</node>
	<node lat="68.2406638861927" lon="14.56981110912312" id="-22969">
		<tag k="leisure" v="marina" />
		<tag k="name" v="Småbåthavn" />
		<tag k="ssr:stedsnr" v="905852" />
	</node>
	<node lat="68.23896427793333" lon="14.529272724099114" id="-23028">
		<tag k="bridge" v="yes" />
		<tag k="layer" v="1" />
		<tag k="name" v="Isbrua" />
		<tag k="ssr:stedsnr" v="932820" />
	</node>
	<node lat="68.24234246472719" lon="14.585934135890012" id="-23063">
		<tag k="layer" v="-1" />
		<tag k="name" v="Bygrensen" />
		<tag k="ssr:stedsnr" v="954394" />
		<tag k="tunnel" v="yes" />
	</node>
	<node lat="68.257166664012" lon="14.738572218657271" id="-23243">
		<tag k="name" v="Kjerkleia" />
		<tag k="place" v="locality" />
		<tag k="ssr:stedsnr" v="28258" />
	</node>
	<node lat="68.26292500432739" lon="14.742269439138669" id="-23244">
		<tag k="highway" v="path" />
		<tag k="name" v="Steinvegen" />
		<tag k="ssr:stedsnr" v="28259" />
	</node>
	<node lat="68.23863055577756" lon="14.562836108866408" id="-23391">
		<tag k="highway" v="bus_stop" />
		<tag k="name" v="Nonshaugen stasjon" />
		<tag k="ssr:stedsnr" v="120559" />
	</node>
	<node lat="68.15991551193824" lon="14.215179308741146" id="-23490">
		<tag k="bridge" v="yes" />
		<tag k="layer" v="1" />
		<tag k="name" v="Henningsværbrua" />
		<tag k="ssr:stedsnr" v="149734" />
	</node>
	<node lat="68.32176944780021" lon="14.713561100663702" id="-23514">
		<tag k="man_made" v="quay" />
		<tag k="name" v="Lysverkkaia" />
		<tag k="place" v="locality" />
		<tag k="ssr:stedsnr" v="177841" />
	</node>
	<node lat="68.14864999941285" lon="14.239736115443007" id="-23763">
		<tag k="name" v="Rødholmleia" />
		<tag k="place" v="locality" />
		<tag k="ssr:stedsnr" v="350273" />
	</node>
	<node lat="68.25687777323235" lon="14.734755559562485" id="-23877">
		<tag k="name" v="Jektleia" />
		<tag k="place" v="locality" />
		<tag k="ssr:stedsnr" v="392263" />
	</node>
	<node lat="68.35062222151821" lon="14.744944452860118" id="-23934">
		<tag k="alt_name" v="Vegstøa" />
		<tag k="fixme" v="verify maritime location" />
		<tag k="mooring" v="yes" />
		<tag k="name" v="Veistøa" />
		<tag k="place" v="locality" />
		<tag k="ssr:stedsnr" v="441398" />
	</node>
	<node lat="68.16198055647476" lon="14.161819434694005" id="-24102">
		<tag k="name" v="Hanekamleia" />
		<tag k="place" v="locality" />
		<tag k="ssr:stedsnr" v="532296" />
	</node>
	<node lat="68.1511527807238" lon="14.26392500019369" id="-24103">
		<tag k="name" v="Brørleia" />
		<tag k="place" v="locality" />
		<tag k="ssr:stedsnr" v="532298" />
	</node>
	<node lat="68.17092500287877" lon="14.242383323273426" id="-24366">
		<tag k="man_made" v="quay" />
		<tag k="name" v="Urskjåen" />
		<tag k="place" v="locality" />
		<tag k="ssr:stedsnr" v="634223" />
	</node>
	<node lat="68.15584444275426" lon="14.206372229555189" id="-24508">
		<tag k="leisure" v="marina" />
		<tag k="name" v="Misværhola" />
		<tag k="ssr:stedsnr" v="756231" />
	</node>
	<node lat="68.23945555154293" lon="14.666758323818" id="-24596">
		<tag k="aeroway" v="aerodrome" />
		<tag k="alt_name" v="Helle" />
		<tag k="name" v="Svolvær lufthavn, Helle" />
		<tag k="old_name" v="Svolvær lufthamn;Svolvær lufthavn" />
		<tag k="ssr:stedsnr" v="806283" />
	</node>
	<node lat="68.33789999839422" lon="14.787444451645213" id="-24657">
		<tag k="highway" v="path" />
		<tag k="name" v="Mingmaursvegan" />
		<tag k="ssr:stedsnr" v="817215" />
	</node>
	<node lat="68.20683529167682" lon="14.283417482577567" id="-24683">
		<tag k="layer" v="-1" />
		<tag k="name" v="Rørvikskaret" />
		<tag k="ssr:stedsnr" v="833768" />
		<tag k="tunnel" v="yes" />
	</node>
	<node lat="68.16706111102214" lon="14.662711119898926" id="-24863">
		<tag k="amenity" v="ferry_terminal" />
		<tag k="name" v="Djupstøa" />
		<tag k="ssr:stedsnr" v="877147" />
	</node>
	<node lat="68.29275000331661" lon="15.070891671611022" id="-24875">
		<tag k="highway" v="path" />
		<tag k="name" v="Lillebustien" />
		<tag k="ssr:stedsnr" v="936613" />
	</node>
	<node lat="68.2126401219708" lon="14.482144476467933" id="-25141">
		<tag k="man_made" v="monitoring_station" />
		<tag k="monitoring:water_Level" v="yes" />
		<tag k="name" v="Kabelvåg vannstandsmåler" />
		<tag k="ssr:stedsnr" v="1082326" />
	</node>
</osm>
