<?xml version="1.0" encoding="UTF-8"?>
<osm version="0.6" generator="osmapis">
	<node lat="68.33296111460683" lon="14.358158325472026" id="-21403">
		<tag k="fixme" v="consider natural=peak for the most distinct mountains in the district" />
		<tag k="name" v="Hallvarlitinden" />
		<tag k="natural" v="hill" />
		<tag k="place" v="locality" />
		<tag k="ssr:stedsnr" v="16055" />
	</node>
	<node lat="68.3200500007643" lon="14.129641666143364" id="-21404">
		<tag k="alt_name" v="Vetthaugan" />
		<tag k="name" v="Vethaugan" />
		<tag k="natural" v="hill" />
		<tag k="place" v="locality" />
		<tag k="ssr:stedsnr" v="16068" />
	</node>
	<node lat="68.32840278005894" lon="15.052119437267416" id="-21405">
		<tag k="fixme" v="consider natural=peak for the most distinct mountains in the district" />
		<tag k="name" v="Snøtinden" />
		<tag k="natural" v="hill" />
		<tag k="place" v="locality" />
		<tag k="ssr:stedsnr" v="16931" />
	</node>
	<node lat="68.29077221864215" lon="14.406505552732474" id="-21406">
		<tag k="fixme" v="multiple name tags, choose one and add the other to alt_name; consider natural=peak for the most distinct mountains in the district" />
		<tag k="name" v="Litlsydalstinden;Jomfruene" />
		<tag k="natural" v="hill" />
		<tag k="place" v="locality" />
		<tag k="ssr:stedsnr" v="17001" />
	</node>
	<node lat="68.32713889177137" lon="14.381663895960816" id="-21410">
		<tag k="fixme" v="consider natural=peak for the most distinct mountains in the district" />
		<tag k="name" v="Heia" />
		<tag k="natural" v="hill" />
		<tag k="place" v="locality" />
		<tag k="ssr:stedsnr" v="17101" />
	</node>
	<node lat="68.20402221817062" lon="14.73770277534194" id="-21411">
		<tag k="name" v="Haverdalsskaret" />
		<tag k="natural" v="valley" />
		<tag k="place" v="locality" />
		<tag k="ssr:stedsnr" v="17153" />
	</node>
	<node lat="68.22589444035653" lon="14.492961105206938" id="-21422">
		<tag k="name" v="Prestmarka" />
		<tag k="natural" v="slope" />
		<tag k="place" v="locality" />
		<tag k="ssr:stedsnr" v="17324" />
	</node>
	<node lat="68.38814444424648" lon="14.446974990838802" id="-21424">
		<tag k="name" v="Langhaugen" />
		<tag k="natural" v="hill" />
		<tag k="place" v="locality" />
		<tag k="ssr:stedsnr" v="17328" />
	</node>
	<node lat="68.27066944239348" lon="14.91833333765615" id="-21426">
		<tag k="fixme" v="consider natural=peak for the most distinct mountains in the district" />
		<tag k="name" v="Foraholtran" />
		<tag k="natural" v="hill" />
		<tag k="place" v="locality" />
		<tag k="ssr:stedsnr" v="17606" />
	</node>
	<node lat="68.25229444038722" lon="14.90896943562011" id="-21431">
		<tag k="fixme" v="consider natural=peak for the most distinct mountains in the district" />
		<tag k="name" v="Rismålstuva" />
		<tag k="natural" v="hill" />
		<tag k="place" v="locality" />
		<tag k="ssr:stedsnr" v="17724" />
	</node>
	<node lat="68.192861107325" lon="14.305405561744335" id="-21432">
		<tag k="name" v="Øvredalen" />
		<tag k="natural" v="valley" />
		<tag k="place" v="locality" />
		<tag k="ssr:stedsnr" v="17871" />
	</node>
	<node lat="68.26869444083633" lon="14.841169439921407" id="-21433">
		<tag k="fixme" v="consider natural=peak for the most distinct mountains in the district" />
		<tag k="name" v="Sukkertoppen" />
		<tag k="natural" v="hill" />
		<tag k="place" v="locality" />
		<tag k="ssr:stedsnr" v="18049" />
	</node>
	<node lat="68.33107777591572" lon="15.060533328785347" id="-21436">
		<tag k="fixme" v="consider natural=peak for the most distinct mountains in the district" />
		<tag k="name" v="Nipen" />
		<tag k="natural" v="hill" />
		<tag k="place" v="locality" />
		<tag k="ssr:stedsnr" v="17967" />
	</node>
	<node lat="68.29536666466292" lon="15.014230545503919" id="-21449">
		<tag k="name" v="Kjellaren" />
		<tag k="natural" v="hill" />
		<tag k="place" v="locality" />
		<tag k="ssr:stedsnr" v="25877" />
	</node>
	<node lat="68.29324444339485" lon="15.040544434669158" id="-21450">
		<tag k="name" v="Kleftra" />
		<tag k="natural" v="hill" />
		<tag k="place" v="locality" />
		<tag k="ssr:stedsnr" v="25906" />
	</node>
	<node lat="68.39470555411056" lon="14.51159999980821" id="-21462">
		<tag k="name" v="Djupgjela" />
		<tag k="natural" v="slope" />
		<tag k="place" v="locality" />
		<tag k="ssr:stedsnr" v="40987" />
	</node>
	<node lat="68.28728889330951" lon="14.360183335823283" id="-21469">
		<tag k="name" v="Storhaugen" />
		<tag k="natural" v="hill" />
		<tag k="place" v="locality" />
		<tag k="ssr:stedsnr" v="239671" />
	</node>
	<node lat="68.30108610846439" lon="14.375066669824704" id="-21470">
		<tag k="fixme" v="consider natural=peak for the most distinct mountains in the district" />
		<tag k="name" v="Småtindan" />
		<tag k="natural" v="hill" />
		<tag k="place" v="locality" />
		<tag k="ssr:stedsnr" v="239750" />
	</node>
	<node lat="68.36045832919795" lon="14.450005565532146" id="-21471">
		<tag k="name" v="Trongstien" />
		<tag k="natural" v="slope" />
		<tag k="place" v="locality" />
		<tag k="ssr:stedsnr" v="239769" />
	</node>
	<node lat="68.29047222571035" lon="14.330419438321469" id="-21473">
		<tag k="fixme" v="consider natural=peak for the most distinct mountains in the district" />
		<tag k="name" v="Åsen" />
		<tag k="natural" v="hill" />
		<tag k="place" v="locality" />
		<tag k="ssr:stedsnr" v="57717" />
	</node>
	<node lat="68.28748888589946" lon="14.255391658137041" id="-21479">
		<tag k="name" v="Røylia" />
		<tag k="natural" v="slope" />
		<tag k="place" v="locality" />
		<tag k="ssr:stedsnr" v="241314" />
	</node>
	<node lat="68.27316667020044" lon="14.21250000145272" id="-21480">
		<tag k="name" v="Geitryggen" />
		<tag k="natural" v="ridge" />
		<tag k="place" v="locality" />
		<tag k="ssr:stedsnr" v="241324" />
	</node>
	<node lat="68.34351388865613" lon="14.748688892694584" id="-21482">
		<tag k="name" v="Langraet" />
		<tag k="natural" v="ridge" />
		<tag k="place" v="locality" />
		<tag k="ssr:stedsnr" v="241873" />
	</node>
	<node lat="68.31965833055703" lon="15.04326112002306" id="-21483">
		<tag k="fixme" v="consider natural=peak for the most distinct mountains in the district" />
		<tag k="name" v="Rødsandfjellet" />
		<tag k="natural" v="hill" />
		<tag k="place" v="locality" />
		<tag k="ssr:stedsnr" v="77004" />
	</node>
	<node lat="68.23794722178772" lon="14.645277768059907" id="-21488">
		<tag k="name" v="Sjøhaugen" />
		<tag k="natural" v="hill" />
		<tag k="place" v="locality" />
		<tag k="ssr:stedsnr" v="77259" />
	</node>
	<node lat="68.23784444375825" lon="14.817916666510923" id="-21491">
		<tag k="name" v="Bondalen" />
		<tag k="natural" v="valley" />
		<tag k="place" v="locality" />
		<tag k="ssr:stedsnr" v="77300" />
	</node>
	<node lat="68.34305833080683" lon="14.55920556387755" id="-21494">
		<tag k="fixme" v="multiple name tags, choose one and add the other to alt_name; consider natural=peak for the most distinct mountains in the district" />
		<tag k="name" v="Litinden;Storlitinden" />
		<tag k="natural" v="hill" />
		<tag k="place" v="locality" />
		<tag k="ssr:stedsnr" v="77399" />
	</node>
	<node lat="68.28192499578626" lon="14.785255558209025" id="-21502">
		<tag k="fixme" v="consider natural=peak for the most distinct mountains in the district" />
		<tag k="name" v="Bonsteinaksla" />
		<tag k="natural" v="hill" />
		<tag k="place" v="locality" />
		<tag k="ssr:stedsnr" v="77631" />
	</node>
	<node lat="68.30864722416146" lon="14.367683337119031" id="-21508">
		<tag k="name" v="Steindalen" />
		<tag k="natural" v="valley" />
		<tag k="place" v="locality" />
		<tag k="ssr:stedsnr" v="78012" />
	</node>
	<node lat="68.30944722564068" lon="15.108711123048359" id="-21510">
		<tag k="fixme" v="consider natural=peak for the most distinct mountains in the district" />
		<tag k="name" v="Holandstinden" />
		<tag k="natural" v="hill" />
		<tag k="place" v="locality" />
		<tag k="ssr:stedsnr" v="78046" />
	</node>
	<node lat="68.32907499809912" lon="14.621088896512434" id="-21517">
		<tag k="fixme" v="consider natural=peak for the most distinct mountains in the district" />
		<tag k="name" v="Sukkerbrettet" />
		<tag k="natural" v="hill" />
		<tag k="place" v="locality" />
		<tag k="ssr:stedsnr" v="78404" />
	</node>
	<node lat="68.32251111203752" lon="14.580877785273016" id="-21524">
		<tag k="alt_name" v="Breidbladet" />
		<tag k="fixme" v="consider natural=peak for the most distinct mountains in the district" />
		<tag k="name" v="Breibladet" />
		<tag k="natural" v="hill" />
		<tag k="place" v="locality" />
		<tag k="ssr:stedsnr" v="78419" />
	</node>
	<node lat="68.26295555875981" lon="14.905055557060333" id="-21534">
		<tag k="name" v="Nattmålsstad" />
		<tag k="natural" v="hill" />
		<tag k="place" v="locality" />
		<tag k="ssr:stedsnr" v="78653" />
	</node>
	<node lat="68.28638333519662" lon="14.960630560552225" id="-21548">
		<tag k="name" v="Vebergan" />
		<tag k="natural" v="hill" />
		<tag k="place" v="locality" />
		<tag k="ssr:stedsnr" v="86678" />
	</node>
	<node lat="68.3149138847852" lon="14.098211101485816" id="-21562">
		<tag k="name" v="Blåbærhaugen" />
		<tag k="natural" v="hill" />
		<tag k="place" v="locality" />
		<tag k="ssr:stedsnr" v="100419" />
	</node>
	<node lat="68.33490555737563" lon="14.513683325592911" id="-21563">
		<tag k="fixme" v="consider natural=peak for the most distinct mountains in the district" />
		<tag k="name" v="Rundåsen" />
		<tag k="natural" v="hill" />
		<tag k="place" v="locality" />
		<tag k="ssr:stedsnr" v="100902" />
	</node>
	<node lat="68.31851110946197" lon="14.566374994262103" id="-21564">
		<tag k="name" v="Ørnhola" />
		<tag k="natural" v="valley" />
		<tag k="place" v="locality" />
		<tag k="ssr:stedsnr" v="100918" />
	</node>
	<node lat="68.31435833330207" lon="14.523991674287517" id="-21565">
		<tag k="name" v="Lilledalen" />
		<tag k="natural" v="valley" />
		<tag k="place" v="locality" />
		<tag k="ssr:stedsnr" v="100870" />
	</node>
	<node lat="68.40428888668474" lon="14.507522209538122" id="-21567">
		<tag k="name" v="Nattmålsbergan" />
		<tag k="natural" v="hill" />
		<tag k="place" v="locality" />
		<tag k="ssr:stedsnr" v="101778" />
	</node>
	<node lat="68.29979166598591" lon="14.209861118293725" id="-21570">
		<tag k="name" v="Heia" />
		<tag k="natural" v="hill" />
		<tag k="place" v="locality" />
		<tag k="ssr:stedsnr" v="102411" />
	</node>
	<node lat="68.32746666616013" lon="14.507047218974819" id="-21571">
		<tag k="name" v="Gåspollhaugen" />
		<tag k="natural" v="hill" />
		<tag k="place" v="locality" />
		<tag k="ssr:stedsnr" v="102890" />
	</node>
	<node lat="68.32084722665483" lon="14.483322224339803" id="-21573">
		<tag k="name" v="Lillestorhaugen" />
		<tag k="natural" v="hill" />
		<tag k="place" v="locality" />
		<tag k="ssr:stedsnr" v="102894" />
	</node>
	<node lat="68.32757778145425" lon="14.114794451272065" id="-21580">
		<tag k="name" v="Kollskarhamran" />
		<tag k="natural" v="hill" />
		<tag k="place" v="locality" />
		<tag k="ssr:stedsnr" v="116486" />
	</node>
	<node lat="68.26367499760424" lon="14.331541670504622" id="-21584">
		<tag k="fixme" v="consider natural=peak for the most distinct mountains in the district" />
		<tag k="name" v="Jotinden" />
		<tag k="natural" v="hill" />
		<tag k="place" v="locality" />
		<tag k="ssr:stedsnr" v="118668" />
	</node>
	<node lat="68.3227555577307" lon="14.330683324952759" id="-21585">
		<tag k="name" v="Elvfloget" />
		<tag k="natural" v="hill" />
		<tag k="place" v="locality" />
		<tag k="ssr:stedsnr" v="118681" />
	</node>
	<node lat="68.32892222450603" lon="14.343775003002843" id="-21586">
		<tag k="name" v="Høgrabben" />
		<tag k="natural" v="hill" />
		<tag k="place" v="locality" />
		<tag k="ssr:stedsnr" v="118685" />
	</node>
	<node lat="68.32128610935503" lon="14.354450011538262" id="-21587">
		<tag k="name" v="Raprabben" />
		<tag k="natural" v="hill" />
		<tag k="place" v="locality" />
		<tag k="ssr:stedsnr" v="118689" />
	</node>
	<node lat="68.32066666891554" lon="14.338047217769855" id="-21588">
		<tag k="name" v="Krausen" />
		<tag k="natural" v="hill" />
		<tag k="place" v="locality" />
		<tag k="ssr:stedsnr" v="118690" />
	</node>
	<node lat="68.29282499751814" lon="14.22141666721714" id="-21590">
		<tag k="fixme" v="consider natural=peak for the most distinct mountains in the district" />
		<tag k="name" v="Høgste Trolldalstind" />
		<tag k="natural" v="hill" />
		<tag k="place" v="locality" />
		<tag k="ssr:stedsnr" v="119302" />
	</node>
	<node lat="68.31958888923425" lon="14.160322230459853" id="-21592">
		<tag k="name" v="Ingeborghaugen" />
		<tag k="natural" v="hill" />
		<tag k="place" v="locality" />
		<tag k="ssr:stedsnr" v="119304" />
	</node>
	<node lat="68.23859444178733" lon="14.258722210848722" id="-21594">
		<tag k="fixme" v="consider natural=peak for the most distinct mountains in the district" />
		<tag k="name" v="Strandås" />
		<tag k="natural" v="hill" />
		<tag k="place" v="locality" />
		<tag k="ssr:stedsnr" v="119510" />
	</node>
	<node lat="68.2416527782439" lon="14.810169450891934" id="-21595">
		<tag k="fixme" v="consider natural=peak for the most distinct mountains in the district" />
		<tag k="name" v="Haversandfjellet" />
		<tag k="natural" v="hill" />
		<tag k="place" v="locality" />
		<tag k="ssr:stedsnr" v="120857" />
	</node>
	<node lat="68.19993055157772" lon="14.734713896505175" id="-21597">
		<tag k="fixme" v="consider natural=peak for the most distinct mountains in the district" />
		<tag k="name" v="Risen" />
		<tag k="natural" v="hill" />
		<tag k="place" v="locality" />
		<tag k="ssr:stedsnr" v="137104" />
	</node>
	<node lat="68.30917500132605" lon="14.659386115761844" id="-21602">
		<tag k="alt_name" v="Grønfjellet" />
		<tag k="fixme" v="consider natural=peak for the most distinct mountains in the district" />
		<tag k="name" v="Grønnfjellet" />
		<tag k="natural" v="hill" />
		<tag k="place" v="locality" />
		<tag k="ssr:stedsnr" v="137529" />
	</node>
	<node lat="68.29221944283697" lon="14.317016659200524" id="-21606">
		<tag k="fixme" v="consider natural=peak for the most distinct mountains in the district" />
		<tag k="name" v="Høgåsen" />
		<tag k="natural" v="hill" />
		<tag k="place" v="locality" />
		<tag k="ssr:stedsnr" v="138221" />
	</node>
	<node lat="68.24640555612464" lon="14.818158335050445" id="-21617">
		<tag k="fixme" v="consider natural=peak for the most distinct mountains in the district" />
		<tag k="name" v="Stortinden" />
		<tag k="natural" v="hill" />
		<tag k="place" v="locality" />
		<tag k="ssr:stedsnr" v="138306" />
	</node>
	<node lat="68.29002500217754" lon="14.663127784016343" id="-21621">
		<tag k="fixme" v="consider natural=peak for the most distinct mountains in the district" />
		<tag k="name" v="Vatterfjordtinden" />
		<tag k="natural" v="hill" />
		<tag k="place" v="locality" />
		<tag k="ssr:stedsnr" v="138606" />
	</node>
	<node lat="68.28625277672502" lon="15.011552774495811" id="-21625">
		<tag k="name" v="Trolldalen" />
		<tag k="natural" v="valley" />
		<tag k="place" v="locality" />
		<tag k="ssr:stedsnr" v="138600" />
	</node>
	<node lat="68.31011944450887" lon="15.028433342287727" id="-21634">
		<tag k="name" v="Vollan" />
		<tag k="place" v="locality" />
		<tag k="ssr:stedsnr" v="146079" />
	</node>
	<node lat="68.30572222351924" lon="15.090491673669243" id="-21637">
		<tag k="name" v="Åshaugen" />
		<tag k="natural" v="hill" />
		<tag k="place" v="locality" />
		<tag k="ssr:stedsnr" v="147618" />
	</node>
	<node lat="68.34175833076485" lon="14.570241663952531" id="-21659">
		<tag k="fixme" v="consider natural=peak for the most distinct mountains in the district" />
		<tag k="name" v="Indrelitinden" />
		<tag k="natural" v="hill" />
		<tag k="place" v="locality" />
		<tag k="ssr:stedsnr" v="259372" />
	</node>
	<node lat="68.34064166472663" lon="14.488044447661068" id="-21661">
		<tag k="name" v="Benkhaugen" />
		<tag k="natural" v="hill" />
		<tag k="place" v="locality" />
		<tag k="ssr:stedsnr" v="259386" />
	</node>
	<node lat="68.37647500353386" lon="14.500058342517262" id="-21666">
		<tag k="name" v="Storskaret" />
		<tag k="natural" v="valley" />
		<tag k="place" v="locality" />
		<tag k="ssr:stedsnr" v="259443" />
	</node>
	<node lat="68.3039194485665" lon="14.627738886451382" id="-21667">
		<tag k="fixme" v="consider natural=peak for the most distinct mountains in the district" />
		<tag k="name" v="Hellskartindan" />
		<tag k="natural" v="hill" />
		<tag k="place" v="locality" />
		<tag k="ssr:stedsnr" v="259540" />
	</node>
	<node lat="68.33644166384879" lon="14.462213884147397" id="-21670">
		<tag k="name" v="Sandslettdalen" />
		<tag k="natural" v="valley" />
		<tag k="place" v="locality" />
		<tag k="ssr:stedsnr" v="161911" />
	</node>
	<node lat="68.31697221778455" lon="14.561238893115036" id="-21672">
		<tag k="fixme" v="consider natural=peak for the most distinct mountains in the district" />
		<tag k="name" v="Nilsjordåsen" />
		<tag k="natural" v="hill" />
		<tag k="place" v="locality" />
		<tag k="ssr:stedsnr" v="161914" />
	</node>
	<node lat="68.32129166966426" lon="14.55957778801935" id="-21673">
		<tag k="name" v="Øverlemman" />
		<tag k="natural" v="slope" />
		<tag k="place" v="locality" />
		<tag k="ssr:stedsnr" v="161917" />
	</node>
	<node lat="68.33684722044389" lon="14.546994442440294" id="-21674">
		<tag k="fixme" v="consider natural=peak for the most distinct mountains in the district" />
		<tag k="name" v="Vollrabben" />
		<tag k="natural" v="hill" />
		<tag k="place" v="locality" />
		<tag k="ssr:stedsnr" v="161949" />
	</node>
	<node lat="68.29593610784747" lon="14.399613882595753" id="-21676">
		<tag k="name" v="Sydalsskaret" />
		<tag k="natural" v="valley" />
		<tag k="place" v="locality" />
		<tag k="ssr:stedsnr" v="260077" />
	</node>
	<node lat="68.22657777519719" lon="14.220191660920664" id="-21679">
		<tag k="name" v="Spillhaugen" />
		<tag k="natural" v="hill" />
		<tag k="place" v="locality" />
		<tag k="ssr:stedsnr" v="165063" />
	</node>
	<node lat="68.29601389011351" lon="14.374163898628572" id="-21685">
		<tag k="alt_name" v="Ellenlien" />
		<tag k="name" v="Elenlia" />
		<tag k="natural" v="slope" />
		<tag k="place" v="locality" />
		<tag k="ssr:stedsnr" v="260239" />
	</node>
	<node lat="68.31429166260739" lon="14.532238887017268" id="-21695">
		<tag k="fixme" v="consider natural=peak for the most distinct mountains in the district" />
		<tag k="name" v="Isakheia" />
		<tag k="natural" v="hill" />
		<tag k="place" v="locality" />
		<tag k="ssr:stedsnr" v="260547" />
	</node>
	<node lat="68.22745995098686" lon="14.421329096648654" id="-21698">
		<tag k="fixme" v="consider natural=peak for the most distinct mountains in the district" />
		<tag k="name" v="Ørntinden" />
		<tag k="natural" v="hill" />
		<tag k="place" v="locality" />
		<tag k="ssr:stedsnr" v="260581" />
	</node>
	<node lat="68.2593499990029" lon="14.844180556458412" id="-21704">
		<tag k="fixme" v="consider natural=peak for the most distinct mountains in the district" />
		<tag k="name" v="Heggedalstinden" />
		<tag k="natural" v="hill" />
		<tag k="place" v="locality" />
		<tag k="ssr:stedsnr" v="260680" />
	</node>
	<node lat="68.24373611247374" lon="14.313630566179453" id="-21710">
		<tag k="name" v="Lillehaugen" />
		<tag k="natural" v="hill" />
		<tag k="place" v="locality" />
		<tag k="ssr:stedsnr" v="178605" />
	</node>
	<node lat="68.32759166670009" lon="14.363761118896006" id="-21711">
		<tag k="fixme" v="consider natural=peak for the most distinct mountains in the district" />
		<tag k="name" v="Ørnen" />
		<tag k="natural" v="hill" />
		<tag k="place" v="locality" />
		<tag k="ssr:stedsnr" v="179702" />
	</node>
	<node lat="68.32178889207438" lon="14.39257223370156" id="-21712">
		<tag k="name" v="Hamran" />
		<tag k="natural" v="hill" />
		<tag k="place" v="locality" />
		<tag k="ssr:stedsnr" v="179707" />
	</node>
	<node lat="68.29178889234271" lon="14.361608345459713" id="-21714">
		<tag k="name" v="Rypsnarryggen" />
		<tag k="natural" v="ridge" />
		<tag k="place" v="locality" />
		<tag k="ssr:stedsnr" v="179720" />
	</node>
	<node lat="68.27692500378168" lon="14.366286109158189" id="-21715">
		<tag k="name" v="Svartfloget" />
		<tag k="natural" v="hill" />
		<tag k="place" v="locality" />
		<tag k="ssr:stedsnr" v="179665" />
	</node>
	<node lat="68.20968888614375" lon="14.748186116338324" id="-21730">
		<tag k="fixme" v="consider natural=peak for the most distinct mountains in the district" />
		<tag k="name" v="Hellandsgeita" />
		<tag k="natural" v="hill" />
		<tag k="place" v="locality" />
		<tag k="ssr:stedsnr" v="198210" />
	</node>
	<node lat="68.21106110763589" lon="14.795780551827272" id="-21746">
		<tag k="name" v="Finnkonhaugen" />
		<tag k="natural" v="hill" />
		<tag k="place" v="locality" />
		<tag k="ssr:stedsnr" v="199269" />
	</node>
	<node lat="68.21169167037928" lon="14.773647232484928" id="-21747">
		<tag k="fixme" v="consider natural=peak for the most distinct mountains in the district" />
		<tag k="name" v="Bjørndalsheia" />
		<tag k="natural" v="hill" />
		<tag k="place" v="locality" />
		<tag k="ssr:stedsnr" v="199270" />
	</node>
	<node lat="68.35164166509792" lon="14.514077770764787" id="-21750">
		<tag k="name" v="Rangeldalen" />
		<tag k="natural" v="valley" />
		<tag k="place" v="locality" />
		<tag k="ssr:stedsnr" v="199403" />
	</node>
	<node lat="68.25497499802522" lon="14.847113895398737" id="-21758">
		<tag k="name" v="Skreddalen" />
		<tag k="natural" v="valley" />
		<tag k="place" v="locality" />
		<tag k="ssr:stedsnr" v="199703" />
	</node>
	<node lat="68.28373888880343" lon="14.430830553575928" id="-21759">
		<tag k="fixme" v="consider natural=peak for the most distinct mountains in the district" />
		<tag k="name" v="Kroktinden" />
		<tag k="natural" v="hill" />
		<tag k="place" v="locality" />
		<tag k="ssr:stedsnr" v="199607" />
	</node>
	<node lat="68.30665555250319" lon="14.157208334137888" id="-21776">
		<tag k="name" v="Rishaugen" />
		<tag k="natural" v="hill" />
		<tag k="place" v="locality" />
		<tag k="ssr:stedsnr" v="210110" />
	</node>
	<node lat="68.31877499700465" lon="14.109216673055993" id="-21789">
		<tag k="name" v="Finnhaugen" />
		<tag k="natural" v="hill" />
		<tag k="place" v="locality" />
		<tag k="ssr:stedsnr" v="221402" />
	</node>
	<node lat="68.33261944027936" lon="14.128166669809845" id="-21790">
		<tag k="name" v="Akselskarhaugan" />
		<tag k="natural" v="hill" />
		<tag k="place" v="locality" />
		<tag k="ssr:stedsnr" v="221410" />
	</node>
	<node lat="68.3430638864933" lon="14.491338890956698" id="-21793">
		<tag k="name" v="Rishaugen" />
		<tag k="natural" v="hill" />
		<tag k="place" v="locality" />
		<tag k="ssr:stedsnr" v="222906" />
	</node>
	<node lat="68.31584722664725" lon="14.577338879624879" id="-21795">
		<tag k="fixme" v="consider natural=peak for the most distinct mountains in the district" />
		<tag k="name" v="Engbæråsan" />
		<tag k="natural" v="hill" />
		<tag k="place" v="locality" />
		<tag k="ssr:stedsnr" v="222926" />
	</node>
	<node lat="68.38790555621259" lon="14.502233335002805" id="-21796">
		<tag k="name" v="Dalhammaren" />
		<tag k="natural" v="hill" />
		<tag k="place" v="locality" />
		<tag k="ssr:stedsnr" v="222980" />
	</node>
	<node lat="68.38981110950706" lon="14.500294442566672" id="-21797">
		<tag k="fixme" v="consider natural=peak for the most distinct mountains in the district" />
		<tag k="name" v="Dalåsen" />
		<tag k="natural" v="hill" />
		<tag k="place" v="locality" />
		<tag k="ssr:stedsnr" v="222981" />
	</node>
	<node lat="68.31089722291475" lon="15.044399990322274" id="-21810">
		<tag k="name" v="Blåbergan" />
		<tag k="natural" v="hill" />
		<tag k="place" v="locality" />
		<tag k="ssr:stedsnr" v="450072" />
	</node>
	<node lat="68.32418333464871" lon="15.082938883736533" id="-21813">
		<tag k="name" v="Botten" />
		<tag k="natural" v="valley" />
		<tag k="place" v="locality" />
		<tag k="ssr:stedsnr" v="450130" />
	</node>
	<node lat="68.31784167066597" lon="15.075341670092278" id="-21814">
		<tag k="fixme" v="consider natural=peak for the most distinct mountains in the district" />
		<tag k="name" v="Meåsen" />
		<tag k="natural" v="hill" />
		<tag k="place" v="locality" />
		<tag k="ssr:stedsnr" v="450132" />
	</node>
	<node lat="68.3211944452691" lon="15.0719472107579" id="-21815">
		<tag k="name" v="Skjellhaugen" />
		<tag k="natural" v="hill" />
		<tag k="place" v="locality" />
		<tag k="ssr:stedsnr" v="450137" />
	</node>
	<node lat="68.26984722020788" lon="15.024044449921671" id="-21816">
		<tag k="name" v="Fjøshaugen" />
		<tag k="natural" v="hill" />
		<tag k="place" v="locality" />
		<tag k="ssr:stedsnr" v="450145" />
	</node>
	<node lat="68.3327277805646" lon="14.0995944455912" id="-21817">
		<tag k="name" v="Taraldlia" />
		<tag k="natural" v="slope" />
		<tag k="place" v="locality" />
		<tag k="ssr:stedsnr" v="237478" />
	</node>
	<node lat="68.24441389319723" lon="14.302149993258007" id="-21819">
		<tag k="name" v="Storhaugen" />
		<tag k="natural" v="hill" />
		<tag k="place" v="locality" />
		<tag k="ssr:stedsnr" v="239624" />
	</node>
	<node lat="68.25299166769138" lon="14.3024916725714" id="-21820">
		<tag k="name" v="Storhaugen" />
		<tag k="natural" v="hill" />
		<tag k="place" v="locality" />
		<tag k="ssr:stedsnr" v="239694" />
	</node>
	<node lat="68.25676666400707" lon="14.321680565634058" id="-21821">
		<tag k="name" v="Smålihellaren" />
		<tag k="place" v="locality" />
		<tag k="ssr:stedsnr" v="239700" />
	</node>
	<node lat="68.32578055610678" lon="14.143133332153392" id="-21852">
		<tag k="name" v="Storraet" />
		<tag k="place" v="locality" />
		<tag k="ssr:stedsnr" v="259072" />
	</node>
	<node lat="68.24816944242856" lon="14.618655547874592" id="-21864">
		<tag k="fixme" v="consider natural=peak for the most distinct mountains in the district" />
		<tag k="name" v="Svolen" />
		<tag k="natural" v="hill" />
		<tag k="place" v="locality" />
		<tag k="ssr:stedsnr" v="259246" />
	</node>
	<node lat="68.33982222494762" lon="14.542930554785476" id="-21870">
		<tag k="name" v="Smålian" />
		<tag k="natural" v="slope" />
		<tag k="place" v="locality" />
		<tag k="ssr:stedsnr" v="259426" />
	</node>
	<node lat="68.30225555388145" lon="14.779505558433819" id="-21871">
		<tag k="name" v="Snøskaret" />
		<tag k="natural" v="valley" />
		<tag k="place" v="locality" />
		<tag k="ssr:stedsnr" v="259510" />
	</node>
	<node lat="68.32594722600653" lon="15.031488881234184" id="-21880">
		<tag k="fixme" v="consider natural=peak for the most distinct mountains in the district" />
		<tag k="name" v="Ostinden" />
		<tag k="natural" v="hill" />
		<tag k="place" v="locality" />
		<tag k="ssr:stedsnr" v="259934" />
	</node>
	<node lat="68.29999166715008" lon="14.196961101990752" id="-21885">
		<tag k="fixme" v="consider natural=peak for the most distinct mountains in the district" />
		<tag k="name" v="Vinjeaksla" />
		<tag k="natural" v="hill" />
		<tag k="place" v="locality" />
		<tag k="ssr:stedsnr" v="260057" />
	</node>
	<node lat="68.30024166813114" lon="14.236972234040723" id="-21886">
		<tag k="fixme" v="consider natural=peak for the most distinct mountains in the district" />
		<tag k="name" v="Ørntinden" />
		<tag k="natural" v="hill" />
		<tag k="place" v="locality" />
		<tag k="ssr:stedsnr" v="260059" />
	</node>
	<node lat="68.27289999714728" lon="14.357633331181358" id="-21897">
		<tag k="fixme" v="consider natural=peak for the most distinct mountains in the district" />
		<tag k="name" v="Storåsen" />
		<tag k="natural" v="hill" />
		<tag k="place" v="locality" />
		<tag k="ssr:stedsnr" v="260306" />
	</node>
	<node lat="68.19893611091183" lon="14.363783340884549" id="-21903">
		<tag k="fixme" v="consider natural=peak for the most distinct mountains in the district" />
		<tag k="name" v="Søråsen" />
		<tag k="natural" v="hill" />
		<tag k="place" v="locality" />
		<tag k="ssr:stedsnr" v="260516" />
	</node>
	<node lat="68.32024166192906" lon="14.686680566162382" id="-21904">
		<tag k="alt_name" v="Kolnesdalen" />
		<tag k="name" v="Konesdalen" />
		<tag k="natural" v="valley" />
		<tag k="place" v="locality" />
		<tag k="ssr:stedsnr" v="260554" />
	</node>
	<node lat="68.29141110800398" lon="14.943669452198701" id="-21921">
		<tag k="name" v="Ulvågtuven" />
		<tag k="natural" v="hill" />
		<tag k="place" v="locality" />
		<tag k="ssr:stedsnr" v="268671" />
	</node>
	<node lat="68.30218888620561" lon="15.100919440533856" id="-21923">
		<tag k="name" v="Hamnhaugen" />
		<tag k="natural" v="hill" />
		<tag k="place" v="locality" />
		<tag k="ssr:stedsnr" v="269706" />
	</node>
	<node lat="68.38085000215145" lon="14.490811106908732" id="-21941">
		<tag k="name" v="Bjørnlia" />
		<tag k="natural" v="slope" />
		<tag k="place" v="locality" />
		<tag k="ssr:stedsnr" v="283771" />
	</node>
	<node lat="68.39414999643023" lon="14.49654722120101" id="-21942">
		<tag k="name" v="Slettberget" />
		<tag k="natural" v="hill" />
		<tag k="place" v="locality" />
		<tag k="ssr:stedsnr" v="283777" />
	</node>
	<node lat="68.32087222691793" lon="14.56746943381261" id="-21944">
		<tag k="name" v="Blåhammaren" />
		<tag k="natural" v="hill" />
		<tag k="place" v="locality" />
		<tag k="ssr:stedsnr" v="283932" />
	</node>
	<node lat="68.20467777721265" lon="14.266358330289709" id="-21948">
		<tag k="fixme" v="consider natural=peak for the most distinct mountains in the district" />
		<tag k="name" v="Sørfjellet" />
		<tag k="natural" v="hill" />
		<tag k="place" v="locality" />
		<tag k="ssr:stedsnr" v="287014" />
	</node>
	<node lat="68.32026111359616" lon="14.358458340559356" id="-21957">
		<tag k="name" v="Daljorda" />
		<tag k="place" v="locality" />
		<tag k="ssr:stedsnr" v="300720" />
	</node>
	<node lat="68.26908611243313" lon="14.336297210820975" id="-21960">
		<tag k="name" v="Grønntinddalen" />
		<tag k="natural" v="valley" />
		<tag k="place" v="locality" />
		<tag k="ssr:stedsnr" v="300677" />
	</node>
	<node lat="68.32011388585316" lon="14.154455547360495" id="-21961">
		<tag k="name" v="Ol-Andersahaugen" />
		<tag k="natural" v="hill" />
		<tag k="place" v="locality" />
		<tag k="ssr:stedsnr" v="301274" />
	</node>
	<node lat="68.24676944311862" lon="14.813172230446348" id="-21965">
		<tag k="fixme" v="consider natural=peak for the most distinct mountains in the district" />
		<tag k="name" v="Haversandfjellan" />
		<tag k="natural" v="hill" />
		<tag k="place" v="locality" />
		<tag k="ssr:stedsnr" v="302823" />
	</node>
	<node lat="68.31295555388176" lon="14.111238878237382" id="-21969">
		<tag k="name" v="Flathaugan" />
		<tag k="natural" v="hill" />
		<tag k="place" v="locality" />
		<tag k="ssr:stedsnr" v="464449" />
	</node>
	<node lat="68.33165833113117" lon="14.13854166214053" id="-21970">
		<tag k="name" v="Hallingshaugen" />
		<tag k="natural" v="hill" />
		<tag k="place" v="locality" />
		<tag k="ssr:stedsnr" v="464452" />
	</node>
	<node lat="68.33554444071447" lon="14.520902782297796" id="-21971">
		<tag k="name" v="Lille Lapphaugen" />
		<tag k="natural" v="hill" />
		<tag k="place" v="locality" />
		<tag k="ssr:stedsnr" v="464948" />
	</node>
	<node lat="68.3968805533066" lon="14.501500008468307" id="-21972">
		<tag k="name" v="Einhaugen" />
		<tag k="natural" v="hill" />
		<tag k="place" v="locality" />
		<tag k="ssr:stedsnr" v="465771" />
	</node>
	<node lat="68.39989444764564" lon="14.49790556046989" id="-21973">
		<tag k="name" v="Glassberget" />
		<tag k="natural" v="hill" />
		<tag k="place" v="locality" />
		<tag k="ssr:stedsnr" v="465778" />
	</node>
	<node lat="68.37586666936554" lon="14.481122212555617" id="-21974">
		<tag k="name" v="Geithallaren" />
		<tag k="place" v="locality" />
		<tag k="ssr:stedsnr" v="465786" />
	</node>
	<node lat="68.33679444784892" lon="14.332399996844028" id="-21987">
		<tag k="name" v="Halshola" />
		<tag k="place" v="locality" />
		<tag k="ssr:stedsnr" v="320070" />
	</node>
	<node lat="68.37883610638382" lon="14.486625010528325" id="-22003">
		<tag k="fixme" v="consider natural=peak for the most distinct mountains in the district" />
		<tag k="name" v="Slettåsen" />
		<tag k="natural" v="hill" />
		<tag k="place" v="locality" />
		<tag k="ssr:stedsnr" v="320444" />
	</node>
	<node lat="68.23346389327064" lon="14.32850833757935" id="-22006">
		<tag k="fixme" v="multiple name tags, choose one and add the other to alt_name; consider natural=peak for the most distinct mountains in the district" />
		<tag k="name" v="Omntinden;Svarttinden" />
		<tag k="natural" v="hill" />
		<tag k="place" v="locality" />
		<tag k="ssr:stedsnr" v="320608" />
	</node>
	<node lat="68.26130277732331" lon="14.902352776543308" id="-22007">
		<tag k="fixme" v="consider natural=peak for the most distinct mountains in the district" />
		<tag k="name" v="Nova" />
		<tag k="natural" v="hill" />
		<tag k="place" v="locality" />
		<tag k="ssr:stedsnr" v="320637" />
	</node>
	<node lat="68.29323055356676" lon="14.908002773121492" id="-22010">
		<tag k="name" v="Hamntindskaret" />
		<tag k="natural" v="valley" />
		<tag k="place" v="locality" />
		<tag k="ssr:stedsnr" v="320589" />
	</node>
	<node lat="68.27431111478677" lon="15.018233338779455" id="-22023">
		<tag k="name" v="Melkebakken" />
		<tag k="natural" v="slope" />
		<tag k="place" v="locality" />
		<tag k="ssr:stedsnr" v="329208" />
	</node>
	<node lat="68.39217222410505" lon="14.477391673368983" id="-22044">
		<tag k="name" v="Naustvikhaugen" />
		<tag k="natural" v="hill" />
		<tag k="place" v="locality" />
		<tag k="ssr:stedsnr" v="343810" />
	</node>
	<node lat="68.29456666633227" lon="14.257608324701215" id="-22045">
		<tag k="name" v="Melksletta" />
		<tag k="place" v="locality" />
		<tag k="ssr:stedsnr" v="345308" />
	</node>
	<node lat="68.30023888965857" lon="14.258005559074155" id="-22046">
		<tag k="name" v="Kammersan" />
		<tag k="natural" v="hill" />
		<tag k="place" v="locality" />
		<tag k="ssr:stedsnr" v="345310" />
	</node>
	<node lat="68.29746388604148" lon="14.259475004129465" id="-22047">
		<tag k="name" v="Lillelia" />
		<tag k="natural" v="slope" />
		<tag k="place" v="locality" />
		<tag k="ssr:stedsnr" v="345315" />
	</node>
	<node lat="68.3024972195986" lon="14.257833336841179" id="-22048">
		<tag k="name" v="Ytterraet" />
		<tag k="natural" v="ridge" />
		<tag k="place" v="locality" />
		<tag k="ssr:stedsnr" v="345324" />
	</node>
	<node lat="68.33063611519074" lon="14.097858338486642" id="-22051">
		<tag k="name" v="Taraldhaugen" />
		<tag k="natural" v="hill" />
		<tag k="place" v="locality" />
		<tag k="ssr:stedsnr" v="358452" />
	</node>
	<node lat="68.29294722482219" lon="14.69485555897037" id="-22055">
		<tag k="name" v="Solbakken" />
		<tag k="natural" v="slope" />
		<tag k="place" v="locality" />
		<tag k="ssr:stedsnr" v="480824" />
	</node>
	<node lat="68.31521111351097" lon="15.019605561038658" id="-22057">
		<tag k="fixme" v="consider natural=peak for the most distinct mountains in the district" />
		<tag k="name" v="Keiservarden" />
		<tag k="natural" v="hill" />
		<tag k="place" v="locality" />
		<tag k="ssr:stedsnr" v="380003" />
	</node>
	<node lat="68.31804166454032" lon="14.149049998036489" id="-22063">
		<tag k="name" v="Tohaugan" />
		<tag k="natural" v="hill" />
		<tag k="place" v="locality" />
		<tag k="ssr:stedsnr" v="380125" />
	</node>
	<node lat="68.33926110750355" lon="14.496258339836496" id="-22069">
		<tag k="fixme" v="consider natural=peak for the most distinct mountains in the district" />
		<tag k="name" v="Sandslettåsen" />
		<tag k="natural" v="hill" />
		<tag k="place" v="locality" />
		<tag k="ssr:stedsnr" v="380408" />
	</node>
	<node lat="68.35180555939709" lon="15.216522233718905" id="-22100">
		<tag k="name" v="Grønlia" />
		<tag k="natural" v="slope" />
		<tag k="place" v="locality" />
		<tag k="ssr:stedsnr" v="381907" />
	</node>
	<node lat="68.34444166411475" lon="15.194019437067402" id="-22104">
		<tag k="fixme" v="consider natural=peak for the most distinct mountains in the district" />
		<tag k="name" v="Stortinden" />
		<tag k="natural" v="hill" />
		<tag k="place" v="locality" />
		<tag k="ssr:stedsnr" v="381978" />
	</node>
	<node lat="68.27920833057239" lon="14.362952767874898" id="-22106">
		<tag k="name" v="Nordhumpen" />
		<tag k="natural" v="hill" />
		<tag k="place" v="locality" />
		<tag k="ssr:stedsnr" v="482659" />
	</node>
	<node lat="68.2553777789164" lon="14.30718334406255" id="-22107">
		<tag k="name" v="Dalhaugen" />
		<tag k="natural" v="hill" />
		<tag k="place" v="locality" />
		<tag k="ssr:stedsnr" v="482669" />
	</node>
	<node lat="68.32159722051188" lon="14.33534999876262" id="-22108">
		<tag k="name" v="Storbrekka" />
		<tag k="natural" v="slope" />
		<tag k="place" v="locality" />
		<tag k="ssr:stedsnr" v="482693" />
	</node>
	<node lat="68.36528889005253" lon="14.435766655728662" id="-22109">
		<tag k="name" v="Røyneshaugen" />
		<tag k="natural" v="hill" />
		<tag k="place" v="locality" />
		<tag k="ssr:stedsnr" v="482732" />
	</node>
	<node lat="68.31437222126208" lon="14.177319435466336" id="-22119">
		<tag k="name" v="Årvåghaugan" />
		<tag k="natural" v="hill" />
		<tag k="place" v="locality" />
		<tag k="ssr:stedsnr" v="386156" />
	</node>
	<node lat="68.26589722304493" lon="15.006169456388713" id="-22120">
		<tag k="name" v="Nausthaugen" />
		<tag k="natural" v="hill" />
		<tag k="place" v="locality" />
		<tag k="ssr:stedsnr" v="389194" />
	</node>
	<node lat="68.31819166750131" lon="14.157266658767256" id="-22121">
		<tag k="name" v="Piggenhaugen" />
		<tag k="natural" v="hill" />
		<tag k="place" v="locality" />
		<tag k="ssr:stedsnr" v="483331" />
	</node>
	<node lat="68.28941666655538" lon="14.250991678148319" id="-22125">
		<tag k="fixme" v="consider natural=peak for the most distinct mountains in the district" />
		<tag k="name" v="Indre Neråsen" />
		<tag k="natural" v="hill" />
		<tag k="place" v="locality" />
		<tag k="ssr:stedsnr" v="483345" />
	</node>
	<node lat="68.28931111308584" lon="15.027802767488113" id="-22127">
		<tag k="name" v="Trondalen" />
		<tag k="natural" v="valley" />
		<tag k="place" v="locality" />
		<tag k="ssr:stedsnr" v="389902" />
	</node>
	<node lat="68.30254722477422" lon="15.010408322825253" id="-22129">
		<tag k="name" v="Ytterhaugen" />
		<tag k="natural" v="hill" />
		<tag k="place" v="locality" />
		<tag k="ssr:stedsnr" v="389858" />
	</node>
	<node lat="68.38756389005343" lon="14.455699994040605" id="-22132">
		<tag k="name" v="Åkerhaugen" />
		<tag k="natural" v="hill" />
		<tag k="place" v="locality" />
		<tag k="ssr:stedsnr" v="483587" />
	</node>
	<node lat="68.3923472222756" lon="14.445950011680203" id="-22133">
		<tag k="name" v="Brekkhaugen" />
		<tag k="natural" v="hill" />
		<tag k="place" v="locality" />
		<tag k="ssr:stedsnr" v="483588" />
	</node>
	<node lat="68.2391472190012" lon="14.799894448029976" id="-22149">
		<tag k="fixme" v="consider natural=peak for the most distinct mountains in the district" />
		<tag k="name" v="Stornakken" />
		<tag k="natural" v="hill" />
		<tag k="place" v="locality" />
		<tag k="ssr:stedsnr" v="484850" />
	</node>
	<node lat="68.31075555482882" lon="14.50951943921064" id="-22155">
		<tag k="name" v="Austerdalen" />
		<tag k="natural" v="valley" />
		<tag k="place" v="locality" />
		<tag k="ssr:stedsnr" v="404881" />
	</node>
	<node lat="68.28237500390954" lon="14.252602790463504" id="-22164">
		<tag k="fixme" v="consider natural=peak for the most distinct mountains in the district" />
		<tag k="name" v="Trolldalåsen" />
		<tag k="natural" v="hill" />
		<tag k="place" v="locality" />
		<tag k="ssr:stedsnr" v="423340" />
	</node>
	<node lat="68.27756389120489" lon="14.214988878512688" id="-22166">
		<tag k="name" v="Botnsletta" />
		<tag k="place" v="locality" />
		<tag k="ssr:stedsnr" v="423350" />
	</node>
	<node lat="68.28951389214275" lon="14.228966662374518" id="-22167">
		<tag k="fixme" v="consider natural=peak for the most distinct mountains in the district" />
		<tag k="name" v="Silen" />
		<tag k="natural" v="hill" />
		<tag k="place" v="locality" />
		<tag k="ssr:stedsnr" v="423357" />
	</node>
	<node lat="68.31768333191451" lon="15.059202783372225" id="-22168">
		<tag k="name" v="Varglia" />
		<tag k="natural" v="slope" />
		<tag k="place" v="locality" />
		<tag k="ssr:stedsnr" v="441004" />
	</node>
	<node lat="68.3222805519126" lon="14.379077771304393" id="-22169">
		<tag k="fixme" v="consider natural=peak for the most distinct mountains in the district" />
		<tag k="name" v="Durmålstinden" />
		<tag k="natural" v="hill" />
		<tag k="place" v="locality" />
		<tag k="ssr:stedsnr" v="441088" />
	</node>
	<node lat="68.1792527742842" lon="14.729291655953203" id="-22173">
		<tag k="name" v="Bukkspranget" />
		<tag k="natural" v="slope" />
		<tag k="place" v="locality" />
		<tag k="ssr:stedsnr" v="441140" />
	</node>
	<node lat="68.33940833105528" lon="14.625650000329534" id="-22181">
		<tag k="fixme" v="consider natural=peak for the most distinct mountains in the district" />
		<tag k="name" v="Baken" />
		<tag k="natural" v="hill" />
		<tag k="place" v="locality" />
		<tag k="ssr:stedsnr" v="441385" />
	</node>
	<node lat="68.21530277412684" lon="14.756336100513003" id="-22190">
		<tag k="name" v="Vestredalen" />
		<tag k="natural" v="valley" />
		<tag k="place" v="locality" />
		<tag k="ssr:stedsnr" v="442246" />
	</node>
	<node lat="68.19515833669328" lon="14.314044440687997" id="-22194">
		<tag k="fixme" v="consider natural=peak for the most distinct mountains in the district" />
		<tag k="name" v="Kjerringa" />
		<tag k="natural" v="hill" />
		<tag k="place" v="locality" />
		<tag k="ssr:stedsnr" v="442407" />
	</node>
	<node lat="68.29233889250784" lon="14.809302770427557" id="-22198">
		<tag k="name" v="Eiterådalen" />
		<tag k="natural" v="valley" />
		<tag k="place" v="locality" />
		<tag k="ssr:stedsnr" v="442605" />
	</node>
	<node lat="68.29047499654216" lon="14.81495555521959" id="-22202">
		<tag k="name" v="Skarberget" />
		<tag k="natural" v="hill" />
		<tag k="place" v="locality" />
		<tag k="ssr:stedsnr" v="442595" />
	</node>
	<node lat="68.2134694489242" lon="14.487480545740265" id="-22208">
		<tag k="alt_name" v="Nauthalsen" />
		<tag k="name" v="Nausthalsen" />
		<tag k="natural" v="valley" />
		<tag k="place" v="locality" />
		<tag k="ssr:stedsnr" v="446228" />
	</node>
	<node lat="68.30446388598595" lon="15.013030546424762" id="-22218">
		<tag k="name" v="Børrelhaugen" />
		<tag k="natural" v="hill" />
		<tag k="place" v="locality" />
		<tag k="ssr:stedsnr" v="450867" />
	</node>
	<node lat="68.29077777391754" lon="15.019877767559041" id="-22219">
		<tag k="name" v="Kisten" />
		<tag k="natural" v="hill" />
		<tag k="place" v="locality" />
		<tag k="ssr:stedsnr" v="450880" />
	</node>
	<node lat="68.27962499745253" lon="14.98587778053681" id="-22220">
		<tag k="name" v="Spegelen" />
		<tag k="natural" v="hill" />
		<tag k="place" v="locality" />
		<tag k="ssr:stedsnr" v="451675" />
	</node>
	<node lat="68.33721944603927" lon="14.507661109216718" id="-22235">
		<tag k="fixme" v="consider natural=peak for the most distinct mountains in the district" />
		<tag k="name" v="Linakken" />
		<tag k="natural" v="hill" />
		<tag k="place" v="locality" />
		<tag k="ssr:stedsnr" v="464921" />
	</node>
	<node lat="68.32828333250882" lon="14.118941676192904" id="-22240">
		<tag k="name" v="Tverraksla" />
		<tag k="natural" v="ridge" />
		<tag k="place" v="locality" />
		<tag k="ssr:stedsnr" v="479467" />
	</node>
	<node lat="68.38969444175545" lon="14.4146999959805" id="-22246">
		<tag k="name" v="Hestberget" />
		<tag k="natural" v="hill" />
		<tag k="place" v="locality" />
		<tag k="ssr:stedsnr" v="483561" />
	</node>
	<node lat="68.26436944255416" lon="14.366341658767245" id="-22252">
		<tag k="fixme" v="consider natural=peak for the most distinct mountains in the district" />
		<tag k="name" v="Kvitåsen" />
		<tag k="natural" v="hill" />
		<tag k="place" v="locality" />
		<tag k="ssr:stedsnr" v="502115" />
	</node>
	<node lat="68.21104444734853" lon="14.760738884901492" id="-22253">
		<tag k="fixme" v="consider natural=peak for the most distinct mountains in the district" />
		<tag k="name" v="Sprangtinden" />
		<tag k="natural" v="hill" />
		<tag k="place" v="locality" />
		<tag k="ssr:stedsnr" v="502206" />
	</node>
	<node lat="68.27821944455643" lon="14.382080564024882" id="-22267">
		<tag k="name" v="Erikdalen" />
		<tag k="natural" v="valley" />
		<tag k="place" v="locality" />
		<tag k="ssr:stedsnr" v="502192" />
	</node>
	<node lat="68.34149444802293" lon="14.515263900037244" id="-22272">
		<tag k="fixme" v="consider natural=peak for the most distinct mountains in the district" />
		<tag k="name" v="Omndalsheia" />
		<tag k="natural" v="hill" />
		<tag k="place" v="locality" />
		<tag k="ssr:stedsnr" v="502387" />
	</node>
	<node lat="68.34618611346646" lon="14.68756944998899" id="-22273">
		<tag k="fixme" v="consider natural=peak for the most distinct mountains in the district" />
		<tag k="name" v="Glåmen" />
		<tag k="natural" v="hill" />
		<tag k="place" v="locality" />
		<tag k="ssr:stedsnr" v="502388" />
	</node>
	<node lat="68.29187777790499" lon="14.632469439068988" id="-22275">
		<tag k="name" v="Hellskardalen" />
		<tag k="natural" v="valley" />
		<tag k="place" v="locality" />
		<tag k="ssr:stedsnr" v="502602" />
	</node>
	<node lat="68.25447500026081" lon="14.44652776976896" id="-22276">
		<tag k="name" v="Kilometerbakken" />
		<tag k="natural" v="slope" />
		<tag k="place" v="locality" />
		<tag k="ssr:stedsnr" v="502675" />
	</node>
	<node lat="68.2556916688436" lon="14.879108342603297" id="-22278">
		<tag k="fixme" v="consider natural=peak for the most distinct mountains in the district" />
		<tag k="name" v="Per Sjursatinden" />
		<tag k="natural" v="hill" />
		<tag k="place" v="locality" />
		<tag k="ssr:stedsnr" v="502696" />
	</node>
	<node lat="68.26866388825196" lon="14.891961118646906" id="-22280">
		<tag k="fixme" v="consider natural=peak for the most distinct mountains in the district" />
		<tag k="name" v="Storlitinden" />
		<tag k="natural" v="hill" />
		<tag k="place" v="locality" />
		<tag k="ssr:stedsnr" v="502591" />
	</node>
	<node lat="68.2910888881807" lon="14.943513888599506" id="-22281">
		<tag k="fixme" v="consider natural=peak for the most distinct mountains in the district" />
		<tag k="name" v="Storlikollen" />
		<tag k="natural" v="hill" />
		<tag k="place" v="locality" />
		<tag k="ssr:stedsnr" v="502592" />
	</node>
	<node lat="68.35002221764381" lon="15.159883337145068" id="-22283">
		<tag k="name" v="Gunnarkilskaret" />
		<tag k="natural" v="valley" />
		<tag k="place" v="locality" />
		<tag k="ssr:stedsnr" v="502893" />
	</node>
	<node lat="68.28285277504305" lon="15.041069433214727" id="-22294">
		<tag k="fixme" v="consider natural=peak for the most distinct mountains in the district" />
		<tag k="name" v="Åsan" />
		<tag k="natural" v="hill" />
		<tag k="place" v="locality" />
		<tag k="ssr:stedsnr" v="510172" />
	</node>
	<node lat="68.30650833430046" lon="15.084122227251594" id="-22298">
		<tag k="name" v="Smålien" />
		<tag k="natural" v="slope" />
		<tag k="place" v="locality" />
		<tag k="ssr:stedsnr" v="511617" />
	</node>
	<node lat="68.19606666943461" lon="14.755199990801913" id="-22309">
		<tag k="fixme" v="consider natural=peak for the most distinct mountains in the district" />
		<tag k="name" v="Nonstinden" />
		<tag k="natural" v="hill" />
		<tag k="place" v="locality" />
		<tag k="ssr:stedsnr" v="684137" />
	</node>
	<node lat="68.33390833127922" lon="14.357577766998089" id="-22310">
		<tag k="fixme" v="consider natural=peak for the most distinct mountains in the district" />
		<tag k="name" v="Festvågtinden" />
		<tag k="natural" v="hill" />
		<tag k="place" v="locality" />
		<tag k="ssr:stedsnr" v="684075" />
	</node>
	<node lat="68.24351944022906" lon="14.81395277097181" id="-22319">
		<tag k="fixme" v="multiple name tags, choose one and add the other to alt_name; consider natural=peak for the most distinct mountains in the district" />
		<tag k="name" v="Stangtinden;Haversandtinden" />
		<tag k="natural" v="hill" />
		<tag k="place" v="locality" />
		<tag k="ssr:stedsnr" v="684281" />
	</node>
	<node lat="68.27218055733812" lon="14.194638884929159" id="-22322">
		<tag k="fixme" v="consider natural=peak for the most distinct mountains in the district" />
		<tag k="name" v="Sundklakktinden" />
		<tag k="natural" v="hill" />
		<tag k="place" v="locality" />
		<tag k="ssr:stedsnr" v="684229" />
	</node>
	<node lat="68.34269166589768" lon="14.620661122660849" id="-22330">
		<tag k="name" v="Hundhola" />
		<tag k="natural" v="valley" />
		<tag k="place" v="locality" />
		<tag k="ssr:stedsnr" v="684390" />
	</node>
	<node lat="68.36879722373068" lon="14.663775010888989" id="-22337">
		<tag k="fixme" v="multiple name tags, choose one and add the other to alt_name; consider natural=peak for the most distinct mountains in the district" />
		<tag k="name" v="Durmålstinden;Pilan" />
		<tag k="natural" v="hill" />
		<tag k="place" v="locality" />
		<tag k="ssr:stedsnr" v="684487" />
	</node>
	<node lat="68.31651110791923" lon="14.445730551875965" id="-22345">
		<tag k="fixme" v="multiple name tags, choose one and add the other to alt_name; consider natural=peak for the most distinct mountains in the district" />
		<tag k="name" v="Blålyngen;Blålyngtinden" />
		<tag k="natural" v="hill" />
		<tag k="place" v="locality" />
		<tag k="ssr:stedsnr" v="684538" />
	</node>
	<node lat="68.21139999728807" lon="14.827222209422358" id="-22349">
		<tag k="name" v="Veten" />
		<tag k="natural" v="hill" />
		<tag k="place" v="locality" />
		<tag k="ssr:stedsnr" v="684844" />
	</node>
	<node lat="68.29856389313582" lon="14.256797230713175" id="-22365">
		<tag k="name" v="Flottan" />
		<tag k="natural" v="hill" />
		<tag k="place" v="locality" />
		<tag k="ssr:stedsnr" v="527324" />
	</node>
	<node lat="68.29450833221875" lon="14.23061666812399" id="-22366">
		<tag k="name" v="Vasslien" />
		<tag k="natural" v="slope" />
		<tag k="place" v="locality" />
		<tag k="ssr:stedsnr" v="527327" />
	</node>
	<node lat="68.30863889185824" lon="14.247063888597571" id="-22367">
		<tag k="fixme" v="consider natural=peak for the most distinct mountains in the district" />
		<tag k="name" v="Dalåsen" />
		<tag k="natural" v="hill" />
		<tag k="place" v="locality" />
		<tag k="ssr:stedsnr" v="527333" />
	</node>
	<node lat="68.29443610737931" lon="14.207575006566234" id="-22368">
		<tag k="fixme" v="consider natural=peak for the most distinct mountains in the district" />
		<tag k="name" v="Ytste Trolldalstind" />
		<tag k="natural" v="hill" />
		<tag k="place" v="locality" />
		<tag k="ssr:stedsnr" v="527342" />
	</node>
	<node lat="68.29346110654166" lon="14.69133611777364" id="-22372">
		<tag k="name" v="Trolldalen" />
		<tag k="natural" v="valley" />
		<tag k="place" v="locality" />
		<tag k="ssr:stedsnr" v="541827" />
	</node>
	<node lat="68.31876666218093" lon="14.338658340980178" id="-22374">
		<tag k="fixme" v="consider natural=peak for the most distinct mountains in the district" />
		<tag k="name" v="Åsan" />
		<tag k="natural" v="hill" />
		<tag k="place" v="locality" />
		<tag k="ssr:stedsnr" v="543708" />
	</node>
	<node lat="68.28182221981619" lon="14.261775006443155" id="-22376">
		<tag k="name" v="Høgkleiva" />
		<tag k="natural" v="slope" />
		<tag k="place" v="locality" />
		<tag k="ssr:stedsnr" v="544317" />
	</node>
	<node lat="68.28470000091158" lon="14.233538882761868" id="-22377">
		<tag k="name" v="Gjela" />
		<tag k="natural" v="hill" />
		<tag k="place" v="locality" />
		<tag k="ssr:stedsnr" v="544322" />
	</node>
	<node lat="68.27726667100703" lon="15.02028889404156" id="-22394">
		<tag k="name" v="Dalen" />
		<tag k="natural" v="valley" />
		<tag k="place" v="locality" />
		<tag k="ssr:stedsnr" v="693235" />
	</node>
	<node lat="68.27939722254636" lon="15.045733337684872" id="-22395">
		<tag k="name" v="Reinvikrånna" />
		<tag k="place" v="locality" />
		<tag k="ssr:stedsnr" v="693236" />
	</node>
	<node lat="68.29501388677839" lon="15.070969451342254" id="-22412">
		<tag k="name" v="Lia" />
		<tag k="natural" v="slope" />
		<tag k="place" v="locality" />
		<tag k="ssr:stedsnr" v="574062" />
	</node>
	<node lat="68.31232222131665" lon="14.545977775523099" id="-22428">
		<tag k="name" v="Utjorda" />
		<tag k="place" v="locality" />
		<tag k="ssr:stedsnr" v="585911" />
	</node>
	<node lat="68.32063611112946" lon="14.555541670168013" id="-22429">
		<tag k="name" v="Ramnhammaren" />
		<tag k="natural" v="hill" />
		<tag k="place" v="locality" />
		<tag k="ssr:stedsnr" v="585917" />
	</node>
	<node lat="68.29490277366654" lon="14.260236108214311" id="-22430">
		<tag k="name" v="Brattlia" />
		<tag k="natural" v="slope" />
		<tag k="place" v="locality" />
		<tag k="ssr:stedsnr" v="587354" />
	</node>
	<node lat="68.316808336771" lon="14.717066669621504" id="-22437">
		<tag k="name" v="Støvelhaugen" />
		<tag k="natural" v="hill" />
		<tag k="place" v="locality" />
		<tag k="ssr:stedsnr" v="601813" />
	</node>
	<node lat="68.32311666401081" lon="14.709250001513771" id="-22438">
		<tag k="name" v="Neshaugan" />
		<tag k="natural" v="hill" />
		<tag k="place" v="locality" />
		<tag k="ssr:stedsnr" v="601814" />
	</node>
	<node lat="68.24995833051726" lon="14.3025833205616" id="-22440">
		<tag k="name" v="Storberget" />
		<tag k="natural" v="hill" />
		<tag k="place" v="locality" />
		<tag k="ssr:stedsnr" v="603654" />
	</node>
	<node lat="68.29110555350712" lon="14.331733338581945" id="-22442">
		<tag k="name" v="Gropa" />
		<tag k="natural" v="valley" />
		<tag k="place" v="locality" />
		<tag k="ssr:stedsnr" v="603703" />
	</node>
	<node lat="68.39503611288646" lon="14.44503056229017" id="-22449">
		<tag k="name" v="Båtvikhaugen" />
		<tag k="natural" v="hill" />
		<tag k="place" v="locality" />
		<tag k="ssr:stedsnr" v="604543" />
	</node>
	<node lat="68.35270277750294" lon="14.448105545342312" id="-22450">
		<tag k="name" v="Mosshaugen" />
		<tag k="natural" v="hill" />
		<tag k="place" v="locality" />
		<tag k="ssr:stedsnr" v="604550" />
	</node>
	<node lat="68.35029444085951" lon="14.455280543182273" id="-22452">
		<tag k="name" v="Straumhaugen" />
		<tag k="natural" v="hill" />
		<tag k="place" v="locality" />
		<tag k="ssr:stedsnr" v="604556" />
	</node>
	<node lat="68.2929138925787" lon="14.881455560787698" id="-22453">
		<tag k="name" v="Blomlia" />
		<tag k="natural" v="slope" />
		<tag k="place" v="locality" />
		<tag k="ssr:stedsnr" v="605268" />
	</node>
	<node lat="68.3220416679378" lon="15.091441665516482" id="-22457">
		<tag k="name" v="Bjørnskaret" />
		<tag k="natural" v="valley" />
		<tag k="place" v="locality" />
		<tag k="ssr:stedsnr" v="623009" />
	</node>
	<node lat="68.28212499911119" lon="14.222338895468761" id="-22461">
		<tag k="name" v="Jenndalslia" />
		<tag k="natural" v="slope" />
		<tag k="place" v="locality" />
		<tag k="ssr:stedsnr" v="623220" />
	</node>
	<node lat="68.32585277367887" lon="14.36906667340409" id="-22468">
		<tag k="fixme" v="consider natural=peak for the most distinct mountains in the district" />
		<tag k="name" v="Brynnelen" />
		<tag k="natural" v="hill" />
		<tag k="place" v="locality" />
		<tag k="ssr:stedsnr" v="623120" />
	</node>
	<node lat="68.20125277467055" lon="14.75362223334806" id="-22470">
		<tag k="name" v="Haverdalen" />
		<tag k="natural" v="valley" />
		<tag k="place" v="locality" />
		<tag k="ssr:stedsnr" v="623158" />
	</node>
	<node lat="68.1650361127897" lon="14.698386121311792" id="-22473">
		<tag k="name" v="Tuvene" />
		<tag k="natural" v="hill" />
		<tag k="place" v="locality" />
		<tag k="ssr:stedsnr" v="623183" />
	</node>
	<node lat="68.3276583314727" lon="14.663452783759876" id="-22481">
		<tag k="name" v="Kråkhaugen" />
		<tag k="natural" v="hill" />
		<tag k="place" v="locality" />
		<tag k="ssr:stedsnr" v="623415" />
	</node>
	<node lat="68.30465278032572" lon="14.538724999225998" id="-22494">
		<tag k="fixme" v="consider natural=peak for the most distinct mountains in the district" />
		<tag k="name" v="Utjordtinden" />
		<tag k="natural" v="hill" />
		<tag k="place" v="locality" />
		<tag k="ssr:stedsnr" v="623565" />
	</node>
	<node lat="68.2798361099589" lon="15.002105551481565" id="-22496">
		<tag k="fixme" v="multiple name tags, choose one and add the other to alt_name; consider natural=peak for the most distinct mountains in the district" />
		<tag k="name" v="Stortinden;Årsteintindan" />
		<tag k="natural" v="hill" />
		<tag k="place" v="locality" />
		<tag k="ssr:stedsnr" v="623584" />
	</node>
	<node lat="68.26627500008352" lon="14.47158611446272" id="-22497">
		<tag k="fixme" v="consider natural=peak for the most distinct mountains in the district" />
		<tag k="name" v="Rismålstindan" />
		<tag k="natural" v="hill" />
		<tag k="place" v="locality" />
		<tag k="ssr:stedsnr" v="623587" />
	</node>
	<node lat="68.33117777768736" lon="15.036288879715277" id="-22498">
		<tag k="name" v="Storneskjerringa" />
		<tag k="natural" v="hill" />
		<tag k="place" v="locality" />
		<tag k="ssr:stedsnr" v="623961" />
	</node>
	<node lat="68.31795277997338" lon="14.09632221553473" id="-22516">
		<tag k="name" v="Lavahaugan" />
		<tag k="natural" v="hill" />
		<tag k="place" v="locality" />
		<tag k="ssr:stedsnr" v="646432" />
	</node>
	<node lat="68.3195333352144" lon="14.55900554761047" id="-22520">
		<tag k="name" v="Storlia" />
		<tag k="natural" v="slope" />
		<tag k="place" v="locality" />
		<tag k="ssr:stedsnr" v="646913" />
	</node>
	<node lat="68.3236472209112" lon="14.551794443380969" id="-22521">
		<tag k="name" v="Svartsvaan" />
		<tag k="natural" v="hill" />
		<tag k="place" v="locality" />
		<tag k="ssr:stedsnr" v="646915" />
	</node>
	<node lat="68.36665277602707" lon="14.488405565710146" id="-22523">
		<tag k="name" v="Bekkhammaren" />
		<tag k="natural" v="hill" />
		<tag k="place" v="locality" />
		<tag k="ssr:stedsnr" v="646918" />
	</node>
	<node lat="68.3267166697494" lon="14.533122225434873" id="-22525">
		<tag k="name" v="Lillejorda" />
		<tag k="place" v="locality" />
		<tag k="ssr:stedsnr" v="648905" />
	</node>
	<node lat="68.40123611070726" lon="14.505519433972783" id="-22526">
		<tag k="name" v="Kaspersmuget" />
		<tag k="natural" v="valley" />
		<tag k="place" v="locality" />
		<tag k="ssr:stedsnr" v="707775" />
	</node>
	<node lat="68.39283611005838" lon="14.474602778627577" id="-22527">
		<tag k="name" v="Gravbergan" />
		<tag k="natural" v="hill" />
		<tag k="place" v="locality" />
		<tag k="ssr:stedsnr" v="707787" />
	</node>
	<node lat="68.22805555632738" lon="14.214077778955705" id="-22528">
		<tag k="name" v="Skiphaugen" />
		<tag k="natural" v="hill" />
		<tag k="place" v="locality" />
		<tag k="ssr:stedsnr" v="650446" />
	</node>
	<node lat="68.31416110701429" lon="14.100108323388039" id="-22529">
		<tag k="name" v="Lillevatnhaugen" />
		<tag k="natural" v="hill" />
		<tag k="place" v="locality" />
		<tag k="ssr:stedsnr" v="707448" />
	</node>
	<node lat="68.30496944157669" lon="14.096933321505905" id="-22530">
		<tag k="name" v="Grønnsæterhaugen" />
		<tag k="natural" v="hill" />
		<tag k="place" v="locality" />
		<tag k="ssr:stedsnr" v="707460" />
	</node>
	<node lat="68.26729722556833" lon="14.667344441187968" id="-22532">
		<tag k="name" v="Sandvikskaret" />
		<tag k="natural" v="valley" />
		<tag k="place" v="locality" />
		<tag k="ssr:stedsnr" v="707824" />
	</node>
	<node lat="68.36219166730542" lon="14.49295276986607" id="-22533">
		<tag k="name" v="Laukhammaren" />
		<tag k="natural" v="hill" />
		<tag k="place" v="locality" />
		<tag k="ssr:stedsnr" v="707928" />
	</node>
	<node lat="68.32317777596026" lon="14.537222223741518" id="-22535">
		<tag k="name" v="Gunnarhaugen" />
		<tag k="natural" v="hill" />
		<tag k="place" v="locality" />
		<tag k="ssr:stedsnr" v="707890" />
	</node>
	<node lat="68.30087777594034" lon="14.24281111979195" id="-22540">
		<tag k="name" v="Svartåsdalen" />
		<tag k="natural" v="valley" />
		<tag k="place" v="locality" />
		<tag k="ssr:stedsnr" v="709338" />
	</node>
	<node lat="68.29780555932123" lon="14.259366673670218" id="-22541">
		<tag k="name" v="Breilia" />
		<tag k="natural" v="slope" />
		<tag k="place" v="locality" />
		<tag k="ssr:stedsnr" v="709341" />
	</node>
	<node lat="68.25196944228563" lon="14.347097221103835" id="-22543">
		<tag k="name" v="Langklømmerdalen" />
		<tag k="natural" v="valley" />
		<tag k="place" v="locality" />
		<tag k="ssr:stedsnr" v="664685" />
	</node>
	<node lat="68.37697777390552" lon="14.44141111561041" id="-22547">
		<tag k="name" v="Øverårvikhaugen" />
		<tag k="natural" v="hill" />
		<tag k="place" v="locality" />
		<tag k="ssr:stedsnr" v="665606" />
	</node>
	<node lat="68.39351666689825" lon="14.510383326359866" id="-22550">
		<tag k="name" v="Tyttebærgjela" />
		<tag k="natural" v="slope" />
		<tag k="place" v="locality" />
		<tag k="ssr:stedsnr" v="890993" />
	</node>
	<node lat="68.30171666465107" lon="14.214352778337355" id="-22551">
		<tag k="fixme" v="multiple name tags, choose one and add the other to alt_name; consider natural=peak for the most distinct mountains in the district" />
		<tag k="name" v="Nordheia;Storknubben" />
		<tag k="natural" v="hill" />
		<tag k="place" v="locality" />
		<tag k="ssr:stedsnr" v="684018" />
	</node>
	<node lat="68.28915832984427" lon="14.212361115000066" id="-22552">
		<tag k="name" v="Storlia" />
		<tag k="natural" v="slope" />
		<tag k="place" v="locality" />
		<tag k="ssr:stedsnr" v="684054" />
	</node>
	<node lat="68.33629999664824" lon="14.347277770013845" id="-22554">
		<tag k="fixme" v="consider natural=peak for the most distinct mountains in the district" />
		<tag k="name" v="Festvågaksla" />
		<tag k="natural" v="hill" />
		<tag k="place" v="locality" />
		<tag k="ssr:stedsnr" v="684063" />
	</node>
	<node lat="68.19397777870182" lon="14.764550007782232" id="-22558">
		<tag k="alt_name" v="Kjøpmannstinden" />
		<tag k="fixme" v="consider natural=peak for the most distinct mountains in the district" />
		<tag k="name" v="Hamntinden" />
		<tag k="natural" v="hill" />
		<tag k="place" v="locality" />
		<tag k="ssr:stedsnr" v="684126" />
	</node>
	<node lat="68.2771166635402" lon="14.374463877301874" id="-22564">
		<tag k="fixme" v="consider natural=peak for the most distinct mountains in the district" />
		<tag k="name" v="Durmålstinden" />
		<tag k="natural" v="hill" />
		<tag k="place" v="locality" />
		<tag k="ssr:stedsnr" v="684207" />
	</node>
	<node lat="68.2755666672089" lon="14.389516662665988" id="-22568">
		<tag k="fixme" v="consider natural=peak for the most distinct mountains in the district" />
		<tag k="name" v="Nordtotinden" />
		<tag k="natural" v="hill" />
		<tag k="place" v="locality" />
		<tag k="ssr:stedsnr" v="684261" />
	</node>
	<node lat="68.34136111157851" lon="14.767602781762958" id="-22580">
		<tag k="fixme" v="consider natural=peak for the most distinct mountains in the district" />
		<tag k="name" v="Lilandstinden" />
		<tag k="natural" v="hill" />
		<tag k="place" v="locality" />
		<tag k="ssr:stedsnr" v="684372" />
	</node>
	<node lat="68.30538888775268" lon="14.807869433336034" id="-22581">
		<tag k="fixme" v="consider natural=peak for the most distinct mountains in the district" />
		<tag k="name" v="Sukkertoppen" />
		<tag k="natural" v="hill" />
		<tag k="place" v="locality" />
		<tag k="ssr:stedsnr" v="684506" />
	</node>
	<node lat="68.30045832883108" lon="14.640380564722102" id="-22582">
		<tag k="name" v="Hellskaret" />
		<tag k="natural" v="valley" />
		<tag k="place" v="locality" />
		<tag k="ssr:stedsnr" v="684512" />
	</node>
	<node lat="68.25264722373169" lon="14.807416670183057" id="-22591">
		<tag k="name" v="Budalen" />
		<tag k="natural" v="valley" />
		<tag k="place" v="locality" />
		<tag k="ssr:stedsnr" v="684663" />
	</node>
	<node lat="68.25596666610217" lon="14.902377783860734" id="-22592">
		<tag k="fixme" v="consider natural=peak for the most distinct mountains in the district" />
		<tag k="name" v="Ørntinden" />
		<tag k="natural" v="hill" />
		<tag k="place" v="locality" />
		<tag k="ssr:stedsnr" v="684666" />
	</node>
	<node lat="68.31293333185972" lon="15.076994445368406" id="-22608">
		<tag k="name" v="Holtran" />
		<tag k="natural" v="hill" />
		<tag k="place" v="locality" />
		<tag k="ssr:stedsnr" v="693173" />
	</node>
	<node lat="68.27706944783817" lon="14.665144449629176" id="-22623">
		<tag k="fixme" v="consider natural=peak for the most distinct mountains in the district" />
		<tag k="name" v="Tjuvhallaren" />
		<tag k="natural" v="hill" />
		<tag k="place" v="locality" />
		<tag k="ssr:stedsnr" v="707819" />
	</node>
	<node lat="68.31113889155625" lon="14.546244443393674" id="-22624">
		<tag k="fixme" v="consider natural=peak for the most distinct mountains in the district" />
		<tag k="name" v="Utjordkollen" />
		<tag k="natural" v="hill" />
		<tag k="place" v="locality" />
		<tag k="ssr:stedsnr" v="707916" />
	</node>
	<node lat="68.32028333138071" lon="14.551205545698728" id="-22625">
		<tag k="name" v="Ellingmarka" />
		<tag k="place" v="locality" />
		<tag k="ssr:stedsnr" v="707919" />
	</node>
	<node lat="68.39412778016698" lon="14.510613897676395" id="-22626">
		<tag k="name" v="Plomlia" />
		<tag k="natural" v="slope" />
		<tag k="place" v="locality" />
		<tag k="ssr:stedsnr" v="707980" />
	</node>
	<node lat="68.36343888685614" lon="14.591936105497108" id="-22628">
		<tag k="fixme" v="consider natural=peak for the most distinct mountains in the district" />
		<tag k="name" v="Pila" />
		<tag k="natural" v="hill" />
		<tag k="place" v="locality" />
		<tag k="ssr:stedsnr" v="897684" />
	</node>
	<node lat="68.33558889120646" lon="14.33506388106962" id="-22635">
		<tag k="name" v="Breilia" />
		<tag k="natural" v="slope" />
		<tag k="place" v="locality" />
		<tag k="ssr:stedsnr" v="725711" />
	</node>
	<node lat="68.3100444445287" lon="15.038150009236077" id="-22644">
		<tag k="name" v="Djupdalen" />
		<tag k="natural" v="valley" />
		<tag k="place" v="locality" />
		<tag k="ssr:stedsnr" v="745025" />
	</node>
	<node lat="68.30635278116767" lon="14.195074992717746" id="-22645">
		<tag k="name" v="Vinjedalen" />
		<tag k="natural" v="valley" />
		<tag k="place" v="locality" />
		<tag k="ssr:stedsnr" v="745027" />
	</node>
	<node lat="68.2928166622418" lon="15.041211118181652" id="-22651">
		<tag k="fixme" v="consider natural=peak for the most distinct mountains in the district" />
		<tag k="name" v="Pundslettfjellet" />
		<tag k="natural" v="hill" />
		<tag k="place" v="locality" />
		<tag k="ssr:stedsnr" v="745091" />
	</node>
	<node lat="68.33258611236386" lon="14.358411100087487" id="-22656">
		<tag k="name" v="Hallvardliskaret" />
		<tag k="natural" v="valley" />
		<tag k="place" v="locality" />
		<tag k="ssr:stedsnr" v="745112" />
	</node>
	<node lat="68.26088889161514" lon="14.220822212374713" id="-22658">
		<tag k="name" v="Rødlia" />
		<tag k="natural" v="slope" />
		<tag k="place" v="locality" />
		<tag k="ssr:stedsnr" v="745172" />
	</node>
	<node lat="68.24260833358703" lon="14.872166659202618" id="-22663">
		<tag k="fixme" v="consider natural=peak for the most distinct mountains in the district" />
		<tag k="name" v="Støytan" />
		<tag k="natural" v="hill" />
		<tag k="place" v="locality" />
		<tag k="ssr:stedsnr" v="745311" />
	</node>
	<node lat="68.34763610761728" lon="14.764186115867599" id="-22669">
		<tag k="name" v="Lilandsdalen" />
		<tag k="natural" v="valley" />
		<tag k="place" v="locality" />
		<tag k="ssr:stedsnr" v="745417" />
	</node>
	<node lat="68.28530833327406" lon="14.874000001344045" id="-22672">
		<tag k="fixme" v="consider natural=peak for the most distinct mountains in the district" />
		<tag k="name" v="Durmålstinden" />
		<tag k="natural" v="hill" />
		<tag k="place" v="locality" />
		<tag k="ssr:stedsnr" v="745608" />
	</node>
	<node lat="68.29542221973739" lon="14.805055561775587" id="-22676">
		<tag k="fixme" v="consider natural=peak for the most distinct mountains in the district" />
		<tag k="name" v="Trehakkatinden" />
		<tag k="natural" v="hill" />
		<tag k="place" v="locality" />
		<tag k="ssr:stedsnr" v="745505" />
	</node>
	<node lat="68.25236666725709" lon="14.920255553051321" id="-22680">
		<tag k="name" v="Skarvstolen" />
		<tag k="natural" v="hill" />
		<tag k="place" v="locality" />
		<tag k="ssr:stedsnr" v="745704" />
	</node>
	<node lat="68.27259722444965" lon="14.316716655768719" id="-22681">
		<tag k="name" v="Øvredalen" />
		<tag k="natural" v="valley" />
		<tag k="place" v="locality" />
		<tag k="ssr:stedsnr" v="746005" />
	</node>
	<node lat="68.31012221903559" lon="15.004019436196952" id="-22688">
		<tag k="name" v="Lian" />
		<tag k="natural" v="slope" />
		<tag k="place" v="locality" />
		<tag k="ssr:stedsnr" v="753065" />
	</node>
	<node lat="68.28650833477396" lon="14.922519433625622" id="-22689">
		<tag k="fixme" v="consider natural=peak for the most distinct mountains in the district" />
		<tag k="name" v="Rølitinden" />
		<tag k="natural" v="hill" />
		<tag k="place" v="locality" />
		<tag k="ssr:stedsnr" v="753656" />
	</node>
	<node lat="68.31065833201322" lon="15.084497225769667" id="-22691">
		<tag k="name" v="Stordalen" />
		<tag k="natural" v="valley" />
		<tag k="place" v="locality" />
		<tag k="ssr:stedsnr" v="754654" />
	</node>
	<node lat="68.31200277817655" lon="15.096149994379882" id="-22692">
		<tag k="fixme" v="consider natural=peak for the most distinct mountains in the district" />
		<tag k="name" v="Åsan" />
		<tag k="natural" v="hill" />
		<tag k="place" v="locality" />
		<tag k="ssr:stedsnr" v="754662" />
	</node>
	<node lat="68.33822222502158" lon="14.099061106202967" id="-22708">
		<tag k="name" v="Smethaugen" />
		<tag k="natural" v="hill" />
		<tag k="place" v="locality" />
		<tag k="ssr:stedsnr" v="767442" />
	</node>
	<node lat="68.30584999776929" lon="14.081066676734721" id="-22709">
		<tag k="name" v="Brandhaugen" />
		<tag k="natural" v="hill" />
		<tag k="place" v="locality" />
		<tag k="ssr:stedsnr" v="767448" />
	</node>
	<node lat="68.29226666651121" lon="14.244550008096732" id="-22713">
		<tag k="fixme" v="consider natural=peak for the most distinct mountains in the district" />
		<tag k="name" v="Øveråsen" />
		<tag k="natural" v="hill" />
		<tag k="place" v="locality" />
		<tag k="ssr:stedsnr" v="770307" />
	</node>
	<node lat="68.2875111080927" lon="14.236422219937278" id="-22722">
		<tag k="name" v="Vassheia" />
		<tag k="natural" v="hill" />
		<tag k="place" v="locality" />
		<tag k="ssr:stedsnr" v="908348" />
	</node>
	<node lat="68.31541389164931" lon="14.321172223064277" id="-22728">
		<tag k="fixme" v="consider natural=peak for the most distinct mountains in the district" />
		<tag k="name" v="Kamman" />
		<tag k="natural" v="hill" />
		<tag k="place" v="locality" />
		<tag k="ssr:stedsnr" v="785703" />
	</node>
	<node lat="68.31177222640025" lon="14.398269448830359" id="-22730">
		<tag k="name" v="Kallan" />
		<tag k="natural" v="hill" />
		<tag k="place" v="locality" />
		<tag k="ssr:stedsnr" v="785716" />
	</node>
	<node lat="68.27578611042935" lon="14.366291660922265" id="-22731">
		<tag k="name" v="Austerhumpen" />
		<tag k="natural" v="hill" />
		<tag k="place" v="locality" />
		<tag k="ssr:stedsnr" v="785655" />
	</node>
	<node lat="68.25465277579097" lon="14.309747225634336" id="-22732">
		<tag k="name" v="Akselhaugen" />
		<tag k="natural" v="hill" />
		<tag k="place" v="locality" />
		<tag k="ssr:stedsnr" v="785668" />
	</node>
	<node lat="68.28246666968073" lon="14.24523889974135" id="-22734">
		<tag k="name" v="Trolldalen" />
		<tag k="natural" v="valley" />
		<tag k="place" v="locality" />
		<tag k="ssr:stedsnr" v="787325" />
	</node>
	<node lat="68.39084444314425" lon="14.43089999562209" id="-22735">
		<tag k="name" v="Sjøbuhaugen" />
		<tag k="natural" v="hill" />
		<tag k="place" v="locality" />
		<tag k="ssr:stedsnr" v="787548" />
	</node>
	<node lat="68.39228333239595" lon="14.41665276628823" id="-22736">
		<tag k="name" v="Breivikhaugen" />
		<tag k="natural" v="hill" />
		<tag k="place" v="locality" />
		<tag k="ssr:stedsnr" v="787552" />
	</node>
	<node lat="68.24705555775748" lon="14.880630547596638" id="-22738">
		<tag k="fixme" v="consider natural=peak for the most distinct mountains in the district" />
		<tag k="name" v="Gullvikåsen" />
		<tag k="natural" v="hill" />
		<tag k="place" v="locality" />
		<tag k="ssr:stedsnr" v="805211" />
	</node>
	<node lat="68.19698333570858" lon="14.730102766475701" id="-22744">
		<tag k="alt_name" v="Grundstadberget" />
		<tag k="name" v="Grunnstadberget" />
		<tag k="natural" v="hill" />
		<tag k="place" v="locality" />
		<tag k="ssr:stedsnr" v="805126" />
	</node>
	<node lat="68.32071944324895" lon="15.062136101099009" id="-22748">
		<tag k="fixme" v="consider natural=peak for the most distinct mountains in the district" />
		<tag k="name" v="Grønnåsen" />
		<tag k="natural" v="hill" />
		<tag k="place" v="locality" />
		<tag k="ssr:stedsnr" v="814190" />
	</node>
	<node lat="68.29522499609277" lon="15.051069447947594" id="-22751">
		<tag k="fixme" v="consider natural=peak for the most distinct mountains in the district" />
		<tag k="name" v="Vesterfjellet" />
		<tag k="natural" v="hill" />
		<tag k="place" v="locality" />
		<tag k="ssr:stedsnr" v="815593" />
	</node>
	<node lat="68.28854722558417" lon="15.06451666671096" id="-22752">
		<tag k="name" v="Vestre Jansdalen" />
		<tag k="natural" v="valley" />
		<tag k="place" v="locality" />
		<tag k="ssr:stedsnr" v="815674" />
	</node>
	<node lat="68.3401694445827" lon="14.520052777275206" id="-22762">
		<tag k="fixme" v="consider natural=peak for the most distinct mountains in the district" />
		<tag k="name" v="Omnfjellet" />
		<tag k="natural" v="hill" />
		<tag k="place" v="locality" />
		<tag k="ssr:stedsnr" v="829920" />
	</node>
	<node lat="68.3250833332197" lon="14.609194435668147" id="-22763">
		<tag k="fixme" v="consider natural=peak for the most distinct mountains in the district" />
		<tag k="name" v="Tinden" />
		<tag k="natural" v="hill" />
		<tag k="place" v="locality" />
		<tag k="ssr:stedsnr" v="829923" />
	</node>
	<node lat="68.33480833454287" lon="14.562836113846622" id="-22765">
		<tag k="name" v="Knubben" />
		<tag k="natural" v="hill" />
		<tag k="place" v="locality" />
		<tag k="ssr:stedsnr" v="829965" />
	</node>
	<node lat="68.33658611010242" lon="14.573872233840937" id="-22766">
		<tag k="name" v="Svarthammaren" />
		<tag k="natural" v="hill" />
		<tag k="place" v="locality" />
		<tag k="ssr:stedsnr" v="829967" />
	</node>
	<node lat="68.32516388968598" lon="14.079463878609273" id="-22768">
		<tag k="name" v="Hamnhaugen" />
		<tag k="natural" v="hill" />
		<tag k="place" v="locality" />
		<tag k="ssr:stedsnr" v="844476" />
	</node>
	<node lat="68.31674722154212" lon="14.394791664467816" id="-22769">
		<tag k="name" v="Ramnfloget" />
		<tag k="natural" v="hill" />
		<tag k="place" v="locality" />
		<tag k="ssr:stedsnr" v="846732" />
	</node>
	<node lat="68.29531389280086" lon="14.362066659866183" id="-22770">
		<tag k="name" v="Kollan" />
		<tag k="natural" v="slope" />
		<tag k="place" v="locality" />
		<tag k="ssr:stedsnr" v="846736" />
	</node>
	<node lat="68.26603611403" lon="14.338661118706598" id="-22771">
		<tag k="fixme" v="consider natural=peak for the most distinct mountains in the district" />
		<tag k="name" v="Smånubban" />
		<tag k="natural" v="hill" />
		<tag k="place" v="locality" />
		<tag k="ssr:stedsnr" v="846674" />
	</node>
	<node lat="68.28485555726895" lon="14.201636114571048" id="-22773">
		<tag k="name" v="Gjendalen" />
		<tag k="natural" v="slope" />
		<tag k="place" v="locality" />
		<tag k="ssr:stedsnr" v="848489" />
	</node>
	<node lat="68.3871083304828" lon="14.437755556921358" id="-22775">
		<tag k="name" v="Småklavhaugan" />
		<tag k="natural" v="hill" />
		<tag k="place" v="locality" />
		<tag k="ssr:stedsnr" v="848572" />
	</node>
	<node lat="68.30128333080575" lon="14.164266677890907" id="-22780">
		<tag k="name" v="Einertraet" />
		<tag k="place" v="locality" />
		<tag k="ssr:stedsnr" v="927043" />
	</node>
	<node lat="68.31445277920015" lon="14.229772234268225" id="-22785">
		<tag k="name" v="Storbenken" />
		<tag k="natural" v="hill" />
		<tag k="place" v="locality" />
		<tag k="ssr:stedsnr" v="927134" />
	</node>
	<node lat="68.26413055800386" lon="14.350352786442395" id="-22786">
		<tag k="name" v="Middagsskaret" />
		<tag k="natural" v="valley" />
		<tag k="place" v="locality" />
		<tag k="ssr:stedsnr" v="927138" />
	</node>
	<node lat="68.33724722004223" lon="14.094705565994014" id="-22792">
		<tag k="name" v="Storhaugen" />
		<tag k="natural" v="hill" />
		<tag k="place" v="locality" />
		<tag k="ssr:stedsnr" v="927072" />
	</node>
	<node lat="68.2200055533998" lon="14.316875011458759" id="-22808">
		<tag k="name" v="Åmunddalen" />
		<tag k="natural" v="valley" />
		<tag k="place" v="locality" />
		<tag k="ssr:stedsnr" v="927470" />
	</node>
	<node lat="68.31152500215393" lon="14.65452778734031" id="-22812">
		<tag k="fixme" v="consider natural=peak for the most distinct mountains in the district" />
		<tag k="name" v="Kvittinden" />
		<tag k="natural" v="hill" />
		<tag k="place" v="locality" />
		<tag k="ssr:stedsnr" v="927535" />
	</node>
	<node lat="68.36518055773071" lon="14.490919454022835" id="-22814">
		<tag k="name" v="Jernhammaren" />
		<tag k="natural" v="hill" />
		<tag k="place" v="locality" />
		<tag k="ssr:stedsnr" v="927491" />
	</node>
	<node lat="68.28317777661853" lon="14.772327775104213" id="-22825">
		<tag k="name" v="Trolldalen" />
		<tag k="natural" v="valley" />
		<tag k="place" v="locality" />
		<tag k="ssr:stedsnr" v="928050" />
	</node>
	<node lat="68.34381666993345" lon="15.228149999302994" id="-22826">
		<tag k="fixme" v="consider natural=peak for the most distinct mountains in the district" />
		<tag k="name" v="Tømmeråsen" />
		<tag k="natural" v="hill" />
		<tag k="place" v="locality" />
		<tag k="ssr:stedsnr" v="867974" />
	</node>
	<node lat="68.3375861125576" lon="15.094888878517454" id="-22829">
		<tag k="fixme" v="consider natural=peak for the most distinct mountains in the district" />
		<tag k="name" v="Vardtinden" />
		<tag k="natural" v="hill" />
		<tag k="place" v="locality" />
		<tag k="ssr:stedsnr" v="867956" />
	</node>
	<node lat="68.29184444512263" lon="15.081574992709402" id="-22836">
		<tag k="name" v="Seljekråa" />
		<tag k="natural" v="valley" />
		<tag k="place" v="locality" />
		<tag k="ssr:stedsnr" v="875593" />
	</node>
	<node lat="68.30466389020116" lon="15.070780566553545" id="-22837">
		<tag k="name" v="Skjettenskaret" />
		<tag k="natural" v="valley" />
		<tag k="place" v="locality" />
		<tag k="ssr:stedsnr" v="875615" />
	</node>
	<node lat="68.2836444409093" lon="15.044113895473952" id="-22857">
		<tag k="fixme" v="consider natural=peak for the most distinct mountains in the district" />
		<tag k="name" v="Åsan" />
		<tag k="natural" v="hill" />
		<tag k="place" v="locality" />
		<tag k="ssr:stedsnr" v="935098" />
	</node>
	<node lat="68.3478999990529" lon="14.503788884307966" id="-22859">
		<tag k="name" v="Storbenken" />
		<tag k="place" v="locality" />
		<tag k="ssr:stedsnr" v="889907" />
	</node>
	<node lat="68.33299166941357" lon="14.528675005403507" id="-22860">
		<tag k="fixme" v="consider natural=peak for the most distinct mountains in the district" />
		<tag k="name" v="Mørkdalsåsen" />
		<tag k="natural" v="hill" />
		<tag k="place" v="locality" />
		<tag k="ssr:stedsnr" v="889944" />
	</node>
	<node lat="68.3127694433816" lon="14.477927781069969" id="-22861">
		<tag k="fixme" v="consider natural=peak for the most distinct mountains in the district" />
		<tag k="name" v="Storaksla" />
		<tag k="natural" v="hill" />
		<tag k="place" v="locality" />
		<tag k="ssr:stedsnr" v="889893" />
	</node>
	<node lat="68.38701666389116" lon="14.504855554266966" id="-22863">
		<tag k="name" v="Høgrabban" />
		<tag k="natural" v="hill" />
		<tag k="place" v="locality" />
		<tag k="ssr:stedsnr" v="890802" />
	</node>
	<node lat="68.29239444327352" lon="14.252736105824782" id="-22864">
		<tag k="fixme" v="consider natural=peak for the most distinct mountains in the district" />
		<tag k="name" v="Ytre Neråsen" />
		<tag k="natural" v="hill" />
		<tag k="place" v="locality" />
		<tag k="ssr:stedsnr" v="891359" />
	</node>
	<node lat="68.29070833447736" lon="14.271469452112116" id="-22865">
		<tag k="name" v="Torvhaugberget" />
		<tag k="natural" v="hill" />
		<tag k="place" v="locality" />
		<tag k="ssr:stedsnr" v="891364" />
	</node>
	<node lat="68.29252222087577" lon="14.267849991924734" id="-22866">
		<tag k="name" v="Tohatten" />
		<tag k="natural" v="hill" />
		<tag k="place" v="locality" />
		<tag k="ssr:stedsnr" v="891369" />
	</node>
	<node lat="68.3105222250665" lon="14.712174993649327" id="-22872">
		<tag k="name" v="Småskjæran" />
		<tag k="natural" v="valley" />
		<tag k="place" v="locality" />
		<tag k="ssr:stedsnr" v="905820" />
	</node>
	<node lat="68.33849166339519" lon="14.338547224229535" id="-22874">
		<tag k="name" v="Småhamran" />
		<tag k="natural" v="hill" />
		<tag k="place" v="locality" />
		<tag k="ssr:stedsnr" v="907705" />
	</node>
	<node lat="68.34111944095908" lon="14.357238882911718" id="-22875">
		<tag k="name" v="Vollan" />
		<tag k="place" v="locality" />
		<tag k="ssr:stedsnr" v="907710" />
	</node>
	<node lat="68.26725000226794" lon="14.400750004197574" id="-22876">
		<tag k="name" v="Gjothaugan" />
		<tag k="natural" v="hill" />
		<tag k="place" v="locality" />
		<tag k="ssr:stedsnr" v="907626" />
	</node>
	<node lat="68.32293888888572" lon="14.32733055027824" id="-22877">
		<tag k="name" v="Langlia" />
		<tag k="natural" v="slope" />
		<tag k="place" v="locality" />
		<tag k="ssr:stedsnr" v="907662" />
	</node>
	<node lat="68.32159166728306" lon="14.322688882945114" id="-22878">
		<tag k="name" v="Resmålsfloget" />
		<tag k="natural" v="hill" />
		<tag k="place" v="locality" />
		<tag k="ssr:stedsnr" v="907664" />
	</node>
	<node lat="68.32508610707475" lon="14.342066654445565" id="-22879">
		<tag k="name" v="Melksletta" />
		<tag k="place" v="locality" />
		<tag k="ssr:stedsnr" v="907670" />
	</node>
	<node lat="68.32168888823558" lon="15.021030545494257" id="-22886">
		<tag k="name" v="Osdalen" />
		<tag k="natural" v="valley" />
		<tag k="place" v="locality" />
		<tag k="ssr:stedsnr" v="927005" />
	</node>
	<node lat="68.30208611375463" lon="14.361902782349672" id="-22887">
		<tag k="fixme" v="multiple name tags, choose one and add the other to alt_name; consider natural=peak for the most distinct mountains in the district" />
		<tag k="name" v="Svarttinden;Sydalsfjellet" />
		<tag k="natural" v="hill" />
		<tag k="place" v="locality" />
		<tag k="ssr:stedsnr" v="927027" />
	</node>
	<node lat="68.20889999586478" lon="14.773936115571782" id="-22897">
		<tag k="name" v="Bjørndalen" />
		<tag k="natural" v="valley" />
		<tag k="place" v="locality" />
		<tag k="ssr:stedsnr" v="927264" />
	</node>
	<node lat="68.34362500021581" lon="14.447911119849122" id="-22899">
		<tag k="name" v="Nilsskalltuva" />
		<tag k="natural" v="hill" />
		<tag k="place" v="locality" />
		<tag k="ssr:stedsnr" v="927417" />
	</node>
	<node lat="68.24143889195928" lon="14.447055549100897" id="-22901">
		<tag k="alt_name" v="Dronninga" />
		<tag k="fixme" v="consider natural=peak for the most distinct mountains in the district" />
		<tag k="name" v="Dronningtinden" />
		<tag k="natural" v="hill" />
		<tag k="place" v="locality" />
		<tag k="ssr:stedsnr" v="927368" />
	</node>
	<node lat="68.29470277710745" lon="14.528377788205953" id="-22906">
		<tag k="fixme" v="consider natural=peak for the most distinct mountains in the district" />
		<tag k="name" v="Isvasstinden" />
		<tag k="natural" v="hill" />
		<tag k="place" v="locality" />
		<tag k="ssr:stedsnr" v="927526" />
	</node>
	<node lat="68.22843888813209" lon="14.379150002317353" id="-22907">
		<tag k="fixme" v="consider natural=peak for the most distinct mountains in the district" />
		<tag k="name" v="Stortinden" />
		<tag k="natural" v="hill" />
		<tag k="place" v="locality" />
		<tag k="ssr:stedsnr" v="927567" />
	</node>
	<node lat="68.2442027756779" lon="14.368447213575854" id="-22912">
		<tag k="fixme" v="multiple name tags, choose one and add the other to alt_name; consider natural=peak for the most distinct mountains in the district" />
		<tag k="name" v="Jordtinden;Pernillatinden" />
		<tag k="natural" v="hill" />
		<tag k="place" v="locality" />
		<tag k="ssr:stedsnr" v="927605" />
	</node>
	<node lat="68.25889167092008" lon="14.914811104013259" id="-22916">
		<tag k="name" v="Skarhaugen" />
		<tag k="natural" v="hill" />
		<tag k="place" v="locality" />
		<tag k="ssr:stedsnr" v="927627" />
	</node>
	<node lat="68.33474722038997" lon="15.096097220659253" id="-22924">
		<tag k="name" v="Karoliushammaren" />
		<tag k="natural" v="hill" />
		<tag k="place" v="locality" />
		<tag k="ssr:stedsnr" v="927971" />
	</node>
	<node lat="68.22601944331802" lon="14.445044449573262" id="-22940">
		<tag k="name" v="Gammelhjemtorvhaugen" />
		<tag k="natural" v="hill" />
		<tag k="place" v="locality" />
		<tag k="ssr:stedsnr" v="935038" />
	</node>
	<node lat="68.29443333404036" lon="15.087161101911182" id="-22942">
		<tag k="name" v="Kjerstihaugen" />
		<tag k="natural" v="hill" />
		<tag k="place" v="locality" />
		<tag k="ssr:stedsnr" v="936609" />
	</node>
	<node lat="68.3039916699301" lon="14.929930548789732" id="-22943">
		<tag k="name" v="Pollhågan" />
		<tag k="natural" v="hill" />
		<tag k="place" v="locality" />
		<tag k="ssr:stedsnr" v="936686" />
	</node>
	<node lat="68.32101110923622" lon="14.086205543387226" id="-22961">
		<tag k="name" v="Mølnhaugen" />
		<tag k="natural" v="hill" />
		<tag k="place" v="locality" />
		<tag k="ssr:stedsnr" v="950445" />
	</node>
	<node lat="68.34272500311367" lon="14.504338884390652" id="-22962">
		<tag k="name" v="Knutslia" />
		<tag k="natural" v="slope" />
		<tag k="place" v="locality" />
		<tag k="ssr:stedsnr" v="950906" />
	</node>
	<node lat="68.34008610901934" lon="14.46319444725313" id="-22963">
		<tag k="name" v="Finnhellaren" />
		<tag k="place" v="locality" />
		<tag k="ssr:stedsnr" v="950908" />
	</node>
	<node lat="68.33390833463449" lon="14.531811117934621" id="-22965">
		<tag k="name" v="Store Lapphaugen" />
		<tag k="natural" v="hill" />
		<tag k="place" v="locality" />
		<tag k="ssr:stedsnr" v="950944" />
	</node>
	<node lat="68.39261110698254" lon="14.509891675098686" id="-22966">
		<tag k="name" v="Durmålskreda" />
		<tag k="natural" v="slope" />
		<tag k="place" v="locality" />
		<tag k="ssr:stedsnr" v="950985" />
	</node>
	<node lat="68.3743638891727" lon="14.457036117594631" id="-22972">
		<tag k="name" v="Kofthaugen" />
		<tag k="natural" v="hill" />
		<tag k="place" v="locality" />
		<tag k="ssr:stedsnr" v="967711" />
	</node>
	<node lat="68.31146666478645" lon="14.388313888613329" id="-22974">
		<tag k="name" v="Mølndalen" />
		<tag k="natural" v="valley" />
		<tag k="place" v="locality" />
		<tag k="ssr:stedsnr" v="967693" />
	</node>
	<node lat="68.28503611423038" lon="14.244594453445517" id="-22978">
		<tag k="fixme" v="consider natural=peak for the most distinct mountains in the district" />
		<tag k="name" v="Aksla" />
		<tag k="natural" v="hill" />
		<tag k="place" v="locality" />
		<tag k="ssr:stedsnr" v="969310" />
	</node>
	<node lat="68.33290555155378" lon="14.116408339781199" id="-23075">
		<tag k="fixme" v="consider natural=peak for the most distinct mountains in the district" />
		<tag k="name" v="Låghoven" />
		<tag k="natural" v="hill" />
		<tag k="place" v="locality" />
		<tag k="ssr:stedsnr" v="17081" />
	</node>
	<node lat="68.33860833555114" lon="14.554680564957707" id="-23082">
		<tag k="alt_name" v="Storlia" />
		<tag k="name" v="Storlian" />
		<tag k="natural" v="slope" />
		<tag k="place" v="locality" />
		<tag k="ssr:stedsnr" v="17455" />
	</node>
	<node lat="68.31851944403354" lon="14.34616112215986" id="-23084">
		<tag k="fixme" v="consider natural=peak for the most distinct mountains in the district" />
		<tag k="name" v="Trondhamran" />
		<tag k="natural" v="hill" />
		<tag k="place" v="locality" />
		<tag k="ssr:stedsnr" v="17135" />
	</node>
	<node lat="68.28694444421957" lon="14.378022216670109" id="-23088">
		<tag k="fixme" v="consider natural=peak for the most distinct mountains in the district" />
		<tag k="name" v="Nøkkåsen" />
		<tag k="natural" v="hill" />
		<tag k="place" v="locality" />
		<tag k="ssr:stedsnr" v="17228" />
	</node>
	<node lat="68.2171555530634" lon="14.74648055547681" id="-23094">
		<tag k="fixme" v="consider natural=peak for the most distinct mountains in the district" />
		<tag k="name" v="Hellandsaksla" />
		<tag k="natural" v="hill" />
		<tag k="place" v="locality" />
		<tag k="ssr:stedsnr" v="17255" />
	</node>
	<node lat="68.22865555473805" lon="14.422772214658028" id="-23103">
		<tag k="fixme" v="consider natural=peak for the most distinct mountains in the district" />
		<tag k="name" v="Ørntindaksla" />
		<tag k="natural" v="hill" />
		<tag k="place" v="locality" />
		<tag k="ssr:stedsnr" v="17343" />
	</node>
	<node lat="68.17809722041343" lon="14.225372233185052" id="-23104">
		<tag k="fixme" v="consider natural=peak for the most distinct mountains in the district" />
		<tag k="name" v="Festvågtinden" />
		<tag k="natural" v="hill" />
		<tag k="place" v="locality" />
		<tag k="ssr:stedsnr" v="17411" />
	</node>
	<node lat="68.34426388840504" lon="14.53084443338125" id="-23106">
		<tag k="name" v="Omndalen" />
		<tag k="natural" v="valley" />
		<tag k="place" v="locality" />
		<tag k="ssr:stedsnr" v="17414" />
	</node>
	<node lat="68.30041944654515" lon="14.444952773973379" id="-23114">
		<tag k="name" v="Leihellfloget" />
		<tag k="natural" v="slope" />
		<tag k="place" v="locality" />
		<tag k="ssr:stedsnr" v="17518" />
	</node>
	<node lat="68.30703333628624" lon="14.465208327118365" id="-23119">
		<tag k="fixme" v="consider natural=peak for the most distinct mountains in the district" />
		<tag k="name" v="Damheia" />
		<tag k="natural" v="hill" />
		<tag k="place" v="locality" />
		<tag k="ssr:stedsnr" v="17555" />
	</node>
	<node lat="68.30355555738686" lon="14.514916677475197" id="-23121">
		<tag k="fixme" v="consider natural=peak for the most distinct mountains in the district" />
		<tag k="name" v="Isvassheia" />
		<tag k="natural" v="hill" />
		<tag k="place" v="locality" />
		<tag k="ssr:stedsnr" v="17560" />
	</node>
	<node lat="68.27577499900974" lon="14.856861114712222" id="-23122">
		<tag k="fixme" v="consider natural=peak for the most distinct mountains in the district" />
		<tag k="name" v="Kollen" />
		<tag k="natural" v="hill" />
		<tag k="place" v="locality" />
		<tag k="ssr:stedsnr" v="17569" />
	</node>
	<node lat="68.2236583337566" lon="14.401166675998779" id="-23123">
		<tag k="name" v="Mølndalen" />
		<tag k="natural" v="valley" />
		<tag k="place" v="locality" />
		<tag k="ssr:stedsnr" v="17570" />
	</node>
	<node lat="68.33136666728066" lon="14.59619998813344" id="-23129">
		<tag k="alt_name" v="Grønaksla" />
		<tag k="fixme" v="consider natural=peak for the most distinct mountains in the district" />
		<tag k="name" v="Grønnaksla" />
		<tag k="natural" v="hill" />
		<tag k="place" v="locality" />
		<tag k="ssr:stedsnr" v="17459" />
	</node>
	<node lat="68.32621388702707" lon="15.077636119572922" id="-23137">
		<tag k="name" v="Vasshamran" />
		<tag k="natural" v="hill" />
		<tag k="place" v="locality" />
		<tag k="ssr:stedsnr" v="25148" />
	</node>
	<node lat="68.33978333287946" lon="14.126169449009392" id="-23155">
		<tag k="name" v="Leitehaugen" />
		<tag k="natural" v="hill" />
		<tag k="place" v="locality" />
		<tag k="ssr:stedsnr" v="39367" />
	</node>
	<node lat="68.31183611457674" lon="14.097752784681205" id="-23156">
		<tag k="name" v="Storvasshaugen" />
		<tag k="natural" v="hill" />
		<tag k="place" v="locality" />
		<tag k="ssr:stedsnr" v="39381" />
	</node>
	<node lat="68.31470555614894" lon="14.109280544359684" id="-23157">
		<tag k="name" v="Geitholen" />
		<tag k="natural" v="valley" />
		<tag k="place" v="locality" />
		<tag k="ssr:stedsnr" v="39383" />
	</node>
	<node lat="68.33881388894484" lon="14.119336119691583" id="-23158">
		<tag k="name" v="Sødførhaugen" />
		<tag k="natural" v="hill" />
		<tag k="place" v="locality" />
		<tag k="ssr:stedsnr" v="39392" />
	</node>
	<node lat="68.39024444438108" lon="14.513375000655683" id="-23160">
		<tag k="name" v="Fagerlia" />
		<tag k="natural" v="slope" />
		<tag k="place" v="locality" />
		<tag k="ssr:stedsnr" v="40806" />
	</node>
	<node lat="68.35678333451536" lon="14.490352770708792" id="-23162">
		<tag k="name" v="Hornmannmuren" />
		<tag k="natural" v="hill" />
		<tag k="place" v="locality" />
		<tag k="ssr:stedsnr" v="40936" />
	</node>
	<node lat="68.32040555376315" lon="14.503124988107148" id="-23163">
		<tag k="name" v="Storhaugen" />
		<tag k="natural" v="hill" />
		<tag k="place" v="locality" />
		<tag k="ssr:stedsnr" v="42857" />
	</node>
	<node lat="68.32465555586863" lon="14.53025555391582" id="-23164">
		<tag k="fixme" v="consider natural=peak for the most distinct mountains in the district" />
		<tag k="name" v="Høgda" />
		<tag k="natural" v="hill" />
		<tag k="place" v="locality" />
		<tag k="ssr:stedsnr" v="42871" />
	</node>
	<node lat="68.27236111136368" lon="14.325719453602941" id="-23172">
		<tag k="fixme" v="consider natural=peak for the most distinct mountains in the district" />
		<tag k="name" v="Lilleheia" />
		<tag k="natural" v="hill" />
		<tag k="place" v="locality" />
		<tag k="ssr:stedsnr" v="57634" />
	</node>
	<node lat="68.35526944181514" lon="14.45161387695548" id="-23175">
		<tag k="name" v="Kleskjåhaugen" />
		<tag k="natural" v="hill" />
		<tag k="place" v="locality" />
		<tag k="ssr:stedsnr" v="57736" />
	</node>
	<node lat="68.38668332979654" lon="14.45846945012434" id="-23177">
		<tag k="name" v="Rødbergan" />
		<tag k="natural" v="hill" />
		<tag k="place" v="locality" />
		<tag k="ssr:stedsnr" v="59556" />
	</node>
	<node lat="68.32193889252433" lon="14.156741663596856" id="-23178">
		<tag k="name" v="Småkjørarhaugan" />
		<tag k="natural" v="hill" />
		<tag k="place" v="locality" />
		<tag k="ssr:stedsnr" v="59299" />
	</node>
	<node lat="68.29674721896683" lon="14.897672209211196" id="-23179">
		<tag k="name" v="Ramnflogan" />
		<tag k="natural" v="hill" />
		<tag k="place" v="locality" />
		<tag k="ssr:stedsnr" v="59247" />
	</node>
	<node lat="68.26200833373191" lon="14.83017778708291" id="-23180">
		<tag k="fixme" v="consider natural=peak for the most distinct mountains in the district" />
		<tag k="name" v="Nordfjellet" />
		<tag k="natural" v="hill" />
		<tag k="place" v="locality" />
		<tag k="ssr:stedsnr" v="59834" />
	</node>
	<node lat="68.32104444032797" lon="14.648341673675635" id="-23181">
		<tag k="name" v="Tjønnbakken" />
		<tag k="natural" v="slope" />
		<tag k="place" v="locality" />
		<tag k="ssr:stedsnr" v="59811" />
	</node>
	<node lat="68.32241666992303" lon="14.631122223459782" id="-23182">
		<tag k="name" v="Frostløyka" />
		<tag k="natural" v="slope" />
		<tag k="place" v="locality" />
		<tag k="ssr:stedsnr" v="59813" />
	</node>
	<node lat="68.2006305570057" lon="14.734502787797297" id="-23185">
		<tag k="fixme" v="consider natural=peak for the most distinct mountains in the district" />
		<tag k="name" v="Hattmannen" />
		<tag k="natural" v="hill" />
		<tag k="place" v="locality" />
		<tag k="ssr:stedsnr" v="77143" />
	</node>
	<node lat="68.2125333348324" lon="14.782583328819149" id="-23189">
		<tag k="fixme" v="consider natural=peak for the most distinct mountains in the district" />
		<tag k="name" v="Fugltuva" />
		<tag k="natural" v="hill" />
		<tag k="place" v="locality" />
		<tag k="ssr:stedsnr" v="77240" />
	</node>
	<node lat="68.20664999952623" lon="14.775474989096708" id="-23190">
		<tag k="fixme" v="consider natural=peak for the most distinct mountains in the district" />
		<tag k="name" v="Storrånfjellet" />
		<tag k="natural" v="hill" />
		<tag k="place" v="locality" />
		<tag k="ssr:stedsnr" v="77243" />
	</node>
	<node lat="68.24325555233928" lon="14.831963877515438" id="-23194">
		<tag k="fixme" v="consider natural=peak for the most distinct mountains in the district" />
		<tag k="name" v="Slettfjellet" />
		<tag k="natural" v="hill" />
		<tag k="place" v="locality" />
		<tag k="ssr:stedsnr" v="77277" />
	</node>
	<node lat="68.27763610893284" lon="14.490249992610336" id="-23200">
		<tag k="fixme" v="consider natural=peak for the most distinct mountains in the district" />
		<tag k="name" v="Botntinden" />
		<tag k="natural" v="hill" />
		<tag k="place" v="locality" />
		<tag k="ssr:stedsnr" v="77638" />
	</node>
	<node lat="68.31245555692465" lon="14.324038895015349" id="-23207">
		<tag k="name" v="Skittenkråa" />
		<tag k="natural" v="valley" />
		<tag k="place" v="locality" />
		<tag k="ssr:stedsnr" v="78121" />
	</node>
	<node lat="68.28300833514194" lon="14.394216668214186" id="-23224">
		<tag k="name" v="Kroktinddalen" />
		<tag k="natural" v="valley" />
		<tag k="place" v="locality" />
		<tag k="ssr:stedsnr" v="78236" />
	</node>
	<node lat="68.1836166704752" lon="14.266344457242695" id="-23230">
		<tag k="fixme" v="consider natural=peak for the most distinct mountains in the district" />
		<tag k="name" v="Kvanndalstinden" />
		<tag k="natural" v="hill" />
		<tag k="place" v="locality" />
		<tag k="ssr:stedsnr" v="78374" />
	</node>
	<node lat="68.30727222181527" lon="15.097369434615322" id="-23255">
		<tag k="name" v="Åkerdalen" />
		<tag k="natural" v="valley" />
		<tag k="place" v="locality" />
		<tag k="ssr:stedsnr" v="86638" />
	</node>
	<node lat="68.30499999976887" lon="14.08929443280459" id="-23275">
		<tag k="name" v="Storsæterhaugen" />
		<tag k="natural" v="hill" />
		<tag k="place" v="locality" />
		<tag k="ssr:stedsnr" v="100433" />
	</node>
	<node lat="68.29034999557175" lon="14.267169443998721" id="-23278">
		<tag k="name" v="Tretthaugen" />
		<tag k="natural" v="hill" />
		<tag k="place" v="locality" />
		<tag k="ssr:stedsnr" v="102384" />
	</node>
	<node lat="68.31793055193513" lon="14.424908324828916" id="-23283">
		<tag k="name" v="Halsan" />
		<tag k="natural" v="valley" />
		<tag k="place" v="locality" />
		<tag k="ssr:stedsnr" v="118703" />
	</node>
	<node lat="68.28399999641915" lon="14.263594445664076" id="-23284">
		<tag k="name" v="Raen" />
		<tag k="natural" v="ridge" />
		<tag k="place" v="locality" />
		<tag k="ssr:stedsnr" v="119331" />
	</node>
	<node lat="68.27517222343981" lon="14.252936111974183" id="-23288">
		<tag k="name" v="Myran" />
		<tag k="natural" v="valley" />
		<tag k="place" v="locality" />
		<tag k="ssr:stedsnr" v="119310" />
	</node>
	<node lat="68.27858888718508" lon="14.242969434784667" id="-23289">
		<tag k="name" v="Kråkdalen" />
		<tag k="natural" v="valley" />
		<tag k="place" v="locality" />
		<tag k="ssr:stedsnr" v="119312" />
	</node>
	<node lat="68.34598333100432" lon="14.70638333241868" id="-23297">
		<tag k="name" v="Dalhaugmarka" />
		<tag k="natural" v="slope" />
		<tag k="place" v="locality" />
		<tag k="ssr:stedsnr" v="120864" />
	</node>
	<node lat="68.2854111152042" lon="15.06139721566057" id="-23298">
		<tag k="name" v="Bustleiva" />
		<tag k="natural" v="valley" />
		<tag k="place" v="locality" />
		<tag k="ssr:stedsnr" v="137058" />
	</node>
	<node lat="68.27125555362397" lon="14.214722222516071" id="-23303">
		<tag k="name" v="Svartdalen" />
		<tag k="natural" v="valley" />
		<tag k="place" v="locality" />
		<tag k="ssr:stedsnr" v="138002" />
	</node>
	<node lat="68.31633333190658" lon="14.381924993011754" id="-23304">
		<tag k="fixme" v="consider natural=peak for the most distinct mountains in the district" />
		<tag k="name" v="Flottinden" />
		<tag k="natural" v="hill" />
		<tag k="place" v="locality" />
		<tag k="ssr:stedsnr" v="138004" />
	</node>
	<node lat="68.30615277586249" lon="14.232938900447268" id="-23305">
		<tag k="name" v="Sandsdalen" />
		<tag k="natural" v="valley" />
		<tag k="place" v="locality" />
		<tag k="ssr:stedsnr" v="138027" />
	</node>
	<node lat="68.1949972213906" lon="14.772194436988178" id="-23311">
		<tag k="fixme" v="consider natural=peak for the most distinct mountains in the district" />
		<tag k="name" v="Haverdalsaksla" />
		<tag k="natural" v="hill" />
		<tag k="place" v="locality" />
		<tag k="ssr:stedsnr" v="138136" />
	</node>
	<node lat="68.26631111452342" lon="14.358616677865724" id="-23312">
		<tag k="fixme" v="consider natural=peak for the most distinct mountains in the district" />
		<tag k="name" v="Stortuva" />
		<tag k="natural" v="hill" />
		<tag k="place" v="locality" />
		<tag k="ssr:stedsnr" v="138138" />
	</node>
	<node lat="68.21301944297271" lon="14.737516661596898" id="-23315">
		<tag k="name" v="Kvitrapa" />
		<tag k="natural" v="slope" />
		<tag k="place" v="locality" />
		<tag k="ssr:stedsnr" v="138247" />
	</node>
	<node lat="68.27064444528153" lon="14.331483338967155" id="-23316">
		<tag k="alt_name" v="Grøntinden" />
		<tag k="fixme" v="consider natural=peak for the most distinct mountains in the district" />
		<tag k="name" v="Grønntinden" />
		<tag k="natural" v="hill" />
		<tag k="place" v="locality" />
		<tag k="ssr:stedsnr" v="138282" />
	</node>
	<node lat="68.27227499942589" lon="14.385313897678675" id="-23317">
		<tag k="fixme" v="consider natural=peak for the most distinct mountains in the district" />
		<tag k="name" v="Borkkvanntotinden" />
		<tag k="natural" v="hill" />
		<tag k="place" v="locality" />
		<tag k="ssr:stedsnr" v="138285" />
	</node>
	<node lat="68.35702777972566" lon="14.792338887982067" id="-23319">
		<tag k="fixme" v="consider natural=peak for the most distinct mountains in the district" />
		<tag k="name" v="Higravtindan" />
		<tag k="natural" v="hill" />
		<tag k="place" v="locality" />
		<tag k="ssr:stedsnr" v="138474" />
	</node>
	<node lat="68.18378888789641" lon="14.737855563517142" id="-23324">
		<tag k="name" v="Jomfruhaugen" />
		<tag k="natural" v="hill" />
		<tag k="place" v="locality" />
		<tag k="ssr:stedsnr" v="138177" />
	</node>
	<node lat="68.18888888766395" lon="14.295833342514555" id="-23328">
		<tag k="fixme" v="consider natural=peak for the most distinct mountains in the district" />
		<tag k="name" v="Vågakallen" />
		<tag k="natural" v="hill" />
		<tag k="place" v="locality" />
		<tag k="ssr:stedsnr" v="138411" />
	</node>
	<node lat="68.3493611150018" lon="14.669938897153877" id="-23329">
		<tag k="fixme" v="consider natural=peak for the most distinct mountains in the district" />
		<tag k="name" v="Kvittinden" />
		<tag k="natural" v="hill" />
		<tag k="place" v="locality" />
		<tag k="ssr:stedsnr" v="138415" />
	</node>
	<node lat="68.3371583350554" lon="14.685430544990448" id="-23332">
		<tag k="alt_name" v="Kisberget" />
		<tag k="name" v="Kistberget" />
		<tag k="natural" v="hill" />
		<tag k="place" v="locality" />
		<tag k="ssr:stedsnr" v="138424" />
	</node>
	<node lat="68.23046944019073" lon="14.334733341622265" id="-23341">
		<tag k="name" v="Jorasmusadalen" />
		<tag k="natural" v="valley" />
		<tag k="place" v="locality" />
		<tag k="ssr:stedsnr" v="138625" />
	</node>
	<node lat="68.23343374001972" lon="14.388172773528993" id="-23342">
		<tag k="fixme" v="consider natural=peak for the most distinct mountains in the district" />
		<tag k="name" v="Småtindan" />
		<tag k="natural" v="hill" />
		<tag k="place" v="locality" />
		<tag k="ssr:stedsnr" v="138627" />
	</node>
	<node lat="68.23383611481202" lon="14.428277770159106" id="-23343">
		<tag k="alt_name" v="Kolbenndalen" />
		<tag k="name" v="Kolbeindalen" />
		<tag k="natural" v="valley" />
		<tag k="place" v="locality" />
		<tag k="ssr:stedsnr" v="138632" />
	</node>
	<node lat="68.25658055964722" lon="14.433099995598452" id="-23345">
		<tag k="fixme" v="consider natural=peak for the most distinct mountains in the district" />
		<tag k="name" v="Mingmaurtindan" />
		<tag k="natural" v="hill" />
		<tag k="place" v="locality" />
		<tag k="ssr:stedsnr" v="138686" />
	</node>
	<node lat="68.2694388924472" lon="14.857127788567869" id="-23349">
		<tag k="fixme" v="consider natural=peak for the most distinct mountains in the district" />
		<tag k="name" v="Svartvassheia" />
		<tag k="natural" v="hill" />
		<tag k="place" v="locality" />
		<tag k="ssr:stedsnr" v="138565" />
	</node>
	<node lat="68.2715361068824" lon="14.666483329865889" id="-23351">
		<tag k="fixme" v="multiple name tags, choose one and add the other to alt_name; consider natural=peak for the most distinct mountains in the district" />
		<tag k="name" v="Massvikheia;Madsvikheia" />
		<tag k="natural" v="hill" />
		<tag k="place" v="locality" />
		<tag k="ssr:stedsnr" v="138573" />
	</node>
	<node lat="68.3033388860849" lon="15.039119453261186" id="-23371">
		<tag k="name" v="Reinskaret" />
		<tag k="natural" v="valley" />
		<tag k="place" v="locality" />
		<tag k="ssr:stedsnr" v="146889" />
	</node>
	<node lat="68.29695833280255" lon="15.042777774630496" id="-23372">
		<tag k="fixme" v="consider natural=peak for the most distinct mountains in the district" />
		<tag k="name" v="Vesterfjellet" />
		<tag k="natural" v="hill" />
		<tag k="place" v="locality" />
		<tag k="ssr:stedsnr" v="146895" />
	</node>
	<node lat="68.2907638934525" lon="15.037730545635803" id="-23373">
		<tag k="name" v="Vesterkråa" />
		<tag k="natural" v="valley" />
		<tag k="place" v="locality" />
		<tag k="ssr:stedsnr" v="146899" />
	</node>
	<node lat="68.23730277974624" lon="14.253108341101246" id="-23385">
		<tag k="fixme" v="consider natural=peak for the most distinct mountains in the district" />
		<tag k="name" v="Åsen" />
		<tag k="natural" v="hill" />
		<tag k="place" v="locality" />
		<tag k="ssr:stedsnr" v="149187" />
	</node>
	<node lat="68.39559444517863" lon="14.512480567745879" id="-23391">
		<tag k="name" v="Skrelia" />
		<tag k="natural" v="slope" />
		<tag k="place" v="locality" />
		<tag k="ssr:stedsnr" v="149444" />
	</node>
	<node lat="68.34205833775667" lon="14.134069446473537" id="-23400">
		<tag k="name" v="Arvidhaugen" />
		<tag k="natural" v="hill" />
		<tag k="place" v="locality" />
		<tag k="ssr:stedsnr" v="161447" />
	</node>
	<node lat="68.39835278040961" lon="14.4985249892757" id="-23402">
		<tag k="fixme" v="consider natural=peak for the most distinct mountains in the district" />
		<tag k="name" v="Synnavindstuva" />
		<tag k="natural" v="hill" />
		<tag k="place" v="locality" />
		<tag k="ssr:stedsnr" v="161742" />
	</node>
	<node lat="68.34955833111856" lon="14.541400009430893" id="-23403">
		<tag k="name" v="Omndalskaret" />
		<tag k="natural" v="valley" />
		<tag k="place" v="locality" />
		<tag k="ssr:stedsnr" v="161943" />
	</node>
	<node lat="68.2966722210016" lon="14.25913889934582" id="-23404">
		<tag k="name" v="Blomlia" />
		<tag k="natural" v="slope" />
		<tag k="place" v="locality" />
		<tag k="ssr:stedsnr" v="163298" />
	</node>
	<node lat="68.3063749964591" lon="14.24813054372287" id="-23405">
		<tag k="name" v="Dalkråa" />
		<tag k="natural" v="slope" />
		<tag k="place" v="locality" />
		<tag k="ssr:stedsnr" v="163300" />
	</node>
	<node lat="68.30628610865865" lon="14.260644433361191" id="-23406">
		<tag k="name" v="Digermulen" />
		<tag k="natural" v="hill" />
		<tag k="place" v="locality" />
		<tag k="ssr:stedsnr" v="163301" />
	</node>
	<node lat="68.3214583369392" lon="14.150597234934207" id="-23410">
		<tag k="name" v="Bukkhaugen" />
		<tag k="natural" v="hill" />
		<tag k="place" v="locality" />
		<tag k="ssr:stedsnr" v="180286" />
	</node>
	<node lat="68.27066666283147" lon="14.29558611369816" id="-23411">
		<tag k="name" v="Monsliryggen" />
		<tag k="natural" v="ridge" />
		<tag k="place" v="locality" />
		<tag k="ssr:stedsnr" v="180288" />
	</node>
	<node lat="68.32015555971411" lon="14.202944443640561" id="-23412">
		<tag k="name" v="Kleivabergan" />
		<tag k="natural" v="hill" />
		<tag k="place" v="locality" />
		<tag k="ssr:stedsnr" v="180296" />
	</node>
	<node lat="68.2771305537938" lon="14.25354999643256" id="-23413">
		<tag k="name" v="Kråka" />
		<tag k="natural" v="hill" />
		<tag k="place" v="locality" />
		<tag k="ssr:stedsnr" v="180298" />
	</node>
	<node lat="68.26895555289018" lon="14.348572217111494" id="-23421">
		<tag k="name" v="Essdalen" />
		<tag k="natural" v="valley" />
		<tag k="place" v="locality" />
		<tag k="ssr:stedsnr" v="179670" />
	</node>
	<node lat="68.26454999933284" lon="14.418338898966732" id="-23424">
		<tag k="name" v="Olderfjorddalen" />
		<tag k="natural" v="valley" />
		<tag k="place" v="locality" />
		<tag k="ssr:stedsnr" v="179695" />
	</node>
	<node lat="68.29095555202319" lon="14.886963888987168" id="-23425">
		<tag k="fixme" v="consider natural=peak for the most distinct mountains in the district" />
		<tag k="name" v="Grønnåsen" />
		<tag k="natural" v="hill" />
		<tag k="place" v="locality" />
		<tag k="ssr:stedsnr" v="180233" />
	</node>
	<node lat="68.39272778161177" lon="14.441730558772665" id="-23426">
		<tag k="name" v="Kariberget" />
		<tag k="natural" v="hill" />
		<tag k="place" v="locality" />
		<tag k="ssr:stedsnr" v="180517" />
	</node>
	<node lat="68.39382499764491" lon="14.436761108723587" id="-23427">
		<tag k="name" v="Varhaugen" />
		<tag k="natural" v="hill" />
		<tag k="place" v="locality" />
		<tag k="ssr:stedsnr" v="180519" />
	</node>
	<node lat="68.35064444285908" lon="14.4386333419457" id="-23428">
		<tag k="name" v="Valhaugen" />
		<tag k="natural" v="hill" />
		<tag k="place" v="locality" />
		<tag k="ssr:stedsnr" v="180523" />
	</node>
	<node lat="68.3775305549149" lon="14.437847229497525" id="-23430">
		<tag k="name" v="Nordårvikhaugen" />
		<tag k="natural" v="hill" />
		<tag k="place" v="locality" />
		<tag k="ssr:stedsnr" v="180540" />
	</node>
	<node lat="68.38721944101131" lon="14.446486120480012" id="-23431">
		<tag k="name" v="Klavhaugen" />
		<tag k="natural" v="hill" />
		<tag k="place" v="locality" />
		<tag k="ssr:stedsnr" v="180543" />
	</node>
	<node lat="68.3263638898729" lon="14.68009443585191" id="-23434">
		<tag k="name" v="Jordneshaugen" />
		<tag k="natural" v="hill" />
		<tag k="place" v="locality" />
		<tag k="ssr:stedsnr" v="180832" />
	</node>
	<node lat="68.30682222172263" lon="14.359491674160415" id="-23440">
		<tag k="fixme" v="consider natural=peak for the most distinct mountains in the district" />
		<tag k="name" v="Steindalsheia" />
		<tag k="natural" v="hill" />
		<tag k="place" v="locality" />
		<tag k="ssr:stedsnr" v="199031" />
	</node>
	<node lat="68.3088944475736" lon="14.384886109813062" id="-23441">
		<tag k="name" v="Smådalan" />
		<tag k="natural" v="valley" />
		<tag k="place" v="locality" />
		<tag k="ssr:stedsnr" v="199034" />
	</node>
	<node lat="68.29792222227347" lon="14.239491661157714" id="-23443">
		<tag k="fixme" v="consider natural=peak for the most distinct mountains in the district" />
		<tag k="name" v="Lyngheia" />
		<tag k="natural" v="hill" />
		<tag k="place" v="locality" />
		<tag k="ssr:stedsnr" v="199062" />
	</node>
	<node lat="68.28740833565215" lon="15.060327767268111" id="-23448">
		<tag k="name" v="Jansdalen" />
		<tag k="natural" v="valley" />
		<tag k="place" v="locality" />
		<tag k="ssr:stedsnr" v="199101" />
	</node>
	<node lat="68.31566388446025" lon="14.155736110305243" id="-23455">
		<tag k="name" v="Storvadhaugen" />
		<tag k="natural" v="hill" />
		<tag k="place" v="locality" />
		<tag k="ssr:stedsnr" v="199147" />
	</node>
	<node lat="68.34244166295484" lon="14.606149999662703" id="-23465">
		<tag k="fixme" v="consider natural=peak for the most distinct mountains in the district" />
		<tag k="name" v="Hekkjelen" />
		<tag k="natural" v="hill" />
		<tag k="place" v="locality" />
		<tag k="ssr:stedsnr" v="199390" />
	</node>
	<node lat="68.34582499775325" lon="14.508105565867984" id="-23466">
		<tag k="name" v="Litlomndalen" />
		<tag k="natural" v="valley" />
		<tag k="place" v="locality" />
		<tag k="ssr:stedsnr" v="199391" />
	</node>
	<node lat="68.34104999585843" lon="14.671930566043786" id="-23467">
		<tag k="fixme" v="consider natural=peak for the most distinct mountains in the district" />
		<tag k="name" v="Kistbergtinden" />
		<tag k="natural" v="hill" />
		<tag k="place" v="locality" />
		<tag k="ssr:stedsnr" v="199393" />
	</node>
	<node lat="68.19511111241191" lon="14.309197230840208" id="-23469">
		<tag k="fixme" v="consider natural=peak for the most distinct mountains in the district" />
		<tag k="name" v="Kallebordet" />
		<tag k="natural" v="hill" />
		<tag k="place" v="locality" />
		<tag k="ssr:stedsnr" v="199475" />
	</node>
	<node lat="68.30527500126267" lon="14.82701389827622" id="-23470">
		<tag k="name" v="Vassdalen" />
		<tag k="natural" v="valley" />
		<tag k="place" v="locality" />
		<tag k="ssr:stedsnr" v="199512" />
	</node>
	<node lat="68.31133055236734" lon="14.850202768528822" id="-23471">
		<tag k="fixme" v="consider natural=peak for the most distinct mountains in the district" />
		<tag k="name" v="Hornet" />
		<tag k="natural" v="hill" />
		<tag k="place" v="locality" />
		<tag k="ssr:stedsnr" v="199515" />
	</node>
	<node lat="68.2963027819504" lon="14.90331944795649" id="-23474">
		<tag k="fixme" v="consider natural=peak for the most distinct mountains in the district" />
		<tag k="name" v="Hamntinden" />
		<tag k="natural" v="hill" />
		<tag k="place" v="locality" />
		<tag k="ssr:stedsnr" v="199524" />
	</node>
	<node lat="68.31958888428318" lon="14.672619453764714" id="-23475">
		<tag k="alt_name" v="Kolneslia" />
		<tag k="name" v="Koneslia" />
		<tag k="natural" v="slope" />
		<tag k="place" v="locality" />
		<tag k="ssr:stedsnr" v="199542" />
	</node>
	<node lat="68.28127499597132" lon="14.883677774601084" id="-23476">
		<tag k="name" v="Steindalen" />
		<tag k="natural" v="valley" />
		<tag k="place" v="locality" />
		<tag k="ssr:stedsnr" v="199629" />
	</node>
	<node lat="68.28743333543558" lon="14.908733338789247" id="-23480">
		<tag k="fixme" v="consider natural=peak for the most distinct mountains in the district" />
		<tag k="name" v="Grønåsen" />
		<tag k="natural" v="hill" />
		<tag k="place" v="locality" />
		<tag k="ssr:stedsnr" v="199580" />
	</node>
	<node lat="68.27903333604819" lon="15.010050012608213" id="-23498">
		<tag k="name" v="Heia" />
		<tag k="natural" v="hill" />
		<tag k="place" v="locality" />
		<tag k="ssr:stedsnr" v="207168" />
	</node>
	<node lat="68.30155277918875" lon="15.03594721231965" id="-23499">
		<tag k="name" v="Høgda" />
		<tag k="natural" v="hill" />
		<tag k="place" v="locality" />
		<tag k="ssr:stedsnr" v="207886" />
	</node>
	<node lat="68.28420833177985" lon="15.007663883384213" id="-23500">
		<tag k="fixme" v="consider natural=peak for the most distinct mountains in the district" />
		<tag k="name" v="Lilleårsteintinden" />
		<tag k="natural" v="hill" />
		<tag k="place" v="locality" />
		<tag k="ssr:stedsnr" v="207872" />
	</node>
	<node lat="68.39826388693615" lon="14.508091663571292" id="-23524">
		<tag k="fixme" v="consider natural=peak for the most distinct mountains in the district" />
		<tag k="name" v="Lilledelpen" />
		<tag k="natural" v="hill" />
		<tag k="place" v="locality" />
		<tag k="ssr:stedsnr" v="222757" />
	</node>
	<node lat="68.37576389001855" lon="14.48506389728214" id="-23525">
		<tag k="name" v="Høystakkdalen" />
		<tag k="natural" v="valley" />
		<tag k="place" v="locality" />
		<tag k="ssr:stedsnr" v="222763" />
	</node>
	<node lat="68.29602499738499" lon="14.26075833179533" id="-23528">
		<tag k="name" v="Blåfloget" />
		<tag k="natural" v="hill" />
		<tag k="place" v="locality" />
		<tag k="ssr:stedsnr" v="224308" />
	</node>
	<node lat="68.31046944614226" lon="14.503074999891712" id="-23538">
		<tag k="fixme" v="consider natural=peak for the most distinct mountains in the district" />
		<tag k="name" v="Damheia" />
		<tag k="natural" v="hill" />
		<tag k="place" v="locality" />
		<tag k="ssr:stedsnr" v="283888" />
	</node>
	<node lat="68.40086666700535" lon="14.52113055080803" id="-23541">
		<tag k="name" v="Svartholet" />
		<tag k="natural" v="valley" />
		<tag k="place" v="locality" />
		<tag k="ssr:stedsnr" v="283755" />
	</node>
	<node lat="68.40047777534441" lon="14.525619453747124" id="-23542">
		<tag k="name" v="Lillehaugen" />
		<tag k="natural" v="hill" />
		<tag k="place" v="locality" />
		<tag k="ssr:stedsnr" v="283756" />
	</node>
	<node lat="68.40123610686777" lon="14.524458337539524" id="-23543">
		<tag k="name" v="Storhaugen" />
		<tag k="natural" v="hill" />
		<tag k="place" v="locality" />
		<tag k="ssr:stedsnr" v="283757" />
	</node>
	<node lat="68.40092221859815" lon="14.500388878969506" id="-23544">
		<tag k="name" v="Forlovelsesberget" />
		<tag k="natural" v="hill" />
		<tag k="place" v="locality" />
		<tag k="ssr:stedsnr" v="283768" />
	</node>
	<node lat="68.33176666574734" lon="14.520569434702535" id="-23545">
		<tag k="name" v="Morfarhaugen" />
		<tag k="natural" v="hill" />
		<tag k="place" v="locality" />
		<tag k="ssr:stedsnr" v="283967" />
	</node>
	<node lat="68.30477499874766" lon="14.243675000870988" id="-23546">
		<tag k="name" v="Ørnhalsen" />
		<tag k="natural" v="valley" />
		<tag k="place" v="locality" />
		<tag k="ssr:stedsnr" v="284347" />
	</node>
	<node lat="68.29645555489789" lon="14.226722216329824" id="-23547">
		<tag k="fixme" v="consider natural=peak for the most distinct mountains in the district" />
		<tag k="name" v="Persatinden" />
		<tag k="natural" v="hill" />
		<tag k="place" v="locality" />
		<tag k="ssr:stedsnr" v="284350" />
	</node>
	<node lat="68.31988333606115" lon="14.355291656417197" id="-23551">
		<tag k="name" v="Vasshaugen" />
		<tag k="natural" v="hill" />
		<tag k="place" v="locality" />
		<tag k="ssr:stedsnr" v="300719" />
	</node>
	<node lat="68.27818888508735" lon="14.233924992862187" id="-23552">
		<tag k="name" v="Oppdalen" />
		<tag k="natural" v="valley" />
		<tag k="place" v="locality" />
		<tag k="ssr:stedsnr" v="301286" />
	</node>
	<node lat="68.35185832884385" lon="14.445525004392305" id="-23553">
		<tag k="name" v="Svinhaugen" />
		<tag k="natural" v="hill" />
		<tag k="place" v="locality" />
		<tag k="ssr:stedsnr" v="301547" />
	</node>
	<node lat="68.32517499577345" lon="14.613922215368143" id="-23555">
		<tag k="fixme" v="consider natural=peak for the most distinct mountains in the district" />
		<tag k="name" v="Storlitinden" />
		<tag k="natural" v="hill" />
		<tag k="place" v="locality" />
		<tag k="ssr:stedsnr" v="301844" />
	</node>
	<node lat="68.38128333098614" lon="14.405283339331824" id="-23558">
		<tag k="name" v="Klubbhaugen" />
		<tag k="natural" v="hill" />
		<tag k="place" v="locality" />
		<tag k="ssr:stedsnr" v="302549" />
	</node>
	<node lat="68.39427500352458" lon="14.44828610242836" id="-23559">
		<tag k="name" v="Larshaugen" />
		<tag k="natural" v="hill" />
		<tag k="place" v="locality" />
		<tag k="ssr:stedsnr" v="302553" />
	</node>
	<node lat="68.27850000412185" lon="14.837730564791647" id="-23563">
		<tag k="fixme" v="consider natural=peak for the most distinct mountains in the district" />
		<tag k="name" v="Kollen" />
		<tag k="natural" v="hill" />
		<tag k="place" v="locality" />
		<tag k="ssr:stedsnr" v="320203" />
	</node>
	<node lat="68.21491389263154" lon="14.819200002586948" id="-23564">
		<tag k="name" v="Hesten" />
		<tag k="natural" v="hill" />
		<tag k="place" v="locality" />
		<tag k="ssr:stedsnr" v="320210" />
	</node>
	<node lat="68.27531944404768" lon="14.191919455772807" id="-23565">
		<tag k="fixme" v="consider natural=peak for the most distinct mountains in the district" />
		<tag k="name" v="Skjolden" />
		<tag k="natural" v="hill" />
		<tag k="place" v="locality" />
		<tag k="ssr:stedsnr" v="320220" />
	</node>
	<node lat="68.26801944285266" lon="14.311669435479882" id="-23576">
		<tag k="fixme" v="consider natural=peak for the most distinct mountains in the district" />
		<tag k="name" v="Kleppstadheia" />
		<tag k="natural" v="hill" />
		<tag k="place" v="locality" />
		<tag k="ssr:stedsnr" v="320260" />
	</node>
	<node lat="68.24340278043144" lon="14.879052785342255" id="-23578">
		<tag k="name" v="Fløyberget" />
		<tag k="natural" v="hill" />
		<tag k="place" v="locality" />
		<tag k="ssr:stedsnr" v="320265" />
	</node>
	<node lat="68.24780555321743" lon="14.848683325060557" id="-23584">
		<tag k="fixme" v="consider natural=peak for the most distinct mountains in the district" />
		<tag k="name" v="Bretten" />
		<tag k="natural" v="hill" />
		<tag k="place" v="locality" />
		<tag k="ssr:stedsnr" v="320279" />
	</node>
	<node lat="68.36135277716808" lon="14.582811101640717" id="-23589">
		<tag k="name" v="Hesthausdalen" />
		<tag k="natural" v="valley" />
		<tag k="place" v="locality" />
		<tag k="ssr:stedsnr" v="320471" />
	</node>
	<node lat="68.31446110801043" lon="14.688966654266068" id="-23597">
		<tag k="fixme" v="consider natural=peak for the most distinct mountains in the district" />
		<tag k="name" v="Sildpollheia" />
		<tag k="natural" v="hill" />
		<tag k="place" v="locality" />
		<tag k="ssr:stedsnr" v="320519" />
	</node>
	<node lat="68.3294999990656" lon="14.825825007083832" id="-23598">
		<tag k="name" v="Rørhopskaret" />
		<tag k="natural" v="valley" />
		<tag k="place" v="locality" />
		<tag k="ssr:stedsnr" v="320523" />
	</node>
	<node lat="68.31304722508433" lon="14.455416663659243" id="-23599">
		<tag k="name" v="Blålyngdalen" />
		<tag k="natural" v="valley" />
		<tag k="place" v="locality" />
		<tag k="ssr:stedsnr" v="320527" />
	</node>
	<node lat="68.24786666405436" lon="14.47627223015954" id="-23600">
		<tag k="fixme" v="consider natural=peak for the most distinct mountains in the district" />
		<tag k="name" v="Løva" />
		<tag k="natural" v="hill" />
		<tag k="place" v="locality" />
		<tag k="ssr:stedsnr" v="320351" />
	</node>
	<node lat="68.22435833733964" lon="14.281116673862229" id="-23613">
		<tag k="alt_name" v="Høgtindan" />
		<tag k="fixme" v="consider natural=peak for the most distinct mountains in the district" />
		<tag k="name" v="Høgtinden" />
		<tag k="natural" v="hill" />
		<tag k="place" v="locality" />
		<tag k="ssr:stedsnr" v="320559" />
	</node>
	<node lat="68.228780556756" lon="14.257247214305679" id="-23615">
		<tag k="alt_name" v="Farsdalen" />
		<tag k="name" v="Forsdalen" />
		<tag k="natural" v="valley" />
		<tag k="place" v="locality" />
		<tag k="ssr:stedsnr" v="320566" />
	</node>
	<node lat="68.26518888791657" lon="14.66698611800538" id="-23616">
		<tag k="fixme" v="consider natural=peak for the most distinct mountains in the district" />
		<tag k="name" v="Sandvikheia" />
		<tag k="natural" v="hill" />
		<tag k="place" v="locality" />
		<tag k="ssr:stedsnr" v="320569" />
	</node>
	<node lat="68.25738333294693" lon="14.825663882374286" id="-23625">
		<tag k="name" v="Svarthola" />
		<tag k="natural" v="valley" />
		<tag k="place" v="locality" />
		<tag k="ssr:stedsnr" v="320666" />
	</node>
	<node lat="68.32456388974926" lon="15.056247212739825" id="-23628">
		<tag k="name" v="Bjørnhamran" />
		<tag k="natural" v="slope" />
		<tag k="place" v="locality" />
		<tag k="ssr:stedsnr" v="320947" />
	</node>
	<node lat="68.30685833643743" lon="15.024852783994392" id="-23640">
		<tag k="name" v="Vollbenkan" />
		<tag k="natural" v="hill" />
		<tag k="place" v="locality" />
		<tag k="ssr:stedsnr" v="328084" />
	</node>
	<node lat="68.29945278130343" lon="14.936980548870723" id="-23641">
		<tag k="name" v="Øverhornhågen" />
		<tag k="natural" v="hill" />
		<tag k="place" v="locality" />
		<tag k="ssr:stedsnr" v="328699" />
	</node>
	<node lat="68.31367499713616" lon="14.565230553068576" id="-23659">
		<tag k="name" v="Holmhaugen" />
		<tag k="natural" v="hill" />
		<tag k="place" v="locality" />
		<tag k="ssr:stedsnr" v="343952" />
	</node>
	<node lat="68.33764999644274" lon="14.56962777980489" id="-23661">
		<tag k="name" v="Storhammaren" />
		<tag k="natural" v="hill" />
		<tag k="place" v="locality" />
		<tag k="ssr:stedsnr" v="343979" />
	</node>
	<node lat="68.30783611481029" lon="14.209363886690946" id="-23662">
		<tag k="fixme" v="consider natural=peak for the most distinct mountains in the district" />
		<tag k="name" v="Vinjefjellet" />
		<tag k="natural" v="hill" />
		<tag k="place" v="locality" />
		<tag k="ssr:stedsnr" v="345328" />
	</node>
	<node lat="68.32511944676467" lon="14.11103332802025" id="-23670">
		<tag k="name" v="Steinhaugen" />
		<tag k="natural" v="hill" />
		<tag k="place" v="locality" />
		<tag k="ssr:stedsnr" v="358469" />
	</node>
	<node lat="68.27285555840277" lon="14.374361101319293" id="-23671">
		<tag k="name" v="Borkkvannto" />
		<tag k="natural" v="slope" />
		<tag k="place" v="locality" />
		<tag k="ssr:stedsnr" v="360651" />
	</node>
	<node lat="68.27473333194045" lon="14.337780566625147" id="-23672">
		<tag k="name" v="Melksletta" />
		<tag k="place" v="locality" />
		<tag k="ssr:stedsnr" v="360654" />
	</node>
	<node lat="68.26663611112785" lon="14.347305548168507" id="-23673">
		<tag k="name" v="Steindalen" />
		<tag k="natural" v="valley" />
		<tag k="place" v="locality" />
		<tag k="ssr:stedsnr" v="360664" />
	</node>
	<node lat="68.3321194431065" lon="14.33761667304049" id="-23675">
		<tag k="name" v="Slettbakken" />
		<tag k="natural" v="slope" />
		<tag k="place" v="locality" />
		<tag k="ssr:stedsnr" v="360687" />
	</node>
	<node lat="68.28872777891598" lon="14.356341661143995" id="-23676">
		<tag k="name" v="Melkersletta" />
		<tag k="place" v="locality" />
		<tag k="ssr:stedsnr" v="360647" />
	</node>
	<node lat="68.2658777750898" lon="14.321652785871274" id="-23677">
		<tag k="name" v="Sauhumpen" />
		<tag k="natural" v="hill" />
		<tag k="place" v="locality" />
		<tag k="ssr:stedsnr" v="360648" />
	</node>
	<node lat="68.3278861129987" lon="14.448874993850492" id="-23678">
		<tag k="name" v="Bruddet" />
		<tag k="natural" v="valley" />
		<tag k="place" v="locality" />
		<tag k="ssr:stedsnr" v="360713" />
	</node>
	<node lat="68.30775833176973" lon="14.319533327597954" id="-23679">
		<tag k="name" v="Skaret" />
		<tag k="natural" v="valley" />
		<tag k="place" v="locality" />
		<tag k="ssr:stedsnr" v="360720" />
	</node>
	<node lat="68.33122500073215" lon="14.342908338105591" id="-23681">
		<tag k="name" v="Smålian" />
		<tag k="natural" v="slope" />
		<tag k="place" v="locality" />
		<tag k="ssr:stedsnr" v="360689" />
	</node>
	<node lat="68.35118888437114" lon="14.452002788766102" id="-23685">
		<tag k="name" v="Godhaugen" />
		<tag k="natural" v="hill" />
		<tag k="place" v="locality" />
		<tag k="ssr:stedsnr" v="362543" />
	</node>
	<node lat="68.33613889059691" lon="14.551252782164951" id="-23690">
		<tag k="name" v="Mørkdalen" />
		<tag k="natural" v="valley" />
		<tag k="place" v="locality" />
		<tag k="ssr:stedsnr" v="380457" />
	</node>
	<node lat="68.29725555114914" lon="14.658044452483443" id="-23691">
		<tag k="fixme" v="consider natural=peak for the most distinct mountains in the district" />
		<tag k="name" v="Stampen" />
		<tag k="natural" v="hill" />
		<tag k="place" v="locality" />
		<tag k="ssr:stedsnr" v="380556" />
	</node>
	<node lat="68.25541666389088" lon="14.371358331433317" id="-23692">
		<tag k="name" v="Klubban" />
		<tag k="natural" v="hill" />
		<tag k="place" v="locality" />
		<tag k="ssr:stedsnr" v="380142" />
	</node>
	<node lat="68.38805833515579" lon="14.510891667387709" id="-23697">
		<tag k="name" v="Gjersvolldalen" />
		<tag k="natural" v="valley" />
		<tag k="place" v="locality" />
		<tag k="ssr:stedsnr" v="380287" />
	</node>
	<node lat="68.39640833326254" lon="14.51776944969387" id="-23699">
		<tag k="fixme" v="multiple name tags, choose one and add the other to alt_name; consider natural=peak for the most distinct mountains in the district" />
		<tag k="name" v="Delpen;Delpaksla" />
		<tag k="natural" v="hill" />
		<tag k="place" v="locality" />
		<tag k="ssr:stedsnr" v="380291" />
	</node>
	<node lat="68.23800555800594" lon="14.847952790271787" id="-23704">
		<tag k="name" v="Dalen" />
		<tag k="natural" v="valley" />
		<tag k="place" v="locality" />
		<tag k="ssr:stedsnr" v="380300" />
	</node>
	<node lat="68.21455555860744" lon="14.788597222483155" id="-23706">
		<tag k="fixme" v="consider natural=peak for the most distinct mountains in the district" />
		<tag k="name" v="Vikaaksla" />
		<tag k="natural" v="hill" />
		<tag k="place" v="locality" />
		<tag k="ssr:stedsnr" v="380239" />
	</node>
	<node lat="68.30741944657896" lon="14.612650006150078" id="-23712">
		<tag k="alt_name" v="Tennvassdalen" />
		<tag k="name" v="Ternvassdalen" />
		<tag k="natural" v="valley" />
		<tag k="place" v="locality" />
		<tag k="ssr:stedsnr" v="380586" />
	</node>
	<node lat="68.33055278127875" lon="14.105650000173764" id="-23715">
		<tag k="fixme" v="consider natural=peak for the most distinct mountains in the district" />
		<tag k="name" v="Hoven" />
		<tag k="natural" v="hill" />
		<tag k="place" v="locality" />
		<tag k="ssr:stedsnr" v="381084" />
	</node>
	<node lat="68.30770833398124" lon="14.316383338545421" id="-23718">
		<tag k="name" v="Klubben" />
		<tag k="natural" v="hill" />
		<tag k="place" v="locality" />
		<tag k="ssr:stedsnr" v="381030" />
	</node>
	<node lat="68.31673055185108" lon="14.320769449185525" id="-23721">
		<tag k="fixme" v="consider natural=peak for the most distinct mountains in the district" />
		<tag k="name" v="Vassula" />
		<tag k="natural" v="hill" />
		<tag k="place" v="locality" />
		<tag k="ssr:stedsnr" v="381137" />
	</node>
	<node lat="68.20725277865688" lon="14.749900007959253" id="-23728">
		<tag k="name" v="Kollen" />
		<tag k="natural" v="hill" />
		<tag k="place" v="locality" />
		<tag k="ssr:stedsnr" v="381254" />
	</node>
	<node lat="68.32309444807859" lon="14.569708327068419" id="-23731">
		<tag k="fixme" v="consider natural=peak for the most distinct mountains in the district" />
		<tag k="name" v="Storvasstinden" />
		<tag k="natural" v="hill" />
		<tag k="place" v="locality" />
		<tag k="ssr:stedsnr" v="381426" />
	</node>
	<node lat="68.32577777688893" lon="14.553619451850963" id="-23732">
		<tag k="fixme" v="consider natural=peak for the most distinct mountains in the district" />
		<tag k="name" v="Bruryggen" />
		<tag k="natural" v="hill" />
		<tag k="place" v="locality" />
		<tag k="ssr:stedsnr" v="381427" />
	</node>
	<node lat="68.29951111444623" lon="14.888569443733445" id="-23737">
		<tag k="name" v="Gløtthaugen" />
		<tag k="natural" v="hill" />
		<tag k="place" v="locality" />
		<tag k="ssr:stedsnr" v="381519" />
	</node>
	<node lat="68.30938055584788" lon="14.435861102653808" id="-23740">
		<tag k="fixme" v="consider natural=peak for the most distinct mountains in the district" />
		<tag k="name" v="Sandviktinden" />
		<tag k="natural" v="hill" />
		<tag k="place" v="locality" />
		<tag k="ssr:stedsnr" v="381540" />
	</node>
	<node lat="68.3169222230293" lon="14.845558329985199" id="-23741">
		<tag k="fixme" v="consider natural=peak for the most distinct mountains in the district" />
		<tag k="name" v="Rørhoptindan" />
		<tag k="natural" v="hill" />
		<tag k="place" v="locality" />
		<tag k="ssr:stedsnr" v="381549" />
	</node>
	<node lat="68.31721389221886" lon="14.803344448993313" id="-23743">
		<tag k="fixme" v="consider natural=peak for the most distinct mountains in the district" />
		<tag k="name" v="Stortinden" />
		<tag k="natural" v="hill" />
		<tag k="place" v="locality" />
		<tag k="ssr:stedsnr" v="381551" />
	</node>
	<node lat="68.28942778114708" lon="14.56506389723997" id="-23756">
		<tag k="fixme" v="multiple name tags, choose one and add the other to alt_name; consider natural=peak for the most distinct mountains in the district" />
		<tag k="name" v="Rundfjellet;Suolovarri" />
		<tag k="natural" v="hill" />
		<tag k="place" v="locality" />
		<tag k="ssr:stedsnr" v="381617" />
	</node>
	<node lat="68.25775278048862" lon="14.864680554026378" id="-23759">
		<tag k="fixme" v="consider natural=peak for the most distinct mountains in the district" />
		<tag k="name" v="Slettfjellet" />
		<tag k="natural" v="hill" />
		<tag k="place" v="locality" />
		<tag k="ssr:stedsnr" v="382043" />
	</node>
	<node lat="68.30237222255548" lon="15.029808339529954" id="-23770">
		<tag k="name" v="Bårdshaugen" />
		<tag k="natural" v="hill" />
		<tag k="place" v="locality" />
		<tag k="ssr:stedsnr" v="389882" />
	</node>
	<node lat="68.30175277754866" lon="15.063338897376813" id="-23771">
		<tag k="name" v="Brattbakken" />
		<tag k="natural" v="slope" />
		<tag k="place" v="locality" />
		<tag k="ssr:stedsnr" v="390625" />
	</node>
	<node lat="68.28765833057255" lon="15.071805559869908" id="-23772">
		<tag k="name" v="Austre Jansdalen" />
		<tag k="natural" v="valley" />
		<tag k="place" v="locality" />
		<tag k="ssr:stedsnr" v="390666" />
	</node>
	<node lat="68.39707222229114" lon="14.517488897019334" id="-23803">
		<tag k="fixme" v="consider natural=peak for the most distinct mountains in the district" />
		<tag k="name" v="Nonstuva" />
		<tag k="natural" v="hill" />
		<tag k="place" v="locality" />
		<tag k="ssr:stedsnr" v="404738" />
	</node>
	<node lat="68.3842583322053" lon="14.462322211352104" id="-23805">
		<tag k="name" v="Rypneshaugen" />
		<tag k="natural" v="hill" />
		<tag k="place" v="locality" />
		<tag k="ssr:stedsnr" v="404750" />
	</node>
	<node lat="68.39461666512658" lon="14.467966666859084" id="-23806">
		<tag k="name" v="Gravhaug" />
		<tag k="natural" v="hill" />
		<tag k="place" v="locality" />
		<tag k="ssr:stedsnr" v="404763" />
	</node>
	<node lat="68.31319166533218" lon="14.576902787212921" id="-23807">
		<tag k="name" v="Engbærbakken" />
		<tag k="natural" v="slope" />
		<tag k="place" v="locality" />
		<tag k="ssr:stedsnr" v="404930" />
	</node>
	<node lat="68.3284361145617" lon="14.094352787111243" id="-23816">
		<tag k="name" v="Nausthaugan" />
		<tag k="natural" v="hill" />
		<tag k="place" v="locality" />
		<tag k="ssr:stedsnr" v="419459" />
	</node>
	<node lat="68.32677777841566" lon="14.110822227173356" id="-23817">
		<tag k="name" v="Rabben" />
		<tag k="natural" v="ridge" />
		<tag k="place" v="locality" />
		<tag k="ssr:stedsnr" v="419471" />
	</node>
	<node lat="68.2295305539367" lon="14.303713898084712" id="-23819">
		<tag k="fixme" v="consider natural=peak for the most distinct mountains in the district" />
		<tag k="name" v="Lyngværfjellet" />
		<tag k="natural" v="hill" />
		<tag k="place" v="locality" />
		<tag k="ssr:stedsnr" v="421628" />
	</node>
	<node lat="68.28926666424186" lon="14.338616655016331" id="-23822">
		<tag k="name" v="Fjertberget" />
		<tag k="natural" v="hill" />
		<tag k="place" v="locality" />
		<tag k="ssr:stedsnr" v="422680" />
	</node>
	<node lat="68.32301944233726" lon="14.350252774209583" id="-23823">
		<tag k="name" v="Larssletta" />
		<tag k="place" v="locality" />
		<tag k="ssr:stedsnr" v="422712" />
	</node>
	<node lat="68.30802500292084" lon="14.341733331602526" id="-23826">
		<tag k="name" v="Gravermarkheia" />
		<tag k="natural" v="hill" />
		<tag k="place" v="locality" />
		<tag k="ssr:stedsnr" v="422730" />
	</node>
	<node lat="68.29017500164682" lon="14.336774994517555" id="-23828">
		<tag k="name" v="Lyngrabben" />
		<tag k="natural" v="ridge" />
		<tag k="place" v="locality" />
		<tag k="ssr:stedsnr" v="422735" />
	</node>
	<node lat="68.30679722601263" lon="15.007055552210579" id="-23841">
		<tag k="alt_name" v="Kallkneet" />
		<tag k="fixme" v="consider natural=peak for the most distinct mountains in the district" />
		<tag k="name" v="Lallkneet" />
		<tag k="natural" v="hill" />
		<tag k="place" v="locality" />
		<tag k="ssr:stedsnr" v="441506" />
	</node>
	<node lat="68.2455250042301" lon="14.86457778489496" id="-23846">
		<tag k="name" v="Hesjesletta" />
		<tag k="place" v="locality" />
		<tag k="ssr:stedsnr" v="441254" />
	</node>
	<node lat="68.24268611017665" lon="14.845769452265246" id="-23848">
		<tag k="name" v="Ørntuva" />
		<tag k="natural" v="hill" />
		<tag k="place" v="locality" />
		<tag k="ssr:stedsnr" v="441262" />
	</node>
	<node lat="68.2486444457" lon="14.830713885897612" id="-23849">
		<tag k="fixme" v="consider natural=peak for the most distinct mountains in the district" />
		<tag k="name" v="Sørfjellet" />
		<tag k="natural" v="hill" />
		<tag k="place" v="locality" />
		<tag k="ssr:stedsnr" v="441263" />
	</node>
	<node lat="68.2651611071027" lon="14.87978333543855" id="-23852">
		<tag k="fixme" v="consider natural=peak for the most distinct mountains in the district" />
		<tag k="name" v="Kvannlitinden" />
		<tag k="natural" v="hill" />
		<tag k="place" v="locality" />
		<tag k="ssr:stedsnr" v="442673" />
	</node>
	<node lat="68.3030833300331" lon="14.339427773734537" id="-23856">
		<tag k="name" v="Gravermarkdalen" />
		<tag k="natural" v="valley" />
		<tag k="place" v="locality" />
		<tag k="ssr:stedsnr" v="442029" />
	</node>
	<node lat="68.31183888504833" lon="14.351008337471656" id="-23857">
		<tag k="fixme" v="consider natural=peak for the most distinct mountains in the district" />
		<tag k="name" v="Storhøken" />
		<tag k="natural" v="hill" />
		<tag k="place" v="locality" />
		<tag k="ssr:stedsnr" v="442032" />
	</node>
	<node lat="68.33024444570798" lon="15.160236110647242" id="-23858">
		<tag k="name" v="Stordalen" />
		<tag k="natural" v="valley" />
		<tag k="place" v="locality" />
		<tag k="ssr:stedsnr" v="441957" />
	</node>
	<node lat="68.2992166668258" lon="14.387505546165333" id="-23862">
		<tag k="fixme" v="multiple name tags, choose one and add the other to alt_name; consider natural=peak for the most distinct mountains in the district" />
		<tag k="name" v="Sydalstinden;Skartinden" />
		<tag k="natural" v="hill" />
		<tag k="place" v="locality" />
		<tag k="ssr:stedsnr" v="442060" />
	</node>
	<node lat="68.29241944244309" lon="14.2212861140713" id="-23865">
		<tag k="fixme" v="consider natural=peak for the most distinct mountains in the district" />
		<tag k="name" v="Trolldalstindan" />
		<tag k="natural" v="hill" />
		<tag k="place" v="locality" />
		<tag k="ssr:stedsnr" v="442079" />
	</node>
	<node lat="68.2628222230202" lon="14.394341676508864" id="-23867">
		<tag k="name" v="Olderfjordbotnen" />
		<tag k="natural" v="valley" />
		<tag k="place" v="locality" />
		<tag k="ssr:stedsnr" v="442140" />
	</node>
	<node lat="68.37860833414716" lon="14.515586103035403" id="-23878">
		<tag k="name" v="Mølndalen" />
		<tag k="natural" v="valley" />
		<tag k="place" v="locality" />
		<tag k="ssr:stedsnr" v="442451" />
	</node>
	<node lat="68.20461944018972" lon="14.28570556177962" id="-23884">
		<tag k="name" v="Svartdalen" />
		<tag k="natural" v="valley" />
		<tag k="place" v="locality" />
		<tag k="ssr:stedsnr" v="442433" />
	</node>
	<node lat="68.24211388986356" lon="14.290047224995295" id="-23885">
		<tag k="name" v="Storhaugen" />
		<tag k="natural" v="hill" />
		<tag k="place" v="locality" />
		<tag k="ssr:stedsnr" v="442520" />
	</node>
	<node lat="68.3447305538159" lon="15.171224988032598" id="-23889">
		<tag k="fixme" v="consider natural=peak for the most distinct mountains in the district" />
		<tag k="name" v="Vasstindan" />
		<tag k="natural" v="hill" />
		<tag k="place" v="locality" />
		<tag k="ssr:stedsnr" v="442972" />
	</node>
	<node lat="68.36705278061174" lon="14.473133332325727" id="-23915">
		<tag k="fixme" v="consider natural=peak for the most distinct mountains in the district" />
		<tag k="name" v="Storaksla" />
		<tag k="natural" v="hill" />
		<tag k="place" v="locality" />
		<tag k="ssr:stedsnr" v="502490" />
	</node>
	<node lat="68.36661666518935" lon="14.446477788600104" id="-23916">
		<tag k="name" v="Hellhaugen" />
		<tag k="natural" v="hill" />
		<tag k="place" v="locality" />
		<tag k="ssr:stedsnr" v="502491" />
	</node>
	<node lat="68.29940555354182" lon="14.817263888688451" id="-23917">
		<tag k="name" v="Tjørndalen" />
		<tag k="natural" v="valley" />
		<tag k="place" v="locality" />
		<tag k="ssr:stedsnr" v="502509" />
	</node>
	<node lat="68.32961944603264" lon="14.373288894835923" id="-23923">
		<tag k="alt_name" v="Selskogdalen" />
		<tag k="name" v="Seljeskogdalen" />
		<tag k="natural" v="valley" />
		<tag k="place" v="locality" />
		<tag k="ssr:stedsnr" v="502067" />
	</node>
	<node lat="68.2685805554047" lon="14.372808325935912" id="-23933">
		<tag k="alt_name" v="Lilletuva" />
		<tag k="fixme" v="consider natural=peak for the most distinct mountains in the district" />
		<tag k="name" v="Litltuva" />
		<tag k="natural" v="hill" />
		<tag k="place" v="locality" />
		<tag k="ssr:stedsnr" v="502237" />
	</node>
	<node lat="68.17853889079957" lon="14.250594440162864" id="-23943">
		<tag k="fixme" v="consider natural=peak for the most distinct mountains in the district" />
		<tag k="name" v="Trolldalsheia" />
		<tag k="natural" v="hill" />
		<tag k="place" v="locality" />
		<tag k="ssr:stedsnr" v="502370" />
	</node>
	<node lat="68.33922222000471" lon="14.580741674762093" id="-23944">
		<tag k="fixme" v="multiple name tags, choose one and add the other to alt_name" />
		<tag k="name" v="Øvredalen;Annerøverdalen" />
		<tag k="natural" v="valley" />
		<tag k="place" v="locality" />
		<tag k="ssr:stedsnr" v="502434" />
	</node>
	<node lat="68.30640555447484" lon="14.49429999381407" id="-23950">
		<tag k="name" v="Trolldalen" />
		<tag k="natural" v="valley" />
		<tag k="place" v="locality" />
		<tag k="ssr:stedsnr" v="502546" />
	</node>
	<node lat="68.22326666638426" lon="14.339966668620866" id="-23952">
		<tag k="fixme" v="consider natural=peak for the most distinct mountains in the district" />
		<tag k="name" v="Hesten og mannen" />
		<tag k="natural" v="hill" />
		<tag k="place" v="locality" />
		<tag k="ssr:stedsnr" v="502556" />
	</node>
	<node lat="68.29903611206443" lon="14.653380552163513" id="-23955">
		<tag k="fixme" v="consider natural=peak for the most distinct mountains in the district" />
		<tag k="name" v="Tappen" />
		<tag k="natural" v="hill" />
		<tag k="place" v="locality" />
		<tag k="ssr:stedsnr" v="502517" />
	</node>
	<node lat="68.28638055770178" lon="14.48324998901226" id="-23961">
		<tag k="fixme" v="consider natural=peak for the most distinct mountains in the district" />
		<tag k="name" v="Torskmannen" />
		<tag k="natural" v="hill" />
		<tag k="place" v="locality" />
		<tag k="ssr:stedsnr" v="503052" />
	</node>
	<node lat="68.35788333708399" lon="14.624763877536159" id="-23963">
		<tag k="alt_name" v="Breidtinden" />
		<tag k="fixme" v="consider natural=peak for the most distinct mountains in the district" />
		<tag k="name" v="Breitinden" />
		<tag k="natural" v="hill" />
		<tag k="place" v="locality" />
		<tag k="ssr:stedsnr" v="503057" />
	</node>
	<node lat="68.31054166712055" lon="14.077969434251623" id="-23990">
		<tag k="name" v="Kløfterhaugen" />
		<tag k="natural" v="hill" />
		<tag k="place" v="locality" />
		<tag k="ssr:stedsnr" v="525450" />
	</node>
	<node lat="68.39956666988088" lon="14.502366656550052" id="-23993">
		<tag k="name" v="Resmålshaugen" />
		<tag k="natural" v="hill" />
		<tag k="place" v="locality" />
		<tag k="ssr:stedsnr" v="525746" />
	</node>
	<node lat="68.30999444333968" lon="14.551336119431623" id="-23995">
		<tag k="fixme" v="consider natural=peak for the most distinct mountains in the district" />
		<tag k="name" v="Mellomkollen" />
		<tag k="natural" v="hill" />
		<tag k="place" v="locality" />
		<tag k="ssr:stedsnr" v="525920" />
	</node>
	<node lat="68.3385583320754" lon="14.560411109189113" id="-23997">
		<tag k="name" v="Innerronna" />
		<tag k="natural" v="slope" />
		<tag k="place" v="locality" />
		<tag k="ssr:stedsnr" v="525949" />
	</node>
	<node lat="68.32922499626002" lon="14.685002786533888" id="-24016">
		<tag k="name" v="Bjørnbakken" />
		<tag k="natural" v="slope" />
		<tag k="place" v="locality" />
		<tag k="ssr:stedsnr" v="544830" />
	</node>
	<node lat="68.3124027760534" lon="14.23636667351002" id="-24017">
		<tag k="name" v="Elvdalen" />
		<tag k="natural" v="valley" />
		<tag k="place" v="locality" />
		<tag k="ssr:stedsnr" v="544296" />
	</node>
	<node lat="68.27953055229452" lon="14.198672224091467" id="-24019">
		<tag k="name" v="Sætersletta" />
		<tag k="place" v="locality" />
		<tag k="ssr:stedsnr" v="544466" />
	</node>
	<node lat="68.39337221790335" lon="14.441372222122112" id="-24020">
		<tag k="name" v="Solhaugen" />
		<tag k="natural" v="hill" />
		<tag k="place" v="locality" />
		<tag k="ssr:stedsnr" v="544533" />
	</node>
	<node lat="68.31763333497828" lon="15.09689444603489" id="-24026">
		<tag k="alt_name" v="Breidtinden" />
		<tag k="fixme" v="consider natural=peak for the most distinct mountains in the district" />
		<tag k="name" v="Breitinden" />
		<tag k="natural" v="hill" />
		<tag k="place" v="locality" />
		<tag k="ssr:stedsnr" v="562001" />
	</node>
	<node lat="68.31178055418482" lon="14.073383337348483" id="-24034">
		<tag k="fixme" v="multiple name tags, choose one and add the other to alt_name" />
		<tag k="name" v="Vegghaugan;Veggen" />
		<tag k="natural" v="hill" />
		<tag k="place" v="locality" />
		<tag k="ssr:stedsnr" v="562093" />
	</node>
	<node lat="68.32349166759857" lon="14.3752277896577" id="-24045">
		<tag k="fixme" v="consider natural=peak for the most distinct mountains in the district" />
		<tag k="name" v="Brennfjellet" />
		<tag k="natural" v="hill" />
		<tag k="place" v="locality" />
		<tag k="ssr:stedsnr" v="562074" />
	</node>
	<node lat="68.34759166308673" lon="14.524030563144473" id="-24061">
		<tag k="fixme" v="consider natural=peak for the most distinct mountains in the district" />
		<tag k="name" v="Durmålstinden" />
		<tag k="natural" v="hill" />
		<tag k="place" v="locality" />
		<tag k="ssr:stedsnr" v="562388" />
	</node>
	<node lat="68.38798333342764" lon="14.433913878087992" id="-24065">
		<tag k="alt_name" v="Grønhaugen" />
		<tag k="name" v="Grønnhaugen" />
		<tag k="natural" v="hill" />
		<tag k="place" v="locality" />
		<tag k="ssr:stedsnr" v="562270" />
	</node>
	<node lat="68.34398610875641" lon="14.577658334556343" id="-24071">
		<tag k="fixme" v="consider natural=peak for the most distinct mountains in the district" />
		<tag k="name" v="Hesthausen" />
		<tag k="natural" v="hill" />
		<tag k="place" v="locality" />
		<tag k="ssr:stedsnr" v="562369" />
	</node>
	<node lat="68.29882777540718" lon="14.59890277076363" id="-24082">
		<tag k="fixme" v="consider natural=peak for the most distinct mountains in the district" />
		<tag k="name" v="Hellskarnuten" />
		<tag k="natural" v="hill" />
		<tag k="place" v="locality" />
		<tag k="ssr:stedsnr" v="562520" />
	</node>
	<node lat="68.29914443979142" lon="14.774505566251168" id="-24083">
		<tag k="fixme" v="consider natural=peak for the most distinct mountains in the district" />
		<tag k="name" v="Rulten" />
		<tag k="natural" v="hill" />
		<tag k="place" v="locality" />
		<tag k="ssr:stedsnr" v="562524" />
	</node>
	<node lat="68.29184999645726" lon="14.684611110956643" id="-24089">
		<tag k="name" v="Skreddardalen" />
		<tag k="natural" v="valley" />
		<tag k="place" v="locality" />
		<tag k="ssr:stedsnr" v="562602" />
	</node>
	<node lat="68.27833889082976" lon="14.861555560387993" id="-24090">
		<tag k="name" v="Ulvågskaret" />
		<tag k="natural" v="valley" />
		<tag k="place" v="locality" />
		<tag k="ssr:stedsnr" v="562610" />
	</node>
	<node lat="68.3025388903856" lon="14.581477770897951" id="-24092">
		<tag k="name" v="Kudalen" />
		<tag k="natural" v="valley" />
		<tag k="place" v="locality" />
		<tag k="ssr:stedsnr" v="562557" />
	</node>
	<node lat="68.27943333610138" lon="14.435611116771845" id="-24094">
		<tag k="fixme" v="consider natural=peak for the most distinct mountains in the district" />
		<tag k="name" v="Blåtinden" />
		<tag k="natural" v="hill" />
		<tag k="place" v="locality" />
		<tag k="ssr:stedsnr" v="562626" />
	</node>
	<node lat="68.2949944456895" lon="14.219236115615116" id="-24100">
		<tag k="fixme" v="consider natural=peak for the most distinct mountains in the district" />
		<tag k="name" v="Høgheia" />
		<tag k="natural" v="hill" />
		<tag k="place" v="locality" />
		<tag k="ssr:stedsnr" v="563031" />
	</node>
	<node lat="68.34000277493652" lon="14.454044452366517" id="-24103">
		<tag k="name" v="Storhaugen" />
		<tag k="natural" v="hill" />
		<tag k="place" v="locality" />
		<tag k="ssr:stedsnr" v="563050" />
	</node>
	<node lat="68.22780833520916" lon="14.858986122532366" id="-24108">
		<tag k="alt_name" v="Veten" />
		<tag k="name" v="Vetten" />
		<tag k="natural" v="hill" />
		<tag k="place" v="locality" />
		<tag k="ssr:stedsnr" v="563190" />
	</node>
	<node lat="68.21088055708324" lon="14.356355562611107" id="-24114">
		<tag k="name" v="Spengerne" />
		<tag k="natural" v="valley" />
		<tag k="place" v="locality" />
		<tag k="ssr:stedsnr" v="563422" />
	</node>
	<node lat="68.31743055323243" lon="14.577541675825408" id="-24118">
		<tag k="fixme" v="consider natural=peak for the most distinct mountains in the district" />
		<tag k="name" v="Ingeborghaugen" />
		<tag k="natural" v="hill" />
		<tag k="place" v="locality" />
		<tag k="ssr:stedsnr" v="563505" />
	</node>
	<node lat="68.22612222577771" lon="14.245466666397611" id="-24123">
		<tag k="fixme" v="consider natural=peak for the most distinct mountains in the district" />
		<tag k="name" v="Skredtinden" />
		<tag k="natural" v="hill" />
		<tag k="place" v="locality" />
		<tag k="ssr:stedsnr" v="563558" />
	</node>
	<node lat="68.23071944087275" lon="14.289322215810241" id="-24124">
		<tag k="name" v="Steindalen" />
		<tag k="natural" v="valley" />
		<tag k="place" v="locality" />
		<tag k="ssr:stedsnr" v="563561" />
	</node>
	<node lat="68.3343111069414" lon="15.118791677238312" id="-24130">
		<tag k="fixme" v="consider natural=peak for the most distinct mountains in the district" />
		<tag k="name" v="Nattmålstinden" />
		<tag k="natural" v="hill" />
		<tag k="place" v="locality" />
		<tag k="ssr:stedsnr" v="563965" />
	</node>
	<node lat="68.31204166998727" lon="15.022352769487691" id="-24142">
		<tag k="name" v="Heia" />
		<tag k="natural" v="hill" />
		<tag k="place" v="locality" />
		<tag k="ssr:stedsnr" v="570090" />
	</node>
	<node lat="68.30123414874201" lon="14.932109969286087" id="-24146">
		<tag k="name" v="Fjølhågen" />
		<tag k="natural" v="hill" />
		<tag k="place" v="locality" />
		<tag k="ssr:stedsnr" v="571672" />
	</node>
	<node lat="68.15725555575024" lon="14.686952773983009" id="-24150">
		<tag k="name" v="Laden" />
		<tag k="natural" v="hill" />
		<tag k="place" v="locality" />
		<tag k="ssr:stedsnr" v="573116" />
	</node>
	<node lat="68.40210000404974" lon="14.513291675304185" id="-24171">
		<tag k="name" v="Melkbærhaugen" />
		<tag k="natural" v="hill" />
		<tag k="place" v="locality" />
		<tag k="ssr:stedsnr" v="586770" />
	</node>
	<node lat="68.40293333480997" lon="14.524813881218195" id="-24172">
		<tag k="name" v="Vassberget" />
		<tag k="natural" v="hill" />
		<tag k="place" v="locality" />
		<tag k="ssr:stedsnr" v="586774" />
	</node>
	<node lat="68.38776944093792" lon="14.472116669977433" id="-24173">
		<tag k="name" v="Svarthaugen" />
		<tag k="natural" v="hill" />
		<tag k="place" v="locality" />
		<tag k="ssr:stedsnr" v="586782" />
	</node>
	<node lat="68.32198888580575" lon="14.48686109939721" id="-24174">
		<tag k="name" v="Storhaugen" />
		<tag k="natural" v="hill" />
		<tag k="place" v="locality" />
		<tag k="ssr:stedsnr" v="587895" />
	</node>
	<node lat="68.26874721979512" lon="14.165191677657852" id="-24176">
		<tag k="name" v="Hamnhaugen" />
		<tag k="natural" v="hill" />
		<tag k="place" v="locality" />
		<tag k="ssr:stedsnr" v="601930" />
	</node>
	<node lat="68.25470000307227" lon="14.318888893806438" id="-24180">
		<tag k="name" v="Svartfloget" />
		<tag k="natural" v="hill" />
		<tag k="place" v="locality" />
		<tag k="ssr:stedsnr" v="603661" />
	</node>
	<node lat="68.31149166939899" lon="14.338044444916767" id="-24189">
		<tag k="fixme" v="consider natural=peak for the most distinct mountains in the district" />
		<tag k="name" v="Salen" />
		<tag k="natural" v="hill" />
		<tag k="place" v="locality" />
		<tag k="ssr:stedsnr" v="623027" />
	</node>
	<node lat="68.29784999896776" lon="14.345419445611494" id="-24199">
		<tag k="fixme" v="consider natural=peak for the most distinct mountains in the district" />
		<tag k="name" v="Slettatinden" />
		<tag k="natural" v="hill" />
		<tag k="place" v="locality" />
		<tag k="ssr:stedsnr" v="623056" />
	</node>
	<node lat="68.24483888645958" lon="14.899375004662138" id="-24205">
		<tag k="name" v="Middagshaugen" />
		<tag k="natural" v="hill" />
		<tag k="place" v="locality" />
		<tag k="ssr:stedsnr" v="623275" />
	</node>
	<node lat="68.39725277468675" lon="14.527341660470906" id="-24209">
		<tag k="name" v="Bulia" />
		<tag k="natural" v="slope" />
		<tag k="place" v="locality" />
		<tag k="ssr:stedsnr" v="623296" />
	</node>
	<node lat="68.32415000373896" lon="15.183530562686164" id="-24218">
		<tag k="name" v="Storhaugen" />
		<tag k="natural" v="hill" />
		<tag k="place" v="locality" />
		<tag k="ssr:stedsnr" v="623952" />
	</node>
	<node lat="68.35974166514653" lon="14.65056389655149" id="-24220">
		<tag k="fixme" v="consider natural=peak for the most distinct mountains in the district" />
		<tag k="name" v="Kverkan" />
		<tag k="natural" v="hill" />
		<tag k="place" v="locality" />
		<tag k="ssr:stedsnr" v="623493" />
	</node>
	<node lat="68.25665000426255" lon="14.813705551283524" id="-24227">
		<tag k="alt_name" v="Heggdalen" />
		<tag k="name" v="Heggedalen" />
		<tag k="natural" v="valley" />
		<tag k="place" v="locality" />
		<tag k="ssr:stedsnr" v="623691" />
	</node>
	<node lat="68.33678333009405" lon="14.603822213906819" id="-24233">
		<tag k="fixme" v="consider natural=peak for the most distinct mountains in the district" />
		<tag k="name" v="Torskmannen" />
		<tag k="natural" v="hill" />
		<tag k="place" v="locality" />
		<tag k="ssr:stedsnr" v="623445" />
	</node>
	<node lat="68.23748333656468" lon="14.350772214289748" id="-24239">
		<tag k="name" v="Øvredalen" />
		<tag k="natural" v="valley" />
		<tag k="place" v="locality" />
		<tag k="ssr:stedsnr" v="623637" />
	</node>
	<node lat="68.33889444011449" lon="14.50689722784041" id="-24243">
		<tag k="fixme" v="consider natural=peak for the most distinct mountains in the district" />
		<tag k="name" v="Høgåsen" />
		<tag k="natural" v="hill" />
		<tag k="place" v="locality" />
		<tag k="ssr:stedsnr" v="624060" />
	</node>
	<node lat="68.29957500020951" lon="14.679538896096068" id="-24244">
		<tag k="name" v="Kvanndalen" />
		<tag k="natural" v="valley" />
		<tag k="place" v="locality" />
		<tag k="ssr:stedsnr" v="624063" />
	</node>
	<node lat="68.3420361115809" lon="15.127897213225234" id="-24249">
		<tag k="fixme" v="consider natural=peak for the most distinct mountains in the district" />
		<tag k="name" v="Trollvassbergan" />
		<tag k="natural" v="hill" />
		<tag k="place" v="locality" />
		<tag k="ssr:stedsnr" v="623991" />
	</node>
	<node lat="68.31360833395061" lon="14.999222210997232" id="-24260">
		<tag k="name" v="Lian" />
		<tag k="natural" v="slope" />
		<tag k="place" v="locality" />
		<tag k="ssr:stedsnr" v="631068" />
	</node>
	<node lat="68.27485833106932" lon="15.030241662529258" id="-24261">
		<tag k="name" v="Ørndalen" />
		<tag k="natural" v="valley" />
		<tag k="place" v="locality" />
		<tag k="ssr:stedsnr" v="632210" />
	</node>
	<node lat="68.27305277693664" lon="15.016519437512152" id="-24262">
		<tag k="name" v="Mølnhaugen" />
		<tag k="natural" v="hill" />
		<tag k="place" v="locality" />
		<tag k="ssr:stedsnr" v="632217" />
	</node>
	<node lat="68.27882777857826" lon="15.025272212255837" id="-24263">
		<tag k="name" v="Bjørnhaugen" />
		<tag k="natural" v="hill" />
		<tag k="place" v="locality" />
		<tag k="ssr:stedsnr" v="632225" />
	</node>
	<node lat="68.30745833226521" lon="15.089719452517064" id="-24264">
		<tag k="name" v="Svultendalen" />
		<tag k="natural" v="valley" />
		<tag k="place" v="locality" />
		<tag k="ssr:stedsnr" v="632620" />
	</node>
	<node lat="68.32833888930372" lon="14.548208327304838" id="-24286">
		<tag k="name" v="Aksla" />
		<tag k="natural" v="ridge" />
		<tag k="place" v="locality" />
		<tag k="ssr:stedsnr" v="646865" />
	</node>
	<node lat="68.33521111228775" lon="14.510886106464707" id="-24287">
		<tag k="fixme" v="consider natural=peak for the most distinct mountains in the district" />
		<tag k="name" v="Grindtaåsen" />
		<tag k="natural" v="hill" />
		<tag k="place" v="locality" />
		<tag k="ssr:stedsnr" v="646900" />
	</node>
	<node lat="68.34138055440518" lon="14.551688879876108" id="-24289">
		<tag k="name" v="Heimerronna" />
		<tag k="natural" v="slope" />
		<tag k="place" v="locality" />
		<tag k="ssr:stedsnr" v="646951" />
	</node>
	<node lat="68.34078889251036" lon="14.569302786545398" id="-24290">
		<tag k="fixme" v="consider natural=peak for the most distinct mountains in the district" />
		<tag k="name" v="Kjernan" />
		<tag k="natural" v="hill" />
		<tag k="place" v="locality" />
		<tag k="ssr:stedsnr" v="646953" />
	</node>
	<node lat="68.23459166826339" lon="14.23074444312282" id="-24292">
		<tag k="name" v="Stranden" />
		<tag k="place" v="locality" />
		<tag k="ssr:stedsnr" v="651023" />
	</node>
	<node lat="68.31837778203784" lon="14.05941111783983" id="-24299">
		<tag k="name" v="Varhaugen" />
		<tag k="natural" v="hill" />
		<tag k="place" v="locality" />
		<tag k="ssr:stedsnr" v="662950" />
	</node>
	<node lat="68.26175555613678" lon="14.358841659636337" id="-24303">
		<tag k="name" v="Hanslikollen" />
		<tag k="natural" v="hill" />
		<tag k="place" v="locality" />
		<tag k="ssr:stedsnr" v="664674" />
	</node>
	<node lat="68.33790000291106" lon="14.375805544360698" id="-24305">
		<tag k="name" v="Smogan" />
		<tag k="natural" v="slope" />
		<tag k="place" v="locality" />
		<tag k="ssr:stedsnr" v="664756" />
	</node>
	<node lat="68.30998610954622" lon="14.31420554486661" id="-24307">
		<tag k="name" v="Oksvallsletta" />
		<tag k="place" v="locality" />
		<tag k="ssr:stedsnr" v="664726" />
	</node>
	<node lat="68.32955555301474" lon="14.135830546610006" id="-24312">
		<tag k="name" v="Verhaugen" />
		<tag k="natural" v="hill" />
		<tag k="place" v="locality" />
		<tag k="ssr:stedsnr" v="889440" />
	</node>
	<node lat="68.31547499869384" lon="14.216011120975288" id="-24320">
		<tag k="name" v="Vinjelien" />
		<tag k="natural" v="slope" />
		<tag k="place" v="locality" />
		<tag k="ssr:stedsnr" v="723916" />
	</node>
	<node lat="68.27437222172243" lon="14.330138879550866" id="-24321">
		<tag k="name" v="Melkslettryggen" />
		<tag k="natural" v="slope" />
		<tag k="place" v="locality" />
		<tag k="ssr:stedsnr" v="725621" />
	</node>
	<node lat="68.27530555298144" lon="14.321686112190953" id="-24322">
		<tag k="name" v="Kuhammaren" />
		<tag k="natural" v="hill" />
		<tag k="place" v="locality" />
		<tag k="ssr:stedsnr" v="725622" />
	</node>
	<node lat="68.28479722352759" lon="14.377136113456443" id="-24323">
		<tag k="name" v="Skittenkråa" />
		<tag k="natural" v="slope" />
		<tag k="place" v="locality" />
		<tag k="ssr:stedsnr" v="725624" />
	</node>
	<node lat="68.25457500364962" lon="14.35057777464374" id="-24326">
		<tag k="name" v="Humpan" />
		<tag k="natural" v="hill" />
		<tag k="place" v="locality" />
		<tag k="ssr:stedsnr" v="725649" />
	</node>
	<node lat="68.31961110750974" lon="14.166674988026047" id="-24329">
		<tag k="name" v="Perhaugen" />
		<tag k="natural" v="hill" />
		<tag k="place" v="locality" />
		<tag k="ssr:stedsnr" v="726335" />
	</node>
	<node lat="68.2732944418162" lon="14.297733332098211" id="-24330">
		<tag k="name" v="Hersjerryggen" />
		<tag k="natural" v="ridge" />
		<tag k="place" v="locality" />
		<tag k="ssr:stedsnr" v="726339" />
	</node>
	<node lat="68.27134722150232" lon="14.250058321686824" id="-24331">
		<tag k="name" v="Småbakkan" />
		<tag k="natural" v="slope" />
		<tag k="place" v="locality" />
		<tag k="ssr:stedsnr" v="726341" />
	</node>
	<node lat="68.28264999939604" lon="15.032208343599068" id="-24337">
		<tag k="name" v="Årsteinskaret" />
		<tag k="natural" v="valley" />
		<tag k="place" v="locality" />
		<tag k="ssr:stedsnr" v="744059" />
	</node>
	<node lat="68.33084444343471" lon="15.093488897813296" id="-24342">
		<tag k="fixme" v="consider natural=peak for the most distinct mountains in the district" />
		<tag k="name" v="Vatnvågtindan" />
		<tag k="natural" v="hill" />
		<tag k="place" v="locality" />
		<tag k="ssr:stedsnr" v="744937" />
	</node>
	<node lat="68.30713055195693" lon="14.398988880120978" id="-24343">
		<tag k="name" v="Kvanndalen" />
		<tag k="natural" v="valley" />
		<tag k="place" v="locality" />
		<tag k="ssr:stedsnr" v="745037" />
	</node>
	<node lat="68.29665833193755" lon="14.187758327481014" id="-24344">
		<tag k="fixme" v="consider natural=peak for the most distinct mountains in the district" />
		<tag k="name" v="Jenndalsaksla" />
		<tag k="natural" v="hill" />
		<tag k="place" v="locality" />
		<tag k="ssr:stedsnr" v="745058" />
	</node>
	<node lat="68.31083610975949" lon="14.223627784955909" id="-24349">
		<tag k="fixme" v="consider natural=peak for the most distinct mountains in the district" />
		<tag k="name" v="Sandsmannen" />
		<tag k="natural" v="hill" />
		<tag k="place" v="locality" />
		<tag k="ssr:stedsnr" v="745149" />
	</node>
	<node lat="68.29352777921888" lon="14.34055277150573" id="-24353">
		<tag k="name" v="Svekollen" />
		<tag k="natural" v="hill" />
		<tag k="place" v="locality" />
		<tag k="ssr:stedsnr" v="745236" />
	</node>
	<node lat="68.27634444233736" lon="14.411019447986003" id="-24355">
		<tag k="fixme" v="consider natural=peak for the most distinct mountains in the district" />
		<tag k="name" v="Kvitskredtindan" />
		<tag k="natural" v="hill" />
		<tag k="place" v="locality" />
		<tag k="ssr:stedsnr" v="745252" />
	</node>
	<node lat="68.3090249973827" lon="14.840508344524519" id="-24368">
		<tag k="fixme" v="consider natural=peak for the most distinct mountains in the district" />
		<tag k="name" v="Gardstinden" />
		<tag k="natural" v="hill" />
		<tag k="place" v="locality" />
		<tag k="ssr:stedsnr" v="745501" />
	</node>
	<node lat="68.24087221851289" lon="14.337452781067435" id="-24371">
		<tag k="alt_name" v="Finnmarksdalen" />
		<tag k="name" v="Finnmarkdalen" />
		<tag k="natural" v="valley" />
		<tag k="place" v="locality" />
		<tag k="ssr:stedsnr" v="745619" />
	</node>
	<node lat="68.30715833276554" lon="14.578938897173334" id="-24373">
		<tag k="fixme" v="consider natural=peak for the most distinct mountains in the district" />
		<tag k="name" v="Kvannfjellet" />
		<tag k="natural" v="hill" />
		<tag k="place" v="locality" />
		<tag k="ssr:stedsnr" v="745535" />
	</node>
	<node lat="68.27222222241771" lon="14.642074995617016" id="-24376">
		<tag k="fixme" v="consider natural=peak for the most distinct mountains in the district" />
		<tag k="name" v="Ørnfloget" />
		<tag k="natural" v="hill" />
		<tag k="place" v="locality" />
		<tag k="ssr:stedsnr" v="745559" />
	</node>
	<node lat="68.26670555728683" lon="14.923666667620429" id="-24377">
		<tag k="name" v="Fjellkruna" />
		<tag k="natural" v="hill" />
		<tag k="place" v="locality" />
		<tag k="ssr:stedsnr" v="745667" />
	</node>
	<node lat="68.23080555716503" lon="14.868847223928396" id="-24378">
		<tag k="name" v="Ørntuva" />
		<tag k="natural" v="hill" />
		<tag k="place" v="locality" />
		<tag k="ssr:stedsnr" v="745856" />
	</node>
	<node lat="68.31616388924338" lon="14.99180833241264" id="-24396">
		<tag k="name" v="Høgda" />
		<tag k="natural" v="hill" />
		<tag k="place" v="locality" />
		<tag k="ssr:stedsnr" v="753048" />
	</node>
	<node lat="68.29731944736373" lon="14.946611118290148" id="-24398">
		<tag k="name" v="Løvdal" />
		<tag k="natural" v="valley" />
		<tag k="place" v="locality" />
		<tag k="ssr:stedsnr" v="753649" />
	</node>
	<node lat="68.29272777578471" lon="15.05662499327443" id="-24403">
		<tag k="name" v="Hamran" />
		<tag k="natural" v="hill" />
		<tag k="place" v="locality" />
		<tag k="ssr:stedsnr" v="754632" />
	</node>
	<node lat="68.34142777926606" lon="14.511116656725214" id="-24426">
		<tag k="fixme" v="consider natural=peak for the most distinct mountains in the district" />
		<tag k="name" v="Omnheia" />
		<tag k="natural" v="hill" />
		<tag k="place" v="locality" />
		<tag k="ssr:stedsnr" v="768929" />
	</node>
	<node lat="68.4008194419377" lon="14.510566653824991" id="-24428">
		<tag k="name" v="Lynberget" />
		<tag k="natural" v="hill" />
		<tag k="place" v="locality" />
		<tag k="ssr:stedsnr" v="768784" />
	</node>
	<node lat="68.39941111245429" lon="14.516611114716914" id="-24429">
		<tag k="fixme" v="consider natural=peak for the most distinct mountains in the district" />
		<tag k="name" v="Høgdelpen" />
		<tag k="natural" v="hill" />
		<tag k="place" v="locality" />
		<tag k="ssr:stedsnr" v="768787" />
	</node>
	<node lat="68.33960277875576" lon="14.561894451518972" id="-24430">
		<tag k="fixme" v="consider natural=peak for the most distinct mountains in the district" />
		<tag k="name" v="Storhumpen" />
		<tag k="natural" v="hill" />
		<tag k="place" v="locality" />
		<tag k="ssr:stedsnr" v="768964" />
	</node>
	<node lat="68.30170000317247" lon="14.249958339034926" id="-24432">
		<tag k="fixme" v="consider natural=peak for the most distinct mountains in the district" />
		<tag k="name" v="Svartåsen" />
		<tag k="natural" v="hill" />
		<tag k="place" v="locality" />
		<tag k="ssr:stedsnr" v="770319" />
	</node>
	<node lat="68.32610833045024" lon="14.52702222873268" id="-24433">
		<tag k="name" v="Lillejordhaugen" />
		<tag k="natural" v="hill" />
		<tag k="place" v="locality" />
		<tag k="ssr:stedsnr" v="770898" />
	</node>
	<node lat="68.28189722179462" lon="14.22673054347054" id="-24445">
		<tag k="name" v="Gjendalslien" />
		<tag k="natural" v="slope" />
		<tag k="place" v="locality" />
		<tag k="ssr:stedsnr" v="787342" />
	</node>
	<node lat="68.2827611128576" lon="14.153683338991975" id="-24446">
		<tag k="name" v="Sundklakkraet" />
		<tag k="natural" v="ridge" />
		<tag k="place" v="locality" />
		<tag k="ssr:stedsnr" v="787480" />
	</node>
	<node lat="68.30941666398739" lon="15.01220277583848" id="-24449">
		<tag k="fixme" v="consider natural=peak for the most distinct mountains in the district" />
		<tag k="name" v="Nordtinden" />
		<tag k="natural" v="hill" />
		<tag k="place" v="locality" />
		<tag k="ssr:stedsnr" v="805515" />
	</node>
	<node lat="68.23591667069202" lon="14.83034721257758" id="-24453">
		<tag k="alt_name" v="Svennen" />
		<tag k="fixme" v="consider natural=peak for the most distinct mountains in the district" />
		<tag k="name" v="Sveinen" />
		<tag k="natural" v="hill" />
		<tag k="place" v="locality" />
		<tag k="ssr:stedsnr" v="805272" />
	</node>
	<node lat="68.24239444196854" lon="14.86075832301355" id="-24454">
		<tag k="fixme" v="consider natural=peak for the most distinct mountains in the district" />
		<tag k="name" v="Sponga" />
		<tag k="natural" v="hill" />
		<tag k="place" v="locality" />
		<tag k="ssr:stedsnr" v="805273" />
	</node>
	<node lat="68.3985555590731" lon="14.525100004679016" id="-24455">
		<tag k="name" v="Svartfloget" />
		<tag k="natural" v="slope" />
		<tag k="place" v="locality" />
		<tag k="ssr:stedsnr" v="805277" />
	</node>
	<node lat="68.35136666756165" lon="14.77365833046561" id="-24459">
		<tag k="name" v="Kufoten" />
		<tag k="natural" v="slope" />
		<tag k="place" v="locality" />
		<tag k="ssr:stedsnr" v="805396" />
	</node>
	<node lat="68.30928055605982" lon="14.7873750051165" id="-24465">
		<tag k="alt_name" v="Langstrandfjellet" />
		<tag k="fixme" v="consider natural=peak for the most distinct mountains in the district" />
		<tag k="name" v="Langstrandtindan" />
		<tag k="natural" v="hill" />
		<tag k="place" v="locality" />
		<tag k="ssr:stedsnr" v="805517" />
	</node>
	<node lat="68.29585833634341" lon="14.206750010897016" id="-24470">
		<tag k="name" v="Trolldalen" />
		<tag k="natural" v="valley" />
		<tag k="place" v="locality" />
		<tag k="ssr:stedsnr" v="806048" />
	</node>
	<node lat="68.3854194460749" lon="14.45275834221383" id="-24476">
		<tag k="name" v="Bjørnhaugen" />
		<tag k="natural" v="hill" />
		<tag k="place" v="locality" />
		<tag k="ssr:stedsnr" v="806297" />
	</node>
	<node lat="68.2977694432385" lon="14.253527774286164" id="-24480">
		<tag k="alt_name" v="Kolltinden" />
		<tag k="fixme" v="consider natural=peak for the most distinct mountains in the district" />
		<tag k="name" v="Koltinden" />
		<tag k="natural" v="hill" />
		<tag k="place" v="locality" />
		<tag k="ssr:stedsnr" v="806041" />
	</node>
	<node lat="68.21468888701865" lon="14.771352766593568" id="-24486">
		<tag k="name" v="Norddalen" />
		<tag k="natural" v="valley" />
		<tag k="place" v="locality" />
		<tag k="ssr:stedsnr" v="806209" />
	</node>
	<node lat="68.20726666348679" lon="14.758286110340896" id="-24489">
		<tag k="name" v="Kalvdalen" />
		<tag k="natural" v="valley" />
		<tag k="place" v="locality" />
		<tag k="ssr:stedsnr" v="806231" />
	</node>
	<node lat="68.20489444303655" lon="14.426030562456928" id="-24490">
		<tag k="name" v="Klubben" />
		<tag k="natural" v="hill" />
		<tag k="place" v="locality" />
		<tag k="ssr:stedsnr" v="806234" />
	</node>
	<node lat="68.31199444264956" lon="14.468719447636417" id="-24521">
		<tag k="name" v="Sildalen" />
		<tag k="natural" v="valley" />
		<tag k="place" v="locality" />
		<tag k="ssr:stedsnr" v="806528" />
	</node>
	<node lat="68.30499166895649" lon="14.50363887911968" id="-24522">
		<tag k="name" v="Lappdalen" />
		<tag k="natural" v="valley" />
		<tag k="place" v="locality" />
		<tag k="ssr:stedsnr" v="806533" />
	</node>
	<node lat="68.28659166563229" lon="14.883011100225245" id="-24527">
		<tag k="fixme" v="consider natural=peak for the most distinct mountains in the district" />
		<tag k="name" v="Steindalstinden" />
		<tag k="natural" v="hill" />
		<tag k="place" v="locality" />
		<tag k="ssr:stedsnr" v="806582" />
	</node>
	<node lat="68.24701666868833" lon="14.382891671243136" id="-24529">
		<tag k="fixme" v="consider natural=peak for the most distinct mountains in the district" />
		<tag k="name" v="Nonstinden" />
		<tag k="natural" v="hill" />
		<tag k="place" v="locality" />
		<tag k="ssr:stedsnr" v="806591" />
	</node>
	<node lat="68.2332361138503" lon="14.387983325562287" id="-24530">
		<tag k="fixme" v="consider natural=peak for the most distinct mountains in the district" />
		<tag k="name" v="Varden" />
		<tag k="natural" v="hill" />
		<tag k="place" v="locality" />
		<tag k="ssr:stedsnr" v="806620" />
	</node>
	<node lat="68.27859444835858" lon="15.031683335968516" id="-24535">
		<tag k="alt_name" v="Litltinden" />
		<tag k="fixme" v="consider natural=peak for the most distinct mountains in the district" />
		<tag k="name" v="Lilletinden" />
		<tag k="natural" v="hill" />
		<tag k="place" v="locality" />
		<tag k="ssr:stedsnr" v="807435" />
	</node>
	<node lat="68.27556110965381" lon="15.039505551277555" id="-24551">
		<tag k="name" v="Hansrapa" />
		<tag k="natural" v="cliff" />
		<tag k="ssr:stedsnr" v="814197" />
	</node>
	<node lat="68.2663583308158" lon="15.0106805525731" id="-24552">
		<tag k="name" v="Middagshaugen" />
		<tag k="natural" v="hill" />
		<tag k="place" v="locality" />
		<tag k="ssr:stedsnr" v="814217" />
	</node>
	<node lat="68.27034166890222" lon="15.009941658769135" id="-24553">
		<tag k="name" v="Ganghaugen" />
		<tag k="natural" v="hill" />
		<tag k="place" v="locality" />
		<tag k="ssr:stedsnr" v="814220" />
	</node>
	<node lat="68.28631111347102" lon="14.998763896319064" id="-24577">
		<tag k="name" v="Skogjordhalsen" />
		<tag k="natural" v="valley" />
		<tag k="place" v="locality" />
		<tag k="ssr:stedsnr" v="825991" />
	</node>
	<node lat="68.27243889113605" lon="14.631080547572216" id="-24578">
		<tag k="name" v="Sæterhalsen" />
		<tag k="natural" v="valley" />
		<tag k="place" v="locality" />
		<tag k="ssr:stedsnr" v="829819" />
	</node>
	<node lat="68.32585277546028" lon="14.538041655317066" id="-24579">
		<tag k="name" v="Lillefjordhammaren" />
		<tag k="natural" v="hill" />
		<tag k="place" v="locality" />
		<tag k="ssr:stedsnr" v="829895" />
	</node>
	<node lat="68.29586388876538" lon="14.254561108975558" id="-24581">
		<tag k="name" v="Kollien" />
		<tag k="natural" v="slope" />
		<tag k="place" v="locality" />
		<tag k="ssr:stedsnr" v="831318" />
	</node>
	<node lat="68.2955722184374" lon="14.269688878243283" id="-24582">
		<tag k="name" v="Santerhaugen" />
		<tag k="natural" v="hill" />
		<tag k="place" v="locality" />
		<tag k="ssr:stedsnr" v="831320" />
	</node>
	<node lat="68.31806389066031" lon="14.493475009849904" id="-24583">
		<tag k="name" v="Vatnfjordhaugen" />
		<tag k="natural" v="hill" />
		<tag k="place" v="locality" />
		<tag k="ssr:stedsnr" v="889891" />
	</node>
	<node lat="68.22915277996987" lon="14.290486105748442" id="-24589">
		<tag k="name" v="Skakktindskaret" />
		<tag k="natural" v="valley" />
		<tag k="place" v="locality" />
		<tag k="ssr:stedsnr" v="834019" />
	</node>
	<node lat="68.26720833403297" lon="14.171538899213475" id="-24599">
		<tag k="name" v="Sundklakkhaugen" />
		<tag k="natural" v="hill" />
		<tag k="place" v="locality" />
		<tag k="ssr:stedsnr" v="845951" />
	</node>
	<node lat="68.35370555206744" lon="14.455830563083389" id="-24600">
		<tag k="name" v="Bekkhaugen" />
		<tag k="natural" v="hill" />
		<tag k="place" v="locality" />
		<tag k="ssr:stedsnr" v="846750" />
	</node>
	<node lat="68.27131944280457" lon="14.340999995514329" id="-24602">
		<tag k="name" v="Middagsdalen" />
		<tag k="natural" v="valley" />
		<tag k="place" v="locality" />
		<tag k="ssr:stedsnr" v="846664" />
	</node>
	<node lat="68.28690833155531" lon="14.266044435889576" id="-24604">
		<tag k="name" v="Haugan" />
		<tag k="natural" v="hill" />
		<tag k="place" v="locality" />
		<tag k="ssr:stedsnr" v="848342" />
	</node>
	<node lat="68.28275833565127" lon="14.266783345323978" id="-24605">
		<tag k="name" v="Nerkleiva" />
		<tag k="natural" v="slope" />
		<tag k="place" v="locality" />
		<tag k="ssr:stedsnr" v="848343" />
	</node>
	<node lat="68.27726666477479" lon="14.186791659166582" id="-24606">
		<tag k="fixme" v="consider natural=peak for the most distinct mountains in the district" />
		<tag k="name" v="Sundklakkaksla" />
		<tag k="natural" v="hill" />
		<tag k="place" v="locality" />
		<tag k="ssr:stedsnr" v="848349" />
	</node>
	<node lat="68.39555833539073" lon="14.445699990220003" id="-24609">
		<tag k="name" v="Båtviknakken" />
		<tag k="natural" v="hill" />
		<tag k="place" v="locality" />
		<tag k="ssr:stedsnr" v="848541" />
	</node>
	<node lat="68.39051111490294" lon="14.446455557956984" id="-24614">
		<tag k="name" v="Revhaugen" />
		<tag k="natural" v="hill" />
		<tag k="place" v="locality" />
		<tag k="ssr:stedsnr" v="848569" />
	</node>
	<node lat="68.28458333591428" lon="14.859000001213328" id="-24616">
		<tag k="name" v="Dalen" />
		<tag k="natural" v="valley" />
		<tag k="place" v="locality" />
		<tag k="ssr:stedsnr" v="848841" />
	</node>
	<node lat="68.26907777604697" lon="14.616177788435703" id="-24620">
		<tag k="fixme" v="consider natural=peak for the most distinct mountains in the district" />
		<tag k="name" v="Sæteraksla" />
		<tag k="natural" v="hill" />
		<tag k="place" v="locality" />
		<tag k="ssr:stedsnr" v="866547" />
	</node>
	<node lat="68.31800833727658" lon="15.094816656723975" id="-24623">
		<tag k="fixme" v="consider natural=peak for the most distinct mountains in the district" />
		<tag k="name" v="Daltinden" />
		<tag k="natural" v="hill" />
		<tag k="place" v="locality" />
		<tag k="ssr:stedsnr" v="866001" />
	</node>
	<node lat="68.19392500368166" lon="14.735483335008631" id="-24633">
		<tag k="name" v="Kleiva" />
		<tag k="natural" v="slope" />
		<tag k="place" v="locality" />
		<tag k="ssr:stedsnr" v="866100" />
	</node>
	<node lat="68.18579166676233" lon="14.750700001574085" id="-24639">
		<tag k="name" v="Vardhaugen" />
		<tag k="natural" v="hill" />
		<tag k="place" v="locality" />
		<tag k="ssr:stedsnr" v="866127" />
	</node>
	<node lat="68.32669167006873" lon="14.602858331439887" id="-24659">
		<tag k="alt_name" v="Breidtinden" />
		<tag k="fixme" v="consider natural=peak for the most distinct mountains in the district" />
		<tag k="name" v="Breitinden" />
		<tag k="natural" v="hill" />
		<tag k="place" v="locality" />
		<tag k="ssr:stedsnr" v="866397" />
	</node>
	<node lat="68.21808333669495" lon="14.353905549020498" id="-24661">
		<tag k="name" v="Tverrfjelldalen" />
		<tag k="natural" v="valley" />
		<tag k="place" v="locality" />
		<tag k="ssr:stedsnr" v="866443" />
	</node>
	<node lat="68.29511388529062" lon="14.418352773026161" id="-24664">
		<tag k="fixme" v="consider natural=peak for the most distinct mountains in the district" />
		<tag k="name" v="Skatatinden" />
		<tag k="natural" v="hill" />
		<tag k="place" v="locality" />
		<tag k="ssr:stedsnr" v="866474" />
	</node>
	<node lat="68.30103611257466" lon="14.562941673602646" id="-24666">
		<tag k="fixme" v="consider natural=peak for the most distinct mountains in the district" />
		<tag k="name" v="Kudalsheia" />
		<tag k="natural" v="hill" />
		<tag k="place" v="locality" />
		<tag k="ssr:stedsnr" v="866503" />
	</node>
	<node lat="68.29118055926203" lon="14.918511107768232" id="-24671">
		<tag k="fixme" v="consider natural=peak for the most distinct mountains in the district" />
		<tag k="name" v="Litltinden" />
		<tag k="natural" v="hill" />
		<tag k="place" v="locality" />
		<tag k="ssr:stedsnr" v="866578" />
	</node>
	<node lat="68.27986666537817" lon="14.452575009893218" id="-24675">
		<tag k="fixme" v="consider natural=peak for the most distinct mountains in the district" />
		<tag k="name" v="Hågsfjelltuva" />
		<tag k="natural" v="hill" />
		<tag k="place" v="locality" />
		<tag k="ssr:stedsnr" v="866601" />
	</node>
	<node lat="68.30048889190707" lon="14.378205564702151" id="-24686">
		<tag k="fixme" v="consider natural=peak for the most distinct mountains in the district" />
		<tag k="name" v="Jomfruene" />
		<tag k="natural" v="hill" />
		<tag k="place" v="locality" />
		<tag k="ssr:stedsnr" v="867028" />
	</node>
	<node lat="68.31369166864381" lon="14.362038884969328" id="-24699">
		<tag k="alt_name" v="Lillehøken" />
		<tag k="fixme" v="consider natural=peak for the most distinct mountains in the district" />
		<tag k="name" v="Litlhøken" />
		<tag k="natural" v="hill" />
		<tag k="place" v="locality" />
		<tag k="ssr:stedsnr" v="867149" />
	</node>
	<node lat="68.26419722532971" lon="14.338713887467023" id="-24701">
		<tag k="fixme" v="consider natural=peak for the most distinct mountains in the district" />
		<tag k="name" v="Kvasstinden" />
		<tag k="natural" v="hill" />
		<tag k="place" v="locality" />
		<tag k="ssr:stedsnr" v="867172" />
	</node>
	<node lat="68.28156111372748" lon="14.3844972236236" id="-24706">
		<tag k="fixme" v="consider natural=peak for the most distinct mountains in the district" />
		<tag k="name" v="Omnen" />
		<tag k="natural" v="hill" />
		<tag k="place" v="locality" />
		<tag k="ssr:stedsnr" v="867243" />
	</node>
	<node lat="68.26487777956171" lon="14.199283333771351" id="-24710">
		<tag k="name" v="Jørndalen" />
		<tag k="natural" v="valley" />
		<tag k="place" v="locality" />
		<tag k="ssr:stedsnr" v="867256" />
	</node>
	<node lat="68.27146944182638" lon="14.225872222095786" id="-24711">
		<tag k="fixme" v="consider natural=peak for the most distinct mountains in the district" />
		<tag k="name" v="Svarttinden" />
		<tag k="natural" v="hill" />
		<tag k="place" v="locality" />
		<tag k="ssr:stedsnr" v="867258" />
	</node>
	<node lat="68.37462499543052" lon="14.528983338769287" id="-24719">
		<tag k="fixme" v="consider natural=peak for the most distinct mountains in the district" />
		<tag k="name" v="Tverrfjellet" />
		<tag k="natural" v="hill" />
		<tag k="place" v="locality" />
		<tag k="ssr:stedsnr" v="867465" />
	</node>
	<node lat="68.3585138848959" lon="14.445241655112161" id="-24720">
		<tag k="name" v="Svarthaugen" />
		<tag k="natural" v="hill" />
		<tag k="place" v="locality" />
		<tag k="ssr:stedsnr" v="867495" />
	</node>
	<node lat="68.36016944676435" lon="14.4946749954403" id="-24721">
		<tag k="name" v="Ørnkollen" />
		<tag k="natural" v="hill" />
		<tag k="place" v="locality" />
		<tag k="ssr:stedsnr" v="867500" />
	</node>
	<node lat="68.32023610925384" lon="14.692211109991472" id="-24725">
		<tag k="alt_name" v="Kolnesheia" />
		<tag k="name" v="Konesheia" />
		<tag k="natural" v="hill" />
		<tag k="place" v="locality" />
		<tag k="ssr:stedsnr" v="867550" />
	</node>
	<node lat="68.31419166897291" lon="14.433516665014226" id="-24726">
		<tag k="fixme" v="consider natural=peak for the most distinct mountains in the district" />
		<tag k="name" v="Blålyngheia" />
		<tag k="natural" v="hill" />
		<tag k="place" v="locality" />
		<tag k="ssr:stedsnr" v="867553" />
	</node>
	<node lat="68.31385000106336" lon="15.014349996390116" id="-24727">
		<tag k="fixme" v="consider natural=peak for the most distinct mountains in the district" />
		<tag k="name" v="Digermulkollen" />
		<tag k="natural" v="hill" />
		<tag k="place" v="locality" />
		<tag k="ssr:stedsnr" v="867556" />
	</node>
	<node lat="68.22438055748144" lon="14.31396665544178" id="-24730">
		<tag k="fixme" v="consider natural=peak for the most distinct mountains in the district" />
		<tag k="name" v="Åmunddalskollen" />
		<tag k="natural" v="hill" />
		<tag k="place" v="locality" />
		<tag k="ssr:stedsnr" v="867574" />
	</node>
	<node lat="68.31371666564063" lon="15.031602779823825" id="-24749">
		<tag k="name" v="Valvarden" />
		<tag k="natural" v="hill" />
		<tag k="place" v="locality" />
		<tag k="ssr:stedsnr" v="874112" />
	</node>
	<node lat="68.31968055524537" lon="15.084630546576577" id="-24755">
		<tag k="fixme" v="consider natural=peak for the most distinct mountains in the district" />
		<tag k="name" v="Storåsen" />
		<tag k="natural" v="hill" />
		<tag k="place" v="locality" />
		<tag k="ssr:stedsnr" v="875173" />
	</node>
	<node lat="68.31901666978685" lon="15.05589444897269" id="-24756">
		<tag k="fixme" v="consider natural=peak for the most distinct mountains in the district" />
		<tag k="name" v="Varglikollen" />
		<tag k="natural" v="hill" />
		<tag k="place" v="locality" />
		<tag k="ssr:stedsnr" v="875175" />
	</node>
	<node lat="68.27780000235772" lon="14.989586123205294" id="-24757">
		<tag k="fixme" v="consider natural=peak for the most distinct mountains in the district" />
		<tag k="name" v="Skogjordfjellet" />
		<tag k="natural" v="hill" />
		<tag k="place" v="locality" />
		<tag k="ssr:stedsnr" v="875633" />
	</node>
	<node lat="68.33814721821476" lon="14.133975006366285" id="-24776">
		<tag k="name" v="Småhaugan" />
		<tag k="natural" v="hill" />
		<tag k="place" v="locality" />
		<tag k="ssr:stedsnr" v="889420" />
	</node>
	<node lat="68.30614444827285" lon="15.053969439257447" id="-24777">
		<tag k="name" v="Kuhaugen" />
		<tag k="natural" v="hill" />
		<tag k="place" v="locality" />
		<tag k="ssr:stedsnr" v="936642" />
	</node>
	<node lat="68.30061667098924" lon="15.097286106383876" id="-24780">
		<tag k="name" v="Hamnhaugen" />
		<tag k="natural" v="hill" />
		<tag k="place" v="locality" />
		<tag k="ssr:stedsnr" v="936615" />
	</node>
	<node lat="68.40361944370872" lon="14.523555548156986" id="-24804">
		<tag k="name" v="Godveiterberget" />
		<tag k="natural" v="hill" />
		<tag k="place" v="locality" />
		<tag k="ssr:stedsnr" v="950748" />
	</node>
	<node lat="68.29709444549269" lon="14.259319439513144" id="-24806">
		<tag k="name" v="Rundlia" />
		<tag k="natural" v="slope" />
		<tag k="place" v="locality" />
		<tag k="ssr:stedsnr" v="952346" />
	</node>
	<node lat="68.30811110642543" lon="14.237769452449301" id="-24807">
		<tag k="fixme" v="consider natural=peak for the most distinct mountains in the district" />
		<tag k="name" v="Vedåsen" />
		<tag k="natural" v="hill" />
		<tag k="place" v="locality" />
		<tag k="ssr:stedsnr" v="952348" />
	</node>
	<node lat="68.30098889028426" lon="14.703111099494125" id="-24812">
		<tag k="name" v="Storhaugen" />
		<tag k="natural" v="hill" />
		<tag k="place" v="locality" />
		<tag k="ssr:stedsnr" v="965820" />
	</node>
	<node lat="68.2562138900216" lon="14.318527779700531" id="-24814">
		<tag k="fixme" v="consider natural=peak for the most distinct mountains in the district" />
		<tag k="name" v="Kollan" />
		<tag k="natural" v="hill" />
		<tag k="place" v="locality" />
		<tag k="ssr:stedsnr" v="967647" />
	</node>
	<node lat="68.37621111514015" lon="14.435108325787434" id="-24817">
		<tag k="name" v="Nerårvikhaugen" />
		<tag k="natural" v="hill" />
		<tag k="place" v="locality" />
		<tag k="ssr:stedsnr" v="969568" />
	</node>
	<node lat="68.31676110991523" lon="14.17218889319806" id="-24819">
		<tag k="name" v="Tinnarhaugen" />
		<tag k="natural" v="hill" />
		<tag k="place" v="locality" />
		<tag k="ssr:stedsnr" v="969296" />
	</node>
	<node lat="68.27398333379882" lon="14.251980549950227" id="-24821">
		<tag k="name" v="Blokkebærrabben" />
		<tag k="natural" v="hill" />
		<tag k="place" v="locality" />
		<tag k="ssr:stedsnr" v="969300" />
	</node>
	<node lat="68.28655000133725" lon="14.243769445525764" id="-24823">
		<tag k="name" v="Steindalen" />
		<tag k="natural" v="valley" />
		<tag k="place" v="locality" />
		<tag k="ssr:stedsnr" v="969325" />
	</node>
	<node lat="68.34316389111862" lon="14.754886117733154" id="-24824">
		<tag k="name" v="Lilandsaksla" />
		<tag k="place" v="locality" />
		<tag k="ssr:stedsnr" v="969872" />
	</node>
</osm>
