<?xml version="1.0" encoding="UTF-8"?>
<osm version="0.6" generator="osmapis">
	<node lat="68.26217778114152" lon="14.659049992990052" id="-21281">
		<tag k="name" v="Petterslåtta" />
		<tag k="place" v="locality" />
		<tag k="ssr:stedsnr" v="22118" />
	</node>
	<node lat="68.35879722012425" lon="14.70681388534217" id="-21284">
		<tag k="name" v="Skippet" />
		<tag k="natural" v="stone" />
		<tag k="ssr:stedsnr" v="22794" />
	</node>
	<node lat="68.22612777735178" lon="14.5284694356231" id="-21289">
		<tag k="name" v="Osanmyra" />
		<tag k="natural" v="wetland" />
		<tag k="ssr:stedsnr" v="22838" />
	</node>
	<node lat="68.37095277375057" lon="14.566511099024686" id="-21395">
		<tag k="name" v="Vedhøggan" />
		<tag k="place" v="locality" />
		<tag k="ssr:stedsnr" v="88127" />
	</node>
	<node lat="68.3868416698842" lon="14.468611104824534" id="-21412">
		<tag k="name" v="Rypneshaugmyra" />
		<tag k="natural" v="wetland" />
		<tag k="ssr:stedsnr" v="101782" />
	</node>
	<node lat="68.31613333038209" lon="14.20551111062038" id="-21499">
		<tag k="name" v="Stormyra" />
		<tag k="natural" v="wetland" />
		<tag k="ssr:stedsnr" v="259094" />
	</node>
	<node lat="68.31141388595049" lon="14.121483321987506" id="-21500">
		<tag k="name" v="Rødvassmyra" />
		<tag k="natural" v="wetland" />
		<tag k="ssr:stedsnr" v="259097" />
	</node>
	<node lat="68.37508610952462" lon="14.480411101927315" id="-21512">
		<tag k="name" v="Geitsteinen" />
		<tag k="natural" v="stone" />
		<tag k="ssr:stedsnr" v="161753" />
	</node>
	<node lat="68.26220833732494" lon="14.28292776823111" id="-21524">
		<tag k="name" v="Daljorda" />
		<tag k="place" v="locality" />
		<tag k="ssr:stedsnr" v="260175" />
	</node>
	<node lat="68.21503611517844" lon="14.428838899137864" id="-21612">
		<tag k="landuse" v="meadow" />
		<tag k="name" v="Rødlimyra" />
		<tag k="ssr:stedsnr" v="204810" />
	</node>
	<node lat="68.33599167083572" lon="14.099708328270637" id="-21635">
		<tag k="name" v="Stormyra" />
		<tag k="natural" v="wetland" />
		<tag k="ssr:stedsnr" v="221416" />
	</node>
	<node lat="68.38403610880164" lon="14.467066655332498" id="-21674">
		<tag k="name" v="Røelvsteinen" />
		<tag k="natural" v="stone" />
		<tag k="ssr:stedsnr" v="453130" />
	</node>
	<node lat="68.20348610711426" lon="14.234302777428336" id="-21688">
		<tag k="name" v="Kvalen" />
		<tag k="natural" v="stone" />
		<tag k="ssr:stedsnr" v="453229" />
	</node>
	<node lat="68.32479444424224" lon="14.160736115034016" id="-21694">
		<tag k="name" v="Saupstadmyran" />
		<tag k="natural" v="wetland" />
		<tag k="ssr:stedsnr" v="259070" />
	</node>
	<node lat="68.28773055759999" lon="14.930555552109988" id="-21762">
		<tag k="name" v="Røliura" />
		<tag k="natural" v="scree" />
		<tag k="ssr:stedsnr" v="268081" />
	</node>
	<node lat="68.2822972193625" lon="15.0193222229476" id="-21763">
		<tag k="name" v="Jomyra" />
		<tag k="natural" v="wetland" />
		<tag k="ssr:stedsnr" v="268181" />
	</node>
	<node lat="68.38308611438525" lon="14.540455560505187" id="-21771">
		<tag k="name" v="Mølnnesmyran" />
		<tag k="natural" v="wetland" />
		<tag k="ssr:stedsnr" v="271211" />
	</node>
	<node lat="68.3797277815882" lon="14.48523610740508" id="-21781">
		<tag k="name" v="Synnavindsstua" />
		<tag k="natural" v="stone" />
		<tag k="ssr:stedsnr" v="271508" />
	</node>
	<node lat="68.17034722272022" lon="14.698888883581239" id="-21796">
		<tag k="name" v="Remøysletta" />
		<tag k="place" v="locality" />
		<tag k="ssr:stedsnr" v="271935" />
	</node>
	<node lat="68.31471944357345" lon="14.401588881048765" id="-21802">
		<tag k="name" v="Mølnmyra" />
		<tag k="natural" v="wetland" />
		<tag k="ssr:stedsnr" v="300728" />
	</node>
	<node lat="68.2656249959554" lon="14.276552783442957" id="-21824">
		<tag k="name" v="Dujorda" />
		<tag k="place" v="locality" />
		<tag k="ssr:stedsnr" v="320144" />
	</node>
	<node lat="68.240491664525" lon="14.511744454594526" id="-21860">
		<tag k="name" v="Myra" />
		<tag k="place" v="locality" />
		<tag k="ssr:stedsnr" v="325817" />
	</node>
	<node lat="68.3111138862549" lon="14.162186112907921" id="-21904">
		<tag k="name" v="Trettmyra" />
		<tag k="natural" v="wetland" />
		<tag k="ssr:stedsnr" v="380109" />
	</node>
	<node lat="68.28283888817838" lon="14.994574993696494" id="-21920">
		<tag k="name" v="Skogjorda" />
		<tag k="place" v="locality" />
		<tag k="ssr:stedsnr" v="380617" />
	</node>
	<node lat="68.2885083365996" lon="14.37693612236809" id="-21953">
		<tag k="name" v="Skarmyra" />
		<tag k="natural" v="wetland" />
		<tag k="ssr:stedsnr" v="482653" />
	</node>
	<node lat="68.28623055337626" lon="14.26051945012646" id="-21967">
		<tag k="name" v="Akselsteinen" />
		<tag k="natural" v="stone" />
		<tag k="ssr:stedsnr" v="483344" />
	</node>
	<node lat="68.38245278110338" lon="14.451077784233497" id="-21974">
		<tag k="name" v="Strandmyra" />
		<tag k="natural" v="wetland" />
		<tag k="ssr:stedsnr" v="483585" />
	</node>
	<node lat="68.36480000198313" lon="14.558833329029763" id="-21981">
		<tag k="name" v="Maritdalsmyra" />
		<tag k="natural" v="wetland" />
		<tag k="ssr:stedsnr" v="392194" />
	</node>
	<node lat="68.3277527813993" lon="14.67478333457153" id="-21989">
		<tag k="name" v="Heimslåtta" />
		<tag k="natural" v="wetland" />
		<tag k="ssr:stedsnr" v="483866" />
	</node>
	<node lat="68.3376666639443" lon="14.51631943697844" id="-21997">
		<tag k="name" v="Reinmyra" />
		<tag k="natural" v="wetland" />
		<tag k="ssr:stedsnr" v="404911" />
	</node>
	<node lat="68.20315833628885" lon="14.239788887210734" id="-22071">
		<tag k="name" v="Svinvollen" />
		<tag k="place" v="locality" />
		<tag k="ssr:stedsnr" v="453225" />
	</node>
	<node lat="68.39289166510335" lon="14.504875002400896" id="-22079">
		<tag k="name" v="Purksteinen" />
		<tag k="natural" v="stone" />
		<tag k="ssr:stedsnr" v="465987" />
	</node>
	<node lat="68.29181389038683" lon="15.088649996371148" id="-22142">
		<tag k="name" v="Myran" />
		<tag k="natural" v="wetland" />
		<tag k="ssr:stedsnr" v="511591" />
	</node>
	<node lat="68.35803055589791" lon="14.511924998061145" id="-22206">
		<tag k="landuse" v="quarry" />
		<tag k="name" v="Gruveområdet" />
		<tag k="ssr:stedsnr" v="525902" />
	</node>
	<node lat="68.24100278105607" lon="14.4834250074908" id="-22224">
		<tag k="name" v="Fredskogfeltet" />
		<tag k="place" v="locality" />
		<tag k="ssr:stedsnr" v="689820" />
	</node>
	<node lat="68.2807138860894" lon="14.621502765866847" id="-22228">
		<tag k="landuse" v="quarry" />
		<tag k="name" v="Vatterfjord Molybdengruver" />
		<tag k="ssr:stedsnr" v="690173" />
	</node>
	<node lat="68.20996111059611" lon="14.331313895296784" id="-22232">
		<tag k="name" v="Ørnsteinen" />
		<tag k="natural" v="stone" />
		<tag k="ssr:stedsnr" v="567812" />
	</node>
	<node lat="68.37870555529521" lon="14.467502788712803" id="-22252">
		<tag k="name" v="Rømyra" />
		<tag k="natural" v="wetland" />
		<tag k="ssr:stedsnr" v="574123" />
	</node>
	<node lat="68.25489166527491" lon="14.306836099629635" id="-22282">
		<tag k="name" v="Gjertruddalsmyra" />
		<tag k="natural" v="wetland" />
		<tag k="ssr:stedsnr" v="603650" />
	</node>
	<node lat="68.34107500428263" lon="14.366200001554517" id="-22289">
		<tag k="name" v="Fjordura" />
		<tag k="natural" v="scree" />
		<tag k="ssr:stedsnr" v="603715" />
	</node>
	<node lat="68.37962222420924" lon="14.562088891463022" id="-22350">
		<tag k="name" v="Kveithella" />
		<tag k="natural" v="stone" />
		<tag k="ssr:stedsnr" v="634177" />
	</node>
	<node lat="68.32006666309296" lon="14.54764443809858" id="-22361">
		<tag k="name" v="Revsteinen" />
		<tag k="natural" v="stone" />
		<tag k="ssr:stedsnr" v="646910" />
	</node>
	<node lat="68.32173055346503" lon="14.545669444658495" id="-22362">
		<tag k="name" v="Mossmyra" />
		<tag k="natural" v="wetland" />
		<tag k="ssr:stedsnr" v="646911" />
	</node>
	<node lat="68.32883055160299" lon="14.125908334571562" id="-22374">
		<tag k="name" v="Akselskarmyra" />
		<tag k="natural" v="wetland" />
		<tag k="ssr:stedsnr" v="707456" />
	</node>
	<node lat="68.31847777880469" lon="14.499966660221405" id="-22379">
		<tag k="name" v="Løykan" />
		<tag k="natural" v="wetland" />
		<tag k="ssr:stedsnr" v="707893" />
	</node>
	<node lat="68.29080555361448" lon="14.264755563638907" id="-22382">
		<tag k="name" v="Josteinen" />
		<tag k="natural" v="stone" />
		<tag k="ssr:stedsnr" v="709330" />
	</node>
	<node lat="68.29031110958826" lon="14.339313885735065" id="-22388">
		<tag k="name" v="Storura" />
		<tag k="natural" v="scree" />
		<tag k="ssr:stedsnr" v="664732" />
	</node>
	<node lat="68.2248333303632" lon="14.461041676217688" id="-22420">
		<tag k="name" v="Massmyra" />
		<tag k="natural" v="wetland" />
		<tag k="ssr:stedsnr" v="684306" />
	</node>
	<node lat="68.29848055300039" lon="14.435177776857573" id="-22429">
		<tag k="name" v="Indrefjordmyran" />
		<tag k="natural" v="wetland" />
		<tag k="ssr:stedsnr" v="684502" />
	</node>
	<node lat="68.22286388907642" lon="14.499733327226183" id="-22507">
		<tag k="name" v="Åvikmyra" />
		<tag k="natural" v="wetland" />
		<tag k="ssr:stedsnr" v="745316" />
	</node>
	<node lat="68.21884722255388" lon="14.49275554851816" id="-22529">
		<tag k="name" v="Klokkarmyra" />
		<tag k="natural" v="wetland" />
		<tag k="ssr:stedsnr" v="750139" />
	</node>
	<node lat="68.29136666616333" lon="15.073958322725012" id="-22533">
		<tag k="name" v="Jansdalholten" />
		<tag k="place" v="locality" />
		<tag k="ssr:stedsnr" v="754622" />
	</node>
	<node lat="68.37751944126991" lon="14.567141675036904" id="-22537">
		<tag k="name" v="Finnstua" />
		<tag k="natural" v="stone" />
		<tag k="ssr:stedsnr" v="756122" />
	</node>
	<node lat="68.39521388424387" lon="14.495233342719608" id="-22554">
		<tag k="name" v="Langmyra" />
		<tag k="natural" v="wetland" />
		<tag k="ssr:stedsnr" v="768806" />
	</node>
	<node lat="68.38672500351952" lon="14.485522217285984" id="-22555">
		<tag k="name" v="Instlimyran" />
		<tag k="natural" v="wetland" />
		<tag k="ssr:stedsnr" v="768801" />
	</node>
	<node lat="68.2704527762697" lon="14.348408325815615" id="-22558">
		<tag k="name" v="Bjørnsteinen" />
		<tag k="natural" v="stone" />
		<tag k="ssr:stedsnr" v="907634" />
	</node>
	<node lat="68.32128055528528" lon="14.43115554568183" id="-22572">
		<tag k="name" v="Trettnesmyra" />
		<tag k="natural" v="wetland" />
		<tag k="ssr:stedsnr" v="785711" />
	</node>
	<node lat="68.32558055560375" lon="15.090180557493387" id="-22590">
		<tag k="name" v="Seljeuran" />
		<tag k="natural" v="scree" />
		<tag k="ssr:stedsnr" v="814183" />
	</node>
	<node lat="68.30660555410329" lon="15.079872229272924" id="-22681">
		<tag k="name" v="Skjettenmyra" />
		<tag k="natural" v="wetland" />
		<tag k="ssr:stedsnr" v="875616" />
	</node>
	<node lat="68.3317305559804" lon="14.787455564623228" id="-22687">
		<tag k="name" v="Bjønnsteinen" />
		<tag k="natural" v="stone" />
		<tag k="ssr:stedsnr" v="877214" />
	</node>
	<node lat="68.32163333642461" lon="14.638119439603027" id="-22725">
		<tag k="name" v="Vestpollmarka" />
		<tag k="natural" v="wetland" />
		<tag k="ssr:stedsnr" v="908865" />
	</node>
	<node lat="68.38456388502418" lon="14.47403888648805" id="-22735">
		<tag k="name" v="Straumnesmyran" />
		<tag k="natural" v="wetland" />
		<tag k="ssr:stedsnr" v="927310" />
	</node>
	<node lat="68.32550555136658" lon="14.78668889154885" id="-22788">
		<tag k="name" v="Damman" />
		<tag k="natural" v="wetland" />
		<tag k="ssr:stedsnr" v="938044" />
	</node>
	<node lat="68.38628611483553" lon="14.496788895108285" id="-22798">
		<tag k="name" v="Ruskura" />
		<tag k="natural" v="scree" />
		<tag k="ssr:stedsnr" v="938444" />
	</node>
	<node lat="68.19871389175938" lon="14.724577783909389" id="-22941">
		<tag k="name" v="Solsteinurda" />
		<tag k="natural" v="scree" />
		<tag k="ssr:stedsnr" v="17283" />
	</node>
	<node lat="68.34099444445454" lon="14.483763890815515" id="-23004">
		<tag k="name" v="Kvalskyttarsteinen" />
		<tag k="natural" v="stone" />
		<tag k="ssr:stedsnr" v="40926" />
	</node>
	<node lat="68.28241944347047" lon="14.191161122946271" id="-23070">
		<tag k="name" v="Skjoldmyra" />
		<tag k="natural" v="wetland" />
		<tag k="ssr:stedsnr" v="78245" />
	</node>
	<node lat="68.35756944570723" lon="14.455566671821456" id="-23080">
		<tag k="name" v="Svarthaugmyran" />
		<tag k="natural" v="wetland" />
		<tag k="ssr:stedsnr" v="78479" />
	</node>
	<node lat="68.26494999679967" lon="14.540677780360328" id="-23086">
		<tag k="name" v="Vollan" />
		<tag k="place" v="locality" />
		<tag k="ssr:stedsnr" v="82168" />
	</node>
	<node lat="68.22709444724588" lon="14.46683888934151" id="-23088">
		<tag k="name" v="Langmyra" />
		<tag k="natural" v="wetland" />
		<tag k="ssr:stedsnr" v="82860" />
	</node>
	<node lat="68.21311388786604" lon="14.408269444979775" id="-23094">
		<tag k="landuse" v="meadow" />
		<tag k="name" v="Enkmannsvollen" />
		<tag k="ssr:stedsnr" v="82830" />
	</node>
	<node lat="68.26551389155914" lon="14.74553889401178" id="-23111">
		<tag k="name" v="Valen" />
		<tag k="natural" v="beach" />
		<tag k="ssr:stedsnr" v="88943" />
		<tag k="surface" v="sand" />
	</node>
	<node lat="68.26918889273448" lon="14.732933342038924" id="-23112">
		<tag k="name" v="Storjorda" />
		<tag k="place" v="locality" />
		<tag k="ssr:stedsnr" v="88944" />
	</node>
	<node lat="68.38791388831847" lon="14.450169445492287" id="-23134">
		<tag k="name" v="Klavhaugmyra" />
		<tag k="natural" v="wetland" />
		<tag k="ssr:stedsnr" v="119585" />
	</node>
	<node lat="68.35594166921697" lon="14.586319440111513" id="-23225">
		<tag k="name" v="Tennsteinen" />
		<tag k="natural" v="stone" />
		<tag k="ssr:stedsnr" v="149166" />
	</node>
	<node lat="68.20346111135294" lon="14.235677767667696" id="-23227">
		<tag k="name" v="Sjøteigen" />
		<tag k="place" v="locality" />
		<tag k="ssr:stedsnr" v="149179" />
	</node>
	<node lat="68.39655000059167" lon="14.495277771213892" id="-23244">
		<tag k="name" v="Pikmursteinen" />
		<tag k="natural" v="stone" />
		<tag k="ssr:stedsnr" v="161735" />
	</node>
	<node lat="68.31680555586341" lon="14.637494436580926" id="-23276">
		<tag k="name" v="Høljen" />
		<tag k="natural" v="wetland" />
		<tag k="ssr:stedsnr" v="180828" />
	</node>
	<node lat="68.23453332941716" lon="14.866050003837682" id="-23279">
		<tag k="name" v="Nordmarka" />
		<tag k="place" v="locality" />
		<tag k="ssr:stedsnr" v="180848" />
	</node>
	<node lat="68.31595277886667" lon="14.067005560288356" id="-23295">
		<tag k="name" v="Stormyra" />
		<tag k="natural" v="wetland" />
		<tag k="ssr:stedsnr" v="199136" />
	</node>
	<node lat="68.38735555904127" lon="14.54019167827956" id="-23357">
		<tag k="name" v="Han Elling" />
		<tag k="natural" v="stone" />
		<tag k="ssr:stedsnr" v="210202" />
	</node>
	<node lat="68.32723610925983" lon="14.636283329493388" id="-23397">
		<tag k="name" v="Nyenga" />
		<tag k="natural" v="wetland" />
		<tag k="ssr:stedsnr" v="301835" />
	</node>
	<node lat="68.31939722256577" lon="14.65445554342898" id="-23439">
		<tag k="name" v="Gressløysa" />
		<tag k="natural" v="wetland" />
		<tag k="ssr:stedsnr" v="320514" />
	</node>
	<node lat="68.30784166468031" lon="15.048908337433284" id="-23482">
		<tag k="name" v="Olderskogan" />
		<tag k="place" v="locality" />
		<tag k="ssr:stedsnr" v="328072" />
	</node>
	<node lat="68.20680833650043" lon="14.377780564261188" id="-23579">
		<tag k="name" v="Myran" />
		<tag k="natural" v="wetland" />
		<tag k="ssr:stedsnr" v="381438" />
	</node>
	<node lat="68.24652222272506" lon="14.575391676833178" id="-23610">
		<tag k="name" v="Hesthagen" />
		<tag k="place" v="locality" />
		<tag k="ssr:stedsnr" v="386171" />
	</node>
	<node lat="68.32815277664683" lon="14.79218333681386" id="-23617">
		<tag k="name" v="Godbonnaustet" />
		<tag k="natural" v="stone" />
		<tag k="ssr:stedsnr" v="392060" />
	</node>
	<node lat="68.32999444478209" lon="14.772658342333308" id="-23625">
		<tag k="name" v="Finnsteinen" />
		<tag k="natural" v="stone" />
		<tag k="ssr:stedsnr" v="392270" />
	</node>
	<node lat="68.31286666381537" lon="14.18113334268837" id="-23663">
		<tag k="name" v="Høljan" />
		<tag k="natural" v="wetland" />
		<tag k="ssr:stedsnr" v="423322" />
	</node>
	<node lat="68.2890555590355" lon="14.359844433776045" id="-23664">
		<tag k="name" v="Rypsnarmyra" />
		<tag k="natural" v="wetland" />
		<tag k="ssr:stedsnr" v="422676" />
	</node>
	<node lat="68.34509722604976" lon="14.74539444255633" id="-23672">
		<tag k="name" v="Jørnsteinen" />
		<tag k="natural" v="stone" />
		<tag k="ssr:stedsnr" v="423890" />
	</node>
	<node lat="68.39203333197194" lon="14.456516654802542" id="-23673">
		<tag k="name" v="Sponga" />
		<tag k="natural" v="wetland" />
		<tag k="ssr:stedsnr" v="423588" />
	</node>
	<node lat="68.26710555808371" lon="14.248683331452781" id="-23743">
		<tag k="name" v="Sømsteinen" />
		<tag k="natural" v="stone" />
		<tag k="ssr:stedsnr" v="447132" />
	</node>
	<node lat="68.29901388717592" lon="14.923038876600106" id="-23745">
		<tag k="name" v="Finnteltan" />
		<tag k="place" v="locality" />
		<tag k="ssr:stedsnr" v="510725" />
	</node>
	<node lat="68.27305277419093" lon="15.046244453185746" id="-23748">
		<tag k="alt_name" v="Torkallsteinan" />
		<tag k="name" v="Torkallsteinen" />
		<tag k="natural" v="stone" />
		<tag k="ssr:stedsnr" v="502093" />
	</node>
	<node lat="68.38229444530204" lon="14.436461119161342" id="-23791">
		<tag k="name" v="Laukvikmyran" />
		<tag k="natural" v="wetland" />
		<tag k="ssr:stedsnr" v="502458" />
	</node>
	<node lat="68.21407222205539" lon="14.293800000644381" id="-23921">
		<tag k="name" v="Hopsmarka" />
		<tag k="place" v="locality" />
		<tag k="ssr:stedsnr" v="562464" />
	</node>
	<node lat="68.2743888902365" lon="15.033138892884324" id="-23986">
		<tag k="name" v="Rødsteinen" />
		<tag k="natural" v="stone" />
		<tag k="ssr:stedsnr" v="571171" />
	</node>
	<node lat="68.27976110733206" lon="14.729897233268145" id="-24008">
		<tag k="name" v="Øvermarka" />
		<tag k="place" v="locality" />
		<tag k="ssr:stedsnr" v="573930" />
	</node>
	<node lat="68.38222222257599" lon="14.494469448871623" id="-24011">
		<tag k="name" v="Torsteinen" />
		<tag k="natural" v="stone" />
		<tag k="ssr:stedsnr" v="574493" />
	</node>
	<node lat="68.26884166475126" lon="14.422055544682737" id="-24022">
		<tag k="name" v="Rundmyra" />
		<tag k="natural" v="wetland" />
		<tag k="ssr:stedsnr" v="603645" />
	</node>
	<node lat="68.27040833543232" lon="14.250936118310378" id="-24025">
		<tag k="name" v="Storsteinan" />
		<tag k="natural" v="stone" />
		<tag k="ssr:stedsnr" v="604315" />
	</node>
	<node lat="68.307211112249" lon="15.034888883883152" id="-24031">
		<tag k="name" v="Valmarka" />
		<tag k="place" v="locality" />
		<tag k="ssr:stedsnr" v="623024" />
	</node>
	<node lat="68.33019999640817" lon="14.448672217403162" id="-24055">
		<tag k="alt_name" v="Skilsteinen" />
		<tag k="name" v="Skjellsteinen" />
		<tag k="natural" v="stone" />
		<tag k="ssr:stedsnr" v="623382" />
	</node>
	<node lat="68.2516083311657" lon="14.28205276882616" id="-24095">
		<tag k="historic" v="shieling" />
		<tag k="name" v="Buskarvollen" />
		<tag k="place" v="locality" />
		<tag k="ssr:stedsnr" v="629136" />
	</node>
	<node lat="68.21447500478001" lon="14.479308325064359" id="-24098">
		<tag k="name" v="Trollsteinen" />
		<tag k="natural" v="stone" />
		<tag k="ssr:stedsnr" v="628179" />
	</node>
	<node lat="68.24205832979978" lon="14.516400005692192" id="-24102">
		<tag k="name" v="Hesthagen" />
		<tag k="place" v="locality" />
		<tag k="ssr:stedsnr" v="628825" />
	</node>
	<node lat="68.28866388507792" lon="14.373130554729178" id="-24145">
		<tag k="name" v="Skjåvollmyra" />
		<tag k="natural" v="wetland" />
		<tag k="ssr:stedsnr" v="664658" />
	</node>
	<node lat="68.33370555906312" lon="14.334997232163186" id="-24147">
		<tag k="name" v="Bulisteinen" />
		<tag k="natural" v="stone" />
		<tag k="ssr:stedsnr" v="664746" />
	</node>
	<node lat="68.24081666968506" lon="14.500911106969296" id="-24236">
		<tag k="name" v="Larsenmyra" />
		<tag k="natural" v="wetland" />
		<tag k="ssr:stedsnr" v="750829" />
	</node>
	<node lat="68.38578611195312" lon="14.5403916630939" id="-24247">
		<tag k="name" v="Delasteinan" />
		<tag k="natural" v="stone" />
		<tag k="ssr:stedsnr" v="756174" />
	</node>
	<node lat="68.26698888766064" lon="14.743313879846161" id="-24263">
		<tag k="name" v="Gryta" />
		<tag k="natural" v="stone" />
		<tag k="ssr:stedsnr" v="756949" />
	</node>
	<node lat="68.33962499845829" lon="14.499308338564212" id="-24270">
		<tag k="name" v="Åsmyra" />
		<tag k="natural" v="wetland" />
		<tag k="ssr:stedsnr" v="768930" />
	</node>
	<node lat="68.3248333350709" lon="14.325819436600021" id="-24285">
		<tag k="name" v="Bekkhellaren" />
		<tag k="natural" v="stone" />
		<tag k="ssr:stedsnr" v="785689" />
	</node>
	<node lat="68.32516944438903" lon="14.324424991509852" id="-24286">
		<tag k="name" v="Kabursteinen" />
		<tag k="natural" v="stone" />
		<tag k="ssr:stedsnr" v="785692" />
	</node>
	<node lat="68.27620277986685" lon="14.221377778500955" id="-24287">
		<tag k="name" v="Storura" />
		<tag k="natural" v="scree" />
		<tag k="ssr:stedsnr" v="787339" />
	</node>
	<node lat="68.39235555234333" lon="14.49085276936243" id="-24412">
		<tag k="name" v="Litjjorda" />
		<tag k="place" v="locality" />
		<tag k="ssr:stedsnr" v="817445" />
	</node>
	<node lat="68.1526555593072" lon="14.200144444252489" id="-24414">
		<tag k="name" v="Storhagen" />
		<tag k="place" v="locality" />
		<tag k="ssr:stedsnr" v="817737" />
	</node>
	<node lat="68.32873055195833" lon="14.096961104301814" id="-24439">
		<tag k="name" v="Kjerringmyran" />
		<tag k="natural" v="wetland" />
		<tag k="ssr:stedsnr" v="844459" />
	</node>
	<node lat="68.31734166963383" lon="14.239886110091225" id="-24455">
		<tag k="name" v="Kariura" />
		<tag k="natural" v="scree" />
		<tag k="ssr:stedsnr" v="848319" />
	</node>
	<node lat="68.2029527751696" lon="14.722830547853693" id="-24484">
		<tag k="name" v="Storurda" />
		<tag k="natural" v="scree" />
		<tag k="ssr:stedsnr" v="866208" />
	</node>
	<node lat="68.2808611069184" lon="14.75247778410219" id="-24515">
		<tag k="name" v="Dalmyra" />
		<tag k="natural" v="wetland" />
		<tag k="ssr:stedsnr" v="866593" />
	</node>
	<node lat="68.26522777883805" lon="14.552161107703428" id="-24583">
		<tag k="name" v="Trollheimen" />
		<tag k="place" v="locality" />
		<tag k="ssr:stedsnr" v="871141" />
	</node>
	<node lat="68.37283611398486" lon="14.490588883795082" id="-24601">
		<tag k="name" v="Skredmyra" />
		<tag k="natural" v="wetland" />
		<tag k="ssr:stedsnr" v="877026" />
	</node>
	<node lat="68.1555750003812" lon="14.67696944104123" id="-24606">
		<tag k="name" v="Merrvikmyra" />
		<tag k="natural" v="wetland" />
		<tag k="ssr:stedsnr" v="877134" />
	</node>
	<node lat="68.3678305594112" lon="14.565694443484693" id="-24626">
		<tag k="historic" v="shieling" />
		<tag k="name" v="Sæterbakken" />
		<tag k="place" v="locality" />
		<tag k="ssr:stedsnr" v="938149" />
	</node>
	<node lat="68.33595833483898" lon="14.110100012003993" id="-24644">
		<tag k="name" v="Blåbærhaugmyra" />
		<tag k="natural" v="wetland" />
		<tag k="ssr:stedsnr" v="950446" />
	</node>
	<node lat="68.33599167136667" lon="14.513855545008237" id="-24646">
		<tag k="name" v="Skarmyra" />
		<tag k="natural" v="wetland" />
		<tag k="ssr:stedsnr" v="950902" />
	</node>
	<node lat="68.33024444633416" lon="14.453622220612608" id="-24658">
		<tag k="name" v="Skjellsteinmyra" />
		<tag k="natural" v="wetland" />
		<tag k="ssr:stedsnr" v="967682" />
	</node>
</osm>
