<?xml version="1.0" encoding="UTF-8"?>
<<<<<<< HEAD
<osm version="0.6" generator="osmapis">
	<node lat="68.25077778041764" lon="14.298616659861986" id="-17142">
		<tag k="name" v="Moen" />
		<tag k="place" v="farm" />
		<tag k="ssr:stedsnr" v="229942" />
	</node>
	<node lat="68.18679722403999" lon="14.340219445280578" id="-17165">
		<tag k="alt_name" v="Kalle" />
		<tag k="name" v="Vestre Kalle" />
		<tag k="place" v="farm" />
		<tag k="ssr:stedsnr" v="17408" />
	</node>
	<node lat="68.33680555593666" lon="15.21174165673512" id="-17175">
		<tag k="name" v="Skogholt" />
		<tag k="place" v="isolated_dwelling" />
		<tag k="ssr:stedsnr" v="17963" />
	</node>
	<node lat="68.36413610815985" lon="14.469669444814784" id="-17193">
		<tag k="name" v="Olinagammtomta" />
		<tag k="place" v="locality" />
		<tag k="ssr:stedsnr" v="28030" />
	</node>
	<node lat="68.23878889077557" lon="14.536055567087265" id="-17206">
		<tag k="name" v="Leirosen" />
		<tag k="place" v="isolated_dwelling" />
		<tag k="ssr:stedsnr" v="238894" />
	</node>
	<node lat="68.27898055506887" lon="14.258258340715123" id="-17218">
		<tag k="name" v="Mellombarstrand" />
=======
<osm generator="osmapis" version="0.6">
	<node id="-194048" lat="68.3420361119" lon="14.3390277785">
		<tag k="name" v="Festvåg" />
		<tag k="place" v="isolated_dwelling" />
		<tag k="ssr:stedsnr" v="138887" />
	</node>
	<node id="-193022" lat="68.3496361109" lon="14.7454166746">
		<tag k="alt_name" v="Skjennvollen" />
		<tag k="name" v="Skinvollen" />
		<tag k="place" v="farm" />
		<tag k="ssr:stedsnr" v="684394" />
	</node>
	<node id="-192506" lat="68.2844722233" lon="14.6765861059">
		<tag k="name" v="Gammelgården" />
		<tag k="place" v="farm" />
		<tag k="ssr:stedsnr" v="441620" />
	</node>
	<node id="-194303" lat="68.2025973791" lon="14.2408421674">
		<tag k="fixme" v="consider place=hamlet" />
		<tag k="name" v="Rørvika" />
		<tag k="place" v="farm" />
		<tag k="ssr:stedsnr" v="320472" />
	</node>
	<node id="-194039" lat="68.2698499988" lon="14.5415333407">
		<tag k="name" v="Sætra" />
		<tag k="place" v="isolated_dwelling" />
		<tag k="ssr:stedsnr" v="138578" />
	</node>
	<node id="-192502" lat="68.3057749993" lon="14.9001666719">
		<tag k="name" v="Øyhellehamnen" />
>>>>>>> e1d4bc35ff8a6074a6f2e91616a996b547c36f15
		<tag k="place" v="farm" />
		<tag k="ssr:stedsnr" v="241305" />
	</node>
<<<<<<< HEAD
	<node lat="68.24278638722623" lon="14.664215695337074" id="-17230">
		<tag k="fixme" v="consider place=hamlet" />
		<tag k="name" v="Helle" />
=======
	<node id="-193013" lat="68.241008913" lon="14.7996598411">
		<tag k="fixme" v="consider place=hamlet" />
		<tag k="name" v="Haversand" />
		<tag k="place" v="farm" />
		<tag k="ssr:stedsnr" v="684294" />
	</node>
	<node id="-193524" lat="68.2495500027" lon="14.2930444519">
		<tag k="name" v="Stranda" />
		<tag k="place" v="farm" />
		<tag k="ssr:stedsnr" v="806507" />
	</node>
	<node id="-195059" lat="68.2969611087" lon="14.267441673">
		<tag k="name" v="Indre Gimsøysand" />
>>>>>>> e1d4bc35ff8a6074a6f2e91616a996b547c36f15
		<tag k="place" v="farm" />
		<tag k="ssr:stedsnr" v="77268" />
	</node>
<<<<<<< HEAD
	<node lat="68.39579020687891" lon="14.484880100220142" id="-17232">
		<tag k="fixme" v="consider place=hamlet" />
		<tag k="name" v="Gjersvoll" />
=======
	<node id="-194033" lat="68.3220750017" lon="14.5011555614">
		<tag k="name" v="Løvland" />
>>>>>>> e1d4bc35ff8a6074a6f2e91616a996b547c36f15
		<tag k="place" v="farm" />
		<tag k="ssr:stedsnr" v="77301" />
	</node>
<<<<<<< HEAD
	<node lat="68.2853583326495" lon="14.842524992591406" id="-17241">
		<tag k="alt_name" v="Mellagården" />
		<tag k="name" v="Mellomgården" />
		<tag k="place" v="farm" />
		<tag k="ssr:stedsnr" v="77630" />
	</node>
	<node lat="68.33280277808433" lon="14.7129611005679" id="-17265">
		<tag k="name" v="Nordvika" />
=======
	<node id="-193008" lat="68.2394444445" lon="14.6439888956">
		<tag k="name" v="Børvågen" />
		<tag k="place" v="farm" />
		<tag k="ssr:stedsnr" v="684269" />
	</node>
	<node id="-195054" lat="68.283405556" lon="14.6680305522">
		<tag k="name" v="Sjøvold" />
		<tag k="place" v="isolated_dwelling" />
		<tag k="ssr:stedsnr" v="768837" />
	</node>
	<node id="-194028" lat="68.2976388894" lon="14.9545583256">
		<tag k="alt_name" v="Sandavika" />
		<tag k="name" v="Sandvika" />
>>>>>>> e1d4bc35ff8a6074a6f2e91616a996b547c36f15
		<tag k="place" v="farm" />
		<tag k="ssr:stedsnr" v="78421" />
	</node>
<<<<<<< HEAD
	<node lat="68.3206083366732" lon="15.000169439004999" id="-17270">
		<tag k="name" v="Osen" />
		<tag k="place" v="farm" />
		<tag k="ssr:stedsnr" v="78546" />
	</node>
	<node lat="68.31736388655324" lon="14.995627778197635" id="-17271">
		<tag k="name" v="Gjerdet" />
=======
	<node id="-193511" lat="68.277363448" lon="14.314129688">
		<tag k="fixme" v="consider place=hamlet" />
		<tag k="name" v="Rystad" />
>>>>>>> e1d4bc35ff8a6074a6f2e91616a996b547c36f15
		<tag k="place" v="farm" />
		<tag k="ssr:stedsnr" v="78547" />
	</node>
<<<<<<< HEAD
	<node lat="68.26843333318614" lon="14.81529444854466" id="-17273">
		<tag k="alt_name" v="Haversandsetra" />
		<tag k="historic" v="shieling" />
		<tag k="name" v="Haversandsætra" />
		<tag k="place" v="isolated_dwelling" />
		<tag k="ssr:stedsnr" v="78650" />
	</node>
	<node lat="68.26910833424155" lon="15.013333339527307" id="-17287">
		<tag k="name" v="Nergården" />
		<tag k="place" v="farm" />
		<tag k="ssr:stedsnr" v="86190" />
	</node>
	<node lat="68.30477500119943" lon="15.102461103204401" id="-17289">
		<tag k="name" v="Vika" />
=======
	<node id="-194022" lat="68.3361694432" lon="14.7148611117">
		<tag k="name" v="Mettesnes" />
		<tag k="place" v="farm" />
		<tag k="ssr:stedsnr" v="138425" />
	</node>
	<node id="-192593" lat="68.3087222263" lon="15.0698361215">
		<tag k="name" v="Nergård" />
		<tag k="place" v="farm" />
		<tag k="ssr:stedsnr" v="451658" />
	</node>
	<node id="-194532" lat="68.2540500043" lon="14.6584194379">
		<tag k="name" v="Sletta" />
		<tag k="place" v="farm" />
		<tag k="ssr:stedsnr" v="386145" />
	</node>
	<node id="-192995" lat="68.1670166704" lon="14.6838805569">
		<tag k="name" v="Solvang" />
		<tag k="place" v="farm" />
		<tag k="ssr:stedsnr" v="684163" />
	</node>
	<node id="-193502" lat="68.2771277767" lon="14.7276055638">
		<tag k="name" v="Sør Følstad" />
		<tag k="place" v="farm" />
		<tag k="ssr:stedsnr" v="927610" />
	</node>
	<node id="-192933" lat="68.294213893" lon="14.8685583391">
		<tag k="name" v="Myrvang" />
		<tag k="place" v="farm" />
		<tag k="ssr:stedsnr" v="666255" />
	</node>
	<node id="-194012" lat="68.2282250019" lon="14.4475527669">
		<tag k="name" v="Sætra" />
		<tag k="place" v="isolated_dwelling" />
		<tag k="ssr:stedsnr" v="138332" />
	</node>
	<node id="-192474" lat="68.3256551457" lon="14.398788993">
		<tag k="alt_name" v="Sundlandsfjord" />
		<tag k="fixme" v="consider place=hamlet" />
		<tag k="name" v="Sunnlandsfjorden" />
>>>>>>> e1d4bc35ff8a6074a6f2e91616a996b547c36f15
		<tag k="place" v="farm" />
		<tag k="ssr:stedsnr" v="87689" />
	</node>
<<<<<<< HEAD
	<node lat="68.352191664568" lon="14.745922223237242" id="-17316">
		<tag k="name" v="Varden" />
		<tag k="place" v="isolated_dwelling" />
		<tag k="ssr:stedsnr" v="106622" />
	</node>
	<node lat="68.32957778053837" lon="14.701038888848434" id="-17317">
		<tag k="amenity" v="school" />
		<tag k="name" v="Vestpollen skole" />
		<tag k="ssr:stedsnr" v="107011" />
	</node>
	<node lat="68.254575002535" lon="14.32556665819084" id="-17337">
		<tag k="name" v="Vollan" />
=======
	<node id="-194520" lat="68.3505333308" lon="15.2416722289">
		<tag k="name" v="Bjørnvika" />
		<tag k="place" v="isolated_dwelling" />
		<tag k="ssr:stedsnr" v="381908" />
	</node>
	<node id="-193956" lat="68.3521916646" lon="14.7459222232">
		<tag k="name" v="Varden" />
		<tag k="place" v="isolated_dwelling" />
		<tag k="ssr:stedsnr" v="106622" />
	</node>
	<node id="-195029" lat="68.2633222192" lon="14.7480527706">
		<tag k="historic" v="shieling" />
		<tag k="name" v="Landan" />
		<tag k="place" v="locality" />
		<tag k="ssr:stedsnr" v="756221" />
	</node>
	<node id="-193492" lat="68.2765972239" lon="14.6674750112">
		<tag k="name" v="Kota" />
		<tag k="old_name" v="Litlvatterfjorden" />
>>>>>>> e1d4bc35ff8a6074a6f2e91616a996b547c36f15
		<tag k="place" v="farm" />
		<tag k="ssr:stedsnr" v="137105" />
	</node>
<<<<<<< HEAD
	<node lat="68.31851110925497" lon="14.62521666653378" id="-17365">
		<tag k="alt_name" v="Mørkmyra" />
		<tag k="name" v="Mørkamyran" />
=======
	<node id="-193488" lat="68.2483222183" lon="14.32966944">
		<tag k="name" v="Storvika" />
>>>>>>> e1d4bc35ff8a6074a6f2e91616a996b547c36f15
		<tag k="place" v="farm" />
		<tag k="ssr:stedsnr" v="138543" />
	</node>
<<<<<<< HEAD
	<node lat="68.34035555483852" lon="14.713424993953645" id="-17399">
		<tag k="name" v="Dalhaug" />
		<tag k="place" v="farm" />
		<tag k="ssr:stedsnr" v="259382" />
	</node>
	<node lat="68.24695277730767" lon="14.5720611224963" id="-17404">
		<tag k="name" v="Melkardalen" />
=======
	<node id="-194509" lat="68.3191800126" lon="14.8956102646">
		<tag k="alt_name" v="Røyrhopen" />
		<tag k="fixme" v="consider place=hamlet" />
		<tag k="name" v="Rørhopen" />
>>>>>>> e1d4bc35ff8a6074a6f2e91616a996b547c36f15
		<tag k="place" v="farm" />
		<tag k="ssr:stedsnr" v="259349" />
	</node>
<<<<<<< HEAD
	<node lat="68.21890555148025" lon="14.495424993258464" id="-17423">
		<tag k="name" v="Åvika" />
		<tag k="place" v="farm" />
		<tag k="ssr:stedsnr" v="260236" />
	</node>
	<node lat="68.2797694430875" lon="14.724258344054034" id="-17435">
		<tag k="name" v="Nord Følstad" />
=======
	<node id="-193996" lat="68.3400528525" lon="14.1119380296">
		<tag k="fixme" v="consider place=hamlet" />
		<tag k="name" v="Hov" />
		<tag k="place" v="farm" />
		<tag k="ssr:stedsnr" v="138077" />
	</node>
	<node id="-193015" lat="68.152899999" lon="14.200791669">
		<tag k="name" v="Henningsvær" />
		<tag k="place" v="village" />
		<tag k="ssr:stedsnr" v="684330" />
	</node>
	<node id="-193480" lat="68.3573611147" lon="14.7232694477">
		<tag k="fixme" v="consider place=hamlet" />
		<tag k="name" v="Laupstad" />
		<tag k="place" v="village" />
		<tag k="ssr:stedsnr" v="927481" />
	</node>
	<node id="-195014" lat="68.3052444468" lon="15.0674972163">
		<tag k="name" v="Bjerkås" />
>>>>>>> e1d4bc35ff8a6074a6f2e91616a996b547c36f15
		<tag k="place" v="farm" />
		<tag k="ssr:stedsnr" v="168117" />
	</node>
<<<<<<< HEAD
	<node lat="68.22952778046242" lon="14.214508322194618" id="-17438">
		<tag k="alt_name" v="Lyngvær" />
=======
	<node id="-192964" lat="68.2971241473" lon="15.0598287979">
		<tag k="alt_name" v="Pundslett" />
>>>>>>> e1d4bc35ff8a6074a6f2e91616a996b547c36f15
		<tag k="fixme" v="consider place=hamlet" />
		<tag k="name" v="Lyngværet" />
		<tag k="place" v="farm" />
		<tag k="ssr:stedsnr" v="260593" />
	</node>
<<<<<<< HEAD
	<node lat="68.24039444375991" lon="14.268627777115707" id="-17439">
		<tag k="name" v="Lyngværstranda" />
=======
	<node id="-193475" lat="68.3362972197" lon="14.5053750087">
		<tag k="name" v="Sandsletta" />
>>>>>>> e1d4bc35ff8a6074a6f2e91616a996b547c36f15
		<tag k="place" v="farm" />
		<tag k="ssr:stedsnr" v="260636" />
	</node>
<<<<<<< HEAD
	<node lat="68.24317222446157" lon="14.540586114945036" id="-17448">
		<tag k="name" v="Leirosbakken" />
		<tag k="place" v="isolated_dwelling" />
		<tag k="ssr:stedsnr" v="177903" />
	</node>
	<node lat="68.25185308521777" lon="14.309513894156858" id="-17470">
		<tag k="alt_name" v="Olderfjord" />
		<tag k="fixme" v="consider place=hamlet" />
		<tag k="name" v="Olderfjorden" />
=======
	<node id="-194498" lat="68.355550004" lon="14.7473666681">
		<tag k="fixme" v="multiple name tags, choose one and add the other to alt_name; consider place=hamlet" />
		<tag k="name" v="Eide;Higravseidet" />
		<tag k="place" v="village" />
		<tag k="ssr:stedsnr" v="381471" />
	</node>
	<node id="-192957" lat="68.2557773403" lon="14.2707099943">
		<tag k="fixme" v="consider place=hamlet" />
		<tag k="name" v="Kleppstad" />
		<tag k="old_name" v="Klepstad" />
		<tag k="place" v="farm" />
		<tag k="ssr:stedsnr" v="502139" />
	</node>
	<node id="-194491" lat="68.3255250031" lon="14.6860000005">
		<tag k="alt_name" v="Jordnes" />
		<tag k="name" v="Jordneset" />
		<tag k="place" v="farm" />
		<tag k="ssr:stedsnr" v="381414" />
	</node>
	<node id="-193466" lat="68.2438083318" lon="14.5466361171">
		<tag k="name" v="Stranda" />
		<tag k="place" v="quarter" />
		<tag k="ssr:stedsnr" v="927370" />
	</node>
	<node id="-192951" lat="68.298586112" lon="14.872605546">
		<tag k="name" v="Sjøtun" />
>>>>>>> e1d4bc35ff8a6074a6f2e91616a996b547c36f15
		<tag k="place" v="farm" />
		<tag k="ssr:stedsnr" v="198119" />
	</node>
<<<<<<< HEAD
	<node lat="68.40400272612536" lon="14.51352763395403" id="-17478">
=======
	<node id="-192438" lat="68.4040027261" lon="14.513527634">
>>>>>>> e1d4bc35ff8a6074a6f2e91616a996b547c36f15
		<tag k="fixme" v="consider place=hamlet" />
		<tag k="name" v="Delp" />
		<tag k="place" v="farm" />
		<tag k="ssr:stedsnr" v="199305" />
	</node>
<<<<<<< HEAD
	<node lat="68.3525852409949" lon="14.45793316833249" id="-17490">
		<tag k="alt_name" v="Vatnfjord" />
		<tag k="fixme" v="consider place=hamlet" />
		<tag k="name" v="Vatnfjorden" />
		<tag k="place" v="farm" />
		<tag k="ssr:stedsnr" v="199406" />
	</node>
	<node lat="68.30155193462018" lon="15.017688532796148" id="-17500">
		<tag k="fixme" v="consider place=hamlet" />
		<tag k="name" v="Valen" />
=======
	<node id="-194485" lat="68.2070358282" lon="14.4541612066">
		<tag k="fixme" v="consider place=hamlet" />
		<tag k="name" v="Storvågan" />
		<tag k="place" v="farm" />
		<tag k="ssr:stedsnr" v="381261" />
	</node>
	<node id="-192435" lat="68.2689833297" lon="14.2488055459">
		<tag k="alt_name" v="Bardstrand, in;Indre Bardstrand" />
		<tag k="name" v="Indre Barstrand" />
>>>>>>> e1d4bc35ff8a6074a6f2e91616a996b547c36f15
		<tag k="place" v="farm" />
		<tag k="ssr:stedsnr" v="199622" />
	</node>
<<<<<<< HEAD
	<node lat="68.23902221881845" lon="14.491627775957408" id="-17508">
		<tag k="name" v="Skogstua" />
		<tag k="place" v="isolated_dwelling" />
		<tag k="ssr:stedsnr" v="204833" />
	</node>
	<node lat="68.31460000319788" lon="14.991105559946297" id="-17511">
		<tag k="name" v="Haugen" />
=======
	<node id="-192946" lat="68.2397138919" lon="14.2644138782">
		<tag k="name" v="Lyngvær" />
>>>>>>> e1d4bc35ff8a6074a6f2e91616a996b547c36f15
		<tag k="place" v="farm" />
		<tag k="ssr:stedsnr" v="328065" />
	</node>
<<<<<<< HEAD
	<node lat="68.19474444552748" lon="14.335552772890576" id="-17536">
		<tag k="name" v="Austre Kalle" />
=======
	<node id="-194481" lat="68.2896660079" lon="14.3250269136">
		<tag k="name" v="Tøa" />
>>>>>>> e1d4bc35ff8a6074a6f2e91616a996b547c36f15
		<tag k="place" v="farm" />
		<tag k="ssr:stedsnr" v="224605" />
	</node>
<<<<<<< HEAD
	<node lat="68.31316944414247" lon="14.987244452965774" id="-17549">
		<tag k="fixme" v="consider place=hamlet" />
		<tag k="name" v="Digermulen" />
		<tag k="place" v="village" />
		<tag k="ssr:stedsnr" v="450061" />
	</node>
	<node lat="68.30872222631304" lon="15.069836121515328" id="-17565">
		<tag k="name" v="Nergård" />
		<tag k="place" v="farm" />
		<tag k="ssr:stedsnr" v="451658" />
	</node>
	<node lat="68.3232716073603" lon="14.110179425333824" id="-17592">
=======
	<node id="-194480" lat="68.21731111" lon="14.4430583277">
		<tag k="name" v="Solbakken" />
		<tag k="place" v="farm" />
		<tag k="ssr:stedsnr" v="381211" />
	</node>
	<node id="-192431" lat="68.3296756434" lon="14.3363610414">
		<tag k="alt_name" v="Brenna, n;Nord Brenna" />
>>>>>>> e1d4bc35ff8a6074a6f2e91616a996b547c36f15
		<tag k="fixme" v="consider place=hamlet" />
		<tag k="name" v="Vik" />
		<tag k="place" v="farm" />
		<tag k="ssr:stedsnr" v="259076" />
	</node>
<<<<<<< HEAD
	<node lat="68.23213610764846" lon="14.532683338891337" id="-17603">
		<tag k="fixme" v="consider place=suburb, village or hamlet" />
		<tag k="name" v="Osan" />
		<tag k="place" v="quarter" />
		<tag k="ssr:stedsnr" v="259263" />
	</node>
	<node lat="68.17195663353509" lon="14.244691747455391" id="-17635">
		<tag k="fixme" v="consider place=hamlet" />
		<tag k="name" v="Gullvika" />
		<tag k="place" v="farm" />
		<tag k="ssr:stedsnr" v="260454" />
	</node>
	<node lat="68.33477222638726" lon="14.75674721489304" id="-17704">
		<tag k="name" v="Småmyr" />
		<tag k="place" v="farm" />
		<tag k="ssr:stedsnr" v="302837" />
	</node>
	<node lat="68.33689543040742" lon="14.162862922648612" id="-17713">
=======
	<node id="-193454" lat="68.2106638894" lon="14.4755444452">
		<tag k="loc_name:se" v="Vágit;Váhki" />
		<tag k="name" v="Kabelvåg" />
		<tag k="name:no" v="Kabelvåg" />
		<tag k="place" v="village" />
		<tag k="ssr:stedsnr" v="927245" />
	</node>
	<node id="-194475" lat="68.2610055563" lon="14.1932833377">
		<tag k="name" v="Jørndalen" />
		<tag k="place" v="farm" />
		<tag k="ssr:stedsnr" v="381151" />
	</node>
	<node id="-192938" lat="68.3368954304" lon="14.1628629226">
>>>>>>> e1d4bc35ff8a6074a6f2e91616a996b547c36f15
		<tag k="fixme" v="consider place=hamlet" />
		<tag k="name" v="Saupstad" />
		<tag k="place" v="farm" />
		<tag k="ssr:stedsnr" v="466654" />
	</node>
<<<<<<< HEAD
	<node lat="68.3215305557862" lon="14.211072217693097" id="-17716">
		<tag k="name" v="Kleivan" />
=======
	<node id="-194985" lat="68.2855944456" lon="14.6864055438">
		<tag k="alt_name" v="Vatterfjord" />
		<tag k="name" v="Vatterfjorden" />
>>>>>>> e1d4bc35ff8a6074a6f2e91616a996b547c36f15
		<tag k="place" v="farm" />
		<tag k="ssr:stedsnr" v="320129" />
	</node>
	<node lat="68.38808333764729" lon="14.417691664516065" id="-17739">
		<tag k="alt_name" v="Laukvik" />
		<tag k="name" v="Laukvika" />
		<tag k="place" v="village" />
		<tag k="ssr:stedsnr" v="320290" />
	</node>
	<node lat="68.31872222404606" lon="14.708497224991996" id="-17767">
		<tag k="name" v="Jensplassen" />
		<tag k="place" v="locality" />
		<tag k="ssr:stedsnr" v="331416" />
	</node>
<<<<<<< HEAD
	<node lat="68.32423055167946" lon="15.146655547853623" id="-17776">
		<tag k="name" v="Sæter" />
=======
	<node id="-193448" lat="68.2917388857" lon="14.2692805621">
		<tag k="alt_name" v="Bardstrand, yt;Ytre Bardstrand" />
		<tag k="name" v="Ytre Barstrand" />
>>>>>>> e1d4bc35ff8a6074a6f2e91616a996b547c36f15
		<tag k="place" v="farm" />
		<tag k="ssr:stedsnr" v="339259" />
	</node>
<<<<<<< HEAD
	<node lat="68.23307222276955" lon="14.819833343035361" id="-17778">
		<tag k="name" v="Våtvika" />
		<tag k="place" v="isolated_dwelling" />
		<tag k="ssr:stedsnr" v="339944" />
	</node>
	<node lat="68.2300472212733" lon="14.538855554667599" id="-17788">
		<tag k="name" v="Tankanlegg" />
		<tag k="place" v="quarter" />
		<tag k="ssr:stedsnr" v="359856" />
	</node>
	<node lat="68.3007611141511" lon="15.092288890207556" id="-17825">
		<tag k="name" v="Holandshamn" />
=======
	<node id="-194471" lat="68.2863166676" lon="15.080830558">
		<tag k="name" v="Rydningen" />
>>>>>>> e1d4bc35ff8a6074a6f2e91616a996b547c36f15
		<tag k="place" v="farm" />
		<tag k="ssr:stedsnr" v="381078" />
	</node>
<<<<<<< HEAD
	<node lat="68.20703582815702" lon="14.45416120660569" id="-17830">
		<tag k="fixme" v="consider place=hamlet" />
		<tag k="loc_name:se" v="Stuoraváhki" />
		<tag k="name" v="Storvågan" />
		<tag k="name:no" v="Storvågan" />
=======
	<node id="-194982" lat="68.2456999977" lon="14.3267000029">
		<tag k="name" v="Jorden" />
>>>>>>> e1d4bc35ff8a6074a6f2e91616a996b547c36f15
		<tag k="place" v="farm" />
		<tag k="ssr:stedsnr" v="381261" />
	</node>
<<<<<<< HEAD
	<node lat="68.32552500312909" lon="14.686000000496383" id="-17833">
		<tag k="alt_name" v="Jordnes" />
		<tag k="name" v="Jordneset" />
		<tag k="place" v="farm" />
		<tag k="ssr:stedsnr" v="381414" />
	</node>
	<node lat="68.35053333081203" lon="15.241672228915851" id="-17837">
		<tag k="name" v="Bjørnvika" />
		<tag k="place" v="isolated_dwelling" />
		<tag k="ssr:stedsnr" v="381908" />
	</node>
	<node lat="68.25405000425732" lon="14.658419437883508" id="-17854">
		<tag k="name" v="Sletta" />
=======
	<node id="-193957" lat="68.3295777805" lon="14.7010388888">
		<tag k="amenity" v="school" />
		<tag k="name" v="Vestpollen skole" />
		<tag k="ssr:stedsnr" v="107011" />
	</node>
	<node id="-194468" lat="68.3007611142" lon="15.0922888902">
		<tag k="name" v="Holandshamn" />
		<tag k="place" v="farm" />
		<tag k="ssr:stedsnr" v="381078" />
	</node>
	<node id="-193440" lat="68.1978333805" lon="14.7237637569">
		<tag k="fixme" v="consider place=hamlet" />
		<tag k="name" v="Grundstad" />
>>>>>>> e1d4bc35ff8a6074a6f2e91616a996b547c36f15
		<tag k="place" v="farm" />
		<tag k="ssr:stedsnr" v="386145" />
	</node>
<<<<<<< HEAD
	<node lat="68.3040222222624" lon="15.014911105507906" id="-17864">
		<tag k="name" v="Elvebakken" />
		<tag k="place" v="farm" />
		<tag k="ssr:stedsnr" v="389856" />
	</node>
	<node lat="68.30209999595719" lon="15.08512499379223" id="-17866">
		<tag k="name" v="Fagerstad" />
		<tag k="place" v="farm" />
		<tag k="ssr:stedsnr" v="390619" />
	</node>
	<node lat="68.29858611204519" lon="14.872605546042424" id="-17884">
		<tag k="name" v="Sjøtun" />
=======
	<node id="-192409" lat="68.2431722245" lon="14.5405861149">
		<tag k="name" v="Leirosbakken" />
		<tag k="place" v="isolated_dwelling" />
		<tag k="ssr:stedsnr" v="177903" />
	</node>
	<node id="-193432" lat="68.2986166679" lon="15.02728055">
		<tag k="alt_name" v="Litj Årstein;Årstein, l" />
		<tag k="name" v="Lilleårstein" />
		<tag k="place" v="isolated_dwelling" />
		<tag k="ssr:stedsnr" v="927064" />
	</node>
	<node id="-194966" lat="68.2419055524" lon="14.5210500062">
		<tag k="fixme" v="consider place=hamlet" />
		<tag k="name" v="Kongsmarka" />
>>>>>>> e1d4bc35ff8a6074a6f2e91616a996b547c36f15
		<tag k="place" v="farm" />
		<tag k="ssr:stedsnr" v="484226" />
	</node>
<<<<<<< HEAD
	<node lat="68.29249721823541" lon="14.863894444042915" id="-17898">
		<tag k="name" v="Rydningen" />
		<tag k="place" v="farm" />
		<tag k="ssr:stedsnr" v="423253" />
	</node>
	<node lat="68.30577499928265" lon="14.90016667192514" id="-17916">
		<tag k="name" v="Øyhellehamnen" />
		<tag k="place" v="farm" />
		<tag k="ssr:stedsnr" v="441500" />
	</node>
	<node lat="68.28951110731394" lon="14.854077787131049" id="-17939">
		<tag k="fixme" v="multiple name tags, choose one and add the other to alt_name" />
		<tag k="name" v="Nordmarka;Nordgården" />
		<tag k="place" v="farm" />
		<tag k="ssr:stedsnr" v="442596" />
	</node>
	<node lat="68.246366666745" lon="14.547850006550107" id="-17952">
=======
	<node id="-193433" lat="68.3295472232" lon="14.0924638791">
		<tag k="alt_name" v="Panserholmen" />
		<tag k="name" v="Pannsarholmen" />
		<tag k="place" v="farm" />
		<tag k="ssr:stedsnr" v="927069" />
	</node>
	<node id="-194030" lat="68.3185111093" lon="14.6252166665">
		<tag k="alt_name" v="Mørkmyra" />
		<tag k="name" v="Mørkamyran" />
		<tag k="place" v="farm" />
		<tag k="ssr:stedsnr" v="138543" />
	</node>
	<node id="-192910" lat="68.2463666667" lon="14.5478500066">
>>>>>>> e1d4bc35ff8a6074a6f2e91616a996b547c36f15
		<tag k="leisure" v="pitch" />
		<tag k="name" v="Stranda stadion" />
		<tag k="ssr:stedsnr" v="447143" />
	</node>
<<<<<<< HEAD
	<node lat="68.23971389186022" lon="14.264413878216894" id="-17980">
		<tag k="name" v="Lyngvær" />
		<tag k="place" v="farm" />
		<tag k="ssr:stedsnr" v="483510" />
	</node>
	<node lat="68.29971388596661" lon="14.319894454130711" id="-17987">
		<tag k="alt_name" v="Gravermark" />
		<tag k="name" v="Gravermarka" />
=======
	<node id="-192578" lat="68.2380611139" lon="14.5559333454">
		<tag k="name" v="Solheim" />
		<tag k="place" v="quarter" />
		<tag k="ssr:stedsnr" v="446866" />
	</node>
	<node id="-193415" lat="68.3333249983" lon="14.7601861098">
		<tag k="name" v="Vollen" />
		<tag k="place" v="farm" />
		<tag k="ssr:stedsnr" v="909866" />
	</node>
	<node id="-193413" lat="68.3239805518" lon="14.6767777728">
		<tag k="name" v="Farsvika" />
		<tag k="place" v="isolated_dwelling" />
		<tag k="ssr:stedsnr" v="908866" />
	</node>
	<node id="-192388" lat="68.2715027804" lon="15.0092222108">
		<tag k="name" v="Øvre Årstein" />
>>>>>>> e1d4bc35ff8a6074a6f2e91616a996b547c36f15
		<tag k="place" v="farm" />
		<tag k="ssr:stedsnr" v="502045" />
	</node>
<<<<<<< HEAD
	<node lat="68.32232222417062" lon="14.64606665639175" id="-17996">
		<tag k="name" v="Vestpollmarka" />
		<tag k="place" v="isolated_dwelling" />
		<tag k="ssr:stedsnr" v="502411" />
	</node>
	<node lat="68.2186481853254" lon="14.797832870777514" id="-18001">
		<tag k="name" v="Tørrvikan" />
=======
	<node id="-193923" lat="68.1713055563" lon="14.687097231">
		<tag k="name" v="Capri" />
		<tag k="place" v="isolated_dwelling" />
		<tag k="ssr:stedsnr" v="88919" />
	</node>
	<node id="-194946" lat="68.3093319844" lon="15.0684785463">
		<tag k="fixme" v="consider place=hamlet" />
		<tag k="name" v="Vatnvågen" />
		<tag k="place" v="farm" />
		<tag k="ssr:stedsnr" v="745065" />
	</node>
	<node id="-194368" lat="68.318722224" lon="14.708497225">
		<tag k="name" v="Jensplassen" />
		<tag k="place" v="locality" />
		<tag k="ssr:stedsnr" v="331416" />
	</node>
	<node id="-194942" lat="68.3061055542" lon="14.1202333273">
		<tag k="alt_name" v="Årstrand" />
		<tag k="name" v="Årrstranda" />
>>>>>>> e1d4bc35ff8a6074a6f2e91616a996b547c36f15
		<tag k="place" v="farm" />
		<tag k="ssr:stedsnr" v="502184" />
	</node>
<<<<<<< HEAD
	<node lat="68.30200278095953" lon="15.023311107045002" id="-18022">
		<tag k="name" v="Valen" />
		<tag k="place" v="hamlet" />
		<tag k="ssr:stedsnr" v="503429" />
	</node>
	<node lat="68.3033555510553" lon="15.089508339243574" id="-18033">
		<tag k="name" v="Fagerhaug" />
=======
	<node id="-194282" lat="68.2352527799" lon="14.5636277795">
		<tag k="name" v="Svolvær" />
		<tag k="place" v="town" />
		<tag k="ssr:stedsnr" v="320274" />
	</node>
	<node id="-194745" lat="68.2686611119" lon="15.0168555465">
		<tag k="name" v="Damman" />
		<tag k="place" v="farm" />
		<tag k="ssr:stedsnr" v="571173" />
	</node>
	<node id="-193911" lat="68.3047750012" lon="15.1024611032">
		<tag k="name" v="Vika" />
>>>>>>> e1d4bc35ff8a6074a6f2e91616a996b547c36f15
		<tag k="place" v="farm" />
		<tag k="ssr:stedsnr" v="511605" />
	</node>
<<<<<<< HEAD
	<node lat="68.24100891295812" lon="14.799659841096847" id="-18062">
=======
	<node id="-195446" lat="68.3934899919" lon="14.4613568159">
>>>>>>> e1d4bc35ff8a6074a6f2e91616a996b547c36f15
		<tag k="fixme" v="consider place=hamlet" />
		<tag k="name" v="Haversand" />
		<tag k="place" v="farm" />
		<tag k="ssr:stedsnr" v="684294" />
	</node>
<<<<<<< HEAD
	<node lat="68.15289999898106" lon="14.20079166897067" id="-18064">
		<tag k="name" v="Henningsvær" />
		<tag k="place" v="village" />
		<tag k="ssr:stedsnr" v="684330" />
	</node>
	<node lat="68.34963611089753" lon="14.745416674633127" id="-18067">
		<tag k="alt_name" v="Skjennvollen" />
		<tag k="name" v="Skinvollen" />
=======
	<node id="-195445" lat="68.2868977465" lon="14.3312610021">
		<tag k="fixme" v="consider place=hamlet" />
		<tag k="name" v="Sydalen" />
>>>>>>> e1d4bc35ff8a6074a6f2e91616a996b547c36f15
		<tag k="place" v="farm" />
		<tag k="ssr:stedsnr" v="684394" />
	</node>
<<<<<<< HEAD
	<node lat="68.31721943994668" lon="14.49525833777014" id="-18082">
		<tag k="name" v="Haugen" />
		<tag k="place" v="farm" />
		<tag k="ssr:stedsnr" v="684540" />
	</node>
	<node lat="68.34019994170394" lon="14.33349108634136" id="-18092">
=======
	<node id="-195444" lat="68.2436165266" lon="14.2849099422">
		<tag k="fixme" v="consider place=hamlet" />
		<tag k="name" v="Haugen" />
		<tag k="place" v="farm" />
		<tag k="ssr:stedsnr" v="1076136" />
	</node>
	<node id="-195443" lat="68.2795544688" lon="14.2523723709">
>>>>>>> e1d4bc35ff8a6074a6f2e91616a996b547c36f15
		<tag k="fixme" v="consider place=hamlet" />
		<tag k="name" v="Litlfestvåg" />
		<tag k="place" v="farm" />
<<<<<<< HEAD
		<tag k="ssr:stedsnr" v="684879" />
	</node>
	<node lat="68.34244722446876" lon="14.347438894751052" id="-18093">
		<tag k="name" v="Rubertheimen" />
=======
		<tag k="ssr:stedsnr" v="1076135" />
	</node>
	<node id="-195442" lat="68.1649400561" lon="14.6496668637">
		<tag k="name" v="Skrova" />
		<tag k="place" v="locality" />
		<tag k="ssr:stedsnr" v="1076134" />
	</node>
	<node id="-195441" lat="68.1888240793" lon="14.7230052055">
		<tag k="name" v="Sandøya" />
>>>>>>> e1d4bc35ff8a6074a6f2e91616a996b547c36f15
		<tag k="place" v="locality" />
		<tag k="ssr:stedsnr" v="684882" />
	</node>
<<<<<<< HEAD
	<node lat="68.30285000293141" lon="15.111422229466926" id="-18194">
=======
	<node id="-195440" lat="68.1855048584" lon="14.7437188777">
>>>>>>> e1d4bc35ff8a6074a6f2e91616a996b547c36f15
		<tag k="fixme" v="consider place=hamlet" />
		<tag k="name" v="Holand" />
		<tag k="place" v="farm" />
		<tag k="ssr:stedsnr" v="623071" />
	</node>
<<<<<<< HEAD
	<node lat="68.28376944810694" lon="14.199516661708316" id="-18195">
		<tag k="name" v="Jenndalen" />
		<tag k="place" v="farm" />
		<tag k="ssr:stedsnr" v="623074" />
	</node>
	<node lat="68.30928129543597" lon="14.913043343258808" id="-18229">
=======
	<node id="-195439" lat="68.2080959686" lon="14.7884536001">
		<tag k="name" v="Bjørndalen" />
		<tag k="place" v="locality" />
		<tag k="ssr:stedsnr" v="1076128" />
	</node>
	<node id="-195438" lat="68.2331625446" lon="14.8427186509">
>>>>>>> e1d4bc35ff8a6074a6f2e91616a996b547c36f15
		<tag k="fixme" v="consider place=hamlet" />
		<tag k="name" v="Slåttholmen" />
		<tag k="place" v="farm" />
		<tag k="ssr:stedsnr" v="623528" />
	</node>
<<<<<<< HEAD
	<node lat="68.30163055493428" lon="15.093505550037717" id="-18238">
		<tag k="name" v="Steinsvik" />
		<tag k="place" v="farm" />
		<tag k="ssr:stedsnr" v="704245" />
	</node>
	<node lat="68.30203140353639" lon="15.068194057245787" id="-18240">
=======
	<node id="-195437" lat="68.2810412272" lon="14.9288746795">
		<tag k="fixme" v="consider place=hamlet" />
		<tag k="name" v="Ulvågen" />
		<tag k="place" v="farm" />
		<tag k="ssr:stedsnr" v="1076124" />
	</node>
	<node id="-195436" lat="68.3114457069" lon="14.9841229055">
>>>>>>> e1d4bc35ff8a6074a6f2e91616a996b547c36f15
		<tag k="fixme" v="consider place=hamlet" />
		<tag k="name" v="Fagerbakken" />
		<tag k="place" v="farm" />
		<tag k="ssr:stedsnr" v="632608" />
	</node>
<<<<<<< HEAD
	<node lat="68.16701667035503" lon="14.683880556910877" id="-18296">
		<tag k="name" v="Solvang" />
=======
	<node id="-195435" lat="68.2779251858" lon="14.7266971468">
		<tag k="fixme" v="consider place=hamlet" />
		<tag k="name" v="Følstad" />
>>>>>>> e1d4bc35ff8a6074a6f2e91616a996b547c36f15
		<tag k="place" v="farm" />
		<tag k="ssr:stedsnr" v="684163" />
	</node>
<<<<<<< HEAD
	<node lat="68.23944444451422" lon="14.643988895624986" id="-18306">
		<tag k="name" v="Børvågen" />
=======
	<node id="-195434" lat="68.3371290616" lon="14.7489541185">
		<tag k="fixme" v="consider place=hamlet" />
		<tag k="name" v="Liland" />
>>>>>>> e1d4bc35ff8a6074a6f2e91616a996b547c36f15
		<tag k="place" v="farm" />
		<tag k="ssr:stedsnr" v="684269" />
	</node>
<<<<<<< HEAD
	<node lat="68.30493055842811" lon="14.998449996161359" id="-18321">
		<tag k="alt_name" v="Breidvoll" />
		<tag k="name" v="Breivoll" />
=======
	<node id="-195433" lat="68.3600093702" lon="14.7250094906">
		<tag k="fixme" v="consider place=hamlet" />
		<tag k="name" v="Laupstad" />
>>>>>>> e1d4bc35ff8a6074a6f2e91616a996b547c36f15
		<tag k="place" v="farm" />
		<tag k="ssr:stedsnr" v="684501" />
	</node>
<<<<<<< HEAD
	<node lat="68.25259166930819" lon="14.505719449195677" id="-18323">
		<tag k="name" v="Nøkkstua" />
		<tag k="place" v="isolated_dwelling" />
		<tag k="ssr:stedsnr" v="684647" />
	</node>
	<node lat="68.28035555561674" lon="14.726816670747889" id="-18329">
		<tag k="name" v="Følstadvika" />
=======
	<node id="-195432" lat="68.3283315529" lon="14.6869977082">
		<tag k="fixme" v="consider place=hamlet" />
		<tag k="name" v="Vestpollen" />
>>>>>>> e1d4bc35ff8a6074a6f2e91616a996b547c36f15
		<tag k="place" v="farm" />
		<tag k="ssr:stedsnr" v="684596" />
	</node>
<<<<<<< HEAD
	<node lat="68.35467499785086" lon="14.447886118154294" id="-18371">
		<tag k="name" v="Rundhaugen" />
		<tag k="place" v="isolated_dwelling" />
		<tag k="ssr:stedsnr" v="725713" />
	</node>
	<node lat="68.30610555421448" lon="14.120233327264716" id="-18381">
		<tag k="alt_name" v="Årstrand" />
		<tag k="name" v="Årrstranda" />
		<tag k="place" v="farm" />
		<tag k="ssr:stedsnr" v="745028" />
	</node>
	<node lat="68.32680674597252" lon="14.328432134106821" id="-18392">
		<tag k="alt_name" v="Brenna s;Sør Brenna" />
		<tag k="fixme" v="consider place=hamlet" />
		<tag k="name" v="Søre Brenna" />
		<tag k="place" v="farm" />
		<tag k="ssr:stedsnr" v="745114" />
	</node>
	<node lat="68.3052444468025" lon="15.067497216297843" id="-18428">
		<tag k="name" v="Bjerkås" />
		<tag k="place" v="farm" />
		<tag k="ssr:stedsnr" v="754664" />
	</node>
	<node lat="68.26332221923182" lon="14.748052770609549" id="-18437">
		<tag k="historic" v="shieling" />
		<tag k="name" v="Landan" />
		<tag k="place" v="isolated_dwelling" />
		<tag k="ssr:stedsnr" v="756221" />
	</node>
	<node lat="68.29696110873904" lon="14.267441673022036" id="-18449">
		<tag k="name" v="Indre Gimsøysand" />
		<tag k="place" v="farm" />
		<tag k="ssr:stedsnr" v="770309" />
	</node>
	<node lat="68.29861666789749" lon="15.027280550005143" id="-18518">
		<tag k="alt_name" v="Litj Årstein;Årstein, l" />
		<tag k="name" v="Lilleårstein" />
		<tag k="place" v="isolated_dwelling" />
		<tag k="ssr:stedsnr" v="927064" />
	</node>
	<node lat="68.19783338053959" lon="14.723763756939649" id="-18522">
=======
	<node id="-195431" lat="68.2380984362" lon="14.5646494228">
		<tag k="name" v="Svolvær" />
		<tag k="place" v="locality" />
		<tag k="ssr:stedsnr" v="1076113" />
	</node>
	<node id="-195429" lat="68.2103001701" lon="14.4885874127">
		<tag k="name" v="Prestskeia" />
		<tag k="place" v="locality" />
		<tag k="ssr:stedsnr" v="1076111" />
	</node>
	<node id="-195428" lat="68.2118511904" lon="14.4850005968">
		<tag k="name" v="Finneset" />
		<tag k="place" v="locality" />
		<tag k="ssr:stedsnr" v="1076110" />
	</node>
	<node id="-195427" lat="68.2106303836" lon="14.4686498012">
		<tag k="name" v="Kabelvåg" />
		<tag k="place" v="locality" />
		<tag k="ssr:stedsnr" v="1076107" />
	</node>
	<node id="-195426" lat="68.2093724021" lon="14.4668214097">
		<tag k="name" v="Smedvik" />
		<tag k="place" v="locality" />
		<tag k="ssr:stedsnr" v="1076105" />
	</node>
	<node id="-195425" lat="68.205680099" lon="14.386191276">
>>>>>>> e1d4bc35ff8a6074a6f2e91616a996b547c36f15
		<tag k="fixme" v="consider place=hamlet" />
		<tag k="name" v="Grundstad" />
		<tag k="place" v="farm" />
		<tag k="ssr:stedsnr" v="927144" />
	</node>
<<<<<<< HEAD
	<node lat="68.32954722316629" lon="14.092463879103843" id="-18526">
		<tag k="alt_name" v="Panserholmen" />
		<tag k="name" v="Pannsarholmen" />
=======
	<node id="-195424" lat="68.1984323288" lon="14.3943843104">
		<tag k="fixme" v="consider place=hamlet" />
		<tag k="name" v="Ørsnes" />
>>>>>>> e1d4bc35ff8a6074a6f2e91616a996b547c36f15
		<tag k="place" v="farm" />
		<tag k="ssr:stedsnr" v="927069" />
	</node>
<<<<<<< HEAD
	<node lat="68.2106638893573" lon="14.475544445155819" id="-18533">
		<tag k="loc_name:se" v="Gávvalváhki;Vágit;Váhki" />
		<tag k="loc_name:smj" v="Gábelváhke" />
		<tag k="name" v="Kabelvåg" />
		<tag k="name:no" v="Kabelvåg" />
		<tag k="place" v="village" />
		<tag k="ssr:stedsnr" v="927245" />
	</node>
	<node lat="68.33629721965046" lon="14.505375008730907" id="-18545">
		<tag k="name" v="Sandsletta" />
		<tag k="place" v="farm" />
		<tag k="ssr:stedsnr" v="927441" />
	</node>
	<node lat="68.35736111467129" lon="14.72326944770799" id="-18548">
		<tag k="fixme" v="consider place=hamlet" />
		<tag k="name" v="Laupstad" />
		<tag k="place" v="village" />
		<tag k="ssr:stedsnr" v="927481" />
	</node>
	<node lat="68.20666666600052" lon="14.428180564466318" id="-18568">
		<tag k="name" v="Smedplassen" />
=======
	<node id="-195423" lat="68.1974460588" lon="14.3515232778">
		<tag k="name" v="Hopen" />
		<tag k="place" v="locality" />
		<tag k="ssr:stedsnr" v="1076096" />
	</node>
	<node id="-195422" lat="68.151732228" lon="14.1960431478">
		<tag k="name" v="Henningsvær" />
		<tag k="place" v="locality" />
		<tag k="ssr:stedsnr" v="1076094" />
	</node>
	<node id="-193884" lat="68.3173638866" lon="14.9956277782">
		<tag k="name" v="Gjerdet" />
>>>>>>> e1d4bc35ff8a6074a6f2e91616a996b547c36f15
		<tag k="place" v="farm" />
		<tag k="ssr:stedsnr" v="871800" />
	</node>
<<<<<<< HEAD
	<node lat="68.32398055178996" lon="14.67677777281884" id="-18618">
		<tag k="name" v="Farsvika" />
		<tag k="place" v="isolated_dwelling" />
		<tag k="ssr:stedsnr" v="908866" />
	</node>
	<node lat="68.33332499834316" lon="14.760186109772086" id="-18620">
		<tag k="name" v="Vollen" />
=======
	<node id="-194907" lat="68.3020314035" lon="15.0681940572">
		<tag k="fixme" v="consider place=hamlet" />
		<tag k="name" v="Fagerbakken" />
>>>>>>> e1d4bc35ff8a6074a6f2e91616a996b547c36f15
		<tag k="place" v="farm" />
		<tag k="ssr:stedsnr" v="909866" />
	</node>
<<<<<<< HEAD
	<node lat="68.29173888567932" lon="14.269280562075215" id="-18629">
		<tag k="alt_name" v="Bardstrand, yt;Ytre Bardstrand" />
		<tag k="name" v="Ytre Barstrand" />
=======
	<node id="-193368" lat="68.326806746" lon="14.3284321341">
		<tag k="alt_name" v="Brenna s;Sør Brenna" />
		<tag k="fixme" v="consider place=hamlet" />
		<tag k="name" v="Søre Brenna" />
>>>>>>> e1d4bc35ff8a6074a6f2e91616a996b547c36f15
		<tag k="place" v="farm" />
		<tag k="ssr:stedsnr" v="927207" />
	</node>
<<<<<<< HEAD
	<node lat="68.2438083318406" lon="14.546636117138641" id="-18637">
		<tag k="name" v="Stranda" />
		<tag k="place" v="quarter" />
		<tag k="ssr:stedsnr" v="927370" />
	</node>
	<node lat="68.24832221832783" lon="14.329669439953125" id="-18640">
		<tag k="name" v="Storvika" />
		<tag k="place" v="farm" />
		<tag k="ssr:stedsnr" v="927517" />
	</node>
	<node lat="68.27659722385721" lon="14.667475011179576" id="-18643">
		<tag k="name" v="Kota" />
		<tag k="old_name" v="Litlvatterfjorden" />
=======
	<node id="-194390" lat="68.1887361133" lon="14.2244444337">
		<tag k="name" v="Djupfjorden" />
		<tag k="place" v="locality" />
		<tag k="ssr:stedsnr" v="350242" />
	</node>
	<node id="-193874" lat="68.2090638888" lon="14.3928083227">
		<tag k="fixme" v="consider place=hamlet" />
		<tag k="name" v="Ørsvåg" />
		<tag k="place" v="village" />
		<tag k="ssr:stedsnr" v="78434" />
	</node>
	<node id="-192337" lat="68.2695757002" lon="14.1645500271">
		<tag k="alt_name" v="Sundklakkhamnen" />
		<tag k="name" v="Hamnen" />
>>>>>>> e1d4bc35ff8a6074a6f2e91616a996b547c36f15
		<tag k="place" v="farm" />
		<tag k="ssr:stedsnr" v="927571" />
	</node>
<<<<<<< HEAD
	<node lat="68.27712777668573" lon="14.727605563762053" id="-18650">
		<tag k="name" v="Sør Følstad" />
=======
	<node id="-193872" lat="68.3328027781" lon="14.7129611006">
		<tag k="name" v="Nordvika" />
>>>>>>> e1d4bc35ff8a6074a6f2e91616a996b547c36f15
		<tag k="place" v="farm" />
		<tag k="ssr:stedsnr" v="927610" />
	</node>
<<<<<<< HEAD
	<node lat="68.20923055943268" lon="14.417166671788722" id="-18663">
		<tag k="name" v="Øra" />
		<tag k="place" v="farm" />
		<tag k="ssr:stedsnr" v="932803" />
	</node>
	<node lat="68.33164722173218" lon="14.168225002561726" id="-18722">
		<tag k="name" v="Saupstad" />
		<tag k="place" v="farm" />
		<tag k="ssr:stedsnr" v="17079" />
	</node>
	<node lat="68.24876666355284" lon="14.56665833755566" id="-18727">
		<tag k="name" v="Knutvika" />
=======
	<node id="-194890" lat="68.32460556" lon="15.1386999993">
		<tag k="name" v="Lauvvika" />
		<tag k="place" v="farm" />
		<tag k="ssr:stedsnr" v="623944" />
	</node>
	<node id="-194615" lat="68.2290222245" lon="14.2172333235">
		<tag k="name" v="Valhall" />
		<tag k="place" v="farm" />
		<tag k="ssr:stedsnr" v="529055" />
	</node>
	<node id="-194376" lat="68.3242305517" lon="15.1466555479">
		<tag k="name" v="Sæter" />
		<tag k="place" v="farm" />
		<tag k="ssr:stedsnr" v="339259" />
	</node>
	<node id="-194887" lat="68.3390416649" lon="14.0832972158">
		<tag k="name" v="Hovsund" />
>>>>>>> e1d4bc35ff8a6074a6f2e91616a996b547c36f15
		<tag k="place" v="farm" />
		<tag k="ssr:stedsnr" v="17385" />
	</node>
<<<<<<< HEAD
	<node lat="68.21978333549497" lon="14.766724993790058" id="-18743">
		<tag k="name" v="Helland" />
=======
	<node id="-192837" lat="68.318469447" lon="14.749441668">
		<tag k="name" v="Knutgamman" />
>>>>>>> e1d4bc35ff8a6074a6f2e91616a996b547c36f15
		<tag k="place" v="locality" />
		<tag k="ssr:stedsnr" v="17256" />
	</node>
<<<<<<< HEAD
	<node lat="68.39318611421955" lon="14.466272213259856" id="-18748">
		<tag k="fixme" v="consider place=hamlet" />
		<tag k="name" v="Straumnes" />
		<tag k="place" v="village" />
		<tag k="ssr:stedsnr" v="17330" />
	</node>
	<node lat="68.32883521519713" lon="14.69707020719648" id="-18757">
		<tag k="fixme" v="consider place=hamlet" />
		<tag k="name" v="Vestpollen" />
		<tag k="place" v="village" />
		<tag k="ssr:stedsnr" v="17433" />
	</node>
	<node lat="68.32418611204817" lon="14.510855560553127" id="-18760">
		<tag k="name" v="Ytreidet" />
		<tag k="place" v="farm" />
		<tag k="ssr:stedsnr" v="17444" />
	</node>
	<node lat="68.24305833575256" lon="14.314955565928408" id="-18763">
		<tag k="name" v="Litlhaugen" />
=======
	<node id="-192324" lat="68.2545750025" lon="14.3255666582">
		<tag k="name" v="Vollan" />
		<tag k="place" v="farm" />
		<tag k="ssr:stedsnr" v="137105" />
	</node>
	<node id="-194881" lat="68.2560916704" lon="14.6707000094">
		<tag k="name" v="Teisthaugan" />
		<tag k="place" v="isolated_dwelling" />
		<tag k="ssr:stedsnr" v="623684" />
	</node>
	<node id="-194880" lat="68.2507250033" lon="14.6641999906">
		<tag k="alt_name" v="Husvåg" />
		<tag k="name" v="Husvågen" />
		<tag k="place" v="farm" />
		<tag k="ssr:stedsnr" v="623683" />
	</node>
	<node id="-194879" lat="68.2785472238" lon="14.6193361171">
		<tag k="name" v="Hellsætra" />
		<tag k="place" v="isolated_dwelling" />
		<tag k="ssr:stedsnr" v="623638" />
	</node>
	<node id="-192510" lat="68.3288777458" lon="15.1872312055">
		<tag k="fixme" v="consider place=hamlet" />
		<tag k="name" v="Storfjell" />
		<tag k="place" v="farm" />
		<tag k="ssr:stedsnr" v="441958" />
	</node>
	<node id="-192828" lat="68.302099996" lon="15.0851249938">
		<tag k="name" v="Fagerstad" />
>>>>>>> e1d4bc35ff8a6074a6f2e91616a996b547c36f15
		<tag k="place" v="farm" />
		<tag k="ssr:stedsnr" v="17529" />
	</node>
<<<<<<< HEAD
	<node lat="68.20906388876487" lon="14.392808322716487" id="-18831">
		<tag k="fixme" v="consider place=hamlet" />
		<tag k="loc_name:se" v="Ørsváhki" />
		<tag k="name" v="Ørsvåg" />
		<tag k="name:no" v="Ørsvåg" />
		<tag k="place" v="village" />
		<tag k="ssr:stedsnr" v="78434" />
	</node>
	<node lat="68.32265277517288" lon="14.201402786488662" id="-18839">
		<tag k="fixme" v="consider place=hamlet" />
		<tag k="name" v="Vinje" />
		<tag k="place" v="farm" />
		<tag k="ssr:stedsnr" v="77088" />
	</node>
	<node lat="68.27072777597517" lon="15.023299992429875" id="-18841">
		<tag k="alt_name" v="Trollskardet" />
		<tag k="name" v="Trollskaret" />
=======
	<node id="-193338" lat="68.251505558" lon="14.3144611042">
		<tag k="name" v="Urda" />
		<tag k="place" v="farm" />
		<tag k="ssr:stedsnr" v="714957" />
	</node>
	<node id="-192825" lat="68.3040222223" lon="15.0149111055">
		<tag k="name" v="Elvebakken" />
>>>>>>> e1d4bc35ff8a6074a6f2e91616a996b547c36f15
		<tag k="place" v="farm" />
		<tag k="ssr:stedsnr" v="77097" />
	</node>
<<<<<<< HEAD
	<node lat="68.29498888881052" lon="15.088486107460707" id="-18866">
=======
	<node id="-193848" lat="68.2949888888" lon="15.0884861075">
>>>>>>> e1d4bc35ff8a6074a6f2e91616a996b547c36f15
		<tag k="name" v="Sandnes" />
		<tag k="place" v="farm" />
		<tag k="ssr:stedsnr" v="78075" />
	</node>
<<<<<<< HEAD
	<node lat="68.27972777644756" lon="14.147327776309472" id="-18874">
		<tag k="alt_name" v="Storbukta" />
		<tag k="name" v="Storvika" />
=======
	<node id="-192823" lat="68.3076500006" lon="14.9912194459">
		<tag k="name" v="Solstad" />
>>>>>>> e1d4bc35ff8a6074a6f2e91616a996b547c36f15
		<tag k="place" v="farm" />
		<tag k="ssr:stedsnr" v="78244" />
	</node>
<<<<<<< HEAD
	<node lat="68.17130555630563" lon="14.68709723095966" id="-18913">
		<tag k="name" v="Capri" />
		<tag k="place" v="isolated_dwelling" />
		<tag k="ssr:stedsnr" v="88919" />
	</node>
	<node lat="68.32129119025501" lon="14.231043901687263" id="-18935">
		<tag k="fixme" v="multiple name tags, choose one and add the other to alt_name; consider place=hamlet" />
		<tag k="name" v="Gimsøysand;Sand" />
=======
	<node id="-192822" lat="68.302002781" lon="15.023311107">
		<tag k="name" v="Valen" />
		<tag k="place" v="hamlet" />
		<tag k="ssr:stedsnr" v="503429" />
	</node>
	<node id="-195378" lat="68.3129527801" lon="14.9823444388">
		<tag k="name" v="Skogly" />
>>>>>>> e1d4bc35ff8a6074a6f2e91616a996b547c36f15
		<tag k="place" v="farm" />
		<tag k="ssr:stedsnr" v="119291" />
	</node>
<<<<<<< HEAD
	<node lat="68.3315611095258" lon="15.020944442617637" id="-18955">
		<tag k="name" v="Kjellarneset" />
		<tag k="old_name" v="SKELDERNES" />
=======
	<node id="-195377" lat="68.3079999986" lon="14.99784166">
		<tag k="name" v="Haugtun" />
>>>>>>> e1d4bc35ff8a6074a6f2e91616a996b547c36f15
		<tag k="place" v="farm" />
		<tag k="ssr:stedsnr" v="137943" />
	</node>
<<<<<<< HEAD
	<node lat="68.3400528524946" lon="14.111938029594203" id="-18956">
		<tag k="fixme" v="consider place=hamlet" />
		<tag k="name" v="Hov" />
=======
	<node id="-195376" lat="68.206666666" lon="14.4281805645">
		<tag k="name" v="Smedplassen" />
>>>>>>> e1d4bc35ff8a6074a6f2e91616a996b547c36f15
		<tag k="place" v="farm" />
		<tag k="ssr:stedsnr" v="138077" />
	</node>
<<<<<<< HEAD
	<node lat="68.26957570021143" lon="14.16455002713753" id="-18962">
		<tag k="alt_name" v="Sundklakkhamnen" />
		<tag k="name" v="Hamnen" />
		<tag k="place" v="farm" />
		<tag k="ssr:stedsnr" v="138243" />
	</node>
	<node lat="68.22822500194236" lon="14.447552766885975" id="-18975">
		<tag k="name" v="Sætra" />
		<tag k="place" v="isolated_dwelling" />
		<tag k="ssr:stedsnr" v="138332" />
	</node>
	<node lat="68.33616944316577" lon="14.714861111688858" id="-18981">
		<tag k="name" v="Mettesnes" />
		<tag k="place" v="farm" />
		<tag k="ssr:stedsnr" v="138425" />
	</node>
	<node lat="68.29763888944001" lon="14.954558325587438" id="-18986">
		<tag k="alt_name" v="Sandavika" />
		<tag k="name" v="Sandvika" />
=======
	<node id="-194866" lat="68.3092812954" lon="14.9130433433">
		<tag k="fixme" v="consider place=hamlet" />
		<tag k="name" v="Slåttholmen" />
		<tag k="place" v="farm" />
		<tag k="ssr:stedsnr" v="623528" />
	</node>
	<node id="-192391" lat="68.2797694431" lon="14.7242583441">
		<tag k="name" v="Nord Følstad" />
		<tag k="place" v="farm" />
		<tag k="ssr:stedsnr" v="168117" />
	</node>
	<node id="-194344" lat="68.325016663" lon="15.1782500013">
		<tag k="name" v="Fjellheim" />
>>>>>>> e1d4bc35ff8a6074a6f2e91616a996b547c36f15
		<tag k="place" v="farm" />
		<tag k="ssr:stedsnr" v="138524" />
	</node>
<<<<<<< HEAD
	<node lat="68.32207500174496" lon="14.50115556144667" id="-18994">
		<tag k="name" v="Løvland" />
=======
	<node id="-195367" lat="68.3473111123" lon="15.2374611021">
		<tag k="name" v="Tortenbakkan" />
>>>>>>> e1d4bc35ff8a6074a6f2e91616a996b547c36f15
		<tag k="place" v="farm" />
		<tag k="ssr:stedsnr" v="138551" />
	</node>
<<<<<<< HEAD
	<node lat="68.26984999880314" lon="14.54153334071795" id="-19000">
		<tag k="name" v="Sætra" />
		<tag k="place" v="isolated_dwelling" />
		<tag k="ssr:stedsnr" v="138578" />
	</node>
	<node lat="68.3420361119194" lon="14.339027778543503" id="-19003">
		<tag k="name" v="Festvåg" />
		<tag k="place" v="isolated_dwelling" />
		<tag k="ssr:stedsnr" v="138887" />
	</node>
	<node lat="68.26746666892565" lon="15.01144721754073" id="-19046">
		<tag k="name" v="Nedre Årstein" />
=======
	<node id="-193830" lat="68.2853583326" lon="14.8425249926">
		<tag k="alt_name" v="Mellagården" />
		<tag k="name" v="Mellomgården" />
>>>>>>> e1d4bc35ff8a6074a6f2e91616a996b547c36f15
		<tag k="place" v="farm" />
		<tag k="ssr:stedsnr" v="157994" />
	</node>
<<<<<<< HEAD
	<node lat="68.33082778089032" lon="14.512022229910329" id="-19056">
		<tag k="name" v="Sandsletta" />
		<tag k="place" v="farm" />
		<tag k="ssr:stedsnr" v="163896" />
	</node>
	<node lat="68.25241389308255" lon="14.317116672613507" id="-19063">
		<tag k="name" v="Ytregård" />
		<tag k="place" v="farm" />
		<tag k="ssr:stedsnr" v="168947" />
	</node>
	<node lat="68.32967564339577" lon="14.33636104138189" id="-19097">
		<tag k="alt_name" v="Brenna, n;Nord Brenna" />
=======
	<node id="-194353" lat="68.3146000032" lon="14.9911055599">
		<tag k="name" v="Haugen" />
		<tag k="place" v="farm" />
		<tag k="ssr:stedsnr" v="328065" />
	</node>
	<node id="-192646" lat="68.2403944438" lon="14.2686277771">
		<tag k="name" v="Lyngværstranda" />
		<tag k="place" v="farm" />
		<tag k="ssr:stedsnr" v="260636" />
	</node>
	<node id="-192282" lat="68.2295277805" lon="14.2145083222">
		<tag k="alt_name" v="Lyngvær" />
>>>>>>> e1d4bc35ff8a6074a6f2e91616a996b547c36f15
		<tag k="fixme" v="consider place=hamlet" />
		<tag k="name" v="Nordre Brenna" />
		<tag k="place" v="farm" />
		<tag k="ssr:stedsnr" v="199122" />
	</node>
<<<<<<< HEAD
	<node lat="68.2689833297015" lon="14.248805545901945" id="-19103">
		<tag k="alt_name" v="Bardstrand, in;Indre Bardstrand" />
		<tag k="name" v="Indre Barstrand" />
=======
	<node id="-193816" lat="68.270727776" lon="15.0232999924">
		<tag k="alt_name" v="Trollskardet" />
		<tag k="name" v="Trollskaret" />
>>>>>>> e1d4bc35ff8a6074a6f2e91616a996b547c36f15
		<tag k="place" v="farm" />
		<tag k="ssr:stedsnr" v="199240" />
	</node>
<<<<<<< HEAD
	<node lat="68.1700188362981" lon="14.212940790551379" id="-19104">
		<tag k="fixme" v="consider place=hamlet" />
		<tag k="name" v="Festvåg" />
=======
	<node id="-193814" lat="68.3226527752" lon="14.2014027865">
		<tag k="fixme" v="consider place=hamlet" />
		<tag k="name" v="Vinje" />
		<tag k="place" v="farm" />
		<tag k="ssr:stedsnr" v="77088" />
	</node>
	<node id="-195349" lat="68.3159722239" lon="14.5946055443">
		<tag k="name" v="Vestpolleidet" />
>>>>>>> e1d4bc35ff8a6074a6f2e91616a996b547c36f15
		<tag k="place" v="farm" />
		<tag k="ssr:stedsnr" v="199425" />
	</node>
<<<<<<< HEAD
	<node lat="68.27990555871392" lon="14.932088889197102" id="-19126">
		<tag k="fixme" v="consider place=hamlet" />
		<tag k="name" v="Ulvågen" />
		<tag k="place" v="village" />
		<tag k="ssr:stedsnr" v="199578" />
	</node>
	<node lat="68.27125895657566" lon="15.015570206810308" id="-19130">
		<tag k="alt_name" v="Årsteinen" />
		<tag k="fixme" v="consider place=hamlet" />
		<tag k="name" v="Årstein" />
=======
	<node id="-195348" lat="68.3186666661" lon="14.5543666699">
		<tag k="name" v="Nilsjorda" />
		<tag k="place" v="isolated_dwelling" />
		<tag k="ssr:stedsnr" v="867545" />
	</node>
	<node id="-192787" lat="68.3235166702" lon="14.5289611155">
		<tag k="name" v="Indreidet" />
>>>>>>> e1d4bc35ff8a6074a6f2e91616a996b547c36f15
		<tag k="place" v="farm" />
		<tag k="ssr:stedsnr" v="199596" />
	</node>
<<<<<<< HEAD
	<node lat="68.3025777748479" lon="15.075513886263893" id="-19149">
		<tag k="name" v="Fjellberg" />
=======
	<node id="-193298" lat="68.3172194399" lon="14.4952583378">
		<tag k="name" v="Haugen" />
>>>>>>> e1d4bc35ff8a6074a6f2e91616a996b547c36f15
		<tag k="place" v="farm" />
		<tag k="ssr:stedsnr" v="208635" />
	</node>
<<<<<<< HEAD
	<node lat="68.26320278050791" lon="14.503836104360126" id="-19174">
		<tag k="fixme" v="consider tourism=alpine_hut or tourism=chalet" />
		<tag k="name" v="Nøkksætra" />
		<tag k="ssr:stedsnr" v="223854" />
		<tag k="tourism" v="wilderness_hut" />
	</node>
	<node lat="68.27150278039768" lon="15.009222210819846" id="-19184">
		<tag k="name" v="Øvre Årstein" />
		<tag k="place" v="farm" />
		<tag k="ssr:stedsnr" v="279989" />
	</node>
	<node lat="68.23525277985414" lon="14.563627779458997" id="-19227">
		<tag k="loc_name:se" v="Suolvearra" />
		<tag k="loc_name:smj" v="Spálavuolle" />
		<tag k="name" v="Svolvær" />
		<tag k="name:no" v="Svolvær" />
		<tag k="place" v="town" />
		<tag k="ssr:stedsnr" v="320274" />
	</node>
	<node lat="68.20259737907473" lon="14.24084216743908" id="-19237">
		<tag k="fixme" v="consider place=hamlet" />
		<tag k="name" v="Rørvika" />
=======
	<node id="-192785" lat="68.3223222242" lon="14.6460666564">
		<tag k="name" v="Vestpollmarka" />
		<tag k="place" v="isolated_dwelling" />
		<tag k="ssr:stedsnr" v="502411" />
	</node>
	<node id="-192984" lat="68.2419500026" lon="14.5247083232">
		<tag k="name" v="Åslia" />
		<tag k="place" v="isolated_dwelling" />
		<tag k="ssr:stedsnr" v="507860" />
	</node>
	<node id="-195342" lat="68.3324499959" lon="14.7618555489">
		<tag k="name" v="Grøttingsvollen" />
>>>>>>> e1d4bc35ff8a6074a6f2e91616a996b547c36f15
		<tag k="place" v="farm" />
		<tag k="ssr:stedsnr" v="320472" />
	</node>
<<<<<<< HEAD
	<node lat="68.199891669042" lon="14.388308322836984" id="-19240">
		<tag k="fixme" v="consider place=hamlet" />
		<tag k="name" v="Ørsnes" />
		<tag k="place" v="village" />
		<tag k="ssr:stedsnr" v="320479" />
	</node>
	<node lat="68.29614999949477" lon="14.700191663748821" id="-19242">
		<tag k="alt_name" v="Stordal" />
		<tag k="name" v="Stordalen" />
		<tag k="place" v="farm" />
		<tag k="ssr:stedsnr" v="320511" />
	</node>
	<node lat="68.24719444536771" lon="14.545191678709266" id="-19248">
		<tag k="name" v="Knutmarka" />
		<tag k="place" v="farm" />
		<tag k="ssr:stedsnr" v="320352" />
	</node>
	<node lat="68.24284444028704" lon="14.582788883166184" id="-19249">
		<tag k="alt_name" v="Øverværet" />
		<tag k="name" v="Øvreværet" />
		<tag k="place" v="quarter" />
		<tag k="ssr:stedsnr" v="320355" />
	</node>
	<node lat="68.27478888889857" lon="14.763366675405846" id="-19258">
=======
	<node id="-194829" lat="68.1680457692" lon="14.7011230986">
		<tag k="fixme" v="consider place=hamlet" />
		<tag k="name" v="Hattvika" />
		<tag k="place" v="farm" />
		<tag k="ssr:stedsnr" v="623185" />
	</node>
	<node id="-194316" lat="68.2747888889" lon="14.7633666754">
>>>>>>> e1d4bc35ff8a6074a6f2e91616a996b547c36f15
		<tag k="name" v="Sætren" />
		<tag k="place" v="isolated_dwelling" />
		<tag k="ssr:stedsnr" v="320548" />
	</node>
<<<<<<< HEAD
	<node lat="68.32501666303645" lon="15.178250001275872" id="-19277">
		<tag k="name" v="Fjellheim" />
		<tag k="place" v="farm" />
		<tag k="ssr:stedsnr" v="320957" />
	</node>
	<node lat="68.33134166300508" lon="15.192591660366766" id="-19278">
		<tag k="name" v="Myrvika" />
		<tag k="place" v="farm" />
		<tag k="ssr:stedsnr" v="320959" />
	</node>
	<node lat="68.34491944655908" lon="15.235030548222623" id="-19280">
		<tag k="name" v="Sommarset" />
		<tag k="place" v="farm" />
		<tag k="ssr:stedsnr" v="320975" />
	</node>
	<node lat="68.18873611331381" lon="14.224444433734432" id="-19312">
		<tag k="name" v="Djupfjorden" />
		<tag k="place" v="locality" />
		<tag k="ssr:stedsnr" v="350242" />
	</node>
	<node lat="68.29586110859972" lon="14.874291660316592" id="-19330">
		<tag k="name" v="Nordheim" />
=======
	<node id="-195338" lat="68.3267638864" lon="14.6508972323">
		<tag k="alt_name" v="Kvitfossen" />
		<tag k="building" v="industrial" />
		<tag k="industrial" v="factory" />
		<tag k="name" v="Kvitforsen" />
		<tag k="ssr:stedsnr" v="867425" />
	</node>
	<node id="-192471" lat="68.3202722259" lon="15.1844944378">
		<tag k="name" v="Hundsnesjordet" />
		<tag k="place" v="farm" />
		<tag k="ssr:stedsnr" v="441030" />
	</node>
	<node id="-194824" lat="68.1988644643" lon="14.7772819419">
		<tag k="name" v="Haverdal" />
		<tag k="place" v="locality" />
		<tag k="ssr:stedsnr" v="623155" />
	</node>
	<node id="-194309" lat="68.2961499995" lon="14.7001916637">
		<tag k="alt_name" v="Stordal" />
		<tag k="name" v="Stordalen" />
		<tag k="place" v="farm" />
		<tag k="ssr:stedsnr" v="320511" />
	</node>
	<node id="-195330" lat="68.2174242409" lon="14.8012395783">
		<tag k="fixme" v="consider place=hamlet" />
		<tag k="name" v="Vikan" />
>>>>>>> e1d4bc35ff8a6074a6f2e91616a996b547c36f15
		<tag k="place" v="farm" />
		<tag k="ssr:stedsnr" v="362267" />
	</node>
<<<<<<< HEAD
	<node lat="68.23593333505164" lon="14.847000006099101" id="-19347">
=======
	<node id="-195329" lat="68.2872305553" lon="14.3386749994">
>>>>>>> e1d4bc35ff8a6074a6f2e91616a996b547c36f15
		<tag k="fixme" v="consider place=hamlet" />
		<tag k="name" v="Brettesnes" />
		<tag k="place" v="village" />
<<<<<<< HEAD
		<tag k="ssr:stedsnr" v="380292" />
	</node>
	<node lat="68.28631666758076" lon="15.080830557985221" id="-19363">
		<tag k="name" v="Rydningen" />
=======
		<tag k="ssr:stedsnr" v="867236" />
	</node>
	<node id="-194815" lat="68.2837694481" lon="14.1995166617">
		<tag k="name" v="Jenndalen" />
		<tag k="place" v="farm" />
		<tag k="ssr:stedsnr" v="623074" />
	</node>
	<node id="-194814" lat="68.2856444447" lon="14.1572166624">
		<tag k="name" v="Jenndalselva" />
>>>>>>> e1d4bc35ff8a6074a6f2e91616a996b547c36f15
		<tag k="place" v="farm" />
		<tag k="ssr:stedsnr" v="381091" />
	</node>
<<<<<<< HEAD
	<node lat="68.26100555627565" lon="14.193283337737373" id="-19369">
		<tag k="name" v="Jørndalen" />
=======
	<node id="-194813" lat="68.3028500029" lon="15.1114222295">
		<tag k="fixme" v="consider place=hamlet" />
		<tag k="name" v="Holand" />
>>>>>>> e1d4bc35ff8a6074a6f2e91616a996b547c36f15
		<tag k="place" v="farm" />
		<tag k="ssr:stedsnr" v="381151" />
	</node>
<<<<<<< HEAD
	<node lat="68.2173111099873" lon="14.443058327657045" id="-19371">
		<tag k="name" v="Solbakken" />
=======
	<node id="-194811" lat="68.2950888863" lon="14.3209055538">
		<tag k="name" v="Sletta" />
>>>>>>> e1d4bc35ff8a6074a6f2e91616a996b547c36f15
		<tag k="place" v="farm" />
		<tag k="ssr:stedsnr" v="381211" />
	</node>
<<<<<<< HEAD
	<node lat="68.2896660079297" lon="14.325026913564933" id="-19372">
		<tag k="name" v="Tøa" />
=======
	<node id="-192759" lat="68.2186481853" lon="14.7978328708">
		<tag k="name" v="Tørrvikan" />
>>>>>>> e1d4bc35ff8a6074a6f2e91616a996b547c36f15
		<tag k="place" v="farm" />
		<tag k="ssr:stedsnr" v="381231" />
	</node>
<<<<<<< HEAD
	<node lat="68.3191800125595" lon="14.895610264560993" id="-19391">
		<tag k="alt_name" v="Røyrhopen" />
		<tag k="fixme" v="consider place=hamlet" />
		<tag k="name" v="Rørhopen" />
		<tag k="place" v="farm" />
		<tag k="ssr:stedsnr" v="381553" />
	</node>
	<node lat="68.35555000395573" lon="14.747366668133289" id="-19392">
		<tag k="fixme" v="multiple name tags, choose one and add the other to alt_name; consider place=hamlet" />
		<tag k="name" v="Eide;Higravseidet" />
		<tag k="place" v="village" />
		<tag k="ssr:stedsnr" v="381471" />
	</node>
	<node lat="68.30765000063421" lon="14.991219445912028" id="-19416">
		<tag k="name" v="Solstad" />
=======
	<node id="-194345" lat="68.331341663" lon="15.1925916604">
		<tag k="name" v="Myrvika" />
		<tag k="place" v="farm" />
		<tag k="ssr:stedsnr" v="320959" />
	</node>
	<node id="-194430" lat="68.2359333351" lon="14.8470000061">
		<tag k="fixme" v="consider place=hamlet" />
		<tag k="name" v="Brettesnes" />
		<tag k="place" v="village" />
		<tag k="ssr:stedsnr" v="380292" />
	</node>
	<node id="-192750" lat="68.3068361137" lon="15.0700361016">
		<tag k="fixme" v="multiple name tags, choose one and add the other to alt_name" />
		<tag k="name" v="Åsen;Øveråsen" />
>>>>>>> e1d4bc35ff8a6074a6f2e91616a996b547c36f15
		<tag k="place" v="farm" />
		<tag k="ssr:stedsnr" v="389057" />
	</node>
<<<<<<< HEAD
	<node lat="68.31846944700465" lon="14.749441668021637" id="-19436">
		<tag k="name" v="Knutgamman" />
		<tag k="place" v="locality" />
		<tag k="ssr:stedsnr" v="392455" />
	</node>
	<node lat="68.32768611273158" lon="14.332844448550988" id="-19465">
		<tag k="name" v="Brenna" />
		<tag k="place" v="hamlet" />
		<tag k="ssr:stedsnr" v="419856" />
	</node>
	<node lat="68.32027222587266" lon="15.18449443780072" id="-19479">
		<tag k="name" v="Hundsnesjordet" />
=======
	<node id="-192749" lat="68.299713886" lon="14.3198944541">
		<tag k="alt_name" v="Gravermark" />
		<tag k="name" v="Gravermarka" />
>>>>>>> e1d4bc35ff8a6074a6f2e91616a996b547c36f15
		<tag k="place" v="farm" />
		<tag k="ssr:stedsnr" v="441030" />
	</node>
<<<<<<< HEAD
	<node lat="68.32565514567449" lon="14.398788993027429" id="-19491">
		<tag k="alt_name" v="Sundlandsfjord" />
		<tag k="fixme" v="consider place=hamlet" />
		<tag k="name" v="Sunnlandsfjorden" />
=======
	<node id="-194794" lat="68.2856222179" lon="14.1572583415">
		<tag k="name" v="Elvebakken" />
>>>>>>> e1d4bc35ff8a6074a6f2e91616a996b547c36f15
		<tag k="place" v="farm" />
		<tag k="ssr:stedsnr" v="441084" />
	</node>
<<<<<<< HEAD
	<node lat="68.28252777874665" lon="14.837169433478524" id="-19500">
		<tag k="alt_name" v="Yttergården" />
		<tag k="name" v="Ytregården" />
=======
	<node id="-192230" lat="68.3403555548" lon="14.713424994">
		<tag k="name" v="Dalhaug" />
>>>>>>> e1d4bc35ff8a6074a6f2e91616a996b547c36f15
		<tag k="place" v="farm" />
		<tag k="ssr:stedsnr" v="441614" />
	</node>
<<<<<<< HEAD
	<node lat="68.28447222326668" lon="14.676586105934444" id="-19501">
		<tag k="name" v="Gammelgården" />
=======
	<node id="-192228" lat="68.2469527773" lon="14.5720611225">
		<tag k="name" v="Melkardalen" />
>>>>>>> e1d4bc35ff8a6074a6f2e91616a996b547c36f15
		<tag k="place" v="farm" />
		<tag k="ssr:stedsnr" v="441620" />
	</node>
<<<<<<< HEAD
	<node lat="68.32887774580416" lon="15.187231205473964" id="-19506">
		<tag k="fixme" v="consider place=hamlet" />
		<tag k="name" v="Storfjell" />
		<tag k="place" v="farm" />
		<tag k="ssr:stedsnr" v="441958" />
	</node>
	<node lat="68.30026110901824" lon="14.880763892999406" id="-19533">
		<tag k="alt_name" v="Silbogen" />
		<tag k="name" v="Sildbugen" />
		<tag k="place" v="farm" />
		<tag k="ssr:stedsnr" v="442527" />
	</node>
	<node lat="68.23806111385653" lon="14.555933345374854" id="-19538">
		<tag k="name" v="Solheim" />
=======
	<node id="-192733" lat="68.2300472213" lon="14.5388555547">
		<tag k="name" v="Tankanlegg" />
		<tag k="place" v="quarter" />
		<tag k="ssr:stedsnr" v="359856" />
	</node>
	<node id="-192218" lat="68.2321361076" lon="14.5326833389">
		<tag k="fixme" v="consider place=suburb, village or hamlet" />
		<tag k="name" v="Osan" />
>>>>>>> e1d4bc35ff8a6074a6f2e91616a996b547c36f15
		<tag k="place" v="quarter" />
		<tag k="ssr:stedsnr" v="446866" />
	</node>
<<<<<<< HEAD
	<node lat="68.26473055526066" lon="14.244272221538068" id="-19539">
		<tag k="name" v="Plassan" />
		<tag k="place" v="locality" />
		<tag k="ssr:stedsnr" v="446154" />
	</node>
	<node lat="68.3235166702135" lon="14.528961115486224" id="-19560">
		<tag k="name" v="Indreidet" />
=======
	<node id="-195289" lat="68.3792500019" lon="14.4533250062">
		<tag k="name" v="Sandvoll" />
		<tag k="place" v="farm" />
		<tag k="ssr:stedsnr" v="866433" />
	</node>
	<node id="-194261" lat="68.3215305558" lon="14.2110722177">
		<tag k="name" v="Kleivan" />
>>>>>>> e1d4bc35ff8a6074a6f2e91616a996b547c36f15
		<tag k="place" v="farm" />
		<tag k="ssr:stedsnr" v="502418" />
	</node>
<<<<<<< HEAD
	<node lat="68.30683611367625" lon="15.07003610156282" id="-19566">
		<tag k="fixme" v="multiple name tags, choose one and add the other to alt_name" />
		<tag k="name" v="Åsen;Øveråsen" />
		<tag k="place" v="farm" />
		<tag k="ssr:stedsnr" v="502049" />
	</node>
	<node lat="68.29712414732195" lon="15.059828797898192" id="-19569">
		<tag k="alt_name" v="Pundslett" />
		<tag k="fixme" v="consider place=hamlet" />
		<tag k="name" v="Pundsletta" />
		<tag k="place" v="farm" />
		<tag k="ssr:stedsnr" v="502066" />
	</node>
	<node lat="68.25577734034093" lon="14.270709994341665" id="-19571">
		<tag k="fixme" v="consider place=hamlet" />
		<tag k="name" v="Kleppstad" />
		<tag k="old_name" v="Klepstad" />
=======
	<node id="-195276" lat="68.2363944475" lon="14.8143944412">
		<tag k="name" v="Valvollen" />
>>>>>>> e1d4bc35ff8a6074a6f2e91616a996b547c36f15
		<tag k="place" v="farm" />
		<tag k="ssr:stedsnr" v="502139" />
	</node>
<<<<<<< HEAD
	<node lat="68.30056906824933" lon="14.944350808463444" id="-19600">
		<tag k="alt_name" v="Molgavlen;Mollgavelen" />
		<tag k="fixme" v="consider place=hamlet" />
		<tag k="name" v="Mollgavlen" />
=======
	<node id="-194250" lat="68.3347722264" lon="14.7567472149">
		<tag k="name" v="Småmyr" />
>>>>>>> e1d4bc35ff8a6074a6f2e91616a996b547c36f15
		<tag k="place" v="farm" />
		<tag k="ssr:stedsnr" v="502514" />
	</node>
<<<<<<< HEAD
	<node lat="68.24195000259475" lon="14.524708323200775" id="-19619">
		<tag k="name" v="Åslia" />
=======
	<node id="-193737" lat="68.3368055559" lon="15.2117416567">
		<tag k="name" v="Skogholt" />
>>>>>>> e1d4bc35ff8a6074a6f2e91616a996b547c36f15
		<tag k="place" v="isolated_dwelling" />
		<tag k="ssr:stedsnr" v="507860" />
	</node>
<<<<<<< HEAD
	<node lat="68.22902222449407" lon="14.217233323493526" id="-19648">
		<tag k="name" v="Valhall" />
		<tag k="place" v="farm" />
		<tag k="ssr:stedsnr" v="529055" />
	</node>
	<node lat="68.32365277769013" lon="14.697452780038821" id="-19660">
		<tag k="name" v="Kvalvik" />
		<tag k="place" v="farm" />
		<tag k="ssr:stedsnr" v="541834" />
	</node>
	<node lat="68.19051406214261" lon="14.335816425088789" id="-19668">
		<tag k="fixme" v="consider place=hamlet" />
		<tag k="name" v="Kalle" />
		<tag k="place" v="farm" />
		<tag k="ssr:stedsnr" v="563381" />
	</node>
	<node lat="68.3095138886228" lon="14.994044435878902" id="-19726">
		<tag k="name" v="Myrvoll" />
		<tag k="place" v="farm" />
		<tag k="ssr:stedsnr" v="562493" />
	</node>
	<node lat="68.29825277056449" lon="14.851916652165386" id="-19728">
		<tag k="fixme" v="consider place=hamlet" />
		<tag k="name" v="Rekneset" />
		<tag k="place" v="farm" />
		<tag k="ssr:stedsnr" v="562512" />
	</node>
	<node lat="68.29342554149763" lon="14.869199554653676" id="-19734">
		<tag k="alt_name" v="Øyhelle" />
		<tag k="fixme" v="consider place=hamlet" />
		<tag k="name" v="Øyhell" />
=======
	<node id="-194347" lat="68.3449194466" lon="15.2350305482">
		<tag k="name" v="Sommarset" />
		<tag k="place" v="farm" />
		<tag k="ssr:stedsnr" v="320975" />
	</node>
	<node id="-193682" lat="68.3316472217" lon="14.1682250026">
		<tag k="name" v="Saupstad" />
		<tag k="place" v="farm" />
		<tag k="ssr:stedsnr" v="17079" />
	</node>
	<node id="-192185" lat="68.2797277764" lon="14.1473277763">
		<tag k="alt_name" v="Storbukta" />
		<tag k="name" v="Storvika" />
>>>>>>> e1d4bc35ff8a6074a6f2e91616a996b547c36f15
		<tag k="place" v="farm" />
		<tag k="ssr:stedsnr" v="562597" />
	</node>
<<<<<<< HEAD
	<node lat="68.26927548690233" lon="14.170345895272941" id="-19758">
		<tag k="fixme" v="consider place=hamlet" />
		<tag k="name" v="Sundklakk" />
=======
	<node id="-193908" lat="68.2691083342" lon="15.0133333395">
		<tag k="name" v="Nergården" />
		<tag k="place" v="farm" />
		<tag k="ssr:stedsnr" v="86190" />
	</node>
	<node id="-193718" lat="68.2430583358" lon="14.3149555659">
		<tag k="name" v="Litlhaugen" />
>>>>>>> e1d4bc35ff8a6074a6f2e91616a996b547c36f15
		<tag k="place" v="farm" />
		<tag k="ssr:stedsnr" v="563229" />
	</node>
<<<<<<< HEAD
	<node lat="68.26866111189322" lon="15.016855546451136" id="-19791">
		<tag k="name" v="Damman" />
=======
	<node id="-193202" lat="68.3011083298" lon="14.8876166756">
		<tag k="name" v="Nordli" />
>>>>>>> e1d4bc35ff8a6074a6f2e91616a996b547c36f15
		<tag k="place" v="farm" />
		<tag k="ssr:stedsnr" v="571173" />
	</node>
<<<<<<< HEAD
	<node lat="68.28562221792626" lon="14.157258341510476" id="-19828">
		<tag k="name" v="Elvebakken" />
		<tag k="place" v="farm" />
		<tag k="ssr:stedsnr" v="604478" />
	</node>
	<node lat="68.19886446427965" lon="14.777281941929242" id="-19840">
		<tag k="name" v="Haverdal" />
		<tag k="place" v="locality" />
		<tag k="ssr:stedsnr" v="623155" />
	</node>
	<node lat="68.29508888629807" lon="14.320905553808224" id="-19845">
		<tag k="name" v="Sletta" />
=======
	<node id="-192689" lat="68.2428444403" lon="14.5827888832">
		<tag k="alt_name" v="Øverværet" />
		<tag k="name" v="Øvreværet" />
		<tag k="place" v="quarter" />
		<tag k="ssr:stedsnr" v="320355" />
	</node>
	<node id="-192688" lat="68.2471944454" lon="14.5451916787">
		<tag k="name" v="Knutmarka" />
>>>>>>> e1d4bc35ff8a6074a6f2e91616a996b547c36f15
		<tag k="place" v="farm" />
		<tag k="ssr:stedsnr" v="623055" />
	</node>
<<<<<<< HEAD
	<node lat="68.16804576922573" lon="14.701123098615556" id="-19849">
=======
	<node id="-192175" lat="68.2427863872" lon="14.6642156953">
>>>>>>> e1d4bc35ff8a6074a6f2e91616a996b547c36f15
		<tag k="fixme" v="consider place=hamlet" />
		<tag k="name" v="Hattvika" />
		<tag k="place" v="farm" />
		<tag k="ssr:stedsnr" v="623185" />
	</node>
<<<<<<< HEAD
	<node lat="68.32460556001188" lon="15.138699999328718" id="-19864">
		<tag k="name" v="Lauvvika" />
		<tag k="place" v="farm" />
		<tag k="ssr:stedsnr" v="623944" />
	</node>
	<node lat="68.25072500326658" lon="14.664199990625356" id="-19872">
		<tag k="alt_name" v="Husvåg" />
		<tag k="name" v="Husvågen" />
		<tag k="place" v="farm" />
		<tag k="ssr:stedsnr" v="623683" />
	</node>
	<node lat="68.25609167037017" lon="14.670700009417734" id="-19873">
		<tag k="name" v="Teisthaugan" />
=======
	<node id="-193194" lat="68.3546749979" lon="14.4478861182">
		<tag k="name" v="Rundhaugen" />
>>>>>>> e1d4bc35ff8a6074a6f2e91616a996b547c36f15
		<tag k="place" v="isolated_dwelling" />
		<tag k="ssr:stedsnr" v="623684" />
	</node>
<<<<<<< HEAD
	<node lat="68.27854722380265" lon="14.619336117104107" id="-19887">
		<tag k="name" v="Hellsætra" />
		<tag k="place" v="isolated_dwelling" />
		<tag k="ssr:stedsnr" v="623638" />
	</node>
	<node lat="68.3390416648991" lon="14.083297215802624" id="-19895">
		<tag k="name" v="Hovsund" />
		<tag k="place" v="farm" />
		<tag k="ssr:stedsnr" v="623901" />
	</node>
	<node lat="68.16733055867228" lon="14.68414443950729" id="-19926">
		<tag k="name" v="Alfheim" />
		<tag k="place" v="farm" />
		<tag k="ssr:stedsnr" v="634941" />
	</node>
	<node lat="68.28204722372757" lon="14.935369454119616" id="-19929">
		<tag k="name" v="Hestvika" />
=======
	<node id="-192505" lat="68.2825277787" lon="14.8371694335">
		<tag k="alt_name" v="Yttergården" />
		<tag k="name" v="Ytregården" />
		<tag k="place" v="farm" />
		<tag k="ssr:stedsnr" v="441614" />
	</node>
	<node id="-194213" lat="68.3025777748" lon="15.0755138863">
		<tag k="name" v="Fjellberg" />
		<tag k="place" v="farm" />
		<tag k="ssr:stedsnr" v="208635" />
	</node>
	<node id="-194928" lat="68.2820472237" lon="14.9353694541">
		<tag k="name" v="Hestvika" />
		<tag k="place" v="isolated_dwelling" />
		<tag k="ssr:stedsnr" v="642935" />
	</node>
	<node id="-192157" lat="68.2387888908" lon="14.5360555671">
		<tag k="name" v="Leirosen" />
>>>>>>> e1d4bc35ff8a6074a6f2e91616a996b547c36f15
		<tag k="place" v="isolated_dwelling" />
		<tag k="ssr:stedsnr" v="642935" />
	</node>
<<<<<<< HEAD
	<node lat="68.29421389295132" lon="14.868558339127345" id="-19955">
		<tag k="name" v="Myrvang" />
		<tag k="place" v="farm" />
		<tag k="ssr:stedsnr" v="666255" />
	</node>
	<node lat="68.25150555799978" lon="14.314461104229736" id="-19962">
		<tag k="name" v="Urda" />
=======
	<node id="-192156" lat="68.2365638885" lon="14.5527583314">
		<tag k="amenity" v="sports_centre" />
		<tag k="name" v="Badeklubben" />
		<tag k="ssr:stedsnr" v="238853" />
	</node>
	<node id="-193050" lat="68.3424472245" lon="14.3474388948">
		<tag k="name" v="Rubertheimen" />
		<tag k="place" v="locality" />
		<tag k="ssr:stedsnr" v="684882" />
	</node>
	<node id="-193690" lat="68.324186112" lon="14.5108555606">
		<tag k="name" v="Ytreidet" />
>>>>>>> e1d4bc35ff8a6074a6f2e91616a996b547c36f15
		<tag k="place" v="farm" />
		<tag k="ssr:stedsnr" v="714957" />
	</node>
<<<<<<< HEAD
	<node lat="68.30110832979678" lon="14.88761667557933" id="-19981">
		<tag k="name" v="Nordli" />
=======
	<node id="-193687" lat="68.2487666636" lon="14.5666583376">
		<tag k="name" v="Knutvika" />
>>>>>>> e1d4bc35ff8a6074a6f2e91616a996b547c36f15
		<tag k="place" v="farm" />
		<tag k="ssr:stedsnr" v="727248" />
	</node>
<<<<<<< HEAD
	<node lat="68.30933198439884" lon="15.06847854631344" id="-19993">
		<tag k="fixme" v="consider place=hamlet" />
		<tag k="name" v="Vatnvågen" />
		<tag k="place" v="farm" />
		<tag k="ssr:stedsnr" v="745065" />
	</node>
	<node lat="68.24190555237008" lon="14.521050006178728" id="-20013">
		<tag k="fixme" v="consider place=hamlet" />
		<tag k="name" v="Kongsmarka" />
		<tag k="place" v="farm" />
		<tag k="ssr:stedsnr" v="745386" />
	</node>
	<node lat="68.24569999770152" lon="14.32670000285247" id="-20016">
		<tag k="name" v="Jorden" />
=======
	<node id="-194706" lat="68.1905140621" lon="14.3358164251">
		<tag k="fixme" v="consider place=hamlet" />
		<tag k="name" v="Kalle" />
		<tag k="place" v="farm" />
		<tag k="ssr:stedsnr" v="563381" />
	</node>
	<node id="-192145" lat="68.2507777804" lon="14.2986166599">
		<tag k="name" v="Moen" />
>>>>>>> e1d4bc35ff8a6074a6f2e91616a996b547c36f15
		<tag k="place" v="farm" />
		<tag k="ssr:stedsnr" v="745502" />
	</node>
<<<<<<< HEAD
	<node lat="68.28559444558523" lon="14.686405543803804" id="-20017">
		<tag k="alt_name" v="Vatterfjord" />
		<tag k="name" v="Vatterfjorden" />
		<tag k="place" v="farm" />
		<tag k="ssr:stedsnr" v="745597" />
	</node>
	<node lat="68.28340555599961" lon="14.6680305522399" id="-20071">
		<tag k="name" v="Sjøvold" />
		<tag k="place" v="isolated_dwelling" />
		<tag k="ssr:stedsnr" v="768837" />
	</node>
	<node lat="68.32713333218952" lon="14.100316670037843" id="-20099">
		<tag k="name" v="Kjerringmyra" />
=======
	<node id="-194204" lat="68.2390222188" lon="14.491627776">
		<tag k="name" v="Skogstua" />
		<tag k="place" v="isolated_dwelling" />
		<tag k="ssr:stedsnr" v="204833" />
	</node>
	<node id="-194703" lat="68.2692754869" lon="14.1703458953">
		<tag k="fixme" v="consider place=hamlet" />
		<tag k="name" v="Sundklakk" />
>>>>>>> e1d4bc35ff8a6074a6f2e91616a996b547c36f15
		<tag k="place" v="farm" />
		<tag k="ssr:stedsnr" v="805093" />
	</node>
<<<<<<< HEAD
	<node lat="68.27736344802724" lon="14.314129688034068" id="-20134">
		<tag k="fixme" v="consider place=hamlet" />
		<tag k="name" v="Rystad" />
		<tag k="place" v="farm" />
		<tag k="ssr:stedsnr" v="806224" />
	</node>
	<node lat="68.33714166605907" lon="14.745361121374444" id="-20153">
		<tag k="fixme" v="consider place=hamlet" />
		<tag k="name" v="Liland" />
		<tag k="place" v="village" />
		<tag k="ssr:stedsnr" v="806412" />
	</node>
	<node lat="68.19660277330631" lon="14.346800002888672" id="-20156">
=======
	<node id="-194925" lat="68.1673305587" lon="14.6841444395">
		<tag k="name" v="Alfheim" />
		<tag k="place" v="farm" />
		<tag k="ssr:stedsnr" v="634941" />
	</node>
	<node id="-192139" lat="68.3641361082" lon="14.4696694448">
		<tag k="name" v="Olinagammtomta" />
		<tag k="place" v="locality" />
		<tag k="ssr:stedsnr" v="28030" />
	</node>
	<node id="-194182" lat="68.2712589566" lon="15.0155702068">
		<tag k="alt_name" v="Årsteinen" />
		<tag k="fixme" v="consider place=hamlet" />
		<tag k="name" v="Årstein" />
		<tag k="place" v="farm" />
		<tag k="ssr:stedsnr" v="199596" />
	</node>
	<node id="-194178" lat="68.2799055587" lon="14.9320888892">
>>>>>>> e1d4bc35ff8a6074a6f2e91616a996b547c36f15
		<tag k="fixme" v="consider place=hamlet" />
		<tag k="name" v="Hopen" />
		<tag k="place" v="village" />
		<tag k="ssr:stedsnr" v="806385" />
	</node>
<<<<<<< HEAD
	<node lat="68.24955000267641" lon="14.293044451879904" id="-20165">
		<tag k="name" v="Stranda" />
=======
	<node id="-192637" lat="68.2189055515" lon="14.4954249933">
		<tag k="name" v="Åvika" />
>>>>>>> e1d4bc35ff8a6074a6f2e91616a996b547c36f15
		<tag k="place" v="farm" />
		<tag k="ssr:stedsnr" v="806507" />
	</node>
<<<<<<< HEAD
	<node lat="68.20608889311039" lon="14.426622221863028" id="-20187">
=======
	<node id="-194684" lat="68.2934255415" lon="14.8691995547">
		<tag k="alt_name" v="Øyhelle" />
>>>>>>> e1d4bc35ff8a6074a6f2e91616a996b547c36f15
		<tag k="fixme" v="consider place=hamlet" />
		<tag k="name" v="Ørsvågvær" />
		<tag k="place" v="village" />
		<tag k="ssr:stedsnr" v="810846" />
	</node>
<<<<<<< HEAD
	<node lat="68.24218333783534" lon="14.557469442300588" id="-20192">
		<tag k="leisure" v="park" />
		<tag k="name" v="Straumparken" />
		<tag k="ssr:stedsnr" v="810873" />
	</node>
	<node lat="68.28975555780737" lon="14.26851944588653" id="-20249">
		<tag k="name" v="Ytterjorda" />
=======
	<node id="-192630" lat="68.3232716074" lon="14.1101794253">
		<tag k="fixme" v="consider place=hamlet" />
		<tag k="name" v="Vik" />
>>>>>>> e1d4bc35ff8a6074a6f2e91616a996b547c36f15
		<tag k="place" v="farm" />
		<tag k="ssr:stedsnr" v="848335" />
	</node>
<<<<<<< HEAD
	<node lat="68.2363944474764" lon="14.814394441199996" id="-20297">
		<tag k="name" v="Valvollen" />
=======
	<node id="-194677" lat="68.3095138886" lon="14.9940444359">
		<tag k="name" v="Myrvoll" />
>>>>>>> e1d4bc35ff8a6074a6f2e91616a996b547c36f15
		<tag k="place" v="farm" />
		<tag k="ssr:stedsnr" v="866270" />
	</node>
<<<<<<< HEAD
	<node lat="68.37925000190111" lon="14.453325006216744" id="-20306">
		<tag k="name" v="Sandvoll" />
=======
	<node id="-194164" lat="68.1700188363" lon="14.2129407906">
		<tag k="fixme" v="consider place=hamlet" />
		<tag k="name" v="Festvåg" />
>>>>>>> e1d4bc35ff8a6074a6f2e91616a996b547c36f15
		<tag k="place" v="farm" />
		<tag k="ssr:stedsnr" v="866433" />
	</node>
<<<<<<< HEAD
	<node lat="68.28723055531404" lon="14.338674999363477" id="-20350">
=======
	<node id="-192114" lat="68.3288352152" lon="14.6970702072">
>>>>>>> e1d4bc35ff8a6074a6f2e91616a996b547c36f15
		<tag k="fixme" v="consider place=hamlet" />
		<tag k="name" v="Sydalen" />
		<tag k="place" v="village" />
		<tag k="ssr:stedsnr" v="867236" />
	</node>
<<<<<<< HEAD
	<node lat="68.21742424085896" lon="14.801239578298139" id="-20351">
		<tag k="fixme" v="consider place=hamlet" />
		<tag k="name" v="Vikan" />
		<tag k="place" v="farm" />
		<tag k="ssr:stedsnr" v="867241" />
	</node>
	<node lat="68.32676388638023" lon="14.65089723230658" id="-20359">
		<tag k="alt_name" v="Kvitfossen" />
		<tag k="building" v="industrial" />
		<tag k="industrial" v="factory" />
		<tag k="name" v="Kvitforsen" />
		<tag k="ssr:stedsnr" v="867425" />
	</node>
	<node lat="68.33244999594764" lon="14.761855548946714" id="-20363">
		<tag k="name" v="Grøttingsvollen" />
		<tag k="place" v="farm" />
		<tag k="ssr:stedsnr" v="867444" />
	</node>
	<node lat="68.31866666611675" lon="14.554366669891465" id="-20369">
		<tag k="name" v="Nilsjorda" />
		<tag k="place" v="isolated_dwelling" />
		<tag k="ssr:stedsnr" v="867545" />
	</node>
	<node lat="68.31597222392098" lon="14.59460554430577" id="-20370">
		<tag k="name" v="Vestpolleidet" />
		<tag k="place" v="farm" />
		<tag k="ssr:stedsnr" v="867547" />
	</node>
	<node lat="68.34731111232779" lon="15.23746110208971" id="-20384">
		<tag k="name" v="Tortenbakkan" />
		<tag k="place" v="farm" />
		<tag k="ssr:stedsnr" v="867970" />
	</node>
	<node lat="68.30799999860423" lon="14.997841659988604" id="-20396">
		<tag k="name" v="Haugtun" />
=======
	<node id="-195237" lat="68.2897555578" lon="14.2685194459">
		<tag k="name" v="Ytterjorda" />
		<tag k="place" v="farm" />
		<tag k="ssr:stedsnr" v="848335" />
	</node>
	<node id="-192445" lat="68.352585241" lon="14.4579331683">
		<tag k="alt_name" v="Vatnfjord" />
		<tag k="fixme" v="consider place=hamlet" />
		<tag k="name" v="Vatnfjorden" />
		<tag k="place" v="farm" />
		<tag k="ssr:stedsnr" v="199406" />
	</node>
	<node id="-192108" lat="68.186797224" lon="14.3402194453">
		<tag k="alt_name" v="Kalle" />
		<tag k="name" v="Vestre Kalle" />
		<tag k="place" v="farm" />
		<tag k="ssr:stedsnr" v="17408" />
	</node>
	<node id="-192871" lat="68.3033555511" lon="15.0895083392">
		<tag k="name" v="Fagerhaug" />
		<tag k="place" v="farm" />
		<tag k="ssr:stedsnr" v="511605" />
	</node>
	<node id="-193640" lat="68.2092305594" lon="14.4171666718">
		<tag k="name" v="Øra" />
		<tag k="place" v="farm" />
		<tag k="ssr:stedsnr" v="932803" />
	</node>
	<node id="-192273" lat="68.1719566335" lon="14.2446917475">
		<tag k="fixme" v="consider place=hamlet" />
		<tag k="name" v="Gullvika" />
		<tag k="place" v="farm" />
		<tag k="ssr:stedsnr" v="260454" />
	</node>
	<node id="-193123" lat="68.3016305549" lon="15.09350555">
		<tag k="name" v="Steinsvik" />
>>>>>>> e1d4bc35ff8a6074a6f2e91616a996b547c36f15
		<tag k="place" v="farm" />
		<tag k="ssr:stedsnr" v="874092" />
	</node>
<<<<<<< HEAD
	<node lat="68.31295278008042" lon="14.98234443875852" id="-20397">
		<tag k="name" v="Skogly" />
		<tag k="place" v="farm" />
		<tag k="ssr:stedsnr" v="874094" />
	</node>
	<node lat="68.3060444429046" lon="15.068691672068114" id="-20424">
		<tag k="name" v="Mellanåsen" />
=======
	<node id="-194378" lat="68.2330722228" lon="14.819833343">
		<tag k="name" v="Våtvika" />
		<tag k="place" v="isolated_dwelling" />
		<tag k="ssr:stedsnr" v="339944" />
	</node>
	<node id="-195168" lat="68.2421833378" lon="14.5574694423">
		<tag k="leisure" v="park" />
		<tag k="name" v="Straumparken" />
		<tag k="ssr:stedsnr" v="810873" />
	</node>
	<node id="-192101" lat="68.3931861142" lon="14.4662722133">
		<tag k="fixme" v="consider place=hamlet" />
		<tag k="name" v="Straumnes" />
		<tag k="place" v="village" />
		<tag k="ssr:stedsnr" v="17330" />
	</node>
	<node id="-193116" lat="68.2982527706" lon="14.8519166522">
		<tag k="fixme" v="consider place=hamlet" />
		<tag k="name" v="Rekneset" />
>>>>>>> e1d4bc35ff8a6074a6f2e91616a996b547c36f15
		<tag k="place" v="farm" />
		<tag k="ssr:stedsnr" v="936644" />
	</node>
<<<<<<< HEAD
	<node lat="68.30472778223826" lon="15.071313890603902" id="-20443">
		<tag k="name" v="Bakken" />
		<tag k="place" v="farm" />
		<tag k="ssr:stedsnr" v="946224" />
	</node>
	<node lat="68.18882407926378" lon="14.72300520549232" id="-20479">
		<tag k="name" v="Sandøya" />
		<tag k="place" v="locality" />
		<tag k="ssr:stedsnr" v="1076133" />
	</node>
	<node lat="68.16494005608115" lon="14.649666863652923" id="-20480">
		<tag k="name" v="Skrova" />
		<tag k="place" v="locality" />
		<tag k="ssr:stedsnr" v="1076134" />
	</node>
	<node lat="68.27955446875076" lon="14.252372370944517" id="-20481">
=======
	<node id="-195163" lat="68.2060888931" lon="14.4266222219">
		<tag k="fixme" v="consider place=hamlet" />
		<tag k="name" v="Ørsvågvær" />
		<tag k="place" v="village" />
		<tag k="ssr:stedsnr" v="810846" />
	</node>
	<node id="-192087" lat="68.2632027805" lon="14.5038361044">
		<tag k="fixme" v="consider tourism=alpine_hut or tourism=chalet" />
		<tag k="name" v="Nøkksætra" />
		<tag k="ssr:stedsnr" v="223854" />
		<tag k="tourism" v="wilderness_hut" />
	</node>
	<node id="-194133" lat="68.2518530852" lon="14.3095138942">
		<tag k="alt_name" v="Olderfjord" />
>>>>>>> e1d4bc35ff8a6074a6f2e91616a996b547c36f15
		<tag k="fixme" v="consider place=hamlet" />
		<tag k="name" v="Barstrand" />
		<tag k="place" v="farm" />
		<tag k="ssr:stedsnr" v="1076135" />
	</node>
<<<<<<< HEAD
	<node lat="68.24361652656563" lon="14.284909942206871" id="-20482">
		<tag k="fixme" v="consider place=hamlet" />
		<tag k="name" v="Haugen" />
		<tag k="place" v="farm" />
		<tag k="ssr:stedsnr" v="1076136" />
	</node>
	<node lat="68.28689774648988" lon="14.331261002130468" id="-20483">
		<tag k="fixme" v="consider place=hamlet" />
		<tag k="name" v="Sydalen" />
		<tag k="place" v="farm" />
		<tag k="ssr:stedsnr" v="1076143" />
	</node>
	<node lat="68.3934899919237" lon="14.461356815947529" id="-20484">
=======
	<node id="-192451" lat="68.3015519346" lon="15.0176885328">
		<tag k="fixme" v="consider place=hamlet" />
		<tag k="name" v="Valen" />
		<tag k="place" v="farm" />
		<tag k="ssr:stedsnr" v="199622" />
	</node>
	<node id="-194403" lat="68.2958611086" lon="14.8742916603">
		<tag k="name" v="Nordheim" />
		<tag k="place" v="farm" />
		<tag k="ssr:stedsnr" v="362267" />
	</node>
	<node id="-193805" lat="68.3957902069" lon="14.4848801002">
		<tag k="fixme" v="consider place=hamlet" />
		<tag k="name" v="Gjersvoll" />
		<tag k="place" v="farm" />
		<tag k="ssr:stedsnr" v="77301" />
	</node>
	<node id="-192588" lat="68.3131694441" lon="14.987244453">
>>>>>>> e1d4bc35ff8a6074a6f2e91616a996b547c36f15
		<tag k="fixme" v="consider place=hamlet" />
		<tag k="name" v="Straumnes" />
		<tag k="place" v="farm" />
		<tag k="ssr:stedsnr" v="1076145" />
	</node>
<<<<<<< HEAD
	<node lat="68.1517322279795" lon="14.19604314783668" id="-20485">
		<tag k="name" v="Henningsvær" />
		<tag k="place" v="locality" />
		<tag k="ssr:stedsnr" v="1076094" />
	</node>
	<node lat="68.19744605883588" lon="14.351523277796874" id="-20486">
		<tag k="name" v="Hopen" />
		<tag k="place" v="locality" />
		<tag k="ssr:stedsnr" v="1076096" />
	</node>
	<node lat="68.19843232883723" lon="14.394384310353766" id="-20487">
		<tag k="fixme" v="consider place=hamlet" />
		<tag k="name" v="Ørsnes" />
=======
	<node id="-193890" lat="68.2684333332" lon="14.8152944485">
		<tag k="alt_name" v="Haversandsetra" />
		<tag k="historic" v="shieling" />
		<tag k="name" v="Haversandsætra" />
		<tag k="place" v="locality" />
		<tag k="ssr:stedsnr" v="78650" />
	</node>
	<node id="-192582" lat="68.2789805551" lon="14.2582583407">
		<tag k="name" v="Mellombarstrand" />
		<tag k="place" v="farm" />
		<tag k="ssr:stedsnr" v="241305" />
	</node>
	<node id="-193604" lat="68.3047277822" lon="15.0713138906">
		<tag k="name" v="Bakken" />
>>>>>>> e1d4bc35ff8a6074a6f2e91616a996b547c36f15
		<tag k="place" v="farm" />
		<tag k="ssr:stedsnr" v="1076097" />
	</node>
<<<<<<< HEAD
	<node lat="68.20568009898821" lon="14.38619127597153" id="-20488">
		<tag k="fixme" v="consider place=hamlet" />
		<tag k="name" v="Ørsvåg" />
=======
	<node id="-194627" lat="68.3236527777" lon="14.69745278">
		<tag k="name" v="Kvalvik" />
>>>>>>> e1d4bc35ff8a6074a6f2e91616a996b547c36f15
		<tag k="place" v="farm" />
		<tag k="ssr:stedsnr" v="1076098" />
	</node>
<<<<<<< HEAD
	<node lat="68.20937240211312" lon="14.46682140974613" id="-20489">
		<tag k="name" v="Smedvik" />
		<tag k="place" v="locality" />
		<tag k="ssr:stedsnr" v="1076105" />
	</node>
	<node lat="68.21063038360275" lon="14.468649801181972" id="-20490">
		<tag k="fixme" v="consider place=hamlet" />
		<tag k="loc_name:se" v="Gávvalváhki" />
		<tag k="loc_name:smj" v="Gábelváhke" />
		<tag k="name" v="Kabelvåg" />
		<tag k="name:no" v="Kabelvåg" />
=======
	<node id="-194114" lat="68.2524138931" lon="14.3171166726">
		<tag k="name" v="Ytregård" />
		<tag k="place" v="farm" />
		<tag k="ssr:stedsnr" v="168947" />
	</node>
	<node id="-194112" lat="68.3308277809" lon="14.5120222299">
		<tag k="name" v="Sandsletta" />
>>>>>>> e1d4bc35ff8a6074a6f2e91616a996b547c36f15
		<tag k="place" v="farm" />
		<tag k="ssr:stedsnr" v="1076107" />
	</node>
<<<<<<< HEAD
	<node lat="68.21185119044638" lon="14.485000596825413" id="-20491">
		<tag k="name" v="Finneset" />
=======
	<node id="-192571" lat="68.2647305553" lon="14.2442722215">
		<tag k="name" v="Plassan" />
>>>>>>> e1d4bc35ff8a6074a6f2e91616a996b547c36f15
		<tag k="place" v="locality" />
		<tag k="ssr:stedsnr" v="1076110" />
	</node>
<<<<<<< HEAD
	<node lat="68.21030017013955" lon="14.48858741271163" id="-20492">
		<tag k="name" v="Prestskeia" />
		<tag k="place" v="locality" />
		<tag k="ssr:stedsnr" v="1076111" />
	</node>
	<node lat="68.23809843615716" lon="14.564649422835336" id="-20494">
		<tag k="name" v="Svolvær" />
		<tag k="place" v="locality" />
		<tag k="ssr:stedsnr" v="1076113" />
	</node>
	<node lat="68.32833155286124" lon="14.686997708228084" id="-20495">
=======
	<node id="-195127" lat="68.1966027733" lon="14.3468000029">
>>>>>>> e1d4bc35ff8a6074a6f2e91616a996b547c36f15
		<tag k="fixme" v="consider place=hamlet" />
		<tag k="name" v="Vestpollen" />
		<tag k="place" v="farm" />
		<tag k="ssr:stedsnr" v="1076114" />
	</node>
<<<<<<< HEAD
	<node lat="68.36000937021187" lon="14.725009490560089" id="-20496">
		<tag k="fixme" v="consider place=hamlet" />
		<tag k="name" v="Laupstad" />
=======
	<node id="-194099" lat="68.2674666689" lon="15.0114472175">
		<tag k="name" v="Nedre Årstein" />
>>>>>>> e1d4bc35ff8a6074a6f2e91616a996b547c36f15
		<tag k="place" v="farm" />
		<tag k="ssr:stedsnr" v="1076116" />
	</node>
<<<<<<< HEAD
	<node lat="68.33712906164287" lon="14.748954118529932" id="-20497">
		<tag k="fixme" v="consider place=hamlet" />
		<tag k="name" v="Liland" />
=======
	<node id="-193518" lat="68.3371416661" lon="14.7453611214">
		<tag k="fixme" v="consider place=hamlet" />
		<tag k="name" v="Liland" />
		<tag k="place" v="village" />
		<tag k="ssr:stedsnr" v="806412" />
	</node>
	<node id="-192559" lat="68.2895111073" lon="14.8540777871">
		<tag k="fixme" v="multiple name tags, choose one and add the other to alt_name" />
		<tag k="name" v="Nordgården;Nordmarka" />
>>>>>>> e1d4bc35ff8a6074a6f2e91616a996b547c36f15
		<tag k="place" v="farm" />
		<tag k="ssr:stedsnr" v="1076117" />
	</node>
<<<<<<< HEAD
	<node lat="68.27792518577284" lon="14.726697146791297" id="-20498">
		<tag k="fixme" v="consider place=hamlet" />
		<tag k="name" v="Følstad" />
=======
	<node id="-194291" lat="68.3880833376" lon="14.4176916645">
		<tag k="alt_name" v="Laukvik" />
		<tag k="name" v="Laukvika" />
		<tag k="place" v="village" />
		<tag k="ssr:stedsnr" v="320290" />
	</node>
	<node id="-192555" lat="68.1947444455" lon="14.3355527729">
		<tag k="name" v="Austre Kalle" />
>>>>>>> e1d4bc35ff8a6074a6f2e91616a996b547c36f15
		<tag k="place" v="farm" />
		<tag k="ssr:stedsnr" v="1076118" />
	</node>
<<<<<<< HEAD
	<node lat="68.31144570694245" lon="14.984122905492196" id="-20499">
		<tag k="fixme" v="consider place=hamlet" />
		<tag k="name" v="Digermulen" />
=======
	<node id="-192552" lat="68.300261109" lon="14.880763893">
		<tag k="alt_name" v="Silbogen" />
		<tag k="name" v="Sildbugen" />
>>>>>>> e1d4bc35ff8a6074a6f2e91616a996b547c36f15
		<tag k="place" v="farm" />
		<tag k="ssr:stedsnr" v="1076121" />
	</node>
<<<<<<< HEAD
	<node lat="68.2810412272383" lon="14.928874679493832" id="-20500">
=======
	<node id="-192778" lat="68.3005690682" lon="14.9443508085">
		<tag k="alt_name" v="Molgavlen;Mollgavelen" />
>>>>>>> e1d4bc35ff8a6074a6f2e91616a996b547c36f15
		<tag k="fixme" v="consider place=hamlet" />
		<tag k="name" v="Mollgavlen" />
		<tag k="place" v="farm" />
		<tag k="ssr:stedsnr" v="502514" />
	</node>
<<<<<<< HEAD
	<node lat="68.23316254455585" lon="14.84271865088217" id="-20501">
		<tag k="fixme" v="consider place=hamlet" />
		<tag k="name" v="Brettesnes" />
=======
	<node id="-193574" lat="68.3060444429" lon="15.0686916721">
		<tag k="name" v="Mellanåsen" />
>>>>>>> e1d4bc35ff8a6074a6f2e91616a996b547c36f15
		<tag k="place" v="farm" />
		<tag k="ssr:stedsnr" v="1076125" />
	</node>
	<node lat="68.20809596863565" lon="14.788453600086962" id="-20502">
		<tag k="name" v="Bjørndalen" />
		<tag k="place" v="locality" />
		<tag k="ssr:stedsnr" v="1076128" />
	</node>
	<node lat="68.18550485841543" lon="14.743718877656542" id="-20503">
		<tag k="fixme" v="consider place=hamlet" />
		<tag k="name" v="Gulbrandsøya" />
		<tag k="place" v="farm" />
		<tag k="ssr:stedsnr" v="1076132" />
	</node>
	<node id="-193711" lat="68.2197833355" lon="14.7667249938">
		<tag k="name" v="Helland" />
		<tag k="place" v="locality" />
		<tag k="ssr:stedsnr" v="17256" />
	</node>
	<node id="-193883" lat="68.3206083367" lon="15.000169439">
		<tag k="name" v="Osen" />
		<tag k="place" v="farm" />
		<tag k="ssr:stedsnr" v="78546" />
	</node>
	<node id="-194587" lat="68.2924972182" lon="14.863894444">
		<tag k="name" v="Rydningen" />
		<tag k="place" v="farm" />
		<tag k="ssr:stedsnr" v="423253" />
	</node>
	<node id="-195098" lat="68.3271333322" lon="14.10031667">
		<tag k="name" v="Kjerringmyra" />
		<tag k="place" v="farm" />
		<tag k="ssr:stedsnr" v="805093" />
	</node>
	<node id="-193049" lat="68.3401999417" lon="14.3334910863">
		<tag k="fixme" v="consider place=hamlet" />
		<tag k="name" v="Litlfestvåg" />
		<tag k="place" v="farm" />
		<tag k="ssr:stedsnr" v="684879" />
	</node>
	<node id="-194583" lat="68.3276861127" lon="14.3328444486">
		<tag k="name" v="Brenna" />
		<tag k="place" v="hamlet" />
		<tag k="ssr:stedsnr" v="419856" />
	</node>
	<node id="-193038" lat="68.2525916693" lon="14.5057194492">
		<tag k="name" v="Nøkkstua" />
		<tag k="place" v="isolated_dwelling" />
		<tag k="ssr:stedsnr" v="684647" />
	</node>
	<node id="-193036" lat="68.2803555556" lon="14.7268166707">
		<tag k="name" v="Følstadvika" />
		<tag k="place" v="farm" />
		<tag k="ssr:stedsnr" v="684596" />
	</node>
	<node id="-194306" lat="68.199891669" lon="14.3883083228">
		<tag k="fixme" v="consider place=hamlet" />
		<tag k="name" v="Ørsnes" />
		<tag k="place" v="village" />
		<tag k="ssr:stedsnr" v="320479" />
	</node>
	<node id="-193027" lat="68.3049305584" lon="14.9984499962">
		<tag k="alt_name" v="Breidvoll" />
		<tag k="name" v="Breivoll" />
		<tag k="place" v="farm" />
		<tag k="ssr:stedsnr" v="684501" />
	</node>
	<node id="-193963" lat="68.3212911903" lon="14.2310439017">
		<tag k="fixme" v="multiple name tags, choose one and add the other to alt_name; consider place=hamlet" />
		<tag k="name" v="Gimsøysand;Sand" />
		<tag k="place" v="farm" />
		<tag k="ssr:stedsnr" v="119291" />
	</node>
</osm>
