<?xml version="1.0" encoding="UTF-8"?>
<osm version="0.6" generator="osmapis">
	<node lat="68.1416249982362" lon="14.635416673253125" id="-21408">
		<tag k="name" v="Sandfallet" />
		<tag k="natural" v="shoal" />
		<tag k="place" v="locality" />
		<tag k="ssr:stedsnr" v="17206" />
	</node>
	<node lat="68.17755555645408" lon="14.527386117063127" id="-21412">
		<tag k="name" v="Alsgrunnen" />
		<tag k="natural" v="shoal" />
		<tag k="place" v="locality" />
		<tag k="ssr:stedsnr" v="17165" />
	</node>
	<node lat="68.18425000080698" lon="14.755661109894811" id="-21414">
		<tag k="alt_name" v="Værholmen" />
		<tag k="name" v="Verholmen" />
		<tag k="place" v="islet" />
		<tag k="ssr:stedsnr" v="17173" />
	</node>
	<node lat="68.26324166701134" lon="14.843283338827929" id="-21415">
		<tag k="fixme" v="multiple name tags, choose one and add the other to alt_name" />
		<tag k="name" v="Stormolla;Molla" />
		<tag k="place" v="island" />
		<tag k="ssr:stedsnr" v="17302" />
	</node>
	<node lat="68.23620833420061" lon="14.656150008138228" id="-21416">
		<tag k="name" v="Kråkvika" />
		<tag k="natural" v="bay" />
		<tag k="ssr:stedsnr" v="17304" />
	</node>
	<node lat="68.24805833640495" lon="14.776400012005931" id="-21418">
		<tag k="name" v="Bukkøyan" />
		<tag k="place" v="islet" />
		<tag k="ssr:stedsnr" v="17309" />
	</node>
	<node lat="68.24748610828362" lon="14.8917750061109" id="-21420">
		<tag k="name" v="Gullvika" />
		<tag k="natural" v="bay" />
		<tag k="ssr:stedsnr" v="17317" />
	</node>
	<node lat="68.24263333786223" lon="14.789419434618031" id="-21421">
		<tag k="name" v="Gårdsøya" />
		<tag k="place" v="islet" />
		<tag k="ssr:stedsnr" v="17321" />
	</node>
	<node lat="68.22728333041553" lon="14.712636104898273" id="-21423">
		<tag k="name" v="Helløya" />
		<tag k="place" v="islet" />
		<tag k="ssr:stedsnr" v="17327" />
	</node>
	<node lat="68.25521944824472" lon="14.798300002583339" id="-21430">
		<tag k="name" v="Rangelvika" />
		<tag k="natural" v="bay" />
		<tag k="ssr:stedsnr" v="17722" />
	</node>
	<node lat="68.35951944555113" lon="14.395291668541084" id="-21434">
		<tag k="name" v="Lågværan" />
		<tag k="place" v="islet" />
		<tag k="ssr:stedsnr" v="17925" />
	</node>
	<node lat="68.26395277720223" lon="15.000786122617484" id="-21448">
		<tag k="name" v="Ravholmen" />
		<tag k="place" v="islet" />
		<tag k="ssr:stedsnr" v="25195" />
	</node>
	<node lat="68.29555000177022" lon="15.097441669935051" id="-21451">
		<tag k="name" v="Lillesandholmen" />
		<tag k="place" v="islet" />
		<tag k="ssr:stedsnr" v="26617" />
	</node>
	<node lat="68.33991944402224" lon="14.099236111671722" id="-21461">
		<tag k="name" v="Åsfjæra" />
		<tag k="natural" v="beach" />
		<tag k="ssr:stedsnr" v="39401" />
	</node>
	<node lat="68.25563611576484" lon="14.716274996119012" id="-21464">
		<tag k="name" v="Sandfallet" />
		<tag k="natural" v="shoal" />
		<tag k="place" v="locality" />
		<tag k="ssr:stedsnr" v="47091" />
	</node>
	<node lat="68.3268194468014" lon="14.036008340841322" id="-21467">
		<tag k="name" v="Øytangen" />
		<tag k="natural" v="shoal" />
		<tag k="place" v="locality" />
		<tag k="ssr:stedsnr" v="238955" />
	</node>
	<node lat="68.32346944744319" lon="14.413172214426023" id="-21472">
		<tag k="name" v="Tyttebærneset" />
		<tag k="natural" v="cape" />
		<tag k="ssr:stedsnr" v="57704" />
	</node>
	<node lat="68.32596944259748" lon="14.31867500831839" id="-21476">
		<tag k="name" v="Essiasvika" />
		<tag k="natural" v="bay" />
		<tag k="ssr:stedsnr" v="57682" />
	</node>
	<node lat="68.33802778114622" lon="14.74401667752269" id="-21481">
		<tag k="name" v="Steinraet" />
		<tag k="natural" v="cape" />
		<tag k="ssr:stedsnr" v="241856" />
	</node>
	<node lat="68.24543889271673" lon="14.672302786214047" id="-21489">
		<tag k="name" v="Nygårdsodden" />
		<tag k="natural" v="cape" />
		<tag k="ssr:stedsnr" v="77264" />
	</node>
	<node lat="68.28041944482794" lon="15.00038611793829" id="-21497">
		<tag k="name" v="Årsteinen" />
		<tag k="place" v="island" />
		<tag k="ssr:stedsnr" v="77602" />
	</node>
	<node lat="68.21381944838724" lon="14.192827770614953" id="-21499">
		<tag k="name" v="Storøyklubben" />
		<tag k="natural" v="cape" />
		<tag k="ssr:stedsnr" v="77613" />
	</node>
	<node lat="68.29347778188118" lon="15.003975009321907" id="-21500">
		<tag k="name" v="Bollsteinvika" />
		<tag k="natural" v="bay" />
		<tag k="ssr:stedsnr" v="77622" />
	</node>
	<node lat="68.37127777983181" lon="14.048683325969709" id="-21503">
		<tag k="name" v="Merrspenbåen" />
		<tag k="natural" v="shoal" />
		<tag k="place" v="locality" />
		<tag k="ssr:stedsnr" v="77911" />
	</node>
	<node lat="68.37118611439807" lon="14.034180549425084" id="-21504">
		<tag k="name" v="Stabbleia" />
		<tag k="natural" v="strait" />
		<tag k="ssr:stedsnr" v="77918" />
	</node>
	<node lat="68.37595277345285" lon="14.085130552294544" id="-21505">
		<tag k="name" v="Smortleia" />
		<tag k="natural" v="strait" />
		<tag k="ssr:stedsnr" v="77921" />
	</node>
	<node lat="68.3768888866512" lon="14.099266670199771" id="-21506">
		<tag k="name" v="Småskallan" />
		<tag k="natural" v="shoal" />
		<tag k="place" v="locality" />
		<tag k="ssr:stedsnr" v="77923" />
	</node>
	<node lat="68.37943888639292" lon="14.006211103269136" id="-21507">
		<tag k="name" v="Ytrehella" />
		<tag k="natural" v="shoal" />
		<tag k="place" v="locality" />
		<tag k="ssr:stedsnr" v="77926" />
	</node>
	<node lat="68.30644722667344" lon="14.260299997947147" id="-21509">
		<tag k="name" v="Klubbneset" />
		<tag k="natural" v="cape" />
		<tag k="ssr:stedsnr" v="78019" />
	</node>
	<node lat="68.26112777958205" lon="15.070244446034044" id="-21512">
		<tag k="name" v="Risøya" />
		<tag k="place" v="islet" />
		<tag k="ssr:stedsnr" v="78111" />
	</node>
	<node lat="68.15419722259847" lon="14.58107221646474" id="-21513">
		<tag k="name" v="Sjåbøeggen" />
		<tag k="natural" v="shoal" />
		<tag k="place" v="locality" />
		<tag k="ssr:stedsnr" v="78157" />
	</node>
	<node lat="68.16300832953505" lon="14.72910555543203" id="-21514">
		<tag k="name" v="Revelskallan" />
		<tag k="natural" v="shoal" />
		<tag k="place" v="locality" />
		<tag k="ssr:stedsnr" v="78159" />
	</node>
	<node lat="68.21365833103863" lon="14.553294443217792" id="-21516">
		<tag k="name" v="Rødholmskallen" />
		<tag k="natural" v="shoal" />
		<tag k="place" v="locality" />
		<tag k="ssr:stedsnr" v="78248" />
	</node>
	<node lat="68.32698055832648" lon="14.698016661794643" id="-21518">
		<tag k="name" v="Vestpolløya" />
		<tag k="place" v="island" />
		<tag k="ssr:stedsnr" v="78405" />
	</node>
	<node lat="68.32953888463139" lon="14.460775000357968" id="-21520">
		<tag k="name" v="Skjellsteinbukta" />
		<tag k="natural" v="bay" />
		<tag k="ssr:stedsnr" v="78413" />
	</node>
	<node lat="68.32581944239587" lon="14.495947225095984" id="-21522">
		<tag k="name" v="Oddan" />
		<tag k="natural" v="cape" />
		<tag k="ssr:stedsnr" v="78415" />
	</node>
	<node lat="68.26043333681595" lon="14.996455544698" id="-21535">
		<tag k="name" v="Einbærholmen" />
		<tag k="place" v="islet" />
		<tag k="ssr:stedsnr" v="78659" />
	</node>
	<node lat="68.34695000072537" lon="14.03825555936977" id="-21536">
		<tag k="name" v="Kvitingen" />
		<tag k="natural" v="shoal" />
		<tag k="place" v="locality" />
		<tag k="ssr:stedsnr" v="78914" />
	</node>
	<node lat="68.18858055292964" lon="14.698872218550457" id="-21560">
		<tag k="name" v="Stabben" />
		<tag k="place" v="locality" />
		<tag k="seamark:type" v="rock" />
		<tag k="ssr:stedsnr" v="96719" />
	</node>
	<node lat="68.18199721909042" lon="14.704022230371283" id="-21561">
		<tag k="fixme" v="consider seamark:type=rock or natural=shoal" />
		<tag k="name" v="Hysskjæran" />
		<tag k="place" v="islet" />
		<tag k="ssr:stedsnr" v="96724" />
	</node>
	<node lat="68.27819444874" lon="14.677474991421166" id="-21566">
		<tag k="name" v="Vatterfjordflaget" />
		<tag k="natural" v="bay" />
		<tag k="ssr:stedsnr" v="101824" />
	</node>
	<node lat="68.32279166558094" lon="14.493661098849945" id="-21572">
		<tag k="name" v="Holmen" />
		<tag k="place" v="islet" />
		<tag k="ssr:stedsnr" v="102893" />
	</node>
	<node lat="68.22540555983477" lon="14.561422215134304" id="-21576">
		<tag k="name" v="Kummen" />
		<tag k="natural" v="shoal" />
		<tag k="place" v="locality" />
		<tag k="ssr:stedsnr" v="105722" />
	</node>
	<node lat="68.14399166986833" lon="14.187919433621245" id="-21579">
		<tag k="name" v="Heimsundet" />
		<tag k="natural" v="strait" />
		<tag k="ssr:stedsnr" v="108312" />
	</node>
	<node lat="68.32408055095705" lon="14.7014250057118" id="-21582">
		<tag k="name" v="Kvalvika" />
		<tag k="natural" v="bay" />
		<tag k="ssr:stedsnr" v="116817" />
	</node>
	<node lat="68.25884999703135" lon="14.351933328852132" id="-21583">
		<tag k="name" v="Storskredneset" />
		<tag k="natural" v="cape" />
		<tag k="ssr:stedsnr" v="118665" />
	</node>
	<node lat="68.36154166601887" lon="14.441230559985737" id="-21589">
		<tag k="name" v="Bufjordholmen" />
		<tag k="place" v="islet" />
		<tag k="ssr:stedsnr" v="118727" />
	</node>
	<node lat="68.34758585102044" lon="14.744750394695672" id="-21596">
		<tag k="name" v="Skjennvolløra" />
		<tag k="natural" v="cape" />
		<tag k="ssr:stedsnr" v="120867" />
	</node>
	<node lat="68.20920555610867" lon="14.827366671146383" id="-21600">
		<tag k="name" v="Djupvika" />
		<tag k="natural" v="bay" />
		<tag k="ssr:stedsnr" v="137208" />
	</node>
	<node lat="68.14666944702434" lon="14.38789999620661" id="-21603">
		<tag k="name" v="Bikkjebåen" />
		<tag k="natural" v="shoal" />
		<tag k="place" v="locality" />
		<tag k="ssr:stedsnr" v="137296" />
	</node>
	<node lat="68.22816944496172" lon="14.79284998821001" id="-21605">
		<tag k="name" v="Kjepsøyholman" />
		<tag k="place" v="islet" />
		<tag k="ssr:stedsnr" v="138212" />
	</node>
	<node lat="68.22175555575583" lon="14.707955555940694" id="-21608">
		<tag k="name" v="Stangholman" />
		<tag k="place" v="islet" />
		<tag k="ssr:stedsnr" v="138234" />
	</node>
	<node lat="68.31984444292824" lon="14.400555565541724" id="-21610">
		<tag k="name" v="Fagerhaugen" />
		<tag k="natural" v="cape" />
		<tag k="ssr:stedsnr" v="138001" />
	</node>
	<node lat="68.269797220408" lon="15.087258343978675" id="-21611">
		<tag k="alt_name" v="Hunruskjeret" />
		<tag k="fixme" v="consider seamark:type=rock or natural=shoal" />
		<tag k="name" v="Hunruskjæran" />
		<tag k="place" v="islet" />
		<tag k="ssr:stedsnr" v="138115" />
	</node>
	<node lat="68.25897499954337" lon="15.094252780994692" id="-21612">
		<tag k="name" v="Måsøya" />
		<tag k="place" v="islet" />
		<tag k="ssr:stedsnr" v="138120" />
	</node>
	<node lat="68.2447222181059" lon="15.03985277885853" id="-21614">
		<tag k="name" v="Tomasskjæret" />
		<tag k="natural" v="shoal" />
		<tag k="place" v="locality" />
		<tag k="ssr:stedsnr" v="138196" />
	</node>
	<node lat="68.19060832987078" lon="14.775686100453786" id="-21615">
		<tag k="fixme" v="consider seamark:type=rock or natural=shoal" />
		<tag k="name" v="Jørnskjæret" />
		<tag k="place" v="islet" />
		<tag k="ssr:stedsnr" v="138141" />
	</node>
	<node lat="68.34669721875952" lon="14.423138876599474" id="-21616">
		<tag k="fixme" v="multiple name tags, choose one and add the other to alt_name" />
		<tag k="name" v="Kalvsøya;Kallsøya" />
		<tag k="place" v="island" />
		<tag k="ssr:stedsnr" v="138145" />
	</node>
	<node lat="68.34382500348893" lon="14.48272777686181" id="-21620">
		<tag k="name" v="Breinesodden" />
		<tag k="natural" v="cape" />
		<tag k="ssr:stedsnr" v="138406" />
	</node>
	<node lat="68.17858888956034" lon="14.295316667814799" id="-21623">
		<tag k="fixme" v="consider seamark:type=rock or natural=shoal" />
		<tag k="name" v="Migskjæret" />
		<tag k="place" v="islet" />
		<tag k="ssr:stedsnr" v="138394" />
	</node>
	<node lat="68.29393611034355" lon="15.097447226585734" id="-21636">
		<tag k="name" v="Storsandholmen" />
		<tag k="place" v="islet" />
		<tag k="ssr:stedsnr" v="147609" />
	</node>
	<node lat="68.32854722431708" lon="14.398749999109551" id="-21650">
		<tag k="alt_name" v="Nerneset" />
		<tag k="name" v="Nedreneset" />
		<tag k="natural" v="cape" />
		<tag k="ssr:stedsnr" v="259081" />
	</node>
	<node lat="68.17464444347335" lon="14.450797218385663" id="-21653">
		<tag k="name" v="Sandfallet" />
		<tag k="natural" v="shoal" />
		<tag k="place" v="locality" />
		<tag k="ssr:stedsnr" v="259136" />
	</node>
	<node lat="68.25761388942705" lon="14.20169166632936" id="-21654">
		<tag k="name" v="Rabben" />
		<tag k="natural" v="cape" />
		<tag k="ssr:stedsnr" v="259141" />
	</node>
	<node lat="68.27158055537151" lon="15.037500010460285" id="-21655">
		<tag k="name" v="Skrukkhamn" />
		<tag k="natural" v="bay" />
		<tag k="ssr:stedsnr" v="259089" />
	</node>
	<node lat="68.26259166885266" lon="15.057030558665096" id="-21658">
		<tag k="alt_name" v="Steinsøya, l;Litle Steinsøya" />
		<tag k="name" v="Litj Steinsøya" />
		<tag k="place" v="island" />
		<tag k="ssr:stedsnr" v="259101" />
	</node>
	<node lat="68.15561111313411" lon="14.415827766523398" id="-21664">
		<tag k="name" v="Langholmen" />
		<tag k="place" v="islet" />
		<tag k="ssr:stedsnr" v="259337" />
	</node>
	<node lat="68.40321388663575" lon="14.526316676068909" id="-21668">
		<tag k="name" v="Kobbsteinan" />
		<tag k="natural" v="cape" />
		<tag k="ssr:stedsnr" v="161751" />
	</node>
	<node lat="68.30878055916867" lon="14.741625007645329" id="-21675">
		<tag k="name" v="Lødalsneset" />
		<tag k="natural" v="cape" />
		<tag k="ssr:stedsnr" v="259494" />
	</node>
	<node lat="68.34719167010891" lon="14.397894435850034" id="-21678">
		<tag k="name" v="Sandøya" />
		<tag k="place" v="island" />
		<tag k="ssr:stedsnr" v="260014" />
	</node>
	<node lat="68.2997444479515" lon="15.05743611316528" id="-21680">
		<tag k="name" v="Buholmen" />
		<tag k="place" v="islet" />
		<tag k="ssr:stedsnr" v="260092" />
	</node>
	<node lat="68.23025555929672" lon="14.209000004787473" id="-21682">
		<tag k="name" v="Lyngværsundet" />
		<tag k="natural" v="strait" />
		<tag k="ssr:stedsnr" v="165477" />
	</node>
	<node lat="68.23012499905606" lon="14.842158344816982" id="-21686">
		<tag k="name" v="Sponvika" />
		<tag k="natural" v="bay" />
		<tag k="ssr:stedsnr" v="260244" />
	</node>
	<node lat="68.19555277538397" lon="14.341933336832303" id="-21690">
		<tag k="bay" v="fjord" />
		<tag k="name" v="Hopen" />
		<tag k="natural" v="bay" />
		<tag k="ssr:stedsnr" v="260430" />
	</node>
	<node lat="68.3173277791822" lon="14.72276110973793" id="-21697">
		<tag k="name" v="Sundsneset" />
		<tag k="natural" v="cape" />
		<tag k="ssr:stedsnr" v="260574" />
	</node>
	<node lat="68.26827500222834" lon="14.79523334165425" id="-21702">
		<tag k="fixme" v="multiple name tags, choose one and add the other to alt_name" />
		<tag k="name" v="Kalvsøya;Stor Kalvsøya;Store Karlsøy" />
		<tag k="place" v="islet" />
		<tag k="ssr:stedsnr" v="260676" />
	</node>
	<node lat="68.26420277793092" lon="15.011172231718547" id="-21705">
		<tag k="alt_name" v="Stangholmen" />
		<tag k="name" v="Stongholmen" />
		<tag k="place" v="islet" />
		<tag k="ssr:stedsnr" v="260685" />
	</node>
	<node lat="68.31837777623619" lon="14.411461103046287" id="-21713">
		<tag k="name" v="Straumneset" />
		<tag k="natural" v="cape" />
		<tag k="ssr:stedsnr" v="179711" />
	</node>
	<node lat="68.28790555961758" lon="14.272211117357541" id="-21716">
		<tag k="name" v="Storvika" />
		<tag k="natural" v="bay" />
		<tag k="ssr:stedsnr" v="180314" />
	</node>
	<node lat="68.27865555574733" lon="14.150736104544093" id="-21717">
		<tag k="name" v="Storvika" />
		<tag k="natural" v="bay" />
		<tag k="ssr:stedsnr" v="180463" />
	</node>
	<node lat="68.28580189328915" lon="15.078646362098548" id="-21729">
		<tag k="name" v="Årsteinfoten" />
		<tag k="natural" v="cape" />
		<tag k="ssr:stedsnr" v="198079" />
	</node>
	<node lat="68.29180555924768" lon="14.186466674569415" id="-21734">
		<tag k="alt_name" v="Gimsøy" />
		<tag k="name" v="Gimsøya" />
		<tag k="place" v="island" />
		<tag k="ssr:stedsnr" v="199104" />
	</node>
	<node lat="68.18972500387433" lon="14.728161123540339" id="-21735">
		<tag k="name" v="Øysundet" />
		<tag k="natural" v="strait" />
		<tag k="ssr:stedsnr" v="199153" />
	</node>
	<node lat="68.18920278175763" lon="14.686399989046839" id="-21736">
		<tag k="name" v="Svedet" />
		<tag k="natural" v="strait" />
		<tag k="ssr:stedsnr" v="199158" />
	</node>
	<node lat="68.39528333524494" lon="14.438844436206645" id="-21739">
		<tag k="name" v="Ol-Massavika" />
		<tag k="natural" v="bay" />
		<tag k="ssr:stedsnr" v="199304" />
	</node>
	<node lat="68.23551389358508" lon="14.881002769460846" id="-21741">
		<tag k="name" v="Flovika" />
		<tag k="natural" v="bay" />
		<tag k="ssr:stedsnr" v="199311" />
	</node>
	<node lat="68.13627499582532" lon="14.16637222672012" id="-21742">
		<tag k="name" v="Gressholmen" />
		<tag k="place" v="islet" />
		<tag k="ssr:stedsnr" v="199370" />
	</node>
	<node lat="68.22362222163707" lon="14.784619454521073" id="-21743">
		<tag k="name" v="Brattholmen" />
		<tag k="place" v="islet" />
		<tag k="ssr:stedsnr" v="199218" />
	</node>
	<node lat="68.2023361126129" lon="14.665399999322334" id="-21745">
		<tag k="name" v="Fembøringsskallen" />
		<tag k="natural" v="shoal" />
		<tag k="place" v="locality" />
		<tag k="ssr:stedsnr" v="199266" />
	</node>
	<node lat="68.19059444413558" lon="14.20023611035715" id="-21753">
		<tag k="fixme" v="consider seamark:type=rock or natural=shoal" />
		<tag k="name" v="Spannlokket" />
		<tag k="place" v="islet" />
		<tag k="ssr:stedsnr" v="199410" />
	</node>
	<node lat="68.32209999917809" lon="14.427266670947803" id="-21754">
		<tag k="name" v="Trettnesan" />
		<tag k="natural" v="cape" />
		<tag k="ssr:stedsnr" v="199417" />
	</node>
	<node lat="68.32294444757625" lon="15.00548332984267" id="-21755">
		<tag k="alt_name" v="Rødsanden" />
		<tag k="name" v="Rødsand" />
		<tag k="natural" v="beach" />
		<tag k="ssr:stedsnr" v="199562" />
	</node>
	<node lat="68.23451111499914" lon="14.211422216025392" id="-21761">
		<tag k="name" v="Brennholmen" />
		<tag k="place" v="islet" />
		<tag k="ssr:stedsnr" v="199613" />
	</node>
	<node lat="68.2783027736774" lon="15.05613611739106" id="-21773">
		<tag k="name" v="Reinvika" />
		<tag k="natural" v="bay" />
		<tag k="ssr:stedsnr" v="208675" />
	</node>
	<node lat="68.34121388687292" lon="14.118708325588313" id="-21791">
		<tag k="name" v="Sildsandodden" />
		<tag k="natural" v="cape" />
		<tag k="ssr:stedsnr" v="221414" />
	</node>
	<node lat="68.23580555852185" lon="14.572727789203352" id="-21804">
		<tag k="name" v="Bjørnodden" />
		<tag k="natural" v="cape" />
		<tag k="ssr:stedsnr" v="226698" />
	</node>
	<node lat="68.32681388759632" lon="14.719783326799927" id="-21806">
		<tag k="name" v="Hesteskallan" />
		<tag k="natural" v="shoal" />
		<tag k="place" v="locality" />
		<tag k="ssr:stedsnr" v="227615" />
	</node>
	<node lat="68.13681388578848" lon="14.270688898408256" id="-21807">
		<tag k="name" v="Flesbåen" />
		<tag k="natural" v="shoal" />
		<tag k="place" v="locality" />
		<tag k="ssr:stedsnr" v="229306" />
	</node>
	<node lat="68.37178332903136" lon="14.377863887859203" id="-21808">
		<tag k="name" v="Knutsøybåen" />
		<tag k="natural" v="shoal" />
		<tag k="place" v="locality" />
		<tag k="ssr:stedsnr" v="229707" />
	</node>
	<node lat="68.27141111010172" lon="14.252258330201153" id="-21809">
		<tag k="name" v="Jenodden" />
		<tag k="natural" v="cape" />
		<tag k="ssr:stedsnr" v="229991" />
	</node>
	<node lat="68.32139166855075" lon="14.706508335683328" id="-21818">
		<tag k="name" v="Saltnesstranda" />
		<tag k="natural" v="beach" />
		<tag k="ssr:stedsnr" v="237808" />
	</node>
	<node lat="68.32866666573888" lon="14.183744435956292" id="-21853">
		<tag k="name" v="Osan" />
		<tag k="natural" v="bay" />
		<tag k="ssr:stedsnr" v="259074" />
	</node>
	<node lat="68.14573889173192" lon="14.274449990067474" id="-21857">
		<tag k="name" v="Austskallen" />
		<tag k="natural" v="shoal" />
		<tag k="place" v="locality" />
		<tag k="ssr:stedsnr" v="259309" />
	</node>
	<node lat="68.1486500041633" lon="14.384283336433242" id="-21858">
		<tag k="fixme" v="consider seamark:type=rock or natural=shoal" />
		<tag k="name" v="Bikkja" />
		<tag k="place" v="islet" />
		<tag k="ssr:stedsnr" v="259316" />
	</node>
	<node lat="68.25337499784551" lon="15.035955551727552" id="-21859">
		<tag k="name" v="Småvær" />
		<tag k="place" v="island" />
		<tag k="ssr:stedsnr" v="259117" />
	</node>
	<node lat="68.25570555386506" lon="15.047088884584397" id="-21860">
		<tag k="name" v="Lyrøya" />
		<tag k="place" v="island" />
		<tag k="ssr:stedsnr" v="259118" />
	</node>
	<node lat="68.18971110649746" lon="14.711602784808486" id="-21861">
		<tag k="alt_name" v="Grundstadsundet" />
		<tag k="name" v="Grunnstadsundet" />
		<tag k="natural" v="strait" />
		<tag k="ssr:stedsnr" v="259124" />
	</node>
	<node lat="68.2242833377727" lon="14.726794442156795" id="-21867">
		<tag k="alt_name" v="Neverholmen" />
		<tag k="name" v="Neverøya" />
		<tag k="place" v="islet" />
		<tag k="ssr:stedsnr" v="259265" />
	</node>
	<node lat="68.23034999856513" lon="14.765708343326748" id="-21868">
		<tag k="name" v="Kjepsøyflua" />
		<tag k="natural" v="shoal" />
		<tag k="place" v="locality" />
		<tag k="ssr:stedsnr" v="259266" />
	</node>
	<node lat="68.22304999888861" lon="14.71448332751753" id="-21869">
		<tag k="name" v="Skjoldvær" />
		<tag k="place" v="island" />
		<tag k="ssr:stedsnr" v="259271" />
	</node>
	<node lat="68.27771666296185" lon="14.934749999319639" id="-21874">
		<tag k="name" v="Siriholmen" />
		<tag k="place" v="islet" />
		<tag k="ssr:stedsnr" v="259564" />
	</node>
	<node lat="68.21420278195728" lon="14.176861110376851" id="-21875">
		<tag k="name" v="Lysøya" />
		<tag k="place" v="island" />
		<tag k="ssr:stedsnr" v="259565" />
	</node>
	<node lat="68.36761388675363" lon="14.357274999419815" id="-21877">
		<tag k="name" v="Korsholmbåen" />
		<tag k="natural" v="shoal" />
		<tag k="place" v="locality" />
		<tag k="ssr:stedsnr" v="259915" />
	</node>
	<node lat="68.38122499633809" lon="14.4044361201565" id="-21878">
		<tag k="name" v="Klubban" />
		<tag k="natural" v="cape" />
		<tag k="ssr:stedsnr" v="259919" />
	</node>
	<node lat="68.38760000123503" lon="14.41358610578782" id="-21879">
		<tag k="name" v="Stangerholmen" />
		<tag k="place" v="islet" />
		<tag k="ssr:stedsnr" v="259927" />
	</node>
	<node lat="68.43977777448148" lon="14.228119440906" id="-21881">
		<tag k="name" v="Kroktindskallen" />
		<tag k="natural" v="shoal" />
		<tag k="place" v="locality" />
		<tag k="ssr:stedsnr" v="259942" />
	</node>
	<node lat="68.33065833137526" lon="15.201152770256135" id="-21882">
		<tag k="name" v="Lendvika" />
		<tag k="natural" v="bay" />
		<tag k="ssr:stedsnr" v="259949" />
	</node>
	<node lat="68.30935277417908" lon="14.4192111206167" id="-21884">
		<tag k="alt_name" v="Indre Sundlandsfjorden" />
		<tag k="bay" v="fjord" />
		<tag k="fixme" v="multiple name tags, choose one and add the other to alt_name" />
		<tag k="name" v="Indrefjorden;Indre Sunnlandsfjorden" />
		<tag k="natural" v="bay" />
		<tag k="ssr:stedsnr" v="260006" />
	</node>
	<node lat="68.14443056010802" lon="14.652102770054979" id="-21888">
		<tag k="alt_name" v="Meskallen, vestre" />
		<tag k="name" v="Vestre Meskallen" />
		<tag k="natural" v="shoal" />
		<tag k="place" v="locality" />
		<tag k="ssr:stedsnr" v="260219" />
	</node>
	<node lat="68.22725277511576" lon="14.821763881654375" id="-21889">
		<tag k="fixme" v="multiple name tags, choose one and add the other to alt_name" />
		<tag k="name" v="Salttynneset;Salttynna" />
		<tag k="natural" v="cape" />
		<tag k="ssr:stedsnr" v="260250" />
	</node>
	<node lat="68.23207500329691" lon="14.886419447178625" id="-21890">
		<tag k="name" v="Litlskallen" />
		<tag k="natural" v="shoal" />
		<tag k="place" v="locality" />
		<tag k="ssr:stedsnr" v="260251" />
	</node>
	<node lat="68.22253333025807" lon="14.803877771084467" id="-21891">
		<tag k="name" v="Vikanholman" />
		<tag k="place" v="islet" />
		<tag k="ssr:stedsnr" v="260257" />
	</node>
	<node lat="68.22356666289878" lon="14.858577768951937" id="-21892">
		<tag k="fixme" v="multiple name tags, choose one and add the other to alt_name" />
		<tag k="name" v="Stangholmen;Nakkbøen" />
		<tag k="place" v="islet" />
		<tag k="ssr:stedsnr" v="260259" />
	</node>
	<node lat="68.22100278214877" lon="14.881044444670048" id="-21894">
		<tag k="name" v="Josefskallen" />
		<tag k="natural" v="shoal" />
		<tag k="place" v="locality" />
		<tag k="ssr:stedsnr" v="260265" />
	</node>
	<node lat="68.32926388478361" lon="14.207552782468404" id="-21895">
		<tag k="name" v="Vinjevika" />
		<tag k="natural" v="bay" />
		<tag k="ssr:stedsnr" v="260102" />
	</node>
	<node lat="68.22378888974195" lon="15.044936115307888" id="-21896">
		<tag k="name" v="Håkjerringskjæret" />
		<tag k="natural" v="shoal" />
		<tag k="place" v="locality" />
		<tag k="ssr:stedsnr" v="260108" />
	</node>
	<node lat="68.36968888682168" lon="14.4292638789742" id="-21899">
		<tag k="name" v="Beritøya" />
		<tag k="place" v="islet" />
		<tag k="ssr:stedsnr" v="260463" />
	</node>
	<node lat="68.23046388969937" lon="14.194422224461382" id="-21900">
		<tag k="name" v="Ørholmen" />
		<tag k="place" v="islet" />
		<tag k="ssr:stedsnr" v="260619" />
	</node>
	<node lat="68.35970556026024" lon="14.472841656511688" id="-21901">
		<tag k="name" v="Nordpollen" />
		<tag k="natural" v="bay" />
		<tag k="ssr:stedsnr" v="260503" />
	</node>
	<node lat="68.2512583351338" lon="14.730647227792923" id="-21905">
		<tag k="name" v="Austrebarden" />
		<tag k="place" v="islet" />
		<tag k="ssr:stedsnr" v="260704" />
	</node>
	<node lat="68.33837499824098" lon="14.452152776707555" id="-21909">
		<tag k="name" v="Haugan" />
		<tag k="natural" v="cape" />
		<tag k="ssr:stedsnr" v="502430" />
	</node>
	<node lat="68.30300555318799" lon="14.942144448902067" id="-21922">
		<tag k="name" v="Pollneset" />
		<tag k="natural" v="cape" />
		<tag k="ssr:stedsnr" v="268692" />
	</node>
	<node lat="68.19713889291378" lon="14.709400002255228" id="-21940">
		<tag k="name" v="Hella" />
		<tag k="natural" v="shoal" />
		<tag k="place" v="locality" />
		<tag k="ssr:stedsnr" v="460746" />
	</node>
	<node lat="68.33579444513734" lon="14.49271665681802" id="-21943">
		<tag k="name" v="Fembøringsodden" />
		<tag k="natural" v="cape" />
		<tag k="ssr:stedsnr" v="283928" />
	</node>
	<node lat="68.32759444126343" lon="14.501002782966847" id="-21946">
		<tag k="name" v="Gåspollen" />
		<tag k="natural" v="bay" />
		<tag k="ssr:stedsnr" v="284902" />
	</node>
	<node lat="68.22011944153489" lon="15.051391674493539" id="-21947">
		<tag k="name" v="Jonsbåen" />
		<tag k="natural" v="shoal" />
		<tag k="place" v="locality" />
		<tag k="ssr:stedsnr" v="461328" />
	</node>
	<node lat="68.2202972205398" lon="14.55953887835858" id="-21949">
		<tag k="name" v="Dynegrunnen" />
		<tag k="natural" v="shoal" />
		<tag k="place" v="locality" />
		<tag k="ssr:stedsnr" v="287732" />
	</node>
	<node lat="68.21180277711817" lon="14.199036099707406" id="-21950">
		<tag k="name" v="Sandgrunnen" />
		<tag k="natural" v="shoal" />
		<tag k="place" v="locality" />
		<tag k="ssr:stedsnr" v="289982" />
	</node>
	<node lat="68.35623333315509" lon="14.10597777188387" id="-21951">
		<tag k="name" v="Vest Pallan" />
		<tag k="natural" v="shoal" />
		<tag k="place" v="locality" />
		<tag k="ssr:stedsnr" v="290514" />
	</node>
	<node lat="68.22948333638936" lon="14.89219723476845" id="-21952">
		<tag k="name" v="Skjågrunnen" />
		<tag k="natural" v="shoal" />
		<tag k="place" v="locality" />
		<tag k="ssr:stedsnr" v="461955" />
	</node>
	<node lat="68.32259166549353" lon="14.099897216800965" id="-21955">
		<tag k="name" v="Mellomholmen" />
		<tag k="place" v="islet" />
		<tag k="ssr:stedsnr" v="298471" />
	</node>
	<node lat="68.32575277675114" lon="14.072669446674071" id="-21956">
		<tag k="name" v="Jektholmen" />
		<tag k="place" v="islet" />
		<tag k="ssr:stedsnr" v="298474" />
	</node>
	<node lat="68.31639444564509" lon="14.413791660730679" id="-21958">
		<tag k="fixme" v="consider seamark:type=rock or natural=shoal" />
		<tag k="name" v="Straumsteinen" />
		<tag k="place" v="islet" />
		<tag k="ssr:stedsnr" v="300726" />
	</node>
	<node lat="68.27661944393765" lon="14.156138899593403" id="-21963">
		<tag k="name" v="Pålsnesosen" />
		<tag k="natural" v="bay" />
		<tag k="ssr:stedsnr" v="301306" />
	</node>
	<node lat="68.24428889273405" lon="14.800936112479395" id="-21966">
		<tag k="name" v="Haversand" />
		<tag k="natural" v="beach" />
		<tag k="ssr:stedsnr" v="302826" />
	</node>
	<node lat="68.26319166370293" lon="15.034158338760731" id="-21978">
		<tag k="name" v="Grunnflaket" />
		<tag k="natural" v="strait" />
		<tag k="ssr:stedsnr" v="320125" />
	</node>
	<node lat="68.25649722048045" lon="15.07588332766358" id="-21980">
		<tag k="name" v="Finnøya" />
		<tag k="place" v="island" />
		<tag k="ssr:stedsnr" v="320139" />
	</node>
	<node lat="68.2567333319963" lon="14.345899994582002" id="-21982">
		<tag k="name" v="Revet" />
		<tag k="natural" v="cape" />
		<tag k="ssr:stedsnr" v="320146" />
	</node>
	<node lat="68.1816500006202" lon="14.725797214803181" id="-21984">
		<tag k="name" v="Slokøya" />
		<tag k="place" v="island" />
		<tag k="ssr:stedsnr" v="320156" />
	</node>
	<node lat="68.33184722054207" lon="14.283302774142895" id="-21986">
		<tag k="fixme" v="multiple name tags, choose one and add the other to alt_name; consider seamark:type=rock or natural=shoal" />
		<tag k="name" v="Ålmenningen;Allmenningen" />
		<tag k="place" v="islet" />
		<tag k="ssr:stedsnr" v="320069" />
	</node>
	<node lat="68.32708888654075" lon="14.258997215548268" id="-21989">
		<tag k="name" v="Stangarholmen" />
		<tag k="place" v="islet" />
		<tag k="ssr:stedsnr" v="320090" />
	</node>
	<node lat="68.32384999529488" lon="14.072286120962927" id="-21990">
		<tag k="fixme" v="multiple name tags, choose one and add the other to alt_name" />
		<tag k="name" v="Jekthamna;Jektholmbukta" />
		<tag k="natural" v="bay" />
		<tag k="ssr:stedsnr" v="320093" />
	</node>
	<node lat="68.23786666345077" lon="14.77235276922253" id="-21991">
		<tag k="fixme" v="consider seamark:type=rock or natural=shoal" />
		<tag k="name" v="Hundskjæret" />
		<tag k="place" v="islet" />
		<tag k="ssr:stedsnr" v="320302" />
	</node>
	<node lat="68.34815555278257" lon="14.462202781284988" id="-21994">
		<tag k="alt_name" v="Lilleøya" />
		<tag k="name" v="Litløya" />
		<tag k="place" v="islet" />
		<tag k="ssr:stedsnr" v="320397" />
	</node>
	<node lat="68.315580558595" lon="14.746038881716556" id="-21996">
		<tag k="name" v="Langstranda" />
		<tag k="natural" v="beach" />
		<tag k="ssr:stedsnr" v="320535" />
	</node>
	<node lat="68.22950000254032" lon="14.72691389811474" id="-22000">
		<tag k="name" v="Oddøya" />
		<tag k="place" v="islet" />
		<tag k="ssr:stedsnr" v="320288" />
	</node>
	<node lat="68.26072500088002" lon="14.983852772681683" id="-22008">
		<tag k="alt_name" v="Kråka" />
		<tag k="name" v="Nergårdskråka" />
		<tag k="place" v="islet" />
		<tag k="ssr:stedsnr" v="320642" />
	</node>
	<node lat="68.26178889209419" lon="14.920349991239426" id="-22009">
		<tag k="alt_name" v="Framnesvika" />
		<tag k="name" v="Fremnesvika" />
		<tag k="natural" v="bay" />
		<tag k="ssr:stedsnr" v="320644" />
	</node>
	<node lat="68.27876388890454" lon="14.814266674636364" id="-22012">
		<tag k="alt_name" v="Øyhellesundet" />
		<tag k="name" v="Øyhellsundet" />
		<tag k="natural" v="strait" />
		<tag k="ssr:stedsnr" v="320595" />
	</node>
	<node lat="68.34318888915394" lon="14.340013890552063" id="-22015">
		<tag k="alt_name" v="Festvågodden" />
		<tag k="name" v="Festvågneset" />
		<tag k="natural" v="cape" />
		<tag k="ssr:stedsnr" v="320882" />
	</node>
	<node lat="68.22078055670512" lon="14.542527781213602" id="-22021">
		<tag k="name" v="Stretarholmen" />
		<tag k="place" v="islet" />
		<tag k="ssr:stedsnr" v="469742" />
	</node>
	<node lat="68.2230833362982" lon="14.545091669076726" id="-22022">
		<tag k="fixme" v="consider seamark:type=rock or natural=shoal" />
		<tag k="name" v="Steinvikskjæret" />
		<tag k="place" v="islet" />
		<tag k="ssr:stedsnr" v="469745" />
	</node>
	<node lat="68.37780555673052" lon="14.033386111085669" id="-22038">
		<tag k="name" v="Stabbskallen" />
		<tag k="natural" v="shoal" />
		<tag k="place" v="locality" />
		<tag k="ssr:stedsnr" v="471604" />
	</node>
	<node lat="68.20806666466855" lon="14.66904721719826" id="-22039">
		<tag k="name" v="Sandfallet" />
		<tag k="natural" v="shoal" />
		<tag k="place" v="locality" />
		<tag k="ssr:stedsnr" v="471440" />
	</node>
	<node lat="68.2440083321713" lon="14.652258324853088" id="-22041">
		<tag k="name" v="Hellvågan" />
		<tag k="natural" v="bay" />
		<tag k="ssr:stedsnr" v="472148" />
	</node>
	<node lat="68.22038333155263" lon="14.55413056600325" id="-22049">
		<tag k="fixme" v="consider seamark:type=rock or natural=shoal" />
		<tag k="name" v="Rødholmskjæran" />
		<tag k="place" v="islet" />
		<tag k="ssr:stedsnr" v="347711" />
	</node>
	<node lat="68.32953888447916" lon="14.708488892725622" id="-22050">
		<tag k="name" v="Klubben" />
		<tag k="natural" v="cape" />
		<tag k="ssr:stedsnr" v="350009" />
	</node>
	<node lat="68.31915278113979" lon="14.05537500867645" id="-22053">
		<tag k="name" v="Hestviksmauet" />
		<tag k="natural" v="bay" />
		<tag k="ssr:stedsnr" v="359957" />
	</node>
	<node lat="68.31906111403654" lon="15.155188896332207" id="-22056">
		<tag k="name" v="Storholmen" />
		<tag k="place" v="islet" />
		<tag k="ssr:stedsnr" v="380002" />
	</node>
	<node lat="68.27605000149666" lon="15.056772232321471" id="-22060">
		<tag k="name" v="Hyshanka" />
		<tag k="natural" v="shoal" />
		<tag k="place" v="locality" />
		<tag k="ssr:stedsnr" v="380107" />
	</node>
	<node lat="68.19169444678214" lon="14.741169434286686" id="-22064">
		<tag k="name" v="Stikkarstøa" />
		<tag k="natural" v="bay" />
		<tag k="ssr:stedsnr" v="380127" />
	</node>
	<node lat="68.24017778117194" lon="15.000597215653215" id="-22065">
		<tag k="fixme" v="consider seamark:type=rock or natural=shoal" />
		<tag k="name" v="Ausa" />
		<tag k="place" v="islet" />
		<tag k="ssr:stedsnr" v="380302" />
	</node>
	<node lat="68.14396111060998" lon="14.213316654467818" id="-22066">
		<tag k="fixme" v="multiple name tags, choose one and add the other to alt_name" />
		<tag k="name" v="Rødholmen;Stor Rødholmen" />
		<tag k="place" v="islet" />
		<tag k="ssr:stedsnr" v="380313" />
	</node>
	<node lat="68.34145000242331" lon="14.425408338337325" id="-22070">
		<tag k="fixme" v="multiple name tags, choose one and add the other to alt_name" />
		<tag k="name" v="Kalvsøyholmen;Kallsøyholmen" />
		<tag k="place" v="islet" />
		<tag k="ssr:stedsnr" v="380410" />
	</node>
	<node lat="68.30879166665932" lon="14.934322231511787" id="-22071">
		<tag k="name" v="Banholmen" />
		<tag k="natural" v="cape" />
		<tag k="ssr:stedsnr" v="380521" />
	</node>
	<node lat="68.3129583367314" lon="14.88034166941254" id="-22075">
		<tag k="name" v="Storvika" />
		<tag k="natural" v="bay" />
		<tag k="ssr:stedsnr" v="380539" />
	</node>
	<node lat="68.27958610778622" lon="14.941919432714291" id="-22076">
		<tag k="name" v="Hestvikodden" />
		<tag k="natural" v="cape" />
		<tag k="ssr:stedsnr" v="380615" />
	</node>
	<node lat="68.2182222250244" lon="14.183197231952022" id="-22079">
		<tag k="name" v="Ramnøya" />
		<tag k="place" v="islet" />
		<tag k="ssr:stedsnr" v="380629" />
	</node>
	<node lat="68.37873889304278" lon="13.976158327157284" id="-22080">
		<tag k="name" v="Grunnskallen" />
		<tag k="natural" v="shoal" />
		<tag k="place" v="locality" />
		<tag k="ssr:stedsnr" v="380918" />
	</node>
	<node lat="68.38448888755259" lon="13.986616674474696" id="-22081">
		<tag k="name" v="Einsteinen" />
		<tag k="natural" v="shoal" />
		<tag k="place" v="locality" />
		<tag k="ssr:stedsnr" v="380923" />
	</node>
	<node lat="68.27153333603931" lon="14.273750006526514" id="-22082">
		<tag k="name" v="Storøya" />
		<tag k="place" v="island" />
		<tag k="ssr:stedsnr" v="381003" />
	</node>
	<node lat="68.30348055613761" lon="14.129158334225009" id="-22084">
		<tag k="name" v="Langneset" />
		<tag k="natural" v="cape" />
		<tag k="ssr:stedsnr" v="381015" />
	</node>
	<node lat="68.30234722430396" lon="14.07228887791956" id="-22085">
		<tag k="name" v="Sineset" />
		<tag k="natural" v="cape" />
		<tag k="ssr:stedsnr" v="381023" />
	</node>
	<node lat="68.32453055866324" lon="14.764619443511393" id="-22086">
		<tag k="name" v="Austpollen" />
		<tag k="natural" v="bay" />
		<tag k="ssr:stedsnr" v="381065" />
	</node>
	<node lat="68.34846388447009" lon="14.443616676067409" id="-22087">
		<tag k="name" v="Båtneset" />
		<tag k="natural" v="cape" />
		<tag k="ssr:stedsnr" v="381076" />
	</node>
	<node lat="68.22465555224726" lon="14.737916656871288" id="-22092">
		<tag k="fixme" v="consider seamark:type=rock or natural=shoal" />
		<tag k="name" v="Jomfrua" />
		<tag k="place" v="islet" />
		<tag k="ssr:stedsnr" v="381303" />
	</node>
	<node lat="68.2180666707383" lon="15.016605564122118" id="-22095">
		<tag k="fixme" v="consider seamark:type=rock or natural=shoal" />
		<tag k="name" v="Brørne" />
		<tag k="place" v="islet" />
		<tag k="ssr:stedsnr" v="381263" />
	</node>
	<node lat="68.34037222008125" lon="14.105047231440592" id="-22102">
		<tag k="name" v="Hovsvika" />
		<tag k="natural" v="bay" />
		<tag k="ssr:stedsnr" v="381909" />
	</node>
	<node lat="68.34901389049548" lon="14.072716677016556" id="-22103">
		<tag k="name" v="Hansbåen" />
		<tag k="natural" v="shoal" />
		<tag k="place" v="locality" />
		<tag k="ssr:stedsnr" v="381911" />
	</node>
	<node lat="68.27690832863028" lon="14.295297230048256" id="-22122">
		<tag k="name" v="Storvikbukta" />
		<tag k="natural" v="bay" />
		<tag k="ssr:stedsnr" v="483336" />
	</node>
	<node lat="68.27746667042125" lon="14.287144444124877" id="-22123">
		<tag k="fixme" v="consider seamark:type=rock or natural=shoal" />
		<tag k="name" v="Bonskjæret" />
		<tag k="place" v="islet" />
		<tag k="ssr:stedsnr" v="483337" />
	</node>
	<node lat="68.29296389371287" lon="14.863261102859429" id="-22150">
		<tag k="name" v="Søre Øyhellestrand" />
		<tag k="natural" v="beach" />
		<tag k="ssr:stedsnr" v="400398" />
	</node>
	<node lat="68.22248610971852" lon="14.864575001017933" id="-22151">
		<tag k="name" v="Nakkbåen" />
		<tag k="place" v="locality" />
		<tag k="seamark:type" v="rock" />
		<tag k="ssr:stedsnr" v="400935" />
	</node>
	<node lat="68.34390277524132" lon="14.140216666038214" id="-22152">
		<tag k="name" v="Rotvika" />
		<tag k="natural" v="bay" />
		<tag k="ssr:stedsnr" v="403408" />
	</node>
	<node lat="68.27912777578715" lon="14.668163894519898" id="-22153">
		<tag k="name" v="Gamneset" />
		<tag k="natural" v="cape" />
		<tag k="ssr:stedsnr" v="404790" />
	</node>
	<node lat="68.14079721988922" lon="14.279227788968113" id="-22157">
		<tag k="name" v="Grunnskallen" />
		<tag k="natural" v="shoal" />
		<tag k="place" v="locality" />
		<tag k="ssr:stedsnr" v="411294" />
	</node>
	<node lat="68.17614999891984" lon="14.298558322762588" id="-22158">
		<tag k="name" v="Migskallen" />
		<tag k="natural" v="shoal" />
		<tag k="place" v="locality" />
		<tag k="ssr:stedsnr" v="411303" />
	</node>
	<node lat="68.25400833654652" lon="14.32974444322133" id="-22159">
		<tag k="name" v="Lilleneset" />
		<tag k="natural" v="cape" />
		<tag k="ssr:stedsnr" v="422701" />
	</node>
	<node lat="68.36568333455527" lon="14.397088878472648" id="-22160">
		<tag k="name" v="Flatværet" />
		<tag k="place" v="islet" />
		<tag k="ssr:stedsnr" v="422741" />
	</node>
	<node lat="68.37055555877683" lon="14.39046666835152" id="-22161">
		<tag k="name" v="Steinsundet" />
		<tag k="natural" v="strait" />
		<tag k="ssr:stedsnr" v="422742" />
	</node>
	<node lat="68.32104722131393" lon="14.242116660241413" id="-22163">
		<tag k="name" v="Kjerkneset" />
		<tag k="natural" v="cape" />
		<tag k="ssr:stedsnr" v="423304" />
	</node>
	<node lat="68.28069444849724" lon="14.264352778141088" id="-22165">
		<tag k="fixme" v="consider seamark:type=rock or natural=shoal" />
		<tag k="name" v="Sjøsteinan" />
		<tag k="place" v="islet" />
		<tag k="ssr:stedsnr" v="423346" />
	</node>
	<node lat="68.32028333739588" lon="14.283658341723516" id="-22170">
		<tag k="name" v="Vassulbåen" />
		<tag k="natural" v="shoal" />
		<tag k="place" v="locality" />
		<tag k="ssr:stedsnr" v="441094" />
	</node>
	<node lat="68.27721666691363" lon="14.14301666959494" id="-22171">
		<tag k="name" v="Sundklakkstraumen" />
		<tag k="natural" v="strait" />
		<tag k="ssr:stedsnr" v="441107" />
	</node>
	<node lat="68.17467499898108" lon="14.631158335797014" id="-22172">
		<tag k="name" v="Rødholmleia" />
		<tag k="natural" v="strait" />
		<tag k="ssr:stedsnr" v="441137" />
	</node>
	<node lat="68.23847222324716" lon="14.668330543852463" id="-22175">
		<tag k="name" v="Slåttvika" />
		<tag k="natural" v="bay" />
		<tag k="ssr:stedsnr" v="441285" />
	</node>
	<node lat="68.24007222674587" lon="14.884558330423824" id="-22176">
		<tag k="alt_name" v="Nordmarkholmen;Lille Gullvikholmen" />
		<tag k="name" v="Vestre Gullvikholmen" />
		<tag k="place" v="islet" />
		<tag k="ssr:stedsnr" v="441297" />
	</node>
	<node lat="68.22053888893136" lon="14.20884166573696" id="-22182">
		<tag k="alt_name" v="Skjåholman" />
		<tag k="name" v="Skjåholmen" />
		<tag k="place" v="islet" />
		<tag k="ssr:stedsnr" v="441589" />
	</node>
	<node lat="68.38601111431637" lon="14.081825000719286" id="-22183">
		<tag k="name" v="Vargrunnen" />
		<tag k="natural" v="shoal" />
		<tag k="place" v="locality" />
		<tag k="ssr:stedsnr" v="441937" />
	</node>
	<node lat="68.24956667054335" lon="15.039341675186789" id="-22184">
		<tag k="name" v="Flatøya" />
		<tag k="place" v="islet" />
		<tag k="ssr:stedsnr" v="442204" />
	</node>
	<node lat="68.23942777934455" lon="15.083858338992886" id="-22185">
		<tag k="fixme" v="consider seamark:type=rock or natural=shoal" />
		<tag k="name" v="Bryggskjæran" />
		<tag k="place" v="islet" />
		<tag k="ssr:stedsnr" v="442206" />
	</node>
	<node lat="68.22618611033514" lon="14.765413893062494" id="-22187">
		<tag k="name" v="Hellandsholmen" />
		<tag k="place" v="islet" />
		<tag k="ssr:stedsnr" v="442234" />
	</node>
	<node lat="68.23064722298597" lon="14.875158327820078" id="-22188">
		<tag k="name" v="Lauvnakken" />
		<tag k="natural" v="cape" />
		<tag k="ssr:stedsnr" v="442239" />
	</node>
	<node lat="68.1657416708533" lon="14.4314944536683" id="-22191">
		<tag k="name" v="Massbåen" />
		<tag k="natural" v="shoal" />
		<tag k="place" v="locality" />
		<tag k="ssr:stedsnr" v="442194" />
	</node>
	<node lat="68.26937777712105" lon="14.984341659108916" id="-22200">
		<tag k="alt_name" v="Øvregårdskråka" />
		<tag k="fixme" v="multiple name tags, choose one and add the other to alt_name" />
		<tag k="name" v="Kråka;Øverkråken" />
		<tag k="place" v="islet" />
		<tag k="ssr:stedsnr" v="442584" />
	</node>
	<node lat="68.34408055210216" lon="14.126038877485508" id="-22205">
		<tag k="name" v="Arholmen" />
		<tag k="place" v="islet" />
		<tag k="ssr:stedsnr" v="442902" />
	</node>
	<node lat="68.23708333562386" lon="14.578408333678244" id="-22237">
		<tag k="fixme" v="consider seamark:type=rock or natural=shoal" />
		<tag k="name" v="Annikenskjæret" />
		<tag k="place" v="islet" />
		<tag k="ssr:stedsnr" v="468662" />
	</node>
	<node lat="68.24837777795594" lon="14.779211105223226" id="-22238">
		<tag k="alt_name" v="Litj Bukkøyan" />
		<tag k="name" v="Lillebukkøya" />
		<tag k="place" v="islet" />
		<tag k="ssr:stedsnr" v="471065" />
	</node>
	<node lat="68.32866666261184" lon="14.462688895379792" id="-22241">
		<tag k="name" v="Finnsteinbukta" />
		<tag k="natural" v="bay" />
		<tag k="ssr:stedsnr" v="480864" />
	</node>
	<node lat="68.32214999886757" lon="14.42584723063729" id="-22242">
		<tag k="name" v="Kolvikneset" />
		<tag k="natural" v="cape" />
		<tag k="ssr:stedsnr" v="482703" />
	</node>
	<node lat="68.32400833291445" lon="14.255944441275687" id="-22243">
		<tag k="fixme" v="consider seamark:type=rock or natural=shoal" />
		<tag k="name" v="Hamnskjæret" />
		<tag k="place" v="islet" />
		<tag k="ssr:stedsnr" v="483316" />
	</node>
	<node lat="68.39045000336806" lon="14.405116655325495" id="-22245">
		<tag k="name" v="Nordodden" />
		<tag k="natural" v="cape" />
		<tag k="ssr:stedsnr" v="483560" />
	</node>
	<node lat="68.3513138921459" lon="14.429627777951401" id="-22247">
		<tag k="fixme" v="consider seamark:type=rock or natural=shoal" />
		<tag k="name" v="Nordstraumtuva" />
		<tag k="place" v="islet" />
		<tag k="ssr:stedsnr" v="483572" />
	</node>
	<node lat="68.31628333393013" lon="15.149930558067664" id="-22249">
		<tag k="name" v="Måsholmen" />
		<tag k="place" v="islet" />
		<tag k="ssr:stedsnr" v="502005" />
	</node>
	<node lat="68.20085833343511" lon="14.719302769007095" id="-22254">
		<tag k="name" v="Nordstvika" />
		<tag k="natural" v="bay" />
		<tag k="ssr:stedsnr" v="502223" />
	</node>
	<node lat="68.2312805599087" lon="14.644866664709676" id="-22255">
		<tag k="name" v="Skinnstakkbåen" />
		<tag k="natural" v="shoal" />
		<tag k="place" v="locality" />
		<tag k="ssr:stedsnr" v="502273" />
	</node>
	<node lat="68.3888361120329" lon="14.557599993009465" id="-22256">
		<tag k="name" v="Litlholmen" />
		<tag k="place" v="islet" />
		<tag k="ssr:stedsnr" v="502274" />
	</node>
	<node lat="68.23517222228257" lon="14.784341670906636" id="-22257">
		<tag k="name" v="Svinvika" />
		<tag k="natural" v="bay" />
		<tag k="ssr:stedsnr" v="502280" />
	</node>
	<node lat="68.2350361147479" lon="15.015452767002744" id="-22258">
		<tag k="name" v="Bindingsholman" />
		<tag k="place" v="islet" />
		<tag k="ssr:stedsnr" v="502286" />
	</node>
	<node lat="68.17049722290021" lon="14.369933330304063" id="-22261">
		<tag k="fixme" v="consider seamark:type=rock or natural=shoal" />
		<tag k="name" v="Dyna" />
		<tag k="place" v="islet" />
		<tag k="ssr:stedsnr" v="502417" />
	</node>
	<node lat="68.22850833679996" lon="14.830911121519947" id="-22264">
		<tag k="name" v="Galtvågen" />
		<tag k="natural" v="bay" />
		<tag k="ssr:stedsnr" v="502177" />
	</node>
	<node lat="68.21728888479845" lon="14.8089722281356" id="-22266">
		<tag k="name" v="Heimrevikan" />
		<tag k="natural" v="bay" />
		<tag k="ssr:stedsnr" v="502186" />
	</node>
	<node lat="68.22240833162829" lon="14.603505552796033" id="-22268">
		<tag k="alt_name" v="Spannagrunnen" />
		<tag k="name" v="Spanngrunnen" />
		<tag k="natural" v="shoal" />
		<tag k="place" v="locality" />
		<tag k="ssr:stedsnr" v="502197" />
	</node>
	<node lat="68.14342777582162" lon="14.141866674563099" id="-22269">
		<tag k="name" v="Stampraen" />
		<tag k="natural" v="shoal" />
		<tag k="place" v="locality" />
		<tag k="ssr:stedsnr" v="502302" />
	</node>
	<node lat="68.30845555608441" lon="14.876330546977849" id="-22274">
		<tag k="name" v="Leirvika" />
		<tag k="natural" v="bay" />
		<tag k="ssr:stedsnr" v="502505" />
	</node>
	<node lat="68.27497500156942" lon="14.906352769906997" id="-22279">
		<tag k="name" v="Hansvika" />
		<tag k="natural" v="bay" />
		<tag k="ssr:stedsnr" v="502590" />
	</node>
	<node lat="68.37125277759709" lon="14.009622222833169" id="-22282">
		<tag k="fixme" v="consider seamark:type=rock or natural=shoal" />
		<tag k="name" v="Hovsflesa" />
		<tag k="place" v="islet" />
		<tag k="ssr:stedsnr" v="502921" />
	</node>
	<node lat="68.34244999638702" lon="14.335130556232517" id="-22284">
		<tag k="alt_name" v="Breidvika" />
		<tag k="name" v="Breivika" />
		<tag k="natural" v="bay" />
		<tag k="ssr:stedsnr" v="502896" />
	</node>
	<node lat="68.25317777364111" lon="15.044766677311303" id="-22285">
		<tag k="name" v="Rundholmen" />
		<tag k="place" v="islet" />
		<tag k="ssr:stedsnr" v="503427" />
	</node>
	<node lat="68.19019721848085" lon="14.718669433777563" id="-22307">
		<tag k="name" v="Kjerksundet" />
		<tag k="natural" v="strait" />
		<tag k="ssr:stedsnr" v="684132" />
	</node>
	<node lat="68.19850278066997" lon="14.74842223204174" id="-22308">
		<tag k="name" v="Litlmolla" />
		<tag k="place" v="island" />
		<tag k="ssr:stedsnr" v="684134" />
	</node>
	<node lat="68.28024444420133" lon="15.062666676265858" id="-22311">
		<tag k="name" v="Karivika" />
		<tag k="natural" v="bay" />
		<tag k="ssr:stedsnr" v="684085" />
	</node>
	<node lat="68.13721388490491" lon="14.666866665338393" id="-22313">
		<tag k="name" v="Båen" />
		<tag k="natural" v="shoal" />
		<tag k="place" v="locality" />
		<tag k="ssr:stedsnr" v="684175" />
	</node>
	<node lat="68.14914722387493" lon="14.651044437814152" id="-22314">
		<tag k="name" v="Trondbåen" />
		<tag k="natural" v="shoal" />
		<tag k="place" v="locality" />
		<tag k="ssr:stedsnr" v="684181" />
	</node>
	<node lat="68.17154166904318" lon="14.535558345014955" id="-22315">
		<tag k="name" v="Tefseggen" />
		<tag k="natural" v="shoal" />
		<tag k="place" v="locality" />
		<tag k="ssr:stedsnr" v="684146" />
	</node>
	<node lat="68.22770555252339" lon="14.97369444588815" id="-22318">
		<tag k="fixme" v="consider seamark:type=rock or natural=shoal" />
		<tag k="name" v="Seiskjæran" />
		<tag k="place" v="islet" />
		<tag k="ssr:stedsnr" v="684195" />
	</node>
	<node lat="68.20476666476974" lon="14.68453056482843" id="-22321">
		<tag k="alt_name" v="Litj Svartoksan" />
		<tag k="fixme" v="consider seamark:type=rock or natural=shoal" />
		<tag k="name" v="Litlsvartoksen" />
		<tag k="place" v="islet" />
		<tag k="ssr:stedsnr" v="684224" />
	</node>
	<node lat="68.21749444255491" lon="14.984211120704389" id="-22323">
		<tag k="name" v="Langgrunnen" />
		<tag k="natural" v="shoal" />
		<tag k="place" v="locality" />
		<tag k="ssr:stedsnr" v="684237" />
	</node>
	<node lat="68.2245666652628" lon="14.569666673705605" id="-22324">
		<tag k="name" v="Kjeøyodden" />
		<tag k="natural" v="cape" />
		<tag k="ssr:stedsnr" v="684287" />
	</node>
	<node lat="68.39734166794004" lon="14.459511106927211" id="-22325">
		<tag k="fixme" v="consider seamark:type=rock or natural=shoal" />
		<tag k="name" v="Spongskjæret" />
		<tag k="place" v="islet" />
		<tag k="ssr:stedsnr" v="684293" />
	</node>
	<node lat="68.2446999986962" lon="14.488222228474463" id="-22327">
		<tag k="alt_name" v="Aust-Vågøy" />
		<tag k="name" v="Austvågøya" />
		<tag k="place" v="island" />
		<tag k="ssr:stedsnr" v="684377" />
	</node>
	<node lat="68.37788611344595" lon="14.422058333517475" id="-22332">
		<tag k="name" v="Strendene" />
		<tag k="natural" v="beach" />
		<tag k="ssr:stedsnr" v="684449" />
	</node>
	<node lat="68.31007499924472" lon="14.979830551568917" id="-22338">
		<tag k="name" v="Sørklubben" />
		<tag k="natural" v="cape" />
		<tag k="ssr:stedsnr" v="684495" />
	</node>
	<node lat="68.2228888882142" lon="14.183286103962374" id="-22339">
		<tag k="fixme" v="multiple name tags, choose one and add the other to alt_name" />
		<tag k="name" v="Børøya;Stor Børøya" />
		<tag k="place" v="island" />
		<tag k="ssr:stedsnr" v="684559" />
	</node>
	<node lat="68.2147777778579" lon="14.214116669010814" id="-22342">
		<tag k="name" v="Mjåsundhalsen" />
		<tag k="natural" v="cape" />
		<tag k="ssr:stedsnr" v="684571" />
	</node>
	<node lat="68.27976389043796" lon="14.828277777708328" id="-22348">
		<tag k="name" v="Smøringsholmen" />
		<tag k="place" v="islet" />
		<tag k="ssr:stedsnr" v="684588" />
	</node>
	<node lat="68.21878333229938" lon="14.78302778120413" id="-22350">
		<tag k="name" v="Sandvika" />
		<tag k="natural" v="bay" />
		<tag k="ssr:stedsnr" v="684843" />
	</node>
	<node lat="68.38630833725968" lon="14.397999991916992" id="-22351">
		<tag k="alt_name" v="Nordbarden" />
		<tag k="name" v="Nordbaren" />
		<tag k="place" v="islet" />
		<tag k="ssr:stedsnr" v="684937" />
	</node>
	<node lat="68.38593611382981" lon="14.045800010647918" id="-22352">
		<tag k="name" v="Kveitskallen" />
		<tag k="natural" v="shoal" />
		<tag k="place" v="locality" />
		<tag k="ssr:stedsnr" v="684939" />
	</node>
	<node lat="68.38767500104302" lon="13.98714722912561" id="-22353">
		<tag k="name" v="Vinterskallen" />
		<tag k="natural" v="shoal" />
		<tag k="place" v="locality" />
		<tag k="ssr:stedsnr" v="684941" />
	</node>
	<node lat="68.33930555915384" lon="14.169719455503381" id="-22358">
		<tag k="name" v="Saupstadneset" />
		<tag k="natural" v="cape" />
		<tag k="ssr:stedsnr" v="684887" />
	</node>
	<node lat="68.32133610861739" lon="14.422777778603763" id="-22360">
		<tag k="name" v="Kolvika" />
		<tag k="natural" v="bay" />
		<tag k="ssr:stedsnr" v="685055" />
	</node>
	<node lat="68.34425833336074" lon="14.436263900885177" id="-22361">
		<tag k="alt_name" v="Lilleøya" />
		<tag k="name" v="Litløya" />
		<tag k="place" v="island" />
		<tag k="ssr:stedsnr" v="685057" />
	</node>
	<node lat="68.35044166669493" lon="14.470455548667307" id="-22364">
		<tag k="name" v="Buvika" />
		<tag k="natural" v="bay" />
		<tag k="ssr:stedsnr" v="525903" />
	</node>
	<node lat="68.26685555215474" lon="14.77917778731253" id="-22370">
		<tag k="name" v="Kalvsøybåen" />
		<tag k="natural" v="shoal" />
		<tag k="place" v="locality" />
		<tag k="ssr:stedsnr" v="532086" />
	</node>
	<node lat="68.20580277854758" lon="14.680666657020147" id="-22371">
		<tag k="name" v="Hella" />
		<tag k="natural" v="shoal" />
		<tag k="place" v="locality" />
		<tag k="ssr:stedsnr" v="532407" />
	</node>
	<node lat="68.32246667113418" lon="14.429258330896536" id="-22375">
		<tag k="name" v="Trettneset" />
		<tag k="natural" v="cape" />
		<tag k="ssr:stedsnr" v="543717" />
	</node>
	<node lat="68.26552499779699" lon="15.007552785499001" id="-22396">
		<tag k="name" v="Krokstøa" />
		<tag k="natural" v="bay" />
		<tag k="ssr:stedsnr" v="693241" />
	</node>
	<node lat="68.2966388923072" lon="15.087033342444423" id="-22397">
		<tag k="name" v="Leirvika" />
		<tag k="natural" v="bay" />
		<tag k="ssr:stedsnr" v="693642" />
	</node>
	<node lat="68.30460555462437" lon="15.059872211987262" id="-22398">
		<tag k="name" v="Olaholmen" />
		<tag k="place" v="islet" />
		<tag k="ssr:stedsnr" v="693655" />
	</node>
	<node lat="68.28503680967202" lon="15.077576740566657" id="-22399">
		<tag k="name" v="Årsteinfotklubben" />
		<tag k="natural" v="cape" />
		<tag k="ssr:stedsnr" v="572698" />
	</node>
	<node lat="68.22025555857752" lon="14.205455549558726" id="-22431">
		<tag k="name" v="Lille Skjåholmen" />
		<tag k="place" v="islet" />
		<tag k="ssr:stedsnr" v="589457" />
	</node>
	<node lat="68.23657777616016" lon="14.580252767939207" id="-22432">
		<tag k="fixme" v="consider seamark:type=rock or natural=shoal" />
		<tag k="name" v="Tangskjæret" />
		<tag k="place" v="islet" />
		<tag k="ssr:stedsnr" v="590672" />
	</node>
	<node lat="68.23271666608115" lon="14.578802785742376" id="-22433">
		<tag k="name" v="Svinøyvalen" />
		<tag k="natural" v="bay" />
		<tag k="ssr:stedsnr" v="590678" />
	</node>
	<node lat="68.2537972183927" lon="14.761841668192186" id="-22434">
		<tag k="name" v="Bukkbåen" />
		<tag k="natural" v="shoal" />
		<tag k="place" v="locality" />
		<tag k="ssr:stedsnr" v="593068" />
	</node>
	<node lat="68.24628889011511" lon="14.300133339441803" id="-22441">
		<tag k="name" v="Otervika" />
		<tag k="natural" v="bay" />
		<tag k="ssr:stedsnr" v="603601" />
	</node>
	<node lat="68.36826110980904" lon="14.38800000451932" id="-22443">
		<tag k="name" v="Store Øymorholmen" />
		<tag k="place" v="islet" />
		<tag k="ssr:stedsnr" v="603705" />
	</node>
	<node lat="68.36871389131646" lon="14.391441667515883" id="-22444">
		<tag k="name" v="Olakjosen" />
		<tag k="natural" v="bay" />
		<tag k="ssr:stedsnr" v="603706" />
	</node>
	<node lat="68.34060832980317" lon="14.331883331860869" id="-22445">
		<tag k="name" v="Lille Festvåg" />
		<tag k="natural" v="bay" />
		<tag k="ssr:stedsnr" v="603714" />
	</node>
	<node lat="68.37017222397476" lon="14.386200003230647" id="-22447">
		<tag k="name" v="Meistersundholmen" />
		<tag k="place" v="islet" />
		<tag k="ssr:stedsnr" v="603698" />
	</node>
	<node lat="68.34282500198573" lon="14.437175005698379" id="-22451">
		<tag k="name" v="Lillestraumen" />
		<tag k="natural" v="strait" />
		<tag k="ssr:stedsnr" v="604554" />
	</node>
	<node lat="68.25168611326916" lon="14.778163896127971" id="-22454">
		<tag k="name" v="Dragan" />
		<tag k="place" v="islet" />
		<tag k="ssr:stedsnr" v="605854" />
	</node>
	<node lat="68.32054167089962" lon="15.147891671216957" id="-22456">
		<tag k="name" v="Pollan" />
		<tag k="natural" v="bay" />
		<tag k="ssr:stedsnr" v="623004" />
	</node>
	<node lat="68.21816944152306" lon="14.706236120706093" id="-22462">
		<tag k="name" v="Skinøya" />
		<tag k="place" v="islet" />
		<tag k="ssr:stedsnr" v="623223" />
	</node>
	<node lat="68.20775555318859" lon="14.682149989576487" id="-22463">
		<tag k="alt_name" v="Stor Svartoksan" />
		<tag k="fixme" v="consider seamark:type=rock or natural=shoal" />
		<tag k="name" v="Svartoksen" />
		<tag k="place" v="islet" />
		<tag k="ssr:stedsnr" v="623226" />
	</node>
	<node lat="68.24922777584874" lon="14.723633326634443" id="-22464">
		<tag k="fixme" v="consider seamark:type=rock or natural=shoal" />
		<tag k="name" v="Barden" />
		<tag k="place" v="islet" />
		<tag k="ssr:stedsnr" v="623269" />
	</node>
	<node lat="68.18435277695485" lon="14.727033325464639" id="-22472">
		<tag k="name" v="Seisundet" />
		<tag k="natural" v="strait" />
		<tag k="ssr:stedsnr" v="623169" />
	</node>
	<node lat="68.24244444887638" lon="14.89230554904609" id="-22475">
		<tag k="alt_name" v="Annaholmen;Store Gullvikholmen" />
		<tag k="name" v="Austre Gullvikholmen" />
		<tag k="place" v="islet" />
		<tag k="ssr:stedsnr" v="623308" />
	</node>
	<node lat="68.24092499707663" lon="14.990624989297169" id="-22476">
		<tag k="name" v="Sauen" />
		<tag k="natural" v="shoal" />
		<tag k="place" v="locality" />
		<tag k="ssr:stedsnr" v="623310" />
	</node>
	<node lat="68.20698333764781" lon="14.181277783514561" id="-22484">
		<tag k="alt_name" v="Brudgomsskjeret;Brurgomskjeret" />
		<tag k="fixme" v="consider seamark:type=rock or natural=shoal" />
		<tag k="name" v="Brudgomskjæret" />
		<tag k="place" v="islet" />
		<tag k="ssr:stedsnr" v="623458" />
	</node>
	<node lat="68.27587778106734" lon="14.982272222518098" id="-22486">
		<tag k="name" v="Lillepurkvika" />
		<tag k="natural" v="bay" />
		<tag k="ssr:stedsnr" v="623607" />
	</node>
	<node lat="68.30274166604431" lon="14.992947233851684" id="-22487">
		<tag k="name" v="Bukkholmen" />
		<tag k="place" v="islet" />
		<tag k="ssr:stedsnr" v="623626" />
	</node>
	<node lat="68.30812500310488" lon="14.987958341284363" id="-22490">
		<tag k="name" v="Kvitsanden" />
		<tag k="natural" v="bay" />
		<tag k="ssr:stedsnr" v="623517" />
	</node>
	<node lat="68.3108194465122" lon="14.883561118003826" id="-22492">
		<tag k="name" v="Krøkebærholmen" />
		<tag k="place" v="islet" />
		<tag k="ssr:stedsnr" v="623526" />
	</node>
	<node lat="68.27097777570874" lon="14.683627769470359" id="-22495">
		<tag k="name" v="Kobbneset" />
		<tag k="natural" v="cape" />
		<tag k="ssr:stedsnr" v="623581" />
	</node>
	<node lat="68.30223888562924" lon="15.079927772441145" id="-22503">
		<tag k="name" v="Vikerosen" />
		<tag k="natural" v="bay" />
		<tag k="ssr:stedsnr" v="632606" />
	</node>
	<node lat="68.29691666825153" lon="14.27151389837618" id="-22524">
		<tag k="name" v="Holmen" />
		<tag k="natural" v="cape" />
		<tag k="ssr:stedsnr" v="648347" />
	</node>
	<node lat="68.31764444608521" lon="14.479805548416559" id="-22537">
		<tag k="name" v="Blålyngodden" />
		<tag k="natural" v="cape" />
		<tag k="ssr:stedsnr" v="707896" />
	</node>
	<node lat="68.22664721882113" lon="14.779227767060616" id="-22538">
		<tag k="name" v="Husholmen" />
		<tag k="place" v="islet" />
		<tag k="ssr:stedsnr" v="653397" />
	</node>
	<node lat="68.32478611141839" lon="14.40263332787007" id="-22544">
		<tag k="fixme" v="consider seamark:type=rock or natural=shoal" />
		<tag k="name" v="Steinranden" />
		<tag k="place" v="islet" />
		<tag k="ssr:stedsnr" v="664711" />
	</node>
	<node lat="68.35458055187318" lon="14.441547222096602" id="-22546">
		<tag k="name" v="Havfrutjønna" />
		<tag k="natural" v="bay" />
		<tag k="ssr:stedsnr" v="664743" />
	</node>
	<node lat="68.35048611179285" lon="14.43441111230611" id="-22548">
		<tag k="name" v="Seglholmen" />
		<tag k="place" v="islet" />
		<tag k="ssr:stedsnr" v="665596" />
	</node>
	<node lat="68.2207277806677" lon="15.032227786611646" id="-22553">
		<tag k="alt_name" v="Ingjelsøya, store" />
		<tag k="name" v="Store Ingjelsøya" />
		<tag k="place" v="island" />
		<tag k="ssr:stedsnr" v="684057" />
	</node>
	<node lat="68.26002499720597" lon="15.03630833248236" id="-22555">
		<tag k="alt_name" v="Flagholmen" />
		<tag k="name" v="Flakholmen" />
		<tag k="place" v="islet" />
		<tag k="ssr:stedsnr" v="684119" />
	</node>
	<node lat="68.25088055334578" lon="15.060352771279549" id="-22556">
		<tag k="alt_name" v="Litj Rotta;Rotta, l" />
		<tag k="name" v="Litle Rotta" />
		<tag k="place" v="islet" />
		<tag k="ssr:stedsnr" v="684123" />
	</node>
	<node lat="68.25505555707349" lon="15.129005546775584" id="-22557">
		<tag k="name" v="Seglholmen" />
		<tag k="place" v="islet" />
		<tag k="ssr:stedsnr" v="684125" />
	</node>
	<node lat="68.16733888826026" lon="14.660574995248105" id="-22561">
		<tag k="fixme" v="multiple name tags, choose one and add the other to alt_name" />
		<tag k="name" v="Været;Heimskrova" />
		<tag k="place" v="island" />
		<tag k="ssr:stedsnr" v="684164" />
	</node>
	<node lat="68.16257777409734" lon="14.628100007102866" id="-22562">
		<tag k="name" v="Hella" />
		<tag k="natural" v="shoal" />
		<tag k="place" v="locality" />
		<tag k="ssr:stedsnr" v="684168" />
	</node>
	<node lat="68.28157777442911" lon="14.3246972317736" id="-22566">
		<tag k="name" v="Sydalspollen" />
		<tag k="natural" v="bay" />
		<tag k="ssr:stedsnr" v="684212" />
	</node>
	<node lat="68.21474444351314" lon="14.734555555533042" id="-22567">
		<tag k="name" v="Sandvika" />
		<tag k="natural" v="bay" />
		<tag k="ssr:stedsnr" v="684219" />
	</node>
	<node lat="68.21244444706002" lon="14.817480550541806" id="-22569">
		<tag k="name" v="Bjørnerøya" />
		<tag k="natural" v="cape" />
		<tag k="ssr:stedsnr" v="684262" />
	</node>
	<node lat="68.23834166473512" lon="14.612583332745361" id="-22571">
		<tag k="name" v="Hammaren" />
		<tag k="place" v="islet" />
		<tag k="ssr:stedsnr" v="684270" />
	</node>
	<node lat="68.23918055693761" lon="14.757216659546186" id="-22572">
		<tag k="name" v="Haversandgrunnen" />
		<tag k="natural" v="shoal" />
		<tag k="place" v="locality" />
		<tag k="ssr:stedsnr" v="684299" />
	</node>
	<node lat="68.32360833273201" lon="14.724136107567068" id="-22574">
		<tag k="fixme" v="consider seamark:type=rock or natural=shoal" />
		<tag k="name" v="Sildpollskjæret" />
		<tag k="place" v="islet" />
		<tag k="ssr:stedsnr" v="684408" />
	</node>
	<node lat="68.32800833197666" lon="14.487283329775325" id="-22576">
		<tag k="name" v="Storelvneset" />
		<tag k="natural" v="cape" />
		<tag k="ssr:stedsnr" v="684416" />
	</node>
	<node lat="68.13288611384804" lon="14.160324997742531" id="-22578">
		<tag k="name" v="Lyngøyan" />
		<tag k="place" v="islet" />
		<tag k="ssr:stedsnr" v="684361" />
	</node>
	<node lat="68.13466666695514" lon="14.173491657565386" id="-22579">
		<tag k="name" v="Hollendaren" />
		<tag k="natural" v="shoal" />
		<tag k="place" v="locality" />
		<tag k="ssr:stedsnr" v="684363" />
	</node>
	<node lat="68.30169166290283" lon="14.712294432084786" id="-22584">
		<tag k="fixme" v="consider seamark:type=rock or natural=shoal" />
		<tag k="name" v="Ytreskjæran" />
		<tag k="place" v="islet" />
		<tag k="ssr:stedsnr" v="684517" />
	</node>
	<node lat="68.253036108403" lon="14.727577770233584" id="-22589">
		<tag k="name" v="Eggløysa" />
		<tag k="place" v="islet" />
		<tag k="ssr:stedsnr" v="684657" />
	</node>
	<node lat="68.2782722252538" lon="14.640355553848453" id="-22594">
		<tag k="name" v="Vatterfjordpollen" />
		<tag k="natural" v="bay" />
		<tag k="old_name" v="Sæterpollen" />
		<tag k="ssr:stedsnr" v="684602" />
	</node>
	<node lat="68.29053055713592" lon="14.120858334539374" id="-22595">
		<tag k="alt_name" v="Hestøyan" />
		<tag k="name" v="Hestøya" />
		<tag k="place" v="island" />
		<tag k="ssr:stedsnr" v="685018" />
	</node>
	<node lat="68.16921388494364" lon="14.240791677765735" id="-22596">
		<tag k="name" v="Ausa" />
		<tag k="natural" v="cape" />
		<tag k="ssr:stedsnr" v="685397" />
	</node>
	<node lat="68.22244444450097" lon="14.543750010838838" id="-22607">
		<tag k="name" v="Nedre Steinvikholmen" />
		<tag k="place" v="islet" />
		<tag k="ssr:stedsnr" v="894733" />
	</node>
	<node lat="68.32858055937243" lon="15.013636117279136" id="-22621">
		<tag k="name" v="Kuvika" />
		<tag k="natural" v="bay" />
		<tag k="ssr:stedsnr" v="704260" />
	</node>
	<node lat="68.34543333389608" lon="14.102250005681865" id="-22622">
		<tag k="name" v="Kjellbåan" />
		<tag k="natural" v="shoal" />
		<tag k="place" v="locality" />
		<tag k="ssr:stedsnr" v="896886" />
	</node>
	<node lat="68.31716389003091" lon="14.736658330424204" id="-22627">
		<tag k="name" v="Lysgrunnen" />
		<tag k="natural" v="shoal" />
		<tag k="place" v="locality" />
		<tag k="ssr:stedsnr" v="897683" />
	</node>
	<node lat="68.23494166980039" lon="14.572405566955656" id="-22629">
		<tag k="name" v="Størmerodden" />
		<tag k="natural" v="cape" />
		<tag k="ssr:stedsnr" v="711678" />
	</node>
	<node lat="68.35159722486596" lon="14.727686109637219" id="-22630">
		<tag k="name" v="Laupstadosen" />
		<tag k="natural" v="bay" />
		<tag k="ssr:stedsnr" v="714017" />
	</node>
	<node lat="68.25702777918579" lon="14.180688881219583" id="-22631">
		<tag k="name" v="Gyltan" />
		<tag k="natural" v="shoal" />
		<tag k="place" v="locality" />
		<tag k="ssr:stedsnr" v="714992" />
	</node>
	<node lat="68.32495278214923" lon="14.467724999128741" id="-22632">
		<tag k="name" v="Halsan" />
		<tag k="natural" v="cape" />
		<tag k="ssr:stedsnr" v="723829" />
	</node>
	<node lat="68.32706388908711" lon="14.399808325876094" id="-22633">
		<tag k="name" v="Åneset" />
		<tag k="natural" v="cape" />
		<tag k="ssr:stedsnr" v="725676" />
	</node>
	<node lat="68.33052221943761" lon="14.445341670324963" id="-22634">
		<tag k="name" v="Skjellsteinbukta" />
		<tag k="natural" v="bay" />
		<tag k="ssr:stedsnr" v="725685" />
	</node>
	<node lat="68.3493611072677" lon="14.395286105153286" id="-22637">
		<tag k="name" v="Sandøyholmen" />
		<tag k="place" v="islet" />
		<tag k="ssr:stedsnr" v="725720" />
	</node>
	<node lat="68.32128889293706" lon="14.408263889605616" id="-22641">
		<tag k="name" v="Nesan" />
		<tag k="natural" v="cape" />
		<tag k="ssr:stedsnr" v="745003" />
	</node>
	<node lat="68.32295000374283" lon="15.14536111868704" id="-22642">
		<tag k="name" v="Vargholmen" />
		<tag k="place" v="islet" />
		<tag k="ssr:stedsnr" v="745004" />
	</node>
	<node lat="68.33129166663673" lon="14.25437221072143" id="-22643">
		<tag k="name" v="Lyngøya" />
		<tag k="place" v="island" />
		<tag k="ssr:stedsnr" v="745011" />
	</node>
	<node lat="68.29768055350574" lon="15.105355566571097" id="-22647">
		<tag k="fixme" v="consider seamark:type=rock or natural=shoal" />
		<tag k="name" v="Hysskjæret" />
		<tag k="place" v="islet" />
		<tag k="ssr:stedsnr" v="745080" />
	</node>
	<node lat="68.28651389056586" lon="14.142255553354376" id="-22648">
		<tag k="alt_name" v="Gjendalsosen" />
		<tag k="name" v="Jenndalspollen" />
		<tag k="natural" v="bay" />
		<tag k="ssr:stedsnr" v="745083" />
	</node>
	<node lat="68.2367361106089" lon="15.046669439059647" id="-22649">
		<tag k="name" v="Spannskallen" />
		<tag k="natural" v="shoal" />
		<tag k="place" v="locality" />
		<tag k="ssr:stedsnr" v="745088" />
	</node>
	<node lat="68.33298888903316" lon="14.038977786603104" id="-22650">
		<tag k="alt_name" v="Vikarøy" />
		<tag k="name" v="Vikarøya" />
		<tag k="place" v="island" />
		<tag k="ssr:stedsnr" v="745090" />
	</node>
	<node lat="68.33591388478604" lon="14.256930560986484" id="-22652">
		<tag k="fixme" v="consider seamark:type=rock or natural=shoal" />
		<tag k="name" v="Oddskjæran" />
		<tag k="place" v="islet" />
		<tag k="ssr:stedsnr" v="745092" />
	</node>
	<node lat="68.1336777735572" lon="14.582913887055302" id="-22653">
		<tag k="name" v="Marskallen" />
		<tag k="natural" v="shoal" />
		<tag k="place" v="locality" />
		<tag k="ssr:stedsnr" v="745210" />
	</node>
	<node lat="68.18467778199818" lon="14.750858328830265" id="-22660">
		<tag k="name" v="Kroksundet" />
		<tag k="natural" v="strait" />
		<tag k="ssr:stedsnr" v="745181" />
	</node>
	<node lat="68.17304999967556" lon="14.51706110814267" id="-22661">
		<tag k="name" v="Tefsen" />
		<tag k="natural" v="shoal" />
		<tag k="place" v="locality" />
		<tag k="ssr:stedsnr" v="745184" />
	</node>
	<node lat="68.15135833556518" lon="14.593430558516085" id="-22662">
		<tag k="name" v="Stabbleia" />
		<tag k="natural" v="strait" />
		<tag k="ssr:stedsnr" v="745188" />
	</node>
	<node lat="68.39658611093108" lon="14.535605543876821" id="-22666">
		<tag k="alt_name" v="Buliodden" />
		<tag k="name" v="Bulineset" />
		<tag k="natural" v="cape" />
		<tag k="ssr:stedsnr" v="745327" />
	</node>
	<node lat="68.21312500279093" lon="14.843147213358026" id="-22667">
		<tag k="fixme" v="consider seamark:type=rock or natural=shoal" />
		<tag k="name" v="Rødstaven" />
		<tag k="place" v="islet" />
		<tag k="ssr:stedsnr" v="745275" />
	</node>
	<node lat="68.17131666820501" lon="14.294611106225414" id="-22670">
		<tag k="name" v="Bindingsbåen" />
		<tag k="natural" v="shoal" />
		<tag k="place" v="locality" />
		<tag k="ssr:stedsnr" v="745426" />
	</node>
	<node lat="68.11806944698962" lon="14.31290832507693" id="-22674">
		<tag k="alt_name" v="Opsskallen" />
		<tag k="name" v="Oppskallen" />
		<tag k="natural" v="shoal" />
		<tag k="place" v="locality" />
		<tag k="ssr:stedsnr" v="745378" />
	</node>
	<node lat="68.27353333696533" lon="14.935894446407055" id="-22679">
		<tag k="name" v="Fjordneset" />
		<tag k="natural" v="cape" />
		<tag k="ssr:stedsnr" v="745584" />
	</node>
	<node lat="68.3486416699548" lon="14.133036101202967" id="-22682">
		<tag k="name" v="Arvikflesa" />
		<tag k="natural" v="shoal" />
		<tag k="place" v="locality" />
		<tag k="ssr:stedsnr" v="745915" />
	</node>
	<node lat="68.29468333632437" lon="15.102077773749812" id="-22707">
		<tag k="name" v="Sandgrunnen" />
		<tag k="natural" v="shoal" />
		<tag k="place" v="locality" />
		<tag k="ssr:stedsnr" v="764298" />
	</node>
	<node lat="68.27796110968043" lon="14.715805546553344" id="-22710">
		<tag k="alt_name" v="Klubben" />
		<tag k="name" v="Følstadklubben" />
		<tag k="natural" v="cape" />
		<tag k="ssr:stedsnr" v="768096" />
	</node>
	<node lat="68.32260277618741" lon="14.442769452365804" id="-22718">
		<tag k="name" v="Finnsteinbukta" />
		<tag k="natural" v="bay" />
		<tag k="ssr:stedsnr" v="907677" />
	</node>
	<node lat="68.32331944704109" lon="14.408641657099585" id="-22719">
		<tag k="name" v="Storjordneset" />
		<tag k="natural" v="cape" />
		<tag k="ssr:stedsnr" v="907683" />
	</node>
	<node lat="68.36607777380398" lon="14.411805563182634" id="-22720">
		<tag k="name" v="Guttormholman" />
		<tag k="place" v="islet" />
		<tag k="ssr:stedsnr" v="907697" />
	</node>
	<node lat="68.24624444257917" lon="14.237049989700779" id="-22721">
		<tag k="name" v="Fiskholmen" />
		<tag k="place" v="islet" />
		<tag k="ssr:stedsnr" v="772023" />
	</node>
	<node lat="68.24670833298491" lon="14.79274167447419" id="-22723">
		<tag k="name" v="Brurbåen" />
		<tag k="natural" v="shoal" />
		<tag k="place" v="locality" />
		<tag k="ssr:stedsnr" v="775062" />
	</node>
	<node lat="68.20461388458027" lon="14.176480558803112" id="-22724">
		<tag k="name" v="Lysøygrunnen" />
		<tag k="natural" v="shoal" />
		<tag k="place" v="locality" />
		<tag k="ssr:stedsnr" v="775315" />
	</node>
	<node lat="68.38166666595596" lon="14.39238333971532" id="-22725">
		<tag k="name" v="Brattholmen" />
		<tag k="place" v="islet" />
		<tag k="ssr:stedsnr" v="908586" />
	</node>
	<node lat="68.32493610949045" lon="14.697194443949625" id="-22726">
		<tag k="name" v="Vestpollstraumen" />
		<tag k="natural" v="strait" />
		<tag k="ssr:stedsnr" v="783822" />
	</node>
	<node lat="68.25767222118792" lon="14.36239166493524" id="-22733">
		<tag k="name" v="Klubbukta" />
		<tag k="natural" v="bay" />
		<tag k="ssr:stedsnr" v="785669" />
	</node>
	<node lat="68.34908611053018" lon="14.450255556134866" id="-22737">
		<tag k="name" v="Vatnfjordstraumen" />
		<tag k="natural" v="strait" />
		<tag k="ssr:stedsnr" v="787556" />
	</node>
	<node lat="68.20393889244983" lon="14.817133323746308" id="-22741">
		<tag k="name" v="Omfløddholmen" />
		<tag k="place" v="islet" />
		<tag k="ssr:stedsnr" v="805121" />
	</node>
	<node lat="68.19876944744925" lon="14.785133344411559" id="-22742">
		<tag k="name" v="Vardneset" />
		<tag k="natural" v="cape" />
		<tag k="ssr:stedsnr" v="805122" />
	</node>
	<node lat="68.19548333357896" lon="14.664911117406316" id="-22743">
		<tag k="name" v="Småskallan" />
		<tag k="natural" v="shoal" />
		<tag k="place" v="locality" />
		<tag k="ssr:stedsnr" v="805124" />
	</node>
	<node lat="68.26959166753518" lon="15.02781667820603" id="-22746">
		<tag k="name" v="Trollskarholmen" />
		<tag k="place" v="islet" />
		<tag k="ssr:stedsnr" v="814180" />
	</node>
	<node lat="68.30003055890954" lon="15.03575276704316" id="-22750">
		<tag k="name" v="Valstrand" />
		<tag k="natural" v="beach" />
		<tag k="ssr:stedsnr" v="814904" />
	</node>
	<node lat="68.34228888733017" lon="14.12509999921558" id="-22760">
		<tag k="name" v="Alkostranda" />
		<tag k="natural" v="bay" />
		<tag k="ssr:stedsnr" v="828419" />
	</node>
	<node lat="68.35006111269983" lon="14.494561103653904" id="-22761">
		<tag k="name" v="Gjerdeodden" />
		<tag k="natural" v="cape" />
		<tag k="ssr:stedsnr" v="829915" />
	</node>
	<node lat="68.21933055832703" lon="14.536472234089425" id="-22767">
		<tag k="name" v="Stretarneset" />
		<tag k="natural" v="cape" />
		<tag k="ssr:stedsnr" v="833716" />
	</node>
	<node lat="68.25182499850885" lon="14.319819441004038" id="-22772">
		<tag k="name" v="Storodden" />
		<tag k="natural" v="cape" />
		<tag k="ssr:stedsnr" v="846678" />
	</node>
	<node lat="68.24063055695329" lon="14.262766669804119" id="-22774">
		<tag k="name" v="Feneset" />
		<tag k="natural" v="cape" />
		<tag k="ssr:stedsnr" v="848497" />
	</node>
	<node lat="67.6406666625269" lon="12.919197231179043" id="-22776">
		<tag k="name" v="Vestfjorden" />
		<tag k="place" v="sea" />
		<tag k="ssr:stedsnr" v="926139" />
	</node>
	<node lat="68.13781110693208" lon="14.070933327166605" id="-22777">
		<tag k="name" v="Sløkeskallen" />
		<tag k="natural" v="shoal" />
		<tag k="place" v="locality" />
		<tag k="ssr:stedsnr" v="927375" />
	</node>
	<node lat="68.13832777701118" lon="14.269705548437395" id="-22778">
		<tag k="fixme" v="consider seamark:type=rock or natural=shoal" />
		<tag k="name" v="Litlflesa" />
		<tag k="place" v="islet" />
		<tag k="ssr:stedsnr" v="927378" />
	</node>
	<node lat="68.2877805513197" lon="14.123397215806882" id="-22782">
		<tag k="alt_name" v="Sundklakkøya, yt" />
		<tag k="name" v="Ytre Sundklakkøya" />
		<tag k="place" v="islet" />
		<tag k="ssr:stedsnr" v="927061" />
	</node>
	<node lat="68.26250278022583" lon="14.18487223033483" id="-22788">
		<tag k="name" v="Leirneset" />
		<tag k="natural" v="cape" />
		<tag k="ssr:stedsnr" v="927145" />
	</node>
	<node lat="68.23131944845784" lon="15.076361122117357" id="-22793">
		<tag k="name" v="Flesa" />
		<tag k="place" v="islet" />
		<tag k="ssr:stedsnr" v="927074" />
	</node>
	<node lat="68.21116388850066" lon="14.726388888107158" id="-22796">
		<tag k="name" v="Skarvholman" />
		<tag k="place" v="islet" />
		<tag k="ssr:stedsnr" v="927234" />
	</node>
	<node lat="68.21227221897153" lon="14.698222217849521" id="-22797">
		<tag k="name" v="Måsøya" />
		<tag k="place" v="islet" />
		<tag k="ssr:stedsnr" v="927237" />
	</node>
	<node lat="68.14648888702732" lon="14.624869447833394" id="-22801">
		<tag k="name" v="Kvalhøgdgrunnen" />
		<tag k="natural" v="shoal" />
		<tag k="place" v="locality" />
		<tag k="ssr:stedsnr" v="927190" />
	</node>
	<node lat="68.16818611422129" lon="14.345163885149274" id="-22804">
		<tag k="name" v="Lamhoholmskallen" />
		<tag k="natural" v="shoal" />
		<tag k="place" v="locality" />
		<tag k="ssr:stedsnr" v="927422" />
	</node>
	<node lat="68.32371944769196" lon="14.48344444478444" id="-22805">
		<tag k="name" v="Haugoddan" />
		<tag k="natural" v="cape" />
		<tag k="ssr:stedsnr" v="927427" />
	</node>
	<node lat="68.33690277808738" lon="14.4414222215917" id="-22807">
		<tag k="name" v="Kolvika" />
		<tag k="natural" v="bay" />
		<tag k="ssr:stedsnr" v="927398" />
	</node>
	<node lat="68.17848610754821" lon="14.340488877678638" id="-22811">
		<tag k="alt_name" v="Litj Bremholmen" />
		<tag k="name" v="Bremausa" />
		<tag k="place" v="islet" />
		<tag k="ssr:stedsnr" v="927443" />
	</node>
	<node lat="68.36691666381577" lon="14.383638887265942" id="-22818">
		<tag k="fixme" v="consider seamark:type=rock or natural=shoal" />
		<tag k="name" v="Skarvskjæran" />
		<tag k="place" v="islet" />
		<tag k="ssr:stedsnr" v="927931" />
	</node>
	<node lat="68.36941388761765" lon="14.033275002640664" id="-22819">
		<tag k="name" v="Indrehella" />
		<tag k="natural" v="shoal" />
		<tag k="place" v="locality" />
		<tag k="ssr:stedsnr" v="927933" />
	</node>
	<node lat="68.37893333411014" lon="14.394911121788814" id="-22820">
		<tag k="fixme" v="multiple name tags, choose one and add the other to alt_name" />
		<tag k="name" v="Røssøya;Rosøya" />
		<tag k="place" v="island" />
		<tag k="ssr:stedsnr" v="927937" />
	</node>
	<node lat="68.3440638884796" lon="14.405891677484412" id="-22821">
		<tag k="fixme" v="multiple name tags, choose one and add the other to alt_name; consider seamark:type=rock or natural=shoal" />
		<tag k="name" v="Hårkallskjeret;Hårkallskjeran" />
		<tag k="place" v="islet" />
		<tag k="ssr:stedsnr" v="927893" />
	</node>
	<node lat="68.34491666374198" lon="14.152805543706476" id="-22822">
		<tag k="alt_name" v="Tissneset" />
		<tag k="name" v="Titsneset" />
		<tag k="natural" v="cape" />
		<tag k="ssr:stedsnr" v="927898" />
	</node>
	<node lat="68.3376638917115" lon="15.22121667654456" id="-22823">
		<tag k="name" v="Kalvhovudpollen" />
		<tag k="natural" v="bay" />
		<tag k="ssr:stedsnr" v="927980" />
	</node>
	<node lat="68.37648888928862" lon="14.038183343903889" id="-22824">
		<tag k="name" v="Stabben" />
		<tag k="natural" v="shoal" />
		<tag k="place" v="locality" />
		<tag k="ssr:stedsnr" v="927941" />
	</node>
	<node lat="68.33511389017548" lon="15.217405557600854" id="-22827">
		<tag k="name" v="Revikodden" />
		<tag k="natural" v="cape" />
		<tag k="ssr:stedsnr" v="867954" />
	</node>
	<node lat="68.18751111155485" lon="14.75768334084571" id="-22852">
		<tag k="name" v="Kallsøya" />
		<tag k="place" v="island" />
		<tag k="ssr:stedsnr" v="885704" />
	</node>
	<node lat="68.13720833436288" lon="14.65433056041138" id="-22853">
		<tag k="fixme" v="multiple name tags, choose one and add the other to alt_name" />
		<tag k="name" v="Båen;Bonden" />
		<tag k="natural" v="shoal" />
		<tag k="place" v="locality" />
		<tag k="ssr:stedsnr" v="885696" />
	</node>
	<node lat="68.22684444017624" lon="15.061552773929046" id="-22854">
		<tag k="name" v="Innergrunnen" />
		<tag k="natural" v="shoal" />
		<tag k="place" v="locality" />
		<tag k="ssr:stedsnr" v="886324" />
	</node>
	<node lat="68.2161194441348" lon="14.826438878353736" id="-22855">
		<tag k="name" v="Våtvikneset" />
		<tag k="natural" v="cape" />
		<tag k="ssr:stedsnr" v="886903" />
	</node>
	<node lat="68.25419166894937" lon="14.921275002486905" id="-22856">
		<tag k="name" v="Skarvstolodden" />
		<tag k="natural" v="cape" />
		<tag k="ssr:stedsnr" v="886959" />
	</node>
	<node lat="68.34749167019791" lon="14.487575006539837" id="-22858">
		<tag k="name" v="Langodden" />
		<tag k="natural" v="cape" />
		<tag k="ssr:stedsnr" v="889906" />
	</node>
	<node lat="68.22521110889224" lon="14.815280562296682" id="-22867">
		<tag k="name" v="Reinskallen" />
		<tag k="natural" v="shoal" />
		<tag k="place" v="locality" />
		<tag k="ssr:stedsnr" v="897060" />
	</node>
	<node lat="68.22226388980835" lon="14.795475011132575" id="-22868">
		<tag k="fixme" v="consider seamark:type=rock or natural=shoal" />
		<tag k="name" v="Hysskjæret" />
		<tag k="place" v="islet" />
		<tag k="ssr:stedsnr" v="897061" />
	</node>
	<node lat="68.15813889121095" lon="14.418816675369515" id="-22869">
		<tag k="name" v="Auster Moholmskallen" />
		<tag k="natural" v="shoal" />
		<tag k="place" v="locality" />
		<tag k="ssr:stedsnr" v="897425" />
	</node>
	<node lat="68.17569444386336" lon="14.399813877376307" id="-22870">
		<tag k="name" v="Auster Følfotskallen" />
		<tag k="natural" v="shoal" />
		<tag k="place" v="locality" />
		<tag k="ssr:stedsnr" v="897426" />
	</node>
	<node lat="68.27561666833995" lon="14.256116656309082" id="-22880">
		<tag k="fixme" v="consider seamark:type=rock or natural=shoal" />
		<tag k="name" v="Testamentet" />
		<tag k="place" v="islet" />
		<tag k="ssr:stedsnr" v="908329" />
	</node>
	<node lat="68.23304166844335" lon="14.817391661966745" id="-22881">
		<tag k="name" v="Våtvika" />
		<tag k="natural" v="bay" />
		<tag k="ssr:stedsnr" v="908860" />
	</node>
	<node lat="68.1725666700362" lon="14.441830556293786" id="-22888">
		<tag k="alt_name" v="Vester Skjolden" />
		<tag k="name" v="Vestreskjolden" />
		<tag k="natural" v="shoal" />
		<tag k="place" v="locality" />
		<tag k="ssr:stedsnr" v="927156" />
	</node>
	<node lat="68.18421944183662" lon="14.740213898006054" id="-22889">
		<tag k="name" v="Sildvika" />
		<tag k="natural" v="bay" />
		<tag k="ssr:stedsnr" v="927158" />
	</node>
	<node lat="68.17950000407133" lon="14.731725000420646" id="-22890">
		<tag k="name" v="Humpen" />
		<tag k="place" v="islet" />
		<tag k="ssr:stedsnr" v="927163" />
	</node>
	<node lat="68.23351944531896" lon="14.856002786077244" id="-22895">
		<tag k="name" v="Vedsanden" />
		<tag k="natural" v="bay" />
		<tag k="ssr:stedsnr" v="927208" />
	</node>
	<node lat="68.27988611282667" lon="14.321066661593315" id="-22896">
		<tag k="alt_name" v="Rystadskjæran" />
		<tag k="fixme" v="multiple name tags, choose one and add the other to alt_name; consider seamark:type=rock or natural=shoal" />
		<tag k="name" v="Rystadskjeret;Storholmen" />
		<tag k="place" v="islet" />
		<tag k="ssr:stedsnr" v="927221" />
	</node>
	<node lat="68.2464333376884" lon="15.0012000022628" id="-22898">
		<tag k="fixme" v="consider seamark:type=rock or natural=shoal" />
		<tag k="name" v="Dynskjæran" />
		<tag k="place" v="islet" />
		<tag k="ssr:stedsnr" v="927276" />
	</node>
	<node lat="68.30750277766894" lon="14.940727780376335" id="-22903">
		<tag k="name" v="Litlslåttholmen" />
		<tag k="place" v="islet" />
		<tag k="ssr:stedsnr" v="927507" />
	</node>
	<node lat="68.2269388852028" lon="14.199861105038142" id="-22909">
		<tag k="alt_name" v="Lilleøya" />
		<tag k="name" v="Litløya" />
		<tag k="place" v="island" />
		<tag k="ssr:stedsnr" v="927573" />
	</node>
	<node lat="68.25988611148875" lon="15.001125004759771" id="-22917">
		<tag k="name" v="Båtholmen" />
		<tag k="place" v="islet" />
		<tag k="ssr:stedsnr" v="927657" />
	</node>
	<node lat="68.33972778200895" lon="14.164580551951236" id="-22920">
		<tag k="fixme" v="multiple name tags, choose one and add the other to alt_name" />
		<tag k="name" v="Bugen;Vika" />
		<tag k="natural" v="bay" />
		<tag k="ssr:stedsnr" v="927903" />
	</node>
	<node lat="68.3565805535237" lon="14.184250008027142" id="-22921">
		<tag k="name" v="Einsteintørra" />
		<tag k="natural" v="shoal" />
		<tag k="place" v="locality" />
		<tag k="ssr:stedsnr" v="927922" />
	</node>
	<node lat="68.36060555545073" lon="14.127480562656181" id="-22922">
		<tag k="alt_name" v="Nord Pallan" />
		<tag k="name" v="Pallan" />
		<tag k="natural" v="shoal" />
		<tag k="place" v="locality" />
		<tag k="ssr:stedsnr" v="927930" />
	</node>
	<node lat="68.20643611243239" lon="14.820361105336556" id="-22925">
		<tag k="name" v="Slåttvika" />
		<tag k="natural" v="bay" />
		<tag k="ssr:stedsnr" v="927853" />
	</node>
	<node lat="68.30097499683637" lon="15.02964722653733" id="-22941">
		<tag k="name" v="Finnvika" />
		<tag k="natural" v="bay" />
		<tag k="ssr:stedsnr" v="935905" />
	</node>
	<node lat="68.34437222312317" lon="14.14804167703321" id="-22960">
		<tag k="name" v="Arvikneset" />
		<tag k="natural" v="cape" />
		<tag k="ssr:stedsnr" v="950432" />
	</node>
	<node lat="68.23351666676177" lon="14.586230555777481" id="-22968">
		<tag k="name" v="Risøysundet" />
		<tag k="natural" v="strait" />
		<tag k="ssr:stedsnr" v="954652" />
	</node>
	<node lat="68.13985833256733" lon="14.206766667054541" id="-22969">
		<tag k="name" v="Rødholmtaren" />
		<tag k="natural" v="shoal" />
		<tag k="place" v="locality" />
		<tag k="ssr:stedsnr" v="957320" />
	</node>
	<node lat="68.27803333354485" lon="14.144608323720838" id="-22970">
		<tag k="name" v="Storvika" />
		<tag k="natural" v="bay" />
		<tag k="ssr:stedsnr" v="966986" />
	</node>
	<node lat="68.36741388955191" lon="14.401538888058154" id="-22971">
		<tag k="name" v="Gåsholmen" />
		<tag k="place" v="islet" />
		<tag k="ssr:stedsnr" v="967703" />
	</node>
	<node lat="68.36081666959899" lon="14.393305549199985" id="-22973">
		<tag k="name" v="Lillelågværet" />
		<tag k="place" v="islet" />
		<tag k="ssr:stedsnr" v="967712" />
	</node>
	<node lat="68.37333333013339" lon="14.419277777490432" id="-22975">
		<tag k="name" v="Siriholmen" />
		<tag k="place" v="islet" />
		<tag k="ssr:stedsnr" v="967699" />
	</node>
	<node lat="68.28155277586704" lon="14.265391666685705" id="-22979">
		<tag k="name" v="Nesbukta" />
		<tag k="natural" v="bay" />
		<tag k="ssr:stedsnr" v="969315" />
	</node>
	<node lat="68.38776388624677" lon="14.419200000796902" id="-22980">
		<tag k="name" v="Smiodden" />
		<tag k="natural" v="cape" />
		<tag k="ssr:stedsnr" v="969547" />
	</node>
	<node lat="68.34399721961444" lon="14.433186108048911" id="-22981">
		<tag k="name" v="Kallsøysundet" />
		<tag k="natural" v="strait" />
		<tag k="ssr:stedsnr" v="969548" />
	</node>
	<node lat="68.32692777765749" lon="14.24929721340055" id="-23070">
		<tag k="fixme" v="multiple name tags, choose one and add the other to alt_name" />
		<tag k="name" v="Sandsøya;Storøya" />
		<tag k="place" v="island" />
		<tag k="ssr:stedsnr" v="16083" />
	</node>
	<node lat="68.33705555701589" lon="14.400005552924071" id="-23071">
		<tag k="alt_name" v="Sundlandsfjorden" />
		<tag k="bay" v="fjord" />
		<tag k="name" v="Sunnlandsfjorden" />
		<tag k="natural" v="bay" />
		<tag k="ssr:stedsnr" v="16050" />
	</node>
	<node lat="68.0929277815231" lon="14.223719442603379" id="-23077">
		<tag k="name" v="Vestskallen" />
		<tag k="natural" v="shoal" />
		<tag k="place" v="locality" />
		<tag k="ssr:stedsnr" v="17381" />
	</node>
	<node lat="68.10255832938303" lon="14.254177787331216" id="-23078">
		<tag k="alt_name" v="Breidskallan;Øvre Breidskallen" />
		<tag k="name" v="Breiskallen" />
		<tag k="natural" v="shoal" />
		<tag k="place" v="locality" />
		<tag k="ssr:stedsnr" v="17382" />
	</node>
	<node lat="68.13558055679387" lon="14.269847228981158" id="-23081">
		<tag k="name" v="Båskallan" />
		<tag k="natural" v="shoal" />
		<tag k="place" v="locality" />
		<tag k="ssr:stedsnr" v="17396" />
	</node>
	<node lat="68.36866944442295" lon="14.39416389940744" id="-23083">
		<tag k="name" v="Knutsøya" />
		<tag k="place" v="island" />
		<tag k="ssr:stedsnr" v="17931" />
	</node>
	<node lat="68.18336111002382" lon="14.695302780671383" id="-23085">
		<tag k="fixme" v="consider seamark:type=rock or natural=shoal" />
		<tag k="name" v="Svedskjæran" />
		<tag k="place" v="islet" />
		<tag k="ssr:stedsnr" v="17139" />
	</node>
	<node lat="68.25534722422071" lon="15.135886112638623" id="-23086">
		<tag k="name" v="Valværholmen" />
		<tag k="place" v="islet" />
		<tag k="ssr:stedsnr" v="17143" />
	</node>
	<node lat="68.1960277747244" lon="14.714049990825439" id="-23087">
		<tag k="name" v="Kleivmyrosen" />
		<tag k="natural" v="bay" />
		<tag k="ssr:stedsnr" v="17144" />
	</node>
	<node lat="68.22119444011577" lon="14.858327781676646" id="-23091">
		<tag k="fixme" v="consider seamark:type=rock or natural=shoal" />
		<tag k="name" v="Krabbungan" />
		<tag k="place" v="islet" />
		<tag k="ssr:stedsnr" v="17247" />
	</node>
	<node lat="68.22266667036045" lon="14.992283328896765" id="-23092">
		<tag k="fixme" v="consider seamark:type=rock or natural=shoal" />
		<tag k="name" v="Barden" />
		<tag k="place" v="islet" />
		<tag k="ssr:stedsnr" v="17249" />
	</node>
	<node lat="68.22075277488018" lon="14.951458329522513" id="-23096">
		<tag k="name" v="Oppsigskallen" />
		<tag k="natural" v="shoal" />
		<tag k="place" v="locality" />
		<tag k="ssr:stedsnr" v="17266" />
	</node>
	<node lat="68.39371944030593" lon="14.42958611556695" id="-23101">
		<tag k="name" v="Steinsvika" />
		<tag k="natural" v="bay" />
		<tag k="ssr:stedsnr" v="17333" />
	</node>
	<node lat="68.2352888868262" lon="14.790936120817861" id="-23102">
		<tag k="alt_name" v="Kjefsøya" />
		<tag k="name" v="Kjepsøya" />
		<tag k="place" v="island" />
		<tag k="ssr:stedsnr" v="17340" />
	</node>
	<node lat="68.17803333529108" lon="14.20874999770043" id="-23105">
		<tag k="name" v="Hammaren" />
		<tag k="natural" v="cape" />
		<tag k="ssr:stedsnr" v="17412" />
	</node>
	<node lat="68.33282499887925" lon="14.998174988562347" id="-23110">
		<tag k="fixme" v="multiple name tags, choose one and add the other to alt_name" />
		<tag k="name" v="Petterholmen;Ungsmaløya" />
		<tag k="place" v="islet" />
		<tag k="ssr:stedsnr" v="17438" />
	</node>
	<node lat="68.17682777605133" lon="14.373061111120325" id="-23111">
		<tag k="fixme" v="multiple name tags, choose one and add the other to alt_name; consider seamark:type=rock or natural=shoal" />
		<tag k="name" v="Følfoten;Storfølfoten" />
		<tag k="place" v="islet" />
		<tag k="ssr:stedsnr" v="17443" />
	</node>
	<node lat="68.29547777583352" lon="14.824283323266638" id="-23116">
		<tag k="name" v="Finnhamnen" />
		<tag k="natural" v="bay" />
		<tag k="ssr:stedsnr" v="17530" />
	</node>
	<node lat="68.29814721923631" lon="14.704624999841462" id="-23117">
		<tag k="name" v="Stordalsvika" />
		<tag k="natural" v="bay" />
		<tag k="ssr:stedsnr" v="17540" />
	</node>
	<node lat="68.30896388675991" lon="14.42466943763191" id="-23120">
		<tag k="name" v="Fiskneset" />
		<tag k="natural" v="cape" />
		<tag k="ssr:stedsnr" v="17556" />
	</node>
	<node lat="68.26864166367518" lon="14.811397220098591" id="-23124">
		<tag k="name" v="Sæterholmen" />
		<tag k="place" v="islet" />
		<tag k="ssr:stedsnr" v="17574" />
	</node>
	<node lat="68.23726110890088" lon="14.230219453115994" id="-23126">
		<tag k="alt_name" v="Leirneset" />
		<tag k="name" v="Leineset" />
		<tag k="natural" v="cape" />
		<tag k="ssr:stedsnr" v="17639" />
	</node>
	<node lat="68.34297777616838" lon="14.716791666854451" id="-23133">
		<tag k="alt_name" v="Kilvika" />
		<tag k="fixme" v="multiple name tags, choose one and add the other to alt_name" />
		<tag k="name" v="Kolvika;Kallvika" />
		<tag k="natural" v="bay" />
		<tag k="ssr:stedsnr" v="18056" />
	</node>
	<node lat="68.18536944483427" lon="14.684324999009291" id="-23153">
		<tag k="name" v="Lysgrunnen" />
		<tag k="natural" v="shoal" />
		<tag k="place" v="locality" />
		<tag k="ssr:stedsnr" v="35735" />
	</node>
	<node lat="68.26353888987758" lon="15.004983332090669" id="-23154">
		<tag k="name" v="Båtleden" />
		<tag k="natural" v="strait" />
		<tag k="ssr:stedsnr" v="36340" />
	</node>
	<node lat="68.21791388557061" lon="14.55685833738265" id="-23165">
		<tag k="name" v="Rødholmgrunnen" />
		<tag k="natural" v="shoal" />
		<tag k="place" v="locality" />
		<tag k="ssr:stedsnr" v="44713" />
	</node>
	<node lat="68.17703610983655" lon="14.362605563830492" id="-23166">
		<tag k="name" v="Djupbåen" />
		<tag k="natural" v="shoal" />
		<tag k="place" v="locality" />
		<tag k="ssr:stedsnr" v="47290" />
	</node>
	<node lat="68.16938332907496" lon="14.354986110517933" id="-23167">
		<tag k="name" v="Hella" />
		<tag k="natural" v="shoal" />
		<tag k="place" v="locality" />
		<tag k="ssr:stedsnr" v="47306" />
	</node>
	<node lat="68.24954999573127" lon="14.674227775376218" id="-23168">
		<tag k="name" v="Teisthauggrunnen" />
		<tag k="natural" v="shoal" />
		<tag k="place" v="locality" />
		<tag k="ssr:stedsnr" v="47166" />
	</node>
	<node lat="68.3049388878719" lon="14.264397222673768" id="-23169">
		<tag k="name" v="Vinfatet" />
		<tag k="natural" v="shoal" />
		<tag k="place" v="locality" />
		<tag k="ssr:stedsnr" v="47752" />
	</node>
	<node lat="68.28483055456707" lon="14.12727778717458" id="-23170">
		<tag k="name" v="Nåla" />
		<tag k="natural" v="strait" />
		<tag k="ssr:stedsnr" v="47895" />
	</node>
	<node lat="68.32311110990676" lon="14.08503055000155" id="-23171">
		<tag k="name" v="Nesan" />
		<tag k="natural" v="cape" />
		<tag k="ssr:stedsnr" v="55459" />
	</node>
	<node lat="68.25727222044291" lon="14.345202771929204" id="-23174">
		<tag k="name" v="Storneset" />
		<tag k="natural" v="cape" />
		<tag k="ssr:stedsnr" v="57659" />
	</node>
	<node lat="68.38075000179889" lon="14.401772229562722" id="-23176">
		<tag k="name" v="Rosøysundet" />
		<tag k="natural" v="strait" />
		<tag k="ssr:stedsnr" v="59550" />
	</node>
	<node lat="68.20016667024699" lon="14.474455550342507" id="-23187">
		<tag k="alt_name" v="Litjrekøya" />
		<tag k="name" v="Litlrekøya" />
		<tag k="place" v="islet" />
		<tag k="ssr:stedsnr" v="77234" />
	</node>
	<node lat="68.21172222419293" lon="14.801641674211162" id="-23188">
		<tag k="name" v="Vikavalen" />
		<tag k="natural" v="bay" />
		<tag k="ssr:stedsnr" v="77239" />
	</node>
	<node lat="68.32929444670287" lon="14.232033343898028" id="-23192">
		<tag k="fixme" v="consider seamark:type=rock or natural=shoal" />
		<tag k="name" v="Kua" />
		<tag k="place" v="islet" />
		<tag k="ssr:stedsnr" v="77095" />
	</node>
	<node lat="68.13572499906996" lon="14.17964167080262" id="-23195">
		<tag k="fixme" v="consider seamark:type=rock or natural=shoal" />
		<tag k="name" v="Stabben" />
		<tag k="place" v="islet" />
		<tag k="ssr:stedsnr" v="77374" />
	</node>
	<node lat="68.14242500274847" lon="14.271666666326174" id="-23196">
		<tag k="fixme" v="consider seamark:type=rock or natural=shoal" />
		<tag k="name" v="Storflesa" />
		<tag k="place" v="islet" />
		<tag k="ssr:stedsnr" v="77376" />
	</node>
	<node lat="68.14338333671306" lon="14.175794451176191" id="-23197">
		<tag k="name" v="Steinbitholmen" />
		<tag k="place" v="islet" />
		<tag k="ssr:stedsnr" v="77331" />
	</node>
	<node lat="68.14268055748501" lon="14.266411117254329" id="-23198">
		<tag k="alt_name" v="Breidskallen" />
		<tag k="name" v="Breiskallen" />
		<tag k="natural" v="shoal" />
		<tag k="place" v="locality" />
		<tag k="ssr:stedsnr" v="77346" />
	</node>
	<node lat="68.39007778118078" lon="14.40933610278379" id="-23201">
		<tag k="alt_name" v="Drangland" />
		<tag k="name" v="Dranglan" />
		<tag k="natural" v="cape" />
		<tag k="ssr:stedsnr" v="77929" />
	</node>
	<node lat="68.24936944550622" lon="15.062258339364728" id="-23202">
		<tag k="alt_name" v="Rotta, store" />
		<tag k="name" v="Store Rotta" />
		<tag k="place" v="islet" />
		<tag k="ssr:stedsnr" v="78071" />
	</node>
	<node lat="68.35610277529132" lon="14.389105554805317" id="-23203">
		<tag k="name" v="Risøya" />
		<tag k="place" v="island" />
		<tag k="ssr:stedsnr" v="78020" />
	</node>
	<node lat="68.29474166417099" lon="14.06411665736729" id="-23204">
		<tag k="alt_name" v="Skarvskjeran" />
		<tag k="fixme" v="consider seamark:type=rock or natural=shoal" />
		<tag k="name" v="Skarvskjæran" />
		<tag k="place" v="islet" />
		<tag k="ssr:stedsnr" v="78029" />
	</node>
	<node lat="68.30467499836708" lon="15.123102775680557" id="-23205">
		<tag k="name" v="Kunakken" />
		<tag k="natural" v="cape" />
		<tag k="ssr:stedsnr" v="78040" />
	</node>
	<node lat="68.31127499797412" lon="15.13919999206557" id="-23206">
		<tag k="name" v="Bukkholmen" />
		<tag k="place" v="islet" />
		<tag k="ssr:stedsnr" v="78044" />
	</node>
	<node lat="68.22498055606388" lon="14.865380564799054" id="-23213">
		<tag k="fixme" v="multiple name tags, choose one and add the other to alt_name" />
		<tag k="name" v="Brettesnesnakken;Nakken" />
		<tag k="natural" v="cape" />
		<tag k="ssr:stedsnr" v="78220" />
	</node>
	<node lat="68.29262500137692" lon="14.308236114456275" id="-23214">
		<tag k="name" v="Gjertrudvika" />
		<tag k="natural" v="bay" />
		<tag k="ssr:stedsnr" v="78224" />
	</node>
	<node lat="68.21919721957521" lon="14.845816656755341" id="-23216">
		<tag k="fixme" v="consider seamark:type=rock or natural=shoal" />
		<tag k="name" v="Draugen" />
		<tag k="place" v="islet" />
		<tag k="ssr:stedsnr" v="78231" />
	</node>
	<node lat="68.21874444009624" lon="14.858622230413078" id="-23217">
		<tag k="fixme" v="consider seamark:type=rock or natural=shoal" />
		<tag k="name" v="Kallskjæret" />
		<tag k="place" v="islet" />
		<tag k="ssr:stedsnr" v="78233" />
	</node>
	<node lat="68.22323333595398" lon="15.057424999354335" id="-23219">
		<tag k="fixme" v="consider seamark:type=rock or natural=shoal" />
		<tag k="name" v="Innerskjæret" />
		<tag k="place" v="islet" />
		<tag k="ssr:stedsnr" v="78183" />
	</node>
	<node lat="68.14778611127917" lon="14.665149989613994" id="-23220">
		<tag k="alt_name" v="Meskallen, austre" />
		<tag k="name" v="Austre Meskallen" />
		<tag k="natural" v="shoal" />
		<tag k="place" v="locality" />
		<tag k="ssr:stedsnr" v="78184" />
	</node>
	<node lat="68.15138333664652" lon="14.604177771905247" id="-23221">
		<tag k="name" v="Steffenskallen" />
		<tag k="natural" v="shoal" />
		<tag k="place" v="locality" />
		<tag k="ssr:stedsnr" v="78190" />
	</node>
	<node lat="68.15703055805082" lon="14.711786115826007" id="-23222">
		<tag k="name" v="Nautøyskallen" />
		<tag k="natural" v="shoal" />
		<tag k="place" v="locality" />
		<tag k="ssr:stedsnr" v="78193" />
	</node>
	<node lat="68.39263055372999" lon="14.552502783678475" id="-23223">
		<tag k="bay" v="fjord" />
		<tag k="name" v="Grunnførfjorden" />
		<tag k="natural" v="bay" />
		<tag k="ssr:stedsnr" v="78278" />
	</node>
	<node lat="68.22643610805257" lon="14.705902787549727" id="-23229">
		<tag k="fixme" v="consider seamark:type=rock or natural=shoal" />
		<tag k="name" v="Hanskjæret" />
		<tag k="place" v="islet" />
		<tag k="ssr:stedsnr" v="78301" />
	</node>
	<node lat="68.32456667028626" lon="14.920341660220878" id="-23233">
		<tag k="name" v="Steinneset" />
		<tag k="natural" v="cape" />
		<tag k="ssr:stedsnr" v="78527" />
	</node>
	<node lat="68.29679999760938" lon="14.991130550788306" id="-23239">
		<tag k="name" v="Klubbholmen" />
		<tag k="place" v="islet" />
		<tag k="ssr:stedsnr" v="78591" />
	</node>
	<node lat="68.19995000459303" lon="14.19462499430642" id="-23241">
		<tag k="name" v="Rørvikbåan" />
		<tag k="natural" v="shoal" />
		<tag k="place" v="locality" />
		<tag k="ssr:stedsnr" v="229271" />
	</node>
	<node lat="68.20905277743952" lon="14.506119434637874" id="-23242">
		<tag k="fixme" v="consider seamark:type=rock or natural=shoal" />
		<tag k="name" v="Tendringskjæret" />
		<tag k="place" v="islet" />
		<tag k="ssr:stedsnr" v="229443" />
	</node>
	<node lat="68.24109166924121" lon="14.58193610906182" id="-23279">
		<tag k="fixme" v="consider seamark:type=rock or natural=shoal" />
		<tag k="name" v="Innstadvikskjæran" />
		<tag k="place" v="islet" />
		<tag k="ssr:stedsnr" v="105704" />
	</node>
	<node lat="68.32834444232846" lon="14.702874996180112" id="-23281">
		<tag k="fixme" v="consider seamark:type=rock or natural=shoal" />
		<tag k="name" v="Skjærodden" />
		<tag k="place" v="islet" />
		<tag k="ssr:stedsnr" v="116352" />
	</node>
	<node lat="68.31143055721328" lon="14.410499991770104" id="-23282">
		<tag k="name" v="Kvanndalsneset" />
		<tag k="natural" v="cape" />
		<tag k="ssr:stedsnr" v="118702" />
	</node>
	<node lat="68.33063889146867" lon="14.250388878304875" id="-23286">
		<tag k="name" v="Sandsøyan" />
		<tag k="place" v="island" />
		<tag k="ssr:stedsnr" v="119288" />
	</node>
	<node lat="68.27630278113412" lon="14.289988893892728" id="-23290">
		<tag k="name" v="Korsan" />
		<tag k="natural" v="bay" />
		<tag k="ssr:stedsnr" v="119316" />
	</node>
	<node lat="68.39533055553795" lon="14.450255560583615" id="-23292">
		<tag k="name" v="Båtvika" />
		<tag k="natural" v="bay" />
		<tag k="ssr:stedsnr" v="119562" />
	</node>
	<node lat="68.3193444410879" lon="14.99907776456169" id="-23294">
		<tag k="name" v="Osen" />
		<tag k="natural" v="cape" />
		<tag k="ssr:stedsnr" v="120234" />
	</node>
	<node lat="68.15612499787619" lon="14.403724990932952" id="-23302">
		<tag k="name" v="Moholman" />
		<tag k="place" v="islet" />
		<tag k="ssr:stedsnr" v="137326" />
	</node>
	<node lat="68.24584444427767" lon="15.114341665069974" id="-23309">
		<tag k="name" v="Kjelan" />
		<tag k="natural" v="shoal" />
		<tag k="place" v="locality" />
		<tag k="ssr:stedsnr" v="138079" />
	</node>
	<node lat="68.31516111060377" lon="14.05685000056067" id="-23310">
		<tag k="name" v="Hysberget" />
		<tag k="natural" v="cape" />
		<tag k="ssr:stedsnr" v="138121" />
	</node>
	<node lat="68.20968055721187" lon="14.527347215880784" id="-23313">
		<tag k="name" v="Hengfallbåen" />
		<tag k="natural" v="shoal" />
		<tag k="place" v="locality" />
		<tag k="ssr:stedsnr" v="138240" />
	</node>
	<node lat="68.1841999984253" lon="14.721794445298347" id="-23322">
		<tag k="name" v="Bortreøya" />
		<tag k="place" v="island" />
		<tag k="ssr:stedsnr" v="138172" />
	</node>
	<node lat="68.18401551614993" lon="14.74462182968757" id="-23323">
		<tag k="name" v="Gulbrandsøya" />
		<tag k="place" v="island" />
		<tag k="ssr:stedsnr" v="138176" />
	</node>
	<node lat="68.17333889312212" lon="14.36114444979829" id="-23330">
		<tag k="name" v="Bremholmsundet" />
		<tag k="natural" v="strait" />
		<tag k="ssr:stedsnr" v="138421" />
	</node>
	<node lat="68.32443610902595" lon="15.005999994416943" id="-23336">
		<tag k="name" v="Alteret" />
		<tag k="natural" v="cape" />
		<tag k="ssr:stedsnr" v="138548" />
	</node>
	<node lat="68.29783611190467" lon="14.839191668305563" id="-23337">
		<tag k="name" v="Kveitvika" />
		<tag k="natural" v="bay" />
		<tag k="ssr:stedsnr" v="138522" />
	</node>
	<node lat="68.26317777648747" lon="14.80207778810404" id="-23344">
		<tag k="alt_name" v="Heggdalsholmen;Heggedalsholman" />
		<tag k="name" v="Heggedalsholmen" />
		<tag k="place" v="islet" />
		<tag k="ssr:stedsnr" v="138670" />
	</node>
	<node lat="68.27381944573543" lon="14.82028611725838" id="-23348">
		<tag k="name" v="Krokneset" />
		<tag k="natural" v="cape" />
		<tag k="ssr:stedsnr" v="138564" />
	</node>
	<node lat="68.28143055266324" lon="14.951224991815922" id="-23353">
		<tag k="name" v="Råvika" />
		<tag k="natural" v="bay" />
		<tag k="ssr:stedsnr" v="138580" />
	</node>
	<node lat="68.25769166970727" lon="14.795594453426176" id="-23354">
		<tag k="alt_name" v="Hundbergholmen" />
		<tag k="name" v="Hundbergholman" />
		<tag k="place" v="islet" />
		<tag k="ssr:stedsnr" v="138700" />
	</node>
	<node lat="68.26313333521357" lon="15.013291656916795" id="-23370">
		<tag k="name" v="Andklakken" />
		<tag k="natural" v="shoal" />
		<tag k="ssr:stedsnr" v="146189" />
	</node>
	<node lat="68.27246110892982" lon="15.034166672218511" id="-23375">
		<tag k="name" v="Hestvika" />
		<tag k="natural" v="bay" />
		<tag k="ssr:stedsnr" v="146150" />
	</node>
	<node lat="68.29577222004518" lon="15.002325001047376" id="-23397">
		<tag k="name" v="Smellbåan" />
		<tag k="place" v="locality" />
		<tag k="seamark:type" v="rock" />
		<tag k="ssr:stedsnr" v="157240" />
	</node>
	<node lat="68.26329999751695" lon="14.957972220800716" id="-23398">
		<tag k="name" v="Sundsetskallen" />
		<tag k="natural" v="shoal" />
		<tag k="place" v="locality" />
		<tag k="ssr:stedsnr" v="157976" />
	</node>
	<node lat="68.33018333428258" lon="14.497500007600287" id="-23408">
		<tag k="name" v="Lilleelvneset" />
		<tag k="natural" v="cape" />
		<tag k="ssr:stedsnr" v="163893" />
	</node>
	<node lat="68.09807777969814" lon="14.2616555512449" id="-23415">
		<tag k="alt_name" v="Indre Breidskallen" />
		<tag k="name" v="Indre Breiskallen" />
		<tag k="natural" v="shoal" />
		<tag k="place" v="locality" />
		<tag k="ssr:stedsnr" v="168327" />
	</node>
	<node lat="68.28924721829323" lon="14.696963890883788" id="-23417">
		<tag k="name" v="Steinkjerringa" />
		<tag k="natural" v="cape" />
		<tag k="ssr:stedsnr" v="177826" />
	</node>
	<node lat="68.35886944604466" lon="14.397680554479829" id="-23419">
		<tag k="name" v="Storlågværet" />
		<tag k="place" v="islet" />
		<tag k="ssr:stedsnr" v="179737" />
	</node>
	<node lat="68.33766111271754" lon="14.328230554657692" id="-23420">
		<tag k="name" v="Festvåghalsen" />
		<tag k="natural" v="cape" />
		<tag k="ssr:stedsnr" v="179741" />
	</node>
	<node lat="68.24915833214435" lon="14.325944448517602" id="-23423">
		<tag k="name" v="Storvikodden" />
		<tag k="natural" v="cape" />
		<tag k="ssr:stedsnr" v="179688" />
	</node>
	<node lat="68.34915833187438" lon="14.40816388660027" id="-23429">
		<tag k="name" v="Sandøysundet" />
		<tag k="natural" v="strait" />
		<tag k="ssr:stedsnr" v="180532" />
	</node>
	<node lat="68.38341111433076" lon="14.38854167945587" id="-23432">
		<tag k="fixme" v="consider seamark:type=rock or natural=shoal" />
		<tag k="name" v="Haugøybaren" />
		<tag k="place" v="islet" />
		<tag k="ssr:stedsnr" v="180544" />
	</node>
	<node lat="68.34247500319087" lon="14.168436104218472" id="-23437">
		<tag k="alt_name" v="Jomfruen" />
		<tag k="fixme" v="consider seamark:type=rock or natural=shoal" />
		<tag k="name" v="Jomfruene" />
		<tag k="place" v="islet" />
		<tag k="ssr:stedsnr" v="199886" />
	</node>
	<node lat="68.34613055388954" lon="14.295322233938517" id="-23438">
		<tag k="name" v="Brennbåen" />
		<tag k="natural" v="shoal" />
		<tag k="place" v="locality" />
		<tag k="ssr:stedsnr" v="199889" />
	</node>
	<node lat="68.34118611387271" lon="14.10989444645515" id="-23439">
		<tag k="name" v="Skjånesodden" />
		<tag k="natural" v="cape" />
		<tag k="ssr:stedsnr" v="199893" />
	</node>
	<node lat="68.32109166564749" lon="14.077855556264673" id="-23442">
		<tag k="name" v="Hestvikleira" />
		<tag k="natural" v="bay" />
		<tag k="ssr:stedsnr" v="199116" />
	</node>
	<node lat="68.299469448615" lon="15.02485556068008" id="-23445">
		<tag k="name" v="Valvågen" />
		<tag k="natural" v="bay" />
		<tag k="ssr:stedsnr" v="199087" />
	</node>
	<node lat="68.24034166392225" lon="15.06604723057324" id="-23446">
		<tag k="name" v="Stabben" />
		<tag k="natural" v="shoal" />
		<tag k="place" v="locality" />
		<tag k="ssr:stedsnr" v="199094" />
	</node>
	<node lat="68.23025833305385" lon="15.038863881351311" id="-23447">
		<tag k="name" v="Bukken" />
		<tag k="natural" v="shoal" />
		<tag k="place" v="locality" />
		<tag k="ssr:stedsnr" v="199097" />
	</node>
	<node lat="68.26897222064277" lon="15.070244450643699" id="-23451">
		<tag k="alt_name" v="Solliholman" />
		<tag k="name" v="Soleiholman" />
		<tag k="place" v="islet" />
		<tag k="ssr:stedsnr" v="199128" />
	</node>
	<node lat="68.26020555563139" lon="15.061188882577673" id="-23453">
		<tag k="alt_name" v="Steinsøya, store" />
		<tag k="name" v="Store Steinsøya" />
		<tag k="old_name" v="Steinsøya" />
		<tag k="place" v="island" />
		<tag k="ssr:stedsnr" v="199137" />
	</node>
	<node lat="68.31980555434089" lon="14.309422223984825" id="-23454">
		<tag k="name" v="Vassulneset" />
		<tag k="natural" v="cape" />
		<tag k="ssr:stedsnr" v="199145" />
	</node>
	<node lat="68.33070555469371" lon="14.469241672047215" id="-23458">
		<tag k="alt_name" v="Skilsteinøya" />
		<tag k="name" v="Skjellsteinøya" />
		<tag k="place" v="islet" />
		<tag k="ssr:stedsnr" v="199426" />
	</node>
	<node lat="68.40772499982313" lon="14.522544433512925" id="-23460">
		<tag k="name" v="Stabben" />
		<tag k="natural" v="shoal" />
		<tag k="place" v="locality" />
		<tag k="ssr:stedsnr" v="199279" />
	</node>
	<node lat="68.22985555669479" lon="14.716138881721974" id="-23462">
		<tag k="name" v="Draget" />
		<tag k="place" v="islet" />
		<tag k="ssr:stedsnr" v="199300" />
	</node>
	<node lat="68.27944444408787" lon="14.67570832332131" id="-23477">
		<tag k="bay" v="fjord" />
		<tag k="name" v="Vatterfjorden" />
		<tag k="natural" v="bay" />
		<tag k="ssr:stedsnr" v="199634" />
	</node>
	<node lat="68.26153610931016" lon="15.004519447866304" id="-23484">
		<tag k="alt_name" v="Våtholmen" />
		<tag k="name" v="Vottholmen" />
		<tag k="place" v="islet" />
		<tag k="ssr:stedsnr" v="199678" />
	</node>
	<node lat="68.25601111117628" lon="14.772049993199888" id="-23488">
		<tag k="fixme" v="multiple name tags, choose one and add the other to alt_name" />
		<tag k="name" v="Hysholmen;Hysskjæret" />
		<tag k="place" v="islet" />
		<tag k="ssr:stedsnr" v="199701" />
	</node>
	<node lat="68.38310277698426" lon="14.112788894249007" id="-23490">
		<tag k="name" v="Djupleia" />
		<tag k="natural" v="strait" />
		<tag k="ssr:stedsnr" v="199931" />
	</node>
	<node lat="68.38540555214553" lon="14.160394442505407" id="-23491">
		<tag k="name" v="Storskuvingen" />
		<tag k="natural" v="shoal" />
		<tag k="place" v="locality" />
		<tag k="ssr:stedsnr" v="199934" />
	</node>
	<node lat="68.3773138853505" lon="14.053147212076805" id="-23492">
		<tag k="name" v="Rotsteinen" />
		<tag k="natural" v="shoal" />
		<tag k="place" v="locality" />
		<tag k="ssr:stedsnr" v="199935" />
	</node>
	<node lat="68.3341500032469" lon="15.027352780574486" id="-23493">
		<tag k="name" v="Storneset" />
		<tag k="natural" v="cape" />
		<tag k="ssr:stedsnr" v="200033" />
	</node>
	<node lat="68.26860555786499" lon="15.008702771368734" id="-23497">
		<tag k="name" v="Osen" />
		<tag k="natural" v="bay" />
		<tag k="ssr:stedsnr" v="207165" />
	</node>
	<node lat="68.30088888901416" lon="15.080324990601083" id="-23501">
		<tag k="name" v="Vikerholmen" />
		<tag k="place" v="islet" />
		<tag k="ssr:stedsnr" v="208623" />
	</node>
	<node lat="68.24170555310496" lon="15.023786098169499" id="-23521">
		<tag k="name" v="Skråpen" />
		<tag k="place" v="locality" />
		<tag k="seamark:type" v="rock" />
		<tag k="ssr:stedsnr" v="218336" />
	</node>
	<node lat="68.25648888615643" lon="15.015625009841546" id="-23522">
		<tag k="name" v="Hella" />
		<tag k="place" v="locality" />
		<tag k="seamark:type" v="rock" />
		<tag k="ssr:stedsnr" v="218358" />
	</node>
	<node lat="68.27980832925726" lon="14.947844449367665" id="-23523">
		<tag k="name" v="Råvikskallen" />
		<tag k="natural" v="shoal" />
		<tag k="place" v="locality" />
		<tag k="ssr:stedsnr" v="218950" />
	</node>
	<node lat="68.23713333084615" lon="14.599508332087025" id="-23529">
		<tag k="name" v="Austerløpet" />
		<tag k="natural" v="strait" />
		<tag k="ssr:stedsnr" v="226719" />
	</node>
	<node lat="68.2394499960026" lon="14.584697222347458" id="-23530">
		<tag k="name" v="Høgøysundet" />
		<tag k="natural" v="strait" />
		<tag k="ssr:stedsnr" v="226723" />
	</node>
	<node lat="68.23957222151176" lon="14.579641667191165" id="-23531">
		<tag k="name" v="Store Brannholmen" />
		<tag k="place" v="islet" />
		<tag k="ssr:stedsnr" v="226726" />
	</node>
	<node lat="68.22500277778107" lon="14.544327774746979" id="-23532">
		<tag k="fixme" v="consider seamark:type=rock or natural=shoal" />
		<tag k="name" v="Salttønna" />
		<tag k="place" v="islet" />
		<tag k="ssr:stedsnr" v="226758" />
	</node>
	<node lat="68.31429444150434" lon="14.944419433911165" id="-23534">
		<tag k="name" v="Mollgavlskallen" />
		<tag k="natural" v="shoal" />
		<tag k="place" v="locality" />
		<tag k="ssr:stedsnr" v="279397" />
	</node>
	<node lat="68.25568055588263" lon="15.011997231861024" id="-23535">
		<tag k="name" v="Flagflua" />
		<tag k="place" v="locality" />
		<tag k="seamark:type" v="rock" />
		<tag k="ssr:stedsnr" v="279361" />
	</node>
	<node lat="68.29604721967698" lon="14.959752782114652" id="-23536">
		<tag k="name" v="Penkneset" />
		<tag k="natural" v="cape" />
		<tag k="ssr:stedsnr" v="279956" />
	</node>
	<node lat="68.35163333277691" lon="14.480897212320345" id="-23539">
		<tag k="name" v="Sørlenningan" />
		<tag k="natural" v="bay" />
		<tag k="ssr:stedsnr" v="283916" />
	</node>
	<node lat="68.35029166942505" lon="14.465141657746686" id="-23540">
		<tag k="name" v="Tomneset" />
		<tag k="natural" v="cape" />
		<tag k="ssr:stedsnr" v="283919" />
	</node>
	<node lat="68.29756110788567" lon="14.311430562981867" id="-23549">
		<tag k="name" v="Kvalvika" />
		<tag k="natural" v="bay" />
		<tag k="ssr:stedsnr" v="300732" />
	</node>
	<node lat="68.37374166858437" lon="14.410344443995786" id="-23550">
		<tag k="name" v="Kartholmen" />
		<tag k="place" v="islet" />
		<tag k="ssr:stedsnr" v="300743" />
	</node>
	<node lat="68.39323611338345" lon="14.42229721235449" id="-23556">
		<tag k="name" v="Kvalvika" />
		<tag k="natural" v="bay" />
		<tag k="ssr:stedsnr" v="302521" />
	</node>
	<node lat="68.38963611374909" lon="14.403652767276565" id="-23557">
		<tag k="name" v="Godvettersundet" />
		<tag k="natural" v="bay" />
		<tag k="ssr:stedsnr" v="302528" />
	</node>
	<node lat="68.23660000113688" lon="14.807819438345213" id="-23560">
		<tag k="name" v="Kjefsøyvalen" />
		<tag k="natural" v="strait" />
		<tag k="ssr:stedsnr" v="302858" />
	</node>
	<node lat="68.33088055218582" lon="14.712402774076272" id="-23561">
		<tag k="name" v="Ørnvikodden" />
		<tag k="natural" v="cape" />
		<tag k="ssr:stedsnr" v="302859" />
	</node>
	<node lat="68.21503333752894" lon="14.666488886837746" id="-23566">
		<tag k="fixme" v="consider seamark:type=rock or natural=shoal" />
		<tag k="name" v="Sjurdbåan" />
		<tag k="place" v="islet" />
		<tag k="ssr:stedsnr" v="320224" />
	</node>
	<node lat="68.14774722328" lon="14.173544438626603" id="-23567">
		<tag k="alt_name" v="Breidskalløya" />
		<tag k="name" v="Breiskalløya" />
		<tag k="place" v="islet" />
		<tag k="ssr:stedsnr" v="320319" />
	</node>
	<node lat="68.14646944467475" lon="14.670391657554402" id="-23573">
		<tag k="name" v="Saltværsleia" />
		<tag k="natural" v="strait" />
		<tag k="ssr:stedsnr" v="320181" />
	</node>
	<node lat="68.40565833655391" lon="14.518474990976035" id="-23577">
		<tag k="fixme" v="multiple name tags, choose one and add the other to alt_name" />
		<tag k="name" v="Delpneset;Nesodden" />
		<tag k="natural" v="cape" />
		<tag k="ssr:stedsnr" v="320264" />
	</node>
	<node lat="68.24498611448857" lon="14.777213882224023" id="-23582">
		<tag k="name" v="Risøya" />
		<tag k="place" v="island" />
		<tag k="ssr:stedsnr" v="320276" />
	</node>
	<node lat="68.29034444016969" lon="14.133269442069885" id="-23586">
		<tag k="name" v="Hamnøyan" />
		<tag k="place" v="islet" />
		<tag k="ssr:stedsnr" v="320059" />
	</node>
	<node lat="68.24961667035093" lon="15.077183334566099" id="-23587">
		<tag k="name" v="Langdraget" />
		<tag k="place" v="islet" />
		<tag k="ssr:stedsnr" v="320062" />
	</node>
	<node lat="68.37535278090019" lon="14.435955546171392" id="-23592">
		<tag k="name" v="Årrvika" />
		<tag k="natural" v="bay" />
		<tag k="ssr:stedsnr" v="320477" />
	</node>
	<node lat="68.13731111121515" lon="14.135811100135289" id="-23604">
		<tag k="fixme" v="consider seamark:type=rock or natural=shoal" />
		<tag k="name" v="Stampen" />
		<tag k="place" v="islet" />
		<tag k="ssr:stedsnr" v="320361" />
	</node>
	<node lat="68.1249249982629" lon="14.091361104408586" id="-23606">
		<tag k="name" v="Vestværbakken" />
		<tag k="natural" v="shoal" />
		<tag k="place" v="locality" />
		<tag k="ssr:stedsnr" v="320373" />
	</node>
	<node lat="68.17107777732917" lon="14.361219437223552" id="-23607">
		<tag k="alt_name" v="Stor Bremholmen" />
		<tag k="name" v="Bremholman" />
		<tag k="place" v="islet" />
		<tag k="ssr:stedsnr" v="320416" />
	</node>
	<node lat="68.17158333138022" lon="14.353336112124039" id="-23609">
		<tag k="name" v="Lamholmen" />
		<tag k="place" v="islet" />
		<tag k="ssr:stedsnr" v="320421" />
	</node>
	<node lat="68.33524166393453" lon="14.75152499561192" id="-23610">
		<tag k="alt_name" v="Skjånesodden" />
		<tag k="name" v="Skjåneset" />
		<tag k="natural" v="cape" />
		<tag k="ssr:stedsnr" v="320422" />
	</node>
	<node lat="68.27695833649395" lon="14.686402781850335" id="-23612">
		<tag k="name" v="Vatterøya" />
		<tag k="place" v="island" />
		<tag k="ssr:stedsnr" v="320552" />
	</node>
	<node lat="68.27732777765759" lon="14.94035833631257" id="-23614">
		<tag k="name" v="Taterholmen" />
		<tag k="place" v="islet" />
		<tag k="ssr:stedsnr" v="320564" />
	</node>
	<node lat="68.2769194483505" lon="14.901850005311907" id="-23619">
		<tag k="alt_name" v="Ulvågen" />
		<tag k="bay" v="fjord" />
		<tag k="name" v="Ulvågfjorden" />
		<tag k="natural" v="bay" />
		<tag k="ssr:stedsnr" v="320579" />
	</node>
	<node lat="68.25025833050802" lon="14.72381666013893" id="-23621">
		<tag k="name" v="Vestrebarden" />
		<tag k="place" v="islet" />
		<tag k="ssr:stedsnr" v="320655" />
	</node>
	<node lat="68.25105555121515" lon="14.783636117653295" id="-23623">
		<tag k="name" v="Sandøya" />
		<tag k="place" v="islet" />
		<tag k="ssr:stedsnr" v="320661" />
	</node>
	<node lat="68.25263333284893" lon="14.795397217645078" id="-23624">
		<tag k="name" v="Gåsholmen" />
		<tag k="place" v="islet" />
		<tag k="ssr:stedsnr" v="320663" />
	</node>
	<node lat="68.37921111249992" lon="14.156519447464914" id="-23626">
		<tag k="name" v="Litlskuvingen" />
		<tag k="natural" v="shoal" />
		<tag k="place" v="locality" />
		<tag k="ssr:stedsnr" v="320930" />
	</node>
	<node lat="68.3363222182681" lon="15.225186107960294" id="-23632">
		<tag k="name" v="Kalvhovudet" />
		<tag k="natural" v="cape" />
		<tag k="ssr:stedsnr" v="320967" />
	</node>
	<node lat="68.30414444365549" lon="15.06542776955962" id="-23643">
		<tag k="name" v="Kåvika" />
		<tag k="natural" v="bay" />
		<tag k="ssr:stedsnr" v="329615" />
	</node>
	<node lat="68.15916388677722" lon="14.621602770627447" id="-23654">
		<tag k="name" v="Leiskallen" />
		<tag k="natural" v="shoal" />
		<tag k="place" v="locality" />
		<tag k="ssr:stedsnr" v="338676" />
	</node>
	<node lat="68.29571944063724" lon="14.993991663717114" id="-23655">
		<tag k="name" v="Valbåan" />
		<tag k="place" v="locality" />
		<tag k="seamark:type" v="rock" />
		<tag k="ssr:stedsnr" v="339267" />
	</node>
	<node lat="68.34836389216558" lon="14.485563881161033" id="-23657">
		<tag k="name" v="Skonessundet" />
		<tag k="natural" v="strait" />
		<tag k="ssr:stedsnr" v="343924" />
	</node>
	<node lat="68.32226666404632" lon="14.478025008608968" id="-23663">
		<tag k="name" v="Hundholmen" />
		<tag k="place" v="islet" />
		<tag k="ssr:stedsnr" v="345882" />
	</node>
	<node lat="68.23119166210154" lon="14.557833343458967" id="-23664">
		<tag k="name" v="Skjæret" />
		<tag k="natural" v="cape" />
		<tag k="ssr:stedsnr" v="347669" />
	</node>
	<node lat="68.18636388871089" lon="14.362227774964316" id="-23666">
		<tag k="name" v="Brødran" />
		<tag k="natural" v="shoal" />
		<tag k="place" v="locality" />
		<tag k="ssr:stedsnr" v="350263" />
	</node>
	<node lat="68.16923888512213" lon="14.438538882963032" id="-23668">
		<tag k="name" v="Litlskallen" />
		<tag k="natural" v="shoal" />
		<tag k="place" v="locality" />
		<tag k="ssr:stedsnr" v="350422" />
	</node>
	<node lat="68.19043055364112" lon="14.196069455858433" id="-23669">
		<tag k="fixme" v="consider seamark:type=rock or natural=shoal" />
		<tag k="name" v="Spanna" />
		<tag k="place" v="islet" />
		<tag k="ssr:stedsnr" v="350838" />
	</node>
	<node lat="68.26095832923177" lon="14.380277768667229" id="-23674">
		<tag k="name" v="Olderfjordbotn" />
		<tag k="natural" v="bay" />
		<tag k="ssr:stedsnr" v="360676" />
	</node>
	<node lat="68.36445555337177" lon="14.419844446175135" id="-23680">
		<tag k="name" v="Årvika" />
		<tag k="natural" v="bay" />
		<tag k="ssr:stedsnr" v="360723" />
	</node>
	<node lat="68.27673889051125" lon="14.280486118517798" id="-23682">
		<tag k="fixme" v="consider seamark:type=rock or natural=shoal" />
		<tag k="name" v="Kobbsteinan" />
		<tag k="place" v="islet" />
		<tag k="ssr:stedsnr" v="362322" />
	</node>
	<node lat="68.24809999954077" lon="14.773022223106471" id="-23686">
		<tag k="alt_name" v="Stor Bukkøyan" />
		<tag k="name" v="Storbukkøya" />
		<tag k="place" v="islet" />
		<tag k="ssr:stedsnr" v="362851" />
	</node>
	<node lat="68.14047499993178" lon="14.060863890781135" id="-23688">
		<tag k="bay" v="fjord" />
		<tag k="name" v="Henningsværstraumen" />
		<tag k="natural" v="bay" />
		<tag k="ssr:stedsnr" v="380366" />
	</node>
	<node lat="68.17668333700321" lon="14.638766671069668" id="-23693">
		<tag k="name" v="Rødholmskallen" />
		<tag k="natural" v="shoal" />
		<tag k="place" v="locality" />
		<tag k="ssr:stedsnr" v="380143" />
	</node>
	<node lat="68.20243611489146" lon="14.704366660787468" id="-23694">
		<tag k="alt_name" v="Vikbåan" />
		<tag k="name" v="Vikabåen" />
		<tag k="natural" v="shoal" />
		<tag k="place" v="locality" />
		<tag k="ssr:stedsnr" v="380230" />
	</node>
	<node lat="68.32453888728666" lon="14.317116655470304" id="-23696">
		<tag k="name" v="Sandvikneset" />
		<tag k="natural" v="cape" />
		<tag k="ssr:stedsnr" v="380101" />
	</node>
	<node lat="68.39856111579678" lon="14.486933324511641" id="-23698">
		<tag k="fixme" v="consider seamark:type=rock or natural=shoal" />
		<tag k="name" v="Svartsteinen" />
		<tag k="place" v="islet" />
		<tag k="ssr:stedsnr" v="380290" />
	</node>
	<node lat="68.24051388919348" lon="14.786900010046672" id="-23702">
		<tag k="name" v="Buøya" />
		<tag k="place" v="islet" />
		<tag k="ssr:stedsnr" v="380295" />
	</node>
	<node lat="68.2109388867074" lon="14.832580556212468" id="-23708">
		<tag k="name" v="Rævskjærodden" />
		<tag k="natural" v="cape" />
		<tag k="ssr:stedsnr" v="380248" />
	</node>
	<node lat="68.16173055493702" lon="14.407558329207811" id="-23710">
		<tag k="name" v="Svartskjærskallen" />
		<tag k="natural" v="shoal" />
		<tag k="place" v="locality" />
		<tag k="ssr:stedsnr" v="380335" />
	</node>
	<node lat="68.32575278055226" lon="15.177452777665655" id="-23713">
		<tag k="name" v="Juvika" />
		<tag k="natural" v="bay" />
		<tag k="ssr:stedsnr" v="380938" />
	</node>
	<node lat="68.36945833027893" lon="14.401363898161337" id="-23714">
		<tag k="name" v="Valholmen" />
		<tag k="place" v="islet" />
		<tag k="ssr:stedsnr" v="380901" />
	</node>
	<node lat="68.15872499912847" lon="14.614094454460972" id="-23717">
		<tag k="name" v="Sjåbåan" />
		<tag k="natural" v="shoal" />
		<tag k="place" v="locality" />
		<tag k="ssr:stedsnr" v="381182" />
	</node>
	<node lat="68.30217777950783" lon="14.081869451750691" id="-23719">
		<tag k="name" v="Sinesbukta" />
		<tag k="natural" v="bay" />
		<tag k="ssr:stedsnr" v="381044" />
	</node>
	<node lat="68.21262222080355" lon="14.530247211414675" id="-23727">
		<tag k="fixme" v="consider seamark:type=rock or natural=shoal" />
		<tag k="name" v="Kløfterskjæret" />
		<tag k="place" v="islet" />
		<tag k="ssr:stedsnr" v="381253" />
	</node>
	<node lat="68.22964444280767" lon="14.951861122018055" id="-23729">
		<tag k="name" v="Vesthallen" />
		<tag k="natural" v="shoal" />
		<tag k="place" v="locality" />
		<tag k="ssr:stedsnr" v="381206" />
	</node>
	<node lat="68.17893610735332" lon="14.314211102570846" id="-23730">
		<tag k="name" v="Draughella" />
		<tag k="natural" v="cape" />
		<tag k="ssr:stedsnr" v="381385" />
	</node>
	<node lat="68.32127777763753" lon="14.474191663883957" id="-23739">
		<tag k="name" v="Blålyngpollen" />
		<tag k="natural" v="bay" />
		<tag k="ssr:stedsnr" v="381537" />
	</node>
	<node lat="68.27631944451403" lon="14.80164999496173" id="-23749">
		<tag k="alt_name" v="Seingsdraget" />
		<tag k="name" v="Sædingsholmen" />
		<tag k="place" v="islet" />
		<tag k="ssr:stedsnr" v="381559" />
	</node>
	<node lat="68.22134444161456" lon="14.198438893798937" id="-23750">
		<tag k="alt_name" v="Bukkholman" />
		<tag k="name" v="Bukkøya" />
		<tag k="place" v="islet" />
		<tag k="ssr:stedsnr" v="381570" />
	</node>
	<node lat="68.26499166584044" lon="14.721894442489008" id="-23751">
		<tag k="name" v="Nesjan" />
		<tag k="natural" v="cape" />
		<tag k="ssr:stedsnr" v="381579" />
	</node>
	<node lat="68.26802222140402" lon="14.955544447857969" id="-23753">
		<tag k="name" v="Ulvågsundet" />
		<tag k="natural" v="strait" />
		<tag k="ssr:stedsnr" v="381593" />
	</node>
	<node lat="68.21453889201898" lon="14.828313887581075" id="-23757">
		<tag k="name" v="Votvika" />
		<tag k="natural" v="bay" />
		<tag k="ssr:stedsnr" v="381848" />
	</node>
	<node lat="68.34681944230647" lon="14.38685276897994" id="-23758">
		<tag k="fixme" v="consider seamark:type=rock or natural=shoal" />
		<tag k="name" v="Sandøyskjæran" />
		<tag k="place" v="islet" />
		<tag k="ssr:stedsnr" v="381899" />
	</node>
	<node lat="68.25651666397077" lon="15.10618889545013" id="-23800">
		<tag k="name" v="Komsen" />
		<tag k="natural" v="shoal" />
		<tag k="place" v="locality" />
		<tag k="ssr:stedsnr" v="400364" />
	</node>
	<node lat="68.27264166293186" lon="15.094280564305803" id="-23801">
		<tag k="name" v="Risværleden" />
		<tag k="natural" v="strait" />
		<tag k="ssr:stedsnr" v="400324" />
	</node>
	<node lat="68.22155278245218" lon="14.536161104635893" id="-23810">
		<tag k="name" v="Sørvika" />
		<tag k="natural" v="bay" />
		<tag k="ssr:stedsnr" v="408704" />
	</node>
	<node lat="68.24652499957307" lon="14.239580561051831" id="-23811">
		<tag k="name" v="Brattholmen" />
		<tag k="place" v="islet" />
		<tag k="ssr:stedsnr" v="409024" />
	</node>
	<node lat="68.24983332935058" lon="14.743480556048388" id="-23812">
		<tag k="name" v="Folkebåen" />
		<tag k="natural" v="shoal" />
		<tag k="place" v="locality" />
		<tag k="ssr:stedsnr" v="411064" />
	</node>
	<node lat="68.18337221774793" lon="14.353991669196189" id="-23813">
		<tag k="name" v="Skata" />
		<tag k="natural" v="shoal" />
		<tag k="place" v="locality" />
		<tag k="ssr:stedsnr" v="411284" />
	</node>
	<node lat="68.3745833334315" lon="14.002519447540204" id="-23814">
		<tag k="name" v="Nord Flesbåen" />
		<tag k="natural" v="shoal" />
		<tag k="place" v="locality" />
		<tag k="ssr:stedsnr" v="411563" />
	</node>
	<node lat="68.21861110869172" lon="14.202952784140725" id="-23815">
		<tag k="name" v="Rundholmen" />
		<tag k="place" v="islet" />
		<tag k="ssr:stedsnr" v="411964" />
	</node>
	<node lat="68.3262055579077" lon="14.40097222602093" id="-23824">
		<tag k="name" v="Leirdammen" />
		<tag k="natural" v="bay" />
		<tag k="ssr:stedsnr" v="422719" />
	</node>
	<node lat="68.31913611311909" lon="14.400477780883092" id="-23825">
		<tag k="name" v="Fagerhaugbukta" />
		<tag k="natural" v="bay" />
		<tag k="ssr:stedsnr" v="422725" />
	</node>
	<node lat="68.37287778093163" lon="14.399961114137165" id="-23827">
		<tag k="name" v="Kartholmflaget" />
		<tag k="natural" v="strait" />
		<tag k="ssr:stedsnr" v="422732" />
	</node>
	<node lat="68.23088611217972" lon="14.821516673967317" id="-23831">
		<tag k="name" v="Sørenholmen" />
		<tag k="place" v="islet" />
		<tag k="ssr:stedsnr" v="423879" />
	</node>
	<node lat="68.19802777334864" lon="14.460244445173148" id="-23833">
		<tag k="fixme" v="consider seamark:type=rock or natural=shoal" />
		<tag k="name" v="Tjeldskjæran" />
		<tag k="place" v="islet" />
		<tag k="ssr:stedsnr" v="441219" />
	</node>
	<node lat="68.20476666344092" lon="14.51842223254695" id="-23834">
		<tag k="name" v="Småskallan" />
		<tag k="natural" v="shoal" />
		<tag k="place" v="locality" />
		<tag k="ssr:stedsnr" v="441222" />
	</node>
	<node lat="68.19333055649601" lon="14.692749991063677" id="-23835">
		<tag k="alt_name" v="Grundstadvika" />
		<tag k="name" v="Grunnstadvika" />
		<tag k="natural" v="bay" />
		<tag k="ssr:stedsnr" v="441223" />
	</node>
	<node lat="68.19621388459902" lon="14.565736116147" id="-23836">
		<tag k="bay" v="fjord" />
		<tag k="name" v="Høla" />
		<tag k="natural" v="bay" />
		<tag k="ssr:stedsnr" v="441224" />
	</node>
	<node lat="68.33902500333888" lon="14.717883345262026" id="-23839">
		<tag k="fixme" v="consider seamark:type=rock or natural=shoal" />
		<tag k="name" v="Ivarsteinen" />
		<tag k="place" v="islet" />
		<tag k="ssr:stedsnr" v="441421" />
	</node>
	<node lat="68.33932777958415" lon="14.475763893241401" id="-23840">
		<tag k="bay" v="fjord" />
		<tag k="name" v="Vatnfjorden" />
		<tag k="natural" v="bay" />
		<tag k="ssr:stedsnr" v="441427" />
	</node>
	<node lat="68.32536944038193" lon="14.058758327149885" id="-23843">
		<tag k="alt_name" v="Portsundodden" />
		<tag k="name" v="Porssundodden" />
		<tag k="natural" v="cape" />
		<tag k="ssr:stedsnr" v="441070" />
	</node>
	<node lat="68.24679444465954" lon="14.893036114208249" id="-23847">
		<tag k="name" v="Jektholmen" />
		<tag k="place" v="islet" />
		<tag k="ssr:stedsnr" v="441257" />
	</node>
	<node lat="68.18805833434561" lon="14.718038882229573" id="-23851">
		<tag k="name" v="Sandøya" />
		<tag k="place" v="island" />
		<tag k="ssr:stedsnr" v="441125" />
	</node>
	<node lat="68.38323889040844" lon="14.39508889500248" id="-23855">
		<tag k="name" v="Haugøya" />
		<tag k="place" v="island" />
		<tag k="ssr:stedsnr" v="441925" />
	</node>
	<node lat="68.29953610947676" lon="14.132969449764008" id="-23860">
		<tag k="alt_name" v="Årvågen" />
		<tag k="name" v="Årrvågan" />
		<tag k="natural" v="bay" />
		<tag k="ssr:stedsnr" v="442050" />
	</node>
	<node lat="68.29912500218937" lon="14.272313882989389" id="-23861">
		<tag k="alt_name" v="Haltegamneset" />
		<tag k="name" v="Haltgammneset" />
		<tag k="natural" v="cape" />
		<tag k="ssr:stedsnr" v="442053" />
	</node>
	<node lat="68.30066111128127" lon="15.10927222862895" id="-23864">
		<tag k="name" v="Holandsnakken" />
		<tag k="natural" v="cape" />
		<tag k="ssr:stedsnr" v="442076" />
	</node>
	<node lat="68.22587222403133" lon="14.96933334079531" id="-23868">
		<tag k="fixme" v="consider seamark:type=rock or natural=shoal" />
		<tag k="name" v="Jomfrua" />
		<tag k="place" v="islet" />
		<tag k="ssr:stedsnr" v="442225" />
	</node>
	<node lat="68.218419447939" lon="14.72302222742646" id="-23872">
		<tag k="name" v="Storholmen" />
		<tag k="place" v="islet" />
		<tag k="ssr:stedsnr" v="442260" />
	</node>
	<node lat="68.2094277798141" lon="14.704222220429491" id="-23874">
		<tag k="name" v="Kvitholmen" />
		<tag k="place" v="islet" />
		<tag k="ssr:stedsnr" v="442267" />
	</node>
	<node lat="68.36992778117519" lon="14.438594452475403" id="-23883">
		<tag k="name" v="Langosen" />
		<tag k="natural" v="bay" />
		<tag k="ssr:stedsnr" v="442432" />
	</node>
	<node lat="68.26042499962851" lon="14.72064444371072" id="-23887">
		<tag k="name" v="Hysskjærøyan" />
		<tag k="place" v="islet" />
		<tag k="ssr:stedsnr" v="442572" />
	</node>
	<node lat="68.190772222042" lon="14.747788888842498" id="-23906">
		<tag k="name" v="Sandblåsteren" />
		<tag k="natural" v="beach" />
		<tag k="ssr:stedsnr" v="502117" />
	</node>
	<node lat="68.25459444823683" lon="15.157758346243682" id="-23907">
		<tag k="name" v="Litlbåen" />
		<tag k="natural" v="shoal" />
		<tag k="place" v="locality" />
		<tag k="ssr:stedsnr" v="502118" />
	</node>
	<node lat="68.18521388497496" lon="14.667063888479127" id="-23908">
		<tag k="name" v="Skotålbåan" />
		<tag k="natural" v="shoal" />
		<tag k="place" v="locality" />
		<tag k="ssr:stedsnr" v="502120" />
	</node>
	<node lat="68.25863611479306" lon="15.114516662372175" id="-23909">
		<tag k="name" v="Flatøya" />
		<tag k="place" v="island" />
		<tag k="ssr:stedsnr" v="502121" />
	</node>
	<node lat="68.28535555567424" lon="14.329647228186065" id="-23910">
		<tag k="name" v="Fjøsneset" />
		<tag k="natural" v="cape" />
		<tag k="ssr:stedsnr" v="502198" />
	</node>
	<node lat="68.21749999832016" lon="14.71239444145713" id="-23911">
		<tag k="name" v="Sørenøya" />
		<tag k="place" v="island" />
		<tag k="ssr:stedsnr" v="502201" />
	</node>
	<node lat="68.304150003449" lon="14.864705549891081" id="-23918">
		<tag k="name" v="Båtberget" />
		<tag k="natural" v="cape" />
		<tag k="ssr:stedsnr" v="502510" />
	</node>
	<node lat="68.29862222547546" lon="15.085786120613049" id="-23920">
		<tag k="name" v="Pundslettvågen" />
		<tag k="natural" v="bay" />
		<tag k="ssr:stedsnr" v="502056" />
	</node>
	<node lat="68.24905000294329" lon="15.120711119986964" id="-23921">
		<tag k="name" v="Spikerholmen" />
		<tag k="place" v="islet" />
		<tag k="ssr:stedsnr" v="502059" />
	</node>
	<node lat="68.23634444814007" lon="15.037661117567337" id="-23928">
		<tag k="fixme" v="consider seamark:type=rock or natural=shoal" />
		<tag k="name" v="Spanna" />
		<tag k="place" v="islet" />
		<tag k="ssr:stedsnr" v="502154" />
	</node>
	<node lat="68.13456666643778" lon="14.597086121563649" id="-23929">
		<tag k="name" v="Larsskallen" />
		<tag k="natural" v="shoal" />
		<tag k="place" v="locality" />
		<tag k="ssr:stedsnr" v="502157" />
	</node>
	<node lat="68.23137777452727" lon="14.969294449510187" id="-23932">
		<tag k="fixme" v="consider seamark:type=rock or natural=shoal" />
		<tag k="name" v="Juldagen" />
		<tag k="place" v="islet" />
		<tag k="ssr:stedsnr" v="502168" />
	</node>
	<node lat="68.2051027781246" lon="14.797563889689952" id="-23934">
		<tag k="name" v="Bjørnvågen" />
		<tag k="natural" v="bay" />
		<tag k="ssr:stedsnr" v="502240" />
	</node>
	<node lat="68.24906110755818" lon="14.888452779872573" id="-23936">
		<tag k="name" v="Vestpollen" />
		<tag k="natural" v="bay" />
		<tag k="ssr:stedsnr" v="502244" />
	</node>
	<node lat="68.24752777420544" lon="14.74870556534052" id="-23937">
		<tag k="fixme" v="consider seamark:type=rock or natural=shoal" />
		<tag k="name" v="Haveren" />
		<tag k="place" v="islet" />
		<tag k="ssr:stedsnr" v="502250" />
	</node>
	<node lat="68.22749999970657" lon="14.731430560259954" id="-23940">
		<tag k="name" v="Silsandøya" />
		<tag k="place" v="islet" />
		<tag k="ssr:stedsnr" v="502266" />
	</node>
	<node lat="68.11524722469535" lon="14.29932778444951" id="-23942">
		<tag k="name" v="Litlskallen" />
		<tag k="natural" v="shoal" />
		<tag k="place" v="locality" />
		<tag k="ssr:stedsnr" v="502337" />
	</node>
	<node lat="68.37296944716321" lon="14.433849995671185" id="-23945">
		<tag k="name" v="Langosholmen" />
		<tag k="place" v="islet" />
		<tag k="ssr:stedsnr" v="502438" />
	</node>
	<node lat="68.20939721974223" lon="14.182066674303762" id="-23946">
		<tag k="alt_name" v="Lille Lysøya" />
		<tag k="name" v="Litlelysøya" />
		<tag k="place" v="islet" />
		<tag k="ssr:stedsnr" v="502450" />
	</node>
	<node lat="68.30549166201207" lon="14.937350006319155" id="-23954">
		<tag k="name" v="Molgavlpollen" />
		<tag k="natural" v="bay" />
		<tag k="ssr:stedsnr" v="502515" />
	</node>
	<node lat="68.28341111151967" lon="14.682358327893045" id="-23957">
		<tag k="name" v="Osen" />
		<tag k="natural" v="bay" />
		<tag k="ssr:stedsnr" v="502621" />
	</node>
	<node lat="68.38584444663333" lon="14.406550010256858" id="-23958">
		<tag k="name" v="Nautøya" />
		<tag k="place" v="island" />
		<tag k="ssr:stedsnr" v="502934" />
	</node>
	<node lat="68.26596111016647" lon="15.012697225993941" id="-23974">
		<tag k="name" v="Holmosen" />
		<tag k="natural" v="bay" />
		<tag k="ssr:stedsnr" v="510187" />
	</node>
	<node lat="68.26590833067179" lon="15.014516664193264" id="-23975">
		<tag k="name" v="Holman" />
		<tag k="natural" v="cape" />
		<tag k="ssr:stedsnr" v="510189" />
	</node>
	<node lat="68.31123888887127" lon="14.929272228008037" id="-23988">
		<tag k="name" v="Tarhella" />
		<tag k="natural" v="shoal" />
		<tag k="place" v="locality" />
		<tag k="ssr:stedsnr" v="521401" />
	</node>
	<node lat="68.22754166868941" lon="14.871575001282222" id="-23989">
		<tag k="alt_name" v="Prestbåen" />
		<tag k="name" v="Prestbøen" />
		<tag k="place" v="locality" />
		<tag k="seamark:type" v="rock" />
		<tag k="ssr:stedsnr" v="521954" />
	</node>
	<node lat="68.28134444319856" lon="14.664788896736384" id="-23992">
		<tag k="name" v="Strømsodden" />
		<tag k="natural" v="cape" />
		<tag k="ssr:stedsnr" v="525792" />
	</node>
	<node lat="68.40597500366275" lon="14.525722224623598" id="-23994">
		<tag k="fixme" v="consider seamark:type=rock or natural=shoal" />
		<tag k="name" v="Teljebøen" />
		<tag k="place" v="islet" />
		<tag k="ssr:stedsnr" v="525749" />
	</node>
	<node lat="68.34764166768868" lon="14.478366678087319" id="-23998">
		<tag k="name" v="Skonesodden" />
		<tag k="natural" v="cape" />
		<tag k="ssr:stedsnr" v="525900" />
	</node>
	<node lat="68.43855555944043" lon="13.251741670251453" id="-24000">
		<tag k="name" v="Ribban" />
		<tag k="natural" v="shoal" />
		<tag k="place" v="locality" />
		<tag k="ssr:stedsnr" v="526728" />
	</node>
	<node lat="68.21355833625891" lon="14.206291668554696" id="-24002">
		<tag k="name" v="Svartklubben" />
		<tag k="place" v="islet" />
		<tag k="ssr:stedsnr" v="529468" />
	</node>
	<node lat="68.2229250017941" lon="14.555552770371213" id="-24003">
		<tag k="name" v="Vårsetøygrunnan" />
		<tag k="natural" v="shoal" />
		<tag k="place" v="locality" />
		<tag k="ssr:stedsnr" v="529730" />
	</node>
	<node lat="68.23643333520359" lon="14.552558321720067" id="-24004">
		<tag k="name" v="Badeklubben" />
		<tag k="natural" v="cape" />
		<tag k="ssr:stedsnr" v="529731" />
	</node>
	<node lat="68.38151944217562" lon="14.069469442626046" id="-24005">
		<tag k="name" v="Flua" />
		<tag k="natural" v="shoal" />
		<tag k="place" v="locality" />
		<tag k="ssr:stedsnr" v="532582" />
	</node>
	<node lat="68.14158611043933" lon="14.138275006656523" id="-24008">
		<tag k="name" v="Janeskallen" />
		<tag k="natural" v="shoal" />
		<tag k="place" v="locality" />
		<tag k="ssr:stedsnr" v="532315" />
	</node>
	<node lat="68.33961388873632" lon="14.303577778210206" id="-24009">
		<tag k="name" v="Seiflua" />
		<tag k="natural" v="shoal" />
		<tag k="place" v="locality" />
		<tag k="ssr:stedsnr" v="532693" />
	</node>
	<node lat="68.27428611571307" lon="14.273252771043136" id="-24010">
		<tag k="name" v="Kobbstein" />
		<tag k="natural" v="shoal" />
		<tag k="place" v="locality" />
		<tag k="ssr:stedsnr" v="532943" />
	</node>
	<node lat="68.32470555503227" lon="14.485927783990636" id="-24011">
		<tag k="name" v="Isakstraumen" />
		<tag k="natural" v="strait" />
		<tag k="ssr:stedsnr" v="541875" />
	</node>
	<node lat="68.32855555151473" lon="14.492561118563803" id="-24012">
		<tag k="name" v="Småstrauman" />
		<tag k="natural" v="strait" />
		<tag k="ssr:stedsnr" v="541886" />
	</node>
	<node lat="68.24827222439632" lon="14.325972231882586" id="-24015">
		<tag k="name" v="Storvika" />
		<tag k="natural" v="bay" />
		<tag k="ssr:stedsnr" v="543687" />
	</node>
	<node lat="68.33004444093632" lon="14.710958337800108" id="-24022">
		<tag k="name" v="Ørnvika" />
		<tag k="natural" v="bay" />
		<tag k="ssr:stedsnr" v="563390" />
	</node>
	<node lat="68.17276666244763" lon="14.395005564509653" id="-24024">
		<tag k="fixme" v="consider seamark:type=rock or natural=shoal" />
		<tag k="name" v="Litlfølfoten" />
		<tag k="place" v="islet" />
		<tag k="ssr:stedsnr" v="563399" />
	</node>
	<node lat="68.31209444535868" lon="15.147261115297093" id="-24029">
		<tag k="alt_name" v="Leikdomskjæran" />
		<tag k="fixme" v="consider seamark:type=rock or natural=shoal" />
		<tag k="name" v="Lektomskjeran" />
		<tag k="place" v="islet" />
		<tag k="ssr:stedsnr" v="562036" />
	</node>
	<node lat="68.26729999719609" lon="15.10080556481834" id="-24030">
		<tag k="alt_name" v="Litj Engla;Engla, l" />
		<tag k="name" v="Litle Engla" />
		<tag k="place" v="islet" />
		<tag k="ssr:stedsnr" v="562077" />
	</node>
	<node lat="68.32638611302546" lon="14.289577781869932" id="-24031">
		<tag k="fixme" v="consider seamark:type=rock or natural=shoal" />
		<tag k="name" v="Seiskjæran" />
		<tag k="place" v="islet" />
		<tag k="ssr:stedsnr" v="562085" />
	</node>
	<node lat="68.2525083338523" lon="15.131972228059237" id="-24036">
		<tag k="alt_name" v="Valvær, store" />
		<tag k="name" v="Store Valvær" />
		<tag k="place" v="island" />
		<tag k="ssr:stedsnr" v="562109" />
	</node>
	<node lat="68.19818333177992" lon="14.782805553541335" id="-24037">
		<tag k="name" v="Keila" />
		<tag k="natural" v="bay" />
		<tag k="ssr:stedsnr" v="562113" />
	</node>
	<node lat="68.2002333374303" lon="14.684152780138353" id="-24040">
		<tag k="name" v="Storevikbåen" />
		<tag k="natural" v="shoal" />
		<tag k="place" v="locality" />
		<tag k="ssr:stedsnr" v="562209" />
	</node>
	<node lat="68.20615833410834" lon="14.811349996416808" id="-24041">
		<tag k="name" v="Fløvalen" />
		<tag k="natural" v="bay" />
		<tag k="ssr:stedsnr" v="562217" />
	</node>
	<node lat="68.32450277534667" lon="14.229022212460942" id="-24042">
		<tag k="name" v="Prestholman" />
		<tag k="place" v="islet" />
		<tag k="ssr:stedsnr" v="562067" />
	</node>
	<node lat="68.28257500333335" lon="15.07034721288586" id="-24043">
		<tag k="name" v="Bustleivholman" />
		<tag k="place" v="islet" />
		<tag k="ssr:stedsnr" v="562070" />
	</node>
	<node lat="68.1685027752104" lon="14.497447222322206" id="-24046">
		<tag k="name" v="Andersbåen" />
		<tag k="natural" v="shoal" />
		<tag k="place" v="locality" />
		<tag k="ssr:stedsnr" v="562131" />
	</node>
	<node lat="68.14974722487209" lon="14.62226388836245" id="-24051">
		<tag k="name" v="Kringelskallen" />
		<tag k="natural" v="shoal" />
		<tag k="place" v="locality" />
		<tag k="ssr:stedsnr" v="562167" />
	</node>
	<node lat="68.24742222477174" lon="14.906136103001373" id="-24054">
		<tag k="name" v="Andklakkvika" />
		<tag k="natural" v="bay" />
		<tag k="ssr:stedsnr" v="562231" />
	</node>
	<node lat="68.23470832945809" lon="14.594522229802005" id="-24055">
		<tag k="name" v="Risøyan" />
		<tag k="place" v="islet" />
		<tag k="ssr:stedsnr" v="562240" />
	</node>
	<node lat="68.24957222198616" lon="14.901252785433204" id="-24056">
		<tag k="name" v="Randsvika" />
		<tag k="natural" v="bay" />
		<tag k="ssr:stedsnr" v="562252" />
	</node>
	<node lat="68.24539166535034" lon="14.887841674029334" id="-24057">
		<tag k="name" v="Gullvikholmen" />
		<tag k="place" v="islet" />
		<tag k="ssr:stedsnr" v="562254" />
	</node>
	<node lat="68.14636666840627" lon="14.291041664172791" id="-24058">
		<tag k="name" v="Seibåen" />
		<tag k="natural" v="shoal" />
		<tag k="place" v="locality" />
		<tag k="ssr:stedsnr" v="562300" />
	</node>
	<node lat="68.14266110799893" lon="14.374522230302341" id="-24059">
		<tag k="name" v="Bikkjeskallan" />
		<tag k="natural" v="shoal" />
		<tag k="place" v="locality" />
		<tag k="ssr:stedsnr" v="562302" />
	</node>
	<node lat="68.3448305524584" lon="14.486005549557827" id="-24060">
		<tag k="alt_name" v="Brenneset" />
		<tag k="name" v="Breineset" />
		<tag k="natural" v="cape" />
		<tag k="ssr:stedsnr" v="562382" />
	</node>
	<node lat="68.32320278005729" lon="14.448527786403337" id="-24062">
		<tag k="name" v="Blålyngkråa" />
		<tag k="natural" v="bay" />
		<tag k="ssr:stedsnr" v="562402" />
	</node>
	<node lat="68.4015027804421" lon="14.436263895995607" id="-24067">
		<tag k="name" v="Båtvikskallen" />
		<tag k="natural" v="shoal" />
		<tag k="place" v="locality" />
		<tag k="ssr:stedsnr" v="562274" />
	</node>
	<node lat="68.13869444573703" lon="14.146572213786412" id="-24070">
		<tag k="fixme" v="consider seamark:type=rock or natural=shoal" />
		<tag k="name" v="Dragan" />
		<tag k="place" v="islet" />
		<tag k="ssr:stedsnr" v="562346" />
	</node>
	<node lat="68.37769999908556" lon="14.42998888093966" id="-24077">
		<tag k="name" v="Skogerøya" />
		<tag k="place" v="island" />
		<tag k="ssr:stedsnr" v="562447" />
	</node>
	<node lat="68.2741472213121" lon="14.981650004845974" id="-24085">
		<tag k="name" v="Årsteinneset" />
		<tag k="natural" v="cape" />
		<tag k="ssr:stedsnr" v="562589" />
	</node>
	<node lat="68.2934388898651" lon="14.962644446886296" id="-24086">
		<tag k="alt_name" v="Penkholmen" />
		<tag k="name" v="Pinkholmen" />
		<tag k="place" v="islet" />
		<tag k="ssr:stedsnr" v="562593" />
	</node>
	<node lat="68.2500472237361" lon="14.321499993634289" id="-24088">
		<tag k="bay" v="fjord" />
		<tag k="name" v="Olderfjorden" />
		<tag k="natural" v="bay" />
		<tag k="ssr:stedsnr" v="562601" />
	</node>
	<node lat="68.28119999729694" lon="14.68246388351931" id="-24091">
		<tag k="name" v="Eldhusodden" />
		<tag k="natural" v="cape" />
		<tag k="ssr:stedsnr" v="562624" />
	</node>
	<node lat="68.27352222625866" lon="14.677105563343677" id="-24093">
		<tag k="fixme" v="multiple name tags, choose one and add the other to alt_name" />
		<tag k="name" v="Massvika;Madsvika" />
		<tag k="natural" v="bay" />
		<tag k="ssr:stedsnr" v="562574" />
	</node>
	<node lat="68.38374722097323" lon="13.981574989915423" id="-24095">
		<tag k="alt_name" v="Hovshekkelen" />
		<tag k="name" v="Hovskallen" />
		<tag k="natural" v="shoal" />
		<tag k="place" v="locality" />
		<tag k="ssr:stedsnr" v="562928" />
	</node>
	<node lat="68.39531944885374" lon="14.414294438905607" id="-24096">
		<tag k="fixme" v="consider seamark:type=rock or natural=shoal" />
		<tag k="name" v="Skarvskjæret" />
		<tag k="place" v="islet" />
		<tag k="ssr:stedsnr" v="562929" />
	</node>
	<node lat="68.36555277816959" lon="14.058961121376987" id="-24097">
		<tag k="name" v="Høgfjellflua" />
		<tag k="natural" v="shoal" />
		<tag k="place" v="locality" />
		<tag k="ssr:stedsnr" v="562903" />
	</node>
	<node lat="68.37766944242861" lon="14.047325005311432" id="-24098">
		<tag k="name" v="Stabbrevet" />
		<tag k="natural" v="shoal" />
		<tag k="place" v="locality" />
		<tag k="ssr:stedsnr" v="562912" />
	</node>
	<node lat="68.30851666500632" lon="14.292794439095177" id="-24099">
		<tag k="alt_name" v="Grasholmen" />
		<tag k="name" v="Gressholmen" />
		<tag k="place" v="islet" />
		<tag k="ssr:stedsnr" v="563012" />
	</node>
	<node lat="68.25277499811878" lon="14.780330552024198" id="-24101">
		<tag k="name" v="Draget" />
		<tag k="place" v="islet" />
		<tag k="ssr:stedsnr" v="563035" />
	</node>
	<node lat="68.26757500151162" lon="14.999588894669987" id="-24102">
		<tag k="alt_name" v="Skjåneset" />
		<tag k="name" v="Skjånesodden" />
		<tag k="natural" v="cape" />
		<tag k="ssr:stedsnr" v="563041" />
	</node>
	<node lat="68.30138610995483" lon="15.054369434445526" id="-24104">
		<tag k="name" v="Trettholmen" />
		<tag k="place" v="islet" />
		<tag k="ssr:stedsnr" v="563061" />
	</node>
	<node lat="68.2854222264572" lon="14.128430548092767" id="-24105">
		<tag k="alt_name" v="Sundklakkøya, in" />
		<tag k="name" v="Indre Sundklakkøya" />
		<tag k="place" v="islet" />
		<tag k="ssr:stedsnr" v="563066" />
	</node>
	<node lat="68.2438249961784" lon="15.077166658279978" id="-24106">
		<tag k="name" v="Kvalbeinsøya" />
		<tag k="place" v="islet" />
		<tag k="ssr:stedsnr" v="563067" />
	</node>
	<node lat="68.24750277606947" lon="15.084897230246359" id="-24107">
		<tag k="fixme" v="consider seamark:type=rock or natural=shoal" />
		<tag k="name" v="Meskjæran" />
		<tag k="place" v="islet" />
		<tag k="ssr:stedsnr" v="563071" />
	</node>
	<node lat="68.28870277456744" lon="14.314602779228451" id="-24109">
		<tag k="name" v="Varodden" />
		<tag k="natural" v="cape" />
		<tag k="ssr:stedsnr" v="563203" />
	</node>
	<node lat="68.22045555769343" lon="14.830486113482793" id="-24110">
		<tag k="name" v="Molldøra" />
		<tag k="natural" v="strait" />
		<tag k="ssr:stedsnr" v="563213" />
	</node>
	<node lat="68.21123888721266" lon="14.733336113339886" id="-24112">
		<tag k="name" v="Ballsteinvika" />
		<tag k="natural" v="bay" />
		<tag k="ssr:stedsnr" v="563232" />
	</node>
	<node lat="68.35779722283495" lon="14.432519451852805" id="-24117">
		<tag k="name" v="Lasteplassen" />
		<tag k="natural" v="cape" />
		<tag k="ssr:stedsnr" v="563471" />
	</node>
	<node lat="68.32964722288021" lon="15.01533610522147" id="-24119">
		<tag k="alt_name" v="Kjellarnes" />
		<tag k="name" v="Kjellarneset" />
		<tag k="natural" v="cape" />
		<tag k="ssr:stedsnr" v="563514" />
	</node>
	<node lat="68.25481388681614" lon="14.987230559750396" id="-24125">
		<tag k="alt_name" v="Store Værholmen" />
		<tag k="name" v="Verholmen" />
		<tag k="place" v="islet" />
		<tag k="ssr:stedsnr" v="563626" />
	</node>
	<node lat="68.252375003345" lon="14.722774998334767" id="-24127">
		<tag k="name" v="Korsholmen" />
		<tag k="place" v="islet" />
		<tag k="ssr:stedsnr" v="563701" />
	</node>
	<node lat="68.18140555943907" lon="14.7219666787527" id="-24128">
		<tag k="name" v="Rekvika" />
		<tag k="natural" v="bay" />
		<tag k="ssr:stedsnr" v="563852" />
	</node>
	<node lat="68.29011111073129" lon="15.08803333760418" id="-24145">
		<tag k="name" v="Langosklubben" />
		<tag k="natural" v="cape" />
		<tag k="ssr:stedsnr" v="572649" />
	</node>
	<node lat="68.30527777564241" lon="14.94086110602956" id="-24147">
		<tag k="name" v="Langøya" />
		<tag k="natural" v="cape" />
		<tag k="ssr:stedsnr" v="572734" />
	</node>
	<node lat="68.27721944635573" lon="14.982761100721568" id="-24148">
		<tag k="fixme" v="multiple name tags, choose one and add the other to alt_name" />
		<tag k="name" v="Storpurkvika;Purkvika" />
		<tag k="natural" v="bay" />
		<tag k="ssr:stedsnr" v="572683" />
	</node>
	<node lat="68.27661667042545" lon="15.054672212633852" id="-24149">
		<tag k="name" v="Bjørnvika" />
		<tag k="natural" v="bay" />
		<tag k="ssr:stedsnr" v="572691" />
	</node>
	<node lat="68.16589721801381" lon="14.653077777887408" id="-24169">
		<tag k="name" v="Skrovøya" />
		<tag k="place" v="island" />
		<tag k="ssr:stedsnr" v="581726" />
	</node>
	<node lat="68.2783583307816" lon="14.322224993081257" id="-24178">
		<tag k="name" v="Nesåkeren" />
		<tag k="natural" v="cape" />
		<tag k="ssr:stedsnr" v="603636" />
	</node>
	<node lat="68.28219166697747" lon="14.266291677756227" id="-24184">
		<tag k="name" v="Nesodden" />
		<tag k="natural" v="cape" />
		<tag k="ssr:stedsnr" v="604324" />
	</node>
	<node lat="68.29797222355056" lon="14.103455544432428" id="-24186">
		<tag k="fixme" v="consider seamark:type=rock or natural=shoal" />
		<tag k="name" v="Einarskjæret" />
		<tag k="place" v="islet" />
		<tag k="ssr:stedsnr" v="623041" />
	</node>
	<node lat="68.31630555418471" lon="15.178374991714149" id="-24190">
		<tag k="name" v="Hundsneset" />
		<tag k="natural" v="cape" />
		<tag k="ssr:stedsnr" v="623036" />
	</node>
	<node lat="68.314072218329" lon="14.291433324117843" id="-24191">
		<tag k="name" v="Gressholmskallen" />
		<tag k="natural" v="shoal" />
		<tag k="place" v="locality" />
		<tag k="ssr:stedsnr" v="623141" />
	</node>
	<node lat="68.19449166548627" lon="14.730833337031976" id="-24192">
		<tag k="name" v="Kvitsanden" />
		<tag k="natural" v="beach" />
		<tag k="ssr:stedsnr" v="623151" />
	</node>
	<node lat="68.1132944447887" lon="14.241300003022737" id="-24195">
		<tag k="name" v="Vartangskallen" />
		<tag k="natural" v="shoal" />
		<tag k="place" v="locality" />
		<tag k="ssr:stedsnr" v="623352" />
	</node>
	<node lat="68.30068888577068" lon="14.090266668662636" id="-24196">
		<tag k="name" v="Sæterneset" />
		<tag k="natural" v="cape" />
		<tag k="ssr:stedsnr" v="623047" />
	</node>
	<node lat="68.31128055522483" lon="15.133163883795405" id="-24197">
		<tag k="name" v="Ramsosklubben" />
		<tag k="natural" v="cape" />
		<tag k="ssr:stedsnr" v="623053" />
	</node>
	<node lat="68.2267611096751" lon="15.020886099673783" id="-24200">
		<tag k="name" v="Lønsken" />
		<tag k="natural" v="shoal" />
		<tag k="place" v="locality" />
		<tag k="ssr:stedsnr" v="623087" />
	</node>
	<node lat="68.29477222669789" lon="15.097741668315676" id="-24201">
		<tag k="name" v="Sandholman" />
		<tag k="place" v="islet" />
		<tag k="ssr:stedsnr" v="623089" />
	</node>
	<node lat="68.23299722623484" lon="14.794075006324459" id="-24208">
		<tag k="alt_name" v="Kjefsøyhamn" />
		<tag k="name" v="Kjepsøyhamnen" />
		<tag k="natural" v="bay" />
		<tag k="ssr:stedsnr" v="623293" />
	</node>
	<node lat="68.23822222303215" lon="14.790838889047214" id="-24210">
		<tag k="name" v="Finnholmen" />
		<tag k="place" v="islet" />
		<tag k="ssr:stedsnr" v="623302" />
	</node>
	<node lat="68.13013333348938" lon="14.15794721739186" id="-24211">
		<tag k="alt_name" v="Bardan" />
		<tag k="name" v="Vestværbardan" />
		<tag k="natural" v="shoal" />
		<tag k="place" v="locality" />
		<tag k="ssr:stedsnr" v="623377" />
	</node>
	<node lat="68.40271110688528" lon="14.501177786807684" id="-24214">
		<tag k="name" v="Delpshammaren" />
		<tag k="natural" v="cape" />
		<tag k="ssr:stedsnr" v="623249" />
	</node>
	<node lat="68.3556833321627" lon="14.404544451196475" id="-24215">
		<tag k="name" v="Helløya" />
		<tag k="place" v="island" />
		<tag k="ssr:stedsnr" v="623909" />
	</node>
	<node lat="68.38875277923658" lon="14.128019445934843" id="-24216">
		<tag k="name" v="Skimtgrunnen" />
		<tag k="natural" v="shoal" />
		<tag k="place" v="locality" />
		<tag k="ssr:stedsnr" v="623939" />
	</node>
	<node lat="68.32621944808723" lon="15.192549988971487" id="-24219">
		<tag k="fixme" v="multiple name tags, choose one and add the other to alt_name" />
		<tag k="name" v="Kvesmvika;Kvapsvika" />
		<tag k="natural" v="bay" />
		<tag k="ssr:stedsnr" v="623953" />
	</node>
	<node lat="68.36518888724883" lon="14.427313900432738" id="-24222">
		<tag k="name" v="Røynesan" />
		<tag k="natural" v="cape" />
		<tag k="ssr:stedsnr" v="623502" />
	</node>
	<node lat="68.36170555905913" lon="14.434033337831341" id="-24223">
		<tag k="name" v="Bufjorden" />
		<tag k="natural" v="bay" />
		<tag k="ssr:stedsnr" v="623503" />
	</node>
	<node lat="68.25640555461764" lon="14.920336102943866" id="-24228">
		<tag k="name" v="Borkvika" />
		<tag k="natural" v="bay" />
		<tag k="ssr:stedsnr" v="623701" />
	</node>
	<node lat="68.33205277603413" lon="14.495516676676862" id="-24232">
		<tag k="alt_name" v="Elveneset" />
		<tag k="name" v="Elvneset" />
		<tag k="natural" v="cape" />
		<tag k="ssr:stedsnr" v="623440" />
	</node>
	<node lat="68.29529166832464" lon="14.83931665583308" id="-24234">
		<tag k="name" v="Reknesbukta" />
		<tag k="natural" v="bay" />
		<tag k="ssr:stedsnr" v="623535" />
	</node>
	<node lat="68.29527499937528" lon="14.849891674201356" id="-24235">
		<tag k="name" v="Reknesrabben" />
		<tag k="natural" v="cape" />
		<tag k="ssr:stedsnr" v="623538" />
	</node>
	<node lat="68.2811750033925" lon="14.79833610231733" id="-24238">
		<tag k="name" v="Hellarvika" />
		<tag k="natural" v="bay" />
		<tag k="ssr:stedsnr" v="623632" />
	</node>
	<node lat="68.21843055965402" lon="14.690597217485715" id="-24241">
		<tag k="name" v="Draget" />
		<tag k="place" v="islet" />
		<tag k="ssr:stedsnr" v="623850" />
	</node>
	<node lat="68.30511944171278" lon="14.892155565672706" id="-24245">
		<tag k="name" v="Hamnneset" />
		<tag k="natural" v="cape" />
		<tag k="ssr:stedsnr" v="624066" />
	</node>
	<node lat="68.31469166603706" lon="14.888069451330278" id="-24246">
		<tag k="name" v="Risneset" />
		<tag k="natural" v="cape" />
		<tag k="ssr:stedsnr" v="624068" />
	</node>
	<node lat="68.3437055557863" lon="14.144083322040899" id="-24247">
		<tag k="name" v="Langstranda" />
		<tag k="natural" v="beach" />
		<tag k="ssr:stedsnr" v="623894" />
	</node>
	<node lat="68.26148888515807" lon="14.385705561294733" id="-24251">
		<tag k="name" v="Finnstranda" />
		<tag k="natural" v="cape" />
		<tag k="ssr:stedsnr" v="624146" />
	</node>
	<node lat="68.29334166940781" lon="15.094005560605506" id="-24265">
		<tag k="name" v="Sandnes" />
		<tag k="natural" v="cape" />
		<tag k="ssr:stedsnr" v="632658" />
	</node>
	<node lat="68.32619444456635" lon="15.156905560316881" id="-24281">
		<tag k="name" v="Gunnarkilen" />
		<tag k="natural" v="bay" />
		<tag k="ssr:stedsnr" v="642248" />
	</node>
	<node lat="68.22509444089098" lon="14.842552770850384" id="-24283">
		<tag k="fixme" v="consider seamark:type=rock or natural=shoal" />
		<tag k="name" v="Soten" />
		<tag k="place" v="islet" />
		<tag k="ssr:stedsnr" v="643935" />
	</node>
	<node lat="68.34378332925934" lon="14.13123610877788" id="-24284">
		<tag k="name" v="Makkleirstranda" />
		<tag k="natural" v="bay" />
		<tag k="ssr:stedsnr" v="646435" />
	</node>
	<node lat="68.34312222595167" lon="14.083302786043877" id="-24285">
		<tag k="name" v="Hovsundhamn" />
		<tag k="natural" v="strait" />
		<tag k="ssr:stedsnr" v="646440" />
	</node>
	<node lat="68.23646944826379" lon="14.591444455664405" id="-24293">
		<tag k="name" v="Austerøygrunnen" />
		<tag k="natural" v="shoal" />
		<tag k="place" v="locality" />
		<tag k="ssr:stedsnr" v="650659" />
	</node>
	<node lat="68.26810277696698" lon="14.714669436778392" id="-24294">
		<tag k="name" v="Sandvikgrunnen" />
		<tag k="natural" v="shoal" />
		<tag k="place" v="locality" />
		<tag k="ssr:stedsnr" v="653083" />
	</node>
	<node lat="68.2950611104346" lon="14.062163882646098" id="-24298">
		<tag k="fixme" v="consider seamark:type=rock or natural=shoal" />
		<tag k="name" v="Skarvskjæret" />
		<tag k="place" v="islet" />
		<tag k="ssr:stedsnr" v="662947" />
	</node>
	<node lat="68.26957499638732" lon="14.158672230278333" id="-24301">
		<tag k="name" v="Hamnholmen" />
		<tag k="place" v="islet" />
		<tag k="ssr:stedsnr" v="665370" />
	</node>
	<node lat="68.29169444657833" lon="14.856583325293728" id="-24310">
		<tag k="name" v="Langnes" />
		<tag k="natural" v="cape" />
		<tag k="ssr:stedsnr" v="666259" />
	</node>
	<node lat="68.17411944145135" lon="14.187769445071412" id="-24313">
		<tag k="name" v="Bjønnerøybåen" />
		<tag k="natural" v="shoal" />
		<tag k="place" v="locality" />
		<tag k="ssr:stedsnr" v="714273" />
	</node>
	<node lat="68.20615833443091" lon="14.665574991704375" id="-24314">
		<tag k="name" v="Vesterskallen" />
		<tag k="natural" v="shoal" />
		<tag k="place" v="locality" />
		<tag k="ssr:stedsnr" v="714324" />
	</node>
	<node lat="68.32438055858144" lon="14.70365555589261" id="-24318">
		<tag k="name" v="Kvalvikodden" />
		<tag k="natural" v="cape" />
		<tag k="ssr:stedsnr" v="723784" />
	</node>
	<node lat="68.26006944157419" lon="14.356541654152576" id="-24325">
		<tag k="name" v="Garnhella" />
		<tag k="natural" v="cape" />
		<tag k="ssr:stedsnr" v="725641" />
	</node>
	<node lat="68.32824444293537" lon="14.323947227262838" id="-24328">
		<tag k="fixme" v="consider seamark:type=rock or natural=shoal" />
		<tag k="name" v="Finnlandskjæret" />
		<tag k="place" v="islet" />
		<tag k="ssr:stedsnr" v="725661" />
	</node>
	<node lat="68.27281667031045" lon="14.25349721750643" id="-24332">
		<tag k="name" v="Janbukta" />
		<tag k="natural" v="bay" />
		<tag k="ssr:stedsnr" v="726342" />
	</node>
	<node lat="68.30245277770734" lon="14.885186107358836" id="-24335">
		<tag k="name" v="Silbogklubben" />
		<tag k="natural" v="cape" />
		<tag k="ssr:stedsnr" v="727251" />
	</node>
	<node lat="68.33060555510974" lon="14.759486117167361" id="-24336">
		<tag k="name" v="Lille-Nesodden" />
		<tag k="natural" v="cape" />
		<tag k="ssr:stedsnr" v="727851" />
	</node>
	<node lat="68.3179555559354" lon="14.262908336951046" id="-24348">
		<tag k="fixme" v="consider seamark:type=rock or natural=shoal" />
		<tag k="name" v="Kristenskjæran" />
		<tag k="place" v="islet" />
		<tag k="ssr:stedsnr" v="745148" />
	</node>
	<node lat="68.25685832966413" lon="15.043361115606027" id="-24350">
		<tag k="fixme" v="consider seamark:type=rock or natural=shoal" />
		<tag k="name" v="Skarvskjæret" />
		<tag k="place" v="islet" />
		<tag k="ssr:stedsnr" v="745157" />
	</node>
	<node lat="68.1853166676697" lon="14.458686105134042" id="-24351">
		<tag k="name" v="Rekøygrunnen" />
		<tag k="natural" v="shoal" />
		<tag k="place" v="locality" />
		<tag k="ssr:stedsnr" v="745159" />
	</node>
	<node lat="68.19223055898941" lon="14.716877770098284" id="-24352">
		<tag k="name" v="Steinholman" />
		<tag k="place" v="islet" />
		<tag k="ssr:stedsnr" v="745166" />
	</node>
	<node lat="68.22989722306217" lon="14.820158340678494" id="-24354">
		<tag k="name" v="Votvika" />
		<tag k="natural" v="bay" />
		<tag k="ssr:stedsnr" v="745241" />
	</node>
	<node lat="68.24523055299207" lon="14.916541674188782" id="-24361">
		<tag k="alt_name" v="Andklakkan" />
		<tag k="fixme" v="consider seamark:type=rock or natural=shoal" />
		<tag k="name" v="Andklakken" />
		<tag k="place" v="islet" />
		<tag k="ssr:stedsnr" v="745284" />
	</node>
	<node lat="68.23669722451122" lon="14.652297214783415" id="-24362">
		<tag k="name" v="Hellnesan" />
		<tag k="natural" v="cape" />
		<tag k="ssr:stedsnr" v="745289" />
	</node>
	<node lat="68.24775833063772" lon="14.758422214267332" id="-24363">
		<tag k="fixme" v="consider seamark:type=rock or natural=shoal" />
		<tag k="name" v="Hanskjæret" />
		<tag k="place" v="islet" />
		<tag k="ssr:stedsnr" v="745297" />
	</node>
	<node lat="68.24287222415825" lon="14.766474999987338" id="-24364">
		<tag k="fixme" v="consider seamark:type=rock or natural=shoal" />
		<tag k="name" v="Kariskjæret" />
		<tag k="place" v="islet" />
		<tag k="ssr:stedsnr" v="745298" />
	</node>
	<node lat="68.3864194408854" lon="14.42668889095248" id="-24365">
		<tag k="name" v="Osen" />
		<tag k="natural" v="bay" />
		<tag k="ssr:stedsnr" v="745320" />
	</node>
	<node lat="68.14024444624762" lon="14.169800012090644" id="-24367">
		<tag k="name" v="Langholmen" />
		<tag k="place" v="islet" />
		<tag k="ssr:stedsnr" v="745396" />
	</node>
	<node lat="68.40229166318184" lon="15.106358325844665" id="-24379">
		<tag k="name" v="Raftsundet" />
		<tag k="name:no" v="Raftsundet" />
		<tag k="name:se" v="Ráktanuorri" />
		<tag k="natural" v="strait" />
		<tag k="ssr:stedsnr" v="745889" />
	</node>
	<node lat="68.38403333030934" lon="14.375994446321112" id="-24380">
		<tag k="name" v="Haugøytaren" />
		<tag k="natural" v="shoal" />
		<tag k="place" v="locality" />
		<tag k="ssr:stedsnr" v="745942" />
	</node>
	<node lat="68.38273611415251" lon="14.081261110132006" id="-24381">
		<tag k="alt_name" v="Vargrunnfluan" />
		<tag k="name" v="Vargrunnflua" />
		<tag k="natural" v="shoal" />
		<tag k="place" v="locality" />
		<tag k="ssr:stedsnr" v="745944" />
	</node>
	<node lat="68.26808332963158" lon="14.680133342411406" id="-24383">
		<tag k="name" v="Sandvika" />
		<tag k="natural" v="bay" />
		<tag k="ssr:stedsnr" v="746047" />
	</node>
	<node lat="68.25714444431897" lon="14.988702781569398" id="-24422">
		<tag k="name" v="Finnsteinen" />
		<tag k="place" v="locality" />
		<tag k="seamark:type" v="rock" />
		<tag k="ssr:stedsnr" v="764984" />
	</node>
	<node lat="68.32168889082624" lon="14.100588894410755" id="-24423">
		<tag k="name" v="Naustholmen" />
		<tag k="place" v="islet" />
		<tag k="ssr:stedsnr" v="767431" />
	</node>
	<node lat="68.3499555569401" lon="14.472241660208937" id="-24425">
		<tag k="name" v="Jensodden" />
		<tag k="natural" v="cape" />
		<tag k="ssr:stedsnr" v="768923" />
	</node>
	<node lat="68.32953333519959" lon="14.50506110329631" id="-24431">
		<tag k="name" v="Mattisneset" />
		<tag k="natural" v="cape" />
		<tag k="ssr:stedsnr" v="770886" />
	</node>
	<node lat="68.23470833024817" lon="14.62729165407734" id="-24434">
		<tag k="name" v="Hella" />
		<tag k="natural" v="shoal" />
		<tag k="place" v="locality" />
		<tag k="ssr:stedsnr" v="775168" />
	</node>
	<node lat="68.25863333722982" lon="14.71128055013483" id="-24435">
		<tag k="name" v="Storbåen" />
		<tag k="natural" v="shoal" />
		<tag k="place" v="locality" />
		<tag k="ssr:stedsnr" v="775090" />
	</node>
	<node lat="68.2431861117195" lon="14.67168332276975" id="-24436">
		<tag k="name" v="Storholmen" />
		<tag k="natural" v="cape" />
		<tag k="ssr:stedsnr" v="775143" />
	</node>
	<node lat="68.19695277944714" lon="14.186888891735965" id="-24437">
		<tag k="name" v="Einsteinen" />
		<tag k="natural" v="shoal" />
		<tag k="place" v="locality" />
		<tag k="ssr:stedsnr" v="775246" />
	</node>
	<node lat="68.20556110825804" lon="14.493788887711679" id="-24438">
		<tag k="name" v="Leiskallen" />
		<tag k="natural" v="shoal" />
		<tag k="place" v="locality" />
		<tag k="ssr:stedsnr" v="775427" />
	</node>
	<node lat="68.15253055156819" lon="14.39605833662579" id="-24439">
		<tag k="name" v="Vester Moholmskallen" />
		<tag k="natural" v="shoal" />
		<tag k="place" v="locality" />
		<tag k="ssr:stedsnr" v="775428" />
	</node>
	<node lat="68.32320555165998" lon="14.097036108911785" id="-24440">
		<tag k="name" v="Storholmen" />
		<tag k="place" v="islet" />
		<tag k="ssr:stedsnr" v="783474" />
	</node>
	<node lat="68.24075833495655" lon="14.271583334814002" id="-24447">
		<tag k="name" v="Rabben" />
		<tag k="natural" v="cape" />
		<tag k="ssr:stedsnr" v="787485" />
	</node>
	<node lat="68.23110833448831" lon="14.828161115199658" id="-24448">
		<tag k="name" v="Langvågen" />
		<tag k="natural" v="bay" />
		<tag k="ssr:stedsnr" v="787849" />
	</node>
	<node lat="68.28021111340806" lon="15.05941943835849" id="-24451">
		<tag k="name" v="Vestervika" />
		<tag k="natural" v="bay" />
		<tag k="ssr:stedsnr" v="805089" />
	</node>
	<node lat="68.13662499998782" lon="14.162663882975654" id="-24458">
		<tag k="name" v="Kvitholmen" />
		<tag k="place" v="islet" />
		<tag k="ssr:stedsnr" v="805365" />
	</node>
	<node lat="68.15865000284766" lon="14.318325010365808" id="-24461">
		<tag k="name" v="Skråpskallen" />
		<tag k="natural" v="shoal" />
		<tag k="place" v="locality" />
		<tag k="ssr:stedsnr" v="805331" />
	</node>
	<node lat="68.1029277742054" lon="14.271061116905638" id="-24462">
		<tag k="alt_name" v="Grunnskallan" />
		<tag k="name" v="Grunnskallen" />
		<tag k="natural" v="shoal" />
		<tag k="place" v="locality" />
		<tag k="ssr:stedsnr" v="805342" />
	</node>
	<node lat="68.34621389182844" lon="14.477936119848493" id="-24463">
		<tag k="alt_name" v="Tennholmen" />
		<tag k="name" v="Ternholmen" />
		<tag k="place" v="islet" />
		<tag k="ssr:stedsnr" v="805401" />
	</node>
	<node lat="68.34881111411016" lon="14.717569454445592" id="-24464">
		<tag k="alt_name" v="Skjelodden" />
		<tag k="name" v="Skilodden" />
		<tag k="natural" v="cape" />
		<tag k="ssr:stedsnr" v="805407" />
	</node>
	<node lat="68.30995277673699" lon="14.716036106887607" id="-24466">
		<tag k="alt_name" v="Småskjeran" />
		<tag k="fixme" v="multiple name tags, choose one and add the other to alt_name; consider seamark:type=rock or natural=shoal" />
		<tag k="name" v="Småskjærholmen;Småskjæret" />
		<tag k="place" v="islet" />
		<tag k="ssr:stedsnr" v="805520" />
	</node>
	<node lat="68.29022499720136" lon="14.961038877004382" id="-24467">
		<tag k="name" v="Klipa" />
		<tag k="natural" v="cape" />
		<tag k="ssr:stedsnr" v="805602" />
	</node>
	<node lat="68.2776861088819" lon="14.790691656089653" id="-24468">
		<tag k="alt_name" v="Bondsteinen" />
		<tag k="name" v="Bonsteinen" />
		<tag k="natural" v="cape" />
		<tag k="ssr:stedsnr" v="805611" />
	</node>
	<node lat="68.22278055492983" lon="15.009505562471713" id="-24473">
		<tag k="name" v="Litlingjelsøya" />
		<tag k="place" v="islet" />
		<tag k="ssr:stedsnr" v="806183" />
	</node>
	<node lat="68.28613055415633" lon="14.270524999721227" id="-24478">
		<tag k="name" v="Vedneset" />
		<tag k="natural" v="cape" />
		<tag k="ssr:stedsnr" v="806022" />
	</node>
	<node lat="68.29637222499912" lon="14.076747214681625" id="-24479">
		<tag k="fixme" v="multiple name tags, choose one and add the other to alt_name" />
		<tag k="name" v="Rødholmen;Stor Rødholmen" />
		<tag k="place" v="islet" />
		<tag k="ssr:stedsnr" v="806038" />
	</node>
	<node lat="68.25081944594301" lon="15.119099995736585" id="-24481">
		<tag k="alt_name" v="Litj Valvær;Valvær, l" />
		<tag k="name" v="Litle Valvær" />
		<tag k="place" v="island" />
		<tag k="ssr:stedsnr" v="806112" />
	</node>
	<node lat="68.23571388777137" lon="15.08840278467873" id="-24482">
		<tag k="alt_name" v="Austre Langgrunnen" />
		<tag k="name" v="Langgrunnen" />
		<tag k="natural" v="shoal" />
		<tag k="place" v="locality" />
		<tag k="ssr:stedsnr" v="806069" />
	</node>
	<node lat="68.22416666419726" lon="14.82094165565338" id="-24484">
		<tag k="name" v="Reinholmen" />
		<tag k="place" v="islet" />
		<tag k="ssr:stedsnr" v="806197" />
	</node>
	<node lat="68.22660555909133" lon="14.846888893470295" id="-24485">
		<tag k="name" v="Brettesnesvågen" />
		<tag k="natural" v="bay" />
		<tag k="ssr:stedsnr" v="806203" />
	</node>
	<node lat="68.17408889311169" lon="14.73561944390269" id="-24491">
		<tag k="name" v="Svedleia" />
		<tag k="natural" v="strait" />
		<tag k="ssr:stedsnr" v="806135" />
	</node>
	<node lat="68.17016944844632" lon="14.454955550209181" id="-24493">
		<tag k="alt_name" v="Auster Skjolden" />
		<tag k="name" v="Austreskjolden" />
		<tag k="natural" v="shoal" />
		<tag k="place" v="locality" />
		<tag k="ssr:stedsnr" v="806139" />
	</node>
	<node lat="68.26083333069381" lon="14.777855566409292" id="-24494">
		<tag k="alt_name" v="Litj Kalvsøya" />
		<tag k="fixme" v="multiple name tags, choose one and add the other to alt_name" />
		<tag k="name" v="Litlkalvsøya;Lillekarlsøya" />
		<tag k="place" v="islet" />
		<tag k="ssr:stedsnr" v="806663" />
	</node>
	<node lat="68.26460833184228" lon="14.751347232741463" id="-24495">
		<tag k="name" v="Kvitneset" />
		<tag k="natural" v="cape" />
		<tag k="ssr:stedsnr" v="806665" />
	</node>
	<node lat="68.26538611201053" lon="14.997966658010474" id="-24496">
		<tag k="name" v="Skjånesholmen" />
		<tag k="place" v="islet" />
		<tag k="ssr:stedsnr" v="806670" />
	</node>
	<node lat="68.24566111501143" lon="14.799933339111673" id="-24501">
		<tag k="name" v="Steingardsneset" />
		<tag k="natural" v="cape" />
		<tag k="ssr:stedsnr" v="806293" />
	</node>
	<node lat="68.33403610974719" lon="14.442075006999834" id="-24503">
		<tag k="name" v="Storvika" />
		<tag k="natural" v="bay" />
		<tag k="ssr:stedsnr" v="806373" />
	</node>
	<node lat="68.1684916650541" lon="14.391194442693239" id="-24504">
		<tag k="alt_name" v="Folfotskallen, vestre;Vester Følfotskallen" />
		<tag k="name" v="Vestre Folfotskallen" />
		<tag k="natural" v="shoal" />
		<tag k="place" v="locality" />
		<tag k="ssr:stedsnr" v="806407" />
	</node>
	<node lat="68.33223332909562" lon="14.721147218107065" id="-24505">
		<tag k="fixme" v="consider seamark:type=rock or natural=shoal" />
		<tag k="name" v="Vestpollskjæret" />
		<tag k="place" v="islet" />
		<tag k="ssr:stedsnr" v="806410" />
	</node>
	<node lat="68.32681110677153" lon="14.915713886649659" id="-24520">
		<tag k="name" v="Rørhopvågen" />
		<tag k="natural" v="bay" />
		<tag k="ssr:stedsnr" v="806525" />
	</node>
	<node lat="68.32244999733297" lon="14.717411103279499" id="-24523">
		<tag k="name" v="Sildpollneset" />
		<tag k="natural" v="cape" />
		<tag k="ssr:stedsnr" v="806540" />
	</node>
	<node lat="68.23103888550051" lon="14.212836117814959" id="-24524">
		<tag k="name" v="Feøya" />
		<tag k="place" v="islet" />
		<tag k="ssr:stedsnr" v="806554" />
	</node>
	<node lat="68.24658333584439" lon="14.319202778104959" id="-24528">
		<tag k="name" v="Jordholmen" />
		<tag k="place" v="islet" />
		<tag k="ssr:stedsnr" v="806586" />
	</node>
	<node lat="68.25719999937657" lon="14.995775001883356" id="-24531">
		<tag k="alt_name" v="Litj Værholmen" />
		<tag k="name" v="Litlverholmen" />
		<tag k="place" v="islet" />
		<tag k="ssr:stedsnr" v="806626" />
	</node>
	<node lat="68.2649722248218" lon="15.016455552476659" id="-24554">
		<tag k="name" v="Revholmen" />
		<tag k="place" v="islet" />
		<tag k="ssr:stedsnr" v="814253" />
	</node>
	<node lat="68.27743611458288" lon="15.07023611681483" id="-24555">
		<tag k="name" v="Flaget" />
		<tag k="natural" v="strait" />
		<tag k="ssr:stedsnr" v="815658" />
	</node>
	<node lat="68.2465944489329" lon="14.985711110917777" id="-24575">
		<tag k="name" v="Værholmskallen" />
		<tag k="natural" v="shoal" />
		<tag k="place" v="locality" />
		<tag k="ssr:stedsnr" v="825297" />
	</node>
	<node lat="68.2448027745232" lon="15.0137555650912" id="-24576">
		<tag k="name" v="Kristofferflua" />
		<tag k="place" v="locality" />
		<tag k="seamark:type" v="rock" />
		<tag k="ssr:stedsnr" v="825298" />
	</node>
	<node lat="68.23358610884547" lon="14.211372221469146" id="-24584">
		<tag k="name" v="Småholman" />
		<tag k="place" v="islet" />
		<tag k="ssr:stedsnr" v="833481" />
	</node>
	<node lat="68.22231110893381" lon="14.186980558082263" id="-24585">
		<tag k="name" v="Børøysundet" />
		<tag k="natural" v="strait" />
		<tag k="ssr:stedsnr" v="833475" />
	</node>
	<node lat="68.23710833330654" lon="14.550613878356362" id="-24586">
		<tag k="fixme" v="consider seamark:type=rock or natural=shoal" />
		<tag k="name" v="Badebuktskjæret" />
		<tag k="place" v="islet" />
		<tag k="ssr:stedsnr" v="833736" />
	</node>
	<node lat="68.2445333339117" lon="14.277316655109697" id="-24588">
		<tag k="fixme" v="multiple name tags, choose one and add the other to alt_name" />
		<tag k="name" v="Holmen;Haugholmen" />
		<tag k="natural" v="cape" />
		<tag k="ssr:stedsnr" v="834018" />
	</node>
	<node lat="68.22136666994139" lon="14.750297224271758" id="-24590">
		<tag k="name" v="Kviga" />
		<tag k="natural" v="cape" />
		<tag k="ssr:stedsnr" v="836049" />
	</node>
	<node lat="68.29411666926715" lon="14.701866678621982" id="-24591">
		<tag k="name" v="Stabben" />
		<tag k="place" v="locality" />
		<tag k="seamark:type" v="rock" />
		<tag k="ssr:stedsnr" v="836113" />
	</node>
	<node lat="68.19994166280665" lon="14.43351666890499" id="-24592">
		<tag k="name" v="Rekøysundet" />
		<tag k="natural" v="strait" />
		<tag k="ssr:stedsnr" v="836417" />
	</node>
	<node lat="68.29523333661194" lon="14.280533328926452" id="-24593">
		<tag k="alt_name" v="Klokkarbøen" />
		<tag k="name" v="Klokkerbåen" />
		<tag k="place" v="locality" />
		<tag k="seamark:type" v="rock" />
		<tag k="ssr:stedsnr" v="836756" />
	</node>
	<node lat="68.27669444334336" lon="14.280558337943061" id="-24594">
		<tag k="name" v="Andhella" />
		<tag k="natural" v="shoal" />
		<tag k="place" v="locality" />
		<tag k="ssr:stedsnr" v="836948" />
	</node>
	<node lat="68.33127959889246" lon="15.016274768078588" id="-24595">
		<tag k="name" v="Kjellarvika" />
		<tag k="natural" v="bay" />
		<tag k="ssr:stedsnr" v="844567" />
	</node>
	<node lat="68.3210749974339" lon="14.701124996019155" id="-24598">
		<tag k="name" v="Langodden" />
		<tag k="natural" v="cape" />
		<tag k="ssr:stedsnr" v="845860" />
	</node>
	<node lat="68.27959999871592" lon="14.307927766882752" id="-24601">
		<tag k="name" v="Neset" />
		<tag k="natural" v="cape" />
		<tag k="ssr:stedsnr" v="846650" />
	</node>
	<node lat="68.26899722559376" lon="14.15971112142858" id="-24607">
		<tag k="name" v="Hamna" />
		<tag k="natural" v="bay" />
		<tag k="ssr:stedsnr" v="848350" />
	</node>
	<node lat="68.26738610731252" lon="15.0240944516059" id="-24608">
		<tag k="name" v="Nåløyholmen" />
		<tag k="place" v="islet" />
		<tag k="ssr:stedsnr" v="848439" />
	</node>
	<node lat="68.38758333746226" lon="14.408452767810193" id="-24610">
		<tag k="name" v="Singsholmen" />
		<tag k="natural" v="cape" />
		<tag k="ssr:stedsnr" v="848547" />
	</node>
	<node lat="68.34021111386883" lon="14.441172228266923" id="-24611">
		<tag k="name" v="Storhaugbukta" />
		<tag k="natural" v="bay" />
		<tag k="ssr:stedsnr" v="848548" />
	</node>
	<node lat="68.33227777505364" lon="14.444763896056456" id="-24613">
		<tag k="name" v="Rørbukta" />
		<tag k="natural" v="bay" />
		<tag k="ssr:stedsnr" v="848551" />
	</node>
	<node lat="68.34462221788218" lon="14.718177785467084" id="-24618">
		<tag k="name" v="Kallvikodden" />
		<tag k="natural" v="cape" />
		<tag k="ssr:stedsnr" v="848860" />
	</node>
	<node lat="68.28458333459942" lon="14.959466678996968" id="-24621">
		<tag k="name" v="Vedbergan" />
		<tag k="natural" v="cape" />
		<tag k="ssr:stedsnr" v="866553" />
	</node>
	<node lat="68.3138805581276" lon="15.173649998529244" id="-24624">
		<tag k="name" v="Hundsnesodden" />
		<tag k="natural" v="cape" />
		<tag k="ssr:stedsnr" v="866034" />
	</node>
	<node lat="68.32620555614957" lon="14.088252789611754" id="-24626">
		<tag k="name" v="Vikspollen" />
		<tag k="natural" v="bay" />
		<tag k="ssr:stedsnr" v="866057" />
	</node>
	<node lat="68.27662222464383" lon="15.098563882574416" id="-24628">
		<tag k="name" v="Rundholmen" />
		<tag k="place" v="islet" />
		<tag k="ssr:stedsnr" v="866078" />
	</node>
	<node lat="68.26375833316112" lon="15.05568889133137" id="-24630">
		<tag k="name" v="Steinsøydraget" />
		<tag k="place" v="islet" />
		<tag k="ssr:stedsnr" v="866092" />
	</node>
	<node lat="68.26742221877547" lon="15.02408055568037" id="-24631">
		<tag k="name" v="Trollskardskjeran" />
		<tag k="place" v="islet" />
		<tag k="ssr:stedsnr" v="866094" />
	</node>
	<node lat="68.25249444380371" lon="15.097133335391135" id="-24632">
		<tag k="fixme" v="consider seamark:type=rock or natural=shoal" />
		<tag k="name" v="Flatøyskjæran" />
		<tag k="place" v="islet" />
		<tag k="ssr:stedsnr" v="866099" />
	</node>
	<node lat="68.2568249987196" lon="15.083888899488844" id="-24634">
		<tag k="name" v="Tjuvøya" />
		<tag k="place" v="islet" />
		<tag k="ssr:stedsnr" v="866102" />
	</node>
	<node lat="68.19138610699316" lon="14.698269450223979" id="-24635">
		<tag k="name" v="Skotålen" />
		<tag k="place" v="islet" />
		<tag k="ssr:stedsnr" v="866107" />
	</node>
	<node lat="68.17597221757069" lon="14.709958344141418" id="-24636">
		<tag k="name" v="Skrovsvedet" />
		<tag k="natural" v="strait" />
		<tag k="ssr:stedsnr" v="866112" />
	</node>
	<node lat="68.1976972249895" lon="14.510177775867461" id="-24640">
		<tag k="name" v="Oppsigskallen" />
		<tag k="natural" v="shoal" />
		<tag k="place" v="locality" />
		<tag k="ssr:stedsnr" v="866205" />
	</node>
	<node lat="68.18026388646251" lon="14.74236943304874" id="-24643">
		<tag k="name" v="Jomfruskallen" />
		<tag k="natural" v="shoal" />
		<tag k="place" v="locality" />
		<tag k="ssr:stedsnr" v="866131" />
	</node>
	<node lat="68.1337916623228" lon="14.157825010816932" id="-24644">
		<tag k="name" v="Vestværet" />
		<tag k="place" v="island" />
		<tag k="ssr:stedsnr" v="866338" />
	</node>
	<node lat="68.34860555575152" lon="14.478683337433813" id="-24646">
		<tag k="name" v="Verkodden" />
		<tag k="natural" v="cape" />
		<tag k="ssr:stedsnr" v="866374" />
	</node>
	<node lat="68.23548333760834" lon="14.987449994021027" id="-24652">
		<tag k="alt_name" v="Veren" />
		<tag k="name" v="Væren" />
		<tag k="natural" v="shoal" />
		<tag k="place" v="locality" />
		<tag k="ssr:stedsnr" v="866279" />
	</node>
	<node lat="68.14520277790857" lon="14.164716665808747" id="-24654">
		<tag k="alt_name" v="Breidskallan" />
		<tag k="fixme" v="consider seamark:type=rock or natural=shoal" />
		<tag k="name" v="Breiskallan" />
		<tag k="place" v="islet" />
		<tag k="ssr:stedsnr" v="866295" />
	</node>
	<node lat="68.16405555415206" lon="14.373183324621335" id="-24657">
		<tag k="name" v="Bremråsskallen" />
		<tag k="natural" v="shoal" />
		<tag k="place" v="locality" />
		<tag k="ssr:stedsnr" v="866384" />
	</node>
	<node lat="68.16543888447661" lon="14.350880557547343" id="-24658">
		<tag k="name" v="Bremholmskallen" />
		<tag k="natural" v="shoal" />
		<tag k="place" v="locality" />
		<tag k="ssr:stedsnr" v="866385" />
	</node>
	<node lat="68.35112778145182" lon="14.430897226028806" id="-24662">
		<tag k="name" v="Nordstraumen" />
		<tag k="natural" v="strait" />
		<tag k="ssr:stedsnr" v="866451" />
	</node>
	<node lat="68.30895277910598" lon="14.930783329914425" id="-24663">
		<tag k="name" v="Finnvika" />
		<tag k="natural" v="bay" />
		<tag k="ssr:stedsnr" v="866473" />
	</node>
	<node lat="68.22076944488283" lon="14.190505549728757" id="-24668">
		<tag k="name" v="Lyngværet" />
		<tag k="place" v="island" />
		<tag k="ssr:stedsnr" v="866561" />
	</node>
	<node lat="68.2713749994125" lon="14.98995833530655" id="-24669">
		<tag k="name" v="Kråkvalen" />
		<tag k="natural" v="bay" />
		<tag k="ssr:stedsnr" v="866563" />
	</node>
	<node lat="68.28493055779562" lon="14.808724993959899" id="-24673">
		<tag k="name" v="Tjuvvika" />
		<tag k="natural" v="bay" />
		<tag k="ssr:stedsnr" v="866597" />
	</node>
	<node lat="68.28122222446572" lon="14.656752778179257" id="-24676">
		<tag k="name" v="Straumsøya" />
		<tag k="place" v="island" />
		<tag k="ssr:stedsnr" v="866603" />
	</node>
	<node lat="68.29137222426444" lon="15.09643611179287" id="-24677">
		<tag k="name" v="Handkleberget" />
		<tag k="natural" v="cape" />
		<tag k="ssr:stedsnr" v="867100" />
	</node>
	<node lat="68.3317527752078" lon="14.326972218976067" id="-24678">
		<tag k="name" v="Krokstøa" />
		<tag k="natural" v="bay" />
		<tag k="ssr:stedsnr" v="867106" />
	</node>
	<node lat="68.36427222572372" lon="14.406166672734864" id="-24679">
		<tag k="name" v="Lyngøya" />
		<tag k="place" v="island" />
		<tag k="ssr:stedsnr" v="866903" />
	</node>
	<node lat="68.35951110927219" lon="14.411672231830417" id="-24680">
		<tag k="name" v="Leirene" />
		<tag k="natural" v="bay" />
		<tag k="ssr:stedsnr" v="866905" />
	</node>
	<node lat="68.35811666578182" lon="14.335241655374993" id="-24681">
		<tag k="name" v="Leihella" />
		<tag k="natural" v="shoal" />
		<tag k="place" v="locality" />
		<tag k="ssr:stedsnr" v="866909" />
	</node>
	<node lat="68.36270833218721" lon="14.376838880583966" id="-24682">
		<tag k="name" v="Korsholmen" />
		<tag k="place" v="islet" />
		<tag k="ssr:stedsnr" v="866910" />
	</node>
	<node lat="68.45129999940886" lon="14.31079721547092" id="-24683">
		<tag k="name" v="Himmeltindtaren" />
		<tag k="natural" v="shoal" />
		<tag k="place" v="locality" />
		<tag k="ssr:stedsnr" v="866943" />
	</node>
	<node lat="68.4322388867431" lon="14.207855555540027" id="-24684">
		<tag k="name" v="Tindtorskallen" />
		<tag k="natural" v="shoal" />
		<tag k="place" v="locality" />
		<tag k="ssr:stedsnr" v="866945" />
	</node>
	<node lat="68.37022222081931" lon="14.333747229324938" id="-24687">
		<tag k="name" v="Fallan" />
		<tag k="natural" v="shoal" />
		<tag k="place" v="locality" />
		<tag k="ssr:stedsnr" v="866919" />
	</node>
	<node lat="68.37658889210205" lon="14.406697217420762" id="-24688">
		<tag k="name" v="Landfastholman" />
		<tag k="place" v="islet" />
		<tag k="ssr:stedsnr" v="866920" />
	</node>
	<node lat="68.37688611397628" lon="14.381105546284939" id="-24689">
		<tag k="name" v="Kjøpmannsbåen" />
		<tag k="natural" v="shoal" />
		<tag k="place" v="locality" />
		<tag k="ssr:stedsnr" v="866921" />
	</node>
	<node lat="68.16743333599062" lon="14.456600011131167" id="-24691">
		<tag k="name" v="Knutsbåen" />
		<tag k="natural" v="shoal" />
		<tag k="place" v="locality" />
		<tag k="ssr:stedsnr" v="867195" />
	</node>
	<node lat="68.1383638863858" lon="14.63782778177713" id="-24692">
		<tag k="bay" v="fjord" />
		<tag k="name" v="Kvalhøgdleia" />
		<tag k="natural" v="bay" />
		<tag k="ssr:stedsnr" v="867208" />
	</node>
	<node lat="68.22598055790426" lon="14.860883343322351" id="-24694">
		<tag k="name" v="Krabbvågen" />
		<tag k="natural" v="bay" />
		<tag k="ssr:stedsnr" v="867216" />
	</node>
	<node lat="68.21579722481144" lon="14.443941671654605" id="-24695">
		<tag k="name" v="Karlsvågen" />
		<tag k="natural" v="bay" />
		<tag k="ssr:stedsnr" v="867220" />
	</node>
	<node lat="68.35043055796551" lon="14.142991678487132" id="-24702">
		<tag k="name" v="Titingen" />
		<tag k="natural" v="shoal" />
		<tag k="place" v="locality" />
		<tag k="ssr:stedsnr" v="867910" />
	</node>
	<node lat="68.22788611428984" lon="14.83569722630928" id="-24703">
		<tag k="name" v="Sponvikodden" />
		<tag k="natural" v="cape" />
		<tag k="ssr:stedsnr" v="867231" />
	</node>
	<node lat="68.21820277494093" lon="14.55250833476825" id="-24708">
		<tag k="name" v="Rødholman" />
		<tag k="place" v="islet" />
		<tag k="ssr:stedsnr" v="867249" />
	</node>
	<node lat="68.33014166877895" lon="14.507736118722166" id="-24714">
		<tag k="name" v="Grasbukta" />
		<tag k="natural" v="bay" />
		<tag k="ssr:stedsnr" v="867432" />
	</node>
	<node lat="68.31600555800881" lon="14.98290000916557" id="-24728">
		<tag k="name" v="Nordklubben" />
		<tag k="natural" v="cape" />
		<tag k="ssr:stedsnr" v="867567" />
	</node>
	<node lat="68.87405277898304" lon="15.580744438809667" id="-24729">
		<tag k="alt_name:no" v="Hinnøy" />
		<tag k="name" v="Hinnøya" />
		<tag k="name:no" v="Hinnøya" />
		<tag k="name:se" v="Iinnasuolu" />
		<tag k="place" v="island" />
		<tag k="ssr:stedsnr" v="867568" />
	</node>
	<node lat="68.232772226213" lon="14.208311114311169" id="-24735">
		<tag k="name" v="Fiskholmen" />
		<tag k="place" v="islet" />
		<tag k="ssr:stedsnr" v="867864" />
	</node>
	<node lat="68.22182777843427" lon="14.191149992627215" id="-24736">
		<tag k="name" v="Storøya" />
		<tag k="place" v="island" />
		<tag k="ssr:stedsnr" v="867868" />
	</node>
	<node lat="68.30340000275015" lon="15.006136110650402" id="-24752">
		<tag k="name" v="Breivollvågen" />
		<tag k="natural" v="bay" />
		<tag k="ssr:stedsnr" v="874873" />
	</node>
	<node lat="68.30106666372606" lon="15.045166660352304" id="-24753">
		<tag k="name" v="Valstrandvågen" />
		<tag k="natural" v="bay" />
		<tag k="ssr:stedsnr" v="874883" />
	</node>
	<node lat="68.2622111098337" lon="15.006374989720301" id="-24754">
		<tag k="name" v="Båtholmen" />
		<tag k="place" v="islet" />
		<tag k="ssr:stedsnr" v="875215" />
	</node>
	<node lat="68.29539999929287" lon="14.870322224571634" id="-24774">
		<tag k="name" v="Nordre Øyhellestrand" />
		<tag k="natural" v="beach" />
		<tag k="ssr:stedsnr" v="886389" />
	</node>
	<node lat="68.2212027818774" lon="14.833911113299628" id="-24799">
		<tag k="fixme" v="consider seamark:type=rock or natural=shoal" />
		<tag k="name" v="Stampen" />
		<tag k="place" v="islet" />
		<tag k="ssr:stedsnr" v="947919" />
	</node>
	<node lat="68.2669555516705" lon="14.987319441482597" id="-24800">
		<tag k="name" v="Skjågrunnen" />
		<tag k="natural" v="shoal" />
		<tag k="place" v="locality" />
		<tag k="ssr:stedsnr" v="947975" />
	</node>
	<node lat="68.39551388448204" lon="14.464855563586879" id="-24805">
		<tag k="name" v="Klinta" />
		<tag k="natural" v="cape" />
		<tag k="ssr:stedsnr" v="950754" />
	</node>
	<node lat="68.22105555302885" lon="14.553994442160043" id="-24808">
		<tag k="name" v="Rødholmgrunnan" />
		<tag k="natural" v="shoal" />
		<tag k="place" v="locality" />
		<tag k="ssr:stedsnr" v="954718" />
	</node>
	<node lat="68.21931388546938" lon="14.18353611699073" id="-24809">
		<tag k="alt_name" v="Litl Børøya" />
		<tag k="name" v="Lille Børøy" />
		<tag k="place" v="islet" />
		<tag k="ssr:stedsnr" v="954469" />
	</node>
	<node lat="68.38547777986001" lon="14.063591664737354" id="-24810">
		<tag k="name" v="Smortørskallen" />
		<tag k="natural" v="shoal" />
		<tag k="place" v="locality" />
		<tag k="ssr:stedsnr" v="957562" />
	</node>
	<node lat="68.32724721845527" lon="14.081611111320484" id="-24811">
		<tag k="fixme" v="consider seamark:type=rock or natural=shoal" />
		<tag k="name" v="Svartskjæret" />
		<tag k="place" v="islet" />
		<tag k="ssr:stedsnr" v="965481" />
	</node>
	<node lat="68.25807777790934" lon="14.367605544008038" id="-24813">
		<tag k="name" v="Kubban" />
		<tag k="natural" v="cape" />
		<tag k="ssr:stedsnr" v="967634" />
	</node>
	<node lat="68.27719722605795" lon="14.155147225736755" id="-24822">
		<tag k="name" v="Påleneset" />
		<tag k="natural" v="cape" />
		<tag k="ssr:stedsnr" v="969318" />
	</node>
</osm>
