<?xml version="1.0" encoding="UTF-8"?>
<osm version="0.6" generator="osmapis">
	<node lat="68.15181119598522" lon="14.198373326731893" id="-23544">
		<tag k="alt_name" v="Henningsvær" />
		<tag k="amenity" v="place_of_worship" />
		<tag k="denomination" v="lutheran" />
		<tag k="name" v="Henningsvær kirke" />
		<tag k="religion" v="christian" />
		<tag k="ssr:stedsnr" v="684331" />
	</node>
	<node lat="68.30289444870465" lon="14.739336115835233" id="-23798">
		<tag k="name" v="Bakkjorda" />
		<tag k="place" v="locality" />
		<tag k="ssr:stedsnr" v="684515" />
	</node>
	<node lat="68.21571944643158" lon="14.483230548475326" id="-23869">
		<tag k="alt_name" v="Vågan" />
		<tag k="amenity" v="place_of_worship" />
		<tag k="denomination" v="lutheran" />
		<tag k="name" v="Vågan kirke" />
		<tag k="religion" v="christian" />
		<tag k="ssr:stedsnr" v="745230" />
	</node>
	<node lat="68.35994999981631" lon="14.482044443865743" id="-24179">
		<tag k="name" v="Lokomotivstallen" />
		<tag k="place" v="locality" />
		<tag k="ssr:stedsnr" v="950917" />
	</node>
	<node lat="68.3545777763815" lon="14.496233335701174" id="-24491">
		<tag k="name" v="Bremsebanen" />
		<tag k="place" v="locality" />
		<tag k="ssr:stedsnr" v="100896" />
	</node>
	<node lat="68.3525416663222" lon="14.478716655709254" id="-24873">
		<tag k="name" v="Gammelverket" />
		<tag k="place" v="locality" />
		<tag k="ssr:stedsnr" v="343929" />
	</node>
	<node lat="68.39291666395968" lon="14.46880832273291" id="-25156">
		<tag k="alt_name" v="Strandlandet" />
		<tag k="amenity" v="place_of_worship" />
		<tag k="denomination" v="lutheran" />
		<tag k="name" v="Strandlandet kirke" />
		<tag k="religion" v="christian" />
		<tag k="ssr:stedsnr" v="502270" />
	</node>
	<node lat="68.32231111468546" lon="14.720152787262421" id="-25229">
		<tag k="amenity" v="place_of_worship" />
		<tag k="denomination" v="lutheran" />
		<tag k="name" v="Sildpollnes kapell" />
		<tag k="religion" v="christian" />
		<tag k="ssr:stedsnr" v="541839" />
	</node>
	<node lat="68.31220277883672" lon="14.984941662364635" id="-25295">
		<tag k="alt_name" v="Digermulen" />
		<tag k="amenity" v="place_of_worship" />
		<tag k="denomination" v="lutheran" />
		<tag k="name" v="Digermulen kirke" />
		<tag k="religion" v="christian" />
		<tag k="ssr:stedsnr" v="562496" />
	</node>
	<node lat="68.25595187953313" lon="14.671486226759155" id="-25441">
		<tag k="name" v="Teisthaugan" />
		<tag k="place" v="locality" />
		<tag k="ssr:stedsnr" v="623684" />
	</node>
	<node lat="68.28204722372757" lon="14.935369454119616" id="-25497">
		<tag k="name" v="Hestvika" />
		<tag k="place" v="locality" />
		<tag k="ssr:stedsnr" v="642935" />
	</node>
	<node lat="68.32055092956324" lon="14.241449039672245" id="-25665">
		<tag k="alt_name" v="Gimsøy" />
		<tag k="amenity" v="place_of_worship" />
		<tag k="denomination" v="lutheran" />
		<tag k="name" v="Gimsøy kirke" />
		<tag k="religion" v="christian" />
		<tag k="ssr:stedsnr" v="805084" />
	</node>
	<node lat="68.23354770145201" lon="14.5633109323407" id="-26261">
		<tag k="amenity" v="place_of_worship" />
		<tag k="denomination" v="lutheran" />
		<tag k="name" v="Svolvær kirke" />
		<tag k="religion" v="christian" />
		<tag k="ssr:stedsnr" v="1082606" />
	</node>
</osm>
