<?xml version="1.0" encoding="UTF-8"?>
<osm version="0.6" generator="osmapis">
	<node lat="68.05724630180383" lon="13.534328424176262" id="-12938">
		<tag k="name" v="Sandholmskjæret" />
		<tag k="old_name" v="Sandholmskjer" />
		<tag k="ssr:date" v="2020-09-15" />
		<tag k="ssr:gruppe" v="navigasjon" />
		<tag k="ssr:hovedgruppe" v="infrastruktur" />
		<tag k="ssr:stedsnr" v="199728" />
		<tag k="ssr:type" v="fyrlykt" />
	</node>
	<node lat="68.0839441910318" lon="13.737699856463893" id="-12944">
		<tag k="name" v="Ure" />
		<tag k="old_name" v="Ure lykt" />
		<tag k="ssr:date" v="2020-09-15" />
		<tag k="ssr:gruppe" v="navigasjon" />
		<tag k="ssr:hovedgruppe" v="infrastruktur" />
		<tag k="ssr:stedsnr" v="199665" />
		<tag k="ssr:type" v="fyrlykt" />
	</node>
	<node lat="68.16101388663483" lon="13.915655552203324" id="-13038">
		<tag k="name" v="Lille Kvanholmen" />
		<tag k="old_name" v="Litlkvannholmen" />
		<tag k="ssr:date" v="2016-05-10" />
		<tag k="ssr:gruppe" v="navigasjon" />
		<tag k="ssr:hovedgruppe" v="infrastruktur" />
		<tag k="ssr:stedsnr" v="259405" />
		<tag k="ssr:type" v="fyrlykt" />
	</node>
	<node lat="68.11359444548911" lon="13.801997218668363" id="-13052">
		<tag k="name" v="Steine" />
		<tag k="ssr:date" v="2021-06-08" />
		<tag k="ssr:gruppe" v="navigasjon" />
		<tag k="ssr:hovedgruppe" v="infrastruktur" />
		<tag k="ssr:stedsnr" v="259830" />
		<tag k="ssr:type" v="fyrlykt" />
	</node>
	<node lat="68.08084864296612" lon="13.697915848558688" id="-13159">
		<tag k="name" v="Mortsund, Østre" />
		<tag k="old_name" v="Mortsund, austre;Østre Mortsund lykt" />
		<tag k="ssr:date" v="2020-09-15" />
		<tag k="ssr:gruppe" v="navigasjon" />
		<tag k="ssr:hovedgruppe" v="infrastruktur" />
		<tag k="ssr:stedsnr" v="320747" />
		<tag k="ssr:type" v="fyrlykt" />
	</node>
	<node lat="68.32059722439001" lon="13.791438893759993" id="-13269">
		<tag k="name" v="Kjeldskjærgrunnen" />
		<tag k="old_name" v="Kjeldskjergrunnen" />
		<tag k="ssr:date" v="2016-05-10" />
		<tag k="ssr:gruppe" v="navigasjon" />
		<tag k="ssr:hovedgruppe" v="infrastruktur" />
		<tag k="ssr:stedsnr" v="380809" />
		<tag k="ssr:type" v="fyrlykt" />
	</node>
	<node lat="68.3105666665102" lon="13.684688886413607" id="-13287">
		<tag k="name" v="Eggum" />
		<tag k="ssr:date" v="2016-05-10" />
		<tag k="ssr:gruppe" v="navigasjon" />
		<tag k="ssr:hovedgruppe" v="infrastruktur" />
		<tag k="ssr:stedsnr" v="381805" />
		<tag k="ssr:type" v="fyrlykt" />
	</node>
	<node lat="68.34680277749871" lon="13.97079166668914" id="-13293">
		<tag k="name" v="Kvalnes" />
		<tag k="ssr:date" v="2016-05-10" />
		<tag k="ssr:gruppe" v="navigasjon" />
		<tag k="ssr:hovedgruppe" v="infrastruktur" />
		<tag k="ssr:stedsnr" v="381913" />
		<tag k="ssr:type" v="fyrlykt" />
	</node>
	<node lat="68.20173055404082" lon="14.13129999225378" id="-13370">
		<tag k="name" v="Malnes" />
		<tag k="ssr:date" v="2016-05-10" />
		<tag k="ssr:gruppe" v="navigasjon" />
		<tag k="ssr:hovedgruppe" v="infrastruktur" />
		<tag k="ssr:stedsnr" v="442509" />
		<tag k="ssr:type" v="fyrlykt" />
	</node>
	<node lat="68.05828524893167" lon="13.485347611568617" id="-13465">
		<tag k="name" v="Grænvika" />
		<tag k="old_name" v="Grenvika" />
		<tag k="ssr:date" v="2020-09-15" />
		<tag k="ssr:gruppe" v="navigasjon" />
		<tag k="ssr:hovedgruppe" v="infrastruktur" />
		<tag k="ssr:stedsnr" v="502715" />
		<tag k="ssr:type" v="fyrlykt" />
	</node>
	<node lat="68.10614444517503" lon="13.981655560265605" id="-13576">
		<tag k="name" v="Kåsbakken" />
		<tag k="ssr:date" v="2019-12-27" />
		<tag k="ssr:gruppe" v="sjøbunn" />
		<tag k="ssr:hovedgruppe" v="sjø" />
		<tag k="ssr:stedsnr" v="532686" />
		<tag k="ssr:type" v="bakkeISjø" />
	</node>
	<node lat="68.14830277866498" lon="13.611191663954862" id="-13627">
		<tag k="name" v="Vestvågøy kommune" />
		<tag k="ssr:date" v="2016-05-11" />
		<tag k="ssr:gruppe" v="administrativeIndelinger" />
		<tag k="ssr:hovedgruppe" v="offentligAdministrasjon" />
		<tag k="ssr:stedsnr" v="693452" />
		<tag k="ssr:type" v="kommune" />
	</node>
	<node lat="68.31171377941041" lon="13.87626705586399" id="-13790">
		<tag k="name" v="Sand, Øvre" />
		<tag k="ssr:date" v="2020-03-16" />
		<tag k="ssr:gruppe" v="navigasjon" />
		<tag k="ssr:hovedgruppe" v="infrastruktur" />
		<tag k="ssr:stedsnr" v="684103" />
		<tag k="ssr:type" v="fyrlykt" />
	</node>
	<node lat="68.30498611111204" lon="13.753522227716594" id="-13812">
		<tag k="name" v="Nesjeøyene" />
		<tag k="old_name" v="Nesjeøyan" />
		<tag k="ssr:date" v="2016-05-11" />
		<tag k="ssr:gruppe" v="navigasjon" />
		<tag k="ssr:hovedgruppe" v="infrastruktur" />
		<tag k="ssr:stedsnr" v="684753" />
		<tag k="ssr:type" v="fyrlykt" />
	</node>
	<node lat="68.17312500404087" lon="13.950466672389293" id="-13821">
		<tag k="name" v="Valberg" />
		<tag k="ssr:date" v="2016-05-11" />
		<tag k="ssr:gruppe" v="navigasjon" />
		<tag k="ssr:hovedgruppe" v="infrastruktur" />
		<tag k="ssr:stedsnr" v="685408" />
		<tag k="ssr:type" v="fyrlykt" />
	</node>
	<node lat="68.22510861777764" lon="13.438542648518755" id="-13880">
		<tag k="name" v="Hæsholmene" />
		<tag k="old_name" v="Æsholman" />
		<tag k="ssr:date" v="2020-09-15" />
		<tag k="ssr:gruppe" v="navigasjon" />
		<tag k="ssr:hovedgruppe" v="infrastruktur" />
		<tag k="ssr:stedsnr" v="745086" />
		<tag k="ssr:type" v="fyrlykt" />
	</node>
	<node lat="68.1183305593314" lon="13.850666667594657" id="-13895">
		<tag k="name" v="Stamsund" />
		<tag k="ssr:date" v="2016-05-11" />
		<tag k="ssr:gruppe" v="navigasjon" />
		<tag k="ssr:hovedgruppe" v="infrastruktur" />
		<tag k="ssr:stedsnr" v="745375" />
		<tag k="ssr:type" v="fyrlykt" />
	</node>
	<node lat="68.09440806355575" lon="13.733919362206384" id="-14086">
		<tag k="name" v="Notsskjæret" />
		<tag k="old_name" v="Notskjeret" />
		<tag k="ssr:date" v="2020-09-17" />
		<tag k="ssr:gruppe" v="navigasjon" />
		<tag k="ssr:hovedgruppe" v="infrastruktur" />
		<tag k="ssr:stedsnr" v="927628" />
		<tag k="ssr:type" v="fyrlykt" />
	</node>
	<node lat="68.06884587862825" lon="13.551373710244825" id="-14089">
		<tag k="alt_name" v="Balstadøy" />
		<tag k="name" v="Ballstadøy" />
		<tag k="ssr:date" v="2020-09-17" />
		<tag k="ssr:gruppe" v="navigasjon" />
		<tag k="ssr:hovedgruppe" v="infrastruktur" />
		<tag k="ssr:stedsnr" v="927695" />
		<tag k="ssr:type" v="fyrlykt" />
	</node>
	<node lat="68.04895325764159" lon="13.543357859383253" id="-14291">
		<tag k="alt_name" v="Balstad" />
		<tag k="name" v="Ballstad" />
		<tag k="ssr:date" v="2020-09-15" />
		<tag k="ssr:gruppe" v="navigasjon" />
		<tag k="ssr:hovedgruppe" v="infrastruktur" />
		<tag k="ssr:stedsnr" v="17554" />
		<tag k="ssr:type" v="fyrlykt" />
	</node>
	<node lat="68.11025833622865" lon="14.024019442841386" id="-14379">
		<tag k="name" v="Kåsen" />
		<tag k="ssr:date" v="2019-12-27" />
		<tag k="ssr:gruppe" v="sjøbunn" />
		<tag k="ssr:hovedgruppe" v="sjø" />
		<tag k="ssr:stedsnr" v="47689" />
		<tag k="ssr:type" v="renneKløftISjø" />
	</node>
	<node lat="68.32921944702379" lon="13.816686116818836" id="-14414">
		<tag k="name" v="Borgvær havn" />
		<tag k="old_name" v="Borgværhamn" />
		<tag k="ssr:date" v="2016-05-10" />
		<tag k="ssr:gruppe" v="navigasjon" />
		<tag k="ssr:hovedgruppe" v="infrastruktur" />
		<tag k="ssr:stedsnr" v="77786" />
		<tag k="ssr:type" v="fyrlykt" />
	</node>
	<node lat="68.30740278049481" lon="13.788077785475172" id="-14441">
		<tag k="name" v="Vedløysa" />
		<tag k="ssr:date" v="2016-05-10" />
		<tag k="ssr:gruppe" v="navigasjon" />
		<tag k="ssr:hovedgruppe" v="infrastruktur" />
		<tag k="ssr:stedsnr" v="78782" />
		<tag k="ssr:type" v="fyrlykt" />
	</node>
	<node lat="68.11766110979485" lon="13.583236110003288" id="-14445">
		<tag k="name" v="Buksnes" />
		<tag k="old_name" v="Løkta" />
		<tag k="ssr:date" v="2016-05-10" />
		<tag k="ssr:gruppe" v="navigasjon" />
		<tag k="ssr:hovedgruppe" v="infrastruktur" />
		<tag k="ssr:stedsnr" v="78866" />
		<tag k="ssr:type" v="fyrlykt" />
	</node>
	<node lat="68.32341944480551" lon="14.021388888290636" id="-14559">
		<tag k="name" v="Limtåga" />
		<tag k="ssr:date" v="2016-05-10" />
		<tag k="ssr:gruppe" v="navigasjon" />
		<tag k="ssr:hovedgruppe" v="infrastruktur" />
		<tag k="ssr:stedsnr" v="137052" />
		<tag k="ssr:type" v="fyrlykt" />
	</node>
	<node lat="68.24714305577913" lon="13.510199296365295" id="-14569">
		<tag k="name" v="Skolmneset" />
		<tag k="ssr:date" v="2020-09-15" />
		<tag k="ssr:gruppe" v="navigasjon" />
		<tag k="ssr:hovedgruppe" v="infrastruktur" />
		<tag k="ssr:stedsnr" v="138069" />
		<tag k="ssr:type" v="fyrlykt" />
	</node>
	<node lat="68.31459721953854" lon="13.871088878531255" id="-14715">
		<tag k="name" v="Sand, Nedre" />
		<tag k="ssr:date" v="2016-05-10" />
		<tag k="ssr:gruppe" v="navigasjon" />
		<tag k="ssr:hovedgruppe" v="infrastruktur" />
		<tag k="ssr:stedsnr" v="199131" />
		<tag k="ssr:type" v="fyrlykt" />
	</node>
	<node lat="68.28634444730335" lon="13.57098887964054" id="-14863">
		<tag k="name" v="Kleivheia" />
		<tag k="ssr:date" v="2016-05-10" />
		<tag k="ssr:gruppe" v="navigasjon" />
		<tag k="ssr:hovedgruppe" v="infrastruktur" />
		<tag k="ssr:stedsnr" v="320764" />
		<tag k="ssr:type" v="fyrlykt" />
	</node>
	<node lat="68.1005583345219" lon="13.850733333576665" id="-14932">
		<tag k="name" v="Hagbaren" />
		<tag k="ssr:date" v="2016-05-10" />
		<tag k="ssr:gruppe" v="navigasjon" />
		<tag k="ssr:hovedgruppe" v="infrastruktur" />
		<tag k="ssr:stedsnr" v="350679" />
		<tag k="ssr:type" v="fyrlykt" />
	</node>
	<node lat="68.1725500015938" lon="14.024969434849892" id="-15116">
		<tag k="name" v="Okholmen" />
		<tag k="ssr:date" v="2016-05-10" />
		<tag k="ssr:gruppe" v="navigasjon" />
		<tag k="ssr:hovedgruppe" v="infrastruktur" />
		<tag k="ssr:stedsnr" v="442426" />
		<tag k="ssr:type" v="fyrlykt" />
	</node>
	<node lat="68.08052027072704" lon="13.644119942493807" id="-15174">
		<tag k="name" v="Mortsund, Vestre" />
		<tag k="ssr:date" v="2020-09-15" />
		<tag k="ssr:gruppe" v="navigasjon" />
		<tag k="ssr:hovedgruppe" v="infrastruktur" />
		<tag k="ssr:stedsnr" v="502749" />
		<tag k="ssr:type" v="fyrlykt" />
	</node>
	<node lat="67.2804027758844" lon="14.376388898255625" id="-15245">
		<tag k="alt_name:no" v="Nordland" />
		<tag k="loc_name:se" v="Nordlándda fylka" />
		<tag k="loc_name:sma" v="Nordlaanten fylhke" />
		<tag k="name" v="Nordland fylke - Nordlánda fylkka" />
		<tag k="name:no" v="Nordland fylke" />
		<tag k="name:smj" v="Nordlánda fylkka" />
		<tag k="ssr:date" v="2021-02-03" />
		<tag k="ssr:gruppe" v="administrativeIndelinger" />
		<tag k="ssr:hovedgruppe" v="offentligAdministrasjon" />
		<tag k="ssr:stedsnr" v="511766" />
		<tag k="ssr:type" v="fylke" />
	</node>
	<node lat="68.3316722190865" lon="13.795830544178454" id="-15467">
		<tag k="name" v="Borgvær" />
		<tag k="ssr:date" v="2016-05-10" />
		<tag k="ssr:gruppe" v="navigasjon" />
		<tag k="ssr:hovedgruppe" v="infrastruktur" />
		<tag k="ssr:stedsnr" v="623802" />
		<tag k="ssr:type" v="fyrlykt" />
	</node>
	<node lat="68.12999166971493" lon="13.859922223715397" id="-15717">
		<tag k="name" v="Buøyhavn" />
		<tag k="old_name" v="Buøyhamnen" />
		<tag k="ssr:date" v="2016-05-11" />
		<tag k="ssr:gruppe" v="navigasjon" />
		<tag k="ssr:hovedgruppe" v="infrastruktur" />
		<tag k="ssr:stedsnr" v="805370" />
		<tag k="ssr:type" v="fyrlykt" />
	</node>
	<node lat="68.31926666241817" lon="13.773869446526374" id="-15777">
		<tag k="name" v="Sørvestre  Borgværskjær" />
		<tag k="old_name" v="Borgværskjer, sv;Borgværskjær, sv" />
		<tag k="ssr:date" v="2016-05-11" />
		<tag k="ssr:gruppe" v="navigasjon" />
		<tag k="ssr:hovedgruppe" v="infrastruktur" />
		<tag k="ssr:stedsnr" v="806807" />
		<tag k="ssr:type" v="fyrlykt" />
	</node>
	<node lat="68.23843311259515" lon="13.587090976585223" id="-15886">
		<tag k="name" v="Bjørnrøy" />
		<tag k="old_name" v="Bjørnarøya" />
		<tag k="ssr:date" v="2020-09-17" />
		<tag k="ssr:gruppe" v="navigasjon" />
		<tag k="ssr:hovedgruppe" v="infrastruktur" />
		<tag k="ssr:stedsnr" v="867104" />
		<tag k="ssr:type" v="fyrlykt" />
	</node>
	<node lat="68.06815555479224" lon="13.550327770082093" id="-16060">
		<tag k="name" v="Ballstad molo" />
		<tag k="ssr:date" v="2016-05-11" />
		<tag k="ssr:gruppe" v="navigasjon" />
		<tag k="ssr:hovedgruppe" v="infrastruktur" />
		<tag k="ssr:stedsnr" v="967962" />
		<tag k="ssr:type" v="fyrlykt" />
	</node>
	<node lat="68.07823440238504" lon="13.532656734261705" id="-16062">
		<tag k="name" v="Rekstrand" />
		<tag k="ssr:date" v="2019-05-30" />
		<tag k="ssr:gruppe" v="veg" />
		<tag k="ssr:hovedgruppe" v="infrastruktur" />
		<tag k="ssr:stedsnr" v="1003506" />
		<tag k="ssr:type" v="adressenavn" />
	</node>
	<node lat="68.13819202004946" lon="13.610287516852784" id="-16063">
		<tag k="name" v="Mellomstranda" />
		<tag k="ssr:date" v="2019-05-30" />
		<tag k="ssr:gruppe" v="veg" />
		<tag k="ssr:hovedgruppe" v="infrastruktur" />
		<tag k="ssr:stedsnr" v="1004491" />
		<tag k="ssr:type" v="adressenavn" />
	</node>
	<node lat="68.13699766754908" lon="13.603639830071518" id="-16064">
		<tag k="name" v="Frøyas vei" />
		<tag k="old_name" v="Veinummer 3086" />
		<tag k="ssr:date" v="2019-05-30" />
		<tag k="ssr:gruppe" v="veg" />
		<tag k="ssr:hovedgruppe" v="infrastruktur" />
		<tag k="ssr:stedsnr" v="1004481" />
		<tag k="ssr:type" v="adressenavn" />
	</node>
	<node lat="68.14099930612194" lon="13.836708267841429" id="-16065">
		<tag k="name" v="Hellvikveien" />
		<tag k="old_name" v="Veinr. 4057" />
		<tag k="ssr:date" v="2021-09-08" />
		<tag k="ssr:gruppe" v="veg" />
		<tag k="ssr:hovedgruppe" v="infrastruktur" />
		<tag k="ssr:stedsnr" v="1005730" />
		<tag k="ssr:type" v="adressenavn" />
	</node>
	<node lat="68.10831570706064" lon="13.627907166635959" id="-16096">
		<tag k="name" v="Oksneset" />
		<tag k="old_name" v="Veg 6021" />
		<tag k="ssr:date" v="2021-09-29" />
		<tag k="ssr:gruppe" v="veg" />
		<tag k="ssr:hovedgruppe" v="infrastruktur" />
		<tag k="ssr:stedsnr" v="1079744" />
		<tag k="ssr:type" v="adressenavn" />
	</node>
	<node lat="68.1068843397053" lon="13.628302156888893" id="-16097">
		<tag k="name" v="Arvika" />
		<tag k="old_name" v="Veg 6020" />
		<tag k="ssr:date" v="2021-09-29" />
		<tag k="ssr:gruppe" v="veg" />
		<tag k="ssr:hovedgruppe" v="infrastruktur" />
		<tag k="ssr:stedsnr" v="1079743" />
		<tag k="ssr:type" v="adressenavn" />
	</node>
	<node lat="68.12229762089996" lon="13.542356645405668" id="-16098">
		<tag k="name" v="Veinr. 1054" />
		<tag k="ssr:date" v="2021-05-04" />
		<tag k="ssr:gruppe" v="veg" />
		<tag k="ssr:hovedgruppe" v="infrastruktur" />
		<tag k="ssr:stedsnr" v="1081130" />
		<tag k="ssr:type" v="adressenavn" />
	</node>
	<node lat="68.07367345996099" lon="13.547107423796101" id="-16100">
		<tag k="name" v="Utsikten" />
		<tag k="ssr:date" v="2021-09-08" />
		<tag k="ssr:gruppe" v="veg" />
		<tag k="ssr:hovedgruppe" v="infrastruktur" />
		<tag k="ssr:stedsnr" v="1082153" />
		<tag k="ssr:type" v="adressenavn" />
	</node>
	<node lat="68.15182580467243" lon="13.763496722846106" id="-16101">
		<tag k="name" v="Blåbergan" />
		<tag k="old_name" v="Vei 4058" />
		<tag k="ssr:date" v="2021-11-22" />
		<tag k="ssr:gruppe" v="veg" />
		<tag k="ssr:hovedgruppe" v="infrastruktur" />
		<tag k="ssr:stedsnr" v="1082437" />
		<tag k="ssr:type" v="adressenavn" />
	</node>
</osm>
