<?xml version="1.0" encoding="UTF-8"?>
<osm version="0.6" generator="osmapis">
	<node lat="61.07450833178224" lon="7.852683325327851" id="-76947">
		<tag k="name" v="Flintegrovi" />
		<tag k="ssr:stedsnr" v="229828" />
		<tag k="waterway" v="stream" />
	</node>
	<node lat="61.01258333688586" lon="8.096372226719843" id="-76949">
		<tag k="name" v="Mørkedøla" />
		<tag k="ssr:stedsnr" v="7449" />
		<tag k="waterway" v="river" />
	</node>
	<node lat="61.0511222222126" lon="7.9655944517884345" id="-76950">
		<tag k="name" v="Mørkedøla" />
		<tag k="ssr:stedsnr" v="7451" />
		<tag k="waterway" v="river" />
	</node>
	<node lat="60.97330278021716" lon="7.859580551739315" id="-76953">
		<tag k="name" v="Fossane" />
		<tag k="natural" v="waterfall" />
		<tag k="ssr:stedsnr" v="8704" />
	</node>
	<node lat="61.05182222258553" lon="7.222919438658018" id="-76955">
		<tag k="name" v="Daudmannsvatnet" />
		<tag k="natural" v="water" />
		<tag k="ssr:stedsnr" v="9402" />
	</node>
	<node lat="60.9102388912401" lon="7.706480557048895" id="-76956">
		<tag k="name" v="Hallingskeidvatnet" />
		<tag k="natural" v="water" />
		<tag k="ssr:stedsnr" v="9404" />
	</node>
	<node lat="61.22019152279461" lon="7.961976123931613" id="-76961">
		<tag k="alt_name" v="Krekavatnet, fremre" />
		<tag k="name" v="Fremre Krekavatnet" />
		<tag k="natural" v="water" />
		<tag k="ssr:stedsnr" v="9898" />
		<tag k="water" v="lake" />
	</node>
	<node lat="61.00760277355204" lon="8.08016112045008" id="-76966">
		<tag k="name" v="Kjølåni" />
		<tag k="ssr:stedsnr" v="10611" />
		<tag k="waterway" v="river" />
	</node>
	<node lat="61.0680861114987" lon="7.390802781683159" id="-76973">
		<tag k="name" v="Kolda" />
		<tag k="ssr:stedsnr" v="10780" />
		<tag k="waterway" v="stream" />
	</node>
	<node lat="61.04302221948208" lon="7.565591666057582" id="-76981">
		<tag k="name" v="Sniglafossen" />
		<tag k="natural" v="waterfall" />
		<tag k="ssr:stedsnr" v="46078" />
	</node>
	<node lat="61.10032500068788" lon="7.459258332971301" id="-76985">
		<tag k="name" v="Urasandgrovi" />
		<tag k="ssr:stedsnr" v="46369" />
		<tag k="waterway" v="stream" />
	</node>
	<node lat="61.03209999554295" lon="7.7939111087332105" id="-76989">
		<tag k="name" v="Hoggeberggrovi" />
		<tag k="ssr:stedsnr" v="46890" />
		<tag k="waterway" v="stream" />
	</node>
	<node lat="61.07531666767981" lon="7.857008335365699" id="-76991">
		<tag k="name" v="Nygardsgrovi" />
		<tag k="ssr:stedsnr" v="47815" />
		<tag k="waterway" v="stream" />
	</node>
	<node lat="61.086152782236006" lon="8.184341663796063" id="-76992">
		<tag k="name" v="Steintjørni" />
		<tag k="natural" v="water" />
		<tag k="old_name" v="Steintjerni" />
		<tag k="ssr:stedsnr" v="67647" />
	</node>
	<node lat="60.9679660042279" lon="7.594748744447499" id="-76997">
		<tag k="name" v="Raudvatnet" />
		<tag k="natural" v="water" />
		<tag k="ssr:stedsnr" v="69509" />
		<tag k="water" v="lake" />
	</node>
	<node lat="60.98381944808635" lon="7.3562250001231675" id="-76999">
		<tag k="name" v="Tissedøla" />
		<tag k="ssr:stedsnr" v="69524" />
		<tag k="waterway" v="stream" />
	</node>
	<node lat="61.01677499617063" lon="7.502794440711219" id="-77012">
		<tag k="alt_name" v="Heljegrovi" />
		<tag k="name" v="Helgegrovi" />
		<tag k="ssr:stedsnr" v="70808" />
		<tag k="waterway" v="stream" />
	</node>
	<node lat="61.09105000071992" lon="7.4460888798021" id="-77016">
		<tag k="name" v="Lomtjørni" />
		<tag k="natural" v="water" />
		<tag k="ssr:stedsnr" v="70782" />
	</node>
	<node lat="61.04982499835395" lon="7.832200004087895" id="-77021">
		<tag k="name" v="Sprangfossen" />
		<tag k="natural" v="waterfall" />
		<tag k="ssr:stedsnr" v="71532" />
	</node>
	<node lat="61.136002776324766" lon="7.41359721918884" id="-77028">
		<tag k="alt_name" v="Ytsta Lysegrovi" />
		<tag k="name" v="Ytsta Lysa" />
		<tag k="ssr:stedsnr" v="105187" />
		<tag k="waterway" v="stream" />
	</node>
	<node lat="61.0846583305116" lon="8.104474995314547" id="-77046">
		<tag k="name" v="Svartetjørni" />
		<tag k="natural" v="water" />
		<tag k="ssr:stedsnr" v="249615" />
	</node>
	<node lat="60.97061389187348" lon="7.607111110457239" id="-77051">
		<tag k="name" v="Raudvassosen" />
		<tag k="natural" v="bay" />
		<tag k="ssr:stedsnr" v="251489" />
	</node>
	<node lat="60.9679166650219" lon="7.564019451148341" id="-77052">
		<tag k="name" v="Sløsnetjørni" />
		<tag k="natural" v="water" />
		<tag k="ssr:stedsnr" v="251492" />
	</node>
	<node lat="61.06464444782776" lon="7.273311115586687" id="-77055">
		<tag k="name" v="Svartavatnet" />
		<tag k="natural" v="water" />
		<tag k="ssr:stedsnr" v="251441" />
	</node>
	<node lat="61.192619440479405" lon="8.028580554004927" id="-77063">
		<tag k="alt_name" v="Frostdalstjerni, nedre" />
		<tag k="name" v="Nedre Frostdalstjerni" />
		<tag k="natural" v="water" />
		<tag k="ssr:stedsnr" v="251931" />
	</node>
	<node lat="60.926801393515056" lon="7.5838813297458545" id="-77070">
		<tag k="alt_name" v="Ljosegrunnsvatnet, vetle;Ljosegrunnsvatnet" />
		<tag k="name" v="Vetle Ljosegrunnsvatnet" />
		<tag k="natural" v="water" />
		<tag k="ssr:stedsnr" v="129387" />
		<tag k="water" v="lake" />
	</node>
	<node lat="60.949819447431764" lon="7.64610833555584" id="-77071">
		<tag k="name" v="Svartevatn" />
		<tag k="natural" v="water" />
		<tag k="ssr:stedsnr" v="129394" />
	</node>
	<node lat="61.06300555917026" lon="7.187380559968865" id="-77077">
		<tag k="name" v="Storebotnelvi" />
		<tag k="ssr:stedsnr" v="130378" />
		<tag k="waterway" v="stream" />
	</node>
	<node lat="61.097136114907286" lon="7.092394446307768" id="-77081">
		<tag k="name" v="Lomtjørni" />
		<tag k="natural" v="water" />
		<tag k="ssr:stedsnr" v="130408" />
	</node>
	<node lat="61.065900004125794" lon="7.695136118695701" id="-77083">
		<tag k="name" v="Vardahaugtjørni" />
		<tag k="natural" v="water" />
		<tag k="ssr:stedsnr" v="130807" />
	</node>
	<node lat="61.17902777879195" lon="7.9977583342890615" id="-77085">
		<tag k="alt_name" v="Frostdøla, vetle" />
		<tag k="name" v="Vetle Frostdøla" />
		<tag k="ssr:stedsnr" v="130876" />
		<tag k="waterway" v="river" />
	</node>
	<node lat="61.127431413211035" lon="7.95176711063027" id="-77088">
		<tag k="name" v="Kviesjøen" />
		<tag k="natural" v="water" />
		<tag k="ssr:stedsnr" v="130979" />
		<tag k="water" v="lake" />
	</node>
	<node lat="61.08639444338362" lon="7.747766669916601" id="-77102">
		<tag k="name" v="Skvetta" />
		<tag k="ssr:stedsnr" v="131969" />
		<tag k="waterway" v="stream" />
	</node>
	<node lat="61.09571110883926" lon="7.61298056215059" id="-77103">
		<tag k="name" v="Øksnvatnet" />
		<tag k="natural" v="water" />
		<tag k="ssr:stedsnr" v="252783" />
	</node>
	<node lat="61.08890000246402" lon="7.38637499588358" id="-77105">
		<tag k="name" v="Hellandsgrovi" />
		<tag k="ssr:stedsnr" v="252759" />
		<tag k="waterway" v="stream" />
	</node>
	<node lat="61.09193888881543" lon="7.794669436191417" id="-77109">
		<tag k="alt_name" v="Fagersetvatnet, nedre" />
		<tag k="name" v="Nedre Fagersetvatnet" />
		<tag k="natural" v="water" />
		<tag k="ssr:stedsnr" v="252944" />
	</node>
	<node lat="61.09887500106417" lon="7.874963890365642" id="-77110">
		<tag k="name" v="Volldøla" />
		<tag k="ssr:stedsnr" v="252951" />
		<tag k="waterway" v="river" />
	</node>
	<node lat="61.020099996388936" lon="7.81312499642542" id="-77117">
		<tag k="alt_name" v="Engjåni" />
		<tag k="name" v="Engåni" />
		<tag k="ssr:stedsnr" v="253551" />
		<tag k="waterway" v="stream" />
	</node>
	<node lat="61.08503055734718" lon="7.112597226134859" id="-77129">
		<tag k="name" v="Fuglatjørni" />
		<tag k="natural" v="water" />
		<tag k="ssr:stedsnr" v="167280" />
	</node>
	<node lat="61.09960206342504" lon="7.520455228720995" id="-77134">
		<tag k="name" v="Oftepollen" />
		<tag k="place" v="locality" />
		<tag k="ssr:stedsnr" v="167525" />
	</node>
	<node lat="61.069108332307636" lon="7.73449721398887" id="-77139">
		<tag k="name" v="Vetla Sokni" />
		<tag k="ssr:stedsnr" v="167770" />
		<tag k="waterway" v="stream" />
	</node>
	<node lat="60.95480555468621" lon="7.626988891109649" id="-77152">
		<tag k="alt_name" v="Finnsholvatnet, nedre" />
		<tag k="name" v="Nedre Finnsholvatnet" />
		<tag k="natural" v="water" />
		<tag k="ssr:stedsnr" v="190410" />
	</node>
	<node lat="61.03410555281229" lon="7.3414166611807845" id="-77155">
		<tag k="alt_name" v="Horndalselvi" />
		<tag k="name" v="Horna" />
		<tag k="ssr:stedsnr" v="191362" />
		<tag k="waterway" v="river" />
	</node>
	<node lat="61.00134444478256" lon="7.349463894191705" id="-77160">
		<tag k="name" v="Horna" />
		<tag k="ssr:stedsnr" v="191464" />
		<tag k="waterway" v="stream" />
	</node>
	<node lat="61.02374900650449" lon="7.692168342898291" id="-77161">
		<tag k="name" v="Bjørndalstjørnane" />
		<tag k="natural" v="water" />
		<tag k="ssr:stedsnr" v="191803" />
		<tag k="water" v="lake" />
	</node>
	<node lat="61.09358055793373" lon="7.040566664813054" id="-77179">
		<tag k="name" v="Skrivarløypgrovi" />
		<tag k="ssr:stedsnr" v="228481" />
		<tag k="waterway" v="stream" />
	</node>
	<node lat="61.03278333149691" lon="7.803083332196808" id="-77182">
		<tag k="name" v="Hagagjerdsgrovi" />
		<tag k="ssr:stedsnr" v="228887" />
		<tag k="waterway" v="stream" />
	</node>
	<node lat="61.04239166782095" lon="7.535855562207659" id="-77195">
		<tag k="name" v="Skorvefossen" />
		<tag k="natural" v="waterfall" />
		<tag k="ssr:stedsnr" v="252916" />
	</node>
	<node lat="61.05659999772225" lon="7.576713883038076" id="-77204">
		<tag k="alt_name" v="Kattegjelfossen" />
		<tag k="name" v="Kattgjelfossen" />
		<tag k="ssr:stedsnr" v="253874" />
		<tag k="waterway" v="stream" />
	</node>
	<node lat="61.021541663311545" lon="7.341202783965692" id="-77211">
		<tag k="name" v="Gruflene" />
		<tag k="natural" v="cape" />
		<tag k="ssr:stedsnr" v="288326" />
	</node>
	<node lat="61.0525583319776" lon="7.709727781158239" id="-77213">
		<tag k="name" v="Storøyni" />
		<tag k="place" v="island" />
		<tag k="ssr:stedsnr" v="289204" />
	</node>
	<node lat="61.0569694424228" lon="7.7205138977128875" id="-77214">
		<tag k="name" v="Kår-Olagytta" />
		<tag k="natural" v="cape" />
		<tag k="ssr:stedsnr" v="289214" />
	</node>
	<node lat="61.08047499855216" lon="7.977522218350826" id="-77224">
		<tag k="name" v="Kvannegrovi" />
		<tag k="ssr:stedsnr" v="289407" />
		<tag k="waterway" v="stream" />
	</node>
	<node lat="61.10394444023552" lon="7.567005547343635" id="-77227">
		<tag k="name" v="Flesa" />
		<tag k="ssr:stedsnr" v="289610" />
		<tag k="waterway" v="stream" />
	</node>
	<node lat="61.06056388837007" lon="7.23618056384429" id="-77243">
		<tag k="name" v="Bleiaskarvatnet" />
		<tag k="natural" v="water" />
		<tag k="ssr:stedsnr" v="312423" />
	</node>
	<node lat="60.93482702904292" lon="7.64255486399368" id="-77244">
		<tag k="name" v="Bubottvatnet" />
		<tag k="natural" v="water" />
		<tag k="ssr:stedsnr" v="312367" />
		<tag k="water" v="lake" />
	</node>
	<node lat="61.01042500233862" lon="8.027883342253684" id="-77262">
		<tag k="name" v="Stardøla" />
		<tag k="ssr:stedsnr" v="314618" />
		<tag k="waterway" v="stream" />
	</node>
	<node lat="60.96207222588162" lon="7.688775006423347" id="-77278">
		<tag k="name" v="Tettvedligrovi" />
		<tag k="ssr:stedsnr" v="471603" />
		<tag k="waterway" v="stream" />
	</node>
	<node lat="60.981852774095096" lon="7.665116668095958" id="-77281">
		<tag k="name" v="Halletjørna" />
		<tag k="natural" v="water" />
		<tag k="ssr:stedsnr" v="471548" />
	</node>
	<node lat="61.07251388639707" lon="7.891361107516467" id="-77291">
		<tag k="name" v="Skårheimsgrovi" />
		<tag k="ssr:stedsnr" v="471829" />
		<tag k="waterway" v="stream" />
	</node>
	<node lat="61.026474996318065" lon="7.610347231359152" id="-77298">
		<tag k="name" v="Maristovfossen" />
		<tag k="natural" v="waterfall" />
		<tag k="ssr:stedsnr" v="349409" />
	</node>
	<node lat="61.06990833682138" lon="7.835391664163673" id="-77310">
		<tag k="name" v="Ågrimafossa" />
		<tag k="ssr:stedsnr" v="350822" />
		<tag k="waterway" v="stream" />
	</node>
	<node lat="61.07830555543471" lon="7.044211103644396" id="-77317">
		<tag k="name" v="Buelvi" />
		<tag k="ssr:stedsnr" v="373451" />
		<tag k="waterway" v="stream" />
	</node>
	<node lat="61.132538885122884" lon="8.091813894986077" id="-77322">
		<tag k="name" v="Brunshaugtjørni" />
		<tag k="natural" v="water" />
		<tag k="ssr:stedsnr" v="373990" />
	</node>
	<node lat="61.10684166480468" lon="7.553916661513115" id="-77328">
		<tag k="name" v="Brufossen" />
		<tag k="natural" v="waterfall" />
		<tag k="ssr:stedsnr" v="374819" />
	</node>
	<node lat="61.10741944733755" lon="7.389961112319782" id="-77329">
		<tag k="name" v="Bjørnaligrovi" />
		<tag k="ssr:stedsnr" v="409211" />
		<tag k="waterway" v="stream" />
	</node>
	<node lat="61.04764444148123" lon="7.704852776747451" id="-77330">
		<tag k="name" v="Sæltafossane" />
		<tag k="natural" v="waterfall" />
		<tag k="ssr:stedsnr" v="410204" />
	</node>
	<node lat="61.03350833728201" lon="7.590641657835077" id="-77334">
		<tag k="name" v="Tvinnane" />
		<tag k="ssr:stedsnr" v="410326" />
		<tag k="waterway" v="stream" />
	</node>
	<node lat="61.060269442933055" lon="7.9604277751554555" id="-77342">
		<tag k="name" v="Bergstølfossen" />
		<tag k="natural" v="waterfall" />
		<tag k="ssr:stedsnr" v="411341" />
	</node>
	<node lat="61.08178888730247" lon="7.0982138930523515" id="-77356">
		<tag k="name" v="Kloppelvi" />
		<tag k="ssr:stedsnr" v="434403" />
		<tag k="waterway" v="stream" />
	</node>
	<node lat="61.088222225800386" lon="7.123550008846728" id="-77357">
		<tag k="name" v="Sagelvi" />
		<tag k="ssr:stedsnr" v="434407" />
		<tag k="waterway" v="river" />
	</node>
	<node lat="61.04065833261281" lon="7.5095305522689" id="-77365">
		<tag k="name" v="Djupedalsgrovi" />
		<tag k="ssr:stedsnr" v="434925" />
		<tag k="waterway" v="stream" />
	</node>
	<node lat="61.1526388877223" lon="7.868924998911771" id="-77366">
		<tag k="name" v="Langetjørnane" />
		<tag k="natural" v="water" />
		<tag k="ssr:stedsnr" v="434996" />
		<tag k="water" v="lake" />
	</node>
	<node lat="61.06184166534584" lon="7.552502770991918" id="-77373">
		<tag k="name" v="Sandbakkfossen" />
		<tag k="ssr:stedsnr" v="435866" />
		<tag k="waterway" v="stream" />
	</node>
	<node lat="61.09763055873648" lon="7.151211113019593" id="-77405">
		<tag k="name" v="Mordaltjørna" />
		<tag k="natural" v="water" />
		<tag k="ssr:stedsnr" v="470969" />
	</node>
	<node lat="61.0637638925822" lon="7.7106416578143975" id="-77413">
		<tag k="name" v="Fremre Dekkegrovi" />
		<tag k="ssr:stedsnr" v="471660" />
		<tag k="waterway" v="stream" />
	</node>
	<node lat="61.088230553496096" lon="7.813055549010216" id="-77432">
		<tag k="name" v="Eisanda" />
		<tag k="ssr:stedsnr" v="677957" />
		<tag k="waterway" v="stream" />
	</node>
	<node lat="60.970880559678804" lon="7.532425004966164" id="-77442">
		<tag k="name" v="Toralsvatnet" />
		<tag k="natural" v="water" />
		<tag k="ssr:stedsnr" v="493465" />
	</node>
	<node lat="61.12277500184982" lon="7.485613880660846" id="-77444">
		<tag k="alt_name" v="Åsagrovi" />
		<tag k="name" v="Åsaelvi" />
		<tag k="ssr:stedsnr" v="495265" />
		<tag k="waterway" v="river" />
	</node>
	<node lat="61.08465277468878" lon="8.0157611093139" id="-77451">
		<tag k="alt_name" v="Spjotåni, heimre;Heime Spjotåni" />
		<tag k="name" v="Heimre Spjotåni" />
		<tag k="ssr:stedsnr" v="495517" />
		<tag k="waterway" v="stream" />
	</node>
	<node lat="61.10524999968781" lon="7.364552785492637" id="-77457">
		<tag k="name" v="Klåravatnet" />
		<tag k="natural" v="water" />
		<tag k="ssr:stedsnr" v="495763" />
	</node>
	<node lat="61.087952774971676" lon="7.852158324178763" id="-77481">
		<tag k="name" v="Hovlandsgrovi" />
		<tag k="ssr:stedsnr" v="531799" />
		<tag k="waterway" v="stream" />
	</node>
	<node lat="61.09426389269528" lon="7.998888897611693" id="-77485">
		<tag k="name" v="Heime Brattebakkgrovi" />
		<tag k="ssr:stedsnr" v="532391" />
		<tag k="waterway" v="stream" />
	</node>
	<node lat="61.09724999837814" lon="7.570797224070641" id="-77486">
		<tag k="name" v="Vesleelvi" />
		<tag k="ssr:stedsnr" v="532526" />
		<tag k="waterway" v="stream" />
	</node>
	<node lat="61.11105277874749" lon="8.126963895656688" id="-77491">
		<tag k="loc_name" v="Suleskartjørni" />
		<tag k="name" v="Suleskartjerni" />
		<tag k="natural" v="water" />
		<tag k="ssr:stedsnr" v="553699" />
	</node>
	<node lat="61.08720555804345" lon="7.306147219864438" id="-77504">
		<tag k="name" v="Vindedalselvi" />
		<tag k="ssr:stedsnr" v="555388" />
		<tag k="waterway" v="river" />
	</node>
	<node lat="61.03663889314681" lon="7.5638166633469375" id="-77514">
		<tag k="name" v="Bøafossen" />
		<tag k="ssr:stedsnr" v="555914" />
		<tag k="waterway" v="stream" />
	</node>
	<node lat="61.09726111423541" lon="7.785416663146822" id="-77521">
		<tag k="alt_name" v="Fagersetvatnet, øvre" />
		<tag k="name" v="Øvre Fagersetvatnet" />
		<tag k="natural" v="water" />
		<tag k="ssr:stedsnr" v="555942" />
	</node>
	<node lat="61.10121110813537" lon="7.161291671200197" id="-77534">
		<tag k="name" v="Slumpatjørna" />
		<tag k="natural" v="water" />
		<tag k="ssr:stedsnr" v="590395" />
	</node>
	<node lat="61.152563888978555" lon="8.014841657688336" id="-77535">
		<tag k="name" v="Brusestølstrondi" />
		<tag k="natural" v="beach" />
		<tag k="ssr:stedsnr" v="591974" />
	</node>
	<node lat="61.086969447893274" lon="7.538216667323781" id="-77544">
		<tag k="name" v="Geitholsgrovi" />
		<tag k="ssr:stedsnr" v="592265" />
		<tag k="waterway" v="stream" />
	</node>
	<node lat="61.06019166813357" lon="7.049738883958344" id="-77553">
		<tag k="alt_name" v="Merkesgrova" />
		<tag k="name" v="Merkesgrovi" />
		<tag k="ssr:stedsnr" v="615417" />
		<tag k="waterway" v="stream" />
	</node>
	<node lat="61.14933611261267" lon="7.960783326725761" id="-77558">
		<tag k="name" v="Valdresdøla" />
		<tag k="ssr:stedsnr" v="615990" />
		<tag k="waterway" v="river" />
	</node>
	<node lat="61.085536108499" lon="7.260341668538249" id="-77561">
		<tag k="name" v="Djupedalselvi" />
		<tag k="ssr:stedsnr" v="616421" />
		<tag k="waterway" v="stream" />
	</node>
	<node lat="61.02763055862768" lon="7.76089165851133" id="-77563">
		<tag k="name" v="Djupegrov" />
		<tag k="ssr:stedsnr" v="616505" />
		<tag k="waterway" v="stream" />
	</node>
	<node lat="61.01615555382903" lon="7.725449993186299" id="-77565">
		<tag k="name" v="Visettjørni" />
		<tag k="natural" v="water" />
		<tag k="ssr:stedsnr" v="616510" />
	</node>
	<node lat="61.02073888641869" lon="7.981236113175816" id="-77566">
		<tag k="name" v="Sauebottjørni" />
		<tag k="natural" v="water" />
		<tag k="ssr:stedsnr" v="616512" />
	</node>
	<node lat="61.02459999691718" lon="7.6127166614974495" id="-77570">
		<tag k="name" v="Kalveskreda" />
		<tag k="ssr:stedsnr" v="616945" />
		<tag k="waterway" v="stream" />
	</node>
	<node lat="61.022800003990234" lon="7.647327783598083" id="-77571">
		<tag k="name" v="Ingåna" />
		<tag k="ssr:stedsnr" v="616946" />
		<tag k="waterway" v="stream" />
	</node>
	<node lat="61.12893333406687" lon="7.481961106253096" id="-77574">
		<tag k="name" v="Langedalselvi" />
		<tag k="ssr:stedsnr" v="617301" />
		<tag k="waterway" v="stream" />
	</node>
	<node lat="61.08331962252597" lon="8.227784297583069" id="-77577">
		<tag k="name" v="Sulevatnet" />
		<tag k="natural" v="water" />
		<tag k="ssr:stedsnr" v="628705" />
		<tag k="water" v="lake" />
	</node>
	<node lat="61.04459999727984" lon="7.631000007134544" id="-77592">
		<tag k="name" v="Brakalløyni" />
		<tag k="place" v="island" />
		<tag k="ssr:stedsnr" v="653111" />
	</node>
	<node lat="61.170149997460356" lon="8.048702771529905" id="-77594">
		<tag k="name" v="Lysholmen" />
		<tag k="natural" v="cape" />
		<tag k="ssr:stedsnr" v="653240" />
	</node>
	<node lat="61.0311305536556" lon="7.760147218048381" id="-77601">
		<tag k="name" v="Storegrovi" />
		<tag k="ssr:stedsnr" v="653733" />
		<tag k="waterway" v="stream" />
	</node>
	<node lat="61.059783329558684" lon="8.129908326273624" id="-77609">
		<tag k="name" v="Masseringstjørni" />
		<tag k="natural" v="water" />
		<tag k="ssr:stedsnr" v="674626" />
	</node>
	<node lat="61.03117777691239" lon="8.114552769946846" id="-77610">
		<tag k="name" v="Ulvehaugelvi" />
		<tag k="ssr:stedsnr" v="674660" />
		<tag k="waterway" v="river" />
	</node>
	<node lat="61.03582499637058" lon="8.084100008726786" id="-77620">
		<tag k="name" v="Svartetjørni" />
		<tag k="natural" v="water" />
		<tag k="ssr:stedsnr" v="677504" />
	</node>
	<node lat="61.099038887306826" lon="7.59304165915965" id="-77626">
		<tag k="name" v="Fagerelvi" />
		<tag k="ssr:stedsnr" v="677818" />
		<tag k="waterway" v="stream" />
	</node>
	<node lat="61.013156454499644" lon="7.621176598038513" id="-77632">
		<tag k="name" v="Systretjørnane" />
		<tag k="natural" v="water" />
		<tag k="ssr:stedsnr" v="677936" />
		<tag k="water" v="lake" />
	</node>
	<node lat="61.11977777464577" lon="7.474274993495939" id="-77635">
		<tag k="name" v="Lomtjørn" />
		<tag k="natural" v="water" />
		<tag k="ssr:stedsnr" v="678277" />
	</node>
	<node lat="61.12721388590129" lon="7.233355557783602" id="-77644">
		<tag k="name" v="Svagrovi" />
		<tag k="ssr:stedsnr" v="895746" />
		<tag k="waterway" v="stream" />
	</node>
	<node lat="61.0484055585962" lon="7.637169452681446" id="-77646">
		<tag k="name" v="Kjerrøyni" />
		<tag k="natural" v="cape" />
		<tag k="ssr:stedsnr" v="896132" />
	</node>
	<node lat="61.109091665513034" lon="7.321383336310838" id="-77650">
		<tag k="name" v="Øygardsgrovi" />
		<tag k="ssr:stedsnr" v="896334" />
		<tag k="waterway" v="stream" />
	</node>
	<node lat="61.031530557121826" lon="8.014377784484811" id="-77651">
		<tag k="name" v="Jarngrovi" />
		<tag k="ssr:stedsnr" v="896342" />
		<tag k="waterway" v="stream" />
	</node>
	<node lat="61.04819166707745" lon="7.970841672137421" id="-77656">
		<tag k="name" v="Eggestaløyni" />
		<tag k="natural" v="cape" />
		<tag k="ssr:stedsnr" v="896373" />
	</node>
	<node lat="61.07951110965577" lon="7.299088887083056" id="-77674">
		<tag k="name" v="Kviksenda" />
		<tag k="ssr:stedsnr" v="896843" />
		<tag k="waterway" v="stream" />
	</node>
	<node lat="61.14331388503861" lon="7.994047213506454" id="-77677">
		<tag k="name" v="Fossegrovi" />
		<tag k="ssr:stedsnr" v="897942" />
		<tag k="waterway" v="stream" />
	</node>
	<node lat="61.10193610681105" lon="7.168122223368662" id="-77680">
		<tag k="name" v="Slumpagrovi" />
		<tag k="ssr:stedsnr" v="712375" />
		<tag k="waterway" v="stream" />
	</node>
	<node lat="61.06483888518194" lon="7.640797214196194" id="-77682">
		<tag k="name" v="Midgrovi" />
		<tag k="ssr:stedsnr" v="713276" />
		<tag k="waterway" v="stream" />
	</node>
	<node lat="60.980644444649684" lon="7.479950008036459" id="-77692">
		<tag k="name" v="Fossavotni" />
		<tag k="natural" v="water" />
		<tag k="ssr:stedsnr" v="737451" />
		<tag k="water" v="lake" />
	</node>
	<node lat="60.996213886236404" lon="7.711916668222101" id="-77693">
		<tag k="name" v="Kjørli" />
		<tag k="ssr:stedsnr" v="737464" />
		<tag k="waterway" v="stream" />
	</node>
	<node lat="60.995841664069594" lon="7.6149000035177465" id="-77694">
		<tag k="name" v="Svartatjørn" />
		<tag k="natural" v="water" />
		<tag k="ssr:stedsnr" v="737466" />
	</node>
	<node lat="60.989083332269" lon="7.495258329491166" id="-77695">
		<tag k="alt_name" v="Fossaelvi" />
		<tag k="name" v="Fossagrovi" />
		<tag k="ssr:stedsnr" v="737482" />
		<tag k="waterway" v="stream" />
	</node>
	<node lat="61.08599444032879" lon="7.954127773951639" id="-77701">
		<tag k="alt_name" v="Borlaugsgrovi" />
		<tag k="name" v="Borlosgrovi" />
		<tag k="ssr:stedsnr" v="737954" />
		<tag k="waterway" v="stream" />
	</node>
	<node lat="61.060427777994505" lon="7.672655561040122" id="-77715">
		<tag k="name" v="Nausagrovi" />
		<tag k="ssr:stedsnr" v="738847" />
		<tag k="waterway" v="stream" />
	</node>
	<node lat="61.10140277656302" lon="7.153197215633679" id="-77725">
		<tag k="name" v="Vetletjørni" />
		<tag k="natural" v="water" />
		<tag k="ssr:stedsnr" v="772404" />
	</node>
	<node lat="61.100138884463504" lon="7.157174999557645" id="-77726">
		<tag k="name" v="Frønningatjørna" />
		<tag k="natural" v="water" />
		<tag k="ssr:stedsnr" v="772405" />
	</node>
	<node lat="61.038758329169234" lon="7.655577777730166" id="-77727">
		<tag k="name" v="Svartefossen" />
		<tag k="natural" v="waterfall" />
		<tag k="ssr:stedsnr" v="774166" />
	</node>
	<node lat="61.02635833539394" lon="7.810469437295474" id="-77740">
		<tag k="name" v="Eng-Bekken" />
		<tag k="ssr:stedsnr" v="774869" />
		<tag k="waterway" v="stream" />
	</node>
	<node lat="60.981672226777015" lon="7.668655559275327" id="-77743">
		<tag k="name" v="Skruvgytta" />
		<tag k="ssr:stedsnr" v="775501" />
		<tag k="waterway" v="stream" />
	</node>
	<node lat="61.06565772189591" lon="8.195435193414268" id="-77748">
		<tag k="name" v="Knipenborgtjørni" />
		<tag k="natural" v="water" />
		<tag k="ssr:stedsnr" v="795657" />
	</node>
	<node lat="61.092100003325655" lon="7.599900001880973" id="-77757">
		<tag k="name" v="Fagervatnet" />
		<tag k="natural" v="water" />
		<tag k="ssr:stedsnr" v="798758" />
	</node>
	<node lat="61.0393166632691" lon="7.532186112123636" id="-77761">
		<tag k="name" v="Skorva" />
		<tag k="ssr:stedsnr" v="798924" />
		<tag k="waterway" v="stream" />
	</node>
	<node lat="61.11252499851679" lon="7.978377779358823" id="-77764">
		<tag k="name" v="Kjerringtjørni" />
		<tag k="natural" v="water" />
		<tag k="ssr:stedsnr" v="798954" />
	</node>
	<node lat="60.93396126204679" lon="7.5780847162691005" id="-77782">
		<tag k="alt_name" v="Ljosegrunnsvatnet, store" />
		<tag k="name" v="Store Ljosegrunnsvatnet" />
		<tag k="natural" v="water" />
		<tag k="ssr:stedsnr" v="918439" />
		<tag k="water" v="lake" />
	</node>
	<node lat="61.041791665086095" lon="7.701049995504797" id="-77792">
		<tag k="name" v="Fossagrovi" />
		<tag k="ssr:stedsnr" v="919833" />
		<tag k="waterway" v="stream" />
	</node>
	<node lat="61.15011110698922" lon="7.797413888177138" id="-77795">
		<tag k="name" v="Kvamsvatnet" />
		<tag k="natural" v="water" />
		<tag k="ssr:stedsnr" v="919871" />
	</node>
	<node lat="61.17809301606003" lon="7.933056026889265" id="-77796">
		<tag k="name" v="Slutevatni" />
		<tag k="natural" v="water" />
		<tag k="ssr:stedsnr" v="919890" />
		<tag k="water" v="lake" />
	</node>
	<node lat="61.05673888717701" lon="7.372591673095539" id="-77805">
		<tag k="name" v="Skorva" />
		<tag k="ssr:stedsnr" v="920756" />
		<tag k="waterway" v="stream" />
	</node>
	<node lat="61.01109999720473" lon="7.655875008921415" id="-77807">
		<tag k="alt_name" v="Spavangsgrovi" />
		<tag k="name" v="Spavanggrovi" />
		<tag k="ssr:stedsnr" v="920935" />
		<tag k="waterway" v="stream" />
	</node>
	<node lat="61.09317499760074" lon="8.029611102976531" id="-77810">
		<tag k="name" v="Kolsmorkgrovi" />
		<tag k="ssr:stedsnr" v="920950" />
		<tag k="waterway" v="stream" />
	</node>
	<node lat="61.09507777870546" lon="7.727055548594083" id="-77811">
		<tag k="name" v="Skvettevatnet" />
		<tag k="natural" v="water" />
		<tag k="ssr:stedsnr" v="920967" />
	</node>
	<node lat="61.03299166569015" lon="7.501938897482342" id="-77826">
		<tag k="name" v="Kuvelda" />
		<tag k="ssr:stedsnr" v="850000" />
		<tag k="waterway" v="river" />
	</node>
	<node lat="60.98168611130687" lon="7.698827786690958" id="-77828">
		<tag k="name" v="Øydalsfossen" />
		<tag k="natural" v="waterfall" />
		<tag k="ssr:stedsnr" v="858510" />
	</node>
	<node lat="60.96756944278555" lon="7.622852774958352" id="-77832">
		<tag k="name" v="Hadletjørni" />
		<tag k="natural" v="water" />
		<tag k="ssr:stedsnr" v="858489" />
	</node>
	<node lat="61.04262499922087" lon="7.210600008633629" id="-77836">
		<tag k="name" v="Høgdavatnet" />
		<tag k="natural" v="water" />
		<tag k="ssr:stedsnr" v="859386" />
	</node>
	<node lat="61.06888889132318" lon="7.428791674546062" id="-77839">
		<tag k="name" v="Dalsetgrovi" />
		<tag k="ssr:stedsnr" v="859775" />
		<tag k="waterway" v="stream" />
	</node>
	<node lat="61.0450638855384" lon="7.5429166608421285" id="-77841">
		<tag k="name" v="Labbegjelfossen" />
		<tag k="ssr:stedsnr" v="859917" />
		<tag k="waterway" v="stream" />
	</node>
	<node lat="61.08692778065045" lon="8.023886102810627" id="-77843">
		<tag k="alt_name" v="Spjotåni, fremre" />
		<tag k="name" v="Fremre Spjotåni" />
		<tag k="ssr:stedsnr" v="859927" />
		<tag k="waterway" v="stream" />
	</node>
	<node lat="61.11710278106612" lon="7.84681110486944" id="-77844">
		<tag k="name" v="Vetleelvi" />
		<tag k="ssr:stedsnr" v="859962" />
		<tag k="waterway" v="stream" />
	</node>
	<node lat="61.09633610890637" lon="7.148430549760221" id="-77861">
		<tag k="name" v="Storetjørna" />
		<tag k="natural" v="water" />
		<tag k="ssr:stedsnr" v="895962" />
	</node>
	<node lat="61.05490833033546" lon="7.677994438452096" id="-77866">
		<tag k="name" v="Småøynene" />
		<tag k="place" v="island" />
		<tag k="ssr:stedsnr" v="896206" />
	</node>
	<node lat="61.02787499667702" lon="7.669525003214171" id="-77891">
		<tag k="alt_name" v="Haukelidgrovi" />
		<tag k="name" v="Haukeligrovi" />
		<tag k="ssr:stedsnr" v="919794" />
		<tag k="waterway" v="stream" />
	</node>
	<node lat="61.092908332440174" lon="7.264555558672068" id="-77901">
		<tag k="name" v="Geitevatnet" />
		<tag k="natural" v="water" />
		<tag k="ssr:stedsnr" v="920421" />
	</node>
	<node lat="61.107624996651275" lon="7.514494445181712" id="-77903">
		<tag k="name" v="Øyagrøvene" />
		<tag k="ssr:stedsnr" v="920802" />
		<tag k="waterway" v="stream" />
	</node>
	<node lat="61.025580559587844" lon="7.617788886276929" id="-77930">
		<tag k="name" v="Kjellargrovi" />
		<tag k="ssr:stedsnr" v="957534" />
		<tag k="waterway" v="stream" />
	</node>
	<node lat="61.025052372940046" lon="8.184297041166458" id="-77942">
		<tag k="alt_name" v="Juklevatnet, vesle" />
		<tag k="name" v="Vesle Juklevatnet" />
		<tag k="natural" v="water" />
		<tag k="ssr:stedsnr" v="6661" />
		<tag k="water" v="lake" />
	</node>
	<node lat="61.11768055896068" lon="7.503758339982124" id="-77943">
		<tag k="alt_name" v="Kongsbruelvi" />
		<tag k="name" v="Lusa" />
		<tag k="ssr:stedsnr" v="10256" />
		<tag k="waterway" v="stream" />
	</node>
	<node lat="61.08680277997739" lon="7.098988888160848" id="-77950">
		<tag k="alt_name" v="Tausargrovi" />
		<tag k="name" v="Tausagrovi" />
		<tag k="ssr:stedsnr" v="9436" />
		<tag k="waterway" v="stream" />
	</node>
	<node lat="61.12958888982147" lon="7.981836108319326" id="-77954">
		<tag k="alt_name" v="Kjerringgrovi, fremre" />
		<tag k="name" v="Fremre Kjerringgrovi" />
		<tag k="ssr:stedsnr" v="9972" />
		<tag k="waterway" v="stream" />
	</node>
	<node lat="61.10507500240429" lon="7.541491668705286" id="-77961">
		<tag k="name" v="Ofta" />
		<tag k="ssr:stedsnr" v="10816" />
		<tag k="waterway" v="river" />
	</node>
	<node lat="61.09487500344658" lon="7.327013885306256" id="-77974">
		<tag k="name" v="Merkjesgrovi" />
		<tag k="ssr:stedsnr" v="46845" />
		<tag k="waterway" v="stream" />
	</node>
	<node lat="61.13303333034413" lon="7.416902781446367" id="-77978">
		<tag k="alt_name" v="Insta Lysegrovi" />
		<tag k="name" v="Insta Lysa" />
		<tag k="ssr:stedsnr" v="44183" />
		<tag k="waterway" v="stream" />
	</node>
	<node lat="61.00060833362278" lon="7.697986110517368" id="-77992">
		<tag k="name" v="Kjørligrovi" />
		<tag k="ssr:stedsnr" v="47674" />
		<tag k="waterway" v="stream" />
	</node>
	<node lat="60.94419166800467" lon="7.610977780796733" id="-77998">
		<tag k="alt_name" v="Finnsholvatnet, øvre" />
		<tag k="name" v="Øvre Finnsholvatnet" />
		<tag k="natural" v="water" />
		<tag k="ssr:stedsnr" v="69418" />
	</node>
	<node lat="61.114680555517054" lon="7.226202780278603" id="-78005">
		<tag k="alt_name" v="Dryfta, insta;Insta Drøfta" />
		<tag k="name" v="Insta Dryfta" />
		<tag k="ssr:stedsnr" v="70458" />
		<tag k="waterway" v="stream" />
	</node>
	<node lat="61.081833330522215" lon="7.687616661036391" id="-78028">
		<tag k="name" v="Nausavatnet" />
		<tag k="natural" v="water" />
		<tag k="ssr:stedsnr" v="71850" />
	</node>
	<node lat="61.04872777576138" lon="7.9977694488537505" id="-78031">
		<tag k="name" v="Holegrovi" />
		<tag k="ssr:stedsnr" v="229342" />
		<tag k="waterway" v="stream" />
	</node>
	<node lat="61.11504166885065" lon="7.381480549016321" id="-78039">
		<tag k="name" v="Kvitaskreda" />
		<tag k="ssr:stedsnr" v="106197" />
		<tag k="waterway" v="stream" />
	</node>
	<node lat="61.06672222640007" lon="7.823336107013776" id="-78048">
		<tag k="name" v="Borgundsfjorden" />
		<tag k="natural" v="water" />
		<tag k="ssr:stedsnr" v="107167" />
		<tag k="water" v="lake" />
	</node>
	<node lat="61.0599305540935" lon="7.817844438939754" id="-78064">
		<tag k="name" v="Lossholen" />
		<tag k="natural" v="cape" />
		<tag k="ssr:stedsnr" v="107861" />
	</node>
	<node lat="60.96070277697749" lon="7.556069441190432" id="-78072">
		<tag k="name" v="Vadtjørni" />
		<tag k="natural" v="water" />
		<tag k="ssr:stedsnr" v="129475" />
	</node>
	<node lat="60.94738849193833" lon="8.09420157209765" id="-78075">
		<tag k="alt_name" v="Øljusjøen" />
		<tag k="name" v="Øljusjøane" />
		<tag k="natural" v="water" />
		<tag k="old_name" v="Ørjusjøen" />
		<tag k="ssr:stedsnr" v="129685" />
		<tag k="water" v="lake" />
	</node>
	<node lat="61.130033337124665" lon="7.86603889200971" id="-78082">
		<tag k="name" v="Saupsetelvi" />
		<tag k="ssr:stedsnr" v="130987" />
		<tag k="waterway" v="stream" />
	</node>
	<node lat="61.14573055292354" lon="8.019100000905215" id="-78083">
		<tag k="name" v="Drysja" />
		<tag k="ssr:stedsnr" v="130994" />
		<tag k="waterway" v="stream" />
	</node>
	<node lat="61.1509416693764" lon="7.884108335805439" id="-78085">
		<tag k="name" v="Løken" />
		<tag k="natural" v="water" />
		<tag k="ssr:stedsnr" v="130999" />
	</node>
	<node lat="61.104705559124966" lon="8.059980553614755" id="-78087">
		<tag k="name" v="Oddedøla" />
		<tag k="ssr:stedsnr" v="130965" />
		<tag k="waterway" v="river" />
	</node>
	<node lat="61.10488888753094" lon="7.942169440351345" id="-78089">
		<tag k="alt_name" v="Borlosgrovtjørni, in" />
		<tag k="name" v="Indre Borlosgrovtjørni" />
		<tag k="natural" v="water" />
		<tag k="ssr:stedsnr" v="130969" />
	</node>
	<node lat="61.12398611087454" lon="7.350861101984898" id="-78092">
		<tag k="name" v="Svagrovi" />
		<tag k="ssr:stedsnr" v="131801" />
		<tag k="waterway" v="stream" />
	</node>
	<node lat="61.09291111375358" lon="7.4767000003457715" id="-78094">
		<tag k="name" v="Øyrafossen" />
		<tag k="natural" v="waterfall" />
		<tag k="ssr:stedsnr" v="131822" />
	</node>
	<node lat="61.10853333403488" lon="7.327777774208109" id="-78116">
		<tag k="name" v="Olahjellgrovi" />
		<tag k="ssr:stedsnr" v="167297" />
		<tag k="waterway" v="stream" />
	</node>
	<node lat="61.03533888821524" lon="8.011055562248208" id="-78126">
		<tag k="name" v="Geitåni" />
		<tag k="ssr:stedsnr" v="168334" />
		<tag k="waterway" v="river" />
	</node>
	<node lat="61.012830555539395" lon="8.093402774797859" id="-78135">
		<tag k="name" v="Tjørni" />
		<tag k="natural" v="water" />
		<tag k="ssr:stedsnr" v="189599" />
	</node>
	<node lat="61.10198055260295" lon="7.176672218482887" id="-78138">
		<tag k="name" v="Slumpen" />
		<tag k="natural" v="water" />
		<tag k="ssr:stedsnr" v="191413" />
	</node>
	<node lat="61.00749166833298" lon="7.699274997201202" id="-78148">
		<tag k="name" v="Ia" />
		<tag k="ssr:stedsnr" v="191781" />
		<tag k="waterway" v="stream" />
	</node>
	<node lat="61.10286111103134" lon="7.837144452579012" id="-78151">
		<tag k="name" v="Tverrelvi" />
		<tag k="ssr:stedsnr" v="191959" />
		<tag k="waterway" v="stream" />
	</node>
	<node lat="61.10942499571942" lon="7.8567750005523385" id="-78152">
		<tag k="name" v="Kvemma" />
		<tag k="ssr:stedsnr" v="191967" />
		<tag k="waterway" v="river" />
	</node>
	<node lat="61.145761109458824" lon="8.089055562662864" id="-78154">
		<tag k="alt_name" v="Langetjernet" />
		<tag k="name" v="Langetjerni" />
		<tag k="natural" v="water" />
		<tag k="ssr:stedsnr" v="191978" />
	</node>
	<node lat="61.05106944446193" lon="7.954374996759049" id="-78171">
		<tag k="name" v="Geitåni" />
		<tag k="ssr:stedsnr" v="192540" />
		<tag k="waterway" v="stream" />
	</node>
	<node lat="61.08878610718272" lon="7.058063897964952" id="-78200">
		<tag k="name" v="Bjørnospetjørni" />
		<tag k="natural" v="water" />
		<tag k="ssr:stedsnr" v="289291" />
	</node>
	<node lat="61.15446666726842" lon="7.420605564219249" id="-78205">
		<tag k="name" v="Kufossen" />
		<tag k="natural" v="waterfall" />
		<tag k="ssr:stedsnr" v="289273" />
	</node>
	<node lat="61.033213885310275" lon="7.789738883278387" id="-78213">
		<tag k="alt_name" v="Merkesgrovi" />
		<tag k="name" v="Meresgrovi" />
		<tag k="ssr:stedsnr" v="289724" />
		<tag k="waterway" v="stream" />
	</node>
	<node lat="61.00036110740751" lon="7.686197221695314" id="-78216">
		<tag k="name" v="Anfinnbakgrovi" />
		<tag k="ssr:stedsnr" v="289735" />
		<tag k="waterway" v="stream" />
	</node>
	<node lat="60.92145833658387" lon="7.6263222223493" id="-78226">
		<tag k="name" v="Hilmsvatnet" />
		<tag k="natural" v="water" />
		<tag k="ssr:stedsnr" v="312430" />
		<tag k="water" v="lake" />
	</node>
	<node lat="61.107591664630796" lon="7.200788880792941" id="-78228">
		<tag k="alt_name" v="Dryfta, ytsta;Ytsta Drøfta" />
		<tag k="name" v="Ytsta Dryfta" />
		<tag k="ssr:stedsnr" v="312453" />
		<tag k="waterway" v="stream" />
	</node>
	<node lat="61.21121111264804" lon="7.9742861022631" id="-78231">
		<tag k="name" v="Krekavatnet" />
		<tag k="natural" v="water" />
		<tag k="ssr:stedsnr" v="312894" />
	</node>
	<node lat="61.15173610832415" lon="7.826186112302544" id="-78232">
		<tag k="name" v="Rundetjørn" />
		<tag k="natural" v="water" />
		<tag k="ssr:stedsnr" v="312999" />
	</node>
	<node lat="61.054941667212454" lon="7.772144439883632" id="-78235">
		<tag k="name" v="Drosingen" />
		<tag k="ssr:stedsnr" v="313551" />
		<tag k="waterway" v="stream" />
	</node>
	<node lat="61.0982750045135" lon="7.3944000006253985" id="-78242">
		<tag k="name" v="Ruglandsgrovi" />
		<tag k="ssr:stedsnr" v="313796" />
		<tag k="waterway" v="stream" />
	</node>
	<node lat="61.09150833296807" lon="7.726386112129229" id="-78248">
		<tag k="name" v="Grønevatnet" />
		<tag k="natural" v="water" />
		<tag k="ssr:stedsnr" v="313963" />
	</node>
	<node lat="61.13448888707163" lon="7.852527785411344" id="-78252">
		<tag k="name" v="Våi" />
		<tag k="ssr:stedsnr" v="313988" />
		<tag k="waterway" v="stream" />
	</node>
	<node lat="61.120130554529474" lon="7.33680000811833" id="-78264">
		<tag k="name" v="Pundegrovi" />
		<tag k="ssr:stedsnr" v="349384" />
		<tag k="waterway" v="stream" />
	</node>
	<node lat="61.092494447861874" lon="7.877399995115401" id="-78271">
		<tag k="name" v="Vettesøyni" />
		<tag k="place" v="island" />
		<tag k="ssr:stedsnr" v="349797" />
	</node>
	<node lat="61.08421111094923" lon="7.319530548320258" id="-78272">
		<tag k="name" v="Pundagjelsgrovi" />
		<tag k="ssr:stedsnr" v="349868" />
		<tag k="waterway" v="stream" />
	</node>
	<node lat="61.046666666773" lon="7.825688882481663" id="-78274">
		<tag k="name" v="Vetlelvi" />
		<tag k="ssr:stedsnr" v="349923" />
		<tag k="waterway" v="stream" />
	</node>
	<node lat="61.06184167071566" lon="7.66631112019722" id="-78278">
		<tag k="name" v="Jutlafossen" />
		<tag k="natural" v="waterfall" />
		<tag k="ssr:stedsnr" v="350176" />
	</node>
	<node lat="61.07741389168957" lon="7.977602774666035" id="-78281">
		<tag k="name" v="Bekkefossen" />
		<tag k="natural" v="waterfall" />
		<tag k="ssr:stedsnr" v="350376" />
	</node>
	<node lat="61.02131666902116" lon="7.845222230297963" id="-78300">
		<tag k="name" v="Storegrov" />
		<tag k="ssr:stedsnr" v="350844" />
		<tag k="waterway" v="stream" />
	</node>
	<node lat="61.026704419289764" lon="8.249530075570696" id="-78303">
		<tag k="name" v="Juklevatnet" />
		<tag k="natural" v="water" />
		<tag k="ssr:stedsnr" v="370654" />
		<tag k="water" v="lake" />
	</node>
	<node lat="60.92904999942684" lon="7.622230552298913" id="-78305">
		<tag k="name" v="Bubottjørni" />
		<tag k="natural" v="water" />
		<tag k="ssr:stedsnr" v="372393" />
	</node>
	<node lat="61.0662388885736" lon="7.732499990848071" id="-78312">
		<tag k="alt_name" v="Sokni, store;Stora Sokni" />
		<tag k="name" v="Store Sokni" />
		<tag k="ssr:stedsnr" v="373543" />
		<tag k="waterway" v="river" />
	</node>
	<node lat="61.09892777911021" lon="7.16072500137154" id="-78315">
		<tag k="name" v="Frønningsvotni" />
		<tag k="natural" v="water" />
		<tag k="ssr:stedsnr" v="373458" />
		<tag k="water" v="lake" />
	</node>
	<node lat="61.12761111237796" lon="7.290299998803389" id="-78320">
		<tag k="alt_name" v="Reinsaåna" />
		<tag k="name" v="Reinsåna" />
		<tag k="ssr:stedsnr" v="373486" />
		<tag k="waterway" v="stream" />
	</node>
	<node lat="61.041936110442705" lon="7.682511113889071" id="-78323">
		<tag k="name" v="Skvamplefossen" />
		<tag k="ssr:stedsnr" v="373835" />
		<tag k="waterway" v="stream" />
	</node>
	<node lat="61.132408330442985" lon="7.267069449472109" id="-78335">
		<tag k="alt_name" v="Hauseelvi" />
		<tag k="name" v="Hausa" />
		<tag k="ssr:stedsnr" v="374468" />
		<tag k="waterway" v="stream" />
	</node>
	<node lat="61.14977500246427" lon="8.062669445472036" id="-78353">
		<tag k="name" v="Fillestøltjørnane" />
		<tag k="natural" v="water" />
		<tag k="ssr:stedsnr" v="494994" />
		<tag k="water" v="lake" />
	</node>
	<node lat="61.15950555457588" lon="8.022783336834861" id="-78371">
		<tag k="name" v="Darbuviki" />
		<tag k="natural" v="bay" />
		<tag k="ssr:stedsnr" v="410969" />
	</node>
	<node lat="61.10121389207422" lon="7.47027223068272" id="-78381">
		<tag k="name" v="Lågøya" />
		<tag k="place" v="locality" />
		<tag k="ssr:stedsnr" v="418731" />
	</node>
	<node lat="61.03228611161561" lon="8.243527785286805" id="-78384">
		<tag k="name" v="Juklevasstrandi" />
		<tag k="natural" v="beach" />
		<tag k="ssr:stedsnr" v="431685" />
	</node>
	<node lat="61.10922500060352" lon="7.801711107641923" id="-78390">
		<tag k="name" v="Kyretjerni" />
		<tag k="natural" v="water" />
		<tag k="ssr:stedsnr" v="434966" />
	</node>
	<node lat="61.10912777634041" lon="7.255611111848062" id="-78394">
		<tag k="name" v="Dryftevatnet" />
		<tag k="natural" v="water" />
		<tag k="ssr:stedsnr" v="434426" />
	</node>
	<node lat="61.119044443828734" lon="7.3024388951624974" id="-78397">
		<tag k="alt_name" v="Kolda, stora" />
		<tag k="name" v="Stora Kolda" />
		<tag k="ssr:stedsnr" v="434434" />
		<tag k="waterway" v="stream" />
	</node>
	<node lat="60.99630277454334" lon="7.468952782258609" id="-78399">
		<tag k="name" v="Grovevatnet" />
		<tag k="natural" v="water" />
		<tag k="ssr:stedsnr" v="434458" />
	</node>
	<node lat="61.01180000363881" lon="7.695780560062844" id="-78401">
		<tag k="name" v="Kjøthellergrovi" />
		<tag k="ssr:stedsnr" v="434774" />
		<tag k="waterway" v="stream" />
	</node>
	<node lat="61.16518333064886" lon="8.03883056247047" id="-78403">
		<tag k="alt_name" v="Løkenelvi" />
		<tag k="name" v="Løken" />
		<tag k="ssr:stedsnr" v="434855" />
		<tag k="waterway" v="stream" />
	</node>
	<node lat="61.1024527814879" lon="7.922308336422381" id="-78410">
		<tag k="name" v="Borlosgrovtjørni" />
		<tag k="natural" v="water" />
		<tag k="ssr:stedsnr" v="434963" />
	</node>
	<node lat="61.07180555292259" lon="7.487038880541697" id="-78419">
		<tag k="name" v="Mehovda" />
		<tag k="ssr:stedsnr" v="435893" />
		<tag k="waterway" v="stream" />
	</node>
	<node lat="61.08926111294144" lon="7.153961105409512" id="-78422">
		<tag k="name" v="Bleielvi" />
		<tag k="ssr:stedsnr" v="495431" />
		<tag k="waterway" v="stream" />
	</node>
	<node lat="61.10045000022939" lon="7.306069435438158" id="-78424">
		<tag k="alt_name" v="Horta" />
		<tag k="name" v="Hortelvi" />
		<tag k="ssr:stedsnr" v="495447" />
		<tag k="waterway" v="stream" />
	</node>
	<node lat="61.0620861127137" lon="7.5671305604075485" id="-78437">
		<tag k="name" v="Engelfossen" />
		<tag k="ssr:stedsnr" v="495872" />
		<tag k="waterway" v="stream" />
	</node>
	<node lat="61.09634722571183" lon="7.518752785178656" id="-78442">
		<tag k="name" v="Lærdalselvi" />
		<tag k="ssr:stedsnr" v="495895" />
		<tag k="waterway" v="river" />
	</node>
	<node lat="61.00149999695221" lon="7.537925001559482" id="-78446">
		<tag k="name" v="Hånostjørnane" />
		<tag k="natural" v="water" />
		<tag k="ssr:stedsnr" v="495936" />
		<tag k="water" v="lake" />
	</node>
	<node lat="61.105486107821676" lon="7.528363894673058" id="-78463">
		<tag k="name" v="Lundagrovi" />
		<tag k="ssr:stedsnr" v="531367" />
		<tag k="waterway" v="stream" />
	</node>
	<node lat="61.026841669682454" lon="7.493972228589094" id="-78466">
		<tag k="name" v="Jørundgrovi" />
		<tag k="ssr:stedsnr" v="531713" />
		<tag k="waterway" v="stream" />
	</node>
	<node lat="61.072822220915114" lon="7.939905550201704" id="-78479">
		<tag k="name" v="Eråksøyane" />
		<tag k="natural" v="cape" />
		<tag k="ssr:stedsnr" v="532343" />
	</node>
	<node lat="61.097055558292396" lon="7.314730551544317" id="-78488">
		<tag k="name" v="Vindedalsfossen" />
		<tag k="natural" v="waterfall" />
		<tag k="ssr:stedsnr" v="532811" />
	</node>
	<node lat="60.98161666752814" lon="7.659688890181624" id="-78498">
		<tag k="name" v="Vindhelleelvi" />
		<tag k="ssr:stedsnr" v="554523" />
		<tag k="waterway" v="stream" />
	</node>
	<node lat="60.99060833574547" lon="7.67996110346167" id="-78501">
		<tag k="name" v="Nivla" />
		<tag k="ssr:stedsnr" v="554534" />
		<tag k="waterway" v="river" />
	</node>
	<node lat="61.033985792774516" lon="7.588734497726999" id="-78513">
		<tag k="name" v="Råken" />
		<tag k="ssr:stedsnr" v="555795" />
		<tag k="waterway" v="stream" />
	</node>
	<node lat="61.08448611458522" lon="7.412299992753928" id="-78514">
		<tag k="alt_name" v="Vetlegjelsgrovi" />
		<tag k="name" v="Vetlagjeli" />
		<tag k="ssr:stedsnr" v="555751" />
		<tag k="waterway" v="stream" />
	</node>
	<node lat="61.17557221812972" lon="8.0524249937974" id="-78517">
		<tag k="name" v="Sula" />
		<tag k="ssr:stedsnr" v="555857" />
		<tag k="waterway" v="river" />
	</node>
	<node lat="61.180588889689965" lon="8.02723888195693" id="-78565">
		<tag k="name" v="Frostdøla" />
		<tag k="ssr:stedsnr" v="615880" />
		<tag k="waterway" v="river" />
	</node>
	<node lat="61.04264353164497" lon="7.885898981022236" id="-78568">
		<tag k="name" v="Vassetvatnet" />
		<tag k="natural" v="water" />
		<tag k="ssr:stedsnr" v="616489" />
		<tag k="water" v="lake" />
	</node>
	<node lat="61.07611111101199" lon="7.7229611036452015" id="-78580">
		<tag k="alt_name" v="Sokni, vetle;Vesle Sokni" />
		<tag k="name" v="Vetle Sokni" />
		<tag k="ssr:stedsnr" v="616960" />
		<tag k="waterway" v="stream" />
	</node>
	<node lat="60.99765277419894" lon="7.504563885945345" id="-78607">
		<tag k="name" v="Rovetrolltjørni" />
		<tag k="natural" v="water" />
		<tag k="ssr:stedsnr" v="652667" />
	</node>
	<node lat="61.14531111257083" lon="7.3964666728850705" id="-78636">
		<tag k="name" v="St. Olavkjelda" />
		<tag k="natural" v="spring" />
		<tag k="ssr:stedsnr" v="713243" />
	</node>
	<node lat="61.07601110803028" lon="7.829124994778237" id="-78660">
		<tag k="name" v="Eisandafossen" />
		<tag k="natural" v="waterfall" />
		<tag k="ssr:stedsnr" v="714835" />
	</node>
	<node lat="60.95602499556944" lon="7.58998333003009" id="-78666">
		<tag k="name" v="Vetlerauda" />
		<tag k="natural" v="water" />
		<tag k="ssr:stedsnr" v="736397" />
	</node>
	<node lat="61.21318610703546" lon="8.01422777303124" id="-78667">
		<tag k="name" v="Frostdalstjerni" />
		<tag k="natural" v="water" />
		<tag k="ssr:stedsnr" v="736460" />
		<tag k="water" v="lake" />
	</node>
	<node lat="61.030672219205655" lon="7.297224992607132" id="-78669">
		<tag k="alt_name" v="Vardahaugselvi" />
		<tag k="name" v="Modlaugselvi" />
		<tag k="ssr:stedsnr" v="737376" />
		<tag k="waterway" v="river" />
	</node>
	<node lat="60.906262896649935" lon="7.628630510261632" id="-78670">
		<tag k="name" v="Liahovdvatnet" />
		<tag k="natural" v="water" />
		<tag k="ssr:stedsnr" v="737397" />
		<tag k="water" v="lake" />
	</node>
	<node lat="61.122427777481256" lon="7.500875002204139" id="-78687">
		<tag k="name" v="Berdøla" />
		<tag k="ssr:stedsnr" v="738268" />
		<tag k="waterway" v="stream" />
	</node>
	<node lat="61.15922499880199" lon="7.439616672759099" id="-78690">
		<tag k="name" v="Kvernagrovi" />
		<tag k="ssr:stedsnr" v="738292" />
		<tag k="waterway" v="stream" />
	</node>
	<node lat="61.07618055682687" lon="7.989427780239449" id="-78691">
		<tag k="name" v="Svinekleivgrovi" />
		<tag k="ssr:stedsnr" v="738535" />
		<tag k="waterway" v="stream" />
	</node>
	<node lat="61.09632500016459" lon="7.0569666665685356" id="-78723">
		<tag k="name" v="Hamarstjørni" />
		<tag k="natural" v="water" />
		<tag k="ssr:stedsnr" v="774345" />
	</node>
	<node lat="61.104311109715375" lon="7.859469450771872" id="-78726">
		<tag k="name" v="Tverrelva" />
		<tag k="ssr:stedsnr" v="774779" />
		<tag k="waterway" v="river" />
	</node>
	<node lat="61.09608055342747" lon="7.998997224633801" id="-78739">
		<tag k="name" v="Fremre Brattebakkgrovi" />
		<tag k="ssr:stedsnr" v="775374" />
		<tag k="waterway" v="stream" />
	</node>
	<node lat="61.0339777773584" lon="7.763586110582174" id="-78746">
		<tag k="name" v="Kvemma" />
		<tag k="ssr:stedsnr" v="796461" />
		<tag k="waterway" v="river" />
	</node>
	<node lat="60.928669442630486" lon="7.683777783499428" id="-78747">
		<tag k="name" v="Dyrkollvatnet" />
		<tag k="natural" v="water" />
		<tag k="ssr:stedsnr" v="797365" />
	</node>
	<node lat="60.94751111279685" lon="7.572230563957724" id="-78749">
		<tag k="name" v="Hånostjørnin" />
		<tag k="natural" v="water" />
		<tag k="ssr:stedsnr" v="797383" />
	</node>
	<node lat="60.99907499810741" lon="7.7537000079519665" id="-78750">
		<tag k="name" v="Sauetjørn" />
		<tag k="natural" v="water" />
		<tag k="ssr:stedsnr" v="797283" />
	</node>
	<node lat="61.035511111412326" lon="7.9743388935322335" id="-78758">
		<tag k="name" v="Heftingsdøla" />
		<tag k="ssr:stedsnr" v="799528" />
		<tag k="waterway" v="stream" />
	</node>
	<node lat="61.09118025098192" lon="7.0870298677316725" id="-78762">
		<tag k="name" v="Halvfarelvi" />
		<tag k="ssr:stedsnr" v="798416" />
		<tag k="waterway" v="stream" />
	</node>
	<node lat="61.09565000141617" lon="7.160766665762895" id="-78763">
		<tag k="alt_name" v="Bleielvi, vesla" />
		<tag k="name" v="Vesla Bleielvi" />
		<tag k="ssr:stedsnr" v="798418" />
		<tag k="waterway" v="stream" />
	</node>
	<node lat="61.16930277652268" lon="7.960738892934007" id="-78774">
		<tag k="name" v="Slutedøla" />
		<tag k="ssr:stedsnr" v="798874" />
		<tag k="waterway" v="river" />
	</node>
	<node lat="61.116883332462265" lon="7.749419444102497" id="-78776">
		<tag k="name" v="Soknetjørni" />
		<tag k="natural" v="water" />
		<tag k="ssr:stedsnr" v="798962" />
	</node>
	<node lat="61.111138884933695" lon="7.500052779978981" id="-78779">
		<tag k="name" v="Stødnafossen" />
		<tag k="natural" v="waterfall" />
		<tag k="ssr:stedsnr" v="799282" />
	</node>
	<node lat="61.11193611405045" lon="7.554999999418764" id="-78782">
		<tag k="name" v="Bliksdalselvi" />
		<tag k="ssr:stedsnr" v="799818" />
		<tag k="waterway" v="stream" />
	</node>
	<node lat="61.104388885817286" lon="7.657225005118259" id="-78787">
		<tag k="name" v="Vasselavatni" />
		<tag k="natural" v="water" />
		<tag k="ssr:stedsnr" v="799864" />
		<tag k="water" v="lake" />
	</node>
	<node lat="61.05015278117001" lon="7.751941660314237" id="-78813">
		<tag k="name" v="Sjurhaugfossen" />
		<tag k="natural" v="waterfall" />
		<tag k="ssr:stedsnr" v="835752" />
	</node>
	<node lat="61.17800833726212" lon="7.4743444459876995" id="-78814">
		<tag k="name" v="Hundafoss" />
		<tag k="natural" v="waterfall" />
		<tag k="ssr:stedsnr" v="835854" />
	</node>
	<node lat="61.07648333050652" lon="7.826586116063259" id="-78820">
		<tag k="name" v="Eidsanda" />
		<tag k="ssr:stedsnr" v="836843" />
		<tag k="waterway" v="river" />
	</node>
	<node lat="61.016849999851644" lon="8.135708325792438" id="-78822">
		<tag k="name" v="Jukleåni" />
		<tag k="ssr:stedsnr" v="856658" />
		<tag k="waterway" v="river" />
	</node>
	<node lat="61.12288055424569" lon="7.296811102983783" id="-78836">
		<tag k="alt_name" v="Kolda, vesla" />
		<tag k="name" v="Vetla Kolda" />
		<tag k="ssr:stedsnr" v="859438" />
		<tag k="waterway" v="stream" />
	</node>
	<node lat="61.11865555292965" lon="7.992636117158398" id="-78843">
		<tag k="alt_name" v="Kjerringgrovi, heimre" />
		<tag k="name" v="Heimre Kjerringgrovi" />
		<tag k="ssr:stedsnr" v="859968" />
		<tag k="waterway" v="stream" />
	</node>
	<node lat="61.13998611178026" lon="8.069163879963044" id="-78846">
		<tag k="name" v="Sauetjørn" />
		<tag k="natural" v="water" />
		<tag k="ssr:stedsnr" v="859994" />
	</node>
	<node lat="61.15330833405576" lon="7.835661102096033" id="-78848">
		<tag k="name" v="Drivandtjørni" />
		<tag k="natural" v="water" />
		<tag k="ssr:stedsnr" v="859999" />
	</node>
	<node lat="61.10777222069776" lon="8.055605549612482" id="-78850">
		<tag k="name" v="Klemma" />
		<tag k="ssr:stedsnr" v="859954" />
		<tag k="waterway" v="stream" />
	</node>
	<node lat="61.05971666618003" lon="7.665527775852871" id="-78882">
		<tag k="name" v="Jutlaelvi" />
		<tag k="ssr:stedsnr" v="957279" />
		<tag k="waterway" v="river" />
	</node>
	<node lat="61.02843055484724" lon="7.498672215455994" id="-78887">
		<tag k="name" v="Sølvsteinøyni" />
		<tag k="natural" v="cape" />
		<tag k="ssr:stedsnr" v="957640" />
	</node>
	<node lat="60.866660580508764" lon="7.768854792669598" id="-78975">
		<tag k="name" v="Flågrunnsvotni" />
		<tag k="natural" v="water" />
		<tag k="ssr:stedsnr" v="1076454" />
		<tag k="water" v="lake" />
	</node>
</osm>
