<?xml version="1.0" encoding="UTF-8"?>
<<<<<<< HEAD
<osm version="0.6" generator="osmapis">
	<node lat="61.04174444771445" lon="7.484858332541742" id="-44569">
		<tag k="name" v="Juterustane" />
		<tag k="place" v="locality" />
		<tag k="ssr:stedsnr" v="10889" />
	</node>
	<node lat="61.095163890429525" lon="7.47598054727341" id="-44575">
		<tag k="name" v="Presturi" />
		<tag k="natural" v="scree" />
		<tag k="ssr:stedsnr" v="44404" />
	</node>
	<node lat="61.083910093255575" lon="7.073711860717561" id="-44603">
		<tag k="name" v="Postmyri" />
		<tag k="natural" v="wetland" />
		<tag k="ssr:stedsnr" v="70430" />
	</node>
	<node lat="61.044977780417426" lon="7.997091665706666" id="-44627">
		<tag k="name" v="Storemyr" />
		<tag k="natural" v="wetland" />
		<tag k="ssr:stedsnr" v="107334" />
	</node>
	<node lat="61.02887222212868" lon="7.495469442584467" id="-44634">
		<tag k="name" v="Monsgjerdet" />
		<tag k="place" v="locality" />
		<tag k="ssr:stedsnr" v="107705" />
	</node>
	<node lat="61.088102776957086" lon="7.079844438436844" id="-44662">
		<tag k="name" v="Elvamyrane" />
		<tag k="natural" v="wetland" />
		<tag k="ssr:stedsnr" v="252415" />
	</node>
	<node lat="60.882750002080094" lon="7.699394437431482" id="-44671">
		<tag k="name" v="Åsmundsetsteinen" />
		<tag k="natural" v="stone" />
		<tag k="ssr:stedsnr" v="130306" />
	</node>
	<node lat="61.04475278022053" lon="7.610825003743463" id="-44720">
		<tag k="name" v="Grandane" />
		<tag k="place" v="locality" />
		<tag k="ssr:stedsnr" v="166067" />
	</node>
	<node lat="61.041288884960906" lon="7.595536114352708" id="-44735">
		<tag k="name" v="Løteigen" />
		<tag k="place" v="locality" />
		<tag k="ssr:stedsnr" v="168107" />
	</node>
	<node lat="61.078263886470324" lon="7.842519445457466" id="-44744">
		<tag k="name" v="Skeisvollen" />
		<tag k="place" v="locality" />
		<tag k="ssr:stedsnr" v="169815" />
	</node>
	<node lat="61.02783333681448" lon="7.654986104681539" id="-44783">
		<tag k="name" v="Gråurane" />
		<tag k="natural" v="scree" />
		<tag k="ssr:stedsnr" v="229482" />
	</node>
	<node lat="61.130180555278095" lon="7.473455560049721" id="-44792">
		<tag k="name" v="Timregjelsmyrane" />
		<tag k="natural" v="wetland" />
		<tag k="ssr:stedsnr" v="253296" />
	</node>
	<node lat="61.046938886583696" lon="7.58867500838022" id="-44810">
		<tag k="name" v="Dunvollen" />
		<tag k="place" v="locality" />
		<tag k="ssr:stedsnr" v="289105" />
	</node>
	<node lat="61.11385277786839" lon="7.326716675655536" id="-44814">
		<tag k="name" v="Storeteig" />
		<tag k="place" v="locality" />
		<tag k="ssr:stedsnr" v="289328" />
	</node>
	<node lat="61.12155555498063" lon="7.383813889186449" id="-44848">
		<tag k="name" v="Klovsteinen" />
		<tag k="natural" v="stone" />
		<tag k="ssr:stedsnr" v="313806" />
	</node>
	<node lat="61.02372777841898" lon="7.634411116635011" id="-44858">
		<tag k="name" v="Piggstein" />
		<tag k="natural" v="stone" />
		<tag k="ssr:stedsnr" v="325786" />
	</node>
	<node lat="61.06302499855759" lon="7.512211120405655" id="-44864">
		<tag k="name" v="Kanten" />
		<tag k="place" v="locality" />
		<tag k="ssr:stedsnr" v="470502" />
	</node>
	<node lat="61.05580833490323" lon="7.964183326129764" id="-44866">
		<tag k="name" v="Dalsgrandane" />
		<tag k="place" v="locality" />
		<tag k="ssr:stedsnr" v="471335" />
	</node>
	<node lat="60.99303888465748" lon="7.685908328438586" id="-44876">
		<tag k="name" v="Brenduri" />
		<tag k="natural" v="scree" />
		<tag k="ssr:stedsnr" v="471552" />
	</node>
	<node lat="61.04176944296078" lon="7.514577775161476" id="-44880">
		<tag k="name" v="Holkeperhagen" />
		<tag k="place" v="locality" />
		<tag k="ssr:stedsnr" v="471651" />
	</node>
	<node lat="61.12207777798053" lon="7.325111113664021" id="-44882">
		<tag k="name" v="Storuri" />
		<tag k="natural" v="scree" />
		<tag k="ssr:stedsnr" v="471812" />
	</node>
	<node lat="61.065774999161306" lon="7.831097219873242" id="-44885">
		<tag k="name" v="Hedlestadhagen" />
		<tag k="place" v="locality" />
		<tag k="ssr:stedsnr" v="471845" />
	</node>
	<node lat="61.1663388850265" lon="7.445480560313199" id="-44886">
		<tag k="name" v="Muggeteigen" />
		<tag k="place" v="locality" />
		<tag k="ssr:stedsnr" v="471847" />
	</node>
	<node lat="61.09372500374928" lon="7.467999997922327" id="-44890">
		<tag k="name" v="Smedteigen" />
		<tag k="place" v="locality" />
		<tag k="ssr:stedsnr" v="348408" />
	</node>
	<node lat="61.15033888708217" lon="7.443422227312817" id="-44961">
		<tag k="name" v="Kyrfossmyri" />
		<tag k="natural" v="wetland" />
		<tag k="ssr:stedsnr" v="435305" />
	</node>
	<node lat="61.071733336673596" lon="7.501361102127389" id="-44967">
		<tag k="name" v="Linja" />
=======
<osm generator="osmapis" version="0.6">
	<node id="-677371" lat="61.0396722248" lon="7.63998610954">
		<tag k="name" v="Øynene" />
>>>>>>> e1d4bc35ff8a6074a6f2e91616a996b547c36f15
		<tag k="place" v="locality" />
		<tag k="ssr:stedsnr" v="435870" />
	</node>
<<<<<<< HEAD
	<node lat="61.10554166742283" lon="7.475055557996661" id="-44985">
		<tag k="name" v="Hellersuri" />
		<tag k="natural" v="scree" />
		<tag k="ssr:stedsnr" v="470116" />
	</node>
	<node lat="61.05840000406958" lon="7.664008331248056" id="-44999">
		<tag k="name" v="Bakkeplassen" />
		<tag k="place" v="locality" />
		<tag k="ssr:stedsnr" v="471272" />
	</node>
	<node lat="61.04522777518942" lon="7.789947219639003" id="-45002">
		<tag k="name" v="Bruvoll" />
		<tag k="place" v="locality" />
		<tag k="ssr:stedsnr" v="471760" />
	</node>
	<node lat="61.08360277915739" lon="7.482097219397806" id="-45044">
		<tag k="name" v="Skarsmyri" />
		<tag k="natural" v="wetland" />
		<tag k="ssr:stedsnr" v="495804" />
	</node>
	<node lat="61.14369722371859" lon="7.3868694365675225" id="-45059">
		<tag k="name" v="Ørneuri" />
=======
	<node id="-677882" lat="61.0696527814" lon="7.50341110972">
		<tag k="name" v="Odden" />
		<tag k="place" v="locality" />
		<tag k="ssr:stedsnr" v="349590" />
	</node>
	<node id="-677878" lat="61.0335416707" lon="7.34009443857">
		<tag k="name" v="Foremyri" />
		<tag k="natural" v="wetland" />
		<tag k="ssr:stedsnr" v="349395" />
	</node>
	<node id="-678387" lat="61.1047083377" lon="7.52292499753">
		<tag k="name" v="Haukestein" />
		<tag k="natural" v="stone" />
		<tag k="ssr:stedsnr" v="774407" />
	</node>
	<node id="-677359" lat="61.1056083324" lon="7.0909000056">
		<tag k="name" v="Hjelluri" />
>>>>>>> e1d4bc35ff8a6074a6f2e91616a996b547c36f15
		<tag k="natural" v="scree" />
		<tag k="ssr:stedsnr" v="530309" />
	</node>
<<<<<<< HEAD
	<node lat="61.110611114611224" lon="7.464233331567158" id="-45139">
		<tag k="name" v="Dugurdsuri" />
		<tag k="natural" v="scree" />
		<tag k="ssr:stedsnr" v="600809" />
	</node>
	<node lat="61.11133333451834" lon="7.461449996982715" id="-45160">
		<tag k="name" v="Kveuri" />
		<tag k="natural" v="scree" />
		<tag k="ssr:stedsnr" v="617298" />
	</node>
	<node lat="61.026199996886895" lon="7.67048889134973" id="-45174">
		<tag k="name" v="Kyrahelleruri" />
		<tag k="natural" v="scree" />
		<tag k="ssr:stedsnr" v="652406" />
	</node>
	<node lat="61.084383333267176" lon="7.044541674990127" id="-45176">
		<tag k="alt_name" v="Sandløypene" />
		<tag k="name" v="Sandløype" />
		<tag k="natural" v="scree" />
		<tag k="ssr:stedsnr" v="652414" />
	</node>
	<node lat="61.03976389234988" lon="7.988925005081737" id="-45182">
		<tag k="name" v="Vardedekkene" />
=======
	<node id="-677356" lat="61.10497778" lon="7.44443054638">
		<tag k="name" v="Ospi" />
		<tag k="place" v="locality" />
		<tag k="ssr:stedsnr" v="904831" />
	</node>
	<node id="-677353" lat="61.1313749975" lon="7.29526111538">
		<tag k="name" v="Reinsvai" />
		<tag k="place" v="locality" />
		<tag k="ssr:stedsnr" v="904332" />
	</node>
	<node id="-677864" lat="61.0237277784" lon="7.63441111664">
		<tag k="name" v="Piggstein" />
		<tag k="natural" v="stone" />
		<tag k="ssr:stedsnr" v="325786" />
	</node>
	<node id="-677346" lat="61.0157638862" lon="7.49000278042">
		<tag k="name" v="Presteteigen" />
>>>>>>> e1d4bc35ff8a6074a6f2e91616a996b547c36f15
		<tag k="place" v="locality" />
		<tag k="ssr:stedsnr" v="653332" />
	</node>
<<<<<<< HEAD
	<node lat="61.0406277771963" lon="7.628855556120021" id="-45230">
		<tag k="name" v="Skogaplassen" />
=======
	<node id="-678368" lat="61.0803694443" lon="7.52912222343">
		<tag k="name" v="Gulleikteigane" />
>>>>>>> e1d4bc35ff8a6074a6f2e91616a996b547c36f15
		<tag k="place" v="locality" />
		<tag k="ssr:stedsnr" v="896129" />
	</node>
<<<<<<< HEAD
	<node lat="61.083100001217275" lon="7.981350007191501" id="-45246">
		<tag k="name" v="Urteteigen" />
		<tag k="place" v="locality" />
		<tag k="ssr:stedsnr" v="896422" />
	</node>
	<node lat="61.06826666301396" lon="7.0415027814530475" id="-45250">
=======
	<node id="-677335" lat="61.068266663" lon="7.04150278145">
>>>>>>> e1d4bc35ff8a6074a6f2e91616a996b547c36f15
		<tag k="alt_name" v="Kviturane" />
		<tag k="name" v="Kvitur" />
		<tag k="natural" v="scree" />
		<tag k="ssr:stedsnr" v="896464" />
	</node>
<<<<<<< HEAD
	<node lat="61.015763886164734" lon="7.490002780422055" id="-45258">
		<tag k="name" v="Presteteigen" />
=======
	<node id="-676822" lat="61.0447527802" lon="7.61082500374">
		<tag k="name" v="Grandane" />
>>>>>>> e1d4bc35ff8a6074a6f2e91616a996b547c36f15
		<tag k="place" v="locality" />
		<tag k="ssr:stedsnr" v="896739" />
	</node>
<<<<<<< HEAD
	<node lat="61.04373332925606" lon="7.796561116495449" id="-45272">
		<tag k="name" v="Rimskjold" />
=======
	<node id="-677332" lat="61.0831000012" lon="7.98135000719">
		<tag k="name" v="Urteteigen" />
>>>>>>> e1d4bc35ff8a6074a6f2e91616a996b547c36f15
		<tag k="place" v="locality" />
		<tag k="ssr:stedsnr" v="714894" />
	</node>
<<<<<<< HEAD
	<node lat="61.09441666977866" lon="7.414844444706649" id="-45304">
		<tag k="name" v="Diket" />
		<tag k="place" v="locality" />
		<tag k="ssr:stedsnr" v="228864" />
	</node>
	<node lat="61.131374997472676" lon="7.295261115377017" id="-45306">
		<tag k="name" v="Reinsvai" />
=======
	<node id="-676810" lat="60.8827500021" lon="7.69939443743">
		<tag k="name" v="Åsmundsetsteinen" />
		<tag k="natural" v="stone" />
		<tag k="ssr:stedsnr" v="130306" />
	</node>
	<node id="-677964" lat="61.1195555539" lon="7.42303611802">
		<tag k="alt_name" v="Gråurane" />
		<tag k="name" v="Gråurene" />
		<tag k="natural" v="scree" />
		<tag k="ssr:stedsnr" v="409278" />
	</node>
	<node id="-676854" lat="61.1138527779" lon="7.32671667566">
		<tag k="name" v="Storeteig" />
		<tag k="place" v="locality" />
		<tag k="ssr:stedsnr" v="289328" />
	</node>
	<node id="-677314" lat="61.0406277772" lon="7.62885555612">
		<tag k="name" v="Skogaplassen" />
>>>>>>> e1d4bc35ff8a6074a6f2e91616a996b547c36f15
		<tag k="place" v="locality" />
		<tag k="ssr:stedsnr" v="904332" />
	</node>
<<<<<<< HEAD
	<node lat="61.10497778004611" lon="7.444430546376267" id="-45308">
		<tag k="name" v="Ospi" />
=======
	<node id="-677304" lat="61.0135388885" lon="7.68413610705">
		<tag k="name" v="Rotaløteigane" />
>>>>>>> e1d4bc35ff8a6074a6f2e91616a996b547c36f15
		<tag k="place" v="locality" />
		<tag k="ssr:stedsnr" v="904831" />
	</node>
	<node lat="61.10470833768198" lon="7.522924997529607" id="-45314">
		<tag k="name" v="Haukestein" />
		<tag k="natural" v="stone" />
		<tag k="ssr:stedsnr" v="774407" />
	</node>
<<<<<<< HEAD
	<node lat="61.05697777891163" lon="7.533205560434046" id="-45407">
		<tag k="name" v="Sanden" />
		<tag k="place" v="locality" />
		<tag k="ssr:stedsnr" v="836726" />
	</node>
	<node lat="61.105388886177096" lon="7.152852777859323" id="-45439">
=======
	<node id="-677294" lat="61.1053888862" lon="7.15285277786">
>>>>>>> e1d4bc35ff8a6074a6f2e91616a996b547c36f15
		<tag k="name" v="Britaselsmyri" />
		<tag k="natural" v="wetland" />
		<tag k="ssr:stedsnr" v="894430" />
	</node>
<<<<<<< HEAD
	<node lat="61.10660555118972" lon="7.325188890175484" id="-45493">
		<tag k="name" v="Stølabøen" />
		<tag k="place" v="locality" />
		<tag k="ssr:stedsnr" v="956310" />
	</node>
	<node lat="61.08188889046627" lon="7.071780549662403" id="-45566">
		<tag k="name" v="Råtamyri" />
		<tag k="natural" v="wetland" />
		<tag k="ssr:stedsnr" v="46296" />
	</node>
	<node lat="61.056544440659074" lon="7.50514166220052" id="-45574">
		<tag k="name" v="Attigardsgjørven" />
=======
	<node id="-676781" lat="61.1301805553" lon="7.47345556005">
		<tag k="name" v="Timregjelsmyrane" />
		<tag k="natural" v="wetland" />
		<tag k="ssr:stedsnr" v="253296" />
	</node>
	<node id="-678390" lat="61.0561250036" lon="7.74433333288">
		<tag k="name" v="Nedre skori" />
		<tag k="place" v="locality" />
		<tag k="ssr:stedsnr" v="774748" />
	</node>
	<node id="-676763" lat="61.088102777" lon="7.07984443844">
		<tag k="name" v="Elvamyrane" />
		<tag k="natural" v="wetland" />
		<tag k="ssr:stedsnr" v="252415" />
	</node>
	<node id="-677773" lat="61.0782638865" lon="7.84251944546">
		<tag k="name" v="Skeisvollen" />
>>>>>>> e1d4bc35ff8a6074a6f2e91616a996b547c36f15
		<tag k="place" v="locality" />
		<tag k="ssr:stedsnr" v="47640" />
	</node>
<<<<<<< HEAD
	<node lat="61.1172805558132" lon="7.478325005143036" id="-45593">
		<tag k="name" v="Storamyri" />
		<tag k="natural" v="wetland" />
		<tag k="ssr:stedsnr" v="71278" />
	</node>
	<node lat="61.115602781725464" lon="7.3894138971204475" id="-45606">
=======
	<node id="-678278" lat="61.0397638923" lon="7.98892500508">
		<tag k="name" v="Vardedekkene" />
		<tag k="place" v="locality" />
		<tag k="ssr:stedsnr" v="653332" />
	</node>
	<node id="-676739" lat="61.1156027817" lon="7.38941389712">
>>>>>>> e1d4bc35ff8a6074a6f2e91616a996b547c36f15
		<tag k="historic" v="shieling" />
		<tag k="name" v="Mjølkeflaten" />
		<tag k="place" v="locality" />
		<tag k="ssr:stedsnr" v="71806" />
	</node>
<<<<<<< HEAD
	<node lat="61.10552499879951" lon="7.451491675747234" id="-45633">
		<tag k="name" v="Raubergsteigen" />
=======
	<node id="-678268" lat="61.0624194435" lon="7.52002222801">
		<tag k="name" v="Øvregardsøynene" />
>>>>>>> e1d4bc35ff8a6074a6f2e91616a996b547c36f15
		<tag k="place" v="locality" />
		<tag k="ssr:stedsnr" v="107347" />
	</node>
<<<<<<< HEAD
	<node lat="61.07609999875782" lon="7.518066663297644" id="-45637">
		<tag k="name" v="Mita" />
		<tag k="place" v="locality" />
		<tag k="ssr:stedsnr" v="107629" />
	</node>
	<node lat="61.10864167051553" lon="8.046744445390118" id="-45667">
		<tag k="historic" v="shieling" />
		<tag k="name" v="Gramstølen" />
		<tag k="place" v="locality" />
		<tag k="ssr:stedsnr" v="130967" />
	</node>
	<node lat="61.071241671030606" lon="7.511308329481449" id="-45698">
=======
	<node id="-677753" lat="61.071241671" lon="7.51130832948">
>>>>>>> e1d4bc35ff8a6074a6f2e91616a996b547c36f15
		<tag k="name" v="Smieøyni" />
		<tag k="place" v="locality" />
		<tag k="ssr:stedsnr" v="167579" />
	</node>
<<<<<<< HEAD
	<node lat="61.032030552388186" lon="7.643516670382403" id="-45793">
		<tag k="name" v="Monsuri" />
=======
	<node id="-678258" lat="61.0843833333" lon="7.04454167499">
		<tag k="alt_name" v="Sandløypene" />
		<tag k="name" v="Sandløype" />
>>>>>>> e1d4bc35ff8a6074a6f2e91616a996b547c36f15
		<tag k="natural" v="scree" />
		<tag k="ssr:stedsnr" v="289558" />
	</node>
<<<<<<< HEAD
	<node lat="61.0335416706983" lon="7.340094438566686" id="-45844">
		<tag k="name" v="Foremyri" />
		<tag k="natural" v="wetland" />
		<tag k="ssr:stedsnr" v="349395" />
	</node>
	<node lat="61.06965278138757" lon="7.503411109721191" id="-45846">
		<tag k="name" v="Odden" />
		<tag k="place" v="locality" />
		<tag k="ssr:stedsnr" v="349590" />
	</node>
	<node lat="61.04872499808284" lon="7.629708335986981" id="-45857">
		<tag k="name" v="Åbryo" />
=======
	<node id="-677233" lat="61.1106111146" lon="7.46423333157">
		<tag k="name" v="Dugurdsuri" />
		<tag k="natural" v="scree" />
		<tag k="ssr:stedsnr" v="600809" />
	</node>
	<node id="-678256" lat="61.0261999969" lon="7.67048889135">
		<tag k="name" v="Kyrahelleruri" />
		<tag k="natural" v="scree" />
		<tag k="ssr:stedsnr" v="652406" />
	</node>
	<node id="-677230" lat="61.0680916694" lon="7.8321055492">
		<tag k="name" v="Røssgjerdet" />
>>>>>>> e1d4bc35ff8a6074a6f2e91616a996b547c36f15
		<tag k="place" v="locality" />
		<tag k="ssr:stedsnr" v="350125" />
	</node>
<<<<<<< HEAD
	<node lat="60.95867499797002" lon="7.616811105541027" id="-45888">
		<tag k="name" v="Hestefonni" />
		<tag k="natural" v="glacier" />
		<tag k="ssr:stedsnr" v="372422" />
	</node>
	<node lat="61.06750832988202" lon="7.545525002995182" id="-45916">
		<tag k="name" v="Langamyri" />
		<tag k="natural" v="wetland" />
		<tag k="ssr:stedsnr" v="374867" />
	</node>
	<node lat="61.11955555387157" lon="7.423036118020486" id="-45932">
		<tag k="alt_name" v="Gråurane" />
		<tag k="name" v="Gråurene" />
=======
	<node id="-677227" lat="61.0344888847" lon="7.63352777596">
		<tag k="name" v="Dokki" />
		<tag k="place" v="locality" />
		<tag k="ssr:stedsnr" v="714499" />
	</node>
	<node id="-676714" lat="61.0278333368" lon="7.65498610468">
		<tag k="name" v="Gråurane" />
		<tag k="natural" v="scree" />
		<tag k="ssr:stedsnr" v="229482" />
	</node>
	<node id="-678241" lat="61.1113333345" lon="7.46144999698">
		<tag k="name" v="Kveuri" />
>>>>>>> e1d4bc35ff8a6074a6f2e91616a996b547c36f15
		<tag k="natural" v="scree" />
		<tag k="ssr:stedsnr" v="409278" />
	</node>
<<<<<<< HEAD
	<node lat="61.09094166286312" lon="7.452258328456853" id="-45939">
		<tag k="name" v="Farmyri" />
		<tag k="natural" v="wetland" />
		<tag k="ssr:stedsnr" v="410382" />
	</node>
	<node lat="61.08855833486778" lon="7.987350005728423" id="-45948">
		<tag k="name" v="Gamleøyni" />
=======
	<node id="-677210" lat="61.1135833305" lon="7.33096110523">
		<tag k="name" v="Kvilesteinen" />
		<tag k="natural" v="stone" />
		<tag k="ssr:stedsnr" v="713323" />
	</node>
	<node id="-677199" lat="61.1519805529" lon="7.4115305465">
		<tag k="name" v="Teigen" />
>>>>>>> e1d4bc35ff8a6074a6f2e91616a996b547c36f15
		<tag k="place" v="locality" />
		<tag k="ssr:stedsnr" v="411386" />
	</node>
<<<<<<< HEAD
	<node lat="61.086663887009806" lon="7.985016663974974" id="-45949">
		<tag k="name" v="Øynamarka" />
=======
	<node id="-677708" lat="61.1086416705" lon="8.04674444539">
		<tag k="historic" v="shieling" />
		<tag k="name" v="Gramstølen" />
>>>>>>> e1d4bc35ff8a6074a6f2e91616a996b547c36f15
		<tag k="place" v="locality" />
		<tag k="ssr:stedsnr" v="411387" />
	</node>
<<<<<<< HEAD
	<node lat="61.030213887600496" lon="7.5534888917285" id="-45979">
=======
	<node id="-677191" lat="61.0851000044" lon="7.75970555827">
>>>>>>> e1d4bc35ff8a6074a6f2e91616a996b547c36f15
		<tag k="historic" v="shieling" />
		<tag k="name" v="Bøastølen" />
		<tag k="place" v="locality" />
		<tag k="ssr:stedsnr" v="434931" />
	</node>
<<<<<<< HEAD
	<node lat="61.01110277647236" lon="7.723213892045636" id="-45991">
		<tag k="historic" v="shieling" />
		<tag k="loc_name" v="Visete" />
		<tag k="name" v="Visetstølen" />
=======
	<node id="-676832" lat="61.041288885" lon="7.59553611435">
		<tag k="name" v="Løteigen" />
		<tag k="place" v="locality" />
		<tag k="ssr:stedsnr" v="168107" />
	</node>
	<node id="-678184" lat="61.0734194421" lon="7.96451667505">
		<tag k="name" v="Borlaugshagen" />
>>>>>>> e1d4bc35ff8a6074a6f2e91616a996b547c36f15
		<tag k="place" v="locality" />
		<tag k="ssr:stedsnr" v="435552" />
	</node>
<<<<<<< HEAD
	<node lat="61.08147499814604" lon="7.756141670503065" id="-45995">
		<tag k="name" v="Kattefarsvoi" />
=======
	<node id="-677669" lat="61.0288722221" lon="7.49546944258">
		<tag k="name" v="Monsgjerdet" />
>>>>>>> e1d4bc35ff8a6074a6f2e91616a996b547c36f15
		<tag k="place" v="locality" />
		<tag k="ssr:stedsnr" v="447316" />
	</node>
<<<<<<< HEAD
	<node lat="61.08477499639976" lon="7.105194448773035" id="-46032">
		<tag k="name" v="Fuglamyrhaugane" />
		<tag k="natural" v="wetland" />
		<tag k="ssr:stedsnr" v="531278" />
	</node>
	<node lat="61.07272777397312" lon="7.963336108734234" id="-46052">
		<tag k="name" v="Flathagen" />
=======
	<node id="-678179" lat="61.1561277758" lon="7.42754723161">
		<tag k="name" v="Tufti" />
		<tag k="place" v="locality" />
		<tag k="ssr:stedsnr" v="592299" />
	</node>
	<node id="-677661" lat="61.0760999988" lon="7.5180666633">
		<tag k="name" v="Mita" />
>>>>>>> e1d4bc35ff8a6074a6f2e91616a996b547c36f15
		<tag k="place" v="locality" />
		<tag k="ssr:stedsnr" v="532337" />
	</node>
<<<<<<< HEAD
	<node lat="61.08510000439335" lon="7.759705558269659" id="-46101">
		<tag k="historic" v="shieling" />
		<tag k="name" v="Fremre Ljøsndalen" />
=======
	<node id="-678171" lat="61.0463111092" lon="7.57168333788">
		<tag k="name" v="Bordhagen" />
>>>>>>> e1d4bc35ff8a6074a6f2e91616a996b547c36f15
		<tag k="place" v="locality" />
		<tag k="ssr:stedsnr" v="567332" />
	</node>
<<<<<<< HEAD
	<node lat="61.10385833270485" lon="7.04409445002173" id="-46107">
=======
	<node id="-678166" lat="61.1038583327" lon="7.04409445002">
>>>>>>> e1d4bc35ff8a6074a6f2e91616a996b547c36f15
		<tag k="name" v="Storuri" />
		<tag k="natural" v="scree" />
		<tag k="ssr:stedsnr" v="591233" />
	</node>
<<<<<<< HEAD
	<node lat="61.04631110916633" lon="7.5716833378773325" id="-46109">
		<tag k="name" v="Bordhagen" />
		<tag k="place" v="locality" />
		<tag k="ssr:stedsnr" v="592096" />
	</node>
	<node lat="61.15612777578523" lon="7.427547231612143" id="-46112">
		<tag k="name" v="Tufti" />
		<tag k="place" v="locality" />
		<tag k="ssr:stedsnr" v="592299" />
	</node>
	<node lat="61.0734194420632" lon="7.964516675046732" id="-46113">
		<tag k="name" v="Borlaugshagen" />
		<tag k="place" v="locality" />
		<tag k="ssr:stedsnr" v="592369" />
	</node>
	<node lat="61.06241944351241" lon="7.52002222800979" id="-46165">
		<tag k="name" v="Øvregardsøynene" />
=======
	<node id="-677653" lat="61.1055249988" lon="7.45149167575">
		<tag k="name" v="Raubergsteigen" />
		<tag k="place" v="locality" />
		<tag k="ssr:stedsnr" v="107347" />
	</node>
	<node id="-677650" lat="61.0449777804" lon="7.99709166571">
		<tag k="name" v="Storemyr" />
		<tag k="natural" v="wetland" />
		<tag k="ssr:stedsnr" v="107334" />
	</node>
	<node id="-677590" lat="61.0565444407" lon="7.5051416622">
		<tag k="name" v="Attigardsgjørven" />
		<tag k="place" v="locality" />
		<tag k="ssr:stedsnr" v="47640" />
	</node>
	<node id="-677622" lat="61.1172805558" lon="7.47832500514">
		<tag k="name" v="Storamyri" />
		<tag k="natural" v="wetland" />
		<tag k="ssr:stedsnr" v="71278" />
	</node>
	<node id="-677608" lat="61.0835138913" lon="7.07292778686">
		<tag k="name" v="Postmyri" />
		<tag k="natural" v="wetland" />
		<tag k="ssr:stedsnr" v="70430" />
	</node>
	<node id="-677095" lat="61.1055416674" lon="7.475055558">
		<tag k="name" v="Hellersuri" />
		<tag k="natural" v="scree" />
		<tag k="ssr:stedsnr" v="470116" />
	</node>
	<node id="-677093" lat="61.0814749981" lon="7.7561416705">
		<tag k="name" v="Kattefarsvoi" />
>>>>>>> e1d4bc35ff8a6074a6f2e91616a996b547c36f15
		<tag k="place" v="locality" />
		<tag k="ssr:stedsnr" v="652499" />
	</node>
<<<<<<< HEAD
	<node lat="61.11358333045795" lon="7.330961105225173" id="-46203">
		<tag k="name" v="Kvilesteinen" />
		<tag k="natural" v="stone" />
		<tag k="ssr:stedsnr" v="713323" />
	</node>
	<node lat="61.15198055294001" lon="7.411530546495504" id="-46209">
		<tag k="name" v="Teigen" />
=======
	<node id="-677092" lat="61.1503388871" lon="7.44342222731">
		<tag k="name" v="Kyrfossmyri" />
		<tag k="natural" v="wetland" />
		<tag k="ssr:stedsnr" v="435305" />
	</node>
	<node id="-677083" lat="61.086663887" lon="7.98501666397">
		<tag k="name" v="Øynamarka" />
>>>>>>> e1d4bc35ff8a6074a6f2e91616a996b547c36f15
		<tag k="place" v="locality" />
		<tag k="ssr:stedsnr" v="713255" />
	</node>
<<<<<<< HEAD
	<node lat="61.03448888474662" lon="7.633527775959827" id="-46225">
		<tag k="name" v="Dokki" />
=======
	<node id="-677082" lat="61.0885583349" lon="7.98735000573">
		<tag k="name" v="Gamleøyni" />
>>>>>>> e1d4bc35ff8a6074a6f2e91616a996b547c36f15
		<tag k="place" v="locality" />
		<tag k="ssr:stedsnr" v="714499" />
	</node>
<<<<<<< HEAD
	<node lat="61.013538888519186" lon="7.684136107046784" id="-46226">
		<tag k="name" v="Rotaløteigane" />
=======
	<node id="-678102" lat="61.072727774" lon="7.96333610873">
		<tag k="name" v="Flathagen" />
>>>>>>> e1d4bc35ff8a6074a6f2e91616a996b547c36f15
		<tag k="place" v="locality" />
		<tag k="ssr:stedsnr" v="714619" />
	</node>
<<<<<<< HEAD
	<node lat="61.06809166935687" lon="7.832105549203942" id="-46232">
		<tag k="name" v="Røssgjerdet" />
		<tag k="place" v="locality" />
		<tag k="ssr:stedsnr" v="714837" />
	</node>
	<node lat="61.10560833235745" lon="7.090900005599505" id="-46272">
		<tag k="name" v="Hjelluri" />
		<tag k="natural" v="scree" />
		<tag k="ssr:stedsnr" v="765483" />
	</node>
	<node lat="61.080369444334416" lon="7.5291222234298845" id="-46282">
		<tag k="name" v="Gulleikteigane" />
		<tag k="place" v="locality" />
		<tag k="ssr:stedsnr" v="774291" />
	</node>
	<node lat="61.0561250036036" lon="7.744333332882151" id="-46303">
		<tag k="name" v="Nedre skori" />
		<tag k="place" v="locality" />
		<tag k="ssr:stedsnr" v="774748" />
	</node>
	<node lat="61.03967222477889" lon="7.639986109541022" id="-46305">
		<tag k="name" v="Øynene" />
		<tag k="place" v="locality" />
		<tag k="ssr:stedsnr" v="775123" />
	</node>
	<node lat="61.12105277923142" lon="8.015433325658877" id="-46308">
		<tag k="name" v="Råsdalsmyrane" />
=======
	<node id="-677075" lat="61.0675083299" lon="7.545525003">
		<tag k="name" v="Langamyri" />
		<tag k="natural" v="wetland" />
		<tag k="ssr:stedsnr" v="374867" />
	</node>
	<node id="-677576" lat="61.0818888905" lon="7.07178054966">
		<tag k="name" v="Råtamyri" />
		<tag k="natural" v="wetland" />
		<tag k="ssr:stedsnr" v="46296" />
	</node>
	<node id="-677058" lat="60.958674998" lon="7.61681110554">
		<tag k="name" v="Hestefonni" />
		<tag k="natural" v="glacier" />
		<tag k="ssr:stedsnr" v="372422" />
	</node>
	<node id="-677053" lat="61.0836027792" lon="7.4820972194">
		<tag k="name" v="Skarsmyri" />
>>>>>>> e1d4bc35ff8a6074a6f2e91616a996b547c36f15
		<tag k="natural" v="wetland" />
		<tag k="ssr:stedsnr" v="775437" />
	</node>
<<<<<<< HEAD
	<node lat="60.96032499598302" lon="7.727850002254277" id="-46324">
		<tag k="historic" v="shieling" />
		<tag k="name" v="Nystølen" />
		<tag k="place" v="locality" />
		<tag k="ssr:stedsnr" v="797679" />
	</node>
	<node lat="61.082366666129126" lon="7.102813898113316" id="-46331">
		<tag k="alt_name" v="Gutahjellmyri" />
		<tag k="name" v="Gutahjellsmyri" />
=======
	<node id="-678075" lat="61.0847749964" lon="7.10519444877">
		<tag k="name" v="Fuglamyrhaugane" />
>>>>>>> e1d4bc35ff8a6074a6f2e91616a996b547c36f15
		<tag k="natural" v="wetland" />
		<tag k="ssr:stedsnr" v="798408" />
	</node>
<<<<<<< HEAD
	<node lat="61.02841388935513" lon="7.506908329862558" id="-46338">
		<tag k="name" v="Tynjauri" />
		<tag k="natural" v="scree" />
		<tag k="ssr:stedsnr" v="798778" />
	</node>
	<node lat="61.092681275776656" lon="7.8817250216105155" id="-46343">
		<tag k="name" v="Vettei" />
		<tag k="place" v="locality" />
		<tag k="ssr:stedsnr" v="798939" />
	</node>
	<node lat="61.04390833082733" lon="7.587400007595541" id="-46368">
		<tag k="name" v="Tomarkateigen" />
=======
	<node id="-677559" lat="61.0417444477" lon="7.48485833254">
		<tag k="name" v="Juterustane" />
		<tag k="place" v="locality" />
		<tag k="ssr:stedsnr" v="10889" />
	</node>
	<node id="-678069" lat="61.1436972237" lon="7.38686943657">
		<tag k="name" v="Ørneuri" />
		<tag k="natural" v="scree" />
		<tag k="ssr:stedsnr" v="530309" />
	</node>
	<node id="-678579" lat="60.9569472182" lon="7.68462776878">
		<tag k="name" v="Skagsetmyri" />
		<tag k="natural" v="wetland" />
		<tag k="ssr:stedsnr" v="957570" />
	</node>
	<node id="-678570" lat="61.0432722209" lon="7.63740833771">
		<tag k="name" v="Moane" />
>>>>>>> e1d4bc35ff8a6074a6f2e91616a996b547c36f15
		<tag k="place" v="locality" />
		<tag k="ssr:stedsnr" v="835115" />
	</node>
<<<<<<< HEAD
	<node lat="61.093194439976145" lon="7.464705553290538" id="-46380">
		<tag k="name" v="Otteannauri" />
		<tag k="natural" v="scree" />
		<tag k="ssr:stedsnr" v="835457" />
	</node>
	<node lat="61.052730553274394" lon="7.568133328373089" id="-46386">
		<tag k="name" v="Skorpene" />
=======
	<node id="-678569" lat="61.0377777819" lon="7.6198694424">
		<tag k="name" v="Rikheimslunden" />
		<tag k="place" v="locality" />
		<tag k="ssr:stedsnr" v="957121" />
	</node>
	<node id="-678056" lat="61.0717333367" lon="7.50136110213">
		<tag k="name" v="Linja" />
>>>>>>> e1d4bc35ff8a6074a6f2e91616a996b547c36f15
		<tag k="place" v="locality" />
		<tag k="ssr:stedsnr" v="836067" />
	</node>
<<<<<<< HEAD
	<node lat="61.0276611151217" lon="7.661952779365168" id="-46388">
		<tag k="name" v="Dalsgjerdi" />
=======
	<node id="-678052" lat="61.0111027765" lon="7.72321389205">
		<tag k="historic" v="shieling" />
		<tag k="loc_name" v="Visete" />
		<tag k="name" v="Visetstølen" />
>>>>>>> e1d4bc35ff8a6074a6f2e91616a996b547c36f15
		<tag k="place" v="locality" />
		<tag k="ssr:stedsnr" v="836456" />
	</node>
<<<<<<< HEAD
	<node lat="61.093430559061574" lon="7.054911107292609" id="-46438">
		<tag k="name" v="Skrivarløypmyri" />
=======
	<node id="-677232" lat="61.0437333293" lon="7.7965611165">
		<tag k="name" v="Rimskjold" />
		<tag k="place" v="locality" />
		<tag k="ssr:stedsnr" v="714894" />
	</node>
	<node id="-678555" lat="61.0883333371" lon="7.46916944155">
		<tag k="name" v="Husakallmyri" />
>>>>>>> e1d4bc35ff8a6074a6f2e91616a996b547c36f15
		<tag k="natural" v="wetland" />
		<tag k="ssr:stedsnr" v="956332" />
	</node>
<<<<<<< HEAD
	<node lat="61.09113889276253" lon="7.0698166746046125" id="-46440">
		<tag k="name" v="Langamyrane" />
		<tag k="natural" v="wetland" />
		<tag k="ssr:stedsnr" v="956345" />
	</node>
	<node lat="61.0324222242705" lon="7.339708324443423" id="-46443">
=======
	<node id="-677563" lat="61.0951638904" lon="7.47598054727">
		<tag k="name" v="Presturi" />
		<tag k="natural" v="scree" />
		<tag k="ssr:stedsnr" v="44404" />
	</node>
	<node id="-678038" lat="61.0302138876" lon="7.55348889173">
		<tag k="historic" v="shieling" />
		<tag k="name" v="Bøastølen" />
		<tag k="place" v="locality" />
		<tag k="ssr:stedsnr" v="434931" />
	</node>
	<node id="-678548" lat="61.0324222243" lon="7.33970832444">
>>>>>>> e1d4bc35ff8a6074a6f2e91616a996b547c36f15
		<tag k="name" v="Storamyri" />
		<tag k="natural" v="wetland" />
		<tag k="ssr:stedsnr" v="956376" />
	</node>
<<<<<<< HEAD
	<node lat="61.088333337052354" lon="7.46916944154662" id="-46445">
		<tag k="name" v="Husakallmyri" />
		<tag k="natural" v="wetland" />
		<tag k="ssr:stedsnr" v="956496" />
	</node>
	<node lat="61.03777778192912" lon="7.619869442402708" id="-46449">
		<tag k="name" v="Rikheimslunden" />
=======
	<node id="-677005" lat="61.0937250037" lon="7.46799999792">
		<tag k="name" v="Smedteigen" />
		<tag k="place" v="locality" />
		<tag k="ssr:stedsnr" v="348408" />
	</node>
	<node id="-676998" lat="61.121555555" lon="7.38381388919">
		<tag k="name" v="Klovsteinen" />
		<tag k="natural" v="stone" />
		<tag k="ssr:stedsnr" v="313806" />
	</node>
	<node id="-677508" lat="61.0911388928" lon="7.0698166746">
		<tag k="name" v="Langamyrane" />
		<tag k="natural" v="wetland" />
		<tag k="ssr:stedsnr" v="956345" />
	</node>
	<node id="-677506" lat="61.0934305591" lon="7.05491110729">
		<tag k="name" v="Skrivarløypmyri" />
		<tag k="natural" v="wetland" />
		<tag k="ssr:stedsnr" v="956332" />
	</node>
	<node id="-677503" lat="61.1066055512" lon="7.32518889018">
		<tag k="name" v="Stølabøen" />
		<tag k="place" v="locality" />
		<tag k="ssr:stedsnr" v="956310" />
	</node>
	<node id="-676981" lat="61.166338885" lon="7.44548056031">
		<tag k="name" v="Muggeteigen" />
		<tag k="place" v="locality" />
		<tag k="ssr:stedsnr" v="471847" />
	</node>
	<node id="-676980" lat="61.0657749992" lon="7.83109721987">
		<tag k="name" v="Hedlestadhagen" />
		<tag k="place" v="locality" />
		<tag k="ssr:stedsnr" v="471845" />
	</node>
	<node id="-676977" lat="61.122077778" lon="7.32511111366">
		<tag k="name" v="Storuri" />
		<tag k="natural" v="scree" />
		<tag k="ssr:stedsnr" v="471812" />
	</node>
	<node id="-676974" lat="61.0452277752" lon="7.78994721964">
		<tag k="name" v="Bruvoll" />
>>>>>>> e1d4bc35ff8a6074a6f2e91616a996b547c36f15
		<tag k="place" v="locality" />
		<tag k="ssr:stedsnr" v="957121" />
	</node>
<<<<<<< HEAD
	<node lat="61.04327222086014" lon="7.6374083377068045" id="-46451">
		<tag k="name" v="Moane" />
		<tag k="place" v="locality" />
		<tag k="ssr:stedsnr" v="957136" />
	</node>
	<node lat="60.95694721823393" lon="7.684627768784801" id="-46454">
		<tag k="name" v="Skagsetmyri" />
		<tag k="natural" v="wetland" />
		<tag k="ssr:stedsnr" v="957570" />
=======
	<node id="-676970" lat="61.041769443" lon="7.51457777516">
		<tag k="name" v="Holkeperhagen" />
		<tag k="place" v="locality" />
		<tag k="ssr:stedsnr" v="471651" />
	</node>
	<node id="-676965" lat="60.9930388847" lon="7.68590832844">
		<tag k="name" v="Brenduri" />
		<tag k="natural" v="scree" />
		<tag k="ssr:stedsnr" v="471552" />
	</node>
	<node id="-678497" lat="61.0569777789" lon="7.53320556043">
		<tag k="name" v="Sanden" />
		<tag k="place" v="locality" />
		<tag k="ssr:stedsnr" v="836726" />
>>>>>>> e1d4bc35ff8a6074a6f2e91616a996b547c36f15
	</node>
	<node id="-676955" lat="61.0558083349" lon="7.96418332613">
		<tag k="name" v="Dalsgrandane" />
		<tag k="place" v="locality" />
		<tag k="ssr:stedsnr" v="471335" />
	</node>
	<node id="-676954" lat="61.0584000041" lon="7.66400833125">
		<tag k="name" v="Bakkeplassen" />
		<tag k="place" v="locality" />
		<tag k="ssr:stedsnr" v="471272" />
	</node>
	<node id="-677977" lat="61.0909416629" lon="7.45225832846">
		<tag k="name" v="Farmyri" />
		<tag k="natural" v="wetland" />
		<tag k="ssr:stedsnr" v="410382" />
	</node>
	<node id="-676949" lat="61.0630249986" lon="7.51221112041">
		<tag k="name" v="Kanten" />
		<tag k="place" v="locality" />
		<tag k="ssr:stedsnr" v="470502" />
	</node>
	<node id="-677452" lat="61.0276611151" lon="7.66195277937">
		<tag k="name" v="Dalsgjerdi" />
		<tag k="place" v="locality" />
		<tag k="ssr:stedsnr" v="836456" />
	</node>
	<node id="-677450" lat="61.0527305533" lon="7.56813332837">
		<tag k="name" v="Skorpene" />
		<tag k="place" v="locality" />
		<tag k="ssr:stedsnr" v="836067" />
	</node>
	<node id="-677443" lat="61.09319444" lon="7.46470555329">
		<tag k="name" v="Otteannauri" />
		<tag k="natural" v="scree" />
		<tag k="ssr:stedsnr" v="835457" />
	</node>
	<node id="-677439" lat="61.0439083308" lon="7.5874000076">
		<tag k="name" v="Tomarkateigen" />
		<tag k="place" v="locality" />
		<tag k="ssr:stedsnr" v="835115" />
	</node>
	<node id="-676925" lat="61.0320305524" lon="7.64351667038">
		<tag k="name" v="Monsuri" />
		<tag k="natural" v="scree" />
		<tag k="ssr:stedsnr" v="289558" />
	</node>
	<node id="-676911" lat="61.0469388866" lon="7.58867500838">
		<tag k="name" v="Dunvollen" />
		<tag k="place" v="locality" />
		<tag k="ssr:stedsnr" v="289105" />
	</node>
	<node id="-677420" lat="61.0823666661" lon="7.10281389811">
		<tag k="alt_name" v="Gutahjellmyri" />
		<tag k="name" v="Gutahjellsmyri" />
		<tag k="natural" v="wetland" />
		<tag k="ssr:stedsnr" v="798408" />
	</node>
	<node id="-678442" lat="61.0926812758" lon="7.88172502161">
		<tag k="name" v="Vettei" />
		<tag k="place" v="locality" />
		<tag k="ssr:stedsnr" v="798939" />
	</node>
	<node id="-678434" lat="61.0284138894" lon="7.50690832986">
		<tag k="name" v="Tynjauri" />
		<tag k="natural" v="scree" />
		<tag k="ssr:stedsnr" v="798778" />
	</node>
	<node id="-676894" lat="61.0944166698" lon="7.41484444471">
		<tag k="name" v="Diket" />
		<tag k="place" v="locality" />
		<tag k="ssr:stedsnr" v="228864" />
	</node>
	<node id="-678421" lat="60.960324996" lon="7.72785000225">
		<tag k="historic" v="shieling" />
		<tag k="name" v="Nystølen" />
		<tag k="place" v="locality" />
		<tag k="ssr:stedsnr" v="797679" />
	</node>
	<node id="-678406" lat="61.1210527792" lon="8.01543332566">
		<tag k="name" v="Råsdalsmyrane" />
		<tag k="natural" v="wetland" />
		<tag k="ssr:stedsnr" v="775437" />
	</node>
	<node id="-677893" lat="61.0487249981" lon="7.62970833599">
		<tag k="name" v="Åbryo" />
		<tag k="place" v="locality" />
		<tag k="ssr:stedsnr" v="350125" />
	</node>
</osm>
