<?xml version="1.0" encoding="UTF-8"?>
<<<<<<< HEAD
<osm version="0.6" generator="osmapis">
	<node lat="61.09986944354147" lon="8.081952780721554" id="-44559">
		<tag k="name" v="Oddedalen" />
		<tag k="place" v="isolated_dwelling" />
		<tag k="ssr:stedsnr" v="9953" />
	</node>
	<node lat="61.038419446439974" lon="8.008775008317986" id="-44564">
		<tag k="historic" v="shieling" />
		<tag k="name" v="Eråksstølen" />
		<tag k="place" v="isolated_dwelling" />
		<tag k="ssr:stedsnr" v="10503" />
	</node>
	<node lat="61.06315833478197" lon="7.726416660243761" id="-44566">
		<tag k="historic" v="shieling" />
		<tag k="name" v="Fureset" />
		<tag k="place" v="isolated_dwelling" />
		<tag k="ssr:stedsnr" v="10536" />
	</node>
	<node lat="61.10368270512015" lon="7.432748596509182" id="-44568">
		<tag k="name" v="Røyrnes" />
		<tag k="place" v="farm" />
		<tag k="ssr:stedsnr" v="10809" />
	</node>
	<node lat="61.091139695022534" lon="7.412265014453924" id="-44571">
		<tag k="fixme" v="consider place=hamlet" />
		<tag k="name" v="Tøri" />
		<tag k="place" v="farm" />
		<tag k="ssr:stedsnr" v="10786" />
	</node>
	<node lat="60.8951749986471" lon="7.720569438664794" id="-44572">
		<tag k="name" v="Kvevasshytta" />
		<tag k="place" v="isolated_dwelling" />
		<tag k="ssr:stedsnr" v="21148" />
	</node>
	<node lat="61.05469994414136" lon="7.679598854311089" id="-44573">
		<tag k="fixme" v="consider place=hamlet" />
		<tag k="name" v="Nordre Bjørkum" />
		<tag k="place" v="farm" />
		<tag k="ssr:stedsnr" v="21803" />
	</node>
	<node lat="61.04915277446662" lon="7.55597778323588" id="-44579">
		<tag k="name" v="Grøttebø" />
		<tag k="place" v="farm" />
		<tag k="ssr:stedsnr" v="46084" />
	</node>
	<node lat="60.92568055366023" lon="7.6829777858744155" id="-44593">
		<tag k="name" v="Hansehytta" />
		<tag k="place" v="locality" />
		<tag k="ssr:stedsnr" v="69388" />
	</node>
	<node lat="60.978925004201805" lon="7.531624997446299" id="-44595">
		<tag k="name" v="Skorstøl" />
		<tag k="place" v="locality" />
		<tag k="ssr:stedsnr" v="69514" />
	</node>
	<node lat="61.07753317382394" lon="7.042486388071835" id="-44602">
		<tag k="name" v="Buene" />
		<tag k="place" v="hamlet" />
		<tag k="ssr:stedsnr" v="70426" />
	</node>
	<node lat="61.07315021200225" lon="7.904561312045843" id="-44604">
		<tag k="fixme" v="consider place=hamlet" />
		<tag k="name" v="Teigum" />
		<tag k="place" v="farm" />
		<tag k="ssr:stedsnr" v="70510" />
	</node>
	<node lat="61.05256944002063" lon="7.641211108839156" id="-44606">
		<tag k="name" v="Sletten" />
		<tag k="place" v="farm" />
		<tag k="ssr:stedsnr" v="70804" />
	</node>
	<node lat="61.05026388520824" lon="7.826683337690961" id="-44617">
		<tag k="name" v="Dekkene" />
		<tag k="place" v="locality" />
		<tag k="ssr:stedsnr" v="71531" />
	</node>
	<node lat="61.01973333590532" lon="7.860077771605123" id="-44620">
		<tag k="historic" v="shieling" />
		<tag k="name" v="Skori" />
		<tag k="place" v="isolated_dwelling" />
		<tag k="ssr:stedsnr" v="71569" />
	</node>
	<node lat="61.06222500307133" lon="7.960727769116922" id="-44621">
		<tag k="alt_name" v="Bergstøl" />
		<tag k="historic" v="shieling" />
		<tag k="name" v="Bergstølen" />
		<tag k="place" v="isolated_dwelling" />
		<tag k="ssr:stedsnr" v="71590" />
	</node>
	<node lat="61.05402221820271" lon="7.627036118735545" id="-44622">
		<tag k="historic" v="shieling" />
		<tag k="name" v="Øyestølane" />
		<tag k="place" v="isolated_dwelling" />
		<tag k="ssr:stedsnr" v="71871" />
	</node>
	<node lat="61.02445278164941" lon="8.036022222448231" id="-44623">
		<tag k="fixme" v="consider tourism=alpine_hut or tourism=chalet" />
		<tag k="name" v="Breistølen Fjellstue" />
		<tag k="old_name" v="Breistølen" />
		<tag k="ssr:stedsnr" v="87121" />
		<tag k="tourism" v="wilderness_hut" />
	</node>
	<node lat="61.00926666598564" lon="7.689900001156662" id="-44636">
		<tag k="historic" v="shieling" />
		<tag k="loc_name" v="Kollesete" />
		<tag k="name" v="Kollesæte" />
		<tag k="place" v="isolated_dwelling" />
		<tag k="ssr:stedsnr" v="107675" />
	</node>
	<node lat="61.076891666295914" lon="7.850038880370001" id="-44643">
		<tag k="name" v="Flintegård" />
		<tag k="place" v="farm" />
		<tag k="ssr:stedsnr" v="108797" />
	</node>
	<node lat="61.11724943847375" lon="7.1694587291248455" id="-44649">
		<tag k="fixme" v="consider place=hamlet" />
		<tag k="name" v="Indre Frønningen" />
		<tag k="place" v="farm" />
		<tag k="ssr:stedsnr" v="251495" />
	</node>
	<node lat="61.07070193458817" lon="7.936195226492864" id="-44669">
		<tag k="fixme" v="consider place=hamlet" />
		<tag k="name" v="Eråk" />
		<tag k="place" v="farm" />
		<tag k="ssr:stedsnr" v="252490" />
	</node>
	<node lat="61.04523800421543" lon="7.7744221929286255" id="-44670">
		<tag k="fixme" v="consider place=hamlet" />
		<tag k="name" v="Nedre Kvame" />
		<tag k="place" v="farm" />
		<tag k="ssr:stedsnr" v="252502" />
	</node>
	<node lat="61.1104029542799" lon="7.069763961218671" id="-44678">
		<tag k="fixme" v="consider place=hamlet" />
		<tag k="name" v="Frønningen" />
		<tag k="place" v="farm" />
		<tag k="ssr:stedsnr" v="130427" />
	</node>
	<node lat="61.05219078585832" lon="7.701807570752577" id="-44680">
		<tag k="fixme" v="consider place=hamlet" />
		<tag k="name" v="Seltun" />
		<tag k="place" v="farm" />
		<tag k="ssr:stedsnr" v="130809" />
	</node>
	<node lat="61.11938332942657" lon="8.039644445755675" id="-44683">
		<tag k="historic" v="shieling" />
		<tag k="name" v="Stovestølen" />
		<tag k="place" v="isolated_dwelling" />
		<tag k="ssr:stedsnr" v="130972" />
	</node>
	<node lat="61.07104999938983" lon="7.734636119744594" id="-44689">
		<tag k="alt_name" v="Ljøsndalen, heimre" />
		<tag k="name" v="Heimre Ljøsndalen" />
		<tag k="place" v="isolated_dwelling" />
		<tag k="ssr:stedsnr" v="131509" />
	</node>
	<node lat="61.06075063258708" lon="7.728374034263199" id="-44690">
		<tag k="fixme" v="consider place=hamlet" />
		<tag k="name" v="Galdane" />
		<tag k="place" v="farm" />
		<tag k="ssr:stedsnr" v="131522" />
	</node>
	<node lat="61.09574506125914" lon="7.524447028910957" id="-44692">
		<tag k="fixme" v="consider place=hamlet" />
		<tag k="name" v="Hunderi" />
		<tag k="place" v="farm" />
		<tag k="ssr:stedsnr" v="131812" />
	</node>
	<node lat="61.106999998271455" lon="7.859869447912071" id="-44707">
		<tag k="name" v="Igdeset" />
		<tag k="place" v="locality" />
		<tag k="ssr:stedsnr" v="252956" />
	</node>
	<node lat="61.04520833086082" lon="8.005763884578407" id="-44710">
		<tag k="name" v="Listølen" />
		<tag k="place" v="locality" />
		<tag k="ssr:stedsnr" v="253536" />
	</node>
	<node lat="61.033555554770416" lon="7.774450004152178" id="-44711">
		<tag k="historic" v="shieling" />
		<tag k="name" v="Reset" />
		<tag k="place" v="isolated_dwelling" />
		<tag k="ssr:stedsnr" v="253540" />
	</node>
	<node lat="61.105610327255306" lon="7.511194660697206" id="-44715">
		<tag k="fixme" v="consider place=hamlet" />
		<tag k="name" v="Øye" />
		<tag k="place" v="farm" />
		<tag k="ssr:stedsnr" v="253817" />
	</node>
	<node lat="61.09098333608174" lon="7.308822213043764" id="-44719">
		<tag k="historic" v="shieling" />
		<tag k="name" v="Li" />
		<tag k="place" v="isolated_dwelling" />
		<tag k="ssr:stedsnr" v="143881" />
	</node>
	<node lat="61.04593333002679" lon="7.75392222668058" id="-44732">
		<tag k="name" v="Ytre Haugen" />
		<tag k="place" v="locality" />
		<tag k="ssr:stedsnr" v="167760" />
	</node>
	<node lat="61.07994166498757" lon="7.845533336709731" id="-44743">
		<tag k="name" v="Hjelle" />
		<tag k="place" v="farm" />
		<tag k="ssr:stedsnr" v="169814" />
	</node>
	<node lat="61.077194441624336" lon="7.837219449613889" id="-44745">
		<tag k="name" v="Nesheim" />
		<tag k="place" v="farm" />
		<tag k="ssr:stedsnr" v="169824" />
	</node>
	<node lat="60.953586113041816" lon="7.770775003865441" id="-44748">
		<tag k="name" v="Nilsehytta" />
		<tag k="place" v="isolated_dwelling" />
		<tag k="ssr:stedsnr" v="263087" />
	</node>
	<node lat="61.058430551668565" lon="7.713280554708751" id="-44757">
		<tag k="name" v="Dragesete" />
		<tag k="place" v="locality" />
		<tag k="ssr:stedsnr" v="191809" />
	</node>
	<node lat="61.020600002420224" lon="7.59198610617608" id="-44764">
		<tag k="name" v="Bøahytta" />
		<tag k="place" v="isolated_dwelling" />
		<tag k="ssr:stedsnr" v="204795" />
	</node>
	<node lat="61.04544999825341" lon="7.582944442858898" id="-44771">
		<tag k="barrier" v="fence" />
		<tag k="name" v="Sandgjerdet" />
		<tag k="ssr:stedsnr" v="228100" />
	</node>
	<node lat="61.086747443901956" lon="7.8603269794937916" id="-44789">
		<tag k="fixme" v="consider place=hamlet" />
		<tag k="name" v="Hovland" />
		<tag k="place" v="farm" />
		<tag k="ssr:stedsnr" v="252930" />
	</node>
	<node lat="61.15273888836168" lon="7.414813887046773" id="-44793">
		<tag k="name" v="Sandnes" />
		<tag k="place" v="farm" />
		<tag k="ssr:stedsnr" v="253314" />
	</node>
	<node lat="61.15581570947527" lon="7.438396093219397" id="-44794">
		<tag k="name" v="Skori" />
		<tag k="place" v="farm" />
		<tag k="ssr:stedsnr" v="253320" />
	</node>
	<node lat="61.056024997688105" lon="7.751766662135605" id="-44801">
		<tag k="historic" v="shieling" />
		<tag k="name" v="Skori" />
		<tag k="place" v="isolated_dwelling" />
		<tag k="ssr:stedsnr" v="264346" />
	</node>
	<node lat="61.0235055537068" lon="8.019880549963291" id="-44815">
		<tag k="name" v="Øystølane" />
		<tag k="place" v="locality" />
		<tag k="ssr:stedsnr" v="289330" />
	</node>
	<node lat="61.052275004161764" lon="7.528275000092223" id="-44823">
		<tag k="name" v="Haugo" />
		<tag k="place" v="farm" />
		<tag k="ssr:stedsnr" v="289710" />
	</node>
	<node lat="61.0364500026667" lon="7.302469451218695" id="-44828">
		<tag k="historic" v="shieling" />
		<tag k="name" v="Vardahaug" />
		<tag k="place" v="isolated_dwelling" />
		<tag k="ssr:stedsnr" v="289888" />
	</node>
	<node lat="61.03932959190822" lon="7.811438242875173" id="-44841">
		<tag k="alt_name" v="Trove" />
		<tag k="name" v="Tråo" />
		<tag k="place" v="hamlet" />
		<tag k="ssr:stedsnr" v="313508" />
	</node>
	<node lat="61.01986111109345" lon="8.036494445181631" id="-44842">
		<tag k="historic" v="shieling" />
		<tag k="name" v="Stardalen" />
		<tag k="place" v="isolated_dwelling" />
		<tag k="ssr:stedsnr" v="313521" />
	</node>
	<node lat="61.08642778011277" lon="7.988858332213935" id="-44843">
		<tag k="name" v="Kleivi" />
		<tag k="place" v="locality" />
		<tag k="ssr:stedsnr" v="313525" />
	</node>
	<node lat="61.14664295375366" lon="7.374957159730515" id="-44844">
		<tag k="fixme" v="consider place=hamlet" />
		<tag k="name" v="Fodnes" />
		<tag k="place" v="farm" />
		<tag k="ssr:stedsnr" v="313274" />
	</node>
	<node lat="61.016186109919175" lon="7.598363890444676" id="-44853">
		<tag k="historic" v="shieling" />
		<tag k="name" v="Senddalen" />
		<tag k="place" v="isolated_dwelling" />
		<tag k="ssr:stedsnr" v="313936" />
	</node>
	<node lat="61.10573055750752" lon="7.5665861077491385" id="-44856">
		<tag k="alt_name" v="Oftedalsstølen, nedre;Oftedalen" />
		<tag k="historic" v="shieling" />
		<tag k="name" v="Nedre Oftedalsstølen" />
		<tag k="place" v="isolated_dwelling" />
		<tag k="ssr:stedsnr" v="314804" />
	</node>
	<node lat="61.04999999575544" lon="7.590352783166705" id="-44857">
		<tag k="name" v="Ljøsne" />
		<tag k="place" v="hamlet" />
		<tag k="ssr:stedsnr" v="324824" />
	</node>
	<node lat="61.03963129779452" lon="7.622172948837854" id="-44888">
		<tag k="fixme" v="consider place=hamlet" />
		<tag k="name" v="Rikheim" />
		<tag k="place" v="farm" />
		<tag k="ssr:stedsnr" v="494789" />
	</node>
	<node lat="61.09498055679761" lon="7.10147222235425" id="-44893">
		<tag k="name" v="Kilen" />
		<tag k="place" v="locality" />
		<tag k="ssr:stedsnr" v="349315" />
	</node>
	<node lat="61.04606666765233" lon="7.768472224835689" id="-44898">
		<tag k="name" v="Haugen" />
		<tag k="place" v="farm" />
		<tag k="ssr:stedsnr" v="349776" />
	</node>
	<node lat="61.080313891827615" lon="7.8981083335271824" id="-44913">
		<tag k="name" v="Hegg" />
		<tag k="place" v="farm" />
		<tag k="ssr:stedsnr" v="373947" />
	</node>
	<node lat="61.14418332945655" lon="8.013836118623084" id="-44916">
		<tag k="historic" v="shieling" />
		<tag k="name" v="Brusestølen" />
		<tag k="place" v="isolated_dwelling" />
		<tag k="ssr:stedsnr" v="373997" />
	</node>
	<node lat="61.17057239519158" lon="7.4477067440095555" id="-44918">
		<tag k="name" v="Luggenes" />
		<tag k="place" v="farm" />
		<tag k="ssr:stedsnr" v="374288" />
	</node>
	<node lat="61.03745277923277" lon="7.788333329300479" id="-44919">
		<tag k="name" v="Morki" />
		<tag k="place" v="isolated_dwelling" />
		<tag k="ssr:stedsnr" v="374496" />
	</node>
	<node lat="61.08281666826191" lon="7.399127777301469" id="-44930">
		<tag k="name" v="Grindheim" />
		<tag k="place" v="farm" />
		<tag k="ssr:stedsnr" v="410843" />
	</node>
	<node lat="61.07418889196026" lon="7.916230560096433" id="-44933">
		<tag k="name" v="Soleistølane" />
		<tag k="place" v="locality" />
		<tag k="ssr:stedsnr" v="411253" />
	</node>
	<node lat="61.08027777722432" lon="7.9844055604371285" id="-44934">
		<tag k="name" v="Vetleøyni" />
		<tag k="place" v="locality" />
		<tag k="ssr:stedsnr" v="411402" />
	</node>
	<node lat="61.051077775317914" lon="7.534016659236482" id="-44941">
		<tag k="name" v="Bruvoll" />
		<tag k="place" v="farm" />
		<tag k="ssr:stedsnr" v="411717" />
	</node>
	<node lat="61.13243611319213" lon="8.015097222678685" id="-44942">
		<tag k="name" v="Torvmo" />
		<tag k="place" v="locality" />
		<tag k="ssr:stedsnr" v="412000" />
	</node>
	<node lat="61.10211111334446" lon="7.422494438075389" id="-44943">
		<tag k="name" v="Viki" />
		<tag k="place" v="isolated_dwelling" />
		<tag k="ssr:stedsnr" v="419815" />
	</node>
	<node lat="61.07288009818412" lon="7.82820922814989" id="-44953">
		<tag k="fixme" v="consider place=hamlet" />
		<tag k="name" v="Horge" />
		<tag k="place" v="farm" />
		<tag k="ssr:stedsnr" v="434500" />
	</node>
	<node lat="61.173424199905995" lon="8.018920237597516" id="-44954">
		<tag k="historic" v="shieling" />
		<tag k="name" v="Osen" />
		<tag k="place" v="isolated_dwelling" />
		<tag k="ssr:stedsnr" v="434866" />
	</node>
	<node lat="61.14602499645005" lon="7.408405557164279" id="-44960">
		<tag k="name" v="Dokki" />
		<tag k="place" v="locality" />
		<tag k="ssr:stedsnr" v="435303" />
	</node>
	<node lat="61.075163884623414" lon="7.390002786103242" id="-44963">
		<tag k="historic" v="shieling" />
		<tag k="name" v="Hestevollen" />
		<tag k="place" v="isolated_dwelling" />
		<tag k="ssr:stedsnr" v="435771" />
	</node>
	<node lat="61.05396111423052" lon="7.555666675161037" id="-44965">
		<tag k="name" v="Øygard" />
		<tag k="place" v="farm" />
		<tag k="ssr:stedsnr" v="435865" />
	</node>
	<node lat="61.06895851199746" lon="7.499419354228731" id="-44968">
		<tag k="alt_name" v="Eri, øvre" />
		<tag k="fixme" v="consider place=hamlet" />
		<tag k="name" v="Øvre Eri" />
		<tag k="place" v="farm" />
		<tag k="ssr:stedsnr" v="435871" />
	</node>
	<node lat="61.08156636361296" lon="7.51125269757535" id="-44969">
		<tag k="alt_name" v="Eri, nedre" />
		<tag k="fixme" v="consider place=hamlet" />
		<tag k="name" v="Nedre Eri" />
		<tag k="place" v="farm" />
		<tag k="ssr:stedsnr" v="435872" />
	</node>
	<node lat="61.05400000271755" lon="7.643663896871668" id="-44971">
		<tag k="name" v="Stuvane" />
		<tag k="place" v="farm" />
		<tag k="ssr:stedsnr" v="435875" />
	</node>
	<node lat="61.05736377996544" lon="7.661766673403514" id="-44981">
		<tag k="fixme" v="consider place=hamlet" />
		<tag k="name" v="Hønjum" />
		<tag k="place" v="farm" />
		<tag k="ssr:stedsnr" v="494830" />
	</node>
	<node lat="61.02189999802194" lon="8.120880560282647" id="-44983">
		<tag k="name" v="Ulvehaugen" />
		<tag k="place" v="isolated_dwelling" />
		<tag k="ssr:stedsnr" v="674649" />
	</node>
	<node lat="61.069441668237744" lon="7.509352781988503" id="-44996">
		<tag k="name" v="Moldebo" />
		<tag k="place" v="farm" />
		<tag k="ssr:stedsnr" v="470526" />
	</node>
	<node lat="61.04223055947052" lon="7.61976944425715" id="-44998">
		<tag k="name" v="Nygard" />
		<tag k="place" v="farm" />
		<tag k="ssr:stedsnr" v="471111" />
	</node>
	<node lat="61.11551666760524" lon="7.330580554467384" id="-45009">
		<tag k="name" v="Oldrebø" />
		<tag k="place" v="farm" />
		<tag k="ssr:stedsnr" v="676460" />
	</node>
	<node lat="61.069243307434284" lon="7.914848999320107" id="-45018">
		<tag k="fixme" v="consider place=hamlet" />
		<tag k="name" v="Kvenshagen" />
		<tag k="place" v="farm" />
		<tag k="ssr:stedsnr" v="677523" />
	</node>
	<node lat="61.057817607258194" lon="7.812456628044072" id="-45020">
		<tag k="fixme" v="consider place=hamlet" />
		<tag k="name" v="Li" />
=======
<osm generator="osmapis" version="0.6">
	<node id="-677884" lat="61.0460666677" lon="7.76847222484">
		<tag k="name" v="Haugen" />
		<tag k="place" v="farm" />
		<tag k="ssr:stedsnr" v="349776" />
	</node>
	<node id="-677876" lat="61.1168583347" lon="7.33225555024">
		<tag k="name" v="Sva" />
		<tag k="place" v="farm" />
		<tag k="ssr:stedsnr" v="349381" />
	</node>
	<node id="-677867" lat="61.146491664" lon="7.410619438">
		<tag k="name" v="Vetlevårstølen" />
		<tag k="place" v="locality" />
		<tag k="ssr:stedsnr" v="349288" />
	</node>
	<node id="-677861" lat="61.0499999958" lon="7.59035278317">
		<tag k="name" v="Ljøsne" />
		<tag k="place" v="hamlet" />
		<tag k="ssr:stedsnr" v="324824" />
	</node>
	<node id="-677860" lat="60.9279833378" lon="7.86069999778">
		<tag k="name" v="Bukkesteinshytta" />
		<tag k="place" v="isolated_dwelling" />
		<tag k="ssr:stedsnr" v="324015" />
	</node>
	<node id="-677851" lat="61.0161861099" lon="7.59836389044">
		<tag k="historic" v="shieling" />
		<tag k="name" v="Senddalen" />
		<tag k="place" v="locality" />
		<tag k="ssr:stedsnr" v="313936" />
	</node>
	<node id="-677848" lat="61.0459989019" lon="7.63286171583">
		<tag k="building" v="industrial" />
		<tag k="name" v="Saltkjelen" />
		<tag k="ssr:stedsnr" v="313879" />
	</node>
	<node id="-677846" lat="61.0885322079" lon="7.40880251925">
		<tag k="alt_name" v="Sæl" />
		<tag k="fixme" v="consider place=hamlet" />
		<tag k="name" v="Sel" />
		<tag k="place" v="farm" />
		<tag k="ssr:stedsnr" v="313794" />
	</node>
	<node id="-677845" lat="61.0791500038" lon="7.39860278452">
		<tag k="historic" v="shieling" />
		<tag k="name" v="Mork" />
		<tag k="place" v="locality" />
		<tag k="ssr:stedsnr" v="313784" />
	</node>
	<node id="-677840" lat="61.0621111134" lon="7.84236667243">
		<tag k="name" v="Røsli" />
		<tag k="place" v="isolated_dwelling" />
		<tag k="ssr:stedsnr" v="313543" />
	</node>
	<node id="-677839" lat="61.0712888867" lon="7.83415555669">
		<tag k="name" v="Fjellstad" />
		<tag k="place" v="farm" />
		<tag k="ssr:stedsnr" v="313529" />
	</node>
	<node id="-677833" lat="61.120247225" lon="7.32981111617">
		<tag k="name" v="Teigen" />
		<tag k="place" v="farm" />
		<tag k="ssr:stedsnr" v="312450" />
	</node>
	<node id="-677829" lat="60.9277694407" lon="7.59726666817">
		<tag k="name" v="Perbakk" />
		<tag k="place" v="locality" />
		<tag k="ssr:stedsnr" v="312359" />
	</node>
	<node id="-677822" lat="61.0206000024" lon="7.59198610618">
		<tag k="name" v="Bøahytta" />
		<tag k="place" v="isolated_dwelling" />
		<tag k="ssr:stedsnr" v="204795" />
	</node>
	<node id="-677816" lat="61.0488611612" lon="7.60287908835">
		<tag k="fixme" v="consider place=hamlet" />
		<tag k="name" v="Midt-Ljøsne" />
		<tag k="place" v="farm" />
		<tag k="ssr:stedsnr" v="192885" />
	</node>
	<node id="-677815" lat="61.0564241039" lon="7.51752798505">
		<tag k="fixme" v="consider place=hamlet" />
		<tag k="name" v="Øvregard" />
		<tag k="place" v="farm" />
		<tag k="ssr:stedsnr" v="192877" />
	</node>
	<node id="-677814" lat="61.0751527783" lon="7.67129166447">
		<tag k="historic" v="shieling" />
		<tag k="name" v="Horndal" />
		<tag k="place" v="locality" />
		<tag k="ssr:stedsnr" v="192861" />
	</node>
	<node id="-677809" lat="61.0420416656" lon="7.81887499862">
		<tag k="name" v="Kallevang" />
		<tag k="place" v="locality" />
		<tag k="ssr:stedsnr" v="192582" />
	</node>
	<node id="-677807" lat="61.0504166632" lon="7.75263055579">
		<tag k="alt_name" v="Hegg, nedre" />
		<tag k="name" v="Nedre Hegg" />
		<tag k="place" v="farm" />
		<tag k="ssr:stedsnr" v="192575" />
	</node>
	<node id="-677803" lat="61.0563750004" lon="7.96090555">
		<tag k="historic" v="shieling" />
		<tag k="name" v="Eråksdalen" />
		<tag k="place" v="locality" />
		<tag k="ssr:stedsnr" v="192538" />
	</node>
	<node id="-677789" lat="61.0504583344" lon="7.54973055715">
		<tag k="name" v="Grøte" />
		<tag k="place" v="farm" />
		<tag k="ssr:stedsnr" v="191785" />
	</node>
	<node id="-677788" lat="61.0192555544" lon="7.49863610481">
		<tag k="name" v="Grøtadalen" />
		<tag k="place" v="locality" />
		<tag k="ssr:stedsnr" v="191784" />
	</node>
	<node id="-677774" lat="61.0771944416" lon="7.83721944961">
		<tag k="name" v="Nesheim" />
		<tag k="place" v="farm" />
		<tag k="ssr:stedsnr" v="169824" />
	</node>
	<node id="-677772" lat="61.079941665" lon="7.84553333671">
		<tag k="name" v="Hjelle" />
		<tag k="place" v="farm" />
		<tag k="ssr:stedsnr" v="169814" />
	</node>
	<node id="-677769" lat="61.0565999964" lon="7.52488888257">
		<tag k="name" v="Vollheim" />
		<tag k="place" v="farm" />
		<tag k="ssr:stedsnr" v="168733" />
	</node>
	<node id="-677758" lat="61.0540333352" lon="7.74238055406">
		<tag k="name" v="Steine" />
		<tag k="place" v="locality" />
		<tag k="ssr:stedsnr" v="167747" />
	</node>
	<node id="-677756" lat="61.04593333" lon="7.75392222668">
		<tag k="name" v="Ytre Haugen" />
		<tag k="place" v="locality" />
		<tag k="ssr:stedsnr" v="167760" />
	</node>
	<node id="-677741" lat="61.0909833361" lon="7.30882221304">
		<tag k="historic" v="shieling" />
		<tag k="name" v="Li" />
		<tag k="place" v="locality" />
		<tag k="ssr:stedsnr" v="143881" />
	</node>
	<node id="-677736" lat="60.9002277812" lon="7.72209999192">
		<tag k="name" v="Eivindbu" />
		<tag k="place" v="isolated_dwelling" />
		<tag k="ssr:stedsnr" v="142078" />
	</node>
	<node id="-677735" lat="60.9333250015" lon="7.76445277282">
		<tag k="name" v="Erakerhytta" />
		<tag k="place" v="isolated_dwelling" />
		<tag k="ssr:stedsnr" v="142076" />
	</node>
	<node id="-677731" lat="61.0790500001" lon="7.54988610862">
		<tag k="historic" v="shieling" />
		<tag k="name" v="Freibotnen" />
		<tag k="place" v="locality" />
		<tag k="ssr:stedsnr" v="131853" />
	</node>
	<node id="-677730" lat="61.1076777727" lon="7.50169160448">
		<tag k="alt_name" v="Stødnum" />
		<tag k="fixme" v="consider place=hamlet" />
		<tag k="name" v="Stødno" />
		<tag k="place" v="farm" />
		<tag k="ssr:stedsnr" v="131833" />
	</node>
	<node id="-677728" lat="61.0892500041" lon="7.40984999927">
		<tag k="name" v="Brattli" />
		<tag k="place" v="farm" />
		<tag k="ssr:stedsnr" v="131791" />
	</node>
	<node id="-677713" lat="61.1193833294" lon="8.03964444576">
		<tag k="historic" v="shieling" />
		<tag k="name" v="Stovestølen" />
		<tag k="place" v="locality" />
		<tag k="ssr:stedsnr" v="130972" />
	</node>
	<node id="-677706" lat="61.0948694406" lon="7.87692777656">
		<tag k="name" v="Solum" />
		<tag k="place" v="farm" />
		<tag k="ssr:stedsnr" v="130958" />
	</node>
	<node id="-677700" lat="61.1104029543" lon="7.06976396122">
		<tag k="fixme" v="consider place=hamlet" />
		<tag k="name" v="Frønningen" />
		<tag k="place" v="farm" />
		<tag k="ssr:stedsnr" v="130427" />
	</node>
	<node id="-677683" lat="61.0768916663" lon="7.85003888037">
		<tag k="name" v="Flintegård" />
		<tag k="place" v="farm" />
		<tag k="ssr:stedsnr" v="108797" />
	</node>
	<node id="-677681" lat="61.0506861144" lon="7.81111388637">
		<tag k="name" v="Bakken" />
		<tag k="place" v="farm" />
		<tag k="ssr:stedsnr" v="107933" />
	</node>
	<node id="-677677" lat="61.0867055568" lon="7.8885833277">
		<tag k="name" v="Lunde" />
		<tag k="place" v="farm" />
		<tag k="ssr:stedsnr" v="107786" />
	</node>
	<node id="-677664" lat="61.009266666" lon="7.68990000116">
		<tag k="historic" v="shieling" />
		<tag k="loc_name" v="Kollesete" />
		<tag k="name" v="Kollesæte" />
		<tag k="place" v="locality" />
		<tag k="ssr:stedsnr" v="107675" />
	</node>
	<node id="-677639" lat="61.0399527806" lon="7.60772222658">
		<tag k="barrier" v="fence" />
		<tag k="name" v="Ingridgjerdet" />
		<tag k="ssr:stedsnr" v="105049" />
	</node>
	<node id="-677636" lat="61.0540222182" lon="7.62703611874">
		<tag k="historic" v="shieling" />
		<tag k="name" v="Øyestølane" />
		<tag k="place" v="locality" />
		<tag k="ssr:stedsnr" v="71871" />
	</node>
	<node id="-677633" lat="61.0605861077" lon="7.68755554782">
		<tag k="historic" v="shieling" />
		<tag k="name" v="Nedre Seltastølen" />
		<tag k="place" v="locality" />
		<tag k="ssr:stedsnr" v="71846" />
	</node>
	<node id="-677630" lat="61.0493919826" lon="7.75709717465">
		<tag k="alt_name" v="Øygarden, nedre" />
		<tag k="fixme" v="consider place=hamlet" />
		<tag k="name" v="Nedre Øygarden" />
		<tag k="place" v="farm" />
		<tag k="ssr:stedsnr" v="71595" />
	</node>
	<node id="-677627" lat="61.0622250031" lon="7.96072776912">
		<tag k="alt_name" v="Bergstøl" />
		<tag k="historic" v="shieling" />
		<tag k="name" v="Bergstølen" />
		<tag k="place" v="locality" />
		<tag k="ssr:stedsnr" v="71590" />
	</node>
	<node id="-677626" lat="61.0197333359" lon="7.86007777161">
		<tag k="historic" v="shieling" />
		<tag k="name" v="Skori" />
		<tag k="place" v="locality" />
		<tag k="ssr:stedsnr" v="71569" />
	</node>
	<node id="-677620" lat="61.0948611087" lon="7.87381111514">
		<tag k="alt_name" v="Nedre Sprakehaug" />
		<tag k="name" v="Sprakehaugen" />
		<tag k="place" v="farm" />
		<tag k="ssr:stedsnr" v="70959" />
	</node>
	<node id="-677615" lat="61.1640666708" lon="8.0017888805">
		<tag k="name" v="Sluten" />
		<tag k="place" v="isolated_dwelling" />
		<tag k="ssr:stedsnr" v="70851" />
	</node>
	<node id="-677612" lat="61.1127388901" lon="7.32586666254">
		<tag k="name" v="Åreflaten" />
		<tag k="place" v="locality" />
		<tag k="ssr:stedsnr" v="70454" />
	</node>
	<node id="-677611" lat="61.1077888891" lon="7.32280555277">
		<tag k="historic" v="shieling" />
		<tag k="name" v="Vårstølen" />
		<tag k="place" v="locality" />
		<tag k="ssr:stedsnr" v="70452" />
	</node>
	<node id="-677610" lat="61.0992828107" lon="7.0781516991">
		<tag k="fixme" v="consider place=hamlet" />
		<tag k="name" v="Nyborg" />
		<tag k="place" v="farm" />
		<tag k="ssr:stedsnr" v="70447" />
	</node>
	<node id="-677609" lat="61.0965075146" lon="7.07347221491">
		<tag k="fixme" v="consider place=hamlet" />
		<tag k="name" v="Stølen" />
		<tag k="place" v="farm" />
		<tag k="ssr:stedsnr" v="70445" />
	</node>
	<node id="-677607" lat="61.0775331738" lon="7.04248638807">
		<tag k="name" v="Buene" />
		<tag k="place" v="hamlet" />
		<tag k="ssr:stedsnr" v="70426" />
	</node>
	<node id="-677600" lat="60.9256805537" lon="7.68297778587">
		<tag k="name" v="Hansehytta" />
		<tag k="place" v="locality" />
		<tag k="ssr:stedsnr" v="69388" />
	</node>
	<node id="-677592" lat="61.049141666" lon="7.54012500769">
		<tag k="name" v="Lund" />
		<tag k="place" v="farm" />
		<tag k="ssr:stedsnr" v="47733" />
	</node>
	<node id="-677570" lat="61.0491527745" lon="7.55597778324">
		<tag k="name" v="Grøttebø" />
		<tag k="place" v="farm" />
		<tag k="ssr:stedsnr" v="46084" />
	</node>
	<node id="-677558" lat="61.0534510064" lon="7.5715380265">
		<tag k="fixme" v="consider place=hamlet" />
		<tag k="name" v="Nedre Ljøsne" />
		<tag k="place" v="farm" />
		<tag k="ssr:stedsnr" v="10868" />
	</node>
	<node id="-677557" lat="61.0752286749" lon="7.51486126245">
		<tag k="fixme" v="consider place=hamlet" />
		<tag k="name" v="Færestad" />
		<tag k="place" v="farm" />
		<tag k="ssr:stedsnr" v="10798" />
	</node>
	<node id="-677555" lat="61.091139695" lon="7.41226501445">
		<tag k="fixme" v="consider place=hamlet" />
		<tag k="name" v="Tøri" />
		<tag k="place" v="farm" />
		<tag k="ssr:stedsnr" v="10786" />
	</node>
	<node id="-677540" lat="61.0998694435" lon="8.08195278072">
		<tag k="name" v="Oddedalen" />
		<tag k="place" v="isolated_dwelling" />
		<tag k="ssr:stedsnr" v="9953" />
	</node>
	<node id="-677536" lat="60.9951750011" lon="7.68590833427">
		<tag k="name" v="Nysætri" />
		<tag k="place" v="locality" />
		<tag k="ssr:stedsnr" v="9488" />
	</node>
	<node id="-677512" lat="61.0222419897" lon="8.04158007491">
		<tag k="fixme" v="consider tourism=alpine_hut or tourism=chalet" />
		<tag k="name" v="Skarvheim" />
		<tag k="old_name" v="Breistølbu" />
		<tag k="ssr:stedsnr" v="979886" />
		<tag k="tourism" v="wilderness_hut" />
	</node>
	<node id="-677497" lat="61.0460819292" lon="7.58038724468">
		<tag k="alt_name" v="Øvre Bø" />
		<tag k="name" v="Øvstabø" />
		<tag k="place" v="farm" />
		<tag k="ssr:stedsnr" v="919806" />
	</node>
	<node id="-677492" lat="61.0958416159" lon="7.11863540408">
		<tag k="alt_name" v="Lagmannsås" />
		<tag k="fixme" v="consider place=hamlet" />
		<tag k="name" v="Åsen" />
		<tag k="place" v="farm" />
		<tag k="ssr:stedsnr" v="919457" />
	</node>
	<node id="-677491" lat="61.0362527753" lon="7.30257221603">
		<tag k="historic" v="shieling" />
		<tag k="name" v="Vardahaug" />
		<tag k="place" v="locality" />
		<tag k="ssr:stedsnr" v="919411" />
	</node>
	<node id="-677490" lat="60.9223750027" lon="7.68289444186">
		<tag k="name" v="Bettebu" />
		<tag k="place" v="locality" />
		<tag k="ssr:stedsnr" v="919367" />
	</node>
	<node id="-677475" lat="61.0505096894" lon="7.52830728105">
		<tag k="fixme" v="consider place=hamlet" />
		<tag k="name" v="Øvrevoll" />
		<tag k="place" v="farm" />
		<tag k="ssr:stedsnr" v="860868" />
	</node>
	<node id="-677466" lat="61.1054249986" lon="7.44841110414">
		<tag k="name" v="Fleskheller" />
		<tag k="place" v="farm" />
		<tag k="ssr:stedsnr" v="859772" />
	</node>
	<node id="-677465" lat="61.0956055573" lon="7.41623055972">
		<tag k="name" v="Hjellen" />
		<tag k="place" v="farm" />
		<tag k="ssr:stedsnr" v="859753" />
	</node>
	<node id="-677464" lat="61.0719694182" lon="7.91095323868">
		<tag k="name" v="Brøyni" />
		<tag k="place" v="isolated_dwelling" />
		<tag k="ssr:stedsnr" v="859510" />
	</node>
	<node id="-677461" lat="60.9269777735" lon="7.99816389061">
		<tag k="fixme" v="consider tourism=alpine_hut or tourism=chalet" />
		<tag k="name" v="Bjordalsbu" />
		<tag k="ssr:stedsnr" v="858710" />
		<tag k="tourism" v="wilderness_hut" />
	</node>
	<node id="-677456" lat="60.9440055514" lon="7.59387499647">
		<tag k="name" v="Steinsengi" />
		<tag k="place" v="locality" />
		<tag k="ssr:stedsnr" v="858410" />
	</node>
	<node id="-677455" lat="61.0358916689" lon="7.63977500408">
		<tag k="name" v="Mo" />
>>>>>>> e1d4bc35ff8a6074a6f2e91616a996b547c36f15
		<tag k="place" v="farm" />
		<tag k="ssr:stedsnr" v="857469" />
	</node>
<<<<<<< HEAD
	<node lat="61.08503333739048" lon="7.88997499660413" id="-45022">
		<tag k="name" v="Oddheim" />
		<tag k="place" v="farm" />
		<tag k="ssr:stedsnr" v="677953" />
	</node>
	<node lat="61.076700001502225" lon="7.849966665688588" id="-45023">
		<tag k="name" v="Hillestad" />
		<tag k="place" v="farm" />
		<tag k="ssr:stedsnr" v="677954" />
	</node>
	<node lat="61.085074149310415" lon="7.858713036480117" id="-45025">
		<tag k="fixme" v="consider place=hamlet" />
		<tag k="name" v="Eggjo" />
		<tag k="place" v="farm" />
		<tag k="ssr:stedsnr" v="677962" />
	</node>
	<node lat="61.05487870178808" lon="7.525012657655587" id="-45031">
		<tag k="fixme" v="consider place=hamlet" />
		<tag k="name" v="Tønjum" />
		<tag k="place" v="farm" />
		<tag k="ssr:stedsnr" v="678834" />
	</node>
	<node lat="61.050238888291744" lon="7.575202785900384" id="-45032">
		<tag k="name" v="Bøtun" />
		<tag k="place" v="farm" />
		<tag k="ssr:stedsnr" v="678842" />
	</node>
	<node lat="61.12712819789716" lon="7.525866310785318" id="-45037">
		<tag k="alt_name" v="Berdalslii" />
		<tag k="historic" v="shieling" />
		<tag k="name" v="Berdalen" />
		<tag k="place" v="isolated_dwelling" />
		<tag k="ssr:stedsnr" v="495272" />
	</node>
	<node lat="61.17673757706017" lon="7.458658506839223" id="-45038">
		<tag k="fixme" v="consider place=hamlet" />
		<tag k="name" v="Bermål" />
		<tag k="place" v="farm" />
		<tag k="ssr:stedsnr" v="495276" />
	</node>
	<node lat="61.02867778105706" lon="7.838288883373928" id="-45041">
		<tag k="historic" v="shieling" />
		<tag k="name" v="Brattegaldane" />
		<tag k="place" v="isolated_dwelling" />
		<tag k="ssr:stedsnr" v="495505" />
	</node>
	<node lat="61.075091664842304" lon="7.500166662710404" id="-45046">
		<tag k="alt_name" v="Eri, nedre" />
		<tag k="name" v="Nedre Eri" />
		<tag k="place" v="farm" />
		<tag k="ssr:stedsnr" v="495864" />
	</node>
	<node lat="61.10470555783028" lon="8.018258333863013" id="-45050">
		<tag k="historic" v="shieling" />
		<tag k="name" v="Honingane" />
		<tag k="place" v="isolated_dwelling" />
		<tag k="ssr:stedsnr" v="495965" />
	</node>
	<node lat="60.939766666747865" lon="7.802480553146815" id="-45051">
		<tag k="name" v="Fleskebu" />
		<tag k="place" v="isolated_dwelling" />
		<tag k="ssr:stedsnr" v="506075" />
	</node>
	<node lat="60.987222217971166" lon="7.773838897650105" id="-45052">
		<tag k="name" v="Stavedalshytta" />
		<tag k="place" v="isolated_dwelling" />
		<tag k="ssr:stedsnr" v="506076" />
	</node>
	<node lat="61.057336114868995" lon="7.501433328589318" id="-45055">
		<tag k="name" v="Kropp" />
		<tag k="place" v="locality" />
		<tag k="ssr:stedsnr" v="507811" />
	</node>
	<node lat="61.09623055850781" lon="7.076505557258798" id="-45066">
		<tag k="amenity" v="school" />
		<tag k="name" v="Frønningen skule" />
		<tag k="ssr:stedsnr" v="531326" />
	</node>
	<node lat="61.093688884767545" lon="7.523644436625262" id="-45069">
		<tag k="fixme" v="consider place=hamlet" />
		<tag k="name" v="Stebole" />
		<tag k="place" v="farm" />
		<tag k="ssr:stedsnr" v="531509" />
	</node>
	<node lat="61.04851389213592" lon="8.001591664422204" id="-45075">
		<tag k="name" v="Liastølgjerdet" />
		<tag k="place" v="locality" />
		<tag k="ssr:stedsnr" v="532324" />
	</node>
	<node lat="61.08467500320714" lon="7.8604361158828" id="-45080">
		<tag k="name" v="Nedre Eggum" />
		<tag k="place" v="farm" />
		<tag k="ssr:stedsnr" v="532808" />
	</node>
	<node lat="60.959913892793885" lon="7.7269083402930505" id="-45082">
		<tag k="name" v="Finnebuhytta" />
		<tag k="place" v="isolated_dwelling" />
		<tag k="ssr:stedsnr" v="688061" />
	</node>
	<node lat="60.97953889234165" lon="8.019424998978003" id="-45085">
		<tag k="name" v="Starbu" />
		<tag k="place" v="isolated_dwelling" />
		<tag k="ssr:stedsnr" v="688067" />
	</node>
	<node lat="61.085358336214036" lon="7.093494441455269" id="-45093">
		<tag k="historic" v="shieling" />
		<tag k="name" v="Lyngsete" />
		<tag k="place" v="isolated_dwelling" />
		<tag k="ssr:stedsnr" v="555386" />
	</node>
	<node lat="61.050149188327154" lon="7.815941645359897" id="-45095">
		<tag k="fixme" v="consider place=hamlet" />
		<tag k="name" v="Hatleberg" />
		<tag k="place" v="farm" />
		<tag k="ssr:stedsnr" v="555507" />
	</node>
	<node lat="61.04089667074329" lon="7.8164141743235245" id="-45096">
		<tag k="fixme" v="consider place=hamlet" />
		<tag k="name" v="Nevlo" />
		<tag k="place" v="farm" />
		<tag k="ssr:stedsnr" v="555508" />
	</node>
	<node lat="61.11728333215854" lon="7.332566671852711" id="-45098">
		<tag k="name" v="Hjellene" />
		<tag k="place" v="farm" />
		<tag k="ssr:stedsnr" v="555408" />
	</node>
	<node lat="61.11368619176975" lon="7.3262848378325724" id="-45099">
		<tag k="name" v="Storeteigen" />
		<tag k="place" v="farm" />
		<tag k="ssr:stedsnr" v="555414" />
	</node>
	<node lat="61.07453433718598" lon="7.961521358770586" id="-45100">
		<tag k="name" v="Hagen" />
		<tag k="place" v="farm" />
		<tag k="ssr:stedsnr" v="555481" />
	</node>
	<node lat="61.091784597234366" lon="7.523209956390731" id="-45101">
		<tag k="fixme" v="consider place=hamlet" />
		<tag k="name" v="Skjær" />
		<tag k="place" v="farm" />
		<tag k="ssr:stedsnr" v="555766" />
	</node>
	<node lat="61.100013892651845" lon="7.473744444817848" id="-45102">
		<tag k="name" v="Lærdalsøyri" />
		<tag k="place" v="village" />
		<tag k="ssr:stedsnr" v="555769" />
	</node>
	<node lat="61.086182270404876" lon="7.889582862084852" id="-45106">
		<tag k="fixme" v="consider place=hamlet" />
		<tag k="name" v="Hegg" />
		<tag k="place" v="farm" />
		<tag k="ssr:stedsnr" v="555924" />
	</node>
	<node lat="61.095671140548376" lon="7.864635122537537" id="-45110">
		<tag k="fixme" v="consider place=hamlet" />
		<tag k="name" v="Øvre Kvame" />
		<tag k="place" v="farm" />
		<tag k="ssr:stedsnr" v="555939" />
	</node>
	<node lat="61.110311354464024" lon="8.034388999857946" id="-45112">
		<tag k="name" v="Maristova" />
		<tag k="ssr:stedsnr" v="555951" />
		<tag k="tourism" v="hotel" />
	</node>
	<node lat="61.104161267760254" lon="7.515221213971041" id="-45115">
		<tag k="fixme" v="consider place=hamlet" />
		<tag k="name" v="Mjelde" />
		<tag k="place" v="farm" />
		<tag k="ssr:stedsnr" v="556808" />
	</node>
	<node lat="61.04093610710645" lon="7.479991672219842" id="-45118">
		<tag k="historic" v="shieling" />
		<tag k="name" v="Skigrov" />
		<tag k="place" v="isolated_dwelling" />
		<tag k="ssr:stedsnr" v="567814" />
	</node>
	<node lat="61.04606687710899" lon="7.7907305329020025" id="-45119">
		<tag k="fixme" v="consider place=hamlet" />
		<tag k="name" v="Store Husum" />
		<tag k="old_name" v="Husum" />
		<tag k="place" v="farm" />
		<tag k="ssr:stedsnr" v="567815" />
	</node>
	<node lat="61.0482361155091" lon="7.337586104688221" id="-45120">
		<tag k="historic" v="shieling" />
		<tag k="name" v="Fureset" />
		<tag k="place" v="isolated_dwelling" />
		<tag k="ssr:stedsnr" v="567907" />
	</node>
	<node lat="61.04677777470976" lon="7.583755559396986" id="-45138">
		<tag k="name" v="Bønes" />
		<tag k="place" v="farm" />
		<tag k="ssr:stedsnr" v="593002" />
	</node>
	<node lat="61.16017524385888" lon="7.434284099831829" id="-45146">
		<tag k="name" v="Kvernasvadet" />
		<tag k="place" v="isolated_dwelling" />
		<tag k="ssr:stedsnr" v="616256" />
	</node>
	<node lat="61.03285000373246" lon="7.802558326964067" id="-45149">
		<tag k="name" v="Neshagen" />
		<tag k="place" v="farm" />
		<tag k="ssr:stedsnr" v="616502" />
	</node>
	<node lat="61.06985555740169" lon="7.955883335479563" id="-45154">
		<tag k="name" v="Vetlegjerdet" />
		<tag k="place" v="farm" />
		<tag k="ssr:stedsnr" v="616526" />
	</node>
	<node lat="61.04630555457756" lon="7.790366667539432" id="-45155">
		<tag k="name" v="Husum" />
		<tag k="ssr:stedsnr" v="616546" />
		<tag k="tourism" v="hotel" />
	</node>
	<node lat="61.11538055115737" lon="7.331072223471522" id="-45172">
		<tag k="name" v="Solstad" />
		<tag k="place" v="farm" />
		<tag k="ssr:stedsnr" v="652286" />
	</node>
	<node lat="61.10205555402063" lon="7.519172221141298" id="-45173">
		<tag k="amenity" v="hospital" />
		<tag k="name" v="Fylkessjukehuset" />
		<tag k="ssr:stedsnr" v="652300" />
	</node>
	<node lat="61.05526666680912" lon="7.486269440874062" id="-45187">
		<tag k="name" v="Gjeris-løa" />
		<tag k="place" v="locality" />
		<tag k="ssr:stedsnr" v="653740" />
	</node>
	<node lat="61.08027831470133" lon="7.888649210497714" id="-45190">
		<tag k="alt_name" v="Lai" />
		<tag k="fixme" v="consider place=hamlet" />
		<tag k="name" v="Låi" />
		<tag k="place" v="farm" />
		<tag k="ssr:stedsnr" v="653836" />
	</node>
	<node lat="60.946616664716544" lon="7.665341661558317" id="-45196">
		<tag k="name" v="Dyrkoll" />
		<tag k="place" v="locality" />
		<tag k="ssr:stedsnr" v="675419" />
	</node>
	<node lat="61.038675003291225" lon="7.644761101971911" id="-45201">
		<tag k="fixme" v="consider place=hamlet" />
		<tag k="name" v="Mo" />
		<tag k="place" v="farm" />
		<tag k="ssr:stedsnr" v="676807" />
	</node>
	<node lat="61.02472809908011" lon="8.03542139829084" id="-45207">
		<tag k="historic" v="shieling" />
		<tag k="name" v="Breistølen" />
		<tag k="place" v="isolated_dwelling" />
		<tag k="ssr:stedsnr" v="677507" />
	</node>
	<node lat="61.06607777666927" lon="7.51473611448436" id="-45213">
		<tag k="name" v="Molde" />
		<tag k="place" v="farm" />
		<tag k="ssr:stedsnr" v="677823" />
	</node>
	<node lat="61.082441665528385" lon="7.518727774513449" id="-45215">
		<tag k="name" v="Haugshagen" />
		<tag k="place" v="farm" />
		<tag k="ssr:stedsnr" v="677796" />
	</node>
	<node lat="61.01263055722883" lon="8.066700001707323" id="-45221">
		<tag k="name" v="Draughellerøyni" />
		<tag k="place" v="isolated_dwelling" />
		<tag k="ssr:stedsnr" v="678587" />
	</node>
	<node lat="61.04295000159351" lon="7.6049611061859785" id="-45225">
		<tag k="name" v="Sande" />
		<tag k="place" v="farm" />
		<tag k="ssr:stedsnr" v="894038" />
	</node>
	<node lat="61.07167777976904" lon="7.913369444080083" id="-45233">
		<tag k="name" v="Fjellborg" />
		<tag k="place" v="farm" />
		<tag k="ssr:stedsnr" v="896252" />
	</node>
	<node lat="61.039791668302136" lon="8.017027778262287" id="-45239">
		<tag k="name" v="Gamle Galdestølen" />
		<tag k="place" v="locality" />
		<tag k="ssr:stedsnr" v="896357" />
	</node>
	<node lat="61.05361666923904" lon="7.812336107135925" id="-45249">
		<tag k="name" v="Vetlestølen" />
		<tag k="place" v="farm" />
		<tag k="ssr:stedsnr" v="896930" />
	</node>
	<node lat="61.033680556678966" lon="7.810158338653738" id="-45260">
		<tag k="name" v="Troni" />
		<tag k="place" v="locality" />
		<tag k="ssr:stedsnr" v="896899" />
	</node>
	<node lat="61.061477780856144" lon="7.515916669592664" id="-45270">
		<tag k="name" v="Rutle" />
		<tag k="place" v="farm" />
		<tag k="ssr:stedsnr" v="713532" />
	</node>
	<node lat="61.109169441038894" lon="7.323511104747431" id="-45276">
		<tag k="historic" v="shieling" />
		<tag k="name" v="Stølen" />
		<tag k="place" v="isolated_dwelling" />
		<tag k="ssr:stedsnr" v="737430" />
	</node>
	<node lat="61.04264999678989" lon="7.60093055407539" id="-45282">
		<tag k="name" v="Blåstad" />
		<tag k="place" v="farm" />
		<tag k="ssr:stedsnr" v="737830" />
	</node>
	<node lat="61.04156666602537" lon="7.674136112256284" id="-45283">
		<tag k="historic" v="shieling" />
		<tag k="name" v="Byrkjastølen" />
		<tag k="place" v="isolated_dwelling" />
		<tag k="ssr:stedsnr" v="737842" />
	</node>
	<node lat="61.05349166991867" lon="7.713224996359496" id="-45284">
		<tag k="alt_name" v="Seltøyni" />
		<tag k="name" v="Fjellheim" />
		<tag k="place" v="farm" />
		<tag k="ssr:stedsnr" v="737849" />
	</node>
	<node lat="61.03572831930456" lon="7.811893651582181" id="-45294">
		<tag k="fixme" v="consider place=hamlet" />
		<tag k="name" v="Nese" />
		<tag k="place" v="farm" />
		<tag k="ssr:stedsnr" v="738506" />
	</node>
	<node lat="61.02667777479158" lon="7.8426749929560735" id="-45295">
		<tag k="name" v="Øystølen" />
		<tag k="place" v="locality" />
		<tag k="ssr:stedsnr" v="738512" />
	</node>
	<node lat="61.044844448836926" lon="7.589247228712773" id="-45322">
		<tag k="name" v="Senstad" />
		<tag k="place" v="farm" />
		<tag k="ssr:stedsnr" v="775106" />
	</node>
	<node lat="61.07438611367726" lon="7.839397226767166" id="-45329">
		<tag k="name" v="Hovdheim" />
		<tag k="place" v="farm" />
		<tag k="ssr:stedsnr" v="775826" />
	</node>
	<node lat="60.985688890937865" lon="7.676669438203632" id="-45336">
		<tag k="name" v="Hola" />
		<tag k="place" v="locality" />
		<tag k="ssr:stedsnr" v="798451" />
	</node>
	<node lat="60.99645833530416" lon="7.506036112443135" id="-45337">
		<tag k="alt_name" v="Øvredalen" />
		<tag k="name" v="Øvredal" />
		<tag k="place" v="locality" />
		<tag k="ssr:stedsnr" v="798457" />
	</node>
	<node lat="61.01118889194805" lon="7.641852785043261" id="-45343">
		<tag k="historic" v="shieling" />
		<tag k="name" v="Skjær" />
		<tag k="place" v="isolated_dwelling" />
		<tag k="ssr:stedsnr" v="798919" />
	</node>
	<node lat="61.09666944788001" lon="8.021250008870565" id="-45346">
		<tag k="name" v="Kolsmork" />
		<tag k="place" v="isolated_dwelling" />
		<tag k="ssr:stedsnr" v="798945" />
	</node>
	<node lat="61.16638333078579" lon="7.443191661647392" id="-45350">
		<tag k="alt_name" v="Årerusti" />
		<tag k="name" v="Offerdalsgjerdet" />
		<tag k="place" v="locality" />
		<tag k="ssr:stedsnr" v="799289" />
	</node>
	<node lat="61.02039166952909" lon="7.741352784794358" id="-45353">
		<tag k="historic" v="shieling" />
		<tag k="name" v="Myrsete" />
		<tag k="place" v="isolated_dwelling" />
		<tag k="ssr:stedsnr" v="799539" />
	</node>
	<node lat="61.08951111150958" lon="7.382000000076863" id="-45354">
		<tag k="alt_name" v="Glep" />
		<tag k="historic" v="shieling" />
		<tag k="name" v="Glipstølen" />
		<tag k="place" v="isolated_dwelling" />
		<tag k="ssr:stedsnr" v="799794" />
	</node>
	<node lat="60.98536110739786" lon="8.155358331561704" id="-45364">
		<tag k="historic" v="shieling" />
		<tag k="name" v="Eldrehaugen" />
		<tag k="place" v="isolated_dwelling" />
		<tag k="ssr:stedsnr" v="918617" />
	</node>
	<node lat="60.92237500272356" lon="7.682894441859642" id="-45368">
		<tag k="name" v="Bettebu" />
		<tag k="place" v="locality" />
		<tag k="ssr:stedsnr" v="919367" />
	</node>
	<node lat="61.00495555578974" lon="7.500186115272571" id="-45371">
		<tag k="name" v="Trollelii" />
		<tag k="place" v="isolated_dwelling" />
		<tag k="ssr:stedsnr" v="919797" />
	</node>
	<node lat="61.024586111014436" lon="7.495091659654189" id="-45372">
		<tag k="name" v="Tynjadalen" />
		<tag k="place" v="locality" />
		<tag k="ssr:stedsnr" v="919802" />
	</node>
	<node lat="61.05644139319113" lon="7.671169795678298" id="-45377">
		<tag k="fixme" v="consider place=hamlet" />
		<tag k="name" v="Søre Bjørkum" />
		<tag k="place" v="farm" />
		<tag k="ssr:stedsnr" v="919836" />
	</node>
	<node lat="61.07153655105269" lon="7.926462483543887" id="-45385">
		<tag k="fixme" v="consider place=hamlet" />
		<tag k="name" v="Bjoråk" />
		<tag k="place" v="farm" />
		<tag k="ssr:stedsnr" v="920526" />
	</node>
	<node lat="61.04724444614965" lon="7.77016388215244" id="-45387">
		<tag k="alt_name" v="Øygarden, fremre" />
		<tag k="name" v="Fremre Øygarden" />
		<tag k="place" v="farm" />
		<tag k="ssr:stedsnr" v="920533" />
	</node>
	<node lat="61.04836666546343" lon="7.8159944530082095" id="-45388">
		<tag k="name" v="Bergheim" />
		<tag k="place" v="farm" />
		<tag k="ssr:stedsnr" v="920544" />
	</node>
	<node lat="61.077255554163656" lon="7.8369944403193585" id="-45392">
		<tag k="alt_name" v="Hellelo" />
		<tag k="name" v="Sletti" />
		<tag k="place" v="farm" />
		<tag k="ssr:stedsnr" v="920948" />
	</node>
	<node lat="61.03775555821429" lon="7.638847228044507" id="-45396">
		<tag k="name" v="Øystad" />
		<tag k="place" v="farm" />
		<tag k="ssr:stedsnr" v="835158" />
	</node>
	<node lat="61.08533055450075" lon="7.888574996125606" id="-45400">
		<tag k="name" v="Nyborg" />
		<tag k="place" v="farm" />
		<tag k="ssr:stedsnr" v="835778" />
	</node>
	<node lat="61.04383611123697" lon="7.97194444772503" id="-45403">
		<tag k="name" v="Nilsegjerdet" />
		<tag k="place" v="locality" />
		<tag k="ssr:stedsnr" v="836298" />
	</node>
	<node lat="60.944005551355325" lon="7.593874996473432" id="-45413">
		<tag k="name" v="Steinsengi" />
		<tag k="place" v="locality" />
		<tag k="ssr:stedsnr" v="858410" />
	</node>
	<node lat="60.92699586682966" lon="7.998171292087217" id="-45419">
		<tag k="fixme" v="consider tourism=alpine_hut or tourism=chalet" />
		<tag k="name" v="Bjordalsbu" />
		<tag k="ssr:stedsnr" v="858710" />
		<tag k="tourism" v="wilderness_hut" />
	</node>
	<node lat="61.07196941824535" lon="7.910953238680054" id="-45421">
		<tag k="name" v="Brøyni" />
		<tag k="place" v="isolated_dwelling" />
		<tag k="ssr:stedsnr" v="859510" />
	</node>
	<node lat="61.105424998573575" lon="7.448411104138714" id="-45422">
		<tag k="name" v="Fleskheller" />
		<tag k="place" v="farm" />
		<tag k="ssr:stedsnr" v="859772" />
	</node>
	<node lat="61.079682923335625" lon="7.855194100974288" id="-45426">
=======
	<node id="-677442" lat="61.0377555582" lon="7.63884722804">
		<tag k="name" v="Øystad" />
		<tag k="place" v="farm" />
		<tag k="ssr:stedsnr" v="835158" />
	</node>
	<node id="-677436" lat="61.0895111115" lon="7.38200000008">
		<tag k="alt_name" v="Glep" />
		<tag k="historic" v="shieling" />
		<tag k="name" v="Glipstølen" />
		<tag k="place" v="locality" />
		<tag k="ssr:stedsnr" v="799794" />
	</node>
	<node id="-677426" lat="61.0111888919" lon="7.64185278504">
		<tag k="historic" v="shieling" />
		<tag k="name" v="Skjær" />
		<tag k="place" v="locality" />
		<tag k="ssr:stedsnr" v="798919" />
	</node>
	<node id="-677415" lat="61.0772555542" lon="7.83699444032">
		<tag k="alt_name" v="Hellelo" />
		<tag k="name" v="Sletti" />
		<tag k="place" v="farm" />
		<tag k="ssr:stedsnr" v="920948" />
	</node>
	<node id="-677411" lat="61.0665750018" lon="7.68845833154">
		<tag k="historic" v="shieling" />
		<tag k="name" v="Øvre Seltastølen" />
		<tag k="place" v="locality" />
		<tag k="ssr:stedsnr" v="920842" />
	</node>
	<node id="-677406" lat="61.0834611122" lon="7.36771945274">
		<tag k="alt_name" v="Glipstølen, øvre" />
		<tag k="historic" v="shieling" />
		<tag k="name" v="Øvre Glipstølen" />
		<tag k="place" v="locality" />
		<tag k="ssr:stedsnr" v="920743" />
	</node>
	<node id="-677405" lat="61.0483666655" lon="7.81599445301">
		<tag k="name" v="Bergheim" />
		<tag k="place" v="farm" />
		<tag k="ssr:stedsnr" v="920544" />
	</node>
	<node id="-677404" lat="61.0472444461" lon="7.77016388215">
		<tag k="alt_name" v="Øygarden, fremre" />
		<tag k="name" v="Fremre Øygarden" />
		<tag k="place" v="farm" />
		<tag k="ssr:stedsnr" v="920533" />
	</node>
	<node id="-677403" lat="61.0715365511" lon="7.92646248354">
		<tag k="fixme" v="consider place=hamlet" />
		<tag k="name" v="Bjoråk" />
		<tag k="place" v="farm" />
		<tag k="ssr:stedsnr" v="920526" />
	</node>
	<node id="-677402" lat="61.0655489935" lon="7.81833019967">
		<tag k="fixme" v="consider place=hamlet" />
		<tag k="name" v="Voldum" />
		<tag k="place" v="farm" />
		<tag k="ssr:stedsnr" v="920519" />
	</node>
	<node id="-677401" lat="61.0784569832" lon="7.88839676596">
		<tag k="fixme" v="consider place=hamlet" />
		<tag k="name" v="Haugen" />
		<tag k="place" v="farm" />
		<tag k="ssr:stedsnr" v="920513" />
	</node>
	<node id="-677400" lat="61.0129472185" lon="7.83670278559">
		<tag k="historic" v="shieling" />
		<tag k="name" v="Areberg" />
		<tag k="place" v="locality" />
		<tag k="ssr:stedsnr" v="920508" />
	</node>
	<node id="-677388" lat="61.024586111" lon="7.49509165965">
		<tag k="name" v="Tynjadalen" />
		<tag k="place" v="locality" />
		<tag k="ssr:stedsnr" v="919802" />
	</node>
	<node id="-677387" lat="61.0049555558" lon="7.50018611527">
		<tag k="name" v="Trollelii" />
		<tag k="place" v="isolated_dwelling" />
		<tag k="ssr:stedsnr" v="919797" />
	</node>
	<node id="-677384" lat="61.0564413932" lon="7.67116979568">
		<tag k="fixme" v="consider place=hamlet" />
		<tag k="name" v="Søre Bjørkum" />
		<tag k="place" v="farm" />
		<tag k="ssr:stedsnr" v="919836" />
	</node>
	<node id="-677375" lat="60.9853611074" lon="8.15535833156">
		<tag k="historic" v="shieling" />
		<tag k="name" v="Eldrehaugen" />
		<tag k="place" v="locality" />
		<tag k="ssr:stedsnr" v="918617" />
	</node>
	<node id="-677369" lat="61.0448444488" lon="7.58924722871">
		<tag k="name" v="Senstad" />
		<tag k="place" v="farm" />
		<tag k="ssr:stedsnr" v="775106" />
	</node>
	<node id="-677368" lat="61.0597888856" lon="7.95154999594">
		<tag k="name" v="Rundtuppstølen" />
		<tag k="place" v="locality" />
		<tag k="ssr:stedsnr" v="775326" />
	</node>
	<node id="-677351" lat="61.0536166692" lon="7.81233610714">
		<tag k="name" v="Vetlestølen" />
		<tag k="place" v="farm" />
		<tag k="ssr:stedsnr" v="896930" />
	</node>
	<node id="-677347" lat="61.0336805567" lon="7.81015833865">
		<tag k="name" v="Troni" />
		<tag k="place" v="locality" />
		<tag k="ssr:stedsnr" v="896899" />
	</node>
	<node id="-677336" lat="61.0945666683" lon="7.50290278267">
		<tag k="name" v="Janstølen" />
		<tag k="place" v="locality" />
		<tag k="ssr:stedsnr" v="896527" />
	</node>
	<node id="-677325" lat="61.0397916683" lon="8.01702777826">
		<tag k="name" v="Gamle Galdestølen" />
		<tag k="place" v="locality" />
		<tag k="ssr:stedsnr" v="896357" />
	</node>
	<node id="-677318" lat="61.0716777798" lon="7.91336944408">
		<tag k="name" v="Fjellborg" />
		<tag k="place" v="farm" />
		<tag k="ssr:stedsnr" v="896252" />
	</node>
	<node id="-677307" lat="61.0976138908" lon="7.12078888567">
		<tag k="barrier" v="fence" />
		<tag k="name" v="Furegjerde" />
		<tag k="ssr:stedsnr" v="895957" />
	</node>
	<node id="-677305" lat="61.0936472222" lon="7.86617778562">
		<tag k="name" v="Lunden" />
		<tag k="place" v="farm" />
		<tag k="ssr:stedsnr" v="714758" />
	</node>
	<node id="-677293" lat="61.0429500016" lon="7.60496110619">
		<tag k="name" v="Sande" />
		<tag k="place" v="farm" />
		<tag k="ssr:stedsnr" v="894038" />
	</node>
	<node id="-677289" lat="61.0850741493" lon="7.85871303648">
		<tag k="fixme" v="consider place=hamlet" />
		<tag k="name" v="Eggjo" />
		<tag k="place" v="farm" />
		<tag k="ssr:stedsnr" v="677962" />
	</node>
	<node id="-677287" lat="61.0767000015" lon="7.84996666569">
		<tag k="name" v="Hillestad" />
		<tag k="place" v="farm" />
		<tag k="ssr:stedsnr" v="677954" />
	</node>
	<node id="-677286" lat="61.0850333374" lon="7.8899749966">
		<tag k="name" v="Oddheim" />
		<tag k="place" v="farm" />
		<tag k="ssr:stedsnr" v="677953" />
	</node>
	<node id="-677282" lat="61.0692433074" lon="7.91484899932">
		<tag k="fixme" v="consider place=hamlet" />
		<tag k="name" v="Kvenshagen" />
		<tag k="place" v="farm" />
		<tag k="ssr:stedsnr" v="677523" />
	</node>
	<node id="-677280" lat="61.0247280991" lon="8.03542139829">
		<tag k="historic" v="shieling" />
		<tag k="name" v="Breistølen" />
		<tag k="place" v="locality" />
		<tag k="ssr:stedsnr" v="677507" />
	</node>
	<node id="-677274" lat="61.0386750033" lon="7.64476110197">
		<tag k="fixme" v="consider place=hamlet" />
		<tag k="name" v="Mo" />
		<tag k="place" v="farm" />
		<tag k="ssr:stedsnr" v="676807" />
	</node>
	<node id="-677271" lat="61.1155166676" lon="7.33058055447">
		<tag k="name" v="Oldrebø" />
		<tag k="place" v="farm" />
		<tag k="ssr:stedsnr" v="676460" />
	</node>
	<node id="-677269" lat="60.9466166647" lon="7.66534166156">
		<tag k="name" v="Dyrkoll" />
		<tag k="place" v="locality" />
		<tag k="ssr:stedsnr" v="675419" />
	</node>
	<node id="-677264" lat="61.0767666696" lon="7.83541945346">
		<tag k="name" v="Dalheim" />
		<tag k="place" v="farm" />
		<tag k="ssr:stedsnr" v="653854" />
	</node>
	<node id="-677255" lat="61.102055554" lon="7.51917222114">
		<tag k="amenity" v="hospital" />
		<tag k="name" v="Fylkessjukehuset" />
		<tag k="ssr:stedsnr" v="652300" />
	</node>
	<node id="-677254" lat="61.1153805512" lon="7.33107222347">
		<tag k="name" v="Solstad" />
		<tag k="place" v="farm" />
		<tag k="ssr:stedsnr" v="652286" />
	</node>
	<node id="-677249" lat="60.9756416668" lon="7.72913889408">
		<tag k="name" v="Øydalshytta" />
		<tag k="place" v="isolated_dwelling" />
		<tag k="ssr:stedsnr" v="627077" />
	</node>
	<node id="-677247" lat="61.0921888894" lon="7.87338611844">
		<tag k="name" v="Tufte" />
		<tag k="place" v="farm" />
		<tag k="ssr:stedsnr" v="616968" />
	</node>
	<node id="-677246" lat="61.0887250031" lon="8.00035555849">
		<tag k="name" v="Holken" />
		<tag k="place" v="farm" />
		<tag k="ssr:stedsnr" v="616961" />
	</node>
	<node id="-677244" lat="61.0826333291" lon="7.85474443683">
		<tag k="fixme" v="consider place=suburb, village or hamlet" />
		<tag k="name" v="Steinklepp" />
		<tag k="place" v="quarter" />
		<tag k="ssr:stedsnr" v="616957" />
	</node>
	<node id="-677243" lat="61.0583527784" lon="7.38962778524">
		<tag k="historic" v="shieling" />
		<tag k="name" v="Håvardsete" />
		<tag k="place" v="locality" />
		<tag k="ssr:stedsnr" v="616764" />
	</node>
	<node id="-677241" lat="61.0610916678" lon="7.35188056154">
		<tag k="historic" v="shieling" />
		<tag k="name" v="Kvignadalen" />
		<tag k="place" v="locality" />
		<tag k="ssr:stedsnr" v="616757" />
	</node>
	<node id="-677238" lat="61.0362250221" lon="7.63389034794">
		<tag k="fixme" v="consider place=hamlet" />
		<tag k="name" v="Rå" />
		<tag k="place" v="farm" />
		<tag k="ssr:stedsnr" v="615794" />
	</node>
	<node id="-677221" lat="61.0401861071" lon="7.6190444381">
		<tag k="name" v="Haugen" />
		<tag k="place" v="farm" />
		<tag k="ssr:stedsnr" v="714101" />
	</node>
	<node id="-677219" lat="61.0465527781" lon="7.79545277418">
		<tag k="name" v="Hjollo" />
		<tag k="place" v="locality" />
		<tag k="ssr:stedsnr" v="713960" />
	</node>
	<node id="-677216" lat="61.0614777809" lon="7.51591666959">
		<tag k="name" v="Rutle" />
		<tag k="place" v="farm" />
		<tag k="ssr:stedsnr" v="713532" />
	</node>
	<node id="-677188" lat="61.1041612678" lon="7.51522121397">
		<tag k="fixme" v="consider place=hamlet" />
		<tag k="name" v="Mjelde" />
		<tag k="place" v="farm" />
		<tag k="ssr:stedsnr" v="556808" />
	</node>
	<node id="-677182" lat="61.0861822704" lon="7.88958286208">
		<tag k="fixme" v="consider place=hamlet" />
		<tag k="name" v="Hegg" />
		<tag k="place" v="farm" />
		<tag k="ssr:stedsnr" v="555924" />
	</node>
	<node id="-677176" lat="61.1136861918" lon="7.32628483783">
		<tag k="name" v="Storeteigen" />
		<tag k="place" v="farm" />
		<tag k="ssr:stedsnr" v="555414" />
	</node>
	<node id="-677175" lat="61.1172833322" lon="7.33256667185">
		<tag k="name" v="Hjellene" />
		<tag k="place" v="farm" />
		<tag k="ssr:stedsnr" v="555408" />
	</node>
	<node id="-677173" lat="61.0408966707" lon="7.81641417432">
		<tag k="fixme" v="consider place=hamlet" />
		<tag k="name" v="Nevlo" />
		<tag k="place" v="farm" />
		<tag k="ssr:stedsnr" v="555508" />
	</node>
	<node id="-677172" lat="61.0501491883" lon="7.81594164536">
		<tag k="fixme" v="consider place=hamlet" />
		<tag k="name" v="Hatleberg" />
		<tag k="place" v="farm" />
		<tag k="ssr:stedsnr" v="555507" />
	</node>
	<node id="-677159" lat="61.0846750032" lon="7.86043611588">
		<tag k="name" v="Nedre Eggum" />
		<tag k="place" v="farm" />
		<tag k="ssr:stedsnr" v="532808" />
	</node>
	<node id="-677158" lat="61.1036527744" lon="7.41621944051">
		<tag k="name" v="Hola" />
		<tag k="place" v="farm" />
		<tag k="ssr:stedsnr" v="531179" />
	</node>
	<node id="-677151" lat="60.9795388923" lon="8.01942499898">
		<tag k="name" v="Starbu" />
		<tag k="place" v="isolated_dwelling" />
		<tag k="ssr:stedsnr" v="688067" />
	</node>
	<node id="-677150" lat="60.9599138928" lon="7.72690834029">
		<tag k="name" v="Finnebuhytta" />
		<tag k="place" v="isolated_dwelling" />
		<tag k="ssr:stedsnr" v="688061" />
	</node>
	<node id="-677146" lat="60.987222218" lon="7.77383889765">
		<tag k="name" v="Stavedalshytta" />
		<tag k="place" v="isolated_dwelling" />
		<tag k="ssr:stedsnr" v="506076" />
	</node>
	<node id="-677145" lat="60.9397666667" lon="7.80248055315">
		<tag k="name" v="Fleskebu" />
		<tag k="place" v="isolated_dwelling" />
		<tag k="ssr:stedsnr" v="506075" />
	</node>
	<node id="-677144" lat="61.0186166661" lon="7.34463054732">
		<tag k="historic" v="shieling" />
		<tag k="name" v="Horndal" />
		<tag k="place" v="locality" />
		<tag k="ssr:stedsnr" v="495885" />
	</node>
	<node id="-677141" lat="61.0474963128" lon="7.61334828281">
		<tag k="fixme" v="consider place=hamlet" />
		<tag k="name" v="Øvre Ljøsne" />
		<tag k="place" v="farm" />
		<tag k="ssr:stedsnr" v="495877" />
	</node>
	<node id="-677138" lat="61.0750916648" lon="7.50016666271">
		<tag k="alt_name" v="Eri, nedre" />
		<tag k="name" v="Nedre Eri" />
		<tag k="place" v="farm" />
		<tag k="ssr:stedsnr" v="495864" />
	</node>
	<node id="-677136" lat="61.0286777811" lon="7.83828888337">
		<tag k="historic" v="shieling" />
		<tag k="name" v="Brattegaldane" />
		<tag k="place" v="locality" />
		<tag k="ssr:stedsnr" v="495505" />
	</node>
	<node id="-677134" lat="61.1767375771" lon="7.45865850684">
		<tag k="fixme" v="consider place=hamlet" />
		<tag k="name" v="Bermål" />
		<tag k="place" v="farm" />
		<tag k="ssr:stedsnr" v="495276" />
	</node>
	<node id="-677133" lat="61.1271281979" lon="7.52586631079">
		<tag k="alt_name" v="Berdalslii" />
		<tag k="historic" v="shieling" />
		<tag k="name" v="Berdalen" />
		<tag k="place" v="locality" />
		<tag k="ssr:stedsnr" v="495272" />
	</node>
	<node id="-677130" lat="61.0502388883" lon="7.5752027859">
		<tag k="name" v="Bøtun" />
		<tag k="place" v="farm" />
		<tag k="ssr:stedsnr" v="678842" />
	</node>
	<node id="-677129" lat="61.0548787018" lon="7.52501265766">
		<tag k="fixme" v="consider place=hamlet" />
		<tag k="name" v="Tønjum" />
		<tag k="place" v="farm" />
		<tag k="ssr:stedsnr" v="678834" />
	</node>
	<node id="-677127" lat="61.0126305572" lon="8.06670000171">
		<tag k="name" v="Draughellerøyni" />
		<tag k="place" v="isolated_dwelling" />
		<tag k="ssr:stedsnr" v="678587" />
	</node>
	<node id="-677121" lat="61.0660777767" lon="7.51473611448">
		<tag k="name" v="Molde" />
		<tag k="place" v="farm" />
		<tag k="ssr:stedsnr" v="677823" />
	</node>
	<node id="-677116" lat="61.0824416655" lon="7.51872777451">
		<tag k="name" v="Haugshagen" />
		<tag k="place" v="farm" />
		<tag k="ssr:stedsnr" v="677796" />
	</node>
	<node id="-677114" lat="61.0578176073" lon="7.81245662804">
		<tag k="fixme" v="consider place=hamlet" />
		<tag k="name" v="Li" />
		<tag k="place" v="farm" />
		<tag k="ssr:stedsnr" v="677543" />
	</node>
	<node id="-677102" lat="61.021899998" lon="8.12088056028">
		<tag k="name" v="Ulvehaugen" />
		<tag k="place" v="isolated_dwelling" />
		<tag k="ssr:stedsnr" v="674649" />
	</node>
	<node id="-677091" lat="61.1460249965" lon="7.40840555716">
		<tag k="name" v="Dokki" />
		<tag k="place" v="locality" />
		<tag k="ssr:stedsnr" v="435303" />
	</node>
	<node id="-677084" lat="61.0802777772" lon="7.98440556044">
		<tag k="name" v="Vetleøyni" />
		<tag k="place" v="locality" />
		<tag k="ssr:stedsnr" v="411402" />
	</node>
	<node id="-677080" lat="61.0573361149" lon="7.50143332859">
		<tag k="name" v="Kropp" />
		<tag k="place" v="locality" />
		<tag k="ssr:stedsnr" v="507811" />
	</node>
	<node id="-677077" lat="60.8673083292" lon="7.72094722372">
		<tag k="name" v="Flågrunnshytta" />
		<tag k="place" v="isolated_dwelling" />
		<tag k="ssr:stedsnr" v="506135" />
	</node>
	<node id="-677070" lat="61.0619777805" lon="7.3428333417">
		<tag k="historic" v="shieling" />
		<tag k="name" v="Hammarsete" />
		<tag k="place" v="locality" />
		<tag k="ssr:stedsnr" v="374767" />
	</node>
	<node id="-677062" lat="61.1132182703" lon="7.32603150468">
		<tag k="name" v="Grindateig" />
		<tag k="place" v="farm" />
		<tag k="ssr:stedsnr" v="373466" />
	</node>
	<node id="-677057" lat="61.1047055578" lon="8.01825833386">
		<tag k="historic" v="shieling" />
		<tag k="name" v="Honingane" />
		<tag k="place" v="locality" />
		<tag k="ssr:stedsnr" v="495965" />
	</node>
	<node id="-677056" lat="61.0669374305" lon="7.51520411747">
		<tag k="fixme" v="consider place=hamlet" />
		<tag k="name" v="Molde" />
		<tag k="place" v="farm" />
		<tag k="ssr:stedsnr" v="495834" />
	</node>
	<node id="-677052" lat="61.0976444464" lon="7.51344165885">
		<tag k="name" v="Hagusane" />
		<tag k="place" v="farm" />
		<tag k="ssr:stedsnr" v="495795" />
	</node>
	<node id="-677051" lat="61.0960372096" lon="7.41175866257">
		<tag k="alt_name" v="Bjørkum" />
		<tag k="fixme" v="consider place=hamlet" />
		<tag k="name" v="Bjørko" />
		<tag k="place" v="farm" />
		<tag k="ssr:stedsnr" v="495786" />
	</node>
	<node id="-677050" lat="61.0815249977" lon="7.42723888156">
		<tag k="historic" v="shieling" />
		<tag k="name" v="Selslii" />
		<tag k="place" v="locality" />
		<tag k="ssr:stedsnr" v="495784" />
	</node>
	<node id="-677048" lat="61.0830138914" lon="7.82313333913">
		<tag k="name" v="Horgestølen" />
		<tag k="place" v="locality" />
		<tag k="ssr:stedsnr" v="495948" />
	</node>
	<node id="-677047" lat="61.0811604117" lon="7.84977818908">
		<tag k="fixme" v="consider place=hamlet" />
		<tag k="name" v="Berge" />
		<tag k="place" v="farm" />
		<tag k="ssr:stedsnr" v="495945" />
	</node>
	<node id="-677044" lat="61.0346611156" lon="7.50561110552">
		<tag k="historic" v="shieling" />
		<tag k="name" v="Gamlestøl" />
		<tag k="place" v="locality" />
		<tag k="ssr:stedsnr" v="495896" />
	</node>
	<node id="-677033" lat="61.0559583312" lon="7.81415832695">
		<tag k="alt_name" v="Liøyni" />
		<tag k="name" v="Gjesdal" />
		<tag k="place" v="farm" />
		<tag k="ssr:stedsnr" v="495548" />
	</node>
	<node id="-677030" lat="61.0333749986" lon="7.80583610266">
		<tag k="name" v="Grimsøyn" />
		<tag k="place" v="farm" />
		<tag k="ssr:stedsnr" v="495501" />
	</node>
	<node id="-677029" lat="61.0518722195" lon="7.97083056398">
		<tag k="historic" v="shieling" />
		<tag k="name" v="Eggjestølen" />
		<tag k="place" v="locality" />
		<tag k="ssr:stedsnr" v="495496" />
	</node>
	<node id="-677025" lat="61.1207916635" lon="7.86026389407">
		<tag k="name" v="Fosse" />
		<tag k="place" v="isolated_dwelling" />
		<tag k="ssr:stedsnr" v="494980" />
	</node>
	<node id="-677024" lat="61.05736378" lon="7.6617666734">
		<tag k="fixme" v="consider place=hamlet" />
		<tag k="name" v="Hønjum" />
		<tag k="place" v="farm" />
		<tag k="ssr:stedsnr" v="494830" />
	</node>
	<node id="-677023" lat="61.0396312978" lon="7.62217294884">
		<tag k="fixme" v="consider place=hamlet" />
		<tag k="name" v="Rikheim" />
		<tag k="place" v="farm" />
		<tag k="ssr:stedsnr" v="494789" />
	</node>
	<node id="-677012" lat="61.0607500018" lon="7.81581110358">
		<tag k="name" v="Liheim" />
		<tag k="place" v="farm" />
		<tag k="ssr:stedsnr" v="350834" />
	</node>
	<node id="-677006" lat="61.0949805568" lon="7.10147222235">
		<tag k="name" v="Kilen" />
		<tag k="place" v="locality" />
		<tag k="ssr:stedsnr" v="349315" />
	</node>
	<node id="-677004" lat="61.1057305575" lon="7.56658610775">
		<tag k="alt_name" v="Oftedalsstølen, nedre;Oftedalen" />
		<tag k="historic" v="shieling" />
		<tag k="name" v="Nedre Oftedalsstølen" />
		<tag k="place" v="locality" />
		<tag k="ssr:stedsnr" v="314804" />
	</node>
	<node id="-677002" lat="61.073852822" lon="7.95318074454">
>>>>>>> e1d4bc35ff8a6074a6f2e91616a996b547c36f15
		<tag k="fixme" v="consider place=hamlet" />
		<tag k="name" v="Borlaug" />
		<tag k="place" v="farm" />
		<tag k="ssr:stedsnr" v="313955" />
	</node>
<<<<<<< HEAD
	<node lat="61.05050968943067" lon="7.528307281047835" id="-45432">
		<tag k="fixme" v="consider place=hamlet" />
		<tag k="name" v="Øvrevoll" />
		<tag k="place" v="farm" />
		<tag k="ssr:stedsnr" v="860868" />
	</node>
	<node lat="61.05858889074459" lon="7.655825005979993" id="-45433">
		<tag k="alt_name" v="Saude" />
		<tag k="historic" v="shieling" />
		<tag k="name" v="Saue" />
		<tag k="place" v="isolated_dwelling" />
		<tag k="ssr:stedsnr" v="860877" />
	</node>
	<node lat="60.974438891962876" lon="7.863625005159955" id="-45434">
		<tag k="name" v="Fossehytta" />
		<tag k="place" v="isolated_dwelling" />
		<tag k="ssr:stedsnr" v="870018" />
	</node>
	<node lat="61.09521666287199" lon="8.005980554437755" id="-45435">
		<tag k="name" v="Skredbakken" />
		<tag k="place" v="locality" />
		<tag k="ssr:stedsnr" v="871328" />
	</node>
	<node lat="61.050458331029176" lon="7.752891673379878" id="-45436">
		<tag k="name" v="Sjurhaugen" />
		<tag k="place" v="farm" />
		<tag k="ssr:stedsnr" v="871788" />
	</node>
	<node lat="61.09761389081518" lon="7.120788885669452" id="-45442">
		<tag k="barrier" v="fence" />
		<tag k="name" v="Furegjerde" />
		<tag k="ssr:stedsnr" v="895957" />
	</node>
	<node lat="61.094566668287264" lon="7.502902782674842" id="-45451">
		<tag k="name" v="Janstølen" />
		<tag k="place" v="locality" />
		<tag k="ssr:stedsnr" v="896527" />
	</node>
	<node lat="61.03625277527868" lon="7.302572216027666" id="-45464">
		<tag k="historic" v="shieling" />
		<tag k="name" v="Vardahaug" />
		<tag k="place" v="isolated_dwelling" />
		<tag k="ssr:stedsnr" v="919411" />
	</node>
	<node lat="61.0958416158753" lon="7.118635404075116" id="-45465">
		<tag k="alt_name" v="Lagmannsås" />
		<tag k="fixme" v="consider place=hamlet" />
		<tag k="name" v="Åsen" />
		<tag k="place" v="farm" />
		<tag k="ssr:stedsnr" v="919457" />
	</node>
	<node lat="61.04608192923557" lon="7.580387244679352" id="-45472">
		<tag k="alt_name" v="Øvre Bø;Bø" />
		<tag k="name" v="Øvstabø" />
		<tag k="place" v="farm" />
		<tag k="ssr:stedsnr" v="919806" />
	</node>
	<node lat="61.01294721847254" lon="7.836702785590915" id="-45477">
		<tag k="historic" v="shieling" />
		<tag k="name" v="Areberg" />
		<tag k="place" v="isolated_dwelling" />
		<tag k="ssr:stedsnr" v="920508" />
	</node>
	<node lat="61.07845698322827" lon="7.888396765955358" id="-45478">
		<tag k="fixme" v="consider place=hamlet" />
		<tag k="name" v="Haugen" />
		<tag k="place" v="farm" />
		<tag k="ssr:stedsnr" v="920513" />
	</node>
	<node lat="61.0655489935128" lon="7.818330199672537" id="-45479">
		<tag k="fixme" v="consider place=hamlet" />
		<tag k="name" v="Voldum" />
		<tag k="place" v="farm" />
		<tag k="ssr:stedsnr" v="920519" />
	</node>
	<node lat="61.08346111223282" lon="7.367719452735376" id="-45484">
		<tag k="alt_name" v="Glipstølen, øvre" />
		<tag k="historic" v="shieling" />
		<tag k="name" v="Øvre Glipstølen" />
		<tag k="place" v="isolated_dwelling" />
		<tag k="ssr:stedsnr" v="920743" />
	</node>
	<node lat="61.06657500178858" lon="7.688458331538815" id="-45488">
		<tag k="historic" v="shieling" />
		<tag k="name" v="Øvre Seltastølen" />
		<tag k="place" v="isolated_dwelling" />
		<tag k="ssr:stedsnr" v="920842" />
	</node>
	<node lat="61.078655554681575" lon="7.893536108034046" id="-45514">
		<tag k="name" v="Smeby" />
		<tag k="place" v="farm" />
		<tag k="ssr:stedsnr" v="957822" />
	</node>
	<node lat="61.07603687431608" lon="7.843081742701967" id="-45516">
		<tag k="fixme" v="consider place=hamlet" />
		<tag k="name" v="Hillestad" />
		<tag k="place" v="farm" />
		<tag k="ssr:stedsnr" v="958840" />
	</node>
	<node lat="61.100834692682206" lon="7.49660426417611" id="-45517">
		<tag k="name" v="Einemoen" />
		<tag k="place" v="locality" />
		<tag k="ssr:stedsnr" v="979330" />
	</node>
	<node lat="61.10072012808006" lon="7.4239167880107475" id="-45518">
		<tag k="fixme" v="consider place=hamlet" />
		<tag k="name" v="Haugane" />
		<tag k="place" v="farm" />
		<tag k="ssr:stedsnr" v="979331" />
	</node>
	<node lat="61.05903797155895" lon="7.8172059756891015" id="-45519">
		<tag k="fixme" v="consider place=hamlet" />
		<tag k="name" v="Lo" />
		<tag k="place" v="farm" />
		<tag k="ssr:stedsnr" v="979334" />
	</node>
	<node lat="61.07146862294126" lon="7.90552866357767" id="-45520">
		<tag k="name" v="Tungeteigen" />
		<tag k="place" v="locality" />
		<tag k="ssr:stedsnr" v="979335" />
	</node>
	<node lat="61.110959725642246" lon="8.035232120953221" id="-45521">
		<tag k="fixme" v="consider place=hamlet" />
		<tag k="name" v="Maristova" />
		<tag k="place" v="farm" />
		<tag k="ssr:stedsnr" v="979337" />
	</node>
	<node lat="61.02224198965042" lon="8.041580074905955" id="-45522">
		<tag k="fixme" v="consider tourism=alpine_hut or tourism=chalet" />
		<tag k="name" v="Skarvheim" />
		<tag k="old_name" v="Breistølbu" />
		<tag k="ssr:stedsnr" v="979886" />
		<tag k="tourism" v="wilderness_hut" />
	</node>
	<node lat="60.99517500114943" lon="7.685908334267531" id="-45533">
		<tag k="name" v="Nysætri" />
		<tag k="place" v="locality" />
		<tag k="ssr:stedsnr" v="9488" />
	</node>
	<node lat="61.07522867493457" lon="7.51486126244848" id="-45541">
		<tag k="fixme" v="consider place=hamlet" />
		<tag k="name" v="Færestad" />
		<tag k="place" v="farm" />
		<tag k="ssr:stedsnr" v="10798" />
	</node>
	<node lat="61.09882500011347" lon="7.602863895739609" id="-45544">
		<tag k="historic" v="shieling" />
		<tag k="name" v="Katteleinstølen" />
		<tag k="place" v="isolated_dwelling" />
		<tag k="ssr:stedsnr" v="10817" />
	</node>
	<node lat="61.061958331542534" lon="7.523136111232676" id="-45551">
		<tag k="name" v="Øvergardsøyni" />
		<tag k="place" v="locality" />
		<tag k="ssr:stedsnr" v="10849" />
	</node>
	<node lat="61.0534510063753" lon="7.571538026503398" id="-45552">
		<tag k="fixme" v="consider place=hamlet" />
		<tag k="name" v="Nedre Ljøsne" />
		<tag k="place" v="farm" />
		<tag k="ssr:stedsnr" v="10868" />
	</node>
	<node lat="61.04914166595628" lon="7.54012500768949" id="-45570">
		<tag k="name" v="Lund" />
		<tag k="place" v="farm" />
		<tag k="ssr:stedsnr" v="47733" />
	</node>
	<node lat="61.09650751460654" lon="7.073472214914916" id="-45581">
		<tag k="fixme" v="consider place=hamlet" />
		<tag k="name" v="Stølen" />
		<tag k="place" v="farm" />
		<tag k="ssr:stedsnr" v="70445" />
	</node>
	<node lat="61.099282810728745" lon="7.078151699095359" id="-45582">
		<tag k="fixme" v="consider place=hamlet" />
		<tag k="name" v="Nyborg" />
		<tag k="place" v="farm" />
		<tag k="ssr:stedsnr" v="70447" />
	</node>
	<node lat="61.10778888910052" lon="7.322805552766207" id="-45583">
		<tag k="historic" v="shieling" />
		<tag k="name" v="Vårstølen" />
		<tag k="place" v="isolated_dwelling" />
		<tag k="ssr:stedsnr" v="70452" />
	</node>
	<node lat="61.1127388901303" lon="7.325866662541884" id="-45584">
		<tag k="name" v="Åreflaten" />
		<tag k="place" v="locality" />
		<tag k="ssr:stedsnr" v="70454" />
	</node>
	<node lat="61.07636964179283" lon="7.977766805672246" id="-45586">
		<tag k="alt_name" v="Ulviksbakken" />
		<tag k="fixme" v="consider place=hamlet" />
		<tag k="name" v="Ulvisbakken" />
		<tag k="place" v="farm" />
		<tag k="ssr:stedsnr" v="70516" />
	</node>
	<node lat="61.16406667076828" lon="8.001788880501039" id="-45588">
		<tag k="name" v="Sluten" />
		<tag k="place" v="isolated_dwelling" />
		<tag k="ssr:stedsnr" v="70851" />
	</node>
	<node lat="61.094861108698396" lon="7.873811115140845" id="-45591">
		<tag k="alt_name" v="Nedre Sprakehaug" />
		<tag k="name" v="Sprakehaugen" />
		<tag k="place" v="farm" />
		<tag k="ssr:stedsnr" v="70959" />
	</node>
	<node lat="61.144852778569394" lon="7.445050007202689" id="-45595">
		<tag k="alt_name" v="Fagerset" />
		<tag k="historic" v="shieling" />
		<tag k="name" v="Aspvikstølen" />
		<tag k="place" v="isolated_dwelling" />
		<tag k="ssr:stedsnr" v="71306" />
	</node>
	<node lat="61.04939198256665" lon="7.757097174651768" id="-45597">
		<tag k="alt_name" v="Øygarden, nedre" />
		<tag k="fixme" v="consider place=hamlet" />
		<tag k="name" v="Nedre Øygarden" />
		<tag k="place" v="farm" />
		<tag k="ssr:stedsnr" v="71595" />
	</node>
	<node lat="61.06058610765396" lon="7.687555547818336" id="-45607">
		<tag k="historic" v="shieling" />
		<tag k="name" v="Nedre Seltastølen" />
		<tag k="place" v="isolated_dwelling" />
		<tag k="ssr:stedsnr" v="71846" />
	</node>
	<node lat="60.95666111095378" lon="7.778650007369276" id="-45610">
		<tag k="name" v="Veidemannsbu" />
		<tag k="place" v="isolated_dwelling" />
		<tag k="ssr:stedsnr" v="82017" />
	</node>
	<node lat="61.03995278064503" lon="7.607722226575783" id="-45615">
		<tag k="barrier" v="fence" />
		<tag k="name" v="Ingridgjerdet" />
		<tag k="ssr:stedsnr" v="105049" />
	</node>
	<node lat="61.08670555682242" lon="7.888583327698104" id="-45641">
		<tag k="name" v="Lunde" />
		<tag k="place" v="farm" />
		<tag k="ssr:stedsnr" v="107786" />
	</node>
	<node lat="61.050686114426924" lon="7.811113886372572" id="-45645">
		<tag k="name" v="Bakken" />
		<tag k="place" v="farm" />
		<tag k="ssr:stedsnr" v="107933" />
	</node>
	<node lat="61.01265000299009" lon="8.134305561225343" id="-45650">
		<tag k="name" v="Elvetot" />
		<tag k="place" v="isolated_dwelling" />
		<tag k="ssr:stedsnr" v="128724" />
	</node>
	<node lat="61.09486944056619" lon="7.876927776555081" id="-45665">
		<tag k="name" v="Solum" />
		<tag k="place" v="farm" />
		<tag k="ssr:stedsnr" v="130958" />
	</node>
	<node lat="61.08925000407034" lon="7.409849999266916" id="-45670">
		<tag k="name" v="Brattli" />
		<tag k="place" v="farm" />
		<tag k="ssr:stedsnr" v="131791" />
	</node>
	<node lat="61.096355557481054" lon="7.46306944972835" id="-45672">
		<tag k="historic" v="shieling" />
		<tag k="name" v="Ekrestølen" />
		<tag k="place" v="isolated_dwelling" />
		<tag k="ssr:stedsnr" v="131820" />
	</node>
	<node lat="61.10767777265479" lon="7.5016916044820645" id="-45674">
		<tag k="alt_name" v="Stødnum" />
		<tag k="fixme" v="consider place=hamlet" />
		<tag k="name" v="Stødno" />
		<tag k="place" v="farm" />
		<tag k="ssr:stedsnr" v="131833" />
	</node>
	<node lat="61.07905000005973" lon="7.549886108623705" id="-45675">
		<tag k="historic" v="shieling" />
		<tag k="name" v="Freibotnen" />
		<tag k="place" v="isolated_dwelling" />
		<tag k="ssr:stedsnr" v="131853" />
	</node>
	<node lat="60.93332500145707" lon="7.764452772824835" id="-45677">
		<tag k="name" v="Erakerhytta" />
		<tag k="place" v="isolated_dwelling" />
		<tag k="ssr:stedsnr" v="142076" />
	</node>
	<node lat="60.900227781171374" lon="7.72209999192022" id="-45678">
		<tag k="name" v="Eivindbu" />
		<tag k="place" v="isolated_dwelling" />
		<tag k="ssr:stedsnr" v="142078" />
	</node>
	<node lat="61.078952773319884" lon="7.973233329511018" id="-45682">
		<tag k="name" v="Hagastølen" />
		<tag k="place" v="locality" />
		<tag k="ssr:stedsnr" v="229395" />
	</node>
	<node lat="61.05403333523951" lon="7.742380554059726" id="-45697">
		<tag k="name" v="Steine" />
		<tag k="place" v="locality" />
		<tag k="ssr:stedsnr" v="167747" />
	</node>
	<node lat="61.08207499914652" lon="7.4070277847044315" id="-45700">
		<tag k="name" v="Sælshagen" />
		<tag k="place" v="locality" />
		<tag k="ssr:stedsnr" v="167852" />
	</node>
	<node lat="61.056599996368185" lon="7.52488888256631" id="-45710">
		<tag k="name" v="Vollheim" />
		<tag k="place" v="farm" />
		<tag k="ssr:stedsnr" v="168733" />
	</node>
	<node lat="61.10487499709953" lon="7.155630560993289" id="-45718">
		<tag k="alt_name" v="Frenningen" />
		<tag k="historic" v="shieling" />
		<tag k="name" v="Frønningsstølen" />
		<tag k="place" v="isolated_dwelling" />
		<tag k="ssr:stedsnr" v="191428" />
	</node>
	<node lat="61.019255554438985" lon="7.498636104808434" id="-45727">
		<tag k="name" v="Grøtadalen" />
		<tag k="place" v="locality" />
		<tag k="ssr:stedsnr" v="191784" />
	</node>
	<node lat="61.05045833443643" lon="7.549730557153683" id="-45728">
		<tag k="name" v="Grøte" />
		<tag k="place" v="farm" />
		<tag k="ssr:stedsnr" v="191785" />
	</node>
	<node lat="61.050416663245684" lon="7.7526305557871344" id="-45742">
		<tag k="alt_name" v="Hegg, nedre" />
		<tag k="name" v="Nedre Hegg" />
		<tag k="place" v="farm" />
		<tag k="ssr:stedsnr" v="192575" />
	</node>
	<node lat="61.04204166559631" lon="7.818874998623776" id="-45744">
		<tag k="name" v="Kallevang" />
		<tag k="place" v="locality" />
		<tag k="ssr:stedsnr" v="192582" />
	</node>
	<node lat="61.13489166723334" lon="7.257516674176883" id="-45745">
		<tag k="name" v="Hausestølen" />
		<tag k="place" v="locality" />
		<tag k="ssr:stedsnr" v="192502" />
	</node>
	<node lat="61.056375000437924" lon="7.960905550002871" id="-45748">
		<tag k="historic" v="shieling" />
		<tag k="name" v="Eråksdalen" />
		<tag k="place" v="isolated_dwelling" />
		<tag k="ssr:stedsnr" v="192538" />
	</node>
	<node lat="61.07515277825404" lon="7.671291664468173" id="-45751">
		<tag k="historic" v="shieling" />
		<tag k="name" v="Horndal" />
		<tag k="place" v="isolated_dwelling" />
		<tag k="ssr:stedsnr" v="192861" />
	</node>
	<node lat="61.10293487000687" lon="7.41957125920751" id="-45754">
		<tag k="fixme" v="consider place=hamlet" />
		<tag k="name" v="Sanden" />
		<tag k="place" v="farm" />
		<tag k="ssr:stedsnr" v="192802" />
	</node>
	<node lat="61.056424103873624" lon="7.5175279850511725" id="-45757">
		<tag k="fixme" v="consider place=hamlet" />
		<tag k="name" v="Øvregard" />
		<tag k="place" v="farm" />
		<tag k="ssr:stedsnr" v="192877" />
	</node>
	<node lat="61.04886116117842" lon="7.602879088345717" id="-45758">
		<tag k="fixme" v="consider place=hamlet" />
		<tag k="name" v="Midt-Ljøsne" />
		<tag k="place" v="farm" />
		<tag k="ssr:stedsnr" v="192885" />
	</node>
	<node lat="61.0434055525401" lon="7.612513884637902" id="-45772">
		<tag k="name" v="Dokken" />
		<tag k="place" v="farm" />
		<tag k="ssr:stedsnr" v="287065" />
	</node>
	<node lat="61.051597219427066" lon="7.579058324234309" id="-45780">
		<tag k="name" v="Blåflat" />
		<tag k="place" v="farm" />
		<tag k="ssr:stedsnr" v="289071" />
	</node>
	<node lat="60.9277694407215" lon="7.597266668166808" id="-45803">
		<tag k="name" v="Perbakk" />
		<tag k="place" v="locality" />
		<tag k="ssr:stedsnr" v="312359" />
	</node>
	<node lat="61.120247224994294" lon="7.3298111161650406" id="-45805">
		<tag k="name" v="Teigen" />
		<tag k="place" v="farm" />
		<tag k="ssr:stedsnr" v="312450" />
	</node>
	<node lat="61.071288886670594" lon="7.834155556686542" id="-45811">
		<tag k="name" v="Fjellstad" />
		<tag k="place" v="farm" />
		<tag k="ssr:stedsnr" v="313529" />
	</node>
	<node lat="61.062111113434185" lon="7.842366672428905" id="-45812">
		<tag k="name" v="Røsli" />
		<tag k="place" v="isolated_dwelling" />
		<tag k="ssr:stedsnr" v="313543" />
	</node>
	<node lat="61.11307500293816" lon="7.480788896843833" id="-45814">
		<tag k="historic" v="shieling" />
		<tag k="name" v="Åsen" />
		<tag k="place" v="isolated_dwelling" />
		<tag k="ssr:stedsnr" v="313259" />
	</node>
	<node lat="61.07915000377626" lon="7.3986027845212945" id="-45818">
		<tag k="historic" v="shieling" />
		<tag k="name" v="Mork" />
		<tag k="place" v="isolated_dwelling" />
		<tag k="ssr:stedsnr" v="313784" />
	</node>
	<node lat="61.088532207926285" lon="7.408802519251042" id="-45819">
		<tag k="alt_name" v="Sæl" />
		<tag k="fixme" v="consider place=hamlet" />
		<tag k="name" v="Sel" />
		<tag k="place" v="farm" />
		<tag k="ssr:stedsnr" v="313794" />
	</node>
	<node lat="61.078338889311" lon="7.852875008085263" id="-45822">
		<tag k="alt_name" v="Midtun" />
		<tag k="name" v="Midttun" />
		<tag k="place" v="farm" />
		<tag k="ssr:stedsnr" v="313952" />
	</node>
	<node lat="61.07385282200948" lon="7.953180744538809" id="-45823">
		<tag k="fixme" v="consider place=hamlet" />
		<tag k="name" v="Borlaug" />
		<tag k="place" v="farm" />
		<tag k="ssr:stedsnr" v="313955" />
	</node>
	<node lat="61.0459989019186" lon="7.6328617158264525" id="-45825">
		<tag k="building" v="industrial" />
		<tag k="name" v="Saltkjelen" />
		<tag k="ssr:stedsnr" v="313879" />
	</node>
	<node lat="60.92798333782034" lon="7.860699997783483" id="-45832">
		<tag k="name" v="Bukkesteinshytta" />
		<tag k="place" v="isolated_dwelling" />
		<tag k="ssr:stedsnr" v="324015" />
	</node>
	<node lat="61.14649166400859" lon="7.410619437995348" id="-45837">
		<tag k="name" v="Vetlevårstølen" />
		<tag k="place" v="locality" />
		<tag k="ssr:stedsnr" v="349288" />
	</node>
	<node lat="61.116858334720185" lon="7.3322555502380515" id="-45841">
		<tag k="name" v="Sva" />
		<tag k="place" v="farm" />
		<tag k="ssr:stedsnr" v="349381" />
	</node>
	<node lat="61.048588888884346" lon="7.55463332486521" id="-45869">
		<tag k="name" v="Kjørnes" />
		<tag k="place" v="farm" />
		<tag k="ssr:stedsnr" v="350714" />
	</node>
	<node lat="61.085355554785615" lon="7.860280562622837" id="-45875">
		<tag k="name" v="Øvre Eggum" />
		<tag k="place" v="farm" />
		<tag k="ssr:stedsnr" v="350798" />
	</node>
	<node lat="61.06075000184964" lon="7.815811103575125" id="-45876">
		<tag k="name" v="Liheim" />
		<tag k="place" v="farm" />
		<tag k="ssr:stedsnr" v="350834" />
	</node>
	<node lat="61.009144445688044" lon="8.12125000274914" id="-45882">
		<tag k="name" v="Osen" />
		<tag k="place" v="isolated_dwelling" />
		<tag k="ssr:stedsnr" v="371638" />
	</node>
	<node lat="61.11321827025092" lon="7.326031504679067" id="-45894">
		<tag k="name" v="Grindateig" />
		<tag k="place" v="farm" />
		<tag k="ssr:stedsnr" v="373466" />
	</node>
	<node lat="61.089044441024555" lon="7.523921592162725" id="-45900">
		<tag k="fixme" v="consider place=hamlet" />
		<tag k="name" v="Hauge" />
		<tag k="place" v="farm" />
		<tag k="ssr:stedsnr" v="373780" />
	</node>
	<node lat="61.01594166592965" lon="7.526699998251871" id="-45903">
		<tag k="historic" v="shieling" />
		<tag k="name" v="Lauvane" />
		<tag k="place" v="isolated_dwelling" />
		<tag k="ssr:stedsnr" v="373940" />
	</node>
	<node lat="61.061977780525304" lon="7.342833341697916" id="-45907">
		<tag k="historic" v="shieling" />
		<tag k="name" v="Hammarsete" />
		<tag k="place" v="isolated_dwelling" />
		<tag k="ssr:stedsnr" v="374767" />
	</node>
	<node lat="61.10058460892452" lon="7.422054964407232" id="-45918">
		<tag k="fixme" v="consider place=hamlet" />
		<tag k="name" v="Sæbø" />
		<tag k="place" v="farm" />
		<tag k="ssr:stedsnr" v="374784" />
	</node>
	<node lat="61.08442500168741" lon="7.4047749938969165" id="-45919">
		<tag k="name" v="Sætre" />
		<tag k="place" v="farm" />
		<tag k="ssr:stedsnr" v="374785" />
	</node>
	<node lat="61.08785826535207" lon="7.40283680108865" id="-45920">
		<tag k="fixme" v="consider place=hamlet" />
		<tag k="name" v="Helland" />
		<tag k="place" v="farm" />
		<tag k="ssr:stedsnr" v="374792" />
	</node>
	<node lat="61.12079166350499" lon="7.860263894072592" id="-45928">
		<tag k="name" v="Fosse" />
		<tag k="place" v="isolated_dwelling" />
		<tag k="ssr:stedsnr" v="494980" />
	</node>
	<node lat="61.0907722236576" lon="7.862533325981905" id="-45945">
		<tag k="name" v="Bergsøyni" />
		<tag k="place" v="farm" />
		<tag k="ssr:stedsnr" v="410776" />
	</node>
	<node lat="61.072938884504225" lon="7.956027769463045" id="-45952">
		<tag k="alt_name" v="Svingen" />
		<tag k="name" v="Hansegjerdet" />
		<tag k="place" v="farm" />
		<tag k="ssr:stedsnr" v="411335" />
	</node>
	<node lat="61.109727777136456" lon="7.13309723149863" id="-45970">
		<tag k="alt_name" v="Vetlefrønningen" />
		<tag k="name" v="Veslefrønningen" />
		<tag k="place" v="farm" />
		<tag k="ssr:stedsnr" v="434431" />
	</node>
	<node lat="61.04464444279789" lon="7.595180553598101" id="-45977">
		<tag k="name" v="Hundsteigane" />
=======
	<node id="-677001" lat="61.0783388893" lon="7.85287500809">
		<tag k="alt_name" v="Midtun" />
		<tag k="name" v="Midttun" />
		<tag k="place" v="farm" />
		<tag k="ssr:stedsnr" v="313952" />
	</node>
	<node id="-676996" lat="61.0864277801" lon="7.98885833221">
		<tag k="name" v="Kleivi" />
		<tag k="place" v="locality" />
		<tag k="ssr:stedsnr" v="313525" />
	</node>
	<node id="-676995" lat="61.0198611111" lon="8.03649444518">
		<tag k="historic" v="shieling" />
		<tag k="name" v="Stardalen" />
		<tag k="place" v="locality" />
		<tag k="ssr:stedsnr" v="313521" />
	</node>
	<node id="-676994" lat="61.0393295919" lon="7.81143824288">
		<tag k="alt_name" v="Trove" />
		<tag k="name" v="Tråo" />
		<tag k="place" v="hamlet" />
		<tag k="ssr:stedsnr" v="313508" />
	</node>
	<node id="-676992" lat="61.1466429538" lon="7.37495715973">
		<tag k="fixme" v="consider place=hamlet" />
		<tag k="name" v="Fodnes" />
		<tag k="place" v="farm" />
		<tag k="ssr:stedsnr" v="313274" />
	</node>
	<node id="-676991" lat="61.1130750029" lon="7.48078889684">
		<tag k="historic" v="shieling" />
		<tag k="name" v="Åsen" />
		<tag k="place" v="locality" />
		<tag k="ssr:stedsnr" v="313259" />
	</node>
	<node id="-676953" lat="61.0422305595" lon="7.61976944426">
		<tag k="name" v="Nygard" />
		<tag k="place" v="farm" />
		<tag k="ssr:stedsnr" v="471111" />
	</node>
	<node id="-676950" lat="61.0694416682" lon="7.50935278199">
		<tag k="name" v="Moldebo" />
		<tag k="place" v="farm" />
		<tag k="ssr:stedsnr" v="470526" />
	</node>
	<node id="-676931" lat="61.0522750042" lon="7.52827500009">
		<tag k="name" v="Haugo" />
		<tag k="place" v="farm" />
		<tag k="ssr:stedsnr" v="289710" />
	</node>
	<node id="-676905" lat="61.0434055525" lon="7.61251388464">
		<tag k="name" v="Dokken" />
		<tag k="place" v="farm" />
		<tag k="ssr:stedsnr" v="287065" />
	</node>
	<node id="-676902" lat="61.0452380042" lon="7.77442219293">
		<tag k="fixme" v="consider place=hamlet" />
		<tag k="name" v="Nedre Kvame" />
		<tag k="place" v="farm" />
		<tag k="ssr:stedsnr" v="252502" />
	</node>
	<node id="-676886" lat="61.10293487" lon="7.41957125921">
		<tag k="fixme" v="consider place=hamlet" />
		<tag k="name" v="Sanden" />
		<tag k="place" v="farm" />
		<tag k="ssr:stedsnr" v="192802" />
	</node>
	<node id="-676884" lat="61.1348916672" lon="7.25751667418">
		<tag k="name" v="Hausestølen" />
		<tag k="place" v="locality" />
		<tag k="ssr:stedsnr" v="192502" />
	</node>
	<node id="-676880" lat="61.0584305517" lon="7.71328055471">
		<tag k="name" v="Dragesete" />
		<tag k="place" v="locality" />
		<tag k="ssr:stedsnr" v="191809" />
	</node>
	<node id="-676874" lat="61.1048749971" lon="7.15563056099">
		<tag k="alt_name" v="Frenningen" />
		<tag k="historic" v="shieling" />
		<tag k="name" v="Frønningsstølen" />
		<tag k="place" v="locality" />
		<tag k="ssr:stedsnr" v="191428" />
	</node>
	<node id="-676865" lat="61.0364500027" lon="7.30246945122">
		<tag k="historic" v="shieling" />
		<tag k="name" v="Vardahaug" />
		<tag k="place" v="locality" />
		<tag k="ssr:stedsnr" v="289888" />
	</node>
	<node id="-676855" lat="61.0235055537" lon="8.01988054996">
		<tag k="name" v="Øystølane" />
		<tag k="place" v="locality" />
		<tag k="ssr:stedsnr" v="289330" />
	</node>
	<node id="-676843" lat="61.0515972194" lon="7.57905832423">
		<tag k="name" v="Blåflat" />
		<tag k="place" v="farm" />
		<tag k="ssr:stedsnr" v="289071" />
	</node>
	<node id="-676833" lat="61.0820749991" lon="7.4070277847">
		<tag k="name" v="Sælshagen" />
		<tag k="place" v="locality" />
		<tag k="ssr:stedsnr" v="167852" />
	</node>
	<node id="-676819" lat="61.0963555575" lon="7.46306944973">
		<tag k="historic" v="shieling" />
		<tag k="name" v="Ekrestølen" />
		<tag k="place" v="locality" />
		<tag k="ssr:stedsnr" v="131820" />
	</node>
	<node id="-676817" lat="61.0957450613" lon="7.52444702891">
		<tag k="fixme" v="consider place=hamlet" />
		<tag k="name" v="Hunderi" />
		<tag k="place" v="farm" />
		<tag k="ssr:stedsnr" v="131812" />
	</node>
	<node id="-676815" lat="61.0607506326" lon="7.72837403426">
		<tag k="fixme" v="consider place=hamlet" />
		<tag k="name" v="Galdane" />
		<tag k="place" v="farm" />
		<tag k="ssr:stedsnr" v="131522" />
	</node>
	<node id="-676814" lat="61.0710499994" lon="7.73463611974">
		<tag k="alt_name" v="Ljøsndalen, heimre" />
		<tag k="name" v="Heimre Ljøsndalen" />
		<tag k="place" v="isolated_dwelling" />
		<tag k="ssr:stedsnr" v="131509" />
	</node>
	<node id="-676812" lat="61.0521907859" lon="7.70180757075">
		<tag k="fixme" v="consider place=hamlet" />
		<tag k="name" v="Seltun" />
		<tag k="place" v="farm" />
		<tag k="ssr:stedsnr" v="130809" />
	</node>
	<node id="-676807" lat="61.012650003" lon="8.13430556123">
		<tag k="name" v="Elvetot" />
		<tag k="place" v="isolated_dwelling" />
		<tag k="ssr:stedsnr" v="128724" />
	</node>
	<node id="-676804" lat="61.0560249977" lon="7.75176666214">
		<tag k="historic" v="shieling" />
		<tag k="name" v="Skori" />
		<tag k="place" v="locality" />
		<tag k="ssr:stedsnr" v="264346" />
	</node>
	<node id="-676801" lat="60.953586113" lon="7.77077500387">
		<tag k="name" v="Nilsehytta" />
		<tag k="place" v="isolated_dwelling" />
		<tag k="ssr:stedsnr" v="263087" />
	</node>
	<node id="-676791" lat="61.1056103273" lon="7.5111946607">
		<tag k="fixme" v="consider place=hamlet" />
		<tag k="name" v="Øye" />
		<tag k="place" v="farm" />
		<tag k="ssr:stedsnr" v="253817" />
	</node>
	<node id="-676786" lat="61.0335555548" lon="7.77445000415">
		<tag k="historic" v="shieling" />
		<tag k="name" v="Reset" />
		<tag k="place" v="locality" />
		<tag k="ssr:stedsnr" v="253540" />
	</node>
	<node id="-676785" lat="61.0452083309" lon="8.00576388458">
		<tag k="name" v="Listølen" />
		<tag k="place" v="locality" />
		<tag k="ssr:stedsnr" v="253536" />
	</node>
	<node id="-676783" lat="61.1558157095" lon="7.43839609322">
		<tag k="name" v="Skori" />
		<tag k="place" v="farm" />
		<tag k="ssr:stedsnr" v="253320" />
	</node>
	<node id="-676782" lat="61.1527388884" lon="7.41481388705">
		<tag k="name" v="Sandnes" />
		<tag k="place" v="farm" />
		<tag k="ssr:stedsnr" v="253314" />
	</node>
	<node id="-676777" lat="61.1069999983" lon="7.85986944791">
		<tag k="name" v="Igdeset" />
		<tag k="place" v="locality" />
		<tag k="ssr:stedsnr" v="252956" />
	</node>
	<node id="-676772" lat="61.0867474439" lon="7.86032697949">
		<tag k="fixme" v="consider place=hamlet" />
		<tag k="name" v="Hovland" />
		<tag k="place" v="farm" />
		<tag k="ssr:stedsnr" v="252930" />
	</node>
	<node id="-676764" lat="61.0707019346" lon="7.93619522649">
		<tag k="fixme" v="consider place=hamlet" />
		<tag k="name" v="Eråk" />
		<tag k="place" v="farm" />
		<tag k="ssr:stedsnr" v="252490" />
	</node>
	<node id="-676752" lat="61.1172494385" lon="7.16945872912">
		<tag k="fixme" v="consider place=hamlet" />
		<tag k="name" v="Indre Frønningen" />
		<tag k="place" v="farm" />
		<tag k="ssr:stedsnr" v="251495" />
	</node>
	<node id="-676747" lat="61.0244527816" lon="8.03602222245">
		<tag k="fixme" v="consider tourism=alpine_hut or tourism=chalet" />
		<tag k="name" v="Breistølen Fjellstue" />
		<tag k="old_name" v="Breistølen" />
		<tag k="ssr:stedsnr" v="87121" />
		<tag k="tourism" v="wilderness_hut" />
	</node>
	<node id="-676745" lat="60.956661111" lon="7.77865000737">
		<tag k="name" v="Veidemannsbu" />
		<tag k="place" v="isolated_dwelling" />
		<tag k="ssr:stedsnr" v="82017" />
	</node>
	<node id="-676741" lat="61.0502638852" lon="7.82668333769">
		<tag k="name" v="Dekkene" />
		<tag k="place" v="locality" />
		<tag k="ssr:stedsnr" v="71531" />
	</node>
	<node id="-676734" lat="61.1448527786" lon="7.4450500072">
		<tag k="alt_name" v="Fagerset" />
		<tag k="historic" v="shieling" />
		<tag k="name" v="Aspvikstølen" />
		<tag k="place" v="locality" />
		<tag k="ssr:stedsnr" v="71306" />
	</node>
	<node id="-676730" lat="61.05256944" lon="7.64121110884">
		<tag k="name" v="Sletten" />
		<tag k="place" v="farm" />
		<tag k="ssr:stedsnr" v="70804" />
	</node>
	<node id="-676727" lat="61.0763696418" lon="7.97776680567">
		<tag k="alt_name" v="Ulviksbakken" />
		<tag k="fixme" v="consider place=hamlet" />
		<tag k="name" v="Ulvisbakken" />
		<tag k="place" v="farm" />
		<tag k="ssr:stedsnr" v="70516" />
	</node>
	<node id="-676726" lat="61.073150212" lon="7.90456131205">
		<tag k="fixme" v="consider place=hamlet" />
		<tag k="name" v="Teigum" />
		<tag k="place" v="farm" />
		<tag k="ssr:stedsnr" v="70510" />
	</node>
	<node id="-676719" lat="60.9789250042" lon="7.53162499745">
		<tag k="name" v="Skorstøl" />
		<tag k="place" v="locality" />
		<tag k="ssr:stedsnr" v="69514" />
	</node>
	<node id="-676712" lat="61.0789527733" lon="7.97323332951">
		<tag k="name" v="Hagastølen" />
		<tag k="place" v="locality" />
		<tag k="ssr:stedsnr" v="229395" />
	</node>
	<node id="-676688" lat="61.0454499983" lon="7.58294444286">
		<tag k="barrier" v="fence" />
		<tag k="name" v="Sandgjerdet" />
		<tag k="ssr:stedsnr" v="228100" />
	</node>
	<node id="-676682" lat="61.0546999441" lon="7.67959885431">
		<tag k="fixme" v="consider place=hamlet" />
		<tag k="name" v="Nordre Bjørkum" />
		<tag k="place" v="farm" />
		<tag k="ssr:stedsnr" v="21803" />
	</node>
	<node id="-676681" lat="60.8951749986" lon="7.72056943866">
		<tag k="name" v="Kvevasshytta" />
		<tag k="place" v="isolated_dwelling" />
		<tag k="ssr:stedsnr" v="21148" />
	</node>
	<node id="-676680" lat="61.0619583315" lon="7.52313611123">
		<tag k="name" v="Øvergardsøyni" />
		<tag k="place" v="locality" />
		<tag k="ssr:stedsnr" v="10849" />
	</node>
	<node id="-676679" lat="61.0988250001" lon="7.60286389574">
		<tag k="historic" v="shieling" />
		<tag k="name" v="Katteleinstølen" />
		<tag k="place" v="locality" />
		<tag k="ssr:stedsnr" v="10817" />
	</node>
	<node id="-676676" lat="61.1036827051" lon="7.43274859651">
		<tag k="name" v="Røyrnes" />
		<tag k="place" v="farm" />
		<tag k="ssr:stedsnr" v="10809" />
	</node>
	<node id="-676673" lat="61.0631583348" lon="7.72641666024">
		<tag k="historic" v="shieling" />
		<tag k="name" v="Fureset" />
		<tag k="place" v="locality" />
		<tag k="ssr:stedsnr" v="10536" />
	</node>
	<node id="-676669" lat="61.0384194464" lon="8.00877500832">
		<tag k="historic" v="shieling" />
		<tag k="name" v="Eråksstølen" />
		<tag k="place" v="locality" />
		<tag k="ssr:stedsnr" v="10503" />
	</node>
	<node id="-678602" lat="61.0439666263" lon="7.59029019431">
		<tag k="name" v="Nybø" />
		<tag k="place" v="farm" />
		<tag k="ssr:stedsnr" v="1074651" />
	</node>
	<node id="-678601" lat="61.0484105626" lon="7.56955828745">
		<tag k="name" v="Ytstabø" />
		<tag k="place" v="farm" />
		<tag k="ssr:stedsnr" v="1074649" />
	</node>
	<node id="-678594" lat="61.1109597256" lon="8.03523212095">
		<tag k="fixme" v="consider place=hamlet" />
		<tag k="name" v="Maristova" />
		<tag k="place" v="farm" />
		<tag k="ssr:stedsnr" v="979337" />
	</node>
	<node id="-678593" lat="61.0714686229" lon="7.90552866358">
		<tag k="name" v="Tungeteigen" />
		<tag k="place" v="locality" />
		<tag k="ssr:stedsnr" v="979335" />
	</node>
	<node id="-678592" lat="61.0590379716" lon="7.81720597569">
		<tag k="fixme" v="consider place=hamlet" />
		<tag k="name" v="Lo" />
		<tag k="place" v="farm" />
		<tag k="ssr:stedsnr" v="979334" />
	</node>
	<node id="-678591" lat="61.1005384751" lon="7.42345280145">
		<tag k="fixme" v="consider place=hamlet" />
		<tag k="name" v="Haugane" />
		<tag k="place" v="farm" />
		<tag k="ssr:stedsnr" v="979331" />
	</node>
	<node id="-678590" lat="61.1008346927" lon="7.49660426418">
		<tag k="name" v="Einemoen" />
		<tag k="place" v="locality" />
		<tag k="ssr:stedsnr" v="979330" />
	</node>
	<node id="-678587" lat="61.0760368743" lon="7.8430817427">
		<tag k="fixme" v="consider place=hamlet" />
		<tag k="name" v="Hillestad" />
		<tag k="place" v="farm" />
		<tag k="ssr:stedsnr" v="958840" />
	</node>
	<node id="-678583" lat="61.0786555547" lon="7.89353610803">
		<tag k="name" v="Smeby" />
		<tag k="place" v="farm" />
		<tag k="ssr:stedsnr" v="957822" />
	</node>
	<node id="-678577" lat="61.0364777782" lon="7.62879444562">
		<tag k="name" v="Øvre Rå" />
		<tag k="place" v="farm" />
		<tag k="ssr:stedsnr" v="957530" />
	</node>
	<node id="-678544" lat="61.050458331" lon="7.75289167338">
		<tag k="name" v="Sjurhaugen" />
		<tag k="place" v="farm" />
		<tag k="ssr:stedsnr" v="871788" />
	</node>
	<node id="-678543" lat="61.0952166629" lon="8.00598055444">
		<tag k="name" v="Skredbakken" />
		<tag k="place" v="locality" />
		<tag k="ssr:stedsnr" v="871328" />
	</node>
	<node id="-678542" lat="60.974438892" lon="7.86362500516">
		<tag k="name" v="Fossehytta" />
		<tag k="place" v="isolated_dwelling" />
		<tag k="ssr:stedsnr" v="870018" />
	</node>
	<node id="-678537" lat="61.0585888907" lon="7.65582500598">
		<tag k="alt_name" v="Saude" />
		<tag k="historic" v="shieling" />
		<tag k="name" v="Saue" />
		<tag k="place" v="locality" />
		<tag k="ssr:stedsnr" v="860877" />
	</node>
	<node id="-678536" lat="61.0437388853" lon="7.83900000099">
		<tag k="name" v="Kyrkjevollstølen" />
		<tag k="place" v="locality" />
		<tag k="ssr:stedsnr" v="860532" />
	</node>
	<node id="-678527" lat="61.0796829233" lon="7.85519410097">
		<tag k="fixme" v="consider place=hamlet" />
		<tag k="name" v="Nygard" />
		<tag k="place" v="farm" />
		<tag k="ssr:stedsnr" v="859924" />
	</node>
	<node id="-678520" lat="61.0470578211" lon="7.53287731247">
		<tag k="fixme" v="consider place=hamlet" />
		<tag k="name" v="Grøte" />
		<tag k="place" v="farm" />
		<tag k="ssr:stedsnr" v="859802" />
	</node>
	<node id="-678518" lat="61.0164333366" lon="7.67783055323">
		<tag k="name" v="Spavang" />
		<tag k="place" v="locality" />
		<tag k="ssr:stedsnr" v="859795" />
	</node>
	<node id="-678513" lat="61.0750194459" lon="7.90605833415">
		<tag k="name" v="Kruhaug" />
		<tag k="place" v="farm" />
		<tag k="ssr:stedsnr" v="859500" />
	</node>
	<node id="-678512" lat="61.0753351277" lon="7.89649409926">
		<tag k="fixme" v="consider place=hamlet" />
		<tag k="name" v="Skårheim" />
		<tag k="place" v="farm" />
		<tag k="ssr:stedsnr" v="859497" />
	</node>
	<node id="-678505" lat="60.9426583325" lon="7.6975416726">
		<tag k="name" v="Øysteinsgard" />
		<tag k="place" v="locality" />
		<tag k="ssr:stedsnr" v="858399" />
	</node>
	<node id="-678503" lat="60.8839361122" lon="7.68960000745">
		<tag k="name" v="Liatangane" />
		<tag k="place" v="locality" />
		<tag k="ssr:stedsnr" v="858341" />
	</node>
	<node id="-678491" lat="61.0438361112" lon="7.97194444773">
		<tag k="name" v="Nilsegjerdet" />
		<tag k="place" v="locality" />
		<tag k="ssr:stedsnr" v="836298" />
	</node>
	<node id="-678484" lat="61.0853305545" lon="7.88857499613">
		<tag k="name" v="Nyborg" />
		<tag k="place" v="farm" />
		<tag k="ssr:stedsnr" v="835778" />
	</node>
	<node id="-678472" lat="61.063894444" lon="7.5080027721">
		<tag k="name" v="Lærdalstunnelen næringspark" />
		<tag k="place" v="quarter" />
		<tag k="ssr:stedsnr" v="814319" />
	</node>
	<node id="-678471" lat="61.0477320599" lon="7.7693245899">
		<tag k="fixme" v="consider place=hamlet" />
		<tag k="name" v="Lille Husum" />
		<tag k="place" v="farm" />
		<tag k="ssr:stedsnr" v="810839" />
	</node>
	<node id="-678470" lat="60.9675277745" lon="7.79790277373">
		<tag k="name" v="Grånoshytta" />
		<tag k="place" v="isolated_dwelling" />
		<tag k="ssr:stedsnr" v="809077" />
	</node>
	<node id="-678462" lat="61.0534110738" lon="7.52880026212">
		<tag k="fixme" v="consider place=hamlet" />
		<tag k="name" v="Voll" />
		<tag k="place" v="farm" />
		<tag k="ssr:stedsnr" v="799871" />
	</node>
	<node id="-678458" lat="61.100975004" lon="7.56739166308">
		<tag k="historic" v="shieling" />
		<tag k="name" v="Liastølen" />
		<tag k="place" v="locality" />
		<tag k="ssr:stedsnr" v="799823" />
	</node>
	<node id="-678455" lat="61.0203916695" lon="7.74135278479">
		<tag k="historic" v="shieling" />
		<tag k="name" v="Myrsete" />
		<tag k="place" v="locality" />
		<tag k="ssr:stedsnr" v="799539" />
	</node>
	<node id="-678452" lat="61.0436750014" lon="8.00727500124">
		<tag k="historic" v="shieling" />
		<tag k="name" v="Galdestølen" />
		<tag k="place" v="locality" />
		<tag k="ssr:stedsnr" v="799517" />
	</node>
	<node id="-678447" lat="61.1663833308" lon="7.44319166165">
		<tag k="alt_name" v="Årerusti" />
		<tag k="name" v="Offerdalsgjerdet" />
		<tag k="place" v="locality" />
		<tag k="ssr:stedsnr" v="799289" />
	</node>
	<node id="-678443" lat="61.0966694479" lon="8.02125000887">
		<tag k="name" v="Kolsmork" />
		<tag k="place" v="isolated_dwelling" />
		<tag k="ssr:stedsnr" v="798945" />
	</node>
	<node id="-678441" lat="61.0884031372" lon="7.99668225054">
		<tag k="fixme" v="consider place=hamlet" />
		<tag k="name" v="Gram" />
		<tag k="place" v="farm" />
		<tag k="ssr:stedsnr" v="798935" />
	</node>
	<node id="-678436" lat="61.0439000032" lon="7.6150027746">
		<tag k="name" v="Ytri" />
		<tag k="place" v="farm" />
		<tag k="ssr:stedsnr" v="798785" />
	</node>
	<node id="-678435" lat="61.0476570937" lon="7.57634701711">
		<tag k="fixme" v="consider place=hamlet" />
		<tag k="name" v="Bø" />
		<tag k="place" v="farm" />
		<tag k="ssr:stedsnr" v="798784" />
	</node>
	<node id="-678431" lat="60.9964583353" lon="7.50603611244">
		<tag k="alt_name" v="Øvredalen" />
		<tag k="name" v="Øvredal" />
		<tag k="place" v="locality" />
		<tag k="ssr:stedsnr" v="798457" />
	</node>
	<node id="-678430" lat="60.9856888909" lon="7.6766694382">
		<tag k="name" v="Hola" />
		<tag k="place" v="locality" />
		<tag k="ssr:stedsnr" v="798451" />
	</node>
	<node id="-678427" lat="61.1065410263" lon="7.08761892465">
		<tag k="building" v="industrial" />
		<tag k="name" v="Sagi" />
		<tag k="ssr:stedsnr" v="798434" />
	</node>
	<node id="-678411" lat="61.0743861137" lon="7.83939722677">
		<tag k="name" v="Hovdheim" />
		<tag k="place" v="farm" />
		<tag k="ssr:stedsnr" v="775826" />
	</node>
	<node id="-678398" lat="61.0933388908" lon="7.87004722791">
		<tag k="name" v="Steinklepp Camping" />
		<tag k="ssr:stedsnr" v="774789" />
		<tag k="tourism" v="camp_site" />
	</node>
	<node id="-678397" lat="61.0914833314" lon="7.88218332451">
		<tag k="name" v="Olsrud" />
		<tag k="place" v="farm" />
		<tag k="ssr:stedsnr" v="774784" />
	</node>
	<node id="-678392" lat="61.0244388861" lon="7.80970833065">
		<tag k="name" v="Engjånstølane" />
		<tag k="place" v="locality" />
		<tag k="ssr:stedsnr" v="774887" />
	</node>
	<node id="-678391" lat="61.0465444403" lon="7.77938055558">
		<tag k="name" v="Sletthagen" />
>>>>>>> e1d4bc35ff8a6074a6f2e91616a996b547c36f15
		<tag k="place" v="farm" />
		<tag k="ssr:stedsnr" v="774766" />
	</node>
<<<<<<< HEAD
	<node lat="61.08981110844308" lon="8.003086113781634" id="-45980">
		<tag k="name" v="Enden" />
		<tag k="place" v="farm" />
		<tag k="ssr:stedsnr" v="434942" />
	</node>
	<node lat="61.09181584204388" lon="7.871926349097889" id="-45981">
		<tag k="fixme" v="consider place=hamlet" />
		<tag k="name" v="Tufte" />
		<tag k="place" v="farm" />
		<tag k="ssr:stedsnr" v="434945" />
	</node>
	<node lat="61.093675003539076" lon="7.798611109778334" id="-45984">
		<tag k="name" v="Fagersete" />
		<tag k="place" v="locality" />
		<tag k="ssr:stedsnr" v="434958" />
	</node>
	<node lat="61.03218055963396" lon="7.821538881134985" id="-45989">
		<tag k="name" v="Leikhaug" />
		<tag k="place" v="locality" />
		<tag k="ssr:stedsnr" v="435538" />
	</node>
	<node lat="61.027049998197334" lon="7.8160083277525585" id="-45990">
		<tag k="historic" v="shieling" />
		<tag k="name" v="Engi" />
		<tag k="place" v="isolated_dwelling" />
		<tag k="ssr:stedsnr" v="435547" />
	</node>
	<node lat="61.051872219500005" lon="7.970830563980652" id="-46002">
		<tag k="historic" v="shieling" />
		<tag k="name" v="Eggjestølen" />
		<tag k="place" v="isolated_dwelling" />
		<tag k="ssr:stedsnr" v="495496" />
	</node>
	<node lat="61.03337499857939" lon="7.805836102660833" id="-46003">
		<tag k="name" v="Grimsøyn" />
		<tag k="place" v="farm" />
		<tag k="ssr:stedsnr" v="495501" />
	</node>
	<node lat="61.05595833116835" lon="7.814158326954609" id="-46006">
		<tag k="alt_name" v="Liøyni" />
		<tag k="name" v="Gjesdal" />
		<tag k="place" v="farm" />
		<tag k="ssr:stedsnr" v="495548" />
	</node>
	<node lat="61.0815249976676" lon="7.427238881555152" id="-46009">
		<tag k="historic" v="shieling" />
		<tag k="name" v="Selslii" />
		<tag k="place" v="isolated_dwelling" />
		<tag k="ssr:stedsnr" v="495784" />
	</node>
	<node lat="61.09603720959285" lon="7.411758662571436" id="-46010">
		<tag k="alt_name" v="Bjørkum" />
		<tag k="fixme" v="consider place=hamlet" />
		<tag k="name" v="Bjørko" />
		<tag k="place" v="farm" />
		<tag k="ssr:stedsnr" v="495786" />
	</node>
	<node lat="61.097644446355254" lon="7.5134416588498425" id="-46011">
		<tag k="name" v="Hagusane" />
		<tag k="place" v="farm" />
		<tag k="ssr:stedsnr" v="495795" />
	</node>
	<node lat="61.04749631282786" lon="7.613348282809666" id="-46013">
		<tag k="fixme" v="consider place=hamlet" />
		<tag k="name" v="Øvre Ljøsne" />
		<tag k="place" v="farm" />
		<tag k="ssr:stedsnr" v="495877" />
	</node>
	<node lat="61.0186166660641" lon="7.344630547319939" id="-46016">
		<tag k="historic" v="shieling" />
		<tag k="name" v="Horndal" />
		<tag k="place" v="isolated_dwelling" />
		<tag k="ssr:stedsnr" v="495885" />
	</node>
	<node lat="61.03466111556842" lon="7.505611105519886" id="-46018">
		<tag k="historic" v="shieling" />
		<tag k="name" v="Gamlestøl" />
		<tag k="place" v="isolated_dwelling" />
		<tag k="ssr:stedsnr" v="495896" />
	</node>
	<node lat="61.06693743051662" lon="7.51520411746513" id="-46020">
		<tag k="fixme" v="consider place=hamlet" />
		<tag k="name" v="Molde" />
		<tag k="place" v="farm" />
		<tag k="ssr:stedsnr" v="495834" />
	</node>
	<node lat="61.08116041165618" lon="7.849778189078648" id="-46023">
		<tag k="fixme" v="consider place=hamlet" />
		<tag k="name" v="Berge" />
		<tag k="place" v="farm" />
		<tag k="ssr:stedsnr" v="495945" />
	</node>
	<node lat="61.08301389144192" lon="7.823133339134947" id="-46024">
		<tag k="name" v="Horgestølen" />
		<tag k="place" v="locality" />
		<tag k="ssr:stedsnr" v="495948" />
	</node>
	<node lat="60.86730832921529" lon="7.720947223722832" id="-46025">
		<tag k="name" v="Flågrunnshytta" />
		<tag k="place" v="isolated_dwelling" />
		<tag k="ssr:stedsnr" v="506135" />
	</node>
	<node lat="61.10365277442015" lon="7.416219440508744" id="-46030">
		<tag k="name" v="Hola" />
		<tag k="place" v="farm" />
		<tag k="ssr:stedsnr" v="531179" />
	</node>
	<node lat="61.0489499992677" lon="7.6922416628505115" id="-46044">
		<tag k="name" v="Bergaløa" />
		<tag k="place" v="locality" />
		<tag k="ssr:stedsnr" v="532192" />
	</node>
	<node lat="61.05496110785018" lon="7.520369444058238" id="-46050">
		<tag k="name" v="Huldahaugen" />
		<tag k="place" v="farm" />
		<tag k="ssr:stedsnr" v="532640" />
	</node>
	<node lat="61.034152774141155" lon="8.009594441178253" id="-46057">
		<tag k="name" v="Teigastølane" />
		<tag k="place" v="locality" />
		<tag k="ssr:stedsnr" v="532313" />
	</node>
	<node lat="61.113405556096275" lon="7.161036120343964" id="-46069">
		<tag k="alt_name" v="Vetlestølen" />
		<tag k="historic" v="shieling" />
		<tag k="name" v="Veslestølen" />
		<tag k="place" v="isolated_dwelling" />
		<tag k="ssr:stedsnr" v="554492" />
	</node>
	<node lat="61.11141389155367" lon="7.305352772675267" id="-46070">
		<tag k="fixme" v="multiple name tags, choose one and add the other to alt_name" />
		<tag k="historic" v="shieling" />
		<tag k="name" v="Hovdungane;Vindedalsstølen" />
		<tag k="place" v="isolated_dwelling" />
		<tag k="ssr:stedsnr" v="554496" />
	</node>
	<node lat="61.04780277779734" lon="7.756586119589348" id="-46078">
		<tag k="name" v="Hagen" />
		<tag k="place" v="isolated_dwelling" />
		<tag k="ssr:stedsnr" v="555497" />
	</node>
	<node lat="61.04869722436842" lon="7.81350277570635" id="-46079">
		<tag k="fixme" v="consider place=hamlet" />
		<tag k="name" v="Borgund" />
		<tag k="place" v="village" />
		<tag k="ssr:stedsnr" v="555501" />
	</node>
	<node lat="61.06864399904836" lon="7.363089939547892" id="-46082">
		<tag k="alt_name" v="Kvigne" />
		<tag k="fixme" v="consider place=hamlet" />
		<tag k="name" v="Kvigno" />
		<tag k="place" v="farm" />
		<tag k="ssr:stedsnr" v="555728" />
	</node>
	<node lat="61.08621111426572" lon="7.447941671220764" id="-46084">
		<tag k="historic" v="shieling" />
		<tag k="name" v="Hognåsen" />
		<tag k="place" v="isolated_dwelling" />
		<tag k="ssr:stedsnr" v="555774" />
	</node>
	<node lat="61.14584166296406" lon="7.998941663084968" id="-46093">
		<tag k="historic" v="shieling" />
		<tag k="name" v="Smeddalen" />
		<tag k="place" v="isolated_dwelling" />
		<tag k="ssr:stedsnr" v="555985" />
	</node>
	<node lat="61.04820832940143" lon="7.846813882182474" id="-46096">
		<tag k="alt_name" v="Leikvoll" />
		<tag k="historic" v="shieling" />
		<tag k="name" v="Leikvollen" />
		<tag k="place" v="isolated_dwelling" />
		<tag k="ssr:stedsnr" v="556537" />
	</node>
	<node lat="61.0466999962575" lon="7.995736102282595" id="-46097">
		<tag k="name" v="Hola" />
		<tag k="place" v="locality" />
		<tag k="ssr:stedsnr" v="556544" />
	</node>
	<node lat="60.97010000071583" lon="8.079708337082437" id="-46099">
		<tag k="name" v="Øljusjøhytta" />
		<tag k="place" v="isolated_dwelling" />
		<tag k="ssr:stedsnr" v="566075" />
	</node>
	<node lat="61.05835555615405" lon="7.518391659972933" id="-46102">
		<tag k="name" v="Tønjum" />
		<tag k="place" v="hamlet" />
		<tag k="ssr:stedsnr" v="567789" />
	</node>
	<node lat="61.14487777678647" lon="7.415269442356951" id="-46106">
		<tag k="name" v="Vårstølen" />
		<tag k="place" v="locality" />
		<tag k="ssr:stedsnr" v="592270" />
	</node>
	<node lat="61.03622502206414" lon="7.633890347935341" id="-46135">
		<tag k="fixme" v="consider place=hamlet" />
		<tag k="name" v="Rå" />
		<tag k="place" v="farm" />
		<tag k="ssr:stedsnr" v="615794" />
	</node>
	<node lat="61.05392500148044" lon="7.744824998595916" id="-46144">
		<tag k="name" v="Bruknappen" />
		<tag k="place" v="isolated_dwelling" />
		<tag k="ssr:stedsnr" v="616537" />
	</node>
	<node lat="61.04871710122862" lon="7.811005607923608" id="-46145">
		<tag k="fixme" v="consider place=hamlet" />
		<tag k="name" v="Kyrkjevoll" />
		<tag k="place" v="farm" />
		<tag k="ssr:stedsnr" v="616538" />
	</node>
	<node lat="61.06109166781742" lon="7.351880561535611" id="-46146">
		<tag k="historic" v="shieling" />
		<tag k="name" v="Kvignadalen" />
		<tag k="place" v="isolated_dwelling" />
		<tag k="ssr:stedsnr" v="616757" />
	</node>
	<node lat="61.05835277837617" lon="7.3896277852374315" id="-46148">
		<tag k="historic" v="shieling" />
		<tag k="name" v="Håvardsete" />
		<tag k="place" v="isolated_dwelling" />
		<tag k="ssr:stedsnr" v="616764" />
	</node>
	<node lat="61.04370277722698" lon="7.359599996776334" id="-46149">
		<tag k="historic" v="shieling" />
		<tag k="name" v="Breisete" />
		<tag k="place" v="isolated_dwelling" />
		<tag k="ssr:stedsnr" v="616770" />
	</node>
	<node lat="61.08263332906019" lon="7.854744436834285" id="-46152">
		<tag k="fixme" v="consider place=suburb, village or hamlet" />
		<tag k="name" v="Steinklepp" />
		<tag k="place" v="quarter" />
		<tag k="ssr:stedsnr" v="616957" />
	</node>
	<node lat="61.08872500306608" lon="8.000355558491677" id="-46154">
		<tag k="name" v="Holken" />
		<tag k="place" v="farm" />
		<tag k="ssr:stedsnr" v="616961" />
	</node>
	<node lat="61.092188889426914" lon="7.873386118443012" id="-46155">
		<tag k="name" v="Tufte" />
		<tag k="place" v="farm" />
		<tag k="ssr:stedsnr" v="616968" />
	</node>
	<node lat="61.10551388688014" lon="7.576599995404292" id="-46157">
		<tag k="alt_name" v="Oftedalsstølen, øvre" />
		<tag k="fixme" v="multiple name tags, choose one and add the other to alt_name" />
		<tag k="historic" v="shieling" />
		<tag k="name" v="Øvrestølen;Øvre Oftedalsstølen" />
		<tag k="place" v="isolated_dwelling" />
		<tag k="ssr:stedsnr" v="617822" />
	</node>
	<node lat="61.09717499992218" lon="7.5777111192055395" id="-46158">
		<tag k="alt_name" v="Visæter" />
		<tag k="historic" v="shieling" />
		<tag k="name" v="Visete" />
		<tag k="place" v="isolated_dwelling" />
		<tag k="ssr:stedsnr" v="617824" />
	</node>
	<node lat="61.05483055509812" lon="7.627888882758172" id="-46160">
		<tag k="alt_name" v="Gjeldstøet" />
		<tag k="historic" v="shieling" />
		<tag k="name" v="Gjeldstølen" />
		<tag k="place" v="isolated_dwelling" />
		<tag k="ssr:stedsnr" v="617858" />
	</node>
	<node lat="60.97564166676785" lon="7.7291388940838335" id="-46161">
		<tag k="name" v="Øydalshytta" />
		<tag k="place" v="isolated_dwelling" />
		<tag k="ssr:stedsnr" v="627077" />
	</node>
	<node lat="61.09653055705031" lon="7.124877783598575" id="-46180">
		<tag k="barrier" v="fence" />
		<tag k="name" v="Aslakgjerde" />
		<tag k="ssr:stedsnr" v="652967" />
	</node>
	<node lat="61.10330556000046" lon="8.020936118300126" id="-46189">
		<tag k="name" v="Elastølane" />
		<tag k="place" v="locality" />
		<tag k="ssr:stedsnr" v="653480" />
	</node>
	<node lat="61.13123611430079" lon="7.271591661332193" id="-46190">
		<tag k="name" v="Vårstølen" />
		<tag k="place" v="locality" />
		<tag k="ssr:stedsnr" v="653810" />
	</node>
	<node lat="61.0767666696404" lon="7.835419453457195" id="-46194">
		<tag k="name" v="Dalheim" />
		<tag k="place" v="farm" />
		<tag k="ssr:stedsnr" v="653854" />
	</node>
	<node lat="61.046552778135656" lon="7.795452774178691" id="-46218">
		<tag k="name" v="Hjollo" />
		<tag k="place" v="locality" />
		<tag k="ssr:stedsnr" v="713960" />
	</node>
	<node lat="61.0401861071306" lon="7.619044438103784" id="-46220">
		<tag k="name" v="Haugen" />
		<tag k="place" v="farm" />
		<tag k="ssr:stedsnr" v="714101" />
	</node>
	<node lat="61.0936472221509" lon="7.866177785615773" id="-46229">
		<tag k="name" v="Lunden" />
		<tag k="place" v="farm" />
		<tag k="ssr:stedsnr" v="714758" />
	</node>
	<node lat="60.9996388905366" lon="7.52051945057405" id="-46243">
		<tag k="historic" v="shieling" />
		<tag k="name" v="Nukane" />
		<tag k="place" v="isolated_dwelling" />
		<tag k="ssr:stedsnr" v="737933" />
	</node>
	<node lat="60.9775638871737" lon="7.649566658036042" id="-46244">
		<tag k="name" v="Vindhella" />
		<tag k="place" v="locality" />
		<tag k="ssr:stedsnr" v="737457" />
	</node>
	<node lat="61.16563356435151" lon="8.05241783187189" id="-46245">
		<tag k="historic" v="shieling" />
		<tag k="name" v="Fillestølen" />
		<tag k="place" v="isolated_dwelling" />
		<tag k="ssr:stedsnr" v="737885" />
	</node>
	<node lat="61.08257777437484" lon="7.894861118359897" id="-46255">
		<tag k="name" v="Heggset" />
		<tag k="place" v="farm" />
		<tag k="ssr:stedsnr" v="738520" />
	</node>
	<node lat="61.06363332980686" lon="7.807491662660106" id="-46257">
		<tag k="name" v="Voldastølen" />
		<tag k="place" v="locality" />
		<tag k="ssr:stedsnr" v="738533" />
	</node>
	<node lat="61.15740626511913" lon="7.429253628331988" id="-46259">
		<tag k="fixme" v="consider place=hamlet" />
		<tag k="name" v="Åretun" />
		<tag k="place" v="farm" />
		<tag k="ssr:stedsnr" v="738281" />
	</node>
	<node lat="61.15159248506445" lon="7.408700385489278" id="-46260">
		<tag k="fixme" v="consider place=hamlet" />
		<tag k="name" v="Aspvikane" />
		<tag k="place" v="farm" />
		<tag k="ssr:stedsnr" v="738283" />
	</node>
	<node lat="61.06868889026122" lon="7.410861105013023" id="-46264">
		<tag k="historic" v="shieling" />
		<tag k="name" v="Nyborg" />
		<tag k="place" v="isolated_dwelling" />
		<tag k="ssr:stedsnr" v="738780" />
	</node>
	<node lat="61.052438892361565" lon="7.56093611679692" id="-46265">
		<tag k="name" v="Øystad" />
		<tag k="place" v="farm" />
		<tag k="ssr:stedsnr" v="738880" />
	</node>
	<node lat="61.102286112438776" lon="7.479291661587791" id="-46276">
		<tag k="name" v="Heller" />
		<tag k="place" v="farm" />
		<tag k="ssr:stedsnr" v="774130" />
	</node>
	<node lat="61.119432740586035" lon="7.333113701844615" id="-46287">
		<tag k="fixme" v="consider place=hamlet" />
		<tag k="name" v="Vindedal" />
		<tag k="place" v="farm" />
		<tag k="ssr:stedsnr" v="774371" />
	</node>
	<node lat="61.04654444033507" lon="7.779380555577506" id="-46295">
		<tag k="name" v="Sletthagen" />
		<tag k="place" v="farm" />
		<tag k="ssr:stedsnr" v="774766" />
	</node>
	<node lat="61.0914833314249" lon="7.882183324508325" id="-46297">
		<tag k="name" v="Olsrud" />
		<tag k="place" v="farm" />
		<tag k="ssr:stedsnr" v="774784" />
	</node>
	<node lat="61.09333889082894" lon="7.870047227905959" id="-46298">
		<tag k="name" v="Steinklepp Camping" />
		<tag k="ssr:stedsnr" v="774789" />
		<tag k="tourism" v="camp_site" />
	</node>
	<node lat="61.02443888610304" lon="7.809708330651706" id="-46300">
		<tag k="name" v="Engjånstølane" />
		<tag k="place" v="locality" />
		<tag k="ssr:stedsnr" v="774887" />
	</node>
	<node lat="61.05978888557222" lon="7.951549995935264" id="-46307">
		<tag k="name" v="Rundtuppstølen" />
		<tag k="place" v="locality" />
		<tag k="ssr:stedsnr" v="775326" />
	</node>
	<node lat="61.043675001363205" lon="8.007275001237272" id="-46327">
		<tag k="historic" v="shieling" />
		<tag k="name" v="Galdestølen" />
		<tag k="place" v="isolated_dwelling" />
		<tag k="ssr:stedsnr" v="799517" />
	</node>
	<node lat="61.10654102630318" lon="7.087618924647796" id="-46335">
		<tag k="building" v="industrial" />
		<tag k="name" v="Sagi" />
		<tag k="ssr:stedsnr" v="798434" />
	</node>
	<node lat="61.04765709370627" lon="7.576347017106054" id="-46339">
		<tag k="fixme" v="consider place=hamlet" />
		<tag k="name" v="Bø" />
		<tag k="place" v="farm" />
		<tag k="ssr:stedsnr" v="798784" />
	</node>
	<node lat="61.0439000032168" lon="7.615002774601393" id="-46340">
		<tag k="name" v="Ytri" />
		<tag k="place" v="farm" />
		<tag k="ssr:stedsnr" v="798785" />
	</node>
	<node lat="61.08840313717961" lon="7.99668225053973" id="-46342">
		<tag k="fixme" v="consider place=hamlet" />
		<tag k="name" v="Gram" />
		<tag k="place" v="farm" />
		<tag k="ssr:stedsnr" v="798935" />
	</node>
	<node lat="61.10097500402684" lon="7.567391663077505" id="-46353">
		<tag k="historic" v="shieling" />
		<tag k="name" v="Liastølen" />
		<tag k="place" v="isolated_dwelling" />
		<tag k="ssr:stedsnr" v="799823" />
	</node>
	<node lat="61.053411073768636" lon="7.52880026211852" id="-46358">
		<tag k="fixme" v="consider place=hamlet" />
		<tag k="name" v="Voll" />
		<tag k="place" v="farm" />
		<tag k="ssr:stedsnr" v="799871" />
	</node>
	<node lat="60.96752777450764" lon="7.797902773733271" id="-46361">
		<tag k="name" v="Grånoshytta" />
		<tag k="place" v="isolated_dwelling" />
		<tag k="ssr:stedsnr" v="809077" />
	</node>
	<node lat="61.04773205987875" lon="7.769324589900958" id="-46362">
		<tag k="fixme" v="consider place=hamlet" />
		<tag k="name" v="Lille Husum" />
		<tag k="place" v="farm" />
		<tag k="ssr:stedsnr" v="810839" />
	</node>
	<node lat="61.063894444036485" lon="7.508002772097825" id="-46363">
		<tag k="name" v="Lærdalstunnelen næringspark" />
		<tag k="place" v="quarter" />
		<tag k="ssr:stedsnr" v="814319" />
	</node>
	<node lat="61.035891668887906" lon="7.63977500408474" id="-46393">
		<tag k="name" v="Mo" />
		<tag k="place" v="farm" />
		<tag k="ssr:stedsnr" v="857469" />
	</node>
	<node lat="60.942658332524616" lon="7.6975416726049914" id="-46394">
		<tag k="name" v="Øysteinsgard" />
		<tag k="place" v="locality" />
		<tag k="ssr:stedsnr" v="858399" />
	</node>
	<node lat="60.88393611223154" lon="7.689600007450404" id="-46399">
		<tag k="name" v="Liatangane" />
		<tag k="place" v="locality" />
		<tag k="ssr:stedsnr" v="858341" />
	</node>
	<node lat="61.075335127682855" lon="7.896494099258642" id="-46404">
		<tag k="fixme" v="consider place=hamlet" />
		<tag k="name" v="Skårheim" />
		<tag k="place" v="farm" />
		<tag k="ssr:stedsnr" v="859497" />
	</node>
	<node lat="61.07501944594718" lon="7.90605833414784" id="-46405">
		<tag k="name" v="Kruhaug" />
		<tag k="place" v="farm" />
		<tag k="ssr:stedsnr" v="859500" />
	</node>
	<node lat="61.09560555728593" lon="7.416230559717712" id="-46407">
		<tag k="name" v="Hjellen" />
		<tag k="place" v="farm" />
		<tag k="ssr:stedsnr" v="859753" />
	</node>
	<node lat="61.01643333663078" lon="7.677830553225257" id="-46409">
		<tag k="name" v="Spavang" />
		<tag k="place" v="locality" />
		<tag k="ssr:stedsnr" v="859795" />
	</node>
	<node lat="61.04705782105442" lon="7.532877312468646" id="-46411">
		<tag k="fixme" v="consider place=hamlet" />
		<tag k="name" v="Grøte" />
		<tag k="place" v="farm" />
		<tag k="ssr:stedsnr" v="859802" />
	</node>
	<node lat="61.0437388853111" lon="7.839000000989361" id="-46423">
		<tag k="name" v="Kyrkjevollstølen" />
		<tag k="place" v="locality" />
		<tag k="ssr:stedsnr" v="860532" />
	</node>
	<node lat="61.036477778168965" lon="7.628794445619191" id="-46456">
		<tag k="name" v="Øvre Rå" />
		<tag k="place" v="farm" />
		<tag k="ssr:stedsnr" v="957530" />
	</node>
	<node lat="61.04841056259826" lon="7.569558287449538" id="-46479">
		<tag k="alt_name" v="Bø" />
		<tag k="name" v="Ytstabø" />
		<tag k="place" v="farm" />
		<tag k="ssr:stedsnr" v="1074649" />
	</node>
	<node lat="61.04396662626557" lon="7.590290194314939" id="-46480">
		<tag k="alt_name" v="Bø" />
		<tag k="name" v="Nybø" />
		<tag k="place" v="farm" />
		<tag k="ssr:stedsnr" v="1074651" />
	</node>
	<node lat="61.07092531539441" lon="7.499103170473145" id="-46485">
		<tag k="name" v="Eri" />
		<tag k="place" v="hamlet" />
		<tag k="ssr:stedsnr" v="1080299" />
=======
	<node id="-678383" lat="61.1194327406" lon="7.33311370184">
		<tag k="fixme" v="consider place=hamlet" />
		<tag k="name" v="Vindedal" />
		<tag k="place" v="farm" />
		<tag k="ssr:stedsnr" v="774371" />
	</node>
	<node id="-678373" lat="61.1022861124" lon="7.47929166159">
		<tag k="name" v="Heller" />
		<tag k="place" v="farm" />
		<tag k="ssr:stedsnr" v="774130" />
	</node>
	<node id="-678356" lat="61.0524388924" lon="7.5609361168">
		<tag k="name" v="Øystad" />
		<tag k="place" v="farm" />
		<tag k="ssr:stedsnr" v="738880" />
	</node>
	<node id="-678350" lat="61.0686888903" lon="7.41086110501">
		<tag k="historic" v="shieling" />
		<tag k="name" v="Nyborg" />
		<tag k="place" v="locality" />
		<tag k="ssr:stedsnr" v="738780" />
	</node>
	<node id="-678344" lat="61.0636333298" lon="7.80749166266">
		<tag k="name" v="Voldastølen" />
		<tag k="place" v="locality" />
		<tag k="ssr:stedsnr" v="738533" />
	</node>
	<node id="-678342" lat="61.0825777744" lon="7.89486111836">
		<tag k="name" v="Heggset" />
		<tag k="place" v="farm" />
		<tag k="ssr:stedsnr" v="738520" />
	</node>
	<node id="-678340" lat="61.0266777748" lon="7.84267499296">
		<tag k="name" v="Øystølen" />
		<tag k="place" v="locality" />
		<tag k="ssr:stedsnr" v="738512" />
	</node>
	<node id="-678339" lat="61.0357283193" lon="7.81189365158">
		<tag k="fixme" v="consider place=hamlet" />
		<tag k="name" v="Nese" />
		<tag k="place" v="farm" />
		<tag k="ssr:stedsnr" v="738506" />
	</node>
	<node id="-678336" lat="61.1515924851" lon="7.40870038549">
		<tag k="fixme" v="consider place=hamlet" />
		<tag k="name" v="Aspvikane" />
		<tag k="place" v="farm" />
		<tag k="ssr:stedsnr" v="738283" />
	</node>
	<node id="-678335" lat="61.1574062651" lon="7.42925362833">
		<tag k="fixme" v="consider place=hamlet" />
		<tag k="name" v="Åretun" />
		<tag k="place" v="farm" />
		<tag k="ssr:stedsnr" v="738281" />
	</node>
	<node id="-678320" lat="60.9996388905" lon="7.52051945057">
		<tag k="historic" v="shieling" />
		<tag k="name" v="Nukane" />
		<tag k="place" v="locality" />
		<tag k="ssr:stedsnr" v="737933" />
	</node>
	<node id="-678317" lat="61.1656335644" lon="8.05241783187">
		<tag k="historic" v="shieling" />
		<tag k="name" v="Fillestølen" />
		<tag k="place" v="locality" />
		<tag k="ssr:stedsnr" v="737885" />
	</node>
	<node id="-678316" lat="61.0534916699" lon="7.71322499636">
		<tag k="alt_name" v="Seltøyni" />
		<tag k="name" v="Fjellheim" />
		<tag k="place" v="farm" />
		<tag k="ssr:stedsnr" v="737849" />
	</node>
	<node id="-678315" lat="61.041566666" lon="7.67413611226">
		<tag k="historic" v="shieling" />
		<tag k="name" v="Byrkjastølen" />
		<tag k="place" v="locality" />
		<tag k="ssr:stedsnr" v="737842" />
	</node>
	<node id="-678314" lat="61.0426499968" lon="7.60093055408">
		<tag k="name" v="Blåstad" />
		<tag k="place" v="farm" />
		<tag k="ssr:stedsnr" v="737830" />
	</node>
	<node id="-678310" lat="60.9775638872" lon="7.64956665804">
		<tag k="name" v="Vindhella" />
		<tag k="place" v="locality" />
		<tag k="ssr:stedsnr" v="737457" />
	</node>
	<node id="-678308" lat="61.109169441" lon="7.32351110475">
		<tag k="historic" v="shieling" />
		<tag k="name" v="Stølen" />
		<tag k="place" v="locality" />
		<tag k="ssr:stedsnr" v="737430" />
	</node>
	<node id="-678294" lat="61.0802783147" lon="7.8886492105">
		<tag k="alt_name" v="Lai" />
		<tag k="fixme" v="consider place=hamlet" />
		<tag k="name" v="Låi" />
		<tag k="place" v="farm" />
		<tag k="ssr:stedsnr" v="653836" />
	</node>
	<node id="-678291" lat="61.1312361143" lon="7.27159166133">
		<tag k="name" v="Vårstølen" />
		<tag k="place" v="locality" />
		<tag k="ssr:stedsnr" v="653810" />
	</node>
	<node id="-678288" lat="61.0552666668" lon="7.48626944087">
		<tag k="name" v="Gjeris-løa" />
		<tag k="place" v="locality" />
		<tag k="ssr:stedsnr" v="653740" />
	</node>
	<node id="-678283" lat="61.10330556" lon="8.0209361183">
		<tag k="name" v="Elastølane" />
		<tag k="place" v="locality" />
		<tag k="ssr:stedsnr" v="653480" />
	</node>
	<node id="-678270" lat="61.0965305571" lon="7.1248777836">
		<tag k="barrier" v="fence" />
		<tag k="name" v="Aslakgjerde" />
		<tag k="ssr:stedsnr" v="652967" />
	</node>
	<node id="-678248" lat="61.0548305551" lon="7.62788888276">
		<tag k="alt_name" v="Gjeldstøet" />
		<tag k="historic" v="shieling" />
		<tag k="name" v="Gjeldstølen" />
		<tag k="place" v="locality" />
		<tag k="ssr:stedsnr" v="617858" />
	</node>
	<node id="-678246" lat="61.0971749999" lon="7.57771111921">
		<tag k="alt_name" v="Visæter" />
		<tag k="historic" v="shieling" />
		<tag k="name" v="Visete" />
		<tag k="place" v="locality" />
		<tag k="ssr:stedsnr" v="617824" />
	</node>
	<node id="-678245" lat="61.1055138869" lon="7.5765999954">
		<tag k="alt_name" v="Oftedalsstølen, øvre" />
		<tag k="fixme" v="multiple name tags, choose one and add the other to alt_name" />
		<tag k="historic" v="shieling" />
		<tag k="name" v="Øvrestølen;Øvre Oftedalsstølen" />
		<tag k="place" v="locality" />
		<tag k="ssr:stedsnr" v="617822" />
	</node>
	<node id="-678234" lat="61.0437027772" lon="7.35959999678">
		<tag k="historic" v="shieling" />
		<tag k="name" v="Breisete" />
		<tag k="place" v="locality" />
		<tag k="ssr:stedsnr" v="616770" />
	</node>
	<node id="-678233" lat="61.0463055546" lon="7.79036666754">
		<tag k="name" v="Husum" />
		<tag k="ssr:stedsnr" v="616546" />
		<tag k="tourism" v="hotel" />
	</node>
	<node id="-678232" lat="61.0487171012" lon="7.81100560792">
		<tag k="fixme" v="consider place=hamlet" />
		<tag k="name" v="Kyrkjevoll" />
		<tag k="place" v="farm" />
		<tag k="ssr:stedsnr" v="616538" />
	</node>
	<node id="-678231" lat="61.0539250015" lon="7.7448249986">
		<tag k="name" v="Bruknappen" />
		<tag k="place" v="isolated_dwelling" />
		<tag k="ssr:stedsnr" v="616537" />
	</node>
	<node id="-678230" lat="61.0698555574" lon="7.95588333548">
		<tag k="name" v="Vetlegjerdet" />
		<tag k="place" v="farm" />
		<tag k="ssr:stedsnr" v="616526" />
	</node>
	<node id="-678225" lat="61.0328500037" lon="7.80255832696">
		<tag k="name" v="Neshagen" />
		<tag k="place" v="farm" />
		<tag k="ssr:stedsnr" v="616502" />
	</node>
	<node id="-678217" lat="61.1601752439" lon="7.43428409983">
		<tag k="name" v="Kvernasvadet" />
		<tag k="place" v="isolated_dwelling" />
		<tag k="ssr:stedsnr" v="616256" />
	</node>
	<node id="-678204" lat="61.0467777747" lon="7.5837555594">
		<tag k="name" v="Bønes" />
		<tag k="place" v="farm" />
		<tag k="ssr:stedsnr" v="593002" />
	</node>
	<node id="-678178" lat="61.1448777768" lon="7.41526944236">
		<tag k="name" v="Vårstølen" />
		<tag k="place" v="locality" />
		<tag k="ssr:stedsnr" v="592270" />
	</node>
	<node id="-678163" lat="61.0482361155" lon="7.33758610469">
		<tag k="historic" v="shieling" />
		<tag k="name" v="Fureset" />
		<tag k="place" v="locality" />
		<tag k="ssr:stedsnr" v="567907" />
	</node>
	<node id="-678162" lat="61.0460668771" lon="7.7907305329">
		<tag k="fixme" v="consider place=hamlet" />
		<tag k="name" v="Store Husum" />
		<tag k="old_name" v="Husum" />
		<tag k="place" v="farm" />
		<tag k="ssr:stedsnr" v="567815" />
	</node>
	<node id="-678161" lat="61.0409361071" lon="7.47999167222">
		<tag k="historic" v="shieling" />
		<tag k="name" v="Skigrov" />
		<tag k="place" v="locality" />
		<tag k="ssr:stedsnr" v="567814" />
	</node>
	<node id="-678160" lat="61.0583555562" lon="7.51839165997">
		<tag k="name" v="Tønjum" />
		<tag k="place" v="hamlet" />
		<tag k="ssr:stedsnr" v="567789" />
	</node>
	<node id="-678158" lat="60.9701000007" lon="8.07970833708">
		<tag k="name" v="Øljusjøhytta" />
		<tag k="place" v="isolated_dwelling" />
		<tag k="ssr:stedsnr" v="566075" />
	</node>
	<node id="-678156" lat="61.0466999963" lon="7.99573610228">
		<tag k="name" v="Hola" />
		<tag k="place" v="locality" />
		<tag k="ssr:stedsnr" v="556544" />
	</node>
	<node id="-678155" lat="61.0482083294" lon="7.84681388218">
		<tag k="alt_name" v="Leikvoll" />
		<tag k="historic" v="shieling" />
		<tag k="name" v="Leikvollen" />
		<tag k="place" v="locality" />
		<tag k="ssr:stedsnr" v="556537" />
	</node>
	<node id="-678153" lat="61.145841663" lon="7.99894166308">
		<tag k="historic" v="shieling" />
		<tag k="name" v="Smeddalen" />
		<tag k="place" v="locality" />
		<tag k="ssr:stedsnr" v="555985" />
	</node>
	<node id="-678152" lat="61.1103113545" lon="8.03438899986">
		<tag k="name" v="Maristova" />
		<tag k="ssr:stedsnr" v="555951" />
		<tag k="tourism" v="hotel" />
	</node>
	<node id="-678150" lat="61.0956711405" lon="7.86463512254">
		<tag k="fixme" v="consider place=hamlet" />
		<tag k="name" v="Øvre Kvame" />
		<tag k="place" v="farm" />
		<tag k="ssr:stedsnr" v="555939" />
	</node>
	<node id="-678144" lat="61.0862111143" lon="7.44794167122">
		<tag k="historic" v="shieling" />
		<tag k="name" v="Hognåsen" />
		<tag k="place" v="locality" />
		<tag k="ssr:stedsnr" v="555774" />
	</node>
	<node id="-678142" lat="61.1000138927" lon="7.47374444482">
		<tag k="name" v="Lærdalsøyri" />
		<tag k="place" v="village" />
		<tag k="ssr:stedsnr" v="555769" />
	</node>
	<node id="-678141" lat="61.0917845972" lon="7.52320995639">
		<tag k="fixme" v="consider place=hamlet" />
		<tag k="name" v="Skjær" />
		<tag k="place" v="farm" />
		<tag k="ssr:stedsnr" v="555766" />
	</node>
	<node id="-678139" lat="61.068643999" lon="7.36308993955">
		<tag k="alt_name" v="Kvigne" />
		<tag k="fixme" v="consider place=hamlet" />
		<tag k="name" v="Kvigno" />
		<tag k="place" v="farm" />
		<tag k="ssr:stedsnr" v="555728" />
	</node>
	<node id="-678138" lat="61.0486972244" lon="7.81350277571">
		<tag k="fixme" v="consider place=hamlet" />
		<tag k="name" v="Borgund" />
		<tag k="place" v="village" />
		<tag k="ssr:stedsnr" v="555501" />
	</node>
	<node id="-678137" lat="61.0478027778" lon="7.75658611959">
		<tag k="name" v="Hagen" />
		<tag k="place" v="isolated_dwelling" />
		<tag k="ssr:stedsnr" v="555497" />
	</node>
	<node id="-678135" lat="61.0745343372" lon="7.96152135877">
		<tag k="name" v="Hagen" />
		<tag k="place" v="farm" />
		<tag k="ssr:stedsnr" v="555481" />
	</node>
	<node id="-678133" lat="61.0853583362" lon="7.09349444146">
		<tag k="historic" v="shieling" />
		<tag k="name" v="Lyngsete" />
		<tag k="place" v="locality" />
		<tag k="ssr:stedsnr" v="555386" />
	</node>
	<node id="-678124" lat="61.1114138916" lon="7.30535277268">
		<tag k="fixme" v="multiple name tags, choose one and add the other to alt_name" />
		<tag k="historic" v="shieling" />
		<tag k="name" v="Hovdungane;Vindedalsstølen" />
		<tag k="place" v="locality" />
		<tag k="ssr:stedsnr" v="554496" />
	</node>
	<node id="-678123" lat="61.1134055561" lon="7.16103612034">
		<tag k="alt_name" v="Vetlestølen" />
		<tag k="historic" v="shieling" />
		<tag k="name" v="Veslestølen" />
		<tag k="place" v="locality" />
		<tag k="ssr:stedsnr" v="554492" />
	</node>
	<node id="-678111" lat="61.0549611079" lon="7.52036944406">
		<tag k="name" v="Huldahaugen" />
		<tag k="place" v="farm" />
		<tag k="ssr:stedsnr" v="532640" />
	</node>
	<node id="-678101" lat="61.0485138921" lon="8.00159166442">
		<tag k="name" v="Liastølgjerdet" />
		<tag k="place" v="locality" />
		<tag k="ssr:stedsnr" v="532324" />
	</node>
	<node id="-678100" lat="61.0341527741" lon="8.00959444118">
		<tag k="name" v="Teigastølane" />
		<tag k="place" v="locality" />
		<tag k="ssr:stedsnr" v="532313" />
	</node>
	<node id="-678093" lat="61.0489499993" lon="7.69224166285">
		<tag k="name" v="Bergaløa" />
		<tag k="place" v="locality" />
		<tag k="ssr:stedsnr" v="532192" />
	</node>
	<node id="-678088" lat="61.0936888848" lon="7.52364443663">
		<tag k="fixme" v="consider place=hamlet" />
		<tag k="name" v="Stebole" />
		<tag k="place" v="farm" />
		<tag k="ssr:stedsnr" v="531509" />
	</node>
	<node id="-678078" lat="61.0962305585" lon="7.07650555726">
		<tag k="amenity" v="school" />
		<tag k="name" v="Frønningen skule" />
		<tag k="ssr:stedsnr" v="531326" />
	</node>
	<node id="-678063" lat="61.0540000027" lon="7.64366389687">
		<tag k="name" v="Stuvane" />
		<tag k="place" v="farm" />
		<tag k="ssr:stedsnr" v="435875" />
	</node>
	<node id="-678060" lat="61.0751638846" lon="7.3900027861">
		<tag k="historic" v="shieling" />
		<tag k="name" v="Hestevollen" />
		<tag k="place" v="locality" />
		<tag k="ssr:stedsnr" v="435771" />
	</node>
	<node id="-678058" lat="61.0815663636" lon="7.51125269758">
		<tag k="alt_name" v="Eri, nedre" />
		<tag k="fixme" v="consider place=hamlet" />
		<tag k="name" v="Nedre Eri" />
		<tag k="place" v="farm" />
		<tag k="ssr:stedsnr" v="435872" />
	</node>
	<node id="-678057" lat="61.068958512" lon="7.49941935423">
		<tag k="alt_name" v="Eri, øvre;Eri" />
		<tag k="fixme" v="consider place=hamlet" />
		<tag k="name" v="Øvre Eri" />
		<tag k="place" v="farm" />
		<tag k="ssr:stedsnr" v="435871" />
	</node>
	<node id="-678054" lat="61.0539611142" lon="7.55566667516">
		<tag k="name" v="Øygard" />
		<tag k="place" v="farm" />
		<tag k="ssr:stedsnr" v="435865" />
	</node>
	<node id="-678051" lat="61.0270499982" lon="7.81600832775">
		<tag k="historic" v="shieling" />
		<tag k="name" v="Engi" />
		<tag k="place" v="locality" />
		<tag k="ssr:stedsnr" v="435547" />
	</node>
	<node id="-678050" lat="61.0321805596" lon="7.82153888113">
		<tag k="name" v="Leikhaug" />
		<tag k="place" v="locality" />
		<tag k="ssr:stedsnr" v="435538" />
	</node>
	<node id="-678043" lat="61.0936750035" lon="7.79861110978">
		<tag k="name" v="Fagersete" />
		<tag k="place" v="locality" />
		<tag k="ssr:stedsnr" v="434958" />
	</node>
	<node id="-678040" lat="61.091815842" lon="7.8719263491">
		<tag k="fixme" v="consider place=hamlet" />
		<tag k="name" v="Tufte" />
		<tag k="place" v="farm" />
		<tag k="ssr:stedsnr" v="434945" />
	</node>
	<node id="-678039" lat="61.0898111084" lon="8.00308611378">
		<tag k="name" v="Enden" />
		<tag k="place" v="farm" />
		<tag k="ssr:stedsnr" v="434942" />
	</node>
	<node id="-678033" lat="61.1734241999" lon="8.0189202376">
		<tag k="historic" v="shieling" />
		<tag k="name" v="Osen" />
		<tag k="place" v="locality" />
		<tag k="ssr:stedsnr" v="434866" />
	</node>
	<node id="-678032" lat="61.0446444428" lon="7.5951805536">
		<tag k="name" v="Hundsteigane" />
		<tag k="place" v="farm" />
		<tag k="ssr:stedsnr" v="434785" />
	</node>
	<node id="-678027" lat="61.0728800982" lon="7.82820922815">
		<tag k="fixme" v="consider place=hamlet" />
		<tag k="name" v="Horge" />
		<tag k="place" v="farm" />
		<tag k="ssr:stedsnr" v="434500" />
	</node>
	<node id="-678021" lat="61.1097277771" lon="7.1330972315">
		<tag k="alt_name" v="Vetlefrønningen" />
		<tag k="name" v="Veslefrønningen" />
		<tag k="place" v="farm" />
		<tag k="ssr:stedsnr" v="434431" />
	</node>
	<node id="-678007" lat="61.1021111133" lon="7.42249443808">
		<tag k="name" v="Viki" />
		<tag k="place" v="isolated_dwelling" />
		<tag k="ssr:stedsnr" v="419815" />
	</node>
	<node id="-678004" lat="61.1324361132" lon="8.01509722268">
		<tag k="name" v="Torvmo" />
		<tag k="place" v="locality" />
		<tag k="ssr:stedsnr" v="412000" />
	</node>
	<node id="-678000" lat="61.0510777753" lon="7.53401665924">
		<tag k="name" v="Bruvoll" />
		<tag k="place" v="farm" />
		<tag k="ssr:stedsnr" v="411717" />
	</node>
	<node id="-677993" lat="61.0729388845" lon="7.95602776946">
		<tag k="alt_name" v="Svingen" />
		<tag k="name" v="Hansegjerdet" />
		<tag k="place" v="farm" />
		<tag k="ssr:stedsnr" v="411335" />
	</node>
	<node id="-677992" lat="61.074188892" lon="7.9162305601">
		<tag k="name" v="Soleistølane" />
		<tag k="place" v="locality" />
		<tag k="ssr:stedsnr" v="411253" />
	</node>
	<node id="-677987" lat="61.0828166683" lon="7.3991277773">
		<tag k="name" v="Grindheim" />
		<tag k="place" v="farm" />
		<tag k="ssr:stedsnr" v="410843" />
	</node>
	<node id="-677984" lat="61.0907722237" lon="7.86253332598">
		<tag k="name" v="Bergsøyni" />
		<tag k="place" v="farm" />
		<tag k="ssr:stedsnr" v="410776" />
	</node>
	<node id="-677955" lat="61.0878582654" lon="7.40283680109">
		<tag k="fixme" v="consider place=hamlet" />
		<tag k="name" v="Helland" />
		<tag k="place" v="farm" />
		<tag k="ssr:stedsnr" v="374792" />
	</node>
	<node id="-677954" lat="61.0844250017" lon="7.4047749939">
		<tag k="name" v="Sætre" />
		<tag k="place" v="farm" />
		<tag k="ssr:stedsnr" v="374785" />
	</node>
	<node id="-677953" lat="61.1005846089" lon="7.42205496441">
		<tag k="fixme" v="consider place=hamlet" />
		<tag k="name" v="Sæbø" />
		<tag k="place" v="farm" />
		<tag k="ssr:stedsnr" v="374784" />
	</node>
	<node id="-677950" lat="61.0374527792" lon="7.7883333293">
		<tag k="name" v="Morki" />
		<tag k="place" v="isolated_dwelling" />
		<tag k="ssr:stedsnr" v="374496" />
	</node>
	<node id="-677949" lat="61.1705723952" lon="7.44770674401">
		<tag k="name" v="Luggenes" />
		<tag k="place" v="farm" />
		<tag k="ssr:stedsnr" v="374288" />
	</node>
	<node id="-677947" lat="61.1441833295" lon="8.01383611862">
		<tag k="historic" v="shieling" />
		<tag k="name" v="Brusestølen" />
		<tag k="place" v="locality" />
		<tag k="ssr:stedsnr" v="373997" />
	</node>
	<node id="-677944" lat="61.0803138918" lon="7.89810833353">
		<tag k="name" v="Hegg" />
		<tag k="place" v="farm" />
		<tag k="ssr:stedsnr" v="373947" />
	</node>
	<node id="-677943" lat="61.0159416659" lon="7.52669999825">
		<tag k="historic" v="shieling" />
		<tag k="name" v="Lauvane" />
		<tag k="place" v="locality" />
		<tag k="ssr:stedsnr" v="373940" />
	</node>
	<node id="-677938" lat="61.089044441" lon="7.52392159216">
		<tag k="fixme" v="consider place=hamlet" />
		<tag k="name" v="Hauge" />
		<tag k="place" v="farm" />
		<tag k="ssr:stedsnr" v="373780" />
	</node>
	<node id="-677919" lat="61.0091444457" lon="8.12125000275">
		<tag k="name" v="Osen" />
		<tag k="place" v="isolated_dwelling" />
		<tag k="ssr:stedsnr" v="371638" />
	</node>
	<node id="-677913" lat="61.0853555548" lon="7.86028056262">
		<tag k="name" v="Øvre Eggum" />
		<tag k="place" v="farm" />
		<tag k="ssr:stedsnr" v="350798" />
	</node>
	<node id="-677909" lat="61.0485888889" lon="7.55463332487">
		<tag k="name" v="Kjørnes" />
		<tag k="place" v="farm" />
		<tag k="ssr:stedsnr" v="350714" />
>>>>>>> e1d4bc35ff8a6074a6f2e91616a996b547c36f15
	</node>
</osm>
