<?xml version="1.0" encoding="UTF-8"?>
<osm version="0.6" generator="osmapis">
	<node lat="61.09536975233321" lon="7.035091120513748" id="-96526">
		<tag k="alt_name" v="Trondhellerviki" />
		<tag k="name" v="Trondhillerviki" />
		<tag k="natural" v="bay" />
		<tag k="ssr:stedsnr" v="9451" />
	</node>
	<node lat="61.128586109667225" lon="7.2237333424851515" id="-96587">
		<tag k="name" v="Kvebukti" />
		<tag k="natural" v="bay" />
		<tag k="ssr:stedsnr" v="71511" />
	</node>
	<node lat="61.10421666557357" lon="7.415894451546954" id="-96617">
		<tag k="name" v="Hjellhamaren" />
		<tag k="natural" v="cape" />
		<tag k="ssr:stedsnr" v="115810" />
	</node>
	<node lat="61.061022226060736" lon="7.044963897418529" id="-96648">
		<tag k="name" v="Digerurbukti" />
		<tag k="natural" v="bay" />
		<tag k="ssr:stedsnr" v="130385" />
	</node>
	<node lat="61.07059166819823" lon="7.038702780887566" id="-96725">
		<tag k="alt_name" v="Middnes;Midtneset" />
		<tag k="name" v="Midnes" />
		<tag k="natural" v="cape" />
		<tag k="ssr:stedsnr" v="191402" />
	</node>
	<node lat="61.10545278117494" lon="7.471069449315604" id="-96743">
		<tag k="name" v="Jektesanden" />
		<tag k="natural" v="shoal" />
		<tag k="place" v="locality" />
		<tag k="ssr:stedsnr" v="228131" />
	</node>
	<node lat="61.14552222195158" lon="7.244369442239767" id="-96770">
		<tag k="alt_name" v="Revsnes" />
		<tag k="name" v="Revsnestangen" />
		<tag k="natural" v="cape" />
		<tag k="ssr:stedsnr" v="253524" />
	</node>
	<node lat="61.14756944215236" lon="7.378124998986383" id="-96869">
		<tag k="name" v="Urastoi" />
		<tag k="natural" v="bay" />
		<tag k="ssr:stedsnr" v="349316" />
	</node>
	<node lat="61.176102779394775" lon="7.458388897929009" id="-96879">
		<tag k="name" v="Bermålsneset" />
		<tag k="natural" v="cape" />
		<tag k="ssr:stedsnr" v="358801" />
	</node>
	<node lat="61.125408334619785" lon="7.35217222748692" id="-96915">
		<tag k="alt_name" v="Risneset" />
		<tag k="name" v="Risnes" />
		<tag k="natural" v="cape" />
		<tag k="ssr:stedsnr" v="411814" />
	</node>
	<node lat="61.107741663137205" lon="7.051430551215171" id="-96952">
		<tag k="alt_name" v="Melkeviki" />
		<tag k="name" v="Mjelkeviki" />
		<tag k="natural" v="bay" />
		<tag k="ssr:stedsnr" v="494429" />
	</node>
	<node lat="61.08681111009811" lon="7.026958336627066" id="-96997">
		<tag k="name" v="Insta Solneset" />
		<tag k="natural" v="cape" />
		<tag k="ssr:stedsnr" v="478718" />
	</node>
	<node lat="61.10688611262878" lon="7.088216658055255" id="-97034">
		<tag k="name" v="Sagebukti" />
		<tag k="natural" v="bay" />
		<tag k="ssr:stedsnr" v="522504" />
	</node>
	<node lat="61.142408337356215" lon="7.390983338923081" id="-97037">
		<tag k="alt_name" v="Stokk" />
		<tag k="name" v="Stokkhammaren" />
		<tag k="natural" v="cape" />
		<tag k="ssr:stedsnr" v="530217" />
	</node>
	<node lat="61.12566944220406" lon="7.3603472150061116" id="-97115">
		<tag k="name" v="Kjeringhellernes" />
		<tag k="natural" v="cape" />
		<tag k="ssr:stedsnr" v="592869" />
	</node>
	<node lat="61.13715000400918" lon="7.408113880987734" id="-97140">
		<tag k="name" v="Goviki" />
		<tag k="natural" v="bay" />
		<tag k="ssr:stedsnr" v="617294" />
	</node>
	<node lat="60.91548055350778" lon="7.170222214255655" id="-97181">
		<tag k="bay" v="fjord" />
		<tag k="name" v="Aurlandsfjorden" />
		<tag k="natural" v="bay" />
		<tag k="ssr:stedsnr" v="676215" />
	</node>
	<node lat="61.07375278097316" lon="7.039763892042787" id="-97186">
		<tag k="name" v="Furenes" />
		<tag k="natural" v="cape" />
		<tag k="ssr:stedsnr" v="677419" />
	</node>
	<node lat="61.12784721816089" lon="7.420283341686407" id="-97365">
		<tag k="name" v="Båtesteinen" />
		<tag k="natural" v="cape" />
		<tag k="ssr:stedsnr" v="920243" />
	</node>
	<node lat="61.15369722443859" lon="7.414677768619506" id="-97481">
		<tag k="name" v="Strendene" />
		<tag k="natural" v="beach" />
		<tag k="ssr:stedsnr" v="956327" />
	</node>
	<node lat="61.161536106953804" lon="7.436805562069657" id="-97512">
		<tag k="name" v="Godnes" />
		<tag k="natural" v="cape" />
		<tag k="ssr:stedsnr" v="10262" />
	</node>
	<node lat="61.13143611399909" lon="7.382586113580225" id="-97580">
		<tag k="bay" v="fjord" />
		<tag k="name" v="Lærdalsfjorden" />
		<tag k="natural" v="bay" />
		<tag k="ssr:stedsnr" v="71273" />
	</node>
	<node lat="61.1489312797236" lon="7.3840556428944595" id="-97582">
		<tag k="name" v="Fukkenes" />
		<tag k="natural" v="cape" />
		<tag k="ssr:stedsnr" v="71295" />
	</node>
	<node lat="61.10854999831579" lon="7.4010499909427985" id="-97593">
		<tag k="alt_name" v="Luggeneset" />
		<tag k="name" v="Luggenes" />
		<tag k="natural" v="cape" />
		<tag k="ssr:stedsnr" v="71805" />
	</node>
	<node lat="61.11734444176852" lon="7.212930552297925" id="-97713">
		<tag k="alt_name" v="Morteneset" />
		<tag k="name" v="Mortenes" />
		<tag k="natural" v="cape" />
		<tag k="ssr:stedsnr" v="191438" />
	</node>
	<node lat="61.1124583320745" lon="7.4275999925416265" id="-97728">
		<tag k="name" v="Trona" />
		<tag k="natural" v="cape" />
		<tag k="ssr:stedsnr" v="192280" />
	</node>
	<node lat="61.17485555895632" lon="7.455861109098538" id="-97729">
		<tag k="name" v="Bermålsviki" />
		<tag k="natural" v="bay" />
		<tag k="ssr:stedsnr" v="192289" />
	</node>
	<node lat="61.104763891508085" lon="7.440786119852179" id="-97774">
		<tag k="name" v="Røyrnes" />
		<tag k="natural" v="cape" />
		<tag k="ssr:stedsnr" v="289353" />
	</node>
	<node lat="61.11164721788895" lon="7.068230553468594" id="-97792">
		<tag k="name" v="Lemmaneset" />
		<tag k="natural" v="cape" />
		<tag k="ssr:stedsnr" v="296691" />
	</node>
	<node lat="61.10908611320367" lon="7.115874996265498" id="-97797">
		<tag k="alt_name" v="Storeløypneset" />
		<tag k="name" v="Storaløypneset" />
		<tag k="natural" v="cape" />
		<tag k="ssr:stedsnr" v="312462" />
	</node>
	<node lat="61.07752222562407" lon="7.0390305623941165" id="-97882">
		<tag k="name" v="Buabukti" />
		<tag k="natural" v="bay" />
		<tag k="ssr:stedsnr" v="373454" />
	</node>
	<node lat="61.11200555813964" lon="7.433302779730489" id="-97900">
		<tag k="name" v="Krøssekråi" />
		<tag k="natural" v="bay" />
		<tag k="ssr:stedsnr" v="374276" />
	</node>
	<node lat="61.14200833373443" lon="7.271894449494697" id="-97936">
		<tag k="name" v="Høneneset" />
		<tag k="natural" v="cape" />
		<tag k="ssr:stedsnr" v="410760" />
	</node>
	<node lat="61.0838833317217" lon="5.297211102705884" id="-97968">
		<tag k="bay" v="fjord" />
		<tag k="name" v="Sognefjorden" />
		<tag k="natural" v="bay" />
		<tag k="ssr:stedsnr" v="434556" />
	</node>
	<node lat="61.08717777883209" lon="7.02693611459116" id="-97993">
		<tag k="name" v="Solsnes" />
		<tag k="natural" v="cape" />
		<tag k="ssr:stedsnr" v="495448" />
	</node>
	<node lat="61.08923611475427" lon="7.028216660513321" id="-98061">
		<tag k="name" v="Ytsta Solneset" />
		<tag k="natural" v="cape" />
		<tag k="ssr:stedsnr" v="539691" />
	</node>
	<node lat="61.11403611165292" lon="7.391200003811247" id="-98083">
		<tag k="name" v="Bjørkaviki" />
		<tag k="natural" v="bay" />
		<tag k="ssr:stedsnr" v="555760" />
	</node>
	<node lat="61.13184166512236" lon="7.41631389146489" id="-98099">
		<tag k="name" v="Lyseplassen" />
		<tag k="natural" v="cape" />
		<tag k="ssr:stedsnr" v="591146" />
	</node>
	<node lat="61.14032777776075" lon="7.398074999765454" id="-98194">
		<tag k="name" v="Bikkjeviki" />
		<tag k="natural" v="bay" />
		<tag k="ssr:stedsnr" v="712163" />
	</node>
	<node lat="61.11355555173125" lon="7.448591671520928" id="-98210">
		<tag k="name" v="Tråna" />
		<tag k="natural" v="beach" />
		<tag k="ssr:stedsnr" v="713344" />
	</node>
	<node lat="61.11262222409233" lon="7.4547805468806905" id="-98211">
		<tag k="name" v="Lindetona" />
		<tag k="natural" v="cape" />
		<tag k="ssr:stedsnr" v="713345" />
	</node>
	<node lat="61.10179166330919" lon="7.458686108443307" id="-98288">
		<tag k="name" v="Urasanden" />
		<tag k="natural" v="beach" />
		<tag k="ssr:stedsnr" v="774397" />
	</node>
	<node lat="61.123730557389685" lon="7.343441672232563" id="-98313">
		<tag k="name" v="Storanes" />
		<tag k="natural" v="cape" />
		<tag k="ssr:stedsnr" v="775796" />
	</node>
	<node lat="61.22697222542033" lon="7.683444452406062" id="-98400">
		<tag k="bay" v="fjord" />
		<tag k="name" v="Årdalsfjorden" />
		<tag k="natural" v="bay" />
		<tag k="ssr:stedsnr" v="859298" />
	</node>
	<node lat="61.068805553103005" lon="7.040019447831842" id="-98442">
		<tag k="name" v="Knubben" />
		<tag k="natural" v="cape" />
		<tag k="ssr:stedsnr" v="956472" />
	</node>
	<node lat="61.14510555620021" lon="7.256563889091977" id="-98445">
		<tag k="name" v="Lushavnen" />
		<tag k="natural" v="bay" />
		<tag k="ssr:stedsnr" v="956772" />
	</node>
</osm>
