<?xml version="1.0" encoding="UTF-8"?>
<<<<<<< HEAD
<osm version="0.6" generator="osmapis">
	<node lat="61.11753611132626" lon="7.427052771227624" id="-45226">
=======
<osm generator="osmapis" version="0.6">
	<node id="-677959" lat="60.9022888898" lon="8.01278333863">
		<tag k="name" v="Borgund Statsallmenning" />
		<tag k="place" v="locality" />
		<tag k="ssr:stedsnr" v="385023" />
	</node>
	<node id="-677301" lat="61.1175361113" lon="7.42705277123">
>>>>>>> e1d4bc35ff8a6074a6f2e91616a996b547c36f15
		<tag k="name" v="Fodnes Statsalmenning" />
		<tag k="place" v="locality" />
		<tag k="ssr:stedsnr" v="895184" />
	</node>
<<<<<<< HEAD
	<node lat="61.11934999906998" lon="7.359636108230371" id="-45769">
=======
	<node id="-678388" lat="61.1121194439" lon="7.2037444504">
		<tag k="name" v="Lærdal Statsalmenning" />
		<tag k="place" v="locality" />
		<tag k="ssr:stedsnr" v="774433" />
	</node>
	<node id="-676890" lat="61.1193499991" lon="7.35963610823">
>>>>>>> e1d4bc35ff8a6074a6f2e91616a996b547c36f15
		<tag k="name" v="Klovstein Statsalmenning" />
		<tag k="place" v="locality" />
		<tag k="ssr:stedsnr" v="228366" />
	</node>
	<node lat="60.90228888976982" lon="8.012783338632394" id="-45923">
		<tag k="name" v="Borgund Statsallmenning" />
		<tag k="place" v="locality" />
		<tag k="ssr:stedsnr" v="385023" />
	</node>
	<node lat="61.112119443930496" lon="7.203744450404526" id="-46294">
		<tag k="name" v="Lærdal Statsalmenning" />
		<tag k="place" v="locality" />
		<tag k="ssr:stedsnr" v="774433" />
	</node>
</osm>
