<?xml version="1.0" encoding="UTF-8"?>
<osm version="0.6" generator="osmapis">
	<node lat="66.06348333683665" lon="12.865075002722868" id="-14392">
		<tag k="fixme" v="consider natural=peak for the most distinct mountains in the district" />
		<tag k="name" v="Røråsen" />
		<tag k="natural" v="hill" />
		<tag k="place" v="locality" />
		<tag k="ssr:stedsnr" v="15056" />
	</node>
	<node lat="65.99405833598931" lon="12.936436117276454" id="-14393">
		<tag k="name" v="Storberget" />
		<tag k="natural" v="hill" />
		<tag k="place" v="locality" />
		<tag k="ssr:stedsnr" v="15066" />
	</node>
	<node lat="65.98690833607975" lon="12.730908339924023" id="-14394">
		<tag k="name" v="Nordlia" />
		<tag k="natural" v="slope" />
		<tag k="place" v="locality" />
		<tag k="ssr:stedsnr" v="15068" />
	</node>
	<node lat="66.19936388947761" lon="13.387336108454116" id="-14395">
		<tag k="fixme" v="consider natural=peak for the most distinct mountains in the district" />
		<tag k="name" v="Breimofjellet" />
		<tag k="natural" v="hill" />
		<tag k="place" v="locality" />
		<tag k="ssr:stedsnr" v="15074" />
	</node>
	<node lat="66.15007777798587" lon="13.091880563987056" id="-14396">
		<tag k="name" v="Lektvikhaugen" />
		<tag k="natural" v="hill" />
		<tag k="place" v="locality" />
		<tag k="ssr:stedsnr" v="15160" />
	</node>
	<node lat="66.1832861156215" lon="13.425033331341885" id="-14398">
		<tag k="fixme" v="consider natural=peak for the most distinct mountains in the district" />
		<tag k="name" v="Åtinden" />
		<tag k="natural" v="hill" />
		<tag k="place" v="locality" />
		<tag k="ssr:stedsnr" v="15424" />
	</node>
	<node lat="66.12550833729163" lon="13.105552787275977" id="-14402">
		<tag k="name" v="Kvanndalen" />
		<tag k="natural" v="valley" />
		<tag k="place" v="locality" />
		<tag k="ssr:stedsnr" v="16113" />
	</node>
	<node lat="66.02807222446039" lon="12.95977222105112" id="-14404">
		<tag k="fixme" v="consider natural=peak for the most distinct mountains in the district" />
		<tag k="name" v="Hålåsen" />
		<tag k="natural" v="hill" />
		<tag k="place" v="locality" />
		<tag k="ssr:stedsnr" v="25424" />
	</node>
	<node lat="66.01707221980335" lon="12.947147222170573" id="-14406">
		<tag k="name" v="Varpo" />
		<tag k="place" v="locality" />
		<tag k="ssr:stedsnr" v="44480" />
	</node>
	<node lat="65.97852222042498" lon="12.788700007915436" id="-14408">
		<tag k="name" v="Ørntuva" />
		<tag k="natural" v="ridge" />
		<tag k="place" v="locality" />
		<tag k="ssr:stedsnr" v="45074" />
	</node>
	<node lat="66.11632222372526" lon="12.837283340192766" id="-14409">
		<tag k="name" v="Svartfloget" />
		<tag k="natural" v="cliff" />
		<tag k="ssr:stedsnr" v="46501" />
	</node>
	<node lat="66.1163361151427" lon="13.049352768243338" id="-14411">
		<tag k="name" v="Rundhaugen" />
		<tag k="natural" v="hill" />
		<tag k="place" v="locality" />
		<tag k="ssr:stedsnr" v="46524" />
	</node>
	<node lat="66.18389722226436" lon="13.233886100224302" id="-14412">
		<tag k="name" v="Rismålshaugen" />
		<tag k="natural" v="hill" />
		<tag k="place" v="locality" />
		<tag k="ssr:stedsnr" v="46908" />
	</node>
	<node lat="66.1026472201187" lon="13.103180549386195" id="-14413">
		<tag k="name" v="Tømmermoen" />
		<tag k="natural" v="hill" />
		<tag k="place" v="locality" />
		<tag k="ssr:stedsnr" v="47412" />
	</node>
	<node lat="66.05961666518395" lon="12.837786103368503" id="-14414">
		<tag k="name" v="Kattuglhaugen" />
		<tag k="natural" v="ridge" />
		<tag k="place" v="locality" />
		<tag k="ssr:stedsnr" v="47781" />
	</node>
	<node lat="66.0614055513208" lon="12.85376667300187" id="-14415">
		<tag k="fixme" v="consider natural=peak for the most distinct mountains in the district" />
		<tag k="name" v="Snaråsen" />
		<tag k="natural" v="hill" />
		<tag k="place" v="locality" />
		<tag k="ssr:stedsnr" v="47784" />
	</node>
	<node lat="66.03447777743847" lon="12.668566667112337" id="-14417">
		<tag k="fixme" v="consider natural=peak for the most distinct mountains in the district" />
		<tag k="name" v="Hamnhaugen" />
		<tag k="natural" v="hill" />
		<tag k="place" v="locality" />
		<tag k="ssr:stedsnr" v="47669" />
	</node>
	<node lat="66.05771389199418" lon="13.021649995096148" id="-14418">
		<tag k="fixme" v="consider natural=peak for the most distinct mountains in the district" />
		<tag k="name" v="Klubbåsen" />
		<tag k="natural" v="hill" />
		<tag k="place" v="locality" />
		<tag k="ssr:stedsnr" v="47677" />
	</node>
	<node lat="66.07479999633165" lon="12.84829166738397" id="-14419">
		<tag k="fixme" v="consider natural=peak for the most distinct mountains in the district" />
		<tag k="name" v="Stolpåsen" />
		<tag k="natural" v="hill" />
		<tag k="place" v="locality" />
		<tag k="ssr:stedsnr" v="47801" />
	</node>
	<node lat="66.05800555510147" lon="12.754566672285783" id="-14425">
		<tag k="name" v="Gongstøbakken" />
		<tag k="natural" v="slope" />
		<tag k="place" v="locality" />
		<tag k="ssr:stedsnr" v="228094" />
	</node>
	<node lat="66.06552222063056" lon="12.71775277810545" id="-14427">
		<tag k="fixme" v="consider natural=peak for the most distinct mountains in the district" />
		<tag k="name" v="Åsen" />
		<tag k="natural" v="hill" />
		<tag k="place" v="locality" />
		<tag k="ssr:stedsnr" v="228143" />
	</node>
	<node lat="66.086463884912" lon="13.133908329983578" id="-14428">
		<tag k="name" v="Toven" />
		<tag k="natural" v="cliff" />
		<tag k="ssr:stedsnr" v="228223" />
	</node>
	<node lat="66.07777500040979" lon="13.020430560334303" id="-14429">
		<tag k="fixme" v="consider natural=peak for the most distinct mountains in the district" />
		<tag k="name" v="Strandåsen" />
		<tag k="natural" v="hill" />
		<tag k="place" v="locality" />
		<tag k="ssr:stedsnr" v="228241" />
	</node>
	<node lat="66.08039722148582" lon="12.86751943417172" id="-14431">
		<tag k="name" v="Almåsen" />
		<tag k="natural" v="ridge" />
		<tag k="place" v="locality" />
		<tag k="ssr:stedsnr" v="228318" />
	</node>
	<node lat="66.09071944056086" lon="12.848963888789418" id="-14432">
		<tag k="name" v="Fjellia" />
		<tag k="natural" v="slope" />
		<tag k="place" v="locality" />
		<tag k="ssr:stedsnr" v="228286" />
	</node>
	<node lat="66.0880277774009" lon="12.859966674013124" id="-14433">
		<tag k="name" v="Storbrørn" />
		<tag k="natural" v="ridge" />
		<tag k="place" v="locality" />
		<tag k="ssr:stedsnr" v="228290" />
	</node>
	<node lat="66.10017499905628" lon="13.04126110530867" id="-14435">
		<tag k="name" v="Grønnlia" />
		<tag k="natural" v="slope" />
		<tag k="place" v="locality" />
		<tag k="ssr:stedsnr" v="228558" />
	</node>
	<node lat="66.18994166385251" lon="13.351313881140387" id="-14438">
		<tag k="name" v="Tømmermodalen" />
		<tag k="natural" v="valley" />
		<tag k="place" v="locality" />
		<tag k="ssr:stedsnr" v="228889" />
	</node>
	<node lat="66.07976944547217" lon="12.883658328652418" id="-14439">
		<tag k="name" v="Bjønndalen" />
		<tag k="natural" v="valley" />
		<tag k="place" v="locality" />
		<tag k="ssr:stedsnr" v="229297" />
	</node>
	<node lat="66.10096944139381" lon="13.11534999679304" id="-14442">
		<tag k="name" v="Djupdalen" />
		<tag k="natural" v="valley" />
		<tag k="place" v="locality" />
		<tag k="ssr:stedsnr" v="229389" />
	</node>
	<node lat="66.0972111136009" lon="13.12591110566337" id="-14443">
		<tag k="fixme" v="consider natural=peak for the most distinct mountains in the district" />
		<tag k="name" v="Holtbergan" />
		<tag k="natural" v="hill" />
		<tag k="place" v="locality" />
		<tag k="ssr:stedsnr" v="229393" />
	</node>
	<node lat="66.0394583304886" lon="12.679972222847976" id="-14445">
		<tag k="name" v="Hauthaugen" />
		<tag k="natural" v="hill" />
		<tag k="place" v="locality" />
		<tag k="ssr:stedsnr" v="229675" />
	</node>
	<node lat="66.06633333760901" lon="12.796744447700554" id="-14447">
		<tag k="fixme" v="consider natural=peak for the most distinct mountains in the district" />
		<tag k="name" v="Råvedåsen" />
		<tag k="natural" v="hill" />
		<tag k="place" v="locality" />
		<tag k="ssr:stedsnr" v="229769" />
	</node>
	<node lat="66.0575722228698" lon="12.85620554515717" id="-14449">
		<tag k="fixme" v="consider natural=peak for the most distinct mountains in the district" />
		<tag k="name" v="Aspåsen" />
		<tag k="natural" v="hill" />
		<tag k="place" v="locality" />
		<tag k="ssr:stedsnr" v="229787" />
	</node>
	<node lat="66.07240555856968" lon="12.82014444917766" id="-14450">
		<tag k="fixme" v="consider natural=saddle" />
		<tag k="name" v="Trongan" />
		<tag k="natural" v="valley" />
		<tag k="place" v="locality" />
		<tag k="ssr:stedsnr" v="229788" />
	</node>
	<node lat="66.07080278128753" lon="12.985855560375498" id="-14451">
		<tag k="fixme" v="consider natural=peak for the most distinct mountains in the district" />
		<tag k="name" v="Andersåsen" />
		<tag k="natural" v="hill" />
		<tag k="place" v="locality" />
		<tag k="ssr:stedsnr" v="229869" />
	</node>
	<node lat="66.07175277496259" lon="12.95823888150789" id="-14452">
		<tag k="fixme" v="consider natural=peak for the most distinct mountains in the district" />
		<tag k="name" v="Røyskattåsen" />
		<tag k="natural" v="hill" />
		<tag k="place" v="locality" />
		<tag k="ssr:stedsnr" v="229873" />
	</node>
	<node lat="66.05881111150354" lon="12.876077781139593" id="-14453">
		<tag k="name" v="Remman" />
		<tag k="natural" v="hill" />
		<tag k="place" v="locality" />
		<tag k="ssr:stedsnr" v="229878" />
	</node>
	<node lat="66.13868055784458" lon="13.215019455377131" id="-14454">
		<tag k="name" v="Ner-Ranvassli" />
		<tag k="natural" v="slope" />
		<tag k="place" v="locality" />
		<tag k="ssr:stedsnr" v="230000" />
	</node>
	<node lat="66.11871111280075" lon="12.853930566341507" id="-14455">
		<tag k="name" v="Mosryggen" />
		<tag k="natural" v="ridge" />
		<tag k="place" v="locality" />
		<tag k="ssr:stedsnr" v="229939" />
	</node>
	<node lat="66.12331388678282" lon="13.15387500902547" id="-14459">
		<tag k="fixme" v="consider natural=peak for the most distinct mountains in the district" />
		<tag k="name" v="Tovåsklampen" />
		<tag k="natural" v="hill" />
		<tag k="place" v="locality" />
		<tag k="ssr:stedsnr" v="76153" />
	</node>
	<node lat="66.02738888864243" lon="13.203577787227406" id="-14461">
		<tag k="fixme" v="consider natural=peak for the most distinct mountains in the district" />
		<tag k="name" v="Midtre Toven" />
		<tag k="natural" v="hill" />
		<tag k="place" v="locality" />
		<tag k="ssr:stedsnr" v="76002" />
	</node>
	<node lat="66.07199166863747" lon="12.945736118854818" id="-14467">
		<tag k="fixme" v="consider natural=peak for the most distinct mountains in the district" />
		<tag k="name" v="Brattåsen" />
		<tag k="natural" v="hill" />
		<tag k="place" v="locality" />
		<tag k="ssr:stedsnr" v="76219" />
	</node>
	<node lat="66.07639722374768" lon="12.827461121429335" id="-14468">
		<tag k="name" v="Høgåsan" />
		<tag k="natural" v="hill" />
		<tag k="place" v="locality" />
		<tag k="ssr:stedsnr" v="76229" />
	</node>
	<node lat="66.07971388881353" lon="12.87368612163306" id="-14469">
		<tag k="name" v="Hinnåsen" />
		<tag k="natural" v="hill" />
		<tag k="place" v="locality" />
		<tag k="ssr:stedsnr" v="76230" />
	</node>
	<node lat="65.98315277431041" lon="12.805394447030604" id="-14473">
		<tag k="name" v="Stordalen" />
		<tag k="natural" v="valley" />
		<tag k="place" v="locality" />
		<tag k="ssr:stedsnr" v="91825" />
	</node>
	<node lat="66.02336388964434" lon="12.944741661523475" id="-14476">
		<tag k="fixme" v="consider natural=peak for the most distinct mountains in the district" />
		<tag k="name" v="Dagsvikåsen" />
		<tag k="natural" v="hill" />
		<tag k="place" v="locality" />
		<tag k="ssr:stedsnr" v="105497" />
	</node>
	<node lat="66.09535555336402" lon="13.00939443864727" id="-14479">
		<tag k="name" v="Stordalen" />
		<tag k="natural" v="valley" />
		<tag k="place" v="locality" />
		<tag k="ssr:stedsnr" v="107181" />
	</node>
	<node lat="66.08654721937118" lon="13.077997220277664" id="-14480">
		<tag k="name" v="Storseljehammaren" />
		<tag k="natural" v="hill" />
		<tag k="place" v="locality" />
		<tag k="ssr:stedsnr" v="107193" />
	</node>
	<node lat="66.09592424952588" lon="13.095723679026808" id="-14481">
		<tag k="name" v="Kovlinakken" />
		<tag k="natural" v="ridge" />
		<tag k="place" v="locality" />
		<tag k="ssr:stedsnr" v="107217" />
	</node>
	<node lat="66.0916027775268" lon="13.07693054680948" id="-14482">
		<tag k="name" v="Granmosletta" />
		<tag k="place" v="locality" />
		<tag k="ssr:stedsnr" v="107218" />
	</node>
	<node lat="66.08595555424314" lon="12.848150004452371" id="-14483">
		<tag k="name" v="Kvitbergan" />
		<tag k="natural" v="cliff" />
		<tag k="ssr:stedsnr" v="107271" />
	</node>
	<node lat="66.0878472223823" lon="12.93619444229244" id="-14484">
		<tag k="name" v="Simsøfjellet" />
		<tag k="natural" v="cliff" />
		<tag k="ssr:stedsnr" v="107287" />
	</node>
	<node lat="66.08292777919516" lon="12.801219452433184" id="-14485">
		<tag k="name" v="Bakkafjellet" />
		<tag k="natural" v="cliff" />
		<tag k="ssr:stedsnr" v="107319" />
	</node>
	<node lat="66.11735278077572" lon="12.848108325201544" id="-14486">
		<tag k="name" v="Breiskarlia" />
		<tag k="natural" v="slope" />
		<tag k="place" v="locality" />
		<tag k="ssr:stedsnr" v="107469" />
	</node>
	<node lat="66.0515111119724" lon="12.973788878260438" id="-14491">
		<tag k="fixme" v="consider natural=peak for the most distinct mountains in the district" />
		<tag k="name" v="Tortenåsen" />
		<tag k="natural" v="hill" />
		<tag k="place" v="locality" />
		<tag k="ssr:stedsnr" v="108710" />
	</node>
	<node lat="66.06161111369013" lon="12.712111120326693" id="-14492">
		<tag k="name" v="Vardhaugen" />
		<tag k="natural" v="hill" />
		<tag k="place" v="locality" />
		<tag k="ssr:stedsnr" v="108668" />
	</node>
	<node lat="66.06492222517235" lon="12.940227769976953" id="-14493">
		<tag k="fixme" v="consider natural=peak for the most distinct mountains in the district" />
		<tag k="name" v="Bjønnåsen" />
		<tag k="natural" v="hill" />
		<tag k="place" v="locality" />
		<tag k="ssr:stedsnr" v="108808" />
	</node>
	<node lat="66.0672583344" lon="13.038049992308663" id="-14494">
		<tag k="name" v="Vassåslia" />
		<tag k="natural" v="slope" />
		<tag k="place" v="locality" />
		<tag k="ssr:stedsnr" v="108815" />
	</node>
	<node lat="66.1264388854103" lon="12.879427787798445" id="-14496">
		<tag k="name" v="Valen" />
		<tag k="place" v="locality" />
		<tag k="ssr:stedsnr" v="108968" />
	</node>
	<node lat="66.15191666517282" lon="13.04705001003609" id="-14499">
		<tag k="fixme" v="consider natural=peak for the most distinct mountains in the district" />
		<tag k="name" v="Høgåsen" />
		<tag k="natural" v="hill" />
		<tag k="place" v="locality" />
		<tag k="ssr:stedsnr" v="136012" />
	</node>
	<node lat="66.17659444106911" lon="13.19192222228899" id="-14506">
		<tag k="fixme" v="consider natural=peak for the most distinct mountains in the district" />
		<tag k="name" v="Lauvåsen" />
		<tag k="natural" v="hill" />
		<tag k="place" v="locality" />
		<tag k="ssr:stedsnr" v="136811" />
	</node>
	<node lat="66.19012499708745" lon="13.357344438908115" id="-14511">
		<tag k="alt_name" v="Lindsethholten" />
		<tag k="name" v="Lindsetholtan" />
		<tag k="natural" v="hill" />
		<tag k="place" v="locality" />
		<tag k="ssr:stedsnr" v="137396" />
	</node>
	<node lat="66.06543889233824" lon="12.736588887729598" id="-14514">
		<tag k="name" v="Haugan" />
		<tag k="natural" v="hill" />
		<tag k="place" v="locality" />
		<tag k="ssr:stedsnr" v="167072" />
	</node>
	<node lat="66.07888611532483" lon="13.076119444509512" id="-14515">
		<tag k="name" v="Sommarsetholten" />
		<tag k="natural" v="slope" />
		<tag k="place" v="locality" />
		<tag k="ssr:stedsnr" v="167158" />
	</node>
	<node lat="66.048291669554" lon="13.010072228045628" id="-14516">
		<tag k="name" v="Middagstuva" />
		<tag k="natural" v="hill" />
		<tag k="place" v="locality" />
		<tag k="ssr:stedsnr" v="168407" />
	</node>
	<node lat="66.0524777798177" lon="12.789627771199141" id="-14517">
		<tag k="name" v="Kuviklia" />
		<tag k="natural" v="slope" />
		<tag k="place" v="locality" />
		<tag k="ssr:stedsnr" v="168628" />
	</node>
	<node lat="66.06006944528798" lon="12.817911115026046" id="-14518">
		<tag k="fixme" v="consider natural=peak for the most distinct mountains in the district" />
		<tag k="name" v="Strandåsen" />
		<tag k="natural" v="hill" />
		<tag k="place" v="locality" />
		<tag k="ssr:stedsnr" v="168757" />
	</node>
	<node lat="66.05570555376566" lon="12.806302780404929" id="-14519">
		<tag k="name" v="Nakkan" />
		<tag k="natural" v="ridge" />
		<tag k="place" v="locality" />
		<tag k="ssr:stedsnr" v="168760" />
	</node>
	<node lat="66.05610555236679" lon="12.811794437608656" id="-14520">
		<tag k="fixme" v="consider natural=saddle" />
		<tag k="name" v="Buskaret" />
		<tag k="natural" v="valley" />
		<tag k="place" v="locality" />
		<tag k="ssr:stedsnr" v="168761" />
	</node>
	<node lat="66.126461110233" lon="12.847200002903566" id="-14522">
		<tag k="name" v="Ramnskørfloget" />
		<tag k="natural" v="cliff" />
		<tag k="ssr:stedsnr" v="168928" />
	</node>
	<node lat="66.14623332974222" lon="13.10390833174716" id="-14523">
		<tag k="name" v="Vakkerlia" />
		<tag k="natural" v="slope" />
		<tag k="place" v="locality" />
		<tag k="ssr:stedsnr" v="168937" />
	</node>
	<node lat="66.15950555743123" lon="13.209849991945541" id="-14524">
		<tag k="name" v="Melen" />
		<tag k="natural" v="valley" />
		<tag k="place" v="locality" />
		<tag k="ssr:stedsnr" v="168938" />
	</node>
	<node lat="66.0684249977028" lon="12.928086103896055" id="-14528">
		<tag k="fixme" v="consider natural=peak for the most distinct mountains in the district" />
		<tag k="name" v="Furuåsen" />
		<tag k="natural" v="hill" />
		<tag k="place" v="locality" />
		<tag k="ssr:stedsnr" v="168859" />
	</node>
	<node lat="66.21996667101335" lon="13.323086116594732" id="-14530">
		<tag k="fixme" v="consider natural=peak for the most distinct mountains in the district" />
		<tag k="name" v="Yttergårdsfjellet" />
		<tag k="natural" v="hill" />
		<tag k="place" v="locality" />
		<tag k="ssr:stedsnr" v="197108" />
	</node>
	<node lat="66.00797499637017" lon="13.008280551043669" id="-14531">
		<tag k="fixme" v="consider natural=peak for the most distinct mountains in the district" />
		<tag k="loc_name:sma" v="Gasketjahke" />
		<tag k="name" v="Litltoven" />
		<tag k="name:no" v="Litltoven" />
		<tag k="natural" v="hill" />
		<tag k="place" v="locality" />
		<tag k="ssr:stedsnr" v="197125" />
	</node>
	<node lat="66.00239444206764" lon="12.96211389356977" id="-14532">
		<tag k="fixme" v="consider natural=peak for the most distinct mountains in the district" />
		<tag k="name" v="Grønnliaksla" />
		<tag k="natural" v="hill" />
		<tag k="place" v="locality" />
		<tag k="ssr:stedsnr" v="197127" />
	</node>
	<node lat="66.03853610940621" lon="13.01714722387331" id="-14538">
		<tag k="alt_name" v="Rasskardtinden" />
		<tag k="fixme" v="consider natural=peak for the most distinct mountains in the district" />
		<tag k="name" v="Rasskartindan" />
		<tag k="natural" v="hill" />
		<tag k="place" v="locality" />
		<tag k="ssr:stedsnr" v="198014" />
	</node>
	<node lat="66.00351111485932" lon="12.908172230808175" id="-14547">
		<tag k="name" v="Henrik-dalen" />
		<tag k="natural" v="valley" />
		<tag k="place" v="locality" />
		<tag k="ssr:stedsnr" v="226002" />
	</node>
	<node lat="66.09189444032054" lon="12.739177776050147" id="-14555">
		<tag k="fixme" v="consider natural=saddle" />
		<tag k="name" v="Brennskaret" />
		<tag k="natural" v="valley" />
		<tag k="place" v="locality" />
		<tag k="ssr:stedsnr" v="229305" />
	</node>
	<node lat="66.07941388549763" lon="12.712394454346942" id="-14556">
		<tag k="name" v="Vargstua" />
		<tag k="place" v="locality" />
		<tag k="ssr:stedsnr" v="229308" />
	</node>
	<node lat="66.04843055171628" lon="13.020399996537341" id="-14558">
		<tag k="name" v="Mimaurhaugen" />
		<tag k="natural" v="ridge" />
		<tag k="place" v="locality" />
		<tag k="ssr:stedsnr" v="229402" />
	</node>
	<node lat="66.0470000031243" lon="13.044858341550041" id="-14559">
		<tag k="name" v="Hopadalan" />
		<tag k="natural" v="valley" />
		<tag k="place" v="locality" />
		<tag k="ssr:stedsnr" v="229407" />
	</node>
	<node lat="66.03568610704941" lon="12.960266656447372" id="-14560">
		<tag k="name" v="Vedingshaugen" />
		<tag k="natural" v="hill" />
		<tag k="place" v="locality" />
		<tag k="ssr:stedsnr" v="229526" />
	</node>
	<node lat="66.04363055430058" lon="12.958486117146338" id="-14561">
		<tag k="name" v="Veltarlia" />
		<tag k="natural" v="slope" />
		<tag k="place" v="locality" />
		<tag k="ssr:stedsnr" v="229551" />
	</node>
	<node lat="66.04077777638928" lon="12.948544435764717" id="-14562">
		<tag k="name" v="Katturhaugen" />
		<tag k="natural" v="ridge" />
		<tag k="place" v="locality" />
		<tag k="ssr:stedsnr" v="229554" />
	</node>
	<node lat="66.03394444766514" lon="12.662955565920011" id="-14565">
		<tag k="name" v="Sørhaugen" />
		<tag k="natural" v="hill" />
		<tag k="place" v="locality" />
		<tag k="ssr:stedsnr" v="229658" />
	</node>
	<node lat="66.0513805580297" lon="13.006780563938385" id="-14566">
		<tag k="name" v="Nylandsengan" />
		<tag k="natural" v="slope" />
		<tag k="place" v="locality" />
		<tag k="ssr:stedsnr" v="229694" />
	</node>
	<node lat="66.06378055636559" lon="12.88854999300232" id="-14570">
		<tag k="name" v="Åstunga" />
		<tag k="natural" v="slope" />
		<tag k="place" v="locality" />
		<tag k="ssr:stedsnr" v="229858" />
	</node>
	<node lat="66.05354166528251" lon="12.850591670689731" id="-14571">
		<tag k="name" v="Skrubbhaugen" />
		<tag k="natural" v="hill" />
		<tag k="place" v="locality" />
		<tag k="ssr:stedsnr" v="229754" />
	</node>
	<node lat="66.12918611534204" lon="12.857133339995123" id="-14572">
		<tag k="name" v="Geitskøra" />
		<tag k="place" v="locality" />
		<tag k="ssr:stedsnr" v="229915" />
	</node>
	<node lat="66.0465916693345" lon="13.085836110317244" id="-14573">
		<tag k="name" v="Mølnhusdalen" />
		<tag k="natural" v="valley" />
		<tag k="place" v="locality" />
		<tag k="ssr:stedsnr" v="257008" />
	</node>
	<node lat="66.2021194454822" lon="13.271166669850665" id="-14574">
		<tag k="fixme" v="consider natural=peak for the most distinct mountains in the district" />
		<tag k="name" v="Neppelen" />
		<tag k="natural" v="hill" />
		<tag k="place" v="locality" />
		<tag k="ssr:stedsnr" v="258002" />
	</node>
	<node lat="66.02241666839937" lon="12.864841671038779" id="-14576">
		<tag k="name" v="Fjelldalen" />
		<tag k="natural" v="valley" />
		<tag k="place" v="locality" />
		<tag k="ssr:stedsnr" v="258025" />
	</node>
	<node lat="66.07380555527818" lon="13.05297777699242" id="-14577">
		<tag k="alt_name" v="Simohaugen" />
		<tag k="name" v="Symohaugen" />
		<tag k="natural" v="hill" />
		<tag k="place" v="locality" />
		<tag k="ssr:stedsnr" v="258072" />
	</node>
	<node lat="66.14388889267471" lon="13.187419447276323" id="-14585">
		<tag k="name" v="Finnhagen" />
		<tag k="natural" v="valley" />
		<tag k="place" v="locality" />
		<tag k="ssr:stedsnr" v="258175" />
	</node>
	<node lat="66.0158194471985" lon="12.821733330315894" id="-14590">
		<tag k="fixme" v="consider natural=peak for the most distinct mountains in the district" />
		<tag k="name" v="Horva" />
		<tag k="natural" v="hill" />
		<tag k="place" v="locality" />
		<tag k="ssr:stedsnr" v="258891" />
	</node>
	<node lat="66.01626110996418" lon="12.959211116774615" id="-14594">
		<tag k="name" v="Mølnhusgjota" />
		<tag k="natural" v="valley" />
		<tag k="place" v="locality" />
		<tag k="ssr:stedsnr" v="287511" />
	</node>
	<node lat="66.00578888970922" lon="12.855736100227356" id="-14595">
		<tag k="fixme" v="consider natural=peak for the most distinct mountains in the district" />
		<tag k="name" v="Hellesvikåsen" />
		<tag k="natural" v="hill" />
		<tag k="place" v="locality" />
		<tag k="ssr:stedsnr" v="287513" />
	</node>
	<node lat="66.02298333162659" lon="12.962647214505512" id="-14597">
		<tag k="name" v="Brufosshola" />
		<tag k="place" v="locality" />
		<tag k="ssr:stedsnr" v="288458" />
	</node>
	<node lat="66.08645000272527" lon="12.93663055249605" id="-14598">
		<tag k="name" v="Kalia" />
		<tag k="natural" v="slope" />
		<tag k="place" v="locality" />
		<tag k="ssr:stedsnr" v="289192" />
	</node>
	<node lat="66.0875166653733" lon="12.752897225890555" id="-14599">
		<tag k="name" v="Bulia" />
		<tag k="natural" v="slope" />
		<tag k="place" v="locality" />
		<tag k="ssr:stedsnr" v="289311" />
	</node>
	<node lat="66.11575555458761" lon="13.0601305524154" id="-14600">
		<tag k="fixme" v="consider natural=peak for the most distinct mountains in the district" />
		<tag k="name" v="Øverskarhaugen" />
		<tag k="natural" v="hill" />
		<tag k="place" v="locality" />
		<tag k="ssr:stedsnr" v="289511" />
	</node>
	<node lat="66.22156389197147" lon="13.411686102361825" id="-14601">
		<tag k="fixme" v="consider natural=peak for the most distinct mountains in the district" />
		<tag k="name" v="Heiet" />
		<tag k="natural" v="hill" />
		<tag k="place" v="locality" />
		<tag k="ssr:stedsnr" v="289890" />
	</node>
	<node lat="66.1941499971762" lon="13.38697777625035" id="-14603">
		<tag k="name" v="Stordalen" />
		<tag k="natural" v="valley" />
		<tag k="place" v="locality" />
		<tag k="ssr:stedsnr" v="289912" />
	</node>
	<node lat="66.04124166922728" lon="12.956658331903219" id="-14604">
		<tag k="name" v="Legde" />
		<tag k="natural" v="valley" />
		<tag k="place" v="locality" />
		<tag k="ssr:stedsnr" v="290490" />
	</node>
	<node lat="66.06171944214435" lon="13.005833339679029" id="-14605">
		<tag k="name" v="Oksfloget" />
		<tag k="natural" v="cliff" />
		<tag k="ssr:stedsnr" v="290608" />
	</node>
	<node lat="66.04928055694886" lon="12.976125002365944" id="-14607">
		<tag k="name" v="Munnarberget" />
		<tag k="natural" v="hill" />
		<tag k="place" v="locality" />
		<tag k="ssr:stedsnr" v="290641" />
	</node>
	<node lat="66.05611388534376" lon="12.842188884330321" id="-14612">
		<tag k="name" v="Blaremman" />
		<tag k="natural" v="slope" />
		<tag k="place" v="locality" />
		<tag k="ssr:stedsnr" v="290743" />
	</node>
	<node lat="66.15912778126457" lon="13.14358333522667" id="-14615">
		<tag k="name" v="Ranfloget" />
		<tag k="natural" v="cliff" />
		<tag k="ssr:stedsnr" v="290902" />
	</node>
	<node lat="66.1259916689492" lon="12.853094435050032" id="-14616">
		<tag k="name" v="Kalvlia" />
		<tag k="natural" v="slope" />
		<tag k="place" v="locality" />
		<tag k="ssr:stedsnr" v="290943" />
	</node>
	<node lat="66.13284721839273" lon="13.067905565852632" id="-14617">
		<tag k="name" v="Skarsbakken" />
		<tag k="natural" v="slope" />
		<tag k="place" v="locality" />
		<tag k="ssr:stedsnr" v="290953" />
	</node>
	<node lat="66.08617221813124" lon="12.87539722195419" id="-14620">
		<tag k="name" v="Løkåslia" />
		<tag k="natural" v="slope" />
		<tag k="place" v="locality" />
		<tag k="ssr:stedsnr" v="318212" />
	</node>
	<node lat="66.07025555988768" lon="12.762647213483634" id="-14632">
		<tag k="name" v="Smålian" />
		<tag k="natural" v="slope" />
		<tag k="place" v="locality" />
		<tag k="ssr:stedsnr" v="349209" />
	</node>
	<node lat="66.07233333207273" lon="12.752780554397285" id="-14633">
		<tag k="name" v="Kista" />
		<tag k="natural" v="valley" />
		<tag k="place" v="locality" />
		<tag k="ssr:stedsnr" v="349211" />
	</node>
	<node lat="66.07929722372347" lon="13.056630547870531" id="-14635">
		<tag k="name" v="Berghaugen" />
		<tag k="natural" v="hill" />
		<tag k="place" v="locality" />
		<tag k="ssr:stedsnr" v="349270" />
	</node>
	<node lat="66.07830833103255" lon="13.047136108396803" id="-14636">
		<tag k="name" v="Ranhaugen" />
		<tag k="natural" v="hill" />
		<tag k="place" v="locality" />
		<tag k="ssr:stedsnr" v="349272" />
	</node>
	<node lat="66.07787777935297" lon="13.031830551351156" id="-14637">
		<tag k="name" v="Storhaugen" />
		<tag k="natural" v="hill" />
		<tag k="place" v="locality" />
		<tag k="ssr:stedsnr" v="349276" />
	</node>
	<node lat="66.08171389303432" lon="13.029105549007113" id="-14638">
		<tag k="fixme" v="consider natural=peak for the most distinct mountains in the district" />
		<tag k="name" v="Åsan" />
		<tag k="natural" v="hill" />
		<tag k="place" v="locality" />
		<tag k="ssr:stedsnr" v="349278" />
	</node>
	<node lat="66.05394166841921" lon="13.016669450944823" id="-14640">
		<tag k="name" v="Moen" />
		<tag k="place" v="locality" />
		<tag k="ssr:stedsnr" v="350369" />
	</node>
	<node lat="66.02663055580031" lon="12.870694443986169" id="-14641">
		<tag k="name" v="Dalen" />
		<tag k="natural" v="valley" />
		<tag k="place" v="locality" />
		<tag k="ssr:stedsnr" v="350409" />
	</node>
	<node lat="66.11782777545821" lon="12.837658336490138" id="-14642">
		<tag k="name" v="Djupkista" />
		<tag k="natural" v="valley" />
		<tag k="place" v="locality" />
		<tag k="ssr:stedsnr" v="350417" />
	</node>
	<node lat="66.1167388896105" lon="12.835375000207533" id="-14643">
		<tag k="name" v="Jorabben" />
		<tag k="natural" v="ridge" />
		<tag k="place" v="locality" />
		<tag k="ssr:stedsnr" v="350419" />
	</node>
	<node lat="66.05193888780579" lon="12.779924989365833" id="-14644">
		<tag k="name" v="Åvikhaugen" />
		<tag k="natural" v="hill" />
		<tag k="place" v="locality" />
		<tag k="ssr:stedsnr" v="350606" />
	</node>
	<node lat="66.05209166652226" lon="12.882680549429452" id="-14646">
		<tag k="name" v="Tømmerviklian" />
		<tag k="natural" v="slope" />
		<tag k="place" v="locality" />
		<tag k="ssr:stedsnr" v="350706" />
	</node>
	<node lat="66.057588884476" lon="13.11049999904045" id="-14648">
		<tag k="name" v="Klampen" />
		<tag k="natural" v="hill" />
		<tag k="place" v="locality" />
		<tag k="ssr:stedsnr" v="350666" />
	</node>
	<node lat="66.1312972178145" lon="13.156333333228035" id="-14650">
		<tag k="name" v="Svartfloget" />
		<tag k="natural" v="cliff" />
		<tag k="ssr:stedsnr" v="350982" />
	</node>
	<node lat="66.07269166307177" lon="12.728675009486208" id="-14654">
		<tag k="fixme" v="consider natural=peak for the most distinct mountains in the district" />
		<tag k="name" v="Reinesaksla" />
		<tag k="natural" v="hill" />
		<tag k="place" v="locality" />
		<tag k="ssr:stedsnr" v="379230" />
	</node>
	<node lat="66.18359444805769" lon="13.370205554553399" id="-14655">
		<tag k="fixme" v="consider natural=peak for the most distinct mountains in the district" />
		<tag k="name" v="Bakkafjellet" />
		<tag k="natural" v="hill" />
		<tag k="place" v="locality" />
		<tag k="ssr:stedsnr" v="379413" />
	</node>
	<node lat="66.09383333703592" lon="13.094799999823072" id="-14660">
		<tag k="name" v="Kovlia" />
		<tag k="natural" v="slope" />
		<tag k="place" v="locality" />
		<tag k="ssr:stedsnr" v="471228" />
	</node>
	<node lat="66.08438333362655" lon="13.09482499982354" id="-14663">
		<tag k="name" v="Stagrembakkan" />
		<tag k="natural" v="slope" />
		<tag k="place" v="locality" />
		<tag k="ssr:stedsnr" v="471142" />
	</node>
	<node lat="66.0934722209117" lon="13.079638890845002" id="-14665">
		<tag k="name" v="Granmoan" />
		<tag k="place" v="locality" />
		<tag k="ssr:stedsnr" v="471198" />
	</node>
	<node lat="66.08650000373328" lon="13.075875005233556" id="-14666">
		<tag k="fixme" v="consider natural=saddle" />
		<tag k="name" v="Kløvan" />
		<tag k="natural" v="valley" />
		<tag k="place" v="locality" />
		<tag k="ssr:stedsnr" v="471216" />
	</node>
	<node lat="66.08593333767526" lon="12.842824992502043" id="-14668">
		<tag k="name" v="Rabben" />
		<tag k="natural" v="ridge" />
		<tag k="place" v="locality" />
		<tag k="ssr:stedsnr" v="471316" />
	</node>
	<node lat="66.09833610908203" lon="12.754555565475142" id="-14670">
		<tag k="name" v="Gløsen" />
		<tag k="natural" v="ridge" />
		<tag k="place" v="locality" />
		<tag k="ssr:stedsnr" v="471458" />
	</node>
	<node lat="66.10799722509708" lon="12.79264167592996" id="-14671">
		<tag k="name" v="Storlahaugen" />
		<tag k="natural" v="hill" />
		<tag k="place" v="locality" />
		<tag k="ssr:stedsnr" v="471498" />
	</node>
	<node lat="66.13552221928175" lon="13.195669454067772" id="-14672">
		<tag k="name" v="Keipen" />
		<tag k="natural" v="valley" />
		<tag k="place" v="locality" />
		<tag k="ssr:stedsnr" v="471973" />
	</node>
	<node lat="66.16405833427416" lon="13.115152777046758" id="-14673">
		<tag k="name" v="Rørvikhaugan" />
		<tag k="natural" v="ridge" />
		<tag k="place" v="locality" />
		<tag k="ssr:stedsnr" v="471887" />
	</node>
	<node lat="66.1438972232642" lon="13.194108329007635" id="-14675">
		<tag k="name" v="Rundfjellet" />
		<tag k="natural" v="cliff" />
		<tag k="ssr:stedsnr" v="471946" />
	</node>
	<node lat="66.12501388611457" lon="12.837925006680528" id="-14676">
		<tag k="name" v="Moen" />
		<tag k="place" v="locality" />
		<tag k="ssr:stedsnr" v="471958" />
	</node>
	<node lat="66.13233889162726" lon="13.188941673496132" id="-14679">
		<tag k="name" v="Fåjæhaugli" />
		<tag k="natural" v="slope" />
		<tag k="place" v="locality" />
		<tag k="ssr:stedsnr" v="471991" />
	</node>
	<node lat="66.11451944535538" lon="13.140602774932344" id="-14680">
		<tag k="name" v="Krekenkråa" />
		<tag k="natural" v="valley" />
		<tag k="place" v="locality" />
		<tag k="ssr:stedsnr" v="472351" />
	</node>
	<node lat="66.11758055965358" lon="13.130880555515192" id="-14681">
		<tag k="name" v="Røyrtjønnholten" />
		<tag k="natural" v="ridge" />
		<tag k="place" v="locality" />
		<tag k="ssr:stedsnr" v="472356" />
	</node>
	<node lat="66.10093055559047" lon="13.137727781694078" id="-14682">
		<tag k="fixme" v="consider natural=saddle" />
		<tag k="name" v="Granholtskaret" />
		<tag k="natural" v="valley" />
		<tag k="place" v="locality" />
		<tag k="ssr:stedsnr" v="472386" />
	</node>
	<node lat="66.04066944267139" lon="13.01035832327617" id="-14683">
		<tag k="name" v="Nordlia" />
		<tag k="natural" v="slope" />
		<tag k="place" v="locality" />
		<tag k="ssr:stedsnr" v="472393" />
	</node>
	<node lat="66.05302777569774" lon="13.063841676850641" id="-14684">
		<tag k="fixme" v="consider natural=peak for the most distinct mountains in the district" />
		<tag k="name" v="Åstuva" />
		<tag k="natural" v="hill" />
		<tag k="place" v="locality" />
		<tag k="ssr:stedsnr" v="472397" />
	</node>
	<node lat="66.04128333336203" lon="12.697097230657791" id="-14687">
		<tag k="fixme" v="consider natural=peak for the most distinct mountains in the district" />
		<tag k="name" v="Fremmeråsan" />
		<tag k="natural" v="hill" />
		<tag k="place" v="locality" />
		<tag k="ssr:stedsnr" v="472640" />
	</node>
	<node lat="66.03660277788893" lon="12.96650000467809" id="-14689">
		<tag k="fixme" v="consider natural=peak for the most distinct mountains in the district" />
		<tag k="name" v="Engeåsen" />
		<tag k="natural" v="hill" />
		<tag k="place" v="locality" />
		<tag k="ssr:stedsnr" v="472516" />
	</node>
	<node lat="66.05656389063856" lon="12.829113895641454" id="-14691">
		<tag k="fixme" v="consider natural=peak for the most distinct mountains in the district" />
		<tag k="name" v="Damåsen" />
		<tag k="natural" v="hill" />
		<tag k="place" v="locality" />
		<tag k="ssr:stedsnr" v="472766" />
	</node>
	<node lat="66.05887777816463" lon="12.8543777867629" id="-14693">
		<tag k="fixme" v="consider natural=peak for the most distinct mountains in the district" />
		<tag k="name" v="Bjønnmyrhaugan" />
		<tag k="natural" v="hill" />
		<tag k="place" v="locality" />
		<tag k="ssr:stedsnr" v="472770" />
	</node>
	<node lat="66.06220278107004" lon="12.914536102970047" id="-14694">
		<tag k="name" v="Marigjota" />
		<tag k="natural" v="valley" />
		<tag k="place" v="locality" />
		<tag k="ssr:stedsnr" v="472848" />
	</node>
	<node lat="66.08676110697256" lon="12.922061100167078" id="-14698">
		<tag k="name" v="Kallia" />
		<tag k="natural" v="slope" />
		<tag k="place" v="locality" />
		<tag k="ssr:stedsnr" v="410305" />
	</node>
	<node lat="66.10756388694205" lon="13.074316676757135" id="-14699">
		<tag k="name" v="Forsbakken" />
		<tag k="natural" v="slope" />
		<tag k="place" v="locality" />
		<tag k="ssr:stedsnr" v="410525" />
	</node>
	<node lat="66.04492499772412" lon="13.120416668471291" id="-14700">
		<tag k="name" v="Reinhagen" />
		<tag k="natural" v="slope" />
		<tag k="place" v="locality" />
		<tag k="ssr:stedsnr" v="411429" />
	</node>
	<node lat="66.06371111294057" lon="12.843511121316228" id="-14702">
		<tag k="name" v="Skarligjota" />
		<tag k="natural" v="valley" />
		<tag k="place" v="locality" />
		<tag k="ssr:stedsnr" v="411799" />
	</node>
	<node lat="66.1270833338772" lon="12.85553611369906" id="-14705">
		<tag k="name" v="Rismålstuva" />
		<tag k="natural" v="hill" />
		<tag k="place" v="locality" />
		<tag k="ssr:stedsnr" v="411922" />
	</node>
	<node lat="65.97910277812396" lon="12.736824997280243" id="-14708">
		<tag k="name" v="Hesthagen" />
		<tag k="natural" v="slope" />
		<tag k="place" v="locality" />
		<tag k="ssr:stedsnr" v="440107" />
	</node>
	<node lat="66.20766389159283" lon="13.46169166259187" id="-14709">
		<tag k="name" v="Almlia" />
		<tag k="natural" v="slope" />
		<tag k="place" v="locality" />
		<tag k="ssr:stedsnr" v="440110" />
	</node>
	<node lat="66.03049444015518" lon="13.127852778609716" id="-14713">
		<tag k="fixme" v="consider natural=peak for the most distinct mountains in the district" />
		<tag k="name" v="Mølnhusfjellet" />
		<tag k="natural" v="hill" />
		<tag k="place" v="locality" />
		<tag k="ssr:stedsnr" v="440016" />
	</node>
	<node lat="66.08180555251273" lon="12.968941655916117" id="-14724">
		<tag k="fixme" v="consider natural=peak for the most distinct mountains in the district" />
		<tag k="name" v="Ytterhatten" />
		<tag k="natural" v="hill" />
		<tag k="place" v="locality" />
		<tag k="ssr:stedsnr" v="440250" />
	</node>
	<node lat="66.08636111488278" lon="13.188469446425174" id="-14725">
		<tag k="fixme" v="consider natural=peak for the most distinct mountains in the district" />
		<tag k="name" v="Toven" />
		<tag k="natural" v="hill" />
		<tag k="place" v="locality" />
		<tag k="ssr:stedsnr" v="440262" />
	</node>
	<node lat="66.0884638890363" lon="12.82862222708749" id="-14726">
		<tag k="fixme" v="consider natural=peak for the most distinct mountains in the district" />
		<tag k="name" v="Bøfjellet" />
		<tag k="natural" v="hill" />
		<tag k="place" v="locality" />
		<tag k="ssr:stedsnr" v="440267" />
	</node>
	<node lat="66.17506389234387" lon="13.347658336117467" id="-14727">
		<tag k="fixme" v="consider natural=peak for the most distinct mountains in the district" />
		<tag k="name" v="Slettfjellet" />
		<tag k="natural" v="hill" />
		<tag k="place" v="locality" />
		<tag k="ssr:stedsnr" v="440407" />
	</node>
	<node lat="66.16630555209771" lon="13.352508333085304" id="-14728">
		<tag k="fixme" v="consider natural=peak for the most distinct mountains in the district" />
		<tag k="name" v="Nonsvassåsen" />
		<tag k="natural" v="hill" />
		<tag k="place" v="locality" />
		<tag k="ssr:stedsnr" v="440418" />
	</node>
	<node lat="66.12576110721426" lon="13.28391388219376" id="-14730">
		<tag k="name" v="Vassendhella" />
		<tag k="natural" v="hill" />
		<tag k="place" v="locality" />
		<tag k="ssr:stedsnr" v="440503" />
	</node>
	<node lat="66.06221388690068" lon="12.704172214297724" id="-14735">
		<tag k="name" v="Reineskleiva" />
		<tag k="natural" v="slope" />
		<tag k="place" v="locality" />
		<tag k="ssr:stedsnr" v="471119" />
	</node>
	<node lat="66.09006110698463" lon="13.096100006794988" id="-14736">
		<tag k="name" v="Solvolldalen" />
		<tag k="natural" v="valley" />
		<tag k="place" v="locality" />
		<tag k="ssr:stedsnr" v="471219" />
	</node>
	<node lat="66.157997219286" lon="13.128916660309388" id="-14746">
		<tag k="name" v="Karienget" />
		<tag k="natural" v="slope" />
		<tag k="place" v="locality" />
		<tag k="ssr:stedsnr" v="471926" />
	</node>
	<node lat="66.12925059035858" lon="12.856381528938748" id="-14747">
		<tag k="name" v="Kølbakken" />
		<tag k="natural" v="slope" />
		<tag k="place" v="locality" />
		<tag k="ssr:stedsnr" v="471969" />
	</node>
	<node lat="66.10685277532744" lon="13.09088611268741" id="-14749">
		<tag k="name" v="Granåsen" />
		<tag k="natural" v="hill" />
		<tag k="place" v="locality" />
		<tag k="ssr:stedsnr" v="472369" />
	</node>
	<node lat="66.04823611111141" lon="12.961750002218078" id="-14750">
		<tag k="name" v="Ramnfloget" />
		<tag k="natural" v="cliff" />
		<tag k="ssr:stedsnr" v="472674" />
	</node>
	<node lat="66.07368333078865" lon="12.853808338996659" id="-14751">
		<tag k="name" v="Hushaugen" />
		<tag k="natural" v="hill" />
		<tag k="place" v="locality" />
		<tag k="ssr:stedsnr" v="472806" />
	</node>
	<node lat="66.15161944735293" lon="13.270636102754667" id="-14758">
		<tag k="fixme" v="consider natural=peak for the most distinct mountains in the district" />
		<tag k="name" v="Blyanten" />
		<tag k="natural" v="hill" />
		<tag k="place" v="locality" />
		<tag k="ssr:stedsnr" v="500551" />
	</node>
	<node lat="65.99289999870676" lon="12.78695278475104" id="-14760">
		<tag k="fixme" v="consider natural=peak for the most distinct mountains in the district" />
		<tag k="name" v="Storhammaren" />
		<tag k="natural" v="hill" />
		<tag k="place" v="locality" />
		<tag k="ssr:stedsnr" v="501094" />
	</node>
	<node lat="66.0208666626767" lon="12.946752773754284" id="-14765">
		<tag k="name" v="Nausthaugen" />
		<tag k="natural" v="hill" />
		<tag k="place" v="locality" />
		<tag k="ssr:stedsnr" v="530507" />
	</node>
	<node lat="66.0599833304672" lon="12.750027780168523" id="-14766">
		<tag k="fixme" v="consider natural=peak for the most distinct mountains in the district" />
		<tag k="name" v="Litlåsen" />
		<tag k="natural" v="hill" />
		<tag k="place" v="locality" />
		<tag k="ssr:stedsnr" v="531082" />
	</node>
	<node lat="66.07429721854545" lon="12.710463896446672" id="-14767">
		<tag k="fixme" v="consider natural=saddle" />
		<tag k="name" v="Jenselvreva" />
		<tag k="natural" v="valley" />
		<tag k="place" v="locality" />
		<tag k="ssr:stedsnr" v="531134" />
	</node>
	<node lat="66.06858888805566" lon="12.719788892557636" id="-14768">
		<tag k="name" v="Heia" />
		<tag k="natural" v="hill" />
		<tag k="place" v="locality" />
		<tag k="ssr:stedsnr" v="531140" />
	</node>
	<node lat="66.07797222422414" lon="12.859336113597324" id="-14770">
		<tag k="fixme" v="consider natural=saddle" />
		<tag k="name" v="Revhaugskaret" />
		<tag k="natural" v="valley" />
		<tag k="place" v="locality" />
		<tag k="ssr:stedsnr" v="531308" />
	</node>
	<node lat="66.09455277635189" lon="12.757455546125708" id="-14772">
		<tag k="name" v="Brennfjellet" />
		<tag k="natural" v="hill" />
		<tag k="place" v="locality" />
		<tag k="ssr:stedsnr" v="532285" />
	</node>
	<node lat="66.08373333417882" lon="12.727841674642558" id="-14773">
		<tag k="name" v="Åkkelvadmoen" />
		<tag k="place" v="locality" />
		<tag k="ssr:stedsnr" v="532304" />
	</node>
	<node lat="66.04207500224794" lon="13.052988882361957" id="-14776">
		<tag k="fixme" v="consider natural=saddle" />
		<tag k="name" v="Durmålskaret" />
		<tag k="natural" v="valley" />
		<tag k="place" v="locality" />
		<tag k="ssr:stedsnr" v="532395" />
	</node>
	<node lat="66.07256944779157" lon="12.84543332336175" id="-14778">
		<tag k="name" v="Klubben" />
		<tag k="natural" v="hill" />
		<tag k="place" v="locality" />
		<tag k="ssr:stedsnr" v="532778" />
	</node>
	<node lat="66.12793889101447" lon="12.84635834132539" id="-14779">
		<tag k="name" v="Litlfjellet" />
		<tag k="natural" v="cliff" />
		<tag k="ssr:stedsnr" v="532914" />
	</node>
	<node lat="66.12054166257427" lon="12.828388891362644" id="-14780">
		<tag k="name" v="Buberget" />
		<tag k="natural" v="hill" />
		<tag k="place" v="locality" />
		<tag k="ssr:stedsnr" v="532916" />
	</node>
	<node lat="66.129313887963" lon="12.874386110400218" id="-14784">
		<tag k="name" v="Gløsen" />
		<tag k="natural" v="ridge" />
		<tag k="place" v="locality" />
		<tag k="ssr:stedsnr" v="532929" />
	</node>
	<node lat="66.13476388767047" lon="13.177513881366082" id="-14786">
		<tag k="name" v="Hubuholet" />
		<tag k="natural" v="valley" />
		<tag k="place" v="locality" />
		<tag k="ssr:stedsnr" v="532978" />
	</node>
	<node lat="66.12328889361696" lon="13.112224991576994" id="-14787">
		<tag k="name" v="Kvannkløvli" />
		<tag k="natural" v="slope" />
		<tag k="place" v="locality" />
		<tag k="ssr:stedsnr" v="532981" />
	</node>
	<node lat="66.05689001536261" lon="12.876685829264547" id="-14789">
		<tag k="alt_name" v="Ølåsen" />
		<tag k="fixme" v="consider natural=peak for the most distinct mountains in the district" />
		<tag k="name" v="Ørsåsen" />
		<tag k="natural" v="hill" />
		<tag k="place" v="locality" />
		<tag k="ssr:stedsnr" v="560042" />
	</node>
	<node lat="66.0257944400659" lon="12.982305562697118" id="-14791">
		<tag k="name" v="Trolldalen" />
		<tag k="natural" v="valley" />
		<tag k="place" v="locality" />
		<tag k="ssr:stedsnr" v="561007" />
	</node>
	<node lat="66.07763610953548" lon="12.81034166943405" id="-14794">
		<tag k="name" v="Nubban" />
		<tag k="natural" v="hill" />
		<tag k="place" v="locality" />
		<tag k="ssr:stedsnr" v="561207" />
	</node>
	<node lat="66.08893055511561" lon="13.135005565532296" id="-14798">
		<tag k="fixme" v="consider natural=peak for the most distinct mountains in the district" />
		<tag k="name" v="Svartpallen" />
		<tag k="natural" v="hill" />
		<tag k="place" v="locality" />
		<tag k="ssr:stedsnr" v="561243" />
	</node>
	<node lat="66.13026944238149" lon="13.16651944028262" id="-14803">
		<tag k="name" v="Randalen" />
		<tag k="natural" v="valley" />
		<tag k="place" v="locality" />
		<tag k="ssr:stedsnr" v="561147" />
	</node>
	<node lat="66.14737500163422" lon="13.263547218602069" id="-14808">
		<tag k="name" v="Rundfjelldalen" />
		<tag k="natural" v="valley" />
		<tag k="place" v="locality" />
		<tag k="ssr:stedsnr" v="561486" />
	</node>
	<node lat="66.16732222390809" lon="13.257288882910359" id="-14809">
		<tag k="name" v="Båsan" />
		<tag k="place" v="locality" />
		<tag k="ssr:stedsnr" v="561391" />
	</node>
	<node lat="66.02928333199111" lon="13.154238893756311" id="-14810">
		<tag k="loc_name:sma" v="Tovenvaajja" />
		<tag k="name" v="Tovdalen" />
		<tag k="name:no" v="Tovdalen" />
		<tag k="natural" v="valley" />
		<tag k="place" v="locality" />
		<tag k="ssr:stedsnr" v="682001" />
	</node>
	<node lat="66.06584444170421" lon="13.20693332278677" id="-14815">
		<tag k="name" v="Simådalen" />
		<tag k="natural" v="valley" />
		<tag k="place" v="locality" />
		<tag k="ssr:stedsnr" v="683034" />
	</node>
	<node lat="66.12574444609635" lon="13.064799996158525" id="-14818">
		<tag k="name" v="Låvongsdalen" />
		<tag k="natural" v="valley" />
		<tag k="place" v="locality" />
		<tag k="ssr:stedsnr" v="683139" />
	</node>
	<node lat="66.14993888648557" lon="13.135088887956758" id="-14819">
		<tag k="fixme" v="consider natural=peak for the most distinct mountains in the district" />
		<tag k="name" v="Durmålsfjellet" />
		<tag k="natural" v="hill" />
		<tag k="place" v="locality" />
		<tag k="ssr:stedsnr" v="683147" />
	</node>
	<node lat="66.06620555698028" lon="12.715486107041901" id="-14824">
		<tag k="name" v="Dalen" />
		<tag k="natural" v="valley" />
		<tag k="place" v="locality" />
		<tag k="ssr:stedsnr" v="683984" />
	</node>
	<node lat="66.09527500325035" lon="13.039061113625221" id="-14828">
		<tag k="name" v="Kvitholten" />
		<tag k="natural" v="valley" />
		<tag k="place" v="locality" />
		<tag k="ssr:stedsnr" v="592202" />
	</node>
	<node lat="66.06953889302062" lon="12.73368334295348" id="-14829">
		<tag k="name" v="Rognlia" />
		<tag k="natural" v="slope" />
		<tag k="place" v="locality" />
		<tag k="ssr:stedsnr" v="592192" />
	</node>
	<node lat="66.08563610983553" lon="12.892530548104967" id="-14830">
		<tag k="name" v="Granskarnakkan" />
		<tag k="natural" v="ridge" />
		<tag k="place" v="locality" />
		<tag k="ssr:stedsnr" v="592308" />
	</node>
	<node lat="66.10821111500468" lon="13.06531111303224" id="-14833">
		<tag k="fixme" v="consider natural=peak for the most distinct mountains in the district" />
		<tag k="name" v="Olaåsen" />
		<tag k="natural" v="hill" />
		<tag k="place" v="locality" />
		<tag k="ssr:stedsnr" v="592515" />
	</node>
	<node lat="66.12388333025814" lon="12.888027781118204" id="-14834">
		<tag k="name" v="Hestvegen" />
		<tag k="place" v="locality" />
		<tag k="ssr:stedsnr" v="592979" />
	</node>
	<node lat="66.0193805591844" lon="12.91930555419885" id="-14835">
		<tag k="name" v="Fagerhaugen" />
		<tag k="natural" v="hill" />
		<tag k="place" v="locality" />
		<tag k="ssr:stedsnr" v="593410" />
	</node>
	<node lat="66.04338055659225" lon="12.690766665674914" id="-14836">
		<tag k="name" v="Kvannvikhaugan" />
		<tag k="natural" v="hill" />
		<tag k="place" v="locality" />
		<tag k="ssr:stedsnr" v="593604" />
	</node>
	<node lat="66.07576389044715" lon="13.03363611307539" id="-14838">
		<tag k="name" v="Unnlende" />
		<tag k="natural" v="slope" />
		<tag k="place" v="locality" />
		<tag k="ssr:stedsnr" v="593763" />
	</node>
	<node lat="66.06400555288323" lon="12.898152767965321" id="-14840">
		<tag k="name" v="Arndalen" />
		<tag k="natural" v="valley" />
		<tag k="place" v="locality" />
		<tag k="ssr:stedsnr" v="593803" />
	</node>
	<node lat="66.14728611160027" lon="13.098541673778804" id="-14842">
		<tag k="name" v="Lauklia" />
		<tag k="natural" v="slope" />
		<tag k="place" v="locality" />
		<tag k="ssr:stedsnr" v="593904" />
	</node>
	<node lat="66.16649444321297" lon="13.316963896537635" id="-14858">
		<tag k="fixme" v="consider natural=peak for the most distinct mountains in the district" />
		<tag k="name" v="Vassdalsfjellet" />
		<tag k="natural" v="hill" />
		<tag k="place" v="locality" />
		<tag k="ssr:stedsnr" v="622388" />
	</node>
	<node lat="66.09130277553723" lon="13.12723887948288" id="-14864">
		<tag k="name" v="Brennespallen" />
		<tag k="natural" v="ridge" />
		<tag k="place" v="locality" />
		<tag k="ssr:stedsnr" v="653206" />
	</node>
	<node lat="66.09721388538851" lon="13.129583329910009" id="-14865">
		<tag k="name" v="Lamgjerdet" />
		<tag k="place" v="locality" />
		<tag k="ssr:stedsnr" v="653210" />
	</node>
	<node lat="66.11368888553814" lon="12.846569434888927" id="-14867">
		<tag k="name" v="Sørfjellet" />
		<tag k="natural" v="hill" />
		<tag k="place" v="locality" />
		<tag k="ssr:stedsnr" v="653438" />
	</node>
	<node lat="66.04184167014786" lon="12.96768332375318" id="-14868">
		<tag k="name" v="Hulderberget" />
		<tag k="natural" v="cliff" />
		<tag k="ssr:stedsnr" v="653544" />
	</node>
	<node lat="66.06110833299444" lon="13.037872213204912" id="-14869">
		<tag k="name" v="Langforsholtan" />
		<tag k="natural" v="slope" />
		<tag k="place" v="locality" />
		<tag k="ssr:stedsnr" v="653704" />
	</node>
	<node lat="66.05294721860596" lon="12.897166662333136" id="-14870">
		<tag k="name" v="Tømmervikremma" />
		<tag k="place" v="locality" />
		<tag k="ssr:stedsnr" v="653742" />
	</node>
	<node lat="66.03383055748905" lon="12.89904445239986" id="-14871">
		<tag k="name" v="Grønlia" />
		<tag k="natural" v="slope" />
		<tag k="place" v="locality" />
		<tag k="ssr:stedsnr" v="653749" />
	</node>
	<node lat="66.05955833409264" lon="12.846575002846105" id="-14876">
		<tag k="name" v="Hegglia" />
		<tag k="natural" v="slope" />
		<tag k="place" v="locality" />
		<tag k="ssr:stedsnr" v="654789" />
	</node>
	<node lat="65.98250555967563" lon="12.78583889219076" id="-14877">
		<tag k="name" v="Leira" />
		<tag k="natural" v="slope" />
		<tag k="place" v="locality" />
		<tag k="ssr:stedsnr" v="894082" />
	</node>
	<node lat="66.04865000417168" lon="13.173613881406608" id="-14878">
		<tag k="name" v="Simådalen" />
		<tag k="natural" v="valley" />
		<tag k="place" v="locality" />
		<tag k="ssr:stedsnr" v="682021" />
	</node>
	<node lat="66.09809999749429" lon="12.868741668540153" id="-14881">
		<tag k="fixme" v="consider natural=saddle" />
		<tag k="name" v="Sauskardet" />
		<tag k="natural" v="valley" />
		<tag k="place" v="locality" />
		<tag k="ssr:stedsnr" v="682274" />
	</node>
	<node lat="66.17033055117722" lon="13.219216667318777" id="-14883">
		<tag k="fixme" v="consider natural=peak for the most distinct mountains in the district" />
		<tag k="name" v="Meltuva" />
		<tag k="natural" v="hill" />
		<tag k="place" v="locality" />
		<tag k="ssr:stedsnr" v="682422" />
	</node>
	<node lat="66.01969166806374" lon="12.844177777605095" id="-14885">
		<tag k="fixme" v="consider natural=saddle" />
		<tag k="name" v="Klovningen" />
		<tag k="natural" v="valley" />
		<tag k="place" v="locality" />
		<tag k="ssr:stedsnr" v="683009" />
	</node>
	<node lat="66.0529888842421" lon="13.021686121015918" id="-14890">
		<tag k="fixme" v="consider natural=peak for the most distinct mountains in the district" />
		<tag k="name" v="Kjerringholten" />
		<tag k="natural" v="hill" />
		<tag k="place" v="locality" />
		<tag k="ssr:stedsnr" v="683028" />
	</node>
	<node lat="66.10275277425538" lon="13.034788897109841" id="-14895">
		<tag k="name" v="Kråkhola" />
		<tag k="natural" v="valley" />
		<tag k="place" v="locality" />
		<tag k="ssr:stedsnr" v="683227" />
	</node>
	<node lat="66.12134013043294" lon="13.289919840685783" id="-14898">
		<tag k="name" v="Vassendkloven" />
		<tag k="name:no" v="Vassendkloven" />
		<tag k="natural" v="valley" />
		<tag k="old_name:sma" v="Garrsen;Garse" />
		<tag k="place" v="locality" />
		<tag k="ssr:stedsnr" v="683471" />
	</node>
	<node lat="66.0408972195052" lon="12.707927785442411" id="-14899">
		<tag k="name" v="Vardhaugen" />
		<tag k="natural" v="hill" />
		<tag k="place" v="locality" />
		<tag k="ssr:stedsnr" v="683864" />
	</node>
	<node lat="65.97954722570324" lon="12.762011116544167" id="-14902">
		<tag k="name" v="Brunlia" />
		<tag k="natural" v="slope" />
		<tag k="place" v="locality" />
		<tag k="ssr:stedsnr" v="712087" />
	</node>
	<node lat="66.07070277785765" lon="12.736024997926867" id="-14903">
		<tag k="fixme" v="consider natural=saddle" />
		<tag k="name" v="Finnjorden" />
		<tag k="natural" v="valley" />
		<tag k="place" v="locality" />
		<tag k="ssr:stedsnr" v="713180" />
	</node>
	<node lat="66.08526110871927" lon="12.994341658079062" id="-14904">
		<tag k="name" v="Langvassfjellet" />
		<tag k="natural" v="cliff" />
		<tag k="ssr:stedsnr" v="713207" />
	</node>
	<node lat="66.09055555447196" lon="13.077047226765318" id="-14905">
		<tag k="fixme" v="consider natural=peak for the most distinct mountains in the district" />
		<tag k="name" v="Nordåsen" />
		<tag k="natural" v="hill" />
		<tag k="place" v="locality" />
		<tag k="ssr:stedsnr" v="713215" />
	</node>
	<node lat="66.08145555776876" lon="12.860547227151336" id="-14906">
		<tag k="name" v="Kåldalen" />
		<tag k="natural" v="valley" />
		<tag k="place" v="locality" />
		<tag k="ssr:stedsnr" v="713289" />
	</node>
	<node lat="66.08285000009127" lon="12.850716676006403" id="-14907">
		<tag k="name" v="Krokslettan" />
		<tag k="place" v="locality" />
		<tag k="ssr:stedsnr" v="713291" />
	</node>
	<node lat="66.07723888851932" lon="12.796630559517432" id="-14908">
		<tag k="fixme" v="consider natural=peak for the most distinct mountains in the district" />
		<tag k="name" v="Skjååsen" />
		<tag k="natural" v="hill" />
		<tag k="place" v="locality" />
		<tag k="ssr:stedsnr" v="714284" />
	</node>
	<node lat="66.04646389155698" lon="13.11555555922604" id="-14909">
		<tag k="name" v="Simahatten" />
		<tag k="natural" v="hill" />
		<tag k="place" v="locality" />
		<tag k="ssr:stedsnr" v="714411" />
	</node>
	<node lat="66.04646666503173" lon="12.960155556300414" id="-14911">
		<tag k="name" v="Trollhallaren" />
		<tag k="natural" v="cliff" />
		<tag k="ssr:stedsnr" v="714503" />
	</node>
	<node lat="66.05367777888264" lon="12.76435832756122" id="-14912">
		<tag k="fixme" v="consider natural=saddle" />
		<tag k="name" v="Holmvikskaret" />
		<tag k="natural" v="valley" />
		<tag k="place" v="locality" />
		<tag k="ssr:stedsnr" v="714595" />
	</node>
	<node lat="66.04940000326043" lon="12.758036104548871" id="-14913">
		<tag k="name" v="Mølnhussletta" />
		<tag k="place" v="locality" />
		<tag k="ssr:stedsnr" v="714600" />
	</node>
	<node lat="66.06027499554096" lon="12.915772224444115" id="-14921">
		<tag k="fixme" v="consider natural=peak for the most distinct mountains in the district" />
		<tag k="name" v="Hjartåsen" />
		<tag k="natural" v="hill" />
		<tag k="place" v="locality" />
		<tag k="ssr:stedsnr" v="714880" />
	</node>
	<node lat="66.09962778031375" lon="13.104233326115585" id="-14923">
		<tag k="fixme" v="consider natural=peak for the most distinct mountains in the district" />
		<tag k="name" v="Matåsen" />
		<tag k="natural" v="hill" />
		<tag k="place" v="locality" />
		<tag k="ssr:stedsnr" v="715435" />
	</node>
	<node lat="66.06047222645256" lon="12.865413880886463" id="-14925">
		<tag k="name" v="Rabblia" />
		<tag k="natural" v="slope" />
		<tag k="place" v="locality" />
		<tag k="ssr:stedsnr" v="715785" />
	</node>
	<node lat="66.06545555308861" lon="12.82403055154055" id="-14927">
		<tag k="fixme" v="consider natural=saddle" />
		<tag k="name" v="Ottarreva" />
		<tag k="natural" v="valley" />
		<tag k="place" v="locality" />
		<tag k="ssr:stedsnr" v="715804" />
	</node>
	<node lat="66.05152778147192" lon="13.052955552357206" id="-14928">
		<tag k="fixme" v="consider natural=peak for the most distinct mountains in the district" />
		<tag k="name" v="Vågafjellet" />
		<tag k="natural" v="hill" />
		<tag k="place" v="locality" />
		<tag k="ssr:stedsnr" v="743045" />
	</node>
	<node lat="66.22118611332654" lon="13.450738897954048" id="-14929">
		<tag k="name" v="Kvannkløvdalen" />
		<tag k="natural" v="valley" />
		<tag k="place" v="locality" />
		<tag k="ssr:stedsnr" v="743100" />
	</node>
	<node lat="66.08025000422451" lon="13.14919999313296" id="-14931">
		<tag k="fixme" v="consider natural=peak for the most distinct mountains in the district" />
		<tag k="name" v="Klampen" />
		<tag k="natural" v="hill" />
		<tag k="place" v="locality" />
		<tag k="ssr:stedsnr" v="743241" />
	</node>
	<node lat="66.02973889295748" lon="13.018202785272402" id="-14940">
		<tag k="name" v="Grønnlia" />
		<tag k="natural" v="hill" />
		<tag k="place" v="locality" />
		<tag k="ssr:stedsnr" v="744004" />
	</node>
	<node lat="66.03476388565406" lon="13.001055565875784" id="-14941">
		<tag k="name" v="Almåsen" />
		<tag k="natural" v="hill" />
		<tag k="place" v="locality" />
		<tag k="ssr:stedsnr" v="744007" />
	</node>
	<node lat="66.12566111383249" lon="13.079533325286464" id="-14943">
		<tag k="alt_name" v="Skarfjellet" />
		<tag k="fixme" v="consider natural=peak for the most distinct mountains in the district" />
		<tag k="name" v="Skardfjellet" />
		<tag k="natural" v="hill" />
		<tag k="place" v="locality" />
		<tag k="ssr:stedsnr" v="744115" />
	</node>
	<node lat="66.09032222137633" lon="13.050855557278885" id="-14951">
		<tag k="fixme" v="consider natural=peak for the most distinct mountains in the district" />
		<tag k="name" v="Nesåsen" />
		<tag k="natural" v="hill" />
		<tag k="place" v="locality" />
		<tag k="ssr:stedsnr" v="896187" />
	</node>
	<node lat="66.06135277991935" lon="12.712602783271196" id="-14952">
		<tag k="name" v="Sjøhaugen" />
		<tag k="natural" v="hill" />
		<tag k="place" v="locality" />
		<tag k="ssr:stedsnr" v="896121" />
	</node>
	<node lat="66.09526944404416" lon="13.107416659294408" id="-14953">
		<tag k="name" v="Bjønnhola" />
		<tag k="place" v="locality" />
		<tag k="ssr:stedsnr" v="896232" />
	</node>
	<node lat="66.07799999579709" lon="13.058338895895668" id="-14954">
		<tag k="name" v="Låvhaugen" />
		<tag k="natural" v="hill" />
		<tag k="place" v="locality" />
		<tag k="ssr:stedsnr" v="896238" />
	</node>
	<node lat="66.09335277762709" lon="12.902997230801153" id="-14955">
		<tag k="name" v="Litlholfjellet" />
		<tag k="natural" v="cliff" />
		<tag k="ssr:stedsnr" v="896298" />
	</node>
	<node lat="66.11520278236668" lon="12.846016658040453" id="-14956">
		<tag k="fixme" v="consider natural=saddle" />
		<tag k="name" v="Vardskaret" />
		<tag k="natural" v="valley" />
		<tag k="place" v="locality" />
		<tag k="ssr:stedsnr" v="896488" />
	</node>
	<node lat="66.08229166848422" lon="12.712005549625742" id="-14957">
		<tag k="name" v="Okslabakken" />
		<tag k="natural" v="slope" />
		<tag k="place" v="locality" />
		<tag k="ssr:stedsnr" v="896446" />
	</node>
	<node lat="66.11451388648594" lon="13.063658340551264" id="-14958">
		<tag k="name" v="Øverskarenget" />
		<tag k="place" v="locality" />
		<tag k="ssr:stedsnr" v="896516" />
	</node>
	<node lat="66.14065277753012" lon="13.196238899924698" id="-14959">
		<tag k="name" v="Rundfjellet" />
		<tag k="natural" v="hill" />
		<tag k="place" v="locality" />
		<tag k="ssr:stedsnr" v="896979" />
	</node>
	<node lat="66.1833333342741" lon="13.268491675000515" id="-14961">
		<tag k="name" v="Høyskjåheia" />
		<tag k="natural" v="hill" />
		<tag k="place" v="locality" />
		<tag k="ssr:stedsnr" v="896927" />
	</node>
	<node lat="66.127832911807" lon="12.843489551399935" id="-14964">
		<tag k="name" v="Resan" />
		<tag k="natural" v="ridge" />
		<tag k="place" v="locality" />
		<tag k="ssr:stedsnr" v="896951" />
	</node>
	<node lat="66.03516944462449" lon="12.951958325541845" id="-14969">
		<tag k="name" v="Stiklubben" />
		<tag k="natural" v="cliff" />
		<tag k="ssr:stedsnr" v="897501" />
	</node>
	<node lat="66.04973333327598" lon="12.765199998768452" id="-14970">
		<tag k="fixme" v="consider natural=peak for the most distinct mountains in the district" />
		<tag k="name" v="Aspåsen" />
		<tag k="natural" v="hill" />
		<tag k="place" v="locality" />
		<tag k="ssr:stedsnr" v="897583" />
	</node>
	<node lat="66.05403611411991" lon="12.7769333396486" id="-14971">
		<tag k="fixme" v="consider natural=peak for the most distinct mountains in the district" />
		<tag k="name" v="Skibåten" />
		<tag k="natural" v="hill" />
		<tag k="place" v="locality" />
		<tag k="ssr:stedsnr" v="897584" />
	</node>
	<node lat="66.05309444802178" lon="12.785777775733001" id="-14972">
		<tag k="fixme" v="consider natural=peak for the most distinct mountains in the district" />
		<tag k="name" v="Klubben" />
		<tag k="natural" v="hill" />
		<tag k="place" v="locality" />
		<tag k="ssr:stedsnr" v="897589" />
	</node>
	<node lat="66.06132499609885" lon="13.033147230904294" id="-14973">
		<tag k="name" v="Greguseidet" />
		<tag k="natural" v="slope" />
		<tag k="place" v="locality" />
		<tag k="ssr:stedsnr" v="897655" />
	</node>
	<node lat="66.07221388870808" lon="13.056719454325927" id="-14975">
		<tag k="name" v="Forsholhaugen" />
		<tag k="natural" v="hill" />
		<tag k="place" v="locality" />
		<tag k="ssr:stedsnr" v="897787" />
	</node>
	<node lat="66.0545944491928" lon="12.796655546036648" id="-14977">
		<tag k="fixme" v="consider natural=saddle" />
		<tag k="name" v="Asskaret" />
		<tag k="natural" v="valley" />
		<tag k="place" v="locality" />
		<tag k="ssr:stedsnr" v="897702" />
	</node>
	<node lat="66.06299166322448" lon="12.910683343002672" id="-14978">
		<tag k="name" v="Ol-Hansahaugen" />
		<tag k="natural" v="hill" />
		<tag k="place" v="locality" />
		<tag k="ssr:stedsnr" v="897821" />
	</node>
	<node lat="66.06102777594745" lon="12.81032222392681" id="-14980">
		<tag k="name" v="Båtstøgjerdan" />
		<tag k="natural" v="ridge" />
		<tag k="place" v="locality" />
		<tag k="ssr:stedsnr" v="897736" />
	</node>
	<node lat="66.15799167026566" lon="13.118258326663154" id="-14982">
		<tag k="fixme" v="consider natural=peak for the most distinct mountains in the district" />
		<tag k="name" v="Kalvåsen" />
		<tag k="natural" v="hill" />
		<tag k="place" v="locality" />
		<tag k="ssr:stedsnr" v="897888" />
	</node>
	<node lat="66.12195833765155" lon="12.832174989595112" id="-14985">
		<tag k="name" v="Skjåhaugen" />
		<tag k="natural" v="hill" />
		<tag k="place" v="locality" />
		<tag k="ssr:stedsnr" v="897903" />
	</node>
	<node lat="66.06204444086026" lon="12.925466669614595" id="-14986">
		<tag k="name" v="Bjønndalen" />
		<tag k="natural" v="valley" />
		<tag k="place" v="locality" />
		<tag k="ssr:stedsnr" v="897824" />
	</node>
	<node lat="66.07632777428076" lon="12.958966658927787" id="-14987">
		<tag k="fixme" v="consider natural=peak for the most distinct mountains in the district" />
		<tag k="name" v="Smøråsen" />
		<tag k="natural" v="hill" />
		<tag k="place" v="locality" />
		<tag k="ssr:stedsnr" v="897838" />
	</node>
	<node lat="66.1269027800776" lon="12.87501666415856" id="-14989">
		<tag k="name" v="Munnhaugen" />
		<tag k="natural" v="hill" />
		<tag k="place" v="locality" />
		<tag k="ssr:stedsnr" v="897950" />
	</node>
	<node lat="65.99913333387083" lon="12.890386111505244" id="-14990">
		<tag k="name" v="Langdalen" />
		<tag k="natural" v="valley" />
		<tag k="place" v="locality" />
		<tag k="ssr:stedsnr" v="773008" />
	</node>
	<node lat="66.11553888916839" lon="12.82187499151631" id="-14994">
		<tag k="name" v="Svartberget" />
		<tag k="natural" v="cliff" />
		<tag k="ssr:stedsnr" v="775403" />
	</node>
	<node lat="66.01454721825483" lon="12.902063893580944" id="-14996">
		<tag k="name" v="Djupdalen" />
		<tag k="natural" v="valley" />
		<tag k="place" v="locality" />
		<tag k="ssr:stedsnr" v="775456" />
	</node>
	<node lat="66.03386944598095" lon="12.671711101448413" id="-14999">
		<tag k="name" v="Rishaugen" />
		<tag k="natural" v="hill" />
		<tag k="place" v="locality" />
		<tag k="ssr:stedsnr" v="775626" />
	</node>
	<node lat="66.12720278147785" lon="12.849977778493148" id="-15000">
		<tag k="name" v="Bugrøva" />
		<tag k="natural" v="valley" />
		<tag k="place" v="locality" />
		<tag k="ssr:stedsnr" v="775924" />
	</node>
	<node lat="66.07390555233904" lon="13.023377774242768" id="-15002">
		<tag k="name" v="Klubben" />
		<tag k="natural" v="ridge" />
		<tag k="place" v="locality" />
		<tag k="ssr:stedsnr" v="775815" />
	</node>
	<node lat="66.07553333370475" lon="13.00059166316717" id="-15003">
		<tag k="name" v="Steinmuren" />
		<tag k="place" v="locality" />
		<tag k="ssr:stedsnr" v="775857" />
	</node>
	<node lat="66.06010277824173" lon="12.918777773243601" id="-15004">
		<tag k="name" v="Ørnfloget" />
		<tag k="natural" v="ridge" />
		<tag k="place" v="locality" />
		<tag k="ssr:stedsnr" v="775863" />
	</node>
	<node lat="66.0965861095673" lon="13.025677770799632" id="-15010">
		<tag k="fixme" v="consider natural=peak for the most distinct mountains in the district" />
		<tag k="name" v="Svarthammaren" />
		<tag k="natural" v="hill" />
		<tag k="place" v="locality" />
		<tag k="ssr:stedsnr" v="804276" />
	</node>
	<node lat="66.09244999777373" lon="12.765233322158318" id="-15014">
		<tag k="fixme" v="multiple name tags, choose one and add the other to alt_name" />
		<tag k="name" v="Vesterdalen;Ålidalen" />
		<tag k="natural" v="valley" />
		<tag k="place" v="locality" />
		<tag k="ssr:stedsnr" v="804165" />
	</node>
	<node lat="66.1349666636366" lon="13.175513897212577" id="-15016">
		<tag k="alt_name" v="Hubuhaugen" />
		<tag k="name" v="Hubuåsen" />
		<tag k="natural" v="hill" />
		<tag k="place" v="locality" />
		<tag k="ssr:stedsnr" v="804172" />
	</node>
	<node lat="66.12021111324192" lon="13.031050002090266" id="-15018">
		<tag k="fixme" v="consider natural=peak for the most distinct mountains in the district" />
		<tag k="name" v="Velsvågfjellet" />
		<tag k="natural" v="hill" />
		<tag k="place" v="locality" />
		<tag k="ssr:stedsnr" v="804185" />
	</node>
	<node lat="66.185272220368" lon="13.266738889734448" id="-15019">
		<tag k="fixme" v="consider natural=peak for the most distinct mountains in the district" />
		<tag k="name" v="Høgheia" />
		<tag k="natural" v="hill" />
		<tag k="place" v="locality" />
		<tag k="ssr:stedsnr" v="804457" />
	</node>
	<node lat="66.03742222364984" lon="12.686872216081477" id="-15020">
		<tag k="name" v="Valhaugen" />
		<tag k="natural" v="hill" />
		<tag k="place" v="locality" />
		<tag k="ssr:stedsnr" v="804875" />
	</node>
	<node lat="66.09479722343973" lon="13.11221389277398" id="-15023">
		<tag k="name" v="Innervollen" />
		<tag k="place" v="locality" />
		<tag k="ssr:stedsnr" v="835233" />
	</node>
	<node lat="66.0734666711516" lon="12.763227771637412" id="-15025">
		<tag k="name" v="Ingebærlia" />
		<tag k="natural" v="slope" />
		<tag k="place" v="locality" />
		<tag k="ssr:stedsnr" v="835183" />
	</node>
	<node lat="66.02128055474894" lon="12.968791675349479" id="-15028">
		<tag k="name" v="Kjørarbakken" />
		<tag k="natural" v="slope" />
		<tag k="place" v="locality" />
		<tag k="ssr:stedsnr" v="836439" />
	</node>
	<node lat="66.05089444094095" lon="12.766813880650421" id="-15032">
		<tag k="name" v="Stokkhaugen" />
		<tag k="natural" v="hill" />
		<tag k="place" v="locality" />
		<tag k="ssr:stedsnr" v="836608" />
	</node>
	<node lat="66.05170555720898" lon="12.761633343770665" id="-15033">
		<tag k="fixme" v="consider natural=peak for the most distinct mountains in the district" />
		<tag k="name" v="Langsteråsen" />
		<tag k="natural" v="hill" />
		<tag k="place" v="locality" />
		<tag k="ssr:stedsnr" v="836610" />
	</node>
	<node lat="66.04808055729376" lon="12.737624999550127" id="-15035">
		<tag k="name" v="Rundhaugen" />
		<tag k="natural" v="hill" />
		<tag k="place" v="locality" />
		<tag k="ssr:stedsnr" v="836638" />
	</node>
	<node lat="66.05301666454517" lon="12.796725010297019" id="-15038">
		<tag k="name" v="Merkedalen" />
		<tag k="natural" v="valley" />
		<tag k="place" v="locality" />
		<tag k="ssr:stedsnr" v="836730" />
	</node>
	<node lat="66.07091111143345" lon="12.846208336031518" id="-15039">
		<tag k="fixme" v="consider natural=peak for the most distinct mountains in the district" />
		<tag k="name" v="Bøåsen" />
		<tag k="natural" v="hill" />
		<tag k="place" v="locality" />
		<tag k="ssr:stedsnr" v="836788" />
	</node>
	<node lat="66.00921666983156" lon="12.791938880431971" id="-15042">
		<tag k="fixme" v="consider natural=peak for the most distinct mountains in the district" />
		<tag k="name" v="Storklubben" />
		<tag k="natural" v="hill" />
		<tag k="place" v="locality" />
		<tag k="ssr:stedsnr" v="865003" />
	</node>
	<node lat="65.99749444107826" lon="13.010427781403024" id="-15044">
		<tag k="name" v="Rogndalen" />
		<tag k="natural" v="valley" />
		<tag k="place" v="locality" />
		<tag k="ssr:stedsnr" v="865089" />
	</node>
	<node lat="66.07545277827911" lon="12.780180561718185" id="-15048">
		<tag k="fixme" v="consider natural=peak for the most distinct mountains in the district" />
		<tag k="name" v="Vassmyråsen" />
		<tag k="natural" v="hill" />
		<tag k="place" v="locality" />
		<tag k="ssr:stedsnr" v="865217" />
	</node>
	<node lat="66.0205249975344" lon="12.92720555041367" id="-15053">
		<tag k="name" v="Sundhammaren" />
		<tag k="natural" v="hill" />
		<tag k="place" v="locality" />
		<tag k="ssr:stedsnr" v="865153" />
	</node>
	<node lat="66.14666666753364" lon="13.181258330698759" id="-15054">
		<tag k="fixme" v="consider natural=peak for the most distinct mountains in the district" />
		<tag k="name" v="Preikstolen" />
		<tag k="natural" v="hill" />
		<tag k="place" v="locality" />
		<tag k="ssr:stedsnr" v="865197" />
	</node>
	<node lat="66.14919444258686" lon="13.353338879163896" id="-15056">
		<tag k="fixme" v="consider natural=peak for the most distinct mountains in the district" />
		<tag k="name" v="Kråga" />
		<tag k="natural" v="hill" />
		<tag k="place" v="locality" />
		<tag k="ssr:stedsnr" v="865503" />
	</node>
	<node lat="66.05041111304531" lon="12.690663886961074" id="-15057">
		<tag k="name" v="Konterhaugen" />
		<tag k="natural" v="hill" />
		<tag k="place" v="locality" />
		<tag k="ssr:stedsnr" v="865997" />
	</node>
	<node lat="65.9895555525709" lon="12.808569438719605" id="-15060">
		<tag k="fixme" v="consider natural=peak for the most distinct mountains in the district" />
		<tag k="name" v="Trongåsen" />
		<tag k="natural" v="hill" />
		<tag k="place" v="locality" />
		<tag k="ssr:stedsnr" v="880811" />
	</node>
	<node lat="65.98711944666405" lon="12.82421667215964" id="-15061">
		<tag k="name" v="Ripen" />
		<tag k="place" v="locality" />
		<tag k="ssr:stedsnr" v="880817" />
	</node>
	<node lat="65.99787500118018" lon="12.842944454548945" id="-15062">
		<tag k="name" v="Hesthaugan" />
		<tag k="natural" v="hill" />
		<tag k="place" v="locality" />
		<tag k="ssr:stedsnr" v="894519" />
	</node>
	<node lat="66.08679166947235" lon="13.092205558750074" id="-15065">
		<tag k="name" v="Solvollenget" />
		<tag k="place" v="locality" />
		<tag k="ssr:stedsnr" v="896217" />
	</node>
	<node lat="66.06219444480783" lon="12.788161119026174" id="-15067">
		<tag k="name" v="Monsspranget" />
		<tag k="place" v="locality" />
		<tag k="ssr:stedsnr" v="896166" />
	</node>
	<node lat="66.08643889088924" lon="12.895302773064845" id="-15068">
		<tag k="name" v="Granåsenden" />
		<tag k="natural" v="ridge" />
		<tag k="place" v="locality" />
		<tag k="ssr:stedsnr" v="896304" />
	</node>
	<node lat="66.08030833475604" lon="12.905855563727135" id="-15069">
		<tag k="name" v="Lysvoll" />
		<tag k="natural" v="slope" />
		<tag k="place" v="locality" />
		<tag k="ssr:stedsnr" v="896316" />
	</node>
	<node lat="66.11036111491273" lon="12.804038885856157" id="-15072">
		<tag k="name" v="Jordengdalen" />
		<tag k="natural" v="valley" />
		<tag k="place" v="locality" />
		<tag k="ssr:stedsnr" v="896478" />
	</node>
	<node lat="66.12365833750027" lon="12.871963899862923" id="-15073">
		<tag k="name" v="Nubblia" />
		<tag k="natural" v="slope" />
		<tag k="place" v="locality" />
		<tag k="ssr:stedsnr" v="896971" />
	</node>
	<node lat="66.12893333045817" lon="12.880080563902178" id="-15074">
		<tag k="name" v="Nordlia" />
		<tag k="natural" v="slope" />
		<tag k="place" v="locality" />
		<tag k="ssr:stedsnr" v="896977" />
	</node>
	<node lat="66.13549721922392" lon="13.205411106022721" id="-15075">
		<tag k="name" v="Ner-Storskogen" />
		<tag k="natural" v="slope" />
		<tag k="place" v="locality" />
		<tag k="ssr:stedsnr" v="896978" />
	</node>
	<node lat="66.03667777500644" lon="12.980086102568592" id="-15079">
		<tag k="name" v="Lauåsen" />
		<tag k="natural" v="ridge" />
		<tag k="place" v="locality" />
		<tag k="ssr:stedsnr" v="897508" />
	</node>
	<node lat="66.04341944823354" lon="12.951694447680866" id="-15081">
		<tag k="name" v="Tinden" />
		<tag k="natural" v="ridge" />
		<tag k="place" v="locality" />
		<tag k="ssr:stedsnr" v="897514" />
	</node>
	<node lat="66.05267222482264" lon="12.987547214296892" id="-15084">
		<tag k="name" v="Høglia" />
		<tag k="natural" v="slope" />
		<tag k="place" v="locality" />
		<tag k="ssr:stedsnr" v="897664" />
	</node>
	<node lat="66.04923333014658" lon="12.968711108385929" id="-15085">
		<tag k="fixme" v="consider natural=saddle" />
		<tag k="name" v="Ramnåsskaret" />
		<tag k="natural" v="valley" />
		<tag k="place" v="locality" />
		<tag k="ssr:stedsnr" v="897668" />
	</node>
	<node lat="66.1077972222231" lon="13.119833344200593" id="-15091">
		<tag k="fixme" v="consider natural=peak for the most distinct mountains in the district" />
		<tag k="name" v="Grønnliholtan" />
		<tag k="natural" v="hill" />
		<tag k="place" v="locality" />
		<tag k="ssr:stedsnr" v="925268" />
	</node>
	<node lat="66.09966666819298" lon="13.000066676435932" id="-15092">
		<tag k="name" v="Surbeindalen" />
		<tag k="natural" v="valley" />
		<tag k="place" v="locality" />
		<tag k="ssr:stedsnr" v="925280" />
	</node>
	<node lat="66.1767527810838" lon="13.36964444577689" id="-15095">
		<tag k="name" v="Synnafjelldalen" />
		<tag k="natural" v="valley" />
		<tag k="place" v="locality" />
		<tag k="ssr:stedsnr" v="925478" />
	</node>
	<node lat="66.0507194438216" lon="13.042427784075795" id="-15100">
		<tag k="name" v="Langforslia" />
		<tag k="natural" v="slope" />
		<tag k="place" v="locality" />
		<tag k="ssr:stedsnr" v="926028" />
	</node>
	<node lat="66.06138333183016" lon="13.14061945097037" id="-15102">
		<tag k="name" v="Austerdalen" />
		<tag k="natural" v="valley" />
		<tag k="place" v="locality" />
		<tag k="ssr:stedsnr" v="926035" />
	</node>
	<node lat="66.15545000139093" lon="13.20008055865569" id="-15108">
		<tag k="name" v="Meldalen" />
		<tag k="natural" v="valley" />
		<tag k="place" v="locality" />
		<tag k="ssr:stedsnr" v="926177" />
	</node>
	<node lat="65.99962499960633" lon="12.894191657577585" id="-15111">
		<tag k="name" v="Jystaddalen" />
		<tag k="natural" v="valley" />
		<tag k="place" v="locality" />
		<tag k="ssr:stedsnr" v="954010" />
	</node>
	<node lat="65.97575833091543" lon="12.778119435589144" id="-15112">
		<tag k="name" v="Heimsthaugen" />
		<tag k="natural" v="ridge" />
		<tag k="place" v="locality" />
		<tag k="ssr:stedsnr" v="955091" />
	</node>
	<node lat="66.09240555388682" lon="13.112844439470551" id="-15116">
		<tag k="name" v="Granbarnaustet" />
		<tag k="natural" v="slope" />
		<tag k="place" v="locality" />
		<tag k="ssr:stedsnr" v="956253" />
	</node>
	<node lat="66.07409721901237" lon="12.704349997739603" id="-15117">
		<tag k="fixme" v="consider natural=saddle" />
		<tag k="name" v="Brennskaret" />
		<tag k="natural" v="valley" />
		<tag k="place" v="locality" />
		<tag k="ssr:stedsnr" v="956147" />
	</node>
	<node lat="66.0841444434741" lon="13.036933340185463" id="-15119">
		<tag k="name" v="Sør-Aksla" />
		<tag k="natural" v="ridge" />
		<tag k="place" v="locality" />
		<tag k="ssr:stedsnr" v="956201" />
	</node>
	<node lat="66.18368888861932" lon="13.242869438331114" id="-15120">
		<tag k="name" v="Tennryggen" />
		<tag k="natural" v="ridge" />
		<tag k="place" v="locality" />
		<tag k="ssr:stedsnr" v="956907" />
	</node>
	<node lat="66.15656944504516" lon="13.070086101707496" id="-15121">
		<tag k="name" v="Hatten" />
		<tag k="natural" v="hill" />
		<tag k="place" v="locality" />
		<tag k="ssr:stedsnr" v="956919" />
	</node>
	<node lat="66.0542527773679" lon="12.767372211494518" id="-15124">
		<tag k="name" v="Gløsen" />
		<tag k="natural" v="hill" />
		<tag k="place" v="locality" />
		<tag k="ssr:stedsnr" v="957611" />
	</node>
	<node lat="66.05423333758183" lon="12.79195833193774" id="-15125">
		<tag k="fixme" v="consider natural=saddle" />
		<tag k="name" v="Breiskaret" />
		<tag k="natural" v="valley" />
		<tag k="place" v="locality" />
		<tag k="ssr:stedsnr" v="957617" />
	</node>
	<node lat="66.06156667073394" lon="12.82495278845038" id="-15126">
		<tag k="name" v="Varghaugen" />
		<tag k="natural" v="hill" />
		<tag k="place" v="locality" />
		<tag k="ssr:stedsnr" v="957806" />
	</node>
	<node lat="66.12006944044737" lon="13.1103805485932" id="-15130">
		<tag k="name" v="Moan" />
		<tag k="place" v="locality" />
		<tag k="ssr:stedsnr" v="957986" />
	</node>
	<node lat="66.04819444329355" lon="13.091566659673497" id="-15167">
		<tag k="fixme" v="consider natural=peak for the most distinct mountains in the district" />
		<tag k="name" v="Mølnhusklumpen" />
		<tag k="natural" v="hill" />
		<tag k="place" v="locality" />
		<tag k="ssr:stedsnr" v="15028" />
	</node>
	<node lat="66.05132778067974" lon="13.082669450668444" id="-15168">
		<tag k="fixme" v="consider natural=peak for the most distinct mountains in the district" />
		<tag k="name" v="Hesthaugen" />
		<tag k="natural" v="hill" />
		<tag k="place" v="locality" />
		<tag k="ssr:stedsnr" v="15030" />
	</node>
	<node lat="66.20784166514815" lon="13.312416677295438" id="-15171">
		<tag k="name" v="Engadalen" />
		<tag k="natural" v="valley" />
		<tag k="place" v="locality" />
		<tag k="ssr:stedsnr" v="15095" />
	</node>
	<node lat="66.00289722163075" lon="12.869369453783714" id="-15174">
		<tag k="fixme" v="consider natural=peak for the most distinct mountains in the district" />
		<tag k="name" v="Flatåsen" />
		<tag k="natural" v="hill" />
		<tag k="place" v="locality" />
		<tag k="ssr:stedsnr" v="15127" />
	</node>
	<node lat="66.1201777790063" lon="12.94770000124767" id="-15177">
		<tag k="fixme" v="consider natural=peak for the most distinct mountains in the district" />
		<tag k="name" v="Nordre Lihauet" />
		<tag k="natural" v="hill" />
		<tag k="place" v="locality" />
		<tag k="ssr:stedsnr" v="15143" />
	</node>
	<node lat="66.11528610852861" lon="13.121388884544151" id="-15178">
		<tag k="alt_name" v="Sagengholten" />
		<tag k="fixme" v="consider natural=peak for the most distinct mountains in the district" />
		<tag k="name" v="Sagengeholten" />
		<tag k="natural" v="hill" />
		<tag k="place" v="locality" />
		<tag k="ssr:stedsnr" v="15146" />
	</node>
	<node lat="66.08932500452697" lon="12.913736100933217" id="-15180">
		<tag k="name" v="Litlelvdalen" />
		<tag k="natural" v="valley" />
		<tag k="place" v="locality" />
		<tag k="ssr:stedsnr" v="15237" />
	</node>
	<node lat="66.12131944027504" lon="12.894036104298415" id="-15185">
		<tag k="alt_name" v="Kvannbakken" />
		<tag k="name" v="Kvannbakkan" />
		<tag k="natural" v="slope" />
		<tag k="place" v="locality" />
		<tag k="ssr:stedsnr" v="16129" />
	</node>
	<node lat="66.11188055731246" lon="12.869022225145304" id="-15186">
		<tag k="fixme" v="consider natural=peak for the most distinct mountains in the district" />
		<tag k="name" v="Lifjellan" />
		<tag k="natural" v="hill" />
		<tag k="place" v="locality" />
		<tag k="ssr:stedsnr" v="16132" />
	</node>
	<node lat="65.99663055254865" lon="12.865599993437185" id="-15190">
		<tag k="name" v="Åkvikdalen" />
		<tag k="natural" v="valley" />
		<tag k="place" v="locality" />
		<tag k="ssr:stedsnr" v="44469" />
	</node>
	<node lat="66.08079721918622" lon="13.076019453293052" id="-15192">
		<tag k="name" v="Nilslaenget" />
		<tag k="natural" v="slope" />
		<tag k="place" v="locality" />
		<tag k="ssr:stedsnr" v="46147" />
	</node>
	<node lat="66.0963888881817" lon="13.118397225872224" id="-15193">
		<tag k="name" v="Haukna" />
		<tag k="natural" v="hill" />
		<tag k="place" v="locality" />
		<tag k="ssr:stedsnr" v="46234" />
	</node>
	<node lat="66.09665277727288" lon="13.10818334193777" id="-15194">
		<tag k="name" v="Urbakken" />
		<tag k="natural" v="slope" />
		<tag k="place" v="locality" />
		<tag k="ssr:stedsnr" v="46239" />
	</node>
	<node lat="66.08370000292915" lon="13.106872228927676" id="-15196">
		<tag k="name" v="Rundhaugen" />
		<tag k="natural" v="hill" />
		<tag k="place" v="locality" />
		<tag k="ssr:stedsnr" v="46152" />
	</node>
	<node lat="66.11138888635914" lon="12.803158337977647" id="-15197">
		<tag k="name" v="Fagersletten" />
		<tag k="place" v="locality" />
		<tag k="ssr:stedsnr" v="46487" />
	</node>
	<node lat="66.10258888627695" lon="13.050552782312757" id="-15198">
		<tag k="name" v="Håmannaksla" />
		<tag k="natural" v="ridge" />
		<tag k="place" v="locality" />
		<tag k="ssr:stedsnr" v="46545" />
	</node>
	<node lat="66.09553888807899" lon="12.748725007501058" id="-15205">
		<tag k="name" v="Alteret" />
		<tag k="natural" v="hill" />
		<tag k="place" v="locality" />
		<tag k="ssr:stedsnr" v="47310" />
	</node>
	<node lat="66.09204166414516" lon="12.74629444035326" id="-15206">
		<tag k="name" v="Storåsen" />
		<tag k="natural" v="hill" />
		<tag k="place" v="locality" />
		<tag k="ssr:stedsnr" v="47312" />
	</node>
	<node lat="66.11379999718896" lon="12.83318334370197" id="-15207">
		<tag k="name" v="Bukkpallen" />
		<tag k="place" v="locality" />
		<tag k="ssr:stedsnr" v="47450" />
	</node>
	<node lat="66.02046111369427" lon="12.961305545228754" id="-15208">
		<tag k="name" v="Kroken" />
		<tag k="place" v="locality" />
		<tag k="ssr:stedsnr" v="47462" />
	</node>
	<node lat="66.04048888546916" lon="12.962224989608297" id="-15209">
		<tag k="name" v="Remma" />
		<tag k="place" v="locality" />
		<tag k="ssr:stedsnr" v="47539" />
	</node>
	<node lat="66.04224721967744" lon="12.984422230072035" id="-15210">
		<tag k="fixme" v="consider natural=peak for the most distinct mountains in the district" />
		<tag k="name" v="Kråkåsen" />
		<tag k="natural" v="hill" />
		<tag k="place" v="locality" />
		<tag k="ssr:stedsnr" v="47544" />
	</node>
	<node lat="66.05321388741861" lon="12.875513887008557" id="-15211">
		<tag k="name" v="Forlihatten" />
		<tag k="natural" v="hill" />
		<tag k="place" v="locality" />
		<tag k="ssr:stedsnr" v="47729" />
	</node>
	<node lat="66.05518333182879" lon="12.802163882686903" id="-15214">
		<tag k="fixme" v="consider natural=saddle" />
		<tag k="name" v="Lonsskaret" />
		<tag k="natural" v="valley" />
		<tag k="place" v="locality" />
		<tag k="ssr:stedsnr" v="47759" />
	</node>
	<node lat="66.15609444469132" lon="13.101644437490902" id="-15216">
		<tag k="fixme" v="consider natural=peak for the most distinct mountains in the district" />
		<tag k="name" v="Åsen" />
		<tag k="natural" v="hill" />
		<tag k="place" v="locality" />
		<tag k="ssr:stedsnr" v="47896" />
	</node>
	<node lat="66.04884444138244" lon="12.73509444487394" id="-15217">
		<tag k="fixme" v="consider natural=saddle" />
		<tag k="name" v="Jørnskaret" />
		<tag k="natural" v="valley" />
		<tag k="place" v="locality" />
		<tag k="ssr:stedsnr" v="47651" />
	</node>
	<node lat="66.04836667091685" lon="12.729013892856415" id="-15218">
		<tag k="fixme" v="consider natural=peak for the most distinct mountains in the district" />
		<tag k="name" v="Kalvåsen" />
		<tag k="natural" v="hill" />
		<tag k="place" v="locality" />
		<tag k="ssr:stedsnr" v="47653" />
	</node>
	<node lat="66.06741666773095" lon="13.035155560448937" id="-15219">
		<tag k="name" v="Økslamoen" />
		<tag k="place" v="locality" />
		<tag k="ssr:stedsnr" v="47829" />
	</node>
	<node lat="66.06142778172935" lon="12.871449997625568" id="-15220">
		<tag k="name" v="Grøftlia" />
		<tag k="natural" v="slope" />
		<tag k="place" v="locality" />
		<tag k="ssr:stedsnr" v="47845" />
	</node>
	<node lat="66.15393333100322" lon="13.190997228290566" id="-15221">
		<tag k="name" v="Meldalslien" />
		<tag k="natural" v="slope" />
		<tag k="place" v="locality" />
		<tag k="ssr:stedsnr" v="47927" />
	</node>
	<node lat="66.12754405723874" lon="12.841997427133483" id="-15222">
		<tag k="name" v="Storfjellhaugen" />
		<tag k="natural" v="hill" />
		<tag k="place" v="locality" />
		<tag k="ssr:stedsnr" v="47931" />
	</node>
	<node lat="66.12473888462503" lon="12.861458339441295" id="-15223">
		<tag k="name" v="Grøva" />
		<tag k="natural" v="slope" />
		<tag k="place" v="locality" />
		<tag k="ssr:stedsnr" v="47938" />
	</node>
	<node lat="66.12627222218349" lon="12.898619439445335" id="-15225">
		<tag k="name" v="Rullhaugen" />
		<tag k="natural" v="hill" />
		<tag k="place" v="locality" />
		<tag k="ssr:stedsnr" v="47956" />
	</node>
	<node lat="66.1194250004974" lon="13.099983335234556" id="-15226">
		<tag k="name" v="Stokkhaugen" />
		<tag k="natural" v="hill" />
		<tag k="place" v="locality" />
		<tag k="ssr:stedsnr" v="47981" />
	</node>
	<node lat="66.04420832939492" lon="12.956341673925936" id="-15234">
		<tag k="fixme" v="consider natural=peak for the most distinct mountains in the district" />
		<tag k="name" v="Valbergåsen" />
		<tag k="natural" v="hill" />
		<tag k="place" v="locality" />
		<tag k="ssr:stedsnr" v="76032" />
	</node>
	<node lat="66.0840694475631" lon="12.78207777731925" id="-15240">
		<tag k="fixme" v="consider natural=peak for the most distinct mountains in the district" />
		<tag k="name" v="Reinesfjellet" />
		<tag k="natural" v="hill" />
		<tag k="place" v="locality" />
		<tag k="ssr:stedsnr" v="76235" />
	</node>
	<node lat="66.12092500205951" lon="12.873105558805067" id="-15244">
		<tag k="fixme" v="consider natural=peak for the most distinct mountains in the district" />
		<tag k="name" v="Nubben" />
		<tag k="natural" v="hill" />
		<tag k="place" v="locality" />
		<tag k="ssr:stedsnr" v="76172" />
	</node>
	<node lat="66.14911976501126" lon="13.1812021766252" id="-15245">
		<tag k="alt_name" v="Ranskaret" />
		<tag k="fixme" v="consider natural=saddle" />
		<tag k="name" v="Ranskardet" />
		<tag k="natural" v="valley" />
		<tag k="place" v="locality" />
		<tag k="ssr:stedsnr" v="76183" />
	</node>
	<node lat="66.14721944686316" lon="13.20397777744822" id="-15248">
		<tag k="fixme" v="consider natural=peak for the most distinct mountains in the district" />
		<tag k="name" v="Rundfjellet" />
		<tag k="natural" v="hill" />
		<tag k="place" v="locality" />
		<tag k="ssr:stedsnr" v="76190" />
	</node>
	<node lat="66.08435277750522" lon="12.905516668809526" id="-15256">
		<tag k="fixme" v="consider natural=peak for the most distinct mountains in the district" />
		<tag k="name" v="Hinneråsen" />
		<tag k="natural" v="hill" />
		<tag k="place" v="locality" />
		<tag k="ssr:stedsnr" v="107294" />
	</node>
	<node lat="66.06371666355616" lon="12.689988899441742" id="-15257">
		<tag k="fixme" v="consider natural=peak for the most distinct mountains in the district" />
		<tag k="name" v="Angarsnesåsen" />
		<tag k="natural" v="hill" />
		<tag k="place" v="locality" />
		<tag k="ssr:stedsnr" v="107092" />
	</node>
	<node lat="66.08574444335129" lon="13.08458611813348" id="-15258">
		<tag k="name" v="Melaenget" />
		<tag k="natural" v="slope" />
		<tag k="place" v="locality" />
		<tag k="ssr:stedsnr" v="107195" />
	</node>
	<node lat="66.11851944472262" lon="13.069408323028567" id="-15259">
		<tag k="name" v="Nordlia" />
		<tag k="natural" v="slope" />
		<tag k="place" v="locality" />
		<tag k="ssr:stedsnr" v="107489" />
	</node>
	<node lat="66.11890278215081" lon="13.058783337093258" id="-15260">
		<tag k="name" v="Heian" />
		<tag k="natural" v="hill" />
		<tag k="place" v="locality" />
		<tag k="ssr:stedsnr" v="107498" />
	</node>
	<node lat="66.08648611285282" lon="13.01006388357091" id="-15261">
		<tag k="name" v="Innerhatten" />
		<tag k="natural" v="ridge" />
		<tag k="place" v="locality" />
		<tag k="ssr:stedsnr" v="107230" />
	</node>
	<node lat="66.14260555927288" lon="13.021711112005487" id="-15264">
		<tag k="name" v="Velsvågforsdalen" />
		<tag k="natural" v="valley" />
		<tag k="place" v="locality" />
		<tag k="ssr:stedsnr" v="107929" />
	</node>
	<node lat="66.10794721792347" lon="13.14462778596656" id="-15267">
		<tag k="name" v="Lågfjellet" />
		<tag k="natural" v="cliff" />
		<tag k="ssr:stedsnr" v="108378" />
	</node>
	<node lat="66.08951944170579" lon="12.759955555185677" id="-15268">
		<tag k="name" v="Bulirabben" />
		<tag k="natural" v="ridge" />
		<tag k="place" v="locality" />
		<tag k="ssr:stedsnr" v="108318" />
	</node>
	<node lat="66.10303055704337" lon="13.124186121455242" id="-15270">
		<tag k="name" v="Litllabakken" />
		<tag k="natural" v="slope" />
		<tag k="place" v="locality" />
		<tag k="ssr:stedsnr" v="108401" />
	</node>
	<node lat="66.05009166516827" lon="13.108369441224836" id="-15271">
		<tag k="name" v="Stormoen" />
		<tag k="place" v="locality" />
		<tag k="ssr:stedsnr" v="108402" />
	</node>
	<node lat="66.10133333476199" lon="13.120677776133762" id="-15272">
		<tag k="name" v="Tjukklia" />
		<tag k="natural" v="slope" />
		<tag k="place" v="locality" />
		<tag k="ssr:stedsnr" v="108405" />
	</node>
	<node lat="66.09870278119028" lon="13.130438895206753" id="-15273">
		<tag k="fixme" v="consider natural=peak for the most distinct mountains in the district" />
		<tag k="name" v="Storørnhaugen" />
		<tag k="natural" v="hill" />
		<tag k="place" v="locality" />
		<tag k="ssr:stedsnr" v="108409" />
	</node>
	<node lat="66.11628333656434" lon="13.086900003767328" id="-15274">
		<tag k="name" v="Tjønnbakken" />
		<tag k="natural" v="slope" />
		<tag k="place" v="locality" />
		<tag k="ssr:stedsnr" v="108480" />
	</node>
	<node lat="66.12640277786916" lon="12.838080562866962" id="-15277">
		<tag k="name" v="Litlfjellhaugen" />
		<tag k="natural" v="hill" />
		<tag k="place" v="locality" />
		<tag k="ssr:stedsnr" v="108930" />
	</node>
	<node lat="66.04190000219265" lon="12.965188885839456" id="-15279">
		<tag k="name" v="Bjønngapet" />
		<tag k="place" v="locality" />
		<tag k="ssr:stedsnr" v="108563" />
	</node>
	<node lat="66.05189166368952" lon="12.75211944084486" id="-15280">
		<tag k="fixme" v="consider natural=peak for the most distinct mountains in the district" />
		<tag k="name" v="Vomåsen" />
		<tag k="natural" v="hill" />
		<tag k="place" v="locality" />
		<tag k="ssr:stedsnr" v="108629" />
	</node>
	<node lat="66.05394444008714" lon="12.825291664617353" id="-15283">
		<tag k="name" v="Svingardshaugen" />
		<tag k="natural" v="hill" />
		<tag k="place" v="locality" />
		<tag k="ssr:stedsnr" v="108738" />
	</node>
	<node lat="66.07331388523208" lon="12.985677766635257" id="-15290">
		<tag k="fixme" v="consider natural=peak for the most distinct mountains in the district" />
		<tag k="name" v="Heggåsen" />
		<tag k="natural" v="hill" />
		<tag k="place" v="locality" />
		<tag k="ssr:stedsnr" v="108845" />
	</node>
	<node lat="66.0559083369783" lon="12.881261102469045" id="-15291">
		<tag k="name" v="Litlørsåslia" />
		<tag k="natural" v="slope" />
		<tag k="place" v="locality" />
		<tag k="ssr:stedsnr" v="108853" />
	</node>
	<node lat="66.13381111282031" lon="13.064288887749207" id="-15292">
		<tag k="name" v="Sørdalen" />
		<tag k="natural" v="valley" />
		<tag k="place" v="locality" />
		<tag k="ssr:stedsnr" v="108956" />
	</node>
	<node lat="66.12353610710758" lon="12.877055544158734" id="-15293">
		<tag k="name" v="Kvannhola" />
		<tag k="natural" v="valley" />
		<tag k="place" v="locality" />
		<tag k="ssr:stedsnr" v="108965" />
	</node>
	<node lat="66.0515888924239" lon="13.107966673630376" id="-15297">
		<tag k="name" v="Forslandsdalen" />
		<tag k="natural" v="valley" />
		<tag k="place" v="locality" />
		<tag k="ssr:stedsnr" v="136039" />
	</node>
	<node lat="66.00171111501948" lon="12.947619447467428" id="-15299">
		<tag k="name" v="Hesthagen" />
		<tag k="natural" v="slope" />
		<tag k="place" v="locality" />
		<tag k="ssr:stedsnr" v="136138" />
	</node>
	<node lat="66.10431388526521" lon="12.912033335310293" id="-15305">
		<tag k="name" v="Austerdalen" />
		<tag k="natural" v="valley" />
		<tag k="place" v="locality" />
		<tag k="ssr:stedsnr" v="136273" />
	</node>
	<node lat="66.18553611155039" lon="13.233208336165088" id="-15309">
		<tag k="name" v="Storsjøhaugen" />
		<tag k="natural" v="hill" />
		<tag k="place" v="locality" />
		<tag k="ssr:stedsnr" v="137422" />
	</node>
	<node lat="66.08993055483678" lon="12.739372213714072" id="-15310">
		<tag k="name" v="Lilandet" />
		<tag k="natural" v="ridge" />
		<tag k="place" v="locality" />
		<tag k="ssr:stedsnr" v="146386" />
	</node>
	<node lat="65.98716110798225" lon="12.78300555310649" id="-15312">
		<tag k="fixme" v="consider natural=saddle" />
		<tag k="name" v="Revskaret" />
		<tag k="natural" v="valley" />
		<tag k="place" v="locality" />
		<tag k="ssr:stedsnr" v="166076" />
	</node>
	<node lat="66.02550000195058" lon="12.955652772055178" id="-15314">
		<tag k="fixme" v="consider natural=peak for the most distinct mountains in the district" />
		<tag k="name" v="Resmålåsen" />
		<tag k="natural" v="hill" />
		<tag k="place" v="locality" />
		<tag k="ssr:stedsnr" v="166489" />
	</node>
	<node lat="66.06509722490445" lon="12.710627787442059" id="-15316">
		<tag k="name" v="Nubben" />
		<tag k="natural" v="ridge" />
		<tag k="place" v="locality" />
		<tag k="ssr:stedsnr" v="167133" />
	</node>
	<node lat="66.08922499913292" lon="12.87307776729456" id="-15318">
		<tag k="name" v="Nordlia" />
		<tag k="natural" v="slope" />
		<tag k="place" v="locality" />
		<tag k="ssr:stedsnr" v="167287" />
	</node>
	<node lat="66.06094722549169" lon="12.760011109860306" id="-15319">
		<tag k="name" v="Banhaugen" />
		<tag k="natural" v="hill" />
		<tag k="place" v="locality" />
		<tag k="ssr:stedsnr" v="167171" />
	</node>
	<node lat="66.06762778211213" lon="12.741847220183251" id="-15320">
		<tag k="fixme" v="consider natural=peak for the most distinct mountains in the district" />
		<tag k="name" v="Einmoåsen" />
		<tag k="natural" v="hill" />
		<tag k="place" v="locality" />
		<tag k="ssr:stedsnr" v="167177" />
	</node>
	<node lat="66.08783055655387" lon="13.044772223140232" id="-15321">
		<tag k="fixme" v="consider natural=saddle" />
		<tag k="name" v="Tømmerskaret" />
		<tag k="natural" v="valley" />
		<tag k="place" v="locality" />
		<tag k="ssr:stedsnr" v="167195" />
	</node>
	<node lat="66.08088610728252" lon="13.056730557874062" id="-15324">
		<tag k="name" v="Vollhaugen" />
		<tag k="natural" v="hill" />
		<tag k="place" v="locality" />
		<tag k="ssr:stedsnr" v="167245" />
	</node>
	<node lat="66.18286388838327" lon="13.25316111756147" id="-15326">
		<tag k="name" v="Støttdalen" />
		<tag k="natural" v="valley" />
		<tag k="place" v="locality" />
		<tag k="ssr:stedsnr" v="167930" />
	</node>
	<node lat="66.1128027793169" lon="13.09627500379261" id="-15327">
		<tag k="fixme" v="consider natural=peak for the most distinct mountains in the district" />
		<tag k="name" v="Forsåsen" />
		<tag k="natural" v="hill" />
		<tag k="place" v="locality" />
		<tag k="ssr:stedsnr" v="168373" />
	</node>
	<node lat="66.10502777398456" lon="13.134794453203096" id="-15328">
		<tag k="name" v="Insttaremma" />
		<tag k="natural" v="slope" />
		<tag k="place" v="locality" />
		<tag k="ssr:stedsnr" v="168391" />
	</node>
	<node lat="66.11200555563931" lon="13.059602772546105" id="-15329">
		<tag k="name" v="Litldalen" />
		<tag k="natural" v="valley" />
		<tag k="place" v="locality" />
		<tag k="ssr:stedsnr" v="168456" />
	</node>
	<node lat="66.01282499837518" lon="12.897677768512164" id="-15330">
		<tag k="fixme" v="consider natural=peak for the most distinct mountains in the district" />
		<tag k="name" v="Høgåsen" />
		<tag k="natural" v="hill" />
		<tag k="place" v="locality" />
		<tag k="ssr:stedsnr" v="168474" />
	</node>
	<node lat="66.04474166971255" lon="12.964541672732699" id="-15341">
		<tag k="fixme" v="consider natural=peak for the most distinct mountains in the district" />
		<tag k="name" v="Sankarbergan" />
		<tag k="natural" v="hill" />
		<tag k="place" v="locality" />
		<tag k="ssr:stedsnr" v="168700" />
	</node>
	<node lat="66.12577777875089" lon="12.872952769456976" id="-15343">
		<tag k="name" v="Vasshøvet" />
		<tag k="natural" v="hill" />
		<tag k="place" v="locality" />
		<tag k="ssr:stedsnr" v="168964" />
	</node>
	<node lat="66.12578889267496" lon="13.156502782646104" id="-15347">
		<tag k="name" v="Inner-Klampdal" />
		<tag k="natural" v="valley" />
		<tag k="place" v="locality" />
		<tag k="ssr:stedsnr" v="168984" />
	</node>
	<node lat="66.12230278076544" lon="13.16011943414748" id="-15348">
		<tag k="name" v="Øver-Klamphola" />
		<tag k="natural" v="valley" />
		<tag k="place" v="locality" />
		<tag k="ssr:stedsnr" v="168986" />
	</node>
	<node lat="66.06982499797394" lon="12.83465000656745" id="-15349">
		<tag k="name" v="Mølndalen" />
		<tag k="natural" v="valley" />
		<tag k="place" v="locality" />
		<tag k="ssr:stedsnr" v="168781" />
	</node>
	<node lat="66.0714055551597" lon="13.072980561315976" id="-15350">
		<tag k="name" v="Kalvlia" />
		<tag k="natural" v="slope" />
		<tag k="place" v="locality" />
		<tag k="ssr:stedsnr" v="168839" />
	</node>
	<node lat="66.12686111216654" lon="13.216194440038045" id="-15361">
		<tag k="fixme" v="consider natural=peak for the most distinct mountains in the district" />
		<tag k="name" v="Stafjellet" />
		<tag k="natural" v="hill" />
		<tag k="place" v="locality" />
		<tag k="ssr:stedsnr" v="197150" />
	</node>
	<node lat="66.1143361149603" lon="13.165686113549748" id="-15362">
		<tag k="fixme" v="consider natural=peak for the most distinct mountains in the district" />
		<tag k="name" v="Husfjellet" />
		<tag k="natural" v="hill" />
		<tag k="place" v="locality" />
		<tag k="ssr:stedsnr" v="197152" />
	</node>
	<node lat="65.98886389016313" lon="12.932194445504377" id="-15367">
		<tag k="name" v="Daudmannsfloget" />
		<tag k="natural" v="valley" />
		<tag k="place" v="locality" />
		<tag k="ssr:stedsnr" v="198056" />
	</node>
	<node lat="65.98420278069639" lon="12.909202771324683" id="-15368">
		<tag k="name" v="Åsen" />
		<tag k="natural" v="slope" />
		<tag k="place" v="locality" />
		<tag k="ssr:stedsnr" v="198058" />
	</node>
	<node lat="66.03831389188966" lon="12.994186113175" id="-15369">
		<tag k="name" v="Teppåsen" />
		<tag k="natural" v="hill" />
		<tag k="place" v="locality" />
		<tag k="ssr:stedsnr" v="198019" />
	</node>
	<node lat="66.12294444353252" lon="13.090497213811366" id="-15372">
		<tag k="name" v="Kvannlia" />
		<tag k="natural" v="slope" />
		<tag k="place" v="locality" />
		<tag k="ssr:stedsnr" v="198138" />
	</node>
	<node lat="65.98519166255286" lon="12.797325006536342" id="-15375">
		<tag k="name" v="Kynnesbakken" />
		<tag k="natural" v="slope" />
		<tag k="place" v="locality" />
		<tag k="ssr:stedsnr" v="213821" />
	</node>
	<node lat="66.08565277710883" lon="12.87178332779877" id="-15379">
		<tag k="fixme" v="consider natural=peak for the most distinct mountains in the district" />
		<tag k="name" v="Nordfotlia" />
		<tag k="natural" v="hill" />
		<tag k="place" v="locality" />
		<tag k="ssr:stedsnr" v="258233" />
	</node>
	<node lat="66.06386944515583" lon="12.853002768738488" id="-15382">
		<tag k="fixme" v="consider natural=peak for the most distinct mountains in the district" />
		<tag k="name" v="Einmoåsen" />
		<tag k="natural" v="hill" />
		<tag k="place" v="locality" />
		<tag k="ssr:stedsnr" v="258062" />
	</node>
	<node lat="66.13629166836212" lon="13.111069453695736" id="-15386">
		<tag k="fixme" v="consider natural=peak for the most distinct mountains in the district" />
		<tag k="name" v="Kvannfjellet" />
		<tag k="natural" v="hill" />
		<tag k="place" v="locality" />
		<tag k="ssr:stedsnr" v="258159" />
	</node>
	<node lat="66.12812222260308" lon="12.863511121779126" id="-15387">
		<tag k="fixme" v="consider natural=peak for the most distinct mountains in the district" />
		<tag k="name" v="Nordfjellet" />
		<tag k="natural" v="hill" />
		<tag k="place" v="locality" />
		<tag k="ssr:stedsnr" v="258161" />
	</node>
	<node lat="66.17050277912699" lon="13.3538305558299" id="-15388">
		<tag k="name" v="Kvanndalen" />
		<tag k="natural" v="valley" />
		<tag k="place" v="locality" />
		<tag k="ssr:stedsnr" v="258391" />
	</node>
	<node lat="66.02883031523274" lon="12.890660268155967" id="-15389">
		<tag k="alt_name" v="Furuneshaugen" />
		<tag k="fixme" v="multiple name tags, choose one and add the other to alt_name; consider natural=peak for the most distinct mountains in the district" />
		<tag k="name" v="Forneshaugen;Selvågfjellet" />
		<tag k="natural" v="hill" />
		<tag k="place" v="locality" />
		<tag k="ssr:stedsnr" v="258017" />
	</node>
	<node lat="65.9895638862026" lon="12.812597225207002" id="-15397">
		<tag k="name" v="Gongdalen" />
		<tag k="natural" v="valley" />
		<tag k="place" v="locality" />
		<tag k="ssr:stedsnr" v="273816" />
	</node>
	<node lat="66.06533611456646" lon="12.78631666543064" id="-15398">
		<tag k="fixme" v="consider natural=peak for the most distinct mountains in the district" />
		<tag k="name" v="Storåsen" />
		<tag k="natural" v="hill" />
		<tag k="place" v="locality" />
		<tag k="ssr:stedsnr" v="289151" />
	</node>
	<node lat="66.06746666339087" lon="12.695255557617358" id="-15401">
		<tag k="name" v="Ramnflogomnen" />
		<tag k="natural" v="cliff" />
		<tag k="ssr:stedsnr" v="289117" />
	</node>
	<node lat="66.07187500216533" lon="12.696975001254316" id="-15402">
		<tag k="fixme" v="consider natural=saddle" />
		<tag k="name" v="Steinskaret" />
		<tag k="natural" v="valley" />
		<tag k="place" v="locality" />
		<tag k="ssr:stedsnr" v="289123" />
	</node>
	<node lat="66.09615785060694" lon="13.095204019777011" id="-15404">
		<tag k="fixme" v="consider natural=saddle" />
		<tag k="name" v="Aneisakstehola" />
		<tag k="natural" v="valley" />
		<tag k="place" v="locality" />
		<tag k="ssr:stedsnr" v="289221" />
	</node>
	<node lat="66.06972222170779" lon="12.749361110861058" id="-15405">
		<tag k="name" v="Klokkaren" />
		<tag k="place" v="locality" />
		<tag k="ssr:stedsnr" v="289179" />
	</node>
	<node lat="66.10465000255401" lon="13.057327785991554" id="-15406">
		<tag k="name" v="Brattskarlia" />
		<tag k="natural" v="slope" />
		<tag k="place" v="locality" />
		<tag k="ssr:stedsnr" v="289544" />
	</node>
	<node lat="66.08585833222176" lon="12.864461109033451" id="-15407">
		<tag k="name" v="Høgsetet" />
		<tag k="natural" v="valley" />
		<tag k="place" v="locality" />
		<tag k="ssr:stedsnr" v="289272" />
	</node>
	<node lat="66.0934416701412" lon="12.86649999219568" id="-15408">
		<tag k="fixme" v="consider natural=peak for the most distinct mountains in the district" />
		<tag k="name" v="Fjellåsen" />
		<tag k="natural" v="hill" />
		<tag k="place" v="locality" />
		<tag k="ssr:stedsnr" v="289279" />
	</node>
	<node lat="66.11118055504016" lon="12.826166675104847" id="-15409">
		<tag k="fixme" v="consider natural=saddle" />
		<tag k="name" v="Sauskaret" />
		<tag k="natural" v="valley" />
		<tag k="place" v="locality" />
		<tag k="ssr:stedsnr" v="289481" />
	</node>
	<node lat="66.11307500183379" lon="13.053291676725062" id="-15411">
		<tag k="name" v="Stordalen" />
		<tag k="natural" v="valley" />
		<tag k="place" v="locality" />
		<tag k="ssr:stedsnr" v="289518" />
	</node>
	<node lat="66.04263333382715" lon="12.947997211473785" id="-15413">
		<tag k="name" v="Brattinden" />
		<tag k="natural" v="slope" />
		<tag k="place" v="locality" />
		<tag k="ssr:stedsnr" v="290487" />
	</node>
	<node lat="66.04169722646482" lon="12.955219437726726" id="-15414">
		<tag k="name" v="Staulhaugen" />
		<tag k="natural" v="ridge" />
		<tag k="place" v="locality" />
		<tag k="ssr:stedsnr" v="290488" />
	</node>
	<node lat="66.05772222496535" lon="13.057875009403165" id="-15415">
		<tag k="name" v="Langforstuva" />
		<tag k="natural" v="hill" />
		<tag k="place" v="locality" />
		<tag k="ssr:stedsnr" v="290619" />
	</node>
	<node lat="66.04231389292194" lon="13.119544445299933" id="-15417">
		<tag k="name" v="Simadalen" />
		<tag k="natural" v="valley" />
		<tag k="place" v="locality" />
		<tag k="ssr:stedsnr" v="290411" />
	</node>
	<node lat="66.01886110883888" lon="12.964472221316724" id="-15418">
		<tag k="name" v="Moen" />
		<tag k="place" v="locality" />
		<tag k="ssr:stedsnr" v="290424" />
	</node>
	<node lat="66.07476388647858" lon="12.900511115205003" id="-15427">
		<tag k="name" v="Risfoten" />
		<tag k="natural" v="slope" />
		<tag k="place" v="locality" />
		<tag k="ssr:stedsnr" v="290837" />
	</node>
	<node lat="66.06560000109161" lon="12.841736116254289" id="-15428">
		<tag k="name" v="Stordalen" />
		<tag k="natural" v="valley" />
		<tag k="place" v="locality" />
		<tag k="ssr:stedsnr" v="290768" />
	</node>
	<node lat="66.07664166328561" lon="13.055255564421168" id="-15429">
		<tag k="name" v="Burshaugen" />
		<tag k="natural" v="hill" />
		<tag k="place" v="locality" />
		<tag k="ssr:stedsnr" v="290787" />
	</node>
	<node lat="66.18444722422821" lon="13.418719448016326" id="-15430">
		<tag k="fixme" v="consider natural=peak for the most distinct mountains in the district" />
		<tag k="name" v="Åfjellet" />
		<tag k="natural" v="hill" />
		<tag k="place" v="locality" />
		<tag k="ssr:stedsnr" v="318375" />
	</node>
	<node lat="66.21429999957029" lon="13.457297222793782" id="-15431">
		<tag k="name" v="Storhaugen" />
		<tag k="natural" v="hill" />
		<tag k="place" v="locality" />
		<tag k="ssr:stedsnr" v="318079" />
	</node>
	<node lat="66.09856111432451" lon="12.872577782918862" id="-15435">
		<tag k="fixme" v="consider natural=peak for the most distinct mountains in the district" />
		<tag k="name" v="Sauskardnakken" />
		<tag k="natural" v="hill" />
		<tag k="place" v="locality" />
		<tag k="ssr:stedsnr" v="318238" />
	</node>
	<node lat="65.98358888604164" lon="12.760258336130429" id="-15438">
		<tag k="fixme" v="consider natural=peak for the most distinct mountains in the district" />
		<tag k="name" v="Dyrklovfjellet" />
		<tag k="natural" v="hill" />
		<tag k="place" v="locality" />
		<tag k="ssr:stedsnr" v="319069" />
	</node>
	<node lat="66.13069166444876" lon="12.916058325080101" id="-15445">
		<tag k="fixme" v="consider natural=peak for the most distinct mountains in the district" />
		<tag k="name" v="Hestan" />
		<tag k="natural" v="hill" />
		<tag k="place" v="locality" />
		<tag k="ssr:stedsnr" v="319144" />
	</node>
	<node lat="66.200202782318" lon="13.418805552285601" id="-15446">
		<tag k="name" v="Haugan" />
		<tag k="natural" v="hill" />
		<tag k="place" v="locality" />
		<tag k="ssr:stedsnr" v="319384" />
	</node>
	<node lat="66.18999444046345" lon="13.253880545770004" id="-15448">
		<tag k="fixme" v="consider natural=peak for the most distinct mountains in the district" />
		<tag k="name" v="Langryggen" />
		<tag k="natural" v="hill" />
		<tag k="place" v="locality" />
		<tag k="ssr:stedsnr" v="319392" />
	</node>
	<node lat="66.11116111119331" lon="13.333549989631763" id="-15449">
		<tag k="fixme" v="consider natural=peak for the most distinct mountains in the district" />
		<tag k="name" v="Nordtoven" />
		<tag k="natural" v="hill" />
		<tag k="place" v="locality" />
		<tag k="ssr:stedsnr" v="319438" />
	</node>
	<node lat="66.07756666383297" lon="12.854105563769474" id="-15461">
		<tag k="name" v="Revhaugen" />
		<tag k="natural" v="hill" />
		<tag k="place" v="locality" />
		<tag k="ssr:stedsnr" v="349348" />
	</node>
	<node lat="66.07715277990755" lon="12.876688888782109" id="-15462">
		<tag k="name" v="Reinhaugen" />
		<tag k="natural" v="hill" />
		<tag k="place" v="locality" />
		<tag k="ssr:stedsnr" v="349355" />
	</node>
	<node lat="66.06582499927282" lon="12.6900999926877" id="-15465">
		<tag k="name" v="Fjellsletta" />
		<tag k="place" v="locality" />
		<tag k="ssr:stedsnr" v="349157" />
	</node>
	<node lat="66.06992500279871" lon="12.695711122194464" id="-15466">
		<tag k="fixme" v="consider natural=saddle" />
		<tag k="name" v="Sankt Olavsskotet" />
		<tag k="natural" v="valley" />
		<tag k="place" v="locality" />
		<tag k="ssr:stedsnr" v="349162" />
	</node>
	<node lat="66.09007777853661" lon="12.760697224864238" id="-15469">
		<tag k="name" v="Svahella" />
		<tag k="place" v="locality" />
		<tag k="ssr:stedsnr" v="350283" />
	</node>
	<node lat="66.10017221972335" lon="12.759916671048842" id="-15470">
		<tag k="fixme" v="consider natural=saddle" />
		<tag k="name" v="Storskaret" />
		<tag k="natural" v="valley" />
		<tag k="place" v="locality" />
		<tag k="ssr:stedsnr" v="350391" />
	</node>
	<node lat="66.1103138904239" lon="13.12769722396379" id="-15471">
		<tag k="name" v="Dyrtjønndalen" />
		<tag k="natural" v="valley" />
		<tag k="place" v="locality" />
		<tag k="ssr:stedsnr" v="350346" />
	</node>
	<node lat="66.10002499673449" lon="13.138702770032266" id="-15473">
		<tag k="name" v="Bestemorenget" />
		<tag k="place" v="locality" />
		<tag k="ssr:stedsnr" v="350354" />
	</node>
	<node lat="66.11157221856567" lon="13.072877785155882" id="-15475">
		<tag k="name" v="Ørnvollen" />
		<tag k="natural" v="slope" />
		<tag k="place" v="locality" />
		<tag k="ssr:stedsnr" v="350426" />
	</node>
	<node lat="66.11258611369276" lon="13.06546110215734" id="-15476">
		<tag k="fixme" v="consider natural=saddle" />
		<tag k="name" v="Storbrattskaret" />
		<tag k="natural" v="valley" />
		<tag k="place" v="locality" />
		<tag k="ssr:stedsnr" v="350430" />
	</node>
	<node lat="66.11687222611715" lon="13.072580554078728" id="-15477">
		<tag k="fixme" v="consider natural=saddle" />
		<tag k="name" v="Strupen" />
		<tag k="natural" v="valley" />
		<tag k="place" v="locality" />
		<tag k="ssr:stedsnr" v="350434" />
	</node>
	<node lat="66.0469972261413" lon="12.972794443116834" id="-15480">
		<tag k="fixme" v="consider natural=peak for the most distinct mountains in the district" />
		<tag k="name" v="Aspåsen" />
		<tag k="natural" v="hill" />
		<tag k="place" v="locality" />
		<tag k="ssr:stedsnr" v="350684" />
	</node>
	<node lat="66.05309722657782" lon="12.844750001253118" id="-15483">
		<tag k="name" v="Skjåhaugen" />
		<tag k="natural" v="hill" />
		<tag k="place" v="locality" />
		<tag k="ssr:stedsnr" v="350728" />
	</node>
	<node lat="66.12498333457343" lon="12.866433325805582" id="-15493">
		<tag k="name" v="Høgvasshaugen" />
		<tag k="natural" v="hill" />
		<tag k="place" v="locality" />
		<tag k="ssr:stedsnr" v="350942" />
	</node>
	<node lat="66.04905277899157" lon="13.129227781901212" id="-15495">
		<tag k="fixme" v="consider natural=peak for the most distinct mountains in the district" />
		<tag k="name" v="Ørnstolen" />
		<tag k="natural" v="hill" />
		<tag k="place" v="locality" />
		<tag k="ssr:stedsnr" v="379020" />
	</node>
	<node lat="65.98894444212306" lon="13.041800000887427" id="-15498">
		<tag k="fixme" v="consider natural=peak for the most distinct mountains in the district" />
		<tag k="name" v="Villtoven" />
		<tag k="natural" v="hill" />
		<tag k="place" v="locality" />
		<tag k="ssr:stedsnr" v="379122" />
	</node>
	<node lat="66.08146111122878" lon="12.822122227956964" id="-15501">
		<tag k="name" v="Tverrådalen" />
		<tag k="natural" v="valley" />
		<tag k="place" v="locality" />
		<tag k="ssr:stedsnr" v="379221" />
	</node>
	<node lat="66.11198610829824" lon="12.958988886530866" id="-15507">
		<tag k="fixme" v="consider natural=peak for the most distinct mountains in the district" />
		<tag k="name" v="Lihauet" />
		<tag k="natural" v="hill" />
		<tag k="place" v="locality" />
		<tag k="ssr:stedsnr" v="379142" />
	</node>
	<node lat="66.08710833743015" lon="13.040380561949425" id="-15513">
		<tag k="name" v="Nord-Aksla" />
		<tag k="natural" v="ridge" />
		<tag k="place" v="locality" />
		<tag k="ssr:stedsnr" v="410242" />
	</node>
	<node lat="66.10786944229704" lon="12.814630549984326" id="-15514">
		<tag k="name" v="Hamphola" />
		<tag k="natural" v="valley" />
		<tag k="place" v="locality" />
		<tag k="ssr:stedsnr" v="410471" />
	</node>
	<node lat="66.06644722119648" lon="12.734913885122308" id="-15515">
		<tag k="name" v="Klubben" />
		<tag k="natural" v="ridge" />
		<tag k="place" v="locality" />
		<tag k="ssr:stedsnr" v="410072" />
	</node>
	<node lat="66.06925000076147" lon="12.771630556699442" id="-15517">
		<tag k="fixme" v="consider natural=peak for the most distinct mountains in the district" />
		<tag k="name" v="Slåtteråsen" />
		<tag k="natural" v="hill" />
		<tag k="place" v="locality" />
		<tag k="ssr:stedsnr" v="410154" />
	</node>
	<node lat="66.11968888664849" lon="13.063958327671234" id="-15519">
		<tag k="fixme" v="consider natural=saddle" />
		<tag k="name" v="Trongskaret" />
		<tag k="natural" v="valley" />
		<tag k="place" v="locality" />
		<tag k="ssr:stedsnr" v="410495" />
	</node>
	<node lat="66.14209166378777" lon="13.057638887859598" id="-15521">
		<tag k="name" v="Korga" />
		<tag k="natural" v="valley" />
		<tag k="place" v="locality" />
		<tag k="ssr:stedsnr" v="410915" />
	</node>
	<node lat="66.18398611115842" lon="13.24841666060585" id="-15523">
		<tag k="name" v="Bismardalen" />
		<tag k="natural" v="valley" />
		<tag k="place" v="locality" />
		<tag k="ssr:stedsnr" v="410921" />
	</node>
	<node lat="66.07852222673114" lon="12.891891659798715" id="-15524">
		<tag k="name" v="Stokkåsen" />
		<tag k="natural" v="valley" />
		<tag k="place" v="locality" />
		<tag k="ssr:stedsnr" v="411287" />
	</node>
	<node lat="66.07633610984001" lon="12.842527787652687" id="-15529">
		<tag k="name" v="Tømmersletthaugen" />
		<tag k="natural" v="hill" />
		<tag k="place" v="locality" />
		<tag k="ssr:stedsnr" v="411322" />
	</node>
	<node lat="66.04404444096173" lon="13.026324999858728" id="-15531">
		<tag k="fixme" v="consider natural=peak for the most distinct mountains in the district" />
		<tag k="name" v="Nylandsklubbåsen" />
		<tag k="natural" v="hill" />
		<tag k="place" v="locality" />
		<tag k="ssr:stedsnr" v="411389" />
	</node>
	<node lat="66.05498333501548" lon="13.016924990636106" id="-15532">
		<tag k="name" v="Klubbåsenget" />
		<tag k="natural" v="slope" />
		<tag k="place" v="locality" />
		<tag k="ssr:stedsnr" v="411394" />
	</node>
	<node lat="66.0364972242282" lon="12.679661113461176" id="-15534">
		<tag k="name" v="Hundsreva" />
		<tag k="natural" v="hill" />
		<tag k="place" v="locality" />
		<tag k="ssr:stedsnr" v="411624" />
	</node>
	<node lat="66.05355277770492" lon="12.870608328189771" id="-15537">
		<tag k="fixme" v="consider natural=peak for the most distinct mountains in the district" />
		<tag k="name" v="Leirbuåsen" />
		<tag k="natural" v="hill" />
		<tag k="place" v="locality" />
		<tag k="ssr:stedsnr" v="411712" />
	</node>
	<node lat="66.02728332901319" lon="12.970694454193199" id="-15540">
		<tag k="name" v="Ålmoan" />
		<tag k="place" v="locality" />
		<tag k="ssr:stedsnr" v="411445" />
	</node>
	<node lat="66.06420833264787" lon="12.834074990442614" id="-15544">
		<tag k="fixme" v="consider natural=peak for the most distinct mountains in the district" />
		<tag k="name" v="Ørlituva" />
		<tag k="natural" v="hill" />
		<tag k="place" v="locality" />
		<tag k="ssr:stedsnr" v="411795" />
	</node>
	<node lat="66.01991944771764" lon="12.964750009562662" id="-15545">
		<tag k="fixme" v="consider natural=peak for the most distinct mountains in the district" />
		<tag k="name" v="Kuppelåsen" />
		<tag k="natural" v="hill" />
		<tag k="place" v="locality" />
		<tag k="ssr:stedsnr" v="411451" />
	</node>
	<node lat="66.05546111307629" lon="13.006350010488301" id="-15546">
		<tag k="name" v="Linberget" />
		<tag k="natural" v="slope" />
		<tag k="place" v="locality" />
		<tag k="ssr:stedsnr" v="411656" />
	</node>
	<node lat="66.05370833233599" lon="12.97345833740491" id="-15547">
		<tag k="name" v="Nordvikfloget" />
		<tag k="natural" v="cliff" />
		<tag k="ssr:stedsnr" v="411697" />
	</node>
	<node lat="66.06643333722673" lon="12.927402783479403" id="-15550">
		<tag k="fixme" v="consider natural=peak for the most distinct mountains in the district" />
		<tag k="name" v="Kjølsskogåsen" />
		<tag k="natural" v="hill" />
		<tag k="place" v="locality" />
		<tag k="ssr:stedsnr" v="411854" />
	</node>
	<node lat="66.05786944812579" lon="12.901475000773297" id="-15551">
		<tag k="name" v="Drågmoen" />
		<tag k="place" v="locality" />
		<tag k="ssr:stedsnr" v="411876" />
	</node>
	<node lat="66.05613333234997" lon="12.877438892649558" id="-15552">
		<tag k="name" v="Ørsåslia" />
		<tag k="natural" v="slope" />
		<tag k="place" v="locality" />
		<tag k="ssr:stedsnr" v="411878" />
	</node>
	<node lat="66.06869166569004" lon="12.951272228838954" id="-15553">
		<tag k="fixme" v="consider natural=peak for the most distinct mountains in the district" />
		<tag k="name" v="Klubben" />
		<tag k="natural" v="hill" />
		<tag k="place" v="locality" />
		<tag k="ssr:stedsnr" v="411826" />
	</node>
	<node lat="66.11471944050828" lon="13.054430563859494" id="-15557">
		<tag k="name" v="Lussidalen" />
		<tag k="natural" v="valley" />
		<tag k="place" v="locality" />
		<tag k="ssr:stedsnr" v="440184" />
	</node>
	<node lat="66.06822777659634" lon="13.089850001265821" id="-15559">
		<tag k="fixme" v="consider natural=peak for the most distinct mountains in the district" />
		<tag k="name" v="Åstuva" />
		<tag k="natural" v="hill" />
		<tag k="place" v="locality" />
		<tag k="ssr:stedsnr" v="440088" />
	</node>
	<node lat="66.1593972234657" lon="13.091347213416514" id="-15567">
		<tag k="name" v="Klubben" />
		<tag k="natural" v="hill" />
		<tag k="place" v="locality" />
		<tag k="ssr:stedsnr" v="440217" />
	</node>
	<node lat="66.1476472194197" lon="13.289772219293138" id="-15571">
		<tag k="fixme" v="consider natural=peak for the most distinct mountains in the district" />
		<tag k="loc_name:sma" v="Rovhtetje" />
		<tag k="name" v="Ruteran" />
		<tag k="name:no" v="Ruteran" />
		<tag k="natural" v="hill" />
		<tag k="place" v="locality" />
		<tag k="ssr:stedsnr" v="440477" />
	</node>
	<node lat="66.14526389111461" lon="13.365541656195798" id="-15572">
		<tag k="fixme" v="consider natural=peak for the most distinct mountains in the district" />
		<tag k="name" v="Hella" />
		<tag k="natural" v="hill" />
		<tag k="place" v="locality" />
		<tag k="ssr:stedsnr" v="440481" />
	</node>
	<node lat="66.18170277676046" lon="13.218983329792463" id="-15575">
		<tag k="fixme" v="consider natural=peak for the most distinct mountains in the district" />
		<tag k="name" v="Stigaksla" />
		<tag k="natural" v="hill" />
		<tag k="place" v="locality" />
		<tag k="ssr:stedsnr" v="440443" />
	</node>
	<node lat="66.10974444419251" lon="13.105736105543865" id="-15581">
		<tag k="fixme" v="consider natural=peak for the most distinct mountains in the district" />
		<tag k="name" v="Stormoåsen" />
		<tag k="natural" v="hill" />
		<tag k="place" v="locality" />
		<tag k="ssr:stedsnr" v="500264" />
	</node>
	<node lat="66.09488055568185" lon="12.904908330508936" id="-15582">
		<tag k="fixme" v="consider natural=peak for the most distinct mountains in the district" />
		<tag k="name" v="Bålskardlifjellet" />
		<tag k="natural" v="hill" />
		<tag k="place" v="locality" />
		<tag k="ssr:stedsnr" v="500273" />
	</node>
	<node lat="66.06284444791436" lon="12.780463887503764" id="-15587">
		<tag k="alt_name" v="Bjørnaråsholtan" />
		<tag k="name" v="Bjønneråsholtan" />
		<tag k="natural" v="hill" />
		<tag k="place" v="locality" />
		<tag k="ssr:stedsnr" v="501057" />
	</node>
	<node lat="66.13117221957127" lon="13.141169436329589" id="-15594">
		<tag k="alt_name" v="Tverrådalen" />
		<tag k="name" v="Tverrådal" />
		<tag k="natural" v="valley" />
		<tag k="place" v="locality" />
		<tag k="ssr:stedsnr" v="501136" />
	</node>
	<node lat="66.06756111129891" lon="12.704747218977811" id="-15601">
		<tag k="name" v="Reinesfjellet" />
		<tag k="natural" v="cliff" />
		<tag k="ssr:stedsnr" v="531121" />
	</node>
	<node lat="66.0671305552383" lon="12.673930565825112" id="-15602">
		<tag k="fixme" v="consider natural=saddle" />
		<tag k="name" v="Strandskaret" />
		<tag k="natural" v="valley" />
		<tag k="place" v="locality" />
		<tag k="ssr:stedsnr" v="531127" />
	</node>
	<node lat="66.09058611355101" lon="13.090705555178268" id="-15603">
		<tag k="name" v="Bannlia" />
		<tag k="natural" v="slope" />
		<tag k="place" v="locality" />
		<tag k="ssr:stedsnr" v="531217" />
	</node>
	<node lat="66.08632499992967" lon="13.11477221396985" id="-15604">
		<tag k="name" v="Larabben" />
		<tag k="natural" v="hill" />
		<tag k="place" v="locality" />
		<tag k="ssr:stedsnr" v="531225" />
	</node>
	<node lat="66.08380277937715" lon="12.917919440539139" id="-15606">
		<tag k="name" v="Vargmoen" />
		<tag k="natural" v="slope" />
		<tag k="place" v="locality" />
		<tag k="ssr:stedsnr" v="531314" />
	</node>
	<node lat="66.08194166712836" lon="13.031933337027446" id="-15608">
		<tag k="name" v="Stallhaugen" />
		<tag k="natural" v="hill" />
		<tag k="place" v="locality" />
		<tag k="ssr:stedsnr" v="531245" />
	</node>
	<node lat="66.06146666589562" lon="12.769097222659951" id="-15610">
		<tag k="name" v="Storsteinholten" />
		<tag k="natural" v="ridge" />
		<tag k="place" v="locality" />
		<tag k="ssr:stedsnr" v="531154" />
	</node>
	<node lat="66.18149999670405" lon="13.258772222388288" id="-15613">
		<tag k="name" v="Høyskjådalen" />
		<tag k="natural" v="valley" />
		<tag k="place" v="locality" />
		<tag k="ssr:stedsnr" v="531927" />
	</node>
	<node lat="66.0455333302352" lon="12.731936117112918" id="-15616">
		<tag k="fixme" v="consider natural=peak for the most distinct mountains in the district" />
		<tag k="name" v="Høgåsen" />
		<tag k="natural" v="hill" />
		<tag k="place" v="locality" />
		<tag k="ssr:stedsnr" v="532632" />
	</node>
	<node lat="66.0428194467539" lon="12.721797231729642" id="-15618">
		<tag k="name" v="Ørnfloget" />
		<tag k="natural" v="cliff" />
		<tag k="ssr:stedsnr" v="532658" />
	</node>
	<node lat="66.10489444280536" lon="12.79598888327523" id="-15620">
		<tag k="name" v="Ramnfloget" />
		<tag k="natural" v="cliff" />
		<tag k="ssr:stedsnr" v="532459" />
	</node>
	<node lat="66.02761944467187" lon="12.946480557578779" id="-15621">
		<tag k="fixme" v="consider natural=peak for the most distinct mountains in the district" />
		<tag k="name" v="Revåsen" />
		<tag k="natural" v="hill" />
		<tag k="place" v="locality" />
		<tag k="ssr:stedsnr" v="532463" />
	</node>
	<node lat="66.10434166978918" lon="13.063455552904161" id="-15622">
		<tag k="name" v="Risremman" />
		<tag k="place" v="locality" />
		<tag k="ssr:stedsnr" v="532475" />
	</node>
	<node lat="66.04742222006534" lon="12.968641664326457" id="-15624">
		<tag k="fixme" v="consider natural=peak for the most distinct mountains in the district" />
		<tag k="name" v="Gomåsbergan" />
		<tag k="natural" v="hill" />
		<tag k="place" v="locality" />
		<tag k="ssr:stedsnr" v="532694" />
	</node>
	<node lat="66.04378333668245" lon="12.980283342890587" id="-15625">
		<tag k="name" v="Skrubb-bakken" />
		<tag k="natural" v="slope" />
		<tag k="place" v="locality" />
		<tag k="ssr:stedsnr" v="532696" />
	</node>
	<node lat="66.06454166292394" lon="12.830888877681039" id="-15627">
		<tag k="name" v="Ørlia" />
		<tag k="natural" v="slope" />
		<tag k="place" v="locality" />
		<tag k="ssr:stedsnr" v="532803" />
	</node>
	<node lat="66.04202499890184" lon="12.690861112836176" id="-15632">
		<tag k="name" v="Kringlinghaugen" />
		<tag k="natural" v="hill" />
		<tag k="place" v="locality" />
		<tag k="ssr:stedsnr" v="532667" />
	</node>
	<node lat="66.06173055206878" lon="12.916772232168608" id="-15636">
		<tag k="name" v="Smårisbakken" />
		<tag k="natural" v="ridge" />
		<tag k="place" v="locality" />
		<tag k="ssr:stedsnr" v="532857" />
	</node>
	<node lat="66.06322222589313" lon="12.931436121569407" id="-15637">
		<tag k="fixme" v="consider natural=peak for the most distinct mountains in the district" />
		<tag k="name" v="Lysåsen" />
		<tag k="natural" v="hill" />
		<tag k="place" v="locality" />
		<tag k="ssr:stedsnr" v="532860" />
	</node>
	<node lat="66.1226777822329" lon="12.854602769023705" id="-15641">
		<tag k="name" v="Kvefsnhaugen" />
		<tag k="natural" v="hill" />
		<tag k="place" v="locality" />
		<tag k="ssr:stedsnr" v="532938" />
	</node>
	<node lat="66.1234277751601" lon="12.838725004261516" id="-15642">
		<tag k="name" v="Stordalen" />
		<tag k="natural" v="valley" />
		<tag k="place" v="locality" />
		<tag k="ssr:stedsnr" v="532939" />
	</node>
	<node lat="66.13689444317947" lon="13.191591668808831" id="-15643">
		<tag k="name" v="Rundfjelldalsaksla" />
		<tag k="natural" v="ridge" />
		<tag k="place" v="locality" />
		<tag k="ssr:stedsnr" v="532976" />
	</node>
	<node lat="66.21541944275567" lon="13.31580833368378" id="-15651">
		<tag k="fixme" v="multiple name tags, choose one and add the other to alt_name; consider natural=peak for the most distinct mountains in the district" />
		<tag k="name" v="Innerneppelen;Veten" />
		<tag k="natural" v="hill" />
		<tag k="place" v="locality" />
		<tag k="ssr:stedsnr" v="561084" />
	</node>
	<node lat="66.05563055994743" lon="13.082563894191685" id="-15655">
		<tag k="fixme" v="consider natural=peak for the most distinct mountains in the district" />
		<tag k="name" v="Husfjellet" />
		<tag k="natural" v="hill" />
		<tag k="place" v="locality" />
		<tag k="ssr:stedsnr" v="561033" />
	</node>
	<node lat="65.99522500280406" lon="12.766958332117847" id="-15661">
		<tag k="name" v="Kaldkloven" />
		<tag k="natural" v="slope" />
		<tag k="place" v="locality" />
		<tag k="ssr:stedsnr" v="561091" />
	</node>
	<node lat="66.09909166344116" lon="12.891555564726186" id="-15663">
		<tag k="name" v="Simsødalen" />
		<tag k="natural" v="valley" />
		<tag k="place" v="locality" />
		<tag k="ssr:stedsnr" v="561256" />
	</node>
	<node lat="66.10133333639159" lon="13.134961118355735" id="-15664">
		<tag k="alt_name" v="Granlihola" />
		<tag k="name" v="Granhola" />
		<tag k="natural" v="valley" />
		<tag k="place" v="locality" />
		<tag k="ssr:stedsnr" v="561259" />
	</node>
	<node lat="66.19410555877563" lon="13.376830566766232" id="-15665">
		<tag k="name" v="Fjølhaugan" />
		<tag k="natural" v="hill" />
		<tag k="place" v="locality" />
		<tag k="ssr:stedsnr" v="561415" />
	</node>
	<node lat="66.11136111143728" lon="13.237361120971785" id="-15667">
		<tag k="name" v="Forliaksla" />
		<tag k="natural" v="ridge" />
		<tag k="place" v="locality" />
		<tag k="ssr:stedsnr" v="561454" />
	</node>
	<node lat="66.06972777883249" lon="12.71279723174937" id="-15669">
		<tag k="fixme" v="consider natural=peak for the most distinct mountains in the district" />
		<tag k="name" v="Angersnesåsen" />
		<tag k="natural" v="hill" />
		<tag k="place" v="locality" />
		<tag k="ssr:stedsnr" v="561977" />
	</node>
	<node lat="66.2018944414947" lon="13.440766664303915" id="-15673">
		<tag k="name" v="Hallbakken" />
		<tag k="natural" v="slope" />
		<tag k="place" v="locality" />
		<tag k="ssr:stedsnr" v="588335" />
	</node>
	<node lat="66.00623333364571" lon="12.88518333078846" id="-15674">
		<tag k="name" v="Rundhaugen" />
		<tag k="natural" v="hill" />
		<tag k="place" v="locality" />
		<tag k="ssr:stedsnr" v="589469" />
	</node>
	<node lat="66.00191944076917" lon="12.850286120057861" id="-15675">
		<tag k="name" v="Gløttholshaugen" />
		<tag k="natural" v="hill" />
		<tag k="place" v="locality" />
		<tag k="ssr:stedsnr" v="590489" />
	</node>
	<node lat="66.06626944212393" lon="12.73796387831944" id="-15678">
		<tag k="name" v="Einmoan" />
		<tag k="place" v="locality" />
		<tag k="ssr:stedsnr" v="592070" />
	</node>
	<node lat="66.0608388919053" lon="12.778558341838496" id="-15679">
		<tag k="fixme" v="consider natural=peak for the most distinct mountains in the district" />
		<tag k="name" v="Bjønneråsen" />
		<tag k="natural" v="hill" />
		<tag k="place" v="locality" />
		<tag k="ssr:stedsnr" v="592159" />
	</node>
	<node lat="66.07221389297736" lon="12.78902777055134" id="-15681">
		<tag k="name" v="Høglia" />
		<tag k="natural" v="slope" />
		<tag k="place" v="locality" />
		<tag k="ssr:stedsnr" v="592174" />
	</node>
	<node lat="66.06524722359121" lon="12.69163610789888" id="-15682">
		<tag k="fixme" v="consider natural=saddle" />
		<tag k="name" v="Angarsnesskaret" />
		<tag k="natural" v="valley" />
		<tag k="place" v="locality" />
		<tag k="ssr:stedsnr" v="592133" />
	</node>
	<node lat="66.07756389033796" lon="13.103961114547891" id="-15683">
		<tag k="name" v="Klampen" />
		<tag k="natural" v="hill" />
		<tag k="place" v="locality" />
		<tag k="ssr:stedsnr" v="592152" />
	</node>
	<node lat="66.08631666902724" lon="12.719483326785056" id="-15686">
		<tag k="name" v="Løkje" />
		<tag k="natural" v="hill" />
		<tag k="place" v="locality" />
		<tag k="ssr:stedsnr" v="592454" />
	</node>
	<node lat="66.22435555467887" lon="13.416372215010027" id="-15687">
		<tag k="name" v="Stegan" />
		<tag k="natural" v="slope" />
		<tag k="place" v="locality" />
		<tag k="ssr:stedsnr" v="592894" />
	</node>
	<node lat="66.1416138895993" lon="13.062447216435247" id="-15689">
		<tag k="name" v="Korgpallan" />
		<tag k="place" v="locality" />
		<tag k="ssr:stedsnr" v="592931" />
	</node>
	<node lat="66.10575833707053" lon="13.12926389234286" id="-15690">
		<tag k="name" v="Høystakklia" />
		<tag k="natural" v="slope" />
		<tag k="place" v="locality" />
		<tag k="ssr:stedsnr" v="593337" />
	</node>
	<node lat="66.10838055918018" lon="13.133258324841709" id="-15691">
		<tag k="name" v="Geitbakken" />
		<tag k="natural" v="slope" />
		<tag k="place" v="locality" />
		<tag k="ssr:stedsnr" v="593340" />
	</node>
	<node lat="66.05471944845486" lon="13.02176112167786" id="-15692">
		<tag k="name" v="Kløven" />
		<tag k="natural" v="valley" />
		<tag k="place" v="locality" />
		<tag k="ssr:stedsnr" v="593387" />
	</node>
	<node lat="66.05414167038978" lon="13.012077781358482" id="-15693">
		<tag k="name" v="Joenbakken" />
		<tag k="natural" v="slope" />
		<tag k="place" v="locality" />
		<tag k="ssr:stedsnr" v="593388" />
	</node>
	<node lat="66.0424166663225" lon="13.125213878795044" id="-15695">
		<tag k="name" v="Toven" />
		<tag k="natural" v="valley" />
		<tag k="place" v="locality" />
		<tag k="ssr:stedsnr" v="593421" />
	</node>
	<node lat="66.04191111421332" lon="12.715683334345641" id="-15697">
		<tag k="name" v="Lia" />
		<tag k="natural" v="slope" />
		<tag k="place" v="locality" />
		<tag k="ssr:stedsnr" v="593600" />
	</node>
	<node lat="66.05715555893441" lon="12.822261112475125" id="-15698">
		<tag k="fixme" v="consider natural=saddle" />
		<tag k="name" v="Rammelskaret" />
		<tag k="natural" v="valley" />
		<tag k="place" v="locality" />
		<tag k="ssr:stedsnr" v="593698" />
	</node>
	<node lat="66.14964721777011" lon="13.100302782060753" id="-15703">
		<tag k="name" v="Aksla" />
		<tag k="natural" v="ridge" />
		<tag k="place" v="locality" />
		<tag k="ssr:stedsnr" v="593882" />
	</node>
	<node lat="66.06098055507526" lon="12.904858332303046" id="-15705">
		<tag k="fixme" v="consider natural=peak for the most distinct mountains in the district" />
		<tag k="name" v="Tverråsen" />
		<tag k="natural" v="hill" />
		<tag k="place" v="locality" />
		<tag k="ssr:stedsnr" v="593837" />
	</node>
	<node lat="66.0587500034577" lon="12.885461105620939" id="-15706">
		<tag k="name" v="Ørsåsenden" />
		<tag k="natural" v="ridge" />
		<tag k="place" v="locality" />
		<tag k="ssr:stedsnr" v="593838" />
	</node>
	<node lat="66.12252222627659" lon="12.8500249974991" id="-15707">
		<tag k="name" v="Sandfallan" />
		<tag k="natural" v="slope" />
		<tag k="place" v="locality" />
		<tag k="ssr:stedsnr" v="593925" />
	</node>
	<node lat="66.12521110746339" lon="12.845999993450766" id="-15709">
		<tag k="name" v="Bjønnhola" />
		<tag k="place" v="locality" />
		<tag k="ssr:stedsnr" v="593933" />
	</node>
	<node lat="66.04298888885721" lon="13.064308331572617" id="-15718">
		<tag k="fixme" v="consider natural=peak for the most distinct mountains in the district" />
		<tag k="name" v="Nonstuva" />
		<tag k="natural" v="hill" />
		<tag k="place" v="locality" />
		<tag k="ssr:stedsnr" v="622031" />
	</node>
	<node lat="66.04859999611482" lon="12.966300005256933" id="-15719">
		<tag k="fixme" v="multiple name tags, choose one and add the other to alt_name; consider natural=peak for the most distinct mountains in the district" />
		<tag k="name" v="Forslandsåsen;Ramnåsen" />
		<tag k="natural" v="hill" />
		<tag k="place" v="locality" />
		<tag k="ssr:stedsnr" v="622034" />
	</node>
	<node lat="66.10138889217357" lon="13.199152767624158" id="-15725">
		<tag k="name" v="Forlidalen" />
		<tag k="natural" v="valley" />
		<tag k="place" v="locality" />
		<tag k="ssr:stedsnr" v="622234" />
	</node>
	<node lat="66.0893583305262" lon="13.08238334275402" id="-15726">
		<tag k="fixme" v="consider natural=peak for the most distinct mountains in the district" />
		<tag k="name" v="Leiråsen" />
		<tag k="natural" v="hill" />
		<tag k="place" v="locality" />
		<tag k="ssr:stedsnr" v="622246" />
	</node>
	<node lat="66.0934666647411" lon="13.14668610026352" id="-15728">
		<tag k="fixme" v="consider natural=peak for the most distinct mountains in the district" />
		<tag k="name" v="Durmålspallen" />
		<tag k="natural" v="hill" />
		<tag k="place" v="locality" />
		<tag k="ssr:stedsnr" v="622249" />
	</node>
	<node lat="66.06287499621828" lon="12.7254666719923" id="-15737">
		<tag k="name" v="Reineshaugen" />
		<tag k="natural" v="hill" />
		<tag k="place" v="locality" />
		<tag k="ssr:stedsnr" v="652068" />
	</node>
	<node lat="66.08013333523866" lon="12.847994443307769" id="-15740">
		<tag k="name" v="Forenden" />
		<tag k="natural" v="ridge" />
		<tag k="place" v="locality" />
		<tag k="ssr:stedsnr" v="653263" />
	</node>
	<node lat="66.08955000028155" lon="12.886444451254922" id="-15741">
		<tag k="name" v="Steinbakken" />
		<tag k="natural" v="slope" />
		<tag k="place" v="locality" />
		<tag k="ssr:stedsnr" v="653269" />
	</node>
	<node lat="66.02909444004061" lon="12.949950002061811" id="-15744">
		<tag k="fixme" v="consider natural=peak for the most distinct mountains in the district" />
		<tag k="name" v="Stuvåsen" />
		<tag k="natural" v="hill" />
		<tag k="place" v="locality" />
		<tag k="ssr:stedsnr" v="653471" />
	</node>
	<node lat="66.03167499579934" lon="12.958633336150488" id="-15745">
		<tag k="name" v="Kjærstadgjøten" />
		<tag k="natural" v="valley" />
		<tag k="place" v="locality" />
		<tag k="ssr:stedsnr" v="653473" />
	</node>
	<node lat="66.05299722041308" lon="12.840313893957022" id="-15750">
		<tag k="name" v="Staurvikhaugen" />
		<tag k="natural" v="ridge" />
		<tag k="place" v="locality" />
		<tag k="ssr:stedsnr" v="653774" />
	</node>
	<node lat="66.1473749961485" lon="13.18546667589047" id="-15755">
		<tag k="name" v="Finnburøystet" />
		<tag k="natural" v="slope" />
		<tag k="place" v="locality" />
		<tag k="ssr:stedsnr" v="653933" />
	</node>
	<node lat="66.14613611102378" lon="13.175277785176007" id="-15758">
		<tag k="name" v="Vallerhaug" />
		<tag k="natural" v="hill" />
		<tag k="place" v="locality" />
		<tag k="ssr:stedsnr" v="653935" />
	</node>
	<node lat="66.10969166393154" lon="13.136702767740733" id="-15760">
		<tag k="name" v="Høgligjøta" />
		<tag k="place" v="locality" />
		<tag k="ssr:stedsnr" v="654371" />
	</node>
	<node lat="66.10726666235858" lon="13.132000009876947" id="-15761">
		<tag k="name" v="Ytter-Høglia" />
		<tag k="natural" v="slope" />
		<tag k="place" v="locality" />
		<tag k="ssr:stedsnr" v="654377" />
	</node>
	<node lat="66.11619722211205" lon="13.144136109947869" id="-15763">
		<tag k="name" v="Instmarka" />
		<tag k="natural" v="slope" />
		<tag k="place" v="locality" />
		<tag k="ssr:stedsnr" v="654384" />
	</node>
	<node lat="66.06688889189257" lon="13.076916662200846" id="-15765">
		<tag k="name" v="Rundsvll" />
		<tag k="natural" v="slope" />
		<tag k="place" v="locality" />
		<tag k="ssr:stedsnr" v="654678" />
	</node>
	<node lat="66.05850000240417" lon="13.132591675745644" id="-15766">
		<tag k="name" v="Finnhagen" />
		<tag k="natural" v="valley" />
		<tag k="place" v="locality" />
		<tag k="ssr:stedsnr" v="654680" />
	</node>
	<node lat="66.05712222199386" lon="12.99481389715552" id="-15768">
		<tag k="fixme" v="consider natural=peak for the most distinct mountains in the district" />
		<tag k="name" v="Forslandsåsen" />
		<tag k="natural" v="hill" />
		<tag k="place" v="locality" />
		<tag k="ssr:stedsnr" v="654831" />
	</node>
	<node lat="66.00783888926904" lon="12.902347223582709" id="-15771">
		<tag k="name" v="Jarden" />
		<tag k="natural" v="slope" />
		<tag k="place" v="locality" />
		<tag k="ssr:stedsnr" v="711477" />
	</node>
	<node lat="65.99085832927882" lon="12.840913894624045" id="-15772">
		<tag k="name" v="Stordalen" />
		<tag k="natural" v="valley" />
		<tag k="place" v="locality" />
		<tag k="ssr:stedsnr" v="711479" />
	</node>
	<node lat="66.0844416688672" lon="13.079313889233196" id="-15774">
		<tag k="name" v="Sjålaenget" />
		<tag k="natural" v="slope" />
		<tag k="place" v="locality" />
		<tag k="ssr:stedsnr" v="713217" />
	</node>
	<node lat="66.09055555200257" lon="13.11181388073318" id="-15775">
		<tag k="name" v="Langdalen" />
		<tag k="natural" v="valley" />
		<tag k="place" v="locality" />
		<tag k="ssr:stedsnr" v="713219" />
	</node>
	<node lat="66.0904166640432" lon="13.103858335983752" id="-15776">
		<tag k="name" v="Rabben" />
		<tag k="natural" v="hill" />
		<tag k="place" v="locality" />
		<tag k="ssr:stedsnr" v="713221" />
	</node>
	<node lat="66.04094722454028" lon="12.690530558290794" id="-15779">
		<tag k="name" v="Småhaugan" />
		<tag k="natural" v="hill" />
		<tag k="place" v="locality" />
		<tag k="ssr:stedsnr" v="714628" />
	</node>
	<node lat="66.11584722145534" lon="12.85191388403979" id="-15781">
		<tag k="fixme" v="consider natural=saddle" />
		<tag k="name" v="Breiskaret" />
		<tag k="natural" v="valley" />
		<tag k="place" v="locality" />
		<tag k="ssr:stedsnr" v="714399" />
	</node>
	<node lat="66.11446944791159" lon="12.838594446559876" id="-15782">
		<tag k="name" v="Svahella" />
		<tag k="place" v="locality" />
		<tag k="ssr:stedsnr" v="714402" />
	</node>
	<node lat="66.11066389265983" lon="13.07199723172529" id="-15783">
		<tag k="name" v="Skravelvollen" />
		<tag k="natural" v="slope" />
		<tag k="place" v="locality" />
		<tag k="ssr:stedsnr" v="714417" />
	</node>
	<node lat="66.04595555545357" lon="13.033480560771999" id="-15793">
		<tag k="name" v="Nova" />
		<tag k="natural" v="ridge" />
		<tag k="place" v="locality" />
		<tag k="ssr:stedsnr" v="715441" />
	</node>
	<node lat="66.05943055756376" lon="12.797633330803349" id="-15794">
		<tag k="fixme" v="consider natural=peak for the most distinct mountains in the district" />
		<tag k="name" v="Mølnhusåsen" />
		<tag k="natural" v="hill" />
		<tag k="place" v="locality" />
		<tag k="ssr:stedsnr" v="715770" />
	</node>
	<node lat="66.06748611244981" lon="13.188833329592711" id="-15799">
		<tag k="fixme" v="consider natural=peak for the most distinct mountains in the district" />
		<tag k="name" v="Fjellstuklubben" />
		<tag k="natural" v="hill" />
		<tag k="place" v="locality" />
		<tag k="ssr:stedsnr" v="743060" />
	</node>
	<node lat="66.15297499595289" lon="13.098724988327744" id="-15800">
		<tag k="fixme" v="multiple name tags, choose one and add the other to alt_name" />
		<tag k="name" v="Bakken;Tyttebærbakken" />
		<tag k="natural" v="slope" />
		<tag k="place" v="locality" />
		<tag k="ssr:stedsnr" v="743177" />
	</node>
	<node lat="66.08218611034783" lon="12.854172213767916" id="-15801">
		<tag k="name" v="Granåslia" />
		<tag k="natural" v="slope" />
		<tag k="place" v="locality" />
		<tag k="ssr:stedsnr" v="743251" />
	</node>
	<node lat="66.20531111561318" lon="13.459116664686842" id="-15802">
		<tag k="name" v="Jutlia" />
		<tag k="natural" v="slope" />
		<tag k="place" v="locality" />
		<tag k="ssr:stedsnr" v="743424" />
	</node>
	<node lat="66.11200277929038" lon="13.069511117792077" id="-15809">
		<tag k="fixme" v="multiple name tags, choose one and add the other to alt_name" />
		<tag k="name" v="Morrashaugen;Stormarashaugen" />
		<tag k="natural" v="hill" />
		<tag k="place" v="locality" />
		<tag k="ssr:stedsnr" v="743268" />
	</node>
	<node lat="66.0966249970312" lon="12.878305555621584" id="-15810">
		<tag k="alt_name" v="Forshaugan" />
		<tag k="name" v="Forshøvan" />
		<tag k="natural" v="hill" />
		<tag k="place" v="locality" />
		<tag k="ssr:stedsnr" v="743277" />
	</node>
	<node lat="66.13059166234812" lon="13.172350008117025" id="-15815">
		<tag k="name" v="Fåjahaugen" />
		<tag k="natural" v="hill" />
		<tag k="place" v="locality" />
		<tag k="ssr:stedsnr" v="744117" />
	</node>
	<node lat="66.1457833293233" lon="13.104375002089917" id="-15816">
		<tag k="name" v="Durmålsdalen" />
		<tag k="natural" v="valley" />
		<tag k="place" v="locality" />
		<tag k="ssr:stedsnr" v="744126" />
	</node>
	<node lat="66.1425249969515" lon="12.938880553063019" id="-15817">
		<tag k="name" v="Nålkyta" />
		<tag k="place" v="locality" />
		<tag k="ssr:stedsnr" v="744127" />
	</node>
	<node lat="65.99727499954236" lon="12.808466667285602" id="-15819">
		<tag k="fixme" v="consider natural=saddle" />
		<tag k="name" v="Tverrkløven" />
		<tag k="natural" v="valley" />
		<tag k="place" v="locality" />
		<tag k="ssr:stedsnr" v="772485" />
	</node>
	<node lat="66.00656388648767" lon="12.957900002159144" id="-15821">
		<tag k="name" v="Litltoven" />
		<tag k="place" v="locality" />
		<tag k="ssr:stedsnr" v="773068" />
	</node>
	<node lat="66.01251666887764" lon="12.956383344260402" id="-15823">
		<tag k="name" v="Remma" />
		<tag k="natural" v="ridge" />
		<tag k="place" v="locality" />
		<tag k="ssr:stedsnr" v="773464" />
	</node>
	<node lat="66.01883610841108" lon="12.95466667609529" id="-15824">
		<tag k="name" v="Åskjellhaugen" />
		<tag k="natural" v="hill" />
		<tag k="place" v="locality" />
		<tag k="ssr:stedsnr" v="773473" />
	</node>
	<node lat="66.06621944461713" lon="12.705969437111408" id="-15825">
		<tag k="name" v="Reinesaksla" />
		<tag k="natural" v="ridge" />
		<tag k="place" v="locality" />
		<tag k="ssr:stedsnr" v="774137" />
	</node>
	<node lat="66.06638611046154" lon="12.676594452114964" id="-15826">
		<tag k="name" v="Angarsneshotten" />
		<tag k="natural" v="ridge" />
		<tag k="place" v="locality" />
		<tag k="ssr:stedsnr" v="774144" />
	</node>
	<node lat="66.06759444867886" lon="12.731644441387726" id="-15828">
		<tag k="name" v="Høglia" />
		<tag k="natural" v="slope" />
		<tag k="place" v="locality" />
		<tag k="ssr:stedsnr" v="774082" />
	</node>
	<node lat="66.08837777394625" lon="13.052702787446105" id="-15831">
		<tag k="name" v="Nesåshøgda" />
		<tag k="natural" v="hill" />
		<tag k="place" v="locality" />
		<tag k="ssr:stedsnr" v="774196" />
	</node>
	<node lat="66.07875833122918" lon="12.948866676321824" id="-15833">
		<tag k="name" v="Granåsen" />
		<tag k="natural" v="hill" />
		<tag k="place" v="locality" />
		<tag k="ssr:stedsnr" v="774215" />
	</node>
	<node lat="66.09112500351108" lon="13.083894451057303" id="-15834">
		<tag k="fixme" v="consider natural=saddle" />
		<tag k="name" v="Sauskaret" />
		<tag k="natural" v="valley" />
		<tag k="place" v="locality" />
		<tag k="ssr:stedsnr" v="774225" />
	</node>
	<node lat="66.08108055212524" lon="13.063069439816624" id="-15835">
		<tag k="name" v="Ørnhaugen" />
		<tag k="natural" v="hill" />
		<tag k="place" v="locality" />
		<tag k="ssr:stedsnr" v="774247" />
	</node>
	<node lat="66.08358333708152" lon="12.733636117486794" id="-15837">
		<tag k="name" v="Kjerka" />
		<tag k="natural" v="ridge" />
		<tag k="place" v="locality" />
		<tag k="ssr:stedsnr" v="775294" />
	</node>
	<node lat="66.06365555615204" lon="13.039025010058221" id="-15838">
		<tag k="name" v="Reinkeldalen" />
		<tag k="natural" v="valley" />
		<tag k="place" v="locality" />
		<tag k="ssr:stedsnr" v="775661" />
	</node>
	<node lat="66.05026666458309" lon="12.739680551476306" id="-15840">
		<tag k="fixme" v="consider natural=peak for the most distinct mountains in the district" />
		<tag k="name" v="Røståsen" />
		<tag k="natural" v="hill" />
		<tag k="place" v="locality" />
		<tag k="ssr:stedsnr" v="775635" />
	</node>
	<node lat="66.1107388850592" lon="12.814980545065554" id="-15844">
		<tag k="name" v="Storhaugen" />
		<tag k="natural" v="hill" />
		<tag k="place" v="locality" />
		<tag k="ssr:stedsnr" v="775424" />
	</node>
	<node lat="66.03118333338952" lon="12.906508327107554" id="-15845">
		<tag k="name" v="Forneslandet" />
		<tag k="natural" v="slope" />
		<tag k="place" v="locality" />
		<tag k="ssr:stedsnr" v="775425" />
	</node>
	<node lat="66.13564166306614" lon="13.211477775146069" id="-15852">
		<tag k="fixme" v="consider natural=peak for the most distinct mountains in the district" />
		<tag k="name" v="Øver-Storskogen" />
		<tag k="natural" v="hill" />
		<tag k="place" v="locality" />
		<tag k="ssr:stedsnr" v="775968" />
	</node>
	<node lat="66.12116944502131" lon="13.064966658208313" id="-15854">
		<tag k="fixme" v="consider natural=saddle" />
		<tag k="name" v="Trongskaret" />
		<tag k="natural" v="valley" />
		<tag k="place" v="locality" />
		<tag k="ssr:stedsnr" v="775987" />
	</node>
	<node lat="66.05443055725155" lon="12.999583330456904" id="-15856">
		<tag k="name" v="Rugåsgrøva" />
		<tag k="natural" v="valley" />
		<tag k="place" v="locality" />
		<tag k="ssr:stedsnr" v="775677" />
	</node>
	<node lat="66.04315277657595" lon="12.997586119487464" id="-15857">
		<tag k="fixme" v="consider natural=peak for the most distinct mountains in the district" />
		<tag k="name" v="Hyllåsen" />
		<tag k="natural" v="hill" />
		<tag k="place" v="locality" />
		<tag k="ssr:stedsnr" v="775687" />
	</node>
	<node lat="66.05726389266451" lon="12.82508611041733" id="-15860">
		<tag k="fixme" v="consider natural=saddle" />
		<tag k="name" v="Gangskaret" />
		<tag k="natural" v="valley" />
		<tag k="place" v="locality" />
		<tag k="ssr:stedsnr" v="775754" />
	</node>
	<node lat="66.07502222157453" lon="12.894811120905729" id="-15864">
		<tag k="fixme" v="consider natural=peak for the most distinct mountains in the district" />
		<tag k="name" v="Flatåsen" />
		<tag k="natural" v="hill" />
		<tag k="place" v="locality" />
		<tag k="ssr:stedsnr" v="775854" />
	</node>
	<node lat="66.14338888589401" lon="13.169169438517747" id="-15865">
		<tag k="name" v="Slegda" />
		<tag k="natural" v="slope" />
		<tag k="place" v="locality" />
		<tag k="ssr:stedsnr" v="775938" />
	</node>
	<node lat="66.12013611391114" lon="12.842202786933598" id="-15868">
		<tag k="name" v="Bulia" />
		<tag k="natural" v="slope" />
		<tag k="place" v="locality" />
		<tag k="ssr:stedsnr" v="775950" />
	</node>
	<node lat="66.12096388871493" lon="12.84318610338245" id="-15869">
		<tag k="name" v="Stolphaugen" />
		<tag k="natural" v="hill" />
		<tag k="place" v="locality" />
		<tag k="ssr:stedsnr" v="775952" />
	</node>
	<node lat="66.22301944384334" lon="13.435358322337523" id="-15877">
		<tag k="alt_name" v="Brensla" />
		<tag k="name" v="Brennsla" />
		<tag k="natural" v="hill" />
		<tag k="place" v="locality" />
		<tag k="ssr:stedsnr" v="804128" />
	</node>
	<node lat="65.98109444342865" lon="12.75115555914229" id="-15885">
		<tag k="alt_name" v="Dyrkloven" />
		<tag k="name" v="Dyrkløven" />
		<tag k="natural" v="valley" />
		<tag k="place" v="locality" />
		<tag k="ssr:stedsnr" v="804094" />
	</node>
	<node lat="65.98831666623585" lon="12.957419451745945" id="-15886">
		<tag k="fixme" v="consider natural=peak for the most distinct mountains in the district" />
		<tag k="name" v="Stortoven" />
		<tag k="natural" v="hill" />
		<tag k="place" v="locality" />
		<tag k="ssr:stedsnr" v="804101" />
	</node>
	<node lat="66.18949166263155" lon="13.388286103486148" id="-15889">
		<tag k="name" v="Raudbergan" />
		<tag k="natural" v="hill" />
		<tag k="place" v="locality" />
		<tag k="ssr:stedsnr" v="804443" />
	</node>
	<node lat="66.1533083306399" lon="13.343797224034974" id="-15892">
		<tag k="fixme" v="consider natural=peak for the most distinct mountains in the district" />
		<tag k="name" v="Middagsfjellet" />
		<tag k="natural" v="hill" />
		<tag k="place" v="locality" />
		<tag k="ssr:stedsnr" v="804491" />
	</node>
	<node lat="66.15489444370621" lon="13.369224994061662" id="-15893">
		<tag k="fixme" v="consider natural=peak for the most distinct mountains in the district" />
		<tag k="name" v="Neverlitinden" />
		<tag k="natural" v="hill" />
		<tag k="place" v="locality" />
		<tag k="ssr:stedsnr" v="804492" />
	</node>
	<node lat="65.98826111400017" lon="12.778452786644937" id="-15899">
		<tag k="fixme" v="consider natural=saddle" />
		<tag k="name" v="Kallkløven" />
		<tag k="natural" v="valley" />
		<tag k="place" v="locality" />
		<tag k="ssr:stedsnr" v="834075" />
	</node>
	<node lat="66.08295555804658" lon="13.03274167759402" id="-15900">
		<tag k="name" v="Åsholten" />
		<tag k="natural" v="ridge" />
		<tag k="place" v="locality" />
		<tag k="ssr:stedsnr" v="835244" />
	</node>
	<node lat="66.01432222360438" lon="12.959055554191584" id="-15901">
		<tag k="name" v="Svartberget" />
		<tag k="natural" v="cliff" />
		<tag k="ssr:stedsnr" v="834464" />
	</node>
	<node lat="66.06176666849059" lon="12.752752781984595" id="-15905">
		<tag k="name" v="Bryggeberget" />
		<tag k="natural" v="cliff" />
		<tag k="ssr:stedsnr" v="835167" />
	</node>
	<node lat="66.07576110813228" lon="12.77465278248661" id="-15906">
		<tag k="name" v="Kløven" />
		<tag k="natural" v="slope" />
		<tag k="place" v="locality" />
		<tag k="ssr:stedsnr" v="835177" />
	</node>
	<node lat="66.0874861120218" lon="13.085350007932478" id="-15907">
		<tag k="name" v="Leirlia" />
		<tag k="natural" v="slope" />
		<tag k="place" v="locality" />
		<tag k="ssr:stedsnr" v="835221" />
	</node>
	<node lat="66.08925555463112" lon="12.747052787850079" id="-15908">
		<tag k="name" v="Hestagropsletta" />
		<tag k="place" v="locality" />
		<tag k="ssr:stedsnr" v="836267" />
	</node>
	<node lat="66.090900003658" lon="12.756591678006298" id="-15909">
		<tag k="name" v="Ålirabben" />
		<tag k="natural" v="ridge" />
		<tag k="place" v="locality" />
		<tag k="ssr:stedsnr" v="836275" />
	</node>
	<node lat="66.07961944258423" lon="12.80763611621665" id="-15910">
		<tag k="name" v="Nubblia" />
		<tag k="natural" v="slope" />
		<tag k="place" v="locality" />
		<tag k="ssr:stedsnr" v="836278" />
	</node>
	<node lat="66.03491944631408" lon="13.00901665839446" id="-15913">
		<tag k="name" v="Svahellan" />
		<tag k="natural" v="slope" />
		<tag k="place" v="locality" />
		<tag k="ssr:stedsnr" v="836361" />
	</node>
	<node lat="66.04098888676846" lon="13.020172215317505" id="-15914">
		<tag k="name" v="Rabban" />
		<tag k="natural" v="hill" />
		<tag k="place" v="locality" />
		<tag k="ssr:stedsnr" v="836363" />
	</node>
	<node lat="66.10146944827015" lon="13.111013890313904" id="-15915">
		<tag k="name" v="Varggjota" />
		<tag k="natural" v="valley" />
		<tag k="place" v="locality" />
		<tag k="ssr:stedsnr" v="836367" />
	</node>
	<node lat="66.10028611082994" lon="13.112588887437035" id="-15916">
		<tag k="name" v="Steinlia" />
		<tag k="natural" v="slope" />
		<tag k="place" v="locality" />
		<tag k="ssr:stedsnr" v="836368" />
	</node>
	<node lat="66.10269722389573" lon="13.10923888238149" id="-15917">
		<tag k="name" v="Tømmermolia" />
		<tag k="natural" v="slope" />
		<tag k="place" v="locality" />
		<tag k="ssr:stedsnr" v="836369" />
	</node>
	<node lat="66.0515305577768" lon="12.86880556325187" id="-15920">
		<tag k="name" v="Lian" />
		<tag k="natural" v="slope" />
		<tag k="place" v="locality" />
		<tag k="ssr:stedsnr" v="836719" />
	</node>
	<node lat="66.05155833185104" lon="12.998063892286089" id="-15924">
		<tag k="name" v="Grautbakken" />
		<tag k="natural" v="slope" />
		<tag k="place" v="locality" />
		<tag k="ssr:stedsnr" v="836674" />
	</node>
	<node lat="66.06495278184494" lon="13.03724721285623" id="-15925">
		<tag k="name" v="Kvitholten" />
		<tag k="natural" v="ridge" />
		<tag k="place" v="locality" />
		<tag k="ssr:stedsnr" v="836844" />
	</node>
	<node lat="66.07081666367425" lon="13.044186105540584" id="-15927">
		<tag k="name" v="Gamdalen" />
		<tag k="natural" v="valley" />
		<tag k="place" v="locality" />
		<tag k="ssr:stedsnr" v="836854" />
	</node>
	<node lat="66.06103332975788" lon="12.867833325998319" id="-15928">
		<tag k="fixme" v="consider natural=saddle" />
		<tag k="name" v="Nedfaret" />
		<tag k="natural" v="valley" />
		<tag k="place" v="locality" />
		<tag k="ssr:stedsnr" v="836859" />
	</node>
	<node lat="66.20804444658424" lon="13.414380566859787" id="-15931">
		<tag k="name" v="Durmålstuva" />
		<tag k="natural" v="hill" />
		<tag k="place" v="locality" />
		<tag k="ssr:stedsnr" v="836870" />
	</node>
	<node lat="66.07004444369265" lon="12.882991675854624" id="-15932">
		<tag k="fixme" v="consider natural=peak for the most distinct mountains in the district" />
		<tag k="name" v="Ørntuva" />
		<tag k="natural" v="hill" />
		<tag k="place" v="locality" />
		<tag k="ssr:stedsnr" v="836871" />
	</node>
	<node lat="66.06582777550483" lon="13.074580546121306" id="-15940">
		<tag k="fixme" v="consider natural=peak for the most distinct mountains in the district" />
		<tag k="name" v="Åstuva" />
		<tag k="natural" v="hill" />
		<tag k="place" v="locality" />
		<tag k="ssr:stedsnr" v="865057" />
	</node>
	<node lat="66.17355000106865" lon="13.235758343499565" id="-15952">
		<tag k="name" v="Austvikdalen" />
		<tag k="natural" v="valley" />
		<tag k="place" v="locality" />
		<tag k="ssr:stedsnr" v="865425" />
	</node>
	<node lat="66.05928888896693" lon="12.92042223167272" id="-15957">
		<tag k="fixme" v="consider natural=peak for the most distinct mountains in the district" />
		<tag k="name" v="Storåsen" />
		<tag k="natural" v="hill" />
		<tag k="place" v="locality" />
		<tag k="ssr:stedsnr" v="925063" />
	</node>
	<node lat="66.01624444392054" lon="12.949338882398937" id="-15958">
		<tag k="name" v="Ladingsåsen" />
		<tag k="natural" v="hill" />
		<tag k="place" v="locality" />
		<tag k="ssr:stedsnr" v="925142" />
	</node>
	<node lat="66.20581666605565" lon="13.484247219636167" id="-15960">
		<tag k="fixme" v="consider natural=peak for the most distinct mountains in the district" />
		<tag k="name" v="Masterviktinden" />
		<tag k="natural" v="hill" />
		<tag k="place" v="locality" />
		<tag k="ssr:stedsnr" v="926392" />
	</node>
	<node lat="66.1920499967752" lon="13.287813883103412" id="-15961">
		<tag k="fixme" v="consider natural=peak for the most distinct mountains in the district" />
		<tag k="name" v="Høyskjåheia" />
		<tag k="natural" v="hill" />
		<tag k="place" v="locality" />
		<tag k="ssr:stedsnr" v="926395" />
	</node>
	<node lat="66.16010277888056" lon="13.181261109059136" id="-15963">
		<tag k="fixme" v="consider natural=peak for the most distinct mountains in the district" />
		<tag k="name" v="Neppelen" />
		<tag k="natural" v="hill" />
		<tag k="place" v="locality" />
		<tag k="ssr:stedsnr" v="926197" />
	</node>
	<node lat="66.07124166317752" lon="12.748030565625214" id="-15967">
		<tag k="fixme" v="consider natural=peak for the most distinct mountains in the district" />
		<tag k="name" v="Svartåsen" />
		<tag k="natural" v="hill" />
		<tag k="place" v="locality" />
		<tag k="ssr:stedsnr" v="926224" />
	</node>
	<node lat="65.98742221917273" lon="12.855141673048879" id="-15977">
		<tag k="name" v="Storhaugen" />
		<tag k="natural" v="hill" />
		<tag k="place" v="locality" />
		<tag k="ssr:stedsnr" v="941798" />
	</node>
	<node lat="66.19601110822859" lon="13.436874995425335" id="-15978">
		<tag k="name" v="Myrbekkdalen" />
		<tag k="natural" v="valley" />
		<tag k="place" v="locality" />
		<tag k="ssr:stedsnr" v="952361" />
	</node>
	<node lat="66.01559444600711" lon="12.958336118829106" id="-15980">
		<tag k="name" v="Dalsneppen" />
		<tag k="natural" v="ridge" />
		<tag k="place" v="locality" />
		<tag k="ssr:stedsnr" v="955481" />
	</node>
	<node lat="66.02360000337372" lon="12.956819437978815" id="-15981">
		<tag k="name" v="Fagerbakken" />
		<tag k="natural" v="hill" />
		<tag k="place" v="locality" />
		<tag k="ssr:stedsnr" v="955486" />
	</node>
	<node lat="66.072488891428" lon="12.784494442471189" id="-15983">
		<tag k="name" v="Geitlia" />
		<tag k="natural" v="slope" />
		<tag k="place" v="locality" />
		<tag k="ssr:stedsnr" v="956177" />
	</node>
	<node lat="66.07406110726733" lon="12.769977782134548" id="-15984">
		<tag k="name" v="Reinhagen" />
		<tag k="place" v="locality" />
		<tag k="ssr:stedsnr" v="956186" />
	</node>
	<node lat="66.07762499570666" lon="13.062208343259579" id="-15986">
		<tag k="name" v="Storbakken" />
		<tag k="natural" v="slope" />
		<tag k="place" v="locality" />
		<tag k="ssr:stedsnr" v="956258" />
	</node>
	<node lat="66.11826388651531" lon="12.832783329663167" id="-15991">
		<tag k="name" v="Vardsletthaugen" />
		<tag k="natural" v="hill" />
		<tag k="place" v="locality" />
		<tag k="ssr:stedsnr" v="957458" />
	</node>
	<node lat="66.03316389325526" lon="12.952530555197686" id="-15992">
		<tag k="fixme" v="consider natural=peak for the most distinct mountains in the district" />
		<tag k="name" v="Steinåsen" />
		<tag k="natural" v="hill" />
		<tag k="place" v="locality" />
		<tag k="ssr:stedsnr" v="957471" />
	</node>
	<node lat="66.01596666976243" lon="12.894222225888281" id="-15993">
		<tag k="name" v="Sundbakken" />
		<tag k="natural" v="slope" />
		<tag k="place" v="locality" />
		<tag k="ssr:stedsnr" v="957483" />
	</node>
	<node lat="66.0451111091344" lon="12.715286105473213" id="-15994">
		<tag k="fixme" v="consider natural=peak for the most distinct mountains in the district" />
		<tag k="name" v="Vardåsen" />
		<tag k="natural" v="hill" />
		<tag k="place" v="locality" />
		<tag k="ssr:stedsnr" v="957651" />
	</node>
	<node lat="66.0389722255681" lon="12.674161113537698" id="-15997">
		<tag k="fixme" v="consider natural=peak for the most distinct mountains in the district" />
		<tag k="name" v="Jøsåsen" />
		<tag k="natural" v="hill" />
		<tag k="place" v="locality" />
		<tag k="ssr:stedsnr" v="957665" />
	</node>
	<node lat="66.04437500165515" lon="12.970569453971587" id="-15999">
		<tag k="name" v="Marsletta" />
		<tag k="place" v="locality" />
		<tag k="ssr:stedsnr" v="957697" />
	</node>
	<node lat="66.22649999958317" lon="13.448277773961284" id="-16001">
		<tag k="name" v="Landlia" />
		<tag k="natural" v="slope" />
		<tag k="place" v="locality" />
		<tag k="ssr:stedsnr" v="957853" />
	</node>
	<node lat="66.05646666438872" lon="12.983363881498315" id="-16007">
		<tag k="name" v="Langdalen" />
		<tag k="natural" v="valley" />
		<tag k="place" v="locality" />
		<tag k="ssr:stedsnr" v="957829" />
	</node>
	<node lat="66.13876944732345" lon="13.202530558298136" id="-16009">
		<tag k="name" v="Rundfjelldalen" />
		<tag k="natural" v="valley" />
		<tag k="place" v="locality" />
		<tag k="ssr:stedsnr" v="957973" />
	</node>
	<node lat="66.12472499992461" lon="12.826333342130855" id="-16011">
		<tag k="name" v="Stivikhaugen" />
		<tag k="natural" v="hill" />
		<tag k="place" v="locality" />
		<tag k="ssr:stedsnr" v="957923" />
	</node>
	<node lat="66.14875277557009" lon="13.093572229234404" id="-16012">
		<tag k="name" v="Akselhågan" />
		<tag k="natural" v="ridge" />
		<tag k="place" v="locality" />
		<tag k="ssr:stedsnr" v="957927" />
	</node>
</osm>
