<?xml version="1.0" encoding="UTF-8"?>
<<<<<<< HEAD
<osm version="0.6" generator="osmapis">
	<node lat="66.03805277541036" lon="12.69123055587174" id="-10440">
		<tag k="name" v="Klevatnet" />
		<tag k="natural" v="water" />
		<tag k="ssr:stedsnr" v="229656" />
	</node>
	<node lat="66.12534444722006" lon="13.12691111731127" id="-10454">
		<tag k="name" v="Segelforsbekkjen" />
		<tag k="ssr:stedsnr" v="229974" />
		<tag k="waterway" v="stream" />
	</node>
	<node lat="66.04587222220394" lon="13.137225005431262" id="-10457">
		<tag k="fixme" v="multiple name tags, choose one and add the other to alt_name" />
		<tag k="name" v="Dalsvatnan;Simavatnan" />
		<tag k="natural" v="water" />
		<tag k="ssr:stedsnr" v="15021" />
	</node>
	<node lat="66.09510277954807" lon="12.944213884668596" id="-10462">
		<tag k="name" v="Tomåsvatnet" />
		<tag k="natural" v="water" />
		<tag k="ssr:stedsnr" v="15261" />
	</node>
	<node lat="66.13288055189173" lon="13.312033328368633" id="-10463">
		<tag k="loc_name" v="Helltjønnen" />
		<tag k="name" v="Helltjønna" />
		<tag k="natural" v="water" />
		<tag k="ssr:stedsnr" v="15510" />
	</node>
	<node lat="66.12881944430333" lon="12.962724996464363" id="-10466">
		<tag k="name" v="Mangvatnan" />
		<tag k="natural" v="water" />
		<tag k="ssr:stedsnr" v="16120" />
	</node>
	<node lat="66.11533333571626" lon="13.127838894612987" id="-10496">
		<tag k="name" v="Rørtjønna" />
		<tag k="natural" v="water" />
		<tag k="ssr:stedsnr" v="76156" />
	</node>
	<node lat="66.07281389356105" lon="12.698722213910285" id="-10500">
		<tag k="name" v="Jenselva" />
		<tag k="ssr:stedsnr" v="76950" />
		<tag k="waterway" v="stream" />
	</node>
	<node lat="66.11957222079982" lon="13.13386111498152" id="-10522">
		<tag k="name" v="Sagforsen" />
		<tag k="natural" v="waterfall" />
		<tag k="ssr:stedsnr" v="108381" />
	</node>
	<node lat="66.11165555323797" lon="12.836933334137731" id="-10543">
		<tag k="name" v="Nedre Vikavatnet" />
		<tag k="natural" v="water" />
		<tag k="ssr:stedsnr" v="258147" />
	</node>
	<node lat="66.12400277766669" lon="13.173463899584622" id="-10544">
		<tag k="name" v="Manglåvatnan" />
		<tag k="natural" v="water" />
		<tag k="ssr:stedsnr" v="258150" />
		<tag k="water" v="lake" />
	</node>
	<node lat="66.14848333736491" lon="13.017897233721312" id="-10548">
		<tag k="name" v="Velsvågelva" />
		<tag k="ssr:stedsnr" v="258173" />
		<tag k="waterway" v="stream" />
	</node>
	<node lat="66.1784666686127" lon="13.186508330645552" id="-10553">
		<tag k="name" v="Neppelbergelva" />
		<tag k="ssr:stedsnr" v="258189" />
		<tag k="waterway" v="stream" />
	</node>
	<node lat="66.088383336066" lon="12.976277779247795" id="-10555">
		<tag k="name" v="Svartvatnet" />
		<tag k="natural" v="water" />
		<tag k="ssr:stedsnr" v="258230" />
	</node>
	<node lat="66.09117222131859" lon="13.007327777356585" id="-10557">
		<tag k="name" v="Langvatnet" />
		<tag k="natural" v="water" />
		<tag k="ssr:stedsnr" v="258234" />
	</node>
	<node lat="66.11979722577867" lon="13.240986117703168" id="-10559">
		<tag k="name" v="Vassenden" />
		<tag k="natural" v="bay" />
		<tag k="ssr:stedsnr" v="258442" />
	</node>
	<node lat="66.16134444620019" lon="13.128447214523867" id="-10585">
		<tag k="name" v="Klubbelva" />
		<tag k="ssr:stedsnr" v="197206" />
		<tag k="waterway" v="stream" />
	</node>
	<node lat="66.18051389205334" lon="13.24794721874145" id="-10588">
		<tag k="name" v="Svartåga" />
		<tag k="ssr:stedsnr" v="197470" />
		<tag k="waterway" v="stream" />
	</node>
	<node lat="66.13583055989054" lon="13.065472216044531" id="-10592">
		<tag k="name" v="Sørdalselva" />
		<tag k="ssr:stedsnr" v="198121" />
		<tag k="waterway" v="stream" />
	</node>
	<node lat="66.07330555201756" lon="12.905641671986553" id="-10593">
		<tag k="fixme" v="multiple name tags, choose one and add the other to alt_name" />
		<tag k="name" v="Løkåselva;Litlelva" />
		<tag k="ssr:stedsnr" v="198176" />
		<tag k="waterway" v="river" />
	</node>
	<node lat="66.08270277661875" lon="12.919016661380772" id="-10601">
		<tag k="name" v="Litlelva" />
		<tag k="ssr:stedsnr" v="228311" />
		<tag k="waterway" v="stream" />
	</node>
	<node lat="66.10542778099118" lon="13.080655554456195" id="-10613">
		<tag k="name" v="Laremmbekkjen" />
		<tag k="ssr:stedsnr" v="229383" />
		<tag k="waterway" v="stream" />
	</node>
	<node lat="66.05197222120866" lon="12.981419451279221" id="-10619">
		<tag k="name" v="Lomtjønna" />
		<tag k="natural" v="water" />
		<tag k="ssr:stedsnr" v="229697" />
	</node>
	<node lat="65.96797500181091" lon="12.754100010560858" id="-10629">
		<tag k="name" v="Blåskjæret" />
		<tag k="place" v="islet" />
		<tag k="ssr:stedsnr" v="258126" />
	</node>
	<node lat="66.16019444128061" lon="13.32619722107346" id="-10642">
		<tag k="name" v="Nonsvatnet" />
		<tag k="natural" v="water" />
		<tag k="ssr:stedsnr" v="258466" />
		<tag k="water" v="lake" />
	</node>
	<node lat="66.08277777612497" lon="13.095694435020617" id="-10647">
		<tag k="name" v="Vatnforsen" />
		<tag k="natural" v="waterfall" />
		<tag k="ssr:stedsnr" v="289129" />
	</node>
	<node lat="66.05283333217523" lon="12.87318056611861" id="-10669">
		<tag k="name" v="Ytterforlibekken" />
		<tag k="ssr:stedsnr" v="290675" />
		<tag k="waterway" v="stream" />
	</node>
	<node lat="66.07157222207324" lon="13.045991660401238" id="-10672">
		<tag k="name" v="Åselva" />
		<tag k="ssr:stedsnr" v="290825" />
		<tag k="waterway" v="river" />
	</node>
	<node lat="66.09403055663141" lon="13.129350010446792" id="-10673">
=======
<osm generator="osmapis" version="0.6">
	<node id="-134144" lat="66.0887222183" lon="13.0661833433">
		<tag k="name" v="Kjerringdalsbekkjen" />
		<tag k="ssr:stedsnr" v="167197" />
		<tag k="waterway" v="stream" />
	</node>
	<node id="-133632" lat="65.9764916657" lon="12.7311277783">
		<tag k="name" v="Ytterivatnet" />
		<tag k="natural" v="water" />
		<tag k="ssr:stedsnr" v="561078" />
	</node>
	<node id="-134654" lat="66.0089749974" lon="13.0664333403">
		<tag k="name" v="Stornylandsvatnan" />
		<tag k="natural" v="water" />
		<tag k="ssr:stedsnr" v="804140" />
	</node>
	<node id="-133627" lat="66.0186500029" lon="12.9900138804">
		<tag k="name" v="Dagsvikelva" />
		<tag k="ssr:stedsnr" v="561006" />
		<tag k="waterway" v="stream" />
	</node>
	<node id="-133626" lat="66.1795527797" lon="13.3973861221">
		<tag k="name" v="Svanvatnet" />
		<tag k="natural" v="water" />
		<tag k="ssr:stedsnr" v="560372" />
	</node>
	<node id="-134137" lat="66.1091833309" lon="13.3008888827">
		<tag k="name" v="Forlivatnan" />
		<tag k="natural" v="water" />
		<tag k="ssr:stedsnr" v="137442" />
	</node>
	<node id="-134646" lat="66.058555559" lon="13.0755500033">
		<tag k="name" v="Grindneset" />
		<tag k="natural" v="cape" />
		<tag k="ssr:stedsnr" v="804062" />
	</node>
	<node id="-134644" lat="66.058130559" lon="13.080299994">
		<tag k="name" v="Dalvatnet" />
		<tag k="natural" v="water" />
		<tag k="ssr:stedsnr" v="804048" />
		<tag k="water" v="lake" />
	</node>
	<node id="-134131" lat="66.1410111158" lon="13.3159944382">
		<tag k="name" v="Hansfinnvatnet" />
		<tag k="natural" v="water" />
		<tag k="ssr:stedsnr" v="136494" />
		<tag k="water" v="lake" />
	</node>
	<node id="-134130" lat="66.0992555541" lon="13.1216749951">
		<tag k="name" v="Litlvatnet" />
		<tag k="natural" v="water" />
		<tag k="ssr:stedsnr" v="136287" />
	</node>
	<node id="-133610" lat="65.9703416653" lon="12.6816750006">
		<tag k="name" v="Storvikelva" />
		<tag k="ssr:stedsnr" v="683274" />
		<tag k="waterway" v="stream" />
	</node>
	<node id="-133606" lat="66.1368222205" lon="12.9378861117">
		<tag k="name" v="Nålkytvatnet" />
		<tag k="natural" v="water" />
		<tag k="ssr:stedsnr" v="683132" />
	</node>
	<node id="-133201" lat="66.0023250006" lon="12.7860805461">
		<tag k="name" v="Klubbvatnet" />
		<tag k="natural" v="water" />
		<tag k="ssr:stedsnr" v="15128" />
	</node>
	<node id="-134628" lat="66.1212694405" lon="12.8473222128">
		<tag k="name" v="Stollmyrbekkjen" />
		<tag k="ssr:stedsnr" v="775942" />
		<tag k="waterway" v="stream" />
	</node>
	<node id="-133601" lat="66.0571916637" lon="13.046491676">
		<tag k="name" v="Langforstjønna" />
		<tag k="natural" v="water" />
		<tag k="ssr:stedsnr" v="683024" />
	</node>
	<node id="-133600" lat="66.0458805518" lon="13.0170888819">
		<tag k="fixme" v="multiple name tags, choose one and add the other to alt_name" />
		<tag k="name" v="Nylandselva;Valbergelva" />
		<tag k="ssr:stedsnr" v="683020" />
		<tag k="waterway" v="river" />
	</node>
	<node id="-134616" lat="66.1142833336" lon="13.050074996">
		<tag k="name" v="Lussidalselva" />
		<tag k="ssr:stedsnr" v="775446" />
		<tag k="waterway" v="river" />
	</node>
	<node id="-133591" lat="66.0135750044" lon="12.9564833266">
		<tag k="name" v="Landselva" />
		<tag k="ssr:stedsnr" v="500138" />
		<tag k="waterway" v="stream" />
	</node>
	<node id="-134102" lat="66.0468944411" lon="12.7488361107">
		<tag k="name" v="Mølnhusbekkjen" />
		<tag k="ssr:stedsnr" v="108632" />
		<tag k="waterway" v="stream" />
	</node>
	<node id="-133539" lat="66.0708611106" lon="12.7292861191">
		<tag k="name" v="Svartvatnet" />
		<tag k="natural" v="water" />
		<tag k="ssr:stedsnr" v="349205" />
	</node>
	<node id="-134093" lat="66.1195722208" lon="13.133861115">
		<tag k="name" v="Sagforsen" />
		<tag k="natural" v="waterfall" />
		<tag k="ssr:stedsnr" v="108381" />
	</node>
	<node id="-134603" lat="66.0808972182" lon="13.0364694431">
		<tag k="name" v="Langbekkjen" />
		<tag k="ssr:stedsnr" v="774251" />
		<tag k="waterway" v="stream" />
	</node>
	<node id="-133367" lat="66.1179000021" lon="13.2724722332">
		<tag k="name" v="Forlielva" />
		<tag k="ssr:stedsnr" v="440006" />
		<tag k="waterway" v="stream" />
	</node>
	<node id="-133573" lat="66.1243194478" lon="12.851216674">
		<tag k="name" v="Kvannbakkelva" />
		<tag k="ssr:stedsnr" v="501150" />
		<tag k="waterway" v="stream" />
	</node>
	<node id="-133569" lat="65.9976555516" lon="12.9380750034">
		<tag k="name" v="Finnvika" />
		<tag k="natural" v="bay" />
		<tag k="ssr:stedsnr" v="501099" />
	</node>
	<node id="-133563" lat="66.1735888864" lon="13.2388527741">
		<tag k="name" v="Forselva" />
		<tag k="ssr:stedsnr" v="500439" />
		<tag k="waterway" v="river" />
	</node>
	<node id="-134586" lat="66.1811638892" lon="13.2334305547">
		<tag k="fixme" v="multiple name tags, choose one and add the other to alt_name" />
		<tag k="name" v="Austvikelva;Storelva" />
		<tag k="ssr:stedsnr" v="744402" />
		<tag k="waterway" v="river" />
	</node>
	<node id="-134581" lat="66.0482833328" lon="12.6858138797">
		<tag k="name" v="Øyvatnet" />
		<tag k="natural" v="water" />
		<tag k="ssr:stedsnr" v="743996" />
	</node>
	<node id="-133556" lat="66.1184583337" lon="13.1577611024">
		<tag k="name" v="Innmarkstjønna" />
		<tag k="natural" v="water" />
		<tag k="ssr:stedsnr" v="500157" />
	</node>
	<node id="-134579" lat="66.1081972264" lon="12.8313416648">
		<tag k="name" v="Øvre Vikavatnet" />
		<tag k="natural" v="water" />
		<tag k="ssr:stedsnr" v="743145" />
	</node>
	<node id="-134571" lat="66.0716833299" lon="12.7472444367">
		<tag k="name" v="Remelva" />
		<tag k="ssr:stedsnr" v="743228" />
		<tag k="waterway" v="stream" />
	</node>
	<node id="-134058" lat="66.0728138936" lon="12.6987222139">
		<tag k="name" v="Jenselva" />
		<tag k="ssr:stedsnr" v="76950" />
		<tag k="waterway" v="stream" />
	</node>
	<node id="-134053" lat="66.0871027779" lon="12.79494999">
		<tag k="name" v="Langvatnan" />
		<tag k="natural" v="water" />
		<tag k="ssr:stedsnr" v="76236" />
	</node>
	<node id="-134051" lat="66.0824472184" lon="13.1075166735">
		<tag k="alt_name" v="Fjellbekken" />
		<tag k="name" v="Fjellbekkjen" />
		<tag k="ssr:stedsnr" v="76234" />
		<tag k="waterway" v="stream" />
	</node>
	<node id="-134050" lat="66.0840138856" lon="13.084508336">
		<tag k="name" v="Leirelva" />
		<tag k="ssr:stedsnr" v="76233" />
		<tag k="waterway" v="river" />
	</node>
	<node id="-134561" lat="66.1188111154" lon="13.108613883">
		<tag k="name" v="Nylabekkjen" />
		<tag k="ssr:stedsnr" v="654381" />
		<tag k="waterway" v="stream" />
	</node>
	<node id="-134558" lat="66.1176805526" lon="13.0959194487">
		<tag k="name" v="Stokkabekkjen" />
		<tag k="ssr:stedsnr" v="654479" />
		<tag k="waterway" v="stream" />
	</node>
	<node id="-133532" lat="66.0940305566" lon="13.1293500104">
>>>>>>> e1d4bc35ff8a6074a6f2e91616a996b547c36f15
		<tag k="name" v="Storvatnet" />
		<tag k="natural" v="water" />
		<tag k="ssr:stedsnr" v="318207" />
		<tag k="water" v="lake" />
	</node>
<<<<<<< HEAD
	<node lat="66.08822777422641" lon="12.736749989106201" id="-10676">
		<tag k="name" v="Sørlielva" />
		<tag k="ssr:stedsnr" v="318232" />
		<tag k="waterway" v="stream" />
	</node>
	<node lat="66.09894999581688" lon="12.833280565095293" id="-10677">
		<tag k="name" v="Vesterdalsvatnet" />
		<tag k="natural" v="water" />
		<tag k="ssr:stedsnr" v="318233" />
	</node>
	<node lat="66.11363889207503" lon="13.136152771905333" id="-10678">
		<tag k="name" v="Dyrtjønna" />
		<tag k="natural" v="water" />
		<tag k="ssr:stedsnr" v="318234" />
	</node>
	<node lat="66.07981484161353" lon="12.892455895764686" id="-10682">
		<tag k="alt_name" v="Nordelva;Storelva" />
		<tag k="name" v="Bøelva" />
		<tag k="ssr:stedsnr" v="319204" />
		<tag k="waterway" v="river" />
	</node>
	<node lat="66.08075555682458" lon="13.081100000537722" id="-10693">
		<tag k="name" v="Nilslaneset" />
		<tag k="natural" v="cape" />
		<tag k="ssr:stedsnr" v="471141" />
	</node>
	<node lat="66.06229999715984" lon="12.756827773754678" id="-10695">
		<tag k="name" v="Langbekkjen" />
		<tag k="ssr:stedsnr" v="471150" />
		<tag k="waterway" v="stream" />
	</node>
	<node lat="66.08653610845379" lon="13.09558889731706" id="-10697">
		<tag k="name" v="Solvollbekkjen" />
		<tag k="ssr:stedsnr" v="471220" />
		<tag k="waterway" v="stream" />
	</node>
	<node lat="66.09313610728944" lon="13.10603333833809" id="-10700">
		<tag k="name" v="Langdalsbekkjen" />
		<tag k="ssr:stedsnr" v="471226" />
		<tag k="waterway" v="stream" />
	</node>
	<node lat="66.08132499713798" lon="12.873494442010113" id="-10702">
		<tag k="name" v="Almåsbekkjen" />
		<tag k="ssr:stedsnr" v="471291" />
		<tag k="waterway" v="stream" />
	</node>
	<node lat="66.11491944792994" lon="13.086330550118143" id="-10715">
=======
	<node id="-133274" lat="66.1197972258" lon="13.2409861177">
		<tag k="name" v="Vassenden" />
		<tag k="natural" v="bay" />
		<tag k="ssr:stedsnr" v="258442" />
	</node>
	<node id="-133530" lat="66.0709555512" lon="13.0481138948">
		<tag k="name" v="Syforsen" />
		<tag k="natural" v="waterfall" />
		<tag k="ssr:stedsnr" v="472832" />
	</node>
	<node id="-133778" lat="66.1051694421" lon="12.7815861145">
		<tag k="name" v="Litl-Fagervikelva" />
		<tag k="ssr:stedsnr" v="897413" />
		<tag k="waterway" v="stream" />
	</node>
	<node id="-134325" lat="66.0926444467" lon="12.7440722167">
		<tag k="name" v="Merkjebekkjen" />
		<tag k="ssr:stedsnr" v="411296" />
		<tag k="waterway" v="stream" />
	</node>
	<node id="-134037" lat="66.1160749964" lon="12.8776027684">
		<tag k="name" v="Nubbvatnet" />
		<tag k="natural" v="water" />
		<tag k="ssr:stedsnr" v="76163" />
	</node>
	<node id="-134036" lat="66.1153333357" lon="13.1278388946">
		<tag k="name" v="Rørtjønna" />
		<tag k="natural" v="water" />
		<tag k="ssr:stedsnr" v="76156" />
	</node>
	<node id="-133521" lat="66.1149194479" lon="13.0863305501">
>>>>>>> e1d4bc35ff8a6074a6f2e91616a996b547c36f15
		<tag k="name" v="Skartjønna" />
		<tag k="natural" v="water" />
		<tag k="ssr:stedsnr" v="472455" />
	</node>
<<<<<<< HEAD
	<node lat="66.07095555122079" lon="13.04811389479866" id="-10723">
		<tag k="name" v="Syforsen" />
		<tag k="natural" v="waterfall" />
		<tag k="ssr:stedsnr" v="472832" />
	</node>
	<node lat="66.07086111061696" lon="12.729286119122055" id="-10726">
		<tag k="name" v="Svartvatnet" />
		<tag k="natural" v="water" />
		<tag k="ssr:stedsnr" v="349205" />
	</node>
	<node lat="66.14695665997235" lon="13.023501044696836" id="-10748">
		<tag k="name" v="Velsvågforsen" />
		<tag k="natural" v="waterfall" />
		<tag k="ssr:stedsnr" v="379175" />
	</node>
	<node lat="66.07833055460497" lon="12.988483330609938" id="-10749">
		<tag k="name" v="Oksvatnet" />
=======
	<node id="-134537" lat="66.0395361147" lon="12.6890138925">
		<tag k="name" v="Oddvalen" />
		<tag k="natural" v="water" />
		<tag k="ssr:stedsnr" v="622874" />
	</node>
	<node id="-134024" lat="66.0256833367" lon="13.0662499941">
		<tag k="name" v="Nylandsvatnan" />
		<tag k="natural" v="water" />
		<tag k="ssr:stedsnr" v="76012" />
	</node>
	<node id="-134023" lat="66.1217527741" lon="13.2813277706">
		<tag k="name" v="Sørelva" />
		<tag k="ssr:stedsnr" v="76009" />
		<tag k="waterway" v="stream" />
	</node>
	<node id="-134022" lat="66.0112333355" lon="12.8139388987">
		<tag k="name" v="Storvatnet" />
>>>>>>> e1d4bc35ff8a6074a6f2e91616a996b547c36f15
		<tag k="natural" v="water" />
		<tag k="ssr:stedsnr" v="76006" />
	</node>
<<<<<<< HEAD
	<node lat="66.10467222224185" lon="12.97051944378732" id="-10753">
		<tag k="name" v="Bålskardlivatnan" />
		<tag k="natural" v="water" />
		<tag k="ssr:stedsnr" v="379238" />
	</node>
	<node lat="66.08737221998123" lon="13.110944450814918" id="-10760">
		<tag k="name" v="Olderneset" />
		<tag k="natural" v="cape" />
		<tag k="ssr:stedsnr" v="410219" />
	</node>
	<node lat="66.09264444666667" lon="12.74407221666367" id="-10765">
		<tag k="name" v="Merkjebekkjen" />
		<tag k="ssr:stedsnr" v="411296" />
		<tag k="waterway" v="stream" />
	</node>
	<node lat="66.1179000020666" lon="13.27247223317453" id="-10784">
		<tag k="name" v="Forlielva" />
		<tag k="ssr:stedsnr" v="440006" />
		<tag k="waterway" v="stream" />
	</node>
	<node lat="66.0247333336801" lon="13.022733336670077" id="-10785">
		<tag k="name" v="Dagsvatnet" />
		<tag k="natural" v="water" />
		<tag k="ssr:stedsnr" v="440013" />
	</node>
	<node lat="65.98509166344762" lon="12.902566664669129" id="-10792">
		<tag k="name" v="Geitskora" />
		<tag k="natural" v="bay" />
		<tag k="ssr:stedsnr" v="440102" />
	</node>
	<node lat="66.15194999657689" lon="13.19266111228933" id="-10799">
		<tag k="alt_name" v="Meldalsbekken" />
		<tag k="name" v="Meldalsbekkjen" />
		<tag k="ssr:stedsnr" v="440204" />
		<tag k="waterway" v="stream" />
	</node>
	<node lat="66.1072527818217" lon="12.822136110604225" id="-10815">
		<tag k="name" v="Litl-Vikavatnet" />
		<tag k="natural" v="water" />
		<tag k="ssr:stedsnr" v="471478" />
	</node>
	<node lat="66.1060388878138" lon="13.065102783242843" id="-10817">
		<tag k="name" v="Sylvesterbekkjen" />
		<tag k="ssr:stedsnr" v="471506" />
		<tag k="waterway" v="stream" />
	</node>
	<node lat="66.13071388601202" lon="13.067341677135216" id="-10821">
		<tag k="name" v="Nilsbekkjen" />
		<tag k="ssr:stedsnr" v="471962" />
		<tag k="waterway" v="stream" />
	</node>
	<node lat="66.01357500435877" lon="12.956483326618198" id="-10831">
		<tag k="name" v="Landselva" />
		<tag k="ssr:stedsnr" v="500138" />
		<tag k="waterway" v="stream" />
	</node>
	<node lat="66.1807999975244" lon="13.418283332524398" id="-10832">
		<tag k="name" v="Storteinvatnet" />
		<tag k="natural" v="water" />
		<tag k="ssr:stedsnr" v="500437" />
	</node>
	<node lat="66.17358888637315" lon="13.238852774131576" id="-10833">
		<tag k="name" v="Forselva" />
		<tag k="ssr:stedsnr" v="500439" />
		<tag k="waterway" v="river" />
	</node>
	<node lat="66.13682222045342" lon="12.937886111728739" id="-10855">
		<tag k="name" v="Nålkytvatnet" />
		<tag k="natural" v="water" />
		<tag k="ssr:stedsnr" v="683132" />
	</node>
	<node lat="66.04588055183677" lon="13.017088881857127" id="-10859">
		<tag k="fixme" v="multiple name tags, choose one and add the other to alt_name" />
		<tag k="name" v="Nylandselva;Valbergelva" />
		<tag k="ssr:stedsnr" v="683020" />
		<tag k="waterway" v="river" />
	</node>
	<node lat="66.05719166374243" lon="13.04649167602168" id="-10860">
		<tag k="name" v="Langforstjønna" />
		<tag k="natural" v="water" />
		<tag k="ssr:stedsnr" v="683024" />
	</node>
	<node lat="66.10170555690996" lon="13.126536105819728" id="-10872">
		<tag k="name" v="Nesan" />
		<tag k="natural" v="cape" />
		<tag k="ssr:stedsnr" v="532385" />
	</node>
	<node lat="66.19609721963364" lon="13.35628333767679" id="-10894">
		<tag k="name" v="Bardalselva" />
		<tag k="ssr:stedsnr" v="561076" />
		<tag k="waterway" v="river" />
	</node>
	<node lat="65.97649166573827" lon="12.731127778331144" id="-10895">
		<tag k="name" v="Ytterivatnet" />
		<tag k="natural" v="water" />
		<tag k="ssr:stedsnr" v="561078" />
	</node>
	<node lat="66.01081944437419" lon="12.83294166957258" id="-10901">
		<tag k="name" v="Grønnlivatnan" />
		<tag k="natural" v="water" />
		<tag k="ssr:stedsnr" v="561132" />
	</node>
	<node lat="66.06994999882674" lon="13.04571389834241" id="-10918">
		<tag k="name" v="Forslandsneset" />
		<tag k="natural" v="cape" />
		<tag k="ssr:stedsnr" v="593795" />
	</node>
	<node lat="66.00887500231416" lon="12.84124166257855" id="-10923">
		<tag k="name" v="Tverrdalsbekken" />
		<tag k="ssr:stedsnr" v="621117" />
		<tag k="waterway" v="stream" />
	</node>
	<node lat="66.11531944444246" lon="12.849222232548296" id="-10924">
		<tag k="alt_name" v="Vardskardvatnet" />
		<tag k="name" v="Vardskarvatnet" />
		<tag k="natural" v="water" />
		<tag k="ssr:stedsnr" v="621125" />
	</node>
	<node lat="66.07196666849761" lon="12.77109444707363" id="-10933">
		<tag k="name" v="Kløftelva" />
		<tag k="ssr:stedsnr" v="622216" />
		<tag k="waterway" v="stream" />
	</node>
	<node lat="66.08059166655161" lon="13.007794441523316" id="-10935">
		<tag k="alt_name" v="Oksvassbekken" />
		<tag k="name" v="Oksvatnbekkjen" />
		<tag k="ssr:stedsnr" v="622225" />
		<tag k="waterway" v="stream" />
	</node>
	<node lat="66.14164444773625" lon="13.24748889835458" id="-10936">
		<tag k="name" v="Ranvatnet" />
		<tag k="natural" v="water" />
		<tag k="ssr:stedsnr" v="622486" />
	</node>
	<node lat="66.03953611468361" lon="12.689013892492868" id="-10937">
		<tag k="name" v="Oddvalen" />
		<tag k="natural" v="water" />
		<tag k="ssr:stedsnr" v="622874" />
	</node>
	<node lat="66.17736666743177" lon="13.405988886887574" id="-10960">
		<tag k="name" v="Porjus" />
		<tag k="natural" v="water" />
		<tag k="ssr:stedsnr" v="682415" />
	</node>
	<node lat="66.0901027821827" lon="13.035636108852833" id="-10964">
		<tag k="alt_name" v="Markvollbekkjen" />
		<tag k="name" v="Markvollbekken" />
		<tag k="ssr:stedsnr" v="683218" />
		<tag k="waterway" v="stream" />
	</node>
	<node lat="65.9703416653252" lon="12.681675000613934" id="-10966">
		<tag k="name" v="Storvikelva" />
		<tag k="ssr:stedsnr" v="683274" />
		<tag k="waterway" v="stream" />
	</node>
	<node lat="66.17062222243987" lon="13.397744448236928" id="-10967">
		<tag k="fixme" v="multiple name tags, choose one and add the other to alt_name" />
		<tag k="name" v="Hansivatnet;Store Hansivatnet" />
		<tag k="natural" v="water" />
		<tag k="ssr:stedsnr" v="683372" />
	</node>
	<node lat="66.12708055345405" lon="13.273666673792409" id="-10968">
		<tag k="name" v="Nordelva" />
		<tag k="ssr:stedsnr" v="683464" />
		<tag k="waterway" v="stream" />
	</node>
	<node lat="66.09992777394096" lon="13.125413885353188" id="-10990">
		<tag k="name" v="Urengebukta" />
		<tag k="natural" v="bay" />
		<tag k="ssr:stedsnr" v="897386" />
	</node>
	<node lat="66.11478888738962" lon="13.089075005019" id="-10991">
		<tag k="name" v="Bjønneset" />
		<tag k="natural" v="cape" />
		<tag k="ssr:stedsnr" v="897443" />
	</node>
	<node lat="66.06664722373965" lon="12.83056944374379" id="-11001">
=======
	<node id="-133509" lat="66.130713886" lon="13.0673416771">
		<tag k="name" v="Nilsbekkjen" />
		<tag k="ssr:stedsnr" v="471962" />
		<tag k="waterway" v="stream" />
	</node>
	<node id="-134532" lat="66.0969333373" lon="13.1833666767">
		<tag k="name" v="Skreppelva" />
		<tag k="ssr:stedsnr" v="622248" />
		<tag k="waterway" v="stream" />
	</node>
	<node id="-134528" lat="66.0805916666" lon="13.0077944415">
		<tag k="alt_name" v="Oksvassbekken" />
		<tag k="name" v="Oksvatnbekkjen" />
		<tag k="ssr:stedsnr" v="622225" />
		<tag k="waterway" v="stream" />
	</node>
	<node id="-134015" lat="66.1342666633" lon="13.0692250011">
		<tag k="name" v="Skarsbakkbekkjen" />
		<tag k="ssr:stedsnr" v="47951" />
		<tag k="waterway" v="stream" />
	</node>
	<node id="-134526" lat="66.0719666685" lon="12.7710944471">
		<tag k="name" v="Kløftelva" />
		<tag k="ssr:stedsnr" v="622216" />
		<tag k="waterway" v="stream" />
	</node>
	<node id="-133501" lat="66.1060388878" lon="13.0651027832">
		<tag k="name" v="Sylvesterbekkjen" />
		<tag k="ssr:stedsnr" v="471506" />
		<tag k="waterway" v="stream" />
	</node>
	<node id="-134522" lat="66.1226749992" lon="13.1063861104">
		<tag k="alt_name" v="Kvannelva" />
		<tag k="name" v="Kvanndalselva" />
		<tag k="ssr:stedsnr" v="622126" />
		<tag k="waterway" v="stream" />
	</node>
	<node id="-134516" lat="66.0578805539" lon="12.8130499946">
		<tag k="name" v="Hjartlandselva" />
		<tag k="ssr:stedsnr" v="622055" />
		<tag k="waterway" v="stream" />
	</node>
	<node id="-133490" lat="66.0931361073" lon="13.1060333383">
		<tag k="name" v="Langdalsbekkjen" />
		<tag k="ssr:stedsnr" v="471226" />
		<tag k="waterway" v="stream" />
	</node>
	<node id="-134291" lat="66.1469583328" lon="13.0234916768">
		<tag k="name" v="Velsvågforsen" />
		<tag k="natural" v="waterfall" />
		<tag k="ssr:stedsnr" v="379175" />
	</node>
	<node id="-134509" lat="66.1175777751" lon="13.099924993">
		<tag k="name" v="Storneset" />
		<tag k="natural" v="cape" />
		<tag k="ssr:stedsnr" v="621141" />
	</node>
	<node id="-134508" lat="66.1199666698" lon="13.1917833418">
		<tag k="name" v="Husfjelltjønna" />
		<tag k="natural" v="water" />
		<tag k="ssr:stedsnr" v="621133" />
	</node>
	<node id="-134507" lat="66.1153194444" lon="12.8492222325">
		<tag k="alt_name" v="Vardskardvatnet" />
		<tag k="name" v="Vardskarvatnet" />
		<tag k="natural" v="water" />
		<tag k="ssr:stedsnr" v="621125" />
	</node>
	<node id="-134506" lat="66.0088750023" lon="12.8412416626">
		<tag k="name" v="Tverrdalsbekken" />
		<tag k="ssr:stedsnr" v="621117" />
		<tag k="waterway" v="stream" />
	</node>
	<node id="-134503" lat="66.1416444477" lon="13.2474888984">
		<tag k="name" v="Ranvatnet" />
		<tag k="natural" v="water" />
		<tag k="ssr:stedsnr" v="622486" />
	</node>
	<node id="-134499" lat="66.1235083319" lon="12.8426416612">
		<tag k="name" v="Storforsen" />
		<tag k="natural" v="waterfall" />
		<tag k="ssr:stedsnr" v="593930" />
	</node>
	<node id="-133985" lat="66.0808333371" lon="12.8995750115">
		<tag k="name" v="Trollforsen" />
		<tag k="natural" v="waterfall" />
		<tag k="ssr:stedsnr" v="47307" />
	</node>
	<node id="-133631" lat="66.1960972196" lon="13.3562833377">
		<tag k="name" v="Bardalselva" />
		<tag k="ssr:stedsnr" v="561076" />
		<tag k="waterway" v="river" />
	</node>
	<node id="-134490" lat="66.0699499988" lon="13.0457138983">
		<tag k="name" v="Forslandsneset" />
		<tag k="natural" v="cape" />
		<tag k="ssr:stedsnr" v="593795" />
	</node>
	<node id="-134489" lat="66.0678805529" lon="13.0553583345">
		<tag k="name" v="Storforsen" />
		<tag k="natural" v="waterfall" />
		<tag k="ssr:stedsnr" v="593782" />
	</node>
	<node id="-133262" lat="66.0911722213" lon="13.0073277774">
		<tag k="name" v="Langvatnet" />
		<tag k="natural" v="water" />
		<tag k="ssr:stedsnr" v="258234" />
	</node>
	<node id="-134481" lat="66.0541166669" lon="12.7826472198">
		<tag k="name" v="Vallaelva" />
		<tag k="ssr:stedsnr" v="593576" />
		<tag k="waterway" v="stream" />
	</node>
	<node id="-134480" lat="66.0351138893" lon="12.9715222212">
		<tag k="name" v="Vassmyrtjønna" />
		<tag k="natural" v="water" />
		<tag k="ssr:stedsnr" v="593489" />
	</node>
	<node id="-133688" lat="66.1910027786" lon="13.378413881">
		<tag k="name" v="Bakkaelva" />
		<tag k="ssr:stedsnr" v="652867" />
		<tag k="waterway" v="river" />
	</node>
	<node id="-133453" lat="66.1601944413" lon="13.3261972211">
		<tag k="name" v="Nonsvatnet" />
		<tag k="natural" v="water" />
		<tag k="ssr:stedsnr" v="258466" />
		<tag k="water" v="lake" />
	</node>
	<node id="-133962" lat="66.0951027795" lon="12.9442138847">
		<tag k="name" v="Tomåsvatnet" />
		<tag k="natural" v="water" />
		<tag k="ssr:stedsnr" v="15261" />
	</node>
	<node id="-133960" lat="66.1018888869" lon="13.2000972205">
		<tag k="name" v="Forlielva" />
		<tag k="ssr:stedsnr" v="15234" />
		<tag k="waterway" v="stream" />
	</node>
	<node id="-134463" lat="66.089961109" lon="13.1182916748">
		<tag k="name" v="Langnestunga" />
		<tag k="natural" v="cape" />
		<tag k="ssr:stedsnr" v="592241" />
	</node>
	<node id="-133948" lat="66.0458722222" lon="13.1372250054">
		<tag k="fixme" v="multiple name tags, choose one and add the other to alt_name" />
		<tag k="name" v="Dalsvatnan;Simavatnan" />
		<tag k="natural" v="water" />
		<tag k="ssr:stedsnr" v="15021" />
	</node>
	<node id="-133640" lat="66.1947999989" lon="13.4367944517">
		<tag k="fixme" v="multiple name tags, choose one and add the other to alt_name" />
		<tag k="name" v="Mobekken;Svartvassbekken" />
		<tag k="ssr:stedsnr" v="561424" />
		<tag k="waterway" v="stream" />
	</node>
	<node id="-134454" lat="65.9778166653" lon="12.7437111027">
		<tag k="name" v="Hesthagelva" />
		<tag k="ssr:stedsnr" v="591071" />
		<tag k="waterway" v="river" />
	</node>
	<node id="-133429" lat="66.0380527754" lon="12.6912305559">
		<tag k="name" v="Klevatnet" />
		<tag k="natural" v="water" />
		<tag k="ssr:stedsnr" v="229656" />
	</node>
	<node id="-133939" lat="66.1035055568" lon="12.7642333363">
		<tag k="name" v="Leirbekkjen" />
		<tag k="ssr:stedsnr" v="957433" />
		<tag k="waterway" v="stream" />
	</node>
	<node id="-133932" lat="66.0666472237" lon="12.8305694437">
>>>>>>> e1d4bc35ff8a6074a6f2e91616a996b547c36f15
		<tag k="name" v="Båtstøøra" />
		<tag k="natural" v="beach" />
		<tag k="ssr:stedsnr" v="897778" />
	</node>
<<<<<<< HEAD
	<node lat="66.12380278156138" lon="12.856136110947881" id="-11007">
		<tag k="name" v="Munnstabekkjen" />
		<tag k="ssr:stedsnr" v="897921" />
		<tag k="waterway" v="stream" />
	</node>
	<node lat="66.07168332994453" lon="12.74724443669826" id="-11041">
		<tag k="name" v="Remelva" />
		<tag k="ssr:stedsnr" v="743228" />
		<tag k="waterway" v="stream" />
	</node>
	<node lat="66.17645000359238" lon="13.412563880088456" id="-11044">
		<tag k="alt_name" v="Nonsvatnet, l" />
		<tag k="name" v="Litle Nonsvatnet" />
		<tag k="natural" v="water" />
		<tag k="ssr:stedsnr" v="743410" />
	</node>
	<node lat="66.05249722217785" lon="12.876272225595384" id="-11074">
		<tag k="name" v="Innerforlibekken" />
		<tag k="ssr:stedsnr" v="775717" />
		<tag k="waterway" v="stream" />
	</node>
	<node lat="66.09435833287745" lon="13.060202778054911" id="-11082">
		<tag k="name" v="Stillelva" />
		<tag k="ssr:stedsnr" v="804010" />
		<tag k="waterway" v="river" />
	</node>
	<node lat="66.03832777840998" lon="13.02972222623987" id="-11083">
		<tag k="alt_name" v="Tjærstadvatnet" />
		<tag k="name" v="Kjærstadvatnet" />
		<tag k="natural" v="water" />
		<tag k="ssr:stedsnr" v="804013" />
	</node>
	<node lat="66.05855555902986" lon="13.075550003272667" id="-11087">
		<tag k="name" v="Grindneset" />
		<tag k="natural" v="cape" />
		<tag k="ssr:stedsnr" v="804062" />
	</node>
	<node lat="66.17853611034151" lon="13.282141665598438" id="-11092">
		<tag k="name" v="Litlvatnet" />
		<tag k="natural" v="water" />
		<tag k="ssr:stedsnr" v="804453" />
	</node>
	<node lat="66.10288055687433" lon="13.071358323850252" id="-11095">
		<tag k="name" v="Ranelva" />
		<tag k="ssr:stedsnr" v="805116" />
		<tag k="waterway" v="river" />
	</node>
	<node lat="66.08433333663734" lon="13.090825006884701" id="-11096">
		<tag k="name" v="Nesan" />
		<tag k="natural" v="cape" />
		<tag k="ssr:stedsnr" v="835148" />
	</node>
	<node lat="66.08317500325948" lon="13.09898610854064" id="-11097">
		<tag k="name" v="Sommarsetforsen" />
		<tag k="natural" v="waterfall" />
		<tag k="ssr:stedsnr" v="835154" />
	</node>
	<node lat="66.11329167048343" lon="13.113616676621213" id="-11100">
		<tag k="name" v="Skjellbekkjen" />
		<tag k="ssr:stedsnr" v="836334" />
		<tag k="waterway" v="stream" />
	</node>
	<node lat="66.08311944107379" lon="12.839972221552522" id="-11102">
		<tag k="name" v="Fjellåsbekkjen" />
		<tag k="ssr:stedsnr" v="836287" />
		<tag k="waterway" v="stream" />
	</node>
	<node lat="66.1328722256377" lon="13.170941656628493" id="-11111">
		<tag k="name" v="Slåttneset" />
=======
	<node id="-134443" lat="66.0825027799" lon="12.7240888812">
		<tag k="name" v="Sandvegelva" />
		<tag k="ssr:stedsnr" v="561961" />
		<tag k="waterway" v="stream" />
	</node>
	<node id="-134437" lat="66.0911111072" lon="13.1403249969">
		<tag k="alt_name" v="Durmålselva" />
		<tag k="name" v="Durmålsbekkjen" />
		<tag k="ssr:stedsnr" v="561240" />
		<tag k="waterway" v="stream" />
	</node>
	<node id="-134431" lat="66.0677888916" lon="12.8142555652">
		<tag k="alt_name" v="Tverråga" />
		<tag k="name" v="Tverråa" />
		<tag k="ssr:stedsnr" v="561192" />
		<tag k="waterway" v="stream" />
	</node>
	<node id="-134191" lat="65.9825055543" lon="12.7892277719">
		<tag k="alt_name" v="Gardselva" />
		<tag k="name" v="Gårdselva" />
		<tag k="ssr:stedsnr" v="198050" />
		<tag k="waterway" v="stream" />
	</node>
	<node id="-134421" lat="66.1294777742" lon="13.1413305553">
		<tag k="name" v="Tverråga" />
		<tag k="ssr:stedsnr" v="561144" />
		<tag k="waterway" v="stream" />
	</node>
	<node id="-134420" lat="66.0108194444" lon="12.8329416696">
		<tag k="name" v="Grønnlivatnan" />
		<tag k="natural" v="water" />
		<tag k="ssr:stedsnr" v="561132" />
	</node>
	<node id="-133393" lat="66.1519499966" lon="13.1926611123">
		<tag k="alt_name" v="Meldalsbekken" />
		<tag k="name" v="Meldalsbekkjen" />
		<tag k="ssr:stedsnr" v="440204" />
		<tag k="waterway" v="stream" />
	</node>
	<node id="-134416" lat="66.1821944403" lon="13.2769361105">
		<tag k="fixme" v="multiple name tags, choose one and add the other to alt_name" />
		<tag k="name" v="Svartdalsvatnet;Vassdalsvatnet" />
		<tag k="natural" v="water" />
		<tag k="ssr:stedsnr" v="560431" />
	</node>
	<node id="-133382" lat="65.9850916634" lon="12.9025666647">
		<tag k="name" v="Geitskora" />
		<tag k="natural" v="bay" />
		<tag k="ssr:stedsnr" v="440102" />
	</node>
	<node id="-134404" lat="66.1462416668" lon="13.0932305664">
		<tag k="name" v="Brattelva" />
		<tag k="ssr:stedsnr" v="532898" />
		<tag k="waterway" v="stream" />
	</node>
	<node id="-134403" lat="66.147175003" lon="13.0941555567">
		<tag k="name" v="Båsbekken" />
		<tag k="ssr:stedsnr" v="532897" />
		<tag k="waterway" v="stream" />
	</node>
	<node id="-133883" lat="66.1308749978" lon="12.8903694416">
		<tag k="name" v="Svartvatnet" />
		<tag k="natural" v="water" />
		<tag k="ssr:stedsnr" v="804178" />
	</node>
	<node id="-133368" lat="66.0247333337" lon="13.0227333367">
		<tag k="name" v="Dagsvatnet" />
		<tag k="natural" v="water" />
		<tag k="ssr:stedsnr" v="440013" />
	</node>
	<node id="-133879" lat="66.1026027759" lon="12.7898250011">
		<tag k="alt_name" v="Merkebekkjen" />
		<tag k="name" v="Merkebekken" />
		<tag k="ssr:stedsnr" v="804164" />
		<tag k="waterway" v="stream" />
	</node>
	<node id="-133878" lat="66.1097694425" lon="12.8491333415">
		<tag k="name" v="Lomsvatnet" />
		<tag k="natural" v="water" />
		<tag k="ssr:stedsnr" v="804153" />
	</node>
	<node id="-133877" lat="66.0383277784" lon="13.0297222262">
		<tag k="alt_name" v="Tjærstadvatnet" />
		<tag k="name" v="Kjærstadvatnet" />
		<tag k="natural" v="water" />
		<tag k="ssr:stedsnr" v="804013" />
	</node>
	<node id="-133876" lat="66.0943583329" lon="13.0602027781">
		<tag k="name" v="Stillelva" />
		<tag k="ssr:stedsnr" v="804010" />
		<tag k="waterway" v="river" />
	</node>
	<node id="-133450" lat="66.1484833374" lon="13.0178972337">
		<tag k="name" v="Velsvågelva" />
		<tag k="ssr:stedsnr" v="258173" />
		<tag k="waterway" v="stream" />
	</node>
	<node id="-133358" lat="66.1613444462" lon="13.1284472145">
		<tag k="name" v="Klubbelva" />
		<tag k="ssr:stedsnr" v="197206" />
		<tag k="waterway" v="stream" />
	</node>
	<node id="-134376" lat="66.1017055569" lon="13.1265361058">
		<tag k="name" v="Nesan" />
>>>>>>> e1d4bc35ff8a6074a6f2e91616a996b547c36f15
		<tag k="natural" v="cape" />
		<tag k="ssr:stedsnr" v="532385" />
	</node>
<<<<<<< HEAD
	<node lat="66.13364166829611" lon="13.167574990161377" id="-11112">
		<tag k="name" v="Heggelundnesan" />
		<tag k="natural" v="cape" />
		<tag k="ssr:stedsnr" v="836996" />
	</node>
	<node lat="66.05395000298661" lon="13.207994448607684" id="-11123">
		<tag k="name" v="Nedre Simåvatnet" />
		<tag k="natural" v="water" />
		<tag k="ssr:stedsnr" v="926027" />
	</node>
	<node lat="65.98480555147877" lon="12.777522220983487" id="-11142">
		<tag k="name" v="Grytelva" />
		<tag k="ssr:stedsnr" v="894080" />
		<tag k="waterway" v="stream" />
	</node>
	<node lat="65.97332778067641" lon="12.728194438011691" id="-11144">
		<tag k="name" v="Bekkjen" />
		<tag k="ssr:stedsnr" v="895076" />
		<tag k="waterway" v="stream" />
	</node>
	<node lat="66.1051694421289" lon="12.781586114451231" id="-11157">
		<tag k="name" v="Litl-Fagervikelva" />
		<tag k="ssr:stedsnr" v="897413" />
		<tag k="waterway" v="stream" />
	</node>
	<node lat="66.0634444443641" lon="13.067949999837099" id="-11166">
		<tag k="name" v="Langforsen" />
		<tag k="natural" v="waterfall" />
		<tag k="ssr:stedsnr" v="897808" />
	</node>
	<node lat="66.01091111434573" lon="12.86694445363393" id="-11170">
		<tag k="name" v="Hellesvikelva" />
		<tag k="ssr:stedsnr" v="925005" />
		<tag k="waterway" v="stream" />
	</node>
	<node lat="66.1734944436473" lon="13.391355552113584" id="-11172">
		<tag k="fixme" v="multiple name tags, choose one and add the other to alt_name" />
		<tag k="name" v="Nervatnet;Litle Hansivatnet" />
		<tag k="natural" v="water" />
		<tag k="ssr:stedsnr" v="925419" />
	</node>
	<node lat="66.07987499685625" lon="12.946005563138161" id="-11189">
		<tag k="name" v="Simsøelva" />
		<tag k="ssr:stedsnr" v="956226" />
		<tag k="waterway" v="stream" />
	</node>
	<node lat="66.00232500055264" lon="12.786080546147797" id="-11215">
		<tag k="name" v="Klubbvatnet" />
		<tag k="natural" v="water" />
		<tag k="ssr:stedsnr" v="15128" />
	</node>
	<node lat="66.10900000344371" lon="12.815030545671997" id="-11216">
		<tag k="alt_name" v="Vikaelva" />
		<tag k="name" v="Vikjaelva" />
		<tag k="ssr:stedsnr" v="15131" />
		<tag k="waterway" v="stream" />
	</node>
	<node lat="66.10188888693763" lon="13.200097220506814" id="-11221">
		<tag k="name" v="Forlielva" />
		<tag k="ssr:stedsnr" v="15234" />
		<tag k="waterway" v="stream" />
	</node>
	<node lat="66.08083333709249" lon="12.89957501146612" id="-11243">
		<tag k="name" v="Trollforsen" />
		<tag k="natural" v="waterfall" />
		<tag k="ssr:stedsnr" v="47307" />
	</node>
	<node lat="66.13426666332097" lon="13.069225001054571" id="-11269">
		<tag k="name" v="Skarsbakkbekkjen" />
		<tag k="ssr:stedsnr" v="47951" />
		<tag k="waterway" v="stream" />
	</node>
	<node lat="66.01123333552002" lon="12.813938898707022" id="-11273">
		<tag k="name" v="Storvatnet" />
		<tag k="natural" v="water" />
		<tag k="ssr:stedsnr" v="76006" />
	</node>
	<node lat="66.12175277410884" lon="13.281327770564454" id="-11274">
		<tag k="name" v="Sørelva" />
		<tag k="ssr:stedsnr" v="76009" />
		<tag k="waterway" v="stream" />
	</node>
	<node lat="66.02568333669649" lon="13.066249994083687" id="-11275">
		<tag k="name" v="Nylandsvatnan" />
		<tag k="natural" v="water" />
		<tag k="ssr:stedsnr" v="76012" />
	</node>
	<node lat="66.1160749963577" lon="12.87760276842631" id="-11279">
		<tag k="name" v="Nubbvatnet" />
		<tag k="natural" v="water" />
		<tag k="ssr:stedsnr" v="76163" />
	</node>
	<node lat="66.08401388564486" lon="13.084508335992055" id="-11291">
		<tag k="name" v="Leirelva" />
		<tag k="ssr:stedsnr" v="76233" />
		<tag k="waterway" v="river" />
	</node>
	<node lat="66.08244721843104" lon="13.10751667349832" id="-11292">
		<tag k="alt_name" v="Fjellbekken" />
		<tag k="name" v="Fjellbekkjen" />
		<tag k="ssr:stedsnr" v="76234" />
		<tag k="waterway" v="stream" />
	</node>
	<node lat="66.08710277793409" lon="12.794949989991032" id="-11294">
		<tag k="name" v="Langvatnan" />
		<tag k="natural" v="water" />
		<tag k="ssr:stedsnr" v="76236" />
	</node>
	<node lat="66.04689444113819" lon="12.74883611069979" id="-11316">
		<tag k="name" v="Mølnhusbekkjen" />
		<tag k="ssr:stedsnr" v="108632" />
		<tag k="waterway" v="stream" />
	</node>
	<node lat="66.09925555405053" lon="13.121674995060118" id="-11345">
		<tag k="name" v="Litlvatnet" />
		<tag k="natural" v="water" />
		<tag k="ssr:stedsnr" v="136287" />
	</node>
	<node lat="66.14101111581122" lon="13.315994438241198" id="-11346">
		<tag k="name" v="Hansfinnvatnet" />
		<tag k="natural" v="water" />
		<tag k="ssr:stedsnr" v="136494" />
		<tag k="water" v="lake" />
	</node>
	<node lat="66.10918333087716" lon="13.30088888273689" id="-11354">
		<tag k="name" v="Forlivatnan" />
		<tag k="natural" v="water" />
		<tag k="ssr:stedsnr" v="137442" />
	</node>
	<node lat="66.10166944614531" lon="13.07954721529637" id="-11357">
		<tag k="name" v="Mølnbekkjen" />
		<tag k="ssr:stedsnr" v="229398" />
		<tag k="waterway" v="stream" />
	</node>
	<node lat="66.08872221834905" lon="13.06618334330214" id="-11373">
		<tag k="name" v="Kjerringdalsbekkjen" />
		<tag k="ssr:stedsnr" v="167197" />
		<tag k="waterway" v="stream" />
	</node>
	<node lat="66.04715833498611" lon="13.109397212080788" id="-11382">
		<tag k="name" v="Simaforsen" />
		<tag k="natural" v="waterfall" />
		<tag k="ssr:stedsnr" v="168448" />
	</node>
	<node lat="66.12694166479348" lon="12.883649990245623" id="-11394">
		<tag k="name" v="Innervatnet" />
		<tag k="natural" v="water" />
		<tag k="ssr:stedsnr" v="168968" />
		<tag k="water" v="lake" />
	</node>
	<node lat="66.12682500354798" lon="12.891905565201567" id="-11395">
		<tag k="name" v="Kvannbakkelva" />
		<tag k="ssr:stedsnr" v="168970" />
		<tag k="waterway" v="stream" />
	</node>
	<node lat="66.13301666418239" lon="13.176963897001464" id="-11399">
		<tag k="name" v="Hububekkjen" />
		<tag k="ssr:stedsnr" v="168998" />
		<tag k="waterway" v="stream" />
	</node>
	<node lat="66.21578055940881" lon="13.401736103049997" id="-11400">
		<tag k="name" v="Tverrelva" />
		<tag k="ssr:stedsnr" v="197088" />
		<tag k="waterway" v="stream" />
	</node>
	<node lat="66.07861666404644" lon="13.19598054776661" id="-11410">
		<tag k="name" v="Simåvatnan" />
		<tag k="natural" v="water" />
		<tag k="ssr:stedsnr" v="197248" />
		<tag k="water" v="lake" />
	</node>
	<node lat="65.97645277756908" lon="12.914055560153136" id="-11411">
		<tag k="name" v="Kjerkebekken" />
		<tag k="ssr:stedsnr" v="198096" />
		<tag k="waterway" v="stream" />
	</node>
	<node lat="65.98250555427323" lon="12.789227771937592" id="-11419">
		<tag k="alt_name" v="Gardselva" />
		<tag k="name" v="Gårdselva" />
		<tag k="ssr:stedsnr" v="198050" />
		<tag k="waterway" v="stream" />
	</node>
	<node lat="66.12663333446771" lon="12.88105833016724" id="-11421">
		<tag k="name" v="Kvannbakkvatnan" />
		<tag k="natural" v="water" />
		<tag k="ssr:stedsnr" v="198134" />
	</node>
	<node lat="66.10864721927074" lon="12.794002770644491" id="-11433">
		<tag k="name" v="Laholmbekkjen" />
		<tag k="ssr:stedsnr" v="228549" />
		<tag k="waterway" v="stream" />
	</node>
	<node lat="66.06688333161347" lon="12.76555555023766" id="-11440">
		<tag k="name" v="Mølnhusfossen" />
		<tag k="natural" v="waterfall" />
		<tag k="ssr:stedsnr" v="289072" />
	</node>
	<node lat="66.11773889118548" lon="12.830069445641078" id="-11462">
		<tag k="name" v="Sørelva" />
		<tag k="ssr:stedsnr" v="318113" />
		<tag k="waterway" v="stream" />
	</node>
	<node lat="66.07946110764262" lon="12.74814723010842" id="-11464">
		<tag k="name" v="Livatnan" />
		<tag k="natural" v="water" />
		<tag k="ssr:stedsnr" v="318179" />
	</node>
	<node lat="66.08996111452099" lon="13.121363900398562" id="-11492">
		<tag k="name" v="Vasshøvet" />
		<tag k="place" v="locality" />
		<tag k="ssr:stedsnr" v="349243" />
	</node>
	<node lat="66.06684999807095" lon="12.83619722550316" id="-11516">
		<tag k="name" v="Meisfjordøra" />
		<tag k="natural" v="cape" />
		<tag k="ssr:stedsnr" v="350799" />
	</node>
	<node lat="66.1596833378804" lon="13.10120832641114" id="-11519">
		<tag k="name" v="Klubbelva" />
		<tag k="ssr:stedsnr" v="350899" />
		<tag k="waterway" v="stream" />
	</node>
	<node lat="66.12739444711204" lon="13.152491656686742" id="-11520">
		<tag k="name" v="Grasneset" />
		<tag k="natural" v="cape" />
		<tag k="ssr:stedsnr" v="350978" />
	</node>
	<node lat="66.03606944655643" lon="12.973916669794196" id="-11524">
		<tag k="alt_name" v="Labekken" />
		<tag k="name" v="Labekkjen" />
		<tag k="ssr:stedsnr" v="379014" />
		<tag k="waterway" v="stream" />
	</node>
	<node lat="66.07245810797943" lon="12.771315138634431" id="-11537">
		<tag k="name" v="Vasshøvet" />
		<tag k="place" v="locality" />
		<tag k="ssr:stedsnr" v="410157" />
	</node>
	<node lat="66.06577222357768" lon="12.766436101711404" id="-11539">
		<tag k="name" v="Ulvangselva" />
		<tag k="ssr:stedsnr" v="410074" />
		<tag k="waterway" v="stream" />
	</node>
	<node lat="66.11382777725599" lon="13.101005559981367" id="-11545">
		<tag k="name" v="Sørlaforsen" />
		<tag k="natural" v="waterfall" />
		<tag k="ssr:stedsnr" v="411361" />
	</node>
	<node lat="66.21675833515117" lon="13.377086111372286" id="-11546">
		<tag k="name" v="Vabekkjen" />
		<tag k="ssr:stedsnr" v="411843" />
		<tag k="waterway" v="stream" />
	</node>
	<node lat="66.21363888993334" lon="13.385816663422329" id="-11547">
		<tag k="name" v="Bardalselva" />
		<tag k="ssr:stedsnr" v="411849" />
		<tag k="waterway" v="river" />
	</node>
	<node lat="66.12758611096253" lon="13.162916658409827" id="-11586">
		<tag k="alt_name" v="Manglåga" />
		<tag k="name" v="Mangelåga" />
		<tag k="ssr:stedsnr" v="500154" />
		<tag k="waterway" v="stream" />
	</node>
	<node lat="66.1184583336854" lon="13.15776110243573" id="-11587">
		<tag k="name" v="Innmarkstjønna" />
		<tag k="natural" v="water" />
		<tag k="ssr:stedsnr" v="500157" />
	</node>
	<node lat="65.99765555164196" lon="12.93807500335987" id="-11597">
		<tag k="name" v="Finnvika" />
		<tag k="natural" v="bay" />
		<tag k="ssr:stedsnr" v="501099" />
	</node>
	<node lat="66.12431944776037" lon="12.851216674039271" id="-11598">
		<tag k="name" v="Kvannbakkelva" />
		<tag k="ssr:stedsnr" v="501150" />
		<tag k="waterway" v="stream" />
	</node>
	<node lat="66.06279166454758" lon="12.719063890819772" id="-11611">
		<tag k="name" v="Reinesbekkjen" />
		<tag k="ssr:stedsnr" v="531145" />
		<tag k="waterway" v="stream" />
	</node>
	<node lat="66.09164166858373" lon="13.12562222739754" id="-11617">
		<tag k="name" v="Brenneset" />
		<tag k="natural" v="cape" />
		<tag k="ssr:stedsnr" v="531227" />
	</node>
	<node lat="66.11089999663541" lon="13.094116672255725" id="-11624">
		<tag k="name" v="Svarttjønna" />
		<tag k="natural" v="water" />
		<tag k="ssr:stedsnr" v="532358" />
	</node>
	<node lat="66.14717500296467" lon="13.094155556735842" id="-11641">
		<tag k="name" v="Båsbekken" />
		<tag k="ssr:stedsnr" v="532897" />
		<tag k="waterway" v="stream" />
	</node>
	<node lat="66.14624166679756" lon="13.093230566414348" id="-11642">
		<tag k="name" v="Brattelva" />
		<tag k="ssr:stedsnr" v="532898" />
		<tag k="waterway" v="stream" />
	</node>
	<node lat="66.17955277970307" lon="13.397386122088024" id="-11653">
		<tag k="name" v="Svanvatnet" />
		<tag k="natural" v="water" />
		<tag k="ssr:stedsnr" v="560372" />
	</node>
	<node lat="66.18219444028135" lon="13.276936110482833" id="-11654">
		<tag k="fixme" v="multiple name tags, choose one and add the other to alt_name" />
		<tag k="name" v="Svartdalsvatnet;Vassdalsvatnet" />
		<tag k="natural" v="water" />
		<tag k="ssr:stedsnr" v="560431" />
	</node>
	<node lat="66.12947777421421" lon="13.141330555341622" id="-11655">
		<tag k="name" v="Tverråga" />
		<tag k="ssr:stedsnr" v="561144" />
		<tag k="waterway" v="stream" />
	</node>
	<node lat="66.018650002898" lon="12.990013880387783" id="-11660">
		<tag k="name" v="Dagsvikelva" />
		<tag k="ssr:stedsnr" v="561006" />
		<tag k="waterway" v="stream" />
	</node>
	<node lat="66.00230833033362" lon="13.12993332736104" id="-11664">
		<tag k="name" v="Hestvatnan" />
		<tag k="natural" v="water" />
		<tag k="ssr:stedsnr" v="561119" />
	</node>
	<node lat="66.09111110722908" lon="13.140324996902898" id="-11665">
		<tag k="alt_name" v="Durmålselva" />
		<tag k="name" v="Durmålsbekkjen" />
		<tag k="ssr:stedsnr" v="561240" />
		<tag k="waterway" v="stream" />
	</node>
	<node lat="66.15455555466934" lon="13.166952777210552" id="-11669">
		<tag k="name" v="Storvatnet" />
		<tag k="natural" v="water" />
		<tag k="ssr:stedsnr" v="561162" />
	</node>
	<node lat="66.06778889160775" lon="12.814255565183288" id="-11673">
		<tag k="alt_name" v="Tverråga" />
		<tag k="name" v="Tverråa" />
		<tag k="ssr:stedsnr" v="561192" />
		<tag k="waterway" v="stream" />
	</node>
	<node lat="66.19479999887307" lon="13.436794451679598" id="-11683">
		<tag k="fixme" v="multiple name tags, choose one and add the other to alt_name" />
		<tag k="name" v="Mobekken;Svartvassbekken" />
		<tag k="ssr:stedsnr" v="561424" />
		<tag k="waterway" v="stream" />
	</node>
	<node lat="66.0825027799487" lon="12.724088881209868" id="-11686">
		<tag k="name" v="Sandvegelva" />
		<tag k="ssr:stedsnr" v="561961" />
		<tag k="waterway" v="stream" />
	</node>
	<node lat="65.97781666532289" lon="12.74371110271563" id="-11693">
		<tag k="name" v="Hesthagelva" />
		<tag k="ssr:stedsnr" v="591071" />
		<tag k="waterway" v="river" />
	</node>
	<node lat="66.08996110895887" lon="13.118291674786795" id="-11696">
		<tag k="name" v="Langnestunga" />
		<tag k="natural" v="cape" />
		<tag k="ssr:stedsnr" v="592241" />
	</node>
	<node lat="66.03511388925082" lon="12.971522221199454" id="-11710">
		<tag k="name" v="Vassmyrtjønna" />
		<tag k="natural" v="water" />
		<tag k="ssr:stedsnr" v="593489" />
	</node>
	<node lat="66.05411666685244" lon="12.782647219791976" id="-11714">
		<tag k="name" v="Vallaelva" />
		<tag k="ssr:stedsnr" v="593576" />
		<tag k="waterway" v="stream" />
	</node>
	<node lat="66.06788055292152" lon="13.055358334494237" id="-11719">
		<tag k="name" v="Storforsen" />
		<tag k="natural" v="waterfall" />
		<tag k="ssr:stedsnr" v="593782" />
	</node>
	<node lat="66.14283333574139" lon="13.168308327191612" id="-11724">
		<tag k="name" v="Mølnbekkjen" />
		<tag k="ssr:stedsnr" v="593915" />
		<tag k="waterway" v="stream" />
	</node>
	<node lat="66.12350833191405" lon="12.842641661154836" id="-11726">
		<tag k="name" v="Storforsen" />
		<tag k="natural" v="waterfall" />
		<tag k="ssr:stedsnr" v="593930" />
	</node>
	<node lat="66.1199666697788" lon="13.191783341758013" id="-11732">
		<tag k="name" v="Husfjelltjønna" />
		<tag k="natural" v="water" />
		<tag k="ssr:stedsnr" v="621133" />
	</node>
	<node lat="66.11757777508686" lon="13.099924993018417" id="-11733">
		<tag k="name" v="Storneset" />
		<tag k="natural" v="cape" />
		<tag k="ssr:stedsnr" v="621141" />
	</node>
	<node lat="66.05788055387103" lon="12.81304999455185" id="-11739">
		<tag k="name" v="Hjartlandselva" />
		<tag k="ssr:stedsnr" v="622055" />
		<tag k="waterway" v="stream" />
	</node>
	<node lat="66.12267499916538" lon="13.1063861103796" id="-11742">
		<tag k="alt_name" v="Kvannelva" />
		<tag k="name" v="Kvanndalselva" />
		<tag k="ssr:stedsnr" v="622126" />
		<tag k="waterway" v="stream" />
	</node>
	<node lat="66.0969333373249" lon="13.183366676741109" id="-11745">
		<tag k="name" v="Skreppelva" />
		<tag k="ssr:stedsnr" v="622248" />
		<tag k="waterway" v="stream" />
	</node>
	<node lat="66.19100277859565" lon="13.378413881001377" id="-11753">
		<tag k="name" v="Bakkaelva" />
		<tag k="ssr:stedsnr" v="652867" />
		<tag k="waterway" v="river" />
	</node>
	<node lat="66.11881111540558" lon="13.108613882980325" id="-11773">
		<tag k="name" v="Nylabekkjen" />
		<tag k="ssr:stedsnr" v="654381" />
		<tag k="waterway" v="stream" />
	</node>
	<node lat="66.05296389044308" lon="13.01634721692291" id="-11774">
		<tag k="name" v="Kjerringforsen" />
		<tag k="natural" v="waterfall" />
		<tag k="ssr:stedsnr" v="654422" />
	</node>
	<node lat="66.11768055260923" lon="13.09591944868513" id="-11775">
		<tag k="name" v="Stokkabekkjen" />
		<tag k="ssr:stedsnr" v="654479" />
		<tag k="waterway" v="stream" />
	</node>
	<node lat="66.15473333563479" lon="13.101674998265691" id="-11788">
		<tag k="name" v="Mølnbekkjen" />
		<tag k="ssr:stedsnr" v="714909" />
		<tag k="waterway" v="stream" />
	</node>
	<node lat="66.07491111311222" lon="12.925116667538946" id="-11807">
		<tag k="name" v="Simobekkjen" />
		<tag k="ssr:stedsnr" v="715850" />
		<tag k="waterway" v="stream" />
	</node>
	<node lat="66.06286388807624" lon="13.03671111572707" id="-11817">
		<tag k="name" v="Rekkedalsbekken" />
		<tag k="ssr:stedsnr" v="743064" />
		<tag k="waterway" v="stream" />
	</node>
	<node lat="66.0615027804502" lon="13.019413893177099" id="-11818">
		<tag k="name" v="Løkvatnet" />
		<tag k="natural" v="water" />
		<tag k="ssr:stedsnr" v="743068" />
	</node>
	<node lat="66.10819722644119" lon="12.83134166483807" id="-11820">
		<tag k="name" v="Øvre Vikavatnet" />
		<tag k="natural" v="water" />
		<tag k="ssr:stedsnr" v="743145" />
	</node>
	<node lat="66.04828333279013" lon="12.68581387967137" id="-11829">
		<tag k="name" v="Øyvatnet" />
		<tag k="natural" v="water" />
		<tag k="ssr:stedsnr" v="743996" />
	</node>
	<node lat="66.1811638891988" lon="13.233430554669892" id="-11832">
		<tag k="fixme" v="multiple name tags, choose one and add the other to alt_name" />
		<tag k="name" v="Austvikelva;Storelva" />
		<tag k="ssr:stedsnr" v="744402" />
		<tag k="waterway" v="river" />
	</node>
	<node lat="66.08089721821774" lon="13.036469443073038" id="-11845">
		<tag k="name" v="Langbekkjen" />
		<tag k="ssr:stedsnr" v="774251" />
		<tag k="waterway" v="stream" />
	</node>
	<node lat="66.11428333362565" lon="13.050074996036011" id="-11851">
		<tag k="name" v="Lussidalselva" />
		<tag k="ssr:stedsnr" v="775446" />
		<tag k="waterway" v="river" />
	</node>
	<node lat="66.12126944053854" lon="12.847322212842707" id="-11875">
		<tag k="name" v="Stollmyrbekkjen" />
		<tag k="ssr:stedsnr" v="775942" />
		<tag k="waterway" v="stream" />
	</node>
	<node lat="66.05813055898021" lon="13.080299993963198" id="-11877">
		<tag k="name" v="Dalvatnet" />
		<tag k="natural" v="water" />
		<tag k="ssr:stedsnr" v="804048" />
		<tag k="water" v="lake" />
	</node>
	<node lat="66.00897499743229" lon="13.066433340258847" id="-11879">
		<tag k="name" v="Stornylandsvatnan" />
		<tag k="natural" v="water" />
		<tag k="ssr:stedsnr" v="804140" />
	</node>
	<node lat="66.1097694424906" lon="12.849133341467851" id="-11882">
		<tag k="name" v="Lomsvatnet" />
		<tag k="natural" v="water" />
		<tag k="ssr:stedsnr" v="804153" />
	</node>
	<node lat="66.10260277592202" lon="12.789825001135807" id="-11887">
		<tag k="alt_name" v="Merkebekkjen" />
		<tag k="name" v="Merkebekken" />
		<tag k="ssr:stedsnr" v="804164" />
		<tag k="waterway" v="stream" />
	</node>
	<node lat="66.13087499781481" lon="12.890369441559722" id="-11891">
		<tag k="name" v="Svartvatnet" />
		<tag k="natural" v="water" />
		<tag k="ssr:stedsnr" v="804178" />
	</node>
	<node lat="66.08868055565272" lon="13.058005545216112" id="-11896">
		<tag k="name" v="Storforsen" />
		<tag k="natural" v="waterfall" />
		<tag k="ssr:stedsnr" v="804263" />
	</node>
	<node lat="66.09803332930656" lon="13.057769441482119" id="-11898">
		<tag k="fixme" v="multiple name tags, choose one and add the other to alt_name" />
		<tag k="name" v="Håmannbekken;Håmanndalsbekkjen" />
		<tag k="ssr:stedsnr" v="804283" />
		<tag k="waterway" v="stream" />
	</node>
	<node lat="66.11618610925588" lon="12.825869445219503" id="-11925">
		<tag k="name" v="Geitnesbekkjen" />
		<tag k="ssr:stedsnr" v="836416" />
		<tag k="waterway" v="stream" />
	</node>
	<node lat="66.01981667026" lon="12.951855564159942" id="-11945">
		<tag k="name" v="Dagsvikelva" />
		<tag k="ssr:stedsnr" v="865014" />
		<tag k="waterway" v="river" />
	</node>
	<node lat="66.04748888929362" lon="13.160044455268823" id="-11946">
		<tag k="name" v="Forslandselva" />
		<tag k="ssr:stedsnr" v="865029" />
		<tag k="waterway" v="river" />
	</node>
	<node lat="66.04073332975504" lon="13.088797218399119" id="-11947">
		<tag k="alt_name" v="Bjønnåga" />
		<tag k="name" v="Bjørnåga" />
		<tag k="ssr:stedsnr" v="865031" />
		<tag k="waterway" v="stream" />
	</node>
	<node lat="66.06880277908922" lon="13.048833324482688" id="-11952">
		<tag k="name" v="Forslandsvatnet" />
		<tag k="natural" v="water" />
		<tag k="ssr:stedsnr" v="865087" />
		<tag k="water" v="lake" />
	</node>
	<node lat="65.99011944176962" lon="12.815350000020628" id="-11954">
		<tag k="name" v="Leirvikelva" />
		<tag k="ssr:stedsnr" v="865091" />
		<tag k="waterway" v="stream" />
	</node>
	<node lat="66.11490278037003" lon="12.89555555827496" id="-11960">
		<tag k="name" v="Grønnlivatnet" />
		<tag k="natural" v="water" />
		<tag k="ssr:stedsnr" v="865169" />
	</node>
	<node lat="66.08876944345627" lon="12.955941660165864" id="-11964">
		<tag k="name" v="Simsøvatnet" />
		<tag k="natural" v="water" />
		<tag k="ssr:stedsnr" v="865259" />
		<tag k="water" v="lake" />
	</node>
	<node lat="66.08547222199152" lon="13.030072215663212" id="-11966">
		<tag k="name" v="Breilandselva" />
		<tag k="ssr:stedsnr" v="865272" />
		<tag k="waterway" v="river" />
	</node>
	<node lat="66.10413055686521" lon="13.132852788349934" id="-11967">
		<tag k="alt_name" v="Engelva" />
		<tag k="name" v="Engeelva" />
		<tag k="ssr:stedsnr" v="865281" />
		<tag k="waterway" v="stream" />
	</node>
	<node lat="66.12425290670282" lon="13.295910577336164" id="-11976">
		<tag k="name" v="Sørelva" />
		<tag k="ssr:stedsnr" v="865521" />
		<tag k="waterway" v="stream" />
	</node>
	<node lat="66.06602221966672" lon="13.05971665769186" id="-11981">
		<tag k="name" v="Forslandselva" />
		<tag k="ssr:stedsnr" v="875330" />
		<tag k="waterway" v="river" />
	</node>
	<node lat="65.97860833408002" lon="12.747591673528666" id="-11989">
		<tag k="name" v="Heimerelva" />
		<tag k="ssr:stedsnr" v="955096" />
		<tag k="waterway" v="stream" />
	</node>
	<node lat="66.10350555683311" lon="12.764233336251415" id="-11997">
		<tag k="name" v="Leirbekkjen" />
		<tag k="ssr:stedsnr" v="957433" />
		<tag k="waterway" v="stream" />
	</node>
	<node lat="66.07512500237324" lon="12.804286117928413" id="-12015">
		<tag k="name" v="Vassmyrbekkjen" />
		<tag k="ssr:stedsnr" v="957787" />
		<tag k="waterway" v="stream" />
	</node>
	<node lat="66.12598888532077" lon="12.875694442563237" id="-12019">
		<tag k="name" v="Yttervatnet" />
		<tag k="natural" v="water" />
		<tag k="ssr:stedsnr" v="957966" />
		<tag k="water" v="lake" />
=======
	<node id="-134375" lat="66.1108999966" lon="13.0941166723">
		<tag k="name" v="Svarttjønna" />
		<tag k="natural" v="water" />
		<tag k="ssr:stedsnr" v="532358" />
	</node>
	<node id="-133348" lat="66.0715722221" lon="13.0459916604">
		<tag k="name" v="Åselva" />
		<tag k="ssr:stedsnr" v="290825" />
		<tag k="waterway" v="river" />
	</node>
	<node id="-134368" lat="66.0627916645" lon="12.7190638908">
		<tag k="name" v="Reinesbekkjen" />
		<tag k="ssr:stedsnr" v="531145" />
		<tag k="waterway" v="stream" />
	</node>
	<node id="-133483" lat="66.0807555568" lon="13.0811000005">
		<tag k="name" v="Nilslaneset" />
		<tag k="natural" v="cape" />
		<tag k="ssr:stedsnr" v="471141" />
	</node>
	<node id="-133853" lat="66.053950003" lon="13.2079944486">
		<tag k="name" v="Nedre Simåvatnet" />
		<tag k="natural" v="water" />
		<tag k="ssr:stedsnr" v="926027" />
	</node>
	<node id="-133498" lat="66.1072527818" lon="12.8221361106">
		<tag k="name" v="Litl-Vikavatnet" />
		<tag k="natural" v="water" />
		<tag k="ssr:stedsnr" v="471478" />
	</node>
	<node id="-133338" lat="66.0528333322" lon="12.8731805661">
		<tag k="name" v="Ytterforlibekken" />
		<tag k="ssr:stedsnr" v="290675" />
		<tag k="waterway" v="stream" />
	</node>
	<node id="-134361" lat="66.0916416686" lon="13.1256222274">
		<tag k="name" v="Brenneset" />
		<tag k="natural" v="cape" />
		<tag k="ssr:stedsnr" v="531227" />
	</node>
	<node id="-133848" lat="66.1734944436" lon="13.3913555521">
		<tag k="loc_name" v="Lille Hansivatn" />
		<tag k="name" v="Nervatnet" />
		<tag k="natural" v="water" />
		<tag k="ssr:stedsnr" v="925419" />
	</node>
	<node id="-133807" lat="66.0628638881" lon="13.0367111157">
		<tag k="name" v="Rekkedalsbekken" />
		<tag k="ssr:stedsnr" v="743064" />
		<tag k="waterway" v="stream" />
	</node>
	<node id="-133840" lat="66.0109111143" lon="12.8669444536">
		<tag k="name" v="Hellesvikelva" />
		<tag k="ssr:stedsnr" v="925005" />
		<tag k="waterway" v="stream" />
	</node>
	<node id="-133581" lat="66.1138277773" lon="13.10100556">
		<tag k="name" v="Sørlaforsen" />
		<tag k="natural" v="waterfall" />
		<tag k="ssr:stedsnr" v="411361" />
	</node>
	<node id="-134347" lat="66.2136388899" lon="13.3858166634">
		<tag k="name" v="Bardalselva" />
		<tag k="ssr:stedsnr" v="411849" />
		<tag k="waterway" v="river" />
	</node>
	<node id="-134346" lat="66.2167583352" lon="13.3770861114">
		<tag k="name" v="Vabekkjen" />
		<tag k="ssr:stedsnr" v="411843" />
		<tag k="waterway" v="stream" />
	</node>
	<node id="-133320" lat="66.0668833316" lon="12.7655555502">
		<tag k="name" v="Mølnhusfossen" />
		<tag k="natural" v="waterfall" />
		<tag k="ssr:stedsnr" v="289072" />
	</node>
	<node id="-133319" lat="66.0827777761" lon="13.095694435">
		<tag k="name" v="Vatnforsen" />
		<tag k="natural" v="waterfall" />
		<tag k="ssr:stedsnr" v="289129" />
	</node>
	<node id="-133492" lat="66.0813249971" lon="12.873494442">
		<tag k="name" v="Almåsbekkjen" />
		<tag k="ssr:stedsnr" v="471291" />
		<tag k="waterway" v="stream" />
	</node>
	<node id="-133813" lat="66.1764500036" lon="13.4125638801">
		<tag k="alt_name" v="Nonsvatnet, l" />
		<tag k="name" v="Litle Nonsvatnet" />
		<tag k="natural" v="water" />
		<tag k="ssr:stedsnr" v="743410" />
	</node>
	<node id="-133808" lat="66.0615027805" lon="13.0194138932">
		<tag k="name" v="Løkvatnet" />
		<tag k="natural" v="water" />
		<tag k="ssr:stedsnr" v="743068" />
	</node>
	<node id="-133832" lat="66.0524972222" lon="12.8762722256">
		<tag k="name" v="Innerforlibekken" />
		<tag k="ssr:stedsnr" v="775717" />
		<tag k="waterway" v="stream" />
	</node>
	<node id="-133801" lat="66.1238027816" lon="12.8561361109">
		<tag k="name" v="Munnstabekkjen" />
		<tag k="ssr:stedsnr" v="897921" />
		<tag k="waterway" v="stream" />
	</node>
	<node id="-134311" lat="66.08737222" lon="13.1109444508">
		<tag k="name" v="Olderneset" />
		<tag k="natural" v="cape" />
		<tag k="ssr:stedsnr" v="410219" />
	</node>
	<node id="-134310" lat="66.072458108" lon="12.7713151386">
		<tag k="name" v="Vasshøvet" />
		<tag k="place" v="locality" />
		<tag k="ssr:stedsnr" v="410157" />
	</node>
	<node id="-133489" lat="66.0865361085" lon="13.0955888973">
		<tag k="name" v="Solvollbekkjen" />
		<tag k="ssr:stedsnr" v="471220" />
		<tag k="waterway" v="stream" />
	</node>
	<node id="-134308" lat="66.0657722236" lon="12.7664361017">
		<tag k="name" v="Ulvangselva" />
		<tag k="ssr:stedsnr" v="410074" />
		<tag k="waterway" v="stream" />
	</node>
	<node id="-133786" lat="66.0634444444" lon="13.0679499998">
		<tag k="name" v="Langforsen" />
		<tag k="natural" v="waterfall" />
		<tag k="ssr:stedsnr" v="897808" />
	</node>
	<node id="-134297" lat="66.1046722222" lon="12.9705194438">
		<tag k="name" v="Bålskardlivatnan" />
		<tag k="natural" v="water" />
		<tag k="ssr:stedsnr" v="379238" />
	</node>
	<node id="-133271" lat="66.1784666686" lon="13.1865083306">
		<tag k="name" v="Neppelbergelva" />
		<tag k="ssr:stedsnr" v="258189" />
		<tag k="waterway" v="stream" />
	</node>
	<node id="-134293" lat="66.0783305546" lon="12.9884833306">
		<tag k="name" v="Oksvatnet" />
		<tag k="natural" v="water" />
		<tag k="ssr:stedsnr" v="379207" />
	</node>
	<node id="-133267" lat="66.1240027777" lon="13.1734638996">
		<tag k="name" v="Manglåvatnan" />
		<tag k="natural" v="water" />
		<tag k="ssr:stedsnr" v="258150" />
		<tag k="water" v="lake" />
	</node>
	<node id="-133266" lat="66.1116555532" lon="12.8369333341">
		<tag k="name" v="Nedre Vikavatnet" />
		<tag k="natural" v="water" />
		<tag k="ssr:stedsnr" v="258147" />
	</node>
	<node id="-133264" lat="65.9679750018" lon="12.7541000106">
		<tag k="name" v="Blåskjæret" />
		<tag k="place" v="islet" />
		<tag k="ssr:stedsnr" v="258126" />
	</node>
	<node id="-133774" lat="66.0999277739" lon="13.1254138854">
		<tag k="name" v="Urengebukta" />
		<tag k="natural" v="bay" />
		<tag k="ssr:stedsnr" v="897386" />
	</node>
	<node id="-133485" lat="66.0622999972" lon="12.7568277738">
		<tag k="name" v="Langbekkjen" />
		<tag k="ssr:stedsnr" v="471150" />
		<tag k="waterway" v="stream" />
	</node>
	<node id="-133260" lat="66.0883833361" lon="12.9762777792">
		<tag k="name" v="Svartvatnet" />
		<tag k="natural" v="water" />
		<tag k="ssr:stedsnr" v="258230" />
	</node>
	<node id="-134279" lat="66.0360694466" lon="12.9739166698">
		<tag k="alt_name" v="Labekken" />
		<tag k="name" v="Labekkjen" />
		<tag k="ssr:stedsnr" v="379014" />
		<tag k="waterway" v="stream" />
	</node>
	<node id="-134276" lat="66.1273944471" lon="13.1524916567">
		<tag k="name" v="Grasneset" />
		<tag k="natural" v="cape" />
		<tag k="ssr:stedsnr" v="350978" />
	</node>
	<node id="-134786" lat="66.1259888853" lon="12.8756944426">
		<tag k="name" v="Yttervatnet" />
		<tag k="natural" v="water" />
		<tag k="ssr:stedsnr" v="957966" />
		<tag k="water" v="lake" />
	</node>
	<node id="-134273" lat="66.1596833379" lon="13.1012083264">
		<tag k="name" v="Klubbelva" />
		<tag k="ssr:stedsnr" v="350899" />
		<tag k="waterway" v="stream" />
	</node>
	<node id="-134272" lat="66.0668499981" lon="12.8361972255">
		<tag k="name" v="Meisfjordøra" />
		<tag k="natural" v="cape" />
		<tag k="ssr:stedsnr" v="350799" />
	</node>
	<node id="-133246" lat="66.1253444472" lon="13.1269111173">
		<tag k="name" v="Segelforsbekkjen" />
		<tag k="ssr:stedsnr" v="229974" />
		<tag k="waterway" v="stream" />
	</node>
	<node id="-133534" lat="66.0794611076" lon="12.7481472301">
		<tag k="name" v="Livatnan" />
		<tag k="natural" v="water" />
		<tag k="ssr:stedsnr" v="318179" />
	</node>
	<node id="-133239" lat="66.0519722212" lon="12.9814194513">
		<tag k="name" v="Lomtjønna" />
		<tag k="natural" v="water" />
		<tag k="ssr:stedsnr" v="229697" />
	</node>
	<node id="-134773" lat="66.0751250024" lon="12.8042861179">
		<tag k="name" v="Vassmyrbekkjen" />
		<tag k="ssr:stedsnr" v="957787" />
		<tag k="waterway" v="stream" />
	</node>
	<node id="-133234" lat="66.1016694461" lon="13.0795472153">
		<tag k="name" v="Mølnbekkjen" />
		<tag k="ssr:stedsnr" v="229398" />
		<tag k="waterway" v="stream" />
	</node>
	<node id="-133231" lat="66.105427781" lon="13.0806555545">
		<tag k="name" v="Laremmbekkjen" />
		<tag k="ssr:stedsnr" v="229383" />
		<tag k="waterway" v="stream" />
	</node>
	<node id="-133225" lat="66.1086472193" lon="12.7940027706">
		<tag k="name" v="Laholmbekkjen" />
		<tag k="ssr:stedsnr" v="228549" />
		<tag k="waterway" v="stream" />
	</node>
	<node id="-133735" lat="65.9733277807" lon="12.728194438">
		<tag k="name" v="Bekkjen" />
		<tag k="ssr:stedsnr" v="895076" />
		<tag k="waterway" v="stream" />
	</node>
	<node id="-134241" lat="66.0899611145" lon="13.1213639004">
		<tag k="name" v="Vasshøvet" />
		<tag k="place" v="locality" />
		<tag k="ssr:stedsnr" v="349243" />
	</node>
	<node id="-134752" lat="66.0798749969" lon="12.9460055631">
		<tag k="name" v="Simsøelva" />
		<tag k="ssr:stedsnr" v="956226" />
		<tag k="waterway" v="stream" />
	</node>
	<node id="-133904" lat="66.1161861093" lon="12.8258694452">
		<tag k="name" v="Geitnesbekkjen" />
		<tag k="ssr:stedsnr" v="836416" />
		<tag k="waterway" v="stream" />
	</node>
	<node id="-133724" lat="66.1270805535" lon="13.2736666738">
		<tag k="name" v="Nordelva" />
		<tag k="ssr:stedsnr" v="683464" />
		<tag k="waterway" v="stream" />
	</node>
	<node id="-133723" lat="66.1706222224" lon="13.3977444482">
		<tag k="loc_name" v="Stor Hansivatnet;Hansivatnet" />
		<tag k="name" v="Litle Hansfinnvatnet" />
		<tag k="natural" v="water" />
		<tag k="ssr:stedsnr" v="683372" />
	</node>
	<node id="-133721" lat="66.0901027822" lon="13.0356361089">
		<tag k="alt_name" v="Markvollbekkjen" />
		<tag k="name" v="Markvollbekken" />
		<tag k="ssr:stedsnr" v="683218" />
		<tag k="waterway" v="stream" />
	</node>
	<node id="-134231" lat="66.0795638904" lon="12.8924611182">
		<tag k="name" v="Storelva" />
		<tag k="ssr:stedsnr" v="329430" />
		<tag k="waterway" v="river" />
	</node>
	<node id="-133205" lat="66.1328805519" lon="13.3120333284">
		<tag k="name" v="Helltjønna" />
		<tag k="natural" v="water" />
		<tag k="ssr:stedsnr" v="15510" />
	</node>
	<node id="-134740" lat="65.9786083341" lon="12.7475916735">
		<tag k="name" v="Heimerelva" />
		<tag k="ssr:stedsnr" v="955096" />
		<tag k="waterway" v="stream" />
	</node>
	<node id="-133202" lat="66.1090000034" lon="12.8150305457">
		<tag k="alt_name" v="Vikaelva" />
		<tag k="name" v="Vikjaelva" />
		<tag k="ssr:stedsnr" v="15131" />
		<tag k="waterway" v="stream" />
	</node>
	<node id="-133713" lat="66.1773666674" lon="13.4059888869">
		<tag k="name" v="Porjus" />
		<tag k="natural" v="water" />
		<tag k="ssr:stedsnr" v="682415" />
	</node>
	<node id="-134736" lat="66.0660222197" lon="13.0597166577">
		<tag k="name" v="Forslandselva" />
		<tag k="ssr:stedsnr" v="875330" />
		<tag k="waterway" v="river" />
	</node>
	<node id="-134220" lat="66.0795611125" lon="12.892458324">
		<tag k="fixme" v="multiple name tags, choose one and add the other to alt_name" />
		<tag k="name" v="Bøelva;Nordelva;Storelva" />
		<tag k="ssr:stedsnr" v="319204" />
		<tag k="waterway" v="river" />
	</node>
	<node id="-134731" lat="66.1242529067" lon="13.2959105773">
		<tag k="name" v="Sørelva" />
		<tag k="ssr:stedsnr" v="865521" />
		<tag k="waterway" v="stream" />
	</node>
	<node id="-133703" lat="66.0529638904" lon="13.0163472169">
		<tag k="name" v="Kjerringforsen" />
		<tag k="natural" v="waterfall" />
		<tag k="ssr:stedsnr" v="654422" />
	</node>
	<node id="-134726" lat="66.1041305569" lon="13.1328527883">
		<tag k="alt_name" v="Engelva" />
		<tag k="name" v="Engeelva" />
		<tag k="ssr:stedsnr" v="865281" />
		<tag k="waterway" v="stream" />
	</node>
	<node id="-134725" lat="66.085472222" lon="13.0300722157">
		<tag k="name" v="Breilandselva" />
		<tag k="ssr:stedsnr" v="865272" />
		<tag k="waterway" v="river" />
	</node>
	<node id="-134723" lat="66.0887694435" lon="12.9559416602">
		<tag k="name" v="Simsøvatnet" />
		<tag k="natural" v="water" />
		<tag k="ssr:stedsnr" v="865259" />
		<tag k="water" v="lake" />
	</node>
	<node id="-134209" lat="66.1177388912" lon="12.8300694456">
		<tag k="name" v="Sørelva" />
		<tag k="ssr:stedsnr" v="318113" />
		<tag k="waterway" v="stream" />
	</node>
	<node id="-134720" lat="66.1149027804" lon="12.8955555583">
		<tag k="name" v="Grønnlivatnet" />
		<tag k="natural" v="water" />
		<tag k="ssr:stedsnr" v="865169" />
	</node>
	<node id="-133728" lat="65.9848055515" lon="12.777522221">
		<tag k="name" v="Grytelva" />
		<tag k="ssr:stedsnr" v="894080" />
		<tag k="waterway" v="stream" />
	</node>
	<node id="-134206" lat="66.1136388921" lon="13.1361527719">
		<tag k="name" v="Dyrtjønna" />
		<tag k="natural" v="water" />
		<tag k="ssr:stedsnr" v="318234" />
	</node>
	<node id="-134205" lat="66.0989499958" lon="12.8332805651">
		<tag k="name" v="Vesterdalsvatnet" />
		<tag k="natural" v="water" />
		<tag k="ssr:stedsnr" v="318233" />
	</node>
	<node id="-134204" lat="66.0882277742" lon="12.7367499891">
		<tag k="name" v="Sørlielva" />
		<tag k="ssr:stedsnr" v="318232" />
		<tag k="waterway" v="stream" />
	</node>
	<node id="-134714" lat="65.9901194418" lon="12.81535">
		<tag k="name" v="Leirvikelva" />
		<tag k="ssr:stedsnr" v="865091" />
		<tag k="waterway" v="stream" />
	</node>
	<node id="-134712" lat="66.0688027791" lon="13.0488333245">
		<tag k="name" v="Forslandsvatnet" />
		<tag k="natural" v="water" />
		<tag k="ssr:stedsnr" v="865087" />
		<tag k="water" v="lake" />
	</node>
	<node id="-134198" lat="66.073305552" lon="12.905641672">
		<tag k="fixme" v="multiple name tags, choose one and add the other to alt_name" />
		<tag k="name" v="Litlelva;Løkåselva" />
		<tag k="ssr:stedsnr" v="198176" />
		<tag k="waterway" v="river" />
	</node>
	<node id="-134196" lat="65.9764527776" lon="12.9140555602">
		<tag k="name" v="Kjerkebekken" />
		<tag k="ssr:stedsnr" v="198096" />
		<tag k="waterway" v="stream" />
	</node>
	<node id="-134707" lat="66.0407333298" lon="13.0887972184">
		<tag k="alt_name" v="Bjønnåga" />
		<tag k="name" v="Bjørnåga" />
		<tag k="ssr:stedsnr" v="865031" />
		<tag k="waterway" v="stream" />
	</node>
	<node id="-134706" lat="66.0474888893" lon="13.1600444553">
		<tag k="name" v="Forslandselva" />
		<tag k="ssr:stedsnr" v="865029" />
		<tag k="waterway" v="river" />
	</node>
	<node id="-133555" lat="66.127586111" lon="13.1629166584">
		<tag k="alt_name" v="Manglåga" />
		<tag k="name" v="Mangelåga" />
		<tag k="ssr:stedsnr" v="500154" />
		<tag k="waterway" v="stream" />
	</node>
	<node id="-133680" lat="66.0749111131" lon="12.9251166675">
		<tag k="name" v="Simobekkjen" />
		<tag k="ssr:stedsnr" v="715850" />
		<tag k="waterway" v="stream" />
	</node>
	<node id="-133779" lat="66.1147888874" lon="13.089075005">
		<tag k="name" v="Bjønneset" />
		<tag k="natural" v="cape" />
		<tag k="ssr:stedsnr" v="897443" />
	</node>
	<node id="-134702" lat="66.1336416683" lon="13.1675749902">
		<tag k="name" v="Heggelundnesan" />
		<tag k="natural" v="cape" />
		<tag k="ssr:stedsnr" v="836996" />
	</node>
	<node id="-134701" lat="66.1328722256" lon="13.1709416566">
		<tag k="name" v="Slåttneset" />
		<tag k="natural" v="cape" />
		<tag k="ssr:stedsnr" v="836995" />
	</node>
	<node id="-134188" lat="66.1266333345" lon="12.8810583302">
		<tag k="name" v="Kvannbakkvatnan" />
		<tag k="natural" v="water" />
		<tag k="ssr:stedsnr" v="198134" />
	</node>
	<node id="-134187" lat="66.1358305599" lon="13.065472216">
		<tag k="name" v="Sørdalselva" />
		<tag k="ssr:stedsnr" v="198121" />
		<tag k="waterway" v="stream" />
	</node>
	<node id="-134705" lat="66.0198166703" lon="12.9518555642">
		<tag k="name" v="Dagsvikelva" />
		<tag k="ssr:stedsnr" v="865014" />
		<tag k="waterway" v="river" />
	</node>
	<node id="-133673" lat="66.1547333356" lon="13.1016749983">
		<tag k="name" v="Mølnbekkjen" />
		<tag k="ssr:stedsnr" v="714909" />
		<tag k="waterway" v="stream" />
	</node>
	<node id="-134184" lat="66.1805138921" lon="13.2479472187">
		<tag k="name" v="Svartåga" />
		<tag k="ssr:stedsnr" v="197470" />
		<tag k="waterway" v="stream" />
	</node>
	<node id="-134183" lat="66.078616664" lon="13.1959805478">
		<tag k="name" v="Simåvatnan" />
		<tag k="natural" v="water" />
		<tag k="ssr:stedsnr" v="197248" />
		<tag k="water" v="lake" />
	</node>
	<node id="-134176" lat="66.2157805594" lon="13.401736103">
		<tag k="name" v="Tverrelva" />
		<tag k="ssr:stedsnr" v="197088" />
		<tag k="waterway" v="stream" />
	</node>
	<node id="-134175" lat="66.1330166642" lon="13.176963897">
		<tag k="name" v="Hububekkjen" />
		<tag k="ssr:stedsnr" v="168998" />
		<tag k="waterway" v="stream" />
	</node>
	<node id="-134686" lat="66.1132916705" lon="13.1136166766">
		<tag k="name" v="Skjellbekkjen" />
		<tag k="ssr:stedsnr" v="836334" />
		<tag k="waterway" v="stream" />
	</node>
	<node id="-134685" lat="66.0831194411" lon="12.8399722216">
		<tag k="name" v="Fjellåsbekkjen" />
		<tag k="ssr:stedsnr" v="836287" />
		<tag k="waterway" v="stream" />
	</node>
	<node id="-134171" lat="66.1268250035" lon="12.8919055652">
		<tag k="name" v="Kvannbakkelva" />
		<tag k="ssr:stedsnr" v="168970" />
		<tag k="waterway" v="stream" />
	</node>
	<node id="-134170" lat="66.1269416648" lon="12.8836499902">
		<tag k="name" v="Innervatnet" />
		<tag k="natural" v="water" />
		<tag k="ssr:stedsnr" v="168968" />
		<tag k="water" v="lake" />
	</node>
	<node id="-133657" lat="66.1428333357" lon="13.1683083272">
		<tag k="name" v="Mølnbekkjen" />
		<tag k="ssr:stedsnr" v="593915" />
		<tag k="waterway" v="stream" />
	</node>
	<node id="-133892" lat="66.0831750033" lon="13.0989861085">
		<tag k="name" v="Sommarsetforsen" />
		<tag k="natural" v="waterfall" />
		<tag k="ssr:stedsnr" v="835154" />
	</node>
	<node id="-133562" lat="66.1807999975" lon="13.4182833325">
		<tag k="name" v="Storteinvatnet" />
		<tag k="natural" v="water" />
		<tag k="ssr:stedsnr" v="500437" />
	</node>
	<node id="-134675" lat="66.0843333366" lon="13.0908250069">
		<tag k="name" v="Nesan" />
		<tag k="natural" v="cape" />
		<tag k="ssr:stedsnr" v="835148" />
	</node>
	<node id="-133223" lat="66.0827027766" lon="12.9190166614">
		<tag k="name" v="Litlelva" />
		<tag k="ssr:stedsnr" v="228311" />
		<tag k="waterway" v="stream" />
	</node>
	<node id="-134672" lat="66.1028805569" lon="13.0713583239">
		<tag k="name" v="Ranelva" />
		<tag k="ssr:stedsnr" v="805116" />
		<tag k="waterway" v="river" />
	</node>
	<node id="-134157" lat="66.047158335" lon="13.1093972121">
		<tag k="name" v="Simaforsen" />
		<tag k="natural" v="waterfall" />
		<tag k="ssr:stedsnr" v="168448" />
	</node>
	<node id="-133634" lat="66.1545555547" lon="13.1669527772">
		<tag k="name" v="Storvatnet" />
		<tag k="natural" v="water" />
		<tag k="ssr:stedsnr" v="561162" />
	</node>
	<node id="-133207" lat="66.1288194443" lon="12.9627249965">
		<tag k="name" v="Mangvatnan" />
		<tag k="natural" v="water" />
		<tag k="ssr:stedsnr" v="16120" />
	</node>
	<node id="-134664" lat="66.1785361103" lon="13.2821416656">
		<tag k="name" v="Litlvatnet" />
		<tag k="natural" v="water" />
		<tag k="ssr:stedsnr" v="804453" />
	</node>
	<node id="-134660" lat="66.0980333293" lon="13.0577694415">
		<tag k="fixme" v="multiple name tags, choose one and add the other to alt_name" />
		<tag k="name" v="Håmannbekken;Håmanndalsbekkjen" />
		<tag k="ssr:stedsnr" v="804283" />
		<tag k="waterway" v="stream" />
	</node>
	<node id="-134658" lat="66.0886805557" lon="13.0580055452">
		<tag k="name" v="Storforsen" />
		<tag k="natural" v="waterfall" />
		<tag k="ssr:stedsnr" v="804263" />
	</node>
	<node id="-133633" lat="66.0023083303" lon="13.1299333274">
		<tag k="name" v="Hestvatnan" />
		<tag k="natural" v="water" />
		<tag k="ssr:stedsnr" v="561119" />
>>>>>>> e1d4bc35ff8a6074a6f2e91616a996b547c36f15
	</node>
</osm>
