<?xml version="1.0" encoding="UTF-8"?>
<osm generator="osmapis" version="0.6">
	<node id="-127485" lat="66.0505361146" lon="12.7790888932">
		<tag k="name" v="Åvik" />
		<tag k="place" v="farm" />
		<tag k="ssr:stedsnr" v="47626" />
	</node>
	<node id="-126971" lat="66.0621555523" lon="12.9308333408">
		<tag k="fixme" v="consider place=suburb, village or hamlet" />
		<tag k="name" v="Fagerheim" />
		<tag k="place" v="quarter" />
		<tag k="ssr:stedsnr" v="290854" />
	</node>
	<node id="-127990" lat="66.1579416651" lon="13.1140249942">
		<tag k="name" v="Nordberg" />
		<tag k="place" v="farm" />
		<tag k="ssr:stedsnr" v="593896" />
	</node>
	<node id="-127477" lat="66.1703444408" lon="13.1603111136">
		<tag k="name" v="Gullemoen" />
		<tag k="place" v="farm" />
		<tag k="ssr:stedsnr" v="46916" />
	</node>
	<node id="-127474" lat="66.0786555597" lon="13.0614055501">
		<tag k="amenity" v="school" />
		<tag k="name" v="Leiren skole" />
		<tag k="ssr:stedsnr" v="46249" />
	</node>
	<node id="-127465" lat="66.0151333295" lon="12.9557388895">
		<tag k="name" v="Dalen" />
		<tag k="place" v="farm" />
		<tag k="ssr:stedsnr" v="44479" />
	</node>
	<node id="-127463" lat="66.0685333318" lon="12.9560000065">
		<tag k="name" v="Klubbvang" />
		<tag k="place" v="farm" />
		<tag k="ssr:stedsnr" v="16180" />
	</node>
	<node id="-127462" lat="66.071327775" lon="12.9220666756">
		<tag k="alt_name" v="Langåsen" />
		<tag k="name" v="Langås" />
		<tag k="place" v="farm" />
		<tag k="ssr:stedsnr" v="16178" />
	</node>
	<node id="-127461" lat="66.0399361085" lon="12.6783972235">
		<tag k="name" v="Åsheim" />
		<tag k="place" v="farm" />
		<tag k="ssr:stedsnr" v="15892" />
	</node>
	<node id="-127972" lat="66.01881389" lon="12.8880361076">
		<tag k="name" v="Platen" />
		<tag k="place" v="farm" />
		<tag k="ssr:stedsnr" v="593438" />
	</node>
	<node id="-127459" lat="66.0446333347" lon="12.7057444552">
		<tag k="name" v="Lundvang" />
		<tag k="place" v="farm" />
		<tag k="ssr:stedsnr" v="15884" />
	</node>
	<node id="-127504" lat="66.1535527747" lon="13.0951000006">
		<tag k="name" v="Tryggstad" />
		<tag k="place" v="farm" />
		<tag k="ssr:stedsnr" v="47904" />
	</node>
	<node id="-127457" lat="66.183255554" lon="13.2310833331">
		<tag k="alt_name" v="Austvikja" />
		<tag k="name" v="Austvika" />
		<tag k="place" v="farm" />
		<tag k="ssr:stedsnr" v="15477" />
	</node>
	<node id="-127452" lat="66.0685666662" lon="12.8372333421">
		<tag k="alt_name" v="Meisfjorden" />
		<tag k="name" v="Meisfjord" />
		<tag k="place" v="farm" />
		<tag k="ssr:stedsnr" v="15200" />
	</node>
	<node id="-126939" lat="66.0677611107" lon="12.8452166604">
		<tag k="alt_name" v="Einmoen" />
		<tag k="name" v="Einmo" />
		<tag k="place" v="farm" />
		<tag k="ssr:stedsnr" v="258205" />
	</node>
	<node id="-126935" lat="66.0247055518" lon="12.9525527683">
		<tag k="name" v="Staulen" />
		<tag k="place" v="farm" />
		<tag k="ssr:stedsnr" v="258022" />
	</node>
	<node id="-127957" lat="66.0947555577" lon="13.1157305545">
		<tag k="name" v="Kalvlandet" />
		<tag k="place" v="farm" />
		<tag k="ssr:stedsnr" v="592247" />
	</node>
	<node id="-126930" lat="65.993794449" lon="12.8773111061">
		<tag k="fixme" v="multiple name tags, choose one and add the other to alt_name" />
		<tag k="name" v="Søndre Jystad;Sørenget" />
		<tag k="place" v="farm" />
		<tag k="ssr:stedsnr" v="450456" />
	</node>
	<node id="-126928" lat="66.2210277765" lon="13.3010055535">
		<tag k="name" v="Peperøya" />
		<tag k="place" v="farm" />
		<tag k="ssr:stedsnr" v="242121" />
	</node>
	<node id="-127047" lat="66.1279833366" lon="12.8344694509">
		<tag k="name" v="Holtan" />
		<tag k="place" v="locality" />
		<tag k="ssr:stedsnr" v="350911" />
	</node>
	<node id="-126706" lat="66.0085388914" lon="12.9539138822">
		<tag k="name" v="Langneset" />
		<tag k="place" v="farm" />
		<tag k="ssr:stedsnr" v="227077" />
	</node>
	<node id="-127436" lat="66.0521596829" lon="13.1106506724">
		<tag k="name" v="Forslandsdalen" />
		<tag k="place" v="locality" />
		<tag k="ssr:stedsnr" v="1072474" />
	</node>
	<node id="-127435" lat="66.0692273385" lon="13.0596437582">
		<tag k="fixme" v="consider place=hamlet" />
		<tag k="name" v="Drogsåsen" />
		<tag k="place" v="farm" />
		<tag k="ssr:stedsnr" v="1072472" />
	</node>
	<node id="-127434" lat="66.0778673632" lon="13.0516974362">
		<tag k="fixme" v="consider place=hamlet" />
		<tag k="loc_name" v="Leiro" />
		<tag k="name" v="Leiren" />
		<tag k="place" v="farm" />
		<tag k="ssr:stedsnr" v="1072471" />
	</node>
	<node id="-127433" lat="66.1049555554" lon="12.7702249923">
		<tag k="name" v="Nyrud" />
		<tag k="place" v="isolated_dwelling" />
		<tag k="ssr:stedsnr" v="957435" />
	</node>
	<node id="-126919" lat="66.0685638903" lon="12.8119472299">
		<tag k="name" v="Bakkahaugen" />
		<tag k="place" v="farm" />
		<tag k="ssr:stedsnr" v="229766" />
	</node>
	<node id="-127430" lat="66.0098638895" lon="12.914991662">
		<tag k="name" v="Remmen" />
		<tag k="place" v="locality" />
		<tag k="ssr:stedsnr" v="954005" />
	</node>
	<node id="-127940" lat="66.0732250015" lon="13.0474361096">
		<tag k="name" v="Sjømoen" />
		<tag k="place" v="farm" />
		<tag k="ssr:stedsnr" v="571440" />
	</node>
	<node id="-127939" lat="66.0415652773" lon="12.6919555865">
		<tag k="fixme" v="consider place=hamlet" />
		<tag k="name" v="Ytre Leines" />
		<tag k="place" v="farm" />
		<tag k="ssr:stedsnr" v="571436" />
	</node>
	<node id="-127938" lat="66.0629944447" lon="12.9379055637">
		<tag k="name" v="Bjørsvika" />
		<tag k="place" v="farm" />
		<tag k="ssr:stedsnr" v="571432" />
	</node>
	<node id="-126910" lat="66.1721472224" lon="13.1632111199">
		<tag k="name" v="Solheim" />
		<tag k="place" v="farm" />
		<tag k="ssr:stedsnr" v="228920" />
	</node>
	<node id="-127933" lat="66.1093555518" lon="12.80730556">
		<tag k="alt_name" v="Remma" />
		<tag k="name" v="Remmen" />
		<tag k="place" v="farm" />
		<tag k="ssr:stedsnr" v="561248" />
	</node>
	<node id="-127932" lat="66.1068138909" lon="13.0691916637">
		<tag k="alt_name" v="Melkaremma" />
		<tag k="name" v="Melkarremmen" />
		<tag k="place" v="farm" />
		<tag k="ssr:stedsnr" v="561246" />
	</node>
	<node id="-127929" lat="66.0643444431" lon="12.754655556">
		<tag k="name" v="Lia" />
		<tag k="place" v="farm" />
		<tag k="ssr:stedsnr" v="561223" />
	</node>
	<node id="-127928" lat="66.077947219" lon="13.0372194504">
		<tag k="name" v="Stormoen" />
		<tag k="place" v="farm" />
		<tag k="ssr:stedsnr" v="561218" />
	</node>
	<node id="-127415" lat="66.1581277804" lon="13.0992194557">
		<tag k="name" v="Teigen" />
		<tag k="place" v="farm" />
		<tag k="ssr:stedsnr" v="896924" />
	</node>
	<node id="-127414" lat="66.0788416665" lon="13.0671055598">
		<tag k="name" v="Tennbakken" />
		<tag k="place" v="farm" />
		<tag k="ssr:stedsnr" v="865247" />
	</node>
	<node id="-127925" lat="66.0691055531" lon="13.0391888833">
		<tag k="name" v="Vasslia" />
		<tag k="place" v="farm" />
		<tag k="ssr:stedsnr" v="561202" />
	</node>
	<node id="-127412" lat="66.0712666649" lon="12.8600944529">
		<tag k="name" v="Rishaugen" />
		<tag k="place" v="farm" />
		<tag k="ssr:stedsnr" v="865224" />
	</node>
	<node id="-127411" lat="66.0706749961" lon="12.8099472315">
		<tag k="name" v="Aspåsen" />
		<tag k="place" v="farm" />
		<tag k="ssr:stedsnr" v="865221" />
	</node>
	<node id="-127410" lat="66.0725166658" lon="12.8281388949">
		<tag k="name" v="Åsheim" />
		<tag k="place" v="farm" />
		<tag k="ssr:stedsnr" v="865220" />
	</node>
	<node id="-127104" lat="66.0677638925" lon="12.6756388904">
		<tag k="alt_name" v="Angersnesstranda" />
		<tag k="name" v="Angarsnesstranda" />
		<tag k="place" v="farm" />
		<tag k="ssr:stedsnr" v="683978" />
	</node>
	<node id="-127920" lat="66.0294792013" lon="12.877020765">
		<tag k="alt_name" v="Selvågan" />
		<tag k="fixme" v="consider place=hamlet" />
		<tag k="name" v="Selvågen" />
		<tag k="place" v="farm" />
		<tag k="ssr:stedsnr" v="561029" />
	</node>
	<node id="-126892" lat="66.0800416654" lon="12.9301833347">
		<tag k="name" v="Solhaug" />
		<tag k="place" v="farm" />
		<tag k="ssr:stedsnr" v="440249" />
	</node>
	<node id="-126962" lat="66.2100194455" lon="13.3730472269">
		<tag k="name" v="Solheim" />
		<tag k="place" v="farm" />
		<tag k="ssr:stedsnr" v="289911" />
	</node>
	<node id="-127402" lat="66.2184027748" lon="13.3907583361">
		<tag k="name" v="Bardal Indre" />
		<tag k="place" v="hamlet" />
		<tag k="ssr:stedsnr" v="836861" />
	</node>
	<node id="-126889" lat="66.1725527788" lon="13.1672694342">
		<tag k="name" v="Breirem" />
		<tag k="place" v="farm" />
		<tag k="ssr:stedsnr" v="440222" />
	</node>
	<node id="-126887" lat="66.1551194474" lon="13.0823277675">
		<tag k="name" v="Nordtun" />
		<tag k="place" v="farm" />
		<tag k="ssr:stedsnr" v="440206" />
	</node>
	<node id="-127523" lat="65.9842333337" lon="12.8009277716">
		<tag k="name" v="Leirvika" />
		<tag k="place" v="farm" />
		<tag k="ssr:stedsnr" v="76089" />
	</node>
	<node id="-127907" lat="66.0844000014" lon="12.9152027697">
		<tag k="name" v="Simsø" />
		<tag k="place" v="farm" />
		<tag k="ssr:stedsnr" v="545246" />
	</node>
	<node id="-127906" lat="66.0778305545" lon="12.9199638965">
		<tag k="fixme" v="consider place=hamlet" />
		<tag k="name" v="Simsø" />
		<tag k="place" v="farm" />
		<tag k="ssr:stedsnr" v="545135" />
	</node>
	<node id="-126878" lat="66.2183861131" lon="13.3727416614">
		<tag k="alt_name" v="Yttergården" />
		<tag k="name" v="Bardal Ytre" />
		<tag k="place" v="farm" />
		<tag k="ssr:stedsnr" v="440118" />
	</node>
	<node id="-126874" lat="65.9889388909" lon="12.8524055545">
		<tag k="name" v="Åkvik" />
		<tag k="place" v="hamlet" />
		<tag k="ssr:stedsnr" v="440100" />
	</node>
	<node id="-127383" lat="66.0211083356" lon="12.9410416779">
		<tag k="name" v="Sjøberg" />
		<tag k="place" v="farm" />
		<tag k="ssr:stedsnr" v="834474" />
	</node>
	<node id="-127380" lat="66.0551944445" lon="12.8248777733">
		<tag k="name" v="Ytre Hjartland" />
		<tag k="place" v="farm" />
		<tag k="ssr:stedsnr" v="936474" />
	</node>
	<node id="-127379" lat="66.0776472183" lon="13.025161118">
		<tag k="alt_name" v="Skjåenget" />
		<tag k="name" v="Sjåenget" />
		<tag k="place" v="farm" />
		<tag k="ssr:stedsnr" v="804243" />
	</node>
	<node id="-126866" lat="66.0377682319" lon="12.9568328426">
		<tag k="alt_name" v="Veding" />
		<tag k="fixme" v="consider place=hamlet" />
		<tag k="name" v="Kviting" />
		<tag k="place" v="farm" />
		<tag k="ssr:stedsnr" v="440028" />
	</node>
	<node id="-127889" lat="66.0431694442" lon="12.6948527695">
		<tag k="name" v="Skarpvoll" />
		<tag k="place" v="farm" />
		<tag k="ssr:stedsnr" v="532666" />
	</node>
	<node id="-127887" lat="66.211605556" lon="13.3981972275">
		<tag k="name" v="Nyseth" />
		<tag k="place" v="isolated_dwelling" />
		<tag k="ssr:stedsnr" v="532861" />
	</node>
	<node id="-127374" lat="66.114112715" lon="13.0782002673">
		<tag k="alt_name" v="Skar" />
		<tag k="fixme" v="consider place=hamlet" />
		<tag k="name" v="Skardet" />
		<tag k="place" v="farm" />
		<tag k="ssr:stedsnr" v="804170" />
	</node>
	<node id="-127725" lat="66.0395777779" lon="12.9576388924">
		<tag k="name" v="Remme" />
		<tag k="place" v="farm" />
		<tag k="ssr:stedsnr" v="329431" />
	</node>
	<node id="-126899" lat="66.1867194455" lon="13.3199055461">
		<tag k="name" v="Rytun" />
		<tag k="place" v="farm" />
		<tag k="ssr:stedsnr" v="440442" />
	</node>
	<node id="-126858" lat="66.0529305528" lon="12.7510277875">
		<tag k="name" v="Indre Leines" />
		<tag k="place" v="farm" />
		<tag k="ssr:stedsnr" v="207413" />
	</node>
	<node id="-126871" lat="66.0651222208" lon="12.8954888812">
		<tag k="name" v="Åsvang" />
		<tag k="place" v="farm" />
		<tag k="ssr:stedsnr" v="440074" />
	</node>
	<node id="-126856" lat="66.0304782739" lon="12.9485423979">
		<tag k="alt_name" v="Tjærstad" />
		<tag k="fixme" v="consider place=hamlet" />
		<tag k="name" v="Kjærstad" />
		<tag k="place" v="farm" />
		<tag k="ssr:stedsnr" v="198017" />
	</node>
	<node id="-126853" lat="66.0683583312" lon="12.7939666705">
		<tag k="name" v="Nyheim" />
		<tag k="place" v="farm" />
		<tag k="ssr:stedsnr" v="197215" />
	</node>
	<node id="-127538" lat="66.0691888927" lon="12.9010694415">
		<tag k="name" v="Holten" />
		<tag k="place" v="farm" />
		<tag k="ssr:stedsnr" v="76217" />
	</node>
	<node id="-127874" lat="66.0883750005" lon="12.7260277828">
		<tag k="name" v="Ytre-Sjøvei" />
		<tag k="place" v="farm" />
		<tag k="ssr:stedsnr" v="532306" />
	</node>
	<node id="-126849" lat="66.0121666673" lon="12.9088583355">
		<tag k="name" v="Engberget" />
		<tag k="place" v="farm" />
		<tag k="ssr:stedsnr" v="197131" />
	</node>
	<node id="-127360" lat="66.0830203315" lon="13.0877344578">
		<tag k="alt_name" v="Sommerseth" />
		<tag k="fixme" v="consider place=hamlet" />
		<tag k="name" v="Sommarset" />
		<tag k="place" v="farm" />
		<tag k="ssr:stedsnr" v="926220" />
	</node>
	<node id="-127359" lat="66.0770638848" lon="13.0644416769">
		<tag k="name" v="Elvebakken" />
		<tag k="place" v="farm" />
		<tag k="ssr:stedsnr" v="926218" />
	</node>
	<node id="-127358" lat="66.069258337" lon="12.8246555561">
		<tag k="name" v="Nergård" />
		<tag k="place" v="farm" />
		<tag k="ssr:stedsnr" v="926200" />
	</node>
	<node id="-126845" lat="66.0138833293" lon="12.8852583403">
		<tag k="name" v="Øvergården" />
		<tag k="place" v="farm" />
		<tag k="ssr:stedsnr" v="197004" />
	</node>
	<node id="-127356" lat="66.1631055591" lon="13.1302305565">
		<tag k="name" v="Modalsenget" />
		<tag k="place" v="farm" />
		<tag k="ssr:stedsnr" v="926195" />
	</node>
	<node id="-126842" lat="66.0749333296" lon="12.9037138827">
		<tag k="name" v="Nyheim" />
		<tag k="place" v="farm" />
		<tag k="ssr:stedsnr" v="290834" />
	</node>
	<node id="-127352" lat="66.2198333297" lon="13.4030305573">
		<tag k="name" v="Bojebakk" />
		<tag k="place" v="isolated_dwelling" />
		<tag k="ssr:stedsnr" v="926082" />
	</node>
	<node id="-126868" lat="66.0647351539" lon="13.050275276">
		<tag k="alt_name" v="Langfors" />
		<tag k="fixme" v="consider place=hamlet" />
		<tag k="name" v="Langforsen" />
		<tag k="place" v="farm" />
		<tag k="ssr:stedsnr" v="440065" />
	</node>
	<node id="-126838" lat="66.0736972224" lon="13.0220111165">
		<tag k="name" v="Sør-Osen" />
		<tag k="place" v="farm" />
		<tag k="ssr:stedsnr" v="290795" />
	</node>
	<node id="-126953" lat="66.0244472241" lon="12.9483249962">
		<tag k="name" v="Øverstua" />
		<tag k="place" v="farm" />
		<tag k="ssr:stedsnr" v="287522" />
	</node>
	<node id="-127348" lat="66.0540972259" lon="12.7542861164">
		<tag k="name" v="Solvang" />
		<tag k="place" v="farm" />
		<tag k="ssr:stedsnr" v="926034" />
	</node>
	<node id="-126830" lat="66.0462583375" lon="12.7147583396">
		<tag k="name" v="Volden" />
		<tag k="place" v="farm" />
		<tag k="ssr:stedsnr" v="290592" />
	</node>
	<node id="-126829" lat="66.0514694426" lon="12.7372305623">
		<tag k="name" v="Fundtland" />
		<tag k="place" v="farm" />
		<tag k="ssr:stedsnr" v="290582" />
	</node>
	<node id="-127340" lat="66.0996500025" lon="13.0683055615">
		<tag k="name" v="Storteigen" />
		<tag k="place" v="farm" />
		<tag k="ssr:stedsnr" v="925288" />
	</node>
	<node id="-127378" lat="66.0718527786" lon="12.9312194448">
		<tag k="name" v="Slettbakken" />
		<tag k="place" v="farm" />
		<tag k="ssr:stedsnr" v="804234" />
	</node>
	<node id="-127850" lat="66.0106138928" lon="12.9555888873">
		<tag k="name" v="Seljeremma" />
		<tag k="place" v="isolated_dwelling" />
		<tag k="ssr:stedsnr" v="530067" />
	</node>
	<node id="-126824" lat="66.020619447" lon="12.9110694492">
		<tag k="name" v="Oppsåtan" />
		<tag k="place" v="farm" />
		<tag k="ssr:stedsnr" v="290397" />
	</node>
	<node id="-126780" lat="66.0391722197" lon="12.952908323">
		<tag k="fixme" v="consider place=hamlet" />
		<tag k="name" v="Valberg" />
		<tag k="place" v="farm" />
		<tag k="ssr:stedsnr" v="136030" />
	</node>
	<node id="-127845" lat="66.1557472184" lon="13.1029777833">
		<tag k="name" v="Ytteråsen" />
		<tag k="place" v="hamlet" />
		<tag k="ssr:stedsnr" v="411909" />
	</node>
	<node id="-126890" lat="66.1732888887" lon="13.171302776">
		<tag k="name" v="Neppelberg" />
		<tag k="place" v="farm" />
		<tag k="ssr:stedsnr" v="440225" />
	</node>
	<node id="-128003" lat="66.1840861085" lon="13.2979972186">
		<tag k="alt_name" v="Engåsen" />
		<tag k="name" v="Engås" />
		<tag k="place" v="farm" />
		<tag k="ssr:stedsnr" v="621468" />
	</node>
	<node id="-127205" lat="66.1045944404" lon="12.7773555467">
		<tag k="name" v="Litle Fagervika" />
		<tag k="place" v="farm" />
		<tag k="ssr:stedsnr" v="682159" />
	</node>
	<node id="-127323" lat="66.0414916623" lon="12.9623916661">
		<tag k="name" v="Toppen" />
		<tag k="place" v="farm" />
		<tag k="ssr:stedsnr" v="775509" />
	</node>
	<node id="-126809" lat="66.0672416676" lon="12.9011583364">
		<tag k="name" v="Ørnhaugen" />
		<tag k="place" v="farm" />
		<tag k="ssr:stedsnr" v="168852" />
	</node>
	<node id="-126807" lat="66.0646472233" lon="12.8196055658">
		<tag k="name" v="Volden" />
		<tag k="place" v="farm" />
		<tag k="ssr:stedsnr" v="168802" />
	</node>
	<node id="-127317" lat="66.0112305596" lon="12.9550972227">
		<tag k="name" v="Nyheim" />
		<tag k="place" v="isolated_dwelling" />
		<tag k="ssr:stedsnr" v="773067" />
	</node>
	<node id="-127315" lat="66.1885249974" lon="13.312811101">
		<tag k="name" v="Åsen" />
		<tag k="place" v="farm" />
		<tag k="ssr:stedsnr" v="744373" />
	</node>
	<node id="-127111" lat="66.0531694482" lon="12.7503749955">
		<tag k="name" v="Skjøråsvik" />
		<tag k="place" v="farm" />
		<tag k="ssr:stedsnr" v="532619" />
	</node>
	<node id="-127821" lat="66.0854527734" lon="12.7237861213">
		<tag k="name" v="Vollen" />
		<tag k="place" v="farm" />
		<tag k="ssr:stedsnr" v="411314" />
	</node>
	<node id="-127308" lat="66.0815499968" lon="12.7048611136">
		<tag k="name" v="Forneset" />
		<tag k="place" v="farm" />
		<tag k="ssr:stedsnr" v="743957" />
	</node>
	<node id="-126793" lat="66.0189249994" lon="12.9490222298">
		<tag k="name" v="Strand" />
		<tag k="place" v="farm" />
		<tag k="ssr:stedsnr" v="166493" />
	</node>
	<node id="-127304" lat="66.1102000011" lon="13.1004555515">
		<tag k="name" v="Tovåsen" />
		<tag k="place" v="farm" />
		<tag k="ssr:stedsnr" v="743264" />
	</node>
	<node id="-127815" lat="66.1603527762" lon="13.1001833389">
		<tag k="name" v="Fredheim" />
		<tag k="place" v="farm" />
		<tag k="ssr:stedsnr" v="410918" />
	</node>
	<node id="-126787" lat="66.0594500038" lon="12.7396833397">
		<tag k="name" v="Haugan" />
		<tag k="place" v="farm" />
		<tag k="ssr:stedsnr" v="137042" />
	</node>
	<node id="-126786" lat="66.063064616" lon="12.8086615971">
		<tag k="alt_name" v="Båtstø" />
		<tag k="fixme" v="consider place=hamlet" />
		<tag k="name" v="Båtstøa" />
		<tag k="place" v="farm" />
		<tag k="ssr:stedsnr" v="137039" />
	</node>
	<node id="-126785" lat="66.0725500002" lon="12.8740138901">
		<tag k="name" v="Løkåsen" />
		<tag k="place" v="farm" />
		<tag k="ssr:stedsnr" v="136227" />
	</node>
	<node id="-126784" lat="66.0648555519" lon="12.7767638839">
		<tag k="name" v="Halsen" />
		<tag k="place" v="farm" />
		<tag k="ssr:stedsnr" v="136222" />
	</node>
	<node id="-126783" lat="66.1612722206" lon="13.1031499892">
		<tag k="name" v="Nyheim" />
		<tag k="place" v="farm" />
		<tag k="ssr:stedsnr" v="136216" />
	</node>
	<node id="-127292" lat="66.1609555574" lon="13.1135916568">
		<tag k="name" v="Korsveien" />
		<tag k="place" v="farm" />
		<tag k="ssr:stedsnr" v="897890" />
	</node>
	<node id="-127626" lat="66.069444448" lon="12.9663916654">
		<tag k="name" v="Breilandsenget" />
		<tag k="place" v="farm" />
		<tag k="ssr:stedsnr" v="137169" />
	</node>
	<node id="-127288" lat="66.0564222177" lon="12.9079166761">
		<tag k="alt_name" v="Tømmervik" />
		<tag k="fixme" v="consider place=hamlet" />
		<tag k="name" v="Tømmervika" />
		<tag k="place" v="farm" />
		<tag k="ssr:stedsnr" v="897844" />
	</node>
	<node id="-127799" lat="66.0222499974" lon="12.9525805517">
		<tag k="name" v="Nermyra" />
		<tag k="place" v="farm" />
		<tag k="ssr:stedsnr" v="409476" />
	</node>
	<node id="-127798" lat="65.97777222" lon="12.7801972308">
		<tag k="name" v="Lien" />
		<tag k="place" v="farm" />
		<tag k="ssr:stedsnr" v="409105" />
	</node>
	<node id="-127797" lat="66.068858331" lon="12.8877222157">
		<tag k="name" v="Åsen" />
		<tag k="place" v="farm" />
		<tag k="ssr:stedsnr" v="406522" />
	</node>
	<node id="-127796" lat="66.0437916663" lon="12.7027666598">
		<tag k="name" v="Leines" />
		<tag k="place" v="hamlet" />
		<tag k="ssr:stedsnr" v="389949" />
	</node>
	<node id="-126770" lat="66.0637944467" lon="12.7499555506">
		<tag k="name" v="Hagen" />
		<tag k="place" v="farm" />
		<tag k="ssr:stedsnr" v="107123" />
	</node>
	<node id="-127793" lat="66.1756527805" lon="13.1706999999">
		<tag k="alt_name" v="Skjervoll" />
		<tag k="name" v="Skjærvold" />
		<tag k="place" v="farm" />
		<tag k="ssr:stedsnr" v="379757" />
	</node>
	<node id="-127792" lat="66.1847416638" lon="13.3097138978">
		<tag k="name" v="Vassdal" />
		<tag k="place" v="farm" />
		<tag k="ssr:stedsnr" v="379414" />
	</node>
	<node id="-127278" lat="66.0448055586" lon="12.7012611016">
		<tag k="name" v="Skutvik" />
		<tag k="place" v="farm" />
		<tag k="ssr:stedsnr" v="897631" />
	</node>
	<node id="-127789" lat="66.1088166691" lon="13.0812555456">
		<tag k="name" v="Tovåshaugen" />
		<tag k="place" v="farm" />
		<tag k="ssr:stedsnr" v="379234" />
	</node>
	<node id="-126763" lat="66.1696194413" lon="13.152236103">
		<tag k="name" v="Skogly" />
		<tag k="place" v="farm" />
		<tag k="ssr:stedsnr" v="258187" />
	</node>
	<node id="-126762" lat="66.1539277757" lon="13.1019027727">
		<tag k="name" v="Indre Låvong" />
		<tag k="place" v="hamlet" />
		<tag k="ssr:stedsnr" v="258184" />
	</node>
	<node id="-127785" lat="66.067755557" lon="12.9699416774">
		<tag k="name" v="Engheim" />
		<tag k="place" v="farm" />
		<tag k="ssr:stedsnr" v="379198" />
	</node>
	<node id="-128182" lat="66.0150916654" lon="12.8876444464">
		<tag k="name" v="Mellomgården" />
		<tag k="place" v="farm" />
		<tag k="ssr:stedsnr" v="836446" />
	</node>
	<node id="-127270" lat="66.1046694462" lon="12.7790750095">
		<tag k="amenity" v="school" />
		<tag k="name" v="Lilandet skole" />
		<tag k="ssr:stedsnr" v="897412" />
	</node>
	<node id="-128145" lat="66.2177499958" lon="13.3979722206">
		<tag k="alt_name" v="Ekra" />
		<tag k="name" v="Ekren" />
		<tag k="place" v="farm" />
		<tag k="ssr:stedsnr" v="804111" />
	</node>
	<node id="-127778" lat="66.2169972181" lon="13.3801777768">
		<tag k="alt_name" v="Bardalssjøen" />
		<tag k="fixme" v="consider place=hamlet" />
		<tag k="name" v="Bardal" />
		<tag k="place" v="village" />
		<tag k="ssr:stedsnr" v="379080" />
	</node>
	<node id="-127775" lat="66.0532305589" lon="12.903433328">
		<tag k="alt_name" v="Tømmervika" />
		<tag k="name" v="Tømmervik" />
		<tag k="place" v="farm" />
		<tag k="ssr:stedsnr" v="379035" />
	</node>
	<node id="-126750" lat="66.2095722228" lon="13.3709361153">
		<tag k="alt_name" v="Bergsnev" />
		<tag k="name" v="Bergsnov" />
		<tag k="place" v="farm" />
		<tag k="ssr:stedsnr" v="258094" />
	</node>
	<node id="-127261" lat="66.1999083354" lon="13.3457055624">
		<tag k="name" v="Engen" />
		<tag k="place" v="farm" />
		<tag k="ssr:stedsnr" v="896892" />
	</node>
	<node id="-128278" lat="66.1196222228" lon="12.8377861028">
		<tag k="name" v="Haugen" />
		<tag k="place" v="farm" />
		<tag k="ssr:stedsnr" v="957950" />
	</node>
	<node id="-127109" lat="66.1133833361" lon="12.8171305502">
		<tag k="name" v="Juvik" />
		<tag k="place" v="farm" />
		<tag k="ssr:stedsnr" v="532413" />
	</node>
	<node id="-127764" lat="66.0691138933" lon="12.8691333372">
		<tag k="alt_name" v="Nybrot" />
		<tag k="name" v="Nybrott" />
		<tag k="place" v="farm" />
		<tag k="ssr:stedsnr" v="350755" />
	</node>
	<node id="-127534" lat="66.1501944481" lon="13.0060222292">
		<tag k="name" v="Velsvåg" />
		<tag k="place" v="farm" />
		<tag k="ssr:stedsnr" v="76188" />
	</node>
	<node id="-128274" lat="66.0550749965" lon="12.9072722265">
		<tag k="name" v="Ytre Tømmervik" />
		<tag k="place" v="farm" />
		<tag k="ssr:stedsnr" v="957873" />
	</node>
	<node id="-128272" lat="66.0737611128" lon="12.8878916602">
		<tag k="name" v="Solbakken" />
		<tag k="place" v="farm" />
		<tag k="ssr:stedsnr" v="957866" />
	</node>
	<node id="-128271" lat="66.0706972264" lon="12.8883639003">
		<tag k="name" v="Åsbakken" />
		<tag k="place" v="farm" />
		<tag k="ssr:stedsnr" v="957864" />
	</node>
	<node id="-126765" lat="66.1623138928" lon="13.1182611183">
		<tag k="name" v="Myrvang" />
		<tag k="place" v="farm" />
		<tag k="ssr:stedsnr" v="258197" />
	</node>
	<node id="-127211" lat="66.2095083361" lon="13.3979611041">
		<tag k="alt_name" v="Blyset, nedre;Blyseth Nedre" />
		<tag k="name" v="Nedre Blyset" />
		<tag k="place" v="farm" />
		<tag k="ssr:stedsnr" v="683063" />
	</node>
	<node id="-126850" lat="66.0144342649" lon="12.9164772977">
		<tag k="fixme" v="consider place=hamlet" />
		<tag k="name" v="Sundan" />
		<tag k="place" v="farm" />
		<tag k="ssr:stedsnr" v="197137" />
	</node>
	<node id="-127242" lat="66.0726344133" lon="12.8823553063">
		<tag k="alt_name" v="Løkås" />
		<tag k="fixme" v="consider place=hamlet" />
		<tag k="name" v="Løkåsen" />
		<tag k="place" v="farm" />
		<tag k="ssr:stedsnr" v="715778" />
	</node>
	<node id="-127240" lat="66.0652249981" lon="12.9591694368">
		<tag k="name" v="Skreddarvika" />
		<tag k="place" v="quarter" />
		<tag k="ssr:stedsnr" v="715828" />
	</node>
	<node id="-127239" lat="66.0689333343" lon="12.8589583388">
		<tag k="name" v="Minde" />
		<tag k="place" v="farm" />
		<tag k="ssr:stedsnr" v="715812" />
	</node>
	<node id="-127617" lat="66.0198833377" lon="12.8899194444">
		<tag k="name" v="Naustvollen" />
		<tag k="place" v="farm" />
		<tag k="ssr:stedsnr" v="136147" />
	</node>
	<node id="-127746" lat="66.2127361094" lon="13.3906527786">
		<tag k="name" v="Solstrand" />
		<tag k="place" v="isolated_dwelling" />
		<tag k="ssr:stedsnr" v="350839" />
	</node>
	<node id="-128256" lat="66.0395027794" lon="12.9572722202">
		<tag k="name" v="Øver-Valberg" />
		<tag k="place" v="farm" />
		<tag k="ssr:stedsnr" v="957539" />
	</node>
	<node id="-126719" lat="66.1496777761" lon="13.0643916624">
		<tag k="name" v="Stegan" />
		<tag k="place" v="farm" />
		<tag k="ssr:stedsnr" v="228929" />
	</node>
	<node id="-127741" lat="66.1003222231" lon="13.0987027723">
		<tag k="leisure" v="pitch" />
		<tag k="name" v="Leiråsbakken" />
		<tag k="ssr:stedsnr" v="350361" />
	</node>
	<node id="-128251" lat="66.0793833295" lon="12.9091583383">
		<tag k="name" v="Solsletta" />
		<tag k="place" v="farm" />
		<tag k="ssr:stedsnr" v="957299" />
	</node>
	<node id="-127223" lat="65.9784666681" lon="12.7843666611">
		<tag k="name" v="Sørgården" />
		<tag k="place" v="farm" />
		<tag k="ssr:stedsnr" v="894089" />
	</node>
	<node id="-128244" lat="66.0779500024" lon="12.9426444412">
		<tag k="name" v="Meåsen" />
		<tag k="place" v="locality" />
		<tag k="ssr:stedsnr" v="956221" />
	</node>
	<node id="-127102" lat="66.0703639859" lon="12.852407674">
		<tag k="name" v="Bøen" />
		<tag k="place" v="farm" />
		<tag k="ssr:stedsnr" v="683181" />
	</node>
	<node id="-127730" lat="66.0631500006" lon="12.7648277772">
		<tag k="name" v="Stihaugen" />
		<tag k="place" v="farm" />
		<tag k="ssr:stedsnr" v="349187" />
	</node>
	<node id="-128237" lat="66.0598805545" lon="12.7453055483">
		<tag k="name" v="Lilleås" />
		<tag k="place" v="farm" />
		<tag k="ssr:stedsnr" v="956097" />
	</node>
	<node id="-127212" lat="66.2062749999" lon="13.3981694547">
		<tag k="alt_name" v="Blyset, øvre;Blyseth Øvre" />
		<tag k="name" v="Øvre Blyset" />
		<tag k="place" v="farm" />
		<tag k="ssr:stedsnr" v="683064" />
	</node>
	<node id="-127723" lat="66.0473333334" lon="12.7202527688">
		<tag k="alt_name" v="Midtre Leines" />
		<tag k="name" v="Leines" />
		<tag k="place" v="farm" />
		<tag k="ssr:stedsnr" v="329426" />
	</node>
	<node id="-127722" lat="65.9919583302" lon="12.8585527715">
		<tag k="fixme" v="consider place=hamlet" />
		<tag k="name" v="Sundøya" />
		<tag k="place" v="village" />
		<tag k="ssr:stedsnr" v="323518" />
	</node>
	<node id="-127208" lat="66.0236866918" lon="12.9718312308">
		<tag k="alt_name" v="Otting" />
		<tag k="fixme" v="consider place=hamlet" />
		<tag k="name" v="Ottingen" />
		<tag k="place" v="farm" />
		<tag k="ssr:stedsnr" v="683004" />
	</node>
	<node id="-127717" lat="66.0784555596" lon="13.0425638884">
		<tag k="name" v="Beretmoen" />
		<tag k="place" v="farm" />
		<tag k="ssr:stedsnr" v="319210" />
	</node>
	<node id="-127716" lat="66.0560333299" lon="12.7317138994">
		<tag k="alt_name" v="Krokvikja;Krokviken" />
		<tag k="name" v="Krokvika" />
		<tag k="place" v="farm" />
		<tag k="ssr:stedsnr" v="319051" />
	</node>
	<node id="-127715" lat="66.0553250046" lon="12.8998222182">
		<tag k="name" v="Engebakken" />
		<tag k="place" v="farm" />
		<tag k="ssr:stedsnr" v="319031" />
	</node>
	<node id="-127712" lat="66.0667777791" lon="12.8729444557">
		<tag k="name" v="Myrlund" />
		<tag k="place" v="farm" />
		<tag k="ssr:stedsnr" v="319195" />
	</node>
	<node id="-127711" lat="66.0693083303" lon="12.8800583292">
		<tag k="name" v="Åsen" />
		<tag k="place" v="farm" />
		<tag k="ssr:stedsnr" v="319194" />
	</node>
	<node id="-127710" lat="66.0665333359" lon="12.8075833238">
		<tag k="name" v="Bakken" />
		<tag k="place" v="farm" />
		<tag k="ssr:stedsnr" v="319190" />
	</node>
	<node id="-127709" lat="66.1546749956" lon="13.0680166645">
		<tag k="name" v="Sjøbakken" />
		<tag k="place" v="farm" />
		<tag k="ssr:stedsnr" v="319162" />
	</node>
	<node id="-127708" lat="66.1209194422" lon="12.8341305523">
		<tag k="name" v="Fagervika" />
		<tag k="place" v="farm" />
		<tag k="ssr:stedsnr" v="319151" />
	</node>
	<node id="-127195" lat="66.193955551" lon="13.3314944542">
		<tag k="name" v="Åsheim" />
		<tag k="place" v="farm" />
		<tag k="ssr:stedsnr" v="653870" />
	</node>
	<node id="-127194" lat="66.2161222206" lon="13.375950002">
		<tag k="name" v="Nyheim" />
		<tag k="place" v="farm" />
		<tag k="ssr:stedsnr" v="653865" />
	</node>
	<node id="-127703" lat="66.1034750012" lon="13.0783388995">
		<tag k="fixme" v="multiple name tags, choose one and add the other to alt_name" />
		<tag k="name" v="Engåsen;Engåsjardan" />
		<tag k="place" v="farm" />
		<tag k="ssr:stedsnr" v="318241" />
	</node>
	<node id="-128214" lat="66.1190249993" lon="12.827969451">
		<tag k="name" v="Solheim" />
		<tag k="place" v="farm" />
		<tag k="ssr:stedsnr" v="865183" />
	</node>
	<node id="-127189" lat="66.1570638852" lon="13.1107611026">
		<tag k="name" v="Inneråsen" />
		<tag k="place" v="hamlet" />
		<tag k="ssr:stedsnr" v="653924" />
	</node>
	<node id="-127188" lat="66.1552888855" lon="13.0713138928">
		<tag k="alt_name" v="Storvikja" />
		<tag k="name" v="Storvik" />
		<tag k="place" v="farm" />
		<tag k="ssr:stedsnr" v="653905" />
	</node>
	<node id="-127186" lat="66.0312083368" lon="12.9528833241">
		<tag k="amenity" v="school" />
		<tag k="name" v="Tverlandet skole" />
		<tag k="ssr:stedsnr" v="653470" />
	</node>
	<node id="-128209" lat="66.2062388911" lon="13.3581250041">
		<tag k="name" v="Enga" />
		<tag k="place" v="farm" />
		<tag k="ssr:stedsnr" v="865095" />
	</node>
	<node id="-127696" lat="66.0958527773" lon="13.1207888941">
		<tag k="alt_name" v="Bjørnhola" />
		<tag k="name" v="Bjønnhola" />
		<tag k="place" v="farm" />
		<tag k="ssr:stedsnr" v="318222" />
	</node>
	<node id="-127695" lat="66.0140277823" lon="12.925630557">
		<tag k="name" v="Nersund" />
		<tag k="place" v="farm" />
		<tag k="ssr:stedsnr" v="214560" />
	</node>
	<node id="-127693" lat="65.9839194447" lon="12.8010888791">
		<tag k="name" v="Åsen" />
		<tag k="place" v="farm" />
		<tag k="ssr:stedsnr" v="213822" />
	</node>
	<node id="-128204" lat="66.0533333317" lon="12.7696833225">
		<tag k="alt_name" v="Sirijorda" />
		<tag k="name" v="Sirijord" />
		<tag k="place" v="farm" />
		<tag k="ssr:stedsnr" v="865075" />
	</node>
	<node id="-127522" lat="66.0545161014" lon="12.8252177839">
		<tag k="alt_name" v="Hjartland, yt" />
		<tag k="loc_name" v="Hjartland" />
		<tag k="name" v="Ytre Hjartland" />
		<tag k="place" v="farm" />
		<tag k="ssr:stedsnr" v="76071" />
	</node>
	<node id="-127690" lat="66.1214777766" lon="12.8399750064">
		<tag k="name" v="Oppegården" />
		<tag k="place" v="farm" />
		<tag k="ssr:stedsnr" v="198143" />
	</node>
	<node id="-126839" lat="66.0755361082" lon="13.0228361053">
		<tag k="name" v="Nord-Osen" />
		<tag k="place" v="farm" />
		<tag k="ssr:stedsnr" v="290796" />
	</node>
	<node id="-127688" lat="65.9774444441" lon="12.7865777819">
		<tag k="name" v="Heimstuberget" />
		<tag k="place" v="farm" />
		<tag k="ssr:stedsnr" v="198066" />
	</node>
	<node id="-127175" lat="66.0739777758" lon="12.9331444371">
		<tag k="name" v="Simsø" />
		<tag k="place" v="farm" />
		<tag k="ssr:stedsnr" v="727264" />
	</node>
	<node id="-127174" lat="66.0802777802" lon="12.9116722237">
		<tag k="alt_name" v="Simsø" />
		<tag k="name" v="Skjellstaden" />
		<tag k="place" v="farm" />
		<tag k="ssr:stedsnr" v="727250" />
	</node>
	<node id="-128196" lat="66.0784249979" lon="12.925466667">
		<tag k="alt_name" v="Simsø" />
		<tag k="name" v="Nordgården" />
		<tag k="place" v="farm" />
		<tag k="ssr:stedsnr" v="849274" />
	</node>
	<node id="-127362" lat="66.0844111135" lon="12.7178194467">
		<tag k="alt_name" v="Sandvegen" />
		<tag k="name" v="Sandveien" />
		<tag k="place" v="farm" />
		<tag k="ssr:stedsnr" v="926227" />
	</node>
	<node id="-127168" lat="66.162283331" lon="13.1259972194">
		<tag k="name" v="Fagereng" />
		<tag k="place" v="farm" />
		<tag k="ssr:stedsnr" v="714924" />
	</node>
	<node id="-127679" lat="66.0613305574" lon="12.6823555484">
		<tag k="name" v="Løkvika" />
		<tag k="place" v="farm" />
		<tag k="ssr:stedsnr" v="197989" />
	</node>
	<node id="-127678" lat="66.0634833375" lon="12.6979194379">
		<tag k="alt_name" v="Reines" />
		<tag k="name" v="Ytter-Reines" />
		<tag k="place" v="farm" />
		<tag k="ssr:stedsnr" v="197987" />
	</node>
	<node id="-126837" lat="66.0761416626" lon="13.020797226">
		<tag k="name" v="Stranda" />
		<tag k="place" v="farm" />
		<tag k="ssr:stedsnr" v="290794" />
	</node>
	<node id="-127675" lat="66.0825525869" lon="13.0098273426">
		<tag k="name" v="Steffåsen" />
		<tag k="place" v="locality" />
		<tag k="ssr:stedsnr" v="197243" />
	</node>
	<node id="-127162" lat="66.0545416695" lon="12.8135833365">
		<tag k="name" v="Trøa" />
		<tag k="place" v="farm" />
		<tag k="ssr:stedsnr" v="714725" />
	</node>
	<node id="-127672" lat="66.1138083353" lon="12.812136114">
		<tag k="fixme" v="multiple name tags, choose one and add the other to alt_name" />
		<tag k="name" v="Sjåvik;Vika" />
		<tag k="place" v="farm" />
		<tag k="ssr:stedsnr" v="197144" />
	</node>
	<node id="-128183" lat="66.0540972259" lon="12.7542861164">
		<tag k="name" v="Holmviksjøen" />
		<tag k="place" v="isolated_dwelling" />
		<tag k="ssr:stedsnr" v="836594" />
	</node>
	<node id="-127670" lat="66.2136833359" lon="13.4090499947">
		<tag k="name" v="Sætre" />
		<tag k="place" v="farm" />
		<tag k="ssr:stedsnr" v="197089" />
	</node>
	<node id="-128201" lat="66.0465450786" lon="12.9909652469">
		<tag k="fixme" v="consider place=hamlet" />
		<tag k="name" v="Nyland" />
		<tag k="place" v="farm" />
		<tag k="ssr:stedsnr" v="865039" />
	</node>
	<node id="-127262" lat="66.2080972254" lon="13.3763444394">
		<tag k="name" v="Sommerro" />
		<tag k="place" v="farm" />
		<tag k="ssr:stedsnr" v="896896" />
	</node>
	<node id="-127583" lat="66.1584638934" lon="13.1019444387">
		<tag k="amenity" v="school" />
		<tag k="name" v="Sørlandet skole" />
		<tag k="ssr:stedsnr" v="107944" />
	</node>
	<node id="-126749" lat="65.9990444415" lon="12.9008611144">
		<tag k="alt_name" v="Nordre Jystad" />
		<tag k="name" v="Justad" />
		<tag k="place" v="farm" />
		<tag k="ssr:stedsnr" v="86453" />
	</node>
	<node id="-127657" lat="66.1562111075" lon="13.0999388867">
		<tag k="name" v="Åsheim" />
		<tag k="place" v="farm" />
		<tag k="ssr:stedsnr" v="168913" />
	</node>
	<node id="-127656" lat="66.215347223" lon="13.3801194465">
		<tag k="amenity" v="school" />
		<tag k="name" v="Bardal skole" />
		<tag k="ssr:stedsnr" v="168846" />
	</node>
	<node id="-128166" lat="66.060269446" lon="13.0016833407">
		<tag k="name" v="Forslandnøst" />
		<tag k="place" v="farm" />
		<tag k="ssr:stedsnr" v="814463" />
	</node>
	<node id="-127137" lat="66.0201805574" lon="12.9490083399">
		<tag k="name" v="Jamthaugen" />
		<tag k="place" v="farm" />
		<tag k="ssr:stedsnr" v="590502" />
	</node>
	<node id="-127647" lat="66.0474361146" lon="12.9952083334">
		<tag k="name" v="Skjålarem" />
		<tag k="place" v="farm" />
		<tag k="ssr:stedsnr" v="168686" />
	</node>
	<node id="-127645" lat="66.0782222223" lon="12.9034500075">
		<tag k="name" v="Heimly" />
		<tag k="place" v="farm" />
		<tag k="ssr:stedsnr" v="168301" />
	</node>
	<node id="-128154" lat="66.0976138898" lon="13.0683833302">
		<tag k="alt_name" v="Bjørkmoen" />
		<tag k="name" v="Bjørkmoan" />
		<tag k="place" v="farm" />
		<tag k="ssr:stedsnr" v="804285" />
	</node>
	<node id="-127129" lat="66.1414694432" lon="13.0798111007">
		<tag k="name" v="Vågen" />
		<tag k="place" v="farm" />
		<tag k="ssr:stedsnr" v="561167" />
	</node>
	<node id="-127582" lat="66.1473222186" lon="12.9892194541">
		<tag k="name" v="Bjørkheim" />
		<tag k="place" v="isolated_dwelling" />
		<tag k="ssr:stedsnr" v="107934" />
	</node>
	<node id="-127428" lat="66.1875805596" lon="13.2414833315">
		<tag k="name" v="Vika" />
		<tag k="place" v="farm" />
		<tag k="ssr:stedsnr" v="935819" />
	</node>
	<node id="-127513" lat="66.0935999973" lon="12.8815944382">
		<tag k="name" v="Simsø" />
		<tag k="place" v="farm" />
		<tag k="ssr:stedsnr" v="60224" />
	</node>
	<node id="-127123" lat="66.0569694435" lon="12.7287861169">
		<tag k="alt_name" v="Ørvika;Ørvikja" />
		<tag k="name" v="Ørvik" />
		<tag k="place" v="farm" />
		<tag k="ssr:stedsnr" v="561064" />
	</node>
	<node id="-127122" lat="66.0215194408" lon="12.891297224">
		<tag k="alt_name" v="Nordsjøen" />
		<tag k="name" v="Nordsjyen" />
		<tag k="place" v="farm" />
		<tag k="ssr:stedsnr" v="561012" />
	</node>
	<node id="-127683" lat="66.0686098378" lon="13.0684626075">
		<tag k="name" v="Drogsåsen" />
		<tag k="place" v="farm" />
		<tag k="ssr:stedsnr" v="198045" />
	</node>
	<node id="-128144" lat="66.2133500006" lon="13.4165111152">
		<tag k="name" v="Englund" />
		<tag k="place" v="farm" />
		<tag k="ssr:stedsnr" v="804105" />
	</node>
	<node id="-128141" lat="66.0591638896" lon="12.7855388862">
		<tag k="name" v="Båtstøenget" />
		<tag k="place" v="farm" />
		<tag k="ssr:stedsnr" v="804077" />
	</node>
	<node id="-128140" lat="66.0541239823" lon="12.8507229488">
		<tag k="alt_name" v="Hjartland, in;Hjartland;Nytun" />
		<tag k="name" v="Indre Hjartland" />
		<tag k="place" v="farm" />
		<tag k="ssr:stedsnr" v="804072" />
	</node>
	<node id="-127114" lat="66.0749361123" lon="13.0161694461">
		<tag k="name" v="Stien" />
		<tag k="place" v="farm" />
		<tag k="ssr:stedsnr" v="532824" />
	</node>
	<node id="-128135" lat="66.0360833321" lon="12.9779083394">
		<tag k="name" v="Vassmyra" />
		<tag k="place" v="farm" />
		<tag k="ssr:stedsnr" v="804025" />
	</node>
	<node id="-127622" lat="66.1572611106" lon="13.0933555651">
		<tag k="name" v="Langåker" />
		<tag k="place" v="farm" />
		<tag k="ssr:stedsnr" v="136200" />
	</node>
	<node id="-128133" lat="66.1537222251" lon="13.0835083284">
		<tag k="name" v="Nyrud" />
		<tag k="place" v="farm" />
		<tag k="ssr:stedsnr" v="804197" />
	</node>
	<node id="-127620" lat="66.0851861146" lon="13.1022916654">
		<tag k="name" v="Vårtun" />
		<tag k="place" v="locality" />
		<tag k="ssr:stedsnr" v="136259" />
	</node>
	<node id="-127107" lat="66.063077782" lon="12.7603555521">
		<tag k="name" v="Øyjorden" />
		<tag k="place" v="hamlet" />
		<tag k="ssr:stedsnr" v="531153" />
	</node>
	<node id="-127618" lat="66.0781333305" lon="12.8986805463">
		<tag k="name" v="Nyrud" />
		<tag k="place" v="farm" />
		<tag k="ssr:stedsnr" v="136243" />
	</node>
	<node id="-128129" lat="66.0687805597" lon="12.8874027813">
		<tag k="name" v="Mellemåsen" />
		<tag k="place" v="farm" />
		<tag k="ssr:stedsnr" v="775849" />
	</node>
	<node id="-128128" lat="66.2120055581" lon="13.3676833279">
		<tag k="name" v="Gjærbakken" />
		<tag k="place" v="farm" />
		<tag k="ssr:stedsnr" v="775842" />
	</node>
	<node id="-127615" lat="66.0098694425" lon="12.8864805507">
		<tag k="name" v="Bjørnvollen" />
		<tag k="place" v="farm" />
		<tag k="ssr:stedsnr" v="136132" />
	</node>
	<node id="-127614" lat="66.2085805544" lon="13.3839861039">
		<tag k="alt_name" v="Breidmo" />
		<tag k="name" v="Breidmo Nedre" />
		<tag k="place" v="farm" />
		<tag k="ssr:stedsnr" v="136088" />
	</node>
	<node id="-127612" lat="66.0536785104" lon="13.0038047084">
		<tag k="fixme" v="consider place=hamlet" />
		<tag k="name" v="Forsland" />
		<tag k="place" v="farm" />
		<tag k="ssr:stedsnr" v="136051" />
	</node>
	<node id="-127611" lat="66.0635638871" lon="13.0708166763">
		<tag k="fixme" v="consider tourism=alpine_hut or tourism=chalet" />
		<tag k="name" v="Trollstua" />
		<tag k="ssr:stedsnr" v="120887" />
		<tag k="tourism" v="wilderness_hut" />
	</node>
	<node id="-127167" lat="66.1553750026" lon="13.097105565">
		<tag k="name" v="Solbakken" />
		<tag k="place" v="isolated_dwelling" />
		<tag k="ssr:stedsnr" v="714911" />
	</node>
	<node id="-127096" lat="66.0532828166" lon="12.776704963">
		<tag k="name" v="Valla" />
		<tag k="place" v="farm" />
		<tag k="ssr:stedsnr" v="683032" />
	</node>
	<node id="-128118" lat="66.1553805596" lon="13.0954666744">
		<tag k="name" v="Solvollen" />
		<tag k="place" v="farm" />
		<tag k="ssr:stedsnr" v="775900" />
	</node>
	<node id="-127092" lat="66.0416138864" lon="12.9700222279">
		<tag k="name" v="Elverum" />
		<tag k="place" v="farm" />
		<tag k="ssr:stedsnr" v="683017" />
	</node>
	<node id="-127603" lat="66.0690598082" lon="12.8092103079">
		<tag k="fixme" v="consider place=hamlet" />
		<tag k="name" v="Tverråbakken" />
		<tag k="place" v="farm" />
		<tag k="ssr:stedsnr" v="108779" />
	</node>
	<node id="-127090" lat="66.0177222246" lon="12.9274833406">
		<tag k="name" v="Solberg" />
		<tag k="place" v="farm" />
		<tag k="ssr:stedsnr" v="682138" />
	</node>
	<node id="-128112" lat="66.0449083344" lon="12.9947444363">
		<tag k="name" v="Remman" />
		<tag k="place" v="farm" />
		<tag k="ssr:stedsnr" v="775690" />
	</node>
	<node id="-127087" lat="66.0756416641" lon="13.0556194467">
		<tag k="name" v="Tyttbærmoen" />
		<tag k="place" v="farm" />
		<tag k="ssr:stedsnr" v="501070" />
	</node>
	<node id="-127598" lat="66.0459722182" lon="12.9882277851">
		<tag k="name" v="Moen" />
		<tag k="place" v="farm" />
		<tag k="ssr:stedsnr" v="108701" />
	</node>
	<node id="-126909" lat="66.1919416705" lon="13.3708083396">
		<tag k="name" v="Bakken" />
		<tag k="place" v="locality" />
		<tag k="ssr:stedsnr" v="228902" />
	</node>
	<node id="-127596" lat="66.0486722211" lon="12.7233138867">
		<tag k="amenity" v="school" />
		<tag k="name" v="Leines skole" />
		<tag k="ssr:stedsnr" v="108653" />
	</node>
	<node id="-127762" lat="66.0543555512" lon="12.8419722254">
		<tag k="name" v="Asplund" />
		<tag k="place" v="farm" />
		<tag k="ssr:stedsnr" v="350741" />
	</node>
	<node id="-128104" lat="66.1117833342" lon="12.8093888922">
		<tag k="name" v="Vikja" />
		<tag k="place" v="farm" />
		<tag k="ssr:stedsnr" v="775416" />
	</node>
	<node id="-127591" lat="66.1064305554" lon="12.7837555596">
		<tag k="name" v="Skovika" />
		<tag k="place" v="farm" />
		<tag k="ssr:stedsnr" v="108449" />
	</node>
	<node id="-127077" lat="66.0624638902" lon="12.6998444479">
		<tag k="name" v="Skjåremmen" />
		<tag k="place" v="farm" />
		<tag k="ssr:stedsnr" v="512600" />
	</node>
	<node id="-128100" lat="66.1051444469" lon="13.0872694397">
		<tag k="alt_name" v="Tovås" />
		<tag k="fixme" v="consider place=hamlet" />
		<tag k="name" v="Tovåsen" />
		<tag k="place" v="farm" />
		<tag k="ssr:stedsnr" v="775354" />
	</node>
	<node id="-128138" lat="66.0487222253" lon="12.7216000021">
		<tag k="name" v="Stranda" />
		<tag k="place" v="farm" />
		<tag k="ssr:stedsnr" v="804058" />
	</node>
	<node id="-127086" lat="66.0606472208" lon="12.7532833395">
		<tag k="alt_name" v="Ulvangen" />
		<tag k="name" v="Ulvang" />
		<tag k="place" v="farm" />
		<tag k="ssr:stedsnr" v="501061" />
	</node>
	<node id="-127073" lat="66.0827277765" lon="13.0475805609">
		<tag k="name" v="Nes" />
		<tag k="place" v="farm" />
		<tag k="ssr:stedsnr" v="389461" />
	</node>
	<node id="-127071" lat="66.0526277772" lon="12.7103277848">
		<tag k="name" v="Nygård" />
		<tag k="place" v="farm" />
		<tag k="ssr:stedsnr" v="501986" />
	</node>
	<node id="-127070" lat="66.0783166648" lon="12.9206749916">
		<tag k="name" v="Simsø" />
		<tag k="place" v="farm" />
		<tag k="ssr:stedsnr" v="501195" />
	</node>
	<node id="-127068" lat="66.0702861092" lon="12.9036166693">
		<tag k="name" v="Bjørstad" />
		<tag k="place" v="farm" />
		<tag k="ssr:stedsnr" v="501190" />
	</node>
	<node id="-128186" lat="66.0691027784" lon="12.7987083377">
		<tag k="name" v="Blåbæråsmyra" />
		<tag k="place" v="farm" />
		<tag k="ssr:stedsnr" v="836790" />
	</node>
	<node id="-128228" lat="66.2292444428" lon="13.4550777873">
		<tag k="name" v="Landenget" />
		<tag k="place" v="farm" />
		<tag k="ssr:stedsnr" v="874031" />
	</node>
	<node id="-127576" lat="66.2064444439" lon="13.3681194414">
		<tag k="name" v="Skogmo" />
		<tag k="place" v="farm" />
		<tag k="ssr:stedsnr" v="107876" />
	</node>
	<node id="-127063" lat="66.0519666696" lon="12.7412000045">
		<tag k="fixme" v="multiple name tags, choose one and add the other to alt_name" />
		<tag k="name" v="Aasen;Skjøråsvika" />
		<tag k="place" v="farm" />
		<tag k="ssr:stedsnr" v="501032" />
	</node>
	<node id="-127403" lat="66.0665194486" lon="12.8785333437">
		<tag k="name" v="Baklund" />
		<tag k="place" v="farm" />
		<tag k="ssr:stedsnr" v="836862" />
	</node>
	<node id="-127573" lat="66.119213891" lon="12.8321722236">
		<tag k="name" v="Åslund" />
		<tag k="place" v="farm" />
		<tag k="ssr:stedsnr" v="107476" />
	</node>
	<node id="-128082" lat="66.0788194472" lon="12.9055194437">
		<tag k="fixme" v="multiple name tags, choose one and add the other to alt_name" />
		<tag k="name" v="Laremmen;Ytterenget" />
		<tag k="place" v="farm" />
		<tag k="ssr:stedsnr" v="753376" />
	</node>
	<node id="-126904" lat="66.0502249963" lon="12.6993638889">
		<tag k="alt_name" v="Vollen" />
		<tag k="name" v="Volden" />
		<tag k="place" v="farm" />
		<tag k="ssr:stedsnr" v="440989" />
	</node>
	<node id="-126966" lat="66.0540472257" lon="12.8444027804">
		<tag k="name" v="Vollan" />
		<tag k="place" v="farm" />
		<tag k="ssr:stedsnr" v="290710" />
	</node>
	<node id="-126733" lat="66.074586109" lon="12.8837916692">
		<tag k="name" v="Øvergård" />
		<tag k="place" v="farm" />
		<tag k="ssr:stedsnr" v="229778" />
	</node>
	<node id="-128075" lat="66.0600666626" lon="12.7625222182">
		<tag k="name" v="Myrvang" />
		<tag k="place" v="farm" />
		<tag k="ssr:stedsnr" v="744032" />
	</node>
	<node id="-127050" lat="66.0156954" lon="12.8886374705">
		<tag k="alt_name" v="Hellesvik" />
		<tag k="fixme" v="consider place=hamlet" />
		<tag k="name" v="Hellesvika" />
		<tag k="place" v="farm" />
		<tag k="ssr:stedsnr" v="500004" />
	</node>
	<node id="-127671" lat="66.0153277818" lon="12.9067277795">
		<tag k="name" v="Sundøyra" />
		<tag k="place" v="farm" />
		<tag k="ssr:stedsnr" v="197139" />
	</node>
	<node id="-127560" lat="65.9793750016" lon="12.7860888917">
		<tag k="name" v="Nordgården" />
		<tag k="place" v="farm" />
		<tag k="ssr:stedsnr" v="105081" />
	</node>
	<node id="-128071" lat="66.0130119225" lon="12.9536005334">
		<tag k="alt_name" v="Ladingen;Laingen" />
		<tag k="fixme" v="consider place=hamlet" />
		<tag k="name" v="Lading" />
		<tag k="place" v="farm" />
		<tag k="ssr:stedsnr" v="743142" />
	</node>
	<node id="-128070" lat="66.0218891458" lon="12.9480447309">
		<tag k="alt_name" v="Dagsvika" />
		<tag k="fixme" v="consider place=hamlet" />
		<tag k="name" v="Dagsvik" />
		<tag k="place" v="farm" />
		<tag k="ssr:stedsnr" v="743135" />
	</node>
	<node id="-128068" lat="66.0875416633" lon="12.7280861144">
		<tag k="fixme" v="multiple name tags, choose one and add the other to alt_name" />
		<tag k="name" v="Moen;Sørlia" />
		<tag k="place" v="farm" />
		<tag k="ssr:stedsnr" v="743245" />
	</node>
	<node id="-128067" lat="66.0629666653" lon="12.7126138789">
		<tag k="alt_name" v="Reines" />
		<tag k="name" v="Inner-Reines" />
		<tag k="place" v="farm" />
		<tag k="ssr:stedsnr" v="743242" />
	</node>
	<node id="-128065" lat="66.0826138927" lon="13.0468194497">
		<tag k="name" v="Grønåsvollen" />
		<tag k="place" v="farm" />
		<tag k="ssr:stedsnr" v="743238" />
	</node>
	<node id="-127549" lat="66.0432444415" lon="12.6981833424">
		<tag k="name" v="Valdal" />
		<tag k="place" v="farm" />
		<tag k="ssr:stedsnr" v="76873" />
	</node>
	<node id="-128060" lat="66.067547221" lon="12.9629861087">
		<tag k="alt_name" v="Sletten" />
		<tag k="name" v="Slettan" />
		<tag k="place" v="farm" />
		<tag k="ssr:stedsnr" v="654838" />
	</node>
	<node id="-127547" lat="66.0863833297" lon="13.0993777838">
		<tag k="name" v="Nordli" />
		<tag k="place" v="farm" />
		<tag k="ssr:stedsnr" v="76243" />
	</node>
	<node id="-127604" lat="66.0676472202" lon="12.8217888805">
		<tag k="name" v="Meisfjordskar" />
		<tag k="place" v="farm" />
		<tag k="ssr:stedsnr" v="108792" />
	</node>
	<node id="-128057" lat="66.0690999982" lon="12.8898277872">
		<tag k="alt_name" v="Inneråsen" />
		<tag k="name" v="Åsen" />
		<tag k="place" v="farm" />
		<tag k="ssr:stedsnr" v="654859" />
	</node>
	<node id="-127579" lat="66.1543888855" lon="13.0593305565">
		<tag k="name" v="Nymoen" />
		<tag k="place" v="farm" />
		<tag k="ssr:stedsnr" v="107925" />
	</node>
	<node id="-127030" lat="66.2202444432" lon="13.2991250071">
		<tag k="fixme" v="consider place=hamlet" />
		<tag k="name" v="Peperjorda" />
		<tag k="place" v="farm" />
		<tag k="ssr:stedsnr" v="328017" />
	</node>
	<node id="-127028" lat="66.1957222193" lon="13.3661472135">
		<tag k="name" v="Mastermoen" />
		<tag k="place" v="farm" />
		<tag k="ssr:stedsnr" v="319065" />
	</node>
	<node id="-127539" lat="66.0714583342" lon="12.8970861114">
		<tag k="name" v="Åslund" />
		<tag k="place" v="farm" />
		<tag k="ssr:stedsnr" v="76218" />
	</node>
	<node id="-127413" lat="66.0734638884" lon="12.8851277795">
		<tag k="name" v="Solbakken" />
		<tag k="place" v="farm" />
		<tag k="ssr:stedsnr" v="865238" />
	</node>
	<node id="-127537" lat="66.0671175428" lon="12.9085630613">
		<tag k="name" v="Moen" />
		<tag k="place" v="farm" />
		<tag k="ssr:stedsnr" v="76215" />
	</node>
	<node id="-127536" lat="66.1526666654" lon="13.0683694523">
		<tag k="alt_name" v="Ytter Levang" />
		<tag k="name" v="Ytre Låvong" />
		<tag k="place" v="hamlet" />
		<tag k="ssr:stedsnr" v="76200" />
	</node>
	<node id="-126728" lat="66.0326361146" lon="12.9488972213">
		<tag k="name" v="Løkkvollen" />
		<tag k="place" v="farm" />
		<tag k="ssr:stedsnr" v="229476" />
	</node>
	<node id="-128046" lat="66.0546777769" lon="12.8353888947">
		<tag k="name" v="Lillevik" />
		<tag k="place" v="farm" />
		<tag k="ssr:stedsnr" v="653769" />
	</node>
	<node id="-127533" lat="66.1553694427" lon="13.0580638814">
		<tag k="alt_name" v="Gongstø" />
		<tag k="name" v="Gangstøen" />
		<tag k="place" v="farm" />
		<tag k="ssr:stedsnr" v="76187" />
	</node>
	<node id="-127020" lat="66.0650083311" lon="12.954547223">
		<tag k="name" v="Kaukarhaugen" />
		<tag k="place" v="quarter" />
		<tag k="ssr:stedsnr" v="472820" />
	</node>
	<node id="-126898" lat="66.1906416682" lon="13.3269083385">
		<tag k="name" v="Haugjord" />
		<tag k="place" v="farm" />
		<tag k="ssr:stedsnr" v="440430" />
	</node>
	<node id="-128040" lat="66.021361115" lon="12.9747416665">
		<tag k="name" v="Staremma" />
		<tag k="place" v="farm" />
		<tag k="ssr:stedsnr" v="653475" />
	</node>
	<node id="-127015" lat="66.0554333368" lon="13.0126194524">
		<tag k="name" v="Høgda" />
		<tag k="place" v="farm" />
		<tag k="ssr:stedsnr" v="472648" />
	</node>
	<node id="-127525" lat="65.9991083309" lon="12.9002361033">
		<tag k="fixme" v="consider place=hamlet" />
		<tag k="name" v="Jystad" />
		<tag k="place" v="farm" />
		<tag k="ssr:stedsnr" v="76120" />
	</node>
	<node id="-127524" lat="66.2135305536" lon="13.3677388946">
		<tag k="name" v="Moen" />
		<tag k="place" v="farm" />
		<tag k="ssr:stedsnr" v="76111" />
	</node>
	<node id="-128035" lat="66.0903694457" lon="12.730674991">
		<tag k="name" v="Indre-Sjøvei" />
		<tag k="place" v="farm" />
		<tag k="ssr:stedsnr" v="653309" />
	</node>
	<node id="-128034" lat="66.0775138896" lon="12.9391805537">
		<tag k="name" v="Simåsen" />
		<tag k="place" v="farm" />
		<tag k="ssr:stedsnr" v="653185" />
	</node>
	<node id="-127521" lat="66.0640583366" lon="12.9432500082">
		<tag k="name" v="Leland" />
		<tag k="place" v="village" />
		<tag k="ssr:stedsnr" v="76069" />
	</node>
	<node id="-128032" lat="66.0691749989" lon="12.879538881">
		<tag k="name" v="Skogan" />
		<tag k="place" v="farm" />
		<tag k="ssr:stedsnr" v="632451" />
	</node>
	<node id="-126811" lat="66.2067249962" lon="13.3924555634">
		<tag k="name" v="Breimo Øvre" />
		<tag k="place" v="farm" />
		<tag k="ssr:stedsnr" v="168864" />
	</node>
	<node id="-128029" lat="66.1666472194" lon="13.1365111154">
		<tag k="name" v="Nybrott" />
		<tag k="place" v="farm" />
		<tag k="ssr:stedsnr" v="622784" />
	</node>
	<node id="-128027" lat="66.0938583305" lon="13.1138777829">
		<tag k="fixme" v="consider place=hamlet" />
		<tag k="name" v="Vatnet" />
		<tag k="place" v="farm" />
		<tag k="ssr:stedsnr" v="622250" />
	</node>
	<node id="-127220" lat="66.0133861147" lon="12.9158888846">
		<tag k="name" v="Sund" />
		<tag k="place" v="farm" />
		<tag k="ssr:stedsnr" v="700566" />
	</node>
	<node id="-127578" lat="66.1641722235" lon="13.1215805651">
		<tag k="name" v="Haglund" />
		<tag k="place" v="farm" />
		<tag k="ssr:stedsnr" v="107913" />
	</node>
	<node id="-127512" lat="66.0898694439" lon="12.9001999914">
		<tag k="name" v="Simsø" />
		<tag k="place" v="farm" />
		<tag k="ssr:stedsnr" v="60214" />
	</node>
	<node id="-127511" lat="66.0755694441" lon="12.9347194544">
		<tag k="name" v="Simsøeng" />
		<tag k="place" v="farm" />
		<tag k="ssr:stedsnr" v="60141" />
	</node>
	<node id="-128022" lat="66.0766666663" lon="13.0526750053">
		<tag k="alt_name" v="Leira" />
		<tag k="name" v="Leiren" />
		<tag k="place" v="hamlet" />
		<tag k="ssr:stedsnr" v="622228" />
	</node>
	<node id="-126997" lat="66.1497888881" lon="13.0014499984">
		<tag k="name" v="Yttergården" />
		<tag k="place" v="farm" />
		<tag k="ssr:stedsnr" v="471911" />
	</node>
	<node id="-126995" lat="66.0154694407" lon="12.923122222">
		<tag k="name" v="Sund" />
		<tag k="place" v="farm" />
		<tag k="ssr:stedsnr" v="471507" />
	</node>
	<node id="-128018" lat="66.074341816" lon="13.0055389048">
		<tag k="fixme" v="consider place=hamlet" />
		<tag k="name" v="Breiland" />
		<tag k="place" v="farm" />
		<tag k="ssr:stedsnr" v="622211" />
	</node>
	<node id="-128017" lat="66.0665194473" lon="12.8824416707">
		<tag k="name" v="Nystad" />
		<tag k="place" v="farm" />
		<tag k="ssr:stedsnr" v="622205" />
	</node>
	<node id="-128016" lat="66.1659749959" lon="13.121855555">
		<tag k="name" v="Rørvika" />
		<tag k="place" v="farm" />
		<tag k="ssr:stedsnr" v="622200" />
	</node>
	<node id="-128014" lat="65.9784259185" lon="12.9034999703">
		<tag k="fixme" v="consider place=hamlet" />
		<tag k="name" v="Remneset" />
		<tag k="place" v="farm" />
		<tag k="ssr:stedsnr" v="622084" />
	</node>
	<node id="-128013" lat="65.9780944421" lon="12.7837250054">
		<tag k="name" v="Kvalnes" />
		<tag k="place" v="hamlet" />
		<tag k="ssr:stedsnr" v="622082" />
	</node>
	<node id="-128012" lat="66.1999055597" lon="13.3608222237">
		<tag k="alt_name" v="Laglia" />
		<tag k="name" v="Lagli" />
		<tag k="place" v="farm" />
		<tag k="ssr:stedsnr" v="622073" />
	</node>
	<node id="-126987" lat="66.0870277742" lon="12.7341888957">
		<tag k="name" v="Innerhaugen" />
		<tag k="place" v="locality" />
		<tag k="ssr:stedsnr" v="471326" />
	</node>
	<node id="-128010" lat="66.0559722235" lon="12.7657805602">
		<tag k="name" v="Holmvika" />
		<tag k="place" v="farm" />
		<tag k="ssr:stedsnr" v="622059" />
	</node>
	<node id="-127319" lat="65.9803333352" lon="12.7918611075">
		<tag k="name" v="Nyphaugen" />
		<tag k="place" v="farm" />
		<tag k="ssr:stedsnr" v="773084" />
	</node>
	<node id="-127494" lat="66.0614083325" lon="12.8025027805">
		<tag k="name" v="Baklund" />
		<tag k="place" v="farm" />
		<tag k="ssr:stedsnr" v="47767" />
	</node>
	<node id="-126891" lat="66.0749942114" lon="13.0269998667">
		<tag k="alt_name" v="Nes" />
		<tag k="fixme" v="consider place=hamlet" />
		<tag k="name" v="Nordnes" />
		<tag k="place" v="farm" />
		<tag k="ssr:stedsnr" v="440245" />
	</node>
	<node id="-127833" lat="66.0735083323" lon="12.8791694483">
		<tag k="name" v="Haugen" />
		<tag k="place" v="farm" />
		<tag k="ssr:stedsnr" v="411771" />
	</node>
	<node id="-128208" lat="66.2007472199" lon="13.3523694445">
		<tag k="alt_name" v="Lindset" />
		<tag k="name" v="Lindseth" />
		<tag k="place" v="farm" />
		<tag k="ssr:stedsnr" v="865093" />
	</node>
</osm>
