<?xml version="1.0" encoding="UTF-8"?>
<osm generator="osmapis" version="0.6">
	<node id="-638464" lat="66.0635277765" lon="13.0153555494">
		<tag k="name" v="Buvika" />
		<tag k="natural" v="bay" />
		<tag k="ssr:stedsnr" v="15046" />
	</node>
	<node id="-638463" lat="66.0496611131" lon="12.8590527752">
		<tag k="name" v="Kjerringneset" />
		<tag k="natural" v="cape" />
		<tag k="ssr:stedsnr" v="15038" />
	</node>
	<node id="-638459" lat="66.0650583326" lon="12.8031638985">
		<tag k="name" v="Leirvika" />
		<tag k="natural" v="bay" />
		<tag k="ssr:stedsnr" v="15014" />
	</node>
	<node id="-638963" lat="66.1437972179" lon="13.0863111133">
		<tag k="name" v="Håmannsberget" />
		<tag k="natural" v="cape" />
		<tag k="ssr:stedsnr" v="471917" />
	</node>
	<node id="-638376" lat="66.0609750013" lon="12.9441111212">
		<tag k="name" v="Litlskjåvika" />
		<tag k="natural" v="bay" />
		<tag k="ssr:stedsnr" v="411820" />
	</node>
	<node id="-638954" lat="66.1148305552" lon="12.811752776">
		<tag k="name" v="Klubben" />
		<tag k="natural" v="cape" />
		<tag k="ssr:stedsnr" v="471447" />
	</node>
	<node id="-638953" lat="66.0816694463" lon="12.6999749894">
		<tag k="name" v="Finnhaugen" />
		<tag k="natural" v="cape" />
		<tag k="ssr:stedsnr" v="471428" />
	</node>
	<node id="-638440" lat="66.0539861124" lon="12.8199722312">
		<tag k="name" v="Yttersjyen" />
		<tag k="natural" v="bay" />
		<tag k="ssr:stedsnr" v="897705" />
	</node>
	<node id="-638438" lat="66.0345750043" lon="12.8859777787">
		<tag k="name" v="Farmannsvika" />
		<tag k="natural" v="bay" />
		<tag k="ssr:stedsnr" v="897699" />
	</node>
	<node id="-639461" lat="66.039544445" lon="12.7049194518">
		<tag k="fixme" v="consider seamark:type=rock or natural=shoal" />
		<tag k="name" v="Edvinskjæret" />
		<tag k="place" v="islet" />
		<tag k="ssr:stedsnr" v="775621" />
	</node>
	<node id="-639589" lat="66.1549833303" lon="13.0802666577">
		<tag k="name" v="Gregerodden" />
		<tag k="natural" v="cape" />
		<tag k="ssr:stedsnr" v="836905" />
	</node>
	<node id="-639142" lat="65.9862472223" lon="12.8335638975">
		<tag k="name" v="Storvika" />
		<tag k="natural" v="bay" />
		<tag k="ssr:stedsnr" v="576808" />
	</node>
	<node id="-638433" lat="66.0506694403" lon="12.6930861016">
		<tag k="name" v="Ågenstøa" />
		<tag k="natural" v="bay" />
		<tag k="ssr:stedsnr" v="897623" />
	</node>
	<node id="-638939" lat="66.0600694485" lon="12.690816658">
		<tag k="name" v="Sandviktangen" />
		<tag k="natural" v="cape" />
		<tag k="ssr:stedsnr" v="471116" />
	</node>
	<node id="-638938" lat="65.9858111115" lon="12.8350222269">
		<tag k="name" v="Storvikneset" />
		<tag k="natural" v="cape" />
		<tag k="ssr:stedsnr" v="455780" />
	</node>
	<node id="-638425" lat="66.031088893" lon="12.945783333">
		<tag k="name" v="Kjærstadbukta" />
		<tag k="natural" v="bay" />
		<tag k="ssr:stedsnr" v="897450" />
	</node>
	<node id="-638936" lat="66.0105111083" lon="12.9488249914">
		<tag k="fixme" v="multiple name tags, choose one and add the other to alt_name" />
		<tag k="name" v="Landsbukta;Langnesbukta" />
		<tag k="natural" v="bay" />
		<tag k="ssr:stedsnr" v="450424" />
	</node>
	<node id="-638935" lat="66.2280027753" lon="13.3068083316">
		<tag k="name" v="Storgrunna" />
		<tag k="natural" v="shoal" />
		<tag k="place" v="locality" />
		<tag k="ssr:stedsnr" v="450005" />
	</node>
	<node id="-638934" lat="66.0426555529" lon="12.6489777756">
		<tag k="fixme" v="consider seamark:type=rock or natural=shoal" />
		<tag k="name" v="Litløyskjæret" />
		<tag k="place" v="islet" />
		<tag k="ssr:stedsnr" v="441000" />
	</node>
	<node id="-638420" lat="66.0992916656" lon="12.7499166773">
		<tag k="name" v="Inner-Akselvika" />
		<tag k="natural" v="bay" />
		<tag k="ssr:stedsnr" v="897411" />
	</node>
	<node id="-639438" lat="66.0610500035" lon="12.7185250071">
		<tag k="name" v="Gongstøa" />
		<tag k="natural" v="cape" />
		<tag k="ssr:stedsnr" v="774190" />
	</node>
	<node id="-638285" lat="66.0412611149" lon="12.7167750047">
		<tag k="name" v="Innerbuvika" />
		<tag k="natural" v="bay" />
		<tag k="ssr:stedsnr" v="350619" />
	</node>
	<node id="-639436" lat="66.0750916628" lon="12.6910972181">
		<tag k="name" v="Kjerringvika" />
		<tag k="natural" v="bay" />
		<tag k="ssr:stedsnr" v="774148" />
	</node>
	<node id="-638405" lat="66.0805805554" lon="12.6992916635">
		<tag k="name" v="Sørvika" />
		<tag k="natural" v="bay" />
		<tag k="ssr:stedsnr" v="896319" />
	</node>
	<node id="-638914" lat="66.1264333333" lon="12.8217277781">
		<tag k="fixme" v="consider seamark:type=rock or natural=shoal" />
		<tag k="name" v="Brua" />
		<tag k="place" v="islet" />
		<tag k="ssr:stedsnr" v="440200" />
	</node>
	<node id="-639425" lat="66.1503722258" lon="13.0880250016">
		<tag k="fixme" v="multiple name tags, choose one and add the other to alt_name" />
		<tag k="name" v="Holmen;Storholmen" />
		<tag k="place" v="islet" />
		<tag k="ssr:stedsnr" v="753805" />
	</node>
	<node id="-638912" lat="66.10637778" lon="12.7720777823">
		<tag k="name" v="Naustholmen" />
		<tag k="place" v="islet" />
		<tag k="ssr:stedsnr" v="440174" />
	</node>
	<node id="-638911" lat="66.215080555" lon="13.2844916728">
		<tag k="name" v="Asvika" />
		<tag k="natural" v="bay" />
		<tag k="ssr:stedsnr" v="440134" />
	</node>
	<node id="-638910" lat="65.9943361135" lon="12.8859138862">
		<tag k="name" v="Risneset" />
		<tag k="natural" v="cape" />
		<tag k="ssr:stedsnr" v="440132" />
	</node>
	<node id="-638909" lat="65.9938833359" lon="12.9288638995">
		<tag k="name" v="Kalvika" />
		<tag k="natural" v="bay" />
		<tag k="ssr:stedsnr" v="440131" />
	</node>
	<node id="-638908" lat="66.2211166684" lon="13.2979638839">
		<tag k="name" v="Peperøya" />
		<tag k="natural" v="cape" />
		<tag k="ssr:stedsnr" v="440130" />
	</node>
	<node id="-638394" lat="66.0602388921" lon="12.6824444412">
		<tag k="name" v="Løviktangen" />
		<tag k="natural" v="cape" />
		<tag k="ssr:stedsnr" v="896114" />
	</node>
	<node id="-639415" lat="65.983844441" lon="12.8522749973">
		<tag k="name" v="Straumberget" />
		<tag k="natural" v="cape" />
		<tag k="ssr:stedsnr" v="744051" />
	</node>
	<node id="-638898" lat="66.0608638875" lon="12.9391388847">
		<tag k="name" v="Bjørsvika" />
		<tag k="natural" v="bay" />
		<tag k="ssr:stedsnr" v="440070" />
	</node>
	<node id="-638896" lat="66.0470555599" lon="12.9481027777">
		<tag k="name" v="Skogvikneset" />
		<tag k="natural" v="cape" />
		<tag k="ssr:stedsnr" v="440043" />
	</node>
	<node id="-638894" lat="66.0170194427" lon="12.7642861186">
		<tag k="name" v="Indre Blåværvika" />
		<tag k="natural" v="bay" />
		<tag k="ssr:stedsnr" v="440022" />
	</node>
	<node id="-638893" lat="66.0211888871" lon="12.8039000103">
		<tag k="name" v="Kvalvågan" />
		<tag k="natural" v="bay" />
		<tag k="ssr:stedsnr" v="440020" />
	</node>
	<node id="-638892" lat="66.0669833296" lon="12.9811194446">
		<tag k="name" v="Munkvika" />
		<tag k="natural" v="bay" />
		<tag k="ssr:stedsnr" v="440019" />
	</node>
	<node id="-638888" lat="66.0957583293" lon="12.7418916662">
		<tag k="name" v="Mikkelvika" />
		<tag k="natural" v="bay" />
		<tag k="ssr:stedsnr" v="415258" />
	</node>
	<node id="-638371" lat="66.0397388874" lon="12.7514611119">
		<tag k="fixme" v="consider seamark:type=rock or natural=shoal" />
		<tag k="name" v="Litlskjæret" />
		<tag k="place" v="islet" />
		<tag k="ssr:stedsnr" v="411722" />
	</node>
	<node id="-638370" lat="66.0404777748" lon="12.9220333387">
		<tag k="name" v="Fornesodden" />
		<tag k="natural" v="cape" />
		<tag k="ssr:stedsnr" v="411716" />
	</node>
	<node id="-639392" lat="66.2267055555" lon="13.3552666613">
		<tag k="name" v="Skavikodden" />
		<tag k="natural" v="cape" />
		<tag k="ssr:stedsnr" v="743114" />
	</node>
	<node id="-638366" lat="66.0511444475" lon="12.7060083437">
		<tag k="name" v="Breivika" />
		<tag k="natural" v="bay" />
		<tag k="ssr:stedsnr" v="411645" />
	</node>
	<node id="-638365" lat="66.0329166697" lon="12.6609250048">
		<tag k="name" v="Hamnholet" />
		<tag k="natural" v="bay" />
		<tag k="ssr:stedsnr" v="411629" />
	</node>
	<node id="-638363" lat="66.0506527767" lon="12.7849583364">
		<tag k="name" v="Hjellvika" />
		<tag k="natural" v="bay" />
		<tag k="ssr:stedsnr" v="411615" />
	</node>
	<node id="-639385" lat="66.0495555532" lon="12.7755972132">
		<tag k="name" v="Åvika" />
		<tag k="natural" v="bay" />
		<tag k="ssr:stedsnr" v="743049" />
	</node>
	<node id="-638872" lat="66.1394444416" lon="12.9189222282">
		<tag k="name" v="Bjørshammaren" />
		<tag k="natural" v="cape" />
		<tag k="ssr:stedsnr" v="258180" />
	</node>
	<node id="-638869" lat="66.147797223" lon="13.08123889">
		<tag k="fixme" v="multiple name tags, choose one and add the other to alt_name" />
		<tag k="name" v="Levangsvågen;Låvongsbukta" />
		<tag k="natural" v="bay" />
		<tag k="ssr:stedsnr" v="258170" />
	</node>
	<node id="-638864" lat="66.018905554" lon="12.943908338">
		<tag k="name" v="Dagsvikbukta" />
		<tag k="natural" v="bay" />
		<tag k="ssr:stedsnr" v="258131" />
	</node>
	<node id="-639518" lat="66.1548388898" lon="13.0330888994">
		<tag k="name" v="Grønnvika" />
		<tag k="natural" v="bay" />
		<tag k="ssr:stedsnr" v="804202" />
	</node>
	<node id="-638862" lat="66.233066664" lon="13.3402805495">
		<tag k="name" v="Bardalsøya" />
		<tag k="place" v="island" />
		<tag k="ssr:stedsnr" v="258113" />
	</node>
	<node id="-638861" lat="66.2258250035" lon="13.4231388987">
		<tag k="alt_name" v="Storhaugodden" />
		<tag k="name" v="Storhaugen" />
		<tag k="natural" v="cape" />
		<tag k="ssr:stedsnr" v="258101" />
	</node>
	<node id="-638860" lat="65.9944083347" lon="12.9157416583">
		<tag k="name" v="Sundet" />
		<tag k="natural" v="strait" />
		<tag k="ssr:stedsnr" v="258100" />
	</node>
	<node id="-639369" lat="66.1300583296" lon="12.847058336">
		<tag k="name" v="Svennvika" />
		<tag k="natural" v="bay" />
		<tag k="ssr:stedsnr" v="714949" />
	</node>
	<node id="-639368" lat="66.1217083294" lon="12.8253611199">
		<tag k="name" v="Vågen" />
		<tag k="natural" v="bay" />
		<tag k="ssr:stedsnr" v="714939" />
	</node>
	<node id="-639367" lat="66.1227888936" lon="12.8275805455">
		<tag k="name" v="Meneset" />
		<tag k="natural" v="cape" />
		<tag k="ssr:stedsnr" v="714938" />
	</node>
	<node id="-638854" lat="66.021730556" lon="12.8992583423">
		<tag k="name" v="Hellesvika" />
		<tag k="natural" v="bay" />
		<tag k="ssr:stedsnr" v="258019" />
	</node>
	<node id="-639361" lat="66.1893472224" lon="13.2420083348">
		<tag k="name" v="Vikja" />
		<tag k="natural" v="bay" />
		<tag k="ssr:stedsnr" v="714864" />
	</node>
	<node id="-639360" lat="66.2292250004" lon="13.4548805538">
		<tag k="name" v="Haugkleppan" />
		<tag k="natural" v="cape" />
		<tag k="ssr:stedsnr" v="714847" />
	</node>
	<node id="-639358" lat="66.0519027737" lon="12.8989250034">
		<tag k="name" v="Pålsvika" />
		<tag k="natural" v="bay" />
		<tag k="ssr:stedsnr" v="714704" />
	</node>
	<node id="-639357" lat="66.043730553" lon="12.6634666732">
		<tag k="name" v="Breivika" />
		<tag k="natural" v="bay" />
		<tag k="ssr:stedsnr" v="714649" />
	</node>
	<node id="-639356" lat="66.0327388846" lon="12.6637972298">
		<tag k="name" v="Hamnøya" />
		<tag k="natural" v="cape" />
		<tag k="ssr:stedsnr" v="714632" />
	</node>
	<node id="-639210" lat="66.0272499961" lon="12.9038583279">
		<tag k="name" v="Litlforneset" />
		<tag k="natural" v="cape" />
		<tag k="ssr:stedsnr" v="622009" />
	</node>
	<node id="-638330" lat="65.9575583299" lon="12.7131777807">
		<tag k="name" v="Storvikskolten" />
		<tag k="natural" v="shoal" />
		<tag k="place" v="locality" />
		<tag k="ssr:stedsnr" v="389256" />
	</node>
	<node id="-638329" lat="66.0535194437" lon="12.71648889">
		<tag k="name" v="Øyvalen" />
		<tag k="natural" v="bay" />
		<tag k="ssr:stedsnr" v="379966" />
	</node>
	<node id="-638840" lat="66.2191472207" lon="13.3825888883">
		<tag k="name" v="Buneset" />
		<tag k="natural" v="cape" />
		<tag k="ssr:stedsnr" v="229857" />
	</node>
	<node id="-639351" lat="66.0280500011" lon="12.9417805478">
		<tag k="name" v="Krenglo" />
		<tag k="natural" v="cape" />
		<tag k="ssr:stedsnr" v="714430" />
	</node>
	<node id="-639346" lat="66.1008444471" lon="12.7530722292">
		<tag k="name" v="Hanskjellvika" />
		<tag k="natural" v="bay" />
		<tag k="ssr:stedsnr" v="714381" />
	</node>
	<node id="-639345" lat="66.0196861132" lon="12.8942861176">
		<tag k="name" v="Hellesvikfjæra" />
		<tag k="natural" v="shoal" />
		<tag k="place" v="locality" />
		<tag k="ssr:stedsnr" v="714374" />
	</node>
	<node id="-638317" lat="66.1461083353" lon="13.0738944433">
		<tag k="name" v="Hattneset" />
		<tag k="natural" v="cape" />
		<tag k="ssr:stedsnr" v="379173" />
	</node>
	<node id="-638827" lat="66.03676667" lon="12.6820805599">
		<tag k="name" v="Valen" />
		<tag k="natural" v="bay" />
		<tag k="ssr:stedsnr" v="229646" />
	</node>
	<node id="-638313" lat="65.9683222203" lon="12.7518833251">
		<tag k="fixme" v="consider seamark:type=rock or natural=shoal" />
		<tag k="name" v="Oddskjæret" />
		<tag k="place" v="islet" />
		<tag k="ssr:stedsnr" v="379120" />
	</node>
	<node id="-638311" lat="65.9857277792" lon="12.8414">
		<tag k="fixme" v="multiple name tags, choose one and add the other to alt_name" />
		<tag k="name" v="Åkvik-vågen;Åkvika" />
		<tag k="natural" v="bay" />
		<tag k="ssr:stedsnr" v="379073" />
	</node>
	<node id="-638310" lat="66.0535527806" lon="12.8326416739">
		<tag k="name" v="Staurvika" />
		<tag k="natural" v="bay" />
		<tag k="ssr:stedsnr" v="379036" />
	</node>
	<node id="-638308" lat="66.0336999977" lon="12.8870166615">
		<tag k="name" v="Breivika" />
		<tag k="natural" v="bay" />
		<tag k="ssr:stedsnr" v="379021" />
	</node>
	<node id="-639462" lat="66.0389666705" lon="12.6959750032">
		<tag k="name" v="Trongvika" />
		<tag k="natural" v="bay" />
		<tag k="ssr:stedsnr" v="775624" />
	</node>
	<node id="-638352" lat="66.0772166671" lon="12.6958249915">
		<tag k="name" v="Kjerringvika" />
		<tag k="natural" v="bay" />
		<tag k="ssr:stedsnr" v="411298" />
	</node>
	<node id="-638298" lat="66.1527694404" lon="13.0904500007">
		<tag k="name" v="Vargsteinneset" />
		<tag k="natural" v="cape" />
		<tag k="ssr:stedsnr" v="350889" />
	</node>
	<node id="-639204" lat="66.2264027785" lon="13.4258333307">
		<tag k="name" v="Storhaugvika" />
		<tag k="natural" v="bay" />
		<tag k="ssr:stedsnr" v="621081" />
	</node>
	<node id="-638293" lat="66.0643777745" lon="12.7998027793">
		<tag k="name" v="Leirvikneset" />
		<tag k="natural" v="cape" />
		<tag k="ssr:stedsnr" v="350749" />
	</node>
	<node id="-639203" lat="66.064402777" lon="12.9590750052">
		<tag k="fixme" v="multiple name tags, choose one and add the other to alt_name" />
		<tag k="name" v="Lelandssjøen;Lelandsvågen" />
		<tag k="natural" v="bay" />
		<tag k="ssr:stedsnr" v="621046" />
	</node>
	<node id="-638287" lat="66.0654277792" lon="13.0225833362">
		<tag k="fixme" v="consider seamark:type=rock or natural=shoal" />
		<tag k="name" v="Rundskjæret" />
		<tag k="place" v="islet" />
		<tag k="ssr:stedsnr" v="350650" />
	</node>
	<node id="-638286" lat="66.0403777812" lon="12.6759611048">
		<tag k="name" v="Okshammaren" />
		<tag k="natural" v="cape" />
		<tag k="ssr:stedsnr" v="350648" />
	</node>
	<node id="-638797" lat="66.0607805537" lon="12.7046000093">
		<tag k="name" v="Reinessjøen" />
		<tag k="natural" v="bay" />
		<tag k="ssr:stedsnr" v="228130" />
	</node>
	<node id="-638796" lat="66.0637833309" lon="12.6755250065">
		<tag k="name" v="Angarsnesvika" />
		<tag k="natural" v="bay" />
		<tag k="ssr:stedsnr" v="228122" />
	</node>
	<node id="-638283" lat="66.0149555581" lon="12.9268305594">
		<tag k="name" v="Sundvågen" />
		<tag k="natural" v="bay" />
		<tag k="ssr:stedsnr" v="350461" />
	</node>
	<node id="-638282" lat="66.0137111096" lon="12.9284527728">
		<tag k="name" v="Smedvika" />
		<tag k="natural" v="bay" />
		<tag k="ssr:stedsnr" v="350459" />
	</node>
	<node id="-638793" lat="65.9791916638" lon="12.7687944334">
		<tag k="name" v="Stranda" />
		<tag k="natural" v="beach" />
		<tag k="place" v="locality" />
		<tag k="ssr:stedsnr" v="227096" />
	</node>
	<node id="-639304" lat="66.0368138888" lon="12.9057555461">
		<tag k="name" v="Kroken" />
		<tag k="natural" v="bay" />
		<tag k="ssr:stedsnr" v="683015" />
	</node>
	<node id="-639116" lat="66.1266944439" lon="12.8253944424">
		<tag k="name" v="Bruneset" />
		<tag k="natural" v="cape" />
		<tag k="ssr:stedsnr" v="561151" />
	</node>
	<node id="-638789" lat="65.979458329" lon="12.8025277845">
		<tag k="name" v="Leirvikneset" />
		<tag k="natural" v="cape" />
		<tag k="ssr:stedsnr" v="213826" />
	</node>
	<node id="-639295" lat="66.0379222251" lon="12.9173861057">
		<tag k="name" v="Forneset" />
		<tag k="natural" v="cape" />
		<tag k="ssr:stedsnr" v="682022" />
	</node>
	<node id="-639294" lat="66.0074916706" lon="12.9300444446">
		<tag k="name" v="Bruneset" />
		<tag k="natural" v="cape" />
		<tag k="ssr:stedsnr" v="682023" />
	</node>
	<node id="-638267" lat="66.1743611089" lon="13.1593472122">
		<tag k="name" v="Skjærvika" />
		<tag k="natural" v="bay" />
		<tag k="ssr:stedsnr" v="349936" />
	</node>
	<node id="-638266" lat="66.1653666657" lon="13.110711104">
		<tag k="name" v="Finnrørvika" />
		<tag k="natural" v="bay" />
		<tag k="ssr:stedsnr" v="349930" />
	</node>
	<node id="-639199" lat="66.1484638858" lon="13.0918888885">
		<tag k="name" v="Finnkjelneset" />
		<tag k="natural" v="cape" />
		<tag k="ssr:stedsnr" v="593886" />
	</node>
	<node id="-638776" lat="65.9901250039" lon="12.8717277675">
		<tag k="name" v="Labukta" />
		<tag k="natural" v="bay" />
		<tag k="ssr:stedsnr" v="198055" />
	</node>
	<node id="-639285" lat="66.0462972196" lon="12.7078055643">
		<tag k="name" v="Dyvika" />
		<tag k="natural" v="bay" />
		<tag k="ssr:stedsnr" v="654652" />
	</node>
	<node id="-638770" lat="66.0232194482" lon="12.9157777828">
		<tag k="name" v="Torkjellsteinen" />
		<tag k="natural" v="cape" />
		<tag k="ssr:stedsnr" v="198012" />
	</node>
	<node id="-639276" lat="66.1296249992" lon="12.8426388858">
		<tag k="name" v="Kveithella" />
		<tag k="natural" v="cape" />
		<tag k="ssr:stedsnr" v="653939" />
	</node>
	<node id="-638763" lat="66.1653916631" lon="13.1107166768">
		<tag k="name" v="Rørvika" />
		<tag k="natural" v="bay" />
		<tag k="ssr:stedsnr" v="197211" />
	</node>
	<node id="-638250" lat="66.0609583293" lon="12.746036113">
		<tag k="name" v="Nakken" />
		<tag k="natural" v="cape" />
		<tag k="ssr:stedsnr" v="349185" />
	</node>
	<node id="-638246" lat="66.0625472201" lon="12.6757499992">
		<tag k="name" v="Nausttangen" />
		<tag k="natural" v="cape" />
		<tag k="ssr:stedsnr" v="349138" />
	</node>
	<node id="-638245" lat="65.9720250038" lon="12.7590444357">
		<tag k="fixme" v="consider seamark:type=rock or natural=shoal" />
		<tag k="name" v="Tjeldskjæret" />
		<tag k="place" v="islet" />
		<tag k="ssr:stedsnr" v="348083" />
	</node>
	<node id="-638244" lat="66.005275004" lon="12.9488611158">
		<tag k="name" v="Tangen" />
		<tag k="natural" v="cape" />
		<tag k="ssr:stedsnr" v="348051" />
	</node>
	<node id="-639261" lat="66.0181083291" lon="12.9297250092">
		<tag k="name" v="Vikran" />
		<tag k="natural" v="bay" />
		<tag k="ssr:stedsnr" v="653485" />
	</node>
	<node id="-638235" lat="66.1857777751" lon="13.2207527835">
		<tag k="name" v="Stigodden" />
		<tag k="natural" v="cape" />
		<tag k="ssr:stedsnr" v="319391" />
	</node>
	<node id="-639253" lat="66.0919805533" lon="12.7319916726">
		<tag k="name" v="Ytter-Mikkelvika" />
		<tag k="natural" v="bay" />
		<tag k="ssr:stedsnr" v="653283" />
	</node>
	<node id="-639022" lat="66.0372722225" lon="12.6664111012">
		<tag k="alt_name" v="Ljosåstangen" />
		<tag k="name" v="Jøsåstangen" />
		<tag k="natural" v="cape" />
		<tag k="ssr:stedsnr" v="501868" />
	</node>
	<node id="-638226" lat="66.1194544012" lon="12.7279664191">
		<tag k="name" v="Finnkona" />
		<tag k="place" v="island" />
		<tag k="ssr:stedsnr" v="319149" />
	</node>
	<node id="-638225" lat="66.1344166684" lon="12.8806972123">
		<tag k="name" v="Akkarvika" />
		<tag k="natural" v="bay" />
		<tag k="ssr:stedsnr" v="319143" />
	</node>
	<node id="-639246" lat="66.172491671" lon="13.1511500022">
		<tag k="name" v="Langstrand" />
		<tag k="natural" v="beach" />
		<tag k="place" v="locality" />
		<tag k="ssr:stedsnr" v="652855" />
	</node>
	<node id="-639244" lat="66.0217916688" lon="12.938102789">
		<tag k="name" v="Landvindshola" />
		<tag k="natural" v="bay" />
		<tag k="ssr:stedsnr" v="651497" />
	</node>
	<node id="-638219" lat="66.0382805557" lon="12.9463666655">
		<tag k="name" v="Kolbergodden" />
		<tag k="natural" v="cape" />
		<tag k="ssr:stedsnr" v="319015" />
	</node>
	<node id="-638729" lat="66.0648527777" lon="12.8122055617">
		<tag k="name" v="Revet" />
		<tag k="natural" v="shoal" />
		<tag k="place" v="locality" />
		<tag k="ssr:stedsnr" v="168769" />
	</node>
	<node id="-639020" lat="66.0667833362" lon="13.029444443">
		<tag k="name" v="Storvika" />
		<tag k="natural" v="bay" />
		<tag k="ssr:stedsnr" v="501193" />
	</node>
	<node id="-639238" lat="66.0481083317" lon="12.6746138793">
		<tag k="name" v="Sandvika" />
		<tag k="natural" v="bay" />
		<tag k="ssr:stedsnr" v="622996" />
	</node>
	<node id="-638722" lat="66.0442777778" lon="12.6655972186">
		<tag k="name" v="Skjåvika" />
		<tag k="natural" v="bay" />
		<tag k="ssr:stedsnr" v="168663" />
	</node>
	<node id="-639275" lat="66.1295305516" lon="12.8404694447">
		<tag k="name" v="Merravika" />
		<tag k="natural" v="bay" />
		<tag k="ssr:stedsnr" v="653937" />
	</node>
	<node id="-638720" lat="66.0367083331" lon="12.6829861156">
		<tag k="name" v="Hundsrevtangen" />
		<tag k="natural" v="cape" />
		<tag k="ssr:stedsnr" v="168634" />
	</node>
	<node id="-639104" lat="66.0524694403" lon="12.9666305653">
		<tag k="name" v="Nordvika" />
		<tag k="natural" v="bay" />
		<tag k="ssr:stedsnr" v="561036" />
	</node>
	<node id="-638716" lat="66.1183194421" lon="12.8219416621">
		<tag k="fixme" v="consider seamark:type=rock or natural=shoal" />
		<tag k="name" v="Randiskjæran" />
		<tag k="place" v="islet" />
		<tag k="ssr:stedsnr" v="168449" />
	</node>
	<node id="-638710" lat="66.057919448" lon="12.7639499992">
		<tag k="name" v="Litlholmen" />
		<tag k="place" v="islet" />
		<tag k="ssr:stedsnr" v="168096" />
	</node>
	<node id="-638196" lat="66.072430552" lon="13.0426277685">
		<tag k="name" v="Åselvneset" />
		<tag k="natural" v="cape" />
		<tag k="ssr:stedsnr" v="290814" />
	</node>
	<node id="-639217" lat="66.0569194436" lon="12.758777779">
		<tag k="fixme" v="multiple name tags, choose one and add the other to alt_name" />
		<tag k="name" v="Meisfjordholmen;Storholmen" />
		<tag k="place" v="islet" />
		<tag k="ssr:stedsnr" v="622060" />
	</node>
	<node id="-639214" lat="66.0504361106" lon="12.9352972242">
		<tag k="name" v="Skogvikgrunna" />
		<tag k="natural" v="shoal" />
		<tag k="place" v="locality" />
		<tag k="ssr:stedsnr" v="622036" />
	</node>
	<node id="-639725" lat="66.1543361077" lon="13.0798277784">
		<tag k="name" v="Jørgenodden" />
		<tag k="natural" v="cape" />
		<tag k="ssr:stedsnr" v="957905" />
	</node>
	<node id="-639666" lat="66.0386888862" lon="12.7004694474">
		<tag k="fixme" v="multiple name tags, choose one and add the other to alt_name; consider seamark:type=rock or natural=shoal" />
		<tag k="name" v="Buvikskjæran;Trongvikskjæran" />
		<tag k="place" v="islet" />
		<tag k="ssr:stedsnr" v="926877" />
	</node>
	<node id="-639211" lat="66.0350388899" lon="12.9183138977">
		<tag k="fixme" v="multiple name tags, choose one and add the other to alt_name" />
		<tag k="name" v="Falkbuvika;Fardbåtvika" />
		<tag k="natural" v="bay" />
		<tag k="ssr:stedsnr" v="622017" />
	</node>
	<node id="-638698" lat="66.0603194402" lon="12.6980972287">
		<tag k="fixme" v="consider seamark:type=rock or natural=shoal" />
		<tag k="name" v="Skinnbrokskjæret" />
		<tag k="place" v="islet" />
		<tag k="ssr:stedsnr" v="167126" />
	</node>
	<node id="-638697" lat="66.0576583291" lon="12.7490555518">
		<tag k="name" v="Siket" />
		<tag k="natural" v="beach" />
		<tag k="place" v="locality" />
		<tag k="ssr:stedsnr" v="167078" />
	</node>
	<node id="-639718" lat="66.0772249985" lon="13.0480944443">
		<tag k="name" v="Leirfjæra" />
		<tag k="natural" v="bay" />
		<tag k="ssr:stedsnr" v="957826" />
	</node>
	<node id="-638693" lat="65.9728000038" lon="12.7634083287">
		<tag k="name" v="Nerodden" />
		<tag k="natural" v="cape" />
		<tag k="ssr:stedsnr" v="166091" />
	</node>
	<node id="-638180" lat="66.0512527788" lon="12.7912138869">
		<tag k="fixme" v="consider seamark:type=rock or natural=shoal" />
		<tag k="name" v="Kuvikskjæret" />
		<tag k="place" v="islet" />
		<tag k="ssr:stedsnr" v="290551" />
	</node>
	<node id="-638691" lat="66.0081194437" lon="12.9500638998">
		<tag k="fixme" v="consider seamark:type=rock or natural=shoal" />
		<tag k="name" v="Kobbskjæret" />
		<tag k="place" v="islet" />
		<tag k="ssr:stedsnr" v="166069" />
	</node>
	<node id="-639714" lat="66.0546972212" lon="12.97055556">
		<tag k="name" v="Nordvikklubben" />
		<tag k="natural" v="cape" />
		<tag k="ssr:stedsnr" v="957722" />
	</node>
	<node id="-638687" lat="66.190899996" lon="13.2204750033">
		<tag k="name" v="Storvika" />
		<tag k="natural" v="bay" />
		<tag k="ssr:stedsnr" v="137402" />
	</node>
	<node id="-638684" lat="66.0583472177" lon="12.7234527871">
		<tag k="bay" v="fjord" />
		<tag k="name" v="Ulvangfjorden" />
		<tag k="natural" v="bay" />
		<tag k="ssr:stedsnr" v="137043" />
	</node>
	<node id="-638557" lat="66.0522749975" lon="12.8038888935">
		<tag k="name" v="Buneset" />
		<tag k="natural" v="cape" />
		<tag k="ssr:stedsnr" v="76022" />
	</node>
	<node id="-639191" lat="66.0560861107" lon="12.9751333401">
		<tag k="name" v="Finnvika" />
		<tag k="natural" v="bay" />
		<tag k="ssr:stedsnr" v="593773" />
	</node>
	<node id="-639700" lat="66.0345694403" lon="12.6742111064">
		<tag k="name" v="Inderhamn" />
		<tag k="natural" v="bay" />
		<tag k="ssr:stedsnr" v="957663" />
	</node>
	<node id="-639699" lat="66.0339722241" lon="12.658322229">
		<tag k="fixme" v="consider seamark:type=rock or natural=shoal" />
		<tag k="name" v="Grauten" />
		<tag k="place" v="islet" />
		<tag k="ssr:stedsnr" v="957660" />
	</node>
	<node id="-638328" lat="66.0525861095" lon="12.7275416679">
		<tag k="bay" v="fjord" />
		<tag k="name" v="Meisfjorden" />
		<tag k="natural" v="bay" />
		<tag k="ssr:stedsnr" v="379864" />
	</node>
	<node id="-638666" lat="66.0489722238" lon="12.9579888984">
		<tag k="name" v="Skogvika" />
		<tag k="natural" v="bay" />
		<tag k="ssr:stedsnr" v="136057" />
	</node>
	<node id="-638663" lat="66.045252776" lon="12.9484527824">
		<tag k="alt_name" v="Geitskorhola" />
		<tag k="name" v="Gjeskenhola" />
		<tag k="natural" v="bay" />
		<tag k="ssr:stedsnr" v="136032" />
	</node>
	<node id="-639685" lat="66.0650805561" lon="12.669688884">
		<tag k="fixme" v="consider seamark:type=rock or natural=shoal" />
		<tag k="name" v="Holtskjæret" />
		<tag k="place" v="islet" />
		<tag k="ssr:stedsnr" v="956132" />
	</node>
	<node id="-638659" lat="66.1087222263" lon="12.7856833262">
		<tag k="fixme" v="consider seamark:type=rock or natural=shoal" />
		<tag k="name" v="Geitskjæret" />
		<tag k="place" v="islet" />
		<tag k="ssr:stedsnr" v="108982" />
	</node>
	<node id="-638146" lat="66.0649222198" lon="12.6698305563">
		<tag k="name" v="Holtskjæret" />
		<tag k="natural" v="shoal" />
		<tag k="place" v="locality" />
		<tag k="ssr:stedsnr" v="269570" />
	</node>
	<node id="-639166" lat="66.1577277774" lon="13.0717194554">
		<tag k="name" v="Ytterklubben" />
		<tag k="natural" v="cape" />
		<tag k="ssr:stedsnr" v="592928" />
	</node>
	<node id="-638652" lat="66.0691888863" lon="12.9866444398">
		<tag k="name" v="Breilandsosen" />
		<tag k="natural" v="bay" />
		<tag k="ssr:stedsnr" v="108844" />
	</node>
	<node id="-638154" lat="66.057083336" lon="12.743238879">
		<tag k="name" v="Hamran" />
		<tag k="natural" v="cape" />
		<tag k="ssr:stedsnr" v="289074" />
	</node>
	<node id="-639162" lat="66.1146777772" lon="12.8156250077">
		<tag k="name" v="Juvika" />
		<tag k="natural" v="bay" />
		<tag k="ssr:stedsnr" v="592468" />
	</node>
	<node id="-639007" lat="66.0530472244" lon="12.8499138839">
		<tag k="name" v="Vollavika" />
		<tag k="natural" v="bay" />
		<tag k="ssr:stedsnr" v="501029" />
	</node>
	<node id="-638189" lat="66.0528694413" lon="12.8326583372">
		<tag k="fixme" v="consider seamark:type=rock or natural=shoal" />
		<tag k="name" v="Kobbskjæret" />
		<tag k="place" v="islet" />
		<tag k="ssr:stedsnr" v="290709" />
	</node>
	<node id="-639670" lat="66.0599000006" lon="12.7236083298">
		<tag k="bay" v="fjord" />
		<tag k="name" v="Ulvangen" />
		<tag k="natural" v="bay" />
		<tag k="ssr:stedsnr" v="936420" />
	</node>
	<node id="-638645" lat="66.0426916704" lon="12.7266749926">
		<tag k="name" v="Nisneset" />
		<tag k="natural" v="cape" />
		<tag k="ssr:stedsnr" v="108751" />
	</node>
	<node id="-638644" lat="66.0528999974" lon="12.852652774">
		<tag k="name" v="Saltvika" />
		<tag k="natural" v="bay" />
		<tag k="ssr:stedsnr" v="108746" />
	</node>
	<node id="-639667" lat="66.0305861117" lon="12.6518194423">
		<tag k="fixme" v="consider seamark:type=rock or natural=shoal" />
		<tag k="name" v="Suttaren" />
		<tag k="place" v="islet" />
		<tag k="ssr:stedsnr" v="926887" />
	</node>
	<node id="-639154" lat="66.0626805533" lon="12.7524722248">
		<tag k="name" v="Skjåtangen" />
		<tag k="natural" v="cape" />
		<tag k="ssr:stedsnr" v="592165" />
	</node>
	<node id="-639665" lat="66.1355972233" lon="12.8422166619">
		<tag k="bay" v="fjord" />
		<tag k="name" v="Ranfjorden" />
		<tag k="natural" v="bay" />
		<tag k="ssr:stedsnr" v="926804" />
	</node>
	<node id="-639148" lat="66.0093166661" lon="12.9523638845">
		<tag k="name" v="Langnesleira" />
		<tag k="natural" v="bay" />
		<tag k="ssr:stedsnr" v="591058" />
	</node>
	<node id="-639654" lat="66.1460694415" lon="12.9813833399">
		<tag k="name" v="Velsvågen" />
		<tag k="natural" v="bay" />
		<tag k="ssr:stedsnr" v="926174" />
	</node>
	<node id="-639653" lat="66.1180138922" lon="12.8221666649">
		<tag k="name" v="Geitneset" />
		<tag k="natural" v="cape" />
		<tag k="ssr:stedsnr" v="926161" />
	</node>
	<node id="-639101" lat="66.0368999995" lon="12.9515694483">
		<tag k="fixme" v="multiple name tags, choose one and add the other to alt_name" />
		<tag k="name" v="Kvitingsbukta;Vedingsbukta" />
		<tag k="natural" v="bay" />
		<tag k="ssr:stedsnr" v="561026" />
	</node>
	<node id="-639651" lat="65.9726222217" lon="12.7495722229">
		<tag k="name" v="Kvalnesbogen" />
		<tag k="natural" v="bay" />
		<tag k="ssr:stedsnr" v="926073" />
	</node>
	<node id="-639650" lat="65.9847666665" lon="12.8495249919">
		<tag k="name" v="Åkvikneset" />
		<tag k="natural" v="cape" />
		<tag k="ssr:stedsnr" v="926067" />
	</node>
	<node id="-638623" lat="66.1617472201" lon="13.0945250038">
		<tag k="fixme" v="consider seamark:type=rock or natural=shoal" />
		<tag k="name" v="Kobbskjæret" />
		<tag k="place" v="islet" />
		<tag k="ssr:stedsnr" v="107928" />
	</node>
	<node id="-639644" lat="66.1099444431" lon="12.7894027749">
		<tag k="alt_name" v="Laholman" />
		<tag k="name" v="Laholmen" />
		<tag k="place" v="islet" />
		<tag k="ssr:stedsnr" v="925149" />
	</node>
	<node id="-639641" lat="66.008513886" lon="12.9505027856">
		<tag k="fixme" v="multiple name tags, choose one and add the other to alt_name" />
		<tag k="name" v="Langnesberget;Langneset" />
		<tag k="natural" v="cape" />
		<tag k="ssr:stedsnr" v="925017" />
	</node>
	<node id="-639636" lat="66.0388861136" lon="12.7487861074">
		<tag k="fixme" v="consider seamark:type=rock or natural=shoal" />
		<tag k="name" v="Storskjæret" />
		<tag k="place" v="islet" />
		<tag k="ssr:stedsnr" v="926026" />
	</node>
	<node id="-639122" lat="66.0720444399" lon="13.0433583423">
		<tag k="name" v="Åselvkjeften" />
		<tag k="natural" v="bay" />
		<tag k="ssr:stedsnr" v="561203" />
	</node>
	<node id="-639633" lat="66.0261527767" lon="12.9415027703">
		<tag k="name" v="Palmvika" />
		<tag k="natural" v="bay" />
		<tag k="ssr:stedsnr" v="926010" />
	</node>
	<node id="-639118" lat="66.147483332" lon="12.9775666606">
		<tag k="name" v="Velsvågodden" />
		<tag k="natural" v="cape" />
		<tag k="ssr:stedsnr" v="561165" />
	</node>
	<node id="-639628" lat="66.0443027778" lon="12.6554694491">
		<tag k="fixme" v="consider seamark:type=rock or natural=shoal" />
		<tag k="name" v="Storøyskjæret" />
		<tag k="place" v="islet" />
		<tag k="ssr:stedsnr" v="866000" />
	</node>
	<node id="-639115" lat="66.1305222191" lon="12.8535611011">
		<tag k="name" v="Klipen" />
		<tag k="natural" v="cape" />
		<tag k="ssr:stedsnr" v="561150" />
	</node>
	<node id="-638708" lat="66.1514888858" lon="13.0047361136">
		<tag k="name" v="Masstuodden" />
		<tag k="natural" v="cape" />
		<tag k="ssr:stedsnr" v="167921" />
	</node>
	<node id="-638601" lat="65.9737888896" lon="12.7769222218">
		<tag k="fixme" v="consider seamark:type=rock or natural=shoal" />
		<tag k="name" v="Kvalbaken" />
		<tag k="place" v="islet" />
		<tag k="ssr:stedsnr" v="106091" />
	</node>
	<node id="-638600" lat="66.0132194419" lon="12.9437055492">
		<tag k="name" v="Storbåtvika" />
		<tag k="natural" v="bay" />
		<tag k="ssr:stedsnr" v="105502" />
	</node>
	<node id="-639622" lat="66.0967638918" lon="12.7474444488">
		<tag k="name" v="Akselvika" />
		<tag k="natural" v="bay" />
		<tag k="ssr:stedsnr" v="865283" />
	</node>
	<node id="-638595" lat="66.0613305543" lon="12.7074833395">
		<tag k="name" v="Tofta" />
		<tag k="natural" v="cape" />
		<tag k="ssr:stedsnr" v="87563" />
	</node>
	<node id="-638593" lat="65.9632027773" lon="12.7342694371">
		<tag k="name" v="Sandvikskjæret" />
		<tag k="place" v="locality" />
		<tag k="seamark:type" v="rock" />
		<tag k="ssr:stedsnr" v="86278" />
	</node>
	<node id="-638592" lat="66.0484499973" lon="12.673888893">
		<tag k="fixme" v="consider seamark:type=rock or natural=shoal" />
		<tag k="name" v="Sandvikskjæret" />
		<tag k="place" v="islet" />
		<tag k="ssr:stedsnr" v="76995" />
	</node>
	<node id="-638591" lat="66.0607499981" lon="12.733566667">
		<tag k="alt_name" v="Ulvangsfjorden" />
		<tag k="bay" v="fjord" />
		<tag k="name" v="Ulvangen" />
		<tag k="natural" v="bay" />
		<tag k="ssr:stedsnr" v="76961" />
	</node>
	<node id="-639202" lat="66.0939277765" lon="12.7381249967">
		<tag k="name" v="Inner-Mikkelvika" />
		<tag k="natural" v="bay" />
		<tag k="ssr:stedsnr" v="597282" />
	</node>
	<node id="-638589" lat="66.072594446" lon="12.6896277747">
		<tag k="alt_name" v="Strendene" />
		<tag k="name" v="Strendern" />
		<tag k="natural" v="beach" />
		<tag k="place" v="locality" />
		<tag k="ssr:stedsnr" v="76948" />
	</node>
	<node id="-638587" lat="66.043552779" lon="12.6585750067">
		<tag k="name" v="Øytangen" />
		<tag k="natural" v="cape" />
		<tag k="ssr:stedsnr" v="76870" />
	</node>
	<node id="-639423" lat="66.0814388921" lon="12.700316657">
		<tag k="name" v="Forneset" />
		<tag k="natural" v="cape" />
		<tag k="ssr:stedsnr" v="753365" />
	</node>
	<node id="-639608" lat="66.113927781" lon="12.8094666635">
		<tag k="name" v="Skjåviktangen" />
		<tag k="natural" v="cape" />
		<tag k="ssr:stedsnr" v="865160" />
	</node>
	<node id="-639508" lat="66.0104166652" lon="12.9216805473">
		<tag k="name" v="Sundosen" />
		<tag k="natural" v="bay" />
		<tag k="ssr:stedsnr" v="804142" />
	</node>
	<node id="-639606" lat="65.9803944425" lon="12.8013138832">
		<tag k="name" v="Leirvika" />
		<tag k="natural" v="bay" />
		<tag k="ssr:stedsnr" v="865107" />
	</node>
	<node id="-639422" lat="66.0363972196" lon="12.6724611139">
		<tag k="name" v="Leinesodden" />
		<tag k="natural" v="cape" />
		<tag k="ssr:stedsnr" v="744882" />
	</node>
	<node id="-639599" lat="66.0610694428" lon="12.9510583438">
		<tag k="name" v="Breivikodden" />
		<tag k="natural" v="cape" />
		<tag k="ssr:stedsnr" v="865061" />
	</node>
	<node id="-638566" lat="65.9704583307" lon="12.7607249956">
		<tag k="fixme" v="multiple name tags, choose one and add the other to alt_name" />
		<tag k="name" v="Kvalneset;Odden" />
		<tag k="natural" v="cape" />
		<tag k="ssr:stedsnr" v="76141" />
	</node>
	<node id="-638565" lat="65.967091671" lon="12.7459944522">
		<tag k="fixme" v="consider seamark:type=rock or natural=shoal" />
		<tag k="name" v="Skarvskjæret" />
		<tag k="place" v="islet" />
		<tag k="ssr:stedsnr" v="76134" />
	</node>
	<node id="-639588" lat="66.068741667" lon="12.9868472183">
		<tag k="name" v="Osneset" />
		<tag k="natural" v="cape" />
		<tag k="ssr:stedsnr" v="836875" />
	</node>
	<node id="-639334" lat="66.0130138931" lon="12.9445694481">
		<tag k="name" v="Kvitneset" />
		<tag k="natural" v="cape" />
		<tag k="ssr:stedsnr" v="712469" />
	</node>
	<node id="-639163" lat="66.1024388855" lon="12.7558055581">
		<tag k="name" v="Stokkvika" />
		<tag k="natural" v="bay" />
		<tag k="ssr:stedsnr" v="592480" />
	</node>
	<node id="-638559" lat="66.059872221" lon="12.9903666622">
		<tag k="name" v="Rørvika" />
		<tag k="natural" v="bay" />
		<tag k="ssr:stedsnr" v="76064" />
	</node>
	<node id="-639581" lat="66.2213805555" lon="13.3984861068">
		<tag k="name" v="Klubben" />
		<tag k="natural" v="cape" />
		<tag k="ssr:stedsnr" v="836853" />
	</node>
	<node id="-639068" lat="66.0521027793" lon="12.9050583315">
		<tag k="name" v="Hundsneset" />
		<tag k="natural" v="cape" />
		<tag k="ssr:stedsnr" v="532736" />
	</node>
	<node id="-639674" lat="65.9815027788" lon="12.8130583342">
		<tag k="name" v="Breivika" />
		<tag k="natural" v="bay" />
		<tag k="ssr:stedsnr" v="941813" />
	</node>
	<node id="-639450" lat="66.0826888851" lon="12.7014138831">
		<tag k="name" v="Nordvika" />
		<tag k="natural" v="bay" />
		<tag k="ssr:stedsnr" v="775384" />
	</node>
	<node id="-639076" lat="66.0662777759" lon="12.9775972194">
		<tag k="fixme" v="consider seamark:type=rock or natural=shoal" />
		<tag k="name" v="Munkvikskjæret" />
		<tag k="place" v="islet" />
		<tag k="ssr:stedsnr" v="532829" />
	</node>
	<node id="-639574" lat="66.0398111094" lon="12.9153138978">
		<tag k="name" v="Fornesstranda" />
		<tag k="natural" v="beach" />
		<tag k="place" v="locality" />
		<tag k="ssr:stedsnr" v="836722" />
	</node>
	<node id="-639060" lat="66.0401666639" lon="12.7082833384">
		<tag k="name" v="Ytterbuvika" />
		<tag k="natural" v="bay" />
		<tag k="ssr:stedsnr" v="532642" />
	</node>
	<node id="-639569" lat="66.0427444411" lon="12.7266305606">
		<tag k="name" v="Leinesbuvika" />
		<tag k="natural" v="bay" />
		<tag k="ssr:stedsnr" v="836617" />
	</node>
	<node id="-639566" lat="66.0491222196" lon="12.7706194538">
		<tag k="name" v="Krokneset" />
		<tag k="natural" v="cape" />
		<tag k="ssr:stedsnr" v="836605" />
	</node>
	<node id="-639053" lat="66.1035083304" lon="12.7596555564">
		<tag k="name" v="Stivika" />
		<tag k="natural" v="bay" />
		<tag k="ssr:stedsnr" v="532426" />
	</node>
	<node id="-639564" lat="66.0396888876" lon="12.9462861089">
		<tag k="name" v="Låvvika" />
		<tag k="natural" v="bay" />
		<tag k="ssr:stedsnr" v="836508" />
	</node>
	<node id="-638539" lat="66.0626194436" lon="12.9560166771">
		<tag k="name" v="Bjønnvika" />
		<tag k="natural" v="bay" />
		<tag k="ssr:stedsnr" v="47818" />
	</node>
	<node id="-638537" lat="66.060819443" lon="12.9968555452">
		<tag k="name" v="Forslandssyen" />
		<tag k="natural" v="bay" />
		<tag k="ssr:stedsnr" v="47811" />
	</node>
	<node id="-639560" lat="66.021327776" lon="12.9113472278">
		<tag k="name" v="Bukta" />
		<tag k="natural" v="bay" />
		<tag k="ssr:stedsnr" v="836391" />
	</node>
	<node id="-639634" lat="66.0360194399" lon="12.7526444495">
		<tag k="name" v="Kjerkflua" />
		<tag k="natural" v="shoal" />
		<tag k="place" v="locality" />
		<tag k="ssr:stedsnr" v="926023" />
	</node>
	<node id="-638531" lat="66.0522611112" lon="12.8404583258">
		<tag k="fixme" v="consider seamark:type=rock or natural=shoal" />
		<tag k="name" v="Djupskjæret" />
		<tag k="place" v="islet" />
		<tag k="ssr:stedsnr" v="47755" />
	</node>
	<node id="-638530" lat="66.0347138865" lon="12.8802861162">
		<tag k="name" v="Selvåggrunnen" />
		<tag k="natural" v="shoal" />
		<tag k="place" v="locality" />
		<tag k="ssr:stedsnr" v="47734" />
	</node>
	<node id="-639268" lat="66.0694444435" lon="13.035116667">
		<tag k="name" v="Hysvika" />
		<tag k="natural" v="bay" />
		<tag k="ssr:stedsnr" v="653847" />
	</node>
	<node id="-639626" lat="66.0646194425" lon="12.6819722167">
		<tag k="name" v="Angarsnes" />
		<tag k="natural" v="cape" />
		<tag k="old_name" v="Angersneset;Angerneset" />
		<tag k="ssr:stedsnr" v="865981" />
	</node>
	<node id="-639327" lat="66.0472083371" lon="12.6776888802">
		<tag k="name" v="Ulvangsøya" />
		<tag k="place" v="island" />
		<tag k="ssr:stedsnr" v="683989" />
	</node>
	<node id="-639668" lat="66.0609361149" lon="12.676569456">
		<tag k="name" v="Skjåtangen" />
		<tag k="natural" v="cape" />
		<tag k="ssr:stedsnr" v="926979" />
	</node>
	<node id="-639241" lat="66.0010083354" lon="12.9450944475">
		<tag k="name" v="Hesthagvika" />
		<tag k="natural" v="bay" />
		<tag k="ssr:stedsnr" v="651073" />
	</node>
	<node id="-639537" lat="65.9811416632" lon="12.8743361145">
		<tag k="name" v="Fjordgrunna" />
		<tag k="natural" v="shoal" />
		<tag k="place" v="locality" />
		<tag k="ssr:stedsnr" v="814485" />
	</node>
	<node id="-639534" lat="65.9707888859" lon="12.8976722193">
		<tag k="name" v="Nubben" />
		<tag k="natural" v="cape" />
		<tag k="ssr:stedsnr" v="805105" />
	</node>
	<node id="-639069" lat="66.0520666698" lon="12.8526861166">
		<tag k="name" v="Kalvgardsneset" />
		<tag k="natural" v="cape" />
		<tag k="ssr:stedsnr" v="532749" />
	</node>
	<node id="-639532" lat="66.1814833314" lon="13.1928027753">
		<tag k="name" v="Turineset" />
		<tag k="natural" v="cape" />
		<tag k="ssr:stedsnr" v="804800" />
	</node>
	<node id="-638386" lat="66.1233499965" lon="12.8221944478">
		<tag k="name" v="Hestnesvika" />
		<tag k="natural" v="bay" />
		<tag k="ssr:stedsnr" v="411926" />
	</node>
	<node id="-639018" lat="66.1470944479" lon="12.9984611077">
		<tag k="name" v="Notneset" />
		<tag k="natural" v="cape" />
		<tag k="ssr:stedsnr" v="501162" />
	</node>
	<node id="-639016" lat="66.1365416632" lon="12.8989916561">
		<tag k="name" v="Urdstranda" />
		<tag k="natural" v="beach" />
		<tag k="place" v="locality" />
		<tag k="ssr:stedsnr" v="501142" />
	</node>
	<node id="-639527" lat="66.1872555527" lon="13.2243138801">
		<tag k="name" v="Austvika" />
		<tag k="natural" v="bay" />
		<tag k="ssr:stedsnr" v="804448" />
	</node>
	<node id="-638501" lat="66.0209222207" lon="12.9385083297">
		<tag k="name" v="Mortberget" />
		<tag k="natural" v="cape" />
		<tag k="ssr:stedsnr" v="45484" />
	</node>
	<node id="-639012" lat="66.1956555585" lon="13.2332361222">
		<tag k="name" v="Neppelodden" />
		<tag k="natural" v="cape" />
		<tag k="ssr:stedsnr" v="501074" />
	</node>
	<node id="-639579" lat="66.0614138889" lon="12.9485222142">
		<tag k="name" v="Breivika" />
		<tag k="natural" v="bay" />
		<tag k="ssr:stedsnr" v="836837" />
	</node>
	<node id="-639408" lat="66.0424833374" lon="12.6942138927">
		<tag k="name" v="Leines" />
		<tag k="natural" v="cape" />
		<tag k="ssr:stedsnr" v="743881" />
	</node>
	<node id="-638494" lat="66.0031555573" lon="12.9167694383">
		<tag k="name" v="Jystadstranda" />
		<tag k="natural" v="beach" />
		<tag k="place" v="locality" />
		<tag k="ssr:stedsnr" v="25417" />
	</node>
	<node id="-639005" lat="66.1806666639" lon="13.2032083271">
		<tag k="name" v="Langnesvågen" />
		<tag k="natural" v="bay" />
		<tag k="ssr:stedsnr" v="500843" />
	</node>
	<node id="-639001" lat="65.9595305591" lon="12.6870138984">
		<tag k="name" v="Storvika" />
		<tag k="natural" v="bay" />
		<tag k="ssr:stedsnr" v="500362" />
	</node>
	<node id="-638486" lat="66.0389861068" lon="12.6973750048">
		<tag k="name" v="Hundsrauvtangen" />
		<tag k="natural" v="bay" />
		<tag k="ssr:stedsnr" v="15886" />
	</node>
	<node id="-639509" lat="66.0146722246" lon="12.9295861133">
		<tag k="name" v="Sundberget" />
		<tag k="natural" v="cape" />
		<tag k="ssr:stedsnr" v="804148" />
	</node>
	<node id="-638484" lat="66.1831083322" lon="13.2036944403">
		<tag k="name" v="Langneset" />
		<tag k="natural" v="cape" />
		<tag k="ssr:stedsnr" v="15825" />
	</node>
	<node id="-638991" lat="66.0674472223" lon="13.0310472153">
		<tag k="name" v="Stongneset" />
		<tag k="natural" v="cape" />
		<tag k="ssr:stedsnr" v="472823" />
	</node>
	<node id="-638477" lat="66.1511999977" lon="13.0641805505">
		<tag k="name" v="Juvika" />
		<tag k="natural" v="bay" />
		<tag k="ssr:stedsnr" v="15163" />
	</node>
	<node id="-638983" lat="66.0368555592" lon="12.6667944354">
		<tag k="name" v="Oddvika" />
		<tag k="natural" v="bay" />
		<tag k="ssr:stedsnr" v="472642" />
	</node>
	<node id="-638721" lat="66.0489999985" lon="12.69510834">
		<tag k="name" v="Andreas-Bensovika" />
		<tag k="natural" v="bay" />
		<tag k="ssr:stedsnr" v="168656" />
	</node>
	<node id="-639062" lat="66.0474888855" lon="12.6858694527">
		<tag k="name" v="Hestvika" />
		<tag k="natural" v="bay" />
		<tag k="ssr:stedsnr" v="532663" />
	</node>
</osm>
