<?xml version="1.0" encoding="UTF-8"?>
<osm version="0.6" generator="osmapis">
	<node lat="65.98515277938438" lon="12.786277771959686" id="-7695">
		<tag k="name" v="Stormyra" />
		<tag k="natural" v="wetland" />
		<tag k="ssr:stedsnr" v="45070" />
	</node>
	<node lat="66.11598611132243" lon="13.065041677365274" id="-7697">
		<tag k="name" v="Skarmyra" />
		<tag k="natural" v="wetland" />
		<tag k="ssr:stedsnr" v="46517" />
	</node>
	<node lat="66.07189444535382" lon="12.848908328255677" id="-7795">
		<tag k="name" v="Åsenget" />
		<tag k="natural" v="wetland" />
		<tag k="ssr:stedsnr" v="168813" />
	</node>
	<node lat="66.12599999883284" lon="12.892802768669329" id="-7804">
		<tag k="name" v="Kvannbakkmyra" />
		<tag k="natural" v="wetland" />
		<tag k="ssr:stedsnr" v="168962" />
	</node>
	<node lat="66.0666499984352" lon="12.75085277648076" id="-7825">
		<tag k="name" v="Holtan" />
		<tag k="place" v="locality" />
		<tag k="ssr:stedsnr" v="228083" />
	</node>
	<node lat="66.08886666966644" lon="13.027194437503248" id="-7828">
		<tag k="name" v="Fagermarka" />
		<tag k="place" v="locality" />
		<tag k="ssr:stedsnr" v="228242" />
	</node>
	<node lat="66.08867221863252" lon="12.740611110153065" id="-7835">
		<tag k="name" v="Hagamyra" />
		<tag k="natural" v="wetland" />
		<tag k="ssr:stedsnr" v="229311" />
	</node>
	<node lat="66.05036944380697" lon="12.988408325993884" id="-7841">
		<tag k="name" v="Forslandsengan" />
		<tag k="natural" v="wetland" />
		<tag k="ssr:stedsnr" v="229696" />
	</node>
	<node lat="66.10347499764724" lon="13.09609998918544" id="-7864">
		<tag k="name" v="Tovåsmyran" />
		<tag k="natural" v="wetland" />
		<tag k="ssr:stedsnr" v="258257" />
	</node>
	<node lat="66.11846388697089" lon="12.844022232713554" id="-7875">
		<tag k="name" v="Vardholtan" />
		<tag k="place" v="locality" />
		<tag k="ssr:stedsnr" v="289483" />
	</node>
	<node lat="66.04940833643437" lon="12.74307223348251" id="-7939">
		<tag k="name" v="Vargsteinen" />
		<tag k="natural" v="stone" />
		<tag k="ssr:stedsnr" v="472627" />
	</node>
	<node lat="66.07252777393231" lon="12.766825000580944" id="-7948">
		<tag k="name" v="Ingebærlimyra" />
		<tag k="natural" v="wetland" />
		<tag k="ssr:stedsnr" v="349202" />
	</node>
	<node lat="66.13504166293475" lon="13.17197778249513" id="-7964">
		<tag k="name" v="Hubuhaugmyra" />
		<tag k="natural" v="wetland" />
		<tag k="ssr:stedsnr" v="350963" />
	</node>
	<node lat="66.01922777557614" lon="12.969386112436423" id="-7968">
		<tag k="name" v="Svartmyra" />
		<tag k="natural" v="wetland" />
		<tag k="ssr:stedsnr" v="379133" />
	</node>
	<node lat="66.22012222082303" lon="13.37572777305289" id="-7987">
		<tag k="name" v="Nebbsteinen" />
		<tag k="natural" v="stone" />
		<tag k="ssr:stedsnr" v="410848" />
	</node>
	<node lat="66.03139721968513" lon="12.980444444017133" id="-7991">
		<tag k="name" v="Forsmyra" />
		<tag k="natural" v="wetland" />
		<tag k="ssr:stedsnr" v="411447" />
	</node>
	<node lat="66.08707222424896" lon="12.7397999926416" id="-7993">
		<tag k="name" v="Storsteinen" />
		<tag k="natural" v="stone" />
		<tag k="ssr:stedsnr" v="411305" />
	</node>
	<node lat="66.07385277807332" lon="13.092027769998476" id="-8020">
		<tag k="name" v="Limyra" />
		<tag k="natural" v="wetland" />
		<tag k="ssr:stedsnr" v="440090" />
	</node>
	<node lat="66.10304166575327" lon="13.072419441581099" id="-8039">
		<tag k="name" v="Storjordet" />
		<tag k="place" v="locality" />
		<tag k="ssr:stedsnr" v="471505" />
	</node>
	<node lat="66.13897777871264" lon="13.07331388527897" id="-8045">
		<tag k="name" v="Skarmyra" />
		<tag k="natural" v="wetland" />
		<tag k="ssr:stedsnr" v="471965" />
	</node>
	<node lat="66.13734444567359" lon="13.20735832539134" id="-8047">
		<tag k="name" v="Finnsåsenget" />
		<tag k="natural" v="wetland" />
		<tag k="ssr:stedsnr" v="471971" />
	</node>
	<node lat="66.06389166230458" lon="13.033347220770812" id="-8052">
		<tag k="name" v="Bleikmyra" />
		<tag k="natural" v="wetland" />
		<tag k="ssr:stedsnr" v="472822" />
	</node>
	<node lat="66.00789722061091" lon="12.879036120792065" id="-8067">
		<tag k="name" v="Hellesvikmyra" />
		<tag k="natural" v="wetland" />
		<tag k="ssr:stedsnr" v="682133" />
	</node>
	<node lat="66.2074416704783" lon="13.431269444562536" id="-8076">
		<tag k="fixme" v="multiple name tags, choose one and add the other to alt_name" />
		<tag k="name" v="Stormyra;Grannesmyra" />
		<tag k="natural" v="wetland" />
		<tag k="ssr:stedsnr" v="683067" />
	</node>
	<node lat="65.99725833013241" lon="12.832800004878576" id="-8077">
		<tag k="alt_name" v="Åkvikmyra" />
		<tag k="name" v="Åkvikmyran" />
		<tag k="natural" v="wetland" />
		<tag k="ssr:stedsnr" v="683090" />
	</node>
	<node lat="66.06242222289475" lon="12.69142777105326" id="-8089">
		<tag k="name" v="Langmyra" />
		<tag k="natural" v="wetland" />
		<tag k="ssr:stedsnr" v="531115" />
	</node>
	<node lat="66.09098888759218" lon="12.888858330965254" id="-8093">
		<tag k="name" v="Holten" />
		<tag k="place" v="locality" />
		<tag k="ssr:stedsnr" v="531309" />
	</node>
	<node lat="66.05770555306303" lon="12.836733336697247" id="-8101">
		<tag k="name" v="Stråmyra" />
		<tag k="natural" v="wetland" />
		<tag k="ssr:stedsnr" v="532770" />
	</node>
	<node lat="66.12721388960304" lon="12.873219442227015" id="-8104">
		<tag k="name" v="Offersteinura" />
		<tag k="natural" v="scree" />
		<tag k="ssr:stedsnr" v="532930" />
	</node>
	<node lat="66.07069722260636" lon="13.057769441758328" id="-8107">
		<tag k="name" v="Limyra" />
		<tag k="natural" v="wetland" />
		<tag k="ssr:stedsnr" v="532822" />
	</node>
	<node lat="66.01018889128216" lon="12.953588891666987" id="-8128">
		<tag k="name" v="Bøåkeren" />
		<tag k="place" v="locality" />
		<tag k="ssr:stedsnr" v="591059" />
	</node>
	<node lat="66.04887222535712" lon="12.983433335792569" id="-8140">
		<tag k="name" v="Stormyra" />
		<tag k="natural" v="wetland" />
		<tag k="ssr:stedsnr" v="593637" />
	</node>
	<node lat="66.06544722312746" lon="12.914033341491695" id="-8143">
		<tag k="name" v="Mohelvetet" />
		<tag k="place" v="locality" />
		<tag k="ssr:stedsnr" v="593808" />
	</node>
	<node lat="66.14029722364975" lon="13.174358323738108" id="-8144">
		<tag k="name" v="Randalsholten" />
		<tag k="place" v="locality" />
		<tag k="ssr:stedsnr" v="593967" />
	</node>
	<node lat="66.0755138893421" lon="12.79822776921079" id="-8157">
		<tag k="name" v="Skjååsmyra" />
		<tag k="natural" v="wetland" />
		<tag k="ssr:stedsnr" v="622217" />
	</node>
	<node lat="66.01424999906465" lon="12.963066667587809" id="-8162">
		<tag k="name" v="Stormyra" />
		<tag k="natural" v="wetland" />
		<tag k="ssr:stedsnr" v="651484" />
	</node>
	<node lat="66.00068888476181" lon="12.823850009156379" id="-8163">
		<tag k="name" v="Aspskogan" />
		<tag k="place" v="locality" />
		<tag k="ssr:stedsnr" v="651489" />
	</node>
	<node lat="66.09795555323898" lon="13.062588879898051" id="-8168">
		<tag k="name" v="Storjorda" />
		<tag k="natural" v="wetland" />
		<tag k="ssr:stedsnr" v="653483" />
	</node>
	<node lat="66.12306110734966" lon="13.1326305625429" id="-8178">
		<tag k="name" v="Segelforsmyra" />
		<tag k="natural" v="wetland" />
		<tag k="ssr:stedsnr" v="653983" />
	</node>
	<node lat="66.08589166568318" lon="12.74335833994785" id="-8202">
		<tag k="name" v="Holten" />
		<tag k="place" v="locality" />
		<tag k="ssr:stedsnr" v="896322" />
	</node>
	<node lat="66.11335833575315" lon="13.083752785302396" id="-8215">
		<tag k="name" v="Krenglo" />
		<tag k="place" v="locality" />
		<tag k="ssr:stedsnr" v="897444" />
	</node>
	<node lat="66.06087222323843" lon="12.833683330742886" id="-8226">
		<tag k="name" v="Båtstøforrholten" />
		<tag k="place" v="locality" />
		<tag k="ssr:stedsnr" v="897733" />
	</node>
	<node lat="66.12747222359523" lon="12.87259722687896" id="-8231">
		<tag k="name" v="Offersteinen" />
		<tag k="natural" v="stone" />
		<tag k="ssr:stedsnr" v="897928" />
	</node>
	<node lat="66.1600694463317" lon="13.11434721270486" id="-8234">
		<tag k="name" v="Kalvåsmyra" />
		<tag k="natural" v="wetland" />
		<tag k="ssr:stedsnr" v="897889" />
	</node>
	<node lat="66.00621389121912" lon="12.909461102629898" id="-8237">
		<tag k="name" v="Brunesmyra" />
		<tag k="natural" v="wetland" />
		<tag k="ssr:stedsnr" v="711011" />
	</node>
	<node lat="66.11852777631466" lon="13.114080544280412" id="-8256">
		<tag k="name" v="Sørengholtan" />
		<tag k="place" v="locality" />
		<tag k="ssr:stedsnr" v="715396" />
	</node>
	<node lat="66.06175833465879" lon="12.776730551287807" id="-8284">
		<tag k="name" v="Bjønneråsmyra" />
		<tag k="natural" v="wetland" />
		<tag k="ssr:stedsnr" v="774171" />
	</node>
	<node lat="66.06721389153284" lon="13.079363879979239" id="-8294">
		<tag k="name" v="Drogsåsmyra" />
		<tag k="natural" v="wetland" />
		<tag k="ssr:stedsnr" v="775668" />
	</node>
	<node lat="66.06202777937351" lon="12.847355563995594" id="-8295">
		<tag k="name" v="Einmoforrholten" />
		<tag k="place" v="locality" />
		<tag k="ssr:stedsnr" v="775811" />
	</node>
	<node lat="66.12376944293527" lon="12.86505554447917" id="-8300">
		<tag k="name" v="Rismyra" />
		<tag k="natural" v="wetland" />
		<tag k="ssr:stedsnr" v="775962" />
	</node>
	<node lat="66.1371333344553" lon="13.183600010064495" id="-8302">
		<tag k="name" v="Fiffiheimen" />
		<tag k="place" v="locality" />
		<tag k="ssr:stedsnr" v="775972" />
	</node>
	<node lat="66.04371666620506" lon="13.008522229617999" id="-8332">
		<tag k="name" v="Hyllåsmyra" />
		<tag k="natural" v="wetland" />
		<tag k="ssr:stedsnr" v="836691" />
	</node>
	<node lat="66.09076666846711" lon="12.869188882074917" id="-8352">
		<tag k="name" v="Fjellåsmyra" />
		<tag k="natural" v="wetland" />
		<tag k="ssr:stedsnr" v="926233" />
	</node>
	<node lat="66.06672500290277" lon="12.786027775336112" id="-8370">
		<tag k="name" v="Meåsmyra" />
		<tag k="natural" v="wetland" />
		<tag k="ssr:stedsnr" v="896162" />
	</node>
	<node lat="66.08990555484415" lon="13.039055557064351" id="-8409">
		<tag k="name" v="Kjerstiholten" />
		<tag k="place" v="locality" />
		<tag k="ssr:stedsnr" v="956199" />
	</node>
	<node lat="66.09298611428328" lon="13.088902772319848" id="-8414">
		<tag k="name" v="Bannlimyra" />
		<tag k="natural" v="wetland" />
		<tag k="ssr:stedsnr" v="956255" />
	</node>
	<node lat="65.99769444079865" lon="12.87649722327304" id="-8430">
		<tag k="name" v="Jystadmyra" />
		<tag k="natural" v="wetland" />
		<tag k="ssr:stedsnr" v="15099" />
	</node>
	<node lat="66.17732777868376" lon="13.383305557062934" id="-8447">
		<tag k="name" v="Svanvasskogen" />
		<tag k="place" v="locality" />
		<tag k="ssr:stedsnr" v="15425" />
	</node>
	<node lat="66.08061111028272" lon="12.918158335131498" id="-8467">
		<tag k="name" v="Nordmyra" />
		<tag k="natural" v="wetland" />
		<tag k="ssr:stedsnr" v="47309" />
	</node>
	<node lat="66.10271388469002" lon="13.133122224984191" id="-8470">
		<tag k="name" v="Granholmyra" />
		<tag k="natural" v="wetland" />
		<tag k="ssr:stedsnr" v="47399" />
	</node>
	<node lat="66.0837722225287" lon="12.709566675424258" id="-8471">
		<tag k="name" v="Fornesmyra" />
		<tag k="natural" v="wetland" />
		<tag k="ssr:stedsnr" v="47417" />
	</node>
	<node lat="65.98505555233638" lon="12.810008341762822" id="-8523">
		<tag k="name" v="Breivikmyra" />
		<tag k="natural" v="wetland" />
		<tag k="ssr:stedsnr" v="91824" />
	</node>
	<node lat="66.1708944441546" lon="13.147672226628247" id="-8535">
		<tag k="name" v="Fabrikkmyra" />
		<tag k="natural" v="wetland" />
		<tag k="ssr:stedsnr" v="107896" />
	</node>
	<node lat="66.07310277652267" lon="12.898855556780083" id="-8544">
		<tag k="name" v="Ørjan" />
		<tag k="place" v="locality" />
		<tag k="ssr:stedsnr" v="108841" />
	</node>
	<node lat="66.05428611253633" lon="12.818222231223974" id="-8549">
		<tag k="name" v="Ytterteigen" />
		<tag k="place" v="locality" />
		<tag k="ssr:stedsnr" v="108740" />
	</node>
	<node lat="66.1221722191809" lon="12.85761943902031" id="-8553">
		<tag k="name" v="Rismyra" />
		<tag k="natural" v="wetland" />
		<tag k="ssr:stedsnr" v="108946" />
	</node>
	<node lat="66.07502499911845" lon="12.97283055863621" id="-8565">
		<tag k="name" v="Breilandsmyran" />
		<tag k="natural" v="wetland" />
		<tag k="ssr:stedsnr" v="136244" />
	</node>
	<node lat="66.09222499589227" lon="13.099141667101264" id="-8593">
		<tag k="name" v="Kovlimyra" />
		<tag k="natural" v="wetland" />
		<tag k="ssr:stedsnr" v="167239" />
	</node>
	<node lat="66.05430555655764" lon="12.878566666308783" id="-8609">
		<tag k="name" v="Forlihattmyra" />
		<tag k="natural" v="wetland" />
		<tag k="ssr:stedsnr" v="168720" />
	</node>
	<node lat="66.12236388876192" lon="13.135044437572361" id="-8619">
		<tag k="name" v="Nyenget" />
		<tag k="place" v="locality" />
		<tag k="ssr:stedsnr" v="168976" />
	</node>
	<node lat="65.98412500163352" lon="12.82111667309941" id="-8701">
		<tag k="landuse" v="meadow" />
		<tag k="name" v="Horstenenget" />
		<tag k="ssr:stedsnr" v="334770" />
	</node>
	<node lat="66.06872777430563" lon="12.681469453896742" id="-8704">
		<tag k="name" v="Ekerskogen" />
		<tag k="place" v="locality" />
		<tag k="ssr:stedsnr" v="349153" />
	</node>
	<node lat="66.07387777429933" lon="12.781047225487567" id="-8709">
		<tag k="name" v="Vassmyra" />
		<tag k="natural" v="wetland" />
		<tag k="ssr:stedsnr" v="349194" />
	</node>
	<node lat="66.08867222054253" lon="13.043594441119222" id="-8713">
		<tag k="name" v="Granåsmyra" />
		<tag k="natural" v="wetland" />
		<tag k="ssr:stedsnr" v="349216" />
	</node>
	<node lat="66.09499167071888" lon="13.047597212359236" id="-8714">
		<tag k="name" v="Høgliholten" />
		<tag k="place" v="locality" />
		<tag k="ssr:stedsnr" v="349220" />
	</node>
	<node lat="66.04736666356636" lon="13.028991662129215" id="-8721">
		<tag k="name" v="Vargmoan" />
		<tag k="natural" v="wetland" />
		<tag k="ssr:stedsnr" v="350364" />
	</node>
	<node lat="66.10423888893841" lon="13.119516656378227" id="-8726">
		<tag k="name" v="Forraholtan" />
		<tag k="place" v="locality" />
		<tag k="ssr:stedsnr" v="350348" />
	</node>
	<node lat="66.0727999971997" lon="12.922116659943974" id="-8741">
		<tag k="name" v="Nordrmyra" />
		<tag k="natural" v="wetland" />
		<tag k="ssr:stedsnr" v="350842" />
	</node>
	<node lat="66.13015833707198" lon="13.159280545936497" id="-8744">
		<tag k="name" v="Svartflogsletta" />
		<tag k="natural" v="wetland" />
		<tag k="ssr:stedsnr" v="350981" />
	</node>
	<node lat="66.06510833549171" lon="12.902002769392226" id="-8771">
		<tag k="name" v="Litlenget" />
		<tag k="place" v="locality" />
		<tag k="ssr:stedsnr" v="411851" />
	</node>
	<node lat="66.05789444061236" lon="12.855383342394697" id="-8781">
		<tag k="name" v="Bjønnmyra" />
		<tag k="natural" v="wetland" />
		<tag k="ssr:stedsnr" v="411773" />
	</node>
	<node lat="66.05403055913621" lon="13.126163878877223" id="-8818">
		<tag k="landuse" v="meadow" />
		<tag k="name" v="Øvstenget" />
		<tag k="ssr:stedsnr" v="501019" />
	</node>
	<node lat="66.0820249967142" lon="13.050205552995049" id="-8841">
		<tag k="name" v="Ranmarka" />
		<tag k="place" v="locality" />
		<tag k="ssr:stedsnr" v="531242" />
	</node>
	<node lat="66.11737777519737" lon="13.1356583317277" id="-8846">
		<tag k="name" v="Røyrtjønnenget" />
		<tag k="place" v="locality" />
		<tag k="ssr:stedsnr" v="532352" />
	</node>
	<node lat="66.10975277877921" lon="13.066008327639778" id="-8851">
		<tag k="name" v="Brattskarmyra" />
		<tag k="natural" v="wetland" />
		<tag k="ssr:stedsnr" v="532447" />
	</node>
	<node lat="66.04375832977188" lon="12.96631665756665" id="-8856">
		<tag k="name" v="Lofotmyra" />
		<tag k="natural" v="wetland" />
		<tag k="ssr:stedsnr" v="532698" />
	</node>
	<node lat="66.05679721827158" lon="12.812024999518753" id="-8863">
		<tag k="name" v="Buskarmoen" />
		<tag k="place" v="locality" />
		<tag k="ssr:stedsnr" v="532760" />
	</node>
	<node lat="66.12003888459675" lon="12.846344446510864" id="-8870">
		<tag k="name" v="Stollsteinan" />
		<tag k="natural" v="stone" />
		<tag k="ssr:stedsnr" v="532937" />
	</node>
	<node lat="66.06089999750954" lon="12.856377778896896" id="-8934">
		<tag k="name" v="Snaråsmyra" />
		<tag k="natural" v="wetland" />
		<tag k="ssr:stedsnr" v="593725" />
	</node>
	<node lat="66.14202777909145" lon="13.176680562236166" id="-8946">
		<tag k="name" v="Randalsholten" />
		<tag k="place" v="locality" />
		<tag k="ssr:stedsnr" v="593913" />
	</node>
	<node lat="66.12511944774332" lon="12.864086105133238" id="-8992">
		<tag k="name" v="Blautmyra" />
		<tag k="natural" v="wetland" />
		<tag k="ssr:stedsnr" v="653966" />
	</node>
	<node lat="66.06995555710839" lon="12.770469443470926" id="-9010">
		<tag k="name" v="Slåtteråsmyra" />
		<tag k="natural" v="wetland" />
		<tag k="ssr:stedsnr" v="713166" />
	</node>
	<node lat="66.12719166786489" lon="12.845241669566102" id="-9022">
		<tag k="name" v="Kamsura" />
		<tag k="natural" v="scree" />
		<tag k="ssr:stedsnr" v="714934" />
	</node>
	<node lat="66.12114999862877" lon="12.87664443432662" id="-9027">
		<tag k="name" v="Melksteinen" />
		<tag k="natural" v="stone" />
		<tag k="ssr:stedsnr" v="714969" />
	</node>
	<node lat="66.05813889327402" lon="13.038577780513071" id="-9039">
		<tag k="name" v="Langforsmyra" />
		<tag k="natural" v="wetland" />
		<tag k="ssr:stedsnr" v="743061" />
	</node>
	<node lat="66.05972500124402" lon="12.892025008386659" id="-9042">
		<tag k="name" v="Vassmyra" />
		<tag k="natural" v="wetland" />
		<tag k="ssr:stedsnr" v="743072" />
	</node>
	<node lat="66.08443611030332" lon="13.048575004167628" id="-9066">
		<tag k="name" v="Tågholtan" />
		<tag k="place" v="locality" />
		<tag k="ssr:stedsnr" v="774197" />
	</node>
	<node lat="66.10275555756306" lon="13.091702787354247" id="-9069">
		<tag k="name" v="Holtan" />
		<tag k="place" v="locality" />
		<tag k="ssr:stedsnr" v="775371" />
	</node>
	<node lat="66.11006944789203" lon="13.138516662861457" id="-9070">
		<tag k="name" v="Inner-Høglia" />
		<tag k="place" v="locality" />
		<tag k="ssr:stedsnr" v="775333" />
	</node>
	<node lat="66.1164472255318" lon="13.111613893659083" id="-9071">
		<tag k="name" v="Sørenget" />
		<tag k="natural" v="wetland" />
		<tag k="ssr:stedsnr" v="775340" />
	</node>
	<node lat="66.11175555844848" lon="12.7992805530204" id="-9073">
		<tag k="name" v="Bautastein" />
		<tag k="natural" v="stone" />
		<tag k="ssr:stedsnr" v="775445" />
	</node>
	<node lat="66.04064166400708" lon="12.973408342627977" id="-9076">
		<tag k="name" v="Laremma" />
		<tag k="place" v="locality" />
		<tag k="ssr:stedsnr" v="775514" />
	</node>
	<node lat="66.06211111537428" lon="12.813044443364186" id="-9087">
		<tag k="name" v="Hopaenget" />
		<tag k="natural" v="wetland" />
		<tag k="ssr:stedsnr" v="775802" />
	</node>
	<node lat="66.06922221814938" lon="12.909505545206766" id="-9090">
		<tag k="name" v="Ekkermyra" />
		<tag k="natural" v="wetland" />
		<tag k="ssr:stedsnr" v="775853" />
	</node>
	<node lat="66.12861944478217" lon="12.87293610526659" id="-9097">
		<tag k="name" v="Geitmyra" />
		<tag k="natural" v="wetland" />
		<tag k="ssr:stedsnr" v="775940" />
	</node>
	<node lat="66.08307500056857" lon="12.902861120137171" id="-9118">
		<tag k="name" v="Hinneråsmyra" />
		<tag k="natural" v="wetland" />
		<tag k="ssr:stedsnr" v="804255" />
	</node>
	<node lat="66.09562222014492" lon="13.10909445492547" id="-9136">
		<tag k="name" v="Innervollmyra" />
		<tag k="natural" v="wetland" />
		<tag k="ssr:stedsnr" v="835236" />
	</node>
	<node lat="66.07299721761818" lon="12.848850006305996" id="-9165">
		<tag k="name" v="Bubergan" />
		<tag k="place" v="locality" />
		<tag k="ssr:stedsnr" v="836823" />
	</node>
	<node lat="66.08613610795993" lon="13.062552784210967" id="-9188">
		<tag k="name" v="Leirmyran" />
		<tag k="natural" v="wetland" />
		<tag k="ssr:stedsnr" v="865268" />
	</node>
	<node lat="66.00999722580168" lon="12.895930546634924" id="-9210">
		<tag k="name" v="Enget" />
		<tag k="natural" v="wetland" />
		<tag k="ssr:stedsnr" v="954481" />
	</node>
	<node lat="66.10895000472057" lon="13.1391388815929" id="-9221">
		<tag k="name" v="Rognskogen" />
		<tag k="place" v="locality" />
		<tag k="ssr:stedsnr" v="957362" />
	</node>
	<node lat="66.07062777453648" lon="12.971038881564452" id="-9235">
		<tag k="name" v="Stakholten" />
		<tag k="place" v="locality" />
		<tag k="ssr:stedsnr" v="957869" />
	</node>
	<node lat="66.0727750039333" lon="12.810905545211725" id="-9237">
		<tag k="name" v="Forraholten" />
		<tag k="place" v="locality" />
		<tag k="ssr:stedsnr" v="957785" />
	</node>
	<node lat="66.13872222231996" lon="13.181891673588046" id="-9244">
		<tag k="name" v="Meldalsbekkjenesan" />
		<tag k="natural" v="wetland" />
		<tag k="ssr:stedsnr" v="957979" />
	</node>
</osm>
