<?xml version="1.0" encoding="UTF-8"?>
<osm version="0.6" generator="osmapis">
	<node lat="58.31583333644789" lon="8.435241668264458" id="-27273">
		<tag k="name" v="Trappane" />
		<tag k="natural" v="valley" />
		<tag k="place" v="locality" />
		<tag k="ssr:date" v="2019-12-27" />
		<tag k="ssr:gruppe" v="senkninger" />
		<tag k="ssr:hovedgruppe" v="terreng" />
		<tag k="ssr:stedsnr" v="229653" />
		<tag k="ssr:type" v="skar" />
	</node>
	<node lat="58.35875278143816" lon="8.636222222389435" id="-27274">
		<tag k="fixme" v="consider place=hamlet" />
		<tag k="name" v="Hodnebrog" />
		<tag k="place" v="farm" />
		<tag k="ssr:date" v="2021-06-08" />
		<tag k="ssr:gruppe" v="gardsbebyggelse" />
		<tag k="ssr:hovedgruppe" v="bebyggelse" />
		<tag k="ssr:stedsnr" v="504" />
		<tag k="ssr:type" v="gard" />
	</node>
	<node lat="58.37008055217154" lon="8.644638895625077" id="-27275">
		<tag k="name" v="Moy Moner" />
		<tag k="place" v="farm" />
		<tag k="ssr:date" v="2021-06-08" />
		<tag k="ssr:gruppe" v="gardsbebyggelse" />
		<tag k="ssr:hovedgruppe" v="bebyggelse" />
		<tag k="ssr:stedsnr" v="509" />
		<tag k="ssr:type" v="bruk" />
	</node>
	<node lat="58.35973610950723" lon="8.562266671892958" id="-27276">
		<tag k="fixme" v="consider place=hamlet" />
		<tag k="name" v="Rosholt" />
		<tag k="place" v="farm" />
		<tag k="ssr:date" v="2021-06-08" />
		<tag k="ssr:gruppe" v="gardsbebyggelse" />
		<tag k="ssr:hovedgruppe" v="bebyggelse" />
		<tag k="ssr:stedsnr" v="510" />
		<tag k="ssr:type" v="gard" />
	</node>
	<node lat="58.351455552386" lon="8.537183335575694" id="-27277">
		<tag k="name" v="Roresand" />
		<tag k="place" v="village" />
		<tag k="ssr:date" v="2019-12-27" />
		<tag k="ssr:gruppe" v="bebyggelsesområder" />
		<tag k="ssr:hovedgruppe" v="bebyggelse" />
		<tag k="ssr:stedsnr" v="513" />
		<tag k="ssr:type" v="tettsted" />
	</node>
	<node lat="58.36571666745076" lon="8.646902773287525" id="-27278">
		<tag k="fixme" v="consider place=hamlet" />
		<tag k="name" v="Moy" />
		<tag k="place" v="farm" />
		<tag k="ssr:date" v="2021-06-08" />
		<tag k="ssr:gruppe" v="gardsbebyggelse" />
		<tag k="ssr:hovedgruppe" v="bebyggelse" />
		<tag k="ssr:stedsnr" v="516" />
		<tag k="ssr:type" v="gard" />
	</node>
	<node lat="58.37912778123856" lon="8.740950000678922" id="-27279">
		<tag k="name" v="Spærholmene" />
		<tag k="place" v="islet" />
		<tag k="ssr:date" v="2021-06-08" />
		<tag k="ssr:gruppe" v="kystkontur" />
		<tag k="ssr:hovedgruppe" v="sjø" />
		<tag k="ssr:stedsnr" v="518" />
		<tag k="ssr:type" v="holmegruppeISjø" />
	</node>
	<node lat="58.383727776507016" lon="8.725455550687878" id="-27280">
		<tag k="name" v="Gråholmen" />
		<tag k="place" v="islet" />
		<tag k="ssr:date" v="2019-12-27" />
		<tag k="ssr:gruppe" v="kystkontur" />
		<tag k="ssr:hovedgruppe" v="sjø" />
		<tag k="ssr:stedsnr" v="519" />
		<tag k="ssr:type" v="holmeISjø" />
	</node>
	<node lat="58.358949997975884" lon="8.478091671321973" id="-27281">
		<tag k="name" v="Lyngholmen" />
		<tag k="place" v="islet" />
		<tag k="ssr:date" v="2019-12-27" />
		<tag k="ssr:gruppe" v="ferskvannskontur" />
		<tag k="ssr:hovedgruppe" v="ferskvann" />
		<tag k="ssr:stedsnr" v="521" />
		<tag k="ssr:type" v="holme" />
	</node>
	<node lat="58.37330277608325" lon="8.758616662165215" id="-27282">
		<tag k="fixme" v="consider seamark:type=rock or natural=shoal" />
		<tag k="name" v="Fiskeskjer" />
		<tag k="place" v="islet" />
		<tag k="ssr:date" v="2019-12-27" />
		<tag k="ssr:gruppe" v="grunnerISjø" />
		<tag k="ssr:hovedgruppe" v="sjø" />
		<tag k="ssr:stedsnr" v="522" />
		<tag k="ssr:type" v="skjærISjø" />
	</node>
	<node lat="58.31669444313167" lon="8.438552776633824" id="-27283">
		<tag k="name" v="Rondeheia" />
		<tag k="natural" v="hill" />
		<tag k="place" v="locality" />
		<tag k="ssr:date" v="2019-12-27" />
		<tag k="ssr:gruppe" v="høyder" />
		<tag k="ssr:hovedgruppe" v="terreng" />
		<tag k="ssr:stedsnr" v="229659" />
		<tag k="ssr:type" v="høyde" />
	</node>
	<node lat="58.343237199724115" lon="8.454852095586894" id="-27284">
		<tag k="fixme" v="consider place=hamlet" />
		<tag k="name" v="Torp" />
		<tag k="place" v="farm" />
		<tag k="ssr:date" v="2019-12-27" />
		<tag k="ssr:gruppe" v="gardsbebyggelse" />
		<tag k="ssr:hovedgruppe" v="bebyggelse" />
		<tag k="ssr:stedsnr" v="266" />
		<tag k="ssr:type" v="gard" />
	</node>
	<node lat="58.41875833510203" lon="8.432658328060763" id="-27285">
		<tag k="name" v="Sandtjenn" />
		<tag k="natural" v="water" />
		<tag k="ssr:date" v="2019-12-27" />
		<tag k="ssr:gruppe" v="stilleståendeVann" />
		<tag k="ssr:hovedgruppe" v="ferskvann" />
		<tag k="ssr:stedsnr" v="421" />
		<tag k="ssr:type" v="tjern" />
	</node>
	<node lat="58.474188892596445" lon="8.477052769576243" id="-27286">
		<tag k="name" v="Snøløsvann" />
		<tag k="natural" v="water" />
		<tag k="ssr:date" v="2019-12-27" />
		<tag k="ssr:gruppe" v="stilleståendeVann" />
		<tag k="ssr:hovedgruppe" v="ferskvann" />
		<tag k="ssr:stedsnr" v="651" />
		<tag k="ssr:type" v="vann" />
		<tag k="water" v="lake" />
	</node>
	<node lat="58.25404999961669" lon="8.44481666872945" id="-27287">
		<tag k="alt_name" v="Såviga" />
		<tag k="name" v="Såvika" />
		<tag k="place" v="farm" />
		<tag k="ssr:date" v="2019-12-27" />
		<tag k="ssr:gruppe" v="gardsbebyggelse" />
		<tag k="ssr:hovedgruppe" v="bebyggelse" />
		<tag k="ssr:stedsnr" v="706" />
		<tag k="ssr:type" v="bruk" />
	</node>
	<node lat="58.32828296782573" lon="8.586814666312769" id="-27288">
		<tag k="alt_name" v="Vessøy;Vesøy" />
		<tag k="name" v="Nypholmen" />
		<tag k="place" v="islet" />
		<tag k="ssr:date" v="2020-02-24" />
		<tag k="ssr:gruppe" v="kystkontur" />
		<tag k="ssr:hovedgruppe" v="sjø" />
		<tag k="ssr:stedsnr" v="996" />
		<tag k="ssr:type" v="holmeISjø" />
	</node>
	<node lat="58.31039722135002" lon="8.543558326044439" id="-27289">
		<tag k="fixme" v="consider natural=peak for the most distinct mountains in the district" />
		<tag k="name" v="Husefjell" />
		<tag k="natural" v="hill" />
		<tag k="place" v="locality" />
		<tag k="ssr:date" v="2019-12-27" />
		<tag k="ssr:gruppe" v="høyder" />
		<tag k="ssr:hovedgruppe" v="terreng" />
		<tag k="ssr:stedsnr" v="230291" />
		<tag k="ssr:type" v="ås" />
	</node>
	<node lat="58.3202027788707" lon="8.535172224358515" id="-27290">
		<tag k="name" v="Tjuespranget" />
		<tag k="place" v="locality" />
		<tag k="ssr:date" v="2019-12-27" />
		<tag k="ssr:gruppe" v="terrengdetaljer" />
		<tag k="ssr:hovedgruppe" v="terreng" />
		<tag k="ssr:stedsnr" v="230295" />
		<tag k="ssr:type" v="annenTerrengdetalj" />
	</node>
	<node lat="58.32230000013207" lon="8.448508326448815" id="-27291">
		<tag k="name" v="Sagelebukta" />
		<tag k="natural" v="bay" />
		<tag k="ssr:date" v="2019-12-27" />
		<tag k="ssr:gruppe" v="ferskvannskontur" />
		<tag k="ssr:hovedgruppe" v="ferskvann" />
		<tag k="ssr:stedsnr" v="230247" />
		<tag k="ssr:type" v="vik" />
	</node>
	<node lat="58.301558334281594" lon="8.523344446081103" id="-27292">
		<tag k="name" v="Sørlia" />
		<tag k="place" v="isolated_dwelling" />
		<tag k="ssr:date" v="2019-12-27" />
		<tag k="ssr:gruppe" v="bolighus" />
		<tag k="ssr:hovedgruppe" v="bebyggelse" />
		<tag k="ssr:stedsnr" v="230369" />
		<tag k="ssr:type" v="fritidsbolig" />
	</node>
	<node lat="58.29907778128999" lon="8.517552784353013" id="-27293">
		<tag k="name" v="Sørvika" />
		<tag k="natural" v="bay" />
		<tag k="ssr:date" v="2019-12-27" />
		<tag k="ssr:gruppe" v="kystkontur" />
		<tag k="ssr:hovedgruppe" v="sjø" />
		<tag k="ssr:stedsnr" v="230371" />
		<tag k="ssr:type" v="vikISjø" />
	</node>
	<node lat="58.281886107862384" lon="8.507383329647906" id="-27294">
		<tag k="name" v="Lauvstø" />
		<tag k="natural" v="slope" />
		<tag k="place" v="locality" />
		<tag k="ssr:date" v="2019-12-27" />
		<tag k="ssr:gruppe" v="skråninger" />
		<tag k="ssr:hovedgruppe" v="terreng" />
		<tag k="ssr:stedsnr" v="230449" />
		<tag k="ssr:type" v="bakke" />
	</node>
	<node lat="58.30050833591357" lon="8.53087777099495" id="-27295">
		<tag k="man_made" v="cairn" />
		<tag k="name" v="Stølevarden" />
		<tag k="place" v="locality" />
		<tag k="ssr:date" v="2021-06-08" />
		<tag k="ssr:gruppe" v="navigasjon" />
		<tag k="ssr:hovedgruppe" v="infrastruktur" />
		<tag k="ssr:stedsnr" v="230463" />
		<tag k="ssr:type" v="varde" />
	</node>
	<node lat="58.36280555510149" lon="8.38803333855063" id="-27296">
		<tag k="name" v="Bufjell" />
		<tag k="natural" v="ridge" />
		<tag k="place" v="locality" />
		<tag k="ssr:date" v="2019-12-27" />
		<tag k="ssr:gruppe" v="høyder" />
		<tag k="ssr:hovedgruppe" v="terreng" />
		<tag k="ssr:stedsnr" v="230475" />
		<tag k="ssr:type" v="rygg" />
	</node>
	<node lat="58.335691662380846" lon="8.406316672399289" id="-27297">
		<tag k="name" v="Langemyr" />
		<tag k="natural" v="wetland" />
		<tag k="ssr:date" v="2019-12-27" />
		<tag k="ssr:gruppe" v="våtmark" />
		<tag k="ssr:hovedgruppe" v="markslag" />
		<tag k="ssr:stedsnr" v="230722" />
		<tag k="ssr:type" v="myr" />
	</node>
	<node lat="58.33633888572346" lon="8.39468889364232" id="-27298">
		<tag k="name" v="Lille Linddalstjenn" />
		<tag k="natural" v="water" />
		<tag k="ssr:date" v="2019-12-27" />
		<tag k="ssr:gruppe" v="stilleståendeVann" />
		<tag k="ssr:hovedgruppe" v="ferskvann" />
		<tag k="ssr:stedsnr" v="230724" />
		<tag k="ssr:type" v="tjern" />
	</node>
	<node lat="58.34721944662656" lon="8.471708327585306" id="-27299">
		<tag k="name" v="Møretrømoen" />
		<tag k="place" v="locality" />
		<tag k="ssr:date" v="2019-12-27" />
		<tag k="ssr:gruppe" v="dyrkamark" />
		<tag k="ssr:hovedgruppe" v="markslag" />
		<tag k="ssr:stedsnr" v="230816" />
		<tag k="ssr:type" v="jorde" />
	</node>
	<node lat="58.33290555930145" lon="8.490058337685827" id="-27300">
		<tag k="name" v="Grøvene" />
		<tag k="natural" v="valley" />
		<tag k="place" v="locality" />
		<tag k="ssr:date" v="2019-12-27" />
		<tag k="ssr:gruppe" v="senkninger" />
		<tag k="ssr:hovedgruppe" v="terreng" />
		<tag k="ssr:stedsnr" v="230820" />
		<tag k="ssr:type" v="dal" />
	</node>
	<node lat="58.32825833698164" lon="8.506616672983764" id="-27301">
		<tag k="name" v="Havsøya" />
		<tag k="place" v="island" />
		<tag k="ssr:date" v="2019-12-27" />
		<tag k="ssr:gruppe" v="ferskvannskontur" />
		<tag k="ssr:hovedgruppe" v="ferskvann" />
		<tag k="ssr:stedsnr" v="230919" />
		<tag k="ssr:type" v="øy" />
	</node>
	<node lat="58.281397222485516" lon="8.570666670452395" id="-27302">
		<tag k="name" v="Sloa" />
		<tag k="natural" v="shoal" />
		<tag k="place" v="locality" />
		<tag k="ssr:date" v="2021-06-08" />
		<tag k="ssr:gruppe" v="grunnerISjø" />
		<tag k="ssr:hovedgruppe" v="sjø" />
		<tag k="ssr:stedsnr" v="26610" />
		<tag k="ssr:type" v="grunneISjø" />
	</node>
	<node lat="58.31627777333234" lon="8.602727781721363" id="-27303">
		<tag k="fixme" v="consider seamark:type=rock or natural=shoal" />
		<tag k="name" v="Saleskjær" />
		<tag k="place" v="islet" />
		<tag k="ssr:date" v="2021-06-08" />
		<tag k="ssr:gruppe" v="grunnerISjø" />
		<tag k="ssr:hovedgruppe" v="sjø" />
		<tag k="ssr:stedsnr" v="27670" />
		<tag k="ssr:type" v="skjærISjø" />
	</node>
	<node lat="58.30071388598417" lon="8.632930548254166" id="-27304">
		<tag k="name" v="Steinen" />
		<tag k="natural" v="shoal" />
		<tag k="place" v="locality" />
		<tag k="ssr:date" v="2021-06-08" />
		<tag k="ssr:gruppe" v="grunnerISjø" />
		<tag k="ssr:hovedgruppe" v="sjø" />
		<tag k="ssr:stedsnr" v="27719" />
		<tag k="ssr:type" v="grunneISjø" />
	</node>
	<node lat="58.474144444037506" lon="8.450655550403534" id="-27305">
		<tag k="fixme" v="consider natural=peak for the most distinct mountains in the district" />
		<tag k="name" v="Kyrfjellet" />
		<tag k="natural" v="hill" />
		<tag k="place" v="locality" />
		<tag k="ssr:date" v="2019-12-27" />
		<tag k="ssr:gruppe" v="høyder" />
		<tag k="ssr:hovedgruppe" v="terreng" />
		<tag k="ssr:stedsnr" v="235241" />
		<tag k="ssr:type" v="ås" />
	</node>
	<node lat="58.486236114293334" lon="8.495527773239536" id="-27306">
		<tag k="name" v="Svartekil" />
		<tag k="natural" v="bay" />
		<tag k="ssr:date" v="2019-12-27" />
		<tag k="ssr:gruppe" v="ferskvannskontur" />
		<tag k="ssr:hovedgruppe" v="ferskvann" />
		<tag k="ssr:stedsnr" v="235066" />
		<tag k="ssr:type" v="vik" />
	</node>
	<node lat="58.38938889242314" lon="8.577222216857319" id="-27307">
		<tag k="name" v="Sveltumtjenn" />
		<tag k="natural" v="water" />
		<tag k="ssr:date" v="2019-12-27" />
		<tag k="ssr:gruppe" v="stilleståendeVann" />
		<tag k="ssr:hovedgruppe" v="ferskvann" />
		<tag k="ssr:stedsnr" v="30276" />
		<tag k="ssr:type" v="tjern" />
	</node>
	<node lat="58.39108333079406" lon="8.570861119129695" id="-27308">
		<tag k="name" v="Sugga" />
		<tag k="place" v="locality" />
		<tag k="ssr:date" v="2019-12-27" />
		<tag k="ssr:gruppe" v="terrengdetaljer" />
		<tag k="ssr:hovedgruppe" v="terreng" />
		<tag k="ssr:stedsnr" v="30280" />
		<tag k="ssr:type" v="annenTerrengdetalj" />
	</node>
	<node lat="58.39155555629822" lon="8.572666666158078" id="-27309">
		<tag k="name" v="Bjelkebukt" />
		<tag k="natural" v="bay" />
		<tag k="ssr:date" v="2019-12-27" />
		<tag k="ssr:gruppe" v="ferskvannskontur" />
		<tag k="ssr:hovedgruppe" v="ferskvann" />
		<tag k="ssr:stedsnr" v="30282" />
		<tag k="ssr:type" v="vik" />
	</node>
	<node lat="58.46280278066816" lon="8.484902782462829" id="-27310">
		<tag k="name" v="Liemyra" />
		<tag k="natural" v="wetland" />
		<tag k="ssr:date" v="2019-12-27" />
		<tag k="ssr:gruppe" v="våtmark" />
		<tag k="ssr:hovedgruppe" v="markslag" />
		<tag k="ssr:stedsnr" v="235141" />
		<tag k="ssr:type" v="myr" />
	</node>
	<node lat="58.465152774925045" lon="8.47385556248694" id="-27311">
		<tag k="name" v="Blomreismyrodden" />
		<tag k="natural" v="cape" />
		<tag k="ssr:date" v="2019-12-27" />
		<tag k="ssr:gruppe" v="ferskvannskontur" />
		<tag k="ssr:hovedgruppe" v="ferskvann" />
		<tag k="ssr:stedsnr" v="235143" />
		<tag k="ssr:type" v="nes" />
	</node>
	<node lat="58.38144444819951" lon="8.571611108032101" id="-27312">
		<tag k="fixme" v="consider natural=peak for the most distinct mountains in the district" />
		<tag k="name" v="Grandkongen" />
		<tag k="natural" v="hill" />
		<tag k="place" v="locality" />
		<tag k="ssr:date" v="2019-12-27" />
		<tag k="ssr:gruppe" v="høyder" />
		<tag k="ssr:hovedgruppe" v="terreng" />
		<tag k="ssr:stedsnr" v="30318" />
		<tag k="ssr:type" v="ås" />
	</node>
	<node lat="58.34041666759604" lon="8.635750002114278" id="-27313">
		<tag k="name" v="Gullodden" />
		<tag k="natural" v="cape" />
		<tag k="ssr:date" v="2019-12-27" />
		<tag k="ssr:gruppe" v="kystkontur" />
		<tag k="ssr:hovedgruppe" v="sjø" />
		<tag k="ssr:stedsnr" v="30502" />
		<tag k="ssr:type" v="nesISjø" />
	</node>
	<node lat="58.38831388701438" lon="8.34295000548176" id="-27314">
		<tag k="name" v="Storemyr" />
		<tag k="natural" v="wetland" />
		<tag k="ssr:date" v="2019-12-27" />
		<tag k="ssr:gruppe" v="våtmark" />
		<tag k="ssr:hovedgruppe" v="markslag" />
		<tag k="ssr:stedsnr" v="235158" />
		<tag k="ssr:type" v="myr" />
	</node>
	<node lat="58.35294444064561" lon="8.656055563120606" id="-27315">
		<tag k="name" v="Moyodden" />
		<tag k="natural" v="cape" />
		<tag k="ssr:date" v="2019-12-27" />
		<tag k="ssr:gruppe" v="kystkontur" />
		<tag k="ssr:hovedgruppe" v="sjø" />
		<tag k="ssr:stedsnr" v="30469" />
		<tag k="ssr:type" v="nesISjø" />
	</node>
	<node lat="58.47059167080703" lon="8.48989166263938" id="-27316">
		<tag k="name" v="Bærelineset" />
		<tag k="natural" v="cape" />
		<tag k="ssr:date" v="2019-12-27" />
		<tag k="ssr:gruppe" v="ferskvannskontur" />
		<tag k="ssr:hovedgruppe" v="ferskvann" />
		<tag k="ssr:stedsnr" v="235171" />
		<tag k="ssr:type" v="nes" />
	</node>
	<node lat="58.36814722028377" lon="8.367819438838648" id="-27317">
		<tag k="name" v="Nesa" />
		<tag k="natural" v="cape" />
		<tag k="ssr:date" v="2019-12-27" />
		<tag k="ssr:gruppe" v="ferskvannskontur" />
		<tag k="ssr:hovedgruppe" v="ferskvann" />
		<tag k="ssr:stedsnr" v="235223" />
		<tag k="ssr:type" v="nes" />
	</node>
	<node lat="58.4272444450793" lon="8.42912778191778" id="-27318">
		<tag k="name" v="Kvernevollheia" />
		<tag k="natural" v="hill" />
		<tag k="place" v="locality" />
		<tag k="ssr:date" v="2019-12-27" />
		<tag k="ssr:gruppe" v="høyder" />
		<tag k="ssr:hovedgruppe" v="terreng" />
		<tag k="ssr:stedsnr" v="235318" />
		<tag k="ssr:type" v="hei" />
	</node>
	<node lat="58.374088891817195" lon="8.440941665978045" id="-27319">
		<tag k="name" v="Storemyr" />
		<tag k="natural" v="wetland" />
		<tag k="ssr:date" v="2019-12-27" />
		<tag k="ssr:gruppe" v="våtmark" />
		<tag k="ssr:hovedgruppe" v="markslag" />
		<tag k="ssr:stedsnr" v="235118" />
		<tag k="ssr:type" v="myr" />
	</node>
	<node lat="58.38125833776776" lon="8.469566672116725" id="-27320">
		<tag k="name" v="Trettedalen" />
		<tag k="natural" v="valley" />
		<tag k="place" v="locality" />
		<tag k="ssr:date" v="2019-12-27" />
		<tag k="ssr:gruppe" v="senkninger" />
		<tag k="ssr:hovedgruppe" v="terreng" />
		<tag k="ssr:stedsnr" v="235123" />
		<tag k="ssr:type" v="dal" />
	</node>
	<node lat="58.382174996745526" lon="8.464269448087864" id="-27321">
		<tag k="name" v="Trettedalsmyra" />
		<tag k="natural" v="wetland" />
		<tag k="ssr:date" v="2019-12-27" />
		<tag k="ssr:gruppe" v="våtmark" />
		<tag k="ssr:hovedgruppe" v="markslag" />
		<tag k="ssr:stedsnr" v="235124" />
		<tag k="ssr:type" v="myr" />
	</node>
	<node lat="58.42421389162479" lon="8.402802776915902" id="-27322">
		<tag k="name" v="Saubekkdalen" />
		<tag k="natural" v="valley" />
		<tag k="place" v="locality" />
		<tag k="ssr:date" v="2019-12-27" />
		<tag k="ssr:gruppe" v="senkninger" />
		<tag k="ssr:hovedgruppe" v="terreng" />
		<tag k="ssr:stedsnr" v="235320" />
		<tag k="ssr:type" v="dal" />
	</node>
	<node lat="58.368241667253415" lon="8.502344437075475" id="-27323">
		<tag k="name" v="Lille Øykall" />
		<tag k="natural" v="cape" />
		<tag k="ssr:date" v="2019-12-27" />
		<tag k="ssr:gruppe" v="ferskvannskontur" />
		<tag k="ssr:hovedgruppe" v="ferskvann" />
		<tag k="ssr:stedsnr" v="235417" />
		<tag k="ssr:type" v="halvøy" />
	</node>
	<node lat="58.43826389100264" lon="8.457627777694377" id="-27324">
		<tag k="name" v="Bjorhogga" />
		<tag k="natural" v="hill" />
		<tag k="place" v="locality" />
		<tag k="ssr:date" v="2019-12-27" />
		<tag k="ssr:gruppe" v="høyder" />
		<tag k="ssr:hovedgruppe" v="terreng" />
		<tag k="ssr:stedsnr" v="235504" />
		<tag k="ssr:type" v="hei" />
	</node>
	<node lat="58.440861113565" lon="8.39066944824664" id="-27325">
		<tag k="name" v="Venebekkfjella" />
		<tag k="natural" v="cliff" />
		<tag k="ssr:date" v="2019-12-27" />
		<tag k="ssr:gruppe" v="terrengdetaljer" />
		<tag k="ssr:hovedgruppe" v="terreng" />
		<tag k="ssr:stedsnr" v="235473" />
		<tag k="ssr:type" v="stup" />
	</node>
	<node lat="58.41980833588701" lon="8.492619437102416" id="-27326">
		<tag k="name" v="Østre Ustadheia" />
		<tag k="natural" v="hill" />
		<tag k="place" v="locality" />
		<tag k="ssr:date" v="2019-12-27" />
		<tag k="ssr:gruppe" v="høyder" />
		<tag k="ssr:hovedgruppe" v="terreng" />
		<tag k="ssr:stedsnr" v="235666" />
		<tag k="ssr:type" v="hei" />
	</node>
	<node lat="58.42692222349156" lon="8.465033337821652" id="-27327">
		<tag k="name" v="Tverrmyr" />
		<tag k="natural" v="wetland" />
		<tag k="ssr:date" v="2019-12-27" />
		<tag k="ssr:gruppe" v="våtmark" />
		<tag k="ssr:hovedgruppe" v="markslag" />
		<tag k="ssr:stedsnr" v="235711" />
		<tag k="ssr:type" v="myr" />
	</node>
	<node lat="58.4121444420495" lon="8.423719437226087" id="-27328">
		<tag k="name" v="Langemyr" />
		<tag k="natural" v="wetland" />
		<tag k="ssr:date" v="2019-12-27" />
		<tag k="ssr:gruppe" v="våtmark" />
		<tag k="ssr:hovedgruppe" v="markslag" />
		<tag k="ssr:stedsnr" v="235716" />
		<tag k="ssr:type" v="myr" />
	</node>
	<node lat="58.40981389133196" lon="8.474133341606358" id="-27329">
		<tag k="name" v="Myrene" />
		<tag k="natural" v="wetland" />
		<tag k="ssr:date" v="2019-12-27" />
		<tag k="ssr:gruppe" v="våtmark" />
		<tag k="ssr:hovedgruppe" v="markslag" />
		<tag k="ssr:stedsnr" v="235839" />
		<tag k="ssr:type" v="myr" />
	</node>
	<node lat="58.40407778094583" lon="8.457713881035016" id="-27330">
		<tag k="fixme" v="consider natural=peak for the most distinct mountains in the district" />
		<tag k="name" v="Gunnarshei" />
		<tag k="natural" v="hill" />
		<tag k="place" v="locality" />
		<tag k="ssr:date" v="2019-12-27" />
		<tag k="ssr:gruppe" v="høyder" />
		<tag k="ssr:hovedgruppe" v="terreng" />
		<tag k="ssr:stedsnr" v="235843" />
		<tag k="ssr:type" v="ås" />
	</node>
	<node lat="58.4076361081595" lon="8.481088891330156" id="-27331">
		<tag k="name" v="Styggedal" />
		<tag k="natural" v="valley" />
		<tag k="place" v="locality" />
		<tag k="ssr:date" v="2019-12-27" />
		<tag k="ssr:gruppe" v="senkninger" />
		<tag k="ssr:hovedgruppe" v="terreng" />
		<tag k="ssr:stedsnr" v="235856" />
		<tag k="ssr:type" v="dal" />
	</node>
	<node lat="58.39412222134312" lon="8.431705553833945" id="-27332">
		<tag k="name" v="Kleivtjenn" />
		<tag k="natural" v="water" />
		<tag k="ssr:date" v="2019-12-27" />
		<tag k="ssr:gruppe" v="stilleståendeVann" />
		<tag k="ssr:hovedgruppe" v="ferskvann" />
		<tag k="ssr:stedsnr" v="235871" />
		<tag k="ssr:type" v="tjern" />
	</node>
	<node lat="58.4078388921935" lon="8.363741662190966" id="-27333">
		<tag k="name" v="Lillerisdal" />
		<tag k="natural" v="valley" />
		<tag k="place" v="locality" />
		<tag k="ssr:date" v="2019-12-27" />
		<tag k="ssr:gruppe" v="senkninger" />
		<tag k="ssr:hovedgruppe" v="terreng" />
		<tag k="ssr:stedsnr" v="235964" />
		<tag k="ssr:type" v="dal" />
	</node>
	<node lat="58.392294447362225" lon="8.330974992774523" id="-27334">
		<tag k="name" v="Breimyr" />
		<tag k="natural" v="wetland" />
		<tag k="ssr:date" v="2019-12-27" />
		<tag k="ssr:gruppe" v="våtmark" />
		<tag k="ssr:hovedgruppe" v="markslag" />
		<tag k="ssr:stedsnr" v="235967" />
		<tag k="ssr:type" v="myr" />
	</node>
	<node lat="58.3965916703695" lon="8.339808336357532" id="-27335">
		<tag k="name" v="Risdaltjenn" />
		<tag k="natural" v="water" />
		<tag k="ssr:date" v="2019-12-27" />
		<tag k="ssr:gruppe" v="stilleståendeVann" />
		<tag k="ssr:hovedgruppe" v="ferskvann" />
		<tag k="ssr:stedsnr" v="235973" />
		<tag k="ssr:type" v="vann" />
		<tag k="water" v="lake" />
	</node>
	<node lat="58.395691880761774" lon="8.351582738462671" id="-27336">
		<tag k="name" v="Tvillingtjennene" />
		<tag k="natural" v="water" />
		<tag k="ssr:date" v="2020-09-09" />
		<tag k="ssr:gruppe" v="stilleståendeVann" />
		<tag k="ssr:hovedgruppe" v="ferskvann" />
		<tag k="ssr:stedsnr" v="235975" />
		<tag k="ssr:type" v="gruppeAvTjern" />
		<tag k="water" v="lake" />
	</node>
	<node lat="58.341258336994244" lon="8.376644446632763" id="-27337">
		<tag k="name" v="Byttingsmyr" />
		<tag k="natural" v="wetland" />
		<tag k="ssr:date" v="2019-12-27" />
		<tag k="ssr:gruppe" v="våtmark" />
		<tag k="ssr:hovedgruppe" v="markslag" />
		<tag k="ssr:stedsnr" v="34829" />
		<tag k="ssr:type" v="myr" />
	</node>
	<node lat="58.34171944066108" lon="8.637763890098027" id="-27338">
		<tag k="name" v="Saulebukta" />
		<tag k="natural" v="bay" />
		<tag k="ssr:date" v="2019-12-27" />
		<tag k="ssr:gruppe" v="ferskvannskontur" />
		<tag k="ssr:hovedgruppe" v="ferskvann" />
		<tag k="ssr:stedsnr" v="237445" />
		<tag k="ssr:type" v="vik" />
	</node>
	<node lat="58.38498888701853" lon="8.677938894158022" id="-27339">
		<tag k="bridge" v="yes" />
		<tag k="layer" v="1" />
		<tag k="name" v="Trålum" />
		<tag k="ssr:date" v="2019-12-27" />
		<tag k="ssr:gruppe" v="samferdselsanlegg" />
		<tag k="ssr:hovedgruppe" v="infrastruktur" />
		<tag k="ssr:stedsnr" v="46080" />
		<tag k="ssr:type" v="bru" />
	</node>
	<node lat="58.33683611052825" lon="8.426802774128516" id="-27340">
		<tag k="name" v="Fjøsene" />
		<tag k="place" v="locality" />
		<tag k="ssr:date" v="2019-12-27" />
		<tag k="ssr:gruppe" v="terrengdetaljer" />
		<tag k="ssr:hovedgruppe" v="terreng" />
		<tag k="ssr:stedsnr" v="47782" />
		<tag k="ssr:type" v="annenTerrengdetalj" />
	</node>
	<node lat="58.35128610819132" lon="8.485294446772379" id="-27341">
		<tag k="name" v="Bjortjenn" />
		<tag k="natural" v="water" />
		<tag k="ssr:date" v="2019-12-27" />
		<tag k="ssr:gruppe" v="stilleståendeVann" />
		<tag k="ssr:hovedgruppe" v="ferskvann" />
		<tag k="ssr:stedsnr" v="48334" />
		<tag k="ssr:type" v="tjern" />
	</node>
	<node lat="58.309366669966664" lon="8.507577780384144" id="-27342">
		<tag k="name" v="Hanetodalen" />
		<tag k="natural" v="valley" />
		<tag k="place" v="locality" />
		<tag k="ssr:date" v="2019-12-27" />
		<tag k="ssr:gruppe" v="senkninger" />
		<tag k="ssr:hovedgruppe" v="terreng" />
		<tag k="ssr:stedsnr" v="48269" />
		<tag k="ssr:type" v="dal" />
	</node>
	<node lat="58.305602774492456" lon="8.499138880846488" id="-27343">
		<tag k="name" v="Nyhaven" />
		<tag k="natural" v="valley" />
		<tag k="place" v="locality" />
		<tag k="ssr:date" v="2019-12-27" />
		<tag k="ssr:gruppe" v="senkninger" />
		<tag k="ssr:hovedgruppe" v="terreng" />
		<tag k="ssr:stedsnr" v="48274" />
		<tag k="ssr:type" v="dal" />
	</node>
	<node lat="58.32188888491892" lon="8.535741661573317" id="-27344">
		<tag k="name" v="Furreheia" />
		<tag k="natural" v="hill" />
		<tag k="place" v="locality" />
		<tag k="ssr:date" v="2019-12-27" />
		<tag k="ssr:gruppe" v="høyder" />
		<tag k="ssr:hovedgruppe" v="terreng" />
		<tag k="ssr:stedsnr" v="48276" />
		<tag k="ssr:type" v="hei" />
	</node>
	<node lat="58.32367777915868" lon="8.548463893937267" id="-27345">
		<tag k="name" v="Fossbø" />
		<tag k="place" v="locality" />
		<tag k="ssr:date" v="2019-12-27" />
		<tag k="ssr:gruppe" v="dyrkamark" />
		<tag k="ssr:hovedgruppe" v="markslag" />
		<tag k="ssr:stedsnr" v="48277" />
		<tag k="ssr:type" v="jorde" />
	</node>
	<node lat="58.32233333345419" lon="8.495094440849904" id="-27346">
		<tag k="name" v="Inntjorkilen" />
		<tag k="natural" v="bay" />
		<tag k="ssr:date" v="2019-12-27" />
		<tag k="ssr:gruppe" v="ferskvannskontur" />
		<tag k="ssr:hovedgruppe" v="ferskvann" />
		<tag k="ssr:stedsnr" v="48414" />
		<tag k="ssr:type" v="vik" />
	</node>
	<node lat="58.318347220509395" lon="8.495511104062457" id="-27347">
		<tag k="name" v="Fløyheia" />
		<tag k="natural" v="hill" />
		<tag k="place" v="locality" />
		<tag k="ssr:date" v="2019-12-27" />
		<tag k="ssr:gruppe" v="høyder" />
		<tag k="ssr:hovedgruppe" v="terreng" />
		<tag k="ssr:stedsnr" v="48415" />
		<tag k="ssr:type" v="hei" />
	</node>
	<node lat="58.3206222264967" lon="8.511558337747333" id="-27348">
		<tag k="name" v="Kalveskogen" />
		<tag k="place" v="locality" />
		<tag k="ssr:date" v="2019-12-27" />
		<tag k="ssr:gruppe" v="vegetasjon" />
		<tag k="ssr:hovedgruppe" v="markslag" />
		<tag k="ssr:stedsnr" v="48419" />
		<tag k="ssr:type" v="skog" />
	</node>
	<node lat="58.463611107175346" lon="8.432355563077873" id="-27349">
		<tag k="name" v="Langemyr" />
		<tag k="natural" v="wetland" />
		<tag k="ssr:date" v="2019-12-27" />
		<tag k="ssr:gruppe" v="våtmark" />
		<tag k="ssr:hovedgruppe" v="markslag" />
		<tag k="ssr:stedsnr" v="52226" />
		<tag k="ssr:type" v="myr" />
	</node>
	<node lat="58.37278611030503" lon="8.477511108798437" id="-27350">
		<tag k="name" v="Heirenes" />
		<tag k="natural" v="cape" />
		<tag k="ssr:date" v="2019-12-27" />
		<tag k="ssr:gruppe" v="ferskvannskontur" />
		<tag k="ssr:hovedgruppe" v="ferskvann" />
		<tag k="ssr:stedsnr" v="53110" />
		<tag k="ssr:type" v="nes" />
	</node>
	<node lat="58.386027780803246" lon="8.445336107164618" id="-27351">
		<tag k="name" v="Bjørkkjerrskotet" />
		<tag k="natural" v="cliff" />
		<tag k="ssr:date" v="2019-12-27" />
		<tag k="ssr:gruppe" v="terrengdetaljer" />
		<tag k="ssr:hovedgruppe" v="terreng" />
		<tag k="ssr:stedsnr" v="53121" />
		<tag k="ssr:type" v="stup" />
	</node>
	<node lat="58.38494166713412" lon="8.444102769951144" id="-27352">
		<tag k="fixme" v="consider place=hamlet" />
		<tag k="name" v="Øvre Bjørkos" />
		<tag k="place" v="farm" />
		<tag k="ssr:date" v="2019-12-27" />
		<tag k="ssr:gruppe" v="gardsbebyggelse" />
		<tag k="ssr:hovedgruppe" v="bebyggelse" />
		<tag k="ssr:stedsnr" v="53123" />
		<tag k="ssr:type" v="gard" />
	</node>
	<node lat="58.47591666702089" lon="8.442622230061536" id="-27353">
		<tag k="name" v="Svåene" />
		<tag k="natural" v="cliff" />
		<tag k="ssr:date" v="2019-12-27" />
		<tag k="ssr:gruppe" v="terrengdetaljer" />
		<tag k="ssr:hovedgruppe" v="terreng" />
		<tag k="ssr:stedsnr" v="53001" />
		<tag k="ssr:type" v="stup" />
	</node>
	<node lat="58.47685833062668" lon="8.444044442292554" id="-27354">
		<tag k="name" v="Toredalsfjellet" />
		<tag k="natural" v="cliff" />
		<tag k="ssr:date" v="2019-12-27" />
		<tag k="ssr:gruppe" v="terrengdetaljer" />
		<tag k="ssr:hovedgruppe" v="terreng" />
		<tag k="ssr:stedsnr" v="53006" />
		<tag k="ssr:type" v="stup" />
	</node>
	<node lat="58.46670832984894" lon="8.485049995104735" id="-27355">
		<tag k="name" v="Lislevassheia" />
		<tag k="natural" v="hill" />
		<tag k="place" v="locality" />
		<tag k="ssr:date" v="2019-12-27" />
		<tag k="ssr:gruppe" v="høyder" />
		<tag k="ssr:hovedgruppe" v="terreng" />
		<tag k="ssr:stedsnr" v="53221" />
		<tag k="ssr:type" v="hei" />
	</node>
	<node lat="58.45442499719071" lon="8.397436111627174" id="-27356">
		<tag k="name" v="Trettehei" />
		<tag k="natural" v="hill" />
		<tag k="place" v="locality" />
		<tag k="ssr:date" v="2019-12-27" />
		<tag k="ssr:gruppe" v="høyder" />
		<tag k="ssr:hovedgruppe" v="terreng" />
		<tag k="ssr:stedsnr" v="53224" />
		<tag k="ssr:type" v="hei" />
	</node>
	<node lat="58.471719442258625" lon="8.452880557485141" id="-27357">
		<tag k="fixme" v="consider natural=peak for the most distinct mountains in the district" />
		<tag k="name" v="Bjorhoggknatten" />
		<tag k="natural" v="hill" />
		<tag k="place" v="locality" />
		<tag k="ssr:date" v="2019-12-27" />
		<tag k="ssr:gruppe" v="høyder" />
		<tag k="ssr:hovedgruppe" v="terreng" />
		<tag k="ssr:stedsnr" v="53228" />
		<tag k="ssr:type" v="ås" />
	</node>
	<node lat="58.38221666645061" lon="8.369844449789012" id="-27358">
		<tag k="name" v="Dyblemyr" />
		<tag k="natural" v="wetland" />
		<tag k="ssr:date" v="2019-12-27" />
		<tag k="ssr:gruppe" v="våtmark" />
		<tag k="ssr:hovedgruppe" v="markslag" />
		<tag k="ssr:stedsnr" v="53168" />
		<tag k="ssr:type" v="myr" />
	</node>
	<node lat="58.43419166698964" lon="8.513563884889479" id="-27359">
		<tag k="name" v="Smieheia" />
		<tag k="natural" v="hill" />
		<tag k="place" v="locality" />
		<tag k="ssr:date" v="2019-12-27" />
		<tag k="ssr:gruppe" v="høyder" />
		<tag k="ssr:hovedgruppe" v="terreng" />
		<tag k="ssr:stedsnr" v="53382" />
		<tag k="ssr:type" v="hei" />
	</node>
	<node lat="58.43529722104091" lon="8.492066659638393" id="-27360">
		<tag k="name" v="Liene" />
		<tag k="natural" v="slope" />
		<tag k="place" v="locality" />
		<tag k="ssr:date" v="2019-12-27" />
		<tag k="ssr:gruppe" v="skråninger" />
		<tag k="ssr:hovedgruppe" v="terreng" />
		<tag k="ssr:stedsnr" v="53501" />
		<tag k="ssr:type" v="li" />
	</node>
	<node lat="58.434911108587364" lon="8.478611108924397" id="-27361">
		<tag k="name" v="Skrubbedalen" />
		<tag k="natural" v="valley" />
		<tag k="place" v="locality" />
		<tag k="ssr:date" v="2019-12-27" />
		<tag k="ssr:gruppe" v="senkninger" />
		<tag k="ssr:hovedgruppe" v="terreng" />
		<tag k="ssr:stedsnr" v="53509" />
		<tag k="ssr:type" v="dal" />
	</node>
	<node lat="58.43387499829658" lon="8.486688891061359" id="-27362">
		<tag k="name" v="Tverrheimyrene" />
		<tag k="natural" v="wetland" />
		<tag k="ssr:date" v="2019-12-27" />
		<tag k="ssr:gruppe" v="våtmark" />
		<tag k="ssr:hovedgruppe" v="markslag" />
		<tag k="ssr:stedsnr" v="53511" />
		<tag k="ssr:type" v="myr" />
	</node>
	<node lat="58.43580832995754" lon="8.467075003909343" id="-27363">
		<tag k="name" v="Strandemyr" />
		<tag k="natural" v="wetland" />
		<tag k="ssr:date" v="2019-12-27" />
		<tag k="ssr:gruppe" v="våtmark" />
		<tag k="ssr:hovedgruppe" v="markslag" />
		<tag k="ssr:stedsnr" v="53512" />
		<tag k="ssr:type" v="myr" />
	</node>
	<node lat="58.42256389199167" lon="8.523619445655859" id="-27364">
		<tag k="name" v="Busseldalen" />
		<tag k="natural" v="valley" />
		<tag k="place" v="locality" />
		<tag k="ssr:date" v="2019-12-27" />
		<tag k="ssr:gruppe" v="senkninger" />
		<tag k="ssr:hovedgruppe" v="terreng" />
		<tag k="ssr:stedsnr" v="53514" />
		<tag k="ssr:type" v="dal" />
	</node>
	<node lat="58.41682222322991" lon="8.500413893843724" id="-27365">
		<tag k="name" v="Søylesundet" />
		<tag k="natural" v="strait" />
		<tag k="ssr:date" v="2019-12-27" />
		<tag k="ssr:gruppe" v="ferskvannskontur" />
		<tag k="ssr:hovedgruppe" v="ferskvann" />
		<tag k="ssr:stedsnr" v="53520" />
		<tag k="ssr:type" v="sund" />
	</node>
	<node lat="58.41435277749041" lon="8.35434444400014" id="-27366">
		<tag k="name" v="Langemyr" />
		<tag k="natural" v="wetland" />
		<tag k="ssr:date" v="2019-12-27" />
		<tag k="ssr:gruppe" v="våtmark" />
		<tag k="ssr:hovedgruppe" v="markslag" />
		<tag k="ssr:stedsnr" v="53275" />
		<tag k="ssr:type" v="myr" />
	</node>
	<node lat="58.43043333398945" lon="8.446555554622279" id="-27367">
		<tag k="name" v="Holemyr" />
		<tag k="natural" v="wetland" />
		<tag k="ssr:date" v="2019-12-27" />
		<tag k="ssr:gruppe" v="våtmark" />
		<tag k="ssr:hovedgruppe" v="markslag" />
		<tag k="ssr:stedsnr" v="53706" />
		<tag k="ssr:type" v="myr" />
	</node>
	<node lat="58.42138611269845" lon="8.39114722444597" id="-27368">
		<tag k="name" v="Karishei" />
		<tag k="natural" v="hill" />
		<tag k="place" v="locality" />
		<tag k="ssr:date" v="2019-12-27" />
		<tag k="ssr:gruppe" v="høyder" />
		<tag k="ssr:hovedgruppe" v="terreng" />
		<tag k="ssr:stedsnr" v="53709" />
		<tag k="ssr:type" v="hei" />
	</node>
	<node lat="58.423505558727506" lon="8.396366671503085" id="-27369">
		<tag k="name" v="Flatmyr" />
		<tag k="natural" v="wetland" />
		<tag k="ssr:date" v="2019-12-27" />
		<tag k="ssr:gruppe" v="våtmark" />
		<tag k="ssr:hovedgruppe" v="markslag" />
		<tag k="ssr:stedsnr" v="53710" />
		<tag k="ssr:type" v="myr" />
	</node>
	<node lat="58.41054722400309" lon="8.418108339557508" id="-27370">
		<tag k="name" v="Dublemyr" />
		<tag k="natural" v="wetland" />
		<tag k="ssr:date" v="2019-12-27" />
		<tag k="ssr:gruppe" v="våtmark" />
		<tag k="ssr:hovedgruppe" v="markslag" />
		<tag k="ssr:stedsnr" v="53712" />
		<tag k="ssr:type" v="myr" />
	</node>
	<node lat="58.411538891693304" lon="8.40031665991163" id="-27371">
		<tag k="name" v="Øyna" />
		<tag k="place" v="islet" />
		<tag k="ssr:date" v="2019-12-27" />
		<tag k="ssr:gruppe" v="ferskvannskontur" />
		<tag k="ssr:hovedgruppe" v="ferskvann" />
		<tag k="ssr:stedsnr" v="53714" />
		<tag k="ssr:type" v="holme" />
	</node>
	<node lat="58.39837499563827" lon="8.496833328879934" id="-27372">
		<tag k="name" v="Urdalstjenn" />
		<tag k="natural" v="water" />
		<tag k="ssr:date" v="2019-12-27" />
		<tag k="ssr:gruppe" v="stilleståendeVann" />
		<tag k="ssr:hovedgruppe" v="ferskvann" />
		<tag k="ssr:stedsnr" v="53776" />
		<tag k="ssr:type" v="tjern" />
	</node>
	<node lat="58.40624722046225" lon="8.447644445075037" id="-27373">
		<tag k="name" v="Sauetjennheia" />
		<tag k="natural" v="hill" />
		<tag k="place" v="locality" />
		<tag k="ssr:date" v="2019-12-27" />
		<tag k="ssr:gruppe" v="høyder" />
		<tag k="ssr:hovedgruppe" v="terreng" />
		<tag k="ssr:stedsnr" v="53909" />
		<tag k="ssr:type" v="hei" />
	</node>
	<node lat="58.40521666975245" lon="8.402161106418259" id="-27374">
		<tag k="fixme" v="consider natural=peak for the most distinct mountains in the district" />
		<tag k="name" v="Skredderberget" />
		<tag k="natural" v="hill" />
		<tag k="place" v="locality" />
		<tag k="ssr:date" v="2019-12-27" />
		<tag k="ssr:gruppe" v="høyder" />
		<tag k="ssr:hovedgruppe" v="terreng" />
		<tag k="ssr:stedsnr" v="53915" />
		<tag k="ssr:type" v="ås" />
	</node>
	<node lat="58.39076389333727" lon="8.321522226707332" id="-27375">
		<tag k="name" v="Fleketjenn" />
		<tag k="natural" v="water" />
		<tag k="ssr:date" v="2019-12-27" />
		<tag k="ssr:gruppe" v="stilleståendeVann" />
		<tag k="ssr:hovedgruppe" v="ferskvann" />
		<tag k="ssr:stedsnr" v="53967" />
		<tag k="ssr:type" v="tjern" />
	</node>
	<node lat="58.39564444134857" lon="8.311972223933694" id="-27376">
		<tag k="name" v="Røysemyr" />
		<tag k="natural" v="wetland" />
		<tag k="ssr:date" v="2019-12-27" />
		<tag k="ssr:gruppe" v="våtmark" />
		<tag k="ssr:hovedgruppe" v="markslag" />
		<tag k="ssr:stedsnr" v="53971" />
		<tag k="ssr:type" v="myr" />
	</node>
	<node lat="58.39589166235495" lon="8.34278611138267" id="-27377">
		<tag k="name" v="Risdalmyra" />
		<tag k="natural" v="wetland" />
		<tag k="ssr:date" v="2019-12-27" />
		<tag k="ssr:gruppe" v="våtmark" />
		<tag k="ssr:hovedgruppe" v="markslag" />
		<tag k="ssr:stedsnr" v="53977" />
		<tag k="ssr:type" v="myr" />
	</node>
	<node lat="58.3026444412721" lon="8.574999994097263" id="-27378">
		<tag k="name" v="Indreholmen" />
		<tag k="place" v="islet" />
		<tag k="ssr:date" v="2019-12-27" />
		<tag k="ssr:gruppe" v="kystkontur" />
		<tag k="ssr:hovedgruppe" v="sjø" />
		<tag k="ssr:stedsnr" v="55602" />
		<tag k="ssr:type" v="holmeISjø" />
	</node>
	<node lat="58.34663888868214" lon="8.639422215336628" id="-27380">
		<tag k="name" v="Drottningborg" />
		<tag k="place" v="quarter" />
		<tag k="ssr:date" v="2019-12-27" />
		<tag k="ssr:gruppe" v="bebyggelsesområder" />
		<tag k="ssr:hovedgruppe" v="bebyggelse" />
		<tag k="ssr:stedsnr" v="59182" />
		<tag k="ssr:type" v="boligfelt" />
	</node>
	<node lat="58.35476110758818" lon="8.560566660299237" id="-27382">
		<tag k="fixme" v="consider place=hamlet" />
		<tag k="name" v="Østre Frivold" />
		<tag k="place" v="farm" />
		<tag k="ssr:date" v="2019-12-27" />
		<tag k="ssr:gruppe" v="gardsbebyggelse" />
		<tag k="ssr:hovedgruppe" v="bebyggelse" />
		<tag k="ssr:stedsnr" v="59807" />
		<tag k="ssr:type" v="gard" />
	</node>
	<node lat="58.46408333329431" lon="8.440958330233858" id="-27425">
		<tag k="name" v="Kollandsvannet" />
		<tag k="natural" v="water" />
		<tag k="ssr:date" v="2019-12-27" />
		<tag k="ssr:gruppe" v="stilleståendeVann" />
		<tag k="ssr:hovedgruppe" v="ferskvann" />
		<tag k="ssr:stedsnr" v="61473" />
		<tag k="ssr:type" v="vann" />
		<tag k="water" v="lake" />
	</node>
	<node lat="58.38296633931411" lon="8.712597919242887" id="-27426">
		<tag k="name" v="Ruager" />
		<tag k="place" v="farm" />
		<tag k="ssr:date" v="2021-06-08" />
		<tag k="ssr:gruppe" v="gardsbebyggelse" />
		<tag k="ssr:hovedgruppe" v="bebyggelse" />
		<tag k="ssr:stedsnr" v="61489" />
		<tag k="ssr:type" v="bruk" />
	</node>
	<node lat="58.37393611182877" lon="8.69997222547437" id="-27427">
		<tag k="name" v="Randviga" />
		<tag k="natural" v="bay" />
		<tag k="ssr:date" v="2021-06-08" />
		<tag k="ssr:gruppe" v="kystkontur" />
		<tag k="ssr:hovedgruppe" v="sjø" />
		<tag k="ssr:stedsnr" v="61497" />
		<tag k="ssr:type" v="vikISjø" />
	</node>
	<node lat="58.460161115621105" lon="8.496938895873775" id="-27428">
		<tag k="name" v="Smedvann" />
		<tag k="natural" v="water" />
		<tag k="ssr:date" v="2019-12-27" />
		<tag k="ssr:gruppe" v="stilleståendeVann" />
		<tag k="ssr:hovedgruppe" v="ferskvann" />
		<tag k="ssr:stedsnr" v="61622" />
		<tag k="ssr:type" v="tjern" />
	</node>
	<node lat="58.38802499966661" lon="8.650677779927236" id="-27429">
		<tag k="name" v="Lia" />
		<tag k="place" v="farm" />
		<tag k="ssr:date" v="2019-12-27" />
		<tag k="ssr:gruppe" v="gardsbebyggelse" />
		<tag k="ssr:hovedgruppe" v="bebyggelse" />
		<tag k="ssr:stedsnr" v="61504" />
		<tag k="ssr:type" v="bruk" />
	</node>
	<node lat="58.390458331476594" lon="8.710622221579415" id="-27430">
		<tag k="fixme" v="consider place=hamlet" />
		<tag k="name" v="Søm" />
		<tag k="place" v="farm" />
		<tag k="ssr:date" v="2019-12-27" />
		<tag k="ssr:gruppe" v="gardsbebyggelse" />
		<tag k="ssr:hovedgruppe" v="bebyggelse" />
		<tag k="ssr:stedsnr" v="61506" />
		<tag k="ssr:type" v="gard" />
	</node>
	<node lat="58.30447222431044" lon="8.578458341508155" id="-27431">
		<tag k="name" v="Risholmen" />
		<tag k="place" v="islet" />
		<tag k="ssr:date" v="2019-12-27" />
		<tag k="ssr:gruppe" v="kystkontur" />
		<tag k="ssr:hovedgruppe" v="sjø" />
		<tag k="ssr:stedsnr" v="61934" />
		<tag k="ssr:type" v="holmeISjø" />
	</node>
	<node lat="58.35081388982703" lon="8.65260554709652" id="-27432">
		<tag k="name" v="Fugleviga" />
		<tag k="natural" v="bay" />
		<tag k="ssr:date" v="2021-06-08" />
		<tag k="ssr:gruppe" v="kystkontur" />
		<tag k="ssr:hovedgruppe" v="sjø" />
		<tag k="ssr:stedsnr" v="61975" />
		<tag k="ssr:type" v="vikISjø" />
	</node>
	<node lat="58.3920722203925" lon="8.555672226464502" id="-27433">
		<tag k="name" v="Stemvannet" />
		<tag k="natural" v="water" />
		<tag k="ssr:date" v="2019-12-27" />
		<tag k="ssr:gruppe" v="stilleståendeVann" />
		<tag k="ssr:hovedgruppe" v="ferskvann" />
		<tag k="ssr:stedsnr" v="61895" />
		<tag k="ssr:type" v="vann" />
		<tag k="water" v="lake" />
	</node>
	<node lat="58.36699721862445" lon="8.617302777265913" id="-27436">
		<tag k="name" v="Vestre Vik" />
		<tag k="place" v="quarter" />
		<tag k="ssr:date" v="2019-12-27" />
		<tag k="ssr:gruppe" v="bebyggelsesområder" />
		<tag k="ssr:hovedgruppe" v="bebyggelse" />
		<tag k="ssr:stedsnr" v="241157" />
		<tag k="ssr:type" v="boligfelt" />
	</node>
	<node lat="58.35023889031921" lon="8.620336111329141" id="-27448">
		<tag k="fixme" v="consider place=hamlet" />
		<tag k="name" v="Vestre Eskedal" />
		<tag k="place" v="farm" />
		<tag k="ssr:date" v="2019-12-27" />
		<tag k="ssr:gruppe" v="gardsbebyggelse" />
		<tag k="ssr:hovedgruppe" v="bebyggelse" />
		<tag k="ssr:stedsnr" v="242160" />
		<tag k="ssr:type" v="gard" />
	</node>
	<node lat="58.42385227593197" lon="8.47314878537784" id="-27467">
		<tag k="name" v="Hardebergdalen" />
		<tag k="place" v="farm" />
		<tag k="ssr:date" v="2020-06-11" />
		<tag k="ssr:gruppe" v="gardsbebyggelse" />
		<tag k="ssr:hovedgruppe" v="bebyggelse" />
		<tag k="ssr:stedsnr" v="242575" />
		<tag k="ssr:type" v="bruk" />
	</node>
	<node lat="58.334263885728895" lon="8.375458340138" id="-27499">
		<tag k="name" v="Lindvannet" />
		<tag k="natural" v="water" />
		<tag k="ssr:date" v="2019-12-27" />
		<tag k="ssr:gruppe" v="stilleståendeVann" />
		<tag k="ssr:hovedgruppe" v="ferskvann" />
		<tag k="ssr:stedsnr" v="243247" />
		<tag k="ssr:type" v="vann" />
		<tag k="water" v="lake" />
	</node>
	<node lat="58.393061113035586" lon="8.435908325366112" id="-27500">
		<tag k="name" v="Holetjenn" />
		<tag k="natural" v="water" />
		<tag k="ssr:date" v="2019-12-27" />
		<tag k="ssr:gruppe" v="stilleståendeVann" />
		<tag k="ssr:hovedgruppe" v="ferskvann" />
		<tag k="ssr:stedsnr" v="243314" />
		<tag k="ssr:type" v="tjern" />
	</node>
	<node lat="58.36675555402492" lon="8.393124992328476" id="-27501">
		<tag k="name" v="Iletjønn" />
		<tag k="natural" v="water" />
		<tag k="ssr:date" v="2019-12-27" />
		<tag k="ssr:gruppe" v="stilleståendeVann" />
		<tag k="ssr:hovedgruppe" v="ferskvann" />
		<tag k="ssr:stedsnr" v="243353" />
		<tag k="ssr:type" v="tjern" />
	</node>
	<node lat="58.3813638896633" lon="8.597033332306385" id="-27502">
		<tag k="alt_name" v="Steintjenn" />
		<tag k="name" v="Steinstjern" />
		<tag k="natural" v="water" />
		<tag k="ssr:date" v="2019-12-27" />
		<tag k="ssr:gruppe" v="stilleståendeVann" />
		<tag k="ssr:hovedgruppe" v="ferskvann" />
		<tag k="ssr:stedsnr" v="243551" />
		<tag k="ssr:type" v="tjern" />
	</node>
	<node lat="58.37894166869807" lon="8.579913885967162" id="-27503">
		<tag k="fixme" v="consider natural=peak for the most distinct mountains in the district" />
		<tag k="name" v="Fjæreheia" />
		<tag k="natural" v="hill" />
		<tag k="place" v="locality" />
		<tag k="ssr:date" v="2019-12-27" />
		<tag k="ssr:gruppe" v="høyder" />
		<tag k="ssr:hovedgruppe" v="terreng" />
		<tag k="ssr:stedsnr" v="243552" />
		<tag k="ssr:type" v="ås" />
	</node>
	<node lat="58.39058610906979" lon="8.480719437015702" id="-27504">
		<tag k="alt_name" v="Terjesheia" />
		<tag k="fixme" v="consider natural=peak for the most distinct mountains in the district" />
		<tag k="name" v="Terjeshei" />
		<tag k="natural" v="hill" />
		<tag k="place" v="locality" />
		<tag k="ssr:date" v="2019-12-27" />
		<tag k="ssr:gruppe" v="høyder" />
		<tag k="ssr:hovedgruppe" v="terreng" />
		<tag k="ssr:stedsnr" v="243558" />
		<tag k="ssr:type" v="ås" />
	</node>
	<node lat="58.401147225216555" lon="8.51035278324925" id="-27505">
		<tag k="alt_name" v="Kvernhusmoen" />
		<tag k="name" v="Kvennhusmoen" />
		<tag k="place" v="farm" />
		<tag k="ssr:date" v="2019-12-27" />
		<tag k="ssr:gruppe" v="gardsbebyggelse" />
		<tag k="ssr:hovedgruppe" v="bebyggelse" />
		<tag k="ssr:stedsnr" v="243562" />
		<tag k="ssr:type" v="bruk" />
	</node>
	<node lat="58.40230000260975" lon="8.642477784901786" id="-27506">
		<tag k="name" v="Lunde" />
		<tag k="place" v="farm" />
		<tag k="ssr:date" v="2019-12-27" />
		<tag k="ssr:gruppe" v="gardsbebyggelse" />
		<tag k="ssr:hovedgruppe" v="bebyggelse" />
		<tag k="ssr:stedsnr" v="243563" />
		<tag k="ssr:type" v="bruk" />
	</node>
	<node lat="58.46364444589133" lon="8.406861109104454" id="-27507">
		<tag k="alt_name" v="Dørfjell" />
		<tag k="fixme" v="consider natural=peak for the most distinct mountains in the district" />
		<tag k="name" v="Dørefjell" />
		<tag k="natural" v="hill" />
		<tag k="place" v="locality" />
		<tag k="ssr:date" v="2019-12-27" />
		<tag k="ssr:gruppe" v="høyder" />
		<tag k="ssr:hovedgruppe" v="terreng" />
		<tag k="ssr:stedsnr" v="243469" />
		<tag k="ssr:type" v="ås" />
	</node>
	<node lat="58.36833333225857" lon="8.622705557493713" id="-27508">
		<tag k="name" v="Vik" />
		<tag k="place" v="village" />
		<tag k="ssr:date" v="2019-12-27" />
		<tag k="ssr:gruppe" v="bebyggelsesområder" />
		<tag k="ssr:hovedgruppe" v="bebyggelse" />
		<tag k="ssr:stedsnr" v="243505" />
		<tag k="ssr:type" v="tettsted" />
	</node>
	<node lat="58.397074999018855" lon="8.39837778623844" id="-27509">
		<tag k="alt_name" v="Storrheia" />
		<tag k="fixme" v="consider natural=peak for the most distinct mountains in the district" />
		<tag k="name" v="Storrhei" />
		<tag k="natural" v="hill" />
		<tag k="place" v="locality" />
		<tag k="ssr:date" v="2019-12-27" />
		<tag k="ssr:gruppe" v="høyder" />
		<tag k="ssr:hovedgruppe" v="terreng" />
		<tag k="ssr:stedsnr" v="243866" />
		<tag k="ssr:type" v="ås" />
	</node>
	<node lat="58.29670278134739" lon="8.531338880394754" id="-27510">
		<tag k="name" v="Alsand" />
		<tag k="place" v="farm" />
		<tag k="ssr:date" v="2019-12-27" />
		<tag k="ssr:gruppe" v="gardsbebyggelse" />
		<tag k="ssr:hovedgruppe" v="bebyggelse" />
		<tag k="ssr:stedsnr" v="243948" />
		<tag k="ssr:type" v="bruk" />
	</node>
	<node lat="58.27523793723492" lon="8.466657341452864" id="-27512">
		<tag k="fixme" v="consider place=hamlet" />
		<tag k="name" v="Berg" />
		<tag k="place" v="farm" />
		<tag k="ssr:date" v="2019-12-27" />
		<tag k="ssr:gruppe" v="gardsbebyggelse" />
		<tag k="ssr:hovedgruppe" v="bebyggelse" />
		<tag k="ssr:stedsnr" v="243968" />
		<tag k="ssr:type" v="gard" />
	</node>
	<node lat="58.27326111460004" lon="8.493499995073872" id="-27513">
		<tag k="name" v="Enge" />
		<tag k="place" v="farm" />
		<tag k="ssr:date" v="2019-12-27" />
		<tag k="ssr:gruppe" v="gardsbebyggelse" />
		<tag k="ssr:hovedgruppe" v="bebyggelse" />
		<tag k="ssr:stedsnr" v="243971" />
		<tag k="ssr:type" v="bruk" />
	</node>
	<node lat="58.25853055209641" lon="8.508455554625899" id="-27514">
		<tag k="name" v="Sundholmen" />
		<tag k="place" v="islet" />
		<tag k="ssr:date" v="2021-06-08" />
		<tag k="ssr:gruppe" v="kystkontur" />
		<tag k="ssr:hovedgruppe" v="sjø" />
		<tag k="ssr:stedsnr" v="83980" />
		<tag k="ssr:type" v="holmeISjø" />
	</node>
	<node lat="58.253766666118445" lon="8.540911106178992" id="-27515">
		<tag k="name" v="Kristtjern" />
		<tag k="natural" v="shoal" />
		<tag k="place" v="locality" />
		<tag k="ssr:date" v="2021-06-08" />
		<tag k="ssr:gruppe" v="grunnerISjø" />
		<tag k="ssr:hovedgruppe" v="sjø" />
		<tag k="ssr:stedsnr" v="83984" />
		<tag k="ssr:type" v="grunneISjø" />
	</node>
	<node lat="58.25803610722516" lon="8.470358338286871" id="-27516">
		<tag k="name" v="Nordmannsviga" />
		<tag k="natural" v="bay" />
		<tag k="ssr:date" v="2021-06-08" />
		<tag k="ssr:gruppe" v="kystkontur" />
		<tag k="ssr:hovedgruppe" v="sjø" />
		<tag k="ssr:stedsnr" v="83985" />
		<tag k="ssr:type" v="vikISjø" />
	</node>
	<node lat="58.2913138933942" lon="8.555180557491031" id="-27517">
		<tag k="name" v="Hals" />
		<tag k="place" v="locality" />
		<tag k="ssr:date" v="2021-06-08" />
		<tag k="ssr:gruppe" v="bolighus" />
		<tag k="ssr:hovedgruppe" v="bebyggelse" />
		<tag k="ssr:stedsnr" v="87627" />
		<tag k="ssr:type" v="gammelBosettingsplass" />
	</node>
	<node lat="58.33970277469577" lon="8.709913887646923" id="-27518">
		<tag k="name" v="Kjerkegrunnen" />
		<tag k="natural" v="shoal" />
		<tag k="place" v="locality" />
		<tag k="ssr:date" v="2021-06-08" />
		<tag k="ssr:gruppe" v="grunnerISjø" />
		<tag k="ssr:hovedgruppe" v="sjø" />
		<tag k="ssr:stedsnr" v="87726" />
		<tag k="ssr:type" v="grunneISjø" />
	</node>
	<node lat="58.25408333163975" lon="8.460750006801833" id="-27519">
		<tag k="name" v="Storesand" />
		<tag k="natural" v="beach" />
		<tag k="ssr:date" v="2019-12-27" />
		<tag k="ssr:gruppe" v="kystkontur" />
		<tag k="ssr:hovedgruppe" v="sjø" />
		<tag k="ssr:stedsnr" v="90435" />
		<tag k="ssr:type" v="strandISjø" />
	</node>
	<node lat="58.362722226688625" lon="8.668083341082292" id="-27520">
		<tag k="name" v="Edens have" />
		<tag k="place" v="locality" />
		<tag k="ssr:date" v="2019-12-27" />
		<tag k="ssr:gruppe" v="dyrkamark" />
		<tag k="ssr:hovedgruppe" v="markslag" />
		<tag k="ssr:stedsnr" v="90440" />
		<tag k="ssr:type" v="havnehage" />
	</node>
	<node lat="58.35499999649052" lon="8.663944436000593" id="-27521">
		<tag k="name" v="Grønnvigodden" />
		<tag k="natural" v="cape" />
		<tag k="ssr:date" v="2019-12-27" />
		<tag k="ssr:gruppe" v="kystkontur" />
		<tag k="ssr:hovedgruppe" v="sjø" />
		<tag k="ssr:stedsnr" v="90449" />
		<tag k="ssr:type" v="nesISjø" />
	</node>
	<node lat="58.35224999700341" lon="8.617361108743987" id="-27522">
		<tag k="name" v="Solheim" />
		<tag k="place" v="farm" />
		<tag k="ssr:date" v="2019-12-27" />
		<tag k="ssr:gruppe" v="gardsbebyggelse" />
		<tag k="ssr:hovedgruppe" v="bebyggelse" />
		<tag k="ssr:stedsnr" v="90459" />
		<tag k="ssr:type" v="bruk" />
	</node>
	<node lat="58.398286107726186" lon="8.622286107453423" id="-27523">
		<tag k="name" v="Tøramyra" />
		<tag k="natural" v="wetland" />
		<tag k="ssr:date" v="2019-12-27" />
		<tag k="ssr:gruppe" v="våtmark" />
		<tag k="ssr:hovedgruppe" v="markslag" />
		<tag k="ssr:stedsnr" v="90367" />
		<tag k="ssr:type" v="myr" />
	</node>
	<node lat="58.40390277632235" lon="8.642608334552117" id="-27524">
		<tag k="alt_name" v="Stru" />
		<tag k="bridge" v="yes" />
		<tag k="layer" v="1" />
		<tag k="name" v="Strubru" />
		<tag k="ssr:date" v="2019-12-27" />
		<tag k="ssr:gruppe" v="samferdselsanlegg" />
		<tag k="ssr:hovedgruppe" v="infrastruktur" />
		<tag k="ssr:stedsnr" v="90371" />
		<tag k="ssr:type" v="bru" />
	</node>
	<node lat="58.24922222368854" lon="8.511055549651266" id="-27525">
		<tag k="name" v="Merrefua" />
		<tag k="natural" v="bay" />
		<tag k="ssr:date" v="2019-12-27" />
		<tag k="ssr:gruppe" v="kystkontur" />
		<tag k="ssr:hovedgruppe" v="sjø" />
		<tag k="ssr:stedsnr" v="90373" />
		<tag k="ssr:type" v="vikISjø" />
	</node>
	<node lat="58.247694448410684" lon="8.496888893666949" id="-27526">
		<tag k="name" v="Lyngholmene" />
		<tag k="place" v="islet" />
		<tag k="ssr:date" v="2019-12-27" />
		<tag k="ssr:gruppe" v="kystkontur" />
		<tag k="ssr:hovedgruppe" v="sjø" />
		<tag k="ssr:stedsnr" v="90375" />
		<tag k="ssr:type" v="holmeISjø" />
	</node>
	<node lat="58.27066666661194" lon="8.469916669370077" id="-27527">
		<tag k="name" v="Kanalen" />
		<tag k="ssr:date" v="2019-12-27" />
		<tag k="ssr:gruppe" v="sjøfart" />
		<tag k="ssr:hovedgruppe" v="infrastruktur" />
		<tag k="ssr:stedsnr" v="90397" />
		<tag k="ssr:type" v="kanal" />
		<tag k="waterway" v="canal" />
	</node>
	<node lat="58.38459722189474" lon="8.615444446429246" id="-27528">
		<tag k="name" v="Havemyr" />
		<tag k="natural" v="wetland" />
		<tag k="ssr:date" v="2019-12-27" />
		<tag k="ssr:gruppe" v="våtmark" />
		<tag k="ssr:hovedgruppe" v="markslag" />
		<tag k="ssr:stedsnr" v="90674" />
		<tag k="ssr:type" v="myr" />
	</node>
	<node lat="58.3733888899187" lon="8.632358331787916" id="-27529">
		<tag k="fixme" v="consider natural=peak for the most distinct mountains in the district" />
		<tag k="name" v="Ravnåsen" />
		<tag k="natural" v="hill" />
		<tag k="place" v="locality" />
		<tag k="ssr:date" v="2019-12-27" />
		<tag k="ssr:gruppe" v="høyder" />
		<tag k="ssr:hovedgruppe" v="terreng" />
		<tag k="ssr:stedsnr" v="90685" />
		<tag k="ssr:type" v="ås" />
	</node>
	<node lat="58.38689444567939" lon="8.617066672240604" id="-27530">
		<tag k="fixme" v="consider natural=peak for the most distinct mountains in the district" />
		<tag k="name" v="Bjørnåsen" />
		<tag k="natural" v="hill" />
		<tag k="place" v="locality" />
		<tag k="ssr:date" v="2019-12-27" />
		<tag k="ssr:gruppe" v="høyder" />
		<tag k="ssr:hovedgruppe" v="terreng" />
		<tag k="ssr:stedsnr" v="90687" />
		<tag k="ssr:type" v="ås" />
	</node>
	<node lat="58.39093333686677" lon="8.69604444301048" id="-27531">
		<tag k="name" v="Allemannsbekken" />
		<tag k="ssr:date" v="2019-12-27" />
		<tag k="ssr:gruppe" v="rennendeVann" />
		<tag k="ssr:hovedgruppe" v="ferskvann" />
		<tag k="ssr:stedsnr" v="90719" />
		<tag k="ssr:type" v="bekk" />
		<tag k="waterway" v="stream" />
	</node>
	<node lat="58.393972222700214" lon="8.678747215174443" id="-27532">
		<tag k="name" v="Karten" />
		<tag k="place" v="locality" />
		<tag k="ssr:date" v="2019-12-27" />
		<tag k="ssr:gruppe" v="dyrkamark" />
		<tag k="ssr:hovedgruppe" v="markslag" />
		<tag k="ssr:stedsnr" v="90726" />
		<tag k="ssr:type" v="jorde" />
	</node>
	<node lat="58.41319444381082" lon="8.588694437555143" id="-27533">
		<tag k="name" v="Haslevika" />
		<tag k="natural" v="bay" />
		<tag k="ssr:date" v="2019-12-27" />
		<tag k="ssr:gruppe" v="ferskvannskontur" />
		<tag k="ssr:hovedgruppe" v="ferskvann" />
		<tag k="ssr:stedsnr" v="91270" />
		<tag k="ssr:type" v="vik" />
	</node>
	<node lat="58.32970000434472" lon="8.494719444318953" id="-27534">
		<tag k="bridge" v="yes" />
		<tag k="layer" v="1" />
		<tag k="name" v="Dalholt" />
		<tag k="ssr:date" v="2019-12-27" />
		<tag k="ssr:gruppe" v="samferdselsanlegg" />
		<tag k="ssr:hovedgruppe" v="infrastruktur" />
		<tag k="ssr:stedsnr" v="106084" />
		<tag k="ssr:type" v="bru" />
	</node>
	<node lat="58.348975003994475" lon="8.585291674391335" id="-27535">
		<tag k="bridge" v="yes" />
		<tag k="layer" v="1" />
		<tag k="name" v="Frivolldalen øvre" />
		<tag k="ssr:date" v="2019-12-27" />
		<tag k="ssr:gruppe" v="samferdselsanlegg" />
		<tag k="ssr:hovedgruppe" v="infrastruktur" />
		<tag k="ssr:stedsnr" v="106085" />
		<tag k="ssr:type" v="bru" />
	</node>
	<node lat="58.303752779926015" lon="8.48025277495486" id="-27536">
		<tag k="name" v="Blaudmyrdalen" />
		<tag k="natural" v="valley" />
		<tag k="place" v="locality" />
		<tag k="ssr:date" v="2019-12-27" />
		<tag k="ssr:gruppe" v="senkninger" />
		<tag k="ssr:hovedgruppe" v="terreng" />
		<tag k="ssr:stedsnr" v="108319" />
		<tag k="ssr:type" v="dal" />
	</node>
	<node lat="58.34678888481757" lon="8.541141661453478" id="-27537">
		<tag k="name" v="Gjærbrønnen" />
		<tag k="natural" v="hill" />
		<tag k="place" v="locality" />
		<tag k="ssr:date" v="2019-12-27" />
		<tag k="ssr:gruppe" v="høyder" />
		<tag k="ssr:hovedgruppe" v="terreng" />
		<tag k="ssr:stedsnr" v="108326" />
		<tag k="ssr:type" v="høyde" />
	</node>
	<node lat="58.34902500006787" lon="8.496800001721226" id="-27538">
		<tag k="name" v="Blåbæråsen" />
		<tag k="natural" v="hill" />
		<tag k="place" v="locality" />
		<tag k="ssr:date" v="2019-12-27" />
		<tag k="ssr:gruppe" v="høyder" />
		<tag k="ssr:hovedgruppe" v="terreng" />
		<tag k="ssr:stedsnr" v="108330" />
		<tag k="ssr:type" v="hei" />
	</node>
	<node lat="58.336463885187634" lon="8.43656666931806" id="-27539">
		<tag k="name" v="Suggebakke" />
		<tag k="natural" v="slope" />
		<tag k="place" v="locality" />
		<tag k="ssr:date" v="2019-12-27" />
		<tag k="ssr:gruppe" v="skråninger" />
		<tag k="ssr:hovedgruppe" v="terreng" />
		<tag k="ssr:stedsnr" v="108774" />
		<tag k="ssr:type" v="bakke" />
	</node>
	<node lat="58.31239167069128" lon="8.507383335045244" id="-27540">
		<tag k="name" v="Vollene" />
		<tag k="place" v="locality" />
		<tag k="ssr:date" v="2019-12-27" />
		<tag k="ssr:gruppe" v="dyrkamark" />
		<tag k="ssr:hovedgruppe" v="markslag" />
		<tag k="ssr:stedsnr" v="109275" />
		<tag k="ssr:type" v="jorde" />
	</node>
	<node lat="58.36105832942055" lon="8.42930554841412" id="-27541">
		<tag k="name" v="Massbekkheia" />
		<tag k="natural" v="hill" />
		<tag k="place" v="locality" />
		<tag k="ssr:date" v="2019-12-27" />
		<tag k="ssr:gruppe" v="høyder" />
		<tag k="ssr:hovedgruppe" v="terreng" />
		<tag k="ssr:stedsnr" v="109471" />
		<tag k="ssr:type" v="hei" />
	</node>
	<node lat="58.32490277809407" lon="8.522391674956985" id="-27542">
		<tag k="name" v="Ågreneset" />
		<tag k="place" v="farm" />
		<tag k="ssr:date" v="2019-12-27" />
		<tag k="ssr:gruppe" v="gardsbebyggelse" />
		<tag k="ssr:hovedgruppe" v="bebyggelse" />
		<tag k="ssr:stedsnr" v="109902" />
		<tag k="ssr:type" v="bruk" />
	</node>
	<node lat="58.33512222368053" lon="8.499744446467089" id="-27543">
		<tag k="name" v="Dolholtmoen" />
		<tag k="place" v="locality" />
		<tag k="ssr:date" v="2019-12-27" />
		<tag k="ssr:gruppe" v="dyrkamark" />
		<tag k="ssr:hovedgruppe" v="markslag" />
		<tag k="ssr:stedsnr" v="109907" />
		<tag k="ssr:type" v="jorde" />
	</node>
	<node lat="58.338944442446014" lon="8.54723611468028" id="-27544">
		<tag k="name" v="Bergemoen" />
		<tag k="place" v="quarter" />
		<tag k="ssr:date" v="2019-12-27" />
		<tag k="ssr:gruppe" v="bebyggelsesområder" />
		<tag k="ssr:hovedgruppe" v="bebyggelse" />
		<tag k="ssr:stedsnr" v="109914" />
		<tag k="ssr:type" v="boligfelt" />
	</node>
	<node lat="58.33392777901187" lon="8.491819442986301" id="-27545">
		<tag k="name" v="Husefjell" />
		<tag k="natural" v="cliff" />
		<tag k="ssr:date" v="2019-12-27" />
		<tag k="ssr:gruppe" v="terrengdetaljer" />
		<tag k="ssr:hovedgruppe" v="terreng" />
		<tag k="ssr:stedsnr" v="109812" />
		<tag k="ssr:type" v="stup" />
	</node>
	<node lat="58.45912777682426" lon="8.488780564099295" id="-27547">
		<tag k="name" v="Vigelandsdalen" />
		<tag k="natural" v="valley" />
		<tag k="place" v="locality" />
		<tag k="ssr:date" v="2019-12-27" />
		<tag k="ssr:gruppe" v="senkninger" />
		<tag k="ssr:hovedgruppe" v="terreng" />
		<tag k="ssr:stedsnr" v="113124" />
		<tag k="ssr:type" v="dal" />
	</node>
	<node lat="58.47051666739755" lon="8.454283336718234" id="-27548">
		<tag k="fixme" v="consider natural=peak for the most distinct mountains in the district" />
		<tag k="name" v="Bukkeknollen" />
		<tag k="natural" v="hill" />
		<tag k="place" v="locality" />
		<tag k="ssr:date" v="2019-12-27" />
		<tag k="ssr:gruppe" v="høyder" />
		<tag k="ssr:hovedgruppe" v="terreng" />
		<tag k="ssr:stedsnr" v="113220" />
		<tag k="ssr:type" v="ås" />
	</node>
	<node lat="58.45921110720117" lon="8.403588880677018" id="-27549">
		<tag k="name" v="Dørefjell-lia" />
		<tag k="natural" v="slope" />
		<tag k="place" v="locality" />
		<tag k="ssr:date" v="2019-12-27" />
		<tag k="ssr:gruppe" v="skråninger" />
		<tag k="ssr:hovedgruppe" v="terreng" />
		<tag k="ssr:stedsnr" v="113230" />
		<tag k="ssr:type" v="li" />
	</node>
</osm>
