<?xml version="1.0" encoding="UTF-8"?>
<osm version="0.6" generator="osmapis">
	<node lat="58.345723930333854" lon="8.578019956433241" id="-54356">
		<tag k="name" v="Klingremoveien" />
		<tag k="ssr:date" v="2019-12-27" />
		<tag k="ssr:gruppe" v="veg" />
		<tag k="ssr:hovedgruppe" v="infrastruktur" />
		<tag k="ssr:stedsnr" v="235776" />
		<tag k="ssr:type" v="adressenavn" />
	</node>
	<node lat="58.349024758812185" lon="8.558922453136603" id="-54366">
		<tag k="name" v="Gullsmedgada" />
		<tag k="ssr:date" v="2019-12-27" />
		<tag k="ssr:gruppe" v="veg" />
		<tag k="ssr:hovedgruppe" v="infrastruktur" />
		<tag k="ssr:stedsnr" v="236256" />
		<tag k="ssr:type" v="adressenavn" />
	</node>
	<node lat="58.38352063246523" lon="8.691962677550016" id="-54367">
		<tag k="name" v="Trolldalslia" />
		<tag k="ssr:date" v="2019-12-27" />
		<tag k="ssr:gruppe" v="veg" />
		<tag k="ssr:hovedgruppe" v="infrastruktur" />
		<tag k="ssr:stedsnr" v="236535" />
		<tag k="ssr:type" v="adressenavn" />
	</node>
	<node lat="58.37192805091793" lon="8.66185007417075" id="-54368">
		<tag k="name" v="Strandtoppen" />
		<tag k="ssr:date" v="2019-12-27" />
		<tag k="ssr:gruppe" v="veg" />
		<tag k="ssr:hovedgruppe" v="infrastruktur" />
		<tag k="ssr:stedsnr" v="236583" />
		<tag k="ssr:type" v="adressenavn" />
	</node>
	<node lat="58.325859158081315" lon="8.571253731068918" id="-54370">
		<tag k="name" v="Volleveien" />
		<tag k="ssr:date" v="2019-12-27" />
		<tag k="ssr:gruppe" v="veg" />
		<tag k="ssr:hovedgruppe" v="infrastruktur" />
		<tag k="ssr:stedsnr" v="238240" />
		<tag k="ssr:type" v="adressenavn" />
	</node>
	<node lat="58.36625679209342" lon="8.630207285732565" id="-54381">
		<tag k="name" v="Vikheia" />
		<tag k="ssr:date" v="2019-12-27" />
		<tag k="ssr:gruppe" v="veg" />
		<tag k="ssr:hovedgruppe" v="infrastruktur" />
		<tag k="ssr:stedsnr" v="239127" />
		<tag k="ssr:type" v="adressenavn" />
	</node>
	<node lat="58.341041481534994" lon="8.582739662584762" id="-54388">
		<tag k="name" v="Helmersgate" />
		<tag k="ssr:date" v="2019-12-27" />
		<tag k="ssr:gruppe" v="veg" />
		<tag k="ssr:hovedgruppe" v="infrastruktur" />
		<tag k="ssr:stedsnr" v="53019" />
		<tag k="ssr:type" v="adressenavn" />
	</node>
	<node lat="58.33785632549276" lon="8.551532019342092" id="-54412">
		<tag k="name" v="Bergemoveien" />
		<tag k="ssr:date" v="2019-12-27" />
		<tag k="ssr:gruppe" v="veg" />
		<tag k="ssr:hovedgruppe" v="infrastruktur" />
		<tag k="ssr:stedsnr" v="54203" />
		<tag k="ssr:type" v="adressenavn" />
	</node>
	<node lat="58.37440260558723" lon="8.68305995610203" id="-54413">
		<tag k="name" v="Fløddaveien" />
		<tag k="ssr:date" v="2019-12-27" />
		<tag k="ssr:gruppe" v="veg" />
		<tag k="ssr:hovedgruppe" v="infrastruktur" />
		<tag k="ssr:stedsnr" v="54318" />
		<tag k="ssr:type" v="adressenavn" />
	</node>
	<node lat="58.347530690550904" lon="8.53006847649607" id="-54414">
		<tag k="name" v="Sandkleiva" />
		<tag k="ssr:date" v="2019-12-27" />
		<tag k="ssr:gruppe" v="veg" />
		<tag k="ssr:hovedgruppe" v="infrastruktur" />
		<tag k="ssr:stedsnr" v="54891" />
		<tag k="ssr:type" v="adressenavn" />
	</node>
	<node lat="58.36824041108994" lon="8.629294446662291" id="-54416">
		<tag k="name" v="Vik" />
		<tag k="ssr:date" v="2019-12-27" />
		<tag k="ssr:gruppe" v="veg" />
		<tag k="ssr:hovedgruppe" v="infrastruktur" />
		<tag k="ssr:stedsnr" v="57110" />
		<tag k="ssr:type" v="adressenavn" />
	</node>
	<node lat="58.25391972973772" lon="8.529503886901173" id="-54549">
		<tag k="alt_name" v="Homborsund" />
		<tag k="name" v="Homborsund fyr" />
		<tag k="ssr:date" v="2020-09-01" />
		<tag k="ssr:gruppe" v="navigasjon" />
		<tag k="ssr:hovedgruppe" v="infrastruktur" />
		<tag k="ssr:stedsnr" v="243912" />
		<tag k="ssr:type" v="fyrstasjon" />
	</node>
	<node lat="58.342224960353015" lon="8.592604924422707" id="-54590">
		<tag k="name" v="Kirkegaten" />
		<tag k="ssr:date" v="2019-12-27" />
		<tag k="ssr:gruppe" v="veg" />
		<tag k="ssr:hovedgruppe" v="infrastruktur" />
		<tag k="ssr:stedsnr" v="113515" />
		<tag k="ssr:type" v="adressenavn" />
	</node>
	<node lat="58.35916401955769" lon="8.60630667403293" id="-54612">
		<tag k="name" v="Båtstøveien" />
		<tag k="ssr:date" v="2019-12-27" />
		<tag k="ssr:gruppe" v="veg" />
		<tag k="ssr:hovedgruppe" v="infrastruktur" />
		<tag k="ssr:stedsnr" v="115472" />
		<tag k="ssr:type" v="adressenavn" />
	</node>
	<node lat="58.37858642921144" lon="8.67656887253093" id="-54613">
		<tag k="name" v="Dr. Crawfurds vei" />
		<tag k="ssr:date" v="2019-12-27" />
		<tag k="ssr:gruppe" v="veg" />
		<tag k="ssr:hovedgruppe" v="infrastruktur" />
		<tag k="ssr:stedsnr" v="115473" />
		<tag k="ssr:type" v="adressenavn" />
	</node>
	<node lat="58.373411595505196" lon="8.6813622890675" id="-54690">
		<tag k="name" v="Heiabakken" />
		<tag k="ssr:date" v="2019-12-27" />
		<tag k="ssr:gruppe" v="veg" />
		<tag k="ssr:hovedgruppe" v="infrastruktur" />
		<tag k="ssr:stedsnr" v="174020" />
		<tag k="ssr:type" v="adressenavn" />
	</node>
	<node lat="58.365522590902266" lon="8.594579824097076" id="-54710">
		<tag k="name" v="Tauleveien" />
		<tag k="ssr:date" v="2019-12-27" />
		<tag k="ssr:gruppe" v="veg" />
		<tag k="ssr:hovedgruppe" v="infrastruktur" />
		<tag k="ssr:stedsnr" v="175692" />
		<tag k="ssr:type" v="adressenavn" />
	</node>
	<node lat="58.34228637939711" lon="8.588511444021652" id="-54711">
		<tag k="name" v="Knibeheia" />
		<tag k="ssr:date" v="2019-12-27" />
		<tag k="ssr:gruppe" v="veg" />
		<tag k="ssr:hovedgruppe" v="infrastruktur" />
		<tag k="ssr:stedsnr" v="175759" />
		<tag k="ssr:type" v="adressenavn" />
	</node>
	<node lat="58.367763578309955" lon="8.629701607239728" id="-54712">
		<tag k="name" v="Vindheim" />
		<tag k="ssr:date" v="2019-12-27" />
		<tag k="ssr:gruppe" v="veg" />
		<tag k="ssr:hovedgruppe" v="infrastruktur" />
		<tag k="ssr:stedsnr" v="176208" />
		<tag k="ssr:type" v="adressenavn" />
	</node>
	<node lat="58.32176808870266" lon="8.567089382694007" id="-54804">
		<tag k="name" v="Havgløttveien" />
		<tag k="ssr:date" v="2019-12-27" />
		<tag k="ssr:gruppe" v="veg" />
		<tag k="ssr:hovedgruppe" v="infrastruktur" />
		<tag k="ssr:stedsnr" v="235032" />
		<tag k="ssr:type" v="adressenavn" />
	</node>
	<node lat="58.380435814643064" lon="8.676318758842063" id="-54822">
		<tag k="name" v="Sømsveien" />
		<tag k="ssr:date" v="2019-12-27" />
		<tag k="ssr:gruppe" v="veg" />
		<tag k="ssr:hovedgruppe" v="infrastruktur" />
		<tag k="ssr:stedsnr" v="236644" />
		<tag k="ssr:type" v="adressenavn" />
	</node>
	<node lat="58.2737494348518" lon="8.502138575525883" id="-54823">
		<tag k="name" v="Ospelia s." />
		<tag k="ssr:date" v="2019-12-27" />
		<tag k="ssr:gruppe" v="veg" />
		<tag k="ssr:hovedgruppe" v="infrastruktur" />
		<tag k="ssr:stedsnr" v="236734" />
		<tag k="ssr:type" v="adressenavn" />
	</node>
	<node lat="58.26598821659966" lon="8.509820830668383" id="-54824">
		<tag k="name" v="Homborsundveien" />
		<tag k="ssr:date" v="2019-12-27" />
		<tag k="ssr:gruppe" v="veg" />
		<tag k="ssr:hovedgruppe" v="infrastruktur" />
		<tag k="ssr:stedsnr" v="236886" />
		<tag k="ssr:type" v="adressenavn" />
	</node>
	<node lat="58.34004377850277" lon="8.544788059046995" id="-54825">
		<tag k="name" v="Hommedalskogen" />
		<tag k="ssr:date" v="2019-12-27" />
		<tag k="ssr:gruppe" v="veg" />
		<tag k="ssr:hovedgruppe" v="infrastruktur" />
		<tag k="ssr:stedsnr" v="236887" />
		<tag k="ssr:type" v="adressenavn" />
	</node>
	<node lat="58.34342872322521" lon="8.58804532149807" id="-54949">
		<tag k="name" v="Egeliveien" />
		<tag k="ssr:date" v="2019-12-27" />
		<tag k="ssr:gruppe" v="veg" />
		<tag k="ssr:hovedgruppe" v="infrastruktur" />
		<tag k="ssr:stedsnr" v="296451" />
		<tag k="ssr:type" v="adressenavn" />
	</node>
	<node lat="58.27283259525794" lon="8.500818012066704" id="-54956">
		<tag k="name" v="Ramshaugveien" />
		<tag k="ssr:date" v="2019-12-27" />
		<tag k="ssr:gruppe" v="veg" />
		<tag k="ssr:hovedgruppe" v="infrastruktur" />
		<tag k="ssr:stedsnr" v="297800" />
		<tag k="ssr:type" v="adressenavn" />
	</node>
	<node lat="58.30527777712712" lon="8.577886108963307" id="-54957">
		<tag k="name" v="Risholmen" />
		<tag k="ssr:date" v="2019-12-27" />
		<tag k="ssr:gruppe" v="navigasjon" />
		<tag k="ssr:hovedgruppe" v="infrastruktur" />
		<tag k="ssr:stedsnr" v="298613" />
		<tag k="ssr:type" v="lanterne" />
	</node>
	<node lat="58.300433334892354" lon="8.582533334127287" id="-54958">
		<tag k="name" v="Rivingdybet" />
		<tag k="ssr:date" v="2019-12-27" />
		<tag k="ssr:gruppe" v="navigasjon" />
		<tag k="ssr:hovedgruppe" v="infrastruktur" />
		<tag k="ssr:stedsnr" v="298615" />
		<tag k="ssr:type" v="lanterne" />
	</node>
	<node lat="58.33294444814104" lon="8.542344446625071" id="-54962">
		<tag k="name" v="Morholtåsen" />
		<tag k="ssr:date" v="2019-12-27" />
		<tag k="ssr:gruppe" v="veg" />
		<tag k="ssr:hovedgruppe" v="infrastruktur" />
		<tag k="ssr:stedsnr" v="301976" />
		<tag k="ssr:type" v="adressenavn" />
	</node>
	<node lat="58.33729444322847" lon="8.679516669706667" id="-55002">
		<tag k="alt_name" v="Kallen" />
		<tag k="name" v="Hesnes merke" />
		<tag k="ssr:date" v="2020-02-25" />
		<tag k="ssr:gruppe" v="navigasjon" />
		<tag k="ssr:hovedgruppe" v="infrastruktur" />
		<tag k="ssr:stedsnr" v="303975" />
		<tag k="ssr:type" v="båke" />
	</node>
	<node lat="58.332058214587846" lon="8.581657884539664" id="-55009">
		<tag k="name" v="Sonaåsen" />
		<tag k="ssr:date" v="2019-12-27" />
		<tag k="ssr:gruppe" v="veg" />
		<tag k="ssr:hovedgruppe" v="infrastruktur" />
		<tag k="ssr:stedsnr" v="307471" />
		<tag k="ssr:type" v="adressenavn" />
	</node>
	<node lat="58.333005135923116" lon="8.58112501499271" id="-55052">
		<tag k="name" v="Alvildesvei" />
		<tag k="ssr:date" v="2019-12-27" />
		<tag k="ssr:gruppe" v="veg" />
		<tag k="ssr:hovedgruppe" v="infrastruktur" />
		<tag k="ssr:stedsnr" v="356195" />
		<tag k="ssr:type" v="adressenavn" />
	</node>
	<node lat="58.37885078157051" lon="8.669397862445988" id="-55065">
		<tag k="name" v="Lauvåsen terrasse" />
		<tag k="ssr:date" v="2019-12-27" />
		<tag k="ssr:gruppe" v="veg" />
		<tag k="ssr:hovedgruppe" v="infrastruktur" />
		<tag k="ssr:stedsnr" v="357003" />
		<tag k="ssr:type" v="adressenavn" />
	</node>
	<node lat="58.32223607404365" lon="8.572258193477657" id="-55066">
		<tag k="name" v="Holvigasvingen" />
		<tag k="ssr:date" v="2019-12-27" />
		<tag k="ssr:gruppe" v="veg" />
		<tag k="ssr:hovedgruppe" v="infrastruktur" />
		<tag k="ssr:stedsnr" v="357020" />
		<tag k="ssr:type" v="adressenavn" />
	</node>
	<node lat="58.37348227917976" lon="8.652183223890917" id="-55067">
		<tag k="name" v="Østre Moåsen" />
		<tag k="ssr:date" v="2019-12-27" />
		<tag k="ssr:gruppe" v="veg" />
		<tag k="ssr:hovedgruppe" v="infrastruktur" />
		<tag k="ssr:stedsnr" v="357515" />
		<tag k="ssr:type" v="adressenavn" />
	</node>
	<node lat="58.37944699480508" lon="8.707712093842689" id="-55068">
		<tag k="name" v="Svartedabbe" />
		<tag k="ssr:date" v="2019-12-27" />
		<tag k="ssr:gruppe" v="veg" />
		<tag k="ssr:hovedgruppe" v="infrastruktur" />
		<tag k="ssr:stedsnr" v="357654" />
		<tag k="ssr:type" v="adressenavn" />
	</node>
	<node lat="58.32935462624548" lon="8.580089170216839" id="-55069">
		<tag k="name" v="Rådyrveien" />
		<tag k="ssr:date" v="2019-12-27" />
		<tag k="ssr:gruppe" v="veg" />
		<tag k="ssr:hovedgruppe" v="infrastruktur" />
		<tag k="ssr:stedsnr" v="357864" />
		<tag k="ssr:type" v="adressenavn" />
	</node>
	<node lat="58.36906714808909" lon="8.628174960717539" id="-55070">
		<tag k="name" v="Vindveien" />
		<tag k="ssr:date" v="2019-12-27" />
		<tag k="ssr:gruppe" v="veg" />
		<tag k="ssr:hovedgruppe" v="infrastruktur" />
		<tag k="ssr:stedsnr" v="358220" />
		<tag k="ssr:type" v="adressenavn" />
	</node>
	<node lat="58.31828295404731" lon="8.539982168884492" id="-55072">
		<tag k="name" v="Tjore" />
		<tag k="ssr:date" v="2019-12-27" />
		<tag k="ssr:gruppe" v="veg" />
		<tag k="ssr:hovedgruppe" v="infrastruktur" />
		<tag k="ssr:stedsnr" v="358652" />
		<tag k="ssr:type" v="adressenavn" />
	</node>
	<node lat="58.373363622733585" lon="8.658326285863712" id="-55132">
		<tag k="name" v="Hauslandveien" />
		<tag k="ssr:date" v="2019-12-27" />
		<tag k="ssr:gruppe" v="veg" />
		<tag k="ssr:hovedgruppe" v="infrastruktur" />
		<tag k="ssr:stedsnr" v="478177" />
		<tag k="ssr:type" v="adressenavn" />
	</node>
	<node lat="58.380078942337704" lon="8.68358101388184" id="-55133">
		<tag k="name" v="Hammeneveien" />
		<tag k="ssr:date" v="2019-12-27" />
		<tag k="ssr:gruppe" v="veg" />
		<tag k="ssr:hovedgruppe" v="infrastruktur" />
		<tag k="ssr:stedsnr" v="478180" />
		<tag k="ssr:type" v="adressenavn" />
	</node>
	<node lat="58.340738895404485" lon="8.585084876777621" id="-55137">
		<tag k="name" v="Ebbelsgate" />
		<tag k="ssr:date" v="2019-12-27" />
		<tag k="ssr:gruppe" v="veg" />
		<tag k="ssr:hovedgruppe" v="infrastruktur" />
		<tag k="ssr:stedsnr" v="478483" />
		<tag k="ssr:type" v="adressenavn" />
	</node>
	<node lat="58.2624792412057" lon="8.503277842729528" id="-55140">
		<tag k="name" v="KNA-veien" />
		<tag k="ssr:date" v="2019-12-27" />
		<tag k="ssr:gruppe" v="veg" />
		<tag k="ssr:hovedgruppe" v="infrastruktur" />
		<tag k="ssr:stedsnr" v="478759" />
		<tag k="ssr:type" v="adressenavn" />
	</node>
	<node lat="58.344900610270734" lon="8.574631239365656" id="-55141">
		<tag k="name" v="Klingremoheia" />
		<tag k="ssr:date" v="2019-12-27" />
		<tag k="ssr:gruppe" v="veg" />
		<tag k="ssr:hovedgruppe" v="infrastruktur" />
		<tag k="ssr:stedsnr" v="478768" />
		<tag k="ssr:type" v="adressenavn" />
	</node>
	<node lat="58.337088359240916" lon="8.53201654443086" id="-55144">
		<tag k="name" v="Myråsen" />
		<tag k="ssr:date" v="2019-12-27" />
		<tag k="ssr:gruppe" v="veg" />
		<tag k="ssr:hovedgruppe" v="infrastruktur" />
		<tag k="ssr:stedsnr" v="479437" />
		<tag k="ssr:type" v="adressenavn" />
	</node>
	<node lat="58.340428348316664" lon="8.593418818589129" id="-55145">
		<tag k="name" v="Pharos vei" />
		<tag k="ssr:date" v="2019-12-27" />
		<tag k="ssr:gruppe" v="veg" />
		<tag k="ssr:hovedgruppe" v="infrastruktur" />
		<tag k="ssr:stedsnr" v="479804" />
		<tag k="ssr:type" v="adressenavn" />
	</node>
	<node lat="58.338048101339766" lon="8.583216088317869" id="-55146">
		<tag k="name" v="Vesøygaten" />
		<tag k="ssr:date" v="2019-12-27" />
		<tag k="ssr:gruppe" v="veg" />
		<tag k="ssr:hovedgruppe" v="infrastruktur" />
		<tag k="ssr:stedsnr" v="481149" />
		<tag k="ssr:type" v="adressenavn" />
	</node>
	<node lat="58.29657499688964" lon="8.589608325965584" id="-55240">
		<tag k="name" v="Stangholmen" />
		<tag k="old_name" v="Stongholmen" />
		<tag k="ssr:date" v="2019-12-27" />
		<tag k="ssr:gruppe" v="navigasjon" />
		<tag k="ssr:hovedgruppe" v="infrastruktur" />
		<tag k="ssr:stedsnr" v="485950" />
		<tag k="ssr:type" v="fyrlykt" />
	</node>
	<node lat="58.33973055109832" lon="8.566527774401914" id="-55267">
		<tag k="name" v="Grøm næringspark" />
		<tag k="ssr:date" v="2019-12-27" />
		<tag k="ssr:gruppe" v="veg" />
		<tag k="ssr:hovedgruppe" v="infrastruktur" />
		<tag k="ssr:stedsnr" v="417439" />
		<tag k="ssr:type" v="adressenavn" />
	</node>
	<node lat="58.38045851233806" lon="8.674529168991796" id="-55279">
		<tag k="name" v="Liaveien" />
		<tag k="ssr:date" v="2019-12-27" />
		<tag k="ssr:gruppe" v="veg" />
		<tag k="ssr:hovedgruppe" v="infrastruktur" />
		<tag k="ssr:stedsnr" v="418208" />
		<tag k="ssr:type" v="adressenavn" />
	</node>
	<node lat="58.369923495386885" lon="8.61572536894073" id="-55280">
		<tag k="name" v="Fjæreveien" />
		<tag k="ssr:date" v="2019-12-27" />
		<tag k="ssr:gruppe" v="veg" />
		<tag k="ssr:hovedgruppe" v="infrastruktur" />
		<tag k="ssr:stedsnr" v="418296" />
		<tag k="ssr:type" v="adressenavn" />
	</node>
	<node lat="58.3780789620903" lon="8.685694055836782" id="-55281">
		<tag k="name" v="Storesandveien" />
		<tag k="ssr:date" v="2019-12-27" />
		<tag k="ssr:gruppe" v="veg" />
		<tag k="ssr:hovedgruppe" v="infrastruktur" />
		<tag k="ssr:stedsnr" v="418602" />
		<tag k="ssr:type" v="adressenavn" />
	</node>
	<node lat="58.34471250023848" lon="8.591810907499683" id="-55282">
		<tag k="name" v="Møllerheia" />
		<tag k="ssr:date" v="2019-12-27" />
		<tag k="ssr:gruppe" v="veg" />
		<tag k="ssr:hovedgruppe" v="infrastruktur" />
		<tag k="ssr:stedsnr" v="419438" />
		<tag k="ssr:type" v="adressenavn" />
	</node>
	<node lat="58.384348940880336" lon="8.70395529007403" id="-55283">
		<tag k="name" v="Omveien" />
		<tag k="ssr:date" v="2019-12-27" />
		<tag k="ssr:gruppe" v="veg" />
		<tag k="ssr:hovedgruppe" v="infrastruktur" />
		<tag k="ssr:stedsnr" v="419386" />
		<tag k="ssr:type" v="adressenavn" />
	</node>
	<node lat="58.329429996267095" lon="8.579398560170208" id="-55284">
		<tag k="name" v="Tiurveien" />
		<tag k="ssr:date" v="2019-12-27" />
		<tag k="ssr:gruppe" v="veg" />
		<tag k="ssr:hovedgruppe" v="infrastruktur" />
		<tag k="ssr:stedsnr" v="419694" />
		<tag k="ssr:type" v="adressenavn" />
	</node>
	<node lat="58.25989444826328" lon="8.510530561403554" id="-55337">
		<tag k="name" v="Sundholmen" />
		<tag k="ssr:date" v="2019-12-27" />
		<tag k="ssr:gruppe" v="navigasjon" />
		<tag k="ssr:hovedgruppe" v="infrastruktur" />
		<tag k="ssr:stedsnr" v="425954" />
		<tag k="ssr:type" v="fyrlykt" />
	</node>
	<node lat="58.33769607295715" lon="8.55593440905656" id="-55338">
		<tag k="name" v="Reddalsveien" />
		<tag k="ssr:date" v="2019-12-27" />
		<tag k="ssr:gruppe" v="veg" />
		<tag k="ssr:hovedgruppe" v="infrastruktur" />
		<tag k="ssr:stedsnr" v="432800" />
		<tag k="ssr:type" v="adressenavn" />
	</node>
	<node lat="58.341657446707174" lon="8.595329697451943" id="-55361">
		<tag k="name" v="Henrik Ibsens gate" />
		<tag k="ssr:date" v="2019-12-27" />
		<tag k="ssr:gruppe" v="veg" />
		<tag k="ssr:hovedgruppe" v="infrastruktur" />
		<tag k="ssr:stedsnr" v="477024" />
		<tag k="ssr:type" v="adressenavn" />
	</node>
	<node lat="58.322125618237344" lon="8.569676077354197" id="-55383">
		<tag k="name" v="Holvigatunet" />
		<tag k="ssr:date" v="2019-12-27" />
		<tag k="ssr:gruppe" v="veg" />
		<tag k="ssr:hovedgruppe" v="infrastruktur" />
		<tag k="ssr:stedsnr" v="478065" />
		<tag k="ssr:type" v="adressenavn" />
	</node>
	<node lat="58.33935878741667" lon="8.560801389100122" id="-55384">
		<tag k="name" v="Bergeveien" />
		<tag k="ssr:date" v="2019-12-27" />
		<tag k="ssr:gruppe" v="veg" />
		<tag k="ssr:hovedgruppe" v="infrastruktur" />
		<tag k="ssr:stedsnr" v="478258" />
		<tag k="ssr:type" v="adressenavn" />
	</node>
	<node lat="58.34906087327263" lon="8.598250314539973" id="-55385">
		<tag k="name" v="Biestøa" />
		<tag k="ssr:date" v="2019-12-27" />
		<tag k="ssr:gruppe" v="veg" />
		<tag k="ssr:hovedgruppe" v="infrastruktur" />
		<tag k="ssr:stedsnr" v="478260" />
		<tag k="ssr:type" v="adressenavn" />
	</node>
	<node lat="58.3379506583959" lon="8.539508132114749" id="-55386">
		<tag k="name" v="Sauehaven" />
		<tag k="ssr:date" v="2019-12-27" />
		<tag k="ssr:gruppe" v="veg" />
		<tag k="ssr:hovedgruppe" v="infrastruktur" />
		<tag k="ssr:stedsnr" v="478867" />
		<tag k="ssr:type" v="adressenavn" />
	</node>
	<node lat="58.3758943746674" lon="8.663564693883863" id="-55388">
		<tag k="name" v="Skibberheia" />
		<tag k="ssr:date" v="2019-12-27" />
		<tag k="ssr:gruppe" v="veg" />
		<tag k="ssr:hovedgruppe" v="infrastruktur" />
		<tag k="ssr:stedsnr" v="479255" />
		<tag k="ssr:type" v="adressenavn" />
	</node>
	<node lat="58.344233405726634" lon="8.593695859199661" id="-55389">
		<tag k="name" v="Solberggaten" />
		<tag k="ssr:date" v="2019-12-27" />
		<tag k="ssr:gruppe" v="veg" />
		<tag k="ssr:hovedgruppe" v="infrastruktur" />
		<tag k="ssr:stedsnr" v="479358" />
		<tag k="ssr:type" v="adressenavn" />
	</node>
	<node lat="58.345310969441606" lon="8.589993279522831" id="-55390">
		<tag k="name" v="Vardåsen" />
		<tag k="ssr:date" v="2019-12-27" />
		<tag k="ssr:gruppe" v="veg" />
		<tag k="ssr:hovedgruppe" v="infrastruktur" />
		<tag k="ssr:stedsnr" v="479469" />
		<tag k="ssr:type" v="adressenavn" />
	</node>
	<node lat="58.32939763131155" lon="8.573459530779152" id="-55391">
		<tag k="name" v="Dalveien" />
		<tag k="ssr:date" v="2019-12-27" />
		<tag k="ssr:gruppe" v="veg" />
		<tag k="ssr:hovedgruppe" v="infrastruktur" />
		<tag k="ssr:stedsnr" v="479475" />
		<tag k="ssr:type" v="adressenavn" />
	</node>
	<node lat="58.335103189470715" lon="8.58869228094408" id="-55393">
		<tag k="name" v="Vesterled" />
		<tag k="ssr:date" v="2019-12-27" />
		<tag k="ssr:gruppe" v="veg" />
		<tag k="ssr:hovedgruppe" v="infrastruktur" />
		<tag k="ssr:stedsnr" v="481808" />
		<tag k="ssr:type" v="adressenavn" />
	</node>
	<node lat="58.34366111335859" lon="8.664427775594348" id="-55448">
		<tag k="name" v="Hesnes, Nedre" />
		<tag k="ssr:date" v="2019-12-27" />
		<tag k="ssr:gruppe" v="navigasjon" />
		<tag k="ssr:hovedgruppe" v="infrastruktur" />
		<tag k="ssr:stedsnr" v="510061" />
		<tag k="ssr:type" v="fyrlykt" />
	</node>
	<node lat="58.26598821659966" lon="8.509820830668383" id="-55492">
		<tag k="name" v="Kistevigveien" />
		<tag k="ssr:date" v="2019-12-27" />
		<tag k="ssr:gruppe" v="veg" />
		<tag k="ssr:hovedgruppe" v="infrastruktur" />
		<tag k="ssr:stedsnr" v="539525" />
		<tag k="ssr:type" v="adressenavn" />
	</node>
	<node lat="58.31590674295357" lon="8.5678671505927" id="-55493">
		<tag k="name" v="Langestrand" />
		<tag k="ssr:date" v="2019-12-27" />
		<tag k="ssr:gruppe" v="veg" />
		<tag k="ssr:hovedgruppe" v="infrastruktur" />
		<tag k="ssr:stedsnr" v="539607" />
		<tag k="ssr:type" v="adressenavn" />
	</node>
	<node lat="58.34055486291956" lon="8.571312335537208" id="-55494">
		<tag k="name" v="Gartnerimyra" />
		<tag k="ssr:date" v="2019-12-27" />
		<tag k="ssr:gruppe" v="veg" />
		<tag k="ssr:hovedgruppe" v="infrastruktur" />
		<tag k="ssr:stedsnr" v="539708" />
		<tag k="ssr:type" v="adressenavn" />
	</node>
	<node lat="58.37499525090704" lon="8.630834600711648" id="-55495">
		<tag k="name" v="Temseveien" />
		<tag k="ssr:date" v="2019-12-27" />
		<tag k="ssr:gruppe" v="veg" />
		<tag k="ssr:hovedgruppe" v="infrastruktur" />
		<tag k="ssr:stedsnr" v="539671" />
		<tag k="ssr:type" v="adressenavn" />
	</node>
	<node lat="58.342525615369134" lon="8.583092969977125" id="-55496">
		<tag k="name" v="Tønnevoldsgate" />
		<tag k="ssr:date" v="2019-12-27" />
		<tag k="ssr:gruppe" v="veg" />
		<tag k="ssr:hovedgruppe" v="infrastruktur" />
		<tag k="ssr:stedsnr" v="540482" />
		<tag k="ssr:type" v="adressenavn" />
	</node>
	<node lat="58.39191497971163" lon="8.698040114577648" id="-55558">
		<tag k="name" v="Østre Vessøya" />
		<tag k="ssr:date" v="2019-12-27" />
		<tag k="ssr:gruppe" v="veg" />
		<tag k="ssr:hovedgruppe" v="infrastruktur" />
		<tag k="ssr:stedsnr" v="572809" />
		<tag k="ssr:type" v="adressenavn" />
	</node>
	<node lat="58.32424366665522" lon="8.563228361443887" id="-55594">
		<tag k="name" v="Terje Løvås vei" />
		<tag k="ssr:date" v="2019-12-27" />
		<tag k="ssr:gruppe" v="veg" />
		<tag k="ssr:hovedgruppe" v="infrastruktur" />
		<tag k="ssr:stedsnr" v="697338" />
		<tag k="ssr:type" v="adressenavn" />
	</node>
	<node lat="58.3357849528502" lon="8.583848940292159" id="-55643">
		<tag k="name" v="Ankerveien" />
		<tag k="ssr:date" v="2019-12-27" />
		<tag k="ssr:gruppe" v="veg" />
		<tag k="ssr:hovedgruppe" v="infrastruktur" />
		<tag k="ssr:stedsnr" v="599154" />
		<tag k="ssr:type" v="adressenavn" />
	</node>
	<node lat="58.34741431480064" lon="8.596449754269656" id="-55653">
		<tag k="name" v="Langhaven" />
		<tag k="ssr:date" v="2019-12-27" />
		<tag k="ssr:gruppe" v="veg" />
		<tag k="ssr:hovedgruppe" v="infrastruktur" />
		<tag k="ssr:stedsnr" v="599950" />
		<tag k="ssr:type" v="adressenavn" />
	</node>
	<node lat="58.33771280988369" lon="8.589602251653917" id="-55654">
		<tag k="name" v="Utkikken" />
		<tag k="ssr:date" v="2019-12-27" />
		<tag k="ssr:gruppe" v="veg" />
		<tag k="ssr:hovedgruppe" v="infrastruktur" />
		<tag k="ssr:stedsnr" v="600453" />
		<tag k="ssr:type" v="adressenavn" />
	</node>
	<node lat="58.34010480120361" lon="8.581345321064239" id="-55655">
		<tag k="name" v="Lillesandsveien" />
		<tag k="ssr:date" v="2019-12-27" />
		<tag k="ssr:gruppe" v="veg" />
		<tag k="ssr:hovedgruppe" v="infrastruktur" />
		<tag k="ssr:stedsnr" v="600707" />
		<tag k="ssr:type" v="adressenavn" />
	</node>
	<node lat="58.34291575399967" lon="8.59669651412808" id="-55657">
		<tag k="name" v="Voss gate" />
		<tag k="ssr:date" v="2019-12-27" />
		<tag k="ssr:gruppe" v="veg" />
		<tag k="ssr:hovedgruppe" v="infrastruktur" />
		<tag k="ssr:stedsnr" v="602248" />
		<tag k="ssr:type" v="adressenavn" />
	</node>
	<node lat="58.349987452135636" lon="8.529899183528483" id="-55742">
		<tag k="name" v="Holteveien" />
		<tag k="ssr:date" v="2019-12-27" />
		<tag k="ssr:gruppe" v="veg" />
		<tag k="ssr:hovedgruppe" v="infrastruktur" />
		<tag k="ssr:stedsnr" v="659033" />
		<tag k="ssr:type" v="adressenavn" />
	</node>
	<node lat="58.35810052214304" lon="8.59812483284044" id="-55754">
		<tag k="name" v="Killegårdveien" />
		<tag k="ssr:date" v="2019-12-27" />
		<tag k="ssr:gruppe" v="veg" />
		<tag k="ssr:hovedgruppe" v="infrastruktur" />
		<tag k="ssr:stedsnr" v="659515" />
		<tag k="ssr:type" v="adressenavn" />
	</node>
	<node lat="58.323098399071256" lon="8.567802085115373" id="-55761">
		<tag k="name" v="Grooseveien" />
		<tag k="ssr:date" v="2019-12-27" />
		<tag k="ssr:gruppe" v="veg" />
		<tag k="ssr:hovedgruppe" v="infrastruktur" />
		<tag k="ssr:stedsnr" v="660391" />
		<tag k="ssr:type" v="adressenavn" />
	</node>
	<node lat="58.26814760103985" lon="8.510885909216125" id="-55762">
		<tag k="name" v="Jorvardeveien" />
		<tag k="ssr:date" v="2019-12-27" />
		<tag k="ssr:gruppe" v="veg" />
		<tag k="ssr:hovedgruppe" v="infrastruktur" />
		<tag k="ssr:stedsnr" v="660659" />
		<tag k="ssr:type" v="adressenavn" />
	</node>
	<node lat="58.34554979355822" lon="8.59582065301672" id="-55763">
		<tag k="name" v="Furuliveien" />
		<tag k="ssr:date" v="2019-12-27" />
		<tag k="ssr:gruppe" v="veg" />
		<tag k="ssr:hovedgruppe" v="infrastruktur" />
		<tag k="ssr:stedsnr" v="660881" />
		<tag k="ssr:type" v="adressenavn" />
	</node>
	<node lat="58.34245526195448" lon="8.577798470930881" id="-55764">
		<tag k="name" v="Frivoldveien" />
		<tag k="ssr:date" v="2019-12-27" />
		<tag k="ssr:gruppe" v="veg" />
		<tag k="ssr:hovedgruppe" v="infrastruktur" />
		<tag k="ssr:stedsnr" v="660890" />
		<tag k="ssr:type" v="adressenavn" />
	</node>
	<node lat="58.32870698313806" lon="8.57457117215325" id="-55765">
		<tag k="name" v="Mølleveien" />
		<tag k="ssr:date" v="2019-12-27" />
		<tag k="ssr:gruppe" v="veg" />
		<tag k="ssr:hovedgruppe" v="infrastruktur" />
		<tag k="ssr:stedsnr" v="661414" />
		<tag k="ssr:type" v="adressenavn" />
	</node>
	<node lat="58.34785357984837" lon="8.591980673334037" id="-55766">
		<tag k="name" v="Tyribakken" />
		<tag k="ssr:date" v="2019-12-27" />
		<tag k="ssr:gruppe" v="veg" />
		<tag k="ssr:hovedgruppe" v="infrastruktur" />
		<tag k="ssr:stedsnr" v="661442" />
		<tag k="ssr:type" v="adressenavn" />
	</node>
	<node lat="58.353552982582585" lon="8.589216838259789" id="-55767">
		<tag k="name" v="Jerpeveien" />
		<tag k="ssr:date" v="2019-12-27" />
		<tag k="ssr:gruppe" v="veg" />
		<tag k="ssr:hovedgruppe" v="infrastruktur" />
		<tag k="ssr:stedsnr" v="661940" />
		<tag k="ssr:type" v="adressenavn" />
	</node>
	<node lat="58.38330555816187" lon="8.742391671568559" id="-55810">
		<tag k="name" v="Spærholmen" />
		<tag k="ssr:date" v="2019-12-27" />
		<tag k="ssr:gruppe" v="navigasjon" />
		<tag k="ssr:hovedgruppe" v="infrastruktur" />
		<tag k="ssr:stedsnr" v="667487" />
		<tag k="ssr:type" v="fyrlykt" />
	</node>
	<node lat="58.33412050444588" lon="8.59079982811306" id="-55898">
		<tag k="name" v="Guldmand brygge" />
		<tag k="ssr:date" v="2019-12-27" />
		<tag k="ssr:gruppe" v="veg" />
		<tag k="ssr:hovedgruppe" v="infrastruktur" />
		<tag k="ssr:stedsnr" v="721221" />
		<tag k="ssr:type" v="adressenavn" />
	</node>
	<node lat="58.343000826559766" lon="8.555881124578057" id="-55899">
		<tag k="name" v="Bergeli" />
		<tag k="ssr:date" v="2019-12-27" />
		<tag k="ssr:gruppe" v="veg" />
		<tag k="ssr:hovedgruppe" v="infrastruktur" />
		<tag k="ssr:stedsnr" v="721170" />
		<tag k="ssr:type" v="adressenavn" />
	</node>
	<node lat="58.34473808913688" lon="8.546610296511213" id="-55900">
		<tag k="name" v="Hansplassveien" />
		<tag k="ssr:date" v="2019-12-27" />
		<tag k="ssr:gruppe" v="veg" />
		<tag k="ssr:hovedgruppe" v="infrastruktur" />
		<tag k="ssr:stedsnr" v="721177" />
		<tag k="ssr:type" v="adressenavn" />
	</node>
	<node lat="58.36942001937723" lon="8.643250290146671" id="-55901">
		<tag k="name" v="Kleppekjærveien" />
		<tag k="ssr:date" v="2019-12-27" />
		<tag k="ssr:gruppe" v="veg" />
		<tag k="ssr:hovedgruppe" v="infrastruktur" />
		<tag k="ssr:stedsnr" v="721730" />
		<tag k="ssr:type" v="adressenavn" />
	</node>
	<node lat="58.34873768715034" lon="8.599270849967125" id="-55902">
		<tag k="name" v="Naxbie" />
		<tag k="ssr:date" v="2019-12-27" />
		<tag k="ssr:gruppe" v="veg" />
		<tag k="ssr:hovedgruppe" v="infrastruktur" />
		<tag k="ssr:stedsnr" v="722437" />
		<tag k="ssr:type" v="adressenavn" />
	</node>
	<node lat="58.36983902457206" lon="8.63143015274343" id="-55903">
		<tag k="name" v="Moen" />
		<tag k="ssr:date" v="2019-12-27" />
		<tag k="ssr:gruppe" v="veg" />
		<tag k="ssr:hovedgruppe" v="infrastruktur" />
		<tag k="ssr:stedsnr" v="722575" />
		<tag k="ssr:type" v="adressenavn" />
	</node>
	<node lat="58.381759395240806" lon="8.68956821756566" id="-55904">
		<tag k="name" v="Trolldalsveien" />
		<tag k="ssr:date" v="2019-12-27" />
		<tag k="ssr:gruppe" v="veg" />
		<tag k="ssr:hovedgruppe" v="infrastruktur" />
		<tag k="ssr:stedsnr" v="722612" />
		<tag k="ssr:type" v="adressenavn" />
	</node>
	<node lat="58.370290726894716" lon="8.648910178824345" id="-55907">
		<tag k="name" v="Vestre Moåsen" />
		<tag k="ssr:date" v="2019-12-27" />
		<tag k="ssr:gruppe" v="veg" />
		<tag k="ssr:hovedgruppe" v="infrastruktur" />
		<tag k="ssr:stedsnr" v="724123" />
		<tag k="ssr:type" v="adressenavn" />
	</node>
	<node lat="58.313685451175424" lon="8.596620538530164" id="-55963">
		<tag k="name" v="Galten" />
		<tag k="ssr:date" v="2020-03-02" />
		<tag k="ssr:gruppe" v="navigasjon" />
		<tag k="ssr:hovedgruppe" v="infrastruktur" />
		<tag k="ssr:stedsnr" v="728987" />
		<tag k="ssr:type" v="lanterne" />
	</node>
	<node lat="58.319283430833714" lon="8.610801187467809" id="-55964">
		<tag k="name" v="Leiholmsund, Østre" />
		<tag k="old_name" v="Leiholmsund;Østre Leiholmsund" />
		<tag k="ssr:date" v="2020-09-03" />
		<tag k="ssr:gruppe" v="navigasjon" />
		<tag k="ssr:hovedgruppe" v="infrastruktur" />
		<tag k="ssr:stedsnr" v="728988" />
		<tag k="ssr:type" v="fyrlykt" />
	</node>
	<node lat="58.316283337720996" lon="8.581424991875194" id="-55965">
		<tag k="name" v="Østre Tvillingholmen" />
		<tag k="old_name" v="Tvillingholmen" />
		<tag k="ssr:date" v="2019-12-27" />
		<tag k="ssr:gruppe" v="navigasjon" />
		<tag k="ssr:hovedgruppe" v="infrastruktur" />
		<tag k="ssr:stedsnr" v="728991" />
		<tag k="ssr:type" v="fyrlykt" />
	</node>
	<node lat="58.33555321819733" lon="8.588653613609456" id="-55966">
		<tag k="name" v="Skonnertveien" />
		<tag k="ssr:date" v="2019-12-27" />
		<tag k="ssr:gruppe" v="veg" />
		<tag k="ssr:hovedgruppe" v="infrastruktur" />
		<tag k="ssr:stedsnr" v="732361" />
		<tag k="ssr:type" v="adressenavn" />
	</node>
	<node lat="58.3785057903251" lon="8.703647299142613" id="-55991">
		<tag k="name" v="Barlinda" />
		<tag k="ssr:date" v="2019-12-27" />
		<tag k="ssr:gruppe" v="veg" />
		<tag k="ssr:hovedgruppe" v="infrastruktur" />
		<tag k="ssr:stedsnr" v="903174" />
		<tag k="ssr:type" v="adressenavn" />
	</node>
	<node lat="58.37512925863058" lon="8.678947822193164" id="-55998">
		<tag k="name" v="Ole Pedersens vei" />
		<tag k="ssr:date" v="2019-12-27" />
		<tag k="ssr:gruppe" v="veg" />
		<tag k="ssr:hovedgruppe" v="infrastruktur" />
		<tag k="ssr:stedsnr" v="904390" />
		<tag k="ssr:type" v="adressenavn" />
	</node>
	<node lat="58.353743155965205" lon="8.596819327183082" id="-56000">
		<tag k="name" v="Øvre Bie" />
		<tag k="ssr:date" v="2019-12-27" />
		<tag k="ssr:gruppe" v="veg" />
		<tag k="ssr:hovedgruppe" v="infrastruktur" />
		<tag k="ssr:stedsnr" v="904525" />
		<tag k="ssr:type" v="adressenavn" />
	</node>
	<node lat="58.31350648013063" lon="8.565711649696436" id="-56001">
		<tag k="name" v="Østerhusmonen" />
		<tag k="ssr:date" v="2019-12-27" />
		<tag k="ssr:gruppe" v="veg" />
		<tag k="ssr:hovedgruppe" v="infrastruktur" />
		<tag k="ssr:stedsnr" v="904529" />
		<tag k="ssr:type" v="adressenavn" />
	</node>
	<node lat="58.32271224573745" lon="8.569074352635482" id="-56002">
		<tag k="name" v="Trollsvingen" />
		<tag k="ssr:date" v="2019-12-27" />
		<tag k="ssr:gruppe" v="veg" />
		<tag k="ssr:hovedgruppe" v="infrastruktur" />
		<tag k="ssr:stedsnr" v="904545" />
		<tag k="ssr:type" v="adressenavn" />
	</node>
	<node lat="58.32803972389628" lon="8.575748209450483" id="-56003">
		<tag k="name" v="Speiderveien" />
		<tag k="ssr:date" v="2019-12-27" />
		<tag k="ssr:gruppe" v="veg" />
		<tag k="ssr:hovedgruppe" v="infrastruktur" />
		<tag k="ssr:stedsnr" v="904587" />
		<tag k="ssr:type" v="adressenavn" />
	</node>
	<node lat="58.34118426156029" lon="8.589318634013555" id="-56004">
		<tag k="name" v="Staales bakke" />
		<tag k="ssr:date" v="2019-12-27" />
		<tag k="ssr:gruppe" v="veg" />
		<tag k="ssr:hovedgruppe" v="infrastruktur" />
		<tag k="ssr:stedsnr" v="904588" />
		<tag k="ssr:type" v="adressenavn" />
	</node>
	<node lat="58.34174125168099" lon="8.589666108116747" id="-56005">
		<tag k="name" v="Markveien" />
		<tag k="ssr:date" v="2019-12-27" />
		<tag k="ssr:gruppe" v="veg" />
		<tag k="ssr:hovedgruppe" v="infrastruktur" />
		<tag k="ssr:stedsnr" v="904618" />
		<tag k="ssr:type" v="adressenavn" />
	</node>
	<node lat="58.27734141104198" lon="8.505156897948206" id="-56006">
		<tag k="name" v="Høifjell" />
		<tag k="ssr:date" v="2019-12-27" />
		<tag k="ssr:gruppe" v="veg" />
		<tag k="ssr:hovedgruppe" v="infrastruktur" />
		<tag k="ssr:stedsnr" v="904894" />
		<tag k="ssr:type" v="adressenavn" />
	</node>
	<node lat="58.36738572102862" lon="8.616462857245105" id="-56027">
		<tag k="name" v="Vestre Vik" />
		<tag k="ssr:date" v="2019-12-27" />
		<tag k="ssr:gruppe" v="veg" />
		<tag k="ssr:hovedgruppe" v="infrastruktur" />
		<tag k="ssr:stedsnr" v="906128" />
		<tag k="ssr:type" v="adressenavn" />
	</node>
	<node lat="58.33781389986736" lon="8.555863367349717" id="-56028">
		<tag k="name" v="Morholt" />
		<tag k="ssr:date" v="2019-12-27" />
		<tag k="ssr:gruppe" v="veg" />
		<tag k="ssr:hovedgruppe" v="infrastruktur" />
		<tag k="ssr:stedsnr" v="764797" />
		<tag k="ssr:type" v="adressenavn" />
	</node>
	<node lat="58.33503776712161" lon="8.589570927350442" id="-56059">
		<tag k="name" v="Bark Silas' vei" />
		<tag k="ssr:date" v="2019-12-27" />
		<tag k="ssr:gruppe" v="veg" />
		<tag k="ssr:hovedgruppe" v="infrastruktur" />
		<tag k="ssr:stedsnr" v="781199" />
		<tag k="ssr:type" v="adressenavn" />
	</node>
	<node lat="58.34114693815287" lon="8.600424940082895" id="-56060">
		<tag k="name" v="Batteriveien" />
		<tag k="ssr:date" v="2019-12-27" />
		<tag k="ssr:gruppe" v="veg" />
		<tag k="ssr:hovedgruppe" v="infrastruktur" />
		<tag k="ssr:stedsnr" v="781201" />
		<tag k="ssr:type" v="adressenavn" />
	</node>
	<node lat="58.33876265837641" lon="8.592113766865141" id="-56073">
		<tag k="name" v="Jørgen Bangs gate" />
		<tag k="ssr:date" v="2019-12-27" />
		<tag k="ssr:gruppe" v="veg" />
		<tag k="ssr:hovedgruppe" v="infrastruktur" />
		<tag k="ssr:stedsnr" v="781664" />
		<tag k="ssr:type" v="adressenavn" />
	</node>
	<node lat="58.32213032617784" lon="8.572697238343363" id="-56078">
		<tag k="name" v="Krågevigstien" />
		<tag k="ssr:date" v="2019-12-27" />
		<tag k="ssr:gruppe" v="veg" />
		<tag k="ssr:hovedgruppe" v="infrastruktur" />
		<tag k="ssr:stedsnr" v="782719" />
		<tag k="ssr:type" v="adressenavn" />
	</node>
	<node lat="58.369019442119345" lon="8.669144442308705" id="-56183">
		<tag k="name" v="Fevik" />
		<tag k="ssr:date" v="2019-12-27" />
		<tag k="ssr:gruppe" v="navigasjon" />
		<tag k="ssr:hovedgruppe" v="infrastruktur" />
		<tag k="ssr:stedsnr" v="789519" />
		<tag k="ssr:type" v="fyrlykt" />
	</node>
	<node lat="58.329384821241426" lon="8.571700024702439" id="-56191">
		<tag k="name" v="Solveien" />
		<tag k="ssr:date" v="2019-12-27" />
		<tag k="ssr:gruppe" v="veg" />
		<tag k="ssr:hovedgruppe" v="infrastruktur" />
		<tag k="ssr:stedsnr" v="792440" />
		<tag k="ssr:type" v="adressenavn" />
	</node>
	<node lat="58.341960750670026" lon="8.596556723227744" id="-56192">
		<tag k="name" v="Smith-Petersens gate" />
		<tag k="ssr:date" v="2019-12-27" />
		<tag k="ssr:gruppe" v="veg" />
		<tag k="ssr:hovedgruppe" v="infrastruktur" />
		<tag k="ssr:stedsnr" v="914365" />
		<tag k="ssr:type" v="adressenavn" />
	</node>
	<node lat="58.351433149547645" lon="8.533872501624622" id="-56193">
		<tag k="name" v="Resvigveien" />
		<tag k="ssr:date" v="2019-12-27" />
		<tag k="ssr:gruppe" v="veg" />
		<tag k="ssr:hovedgruppe" v="infrastruktur" />
		<tag k="ssr:stedsnr" v="917802" />
		<tag k="ssr:type" v="adressenavn" />
	</node>
	<node lat="58.34816728576551" lon="8.576586105705085" id="-56252">
		<tag k="name" v="Dybedalsveien" />
		<tag k="ssr:date" v="2019-12-27" />
		<tag k="ssr:gruppe" v="veg" />
		<tag k="ssr:hovedgruppe" v="infrastruktur" />
		<tag k="ssr:stedsnr" v="842480" />
		<tag k="ssr:type" v="adressenavn" />
	</node>
	<node lat="58.396069407216714" lon="8.6906830863778" id="-56258">
		<tag k="name" v="Birketveit" />
		<tag k="ssr:date" v="2019-12-27" />
		<tag k="ssr:gruppe" v="veg" />
		<tag k="ssr:hovedgruppe" v="infrastruktur" />
		<tag k="ssr:stedsnr" v="843290" />
		<tag k="ssr:type" v="adressenavn" />
	</node>
	<node lat="58.37536300926155" lon="8.668152037045699" id="-56259">
		<tag k="name" v="Ormåsen" />
		<tag k="ssr:date" v="2019-12-27" />
		<tag k="ssr:gruppe" v="veg" />
		<tag k="ssr:hovedgruppe" v="infrastruktur" />
		<tag k="ssr:stedsnr" v="843505" />
		<tag k="ssr:type" v="adressenavn" />
	</node>
	<node lat="58.34658995788077" lon="8.580917245202002" id="-56260">
		<tag k="name" v="Opplandsveien" />
		<tag k="ssr:date" v="2019-12-27" />
		<tag k="ssr:gruppe" v="veg" />
		<tag k="ssr:hovedgruppe" v="infrastruktur" />
		<tag k="ssr:stedsnr" v="844326" />
		<tag k="ssr:type" v="adressenavn" />
	</node>
	<node lat="58.26107222107801" lon="8.492313889138718" id="-56354">
		<tag k="name" v="Homborsundsleia" />
		<tag k="old_name" v="Homborsundsleia, Nedre" />
		<tag k="ssr:date" v="2019-12-27" />
		<tag k="ssr:gruppe" v="navigasjon" />
		<tag k="ssr:hovedgruppe" v="infrastruktur" />
		<tag k="ssr:stedsnr" v="935007" />
		<tag k="ssr:type" v="fyrlykt" />
	</node>
	<node lat="58.34455355909416" lon="8.549173511166536" id="-56391">
		<tag k="name" v="Gleden" />
		<tag k="ssr:date" v="2019-12-27" />
		<tag k="ssr:gruppe" v="veg" />
		<tag k="ssr:hovedgruppe" v="infrastruktur" />
		<tag k="ssr:stedsnr" v="903404" />
		<tag k="ssr:type" v="adressenavn" />
	</node>
	<node lat="58.34439766532501" lon="8.593379931433851" id="-56393">
		<tag k="name" v="Furuheia" />
		<tag k="ssr:date" v="2019-12-27" />
		<tag k="ssr:gruppe" v="veg" />
		<tag k="ssr:hovedgruppe" v="infrastruktur" />
		<tag k="ssr:stedsnr" v="903912" />
		<tag k="ssr:type" v="adressenavn" />
	</node>
	<node lat="58.31925247047277" lon="8.56252551292344" id="-56396">
		<tag k="name" v="Vegårveien" />
		<tag k="ssr:date" v="2019-12-27" />
		<tag k="ssr:gruppe" v="veg" />
		<tag k="ssr:hovedgruppe" v="infrastruktur" />
		<tag k="ssr:stedsnr" v="904466" />
		<tag k="ssr:type" v="adressenavn" />
	</node>
	<node lat="58.383802324020955" lon="8.673532555834027" id="-56397">
		<tag k="name" v="Trålum heia" />
		<tag k="ssr:date" v="2019-12-27" />
		<tag k="ssr:gruppe" v="veg" />
		<tag k="ssr:hovedgruppe" v="infrastruktur" />
		<tag k="ssr:stedsnr" v="904549" />
		<tag k="ssr:type" v="adressenavn" />
	</node>
	<node lat="58.36760836390032" lon="8.630453040504674" id="-56398">
		<tag k="name" v="Vikjordet" />
		<tag k="ssr:date" v="2019-12-27" />
		<tag k="ssr:gruppe" v="veg" />
		<tag k="ssr:hovedgruppe" v="infrastruktur" />
		<tag k="ssr:stedsnr" v="906110" />
		<tag k="ssr:type" v="adressenavn" />
	</node>
	<node lat="58.3175077378806" lon="8.565235251488318" id="-56452">
		<tag k="name" v="Moneveien" />
		<tag k="ssr:date" v="2019-12-27" />
		<tag k="ssr:gruppe" v="veg" />
		<tag k="ssr:hovedgruppe" v="infrastruktur" />
		<tag k="ssr:stedsnr" v="919748" />
		<tag k="ssr:type" v="adressenavn" />
	</node>
	<node lat="58.34532539945134" lon="8.579254585752217" id="-56475">
		<tag k="name" v="Bergekleiva" />
		<tag k="ssr:date" v="2019-12-27" />
		<tag k="ssr:gruppe" v="veg" />
		<tag k="ssr:hovedgruppe" v="infrastruktur" />
		<tag k="ssr:stedsnr" v="963210" />
		<tag k="ssr:type" v="adressenavn" />
	</node>
	<node lat="58.349390417891364" lon="8.523122678071287" id="-56476">
		<tag k="name" v="Bakken" />
		<tag k="ssr:date" v="2019-12-27" />
		<tag k="ssr:gruppe" v="veg" />
		<tag k="ssr:hovedgruppe" v="infrastruktur" />
		<tag k="ssr:stedsnr" v="963212" />
		<tag k="ssr:type" v="adressenavn" />
	</node>
	<node lat="58.34278298434199" lon="8.591449987367263" id="-56487">
		<tag k="name" v="Nygaten" />
		<tag k="ssr:date" v="2019-12-27" />
		<tag k="ssr:gruppe" v="veg" />
		<tag k="ssr:hovedgruppe" v="infrastruktur" />
		<tag k="ssr:stedsnr" v="964407" />
		<tag k="ssr:type" v="adressenavn" />
	</node>
	<node lat="58.33726830001591" lon="8.593391084461048" id="-56488">
		<tag k="name" v="Odden" />
		<tag k="ssr:date" v="2019-12-27" />
		<tag k="ssr:gruppe" v="veg" />
		<tag k="ssr:hovedgruppe" v="infrastruktur" />
		<tag k="ssr:stedsnr" v="964408" />
		<tag k="ssr:type" v="adressenavn" />
	</node>
	<node lat="58.37524818931815" lon="8.665276990611286" id="-56489">
		<tag k="name" v="Brattemoen" />
		<tag k="ssr:date" v="2019-12-27" />
		<tag k="ssr:gruppe" v="veg" />
		<tag k="ssr:hovedgruppe" v="infrastruktur" />
		<tag k="ssr:stedsnr" v="964308" />
		<tag k="ssr:type" v="adressenavn" />
	</node>
	<node lat="58.36903253454106" lon="8.64036637254478" id="-56490">
		<tag k="name" v="Fevikveien" />
		<tag k="ssr:date" v="2019-12-27" />
		<tag k="ssr:gruppe" v="veg" />
		<tag k="ssr:hovedgruppe" v="infrastruktur" />
		<tag k="ssr:stedsnr" v="964318" />
		<tag k="ssr:type" v="adressenavn" />
	</node>
	<node lat="58.321292382745106" lon="8.566498198396346" id="-56491">
		<tag k="name" v="Fjellknattveien" />
		<tag k="ssr:date" v="2019-12-27" />
		<tag k="ssr:gruppe" v="veg" />
		<tag k="ssr:hovedgruppe" v="infrastruktur" />
		<tag k="ssr:stedsnr" v="964320" />
		<tag k="ssr:type" v="adressenavn" />
	</node>
	<node lat="58.35582534978529" lon="8.599803965606629" id="-56492">
		<tag k="name" v="Fjæresvingen" />
		<tag k="ssr:date" v="2019-12-27" />
		<tag k="ssr:gruppe" v="veg" />
		<tag k="ssr:hovedgruppe" v="infrastruktur" />
		<tag k="ssr:stedsnr" v="964321" />
		<tag k="ssr:type" v="adressenavn" />
	</node>
	<node lat="58.39398681409599" lon="8.699199380838396" id="-56493">
		<tag k="name" v="Sagoddveien" />
		<tag k="ssr:date" v="2019-12-27" />
		<tag k="ssr:gruppe" v="veg" />
		<tag k="ssr:hovedgruppe" v="infrastruktur" />
		<tag k="ssr:stedsnr" v="964840" />
		<tag k="ssr:type" v="adressenavn" />
	</node>
	<node lat="58.32491105687047" lon="8.547123733081248" id="-56494">
		<tag k="name" v="Molland" />
		<tag k="ssr:date" v="2019-12-27" />
		<tag k="ssr:gruppe" v="veg" />
		<tag k="ssr:hovedgruppe" v="infrastruktur" />
		<tag k="ssr:stedsnr" v="964541" />
		<tag k="ssr:type" v="adressenavn" />
	</node>
	<node lat="58.31896521670679" lon="8.54937222834939" id="-56495">
		<tag k="name" v="Morviga" />
		<tag k="ssr:date" v="2019-12-27" />
		<tag k="ssr:gruppe" v="veg" />
		<tag k="ssr:hovedgruppe" v="infrastruktur" />
		<tag k="ssr:stedsnr" v="964745" />
		<tag k="ssr:type" v="adressenavn" />
	</node>
	<node lat="58.363770556567076" lon="8.6691406356023" id="-56555">
		<tag k="name" v="Skraviga" />
		<tag k="ssr:date" v="2019-12-27" />
		<tag k="ssr:gruppe" v="veg" />
		<tag k="ssr:hovedgruppe" v="infrastruktur" />
		<tag k="ssr:stedsnr" v="973858" />
		<tag k="ssr:type" v="adressenavn" />
	</node>
	<node lat="58.36559990042578" lon="8.665361419399073" id="-56556">
		<tag k="name" v="Stangholmveien" />
		<tag k="ssr:date" v="2019-12-27" />
		<tag k="ssr:gruppe" v="veg" />
		<tag k="ssr:hovedgruppe" v="infrastruktur" />
		<tag k="ssr:stedsnr" v="973859" />
		<tag k="ssr:type" v="adressenavn" />
	</node>
	<node lat="58.27251232361024" lon="8.524200722865688" id="-56559">
		<tag k="name" v="Hove hyttefelt" />
		<tag k="ssr:date" v="2019-12-27" />
		<tag k="ssr:gruppe" v="veg" />
		<tag k="ssr:hovedgruppe" v="infrastruktur" />
		<tag k="ssr:stedsnr" v="973910" />
		<tag k="ssr:type" v="adressenavn" />
	</node>
	<node lat="58.27135431891839" lon="8.52764078407932" id="-56560">
		<tag k="name" v="Hoveneset" />
		<tag k="ssr:date" v="2019-12-27" />
		<tag k="ssr:gruppe" v="veg" />
		<tag k="ssr:hovedgruppe" v="infrastruktur" />
		<tag k="ssr:stedsnr" v="973911" />
		<tag k="ssr:type" v="adressenavn" />
	</node>
	<node lat="58.252413693332336" lon="8.503598236017103" id="-56561">
		<tag k="name" v="Homborøya" />
		<tag k="ssr:date" v="2019-12-27" />
		<tag k="ssr:gruppe" v="veg" />
		<tag k="ssr:hovedgruppe" v="infrastruktur" />
		<tag k="ssr:stedsnr" v="973912" />
		<tag k="ssr:type" v="adressenavn" />
	</node>
	<node lat="58.256540649362854" lon="8.448813999596462" id="-56562">
		<tag k="name" v="Auesøya" />
		<tag k="ssr:date" v="2019-12-27" />
		<tag k="ssr:gruppe" v="veg" />
		<tag k="ssr:hovedgruppe" v="infrastruktur" />
		<tag k="ssr:stedsnr" v="973913" />
		<tag k="ssr:type" v="adressenavn" />
	</node>
	<node lat="58.30249074798137" lon="8.593740389360265" id="-56563">
		<tag k="name" v="Håøya" />
		<tag k="ssr:date" v="2019-12-27" />
		<tag k="ssr:gruppe" v="veg" />
		<tag k="ssr:hovedgruppe" v="infrastruktur" />
		<tag k="ssr:stedsnr" v="973914" />
		<tag k="ssr:type" v="adressenavn" />
	</node>
	<node lat="58.2734649197761" lon="8.52027895393642" id="-56565">
		<tag k="name" v="Veddeskogen" />
		<tag k="ssr:date" v="2019-12-27" />
		<tag k="ssr:gruppe" v="veg" />
		<tag k="ssr:hovedgruppe" v="infrastruktur" />
		<tag k="ssr:stedsnr" v="973918" />
		<tag k="ssr:type" v="adressenavn" />
	</node>
	<node lat="58.25288888568811" lon="8.455055553349338" id="-56595">
		<tag k="name" v="Teineholla" />
		<tag k="ssr:date" v="2019-12-27" />
		<tag k="ssr:gruppe" v="sjøbunn" />
		<tag k="ssr:hovedgruppe" v="sjø" />
		<tag k="ssr:stedsnr" v="30432" />
		<tag k="ssr:type" v="søkkISjø" />
	</node>
	<node lat="58.341034799557086" lon="8.599590582903375" id="-56669">
		<tag k="name" v="Binabbgaten" />
		<tag k="ssr:date" v="2019-12-27" />
		<tag k="ssr:gruppe" v="veg" />
		<tag k="ssr:hovedgruppe" v="infrastruktur" />
		<tag k="ssr:stedsnr" v="54302" />
		<tag k="ssr:type" v="adressenavn" />
	</node>
	<node lat="58.341561809954314" lon="8.581320827764259" id="-56670">
		<tag k="name" v="Grømjordet" />
		<tag k="ssr:date" v="2019-12-27" />
		<tag k="ssr:gruppe" v="veg" />
		<tag k="ssr:hovedgruppe" v="infrastruktur" />
		<tag k="ssr:stedsnr" v="54322" />
		<tag k="ssr:type" v="adressenavn" />
	</node>
	<node lat="58.34715394574048" lon="8.546396564748456" id="-56671">
		<tag k="name" v="Gjærbrøndveien" />
		<tag k="ssr:date" v="2019-12-27" />
		<tag k="ssr:gruppe" v="veg" />
		<tag k="ssr:hovedgruppe" v="infrastruktur" />
		<tag k="ssr:stedsnr" v="54742" />
		<tag k="ssr:type" v="adressenavn" />
	</node>
	<node lat="58.36824041108994" lon="8.629294446662291" id="-56672">
		<tag k="name" v="Gml. Kirkevei" />
		<tag k="ssr:date" v="2019-12-27" />
		<tag k="ssr:gruppe" v="veg" />
		<tag k="ssr:hovedgruppe" v="infrastruktur" />
		<tag k="ssr:stedsnr" v="54745" />
		<tag k="ssr:type" v="adressenavn" />
	</node>
	<node lat="58.33179730681964" lon="8.573146832443864" id="-56673">
		<tag k="name" v="Landgraffs vei" />
		<tag k="ssr:date" v="2019-12-27" />
		<tag k="ssr:gruppe" v="veg" />
		<tag k="ssr:hovedgruppe" v="infrastruktur" />
		<tag k="ssr:stedsnr" v="54751" />
		<tag k="ssr:type" v="adressenavn" />
	</node>
	<node lat="58.2748969014026" lon="8.500168851521815" id="-56674">
		<tag k="name" v="Ospelia n." />
		<tag k="ssr:date" v="2019-12-27" />
		<tag k="ssr:gruppe" v="veg" />
		<tag k="ssr:hovedgruppe" v="infrastruktur" />
		<tag k="ssr:stedsnr" v="54764" />
		<tag k="ssr:type" v="adressenavn" />
	</node>
	<node lat="58.259000000605255" lon="8.51577500621805" id="-56726">
		<tag k="name" v="Havnespynten" />
		<tag k="ssr:date" v="2019-12-27" />
		<tag k="ssr:gruppe" v="navigasjon" />
		<tag k="ssr:hovedgruppe" v="infrastruktur" />
		<tag k="ssr:stedsnr" v="61950" />
		<tag k="ssr:type" v="fyrlykt" />
	</node>
	<node lat="58.3753811341064" lon="8.681941434138325" id="-56797">
		<tag k="name" v="Boes Bakke" />
		<tag k="ssr:date" v="2019-12-27" />
		<tag k="ssr:gruppe" v="veg" />
		<tag k="ssr:hovedgruppe" v="infrastruktur" />
		<tag k="ssr:stedsnr" v="114299" />
		<tag k="ssr:type" v="adressenavn" />
	</node>
	<node lat="58.37704102688903" lon="8.67841508765203" id="-56800">
		<tag k="name" v="Jordene" />
		<tag k="ssr:date" v="2019-12-27" />
		<tag k="ssr:gruppe" v="veg" />
		<tag k="ssr:hovedgruppe" v="infrastruktur" />
		<tag k="ssr:stedsnr" v="114664" />
		<tag k="ssr:type" v="adressenavn" />
	</node>
	<node lat="58.33754207846428" lon="8.587264606307015" id="-56815">
		<tag k="name" v="Midtskips" />
		<tag k="ssr:date" v="2019-12-27" />
		<tag k="ssr:gruppe" v="veg" />
		<tag k="ssr:hovedgruppe" v="infrastruktur" />
		<tag k="ssr:stedsnr" v="115535" />
		<tag k="ssr:type" v="adressenavn" />
	</node>
	<node lat="58.33514291407888" lon="8.530227472794055" id="-56816">
		<tag k="name" v="Torvåsen" />
		<tag k="ssr:date" v="2019-12-27" />
		<tag k="ssr:gruppe" v="veg" />
		<tag k="ssr:hovedgruppe" v="infrastruktur" />
		<tag k="ssr:stedsnr" v="115542" />
		<tag k="ssr:type" v="adressenavn" />
	</node>
	<node lat="58.350051870030654" lon="8.527871174853875" id="-56819">
		<tag k="name" v="Lille Imås" />
		<tag k="ssr:date" v="2019-12-27" />
		<tag k="ssr:gruppe" v="veg" />
		<tag k="ssr:hovedgruppe" v="infrastruktur" />
		<tag k="ssr:stedsnr" v="115058" />
		<tag k="ssr:type" v="adressenavn" />
	</node>
	<node lat="58.33507499635127" lon="8.589517759329322" id="-56820">
		<tag k="name" v="Guldmandsveien" />
		<tag k="ssr:date" v="2019-12-27" />
		<tag k="ssr:gruppe" v="veg" />
		<tag k="ssr:hovedgruppe" v="infrastruktur" />
		<tag k="ssr:stedsnr" v="115257" />
		<tag k="ssr:type" v="adressenavn" />
	</node>
	<node lat="58.30354497767548" lon="8.58317574832586" id="-56881">
		<tag k="name" v="Rivingen" />
		<tag k="ssr:date" v="2020-09-03" />
		<tag k="ssr:gruppe" v="navigasjon" />
		<tag k="ssr:hovedgruppe" v="infrastruktur" />
		<tag k="ssr:stedsnr" v="121942" />
		<tag k="ssr:type" v="fyrlykt" />
	</node>
	<node lat="58.34272953348371" lon="8.593863014250328" id="-56938">
		<tag k="name" v="Arendalsveien" />
		<tag k="ssr:date" v="2019-12-27" />
		<tag k="ssr:gruppe" v="veg" />
		<tag k="ssr:hovedgruppe" v="infrastruktur" />
		<tag k="ssr:stedsnr" v="174235" />
		<tag k="ssr:type" v="adressenavn" />
	</node>
	<node lat="58.35807541283407" lon="8.60313084763607" id="-56961">
		<tag k="name" v="Laugevoldveien" />
		<tag k="ssr:date" v="2019-12-27" />
		<tag k="ssr:gruppe" v="veg" />
		<tag k="ssr:hovedgruppe" v="infrastruktur" />
		<tag k="ssr:stedsnr" v="175347" />
		<tag k="ssr:type" v="adressenavn" />
	</node>
	<node lat="58.339803183281" lon="8.579464401672496" id="-56962">
		<tag k="name" v="Grømheia" />
		<tag k="ssr:date" v="2019-12-27" />
		<tag k="ssr:gruppe" v="veg" />
		<tag k="ssr:hovedgruppe" v="infrastruktur" />
		<tag k="ssr:stedsnr" v="175387" />
		<tag k="ssr:type" v="adressenavn" />
	</node>
	<node lat="58.341374686730965" lon="8.58918293730524" id="-56965">
		<tag k="name" v="Høyvardeveien" />
		<tag k="ssr:date" v="2019-12-27" />
		<tag k="ssr:gruppe" v="veg" />
		<tag k="ssr:hovedgruppe" v="infrastruktur" />
		<tag k="ssr:stedsnr" v="175885" />
		<tag k="ssr:type" v="adressenavn" />
	</node>
	<node lat="58.36895453764191" lon="8.6197085051621" id="-56966">
		<tag k="name" v="Spedalen" />
		<tag k="ssr:date" v="2019-12-27" />
		<tag k="ssr:gruppe" v="veg" />
		<tag k="ssr:hovedgruppe" v="infrastruktur" />
		<tag k="ssr:stedsnr" v="175626" />
		<tag k="ssr:type" v="adressenavn" />
	</node>
	<node lat="58.382312576524114" lon="8.703935463975787" id="-56968">
		<tag k="name" v="Snarveien" />
		<tag k="ssr:date" v="2019-12-27" />
		<tag k="ssr:gruppe" v="veg" />
		<tag k="ssr:hovedgruppe" v="infrastruktur" />
		<tag k="ssr:stedsnr" v="176349" />
		<tag k="ssr:type" v="adressenavn" />
	</node>
	<node lat="58.34208941502165" lon="8.594011894712656" id="-56970">
		<tag k="name" v="Løkkestredet" />
		<tag k="ssr:date" v="2019-12-27" />
		<tag k="ssr:gruppe" v="veg" />
		<tag k="ssr:hovedgruppe" v="infrastruktur" />
		<tag k="ssr:stedsnr" v="176628" />
		<tag k="ssr:type" v="adressenavn" />
	</node>
	<node lat="58.34114853219493" lon="8.542997119602974" id="-56971">
		<tag k="name" v="Viggo Ullmanns vei" />
		<tag k="ssr:date" v="2019-12-27" />
		<tag k="ssr:gruppe" v="veg" />
		<tag k="ssr:hovedgruppe" v="infrastruktur" />
		<tag k="ssr:stedsnr" v="178146" />
		<tag k="ssr:type" v="adressenavn" />
	</node>
	<node lat="58.33676869074986" lon="8.556422845520757" id="-56972">
		<tag k="name" v="Vestre Grøm" />
		<tag k="ssr:date" v="2019-12-27" />
		<tag k="ssr:gruppe" v="veg" />
		<tag k="ssr:hovedgruppe" v="infrastruktur" />
		<tag k="ssr:stedsnr" v="178148" />
		<tag k="ssr:type" v="adressenavn" />
	</node>
	<node lat="58.33209444627641" lon="8.594044436191933" id="-57024">
		<tag k="name" v="Vessøyhauet" />
		<tag k="old_name" v="Vessøyhue;Vessøyhodet" />
		<tag k="ssr:date" v="2021-06-08" />
		<tag k="ssr:gruppe" v="navigasjon" />
		<tag k="ssr:hovedgruppe" v="infrastruktur" />
		<tag k="ssr:stedsnr" v="182997" />
		<tag k="ssr:type" v="fyrlykt" />
	</node>
	<node lat="58.30762695259688" lon="8.658030315074265" id="-57029">
		<tag k="name" v="Hesnesbregen" />
		<tag k="ssr:date" v="2020-09-01" />
		<tag k="ssr:gruppe" v="navigasjon" />
		<tag k="ssr:hovedgruppe" v="infrastruktur" />
		<tag k="ssr:stedsnr" v="182980" />
		<tag k="ssr:type" v="lanterne" />
	</node>
	<node lat="58.34022892546804" lon="8.58592278719597" id="-57033">
		<tag k="name" v="Solhøgda" />
		<tag k="ssr:date" v="2019-12-27" />
		<tag k="ssr:gruppe" v="veg" />
		<tag k="ssr:hovedgruppe" v="infrastruktur" />
		<tag k="ssr:stedsnr" v="185425" />
		<tag k="ssr:type" v="adressenavn" />
	</node>
	<node lat="58.31601667008132" lon="8.602627785469897" id="-57035">
		<tag k="alt_name" v="Vestre Leiholmsund" />
		<tag k="name" v="Leiholmsund, vestre" />
		<tag k="old_name" v="Leiholmsund, Vestre" />
		<tag k="ssr:date" v="2020-02-27" />
		<tag k="ssr:gruppe" v="navigasjon" />
		<tag k="ssr:hovedgruppe" v="infrastruktur" />
		<tag k="ssr:stedsnr" v="206096" />
		<tag k="ssr:type" v="lanterne" />
	</node>
	<node lat="58.305837576883526" lon="8.53709962396314" id="-57076">
		<tag k="name" v="Strandfjorden" />
		<tag k="ssr:date" v="2019-12-27" />
		<tag k="ssr:gruppe" v="veg" />
		<tag k="ssr:hovedgruppe" v="infrastruktur" />
		<tag k="ssr:stedsnr" v="284960" />
		<tag k="ssr:type" v="adressenavn" />
	</node>
	<node lat="58.37957010094077" lon="8.6763163596495" id="-57079">
		<tag k="name" v="Skippergada" />
		<tag k="ssr:date" v="2019-12-27" />
		<tag k="ssr:gruppe" v="veg" />
		<tag k="ssr:hovedgruppe" v="infrastruktur" />
		<tag k="ssr:stedsnr" v="297262" />
		<tag k="ssr:type" v="adressenavn" />
	</node>
	<node lat="58.3824499460825" lon="8.67513855902657" id="-57122">
		<tag k="name" v="Kaféheia" />
		<tag k="ssr:date" v="2019-12-27" />
		<tag k="ssr:gruppe" v="veg" />
		<tag k="ssr:hovedgruppe" v="infrastruktur" />
		<tag k="ssr:stedsnr" v="296635" />
		<tag k="ssr:type" v="adressenavn" />
	</node>
	<node lat="58.38077407801771" lon="8.676403724963981" id="-57130">
		<tag k="name" v="Bjønnmyra" />
		<tag k="ssr:date" v="2019-12-27" />
		<tag k="ssr:gruppe" v="veg" />
		<tag k="ssr:hovedgruppe" v="infrastruktur" />
		<tag k="ssr:stedsnr" v="296263" />
		<tag k="ssr:type" v="adressenavn" />
	</node>
	<node lat="58.383605098281045" lon="8.702533040666221" id="-57133">
		<tag k="name" v="Krokveien" />
		<tag k="ssr:date" v="2019-12-27" />
		<tag k="ssr:gruppe" v="veg" />
		<tag k="ssr:hovedgruppe" v="infrastruktur" />
		<tag k="ssr:stedsnr" v="296737" />
		<tag k="ssr:type" v="adressenavn" />
	</node>
	<node lat="58.26860296235315" lon="8.510829826219588" id="-57134">
		<tag k="name" v="Kjekstadveien" />
		<tag k="ssr:date" v="2019-12-27" />
		<tag k="ssr:gruppe" v="veg" />
		<tag k="ssr:hovedgruppe" v="infrastruktur" />
		<tag k="ssr:stedsnr" v="296742" />
		<tag k="ssr:type" v="adressenavn" />
	</node>
	<node lat="58.36841680479219" lon="8.62364484988891" id="-57140">
		<tag k="name" v="Bringsværmoen" />
		<tag k="ssr:date" v="2019-12-27" />
		<tag k="ssr:gruppe" v="veg" />
		<tag k="ssr:hovedgruppe" v="infrastruktur" />
		<tag k="ssr:stedsnr" v="297475" />
		<tag k="ssr:type" v="adressenavn" />
	</node>
	<node lat="58.373451494076704" lon="8.665545421868737" id="-57141">
		<tag k="name" v="Lillevei" />
		<tag k="ssr:date" v="2019-12-27" />
		<tag k="ssr:gruppe" v="veg" />
		<tag k="ssr:hovedgruppe" v="infrastruktur" />
		<tag k="ssr:stedsnr" v="297631" />
		<tag k="ssr:type" v="adressenavn" />
	</node>
	<node lat="58.3753811341064" lon="8.681941434138325" id="-57142">
		<tag k="name" v="Movigveien" />
		<tag k="ssr:date" v="2019-12-27" />
		<tag k="ssr:gruppe" v="veg" />
		<tag k="ssr:hovedgruppe" v="infrastruktur" />
		<tag k="ssr:stedsnr" v="297770" />
		<tag k="ssr:type" v="adressenavn" />
	</node>
	<node lat="58.33802931152253" lon="8.547755997781456" id="-57230">
		<tag k="name" v="Morholtveien" />
		<tag k="ssr:date" v="2019-12-27" />
		<tag k="ssr:gruppe" v="veg" />
		<tag k="ssr:hovedgruppe" v="infrastruktur" />
		<tag k="ssr:stedsnr" v="340773" />
		<tag k="ssr:type" v="adressenavn" />
	</node>
	<node lat="58.265245241833085" lon="8.506962493813013" id="-57284">
		<tag k="name" v="Homborhave" />
		<tag k="ssr:date" v="2019-12-27" />
		<tag k="ssr:gruppe" v="veg" />
		<tag k="ssr:hovedgruppe" v="infrastruktur" />
		<tag k="ssr:stedsnr" v="357079" />
		<tag k="ssr:type" v="adressenavn" />
	</node>
	<node lat="58.344085879628366" lon="8.545897149076513" id="-57290">
		<tag k="name" v="Lauråslia" />
		<tag k="ssr:date" v="2019-12-27" />
		<tag k="ssr:gruppe" v="veg" />
		<tag k="ssr:hovedgruppe" v="infrastruktur" />
		<tag k="ssr:stedsnr" v="357030" />
		<tag k="ssr:type" v="adressenavn" />
	</node>
	<node lat="58.3329578790895" lon="8.572055564590327" id="-57291">
		<tag k="name" v="Peter Dahls vei" />
		<tag k="ssr:date" v="2019-12-27" />
		<tag k="ssr:gruppe" v="veg" />
		<tag k="ssr:hovedgruppe" v="infrastruktur" />
		<tag k="ssr:stedsnr" v="357785" />
		<tag k="ssr:type" v="adressenavn" />
	</node>
	<node lat="58.322049004800256" lon="8.559330696050669" id="-57292">
		<tag k="name" v="Furuknatten" />
		<tag k="ssr:date" v="2019-12-27" />
		<tag k="ssr:gruppe" v="veg" />
		<tag k="ssr:hovedgruppe" v="infrastruktur" />
		<tag k="ssr:stedsnr" v="357890" />
		<tag k="ssr:type" v="adressenavn" />
	</node>
	<node lat="58.37752130476659" lon="8.681812438635516" id="-57293">
		<tag k="name" v="Skoleveien" />
		<tag k="ssr:date" v="2019-12-27" />
		<tag k="ssr:gruppe" v="veg" />
		<tag k="ssr:hovedgruppe" v="infrastruktur" />
		<tag k="ssr:stedsnr" v="358239" />
		<tag k="ssr:type" v="adressenavn" />
	</node>
	<node lat="58.3383386702293" lon="8.586287290199353" id="-57294">
		<tag k="name" v="Merset" />
		<tag k="ssr:date" v="2019-12-27" />
		<tag k="ssr:gruppe" v="veg" />
		<tag k="ssr:hovedgruppe" v="infrastruktur" />
		<tag k="ssr:stedsnr" v="358576" />
		<tag k="ssr:type" v="adressenavn" />
	</node>
	<node lat="58.341845170979546" lon="8.58473108843025" id="-57295">
		<tag k="name" v="Torsgate" />
		<tag k="ssr:date" v="2019-12-27" />
		<tag k="ssr:gruppe" v="veg" />
		<tag k="ssr:hovedgruppe" v="infrastruktur" />
		<tag k="ssr:stedsnr" v="358577" />
		<tag k="ssr:type" v="adressenavn" />
	</node>
	<node lat="58.384221218584926" lon="8.677173534720547" id="-57296">
		<tag k="name" v="Trålum gården" />
		<tag k="ssr:date" v="2019-12-27" />
		<tag k="ssr:gruppe" v="veg" />
		<tag k="ssr:hovedgruppe" v="infrastruktur" />
		<tag k="ssr:stedsnr" v="358593" />
		<tag k="ssr:type" v="adressenavn" />
	</node>
	<node lat="58.32401666373441" lon="8.557227785066358" id="-57306">
		<tag k="name" v="Morholtlien" />
		<tag k="ssr:date" v="2019-12-27" />
		<tag k="ssr:gruppe" v="veg" />
		<tag k="ssr:hovedgruppe" v="infrastruktur" />
		<tag k="ssr:stedsnr" v="362965" />
		<tag k="ssr:type" v="adressenavn" />
	</node>
	<node lat="58.377131954559545" lon="8.676833404402366" id="-57375">
		<tag k="name" v="Skudeveien" />
		<tag k="ssr:date" v="2019-12-27" />
		<tag k="ssr:gruppe" v="veg" />
		<tag k="ssr:hovedgruppe" v="infrastruktur" />
		<tag k="ssr:stedsnr" v="367296" />
		<tag k="ssr:type" v="adressenavn" />
	</node>
	<node lat="58.34626666576102" lon="8.597091659173058" id="-57376">
		<tag k="loc_name" v="Grimstad" />
		<tag k="name" v="Grimstad kommune" />
		<tag k="ssr:date" v="2019-12-27" />
		<tag k="ssr:gruppe" v="administrativeIndelinger" />
		<tag k="ssr:hovedgruppe" v="offentligAdministrasjon" />
		<tag k="ssr:stedsnr" v="388397" />
		<tag k="ssr:type" v="kommune" />
	</node>
	<node lat="58.36338164823377" lon="8.618667247653514" id="-57446">
		<tag k="name" v="Holveien" />
		<tag k="ssr:date" v="2019-12-27" />
		<tag k="ssr:gruppe" v="veg" />
		<tag k="ssr:hovedgruppe" v="infrastruktur" />
		<tag k="ssr:stedsnr" v="417026" />
		<tag k="ssr:type" v="adressenavn" />
	</node>
	<node lat="58.33712652546633" lon="8.533789462118303" id="-57464">
		<tag k="name" v="Karenveien" />
		<tag k="ssr:date" v="2019-12-27" />
		<tag k="ssr:gruppe" v="veg" />
		<tag k="ssr:hovedgruppe" v="infrastruktur" />
		<tag k="ssr:stedsnr" v="417566" />
		<tag k="ssr:type" v="adressenavn" />
	</node>
	<node lat="58.34288713933228" lon="8.586953310813414" id="-57471">
		<tag k="name" v="Lillegate" />
		<tag k="ssr:date" v="2019-12-27" />
		<tag k="ssr:gruppe" v="veg" />
		<tag k="ssr:hovedgruppe" v="infrastruktur" />
		<tag k="ssr:stedsnr" v="418191" />
		<tag k="ssr:type" v="adressenavn" />
	</node>
	<node lat="58.336805947214955" lon="8.528653252918076" id="-57472">
		<tag k="name" v="Tuftene" />
		<tag k="ssr:date" v="2019-12-27" />
		<tag k="ssr:gruppe" v="veg" />
		<tag k="ssr:hovedgruppe" v="infrastruktur" />
		<tag k="ssr:stedsnr" v="418452" />
		<tag k="ssr:type" v="adressenavn" />
	</node>
	<node lat="58.30794476015089" lon="8.540068515873688" id="-57473">
		<tag k="name" v="Støleveien" />
		<tag k="ssr:date" v="2019-12-27" />
		<tag k="ssr:gruppe" v="veg" />
		<tag k="ssr:hovedgruppe" v="infrastruktur" />
		<tag k="ssr:stedsnr" v="418637" />
		<tag k="ssr:type" v="adressenavn" />
	</node>
	<node lat="58.33201155473335" lon="8.574009049460578" id="-57474">
		<tag k="name" v="Gjert Sørensens vei" />
		<tag k="ssr:date" v="2019-12-27" />
		<tag k="ssr:gruppe" v="veg" />
		<tag k="ssr:hovedgruppe" v="infrastruktur" />
		<tag k="ssr:stedsnr" v="418723" />
		<tag k="ssr:type" v="adressenavn" />
	</node>
	<node lat="58.3408855884197" lon="8.544575987772868" id="-57475">
		<tag k="name" v="Sandvadheia" />
		<tag k="ssr:date" v="2019-12-27" />
		<tag k="ssr:gruppe" v="veg" />
		<tag k="ssr:hovedgruppe" v="infrastruktur" />
		<tag k="ssr:stedsnr" v="418857" />
		<tag k="ssr:type" v="adressenavn" />
	</node>
	<node lat="58.37142178407726" lon="8.653436037057116" id="-57476">
		<tag k="name" v="Vollekjær" />
		<tag k="ssr:date" v="2019-12-27" />
		<tag k="ssr:gruppe" v="veg" />
		<tag k="ssr:hovedgruppe" v="infrastruktur" />
		<tag k="ssr:stedsnr" v="420234" />
		<tag k="ssr:type" v="adressenavn" />
	</node>
	<node lat="58.32400530533028" lon="8.560558866856995" id="-57539">
		<tag k="name" v="Langemyrjordet" />
		<tag k="ssr:date" v="2019-12-27" />
		<tag k="ssr:gruppe" v="veg" />
		<tag k="ssr:hovedgruppe" v="infrastruktur" />
		<tag k="ssr:stedsnr" v="511775" />
		<tag k="ssr:type" v="adressenavn" />
	</node>
	<node lat="58.340948806443066" lon="8.599851130824304" id="-57599">
		<tag k="name" v="Bioddgaten" />
		<tag k="ssr:date" v="2019-12-27" />
		<tag k="ssr:gruppe" v="veg" />
		<tag k="ssr:hovedgruppe" v="infrastruktur" />
		<tag k="ssr:stedsnr" v="539251" />
		<tag k="ssr:type" v="adressenavn" />
	</node>
	<node lat="58.271119558722084" lon="8.507712538134175" id="-57600">
		<tag k="name" v="Espevigveien" />
		<tag k="ssr:date" v="2019-12-27" />
		<tag k="ssr:gruppe" v="veg" />
		<tag k="ssr:hovedgruppe" v="infrastruktur" />
		<tag k="ssr:stedsnr" v="539259" />
		<tag k="ssr:type" v="adressenavn" />
	</node>
	<node lat="58.34741992956539" lon="8.553229020405746" id="-57601">
		<tag k="name" v="Frivoll terrasse" />
		<tag k="ssr:date" v="2019-12-27" />
		<tag k="ssr:gruppe" v="veg" />
		<tag k="ssr:hovedgruppe" v="infrastruktur" />
		<tag k="ssr:stedsnr" v="539263" />
		<tag k="ssr:type" v="adressenavn" />
	</node>
	<node lat="58.33474094425595" lon="8.580877498348965" id="-57612">
		<tag k="name" v="Ekornveien" />
		<tag k="ssr:date" v="2019-12-27" />
		<tag k="ssr:gruppe" v="veg" />
		<tag k="ssr:hovedgruppe" v="infrastruktur" />
		<tag k="ssr:stedsnr" v="539375" />
		<tag k="ssr:type" v="adressenavn" />
	</node>
	<node lat="58.3767270093135" lon="8.676822129073788" id="-57613">
		<tag k="name" v="Judehavskleiva" />
		<tag k="ssr:date" v="2019-12-27" />
		<tag k="ssr:gruppe" v="veg" />
		<tag k="ssr:hovedgruppe" v="infrastruktur" />
		<tag k="ssr:stedsnr" v="539645" />
		<tag k="ssr:type" v="adressenavn" />
	</node>
	<node lat="58.342614158559265" lon="8.591890093552692" id="-57614">
		<tag k="name" v="Juskestredet" />
		<tag k="ssr:date" v="2019-12-27" />
		<tag k="ssr:gruppe" v="veg" />
		<tag k="ssr:hovedgruppe" v="infrastruktur" />
		<tag k="ssr:stedsnr" v="539649" />
		<tag k="ssr:type" v="adressenavn" />
	</node>
	<node lat="58.2701724092279" lon="8.518557623577468" id="-57615">
		<tag k="name" v="Sjørågerveien" />
		<tag k="ssr:date" v="2019-12-27" />
		<tag k="ssr:gruppe" v="veg" />
		<tag k="ssr:hovedgruppe" v="infrastruktur" />
		<tag k="ssr:stedsnr" v="540254" />
		<tag k="ssr:type" v="adressenavn" />
	</node>
	<node lat="58.340709851651695" lon="8.592655943628783" id="-57617">
		<tag k="name" v="Nedre Tverrstredet" />
		<tag k="ssr:date" v="2019-12-27" />
		<tag k="ssr:gruppe" v="veg" />
		<tag k="ssr:hovedgruppe" v="infrastruktur" />
		<tag k="ssr:stedsnr" v="540459" />
		<tag k="ssr:type" v="adressenavn" />
	</node>
	<node lat="58.31888188233527" lon="8.549948448011309" id="-57618">
		<tag k="name" v="Mollandsveien" />
		<tag k="ssr:date" v="2019-12-27" />
		<tag k="ssr:gruppe" v="veg" />
		<tag k="ssr:hovedgruppe" v="infrastruktur" />
		<tag k="ssr:stedsnr" v="540559" />
		<tag k="ssr:type" v="adressenavn" />
	</node>
	<node lat="58.32873432253686" lon="8.573125119169035" id="-57687">
		<tag k="name" v="Åsveien" />
		<tag k="ssr:date" v="2019-12-27" />
		<tag k="ssr:gruppe" v="veg" />
		<tag k="ssr:hovedgruppe" v="infrastruktur" />
		<tag k="ssr:stedsnr" v="562569" />
		<tag k="ssr:type" v="adressenavn" />
	</node>
	<node lat="58.379829240453184" lon="8.675571940505364" id="-57748">
		<tag k="name" v="Feviktoppen" />
		<tag k="ssr:date" v="2019-12-27" />
		<tag k="ssr:gruppe" v="veg" />
		<tag k="ssr:hovedgruppe" v="infrastruktur" />
		<tag k="ssr:stedsnr" v="599291" />
		<tag k="ssr:type" v="adressenavn" />
	</node>
	<node lat="58.343690063190444" lon="8.595805028967938" id="-57750">
		<tag k="name" v="Levermyrveien" />
		<tag k="ssr:date" v="2019-12-27" />
		<tag k="ssr:gruppe" v="veg" />
		<tag k="ssr:hovedgruppe" v="infrastruktur" />
		<tag k="ssr:stedsnr" v="599520" />
		<tag k="ssr:type" v="adressenavn" />
	</node>
	<node lat="58.37306571295139" lon="8.671881241978916" id="-57753">
		<tag k="name" v="Klomra" />
		<tag k="ssr:date" v="2019-12-27" />
		<tag k="ssr:gruppe" v="veg" />
		<tag k="ssr:hovedgruppe" v="infrastruktur" />
		<tag k="ssr:stedsnr" v="599762" />
		<tag k="ssr:type" v="adressenavn" />
	</node>
	<node lat="58.375602148856636" lon="8.669105124314363" id="-57755">
		<tag k="name" v="Furufjell" />
		<tag k="ssr:date" v="2019-12-27" />
		<tag k="ssr:gruppe" v="veg" />
		<tag k="ssr:hovedgruppe" v="infrastruktur" />
		<tag k="ssr:stedsnr" v="599919" />
		<tag k="ssr:type" v="adressenavn" />
	</node>
	<node lat="58.32263453312626" lon="8.559704182832656" id="-57758">
		<tag k="name" v="Lillemyr" />
		<tag k="ssr:date" v="2019-12-27" />
		<tag k="ssr:gruppe" v="veg" />
		<tag k="ssr:hovedgruppe" v="infrastruktur" />
		<tag k="ssr:stedsnr" v="600047" />
		<tag k="ssr:type" v="adressenavn" />
	</node>
	<node lat="58.35797448662384" lon="8.602858711442167" id="-57759">
		<tag k="name" v="Skjeviga" />
		<tag k="ssr:date" v="2019-12-27" />
		<tag k="ssr:gruppe" v="veg" />
		<tag k="ssr:hovedgruppe" v="infrastruktur" />
		<tag k="ssr:stedsnr" v="600269" />
		<tag k="ssr:type" v="adressenavn" />
	</node>
	<node lat="58.373731579875205" lon="8.669926663504143" id="-57760">
		<tag k="name" v="Tykkåsen" />
		<tag k="ssr:date" v="2019-12-27" />
		<tag k="ssr:gruppe" v="veg" />
		<tag k="ssr:hovedgruppe" v="infrastruktur" />
		<tag k="ssr:stedsnr" v="600433" />
		<tag k="ssr:type" v="adressenavn" />
	</node>
	<node lat="58.38275112856863" lon="8.687590398608055" id="-57761">
		<tag k="name" v="Trolldalstunet" />
		<tag k="ssr:date" v="2019-12-27" />
		<tag k="ssr:gruppe" v="veg" />
		<tag k="ssr:hovedgruppe" v="infrastruktur" />
		<tag k="ssr:stedsnr" v="600535" />
		<tag k="ssr:type" v="adressenavn" />
	</node>
	<node lat="58.3390516684385" lon="8.592251173947993" id="-57762">
		<tag k="name" v="Jernbanebrygga" />
		<tag k="ssr:date" v="2019-12-27" />
		<tag k="ssr:gruppe" v="veg" />
		<tag k="ssr:hovedgruppe" v="infrastruktur" />
		<tag k="ssr:stedsnr" v="600943" />
		<tag k="ssr:type" v="adressenavn" />
	</node>
	<node lat="58.33537777558574" lon="8.544533325345334" id="-57764">
		<tag k="name" v="Væråsheia" />
		<tag k="ssr:date" v="2019-12-27" />
		<tag k="ssr:gruppe" v="veg" />
		<tag k="ssr:hovedgruppe" v="infrastruktur" />
		<tag k="ssr:stedsnr" v="604984" />
		<tag k="ssr:type" v="adressenavn" />
	</node>
	<node lat="58.35563888746793" lon="8.670972217421633" id="-57863">
		<tag k="name" v="Grefstadraua" />
		<tag k="ssr:date" v="2019-12-27" />
		<tag k="ssr:gruppe" v="farvann" />
		<tag k="ssr:hovedgruppe" v="sjø" />
		<tag k="ssr:stedsnr" v="637469" />
		<tag k="ssr:type" v="fiskeplassISjø" />
	</node>
	<node lat="58.33357535411479" lon="8.532627142259257" id="-57890">
		<tag k="name" v="Helvigåsen" />
		<tag k="ssr:date" v="2019-12-27" />
		<tag k="ssr:gruppe" v="veg" />
		<tag k="ssr:hovedgruppe" v="infrastruktur" />
		<tag k="ssr:stedsnr" v="659028" />
		<tag k="ssr:type" v="adressenavn" />
	</node>
	<node lat="58.316207194144305" lon="8.562865506739016" id="-57917">
		<tag k="name" v="Bjønneveien" />
		<tag k="ssr:date" v="2019-12-27" />
		<tag k="ssr:gruppe" v="veg" />
		<tag k="ssr:hovedgruppe" v="infrastruktur" />
		<tag k="ssr:stedsnr" v="660310" />
		<tag k="ssr:type" v="adressenavn" />
	</node>
	<node lat="58.337790158440335" lon="8.589994107444305" id="-57918">
		<tag k="name" v="Lauvstøveien" />
		<tag k="ssr:date" v="2019-12-27" />
		<tag k="ssr:gruppe" v="veg" />
		<tag k="ssr:hovedgruppe" v="infrastruktur" />
		<tag k="ssr:stedsnr" v="660026" />
		<tag k="ssr:type" v="adressenavn" />
	</node>
	<node lat="58.31583556739521" lon="8.566885635207509" id="-57920">
		<tag k="name" v="Gunder Danielsens vei" />
		<tag k="ssr:date" v="2019-12-27" />
		<tag k="ssr:gruppe" v="veg" />
		<tag k="ssr:hovedgruppe" v="infrastruktur" />
		<tag k="ssr:stedsnr" v="660248" />
		<tag k="ssr:type" v="adressenavn" />
	</node>
	<node lat="58.35354245517125" lon="8.59818033682419" id="-57921">
		<tag k="name" v="Bieveien" />
		<tag k="ssr:date" v="2019-12-27" />
		<tag k="ssr:gruppe" v="veg" />
		<tag k="ssr:hovedgruppe" v="infrastruktur" />
		<tag k="ssr:stedsnr" v="660269" />
		<tag k="ssr:type" v="adressenavn" />
	</node>
	<node lat="58.31083682536298" lon="8.558795164026954" id="-57922">
		<tag k="name" v="Østerskogen" />
		<tag k="ssr:date" v="2019-12-27" />
		<tag k="ssr:gruppe" v="veg" />
		<tag k="ssr:hovedgruppe" v="infrastruktur" />
		<tag k="ssr:stedsnr" v="661520" />
		<tag k="ssr:type" v="adressenavn" />
	</node>
	<node lat="58.380077469630315" lon="8.686800883304931" id="-57923">
		<tag k="name" v="Øvre Ranviga" />
		<tag k="ssr:date" v="2019-12-27" />
		<tag k="ssr:gruppe" v="veg" />
		<tag k="ssr:hovedgruppe" v="infrastruktur" />
		<tag k="ssr:stedsnr" v="661529" />
		<tag k="ssr:type" v="adressenavn" />
	</node>
	<node lat="58.33012439111406" lon="8.568952102690425" id="-57925">
		<tag k="name" v="Dr. Erichsens vei" />
		<tag k="ssr:date" v="2019-12-27" />
		<tag k="ssr:gruppe" v="veg" />
		<tag k="ssr:hovedgruppe" v="infrastruktur" />
		<tag k="ssr:stedsnr" v="661445" />
		<tag k="ssr:type" v="adressenavn" />
	</node>
	<node lat="58.35369222834547" lon="8.591700075498565" id="-57926">
		<tag k="name" v="Orrebakken" />
		<tag k="ssr:date" v="2019-12-27" />
		<tag k="ssr:gruppe" v="veg" />
		<tag k="ssr:hovedgruppe" v="infrastruktur" />
		<tag k="ssr:stedsnr" v="661464" />
		<tag k="ssr:type" v="adressenavn" />
	</node>
	<node lat="58.37208466496475" lon="8.65110146654996" id="-57927">
		<tag k="name" v="Moåsbakken" />
		<tag k="ssr:date" v="2019-12-27" />
		<tag k="ssr:gruppe" v="veg" />
		<tag k="ssr:hovedgruppe" v="infrastruktur" />
		<tag k="ssr:stedsnr" v="661749" />
		<tag k="ssr:type" v="adressenavn" />
	</node>
	<node lat="58.3463894879422" lon="8.593745912111112" id="-58036">
		<tag k="name" v="Furuli terrasse" />
		<tag k="ssr:date" v="2019-12-27" />
		<tag k="ssr:gruppe" v="veg" />
		<tag k="ssr:hovedgruppe" v="infrastruktur" />
		<tag k="ssr:stedsnr" v="721898" />
		<tag k="ssr:type" v="adressenavn" />
	</node>
	<node lat="58.348493001174546" lon="8.59585111817923" id="-58039">
		<tag k="name" v="Fladefjell" />
		<tag k="ssr:date" v="2019-12-27" />
		<tag k="ssr:gruppe" v="veg" />
		<tag k="ssr:hovedgruppe" v="infrastruktur" />
		<tag k="ssr:stedsnr" v="721294" />
		<tag k="ssr:type" v="adressenavn" />
	</node>
	<node lat="58.27753414454597" lon="8.467325469726847" id="-58040">
		<tag k="name" v="Eideveien" />
		<tag k="ssr:date" v="2019-12-27" />
		<tag k="ssr:gruppe" v="veg" />
		<tag k="ssr:hovedgruppe" v="infrastruktur" />
		<tag k="ssr:stedsnr" v="721466" />
		<tag k="ssr:type" v="adressenavn" />
	</node>
	<node lat="58.38596885418118" lon="8.70532206554453" id="-58044">
		<tag k="name" v="Ruagerveien" />
		<tag k="ssr:date" v="2019-12-27" />
		<tag k="ssr:gruppe" v="veg" />
		<tag k="ssr:hovedgruppe" v="infrastruktur" />
		<tag k="ssr:stedsnr" v="721858" />
		<tag k="ssr:type" v="adressenavn" />
	</node>
	<node lat="58.37548613095569" lon="8.66105602670074" id="-58045">
		<tag k="name" v="Vinterly" />
		<tag k="ssr:date" v="2019-12-27" />
		<tag k="ssr:gruppe" v="veg" />
		<tag k="ssr:hovedgruppe" v="infrastruktur" />
		<tag k="ssr:stedsnr" v="722250" />
		<tag k="ssr:type" v="adressenavn" />
	</node>
	<node lat="58.37557045945955" lon="8.679327222751597" id="-58047">
		<tag k="name" v="Verkstedveien" />
		<tag k="ssr:date" v="2019-12-27" />
		<tag k="ssr:gruppe" v="veg" />
		<tag k="ssr:hovedgruppe" v="infrastruktur" />
		<tag k="ssr:stedsnr" v="722480" />
		<tag k="ssr:type" v="adressenavn" />
	</node>
	<node lat="58.332749588349934" lon="8.588735640493905" id="-58116">
		<tag k="name" v="Soloddveien" />
		<tag k="ssr:date" v="2019-12-27" />
		<tag k="ssr:gruppe" v="veg" />
		<tag k="ssr:hovedgruppe" v="infrastruktur" />
		<tag k="ssr:stedsnr" v="732493" />
		<tag k="ssr:type" v="adressenavn" />
	</node>
	<node lat="58.350078499677025" lon="8.56924769628015" id="-58117">
		<tag k="name" v="Solbergåsen" />
		<tag k="ssr:date" v="2019-12-27" />
		<tag k="ssr:gruppe" v="veg" />
		<tag k="ssr:hovedgruppe" v="infrastruktur" />
		<tag k="ssr:stedsnr" v="732495" />
		<tag k="ssr:type" v="adressenavn" />
	</node>
	<node lat="58.38606907269015" lon="8.679033573951527" id="-58178">
		<tag k="name" v="Esketveitveien" />
		<tag k="ssr:date" v="2019-12-27" />
		<tag k="ssr:gruppe" v="veg" />
		<tag k="ssr:hovedgruppe" v="infrastruktur" />
		<tag k="ssr:stedsnr" v="781328" />
		<tag k="ssr:type" v="adressenavn" />
	</node>
	<node lat="58.33433320003966" lon="8.588737430619261" id="-58195">
		<tag k="name" v="Grømbukta" />
		<tag k="ssr:date" v="2019-12-27" />
		<tag k="ssr:gruppe" v="veg" />
		<tag k="ssr:hovedgruppe" v="infrastruktur" />
		<tag k="ssr:stedsnr" v="781396" />
		<tag k="ssr:type" v="adressenavn" />
	</node>
	<node lat="58.26827549147474" lon="8.509818444223178" id="-58214">
		<tag k="name" v="Homborsundhøyda" />
		<tag k="ssr:date" v="2019-12-27" />
		<tag k="ssr:gruppe" v="veg" />
		<tag k="ssr:hovedgruppe" v="infrastruktur" />
		<tag k="ssr:stedsnr" v="782060" />
		<tag k="ssr:type" v="adressenavn" />
	</node>
	<node lat="58.378961910569735" lon="8.701573730277639" id="-58215">
		<tag k="name" v="Haugenesveien" />
		<tag k="ssr:date" v="2019-12-27" />
		<tag k="ssr:gruppe" v="veg" />
		<tag k="ssr:hovedgruppe" v="infrastruktur" />
		<tag k="ssr:stedsnr" v="782174" />
		<tag k="ssr:type" v="adressenavn" />
	</node>
	<node lat="58.34114693815287" lon="8.600424940082895" id="-58216">
		<tag k="name" v="Hasseldalen" />
		<tag k="ssr:date" v="2019-12-27" />
		<tag k="ssr:gruppe" v="veg" />
		<tag k="ssr:hovedgruppe" v="infrastruktur" />
		<tag k="ssr:stedsnr" v="782177" />
		<tag k="ssr:type" v="adressenavn" />
	</node>
	<node lat="58.37388564841139" lon="8.679459976824997" id="-58217">
		<tag k="name" v="Lille Bergen" />
		<tag k="ssr:date" v="2019-12-27" />
		<tag k="ssr:gruppe" v="veg" />
		<tag k="ssr:hovedgruppe" v="infrastruktur" />
		<tag k="ssr:stedsnr" v="782193" />
		<tag k="ssr:type" v="adressenavn" />
	</node>
	<node lat="58.3537364525876" lon="8.596901078759341" id="-58218">
		<tag k="name" v="Bieheia" />
		<tag k="ssr:date" v="2019-12-27" />
		<tag k="ssr:gruppe" v="veg" />
		<tag k="ssr:hovedgruppe" v="infrastruktur" />
		<tag k="ssr:stedsnr" v="782245" />
		<tag k="ssr:type" v="adressenavn" />
	</node>
	<node lat="58.35250055986888" lon="8.554956464545292" id="-58219">
		<tag k="name" v="Nordås" />
		<tag k="ssr:date" v="2019-12-27" />
		<tag k="ssr:gruppe" v="veg" />
		<tag k="ssr:hovedgruppe" v="infrastruktur" />
		<tag k="ssr:stedsnr" v="782425" />
		<tag k="ssr:type" v="adressenavn" />
	</node>
	<node lat="58.33935827541974" lon="8.590209085068718" id="-58220">
		<tag k="name" v="Vardegaten" />
		<tag k="ssr:date" v="2019-12-27" />
		<tag k="ssr:gruppe" v="veg" />
		<tag k="ssr:hovedgruppe" v="infrastruktur" />
		<tag k="ssr:stedsnr" v="782445" />
		<tag k="ssr:type" v="adressenavn" />
	</node>
	<node lat="58.33564265131059" lon="8.537949165449872" id="-58221">
		<tag k="name" v="Toraldåsen" />
		<tag k="ssr:date" v="2019-12-27" />
		<tag k="ssr:gruppe" v="veg" />
		<tag k="ssr:hovedgruppe" v="infrastruktur" />
		<tag k="ssr:stedsnr" v="782544" />
		<tag k="ssr:type" v="adressenavn" />
	</node>
	<node lat="58.37909503591055" lon="8.685864816199516" id="-58222">
		<tag k="name" v="Ranvigveien" />
		<tag k="ssr:date" v="2019-12-27" />
		<tag k="ssr:gruppe" v="veg" />
		<tag k="ssr:hovedgruppe" v="infrastruktur" />
		<tag k="ssr:stedsnr" v="782772" />
		<tag k="ssr:type" v="adressenavn" />
	</node>
	<node lat="58.37335818469783" lon="8.672012613387015" id="-58223">
		<tag k="name" v="Randulf Hansens vei" />
		<tag k="ssr:date" v="2019-12-27" />
		<tag k="ssr:gruppe" v="veg" />
		<tag k="ssr:hovedgruppe" v="infrastruktur" />
		<tag k="ssr:stedsnr" v="782773" />
		<tag k="ssr:type" v="adressenavn" />
	</node>
	<node lat="58.37779200920935" lon="8.685961222642112" id="-58224">
		<tag k="name" v="Ranvigåsen" />
		<tag k="ssr:date" v="2019-12-27" />
		<tag k="ssr:gruppe" v="veg" />
		<tag k="ssr:hovedgruppe" v="infrastruktur" />
		<tag k="ssr:stedsnr" v="782781" />
		<tag k="ssr:type" v="adressenavn" />
	</node>
	<node lat="58.3451464526291" lon="8.554895684995856" id="-58225">
		<tag k="name" v="Rore hageby" />
		<tag k="ssr:date" v="2019-12-27" />
		<tag k="ssr:gruppe" v="veg" />
		<tag k="ssr:hovedgruppe" v="infrastruktur" />
		<tag k="ssr:stedsnr" v="782783" />
		<tag k="ssr:type" v="adressenavn" />
	</node>
	<node lat="58.33645076451874" lon="8.531559581815465" id="-58226">
		<tag k="name" v="Ronnengåsen" />
		<tag k="ssr:date" v="2019-12-27" />
		<tag k="ssr:gruppe" v="veg" />
		<tag k="ssr:hovedgruppe" v="infrastruktur" />
		<tag k="ssr:stedsnr" v="782785" />
		<tag k="ssr:type" v="adressenavn" />
	</node>
	<node lat="58.33758635407902" lon="8.588753470396382" id="-58227">
		<tag k="name" v="Gamlegrensen" />
		<tag k="ssr:date" v="2019-12-27" />
		<tag k="ssr:gruppe" v="veg" />
		<tag k="ssr:hovedgruppe" v="infrastruktur" />
		<tag k="ssr:stedsnr" v="782692" />
		<tag k="ssr:type" v="adressenavn" />
	</node>
	<node lat="58.36893441274567" lon="8.634425438558234" id="-58228">
		<tag k="name" v="Moy Moner" />
		<tag k="ssr:date" v="2019-12-27" />
		<tag k="ssr:gruppe" v="veg" />
		<tag k="ssr:hovedgruppe" v="infrastruktur" />
		<tag k="ssr:stedsnr" v="782736" />
		<tag k="ssr:type" v="adressenavn" />
	</node>
	<node lat="58.35229136020268" lon="8.59057813305915" id="-58229">
		<tag k="name" v="Rypeveien" />
		<tag k="ssr:date" v="2019-12-27" />
		<tag k="ssr:gruppe" v="veg" />
		<tag k="ssr:hovedgruppe" v="infrastruktur" />
		<tag k="ssr:stedsnr" v="782841" />
		<tag k="ssr:type" v="adressenavn" />
	</node>
	<node lat="58.35146118250508" lon="8.537143195680486" id="-58230">
		<tag k="name" v="Roresanden" />
		<tag k="ssr:date" v="2019-12-27" />
		<tag k="ssr:gruppe" v="veg" />
		<tag k="ssr:hovedgruppe" v="infrastruktur" />
		<tag k="ssr:stedsnr" v="782843" />
		<tag k="ssr:type" v="adressenavn" />
	</node>
	<node lat="58.27079307432124" lon="8.50565601583962" id="-58231">
		<tag k="name" v="Johan Markussens vei" />
		<tag k="ssr:date" v="2019-12-27" />
		<tag k="ssr:gruppe" v="veg" />
		<tag k="ssr:hovedgruppe" v="infrastruktur" />
		<tag k="ssr:stedsnr" v="782922" />
		<tag k="ssr:type" v="adressenavn" />
	</node>
	<node lat="58.3153329369215" lon="8.557689864439988" id="-58232">
		<tag k="name" v="Industriveien" />
		<tag k="ssr:date" v="2019-12-27" />
		<tag k="ssr:gruppe" v="veg" />
		<tag k="ssr:hovedgruppe" v="infrastruktur" />
		<tag k="ssr:stedsnr" v="782926" />
		<tag k="ssr:type" v="adressenavn" />
	</node>
	<node lat="58.34245349505484" lon="8.652864163650484" id="-58320">
		<tag k="name" v="Hesnessund, Østre" />
		<tag k="ssr:date" v="2020-09-03" />
		<tag k="ssr:gruppe" v="navigasjon" />
		<tag k="ssr:hovedgruppe" v="infrastruktur" />
		<tag k="ssr:stedsnr" v="813073" />
		<tag k="ssr:type" v="fyrlykt" />
	</node>
	<node lat="58.34846735197218" lon="8.560412459639885" id="-58371">
		<tag k="name" v="Holbekkveien" />
		<tag k="ssr:date" v="2019-12-27" />
		<tag k="ssr:gruppe" v="veg" />
		<tag k="ssr:hovedgruppe" v="infrastruktur" />
		<tag k="ssr:stedsnr" v="842022" />
		<tag k="ssr:type" v="adressenavn" />
	</node>
	<node lat="58.27419438724403" lon="8.492602514691724" id="-58389">
		<tag k="name" v="Engeveien" />
		<tag k="ssr:date" v="2019-12-27" />
		<tag k="ssr:gruppe" v="veg" />
		<tag k="ssr:hovedgruppe" v="infrastruktur" />
		<tag k="ssr:stedsnr" v="842429" />
		<tag k="ssr:type" v="adressenavn" />
	</node>
	<node lat="58.32105680010686" lon="8.566185095016035" id="-58399">
		<tag k="name" v="Myrsvingen" />
		<tag k="ssr:date" v="2019-12-27" />
		<tag k="ssr:gruppe" v="veg" />
		<tag k="ssr:hovedgruppe" v="infrastruktur" />
		<tag k="ssr:stedsnr" v="843099" />
		<tag k="ssr:type" v="adressenavn" />
	</node>
	<node lat="58.34085345137141" lon="8.592323251089793" id="-58400">
		<tag k="name" v="Lillerore" />
		<tag k="ssr:date" v="2019-12-27" />
		<tag k="ssr:gruppe" v="veg" />
		<tag k="ssr:hovedgruppe" v="infrastruktur" />
		<tag k="ssr:stedsnr" v="843049" />
		<tag k="ssr:type" v="adressenavn" />
	</node>
	<node lat="58.38819613279447" lon="8.706305766788232" id="-58401">
		<tag k="name" v="Vessøyveien" />
		<tag k="ssr:date" v="2019-12-27" />
		<tag k="ssr:gruppe" v="veg" />
		<tag k="ssr:hovedgruppe" v="infrastruktur" />
		<tag k="ssr:stedsnr" v="843394" />
		<tag k="ssr:type" v="adressenavn" />
	</node>
	<node lat="58.38453456953317" lon="8.700891938782409" id="-58402">
		<tag k="name" v="Bregneveien" />
		<tag k="ssr:date" v="2019-12-27" />
		<tag k="ssr:gruppe" v="veg" />
		<tag k="ssr:hovedgruppe" v="infrastruktur" />
		<tag k="ssr:stedsnr" v="843496" />
		<tag k="ssr:type" v="adressenavn" />
	</node>
	<node lat="58.36959585201458" lon="8.62493795970981" id="-58403">
		<tag k="name" v="Bringsværveien" />
		<tag k="ssr:date" v="2019-12-27" />
		<tag k="ssr:gruppe" v="veg" />
		<tag k="ssr:hovedgruppe" v="infrastruktur" />
		<tag k="ssr:stedsnr" v="843497" />
		<tag k="ssr:type" v="adressenavn" />
	</node>
	<node lat="58.341021156342954" lon="8.59318688511345" id="-58404">
		<tag k="name" v="Øvre Tverrstredet" />
		<tag k="ssr:date" v="2019-12-27" />
		<tag k="ssr:gruppe" v="veg" />
		<tag k="ssr:hovedgruppe" v="infrastruktur" />
		<tag k="ssr:stedsnr" v="843568" />
		<tag k="ssr:type" v="adressenavn" />
	</node>
	<node lat="58.33972582189436" lon="8.59522762560445" id="-58405">
		<tag k="name" v="Storgaten" />
		<tag k="ssr:date" v="2019-12-27" />
		<tag k="ssr:gruppe" v="veg" />
		<tag k="ssr:hovedgruppe" v="infrastruktur" />
		<tag k="ssr:stedsnr" v="843631" />
		<tag k="ssr:type" v="adressenavn" />
	</node>
	<node lat="58.37681396141896" lon="8.679647282186956" id="-58406">
		<tag k="name" v="Jordenebakken" />
		<tag k="ssr:date" v="2019-12-27" />
		<tag k="ssr:gruppe" v="veg" />
		<tag k="ssr:hovedgruppe" v="infrastruktur" />
		<tag k="ssr:stedsnr" v="843648" />
		<tag k="ssr:type" v="adressenavn" />
	</node>
	<node lat="58.340541266225884" lon="8.5839321075874" id="-58407">
		<tag k="name" v="Føreidsgate" />
		<tag k="ssr:date" v="2019-12-27" />
		<tag k="ssr:gruppe" v="veg" />
		<tag k="ssr:hovedgruppe" v="infrastruktur" />
		<tag k="ssr:stedsnr" v="843898" />
		<tag k="ssr:type" v="adressenavn" />
	</node>
	<node lat="58.32262677437043" lon="8.568951262881273" id="-58408">
		<tag k="name" v="Skjærgårdsveien" />
		<tag k="ssr:date" v="2019-12-27" />
		<tag k="ssr:gruppe" v="veg" />
		<tag k="ssr:hovedgruppe" v="infrastruktur" />
		<tag k="ssr:stedsnr" v="844242" />
		<tag k="ssr:type" v="adressenavn" />
	</node>
	<node lat="58.34208278821678" lon="8.593025256129032" id="-58409">
		<tag k="name" v="Torvet" />
		<tag k="ssr:date" v="2019-12-27" />
		<tag k="ssr:gruppe" v="veg" />
		<tag k="ssr:hovedgruppe" v="infrastruktur" />
		<tag k="ssr:stedsnr" v="844571" />
		<tag k="ssr:type" v="adressenavn" />
	</node>
	<node lat="58.37190017750192" lon="8.669800621640995" id="-58410">
		<tag k="name" v="Nedre Hausland" />
		<tag k="ssr:date" v="2019-12-27" />
		<tag k="ssr:gruppe" v="veg" />
		<tag k="ssr:hovedgruppe" v="infrastruktur" />
		<tag k="ssr:stedsnr" v="844440" />
		<tag k="ssr:type" v="adressenavn" />
	</node>
	<node lat="58.38253268801485" lon="8.676108332221325" id="-58412">
		<tag k="name" v="Trålumbakken" />
		<tag k="ssr:date" v="2019-12-27" />
		<tag k="ssr:gruppe" v="veg" />
		<tag k="ssr:hovedgruppe" v="infrastruktur" />
		<tag k="ssr:stedsnr" v="844591" />
		<tag k="ssr:type" v="adressenavn" />
	</node>
	<node lat="58.33044676125751" lon="8.583049684291995" id="-58413">
		<tag k="name" v="Terneveien" />
		<tag k="ssr:date" v="2019-12-27" />
		<tag k="ssr:gruppe" v="veg" />
		<tag k="ssr:hovedgruppe" v="infrastruktur" />
		<tag k="ssr:stedsnr" v="844698" />
		<tag k="ssr:type" v="adressenavn" />
	</node>
	<node lat="58.32810211777353" lon="8.576878938325724" id="-58484">
		<tag k="name" v="Turveien" />
		<tag k="ssr:date" v="2019-12-27" />
		<tag k="ssr:gruppe" v="veg" />
		<tag k="ssr:hovedgruppe" v="infrastruktur" />
		<tag k="ssr:stedsnr" v="861554" />
		<tag k="ssr:type" v="adressenavn" />
	</node>
	<node lat="58.33611666939723" lon="8.641391663752078" id="-58488">
		<tag k="name" v="Hesnessund, Vestre" />
		<tag k="ssr:date" v="2019-12-27" />
		<tag k="ssr:gruppe" v="navigasjon" />
		<tag k="ssr:hovedgruppe" v="infrastruktur" />
		<tag k="ssr:stedsnr" v="874106" />
		<tag k="ssr:type" v="fyrlykt" />
	</node>
	<node lat="58.3481609581533" lon="8.594028630204251" id="-58511">
		<tag k="name" v="Langhaveheia" />
		<tag k="ssr:date" v="2019-12-27" />
		<tag k="ssr:gruppe" v="veg" />
		<tag k="ssr:hovedgruppe" v="infrastruktur" />
		<tag k="ssr:stedsnr" v="936931" />
		<tag k="ssr:type" v="adressenavn" />
	</node>
	<node lat="58.38385738256215" lon="8.703044521234112" id="-58602">
		<tag k="name" v="Mellomveien" />
		<tag k="ssr:date" v="2019-12-27" />
		<tag k="ssr:gruppe" v="veg" />
		<tag k="ssr:hovedgruppe" v="infrastruktur" />
		<tag k="ssr:stedsnr" v="964614" />
		<tag k="ssr:type" v="adressenavn" />
	</node>
	<node lat="58.351644768786485" lon="8.589116847096195" id="-58603">
		<tag k="name" v="Svaneveien" />
		<tag k="ssr:date" v="2019-12-27" />
		<tag k="ssr:gruppe" v="veg" />
		<tag k="ssr:hovedgruppe" v="infrastruktur" />
		<tag k="ssr:stedsnr" v="964636" />
		<tag k="ssr:type" v="adressenavn" />
	</node>
	<node lat="58.368252060448874" lon="8.621744348723789" id="-58604">
		<tag k="name" v="J. M. Uglands vei" />
		<tag k="ssr:date" v="2019-12-27" />
		<tag k="ssr:gruppe" v="veg" />
		<tag k="ssr:hovedgruppe" v="infrastruktur" />
		<tag k="ssr:stedsnr" v="964911" />
		<tag k="ssr:type" v="adressenavn" />
	</node>
	<node lat="58.3414324114421" lon="8.594665567880407" id="-58606">
		<tag k="name" v="Skolegaten" />
		<tag k="ssr:date" v="2019-12-27" />
		<tag k="ssr:gruppe" v="veg" />
		<tag k="ssr:hovedgruppe" v="infrastruktur" />
		<tag k="ssr:stedsnr" v="965272" />
		<tag k="ssr:type" v="adressenavn" />
	</node>
	<node lat="58.341928738920316" lon="8.585103006929272" id="-58607">
		<tag k="name" v="Skaregrømsveien" />
		<tag k="ssr:date" v="2019-12-27" />
		<tag k="ssr:gruppe" v="veg" />
		<tag k="ssr:hovedgruppe" v="infrastruktur" />
		<tag k="ssr:stedsnr" v="965280" />
		<tag k="ssr:type" v="adressenavn" />
	</node>
	<node lat="58.385178018296294" lon="8.700657581978097" id="-58609">
		<tag k="name" v="Trolldalen øst" />
		<tag k="ssr:date" v="2019-12-27" />
		<tag k="ssr:gruppe" v="veg" />
		<tag k="ssr:hovedgruppe" v="infrastruktur" />
		<tag k="ssr:stedsnr" v="965577" />
		<tag k="ssr:type" v="adressenavn" />
	</node>
	<node lat="58.34061036637436" lon="8.593239278220622" id="-58613">
		<tag k="name" v="Vestregate" />
		<tag k="ssr:date" v="2019-12-27" />
		<tag k="ssr:gruppe" v="veg" />
		<tag k="ssr:hovedgruppe" v="infrastruktur" />
		<tag k="ssr:stedsnr" v="967126" />
		<tag k="ssr:type" v="adressenavn" />
	</node>
	<node lat="58.25407212500325" lon="8.530168176146654" id="-58698">
		<tag k="name" v="Homborsund fyr" />
		<tag k="ssr:date" v="2019-12-27" />
		<tag k="ssr:gruppe" v="veg" />
		<tag k="ssr:hovedgruppe" v="infrastruktur" />
		<tag k="ssr:stedsnr" v="973923" />
		<tag k="ssr:type" v="adressenavn" />
	</node>
	<node lat="58.37012011542182" lon="8.653263182174234" id="-58699">
		<tag k="name" v="Salverødheia" />
		<tag k="ssr:date" v="2019-12-27" />
		<tag k="ssr:gruppe" v="veg" />
		<tag k="ssr:hovedgruppe" v="infrastruktur" />
		<tag k="ssr:stedsnr" v="973924" />
		<tag k="ssr:type" v="adressenavn" />
	</node>
	<node lat="58.37757970804796" lon="8.67384047344864" id="-58805">
		<tag k="name" v="Lauvåsen" />
		<tag k="ssr:date" v="2019-12-27" />
		<tag k="ssr:gruppe" v="veg" />
		<tag k="ssr:hovedgruppe" v="infrastruktur" />
		<tag k="ssr:stedsnr" v="1054249" />
		<tag k="ssr:type" v="adressenavn" />
	</node>
	<node lat="58.26598821659966" lon="8.509820830668383" id="-58822">
		<tag k="name" v="Nalsteinveien" />
		<tag k="ssr:date" v="2019-12-27" />
		<tag k="ssr:gruppe" v="veg" />
		<tag k="ssr:hovedgruppe" v="infrastruktur" />
		<tag k="ssr:stedsnr" v="1054230" />
		<tag k="ssr:type" v="adressenavn" />
	</node>
	<node lat="58.302809997453664" lon="8.59560085559646" id="-58829">
		<tag k="name" v="Håøya båke" />
		<tag k="ssr:date" v="2020-02-25" />
		<tag k="ssr:gruppe" v="navigasjon" />
		<tag k="ssr:hovedgruppe" v="infrastruktur" />
		<tag k="ssr:stedsnr" v="1075640" />
		<tag k="ssr:type" v="båke" />
	</node>
	<node lat="58.38847861773381" lon="8.742138037676774" id="-58830">
		<tag k="name" v="Svartskjera varde" />
		<tag k="ssr:date" v="2020-02-25" />
		<tag k="ssr:gruppe" v="navigasjon" />
		<tag k="ssr:hovedgruppe" v="infrastruktur" />
		<tag k="ssr:stedsnr" v="1075608" />
		<tag k="ssr:type" v="sjøvarde" />
	</node>
	<node lat="58.33457431689989" lon="8.665122005104411" id="-58831">
		<tag k="name" v="Tønneholmen varde" />
		<tag k="ssr:date" v="2020-02-25" />
		<tag k="ssr:gruppe" v="navigasjon" />
		<tag k="ssr:hovedgruppe" v="infrastruktur" />
		<tag k="ssr:stedsnr" v="1075609" />
		<tag k="ssr:type" v="sjøvarde" />
	</node>
	<node lat="58.285541614471995" lon="8.581578626609033" id="-58832">
		<tag k="name" v="Håbåskjær varde" />
		<tag k="ssr:date" v="2020-02-25" />
		<tag k="ssr:gruppe" v="navigasjon" />
		<tag k="ssr:hovedgruppe" v="infrastruktur" />
		<tag k="ssr:stedsnr" v="1075642" />
		<tag k="ssr:type" v="sjøvarde" />
	</node>
	<node lat="58.31615741293468" lon="8.60261318348032" id="-58841">
		<tag k="name" v="Saleskjær varde" />
		<tag k="ssr:date" v="2020-02-28" />
		<tag k="ssr:gruppe" v="navigasjon" />
		<tag k="ssr:hovedgruppe" v="infrastruktur" />
		<tag k="ssr:stedsnr" v="1075716" />
		<tag k="ssr:type" v="sjøvarde" />
	</node>
</osm>
