<?xml version="1.0" encoding="UTF-8"?>
<osm generator="osmapis" version="0.6">
	<node changeset="59321142" id="4921731094" lat="59.4057361" lon="8.84705" timestamp="2018-05-27T19:52:13Z" uid="3842253" user="NKA_import" version="2">
		<tag k="alt_name" v="Gautiilstulen" />
		<tag k="historic" v="shieling" />
		<tag k="name" v="Gautil" />
		<tag k="place" v="locality" />
		<tag k="ssr:stedsnr" v="694132" />
		<tag k="ssr:type" v="gammelBosettingsplass" />
	</node>
	<node changeset="59321142" id="5646284921" lat="59.5127333" lon="9.0483222" timestamp="2018-05-27T19:51:39Z" uid="3842253" user="NKA_import" version="1">
		<tag k="historic" v="shieling" />
		<tag k="name" v="Skarestulen" />
		<tag k="place" v="locality" />
		<tag k="ssr:stedsnr" v="451582" />
		<tag k="ssr:type" v="gammelBosettingsplass" />
	</node>
	<node changeset="59321142" id="5646284922" lat="59.5056056" lon="9.0376055" timestamp="2018-05-27T19:51:39Z" uid="3842253" user="NKA_import" version="1">
		<tag k="name" v="Sud Årmot" />
		<tag k="place" v="locality" />
		<tag k="ssr:stedsnr" v="756541" />
		<tag k="ssr:type" v="gammelBosettingsplass" />
	</node>
	<node changeset="70279990" id="5646284923" lat="59.437131" lon="9.046766" timestamp="2019-05-15T14:57:23Z" uid="3497659" user="NKA" version="6">
		<tag k="amenity" v="school" />
		<tag k="capacity" v="128" />
		<tag k="email" v="postmottak.fosk@bo.kommune.no" />
		<tag k="fee" v="no" />
		<tag k="grades" v="1-7" />
		<tag k="isced:level" v="1" />
		<tag k="name" v="Folkestad skule" />
		<tag k="operator" v="Bø kommune" />
		<tag k="operator:type" v="public" />
		<tag k="phone" v="+47 35 05 94 00" />
		<tag k="ref:gsi" v="8066" />
		<tag k="ref:udir_nsr" v="1006983" />
		<tag k="ssr:stedsnr" v="451628" />
		<tag k="ssr:type" v="skole" />
	</node>
	<node changeset="59321142" id="5646284924" lat="59.4308472" lon="9.1158" timestamp="2018-05-27T19:51:39Z" uid="3842253" user="NKA_import" version="1">
		<tag k="name" v="Langkås" />
		<tag k="place" v="farm" />
		<tag k="ssr:stedsnr" v="791378" />
		<tag k="ssr:type" v="bruk" />
	</node>
	<node changeset="59321142" id="5646284925" lat="59.5068972" lon="9.1290917" timestamp="2018-05-27T19:51:39Z" uid="3842253" user="NKA_import" version="1">
		<tag k="name" v="Hegna" />
		<tag k="place" v="farm" />
		<tag k="ssr:stedsnr" v="3422" />
		<tag k="ssr:type" v="bruk" />
	</node>
	<node changeset="59321142" id="5646284926" lat="59.5046139" lon="9.1373056" timestamp="2018-05-27T19:51:39Z" uid="3842253" user="NKA_import" version="1">
		<tag k="fixme" v="consider place=farm" />
		<tag k="name" v="Plassen" />
		<tag k="place" v="isolated_dwelling" />
		<tag k="ssr:stedsnr" v="3424" />
		<tag k="ssr:type" v="eneboligMindreBoligbygg" />
	</node>
	<node changeset="59321142" id="5646284927" lat="59.3854667" lon="9.0593111" timestamp="2018-05-27T19:51:40Z" uid="3842253" user="NKA_import" version="1">
		<tag k="name" v="Bergland" />
		<tag k="place" v="farm" />
		<tag k="ssr:stedsnr" v="791303" />
		<tag k="ssr:type" v="bruk" />
	</node>
	<node changeset="59321142" id="5646284928" lat="59.375475" lon="9.0345417" timestamp="2018-05-27T19:51:40Z" uid="3842253" user="NKA_import" version="1">
		<tag k="fixme" v="consider place=hamlet" />
		<tag k="name" v="Åse" />
		<tag k="place" v="farm" />
		<tag k="ssr:stedsnr" v="791327" />
		<tag k="ssr:type" v="gard" />
	</node>
	<node changeset="59321142" id="5646284929" lat="59.4290889" lon="8.9905639" timestamp="2018-05-27T19:51:40Z" uid="3842253" user="NKA_import" version="1">
		<tag k="name" v="Kåsa" />
		<tag k="place" v="locality" />
		<tag k="ssr:stedsnr" v="452855" />
		<tag k="ssr:type" v="gammelBosettingsplass" />
	</node>
	<node changeset="59321142" id="5646284930" lat="59.3824611" lon="8.996775" timestamp="2018-05-27T19:51:40Z" uid="3842253" user="NKA_import" version="1">
		<tag k="name" v="Dagstjønndalen" />
		<tag k="place" v="farm" />
		<tag k="ssr:stedsnr" v="24066" />
		<tag k="ssr:type" v="bruk" />
	</node>
	<node changeset="59321142" id="5646284931" lat="59.4113389" lon="8.9068278" timestamp="2018-05-27T19:51:40Z" uid="3842253" user="NKA_import" version="1">
		<tag k="fixme" v="consider place=hamlet" />
		<tag k="name" v="Grave" />
		<tag k="place" v="hamlet" />
		<tag k="ssr:stedsnr" v="791368" />
		<tag k="ssr:type" v="gard" />
	</node>
	<node changeset="59321142" id="5646284932" lat="59.4050266" lon="8.9653962" timestamp="2018-05-27T19:51:40Z" uid="3842253" user="NKA_import" version="1">
		<tag k="fixme" v="consider place=hamlet" />
		<tag k="name" v="Skoe" />
		<tag k="place" v="hamlet" />
		<tag k="ssr:stedsnr" v="791371" />
		<tag k="ssr:type" v="gard" />
	</node>
	<node changeset="59321142" id="5646284933" lat="59.4363082" lon="8.8634702" timestamp="2018-05-27T19:51:40Z" uid="3842253" user="NKA_import" version="1">
		<tag k="name" v="Kasin" />
		<tag k="place" v="hamlet" />
		<tag k="ssr:stedsnr" v="24421" />
		<tag k="ssr:type" v="grend" />
	</node>
	<node changeset="59321142" id="5646284934" lat="59.4380861" lon="9.0164667" timestamp="2018-05-27T19:51:40Z" uid="3842253" user="NKA_import" version="1">
		<tag k="name" v="Åsane" />
		<tag k="place" v="farm" />
		<tag k="ssr:stedsnr" v="791414" />
		<tag k="ssr:type" v="bruk" />
	</node>
	<node changeset="59321142" id="5646284935" lat="59.4501306" lon="9.1141694" timestamp="2018-05-27T19:51:40Z" uid="3842253" user="NKA_import" version="1">
		<tag k="name" v="Tamburkåsa" />
		<tag k="place" v="farm" />
		<tag k="ssr:stedsnr" v="791424" />
		<tag k="ssr:type" v="bruk" />
	</node>
	<node changeset="59321142" id="5646284936" lat="59.4553028" lon="9.0670583" timestamp="2018-05-27T19:51:40Z" uid="3842253" user="NKA_import" version="1">
		<tag k="name" v="Ufs" />
		<tag k="place" v="farm" />
		<tag k="ssr:stedsnr" v="791428" />
		<tag k="ssr:type" v="bruk" />
	</node>
	<node changeset="59321142" id="5646284937" lat="59.3957861" lon="8.9623194" timestamp="2018-05-27T19:51:40Z" uid="3842253" user="NKA_import" version="1">
		<tag k="name" v="Åsheimkåsa" />
		<tag k="place" v="locality" />
		<tag k="ssr:stedsnr" v="25051" />
		<tag k="ssr:type" v="gammelBosettingsplass" />
	</node>
	<node changeset="59321142" id="5646284938" lat="59.4511528" lon="9.0447444" timestamp="2018-05-27T19:51:41Z" uid="3842253" user="NKA_import" version="1">
		<tag k="alt_name" v="Bjørnefell" />
		<tag k="name" v="Bjønnfeld" />
		<tag k="place" v="farm" />
		<tag k="ssr:stedsnr" v="791432" />
		<tag k="ssr:type" v="bruk" />
	</node>
	<node changeset="59321142" id="5646284939" lat="59.4546092" lon="9.0317539" timestamp="2018-05-27T19:51:41Z" uid="3842253" user="NKA_import" version="1">
		<tag k="alt_name" v="Østeli;Østerli" />
		<tag k="fixme" v="consider place=hamlet" />
		<tag k="name" v="Østli" />
		<tag k="place" v="hamlet" />
		<tag k="ssr:stedsnr" v="791433" />
		<tag k="ssr:type" v="gard" />
	</node>
	<node changeset="59321142" id="5646284940" lat="59.4794" lon="9.0865444" timestamp="2018-05-27T19:51:41Z" uid="3842253" user="NKA_import" version="1">
		<tag k="name" v="Jylland" />
		<tag k="place" v="locality" />
		<tag k="ssr:stedsnr" v="25450" />
		<tag k="ssr:type" v="gammelBosettingsplass" />
	</node>
	<node changeset="59321142" id="5646284941" lat="59.4205444" lon="9.0421417" timestamp="2018-05-27T19:51:41Z" uid="3842253" user="NKA_import" version="1">
		<tag k="name" v="Haugane" />
		<tag k="place" v="farm" />
		<tag k="ssr:stedsnr" v="25494" />
		<tag k="ssr:type" v="bruk" />
	</node>
	<node changeset="59321142" id="5646284942" lat="59.4208722" lon="9.0176806" timestamp="2018-05-27T19:51:41Z" uid="3842253" user="NKA_import" version="1">
		<tag k="name" v="Bruserud" />
		<tag k="place" v="farm" />
		<tag k="ssr:stedsnr" v="25498" />
		<tag k="ssr:type" v="bruk" />
	</node>
	<node changeset="59321142" id="5646284943" lat="59.4653306" lon="9.0332" timestamp="2018-05-27T19:51:41Z" uid="3842253" user="NKA_import" version="1">
		<tag k="name" v="Håråldskar" />
		<tag k="place" v="locality" />
		<tag k="ssr:stedsnr" v="453512" />
		<tag k="ssr:type" v="gammelBosettingsplass" />
	</node>
	<node changeset="59321142" id="5646284944" lat="59.4554364" lon="9.0299634" timestamp="2018-05-27T19:51:41Z" uid="3842253" user="NKA_import" version="1">
		<tag k="alt_name" v="Lifjell Turisthotell" />
		<tag k="name" v="Lifjell hotell" />
		<tag k="place" v="locality" />
		<tag k="ssr:stedsnr" v="791483" />
		<tag k="ssr:type" v="hotell" />
	</node>
	<node changeset="59321142" id="5646284945" lat="59.4253889" lon="9.0322806" timestamp="2018-05-27T19:51:41Z" uid="3842253" user="NKA_import" version="1">
		<tag k="name" v="Storrønningen" />
		<tag k="place" v="farm" />
		<tag k="ssr:stedsnr" v="25567" />
		<tag k="ssr:type" v="bruk" />
	</node>
	<node changeset="59321142" id="5646284946" lat="59.4892221" lon="9.1560515" timestamp="2018-05-27T19:51:41Z" uid="3842253" user="NKA_import" version="1">
		<tag k="name" v="Roheim" />
		<tag k="place" v="hamlet" />
		<tag k="ssr:stedsnr" v="25602" />
		<tag k="ssr:type" v="grend" />
	</node>
	<node changeset="59321142" id="5646284947" lat="59.42665" lon="8.9937444" timestamp="2018-05-27T19:51:41Z" uid="3842253" user="NKA_import" version="1">
		<tag k="name" v="Vreim" />
		<tag k="place" v="hamlet" />
		<tag k="ssr:stedsnr" v="453838" />
		<tag k="ssr:type" v="bruk" />
	</node>
	<node changeset="59321142" id="5646284948" lat="59.4978417" lon="9.1475389" timestamp="2018-05-27T19:51:41Z" uid="3842253" user="NKA_import" version="1">
		<tag k="alt_name" v="Belatjørn" />
		<tag k="fixme" v="consider place=hamlet" />
		<tag k="name" v="Belatjønn" />
		<tag k="place" v="farm" />
		<tag k="ssr:stedsnr" v="791561" />
		<tag k="ssr:type" v="gard" />
	</node>
	<node changeset="59321142" id="5646284949" lat="59.4445194" lon="9.0222083" timestamp="2018-05-27T19:51:42Z" uid="3842253" user="NKA_import" version="1">
		<tag k="fixme" v="consider place=farm" />
		<tag k="name" v="Heiberg" />
		<tag k="place" v="isolated_dwelling" />
		<tag k="ssr:stedsnr" v="26016" />
		<tag k="ssr:type" v="eneboligMindreBoligbygg" />
	</node>
	<node changeset="59321142" id="5646284950" lat="59.495212" lon="9.0814567" timestamp="2018-05-27T19:51:42Z" uid="3842253" user="NKA_import" version="1">
		<tag k="alt_name" v="Stokkland" />
		<tag k="fixme" v="consider place=hamlet" />
		<tag k="name" v="Stokland" />
		<tag k="place" v="hamlet" />
		<tag k="ssr:stedsnr" v="791565" />
		<tag k="ssr:type" v="gard" />
	</node>
	<node changeset="59321142" id="5646284951" lat="59.47575" lon="9.0977972" timestamp="2018-05-27T19:51:42Z" uid="3842253" user="NKA_import" version="1">
		<tag k="name" v="Storemyr" />
		<tag k="place" v="farm" />
		<tag k="ssr:stedsnr" v="791582" />
		<tag k="ssr:type" v="bruk" />
	</node>
	<node changeset="59321142" id="5646284952" lat="59.4887675" lon="9.1280547" timestamp="2018-05-27T19:51:42Z" uid="3842253" user="NKA_import" version="1">
		<tag k="building" v="cabin" />
		<tag k="name" v="Tjønnås" />
		<tag k="place" v="isolated_dwelling" />
		<tag k="ssr:stedsnr" v="791603" />
		<tag k="ssr:type" v="fritidsbolig" />
	</node>
	<node changeset="59321142" id="5646284953" lat="59.4151333" lon="8.9190194" timestamp="2018-05-27T19:51:42Z" uid="3842253" user="NKA_import" version="1">
		<tag k="name" v="Moen" />
		<tag k="place" v="farm" />
		<tag k="ssr:stedsnr" v="26120" />
		<tag k="ssr:type" v="bruk" />
	</node>
	<node changeset="59321142" id="5646284954" lat="59.48505" lon="9.1580167" timestamp="2018-05-27T19:51:42Z" uid="3842253" user="NKA_import" version="1">
		<tag k="name" v="Lauvstad" />
		<tag k="place" v="farm" />
		<tag k="ssr:stedsnr" v="791605" />
		<tag k="ssr:type" v="bruk" />
	</node>
	<node changeset="59321142" id="5646284955" lat="59.3739861" lon="8.950675" timestamp="2018-05-27T19:51:42Z" uid="3842253" user="NKA_import" version="1">
		<tag k="name" v="Uvdal" />
		<tag k="place" v="farm" />
		<tag k="ssr:stedsnr" v="487294" />
		<tag k="ssr:type" v="bruk" />
	</node>
	<node changeset="59321142" id="5646284956" lat="59.3949502" lon="8.8984754" timestamp="2018-05-27T19:51:42Z" uid="3842253" user="NKA_import" version="1">
		<tag k="building" v="cabin" />
		<tag k="historic" v="shieling" />
		<tag k="name" v="Sandstul" />
		<tag k="place" v="isolated_dwelling" />
		<tag k="ssr:stedsnr" v="487390" />
		<tag k="ssr:type" v="fritidsbolig" />
	</node>
	<node changeset="59321142" id="5646284957" lat="59.5113778" lon="9.1348944" timestamp="2018-05-27T19:51:42Z" uid="3842253" user="NKA_import" version="1">
		<tag k="name" v="Vatnar" />
		<tag k="place" v="farm" />
		<tag k="ssr:stedsnr" v="792453" />
		<tag k="ssr:type" v="bruk" />
	</node>
	<node changeset="59321142" id="5646284958" lat="59.4238722" lon="8.8767" timestamp="2018-05-27T19:51:42Z" uid="3842253" user="NKA_import" version="1">
		<tag k="name" v="Øverbømoen" />
		<tag k="place" v="farm" />
		<tag k="ssr:stedsnr" v="487458" />
		<tag k="ssr:type" v="bruk" />
	</node>
	<node changeset="59321142" id="5646284959" lat="59.4031806" lon="9.046175" timestamp="2018-05-27T19:51:42Z" uid="3842253" user="NKA_import" version="1">
		<tag k="name" v="Kåsa" />
		<tag k="place" v="farm" />
		<tag k="ssr:stedsnr" v="26296" />
		<tag k="ssr:type" v="bruk" />
	</node>
	<node changeset="59321142" id="5646284960" lat="59.4257889" lon="9.1245194" timestamp="2018-05-27T19:51:43Z" uid="3842253" user="NKA_import" version="1">
		<tag k="name" v="Lid" />
		<tag k="place" v="farm" />
		<tag k="ssr:stedsnr" v="26314" />
		<tag k="ssr:type" v="bruk" />
	</node>
	<node changeset="59321142" id="5646284961" lat="59.441258" lon="9.0564114" timestamp="2018-05-27T19:51:43Z" uid="3842253" user="NKA_import" version="1">
		<tag k="alt_name" v="Eikja" />
		<tag k="fixme" v="consider place=hamlet" />
		<tag k="name" v="Eika" />
		<tag k="place" v="hamlet" />
		<tag k="ssr:stedsnr" v="487509" />
		<tag k="ssr:type" v="gard" />
	</node>
	<node changeset="59321142" id="5646284962" lat="59.3756747" lon="9.0059047" timestamp="2018-05-27T19:51:43Z" uid="3842253" user="NKA_import" version="1">
		<tag k="name" v="Moen" />
		<tag k="place" v="farm" />
		<tag k="ssr:stedsnr" v="26428" />
		<tag k="ssr:type" v="bruk" />
	</node>
	<node changeset="59321142" id="5646284963" lat="59.4186694" lon="8.9681306" timestamp="2018-05-27T19:51:43Z" uid="3842253" user="NKA_import" version="1">
		<tag k="name" v="Haugen" />
		<tag k="place" v="farm" />
		<tag k="ssr:stedsnr" v="814076" />
		<tag k="ssr:type" v="bruk" />
	</node>
	<node changeset="59321142" id="5646284964" lat="59.4907861" lon="9.0824361" timestamp="2018-05-27T19:51:43Z" uid="3842253" user="NKA_import" version="1">
		<tag k="name" v="Tveiten" />
		<tag k="place" v="farm" />
		<tag k="ssr:stedsnr" v="487668" />
		<tag k="ssr:type" v="bruk" />
	</node>
	<node changeset="59321142" id="5646284965" lat="59.4350139" lon="9.063675" timestamp="2018-05-27T19:51:43Z" uid="3842253" user="NKA_import" version="1">
		<tag k="name" v="Hellekås" />
		<tag k="place" v="farm" />
		<tag k="ssr:stedsnr" v="814153" />
		<tag k="ssr:type" v="bruk" />
	</node>
	<node changeset="59321142" id="5646284966" lat="59.3907972" lon="9.064625" timestamp="2018-05-27T19:51:43Z" uid="3842253" user="NKA_import" version="1">
		<tag k="name" v="Steinsrud" />
		<tag k="place" v="farm" />
		<tag k="ssr:stedsnr" v="488295" />
		<tag k="ssr:type" v="bruk" />
	</node>
	<node changeset="59321142" id="5646284967" lat="59.5202694" lon="9.0180639" timestamp="2018-05-27T19:51:43Z" uid="3842253" user="NKA_import" version="1">
		<tag k="historic" v="shieling" />
		<tag k="name" v="Årlia" />
		<tag k="place" v="locality" />
		<tag k="ssr:stedsnr" v="488381" />
		<tag k="ssr:type" v="seterStøl" />
	</node>
	<node changeset="59321142" id="5646284968" lat="59.389625" lon="9.0588639" timestamp="2018-05-27T19:51:43Z" uid="3842253" user="NKA_import" version="1">
		<tag k="name" v="Roe" />
		<tag k="place" v="farm" />
		<tag k="ssr:stedsnr" v="814436" />
		<tag k="ssr:type" v="bruk" />
	</node>
	<node changeset="59321142" id="5646284969" lat="59.4190722" lon="9.0755639" timestamp="2018-05-27T19:51:43Z" uid="3842253" user="NKA_import" version="1">
		<tag k="alt_name" v="Nordre Sanden" />
		<tag k="fixme" v="consider place=hamlet" />
		<tag k="name" v="Sanda" />
		<tag k="place" v="farm" />
		<tag k="ssr:stedsnr" v="488398" />
		<tag k="ssr:type" v="gard" />
	</node>
	<node changeset="59321142" id="5646284970" lat="59.42305" lon="9.0222833" timestamp="2018-05-27T19:51:43Z" uid="3842253" user="NKA_import" version="1">
		<tag k="name" v="Bruserud" />
		<tag k="place" v="farm" />
		<tag k="ssr:stedsnr" v="26540" />
		<tag k="ssr:type" v="bruk" />
	</node>
	<node changeset="59321142" id="5646284971" lat="59.4205333" lon="9.0151389" timestamp="2018-05-27T19:51:44Z" uid="3842253" user="NKA_import" version="1">
		<tag k="name" v="Kåsa" />
		<tag k="place" v="farm" />
		<tag k="ssr:stedsnr" v="814532" />
		<tag k="ssr:type" v="bruk" />
	</node>
	<node changeset="59321142" id="5646284972" lat="59.4559116" lon="8.9704526" timestamp="2018-05-27T19:51:44Z" uid="3842253" user="NKA_import" version="1">
		<tag k="building" v="cabin" />
		<tag k="historic" v="shieling" />
		<tag k="name" v="Åstul" />
		<tag k="place" v="isolated_dwelling" />
		<tag k="ssr:stedsnr" v="488436" />
		<tag k="ssr:type" v="fritidsbolig" />
	</node>
	<node changeset="59321142" id="5646284973" lat="59.4923583" lon="9.0858389" timestamp="2018-05-27T19:51:44Z" uid="3842253" user="NKA_import" version="1">
		<tag k="name" v="Tveiten" />
		<tag k="place" v="farm" />
		<tag k="ssr:stedsnr" v="814590" />
		<tag k="ssr:type" v="bruk" />
	</node>
	<node changeset="59321142" id="5646284974" lat="59.4157806" lon="9.0734361" timestamp="2018-05-27T19:51:44Z" uid="3842253" user="NKA_import" version="1">
		<tag k="fixme" v="consider place=hamlet" />
		<tag k="name" v="Kleppen" />
		<tag k="place" v="farm" />
		<tag k="ssr:stedsnr" v="26679" />
		<tag k="ssr:type" v="gard" />
	</node>
	<node changeset="59321142" id="5646284975" lat="59.4643306" lon="9.0037417" timestamp="2018-05-27T19:51:44Z" uid="3842253" user="NKA_import" version="1">
		<tag k="name" v="Vårbu" />
		<tag k="place" v="locality" />
		<tag k="ssr:stedsnr" v="488449" />
		<tag k="ssr:type" v="gammelBosettingsplass" />
	</node>
	<node changeset="59321142" id="5646284976" lat="59.4699972" lon="9.0702806" timestamp="2018-05-27T19:51:44Z" uid="3842253" user="NKA_import" version="1">
		<tag k="alt_name" v="Simonbekk" />
		<tag k="name" v="Simonsbekk" />
		<tag k="place" v="farm" />
		<tag k="ssr:stedsnr" v="488451" />
		<tag k="ssr:type" v="bruk" />
	</node>
	<node changeset="59321142" id="5646284977" lat="59.4180972" lon="9.0734139" timestamp="2018-05-27T19:51:44Z" uid="3842253" user="NKA_import" version="1">
		<tag k="name" v="Haugerud" />
		<tag k="place" v="farm" />
		<tag k="ssr:stedsnr" v="26730" />
		<tag k="ssr:type" v="bruk" />
	</node>
	<node changeset="59321142" id="5646284978" lat="59.4141194" lon="8.9553556" timestamp="2018-05-27T19:51:44Z" uid="3842253" user="NKA_import" version="1">
		<tag k="name" v="Skruvrud" />
		<tag k="place" v="farm" />
		<tag k="ssr:stedsnr" v="815051" />
		<tag k="ssr:type" v="bruk" />
	</node>
	<node changeset="59321142" id="5646284979" lat="59.4106806" lon="8.98985" timestamp="2018-05-27T19:51:44Z" uid="3842253" user="NKA_import" version="1">
		<tag k="name" v="Skogheim" />
		<tag k="place" v="farm" />
		<tag k="ssr:stedsnr" v="815068" />
		<tag k="ssr:type" v="bruk" />
	</node>
	<node changeset="59321142" id="5646284980" lat="59.3878278" lon="8.9529083" timestamp="2018-05-27T19:51:44Z" uid="3842253" user="NKA_import" version="1">
		<tag k="name" v="Lia" />
		<tag k="place" v="locality" />
		<tag k="ssr:stedsnr" v="509068" />
		<tag k="ssr:type" v="byggForJordbrukFiskeOgFangst" />
	</node>
	<node changeset="59321142" id="5646284981" lat="59.4072861" lon="9.1202611" timestamp="2018-05-27T19:51:44Z" uid="3842253" user="NKA_import" version="1">
		<tag k="name" v="Haugdalen" />
		<tag k="place" v="farm" />
		<tag k="ssr:stedsnr" v="26977" />
		<tag k="ssr:type" v="bruk" />
	</node>
	<node changeset="59321142" id="5646284982" lat="59.4629389" lon="8.9522333" timestamp="2018-05-27T19:51:45Z" uid="3842253" user="NKA_import" version="1">
		<tag k="name" v="Myrland" />
		<tag k="place" v="locality" />
		<tag k="ssr:stedsnr" v="815092" />
		<tag k="ssr:type" v="gammelBosettingsplass" />
	</node>
	<node changeset="59321142" id="5646284983" lat="59.4593007" lon="8.9563898" timestamp="2018-05-27T19:51:45Z" uid="3842253" user="NKA_import" version="1">
		<tag k="building" v="farm_auxiliary" />
		<tag k="historic" v="shieling" />
		<tag k="name" v="Kringlåsstulane" />
		<tag k="place" v="locality" />
		<tag k="ssr:stedsnr" v="815100" />
		<tag k="ssr:type" v="byggForJordbrukFiskeOgFangst" />
	</node>
	<node changeset="59321142" id="5646284984" lat="59.442575" lon="9.0144" timestamp="2018-05-27T19:51:45Z" uid="3842253" user="NKA_import" version="1">
		<tag k="name" v="Liene" />
		<tag k="place" v="farm" />
		<tag k="ssr:stedsnr" v="510520" />
		<tag k="ssr:type" v="bruk" />
	</node>
	<node changeset="59321142" id="5646284985" lat="59.4268139" lon="9.0524111" timestamp="2018-05-27T19:51:45Z" uid="3842253" user="NKA_import" version="1">
		<tag k="name" v="Pålskås" />
		<tag k="place" v="farm" />
		<tag k="ssr:stedsnr" v="510563" />
		<tag k="ssr:type" v="bruk" />
	</node>
	<node changeset="59321142" id="5646284986" lat="59.4890269" lon="9.0100361" timestamp="2018-05-27T19:51:45Z" uid="3842253" user="NKA_import" version="1">
		<tag k="historic" v="shieling" />
		<tag k="name" v="Fjellstulroe" />
		<tag k="place" v="locality" />
		<tag k="ssr:stedsnr" v="27564" />
		<tag k="ssr:type" v="gammelBosettingsplass" />
	</node>
	<node changeset="59321142" id="5646284987" lat="59.4520056" lon="9.11405" timestamp="2018-05-27T19:51:45Z" uid="3842253" user="NKA_import" version="1">
		<tag k="name" v="Fykerud" />
		<tag k="place" v="locality" />
		<tag k="ssr:stedsnr" v="815257" />
		<tag k="ssr:type" v="gammelBosettingsplass" />
	</node>
	<node changeset="59321142" id="5646284988" lat="59.4431667" lon="9.0094222" timestamp="2018-05-27T19:51:45Z" uid="3842253" user="NKA_import" version="1">
		<tag k="name" v="Sletteli" />
		<tag k="place" v="farm" />
		<tag k="ssr:stedsnr" v="511030" />
		<tag k="ssr:type" v="bruk" />
	</node>
	<node changeset="59321142" id="5646284989" lat="59.4919683" lon="9.0459866" timestamp="2018-05-27T19:51:45Z" uid="3842253" user="NKA_import" version="1">
		<tag k="building" v="farm_auxiliary" />
		<tag k="historic" v="shieling" />
		<tag k="name" v="Skogkåsstulen" />
		<tag k="place" v="locality" />
		<tag k="ssr:stedsnr" v="27574" />
		<tag k="ssr:type" v="byggForJordbrukFiskeOgFangst" />
	</node>
	<node changeset="59321142" id="5646284990" lat="59.4045333" lon="9.0435056" timestamp="2018-05-27T19:51:45Z" uid="3842253" user="NKA_import" version="1">
		<tag k="name" v="Nistås" />
		<tag k="place" v="farm" />
		<tag k="ssr:stedsnr" v="815258" />
		<tag k="ssr:type" v="bruk" />
	</node>
	<node changeset="59321142" id="5646284991" lat="59.4496056" lon="9.0734667" timestamp="2018-05-27T19:51:45Z" uid="3842253" user="NKA_import" version="1">
		<tag k="name" v="Steintjønndalen" />
		<tag k="place" v="locality" />
		<tag k="ssr:stedsnr" v="815263" />
		<tag k="ssr:type" v="gammelBosettingsplass" />
	</node>
	<node changeset="59321142" id="5646284992" lat="59.4319861" lon="8.9948611" timestamp="2018-05-27T19:51:46Z" uid="3842253" user="NKA_import" version="1">
		<tag k="name" v="Bråten" />
		<tag k="place" v="locality" />
		<tag k="ssr:stedsnr" v="27857" />
		<tag k="ssr:type" v="gammelBosettingsplass" />
	</node>
	<node changeset="59321142" id="5646284993" lat="59.4478833" lon="9.1161833" timestamp="2018-05-27T19:51:46Z" uid="3842253" user="NKA_import" version="1">
		<tag k="name" v="Monsekåsa" />
		<tag k="place" v="locality" />
		<tag k="ssr:stedsnr" v="815267" />
		<tag k="ssr:type" v="gammelBosettingsplass" />
	</node>
	<node changeset="59321142" id="5646284994" lat="59.410725" lon="9.052925" timestamp="2018-05-27T19:51:46Z" uid="3842253" user="NKA_import" version="1">
		<tag k="alt_name" v="Midtbø" />
		<tag k="fixme" v="consider place=hamlet" />
		<tag k="name" v="Bø" />
		<tag k="place" v="farm" />
		<tag k="ssr:stedsnr" v="511261" />
		<tag k="ssr:type" v="gard" />
	</node>
	<node changeset="59321142" id="5646284995" lat="59.4346806" lon="9.1255417" timestamp="2018-05-27T19:51:46Z" uid="3842253" user="NKA_import" version="1">
		<tag k="fixme" v="consider place=farm" />
		<tag k="name" v="Tongarden" />
		<tag k="place" v="isolated_dwelling" />
		<tag k="ssr:stedsnr" v="815292" />
		<tag k="ssr:type" v="eneboligMindreBoligbygg" />
	</node>
	<node changeset="59321142" id="5646284996" lat="59.4228806" lon="9.0542194" timestamp="2018-05-27T19:51:46Z" uid="3842253" user="NKA_import" version="1">
		<tag k="name" v="Gunvorskås" />
		<tag k="place" v="farm" />
		<tag k="ssr:stedsnr" v="815513" />
		<tag k="ssr:type" v="bruk" />
	</node>
	<node changeset="59321142" id="5646284997" lat="59.4260513" lon="9.0126118" timestamp="2018-05-27T19:51:46Z" uid="3842253" user="NKA_import" version="1">
		<tag k="fixme" v="consider place=hamlet" />
		<tag k="name" v="Sønstebø" />
		<tag k="place" v="hamlet" />
		<tag k="ssr:stedsnr" v="511523" />
		<tag k="ssr:type" v="gard" />
	</node>
	<node changeset="59321142" id="5646284998" lat="59.4334806" lon="9.054675" timestamp="2018-05-27T19:51:46Z" uid="3842253" user="NKA_import" version="1">
		<tag k="name" v="Haugesag" />
		<tag k="place" v="locality" />
		<tag k="ssr:stedsnr" v="815578" />
		<tag k="ssr:type" v="gammelBosettingsplass" />
	</node>
	<node changeset="59321142" id="5646284999" lat="59.4862604" lon="9.1664414" timestamp="2018-05-27T19:51:46Z" uid="3842253" user="NKA_import" version="1">
		<tag k="alt_name" v="Svalbjørg" />
		<tag k="name" v="Svalbjør" />
		<tag k="place" v="farm" />
		<tag k="ssr:stedsnr" v="511586" />
		<tag k="ssr:type" v="bruk" />
	</node>
	<node changeset="59321142" id="5646285000" lat="59.4062639" lon="9.0955167" timestamp="2018-05-27T19:51:46Z" uid="3842253" user="NKA_import" version="1">
		<tag k="name" v="Lia" />
		<tag k="place" v="farm" />
		<tag k="ssr:stedsnr" v="511624" />
		<tag k="ssr:type" v="bruk" />
	</node>
	<node changeset="59321142" id="5646285001" lat="59.4562889" lon="9.0481917" timestamp="2018-05-27T19:51:46Z" uid="3842253" user="NKA_import" version="1">
		<tag k="name" v="Ramle" />
		<tag k="place" v="locality" />
		<tag k="ssr:stedsnr" v="816068" />
		<tag k="ssr:type" v="gammelBosettingsplass" />
	</node>
	<node changeset="59321142" id="5646285002" lat="59.4083125" lon="9.0718478" timestamp="2018-05-27T19:51:46Z" uid="3842253" user="NKA_import" version="1">
		<tag k="name" v="Oppheim" />
		<tag k="place" v="farm" />
		<tag k="ssr:stedsnr" v="511623" />
		<tag k="ssr:type" v="bruk" />
	</node>
	<node changeset="59321142" id="5646285003" lat="59.4085139" lon="9.1109722" timestamp="2018-05-27T19:51:47Z" uid="3842253" user="NKA_import" version="1">
		<tag k="fixme" v="consider place=farm" />
		<tag k="name" v="Myrane" />
		<tag k="place" v="isolated_dwelling" />
		<tag k="ssr:stedsnr" v="511673" />
		<tag k="ssr:type" v="eneboligMindreBoligbygg" />
	</node>
	<node changeset="59321142" id="5646285004" lat="59.5087833" lon="9.0945" timestamp="2018-05-27T19:51:47Z" uid="3842253" user="NKA_import" version="1">
		<tag k="name" v="Kleiva" />
		<tag k="place" v="locality" />
		<tag k="ssr:stedsnr" v="511720" />
		<tag k="ssr:type" v="gammelBosettingsplass" />
	</node>
	<node changeset="59321142" id="5646285005" lat="59.5250472" lon="9.1258139" timestamp="2018-05-27T19:51:47Z" uid="3842253" user="NKA_import" version="1">
		<tag k="name" v="Glytten" />
		<tag k="place" v="locality" />
		<tag k="ssr:stedsnr" v="511738" />
		<tag k="ssr:type" v="gammelBosettingsplass" />
	</node>
	<node changeset="59321142" id="5646285006" lat="59.4090917" lon="9.1245806" timestamp="2018-05-27T19:51:47Z" uid="3842253" user="NKA_import" version="1">
		<tag k="name" v="Stordal" />
		<tag k="place" v="farm" />
		<tag k="ssr:stedsnr" v="511982" />
		<tag k="ssr:type" v="bruk" />
	</node>
	<node changeset="59321142" id="5646285007" lat="59.410775" lon="8.9269806" timestamp="2018-05-27T19:51:47Z" uid="3842253" user="NKA_import" version="1">
		<tag k="name" v="Moen" />
		<tag k="place" v="farm" />
		<tag k="ssr:stedsnr" v="512113" />
		<tag k="ssr:type" v="bruk" />
	</node>
	<node changeset="59321142" id="5646285008" lat="59.3790958" lon="8.9366278" timestamp="2018-05-27T19:51:47Z" uid="3842253" user="NKA_import" version="1">
		<tag k="fixme" v="consider place=hamlet" />
		<tag k="name" v="Tveiten" />
		<tag k="place" v="hamlet" />
		<tag k="ssr:stedsnr" v="63356" />
		<tag k="ssr:type" v="gard" />
	</node>
	<node changeset="59321142" id="5646285009" lat="59.4202524" lon="8.9128878" timestamp="2018-05-27T19:51:47Z" uid="3842253" user="NKA_import" version="1">
		<tag k="name" v="Soterud" />
		<tag k="place" v="farm" />
		<tag k="ssr:stedsnr" v="512164" />
		<tag k="ssr:type" v="bruk" />
	</node>
	<node changeset="59321142" id="5646285010" lat="59.4312361" lon="9.0205861" timestamp="2018-05-27T19:51:47Z" uid="3842253" user="NKA_import" version="1">
		<tag k="name" v="Moland" />
		<tag k="place" v="farm" />
		<tag k="ssr:stedsnr" v="63438" />
		<tag k="ssr:type" v="bruk" />
	</node>
	<node changeset="59321142" id="5646285011" lat="59.4261389" lon="9.1053222" timestamp="2018-05-27T19:51:47Z" uid="3842253" user="NKA_import" version="1">
		<tag k="alt_name" v="Valen" />
		<tag k="fixme" v="consider place=hamlet" />
		<tag k="name" v="Gvåla" />
		<tag k="place" v="farm" />
		<tag k="ssr:stedsnr" v="63443" />
		<tag k="ssr:type" v="gard" />
	</node>
	<node changeset="59321142" id="5646285012" lat="59.3647889" lon="8.9220667" timestamp="2018-05-27T19:51:47Z" uid="3842253" user="NKA_import" version="1">
		<tag k="name" v="Øyan" />
		<tag k="place" v="locality" />
		<tag k="ssr:stedsnr" v="817046" />
		<tag k="ssr:type" v="gammelBosettingsplass" />
	</node>
	<node changeset="59321142" id="5646285013" lat="59.4001861" lon="9.05115" timestamp="2018-05-27T19:51:47Z" uid="3842253" user="NKA_import" version="1">
		<tag k="fixme" v="consider place=farm" />
		<tag k="name" v="Veirud" />
		<tag k="place" v="isolated_dwelling" />
		<tag k="ssr:stedsnr" v="512270" />
		<tag k="ssr:type" v="eneboligMindreBoligbygg" />
	</node>
	<node changeset="59321142" id="5646285014" lat="59.3904111" lon="9.0524917" timestamp="2018-05-27T19:51:48Z" uid="3842253" user="NKA_import" version="1">
		<tag k="name" v="Hynne" />
		<tag k="place" v="farm" />
		<tag k="ssr:stedsnr" v="512297" />
		<tag k="ssr:type" v="bruk" />
	</node>
	<node changeset="59321142" id="5646285015" lat="59.4245333" lon="9.0592722" timestamp="2018-05-27T19:51:48Z" uid="3842253" user="NKA_import" version="1">
		<tag k="alt_name" v="Sissejord" />
		<tag k="fixme" v="consider place=hamlet" />
		<tag k="name" v="Sisjord" />
		<tag k="place" v="hamlet" />
		<tag k="ssr:stedsnr" v="512659" />
		<tag k="ssr:type" v="gard" />
	</node>
	<node changeset="59321142" id="5646285016" lat="59.465556" lon="8.9698358" timestamp="2018-05-27T19:51:48Z" uid="3842253" user="NKA_import" version="1">
		<tag k="alt_name" v="Altbråtane" />
		<tag k="building" v="farm_auxiliary" />
		<tag k="name" v="Attbråtane" />
		<tag k="place" v="locality" />
		<tag k="ssr:stedsnr" v="63502" />
		<tag k="ssr:type" v="byggForJordbrukFiskeOgFangst" />
	</node>
	<node changeset="59321142" id="5646285017" lat="59.4741889" lon="8.9664306" timestamp="2018-05-27T19:51:48Z" uid="3842253" user="NKA_import" version="1">
		<tag k="historic" v="shieling" />
		<tag k="name" v="Lislestul" />
		<tag k="place" v="locality" />
		<tag k="ssr:stedsnr" v="817652" />
		<tag k="ssr:type" v="gammelBosettingsplass" />
	</node>
	<node changeset="59321142" id="5646285018" lat="59.4717806" lon="9.0729806" timestamp="2018-05-27T19:51:48Z" uid="3842253" user="NKA_import" version="1">
		<tag k="alt_name" v="Breidvad" />
		<tag k="name" v="Breiva" />
		<tag k="place" v="farm" />
		<tag k="ssr:stedsnr" v="63504" />
		<tag k="ssr:type" v="bruk" />
	</node>
	<node changeset="59321142" id="5646285019" lat="59.4896325" lon="9.0274491" timestamp="2018-05-27T19:51:48Z" uid="3842253" user="NKA_import" version="1">
		<tag k="building" v="farm_auxiliary" />
		<tag k="name" v="Knalian" />
		<tag k="place" v="locality" />
		<tag k="ssr:stedsnr" v="63573" />
		<tag k="ssr:type" v="byggForJordbrukFiskeOgFangst" />
	</node>
	<node changeset="59321142" id="5646285020" lat="59.4229556" lon="8.9045194" timestamp="2018-05-27T19:51:48Z" uid="3842253" user="NKA_import" version="1">
		<tag k="fixme" v="consider place=farm" />
		<tag k="name" v="Sondbø" />
		<tag k="place" v="isolated_dwelling" />
		<tag k="ssr:stedsnr" v="817779" />
		<tag k="ssr:type" v="eneboligMindreBoligbygg" />
	</node>
	<node changeset="59321142" id="5646285021" lat="59.4969868" lon="9.041383" timestamp="2018-05-27T19:51:48Z" uid="3842253" user="NKA_import" version="1">
		<tag k="building" v="farm_auxiliary" />
		<tag k="name" v="Tangen" />
		<tag k="place" v="locality" />
		<tag k="ssr:stedsnr" v="63592" />
		<tag k="ssr:type" v="byggForJordbrukFiskeOgFangst" />
	</node>
	<node changeset="59321142" id="5646285022" lat="59.4539806" lon="8.9983861" timestamp="2018-05-27T19:51:48Z" uid="3842253" user="NKA_import" version="1">
		<tag k="historic" v="shieling" />
		<tag k="name" v="Slettelistulen" />
		<tag k="place" v="locality" />
		<tag k="ssr:stedsnr" v="513094" />
		<tag k="ssr:type" v="gammelBosettingsplass" />
	</node>
	<node changeset="59321142" id="5646285023" lat="59.4722087" lon="8.9669642" timestamp="2018-05-27T19:51:49Z" uid="3842253" user="NKA_import" version="1">
		<tag k="alt_name" v="Lienstul" />
		<tag k="historic" v="shieling" />
		<tag k="name" v="Lienstulen" />
		<tag k="place" v="locality" />
		<tag k="ssr:stedsnr" v="63605" />
		<tag k="ssr:type" v="fritidsbolig" />
	</node>
	<node changeset="59321142" id="5646285024" lat="59.4986222" lon="9.0408417" timestamp="2018-05-27T19:51:49Z" uid="3842253" user="NKA_import" version="1">
		<tag k="name" v="Årmotholet" />
		<tag k="place" v="locality" />
		<tag k="ssr:stedsnr" v="513611" />
		<tag k="ssr:type" v="gammelBosettingsplass" />
	</node>
	<node changeset="59321142" id="5646285025" lat="59.4809306" lon="9.0957" timestamp="2018-05-27T19:51:49Z" uid="3842253" user="NKA_import" version="1">
		<tag k="name" v="Slåttedalen" />
		<tag k="place" v="farm" />
		<tag k="ssr:stedsnr" v="63613" />
		<tag k="ssr:type" v="bruk" />
	</node>
	<node changeset="59321142" id="5646285026" lat="59.3725" lon="9.0425611" timestamp="2018-05-27T19:51:49Z" uid="3842253" user="NKA_import" version="1">
		<tag k="name" v="Sudbø" />
		<tag k="place" v="farm" />
		<tag k="ssr:stedsnr" v="852293" />
		<tag k="ssr:type" v="bruk" />
	</node>
	<node changeset="59321142" id="5646285027" lat="59.4891193" lon="9.1696778" timestamp="2018-05-27T19:51:49Z" uid="3842253" user="NKA_import" version="1">
		<tag k="building" v="cabin" />
		<tag k="name" v="Kåsa" />
		<tag k="place" v="isolated_dwelling" />
		<tag k="ssr:stedsnr" v="63620" />
		<tag k="ssr:type" v="fritidsbolig" />
	</node>
	<node changeset="59321142" id="5646285028" lat="59.4089889" lon="9.0283611" timestamp="2018-05-27T19:51:49Z" uid="3842253" user="NKA_import" version="1">
		<tag k="name" v="Løvskeid" />
		<tag k="place" v="farm" />
		<tag k="ssr:stedsnr" v="852350" />
		<tag k="ssr:type" v="bruk" />
	</node>
	<node changeset="59321142" id="5646285029" lat="59.3942667" lon="9.046125" timestamp="2018-05-27T19:51:49Z" uid="3842253" user="NKA_import" version="1">
		<tag k="alt_name" v="Staskleiv" />
		<tag k="fixme" v="consider place=hamlet" />
		<tag k="name" v="Stadskleiv" />
		<tag k="place" v="farm" />
		<tag k="ssr:stedsnr" v="852364" />
		<tag k="ssr:type" v="gard" />
	</node>
	<node changeset="59321142" id="5646285030" lat="59.4095667" lon="8.9836833" timestamp="2018-05-27T19:51:49Z" uid="3842253" user="NKA_import" version="1">
		<tag k="fixme" v="consider place=farm" />
		<tag k="name" v="Skogen" />
		<tag k="place" v="isolated_dwelling" />
		<tag k="ssr:stedsnr" v="268069" />
		<tag k="ssr:type" v="eneboligMindreBoligbygg" />
	</node>
	<node changeset="59321142" id="5646285031" lat="59.3959417" lon="9.0487444" timestamp="2018-05-27T19:51:49Z" uid="3842253" user="NKA_import" version="1">
		<tag k="name" v="Evju" />
		<tag k="place" v="farm" />
		<tag k="ssr:stedsnr" v="852365" />
		<tag k="ssr:type" v="bruk" />
	</node>
	<node changeset="59321142" id="5646285032" lat="59.4266306" lon="8.9840361" timestamp="2018-05-27T19:51:49Z" uid="3842253" user="NKA_import" version="1">
		<tag k="name" v="Kåsa" />
		<tag k="place" v="locality" />
		<tag k="ssr:stedsnr" v="513852" />
		<tag k="ssr:type" v="gammelBosettingsplass" />
	</node>
	<node changeset="59321142" id="5646285033" lat="59.42735" lon="8.8799028" timestamp="2018-05-27T19:51:49Z" uid="3842253" user="NKA_import" version="1">
		<tag k="name" v="Herrefoss" />
		<tag k="place" v="locality" />
		<tag k="ssr:stedsnr" v="513860" />
		<tag k="ssr:type" v="gammelBosettingsplass" />
	</node>
	<node changeset="59321142" id="5646285034" lat="59.4384611" lon="8.996" timestamp="2018-05-27T19:51:50Z" uid="3842253" user="NKA_import" version="1">
		<tag k="name" v="Slåtta" />
		<tag k="place" v="locality" />
		<tag k="ssr:stedsnr" v="513883" />
		<tag k="ssr:type" v="gammelBosettingsplass" />
	</node>
	<node changeset="59321142" id="5646285035" lat="59.4195083" lon="8.8956972" timestamp="2018-05-27T19:51:50Z" uid="3842253" user="NKA_import" version="1">
		<tag k="name" v="Vollen" />
		<tag k="place" v="farm" />
		<tag k="ssr:stedsnr" v="852385" />
		<tag k="ssr:type" v="bruk" />
	</node>
	<node changeset="59321142" id="5646285036" lat="59.4564" lon="8.946625" timestamp="2018-05-27T19:51:50Z" uid="3842253" user="NKA_import" version="1">
		<tag k="historic" v="shieling" />
		<tag k="name" v="Lauvåsstulen" />
		<tag k="place" v="locality" />
		<tag k="ssr:stedsnr" v="513949" />
		<tag k="ssr:type" v="gammelBosettingsplass" />
	</node>
	<node changeset="59321142" id="5646285037" lat="59.4316768" lon="9.0459935" timestamp="2018-05-27T19:51:50Z" uid="3842253" user="NKA_import" version="1">
		<tag k="name" v="Oterholt" />
		<tag k="place" v="hamlet" />
		<tag k="ssr:stedsnr" v="852416" />
		<tag k="ssr:type" v="grend" />
	</node>
	<node changeset="59321142" id="5646285038" lat="59.4255389" lon="8.9228111" timestamp="2018-05-27T19:51:50Z" uid="3842253" user="NKA_import" version="1">
		<tag k="historic" v="shieling" />
		<tag k="name" v="Karistul" />
		<tag k="place" v="locality" />
		<tag k="ssr:stedsnr" v="852430" />
		<tag k="ssr:type" v="gammelBosettingsplass" />
	</node>
	<node changeset="59321142" id="5646285039" lat="59.3737194" lon="8.8947472" timestamp="2018-05-27T19:51:50Z" uid="3842253" user="NKA_import" version="1">
		<tag k="name" v="Soffishol" />
		<tag k="place" v="locality" />
		<tag k="ssr:stedsnr" v="548299" />
		<tag k="ssr:type" v="gammelBosettingsplass" />
	</node>
	<node changeset="59321142" id="5646285040" lat="59.4136111" lon="9.0555695" timestamp="2018-05-27T19:51:50Z" uid="3842253" user="NKA_import" version="1">
		<tag k="fixme" v="consider place=farm" />
		<tag k="name" v="Lund" />
		<tag k="place" v="isolated_dwelling" />
		<tag k="ssr:stedsnr" v="86250" />
		<tag k="ssr:type" v="eneboligMindreBoligbygg" />
	</node>
	<node changeset="59321142" id="5646285041" lat="59.4844611" lon="9.1559389" timestamp="2018-05-27T19:51:50Z" uid="3842253" user="NKA_import" version="1">
		<tag k="name" v="Stykket" />
		<tag k="place" v="farm" />
		<tag k="ssr:stedsnr" v="852600" />
		<tag k="ssr:type" v="bruk" />
	</node>
	<node changeset="59321142" id="5646285042" lat="59.5039191" lon="9.1509016" timestamp="2018-05-27T19:51:50Z" uid="3842253" user="NKA_import" version="1">
		<tag k="building" v="cabin" />
		<tag k="name" v="Plasstykket" />
		<tag k="place" v="isolated_dwelling" />
		<tag k="ssr:stedsnr" v="86523" />
		<tag k="ssr:type" v="fritidsbolig" />
	</node>
	<node changeset="59321142" id="5646285043" lat="59.4900361" lon="9.0750778" timestamp="2018-05-27T19:51:50Z" uid="3842253" user="NKA_import" version="1">
		<tag k="name" v="Orebakken" />
		<tag k="place" v="farm" />
		<tag k="ssr:stedsnr" v="852602" />
		<tag k="ssr:type" v="bruk" />
	</node>
	<node changeset="59321142" id="5646285044" lat="59.4032833" lon="9.0368805" timestamp="2018-05-27T19:51:51Z" uid="3842253" user="NKA_import" version="1">
		<tag k="name" v="Moland" />
		<tag k="place" v="farm" />
		<tag k="ssr:stedsnr" v="548373" />
		<tag k="ssr:type" v="bruk" />
	</node>
	<node changeset="59321142" id="5646285045" lat="59.3958726" lon="9.0593404" timestamp="2018-05-27T19:51:51Z" uid="3842253" user="NKA_import" version="1">
		<tag k="alt_name" v="Staurem" />
		<tag k="fixme" v="consider place=hamlet" />
		<tag k="name" v="Staurheim" />
		<tag k="place" v="hamlet" />
		<tag k="ssr:stedsnr" v="548387" />
		<tag k="ssr:type" v="gard" />
	</node>
	<node changeset="59321142" id="5646285046" lat="59.4290583" lon="9.0213389" timestamp="2018-05-27T19:51:51Z" uid="3842253" user="NKA_import" version="1">
		<tag k="name" v="Innleggen" />
		<tag k="place" v="farm" />
		<tag k="ssr:stedsnr" v="86543" />
		<tag k="ssr:type" v="bruk" />
	</node>
	<node changeset="59321142" id="5646285047" lat="59.3840916" lon="8.904254" timestamp="2018-05-27T19:51:51Z" uid="3842253" user="NKA_import" version="1">
		<tag k="building" v="cabin" />
		<tag k="historic" v="shieling" />
		<tag k="name" v="Stulen" />
		<tag k="place" v="isolated_dwelling" />
		<tag k="ssr:stedsnr" v="548399" />
		<tag k="ssr:type" v="fritidsbolig" />
	</node>
	<node changeset="59321142" id="5646285048" lat="59.4355611" lon="9.0428556" timestamp="2018-05-27T19:51:51Z" uid="3842253" user="NKA_import" version="1">
		<tag k="name" v="Skavdalen" />
		<tag k="place" v="farm" />
		<tag k="ssr:stedsnr" v="86561" />
		<tag k="ssr:type" v="bruk" />
	</node>
	<node changeset="59321142" id="5646285049" lat="59.417625" lon="9.0977444" timestamp="2018-05-27T19:51:51Z" uid="3842253" user="NKA_import" version="1">
		<tag k="name" v="Roteberg" />
		<tag k="place" v="farm" />
		<tag k="ssr:stedsnr" v="548418" />
		<tag k="ssr:type" v="bruk" />
	</node>
	<node changeset="59321142" id="5646285050" lat="59.4340028" lon="9.1213139" timestamp="2018-05-27T19:51:51Z" uid="3842253" user="NKA_import" version="1">
		<tag k="name" v="Hegna" />
		<tag k="place" v="farm" />
		<tag k="ssr:stedsnr" v="548422" />
		<tag k="ssr:type" v="bruk" />
	</node>
	<node changeset="59321142" id="5646285051" lat="59.4310972" lon="9.0882639" timestamp="2018-05-27T19:51:51Z" uid="3842253" user="NKA_import" version="1">
		<tag k="alt_name" v="Vindbekk" />
		<tag k="name" v="Vinbekk" />
		<tag k="place" v="farm" />
		<tag k="ssr:stedsnr" v="548437" />
		<tag k="ssr:type" v="bruk" />
	</node>
	<node changeset="59321142" id="5646285052" lat="59.4118866" lon="8.9998144" timestamp="2018-05-27T19:51:51Z" uid="3842253" user="NKA_import" version="1">
		<tag k="building" v="yes" />
		<tag k="name" v="Forberg skule" />
		<tag k="ssr:stedsnr" v="875025" />
		<tag k="ssr:type" v="skole" />
	</node>
	<node changeset="59321142" id="5646285053" lat="59.4151406" lon="9.0015245" timestamp="2018-05-27T19:51:51Z" uid="3842253" user="NKA_import" version="1">
		<tag k="alt_name" v="Nordre Forberget" />
		<tag k="fixme" v="consider place=hamlet" />
		<tag k="name" v="Forberg" />
		<tag k="place" v="hamlet" />
		<tag k="ssr:stedsnr" v="875027" />
		<tag k="ssr:type" v="gard" />
	</node>
	<node changeset="59321142" id="5646285054" lat="59.41605" lon="9.0954056" timestamp="2018-05-27T19:51:51Z" uid="3842253" user="NKA_import" version="1">
		<tag k="name" v="Slåtta" />
		<tag k="place" v="locality" />
		<tag k="ssr:stedsnr" v="86694" />
		<tag k="ssr:type" v="gammelBosettingsplass" />
	</node>
	<node changeset="59321142" id="5646285055" lat="59.4429306" lon="9.0654" timestamp="2018-05-27T19:51:52Z" uid="3842253" user="NKA_import" version="1">
		<tag k="name" v="Kåsa" />
		<tag k="place" v="farm" />
		<tag k="ssr:stedsnr" v="548470" />
		<tag k="ssr:type" v="bruk" />
	</node>
	<node changeset="59321142" id="5646285056" lat="59.4131611" lon="9.0589417" timestamp="2018-05-27T19:51:52Z" uid="3842253" user="NKA_import" version="1">
		<tag k="name" v="Helland" />
		<tag k="place" v="farm" />
		<tag k="ssr:stedsnr" v="875252" />
		<tag k="ssr:type" v="bruk" />
	</node>
	<node changeset="59321142" id="5646285057" lat="59.4186444" lon="9.0665528" timestamp="2018-05-27T19:51:52Z" uid="3842253" user="NKA_import" version="1">
		<tag k="fixme" v="consider place=hamlet" />
		<tag k="name" v="Haugerud" />
		<tag k="place" v="farm" />
		<tag k="ssr:stedsnr" v="875736" />
		<tag k="ssr:type" v="gard" />
	</node>
	<node changeset="59321142" id="5646285058" lat="59.4005222" lon="8.9748972" timestamp="2018-05-27T19:51:52Z" uid="3842253" user="NKA_import" version="1">
		<tag k="historic" v="shieling" />
		<tag k="name" v="Skoestulen" />
		<tag k="place" v="locality" />
		<tag k="ssr:stedsnr" v="87006" />
		<tag k="ssr:type" v="gammelBosettingsplass" />
	</node>
	<node changeset="59321142" id="5646285059" lat="59.4788833" lon="9.0775167" timestamp="2018-05-27T19:51:52Z" uid="3842253" user="NKA_import" version="1">
		<tag k="name" v="Liene" />
		<tag k="place" v="farm" />
		<tag k="ssr:stedsnr" v="875469" />
		<tag k="ssr:type" v="bruk" />
	</node>
	<node changeset="59321142" id="5646285060" lat="59.4765917" lon="9.0194917" timestamp="2018-05-27T19:51:52Z" uid="3842253" user="NKA_import" version="1">
		<tag k="historic" v="shieling" />
		<tag k="name" v="Jønnbu" />
		<tag k="place" v="locality" />
		<tag k="ssr:stedsnr" v="548600" />
		<tag k="ssr:type" v="seterStøl" />
	</node>
	<node changeset="59321142" id="5646285061" lat="59.4906444" lon="9.0872889" timestamp="2018-05-27T19:51:52Z" uid="3842253" user="NKA_import" version="1">
		<tag k="name" v="Utbråtan" />
		<tag k="place" v="farm" />
		<tag k="ssr:stedsnr" v="548621" />
		<tag k="ssr:type" v="bruk" />
	</node>
	<node changeset="59321142" id="5646285062" lat="59.5274777" lon="9.0093199" timestamp="2018-05-27T19:51:52Z" uid="3842253" user="NKA_import" version="1">
		<tag k="alt_name" v="Løklia" />
		<tag k="building" v="farm_auxiliary" />
		<tag k="name" v="Løkjine" />
		<tag k="place" v="locality" />
		<tag k="ssr:stedsnr" v="549385" />
		<tag k="ssr:type" v="byggForJordbrukFiskeOgFangst" />
	</node>
	<node changeset="59321142" id="5646285063" lat="59.3998556" lon="8.9636195" timestamp="2018-05-27T19:51:52Z" uid="3842253" user="NKA_import" version="1">
		<tag k="name" v="Tølløvskot" />
		<tag k="place" v="locality" />
		<tag k="ssr:stedsnr" v="570036" />
		<tag k="ssr:type" v="gammelBosettingsplass" />
	</node>
	<node changeset="59321142" id="5646285064" lat="59.4072306" lon="9.0407055" timestamp="2018-05-27T19:51:52Z" uid="3842253" user="NKA_import" version="1">
		<tag k="name" v="Nordbø" />
		<tag k="place" v="farm" />
		<tag k="ssr:stedsnr" v="87255" />
		<tag k="ssr:type" v="bruk" />
	</node>
	<node changeset="59321142" id="5646285065" lat="59.4050472" lon="9.0744528" timestamp="2018-05-27T19:51:52Z" uid="3842253" user="NKA_import" version="1">
		<tag k="name" v="Kåsin" />
		<tag k="place" v="locality" />
		<tag k="ssr:stedsnr" v="875630" />
		<tag k="ssr:type" v="gammelBosettingsplass" />
	</node>
	<node changeset="59321142" id="5646285066" lat="59.4022083" lon="9.0629167" timestamp="2018-05-27T19:51:53Z" uid="3842253" user="NKA_import" version="1">
		<tag k="name" v="Nyland" />
		<tag k="place" v="farm" />
		<tag k="ssr:stedsnr" v="875655" />
		<tag k="ssr:type" v="bruk" />
	</node>
	<node changeset="59321142" id="5646285067" lat="59.4136694" lon="8.9879111" timestamp="2018-05-27T19:51:53Z" uid="3842253" user="NKA_import" version="1">
		<tag k="name" v="Harpestå" />
		<tag k="place" v="farm" />
		<tag k="ssr:stedsnr" v="571037" />
		<tag k="ssr:type" v="bruk" />
	</node>
	<node changeset="59321142" id="5646285068" lat="59.4821917" lon="9.0713194" timestamp="2018-05-27T19:51:53Z" uid="3842253" user="NKA_import" version="1">
		<tag k="fixme" v="consider place=hamlet" />
		<tag k="name" v="Åse" />
		<tag k="place" v="farm" />
		<tag k="ssr:stedsnr" v="87470" />
		<tag k="ssr:type" v="gard" />
	</node>
	<node changeset="59321142" id="5646285069" lat="59.4132694" lon="8.9527528" timestamp="2018-05-27T19:51:53Z" uid="3842253" user="NKA_import" version="1">
		<tag k="name" v="Skruverud" />
		<tag k="place" v="farm" />
		<tag k="ssr:stedsnr" v="571047" />
		<tag k="ssr:type" v="bruk" />
	</node>
	<node changeset="59321142" id="5646285070" lat="59.4424222" lon="9.0687056" timestamp="2018-05-27T19:51:53Z" uid="3842253" user="NKA_import" version="1">
		<tag k="name" v="Innleggen" />
		<tag k="place" v="farm" />
		<tag k="ssr:stedsnr" v="876069" />
		<tag k="ssr:type" v="bruk" />
	</node>
	<node changeset="59321142" id="5646285071" lat="59.4043833" lon="9.1238444" timestamp="2018-05-27T19:51:53Z" uid="3842253" user="NKA_import" version="1">
		<tag k="name" v="Haugen" />
		<tag k="place" v="farm" />
		<tag k="ssr:stedsnr" v="87975" />
		<tag k="ssr:type" v="bruk" />
	</node>
	<node changeset="59321142" id="5646285072" lat="59.4064833" lon="8.9396611" timestamp="2018-05-27T19:51:53Z" uid="3842253" user="NKA_import" version="1">
		<tag k="name" v="Ronningen" />
		<tag k="place" v="farm" />
		<tag k="ssr:stedsnr" v="876116" />
		<tag k="ssr:type" v="bruk" />
	</node>
	<node changeset="59321142" id="5646285073" lat="59.420625" lon="8.9978472" timestamp="2018-05-27T19:51:53Z" uid="3842253" user="NKA_import" version="1">
		<tag k="name" v="Åserud" />
		<tag k="place" v="farm" />
		<tag k="ssr:stedsnr" v="571078" />
		<tag k="ssr:type" v="bruk" />
	</node>
	<node changeset="59321142" id="5646285074" lat="59.4224222" lon="9.1052806" timestamp="2018-05-27T19:51:53Z" uid="3842253" user="NKA_import" version="1">
		<tag k="fixme" v="consider place=hamlet" />
		<tag k="name" v="Gåra" />
		<tag k="place" v="farm" />
		<tag k="ssr:stedsnr" v="571215" />
		<tag k="ssr:type" v="gard" />
	</node>
	<node changeset="59321142" id="5646285075" lat="59.4065667" lon="9.1251222" timestamp="2018-05-27T19:51:53Z" uid="3842253" user="NKA_import" version="1">
		<tag k="name" v="Homlebrekke" />
		<tag k="place" v="farm" />
		<tag k="ssr:stedsnr" v="87977" />
		<tag k="ssr:type" v="bruk" />
	</node>
	<node changeset="59321142" id="5646285076" lat="59.4153194" lon="8.9177194" timestamp="2018-05-27T19:51:53Z" uid="3842253" user="NKA_import" version="1">
		<tag k="name" v="Innleggen" />
		<tag k="place" v="farm" />
		<tag k="ssr:stedsnr" v="876127" />
		<tag k="ssr:type" v="bruk" />
	</node>
	<node changeset="59321142" id="5646285077" lat="59.4217333" lon="9.00095" timestamp="2018-05-27T19:51:54Z" uid="3842253" user="NKA_import" version="1">
		<tag k="name" v="Hegna" />
		<tag k="place" v="farm" />
		<tag k="ssr:stedsnr" v="88799" />
		<tag k="ssr:type" v="bruk" />
	</node>
	<node changeset="59321142" id="5646285078" lat="59.4891333" lon="9.0656575" timestamp="2018-05-27T19:51:54Z" uid="3842253" user="NKA_import" version="1">
		<tag k="building" v="cabin" />
		<tag k="name" v="Glakollkåsine" />
		<tag k="place" v="isolated_dwelling" />
		<tag k="ssr:stedsnr" v="571431" />
		<tag k="ssr:type" v="fritidsbolig" />
	</node>
	<node changeset="59321142" id="5646285079" lat="59.3925667" lon="9.0525167" timestamp="2018-05-27T19:51:54Z" uid="3842253" user="NKA_import" version="1">
		<tag k="name" v="Nyvoll" />
		<tag k="place" v="farm" />
		<tag k="ssr:stedsnr" v="876294" />
		<tag k="ssr:type" v="bruk" />
	</node>
	<node changeset="59321142" id="5646285080" lat="59.4192667" lon="9.0375028" timestamp="2018-05-27T19:51:54Z" uid="3842253" user="NKA_import" version="1">
		<tag k="name" v="Bergland" />
		<tag k="place" v="farm" />
		<tag k="ssr:stedsnr" v="571509" />
		<tag k="ssr:type" v="bruk" />
	</node>
	<node changeset="59321142" id="5646285081" lat="59.4173417" lon="9.0273917" timestamp="2018-05-27T19:51:54Z" uid="3842253" user="NKA_import" version="1">
		<tag k="name" v="Glennahaugen" />
		<tag k="place" v="farm" />
		<tag k="ssr:stedsnr" v="571513" />
		<tag k="ssr:type" v="bruk" />
	</node>
	<node changeset="59321142" id="5646285082" lat="59.4703528" lon="9.0862889" timestamp="2018-05-27T19:51:54Z" uid="3842253" user="NKA_import" version="1">
		<tag k="name" v="Breiva" />
		<tag k="place" v="locality" />
		<tag k="ssr:stedsnr" v="876504" />
		<tag k="ssr:type" v="gammelBosettingsplass" />
	</node>
	<node changeset="59321142" id="5646285083" lat="59.4173389" lon="9.0314778" timestamp="2018-05-27T19:51:54Z" uid="3842253" user="NKA_import" version="1">
		<tag k="name" v="Midtland" />
		<tag k="place" v="farm" />
		<tag k="ssr:stedsnr" v="571512" />
		<tag k="ssr:type" v="bruk" />
	</node>
	<node changeset="59321142" id="5646285084" lat="59.4268556" lon="9.0350417" timestamp="2018-05-27T19:51:54Z" uid="3842253" user="NKA_import" version="1">
		<tag k="name" v="Solid" />
		<tag k="place" v="farm" />
		<tag k="ssr:stedsnr" v="571560" />
		<tag k="ssr:type" v="bruk" />
	</node>
	<node changeset="59321142" id="5646285085" lat="59.4084611" lon="9.0874278" timestamp="2018-05-27T19:51:54Z" uid="3842253" user="NKA_import" version="1">
		<tag k="name" v="Røysum" />
		<tag k="place" v="farm" />
		<tag k="ssr:stedsnr" v="571647" />
		<tag k="ssr:type" v="bruk" />
	</node>
	<node changeset="59321142" id="5646285086" lat="59.407946" lon="9.1038643" timestamp="2018-05-27T19:51:54Z" uid="3842253" user="NKA_import" version="1">
		<tag k="name" v="Kåsa" />
		<tag k="place" v="farm" />
		<tag k="ssr:stedsnr" v="571668" />
		<tag k="ssr:type" v="bruk" />
	</node>
	<node changeset="59321142" id="5646285087" lat="59.4570389" lon="8.9709694" timestamp="2018-05-27T19:51:54Z" uid="3842253" user="NKA_import" version="1">
		<tag k="name" v="Storskott" />
		<tag k="place" v="locality" />
		<tag k="ssr:stedsnr" v="89114" />
		<tag k="ssr:type" v="gammelBosettingsplass" />
	</node>
	<node changeset="59321142" id="5646285088" lat="59.5184501" lon="9.020495" timestamp="2018-05-27T19:51:54Z" uid="3842253" user="NKA_import" version="1">
		<tag k="building" v="farm_auxiliary" />
		<tag k="name" v="Sud Årlia" />
		<tag k="place" v="locality" />
		<tag k="ssr:stedsnr" v="876651" />
		<tag k="ssr:type" v="byggForJordbrukFiskeOgFangst" />
	</node>
	<node changeset="59321142" id="5646285089" lat="59.4117444" lon="9.0981333" timestamp="2018-05-27T19:51:55Z" uid="3842253" user="NKA_import" version="1">
		<tag k="name" v="Røte" />
		<tag k="place" v="locality" />
		<tag k="ssr:stedsnr" v="571677" />
		<tag k="ssr:type" v="gammelBosettingsplass" />
	</node>
	<node changeset="59321142" id="5646285090" lat="59.4805944" lon="9.0465306" timestamp="2018-05-27T19:51:55Z" uid="3842253" user="NKA_import" version="1">
		<tag k="name" v="Bråten" />
		<tag k="place" v="farm" />
		<tag k="ssr:stedsnr" v="89439" />
		<tag k="ssr:type" v="bruk" />
	</node>
	<node changeset="59321142" id="5646285091" lat="59.5077694" lon="9.1476361" timestamp="2018-05-27T19:51:55Z" uid="3842253" user="NKA_import" version="1">
		<tag k="name" v="Veslestandar" />
		<tag k="place" v="locality" />
		<tag k="ssr:stedsnr" v="571725" />
		<tag k="ssr:type" v="gammelBosettingsplass" />
	</node>
	<node changeset="59321142" id="5646285092" lat="59.464968" lon="9.0118398" timestamp="2018-05-27T19:51:55Z" uid="3842253" user="NKA_import" version="1">
		<tag k="building" v="farm_auxiliary" />
		<tag k="name" v="Vårbu" />
		<tag k="place" v="locality" />
		<tag k="ssr:stedsnr" v="89521" />
		<tag k="ssr:type" v="byggForJordbrukFiskeOgFangst" />
	</node>
	<node changeset="59321142" id="5646285093" lat="59.4296126" lon="8.885728" timestamp="2018-05-27T19:51:55Z" uid="3842253" user="NKA_import" version="1">
		<tag k="fixme" v="consider place=hamlet" />
		<tag k="name" v="Øvre Bø" />
		<tag k="place" v="hamlet" />
		<tag k="ssr:stedsnr" v="877620" />
		<tag k="ssr:type" v="bygdelagBygd" />
	</node>
	<node changeset="59321142" id="5646285094" lat="59.427225" lon="8.8986833" timestamp="2018-05-27T19:51:55Z" uid="3842253" user="NKA_import" version="1">
		<tag k="fixme" v="consider place=hamlet" />
		<tag k="name" v="Verpe" />
		<tag k="place" v="farm" />
		<tag k="ssr:stedsnr" v="89778" />
		<tag k="ssr:type" v="gard" />
	</node>
	<node changeset="59321142" id="5646285095" lat="59.4080472" lon="8.9243139" timestamp="2018-05-27T19:51:55Z" uid="3842253" user="NKA_import" version="1">
		<tag k="name" v="Kleiva" />
		<tag k="place" v="farm" />
		<tag k="ssr:stedsnr" v="572132" />
		<tag k="ssr:type" v="bruk" />
	</node>
	<node changeset="59321142" id="5646285096" lat="59.4163944" lon="8.9442083" timestamp="2018-05-27T19:51:55Z" uid="3842253" user="NKA_import" version="1">
		<tag k="name" v="Åsjordet" />
		<tag k="place" v="locality" />
		<tag k="ssr:stedsnr" v="572188" />
		<tag k="ssr:type" v="gammelBosettingsplass" />
	</node>
	<node changeset="59321142" id="5646285097" lat="59.3921597" lon="9.1062022" timestamp="2018-05-27T19:51:55Z" uid="3842253" user="NKA_import" version="1">
		<tag k="building" v="farm_auxiliary" />
		<tag k="name" v="Åsen" />
		<tag k="place" v="locality" />
		<tag k="ssr:stedsnr" v="572197" />
		<tag k="ssr:type" v="byggForJordbrukFiskeOgFangst" />
	</node>
	<node changeset="59321142" id="5646285098" lat="59.4535444" lon="9.113625" timestamp="2018-05-27T19:51:55Z" uid="3842253" user="NKA_import" version="1">
		<tag k="name" v="Vøllen" />
		<tag k="place" v="locality" />
		<tag k="ssr:stedsnr" v="572303" />
		<tag k="ssr:type" v="gammelBosettingsplass" />
	</node>
	<node changeset="59321142" id="5646285099" lat="59.3882611" lon="9.0171111" timestamp="2018-05-27T19:51:56Z" uid="3842253" user="NKA_import" version="1">
		<tag k="name" v="Hasledalen" />
		<tag k="place" v="locality" />
		<tag k="ssr:stedsnr" v="572333" />
		<tag k="ssr:type" v="gammelBosettingsplass" />
	</node>
	<node changeset="59321142" id="5646285100" lat="59.3878556" lon="9.0287" timestamp="2018-05-27T19:51:56Z" uid="3842253" user="NKA_import" version="1">
		<tag k="name" v="Dalen" />
		<tag k="place" v="farm" />
		<tag k="ssr:stedsnr" v="572334" />
		<tag k="ssr:type" v="bruk" />
	</node>
	<node changeset="59321142" id="5646285101" lat="59.4000556" lon="9.0391944" timestamp="2018-05-27T19:51:56Z" uid="3842253" user="NKA_import" version="1">
		<tag k="alt_name" v="Moen" />
		<tag k="name" v="Myra" />
		<tag k="place" v="farm" />
		<tag k="ssr:stedsnr" v="123395" />
		<tag k="ssr:type" v="bruk" />
	</node>
	<node changeset="59321142" id="5646285102" lat="59.4195472" lon="8.9766028" timestamp="2018-05-27T19:51:56Z" uid="3842253" user="NKA_import" version="1">
		<tag k="name" v="Åbø" />
		<tag k="place" v="farm" />
		<tag k="ssr:stedsnr" v="123409" />
		<tag k="ssr:type" v="bruk" />
	</node>
	<node changeset="59321142" id="5646285103" lat="59.4116617" lon="9.0125726" timestamp="2018-05-27T19:51:56Z" uid="3842253" user="NKA_import" version="1">
		<tag k="fixme" v="consider place=hamlet" />
		<tag k="name" v="Espedalen" />
		<tag k="place" v="hamlet" />
		<tag k="ssr:stedsnr" v="123408" />
		<tag k="ssr:type" v="gard" />
	</node>
	<node changeset="59321142" id="5646285104" lat="59.4359028" lon="8.8711639" timestamp="2018-05-27T19:51:56Z" uid="3842253" user="NKA_import" version="1">
		<tag k="name" v="Haugen" />
		<tag k="place" v="farm" />
		<tag k="ssr:stedsnr" v="878878" />
		<tag k="ssr:type" v="bruk" />
	</node>
	<node changeset="59321142" id="5646285105" lat="59.4880889" lon="9.0435694" timestamp="2018-05-27T19:51:56Z" uid="3842253" user="NKA_import" version="1">
		<tag k="historic" v="shieling" />
		<tag k="name" v="Veltunstulen" />
		<tag k="place" v="locality" />
		<tag k="ssr:stedsnr" v="573708" />
		<tag k="ssr:type" v="gammelBosettingsplass" />
	</node>
	<node changeset="59321142" id="5646285106" lat="59.4153333" lon="9.0797861" timestamp="2018-05-27T19:51:56Z" uid="3842253" user="NKA_import" version="1">
		<tag k="fixme" v="consider place=hamlet" />
		<tag k="name" v="Grivi" />
		<tag k="place" v="farm" />
		<tag k="ssr:stedsnr" v="123415" />
		<tag k="ssr:type" v="gard" />
	</node>
	<node changeset="59321142" id="5646285107" lat="59.4263278" lon="9.0029" timestamp="2018-05-27T19:51:56Z" uid="3842253" user="NKA_import" version="1">
		<tag k="name" v="Siglhus" />
		<tag k="place" v="farm" />
		<tag k="ssr:stedsnr" v="573810" />
		<tag k="ssr:type" v="bruk" />
	</node>
	<node changeset="59321142" id="5646285108" lat="59.4137" lon="9.0230083" timestamp="2018-05-27T19:51:56Z" uid="3842253" user="NKA_import" version="1">
		<tag k="name" v="Glenna" />
		<tag k="place" v="farm" />
		<tag k="ssr:stedsnr" v="123420" />
		<tag k="ssr:type" v="bruk" />
	</node>
	<node changeset="59321142" id="5646285109" lat="59.4181889" lon="8.92275" timestamp="2018-05-27T19:51:56Z" uid="3842253" user="NKA_import" version="1">
		<tag k="name" v="Skrikerud" />
		<tag k="place" v="farm" />
		<tag k="ssr:stedsnr" v="123430" />
		<tag k="ssr:type" v="bruk" />
	</node>
	<node changeset="59321142" id="5646285110" lat="59.4151972" lon="8.9275444" timestamp="2018-05-27T19:51:56Z" uid="3842253" user="NKA_import" version="1">
		<tag k="name" v="Hegna" />
		<tag k="place" v="farm" />
		<tag k="ssr:stedsnr" v="123431" />
		<tag k="ssr:type" v="bruk" />
	</node>
	<node changeset="59321142" id="5646285111" lat="59.3521389" lon="8.9134306" timestamp="2018-05-27T19:51:57Z" uid="3842253" user="NKA_import" version="1">
		<tag k="historic" v="shieling" />
		<tag k="name" v="Grånåstul" />
		<tag k="place" v="locality" />
		<tag k="ssr:stedsnr" v="912265" />
		<tag k="ssr:type" v="seterStøl" />
	</node>
	<node changeset="59321142" id="5646285112" lat="59.4113977" lon="9.0959482" timestamp="2018-05-27T19:51:57Z" uid="3842253" user="NKA_import" version="1">
		<tag k="name" v="Rotebergmoen" />
		<tag k="place" v="neighbourhood" />
		<tag k="ssr:stedsnr" v="123453" />
		<tag k="ssr:type" v="fabrikk" />
	</node>
	<node changeset="59321142" id="5646285113" lat="59.3896556" lon="8.9320815" timestamp="2018-05-27T19:51:57Z" uid="3842253" user="NKA_import" version="1">
		<tag k="building" v="cabin" />
		<tag k="name" v="Kasin" />
		<tag k="place" v="isolated_dwelling" />
		<tag k="ssr:stedsnr" v="912335" />
		<tag k="ssr:type" v="fritidsbolig" />
	</node>
	<node changeset="59321142" id="5646285114" lat="59.3701083" lon="8.8813445" timestamp="2018-05-27T19:51:57Z" uid="3842253" user="NKA_import" version="1">
		<tag k="name" v="Bakkjer" />
		<tag k="place" v="locality" />
		<tag k="ssr:stedsnr" v="574257" />
		<tag k="ssr:type" v="gammelBosettingsplass" />
	</node>
	<node changeset="59321142" id="5646285115" lat="59.4585667" lon="8.9088917" timestamp="2018-05-27T19:51:57Z" uid="3842253" user="NKA_import" version="1">
		<tag k="alt_name" v="Myklestøl" />
		<tag k="fixme" v="consider place=hamlet" />
		<tag k="historic" v="shieling" />
		<tag k="name" v="Myklestul" />
		<tag k="place" v="farm" />
		<tag k="ssr:stedsnr" v="123522" />
		<tag k="ssr:type" v="gard" />
	</node>
	<node changeset="59321142" id="5646285116" lat="59.4318722" lon="9.0810556" timestamp="2018-05-27T19:51:57Z" uid="3842253" user="NKA_import" version="1">
		<tag k="name" v="Myrane" />
		<tag k="place" v="farm" />
		<tag k="ssr:stedsnr" v="912439" />
		<tag k="ssr:type" v="bruk" />
	</node>
	<node changeset="59321142" id="5646285117" lat="59.4723167" lon="8.9319278" timestamp="2018-05-27T19:51:57Z" uid="3842253" user="NKA_import" version="1">
		<tag k="name" v="Røksbu" />
		<tag k="place" v="locality" />
		<tag k="ssr:stedsnr" v="123646" />
		<tag k="ssr:type" v="gammelBosettingsplass" />
	</node>
	<node changeset="59321142" id="5646285118" lat="59.4399583" lon="9.0171194" timestamp="2018-05-27T19:51:57Z" uid="3842253" user="NKA_import" version="1">
		<tag k="alt_name" v="Torskåsa" />
		<tag k="name" v="Torekåsa" />
		<tag k="place" v="farm" />
		<tag k="ssr:stedsnr" v="912456" />
		<tag k="ssr:type" v="bruk" />
	</node>
	<node changeset="59321142" id="5646285119" lat="59.4804361" lon="9.024275" timestamp="2018-05-27T19:51:57Z" uid="3842253" user="NKA_import" version="1">
		<tag k="alt_name" v="Kikkut" />
		<tag k="name" v="Kikut" />
		<tag k="place" v="locality" />
		<tag k="ssr:stedsnr" v="123659" />
		<tag k="ssr:type" v="gammelBosettingsplass" />
	</node>
	<node changeset="59321142" id="5646285120" lat="59.3779111" lon="9.0135111" timestamp="2018-05-27T19:51:57Z" uid="3842253" user="NKA_import" version="1">
		<tag k="name" v="Hegna" />
		<tag k="place" v="farm" />
		<tag k="ssr:stedsnr" v="124291" />
		<tag k="ssr:type" v="bruk" />
	</node>
	<node changeset="59321142" id="649359750" lat="59.4510738" lon="9.0709301" timestamp="2018-05-27T19:52:13Z" uid="3842253" user="NKA_import" version="3" />
	<node changeset="59321142" id="5646285321" lat="59.4386444" lon="9.0700555" timestamp="2018-05-27T19:51:58Z" uid="3842253" user="NKA_import" version="1">
		<tag k="alt_name" v="Helldal" />
		<tag k="name" v="Heldal" />
		<tag k="place" v="farm" />
		<tag k="ssr:stedsnr" v="912486" />
		<tag k="ssr:type" v="bruk" />
	</node>
	<node changeset="59321142" id="5646285322" lat="59.5035611" lon="9.1362222" timestamp="2018-05-27T19:51:58Z" uid="3842253" user="NKA_import" version="1">
		<tag k="alt_name" v="Bjørnemyr" />
		<tag k="name" v="Bjønnemyr" />
		<tag k="place" v="farm" />
		<tag k="ssr:stedsnr" v="124410" />
		<tag k="ssr:type" v="bruk" />
	</node>
	<node changeset="59321142" id="5646285323" lat="59.4860949" lon="9.0268095" timestamp="2018-05-27T19:51:58Z" uid="3842253" user="NKA_import" version="1">
		<tag k="building" v="cabin" />
		<tag k="name" v="Sudknalian" />
		<tag k="place" v="isolated_dwelling" />
		<tag k="ssr:stedsnr" v="912594" />
		<tag k="ssr:type" v="fritidsbolig" />
	</node>
	<node changeset="59321142" id="5646285324" lat="59.5129559" lon="9.0717752" timestamp="2018-05-27T19:51:58Z" uid="3842253" user="NKA_import" version="1">
		<tag k="building" v="farm_auxiliary" />
		<tag k="name" v="Andersli" />
		<tag k="place" v="locality" />
		<tag k="ssr:stedsnr" v="124412" />
		<tag k="ssr:type" v="byggForJordbrukFiskeOgFangst" />
	</node>
	<node changeset="59321142" id="5646285325" lat="59.4982917" lon="9.1329806" timestamp="2018-05-27T19:51:58Z" uid="3842253" user="NKA_import" version="1">
		<tag k="name" v="Slåtta" />
		<tag k="place" v="farm" />
		<tag k="ssr:stedsnr" v="912606" />
		<tag k="ssr:type" v="bruk" />
	</node>
	<node changeset="59321142" id="5646285326" lat="59.4177306" lon="9.0520917" timestamp="2018-05-27T19:51:58Z" uid="3842253" user="NKA_import" version="1">
		<tag k="name" v="Lahus" />
		<tag k="place" v="farm" />
		<tag k="ssr:stedsnr" v="268504" />
		<tag k="ssr:type" v="bruk" />
	</node>
	<node changeset="59321142" id="5646285327" lat="59.389475" lon="8.9884694" timestamp="2018-05-27T19:51:58Z" uid="3842253" user="NKA_import" version="1">
		<tag k="name" v="Dalen" />
		<tag k="place" v="farm" />
		<tag k="ssr:stedsnr" v="913306" />
		<tag k="ssr:type" v="bruk" />
	</node>
	<node changeset="59321142" id="5646285328" lat="59.4695333" lon="8.9468944" timestamp="2018-05-27T19:51:58Z" uid="3842253" user="NKA_import" version="1">
		<tag k="historic" v="shieling" />
		<tag k="name" v="Røytejuvstulen" />
		<tag k="place" v="locality" />
		<tag k="ssr:stedsnr" v="574928" />
		<tag k="ssr:type" v="gammelBosettingsplass" />
	</node>
	<node changeset="59321142" id="5646285329" lat="59.3816889" lon="9.0296389" timestamp="2018-05-27T19:51:58Z" uid="3842253" user="NKA_import" version="1">
		<tag k="fixme" v="consider place=hamlet" />
		<tag k="name" v="Eikjabygda" />
		<tag k="place" v="hamlet" />
		<tag k="ssr:stedsnr" v="913320" />
		<tag k="ssr:type" v="bygdelagBygd" />
	</node>
	<node changeset="59321142" id="5646285330" lat="59.4528583" lon="8.941575" timestamp="2018-05-27T19:51:58Z" uid="3842253" user="NKA_import" version="1">
		<tag k="name" v="Dyrli" />
		<tag k="place" v="locality" />
		<tag k="ssr:stedsnr" v="574964" />
		<tag k="ssr:type" v="gammelBosettingsplass" />
	</node>
	<node changeset="59321142" id="5646285331" lat="59.3894972" lon="8.9694972" timestamp="2018-05-27T19:51:59Z" uid="3842253" user="NKA_import" version="1">
		<tag k="name" v="Kollen" />
		<tag k="place" v="locality" />
		<tag k="ssr:stedsnr" v="145069" />
		<tag k="ssr:type" v="byggForJordbrukFiskeOgFangst" />
	</node>
	<node changeset="59321142" id="5646285332" lat="59.3816143" lon="8.930693" timestamp="2018-05-27T19:51:59Z" uid="3842253" user="NKA_import" version="1">
		<tag k="alt_name" v="Steinurdshol" />
		<tag k="building" v="cabin" />
		<tag k="name" v="Steinulvshol" />
		<tag k="place" v="isolated_dwelling" />
		<tag k="ssr:stedsnr" v="913326" />
		<tag k="ssr:type" v="fritidsbolig" />
	</node>
	<node changeset="59321142" id="5646285333" lat="59.526975" lon="9.0273083" timestamp="2018-05-27T19:51:59Z" uid="3842253" user="NKA_import" version="1">
		<tag k="historic" v="shieling" />
		<tag k="name" v="Tyristul" />
		<tag k="place" v="locality" />
		<tag k="ssr:stedsnr" v="913381" />
		<tag k="ssr:type" v="gammelBosettingsplass" />
	</node>
	<node changeset="59321142" id="5646285334" lat="59.4020667" lon="9.0520333" timestamp="2018-05-27T19:51:59Z" uid="3842253" user="NKA_import" version="1">
		<tag k="name" v="Tandre" />
		<tag k="place" v="farm" />
		<tag k="ssr:stedsnr" v="269295" />
		<tag k="ssr:type" v="bruk" />
	</node>
	<node changeset="59321142" id="5646285335" lat="59.4219798" lon="8.9782178" timestamp="2018-05-27T19:51:59Z" uid="3842253" user="NKA_import" version="1">
		<tag k="name" v="Haugerud" />
		<tag k="place" v="hamlet" />
		<tag k="ssr:stedsnr" v="913416" />
		<tag k="ssr:type" v="bruk" />
	</node>
	<node changeset="59321142" id="5646285336" lat="59.4305222" lon="9.0848694" timestamp="2018-05-27T19:51:59Z" uid="3842253" user="NKA_import" version="1">
		<tag k="name" v="Blakåkerroa" />
		<tag k="place" v="farm" />
		<tag k="ssr:stedsnr" v="146216" />
		<tag k="ssr:type" v="bruk" />
	</node>
	<node changeset="59321142" id="5646285337" lat="59.4196778" lon="9.0326139" timestamp="2018-05-27T19:51:59Z" uid="3842253" user="NKA_import" version="1">
		<tag k="alt_name" v="Midtbø" />
		<tag k="name" v="Midbø" />
		<tag k="place" v="farm" />
		<tag k="ssr:stedsnr" v="913420" />
		<tag k="ssr:type" v="bruk" />
	</node>
	<node changeset="59321142" id="5646285338" lat="59.4579988" lon="8.9927436" timestamp="2018-05-27T19:51:59Z" uid="3842253" user="NKA_import" version="1">
		<tag k="building" v="farm_auxiliary" />
		<tag k="name" v="Åbakkane" />
		<tag k="place" v="locality" />
		<tag k="ssr:stedsnr" v="913442" />
		<tag k="ssr:type" v="byggForJordbrukFiskeOgFangst" />
	</node>
	<node changeset="59321142" id="5646285339" lat="59.3874333" lon="8.9424139" timestamp="2018-05-27T19:51:59Z" uid="3842253" user="NKA_import" version="1">
		<tag k="name" v="Oredalen" />
		<tag k="place" v="farm" />
		<tag k="ssr:stedsnr" v="608326" />
		<tag k="ssr:type" v="bruk" />
	</node>
	<node changeset="59321142" id="5646285340" lat="59.4092806" lon="9.054375" timestamp="2018-05-27T19:51:59Z" uid="3842253" user="NKA_import" version="1">
		<tag k="fixme" v="consider place=hamlet" />
		<tag k="name" v="Bø" />
		<tag k="place" v="farm" />
		<tag k="ssr:stedsnr" v="608354" />
		<tag k="ssr:type" v="gard" />
	</node>
	<node changeset="59321142" id="5646285341" lat="59.4819306" lon="9.0833667" timestamp="2018-05-27T19:51:59Z" uid="3842253" user="NKA_import" version="1">
		<tag k="name" v="Jonskåsine" />
		<tag k="place" v="locality" />
		<tag k="ssr:stedsnr" v="146421" />
		<tag k="ssr:type" v="gammelBosettingsplass" />
	</node>
	<node changeset="59321142" id="5646285342" lat="59.379175" lon="9.0160333" timestamp="2018-05-27T19:52:00Z" uid="3842253" user="NKA_import" version="1">
		<tag k="name" v="Øygarden" />
		<tag k="place" v="farm" />
		<tag k="ssr:stedsnr" v="269365" />
		<tag k="ssr:type" v="bruk" />
	</node>
	<node changeset="59321142" id="5646285343" lat="59.5162194" lon="9.1122306" timestamp="2018-05-27T19:52:00Z" uid="3842253" user="NKA_import" version="1">
		<tag k="alt_name" v="Rudningsland" />
		<tag k="name" v="Rønningsland" />
		<tag k="place" v="farm" />
		<tag k="ssr:stedsnr" v="913451" />
		<tag k="ssr:type" v="bruk" />
	</node>
	<node changeset="59321142" id="5646285344" lat="59.405762" lon="9.0644387" timestamp="2018-05-27T19:52:00Z" uid="3842253" user="NKA_import" version="1">
		<tag k="alt_name" v="Borgen" />
		<tag k="fixme" v="consider place=hamlet" />
		<tag k="name" v="Borgja" />
		<tag k="place" v="farm" />
		<tag k="ssr:stedsnr" v="608357" />
		<tag k="ssr:type" v="gard" />
	</node>
	<node changeset="59321142" id="5646285345" lat="59.4656472" lon="9.1003722" timestamp="2018-05-27T19:52:00Z" uid="3842253" user="NKA_import" version="1">
		<tag k="name" v="Høgfosskåsa" />
		<tag k="place" v="locality" />
		<tag k="ssr:stedsnr" v="269419" />
		<tag k="ssr:type" v="gammelBosettingsplass" />
	</node>
	<node changeset="59321142" id="5646285346" lat="59.4734138" lon="8.9949907" timestamp="2018-05-27T19:52:00Z" uid="3842253" user="NKA_import" version="1">
		<tag k="building" v="farm_auxiliary" />
		<tag k="historic" v="shieling" />
		<tag k="name" v="Grostul" />
		<tag k="place" v="locality" />
		<tag k="ssr:stedsnr" v="913454" />
		<tag k="ssr:type" v="byggForJordbrukFiskeOgFangst" />
	</node>
	<node changeset="59321142" id="5646285347" lat="59.4764505" lon="9.1430062" timestamp="2018-05-27T19:52:00Z" uid="3842253" user="NKA_import" version="1">
		<tag k="building" v="farm_auxiliary" />
		<tag k="name" v="Solbjør" />
		<tag k="place" v="locality" />
		<tag k="ssr:stedsnr" v="913568" />
		<tag k="ssr:type" v="byggForJordbrukFiskeOgFangst" />
	</node>
	<node changeset="59321142" id="5646285348" lat="59.4435921" lon="9.0308129" timestamp="2018-05-27T19:52:00Z" uid="3842253" user="NKA_import" version="1">
		<tag k="fixme" v="consider place=hamlet" />
		<tag k="name" v="Li" />
		<tag k="place" v="hamlet" />
		<tag k="ssr:stedsnr" v="608456" />
		<tag k="ssr:type" v="gard" />
	</node>
	<node changeset="59321142" id="5646285349" lat="59.4132667" lon="9.1050333" timestamp="2018-05-27T19:52:00Z" uid="3842253" user="NKA_import" version="1">
		<tag k="name" v="Slåttun" />
		<tag k="place" v="farm" />
		<tag k="ssr:stedsnr" v="146692" />
		<tag k="ssr:type" v="bruk" />
	</node>
	<node changeset="59321142" id="5646285350" lat="59.4741389" lon="9.0718278" timestamp="2018-05-27T19:52:00Z" uid="3842253" user="NKA_import" version="1">
		<tag k="alt_name" v="Skjellbreid" />
		<tag k="name" v="Skjelbreid" />
		<tag k="place" v="farm" />
		<tag k="ssr:stedsnr" v="913572" />
		<tag k="ssr:type" v="bruk" />
	</node>
	<node changeset="59321142" id="5646285351" lat="59.5147556" lon="9.0071139" timestamp="2018-05-27T19:52:00Z" uid="3842253" user="NKA_import" version="1">
		<tag k="name" v="Bjønnliane" />
		<tag k="place" v="locality" />
		<tag k="ssr:stedsnr" v="269585" />
		<tag k="ssr:type" v="gammelBosettingsplass" />
	</node>
	<node changeset="59321142" id="5646285352" lat="59.421449" lon="8.899407" timestamp="2018-05-27T19:52:01Z" uid="3842253" user="NKA_import" version="1">
		<tag k="name" v="Verpe" />
		<tag k="place" v="hamlet" />
		<tag k="ssr:stedsnr" v="935453" />
		<tag k="ssr:type" v="grend" />
	</node>
	<node changeset="59321142" id="5646285353" lat="59.3800139" lon="8.9800694" timestamp="2018-05-27T19:52:01Z" uid="3842253" user="NKA_import" version="1">
		<tag k="alt_name" v="Sommargrav" />
		<tag k="name" v="Sommarligrav" />
		<tag k="place" v="farm" />
		<tag k="ssr:stedsnr" v="609329" />
		<tag k="ssr:type" v="bruk" />
	</node>
	<node changeset="59321142" id="5646285354" lat="59.3802856" lon="8.9706277" timestamp="2018-05-27T19:52:01Z" uid="3842253" user="NKA_import" version="1">
		<tag k="building" v="cabin" />
		<tag k="name" v="Langedal" />
		<tag k="place" v="isolated_dwelling" />
		<tag k="ssr:stedsnr" v="609331" />
		<tag k="ssr:type" v="fritidsbolig" />
	</node>
	<node changeset="59321142" id="5646285355" lat="59.3794503" lon="8.9611766" timestamp="2018-05-27T19:52:01Z" uid="3842253" user="NKA_import" version="1">
		<tag k="alt_name" v="Vesledala" />
		<tag k="building" v="cabin" />
		<tag k="name" v="Vesledal" />
		<tag k="place" v="isolated_dwelling" />
		<tag k="ssr:stedsnr" v="609332" />
		<tag k="ssr:type" v="fritidsbolig" />
	</node>
	<node changeset="59321142" id="5646285356" lat="59.4051139" lon="8.939075" timestamp="2018-05-27T19:52:01Z" uid="3842253" user="NKA_import" version="1">
		<tag k="name" v="Haugene" />
		<tag k="place" v="farm" />
		<tag k="ssr:stedsnr" v="147103" />
		<tag k="ssr:type" v="bruk" />
	</node>
	<node changeset="59321142" id="5646285357" lat="59.4889889" lon="9.0263945" timestamp="2018-05-27T19:52:01Z" uid="3842253" user="NKA_import" version="1">
		<tag k="name" v="Knaliane" />
		<tag k="place" v="locality" />
		<tag k="ssr:stedsnr" v="270721" />
		<tag k="ssr:type" v="gammelBosettingsplass" />
	</node>
	<node changeset="59321142" id="5646285358" lat="59.4436694" lon="9.0216528" timestamp="2018-05-27T19:52:01Z" uid="3842253" user="NKA_import" version="1">
		<tag k="name" v="Bakkåker" />
		<tag k="place" v="farm" />
		<tag k="ssr:stedsnr" v="936024" />
		<tag k="ssr:type" v="bruk" />
	</node>
	<node changeset="59321142" id="5646285359" lat="59.4152639" lon="8.9520278" timestamp="2018-05-27T19:52:01Z" uid="3842253" user="NKA_import" version="1">
		<tag k="name" v="Haugen" />
		<tag k="place" v="farm" />
		<tag k="ssr:stedsnr" v="609372" />
		<tag k="ssr:type" v="bruk" />
	</node>
	<node changeset="59321142" id="5646285360" lat="59.4556944" lon="8.9502611" timestamp="2018-05-27T19:52:01Z" uid="3842253" user="NKA_import" version="1">
		<tag k="name" v="Sagalauvås" />
		<tag k="place" v="locality" />
		<tag k="ssr:stedsnr" v="271075" />
		<tag k="ssr:type" v="gammelBosettingsplass" />
	</node>
	<node changeset="59321142" id="5646285361" lat="59.4191389" lon="8.907175" timestamp="2018-05-27T19:52:01Z" uid="3842253" user="NKA_import" version="1">
		<tag k="name" v="Langedrag" />
		<tag k="place" v="locality" />
		<tag k="ssr:stedsnr" v="147140" />
		<tag k="ssr:type" v="gammelBosettingsplass" />
	</node>
	<node changeset="59321142" id="5646285362" lat="59.4141167" lon="9.120075" timestamp="2018-05-27T19:52:01Z" uid="3842253" user="NKA_import" version="1">
		<tag k="name" v="Åmot" />
		<tag k="place" v="farm" />
		<tag k="ssr:stedsnr" v="609389" />
		<tag k="ssr:type" v="bruk" />
	</node>
	<node changeset="59321142" id="5646285363" lat="59.431125" lon="9.0041694" timestamp="2018-05-27T19:52:02Z" uid="3842253" user="NKA_import" version="1">
		<tag k="name" v="Innleggen" />
		<tag k="place" v="farm" />
		<tag k="ssr:stedsnr" v="609404" />
		<tag k="ssr:type" v="bruk" />
	</node>
	<node changeset="59321142" id="5646285364" lat="59.4227139" lon="9.1063778" timestamp="2018-05-27T19:52:02Z" uid="3842253" user="NKA_import" version="1">
		<tag k="building" v="yes" />
		<tag k="name" v="Valen skule" />
		<tag k="ssr:stedsnr" v="147220" />
		<tag k="ssr:type" v="skole" />
	</node>
	<node changeset="59321142" id="5646285365" lat="59.4213056" lon="9.1253028" timestamp="2018-05-27T19:52:02Z" uid="3842253" user="NKA_import" version="1">
		<tag k="name" v="Fosslund" />
		<tag k="place" v="farm" />
		<tag k="ssr:stedsnr" v="936173" />
		<tag k="ssr:type" v="bruk" />
	</node>
	<node changeset="59321142" id="5646285366" lat="59.430875" lon="9.0260611" timestamp="2018-05-27T19:52:02Z" uid="3842253" user="NKA_import" version="1">
		<tag k="name" v="Tollehaugen" />
		<tag k="place" v="farm" />
		<tag k="ssr:stedsnr" v="609410" />
		<tag k="ssr:type" v="bruk" />
	</node>
	<node changeset="59321142" id="5646285367" lat="59.4231639" lon="9.0739722" timestamp="2018-05-27T19:52:02Z" uid="3842253" user="NKA_import" version="1">
		<tag k="name" v="Kåsa" />
		<tag k="place" v="locality" />
		<tag k="ssr:stedsnr" v="147229" />
		<tag k="ssr:type" v="gammelBosettingsplass" />
	</node>
	<node changeset="59321142" id="5646285368" lat="59.4060889" lon="9.0394694" timestamp="2018-05-27T19:52:02Z" uid="3842253" user="NKA_import" version="1">
		<tag k="fixme" v="consider place=farm" />
		<tag k="name" v="Moland" />
		<tag k="place" v="isolated_dwelling" />
		<tag k="ssr:stedsnr" v="147264" />
		<tag k="ssr:type" v="eneboligMindreBoligbygg" />
	</node>
	<node changeset="59321142" id="5646285369" lat="59.42385" lon="9.0257861" timestamp="2018-05-27T19:52:02Z" uid="3842253" user="NKA_import" version="1">
		<tag k="name" v="Saga" />
		<tag k="place" v="farm" />
		<tag k="ssr:stedsnr" v="609421" />
		<tag k="ssr:type" v="bruk" />
	</node>
	<node changeset="59321142" id="5646285370" lat="59.4220667" lon="8.8980417" timestamp="2018-05-27T19:52:02Z" uid="3842253" user="NKA_import" version="1">
		<tag k="fixme" v="consider place=farm" />
		<tag k="name" v="Vegheim" />
		<tag k="place" v="isolated_dwelling" />
		<tag k="ssr:stedsnr" v="271826" />
		<tag k="ssr:type" v="eneboligMindreBoligbygg" />
	</node>
	<node changeset="59321142" id="5646285371" lat="59.4076361" lon="9.0367333" timestamp="2018-05-27T19:52:02Z" uid="3842253" user="NKA_import" version="1">
		<tag k="name" v="Lensegrav" />
		<tag k="place" v="locality" />
		<tag k="ssr:stedsnr" v="936238" />
		<tag k="ssr:type" v="gammelBosettingsplass" />
	</node>
	<node changeset="59321142" id="5646285372" lat="59.4213174" lon="9.007565" timestamp="2018-05-27T19:52:02Z" uid="3842253" user="NKA_import" version="1">
		<tag k="name" v="Bakås" />
		<tag k="place" v="hamlet" />
		<tag k="ssr:stedsnr" v="609422" />
		<tag k="ssr:type" v="bruk" />
	</node>
	<node changeset="59321142" id="5646285373" lat="59.4384083" lon="9.1298861" timestamp="2018-05-27T19:52:02Z" uid="3842253" user="NKA_import" version="1">
		<tag k="name" v="Åbakken" />
		<tag k="place" v="locality" />
		<tag k="ssr:stedsnr" v="147288" />
		<tag k="ssr:type" v="gammelBosettingsplass" />
	</node>
	<node changeset="59321142" id="5646285375" lat="59.4276111" lon="9.045275" timestamp="2018-05-27T19:52:03Z" uid="3842253" user="NKA_import" version="1">
		<tag k="name" v="Brukås" />
		<tag k="place" v="farm" />
		<tag k="ssr:stedsnr" v="609424" />
		<tag k="ssr:type" v="bruk" />
	</node>
	<node changeset="59321142" id="5646285376" lat="59.4363167" lon="8.8824667" timestamp="2018-05-27T19:52:03Z" uid="3842253" user="NKA_import" version="1">
		<tag k="name" v="Kupa" />
		<tag k="place" v="locality" />
		<tag k="ssr:stedsnr" v="271914" />
		<tag k="ssr:type" v="gammelBosettingsplass" />
	</node>
	<node changeset="59321142" id="5646285377" lat="59.4600131" lon="9.1065865" timestamp="2018-05-27T19:52:03Z" uid="3842253" user="NKA_import" version="1">
		<tag k="building" v="farm_auxiliary" />
		<tag k="name" v="Brukåsa" />
		<tag k="place" v="locality" />
		<tag k="ssr:stedsnr" v="609467" />
		<tag k="ssr:type" v="byggForJordbrukFiskeOgFangst" />
	</node>
	<node changeset="59321142" id="5646285378" lat="59.4807667" lon="9.0641083" timestamp="2018-05-27T19:52:03Z" uid="3842253" user="NKA_import" version="1">
		<tag k="name" v="Åsesaga" />
		<tag k="place" v="locality" />
		<tag k="ssr:stedsnr" v="147458" />
		<tag k="ssr:type" v="annenIndustri-OgLagerbygning" />
	</node>
	<node changeset="59321142" id="5646285379" lat="59.4321889" lon="9.0489389" timestamp="2018-05-27T19:52:03Z" uid="3842253" user="NKA_import" version="1">
		<tag k="name" v="Sagamyra" />
		<tag k="place" v="farm" />
		<tag k="ssr:stedsnr" v="147540" />
		<tag k="ssr:type" v="bruk" />
	</node>
	<node changeset="59321142" id="5646285380" lat="59.4305306" lon="9.0195" timestamp="2018-05-27T19:52:03Z" uid="3842253" user="NKA_import" version="1">
		<tag k="name" v="Rue" />
		<tag k="place" v="farm" />
		<tag k="ssr:stedsnr" v="936551" />
		<tag k="ssr:type" v="bruk" />
	</node>
	<node changeset="59321142" id="5646285381" lat="59.4915056" lon="9.0719139" timestamp="2018-05-27T19:52:03Z" uid="3842253" user="NKA_import" version="1">
		<tag k="name" v="Slåtta" />
		<tag k="place" v="locality" />
		<tag k="ssr:stedsnr" v="936566" />
		<tag k="ssr:type" v="gammelBosettingsplass" />
	</node>
	<node changeset="59321142" id="5646285382" lat="59.4237583" lon="9.051225" timestamp="2018-05-27T19:52:03Z" uid="3842253" user="NKA_import" version="1">
		<tag k="name" v="Krossvegen" />
		<tag k="place" v="farm" />
		<tag k="ssr:stedsnr" v="631554" />
		<tag k="ssr:type" v="bruk" />
	</node>
	<node changeset="59321142" id="5646285383" lat="59.4385972" lon="9.0312472" timestamp="2018-05-27T19:52:03Z" uid="3842253" user="NKA_import" version="1">
		<tag k="name" v="Langemyr" />
		<tag k="place" v="farm" />
		<tag k="ssr:stedsnr" v="147578" />
		<tag k="ssr:type" v="bruk" />
	</node>
	<node changeset="59321142" id="5646285384" lat="59.4012722" lon="9.05075" timestamp="2018-05-27T19:52:03Z" uid="3842253" user="NKA_import" version="1">
		<tag k="name" v="Klokkarstugo" />
		<tag k="place" v="farm" />
		<tag k="ssr:stedsnr" v="305374" />
		<tag k="ssr:type" v="bruk" />
	</node>
	<node changeset="59321142" id="5646285385" lat="59.4251472" lon="9.0553917" timestamp="2018-05-27T19:52:03Z" uid="3842253" user="NKA_import" version="1">
		<tag k="name" v="Langkås" />
		<tag k="place" v="farm" />
		<tag k="ssr:stedsnr" v="631568" />
		<tag k="ssr:type" v="bruk" />
	</node>
	<node changeset="59321142" id="5646285386" lat="59.3861959" lon="8.8947941" timestamp="2018-05-27T19:52:04Z" uid="3842253" user="NKA_import" version="1">
		<tag k="alt_name" v="Ramsåsstulen" />
		<tag k="building" v="cabin" />
		<tag k="historic" v="shieling" />
		<tag k="name" v="Ramsås" />
		<tag k="place" v="isolated_dwelling" />
		<tag k="ssr:stedsnr" v="305388" />
		<tag k="ssr:type" v="fritidsbolig" />
	</node>
	<node changeset="59321142" id="5646285387" lat="59.4957056" lon="9.0912444" timestamp="2018-05-27T19:52:04Z" uid="3842253" user="NKA_import" version="1">
		<tag k="name" v="Plassen" />
		<tag k="place" v="farm" />
		<tag k="ssr:stedsnr" v="936576" />
		<tag k="ssr:type" v="bruk" />
	</node>
	<node changeset="59321142" id="5646285388" lat="59.4090444" lon="8.9196111" timestamp="2018-05-27T19:52:04Z" uid="3842253" user="NKA_import" version="1">
		<tag k="alt_name" v="Lovald" />
		<tag k="name" v="Løvoll" />
		<tag k="place" v="farm" />
		<tag k="ssr:stedsnr" v="305412" />
		<tag k="ssr:type" v="bruk" />
	</node>
	<node changeset="59321142" id="5646285389" lat="59.4045972" lon="9.0083861" timestamp="2018-05-27T19:52:04Z" uid="3842253" user="NKA_import" version="1">
		<tag k="alt_name" v="Kåsa" />
		<tag k="name" v="Slåtta" />
		<tag k="place" v="farm" />
		<tag k="ssr:stedsnr" v="305418" />
		<tag k="ssr:type" v="bruk" />
	</node>
	<node changeset="59321142" id="5646285390" lat="59.4347639" lon="9.0907556" timestamp="2018-05-27T19:52:04Z" uid="3842253" user="NKA_import" version="1">
		<tag k="name" v="Rullnes" />
		<tag k="place" v="farm" />
		<tag k="ssr:stedsnr" v="305440" />
		<tag k="ssr:type" v="bruk" />
	</node>
	<node changeset="59321142" id="5646285391" lat="59.4407444" lon="9.032925" timestamp="2018-05-27T19:52:04Z" uid="3842253" user="NKA_import" version="1">
		<tag k="alt_name" v="Hegna" />
		<tag k="name" v="Lihegna" />
		<tag k="place" v="farm" />
		<tag k="ssr:stedsnr" v="305496" />
		<tag k="ssr:type" v="bruk" />
	</node>
	<node changeset="59321142" id="5646285392" lat="59.4918222" lon="9.1482861" timestamp="2018-05-27T19:52:04Z" uid="3842253" user="NKA_import" version="1">
		<tag k="name" v="Myrjord" />
		<tag k="place" v="farm" />
		<tag k="ssr:stedsnr" v="936588" />
		<tag k="ssr:type" v="bruk" />
	</node>
	<node changeset="59321142" id="5646285393" lat="59.4872734" lon="9.1714614" timestamp="2018-05-27T19:52:04Z" uid="3842253" user="NKA_import" version="1">
		<tag k="building" v="cabin" />
		<tag k="name" v="Mattisplassen" />
		<tag k="place" v="isolated_dwelling" />
		<tag k="ssr:stedsnr" v="936604" />
		<tag k="ssr:type" v="fritidsbolig" />
	</node>
	<node changeset="59321142" id="5646285394" lat="59.4099806" lon="8.9878833" timestamp="2018-05-27T19:52:04Z" uid="3842253" user="NKA_import" version="1">
		<tag k="name" v="Storhaug" />
		<tag k="place" v="farm" />
		<tag k="ssr:stedsnr" v="632086" />
		<tag k="ssr:type" v="bruk" />
	</node>
	<node changeset="59321142" id="5646285395" lat="59.4840444" lon="8.9684528" timestamp="2018-05-27T19:52:04Z" uid="3842253" user="NKA_import" version="1">
		<tag k="historic" v="shieling" />
		<tag k="name" v="Nybu" />
		<tag k="place" v="locality" />
		<tag k="ssr:stedsnr" v="305617" />
		<tag k="ssr:type" v="seterStøl" />
	</node>
	<node changeset="59321142" id="5646285396" lat="59.4097694" lon="8.9850083" timestamp="2018-05-27T19:52:05Z" uid="3842253" user="NKA_import" version="1">
		<tag k="name" v="Bjørkestad" />
		<tag k="place" v="farm" />
		<tag k="ssr:stedsnr" v="632087" />
		<tag k="ssr:type" v="bruk" />
	</node>
	<node changeset="59321142" id="5646285397" lat="59.4118583" lon="9.0195389" timestamp="2018-05-27T19:52:05Z" uid="3842253" user="NKA_import" version="1">
		<tag k="name" v="Espeset" />
		<tag k="place" v="farm" />
		<tag k="ssr:stedsnr" v="632278" />
		<tag k="ssr:type" v="bruk" />
	</node>
	<node changeset="59321142" id="5646285398" lat="59.4288028" lon="9.1299944" timestamp="2018-05-27T19:52:05Z" uid="3842253" user="NKA_import" version="1">
		<tag k="name" v="Triland" />
		<tag k="place" v="farm" />
		<tag k="ssr:stedsnr" v="632317" />
		<tag k="ssr:type" v="bruk" />
	</node>
	<node changeset="59321142" id="5646285399" lat="59.3894139" lon="8.9012306" timestamp="2018-05-27T19:52:05Z" uid="3842253" user="NKA_import" version="1">
		<tag k="name" v="Langløyningen" />
		<tag k="place" v="locality" />
		<tag k="ssr:stedsnr" v="149016" />
		<tag k="ssr:type" v="gammelBosettingsplass" />
	</node>
	<node changeset="59321142" id="5646285400" lat="59.4730306" lon="9.0741167" timestamp="2018-05-27T19:52:05Z" uid="3842253" user="NKA_import" version="1">
		<tag k="name" v="Sjellbreidhaugen" />
		<tag k="place" v="locality" />
		<tag k="ssr:stedsnr" v="632479" />
		<tag k="ssr:type" v="gammelBosettingsplass" />
	</node>
	<node changeset="59321142" id="5646285401" lat="59.3656028" lon="8.927075" timestamp="2018-05-27T19:52:05Z" uid="3842253" user="NKA_import" version="1">
		<tag k="historic" v="shieling" />
		<tag k="name" v="Holmstul" />
		<tag k="place" v="locality" />
		<tag k="ssr:stedsnr" v="149037" />
		<tag k="ssr:type" v="gammelBosettingsplass" />
	</node>
	<node changeset="59321142" id="5646285402" lat="59.3752306" lon="9.0125833" timestamp="2018-05-27T19:52:05Z" uid="3842253" user="NKA_import" version="1">
		<tag k="alt_name" v="Bergvad" />
		<tag k="name" v="Bergva" />
		<tag k="place" v="farm" />
		<tag k="ssr:stedsnr" v="306335" />
		<tag k="ssr:type" v="bruk" />
	</node>
	<node changeset="59321142" id="5646285403" lat="59.4055056" lon="9.1223528" timestamp="2018-05-27T19:52:05Z" uid="3842253" user="NKA_import" version="1">
		<tag k="name" v="Bakke" />
		<tag k="place" v="farm" />
		<tag k="ssr:stedsnr" v="936976" />
		<tag k="ssr:type" v="bruk" />
	</node>
	<node changeset="59321142" id="5646285404" lat="59.416475" lon="9.0372028" timestamp="2018-05-27T19:52:05Z" uid="3842253" user="NKA_import" version="1">
		<tag k="fixme" v="consider place=farm" />
		<tag k="name" v="Bakkane" />
		<tag k="place" v="isolated_dwelling" />
		<tag k="ssr:stedsnr" v="632509" />
		<tag k="ssr:type" v="eneboligMindreBoligbygg" />
	</node>
	<node changeset="59321142" id="5646285405" lat="59.4078889" lon="9.1181083" timestamp="2018-05-27T19:52:05Z" uid="3842253" user="NKA_import" version="1">
		<tag k="name" v="Bakkemoen" />
		<tag k="place" v="farm" />
		<tag k="ssr:stedsnr" v="936978" />
		<tag k="ssr:type" v="bruk" />
	</node>
	<node changeset="59321142" id="5646285406" lat="59.4142449" lon="8.8475958" timestamp="2018-05-27T19:52:06Z" uid="3842253" user="NKA_import" version="1">
		<tag k="building" v="farm_auxiliary" />
		<tag k="name" v="Grabbu" />
		<tag k="place" v="locality" />
		<tag k="ssr:stedsnr" v="306379" />
		<tag k="ssr:type" v="byggForJordbrukFiskeOgFangst" />
	</node>
	<node changeset="59321142" id="5646285407" lat="59.4264055" lon="9.0835126" timestamp="2018-05-27T19:52:06Z" uid="3842253" user="NKA_import" version="1">
		<tag k="fixme" v="consider place=hamlet" />
		<tag k="name" v="Ågetveit" />
		<tag k="place" v="hamlet" />
		<tag k="ssr:stedsnr" v="306410" />
		<tag k="ssr:type" v="gard" />
	</node>
	<node changeset="59321142" id="5646285408" lat="59.4145861" lon="8.9633583" timestamp="2018-05-27T19:52:06Z" uid="3842253" user="NKA_import" version="1">
		<tag k="fixme" v="consider place=farm" />
		<tag k="name" v="Nyheim" />
		<tag k="place" v="isolated_dwelling" />
		<tag k="ssr:stedsnr" v="937056" />
		<tag k="ssr:type" v="eneboligMindreBoligbygg" />
	</node>
	<node changeset="59321142" id="5646285409" lat="59.4904278" lon="9.1008778" timestamp="2018-05-27T19:52:06Z" uid="3842253" user="NKA_import" version="1">
		<tag k="name" v="Elvestad" />
		<tag k="place" v="farm" />
		<tag k="ssr:stedsnr" v="632569" />
		<tag k="ssr:type" v="bruk" />
	</node>
	<node changeset="59321142" id="5646285410" lat="59.4661833" lon="8.9954139" timestamp="2018-05-27T19:52:06Z" uid="3842253" user="NKA_import" version="1">
		<tag k="historic" v="shieling" />
		<tag k="name" v="Fønnstul" />
		<tag k="place" v="locality" />
		<tag k="ssr:stedsnr" v="149694" />
		<tag k="ssr:type" v="gammelBosettingsplass" />
	</node>
	<node changeset="59321142" id="5646285411" lat="59.4206708" lon="9.1035727" timestamp="2018-05-27T19:52:06Z" uid="3842253" user="NKA_import" version="1">
		<tag k="fixme" v="consider place=hamlet" />
		<tag k="name" v="Vestgarden" />
		<tag k="place" v="hamlet" />
		<tag k="ssr:stedsnr" v="306414" />
		<tag k="ssr:type" v="gard" />
	</node>
	<node changeset="59321142" id="5646285412" lat="59.4362472" lon="9.07845" timestamp="2018-05-27T19:52:06Z" uid="3842253" user="NKA_import" version="1">
		<tag k="name" v="Plassen" />
		<tag k="place" v="farm" />
		<tag k="ssr:stedsnr" v="937063" />
		<tag k="ssr:type" v="bruk" />
	</node>
	<node changeset="59321142" id="5646285413" lat="59.4100972" lon="8.9346833" timestamp="2018-05-27T19:52:06Z" uid="3842253" user="NKA_import" version="1">
		<tag k="name" v="Moen" />
		<tag k="place" v="farm" />
		<tag k="ssr:stedsnr" v="937139" />
		<tag k="ssr:type" v="bruk" />
	</node>
	<node changeset="59321142" id="5646285414" lat="59.4041472" lon="9.1113194" timestamp="2018-05-27T19:52:06Z" uid="3842253" user="NKA_import" version="1">
		<tag k="name" v="Skogen" />
		<tag k="place" v="farm" />
		<tag k="ssr:stedsnr" v="632635" />
		<tag k="ssr:type" v="bruk" />
	</node>
	<node changeset="59321142" id="5646285415" lat="59.4058194" lon="9.1192083" timestamp="2018-05-27T19:52:06Z" uid="3842253" user="NKA_import" version="1">
		<tag k="name" v="Skogkåsa" />
		<tag k="place" v="farm" />
		<tag k="ssr:stedsnr" v="632978" />
		<tag k="ssr:type" v="bruk" />
	</node>
	<node changeset="59321142" id="5646285416" lat="59.42495" lon="8.8836389" timestamp="2018-05-27T19:52:07Z" uid="3842253" user="NKA_import" version="1">
		<tag k="name" v="Raumyr" />
		<tag k="place" v="farm" />
		<tag k="ssr:stedsnr" v="149852" />
		<tag k="ssr:type" v="bruk" />
	</node>
	<node changeset="59321142" id="5646285417" lat="59.4369333" lon="9.0674833" timestamp="2018-05-27T19:52:07Z" uid="3842253" user="NKA_import" version="1">
		<tag k="name" v="Langkås" />
		<tag k="place" v="farm" />
		<tag k="ssr:stedsnr" v="633065" />
		<tag k="ssr:type" v="bruk" />
	</node>
	<node changeset="59321142" id="5646285418" lat="59.4093" lon="8.9379472" timestamp="2018-05-27T19:52:07Z" uid="3842253" user="NKA_import" version="1">
		<tag k="name" v="Nymoen" />
		<tag k="place" v="farm" />
		<tag k="ssr:stedsnr" v="633130" />
		<tag k="ssr:type" v="bruk" />
	</node>
	<node changeset="59321142" id="5646285419" lat="59.4259333" lon="9.0178972" timestamp="2018-05-27T19:52:07Z" uid="3842253" user="NKA_import" version="1">
		<tag k="name" v="Ronninge" />
		<tag k="place" v="farm" />
		<tag k="ssr:stedsnr" v="328478" />
		<tag k="ssr:type" v="bruk" />
	</node>
	<node changeset="59321142" id="5646285420" lat="59.4264694" lon="9.0240056" timestamp="2018-05-27T19:52:07Z" uid="3842253" user="NKA_import" version="1">
		<tag k="name" v="Saga" />
		<tag k="place" v="farm" />
		<tag k="ssr:stedsnr" v="328558" />
		<tag k="ssr:type" v="bruk" />
	</node>
	<node changeset="66040679" id="346645285" lat="59.4123421" lon="9.0679224" timestamp="2019-01-05T06:49:15Z" uid="3497659" user="NKA" version="3">
		<tag k="alt_name" v="Bø i Telemark" />
		<tag k="name" v="Bø" />
		<tag k="place" v="village" />
		<tag k="ssr:stedsnr" v="609374" />
		<tag k="ssr:type" v="tettsted" />
	</node>
	<node changeset="59321142" id="5646285621" lat="59.4039972" lon="9.0118639" timestamp="2018-05-27T19:52:07Z" uid="3842253" user="NKA_import" version="1">
		<tag k="name" v="Halvorskås" />
		<tag k="place" v="locality" />
		<tag k="ssr:stedsnr" v="633311" />
		<tag k="ssr:type" v="fritidsbolig" />
	</node>
	<node changeset="59321142" id="5646285622" lat="59.4478667" lon="9.0219889" timestamp="2018-05-27T19:52:07Z" uid="3842253" user="NKA_import" version="1">
		<tag k="name" v="Haugane" />
		<tag k="place" v="farm" />
		<tag k="ssr:stedsnr" v="329029" />
		<tag k="ssr:type" v="bruk" />
	</node>
	<node changeset="59321142" id="5646285623" lat="59.4316889" lon="9.0287528" timestamp="2018-05-27T19:52:07Z" uid="3842253" user="NKA_import" version="1">
		<tag k="name" v="Surtegro" />
		<tag k="place" v="locality" />
		<tag k="ssr:stedsnr" v="268550" />
		<tag k="ssr:type" v="gammelBosettingsplass" />
	</node>
	<node changeset="59321142" id="5646285624" lat="59.3984056" lon="9.0480361" timestamp="2018-05-27T19:52:07Z" uid="3842253" user="NKA_import" version="1">
		<tag k="name" v="Kåsin" />
		<tag k="place" v="farm" />
		<tag k="ssr:stedsnr" v="633340" />
		<tag k="ssr:type" v="bruk" />
	</node>
	<node changeset="59321142" id="5646285625" lat="59.4077778" lon="8.95435" timestamp="2018-05-27T19:52:07Z" uid="3842253" user="NKA_import" version="1">
		<tag k="name" v="Tjønntveit" />
		<tag k="place" v="farm" />
		<tag k="ssr:stedsnr" v="329058" />
		<tag k="ssr:type" v="bruk" />
	</node>
	<node changeset="59321142" id="5646285626" lat="59.4270333" lon="9.0498778" timestamp="2018-05-27T19:52:07Z" uid="3842253" user="NKA_import" version="1">
		<tag k="name" v="Langkås" />
		<tag k="place" v="farm" />
		<tag k="ssr:stedsnr" v="268576" />
		<tag k="ssr:type" v="bruk" />
	</node>
	<node changeset="59321142" id="5646285627" lat="59.5009056" lon="9.0273611" timestamp="2018-05-27T19:52:08Z" uid="3842253" user="NKA_import" version="1">
		<tag k="name" v="Raukritholet" />
		<tag k="place" v="locality" />
		<tag k="ssr:stedsnr" v="938579" />
		<tag k="ssr:type" v="gammelBosettingsplass" />
	</node>
	<node changeset="59321142" id="5646285628" lat="59.4922333" lon="9.1562194" timestamp="2018-05-27T19:52:08Z" uid="3842253" user="NKA_import" version="1">
		<tag k="name" v="Flugopp" />
		<tag k="place" v="locality" />
		<tag k="ssr:stedsnr" v="268579" />
		<tag k="ssr:type" v="gammelBosettingsplass" />
	</node>
	<node changeset="59321142" id="5646285629" lat="59.3839444" lon="9.0622" timestamp="2018-05-27T19:52:08Z" uid="3842253" user="NKA_import" version="1">
		<tag k="name" v="Solvang" />
		<tag k="place" v="farm" />
		<tag k="ssr:stedsnr" v="329402" />
		<tag k="ssr:type" v="bruk" />
	</node>
	<node changeset="59321142" id="5646285630" lat="59.4076472" lon="9.0681305" timestamp="2018-05-27T19:52:08Z" uid="3842253" user="NKA_import" version="1">
		<tag k="name" v="Flita" />
		<tag k="place" v="locality" />
		<tag k="ssr:stedsnr" v="268643" />
		<tag k="ssr:type" v="gammelBosettingsplass" />
	</node>
	<node changeset="59321142" id="5646285631" lat="59.4379306" lon="9.1363972" timestamp="2018-05-27T19:52:08Z" uid="3842253" user="NKA_import" version="1">
		<tag k="name" v="Haslekåsa" />
		<tag k="place" v="locality" />
		<tag k="ssr:stedsnr" v="329303" />
		<tag k="ssr:type" v="gammelBosettingsplass" />
	</node>
	<node changeset="59321142" id="5646285632" lat="59.4099053" lon="9.0735339" timestamp="2018-05-27T19:52:08Z" uid="3842253" user="NKA_import" version="1">
		<tag k="building" v="industrial" />
		<tag k="industrial" v="factory" />
		<tag k="name" v="Bø mølle" />
		<tag k="ssr:stedsnr" v="268666" />
		<tag k="ssr:type" v="fabrikk" />
	</node>
	<node changeset="59321142" id="5646285633" lat="59.4121389" lon="9.0882445" timestamp="2018-05-27T19:52:08Z" uid="3842253" user="NKA_import" version="1">
		<tag k="name" v="Sperrudstykket" />
		<tag k="place" v="farm" />
		<tag k="ssr:stedsnr" v="268668" />
		<tag k="ssr:type" v="bruk" />
	</node>
	<node changeset="59321142" id="5646285634" lat="59.4355417" lon="9.0228361" timestamp="2018-05-27T19:52:08Z" uid="3842253" user="NKA_import" version="1">
		<tag k="name" v="Plomøya" />
		<tag k="place" v="farm" />
		<tag k="ssr:stedsnr" v="329552" />
		<tag k="ssr:type" v="bruk" />
	</node>
	<node changeset="59321142" id="5646285635" lat="59.5034056" lon="9.0831389" timestamp="2018-05-27T19:52:08Z" uid="3842253" user="NKA_import" version="1">
		<tag k="name" v="Pinknapp" />
		<tag k="place" v="locality" />
		<tag k="ssr:stedsnr" v="329556" />
		<tag k="ssr:type" v="gammelBosettingsplass" />
	</node>
	<node changeset="59321142" id="5646285636" lat="59.4131389" lon="9.0789306" timestamp="2018-05-27T19:52:08Z" uid="3842253" user="NKA_import" version="1">
		<tag k="name" v="Grivi" />
		<tag k="place" v="farm" />
		<tag k="ssr:stedsnr" v="329653" />
		<tag k="ssr:type" v="bruk" />
	</node>
	<node changeset="59321142" id="5646285637" lat="59.483775" lon="8.9328861" timestamp="2018-05-27T19:52:08Z" uid="3842253" user="NKA_import" version="1">
		<tag k="name" v="Bjørkebulia" />
		<tag k="place" v="locality" />
		<tag k="ssr:stedsnr" v="938980" />
		<tag k="ssr:type" v="gammelBosettingsplass" />
	</node>
	<node changeset="59321142" id="5646285638" lat="59.4311889" lon="9.0152639" timestamp="2018-05-27T19:52:09Z" uid="3842253" user="NKA_import" version="1">
		<tag k="name" v="Kåsa" />
		<tag k="place" v="farm" />
		<tag k="ssr:stedsnr" v="184425" />
		<tag k="ssr:type" v="bruk" />
	</node>
	<node changeset="59321142" id="5646285639" lat="59.4317389" lon="9.0219528" timestamp="2018-05-27T19:52:09Z" uid="3842253" user="NKA_import" version="1">
		<tag k="name" v="Myre" />
		<tag k="place" v="farm" />
		<tag k="ssr:stedsnr" v="184429" />
		<tag k="ssr:type" v="bruk" />
	</node>
	<node changeset="59321142" id="5646285640" lat="59.4369917" lon="8.9859278" timestamp="2018-05-27T19:52:09Z" uid="3842253" user="NKA_import" version="1">
		<tag k="name" v="Langeskor" />
		<tag k="place" v="locality" />
		<tag k="ssr:stedsnr" v="634876" />
		<tag k="ssr:type" v="gammelBosettingsplass" />
	</node>
	<node changeset="59321142" id="5646285641" lat="59.4347361" lon="9.0827722" timestamp="2018-05-27T19:52:09Z" uid="3842253" user="NKA_import" version="1">
		<tag k="name" v="Lia" />
		<tag k="place" v="farm" />
		<tag k="ssr:stedsnr" v="184431" />
		<tag k="ssr:type" v="bruk" />
	</node>
	<node changeset="59321142" id="5646285642" lat="59.4283417" lon="9.05385" timestamp="2018-05-27T19:52:09Z" uid="3842253" user="NKA_import" version="1">
		<tag k="name" v="Bakken" />
		<tag k="place" v="farm" />
		<tag k="ssr:stedsnr" v="184434" />
		<tag k="ssr:type" v="bruk" />
	</node>
	<node changeset="59321142" id="5646285643" lat="59.4416417" lon="9.0010389" timestamp="2018-05-27T19:52:09Z" uid="3842253" user="NKA_import" version="1">
		<tag k="name" v="Kolahuset" />
		<tag k="place" v="locality" />
		<tag k="ssr:stedsnr" v="634882" />
		<tag k="ssr:type" v="gammelBosettingsplass" />
	</node>
	<node changeset="59321142" id="5646285644" lat="59.4011556" lon="8.9493472" timestamp="2018-05-27T19:52:09Z" uid="3842253" user="NKA_import" version="1">
		<tag k="fixme" v="consider place=farm" />
		<tag k="name" v="Kåsa" />
		<tag k="place" v="isolated_dwelling" />
		<tag k="ssr:stedsnr" v="330004" />
		<tag k="ssr:type" v="eneboligMindreBoligbygg" />
	</node>
	<node changeset="59321142" id="5646285645" lat="59.3910266" lon="8.9284841" timestamp="2018-05-27T19:52:09Z" uid="3842253" user="NKA_import" version="1">
		<tag k="building" v="cabin" />
		<tag k="name" v="Busil" />
		<tag k="place" v="isolated_dwelling" />
		<tag k="ssr:stedsnr" v="184313" />
		<tag k="ssr:type" v="fritidsbolig" />
	</node>
	<node changeset="59321142" id="5646285646" lat="59.4041528" lon="8.996125" timestamp="2018-05-27T19:52:09Z" uid="3842253" user="NKA_import" version="1">
		<tag k="historic" v="shieling" />
		<tag k="name" v="Brusrudstulen" />
		<tag k="old_name" v="Brunsrudstulen" />
		<tag k="place" v="locality" />
		<tag k="ssr:stedsnr" v="330015" />
		<tag k="ssr:type" v="gammelBosettingsplass" />
	</node>
	<node changeset="59321142" id="5646285647" lat="59.4405139" lon="9.0747833" timestamp="2018-05-27T19:52:09Z" uid="3842253" user="NKA_import" version="1">
		<tag k="name" v="Kultan" />
		<tag k="place" v="farm" />
		<tag k="ssr:stedsnr" v="330067" />
		<tag k="ssr:type" v="bruk" />
	</node>
	<node changeset="79032287" id="5646285648" lat="59.4165083" lon="8.8934305" timestamp="2019-12-30T21:59:32Z" uid="7589857" user="Marius Geitle_import" version="2">
		<tag k="name" v="Øverbø" />
		<tag k="place" v="farm" />
		<tag k="ssr:stedsnr" v="184400" />
		<tag k="ssr:type" v="gard" />
	</node>
	<node changeset="59321142" id="5646285649" lat="59.4924389" lon="9.1333472" timestamp="2018-05-27T19:52:10Z" uid="3842253" user="NKA_import" version="1">
		<tag k="name" v="Kåsa" />
		<tag k="place" v="farm" />
		<tag k="ssr:stedsnr" v="184585" />
		<tag k="ssr:type" v="bruk" />
	</node>
	<node changeset="59321142" id="5646285650" lat="59.3912083" lon="8.9059917" timestamp="2018-05-27T19:52:10Z" uid="3842253" user="NKA_import" version="1">
		<tag k="name" v="Løyningen" />
		<tag k="place" v="locality" />
		<tag k="ssr:stedsnr" v="669358" />
		<tag k="ssr:type" v="gammelBosettingsplass" />
	</node>
	<node changeset="59321142" id="5646285651" lat="59.4082778" lon="8.9751917" timestamp="2018-05-27T19:52:10Z" uid="3842253" user="NKA_import" version="1">
		<tag k="name" v="Orekåsa" />
		<tag k="place" v="farm" />
		<tag k="ssr:stedsnr" v="669402" />
		<tag k="ssr:type" v="bruk" />
	</node>
	<node changeset="59321142" id="5646285652" lat="59.4193889" lon="9.0219333" timestamp="2018-05-27T19:52:10Z" uid="3842253" user="NKA_import" version="1">
		<tag k="name" v="Nygård" />
		<tag k="place" v="farm" />
		<tag k="ssr:stedsnr" v="184451" />
		<tag k="ssr:type" v="bruk" />
	</node>
	<node changeset="59321142" id="5646285653" lat="59.4166837" lon="8.8409159" timestamp="2018-05-27T19:52:10Z" uid="3842253" user="NKA_import" version="1">
		<tag k="building" v="farm_auxiliary" />
		<tag k="name" v="Grabbu" />
		<tag k="place" v="locality" />
		<tag k="ssr:stedsnr" v="330207" />
		<tag k="ssr:type" v="byggForJordbrukFiskeOgFangst" />
	</node>
	<node changeset="59321142" id="5646285654" lat="59.4495444" lon="9.0375528" timestamp="2018-05-27T19:52:10Z" uid="3842253" user="NKA_import" version="1">
		<tag k="alt_name" v="Raudkleiv" />
		<tag k="name" v="Raukleiv" />
		<tag k="place" v="farm" />
		<tag k="ssr:stedsnr" v="184469" />
		<tag k="ssr:type" v="bruk" />
	</node>
	<node changeset="59321142" id="5646285655" lat="59.4378389" lon="8.8671028" timestamp="2018-05-27T19:52:10Z" uid="3842253" user="NKA_import" version="1">
		<tag k="name" v="Kasin" />
		<tag k="place" v="farm" />
		<tag k="ssr:stedsnr" v="669475" />
		<tag k="ssr:type" v="bruk" />
	</node>
	<node changeset="59321142" id="5646285656" lat="59.4432865" lon="9.1218531" timestamp="2018-05-27T19:52:10Z" uid="3842253" user="NKA_import" version="1">
		<tag k="name" v="Hestehegna" />
		<tag k="place" v="farm" />
		<tag k="ssr:stedsnr" v="184481" />
		<tag k="ssr:type" v="bruk" />
	</node>
	<node changeset="59321142" id="5646285657" lat="59.4924389" lon="9.09935" timestamp="2018-05-27T19:52:10Z" uid="3842253" user="NKA_import" version="1">
		<tag k="name" v="Lona" />
		<tag k="place" v="farm" />
		<tag k="ssr:stedsnr" v="669592" />
		<tag k="ssr:type" v="bruk" />
	</node>
	<node changeset="59321142" id="5646285658" lat="59.4910083" lon="9.1338972" timestamp="2018-05-27T19:52:10Z" uid="3842253" user="NKA_import" version="1">
		<tag k="name" v="Brånan" />
		<tag k="place" v="farm" />
		<tag k="ssr:stedsnr" v="184624" />
		<tag k="ssr:type" v="bruk" />
	</node>
	<node changeset="59321142" id="5646285659" lat="59.4933083" lon="9.0742805" timestamp="2018-05-27T19:52:11Z" uid="3842253" user="NKA_import" version="1">
		<tag k="name" v="Røysland" />
		<tag k="place" v="farm" />
		<tag k="ssr:stedsnr" v="669593" />
		<tag k="ssr:type" v="bruk" />
	</node>
	<node changeset="59321142" id="5646285660" lat="59.4191806" lon="9.1135944" timestamp="2018-05-27T19:52:11Z" uid="3842253" user="NKA_import" version="1">
		<tag k="name" v="Bøen" />
		<tag k="place" v="farm" />
		<tag k="ssr:stedsnr" v="185373" />
		<tag k="ssr:type" v="bruk" />
	</node>
	<node changeset="59321142" id="5646285661" lat="59.5068083" lon="9.0372028" timestamp="2018-05-27T19:52:11Z" uid="3842253" user="NKA_import" version="1">
		<tag k="historic" v="shieling" />
		<tag k="name" v="Årmot" />
		<tag k="place" v="locality" />
		<tag k="ssr:stedsnr" v="185428" />
		<tag k="ssr:type" v="seterStøl" />
	</node>
	<node changeset="59321142" id="5646285662" lat="59.3856778" lon="9.0170111" timestamp="2018-05-27T19:52:11Z" uid="3842253" user="NKA_import" version="1">
		<tag k="name" v="Slåtta" />
		<tag k="place" v="farm" />
		<tag k="ssr:stedsnr" v="670312" />
		<tag k="ssr:type" v="bruk" />
	</node>
	<node changeset="59321142" id="5646285663" lat="59.4187528" lon="9.0814222" timestamp="2018-05-27T19:52:11Z" uid="3842253" user="NKA_import" version="1">
		<tag k="name" v="Sanda" />
		<tag k="place" v="farm" />
		<tag k="ssr:stedsnr" v="670375" />
		<tag k="ssr:type" v="bruk" />
	</node>
	<node changeset="59321142" id="5646285664" lat="59.4284361" lon="9.1118195" timestamp="2018-05-27T19:52:11Z" uid="3842253" user="NKA_import" version="1">
		<tag k="name" v="Tjyrukåsa" />
		<tag k="place" v="locality" />
		<tag k="ssr:stedsnr" v="207219" />
		<tag k="ssr:type" v="gammelBosettingsplass" />
	</node>
	<node changeset="59321142" id="5646285665" lat="59.4222046" lon="9.0410471" timestamp="2018-05-27T19:52:11Z" uid="3842253" user="NKA_import" version="1">
		<tag k="fixme" v="consider place=hamlet" />
		<tag k="name" v="Fossheim" />
		<tag k="place" v="hamlet" />
		<tag k="ssr:stedsnr" v="670427" />
		<tag k="ssr:type" v="gard" />
	</node>
	<node changeset="59321142" id="5646285666" lat="59.5128095" lon="9.0667343" timestamp="2018-05-27T19:52:11Z" uid="3842253" user="NKA_import" version="1">
		<tag k="building" v="farm_auxiliary" />
		<tag k="historic" v="shieling" />
		<tag k="name" v="Kleivstul" />
		<tag k="place" v="locality" />
		<tag k="ssr:stedsnr" v="670448" />
		<tag k="ssr:type" v="byggForJordbrukFiskeOgFangst" />
	</node>
	<node changeset="59321142" id="5646285667" lat="59.4203727" lon="9.0543262" timestamp="2018-05-27T19:52:11Z" uid="3842253" user="NKA_import" version="1">
		<tag k="name" v="Kamperhaug" />
		<tag k="place" v="farm" />
		<tag k="ssr:stedsnr" v="207466" />
		<tag k="ssr:type" v="bruk" />
	</node>
	<node changeset="59321142" id="5646285668" lat="59.4162472" lon="9.0487361" timestamp="2018-05-27T19:52:11Z" uid="3842253" user="NKA_import" version="1">
		<tag k="name" v="Hegna" />
		<tag k="place" v="farm" />
		<tag k="ssr:stedsnr" v="207469" />
		<tag k="ssr:type" v="bruk" />
	</node>
	<node changeset="59321142" id="5646285669" lat="59.4722143" lon="9.1202229" timestamp="2018-05-27T19:52:12Z" uid="3842253" user="NKA_import" version="1">
		<tag k="building" v="farm_auxiliary" />
		<tag k="name" v="Vermelia" />
		<tag k="place" v="locality" />
		<tag k="ssr:stedsnr" v="670451" />
		<tag k="ssr:type" v="byggForJordbrukFiskeOgFangst" />
	</node>
	<node changeset="59321142" id="5646285670" lat="59.4305008" lon="9.0094742" timestamp="2018-05-27T19:52:12Z" uid="3842253" user="NKA_import" version="1">
		<tag k="fixme" v="consider place=hamlet" />
		<tag k="name" v="Furuvoll" />
		<tag k="place" v="farm" />
		<tag k="ssr:stedsnr" v="207492" />
		<tag k="ssr:type" v="gard" />
	</node>
	<node changeset="59321142" id="5646285671" lat="59.4669474" lon="8.9733072" timestamp="2018-05-27T19:52:12Z" uid="3842253" user="NKA_import" version="1">
		<tag k="building" v="farm_auxiliary" />
		<tag k="name" v="Krossmyrane" />
		<tag k="place" v="locality" />
		<tag k="ssr:stedsnr" v="670569" />
		<tag k="ssr:type" v="byggForJordbrukFiskeOgFangst" />
	</node>
	<node changeset="59321142" id="5646285672" lat="59.4406833" lon="9.0101778" timestamp="2018-05-27T19:52:12Z" uid="3842253" user="NKA_import" version="1">
		<tag k="name" v="Rugkåsa" />
		<tag k="place" v="locality" />
		<tag k="ssr:stedsnr" v="207494" />
		<tag k="ssr:type" v="gammelBosettingsplass" />
	</node>
	<node changeset="59321142" id="5646285673" lat="59.4717073" lon="8.9505374" timestamp="2018-05-27T19:52:12Z" uid="3842253" user="NKA_import" version="1">
		<tag k="building" v="farm_auxiliary" />
		<tag k="historic" v="shieling" />
		<tag k="name" v="Smylestul" />
		<tag k="place" v="locality" />
		<tag k="ssr:stedsnr" v="331302" />
		<tag k="ssr:type" v="byggForJordbrukFiskeOgFangst" />
	</node>
	<node changeset="59321142" id="5646285674" lat="59.4928306" lon="9.0781194" timestamp="2018-05-27T19:52:12Z" uid="3842253" user="NKA_import" version="1">
		<tag k="name" v="Hyfsopp" />
		<tag k="place" v="locality" />
		<tag k="ssr:stedsnr" v="207543" />
		<tag k="ssr:type" v="gammelBosettingsplass" />
	</node>
	<node changeset="59321142" id="5646285675" lat="59.4136444" lon="9.1001445" timestamp="2018-05-27T19:52:12Z" uid="3842253" user="NKA_import" version="1">
		<tag k="fixme" v="consider place=hamlet" />
		<tag k="name" v="Roteberg" />
		<tag k="place" v="farm" />
		<tag k="ssr:stedsnr" v="207686" />
		<tag k="ssr:type" v="gard" />
	</node>
	<node changeset="59321142" id="5646285676" lat="59.4685462" lon="9.0558819" timestamp="2018-05-27T19:52:12Z" uid="3842253" user="NKA_import" version="1">
		<tag k="building" v="farm_auxiliary" />
		<tag k="name" v="Hugheil" />
		<tag k="place" v="locality" />
		<tag k="ssr:stedsnr" v="331488" />
		<tag k="ssr:type" v="byggForJordbrukFiskeOgFangst" />
	</node>
	<node changeset="59321142" id="5646285677" lat="59.4169528" lon="9.058225" timestamp="2018-05-27T19:52:12Z" uid="3842253" user="NKA_import" version="1">
		<tag k="name" v="Holmen" />
		<tag k="place" v="farm" />
		<tag k="ssr:stedsnr" v="693522" />
		<tag k="ssr:type" v="bruk" />
	</node>
	<node changeset="59321142" id="5646285678" lat="59.4159583" lon="8.9640333" timestamp="2018-05-27T19:52:12Z" uid="3842253" user="NKA_import" version="1">
		<tag k="name" v="Nyhus" />
		<tag k="place" v="farm" />
		<tag k="ssr:stedsnr" v="208044" />
		<tag k="ssr:type" v="bruk" />
	</node>
	<node changeset="59321142" id="5646285679" lat="59.4422667" lon="9.0279306" timestamp="2018-05-27T19:52:13Z" uid="3842253" user="NKA_import" version="1">
		<tag k="name" v="Teig" />
		<tag k="place" v="locality" />
		<tag k="ssr:stedsnr" v="692480" />
		<tag k="ssr:type" v="gammelBosettingsplass" />
	</node>
	<node changeset="59321142" id="5646285680" lat="59.4379" lon="9.0747833" timestamp="2018-05-27T19:52:13Z" uid="3842253" user="NKA_import" version="1">
		<tag k="name" v="Tjyruberget" />
		<tag k="place" v="farm" />
		<tag k="ssr:stedsnr" v="208046" />
		<tag k="ssr:type" v="bruk" />
	</node>
	<node changeset="59321142" id="1510587557" lat="59.4448528" lon="9.0194583" timestamp="2018-05-27T19:52:13Z" uid="3842253" user="NKA_import" version="3">
		<tag k="name" v="Innleggen" />
		<tag k="place" v="farm" />
		<tag k="source:name" v="roadsign" />
		<tag k="ssr:stedsnr" v="208026" />
		<tag k="ssr:type" v="bruk" />
	</node>
	<node changeset="59321142" id="1510587582" lat="59.4423541" lon="8.9989318" timestamp="2018-05-27T19:52:13Z" uid="3842253" user="NKA_import" version="2">
		<tag k="name" v="Slåtta" />
		<tag k="place" v="locality" />
		<tag k="ssr:stedsnr" v="695859" />
		<tag k="ssr:type" v="gammelBosettingsplass" />
	</node>
	<node changeset="59321142" id="1234236720" lat="59.3806411" lon="9.0431714" timestamp="2018-05-27T19:52:13Z" uid="3842253" user="NKA_import" version="2">
		<tag k="alt_name" v="Tjørnås" />
		<tag k="name" v="Tjønnås" />
		<tag k="place" v="hamlet" />
		<tag k="ssr:stedsnr" v="123369" />
		<tag k="ssr:type" v="bruk" />
	</node>
	<node changeset="26101351" id="3131669984" lat="59.449833" lon="9.071002" timestamp="2014-10-15T17:44:35Z" uid="1710144" user="rubund" version="1" />
	<node changeset="26101351" id="3131669993" lat="59.4503365" lon="9.0721653" timestamp="2014-10-15T17:44:36Z" uid="1710144" user="rubund" version="1" />
	<node changeset="26101351" id="3131669998" lat="59.4505702" lon="9.0697668" timestamp="2014-10-15T17:44:36Z" uid="1710144" user="rubund" version="1" />
	<node changeset="59321142" id="5646284465" lat="59.4129043" lon="8.9492406" timestamp="2018-05-27T19:51:23Z" uid="3842253" user="NKA_import" version="1">
		<tag k="fixme" v="consider place=hamlet" />
		<tag k="name" v="Erikstein" />
		<tag k="place" v="hamlet" />
		<tag k="ssr:stedsnr" v="208055" />
		<tag k="ssr:type" v="gard" />
	</node>
	<node changeset="59321142" id="5646284466" lat="59.4475528" lon="9.0276111" timestamp="2018-05-27T19:51:23Z" uid="3842253" user="NKA_import" version="1">
		<tag k="name" v="Bergskås" />
		<tag k="place" v="farm" />
		<tag k="ssr:stedsnr" v="693023" />
		<tag k="ssr:type" v="bruk" />
	</node>
	<node changeset="59321142" id="5646284467" lat="59.4227472" lon="9.1000556" timestamp="2018-05-27T19:51:24Z" uid="3842253" user="NKA_import" version="1">
		<tag k="name" v="Vestgarden" />
		<tag k="place" v="farm" />
		<tag k="ssr:stedsnr" v="208232" />
		<tag k="ssr:type" v="bruk" />
	</node>
	<node changeset="59321142" id="5646284468" lat="59.4443889" lon="9.0130278" timestamp="2018-05-27T19:51:24Z" uid="3842253" user="NKA_import" version="1">
		<tag k="name" v="Liene" />
		<tag k="place" v="farm" />
		<tag k="ssr:stedsnr" v="693030" />
		<tag k="ssr:type" v="bruk" />
	</node>
	<node changeset="59321142" id="5646284469" lat="59.4080444" lon="8.9485611" timestamp="2018-05-27T19:51:24Z" uid="3842253" user="NKA_import" version="1">
		<tag k="name" v="Evju" />
		<tag k="place" v="farm" />
		<tag k="ssr:stedsnr" v="693060" />
		<tag k="ssr:type" v="bruk" />
	</node>
	<node changeset="59321142" id="5646284470" lat="59.4197806" lon="8.9707055" timestamp="2018-05-27T19:51:24Z" uid="3842253" user="NKA_import" version="1">
		<tag k="name" v="Haugerud" />
		<tag k="place" v="farm" />
		<tag k="ssr:stedsnr" v="693091" />
		<tag k="ssr:type" v="bruk" />
	</node>
	<node changeset="59321142" id="5646284471" lat="59.3858725" lon="9.0368922" timestamp="2018-05-27T19:51:24Z" uid="3842253" user="NKA_import" version="1">
		<tag k="building" v="yes" />
		<tag k="name" v="Breskhaug skule" />
		<tag k="ssr:stedsnr" v="208325" />
		<tag k="ssr:type" v="skole" />
	</node>
	<node changeset="59321142" id="5646284472" lat="59.4643019" lon="8.9581034" timestamp="2018-05-27T19:51:24Z" uid="3842253" user="NKA_import" version="1">
		<tag k="building" v="farm_auxiliary" />
		<tag k="name" v="Høgsås" />
		<tag k="place" v="locality" />
		<tag k="ssr:stedsnr" v="693119" />
		<tag k="ssr:type" v="byggForJordbrukFiskeOgFangst" />
	</node>
	<node changeset="59321142" id="5646284473" lat="59.3922861" lon="9.0565417" timestamp="2018-05-27T19:51:24Z" uid="3842253" user="NKA_import" version="1">
		<tag k="fixme" v="consider place=farm" />
		<tag k="name" v="Kåsa" />
		<tag k="place" v="isolated_dwelling" />
		<tag k="ssr:stedsnr" v="147305" />
		<tag k="ssr:type" v="eneboligMindreBoligbygg" />
	</node>
	<node changeset="59321142" id="5646284474" lat="59.4118641" lon="9.04026" timestamp="2018-05-27T19:51:24Z" uid="3842253" user="NKA_import" version="1">
		<tag k="fixme" v="consider place=hamlet" />
		<tag k="name" v="Nordbø" />
		<tag k="place" v="hamlet" />
		<tag k="ssr:stedsnr" v="693297" />
		<tag k="ssr:type" v="gard" />
	</node>
	<node changeset="59321142" id="5646284475" lat="59.4770322" lon="9.0646468" timestamp="2018-05-27T19:51:24Z" uid="3842253" user="NKA_import" version="1">
		<tag k="building" v="cabin" />
		<tag k="name" v="Langerud" />
		<tag k="place" v="isolated_dwelling" />
		<tag k="ssr:stedsnr" v="208473" />
		<tag k="ssr:type" v="fritidsbolig" />
	</node>
	<node changeset="59321142" id="5646284476" lat="59.5098086" lon="9.02865" timestamp="2018-05-27T19:51:24Z" uid="3842253" user="NKA_import" version="1">
		<tag k="building" v="farm_auxiliary" />
		<tag k="name" v="Nord-Årmot" />
		<tag k="place" v="locality" />
		<tag k="ssr:stedsnr" v="208562" />
		<tag k="ssr:type" v="byggForJordbrukFiskeOgFangst" />
	</node>
	<node changeset="59321142" id="5646284477" lat="59.4248778" lon="9.125575" timestamp="2018-05-27T19:51:25Z" uid="3842253" user="NKA_import" version="1">
		<tag k="name" v="Hegnastykket" />
		<tag k="place" v="farm" />
		<tag k="ssr:stedsnr" v="693333" />
		<tag k="ssr:type" v="bruk" />
	</node>
	<node changeset="59321142" id="5646284478" lat="59.3882972" lon="9.0409944" timestamp="2018-05-27T19:51:25Z" uid="3842253" user="NKA_import" version="1">
		<tag k="alt_name" v="Eikenrud" />
		<tag k="fixme" v="consider place=hamlet" />
		<tag k="name" v="Eikjarud" />
		<tag k="place" v="farm" />
		<tag k="ssr:stedsnr" v="366316" />
		<tag k="ssr:type" v="gard" />
	</node>
	<node changeset="59321142" id="5646284479" lat="59.4068139" lon="9.109775" timestamp="2018-05-27T19:51:25Z" uid="3842253" user="NKA_import" version="1">
		<tag k="name" v="Skogen" />
		<tag k="place" v="farm" />
		<tag k="ssr:stedsnr" v="366347" />
		<tag k="ssr:type" v="bruk" />
	</node>
	<node changeset="59321142" id="5646284480" lat="59.4403917" lon="9.1314444" timestamp="2018-05-27T19:51:25Z" uid="3842253" user="NKA_import" version="1">
		<tag k="name" v="Kleiva" />
		<tag k="place" v="locality" />
		<tag k="ssr:stedsnr" v="693343" />
		<tag k="ssr:type" v="gammelBosettingsplass" />
	</node>
	<node changeset="59321142" id="5646284481" lat="59.4228722" lon="9.0871278" timestamp="2018-05-27T19:51:25Z" uid="3842253" user="NKA_import" version="1">
		<tag k="name" v="Helland" />
		<tag k="place" v="farm" />
		<tag k="ssr:stedsnr" v="366435" />
		<tag k="ssr:type" v="bruk" />
	</node>
	<node changeset="59321142" id="5646284482" lat="59.4375972" lon="9.0355639" timestamp="2018-05-27T19:51:25Z" uid="3842253" user="NKA_import" version="1">
		<tag k="name" v="Dikene" />
		<tag k="place" v="locality" />
		<tag k="ssr:stedsnr" v="208589" />
		<tag k="ssr:type" v="gammelBosettingsplass" />
	</node>
	<node changeset="59321142" id="5646284483" lat="59.4279111" lon="9.0929389" timestamp="2018-05-27T19:51:25Z" uid="3842253" user="NKA_import" version="1">
		<tag k="name" v="Undermo" />
		<tag k="place" v="farm" />
		<tag k="ssr:stedsnr" v="366436" />
		<tag k="ssr:type" v="bruk" />
	</node>
	<node changeset="59321142" id="5646284484" lat="59.3989333" lon="9.051725" timestamp="2018-05-27T19:51:25Z" uid="3842253" user="NKA_import" version="1">
		<tag k="name" v="Veirud" />
		<tag k="place" v="farm" />
		<tag k="ssr:stedsnr" v="693486" />
		<tag k="ssr:type" v="bruk" />
	</node>
	<node changeset="59321142" id="5646284485" lat="59.4333778" lon="9.0608917" timestamp="2018-05-27T19:51:25Z" uid="3842253" user="NKA_import" version="1">
		<tag k="name" v="Solstad" />
		<tag k="place" v="farm" />
		<tag k="ssr:stedsnr" v="208598" />
		<tag k="ssr:type" v="bruk" />
	</node>
	<node changeset="59321142" id="5646284486" lat="59.4282778" lon="9.0488111" timestamp="2018-05-27T19:51:25Z" uid="3842253" user="NKA_import" version="1">
		<tag k="fixme" v="consider place=hamlet" />
		<tag k="name" v="Djupskås" />
		<tag k="place" v="farm" />
		<tag k="ssr:stedsnr" v="693588" />
		<tag k="ssr:type" v="gard" />
	</node>
	<node changeset="59321142" id="5646284487" lat="59.4171883" lon="9.110526" timestamp="2018-05-27T19:51:26Z" uid="3842253" user="NKA_import" version="1">
		<tag k="fixme" v="consider place=hamlet" />
		<tag k="name" v="Haugland" />
		<tag k="place" v="hamlet" />
		<tag k="ssr:stedsnr" v="208768" />
		<tag k="ssr:type" v="gard" />
	</node>
	<node changeset="59321142" id="5646284488" lat="59.4050639" lon="9.0710361" timestamp="2018-05-27T19:51:26Z" uid="3842253" user="NKA_import" version="1">
		<tag k="name" v="Åsen" />
		<tag k="place" v="locality" />
		<tag k="ssr:stedsnr" v="693665" />
		<tag k="ssr:type" v="gammelBosettingsplass" />
	</node>
	<node changeset="59321142" id="5646284489" lat="59.4965639" lon="9.0466278" timestamp="2018-05-27T19:51:26Z" uid="3842253" user="NKA_import" version="1">
		<tag k="building" v="cabin" />
		<tag k="name" v="Moen" />
		<tag k="place" v="isolated_dwelling" />
		<tag k="ssr:stedsnr" v="366592" />
		<tag k="ssr:type" v="fritidsbolig" />
	</node>
	<node changeset="59321142" id="5646284490" lat="59.4113889" lon="8.9191556" timestamp="2018-05-27T19:51:26Z" uid="3842253" user="NKA_import" version="1">
		<tag k="name" v="Lovald" />
		<tag k="place" v="farm" />
		<tag k="ssr:stedsnr" v="209109" />
		<tag k="ssr:type" v="bruk" />
	</node>
	<node changeset="59321142" id="5646284491" lat="59.4524833" lon="9.1188389" timestamp="2018-05-27T19:51:26Z" uid="3842253" user="NKA_import" version="1">
		<tag k="name" v="Bjønnemyr" />
		<tag k="place" v="farm" />
		<tag k="ssr:stedsnr" v="693919" />
		<tag k="ssr:type" v="bruk" />
	</node>
	<node changeset="59321142" id="5646284492" lat="59.4887361" lon="8.9465056" timestamp="2018-05-27T19:51:26Z" uid="3842253" user="NKA_import" version="1">
		<tag k="historic" v="shieling" />
		<tag k="name" v="Stulsroe" />
		<tag k="place" v="locality" />
		<tag k="ssr:stedsnr" v="209916" />
		<tag k="ssr:type" v="gammelBosettingsplass" />
	</node>
	<node changeset="59321142" id="5646284493" lat="59.4810376" lon="9.0282651" timestamp="2018-05-27T19:51:26Z" uid="3842253" user="NKA_import" version="1">
		<tag k="building" v="cabin" />
		<tag k="historic" v="shieling" />
		<tag k="name" v="Plasstulen" />
		<tag k="place" v="isolated_dwelling" />
		<tag k="ssr:stedsnr" v="366614" />
		<tag k="ssr:type" v="fritidsbolig" />
	</node>
	<node changeset="59321142" id="5646284494" lat="59.4074167" lon="8.9377056" timestamp="2018-05-27T19:51:26Z" uid="3842253" user="NKA_import" version="1">
		<tag k="fixme" v="consider place=farm" />
		<tag k="name" v="Bergstig" />
		<tag k="place" v="isolated_dwelling" />
		<tag k="ssr:stedsnr" v="694080" />
		<tag k="ssr:type" v="eneboligMindreBoligbygg" />
	</node>
	<node changeset="59321142" id="5646284495" lat="59.4061334" lon="8.9446394" timestamp="2018-05-27T19:51:26Z" uid="3842253" user="NKA_import" version="1">
		<tag k="fixme" v="consider place=hamlet" />
		<tag k="name" v="Tveitan" />
		<tag k="place" v="hamlet" />
		<tag k="ssr:stedsnr" v="694083" />
		<tag k="ssr:type" v="gard" />
	</node>
	<node changeset="59321142" id="5646284496" lat="59.4561389" lon="9.0509417" timestamp="2018-05-27T19:51:26Z" uid="3842253" user="NKA_import" version="1">
		<tag k="name" v="Lunden" />
		<tag k="place" v="farm" />
		<tag k="ssr:stedsnr" v="210054" />
		<tag k="ssr:type" v="bruk" />
	</node>
	<node changeset="59321142" id="5646284497" lat="59.4885068" lon="9.0473242" timestamp="2018-05-27T19:51:27Z" uid="3842253" user="NKA_import" version="1">
		<tag k="building" v="cabin" />
		<tag k="historic" v="shieling" />
		<tag k="name" v="Øverlandstulane" />
		<tag k="place" v="isolated_dwelling" />
		<tag k="ssr:stedsnr" v="366624" />
		<tag k="ssr:type" v="fritidsbolig" />
	</node>
	<node changeset="59321142" id="5646284498" lat="59.5081583" lon="9.1345778" timestamp="2018-05-27T19:51:27Z" uid="3842253" user="NKA_import" version="1">
		<tag k="name" v="Slemmeli" />
		<tag k="place" v="farm" />
		<tag k="ssr:stedsnr" v="367398" />
		<tag k="ssr:type" v="bruk" />
	</node>
	<node changeset="59321142" id="5646284499" lat="59.4549444" lon="8.9735778" timestamp="2018-05-27T19:51:27Z" uid="3842253" user="NKA_import" version="1">
		<tag k="historic" v="shieling" />
		<tag k="name" v="Lavransstul" />
		<tag k="place" v="locality" />
		<tag k="ssr:stedsnr" v="210089" />
		<tag k="ssr:type" v="gammelBosettingsplass" />
	</node>
	<node changeset="59321142" id="5646284500" lat="59.5326361" lon="9.1207833" timestamp="2018-05-27T19:51:27Z" uid="3842253" user="NKA_import" version="1">
		<tag k="historic" v="shieling" />
		<tag k="name" v="Bloddalan" />
		<tag k="place" v="locality" />
		<tag k="ssr:stedsnr" v="367403" />
		<tag k="ssr:type" v="seterStøl" />
	</node>
	<node changeset="59321142" id="5646284501" lat="59.5222167" lon="9.121725" timestamp="2018-05-27T19:51:27Z" uid="3842253" user="NKA_import" version="1">
		<tag k="name" v="Havskolt" />
		<tag k="place" v="farm" />
		<tag k="ssr:stedsnr" v="367405" />
		<tag k="ssr:type" v="bruk" />
	</node>
	<node changeset="59321142" id="5646284502" lat="59.4784667" lon="9.0677167" timestamp="2018-05-27T19:51:27Z" uid="3842253" user="NKA_import" version="1">
		<tag k="name" v="Flåta" />
		<tag k="place" v="locality" />
		<tag k="ssr:stedsnr" v="694470" />
		<tag k="ssr:type" v="fritidsbolig" />
	</node>
	<node changeset="59321142" id="5646284503" lat="59.4328472" lon="8.9689389" timestamp="2018-05-27T19:51:27Z" uid="3842253" user="NKA_import" version="1">
		<tag k="name" v="Ånto" />
		<tag k="place" v="locality" />
		<tag k="ssr:stedsnr" v="210871" />
		<tag k="ssr:type" v="gammelBosettingsplass" />
	</node>
	<node changeset="59321142" id="5646284504" lat="59.5090694" lon="8.9927583" timestamp="2018-05-27T19:51:27Z" uid="3842253" user="NKA_import" version="1">
		<tag k="historic" v="shieling" />
		<tag k="name" v="Fjellstul" />
		<tag k="place" v="locality" />
		<tag k="ssr:stedsnr" v="694572" />
		<tag k="ssr:type" v="gammelBosettingsplass" />
	</node>
	<node changeset="59321142" id="5646284505" lat="59.4398417" lon="8.8741806" timestamp="2018-05-27T19:51:27Z" uid="3842253" user="NKA_import" version="1">
		<tag k="building" v="cabin" />
		<tag k="name" v="Mastedalen" />
		<tag k="place" v="isolated_dwelling" />
		<tag k="ssr:stedsnr" v="210898" />
		<tag k="ssr:type" v="fritidsbolig" />
	</node>
	<node changeset="59321142" id="5646284506" lat="59.4873861" lon="8.9916472" timestamp="2018-05-27T19:51:28Z" uid="3842253" user="NKA_import" version="1">
		<tag k="historic" v="shieling" />
		<tag k="name" v="Vierburoe" />
		<tag k="place" v="locality" />
		<tag k="ssr:stedsnr" v="388908" />
		<tag k="ssr:type" v="seterStøl" />
	</node>
	<node changeset="59321142" id="5646284507" lat="59.4329278" lon="9.0594028" timestamp="2018-05-27T19:51:28Z" uid="3842253" user="NKA_import" version="1">
		<tag k="name" v="Hellos" />
		<tag k="place" v="locality" />
		<tag k="ssr:stedsnr" v="694618" />
		<tag k="ssr:type" v="gammelBosettingsplass" />
	</node>
	<node changeset="59321142" id="5646284508" lat="59.4539639" lon="9.0444639" timestamp="2018-05-27T19:51:28Z" uid="3842253" user="NKA_import" version="1">
		<tag k="name" v="Kytelia" />
		<tag k="place" v="farm" />
		<tag k="ssr:stedsnr" v="695044" />
		<tag k="ssr:type" v="bruk" />
	</node>
	<node changeset="59321142" id="5646284509" lat="59.4213222" lon="8.9966972" timestamp="2018-05-27T19:51:28Z" uid="3842253" user="NKA_import" version="1">
		<tag k="name" v="Åsland" />
		<tag k="place" v="farm" />
		<tag k="ssr:stedsnr" v="389079" />
		<tag k="ssr:type" v="bruk" />
	</node>
	<node changeset="59321142" id="5646284510" lat="59.4302167" lon="9.1065722" timestamp="2018-05-27T19:51:28Z" uid="3842253" user="NKA_import" version="1">
		<tag k="name" v="Hegnun" />
		<tag k="place" v="farm" />
		<tag k="ssr:stedsnr" v="389221" />
		<tag k="ssr:type" v="bruk" />
	</node>
	<node changeset="59321142" id="5646284511" lat="59.4102241" lon="9.0570794" timestamp="2018-05-27T19:51:28Z" uid="3842253" user="NKA_import" version="1">
		<tag k="name" v="Gullbring" />
		<tag k="place" v="locality" />
		<tag k="ssr:stedsnr" v="389239" />
		<tag k="ssr:type" v="idrettsanlegg" />
	</node>
	<node changeset="59321142" id="5646284512" lat="59.4134667" lon="8.9627778" timestamp="2018-05-27T19:51:28Z" uid="3842253" user="NKA_import" version="1">
		<tag k="name" v="Hegna" />
		<tag k="place" v="farm" />
		<tag k="ssr:stedsnr" v="245361" />
		<tag k="ssr:type" v="bruk" />
	</node>
	<node changeset="59321142" id="5646284513" lat="59.4094" lon="9.0193694" timestamp="2018-05-27T19:51:28Z" uid="3842253" user="NKA_import" version="1">
		<tag k="name" v="Berge" />
		<tag k="place" v="farm" />
		<tag k="ssr:stedsnr" v="245377" />
		<tag k="ssr:type" v="bruk" />
	</node>
	<node changeset="59321142" id="5646284514" lat="59.4336028" lon="9.1288306" timestamp="2018-05-27T19:51:28Z" uid="3842253" user="NKA_import" version="1">
		<tag k="alt_name" v="Askildt" />
		<tag k="fixme" v="consider place=hamlet" />
		<tag k="name" v="Askilt" />
		<tag k="place" v="farm" />
		<tag k="ssr:stedsnr" v="245391" />
		<tag k="ssr:type" v="gard" />
	</node>
	<node changeset="59321142" id="5646284515" lat="59.3773576" lon="9.0059538" timestamp="2018-05-27T19:51:28Z" uid="3842253" user="NKA_import" version="1">
		<tag k="name" v="Åsheim" />
		<tag k="place" v="farm" />
		<tag k="ssr:stedsnr" v="389417" />
		<tag k="ssr:type" v="bruk" />
	</node>
	<node changeset="59321142" id="5646284516" lat="59.4427073" lon="9.0766191" timestamp="2018-05-27T19:51:28Z" uid="3842253" user="NKA_import" version="1">
		<tag k="name" v="Moen" />
		<tag k="place" v="locality" />
		<tag k="ssr:stedsnr" v="245446" />
		<tag k="ssr:type" v="fritidsbolig" />
	</node>
	<node changeset="59321142" id="5646284517" lat="59.46015" lon="8.9698056" timestamp="2018-05-27T19:51:28Z" uid="3842253" user="NKA_import" version="1">
		<tag k="building" v="farm_auxiliary" />
		<tag k="historic" v="shieling" />
		<tag k="name" v="Høystul" />
		<tag k="place" v="locality" />
		<tag k="ssr:stedsnr" v="245453" />
		<tag k="ssr:type" v="byggForJordbrukFiskeOgFangst" />
	</node>
	<node changeset="59321142" id="5646284518" lat="59.5213583" lon="9.1289139" timestamp="2018-05-27T19:51:29Z" uid="3842253" user="NKA_import" version="1">
		<tag k="name" v="Brennekåsa" />
		<tag k="place" v="farm" />
		<tag k="ssr:stedsnr" v="245458" />
		<tag k="ssr:type" v="bruk" />
	</node>
	<node changeset="59321142" id="5646284519" lat="59.4981861" lon="9.0920528" timestamp="2018-05-27T19:51:29Z" uid="3842253" user="NKA_import" version="1">
		<tag k="name" v="Dalen" />
		<tag k="place" v="farm" />
		<tag k="ssr:stedsnr" v="245556" />
		<tag k="ssr:type" v="bruk" />
	</node>
	<node changeset="59321142" id="5646284520" lat="59.492541" lon="9.0268882" timestamp="2018-05-27T19:51:29Z" uid="3842253" user="NKA_import" version="1">
		<tag k="building" v="farm_auxiliary" />
		<tag k="name" v="Grøbuskora" />
		<tag k="place" v="locality" />
		<tag k="ssr:stedsnr" v="245563" />
		<tag k="ssr:type" v="byggForJordbrukFiskeOgFangst" />
	</node>
	<node changeset="59321142" id="2068936445" lat="59.4692417" lon="8.9820639" timestamp="2018-05-27T19:52:13Z" uid="3842253" user="NKA_import" version="2">
		<tag k="alt_name" v="Vinhus" />
		<tag k="historic" v="shieling" />
		<tag k="name" v="Vihus" />
		<tag k="place" v="locality" />
		<tag k="ssr:stedsnr" v="427601" />
		<tag k="ssr:type" v="seterStøl" />
	</node>
	<node changeset="59321142" id="5646284621" lat="59.4153806" lon="9.0758583" timestamp="2018-05-27T19:51:29Z" uid="3842253" user="NKA_import" version="1">
		<tag k="name" v="Grivi" />
		<tag k="place" v="farm" />
		<tag k="ssr:stedsnr" v="389689" />
		<tag k="ssr:type" v="bruk" />
	</node>
	<node changeset="59321142" id="5646284622" lat="59.5010333" lon="9.1418167" timestamp="2018-05-27T19:51:29Z" uid="3842253" user="NKA_import" version="1">
		<tag k="fixme" v="consider place=hamlet" />
		<tag k="name" v="Engene" />
		<tag k="place" v="farm" />
		<tag k="ssr:stedsnr" v="246427" />
		<tag k="ssr:type" v="gard" />
	</node>
	<node changeset="59321142" id="5646284623" lat="59.5015342" lon="9.0948089" timestamp="2018-05-27T19:51:29Z" uid="3842253" user="NKA_import" version="1">
		<tag k="fixme" v="consider place=hamlet" />
		<tag k="name" v="Jørgedal" />
		<tag k="place" v="hamlet" />
		<tag k="ssr:stedsnr" v="246429" />
		<tag k="ssr:type" v="gard" />
	</node>
	<node changeset="59321142" id="5646284624" lat="59.4376778" lon="9.0845583" timestamp="2018-05-27T19:51:29Z" uid="3842253" user="NKA_import" version="1">
		<tag k="name" v="Sersland" />
		<tag k="place" v="farm" />
		<tag k="ssr:stedsnr" v="390046" />
		<tag k="ssr:type" v="bruk" />
	</node>
	<node changeset="59321142" id="5646284625" lat="59.482075" lon="9.0359528" timestamp="2018-05-27T19:51:29Z" uid="3842253" user="NKA_import" version="1">
		<tag k="name" v="Futhol" />
		<tag k="place" v="locality" />
		<tag k="ssr:stedsnr" v="696437" />
		<tag k="ssr:type" v="gammelBosettingsplass" />
	</node>
	<node changeset="59321142" id="5646284626" lat="59.4857778" lon="9.026175" timestamp="2018-05-27T19:51:29Z" uid="3842253" user="NKA_import" version="1">
		<tag k="historic" v="shieling" />
		<tag k="name" v="Liastulen" />
		<tag k="place" v="locality" />
		<tag k="ssr:stedsnr" v="696438" />
		<tag k="ssr:type" v="seterStøl" />
	</node>
	<node changeset="59321142" id="5646284627" lat="59.3824028" lon="9.0579111" timestamp="2018-05-27T19:51:29Z" uid="3842253" user="NKA_import" version="1">
		<tag k="name" v="Myre" />
		<tag k="place" v="farm" />
		<tag k="ssr:stedsnr" v="266503" />
		<tag k="ssr:type" v="bruk" />
	</node>
	<node changeset="59321142" id="5646284628" lat="59.4252617" lon="8.9783646" timestamp="2018-05-27T19:51:30Z" uid="3842253" user="NKA_import" version="1">
		<tag k="building" v="yes" />
		<tag k="name" v="Grotemo skule" />
		<tag k="ssr:stedsnr" v="696829" />
		<tag k="ssr:type" v="skole" />
	</node>
	<node changeset="59321142" id="5646284629" lat="59.4064611" lon="8.9721833" timestamp="2018-05-27T19:51:30Z" uid="3842253" user="NKA_import" version="1">
		<tag k="fixme" v="consider place=farm" />
		<tag k="name" v="Liabakken" />
		<tag k="place" v="isolated_dwelling" />
		<tag k="ssr:stedsnr" v="268012" />
		<tag k="ssr:type" v="eneboligMindreBoligbygg" />
	</node>
	<node changeset="59321142" id="5646284630" lat="59.4032889" lon="9.0497139" timestamp="2018-05-27T19:51:30Z" uid="3842253" user="NKA_import" version="1">
		<tag k="name" v="Nerbø" />
		<tag k="place" v="farm" />
		<tag k="ssr:stedsnr" v="390264" />
		<tag k="ssr:type" v="bruk" />
	</node>
	<node changeset="59321142" id="5646284631" lat="59.3972806" lon="9.0465889" timestamp="2018-05-27T19:51:30Z" uid="3842253" user="NKA_import" version="1">
		<tag k="name" v="Solvang" />
		<tag k="place" v="farm" />
		<tag k="ssr:stedsnr" v="390298" />
		<tag k="ssr:type" v="bruk" />
	</node>
	<node changeset="59321142" id="5646284632" lat="59.390825" lon="9.0399861" timestamp="2018-05-27T19:51:30Z" uid="3842253" user="NKA_import" version="1">
		<tag k="name" v="Kryllingdalen" />
		<tag k="place" v="locality" />
		<tag k="ssr:stedsnr" v="390312" />
		<tag k="ssr:type" v="gammelBosettingsplass" />
	</node>
	<node changeset="59321142" id="5646284633" lat="59.4277583" lon="9.125425" timestamp="2018-05-27T19:51:30Z" uid="3842253" user="NKA_import" version="1">
		<tag k="name" v="Fosstveit" />
		<tag k="place" v="farm" />
		<tag k="ssr:stedsnr" v="268278" />
		<tag k="ssr:type" v="bruk" />
	</node>
	<node changeset="59321142" id="5646284634" lat="59.4335444" lon="8.9081194" timestamp="2018-05-27T19:51:30Z" uid="3842253" user="NKA_import" version="1">
		<tag k="name" v="Landsverk" />
		<tag k="place" v="locality" />
		<tag k="ssr:stedsnr" v="730479" />
		<tag k="ssr:type" v="gammelBosettingsplass" />
	</node>
	<node changeset="59321142" id="5646284635" lat="59.4294389" lon="9.0301389" timestamp="2018-05-27T19:51:30Z" uid="3842253" user="NKA_import" version="1">
		<tag k="name" v="Brenne" />
		<tag k="place" v="farm" />
		<tag k="ssr:stedsnr" v="390534" />
		<tag k="ssr:type" v="bruk" />
	</node>
	<node changeset="59321142" id="5646284636" lat="59.3691377" lon="8.883848" timestamp="2018-05-27T19:51:30Z" uid="3842253" user="NKA_import" version="1">
		<tag k="alt_name" v="Bakkjerr" />
		<tag k="building" v="farm_auxiliary" />
		<tag k="name" v="Bakkjer" />
		<tag k="place" v="locality" />
		<tag k="ssr:stedsnr" v="427310" />
		<tag k="ssr:type" v="byggForJordbrukFiskeOgFangst" />
	</node>
	<node changeset="59321142" id="5646284637" lat="59.4419222" lon="9.0360694" timestamp="2018-05-27T19:51:30Z" uid="3842253" user="NKA_import" version="1">
		<tag k="alt_name" v="Tronskåsa" />
		<tag k="name" v="Tronskås" />
		<tag k="place" v="farm" />
		<tag k="ssr:stedsnr" v="730490" />
		<tag k="ssr:type" v="bruk" />
	</node>
	<node changeset="59321142" id="5646284638" lat="59.4491528" lon="8.9171194" timestamp="2018-05-27T19:51:30Z" uid="3842253" user="NKA_import" version="1">
		<tag k="building" v="farm_auxiliary" />
		<tag k="name" v="Skålbu" />
		<tag k="place" v="locality" />
		<tag k="ssr:stedsnr" v="730517" />
		<tag k="ssr:type" v="byggForJordbrukFiskeOgFangst" />
	</node>
	<node changeset="59321142" id="5646284639" lat="59.3634639" lon="9.0115124" timestamp="2018-05-27T19:51:31Z" uid="3842253" user="NKA_import" version="1">
		<tag k="building" v="farm_auxiliary" />
		<tag k="name" v="Hurrongen" />
		<tag k="place" v="locality" />
		<tag k="ssr:stedsnr" v="427340" />
		<tag k="ssr:type" v="byggForJordbrukFiskeOgFangst" />
	</node>
	<node changeset="59321142" id="5646284640" lat="59.4988972" lon="9.0503833" timestamp="2018-05-27T19:51:31Z" uid="3842253" user="NKA_import" version="1">
		<tag k="name" v="Øverland" />
		<tag k="place" v="farm" />
		<tag k="ssr:stedsnr" v="730633" />
		<tag k="ssr:type" v="bruk" />
	</node>
	<node changeset="59321142" id="5646284641" lat="59.3799556" lon="9.0046472" timestamp="2018-05-27T19:51:31Z" uid="3842253" user="NKA_import" version="1">
		<tag k="name" v="Kåsa" />
		<tag k="place" v="farm" />
		<tag k="ssr:stedsnr" v="427355" />
		<tag k="ssr:type" v="bruk" />
	</node>
	<node changeset="59321142" id="5646284642" lat="59.4105417" lon="9.1191" timestamp="2018-05-27T19:51:31Z" uid="3842253" user="NKA_import" version="1">
		<tag k="name" v="Nymoen" />
		<tag k="place" v="farm" />
		<tag k="ssr:stedsnr" v="390959" />
		<tag k="ssr:type" v="bruk" />
	</node>
	<node changeset="59321142" id="5646284643" lat="59.3993261" lon="8.8955101" timestamp="2018-05-27T19:51:31Z" uid="3842253" user="NKA_import" version="1">
		<tag k="building" v="cabin" />
		<tag k="name" v="Slåtta" />
		<tag k="place" v="isolated_dwelling" />
		<tag k="ssr:stedsnr" v="427387" />
		<tag k="ssr:type" v="fritidsbolig" />
	</node>
	<node changeset="59321142" id="5646284644" lat="59.4136972" lon="9.0291722" timestamp="2018-05-27T19:51:31Z" uid="3842253" user="NKA_import" version="1">
		<tag k="name" v="Mørkholt" />
		<tag k="place" v="farm" />
		<tag k="ssr:stedsnr" v="731347" />
		<tag k="ssr:type" v="bruk" />
	</node>
	<node changeset="59321142" id="5646284645" lat="59.4028193" lon="8.9561624" timestamp="2018-05-27T19:51:31Z" uid="3842253" user="NKA_import" version="1">
		<tag k="alt_name" v="Gravajordet" />
		<tag k="fixme" v="consider place=hamlet" />
		<tag k="name" v="Gravjord" />
		<tag k="place" v="farm" />
		<tag k="ssr:stedsnr" v="427393" />
		<tag k="ssr:type" v="gard" />
	</node>
	<node changeset="59321142" id="5646284646" lat="59.4564361" lon="9.0330667" timestamp="2018-05-27T19:51:31Z" uid="3842253" user="NKA_import" version="1">
		<tag k="name" v="Innleggen" />
		<tag k="place" v="farm" />
		<tag k="ssr:stedsnr" v="391069" />
		<tag k="ssr:type" v="bruk" />
	</node>
	<node changeset="59321142" id="5646284647" lat="59.4101833" lon="9.0875333" timestamp="2018-05-27T19:51:31Z" uid="3842253" user="NKA_import" version="1">
		<tag k="name" v="Sperrud" />
		<tag k="place" v="farm" />
		<tag k="ssr:stedsnr" v="731364" />
		<tag k="ssr:type" v="bruk" />
	</node>
	<node changeset="59321142" id="5646284648" lat="59.4345944" lon="9.1183139" timestamp="2018-05-27T19:51:31Z" uid="3842253" user="NKA_import" version="1">
		<tag k="alt_name" v="Askildtrud" />
		<tag k="fixme" v="consider place=hamlet" />
		<tag k="name" v="Askiltrud" />
		<tag k="place" v="farm" />
		<tag k="ssr:stedsnr" v="427424" />
		<tag k="ssr:type" v="gard" />
	</node>
	<node changeset="59321142" id="5646284649" lat="59.4322502" lon="9.0704331" timestamp="2018-05-27T19:51:32Z" uid="3842253" user="NKA_import" version="1">
		<tag k="fixme" v="consider place=hamlet" />
		<tag k="name" v="Folkestad" />
		<tag k="place" v="hamlet" />
		<tag k="ssr:stedsnr" v="427435" />
		<tag k="ssr:type" v="gard" />
	</node>
	<node changeset="59321142" id="5646284650" lat="59.5213277" lon="9.1015603" timestamp="2018-05-27T19:51:32Z" uid="3842253" user="NKA_import" version="1">
		<tag k="building" v="farm_auxiliary" />
		<tag k="historic" v="shieling" />
		<tag k="name" v="Nystul" />
		<tag k="place" v="locality" />
		<tag k="ssr:stedsnr" v="731439" />
		<tag k="ssr:type" v="byggForJordbrukFiskeOgFangst" />
	</node>
	<node changeset="59321142" id="5646284651" lat="59.4564583" lon="8.9681556" timestamp="2018-05-27T19:51:32Z" uid="3842253" user="NKA_import" version="1">
		<tag k="name" v="Skorra" />
		<tag k="place" v="locality" />
		<tag k="ssr:stedsnr" v="392099" />
		<tag k="ssr:type" v="gammelBosettingsplass" />
	</node>
	<node changeset="59321142" id="5646284652" lat="59.4579585" lon="9.113542" timestamp="2018-05-27T19:51:32Z" uid="3842253" user="NKA_import" version="1">
		<tag k="building" v="cabin" />
		<tag k="name" v="Kantebakke" />
		<tag k="place" v="isolated_dwelling" />
		<tag k="ssr:stedsnr" v="731453" />
		<tag k="ssr:type" v="fritidsbolig" />
	</node>
	<node changeset="59321142" id="5646284653" lat="59.4474028" lon="9.1185194" timestamp="2018-05-27T19:51:32Z" uid="3842253" user="NKA_import" version="1">
		<tag k="name" v="Ralle" />
		<tag k="place" v="farm" />
		<tag k="ssr:stedsnr" v="427463" />
		<tag k="ssr:type" v="bruk" />
	</node>
	<node changeset="59321142" id="5646284654" lat="59.4291" lon="8.8349083" timestamp="2018-05-27T19:51:32Z" uid="3842253" user="NKA_import" version="1">
		<tag k="name" v="Massekåsa" />
		<tag k="place" v="locality" />
		<tag k="ssr:stedsnr" v="392156" />
		<tag k="ssr:type" v="gammelBosettingsplass" />
	</node>
	<node changeset="59321142" id="5646284655" lat="59.4631694" lon="9.0701278" timestamp="2018-05-27T19:51:32Z" uid="3842253" user="NKA_import" version="1">
		<tag k="name" v="Myrvoll" />
		<tag k="place" v="farm" />
		<tag k="ssr:stedsnr" v="731456" />
		<tag k="ssr:type" v="bruk" />
	</node>
	<node changeset="59321142" id="5646284656" lat="59.4485444" lon="9.1135361" timestamp="2018-05-27T19:51:32Z" uid="3842253" user="NKA_import" version="1">
		<tag k="fixme" v="consider place=farm" />
		<tag k="name" v="Åsen" />
		<tag k="place" v="isolated_dwelling" />
		<tag k="ssr:stedsnr" v="427466" />
		<tag k="ssr:type" v="eneboligMindreBoligbygg" />
	</node>
	<node changeset="59321142" id="5646284657" lat="59.4514667" lon="9.0504944" timestamp="2018-05-27T19:51:32Z" uid="3842253" user="NKA_import" version="1">
		<tag k="name" v="Dalen" />
		<tag k="place" v="farm" />
		<tag k="ssr:stedsnr" v="427468" />
		<tag k="ssr:type" v="bruk" />
	</node>
	<node changeset="59321142" id="5646284658" lat="59.4728209" lon="9.0040478" timestamp="2018-05-27T19:51:32Z" uid="3842253" user="NKA_import" version="1">
		<tag k="historic" v="shieling" />
		<tag k="name" v="Nutestul" />
		<tag k="place" v="locality" />
		<tag k="ssr:stedsnr" v="392732" />
		<tag k="ssr:type" v="byggForJordbrukFiskeOgFangst" />
	</node>
	<node changeset="59321142" id="5646284659" lat="59.487625" lon="8.9706667" timestamp="2018-05-27T19:51:33Z" uid="3842253" user="NKA_import" version="1">
		<tag k="alt_name" v="Oksla seter" />
		<tag k="historic" v="shieling" />
		<tag k="name" v="Oksla" />
		<tag k="place" v="locality" />
		<tag k="ssr:stedsnr" v="427575" />
		<tag k="ssr:type" v="seterStøl" />
	</node>
	<node changeset="59321142" id="5646284660" lat="59.497125" lon="9.1423667" timestamp="2018-05-27T19:51:33Z" uid="3842253" user="NKA_import" version="1">
		<tag k="name" v="Haugen" />
		<tag k="place" v="farm" />
		<tag k="ssr:stedsnr" v="427584" />
		<tag k="ssr:type" v="bruk" />
	</node>
	<node changeset="59321142" id="5646284661" lat="59.4872002" lon="9.0509225" timestamp="2018-05-27T19:51:33Z" uid="3842253" user="NKA_import" version="1">
		<tag k="building" v="cabin" />
		<tag k="name" v="Ufsin" />
		<tag k="place" v="isolated_dwelling" />
		<tag k="ssr:stedsnr" v="427617" />
		<tag k="ssr:type" v="fritidsbolig" />
	</node>
	<node changeset="59321142" id="5646284662" lat="59.4049139" lon="9.0318945" timestamp="2018-05-27T19:51:33Z" uid="3842253" user="NKA_import" version="1">
		<tag k="name" v="Tjønna" />
		<tag k="place" v="locality" />
		<tag k="ssr:stedsnr" v="753202" />
		<tag k="ssr:type" v="gammelBosettingsplass" />
	</node>
	<node changeset="59321142" id="5646284663" lat="59.5168442" lon="9.1357804" timestamp="2018-05-27T19:51:33Z" uid="3842253" user="NKA_import" version="1">
		<tag k="building" v="cabin" />
		<tag k="name" v="Lia" />
		<tag k="place" v="isolated_dwelling" />
		<tag k="ssr:stedsnr" v="428429" />
		<tag k="ssr:type" v="fritidsbolig" />
	</node>
	<node changeset="59321142" id="5646284664" lat="59.4332556" lon="8.855725" timestamp="2018-05-27T19:51:33Z" uid="3842253" user="NKA_import" version="1">
		<tag k="name" v="Basmoen" />
		<tag k="place" v="locality" />
		<tag k="ssr:stedsnr" v="392890" />
		<tag k="ssr:type" v="gammelBosettingsplass" />
	</node>
	<node changeset="59321142" id="5646284665" lat="59.4806778" lon="9.1079417" timestamp="2018-05-27T19:51:33Z" uid="3842253" user="NKA_import" version="1">
		<tag k="historic" v="shieling" />
		<tag k="name" v="Lonstul" />
		<tag k="place" v="locality" />
		<tag k="ssr:stedsnr" v="753402" />
		<tag k="ssr:type" v="gammelBosettingsplass" />
	</node>
	<node changeset="59321142" id="5646284666" lat="59.4393333" lon="8.86855" timestamp="2018-05-27T19:51:33Z" uid="3842253" user="NKA_import" version="1">
		<tag k="name" v="Mastedalslåtta" />
		<tag k="place" v="locality" />
		<tag k="ssr:stedsnr" v="392899" />
		<tag k="ssr:type" v="gammelBosettingsplass" />
	</node>
	<node changeset="59321142" id="5646284667" lat="59.4187778" lon="9.0562694" timestamp="2018-05-27T19:51:33Z" uid="3842253" user="NKA_import" version="1">
		<tag k="name" v="Østbø" />
		<tag k="place" v="farm" />
		<tag k="ssr:stedsnr" v="753441" />
		<tag k="ssr:type" v="bruk" />
	</node>
	<node changeset="59321142" id="5646284668" lat="59.3956056" lon="8.9603083" timestamp="2018-05-27T19:51:33Z" uid="3842253" user="NKA_import" version="1">
		<tag k="name" v="Åsheim" />
		<tag k="place" v="locality" />
		<tag k="ssr:stedsnr" v="449057" />
		<tag k="ssr:type" v="gammelBosettingsplass" />
	</node>
	<node changeset="59321142" id="5646284669" lat="59.4178222" lon="9.0551417" timestamp="2018-05-27T19:51:33Z" uid="3842253" user="NKA_import" version="1">
		<tag k="name" v="Høybø" />
		<tag k="place" v="farm" />
		<tag k="ssr:stedsnr" v="753442" />
		<tag k="ssr:type" v="bruk" />
	</node>
	<node changeset="59321142" id="5646284670" lat="59.3894278" lon="8.9688472" timestamp="2018-05-27T19:51:34Z" uid="3842253" user="NKA_import" version="1">
		<tag k="name" v="Kåsa" />
		<tag k="place" v="locality" />
		<tag k="ssr:stedsnr" v="449067" />
		<tag k="ssr:type" v="byggForJordbrukFiskeOgFangst" />
	</node>
	<node changeset="59321142" id="5646284671" lat="59.4146611" lon="9.0175472" timestamp="2018-05-27T19:51:34Z" uid="3842253" user="NKA_import" version="1">
		<tag k="name" v="Espeland" />
		<tag k="place" v="farm" />
		<tag k="ssr:stedsnr" v="753456" />
		<tag k="ssr:type" v="bruk" />
	</node>
	<node changeset="59321142" id="5646284672" lat="59.4395861" lon="9.0108083" timestamp="2018-05-27T19:51:34Z" uid="3842253" user="NKA_import" version="1">
		<tag k="name" v="Skorra" />
		<tag k="place" v="locality" />
		<tag k="ssr:stedsnr" v="753465" />
		<tag k="ssr:type" v="gammelBosettingsplass" />
	</node>
	<node changeset="59321142" id="5646284673" lat="59.494125" lon="9.1029667" timestamp="2018-05-27T19:51:34Z" uid="3842253" user="NKA_import" version="1">
		<tag k="name" v="Såmundskast" />
		<tag k="place" v="farm" />
		<tag k="ssr:stedsnr" v="753534" />
		<tag k="ssr:type" v="bruk" />
	</node>
	<node changeset="59321142" id="5646284674" lat="59.383275" lon="9.0272417" timestamp="2018-05-27T19:51:34Z" uid="3842253" user="NKA_import" version="1">
		<tag k="fixme" v="consider place=hamlet" />
		<tag k="name" v="Brenne" />
		<tag k="place" v="farm" />
		<tag k="ssr:stedsnr" v="245305" />
		<tag k="ssr:type" v="gard" />
	</node>
	<node changeset="59321142" id="5646284675" lat="59.4738861" lon="9.1452556" timestamp="2018-05-27T19:51:34Z" uid="3842253" user="NKA_import" version="1">
		<tag k="name" v="Solbjør" />
		<tag k="place" v="locality" />
		<tag k="ssr:stedsnr" v="753898" />
		<tag k="ssr:type" v="gammelBosettingsplass" />
	</node>
	<node changeset="59321142" id="5646284676" lat="59.4242" lon="9.1196583" timestamp="2018-05-27T19:51:34Z" uid="3842253" user="NKA_import" version="1">
		<tag k="fixme" v="consider place=farm" />
		<tag k="name" v="Myra" />
		<tag k="place" v="isolated_dwelling" />
		<tag k="ssr:stedsnr" v="450264" />
		<tag k="ssr:type" v="eneboligMindreBoligbygg" />
	</node>
	<node changeset="59321142" id="5646284677" lat="59.4389889" lon="9.1177195" timestamp="2018-05-27T19:51:34Z" uid="3842253" user="NKA_import" version="1">
		<tag k="name" v="Høgemo" />
		<tag k="place" v="farm" />
		<tag k="ssr:stedsnr" v="754032" />
		<tag k="ssr:type" v="bruk" />
	</node>
	<node changeset="59321142" id="5646284678" lat="59.418625" lon="8.9758639" timestamp="2018-05-27T19:51:34Z" uid="3842253" user="NKA_import" version="1">
		<tag k="name" v="Kåsin" />
		<tag k="place" v="farm" />
		<tag k="ssr:stedsnr" v="754110" />
		<tag k="ssr:type" v="bruk" />
	</node>
	<node changeset="59321142" id="5646284679" lat="59.4403611" lon="9.0137306" timestamp="2018-05-27T19:51:34Z" uid="3842253" user="NKA_import" version="1">
		<tag k="name" v="Piparlia" />
		<tag k="place" v="locality" />
		<tag k="ssr:stedsnr" v="450538" />
		<tag k="ssr:type" v="gammelBosettingsplass" />
	</node>
	<node changeset="59321142" id="5646284680" lat="59.4169722" lon="8.9150861" timestamp="2018-05-27T19:51:35Z" uid="3842253" user="NKA_import" version="1">
		<tag k="name" v="Åsen" />
		<tag k="place" v="farm" />
		<tag k="ssr:stedsnr" v="269124" />
		<tag k="ssr:type" v="bruk" />
	</node>
	<node changeset="59321142" id="5646284681" lat="59.4982252" lon="9.1359058" timestamp="2018-05-27T19:51:35Z" uid="3842253" user="NKA_import" version="1">
		<tag k="building" v="cabin" />
		<tag k="name" v="Innleggen" />
		<tag k="place" v="isolated_dwelling" />
		<tag k="ssr:stedsnr" v="389597" />
		<tag k="ssr:type" v="fritidsbolig" />
	</node>
	<node changeset="59321142" id="5646284682" lat="59.5064559" lon="9.0373955" timestamp="2018-05-27T19:51:35Z" uid="3842253" user="NKA_import" version="1">
		<tag k="fixme" v="consider place=hamlet" />
		<tag k="name" v="Årmotdalen" />
		<tag k="place" v="farm" />
		<tag k="ssr:stedsnr" v="983028" />
		<tag k="ssr:type" v="gard" />
	</node>
	<node changeset="59321142" id="5646284683" lat="59.3785778" lon="9.0205806" timestamp="2018-05-27T19:51:35Z" uid="3842253" user="NKA_import" version="1">
		<tag k="name" v="Fossli" />
		<tag k="place" v="farm" />
		<tag k="ssr:stedsnr" v="754399" />
		<tag k="ssr:type" v="bruk" />
	</node>
	<node changeset="59321142" id="5646284684" lat="59.4935667" lon="9.0864667" timestamp="2018-05-27T19:51:35Z" uid="3842253" user="NKA_import" version="1">
		<tag k="name" v="Lauvslåtten" />
		<tag k="place" v="farm" />
		<tag k="ssr:stedsnr" v="450584" />
		<tag k="ssr:type" v="bruk" />
	</node>
	<node changeset="59321142" id="5646284685" lat="59.4423456" lon="9.0381369" timestamp="2018-05-27T19:51:35Z" uid="3842253" user="NKA_import" version="1">
		<tag k="fixme" v="consider place=hamlet" />
		<tag k="name" v="Hegnåsen" />
		<tag k="place" v="farm" />
		<tag k="ssr:stedsnr" v="983029" />
		<tag k="ssr:type" v="gard" />
	</node>
	<node changeset="59321142" id="5646284686" lat="59.4268754" lon="9.001911" timestamp="2018-05-27T19:51:35Z" uid="3842253" user="NKA_import" version="1">
		<tag k="fixme" v="consider place=hamlet" />
		<tag k="name" v="Siverhus" />
		<tag k="place" v="farm" />
		<tag k="ssr:stedsnr" v="983031" />
		<tag k="ssr:type" v="gard" />
	</node>
	<node changeset="59321142" id="5646284687" lat="59.4248528" lon="9.0512278" timestamp="2018-05-27T19:51:35Z" uid="3842253" user="NKA_import" version="1">
		<tag k="name" v="Langkås" />
		<tag k="place" v="farm" />
		<tag k="ssr:stedsnr" v="450591" />
		<tag k="ssr:type" v="bruk" />
	</node>
	<node changeset="59321142" id="5646284688" lat="59.4893238" lon="9.0498883" timestamp="2018-05-27T19:51:35Z" uid="3842253" user="NKA_import" version="1">
		<tag k="fixme" v="consider place=hamlet" />
		<tag k="name" v="Øverland skog" />
		<tag k="place" v="farm" />
		<tag k="ssr:stedsnr" v="983032" />
		<tag k="ssr:type" v="gard" />
	</node>
	<node changeset="59321142" id="5646284689" lat="59.4171424" lon="9.0603083" timestamp="2018-05-27T19:51:36Z" uid="3842253" user="NKA_import" version="1">
		<tag k="fixme" v="consider place=hamlet" />
		<tag k="name" v="Bø prestegard" />
		<tag k="place" v="farm" />
		<tag k="ssr:stedsnr" v="983037" />
		<tag k="ssr:type" v="gard" />
	</node>
	<node changeset="59321142" id="5646284690" lat="59.4291778" lon="9.0248306" timestamp="2018-05-27T19:51:36Z" uid="3842253" user="NKA_import" version="1">
		<tag k="name" v="Buskerønning" />
		<tag k="place" v="farm" />
		<tag k="ssr:stedsnr" v="754581" />
		<tag k="ssr:type" v="bruk" />
	</node>
	<node changeset="59321142" id="5646284691" lat="59.5081806" lon="9.1096222" timestamp="2018-05-27T19:51:36Z" uid="3842253" user="NKA_import" version="1">
		<tag k="name" v="Slåtta" />
		<tag k="place" v="locality" />
		<tag k="ssr:stedsnr" v="450739" />
		<tag k="ssr:type" v="gammelBosettingsplass" />
	</node>
	<node changeset="59321142" id="5646284692" lat="59.3867785" lon="9.0647945" timestamp="2018-05-27T19:51:36Z" uid="3842253" user="NKA_import" version="1">
		<tag k="fixme" v="consider place=hamlet" />
		<tag k="name" v="Stillingsrud" />
		<tag k="place" v="farm" />
		<tag k="ssr:stedsnr" v="983038" />
		<tag k="ssr:type" v="gard" />
	</node>
	<node changeset="59321142" id="5646284693" lat="59.3755987" lon="8.9508781" timestamp="2018-05-27T19:51:36Z" uid="3842253" user="NKA_import" version="1">
		<tag k="fixme" v="consider place=hamlet" />
		<tag k="name" v="Oppdal" />
		<tag k="place" v="farm" />
		<tag k="ssr:stedsnr" v="983040" />
		<tag k="ssr:type" v="gard" />
	</node>
	<node changeset="59321142" id="5646284694" lat="59.4102361" lon="9.1110083" timestamp="2018-05-27T19:51:36Z" uid="3842253" user="NKA_import" version="1">
		<tag k="name" v="Åsgrav" />
		<tag k="place" v="farm" />
		<tag k="ssr:stedsnr" v="754714" />
		<tag k="ssr:type" v="bruk" />
	</node>
	<node changeset="59321142" id="5646284695" lat="59.3847861" lon="8.99495" timestamp="2018-05-27T19:51:36Z" uid="3842253" user="NKA_import" version="1">
		<tag k="name" v="Rydland" />
		<tag k="place" v="farm" />
		<tag k="ssr:stedsnr" v="2337" />
		<tag k="ssr:type" v="bruk" />
	</node>
	<node changeset="59321142" id="5646284696" lat="59.3873639" lon="8.9685278" timestamp="2018-05-27T19:51:37Z" uid="3842253" user="NKA_import" version="1">
		<tag k="fixme" v="consider place=hamlet" />
		<tag k="name" v="Jønneberg" />
		<tag k="place" v="farm" />
		<tag k="ssr:stedsnr" v="2339" />
		<tag k="ssr:type" v="gard" />
	</node>
	<node changeset="59321142" id="5646284697" lat="59.4080472" lon="9.0976333" timestamp="2018-05-27T19:51:37Z" uid="3842253" user="NKA_import" version="1">
		<tag k="fixme" v="consider place=hamlet" />
		<tag k="name" v="Lien" />
		<tag k="place" v="farm" />
		<tag k="ssr:stedsnr" v="754718" />
		<tag k="ssr:type" v="gard" />
	</node>
	<node changeset="59321142" id="5646284698" lat="59.4337528" lon="9.0747695" timestamp="2018-05-27T19:51:37Z" uid="3842253" user="NKA_import" version="1">
		<tag k="name" v="Flatland" />
		<tag k="place" v="farm" />
		<tag k="ssr:stedsnr" v="451035" />
		<tag k="ssr:type" v="bruk" />
	</node>
	<node changeset="59321142" id="5646284699" lat="59.4576194" lon="9.0384139" timestamp="2018-05-27T19:51:37Z" uid="3842253" user="NKA_import" version="1">
		<tag k="historic" v="shieling" />
		<tag k="name" v="Heimstulen" />
		<tag k="place" v="locality" />
		<tag k="ssr:stedsnr" v="755067" />
		<tag k="ssr:type" v="seterStøl" />
	</node>
	<node changeset="59321142" id="5646284700" lat="59.3828917" lon="9.0313611" timestamp="2018-05-27T19:51:37Z" uid="3842253" user="NKA_import" version="1">
		<tag k="alt_name" v="Vestre Eiken" />
		<tag k="fixme" v="consider place=hamlet" />
		<tag k="name" v="Eikja" />
		<tag k="place" v="farm" />
		<tag k="ssr:stedsnr" v="2367" />
		<tag k="ssr:type" v="gard" />
	</node>
	<node changeset="59321142" id="5646284701" lat="59.4181139" lon="8.9006944" timestamp="2018-05-27T19:51:37Z" uid="3842253" user="NKA_import" version="1">
		<tag k="name" v="Sanda" />
		<tag k="place" v="farm" />
		<tag k="ssr:stedsnr" v="451122" />
		<tag k="ssr:type" v="bruk" />
	</node>
	<node changeset="59321142" id="5646284702" lat="59.4067444" lon="9.08285" timestamp="2018-05-27T19:51:37Z" uid="3842253" user="NKA_import" version="1">
		<tag k="name" v="Torstveit" />
		<tag k="place" v="farm" />
		<tag k="ssr:stedsnr" v="2374" />
		<tag k="ssr:type" v="bruk" />
	</node>
	<node changeset="59321142" id="5646284703" lat="59.4256139" lon="9.0931195" timestamp="2018-05-27T19:51:37Z" uid="3842253" user="NKA_import" version="1">
		<tag k="name" v="Valen" />
		<tag k="place" v="farm" />
		<tag k="ssr:stedsnr" v="451256" />
		<tag k="ssr:type" v="bruk" />
	</node>
	<node changeset="59321142" id="5646284704" lat="59.4290972" lon="9.000025" timestamp="2018-05-27T19:51:37Z" uid="3842253" user="NKA_import" version="1">
		<tag k="name" v="Bekkhus" />
		<tag k="place" v="farm" />
		<tag k="ssr:stedsnr" v="2435" />
		<tag k="ssr:type" v="bruk" />
	</node>
	<node changeset="59321142" id="5646284705" lat="59.4881917" lon="9.0132833" timestamp="2018-05-27T19:51:37Z" uid="3842253" user="NKA_import" version="1">
		<tag k="building" v="farm_auxiliary" />
		<tag k="historic" v="shieling" />
		<tag k="name" v="Fjellstul" />
		<tag k="place" v="locality" />
		<tag k="ssr:stedsnr" v="755559" />
		<tag k="ssr:type" v="byggForJordbrukFiskeOgFangst" />
	</node>
	<node changeset="59321142" id="5646284706" lat="59.402325" lon="9.0395194" timestamp="2018-05-27T19:51:38Z" uid="3842253" user="NKA_import" version="1">
		<tag k="name" v="Smedstad" />
		<tag k="place" v="farm" />
		<tag k="ssr:stedsnr" v="451300" />
		<tag k="ssr:type" v="bruk" />
	</node>
	<node changeset="59321142" id="5646284707" lat="59.4330778" lon="9.0346667" timestamp="2018-05-27T19:51:38Z" uid="3842253" user="NKA_import" version="1">
		<tag k="name" v="Oterholt" />
		<tag k="place" v="farm" />
		<tag k="ssr:stedsnr" v="2437" />
		<tag k="ssr:type" v="bruk" />
	</node>
	<node changeset="59321142" id="5646284708" lat="59.4862472" lon="9.0561" timestamp="2018-05-27T19:51:38Z" uid="3842253" user="NKA_import" version="1">
		<tag k="building" v="farm_auxiliary" />
		<tag k="historic" v="shieling" />
		<tag k="name" v="Myrenstulen" />
		<tag k="place" v="locality" />
		<tag k="ssr:stedsnr" v="755724" />
		<tag k="ssr:type" v="byggForJordbrukFiskeOgFangst" />
	</node>
	<node changeset="59321142" id="5646284709" lat="59.3972833" lon="9.0116861" timestamp="2018-05-27T19:51:38Z" uid="3842253" user="NKA_import" version="1">
		<tag k="name" v="Høyslass" />
		<tag k="place" v="locality" />
		<tag k="ssr:stedsnr" v="451316" />
		<tag k="ssr:type" v="gammelBosettingsplass" />
	</node>
	<node changeset="59321142" id="5646284710" lat="59.4439139" lon="9.0732306" timestamp="2018-05-27T19:51:38Z" uid="3842253" user="NKA_import" version="1">
		<tag k="name" v="Tjønntveit" />
		<tag k="place" v="farm" />
		<tag k="ssr:stedsnr" v="451322" />
		<tag k="ssr:type" v="bruk" />
	</node>
	<node changeset="59321142" id="5646284711" lat="59.4215056" lon="9.1152306" timestamp="2018-05-27T19:51:38Z" uid="3842253" user="NKA_import" version="1">
		<tag k="name" v="Øygarden" />
		<tag k="place" v="farm" />
		<tag k="ssr:stedsnr" v="2455" />
		<tag k="ssr:type" v="bruk" />
	</node>
	<node changeset="59321142" id="5646284712" lat="59.4280694" lon="8.9897694" timestamp="2018-05-27T19:51:38Z" uid="3842253" user="NKA_import" version="1">
		<tag k="name" v="Hyttekåsa" />
		<tag k="place" v="locality" />
		<tag k="ssr:stedsnr" v="755847" />
		<tag k="ssr:type" v="gammelBosettingsplass" />
	</node>
	<node changeset="59321142" id="5646284713" lat="59.3971389" lon="9.0375028" timestamp="2018-05-27T19:51:38Z" uid="3842253" user="NKA_import" version="1">
		<tag k="name" v="Brekka" />
		<tag k="place" v="locality" />
		<tag k="ssr:stedsnr" v="451323" />
		<tag k="ssr:type" v="gammelBosettingsplass" />
	</node>
	<node changeset="59321142" id="5646284714" lat="59.4421444" lon="9.1278" timestamp="2018-05-27T19:51:38Z" uid="3842253" user="NKA_import" version="1">
		<tag k="name" v="Tangen" />
		<tag k="place" v="locality" />
		<tag k="ssr:stedsnr" v="451328" />
		<tag k="ssr:type" v="gammelBosettingsplass" />
	</node>
	<node changeset="59321142" id="5646284715" lat="59.4540361" lon="9.0479917" timestamp="2018-05-27T19:51:38Z" uid="3842253" user="NKA_import" version="1">
		<tag k="name" v="Torekåsa" />
		<tag k="place" v="farm" />
		<tag k="ssr:stedsnr" v="2480" />
		<tag k="ssr:type" v="bruk" />
	</node>
	<node changeset="59321142" id="5646284716" lat="59.3944556" lon="9.0912222" timestamp="2018-05-27T19:51:38Z" uid="3842253" user="NKA_import" version="1">
		<tag k="historic" v="shieling" />
		<tag k="name" v="Gamlestul" />
		<tag k="place" v="locality" />
		<tag k="ssr:stedsnr" v="451396" />
		<tag k="ssr:type" v="gammelBosettingsplass" />
	</node>
	<node changeset="59321142" id="5646284717" lat="59.4629532" lon="8.9329857" timestamp="2018-05-27T19:51:39Z" uid="3842253" user="NKA_import" version="1">
		<tag k="building" v="farm_auxiliary" />
		<tag k="name" v="Stavsholt" />
		<tag k="place" v="locality" />
		<tag k="ssr:stedsnr" v="2496" />
		<tag k="ssr:type" v="byggForJordbrukFiskeOgFangst" />
	</node>
	<node changeset="59321142" id="5646284718" lat="59.4729972" lon="9.0272056" timestamp="2018-05-27T19:51:39Z" uid="3842253" user="NKA_import" version="1">
		<tag k="alt_name" v="Torildstul" />
		<tag k="historic" v="shieling" />
		<tag k="name" v="Torillstul" />
		<tag k="place" v="locality" />
		<tag k="ssr:stedsnr" v="2509" />
		<tag k="ssr:type" v="fritidsbolig" />
	</node>
	<node changeset="59321142" id="5646284719" lat="59.4779972" lon="9.0348333" timestamp="2018-05-27T19:51:39Z" uid="3842253" user="NKA_import" version="1">
		<tag k="historic" v="shieling" />
		<tag k="name" v="Haugestul" />
		<tag k="place" v="locality" />
		<tag k="ssr:stedsnr" v="756503" />
		<tag k="ssr:type" v="gammelBosettingsplass" />
	</node>
	<node changeset="59321142" id="5646284720" lat="59.42175" lon="9.0487361" timestamp="2018-05-27T19:51:39Z" uid="3842253" user="NKA_import" version="1">
		<tag k="name" v="Bergene" />
		<tag k="place" v="farm" />
		<tag k="ssr:stedsnr" v="451562" />
		<tag k="ssr:type" v="bruk" />
	</node>
	<way changeset="59321142" id="307924181" timestamp="2018-05-27T19:52:14Z" uid="3842253" user="NKA_import" version="2">
		<tag k="amenity" v="sports_centre" />
		<tag k="building" v="public" />
		<tag k="name" v="Telemarkshallen" />
		<tag k="ssr:stedsnr" v="572182" />
		<tag k="ssr:type" v="idrettshall" />
		<nd ref="3131669993" />
		<nd ref="649359750" />
		<nd ref="3131669998" />
		<nd ref="3131669984" />
		<nd ref="3131669993" />
	</way>
</osm>
