<?xml version="1.0" encoding="UTF-8"?>
<osm generator="osmapis" version="0.6">
	<node id="-580608" lat="62.5533361074" lon="7.23524443634">
		<tag k="highway" v="path" />
		<tag k="name" v="Stigane" />
		<tag k="ssr:stedsnr" v="945504" />
	</node>
	<node id="-579839" lat="62.6384972215" lon="6.91475554702">
		<tag k="junction" v="yes" />
		<tag k="name" v="Neråsskiftet" />
		<tag k="place" v="locality" />
		<tag k="ssr:stedsnr" v="459956" />
	</node>
	<node id="-580093" lat="62.5003111093" lon="7.10183332577">
		<tag k="bridge" v="yes" />
		<tag k="layer" v="1" />
		<tag k="name" v="Risetbrua" />
		<tag k="ssr:stedsnr" v="641017" />
	</node>
	<node id="-579066" lat="62.5966194438" lon="6.93289721923">
		<tag k="highway" v="path" />
		<tag k="name" v="Liaråket" />
		<tag k="ssr:stedsnr" v="398590" />
	</node>
	<node id="-580599" lat="62.5506361079" lon="6.88512778164">
		<tag k="fixme" v="consider highway=path" />
		<tag k="highway" v="track" />
		<tag k="name" v="Bygdasetervegen" />
		<tag k="ssr:stedsnr" v="945147" />
	</node>
	<node id="-579623" lat="62.5505388892" lon="7.11680834225">
		<tag k="highway" v="path" />
		<tag k="name" v="Setervegen" />
		<tag k="ssr:stedsnr" v="217042" />
	</node>
	<node id="-580467" lat="62.641366663" lon="6.80903333824">
		<tag k="highway" v="path" />
		<tag k="name" v="Hjellråket" />
		<tag k="ssr:stedsnr" v="823991" />
	</node>
	<node id="-579440" lat="62.6195944487" lon="7.1683944482">
		<tag k="highway" v="path" />
		<tag k="name" v="Setervegen" />
		<tag k="ssr:stedsnr" v="95831" />
	</node>
	<node id="-579823" lat="62.603983334" lon="7.07709166094">
		<tag k="fixme" v="consider highway=path" />
		<tag k="highway" v="track" />
		<tag k="name" v="Setervegen" />
		<tag k="ssr:stedsnr" v="459821" />
	</node>
	<node id="-579565" lat="62.6427722218" lon="6.94719167007">
		<tag k="fixme" v="consider highway=path" />
		<tag k="highway" v="track" />
		<tag k="name" v="Gamle Lervågvegen" />
		<tag k="ssr:stedsnr" v="156877" />
	</node>
	<node id="-579052" lat="62.5544944466" lon="6.88555276842">
		<tag k="fixme" v="consider highway=path" />
		<tag k="highway" v="track" />
		<tag k="name" v="Frostadsetervegen" />
		<tag k="ssr:stedsnr" v="398167" />
	</node>
	<node id="-579819" lat="62.4649944446" lon="7.18319165703">
		<tag k="highway" v="path" />
		<tag k="name" v="Trongstien" />
		<tag k="ssr:stedsnr" v="459753" />
	</node>
	<node id="-579946" lat="62.5770972263" lon="6.8897166706">
		<tag k="highway" v="path" />
		<tag k="name" v="Dalavegen" />
		<tag k="ssr:stedsnr" v="520942" />
	</node>
	<node id="-580329" lat="62.6349250037" lon="6.92821943711">
		<tag k="highway" v="path" />
		<tag k="name" v="Puskeråsa" />
		<tag k="ssr:stedsnr" v="762928" />
	</node>
	<node id="-580456" lat="62.6492027791" lon="6.98025834189">
		<tag k="fixme" v="consider highway=path" />
		<tag k="highway" v="track" />
		<tag k="name" v="Gamle Lervågvegen" />
		<tag k="ssr:stedsnr" v="823904" />
	</node>
	<node id="-580453" lat="62.6207444474" lon="6.94784999937">
		<tag k="highway" v="path" />
		<tag k="name" v="Reithaugvegen" />
		<tag k="ssr:stedsnr" v="823855" />
	</node>
	<node id="-579424" lat="62.581991671" lon="7.15364167485">
		<tag k="highway" v="path" />
		<tag k="name" v="Setervegen" />
		<tag k="ssr:stedsnr" v="95723" />
	</node>
	<node id="-580191" lat="62.6101638915" lon="7.09445832639">
		<tag k="bridge" v="yes" />
		<tag k="layer" v="1" />
		<tag k="name" v="Remmemsbrua" />
		<tag k="ssr:stedsnr" v="688265" />
	</node>
	<node id="-580190" lat="62.6217611082" lon="7.08913333223">
		<tag k="bridge" v="yes" />
		<tag k="layer" v="1" />
		<tag k="name" v="Stadionbrua" />
		<tag k="ssr:stedsnr" v="688212" />
	</node>
	<node id="-579675" lat="62.5665611099" lon="6.91680833699">
		<tag k="name" v="Kleivaleet" />
		<tag k="place" v="locality" />
		<tag k="ssr:stedsnr" v="217917" />
	</node>
	<node id="-578905" lat="62.6103388859" lon="7.09415556461">
		<tag k="layer" v="-1" />
		<tag k="name" v="Remmemstunnelen" />
		<tag k="ssr:stedsnr" v="324202" />
		<tag k="tunnel" v="yes" />
	</node>
	<node id="-579672" lat="62.6103833303" lon="7.04198610597">
		<tag k="highway" v="path" />
		<tag k="name" v="Setervegen" />
		<tag k="ssr:stedsnr" v="217888" />
	</node>
	<node id="-579670" lat="62.6226361149" lon="7.02394444986">
		<tag k="highway" v="path" />
		<tag k="name" v="Jervellvegen" />
		<tag k="ssr:stedsnr" v="217887" />
	</node>
	<node id="-580053" lat="62.6030972184" lon="7.11499999322">
		<tag k="bridge" v="yes" />
		<tag k="layer" v="1" />
		<tag k="name" v="Tresfjordbrua" />
		<tag k="ssr:stedsnr" v="587074" />
	</node>
	<node id="-579668" lat="62.6347222216" lon="7.15899999993">
		<tag k="man_made" v="cairn" />
		<tag k="name" v="Kjemperøysa" />
		<tag k="place" v="locality" />
		<tag k="ssr:stedsnr" v="217847" />
	</node>
	<node id="-579283" lat="62.598230558" lon="6.95555000711">
		<tag k="highway" v="path" />
		<tag k="name" v="Liaråket" />
		<tag k="ssr:stedsnr" v="34577" />
	</node>
	<node id="-578971" lat="62.6018972258" lon="6.85595277848">
		<tag k="fixme" v="consider highway=path" />
		<tag k="highway" v="track" />
		<tag k="name" v="Setervegen" />
		<tag k="ssr:stedsnr" v="338891" />
	</node>
	<node id="-580432" lat="62.6517750013" lon="7.08510277455">
		<tag k="amenity" v="ferry_terminal" />
		<tag k="name" v="Vestnes ferjekai" />
		<tag k="ssr:stedsnr" v="823290" />
	</node>
	<node id="-579662" lat="62.607355555" lon="7.08216667321">
		<tag k="fixme" v="consider highway=path" />
		<tag k="highway" v="track" />
		<tag k="name" v="Setervegen" />
		<tag k="ssr:stedsnr" v="217796" />
	</node>
	<node id="-579916" lat="62.5234083315" lon="7.11156388766">
		<tag k="highway" v="path" />
		<tag k="name" v="Liavegen" />
		<tag k="ssr:stedsnr" v="520688" />
	</node>
	<node id="-580040" lat="62.6048527774" lon="6.85283334185">
		<tag k="fixme" v="consider highway=path" />
		<tag k="highway" v="track" />
		<tag k="name" v="Torvvegen" />
		<tag k="ssr:stedsnr" v="580907" />
	</node>
	<node id="-579526" lat="62.624447226" lon="7.08833333658">
		<tag k="bridge" v="yes" />
		<tag k="layer" v="1" />
		<tag k="name" v="Nybrua" />
		<tag k="ssr:stedsnr" v="156603" />
	</node>
	<node id="-579394" lat="62.6383277769" lon="6.81189443804">
		<tag k="highway" v="path" />
		<tag k="name" v="Råket" />
		<tag k="ssr:stedsnr" v="95633" />
	</node>
	<node id="-579111" lat="62.5541166697" lon="7.15603055778">
		<tag k="fixme" v="consider highway=path" />
		<tag k="highway" v="track" />
		<tag k="name" v="Løbytevegen" />
		<tag k="ssr:stedsnr" v="398966" />
	</node>
	<node id="-580029" lat="62.6393444453" lon="7.07133889542">
		<tag k="highway" v="path" />
		<tag k="name" v="Skarvegen" />
		<tag k="ssr:stedsnr" v="580865" />
	</node>
	<node id="-579644" lat="62.6056361149" lon="6.82982221972">
		<tag k="ford" v="yes" />
		<tag k="name" v="Sagvadet" />
		<tag k="place" v="locality" />
		<tag k="ssr:stedsnr" v="217640" />
	</node>
	<node id="-580153" lat="62.6449444482" lon="6.96858055727">
		<tag k="highway" v="path" />
		<tag k="name" v="Baråsvegen" />
		<tag k="ssr:stedsnr" v="641917" />
	</node>
	<node id="-580276" lat="62.6373805557" lon="6.74803055044">
		<tag k="fixme" v="consider highway=path" />
		<tag k="highway" v="track" />
		<tag k="name" v="Setervegen" />
		<tag k="ssr:stedsnr" v="702980" />
	</node>
	<node id="-580275" lat="62.6344638852" lon="6.74813611761">
		<tag k="fixme" v="consider highway=path" />
		<tag k="highway" v="track" />
		<tag k="name" v="Botnavegen" />
		<tag k="ssr:stedsnr" v="702979" />
	</node>
	<node id="-579635" lat="62.611752779" lon="7.08747221975">
		<tag k="highway" v="path" />
		<tag k="name" v="Råket" />
		<tag k="ssr:stedsnr" v="217598" />
	</node>
	<node id="-579759" lat="62.6182111146" lon="7.08799166424">
		<tag k="layer" v="-1" />
		<tag k="name" v="Hellandstunnelen" />
		<tag k="ssr:stedsnr" v="448430" />
		<tag k="tunnel" v="yes" />
	</node>
	<node id="-579758" lat="62.6159138909" lon="7.08814443503">
		<tag k="bridge" v="yes" />
		<tag k="layer" v="1" />
		<tag k="name" v="Skulebrua" />
		<tag k="ssr:stedsnr" v="445196" />
	</node>
	<node id="-579371" lat="62.5400388876" lon="7.11819167444">
		<tag k="highway" v="path" />
		<tag k="name" v="Setervegen" />
		<tag k="ssr:stedsnr" v="95003" />
	</node>
	<node id="-579370" lat="62.5225583331" lon="7.11667500459">
		<tag k="highway" v="path" />
		<tag k="name" v="Løkmyrvegen" />
		<tag k="ssr:stedsnr" v="95002" />
	</node>
	<node id="-580647" lat="62.5952249979" lon="6.84728888055">
		<tag k="bridge" v="yes" />
		<tag k="layer" v="1" />
		<tag k="name" v="Botnabrua" />
		<tag k="ssr:stedsnr" v="945968" />
	</node>
	<node id="-578980" lat="62.6472111085" lon="6.78005276977">
		<tag k="highway" v="path" />
		<tag k="name" v="Skarvegen" />
		<tag k="ssr:stedsnr" v="338986" />
	</node>
	<node id="-579617" lat="62.5226888925" lon="7.11299444368">
		<tag k="highway" v="path" />
		<tag k="name" v="Setervegen" />
		<tag k="ssr:stedsnr" v="217001" />
	</node>
	<node id="-579360" lat="62.6235555521" lon="7.08901667434">
		<tag k="bridge" v="yes" />
		<tag k="layer" v="1" />
		<tag k="name" v="Straumsbrua" />
		<tag k="ssr:stedsnr" v="81203" />
	</node>
	<node id="-579359" lat="62.6238999984" lon="7.08801388571">
		<tag k="bridge" v="yes" />
		<tag k="layer" v="1" />
		<tag k="name" v="Vestnesbrua" />
		<tag k="ssr:stedsnr" v="81204" />
	</node>
	<node id="-580123" lat="62.6124388856" lon="6.92690278567">
		<tag k="fixme" v="verify maritime location" />
		<tag k="mooring" v="yes" />
		<tag k="name" v="Saltstøa" />
		<tag k="place" v="locality" />
		<tag k="ssr:stedsnr" v="641599" />
	</node>
	<node id="-580120" lat="62.5788833296" lon="6.90412777585">
		<tag k="highway" v="path" />
		<tag k="name" v="Råket" />
		<tag k="ssr:stedsnr" v="641583" />
	</node>
	<node id="-580502" lat="62.6248833315" lon="7.08994999804">
		<tag k="bridge" v="yes" />
		<tag k="layer" v="1" />
		<tag k="name" v="Gamlebrua" />
		<tag k="ssr:stedsnr" v="824866" />
	</node>
	<node id="-579089" lat="62.5740138857" lon="7.08519445086">
		<tag k="highway" v="path" />
		<tag k="name" v="Nakkestien" />
		<tag k="ssr:stedsnr" v="398794" />
	</node>
	<node id="-580496" lat="62.5751888932" lon="7.10009999441">
		<tag k="junction" v="yes" />
		<tag k="name" v="Kjelbotnskiftet" />
		<tag k="place" v="locality" />
		<tag k="ssr:stedsnr" v="824819" />
	</node>
	<node id="-580237" lat="62.5426666656" lon="7.25739166729">
		<tag k="highway" v="path" />
		<tag k="name" v="Stigane" />
		<tag k="ssr:stedsnr" v="702529" />
	</node>
	<node id="-579176" lat="62.5839805563" lon="7.10489722185">
		<tag k="junction" v="yes" />
		<tag k="name" v="Brastadskiftet" />
		<tag k="place" v="locality" />
		<tag k="ssr:stedsnr" v="884759" />
	</node>
	<node id="-579414" lat="62.6360333302" lon="6.92158889604">
		<tag k="highway" v="path" />
		<tag k="name" v="Purkeråsa" />
		<tag k="ssr:stedsnr" v="95955" />
	</node>
	<node id="-580481" lat="62.5552147637" lon="7.14899722875">
		<tag k="highway" v="path" />
		<tag k="name" v="Sjøvegen" />
		<tag k="ssr:stedsnr" v="824663" />
	</node>
</osm>
