<?xml version="1.0" encoding="UTF-8"?>
<<<<<<< HEAD
<osm version="0.6" generator="osmapis">
	<node lat="62.60990277524331" lon="7.1422611138185195" id="-2240">
		<tag k="amenity" v="place_of_worship" />
		<tag k="fixme" v="specify religion=*, denomination=*, building=* etc" />
		<tag k="name" v="Bedehuset" />
		<tag k="ssr:stedsnr" v="95819" />
	</node>
	<node lat="62.516583332774864" lon="7.137483330165415" id="-2338">
		<tag k="name" v="Tresfjord Bygdamuseum" />
		<tag k="ssr:stedsnr" v="217014" />
		<tag k="tourism" v="museum" />
	</node>
	<node lat="62.51619444712217" lon="7.134547217918846" id="-2339">
		<tag k="amenity" v="community_centre" />
		<tag k="name" v="Tressheim" />
		<tag k="ssr:stedsnr" v="217015" />
	</node>
	<node lat="62.617844444698804" lon="6.973894438239423" id="-2569">
		<tag k="name" v="Sagvollen" />
		<tag k="place" v="locality" />
		<tag k="ssr:stedsnr" v="398884" />
	</node>
	<node lat="62.61619722204751" lon="6.859566664447772" id="-2620">
		<tag k="alt_name" v="Fiksdal kyrkje" />
		<tag k="amenity" v="place_of_worship" />
		<tag k="denomination" v="lutheran" />
		<tag k="name" v="Fiksdal" />
		<tag k="religion" v="christian" />
		<tag k="ssr:stedsnr" v="459960" />
	</node>
	<node lat="62.61764166891655" lon="7.023516657963956" id="-2785">
		<tag k="name" v="Kolaren" />
		<tag k="place" v="locality" />
		<tag k="ssr:stedsnr" v="702587" />
	</node>
	<node lat="62.58184330308111" lon="7.144410507905926" id="-2900">
		<tag k="name" v="Skjegstadtangen" />
		<tag k="place" v="locality" />
		<tag k="ssr:stedsnr" v="727981" />
	</node>
	<node lat="62.605783334939716" lon="7.321883332246535" id="-3001">
=======
<osm generator="osmapis" version="0.6">
	<node id="-73087" lat="62.6130972234" lon="7.14302222148">
		<tag k="alt_name" v="Vike kapell" />
>>>>>>> e1d4bc35ff8a6074a6f2e91616a996b547c36f15
		<tag k="amenity" v="place_of_worship" />
		<tag k="denomination" v="lutheran" />
		<tag k="name" v="VÃ¥gstranda" />
		<tag k="religion" v="christian" />
		<tag k="ssr:stedsnr" v="922538" />
	</node>
<<<<<<< HEAD
	<node lat="62.6276638905778" lon="7.0848305598947645" id="-3014">
		<tag k="alt_name" v="Vestnes" />
=======
	<node id="-71677" lat="62.616197222" lon="6.85956666445">
		<tag k="alt_name" v="Fiksdal kyrkje" />
>>>>>>> e1d4bc35ff8a6074a6f2e91616a996b547c36f15
		<tag k="amenity" v="place_of_worship" />
		<tag k="denomination" v="lutheran" />
		<tag k="name" v="Vestnes kyrkje" />
		<tag k="religion" v="christian" />
		<tag k="ssr:stedsnr" v="922944" />
	</node>
<<<<<<< HEAD
	<node lat="62.617300002405884" lon="6.849308339099011" id="-3060">
		<tag k="amenity" v="community_centre" />
		<tag k="name" v="Bygdaheim" />
		<tag k="ssr:stedsnr" v="884947" />
	</node>
	<node lat="62.52181944175515" lon="7.138108330608469" id="-3140">
		<tag k="alt_name" v="Tresfjord" />
		<tag k="amenity" v="place_of_worship" />
		<tag k="denomination" v="lutheran" />
		<tag k="name" v="Tresfjord kyrkje" />
		<tag k="religion" v="christian" />
		<tag k="ssr:stedsnr" v="12855" />
	</node>
	<node lat="62.56363332972321" lon="7.153733331310037" id="-3189">
=======
	<node id="-71836" lat="62.6176416689" lon="7.02351665796">
		<tag k="name" v="Kolaren" />
		<tag k="place" v="locality" />
		<tag k="ssr:stedsnr" v="702587" />
	</node>
	<node id="-71386" lat="62.5636333297" lon="7.15373333131">
>>>>>>> e1d4bc35ff8a6074a6f2e91616a996b547c36f15
		<tag k="amenity" v="community_centre" />
		<tag k="name" v="Gildeheim" />
		<tag k="ssr:stedsnr" v="34733" />
	</node>
<<<<<<< HEAD
	<node lat="62.60881944756675" lon="7.14234444064721" id="-4005">
		<tag k="amenity" v="community_centre" />
		<tag k="name" v="Vikingheim" />
		<tag k="ssr:stedsnr" v="763826" />
	</node>
	<node lat="62.61309722342017" lon="7.143022221477084" id="-4048">
		<tag k="alt_name" v="Vike kapell" />
=======
	<node id="-72735" lat="62.6178444447" lon="6.97389443824">
		<tag k="name" v="Sagvollen" />
		<tag k="place" v="locality" />
		<tag k="ssr:stedsnr" v="398884" />
	</node>
	<node id="-71544" lat="62.5161944471" lon="7.13454721792">
		<tag k="amenity" v="community_centre" />
		<tag k="name" v="Tressheim" />
		<tag k="ssr:stedsnr" v="217015" />
	</node>
	<node id="-71543" lat="62.5165833328" lon="7.13748333017">
		<tag k="name" v="Tresfjord Bygdamuseum" />
		<tag k="ssr:stedsnr" v="217014" />
		<tag k="tourism" v="museum" />
	</node>
	<node id="-72404" lat="62.6099027752" lon="7.14226111382">
>>>>>>> e1d4bc35ff8a6074a6f2e91616a996b547c36f15
		<tag k="amenity" v="place_of_worship" />
		<tag k="denomination" v="lutheran" />
		<tag k="name" v="Vike" />
		<tag k="religion" v="christian" />
		<tag k="ssr:stedsnr" v="809358" />
	</node>
	<node id="-72047" lat="62.6276638906" lon="7.08483055989">
		<tag k="alt_name" v="Vestnes" />
		<tag k="amenity" v="place_of_worship" />
		<tag k="denomination" v="lutheran" />
		<tag k="name" v="Vestnes kyrkje" />
		<tag k="religion" v="christian" />
		<tag k="ssr:stedsnr" v="922944" />
	</node>
	<node id="-71974" lat="62.6173000024" lon="6.8493083391">
		<tag k="amenity" v="community_centre" />
		<tag k="name" v="Bygdaheim" />
		<tag k="ssr:stedsnr" v="884947" />
	</node>
	<node id="-72261" lat="62.5218194418" lon="7.13810833061">
		<tag k="alt_name" v="Tresfjord" />
		<tag k="amenity" v="place_of_worship" />
		<tag k="denomination" v="lutheran" />
		<tag k="name" v="Tresfjord kyrkje" />
		<tag k="religion" v="christian" />
		<tag k="ssr:stedsnr" v="12855" />
	</node>
	<node id="-72003" lat="62.5796138908" lon="7.14801111364">
		<tag k="name" v="Skjegstadtangen" />
		<tag k="place" v="locality" />
		<tag k="ssr:stedsnr" v="727981" />
	</node>
	<node id="-72033" lat="62.6088194476" lon="7.14234444065">
		<tag k="amenity" v="community_centre" />
		<tag k="name" v="Vikingheim" />
		<tag k="ssr:stedsnr" v="763826" />
	</node>
</osm>
