<?xml version="1.0" encoding="UTF-8"?>
<<<<<<< HEAD
<osm version="0.6" generator="osmapis">
	<node lat="62.57649444262546" lon="7.335425003977846" id="-2140">
		<tag k="name" v="Setergrova" />
		<tag k="ssr:stedsnr" v="11505" />
		<tag k="waterway" v="stream" />
	</node>
	<node lat="62.6385666695726" lon="6.9665694471061" id="-2143">
		<tag k="name" v="Øveråsløken" />
		<tag k="ssr:stedsnr" v="12005" />
		<tag k="waterway" v="stream" />
	</node>
	<node lat="62.55085000289596" lon="7.187100008897656" id="-2147">
		<tag k="name" v="Liafossen" />
		<tag k="natural" v="waterfall" />
		<tag k="ssr:stedsnr" v="11921" />
	</node>
	<node lat="62.60699443995241" lon="7.157738884112861" id="-2149">
		<tag k="name" v="Vikeelva" />
		<tag k="ssr:stedsnr" v="11992" />
		<tag k="waterway" v="stream" />
	</node>
	<node lat="62.59771944140128" lon="7.230272226933608" id="-2158">
		<tag k="name" v="Litleelva" />
		<tag k="ssr:stedsnr" v="22134" />
		<tag k="waterway" v="river" />
	</node>
	<node lat="62.482708330553905" lon="7.061636116318253" id="-2169">
		<tag k="name" v="Hestebotnsgrova" />
		<tag k="ssr:stedsnr" v="34114" />
		<tag k="waterway" v="stream" />
	</node>
	<node lat="62.50311388501622" lon="7.092430563804524" id="-2172">
		<tag k="name" v="Setergrova" />
		<tag k="ssr:stedsnr" v="34020" />
		<tag k="waterway" v="stream" />
	</node>
	<node lat="62.503508331003694" lon="7.096597223296676" id="-2173">
		<tag k="name" v="Nylegrova" />
		<tag k="ssr:stedsnr" v="34021" />
		<tag k="waterway" v="stream" />
	</node>
	<node lat="62.571966665440726" lon="6.900677781362962" id="-2187">
		<tag k="name" v="Rengleelva" />
		<tag k="ssr:stedsnr" v="34903" />
		<tag k="waterway" v="stream" />
	</node>
	<node lat="62.64107499901661" lon="7.039094450409314" id="-2190">
		<tag k="name" v="Litlevatnet" />
		<tag k="natural" v="water" />
		<tag k="ssr:stedsnr" v="34863" />
	</node>
	<node lat="62.493780556925635" lon="7.140461105740782" id="-2203">
		<tag k="alt_name" v="Rypdalselva" />
		<tag k="name" v="Dalselva" />
		<tag k="ssr:stedsnr" v="72608" />
		<tag k="waterway" v="river" />
	</node>
	<node lat="62.54778610873548" lon="7.08516387936132" id="-2205">
		<tag k="alt_name" v="Lislevatnet" />
		<tag k="name" v="Kjøpstadvatnet" />
		<tag k="natural" v="water" />
		<tag k="ssr:stedsnr" v="72817" />
	</node>
	<node lat="62.57110277513841" lon="7.172358335628727" id="-2209">
		<tag k="name" v="Grevgrova" />
		<tag k="ssr:stedsnr" v="72870" />
		<tag k="waterway" v="stream" />
	</node>
	<node lat="62.56329444730312" lon="6.855869450763665" id="-2215">
		<tag k="alt_name" v="Frostadvatnet" />
		<tag k="name" v="Litlevatnet" />
		<tag k="natural" v="water" />
		<tag k="ssr:stedsnr" v="72919" />
	</node>
	<node lat="62.6180472210057" lon="6.772069450726699" id="-2224">
		<tag k="name" v="Elvasvingane" />
		<tag k="place" v="locality" />
		<tag k="ssr:stedsnr" v="94508" />
	</node>
	<node lat="62.54713611014701" lon="7.156730560507955" id="-2228">
		<tag k="name" v="Tuefonna" />
		<tag k="ssr:stedsnr" v="95616" />
		<tag k="waterway" v="stream" />
	</node>
	<node lat="62.62224721808064" lon="7.1801166601983795" id="-2235">
		<tag k="name" v="Hellevadgrova" />
		<tag k="ssr:stedsnr" v="95714" />
		<tag k="waterway" v="stream" />
	</node>
	<node lat="62.59843333650776" lon="6.851127784344008" id="-2252">
		<tag k="name" v="Svarthølen" />
		<tag k="place" v="locality" />
		<tag k="ssr:stedsnr" v="95962" />
	</node>
	<node lat="62.59143611319031" lon="6.846447222190093" id="-2253">
		<tag k="name" v="Oterskarelva" />
		<tag k="ssr:stedsnr" v="95967" />
		<tag k="waterway" v="river" />
	</node>
	<node lat="62.53881111010641" lon="7.163158329676044" id="-2257">
		<tag k="alt_name" v="Frikfonna" />
		<tag k="name" v="Frikfonnelva" />
		<tag k="ssr:stedsnr" v="132825" />
		<tag k="waterway" v="stream" />
	</node>
	<node lat="62.48708055996966" lon="7.027761106098644" id="-2266">
		<tag k="name" v="Storbotnsgrova" />
		<tag k="old_name" v="Storbottsgrova" />
		<tag k="ssr:stedsnr" v="253358" />
		<tag k="waterway" v="stream" />
	</node>
	<node lat="62.47946388804365" lon="7.026983331170426" id="-2267">
		<tag k="name" v="Svartåna" />
		<tag k="old_name" v="Svartåa" />
		<tag k="ssr:stedsnr" v="253383" />
		<tag k="waterway" v="stream" />
	</node>
	<node lat="62.57569999953528" lon="6.941041660647306" id="-2285">
		<tag k="alt_name" v="Fossåna" />
		<tag k="name" v="Forsåna" />
		<tag k="ssr:stedsnr" v="254899" />
		<tag k="waterway" v="stream" />
	</node>
	<node lat="62.58827777790097" lon="6.797316667322461" id="-2298">
=======
<osm generator="osmapis" version="0.6">
	<node id="-72192" lat="62.6017083357" lon="6.79399444244">
		<tag k="name" v="Botnagrova" />
		<tag k="ssr:stedsnr" v="946000" />
		<tag k="waterway" v="stream" />
	</node>
	<node id="-72702" lat="62.612772222" lon="6.85028055846">
>>>>>>> e1d4bc35ff8a6074a6f2e91616a996b547c36f15
		<tag k="name" v="Løken" />
		<tag k="ssr:stedsnr" v="155335" />
		<tag k="waterway" v="river" />
	</node>
<<<<<<< HEAD
	<node lat="62.51079166914367" lon="7.118313879264998" id="-2303">
		<tag k="name" v="Neremselva" />
		<tag k="ssr:stedsnr" v="156014" />
		<tag k="waterway" v="stream" />
	</node>
	<node lat="62.49212500392711" lon="7.142772214888548" id="-2306">
		<tag k="name" v="Liaholman" />
		<tag k="place" v="islet" />
		<tag k="ssr:stedsnr" v="156022" />
	</node>
	<node lat="62.489652778667406" lon="7.134416662696339" id="-2307">
		<tag k="name" v="Ivaskredå" />
		<tag k="ssr:stedsnr" v="156023" />
		<tag k="waterway" v="stream" />
	</node>
	<node lat="62.638958328979975" lon="6.910666665268979" id="-2317">
		<tag k="name" v="Neråsgrova" />
		<tag k="ssr:stedsnr" v="156933" />
		<tag k="waterway" v="drain" />
	</node>
	<node lat="62.470658333447965" lon="7.155119449990202" id="-2322">
		<tag k="name" v="Holmane" />
		<tag k="place" v="island" />
		<tag k="ssr:stedsnr" v="156682" />
	</node>
	<node lat="62.53211944492994" lon="7.0348333236626255" id="-2371">
		<tag k="name" v="Jutevatnet" />
=======
	<node id="-72188" lat="62.595463889" lon="6.84970834257">
		<tag k="name" v="Botnaelva" />
		<tag k="ssr:stedsnr" v="945967" />
		<tag k="waterway" v="stream" />
	</node>
	<node id="-71670" lat="62.6176972203" lon="7.0178500017">
		<tag k="name" v="Svartgrova" />
		<tag k="ssr:stedsnr" v="459909" />
		<tag k="waterway" v="stream" />
	</node>
	<node id="-72693" lat="62.4876861137" lon="7.17957499549">
		<tag k="name" v="Smigrova" />
		<tag k="ssr:stedsnr" v="398535" />
		<tag k="waterway" v="stream" />
	</node>
	<node id="-72178" lat="62.648722218" lon="7.02919722745">
		<tag k="name" v="Fakseteppa" />
>>>>>>> e1d4bc35ff8a6074a6f2e91616a996b547c36f15
		<tag k="natural" v="water" />
		<tag k="ssr:stedsnr" v="254806" />
		<tag k="water" v="lake" />
	</node>
<<<<<<< HEAD
	<node lat="62.47426666784906" lon="7.116133326821604" id="-2391">
		<tag k="name" v="Setergrova" />
		<tag k="ssr:stedsnr" v="459125" />
		<tag k="waterway" v="stream" />
	</node>
	<node lat="62.48141666281639" lon="7.175930565198322" id="-2396">
		<tag k="name" v="Jogrova" />
		<tag k="ssr:stedsnr" v="459535" />
		<tag k="waterway" v="stream" />
	</node>
	<node lat="62.574054689454115" lon="7.1185721625882294" id="-2397">
		<tag k="name" v="Holman" />
		<tag k="place" v="islet" />
		<tag k="ssr:stedsnr" v="459543" />
	</node>
	<node lat="62.60419722246077" lon="6.932247226801582" id="-2398">
		<tag k="name" v="Åna" />
		<tag k="ssr:stedsnr" v="459592" />
		<tag k="waterway" v="stream" />
	</node>
	<node lat="62.5071861086193" lon="7.141502781240933" id="-2413">
		<tag k="name" v="Heggjakriken" />
		<tag k="natural" v="cape" />
		<tag k="ssr:stedsnr" v="277010" />
	</node>
	<node lat="62.50001666383113" lon="7.070027784218122" id="-2415">
		<tag k="name" v="Fonngrova" />
		<tag k="ssr:stedsnr" v="277017" />
		<tag k="waterway" v="stream" />
	</node>
	<node lat="62.47305555988277" lon="7.102047221714635" id="-2419">
		<tag k="name" v="Jølgrøvene" />
		<tag k="ssr:stedsnr" v="277103" />
		<tag k="waterway" v="stream" />
	</node>
	<node lat="62.60456388532223" lon="7.067102784583051" id="-2421">
		<tag k="name" v="Gammelsetergrova" />
		<tag k="ssr:stedsnr" v="459822" />
		<tag k="waterway" v="stream" />
	</node>
	<node lat="62.566888890107386" lon="7.003194445707195" id="-2429">
		<tag k="name" v="Ellingsgardselva" />
		<tag k="ssr:stedsnr" v="459850" />
		<tag k="waterway" v="stream" />
	</node>
	<node lat="62.533536109419884" lon="7.262008333158421" id="-2434">
		<tag k="name" v="Snerpedalsgrova" />
		<tag k="ssr:stedsnr" v="277716" />
		<tag k="waterway" v="river" />
	</node>
	<node lat="62.4642666701043" lon="7.1130777849107325" id="-2435">
		<tag k="name" v="Fossen" />
		<tag k="natural" v="waterfall" />
		<tag k="ssr:stedsnr" v="277719" />
	</node>
	<node lat="62.577138886071026" lon="7.088547219394448" id="-2440">
		<tag k="name" v="Skavassgrova" />
		<tag k="ssr:stedsnr" v="277813" />
		<tag k="waterway" v="stream" />
	</node>
	<node lat="62.64635555265053" lon="6.998286112572634" id="-2446">
		<tag k="name" v="Bjønndalsgrova" />
		<tag k="ssr:stedsnr" v="277884" />
		<tag k="waterway" v="stream" />
	</node>
	<node lat="62.62493055681809" lon="7.030191665779153" id="-2449">
		<tag k="name" v="Lassegrova" />
		<tag k="ssr:stedsnr" v="277916" />
		<tag k="waterway" v="stream" />
	</node>
	<node lat="62.56959999821072" lon="6.90526110266334" id="-2452">
		<tag k="name" v="Skvenelva" />
		<tag k="ssr:stedsnr" v="277930" />
		<tag k="waterway" v="stream" />
	</node>
	<node lat="62.633438889353386" lon="6.746147229515383" id="-2455">
		<tag k="name" v="Botnademma" />
		<tag k="ssr:stedsnr" v="277991" />
		<tag k="waterway" v="dam" />
	</node>
	<node lat="62.51656944633538" lon="6.982077785365973" id="-2475">
		<tag k="name" v="Måslielva" />
		<tag k="ssr:stedsnr" v="315861" />
		<tag k="waterway" v="stream" />
	</node>
	<node lat="62.469724996676625" lon="7.15373332856294" id="-2485">
		<tag k="name" v="Stortjønna" />
=======
	<node id="-72176" lat="62.5667388897" lon="7.00206665723">
		<tag k="name" v="Fremstegrova" />
		<tag k="ssr:stedsnr" v="945847" />
		<tag k="waterway" v="stream" />
	</node>
	<node id="-72173" lat="62.6491500013" lon="7.07541666666">
		<tag k="name" v="Brensdalsgrova" />
		<tag k="ssr:stedsnr" v="945833" />
		<tag k="waterway" v="stream" />
	</node>
	<node id="-72168" lat="62.5686111079" lon="7.06485000108">
		<tag k="name" v="Midteelva" />
		<tag k="ssr:stedsnr" v="945767" />
		<tag k="waterway" v="stream" />
	</node>
	<node id="-72679" lat="62.5562138877" lon="6.97361111893">
		<tag k="name" v="Haraldsgrova" />
		<tag k="ssr:stedsnr" v="398066" />
		<tag k="waterway" v="stream" />
	</node>
	<node id="-72678" lat="62.5572333294" lon="7.04097500663">
		<tag k="name" v="Sprovsfossen" />
		<tag k="natural" v="waterfall" />
		<tag k="ssr:stedsnr" v="398063" />
	</node>
	<node id="-71650" lat="62.5782055576" lon="7.20064444222">
		<tag k="name" v="Risurtjønna" />
		<tag k="natural" v="water" />
		<tag k="ssr:stedsnr" v="459714" />
	</node>
	<node id="-72670" lat="62.6184861145" lon="6.74141666954">
		<tag k="name" v="Storgrøvatnet" />
		<tag k="natural" v="water" />
		<tag k="ssr:stedsnr" v="397096" />
		<tag k="water" v="lake" />
	</node>
	<node id="-71418" lat="62.479463888" lon="7.02698333117">
		<tag k="name" v="Svartåna" />
		<tag k="old_name" v="Svartåa" />
		<tag k="ssr:stedsnr" v="253383" />
		<tag k="waterway" v="stream" />
	</node>
	<node id="-72153" lat="62.5807805599" lon="7.05208055899">
		<tag k="name" v="Tjønnin" />
		<tag k="natural" v="water" />
		<tag k="ssr:stedsnr" v="945533" />
	</node>
	<node id="-71588" lat="62.4730555599" lon="7.10204722171">
		<tag k="name" v="Jølgrøvene" />
		<tag k="ssr:stedsnr" v="277103" />
		<tag k="waterway" v="stream" />
	</node>
	<node id="-72662" lat="62.5584777745" lon="6.94659167416">
		<tag k="alt_name" v="Litlevatnet" />
		<tag k="loc_name" v="Skaklutvatnet" />
		<tag k="name" v="Dalvatnet" />
		<tag k="natural" v="water" />
		<tag k="ssr:stedsnr" v="376945" />
	</node>
	<node id="-71636" lat="62.6041972225" lon="6.9322472268">
		<tag k="name" v="Åna" />
		<tag k="ssr:stedsnr" v="459592" />
		<tag k="waterway" v="stream" />
	</node>
	<node id="-72656" lat="62.6009277804" lon="6.76802500246">
		<tag k="name" v="Forsevatnet" />
		<tag k="natural" v="water" />
		<tag k="ssr:stedsnr" v="375933" />
		<tag k="water" v="lake" />
	</node>
	<node id="-72655" lat="62.6113055575" lon="7.04273332936">
		<tag k="name" v="Misfjordelva" />
		<tag k="ssr:stedsnr" v="375931" />
		<tag k="waterway" v="stream" />
	</node>
	<node id="-71757" lat="62.5143333295" lon="7.1474166724">
		<tag k="name" v="Sveivagrova" />
		<tag k="ssr:stedsnr" v="398007" />
		<tag k="waterway" v="stream" />
	</node>
	<node id="-73163" lat="62.573861111" lon="7.17530277339">
		<tag k="name" v="Villaelva" />
		<tag k="ssr:stedsnr" v="861887" />
		<tag k="waterway" v="stream" />
	</node>
	<node id="-73162" lat="62.5102527746" lon="7.08640555656">
		<tag k="alt_name" v="Kvennagrova" />
		<tag k="name" v="Nylegrova" />
		<tag k="ssr:stedsnr" v="861853" />
		<tag k="waterway" v="stream" />
	</node>
	<node id="-72647" lat="62.5865166664" lon="7.01348055981">
		<tag k="name" v="Misfjordvatnet" />
>>>>>>> e1d4bc35ff8a6074a6f2e91616a996b547c36f15
		<tag k="natural" v="water" />
		<tag k="ssr:stedsnr" v="338093" />
	</node>
<<<<<<< HEAD
	<node lat="62.610399996528805" lon="7.139130548619078" id="-2489">
		<tag k="name" v="Renglå" />
		<tag k="ssr:stedsnr" v="338542" />
		<tag k="waterway" v="stream" />
	</node>
	<node lat="62.558266663718484" lon="7.199130564532026" id="-2490">
		<tag k="name" v="Gjergrova" />
		<tag k="ssr:stedsnr" v="338745" />
		<tag k="waterway" v="stream" />
	</node>
	<node lat="62.54607777997366" lon="7.17354166978108" id="-2491">
		<tag k="name" v="Pederfonna" />
		<tag k="ssr:stedsnr" v="338747" />
		<tag k="waterway" v="stream" />
	</node>
	<node lat="62.6480694462107" lon="7.010577775933135" id="-2500">
		<tag k="alt_name" v="Litlelauga" />
		<tag k="name" v="Litlelauva" />
=======
	<node id="-73158" lat="62.5238888856" lon="7.14880556435">
		<tag k="alt_name" v="Røyselva" />
		<tag k="name" v="Kråkelva" />
		<tag k="ssr:stedsnr" v="861820" />
		<tag k="waterway" v="stream" />
	</node>
	<node id="-71620" lat="62.5695999982" lon="6.90526110266">
		<tag k="name" v="Skvenelva" />
		<tag k="ssr:stedsnr" v="277930" />
		<tag k="waterway" v="stream" />
	</node>
	<node id="-72643" lat="62.6418499971" lon="7.01902500928">
		<tag k="name" v="Langvatnet" />
>>>>>>> e1d4bc35ff8a6074a6f2e91616a996b547c36f15
		<tag k="natural" v="water" />
		<tag k="ssr:stedsnr" v="338859" />
	</node>
<<<<<<< HEAD
	<node lat="62.49220000170657" lon="7.207722230142343" id="-2510">
=======
	<node id="-72642" lat="62.4922000017" lon="7.20772223014">
>>>>>>> e1d4bc35ff8a6074a6f2e91616a996b547c36f15
		<tag k="name" v="Vardfjellvatnet" />
		<tag k="natural" v="water" />
		<tag k="ssr:stedsnr" v="374337" />
	</node>
<<<<<<< HEAD
	<node lat="62.47945833027353" lon="7.19711665908996" id="-2511">
		<tag k="name" v="Knapprørselva" />
		<tag k="ssr:stedsnr" v="374354" />
		<tag k="waterway" v="stream" />
	</node>
	<node lat="62.64184999714177" lon="7.019025009282855" id="-2512">
		<tag k="name" v="Langvatnet" />
		<tag k="natural" v="water" />
		<tag k="ssr:stedsnr" v="375001" />
	</node>
	<node lat="62.63800278096519" lon="6.745433324123464" id="-2513">
		<tag k="name" v="Rekdalselva" />
		<tag k="ssr:stedsnr" v="375006" />
		<tag k="waterway" v="stream" />
	</node>
	<node lat="62.548880551931504" lon="7.308594438278818" id="-2514">
		<tag k="name" v="Svartevatnet" />
		<tag k="natural" v="water" />
		<tag k="ssr:stedsnr" v="375513" />
		<tag k="water" v="lake" />
	</node>
	<node lat="62.588872225012544" lon="7.349730557801421" id="-2516">
		<tag k="name" v="Vågselva" />
		<tag k="ssr:stedsnr" v="375489" />
		<tag k="waterway" v="stream" />
	</node>
	<node lat="62.58651666644721" lon="7.013480559812448" id="-2522">
		<tag k="name" v="Misfjordvatnet" />
		<tag k="natural" v="water" />
		<tag k="ssr:stedsnr" v="375980" />
	</node>
	<node lat="62.618486114538634" lon="6.741416669542521" id="-2530">
		<tag k="name" v="Storgrøvatnet" />
		<tag k="natural" v="water" />
		<tag k="ssr:stedsnr" v="397096" />
		<tag k="water" v="lake" />
	</node>
	<node lat="62.51091944406107" lon="7.155044439881068" id="-2535">
		<tag k="name" v="Førnakkgrova" />
		<tag k="ssr:stedsnr" v="398004" />
		<tag k="waterway" v="stream" />
	</node>
	<node lat="62.514333329527666" lon="7.147416672396276" id="-2536">
		<tag k="name" v="Sveivagrova" />
		<tag k="ssr:stedsnr" v="398007" />
		<tag k="waterway" v="stream" />
	</node>
	<node lat="62.48356388444358" lon="7.098916658100481" id="-2538">
		<tag k="name" v="Nyfonngrova" />
		<tag k="ssr:stedsnr" v="398103" />
		<tag k="waterway" v="stream" />
	</node>
	<node lat="62.497291669770995" lon="7.102211104778743" id="-2539">
		<tag k="name" v="Tjukkrøstgrova" />
		<tag k="ssr:stedsnr" v="398104" />
		<tag k="waterway" v="stream" />
	</node>
	<node lat="62.48768611368373" lon="7.179574995492578" id="-2543">
		<tag k="name" v="Smigrova" />
		<tag k="ssr:stedsnr" v="398535" />
		<tag k="waterway" v="stream" />
	</node>
	<node lat="62.567433333572204" lon="7.161272213693166" id="-2548">
		<tag k="name" v="Rabbegrova" />
		<tag k="ssr:stedsnr" v="398732" />
		<tag k="waterway" v="stream" />
	</node>
	<node lat="62.61277222195205" lon="6.8502805584596995" id="-2553">
		<tag k="name" v="Løken" />
		<tag k="ssr:stedsnr" v="398631" />
		<tag k="waterway" v="stream" />
	</node>
	<node lat="62.49718611247371" lon="7.147963890950387" id="-2555">
		<tag k="name" v="Renglå" />
		<tag k="ssr:stedsnr" v="398684" />
		<tag k="waterway" v="stream" />
	</node>
	<node lat="62.577208334126595" lon="6.898966668171113" id="-2565">
		<tag k="name" v="Tverrgrova" />
		<tag k="ssr:stedsnr" v="398908" />
		<tag k="waterway" v="stream" />
	</node>
	<node lat="62.578465435369004" lon="6.971546279457268" id="-2574">
		<tag k="name" v="Trollvatna" />
		<tag k="natural" v="water" />
		<tag k="ssr:stedsnr" v="417094" />
		<tag k="water" v="lake" />
	</node>
	<node lat="62.63393611438006" lon="6.816338898105954" id="-2576">
		<tag k="alt_name" v="Dalegrova" />
=======
	<node id="-71617" lat="62.6249305568" lon="7.03019166578">
		<tag k="name" v="Lassegrova" />
		<tag k="ssr:stedsnr" v="277916" />
		<tag k="waterway" v="stream" />
	</node>
	<node id="-73150" lat="62.5755388902" lon="6.89824443547">
		<tag k="alt_name" v="Frostadelva" />
		<tag k="name" v="Storelva" />
		<tag k="ssr:stedsnr" v="861246" />
		<tag k="waterway" v="stream" />
	</node>
	<node id="-72125" lat="62.5799222256" lon="7.04183888707">
		<tag k="name" v="Brastadvatnet" />
		<tag k="natural" v="water" />
		<tag k="ssr:stedsnr" v="861904" />
	</node>
	<node id="-71380" lat="62.5722527753" lon="6.85159444222">
		<tag k="name" v="Lislemyrelvane" />
		<tag k="ssr:stedsnr" v="33126" />
		<tag k="waterway" v="stream" />
	</node>
	<node id="-72634" lat="62.5571583327" lon="7.15481943908">
		<tag k="name" v="Storhølen" />
		<tag k="place" v="locality" />
		<tag k="ssr:stedsnr" v="338972" />
	</node>
	<node id="-71608" lat="62.4742666678" lon="7.11613332682">
		<tag k="name" v="Setergrova" />
		<tag k="ssr:stedsnr" v="459125" />
		<tag k="waterway" v="stream" />
	</node>
	<node id="-72119" lat="62.4749611139" lon="7.15614165759">
		<tag k="name" v="Fossåna" />
		<tag k="old_name" v="Fossåa" />
		<tag k="ssr:stedsnr" v="860411" />
		<tag k="waterway" v="stream" />
	</node>
	<node id="-72629" lat="62.6111277749" lon="6.81846944941">
		<tag k="name" v="Trollelva" />
		<tag k="ssr:stedsnr" v="338918" />
		<tag k="waterway" v="stream" />
	</node>
	<node id="-71604" lat="62.4642666701" lon="7.11307778491">
		<tag k="name" v="Fossen" />
		<tag k="natural" v="waterfall" />
		<tag k="ssr:stedsnr" v="277719" />
	</node>
	<node id="-71603" lat="62.5335361094" lon="7.26200833316">
		<tag k="name" v="Snerpedalsgrova" />
		<tag k="ssr:stedsnr" v="277716" />
		<tag k="waterway" v="river" />
	</node>
	<node id="-72623" lat="62.6439444405" lon="7.01480277034">
		<tag k="name" v="Barlindtjønna" />
		<tag k="natural" v="water" />
		<tag k="ssr:stedsnr" v="338866" />
	</node>
	<node id="-72622" lat="62.6480694462" lon="7.01057777593">
		<tag k="alt_name" v="Litlelauga" />
		<tag k="name" v="Litlelauva" />
		<tag k="natural" v="water" />
		<tag k="ssr:stedsnr" v="338859" />
	</node>
	<node id="-73133" lat="62.4875249991" lon="7.18489444214">
		<tag k="name" v="Breioddane" />
		<tag k="natural" v="cape" />
		<tag k="ssr:stedsnr" v="824789" />
	</node>
	<node id="-72619" lat="62.54607778" lon="7.17354166978">
		<tag k="name" v="Pederfonna" />
		<tag k="ssr:stedsnr" v="338747" />
		<tag k="waterway" v="stream" />
	</node>
	<node id="-72618" lat="62.5582666637" lon="7.19913056453">
		<tag k="name" v="Gjergrova" />
		<tag k="ssr:stedsnr" v="338745" />
		<tag k="waterway" v="stream" />
	</node>
	<node id="-73128" lat="62.6014305584" lon="7.03528333711">
		<tag k="name" v="Oddane" />
		<tag k="natural" v="cape" />
		<tag k="ssr:stedsnr" v="824613" />
	</node>
	<node id="-72614" lat="62.4874499976" lon="7.06350278712">
>>>>>>> e1d4bc35ff8a6074a6f2e91616a996b547c36f15
		<tag k="name" v="Dalgrova" />
		<tag k="ssr:stedsnr" v="436008" />
		<tag k="waterway" v="stream" />
	</node>
<<<<<<< HEAD
	<node lat="62.570008333877695" lon="7.210027781966869" id="-2581">
		<tag k="alt_name" v="Lomtjønna" />
		<tag k="name" v="Lomstjønna" />
		<tag k="natural" v="water" />
		<tag k="ssr:stedsnr" v="437858" />
	</node>
	<node lat="62.61350832983874" lon="6.763155557689324" id="-2588">
		<tag k="name" v="Nedste Langdalsvatnet" />
		<tag k="natural" v="water" />
		<tag k="ssr:stedsnr" v="458505" />
		<tag k="water" v="lake" />
	</node>
	<node lat="62.50527777655921" lon="7.116869442426911" id="-2589">
=======
	<node id="-73125" lat="62.549125003" lon="6.87283611098">
		<tag k="name" v="Tomreosen" />
		<tag k="natural" v="bay" />
		<tag k="ssr:stedsnr" v="824193" />
	</node>
	<node id="-72100" lat="62.5478388912" lon="7.16256666942">
		<tag k="name" v="Klengretefonna" />
		<tag k="ssr:stedsnr" v="823958" />
		<tag k="waterway" v="stream" />
	</node>
	<node id="-72610" lat="62.5257861142" lon="7.11563333602">
		<tag k="name" v="Leitåna" />
		<tag k="ssr:stedsnr" v="338639" />
		<tag k="waterway" v="stream" />
	</node>
	<node id="-71585" lat="62.5052777766" lon="7.11686944243">
>>>>>>> e1d4bc35ff8a6074a6f2e91616a996b547c36f15
		<tag k="name" v="Tøsshølen" />
		<tag k="place" v="locality" />
		<tag k="ssr:stedsnr" v="459012" />
	</node>
<<<<<<< HEAD
	<node lat="62.50050833121651" lon="7.136555564053778" id="-2590">
=======
	<node id="-71584" lat="62.5005083312" lon="7.13655556405">
>>>>>>> e1d4bc35ff8a6074a6f2e91616a996b547c36f15
		<tag k="name" v="Vollsveitå" />
		<tag k="ssr:stedsnr" v="459006" />
		<tag k="waterway" v="stream" />
	</node>
<<<<<<< HEAD
	<node lat="62.57820555760739" lon="7.200644442219243" id="-2613">
		<tag k="name" v="Risurtjønna" />
		<tag k="natural" v="water" />
		<tag k="ssr:stedsnr" v="459714" />
	</node>
	<node lat="62.61769722028631" lon="7.017850001703826" id="-2617">
		<tag k="name" v="Svartgrova" />
		<tag k="ssr:stedsnr" v="459909" />
		<tag k="waterway" v="stream" />
	</node>
	<node lat="62.631091662579024" lon="6.78054167402481" id="-2632">
		<tag k="name" v="Gjelsteinelva" />
		<tag k="ssr:stedsnr" v="679009" />
		<tag k="waterway" v="river" />
	</node>
	<node lat="62.58228333283354" lon="7.030916666219118" id="-2644">
		<tag k="alt_name" v="Remmesvatnet" />
		<tag k="name" v="Remmemsvatnet" />
		<tag k="natural" v="water" />
		<tag k="ssr:stedsnr" v="679896" />
	</node>
	<node lat="62.53183333341667" lon="7.181452774288522" id="-2645">
		<tag k="name" v="Åvatna" />
		<tag k="natural" v="water" />
		<tag k="ssr:stedsnr" v="679856" />
	</node>
	<node lat="62.59865833266647" lon="7.273419439236889" id="-2661">
		<tag k="name" v="Litleelva" />
		<tag k="ssr:stedsnr" v="497260" />
		<tag k="waterway" v="stream" />
	</node>
	<node lat="62.592700004164975" lon="6.7750527832489755" id="-2665">
		<tag k="name" v="Skjerdingvatnet" />
		<tag k="natural" v="water" />
		<tag k="ssr:stedsnr" v="497996" />
		<tag k="water" v="lake" />
	</node>
	<node lat="62.581286109711485" lon="7.149941662396075" id="-2691">
		<tag k="name" v="Kvennagrova" />
		<tag k="ssr:stedsnr" v="520767" />
		<tag k="waterway" v="stream" />
	</node>
	<node lat="62.56834722032766" lon="7.379777780683404" id="-2700">
		<tag k="name" v="Storfonna" />
		<tag k="ssr:stedsnr" v="521564" />
		<tag k="waterway" v="stream" />
	</node>
	<node lat="62.5350805554998" lon="7.272522221818194" id="-2714">
		<tag k="name" v="Midttjønna" />
		<tag k="natural" v="water" />
		<tag k="ssr:stedsnr" v="557411" />
	</node>
	<node lat="62.604888889781904" lon="7.329763896713679" id="-2715">
		<tag k="name" v="Straumen" />
		<tag k="natural" v="bay" />
		<tag k="ssr:stedsnr" v="557558" />
	</node>
	<node lat="62.59463889065098" lon="7.004366664933333" id="-2722">
		<tag k="name" v="Reselva" />
		<tag k="ssr:stedsnr" v="557995" />
		<tag k="waterway" v="stream" />
	</node>
	<node lat="62.512147218541365" lon="6.989436120091499" id="-2726">
		<tag k="name" v="Fossåna" />
		<tag k="ssr:stedsnr" v="572116" />
		<tag k="waterway" v="river" />
	</node>
	<node lat="62.57243333308099" lon="6.800850006691721" id="-2728">
		<tag k="name" v="Storelva" />
		<tag k="ssr:stedsnr" v="579108" />
		<tag k="waterway" v="river" />
	</node>
	<node lat="62.60190000050285" lon="6.767552787456426" id="-2729">
		<tag k="name" v="Fossevatnet" />
		<tag k="natural" v="water" />
		<tag k="ssr:stedsnr" v="579297" />
		<tag k="water" v="lake" />
	</node>
	<node lat="62.57670832959931" lon="7.16457777966399" id="-2737">
		<tag k="name" v="Lang-gjerdsgrova" />
		<tag k="ssr:stedsnr" v="580745" />
		<tag k="waterway" v="stream" />
	</node>
	<node lat="62.54404999755405" lon="7.196352775302025" id="-2738">
		<tag k="name" v="Hoemselva" />
		<tag k="ssr:stedsnr" v="580756" />
		<tag k="waterway" v="river" />
	</node>
	<node lat="62.605344441727595" lon="6.8329527707075775" id="-2739">
		<tag k="name" v="Renglå" />
		<tag k="ssr:stedsnr" v="580613" />
		<tag k="waterway" v="stream" />
	</node>
	<node lat="62.50561944008737" lon="7.161994441841539" id="-2740">
		<tag k="name" v="Trohølen" />
		<tag k="place" v="locality" />
		<tag k="ssr:stedsnr" v="580644" />
	</node>
	<node lat="62.61360832975257" lon="6.833852786882226" id="-2745">
		<tag k="name" v="Lislegrova" />
		<tag k="ssr:stedsnr" v="580940" />
		<tag k="waterway" v="stream" />
	</node>
	<node lat="62.61321944329919" lon="6.827094436584096" id="-2746">
		<tag k="name" v="Auspegrova" />
		<tag k="ssr:stedsnr" v="580941" />
		<tag k="waterway" v="stream" />
	</node>
	<node lat="62.63828333660098" lon="6.790300001547226" id="-2748">
		<tag k="name" v="Fremste Kloppegrova" />
		<tag k="ssr:stedsnr" v="580992" />
		<tag k="waterway" v="stream" />
	</node>
	<node lat="62.61552777712929" lon="6.96374444103417" id="-2750">
		<tag k="name" v="Litlvidåna" />
		<tag k="ssr:stedsnr" v="580893" />
		<tag k="waterway" v="stream" />
	</node>
	<node lat="62.57285278134989" lon="7.292691660280685" id="-2754">
		<tag k="name" v="Kleinheielva" />
		<tag k="ssr:stedsnr" v="582650" />
		<tag k="waterway" v="river" />
	</node>
	<node lat="62.62271666798732" lon="6.756924994651688" id="-2758">
		<tag k="name" v="Juldalselva" />
		<tag k="ssr:stedsnr" v="701074" />
		<tag k="waterway" v="stream" />
	</node>
	<node lat="62.45473610889757" lon="7.098936111222859" id="-2761">
		<tag k="name" v="Midtvatnet" />
=======
	<node id="-71664" lat="62.5668888901" lon="7.00319444571">
		<tag k="name" v="Ellingsgardselva" />
		<tag k="ssr:stedsnr" v="459850" />
		<tag k="waterway" v="stream" />
	</node>
	<node id="-72093" lat="62.6279666674" lon="6.83464167374">
		<tag k="name" v="Ljøsåna" />
		<tag k="ssr:stedsnr" v="823613" />
		<tag k="waterway" v="stream" />
	</node>
	<node id="-72092" lat="62.6209194483" lon="6.85291665881">
		<tag k="name" v="Sjøelva" />
		<tag k="ssr:stedsnr" v="823612" />
		<tag k="waterway" v="stream" />
	</node>
	<node id="-71579" lat="62.5071861086" lon="7.14150278124">
		<tag k="name" v="Heggjakriken" />
		<tag k="natural" v="cape" />
		<tag k="ssr:stedsnr" v="277010" />
	</node>
	<node id="-71575" lat="62.6135083298" lon="6.76315555769">
		<tag k="name" v="Nedste Langdalsvatnet" />
		<tag k="natural" v="water" />
		<tag k="ssr:stedsnr" v="458505" />
		<tag k="water" v="lake" />
	</node>
	<node id="-72598" lat="62.6103999965" lon="7.13913054862">
		<tag k="name" v="Renglå" />
		<tag k="ssr:stedsnr" v="338542" />
		<tag k="waterway" v="stream" />
	</node>
	<node id="-72082" lat="62.5029416682" lon="7.0876333344">
		<tag k="name" v="Fella" />
		<tag k="ssr:stedsnr" v="801828" />
		<tag k="waterway" v="stream" />
	</node>
	<node id="-72078" lat="62.6361500036" lon="7.0216083313">
		<tag k="name" v="Kvernagrova" />
		<tag k="ssr:stedsnr" v="801027" />
		<tag k="waterway" v="stream" />
	</node>
	<node id="-71661" lat="62.6045638853" lon="7.06710278458">
		<tag k="name" v="Gammelsetergrova" />
		<tag k="ssr:stedsnr" v="459822" />
		<tag k="waterway" v="stream" />
	</node>
	<node id="-73097" lat="62.5835805544" lon="6.93476944268">
		<tag k="name" v="Kvennåna" />
		<tag k="ssr:stedsnr" v="823584" />
		<tag k="waterway" v="stream" />
	</node>
	<node id="-72579" lat="62.6417444442" lon="6.71138055317">
		<tag k="name" v="Sandsvora" />
		<tag k="ssr:stedsnr" v="337337" />
		<tag k="waterway" v="stream" />
	</node>
	<node id="-72577" lat="62.6368999976" lon="6.70164445089">
		<tag k="name" v="Fonneelva" />
		<tag k="ssr:stedsnr" v="337284" />
		<tag k="waterway" v="stream" />
	</node>
	<node id="-72063" lat="62.533044443" lon="7.10714165729">
		<tag k="alt_name" v="Eidhammarselva" />
		<tag k="name" v="Ådalselva" />
		<tag k="ssr:stedsnr" v="922795" />
		<tag k="waterway" v="stream" />
	</node>
	<node id="-72572" lat="62.5022138854" lon="7.15222499481">
		<tag k="alt_name" v="Urelva" />
		<tag k="name" v="Urdelva" />
		<tag k="ssr:stedsnr" v="315848" />
		<tag k="waterway" v="stream" />
	</node>
	<node id="-71546" lat="62.5627555591" lon="7.16304999885">
		<tag k="name" v="Skitnedalsgrova" />
		<tag k="ssr:stedsnr" v="217036" />
		<tag k="waterway" v="stream" />
	</node>
	<node id="-72568" lat="62.6000527795" lon="6.80283054949">
		<tag k="name" v="Botnavatnet" />
		<tag k="natural" v="water" />
		<tag k="ssr:stedsnr" v="314927" />
	</node>
	<node id="-72567" lat="62.4601499973" lon="7.04293610538">
		<tag k="alt_name" v="Heielva" />
		<tag k="name" v="Blåfjellelva" />
		<tag k="ssr:stedsnr" v="314384" />
		<tag k="waterway" v="stream" />
	</node>
	<node id="-72054" lat="62.6029666696" lon="6.83660000852">
		<tag k="alt_name" v="Fiksdalselva;Nakkedalselva" />
		<tag k="name" v="Storelva" />
		<tag k="ssr:stedsnr" v="921942" />
		<tag k="waterway" v="stream" />
	</node>
	<node id="-72425" lat="62.5914361132" lon="6.84644722219">
		<tag k="name" v="Oterskarelva" />
		<tag k="ssr:stedsnr" v="95967" />
		<tag k="waterway" v="river" />
	</node>
	<node id="-71538" lat="62.5655305588" lon="7.05418889106">
		<tag k="alt_name" v="Skorgelva;Krokåna;Krokåa" />
		<tag k="name" v="Skorgeelva" />
		<tag k="ssr:stedsnr" v="194922" />
		<tag k="waterway" v="river" />
	</node>
	<node id="-72046" lat="62.5798750024" lon="6.96308610959">
		<tag k="alt_name" v="Trollvatnet, nedste" />
		<tag k="loc_name" v="Brustindvatnet;Kvennåvatnet" />
		<tag k="name" v="Nedste Trollvatnet" />
>>>>>>> e1d4bc35ff8a6074a6f2e91616a996b547c36f15
		<tag k="natural" v="water" />
		<tag k="ssr:stedsnr" v="617384" />
	</node>
<<<<<<< HEAD
	<node lat="62.540469447325" lon="7.075786103438255" id="-2773">
		<tag k="name" v="Jølgrøvene" />
		<tag k="ssr:stedsnr" v="702050" />
		<tag k="waterway" v="stream" />
	</node>
	<node lat="62.55956388766826" lon="7.19208610443396" id="-2797">
		<tag k="name" v="Gamlesetertunga" />
		<tag k="natural" v="cape" />
		<tag k="ssr:stedsnr" v="702726" />
	</node>
	<node lat="62.604344442666545" lon="7.280955554657132" id="-2807">
		<tag k="name" v="Geilgrova" />
		<tag k="ssr:stedsnr" v="703085" />
		<tag k="waterway" v="stream" />
	</node>
	<node lat="62.51354444153317" lon="7.13683889702401" id="-2821">
		<tag k="name" v="Steinhaughølen" />
		<tag k="place" v="locality" />
		<tag k="ssr:stedsnr" v="641006" />
	</node>
	<node lat="62.60810833367391" lon="7.0433194502054315" id="-2835">
		<tag k="name" v="Misfjordfossen" />
		<tag k="natural" v="waterfall" />
		<tag k="ssr:stedsnr" v="641876" />
	</node>
	<node lat="62.61553611066055" lon="7.0460722151130835" id="-2836">
		<tag k="name" v="Litleelva" />
		<tag k="ssr:stedsnr" v="641878" />
		<tag k="waterway" v="stream" />
	</node>
	<node lat="62.649869443206235" lon="6.778477783359032" id="-2841">
		<tag k="name" v="Skiftingselva" />
		<tag k="ssr:stedsnr" v="641985" />
		<tag k="waterway" v="stream" />
	</node>
	<node lat="62.558372226518394" lon="7.185630545633421" id="-2851">
		<tag k="name" v="Gilselva" />
		<tag k="old_name" v="Gilsøyelva;Gjeilselva" />
		<tag k="ssr:stedsnr" v="679911" />
		<tag k="waterway" v="stream" />
	</node>
	<node lat="62.5874888874917" lon="7.088958336507167" id="-2853">
		<tag k="name" v="Brastadelva" />
		<tag k="ssr:stedsnr" v="679984" />
		<tag k="waterway" v="stream" />
	</node>
	<node lat="62.59444444093924" lon="7.3478638819640985" id="-2854">
		<tag k="name" v="Skarholmen" />
		<tag k="place" v="islet" />
		<tag k="ssr:stedsnr" v="689144" />
	</node>
	<node lat="62.59674999800059" lon="6.756936102019874" id="-2857">
		<tag k="name" v="Småtjønnene" />
=======
	<node id="-72557" lat="62.6203333328" lon="6.74757499402">
		<tag k="name" v="Juldalsvatnet" />
		<tag k="natural" v="water" />
		<tag k="ssr:stedsnr" v="216079" />
		<tag k="water" v="lake" />
	</node>
	<node id="-73068" lat="62.5675305568" lon="6.73934722822">
		<tag k="name" v="Storelva" />
		<tag k="ssr:stedsnr" v="801260" />
		<tag k="waterway" v="stream" />
	</node>
	<node id="-71570" lat="62.5321194449" lon="7.03483332366">
		<tag k="name" v="Jutevatnet" />
		<tag k="natural" v="water" />
		<tag k="ssr:stedsnr" v="254806" />
		<tag k="water" v="lake" />
	</node>
	<node id="-73066" lat="62.491750001" lon="7.17789443492">
		<tag k="name" v="Reitegrova" />
		<tag k="ssr:stedsnr" v="799330" />
		<tag k="waterway" v="stream" />
	</node>
	<node id="-71529" lat="62.6334388894" lon="6.74614722952">
		<tag k="name" v="Botnademma" />
		<tag k="ssr:stedsnr" v="277991" />
		<tag k="waterway" v="dam" />
	</node>
	<node id="-72552" lat="62.623530558" lon="7.01244722195">
		<tag k="alt_name" v="Stokkelandsløken" />
		<tag k="name" v="Løken" />
		<tag k="ssr:stedsnr" v="194949" />
		<tag k="waterway" v="stream" />
	</node>
	<node id="-71740" lat="62.638002781" lon="6.74543332412">
		<tag k="name" v="Rekdalselva" />
		<tag k="ssr:stedsnr" v="375006" />
		<tag k="waterway" v="stream" />
	</node>
	<node id="-72548" lat="62.5375444459" lon="7.26285000019">
		<tag k="name" v="Ytstetjønna" />
>>>>>>> e1d4bc35ff8a6074a6f2e91616a996b547c36f15
		<tag k="natural" v="water" />
		<tag k="ssr:stedsnr" v="701322" />
	</node>
<<<<<<< HEAD
	<node lat="62.50596666260513" lon="7.121363891310084" id="-2860">
		<tag k="name" v="Lakshølen" />
		<tag k="place" v="locality" />
		<tag k="ssr:stedsnr" v="702016" />
	</node>
	<node lat="62.50647222548481" lon="7.111944444438694" id="-2862">
		<tag k="name" v="Nedsteløken" />
		<tag k="ssr:stedsnr" v="702020" />
		<tag k="waterway" v="stream" />
	</node>
	<node lat="62.50931944609528" lon="7.111500004045863" id="-2863">
		<tag k="name" v="Øvsteløken" />
		<tag k="ssr:stedsnr" v="702022" />
		<tag k="waterway" v="stream" />
	</node>
	<node lat="62.488427776906924" lon="7.096302771359778" id="-2868">
		<tag k="name" v="Djupdalsgrova" />
		<tag k="ssr:stedsnr" v="702105" />
		<tag k="waterway" v="stream" />
	</node>
	<node lat="62.55481111411321" lon="6.879861110438434" id="-2881">
		<tag k="name" v="Sagelva" />
		<tag k="ssr:stedsnr" v="702679" />
		<tag k="waterway" v="stream" />
	</node>
	<node lat="62.474461111467285" lon="7.193080548268872" id="-2886">
		<tag k="name" v="Litleligrova" />
		<tag k="ssr:stedsnr" v="702706" />
		<tag k="waterway" v="stream" />
	</node>
	<node lat="62.55425833424347" lon="7.1799305477865785" id="-2905">
		<tag k="name" v="Sesselva" />
		<tag k="ssr:stedsnr" v="740539" />
		<tag k="waterway" v="river" />
	</node>
	<node lat="62.55661666242268" lon="7.01230277773159" id="-2908">
		<tag k="name" v="Storfonna" />
		<tag k="ssr:stedsnr" v="740929" />
		<tag k="waterway" v="stream" />
	</node>
	<node lat="62.51961388439263" lon="7.1192999944554565" id="-2915">
		<tag k="name" v="Kvennaløken" />
		<tag k="ssr:stedsnr" v="762017" />
		<tag k="waterway" v="stream" />
	</node>
	<node lat="62.54642499795567" lon="7.103674998128295" id="-2917">
		<tag k="alt_name" v="Gamleandersgrova" />
		<tag k="name" v="Almedalsgrova" />
		<tag k="ssr:stedsnr" v="762053" />
		<tag k="waterway" v="stream" />
	</node>
	<node lat="62.48099166833014" lon="7.117083335469319" id="-2919">
		<tag k="name" v="Øykjestølfonna" />
		<tag k="ssr:stedsnr" v="762095" />
		<tag k="waterway" v="stream" />
	</node>
	<node lat="62.578897222018384" lon="7.099061107643028" id="-2922">
=======
	<node id="-73059" lat="62.5802527741" lon="7.09055555663">
		<tag k="name" v="Rørdalsgrova" />
		<tag k="ssr:stedsnr" v="763775" />
		<tag k="waterway" v="stream" />
	</node>
	<node id="-72544" lat="62.5624638924" lon="7.1008944348">
		<tag k="name" v="Bøelva" />
		<tag k="ssr:stedsnr" v="193931" />
		<tag k="waterway" v="stream" />
	</node>
	<node id="-72542" lat="62.5546066071" lon="7.04221692435">
		<tag k="name" v="Sprovsvatnet" />
		<tag k="natural" v="water" />
		<tag k="ssr:stedsnr" v="193901" />
	</node>
	<node id="-72541" lat="62.4908888933" lon="7.06837221972">
		<tag k="alt_name" v="Kjersemelva" />
		<tag k="name" v="Dalelva" />
		<tag k="ssr:stedsnr" v="193628" />
		<tag k="waterway" v="river" />
	</node>
	<node id="-71738" lat="62.4794583303" lon="7.19711665909">
		<tag k="name" v="Knapprørselva" />
		<tag k="ssr:stedsnr" v="374354" />
		<tag k="waterway" v="stream" />
	</node>
	<node id="-72538" lat="62.4610722221" lon="7.16153611316">
		<tag k="name" v="Dalsvatnet" />
		<tag k="natural" v="water" />
		<tag k="ssr:stedsnr" v="193368" />
	</node>
	<node id="-72536" lat="62.4595638893" lon="7.12385555726">
		<tag k="name" v="Møsvatnet" />
		<tag k="natural" v="water" />
		<tag k="ssr:stedsnr" v="193365" />
	</node>
	<node id="-73047" lat="62.467338887" lon="7.10873333109">
		<tag k="name" v="Midtelva" />
		<tag k="ssr:stedsnr" v="763716" />
		<tag k="waterway" v="river" />
	</node>
	<node id="-71508" lat="62.5864361101" lon="6.88960555312">
		<tag k="name" v="Tjønnin" />
		<tag k="natural" v="water" />
		<tag k="ssr:stedsnr" v="277626" />
	</node>
	<node id="-72018" lat="62.578897222" lon="7.09906110764">
>>>>>>> e1d4bc35ff8a6074a6f2e91616a996b547c36f15
		<tag k="name" v="Vikelva" />
		<tag k="ssr:stedsnr" v="762548" />
		<tag k="waterway" v="stream" />
	</node>
<<<<<<< HEAD
	<node lat="62.636150003574386" lon="7.021608331302254" id="-2946">
		<tag k="name" v="Kvernagrova" />
		<tag k="ssr:stedsnr" v="801027" />
		<tag k="waterway" v="stream" />
	</node>
	<node lat="62.620919448284454" lon="6.852916658811276" id="-2965">
		<tag k="name" v="Sjøelva" />
		<tag k="ssr:stedsnr" v="823612" />
		<tag k="waterway" v="stream" />
	</node>
	<node lat="62.62796666736259" lon="6.834641673735998" id="-2966">
		<tag k="name" v="Ljøsåna" />
		<tag k="ssr:stedsnr" v="823613" />
		<tag k="waterway" v="stream" />
	</node>
	<node lat="62.5835805544351" lon="6.934769442681469" id="-2973">
		<tag k="name" v="Kvennåna" />
		<tag k="ssr:stedsnr" v="823584" />
		<tag k="waterway" v="stream" />
	</node>
	<node lat="62.60143055844996" lon="7.035283337113438" id="-2984">
		<tag k="name" v="Oddane" />
		<tag k="natural" v="cape" />
		<tag k="ssr:stedsnr" v="824613" />
	</node>
	<node lat="62.57227777513813" lon="7.370930552535776" id="-2991">
		<tag k="name" v="Farkvamselva" />
		<tag k="ssr:stedsnr" v="825506" />
		<tag k="waterway" v="stream" />
	</node>
	<node lat="62.602966669567365" lon="6.836600008518698" id="-2994">
		<tag k="alt_name" v="Fiksdalselva;Nakkedalselva" />
		<tag k="name" v="Storelva" />
		<tag k="ssr:stedsnr" v="921942" />
		<tag k="waterway" v="stream" />
	</node>
	<node lat="62.52681388743967" lon="7.205738892331252" id="-3006">
		<tag k="name" v="Måsvatnet" />
		<tag k="natural" v="water" />
		<tag k="ssr:stedsnr" v="922858" />
	</node>
	<node lat="62.58150277932822" lon="6.95039722123696" id="-3007">
		<tag k="name" v="Langsteinselva" />
		<tag k="ssr:stedsnr" v="922899" />
		<tag k="waterway" v="stream" />
	</node>
	<node lat="62.579875002384085" lon="6.963086109588741" id="-3008">
		<tag k="alt_name" v="Trollvatnet, nedste" />
		<tag k="loc_name" v="Brustindvatnet;Kvennåvatnet" />
		<tag k="name" v="Nedste Trollvatnet" />
		<tag k="natural" v="water" />
		<tag k="ssr:stedsnr" v="922901" />
	</node>
	<node lat="62.52388888562445" lon="7.148805564352981" id="-3024">
		<tag k="alt_name" v="Røyselva" />
		<tag k="name" v="Kråkelva" />
		<tag k="ssr:stedsnr" v="861820" />
		<tag k="waterway" v="stream" />
	</node>
	<node lat="62.5799222255996" lon="7.041838887066874" id="-3026">
		<tag k="name" v="Brastadvatnet" />
		<tag k="natural" v="water" />
		<tag k="ssr:stedsnr" v="861904" />
	</node>
	<node lat="62.577044212332716" lon="6.981187650101181" id="-3027">
		<tag k="alt_name" v="Trollvatnet, øvste" />
		<tag k="name" v="Øvste Trollvatnet" />
		<tag k="natural" v="water" />
		<tag k="ssr:stedsnr" v="861907" />
	</node>
	<node lat="62.55326652196147" lon="7.04696742078856" id="-3038">
		<tag k="name" v="Nedste Sprovsvatnet" />
		<tag k="natural" v="water" />
		<tag k="ssr:stedsnr" v="884059" />
		<tag k="water" v="lake" />
	</node>
	<node lat="62.49413333107929" lon="7.06511944849161" id="-3039">
		<tag k="name" v="Slipsteingrova" />
		<tag k="ssr:stedsnr" v="884102" />
		<tag k="waterway" v="stream" />
	</node>
	<node lat="62.59849166737022" lon="6.92668332921134" id="-3047">
		<tag k="name" v="Klaselva" />
		<tag k="ssr:stedsnr" v="884564" />
		<tag k="waterway" v="stream" />
	</node>
	<node lat="62.60921111154763" lon="6.837502776381805" id="-3051">
		<tag k="name" v="Råkelva" />
		<tag k="ssr:stedsnr" v="884605" />
		<tag k="waterway" v="stream" />
	</node>
	<node lat="62.57180277876174" lon="7.374874990215321" id="-3064">
		<tag k="name" v="Høgreitfonna" />
		<tag k="ssr:stedsnr" v="885557" />
		<tag k="waterway" v="stream" />
	</node>
	<node lat="62.644787317110556" lon="6.976115850511786" id="-3071">
		<tag k="alt_name" v="Lauga" />
		<tag k="name" v="Lauva" />
		<tag k="natural" v="water" />
		<tag k="ssr:stedsnr" v="922005" />
	</node>
	<node lat="62.57931944072386" lon="7.291855549970263" id="-3075">
		<tag k="name" v="Fossgjerdelva" />
		<tag k="ssr:stedsnr" v="922580" />
		<tag k="waterway" v="stream" />
	</node>
	<node lat="62.5330444430109" lon="7.107141657286078" id="-3076">
		<tag k="alt_name" v="Eidhammarselva" />
		<tag k="name" v="Ådalselva" />
		<tag k="ssr:stedsnr" v="922795" />
		<tag k="waterway" v="stream" />
	</node>
	<node lat="62.58078055993163" lon="7.052080558985654" id="-3091">
		<tag k="name" v="Tjønnin" />
		<tag k="natural" v="water" />
		<tag k="ssr:stedsnr" v="945533" />
	</node>
	<node lat="62.64915000131059" lon="7.0754166666619565" id="-3102">
		<tag k="name" v="Brensdalsgrova" />
		<tag k="ssr:stedsnr" v="945833" />
		<tag k="waterway" v="stream" />
	</node>
	<node lat="62.60170833568123" lon="6.793994442438196" id="-3109">
		<tag k="name" v="Botnagrova" />
		<tag k="ssr:stedsnr" v="946000" />
		<tag k="waterway" v="stream" />
	</node>
	<node lat="62.57225277531422" lon="6.8515944422239405" id="-3149">
		<tag k="name" v="Lislemyrelvane" />
		<tag k="ssr:stedsnr" v="33126" />
		<tag k="waterway" v="stream" />
	</node>
	<node lat="62.51786944546947" lon="7.0816333338035236" id="-3158">
		<tag k="name" v="Tverråtunga" />
=======
	<node id="-72528" lat="62.6395250011" lon="6.79116388209">
		<tag k="name" v="Heimste Kloppegrova" />
		<tag k="ssr:stedsnr" v="156981" />
		<tag k="waterway" v="stream" />
	</node>
	<node id="-72527" lat="62.6278999974" lon="6.83566666156">
		<tag k="name" v="Lisle Ljøsåna" />
		<tag k="ssr:stedsnr" v="156941" />
		<tag k="waterway" v="stream" />
	</node>
	<node id="-72524" lat="62.638958329" lon="6.91066666527">
		<tag k="name" v="Neråsgrova" />
		<tag k="ssr:stedsnr" v="156933" />
		<tag k="waterway" v="drain" />
	</node>
	<node id="-73033" lat="62.6445555562" lon="7.08341389708">
		<tag k="name" v="Grova" />
		<tag k="ssr:stedsnr" v="762589" />
		<tag k="waterway" v="stream" />
	</node>
	<node id="-72012" lat="62.546424998" lon="7.10367499813">
		<tag k="alt_name" v="Gamleandersgrova" />
		<tag k="name" v="Almedalsgrova" />
		<tag k="ssr:stedsnr" v="762053" />
		<tag k="waterway" v="stream" />
	</node>
	<node id="-72502" lat="62.6202000015" lon="7.18530832596">
		<tag k="name" v="Vinkjellaren" />
		<tag k="natural" v="spring" />
		<tag k="ssr:stedsnr" v="156726" />
	</node>
	<node id="-71487" lat="62.5850250034" lon="6.85526387943">
		<tag k="name" v="Vassholane" />
		<tag k="ssr:stedsnr" v="276137" />
		<tag k="waterway" v="stream" />
	</node>
	<node id="-73022" lat="62.5196138844" lon="7.11929999446">
		<tag k="name" v="Kvennaløken" />
		<tag k="ssr:stedsnr" v="762017" />
		<tag k="waterway" v="stream" />
	</node>
	<node id="-71733" lat="62.5832749977" lon="6.82847221268">
		<tag k="alt_name" v="Mælskarvatnet" />
		<tag k="name" v="Melskarsvatnet" />
		<tag k="natural" v="water" />
		<tag k="ssr:stedsnr" v="497975" />
	</node>
	<node id="-72504" lat="62.6140000009" lon="7.20438610992">
		<tag k="name" v="Løvollgrova" />
		<tag k="ssr:stedsnr" v="156733" />
		<tag k="waterway" v="stream" />
	</node>
	<node id="-71479" lat="62.5461027792" lon="6.86471389409">
		<tag k="alt_name" v="Svartløkvatnet" />
		<tag k="name" v="Tomrevatnet" />
		<tag k="natural" v="water" />
		<tag k="ssr:stedsnr" v="132834" />
		<tag k="water" v="lake" />
	</node>
	<node id="-73014" lat="62.5566166624" lon="7.01230277773">
		<tag k="name" v="Storfonna" />
		<tag k="ssr:stedsnr" v="740929" />
		<tag k="waterway" v="stream" />
	</node>
	<node id="-71477" lat="62.5388111101" lon="7.16315832968">
		<tag k="alt_name" v="Frikfonna" />
		<tag k="name" v="Frikfonnelva" />
		<tag k="ssr:stedsnr" v="132825" />
		<tag k="waterway" v="stream" />
	</node>
	<node id="-71902" lat="62.6132194433" lon="6.82709443658">
		<tag k="name" v="Auspegrova" />
		<tag k="ssr:stedsnr" v="580941" />
		<tag k="waterway" v="stream" />
	</node>
	<node id="-71986" lat="62.4884277769" lon="7.09630277136">
		<tag k="name" v="Djupdalsgrova" />
		<tag k="ssr:stedsnr" v="702105" />
		<tag k="waterway" v="stream" />
	</node>
	<node id="-73009" lat="62.5316638898" lon="7.2067499981">
		<tag k="name" v="Urvatnet" />
		<tag k="natural" v="water" />
		<tag k="ssr:stedsnr" v="740848" />
	</node>
	<node id="-72496" lat="62.4706583334" lon="7.15511944999">
		<tag k="name" v="Holmane" />
		<tag k="place" v="island" />
		<tag k="ssr:stedsnr" v="156682" />
	</node>
	<node id="-73007" lat="62.5542583342" lon="7.17993054779">
		<tag k="name" v="Sesselva" />
		<tag k="ssr:stedsnr" v="740539" />
		<tag k="waterway" v="river" />
	</node>
	<node id="-71982" lat="62.5059666626" lon="7.12136389131">
		<tag k="name" v="Lakshølen" />
		<tag k="place" v="locality" />
		<tag k="ssr:stedsnr" v="702016" />
	</node>
	<node id="-71469" lat="62.5984333365" lon="6.85112778434">
		<tag k="name" v="Svarthølen" />
		<tag k="place" v="locality" />
		<tag k="ssr:stedsnr" v="95962" />
	</node>
	<node id="-71468" lat="62.6126777738" lon="6.86311666004">
		<tag k="name" v="Elvaneset" />
>>>>>>> e1d4bc35ff8a6074a6f2e91616a996b547c36f15
		<tag k="natural" v="cape" />
		<tag k="ssr:stedsnr" v="34025" />
	</node>
<<<<<<< HEAD
	<node lat="62.549483331598786" lon="7.045772217528896" id="-3165">
		<tag k="name" v="Øvste Sprovsvatnet" />
=======
	<node id="-71979" lat="62.596749998" lon="6.75693610202">
		<tag k="name" v="Småtjønnene" />
>>>>>>> e1d4bc35ff8a6074a6f2e91616a996b547c36f15
		<tag k="natural" v="water" />
		<tag k="ssr:stedsnr" v="34059" />
		<tag k="water" v="lake" />
	</node>
<<<<<<< HEAD
	<node lat="62.64890555671921" lon="6.930302785181" id="-3179">
		<tag k="name" v="Sjøgrova" />
		<tag k="ssr:stedsnr" v="34610" />
		<tag k="waterway" v="stream" />
	</node>
	<node lat="62.57075833541283" lon="7.058902781749699" id="-3183">
		<tag k="name" v="Hestavollelva" />
		<tag k="ssr:stedsnr" v="34762" />
		<tag k="waterway" v="stream" />
	</node>
	<node lat="62.60806388983176" lon="7.087900002976095" id="-3185">
		<tag k="name" v="Remmemselva" />
		<tag k="ssr:stedsnr" v="34783" />
		<tag k="waterway" v="stream" />
	</node>
	<node lat="62.551727775136236" lon="7.086788886656926" id="-3188">
		<tag k="name" v="Teppå" />
		<tag k="natural" v="bay" />
		<tag k="ssr:stedsnr" v="34658" />
	</node>
	<node lat="62.64569444526553" lon="6.927672223971009" id="-3193">
		<tag k="name" v="Hjellgrova" />
		<tag k="ssr:stedsnr" v="34920" />
		<tag k="waterway" v="stream" />
	</node>
	<node lat="62.60107221829003" lon="6.806519443562381" id="-3197">
		<tag k="name" v="Botnagrova" />
		<tag k="ssr:stedsnr" v="34962" />
		<tag k="waterway" v="stream" />
	</node>
	<node lat="62.637111106850405" lon="6.712041676648912" id="-3223">
		<tag k="name" v="Øygardselva" />
		<tag k="ssr:stedsnr" v="73501" />
		<tag k="waterway" v="stream" />
	</node>
	<node lat="62.5695222261421" lon="6.858077775513784" id="-3226">
		<tag k="name" v="Tverrlielva" />
		<tag k="ssr:stedsnr" v="94129" />
		<tag k="waterway" v="stream" />
	</node>
	<node lat="62.5753499970715" lon="7.1739972308923745" id="-3245">
		<tag k="name" v="Saugrova" />
		<tag k="ssr:stedsnr" v="95497" />
		<tag k="waterway" v="stream" />
	</node>
	<node lat="62.622225003407436" lon="7.088599993443894" id="-3251">
=======
	<node id="-71978" lat="62.622716668" lon="6.75692499465">
		<tag k="name" v="Juldalselva" />
		<tag k="ssr:stedsnr" v="701074" />
		<tag k="waterway" v="stream" />
	</node>
	<node id="-73001" lat="62.5867666686" lon="6.94925555299">
		<tag k="name" v="Løvollselva" />
		<tag k="ssr:stedsnr" v="739974" />
		<tag k="waterway" v="stream" />
	</node>
	<node id="-73000" lat="62.5823916698" lon="6.85871944305">
		<tag k="name" v="Oterskarvatnet" />
		<tag k="natural" v="water" />
		<tag k="ssr:stedsnr" v="739971" />
	</node>
	<node id="-72497" lat="62.5144444409" lon="7.07811667595">
		<tag k="name" v="Tverråna" />
		<tag k="ssr:stedsnr" v="156690" />
		<tag k="waterway" v="stream" />
	</node>
	<node id="-72996" lat="62.5557333291" lon="7.07420555175">
		<tag k="alt_name" v="Lomtjønna" />
		<tag k="name" v="Lomstjønna" />
		<tag k="natural" v="water" />
		<tag k="ssr:stedsnr" v="739887" />
	</node>
	<node id="-72995" lat="62.4607777762" lon="7.08104166913">
		<tag k="name" v="Sørvatnet" />
		<tag k="natural" v="water" />
		<tag k="ssr:stedsnr" v="739335" />
	</node>
	<node id="-71968" lat="62.6204027781" lon="7.00676110356">
		<tag k="name" v="Furlandskanalen" />
		<tag k="ssr:stedsnr" v="884890" />
		<tag k="waterway" v="drain" />
	</node>
	<node id="-71984" lat="62.5064722255" lon="7.11194444444">
		<tag k="name" v="Nedsteløken" />
		<tag k="ssr:stedsnr" v="702020" />
		<tag k="waterway" v="stream" />
	</node>
	<node id="-71581" lat="62.5000166638" lon="7.07002778422">
		<tag k="name" v="Fonngrova" />
		<tag k="ssr:stedsnr" v="277017" />
		<tag k="waterway" v="stream" />
	</node>
	<node id="-72987" lat="62.6498694432" lon="6.77847778336">
		<tag k="name" v="Skiftingselva" />
		<tag k="ssr:stedsnr" v="641985" />
		<tag k="waterway" v="stream" />
	</node>
	<node id="-72986" lat="62.5511888886" lon="7.15649167312">
		<tag k="name" v="Pederfonna" />
		<tag k="ssr:stedsnr" v="641956" />
		<tag k="waterway" v="stream" />
	</node>
	<node id="-71961" lat="62.6044722244" lon="7.09779444514">
		<tag k="name" v="Bytegrova" />
		<tag k="ssr:stedsnr" v="884744" />
		<tag k="waterway" v="stream" />
	</node>
	<node id="-71448" lat="62.6222250034" lon="7.08859999344">
>>>>>>> e1d4bc35ff8a6074a6f2e91616a996b547c36f15
		<tag k="name" v="Tjønna" />
		<tag k="natural" v="water" />
		<tag k="ssr:stedsnr" v="95554" />
	</node>
<<<<<<< HEAD
	<node lat="62.47809721975269" lon="7.158330550141042" id="-3259">
=======
	<node id="-71385" lat="62.4827083306" lon="7.06163611632">
		<tag k="name" v="Hestebotnsgrova" />
		<tag k="ssr:stedsnr" v="34114" />
		<tag k="waterway" v="stream" />
	</node>
	<node id="-71443" lat="62.4780972198" lon="7.15833055014">
>>>>>>> e1d4bc35ff8a6074a6f2e91616a996b547c36f15
		<tag k="name" v="Forsåna" />
		<tag k="ssr:stedsnr" v="95659" />
		<tag k="waterway" v="stream" />
	</node>
<<<<<<< HEAD
	<node lat="62.56053611152131" lon="7.223861102806229" id="-3276">
		<tag k="name" v="Gjerdegrova" />
		<tag k="ssr:stedsnr" v="95701" />
		<tag k="waterway" v="stream" />
	</node>
	<node lat="62.61267777380806" lon="6.86311666003641" id="-3288">
		<tag k="name" v="Elvaneset" />
		<tag k="natural" v="cape" />
		<tag k="ssr:stedsnr" v="95957" />
	</node>
	<node lat="62.60728085108804" lon="7.234091347165585" id="-3290">
		<tag k="name" v="Litleelva" />
		<tag k="ssr:stedsnr" v="97249" />
		<tag k="waterway" v="river" />
	</node>
	<node lat="62.5461027792316" lon="6.864713894088231" id="-3307">
		<tag k="alt_name" v="Svartløkvatnet" />
		<tag k="name" v="Tomrevatnet" />
		<tag k="natural" v="water" />
		<tag k="ssr:stedsnr" v="132834" />
		<tag k="water" v="lake" />
	</node>
	<node lat="62.593925000873085" lon="7.228261106947225" id="-3315">
		<tag k="name" v="Fremsteelva" />
		<tag k="ssr:stedsnr" v="133531" />
		<tag k="waterway" v="stream" />
	</node>
	<node lat="62.581166669637284" lon="7.333930560685298" id="-3321">
		<tag k="name" v="Inste Kvitåa" />
		<tag k="ssr:stedsnr" v="142640" />
		<tag k="waterway" v="stream" />
	</node>
	<node lat="62.597374995786794" lon="6.776983338960317" id="-3326">
=======
	<node id="-72977" lat="62.6155361107" lon="7.04607221511">
		<tag k="name" v="Litleelva" />
		<tag k="ssr:stedsnr" v="641878" />
		<tag k="waterway" v="stream" />
	</node>
	<node id="-72464" lat="62.5559833309" lon="6.89692221765">
		<tag k="name" v="Tomreelva" />
		<tag k="ssr:stedsnr" v="156080" />
		<tag k="waterway" v="stream" />
	</node>
	<node id="-72460" lat="62.4896527787" lon="7.1344166627">
		<tag k="name" v="Ivaskredå" />
		<tag k="ssr:stedsnr" v="156023" />
		<tag k="waterway" v="stream" />
	</node>
	<node id="-72459" lat="62.4921250039" lon="7.14277221489">
		<tag k="name" v="Liaholman" />
		<tag k="place" v="islet" />
		<tag k="ssr:stedsnr" v="156022" />
	</node>
	<node id="-72970" lat="62.5921638875" lon="7.08320834076">
		<tag k="name" v="Øygardselva" />
		<tag k="ssr:stedsnr" v="641762" />
		<tag k="waterway" v="stream" />
	</node>
	<node id="-72456" lat="62.5107916691" lon="7.11831387926">
		<tag k="name" v="Neremselva" />
		<tag k="ssr:stedsnr" v="156014" />
		<tag k="waterway" v="stream" />
	</node>
	<node id="-71943" lat="62.4941333311" lon="7.06511944849">
		<tag k="name" v="Slipsteingrova" />
		<tag k="ssr:stedsnr" v="884102" />
		<tag k="waterway" v="stream" />
	</node>
	<node id="-71940" lat="62.5490305557" lon="6.95569445404">
		<tag k="name" v="Stordalsgrova" />
		<tag k="ssr:stedsnr" v="884079" />
		<tag k="waterway" v="stream" />
	</node>
	<node id="-72451" lat="62.5973749958" lon="6.77698333896">
>>>>>>> e1d4bc35ff8a6074a6f2e91616a996b547c36f15
		<tag k="name" v="Skjerdingelva" />
		<tag k="ssr:stedsnr" v="155264" />
		<tag k="waterway" v="river" />
	</node>
<<<<<<< HEAD
	<node lat="62.55598333088975" lon="6.896922217650216" id="-3330">
		<tag k="name" v="Tomreelva" />
		<tag k="ssr:stedsnr" v="156080" />
		<tag k="waterway" v="stream" />
	</node>
	<node lat="62.51444444089392" lon="7.078116675950569" id="-3348">
		<tag k="name" v="Tverråna" />
		<tag k="ssr:stedsnr" v="156690" />
		<tag k="waterway" v="stream" />
	</node>
	<node lat="62.63898055634804" lon="7.009644446075578" id="-3356">
		<tag k="name" v="Hamarstjønna" />
		<tag k="natural" v="water" />
		<tag k="ssr:stedsnr" v="156879" />
	</node>
	<node lat="62.62020000145332" lon="7.1853083259572745" id="-3366">
		<tag k="name" v="Vinkjellaren" />
		<tag k="natural" v="spring" />
		<tag k="ssr:stedsnr" v="156726" />
	</node>
	<node lat="62.614000000866525" lon="7.20438610991722" id="-3368">
		<tag k="name" v="Løvollgrova" />
		<tag k="ssr:stedsnr" v="156733" />
		<tag k="waterway" v="stream" />
	</node>
	<node lat="62.62789999738061" lon="6.835666661558356" id="-3372">
		<tag k="name" v="Lisle Ljøsåna" />
		<tag k="ssr:stedsnr" v="156941" />
		<tag k="waterway" v="stream" />
	</node>
	<node lat="62.639525001066" lon="6.791163882089173" id="-3373">
		<tag k="name" v="Heimste Kloppegrova" />
		<tag k="ssr:stedsnr" v="156981" />
		<tag k="waterway" v="stream" />
	</node>
	<node lat="62.45956388929175" lon="7.123855557259948" id="-3384">
		<tag k="name" v="Møsvatnet" />
		<tag k="natural" v="water" />
		<tag k="ssr:stedsnr" v="193365" />
	</node>
	<node lat="62.46107222205664" lon="7.1615361131573625" id="-3385">
		<tag k="name" v="Dalsvatnet" />
		<tag k="natural" v="water" />
		<tag k="ssr:stedsnr" v="193368" />
	</node>
	<node lat="62.49088889327713" lon="7.068372219724692" id="-3391">
		<tag k="alt_name" v="Kjersemelva" />
		<tag k="name" v="Dalelva" />
		<tag k="ssr:stedsnr" v="193628" />
		<tag k="waterway" v="river" />
	</node>
	<node lat="62.554606607139604" lon="7.0422169243522665" id="-3392">
		<tag k="name" v="Sprovsvatnet" />
=======
	<node id="-71938" lat="62.563402779" lon="7.00142221832">
		<tag k="name" v="Fremstegrova" />
		<tag k="ssr:stedsnr" v="884073" />
		<tag k="waterway" v="stream" />
	</node>
	<node id="-71936" lat="62.6150833324" lon="6.77067222729">
		<tag k="name" v="Tverrelva" />
		<tag k="ssr:stedsnr" v="883536" />
		<tag k="waterway" v="stream" />
	</node>
	<node id="-71934" lat="62.6059527765" lon="6.77353055198">
		<tag k="name" v="Fossane" />
		<tag k="ssr:stedsnr" v="883343" />
		<tag k="waterway" v="river" />
	</node>
	<node id="-71930" lat="62.5318333334" lon="7.18145277429">
		<tag k="name" v="Åvatna" />
		<tag k="natural" v="water" />
		<tag k="ssr:stedsnr" v="679856" />
	</node>
	<node id="-71416" lat="62.48708056" lon="7.0277611061">
		<tag k="name" v="Storbotnsgrova" />
		<tag k="old_name" v="Storbottsgrova" />
		<tag k="ssr:stedsnr" v="253358" />
		<tag k="waterway" v="stream" />
	</node>
	<node id="-71415" lat="62.6371111069" lon="6.71204167665">
		<tag k="name" v="Øygardselva" />
		<tag k="ssr:stedsnr" v="73501" />
		<tag k="waterway" v="stream" />
	</node>
	<node id="-71721" lat="62.6118444487" lon="6.99697221724">
		<tag k="alt_name" v="Vidåna" />
		<tag k="name" v="Flateelva" />
		<tag k="ssr:stedsnr" v="496939" />
		<tag k="waterway" v="stream" />
	</node>
	<node id="-71924" lat="62.6310916626" lon="6.78054167402">
		<tag k="name" v="Gjelsteinelva" />
		<tag k="ssr:stedsnr" v="679009" />
		<tag k="waterway" v="river" />
	</node>
	<node id="-71409" lat="62.5477861087" lon="7.08516387936">
		<tag k="alt_name" v="Lislevatnet" />
		<tag k="name" v="Kjøpstadvatnet" />
>>>>>>> e1d4bc35ff8a6074a6f2e91616a996b547c36f15
		<tag k="natural" v="water" />
		<tag k="ssr:stedsnr" v="193901" />
	</node>
<<<<<<< HEAD
	<node lat="62.56246389238718" lon="7.100894434802264" id="-3396">
		<tag k="name" v="Bøelva" />
		<tag k="ssr:stedsnr" v="193931" />
		<tag k="waterway" v="stream" />
	</node>
	<node lat="62.537544445867965" lon="7.262850000192382" id="-3400">
		<tag k="name" v="Ytstetjønna" />
		<tag k="natural" v="water" />
		<tag k="ssr:stedsnr" v="194382" />
	</node>
	<node lat="62.58254722667609" lon="7.247363886268579" id="-3406">
		<tag k="name" v="Skålelva" />
		<tag k="ssr:stedsnr" v="194560" />
		<tag k="waterway" v="stream" />
	</node>
	<node lat="62.565530558763925" lon="7.054188891060447" id="-3410">
		<tag k="alt_name" v="Skorgelva;Krokåna;Krokåa" />
		<tag k="name" v="Skorgeelva" />
		<tag k="ssr:stedsnr" v="194922" />
		<tag k="waterway" v="river" />
	</node>
	<node lat="62.62353055795534" lon="7.012447221947892" id="-3412">
		<tag k="alt_name" v="Stokkelandsløken" />
		<tag k="name" v="Løken" />
		<tag k="ssr:stedsnr" v="194949" />
		<tag k="waterway" v="stream" />
	</node>
	<node lat="62.62033333281985" lon="6.747574994022623" id="-3417">
		<tag k="name" v="Juldalsvatnet" />
		<tag k="natural" v="water" />
		<tag k="ssr:stedsnr" v="216079" />
		<tag k="water" v="lake" />
	</node>
	<node lat="62.58734915403026" lon="6.779160810685528" id="-3419">
		<tag k="name" v="Bjønnagrova" />
		<tag k="ssr:stedsnr" v="216315" />
		<tag k="waterway" v="stream" />
	</node>
	<node lat="62.56275555912012" lon="7.163049998846353" id="-3426">
		<tag k="name" v="Skitnedalsgrova" />
		<tag k="ssr:stedsnr" v="217036" />
		<tag k="waterway" v="stream" />
	</node>
	<node lat="62.5630499997848" lon="7.005150009261729" id="-3430">
		<tag k="name" v="Ellingsgardelva" />
		<tag k="ssr:stedsnr" v="217066" />
		<tag k="waterway" v="stream" />
	</node>
	<node lat="62.58502500340135" lon="6.855263879427712" id="-3474">
		<tag k="name" v="Vassholane" />
		<tag k="ssr:stedsnr" v="276137" />
		<tag k="waterway" v="stream" />
	</node>
	<node lat="62.58643611005521" lon="6.889605553117602" id="-3493">
		<tag k="name" v="Tjønnin" />
=======
	<node id="-72937" lat="62.4982555531" lon="7.07606110743">
		<tag k="name" v="Fonngrova" />
		<tag k="ssr:stedsnr" v="641083" />
		<tag k="waterway" v="stream" />
	</node>
	<node id="-71912" lat="62.4669111095" lon="7.0531444435">
		<tag k="name" v="Setergrova" />
		<tag k="ssr:stedsnr" v="617377" />
		<tag k="waterway" v="stream" />
	</node>
	<node id="-71910" lat="62.4820361151" lon="7.14326666267">
		<tag k="name" v="Nonsgrova" />
		<tag k="ssr:stedsnr" v="617354" />
		<tag k="waterway" v="stream" />
	</node>
	<node id="-72931" lat="62.5298916663" lon="7.05910832397">
		<tag k="name" v="Lomstjønna" />
>>>>>>> e1d4bc35ff8a6074a6f2e91616a996b547c36f15
		<tag k="natural" v="water" />
		<tag k="ssr:stedsnr" v="277626" />
	</node>
<<<<<<< HEAD
	<node lat="62.58301389301403" lon="7.289844434788406" id="-3511">
		<tag k="name" v="Seterelva" />
		<tag k="ssr:stedsnr" v="279441" />
		<tag k="waterway" v="stream" />
	</node>
	<node lat="62.631483330196936" lon="6.822036109474623" id="-3514">
		<tag k="name" v="Storteiggrova" />
		<tag k="ssr:stedsnr" v="279671" />
		<tag k="waterway" v="stream" />
	</node>
	<node lat="62.63689999756147" lon="6.701644450887985" id="-3519">
		<tag k="name" v="Fonneelva" />
		<tag k="ssr:stedsnr" v="337284" />
		<tag k="waterway" v="stream" />
	</node>
	<node lat="62.46014999725129" lon="7.042936105378571" id="-3528">
		<tag k="alt_name" v="Heielva" />
		<tag k="name" v="Blåfjellelva" />
		<tag k="ssr:stedsnr" v="314384" />
		<tag k="waterway" v="stream" />
	</node>
	<node lat="62.60005277946902" lon="6.8028305494889585" id="-3530">
		<tag k="name" v="Botnavatnet" />
=======
	<node id="-71632" lat="62.5740546895" lon="7.11857216259">
		<tag k="name" v="Holman" />
		<tag k="place" v="islet" />
		<tag k="ssr:stedsnr" v="459543" />
	</node>
	<node id="-72414" lat="62.5605361115" lon="7.22386110281">
		<tag k="name" v="Gjerdegrova" />
		<tag k="ssr:stedsnr" v="95701" />
		<tag k="waterway" v="stream" />
	</node>
	<node id="-71901" lat="62.6136083298" lon="6.83385278688">
		<tag k="name" v="Lislegrova" />
		<tag k="ssr:stedsnr" v="580940" />
		<tag k="waterway" v="stream" />
	</node>
	<node id="-71388" lat="62.5707583354" lon="7.05890278175">
		<tag k="name" v="Hestavollelva" />
		<tag k="ssr:stedsnr" v="34762" />
		<tag k="waterway" v="stream" />
	</node>
	<node id="-71631" lat="62.4814166628" lon="7.1759305652">
		<tag k="name" v="Jogrova" />
		<tag k="ssr:stedsnr" v="459535" />
		<tag k="waterway" v="stream" />
	</node>
	<node id="-72920" lat="62.6157861111" lon="6.74843056471">
		<tag k="name" v="Lislegrøvatnet" />
>>>>>>> e1d4bc35ff8a6074a6f2e91616a996b547c36f15
		<tag k="natural" v="water" />
		<tag k="ssr:stedsnr" v="314927" />
	</node>
<<<<<<< HEAD
	<node lat="62.50221388541093" lon="7.152224994811698" id="-3534">
		<tag k="alt_name" v="Urelva" />
		<tag k="name" v="Urdelva" />
		<tag k="ssr:stedsnr" v="315848" />
		<tag k="waterway" v="stream" />
	</node>
	<node lat="62.58335833505538" lon="7.338911110649604" id="-3539">
		<tag k="name" v="Ytste Kvitåa" />
		<tag k="ssr:stedsnr" v="325639" />
		<tag k="waterway" v="stream" />
	</node>
	<node lat="62.641744444214915" lon="6.711380553172672" id="-3544">
		<tag k="name" v="Sandsvora" />
		<tag k="ssr:stedsnr" v="337337" />
		<tag k="waterway" v="stream" />
	</node>
	<node lat="62.56163333726256" lon="6.964994438372421" id="-3548">
		<tag k="name" v="Jølgrøvene" />
		<tag k="ssr:stedsnr" v="338063" />
		<tag k="waterway" v="stream" />
	</node>
	<node lat="62.5257861142001" lon="7.115633336017696" id="-3560">
		<tag k="name" v="Leitåna" />
		<tag k="ssr:stedsnr" v="338639" />
		<tag k="waterway" v="stream" />
	</node>
	<node lat="62.48744999756741" lon="7.063502787122792" id="-3564">
		<tag k="name" v="Dalgrova" />
		<tag k="ssr:stedsnr" v="338666" />
		<tag k="waterway" v="stream" />
	</node>
	<node lat="62.57254166758371" lon="6.925069442896109" id="-3570">
		<tag k="name" v="Øygardselvan" />
		<tag k="ssr:stedsnr" v="338839" />
		<tag k="waterway" v="stream" />
	</node>
	<node lat="62.64394444051206" lon="7.0148027703389095" id="-3578">
		<tag k="name" v="Barlindtjønna" />
=======
	<node id="-72228" lat="62.5630499998" lon="7.00515000926">
		<tag k="name" v="Ellingsgardelva" />
		<tag k="ssr:stedsnr" v="217066" />
		<tag k="waterway" v="stream" />
	</node>
	<node id="-72916" lat="62.5236666642" lon="7.19014999203">
		<tag k="name" v="Trollvatnet" />
		<tag k="natural" v="water" />
		<tag k="ssr:stedsnr" v="618846" />
	</node>
	<node id="-72915" lat="62.5146499994" lon="7.13070834006">
		<tag k="alt_name" v="Vollselva;Tressåna;Storelva" />
		<tag k="name" v="Tressa" />
		<tag k="ssr:stedsnr" v="618844" />
		<tag k="waterway" v="stream" />
	</node>
	<node id="-72914" lat="62.519702777" lon="7.09137777376">
		<tag k="name" v="Sjøelva" />
		<tag k="ssr:stedsnr" v="618843" />
		<tag k="waterway" v="stream" />
	</node>
	<node id="-71817" lat="62.5404694473" lon="7.07578610344">
		<tag k="name" v="Jølgrøvene" />
		<tag k="ssr:stedsnr" v="702050" />
		<tag k="waterway" v="stream" />
	</node>
	<node id="-71372" lat="62.5508500029" lon="7.1871000089">
		<tag k="name" v="Liafossen" />
		<tag k="natural" v="waterfall" />
		<tag k="ssr:stedsnr" v="11921" />
	</node>
	<node id="-72907" lat="62.5598611125" lon="7.00364166493">
		<tag k="name" v="Krokåna" />
		<tag k="ssr:stedsnr" v="618918" />
		<tag k="waterway" v="stream" />
	</node>
	<node id="-72905" lat="62.6288444417" lon="7.01172222735">
		<tag k="name" v="Søråsvatnet" />
>>>>>>> e1d4bc35ff8a6074a6f2e91616a996b547c36f15
		<tag k="natural" v="water" />
		<tag k="ssr:stedsnr" v="338866" />
	</node>
<<<<<<< HEAD
	<node lat="62.6111277748828" lon="6.818469449414372" id="-3582">
		<tag k="name" v="Trollelva" />
		<tag k="ssr:stedsnr" v="338918" />
		<tag k="waterway" v="stream" />
	</node>
	<node lat="62.557158332669175" lon="7.154819439084518" id="-3587">
		<tag k="name" v="Storhølen" />
		<tag k="place" v="locality" />
		<tag k="ssr:stedsnr" v="338972" />
	</node>
	<node lat="62.61130555751108" lon="7.042733329359056" id="-3597">
		<tag k="name" v="Misfjordelva" />
		<tag k="ssr:stedsnr" v="375931" />
		<tag k="waterway" v="stream" />
	</node>
	<node lat="62.600927780420015" lon="6.768025002458454" id="-3598">
		<tag k="name" v="Forsevatnet" />
=======
	<node id="-72925" lat="62.5135444415" lon="7.13683889702">
		<tag k="name" v="Steinhaughølen" />
		<tag k="place" v="locality" />
		<tag k="ssr:stedsnr" v="641006" />
	</node>
	<node id="-72902" lat="62.48276667" lon="7.10864165864">
		<tag k="alt_name" v="Hardølå" />
		<tag k="name" v="Hardøla" />
		<tag k="ssr:stedsnr" v="617350" />
		<tag k="waterway" v="river" />
	</node>
	<node id="-72900" lat="62.4547361089" lon="7.09893611122">
		<tag k="name" v="Midtvatnet" />
>>>>>>> e1d4bc35ff8a6074a6f2e91616a996b547c36f15
		<tag k="natural" v="water" />
		<tag k="ssr:stedsnr" v="375933" />
		<tag k="water" v="lake" />
	</node>
<<<<<<< HEAD
	<node lat="62.57931111170328" lon="7.30291945224895" id="-3605">
		<tag k="name" v="Reistadelva" />
		<tag k="ssr:stedsnr" v="375549" />
		<tag k="waterway" v="stream" />
	</node>
	<node lat="62.5436722205493" lon="6.918052772048599" id="-3610">
		<tag k="name" v="Småtjønna" />
=======
	<node id="-71874" lat="62.5531305554" lon="6.9684666614">
		<tag k="name" v="Sandgrova" />
		<tag k="ssr:stedsnr" v="580064" />
		<tag k="waterway" v="stream" />
	</node>
	<node id="-72139" lat="62.5490694444" lon="6.86506945006">
		<tag k="name" v="Jostølneset" />
		<tag k="natural" v="cape" />
		<tag k="ssr:stedsnr" v="945146" />
	</node>
	<node id="-71871" lat="62.6019000005" lon="6.76755278746">
		<tag k="name" v="Fossevatnet" />
>>>>>>> e1d4bc35ff8a6074a6f2e91616a996b547c36f15
		<tag k="natural" v="water" />
		<tag k="ssr:stedsnr" v="375816" />
	</node>
<<<<<<< HEAD
	<node lat="62.55847777447063" lon="6.946591674161402" id="-3618">
		<tag k="loc_name" v="Skaklutvatnet;Litlevatnet" />
		<tag k="name" v="Dalvatnet" />
		<tag k="natural" v="water" />
		<tag k="ssr:stedsnr" v="376945" />
	</node>
	<node lat="62.47250555251963" lon="7.106605562454563" id="-3631">
		<tag k="name" v="Jølgrøvene" />
		<tag k="ssr:stedsnr" v="398112" />
		<tag k="waterway" v="stream" />
	</node>
	<node lat="62.55723332941107" lon="7.040975006631065" id="-3636">
		<tag k="name" v="Sprovsfossen" />
		<tag k="natural" v="waterfall" />
		<tag k="ssr:stedsnr" v="398063" />
	</node>
	<node lat="62.556213887707926" lon="6.973611118928467" id="-3637">
		<tag k="name" v="Haraldsgrova" />
		<tag k="ssr:stedsnr" v="398066" />
		<tag k="waterway" v="stream" />
	</node>
	<node lat="62.60559999627005" lon="7.0704666673482155" id="-3663">
		<tag k="name" v="Hattegrova" />
		<tag k="ssr:stedsnr" v="398813" />
		<tag k="waterway" v="stream" />
	</node>
	<node lat="62.61856666924599" lon="7.168747226583591" id="-3664">
		<tag k="name" v="Jønnvikgrova" />
		<tag k="ssr:stedsnr" v="398817" />
		<tag k="waterway" v="stream" />
	</node>
	<node lat="62.63935833662608" lon="6.980830547831395" id="-3668">
		<tag k="name" v="Øveråstjønnan" />
		<tag k="natural" v="water" />
		<tag k="ssr:stedsnr" v="398922" />
	</node>
	<node lat="62.64845833372092" lon="6.97889999091385" id="-3669">
		<tag k="name" v="Lervågelva" />
		<tag k="ssr:stedsnr" v="398923" />
		<tag k="waterway" v="stream" />
	</node>
	<node lat="62.60343888929406" lon="7.289986105949235" id="-3682">
		<tag k="name" v="Stampegrova" />
		<tag k="ssr:stedsnr" v="400766" />
		<tag k="waterway" v="stream" />
	</node>
	<node lat="62.47018055943539" lon="7.182450003221265" id="-3687">
		<tag k="name" v="Myrelva" />
		<tag k="ssr:stedsnr" v="436317" />
		<tag k="waterway" v="stream" />
	</node>
	<node lat="62.539252780410756" lon="7.110091660409195" id="-3690">
		<tag k="name" v="Løvikelva" />
		<tag k="ssr:stedsnr" v="436816" />
		<tag k="waterway" v="stream" />
	</node>
	<node lat="62.599638890125014" lon="6.852547223017337" id="-3691">
		<tag k="name" v="Svartelva" />
		<tag k="ssr:stedsnr" v="436937" />
		<tag k="waterway" v="stream" />
	</node>
	<node lat="62.59094722665241" lon="7.182144448614275" id="-3693">
		<tag k="name" v="Risurtjønna" />
		<tag k="place" v="locality" />
		<tag k="ssr:stedsnr" v="436890" />
	</node>
	<node lat="62.52295277486982" lon="7.021619447475425" id="-3701">
		<tag k="name" v="Krokåna" />
		<tag k="ssr:stedsnr" v="437297" />
		<tag k="waterway" v="stream" />
	</node>
	<node lat="62.5595111069107" lon="6.956308336111251" id="-3703">
		<tag k="alt_name" v="Daleelva" />
		<tag k="name" v="Kvernaelva" />
		<tag k="ssr:stedsnr" v="437895" />
		<tag k="waterway" v="stream" />
	</node>
	<node lat="62.6118444486744" lon="6.9969722172365065" id="-3715">
		<tag k="alt_name" v="Vidåna" />
		<tag k="name" v="Flateelva" />
		<tag k="ssr:stedsnr" v="496939" />
		<tag k="waterway" v="stream" />
	</node>
	<node lat="62.583274997717176" lon="6.828472212684845" id="-3725">
		<tag k="alt_name" v="Mælskarvatnet" />
		<tag k="name" v="Melskarsvatnet" />
		<tag k="natural" v="water" />
		<tag k="ssr:stedsnr" v="497975" />
	</node>
	<node lat="62.62735277512176" lon="6.797802776192957" id="-3726">
		<tag k="name" v="Dalegrova" />
		<tag k="ssr:stedsnr" v="519089" />
		<tag k="waterway" v="stream" />
	</node>
	<node lat="62.57430277371461" lon="7.31953055169292" id="-3778">
		<tag k="name" v="Lomtjønna" />
		<tag k="natural" v="water" />
		<tag k="ssr:stedsnr" v="557474" />
	</node>
	<node lat="62.51758889083648" lon="7.230249996001495" id="-3781">
		<tag k="alt_name" v="Instebottsvatnet" />
		<tag k="name" v="Instebotnvatnet" />
		<tag k="natural" v="water" />
		<tag k="ssr:stedsnr" v="557395" />
		<tag k="water" v="lake" />
	</node>
	<node lat="62.56014722430457" lon="7.03960000388684" id="-3786">
		<tag k="alt_name" v="Sprovselva" />
		<tag k="name" v="Tverrelva" />
		<tag k="ssr:stedsnr" v="557919" />
		<tag k="waterway" v="stream" />
	</node>
	<node lat="62.64732499733145" lon="6.73584165806678" id="-3792">
=======
	<node id="-71870" lat="62.5724333331" lon="6.80085000669">
		<tag k="name" v="Storelva" />
		<tag k="ssr:stedsnr" v="579108" />
		<tag k="waterway" v="river" />
	</node>
	<node id="-71541" lat="62.587349154" lon="6.77916081069">
		<tag k="name" v="Bjønnagrova" />
		<tag k="ssr:stedsnr" v="216315" />
		<tag k="waterway" v="stream" />
	</node>
	<node id="-71868" lat="62.5121472185" lon="6.98943612009">
		<tag k="name" v="Fossåna" />
		<tag k="ssr:stedsnr" v="572116" />
		<tag k="waterway" v="river" />
	</node>
	<node id="-72650" lat="62.5436722205" lon="6.91805277205">
		<tag k="name" v="Småtjønna" />
		<tag k="natural" v="water" />
		<tag k="ssr:stedsnr" v="375816" />
	</node>
	<node id="-72055" lat="62.6447873171" lon="6.97611585051">
		<tag k="alt_name" v="Lauga" />
		<tag k="name" v="Lauva" />
		<tag k="natural" v="water" />
		<tag k="ssr:stedsnr" v="922005" />
	</node>
	<node id="-72886" lat="62.6382833366" lon="6.79030000155">
		<tag k="name" v="Fremste Kloppegrova" />
		<tag k="ssr:stedsnr" v="580992" />
		<tag k="waterway" v="stream" />
	</node>
	<node id="-72372" lat="62.618047221" lon="6.77206945073">
		<tag k="name" v="Elvasvingane" />
		<tag k="place" v="locality" />
		<tag k="ssr:stedsnr" v="94508" />
	</node>
	<node id="-72883" lat="62.6389083289" lon="6.75698055486">
		<tag k="name" v="Kjerringgrova" />
		<tag k="ssr:stedsnr" v="580972" />
		<tag k="waterway" v="stream" />
	</node>
	<node id="-72368" lat="62.5695222261" lon="6.85807777551">
		<tag k="name" v="Tverrlielva" />
		<tag k="ssr:stedsnr" v="94129" />
		<tag k="waterway" v="stream" />
	</node>
	<node id="-72878" lat="62.6155277771" lon="6.96374444103">
		<tag k="name" v="Litlvidåna" />
		<tag k="ssr:stedsnr" v="580893" />
		<tag k="waterway" v="stream" />
	</node>
	<node id="-71853" lat="62.5595638877" lon="7.19208610443">
		<tag k="name" v="Gamlesetertunga" />
		<tag k="natural" v="cape" />
		<tag k="ssr:stedsnr" v="702726" />
	</node>
	<node id="-72391" lat="62.5753499971" lon="7.17399723089">
		<tag k="name" v="Saugrova" />
		<tag k="ssr:stedsnr" v="95497" />
		<tag k="waterway" v="stream" />
	</node>
	<node id="-71848" lat="62.4744611115" lon="7.19308054827">
		<tag k="name" v="Litleligrova" />
		<tag k="ssr:stedsnr" v="702706" />
		<tag k="waterway" v="stream" />
	</node>
	<node id="-72871" lat="62.5440499976" lon="7.1963527753">
		<tag k="name" v="Hoemselva" />
		<tag k="ssr:stedsnr" v="580756" />
		<tag k="waterway" v="river" />
	</node>
	<node id="-72870" lat="62.5767083296" lon="7.16457777966">
		<tag k="name" v="Lang-gjerdsgrova" />
		<tag k="ssr:stedsnr" v="580745" />
		<tag k="waterway" v="stream" />
	</node>
	<node id="-72868" lat="62.5649611153" lon="7.17788888419">
		<tag k="name" v="Bugjerdsgrova" />
		<tag k="ssr:stedsnr" v="580737" />
		<tag k="waterway" v="stream" />
	</node>
	<node id="-72355" lat="62.5711027751" lon="7.17235833563">
		<tag k="name" v="Grevgrova" />
		<tag k="ssr:stedsnr" v="72870" />
		<tag k="waterway" v="stream" />
	</node>
	<node id="-71842" lat="62.5548111141" lon="6.87986111044">
		<tag k="name" v="Sagelva" />
		<tag k="ssr:stedsnr" v="702679" />
		<tag k="waterway" v="stream" />
	</node>
	<node id="-71451" lat="62.6222472181" lon="7.1801166602">
		<tag k="name" v="Hellevadgrova" />
		<tag k="ssr:stedsnr" v="95714" />
		<tag k="waterway" v="stream" />
	</node>
	<node id="-72350" lat="62.5632944473" lon="6.85586945076">
		<tag k="alt_name" v="Frostadvatnet" />
		<tag k="name" v="Litlevatnet" />
		<tag k="natural" v="water" />
		<tag k="ssr:stedsnr" v="72919" />
	</node>
	<node id="-72860" lat="62.6053444417" lon="6.83295277071">
		<tag k="name" v="Renglå" />
		<tag k="ssr:stedsnr" v="580613" />
		<tag k="waterway" v="stream" />
	</node>
	<node id="-72347" lat="62.4937805569" lon="7.14046110574">
		<tag k="alt_name" v="Rypdalselva" />
		<tag k="name" v="Dalselva" />
		<tag k="ssr:stedsnr" v="72608" />
		<tag k="waterway" v="river" />
	</node>
	<node id="-72856" lat="62.6273972202" lon="7.00886666543">
		<tag k="name" v="Teppå" />
		<tag k="natural" v="bay" />
		<tag k="ssr:stedsnr" v="580567" />
	</node>
	<node id="-72329" lat="62.6456944453" lon="6.92767222397">
		<tag k="name" v="Hjellgrova" />
		<tag k="ssr:stedsnr" v="34920" />
		<tag k="waterway" v="stream" />
	</node>
	<node id="-72852" lat="62.6473249973" lon="6.73584165807">
>>>>>>> e1d4bc35ff8a6074a6f2e91616a996b547c36f15
		<tag k="name" v="Rekdalselva" />
		<tag k="ssr:stedsnr" v="579361" />
		<tag k="waterway" v="river" />
	</node>
<<<<<<< HEAD
	<node lat="62.55313055535976" lon="6.968466661396059" id="-3794">
		<tag k="name" v="Sandgrova" />
		<tag k="ssr:stedsnr" v="580064" />
		<tag k="waterway" v="stream" />
	</node>
	<node lat="62.62739722022992" lon="7.008866665426699" id="-3806">
		<tag k="name" v="Teppå" />
		<tag k="natural" v="bay" />
		<tag k="ssr:stedsnr" v="580567" />
	</node>
	<node lat="62.564961115259855" lon="7.177888884194552" id="-3813">
		<tag k="name" v="Bugjerdsgrova" />
		<tag k="ssr:stedsnr" v="580737" />
		<tag k="waterway" v="stream" />
	</node>
	<node lat="62.63890832887463" lon="6.756980554862301" id="-3839">
		<tag k="name" v="Kjerringgrova" />
		<tag k="ssr:stedsnr" v="580972" />
		<tag k="waterway" v="stream" />
	</node>
	<node lat="62.482766669993616" lon="7.108641658638296" id="-3854">
		<tag k="alt_name" v="Hardølå" />
		<tag k="name" v="Hardøla" />
		<tag k="ssr:stedsnr" v="617350" />
		<tag k="waterway" v="river" />
	</node>
	<node lat="62.48203611510261" lon="7.143266662668744" id="-3855">
		<tag k="name" v="Nonsgrova" />
		<tag k="ssr:stedsnr" v="617354" />
		<tag k="waterway" v="stream" />
	</node>
	<node lat="62.466911109515344" lon="7.053144443495445" id="-3857">
		<tag k="name" v="Setergrova" />
		<tag k="ssr:stedsnr" v="617377" />
		<tag k="waterway" v="stream" />
	</node>
	<node lat="62.6288444416858" lon="7.011722227348316" id="-3863">
		<tag k="name" v="Søråsvatnet" />
=======
	<node id="-71440" lat="62.5471361101" lon="7.15673056051">
		<tag k="name" v="Tuefonna" />
		<tag k="ssr:stedsnr" v="95616" />
		<tag k="waterway" v="stream" />
	</node>
	<node id="-72850" lat="62.5946388907" lon="7.00436666493">
		<tag k="name" v="Reselva" />
		<tag k="ssr:stedsnr" v="557995" />
		<tag k="waterway" v="stream" />
	</node>
	<node id="-72848" lat="62.5601472243" lon="7.03960000389">
		<tag k="alt_name" v="Sprovselva" />
		<tag k="name" v="Tverrelva" />
		<tag k="ssr:stedsnr" v="557919" />
		<tag k="waterway" v="stream" />
	</node>
	<node id="-72334" lat="62.6010722183" lon="6.80651944356">
		<tag k="name" v="Botnagrova" />
		<tag k="ssr:stedsnr" v="34962" />
		<tag k="waterway" v="stream" />
	</node>
	<node id="-72045" lat="62.5815027793" lon="6.95039722124">
		<tag k="name" v="Langsteinselva" />
		<tag k="ssr:stedsnr" v="922899" />
		<tag k="waterway" v="stream" />
	</node>
	<node id="-72841" lat="62.5175888908" lon="7.230249996">
		<tag k="alt_name" v="Instebottsvatnet" />
		<tag k="name" v="Instebotnvatnet" />
		<tag k="natural" v="water" />
		<tag k="ssr:stedsnr" v="557395" />
		<tag k="water" v="lake" />
	</node>
	<node id="-72327" lat="62.5719666654" lon="6.90067778136">
		<tag k="name" v="Rengleelva" />
		<tag k="ssr:stedsnr" v="34903" />
		<tag k="waterway" v="stream" />
	</node>
	<node id="-72323" lat="62.641074999" lon="7.03909445041">
		<tag k="name" v="Litlevatnet" />
>>>>>>> e1d4bc35ff8a6074a6f2e91616a996b547c36f15
		<tag k="natural" v="water" />
		<tag k="ssr:stedsnr" v="618025" />
	</node>
<<<<<<< HEAD
	<node lat="62.559861112534016" lon="7.003641664933457" id="-3870">
		<tag k="name" v="Krokåna" />
		<tag k="ssr:stedsnr" v="618918" />
		<tag k="waterway" v="stream" />
	</node>
	<node lat="62.51970277700181" lon="7.091377773762892" id="-3871">
		<tag k="name" v="Sjøelva" />
		<tag k="ssr:stedsnr" v="618843" />
		<tag k="waterway" v="stream" />
	</node>
	<node lat="62.51464999944454" lon="7.130708340064495" id="-3872">
		<tag k="alt_name" v="Vollselva;Tressåna;Storelva" />
		<tag k="name" v="Tressa" />
		<tag k="ssr:stedsnr" v="618844" />
		<tag k="waterway" v="stream" />
	</node>
	<node lat="62.523666664157545" lon="7.190149992030382" id="-3873">
		<tag k="name" v="Trollvatnet" />
		<tag k="natural" v="water" />
		<tag k="ssr:stedsnr" v="618846" />
	</node>
	<node lat="62.615786111061944" lon="6.748430564706517" id="-3881">
		<tag k="name" v="Lislegrøvatnet" />
		<tag k="natural" v="water" />
		<tag k="ssr:stedsnr" v="632284" />
		<tag k="water" v="lake" />
	</node>
	<node lat="62.52989166629241" lon="7.0591083239657735" id="-3889">
		<tag k="name" v="Lomstjønna" />
		<tag k="natural" v="water" />
		<tag k="ssr:stedsnr" v="641039" />
	</node>
	<node lat="62.49825555308509" lon="7.076061107434381" id="-3895">
		<tag k="name" v="Fonngrova" />
		<tag k="ssr:stedsnr" v="641083" />
		<tag k="waterway" v="stream" />
	</node>
	<node lat="62.59216388748949" lon="7.083208340763982" id="-3918">
		<tag k="name" v="Øygardselva" />
		<tag k="ssr:stedsnr" v="641762" />
		<tag k="waterway" v="stream" />
	</node>
	<node lat="62.5511888885949" lon="7.156491673117284" id="-3930">
		<tag k="name" v="Pederfonna" />
		<tag k="ssr:stedsnr" v="641956" />
		<tag k="waterway" v="stream" />
	</node>
	<node lat="62.460777776230834" lon="7.081041669131242" id="-3944">
		<tag k="name" v="Sørvatnet" />
		<tag k="natural" v="water" />
		<tag k="ssr:stedsnr" v="739335" />
	</node>
	<node lat="62.55573332905" lon="7.074205551752896" id="-3947">
		<tag k="alt_name" v="Lomtjønna" />
		<tag k="name" v="Lomstjønna" />
		<tag k="natural" v="water" />
		<tag k="ssr:stedsnr" v="739887" />
	</node>
	<node lat="62.58239166982991" lon="6.858719443051961" id="-3954">
		<tag k="name" v="Oterskarvatnet" />
		<tag k="natural" v="water" />
		<tag k="ssr:stedsnr" v="739971" />
	</node>
	<node lat="62.586766668630965" lon="6.949255552990496" id="-3955">
		<tag k="name" v="Løvollselva" />
		<tag k="ssr:stedsnr" v="739974" />
		<tag k="waterway" v="stream" />
	</node>
	<node lat="62.53166388978245" lon="7.206749998095769" id="-3958">
		<tag k="name" v="Urvatnet" />
=======
	<node id="-71985" lat="62.5093194461" lon="7.11150000405">
		<tag k="name" v="Øvsteløken" />
		<tag k="ssr:stedsnr" v="702022" />
		<tag k="waterway" v="stream" />
	</node>
	<node id="-71807" lat="62.5350805555" lon="7.27252222182">
		<tag k="name" v="Midttjønna" />
		<tag k="natural" v="water" />
		<tag k="ssr:stedsnr" v="557411" />
	</node>
	<node id="-72317" lat="62.6080638898" lon="7.08790000298">
		<tag k="name" v="Remmemselva" />
		<tag k="ssr:stedsnr" v="34783" />
		<tag k="waterway" v="stream" />
	</node>
	<node id="-72311" lat="62.5517277751" lon="7.08678888666">
		<tag k="name" v="Teppå" />
		<tag k="natural" v="bay" />
		<tag k="ssr:stedsnr" v="34658" />
	</node>
	<node id="-72138" lat="62.5495472266" lon="6.86322777374">
		<tag k="name" v="Jostølbukta" />
		<tag k="natural" v="bay" />
		<tag k="ssr:stedsnr" v="945145" />
	</node>
	<node id="-72308" lat="62.6489055567" lon="6.93030278518">
		<tag k="name" v="Sjøgrova" />
		<tag k="ssr:stedsnr" v="34610" />
		<tag k="waterway" v="stream" />
	</node>
	<node id="-72126" lat="62.5770442123" lon="6.9811876501">
		<tag k="alt_name" v="Trollvatnet, øvste" />
		<tag k="name" v="Øvste Trollvatnet" />
		<tag k="natural" v="water" />
		<tag k="ssr:stedsnr" v="861907" />
	</node>
	<node id="-72455" lat="62.5882777779" lon="6.79731666732">
		<tag k="name" v="Løken" />
		<tag k="ssr:stedsnr" v="155335" />
		<tag k="waterway" v="river" />
	</node>
	<node id="-71783" lat="62.5874888875" lon="7.08895833651">
		<tag k="name" v="Brastadelva" />
		<tag k="ssr:stedsnr" v="679984" />
		<tag k="waterway" v="stream" />
	</node>
	<node id="-72806" lat="62.5812861097" lon="7.1499416624">
		<tag k="name" v="Kvennagrova" />
		<tag k="ssr:stedsnr" v="520767" />
		<tag k="waterway" v="stream" />
	</node>
	<node id="-71781" lat="62.5583722265" lon="7.18563054563">
		<tag k="name" v="Gilselva" />
		<tag k="old_name" v="Gilsøyelva;Gjeilselva" />
		<tag k="ssr:stedsnr" v="679911" />
		<tag k="waterway" v="stream" />
	</node>
	<node id="-71780" lat="62.5822833328" lon="7.03091666622">
		<tag k="alt_name" v="Remmesvatnet" />
		<tag k="name" v="Remmemsvatnet" />
>>>>>>> e1d4bc35ff8a6074a6f2e91616a996b547c36f15
		<tag k="natural" v="water" />
		<tag k="ssr:stedsnr" v="740848" />
	</node>
<<<<<<< HEAD
	<node lat="62.64455555618987" lon="7.083413897076524" id="-3983">
		<tag k="name" v="Grova" />
		<tag k="ssr:stedsnr" v="762589" />
		<tag k="waterway" v="stream" />
	</node>
	<node lat="62.467338887008715" lon="7.108733331088817" id="-3996">
		<tag k="name" v="Midtelva" />
		<tag k="ssr:stedsnr" v="763716" />
		<tag k="waterway" v="river" />
	</node>
	<node lat="62.60649999880266" lon="7.161363892167502" id="-4004">
		<tag k="name" v="Liafossen" />
		<tag k="natural" v="waterfall" />
		<tag k="ssr:stedsnr" v="763825" />
	</node>
	<node lat="62.580252774084855" lon="7.090555556631585" id="-4012">
		<tag k="name" v="Rørdalsgrova" />
		<tag k="ssr:stedsnr" v="763775" />
		<tag k="waterway" v="stream" />
	</node>
	<node lat="62.565425002326734" lon="7.385302785340956" id="-4017">
		<tag k="name" v="Stolselva" />
		<tag k="ssr:stedsnr" v="764577" />
		<tag k="waterway" v="stream" />
	</node>
	<node lat="62.49175000096412" lon="7.177894434918465" id="-4025">
		<tag k="name" v="Reitegrova" />
		<tag k="ssr:stedsnr" v="799330" />
		<tag k="waterway" v="stream" />
	</node>
	<node lat="62.5675305568161" lon="6.739347228221079" id="-4033">
		<tag k="name" v="Storelva" />
		<tag k="ssr:stedsnr" v="801260" />
		<tag k="waterway" v="stream" />
	</node>
	<node lat="62.502941668249846" lon="7.087633334404127" id="-4039">
		<tag k="name" v="Fella" />
		<tag k="ssr:stedsnr" v="801828" />
		<tag k="waterway" v="stream" />
	</node>
	<node lat="62.48752499907785" lon="7.184894442136837" id="-4074">
		<tag k="name" v="Breioddane" />
=======
	<node id="-72873" lat="62.5056194401" lon="7.16199444184">
		<tag k="name" v="Trohølen" />
		<tag k="place" v="locality" />
		<tag k="ssr:stedsnr" v="580644" />
	</node>
	<node id="-71532" lat="62.6314833302" lon="6.82203610947">
		<tag k="name" v="Storteiggrova" />
		<tag k="ssr:stedsnr" v="279671" />
		<tag k="waterway" v="stream" />
	</node>
	<node id="-72976" lat="62.6081083337" lon="7.04331945021">
		<tag k="name" v="Misfjordfossen" />
		<tag k="natural" v="waterfall" />
		<tag k="ssr:stedsnr" v="641876" />
	</node>
	<node id="-71610" lat="62.5771388861" lon="7.08854721939">
		<tag k="name" v="Skavassgrova" />
		<tag k="ssr:stedsnr" v="277813" />
		<tag k="waterway" v="stream" />
	</node>
	<node id="-71770" lat="62.6273527751" lon="6.79780277619">
		<tag k="name" v="Dalegrova" />
		<tag k="ssr:stedsnr" v="519089" />
		<tag k="waterway" v="stream" />
	</node>
	<node id="-72279" lat="62.5494833316" lon="7.04577221753">
		<tag k="name" v="Øvste Sprovsvatnet" />
		<tag k="natural" v="water" />
		<tag k="ssr:stedsnr" v="34059" />
		<tag k="water" v="lake" />
	</node>
	<node id="-71766" lat="62.5909472267" lon="7.18214444861">
		<tag k="name" v="Risurtjønna" />
		<tag k="place" v="locality" />
		<tag k="ssr:stedsnr" v="436890" />
	</node>
	<node id="-71763" lat="62.5996388901" lon="6.85254722302">
		<tag k="name" v="Svartelva" />
		<tag k="ssr:stedsnr" v="436937" />
		<tag k="waterway" v="stream" />
	</node>
	<node id="-71761" lat="62.6339361144" lon="6.81633889811">
		<tag k="alt_name" v="Dalegrova" />
		<tag k="name" v="Dalgrova" />
		<tag k="ssr:stedsnr" v="436008" />
		<tag k="waterway" v="stream" />
	</node>
	<node id="-72272" lat="62.5178694455" lon="7.0816333338">
		<tag k="name" v="Tverråtunga" />
>>>>>>> e1d4bc35ff8a6074a6f2e91616a996b547c36f15
		<tag k="natural" v="cape" />
		<tag k="ssr:stedsnr" v="824789" />
	</node>
<<<<<<< HEAD
	<node lat="62.54783889123551" lon="7.162566669420599" id="-4077">
		<tag k="name" v="Klengretefonna" />
		<tag k="ssr:stedsnr" v="823958" />
		<tag k="waterway" v="stream" />
	</node>
	<node lat="62.54912500296172" lon="6.872836110982216" id="-4089">
		<tag k="name" v="Tomreosen" />
		<tag k="natural" v="bay" />
		<tag k="ssr:stedsnr" v="824193" />
	</node>
	<node lat="62.594350003842884" lon="7.242141669147958" id="-4107">
		<tag k="name" v="Midtgrova" />
		<tag k="ssr:stedsnr" v="825141" />
		<tag k="waterway" v="stream" />
	</node>
	<node lat="62.474961113867174" lon="7.156141657586546" id="-4120">
		<tag k="name" v="Fossåna" />
		<tag k="old_name" v="Fossåa" />
		<tag k="ssr:stedsnr" v="860411" />
		<tag k="waterway" v="stream" />
	</node>
	<node lat="62.57553889020952" lon="6.898244435474752" id="-4122">
		<tag k="alt_name" v="Frostadelva" />
		<tag k="name" v="Storelva" />
		<tag k="ssr:stedsnr" v="861246" />
		<tag k="waterway" v="stream" />
	</node>
	<node lat="62.510252774598555" lon="7.086405556557054" id="-4128">
		<tag k="alt_name" v="Kvennagrova" />
		<tag k="name" v="Nylegrova" />
		<tag k="ssr:stedsnr" v="861853" />
		<tag k="waterway" v="stream" />
	</node>
	<node lat="62.57386111098748" lon="7.175302773393178" id="-4135">
		<tag k="name" v="Villaelva" />
		<tag k="ssr:stedsnr" v="861887" />
		<tag k="waterway" v="stream" />
	</node>
	<node lat="62.6204027781439" lon="7.006761103562934" id="-4145">
		<tag k="name" v="Furlandskanalen" />
		<tag k="ssr:stedsnr" v="884890" />
		<tag k="waterway" v="drain" />
	</node>
	<node lat="62.605952776527005" lon="6.773530551978931" id="-4150">
		<tag k="name" v="Fossane" />
		<tag k="ssr:stedsnr" v="883343" />
		<tag k="waterway" v="river" />
	</node>
	<node lat="62.61508333235539" lon="6.770672227285849" id="-4152">
		<tag k="name" v="Tverrelva" />
		<tag k="ssr:stedsnr" v="883536" />
		<tag k="waterway" v="stream" />
	</node>
	<node lat="62.56340277897622" lon="7.001422218321012" id="-4156">
		<tag k="name" v="Fremstegrova" />
		<tag k="ssr:stedsnr" v="884073" />
		<tag k="waterway" v="stream" />
	</node>
	<node lat="62.54903055570613" lon="6.95569445404498" id="-4158">
		<tag k="name" v="Stordalsgrova" />
		<tag k="ssr:stedsnr" v="884079" />
		<tag k="waterway" v="stream" />
	</node>
	<node lat="62.549180557020904" lon="7.122027776548122" id="-4163">
		<tag k="name" v="Stordalsgrova" />
		<tag k="ssr:stedsnr" v="884038" />
		<tag k="waterway" v="stream" />
	</node>
	<node lat="62.56550277498352" lon="7.086980550761816" id="-4180">
		<tag k="name" v="Heimstegjølet" />
		<tag k="ssr:stedsnr" v="884766" />
		<tag k="waterway" v="stream" />
	</node>
	<node lat="62.6044722243741" lon="7.097794445142211" id="-4185">
		<tag k="name" v="Bytegrova" />
		<tag k="ssr:stedsnr" v="884744" />
		<tag k="waterway" v="stream" />
	</node>
	<node lat="62.594822225303915" lon="7.238541661369735" id="-4190">
		<tag k="name" v="Bygningselva" />
		<tag k="ssr:stedsnr" v="886227" />
		<tag k="waterway" v="stream" />
	</node>
	<node lat="62.60738333087041" lon="7.237275003807012" id="-4191">
		<tag k="name" v="Storelva" />
		<tag k="ssr:stedsnr" v="886240" />
		<tag k="waterway" v="river" />
	</node>
	<node lat="62.59431111201199" lon="7.294449994365529" id="-4193">
		<tag k="name" v="Holman" />
		<tag k="place" v="islet" />
		<tag k="ssr:stedsnr" v="886780" />
	</node>
	<node lat="62.549547226626636" lon="6.863227773741455" id="-4201">
		<tag k="name" v="Jostølbukta" />
		<tag k="natural" v="bay" />
		<tag k="ssr:stedsnr" v="945145" />
	</node>
	<node lat="62.54906944444689" lon="6.865069450059881" id="-4202">
		<tag k="name" v="Jostølneset" />
		<tag k="natural" v="cape" />
		<tag k="ssr:stedsnr" v="945146" />
	</node>
	<node lat="62.648722217970914" lon="7.029197227453881" id="-4219">
		<tag k="name" v="Fakseteppa" />
=======
	<node id="-72270" lat="62.503508331" lon="7.0965972233">
		<tag k="name" v="Nylegrova" />
		<tag k="ssr:stedsnr" v="34021" />
		<tag k="waterway" v="stream" />
	</node>
	<node id="-72269" lat="62.503113885" lon="7.0924305638">
		<tag k="name" v="Setergrova" />
		<tag k="ssr:stedsnr" v="34020" />
		<tag k="waterway" v="stream" />
	</node>
	<node id="-71756" lat="62.5109194441" lon="7.15504443988">
		<tag k="name" v="Førnakkgrova" />
		<tag k="ssr:stedsnr" v="398004" />
		<tag k="waterway" v="stream" />
	</node>
	<node id="-71752" lat="62.4725055525" lon="7.10660556245">
		<tag k="name" v="Jølgrøvene" />
		<tag k="ssr:stedsnr" v="398112" />
		<tag k="waterway" v="stream" />
	</node>
	<node id="-71750" lat="62.4972916698" lon="7.10221110478">
		<tag k="name" v="Tjukkrøstgrova" />
		<tag k="ssr:stedsnr" v="398104" />
		<tag k="waterway" v="stream" />
	</node>
	<node id="-71749" lat="62.4835638844" lon="7.0989166581">
		<tag k="name" v="Nyfonngrova" />
		<tag k="ssr:stedsnr" v="398103" />
		<tag k="waterway" v="stream" />
	</node>
	<node id="-72203" lat="62.553266522" lon="7.04696742079">
		<tag k="name" v="Nedste Sprovsvatnet" />
		<tag k="natural" v="water" />
		<tag k="ssr:stedsnr" v="884059" />
		<tag k="water" v="lake" />
	</node>
	<node id="-72032" lat="62.6064999988" lon="7.16136389217">
		<tag k="name" v="Liafossen" />
		<tag k="natural" v="waterfall" />
		<tag k="ssr:stedsnr" v="763825" />
	</node>
	<node id="-72766" lat="62.5595111069" lon="6.95630833611">
		<tag k="alt_name" v="Daleelva" />
		<tag k="name" v="Kvernaelva" />
		<tag k="ssr:stedsnr" v="437895" />
		<tag k="waterway" v="stream" />
	</node>
	<node id="-72253" lat="62.6385666696" lon="6.96656944711">
		<tag k="name" v="Øveråsløken" />
		<tag k="ssr:stedsnr" v="12005" />
		<tag k="waterway" v="stream" />
	</node>
	<node id="-72764" lat="62.5700083339" lon="7.21002778197">
		<tag k="alt_name" v="Lomtjønna" />
		<tag k="name" v="Lomstjønna" />
		<tag k="natural" v="water" />
		<tag k="ssr:stedsnr" v="437858" />
	</node>
	<node id="-71946" lat="62.549180557" lon="7.12202777655">
		<tag k="name" v="Stordalsgrova" />
		<tag k="ssr:stedsnr" v="884038" />
		<tag k="waterway" v="stream" />
	</node>
	<node id="-72250" lat="62.60699444" lon="7.15773888411">
		<tag k="name" v="Vikeelva" />
		<tag k="ssr:stedsnr" v="11992" />
		<tag k="waterway" v="stream" />
	</node>
	<node id="-71735" lat="62.5927000042" lon="6.77505278325">
		<tag k="name" v="Skjerdingvatnet" />
>>>>>>> e1d4bc35ff8a6074a6f2e91616a996b547c36f15
		<tag k="natural" v="water" />
		<tag k="ssr:stedsnr" v="945879" />
	</node>
<<<<<<< HEAD
	<node lat="62.5686111078856" lon="7.064850001084178" id="-4224">
		<tag k="name" v="Midteelva" />
		<tag k="ssr:stedsnr" v="945767" />
		<tag k="waterway" v="stream" />
	</node>
	<node lat="62.56673888967304" lon="7.002066657229992" id="-4226">
		<tag k="name" v="Fremstegrova" />
		<tag k="ssr:stedsnr" v="945847" />
		<tag k="waterway" v="stream" />
	</node>
	<node lat="62.59546388903896" lon="6.849708342566136" id="-4231">
		<tag k="name" v="Botnaelva" />
		<tag k="ssr:stedsnr" v="945967" />
=======
	<node id="-72758" lat="62.5229527749" lon="7.02161944748">
		<tag k="name" v="Krokåna" />
		<tag k="ssr:stedsnr" v="437297" />
		<tag k="waterway" v="stream" />
	</node>
	<node id="-72757" lat="62.5392527804" lon="7.11009166041">
		<tag k="name" v="Løvikelva" />
		<tag k="ssr:stedsnr" v="436816" />
		<tag k="waterway" v="stream" />
	</node>
	<node id="-72755" lat="62.4701805594" lon="7.18245000322">
		<tag k="name" v="Myrelva" />
		<tag k="ssr:stedsnr" v="436317" />
>>>>>>> e1d4bc35ff8a6074a6f2e91616a996b547c36f15
		<tag k="waterway" v="stream" />
	</node>
	<node id="-72751" lat="62.579697222" lon="6.96317777633">
		<tag k="name" v="Trollvatna" />
		<tag k="natural" v="water" />
		<tag k="ssr:stedsnr" v="417094" />
		<tag k="water" v="lake" />
	</node>
	<node id="-71517" lat="62.6463555527" lon="6.99828611257">
		<tag k="name" v="Bjønndalsgrova" />
		<tag k="ssr:stedsnr" v="277884" />
		<tag k="waterway" v="stream" />
	</node>
	<node id="-71431" lat="62.5756999995" lon="6.94104166065">
		<tag k="alt_name" v="Fossåna" />
		<tag k="name" v="Forsåna" />
		<tag k="ssr:stedsnr" v="254899" />
		<tag k="waterway" v="stream" />
	</node>
	<node id="-72231" lat="62.5268138874" lon="7.20573889233">
		<tag k="name" v="Måsvatnet" />
		<tag k="natural" v="water" />
		<tag k="ssr:stedsnr" v="922858" />
	</node>
	<node id="-72740" lat="62.6484583337" lon="6.97889999091">
		<tag k="name" v="Lervågelva" />
		<tag k="ssr:stedsnr" v="398923" />
		<tag k="waterway" v="stream" />
	</node>
	<node id="-72739" lat="62.6393583366" lon="6.98083054783">
		<tag k="name" v="Øveråstjønnan" />
		<tag k="natural" v="water" />
		<tag k="ssr:stedsnr" v="398922" />
	</node>
	<node id="-72737" lat="62.5772083341" lon="6.89896666817">
		<tag k="name" v="Tverrgrova" />
		<tag k="ssr:stedsnr" v="398908" />
		<tag k="waterway" v="stream" />
	</node>
	<node id="-71709" lat="62.5725416676" lon="6.9250694429">
		<tag k="name" v="Øygardselvan" />
		<tag k="ssr:stedsnr" v="338839" />
		<tag k="waterway" v="stream" />
	</node>
	<node id="-72220" lat="62.565502775" lon="7.08698055076">
		<tag k="name" v="Heimstegjølet" />
		<tag k="ssr:stedsnr" v="884766" />
		<tag k="waterway" v="stream" />
	</node>
	<node id="-72728" lat="62.6185666692" lon="7.16874722658">
		<tag k="name" v="Jønnvikgrova" />
		<tag k="ssr:stedsnr" v="398817" />
		<tag k="waterway" v="stream" />
	</node>
	<node id="-72215" lat="62.5984916674" lon="6.92668332921">
		<tag k="name" v="Klaselva" />
		<tag k="ssr:stedsnr" v="884564" />
		<tag k="waterway" v="stream" />
	</node>
	<node id="-71702" lat="62.4697249967" lon="7.15373332856">
		<tag k="name" v="Stortjønna" />
		<tag k="natural" v="water" />
		<tag k="ssr:stedsnr" v="338093" />
	</node>
	<node id="-71699" lat="62.5616333373" lon="6.96499443837">
		<tag k="name" v="Jølgrøvene" />
		<tag k="ssr:stedsnr" v="338063" />
		<tag k="waterway" v="stream" />
	</node>
	<node id="-72209" lat="62.6092111115" lon="6.83750277638">
		<tag k="name" v="Råkelva" />
		<tag k="ssr:stedsnr" v="884605" />
		<tag k="waterway" v="stream" />
	</node>
	<node id="-71693" lat="62.5165694463" lon="6.98207778537">
		<tag k="name" v="Måslielva" />
		<tag k="ssr:stedsnr" v="315861" />
		<tag k="waterway" v="stream" />
	</node>
	<node id="-72521" lat="62.6389805563" lon="7.00964444608">
		<tag k="name" v="Hamarstjønna" />
		<tag k="natural" v="water" />
		<tag k="ssr:stedsnr" v="156879" />
	</node>
	<node id="-72727" lat="62.6055999963" lon="7.07046666735">
		<tag k="name" v="Hattegrova" />
		<tag k="ssr:stedsnr" v="398813" />
		<tag k="waterway" v="stream" />
	</node>
	<node id="-72015" lat="62.4809916683" lon="7.11708333547">
		<tag k="name" v="Øykjestølfonna" />
		<tag k="ssr:stedsnr" v="762095" />
		<tag k="waterway" v="stream" />
	</node>
	<node id="-72709" lat="62.5674333336" lon="7.16127221369">
		<tag k="name" v="Rabbegrova" />
		<tag k="ssr:stedsnr" v="398732" />
		<tag k="waterway" v="stream" />
	</node>
	<node id="-72706" lat="62.4971861125" lon="7.14796389095">
		<tag k="name" v="Renglå" />
		<tag k="ssr:stedsnr" v="398684" />
		<tag k="waterway" v="stream" />
	</node>
</osm>
