<?xml version="1.0" encoding="UTF-8"?>
<<<<<<< HEAD
<osm version="0.6" generator="osmapis">
	<node lat="62.50241111387796" lon="7.073344448749307" id="-2174">
		<tag k="name" v="Nakkemyrane" />
		<tag k="natural" v="wetland" />
		<tag k="ssr:stedsnr" v="34023" />
	</node>
	<node lat="62.57520833476554" lon="7.206013893500148" id="-2175">
		<tag k="name" v="Steinan" />
		<tag k="natural" v="scree" />
		<tag k="ssr:stedsnr" v="34509" />
	</node>
	<node lat="62.552847223222635" lon="7.175724992842865" id="-2176">
		<tag k="name" v="Myrane" />
		<tag k="natural" v="wetland" />
		<tag k="ssr:stedsnr" v="34516" />
	</node>
	<node lat="62.64243611533162" lon="7.077036105024378" id="-2184">
		<tag k="name" v="Stormyra" />
		<tag k="natural" v="wetland" />
		<tag k="ssr:stedsnr" v="34592" />
	</node>
	<node lat="62.57965000393233" lon="7.199741661680831" id="-2186">
		<tag k="name" v="Brattmyra" />
		<tag k="natural" v="wetland" />
		<tag k="ssr:stedsnr" v="34716" />
	</node>
	<node lat="62.625233336391766" lon="7.079355547503875" id="-2242">
		<tag k="name" v="Svingeilen" />
		<tag k="place" v="locality" />
		<tag k="ssr:stedsnr" v="95860" />
	</node>
	<node lat="62.64152777668971" lon="6.949483332269425" id="-2246">
		<tag k="name" v="Korsmarka" />
		<tag k="place" v="locality" />
		<tag k="ssr:stedsnr" v="95874" />
	</node>
	<node lat="62.64282777720242" lon="6.924997221320583" id="-2316">
		<tag k="name" v="Røtsteinen" />
		<tag k="natural" v="stone" />
		<tag k="ssr:stedsnr" v="156922" />
	</node>
	<node lat="62.629508332122576" lon="7.151549999749506" id="-2340">
		<tag k="name" v="Støttå" />
		<tag k="natural" v="stone" />
		<tag k="ssr:stedsnr" v="217602" />
	</node>
	<node lat="62.566563891823385" lon="7.205716665425273" id="-2343">
		<tag k="name" v="Daugstadmyran" />
		<tag k="natural" v="wetland" />
		<tag k="ssr:stedsnr" v="217725" />
	</node>
	<node lat="62.61507499960495" lon="7.0675444500253235" id="-2345">
		<tag k="name" v="Misfjordskogen" />
		<tag k="place" v="locality" />
		<tag k="ssr:stedsnr" v="217792" />
	</node>
	<node lat="62.64797499941369" lon="7.063333327662537" id="-2351">
		<tag k="name" v="Rørhjellmyra" />
=======
<osm generator="osmapis" version="0.6">
	<node id="-72701" lat="62.6144250029" lon="6.96653888776">
		<tag k="name" v="Uramyra" />
>>>>>>> e1d4bc35ff8a6074a6f2e91616a996b547c36f15
		<tag k="natural" v="wetland" />
		<tag k="ssr:stedsnr" v="217823" />
	</node>
<<<<<<< HEAD
	<node lat="62.486030559687634" lon="7.153305549036423" id="-2390">
		<tag k="name" v="Andersreiten" />
		<tag k="place" v="locality" />
		<tag k="ssr:stedsnr" v="459107" />
	</node>
	<node lat="62.64533055170201" lon="6.740894436509296" id="-2401">
		<tag k="name" v="Orøyan" />
=======
	<node id="-72698" lat="62.6175694443" lon="7.04286667016">
		<tag k="name" v="Øyra" />
		<tag k="place" v="locality" />
		<tag k="ssr:stedsnr" v="398587" />
	</node>
	<node id="-72184" lat="62.6008138872" lon="6.84488332458">
		<tag k="name" v="Kringlemyra" />
		<tag k="natural" v="wetland" />
		<tag k="ssr:stedsnr" v="945933" />
	</node>
	<node id="-72694" lat="62.5287277788" lon="7.21183054706">
		<tag k="name" v="Jolgrøin" />
>>>>>>> e1d4bc35ff8a6074a6f2e91616a996b547c36f15
		<tag k="natural" v="wetland" />
		<tag k="ssr:stedsnr" v="459653" />
	</node>
<<<<<<< HEAD
	<node lat="62.475283334448044" lon="7.173761120467047" id="-2405">
		<tag k="name" v="Skorsmyra" />
=======
	<node id="-71593" lat="62.546652777" lon="6.98471665858">
		<tag k="name" v="Bjønnafonna" />
		<tag k="place" v="locality" />
		<tag k="ssr:stedsnr" v="459071" />
	</node>
	<node id="-71668" lat="62.6268611156" lon="6.99740555652">
		<tag k="name" v="Vassmyran" />
>>>>>>> e1d4bc35ff8a6074a6f2e91616a996b547c36f15
		<tag k="natural" v="wetland" />
		<tag k="ssr:stedsnr" v="459736" />
	</node>
<<<<<<< HEAD
	<node lat="62.5082499966475" lon="7.132372222052896" id="-2412">
		<tag k="name" v="Langvollen" />
		<tag k="place" v="locality" />
		<tag k="ssr:stedsnr" v="277006" />
	</node>
	<node lat="62.49567222619926" lon="7.136674993257842" id="-2416">
		<tag k="name" v="Råhøybakken" />
=======
	<node id="-72691" lat="62.5435222204" lon="7.23274722296">
		<tag k="name" v="Risura" />
		<tag k="natural" v="scree" />
		<tag k="ssr:stedsnr" v="398517" />
	</node>
	<node id="-72174" lat="62.5677138874" lon="7.02686111647">
		<tag k="name" v="Sprovsfonna" />
>>>>>>> e1d4bc35ff8a6074a6f2e91616a996b547c36f15
		<tag k="place" v="locality" />
		<tag k="ssr:stedsnr" v="277023" />
	</node>
<<<<<<< HEAD
	<node lat="62.604983333933845" lon="6.981813893804972" id="-2425">
		<tag k="name" v="Urafonna" />
		<tag k="place" v="locality" />
		<tag k="ssr:stedsnr" v="277611" />
	</node>
	<node lat="62.49090555282819" lon="7.151161113150655" id="-2432">
		<tag k="name" v="Ekrå" />
=======
	<node id="-71653" lat="62.4752833344" lon="7.17376112047">
		<tag k="name" v="Skorsmyra" />
		<tag k="natural" v="wetland" />
		<tag k="ssr:stedsnr" v="459736" />
	</node>
	<node id="-72676" lat="62.5252888855" lon="7.15248610325">
		<tag k="name" v="Hoggefonnsanden" />
>>>>>>> e1d4bc35ff8a6074a6f2e91616a996b547c36f15
		<tag k="place" v="locality" />
		<tag k="ssr:stedsnr" v="277704" />
	</node>
<<<<<<< HEAD
	<node lat="62.62686111560678" lon="6.99740555652384" id="-2438">
		<tag k="name" v="Vassmyran" />
=======
	<node id="-72163" lat="62.6197361149" lon="7.18209999956">
		<tag k="name" v="Vinkjellarmyra" />
>>>>>>> e1d4bc35ff8a6074a6f2e91616a996b547c36f15
		<tag k="natural" v="wetland" />
		<tag k="ssr:stedsnr" v="459892" />
	</node>
<<<<<<< HEAD
	<node lat="62.58988611216758" lon="6.901088881011475" id="-2450">
		<tag k="name" v="Strandaura" />
		<tag k="natural" v="scree" />
		<tag k="ssr:stedsnr" v="277923" />
	</node>
	<node lat="62.627644442485426" lon="6.76581111898471" id="-2479">
		<tag k="name" v="Lykkjene" />
		<tag k="place" v="locality" />
		<tag k="ssr:stedsnr" v="337412" />
	</node>
	<node lat="62.53002777676319" lon="7.119325001249934" id="-2480">
		<tag k="name" v="Stomnegjerdet" />
		<tag k="place" v="locality" />
		<tag k="ssr:stedsnr" v="338003" />
	</node>
	<node lat="62.53170833168295" lon="7.064147220934629" id="-2483">
		<tag k="name" v="Eidhammarsmyrane" />
=======
	<node id="-72673" lat="62.6297222255" lon="6.76303611932">
		<tag k="name" v="Ljøsmyra" />
		<tag k="natural" v="wetland" />
		<tag k="ssr:stedsnr" v="397439" />
	</node>
	<node id="-71646" lat="62.5029611074" lon="7.13505277847">
		<tag k="name" v="Tumyra" />
		<tag k="natural" v="wetland" />
		<tag k="ssr:stedsnr" v="459674" />
	</node>
	<node id="-72666" lat="62.6263555568" lon="7.023608326">
		<tag k="name" v="Djupmyra" />
		<tag k="natural" v="wetland" />
		<tag k="ssr:stedsnr" v="376970" />
	</node>
	<node id="-71641" lat="62.6453305517" lon="6.74089443651">
		<tag k="name" v="Orøyan" />
>>>>>>> e1d4bc35ff8a6074a6f2e91616a996b547c36f15
		<tag k="natural" v="wetland" />
		<tag k="ssr:stedsnr" v="338049" />
	</node>
<<<<<<< HEAD
	<node lat="62.4704833309771" lon="7.15845555626579" id="-2486">
		<tag k="name" v="Storsteinane" />
		<tag k="natural" v="stone" />
		<tag k="ssr:stedsnr" v="338095" />
	</node>
	<node lat="62.62893611285909" lon="7.019733326275075" id="-2488">
		<tag k="name" v="Lunnmyra" />
		<tag k="natural" v="wetland" />
		<tag k="ssr:stedsnr" v="338592" />
	</node>
	<node lat="62.574141670384286" lon="6.867205546317093" id="-2493">
		<tag k="name" v="Resmyran" />
		<tag k="natural" v="wetland" />
		<tag k="ssr:stedsnr" v="338611" />
	</node>
	<node lat="62.59786666478021" lon="6.8842555579085305" id="-2494">
		<tag k="name" v="Nyfonna" />
=======
	<node id="-72150" lat="62.5884277757" lon="7.18477778205">
		<tag k="name" v="Risura" />
		<tag k="natural" v="scree" />
		<tag k="ssr:stedsnr" v="945507" />
	</node>
	<node id="-71635" lat="62.6215916647" lon="7.16154721366">
		<tag k="name" v="Stormyra" />
		<tag k="natural" v="wetland" />
		<tag k="ssr:stedsnr" v="459572" />
	</node>
	<node id="-71618" lat="62.5898861122" lon="6.90108888101">
		<tag k="name" v="Strandaura" />
		<tag k="natural" v="scree" />
		<tag k="ssr:stedsnr" v="277923" />
	</node>
	<node id="-72523" lat="62.6428277772" lon="6.92499722132">
		<tag k="name" v="Røtsteinen" />
		<tag k="natural" v="stone" />
		<tag k="ssr:stedsnr" v="156922" />
	</node>
	<node id="-72632" lat="62.6011444481" lon="6.82695555434">
		<tag k="name" v="Aritvollen" />
>>>>>>> e1d4bc35ff8a6074a6f2e91616a996b547c36f15
		<tag k="place" v="locality" />
		<tag k="ssr:stedsnr" v="338612" />
	</node>
<<<<<<< HEAD
	<node lat="62.582144448265375" lon="7.318950000093663" id="-2504">
		<tag k="name" v="Skråsteinen" />
		<tag k="natural" v="stone" />
		<tag k="ssr:stedsnr" v="339604" />
	</node>
	<node lat="62.49972500053284" lon="7.140849991732235" id="-2537">
		<tag k="name" v="Storhellå" />
		<tag k="natural" v="stone" />
		<tag k="ssr:stedsnr" v="398009" />
	</node>
	<node lat="62.61756944433358" lon="7.042866670160181" id="-2545">
		<tag k="name" v="Øyra" />
=======
	<node id="-71606" lat="62.4860305597" lon="7.15330554904">
		<tag k="name" v="Andersreiten" />
		<tag k="place" v="locality" />
		<tag k="ssr:stedsnr" v="459107" />
	</node>
	<node id="-73118" lat="62.5373527812" lon="6.93568889737">
		<tag k="name" v="Skitnesetermyra" />
		<tag k="natural" v="wetland" />
		<tag k="ssr:stedsnr" v="824100" />
	</node>
	<node id="-71601" lat="62.4909055528" lon="7.15116111315">
		<tag k="name" v="Ekrå" />
>>>>>>> e1d4bc35ff8a6074a6f2e91616a996b547c36f15
		<tag k="place" v="locality" />
		<tag k="ssr:stedsnr" v="398587" />
	</node>
<<<<<<< HEAD
	<node lat="62.568211107884494" lon="7.017088896874835" id="-2561">
		<tag k="name" v="Ryggjefonna" />
		<tag k="place" v="locality" />
		<tag k="ssr:stedsnr" v="398836" />
	</node>
	<node lat="62.6386805552709" lon="6.80453889175102" id="-2566">
		<tag k="name" v="Fonnhaugmyra" />
=======
	<node id="-72108" lat="62.5534083361" lon="7.16569166383">
		<tag k="name" v="Myrane" />
		<tag k="natural" v="wetland" />
		<tag k="ssr:stedsnr" v="824670" />
	</node>
	<node id="-73129" lat="62.5724722251" lon="7.20292500633">
		<tag k="name" v="Villamyran" />
>>>>>>> e1d4bc35ff8a6074a6f2e91616a996b547c36f15
		<tag k="natural" v="wetland" />
		<tag k="ssr:stedsnr" v="398928" />
	</node>
<<<<<<< HEAD
	<node lat="62.555711108152934" lon="7.005949995523302" id="-2591">
=======
	<node id="-71592" lat="62.5557111082" lon="7.00594999552">
>>>>>>> e1d4bc35ff8a6074a6f2e91616a996b547c36f15
		<tag k="name" v="Raudfonna" />
		<tag k="place" v="locality" />
		<tag k="ssr:stedsnr" v="459070" />
	</node>
<<<<<<< HEAD
	<node lat="62.54665277697658" lon="6.984716658584787" id="-2592">
		<tag k="name" v="Bjønnafonna" />
=======
	<node id="-72103" lat="62.4867333316" lon="7.15014999265">
		<tag k="name" v="Gamlereiten" />
>>>>>>> e1d4bc35ff8a6074a6f2e91616a996b547c36f15
		<tag k="place" v="locality" />
		<tag k="ssr:stedsnr" v="459071" />
	</node>
<<<<<<< HEAD
	<node lat="62.63151388596529" lon="7.07579443650775" id="-2600">
		<tag k="name" v="Geilen" />
		<tag k="natural" v="wetland" />
		<tag k="ssr:stedsnr" v="459609" />
	</node>
	<node lat="62.50296110744346" lon="7.135052778468973" id="-2606">
		<tag k="name" v="Tumyra" />
		<tag k="natural" v="wetland" />
		<tag k="ssr:stedsnr" v="459674" />
	</node>
	<node lat="62.62159166470458" lon="7.161547213662206" id="-2611">
		<tag k="name" v="Stormyra" />
		<tag k="natural" v="wetland" />
		<tag k="ssr:stedsnr" v="459572" />
	</node>
	<node lat="62.53463332968516" lon="6.958472226018535" id="-2676">
		<tag k="name" v="Auspholmyran" />
=======
	<node id="-73126" lat="62.5339083378" lon="7.11920555296">
		<tag k="name" v="Massmyra" />
		<tag k="natural" v="wetland" />
		<tag k="ssr:stedsnr" v="824678" />
	</node>
	<node id="-72099" lat="62.6387500039" lon="6.81917500902">
		<tag k="name" v="Storåkeren" />
		<tag k="place" v="locality" />
		<tag k="ssr:stedsnr" v="823919" />
	</node>
	<node id="-71835" lat="62.618755556" lon="7.08929443968">
		<tag k="name" v="Myra" />
		<tag k="natural" v="wetland" />
		<tag k="ssr:stedsnr" v="702581" />
	</node>
	<node id="-72607" lat="62.5978666648" lon="6.88425555791">
		<tag k="name" v="Nyfonna" />
		<tag k="place" v="locality" />
		<tag k="ssr:stedsnr" v="338612" />
	</node>
	<node id="-72606" lat="62.5741416704" lon="6.86720554632">
		<tag k="name" v="Resmyran" />
		<tag k="natural" v="wetland" />
		<tag k="ssr:stedsnr" v="338611" />
	</node>
	<node id="-72605" lat="62.6289361129" lon="7.01973332628">
		<tag k="name" v="Lunnmyra" />
>>>>>>> e1d4bc35ff8a6074a6f2e91616a996b547c36f15
		<tag k="natural" v="wetland" />
		<tag k="ssr:stedsnr" v="520070" />
	</node>
<<<<<<< HEAD
	<node lat="62.47156944490164" lon="7.170527768267573" id="-2679">
		<tag k="name" v="Skorsura" />
		<tag k="natural" v="scree" />
		<tag k="ssr:stedsnr" v="520565" />
	</node>
	<node lat="62.54871110936151" lon="7.214319449074187" id="-2692">
		<tag k="name" v="Haljesteinen" />
		<tag k="natural" v="stone" />
		<tag k="ssr:stedsnr" v="520777" />
	</node>
	<node lat="62.630574996634685" lon="7.034436104623546" id="-2694">
		<tag k="name" v="Tømmerskogmyra" />
=======
	<node id="-73116" lat="62.5590194428" lon="6.995338891">
		<tag k="name" v="Rikardøyna" />
>>>>>>> e1d4bc35ff8a6074a6f2e91616a996b547c36f15
		<tag k="natural" v="wetland" />
		<tag k="ssr:stedsnr" v="520906" />
	</node>
<<<<<<< HEAD
	<node lat="62.64011666429793" lon="6.812069445526106" id="-2696">
		<tag k="name" v="Hesthagen" />
=======
	<node id="-71578" lat="62.5082499966" lon="7.13237222205">
		<tag k="name" v="Langvollen" />
>>>>>>> e1d4bc35ff8a6074a6f2e91616a996b547c36f15
		<tag k="place" v="locality" />
		<tag k="ssr:stedsnr" v="520963" />
	</node>
<<<<<<< HEAD
	<node lat="62.60728611477022" lon="7.148063892192975" id="-2698">
		<tag k="landuse" v="meadow" />
		<tag k="name" v="Nilsgjerda" />
		<tag k="ssr:stedsnr" v="520860" />
	</node>
	<node lat="62.56786111037698" lon="6.836152782790206" id="-2727">
		<tag k="name" v="Lødesteinen" />
		<tag k="natural" v="stone" />
		<tag k="ssr:stedsnr" v="579105" />
	</node>
	<node lat="62.58028055865386" lon="6.8895611056671475" id="-2735">
		<tag k="name" v="Nyfonna" />
		<tag k="place" v="locality" />
		<tag k="ssr:stedsnr" v="580589" />
	</node>
	<node lat="62.49467222485377" lon="7.139791674012136" id="-2741">
		<tag k="name" v="Øybyta" />
		<tag k="place" v="locality" />
		<tag k="ssr:stedsnr" v="580694" />
	</node>
	<node lat="62.61331666480172" lon="6.984716664565582" id="-2749">
		<tag k="name" v="Kyrkjesletta" />
=======
	<node id="-72089" lat="62.5480222238" lon="7.2311111133">
		<tag k="name" v="Paulane" />
>>>>>>> e1d4bc35ff8a6074a6f2e91616a996b547c36f15
		<tag k="natural" v="wetland" />
		<tag k="ssr:stedsnr" v="580891" />
	</node>
<<<<<<< HEAD
	<node lat="62.47989721883885" lon="7.172166668938564" id="-2783">
		<tag k="name" v="Demma" />
=======
	<node id="-73105" lat="62.4732000028" lon="7.18450833734">
		<tag k="name" v="Myrane" />
>>>>>>> e1d4bc35ff8a6074a6f2e91616a996b547c36f15
		<tag k="natural" v="wetland" />
		<tag k="ssr:stedsnr" v="702543" />
	</node>
<<<<<<< HEAD
	<node lat="62.61976944289332" lon="6.838591676054476" id="-2788">
		<tag k="name" v="Hundeura" />
=======
	<node id="-73104" lat="62.5785166684" lon="7.20417778392">
		<tag k="name" v="Risura" />
>>>>>>> e1d4bc35ff8a6074a6f2e91616a996b547c36f15
		<tag k="natural" v="scree" />
		<tag k="ssr:stedsnr" v="702625" />
	</node>
<<<<<<< HEAD
	<node lat="62.530061107198996" lon="6.967275007139316" id="-2790">
		<tag k="name" v="Vargura" />
		<tag k="natural" v="scree" />
		<tag k="ssr:stedsnr" v="702684" />
	</node>
	<node lat="62.53345277976948" lon="7.204505553536815" id="-2796">
		<tag k="name" v="Urvassura" />
		<tag k="natural" v="scree" />
		<tag k="ssr:stedsnr" v="702725" />
	</node>
	<node lat="62.477436108700985" lon="7.168850006028189" id="-2798">
		<tag k="name" v="Skorksmyra" />
=======
	<node id="-72587" lat="62.5317083317" lon="7.06414722093">
		<tag k="name" v="Eidhammarsmyrane" />
		<tag k="natural" v="wetland" />
		<tag k="ssr:stedsnr" v="338049" />
	</node>
	<node id="-71559" lat="62.6479749994" lon="7.06333332766">
		<tag k="name" v="Rørhjellmyra" />
>>>>>>> e1d4bc35ff8a6074a6f2e91616a996b547c36f15
		<tag k="natural" v="wetland" />
		<tag k="ssr:stedsnr" v="702748" />
	</node>
	<node lat="62.605355558271924" lon="6.984458331388754" id="-2803">
		<tag k="name" v="Flatefonna" />
		<tag k="place" v="locality" />
		<tag k="ssr:stedsnr" v="702845" />
	</node>
	<node lat="62.58158332893803" lon="6.8930888865326585" id="-2805">
		<tag k="name" v="Gamlefonna" />
		<tag k="place" v="locality" />
		<tag k="ssr:stedsnr" v="702928" />
	</node>
<<<<<<< HEAD
	<node lat="62.62205277593932" lon="6.771055546748226" id="-2820">
		<tag k="name" v="Seljefonna" />
=======
	<node id="-72581" lat="62.5300277768" lon="7.11932500125">
		<tag k="name" v="Stomnegjerdet" />
>>>>>>> e1d4bc35ff8a6074a6f2e91616a996b547c36f15
		<tag k="place" v="locality" />
		<tag k="ssr:stedsnr" v="640410" />
	</node>
<<<<<<< HEAD
	<node lat="62.50646388551229" lon="7.144411105277909" id="-2859">
		<tag k="name" v="Instebytet" />
=======
	<node id="-72580" lat="62.6276444425" lon="6.76581111898">
		<tag k="name" v="Lykkjene" />
>>>>>>> e1d4bc35ff8a6074a6f2e91616a996b547c36f15
		<tag k="place" v="locality" />
		<tag k="ssr:stedsnr" v="702011" />
	</node>
<<<<<<< HEAD
	<node lat="62.556872219446134" lon="6.987044448183371" id="-2866">
		<tag k="name" v="Trollbotnmyra" />
		<tag k="natural" v="wetland" />
		<tag k="ssr:stedsnr" v="702075" />
	</node>
	<node lat="62.61875555600279" lon="7.089294439677842" id="-2878">
		<tag k="name" v="Myra" />
		<tag k="natural" v="wetland" />
		<tag k="ssr:stedsnr" v="702581" />
	</node>
	<node lat="62.595796821451074" lon="7.073651844277794" id="-2888">
		<tag k="name" v="Memorgosteinen" />
		<tag k="natural" v="stone" />
		<tag k="ssr:stedsnr" v="702764" />
	</node>
	<node lat="62.47626666529044" lon="7.194549996702315" id="-2926">
		<tag k="name" v="Svartfonna" />
		<tag k="place" v="locality" />
		<tag k="ssr:stedsnr" v="763752" />
	</node>
	<node lat="62.623730559682485" lon="7.1525777760478615" id="-2927">
=======
	<node id="-71554" lat="62.6332333328" lon="6.95899722511">
		<tag k="name" v="Ny-Jord" />
		<tag k="natural" v="wetland" />
		<tag k="ssr:stedsnr" v="217628" />
	</node>
	<node id="-71551" lat="62.6295083321" lon="7.15154999975">
		<tag k="name" v="Støttå" />
		<tag k="natural" v="stone" />
		<tag k="ssr:stedsnr" v="217602" />
	</node>
	<node id="-72560" lat="62.6202944426" lon="6.77120832853">
		<tag k="name" v="Storåkeren" />
		<tag k="place" v="locality" />
		<tag k="ssr:stedsnr" v="216367" />
	</node>
	<node id="-72559" lat="62.623569448" lon="6.77302221657">
		<tag k="name" v="Holteigen" />
		<tag k="place" v="locality" />
		<tag k="ssr:stedsnr" v="216362" />
	</node>
	<node id="-72423" lat="62.6148111075" lon="6.95966110784">
		<tag k="name" v="Trohaugholå" />
		<tag k="natural" v="wetland" />
		<tag k="ssr:stedsnr" v="95891" />
	</node>
	<node id="-73063" lat="62.6237305597" lon="7.15257777605">
>>>>>>> e1d4bc35ff8a6074a6f2e91616a996b547c36f15
		<tag k="name" v="Gjermundnesskogen" />
		<tag k="place" v="locality" />
		<tag k="ssr:stedsnr" v="763802" />
	</node>
<<<<<<< HEAD
	<node lat="62.49988333452007" lon="7.063980553995701" id="-2928">
		<tag k="name" v="Fleen" />
=======
	<node id="-73060" lat="62.5673305555" lon="7.06594723117">
		<tag k="name" v="Kristiseterøyan" />
>>>>>>> e1d4bc35ff8a6074a6f2e91616a996b547c36f15
		<tag k="place" v="locality" />
		<tag k="ssr:stedsnr" v="763699" />
	</node>
<<<<<<< HEAD
	<node lat="62.629355555230696" lon="7.154725001704878" id="-2932">
=======
	<node id="-72035" lat="62.6293555552" lon="7.1547250017">
>>>>>>> e1d4bc35ff8a6074a6f2e91616a996b547c36f15
		<tag k="name" v="Hesthagen" />
		<tag k="place" v="locality" />
		<tag k="ssr:stedsnr" v="763853" />
	</node>
<<<<<<< HEAD
	<node lat="62.548022223791556" lon="7.231111113303836" id="-2972">
		<tag k="name" v="Paulane" />
=======
	<node id="-72034" lat="62.6504777773" lon="7.07386389481">
		<tag k="name" v="Rørhjellmyra" />
>>>>>>> e1d4bc35ff8a6074a6f2e91616a996b547c36f15
		<tag k="natural" v="wetland" />
		<tag k="ssr:stedsnr" v="823523" />
	</node>
<<<<<<< HEAD
	<node lat="62.63875000389305" lon="6.819175009024333" id="-2977">
		<tag k="name" v="Storåkeren" />
=======
	<node id="-73055" lat="62.4762666653" lon="7.1945499967">
		<tag k="name" v="Svartfonna" />
>>>>>>> e1d4bc35ff8a6074a6f2e91616a996b547c36f15
		<tag k="place" v="locality" />
		<tag k="ssr:stedsnr" v="823919" />
	</node>
<<<<<<< HEAD
	<node lat="62.486733331586095" lon="7.150149992650165" id="-2978">
		<tag k="name" v="Gamlereiten" />
		<tag k="place" v="locality" />
		<tag k="ssr:stedsnr" v="824115" />
	</node>
	<node lat="62.55340833607417" lon="7.165691663831086" id="-2986">
		<tag k="name" v="Myrane" />
=======
	<node id="-73053" lat="62.5770527772" lon="7.19593889837">
		<tag k="name" v="Hålgjerde" />
>>>>>>> e1d4bc35ff8a6074a6f2e91616a996b547c36f15
		<tag k="natural" v="wetland" />
		<tag k="ssr:stedsnr" v="824670" />
	</node>
<<<<<<< HEAD
	<node lat="62.53390833780974" lon="7.119205552964258" id="-2987">
		<tag k="name" v="Massmyra" />
=======
	<node id="-73051" lat="62.5593555599" lon="6.9972361078">
		<tag k="name" v="Småøyane" />
>>>>>>> e1d4bc35ff8a6074a6f2e91616a996b547c36f15
		<tag k="natural" v="wetland" />
		<tag k="ssr:stedsnr" v="824678" />
	</node>
<<<<<<< HEAD
	<node lat="62.57168055886395" lon="6.855819444757172" id="-3034">
		<tag k="name" v="Tverrlimyra" />
		<tag k="natural" v="wetland" />
		<tag k="ssr:stedsnr" v="883111" />
	</node>
	<node lat="62.62810833510312" lon="6.76262499951762" id="-3035">
		<tag k="name" v="Setertjønna" />
=======
	<node id="-73050" lat="62.5432749975" lon="6.98439722094">
		<tag k="name" v="Nyfonna" />
		<tag k="place" v="locality" />
		<tag k="ssr:stedsnr" v="763724" />
	</node>
	<node id="-73049" lat="62.5602222199" lon="7.00204722857">
		<tag k="name" v="Løken" />
>>>>>>> e1d4bc35ff8a6074a6f2e91616a996b547c36f15
		<tag k="natural" v="wetland" />
		<tag k="ssr:stedsnr" v="883510" />
	</node>
<<<<<<< HEAD
	<node lat="62.58008055669133" lon="7.212091676184185" id="-3050">
		<tag k="name" v="Kjelane" />
=======
	<node id="-72023" lat="62.5716416692" lon="6.86346666183">
		<tag k="name" v="Tverrlimyra" />
>>>>>>> e1d4bc35ff8a6074a6f2e91616a996b547c36f15
		<tag k="natural" v="wetland" />
		<tag k="ssr:stedsnr" v="884501" />
	</node>
<<<<<<< HEAD
	<node lat="62.588427775748016" lon="7.18477778204749" id="-3089">
		<tag k="name" v="Risura" />
		<tag k="natural" v="scree" />
		<tag k="ssr:stedsnr" v="945507" />
	</node>
	<node lat="62.6197361149018" lon="7.182099999559918" id="-3095">
		<tag k="name" v="Vinkjellarmyra" />
		<tag k="natural" v="wetland" />
		<tag k="ssr:stedsnr" v="945710" />
	</node>
	<node lat="62.567713887404146" lon="7.026861116471193" id="-3103">
		<tag k="name" v="Sprovsfonna" />
=======
	<node id="-73045" lat="62.4998833345" lon="7.063980554">
		<tag k="name" v="Fleen" />
		<tag k="place" v="locality" />
		<tag k="ssr:stedsnr" v="763699" />
	</node>
	<node id="-71505" lat="62.6049833339" lon="6.9818138938">
		<tag k="name" v="Urafonna" />
		<tag k="place" v="locality" />
		<tag k="ssr:stedsnr" v="277611" />
	</node>
	<node id="-71503" lat="62.5731222212" lon="7.05683332536">
		<tag k="name" v="Fonna" />
>>>>>>> e1d4bc35ff8a6074a6f2e91616a996b547c36f15
		<tag k="place" v="locality" />
		<tag k="ssr:stedsnr" v="945834" />
	</node>
<<<<<<< HEAD
	<node lat="62.600813887228036" lon="6.8448833245840355" id="-3107">
		<tag k="name" v="Kringlemyra" />
		<tag k="natural" v="wetland" />
		<tag k="ssr:stedsnr" v="945933" />
	</node>
	<node lat="62.54943333036623" lon="6.978986103742116" id="-3155">
		<tag k="name" v="Bjønnafonna" />
		<tag k="place" v="locality" />
		<tag k="ssr:stedsnr" v="34086" />
	</node>
	<node lat="62.53748333087342" lon="7.064416663203835" id="-3166">
		<tag k="name" v="Løvikmyrane" />
		<tag k="natural" v="wetland" />
		<tag k="ssr:stedsnr" v="34060" />
	</node>
	<node lat="62.58380555984483" lon="7.159058326643972" id="-3172">
		<tag k="name" v="Langura" />
=======
	<node id="-71502" lat="62.5622999978" lon="7.17406666868">
		<tag k="name" v="Porsmyra" />
		<tag k="natural" v="wetland" />
		<tag k="ssr:stedsnr" v="277549" />
	</node>
	<node id="-73037" lat="62.6134999968" lon="6.85733610678">
		<tag k="name" v="Gråmyra" />
		<tag k="natural" v="wetland" />
		<tag k="ssr:stedsnr" v="762624" />
	</node>
	<node id="-73035" lat="62.6137583304" lon="6.95475277849">
		<tag k="name" v="Vikmyra" />
		<tag k="natural" v="wetland" />
		<tag k="ssr:stedsnr" v="762612" />
	</node>
	<node id="-73032" lat="62.6249777775" lon="7.03545832841">
		<tag k="name" v="Lerøysa" />
>>>>>>> e1d4bc35ff8a6074a6f2e91616a996b547c36f15
		<tag k="natural" v="scree" />
		<tag k="ssr:stedsnr" v="34535" />
	</node>
<<<<<<< HEAD
	<node lat="62.591391670562224" lon="7.074580555967979" id="-3175">
		<tag k="name" v="Myran" />
		<tag k="natural" v="wetland" />
		<tag k="ssr:stedsnr" v="34551" />
	</node>
	<node lat="62.51396110978311" lon="7.132208335337661" id="-3187">
		<tag k="name" v="Korsøyna" />
=======
	<node id="-73029" lat="62.5933416661" lon="7.04904444165">
		<tag k="name" v="Mjølbørå" />
>>>>>>> e1d4bc35ff8a6074a6f2e91616a996b547c36f15
		<tag k="place" v="locality" />
		<tag k="ssr:stedsnr" v="34655" />
	</node>
<<<<<<< HEAD
	<node lat="62.65163888693365" lon="6.755655547752566" id="-3201">
		<tag k="name" v="Sortemyra" />
=======
	<node id="-73027" lat="62.5890750039" lon="6.79581665938">
		<tag k="name" v="Røyrholmane" />
>>>>>>> e1d4bc35ff8a6074a6f2e91616a996b547c36f15
		<tag k="natural" v="wetland" />
		<tag k="ssr:stedsnr" v="34988" />
	</node>
<<<<<<< HEAD
	<node lat="62.500441667080054" lon="7.145336108231102" id="-3231">
		<tag k="name" v="Fåtjønnbyta" />
=======
	<node id="-72001" lat="62.6053555583" lon="6.98445833139">
		<tag k="name" v="Flatefonna" />
>>>>>>> e1d4bc35ff8a6074a6f2e91616a996b547c36f15
		<tag k="place" v="locality" />
		<tag k="ssr:stedsnr" v="95008" />
	</node>
<<<<<<< HEAD
	<node lat="62.576716671194696" lon="6.891680559702468" id="-3246">
		<tag k="name" v="Ånesmyra" />
=======
	<node id="-73024" lat="62.555386114" lon="7.1193055609">
		<tag k="name" v="Klingretemyra" />
>>>>>>> e1d4bc35ff8a6074a6f2e91616a996b547c36f15
		<tag k="natural" v="wetland" />
		<tag k="ssr:stedsnr" v="95584" />
	</node>
<<<<<<< HEAD
	<node lat="62.52292777634664" lon="7.1368444382387795" id="-3255">
		<tag k="name" v="Langøyra" />
=======
	<node id="-73023" lat="62.4963611097" lon="7.13662222537">
		<tag k="name" v="Lensmannssletta" />
>>>>>>> e1d4bc35ff8a6074a6f2e91616a996b547c36f15
		<tag k="place" v="locality" />
		<tag k="ssr:stedsnr" v="95644" />
	</node>
<<<<<<< HEAD
	<node lat="62.55189444586496" lon="7.08219722496505" id="-3257">
		<tag k="name" v="Myrane" />
		<tag k="natural" v="wetland" />
		<tag k="ssr:stedsnr" v="95650" />
	</node>
	<node lat="62.52631666829641" lon="7.20133055361428" id="-3262">
		<tag k="name" v="Trollvassura" />
		<tag k="natural" v="scree" />
		<tag k="ssr:stedsnr" v="95744" />
	</node>
	<node lat="62.56817222582372" lon="7.033636103558991" id="-3268">
		<tag k="name" v="Nyvegfonna" />
=======
	<node id="-72505" lat="62.6148861148" lon="7.19090832749">
		<tag k="name" v="Storteigen" />
		<tag k="place" v="locality" />
		<tag k="ssr:stedsnr" v="156736" />
	</node>
	<node id="-72493" lat="62.5285027768" lon="7.12255000154">
		<tag k="name" v="Gjerda" />
>>>>>>> e1d4bc35ff8a6074a6f2e91616a996b547c36f15
		<tag k="place" v="locality" />
		<tag k="ssr:stedsnr" v="95837" />
	</node>
<<<<<<< HEAD
	<node lat="62.5527055515709" lon="6.958761114759054" id="-3274">
		<tag k="name" v="Høgmyra" />
=======
	<node id="-72492" lat="62.5296305515" lon="7.10883333272">
		<tag k="name" v="Løkmyra" />
>>>>>>> e1d4bc35ff8a6074a6f2e91616a996b547c36f15
		<tag k="natural" v="wetland" />
		<tag k="ssr:stedsnr" v="95686" />
	</node>
<<<<<<< HEAD
	<node lat="62.625797220990414" lon="7.1711222196734665" id="-3277">
		<tag k="name" v="Storgeilen" />
=======
	<node id="-71466" lat="62.6415277767" lon="6.94948333227">
		<tag k="name" v="Korsmarka" />
>>>>>>> e1d4bc35ff8a6074a6f2e91616a996b547c36f15
		<tag k="place" v="locality" />
		<tag k="ssr:stedsnr" v="95780" />
	</node>
<<<<<<< HEAD
	<node lat="62.61481110745114" lon="6.959661107839633" id="-3281">
		<tag k="name" v="Trohaugholå" />
		<tag k="natural" v="wetland" />
		<tag k="ssr:stedsnr" v="95891" />
	</node>
	<node lat="62.63118055653472" lon="6.765527778096566" id="-3283">
		<tag k="name" v="Ljøsmyran" />
=======
	<node id="-72489" lat="62.6045055525" lon="6.80288055168">
		<tag k="name" v="Gråurene" />
		<tag k="natural" v="scree" />
		<tag k="ssr:stedsnr" v="156645" />
	</node>
	<node id="-72486" lat="62.6407194405" lon="6.92550556079">
		<tag k="name" v="Røtmyra" />
>>>>>>> e1d4bc35ff8a6074a6f2e91616a996b547c36f15
		<tag k="natural" v="wetland" />
		<tag k="ssr:stedsnr" v="95985" />
	</node>
<<<<<<< HEAD
	<node lat="62.56328611269623" lon="7.317913879578388" id="-3310">
		<tag k="name" v="Langfjellmyrane" />
		<tag k="natural" v="wetland" />
		<tag k="ssr:stedsnr" v="132535" />
	</node>
	<node lat="62.616322225799344" lon="7.163411113310167" id="-3340">
=======
	<node id="-72481" lat="62.6163222258" lon="7.16341111331">
>>>>>>> e1d4bc35ff8a6074a6f2e91616a996b547c36f15
		<tag k="name" v="Sandmyra" />
		<tag k="natural" v="wetland" />
		<tag k="ssr:stedsnr" v="156593" />
	</node>
<<<<<<< HEAD
	<node lat="62.52963055148911" lon="7.108833332718088" id="-3346">
		<tag k="name" v="Løkmyra" />
		<tag k="natural" v="wetland" />
		<tag k="ssr:stedsnr" v="156663" />
	</node>
	<node lat="62.528502776757044" lon="7.122550001537982" id="-3347">
		<tag k="name" v="Gjerda" />
		<tag k="place" v="locality" />
		<tag k="ssr:stedsnr" v="156665" />
	</node>
	<node lat="62.64071944046609" lon="6.925505560790851" id="-3358">
		<tag k="name" v="Røtmyra" />
		<tag k="natural" v="wetland" />
		<tag k="ssr:stedsnr" v="156628" />
	</node>
	<node lat="62.60450555247447" lon="6.802880551682003" id="-3361">
		<tag k="name" v="Gråurene" />
=======
	<node id="-71967" lat="62.6171833294" lon="7.04501112101">
		<tag k="landuse" v="meadow" />
		<tag k="name" v="Røstavollen" />
		<tag k="ssr:stedsnr" v="884885" />
	</node>
	<node id="-71956" lat="62.5872805556" lon="7.15803332445">
		<tag k="name" v="Gråura" />
>>>>>>> e1d4bc35ff8a6074a6f2e91616a996b547c36f15
		<tag k="natural" v="scree" />
		<tag k="ssr:stedsnr" v="156645" />
	</node>
<<<<<<< HEAD
	<node lat="62.61488611476654" lon="7.190908327487784" id="-3369">
		<tag k="name" v="Storteigen" />
=======
	<node id="-71955" lat="62.5665111142" lon="7.06223333262">
		<tag k="name" v="Strupen" />
>>>>>>> e1d4bc35ff8a6074a6f2e91616a996b547c36f15
		<tag k="place" v="locality" />
		<tag k="ssr:stedsnr" v="156736" />
	</node>
<<<<<<< HEAD
	<node lat="62.62356944801741" lon="6.773022216567948" id="-3420">
		<tag k="name" v="Holteigen" />
		<tag k="place" v="locality" />
		<tag k="ssr:stedsnr" v="216362" />
	</node>
	<node lat="62.62029444261295" lon="6.77120832853226" id="-3421">
		<tag k="name" v="Storåkeren" />
		<tag k="place" v="locality" />
		<tag k="ssr:stedsnr" v="216367" />
	</node>
	<node lat="62.607469447986155" lon="7.058202784199751" id="-3436">
		<tag k="name" v="Stakkmyran" />
		<tag k="natural" v="wetland" />
		<tag k="ssr:stedsnr" v="217798" />
	</node>
	<node lat="62.63323333277885" lon="6.958997225111701" id="-3444">
		<tag k="name" v="Ny-Jord" />
		<tag k="natural" v="wetland" />
		<tag k="ssr:stedsnr" v="217628" />
	</node>
	<node lat="62.56229999775973" lon="7.1740666686777494" id="-3491">
		<tag k="name" v="Porsmyra" />
=======
	<node id="-71951" lat="62.6305944419" lon="7.07521667292">
		<tag k="name" v="Vollan" />
		<tag k="place" v="locality" />
		<tag k="ssr:stedsnr" v="884577" />
	</node>
	<node id="-71950" lat="62.5800805567" lon="7.21209167618">
		<tag k="name" v="Kjelane" />
		<tag k="natural" v="wetland" />
		<tag k="ssr:stedsnr" v="884501" />
	</node>
	<node id="-71981" lat="62.5064638855" lon="7.14441110528">
		<tag k="name" v="Instebytet" />
		<tag k="place" v="locality" />
		<tag k="ssr:stedsnr" v="702011" />
	</node>
	<node id="-71638" lat="62.631513886" lon="7.07579443651">
		<tag k="name" v="Geilen" />
		<tag k="natural" v="wetland" />
		<tag k="ssr:stedsnr" v="459609" />
	</node>
	<node id="-72962" lat="62.5295750002" lon="7.15155556175">
		<tag k="name" v="Storura" />
		<tag k="natural" v="scree" />
		<tag k="ssr:stedsnr" v="641662" />
	</node>
	<node id="-71932" lat="62.5716805589" lon="6.85581944476">
		<tag k="name" v="Tverrlimyra" />
		<tag k="natural" v="wetland" />
		<tag k="ssr:stedsnr" v="883111" />
	</node>
	<node id="-72952" lat="62.6056138864" lon="6.94143888816">
		<tag k="name" v="Orfonna" />
		<tag k="place" v="locality" />
		<tag k="ssr:stedsnr" v="641569" />
	</node>
	<node id="-72950" lat="62.5899555555" lon="7.08931388292">
		<tag k="name" v="Gråura" />
		<tag k="natural" v="scree" />
		<tag k="ssr:stedsnr" v="641548" />
	</node>
	<node id="-72426" lat="62.6311805565" lon="6.7655277781">
		<tag k="name" v="Ljøsmyran" />
>>>>>>> e1d4bc35ff8a6074a6f2e91616a996b547c36f15
		<tag k="natural" v="wetland" />
		<tag k="ssr:stedsnr" v="277549" />
	</node>
<<<<<<< HEAD
	<node lat="62.57312222118037" lon="7.056833325356127" id="-3492">
		<tag k="name" v="Fonna" />
=======
	<node id="-72936" lat="62.4852694485" lon="7.15494443791">
		<tag k="name" v="Langbrøtgjerdet" />
>>>>>>> e1d4bc35ff8a6074a6f2e91616a996b547c36f15
		<tag k="place" v="locality" />
		<tag k="ssr:stedsnr" v="277565" />
	</node>
<<<<<<< HEAD
	<node lat="62.58519444562722" lon="7.316502779237268" id="-3512">
		<tag k="name" v="Høgmyra" />
=======
	<node id="-72935" lat="62.4885555576" lon="7.14798334241">
		<tag k="name" v="Svortemyra" />
>>>>>>> e1d4bc35ff8a6074a6f2e91616a996b547c36f15
		<tag k="natural" v="wetland" />
		<tag k="ssr:stedsnr" v="279442" />
	</node>
<<<<<<< HEAD
	<node lat="62.55483333285596" lon="6.981013882594206" id="-3549">
		<tag k="name" v="Trollbotnmyra" />
		<tag k="natural" v="wetland" />
		<tag k="ssr:stedsnr" v="338064" />
	</node>
	<node lat="62.60333610833081" lon="7.056627778726001" id="-3568">
		<tag k="landuse" v="peat_cutting" />
		<tag k="name" v="Torvløene" />
		<tag k="ssr:stedsnr" v="338817" />
	</node>
	<node lat="62.56450833247616" lon="7.033591664143039" id="-3569">
		<tag k="name" v="Sprovsmarka" />
=======
	<node id="-71462" lat="62.6252333364" lon="7.0793555475">
		<tag k="name" v="Svingeilen" />
		<tag k="place" v="locality" />
		<tag k="ssr:stedsnr" v="95860" />
	</node>
	<node id="-72415" lat="62.625797221" lon="7.17112221967">
		<tag k="name" v="Storgeilen" />
>>>>>>> e1d4bc35ff8a6074a6f2e91616a996b547c36f15
		<tag k="place" v="locality" />
		<tag k="ssr:stedsnr" v="338837" />
	</node>
<<<<<<< HEAD
	<node lat="62.601144448129475" lon="6.826955554335435" id="-3585">
		<tag k="name" v="Aritvollen" />
		<tag k="place" v="locality" />
		<tag k="ssr:stedsnr" v="338958" />
	</node>
	<node lat="62.63431434345243" lon="6.737532472455074" id="-3591">
		<tag k="name" v="Bringebærura" />
		<tag k="natural" v="scree" />
		<tag k="ssr:stedsnr" v="339629" />
	</node>
	<node lat="62.62635555684739" lon="7.023608326003625" id="-3622">
		<tag k="name" v="Djupmyra" />
		<tag k="natural" v="wetland" />
		<tag k="ssr:stedsnr" v="376970" />
	</node>
	<node lat="62.62972222552918" lon="6.763036119320267" id="-3626">
		<tag k="name" v="Ljøsmyra" />
=======
	<node id="-72412" lat="62.5527055516" lon="6.95876111476">
		<tag k="name" v="Høgmyra" />
>>>>>>> e1d4bc35ff8a6074a6f2e91616a996b547c36f15
		<tag k="natural" v="wetland" />
		<tag k="ssr:stedsnr" v="397439" />
	</node>
<<<<<<< HEAD
	<node lat="62.525288885462516" lon="7.152486103247977" id="-3634">
		<tag k="name" v="Hoggefonnsanden" />
=======
	<node id="-72923" lat="62.6220527759" lon="6.77105554675">
		<tag k="name" v="Seljefonna" />
>>>>>>> e1d4bc35ff8a6074a6f2e91616a996b547c36f15
		<tag k="place" v="locality" />
		<tag k="ssr:stedsnr" v="398056" />
	</node>
<<<<<<< HEAD
	<node lat="62.5287277787762" lon="7.211830547056806" id="-3642">
		<tag k="name" v="Jolgrøin" />
=======
	<node id="-72409" lat="62.5767166712" lon="6.8916805597">
		<tag k="name" v="Ånesmyra" />
>>>>>>> e1d4bc35ff8a6074a6f2e91616a996b547c36f15
		<tag k="natural" v="wetland" />
		<tag k="ssr:stedsnr" v="398540" />
	</node>
<<<<<<< HEAD
	<node lat="62.543522220393356" lon="7.23274722296236" id="-3645">
		<tag k="name" v="Risura" />
		<tag k="natural" v="scree" />
		<tag k="ssr:stedsnr" v="398517" />
	</node>
	<node lat="62.614425002945325" lon="6.966538887764054" id="-3646">
		<tag k="name" v="Uramyra" />
=======
	<node id="-72408" lat="62.5681722258" lon="7.03363610356">
		<tag k="name" v="Nyvegfonna" />
		<tag k="place" v="locality" />
		<tag k="ssr:stedsnr" v="95837" />
	</node>
	<node id="-71894" lat="62.6459305528" lon="7.04891945106">
		<tag k="name" v="Hagardsmyra" />
>>>>>>> e1d4bc35ff8a6074a6f2e91616a996b547c36f15
		<tag k="natural" v="wetland" />
		<tag k="ssr:stedsnr" v="398621" />
	</node>
<<<<<<< HEAD
	<node lat="62.52535555991679" lon="7.143913893370119" id="-3655">
		<tag k="name" v="Røysa" />
=======
	<node id="-71890" lat="62.4868055559" lon="7.11080000623">
		<tag k="name" v="Storura" />
>>>>>>> e1d4bc35ff8a6074a6f2e91616a996b547c36f15
		<tag k="natural" v="scree" />
		<tag k="ssr:stedsnr" v="398672" />
	</node>
<<<<<<< HEAD
	<node lat="62.60628610928954" lon="7.056966675909397" id="-3665">
		<tag k="name" v="Stakkmyran" />
		<tag k="natural" v="wetland" />
		<tag k="ssr:stedsnr" v="398819" />
	</node>
	<node lat="62.60676110711353" lon="6.848174993034457" id="-3680">
		<tag k="name" v="Kringlemyra" />
=======
	<node id="-72401" lat="62.5263166683" lon="7.20133055361">
		<tag k="name" v="Trollvassura" />
		<tag k="natural" v="scree" />
		<tag k="ssr:stedsnr" v="95744" />
	</node>
	<node id="-72398" lat="62.5518944459" lon="7.08219722497">
		<tag k="name" v="Myrane" />
>>>>>>> e1d4bc35ff8a6074a6f2e91616a996b547c36f15
		<tag k="natural" v="wetland" />
		<tag k="ssr:stedsnr" v="400658" />
	</node>
<<<<<<< HEAD
	<node lat="62.572383337191816" lon="7.371705564795269" id="-3706">
		<tag k="name" v="Gråbein-Ivarsletta" />
		<tag k="natural" v="wetland" />
		<tag k="ssr:stedsnr" v="446656" />
	</node>
	<node lat="62.55760833683876" lon="7.114997220346681" id="-3733">
		<tag k="name" v="Moltemyra" />
		<tag k="natural" v="wetland" />
		<tag k="ssr:stedsnr" v="520040" />
	</node>
	<node lat="62.49297222644195" lon="7.156613895466965" id="-3738">
		<tag k="name" v="Staurgjerda" />
=======
	<node id="-72396" lat="62.5229277763" lon="7.13684443824">
		<tag k="name" v="Langøyra" />
>>>>>>> e1d4bc35ff8a6074a6f2e91616a996b547c36f15
		<tag k="place" v="locality" />
		<tag k="ssr:stedsnr" v="520082" />
	</node>
	<node lat="62.5562499984909" lon="7.207402770472019" id="-3763">
		<tag k="name" v="Laddestauå" />
		<tag k="natural" v="stone" />
		<tag k="ssr:stedsnr" v="520744" />
	</node>
<<<<<<< HEAD
	<node lat="62.59964444010245" lon="7.247505551683528" id="-3770">
=======
	<node id="-71883" lat="62.5794555564" lon="7.0767527866">
>>>>>>> e1d4bc35ff8a6074a6f2e91616a996b547c36f15
		<tag k="name" v="Myran" />
		<tag k="natural" v="wetland" />
		<tag k="ssr:stedsnr" v="521189" />
	</node>
<<<<<<< HEAD
	<node lat="62.48005833772581" lon="7.1255000054223645" id="-3777">
		<tag k="name" v="Ronsvåta" />
		<tag k="natural" v="wetland" />
		<tag k="old_name" v="Ronsvåtå" />
		<tag k="ssr:stedsnr" v="556392" />
	</node>
	<node lat="62.57945555636303" lon="7.07675278660468" id="-3805">
		<tag k="name" v="Myran" />
		<tag k="natural" v="wetland" />
		<tag k="ssr:stedsnr" v="580533" />
	</node>
	<node lat="62.59250555489059" lon="7.044002768191464" id="-3808">
		<tag k="name" v="Mjølbørå" />
		<tag k="natural" v="glacier" />
		<tag k="ssr:stedsnr" v="580580" />
	</node>
	<node lat="62.56933333121083" lon="7.09087499161431" id="-3814">
=======
	<node id="-71869" lat="62.5678611104" lon="6.83615278279">
		<tag k="name" v="Lødesteinen" />
		<tag k="natural" v="stone" />
		<tag k="ssr:stedsnr" v="579105" />
	</node>
	<node id="-72890" lat="62.5693333312" lon="7.09087499161">
>>>>>>> e1d4bc35ff8a6074a6f2e91616a996b547c36f15
		<tag k="name" v="Kjelbotnøyan" />
		<tag k="place" v="locality" />
		<tag k="ssr:stedsnr" v="580797" />
	</node>
<<<<<<< HEAD
	<node lat="62.48680555594902" lon="7.110800006226706" id="-3819">
		<tag k="name" v="Storura" />
		<tag k="natural" v="scree" />
		<tag k="ssr:stedsnr" v="580674" />
	</node>
	<node lat="62.49279444372034" lon="7.147700008184023" id="-3822">
		<tag k="name" v="Drågmyra" />
		<tag k="natural" v="wetland" />
		<tag k="ssr:stedsnr" v="580688" />
	</node>
	<node lat="62.566699995931465" lon="7.056325003755928" id="-3825">
=======
	<node id="-72889" lat="62.5666999959" lon="7.05632500376">
>>>>>>> e1d4bc35ff8a6074a6f2e91616a996b547c36f15
		<tag k="name" v="Kristisetermyran" />
		<tag k="natural" v="wetland" />
		<tag k="ssr:stedsnr" v="580785" />
	</node>
<<<<<<< HEAD
	<node lat="62.64593055283531" lon="7.04891945106447" id="-3829">
		<tag k="name" v="Hagardsmyra" />
		<tag k="natural" v="wetland" />
		<tag k="ssr:stedsnr" v="580879" />
	</node>
	<node lat="62.62300833382051" lon="6.942369446887279" id="-3830">
		<tag k="name" v="Kjellnesmyra" />
=======
	<node id="-72375" lat="62.5004416671" lon="7.14533610823">
		<tag k="name" v="Fåtjønnbyta" />
		<tag k="place" v="locality" />
		<tag k="ssr:stedsnr" v="95008" />
	</node>
	<node id="-71860" lat="62.5815833289" lon="6.89308888653">
		<tag k="name" v="Gamlefonna" />
		<tag k="place" v="locality" />
		<tag k="ssr:stedsnr" v="702928" />
	</node>
	<node id="-71855" lat="62.5949686193" lon="7.0757500704">
		<tag k="name" v="Memorgosteinen" />
		<tag k="natural" v="stone" />
		<tag k="ssr:stedsnr" v="702764" />
	</node>
	<node id="-71854" lat="62.4774361087" lon="7.16885000603">
		<tag k="name" v="Skorksmyra" />
>>>>>>> e1d4bc35ff8a6074a6f2e91616a996b547c36f15
		<tag k="natural" v="wetland" />
		<tag k="ssr:stedsnr" v="580882" />
	</node>
<<<<<<< HEAD
	<node lat="62.58994444192598" lon="7.289277769212238" id="-3845">
		<tag k="name" v="Nyfonnsvaet" />
		<tag k="place" v="locality" />
		<tag k="ssr:stedsnr" v="582772" />
	</node>
	<node lat="62.61904999852366" lon="7.270488891368962" id="-3879">
		<tag k="name" v="Mortura" />
=======
	<node id="-72877" lat="62.6133166648" lon="6.98471666457">
		<tag k="name" v="Kyrkjesletta" />
		<tag k="natural" v="wetland" />
		<tag k="ssr:stedsnr" v="580891" />
	</node>
	<node id="-71852" lat="62.5334527798" lon="7.20450555354">
		<tag k="name" v="Urvassura" />
>>>>>>> e1d4bc35ff8a6074a6f2e91616a996b547c36f15
		<tag k="natural" v="scree" />
		<tag k="ssr:stedsnr" v="628636" />
	</node>
<<<<<<< HEAD
	<node lat="62.4885555576004" lon="7.147983342413814" id="-3893">
		<tag k="name" v="Svortemyra" />
=======
	<node id="-72306" lat="62.6424361153" lon="7.07703610502">
		<tag k="name" v="Stormyra" />
		<tag k="natural" v="wetland" />
		<tag k="ssr:stedsnr" v="34592" />
	</node>
	<node id="-72874" lat="62.6230083338" lon="6.94236944689">
		<tag k="name" v="Kjellnesmyra" />
>>>>>>> e1d4bc35ff8a6074a6f2e91616a996b547c36f15
		<tag k="natural" v="wetland" />
		<tag k="ssr:stedsnr" v="641074" />
	</node>
<<<<<<< HEAD
	<node lat="62.48526944845752" lon="7.154944437914114" id="-3894">
		<tag k="name" v="Langbrøtgjerdet" />
		<tag k="place" v="locality" />
		<tag k="ssr:stedsnr" v="641078" />
	</node>
	<node lat="62.58995555552667" lon="7.089313882923417" id="-3901">
		<tag k="name" v="Gråura" />
=======
	<node id="-71708" lat="62.5645083325" lon="7.03359166414">
		<tag k="name" v="Sprovsmarka" />
		<tag k="place" v="locality" />
		<tag k="ssr:stedsnr" v="338837" />
	</node>
	<node id="-71844" lat="62.5300611072" lon="6.96727500714">
		<tag k="name" v="Vargura" />
>>>>>>> e1d4bc35ff8a6074a6f2e91616a996b547c36f15
		<tag k="natural" v="scree" />
		<tag k="ssr:stedsnr" v="641548" />
	</node>
<<<<<<< HEAD
	<node lat="62.605613886433225" lon="6.9414388881571085" id="-3909">
		<tag k="name" v="Orfonna" />
=======
	<node id="-72866" lat="62.4946722249" lon="7.13979167401">
		<tag k="name" v="Øybyta" />
>>>>>>> e1d4bc35ff8a6074a6f2e91616a996b547c36f15
		<tag k="place" v="locality" />
		<tag k="ssr:stedsnr" v="641569" />
	</node>
<<<<<<< HEAD
	<node lat="62.529575000168215" lon="7.1515555617518665" id="-3912">
		<tag k="name" v="Storura" />
		<tag k="natural" v="scree" />
		<tag k="ssr:stedsnr" v="641662" />
	</node>
	<node lat="62.61453888857491" lon="7.269724992456093" id="-3931">
		<tag k="name" v="Rønningan" />
=======
	<node id="-72865" lat="62.4927944437" lon="7.14770000818">
		<tag k="name" v="Drågmyra" />
		<tag k="natural" v="wetland" />
		<tag k="ssr:stedsnr" v="580688" />
	</node>
	<node id="-72859" lat="62.5802805587" lon="6.88956110567">
		<tag k="name" v="Nyfonna" />
>>>>>>> e1d4bc35ff8a6074a6f2e91616a996b547c36f15
		<tag k="place" v="locality" />
		<tag k="ssr:stedsnr" v="642066" />
	</node>
<<<<<<< HEAD
	<node lat="62.49636110974007" lon="7.136622225366457" id="-3970">
		<tag k="name" v="Lensmannssletta" />
		<tag k="place" v="locality" />
		<tag k="ssr:stedsnr" v="762029" />
	</node>
	<node lat="62.55538611403291" lon="7.119305560903259" id="-3971">
		<tag k="name" v="Klingretemyra" />
		<tag k="natural" v="wetland" />
		<tag k="ssr:stedsnr" v="762034" />
	</node>
	<node lat="62.58907500385531" lon="6.795816659382031" id="-3972">
		<tag k="name" v="Røyrholmane" />
		<tag k="natural" v="wetland" />
		<tag k="ssr:stedsnr" v="762322" />
	</node>
	<node lat="62.61375833037616" lon="6.954752778491394" id="-3974">
		<tag k="name" v="Vikmyra" />
		<tag k="natural" v="wetland" />
		<tag k="ssr:stedsnr" v="762612" />
	</node>
	<node lat="62.61349999676358" lon="6.857336106780589" id="-3976">
		<tag k="name" v="Gråmyra" />
=======
	<node id="-72858" lat="62.5925055549" lon="7.04400276819">
		<tag k="name" v="Mjølbørå" />
		<tag k="natural" v="glacier" />
		<tag k="ssr:stedsnr" v="580580" />
	</node>
	<node id="-71829" lat="62.4798972188" lon="7.17216666894">
		<tag k="name" v="Demma" />
		<tag k="natural" v="wetland" />
		<tag k="ssr:stedsnr" v="702543" />
	</node>
	<node id="-71827" lat="62.6197694429" lon="6.83859167605">
		<tag k="name" v="Hundeura" />
		<tag k="natural" v="scree" />
		<tag k="ssr:stedsnr" v="702625" />
	</node>
	<node id="-72338" lat="62.6516388869" lon="6.75565554775">
		<tag k="name" v="Sortemyra" />
		<tag k="natural" v="wetland" />
		<tag k="ssr:stedsnr" v="34988" />
	</node>
	<node id="-71819" lat="62.5568722194" lon="6.98704444818">
		<tag k="name" v="Trollbotnmyra" />
>>>>>>> e1d4bc35ff8a6074a6f2e91616a996b547c36f15
		<tag k="natural" v="wetland" />
		<tag k="ssr:stedsnr" v="762624" />
	</node>
<<<<<<< HEAD
	<node lat="62.60122499586975" lon="6.844458342575042" id="-3977">
		<tag k="name" v="Stormyra" />
=======
	<node id="-72834" lat="62.4800583377" lon="7.12550000542">
		<tag k="name" v="Ronsvåta" />
>>>>>>> e1d4bc35ff8a6074a6f2e91616a996b547c36f15
		<tag k="natural" v="wetland" />
		<tag k="ssr:stedsnr" v="762637" />
	</node>
<<<<<<< HEAD
	<node lat="62.593341666104116" lon="7.049044441645814" id="-3979">
		<tag k="name" v="Mjølbørå" />
=======
	<node id="-72830" lat="62.6401166643" lon="6.81206944553">
		<tag k="name" v="Hesthagen" />
>>>>>>> e1d4bc35ff8a6074a6f2e91616a996b547c36f15
		<tag k="place" v="locality" />
		<tag k="ssr:stedsnr" v="762554" />
	</node>
<<<<<<< HEAD
	<node lat="62.62497777745592" lon="7.035458328414337" id="-3982">
		<tag k="name" v="Lerøysa" />
		<tag k="natural" v="scree" />
		<tag k="ssr:stedsnr" v="762572" />
	</node>
	<node lat="62.571641669239376" lon="6.863466661834156" id="-3989">
		<tag k="name" v="Tverrlimyra" />
=======
	<node id="-72316" lat="62.5796500039" lon="7.19974166168">
		<tag k="name" v="Brattmyra" />
>>>>>>> e1d4bc35ff8a6074a6f2e91616a996b547c36f15
		<tag k="natural" v="wetland" />
		<tag k="ssr:stedsnr" v="762904" />
	</node>
<<<<<<< HEAD
	<node lat="62.56022221985465" lon="7.002047228573262" id="-3998">
		<tag k="name" v="Løken" />
=======
	<node id="-72825" lat="62.6305749966" lon="7.03443610462">
		<tag k="name" v="Tømmerskogmyra" />
>>>>>>> e1d4bc35ff8a6074a6f2e91616a996b547c36f15
		<tag k="natural" v="wetland" />
		<tag k="ssr:stedsnr" v="763722" />
	</node>
<<<<<<< HEAD
	<node lat="62.54327499752511" lon="6.984397220943886" id="-3999">
		<tag k="name" v="Nyfonna" />
		<tag k="place" v="locality" />
		<tag k="ssr:stedsnr" v="763724" />
	</node>
	<node lat="62.55935555985483" lon="6.997236107798516" id="-4000">
		<tag k="name" v="Småøyane" />
=======
	<node id="-72310" lat="62.5139611098" lon="7.13220833534">
		<tag k="name" v="Korsøyna" />
		<tag k="place" v="locality" />
		<tag k="ssr:stedsnr" v="34655" />
	</node>
	<node id="-71357" lat="62.607469448" lon="7.0582027842">
		<tag k="name" v="Stakkmyran" />
		<tag k="natural" v="wetland" />
		<tag k="ssr:stedsnr" v="217798" />
	</node>
	<node id="-72818" lat="62.6072861148" lon="7.14806389219">
		<tag k="landuse" v="meadow" />
		<tag k="name" v="Nilsgjerda" />
		<tag k="ssr:stedsnr" v="520860" />
	</node>
	<node id="-72301" lat="62.5913916706" lon="7.07458055597">
		<tag k="name" v="Myran" />
>>>>>>> e1d4bc35ff8a6074a6f2e91616a996b547c36f15
		<tag k="natural" v="wetland" />
		<tag k="ssr:stedsnr" v="763726" />
	</node>
<<<<<<< HEAD
	<node lat="62.577052777203264" lon="7.1959388983711845" id="-4002">
		<tag k="name" v="Hålgjerde" />
		<tag k="natural" v="wetland" />
		<tag k="ssr:stedsnr" v="763731" />
	</node>
	<node lat="62.65047777732115" lon="7.073863894813391" id="-4006">
		<tag k="name" v="Rørhjellmyra" />
=======
	<node id="-72298" lat="62.5838055598" lon="7.15905832664">
		<tag k="name" v="Langura" />
		<tag k="natural" v="scree" />
		<tag k="ssr:stedsnr" v="34535" />
	</node>
	<node id="-72297" lat="62.5528472232" lon="7.17572499284">
		<tag k="name" v="Myrane" />
>>>>>>> e1d4bc35ff8a6074a6f2e91616a996b547c36f15
		<tag k="natural" v="wetland" />
		<tag k="ssr:stedsnr" v="763832" />
	</node>
<<<<<<< HEAD
	<node lat="62.56733055550445" lon="7.065947231168248" id="-4013">
		<tag k="name" v="Kristiseterøyan" />
		<tag k="place" v="locality" />
		<tag k="ssr:stedsnr" v="763783" />
	</node>
	<node lat="62.578516668408575" lon="7.2041777839242185" id="-4060">
		<tag k="name" v="Risura" />
=======
	<node id="-72296" lat="62.5752083348" lon="7.2060138935">
		<tag k="name" v="Steinan" />
>>>>>>> e1d4bc35ff8a6074a6f2e91616a996b547c36f15
		<tag k="natural" v="scree" />
		<tag k="ssr:stedsnr" v="823528" />
	</node>
<<<<<<< HEAD
	<node lat="62.47320000282414" lon="7.184508337337669" id="-4061">
		<tag k="name" v="Myrane" />
		<tag k="natural" v="wetland" />
		<tag k="ssr:stedsnr" v="823549" />
	</node>
	<node lat="62.5590194427965" lon="6.9953388909996645" id="-4092">
		<tag k="name" v="Rikardøyna" />
		<tag k="natural" v="wetland" />
		<tag k="ssr:stedsnr" v="824093" />
	</node>
	<node lat="62.537352781226076" lon="6.935688897366877" id="-4094">
		<tag k="name" v="Skitnesetermyra" />
		<tag k="natural" v="wetland" />
		<tag k="ssr:stedsnr" v="824100" />
	</node>
	<node lat="62.57247222511409" lon="7.202925006331454" id="-4097">
		<tag k="name" v="Villamyran" />
=======
	<node id="-72807" lat="62.5487111094" lon="7.21431944907">
		<tag k="name" v="Haljesteinen" />
		<tag k="natural" v="stone" />
		<tag k="ssr:stedsnr" v="520777" />
	</node>
	<node id="-72803" lat="62.5562499985" lon="7.20740277047">
		<tag k="name" v="Laddestauå" />
		<tag k="natural" v="stone" />
		<tag k="ssr:stedsnr" v="520744" />
	</node>
	<node id="-71354" lat="62.6150749996" lon="7.06754445003">
		<tag k="name" v="Misfjordskogen" />
		<tag k="place" v="locality" />
		<tag k="ssr:stedsnr" v="217792" />
	</node>
	<node id="-72280" lat="62.5374833309" lon="7.0644166632">
		<tag k="name" v="Løvikmyrane" />
>>>>>>> e1d4bc35ff8a6074a6f2e91616a996b547c36f15
		<tag k="natural" v="wetland" />
		<tag k="ssr:stedsnr" v="824758" />
	</node>
<<<<<<< HEAD
	<node lat="62.56096944440961" lon="7.389563897324441" id="-4124">
		<tag k="name" v="Stolssvaet" />
		<tag k="place" v="locality" />
		<tag k="ssr:stedsnr" v="861516" />
	</node>
	<node lat="62.61718332937676" lon="7.045011121005493" id="-4144">
		<tag k="landuse" v="meadow" />
		<tag k="name" v="Røstavollen" />
		<tag k="ssr:stedsnr" v="884885" />
	</node>
	<node lat="62.63059444194939" lon="7.075216672924971" id="-4171">
		<tag k="name" v="Vollan" />
		<tag k="place" v="locality" />
		<tag k="ssr:stedsnr" v="884577" />
	</node>
	<node lat="62.566511114181054" lon="7.062233332616168" id="-4175">
		<tag k="name" v="Strupen" />
=======
	<node id="-72786" lat="62.4715694449" lon="7.17052776827">
		<tag k="name" v="Skorsura" />
		<tag k="natural" v="scree" />
		<tag k="ssr:stedsnr" v="520565" />
	</node>
	<node id="-72271" lat="62.5024111139" lon="7.07334444875">
		<tag k="name" v="Nakkemyrane" />
		<tag k="natural" v="wetland" />
		<tag k="ssr:stedsnr" v="34023" />
	</node>
	<node id="-71758" lat="62.4997250005" lon="7.14084999173">
		<tag k="name" v="Storhellå" />
		<tag k="natural" v="stone" />
		<tag k="ssr:stedsnr" v="398009" />
	</node>
	<node id="-72781" lat="62.4929722264" lon="7.15661389547">
		<tag k="name" v="Staurgjerda" />
>>>>>>> e1d4bc35ff8a6074a6f2e91616a996b547c36f15
		<tag k="place" v="locality" />
		<tag k="ssr:stedsnr" v="884533" />
	</node>
<<<<<<< HEAD
	<node lat="62.58728055558869" lon="7.158033324447013" id="-4176">
		<tag k="name" v="Gråura" />
		<tag k="natural" v="scree" />
		<tag k="ssr:stedsnr" v="884542" />
	</node>
	<node lat="62.592172219075806" lon="7.348038883821425" id="-4238">
		<tag k="name" v="Øyran" />
		<tag k="place" v="locality" />
		<tag k="ssr:stedsnr" v="946660" />
=======
	<node id="-72778" lat="62.5346333297" lon="6.95847222602">
		<tag k="name" v="Auspholmyran" />
		<tag k="natural" v="wetland" />
		<tag k="ssr:stedsnr" v="520070" />
	</node>
	<node id="-72772" lat="62.5576083368" lon="7.11499722035">
		<tag k="name" v="Moltemyra" />
		<tag k="natural" v="wetland" />
		<tag k="ssr:stedsnr" v="520040" />
>>>>>>> e1d4bc35ff8a6074a6f2e91616a996b547c36f15
	</node>
	<node id="-71488" lat="62.4956722262" lon="7.13667499326">
		<tag k="name" v="Råhøybakken" />
		<tag k="place" v="locality" />
		<tag k="ssr:stedsnr" v="277023" />
	</node>
	<node id="-72748" lat="62.6067611071" lon="6.84817499303">
		<tag k="name" v="Kringlemyra" />
		<tag k="natural" v="wetland" />
		<tag k="ssr:stedsnr" v="400658" />
	</node>
	<node id="-72741" lat="62.6386805553" lon="6.80453889175">
		<tag k="name" v="Fonnhaugmyra" />
		<tag k="natural" v="wetland" />
		<tag k="ssr:stedsnr" v="398928" />
	</node>
	<node id="-72283" lat="62.5494333304" lon="6.97898610374">
		<tag k="name" v="Bjønnafonna" />
		<tag k="place" v="locality" />
		<tag k="ssr:stedsnr" v="34086" />
	</node>
	<node id="-71711" lat="62.6343143435" lon="6.73753247246">
		<tag k="name" v="Bringebærura" />
		<tag k="natural" v="scree" />
		<tag k="ssr:stedsnr" v="339629" />
	</node>
	<node id="-72732" lat="62.5682111079" lon="7.01708889687">
		<tag k="name" v="Ryggjefonna" />
		<tag k="place" v="locality" />
		<tag k="ssr:stedsnr" v="398836" />
	</node>
	<node id="-71707" lat="62.6033361083" lon="7.05662777873">
		<tag k="landuse" v="peat_cutting" />
		<tag k="name" v="Torvløene" />
		<tag k="ssr:stedsnr" v="338817" />
	</node>
	<node id="-72729" lat="62.6062861093" lon="7.05696667591">
		<tag k="name" v="Stakkmyran" />
		<tag k="natural" v="wetland" />
		<tag k="ssr:stedsnr" v="398819" />
	</node>
	<node id="-71703" lat="62.470483331" lon="7.15845555627">
		<tag k="name" v="Storsteinane" />
		<tag k="natural" v="stone" />
		<tag k="ssr:stedsnr" v="338095" />
	</node>
	<node id="-71700" lat="62.5548333329" lon="6.98101388259">
		<tag k="name" v="Trollbotnmyra" />
		<tag k="natural" v="wetland" />
		<tag k="ssr:stedsnr" v="338064" />
	</node>
	<node id="-73038" lat="62.6012249959" lon="6.84445834258">
		<tag k="name" v="Stormyra" />
		<tag k="natural" v="wetland" />
		<tag k="ssr:stedsnr" v="762637" />
	</node>
	<node id="-71340" lat="62.5665638918" lon="7.20571666543">
		<tag k="name" v="Daugstadmyran" />
		<tag k="natural" v="wetland" />
		<tag k="ssr:stedsnr" v="217725" />
	</node>
	<node id="-72193" lat="62.6281083351" lon="6.76262499952">
		<tag k="name" v="Setertjønna" />
		<tag k="natural" v="wetland" />
		<tag k="ssr:stedsnr" v="883510" />
	</node>
	<node id="-72705" lat="62.5253555599" lon="7.14391389337">
		<tag k="name" v="Røysa" />
		<tag k="natural" v="scree" />
		<tag k="ssr:stedsnr" v="398672" />
	</node>
</osm>
