<?xml version="1.0" encoding="UTF-8"?>
<osm generator="osmapis" version="0.6">
	<node id="-579583" lat="62.4927666649" lon="7.00721666193">
		<tag k="fixme" v="consider natural=peak for the most distinct mountains in the district" />
		<tag k="name" v="Neremstindan" />
		<tag k="natural" v="hill" />
		<tag k="place" v="locality" />
		<tag k="ssr:stedsnr" v="193302" />
	</node>
	<node id="-579575" lat="62.6529749995" lon="7.05924999456">
		<tag k="name" v="Saltneshella" />
		<tag k="place" v="locality" />
		<tag k="ssr:stedsnr" v="172802" />
	</node>
	<node id="-579571" lat="62.6322805582" lon="6.82559722063">
		<tag k="name" v="Galteteigane" />
		<tag k="natural" v="slope" />
		<tag k="place" v="locality" />
		<tag k="ssr:stedsnr" v="156937" />
	</node>
	<node id="-579570" lat="62.6335805516" lon="6.81951110522">
		<tag k="name" v="Storteigane" />
		<tag k="natural" v="slope" />
		<tag k="place" v="locality" />
		<tag k="ssr:stedsnr" v="156936" />
	</node>
	<node id="-579564" lat="62.6292000019" lon="7.08567776863">
		<tag k="name" v="Snauberget" />
		<tag k="natural" v="hill" />
		<tag k="place" v="locality" />
		<tag k="ssr:stedsnr" v="156872" />
	</node>
	<node id="-579559" lat="62.5642944443" lon="7.11453612004">
		<tag k="name" v="Seljeåsen" />
		<tag k="natural" v="hill" />
		<tag k="place" v="locality" />
		<tag k="ssr:stedsnr" v="156802" />
	</node>
	<node id="-579558" lat="62.5973666695" lon="7.0879416636">
		<tag k="name" v="Øygardslia" />
		<tag k="natural" v="slope" />
		<tag k="place" v="locality" />
		<tag k="ssr:stedsnr" v="156794" />
	</node>
	<node id="-579557" lat="62.5805222231" lon="7.05301667245">
		<tag k="name" v="Brastadholet" />
		<tag k="natural" v="valley" />
		<tag k="place" v="locality" />
		<tag k="ssr:stedsnr" v="156782" />
	</node>
	<node id="-579556" lat="62.585819447" lon="7.16346111954">
		<tag k="name" v="Vasshamran" />
		<tag k="natural" v="slope" />
		<tag k="place" v="locality" />
		<tag k="ssr:stedsnr" v="156778" />
	</node>
	<node id="-579555" lat="62.5288944474" lon="7.19326389326">
		<tag k="name" v="Småbotnin" />
		<tag k="natural" v="valley" />
		<tag k="place" v="locality" />
		<tag k="ssr:stedsnr" v="156770" />
	</node>
	<node id="-579554" lat="62.4674499988" lon="7.17840278245">
		<tag k="name" v="Snipphammaren" />
		<tag k="natural" v="cliff" />
		<tag k="ssr:stedsnr" v="156765" />
	</node>
	<node id="-579552" lat="62.5791055582" lon="7.15698889211">
		<tag k="name" v="Skyslettin" />
		<tag k="natural" v="slope" />
		<tag k="place" v="locality" />
		<tag k="ssr:stedsnr" v="156744" />
	</node>
	<node id="-579548" lat="62.6152750017" lon="7.17833056088">
		<tag k="name" v="Ljøsbakkan" />
		<tag k="natural" v="slope" />
		<tag k="place" v="locality" />
		<tag k="ssr:stedsnr" v="156728" />
	</node>
	<node id="-579546" lat="62.5721472265" lon="7.1906611077">
		<tag k="name" v="Tjellgjerda" />
		<tag k="natural" v="slope" />
		<tag k="place" v="locality" />
		<tag k="ssr:stedsnr" v="156721" />
	</node>
	<node id="-579545" lat="62.6038722212" lon="7.19562499127">
		<tag k="name" v="Langskaret" />
		<tag k="natural" v="valley" />
		<tag k="place" v="locality" />
		<tag k="ssr:stedsnr" v="156716" />
	</node>
	<node id="-579544" lat="62.5421944412" lon="6.94683888026">
		<tag k="name" v="Dallia" />
		<tag k="natural" v="slope" />
		<tag k="place" v="locality" />
		<tag k="ssr:stedsnr" v="156710" />
	</node>
	<node id="-579543" lat="62.5556250024" lon="6.95862222861">
		<tag k="name" v="Grøfså" />
		<tag k="natural" v="valley" />
		<tag k="place" v="locality" />
		<tag k="ssr:stedsnr" v="156709" />
	</node>
	<node id="-579542" lat="62.5209444446" lon="6.9733027851">
		<tag k="name" v="Måslia" />
		<tag k="natural" v="slope" />
		<tag k="place" v="locality" />
		<tag k="ssr:stedsnr" v="156698" />
	</node>
	<node id="-579539" lat="62.4830666626" lon="7.16321944231">
		<tag k="name" v="Gjerda" />
		<tag k="natural" v="slope" />
		<tag k="place" v="locality" />
		<tag k="ssr:stedsnr" v="156681" />
	</node>
	<node id="-579538" lat="62.5151166695" lon="7.12720278246">
		<tag k="name" v="Sjødalen" />
		<tag k="natural" v="valley" />
		<tag k="place" v="locality" />
		<tag k="ssr:stedsnr" v="156668" />
	</node>
	<node id="-579535" lat="62.6365916641" lon="6.81085000309">
		<tag k="name" v="Haugen" />
		<tag k="natural" v="hill" />
		<tag k="place" v="locality" />
		<tag k="ssr:stedsnr" v="156657" />
	</node>
	<node id="-579534" lat="62.5439833372" lon="7.16300278219">
		<tag k="name" v="Hoemslia" />
		<tag k="natural" v="slope" />
		<tag k="place" v="locality" />
		<tag k="ssr:stedsnr" v="156652" />
	</node>
	<node id="-579532" lat="62.6090472253" lon="6.81598611131">
		<tag k="name" v="Nakkane" />
		<tag k="natural" v="hill" />
		<tag k="place" v="locality" />
		<tag k="ssr:stedsnr" v="156638" />
	</node>
	<node id="-579531" lat="62.6083111123" lon="6.87741666868">
		<tag k="name" v="Liarøra" />
		<tag k="natural" v="ridge" />
		<tag k="place" v="locality" />
		<tag k="ssr:stedsnr" v="156639" />
	</node>
	<node id="-579529" lat="62.6520805521" lon="6.9778944505">
		<tag k="name" v="Reset" />
		<tag k="natural" v="ridge" />
		<tag k="place" v="locality" />
		<tag k="ssr:stedsnr" v="156626" />
	</node>
	<node id="-579528" lat="62.5717416676" lon="6.88707499935">
		<tag k="name" v="Fonna" />
		<tag k="natural" v="slope" />
		<tag k="place" v="locality" />
		<tag k="ssr:stedsnr" v="156617" />
	</node>
	<node id="-579527" lat="62.6095750021" lon="7.02863889059">
		<tag k="name" v="Gjerda" />
		<tag k="natural" v="slope" />
		<tag k="place" v="locality" />
		<tag k="ssr:stedsnr" v="156605" />
	</node>
	<node id="-579524" lat="62.6045722206" lon="7.05005276899">
		<tag k="name" v="Lægda" />
		<tag k="natural" v="slope" />
		<tag k="place" v="locality" />
		<tag k="ssr:stedsnr" v="156590" />
	</node>
	<node id="-579523" lat="62.574280557" lon="7.10906944502">
		<tag k="name" v="Nøsa" />
		<tag k="natural" v="ridge" />
		<tag k="place" v="locality" />
		<tag k="ssr:stedsnr" v="156570" />
	</node>
	<node id="-579522" lat="62.5714944409" lon="7.06028056542">
		<tag k="name" v="Teigan" />
		<tag k="natural" v="slope" />
		<tag k="place" v="locality" />
		<tag k="ssr:stedsnr" v="156564" />
	</node>
	<node id="-579521" lat="62.5435027796" lon="7.22077222404">
		<tag k="name" v="Botnen" />
		<tag k="natural" v="valley" />
		<tag k="place" v="locality" />
		<tag k="ssr:stedsnr" v="156543" />
	</node>
	<node id="-579511" lat="62.5569666709" lon="6.85884443712">
		<tag k="name" v="Frostaddalen" />
		<tag k="natural" v="valley" />
		<tag k="place" v="locality" />
		<tag k="ssr:stedsnr" v="156150" />
	</node>
	<node id="-579510" lat="62.4794361119" lon="7.06051388632">
		<tag k="name" v="Gamlesetermarka" />
		<tag k="natural" v="slope" />
		<tag k="place" v="locality" />
		<tag k="ssr:stedsnr" v="156104" />
	</node>
	<node id="-579509" lat="62.4699083365" lon="7.16184443614">
		<tag k="name" v="Skorkjaskredene" />
		<tag k="natural" v="slope" />
		<tag k="place" v="locality" />
		<tag k="ssr:stedsnr" v="156102" />
	</node>
	<node id="-579507" lat="62.5453916673" lon="6.96951110135">
		<tag k="name" v="Nyfonnslætta" />
		<tag k="natural" v="slope" />
		<tag k="place" v="locality" />
		<tag k="ssr:stedsnr" v="156072" />
	</node>
	<node id="-579506" lat="62.5563666647" lon="6.99242499965">
		<tag k="name" v="Trollbotnrøra" />
		<tag k="natural" v="ridge" />
		<tag k="place" v="locality" />
		<tag k="ssr:stedsnr" v="156071" />
	</node>
	<node id="-579505" lat="62.5361194482" lon="7.15592223161">
		<tag k="name" v="Breifonndalen" />
		<tag k="natural" v="valley" />
		<tag k="place" v="locality" />
		<tag k="ssr:stedsnr" v="156062" />
	</node>
	<node id="-579502" lat="62.5048111123" lon="7.10593055836">
		<tag k="name" v="Sjørsletta" />
		<tag k="natural" v="slope" />
		<tag k="place" v="locality" />
		<tag k="ssr:stedsnr" v="156017" />
	</node>
	<node id="-579501" lat="62.4991222238" lon="7.09782499905">
		<tag k="name" v="Risbruhaugen" />
		<tag k="natural" v="hill" />
		<tag k="place" v="locality" />
		<tag k="ssr:stedsnr" v="156018" />
	</node>
	<node id="-579499" lat="62.5353444441" lon="7.10919721259">
		<tag k="name" v="Eidhammarslia" />
		<tag k="natural" v="slope" />
		<tag k="place" v="locality" />
		<tag k="ssr:stedsnr" v="156004" />
	</node>
	<node id="-579497" lat="62.6349555584" lon="6.7276055634">
		<tag k="name" v="Hestenebba" />
		<tag k="natural" v="cliff" />
		<tag k="ssr:stedsnr" v="155317" />
	</node>
	<node id="-579496" lat="62.6387138871" lon="6.73546943643">
		<tag k="name" v="Hestebakken" />
		<tag k="place" v="locality" />
		<tag k="ssr:stedsnr" v="155318" />
	</node>
	<node id="-579495" lat="62.6349666645" lon="6.68657500224">
		<tag k="name" v="Skuggen" />
		<tag k="natural" v="slope" />
		<tag k="place" v="locality" />
		<tag k="ssr:stedsnr" v="155278" />
	</node>
	<node id="-579493" lat="62.6062694415" lon="6.80249722491">
		<tag k="name" v="Snauhaugane" />
		<tag k="natural" v="hill" />
		<tag k="place" v="locality" />
		<tag k="ssr:stedsnr" v="155262" />
	</node>
	<node id="-579490" lat="62.4986111112" lon="7.21410278131">
		<tag k="name" v="Linndalsbruna" />
		<tag k="natural" v="slope" />
		<tag k="place" v="locality" />
		<tag k="ssr:stedsnr" v="141715" />
	</node>
	<node id="-579488" lat="62.5689527753" lon="6.92930556292">
		<tag k="name" v="Duken" />
		<tag k="natural" v="slope" />
		<tag k="place" v="locality" />
		<tag k="ssr:stedsnr" v="133872" />
	</node>
	<node id="-579487" lat="62.506650003" lon="7.17546944596">
		<tag k="name" v="Kuskredet" />
		<tag k="natural" v="valley" />
		<tag k="place" v="locality" />
		<tag k="ssr:stedsnr" v="133833" />
	</node>
	<node id="-579486" lat="62.6215027779" lon="6.75021666524">
		<tag k="name" v="Juldalen" />
		<tag k="natural" v="valley" />
		<tag k="place" v="locality" />
		<tag k="ssr:stedsnr" v="133012" />
	</node>
	<node id="-579476" lat="62.5568083303" lon="6.93246667316">
		<tag k="fixme" v="consider natural=peak for the most distinct mountains in the district" />
		<tag k="name" v="Egga" />
		<tag k="natural" v="hill" />
		<tag k="place" v="locality" />
		<tag k="ssr:stedsnr" v="132902" />
	</node>
	<node id="-579472" lat="62.5155916642" lon="7.25049443731">
		<tag k="fixme" v="consider natural=peak for the most distinct mountains in the district" />
		<tag k="name" v="Øspetinden" />
		<tag k="natural" v="hill" />
		<tag k="place" v="locality" />
		<tag k="ssr:stedsnr" v="132387" />
	</node>
	<node id="-579471" lat="62.4881972212" lon="7.08077499246">
		<tag k="fixme" v="consider natural=peak for the most distinct mountains in the district" />
		<tag k="name" v="Gauknykja" />
		<tag k="natural" v="hill" />
		<tag k="place" v="locality" />
		<tag k="ssr:stedsnr" v="132280" />
	</node>
	<node id="-579469" lat="62.645488885" lon="6.77952221513">
		<tag k="name" v="Skaret" />
		<tag k="natural" v="valley" />
		<tag k="place" v="locality" />
		<tag k="ssr:stedsnr" v="132041" />
	</node>
	<node id="-579457" lat="62.6316249978" lon="6.8295555542">
		<tag k="name" v="Strandateigane" />
		<tag k="natural" v="slope" />
		<tag k="place" v="locality" />
		<tag k="ssr:stedsnr" v="95939" />
	</node>
	<node id="-579456" lat="62.5698805529" lon="6.9135722251">
		<tag k="name" v="Smågjerdhamran" />
		<tag k="place" v="locality" />
		<tag k="ssr:stedsnr" v="95915" />
	</node>
	<node id="-579455" lat="62.5679416623" lon="6.91776110398">
		<tag k="name" v="Trolldalen" />
		<tag k="natural" v="valley" />
		<tag k="place" v="locality" />
		<tag k="ssr:stedsnr" v="95911" />
	</node>
	<node id="-579454" lat="62.5668277787" lon="6.8938972148">
		<tag k="name" v="Varddalen" />
		<tag k="natural" v="valley" />
		<tag k="place" v="locality" />
		<tag k="ssr:stedsnr" v="95909" />
	</node>
	<node id="-579451" lat="62.6150527811" lon="6.94732777914">
		<tag k="name" v="Vikhjellen" />
		<tag k="place" v="locality" />
		<tag k="ssr:stedsnr" v="95888" />
	</node>
	<node id="-579449" lat="62.6465916625" lon="7.00044721814">
		<tag k="name" v="Bjønndalen" />
		<tag k="natural" v="valley" />
		<tag k="place" v="locality" />
		<tag k="ssr:stedsnr" v="95872" />
	</node>
	<node id="-579444" lat="62.5837333347" lon="6.94485277221">
		<tag k="name" v="Langsteinrabban" />
		<tag k="natural" v="ridge" />
		<tag k="place" v="locality" />
		<tag k="ssr:stedsnr" v="95848" />
	</node>
	<node id="-579441" lat="62.6441666623" lon="7.06013610454">
		<tag k="name" v="Insteskaret" />
		<tag k="natural" v="valley" />
		<tag k="place" v="locality" />
		<tag k="ssr:stedsnr" v="95833" />
	</node>
	<node id="-579439" lat="62.6139499973" lon="7.14714165838">
		<tag k="name" v="Stomnerøra" />
		<tag k="natural" v="ridge" />
		<tag k="place" v="locality" />
		<tag k="ssr:stedsnr" v="95825" />
	</node>
	<node id="-579436" lat="62.593680554" lon="7.06119444706">
		<tag k="name" v="Remmemsbotnen" />
		<tag k="natural" v="valley" />
		<tag k="place" v="locality" />
		<tag k="ssr:stedsnr" v="95803" />
	</node>
	<node id="-579432" lat="62.5692888868" lon="7.10360000147">
		<tag k="name" v="Skorgeåsan" />
		<tag k="natural" v="hill" />
		<tag k="place" v="locality" />
		<tag k="ssr:stedsnr" v="95775" />
	</node>
	<node id="-579430" lat="62.5823888865" lon="7.0722361045">
		<tag k="name" v="Dyrstønakken" />
		<tag k="natural" v="ridge" />
		<tag k="place" v="locality" />
		<tag k="ssr:stedsnr" v="95758" />
	</node>
	<node id="-579429" lat="62.5843972252" lon="7.0849999906">
		<tag k="name" v="Brastadnakken" />
		<tag k="natural" v="ridge" />
		<tag k="place" v="locality" />
		<tag k="ssr:stedsnr" v="95753" />
	</node>
	<node id="-579428" lat="62.5969055568" lon="7.14291943945">
		<tag k="name" v="Rabbsurhola" />
		<tag k="natural" v="valley" />
		<tag k="place" v="locality" />
		<tag k="ssr:stedsnr" v="95748" />
	</node>
	<node id="-579426" lat="62.5459611068" lon="7.18053611021">
		<tag k="name" v="Høyhjellen" />
		<tag k="place" v="locality" />
		<tag k="ssr:stedsnr" v="95737" />
	</node>
	<node id="-579425" lat="62.5843194451" lon="7.16480555836">
		<tag k="name" v="Midtglenna" />
		<tag k="natural" v="slope" />
		<tag k="place" v="locality" />
		<tag k="ssr:stedsnr" v="95726" />
	</node>
	<node id="-579422" lat="62.6061388921" lon="7.1883277703">
		<tag k="name" v="Langskarryggen" />
		<tag k="natural" v="ridge" />
		<tag k="place" v="locality" />
		<tag k="ssr:stedsnr" v="95712" />
	</node>
	<node id="-579419" lat="62.6309916641" lon="6.75693610265">
		<tag k="name" v="Heimste -reset" />
		<tag k="natural" v="ridge" />
		<tag k="place" v="locality" />
		<tag k="ssr:stedsnr" v="95988" />
	</node>
	<node id="-579412" lat="62.5292749982" lon="6.99713056152">
		<tag k="name" v="Måslia" />
		<tag k="natural" v="slope" />
		<tag k="place" v="locality" />
		<tag k="ssr:stedsnr" v="95687" />
	</node>
	<node id="-579409" lat="62.494261115" lon="7.13014444389">
		<tag k="name" v="Vollslia" />
		<tag k="natural" v="slope" />
		<tag k="place" v="locality" />
		<tag k="ssr:stedsnr" v="95663" />
	</node>
	<node id="-579407" lat="62.5442722207" lon="7.08210000952">
		<tag k="name" v="Reset" />
		<tag k="natural" v="valley" />
		<tag k="place" v="locality" />
		<tag k="ssr:stedsnr" v="95653" />
	</node>
	<node id="-579405" lat="62.5063444409" lon="7.12506945291">
		<tag k="name" v="Åbakken" />
		<tag k="natural" v="slope" />
		<tag k="place" v="locality" />
		<tag k="ssr:stedsnr" v="95648" />
	</node>
	<node id="-579404" lat="62.6161916629" lon="6.81957777294">
		<tag k="name" v="Nakkelia" />
		<tag k="natural" v="slope" />
		<tag k="place" v="locality" />
		<tag k="ssr:stedsnr" v="95600" />
	</node>
	<node id="-579402" lat="62.6249361086" lon="7.08421389189">
		<tag k="name" v="Berga" />
		<tag k="natural" v="slope" />
		<tag k="place" v="locality" />
		<tag k="ssr:stedsnr" v="95555" />
	</node>
	<node id="-579393" lat="62.6329194433" lon="6.75311666536">
		<tag k="name" v="Hjellan" />
		<tag k="place" v="locality" />
		<tag k="ssr:stedsnr" v="95629" />
	</node>
	<node id="-579391" lat="62.5563055512" lon="7.14825000924">
		<tag k="name" v="Remmane" />
		<tag k="natural" v="ridge" />
		<tag k="place" v="locality" />
		<tag k="ssr:stedsnr" v="95623" />
	</node>
	<node id="-579389" lat="62.5977055583" lon="7.16782777591">
		<tag k="name" v="Nebba" />
		<tag k="natural" v="ridge" />
		<tag k="place" v="locality" />
		<tag k="ssr:stedsnr" v="95534" />
	</node>
	<node id="-579388" lat="62.554275001" lon="7.18468888825">
		<tag k="name" v="Juvane" />
		<tag k="natural" v="valley" />
		<tag k="place" v="locality" />
		<tag k="ssr:stedsnr" v="95509" />
	</node>
	<node id="-579387" lat="62.5525527762" lon="7.19298056104">
		<tag k="name" v="Sakselia" />
		<tag k="natural" v="slope" />
		<tag k="place" v="locality" />
		<tag k="ssr:stedsnr" v="95507" />
	</node>
	<node id="-579384" lat="62.5641361116" lon="6.86211943832">
		<tag k="name" v="Storbotnen" />
		<tag k="natural" v="valley" />
		<tag k="place" v="locality" />
		<tag k="ssr:stedsnr" v="95139" />
	</node>
	<node id="-579383" lat="62.5589055559" lon="6.86215278589">
		<tag k="name" v="Litlebotnen" />
		<tag k="natural" v="valley" />
		<tag k="place" v="locality" />
		<tag k="ssr:stedsnr" v="95138" />
	</node>
	<node id="-579382" lat="62.4669027765" lon="7.10374722824">
		<tag k="name" v="Midtreset" />
		<tag k="natural" v="ridge" />
		<tag k="place" v="locality" />
		<tag k="ssr:stedsnr" v="95094" />
	</node>
	<node id="-579381" lat="62.4913055576" lon="7.05876389637">
		<tag k="name" v="Geilslættet" />
		<tag k="natural" v="slope" />
		<tag k="place" v="locality" />
		<tag k="ssr:stedsnr" v="95090" />
	</node>
	<node id="-579380" lat="62.4894138854" lon="7.09354167204">
		<tag k="name" v="Vårseterbyta" />
		<tag k="natural" v="slope" />
		<tag k="place" v="locality" />
		<tag k="ssr:stedsnr" v="95082" />
	</node>
	<node id="-579379" lat="62.488319445" lon="7.06933333569">
		<tag k="name" v="Dalteigane" />
		<tag k="natural" v="slope" />
		<tag k="place" v="locality" />
		<tag k="ssr:stedsnr" v="95077" />
	</node>
	<node id="-579378" lat="62.5429361091" lon="6.9223972269">
		<tag k="name" v="Småtjønnbotnen" />
		<tag k="natural" v="valley" />
		<tag k="place" v="locality" />
		<tag k="ssr:stedsnr" v="95062" />
	</node>
	<node id="-579377" lat="62.5215833295" lon="7.09828054941">
		<tag k="name" v="Sunnmørsbrauta" />
		<tag k="natural" v="slope" />
		<tag k="place" v="locality" />
		<tag k="ssr:stedsnr" v="95038" />
	</node>
	<node id="-579375" lat="62.5577555513" lon="7.16571111615">
		<tag k="name" v="Lislebrauta" />
		<tag k="natural" v="slope" />
		<tag k="place" v="locality" />
		<tag k="ssr:stedsnr" v="95020" />
	</node>
	<node id="-579374" lat="62.5027527764" lon="7.10255832987">
		<tag k="name" v="Neremslia" />
		<tag k="natural" v="slope" />
		<tag k="place" v="locality" />
		<tag k="ssr:stedsnr" v="95014" />
	</node>
	<node id="-579373" lat="62.5099555545" lon="7.11924444284">
		<tag k="name" v="Storbrauta" />
		<tag k="natural" v="slope" />
		<tag k="place" v="locality" />
		<tag k="ssr:stedsnr" v="95011" />
	</node>
	<node id="-579368" lat="62.6350249985" lon="6.72415555173">
		<tag k="name" v="Hestedalen" />
		<tag k="natural" v="valley" />
		<tag k="place" v="locality" />
		<tag k="ssr:stedsnr" v="94419" />
	</node>
	<node id="-579367" lat="62.6417833309" lon="6.73729444766">
		<tag k="name" v="Åsnebba" />
		<tag k="place" v="locality" />
		<tag k="ssr:stedsnr" v="94413" />
	</node>
	<node id="-579364" lat="62.5687805523" lon="6.85630555966">
		<tag k="name" v="Tverrlia" />
		<tag k="natural" v="slope" />
		<tag k="place" v="locality" />
		<tag k="ssr:stedsnr" v="94128" />
	</node>
	<node id="-579363" lat="62.5682000021" lon="6.85074722148">
		<tag k="name" v="Knausholå" />
		<tag k="natural" v="valley" />
		<tag k="place" v="locality" />
		<tag k="ssr:stedsnr" v="94125" />
	</node>
	<node id="-579357" lat="62.5939972221" lon="6.95808611819">
		<tag k="name" v="Liahornet" />
		<tag k="natural" v="hill" />
		<tag k="place" v="locality" />
		<tag k="ssr:stedsnr" v="72996" />
	</node>
	<node id="-579355" lat="62.5834361093" lon="6.81239444933">
		<tag k="alt_name" v="Mælen" />
		<tag k="fixme" v="consider natural=peak for the most distinct mountains in the district" />
		<tag k="name" v="Melen" />
		<tag k="natural" v="hill" />
		<tag k="place" v="locality" />
		<tag k="ssr:stedsnr" v="72970" />
	</node>
	<node id="-579354" lat="62.5826388865" lon="6.77598056045">
		<tag k="fixme" v="consider natural=peak for the most distinct mountains in the district" />
		<tag k="name" v="Litleskjerdingen" />
		<tag k="natural" v="hill" />
		<tag k="place" v="locality" />
		<tag k="ssr:stedsnr" v="72966" />
	</node>
	<node id="-579353" lat="62.5947994766" lon="7.07445598247">
		<tag k="alt_name" v="Bjønnatuå" />
		<tag k="name" v="Bjørnetua" />
		<tag k="natural" v="hill" />
		<tag k="place" v="locality" />
		<tag k="ssr:stedsnr" v="72961" />
	</node>
	<node id="-579342" lat="62.5462444442" lon="7.05873611552">
		<tag k="fixme" v="consider natural=peak for the most distinct mountains in the district" />
		<tag k="name" v="Gjølbotntinden" />
		<tag k="natural" v="hill" />
		<tag k="place" v="locality" />
		<tag k="ssr:stedsnr" v="72819" />
	</node>
	<node id="-579338" lat="62.5528666706" lon="7.24095277644">
		<tag k="name" v="Lågfjellet" />
		<tag k="natural" v="slope" />
		<tag k="place" v="locality" />
		<tag k="ssr:stedsnr" v="72543" />
	</node>
	<node id="-579337" lat="62.50499444" lon="7.22670555213">
		<tag k="fixme" v="consider natural=peak for the most distinct mountains in the district" />
		<tag k="name" v="Øspefonna" />
		<tag k="natural" v="hill" />
		<tag k="place" v="locality" />
		<tag k="ssr:stedsnr" v="72374" />
	</node>
	<node id="-579330" lat="62.6382138901" lon="7.04704721425">
		<tag k="fixme" v="consider natural=peak for the most distinct mountains in the district" />
		<tag k="name" v="Åsnakken" />
		<tag k="natural" v="hill" />
		<tag k="place" v="locality" />
		<tag k="ssr:stedsnr" v="72003" />
	</node>
	<node id="-579329" lat="62.4741999999" lon="7.10470000665">
		<tag k="name" v="Eirsdalen" />
		<tag k="natural" v="valley" />
		<tag k="place" v="locality" />
		<tag k="ssr:stedsnr" v="71366" />
	</node>
	<node id="-579328" lat="62.4925805518" lon="7.0301944469">
		<tag k="name" v="Storskreda" />
		<tag k="natural" v="slope" />
		<tag k="place" v="locality" />
		<tag k="ssr:stedsnr" v="71335" />
	</node>
	<node id="-579323" lat="62.5813805554" lon="6.78178056151">
		<tag k="name" v="Bukkekløven" />
		<tag k="natural" v="valley" />
		<tag k="place" v="locality" />
		<tag k="ssr:stedsnr" v="34998" />
	</node>
	<node id="-579322" lat="62.6407944449" lon="6.80689445225">
		<tag k="name" v="Hjellholå" />
		<tag k="natural" v="valley" />
		<tag k="place" v="locality" />
		<tag k="ssr:stedsnr" v="34992" />
	</node>
	<node id="-579321" lat="62.6320666633" lon="6.79225277832">
		<tag k="name" v="Trongstiteigan" />
		<tag k="natural" v="slope" />
		<tag k="place" v="locality" />
		<tag k="ssr:stedsnr" v="34989" />
	</node>
	<node id="-579319" lat="62.6435972257" lon="6.78551389036">
		<tag k="name" v="Sollirørin" />
		<tag k="natural" v="ridge" />
		<tag k="place" v="locality" />
		<tag k="ssr:stedsnr" v="34983" />
	</node>
	<node id="-579317" lat="62.6032805562" lon="6.80734166538">
		<tag k="name" v="Botnateigane" />
		<tag k="natural" v="slope" />
		<tag k="place" v="locality" />
		<tag k="ssr:stedsnr" v="34964" />
	</node>
	<node id="-579314" lat="62.622338892" lon="6.83202222724">
		<tag k="name" v="Skiftingsdalen" />
		<tag k="natural" v="valley" />
		<tag k="place" v="locality" />
		<tag k="ssr:stedsnr" v="34937" />
	</node>
	<node id="-579313" lat="62.6303805566" lon="6.8339333268">
		<tag k="name" v="Løeteigane" />
		<tag k="natural" v="slope" />
		<tag k="place" v="locality" />
		<tag k="ssr:stedsnr" v="34929" />
	</node>
	<node id="-579312" lat="62.6331361137" lon="6.94364722073">
		<tag k="name" v="Kvennaholane" />
		<tag k="natural" v="hill" />
		<tag k="place" v="locality" />
		<tag k="ssr:stedsnr" v="34922" />
	</node>
	<node id="-579308" lat="62.5703249991" lon="6.88061388077">
		<tag k="name" v="Iverfløgja" />
		<tag k="place" v="locality" />
		<tag k="ssr:stedsnr" v="34900" />
	</node>
	<node id="-579307" lat="62.6246666644" lon="6.95462222567">
		<tag k="name" v="Sinderhaugen" />
		<tag k="natural" v="hill" />
		<tag k="place" v="locality" />
		<tag k="ssr:stedsnr" v="34869" />
	</node>
	<node id="-579306" lat="62.6140555549" lon="6.94906389097">
		<tag k="name" v="Tjørhjellen" />
		<tag k="place" v="locality" />
		<tag k="ssr:stedsnr" v="34867" />
	</node>
	<node id="-579304" lat="62.6362500031" lon="7.02389443899">
		<tag k="name" v="Teppingsdalen" />
		<tag k="natural" v="valley" />
		<tag k="place" v="locality" />
		<tag k="ssr:stedsnr" v="34860" />
	</node>
	<node id="-579301" lat="62.6177083338" lon="7.16869722709">
		<tag k="name" v="Ulvestauå" />
		<tag k="place" v="locality" />
		<tag k="ssr:stedsnr" v="34804" />
	</node>
	<node id="-579298" lat="62.5771583296" lon="7.07810277607">
		<tag k="name" v="Tjønnhaugan" />
		<tag k="natural" v="hill" />
		<tag k="place" v="locality" />
		<tag k="ssr:stedsnr" v="34767" />
	</node>
	<node id="-579293" lat="62.5464972196" lon="7.23755832688">
		<tag k="name" v="Steinhaugen" />
		<tag k="natural" v="hill" />
		<tag k="place" v="locality" />
		<tag k="ssr:stedsnr" v="34713" />
	</node>
	<node id="-579291" lat="62.4923944462" lon="7.05611944629">
		<tag k="name" v="Hamrane" />
		<tag k="place" v="locality" />
		<tag k="ssr:stedsnr" v="34674" />
	</node>
	<node id="-579290" lat="62.4808111146" lon="7.14468610905">
		<tag k="name" v="Rabban" />
		<tag k="natural" v="slope" />
		<tag k="place" v="locality" />
		<tag k="ssr:stedsnr" v="34667" />
	</node>
	<node id="-579287" lat="62.5884083344" lon="6.8177277779">
		<tag k="name" v="Mælaksla" />
		<tag k="natural" v="ridge" />
		<tag k="place" v="locality" />
		<tag k="ssr:stedsnr" v="34635" />
	</node>
	<node id="-579285" lat="62.5813611084" lon="6.87988611541">
		<tag k="name" v="Bollen" />
		<tag k="natural" v="hill" />
		<tag k="place" v="locality" />
		<tag k="ssr:stedsnr" v="34601" />
	</node>
	<node id="-579282" lat="62.6078166694" lon="7.07615000177">
		<tag k="name" v="Sollia" />
		<tag k="natural" v="slope" />
		<tag k="place" v="locality" />
		<tag k="ssr:stedsnr" v="34565" />
	</node>
	<node id="-579281" lat="62.6099111154" lon="7.09574722739">
		<tag k="name" v="Brauta" />
		<tag k="natural" v="slope" />
		<tag k="place" v="locality" />
		<tag k="ssr:stedsnr" v="34564" />
	</node>
	<node id="-579280" lat="62.6080499958" lon="7.16461110585">
		<tag k="name" v="Vikelia" />
		<tag k="natural" v="slope" />
		<tag k="place" v="locality" />
		<tag k="ssr:stedsnr" v="34558" />
	</node>
	<node id="-579277" lat="62.5688972186" lon="7.11391944577">
		<tag k="name" v="Dalan" />
		<tag k="natural" v="valley" />
		<tag k="place" v="locality" />
		<tag k="ssr:stedsnr" v="34539" />
	</node>
	<node id="-579264" lat="62.5611527795" lon="6.86276666566">
		<tag k="name" v="Storreset" />
		<tag k="natural" v="ridge" />
		<tag k="place" v="locality" />
		<tag k="ssr:stedsnr" v="34174" />
	</node>
	<node id="-579263" lat="62.4564499995" lon="7.16072777927">
		<tag k="name" v="Rollsbotnkleiva" />
		<tag k="natural" v="ridge" />
		<tag k="place" v="locality" />
		<tag k="ssr:stedsnr" v="34127" />
	</node>
	<node id="-579261" lat="62.4866444426" lon="7.15877500667">
		<tag k="name" v="Tørsbakken" />
		<tag k="natural" v="slope" />
		<tag k="place" v="locality" />
		<tag k="ssr:stedsnr" v="34109" />
	</node>
	<node id="-579260" lat="62.4818722201" lon="7.15663056101">
		<tag k="name" v="Innlegget" />
		<tag k="natural" v="valley" />
		<tag k="place" v="locality" />
		<tag k="ssr:stedsnr" v="34106" />
	</node>
	<node id="-579259" lat="62.4880583311" lon="7.10737221284">
		<tag k="name" v="Dalgjerda" />
		<tag k="natural" v="slope" />
		<tag k="place" v="locality" />
		<tag k="ssr:stedsnr" v="34103" />
	</node>
	<node id="-579258" lat="62.5353805589" lon="6.98153887947">
		<tag k="name" v="Auspholbotnen" />
		<tag k="natural" v="valley" />
		<tag k="place" v="locality" />
		<tag k="ssr:stedsnr" v="34097" />
	</node>
	<node id="-579255" lat="62.5345277746" lon="7.054355555">
		<tag k="name" v="Vassbakken" />
		<tag k="natural" v="slope" />
		<tag k="place" v="locality" />
		<tag k="ssr:stedsnr" v="34062" />
	</node>
	<node id="-579252" lat="62.5367083351" lon="7.09382500843">
		<tag k="name" v="Eidhammarsnakken" />
		<tag k="natural" v="ridge" />
		<tag k="place" v="locality" />
		<tag k="ssr:stedsnr" v="34052" />
	</node>
	<node id="-579251" lat="62.544997218" lon="7.09093888428">
		<tag k="name" v="Ostefonnrøra" />
		<tag k="natural" v="ridge" />
		<tag k="place" v="locality" />
		<tag k="ssr:stedsnr" v="34049" />
	</node>
	<node id="-579250" lat="62.5474527782" lon="7.09770832527">
		<tag k="name" v="Løvikbotnen" />
		<tag k="natural" v="valley" />
		<tag k="place" v="locality" />
		<tag k="ssr:stedsnr" v="34048" />
	</node>
	<node id="-579249" lat="62.559513887" lon="7.11116389709">
		<tag k="name" v="Tjørehjellhaugen" />
		<tag k="natural" v="hill" />
		<tag k="place" v="locality" />
		<tag k="ssr:stedsnr" v="34042" />
	</node>
	<node id="-579248" lat="62.5598916643" lon="7.16009444146">
		<tag k="name" v="Gilsdalen" />
		<tag k="natural" v="valley" />
		<tag k="place" v="locality" />
		<tag k="ssr:stedsnr" v="34035" />
	</node>
	<node id="-579247" lat="62.5618666645" lon="7.16543888944">
		<tag k="name" v="Skitnedalen" />
		<tag k="natural" v="valley" />
		<tag k="place" v="locality" />
		<tag k="ssr:stedsnr" v="34032" />
	</node>
	<node id="-579242" lat="62.5390138882" lon="7.11744722366">
		<tag k="name" v="Løvikgjerda" />
		<tag k="natural" v="slope" />
		<tag k="place" v="locality" />
		<tag k="ssr:stedsnr" v="34008" />
	</node>
	<node id="-579241" lat="62.6276583328" lon="6.75230555679">
		<tag k="name" v="Jakobsrustene" />
		<tag k="place" v="locality" />
		<tag k="ssr:stedsnr" v="33462" />
	</node>
	<node id="-579240" lat="62.5940027754" lon="6.79751666626">
		<tag k="name" v="Lislenausa" />
		<tag k="place" v="locality" />
		<tag k="ssr:stedsnr" v="33398" />
	</node>
	<node id="-579239" lat="62.6382472214" lon="6.70709445178">
		<tag k="name" v="Øygardsteigen" />
		<tag k="natural" v="slope" />
		<tag k="place" v="locality" />
		<tag k="ssr:stedsnr" v="33325" />
	</node>
	<node id="-579238" lat="62.5980361075" lon="6.78130278403">
		<tag k="name" v="Tverreset" />
		<tag k="natural" v="valley" />
		<tag k="place" v="locality" />
		<tag k="ssr:stedsnr" v="33306" />
	</node>
	<node id="-579237" lat="62.5715833297" lon="6.84609166798">
		<tag k="name" v="Nedste Knausen" />
		<tag k="natural" v="cliff" />
		<tag k="ssr:stedsnr" v="33127" />
	</node>
	<node id="-579235" lat="62.6269888934" lon="6.78503055862">
		<tag k="name" v="Fjellsenden" />
		<tag k="place" v="locality" />
		<tag k="ssr:stedsnr" v="33101" />
	</node>
	<node id="-579234" lat="62.6228472242" lon="6.74334721769">
		<tag k="fixme" v="consider natural=peak for the most distinct mountains in the district" />
		<tag k="name" v="Urfjellet" />
		<tag k="natural" v="hill" />
		<tag k="place" v="locality" />
		<tag k="ssr:stedsnr" v="33075" />
	</node>
	<node id="-579231" lat="62.5777000033" lon="7.0191500037">
		<tag k="fixme" v="consider natural=peak for the most distinct mountains in the district" />
		<tag k="name" v="Remmemstinden" />
		<tag k="natural" v="hill" />
		<tag k="place" v="locality" />
		<tag k="ssr:stedsnr" v="12905" />
	</node>
	<node id="-579230" lat="62.5794861141" lon="7.00522777549">
		<tag k="fixme" v="consider natural=peak for the most distinct mountains in the district" />
		<tag k="name" v="Litletinden" />
		<tag k="natural" v="hill" />
		<tag k="place" v="locality" />
		<tag k="ssr:stedsnr" v="12902" />
	</node>
	<node id="-579228" lat="62.5451944456" lon="7.10450555766">
		<tag k="alt_name" v="Løviknakken" />
		<tag k="fixme" v="consider natural=peak for the most distinct mountains in the district" />
		<tag k="name" v="Nakken" />
		<tag k="natural" v="hill" />
		<tag k="place" v="locality" />
		<tag k="ssr:stedsnr" v="12279" />
	</node>
	<node id="-579227" lat="62.504975002" lon="7.16685277835">
		<tag k="name" v="Ådalen" />
		<tag k="natural" v="valley" />
		<tag k="place" v="locality" />
		<tag k="ssr:stedsnr" v="12833" />
	</node>
	<node id="-579225" lat="62.6218249991" lon="6.79533333702">
		<tag k="fixme" v="consider natural=peak for the most distinct mountains in the district" />
		<tag k="name" v="Grøtfjellet" />
		<tag k="natural" v="hill" />
		<tag k="place" v="locality" />
		<tag k="ssr:stedsnr" v="12028" />
	</node>
	<node id="-579220" lat="62.6460861138" lon="7.01238055502">
		<tag k="alt_name" v="Barlindnakken" />
		<tag k="fixme" v="consider natural=peak for the most distinct mountains in the district" />
		<tag k="name" v="Leirvågfjellet" />
		<tag k="natural" v="hill" />
		<tag k="place" v="locality" />
		<tag k="ssr:stedsnr" v="12003" />
	</node>
	<node id="-579216" lat="62.5877916683" lon="6.84590277825">
		<tag k="name" v="Tverrlia" />
		<tag k="natural" v="slope" />
		<tag k="place" v="locality" />
		<tag k="ssr:stedsnr" v="11982" />
	</node>
	<node id="-579211" lat="62.5633805535" lon="7.18125832392">
		<tag k="alt_name" v="Daustadlia" />
		<tag k="name" v="Daugstadlia" />
		<tag k="natural" v="slope" />
		<tag k="place" v="locality" />
		<tag k="ssr:stedsnr" v="11932" />
	</node>
	<node id="-579207" lat="62.5363000028" lon="7.08236389166">
		<tag k="name" v="Vardhaugen" />
		<tag k="natural" v="hill" />
		<tag k="place" v="locality" />
		<tag k="ssr:stedsnr" v="11840" />
	</node>
	<node id="-579205" lat="62.455936112" lon="7.11778333875">
		<tag k="fixme" v="consider natural=peak for the most distinct mountains in the district" />
		<tag k="name" v="Breidskallen" />
		<tag k="natural" v="hill" />
		<tag k="place" v="locality" />
		<tag k="ssr:stedsnr" v="11348" />
	</node>
	<node id="-579201" lat="62.4877999959" lon="7.1256722282">
		<tag k="alt_name" v="Rongja" />
		<tag k="name" v="Rona" />
		<tag k="natural" v="hill" />
		<tag k="place" v="locality" />
		<tag k="ssr:stedsnr" v="10293" />
	</node>
	<node id="-579196" lat="62.5322972205" lon="6.94794445301">
		<tag k="name" v="Bytehaugen" />
		<tag k="natural" v="hill" />
		<tag k="place" v="locality" />
		<tag k="ssr:stedsnr" v="703598" />
	</node>
	<node id="-579195" lat="62.5097982644" lon="6.97723174255">
		<tag k="alt_name" v="Kvanndalsaksla" />
		<tag k="fixme" v="consider natural=peak for the most distinct mountains in the district" />
		<tag k="name" v="Benkene" />
		<tag k="natural" v="hill" />
		<tag k="place" v="locality" />
		<tag k="ssr:stedsnr" v="72841" />
	</node>
	<node id="-579194" lat="62.6364694444" lon="6.76275277517">
		<tag k="name" v="Dyrstolan" />
		<tag k="natural" v="slope" />
		<tag k="place" v="locality" />
		<tag k="ssr:stedsnr" v="884992" />
	</node>
	<node id="-579193" lat="62.6474027741" lon="6.78117222284">
		<tag k="name" v="Skarhaugen" />
		<tag k="natural" v="hill" />
		<tag k="place" v="locality" />
		<tag k="ssr:stedsnr" v="884982" />
	</node>
	<node id="-579192" lat="62.5538833294" lon="7.16056388826">
		<tag k="name" v="Klengretehaugen" />
		<tag k="natural" v="hill" />
		<tag k="place" v="locality" />
		<tag k="ssr:stedsnr" v="884955" />
	</node>
	<node id="-579191" lat="62.5982861124" lon="6.82362499045">
		<tag k="name" v="Bjørkehaugen" />
		<tag k="natural" v="hill" />
		<tag k="place" v="locality" />
		<tag k="ssr:stedsnr" v="884949" />
	</node>
	<node id="-579189" lat="62.6271388933" lon="6.81431944684">
		<tag k="name" v="Middagshaugen" />
		<tag k="natural" v="hill" />
		<tag k="place" v="locality" />
		<tag k="ssr:stedsnr" v="884935" />
	</node>
	<node id="-579188" lat="62.610974996" lon="6.82481944895">
		<tag k="name" v="Grønnbakken" />
		<tag k="natural" v="slope" />
		<tag k="place" v="locality" />
		<tag k="ssr:stedsnr" v="884932" />
	</node>
	<node id="-579187" lat="62.6455805571" lon="6.80869999445">
		<tag k="name" v="Brendhaugen" />
		<tag k="natural" v="hill" />
		<tag k="place" v="locality" />
		<tag k="ssr:stedsnr" v="884922" />
	</node>
	<node id="-579186" lat="62.5833749957" lon="6.91178056286">
		<tag k="name" v="Storteigen" />
		<tag k="natural" v="slope" />
		<tag k="place" v="locality" />
		<tag k="ssr:stedsnr" v="884908" />
	</node>
	<node id="-579185" lat="62.626605558" lon="7.04320277884">
		<tag k="name" v="Purkhaugen" />
		<tag k="natural" v="hill" />
		<tag k="place" v="locality" />
		<tag k="ssr:stedsnr" v="884891" />
	</node>
	<node id="-579182" lat="62.6111333293" lon="6.95650277707">
		<tag k="name" v="Bjønnamyrhaugen" />
		<tag k="natural" v="hill" />
		<tag k="place" v="locality" />
		<tag k="ssr:stedsnr" v="884871" />
	</node>
	<node id="-579181" lat="62.6039416626" lon="6.98963056148">
		<tag k="name" v="Flaterøren" />
		<tag k="natural" v="ridge" />
		<tag k="place" v="locality" />
		<tag k="ssr:stedsnr" v="884825" />
	</node>
	<node id="-579180" lat="62.6000277801" lon="7.08151389003">
		<tag k="name" v="Gammel-Hanshjellen" />
		<tag k="place" v="locality" />
		<tag k="ssr:stedsnr" v="884794" />
	</node>
	<node id="-579175" lat="62.5761861128" lon="7.1118861158">
		<tag k="name" v="Småbakkan" />
		<tag k="natural" v="slope" />
		<tag k="place" v="locality" />
		<tag k="ssr:stedsnr" v="884756" />
	</node>
	<node id="-579173" lat="62.5934111076" lon="7.14539444087">
		<tag k="name" v="Langmyrberget" />
		<tag k="natural" v="ridge" />
		<tag k="place" v="locality" />
		<tag k="ssr:stedsnr" v="884739" />
	</node>
	<node id="-579170" lat="62.4831222227" lon="7.117180554">
		<tag k="name" v="Langsida" />
		<tag k="natural" v="slope" />
		<tag k="place" v="locality" />
		<tag k="ssr:stedsnr" v="884653" />
	</node>
	<node id="-579168" lat="62.6333361089" lon="6.75186111013">
		<tag k="name" v="Parken" />
		<tag k="natural" v="slope" />
		<tag k="place" v="locality" />
		<tag k="ssr:stedsnr" v="884635" />
	</node>
	<node id="-579167" lat="62.6381472202" lon="6.74075555595">
		<tag k="name" v="Åsvegen" />
		<tag k="natural" v="slope" />
		<tag k="place" v="locality" />
		<tag k="ssr:stedsnr" v="884631" />
	</node>
	<node id="-579165" lat="62.6131027808" lon="6.87198888082">
		<tag k="name" v="Gjerdet" />
		<tag k="natural" v="slope" />
		<tag k="place" v="locality" />
		<tag k="ssr:stedsnr" v="884615" />
	</node>
	<node id="-579163" lat="62.5830999987" lon="6.90914723112">
		<tag k="name" v="Urin" />
		<tag k="natural" v="slope" />
		<tag k="place" v="locality" />
		<tag k="ssr:stedsnr" v="884585" />
	</node>
	<node id="-579161" lat="62.5702666644" lon="6.92792777398">
		<tag k="name" v="Gjølet" />
		<tag k="natural" v="valley" />
		<tag k="place" v="locality" />
		<tag k="ssr:stedsnr" v="884570" />
	</node>
	<node id="-579159" lat="62.6324250043" lon="7.10708055974">
		<tag k="name" v="Hamran" />
		<tag k="natural" v="slope" />
		<tag k="place" v="locality" />
		<tag k="ssr:stedsnr" v="884560" />
	</node>
	<node id="-579154" lat="62.587638887" lon="7.18682499161">
		<tag k="name" v="Skaret" />
		<tag k="natural" v="valley" />
		<tag k="place" v="locality" />
		<tag k="ssr:stedsnr" v="884507" />
	</node>
	<node id="-579144" lat="62.5573944419" lon="6.86680277676">
		<tag k="name" v="Solliskaret" />
		<tag k="natural" v="valley" />
		<tag k="place" v="locality" />
		<tag k="ssr:stedsnr" v="884155" />
	</node>
	<node id="-579143" lat="62.46878889" lon="7.10369722005">
		<tag k="name" v="Søre reset" />
		<tag k="natural" v="ridge" />
		<tag k="place" v="locality" />
		<tag k="ssr:stedsnr" v="884120" />
	</node>
	<node id="-579142" lat="62.4615722211" lon="7.15861666524">
		<tag k="name" v="Lislevasshaugen" />
		<tag k="natural" v="hill" />
		<tag k="place" v="locality" />
		<tag k="ssr:stedsnr" v="884111" />
	</node>
	<node id="-579141" lat="62.4786527796" lon="7.09028888485">
		<tag k="name" v="Kvitnykhola" />
		<tag k="natural" v="valley" />
		<tag k="place" v="locality" />
		<tag k="ssr:stedsnr" v="884107" />
	</node>
	<node id="-579140" lat="62.4917805519" lon="7.09287777005">
		<tag k="name" v="Skitnemyrbytet" />
		<tag k="natural" v="slope" />
		<tag k="place" v="locality" />
		<tag k="ssr:stedsnr" v="884103" />
	</node>
	<node id="-579138" lat="62.5343972265" lon="6.98624444014">
		<tag k="name" v="Vargurskardet" />
		<tag k="natural" v="valley" />
		<tag k="place" v="locality" />
		<tag k="ssr:stedsnr" v="884092" />
	</node>
	<node id="-579135" lat="62.5612555547" lon="7.02580556103">
		<tag k="name" v="Sprovsmarka" />
		<tag k="natural" v="slope" />
		<tag k="place" v="locality" />
		<tag k="ssr:stedsnr" v="884075" />
	</node>
	<node id="-579133" lat="62.5236388917" lon="7.14692777013">
		<tag k="name" v="Einhammaren" />
		<tag k="natural" v="cliff" />
		<tag k="ssr:stedsnr" v="884069" />
	</node>
	<node id="-579131" lat="62.5622583316" lon="7.06054722711">
		<tag k="name" v="Skorgelia" />
		<tag k="natural" v="slope" />
		<tag k="place" v="locality" />
		<tag k="ssr:stedsnr" v="884057" />
	</node>
	<node id="-579129" lat="62.5136333318" lon="7.07904165872">
		<tag k="name" v="Litleknausen" />
		<tag k="natural" v="ridge" />
		<tag k="place" v="locality" />
		<tag k="ssr:stedsnr" v="884032" />
	</node>
	<node id="-579128" lat="62.5189555572" lon="7.08981111161">
		<tag k="name" v="Stordalen" />
		<tag k="natural" v="valley" />
		<tag k="place" v="locality" />
		<tag k="ssr:stedsnr" v="884030" />
	</node>
	<node id="-579127" lat="62.5065916624" lon="7.12112777916">
		<tag k="name" v="Langebakken" />
		<tag k="natural" v="slope" />
		<tag k="place" v="locality" />
		<tag k="ssr:stedsnr" v="884014" />
	</node>
	<node id="-579126" lat="62.5158583346" lon="7.13670832502">
		<tag k="name" v="Steinhaugen" />
		<tag k="natural" v="hill" />
		<tag k="place" v="locality" />
		<tag k="ssr:stedsnr" v="884010" />
	</node>
	<node id="-579123" lat="62.6420305555" lon="6.71908889804">
		<tag k="name" v="Bjørkelægda" />
		<tag k="place" v="locality" />
		<tag k="ssr:stedsnr" v="883428" />
	</node>
	<node id="-579122" lat="62.6387333301" lon="6.72566388709">
		<tag k="name" v="Dyrlegslettå" />
		<tag k="place" v="locality" />
		<tag k="ssr:stedsnr" v="883420" />
	</node>
	<node id="-579120" lat="62.5968361126" lon="6.76486110811">
		<tag k="name" v="Småhaugane" />
		<tag k="natural" v="hill" />
		<tag k="place" v="locality" />
		<tag k="ssr:stedsnr" v="883338" />
	</node>
	<node id="-579118" lat="62.6187166629" lon="6.74050555571">
		<tag k="name" v="Storgrøe" />
		<tag k="natural" v="hill" />
		<tag k="place" v="locality" />
		<tag k="ssr:stedsnr" v="883081" />
	</node>
	<node id="-579113" lat="62.5548166659" lon="7.16548889047">
		<tag k="name" v="Dalbakken" />
		<tag k="natural" v="slope" />
		<tag k="place" v="locality" />
		<tag k="ssr:stedsnr" v="398975" />
	</node>
	<node id="-579112" lat="62.6433777734" lon="6.74842221619">
		<tag k="name" v="Reithamrane" />
		<tag k="natural" v="slope" />
		<tag k="place" v="locality" />
		<tag k="ssr:stedsnr" v="398968" />
	</node>
	<node id="-579109" lat="62.6261138931" lon="6.82947777304">
		<tag k="name" v="Ljøsåskaret" />
		<tag k="natural" v="valley" />
		<tag k="place" v="locality" />
		<tag k="ssr:stedsnr" v="398931" />
	</node>
	<node id="-579105" lat="62.6428999964" lon="6.93122222543">
		<tag k="name" v="Ekrehaugen" />
		<tag k="natural" v="hill" />
		<tag k="place" v="locality" />
		<tag k="ssr:stedsnr" v="398919" />
	</node>
	<node id="-579103" lat="62.5785361138" lon="6.87515277395">
		<tag k="name" v="Fremstebollfonna" />
		<tag k="natural" v="slope" />
		<tag k="place" v="locality" />
		<tag k="ssr:stedsnr" v="398907" />
	</node>
	<node id="-579100" lat="62.5669888893" lon="6.9974111172">
		<tag k="name" v="Ellingsgardslia" />
		<tag k="natural" v="slope" />
		<tag k="place" v="locality" />
		<tag k="ssr:stedsnr" v="398843" />
	</node>
	<node id="-579097" lat="62.6073861102" lon="7.13270278692">
		<tag k="name" v="Kråkhaugen" />
		<tag k="natural" v="hill" />
		<tag k="place" v="locality" />
		<tag k="ssr:stedsnr" v="398822" />
	</node>
	<node id="-579090" lat="62.6270861125" lon="7.15559999647">
		<tag k="name" v="Bergelehaugen" />
		<tag k="natural" v="hill" />
		<tag k="place" v="locality" />
		<tag k="ssr:stedsnr" v="398799" />
	</node>
	<node id="-579088" lat="62.5737111094" lon="7.10578333192">
		<tag k="name" v="Melfallet" />
		<tag k="natural" v="slope" />
		<tag k="place" v="locality" />
		<tag k="ssr:stedsnr" v="398792" />
	</node>
	<node id="-579087" lat="62.5717277737" lon="7.10005555519">
		<tag k="name" v="Kjelbotnbakkan" />
		<tag k="natural" v="slope" />
		<tag k="place" v="locality" />
		<tag k="ssr:stedsnr" v="398791" />
	</node>
	<node id="-579086" lat="62.5741611116" lon="7.10109444047">
		<tag k="name" v="Skorgeneshaugen" />
		<tag k="natural" v="hill" />
		<tag k="place" v="locality" />
		<tag k="ssr:stedsnr" v="398790" />
	</node>
	<node id="-579082" lat="62.5906500035" lon="7.08088889103">
		<tag k="name" v="Skjenhaugen" />
		<tag k="natural" v="hill" />
		<tag k="place" v="locality" />
		<tag k="ssr:stedsnr" v="398775" />
	</node>
	<node id="-579081" lat="62.587263892" lon="7.09143610614">
		<tag k="name" v="Brastadlia" />
		<tag k="natural" v="slope" />
		<tag k="place" v="locality" />
		<tag k="ssr:stedsnr" v="398769" />
	</node>
	<node id="-579080" lat="62.6004388854" lon="7.08573611555">
		<tag k="name" v="Langhammaren" />
		<tag k="natural" v="slope" />
		<tag k="place" v="locality" />
		<tag k="ssr:stedsnr" v="398768" />
	</node>
	<node id="-579079" lat="62.5390416701" lon="7.17299722672">
		<tag k="name" v="Hoemskaret" />
		<tag k="natural" v="valley" />
		<tag k="place" v="locality" />
		<tag k="ssr:stedsnr" v="398754" />
	</node>
	<node id="-579078" lat="62.4694888918" lon="7.19713889551">
		<tag k="name" v="Tausaskredene" />
		<tag k="natural" v="slope" />
		<tag k="place" v="locality" />
		<tag k="ssr:stedsnr" v="398748" />
	</node>
	<node id="-579071" lat="62.5495916674" lon="7.10387499143">
		<tag k="name" v="Eggen" />
		<tag k="natural" v="ridge" />
		<tag k="place" v="locality" />
		<tag k="ssr:stedsnr" v="398666" />
	</node>
	<node id="-579070" lat="62.6081027754" lon="6.82311667124">
		<tag k="name" v="Glennå" />
		<tag k="natural" v="slope" />
		<tag k="place" v="locality" />
		<tag k="ssr:stedsnr" v="398634" />
	</node>
	<node id="-579067" lat="62.5693083371" lon="6.90468889727">
		<tag k="name" v="Skvenin" />
		<tag k="natural" v="slope" />
		<tag k="place" v="locality" />
		<tag k="ssr:stedsnr" v="398607" />
	</node>
	<node id="-579063" lat="62.588347226" lon="7.08949445098">
		<tag k="name" v="Grøfså" />
		<tag k="natural" v="valley" />
		<tag k="place" v="locality" />
		<tag k="ssr:stedsnr" v="398567" />
	</node>
	<node id="-579062" lat="62.5908166668" lon="7.16080832504">
		<tag k="name" v="Hamran" />
		<tag k="natural" v="slope" />
		<tag k="place" v="locality" />
		<tag k="ssr:stedsnr" v="398562" />
	</node>
	<node id="-579059" lat="62.557388892" lon="7.17487500304">
		<tag k="name" v="Hjellane" />
		<tag k="place" v="locality" />
		<tag k="ssr:stedsnr" v="398533" />
	</node>
	<node id="-579051" lat="62.5568250009" lon="6.86784999532">
		<tag k="name" v="Brennhaugen" />
		<tag k="natural" v="hill" />
		<tag k="place" v="locality" />
		<tag k="ssr:stedsnr" v="398164" />
	</node>
	<node id="-579049" lat="62.4735333296" lon="7.11139445132">
		<tag k="name" v="Myrbærholten" />
		<tag k="natural" v="slope" />
		<tag k="place" v="locality" />
		<tag k="ssr:stedsnr" v="398116" />
	</node>
	<node id="-579047" lat="62.4583861103" lon="7.16056667332">
		<tag k="name" v="Snøbreslætta" />
		<tag k="natural" v="slope" />
		<tag k="place" v="locality" />
		<tag k="ssr:stedsnr" v="398106" />
	</node>
	<node id="-579044" lat="62.5358027765" lon="7.00690833471">
		<tag k="name" v="Jutevassbotnen" />
		<tag k="natural" v="valley" />
		<tag k="place" v="locality" />
		<tag k="ssr:stedsnr" v="398086" />
	</node>
	<node id="-579042" lat="62.5519111116" lon="6.95128887959">
		<tag k="name" v="Stordalen" />
		<tag k="natural" v="valley" />
		<tag k="place" v="locality" />
		<tag k="ssr:stedsnr" v="398072" />
	</node>
	<node id="-579041" lat="62.547244442" lon="6.93666111203">
		<tag k="name" v="Rasballane" />
		<tag k="natural" v="hill" />
		<tag k="place" v="locality" />
		<tag k="ssr:stedsnr" v="398068" />
	</node>
	<node id="-579038" lat="62.5540305528" lon="6.99128888715">
		<tag k="name" v="Skahammaren" />
		<tag k="natural" v="cliff" />
		<tag k="ssr:stedsnr" v="398061" />
	</node>
	<node id="-579036" lat="62.5245694484" lon="7.0996166605">
		<tag k="name" v="Stordalsbrauta" />
		<tag k="natural" v="slope" />
		<tag k="place" v="locality" />
		<tag k="ssr:stedsnr" v="398050" />
	</node>
	<node id="-579035" lat="62.5542611127" lon="7.10842500485">
		<tag k="name" v="Nyseterhaugen" />
		<tag k="natural" v="hill" />
		<tag k="place" v="locality" />
		<tag k="ssr:stedsnr" v="398043" />
	</node>
	<node id="-579031" lat="62.5081583373" lon="7.12658611735">
		<tag k="name" v="Revsholen" />
		<tag k="natural" v="hill" />
		<tag k="place" v="locality" />
		<tag k="ssr:stedsnr" v="398002" />
	</node>
	<node id="-579029" lat="62.6013249987" lon="6.79409722839">
		<tag k="name" v="Botnen" />
		<tag k="natural" v="valley" />
		<tag k="place" v="locality" />
		<tag k="ssr:stedsnr" v="397388" />
	</node>
	<node id="-579028" lat="62.5966027738" lon="6.79110000899">
		<tag k="name" v="Spirhamrane" />
		<tag k="natural" v="ridge" />
		<tag k="place" v="locality" />
		<tag k="ssr:stedsnr" v="397387" />
	</node>
	<node id="-579025" lat="62.5884583296" lon="6.77130000406">
		<tag k="fixme" v="consider natural=peak for the most distinct mountains in the district" />
		<tag k="name" v="Lisleskjeringen" />
		<tag k="natural" v="hill" />
		<tag k="place" v="locality" />
		<tag k="ssr:stedsnr" v="397303" />
	</node>
	<node id="-579023" lat="62.6281972227" lon="6.73941944006">
		<tag k="name" v="Breiskaret" />
		<tag k="natural" v="valley" />
		<tag k="place" v="locality" />
		<tag k="ssr:stedsnr" v="397090" />
	</node>
	<node id="-579022" lat="62.6139444478" lon="6.75116666524">
		<tag k="name" v="Langdalsrøra" />
		<tag k="natural" v="ridge" />
		<tag k="place" v="locality" />
		<tag k="ssr:stedsnr" v="397084" />
	</node>
	<node id="-579015" lat="62.5576749981" lon="6.91045833685">
		<tag k="alt_name" v="Kvittuå" />
		<tag k="name" v="Kvittua" />
		<tag k="natural" v="hill" />
		<tag k="place" v="locality" />
		<tag k="ssr:stedsnr" v="376944" />
	</node>
	<node id="-579014" lat="62.5721076026" lon="7.09178009249">
		<tag k="name" v="Kjelbotnen" />
		<tag k="natural" v="valley" />
		<tag k="place" v="locality" />
		<tag k="ssr:stedsnr" v="376895" />
	</node>
	<node id="-579013" lat="62.6316694427" lon="7.00382776942">
		<tag k="name" v="Søråslia" />
		<tag k="natural" v="slope" />
		<tag k="place" v="locality" />
		<tag k="ssr:stedsnr" v="376041" />
	</node>
	<node id="-579008" lat="62.5854333306" lon="6.89875276939">
		<tag k="name" v="Strandastolen" />
		<tag k="natural" v="hill" />
		<tag k="place" v="locality" />
		<tag k="ssr:stedsnr" v="375966" />
	</node>
	<node id="-579003" lat="62.5562499993" lon="6.9488277748">
		<tag k="name" v="Tverrberget" />
		<tag k="natural" v="hill" />
		<tag k="place" v="locality" />
		<tag k="ssr:stedsnr" v="375902" />
	</node>
	<node id="-578996" lat="62.5318999973" lon="6.97851388189">
		<tag k="fixme" v="consider natural=peak for the most distinct mountains in the district" />
		<tag k="name" v="Varguraksla" />
		<tag k="natural" v="hill" />
		<tag k="place" v="locality" />
		<tag k="ssr:stedsnr" v="375802" />
	</node>
	<node id="-578990" lat="62.4735305538" lon="7.0648972154">
		<tag k="fixme" v="consider natural=peak for the most distinct mountains in the district" />
		<tag k="name" v="Litlebotnsrøra" />
		<tag k="natural" v="hill" />
		<tag k="old_name" v="Litlebottsrøra" />
		<tag k="place" v="locality" />
		<tag k="ssr:stedsnr" v="374366" />
	</node>
	<node id="-578983" lat="62.6537972223" lon="7.03323888868">
		<tag k="name" v="Kvernagrovberget" />
		<tag k="natural" v="hill" />
		<tag k="place" v="locality" />
		<tag k="ssr:stedsnr" v="354785" />
	</node>
	<node id="-578976" lat="62.5917388917" lon="6.85190278381">
		<tag k="name" v="Midtslettå" />
		<tag k="place" v="locality" />
		<tag k="ssr:stedsnr" v="338956" />
	</node>
	<node id="-578972" lat="62.5664166681" lon="6.91105555321">
		<tag k="name" v="Hesthammaren" />
		<tag k="place" v="locality" />
		<tag k="ssr:stedsnr" v="338904" />
	</node>
	<node id="-578970" lat="62.6132499997" lon="6.93624444515">
		<tag k="name" v="Nausthaugen" />
		<tag k="natural" v="hill" />
		<tag k="place" v="locality" />
		<tag k="ssr:stedsnr" v="338872" />
	</node>
	<node id="-578969" lat="62.6474250046" lon="7.04336945183">
		<tag k="name" v="Langvassrøra" />
		<tag k="natural" v="ridge" />
		<tag k="place" v="locality" />
		<tag k="ssr:stedsnr" v="338870" />
	</node>
	<node id="-578964" lat="62.5947416706" lon="6.93177500394">
		<tag k="name" v="Krogsbakken" />
		<tag k="natural" v="slope" />
		<tag k="place" v="locality" />
		<tag k="ssr:stedsnr" v="338842" />
	</node>
	<node id="-578960" lat="62.5937944484" lon="7.16025554839">
		<tag k="name" v="Løsetnakken" />
		<tag k="natural" v="ridge" />
		<tag k="place" v="locality" />
		<tag k="ssr:stedsnr" v="338763" />
	</node>
	<node id="-578959" lat="62.4831444426" lon="7.18885277482">
		<tag k="name" v="Heggjefonndalen" />
		<tag k="natural" v="valley" />
		<tag k="place" v="locality" />
		<tag k="ssr:stedsnr" v="338758" />
	</node>
	<node id="-578956" lat="62.5266500015" lon="7.21446111711">
		<tag k="name" v="Tverrberget" />
		<tag k="natural" v="slope" />
		<tag k="place" v="locality" />
		<tag k="ssr:stedsnr" v="338740" />
	</node>
	<node id="-578955" lat="62.5065972255" lon="7.08139999559">
		<tag k="name" v="Stegan" />
		<tag k="natural" v="slope" />
		<tag k="place" v="locality" />
		<tag k="ssr:stedsnr" v="338679" />
	</node>
	<node id="-578954" lat="62.5027444415" lon="7.0775027777">
		<tag k="name" v="Nakkane" />
		<tag k="natural" v="ridge" />
		<tag k="place" v="locality" />
		<tag k="ssr:stedsnr" v="338675" />
	</node>
	<node id="-578952" lat="62.5278249985" lon="7.09826944468">
		<tag k="name" v="Syltelia" />
		<tag k="natural" v="slope" />
		<tag k="place" v="locality" />
		<tag k="ssr:stedsnr" v="338653" />
	</node>
	<node id="-578951" lat="62.5318527789" lon="7.15467500516">
		<tag k="name" v="Litlelia" />
		<tag k="natural" v="slope" />
		<tag k="place" v="locality" />
		<tag k="ssr:stedsnr" v="338651" />
	</node>
	<node id="-578950" lat="62.5591527797" lon="7.0964555597">
		<tag k="name" v="Vardlia" />
		<tag k="natural" v="slope" />
		<tag k="place" v="locality" />
		<tag k="ssr:stedsnr" v="338647" />
	</node>
	<node id="-578948" lat="62.6538444445" lon="6.76342778428">
		<tag k="name" v="Skogan" />
		<tag k="natural" v="slope" />
		<tag k="place" v="locality" />
		<tag k="ssr:stedsnr" v="338631" />
	</node>
	<node id="-578947" lat="62.6007583298" lon="6.78817500238">
		<tag k="name" v="Botnen" />
		<tag k="natural" v="valley" />
		<tag k="place" v="locality" />
		<tag k="ssr:stedsnr" v="338633" />
	</node>
	<node id="-578943" lat="62.647227776" lon="7.02271389268">
		<tag k="name" v="Sollia" />
		<tag k="natural" v="slope" />
		<tag k="place" v="locality" />
		<tag k="ssr:stedsnr" v="338589" />
	</node>
	<node id="-578942" lat="62.6446638879" lon="6.97017221649">
		<tag k="fixme" v="consider natural=peak for the most distinct mountains in the district" />
		<tag k="name" v="Baråsen" />
		<tag k="natural" v="hill" />
		<tag k="place" v="locality" />
		<tag k="ssr:stedsnr" v="338584" />
	</node>
	<node id="-578939" lat="62.6485638885" lon="7.07518887956">
		<tag k="name" v="Storrøra" />
		<tag k="natural" v="ridge" />
		<tag k="place" v="locality" />
		<tag k="ssr:stedsnr" v="338562" />
	</node>
	<node id="-578936" lat="62.5839250032" lon="7.07151388886">
		<tag k="name" v="Botnen" />
		<tag k="natural" v="valley" />
		<tag k="place" v="locality" />
		<tag k="ssr:stedsnr" v="338530" />
	</node>
	<node id="-578935" lat="62.6088055584" lon="7.18554166535">
		<tag k="name" v="Knubben" />
		<tag k="natural" v="hill" />
		<tag k="place" v="locality" />
		<tag k="ssr:stedsnr" v="338517" />
	</node>
	<node id="-578934" lat="62.5486999998" lon="7.1721166691">
		<tag k="name" v="Glenne" />
		<tag k="natural" v="slope" />
		<tag k="place" v="locality" />
		<tag k="ssr:stedsnr" v="338507" />
	</node>
	<node id="-578933" lat="62.5432138917" lon="7.18257500205">
		<tag k="name" v="Brunene" />
		<tag k="natural" v="slope" />
		<tag k="place" v="locality" />
		<tag k="ssr:stedsnr" v="338504" />
	</node>
	<node id="-578932" lat="62.5695694473" lon="7.17456389569">
		<tag k="name" v="Villalia" />
		<tag k="natural" v="slope" />
		<tag k="place" v="locality" />
		<tag k="ssr:stedsnr" v="338493" />
	</node>
	<node id="-578924" lat="62.493044448" lon="7.05179721429">
		<tag k="name" v="Knutbensnakken" />
		<tag k="natural" v="hill" />
		<tag k="place" v="locality" />
		<tag k="ssr:stedsnr" v="338089" />
	</node>
	<node id="-578921" lat="62.5333166642" lon="7.1594222162">
		<tag k="name" v="Storhaugen" />
		<tag k="natural" v="hill" />
		<tag k="place" v="locality" />
		<tag k="ssr:stedsnr" v="338053" />
	</node>
	<node id="-578919" lat="62.5456277772" lon="7.08961389711">
		<tag k="name" v="Lekhaugen" />
		<tag k="natural" v="hill" />
		<tag k="place" v="locality" />
		<tag k="ssr:stedsnr" v="338045" />
	</node>
	<node id="-578918" lat="62.5078611119" lon="7.08968889078">
		<tag k="name" v="Nylehaugen" />
		<tag k="natural" v="hill" />
		<tag k="place" v="locality" />
		<tag k="ssr:stedsnr" v="338019" />
	</node>
	<node id="-578917" lat="62.5046638859" lon="7.09334999706">
		<tag k="name" v="Nylebytet" />
		<tag k="natural" v="slope" />
		<tag k="place" v="locality" />
		<tag k="ssr:stedsnr" v="338017" />
	</node>
	<node id="-578916" lat="62.5055444419" lon="7.10380000184">
		<tag k="name" v="Steffagjerdet" />
		<tag k="natural" v="slope" />
		<tag k="place" v="locality" />
		<tag k="ssr:stedsnr" v="338016" />
	</node>
	<node id="-578911" lat="62.640858329" lon="6.7067611031">
		<tag k="name" v="Røsta" />
		<tag k="place" v="locality" />
		<tag k="ssr:stedsnr" v="337290" />
	</node>
	<node id="-578909" lat="62.6259277798" lon="6.74977223022">
		<tag k="name" v="Seteraksla" />
		<tag k="place" v="locality" />
		<tag k="ssr:stedsnr" v="337067" />
	</node>
	<node id="-578908" lat="62.5232194462" lon="7.02671943706">
		<tag k="name" v="Rustene" />
		<tag k="natural" v="slope" />
		<tag k="place" v="locality" />
		<tag k="ssr:stedsnr" v="329351" />
	</node>
	<node id="-578907" lat="62.5289499981" lon="7.03486944101">
		<tag k="name" v="Vassbrauta" />
		<tag k="natural" v="slope" />
		<tag k="place" v="locality" />
		<tag k="ssr:stedsnr" v="329346" />
	</node>
	<node id="-578904" lat="62.596894445" lon="6.99850276884">
		<tag k="name" v="Sandhaugan" />
		<tag k="natural" v="hill" />
		<tag k="place" v="locality" />
		<tag k="ssr:stedsnr" v="315997" />
	</node>
	<node id="-578902" lat="62.5845777752" lon="7.05049166547">
		<tag k="fixme" v="consider natural=peak for the most distinct mountains in the district" />
		<tag k="name" v="Vardfjellet" />
		<tag k="natural" v="hill" />
		<tag k="place" v="locality" />
		<tag k="ssr:stedsnr" v="315977" />
	</node>
	<node id="-578895" lat="62.5762388872" lon="7.24253056429">
		<tag k="fixme" v="consider natural=peak for the most distinct mountains in the district" />
		<tag k="name" v="Skåla" />
		<tag k="natural" v="hill" />
		<tag k="place" v="locality" />
		<tag k="ssr:stedsnr" v="315257" />
	</node>
	<node id="-578894" lat="62.6442611156" lon="6.94506667185">
		<tag k="name" v="Jonsokhaugen" />
		<tag k="natural" v="hill" />
		<tag k="place" v="locality" />
		<tag k="ssr:stedsnr" v="315008" />
	</node>
	<node id="-578888" lat="62.4730555523" lon="7.06381945211">
		<tag k="name" v="Litlebotnen" />
		<tag k="natural" v="valley" />
		<tag k="old_name" v="Litlebotn" />
		<tag k="place" v="locality" />
		<tag k="ssr:stedsnr" v="314373" />
	</node>
	<node id="-578887" lat="62.492905556" lon="7.05191388007">
		<tag k="fixme" v="consider natural=peak for the most distinct mountains in the district" />
		<tag k="name" v="Knut Bensanakken" />
		<tag k="natural" v="hill" />
		<tag k="place" v="locality" />
		<tag k="ssr:stedsnr" v="314332" />
	</node>
	<node id="-578885" lat="62.498402782" lon="7.18269166829">
		<tag k="fixme" v="consider natural=peak for the most distinct mountains in the district" />
		<tag k="name" v="Vardfjellet" />
		<tag k="natural" v="hill" />
		<tag k="place" v="locality" />
		<tag k="ssr:stedsnr" v="314330" />
	</node>
	<node id="-578876" lat="62.558486114" lon="7.15829444808">
		<tag k="name" v="Storreiten" />
		<tag k="natural" v="ridge" />
		<tag k="place" v="locality" />
		<tag k="ssr:stedsnr" v="277977" />
	</node>
	<node id="-578874" lat="62.6372583352" lon="6.80401110612">
		<tag k="name" v="Fonnhaugen" />
		<tag k="natural" v="hill" />
		<tag k="place" v="locality" />
		<tag k="ssr:stedsnr" v="277948" />
	</node>
	<node id="-578871" lat="62.575505559" lon="6.90108333199">
		<tag k="name" v="Regndalen" />
		<tag k="natural" v="valley" />
		<tag k="place" v="locality" />
		<tag k="ssr:stedsnr" v="277926" />
	</node>
	<node id="-578867" lat="62.6183694417" lon="6.98674722935">
		<tag k="name" v="Lysthushaugen" />
		<tag k="natural" v="hill" />
		<tag k="place" v="locality" />
		<tag k="ssr:stedsnr" v="277907" />
	</node>
	<node id="-578866" lat="62.638925004" lon="7.03117500255">
		<tag k="name" v="Kattuglhaugen" />
		<tag k="natural" v="hill" />
		<tag k="place" v="locality" />
		<tag k="ssr:stedsnr" v="277893" />
	</node>
	<node id="-578864" lat="62.6238277814" lon="7.09039166212">
		<tag k="name" v="Nesabakken" />
		<tag k="natural" v="slope" />
		<tag k="place" v="locality" />
		<tag k="ssr:stedsnr" v="277871" />
	</node>
	<node id="-578863" lat="62.5872055524" lon="6.94627776847">
		<tag k="name" v="Løvollsrabban" />
		<tag k="natural" v="ridge" />
		<tag k="place" v="locality" />
		<tag k="ssr:stedsnr" v="277866" />
	</node>
	<node id="-578860" lat="62.6103666656" lon="7.09221389087">
		<tag k="name" v="Brattebøen" />
		<tag k="natural" v="slope" />
		<tag k="place" v="locality" />
		<tag k="ssr:stedsnr" v="277821" />
	</node>
	<node id="-578856" lat="62.6060416653" lon="7.08762500896">
		<tag k="name" v="Hjellhaugen" />
		<tag k="natural" v="hill" />
		<tag k="place" v="locality" />
		<tag k="ssr:stedsnr" v="277790" />
	</node>
	<node id="-578855" lat="62.5940722241" lon="7.1513833286">
		<tag k="name" v="Blomdalsrøra" />
		<tag k="natural" v="ridge" />
		<tag k="place" v="locality" />
		<tag k="ssr:stedsnr" v="277788" />
	</node>
	<node id="-578854" lat="62.5275583355" lon="7.2189749952">
		<tag k="name" v="Tverrberget" />
		<tag k="natural" v="slope" />
		<tag k="place" v="locality" />
		<tag k="ssr:stedsnr" v="277735" />
	</node>
	<node id="-578853" lat="62.5501194457" lon="7.24814445005">
		<tag k="name" v="Balletehaugen" />
		<tag k="natural" v="hill" />
		<tag k="place" v="locality" />
		<tag k="ssr:stedsnr" v="277733" />
	</node>
	<node id="-578849" lat="62.4956638878" lon="7.12044722347">
		<tag k="name" v="Svorin" />
		<tag k="natural" v="slope" />
		<tag k="place" v="locality" />
		<tag k="ssr:stedsnr" v="277706" />
	</node>
	<node id="-578847" lat="62.4870250002" lon="7.07597778493">
		<tag k="name" v="Nykane" />
		<tag k="natural" v="hill" />
		<tag k="place" v="locality" />
		<tag k="ssr:stedsnr" v="277700" />
	</node>
	<node id="-578846" lat="62.4983361147" lon="7.09615556165">
		<tag k="name" v="Herskeia" />
		<tag k="natural" v="slope" />
		<tag k="place" v="locality" />
		<tag k="ssr:stedsnr" v="277692" />
	</node>
	<node id="-578844" lat="62.5451916654" lon="7.1467972294">
		<tag k="name" v="Røra" />
		<tag k="natural" v="ridge" />
		<tag k="place" v="locality" />
		<tag k="ssr:stedsnr" v="277662" />
	</node>
	<node id="-578843" lat="62.5871638904" lon="6.85843333293">
		<tag k="name" v="Åsane" />
		<tag k="natural" v="ridge" />
		<tag k="place" v="locality" />
		<tag k="ssr:stedsnr" v="277660" />
	</node>
	<node id="-578842" lat="62.6099972193" lon="6.87976944972">
		<tag k="name" v="Lia" />
		<tag k="natural" v="slope" />
		<tag k="place" v="locality" />
		<tag k="ssr:stedsnr" v="277649" />
	</node>
	<node id="-578841" lat="62.6096444469" lon="6.81999722023">
		<tag k="name" v="Glennå" />
		<tag k="natural" v="slope" />
		<tag k="place" v="locality" />
		<tag k="ssr:stedsnr" v="277646" />
	</node>
	<node id="-578838" lat="62.5978749982" lon="6.95639443827">
		<tag k="name" v="Liarøra" />
		<tag k="natural" v="ridge" />
		<tag k="place" v="locality" />
		<tag k="ssr:stedsnr" v="277612" />
	</node>
	<node id="-578833" lat="62.5506555564" lon="7.20456667619">
		<tag k="name" v="Jøljane" />
		<tag k="natural" v="slope" />
		<tag k="place" v="locality" />
		<tag k="ssr:stedsnr" v="277535" />
	</node>
	<node id="-578826" lat="62.4652444465" lon="7.10825000271">
		<tag k="name" v="Midtryggen" />
		<tag k="natural" v="ridge" />
		<tag k="place" v="locality" />
		<tag k="ssr:stedsnr" v="277106" />
	</node>
	<node id="-578823" lat="62.4906694446" lon="7.05093333075">
		<tag k="name" v="Hauknutglenna" />
		<tag k="natural" v="slope" />
		<tag k="place" v="locality" />
		<tag k="ssr:stedsnr" v="277098" />
	</node>
	<node id="-578822" lat="62.4892833375" lon="7.15525832752">
		<tag k="name" v="Hamkammen" />
		<tag k="natural" v="ridge" />
		<tag k="place" v="locality" />
		<tag k="ssr:stedsnr" v="277090" />
	</node>
	<node id="-578821" lat="62.4886194445" lon="7.15658333857">
		<tag k="name" v="Grønningsdalen" />
		<tag k="natural" v="valley" />
		<tag k="place" v="locality" />
		<tag k="ssr:stedsnr" v="277088" />
	</node>
	<node id="-578820" lat="62.5366305525" lon="7.0374666604">
		<tag k="name" v="Jutevasslia" />
		<tag k="natural" v="slope" />
		<tag k="place" v="locality" />
		<tag k="ssr:stedsnr" v="277080" />
	</node>
	<node id="-578819" lat="62.5583888933" lon="6.94061388838">
		<tag k="name" v="Gudbranddalen" />
		<tag k="natural" v="valley" />
		<tag k="place" v="locality" />
		<tag k="ssr:stedsnr" v="277071" />
	</node>
	<node id="-578818" lat="62.5591805547" lon="6.95343610431">
		<tag k="name" v="Lislebotnen" />
		<tag k="natural" v="valley" />
		<tag k="place" v="locality" />
		<tag k="ssr:stedsnr" v="277070" />
	</node>
	<node id="-578817" lat="62.5335249998" lon="7.10160832934">
		<tag k="name" v="Eidhammarslia" />
		<tag k="natural" v="slope" />
		<tag k="place" v="locality" />
		<tag k="ssr:stedsnr" v="277046" />
	</node>
	<node id="-578815" lat="62.5536944487" lon="7.10399721756">
		<tag k="name" v="Nyseterslætta" />
		<tag k="natural" v="slope" />
		<tag k="place" v="locality" />
		<tag k="ssr:stedsnr" v="277030" />
	</node>
	<node id="-578814" lat="62.5505472234" lon="7.12195834114">
		<tag k="name" v="Lisledalen" />
		<tag k="natural" v="valley" />
		<tag k="place" v="locality" />
		<tag k="ssr:stedsnr" v="277027" />
	</node>
	<node id="-578810" lat="62.5028222235" lon="7.15464722995">
		<tag k="name" v="Kvennhusbakken" />
		<tag k="natural" v="ridge" />
		<tag k="place" v="locality" />
		<tag k="ssr:stedsnr" v="277011" />
	</node>
	<node id="-578806" lat="62.627844444" lon="6.74188610947">
		<tag k="name" v="Bjønnahålå" />
		<tag k="natural" v="valley" />
		<tag k="place" v="locality" />
		<tag k="ssr:stedsnr" v="276094" />
	</node>
	<node id="-580650" lat="62.5429250043" lon="7.15462777848">
		<tag k="name" v="Kvennhusdalen" />
		<tag k="natural" v="valley" />
		<tag k="place" v="locality" />
		<tag k="ssr:stedsnr" v="945989" />
	</node>
	<node id="-580645" lat="62.6481611125" lon="6.97297221282">
		<tag k="name" v="Kålnakken" />
		<tag k="natural" v="hill" />
		<tag k="place" v="locality" />
		<tag k="ssr:stedsnr" v="945949" />
	</node>
	<node id="-580641" lat="62.6140000008" lon="7.03833055813">
		<tag k="name" v="Råkhaugen" />
		<tag k="natural" v="hill" />
		<tag k="place" v="locality" />
		<tag k="ssr:stedsnr" v="945908" />
	</node>
	<node id="-580640" lat="62.6402027759" lon="7.04593888921">
		<tag k="name" v="Supusdalen" />
		<tag k="natural" v="valley" />
		<tag k="place" v="locality" />
		<tag k="ssr:stedsnr" v="945896" />
	</node>
	<node id="-580639" lat="62.6374555583" lon="6.99051388702">
		<tag k="name" v="Djupdalen" />
		<tag k="natural" v="valley" />
		<tag k="place" v="locality" />
		<tag k="ssr:stedsnr" v="945887" />
	</node>
	<node id="-580638" lat="62.6357194485" lon="7.02554167406">
		<tag k="name" v="Storhaugen" />
		<tag k="natural" v="hill" />
		<tag k="place" v="locality" />
		<tag k="ssr:stedsnr" v="945884" />
	</node>
	<node id="-580631" lat="62.6135277806" lon="7.1434361052">
		<tag k="name" v="Nausthaugen" />
		<tag k="natural" v="hill" />
		<tag k="place" v="locality" />
		<tag k="ssr:stedsnr" v="945824" />
	</node>
	<node id="-580629" lat="62.6097833366" lon="7.07380278255">
		<tag k="name" v="Lammeskaret" />
		<tag k="natural" v="valley" />
		<tag k="place" v="locality" />
		<tag k="ssr:stedsnr" v="945788" />
	</node>
	<node id="-580626" lat="62.586544447" lon="7.16358611034">
		<tag k="name" v="Storglennå" />
		<tag k="natural" v="cliff" />
		<tag k="ssr:stedsnr" v="945748" />
	</node>
	<node id="-580624" lat="62.4638305549" lon="7.18359443606">
		<tag k="name" v="Snøbreslætta" />
		<tag k="place" v="locality" />
		<tag k="ssr:stedsnr" v="945731" />
	</node>
	<node id="-580621" lat="62.5753527761" lon="7.18750278605">
		<tag k="name" v="Risurdalen" />
		<tag k="natural" v="valley" />
		<tag k="place" v="locality" />
		<tag k="ssr:stedsnr" v="945705" />
	</node>
	<node id="-580619" lat="62.5553222189" lon="7.00084721685">
		<tag k="name" v="Godlia" />
		<tag k="natural" v="slope" />
		<tag k="place" v="locality" />
		<tag k="ssr:stedsnr" v="945689" />
	</node>
	<node id="-580618" lat="62.4723388887" lon="7.03755554699">
		<tag k="name" v="Nykane" />
		<tag k="natural" v="slope" />
		<tag k="place" v="locality" />
		<tag k="ssr:stedsnr" v="945681" />
	</node>
	<node id="-580617" lat="62.5591499981" lon="7.06713888678">
		<tag k="name" v="Grøfså" />
		<tag k="natural" v="valley" />
		<tag k="place" v="locality" />
		<tag k="ssr:stedsnr" v="945662" />
	</node>
	<node id="-580615" lat="62.5741222193" lon="6.92105277552">
		<tag k="name" v="Dalan" />
		<tag k="natural" v="valley" />
		<tag k="place" v="locality" />
		<tag k="ssr:stedsnr" v="945586" />
	</node>
	<node id="-580613" lat="62.6077972214" lon="7.15184165697">
		<tag k="name" v="Ådalen" />
		<tag k="natural" v="valley" />
		<tag k="place" v="locality" />
		<tag k="ssr:stedsnr" v="945546" />
	</node>
	<node id="-580611" lat="62.4781249991" lon="7.1737666655">
		<tag k="name" v="Haukland" />
		<tag k="natural" v="ridge" />
		<tag k="place" v="locality" />
		<tag k="ssr:stedsnr" v="945517" />
	</node>
	<node id="-580610" lat="62.551113893" lon="7.17580832972">
		<tag k="name" v="Geitlia" />
		<tag k="natural" v="slope" />
		<tag k="place" v="locality" />
		<tag k="ssr:stedsnr" v="945514" />
	</node>
	<node id="-580605" lat="62.5239388847" lon="7.22152221655">
		<tag k="name" v="Stølan" />
		<tag k="natural" v="slope" />
		<tag k="place" v="locality" />
		<tag k="ssr:stedsnr" v="945499" />
	</node>
	<node id="-580595" lat="62.5535055569" lon="6.9437555593">
		<tag k="name" v="Eggarørene" />
		<tag k="natural" v="ridge" />
		<tag k="place" v="locality" />
		<tag k="ssr:stedsnr" v="945061" />
	</node>
	<node id="-580594" lat="62.5633250013" lon="7.01737499744">
		<tag k="name" v="Bøndergjerde" />
		<tag k="natural" v="slope" />
		<tag k="place" v="locality" />
		<tag k="ssr:stedsnr" v="945058" />
	</node>
	<node id="-580591" lat="62.5575944468" lon="7.05544721468">
		<tag k="name" v="Høgfjellrøra" />
		<tag k="natural" v="ridge" />
		<tag k="place" v="locality" />
		<tag k="ssr:stedsnr" v="945040" />
	</node>
	<node id="-580590" lat="62.5052499985" lon="7.12227499163">
		<tag k="name" v="Kvennflata" />
		<tag k="place" v="locality" />
		<tag k="ssr:stedsnr" v="945013" />
	</node>
	<node id="-580589" lat="62.6034861105" lon="6.77841666668">
		<tag k="name" v="Fosselia" />
		<tag k="natural" v="slope" />
		<tag k="place" v="locality" />
		<tag k="ssr:stedsnr" v="944285" />
	</node>
	<node id="-580588" lat="62.5936722226" lon="6.76060278209">
		<tag k="name" v="Klubbegga" />
		<tag k="place" v="locality" />
		<tag k="ssr:stedsnr" v="944283" />
	</node>
	<node id="-580587" lat="62.5672666639" lon="6.84638611247">
		<tag k="name" v="Øvste Knausen" />
		<tag k="natural" v="cliff" />
		<tag k="ssr:stedsnr" v="944101" />
	</node>
	<node id="-580585" lat="62.6450861087" lon="6.78776387949">
		<tag k="name" v="Sollinakken" />
		<tag k="natural" v="ridge" />
		<tag k="place" v="locality" />
		<tag k="ssr:stedsnr" v="936240" />
	</node>
	<node id="-580584" lat="62.5746775433" lon="7.02965815874">
		<tag k="fixme" v="consider natural=peak for the most distinct mountains in the district" />
		<tag k="name" v="Brustinden" />
		<tag k="natural" v="hill" />
		<tag k="place" v="locality" />
		<tag k="ssr:stedsnr" v="930360" />
	</node>
	<node id="-580583" lat="62.6054861091" lon="6.73930554609">
		<tag k="fixme" v="consider natural=peak for the most distinct mountains in the district" />
		<tag k="name" v="Blåskjerdingen" />
		<tag k="natural" v="hill" />
		<tag k="place" v="locality" />
		<tag k="ssr:stedsnr" v="922995" />
	</node>
	<node id="-580581" lat="62.590772224" lon="7.00846112058">
		<tag k="alt_name" v="Grønnbakken" />
		<tag k="name" v="Grønbakken" />
		<tag k="natural" v="slope" />
		<tag k="place" v="locality" />
		<tag k="ssr:stedsnr" v="922987" />
	</node>
	<node id="-580580" lat="62.5879638853" lon="6.88156944648">
		<tag k="fixme" v="consider natural=peak for the most distinct mountains in the district" />
		<tag k="name" v="Storhaugen" />
		<tag k="natural" v="hill" />
		<tag k="place" v="locality" />
		<tag k="ssr:stedsnr" v="922980" />
	</node>
	<node id="-580575" lat="62.5632777821" lon="6.90561110624">
		<tag k="name" v="Tua" />
		<tag k="natural" v="hill" />
		<tag k="place" v="locality" />
		<tag k="ssr:stedsnr" v="922917" />
	</node>
	<node id="-580571" lat="62.5724499984" lon="6.9454305537">
		<tag k="name" v="Tomrebøra" />
		<tag k="natural" v="valley" />
		<tag k="place" v="locality" />
		<tag k="ssr:stedsnr" v="922880" />
	</node>
	<node id="-580568" lat="62.5138361139" lon="7.08514722322">
		<tag k="name" v="Knausan" />
		<tag k="natural" v="hill" />
		<tag k="place" v="locality" />
		<tag k="ssr:stedsnr" v="922848" />
	</node>
	<node id="-580567" lat="62.5034999995" lon="7.0564083341">
		<tag k="name" v="Storhola" />
		<tag k="natural" v="valley" />
		<tag k="place" v="locality" />
		<tag k="ssr:stedsnr" v="922829" />
	</node>
	<node id="-580561" lat="62.6406972205" lon="6.78770556421">
		<tag k="name" v="Sollia" />
		<tag k="natural" v="slope" />
		<tag k="place" v="locality" />
		<tag k="ssr:stedsnr" v="922020" />
	</node>
	<node id="-580556" lat="62.4549916647" lon="7.13841110812">
		<tag k="name" v="Brudefølgjet" />
		<tag k="natural" v="hill" />
		<tag k="place" v="locality" />
		<tag k="ssr:stedsnr" v="921396" />
	</node>
	<node id="-580555" lat="62.4699249969" lon="7.16838333887">
		<tag k="fixme" v="consider natural=peak for the most distinct mountains in the district" />
		<tag k="name" v="Storskorka" />
		<tag k="natural" v="hill" />
		<tag k="old_name" v="Storskorkja" />
		<tag k="place" v="locality" />
		<tag k="ssr:stedsnr" v="921379" />
	</node>
	<node id="-580554" lat="62.4712055555" lon="7.0839222277">
		<tag k="name" v="Inste Hola" />
		<tag k="natural" v="valley" />
		<tag k="old_name" v="Hola, inste" />
		<tag k="place" v="locality" />
		<tag k="ssr:stedsnr" v="921360" />
	</node>
	<node id="-580551" lat="62.4851583299" lon="7.05973610766">
		<tag k="name" v="Kjersemdalen" />
		<tag k="natural" v="valley" />
		<tag k="place" v="locality" />
		<tag k="ssr:stedsnr" v="921318" />
	</node>
	<node id="-580547" lat="62.5511786972" lon="6.99808373719">
		<tag k="name" v="Trollbotnen" />
		<tag k="natural" v="valley" />
		<tag k="place" v="locality" />
		<tag k="ssr:stedsnr" v="921894" />
	</node>
	<node id="-580542" lat="62.6101555513" lon="7.06976388877">
		<tag k="fixme" v="consider natural=peak for the most distinct mountains in the district" />
		<tag k="name" v="Kollen" />
		<tag k="natural" v="hill" />
		<tag k="place" v="locality" />
		<tag k="ssr:stedsnr" v="861992" />
	</node>
	<node id="-580534" lat="62.5687333363" lon="7.03344721421">
		<tag k="name" v="Skorgedalen" />
		<tag k="natural" v="valley" />
		<tag k="place" v="locality" />
		<tag k="ssr:stedsnr" v="861894" />
	</node>
	<node id="-580530" lat="62.5440999995" lon="6.9989611015">
		<tag k="fixme" v="consider natural=peak for the most distinct mountains in the district" />
		<tag k="name" v="Sandtinden" />
		<tag k="natural" v="hill" />
		<tag k="place" v="locality" />
		<tag k="ssr:stedsnr" v="861849" />
	</node>
	<node id="-580529" lat="62.5475055583" lon="7.02370554671">
		<tag k="fixme" v="consider natural=peak for the most distinct mountains in the district" />
		<tag k="name" v="Sprovstinden" />
		<tag k="natural" v="hill" />
		<tag k="place" v="locality" />
		<tag k="ssr:stedsnr" v="861848" />
	</node>
	<node id="-580522" lat="62.6155666707" lon="6.7941555535">
		<tag k="fixme" v="consider natural=peak for the most distinct mountains in the district" />
		<tag k="name" v="Nakkefjellet" />
		<tag k="natural" v="hill" />
		<tag k="place" v="locality" />
		<tag k="ssr:stedsnr" v="861023" />
	</node>
	<node id="-580521" lat="62.6169611142" lon="6.7772888889">
		<tag k="name" v="Rekdalsdalen" />
		<tag k="natural" v="valley" />
		<tag k="place" v="locality" />
		<tag k="ssr:stedsnr" v="861021" />
	</node>
	<node id="-580519" lat="62.4910527766" lon="7.02243332815">
		<tag k="name" v="Storbotnen" />
		<tag k="natural" v="valley" />
		<tag k="old_name" v="Storbotn" />
		<tag k="place" v="locality" />
		<tag k="ssr:stedsnr" v="860367" />
	</node>
	<node id="-580506" lat="62.6120666674" lon="7.00289722568">
		<tag k="name" v="Hjellbakken" />
		<tag k="natural" v="slope" />
		<tag k="place" v="locality" />
		<tag k="ssr:stedsnr" v="824912" />
	</node>
	<node id="-580505" lat="62.6087388888" lon="7.0393305523">
		<tag k="name" v="Misfjordlia" />
		<tag k="natural" v="slope" />
		<tag k="place" v="locality" />
		<tag k="ssr:stedsnr" v="824908" />
	</node>
	<node id="-580503" lat="62.6403027738" lon="7.05690278657">
		<tag k="name" v="Ramnehaugen" />
		<tag k="natural" v="hill" />
		<tag k="place" v="locality" />
		<tag k="ssr:stedsnr" v="824882" />
	</node>
	<node id="-580500" lat="62.6115305551" lon="7.16070832492">
		<tag k="name" v="Kvalshaugen" />
		<tag k="natural" v="hill" />
		<tag k="place" v="locality" />
		<tag k="ssr:stedsnr" v="824844" />
	</node>
	<node id="-580499" lat="62.6044250024" lon="7.07162778176">
		<tag k="name" v="Rikhardholen" />
		<tag k="natural" v="ridge" />
		<tag k="place" v="locality" />
		<tag k="ssr:stedsnr" v="824838" />
	</node>
	<node id="-580497" lat="62.5680305517" lon="7.09133056313">
		<tag k="name" v="Heimdalen" />
		<tag k="natural" v="valley" />
		<tag k="place" v="locality" />
		<tag k="ssr:stedsnr" v="824825" />
	</node>
	<node id="-580493" lat="62.4891972215" lon="7.17826388418">
		<tag k="name" v="Storbytet" />
		<tag k="natural" v="slope" />
		<tag k="place" v="locality" />
		<tag k="ssr:stedsnr" v="824785" />
	</node>
	<node id="-580492" lat="62.5436166672" lon="7.20559445306">
		<tag k="name" v="Botnryggen" />
		<tag k="natural" v="ridge" />
		<tag k="place" v="locality" />
		<tag k="ssr:stedsnr" v="824783" />
	</node>
	<node id="-580489" lat="62.5515527759" lon="7.24880833235">
		<tag k="name" v="Hesthaugen" />
		<tag k="natural" v="hill" />
		<tag k="place" v="locality" />
		<tag k="ssr:stedsnr" v="824752" />
	</node>
	<node id="-580488" lat="62.5938694413" lon="7.20064721343">
		<tag k="name" v="Hjelvikskaret" />
		<tag k="natural" v="valley" />
		<tag k="place" v="locality" />
		<tag k="ssr:stedsnr" v="824744" />
	</node>
	<node id="-580487" lat="62.6025611068" lon="7.20346389719">
		<tag k="name" v="Inneraksla" />
		<tag k="natural" v="ridge" />
		<tag k="place" v="locality" />
		<tag k="ssr:stedsnr" v="824737" />
	</node>
	<node id="-580486" lat="62.5630249994" lon="7.03948610427">
		<tag k="name" v="Røra" />
		<tag k="natural" v="ridge" />
		<tag k="place" v="locality" />
		<tag k="ssr:stedsnr" v="824726" />
	</node>
	<node id="-580485" lat="62.5582805522" lon="6.9037027838">
		<tag k="name" v="Furneset" />
		<tag k="natural" v="ridge" />
		<tag k="place" v="locality" />
		<tag k="ssr:stedsnr" v="824716" />
	</node>
	<node id="-580484" lat="62.4770194463" lon="7.03742499384">
		<tag k="name" v="Varlia" />
		<tag k="natural" v="slope" />
		<tag k="place" v="locality" />
		<tag k="ssr:stedsnr" v="824712" />
	</node>
	<node id="-580479" lat="62.5933472223" lon="7.07166944185">
		<tag k="name" v="Skaret" />
		<tag k="natural" v="valley" />
		<tag k="place" v="locality" />
		<tag k="ssr:stedsnr" v="824599" />
	</node>
	<node id="-580477" lat="62.4677805576" lon="7.10714721566">
		<tag k="name" v="Midtreset" />
		<tag k="natural" v="ridge" />
		<tag k="place" v="locality" />
		<tag k="ssr:stedsnr" v="824143" />
	</node>
	<node id="-580476" lat="62.4690638861" lon="7.10705000366">
		<tag k="name" v="Sørereset" />
		<tag k="natural" v="ridge" />
		<tag k="place" v="locality" />
		<tag k="ssr:stedsnr" v="824141" />
	</node>
	<node id="-580475" lat="62.4660055589" lon="7.16203611775">
		<tag k="name" v="Skorkjareset" />
		<tag k="natural" v="slope" />
		<tag k="place" v="locality" />
		<tag k="ssr:stedsnr" v="824131" />
	</node>
	<node id="-580470" lat="62.5617138847" lon="6.97401666573">
		<tag k="name" v="Dalteigane" />
		<tag k="natural" v="slope" />
		<tag k="place" v="locality" />
		<tag k="ssr:stedsnr" v="824089" />
	</node>
	<node id="-580469" lat="62.4757750035" lon="7.05083055942">
		<tag k="name" v="Skjenstøa" />
		<tag k="natural" v="slope" />
		<tag k="place" v="locality" />
		<tag k="ssr:stedsnr" v="824083" />
	</node>
	<node id="-580466" lat="62.6371777794" lon="6.7535500062">
		<tag k="name" v="Storknausen" />
		<tag k="natural" v="ridge" />
		<tag k="place" v="locality" />
		<tag k="ssr:stedsnr" v="823985" />
	</node>
	<node id="-580465" lat="62.645191671" lon="6.77762776862">
		<tag k="name" v="Skarteigan" />
		<tag k="natural" v="slope" />
		<tag k="place" v="locality" />
		<tag k="ssr:stedsnr" v="823981" />
	</node>
	<node id="-580464" lat="62.6429250043" lon="6.74962777494">
		<tag k="name" v="Svarteberget" />
		<tag k="natural" v="slope" />
		<tag k="place" v="locality" />
		<tag k="ssr:stedsnr" v="823967" />
	</node>
	<node id="-580462" lat="62.6044277797" lon="6.82589999877">
		<tag k="name" v="Saghaugane" />
		<tag k="natural" v="hill" />
		<tag k="place" v="locality" />
		<tag k="ssr:stedsnr" v="823947" />
	</node>
	<node id="-580461" lat="62.5869555587" lon="6.82981110535">
		<tag k="name" v="Mælskaret" />
		<tag k="natural" v="valley" />
		<tag k="place" v="locality" />
		<tag k="ssr:stedsnr" v="823942" />
	</node>
	<node id="-580459" lat="62.6306666694" lon="6.82861389618">
		<tag k="name" v="Knausnakken" />
		<tag k="natural" v="hill" />
		<tag k="place" v="locality" />
		<tag k="ssr:stedsnr" v="823913" />
	</node>
	<node id="-580457" lat="62.6458555597" lon="6.9803388877">
		<tag k="name" v="Nonshaugen" />
		<tag k="natural" v="hill" />
		<tag k="place" v="locality" />
		<tag k="ssr:stedsnr" v="823906" />
	</node>
	<node id="-580454" lat="62.5853472185" lon="6.90880277665">
		<tag k="name" v="Juvikhamran" />
		<tag k="place" v="locality" />
		<tag k="ssr:stedsnr" v="823885" />
	</node>
	<node id="-580452" lat="62.5804888916" lon="6.78904722263">
		<tag k="name" v="Nakkedalen" />
		<tag k="natural" v="valley" />
		<tag k="place" v="locality" />
		<tag k="ssr:stedsnr" v="823699" />
	</node>
	<node id="-580450" lat="62.6384972179" lon="6.77510278276">
		<tag k="name" v="Tverrlia" />
		<tag k="natural" v="slope" />
		<tag k="place" v="locality" />
		<tag k="ssr:stedsnr" v="823637" />
	</node>
	<node id="-580445" lat="62.6521777784" lon="7.06813055689">
		<tag k="name" v="Legdene" />
		<tag k="natural" v="slope" />
		<tag k="place" v="locality" />
		<tag k="ssr:stedsnr" v="823587" />
	</node>
	<node id="-580443" lat="62.5660638871" lon="7.10793610814">
		<tag k="name" v="Bødalan" />
		<tag k="natural" v="valley" />
		<tag k="place" v="locality" />
		<tag k="ssr:stedsnr" v="823555" />
	</node>
	<node id="-580442" lat="62.5993861069" lon="7.14055834205">
		<tag k="name" v="Reiten" />
		<tag k="natural" v="slope" />
		<tag k="place" v="locality" />
		<tag k="ssr:stedsnr" v="823556" />
	</node>
	<node id="-580441" lat="62.5715166698" lon="7.12026943576">
		<tag k="name" v="Bakkan" />
		<tag k="natural" v="slope" />
		<tag k="place" v="locality" />
		<tag k="ssr:stedsnr" v="823552" />
	</node>
	<node id="-580439" lat="62.4650805563" lon="7.18808610744">
		<tag k="name" v="Kjølen" />
		<tag k="natural" v="ridge" />
		<tag k="place" v="locality" />
		<tag k="ssr:stedsnr" v="823550" />
	</node>
	<node id="-580437" lat="62.5699416646" lon="7.22793611285">
		<tag k="name" v="Skålsida" />
		<tag k="natural" v="slope" />
		<tag k="place" v="locality" />
		<tag k="ssr:stedsnr" v="823527" />
	</node>
	<node id="-580431" lat="62.5618666643" lon="6.99480555113">
		<tag k="name" v="Storteigen" />
		<tag k="natural" v="slope" />
		<tag k="place" v="locality" />
		<tag k="ssr:stedsnr" v="823062" />
	</node>
	<node id="-580430" lat="62.5356555551" lon="7.13221944231">
		<tag k="name" v="Eidhammarshaugen" />
		<tag k="natural" v="hill" />
		<tag k="place" v="locality" />
		<tag k="ssr:stedsnr" v="823061" />
	</node>
	<node id="-580429" lat="62.5204805579" lon="7.14902776952">
		<tag k="name" v="Svåradalen" />
		<tag k="natural" v="valley" />
		<tag k="place" v="locality" />
		<tag k="ssr:stedsnr" v="823054" />
	</node>
	<node id="-580428" lat="62.5607388894" lon="7.11627221909">
		<tag k="name" v="Bjermelandsgjerdet" />
		<tag k="natural" v="slope" />
		<tag k="place" v="locality" />
		<tag k="ssr:stedsnr" v="823030" />
	</node>
	<node id="-580427" lat="62.5491777737" lon="7.12247500958">
		<tag k="name" v="Stordalen" />
		<tag k="natural" v="valley" />
		<tag k="place" v="locality" />
		<tag k="ssr:stedsnr" v="823026" />
	</node>
	<node id="-580426" lat="62.5600861123" lon="7.1653944402">
		<tag k="fixme" v="consider natural=peak for the most distinct mountains in the district" />
		<tag k="name" v="Fugleøymane" />
		<tag k="natural" v="hill" />
		<tag k="place" v="locality" />
		<tag k="ssr:stedsnr" v="823021" />
	</node>
	<node id="-580425" lat="62.5119083348" lon="7.15868332565">
		<tag k="name" v="Førnakken" />
		<tag k="natural" v="ridge" />
		<tag k="place" v="locality" />
		<tag k="ssr:stedsnr" v="823008" />
	</node>
	<node id="-580424" lat="62.5382194434" lon="7.11529165976">
		<tag k="name" v="Kvennhusdalen" />
		<tag k="natural" v="valley" />
		<tag k="place" v="locality" />
		<tag k="ssr:stedsnr" v="823003" />
	</node>
	<node id="-580423" lat="62.6397611101" lon="6.71691389413">
		<tag k="name" v="Nakkelægda" />
		<tag k="place" v="locality" />
		<tag k="ssr:stedsnr" v="822378" />
	</node>
	<node id="-580421" lat="62.6087805561" lon="7.06051945139">
		<tag k="name" v="Ramberget" />
		<tag k="natural" v="hill" />
		<tag k="place" v="locality" />
		<tag k="ssr:stedsnr" v="809363" />
	</node>
	<node id="-580413" lat="62.5671555594" lon="6.94673333738">
		<tag k="fixme" v="multiple name tags, choose one and add the other to alt_name; consider natural=peak for the most distinct mountains in the district" />
		<tag k="name" v="Middagsfjellet;Sandfjellet" />
		<tag k="natural" v="hill" />
		<tag k="place" v="locality" />
		<tag k="ssr:stedsnr" v="801878" />
	</node>
	<node id="-580411" lat="62.5635305523" lon="6.87474723171">
		<tag k="fixme" v="consider natural=peak for the most distinct mountains in the district" />
		<tag k="name" v="Varden" />
		<tag k="natural" v="hill" />
		<tag k="place" v="locality" />
		<tag k="ssr:stedsnr" v="801853" />
	</node>
	<node id="-580410" lat="62.5256388887" lon="7.17537777489">
		<tag k="name" v="Sylteskaret" />
		<tag k="natural" v="valley" />
		<tag k="place" v="locality" />
		<tag k="ssr:stedsnr" v="801850" />
	</node>
	<node id="-580406" lat="62.527744448" lon="7.07607221547">
		<tag k="alt_name" v="Smørhylla, nørdre" />
		<tag k="fixme" v="consider natural=peak for the most distinct mountains in the district" />
		<tag k="name" v="Nørdre Smørhylla" />
		<tag k="natural" v="hill" />
		<tag k="place" v="locality" />
		<tag k="ssr:stedsnr" v="801786" />
	</node>
	<node id="-580404" lat="62.5558027757" lon="7.27845833518">
		<tag k="fixme" v="multiple name tags, choose one and add the other to alt_name; consider natural=peak for the most distinct mountains in the district" />
		<tag k="name" v="Midttinden;Mjølketua" />
		<tag k="natural" v="hill" />
		<tag k="place" v="locality" />
		<tag k="ssr:stedsnr" v="801554" />
	</node>
	<node id="-580403" lat="62.5492722215" lon="7.28192777977">
		<tag k="fixme" v="consider natural=peak for the most distinct mountains in the district" />
		<tag k="name" v="Trolltinden" />
		<tag k="natural" v="hill" />
		<tag k="place" v="locality" />
		<tag k="ssr:stedsnr" v="801544" />
	</node>
	<node id="-580402" lat="62.5279194404" lon="7.23906110583">
		<tag k="fixme" v="multiple name tags, choose one and add the other to alt_name; consider natural=peak for the most distinct mountains in the district" />
		<tag k="name" v="Sessknubben;Storknubben" />
		<tag k="natural" v="hill" />
		<tag k="place" v="locality" />
		<tag k="ssr:stedsnr" v="801406" />
	</node>
	<node id="-580399" lat="62.645423793" lon="6.96018408778">
		<tag k="fixme" v="consider natural=peak for the most distinct mountains in the district" />
		<tag k="name" v="Lauvåsen" />
		<tag k="natural" v="hill" />
		<tag k="place" v="locality" />
		<tag k="ssr:stedsnr" v="801042" />
	</node>
	<node id="-580395" lat="62.6245055574" lon="6.81958610577">
		<tag k="name" v="Ytstelia" />
		<tag k="natural" v="slope" />
		<tag k="place" v="locality" />
		<tag k="ssr:stedsnr" v="801021" />
	</node>
	<node id="-580394" lat="62.6502666625" lon="7.07398610895">
		<tag k="name" v="Halseberget" />
		<tag k="natural" v="hill" />
		<tag k="place" v="locality" />
		<tag k="ssr:stedsnr" v="801011" />
	</node>
	<node id="-580391" lat="62.5456972265" lon="7.19126389171">
		<tag k="name" v="Sessdalen" />
		<tag k="natural" v="valley" />
		<tag k="place" v="locality" />
		<tag k="ssr:stedsnr" v="800805" />
	</node>
	<node id="-580390" lat="62.5342888904" lon="7.1703000009">
		<tag k="fixme" v="consider natural=peak for the most distinct mountains in the district" />
		<tag k="name" v="Hoemstinden" />
		<tag k="natural" v="hill" />
		<tag k="place" v="locality" />
		<tag k="ssr:stedsnr" v="800803" />
	</node>
	<node id="-580389" lat="62.5312500028" lon="7.11392500388">
		<tag k="name" v="Sporholen" />
		<tag k="natural" v="hill" />
		<tag k="place" v="locality" />
		<tag k="ssr:stedsnr" v="800796" />
	</node>
	<node id="-580379" lat="62.6067756197" lon="7.15813218192">
		<tag k="name" v="Bergerenna" />
		<tag k="natural" v="valley" />
		<tag k="place" v="locality" />
		<tag k="ssr:stedsnr" v="763824" />
	</node>
	<node id="-580377" lat="62.6097444475" lon="7.06723888199">
		<tag k="name" v="Storskaret" />
		<tag k="natural" v="valley" />
		<tag k="place" v="locality" />
		<tag k="ssr:stedsnr" v="763806" />
	</node>
	<node id="-580375" lat="62.5773916649" lon="7.05284721945">
		<tag k="name" v="Vassbakkan" />
		<tag k="natural" v="slope" />
		<tag k="place" v="locality" />
		<tag k="ssr:stedsnr" v="763789" />
	</node>
	<node id="-580371" lat="62.5950388916" lon="7.15308888461">
		<tag k="name" v="Blomidalen" />
		<tag k="natural" v="valley" />
		<tag k="place" v="locality" />
		<tag k="ssr:stedsnr" v="763773" />
	</node>
	<node id="-580369" lat="62.5570583332" lon="7.18213334037">
		<tag k="name" v="Kjerringbenkane" />
		<tag k="place" v="locality" />
		<tag k="ssr:stedsnr" v="763758" />
	</node>
	<node id="-580367" lat="62.6069222179" lon="7.18935277573">
		<tag k="name" v="Langskarholå" />
		<tag k="natural" v="valley" />
		<tag k="place" v="locality" />
		<tag k="ssr:stedsnr" v="763748" />
	</node>
	<node id="-580361" lat="62.4642722184" lon="7.04761111451">
		<tag k="name" v="Seterlia" />
		<tag k="natural" v="slope" />
		<tag k="place" v="locality" />
		<tag k="ssr:stedsnr" v="763720" />
	</node>
	<node id="-580359" lat="62.5562250019" lon="6.86459722888">
		<tag k="name" v="Nakken" />
		<tag k="natural" v="ridge" />
		<tag k="place" v="locality" />
		<tag k="ssr:stedsnr" v="763712" />
	</node>
	<node id="-580356" lat="62.5497277791" lon="7.15771666793">
		<tag k="name" v="Gjerda" />
		<tag k="natural" v="slope" />
		<tag k="place" v="locality" />
		<tag k="ssr:stedsnr" v="763667" />
	</node>
	<node id="-580355" lat="62.647636115" lon="6.79437777358">
		<tag k="name" v="Liateigan" />
		<tag k="natural" v="slope" />
		<tag k="place" v="locality" />
		<tag k="ssr:stedsnr" v="762989" />
	</node>
	<node id="-580354" lat="62.6425138911" lon="6.73829444989">
		<tag k="name" v="Lynghaugan" />
		<tag k="natural" v="slope" />
		<tag k="place" v="locality" />
		<tag k="ssr:stedsnr" v="762987" />
	</node>
	<node id="-580351" lat="62.5585527814" lon="6.96359722308">
		<tag k="name" v="Reset" />
		<tag k="natural" v="slope" />
		<tag k="place" v="locality" />
		<tag k="ssr:stedsnr" v="762715" />
	</node>
	<node id="-580350" lat="62.5130166709" lon="7.12041667246">
		<tag k="name" v="Bergan" />
		<tag k="natural" v="hill" />
		<tag k="place" v="locality" />
		<tag k="ssr:stedsnr" v="762667" />
	</node>
	<node id="-580347" lat="62.609116665" lon="6.86675833003">
		<tag k="name" v="Nakkan" />
		<tag k="natural" v="slope" />
		<tag k="place" v="locality" />
		<tag k="ssr:stedsnr" v="762622" />
	</node>
	<node id="-580345" lat="62.634152778" lon="6.98656389005">
		<tag k="name" v="Kleiva" />
		<tag k="natural" v="hill" />
		<tag k="place" v="locality" />
		<tag k="ssr:stedsnr" v="762606" />
	</node>
	<node id="-580338" lat="62.5563388902" lon="7.24133611452">
		<tag k="name" v="Skålsida" />
		<tag k="natural" v="slope" />
		<tag k="place" v="locality" />
		<tag k="ssr:stedsnr" v="762530" />
	</node>
	<node id="-580335" lat="62.5907083332" lon="6.78735278399">
		<tag k="name" v="Stornausa" />
		<tag k="place" v="locality" />
		<tag k="ssr:stedsnr" v="762326" />
	</node>
	<node id="-580333" lat="62.5888500014" lon="6.78220833327">
		<tag k="name" v="Bollen" />
		<tag k="natural" v="hill" />
		<tag k="place" v="locality" />
		<tag k="ssr:stedsnr" v="762316" />
	</node>
	<node id="-580332" lat="62.4813555558" lon="7.04743054772">
		<tag k="name" v="Vardlibakken" />
		<tag k="natural" v="slope" />
		<tag k="place" v="locality" />
		<tag k="ssr:stedsnr" v="762116" />
	</node>
	<node id="-580330" lat="62.6248777755" lon="6.83190555684">
		<tag k="name" v="Seterrøra" />
		<tag k="natural" v="ridge" />
		<tag k="place" v="locality" />
		<tag k="ssr:stedsnr" v="762938" />
	</node>
	<node id="-580328" lat="62.5803249962" lon="6.88040277782">
		<tag k="name" v="Heimstebollfonna" />
		<tag k="natural" v="slope" />
		<tag k="place" v="locality" />
		<tag k="ssr:stedsnr" v="762911" />
	</node>
	<node id="-580324" lat="62.5482361125" lon="6.91146389694">
		<tag k="name" v="Småtjønnbotnen" />
		<tag k="natural" v="valley" />
		<tag k="place" v="locality" />
		<tag k="ssr:stedsnr" v="762092" />
	</node>
	<node id="-580323" lat="62.5518694406" lon="6.98531111127">
		<tag k="name" v="Skahammarlegda" />
		<tag k="natural" v="slope" />
		<tag k="place" v="locality" />
		<tag k="ssr:stedsnr" v="762071" />
	</node>
	<node id="-580321" lat="62.5563583345" lon="7.09491388811">
		<tag k="name" v="Vardhaugen" />
		<tag k="natural" v="hill" />
		<tag k="place" v="locality" />
		<tag k="ssr:stedsnr" v="762043" />
	</node>
	<node id="-580317" lat="62.5157277737" lon="7.11919445027">
		<tag k="name" v="Bjønnshaugen" />
		<tag k="natural" v="hill" />
		<tag k="place" v="locality" />
		<tag k="ssr:stedsnr" v="762015" />
	</node>
	<node id="-580316" lat="62.634774997" lon="6.72015555672">
		<tag k="name" v="Hesteraua" />
		<tag k="place" v="locality" />
		<tag k="ssr:stedsnr" v="761399" />
	</node>
	<node id="-580315" lat="62.6346027756" lon="6.73036665896">
		<tag k="name" v="Hestegjølet" />
		<tag k="natural" v="gorge" />
		<tag k="ssr:stedsnr" v="761388" />
	</node>
	<node id="-580314" lat="62.6352055595" lon="6.69164722531">
		<tag k="name" v="Haggarden" />
		<tag k="natural" v="slope" />
		<tag k="place" v="locality" />
		<tag k="ssr:stedsnr" v="761337" />
	</node>
	<node id="-580312" lat="62.55200833" lon="7.06137499815">
		<tag k="fixme" v="consider natural=peak for the most distinct mountains in the district" />
		<tag k="name" v="Høgfjellet" />
		<tag k="natural" v="hill" />
		<tag k="place" v="locality" />
		<tag k="ssr:stedsnr" v="748341" />
	</node>
	<node id="-580308" lat="62.5879027738" lon="7.19187223011">
		<tag k="name" v="Nonshaugen" />
		<tag k="natural" v="hill" />
		<tag k="place" v="locality" />
		<tag k="ssr:stedsnr" v="740888" />
	</node>
	<node id="-580307" lat="62.5719638867" lon="6.83515556238">
		<tag k="name" v="Vatneskaret" />
		<tag k="natural" v="valley" />
		<tag k="place" v="locality" />
		<tag k="ssr:stedsnr" v="740884" />
	</node>
	<node id="-580306" lat="62.5777861096" lon="6.86275000041">
		<tag k="name" v="Oterskaret" />
		<tag k="natural" v="valley" />
		<tag k="place" v="locality" />
		<tag k="ssr:stedsnr" v="740882" />
	</node>
	<node id="-580301" lat="62.6233500004" lon="6.728255558">
		<tag k="fixme" v="consider natural=peak for the most distinct mountains in the district" />
		<tag k="name" v="Urfjellet" />
		<tag k="natural" v="hill" />
		<tag k="place" v="locality" />
		<tag k="ssr:stedsnr" v="740269" />
	</node>
	<node id="-580300" lat="62.6491416709" lon="6.96457778341">
		<tag k="name" v="Parakhaugen" />
		<tag k="natural" v="hill" />
		<tag k="place" v="locality" />
		<tag k="ssr:stedsnr" v="740045" />
	</node>
	<node id="-580299" lat="62.6205416699" lon="6.8124888963">
		<tag k="name" v="Gnuen" />
		<tag k="natural" v="valley" />
		<tag k="place" v="locality" />
		<tag k="ssr:stedsnr" v="740017" />
	</node>
	<node id="-580298" lat="62.6008611149" lon="7.02101388666">
		<tag k="name" v="Lyngtua" />
		<tag k="natural" v="ridge" />
		<tag k="place" v="locality" />
		<tag k="ssr:stedsnr" v="740000" />
	</node>
	<node id="-580297" lat="62.5968388894" lon="6.85808610587">
		<tag k="name" v="Storhauglia" />
		<tag k="natural" v="slope" />
		<tag k="place" v="locality" />
		<tag k="ssr:stedsnr" v="739995" />
	</node>
	<node id="-580293" lat="62.6121583311" lon="6.80866110561">
		<tag k="name" v="Trolldalen" />
		<tag k="natural" v="valley" />
		<tag k="place" v="locality" />
		<tag k="ssr:stedsnr" v="739960" />
	</node>
	<node id="-580291" lat="62.6044888877" lon="6.78461388639">
		<tag k="fixme" v="consider natural=peak for the most distinct mountains in the district" />
		<tag k="name" v="Tverrfjellet" />
		<tag k="natural" v="hill" />
		<tag k="place" v="locality" />
		<tag k="ssr:stedsnr" v="739932" />
	</node>
	<node id="-580288" lat="62.547380555" lon="7.19718888697">
		<tag k="name" v="Lianakkan" />
		<tag k="natural" v="slope" />
		<tag k="place" v="locality" />
		<tag k="ssr:stedsnr" v="739837" />
	</node>
	<node id="-580286" lat="62.4707527804" lon="7.08103889752">
		<tag k="fixme" v="consider natural=peak for the most distinct mountains in the district" />
		<tag k="name" v="Kvitnykja" />
		<tag k="natural" v="hill" />
		<tag k="place" v="locality" />
		<tag k="ssr:stedsnr" v="739315" />
	</node>
	<node id="-580284" lat="62.644299996" lon="6.79850278182">
		<tag k="alt_name" v="Sollihaugen" />
		<tag k="name" v="Brennhaugen" />
		<tag k="natural" v="hill" />
		<tag k="place" v="locality" />
		<tag k="ssr:stedsnr" v="739050" />
	</node>
	<node id="-580274" lat="62.6423500015" lon="6.74364443554">
		<tag k="name" v="Tytebærhaugen" />
		<tag k="natural" v="hill" />
		<tag k="place" v="locality" />
		<tag k="ssr:stedsnr" v="702978" />
	</node>
	<node id="-580272" lat="62.6063249977" lon="6.81294722907">
		<tag k="name" v="Trongstien" />
		<tag k="natural" v="slope" />
		<tag k="place" v="locality" />
		<tag k="ssr:stedsnr" v="702969" />
	</node>
	<node id="-580271" lat="62.6217277797" lon="6.83792778694">
		<tag k="name" v="Bakkhammaren" />
		<tag k="place" v="locality" />
		<tag k="ssr:stedsnr" v="702964" />
	</node>
	<node id="-580268" lat="62.567827774" lon="6.86978610526">
		<tag k="name" v="Trollbotnen" />
		<tag k="natural" v="valley" />
		<tag k="place" v="locality" />
		<tag k="ssr:stedsnr" v="702916" />
	</node>
	<node id="-580267" lat="62.6205611137" lon="7.01738888654">
		<tag k="name" v="Svarthaugen" />
		<tag k="natural" v="hill" />
		<tag k="place" v="locality" />
		<tag k="ssr:stedsnr" v="702903" />
	</node>
	<node id="-580264" lat="62.6044500007" lon="6.97208334214">
		<tag k="name" v="Urahamran" />
		<tag k="natural" v="cliff" />
		<tag k="ssr:stedsnr" v="702854" />
	</node>
	<node id="-580260" lat="62.6108750017" lon="7.15486387952">
		<tag k="name" v="Storreiten" />
		<tag k="natural" v="slope" />
		<tag k="place" v="locality" />
		<tag k="ssr:stedsnr" v="702825" />
	</node>
	<node id="-580259" lat="62.6063416654" lon="7.07576389735">
		<tag k="name" v="Kvilarsletta" />
		<tag k="place" v="locality" />
		<tag k="ssr:stedsnr" v="702807" />
	</node>
	<node id="-580258" lat="62.5762333334" lon="7.09244445035">
		<tag k="name" v="Knatthammaren" />
		<tag k="natural" v="hill" />
		<tag k="place" v="locality" />
		<tag k="ssr:stedsnr" v="702785" />
	</node>
	<node id="-580257" lat="62.5476499964" lon="7.22122777037">
		<tag k="name" v="Haljerørene" />
		<tag k="natural" v="slope" />
		<tag k="place" v="locality" />
		<tag k="ssr:stedsnr" v="702696" />
	</node>
	<node id="-580256" lat="62.5963111093" lon="7.1838777805">
		<tag k="name" v="Vikebotnen" />
		<tag k="natural" v="valley" />
		<tag k="place" v="locality" />
		<tag k="ssr:stedsnr" v="702690" />
	</node>
	<node id="-580255" lat="62.5257777777" lon="6.99249444656">
		<tag k="name" v="Teigane" />
		<tag k="natural" v="slope" />
		<tag k="place" v="locality" />
		<tag k="ssr:stedsnr" v="702688" />
	</node>
	<node id="-580253" lat="62.5317999966" lon="7.27771665751">
		<tag k="name" v="Tjønnhaugan" />
		<tag k="natural" v="hill" />
		<tag k="place" v="locality" />
		<tag k="ssr:stedsnr" v="702681" />
	</node>
	<node id="-580250" lat="62.6475611095" lon="6.75477221864">
		<tag k="name" v="Kammen" />
		<tag k="natural" v="ridge" />
		<tag k="place" v="locality" />
		<tag k="ssr:stedsnr" v="702644" />
	</node>
	<node id="-580249" lat="62.6080999962" lon="6.96043610883">
		<tag k="name" v="Viklia" />
		<tag k="natural" v="slope" />
		<tag k="place" v="locality" />
		<tag k="ssr:stedsnr" v="702624" />
	</node>
	<node id="-580243" lat="62.601099997" lon="7.07425277948">
		<tag k="name" v="Møekalia" />
		<tag k="natural" v="slope" />
		<tag k="place" v="locality" />
		<tag k="ssr:stedsnr" v="702572" />
	</node>
	<node id="-580242" lat="62.5968916705" lon="7.0697694457">
		<tag k="name" v="Lægdin" />
		<tag k="natural" v="slope" />
		<tag k="place" v="locality" />
		<tag k="ssr:stedsnr" v="702569" />
	</node>
	<node id="-580241" lat="62.5854027779" lon="7.07834444565">
		<tag k="name" v="Botnan" />
		<tag k="natural" v="valley" />
		<tag k="place" v="locality" />
		<tag k="ssr:stedsnr" v="702567" />
	</node>
	<node id="-580240" lat="62.4644527788" lon="7.17037221712">
		<tag k="fixme" v="consider natural=peak for the most distinct mountains in the district" />
		<tag k="name" v="Skorka" />
		<tag k="natural" v="hill" />
		<tag k="place" v="locality" />
		<tag k="ssr:stedsnr" v="702547" />
	</node>
	<node id="-580238" lat="62.5392222235" lon="7.20163055875">
		<tag k="name" v="Kleiva" />
		<tag k="natural" v="slope" />
		<tag k="place" v="locality" />
		<tag k="ssr:stedsnr" v="702544" />
	</node>
	<node id="-580232" lat="62.5578416712" lon="6.86143056163">
		<tag k="name" v="Litlereset" />
		<tag k="natural" v="ridge" />
		<tag k="place" v="locality" />
		<tag k="ssr:stedsnr" v="702161" />
	</node>
	<node id="-580231" lat="62.5631694426" lon="6.90002500144">
		<tag k="name" v="Hesteskaret" />
		<tag k="natural" v="valley" />
		<tag k="place" v="locality" />
		<tag k="ssr:stedsnr" v="702158" />
	</node>
	<node id="-580230" lat="62.4733444442" lon="7.16479165961">
		<tag k="name" v="Småhamrane" />
		<tag k="place" v="locality" />
		<tag k="ssr:stedsnr" v="702130" />
	</node>
	<node id="-580229" lat="62.4884555587" lon="7.04734445135">
		<tag k="name" v="Smålihamrane" />
		<tag k="place" v="locality" />
		<tag k="ssr:stedsnr" v="702120" />
	</node>
	<node id="-580228" lat="62.4713722188" lon="7.14318056266">
		<tag k="name" v="Nonsfjellskredene" />
		<tag k="natural" v="slope" />
		<tag k="place" v="locality" />
		<tag k="ssr:stedsnr" v="702116" />
	</node>
	<node id="-580227" lat="62.4881972219" lon="7.10176110711">
		<tag k="name" v="Tortebakken" />
		<tag k="natural" v="slope" />
		<tag k="place" v="locality" />
		<tag k="ssr:stedsnr" v="702109" />
	</node>
	<node id="-580222" lat="62.5550416665" lon="6.95975556323">
		<tag k="name" v="Tverrfjellet" />
		<tag k="natural" v="slope" />
		<tag k="place" v="locality" />
		<tag k="ssr:stedsnr" v="702073" />
	</node>
	<node id="-580221" lat="62.5283638879" lon="7.12763056358">
		<tag k="name" v="Syltebakken" />
		<tag k="natural" v="slope" />
		<tag k="place" v="locality" />
		<tag k="ssr:stedsnr" v="702061" />
	</node>
	<node id="-580220" lat="62.5364305575" lon="7.12575277132">
		<tag k="name" v="Geitberget" />
		<tag k="natural" v="hill" />
		<tag k="place" v="locality" />
		<tag k="ssr:stedsnr" v="702059" />
	</node>
	<node id="-580219" lat="62.5366083326" lon="7.04708055748">
		<tag k="name" v="Jutevasslia" />
		<tag k="natural" v="slope" />
		<tag k="place" v="locality" />
		<tag k="ssr:stedsnr" v="702053" />
	</node>
	<node id="-580217" lat="62.5474611071" lon="7.08958611294">
		<tag k="name" v="Vasshammaren" />
		<tag k="place" v="locality" />
		<tag k="ssr:stedsnr" v="702047" />
	</node>
	<node id="-580216" lat="62.5590027819" lon="7.0781249919">
		<tag k="name" v="Fremste Jølet" />
		<tag k="natural" v="valley" />
		<tag k="place" v="locality" />
		<tag k="ssr:stedsnr" v="702046" />
	</node>
	<node id="-580214" lat="62.5433138914" lon="7.1087027856">
		<tag k="name" v="Hjellrørene" />
		<tag k="natural" v="ridge" />
		<tag k="place" v="locality" />
		<tag k="ssr:stedsnr" v="702033" />
	</node>
	<node id="-580213" lat="62.497961114" lon="7.13265000456">
		<tag k="name" v="Gamlegjerda" />
		<tag k="natural" v="slope" />
		<tag k="place" v="locality" />
		<tag k="ssr:stedsnr" v="702032" />
	</node>
	<node id="-580209" lat="62.5105944424" lon="7.11516666874">
		<tag k="name" v="Kvennhusdalen" />
		<tag k="natural" v="valley" />
		<tag k="place" v="locality" />
		<tag k="ssr:stedsnr" v="702017" />
	</node>
	<node id="-580206" lat="62.6008750027" lon="6.75547778248">
		<tag k="name" v="Tverrhammaren" />
		<tag k="natural" v="cliff" />
		<tag k="ssr:stedsnr" v="701324" />
	</node>
	<node id="-580204" lat="62.6092805566" lon="6.79110000935">
		<tag k="name" v="Trolldalen" />
		<tag k="natural" v="valley" />
		<tag k="place" v="locality" />
		<tag k="ssr:stedsnr" v="701096" />
	</node>
	<node id="-580198" lat="62.536675001" lon="7.19353333874">
		<tag k="name" v="Kjempegravin" />
		<tag k="natural" v="slope" />
		<tag k="place" v="locality" />
		<tag k="ssr:stedsnr" v="702724" />
	</node>
	<node id="-580197" lat="62.5633111104" lon="7.15984722822">
		<tag k="name" v="Nesahaugan" />
		<tag k="natural" v="hill" />
		<tag k="place" v="locality" />
		<tag k="ssr:stedsnr" v="702721" />
	</node>
	<node id="-580196" lat="62.6121222235" lon="7.19401389053">
		<tag k="name" v="Nyseterholå" />
		<tag k="natural" v="valley" />
		<tag k="place" v="locality" />
		<tag k="ssr:stedsnr" v="702710" />
	</node>
	<node id="-580188" lat="62.5958444461" lon="6.97153889219">
		<tag k="fixme" v="consider natural=peak for the most distinct mountains in the district" />
		<tag k="name" v="Båten" />
		<tag k="natural" v="hill" />
		<tag k="place" v="locality" />
		<tag k="ssr:stedsnr" v="679996" />
	</node>
	<node id="-580187" lat="62.5984388868" lon="6.83472778603">
		<tag k="name" v="Seterhaugen" />
		<tag k="natural" v="hill" />
		<tag k="place" v="locality" />
		<tag k="ssr:stedsnr" v="679993" />
	</node>
	<node id="-580186" lat="62.5944500025" lon="6.78797500216">
		<tag k="fixme" v="consider natural=peak for the most distinct mountains in the district" />
		<tag k="name" v="Storskjerdingen" />
		<tag k="natural" v="hill" />
		<tag k="place" v="locality" />
		<tag k="ssr:stedsnr" v="679991" />
	</node>
	<node id="-580184" lat="62.587522219" lon="7.01670277514">
		<tag k="name" v="Vasshaugen" />
		<tag k="natural" v="hill" />
		<tag k="place" v="locality" />
		<tag k="ssr:stedsnr" v="679980" />
	</node>
	<node id="-580181" lat="62.6036194443" lon="6.88051389091">
		<tag k="name" v="Bulegene" />
		<tag k="natural" v="slope" />
		<tag k="place" v="locality" />
		<tag k="ssr:stedsnr" v="679941" />
	</node>
	<node id="-580177" lat="62.5797861133" lon="6.84626945317">
		<tag k="fixme" v="consider natural=peak for the most distinct mountains in the district" />
		<tag k="name" v="Oterfjellet" />
		<tag k="natural" v="hill" />
		<tag k="place" v="locality" />
		<tag k="ssr:stedsnr" v="679888" />
	</node>
	<node id="-580176" lat="62.573488891" lon="6.87543888331">
		<tag k="name" v="Frostaddalen" />
		<tag k="natural" v="valley" />
		<tag k="place" v="locality" />
		<tag k="ssr:stedsnr" v="679886" />
	</node>
	<node id="-580173" lat="62.5420805565" lon="7.17563611193">
		<tag k="alt_name" v="Hoemsegga" />
		<tag k="fixme" v="consider natural=peak for the most distinct mountains in the district" />
		<tag k="name" v="Egga" />
		<tag k="natural" v="hill" />
		<tag k="place" v="locality" />
		<tag k="ssr:stedsnr" v="679812" />
	</node>
	<node id="-580172" lat="62.5318333365" lon="7.226936111">
		<tag k="alt_name" v="Litleknubben" />
		<tag k="fixme" v="consider natural=peak for the most distinct mountains in the district" />
		<tag k="name" v="Vesleknubben" />
		<tag k="natural" v="hill" />
		<tag k="place" v="locality" />
		<tag k="ssr:stedsnr" v="679394" />
	</node>
	<node id="-580171" lat="62.5105638901" lon="7.23260832633">
		<tag k="name" v="Hoemsskaret" />
		<tag k="natural" v="valley" />
		<tag k="place" v="locality" />
		<tag k="ssr:stedsnr" v="679362" />
	</node>
	<node id="-580170" lat="62.568794448" lon="6.86255833781">
		<tag k="name" v="Tverrlia" />
		<tag k="natural" v="slope" />
		<tag k="place" v="locality" />
		<tag k="ssr:stedsnr" v="679240" />
	</node>
	<node id="-580165" lat="62.642627778" lon="7.03153888932">
		<tag k="name" v="Langvassdalen" />
		<tag k="natural" v="valley" />
		<tag k="place" v="locality" />
		<tag k="ssr:stedsnr" v="679003" />
	</node>
	<node id="-580164" lat="62.4912499961" lon="7.09727222121">
		<tag k="name" v="Kvitnyklia" />
		<tag k="natural" v="slope" />
		<tag k="place" v="locality" />
		<tag k="ssr:stedsnr" v="678329" />
	</node>
	<node id="-580159" lat="62.6473583317" lon="6.8039555493">
		<tag k="name" v="Gjelsteinlia" />
		<tag k="natural" v="slope" />
		<tag k="place" v="locality" />
		<tag k="ssr:stedsnr" v="641992" />
	</node>
	<node id="-580154" lat="62.6406805602" lon="6.97056945251">
		<tag k="name" v="Kvennhusåsen" />
		<tag k="natural" v="ridge" />
		<tag k="place" v="locality" />
		<tag k="ssr:stedsnr" v="641918" />
	</node>
	<node id="-580152" lat="62.5766138853" lon="6.87321388361">
		<tag k="name" v="Mårfellhaugen" />
		<tag k="natural" v="hill" />
		<tag k="place" v="locality" />
		<tag k="ssr:stedsnr" v="641904" />
	</node>
	<node id="-580151" lat="62.5653722264" lon="6.91926667097">
		<tag k="name" v="Kleivhammaren" />
		<tag k="place" v="locality" />
		<tag k="ssr:stedsnr" v="641900" />
	</node>
	<node id="-580150" lat="62.6004722188" lon="6.87047777584">
		<tag k="name" v="Storhauglia" />
		<tag k="natural" v="slope" />
		<tag k="place" v="locality" />
		<tag k="ssr:stedsnr" v="641890" />
	</node>
	<node id="-580149" lat="62.6251583351" lon="7.03596943744">
		<tag k="name" v="Søråshaugen" />
		<tag k="natural" v="hill" />
		<tag k="place" v="locality" />
		<tag k="ssr:stedsnr" v="641884" />
	</node>
	<node id="-580146" lat="62.6485222266" lon="6.94450834176">
		<tag k="name" v="Kvitberget" />
		<tag k="natural" v="ridge" />
		<tag k="place" v="locality" />
		<tag k="ssr:stedsnr" v="641857" />
	</node>
	<node id="-580145" lat="62.6454722192" lon="7.06900555251">
		<tag k="name" v="Skarbakkane" />
		<tag k="natural" v="slope" />
		<tag k="place" v="locality" />
		<tag k="ssr:stedsnr" v="641850" />
	</node>
	<node id="-580143" lat="62.5905752099" lon="6.93366260622">
		<tag k="name" v="Grøtryggbakken" />
		<tag k="natural" v="slope" />
		<tag k="place" v="locality" />
		<tag k="ssr:stedsnr" v="641832" />
	</node>
	<node id="-580142" lat="62.6502583367" lon="7.07910277896">
		<tag k="name" v="Brendsdalen" />
		<tag k="natural" v="valley" />
		<tag k="place" v="locality" />
		<tag k="ssr:stedsnr" v="641812" />
	</node>
	<node id="-580138" lat="62.482319442" lon="7.18427499058">
		<tag k="name" v="Seljefonnrøysin" />
		<tag k="natural" v="slope" />
		<tag k="place" v="locality" />
		<tag k="ssr:stedsnr" v="641747" />
	</node>
	<node id="-580137" lat="62.4807194457" lon="7.17078332548">
		<tag k="name" v="Åmundhaugen" />
		<tag k="natural" v="hill" />
		<tag k="place" v="locality" />
		<tag k="ssr:stedsnr" v="641742" />
	</node>
	<node id="-580136" lat="62.538841663" lon="7.19599166627">
		<tag k="name" v="Seterbakken" />
		<tag k="natural" v="slope" />
		<tag k="place" v="locality" />
		<tag k="ssr:stedsnr" v="641735" />
	</node>
	<node id="-580135" lat="62.6063388871" lon="7.18375276925">
		<tag k="name" v="Langskaret" />
		<tag k="natural" v="valley" />
		<tag k="place" v="locality" />
		<tag k="ssr:stedsnr" v="641720" />
	</node>
	<node id="-580134" lat="62.5747749959" lon="7.21374722136">
		<tag k="name" v="Lørvetehaugen" />
		<tag k="natural" v="hill" />
		<tag k="place" v="locality" />
		<tag k="ssr:stedsnr" v="641709" />
	</node>
	<node id="-580133" lat="62.5530444415" lon="6.87450000532">
		<tag k="name" v="Staupet" />
		<tag k="natural" v="valley" />
		<tag k="place" v="locality" />
		<tag k="ssr:stedsnr" v="641681" />
	</node>
	<node id="-580132" lat="62.5608722178" lon="6.91059721774">
		<tag k="name" v="Reset" />
		<tag k="natural" v="ridge" />
		<tag k="place" v="locality" />
		<tag k="ssr:stedsnr" v="641678" />
	</node>
	<node id="-580131" lat="62.4804194435" lon="7.04638055465">
		<tag k="name" v="Vardlia" />
		<tag k="natural" v="slope" />
		<tag k="place" v="locality" />
		<tag k="ssr:stedsnr" v="641670" />
	</node>
	<node id="-580130" lat="62.4758166628" lon="7.16201666444">
		<tag k="name" v="Storlia" />
		<tag k="natural" v="slope" />
		<tag k="place" v="locality" />
		<tag k="ssr:stedsnr" v="641668" />
	</node>
	<node id="-580128" lat="62.5205750008" lon="7.15667499187">
		<tag k="name" v="Grefså" />
		<tag k="natural" v="valley" />
		<tag k="place" v="locality" />
		<tag k="ssr:stedsnr" v="641659" />
	</node>
	<node id="-580127" lat="62.5492027782" lon="7.1624222136">
		<tag k="name" v="Fonnene" />
		<tag k="natural" v="slope" />
		<tag k="place" v="locality" />
		<tag k="ssr:stedsnr" v="641632" />
	</node>
	<node id="-580126" lat="62.6078111112" lon="6.8197416657">
		<tag k="name" v="Fonna" />
		<tag k="natural" v="slope" />
		<tag k="place" v="locality" />
		<tag k="ssr:stedsnr" v="641622" />
	</node>
	<node id="-580125" lat="62.600908335" lon="6.81905834226">
		<tag k="name" v="Reset" />
		<tag k="natural" v="ridge" />
		<tag k="place" v="locality" />
		<tag k="ssr:stedsnr" v="641618" />
	</node>
	<node id="-580121" lat="62.5844333299" lon="6.89468888325">
		<tag k="name" v="Sollia" />
		<tag k="natural" v="slope" />
		<tag k="place" v="locality" />
		<tag k="ssr:stedsnr" v="641584" />
	</node>
	<node id="-580116" lat="62.6151777739" lon="7.19708056269">
		<tag k="name" v="Bordalen" />
		<tag k="natural" v="valley" />
		<tag k="place" v="locality" />
		<tag k="ssr:stedsnr" v="641534" />
	</node>
	<node id="-580115" lat="62.5666333337" lon="7.11357778483">
		<tag k="name" v="Bhjellen" />
		<tag k="place" v="locality" />
		<tag k="ssr:stedsnr" v="641535" />
	</node>
	<node id="-580114" lat="62.540094443" lon="7.19273888356">
		<tag k="name" v="Brunin" />
		<tag k="natural" v="slope" />
		<tag k="place" v="locality" />
		<tag k="ssr:stedsnr" v="641530" />
	</node>
	<node id="-580113" lat="62.5438972262" lon="7.17183332349">
		<tag k="name" v="Hoemslia" />
		<tag k="natural" v="slope" />
		<tag k="place" v="locality" />
		<tag k="ssr:stedsnr" v="641523" />
	</node>
	<node id="-580106" lat="62.4987583378" lon="7.09920278636">
		<tag k="name" v="Risbruhaugen" />
		<tag k="natural" v="hill" />
		<tag k="place" v="locality" />
		<tag k="ssr:stedsnr" v="641087" />
	</node>
	<node id="-580105" lat="62.4849527768" lon="7.10006944856">
		<tag k="name" v="Nyfonnbyta" />
		<tag k="natural" v="slope" />
		<tag k="place" v="locality" />
		<tag k="ssr:stedsnr" v="641085" />
	</node>
	<node id="-580101" lat="62.5561583324" lon="6.89170832926">
		<tag k="name" v="Tomrehaugen" />
		<tag k="natural" v="hill" />
		<tag k="place" v="locality" />
		<tag k="ssr:stedsnr" v="641068" />
	</node>
	<node id="-580099" lat="62.5228694458" lon="7.09666388309">
		<tag k="name" v="Stordalen" />
		<tag k="natural" v="valley" />
		<tag k="place" v="locality" />
		<tag k="ssr:stedsnr" v="641042" />
	</node>
	<node id="-580097" lat="62.5546527801" lon="7.09793889199">
		<tag k="name" v="Seterbakken" />
		<tag k="natural" v="slope" />
		<tag k="place" v="locality" />
		<tag k="ssr:stedsnr" v="641037" />
	</node>
	<node id="-580096" lat="62.5570611115" lon="7.12685556139">
		<tag k="name" v="Eiknesrøra" />
		<tag k="natural" v="ridge" />
		<tag k="place" v="locality" />
		<tag k="ssr:stedsnr" v="641029" />
	</node>
	<node id="-580094" lat="62.4912305546" lon="7.12460556159">
		<tag k="name" v="Rongsrøra" />
		<tag k="natural" v="ridge" />
		<tag k="place" v="locality" />
		<tag k="ssr:stedsnr" v="641024" />
	</node>
	<node id="-580089" lat="62.5754638925" lon="6.82090555397">
		<tag k="name" v="Brekka" />
		<tag k="natural" v="hill" />
		<tag k="place" v="locality" />
		<tag k="ssr:stedsnr" v="640122" />
	</node>
	<node id="-580088" lat="62.6177222195" lon="6.74710554768">
		<tag k="name" v="Lislegrøe" />
		<tag k="natural" v="hill" />
		<tag k="place" v="locality" />
		<tag k="ssr:stedsnr" v="640090" />
	</node>
	<node id="-580082" lat="62.6080416671" lon="6.96682778745">
		<tag k="name" v="Uralia" />
		<tag k="natural" v="slope" />
		<tag k="place" v="locality" />
		<tag k="ssr:stedsnr" v="618939" />
	</node>
	<node id="-580080" lat="62.5776138934" lon="6.99242500687">
		<tag k="fixme" v="consider natural=peak for the most distinct mountains in the district" />
		<tag k="name" v="Ytstetinden" />
		<tag k="natural" v="hill" />
		<tag k="place" v="locality" />
		<tag k="ssr:stedsnr" v="618897" />
	</node>
	<node id="-580078" lat="62.5737527755" lon="6.97738611331">
		<tag k="fixme" v="consider natural=peak for the most distinct mountains in the district" />
		<tag k="name" v="Trolltinden" />
		<tag k="natural" v="hill" />
		<tag k="place" v="locality" />
		<tag k="ssr:stedsnr" v="618873" />
	</node>
	<node id="-580071" lat="62.5771555573" lon="7.22051665868">
		<tag k="name" v="Lafjellet" />
		<tag k="natural" v="slope" />
		<tag k="place" v="locality" />
		<tag k="ssr:stedsnr" v="618485" />
	</node>
	<node id="-580068" lat="62.6313694433" lon="6.97855278654">
		<tag k="name" v="Øveråslia" />
		<tag k="natural" v="slope" />
		<tag k="place" v="locality" />
		<tag k="ssr:stedsnr" v="618020" />
	</node>
	<node id="-580061" lat="62.4775333309" lon="7.08118611296">
		<tag k="name" v="Hestebotnen" />
		<tag k="natural" v="valley" />
		<tag k="old_name" v="Hestebotn" />
		<tag k="place" v="locality" />
		<tag k="ssr:stedsnr" v="617348" />
	</node>
	<node id="-580050" lat="62.6420805545" lon="6.75969167023">
		<tag k="name" v="Snaufjellbotnen" />
		<tag k="natural" v="valley" />
		<tag k="place" v="locality" />
		<tag k="ssr:stedsnr" v="580974" />
	</node>
	<node id="-580048" lat="62.641302782" lon="6.75035832941">
		<tag k="name" v="Snaufjellbotnteigan" />
		<tag k="natural" v="slope" />
		<tag k="place" v="locality" />
		<tag k="ssr:stedsnr" v="580966" />
	</node>
	<node id="-580046" lat="62.5991222249" lon="6.79998332622">
		<tag k="name" v="Vasshaugane" />
		<tag k="natural" v="slope" />
		<tag k="place" v="locality" />
		<tag k="ssr:stedsnr" v="580951" />
	</node>
	<node id="-580041" lat="62.5736166698" lon="6.87125277113">
		<tag k="name" v="Resbakken" />
		<tag k="natural" v="slope" />
		<tag k="place" v="locality" />
		<tag k="ssr:stedsnr" v="580910" />
	</node>
	<node id="-580039" lat="62.5820055541" lon="6.87066388274">
		<tag k="name" v="Storhaugrøra" />
		<tag k="natural" v="ridge" />
		<tag k="place" v="locality" />
		<tag k="ssr:stedsnr" v="580909" />
	</node>
	<node id="-580035" lat="62.6131638885" lon="6.95658055898">
		<tag k="name" v="Trohaugen" />
		<tag k="natural" v="hill" />
		<tag k="place" v="locality" />
		<tag k="ssr:stedsnr" v="580885" />
	</node>
	<node id="-580031" lat="62.6343222198" lon="7.07422221759">
		<tag k="name" v="Øygardsreina" />
		<tag k="natural" v="slope" />
		<tag k="place" v="locality" />
		<tag k="ssr:stedsnr" v="580870" />
	</node>
	<node id="-580027" lat="62.6100888863" lon="7.06430278364">
		<tag k="fixme" v="consider natural=peak for the most distinct mountains in the district" />
		<tag k="name" v="Rambergskollen" />
		<tag k="natural" v="hill" />
		<tag k="place" v="locality" />
		<tag k="ssr:stedsnr" v="580808" />
	</node>
	<node id="-580023" lat="62.57053889" lon="7.05035277136">
		<tag k="name" v="Sjølehaugfjellet" />
		<tag k="natural" v="slope" />
		<tag k="place" v="locality" />
		<tag k="ssr:stedsnr" v="580782" />
	</node>
	<node id="-580017" lat="62.5565777743" lon="7.20636944355">
		<tag k="name" v="Trondsjølet" />
		<tag k="natural" v="valley" />
		<tag k="place" v="locality" />
		<tag k="ssr:stedsnr" v="580729" />
	</node>
	<node id="-580015" lat="62.5209188245" lon="6.98623212513">
		<tag k="name" v="Teigane" />
		<tag k="natural" v="slope" />
		<tag k="place" v="locality" />
		<tag k="ssr:stedsnr" v="580697" />
	</node>
	<node id="-580012" lat="62.5148694431" lon="7.09421665735">
		<tag k="name" v="Nakken" />
		<tag k="natural" v="ridge" />
		<tag k="place" v="locality" />
		<tag k="ssr:stedsnr" v="580685" />
	</node>
	<node id="-580011" lat="62.4973111135" lon="7.13019444847">
		<tag k="name" v="Brenslen" />
		<tag k="natural" v="slope" />
		<tag k="place" v="locality" />
		<tag k="ssr:stedsnr" v="580680" />
	</node>
	<node id="-580009" lat="62.495130553" lon="7.06743334044">
		<tag k="name" v="Jobyte" />
		<tag k="natural" v="slope" />
		<tag k="place" v="locality" />
		<tag k="ssr:stedsnr" v="580670" />
	</node>
	<node id="-580008" lat="62.5376111147" lon="7.15829444262">
		<tag k="name" v="Førdalen" />
		<tag k="natural" v="valley" />
		<tag k="place" v="locality" />
		<tag k="ssr:stedsnr" v="580662" />
	</node>
	<node id="-580005" lat="62.6521166698" lon="6.75158333076">
		<tag k="name" v="Ørnetuå" />
		<tag k="natural" v="hill" />
		<tag k="place" v="locality" />
		<tag k="ssr:stedsnr" v="580638" />
	</node>
	<node id="-580004" lat="62.5718027791" lon="6.87251945164">
		<tag k="name" v="Stormyra" />
		<tag k="natural" v="slope" />
		<tag k="place" v="locality" />
		<tag k="ssr:stedsnr" v="580623" />
	</node>
	<node id="-580000" lat="62.5691499967" lon="6.92408055221">
		<tag k="name" v="Brekka" />
		<tag k="natural" v="slope" />
		<tag k="place" v="locality" />
		<tag k="ssr:stedsnr" v="580575" />
	</node>
	<node id="-579998" lat="62.5994416682" lon="7.13563888247">
		<tag k="name" v="Knollen" />
		<tag k="natural" v="hill" />
		<tag k="place" v="locality" />
		<tag k="ssr:stedsnr" v="580539" />
	</node>
	<node id="-579996" lat="62.4740111092" lon="7.19869722145">
		<tag k="name" v="Litlelia" />
		<tag k="natural" v="slope" />
		<tag k="place" v="locality" />
		<tag k="ssr:stedsnr" v="580523" />
	</node>
	<node id="-579995" lat="62.5415777776" lon="7.10768611822">
		<tag k="name" v="Hjellane" />
		<tag k="place" v="locality" />
		<tag k="ssr:stedsnr" v="580510" />
	</node>
	<node id="-579991" lat="62.4768750001" lon="7.15256388829">
		<tag k="name" v="Fossåberget" />
		<tag k="natural" v="slope" />
		<tag k="place" v="locality" />
		<tag k="ssr:stedsnr" v="580107" />
	</node>
	<node id="-579990" lat="62.4780944451" lon="7.05104166069">
		<tag k="name" v="Skjenstøin" />
		<tag k="natural" v="slope" />
		<tag k="place" v="locality" />
		<tag k="ssr:stedsnr" v="580100" />
	</node>
	<node id="-579989" lat="62.4880138876" lon="7.15782777469">
		<tag k="name" v="Einbakken" />
		<tag k="natural" v="slope" />
		<tag k="place" v="locality" />
		<tag k="ssr:stedsnr" v="580085" />
	</node>
	<node id="-579988" lat="62.4801361102" lon="7.15616389612">
		<tag k="name" v="Forsåberget" />
		<tag k="natural" v="slope" />
		<tag k="place" v="locality" />
		<tag k="ssr:stedsnr" v="580078" />
	</node>
	<node id="-579987" lat="62.4677638912" lon="7.02840277097">
		<tag k="name" v="Bythaugen" />
		<tag k="natural" v="hill" />
		<tag k="place" v="locality" />
		<tag k="ssr:stedsnr" v="580076" />
	</node>
	<node id="-579986" lat="62.5621694428" lon="6.91462500808">
		<tag k="name" v="Byggebotshaugen" />
		<tag k="natural" v="hill" />
		<tag k="place" v="locality" />
		<tag k="ssr:stedsnr" v="580072" />
	</node>
	<node id="-579982" lat="62.4998972258" lon="7.08431666107">
		<tag k="name" v="Nakkebyta" />
		<tag k="natural" v="slope" />
		<tag k="place" v="locality" />
		<tag k="ssr:stedsnr" v="580019" />
	</node>
	<node id="-579981" lat="62.6158888886" lon="6.77659445384">
		<tag k="name" v="Bjørkefonna" />
		<tag k="natural" v="slope" />
		<tag k="place" v="locality" />
		<tag k="ssr:stedsnr" v="579494" />
	</node>
	<node id="-579979" lat="62.646858335" lon="6.73598611394">
		<tag k="name" v="Notvollen" />
		<tag k="place" v="locality" />
		<tag k="ssr:stedsnr" v="579357" />
	</node>
	<node id="-579978" lat="62.6360944408" lon="6.69515556066">
		<tag k="name" v="Storteigen" />
		<tag k="natural" v="slope" />
		<tag k="place" v="locality" />
		<tag k="ssr:stedsnr" v="579325" />
	</node>
	<node id="-579976" lat="62.6055333369" lon="6.74840000684">
		<tag k="name" v="Kjelen" />
		<tag k="natural" v="valley" />
		<tag k="place" v="locality" />
		<tag k="ssr:stedsnr" v="579291" />
	</node>
	<node id="-579970" lat="62.6021361076" lon="7.1963444382">
		<tag k="fixme" v="consider natural=peak for the most distinct mountains in the district" />
		<tag k="name" v="Ellingholnakken" />
		<tag k="natural" v="hill" />
		<tag k="place" v="locality" />
		<tag k="ssr:stedsnr" v="557964" />
	</node>
	<node id="-579967" lat="62.550972218" lon="7.09509167281">
		<tag k="fixme" v="consider natural=peak for the most distinct mountains in the district" />
		<tag k="name" v="Nebba" />
		<tag k="natural" v="hill" />
		<tag k="place" v="locality" />
		<tag k="ssr:stedsnr" v="557903" />
	</node>
	<node id="-579966" lat="62.5222277775" lon="7.20523887939">
		<tag k="fixme" v="consider natural=peak for the most distinct mountains in the district" />
		<tag k="name" v="Blåfjellet" />
		<tag k="natural" v="hill" />
		<tag k="place" v="locality" />
		<tag k="ssr:stedsnr" v="557855" />
	</node>
	<node id="-579965" lat="62.501516663" lon="7.16756667658">
		<tag k="name" v="Skolten" />
		<tag k="natural" v="slope" />
		<tag k="place" v="locality" />
		<tag k="ssr:stedsnr" v="557838" />
	</node>
	<node id="-579962" lat="62.5303194486" lon="7.27168889703">
		<tag k="name" v="Tjønnhaugen" />
		<tag k="natural" v="hill" />
		<tag k="place" v="locality" />
		<tag k="ssr:stedsnr" v="557404" />
	</node>
	<node id="-579957" lat="62.6141277822" lon="6.74783055472">
		<tag k="alt_name" v="Lisleknausen" />
		<tag k="name" v="Litleknausen" />
		<tag k="natural" v="hill" />
		<tag k="place" v="locality" />
		<tag k="ssr:stedsnr" v="557011" />
	</node>
	<node id="-579955" lat="62.6323944432" lon="6.71847222234">
		<tag k="fixme" v="consider natural=peak for the most distinct mountains in the district" />
		<tag k="name" v="Rekdalshesten" />
		<tag k="natural" v="hill" />
		<tag k="place" v="locality" />
		<tag k="ssr:stedsnr" v="557003" />
	</node>
	<node id="-579949" lat="62.6408333343" lon="6.81763611855">
		<tag k="name" v="Ådalsbakken" />
		<tag k="natural" v="slope" />
		<tag k="place" v="locality" />
		<tag k="ssr:stedsnr" v="520964" />
	</node>
	<node id="-579947" lat="62.6428611077" lon="6.92803056082">
		<tag k="name" v="Røtbakken" />
		<tag k="natural" v="slope" />
		<tag k="place" v="locality" />
		<tag k="ssr:stedsnr" v="520951" />
	</node>
	<node id="-579945" lat="62.5761555542" lon="6.9009499969">
		<tag k="name" v="Dalbakkan" />
		<tag k="natural" v="slope" />
		<tag k="place" v="locality" />
		<tag k="ssr:stedsnr" v="520932" />
	</node>
	<node id="-579942" lat="62.6427833296" lon="7.07165555999">
		<tag k="name" v="Triangelen" />
		<tag k="natural" v="slope" />
		<tag k="place" v="locality" />
		<tag k="ssr:stedsnr" v="520897" />
	</node>
	<node id="-579941" lat="62.6273638919" lon="7.0871472291">
		<tag k="name" v="Vestneshaugen" />
		<tag k="natural" v="hill" />
		<tag k="place" v="locality" />
		<tag k="ssr:stedsnr" v="520890" />
	</node>
	<node id="-579938" lat="62.6509249999" lon="7.0569527774">
		<tag k="name" v="Bytingsdalen" />
		<tag k="natural" v="valley" />
		<tag k="place" v="locality" />
		<tag k="ssr:stedsnr" v="520869" />
	</node>
	<node id="-579934" lat="62.6170138926" lon="7.09782222014">
		<tag k="name" v="Netarøsten" />
		<tag k="natural" v="slope" />
		<tag k="place" v="locality" />
		<tag k="ssr:stedsnr" v="520843" />
	</node>
	<node id="-579933" lat="62.6070916644" lon="7.05364721384">
		<tag k="name" v="Glennekollen" />
		<tag k="natural" v="hill" />
		<tag k="place" v="locality" />
		<tag k="ssr:stedsnr" v="520837" />
	</node>
	<node id="-579932" lat="62.5756027749" lon="7.10462500216">
		<tag k="name" v="Haugdalen" />
		<tag k="natural" v="valley" />
		<tag k="place" v="locality" />
		<tag k="ssr:stedsnr" v="520818" />
	</node>
	<node id="-579929" lat="62.5897083348" lon="7.08827499129">
		<tag k="name" v="Gråurhammaren" />
		<tag k="natural" v="cliff" />
		<tag k="ssr:stedsnr" v="520798" />
	</node>
	<node id="-579928" lat="62.5954250036" lon="7.14759166058">
		<tag k="name" v="Dravleslætta" />
		<tag k="natural" v="slope" />
		<tag k="place" v="locality" />
		<tag k="ssr:stedsnr" v="520790" />
	</node>
	<node id="-579927" lat="62.473125003" lon="7.19380833083">
		<tag k="name" v="Storhaugen" />
		<tag k="natural" v="hill" />
		<tag k="place" v="locality" />
		<tag k="ssr:stedsnr" v="520783" />
	</node>
	<node id="-579926" lat="62.4618138866" lon="7.18356110242">
		<tag k="name" v="Tverrskreda" />
		<tag k="natural" v="slope" />
		<tag k="place" v="locality" />
		<tag k="ssr:stedsnr" v="520780" />
	</node>
	<node id="-579923" lat="62.5794805584" lon="7.15115833988">
		<tag k="name" v="Einhaugen" />
		<tag k="natural" v="hill" />
		<tag k="place" v="locality" />
		<tag k="ssr:stedsnr" v="520766" />
	</node>
	<node id="-579922" lat="62.6217777812" lon="7.19258055587">
		<tag k="name" v="Skjervikhaugan" />
		<tag k="natural" v="hill" />
		<tag k="place" v="locality" />
		<tag k="ssr:stedsnr" v="520764" />
	</node>
	<node id="-579919" lat="62.4980277747" lon="7.11813611343">
		<tag k="name" v="Smidalen" />
		<tag k="natural" v="valley" />
		<tag k="place" v="locality" />
		<tag k="ssr:stedsnr" v="520719" />
	</node>
	<node id="-579918" lat="62.4675888898" lon="7.11336111841">
		<tag k="name" v="Kjølen" />
		<tag k="natural" v="ridge" />
		<tag k="place" v="locality" />
		<tag k="ssr:stedsnr" v="520709" />
	</node>
	<node id="-579917" lat="62.5015888909" lon="7.08985555407">
		<tag k="name" v="Liabytet" />
		<tag k="natural" v="slope" />
		<tag k="place" v="locality" />
		<tag k="ssr:stedsnr" v="520692" />
	</node>
	<node id="-579914" lat="62.6416805573" lon="6.75190000448">
		<tag k="name" v="Dekta" />
		<tag k="natural" v="valley" />
		<tag k="place" v="locality" />
		<tag k="ssr:stedsnr" v="520673" />
	</node>
	<node id="-579913" lat="62.5564249958" lon="7.15825834012">
		<tag k="name" v="Haunasen" />
		<tag k="natural" v="ridge" />
		<tag k="place" v="locality" />
		<tag k="ssr:stedsnr" v="520669" />
	</node>
	<node id="-579912" lat="62.6069111084" lon="6.81641389626">
		<tag k="name" v="Djupholå" />
		<tag k="natural" v="slope" />
		<tag k="place" v="locality" />
		<tag k="ssr:stedsnr" v="520656" />
	</node>
	<node id="-579911" lat="62.6511083317" lon="6.96670556176">
		<tag k="name" v="Sandelia" />
		<tag k="natural" v="slope" />
		<tag k="place" v="locality" />
		<tag k="ssr:stedsnr" v="520637" />
	</node>
	<node id="-579907" lat="62.5798694467" lon="7.10255000888">
		<tag k="name" v="Rørdalen" />
		<tag k="natural" v="valley" />
		<tag k="place" v="locality" />
		<tag k="ssr:stedsnr" v="520583" />
	</node>
	<node id="-579906" lat="62.5730249967" lon="7.08558610996">
		<tag k="name" v="Nakken" />
		<tag k="natural" v="hill" />
		<tag k="place" v="locality" />
		<tag k="ssr:stedsnr" v="520580" />
	</node>
	<node id="-579905" lat="62.5747333322" lon="7.06831111936">
		<tag k="name" v="Brunrøra" />
		<tag k="natural" v="slope" />
		<tag k="place" v="locality" />
		<tag k="ssr:stedsnr" v="520577" />
	</node>
	<node id="-579903" lat="62.4844861133" lon="7.18151388298">
		<tag k="name" v="Stømnet" />
		<tag k="natural" v="slope" />
		<tag k="place" v="locality" />
		<tag k="ssr:stedsnr" v="520560" />
	</node>
	<node id="-579902" lat="62.5854611139" lon="7.18629445038">
		<tag k="name" v="Skarlia" />
		<tag k="natural" v="slope" />
		<tag k="place" v="locality" />
		<tag k="ssr:stedsnr" v="520551" />
	</node>
	<node id="-579901" lat="62.5499444479" lon="7.216716672">
		<tag k="name" v="Hallinga" />
		<tag k="natural" v="slope" />
		<tag k="place" v="locality" />
		<tag k="ssr:stedsnr" v="520549" />
	</node>
	<node id="-579896" lat="62.4647583371" lon="7.15311944257">
		<tag k="name" v="Storskreda" />
		<tag k="natural" v="slope" />
		<tag k="place" v="locality" />
		<tag k="ssr:stedsnr" v="520088" />
	</node>
	<node id="-579893" lat="62.5472750015" lon="6.89615277233">
		<tag k="name" v="Nonsfjellet" />
		<tag k="natural" v="hill" />
		<tag k="place" v="locality" />
		<tag k="ssr:stedsnr" v="520072" />
	</node>
	<node id="-579891" lat="62.5227583291" lon="6.99290277983">
		<tag k="name" v="Storgjerde" />
		<tag k="natural" v="slope" />
		<tag k="place" v="locality" />
		<tag k="ssr:stedsnr" v="520064" />
	</node>
	<node id="-579890" lat="62.5590361122" lon="6.94926945343">
		<tag k="name" v="Dalbotnen" />
		<tag k="natural" v="valley" />
		<tag k="place" v="locality" />
		<tag k="ssr:stedsnr" v="520065" />
	</node>
	<node id="-579889" lat="62.5594944416" lon="7.04237778423">
		<tag k="name" v="Skorgelia" />
		<tag k="natural" v="slope" />
		<tag k="place" v="locality" />
		<tag k="ssr:stedsnr" v="520056" />
	</node>
	<node id="-579888" lat="62.4744138871" lon="7.10229999901">
		<tag k="name" v="Kvitnyklia" />
		<tag k="natural" v="slope" />
		<tag k="place" v="locality" />
		<tag k="ssr:stedsnr" v="520054" />
	</node>
	<node id="-579885" lat="62.5582166623" lon="7.11722222017">
		<tag k="name" v="Eikenesgjerdet" />
		<tag k="natural" v="slope" />
		<tag k="place" v="locality" />
		<tag k="ssr:stedsnr" v="520038" />
	</node>
	<node id="-579884" lat="62.5569388883" lon="7.11189721953">
		<tag k="name" v="Ørnehaugen" />
		<tag k="natural" v="hill" />
		<tag k="place" v="locality" />
		<tag k="ssr:stedsnr" v="520037" />
	</node>
	<node id="-579883" lat="62.4951833302" lon="7.16494165918">
		<tag k="name" v="Husgjølet" />
		<tag k="natural" v="valley" />
		<tag k="place" v="locality" />
		<tag k="ssr:stedsnr" v="520023" />
	</node>
	<node id="-579882" lat="62.5035499975" lon="7.1650055518">
		<tag k="name" v="Skoltrøra" />
		<tag k="natural" v="ridge" />
		<tag k="place" v="locality" />
		<tag k="ssr:stedsnr" v="520006" />
	</node>
	<node id="-579881" lat="62.6397777801" lon="6.71192222198">
		<tag k="name" v="Nakken" />
		<tag k="place" v="locality" />
		<tag k="ssr:stedsnr" v="519348" />
	</node>
	<node id="-579880" lat="62.5654888854" lon="6.85872778383">
		<tag k="name" v="Hekleheia" />
		<tag k="natural" v="hill" />
		<tag k="place" v="locality" />
		<tag k="ssr:stedsnr" v="519112" />
	</node>
	<node id="-579878" lat="62.6313277814" lon="6.7478583406">
		<tag k="name" v="Botnen" />
		<tag k="natural" v="valley" />
		<tag k="place" v="locality" />
		<tag k="ssr:stedsnr" v="511290" />
	</node>
	<node id="-579874" lat="62.6064472257" lon="7.19152222655">
		<tag k="fixme" v="consider natural=peak for the most distinct mountains in the district" />
		<tag k="name" v="Vikenakken" />
		<tag k="natural" v="hill" />
		<tag k="place" v="locality" />
		<tag k="ssr:stedsnr" v="497993" />
	</node>
	<node id="-579865" lat="62.6060235036" lon="6.79352591214">
		<tag k="fixme" v="consider natural=peak for the most distinct mountains in the district" />
		<tag k="name" v="Snaufjellet" />
		<tag k="natural" v="hill" />
		<tag k="place" v="locality" />
		<tag k="ssr:stedsnr" v="497268" />
	</node>
	<node id="-579864" lat="62.6471888886" lon="7.05474999449">
		<tag k="fixme" v="consider natural=peak for the most distinct mountains in the district" />
		<tag k="name" v="Haggardshaugen" />
		<tag k="natural" v="hill" />
		<tag k="place" v="locality" />
		<tag k="ssr:stedsnr" v="497014" />
	</node>
	<node id="-579861" lat="62.6310055541" lon="6.80541389039">
		<tag k="name" v="Fjellsenden" />
		<tag k="natural" v="slope" />
		<tag k="place" v="locality" />
		<tag k="ssr:stedsnr" v="497006" />
	</node>
	<node id="-579859" lat="62.6123333365" lon="6.78615277476">
		<tag k="fixme" v="consider natural=peak for the most distinct mountains in the district" />
		<tag k="name" v="Blåfjellet" />
		<tag k="natural" v="hill" />
		<tag k="place" v="locality" />
		<tag k="ssr:stedsnr" v="496961" />
	</node>
	<node id="-579855" lat="62.4636749962" lon="7.20074443507">
		<tag k="name" v="Dalskleiva" />
		<tag k="natural" v="slope" />
		<tag k="place" v="locality" />
		<tag k="ssr:stedsnr" v="496387" />
	</node>
	<node id="-579854" lat="62.467397222" lon="7.20676666837">
		<tag k="name" v="Aksla" />
		<tag k="natural" v="ridge" />
		<tag k="place" v="locality" />
		<tag k="ssr:stedsnr" v="496386" />
	</node>
	<node id="-579853" lat="62.4624000035" lon="7.1158055498">
		<tag k="name" v="Lindsetheiane" />
		<tag k="natural" v="slope" />
		<tag k="place" v="locality" />
		<tag k="ssr:stedsnr" v="496379" />
	</node>
	<node id="-579851" lat="62.4809944441" lon="7.08529166557">
		<tag k="name" v="Ytste Hola" />
		<tag k="natural" v="valley" />
		<tag k="old_name" v="Hola, ytste" />
		<tag k="place" v="locality" />
		<tag k="ssr:stedsnr" v="496345" />
	</node>
	<node id="-579847" lat="62.6091833357" lon="6.78669443924">
		<tag k="alt_name" v="Trollbotn" />
		<tag k="name" v="Trollbotnen" />
		<tag k="natural" v="valley" />
		<tag k="place" v="locality" />
		<tag k="ssr:stedsnr" v="460000" />
	</node>
	<node id="-579845" lat="62.5570638932" lon="7.15868610253">
		<tag k="name" v="Daugstaddalen" />
		<tag k="natural" v="valley" />
		<tag k="place" v="locality" />
		<tag k="ssr:stedsnr" v="459977" />
	</node>
	<node id="-579842" lat="62.6220972265" lon="6.8446972201">
		<tag k="name" v="Osphaugane" />
		<tag k="natural" v="hill" />
		<tag k="place" v="locality" />
		<tag k="ssr:stedsnr" v="459968" />
	</node>
	<node id="-579841" lat="62.6216722181" lon="6.8436500097">
		<tag k="name" v="Heimskifte" />
		<tag k="natural" v="slope" />
		<tag k="place" v="locality" />
		<tag k="ssr:stedsnr" v="459964" />
	</node>
	<node id="-579838" lat="62.6228444437" lon="6.80422776929">
		<tag k="name" v="Fagerlibotnen" />
		<tag k="natural" v="valley" />
		<tag k="place" v="locality" />
		<tag k="ssr:stedsnr" v="459951" />
	</node>
	<node id="-579837" lat="62.6190472225" lon="6.80302777596">
		<tag k="name" v="Trolldalen" />
		<tag k="natural" v="valley" />
		<tag k="place" v="locality" />
		<tag k="ssr:stedsnr" v="459949" />
	</node>
	<node id="-579836" lat="62.6395333329" lon="6.9772222247">
		<tag k="name" v="Tjønnhaugen" />
		<tag k="natural" v="hill" />
		<tag k="place" v="locality" />
		<tag k="ssr:stedsnr" v="459937" />
	</node>
	<node id="-579835" lat="62.6262138848" lon="7.02154166346">
		<tag k="name" v="Vasshaugen" />
		<tag k="natural" v="hill" />
		<tag k="place" v="locality" />
		<tag k="ssr:stedsnr" v="459916" />
	</node>
	<node id="-579832" lat="62.6098583347" lon="6.97254166038">
		<tag k="name" v="Storfonna" />
		<tag k="natural" v="slope" />
		<tag k="place" v="locality" />
		<tag k="ssr:stedsnr" v="459895" />
	</node>
	<node id="-579830" lat="62.6132611147" lon="6.9441138805">
		<tag k="name" v="Hjellbakken" />
		<tag k="natural" v="slope" />
		<tag k="place" v="locality" />
		<tag k="ssr:stedsnr" v="459891" />
	</node>
	<node id="-579829" lat="62.6187166662" lon="7.09278334058">
		<tag k="name" v="Hellandshaugen" />
		<tag k="natural" v="hill" />
		<tag k="place" v="locality" />
		<tag k="ssr:stedsnr" v="459864" />
	</node>
	<node id="-579826" lat="62.6515833322" lon="7.07748056278">
		<tag k="name" v="Brændsdalshaugane" />
		<tag k="natural" v="hill" />
		<tag k="place" v="locality" />
		<tag k="ssr:stedsnr" v="459841" />
	</node>
	<node id="-579818" lat="62.5324777769" lon="7.18539165902">
		<tag k="name" v="Hoemsheia" />
		<tag k="natural" v="ridge" />
		<tag k="place" v="locality" />
		<tag k="ssr:stedsnr" v="459749" />
	</node>
	<node id="-579817" lat="62.5642111066" lon="7.1612555473">
		<tag k="name" v="Vollahaugen" />
		<tag k="natural" v="hill" />
		<tag k="place" v="locality" />
		<tag k="ssr:stedsnr" v="459745" />
	</node>
	<node id="-579815" lat="62.5299555593" lon="7.2636527834">
		<tag k="name" v="Svartedalen" />
		<tag k="natural" v="valley" />
		<tag k="place" v="locality" />
		<tag k="ssr:stedsnr" v="459729" />
	</node>
	<node id="-579814" lat="62.5568638881" lon="7.21162777911">
		<tag k="name" v="Setergjerdet" />
		<tag k="natural" v="slope" />
		<tag k="place" v="locality" />
		<tag k="ssr:stedsnr" v="459726" />
	</node>
	<node id="-579812" lat="62.4664444459" lon="7.04641110192">
		<tag k="name" v="Midtrøra" />
		<tag k="natural" v="slope" />
		<tag k="place" v="locality" />
		<tag k="ssr:stedsnr" v="459706" />
	</node>
	<node id="-579811" lat="62.4774722226" lon="7.16364166829">
		<tag k="name" v="Lia" />
		<tag k="natural" v="slope" />
		<tag k="place" v="locality" />
		<tag k="ssr:stedsnr" v="459690" />
	</node>
	<node id="-579810" lat="62.4935333365" lon="7.09067500031">
		<tag k="name" v="Lågan" />
		<tag k="natural" v="slope" />
		<tag k="place" v="locality" />
		<tag k="ssr:stedsnr" v="459682" />
	</node>
	<node id="-579808" lat="62.519105556" lon="7.15783332483">
		<tag k="name" v="Tuå" />
		<tag k="natural" v="hill" />
		<tag k="place" v="locality" />
		<tag k="ssr:stedsnr" v="459673" />
	</node>
	<node id="-579807" lat="62.5087583347" lon="7.11803055881">
		<tag k="name" v="Nøsa" />
		<tag k="natural" v="hill" />
		<tag k="place" v="locality" />
		<tag k="ssr:stedsnr" v="459670" />
	</node>
	<node id="-579806" lat="62.6411666643" lon="6.8181972232">
		<tag k="name" v="Ådalen" />
		<tag k="natural" v="valley" />
		<tag k="place" v="locality" />
		<tag k="ssr:stedsnr" v="459661" />
	</node>
	<node id="-579805" lat="62.6526527736" lon="6.77785833396">
		<tag k="name" v="Holå" />
		<tag k="natural" v="valley" />
		<tag k="place" v="locality" />
		<tag k="ssr:stedsnr" v="459657" />
	</node>
	<node id="-579802" lat="62.5708055591" lon="6.89441666473">
		<tag k="fixme" v="consider natural=peak for the most distinct mountains in the district" />
		<tag k="name" v="Knultran" />
		<tag k="natural" v="hill" />
		<tag k="place" v="locality" />
		<tag k="ssr:stedsnr" v="459611" />
	</node>
	<node id="-579800" lat="62.6499888891" lon="7.08211943964">
		<tag k="name" v="Stomnane" />
		<tag k="natural" v="slope" />
		<tag k="place" v="locality" />
		<tag k="ssr:stedsnr" v="459601" />
	</node>
	<node id="-579793" lat="62.5425166674" lon="7.20725277366">
		<tag k="fixme" v="consider natural=peak for the most distinct mountains in the district" />
		<tag k="name" v="Knubben" />
		<tag k="natural" v="hill" />
		<tag k="place" v="locality" />
		<tag k="ssr:stedsnr" v="459515" />
	</node>
	<node id="-579792" lat="62.5424750018" lon="7.22894999715">
		<tag k="name" v="Knausane" />
		<tag k="natural" v="slope" />
		<tag k="place" v="locality" />
		<tag k="ssr:stedsnr" v="459503" />
	</node>
	<node id="-579784" lat="62.4725250012" lon="7.11953056264">
		<tag k="name" v="Nonsfjellsida" />
		<tag k="natural" v="slope" />
		<tag k="place" v="locality" />
		<tag k="ssr:stedsnr" v="459126" />
	</node>
	<node id="-579782" lat="62.4916638918" lon="7.08043332552">
		<tag k="name" v="Gauknykbyta" />
		<tag k="natural" v="slope" />
		<tag k="place" v="locality" />
		<tag k="ssr:stedsnr" v="459112" />
	</node>
	<node id="-579778" lat="62.5385055513" lon="6.96959166502">
		<tag k="name" v="Ausphollia" />
		<tag k="natural" v="slope" />
		<tag k="place" v="locality" />
		<tag k="ssr:stedsnr" v="459083" />
	</node>
	<node id="-579777" lat="62.5499833374" lon="6.93639722172">
		<tag k="name" v="Lars Barhaug" />
		<tag k="natural" v="hill" />
		<tag k="place" v="locality" />
		<tag k="ssr:stedsnr" v="459076" />
	</node>
	<node id="-579776" lat="62.5518972193" lon="7.04554999704">
		<tag k="name" v="Grasbakken" />
		<tag k="natural" v="slope" />
		<tag k="place" v="locality" />
		<tag k="ssr:stedsnr" v="459073" />
	</node>
	<node id="-579774" lat="62.4734611128" lon="7.04934167361">
		<tag k="name" v="Storhaugen" />
		<tag k="natural" v="hill" />
		<tag k="place" v="locality" />
		<tag k="ssr:stedsnr" v="459072" />
	</node>
	<node id="-579771" lat="62.5588111107" lon="7.16045833203">
		<tag k="name" v="Storbrauta" />
		<tag k="natural" v="slope" />
		<tag k="place" v="locality" />
		<tag k="ssr:stedsnr" v="459036" />
	</node>
	<node id="-579770" lat="62.4901138911" lon="7.1400694516">
		<tag k="name" v="Rypdalslia" />
		<tag k="natural" v="slope" />
		<tag k="place" v="locality" />
		<tag k="ssr:stedsnr" v="459030" />
	</node>
	<node id="-579769" lat="62.5142083332" lon="7.07106389009">
		<tag k="name" v="Storeknausen" />
		<tag k="natural" v="ridge" />
		<tag k="place" v="locality" />
		<tag k="ssr:stedsnr" v="459026" />
	</node>
	<node id="-579764" lat="62.6231000007" lon="6.77544445026">
		<tag k="name" v="Slettå" />
		<tag k="natural" v="slope" />
		<tag k="place" v="locality" />
		<tag k="ssr:stedsnr" v="458477" />
	</node>
	<node id="-579763" lat="62.628972224" lon="6.76042499885">
		<tag k="alt_name" v="Fremste-reset" />
		<tag k="name" v="Fremstereset" />
		<tag k="natural" v="slope" />
		<tag k="place" v="locality" />
		<tag k="ssr:stedsnr" v="458474" />
	</node>
	<node id="-579762" lat="62.6398527744" lon="6.73149722551">
		<tag k="name" v="Åsan" />
		<tag k="natural" v="slope" />
		<tag k="place" v="locality" />
		<tag k="ssr:stedsnr" v="458385" />
	</node>
	<node id="-579761" lat="62.5516277797" lon="7.04688889754">
		<tag k="name" v="Sprovsbotn" />
		<tag k="natural" v="valley" />
		<tag k="place" v="locality" />
		<tag k="ssr:stedsnr" v="451362" />
	</node>
	<node id="-579755" lat="62.572680554" lon="7.00414443997">
		<tag k="name" v="Ellingsgardsbotnen" />
		<tag k="natural" v="valley" />
		<tag k="place" v="locality" />
		<tag k="ssr:stedsnr" v="437864" />
	</node>
	<node id="-579750" lat="62.6108861143" lon="7.18409999808">
		<tag k="alt_name" v="Litlenakken" />
		<tag k="fixme" v="consider natural=peak for the most distinct mountains in the district" />
		<tag k="name" v="Knubben" />
		<tag k="natural" v="hill" />
		<tag k="place" v="locality" />
		<tag k="ssr:stedsnr" v="436991" />
	</node>
	<node id="-579749" lat="62.5907861092" lon="6.97677222015">
		<tag k="name" v="Båtreset" />
		<tag k="natural" v="valley" />
		<tag k="place" v="locality" />
		<tag k="ssr:stedsnr" v="436978" />
	</node>
	<node id="-579747" lat="62.6020138907" lon="6.95611388254">
		<tag k="name" v="Vikaksla" />
		<tag k="natural" v="hill" />
		<tag k="place" v="locality" />
		<tag k="ssr:stedsnr" v="436946" />
	</node>
	<node id="-579745" lat="62.5594194413" lon="7.11947500927">
		<tag k="alt_name" v="Bjermelandsnakken" />
		<tag k="fixme" v="consider natural=peak for the most distinct mountains in the district" />
		<tag k="name" v="Nakken" />
		<tag k="natural" v="hill" />
		<tag k="place" v="locality" />
		<tag k="ssr:stedsnr" v="436922" />
	</node>
	<node id="-579742" lat="62.5878388875" lon="7.16692778418">
		<tag k="fixme" v="consider natural=peak for the most distinct mountains in the district" />
		<tag k="name" v="Helsetnakken" />
		<tag k="natural" v="hill" />
		<tag k="place" v="locality" />
		<tag k="ssr:stedsnr" v="436893" />
	</node>
	<node id="-579740" lat="62.5211666672" lon="7.18356110238">
		<tag k="fixme" v="consider natural=peak for the most distinct mountains in the district" />
		<tag k="name" v="Sandfjellet" />
		<tag k="natural" v="hill" />
		<tag k="place" v="locality" />
		<tag k="ssr:stedsnr" v="436856" />
	</node>
	<node id="-579739" lat="62.5197638901" lon="7.19654722663">
		<tag k="name" v="Sylteråket" />
		<tag k="natural" v="valley" />
		<tag k="place" v="locality" />
		<tag k="ssr:stedsnr" v="436855" />
	</node>
	<node id="-579730" lat="62.6473694479" lon="7.05071943944">
		<tag k="name" v="Faksefjellet" />
		<tag k="natural" v="hill" />
		<tag k="place" v="locality" />
		<tag k="ssr:stedsnr" v="415801" />
	</node>
	<node id="-579726" lat="62.5895861103" lon="7.04023056216">
		<tag k="name" v="Heia" />
		<tag k="natural" v="ridge" />
		<tag k="place" v="locality" />
		<tag k="ssr:stedsnr" v="254974" />
	</node>
	<node id="-579724" lat="62.5881333359" lon="6.80618610765">
		<tag k="name" v="Nakkedalen" />
		<tag k="natural" v="valley" />
		<tag k="place" v="locality" />
		<tag k="ssr:stedsnr" v="254968" />
	</node>
	<node id="-579716" lat="62.5499388874" lon="7.06172500334">
		<tag k="fixme" v="consider natural=peak for the most distinct mountains in the district" />
		<tag k="name" v="Blåtinden" />
		<tag k="natural" v="hill" />
		<tag k="place" v="locality" />
		<tag k="ssr:stedsnr" v="254901" />
	</node>
	<node id="-579714" lat="62.5741027804" lon="6.80190556384">
		<tag k="name" v="Mellia" />
		<tag k="natural" v="slope" />
		<tag k="place" v="locality" />
		<tag k="ssr:stedsnr" v="254887" />
	</node>
	<node id="-579709" lat="62.5252416699" lon="7.05151388497">
		<tag k="alt_name" v="Smørhylla, søre" />
		<tag k="fixme" v="consider natural=peak for the most distinct mountains in the district" />
		<tag k="name" v="Søre Smørhylla" />
		<tag k="natural" v="hill" />
		<tag k="place" v="locality" />
		<tag k="ssr:stedsnr" v="254801" />
	</node>
	<node id="-579704" lat="62.6388861113" lon="6.76575555239">
		<tag k="fixme" v="consider natural=peak for the most distinct mountains in the district" />
		<tag k="name" v="Snaufjellet" />
		<tag k="natural" v="hill" />
		<tag k="place" v="locality" />
		<tag k="ssr:stedsnr" v="254018" />
	</node>
	<node id="-579703" lat="62.6429166674" lon="6.98917778458">
		<tag k="fixme" v="consider natural=peak for the most distinct mountains in the district" />
		<tag k="name" v="Kvernhusåsen" />
		<tag k="natural" v="hill" />
		<tag k="place" v="locality" />
		<tag k="ssr:stedsnr" v="254002" />
	</node>
	<node id="-579702" lat="62.456827776" lon="7.15962500192">
		<tag k="name" v="Dalsbotnen" />
		<tag k="natural" v="valley" />
		<tag k="old_name" v="Dalsbotn" />
		<tag k="place" v="locality" />
		<tag k="ssr:stedsnr" v="253420" />
	</node>
	<node id="-579701" lat="62.4636388887" lon="7.13921111723">
		<tag k="fixme" v="consider natural=peak for the most distinct mountains in the district" />
		<tag k="name" v="Nonsfjellet" />
		<tag k="natural" v="hill" />
		<tag k="place" v="locality" />
		<tag k="ssr:stedsnr" v="253410" />
	</node>
	<node id="-579700" lat="62.4782388891" lon="7.04664167446">
		<tag k="name" v="Vardhaugen" />
		<tag k="natural" v="hill" />
		<tag k="place" v="locality" />
		<tag k="ssr:stedsnr" v="253385" />
	</node>
	<node id="-579698" lat="62.4894444439" lon="7.20425833174">
		<tag k="name" v="Tuvene" />
		<tag k="natural" v="hill" />
		<tag k="old_name" v="Tuene" />
		<tag k="place" v="locality" />
		<tag k="ssr:stedsnr" v="253366" />
	</node>
	<node id="-579693" lat="62.5994250023" lon="6.73861945228">
		<tag k="name" v="Skjerdingan" />
		<tag k="natural" v="mountain_range" />
		<tag k="ssr:stedsnr" v="239459" />
	</node>
	<node id="-579686" lat="62.6366583338" lon="6.79823889063">
		<tag k="name" v="Trippeholå" />
		<tag k="natural" v="valley" />
		<tag k="place" v="locality" />
		<tag k="ssr:stedsnr" v="217992" />
	</node>
	<node id="-579684" lat="62.5439750016" lon="7.15483054778">
		<tag k="name" v="Stordalen" />
		<tag k="natural" v="valley" />
		<tag k="place" v="locality" />
		<tag k="ssr:stedsnr" v="217980" />
	</node>
	<node id="-579680" lat="62.610499997" lon="6.86059444432">
		<tag k="name" v="Hjellhaugen" />
		<tag k="natural" v="hill" />
		<tag k="place" v="locality" />
		<tag k="ssr:stedsnr" v="217960" />
	</node>
	<node id="-579678" lat="62.6278333315" lon="6.81638888322">
		<tag k="name" v="Fjellsenden" />
		<tag k="natural" v="slope" />
		<tag k="place" v="locality" />
		<tag k="ssr:stedsnr" v="217956" />
	</node>
	<node id="-579677" lat="62.6154027795" lon="6.81028056273">
		<tag k="name" v="Brunarøra" />
		<tag k="natural" v="ridge" />
		<tag k="place" v="locality" />
		<tag k="ssr:stedsnr" v="217953" />
	</node>
	<node id="-579676" lat="62.646541665" lon="6.92526388368">
		<tag k="name" v="Børtrehaugen" />
		<tag k="natural" v="hill" />
		<tag k="place" v="locality" />
		<tag k="ssr:stedsnr" v="217929" />
	</node>
	<node id="-579673" lat="62.6047527796" lon="6.85111388966">
		<tag k="name" v="Brennhaugen" />
		<tag k="natural" v="hill" />
		<tag k="place" v="locality" />
		<tag k="ssr:stedsnr" v="217895" />
	</node>
	<node id="-579671" lat="62.6266250014" lon="7.04316388146">
		<tag k="name" v="Kråhaugen" />
		<tag k="natural" v="hill" />
		<tag k="place" v="locality" />
		<tag k="ssr:stedsnr" v="217889" />
	</node>
	<node id="-579669" lat="62.6417166702" lon="7.04517500173">
		<tag k="name" v="Litlevassdalen" />
		<tag k="natural" v="valley" />
		<tag k="place" v="locality" />
		<tag k="ssr:stedsnr" v="217871" />
	</node>
	<node id="-579664" lat="62.6459361124" lon="7.06390556324">
		<tag k="name" v="Ytsteskaret" />
		<tag k="natural" v="valley" />
		<tag k="place" v="locality" />
		<tag k="ssr:stedsnr" v="217821" />
	</node>
	<node id="-579658" lat="62.5477305575" lon="7.21441389519">
		<tag k="name" v="Haljerørene" />
		<tag k="natural" v="slope" />
		<tag k="place" v="locality" />
		<tag k="ssr:stedsnr" v="217755" />
	</node>
	<node id="-579656" lat="62.5687922853" lon="7.1589146891">
		<tag k="name" v="Troskothaugen" />
		<tag k="natural" v="hill" />
		<tag k="place" v="locality" />
		<tag k="ssr:stedsnr" v="217742" />
	</node>
	<node id="-579653" lat="62.6041277743" lon="7.19926944713">
		<tag k="name" v="Breiskaret" />
		<tag k="natural" v="valley" />
		<tag k="place" v="locality" />
		<tag k="ssr:stedsnr" v="217714" />
	</node>
	<node id="-579652" lat="62.5569499958" lon="6.87985278709">
		<tag k="name" v="Sollia" />
		<tag k="natural" v="slope" />
		<tag k="place" v="locality" />
		<tag k="ssr:stedsnr" v="217695" />
	</node>
	<node id="-579651" lat="62.467019447" lon="7.15788334025">
		<tag k="name" v="Reset" />
		<tag k="natural" v="ridge" />
		<tag k="place" v="locality" />
		<tag k="ssr:stedsnr" v="217676" />
	</node>
	<node id="-579650" lat="62.6429611124" lon="6.81204722802">
		<tag k="name" v="Hjellen" />
		<tag k="place" v="locality" />
		<tag k="ssr:stedsnr" v="217657" />
	</node>
	<node id="-579649" lat="62.5144027757" lon="7.15676111515">
		<tag k="name" v="Nakken" />
		<tag k="natural" v="ridge" />
		<tag k="place" v="locality" />
		<tag k="ssr:stedsnr" v="217658" />
	</node>
	<node id="-579648" lat="62.6469555512" lon="6.75048333219">
		<tag k="name" v="Svenen" />
		<tag k="natural" v="slope" />
		<tag k="place" v="locality" />
		<tag k="ssr:stedsnr" v="217654" />
	</node>
	<node id="-579647" lat="62.6462777738" lon="6.74977500972">
		<tag k="name" v="Brenslen" />
		<tag k="natural" v="slope" />
		<tag k="place" v="locality" />
		<tag k="ssr:stedsnr" v="217651" />
	</node>
	<node id="-579646" lat="62.543747223" lon="7.14998610273">
		<tag k="name" v="Stidalen" />
		<tag k="natural" v="valley" />
		<tag k="place" v="locality" />
		<tag k="ssr:stedsnr" v="217649" />
	</node>
	<node id="-579645" lat="62.6076861073" lon="6.87717222723">
		<tag k="name" v="Nakkan" />
		<tag k="natural" v="ridge" />
		<tag k="place" v="locality" />
		<tag k="ssr:stedsnr" v="217646" />
	</node>
	<node id="-579643" lat="62.6091305534" lon="6.87335556471">
		<tag k="name" v="Holå" />
		<tag k="natural" v="valley" />
		<tag k="place" v="locality" />
		<tag k="ssr:stedsnr" v="217637" />
	</node>
	<node id="-579640" lat="62.6499666633" lon="6.94847500022">
		<tag k="name" v="Naustlia" />
		<tag k="natural" v="slope" />
		<tag k="place" v="locality" />
		<tag k="ssr:stedsnr" v="217629" />
	</node>
	<node id="-579639" lat="62.6388222235" lon="7.05833333776">
		<tag k="name" v="Høglia" />
		<tag k="natural" v="slope" />
		<tag k="place" v="locality" />
		<tag k="ssr:stedsnr" v="217614" />
	</node>
	<node id="-579638" lat="62.6381861146" lon="7.06698334083">
		<tag k="name" v="Brattlia" />
		<tag k="natural" v="slope" />
		<tag k="place" v="locality" />
		<tag k="ssr:stedsnr" v="217612" />
	</node>
	<node id="-579636" lat="62.6208249956" lon="7.09362221781">
		<tag k="name" v="Rabben" />
		<tag k="natural" v="slope" />
		<tag k="place" v="locality" />
		<tag k="ssr:stedsnr" v="217600" />
	</node>
	<node id="-579633" lat="62.5988027768" lon="7.15907221643">
		<tag k="name" v="Brauta" />
		<tag k="natural" v="slope" />
		<tag k="place" v="locality" />
		<tag k="ssr:stedsnr" v="217583" />
	</node>
	<node id="-579632" lat="62.5532555513" lon="7.18484445254">
		<tag k="name" v="Ytstelia" />
		<tag k="natural" v="slope" />
		<tag k="place" v="locality" />
		<tag k="ssr:stedsnr" v="217561" />
	</node>
	<node id="-579631" lat="62.5441555533" lon="7.19230555621">
		<tag k="name" v="Reset" />
		<tag k="natural" v="slope" />
		<tag k="place" v="locality" />
		<tag k="ssr:stedsnr" v="217556" />
	</node>
	<node id="-579628" lat="62.5613361115" lon="6.91635555007">
		<tag k="name" v="Byggebotnen" />
		<tag k="natural" v="valley" />
		<tag k="place" v="locality" />
		<tag k="ssr:stedsnr" v="217085" />
	</node>
	<node id="-579627" lat="62.4771055512" lon="7.02073610293">
		<tag k="name" v="Geitanibba" />
		<tag k="natural" v="hill" />
		<tag k="place" v="locality" />
		<tag k="ssr:stedsnr" v="217084" />
	</node>
	<node id="-579625" lat="62.5625555558" lon="6.99856666369">
		<tag k="name" v="Steinteigen" />
		<tag k="natural" v="slope" />
		<tag k="place" v="locality" />
		<tag k="ssr:stedsnr" v="217064" />
	</node>
	<node id="-579624" lat="62.5269805515" lon="7.1582805573">
		<tag k="name" v="Bukkeholå" />
		<tag k="natural" v="gorge" />
		<tag k="ssr:stedsnr" v="217059" />
	</node>
	<node id="-579621" lat="62.5142916677" lon="7.10368333246">
		<tag k="name" v="Svarthammaren" />
		<tag k="natural" v="slope" />
		<tag k="place" v="locality" />
		<tag k="ssr:stedsnr" v="217026" />
	</node>
	<node id="-579616" lat="62.461619445" lon="7.15349166661">
		<tag k="name" v="Småskredene" />
		<tag k="natural" v="slope" />
		<tag k="place" v="locality" />
		<tag k="ssr:stedsnr" v="217110" />
	</node>
	<node id="-579615" lat="62.4935333375" lon="7.10380277572">
		<tag k="name" v="Holmegjerda" />
		<tag k="natural" v="slope" />
		<tag k="place" v="locality" />
		<tag k="ssr:stedsnr" v="217105" />
	</node>
	<node id="-579610" lat="62.5760388911" lon="6.8544972228">
		<tag k="name" v="Botnahamrane" />
		<tag k="place" v="locality" />
		<tag k="ssr:stedsnr" v="216091" />
	</node>
	<node id="-579608" lat="62.515469446" lon="7.0052250059">
		<tag k="name" v="Grovarustene" />
		<tag k="natural" v="slope" />
		<tag k="place" v="locality" />
		<tag k="ssr:stedsnr" v="208347" />
	</node>
	<node id="-579607" lat="62.4750388857" lon="7.12820833456">
		<tag k="name" v="Skiråhjellan" />
		<tag k="place" v="locality" />
		<tag k="ssr:stedsnr" v="203728" />
	</node>
	<node id="-579601" lat="62.5755694446" lon="7.08411665947">
		<tag k="fixme" v="consider natural=peak for the most distinct mountains in the district" />
		<tag k="name" v="Kjelbotnnakken" />
		<tag k="natural" v="hill" />
		<tag k="place" v="locality" />
		<tag k="ssr:stedsnr" v="194890" />
	</node>
	<node id="-579599" lat="62.5084805532" lon="7.2010166672">
		<tag k="name" v="Ospefonna" />
		<tag k="natural" v="slope" />
		<tag k="place" v="locality" />
		<tag k="ssr:stedsnr" v="194834" />
	</node>
	<node id="-579598" lat="62.5435916623" lon="7.2902472128">
		<tag k="fixme" v="consider natural=peak for the most distinct mountains in the district" />
		<tag k="name" v="Svartevasstinden" />
		<tag k="natural" v="hill" />
		<tag k="place" v="locality" />
		<tag k="ssr:stedsnr" v="194491" />
	</node>
	<node id="-579594" lat="62.5936194441" lon="6.88730555578">
		<tag k="name" v="Strandagjølet" />
		<tag k="natural" v="valley" />
		<tag k="place" v="locality" />
		<tag k="ssr:stedsnr" v="193995" />
	</node>
	<node id="-579593" lat="62.6033583343" lon="7.0742972171">
		<tag k="name" v="Remmemsdalen" />
		<tag k="natural" v="valley" />
		<tag k="place" v="locality" />
		<tag k="ssr:stedsnr" v="193983" />
	</node>
	<node id="-579590" lat="62.494341665" lon="7.23428610446">
		<tag k="fixme" v="consider natural=peak for the most distinct mountains in the district" />
		<tag k="name" v="Geitemjølktinden" />
		<tag k="natural" v="hill" />
		<tag k="place" v="locality" />
		<tag k="ssr:stedsnr" v="193929" />
	</node>
	<node id="-579587" lat="62.5595138853" lon="7.27083333215">
		<tag k="fixme" v="multiple name tags, choose one and add the other to alt_name; consider natural=peak for the most distinct mountains in the district" />
		<tag k="name" v="Blåtinden;Mjelthaugen" />
		<tag k="natural" v="hill" />
		<tag k="place" v="locality" />
		<tag k="ssr:stedsnr" v="193556" />
	</node>
	<node id="-579586" lat="62.4624583374" lon="7.05197778368">
		<tag k="name" v="Seterlia" />
		<tag k="natural" v="slope" />
		<tag k="place" v="locality" />
		<tag k="ssr:stedsnr" v="193369" />
	</node>
</osm>
