<?xml version="1.0" encoding="UTF-8"?>
<osm version="0.6" generator="osmapis">
	<node lat="62.63843888939289" lon="6.91503889725855" id="-8524">
		<tag k="fixme" v="consider place=hamlet" />
		<tag k="name" v="Nerås" />
		<tag k="place" v="farm" />
		<tag k="ssr:stedsnr" v="12015" />
	</node>
	<node lat="62.64363611490261" lon="6.911394445868788" id="-8525">
		<tag k="name" v="Nordheim" />
		<tag k="place" v="farm" />
		<tag k="ssr:stedsnr" v="12017" />
	</node>
	<node lat="62.606622224169755" lon="7.098894439454666" id="-8527">
		<tag k="fixme" v="consider place=hamlet" />
		<tag k="name" v="Salthammaren" />
		<tag k="place" v="farm" />
		<tag k="ssr:stedsnr" v="11990" />
	</node>
	<node lat="62.59578179483649" lon="7.0628663963230744" id="-8529">
		<tag k="historic" v="shieling" />
		<tag k="name" v="Remmemssetra" />
		<tag k="place" v="isolated_dwelling" />
		<tag k="ssr:stedsnr" v="11999" />
	</node>
	<node lat="62.64278611438769" lon="6.711880555175376" id="-8536">
		<tag k="name" v="Strupen" />
		<tag k="place" v="isolated_dwelling" />
		<tag k="ssr:stedsnr" v="232762" />
	</node>
	<node lat="62.614658328864856" lon="7.090169436083386" id="-8556">
		<tag k="name" v="Einen" />
		<tag k="place" v="farm" />
		<tag k="ssr:stedsnr" v="34462" />
	</node>
	<node lat="62.63120277960323" lon="7.083850000006322" id="-8557">
		<tag k="name" v="Vestheim" />
		<tag k="place" v="farm" />
		<tag k="ssr:stedsnr" v="34484" />
	</node>
	<node lat="62.646911107395866" lon="6.740699996090998" id="-8558">
		<tag k="name" v="Hansgarden" />
		<tag k="place" v="farm" />
		<tag k="ssr:stedsnr" v="34488" />
	</node>
	<node lat="62.60918055936648" lon="6.831061109604031" id="-8559">
		<tag k="fixme" v="consider place=hamlet" />
		<tag k="loc_name" v="Marka" />
		<tag k="name" v="Marken" />
		<tag k="place" v="farm" />
		<tag k="ssr:stedsnr" v="34490" />
	</node>
	<node lat="62.52199999914072" lon="7.1249972269620345" id="-8560">
		<tag k="name" v="Bøen" />
		<tag k="place" v="farm" />
		<tag k="ssr:stedsnr" v="34494" />
	</node>
	<node lat="62.56116944069521" lon="6.899658335502899" id="-8561">
		<tag k="historic" v="shieling" />
		<tag k="name" v="Øvste Øygardssetra" />
		<tag k="place" v="isolated_dwelling" />
		<tag k="ssr:stedsnr" v="34500" />
	</node>
	<node lat="62.59940833701716" lon="6.929133330808765" id="-8570">
		<tag k="alt_name" v="Li" />
		<tag k="name" v="Klasgarden" />
		<tag k="place" v="farm" />
		<tag k="ssr:stedsnr" v="34823" />
	</node>
	<node lat="62.498402780807545" lon="7.152519444913809" id="-8579">
		<tag k="alt_name" v="Myran" />
		<tag k="name" v="Øverland" />
		<tag k="place" v="farm" />
		<tag k="ssr:stedsnr" v="71328" />
	</node>
	<node lat="62.532030558220946" lon="7.127227772469589" id="-8583">
		<tag k="alt_name" v="Eidhammar, in" />
		<tag k="fixme" v="consider place=hamlet" />
		<tag k="name" v="Indre Eidhammar" />
		<tag k="place" v="farm" />
		<tag k="ssr:stedsnr" v="72801" />
	</node>
	<node lat="62.50200277368034" lon="7.12431666671275" id="-8586">
		<tag k="fixme" v="consider place=hamlet" />
		<tag k="name" v="Kjersem" />
		<tag k="place" v="farm" />
		<tag k="ssr:stedsnr" v="72830" />
	</node>
	<node lat="62.56874166322861" lon="7.157188882947961" id="-8589">
		<tag k="alt_name" v="Villa, indre;Villa" />
		<tag k="name" v="Indre Villa" />
		<tag k="place" v="farm" />
		<tag k="ssr:stedsnr" v="72871" />
	</node>
	<node lat="62.55408888489776" lon="7.21631388811872" id="-8590">
		<tag k="historic" v="shieling" />
		<tag k="name" v="Sessetra" />
		<tag k="place" v="isolated_dwelling" />
		<tag k="ssr:stedsnr" v="72905" />
	</node>
	<node lat="62.553752781534115" lon="7.093475004220599" id="-8591">
		<tag k="historic" v="shieling" />
		<tag k="name" v="Kjøpstadsetra" />
		<tag k="place" v="isolated_dwelling" />
		<tag k="ssr:stedsnr" v="72907" />
	</node>
	<node lat="62.562591666115935" lon="7.005600009334595" id="-8592">
		<tag k="fixme" v="consider place=hamlet" />
		<tag k="name" v="Ellingsgarden" />
		<tag k="place" v="farm" />
		<tag k="ssr:stedsnr" v="72914" />
	</node>
	<node lat="62.55546944045636" lon="6.860769443309391" id="-8593">
		<tag k="historic" v="shieling" />
		<tag k="name" v="Litlestølen" />
		<tag k="place" v="isolated_dwelling" />
		<tag k="ssr:stedsnr" v="72918" />
	</node>
	<node lat="62.6130388908122" lon="6.837113887608118" id="-8604">
		<tag k="name" v="Rustene" />
		<tag k="place" v="farm" />
		<tag k="ssr:stedsnr" v="95475" />
	</node>
	<node lat="62.61722499762973" lon="6.846147222652188" id="-8605">
		<tag k="name" v="Berga" />
		<tag k="place" v="farm" />
		<tag k="ssr:stedsnr" v="95477" />
	</node>
	<node lat="62.6389194439041" lon="6.9146055482899875" id="-8606">
		<tag k="name" v="Ytregarden" />
		<tag k="place" v="farm" />
		<tag k="ssr:stedsnr" v="95478" />
	</node>
	<node lat="62.61025833529826" lon="7.151891658902832" id="-8618">
		<tag k="name" v="Vikegjerda" />
		<tag k="place" v="locality" />
		<tag k="ssr:stedsnr" v="95816" />
	</node>
	<node lat="62.56856111228776" lon="7.0597555612820795" id="-8626">
		<tag k="name" v="Hestavollen" />
		<tag k="place" v="locality" />
		<tag k="ssr:stedsnr" v="95766" />
	</node>
	<node lat="62.61088333249009" lon="6.927788898017303" id="-8635">
		<tag k="fixme" v="consider place=hamlet" />
		<tag k="name" v="Selnes" />
		<tag k="place" v="farm" />
		<tag k="ssr:stedsnr" v="120981" />
	</node>
	<node lat="62.55069999867003" lon="6.852497219686973" id="-8638">
		<tag k="historic" v="shieling" />
		<tag k="name" v="Frostadsetra" />
		<tag k="place" v="isolated_dwelling" />
		<tag k="ssr:stedsnr" v="132908" />
	</node>
	<node lat="62.55289722268484" lon="7.127122218578218" id="-8639">
		<tag k="fixme" v="consider place=hamlet" />
		<tag k="name" v="Kjøpstad" />
		<tag k="place" v="farm" />
		<tag k="ssr:stedsnr" v="132914" />
	</node>
	<node lat="62.60707735275988" lon="7.286293083629142" id="-8654">
		<tag k="fixme" v="consider place=hamlet" />
		<tag k="name" v="Øygarden" />
		<tag k="place" v="farm" />
		<tag k="ssr:stedsnr" v="254547" />
	</node>
	<node lat="62.606155555150906" lon="7.332224993422935" id="-8655">
		<tag k="name" v="Lundsbø" />
		<tag k="place" v="farm" />
		<tag k="ssr:stedsnr" v="254548" />
	</node>
	<node lat="62.60071667078037" lon="7.243402781836276" id="-8656">
		<tag k="name" v="Nyheim" />
		<tag k="place" v="farm" />
		<tag k="ssr:stedsnr" v="254563" />
	</node>
	<node lat="62.57768611407736" lon="7.152738883129749" id="-8660">
		<tag k="alt_name" v="Villa, ytre" />
		<tag k="name" v="Ytre Villa" />
		<tag k="place" v="farm" />
		<tag k="ssr:stedsnr" v="254879" />
	</node>
	<node lat="62.57029722017066" lon="7.07258054874262" id="-8661">
		<tag k="alt_name" v="Kristisætra" />
		<tag k="fixme" v="consider place=hamlet" />
		<tag k="name" v="Kristisetra" />
		<tag k="place" v="farm" />
		<tag k="ssr:stedsnr" v="254880" />
	</node>
	<node lat="62.574449824588164" lon="6.908211815230673" id="-8662">
		<tag k="alt_name" v="Frostad" />
		<tag k="fixme" v="consider place=hamlet" />
		<tag k="name" v="Nedre Frostad" />
		<tag k="place" v="farm" />
		<tag k="ssr:stedsnr" v="254885" />
	</node>
	<node lat="62.594127781232444" lon="7.08288056125713" id="-8670">
		<tag k="historic" v="shieling" />
		<tag k="name" v="Øygardssetra" />
		<tag k="place" v="isolated_dwelling" />
		<tag k="ssr:stedsnr" v="254952" />
	</node>
	<node lat="62.59681667011528" lon="6.80948055290466" id="-8671">
		<tag k="historic" v="shieling" />
		<tag k="name" v="Ellingsetersetra" />
		<tag k="place" v="isolated_dwelling" />
		<tag k="ssr:stedsnr" v="254993" />
	</node>
	<node lat="62.6139583292034" lon="6.860391673602567" id="-8673">
		<tag k="name" v="Myrås" />
		<tag k="place" v="farm" />
		<tag k="ssr:stedsnr" v="147270" />
	</node>
	<node lat="62.63025000122864" lon="7.087027783991965" id="-8688">
		<tag k="name" v="Hagen" />
		<tag k="place" v="farm" />
		<tag k="ssr:stedsnr" v="156513" />
	</node>
	<node lat="62.5927638922581" lon="7.101902773388521" id="-8690">
		<tag k="alt_name" v="Stenødegård;Steinødegården" />
		<tag k="fixme" v="consider place=hamlet" />
		<tag k="name" v="Steinøygarden" />
		<tag k="place" v="farm" />
		<tag k="ssr:stedsnr" v="156490" />
	</node>
	<node lat="62.54049721781331" lon="7.199249993649155" id="-8692">
		<tag k="name" v="Gamlesetra" />
		<tag k="place" v="locality" />
		<tag k="ssr:stedsnr" v="156751" />
	</node>
	<node lat="62.62199166808585" lon="7.086780554076334" id="-8704">
		<tag k="leisure" v="pitch" />
		<tag k="name" v="Vestnes stadion" />
		<tag k="ssr:stedsnr" v="156861" />
	</node>
	<node lat="62.618763884892616" lon="6.939950002310816" id="-8714">
		<tag k="name" v="Sjølaupet" />
		<tag k="place" v="farm" />
		<tag k="ssr:stedsnr" v="269350" />
	</node>
	<node lat="62.559697223451856" lon="7.155658339306363" id="-8739">
		<tag k="name" v="Daugstadbakken" />
		<tag k="place" v="farm" />
		<tag k="ssr:stedsnr" v="217975" />
	</node>
	<node lat="62.64677500073512" lon="6.744280557780361" id="-8741">
		<tag k="name" v="Rekdalsbakken" />
		<tag k="place" v="farm" />
		<tag k="ssr:stedsnr" v="217984" />
	</node>
	<node lat="62.58184722559673" lon="7.105227786691973" id="-8744">
		<tag k="name" v="Skorgevik" />
		<tag k="place" v="isolated_dwelling" />
		<tag k="ssr:stedsnr" v="232140" />
	</node>
	<node lat="62.57123333070567" lon="7.115072221130974" id="-8745">
		<tag k="alt_name" v="Skorgå;Skorgen" />
		<tag k="name" v="Skorga" />
		<tag k="place" v="farm" />
		<tag k="ssr:stedsnr" v="241236" />
	</node>
	<node lat="62.620363887384826" lon="7.087936111549778" id="-8747">
		<tag k="fixme" v="consider place=hamlet" />
		<tag k="name" v="Øvre Helland" />
		<tag k="place" v="farm" />
		<tag k="ssr:stedsnr" v="242080" />
	</node>
	<node lat="62.57873611460681" lon="7.14989167086035" id="-8748">
		<tag k="alt_name" v="Skjegstad" />
		<tag k="name" v="Tunheim" />
		<tag k="place" v="farm" />
		<tag k="ssr:stedsnr" v="241984" />
	</node>
	<node lat="62.62458333635399" lon="6.845908334559129" id="-8749">
		<tag k="name" v="Myrane" />
		<tag k="place" v="farm" />
		<tag k="ssr:stedsnr" v="451297" />
	</node>
	<node lat="62.631119446549505" lon="7.080844439313832" id="-8752">
		<tag k="name" v="Kvalvika" />
		<tag k="place" v="farm" />
		<tag k="ssr:stedsnr" v="254021" />
	</node>
	<node lat="62.55449167011719" lon="7.189408324432515" id="-8756">
		<tag k="alt_name" v="Sakselien" />
		<tag k="fixme" v="consider place=hamlet" />
		<tag k="name" v="Sakselia" />
		<tag k="place" v="farm" />
		<tag k="ssr:stedsnr" v="254904" />
	</node>
	<node lat="62.56136686312295" lon="6.898063535164201" id="-8757">
		<tag k="historic" v="shieling" />
		<tag k="name" v="Øygardssetra" />
		<tag k="place" v="isolated_dwelling" />
		<tag k="ssr:stedsnr" v="254909" />
	</node>
	<node lat="62.61256666581998" lon="7.0118166685147125" id="-8758">
		<tag k="name" v="Flate" />
		<tag k="place" v="farm" />
		<tag k="ssr:stedsnr" v="254920" />
	</node>
	<node lat="62.60364166263865" lon="6.832088881368461" id="-8760">
		<tag k="name" v="Sagvollen" />
		<tag k="place" v="farm" />
		<tag k="ssr:stedsnr" v="254931" />
	</node>
	<node lat="62.59917500367705" lon="6.897141670081443" id="-8761">
		<tag k="fixme" v="consider place=hamlet" />
		<tag k="name" v="Fiksdalsstranda" />
		<tag k="place" v="farm" />
		<tag k="ssr:stedsnr" v="254936" />
	</node>
	<node lat="62.524183329337966" lon="6.999280549728048" id="-8770">
		<tag k="historic" v="shieling" />
		<tag k="name" v="Villastølen" />
		<tag k="place" v="isolated_dwelling" />
		<tag k="ssr:stedsnr" v="459087" />
	</node>
	<node lat="62.57834722142137" lon="6.929652772874274" id="-8776">
		<tag k="fixme" v="consider place=hamlet" />
		<tag k="name" v="Store Tomra" />
		<tag k="place" v="farm" />
		<tag k="ssr:stedsnr" v="459488" />
	</node>
	<node lat="62.55925278042696" lon="7.129050009150995" id="-8777">
		<tag k="name" v="Myra" />
		<tag k="place" v="farm" />
		<tag k="ssr:stedsnr" v="459492" />
	</node>
	<node lat="62.502208332841214" lon="7.143102768950428" id="-8778">
		<tag k="name" v="Hagheim" />
		<tag k="place" v="farm" />
		<tag k="ssr:stedsnr" v="459497" />
	</node>
	<node lat="62.507869441264944" lon="7.162497226986168" id="-8794">
		<tag k="name" v="Gamlestølen" />
		<tag k="place" v="locality" />
		<tag k="ssr:stedsnr" v="277005" />
	</node>
	<node lat="62.62313611103412" lon="7.165708342643662" id="-8800">
		<tag k="alt_name" v="Gjermundnes" />
		<tag k="amenity" v="school" />
		<tag k="name" v="Gjermundnes landbruksskule" />
		<tag k="ssr:stedsnr" v="459799" />
	</node>
	<node lat="62.62918610928664" lon="7.1647333291407" id="-8806">
		<tag k="name" v="Einargarden" />
		<tag k="place" v="farm" />
		<tag k="ssr:stedsnr" v="277487" />
	</node>
	<node lat="62.57620555218591" lon="6.907069435627006" id="-8807">
		<tag k="name" v="Sørengarden" />
		<tag k="place" v="farm" />
		<tag k="ssr:stedsnr" v="277500" />
	</node>
	<node lat="62.64495555694263" lon="6.814919443121117" id="-8813">
		<tag k="name" v="Neset" />
		<tag k="place" v="farm" />
		<tag k="ssr:stedsnr" v="277514" />
	</node>
	<node lat="62.497272222776004" lon="7.143766662408465" id="-8814">
		<tag k="name" v="Tuen" />
		<tag k="place" v="farm" />
		<tag k="ssr:stedsnr" v="277520" />
	</node>
	<node lat="62.616075000073394" lon="7.090780551287833" id="-8826">
		<tag k="amenity" v="school" />
		<tag k="name" v="Vestnes ungdomsskole" />
		<tag k="ssr:stedsnr" v="277826" />
	</node>
	<node lat="62.62103888650941" lon="7.155133339779072" id="-8827">
		<tag k="name" v="Febrandshaugen" />
		<tag k="place" v="quarter" />
		<tag k="ssr:stedsnr" v="277844" />
	</node>
	<node lat="62.62023610845168" lon="7.090419452181147" id="-8854">
		<tag k="fixme" v="consider place=hamlet" />
		<tag k="name" v="Nedre Helland" />
		<tag k="place" v="farm" />
		<tag k="ssr:stedsnr" v="303099" />
	</node>
	<node lat="62.58042499851051" lon="7.108452769664939" id="-8863">
		<tag k="name" v="Vika" />
		<tag k="place" v="farm" />
		<tag k="ssr:stedsnr" v="315904" />
	</node>
	<node lat="62.574658336269614" lon="6.92094722913003" id="-8864">
		<tag k="name" v="Tomra" />
		<tag k="place" v="hamlet" />
		<tag k="ssr:stedsnr" v="315910" />
	</node>
	<node lat="62.61730278116277" lon="6.857566675232375" id="-8890">
		<tag k="amenity" v="school" />
		<tag k="name" v="Fiksdal skule" />
		<tag k="ssr:stedsnr" v="338949" />
	</node>
	<node lat="62.57988611064671" lon="7.103736107492748" id="-8895">
		<tag k="fixme" v="consider place=hamlet" />
		<tag k="loc_name" v="Vika;Skorgevika" />
		<tag k="name" v="Viken" />
		<tag k="place" v="farm" />
		<tag k="ssr:stedsnr" v="363217" />
	</node>
	<node lat="62.57621111184649" lon="7.117422222953511" id="-8896">
		<tag k="fixme" v="consider place=hamlet" />
		<tag k="name" v="Skorgenes" />
		<tag k="place" v="farm" />
		<tag k="ssr:stedsnr" v="363219" />
	</node>
	<node lat="62.57413864015015" lon="7.359952669183678" id="-8903">
		<tag k="historic" v="shieling" />
		<tag k="name" v="Vestasetra" />
		<tag k="place" v="isolated_dwelling" />
		<tag k="ssr:stedsnr" v="375488" />
	</node>
	<node lat="62.61141111530282" lon="7.095213886477364" id="-8906">
		<tag k="name" v="Remmem" />
		<tag k="place" v="farm" />
		<tag k="ssr:stedsnr" v="375928" />
	</node>
	<node lat="62.53591944622606" lon="7.1303888852600545" id="-8908">
		<tag k="alt_name" v="Eidhammar, yt" />
		<tag k="fixme" v="consider place=hamlet" />
		<tag k="name" v="Ytre Eidhammar" />
		<tag k="place" v="farm" />
		<tag k="ssr:stedsnr" v="375804" />
	</node>
	<node lat="62.53692222069226" lon="6.964411106438435" id="-8909">
		<tag k="fixme" v="multiple name tags, choose one and add the other to alt_name" />
		<tag k="historic" v="shieling" />
		<tag k="name" v="Auspholsætra;Auspholen" />
		<tag k="place" v="isolated_dwelling" />
		<tag k="ssr:stedsnr" v="375826" />
	</node>
	<node lat="62.57036944456265" lon="7.155452780054923" id="-8914">
		<tag k="fixme" v="consider place=hamlet" />
		<tag k="name" v="Villa" />
		<tag k="place" v="farm" />
		<tag k="ssr:stedsnr" v="484232" />
	</node>
	<node lat="62.55974721818175" lon="7.12740277810119" id="-8929">
		<tag k="name" v="Steinbakken" />
		<tag k="place" v="farm" />
		<tag k="ssr:stedsnr" v="398511" />
	</node>
	<node lat="62.565166662828915" lon="7.156688881082493" id="-8937">
		<tag k="name" v="Saltbuvollen" />
		<tag k="place" v="locality" />
		<tag k="ssr:stedsnr" v="398733" />
	</node>
	<node lat="62.58543888481109" lon="7.14771111043641" id="-8938">
		<tag k="name" v="Gjerdet" />
		<tag k="place" v="farm" />
		<tag k="ssr:stedsnr" v="398478" />
	</node>
	<node lat="62.6125166664075" lon="7.089902769884981" id="-8939">
		<tag k="name" v="Geilen" />
		<tag k="place" v="farm" />
		<tag k="ssr:stedsnr" v="398480" />
	</node>
	<node lat="62.53808333754529" lon="7.261658338593885" id="-8944">
		<tag k="name" v="Reitahytta" />
		<tag k="place" v="isolated_dwelling" />
		<tag k="ssr:stedsnr" v="398695" />
	</node>
	<node lat="62.610069441184194" lon="7.086713888783598" id="-8945">
		<tag k="name" v="Ulvestauå" />
		<tag k="place" v="locality" />
		<tag k="ssr:stedsnr" v="398808" />
	</node>
	<node lat="62.61874444297142" lon="7.095863886672608" id="-8947">
		<tag k="name" v="Prestegardsjordet" />
		<tag k="place" v="quarter" />
		<tag k="ssr:stedsnr" v="398812" />
	</node>
	<node lat="62.56711111106814" lon="7.055411119297628" id="-8950">
		<tag k="name" v="Monslevollen" />
		<tag k="place" v="locality" />
		<tag k="ssr:stedsnr" v="398779" />
	</node>
	<node lat="62.63703333452687" lon="6.948844440843444" id="-8966">
		<tag k="name" v="Bakkebø" />
		<tag k="place" v="farm" />
		<tag k="ssr:stedsnr" v="436002" />
	</node>
	<node lat="62.623611111820686" lon="6.976738882924766" id="-8972">
		<tag k="name" v="Arnestad" />
		<tag k="place" v="farm" />
		<tag k="ssr:stedsnr" v="437949" />
	</node>
	<node lat="62.608283333537685" lon="7.136011107416773" id="-8985">
		<tag k="name" v="Olahaugen" />
		<tag k="place" v="farm" />
		<tag k="ssr:stedsnr" v="459463" />
	</node>
	<node lat="62.56989166985643" lon="7.160963879415503" id="-8986">
		<tag k="name" v="Villabøen" />
		<tag k="place" v="farm" />
		<tag k="ssr:stedsnr" v="459467" />
	</node>
	<node lat="62.62005277908175" lon="7.150105561007851" id="-8988">
		<tag k="name" v="Madamplassen" />
		<tag k="place" v="farm" />
		<tag k="ssr:stedsnr" v="459476" />
	</node>
	<node lat="62.65148333220403" lon="6.944888894228721" id="-8991">
		<tag k="name" v="Søgard" />
		<tag k="place" v="locality" />
		<tag k="ssr:stedsnr" v="459622" />
	</node>
	<node lat="62.61623333599666" lon="7.1486305611439915" id="-8999">
		<tag k="name" v="Steinan" />
		<tag k="place" v="farm" />
		<tag k="ssr:stedsnr" v="459570" />
	</node>
	<node lat="62.65274999756837" lon="6.966944451270263" id="-9022">
		<tag k="alt_name" v="Sanden" />
		<tag k="name" v="Sandan" />
		<tag k="place" v="farm" />
		<tag k="ssr:stedsnr" v="679057" />
	</node>
	<node lat="62.600327782202065" lon="7.257549994513207" id="-9027">
		<tag k="name" v="Gjerdet" />
		<tag k="place" v="farm" />
		<tag k="ssr:stedsnr" v="679542" />
	</node>
	<node lat="62.60454166554989" lon="7.323352774918994" id="-9028">
		<tag k="name" v="Straume" />
		<tag k="place" v="farm" />
		<tag k="ssr:stedsnr" v="679547" />
	</node>
	<node lat="62.62515555368187" lon="6.975327776419112" id="-9040">
		<tag k="name" v="Lidarende" />
		<tag k="place" v="farm" />
		<tag k="ssr:stedsnr" v="679943" />
	</node>
	<node lat="62.478536107771255" lon="7.143816659327926" id="-9043">
		<tag k="fixme" v="multiple name tags, choose one and add the other to alt_name" />
		<tag k="historic" v="shieling" />
		<tag k="name" v="Bortigardssetra;Rjupdalssetra" />
		<tag k="place" v="isolated_dwelling" />
		<tag k="ssr:stedsnr" v="496353" />
	</node>
	<node lat="62.55158055186026" lon="6.865486114691602" id="-9044">
		<tag k="name" v="Jostølen" />
		<tag k="place" v="isolated_dwelling" />
		<tag k="ssr:stedsnr" v="496901" />
	</node>
	<node lat="62.62666111386018" lon="6.842850008015709" id="-9045">
		<tag k="name" v="Haggarden" />
		<tag k="place" v="farm" />
		<tag k="ssr:stedsnr" v="497005" />
	</node>
	<node lat="62.63754166674629" lon="7.036455564166891" id="-9047">
		<tag k="historic" v="shieling" />
		<tag k="name" v="Åssetra" />
		<tag k="place" v="isolated_dwelling" />
		<tag k="ssr:stedsnr" v="497008" />
	</node>
	<node lat="62.59761111203955" lon="7.061091666148119" id="-9055">
		<tag k="alt_name" v="Salthammarssetra" />
		<tag k="historic" v="shieling" />
		<tag k="name" v="Salthammarsetra" />
		<tag k="place" v="isolated_dwelling" />
		<tag k="ssr:stedsnr" v="497998" />
	</node>
	<node lat="62.59762499922633" lon="7.056433325424586" id="-9056">
		<tag k="historic" v="shieling" />
		<tag k="name" v="Hellandssetra" />
		<tag k="place" v="isolated_dwelling" />
		<tag k="ssr:stedsnr" v="498000" />
	</node>
	<node lat="62.6190416712383" lon="7.14888333720993" id="-9088">
		<tag k="amenity" v="school" />
		<tag k="name" v="Vike skule" />
		<tag k="ssr:stedsnr" v="520863" />
	</node>
	<node lat="62.575336158727495" lon="6.9057176135217295" id="-9093">
		<tag k="name" v="Frostad" />
		<tag k="place" v="hamlet" />
		<tag k="ssr:stedsnr" v="545119" />
	</node>
	<node lat="62.643180553506056" lon="6.916244446652168" id="-9099">
		<tag k="name" v="Lyngheim" />
		<tag k="place" v="farm" />
		<tag k="ssr:stedsnr" v="557008" />
	</node>
	<node lat="62.63256111261894" lon="6.926119441229607" id="-9101">
		<tag k="name" v="Bakkelund" />
		<tag k="place" v="farm" />
		<tag k="ssr:stedsnr" v="557021" />
	</node>
	<node lat="62.63037222443601" lon="7.062211112529313" id="-9102">
		<tag k="name" v="Leirvika" />
		<tag k="place" v="farm" />
		<tag k="ssr:stedsnr" v="557023" />
	</node>
	<node lat="62.57203658772778" lon="7.092535031004263" id="-9115">
		<tag k="loc_name" v="Kjellbotnen" />
		<tag k="name" v="Kjelbotn" />
		<tag k="place" v="farm" />
		<tag k="ssr:stedsnr" v="692968" />
	</node>
	<node lat="62.56739166643478" lon="7.157202772480983" id="-9126">
		<tag k="amenity" v="school" />
		<tag k="name" v="Daugstad skule" />
		<tag k="ssr:stedsnr" v="580742" />
	</node>
	<node lat="62.62468610875106" lon="7.170174995610244" id="-9147">
		<tag k="fixme" v="consider place=hamlet" />
		<tag k="name" v="Gjermundnes" />
		<tag k="place" v="farm" />
		<tag k="ssr:stedsnr" v="605264" />
	</node>
	<node lat="62.54090555420698" lon="7.126030547720946" id="-9159">
		<tag k="alt_name" v="Løvik" />
		<tag k="fixme" v="consider place=hamlet" />
		<tag k="name" v="Løvika" />
		<tag k="place" v="farm" />
		<tag k="ssr:stedsnr" v="618805" />
	</node>
	<node lat="62.54150833229092" lon="6.940449999368718" id="-9160">
		<tag k="historic" v="shieling" />
		<tag k="name" v="Skitnesetra" />
		<tag k="place" v="isolated_dwelling" />
		<tag k="ssr:stedsnr" v="618819" />
	</node>
	<node lat="62.49087777508027" lon="7.15474999675729" id="-9168">
		<tag k="name" v="Bretningan" />
		<tag k="place" v="farm" />
		<tag k="ssr:stedsnr" v="702102" />
	</node>
	<node lat="62.60410833231127" lon="7.09725556338582" id="-9173">
		<tag k="name" v="Teigan" />
		<tag k="place" v="farm" />
		<tag k="ssr:stedsnr" v="702483" />
	</node>
	<node lat="62.5776722199468" lon="6.910777782830736" id="-9174">
		<tag k="name" v="Haugen" />
		<tag k="place" v="farm" />
		<tag k="ssr:stedsnr" v="702506" />
	</node>
	<node lat="62.56588055978951" lon="7.041155547873824" id="-9194">
		<tag k="barrier" v="fence" />
		<tag k="name" v="Hag-garden" />
		<tag k="ssr:stedsnr" v="702843" />
	</node>
	<node lat="62.601999997890815" lon="7.297555554065059" id="-9209">
		<tag k="name" v="Torsteingarden" />
		<tag k="place" v="farm" />
		<tag k="ssr:stedsnr" v="703774" />
	</node>
	<node lat="62.587836111418845" lon="7.14272778543625" id="-9214">
		<tag k="name" v="Hagen" />
		<tag k="place" v="farm" />
		<tag k="ssr:stedsnr" v="641475" />
	</node>
	<node lat="62.62790555434042" lon="7.086516662598894" id="-9215">
		<tag k="name" v="Hotellet" />
		<tag k="place" v="farm" />
		<tag k="ssr:stedsnr" v="641480" />
	</node>
	<node lat="62.650391668721284" lon="6.754072222332549" id="-9216">
		<tag k="name" v="Reset" />
		<tag k="place" v="farm" />
		<tag k="ssr:stedsnr" v="641489" />
	</node>
	<node lat="62.645416662741226" lon="6.915786118347059" id="-9217">
		<tag k="name" v="Nybø" />
		<tag k="place" v="farm" />
		<tag k="ssr:stedsnr" v="641495" />
	</node>
	<node lat="62.6041969130394" lon="7.327305664311051" id="-9237">
		<tag k="fixme" v="consider place=hamlet" />
		<tag k="name" v="Straume" />
		<tag k="place" v="farm" />
		<tag k="ssr:stedsnr" v="642625" />
	</node>
	<node lat="62.47200555664814" lon="7.0302527721256505" id="-9243">
		<tag k="name" v="Åsrøra" />
		<tag k="place" v="neighbourhood" />
		<tag k="ssr:stedsnr" v="666717" />
	</node>
	<node lat="62.63635278105414" lon="7.0774444376387455" id="-9246">
		<tag k="name" v="Vestnesbukta" />
		<tag k="place" v="farm" />
		<tag k="ssr:stedsnr" v="679024" />
	</node>
	<node lat="62.56987500431579" lon="7.154513894412763" id="-9252">
		<tag k="name" v="Jonsgarden" />
		<tag k="place" v="farm" />
		<tag k="ssr:stedsnr" v="694305" />
	</node>
	<node lat="62.57128055554288" lon="7.15604445378253" id="-9253">
		<tag k="name" v="Vollan" />
		<tag k="place" v="farm" />
		<tag k="ssr:stedsnr" v="694307" />
	</node>
	<node lat="62.52381389160055" lon="7.00109444649976" id="-9264">
		<tag k="historic" v="shieling" />
		<tag k="name" v="Helgestølen" />
		<tag k="place" v="isolated_dwelling" />
		<tag k="ssr:stedsnr" v="702081" />
	</node>
	<node lat="62.61734999697892" lon="7.206086105649511" id="-9269">
		<tag k="name" v="Pålgjerdet" />
		<tag k="place" v="farm" />
		<tag k="ssr:stedsnr" v="702474" />
	</node>
	<node lat="62.62785833154701" lon="7.040702781650029" id="-9270">
		<tag k="name" v="Åsheim" />
		<tag k="place" v="farm" />
		<tag k="ssr:stedsnr" v="702512" />
	</node>
	<node lat="62.51811944045934" lon="7.070647218272861" id="-9277">
		<tag k="name" v="Nysetra" />
		<tag k="place" v="locality" />
		<tag k="ssr:stedsnr" v="702668" />
	</node>
	<node lat="62.62776110827649" lon="7.080958327151646" id="-9282">
		<tag k="name" v="Vestnesgarden" />
		<tag k="place" v="farm" />
		<tag k="ssr:stedsnr" v="702860" />
	</node>
	<node lat="62.57621666419451" lon="6.920975007123632" id="-9288">
		<tag k="fixme" v="consider place=hamlet" />
		<tag k="name" v="Litle Tomra" />
		<tag k="place" v="farm" />
		<tag k="ssr:stedsnr" v="702924" />
	</node>
	<node lat="62.55288055888201" lon="7.218602784706873" id="-9305">
		<tag k="historic" v="shieling" />
		<tag k="name" v="Sessetra" />
		<tag k="place" v="isolated_dwelling" />
		<tag k="ssr:stedsnr" v="740548" />
	</node>
	<node lat="62.58505277637035" lon="7.294544439399109" id="-9306">
		<tag k="historic" v="shieling" />
		<tag k="name" v="Reistadsetra" />
		<tag k="place" v="isolated_dwelling" />
		<tag k="ssr:stedsnr" v="740597" />
	</node>
	<node lat="62.59304444784742" lon="7.13968888109486" id="-9310">
		<tag k="name" v="Helset" />
		<tag k="place" v="hamlet" />
		<tag k="ssr:stedsnr" v="740894" />
	</node>
	<node lat="62.638177777676944" lon="6.91426389352896" id="-9323">
		<tag k="name" v="Indregarden" />
		<tag k="place" v="farm" />
		<tag k="ssr:stedsnr" v="762944" />
	</node>
	<node lat="62.61056666528293" lon="7.089202786665554" id="-9329">
		<tag k="name" v="Knutplassen" />
		<tag k="place" v="locality" />
		<tag k="ssr:stedsnr" v="763812" />
	</node>
	<node lat="62.59792348350638" lon="6.931433950011909" id="-9330">
		<tag k="alt_name" v="Lid" />
		<tag k="name" v="Trondgarden" />
		<tag k="place" v="farm" />
		<tag k="ssr:stedsnr" v="763840" />
	</node>
	<node lat="62.63008333145677" lon="7.08903889519292" id="-9332">
		<tag k="name" v="Vestneshagen" />
		<tag k="place" v="farm" />
		<tag k="ssr:stedsnr" v="763858" />
	</node>
	<node lat="62.544994448581555" lon="7.153347214771588" id="-9340">
		<tag k="name" v="Hoem" />
		<tag k="place" v="hamlet" />
		<tag k="ssr:stedsnr" v="800808" />
	</node>
	<node lat="62.61030000359541" lon="7.2423083334447735" id="-9341">
		<tag k="name" v="Nordigarden" />
		<tag k="place" v="farm" />
		<tag k="ssr:stedsnr" v="800575" />
	</node>
	<node lat="62.63277500242062" lon="7.034444438742925" id="-9345">
		<tag k="fixme" v="consider place=hamlet" />
		<tag k="name" v="Åsbygda" />
		<tag k="place" v="village" />
		<tag k="ssr:stedsnr" v="801026" />
	</node>
	<node lat="62.632466664002074" lon="7.027102768917092" id="-9347">
		<tag k="fixme" v="consider place=hamlet" />
		<tag k="name" v="Sørås" />
		<tag k="place" v="farm" />
		<tag k="ssr:stedsnr" v="801029" />
	</node>
	<node lat="62.52491944672521" lon="7.125791664186062" id="-9351">
		<tag k="alt_name" v="Tresfjord" />
		<tag k="fixme" v="consider place=hamlet" />
		<tag k="name" v="Tresfjorden" />
		<tag k="place" v="village" />
		<tag k="ssr:stedsnr" v="801788" />
	</node>
	<node lat="62.50436944746259" lon="7.107272228928264" id="-9352">
		<tag k="name" v="Nordsletta" />
		<tag k="place" v="farm" />
		<tag k="ssr:stedsnr" v="801820" />
	</node>
	<node lat="62.609899999882956" lon="6.940800005564168" id="-9357">
		<tag k="fixme" v="consider place=suburb, village or hamlet" />
		<tag k="name" v="Vik" />
		<tag k="place" v="quarter" />
		<tag k="ssr:stedsnr" v="815331" />
	</node>
	<node lat="62.578058329581154" lon="7.173777770626312" id="-9364">
		<tag k="name" v="Solgjerde" />
		<tag k="place" v="isolated_dwelling" />
		<tag k="ssr:stedsnr" v="823478" />
	</node>
	<node lat="62.481833333968616" lon="7.035288884804135" id="-9369">
		<tag k="historic" v="shieling" />
		<tag k="name" v="Mjogskarsetra" />
		<tag k="place" v="isolated_dwelling" />
		<tag k="ssr:stedsnr" v="921340" />
	</node>
	<node lat="62.483422222396484" lon="7.039122213132089" id="-9370">
		<tag k="historic" v="shieling" />
		<tag k="name" v="Perssetra" />
		<tag k="place" v="isolated_dwelling" />
		<tag k="ssr:stedsnr" v="921342" />
	</node>
	<node lat="62.581144441856175" lon="6.911430549623437" id="-9371">
		<tag k="name" v="Bakken" />
		<tag k="place" v="farm" />
		<tag k="ssr:stedsnr" v="823505" />
	</node>
	<node lat="62.618363889032764" lon="6.856350003135557" id="-9372">
		<tag k="name" v="Tømmervik" />
		<tag k="place" v="farm" />
		<tag k="ssr:stedsnr" v="823510" />
	</node>
	<node lat="62.65339166949933" lon="7.03636666343894" id="-9398">
		<tag k="fixme" v="consider place=hamlet" />
		<tag k="name" v="Faksen" />
		<tag k="place" v="farm" />
		<tag k="ssr:stedsnr" v="922017" />
	</node>
	<node lat="62.634847221852546" lon="7.03410277378304" id="-9400">
		<tag k="name" v="Åsbøen" />
		<tag k="place" v="farm" />
		<tag k="ssr:stedsnr" v="922034" />
	</node>
	<node lat="62.52106111288663" lon="7.135516660751471" id="-9407">
		<tag k="fixme" v="consider place=hamlet" />
		<tag k="name" v="Kyrkjesylte" />
		<tag k="place" v="farm" />
		<tag k="ssr:stedsnr" v="922849" />
	</node>
	<node lat="62.557161113728874" lon="6.971372228105099" id="-9412">
		<tag k="historic" v="shieling" />
		<tag k="name" v="Bakkesetra" />
		<tag k="place" v="isolated_dwelling" />
		<tag k="ssr:stedsnr" v="922919" />
	</node>
	<node lat="62.58529166955835" lon="7.101775001759776" id="-9415">
		<tag k="alt_name" v="Brastad" />
		<tag k="name" v="Børgeplassen" />
		<tag k="old_name" v="Brastad, indre;Indre Brastad" />
		<tag k="place" v="farm" />
		<tag k="ssr:stedsnr" v="922988" />
	</node>
	<node lat="62.59366388829212" lon="7.102663888950458" id="-9418">
		<tag k="alt_name" v="Steinøygarden, indre" />
		<tag k="name" v="Indre Steinøygarden" />
		<tag k="place" v="farm" />
		<tag k="ssr:stedsnr" v="922971" />
	</node>
	<node lat="62.62023610845168" lon="7.090419452181147" id="-9419">
		<tag k="name" v="Helland" />
		<tag k="place" v="hamlet" />
		<tag k="ssr:stedsnr" v="849129" />
	</node>
	<node lat="62.63502499713414" lon="6.961955548060856" id="-9424">
		<tag k="name" v="Løken" />
		<tag k="place" v="farm" />
		<tag k="ssr:stedsnr" v="861026" />
	</node>
	<node lat="62.548197225900914" lon="6.881033333510264" id="-9430">
		<tag k="alt_name" v="Bygdesetra" />
		<tag k="historic" v="shieling" />
		<tag k="name" v="Bygdasetra" />
		<tag k="place" v="isolated_dwelling" />
		<tag k="ssr:stedsnr" v="861915" />
	</node>
	<node lat="62.57643888760365" lon="7.151919445156895" id="-9450">
		<tag k="name" v="Buch-garden" />
		<tag k="place" v="farm" />
		<tag k="ssr:stedsnr" v="884462" />
	</node>
	<node lat="62.56840277354042" lon="7.115719452476835" id="-9451">
		<tag k="name" v="Børøra" />
		<tag k="place" v="farm" />
		<tag k="ssr:stedsnr" v="884465" />
	</node>
	<node lat="62.58051666456839" lon="7.194522217739955" id="-9465">
		<tag k="historic" v="shieling" />
		<tag k="name" v="Brattmyrsetra" />
		<tag k="place" v="isolated_dwelling" />
		<tag k="ssr:stedsnr" v="884697" />
	</node>
	<node lat="62.6475722220541" lon="7.084386117779528" id="-9474">
		<tag k="name" v="Furneset" />
		<tag k="place" v="farm" />
		<tag k="ssr:stedsnr" v="922013" />
	</node>
	<node lat="62.54342221985379" lon="7.087836114533346" id="-9479">
		<tag k="historic" v="shieling" />
		<tag k="name" v="Løviksetra" />
		<tag k="place" v="isolated_dwelling" />
		<tag k="ssr:stedsnr" v="922824" />
	</node>
	<node lat="62.58411545017647" lon="6.932631439397673" id="-9482">
		<tag k="name" v="Tomrefjord" />
		<tag k="old_name" v="Tomra" />
		<tag k="place" v="village" />
		<tag k="ssr:stedsnr" v="922887" />
	</node>
	<node lat="62.602772220601494" lon="7.292211104594019" id="-9484">
		<tag k="name" v="Reistad" />
		<tag k="place" v="hamlet" />
		<tag k="ssr:stedsnr" v="935843" />
	</node>
	<node lat="62.4682944486995" lon="7.182047228014478" id="-9500">
		<tag k="name" v="Bernstølen" />
		<tag k="place" v="locality" />
		<tag k="ssr:stedsnr" v="945737" />
	</node>
	<node lat="62.57973055587291" lon="7.186675000312527" id="-9503">
		<tag k="name" v="Gamlesetra" />
		<tag k="place" v="locality" />
		<tag k="ssr:stedsnr" v="945695" />
	</node>
	<node lat="62.65207222483789" lon="6.7649583250178935" id="-9529">
		<tag k="name" v="Storheim" />
		<tag k="place" v="farm" />
		<tag k="ssr:stedsnr" v="11042" />
	</node>
	<node lat="62.64826667003482" lon="6.746508340003138" id="-9531">
		<tag k="fixme" v="consider place=hamlet" />
		<tag k="name" v="Rekdal" />
		<tag k="place" v="farm" />
		<tag k="ssr:stedsnr" v="11056" />
	</node>
	<node lat="62.53686388504741" lon="7.199186114258564" id="-9535">
		<tag k="historic" v="shieling" />
		<tag k="name" v="Hoemssetra" />
		<tag k="place" v="isolated_dwelling" />
		<tag k="ssr:stedsnr" v="11841" />
	</node>
	<node lat="62.54943055405665" lon="7.152119453260146" id="-9536">
		<tag k="fixme" v="consider place=hamlet" />
		<tag k="name" v="Jemtegard" />
		<tag k="place" v="farm" />
		<tag k="ssr:stedsnr" v="11846" />
	</node>
	<node lat="62.613163886467206" lon="6.86845000458287" id="-9537">
		<tag k="alt_name" v="Fiksdal" />
		<tag k="fixme" v="consider place=hamlet" />
		<tag k="name" v="Fiksdalen" />
		<tag k="place" v="farm" />
		<tag k="ssr:stedsnr" v="11969" />
	</node>
	<node lat="62.56113889200722" lon="7.1244472240330685" id="-9538">
		<tag k="fixme" v="consider place=hamlet" />
		<tag k="name" v="Bjermeland" />
		<tag k="place" v="farm" />
		<tag k="ssr:stedsnr" v="11929" />
	</node>
	<node lat="62.61781944056089" lon="6.995947215823994" id="-9540">
		<tag k="name" v="Flatset" />
		<tag k="place" v="farm" />
		<tag k="ssr:stedsnr" v="11941" />
	</node>
	<node lat="62.617797220417884" lon="6.959666659378236" id="-9541">
		<tag k="name" v="Bruheim" />
		<tag k="place" v="farm" />
		<tag k="ssr:stedsnr" v="11944" />
	</node>
	<node lat="62.616461111697745" lon="7.209158325572937" id="-9542">
		<tag k="name" v="Haggarden" />
		<tag k="place" v="farm" />
		<tag k="ssr:stedsnr" v="11946" />
	</node>
	<node lat="62.597330552542566" lon="7.246269451330381" id="-9547">
		<tag k="name" v="Åsen" />
		<tag k="place" v="farm" />
		<tag k="ssr:stedsnr" v="12589" />
	</node>
	<node lat="62.62298611453125" lon="7.002013898375437" id="-9550">
		<tag k="name" v="Furland" />
		<tag k="place" v="farm" />
		<tag k="ssr:stedsnr" v="12961" />
	</node>
	<node lat="62.61057500304554" lon="6.843297223174766" id="-9554">
		<tag k="name" v="Hjellen" />
		<tag k="place" v="farm" />
		<tag k="ssr:stedsnr" v="26290" />
	</node>
	<node lat="62.525838889984286" lon="7.1218305511377915" id="-9563">
		<tag k="name" v="Langegjerdet" />
		<tag k="place" v="farm" />
		<tag k="ssr:stedsnr" v="34072" />
	</node>
	<node lat="62.6142333374989" lon="7.151547221647827" id="-9576">
		<tag k="name" v="Åsledbakken" />
		<tag k="place" v="farm" />
		<tag k="ssr:stedsnr" v="34467" />
	</node>
	<node lat="62.58617499903519" lon="6.914711116891997" id="-9577">
		<tag k="name" v="Nerhagen" />
		<tag k="place" v="farm" />
		<tag k="ssr:stedsnr" v="34475" />
	</node>
	<node lat="62.63373610664236" lon="7.062205552769432" id="-9578">
		<tag k="name" v="Fagerheim" />
		<tag k="place" v="farm" />
		<tag k="ssr:stedsnr" v="34479" />
	</node>
	<node lat="62.52354722090915" lon="7.007719445727134" id="-9591">
		<tag k="historic" v="shieling" />
		<tag k="name" v="Bøstølen" />
		<tag k="place" v="isolated_dwelling" />
		<tag k="ssr:stedsnr" v="34687" />
	</node>
	<node lat="62.54540000407272" lon="7.1503361171591" id="-9608">
		<tag k="name" v="Hoemsbakken" />
		<tag k="place" v="farm" />
		<tag k="ssr:stedsnr" v="34979" />
	</node>
	<node lat="62.61918332991304" lon="6.853513898416574" id="-9621">
		<tag k="alt_name" v="Fiksdal" />
		<tag k="fixme" v="consider place=hamlet" />
		<tag k="name" v="Fiksdalen" />
		<tag k="place" v="village" />
		<tag k="ssr:stedsnr" v="72023" />
	</node>
	<node lat="62.63348889069952" lon="6.965005561828697" id="-9622">
		<tag k="name" v="Oddheim" />
		<tag k="place" v="farm" />
		<tag k="ssr:stedsnr" v="72025" />
	</node>
	<node lat="62.6280861091932" lon="6.957713887857565" id="-9623">
		<tag k="name" v="Skogheim" />
		<tag k="place" v="farm" />
		<tag k="ssr:stedsnr" v="72028" />
	</node>
	<node lat="62.648311113257" lon="6.93471667512042" id="-9624">
		<tag k="name" v="Naustbakken" />
		<tag k="place" v="farm" />
		<tag k="ssr:stedsnr" v="72051" />
	</node>
	<node lat="62.650450000880994" lon="6.939155547669433" id="-9625">
		<tag k="alt_name" v="Øverås-sjøen" />
		<tag k="name" v="Øveråssjøen" />
		<tag k="place" v="farm" />
		<tag k="ssr:stedsnr" v="72053" />
	</node>
	<node lat="62.59121944606408" lon="6.839927783941161" id="-9628">
		<tag k="historic" v="shieling" />
		<tag k="name" v="Fiksdalssetra" />
		<tag k="place" v="isolated_dwelling" />
		<tag k="ssr:stedsnr" v="72992" />
	</node>
	<node lat="62.619097220166125" lon="6.983597213564328" id="-9631">
		<tag k="name" v="Sævareid" />
		<tag k="place" v="farm" />
		<tag k="ssr:stedsnr" v="72929" />
	</node>
	<node lat="62.61543055542601" lon="7.032194445344003" id="-9653">
		<tag k="name" v="Støa" />
		<tag k="place" v="isolated_dwelling" />
		<tag k="ssr:stedsnr" v="95469" />
	</node>
	<node lat="62.53836110767242" lon="7.2640583327731205" id="-9657">
		<tag k="name" v="Daugstadhytta" />
		<tag k="place" v="isolated_dwelling" />
		<tag k="ssr:stedsnr" v="95678" />
	</node>
	<node lat="62.48428055613561" lon="7.170236102386148" id="-9658">
		<tag k="name" v="Nilsgarden" />
		<tag k="place" v="farm" />
		<tag k="ssr:stedsnr" v="95440" />
	</node>
	<node lat="62.59956944148474" lon="7.060458325276098" id="-9659">
		<tag k="historic" v="shieling" />
		<tag k="name" v="Steinbua" />
		<tag k="place" v="isolated_dwelling" />
		<tag k="ssr:stedsnr" v="95450" />
	</node>
	<node lat="62.627036113295446" lon="7.051761104595112" id="-9680">
		<tag k="fixme" v="consider place=hamlet" />
		<tag k="name" v="Skavneset" />
		<tag k="place" v="farm" />
		<tag k="ssr:stedsnr" v="95859" />
	</node>
	<node lat="62.64436944894623" lon="6.719330563780076" id="-9702">
		<tag k="name" v="Myrane" />
		<tag k="place" v="farm" />
		<tag k="ssr:stedsnr" v="111755" />
	</node>
	<node lat="62.62044166375633" lon="6.852330548305753" id="-9703">
		<tag k="name" v="Nakkesjøen" />
		<tag k="place" v="quarter" />
		<tag k="ssr:stedsnr" v="111759" />
	</node>
	<node lat="62.535397225688506" lon="7.124316664500373" id="-9707">
		<tag k="name" v="Eidhammar" />
		<tag k="place" v="hamlet" />
		<tag k="ssr:stedsnr" v="120240" />
	</node>
	<node lat="62.64470278084395" lon="6.722697218399649" id="-9712">
		<tag k="name" v="Birkeland" />
		<tag k="place" v="farm" />
		<tag k="ssr:stedsnr" v="132054" />
	</node>
	<node lat="62.54271944006239" lon="7.150436110892047" id="-9715">
		<tag k="alt_name" v="Fagervik" />
		<tag k="fixme" v="consider place=hamlet" />
		<tag k="name" v="Fagervikan" />
		<tag k="place" v="farm" />
		<tag k="ssr:stedsnr" v="132829" />
	</node>
	<node lat="62.61332222179524" lon="6.974791674294791" id="-9717">
		<tag k="fixme" v="consider place=hamlet" />
		<tag k="name" v="Ura" />
		<tag k="place" v="farm" />
		<tag k="ssr:stedsnr" v="132936" />
	</node>
	<node lat="62.62133333727668" lon="7.092533327927839" id="-9718">
		<tag k="fixme" v="consider place=suburb, village or hamlet" />
		<tag k="name" v="Helland" />
		<tag k="place" v="quarter" />
		<tag k="ssr:stedsnr" v="132939" />
	</node>
	<node lat="62.59576110808818" lon="6.7501972198767035" id="-9722">
		<tag k="name" v="Svarthammaren" />
		<tag k="place" v="isolated_dwelling" />
		<tag k="ssr:stedsnr" v="132993" />
	</node>
	<node lat="62.59455278111002" lon="6.9347888913687505" id="-9723">
		<tag k="fixme" v="consider place=hamlet" />
		<tag k="name" v="Gjerde" />
		<tag k="place" v="farm" />
		<tag k="ssr:stedsnr" v="132995" />
	</node>
	<node lat="62.65032222546204" lon="6.748947222261576" id="-9740">
		<tag k="alt_name" v="Gjerda" />
		<tag k="name" v="Gjerdet" />
		<tag k="place" v="farm" />
		<tag k="ssr:stedsnr" v="156518" />
	</node>
	<node lat="62.53356111025295" lon="7.125886108065908" id="-9741">
		<tag k="name" v="Teigen" />
		<tag k="place" v="farm" />
		<tag k="ssr:stedsnr" v="156527" />
	</node>
	<node lat="62.56097500017033" lon="6.893466661233782" id="-9742">
		<tag k="historic" v="shieling" />
		<tag k="name" v="Plassestølen" />
		<tag k="place" v="isolated_dwelling" />
		<tag k="ssr:stedsnr" v="156532" />
	</node>
	<node lat="62.49470555342599" lon="7.148777776659379" id="-9743">
		<tag k="name" v="Døfta" />
		<tag k="place" v="farm" />
		<tag k="ssr:stedsnr" v="156533" />
	</node>
	<node lat="62.55329444133007" lon="6.972686104259797" id="-9744">
		<tag k="name" v="Kapteinbua" />
		<tag k="place" v="isolated_dwelling" />
		<tag k="ssr:stedsnr" v="156535" />
	</node>
	<node lat="62.49906666764727" lon="7.127822231000924" id="-9745">
		<tag k="name" v="Haugen" />
		<tag k="place" v="farm" />
		<tag k="ssr:stedsnr" v="156537" />
	</node>
	<node lat="62.57220953985144" lon="7.114505132066111" id="-9788">
		<tag k="alt_name" v="Skorgå" />
		<tag k="name" v="Skorga" />
		<tag k="place" v="farm" />
		<tag k="ssr:stedsnr" v="181983" />
	</node>
	<node lat="62.65035555510765" lon="6.758627769985239" id="-9790">
		<tag k="fixme" v="consider place=hamlet" />
		<tag k="name" v="Rekdal" />
		<tag k="place" v="village" />
		<tag k="ssr:stedsnr" v="193062" />
	</node>
	<node lat="62.49856388915088" lon="7.1377166573292525" id="-9791">
		<tag k="fixme" v="consider place=hamlet" />
		<tag k="name" v="Skeidsvoll" />
		<tag k="place" v="farm" />
		<tag k="ssr:stedsnr" v="193301" />
	</node>
	<node lat="62.58911944727976" lon="6.935077785329102" id="-9802">
		<tag k="alt_name" v="Løvoll" />
		<tag k="fixme" v="consider place=hamlet" />
		<tag k="name" v="Løvollen" />
		<tag k="place" v="farm" />
		<tag k="ssr:stedsnr" v="193974" />
	</node>
	<node lat="62.617938891313315" lon="6.841497216906583" id="-9807">
		<tag k="alt_name" v="Nakken, nedre" />
		<tag k="fixme" v="multiple name tags, choose one and add the other to alt_name; consider place=hamlet" />
		<tag k="name" v="Nakken;Nedre Nakken" />
		<tag k="place" v="farm" />
		<tag k="ssr:stedsnr" v="194018" />
	</node>
	<node lat="62.63439167105621" lon="7.0713666676343685" id="-9808">
		<tag k="name" v="Øygarden" />
		<tag k="place" v="farm" />
		<tag k="ssr:stedsnr" v="194024" />
	</node>
	<node lat="62.59397793710836" lon="7.3400583346339525" id="-9813">
		<tag k="fixme" v="consider place=hamlet" />
		<tag k="name" v="Kjølset" />
		<tag k="place" v="farm" />
		<tag k="ssr:stedsnr" v="194549" />
	</node>
	<node lat="62.589313825980575" lon="7.326571089185844" id="-9814">
		<tag k="historic" v="shieling" />
		<tag k="name" v="Bjørkesetra" />
		<tag k="place" v="isolated_dwelling" />
		<tag k="ssr:stedsnr" v="194558" />
	</node>
	<node lat="62.57174069874536" lon="7.1179378793395465" id="-9817">
		<tag k="alt_name" v="Skorgå;Skorgen" />
		<tag k="fixme" v="consider place=hamlet" />
		<tag k="name" v="Skorga" />
		<tag k="place" v="farm" />
		<tag k="ssr:stedsnr" v="194872" />
	</node>
	<node lat="62.56579999609344" lon="7.083102783419493" id="-9820">
		<tag k="historic" v="shieling" />
		<tag k="name" v="Bøsetra" />
		<tag k="place" v="isolated_dwelling" />
		<tag k="ssr:stedsnr" v="194923" />
	</node>
	<node lat="62.546288884864744" lon="7.1500805622405466" id="-9840">
		<tag k="fixme" v="consider place=hamlet" />
		<tag k="name" v="Ytre Hoem" />
		<tag k="place" v="farm" />
		<tag k="ssr:stedsnr" v="217537" />
	</node>
	<node lat="62.505133329572594" lon="7.142330547604022" id="-9841">
		<tag k="name" v="Rypdalshagen" />
		<tag k="place" v="farm" />
		<tag k="ssr:stedsnr" v="217544" />
	</node>
	<node lat="62.61549722647574" lon="7.084019443939888" id="-9849">
		<tag k="name" v="Kollen" />
		<tag k="place" v="quarter" />
		<tag k="ssr:stedsnr" v="217596" />
	</node>
	<node lat="62.48467221913132" lon="7.046244444204768" id="-9891">
		<tag k="name" v="Høgstølane" />
		<tag k="place" v="locality" />
		<tag k="ssr:stedsnr" v="277100" />
	</node>
	<node lat="62.61549722647574" lon="7.084019443939888" id="-9892">
		<tag k="name" v="Kråkvika" />
		<tag k="place" v="quarter" />
		<tag k="ssr:stedsnr" v="277585" />
	</node>
	<node lat="62.60671944001318" lon="7.135027770497184" id="-9897">
		<tag k="name" v="Snekkarhaugen" />
		<tag k="place" v="farm" />
		<tag k="ssr:stedsnr" v="277477" />
	</node>
	<node lat="62.577588886265445" lon="7.152838887883849" id="-9898">
		<tag k="name" v="Villa" />
		<tag k="place" v="farm" />
		<tag k="ssr:stedsnr" v="277480" />
	</node>
	<node lat="62.61772499583048" lon="6.838608331696952" id="-9933">
		<tag k="name" v="Nakken" />
		<tag k="place" v="hamlet" />
		<tag k="ssr:stedsnr" v="303123" />
	</node>
	<node lat="62.63152222013893" lon="7.046902773648096" id="-9934">
		<tag k="alt_name" v="Aas" />
		<tag k="fixme" v="consider place=hamlet" />
		<tag k="name" v="Ås" />
		<tag k="place" v="farm" />
		<tag k="ssr:stedsnr" v="303128" />
	</node>
	<node lat="62.60498055580261" lon="6.886808340314383" id="-9941">
		<tag k="name" v="Lia" />
		<tag k="place" v="farm" />
		<tag k="ssr:stedsnr" v="314924" />
	</node>
	<node lat="62.61328332897527" lon="6.942474991593515" id="-9943">
		<tag k="fixme" v="consider place=hamlet" />
		<tag k="name" v="Vik" />
		<tag k="place" v="farm" />
		<tag k="ssr:stedsnr" v="314951" />
	</node>
	<node lat="62.53611110731933" lon="7.091686118250591" id="-9944">
		<tag k="historic" v="shieling" />
		<tag k="name" v="Eidhammarssetra" />
		<tag k="place" v="isolated_dwelling" />
		<tag k="ssr:stedsnr" v="315819" />
	</node>
	<node lat="62.59524444780333" lon="7.138922214516844" id="-9965">
		<tag k="fixme" v="consider place=hamlet" />
		<tag k="name" v="Nedre Helset" />
		<tag k="place" v="farm" />
		<tag k="ssr:stedsnr" v="338448" />
	</node>
	<node lat="62.61109722162006" lon="7.090624992351796" id="-9966">
		<tag k="name" v="Ivaplassen" />
		<tag k="place" v="farm" />
		<tag k="ssr:stedsnr" v="338452" />
	</node>
	<node lat="62.611369444906614" lon="7.0956000036863385" id="-9967">
		<tag k="name" v="Ytre Remmem" />
		<tag k="place" v="farm" />
		<tag k="ssr:stedsnr" v="338462" />
	</node>
	<node lat="62.620638888966" lon="6.937686115580772" id="-9968">
		<tag k="alt_name" v="Kjeldneset" />
		<tag k="fixme" v="consider place=hamlet" />
		<tag k="name" v="Kjellneset" />
		<tag k="place" v="farm" />
		<tag k="ssr:stedsnr" v="338465" />
	</node>
	<node lat="62.643766665666256" lon="6.911513883317881" id="-9969">
		<tag k="name" v="Neset" />
		<tag k="place" v="farm" />
		<tag k="ssr:stedsnr" v="338480" />
	</node>
	<node lat="62.545033332597214" lon="7.147949990456906" id="-9999">
		<tag k="fixme" v="consider place=hamlet" />
		<tag k="name" v="Indre Hoem" />
		<tag k="place" v="farm" />
		<tag k="ssr:stedsnr" v="338969" />
	</node>
	<node lat="62.633516668279164" lon="6.922230562584466" id="-10015">
		<tag k="name" v="Indrebø" />
		<tag k="place" v="farm" />
		<tag k="ssr:stedsnr" v="375018" />
	</node>
	<node lat="62.63571111249387" lon="6.954769439689242" id="-10016">
		<tag k="name" v="Øvrebø" />
		<tag k="place" v="farm" />
		<tag k="ssr:stedsnr" v="375020" />
	</node>
	<node lat="62.653397222535375" lon="6.768605563238709" id="-10017">
		<tag k="alt_name" v="Sandan" />
		<tag k="name" v="Sanden" />
		<tag k="place" v="farm" />
		<tag k="ssr:stedsnr" v="375051" />
	</node>
	<node lat="62.60243707953511" lon="7.3388205380448985" id="-10020">
		<tag k="fixme" v="consider place=hamlet" />
		<tag k="name" v="Lund" />
		<tag k="place" v="farm" />
		<tag k="ssr:stedsnr" v="375554" />
	</node>
	<node lat="62.61026110808249" lon="7.222258328946347" id="-10021">
		<tag k="name" v="Saltbu" />
		<tag k="place" v="farm" />
		<tag k="ssr:stedsnr" v="375652" />
	</node>
	<node lat="62.51749166442226" lon="7.12489722802431" id="-10022">
		<tag k="name" v="Røsthaugen" />
		<tag k="place" v="farm" />
		<tag k="ssr:stedsnr" v="375845" />
	</node>
	<node lat="62.51473333747216" lon="7.160000006174752" id="-10023">
		<tag k="historic" v="shieling" />
		<tag k="name" v="Syltesetra" />
		<tag k="place" v="isolated_dwelling" />
		<tag k="ssr:stedsnr" v="375848" />
	</node>
	<node lat="62.5556555520976" lon="6.976941671893263" id="-10025">
		<tag k="alt_name" v="Fremstedal" />
		<tag k="fixme" v="consider place=hamlet" />
		<tag k="name" v="Fremstedalen" />
		<tag k="place" v="farm" />
		<tag k="ssr:stedsnr" v="375901" />
	</node>
	<node lat="62.59025833471168" lon="7.344413892666307" id="-10029">
		<tag k="alt_name" v="Våge, yt;Våge" />
		<tag k="name" v="Ytre Våge" />
		<tag k="place" v="farm" />
		<tag k="ssr:stedsnr" v="376605" />
	</node>
	<node lat="62.62738055330383" lon="6.986466664726486" id="-10033">
		<tag k="name" v="Lia" />
		<tag k="place" v="farm" />
		<tag k="ssr:stedsnr" v="376965" />
	</node>
	<node lat="62.627041670508596" lon="6.966188897882443" id="-10034">
		<tag k="alt_name" v="Sævelund" />
		<tag k="name" v="Sævlund" />
		<tag k="place" v="farm" />
		<tag k="ssr:stedsnr" v="376967" />
	</node>
	<node lat="62.52516944397963" lon="7.001333337379434" id="-10043">
		<tag k="historic" v="shieling" />
		<tag k="name" v="Nilsstølen" />
		<tag k="place" v="isolated_dwelling" />
		<tag k="ssr:stedsnr" v="398085" />
	</node>
	<node lat="62.47436110826033" lon="7.113122222269144" id="-10047">
		<tag k="name" v="Eirsdalssetra" />
		<tag k="place" v="locality" />
		<tag k="ssr:stedsnr" v="398118" />
	</node>
	<node lat="62.61762777418999" lon="6.862419450350323" id="-10057">
		<tag k="name" v="Nerstad" />
		<tag k="place" v="farm" />
		<tag k="ssr:stedsnr" v="398493" />
	</node>
	<node lat="62.50425000112445" lon="7.111322215685407" id="-10058">
		<tag k="name" v="Holan" />
		<tag k="place" v="farm" />
		<tag k="ssr:stedsnr" v="398515" />
	</node>
	<node lat="62.58322777658137" lon="7.357905561786138" id="-10090">
		<tag k="name" v="Høgreiten" />
		<tag k="place" v="farm" />
		<tag k="ssr:stedsnr" v="400601" />
	</node>
	<node lat="62.57141111130704" lon="7.377961112057426" id="-10092">
		<tag k="name" v="Gjerde" />
		<tag k="place" v="locality" />
		<tag k="ssr:stedsnr" v="400572" />
	</node>
	<node lat="62.57448889106757" lon="7.306652781032504" id="-10102">
		<tag k="historic" v="shieling" />
		<tag k="name" v="Fjellsetra" />
		<tag k="place" v="isolated_dwelling" />
		<tag k="ssr:stedsnr" v="436482" />
	</node>
	<node lat="62.58114444061357" lon="7.0867750036820585" id="-10110">
		<tag k="historic" v="shieling" />
		<tag k="name" v="Brastadsetra" />
		<tag k="place" v="isolated_dwelling" />
		<tag k="ssr:stedsnr" v="436898" />
	</node>
	<node lat="62.597102779916945" lon="7.174383328786668" id="-10111">
		<tag k="name" v="Stølan" />
		<tag k="place" v="isolated_dwelling" />
		<tag k="ssr:stedsnr" v="436967" />
	</node>
	<node lat="62.6022833305226" lon="7.004586114751561" id="-10128">
		<tag k="historic" v="shieling" />
		<tag k="name" v="Flatesetra" />
		<tag k="place" v="isolated_dwelling" />
		<tag k="ssr:stedsnr" v="496979" />
	</node>
	<node lat="62.61168564507668" lon="7.277353124698008" id="-10133">
		<tag k="fixme" v="consider place=hamlet" />
		<tag k="name" v="Kolstad" />
		<tag k="place" v="farm" />
		<tag k="ssr:stedsnr" v="497549" />
	</node>
	<node lat="62.52117221796747" lon="7.002680553258875" id="-10152">
		<tag k="historic" v="shieling" />
		<tag k="name" v="Gamlestølen" />
		<tag k="place" v="isolated_dwelling" />
		<tag k="ssr:stedsnr" v="520078" />
	</node>
	<node lat="62.617358337651126" lon="7.093366663086876" id="-10155">
		<tag k="name" v="Vestnes prestegard" />
		<tag k="place" v="farm" />
		<tag k="ssr:stedsnr" v="520506" />
	</node>
	<node lat="62.652041670367254" lon="6.755241674884247" id="-10156">
		<tag k="name" v="Myra" />
		<tag k="place" v="farm" />
		<tag k="ssr:stedsnr" v="520517" />
	</node>
	<node lat="62.54308055892899" lon="7.120291664958101" id="-10157">
		<tag k="name" v="Kriken" />
		<tag k="place" v="farm" />
		<tag k="ssr:stedsnr" v="520530" />
	</node>
	<node lat="62.50358610861448" lon="7.1292833372695315" id="-10158">
		<tag k="name" v="Bakkegarden" />
		<tag k="place" v="farm" />
		<tag k="ssr:stedsnr" v="520539" />
	</node>
	<node lat="62.597719443408685" lon="7.056683331030679" id="-10166">
		<tag k="historic" v="shieling" />
		<tag k="name" v="Myrabua" />
		<tag k="place" v="isolated_dwelling" />
		<tag k="ssr:stedsnr" v="520594" />
	</node>
	<node lat="62.53623333355436" lon="7.262219446414206" id="-10177">
		<tag k="name" v="Ivashytta" />
		<tag k="place" v="isolated_dwelling" />
		<tag k="ssr:stedsnr" v="520726" />
	</node>
	<node lat="62.60334999940986" lon="7.06494722332782" id="-10179">
		<tag k="name" v="Gammelsetra" />
		<tag k="place" v="locality" />
		<tag k="ssr:stedsnr" v="520854" />
	</node>
	<node lat="62.604267492595724" lon="7.29165968981001" id="-10187">
		<tag k="fixme" v="consider place=hamlet" />
		<tag k="name" v="Reistadbakken" />
		<tag k="place" v="farm" />
		<tag k="ssr:stedsnr" v="521766" />
	</node>
	<node lat="62.58628610689972" lon="7.102822219256572" id="-10190">
		<tag k="fixme" v="consider place=hamlet" />
		<tag k="name" v="Brastad" />
		<tag k="place" v="farm" />
		<tag k="ssr:stedsnr" v="545225" />
	</node>
	<node lat="62.64668333164889" lon="6.919374998482764" id="-10195">
		<tag k="name" v="Storvika" />
		<tag k="place" v="farm" />
		<tag k="ssr:stedsnr" v="557049" />
	</node>
	<node lat="62.58630555452833" lon="6.937408342523351" id="-10202">
		<tag k="fixme" v="consider place=hamlet" />
		<tag k="name" v="Langsteinen" />
		<tag k="place" v="farm" />
		<tag k="ssr:stedsnr" v="557976" />
	</node>
	<node lat="62.604561115137" lon="7.144716663970874" id="-10203">
		<tag k="name" v="Innlågen" />
		<tag k="place" v="farm" />
		<tag k="ssr:stedsnr" v="557986" />
	</node>
	<node lat="62.55954721962185" lon="6.900441675942887" id="-10211">
		<tag k="historic" v="shieling" />
		<tag k="name" v="Myrastølen" />
		<tag k="place" v="isolated_dwelling" />
		<tag k="ssr:stedsnr" v="580073" />
	</node>
	<node lat="62.56701388822306" lon="7.155708328358142" id="-10215">
		<tag k="name" v="Rabben" />
		<tag k="place" v="farm" />
		<tag k="ssr:stedsnr" v="580450" />
	</node>
	<node lat="62.62789167048741" lon="7.159850005761905" id="-10216">
		<tag k="name" v="Justgarden" />
		<tag k="place" v="farm" />
		<tag k="ssr:stedsnr" v="580469" />
	</node>
	<node lat="62.60810833518044" lon="7.140202773018919" id="-10217">
		<tag k="name" v="Vikehaugen" />
		<tag k="place" v="farm" />
		<tag k="ssr:stedsnr" v="580472" />
	</node>
	<node lat="62.60959999566318" lon="7.138177779615792" id="-10230">
		<tag k="name" v="Kjerringhaugen" />
		<tag k="place" v="farm" />
		<tag k="ssr:stedsnr" v="580823" />
	</node>
	<node lat="62.54217777378843" lon="7.097483335083873" id="-10231">
		<tag k="name" v="Høgsetra" />
		<tag k="place" v="locality" />
		<tag k="ssr:stedsnr" v="580659" />
	</node>
	<node lat="62.61816110803979" lon="6.83660554756282" id="-10276">
		<tag k="alt_name" v="Nakken, øvre" />
		<tag k="fixme" v="multiple name tags, choose one and add the other to alt_name" />
		<tag k="name" v="Nakken;Øvre Nakken" />
		<tag k="place" v="farm" />
		<tag k="ssr:stedsnr" v="618019" />
	</node>
	<node lat="62.57323123713617" lon="7.37603092300863" id="-10280">
		<tag k="fixme" v="consider place=hamlet" />
		<tag k="name" v="Farkvam" />
		<tag k="place" v="farm" />
		<tag k="ssr:stedsnr" v="618516" />
	</node>
	<node lat="62.606084089595385" lon="7.360393948744769" id="-10281">
		<tag k="fixme" v="consider place=hamlet" />
		<tag k="name" v="Helgestø" />
		<tag k="place" v="farm" />
		<tag k="ssr:stedsnr" v="618572" />
	</node>
	<node lat="62.62544166219342" lon="7.086963887458897" id="-10290">
		<tag k="name" v="Vestnes" />
		<tag k="place" v="village" />
		<tag k="ssr:stedsnr" v="618953" />
	</node>
	<node lat="62.60750640547436" lon="6.830879244634063" id="-10292">
		<tag k="name" v="Torsgarden" />
		<tag k="old_name" v="Torsbøen;Alfheim" />
		<tag k="place" v="farm" />
		<tag k="ssr:stedsnr" v="618961" />
	</node>
	<node lat="62.60148611307216" lon="7.100291658373352" id="-10293">
		<tag k="name" v="Skomakargarden" />
		<tag k="place" v="farm" />
		<tag k="ssr:stedsnr" v="618963" />
	</node>
	<node lat="62.47414722330123" lon="7.156955545814259" id="-10313">
		<tag k="name" v="Dalssetra" />
		<tag k="place" v="locality" />
		<tag k="ssr:stedsnr" v="641101" />
	</node>
	<node lat="62.6141416688484" lon="7.049227787190004" id="-10317">
		<tag k="name" v="Innlågå" />
		<tag k="place" v="locality" />
		<tag k="ssr:stedsnr" v="641558" />
	</node>
	<node lat="62.55688055634196" lon="7.153924995507158" id="-10318">
		<tag k="alt_name" v="Brovold" />
		<tag k="fixme" v="consider place=hamlet" />
		<tag k="name" v="Bruavollan" />
		<tag k="place" v="farm" />
		<tag k="ssr:stedsnr" v="641500" />
	</node>
	<node lat="62.47881666426685" lon="7.114033331598987" id="-10357">
		<tag k="historic" v="shieling" />
		<tag k="name" v="Eirsdalssetra" />
		<tag k="place" v="isolated_dwelling" />
		<tag k="ssr:stedsnr" v="739303" />
	</node>
	<node lat="62.60837934455837" lon="7.235552412231523" id="-10360">
		<tag k="fixme" v="consider place=hamlet" />
		<tag k="name" v="Hjelvika" />
		<tag k="place" v="village" />
		<tag k="ssr:stedsnr" v="739573" />
	</node>
	<node lat="62.617400000505555" lon="6.953261114189477" id="-10366">
		<tag k="name" v="Myrtua" />
		<tag k="place" v="farm" />
		<tag k="ssr:stedsnr" v="739929" />
	</node>
	<node lat="62.599966664353296" lon="7.100624991747605" id="-10368">
		<tag k="alt_name" v="Steinøygarden, ytre" />
		<tag k="name" v="Ytre Steinøygarden" />
		<tag k="place" v="farm" />
		<tag k="ssr:stedsnr" v="739963" />
	</node>
	<node lat="62.60489665682157" lon="7.271780888353836" id="-10372">
		<tag k="fixme" v="consider place=hamlet" />
		<tag k="name" v="Talberg" />
		<tag k="place" v="farm" />
		<tag k="ssr:stedsnr" v="740571" />
	</node>
	<node lat="62.579919445437866" lon="7.193894451347596" id="-10374">
		<tag k="name" v="Brattmyra" />
		<tag k="place" v="isolated_dwelling" />
		<tag k="ssr:stedsnr" v="740863" />
	</node>
	<node lat="62.625438885310814" lon="6.963919438855907" id="-10376">
		<tag k="name" v="Sinderhaug" />
		<tag k="place" v="farm" />
		<tag k="ssr:stedsnr" v="740946" />
	</node>
	<node lat="62.65191740032778" lon="6.794219823700642" id="-10379">
		<tag k="name" v="Dragneset" />
		<tag k="place" v="farm" />
		<tag k="ssr:stedsnr" v="754073" />
	</node>
	<node lat="62.628549995683784" lon="7.079711110496244" id="-10382">
		<tag k="fixme" v="consider place=hamlet" />
		<tag k="name" v="Vestnes" />
		<tag k="place" v="farm" />
		<tag k="ssr:stedsnr" v="762496" />
	</node>
	<node lat="62.59793128809636" lon="7.058296886237278" id="-10393">
		<tag k="historic" v="shieling" />
		<tag k="name" v="Prestbua" />
		<tag k="place" v="isolated_dwelling" />
		<tag k="ssr:stedsnr" v="762471" />
	</node>
	<node lat="62.62252777634559" lon="6.99559166498203" id="-10396">
		<tag k="name" v="Furland" />
		<tag k="place" v="hamlet" />
		<tag k="ssr:stedsnr" v="762570" />
	</node>
	<node lat="62.586619444136744" lon="6.910411112030614" id="-10403">
		<tag k="name" v="Juvikplassen" />
		<tag k="place" v="locality" />
		<tag k="ssr:stedsnr" v="762903" />
	</node>
	<node lat="62.57738611423691" lon="7.187361119613291" id="-10416">
		<tag k="name" v="Jørnstulen" />
		<tag k="place" v="locality" />
		<tag k="ssr:stedsnr" v="763730" />
	</node>
	<node lat="62.57169721845155" lon="7.112813880484615" id="-10429">
		<tag k="amenity" v="school" />
		<tag k="name" v="Skorgen skule" />
		<tag k="ssr:stedsnr" v="763787" />
	</node>
	<node lat="62.644599996754984" lon="6.73061112099451" id="-10438">
		<tag k="name" v="Haugen" />
		<tag k="place" v="farm" />
		<tag k="ssr:stedsnr" v="779798" />
	</node>
	<node lat="62.58017202536488" lon="7.085650971417355" id="-10454">
		<tag k="historic" v="shieling" />
		<tag k="name" v="Skorgenessetra" />
		<tag k="place" v="isolated_dwelling" />
		<tag k="ssr:stedsnr" v="801893" />
	</node>
	<node lat="62.581205558647056" lon="7.176080555903019" id="-10458">
		<tag k="historic" v="shieling" />
		<tag k="name" v="Olasetra" />
		<tag k="place" v="isolated_dwelling" />
		<tag k="ssr:stedsnr" v="801865" />
	</node>
	<node lat="62.562697217914426" lon="7.0249527700498655" id="-10459">
		<tag k="historic" v="shieling" />
		<tag k="name" v="Sprovssetra" />
		<tag k="place" v="isolated_dwelling" />
		<tag k="ssr:stedsnr" v="801930" />
	</node>
	<node lat="62.56146110698924" lon="7.091230562419967" id="-10460">
		<tag k="historic" v="shieling" />
		<tag k="name" v="Bjermelandssetra" />
		<tag k="place" v="isolated_dwelling" />
		<tag k="ssr:stedsnr" v="801935" />
	</node>
	<node lat="62.61989166595702" lon="6.969602782334662" id="-10461">
		<tag k="name" v="Elvestad" />
		<tag k="place" v="farm" />
		<tag k="ssr:stedsnr" v="801954" />
	</node>
	<node lat="62.62737221785515" lon="6.937736115887647" id="-10462">
		<tag k="alt_name" v="Neråssætra" />
		<tag k="name" v="Neråssetra" />
		<tag k="place" v="farm" />
		<tag k="ssr:stedsnr" v="801956" />
	</node>
	<node lat="62.641325000435906" lon="6.92950832854879" id="-10486">
		<tag k="amenity" v="school" />
		<tag k="name" v="Øverås skule" />
		<tag k="ssr:stedsnr" v="823894" />
	</node>
	<node lat="62.59074166817548" lon="7.140358341169151" id="-10491">
		<tag k="fixme" v="consider place=hamlet" />
		<tag k="name" v="Øvre Helset" />
		<tag k="place" v="farm" />
		<tag k="ssr:stedsnr" v="824796" />
	</node>
	<node lat="62.52179444577649" lon="7.0021416624987545" id="-10509">
		<tag k="historic" v="shieling" />
		<tag k="name" v="Gamlestølen" />
		<tag k="place" v="isolated_dwelling" />
		<tag k="ssr:stedsnr" v="824094" />
	</node>
	<node lat="62.63262500330753" lon="7.079933331093372" id="-10521">
		<tag k="name" v="Einhaugen" />
		<tag k="place" v="farm" />
		<tag k="ssr:stedsnr" v="824884" />
	</node>
	<node lat="62.60298333507443" lon="6.926011115531628" id="-10522">
		<tag k="name" v="Tueplassen" />
		<tag k="place" v="locality" />
		<tag k="ssr:stedsnr" v="824858" />
	</node>
	<node lat="62.58363055833336" lon="7.319574995975337" id="-10530">
		<tag k="historic" v="shieling" />
		<tag k="name" v="Olasetra" />
		<tag k="place" v="isolated_dwelling" />
		<tag k="ssr:stedsnr" v="825612" />
	</node>
	<node lat="62.604988892928134" lon="7.316433334313966" id="-10533">
		<tag k="fixme" v="consider place=hamlet" />
		<tag k="name" v="Vågstranda" />
		<tag k="place" v="village" />
		<tag k="ssr:stedsnr" v="844436" />
	</node>
	<node lat="62.56014166694224" lon="7.156066670937771" id="-10535">
		<tag k="fixme" v="consider place=hamlet" />
		<tag k="name" v="Daugstad" />
		<tag k="place" v="farm" />
		<tag k="ssr:stedsnr" v="849266" />
	</node>
	<node lat="62.59955186048722" lon="7.332259031479615" id="-10543">
		<tag k="fixme" v="consider place=hamlet" />
		<tag k="name" v="Bjørke" />
		<tag k="place" v="farm" />
		<tag k="ssr:stedsnr" v="861563" />
	</node>
	<node lat="62.55641568443426" lon="7.1286729249285266" id="-10547">
		<tag k="alt_name" v="Eikenes" />
		<tag k="fixme" v="consider place=hamlet" />
		<tag k="loc_name" v="Eiknes" />
		<tag k="name" v="Eikaneset" />
		<tag k="place" v="farm" />
		<tag k="ssr:stedsnr" v="861923" />
	</node>
	<node lat="62.5558861125573" lon="6.903716663283314" id="-10549">
		<tag k="historic" v="shieling" />
		<tag k="name" v="Tomresetra" />
		<tag k="place" v="isolated_dwelling" />
		<tag k="ssr:stedsnr" v="861929" />
	</node>
	<node lat="62.577069447300644" lon="7.176313897597148" id="-10552">
		<tag k="historic" v="shieling" />
		<tag k="name" v="Villesetra" />
		<tag k="place" v="isolated_dwelling" />
		<tag k="ssr:stedsnr" v="861889" />
	</node>
	<node lat="62.57620555830339" lon="6.907213889588429" id="-10554">
		<tag k="alt_name" v="Frostad" />
		<tag k="fixme" v="consider place=hamlet" />
		<tag k="name" v="Øvre Frostad" />
		<tag k="place" v="farm" />
		<tag k="ssr:stedsnr" v="861898" />
	</node>
	<node lat="62.62194999829221" lon="6.963066676088979" id="-10555">
		<tag k="name" v="Lunheim" />
		<tag k="place" v="farm" />
		<tag k="ssr:stedsnr" v="861955" />
	</node>
	<node lat="62.62575277450249" lon="7.03248056328683" id="-10556">
		<tag k="name" v="Stokkeland" />
		<tag k="place" v="farm" />
		<tag k="ssr:stedsnr" v="861967" />
	</node>
	<node lat="62.52429722500134" lon="6.996252773507842" id="-10575">
		<tag k="historic" v="shieling" />
		<tag k="name" v="Iverstølen" />
		<tag k="place" v="isolated_dwelling" />
		<tag k="ssr:stedsnr" v="884091" />
	</node>
	<node lat="62.61031666642884" lon="7.096694438621467" id="-10580">
		<tag k="name" v="Indre Remmem" />
		<tag k="place" v="farm" />
		<tag k="ssr:stedsnr" v="884469" />
	</node>
	<node lat="62.60861110994417" lon="7.095033340143913" id="-10581">
		<tag k="name" v="Holan" />
		<tag k="place" v="farm" />
		<tag k="ssr:stedsnr" v="884470" />
	</node>
	<node lat="62.57741944082937" lon="6.905630551355998" id="-10582">
		<tag k="name" v="Jogarden" />
		<tag k="place" v="farm" />
		<tag k="ssr:stedsnr" v="884472" />
	</node>
	<node lat="62.57443979512564" lon="6.907564636064683" id="-10583">
		<tag k="name" v="Nedre Frostad" />
		<tag k="place" v="farm" />
		<tag k="ssr:stedsnr" v="884476" />
	</node>
	<node lat="62.553758332871006" lon="7.157361111807763" id="-10584">
		<tag k="alt_name" v="Gjerde" />
		<tag k="name" v="Gjerdet" />
		<tag k="place" v="farm" />
		<tag k="ssr:stedsnr" v="884486" />
	</node>
	<node lat="62.559452776372275" lon="7.148483331511997" id="-10585">
		<tag k="name" v="Øyra" />
		<tag k="place" v="farm" />
		<tag k="ssr:stedsnr" v="884493" />
	</node>
	<node lat="62.59561666979901" lon="7.175697212663151" id="-10595">
		<tag k="historic" v="shieling" />
		<tag k="name" v="Helsetstølen" />
		<tag k="place" v="isolated_dwelling" />
		<tag k="ssr:stedsnr" v="884689" />
	</node>
	<node lat="62.618322226062595" lon="7.0843472266374725" id="-10597">
		<tag k="amenity" v="nursing_home" />
		<tag k="name" v="Hellandsheimen" />
		<tag k="ssr:stedsnr" v="884774" />
	</node>
	<node lat="62.60834444302725" lon="7.277319444537458" id="-10605">
		<tag k="name" v="Hola" />
		<tag k="place" v="locality" />
		<tag k="ssr:stedsnr" v="886078" />
	</node>
	<node lat="62.55428611046964" lon="7.12697500461768" id="-10610">
		<tag k="name" v="Tøftene" />
		<tag k="place" v="farm" />
		<tag k="ssr:stedsnr" v="936308" />
	</node>
	<node lat="62.48195555769992" lon="7.112200006225723" id="-10620">
		<tag k="name" v="Øykjestølen" />
		<tag k="place" v="locality" />
		<tag k="ssr:stedsnr" v="945092" />
	</node>
	<node lat="62.53736111170701" lon="7.265297224510408" id="-10622">
		<tag k="name" v="Johytta" />
		<tag k="place" v="isolated_dwelling" />
		<tag k="ssr:stedsnr" v="945500" />
	</node>
	<node lat="62.56145833072781" lon="6.896044448342487" id="-10623">
		<tag k="historic" v="shieling" />
		<tag k="name" v="Nedste Øygardssetra" />
		<tag k="place" v="isolated_dwelling" />
		<tag k="ssr:stedsnr" v="945502" />
	</node>
	<node lat="62.480469443650435" lon="7.179400000800322" id="-10625">
		<tag k="name" v="Markane" />
		<tag k="place" v="farm" />
		<tag k="ssr:stedsnr" v="945446" />
	</node>
	<node lat="62.59617777885614" lon="7.140547221484812" id="-10626">
		<tag k="name" v="Øvrebøen" />
		<tag k="place" v="farm" />
		<tag k="ssr:stedsnr" v="945459" />
	</node>
	<node lat="62.56534999928223" lon="7.118752773155531" id="-10627">
		<tag k="name" v="Bjermelandshagen" />
		<tag k="place" v="farm" />
		<tag k="ssr:stedsnr" v="945461" />
	</node>
	<node lat="62.62945555472012" lon="7.168866673270492" id="-10628">
		<tag k="name" v="Neset" />
		<tag k="place" v="farm" />
		<tag k="ssr:stedsnr" v="945468" />
	</node>
	<node lat="62.61501944550564" lon="7.151505548178399" id="-10629">
		<tag k="name" v="Reset" />
		<tag k="place" v="farm" />
		<tag k="ssr:stedsnr" v="945471" />
	</node>
	<node lat="62.60688055955613" lon="7.295580547666567" id="-10650">
		<tag k="fixme" v="consider place=suburb, village or hamlet" />
		<tag k="name" v="Reistaddalen" />
		<tag k="place" v="quarter" />
		<tag k="ssr:stedsnr" v="946058" />
	</node>
	<node lat="62.60784527814554" lon="6.830884738151048" id="-10772">
		<tag k="name" v="Alfheim" />
		<tag k="place" v="farm" />
		<tag k="ssr:stedsnr" v="1080765" />
	</node>
</osm>
