<?xml version="1.0" encoding="UTF-8"?>
<osm version="0.6" generator="osmapis">
	<node lat="62.6417916669838" lon="7.0871000054964775" id="-3403">
		<tag k="name" v="Vorpeneset" />
		<tag k="natural" v="cape" />
		<tag k="ssr:stedsnr" v="12012" />
	</node>
	<node lat="62.65217222582823" lon="6.74591944600968" id="-3415">
		<tag k="name" v="Kvalen" />
		<tag k="natural" v="shoal" />
		<tag k="place" v="locality" />
		<tag k="ssr:stedsnr" v="232760" />
	</node>
	<node lat="62.63488333055136" lon="6.911952780553357" id="-3418">
		<tag k="name" v="Storåkerneset" />
		<tag k="natural" v="cape" />
		<tag k="ssr:stedsnr" v="233801" />
	</node>
	<node lat="62.59731388735769" lon="6.921663897914679" id="-3419">
		<tag k="name" v="Liabukta" />
		<tag k="natural" v="bay" />
		<tag k="ssr:stedsnr" v="233825" />
	</node>
	<node lat="62.601383335306515" lon="6.902516659786191" id="-3420">
		<tag k="name" v="Strandaskjæret" />
		<tag k="natural" v="shoal" />
		<tag k="place" v="locality" />
		<tag k="ssr:stedsnr" v="233830" />
	</node>
	<node lat="62.63350555651673" lon="7.104330561475305" id="-3461">
		<tag k="name" v="Feøya" />
		<tag k="place" v="island" />
		<tag k="ssr:stedsnr" v="72021" />
	</node>
	<node lat="62.556348819439194" lon="7.146954819096275" id="-3480">
		<tag k="name" v="Sessneset" />
		<tag k="natural" v="cape" />
		<tag k="ssr:stedsnr" v="87325" />
	</node>
	<node lat="62.64664722190928" lon="6.733427785101703" id="-3482">
		<tag k="name" v="Rekdalsvika" />
		<tag k="natural" v="bay" />
		<tag k="ssr:stedsnr" v="94404" />
	</node>
	<node lat="62.6505694409852" lon="6.73914444540837" id="-3489">
		<tag k="alt_name" v="Reka" />
		<tag k="name" v="Rekå" />
		<tag k="place" v="islet" />
		<tag k="ssr:stedsnr" v="95626" />
	</node>
	<node lat="62.624663886179555" lon="7.077552776184421" id="-3502">
		<tag k="name" v="Holmesundet" />
		<tag k="natural" v="strait" />
		<tag k="ssr:stedsnr" v="95861" />
	</node>
	<node lat="62.63200555658291" lon="7.157199999469431" id="-3503">
		<tag k="name" v="Holmesundet" />
		<tag k="natural" v="strait" />
		<tag k="ssr:stedsnr" v="95866" />
	</node>
	<node lat="62.62000278100155" lon="6.925066675409632" id="-3513">
		<tag k="name" v="Kjeldnesgrunnen" />
		<tag k="natural" v="shoal" />
		<tag k="place" v="locality" />
		<tag k="ssr:stedsnr" v="111714" />
	</node>
	<node lat="62.65236944747602" lon="7.009775008708292" id="-3514">
		<tag k="name" v="Søre Kråkvika" />
		<tag k="natural" v="bay" />
		<tag k="ssr:stedsnr" v="111718" />
	</node>
	<node lat="62.63277500211067" lon="6.830566671210355" id="-3520">
		<tag k="name" v="Gjelsteinstranda" />
		<tag k="natural" v="beach" />
		<tag k="ssr:stedsnr" v="133002" />
	</node>
	<node lat="62.59539722570121" lon="7.363974995950339" id="-3524">
		<tag k="name" v="Skardbukta" />
		<tag k="natural" v="bay" />
		<tag k="ssr:stedsnr" v="133565" />
	</node>
	<node lat="62.58772708594719" lon="6.917609999349513" id="-3533">
		<tag k="name" v="Langneset" />
		<tag k="natural" v="cape" />
		<tag k="old_name" v="Langnesodden" />
		<tag k="ssr:stedsnr" v="254254" />
	</node>
	<node lat="62.65420277534277" lon="6.971322216106669" id="-3574">
		<tag k="name" v="Sandebukta" />
		<tag k="natural" v="bay" />
		<tag k="ssr:stedsnr" v="156919" />
	</node>
	<node lat="62.61869444436023" lon="7.064883339496314" id="-3583">
		<tag k="name" v="Midt-sjøneset" />
		<tag k="natural" v="cape" />
		<tag k="ssr:stedsnr" v="156814" />
	</node>
	<node lat="62.62873333103588" lon="7.169438884522041" id="-3585">
		<tag k="name" v="Kjørnessnagen" />
		<tag k="natural" v="cape" />
		<tag k="ssr:stedsnr" v="156862" />
	</node>
	<node lat="62.65292499928584" lon="7.012858327020459" id="-3588">
		<tag k="name" v="Kråkvikneset" />
		<tag k="natural" v="cape" />
		<tag k="ssr:stedsnr" v="262324" />
	</node>
	<node lat="62.524261109983904" lon="7.133863879604971" id="-3596">
		<tag k="name" v="Storholmen" />
		<tag k="place" v="islet" />
		<tag k="ssr:stedsnr" v="217003" />
	</node>
	<node lat="62.62499166963293" lon="7.178469442776198" id="-3603">
		<tag k="alt_name" v="Saltervika" />
		<tag k="name" v="Saltkjelsvika" />
		<tag k="natural" v="bay" />
		<tag k="ssr:stedsnr" v="217733" />
	</node>
	<node lat="62.62028333275145" lon="7.073847214065363" id="-3605">
		<tag k="name" v="Litle-kråkeneset" />
		<tag k="natural" v="cape" />
		<tag k="ssr:stedsnr" v="217793" />
	</node>
	<node lat="62.601219441355546" lon="6.897638894366408" id="-3607">
		<tag k="name" v="Mjelteneset" />
		<tag k="natural" v="cape" />
		<tag k="ssr:stedsnr" v="217903" />
	</node>
	<node lat="62.62119999889908" lon="7.2601027872604265" id="-3615">
		<tag k="name" v="Skålhamna" />
		<tag k="natural" v="bay" />
		<tag k="ssr:stedsnr" v="218215" />
	</node>
	<node lat="62.55700555398697" lon="7.133369437819821" id="-3616">
		<tag k="name" v="Eikaneset" />
		<tag k="natural" v="cape" />
		<tag k="ssr:stedsnr" v="217973" />
	</node>
	<node lat="62.59417500182818" lon="7.342500005457955" id="-3620">
		<tag k="name" v="Kjølsetneset" />
		<tag k="natural" v="cape" />
		<tag k="ssr:stedsnr" v="218672" />
	</node>
	<node lat="62.623311109398166" lon="6.932672215687194" id="-3629">
		<tag k="alt_name" v="Kjellneset" />
		<tag k="name" v="Kjeldneset" />
		<tag k="natural" v="cape" />
		<tag k="ssr:stedsnr" v="254024" />
	</node>
	<node lat="62.61934722151964" lon="7.02715278472376" id="-3635">
		<tag k="name" v="Bjerkaneset" />
		<tag k="natural" v="cape" />
		<tag k="ssr:stedsnr" v="254929" />
	</node>
	<node lat="62.54830832930635" lon="7.126355556179326" id="-3644">
		<tag k="name" v="Stordalsneset" />
		<tag k="natural" v="cape" />
		<tag k="ssr:stedsnr" v="459045" />
	</node>
	<node lat="62.52356111300319" lon="7.13853610429196" id="-3647">
		<tag k="name" v="Soddeholmen" />
		<tag k="place" v="islet" />
		<tag k="ssr:stedsnr" v="459001" />
	</node>
	<node lat="62.59741666229652" lon="7.133263881258353" id="-3662">
		<tag k="name" v="Guribukta" />
		<tag k="natural" v="bay" />
		<tag k="ssr:stedsnr" v="459763" />
	</node>
	<node lat="62.60341944109877" lon="7.1302027863760395" id="-3669">
		<tag k="name" v="Kroksetbukta" />
		<tag k="natural" v="bay" />
		<tag k="ssr:stedsnr" v="459779" />
	</node>
	<node lat="62.60892500364052" lon="7.131177772850558" id="-3681">
		<tag k="name" v="Litlekråkneset" />
		<tag k="natural" v="cape" />
		<tag k="ssr:stedsnr" v="459825" />
	</node>
	<node lat="62.63820277752964" lon="7.089166659122612" id="-3686">
		<tag k="name" v="Kvalvika" />
		<tag k="natural" v="bay" />
		<tag k="ssr:stedsnr" v="277617" />
	</node>
	<node lat="62.61930555185669" lon="7.069547221747332" id="-3700">
		<tag k="name" v="Ytste-sjøneset" />
		<tag k="natural" v="cape" />
		<tag k="ssr:stedsnr" v="277817" />
	</node>
	<node lat="62.624647220844004" lon="7.040172221802592" id="-3707">
		<tag k="name" v="Andersneset" />
		<tag k="natural" v="cape" />
		<tag k="ssr:stedsnr" v="277915" />
	</node>
	<node lat="62.631491664471554" lon="6.925466673514441" id="-3712">
		<tag k="name" v="Neråsfjørå" />
		<tag k="natural" v="beach" />
		<tag k="ssr:stedsnr" v="277935" />
	</node>
	<node lat="62.57862777663969" lon="7.378261112345363" id="-3719">
		<tag k="name" v="Storvikneset" />
		<tag k="natural" v="cape" />
		<tag k="ssr:stedsnr" v="278603" />
	</node>
	<node lat="62.652241668172415" lon="6.799230565007522" id="-3720">
		<tag k="name" v="Dragnesbukta" />
		<tag k="natural" v="bay" />
		<tag k="ssr:stedsnr" v="459997" />
	</node>
	<node lat="62.59175277549153" lon="7.367927781383817" id="-3723">
		<tag k="name" v="Vågshamna" />
		<tag k="natural" v="bay" />
		<tag k="ssr:stedsnr" v="279690" />
	</node>
	<node lat="62.60375000379054" lon="7.362822225819781" id="-3724">
		<tag k="name" v="Purkevika" />
		<tag k="natural" v="bay" />
		<tag k="ssr:stedsnr" v="279696" />
	</node>
	<node lat="62.60996944155431" lon="7.330625000497264" id="-3725">
		<tag k="name" v="Skarveneset" />
		<tag k="natural" v="cape" />
		<tag k="ssr:stedsnr" v="461229" />
	</node>
	<node lat="62.625036711310244" lon="7.145337961437288" id="-3731">
		<tag k="name" v="Leikarneset" />
		<tag k="natural" v="cape" />
		<tag k="ssr:stedsnr" v="314917" />
	</node>
	<node lat="62.590844440476154" lon="7.367633343114283" id="-3733">
		<tag k="name" v="Vågsbukta" />
		<tag k="natural" v="bay" />
		<tag k="ssr:stedsnr" v="315570" />
	</node>
	<node lat="62.54135000458914" lon="7.1316666728095655" id="-3740">
		<tag k="name" v="Løvikneset" />
		<tag k="natural" v="cape" />
		<tag k="ssr:stedsnr" v="338005" />
	</node>
	<node lat="62.624141663247045" lon="7.085730562824785" id="-3757">
		<tag k="alt_name" v="Vestnes - straumen" />
		<tag k="name" v="Vestnesstraumen" />
		<tag k="natural" v="strait" />
		<tag k="ssr:stedsnr" v="338847" />
	</node>
	<node lat="62.62854722454127" lon="7.071808328031835" id="-3758">
		<tag k="name" v="Grøtneset" />
		<tag k="natural" v="cape" />
		<tag k="ssr:stedsnr" v="338853" />
	</node>
	<node lat="62.61634999991234" lon="7.2717416746284655" id="-3762">
		<tag k="name" v="Sanden" />
		<tag k="natural" v="bay" />
		<tag k="ssr:stedsnr" v="339094" />
	</node>
	<node lat="62.65110000154329" lon="6.741649996375103" id="-3765">
		<tag k="name" v="Røysa" />
		<tag k="natural" v="shoal" />
		<tag k="place" v="locality" />
		<tag k="ssr:stedsnr" v="475796" />
	</node>
	<node lat="62.61133610751968" lon="7.130338897820689" id="-3783">
		<tag k="alt_name" v="Vikeskjæra" />
		<tag k="fixme" v="consider seamark:type=rock or natural=shoal" />
		<tag k="name" v="Vikeskjera" />
		<tag k="place" v="islet" />
		<tag k="ssr:stedsnr" v="375988" />
	</node>
	<node lat="62.63660278143875" lon="6.692202773762384" id="-3790">
		<tag k="name" v="Dråga" />
		<tag k="natural" v="cape" />
		<tag k="ssr:stedsnr" v="397332" />
	</node>
	<node lat="62.62675000374856" lon="7.077622228163807" id="-3803">
		<tag k="name" v="Smibukta" />
		<tag k="natural" v="bay" />
		<tag k="ssr:stedsnr" v="398584" />
	</node>
	<node lat="62.6176194429881" lon="7.098380551443177" id="-3817">
		<tag k="name" v="Kariberget" />
		<tag k="natural" v="cape" />
		<tag k="ssr:stedsnr" v="398811" />
	</node>
	<node lat="62.619758329445816" lon="7.14653889348095" id="-3819">
		<tag k="name" v="Madamberget" />
		<tag k="natural" v="cape" />
		<tag k="ssr:stedsnr" v="398832" />
	</node>
	<node lat="62.57787689050231" lon="7.11882350618116" id="-3822">
		<tag k="name" v="Ytre Skorgenesodden" />
		<tag k="natural" v="cape" />
		<tag k="ssr:stedsnr" v="398783" />
	</node>
	<node lat="62.64878611282641" lon="6.740180550950025" id="-3827">
		<tag k="name" v="Rekdalsbukta" />
		<tag k="natural" v="bay" />
		<tag k="ssr:stedsnr" v="398979" />
	</node>
	<node lat="62.607794441426705" lon="7.359100003621942" id="-3829">
		<tag k="alt_name" v="Helgestøneset" />
		<tag k="name" v="Helgestøsnagen" />
		<tag k="natural" v="cape" />
		<tag k="ssr:stedsnr" v="400210" />
	</node>
	<node lat="62.60156944029062" lon="7.33411943624199" id="-3831">
		<tag k="name" v="Bjørkøyra" />
		<tag k="natural" v="cape" />
		<tag k="ssr:stedsnr" v="400676" />
	</node>
	<node lat="62.61327777717147" lon="7.142047227693787" id="-3868">
		<tag k="name" v="Tangøra" />
		<tag k="natural" v="beach" />
		<tag k="ssr:stedsnr" v="459566" />
	</node>
	<node lat="62.58933610972342" lon="6.932141673520197" id="-3874">
		<tag k="name" v="Løvollsbukta" />
		<tag k="natural" v="bay" />
		<tag k="ssr:stedsnr" v="459862" />
	</node>
	<node lat="62.602405551520945" lon="6.893219444903781" id="-3878">
		<tag k="name" v="Johanbukta" />
		<tag k="natural" v="bay" />
		<tag k="ssr:stedsnr" v="459917" />
	</node>
	<node lat="62.6139472234334" lon="6.880202773868015" id="-3882">
		<tag k="fixme" v="consider seamark:type=rock or natural=shoal" />
		<tag k="name" v="Fiksdalsskjeret" />
		<tag k="place" v="islet" />
		<tag k="ssr:stedsnr" v="459972" />
	</node>
	<node lat="62.54265000061224" lon="7.148152771330115" id="-3883">
		<tag k="name" v="Fagervikbukta" />
		<tag k="natural" v="bay" />
		<tag k="ssr:stedsnr" v="459975" />
	</node>
	<node lat="62.59706944515442" lon="7.338891669309732" id="-3899">
		<tag k="name" v="Vågen" />
		<tag k="natural" v="bay" />
		<tag k="ssr:stedsnr" v="679548" />
	</node>
	<node lat="62.62021905098891" lon="7.078057863151793" id="-3911">
		<tag k="name" v="Kråkneset" />
		<tag k="natural" v="cape" />
		<tag k="ssr:stedsnr" v="679957" />
	</node>
	<node lat="62.585830553470764" lon="7.125752771846508" id="-3922">
		<tag k="bay" v="fjord" />
		<tag k="name" v="Tresfjorden" />
		<tag k="natural" v="bay" />
		<tag k="ssr:stedsnr" v="497896" />
	</node>
	<node lat="62.59296110705228" lon="7.351380549736024" id="-3927">
		<tag k="name" v="Skarbukta" />
		<tag k="natural" v="bay" />
		<tag k="ssr:stedsnr" v="507119" />
	</node>
	<node lat="62.5733083312421" lon="7.123686111471634" id="-3942">
		<tag k="name" v="Skorgeøyra" />
		<tag k="natural" v="cape" />
		<tag k="ssr:stedsnr" v="520812" />
	</node>
	<node lat="62.57155252273828" lon="7.123300791432893" id="-3943">
		<tag k="alt_name" v="Skorgebukta" />
		<tag k="name" v="Skorgenesbukta" />
		<tag k="natural" v="bay" />
		<tag k="ssr:stedsnr" v="520813" />
	</node>
	<node lat="62.61637499615107" lon="7.0250638947478015" id="-3954">
		<tag k="name" v="Flatebukta" />
		<tag k="natural" v="bay" />
		<tag k="ssr:stedsnr" v="520924" />
	</node>
	<node lat="62.62290555984259" lon="7.26128333796506" id="-3961">
		<tag k="name" v="Skålhamnholmen" />
		<tag k="place" v="islet" />
		<tag k="ssr:stedsnr" v="522229" />
	</node>
	<node lat="62.624133331917676" lon="7.075524996744395" id="-3978">
		<tag k="name" v="Skorveholmen" />
		<tag k="place" v="islet" />
		<tag k="ssr:stedsnr" v="557949" />
	</node>
	<node lat="62.61841388574977" lon="7.061208339013046" id="-4001">
		<tag k="name" v="Inste-sjøneset" />
		<tag k="natural" v="cape" />
		<tag k="ssr:stedsnr" v="580803" />
	</node>
	<node lat="62.62394166624062" lon="7.037219443786525" id="-4010">
		<tag k="name" v="Søråsneset" />
		<tag k="natural" v="cape" />
		<tag k="ssr:stedsnr" v="580901" />
	</node>
	<node lat="62.6054388895815" lon="7.362044449396852" id="-4014">
		<tag k="name" v="Naustneset" />
		<tag k="natural" v="cape" />
		<tag k="ssr:stedsnr" v="582698" />
	</node>
	<node lat="62.63765277898089" lon="6.697802771947195" id="-4019">
		<tag k="name" v="Fonnebukta" />
		<tag k="natural" v="bay" />
		<tag k="ssr:stedsnr" v="701351" />
	</node>
	<node lat="62.56286666900125" lon="7.128991676105484" id="-4024">
		<tag k="name" v="Naustvollneset" />
		<tag k="natural" v="cape" />
		<tag k="ssr:stedsnr" v="702038" />
	</node>
	<node lat="62.616450002312234" lon="7.145161107378182" id="-4038">
		<tag k="name" v="Vikebukta" />
		<tag k="natural" v="bay" />
		<tag k="ssr:stedsnr" v="702827" />
	</node>
	<node lat="62.59656389069184" lon="6.923669437222807" id="-4045">
		<tag k="name" v="Lianeset" />
		<tag k="natural" v="cape" />
		<tag k="ssr:stedsnr" v="702596" />
	</node>
	<node lat="62.54883889289155" lon="7.149899997234846" id="-4059">
		<tag k="name" v="Tuefonn-neset" />
		<tag k="natural" v="cape" />
		<tag k="ssr:stedsnr" v="702971" />
	</node>
	<node lat="62.620194447950304" lon="6.934052770504058" id="-4065">
		<tag k="name" v="Inste Kjellneset" />
		<tag k="natural" v="cape" />
		<tag k="ssr:stedsnr" v="702887" />
	</node>
	<node lat="62.62078888455687" lon="7.242522213418747" id="-4071">
		<tag k="name" v="Hjelvikneset" />
		<tag k="natural" v="cape" />
		<tag k="ssr:stedsnr" v="703290" />
	</node>
	<node lat="62.5925861154894" lon="7.369827768137838" id="-4075">
		<tag k="fixme" v="consider seamark:type=rock or natural=shoal" />
		<tag k="name" v="Vågsskjæret" />
		<tag k="place" v="islet" />
		<tag k="ssr:stedsnr" v="628110" />
	</node>
	<node lat="62.63883333151568" lon="6.908263880622474" id="-4085">
		<tag k="name" v="Grøtten" />
		<tag k="natural" v="cape" />
		<tag k="ssr:stedsnr" v="641609" />
	</node>
	<node lat="62.62939722242733" lon="6.931486117806181" id="-4092">
		<tag k="name" v="Lianeset" />
		<tag k="natural" v="cape" />
		<tag k="ssr:stedsnr" v="641591" />
	</node>
	<node lat="62.63244721984576" lon="6.833477776940578" id="-4099">
		<tag k="name" v="Fjørberget" />
		<tag k="natural" v="cape" />
		<tag k="ssr:stedsnr" v="641932" />
	</node>
	<node lat="62.65477499574663" lon="6.768211117617565" id="-4102">
		<tag k="name" v="Sandeneset" />
		<tag k="natural" v="cape" />
		<tag k="ssr:stedsnr" v="641996" />
	</node>
	<node lat="62.601936110773934" lon="7.337319439086832" id="-4103">
		<tag k="name" v="Håhammarbukta" />
		<tag k="natural" v="bay" />
		<tag k="ssr:stedsnr" v="642623" />
	</node>
	<node lat="62.575955553516536" lon="6.91342778478896" id="-4138">
		<tag k="name" v="Vågen" />
		<tag k="natural" v="bay" />
		<tag k="ssr:stedsnr" v="702608" />
	</node>
	<node lat="62.6080000025445" lon="7.328730545920305" id="-4153">
		<tag k="name" v="Lundsbøneset" />
		<tag k="natural" v="cape" />
		<tag k="ssr:stedsnr" v="704211" />
	</node>
	<node lat="62.629955557808046" lon="6.838147221405609" id="-4155">
		<tag k="name" v="Glemneset" />
		<tag k="natural" v="cape" />
		<tag k="ssr:stedsnr" v="718792" />
	</node>
	<node lat="62.647822224957885" lon="6.86073055570682" id="-4156">
		<tag k="name" v="Neråsgrunnen" />
		<tag k="natural" v="shoal" />
		<tag k="place" v="locality" />
		<tag k="ssr:stedsnr" v="719800" />
	</node>
	<node lat="62.61668055555472" lon="6.909997218662835" id="-4157">
		<tag k="name" v="Vikeflua" />
		<tag k="natural" v="shoal" />
		<tag k="place" v="locality" />
		<tag k="ssr:stedsnr" v="900795" />
	</node>
	<node lat="62.6300249996741" lon="7.14804166333931" id="-4158">
		<tag k="name" v="Røysa" />
		<tag k="natural" v="shoal" />
		<tag k="place" v="locality" />
		<tag k="ssr:stedsnr" v="900829" />
	</node>
	<node lat="62.61222777543101" lon="6.916719434907915" id="-4162">
		<tag k="fixme" v="consider seamark:type=rock or natural=shoal" />
		<tag k="name" v="Rogna" />
		<tag k="place" v="islet" />
		<tag k="ssr:stedsnr" v="739958" />
	</node>
	<node lat="62.61129167048272" lon="7.223838893546227" id="-4194">
		<tag k="name" v="Stranda" />
		<tag k="natural" v="beach" />
		<tag k="ssr:stedsnr" v="764215" />
	</node>
	<node lat="62.61932777807386" lon="7.2481111059986425" id="-4195">
		<tag k="alt_name" v="Yttervika" />
		<tag k="name" v="Juvika" />
		<tag k="natural" v="bay" />
		<tag k="ssr:stedsnr" v="764217" />
	</node>
	<node lat="62.57914722552635" lon="7.375519449499748" id="-4196">
		<tag k="name" v="Storvika" />
		<tag k="natural" v="bay" />
		<tag k="ssr:stedsnr" v="764545" />
	</node>
	<node lat="62.63434999933271" lon="6.82876111155389" id="-4226">
		<tag k="name" v="Galten" />
		<tag k="natural" v="cape" />
		<tag k="ssr:stedsnr" v="823616" />
	</node>
	<node lat="62.61551389095966" lon="7.021622224277703" id="-4249">
		<tag k="name" v="Flateleira" />
		<tag k="natural" v="beach" />
		<tag k="ssr:stedsnr" v="824916" />
	</node>
	<node lat="62.6548166631431" lon="7.034958328187231" id="-4255">
		<tag k="name" v="Fakseneset" />
		<tag k="natural" v="cape" />
		<tag k="ssr:stedsnr" v="922016" />
	</node>
	<node lat="62.60775704774473" lon="7.35834856273564" id="-4261">
		<tag k="alt_name" v="Lefseholet" />
		<tag k="name" v="Lefsehola" />
		<tag k="natural" v="bay" />
		<tag k="ssr:stedsnr" v="922542" />
	</node>
	<node lat="62.62351111062903" lon="7.19672222311751" id="-4274">
		<tag k="name" v="Førneset" />
		<tag k="natural" v="cape" />
		<tag k="ssr:stedsnr" v="922948" />
	</node>
	<node lat="62.61369444642657" lon="6.8770083404248314" id="-4288">
		<tag k="fixme" v="consider seamark:type=rock or natural=shoal" />
		<tag k="name" v="Fiksdalsholmen" />
		<tag k="place" v="islet" />
		<tag k="ssr:stedsnr" v="861977" />
	</node>
	<node lat="62.58840278180719" lon="6.909624998278412" id="-4312">
		<tag k="name" v="Juvika" />
		<tag k="natural" v="bay" />
		<tag k="ssr:stedsnr" v="884616" />
	</node>
	<node lat="62.534691670752906" lon="7.149744439819623" id="-4313">
		<tag k="name" v="Stranda" />
		<tag k="natural" v="beach" />
		<tag k="ssr:stedsnr" v="884651" />
	</node>
	<node lat="62.57261110982547" lon="7.37875834215829" id="-4324">
		<tag k="alt_name" v="Farkvamvika" />
		<tag k="name" v="Farkvamsbukta" />
		<tag k="natural" v="bay" />
		<tag k="ssr:stedsnr" v="885563" />
	</node>
	<node lat="62.61094166696866" lon="6.925583336790959" id="-4352">
		<tag k="name" v="Selneset" />
		<tag k="natural" v="cape" />
		<tag k="ssr:stedsnr" v="945596" />
	</node>
	<node lat="62.62568610878104" lon="7.179172214182097" id="-4355">
		<tag k="name" v="Saltkjelsviksnagen" />
		<tag k="natural" v="cape" />
		<tag k="ssr:stedsnr" v="945712" />
	</node>
	<node lat="62.6228250022564" lon="7.1464222254140015" id="-4363">
		<tag k="name" v="Nesabukta" />
		<tag k="natural" v="bay" />
		<tag k="ssr:stedsnr" v="945782" />
	</node>
	<node lat="62.645527780796094" lon="6.907552784749053" id="-4380">
		<tag k="alt_name" v="Neråsneset" />
		<tag k="name" v="Bolungneset" />
		<tag k="natural" v="cape" />
		<tag k="ssr:stedsnr" v="11045" />
	</node>
	<node lat="62.65501944648855" lon="6.9979611177244205" id="-4395">
		<tag k="name" v="Leirvågneset" />
		<tag k="natural" v="cape" />
		<tag k="ssr:stedsnr" v="12056" />
	</node>
	<node lat="62.56961388725641" lon="7.1239305472834715" id="-4433">
		<tag k="name" v="Bøneset" />
		<tag k="natural" v="cape" />
		<tag k="ssr:stedsnr" v="34540" />
	</node>
	<node lat="62.606902779758045" lon="7.100147224679218" id="-4445">
		<tag k="name" v="Salthammarberget" />
		<tag k="natural" v="cape" />
		<tag k="ssr:stedsnr" v="34784" />
	</node>
	<node lat="62.59481666591127" lon="7.104197227497719" id="-4449">
		<tag k="name" v="Petterneset" />
		<tag k="natural" v="cape" />
		<tag k="ssr:stedsnr" v="34759" />
	</node>
	<node lat="62.63440277698465" lon="7.157502771862976" id="-4450">
		<tag k="name" v="Gjermundnesholmen" />
		<tag k="place" v="islet" />
		<tag k="ssr:stedsnr" v="34847" />
	</node>
	<node lat="62.65089444446859" lon="6.936386118702858" id="-4451">
		<tag k="name" v="Naustbukta" />
		<tag k="natural" v="bay" />
		<tag k="ssr:stedsnr" v="34912" />
	</node>
	<node lat="62.6144083372799" lon="6.872977785684631" id="-4465">
		<tag k="name" v="Fiksdalsbukta" />
		<tag k="natural" v="bay" />
		<tag k="ssr:stedsnr" v="34948" />
	</node>
	<node lat="62.61521667009679" lon="6.89257499606019" id="-4466">
		<tag k="name" v="Storflua" />
		<tag k="natural" v="shoal" />
		<tag k="place" v="locality" />
		<tag k="ssr:stedsnr" v="51832" />
	</node>
	<node lat="62.53893611259977" lon="7.130450003702691" id="-4467">
		<tag k="name" v="Nesbukta" />
		<tag k="natural" v="bay" />
		<tag k="ssr:stedsnr" v="54410" />
	</node>
	<node lat="62.530222226251915" lon="7.145666660949146" id="-4495">
		<tag k="name" v="Storurneset" />
		<tag k="natural" v="cape" />
		<tag k="ssr:stedsnr" v="95039" />
	</node>
	<node lat="62.581947218953204" lon="6.929077783431138" id="-4528">
		<tag k="name" v="Reitbukta" />
		<tag k="natural" v="bay" />
		<tag k="ssr:stedsnr" v="95838" />
	</node>
	<node lat="62.63726944761526" lon="6.822997224470476" id="-4532">
		<tag k="name" v="Gjelsteinbukta" />
		<tag k="natural" v="bay" />
		<tag k="ssr:stedsnr" v="95941" />
	</node>
	<node lat="62.62741111212333" lon="7.1701944472767005" id="-4537">
		<tag k="name" v="Gjermundnesbukta" />
		<tag k="natural" v="bay" />
		<tag k="ssr:stedsnr" v="95781" />
	</node>
	<node lat="62.61394444674138" lon="7.095705549133978" id="-4538">
		<tag k="alt_name" v="Remmemsvika" />
		<tag k="name" v="Remmemsbukta" />
		<tag k="natural" v="bay" />
		<tag k="ssr:stedsnr" v="95797" />
	</node>
	<node lat="62.61668332933575" lon="7.0397194389894" id="-4541">
		<tag k="name" v="Langneset" />
		<tag k="natural" v="cape" />
		<tag k="ssr:stedsnr" v="95895" />
	</node>
	<node lat="62.64523611330318" lon="6.819324990348705" id="-4544">
		<tag k="name" v="Storberget" />
		<tag k="natural" v="cape" />
		<tag k="ssr:stedsnr" v="95991" />
	</node>
	<node lat="62.654491665587216" lon="6.772691674847211" id="-4545">
		<tag k="name" v="Sandebukta" />
		<tag k="natural" v="bay" />
		<tag k="ssr:stedsnr" v="95996" />
	</node>
	<node lat="62.59560555741637" lon="7.348677782075086" id="-4548">
		<tag k="name" v="Kleivbukta" />
		<tag k="natural" v="bay" />
		<tag k="ssr:stedsnr" v="97689" />
	</node>
	<node lat="62.63469166442375" lon="6.828983334278859" id="-4554">
		<tag k="name" v="Galteflua" />
		<tag k="natural" v="shoal" />
		<tag k="place" v="locality" />
		<tag k="ssr:stedsnr" v="111763" />
	</node>
	<node lat="62.62524999742455" lon="7.248075008162879" id="-4555">
		<tag k="name" v="Kåvikgrunna" />
		<tag k="natural" v="shoal" />
		<tag k="place" v="locality" />
		<tag k="ssr:stedsnr" v="112832" />
	</node>
	<node lat="62.608708333505014" lon="7.287674994858546" id="-4556">
		<tag k="name" v="Øygardsbukta" />
		<tag k="natural" v="bay" />
		<tag k="ssr:stedsnr" v="112836" />
	</node>
	<node lat="62.59651110726809" lon="7.363075005689602" id="-4579">
		<tag k="name" v="Skarbukta" />
		<tag k="natural" v="bay" />
		<tag k="ssr:stedsnr" v="142156" />
	</node>
	<node lat="62.54508611188084" lon="7.146058338774449" id="-4582">
		<tag k="name" v="Hoemsneset" />
		<tag k="natural" v="cape" />
		<tag k="ssr:stedsnr" v="147347" />
	</node>
	<node lat="62.65348611380993" lon="7.059938891392507" id="-4612">
		<tag k="name" v="Saltkjelneset" />
		<tag k="natural" v="cape" />
		<tag k="ssr:stedsnr" v="156847" />
	</node>
	<node lat="62.573180553734005" lon="7.151658337776716" id="-4629">
		<tag k="name" v="Saugrovneset" />
		<tag k="natural" v="cape" />
		<tag k="ssr:stedsnr" v="156739" />
	</node>
	<node lat="62.646891669943216" lon="6.8212777742148525" id="-4633">
		<tag k="name" v="Gjelsteinholmen" />
		<tag k="place" v="islet" />
		<tag k="ssr:stedsnr" v="156989" />
	</node>
	<node lat="62.5900305551643" lon="7.369413892158377" id="-4634">
		<tag k="name" v="Vågsflua" />
		<tag k="natural" v="shoal" />
		<tag k="place" v="locality" />
		<tag k="ssr:stedsnr" v="172088" />
	</node>
	<node lat="62.64566388943064" lon="6.819202787313874" id="-4639">
		<tag k="name" v="Neset" />
		<tag k="natural" v="cape" />
		<tag k="ssr:stedsnr" v="193053" />
	</node>
	<node lat="62.612980552096126" lon="7.2291888952685195" id="-4648">
		<tag k="name" v="Hjelvikbukta" />
		<tag k="natural" v="bay" />
		<tag k="ssr:stedsnr" v="193649" />
	</node>
	<node lat="62.63040277942777" lon="7.167480561286346" id="-4672">
		<tag k="alt_name" v="Gjermundneset" />
		<tag k="name" v="Gjermundnes" />
		<tag k="natural" v="cape" />
		<tag k="ssr:stedsnr" v="194952" />
	</node>
	<node lat="62.62933333577063" lon="7.148824998078595" id="-4673">
		<tag k="name" v="Bakneset" />
		<tag k="natural" v="cape" />
		<tag k="ssr:stedsnr" v="194957" />
	</node>
	<node lat="62.6145611113756" lon="6.935508323781013" id="-4705">
		<tag k="name" v="Vikbukta" />
		<tag k="natural" v="bay" />
		<tag k="ssr:stedsnr" v="217633" />
	</node>
	<node lat="62.579613890823595" lon="7.148011113644355" id="-4715">
		<tag k="name" v="Skjegstadvika" />
		<tag k="natural" v="bay" />
		<tag k="ssr:stedsnr" v="217745" />
	</node>
	<node lat="62.59845277854369" lon="7.131269443104679" id="-4717">
		<tag k="name" v="Storberget" />
		<tag k="natural" v="cape" />
		<tag k="ssr:stedsnr" v="217765" />
	</node>
	<node lat="62.629600004181455" lon="7.067263891994622" id="-4718">
		<tag k="name" v="Leirvikbukta" />
		<tag k="natural" v="bay" />
		<tag k="ssr:stedsnr" v="217842" />
	</node>
	<node lat="62.632800002559776" lon="7.101719438029611" id="-4719">
		<tag k="name" v="Nils-Dahl-bukta" />
		<tag k="natural" v="bay" />
		<tag k="ssr:stedsnr" v="217845" />
	</node>
	<node lat="62.62013055575799" lon="6.859799999617908" id="-4725">
		<tag k="name" v="Tømmervika" />
		<tag k="natural" v="bay" />
		<tag k="ssr:stedsnr" v="217961" />
	</node>
	<node lat="62.545955554772014" lon="7.14755000238902" id="-4728">
		<tag k="name" v="Torereina" />
		<tag k="natural" v="beach" />
		<tag k="ssr:stedsnr" v="217968" />
	</node>
	<node lat="62.607694442111985" lon="7.2903527843260205" id="-4729">
		<tag k="name" v="Kvisla" />
		<tag k="natural" v="bay" />
		<tag k="ssr:stedsnr" v="218061" />
	</node>
	<node lat="62.6062777761661" lon="7.307758324630221" id="-4732">
		<tag k="name" v="Aretbukta" />
		<tag k="natural" v="bay" />
		<tag k="ssr:stedsnr" v="218760" />
	</node>
	<node lat="62.56088888955181" lon="7.130447220249156" id="-4745">
		<tag k="name" v="Pelarsneset" />
		<tag k="natural" v="cape" />
		<tag k="ssr:stedsnr" v="277033" />
	</node>
	<node lat="62.64361667096257" lon="6.82245277284369" id="-4758">
		<tag k="fixme" v="consider seamark:type=rock or natural=shoal" />
		<tag k="name" v="Skjæret" />
		<tag k="place" v="islet" />
		<tag k="ssr:stedsnr" v="277673" />
	</node>
	<node lat="62.58976388682569" lon="7.106430561135232" id="-4763">
		<tag k="name" v="Brastadneset" />
		<tag k="natural" v="cape" />
		<tag k="ssr:stedsnr" v="277797" />
	</node>
	<node lat="62.64433888830556" lon="6.818969439011657" id="-4765">
		<tag k="name" v="Lisleberget" />
		<tag k="natural" v="cape" />
		<tag k="ssr:stedsnr" v="277995" />
	</node>
	<node lat="62.62325277441964" lon="6.85384167468847" id="-4768">
		<tag k="alt_name" v="Stomn-neset" />
		<tag k="name" v="Stomnneset" />
		<tag k="natural" v="cape" />
		<tag k="ssr:stedsnr" v="277963" />
	</node>
	<node lat="62.6530555541837" lon="7.019527771117892" id="-4776">
		<tag k="name" v="Nordre Kråkvika" />
		<tag k="natural" v="bay" />
		<tag k="ssr:stedsnr" v="293759" />
	</node>
	<node lat="62.60194999553404" lon="7.364336104098747" id="-4777">
		<tag k="name" v="Kvernan" />
		<tag k="natural" v="cape" />
		<tag k="ssr:stedsnr" v="294088" />
	</node>
	<node lat="62.58603055681387" lon="7.368969449217493" id="-4786">
		<tag k="name" v="Vågsneset" />
		<tag k="natural" v="cape" />
		<tag k="ssr:stedsnr" v="314634" />
	</node>
	<node lat="62.6203611074472" lon="7.09924999952549" id="-4810">
		<tag k="name" v="Livneset" />
		<tag k="natural" v="cape" />
		<tag k="ssr:stedsnr" v="338552" />
	</node>
	<node lat="62.653205552737376" lon="7.083708331475078" id="-4831">
		<tag k="name" v="Hella" />
		<tag k="natural" v="cape" />
		<tag k="ssr:stedsnr" v="338564" />
	</node>
	<node lat="62.65239999599311" lon="7.011438896413419" id="-4832">
		<tag k="name" v="Kråkvika" />
		<tag k="natural" v="bay" />
		<tag k="ssr:stedsnr" v="338578" />
	</node>
	<node lat="62.57833333410331" lon="6.916586105227931" id="-4840">
		<tag k="name" v="Hegreneset" />
		<tag k="natural" v="cape" />
		<tag k="ssr:stedsnr" v="338914" />
	</node>
	<node lat="62.621586109160575" lon="7.247336119370288" id="-4852">
		<tag k="name" v="Kåvikneset" />
		<tag k="natural" v="cape" />
		<tag k="ssr:stedsnr" v="354836" />
	</node>
	<node lat="62.60062777383007" lon="6.89752499970772" id="-4854">
		<tag k="name" v="Fiksdalsstranda" />
		<tag k="natural" v="beach" />
		<tag k="ssr:stedsnr" v="363973" />
	</node>
	<node lat="62.599656040663746" lon="6.918088130810292" id="-4858">
		<tag k="name" v="Bårsneset" />
		<tag k="natural" v="cape" />
		<tag k="ssr:stedsnr" v="375935" />
	</node>
	<node lat="62.63427499673421" lon="7.156747212728863" id="-4871">
		<tag k="name" v="Gjermundnesholman" />
		<tag k="place" v="islet" />
		<tag k="ssr:stedsnr" v="376027" />
	</node>
	<node lat="62.620383332989725" lon="7.047827773526493" id="-4880">
		<tag k="name" v="Flatevågen" />
		<tag k="natural" v="bay" />
		<tag k="ssr:stedsnr" v="376968" />
	</node>
	<node lat="62.62571388575925" lon="6.936141672792733" id="-4882">
		<tag k="name" v="Vidånleira" />
		<tag k="natural" v="bay" />
		<tag k="ssr:stedsnr" v="390327" />
	</node>
	<node lat="62.63872222553666" lon="6.701255558194825" id="-4884">
		<tag k="name" v="Øygardsbukta" />
		<tag k="natural" v="bay" />
		<tag k="ssr:stedsnr" v="397316" />
	</node>
	<node lat="62.57990223520821" lon="7.1140004397137435" id="-4906">
		<tag k="name" v="Skorgevika" />
		<tag k="natural" v="bay" />
		<tag k="ssr:stedsnr" v="398788" />
	</node>
	<node lat="62.621588891471035" lon="6.934122229966251" id="-4929">
		<tag k="name" v="Kjellnesbukta" />
		<tag k="natural" v="bay" />
		<tag k="ssr:stedsnr" v="398875" />
	</node>
	<node lat="62.56116111325137" lon="7.15110278349263" id="-4930">
		<tag k="name" v="Daugstadbukta" />
		<tag k="natural" v="bay" />
		<tag k="ssr:stedsnr" v="398963" />
	</node>
	<node lat="62.571600004177064" lon="7.382780548797892" id="-4936">
		<tag k="name" v="Haugneset" />
		<tag k="natural" v="cape" />
		<tag k="ssr:stedsnr" v="400566" />
	</node>
	<node lat="62.590194441275415" lon="7.365877770135041" id="-4940">
		<tag k="name" v="Stranda" />
		<tag k="natural" v="beach" />
		<tag k="ssr:stedsnr" v="400689" />
	</node>
	<node lat="62.6235388874307" lon="6.901652787010482" id="-4944">
		<tag k="bay" v="fjord" />
		<tag k="name" v="Tomrefjorden" />
		<tag k="natural" v="bay" />
		<tag k="ssr:stedsnr" v="436027" />
	</node>
	<node lat="62.57556730384584" lon="7.118846248255088" id="-4954">
		<tag k="name" v="Skorgeneset" />
		<tag k="natural" v="cape" />
		<tag k="ssr:stedsnr" v="436896" />
	</node>
	<node lat="62.605498325198226" lon="7.1260506641561765" id="-4969">
		<tag k="name" v="Kråkneset" />
		<tag k="natural" v="cape" />
		<tag k="ssr:stedsnr" v="497267" />
	</node>
	<node lat="62.64026110700359" lon="6.702611110132494" id="-4975">
		<tag k="name" v="Øygardsneset" />
		<tag k="natural" v="cape" />
		<tag k="ssr:stedsnr" v="497456" />
	</node>
	<node lat="62.624992409898965" lon="7.14378904734734" id="-4982">
		<tag k="alt_name" v="Leikarnesodden" />
		<tag k="name" v="Nesaodden" />
		<tag k="natural" v="cape" />
		<tag k="ssr:stedsnr" v="497958" />
	</node>
	<node lat="62.5365361083892" lon="7.1324722165845955" id="-4993">
		<tag k="name" v="Ivabryggja" />
		<tag k="natural" v="cape" />
		<tag k="ssr:stedsnr" v="520052" />
	</node>
	<node lat="62.62341667065955" lon="7.263524998045139" id="-5008">
		<tag k="name" v="Skålhamnholmen" />
		<tag k="place" v="islet" />
		<tag k="ssr:stedsnr" v="521057" />
	</node>
	<node lat="62.61829444804761" lon="7.27158889379527" id="-5009">
		<tag k="name" v="Morteberget" />
		<tag k="natural" v="cape" />
		<tag k="ssr:stedsnr" v="521058" />
	</node>
	<node lat="62.62422221792696" lon="7.0901944416583635" id="-5011">
		<tag k="name" v="Knipå" />
		<tag k="natural" v="beach" />
		<tag k="ssr:stedsnr" v="520601" />
	</node>
	<node lat="62.64827777339946" lon="6.8087888820762625" id="-5017">
		<tag k="name" v="Korsvika" />
		<tag k="natural" v="bay" />
		<tag k="ssr:stedsnr" v="520682" />
	</node>
	<node lat="62.623541665926645" lon="7.095624992784493" id="-5025">
		<tag k="name" v="Kataholmen" />
		<tag k="place" v="islet" />
		<tag k="ssr:stedsnr" v="520884" />
	</node>
	<node lat="62.631522218512195" lon="7.167316668285714" id="-5026">
		<tag k="alt_name" v="Kårstøneset" />
		<tag k="name" v="Korsstøneset" />
		<tag k="natural" v="cape" />
		<tag k="ssr:stedsnr" v="520887" />
	</node>
	<node lat="62.61950739789333" lon="7.367102028861767" id="-5038">
		<tag k="bay" v="fjord" />
		<tag k="name" v="Romsdalsfjorden" />
		<tag k="natural" v="bay" />
		<tag k="ssr:stedsnr" v="557053" />
	</node>
	<node lat="62.53406944311099" lon="7.130405559691718" id="-5052">
		<tag k="loc_name" v="Eidhammarsbukta" />
		<tag k="name" v="Indre Eidhammarsbukta" />
		<tag k="natural" v="bay" />
		<tag k="ssr:stedsnr" v="580048" />
	</node>
	<node lat="62.599722220096425" lon="7.101811105953804" id="-5082">
		<tag k="name" v="Saltkjelneset" />
		<tag k="natural" v="cape" />
		<tag k="ssr:stedsnr" v="580780" />
	</node>
	<node lat="62.635908329412246" lon="7.080897226480714" id="-5086">
		<tag k="name" v="Vestnesbukta" />
		<tag k="natural" v="bay" />
		<tag k="ssr:stedsnr" v="580868" />
	</node>
	<node lat="62.60889444506954" lon="6.92679721301886" id="-5090">
		<tag k="name" v="Selnesbukta" />
		<tag k="natural" v="bay" />
		<tag k="ssr:stedsnr" v="580884" />
	</node>
	<node lat="62.65314166537877" lon="7.018449998306154" id="-5094">
		<tag k="name" v="Faksebukta" />
		<tag k="natural" v="bay" />
		<tag k="ssr:stedsnr" v="580918" />
	</node>
	<node lat="62.652111107958554" lon="7.004866669658766" id="-5095">
		<tag k="name" v="Midtvikneset" />
		<tag k="natural" v="cape" />
		<tag k="ssr:stedsnr" v="580920" />
	</node>
	<node lat="62.55273888464005" lon="7.150511114069554" id="-5096">
		<tag k="name" v="Brekkebukta" />
		<tag k="natural" v="bay" />
		<tag k="ssr:stedsnr" v="580961" />
	</node>
	<node lat="62.65166389035434" lon="6.744344444054192" id="-5100">
		<tag k="name" v="Storneset" />
		<tag k="natural" v="cape" />
		<tag k="ssr:stedsnr" v="580982" />
	</node>
	<node lat="62.621263891431724" lon="7.250141665460872" id="-5101">
		<tag k="name" v="Kåvika" />
		<tag k="natural" v="bay" />
		<tag k="ssr:stedsnr" v="582240" />
	</node>
	<node lat="62.617002778727326" lon="6.916602769154373" id="-5106">
		<tag k="name" v="Kjeldnesflua" />
		<tag k="natural" v="shoal" />
		<tag k="place" v="locality" />
		<tag k="ssr:stedsnr" v="596727" />
	</node>
	<node lat="62.65355833741026" lon="6.966208334842916" id="-5107">
		<tag k="name" v="Kvalen" />
		<tag k="natural" v="cape" />
		<tag k="ssr:stedsnr" v="596732" />
	</node>
	<node lat="62.615947218667515" lon="7.27253889235733" id="-5108">
		<tag k="name" v="Kormesetbukta" />
		<tag k="natural" v="bay" />
		<tag k="ssr:stedsnr" v="597840" />
	</node>
	<node lat="62.61041389021129" lon="7.118374997221207" id="-5109">
		<tag k="name" v="Storflua" />
		<tag k="natural" v="shoal" />
		<tag k="place" v="locality" />
		<tag k="ssr:stedsnr" v="597844" />
	</node>
	<node lat="62.652761932230575" lon="6.798296221554208" id="-5117">
		<tag k="name" v="Dragneset" />
		<tag k="natural" v="cape" />
		<tag k="ssr:stedsnr" v="618041" />
	</node>
	<node lat="62.65330278071797" lon="7.082611112609959" id="-5119">
		<tag k="name" v="Furneset" />
		<tag k="natural" v="cape" />
		<tag k="ssr:stedsnr" v="618008" />
	</node>
	<node lat="62.59211944631707" lon="7.368497230996287" id="-5126">
		<tag k="name" v="Hamneneset" />
		<tag k="natural" v="cape" />
		<tag k="ssr:stedsnr" v="618574" />
	</node>
	<node lat="62.582005552098074" lon="7.142658329580306" id="-5127">
		<tag k="name" v="Skjegstadneset" />
		<tag k="natural" v="cape" />
		<tag k="ssr:stedsnr" v="618896" />
	</node>
	<node lat="62.53703333335932" lon="7.131152781465672" id="-5142">
		<tag k="name" v="Ytre Eidhammarsbukta" />
		<tag k="natural" v="bay" />
		<tag k="ssr:stedsnr" v="641002" />
	</node>
	<node lat="62.54287222034254" lon="7.124880565185753" id="-5145">
		<tag k="name" v="Løvikbukta" />
		<tag k="natural" v="bay" />
		<tag k="ssr:stedsnr" v="641025" />
	</node>
	<node lat="62.535869444885954" lon="7.147566663319933" id="-5150">
		<tag k="fixme" v="consider seamark:type=rock or natural=shoal" />
		<tag k="name" v="Vortesteinen" />
		<tag k="place" v="islet" />
		<tag k="ssr:stedsnr" v="641044" />
	</node>
	<node lat="62.57478112646654" lon="7.123410908854556" id="-5167">
		<tag k="alt_name" v="Inste Skorgenesodden" />
		<tag k="name" v="Indre Skorgenesodden" />
		<tag k="natural" v="cape" />
		<tag k="ssr:stedsnr" v="641776" />
	</node>
	<node lat="62.59070555126596" lon="7.104866663268679" id="-5178">
		<tag k="name" v="Tobakkbukta" />
		<tag k="natural" v="bay" />
		<tag k="ssr:stedsnr" v="641764" />
	</node>
	<node lat="62.65102777944974" lon="6.80311110756232" id="-5184">
		<tag k="name" v="Klubbeberget" />
		<tag k="natural" v="cape" />
		<tag k="ssr:stedsnr" v="641998" />
	</node>
	<node lat="62.62367777541095" lon="7.084369444747428" id="-5185">
		<tag k="fixme" v="consider seamark:type=rock or natural=shoal" />
		<tag k="name" v="Kobbesteinen" />
		<tag k="place" v="islet" />
		<tag k="ssr:stedsnr" v="641842" />
	</node>
	<node lat="62.63306944007148" lon="6.919574990686861" id="-5188">
		<tag k="name" v="Neråsfjøra" />
		<tag k="natural" v="beach" />
		<tag k="ssr:stedsnr" v="641942" />
	</node>
	<node lat="62.60689722253665" lon="7.319574995250088" id="-5191">
		<tag k="name" v="Grandan" />
		<tag k="natural" v="beach" />
		<tag k="ssr:stedsnr" v="642068" />
	</node>
	<node lat="62.609544445217175" lon="7.123788893266845" id="-5197">
		<tag k="name" v="Litleflua" />
		<tag k="natural" v="shoal" />
		<tag k="place" v="locality" />
		<tag k="ssr:stedsnr" v="718818" />
	</node>
	<node lat="62.62555555616551" lon="6.927077784661296" id="-5198">
		<tag k="name" v="Lianesgrunnen" />
		<tag k="natural" v="shoal" />
		<tag k="place" v="locality" />
		<tag k="ssr:stedsnr" v="718748" />
	</node>
	<node lat="62.649955553330216" lon="6.873516667510986" id="-5200">
		<tag k="alt_name" v="Tomra" />
		<tag k="fixme" v="consider seamark:type=rock or natural=shoal" />
		<tag k="name" v="Skjerfluna" />
		<tag k="place" v="islet" />
		<tag k="ssr:stedsnr" v="739051" />
	</node>
	<node lat="62.620922225633805" lon="7.263424998442568" id="-5222">
		<tag k="name" v="Orvika" />
		<tag k="natural" v="bay" />
		<tag k="ssr:stedsnr" v="749666" />
	</node>
	<node lat="62.61905833619753" lon="7.078294438033131" id="-5239">
		<tag k="name" v="Kråkvika" />
		<tag k="natural" v="bay" />
		<tag k="ssr:stedsnr" v="762561" />
	</node>
	<node lat="62.61063332892643" lon="6.882072219081439" id="-5245">
		<tag k="name" v="Langnesodden" />
		<tag k="natural" v="cape" />
		<tag k="old_name" v="Langneset" />
		<tag k="ssr:stedsnr" v="762962" />
	</node>
	<node lat="62.602066670359214" lon="6.916441665864687" id="-5246">
		<tag k="name" v="Bårsnessundet" />
		<tag k="natural" v="strait" />
		<tag k="ssr:stedsnr" v="762901" />
	</node>
	<node lat="62.5267749995533" lon="7.128649992706175" id="-5267">
		<tag k="name" v="Osholmen" />
		<tag k="place" v="islet" />
		<tag k="ssr:stedsnr" v="763688" />
	</node>
	<node lat="62.591861109661295" lon="7.133966657769252" id="-5269">
		<tag k="name" v="Helsetneset" />
		<tag k="natural" v="cape" />
		<tag k="ssr:stedsnr" v="763770" />
	</node>
	<node lat="62.635974996452155" lon="7.162180564690556" id="-5275">
		<tag k="name" v="Litleholmen" />
		<tag k="place" v="islet" />
		<tag k="ssr:stedsnr" v="763864" />
	</node>
	<node lat="62.61366944027948" lon="7.304344444435906" id="-5280">
		<tag k="name" v="Vågebukta" />
		<tag k="natural" v="bay" />
		<tag k="ssr:stedsnr" v="779833" />
	</node>
	<node lat="62.630113890050545" lon="7.0960638867737975" id="-5283">
		<tag k="name" v="Hagneset" />
		<tag k="natural" v="cape" />
		<tag k="ssr:stedsnr" v="823592" />
	</node>
	<node lat="62.577299998543765" lon="7.377952785559427" id="-5286">
		<tag k="name" v="Vorpeneset" />
		<tag k="natural" v="cape" />
		<tag k="ssr:stedsnr" v="800520" />
	</node>
	<node lat="62.653427775796445" lon="7.002872228998864" id="-5289">
		<tag k="name" v="Leirvågholmen" />
		<tag k="place" v="islet" />
		<tag k="ssr:stedsnr" v="801045" />
	</node>
	<node lat="62.60333055266029" lon="6.914986114243329" id="-5290">
		<tag k="name" v="Bårsnesholmen" />
		<tag k="place" v="islet" />
		<tag k="ssr:stedsnr" v="800949" />
	</node>
	<node lat="62.6262277747783" lon="7.050994451114003" id="-5306">
		<tag k="name" v="Skavneset" />
		<tag k="natural" v="cape" />
		<tag k="ssr:stedsnr" v="801959" />
	</node>
	<node lat="62.64085277582515" lon="6.820963881356553" id="-5326">
		<tag k="name" v="Holmen" />
		<tag k="natural" v="cape" />
		<tag k="ssr:stedsnr" v="823639" />
	</node>
	<node lat="62.57017777480629" lon="7.15190832472996" id="-5330">
		<tag k="name" v="Villaneset" />
		<tag k="natural" v="cape" />
		<tag k="ssr:stedsnr" v="824772" />
	</node>
	<node lat="62.64394444343696" lon="6.818461114083037" id="-5341">
		<tag k="name" v="Reitbukta" />
		<tag k="natural" v="bay" />
		<tag k="ssr:stedsnr" v="823995" />
	</node>
	<node lat="62.64093055691802" lon="6.910169442062762" id="-5344">
		<tag k="name" v="Sjøgardsbukta" />
		<tag k="natural" v="bay" />
		<tag k="ssr:stedsnr" v="823909" />
	</node>
	<node lat="62.61141389093068" lon="7.099494436337616" id="-5359">
		<tag k="name" v="Remmemsneset" />
		<tag k="natural" v="cape" />
		<tag k="ssr:stedsnr" v="824832" />
	</node>
	<node lat="62.612286111988375" lon="7.242947214976269" id="-5370">
		<tag k="name" v="Sanden" />
		<tag k="natural" v="beach" />
		<tag k="ssr:stedsnr" v="825181" />
	</node>
	<node lat="62.62733611255625" lon="7.093686115207813" id="-5374">
		<tag k="name" v="Straumsvika" />
		<tag k="natural" v="bay" />
		<tag k="ssr:stedsnr" v="840774" />
	</node>
	<node lat="62.63889167058923" lon="6.905525005203634" id="-5375">
		<tag k="name" v="Grøttene" />
		<tag k="natural" v="shoal" />
		<tag k="place" v="locality" />
		<tag k="ssr:stedsnr" v="840818" />
	</node>
	<node lat="62.56827500098209" lon="7.122777784044906" id="-5432">
		<tag k="name" v="Bøleira" />
		<tag k="natural" v="beach" />
		<tag k="ssr:stedsnr" v="884527" />
	</node>
	<node lat="62.624300001161316" lon="7.187958332303217" id="-5433">
		<tag k="fixme" v="consider seamark:type=rock or natural=shoal" />
		<tag k="name" v="Skjæret" />
		<tag k="place" v="islet" />
		<tag k="ssr:stedsnr" v="884528" />
	</node>
	<node lat="62.61815555647299" lon="7.0543805522251795" id="-5441">
		<tag k="name" v="Grøtneset" />
		<tag k="natural" v="cape" />
		<tag k="ssr:stedsnr" v="884779" />
	</node>
	<node lat="62.52758611127289" lon="7.144366673461157" id="-5456">
		<tag k="name" v="Steinskobukta" />
		<tag k="natural" v="bay" />
		<tag k="ssr:stedsnr" v="945043" />
	</node>
	<node lat="62.53109722522466" lon="7.146463888364027" id="-5457">
		<tag k="fixme" v="consider seamark:type=rock or natural=shoal" />
		<tag k="name" v="Klokkesteinen" />
		<tag k="place" v="islet" />
		<tag k="ssr:stedsnr" v="945045" />
	</node>
	<node lat="62.59435277735571" lon="6.926872217614555" id="-5474">
		<tag k="name" v="Stranda" />
		<tag k="natural" v="beach" />
		<tag k="ssr:stedsnr" v="945566" />
	</node>
	<node lat="62.6085361149119" lon="7.13087500491485" id="-5476">
		<tag k="name" v="Kråknesbukta" />
		<tag k="natural" v="bay" />
		<tag k="ssr:stedsnr" v="945814" />
	</node>
	<node lat="62.62176666353511" lon="7.026527777051748" id="-5481">
		<tag k="name" v="Stokkelandsbukta" />
		<tag k="natural" v="bay" />
		<tag k="ssr:stedsnr" v="945917" />
	</node>
	<node lat="62.65373610728639" lon="7.064602773472104" id="-5484">
		<tag k="name" v="Trollbåten" />
		<tag k="natural" v="cape" />
		<tag k="ssr:stedsnr" v="945839" />
	</node>
	<node lat="62.62233055729343" lon="7.095505546818602" id="-5486">
		<tag k="name" v="Hellandsbukta" />
		<tag k="natural" v="bay" />
		<tag k="ssr:stedsnr" v="945858" />
	</node>
	<node lat="62.65238055210486" lon="6.995238891453511" id="-5487">
		<tag k="name" v="Leirvågen" />
		<tag k="natural" v="bay" />
		<tag k="ssr:stedsnr" v="945942" />
	</node>
	<node lat="62.64752499792723" lon="6.9162805571720645" id="-5489">
		<tag k="name" v="Storvikbukta" />
		<tag k="natural" v="bay" />
		<tag k="ssr:stedsnr" v="945951" />
	</node>
	<node lat="62.55102499708993" lon="7.150847213234254" id="-5492">
		<tag k="name" v="Fonnaneset" />
		<tag k="natural" v="cape" />
		<tag k="ssr:stedsnr" v="945977" />
	</node>
	<node lat="62.60233611072638" lon="7.364816670835659" id="-5496">
		<tag k="name" v="Purkevikneset" />
		<tag k="natural" v="cape" />
		<tag k="ssr:stedsnr" v="946657" />
	</node>
	<node lat="62.64743055627634" lon="6.824247230381683" id="-5499">
		<tag k="name" v="Holmeflua" />
		<tag k="natural" v="shoal" />
		<tag k="place" v="locality" />
		<tag k="ssr:stedsnr" v="961833" />
	</node>
	<node lat="62.59921925596251" lon="6.911549643931436" id="-5513">
		<tag k="name" v="Revet" />
		<tag k="natural" v="shoal" />
		<tag k="place" v="locality" />
		<tag k="ssr:stedsnr" v="1078420" />
	</node>
</osm>
