<?xml version="1.0" encoding="UTF-8"?>
<osm generator="osmapis" version="0.6">
	<node id="-34559" lat="60.4407197163" lon="12.3087445749">
		<tag k="fixme" v="consider boundary=protected_area and relevant protect_class if not nature reserve" />
		<tag k="leisure" v="nature_reserve" />
		<tag k="name" v="Skasberget naturreservat" />
		<tag k="ssr:stedsnr" v="976255" />
	</node>
	<node id="-34587" lat="60.5009026313" lon="12.3240544961">
		<tag k="fixme" v="consider boundary=protected_area and relevant protect_class if not nature reserve" />
		<tag k="leisure" v="nature_reserve" />
		<tag k="name" v="Maliskjæra naturreservat" />
		<tag k="ssr:stedsnr" v="1074739" />
	</node>
	<node id="-33880" lat="60.4299638925" lon="12.0526138857">
		<tag k="fixme" v="consider boundary=protected_area and relevant protect_class if not nature reserve" />
		<tag k="leisure" v="nature_reserve" />
		<tag k="name" v="Gardsjøen naturreservat" />
		<tag k="ssr:stedsnr" v="390810" />
	</node>
	<node id="-32470" lat="60.4772638848" lon="12.6064194495">
		<tag k="historic" v="boundary_stone" />
		<tag k="man_made" v="cairn" />
		<tag k="name" v="Vegrøysa" />
		<tag k="old_name" v="Vej Røset" />
		<tag k="place" v="locality" />
		<tag k="ssr:stedsnr" v="474722" />
	</node>
	<node id="-32846" lat="60.370724998" lon="12.5699083412">
		<tag k="historic" v="boundary_stone" />
		<tag k="man_made" v="cairn" />
		<tag k="name" v="Helleklintsrøysa" />
		<tag k="old_name" v="Helle Klindt Røset" />
		<tag k="place" v="locality" />
		<tag k="ssr:stedsnr" v="717450" />
	</node>
	<node id="-34608" lat="60.3473491103" lon="12.5452593352">
		<tag k="historic" v="boundary_stone" />
		<tag k="man_made" v="cairn" />
		<tag k="name" v="Nøkkelvatnet" />
		<tag k="place" v="locality" />
		<tag k="ssr:stedsnr" v="777417" />
	</node>
	<node id="-34607" lat="60.2812249378" lon="12.5044036122">
		<tag k="historic" v="boundary_stone" />
		<tag k="man_made" v="cairn" />
		<tag k="name" v="Rotnemorøysa" />
		<tag k="old_name" v="Rotnesmoe Røset" />
		<tag k="place" v="locality" />
		<tag k="ssr:stedsnr" v="535451" />
	</node>
	<node id="-34606" lat="60.3424815842" lon="12.5356656767">
		<tag k="historic" v="boundary_stone" />
		<tag k="man_made" v="cairn" />
		<tag k="name" v="Søndre Nøkkelvassrøysa" />
		<tag k="old_name" v="Sødre Nyklevands Røset" />
		<tag k="place" v="locality" />
		<tag k="ssr:stedsnr" v="777424" />
	</node>
	<node id="-34605" lat="60.512744286" lon="12.6068771234">
		<tag k="historic" v="boundary_stone" />
		<tag k="man_made" v="cairn" />
		<tag k="name" v="Baksjøbergrøysa" />
		<tag k="old_name" v="Bagsiøbergs Røset" />
		<tag k="place" v="locality" />
		<tag k="ssr:stedsnr" v="838734" />
	</node>
	<node id="-34604" lat="60.4438347819" lon="12.6062523521">
		<tag k="historic" v="boundary_stone" />
		<tag k="man_made" v="cairn" />
		<tag k="name" v="Baksjørøysa" />
		<tag k="old_name" v="Sødre Bagsiøe Røset;Lille Bagsiøe Røset" />
		<tag k="place" v="locality" />
		<tag k="ssr:stedsnr" v="595682" />
	</node>
	<node id="-34603" lat="60.3495954309" lon="12.5476390623">
		<tag k="historic" v="boundary_stone" />
		<tag k="man_made" v="cairn" />
		<tag k="name" v="Nordre Nøkkelvassrøysa" />
		<tag k="old_name" v="Nordre Nyklevands Røset" />
		<tag k="place" v="locality" />
		<tag k="ssr:stedsnr" v="838460" />
	</node>
	<node id="-34538" lat="60.439436112" lon="12.6062222307">
		<tag k="historic" v="boundary_stone" />
		<tag k="man_made" v="cairn" />
		<tag k="name" v="Søre Baksjøen" />
		<tag k="old_name" v="Sødre Bagsiøe" />
		<tag k="place" v="locality" />
		<tag k="ssr:stedsnr" v="960700" />
	</node>
	<node id="-32423" lat="60.4983194467" lon="11.9969361086">
		<tag k="fixme" v="consider boundary=protected_area and relevant protect_class if not nature reserve" />
		<tag k="leisure" v="nature_reserve" />
		<tag k="name" v="Rønnåsmyra naturreservat" />
		<tag k="ssr:stedsnr" v="451852" />
	</node>
</osm>
