<?xml version="1.0" encoding="UTF-8"?>
<osm version="0.6" generator="osmapis">
	<node lat="60.494211110406255" lon="12.378349991917563" id="-19625">
		<tag k="name" v="Rønningsmyra" />
		<tag k="natural" v="wetland" />
		<tag k="ssr:stedsnr" v="40305" />
	</node>
	<node lat="60.44659166398747" lon="12.38370833311055" id="-19627">
		<tag k="name" v="Buttbråtåmyra" />
		<tag k="natural" v="wetland" />
		<tag k="ssr:stedsnr" v="40420" />
	</node>
	<node lat="60.41130277846663" lon="12.585255554993134" id="-19629">
		<tag k="name" v="Geittjennsmyra" />
		<tag k="natural" v="wetland" />
		<tag k="ssr:stedsnr" v="40830" />
	</node>
	<node lat="60.507677779363945" lon="11.99110833974549" id="-19637">
		<tag k="name" v="Bjørkåsen" />
		<tag k="place" v="locality" />
		<tag k="ssr:stedsnr" v="41934" />
	</node>
	<node lat="60.477625002217025" lon="12.117913889352124" id="-19640">
		<tag k="name" v="Heierberget" />
		<tag k="place" v="locality" />
		<tag k="ssr:stedsnr" v="41801" />
	</node>
	<node lat="60.31574166996287" lon="12.226855552357708" id="-19644">
		<tag k="name" v="Bubergsslåtta" />
		<tag k="place" v="locality" />
		<tag k="ssr:stedsnr" v="42594" />
	</node>
	<node lat="60.406486112933244" lon="12.236258334709536" id="-19646">
		<tag k="name" v="Kalvmyra" />
		<tag k="natural" v="wetland" />
		<tag k="ssr:stedsnr" v="237538" />
	</node>
	<node lat="60.37251666439206" lon="12.155188886385169" id="-19647">
		<tag k="name" v="Høymyra" />
		<tag k="natural" v="wetland" />
		<tag k="ssr:stedsnr" v="237911" />
	</node>
	<node lat="60.357652779496995" lon="12.151708336660478" id="-19651">
		<tag k="name" v="Krokmyrholmene" />
		<tag k="place" v="locality" />
		<tag k="ssr:stedsnr" v="237967" />
	</node>
	<node lat="60.359761111138525" lon="12.195088881127457" id="-19658">
		<tag k="name" v="Høgtidsbergmyra" />
		<tag k="natural" v="wetland" />
		<tag k="ssr:stedsnr" v="239685" />
	</node>
	<node lat="60.470263884901726" lon="12.30506666790527" id="-19660">
		<tag k="name" v="Sollimyra" />
		<tag k="natural" v="wetland" />
		<tag k="ssr:stedsnr" v="55317" />
	</node>
	<node lat="60.46316388677993" lon="12.34229166724515" id="-19661">
		<tag k="name" v="Skriverholen" />
		<tag k="place" v="locality" />
		<tag k="ssr:stedsnr" v="55321" />
	</node>
	<node lat="60.35969444116333" lon="12.259524991130546" id="-19662">
		<tag k="name" v="Stormyra" />
		<tag k="natural" v="wetland" />
		<tag k="ssr:stedsnr" v="55673" />
	</node>
	<node lat="60.43579999812372" lon="11.875755553428554" id="-19664">
		<tag k="name" v="Fuglemyra" />
		<tag k="natural" v="wetland" />
		<tag k="ssr:stedsnr" v="240040" />
	</node>
	<node lat="60.40574999596165" lon="12.476844443344346" id="-19666">
		<tag k="name" v="Rundmyra" />
		<tag k="natural" v="wetland" />
		<tag k="ssr:stedsnr" v="240043" />
	</node>
	<node lat="60.35204722090383" lon="12.514136103973522" id="-19668">
		<tag k="name" v="Mastvingmyra" />
		<tag k="natural" v="wetland" />
		<tag k="ssr:stedsnr" v="57117" />
	</node>
	<node lat="60.39708055646131" lon="12.47361389756111" id="-19670">
		<tag k="name" v="Bjønnmyrholtet" />
		<tag k="place" v="locality" />
		<tag k="ssr:stedsnr" v="240081" />
	</node>
	<node lat="60.41004166985225" lon="12.383525005276875" id="-19673">
		<tag k="name" v="Tjyrubrennmyra" />
		<tag k="natural" v="wetland" />
		<tag k="ssr:stedsnr" v="57414" />
	</node>
	<node lat="60.51883333758931" lon="12.498097226914988" id="-19674">
		<tag k="name" v="Bulkasnårramyra" />
		<tag k="natural" v="wetland" />
		<tag k="ssr:stedsnr" v="57920" />
	</node>
	<node lat="60.50535278237235" lon="12.511374992656743" id="-19675">
		<tag k="name" v="Mæginahå" />
		<tag k="place" v="locality" />
		<tag k="ssr:stedsnr" v="57923" />
	</node>
	<node lat="60.36582500168651" lon="11.957558326179313" id="-19678">
		<tag k="name" v="Domtjennsmyrene" />
		<tag k="natural" v="wetland" />
		<tag k="ssr:stedsnr" v="58021" />
	</node>
	<node lat="60.36186111205382" lon="11.850166674326438" id="-19681">
		<tag k="name" v="Rundmyra" />
		<tag k="natural" v="wetland" />
		<tag k="ssr:stedsnr" v="59292" />
	</node>
	<node lat="60.38282222115497" lon="12.229774992260532" id="-19682">
		<tag k="name" v="Smalmyra" />
		<tag k="natural" v="wetland" />
		<tag k="ssr:stedsnr" v="240549" />
	</node>
	<node lat="60.440863888457606" lon="12.56769443684049" id="-19689">
		<tag k="name" v="Kampiso" />
		<tag k="natural" v="wetland" />
		<tag k="ssr:stedsnr" v="241654" />
	</node>
	<node lat="60.392783329074035" lon="12.18507778528364" id="-19701">
		<tag k="name" v="Langmyra" />
		<tag k="natural" v="wetland" />
		<tag k="ssr:stedsnr" v="67394" />
	</node>
	<node lat="60.41990833081129" lon="12.104188891675015" id="-19723">
		<tag k="name" v="Hagamyra" />
		<tag k="natural" v="wetland" />
		<tag k="ssr:stedsnr" v="87776" />
	</node>
	<node lat="60.469266671029686" lon="12.592494438236129" id="-19725">
		<tag k="name" v="Såienså" />
		<tag k="natural" v="wetland" />
		<tag k="ssr:stedsnr" v="248091" />
	</node>
	<node lat="60.45247222625211" lon="12.418552778633774" id="-19732">
		<tag k="name" v="Øvre Roiso" />
		<tag k="natural" v="wetland" />
		<tag k="ssr:stedsnr" v="101018" />
	</node>
	<node lat="60.4714305554838" lon="12.514352781936415" id="-19734">
		<tag k="name" v="Koivikkomyra" />
		<tag k="natural" v="wetland" />
		<tag k="ssr:stedsnr" v="100978" />
	</node>
	<node lat="60.42807777611067" lon="12.375633341476425" id="-19737">
		<tag k="name" v="Tuvmyra" />
		<tag k="natural" v="wetland" />
		<tag k="ssr:stedsnr" v="101415" />
	</node>
	<node lat="60.33280000224163" lon="12.223727785701287" id="-19740">
		<tag k="name" v="Aursåsmyra" />
		<tag k="natural" v="wetland" />
		<tag k="ssr:stedsnr" v="101671" />
	</node>
	<node lat="60.37806666600719" lon="11.900350003360993" id="-19750">
		<tag k="name" v="Fuglemyra" />
		<tag k="natural" v="wetland" />
		<tag k="ssr:stedsnr" v="103110" />
	</node>
	<node lat="60.483055558479265" lon="12.260561106069789" id="-19752">
		<tag k="name" v="Frautjennsmyra" />
		<tag k="natural" v="wetland" />
		<tag k="ssr:stedsnr" v="103610" />
	</node>
	<node lat="60.42403333756559" lon="12.424741661045232" id="-19753">
		<tag k="name" v="Bandiasmyra" />
		<tag k="natural" v="wetland" />
		<tag k="ssr:stedsnr" v="249014" />
	</node>
	<node lat="60.501533334733" lon="12.4325527783203" id="-19758">
		<tag k="name" v="Merketjennsmyra" />
		<tag k="natural" v="wetland" />
		<tag k="ssr:stedsnr" v="103891" />
	</node>
	<node lat="60.482005555861626" lon="12.449633329461443" id="-19759">
		<tag k="name" v="Torvmyra" />
		<tag k="natural" v="wetland" />
		<tag k="ssr:stedsnr" v="103893" />
	</node>
	<node lat="60.47345555541175" lon="12.262855550525474" id="-19768">
		<tag k="name" v="Frautjennsmyra" />
		<tag k="natural" v="wetland" />
		<tag k="ssr:stedsnr" v="249072" />
	</node>
	<node lat="60.46661388764614" lon="12.225436103540734" id="-19771">
		<tag k="alt_name" v="Vestre Fuglemyra" />
		<tag k="name" v="Fuglemyra" />
		<tag k="natural" v="wetland" />
		<tag k="ssr:stedsnr" v="249086" />
	</node>
	<node lat="60.37763611080773" lon="12.502177769674288" id="-19772">
		<tag k="name" v="Kumyra" />
		<tag k="natural" v="wetland" />
		<tag k="ssr:stedsnr" v="249181" />
	</node>
	<node lat="60.37711111290819" lon="12.199980555793234" id="-19800">
		<tag k="name" v="Måsåmyra" />
		<tag k="natural" v="wetland" />
		<tag k="ssr:stedsnr" v="118482" />
	</node>
	<node lat="60.420513892588744" lon="12.219277783378148" id="-19802">
		<tag k="name" v="Frysjøberget" />
		<tag k="place" v="locality" />
		<tag k="ssr:stedsnr" v="118496" />
	</node>
	<node lat="60.35745833272201" lon="12.20499999574437" id="-19803">
		<tag k="name" v="Åreithølet" />
		<tag k="natural" v="wetland" />
		<tag k="ssr:stedsnr" v="118647" />
	</node>
	<node lat="60.50701666623453" lon="12.024775004250902" id="-19804">
		<tag k="name" v="Reinmyra" />
		<tag k="natural" v="wetland" />
		<tag k="ssr:stedsnr" v="250915" />
	</node>
	<node lat="60.385447222410754" lon="12.48183888914925" id="-19808">
		<tag k="name" v="Gåstjennsmyra" />
		<tag k="natural" v="wetland" />
		<tag k="ssr:stedsnr" v="127056" />
	</node>
	<node lat="60.3390361081518" lon="12.212997225072087" id="-19818">
		<tag k="name" v="Jonasmyra" />
		<tag k="natural" v="wetland" />
		<tag k="ssr:stedsnr" v="127316" />
	</node>
	<node lat="60.33930000326857" lon="12.197925003861979" id="-19837">
		<tag k="name" v="Åmyra" />
		<tag k="natural" v="wetland" />
		<tag k="ssr:stedsnr" v="161655" />
	</node>
	<node lat="60.38168055215203" lon="12.472224997089672" id="-19839">
		<tag k="name" v="Skallbergsbråten" />
		<tag k="place" v="locality" />
		<tag k="ssr:stedsnr" v="162151" />
	</node>
	<node lat="60.45189999970925" lon="12.470044435462741" id="-19844">
		<tag k="name" v="Øvre Sagmyra" />
		<tag k="natural" v="wetland" />
		<tag k="ssr:stedsnr" v="163007" />
	</node>
	<node lat="60.52712222234527" lon="12.407069448415387" id="-19845">
		<tag k="name" v="Kampebrennmyra" />
		<tag k="natural" v="wetland" />
		<tag k="ssr:stedsnr" v="162922" />
	</node>
	<node lat="60.379977777910774" lon="12.379655550458315" id="-19846">
		<tag k="historic" v="shieling" />
		<tag k="name" v="Søndre Vallesætra" />
		<tag k="place" v="locality" />
		<tag k="ssr:stedsnr" v="163408" />
	</node>
	<node lat="60.50653610841802" lon="12.580438889268036" id="-19848">
		<tag k="alt_name" v="Nælkæso" />
		<tag k="name" v="Nälkeso" />
		<tag k="natural" v="wetland" />
		<tag k="ssr:stedsnr" v="163560" />
	</node>
	<node lat="60.49331666338714" lon="12.511438882534655" id="-19852">
		<tag k="name" v="Østre Lauvbergstjennsmyra" />
		<tag k="natural" v="wetland" />
		<tag k="ssr:stedsnr" v="163907" />
	</node>
	<node lat="60.49218055941369" lon="12.45244721469465" id="-19853">
		<tag k="name" v="Bjønnmyra" />
		<tag k="natural" v="wetland" />
		<tag k="ssr:stedsnr" v="163911" />
	</node>
	<node lat="60.40282777884838" lon="12.455283341481959" id="-19855">
		<tag k="name" v="Økshammermyra" />
		<tag k="natural" v="wetland" />
		<tag k="ssr:stedsnr" v="176104" />
	</node>
	<node lat="60.463588889877414" lon="12.32123055022502" id="-19858">
		<tag k="name" v="Sjumannsposten" />
		<tag k="natural" v="wetland" />
		<tag k="ssr:stedsnr" v="176309" />
	</node>
	<node lat="60.47370832988757" lon="12.341788893248577" id="-19859">
		<tag k="name" v="Mortenstjennsmyrene" />
		<tag k="natural" v="wetland" />
		<tag k="ssr:stedsnr" v="176310" />
	</node>
	<node lat="60.35541110813568" lon="12.260411118568042" id="-19864">
		<tag k="name" v="Måsamyra" />
		<tag k="natural" v="wetland" />
		<tag k="ssr:stedsnr" v="176704" />
	</node>
	<node lat="60.3969666669938" lon="12.23219166654291" id="-19865">
		<tag k="name" v="Tømmermyra" />
		<tag k="natural" v="wetland" />
		<tag k="ssr:stedsnr" v="177557" />
	</node>
	<node lat="60.401297226678984" lon="12.23851943584852" id="-19866">
		<tag k="name" v="Måsåmyra" />
		<tag k="natural" v="wetland" />
		<tag k="ssr:stedsnr" v="177564" />
	</node>
	<node lat="60.394752780311094" lon="12.464961103111124" id="-19875">
		<tag k="name" v="Solmyra" />
		<tag k="natural" v="wetland" />
		<tag k="ssr:stedsnr" v="180069" />
	</node>
	<node lat="60.453547218159244" lon="12.577305552711202" id="-19877">
		<tag k="name" v="Torvmyra" />
		<tag k="natural" v="wetland" />
		<tag k="ssr:stedsnr" v="180670" />
	</node>
	<node lat="60.44550000370059" lon="12.439644438140261" id="-19879">
		<tag k="name" v="Sætermyra" />
		<tag k="natural" v="wetland" />
		<tag k="ssr:stedsnr" v="188003" />
	</node>
	<node lat="60.531847222078056" lon="12.045544451255653" id="-19921">
		<tag k="landuse" v="meadow" />
		<tag k="name" v="Holmtuva" />
		<tag k="ssr:stedsnr" v="269854" />
	</node>
	<node lat="60.49469722529061" lon="12.511208340590565" id="-19933">
		<tag k="name" v="Bessfarsholen" />
		<tag k="place" v="locality" />
		<tag k="ssr:stedsnr" v="224902" />
	</node>
	<node lat="60.49847499758763" lon="12.446766657896639" id="-19934">
		<tag k="name" v="Bjørnholen" />
		<tag k="place" v="locality" />
		<tag k="ssr:stedsnr" v="224907" />
	</node>
	<node lat="60.37366389176737" lon="12.431861112485079" id="-19936">
		<tag k="name" v="Furubergtjennsmyra" />
		<tag k="natural" v="wetland" />
		<tag k="ssr:stedsnr" v="237106" />
	</node>
	<node lat="60.40578333430769" lon="12.434258335829528" id="-19937">
		<tag k="name" v="Morttjennsmyra" />
		<tag k="natural" v="wetland" />
		<tag k="ssr:stedsnr" v="237081" />
	</node>
	<node lat="60.39576944173033" lon="12.26341111660823" id="-19942">
		<tag k="name" v="Sinkmyra" />
		<tag k="natural" v="wetland" />
		<tag k="ssr:stedsnr" v="237534" />
	</node>
	<node lat="60.44917777818369" lon="12.230749993370996" id="-19943">
		<tag k="name" v="Øvre Rømmegrøthullet" />
		<tag k="natural" v="wetland" />
		<tag k="ssr:stedsnr" v="237591" />
	</node>
	<node lat="60.50411666380819" lon="12.300669438606047" id="-19948">
		<tag k="name" v="Haradolpa" />
		<tag k="natural" v="wetland" />
		<tag k="ssr:stedsnr" v="239282" />
	</node>
	<node lat="60.35913888900993" lon="11.835322213272882" id="-19954">
		<tag k="historic" v="shieling" />
		<tag k="name" v="Nordfjellsætra" />
		<tag k="place" v="locality" />
		<tag k="ssr:stedsnr" v="241301" />
	</node>
	<node lat="60.444275004029116" lon="12.293952776012851" id="-19957">
		<tag k="name" v="Finntjennsmyra" />
		<tag k="natural" v="wetland" />
		<tag k="ssr:stedsnr" v="241693" />
	</node>
	<node lat="60.40721667110007" lon="11.99282222149195" id="-19959">
		<tag k="name" v="Bringsrud" />
		<tag k="place" v="locality" />
		<tag k="ssr:stedsnr" v="241880" />
	</node>
	<node lat="60.42591944412066" lon="12.144797224745606" id="-19961">
		<tag k="name" v="Tysjømyra" />
		<tag k="natural" v="wetland" />
		<tag k="ssr:stedsnr" v="451660" />
	</node>
	<node lat="60.439138885504114" lon="12.577194439926648" id="-19967">
		<tag k="name" v="Gaskmyrane" />
		<tag k="natural" v="wetland" />
		<tag k="ssr:stedsnr" v="248010" />
	</node>
	<node lat="60.47380277440788" lon="12.493138893901104" id="-19982">
		<tag k="name" v="Kaldkjeldmyra" />
		<tag k="natural" v="wetland" />
		<tag k="ssr:stedsnr" v="282976" />
	</node>
	<node lat="60.42568888877773" lon="12.579327784832431" id="-19990">
		<tag k="name" v="Gadanso" />
		<tag k="natural" v="wetland" />
		<tag k="ssr:stedsnr" v="284804" />
	</node>
	<node lat="60.41380555775394" lon="11.918847219827583" id="-19992">
		<tag k="name" v="Vangsmyra" />
		<tag k="natural" v="wetland" />
		<tag k="ssr:stedsnr" v="285126" />
	</node>
	<node lat="60.39471110793898" lon="12.169750002536126" id="-19999">
		<tag k="name" v="Grådden" />
		<tag k="place" v="locality" />
		<tag k="ssr:stedsnr" v="298886" />
	</node>
	<node lat="60.462736108160904" lon="11.912883326321348" id="-20002">
		<tag k="historic" v="shieling" />
		<tag k="name" v="Skurvsætra" />
		<tag k="place" v="locality" />
		<tag k="ssr:stedsnr" v="300080" />
	</node>
	<node lat="60.48271388703452" lon="11.915072219684946" id="-20003">
		<tag k="name" v="Allemannsmyra" />
		<tag k="natural" v="wetland" />
		<tag k="ssr:stedsnr" v="300087" />
	</node>
	<node lat="60.463008332547375" lon="12.276149992158192" id="-20004">
		<tag k="name" v="Gammelsætermyra" />
		<tag k="natural" v="wetland" />
		<tag k="ssr:stedsnr" v="300602" />
	</node>
	<node lat="60.417486108950364" lon="11.845899992863112" id="-20005">
		<tag k="name" v="Høymyra" />
		<tag k="natural" v="wetland" />
		<tag k="old_name" v="Høimyra" />
		<tag k="ssr:stedsnr" v="300572" />
	</node>
	<node lat="60.43359722107236" lon="11.879455562183301" id="-20010">
		<tag k="name" v="Vestre Korsmyra" />
		<tag k="natural" v="wetland" />
		<tag k="ssr:stedsnr" v="301201" />
	</node>
	<node lat="60.4507444428642" lon="12.545983334732739" id="-20011">
		<tag k="landuse" v="meadow" />
		<tag k="name" v="Sivinitu" />
		<tag k="ssr:stedsnr" v="301658" />
	</node>
	<node lat="60.44484444387116" lon="12.557622226886172" id="-20012">
		<tag k="name" v="Mastarholen" />
		<tag k="place" v="locality" />
		<tag k="ssr:stedsnr" v="301661" />
	</node>
	<node lat="60.52320555286816" lon="12.158955549348885" id="-20013">
		<tag k="name" v="Koiemyra" />
		<tag k="natural" v="wetland" />
		<tag k="ssr:stedsnr" v="302771" />
	</node>
	<node lat="60.46199721994366" lon="12.505836108069795" id="-20014">
		<tag k="name" v="Kalskjeldholtet" />
		<tag k="place" v="locality" />
		<tag k="ssr:stedsnr" v="464969" />
	</node>
	<node lat="60.4831444403759" lon="12.389786117447002" id="-20015">
		<tag k="name" v="Damtjennsmyra" />
		<tag k="natural" v="wetland" />
		<tag k="ssr:stedsnr" v="465305" />
	</node>
	<node lat="60.448036108318064" lon="12.363613891646356" id="-20018">
		<tag k="name" v="Knappastormyra" />
		<tag k="natural" v="wetland" />
		<tag k="ssr:stedsnr" v="465389" />
	</node>
	<node lat="60.47553611079726" lon="12.573069449266844" id="-20019">
		<tag k="name" v="Bilismyra" />
		<tag k="natural" v="wetland" />
		<tag k="ssr:stedsnr" v="465565" />
	</node>
	<node lat="60.42725278072511" lon="12.436569447990832" id="-20020">
		<tag k="name" v="Lortmyra" />
		<tag k="natural" v="wetland" />
		<tag k="ssr:stedsnr" v="309007" />
	</node>
	<node lat="60.39267777882832" lon="12.253958332594138" id="-20023">
		<tag k="alt_name" v="Råmyra, nordre" />
		<tag k="name" v="Nordre Råmyra" />
		<tag k="natural" v="wetland" />
		<tag k="ssr:stedsnr" v="309043" />
	</node>
	<node lat="60.366036114607404" lon="12.4139583254173" id="-20039">
		<tag k="name" v="Siggastjennsmyra" />
		<tag k="natural" v="wetland" />
		<tag k="ssr:stedsnr" v="466142" />
	</node>
	<node lat="60.50282499941804" lon="12.369388895478528" id="-20043">
		<tag k="name" v="Åsmyra" />
		<tag k="natural" v="wetland" />
		<tag k="ssr:stedsnr" v="466272" />
	</node>
	<node lat="60.44898333562053" lon="12.306447225837474" id="-20045">
		<tag k="name" v="Sjumannsmyra" />
		<tag k="natural" v="wetland" />
		<tag k="ssr:stedsnr" v="466393" />
	</node>
	<node lat="60.38323055345253" lon="12.386188886125694" id="-20050">
		<tag k="name" v="Rundmyrhullet" />
		<tag k="natural" v="wetland" />
		<tag k="ssr:stedsnr" v="467479" />
	</node>
	<node lat="60.50536388786234" lon="12.421722223238515" id="-20051">
		<tag k="name" v="Tørrmyra" />
		<tag k="natural" v="wetland" />
		<tag k="ssr:stedsnr" v="467895" />
	</node>
	<node lat="60.435008333390726" lon="12.379994447835628" id="-20057">
		<tag k="landuse" v="meadow" />
		<tag k="name" v="Knappaslåtta" />
		<tag k="ssr:stedsnr" v="343360" />
	</node>
	<node lat="60.42664444435117" lon="12.35916665835874" id="-20059">
		<tag k="name" v="Maultmyra" />
		<tag k="natural" v="wetland" />
		<tag k="ssr:stedsnr" v="343395" />
	</node>
	<node lat="60.35803055971894" lon="12.43378055123171" id="-20064">
		<tag k="name" v="Viggenlefto" />
		<tag k="place" v="locality" />
		<tag k="ssr:stedsnr" v="344116" />
	</node>
	<node lat="60.45274166896763" lon="12.496899996043105" id="-20066">
		<tag k="name" v="Rådelsmyra" />
		<tag k="natural" v="wetland" />
		<tag k="ssr:stedsnr" v="345021" />
	</node>
	<node lat="60.52364166408039" lon="12.550872227341971" id="-20070">
		<tag k="name" v="Rundmyra" />
		<tag k="natural" v="wetland" />
		<tag k="ssr:stedsnr" v="345565" />
	</node>
	<node lat="60.47446389309889" lon="12.274199996014138" id="-20071">
		<tag k="name" v="Lensmannsmyra" />
		<tag k="natural" v="wetland" />
		<tag k="ssr:stedsnr" v="345568" />
	</node>
	<node lat="60.493755559086686" lon="12.473658338073625" id="-20074">
		<tag k="name" v="Hagalampsmyra" />
		<tag k="natural" v="wetland" />
		<tag k="ssr:stedsnr" v="345971" />
	</node>
	<node lat="60.46216944261751" lon="12.514299993154273" id="-20075">
		<tag k="name" v="Haukåsmyra" />
		<tag k="natural" v="wetland" />
		<tag k="ssr:stedsnr" v="345973" />
	</node>
	<node lat="60.46973889109242" lon="12.396311115184469" id="-20080">
		<tag k="name" v="Frautjennsmyrene" />
		<tag k="natural" v="wetland" />
		<tag k="ssr:stedsnr" v="358304" />
	</node>
	<node lat="60.375780552829134" lon="12.24759166336799" id="-20082">
		<tag k="name" v="Stormyra" />
		<tag k="natural" v="wetland" />
		<tag k="ssr:stedsnr" v="358516" />
	</node>
	<node lat="60.456827780224074" lon="12.196674997339414" id="-20083">
		<tag k="name" v="Vollstadberget" />
		<tag k="old_name" v="Voldstadberget" />
		<tag k="place" v="locality" />
		<tag k="ssr:stedsnr" v="358608" />
	</node>
	<node lat="60.436102774544146" lon="12.147727774518698" id="-20084">
		<tag k="name" v="Tysjøholene" />
		<tag k="place" v="locality" />
		<tag k="ssr:stedsnr" v="358922" />
	</node>
	<node lat="60.44998333643943" lon="12.175105548327577" id="-20086">
		<tag k="name" v="Nordnesset" />
		<tag k="place" v="locality" />
		<tag k="ssr:stedsnr" v="358999" />
	</node>
	<node lat="60.39969722625037" lon="12.418838895198204" id="-20089">
		<tag k="historic" v="shieling" />
		<tag k="name" v="Skjelvervollen" />
		<tag k="place" v="locality" />
		<tag k="ssr:stedsnr" v="360076" />
	</node>
	<node lat="60.40245833742615" lon="12.461133333097395" id="-20090">
		<tag k="name" v="Dammyra" />
		<tag k="natural" v="wetland" />
		<tag k="ssr:stedsnr" v="479081" />
	</node>
	<node lat="60.38270555706628" lon="12.426202781255952" id="-20091">
		<tag k="name" v="Krokmyra" />
		<tag k="natural" v="wetland" />
		<tag k="ssr:stedsnr" v="479089" />
	</node>
	<node lat="60.30952222237944" lon="12.492894444615326" id="-20093">
		<tag k="name" v="Sågæru" />
		<tag k="place" v="locality" />
		<tag k="ssr:stedsnr" v="479199" />
	</node>
	<node lat="60.32708611501484" lon="12.47447499948816" id="-20102">
		<tag k="name" v="Ladagådaso" />
		<tag k="natural" v="wetland" />
		<tag k="ssr:stedsnr" v="370285" />
	</node>
	<node lat="60.37030555168195" lon="11.912586103299859" id="-20103">
		<tag k="alt_name" v="Mjågmyra, s;Mjågmyra, søndre" />
		<tag k="name" v="Søndre Mjågmyra" />
		<tag k="natural" v="wetland" />
		<tag k="ssr:stedsnr" v="370402" />
	</node>
	<node lat="60.39256110808163" lon="11.899650007380544" id="-20107">
		<tag k="name" v="Sætermyra" />
		<tag k="natural" v="wetland" />
		<tag k="ssr:stedsnr" v="370416" />
	</node>
	<node lat="60.46209999706846" lon="12.366530562437939" id="-20116">
		<tag k="name" v="Rønningen" />
		<tag k="place" v="locality" />
		<tag k="ssr:stedsnr" v="479318" />
	</node>
	<node lat="60.456872223944536" lon="12.349041661905135" id="-20118">
		<tag k="name" v="Knapparønningen" />
		<tag k="place" v="locality" />
		<tag k="ssr:stedsnr" v="479322" />
	</node>
	<node lat="60.47131388863506" lon="12.298655562212836" id="-20119">
		<tag k="historic" v="shieling" />
		<tag k="name" v="Haugastuggua" />
		<tag k="place" v="locality" />
		<tag k="ssr:stedsnr" v="479328" />
	</node>
	<node lat="60.46684999781702" lon="12.29525555415291" id="-20120">
		<tag k="name" v="Tjernmyrene" />
		<tag k="natural" v="wetland" />
		<tag k="ssr:stedsnr" v="479341" />
	</node>
	<node lat="60.43621666499185" lon="12.294219452810971" id="-20121">
		<tag k="name" v="Haugmyra" />
		<tag k="natural" v="wetland" />
		<tag k="ssr:stedsnr" v="479345" />
	</node>
	<node lat="60.4338611100091" lon="12.297538892003972" id="-20122">
		<tag k="name" v="Starrmyra" />
		<tag k="natural" v="wetland" />
		<tag k="ssr:stedsnr" v="479346" />
	</node>
	<node lat="60.37806388565703" lon="12.26761110896541" id="-20127">
		<tag k="name" v="Jønsøkmyra" />
		<tag k="natural" v="wetland" />
		<tag k="ssr:stedsnr" v="480535" />
	</node>
	<node lat="60.398916666693125" lon="11.939616667023877" id="-20130">
		<tag k="name" v="Lemyra" />
		<tag k="natural" v="wetland" />
		<tag k="ssr:stedsnr" v="482083" />
	</node>
	<node lat="60.40935833734701" lon="12.394502773093784" id="-20133">
		<tag k="landuse" v="quarry" />
		<tag k="name" v="Gjevertgrustaket" />
		<tag k="ssr:stedsnr" v="482444" />
	</node>
	<node lat="60.46104722322009" lon="12.284641662709861" id="-20135">
		<tag k="historic" v="shieling" />
		<tag k="name" v="Gammelvollen" />
		<tag k="place" v="locality" />
		<tag k="ssr:stedsnr" v="482592" />
	</node>
	<node lat="60.43634444107732" lon="12.545247221302803" id="-20144">
		<tag k="name" v="Gomalsmyra" />
		<tag k="natural" v="wetland" />
		<tag k="ssr:stedsnr" v="483691" />
	</node>
	<node lat="60.45066666603401" lon="11.91351389613395" id="-20145">
		<tag k="name" v="Lemyra" />
		<tag k="natural" v="wetland" />
		<tag k="ssr:stedsnr" v="484092" />
	</node>
	<node lat="60.466749999641316" lon="12.513563892807674" id="-20148">
		<tag k="name" v="Brusmyra" />
		<tag k="natural" v="wetland" />
		<tag k="ssr:stedsnr" v="403976" />
	</node>
	<node lat="60.486363890581806" lon="12.350158335488038" id="-20152">
		<tag k="name" v="Austmyra" />
		<tag k="natural" v="wetland" />
		<tag k="ssr:stedsnr" v="404285" />
	</node>
	<node lat="60.48908333771112" lon="12.378172219866036" id="-20154">
		<tag k="name" v="Revmyra" />
		<tag k="natural" v="wetland" />
		<tag k="ssr:stedsnr" v="404292" />
	</node>
	<node lat="60.49485000158411" lon="12.401875004462683" id="-20155">
		<tag k="name" v="Brennmyra" />
		<tag k="natural" v="wetland" />
		<tag k="ssr:stedsnr" v="404295" />
	</node>
	<node lat="60.45048889164898" lon="12.395308327684539" id="-20156">
		<tag k="name" v="Rundsteinsmyra" />
		<tag k="natural" v="wetland" />
		<tag k="ssr:stedsnr" v="404381" />
	</node>
	<node lat="60.42241388608551" lon="12.372477782233279" id="-20157">
		<tag k="name" v="Jannmyra" />
		<tag k="natural" v="wetland" />
		<tag k="ssr:stedsnr" v="404393" />
	</node>
	<node lat="60.51009722256691" lon="12.1927888933652" id="-20158">
		<tag k="name" v="Bjønnstein" />
		<tag k="natural" v="stone" />
		<tag k="ssr:stedsnr" v="404612" />
	</node>
	<node lat="60.39016388728806" lon="12.550033340117066" id="-20161">
		<tag k="name" v="Porkalamyra" />
		<tag k="natural" v="wetland" />
		<tag k="ssr:stedsnr" v="404795" />
	</node>
	<node lat="60.350294448927755" lon="12.458655551712896" id="-20165">
		<tag k="name" v="Gjeddtjennsmyra" />
		<tag k="natural" v="wetland" />
		<tag k="ssr:stedsnr" v="405186" />
	</node>
	<node lat="60.35351666574677" lon="12.439902776112055" id="-20166">
		<tag k="name" v="Søndre Avmyra" />
		<tag k="natural" v="wetland" />
		<tag k="ssr:stedsnr" v="405188" />
	</node>
	<node lat="60.529916662788004" lon="12.44047778022964" id="-20167">
		<tag k="name" v="Skjultjennsmyra" />
		<tag k="natural" v="wetland" />
		<tag k="ssr:stedsnr" v="405948" />
	</node>
	<node lat="60.49495277347468" lon="12.148347216723188" id="-20168">
		<tag k="name" v="Monsrudberget" />
		<tag k="place" v="locality" />
		<tag k="ssr:stedsnr" v="405837" />
	</node>
	<node lat="60.4822499986692" lon="12.119338890871383" id="-20169">
		<tag k="name" v="Prestefallet" />
		<tag k="place" v="locality" />
		<tag k="ssr:stedsnr" v="405838" />
	</node>
	<node lat="60.40935277958024" lon="12.433480562574834" id="-20174">
		<tag k="name" v="Breimyra" />
		<tag k="natural" v="wetland" />
		<tag k="ssr:stedsnr" v="419090" />
	</node>
	<node lat="60.455463887502404" lon="12.357530561431938" id="-20175">
		<tag k="name" v="Knappakverna" />
		<tag k="place" v="locality" />
		<tag k="ssr:stedsnr" v="419326" />
	</node>
	<node lat="60.472075000230745" lon="12.302233326145247" id="-20177">
		<tag k="historic" v="shieling" />
		<tag k="name" v="Myrstuggua" />
		<tag k="place" v="locality" />
		<tag k="ssr:stedsnr" v="419330" />
	</node>
	<node lat="60.46737777535644" lon="12.219430555598809" id="-20178">
		<tag k="name" v="Nysæterberget" />
		<tag k="place" v="locality" />
		<tag k="ssr:stedsnr" v="419603" />
	</node>
	<node lat="60.46463611175496" lon="12.339508336579886" id="-20179">
		<tag k="name" v="Gråbeinmyra" />
		<tag k="natural" v="wetland" />
		<tag k="ssr:stedsnr" v="419335" />
	</node>
	<node lat="60.45581388980454" lon="12.191038881476134" id="-20182">
		<tag k="name" v="Fjøsmyra" />
		<tag k="natural" v="wetland" />
		<tag k="ssr:stedsnr" v="419598" />
	</node>
	<node lat="60.34579722476093" lon="12.52738334097144" id="-20184">
		<tag k="name" v="Vennersholen" />
		<tag k="place" v="locality" />
		<tag k="ssr:stedsnr" v="419905" />
	</node>
	<node lat="60.413211107083015" lon="12.157177775075153" id="-20185">
		<tag k="name" v="Sjøli" />
		<tag k="place" v="locality" />
		<tag k="ssr:stedsnr" v="419934" />
	</node>
	<node lat="60.39170278055517" lon="12.536888882628242" id="-20187">
		<tag k="name" v="Kalvmyra" />
		<tag k="natural" v="wetland" />
		<tag k="ssr:stedsnr" v="421829" />
	</node>
	<node lat="60.4454249995829" lon="11.972263881407677" id="-20194">
		<tag k="name" v="Åsermyra" />
		<tag k="natural" v="wetland" />
		<tag k="ssr:stedsnr" v="423899" />
	</node>
	<node lat="60.482158335411576" lon="12.031761112427981" id="-20214">
		<tag k="name" v="Jara" />
		<tag k="place" v="locality" />
		<tag k="ssr:stedsnr" v="431646" />
	</node>
	<node lat="60.413200003138826" lon="11.871111111456104" id="-20229">
		<tag k="name" v="Stormyra" />
		<tag k="natural" v="wetland" />
		<tag k="ssr:stedsnr" v="431736" />
	</node>
	<node lat="60.44106111545144" lon="11.97139443626241" id="-20232">
		<tag k="alt_name" v="Dummyra" />
		<tag k="name" v="Dommyra" />
		<tag k="natural" v="wetland" />
		<tag k="ssr:stedsnr" v="431754" />
	</node>
	<node lat="60.507200004299285" lon="12.119630559655471" id="-20255">
		<tag k="name" v="Stormyra" />
		<tag k="natural" v="wetland" />
		<tag k="ssr:stedsnr" v="492930" />
	</node>
	<node lat="60.42354999862333" lon="11.874913891183748" id="-20277">
		<tag k="name" v="Kumyra" />
		<tag k="natural" v="wetland" />
		<tag k="ssr:stedsnr" v="673697" />
	</node>
	<node lat="60.48920278155628" lon="12.511911113766745" id="-20281">
		<tag k="name" v="Andersmyra" />
		<tag k="natural" v="wetland" />
		<tag k="ssr:stedsnr" v="674089" />
	</node>
	<node lat="60.37571666265343" lon="11.918313884801893" id="-20283">
		<tag k="alt_name" v="Mjågmyra, nordre" />
		<tag k="name" v="Nordre Mjågmyra" />
		<tag k="natural" v="wetland" />
		<tag k="ssr:stedsnr" v="674328" />
	</node>
	<node lat="60.33186389110108" lon="12.489680552174764" id="-20286">
		<tag k="name" v="Spellmannsholtet" />
		<tag k="place" v="locality" />
		<tag k="ssr:stedsnr" v="465215" />
	</node>
	<node lat="60.43129166484306" lon="12.351688890279068" id="-20289">
		<tag k="name" v="Skasberget" />
		<tag k="place" v="locality" />
		<tag k="ssr:stedsnr" v="465407" />
	</node>
	<node lat="60.50078055985033" lon="12.250536104549042" id="-20290">
		<tag k="name" v="Breisletta" />
		<tag k="natural" v="wetland" />
		<tag k="ssr:stedsnr" v="465623" />
	</node>
	<node lat="60.52598889173595" lon="12.255847221560499" id="-20291">
		<tag k="name" v="Dalamyra" />
		<tag k="natural" v="wetland" />
		<tag k="ssr:stedsnr" v="465711" />
	</node>
	<node lat="60.546325003168214" lon="12.219163886417777" id="-20294">
		<tag k="name" v="Luserudmyra" />
		<tag k="natural" v="wetland" />
		<tag k="ssr:stedsnr" v="674692" />
	</node>
	<node lat="60.38236666492578" lon="12.570427778864524" id="-20296">
		<tag k="name" v="Kjerringbråten" />
		<tag k="place" v="locality" />
		<tag k="ssr:stedsnr" v="465764" />
	</node>
	<node lat="60.41896944416585" lon="11.921649994324042" id="-20297">
		<tag k="name" v="Mosemyra" />
		<tag k="natural" v="wetland" />
		<tag k="ssr:stedsnr" v="466111" />
	</node>
	<node lat="60.35129999758008" lon="12.463125001764636" id="-20298">
		<tag k="name" v="Langmyra" />
		<tag k="natural" v="wetland" />
		<tag k="ssr:stedsnr" v="466212" />
	</node>
	<node lat="60.52349444802479" lon="12.546816669552042" id="-20302">
		<tag k="name" v="Kloppmyra" />
		<tag k="natural" v="wetland" />
		<tag k="ssr:stedsnr" v="466630" />
	</node>
	<node lat="60.52973889198868" lon="12.222638897162005" id="-20309">
		<tag k="name" v="Rusten" />
		<tag k="place" v="locality" />
		<tag k="ssr:stedsnr" v="467519" />
	</node>
	<node lat="60.37059166589877" lon="12.136322220711662" id="-20317">
		<tag k="name" v="Eftasmyra" />
		<tag k="natural" v="wetland" />
		<tag k="ssr:stedsnr" v="480919" />
	</node>
	<node lat="60.42983055778846" lon="12.320486118914664" id="-20322">
		<tag k="alt_name" v="Økslemyra" />
		<tag k="name" v="Øktarmyra" />
		<tag k="natural" v="wetland" />
		<tag k="ssr:stedsnr" v="491015" />
	</node>
	<node lat="60.368375000519215" lon="12.014752785398507" id="-20339">
		<tag k="name" v="Nesmyra" />
		<tag k="natural" v="wetland" />
		<tag k="ssr:stedsnr" v="492322" />
	</node>
	<node lat="60.44833888550783" lon="12.208536115684527" id="-20340">
		<tag k="name" v="Hvilesteinen" />
		<tag k="natural" v="stone" />
		<tag k="ssr:stedsnr" v="492672" />
	</node>
	<node lat="60.33717777829478" lon="12.492891662440801" id="-20354">
		<tag k="name" v="Oggonlampsmyrene" />
		<tag k="natural" v="wetland" />
		<tag k="ssr:stedsnr" v="525226" />
	</node>
	<node lat="60.38277777764176" lon="11.861297224867819" id="-20358">
		<tag k="name" v="Skogermyra" />
		<tag k="natural" v="wetland" />
		<tag k="ssr:stedsnr" v="526204" />
	</node>
	<node lat="60.494613885067736" lon="12.566611106688514" id="-20361">
		<tag k="fixme" v="multiple name tags, choose one and add the other to alt_name" />
		<tag k="name" v="Torvmyra;Idabiansuo" />
		<tag k="natural" v="wetland" />
		<tag k="ssr:stedsnr" v="526620" />
	</node>
	<node lat="60.37652222568936" lon="12.568313895586588" id="-20362">
		<tag k="name" v="Vellingmyra" />
		<tag k="natural" v="wetland" />
		<tag k="ssr:stedsnr" v="526785" />
	</node>
	<node lat="60.42641111002237" lon="12.42384444000889" id="-20363">
		<tag k="name" v="Tårnmyra" />
		<tag k="natural" v="wetland" />
		<tag k="ssr:stedsnr" v="527072" />
	</node>
	<node lat="60.36433055304884" lon="12.444336116862447" id="-20364">
		<tag k="name" v="Karibråten" />
		<tag k="place" v="locality" />
		<tag k="ssr:stedsnr" v="527204" />
	</node>
	<node lat="60.49381388880049" lon="12.502202770591559" id="-20366">
		<tag k="name" v="Vestre Lauvbergstjennsmyra" />
		<tag k="natural" v="wetland" />
		<tag k="ssr:stedsnr" v="527903" />
	</node>
	<node lat="60.4623027759635" lon="12.497358334474924" id="-20368">
		<tag k="name" v="Løvberget" />
		<tag k="place" v="locality" />
		<tag k="ssr:stedsnr" v="527977" />
	</node>
	<node lat="60.45798611251619" lon="12.515936116950785" id="-20369">
		<tag k="name" v="Tjernsmyra" />
		<tag k="natural" v="wetland" />
		<tag k="ssr:stedsnr" v="527983" />
	</node>
	<node lat="60.40147499887769" lon="12.409997219152192" id="-20370">
		<tag k="historic" v="shieling" />
		<tag k="name" v="Gammelvollen" />
		<tag k="place" v="locality" />
		<tag k="ssr:stedsnr" v="540102" />
	</node>
	<node lat="60.372522222856155" lon="12.407616657739714" id="-20372">
		<tag k="name" v="Klintmyra" />
		<tag k="natural" v="wetland" />
		<tag k="ssr:stedsnr" v="540120" />
	</node>
	<node lat="60.475091665933164" lon="12.384063880716552" id="-20373">
		<tag k="name" v="Hemtjennsmyra" />
		<tag k="natural" v="wetland" />
		<tag k="ssr:stedsnr" v="540317" />
	</node>
	<node lat="60.460986109957716" lon="12.34962221601457" id="-20374">
		<tag k="name" v="Skrivarmyra" />
		<tag k="natural" v="wetland" />
		<tag k="ssr:stedsnr" v="540318" />
	</node>
	<node lat="60.459486111492176" lon="12.354913886334408" id="-20375">
		<tag k="name" v="Grøndalen" />
		<tag k="place" v="locality" />
		<tag k="ssr:stedsnr" v="540325" />
	</node>
	<node lat="60.45242222554635" lon="12.280675006777939" id="-20376">
		<tag k="name" v="Søndre Revmyra" />
		<tag k="natural" v="wetland" />
		<tag k="ssr:stedsnr" v="540586" />
	</node>
	<node lat="60.369083329840336" lon="12.1284999939589" id="-20377">
		<tag k="name" v="Pixrudhola" />
		<tag k="place" v="locality" />
		<tag k="ssr:stedsnr" v="540909" />
	</node>
	<node lat="60.45066666814275" lon="12.119719440132544" id="-20378">
		<tag k="name" v="Rauåsen" />
		<tag k="place" v="locality" />
		<tag k="ssr:stedsnr" v="540930" />
	</node>
	<node lat="60.38042499566382" lon="12.204919453070591" id="-20380">
		<tag k="name" v="Søndre Mobakksmyra" />
		<tag k="natural" v="wetland" />
		<tag k="ssr:stedsnr" v="543509" />
	</node>
	<node lat="60.384983332314114" lon="12.204630560488576" id="-20381">
		<tag k="name" v="Mobakksmyra" />
		<tag k="natural" v="wetland" />
		<tag k="ssr:stedsnr" v="543510" />
	</node>
	<node lat="60.361274476185535" lon="12.139141169053111" id="-20390">
		<tag k="name" v="Krokmyra" />
		<tag k="natural" v="wetland" />
		<tag k="ssr:stedsnr" v="552310" />
	</node>
	<node lat="60.51178055388026" lon="12.095797220268167" id="-20406">
		<tag k="name" v="Steinsmyra" />
		<tag k="natural" v="wetland" />
		<tag k="ssr:stedsnr" v="694182" />
	</node>
	<node lat="60.34402499873452" lon="12.462205548144226" id="-20415">
		<tag k="name" v="Gjeddtjennsmyra" />
		<tag k="natural" v="wetland" />
		<tag k="ssr:stedsnr" v="586213" />
	</node>
	<node lat="60.525088888075935" lon="12.306758341124894" id="-20418">
		<tag k="name" v="Purusberget" />
		<tag k="place" v="locality" />
		<tag k="ssr:stedsnr" v="586254" />
	</node>
	<node lat="60.44852500069384" lon="12.357313893503903" id="-20419">
		<tag k="name" v="Svartberget" />
		<tag k="place" v="locality" />
		<tag k="ssr:stedsnr" v="586411" />
	</node>
	<node lat="60.501230555580506" lon="12.280788882839362" id="-20420">
		<tag k="name" v="Stormyra" />
		<tag k="natural" v="wetland" />
		<tag k="ssr:stedsnr" v="586490" />
	</node>
	<node lat="60.368252776647935" lon="11.861697225529706" id="-20424">
		<tag k="name" v="Svarttjennsmyra" />
		<tag k="natural" v="wetland" />
		<tag k="ssr:stedsnr" v="587256" />
	</node>
	<node lat="60.42395555602724" lon="12.414263880376318" id="-20430">
		<tag k="name" v="Skjærmyra" />
		<tag k="natural" v="wetland" />
		<tag k="ssr:stedsnr" v="588070" />
	</node>
	<node lat="60.407530556130084" lon="12.341744448447187" id="-20432">
		<tag k="name" v="Løvbergsmyra" />
		<tag k="natural" v="wetland" />
		<tag k="ssr:stedsnr" v="588428" />
	</node>
	<node lat="60.5043888848106" lon="12.428188887583245" id="-20435">
		<tag k="name" v="Påskemyra" />
		<tag k="natural" v="wetland" />
		<tag k="ssr:stedsnr" v="588903" />
	</node>
	<node lat="60.5174583340482" lon="12.425338892835805" id="-20436">
		<tag k="name" v="Kønelen" />
		<tag k="place" v="locality" />
		<tag k="ssr:stedsnr" v="588909" />
	</node>
	<node lat="60.52483610885437" lon="12.114630559948827" id="-20437">
		<tag k="name" v="Pukstein" />
		<tag k="natural" v="stone" />
		<tag k="ssr:stedsnr" v="787777" />
	</node>
	<node lat="60.460027773800874" lon="12.305880556132227" id="-20440">
		<tag k="historic" v="shieling" />
		<tag k="name" v="Ødegårdsætra" />
		<tag k="place" v="locality" />
		<tag k="ssr:stedsnr" v="601303" />
	</node>
	<node lat="60.366938885262755" lon="12.55600278118987" id="-20442">
		<tag k="name" v="Kalsjøbergsmyra" />
		<tag k="natural" v="wetland" />
		<tag k="ssr:stedsnr" v="601819" />
	</node>
	<node lat="60.446188892428005" lon="12.160802779773443" id="-20443">
		<tag k="alt_name" v="Sætersberget" />
		<tag k="name" v="Sæterberget" />
		<tag k="place" v="locality" />
		<tag k="ssr:stedsnr" v="601926" />
	</node>
	<node lat="60.35651666413599" lon="12.469633338950931" id="-20448">
		<tag k="name" v="Pilliso" />
		<tag k="place" v="locality" />
		<tag k="ssr:stedsnr" v="603118" />
	</node>
	<node lat="60.408683330985816" lon="12.485902773309299" id="-20450">
		<tag k="name" v="Bonsbråten" />
		<tag k="place" v="locality" />
		<tag k="ssr:stedsnr" v="604034" />
	</node>
	<node lat="60.43611111190064" lon="12.600152777824778" id="-20451">
		<tag k="name" v="Damvika" />
		<tag k="natural" v="wetland" />
		<tag k="ssr:stedsnr" v="604700" />
	</node>
</osm>
