<?xml version="1.0" encoding="UTF-8"?>
<osm version="0.6" generator="osmapis">
	<node lat="60.312675002580875" lon="12.48431667106438" id="-15330">
		<tag k="name" v="Kåddabaika" />
		<tag k="ssr:stedsnr" v="6165" />
		<tag k="waterway" v="stream" />
	</node>
	<node lat="60.40109166341114" lon="12.573686113197164" id="-15331">
		<tag k="name" v="Lomvika" />
		<tag k="natural" v="bay" />
		<tag k="ssr:stedsnr" v="6056" />
	</node>
	<node lat="60.36617499968978" lon="11.789022217225606" id="-15339">
		<tag k="alt_name" v="Kuggerudsåa" />
		<tag k="name" v="Kugga" />
		<tag k="ssr:stedsnr" v="6906" />
		<tag k="waterway" v="river" />
	</node>
	<node lat="60.507536108504894" lon="12.574555562538738" id="-15341">
		<tag k="name" v="Abbortjennet" />
		<tag k="natural" v="water" />
		<tag k="ssr:stedsnr" v="7703" />
	</node>
	<node lat="60.51627777657662" lon="12.06231943941953" id="-15345">
		<tag k="name" v="Høgmotjennet" />
		<tag k="natural" v="water" />
		<tag k="ssr:stedsnr" v="26223" />
	</node>
	<node lat="60.47843055602558" lon="12.382377770911148" id="-15348">
		<tag k="name" v="Kvernbekken" />
		<tag k="ssr:stedsnr" v="40313" />
		<tag k="waterway" v="stream" />
	</node>
	<node lat="60.47811388934927" lon="12.558797224269773" id="-15350">
		<tag k="name" v="Vekalamp" />
		<tag k="natural" v="water" />
		<tag k="ssr:stedsnr" v="40604" />
	</node>
	<node lat="60.38764166761029" lon="12.48081110384185" id="-15352">
		<tag k="name" v="Gåstjennet" />
		<tag k="natural" v="water" />
		<tag k="ssr:stedsnr" v="41113" />
	</node>
	<node lat="60.48700555136254" lon="12.593794436373331" id="-15354">
		<tag k="name" v="Kanalen" />
		<tag k="ssr:stedsnr" v="41603" />
		<tag k="waterway" v="stream" />
	</node>
	<node lat="60.51211944234259" lon="12.524916672329688" id="-15355">
		<tag k="name" v="Gjersåvika" />
		<tag k="natural" v="bay" />
		<tag k="ssr:stedsnr" v="41607" />
	</node>
	<node lat="60.51381388533761" lon="12.553024992861385" id="-15356">
		<tag k="name" v="Svarttjennet" />
		<tag k="natural" v="water" />
		<tag k="ssr:stedsnr" v="41612" />
	</node>
	<node lat="60.49334999905958" lon="12.15995277482883" id="-15358">
		<tag k="name" v="Lundmyrhølet" />
		<tag k="natural" v="water" />
		<tag k="ssr:stedsnr" v="41800" />
		<tag k="water" v="pond" />
	</node>
	<node lat="60.46798055900325" lon="12.36083333267887" id="-15360">
		<tag k="name" v="Haugsfossen" />
		<tag k="natural" v="waterfall" />
		<tag k="ssr:stedsnr" v="237319" />
	</node>
	<node lat="60.46330833352353" lon="12.358811113347912" id="-15361">
		<tag k="name" v="Kløftfossen" />
		<tag k="natural" v="waterfall" />
		<tag k="ssr:stedsnr" v="237323" />
	</node>
	<node lat="60.54414166668398" lon="12.205575005875554" id="-15364">
		<tag k="name" v="Rådeltjenna" />
		<tag k="natural" v="water" />
		<tag k="ssr:stedsnr" v="42474" />
		<tag k="water" v="lake" />
	</node>
	<node lat="60.447502778624646" lon="12.137702772690785" id="-15371">
		<tag k="name" v="Heltbekken" />
		<tag k="ssr:stedsnr" v="237937" />
		<tag k="waterway" v="stream" />
	</node>
	<node lat="60.50819721813178" lon="12.165500003114229" id="-15374">
		<tag k="name" v="Jannåoset" />
		<tag k="natural" v="bay" />
		<tag k="ssr:stedsnr" v="46013" />
	</node>
	<node lat="60.41064721911626" lon="11.862569445267253" id="-15378">
		<tag k="name" v="Bjerkesætertjenna" />
		<tag k="natural" v="water" />
		<tag k="ssr:stedsnr" v="239571" />
		<tag k="water" v="lake" />
	</node>
	<node lat="60.375294448740966" lon="12.455641663121225" id="-15381">
		<tag k="name" v="Rimplamp" />
		<tag k="natural" v="water" />
		<tag k="ssr:stedsnr" v="55105" />
	</node>
	<node lat="60.36053333167653" lon="12.553233328138981" id="-15385">
		<tag k="name" v="Kalsjøbekken" />
		<tag k="ssr:stedsnr" v="55913" />
		<tag k="waterway" v="stream" />
	</node>
	<node lat="60.35711944318281" lon="12.50608889319169" id="-15391">
		<tag k="name" v="Paskalamp" />
		<tag k="natural" v="water" />
		<tag k="ssr:stedsnr" v="57121" />
	</node>
	<node lat="60.45337499806271" lon="11.888172228868125" id="-15393">
		<tag k="name" v="Byertjennet" />
		<tag k="natural" v="water" />
		<tag k="ssr:stedsnr" v="57073" />
	</node>
	<node lat="60.40013333402526" lon="12.574952771718078" id="-15399">
		<tag k="name" v="Midtnabben" />
		<tag k="natural" v="cape" />
		<tag k="ssr:stedsnr" v="57812" />
	</node>
	<node lat="60.41619721976733" lon="12.194597228164369" id="-15405">
		<tag k="name" v="Kartabborholmen" />
		<tag k="place" v="islet" />
		<tag k="ssr:stedsnr" v="240571" />
	</node>
	<node lat="60.449658332791756" lon="11.965844442028729" id="-15406">
		<tag k="name" v="Risbergsbekken" />
		<tag k="ssr:stedsnr" v="241106" />
		<tag k="waterway" v="stream" />
	</node>
	<node lat="60.449066669142475" lon="11.910694443729863" id="-15408">
		<tag k="name" v="Lemyrtjennet" />
		<tag k="natural" v="water" />
		<tag k="ssr:stedsnr" v="241113" />
	</node>
	<node lat="60.472863888396915" lon="12.35568888046808" id="-15414">
		<tag k="name" v="Nersjøen" />
		<tag k="natural" v="water" />
		<tag k="ssr:stedsnr" v="67112" />
	</node>
	<node lat="60.468830556917986" lon="12.395830560624734" id="-15415">
		<tag k="name" v="Frautjennet" />
		<tag k="natural" v="water" />
		<tag k="ssr:stedsnr" v="67118" />
	</node>
	<node lat="60.4408055600527" lon="12.399391660555294" id="-15416">
		<tag k="name" v="Bårderudsbekken" />
		<tag k="ssr:stedsnr" v="67137" />
		<tag k="waterway" v="stream" />
	</node>
	<node lat="60.47988611343888" lon="12.261169438195253" id="-15419">
		<tag k="name" v="Frautjenna" />
		<tag k="natural" v="water" />
		<tag k="ssr:stedsnr" v="67092" />
		<tag k="water" v="lake" />
	</node>
	<node lat="60.498308333948096" lon="12.340502774865996" id="-15421">
		<tag k="name" v="Peppervika" />
		<tag k="natural" v="bay" />
		<tag k="ssr:stedsnr" v="67427" />
	</node>
	<node lat="60.344736115433854" lon="12.205813886102945" id="-15422">
		<tag k="name" v="Østersjøen" />
		<tag k="natural" v="water" />
		<tag k="ssr:stedsnr" v="67326" />
	</node>
	<node lat="60.40587222186653" lon="11.840438897168289" id="-15429">
		<tag k="name" v="Skurvbekken" />
		<tag k="ssr:stedsnr" v="67840" />
		<tag k="waterway" v="stream" />
	</node>
	<node lat="60.44648333252752" lon="12.12178888264226" id="-15439">
		<tag k="name" v="Lindtjennet" />
		<tag k="natural" v="water" />
		<tag k="ssr:stedsnr" v="67742" />
	</node>
	<node lat="60.46996666730576" lon="12.527711113585585" id="-15446">
		<tag k="name" v="Fisketjennsfløyta" />
		<tag k="place" v="locality" />
		<tag k="ssr:stedsnr" v="248088" />
	</node>
	<node lat="60.45521666786027" lon="12.539552769262185" id="-15449">
		<tag k="name" v="Løvhaugsåa" />
		<tag k="ssr:stedsnr" v="248124" />
		<tag k="waterway" v="river" />
	</node>
	<node lat="60.45638610958495" lon="12.483913884244863" id="-15455">
		<tag k="name" v="Hemtjennet" />
		<tag k="natural" v="water" />
		<tag k="ssr:stedsnr" v="100967" />
	</node>
	<node lat="60.386663886247156" lon="12.421700004207635" id="-15457">
		<tag k="name" v="Sundet" />
		<tag k="natural" v="strait" />
		<tag k="ssr:stedsnr" v="101115" />
	</node>
	<node lat="60.37994444263271" lon="12.51075555032912" id="-15466">
		<tag k="name" v="Dammikkalamp" />
		<tag k="natural" v="water" />
		<tag k="ssr:stedsnr" v="102170" />
		<tag k="water" v="pond" />
	</node>
	<node lat="60.439669441908144" lon="12.514627772666252" id="-15471">
		<tag k="name" v="Baskabutti" />
		<tag k="natural" v="water" />
		<tag k="ssr:stedsnr" v="103014" />
		<tag k="water" v="pond" />
	</node>
	<node lat="60.41981666736626" lon="11.906197225580476" id="-15473">
		<tag k="name" v="Oppåkersæterfløyta" />
		<tag k="natural" v="water" />
		<tag k="ssr:stedsnr" v="103111" />
		<tag k="water" v="lake" />
	</node>
	<node lat="60.41052499786943" lon="12.458608327594977" id="-15477">
		<tag k="name" v="Sandsjøbekken" />
		<tag k="ssr:stedsnr" v="249032" />
		<tag k="waterway" v="stream" />
	</node>
	<node lat="60.40298333377957" lon="12.401438894077735" id="-15478">
		<tag k="name" v="Huldretjenn" />
		<tag k="natural" v="water" />
		<tag k="ssr:stedsnr" v="249036" />
	</node>
	<node lat="60.493319444490965" lon="12.505380553283072" id="-15479">
		<tag k="name" v="Nedre Lauvbergstjennet" />
		<tag k="natural" v="water" />
		<tag k="ssr:stedsnr" v="103888" />
	</node>
	<node lat="60.49330000301663" lon="12.356630547647491" id="-15486">
		<tag k="name" v="Kvernbekken" />
		<tag k="ssr:stedsnr" v="249060" />
		<tag k="waterway" v="stream" />
	</node>
	<node lat="60.49451666299943" lon="12.287375001658909" id="-15487">
		<tag k="name" v="Morttjennet" />
		<tag k="natural" v="water" />
		<tag k="ssr:stedsnr" v="249062" />
	</node>
	<node lat="60.48993889043468" lon="12.433794444296774" id="-15488">
		<tag k="name" v="Elgsmyrtjenna" />
		<tag k="natural" v="water" />
		<tag k="ssr:stedsnr" v="249065" />
		<tag k="water" v="lake" />
	</node>
	<node lat="60.48236389152648" lon="12.41191943563721" id="-15489">
		<tag k="fixme" v="multiple name tags, choose one and add the other to alt_name" />
		<tag k="name" v="Elgsmyrbekken;Hesjemyrbekken" />
		<tag k="ssr:stedsnr" v="249066" />
		<tag k="waterway" v="stream" />
	</node>
	<node lat="60.48391111082219" lon="12.540041671425739" id="-15491">
		<tag k="name" v="Åja" />
		<tag k="natural" v="water" />
		<tag k="ssr:stedsnr" v="249077" />
	</node>
	<node lat="60.49818060901987" lon="12.539655108323885" id="-15492">
		<tag k="fixme" v="multiple name tags, choose one and add the other to alt_name" />
		<tag k="name" v="Rotbergsjøen;Mellom-Røgden" />
		<tag k="natural" v="water" />
		<tag k="ssr:stedsnr" v="249078" />
		<tag k="water" v="lake" />
	</node>
	<node lat="60.47336388850357" lon="11.872113883809012" id="-15503">
		<tag k="name" v="Hakasjøen" />
		<tag k="natural" v="water" />
		<tag k="ssr:stedsnr" v="249629" />
	</node>
	<node lat="60.43421388937932" lon="11.98260277100875" id="-15505">
		<tag k="name" v="Domma" />
		<tag k="ssr:stedsnr" v="249670" />
		<tag k="waterway" v="stream" />
	</node>
	<node lat="60.53305820832687" lon="12.193645081870702" id="-15510">
		<tag k="alt_name" v="Grautsjøen, s" />
		<tag k="name" v="Søndre Grautsjøen" />
		<tag k="natural" v="water" />
		<tag k="ssr:stedsnr" v="249890" />
		<tag k="water" v="lake" />
	</node>
	<node lat="60.4463777746878" lon="12.212774993071928" id="-15514">
		<tag k="name" v="Brutjennet" />
		<tag k="natural" v="water" />
		<tag k="ssr:stedsnr" v="115413" />
	</node>
	<node lat="60.5195361095403" lon="12.449199991834407" id="-15517">
		<tag k="alt_name" v="Dvalatjennet" />
		<tag k="name" v="Dvaladammen" />
		<tag k="natural" v="water" />
		<tag k="ssr:stedsnr" v="250713" />
	</node>
	<node lat="60.41760555382762" lon="12.187583330716855" id="-15523">
		<tag k="name" v="Granvasan" />
		<tag k="natural" v="cape" />
		<tag k="ssr:stedsnr" v="118495" />
	</node>
	<node lat="60.46509722447727" lon="12.467824995603543" id="-15531">
		<tag k="name" v="Kverntjennet" />
		<tag k="natural" v="water" />
		<tag k="ssr:stedsnr" v="127093" />
	</node>
	<node lat="60.37071110841587" lon="12.342174999165104" id="-15532">
		<tag k="name" v="Grindholmen" />
		<tag k="place" v="islet" />
		<tag k="ssr:stedsnr" v="127217" />
	</node>
	<node lat="60.35143834593006" lon="12.490550486335595" id="-15535">
		<tag k="name" v="Kjerkesjøen" />
		<tag k="natural" v="water" />
		<tag k="ssr:stedsnr" v="127256" />
		<tag k="water" v="lake" />
	</node>
	<node lat="60.30186666777481" lon="12.489538897853267" id="-15539">
		<tag k="name" v="Pillisbekken" />
		<tag k="ssr:stedsnr" v="127153" />
		<tag k="waterway" v="stream" />
	</node>
	<node lat="60.42177500252955" lon="11.867213891706523" id="-15544">
		<tag k="name" v="Saltjennsbekken" />
		<tag k="ssr:stedsnr" v="127744" />
		<tag k="waterway" v="stream" />
	</node>
	<node lat="60.446511112995324" lon="12.133466665621777" id="-15546">
		<tag k="name" v="Vabekken" />
		<tag k="ssr:stedsnr" v="128739" />
		<tag k="waterway" v="stream" />
	</node>
	<node lat="60.52156388750559" lon="12.389336111919702" id="-15547">
		<tag k="name" v="Fiskedammen" />
		<tag k="natural" v="water" />
		<tag k="ssr:stedsnr" v="128689" />
	</node>
	<node lat="60.53884999752335" lon="12.361625007175453" id="-15551">
		<tag k="name" v="Aurbekken" />
		<tag k="ssr:stedsnr" v="129975" />
		<tag k="waterway" v="stream" />
	</node>
	<node lat="60.374311109170435" lon="12.035738890182635" id="-15553">
		<tag k="name" v="Nersandkila" />
		<tag k="natural" v="water" />
		<tag k="ssr:stedsnr" v="147171" />
		<tag k="water" v="lake" />
	</node>
	<node lat="60.40932222499207" lon="12.459105555951112" id="-15558">
		<tag k="name" v="Revholtkvenndammen" />
		<tag k="ssr:stedsnr" v="161618" />
		<tag k="waterway" v="dam" />
	</node>
	<node lat="60.36910278180652" lon="11.864916670745309" id="-15562">
		<tag k="name" v="Svarttjennet" />
		<tag k="natural" v="water" />
		<tag k="ssr:stedsnr" v="162215" />
	</node>
	<node lat="60.384113888981055" lon="11.807922219261938" id="-15565">
		<tag k="name" v="Meitsjødammen" />
		<tag k="ssr:stedsnr" v="162604" />
		<tag k="waterway" v="dam" />
	</node>
	<node lat="60.386905555249655" lon="12.357227769128183" id="-15569">
		<tag k="name" v="Bekkelibekken" />
		<tag k="ssr:stedsnr" v="163413" />
		<tag k="waterway" v="stream" />
	</node>
	<node lat="60.37883611290291" lon="12.423377785436687" id="-15579">
		<tag k="name" v="Helgedammen" />
		<tag k="ssr:stedsnr" v="176114" />
		<tag k="waterway" v="dam" />
	</node>
	<node lat="60.392305551332136" lon="11.832136114339953" id="-15595">
		<tag k="name" v="Lomtjennsvika" />
		<tag k="natural" v="bay" />
		<tag k="ssr:stedsnr" v="179562" />
	</node>
	<node lat="60.43375555951784" lon="11.897113888768985" id="-15596">
		<tag k="name" v="Storfløytdammen" />
		<tag k="ssr:stedsnr" v="180057" />
		<tag k="waterway" v="dam" />
	</node>
	<node lat="60.44920833194171" lon="12.557861108428382" id="-15600">
		<tag k="name" v="Dikkasbekken" />
		<tag k="ssr:stedsnr" v="180672" />
		<tag k="waterway" v="stream" />
	</node>
	<node lat="60.417241670713146" lon="12.369324999518875" id="-15603">
		<tag k="name" v="Rådelsbekken" />
		<tag k="ssr:stedsnr" v="188027" />
		<tag k="waterway" v="stream" />
	</node>
	<node lat="60.417227782518225" lon="12.530038880730645" id="-15604">
		<tag k="alt_name" v="Løvholmene" />
		<tag k="name" v="Lavvholmen" />
		<tag k="place" v="islet" />
		<tag k="ssr:stedsnr" v="188028" />
	</node>
	<node lat="60.39056111259081" lon="12.524641663183495" id="-15605">
		<tag k="name" v="Mullulamp" />
		<tag k="natural" v="water" />
		<tag k="ssr:stedsnr" v="188070" />
	</node>
	<node lat="60.481053111204155" lon="12.393091162037512" id="-15608">
		<tag k="name" v="Damtjenna" />
		<tag k="natural" v="water" />
		<tag k="ssr:stedsnr" v="188107" />
	</node>
	<node lat="60.4639555572186" lon="12.491927772941306" id="-15609">
		<tag k="name" v="Hemtjennet" />
		<tag k="natural" v="water" />
		<tag k="ssr:stedsnr" v="188111" />
	</node>
	<node lat="60.40888055821328" lon="11.960902780497104" id="-15615">
		<tag k="name" v="Langmyrtjennet" />
		<tag k="natural" v="water" />
		<tag k="ssr:stedsnr" v="188381" />
	</node>
	<node lat="60.3729361119239" lon="11.86326387989883" id="-15617">
		<tag k="name" v="Stortjennet" />
		<tag k="natural" v="water" />
		<tag k="ssr:stedsnr" v="188387" />
	</node>
	<node lat="60.37533610665098" lon="12.184913894880193" id="-15618">
		<tag k="name" v="Mellomtjennet" />
		<tag k="natural" v="water" />
		<tag k="ssr:stedsnr" v="188392" />
	</node>
	<node lat="60.517936112756026" lon="12.417144452240786" id="-15622">
		<tag k="name" v="Høgbråtåtjennet" />
		<tag k="natural" v="water" />
		<tag k="ssr:stedsnr" v="189681" />
	</node>
	<node lat="60.534905553620675" lon="12.455833329749003" id="-15623">
		<tag k="name" v="Rukutjennet" />
		<tag k="natural" v="water" />
		<tag k="ssr:stedsnr" v="189683" />
	</node>
	<node lat="60.5128499992754" lon="12.065575001962594" id="-15630">
		<tag k="name" v="Kjensmotjennet" />
		<tag k="natural" v="water" />
		<tag k="ssr:stedsnr" v="208194" />
	</node>
	<node lat="60.50202222121873" lon="12.196794448037899" id="-15646">
		<tag k="name" v="Aurkytbekken" />
		<tag k="ssr:stedsnr" v="222576" />
		<tag k="waterway" v="stream" />
	</node>
	<node lat="60.49867777677532" lon="12.217408339242324" id="-15648">
		<tag k="name" v="Orrtjennet" />
		<tag k="natural" v="water" />
		<tag k="ssr:stedsnr" v="222593" />
	</node>
	<node lat="60.37427222424842" lon="11.847405548691045" id="-15651">
		<tag k="name" v="Bjørntjennsbekken" />
		<tag k="ssr:stedsnr" v="223229" />
		<tag k="waterway" v="stream" />
	</node>
	<node lat="60.4207250036389" lon="12.534136105494756" id="-15652">
		<tag k="name" v="Kjerringholmen" />
		<tag k="place" v="islet" />
		<tag k="ssr:stedsnr" v="223785" />
	</node>
	<node lat="60.39184722606086" lon="12.457499996963712" id="-15661">
		<tag k="name" v="Nordre Lomtjennet" />
		<tag k="natural" v="water" />
		<tag k="ssr:stedsnr" v="237086" />
	</node>
	<node lat="60.38994999904829" lon="11.966580552796097" id="-15667">
		<tag k="name" v="Skaralibekken" />
		<tag k="ssr:stedsnr" v="239029" />
		<tag k="waterway" v="stream" />
	</node>
	<node lat="60.39827500198303" lon="11.822436105501996" id="-15672">
		<tag k="name" v="Knektfløyta" />
		<tag k="place" v="locality" />
		<tag k="ssr:stedsnr" v="239577" />
	</node>
	<node lat="60.463513886337125" lon="11.806700001678037" id="-15678">
		<tag k="name" v="Killingen" />
		<tag k="natural" v="water" />
		<tag k="ssr:stedsnr" v="241627" />
	</node>
	<node lat="60.53647222675054" lon="12.156936107123183" id="-15680">
		<tag k="name" v="Kornslodammen" />
		<tag k="ssr:stedsnr" v="241778" />
		<tag k="waterway" v="dam" />
	</node>
	<node lat="60.33727777356027" lon="12.456863897237271" id="-15690">
		<tag k="alt_name" v="Kjerkesjøåa" />
		<tag k="name" v="Kjerkesjåa" />
		<tag k="ssr:stedsnr" v="248221" />
		<tag k="waterway" v="stream" />
	</node>
	<node lat="60.44741110900514" lon="12.244174999547063" id="-15691">
		<tag k="name" v="Torptjennet" />
		<tag k="natural" v="water" />
		<tag k="ssr:stedsnr" v="248108" />
	</node>
	<node lat="60.50123610731011" lon="12.093905557295281" id="-15700">
		<tag k="name" v="Tuerfossen" />
		<tag k="natural" v="waterfall" />
		<tag k="ssr:stedsnr" v="269239" />
	</node>
	<node lat="60.50503611483608" lon="12.478294452681071" id="-15702">
		<tag k="name" v="Hundfløyta" />
		<tag k="natural" v="water" />
		<tag k="ssr:stedsnr" v="282887" />
		<tag k="water" v="lake" />
	</node>
	<node lat="60.386333335397886" lon="12.423647215551222" id="-15703">
		<tag k="name" v="Sandvika" />
		<tag k="natural" v="bay" />
		<tag k="ssr:stedsnr" v="283078" />
	</node>
	<node lat="60.46455278241433" lon="12.525847213830113" id="-15705">
		<tag k="name" v="Haukgåsk" />
		<tag k="place" v="locality" />
		<tag k="ssr:stedsnr" v="283528" />
	</node>
	<node lat="60.38658333672291" lon="11.877152774605305" id="-15706">
		<tag k="name" v="Korptjennet" />
		<tag k="natural" v="water" />
		<tag k="ssr:stedsnr" v="284226" />
	</node>
	<node lat="60.50476944037796" lon="12.544547213774122" id="-15708">
		<tag k="name" v="Ahoiniemnabben" />
		<tag k="natural" v="cape" />
		<tag k="ssr:stedsnr" v="284634" />
	</node>
	<node lat="60.37831666938376" lon="12.427722217488451" id="-15719">
		<tag k="name" v="Nordre Furubergtjenn" />
		<tag k="natural" v="water" />
		<tag k="ssr:stedsnr" v="298111" />
	</node>
	<node lat="60.35905277677914" lon="12.15997777675381" id="-15723">
		<tag k="name" v="Krokbekken" />
		<tag k="ssr:stedsnr" v="298956" />
		<tag k="waterway" v="stream" />
	</node>
	<node lat="60.425161114779506" lon="12.34471389092414" id="-15743">
		<tag k="name" v="Svinørebekken" />
		<tag k="ssr:stedsnr" v="309019" />
		<tag k="waterway" v="stream" />
	</node>
	<node lat="60.343891662082065" lon="12.181738894097473" id="-15747">
		<tag k="name" v="Hvebergsjøen" />
		<tag k="natural" v="water" />
		<tag k="ssr:stedsnr" v="309343" />
	</node>
	<node lat="60.3496833303869" lon="12.160472214336089" id="-15748">
		<tag k="name" v="Kroktjennet" />
		<tag k="natural" v="water" />
		<tag k="ssr:stedsnr" v="309346" />
	</node>
	<node lat="60.43838055633211" lon="12.180358327122944" id="-15751">
		<tag k="name" v="Frysjøen" />
		<tag k="natural" v="water" />
		<tag k="ssr:stedsnr" v="309705" />
		<tag k="water" v="lake" />
	</node>
	<node lat="60.48532500390688" lon="12.595366668035112" id="-15753">
		<tag k="name" v="Svarttjennet" />
		<tag k="natural" v="water" />
		<tag k="ssr:stedsnr" v="310084" />
	</node>
	<node lat="60.386183337444706" lon="11.827902786612345" id="-15763">
		<tag k="name" v="Kjellingholmen" />
		<tag k="place" v="islet" />
		<tag k="ssr:stedsnr" v="466243" />
	</node>
	<node lat="60.42240555679284" lon="12.253022218123455" id="-15768">
		<tag k="name" v="Abbortjennet" />
		<tag k="natural" v="water" />
		<tag k="ssr:stedsnr" v="466597" />
	</node>
	<node lat="60.38699722515399" lon="12.425099995123743" id="-15777">
		<tag k="name" v="Lensenebben" />
		<tag k="natural" v="cape" />
		<tag k="ssr:stedsnr" v="343098" />
	</node>
	<node lat="60.442680555920774" lon="12.385408325721563" id="-15778">
		<tag k="name" v="Vatnarbekken" />
		<tag k="ssr:stedsnr" v="343357" />
		<tag k="waterway" v="stream" />
	</node>
	<node lat="60.45016388756054" lon="12.372224998250186" id="-15780">
		<tag k="name" v="Langfossen" />
		<tag k="natural" v="waterfall" />
		<tag k="ssr:stedsnr" v="343362" />
	</node>
	<node lat="60.373022218845904" lon="12.546922221170215" id="-15782">
		<tag k="name" v="Rolamp" />
		<tag k="natural" v="water" />
		<tag k="ssr:stedsnr" v="343780" />
	</node>
	<node lat="60.454172223791765" lon="12.484783326894846" id="-15787">
		<tag k="name" v="Rådelsbekken" />
		<tag k="ssr:stedsnr" v="345014" />
		<tag k="waterway" v="stream" />
	</node>
	<node lat="60.52713055517106" lon="12.419016667487144" id="-15790">
		<tag k="name" v="Kaketjennet" />
		<tag k="natural" v="water" />
		<tag k="ssr:stedsnr" v="344912" />
	</node>
	<node lat="60.369522220596416" lon="12.343858329539348" id="-15791">
		<tag k="name" v="Grindholmsundet" />
		<tag k="natural" v="strait" />
		<tag k="ssr:stedsnr" v="345454" />
	</node>
	<node lat="60.50771666974265" lon="12.559283326535006" id="-15795">
		<tag k="name" v="Rotbergsfløyta" />
		<tag k="natural" v="water" />
		<tag k="ssr:stedsnr" v="345574" />
		<tag k="water" v="lake" />
	</node>
	<node lat="60.36047500079095" lon="12.534391673186226" id="-15807">
		<tag k="name" v="Særkilamp" />
		<tag k="natural" v="water" />
		<tag k="ssr:stedsnr" v="358899" />
	</node>
	<node lat="60.48530555397067" lon="11.88806389643356" id="-15810">
		<tag k="name" v="Abbortjennsbekken" />
		<tag k="ssr:stedsnr" v="360063" />
		<tag k="waterway" v="stream" />
	</node>
	<node lat="60.42806110979809" lon="12.400225007042783" id="-15817">
		<tag k="name" v="Steinetjenn" />
		<tag k="natural" v="water" />
		<tag k="ssr:stedsnr" v="370015" />
	</node>
	<node lat="60.39123055531916" lon="12.457197228187457" id="-15818">
		<tag k="name" v="Lomtjenna" />
		<tag k="natural" v="water" />
		<tag k="ssr:stedsnr" v="370074" />
		<tag k="water" v="lake" />
	</node>
	<node lat="60.4112583300446" lon="12.148458341971132" id="-15822">
		<tag k="name" v="Aurbekken" />
		<tag k="ssr:stedsnr" v="370375" />
		<tag k="waterway" v="stream" />
	</node>
	<node lat="60.38577499615666" lon="12.064505550614628" id="-15827">
		<tag k="name" v="Djupdalsbekken" />
		<tag k="ssr:stedsnr" v="370410" />
		<tag k="waterway" v="stream" />
	</node>
	<node lat="60.4979361112949" lon="12.133880557523021" id="-15835">
		<tag k="name" v="Torstjennet" />
		<tag k="natural" v="water" />
		<tag k="ssr:stedsnr" v="370684" />
	</node>
	<node lat="60.5068638916735" lon="12.193363886659355" id="-15846">
		<tag k="alt_name" v="Jannåtjennet" />
		<tag k="name" v="Jernåtjennet" />
		<tag k="natural" v="water" />
		<tag k="ssr:stedsnr" v="371921" />
	</node>
	<node lat="60.47453056009394" lon="12.195880551833627" id="-15847">
		<tag k="name" v="Svarttjennet" />
		<tag k="natural" v="water" />
		<tag k="ssr:stedsnr" v="479596" />
	</node>
	<node lat="60.5109666646398" lon="11.95390277010506" id="-15848">
		<tag k="name" v="Bjørnbekken" />
		<tag k="ssr:stedsnr" v="480075" />
		<tag k="waterway" v="stream" />
	</node>
	<node lat="60.390266669692075" lon="12.185530559531825" id="-15851">
		<tag k="name" v="Langtjennsdulpene" />
		<tag k="natural" v="water" />
		<tag k="ssr:stedsnr" v="480546" />
		<tag k="water" v="lake" />
	</node>
	<node lat="60.455661111419396" lon="12.408769452808372" id="-15859">
		<tag k="name" v="Halvortjennet" />
		<tag k="natural" v="water" />
		<tag k="ssr:stedsnr" v="482950" />
	</node>
	<node lat="60.441236107033966" lon="11.979327776102576" id="-15868">
		<tag k="name" v="Rådelsbekken" />
		<tag k="ssr:stedsnr" v="484871" />
		<tag k="waterway" v="stream" />
	</node>
	<node lat="60.506269446076516" lon="12.461394435941738" id="-15869">
		<tag k="name" v="Helveteskjella" />
		<tag k="natural" v="water" />
		<tag k="ssr:stedsnr" v="403904" />
	</node>
	<node lat="60.5046388877525" lon="12.207925006490774" id="-15881">
		<tag k="name" v="Myssmørbekken" />
		<tag k="ssr:stedsnr" v="404614" />
		<tag k="waterway" v="stream" />
	</node>
	<node lat="60.52031944842703" lon="12.385336104381052" id="-15886">
		<tag k="name" v="Bakketjennet" />
		<tag k="natural" v="water" />
		<tag k="ssr:stedsnr" v="405245" />
	</node>
	<node lat="60.38109444528551" lon="12.352230554326617" id="-15892">
		<tag k="name" v="Måkeskjær" />
		<tag k="place" v="islet" />
		<tag k="ssr:stedsnr" v="406504" />
	</node>
	<node lat="60.47139166624726" lon="12.206633331078766" id="-15902">
		<tag k="name" v="Anderstjennet" />
		<tag k="natural" v="water" />
		<tag k="ssr:stedsnr" v="419587" />
	</node>
	<node lat="60.46787777345415" lon="12.200199994268004" id="-15903">
		<tag k="name" v="Andersbekken" />
		<tag k="ssr:stedsnr" v="419589" />
		<tag k="waterway" v="stream" />
	</node>
	<node lat="60.39466389118284" lon="12.147508332614786" id="-15905">
		<tag k="name" v="Køybekken" />
		<tag k="old_name" v="Køibekken" />
		<tag k="ssr:stedsnr" v="419900" />
		<tag k="waterway" v="stream" />
	</node>
	<node lat="60.443344442182436" lon="11.814547216276557" id="-15908">
		<tag k="name" v="Klyptjennet" />
		<tag k="natural" v="water" />
		<tag k="ssr:stedsnr" v="421613" />
	</node>
	<node lat="60.40071666650756" lon="11.95761110833502" id="-15910">
		<tag k="name" v="Skaralangmyrtjennet" />
		<tag k="natural" v="water" />
		<tag k="ssr:stedsnr" v="422095" />
	</node>
	<node lat="60.372102781966774" lon="12.185927772463192" id="-15912">
		<tag k="name" v="Mellemtjennsdulpa" />
		<tag k="natural" v="water" />
		<tag k="ssr:stedsnr" v="422530" />
	</node>
	<node lat="60.438827775733216" lon="11.838700007185912" id="-15914">
		<tag k="name" v="Saltjennsdammen" />
		<tag k="ssr:stedsnr" v="423043" />
		<tag k="waterway" v="dam" />
	</node>
	<node lat="60.385194442411326" lon="12.497116658082565" id="-15918">
		<tag k="name" v="Sandsjøen" />
		<tag k="natural" v="water" />
		<tag k="ssr:stedsnr" v="491062" />
	</node>
	<node lat="60.458316669637824" lon="12.414427770841264" id="-15920">
		<tag k="name" v="Langtjennet" />
		<tag k="natural" v="water" />
		<tag k="ssr:stedsnr" v="491111" />
	</node>
	<node lat="60.47159167040347" lon="12.403783336625652" id="-15923">
		<tag k="name" v="Høytjennet" />
		<tag k="natural" v="water" />
		<tag k="ssr:stedsnr" v="431119" />
	</node>
	<node lat="60.46417500411756" lon="12.24549444023672" id="-15926">
		<tag k="name" v="Aurkyttjennet" />
		<tag k="natural" v="water" />
		<tag k="ssr:stedsnr" v="431098" />
	</node>
	<node lat="60.4821166665232" lon="12.575958333541532" id="-15927">
		<tag k="name" v="Svartbekken" />
		<tag k="ssr:stedsnr" v="431101" />
		<tag k="waterway" v="stream" />
	</node>
	<node lat="60.34830277737561" lon="12.460447223400603" id="-15929">
		<tag k="name" v="Gjeddetjennet" />
		<tag k="natural" v="water" />
		<tag k="ssr:stedsnr" v="431256" />
	</node>
	<node lat="60.391691664431875" lon="11.881127770244627" id="-15934">
		<tag k="name" v="Holmtjennet" />
		<tag k="natural" v="water" />
		<tag k="ssr:stedsnr" v="431397" />
	</node>
	<node lat="60.435450004392365" lon="11.929758331898933" id="-15944">
		<tag k="name" v="Høgbergsbekken" />
		<tag k="ssr:stedsnr" v="431710" />
		<tag k="waterway" v="stream" />
	</node>
	<node lat="60.535997223871675" lon="12.337255552536911" id="-15960">
		<tag k="alt_name" v="Aursjøen, store" />
		<tag k="name" v="Store Aursjøen" />
		<tag k="natural" v="water" />
		<tag k="ssr:stedsnr" v="432679" />
	</node>
	<node lat="60.52440555635768" lon="12.33023055387189" id="-15961">
		<tag k="name" v="Høytjennet" />
		<tag k="natural" v="water" />
		<tag k="ssr:stedsnr" v="432691" />
	</node>
	<node lat="60.47726666552226" lon="12.551241659335593" id="-15970">
		<tag k="name" v="Radalamp" />
		<tag k="natural" v="water" />
		<tag k="ssr:stedsnr" v="492065" />
	</node>
	<node lat="60.368691668291774" lon="12.081844447038325" id="-15971">
		<tag k="name" v="Ulvbergstjennet" />
		<tag k="natural" v="water" />
		<tag k="ssr:stedsnr" v="492337" />
	</node>
	<node lat="60.53484444422531" lon="12.156413887821506" id="-15978">
		<tag k="name" v="Grautåa" />
		<tag k="ssr:stedsnr" v="492893" />
		<tag k="waterway" v="river" />
	</node>
	<node lat="60.459941669691325" lon="12.067186118392241" id="-15983">
		<tag k="name" v="Bårderudstjennet" />
		<tag k="natural" v="water" />
		<tag k="ssr:stedsnr" v="451864" />
	</node>
	<node lat="60.438272226576515" lon="12.515383330879297" id="-15985">
		<tag k="name" v="Gåkolamp" />
		<tag k="natural" v="water" />
		<tag k="ssr:stedsnr" v="673015" />
	</node>
	<node lat="60.41605833249594" lon="12.539236104677874" id="-15988">
		<tag k="name" v="Storholmen" />
		<tag k="place" v="islet" />
		<tag k="ssr:stedsnr" v="673033" />
	</node>
	<node lat="60.466530554213875" lon="12.366777786206807" id="-16004">
		<tag k="name" v="Kvernbekken" />
		<tag k="ssr:stedsnr" v="674100" />
		<tag k="waterway" v="stream" />
	</node>
	<node lat="60.39181100006652" lon="12.133192226757703" id="-16006">
		<tag k="name" v="Storbergstjennet" />
		<tag k="natural" v="water" />
		<tag k="ssr:stedsnr" v="674350" />
	</node>
	<node lat="60.34564444279607" lon="12.461299999045243" id="-16009">
		<tag k="name" v="Gjeddtjennsbekken" />
		<tag k="ssr:stedsnr" v="465216" />
		<tag k="waterway" v="stream" />
	</node>
	<node lat="60.52621388809948" lon="12.49750278336002" id="-16014">
		<tag k="alt_name" v="Bølkunbekken" />
		<tag k="name" v="Bølgunbekken" />
		<tag k="ssr:stedsnr" v="674731" />
		<tag k="waterway" v="stream" />
	</node>
	<node lat="60.371172218757344" lon="12.549880558050479" id="-16017">
		<tag k="name" v="Austvika" />
		<tag k="natural" v="bay" />
		<tag k="ssr:stedsnr" v="465761" />
	</node>
	<node lat="60.51347500022184" lon="12.155541673312424" id="-16022">
		<tag k="alt_name" v="Namsjøen" />
		<tag k="name" v="Namnsjøen" />
		<tag k="natural" v="water" />
		<tag k="ssr:stedsnr" v="674911" />
		<tag k="water" v="lake" />
	</node>
	<node lat="60.41985000067998" lon="12.286100006769017" id="-16023">
		<tag k="name" v="Kjerringvika" />
		<tag k="natural" v="bay" />
		<tag k="ssr:stedsnr" v="466605" />
	</node>
	<node lat="60.531997226549635" lon="12.179333332902408" id="-16025">
		<tag k="alt_name" v="Grautsjøbekken, s" />
		<tag k="name" v="Søndre Grautsjøbekken" />
		<tag k="ssr:stedsnr" v="674878" />
		<tag k="waterway" v="stream" />
	</node>
	<node lat="60.53104166602167" lon="12.155936118268595" id="-16026">
		<tag k="name" v="Sevtjennet" />
		<tag k="natural" v="water" />
		<tag k="ssr:stedsnr" v="674879" />
	</node>
	<node lat="60.394880555184905" lon="12.340091663018024" id="-16030">
		<tag k="name" v="Sandvika" />
		<tag k="natural" v="bay" />
		<tag k="ssr:stedsnr" v="467465" />
	</node>
	<node lat="60.52163333401208" lon="12.564366658521923" id="-16032">
		<tag k="name" v="Kverntjenna" />
		<tag k="natural" v="water" />
		<tag k="ssr:stedsnr" v="675738" />
		<tag k="water" v="lake" />
	</node>
	<node lat="60.472555557971255" lon="12.39478332539808" id="-16035">
		<tag k="name" v="Malitjennsbekken" />
		<tag k="ssr:stedsnr" v="479312" />
		<tag k="waterway" v="stream" />
	</node>
	<node lat="60.36536388553663" lon="12.557013888181288" id="-16036">
		<tag k="name" v="Kalsjøbergstjennet" />
		<tag k="natural" v="water" />
		<tag k="ssr:stedsnr" v="479916" />
	</node>
	<node lat="60.349388889890854" lon="12.480702777301959" id="-16040">
		<tag k="name" v="Nettstakanabben" />
		<tag k="natural" v="cape" />
		<tag k="ssr:stedsnr" v="482124" />
	</node>
	<node lat="60.37122222207406" lon="12.210336108451452" id="-16041">
		<tag k="name" v="Svarttjennet" />
		<tag k="natural" v="water" />
		<tag k="ssr:stedsnr" v="482522" />
	</node>
	<node lat="60.42058889201365" lon="12.441191657960964" id="-16046">
		<tag k="name" v="Torgardstjennet" />
		<tag k="natural" v="water" />
		<tag k="ssr:stedsnr" v="491022" />
	</node>
	<node lat="60.45235277904588" lon="12.50871110224302" id="-16051">
		<tag k="name" v="Tvengsbergtjennet" />
		<tag k="natural" v="water" />
		<tag k="ssr:stedsnr" v="491130" />
	</node>
	<node lat="60.349133331604406" lon="12.209611107572309" id="-16052">
		<tag k="name" v="Bjørntjennet" />
		<tag k="natural" v="water" />
		<tag k="ssr:stedsnr" v="491322" />
	</node>
	<node lat="60.49825781839498" lon="12.5636195266856" id="-16053">
		<tag k="alt_name" v="Fisketjennet" />
		<tag k="name" v="Øvre Okstjennet" />
		<tag k="natural" v="water" />
		<tag k="ssr:stedsnr" v="491080" />
	</node>
	<node lat="60.36108888886331" lon="12.210552775626468" id="-16054">
		<tag k="name" v="Rottjennet" />
		<tag k="natural" v="water" />
		<tag k="ssr:stedsnr" v="491284" />
	</node>
	<node lat="60.42691110780413" lon="12.180352780295623" id="-16056">
		<tag k="name" v="Mortholmen" />
		<tag k="place" v="islet" />
		<tag k="ssr:stedsnr" v="491713" />
	</node>
	<node lat="60.43505767159172" lon="11.914604438614255" id="-16063">
		<tag k="name" v="Domtjenna" />
		<tag k="natural" v="water" />
		<tag k="ssr:stedsnr" v="492674" />
		<tag k="water" v="lake" />
	</node>
	<node lat="60.52148333176021" lon="12.222749995095326" id="-16064">
		<tag k="loc_name" v="Karusstjenn" />
		<tag k="name" v="Karustjenn" />
		<tag k="natural" v="water" />
		<tag k="ssr:stedsnr" v="492693" />
	</node>
	<node lat="60.51353888452641" lon="12.46108333987935" id="-16065">
		<tag k="name" v="Lukasbekken" />
		<tag k="ssr:stedsnr" v="492704" />
		<tag k="waterway" v="stream" />
	</node>
	<node lat="60.541650003141726" lon="12.196136113255971" id="-16067">
		<tag k="name" v="Klartjennet" />
		<tag k="natural" v="water" />
		<tag k="ssr:stedsnr" v="492968" />
	</node>
	<node lat="60.48820278042175" lon="12.069636103949236" id="-16069">
		<tag k="name" v="Heggertjennet" />
		<tag k="natural" v="water" />
		<tag k="ssr:stedsnr" v="511204" />
	</node>
	<node lat="60.33806944021459" lon="12.446211112225294" id="-16075">
		<tag k="name" v="Barskjulfossen" />
		<tag k="natural" v="waterfall" />
		<tag k="ssr:stedsnr" v="525214" />
	</node>
	<node lat="60.49783055941873" lon="12.197874991858562" id="-16078">
		<tag k="name" v="Dritputten" />
		<tag k="natural" v="water" />
		<tag k="ssr:stedsnr" v="525613" />
		<tag k="water" v="pond" />
	</node>
	<node lat="60.47922499594229" lon="12.464319451868665" id="-16079">
		<tag k="name" v="Revtjennsbekken" />
		<tag k="ssr:stedsnr" v="525971" />
		<tag k="waterway" v="stream" />
	</node>
	<node lat="60.48697221842598" lon="12.38483054694765" id="-16081">
		<tag k="name" v="Nattmyrbekken" />
		<tag k="ssr:stedsnr" v="526308" />
		<tag k="waterway" v="stream" />
	</node>
	<node lat="60.52475555525822" lon="12.455972219056262" id="-16089">
		<tag k="name" v="Hongaslamp" />
		<tag k="natural" v="water" />
		<tag k="ssr:stedsnr" v="527941" />
	</node>
	<node lat="60.42549444700205" lon="12.164511105343507" id="-16101">
		<tag k="name" v="Frysjødammen" />
		<tag k="ssr:stedsnr" v="540936" />
		<tag k="waterway" v="dam" />
	</node>
	<node lat="60.43010277512858" lon="12.219511103016893" id="-16106">
		<tag k="name" v="Gjeddtjennet" />
		<tag k="natural" v="water" />
		<tag k="ssr:stedsnr" v="551800" />
	</node>
	<node lat="60.41311666390302" lon="12.584533331300499" id="-16107">
		<tag k="name" v="Geittjennet" />
		<tag k="natural" v="water" />
		<tag k="ssr:stedsnr" v="552049" />
	</node>
	<node lat="60.48024999783269" lon="12.440763897757558" id="-16108">
		<tag k="name" v="Furutjenna" />
		<tag k="natural" v="water" />
		<tag k="ssr:stedsnr" v="552100" />
		<tag k="water" v="lake" />
	</node>
	<node lat="60.37512499999554" lon="12.497105548720636" id="-16110">
		<tag k="name" v="Gørtilamp" />
		<tag k="natural" v="water" />
		<tag k="ssr:stedsnr" v="552222" />
	</node>
	<node lat="60.46369999887091" lon="12.29921945067354" id="-16111">
		<tag k="name" v="Sollitjennet" />
		<tag k="natural" v="water" />
		<tag k="ssr:stedsnr" v="552106" />
	</node>
	<node lat="60.37331389061211" lon="11.818411117381268" id="-16118">
		<tag k="name" v="Vesle Lomtjennet" />
		<tag k="natural" v="water" />
		<tag k="ssr:stedsnr" v="552942" />
	</node>
	<node lat="60.52480555455278" lon="12.557563882891522" id="-16120">
		<tag k="alt_name" v="Rotnebergsåa" />
		<tag k="name" v="Rotbergsåa" />
		<tag k="ssr:stedsnr" v="553737" />
		<tag k="waterway" v="river" />
	</node>
	<node lat="60.52136388706092" lon="12.097152776691503" id="-16130">
		<tag k="name" v="Humulsbekken" />
		<tag k="ssr:stedsnr" v="694193" />
		<tag k="waterway" v="stream" />
	</node>
	<node lat="60.34565277949839" lon="12.467819448194337" id="-16138">
		<tag k="name" v="Øvre Mokvernfossen" />
		<tag k="natural" v="waterfall" />
		<tag k="ssr:stedsnr" v="586215" />
	</node>
	<node lat="60.527544446699935" lon="12.320747227260746" id="-16139">
		<tag k="name" v="Høytjennsbekken" />
		<tag k="ssr:stedsnr" v="586253" />
		<tag k="waterway" v="stream" />
	</node>
	<node lat="60.48913055493505" lon="12.569069442505363" id="-16143">
		<tag k="name" v="Baksjøbekkoset" />
		<tag k="natural" v="bay" />
		<tag k="ssr:stedsnr" v="586595" />
	</node>
	<node lat="60.47990555580753" lon="12.524625008846703" id="-16144">
		<tag k="name" v="Nydammen" />
		<tag k="ssr:stedsnr" v="586598" />
		<tag k="waterway" v="dam" />
	</node>
	<node lat="60.36939999637877" lon="11.850352782682496" id="-16145">
		<tag k="name" v="Smørtjennet" />
		<tag k="natural" v="water" />
		<tag k="ssr:stedsnr" v="587253" />
	</node>
	<node lat="60.53241666450713" lon="12.414169438577922" id="-16147">
		<tag k="name" v="Revtjennet" />
		<tag k="natural" v="water" />
		<tag k="ssr:stedsnr" v="587916" />
	</node>
	<node lat="60.44420555099842" lon="12.46464445013887" id="-16150">
		<tag k="name" v="Sandvika" />
		<tag k="natural" v="bay" />
		<tag k="ssr:stedsnr" v="588063" />
	</node>
	<node lat="60.37817499781653" lon="12.385630562584604" id="-16155">
		<tag k="name" v="Skriviltjennet" />
		<tag k="natural" v="water" />
		<tag k="ssr:stedsnr" v="588434" />
	</node>
	<node lat="60.38022777913725" lon="12.352797215002406" id="-16156">
		<tag k="name" v="Taulvasen" />
		<tag k="natural" v="shoal" />
		<tag k="place" v="locality" />
		<tag k="ssr:stedsnr" v="588454" />
	</node>
	<node lat="60.433277773518796" lon="12.193494449278374" id="-16160">
		<tag k="name" v="Djupvasevika" />
		<tag k="natural" v="bay" />
		<tag k="ssr:stedsnr" v="600548" />
	</node>
	<node lat="60.35211110866931" lon="12.157933329453156" id="-16166">
		<tag k="name" v="Delebekken" />
		<tag k="ssr:stedsnr" v="601962" />
		<tag k="waterway" v="stream" />
	</node>
	<node lat="60.36821666502057" lon="12.168558334018261" id="-16167">
		<tag k="name" v="Rådelstjennet" />
		<tag k="natural" v="water" />
		<tag k="ssr:stedsnr" v="601900" />
	</node>
	<node lat="60.35444721896106" lon="12.480097226284544" id="-16168">
		<tag k="name" v="Kjelkevika" />
		<tag k="natural" v="bay" />
		<tag k="ssr:stedsnr" v="603113" />
	</node>
	<node lat="60.34785277649884" lon="12.477494440599948" id="-16169">
		<tag k="name" v="Bendiksvika" />
		<tag k="natural" v="bay" />
		<tag k="ssr:stedsnr" v="603114" />
	</node>
	<node lat="60.42155277345643" lon="12.524600005051344" id="-16175">
		<tag k="name" v="Lyngholmen" />
		<tag k="place" v="islet" />
		<tag k="ssr:stedsnr" v="612026" />
	</node>
	<node lat="60.46739166997947" lon="12.541866675896951" id="-16177">
		<tag k="name" v="Fisketjennet" />
		<tag k="natural" v="water" />
		<tag k="ssr:stedsnr" v="612121" />
	</node>
	<node lat="60.393655558656945" lon="12.584530564712571" id="-16185">
		<tag k="name" v="Langnabben" />
		<tag k="place" v="islet" />
		<tag k="ssr:stedsnr" v="613065" />
	</node>
	<node lat="60.3716111147997" lon="12.201952769308082" id="-16190">
		<tag k="name" v="Sarvtjennet" />
		<tag k="natural" v="water" />
		<tag k="ssr:stedsnr" v="613361" />
	</node>
	<node lat="60.51500277480176" lon="12.303216662715514" id="-16191">
		<tag k="name" v="Bjørntjennet" />
		<tag k="natural" v="water" />
		<tag k="ssr:stedsnr" v="613702" />
	</node>
	<node lat="60.544561111891056" lon="12.094530564061918" id="-16192">
		<tag k="name" v="Sorka" />
		<tag k="ssr:stedsnr" v="613902" />
		<tag k="waterway" v="stream" />
	</node>
</osm>
