<?xml version="1.0" encoding="UTF-8"?>
<osm version="0.6" generator="osmapis">
	<node lat="60.37263055307646" lon="12.074177768728648" id="-16202">
		<tag k="name" v="Grevlingskjæra" />
		<tag k="natural" v="hill" />
		<tag k="place" v="locality" />
		<tag k="ssr:stedsnr" v="26221" />
	</node>
	<node lat="60.38947499819161" lon="11.89229166388139" id="-16221">
		<tag k="name" v="Okseknappen" />
		<tag k="natural" v="valley" />
		<tag k="place" v="locality" />
		<tag k="ssr:stedsnr" v="42112" />
	</node>
	<node lat="60.36031666419124" lon="12.51998888261942" id="-16234">
		<tag k="name" v="Laskobakken" />
		<tag k="natural" v="hill" />
		<tag k="place" v="locality" />
		<tag k="ssr:stedsnr" v="239143" />
	</node>
	<node lat="60.39928055444825" lon="12.485191661463803" id="-16245">
		<tag k="name" v="Havskaberget" />
		<tag k="natural" v="hill" />
		<tag k="place" v="locality" />
		<tag k="ssr:stedsnr" v="240042" />
	</node>
	<node lat="60.39873888677019" lon="12.503997230440559" id="-16247">
		<tag k="name" v="Åsanoppi" />
		<tag k="natural" v="hill" />
		<tag k="place" v="locality" />
		<tag k="ssr:stedsnr" v="240045" />
	</node>
	<node lat="60.469375000915456" lon="11.873363887482391" id="-16259">
		<tag k="name" v="Hakasjøkallen" />
		<tag k="natural" v="hill" />
		<tag k="place" v="locality" />
		<tag k="ssr:stedsnr" v="59027" />
	</node>
	<node lat="60.448908337255396" lon="11.916122219629386" id="-16265">
		<tag k="fixme" v="consider natural=peak for the most distinct mountains in the district" />
		<tag k="name" v="Lemyrberget" />
		<tag k="natural" v="hill" />
		<tag k="place" v="locality" />
		<tag k="ssr:stedsnr" v="241112" />
	</node>
	<node lat="60.36174999682752" lon="12.397733337161535" id="-16267">
		<tag k="name" v="Kalvberget" />
		<tag k="natural" v="hill" />
		<tag k="place" v="locality" />
		<tag k="ssr:stedsnr" v="66208" />
	</node>
	<node lat="60.48045000018863" lon="11.89884999889321" id="-16284">
		<tag k="fixme" v="consider natural=peak for the most distinct mountains in the district" />
		<tag k="name" v="Snaufjellet" />
		<tag k="natural" v="hill" />
		<tag k="place" v="locality" />
		<tag k="ssr:stedsnr" v="67643" />
	</node>
	<node lat="60.42133333536614" lon="11.941644447161945" id="-16290">
		<tag k="fixme" v="consider natural=peak for the most distinct mountains in the district" />
		<tag k="name" v="Tenåsen" />
		<tag k="natural" v="hill" />
		<tag k="place" v="locality" />
		<tag k="ssr:stedsnr" v="67716" />
	</node>
	<node lat="60.52288888892399" lon="12.205461105029071" id="-16300">
		<tag k="name" v="Juvberget" />
		<tag k="natural" v="hill" />
		<tag k="old_name" v="Juberget" />
		<tag k="place" v="locality" />
		<tag k="ssr:stedsnr" v="68917" />
	</node>
	<node lat="60.44730277719563" lon="12.42146388262874" id="-16306">
		<tag k="name" v="Styggberget" />
		<tag k="natural" v="hill" />
		<tag k="place" v="locality" />
		<tag k="ssr:stedsnr" v="248123" />
	</node>
	<node lat="60.35431111016099" lon="12.523444445092695" id="-16310">
		<tag k="alt_name" v="Kvernberget, vesle" />
		<tag k="name" v="Vesle Kvernberget" />
		<tag k="natural" v="hill" />
		<tag k="place" v="locality" />
		<tag k="ssr:stedsnr" v="248237" />
	</node>
	<node lat="60.50299722263446" lon="12.480908329413895" id="-16311">
		<tag k="name" v="Bekkebakka" />
		<tag k="natural" v="slope" />
		<tag k="place" v="locality" />
		<tag k="ssr:stedsnr" v="100865" />
	</node>
	<node lat="60.38310278092198" lon="12.559297229600682" id="-16321">
		<tag k="name" v="Musholen" />
		<tag k="natural" v="ridge" />
		<tag k="place" v="locality" />
		<tag k="ssr:stedsnr" v="101829" />
	</node>
	<node lat="60.38022777648365" lon="12.505002782778414" id="-16325">
		<tag k="name" v="Dammikkalamminmæk" />
		<tag k="natural" v="hill" />
		<tag k="place" v="locality" />
		<tag k="ssr:stedsnr" v="102173" />
	</node>
	<node lat="60.37141389082332" lon="12.140983336489011" id="-16354">
		<tag k="name" v="Gubbetorpet" />
		<tag k="natural" v="hill" />
		<tag k="place" v="locality" />
		<tag k="ssr:stedsnr" v="249355" />
	</node>
	<node lat="60.38613611174498" lon="11.907588895894824" id="-16359">
		<tag k="name" v="Hestvola" />
		<tag k="natural" v="hill" />
		<tag k="place" v="locality" />
		<tag k="ssr:stedsnr" v="249367" />
	</node>
	<node lat="60.51060833474528" lon="12.23913056251581" id="-16376">
		<tag k="alt_name" v="Håkåsberget" />
		<tag k="name" v="Hokåsberget" />
		<tag k="natural" v="hill" />
		<tag k="place" v="locality" />
		<tag k="ssr:stedsnr" v="250720" />
	</node>
	<node lat="60.49510833085187" lon="12.312697220183168" id="-16379">
		<tag k="name" v="Fuglemyrbakken" />
		<tag k="natural" v="hill" />
		<tag k="place" v="locality" />
		<tag k="ssr:stedsnr" v="118281" />
	</node>
	<node lat="60.3498388900419" lon="12.452480554720095" id="-16391">
		<tag k="name" v="Moberget" />
		<tag k="natural" v="hill" />
		<tag k="place" v="locality" />
		<tag k="ssr:stedsnr" v="127253" />
	</node>
	<node lat="60.35959444417919" lon="12.536752778257673" id="-16392">
		<tag k="alt_name" v="Kvernberget, store" />
		<tag k="name" v="Store Kvernberget" />
		<tag k="natural" v="hill" />
		<tag k="place" v="locality" />
		<tag k="ssr:stedsnr" v="127255" />
	</node>
	<node lat="60.4633083329185" lon="12.110758334354056" id="-16403">
		<tag k="name" v="Hammarberget" />
		<tag k="natural" v="hill" />
		<tag k="place" v="locality" />
		<tag k="ssr:stedsnr" v="127751" />
	</node>
	<node lat="60.50664722446155" lon="12.005405551269194" id="-16413">
		<tag k="fixme" v="consider natural=peak for the most distinct mountains in the district" />
		<tag k="name" v="Bjørkåsen" />
		<tag k="natural" v="hill" />
		<tag k="place" v="locality" />
		<tag k="ssr:stedsnr" v="147207" />
	</node>
	<node lat="60.512205557760176" lon="12.175627769606677" id="-16415">
		<tag k="name" v="Klyperud" />
		<tag k="place" v="locality" />
		<tag k="ssr:stedsnr" v="161604" />
	</node>
	<node lat="60.339199996675625" lon="12.207236115718688" id="-16418">
		<tag k="name" v="Jonasmyrberget" />
		<tag k="natural" v="hill" />
		<tag k="place" v="locality" />
		<tag k="ssr:stedsnr" v="161656" />
	</node>
	<node lat="60.522780554386536" lon="12.52137222076922" id="-16430">
		<tag k="name" v="Pekkankallio" />
		<tag k="natural" v="slope" />
		<tag k="place" v="locality" />
		<tag k="ssr:stedsnr" v="163581" />
	</node>
	<node lat="60.37489444317491" lon="12.237811107849687" id="-16441">
		<tag k="name" v="Snupvåla" />
		<tag k="natural" v="hill" />
		<tag k="place" v="locality" />
		<tag k="ssr:stedsnr" v="176469" />
	</node>
	<node lat="60.44560555536842" lon="12.21034722632508" id="-16442">
		<tag k="name" v="Brutjennsåsen" />
		<tag k="natural" v="hill" />
		<tag k="place" v="locality" />
		<tag k="ssr:stedsnr" v="176555" />
	</node>
	<node lat="60.397000002362404" lon="12.381663894775853" id="-16447">
		<tag k="name" v="Steinhaugen" />
		<tag k="natural" v="hill" />
		<tag k="place" v="locality" />
		<tag k="ssr:stedsnr" v="178422" />
	</node>
	<node lat="60.39108611336711" lon="12.379024993275587" id="-16448">
		<tag k="name" v="Klonkerudberget" />
		<tag k="natural" v="hill" />
		<tag k="place" v="locality" />
		<tag k="ssr:stedsnr" v="178423" />
	</node>
	<node lat="60.398358331133096" lon="12.375136104763557" id="-16449">
		<tag k="name" v="Helvete" />
		<tag k="natural" v="slope" />
		<tag k="place" v="locality" />
		<tag k="ssr:stedsnr" v="178426" />
	</node>
	<node lat="60.38104444567991" lon="12.184991672815457" id="-16451">
		<tag k="name" v="Grådden" />
		<tag k="natural" v="hill" />
		<tag k="place" v="locality" />
		<tag k="ssr:stedsnr" v="179512" />
	</node>
	<node lat="60.37928888713216" lon="12.219422225558223" id="-16452">
		<tag k="name" v="Lønhaugsberget" />
		<tag k="natural" v="hill" />
		<tag k="place" v="locality" />
		<tag k="ssr:stedsnr" v="179513" />
	</node>
	<node lat="60.387075000141884" lon="11.948191673165118" id="-16469">
		<tag k="name" v="Knappholsberget" />
		<tag k="natural" v="hill" />
		<tag k="place" v="locality" />
		<tag k="ssr:stedsnr" v="188402" />
	</node>
	<node lat="60.379386107291815" lon="11.872141658508008" id="-16472">
		<tag k="name" v="Gobærsknappen" />
		<tag k="natural" v="hill" />
		<tag k="place" v="locality" />
		<tag k="ssr:stedsnr" v="188409" />
	</node>
	<node lat="60.51744444505183" lon="12.375324993265918" id="-16479">
		<tag k="name" v="Stemsrudberget" />
		<tag k="natural" v="hill" />
		<tag k="place" v="locality" />
		<tag k="ssr:stedsnr" v="189680" />
	</node>
	<node lat="60.52944444837448" lon="12.069633332204326" id="-16495">
		<tag k="name" v="Smørhaugen" />
		<tag k="natural" v="hill" />
		<tag k="place" v="locality" />
		<tag k="ssr:stedsnr" v="269227" />
	</node>
	<node lat="60.48706944829858" lon="12.439144449899757" id="-16515">
		<tag k="name" v="Flaskeposten" />
		<tag k="place" v="locality" />
		<tag k="ssr:stedsnr" v="224909" />
	</node>
	<node lat="60.32378055907403" lon="12.498422226555416" id="-16520">
		<tag k="name" v="Suru" />
		<tag k="natural" v="hill" />
		<tag k="place" v="locality" />
		<tag k="ssr:stedsnr" v="237182" />
	</node>
	<node lat="60.35681944263593" lon="12.501874996371662" id="-16527">
		<tag k="fixme" v="consider natural=peak for the most distinct mountains in the district" />
		<tag k="name" v="Kjerkesjøberget" />
		<tag k="natural" v="hill" />
		<tag k="place" v="locality" />
		<tag k="ssr:stedsnr" v="239138" />
	</node>
	<node lat="60.40898333745073" lon="12.390719438585101" id="-16529">
		<tag k="name" v="Gjevertaven" />
		<tag k="natural" v="valley" />
		<tag k="place" v="locality" />
		<tag k="ssr:stedsnr" v="239434" />
	</node>
	<node lat="60.44249444422958" lon="12.428888895623649" id="-16546">
		<tag k="name" v="Høgbråten" />
		<tag k="natural" v="hill" />
		<tag k="place" v="locality" />
		<tag k="ssr:stedsnr" v="248004" />
	</node>
	<node lat="60.44406667111122" lon="12.235258324994788" id="-16550">
		<tag k="name" v="Nytorpknappen" />
		<tag k="natural" v="hill" />
		<tag k="place" v="locality" />
		<tag k="ssr:stedsnr" v="248112" />
	</node>
	<node lat="60.36633888960423" lon="12.52608888188531" id="-16551">
		<tag k="name" v="Gåntigalli" />
		<tag k="natural" v="hill" />
		<tag k="place" v="locality" />
		<tag k="ssr:stedsnr" v="248179" />
	</node>
	<node lat="60.398663885675745" lon="12.131550000755794" id="-16555">
		<tag k="name" v="Storberget" />
		<tag k="natural" v="hill" />
		<tag k="place" v="locality" />
		<tag k="ssr:stedsnr" v="249326" />
	</node>
	<node lat="60.376586111750974" lon="12.068569444149267" id="-16557">
		<tag k="name" v="Langebråten" />
		<tag k="natural" v="slope" />
		<tag k="place" v="locality" />
		<tag k="ssr:stedsnr" v="269206" />
	</node>
	<node lat="60.53347500200141" lon="12.409569440902045" id="-16571">
		<tag k="fixme" v="consider natural=peak for the most distinct mountains in the district" />
		<tag k="name" v="Revtjennsberget" />
		<tag k="natural" v="hill" />
		<tag k="place" v="locality" />
		<tag k="ssr:stedsnr" v="284930" />
	</node>
	<node lat="60.48959999753786" lon="11.941758326845463" id="-16574">
		<tag k="name" v="Skyrudhaugen" />
		<tag k="natural" v="hill" />
		<tag k="place" v="locality" />
		<tag k="ssr:stedsnr" v="298102" />
	</node>
	<node lat="60.40397222059733" lon="11.840988885738636" id="-16586">
		<tag k="name" v="Rybråtåberget" />
		<tag k="natural" v="hill" />
		<tag k="place" v="locality" />
		<tag k="ssr:stedsnr" v="300579" />
	</node>
	<node lat="60.366041670739115" lon="12.175391671889958" id="-16587">
		<tag k="name" v="Slomphaugen" />
		<tag k="natural" v="hill" />
		<tag k="place" v="locality" />
		<tag k="ssr:stedsnr" v="300682" />
	</node>
	<node lat="60.44770555723481" lon="11.827775001358887" id="-16589">
		<tag k="name" v="Åtdalen" />
		<tag k="natural" v="valley" />
		<tag k="place" v="locality" />
		<tag k="ssr:stedsnr" v="301030" />
	</node>
	<node lat="60.33055555245616" lon="12.20728611268907" id="-16596">
		<tag k="name" v="Skjæra" />
		<tag k="natural" v="hill" />
		<tag k="place" v="locality" />
		<tag k="ssr:stedsnr" v="465670" />
	</node>
	<node lat="60.49035000066278" lon="12.268577786019849" id="-16607">
		<tag k="name" v="Bjørsjøberget" />
		<tag k="natural" v="hill" />
		<tag k="place" v="locality" />
		<tag k="ssr:stedsnr" v="309454" />
	</node>
	<node lat="60.531383329515855" lon="12.420605554066752" id="-16612">
		<tag k="name" v="Kaketjennsberget" />
		<tag k="natural" v="hill" />
		<tag k="place" v="locality" />
		<tag k="ssr:stedsnr" v="310708" />
	</node>
	<node lat="60.410524999316216" lon="11.927547222189713" id="-16614">
		<tag k="fixme" v="consider natural=peak for the most distinct mountains in the district" />
		<tag k="name" v="Svartberget" />
		<tag k="natural" v="hill" />
		<tag k="place" v="locality" />
		<tag k="ssr:stedsnr" v="466100" />
	</node>
	<node lat="60.37819166428164" lon="12.489002772281337" id="-16615">
		<tag k="name" v="Metsigaberget" />
		<tag k="natural" v="hill" />
		<tag k="place" v="locality" />
		<tag k="ssr:stedsnr" v="466169" />
	</node>
	<node lat="60.41215555932948" lon="12.417388882065165" id="-16627">
		<tag k="name" v="Lukberget" />
		<tag k="natural" v="hill" />
		<tag k="place" v="locality" />
		<tag k="ssr:stedsnr" v="467039" />
	</node>
	<node lat="60.403969442488716" lon="12.32460555909433" id="-16629">
		<tag k="name" v="Storhaugen" />
		<tag k="natural" v="hill" />
		<tag k="place" v="locality" />
		<tag k="ssr:stedsnr" v="467469" />
	</node>
	<node lat="60.37861666912818" lon="12.538577780149923" id="-16641">
		<tag k="fixme" v="consider natural=peak for the most distinct mountains in the district" />
		<tag k="name" v="Maurberget" />
		<tag k="natural" v="hill" />
		<tag k="place" v="locality" />
		<tag k="ssr:stedsnr" v="343781" />
	</node>
	<node lat="60.38054721966372" lon="11.858916670293578" id="-16642">
		<tag k="name" v="Helvetesdalen" />
		<tag k="natural" v="valley" />
		<tag k="place" v="locality" />
		<tag k="ssr:stedsnr" v="344217" />
	</node>
	<node lat="60.38541111351843" lon="11.877638893783791" id="-16643">
		<tag k="name" v="Korpberget" />
		<tag k="natural" v="hill" />
		<tag k="place" v="locality" />
		<tag k="ssr:stedsnr" v="344221" />
	</node>
	<node lat="60.46825555883308" lon="12.28483333914887" id="-16652">
		<tag k="name" v="Sanderberget" />
		<tag k="natural" v="hill" />
		<tag k="place" v="locality" />
		<tag k="ssr:stedsnr" v="345572" />
	</node>
	<node lat="60.3940666650394" lon="11.968286107566671" id="-16681">
		<tag k="alt_name" v="Skarliberget" />
		<tag k="name" v="Skaraliberget" />
		<tag k="natural" v="hill" />
		<tag k="place" v="locality" />
		<tag k="ssr:stedsnr" v="370381" />
	</node>
	<node lat="60.46619999923516" lon="12.359044446389653" id="-16697">
		<tag k="name" v="Trollkjerka" />
		<tag k="natural" v="hill" />
		<tag k="place" v="locality" />
		<tag k="ssr:stedsnr" v="479320" />
	</node>
	<node lat="60.450300003257254" lon="12.23180555708222" id="-16708">
		<tag k="name" v="Holstadberget" />
		<tag k="natural" v="hill" />
		<tag k="place" v="locality" />
		<tag k="ssr:stedsnr" v="480590" />
	</node>
	<node lat="60.374366665124754" lon="12.411141665475943" id="-16711">
		<tag k="name" v="Helgeklinten" />
		<tag k="natural" v="hill" />
		<tag k="place" v="locality" />
		<tag k="ssr:stedsnr" v="482093" />
	</node>
	<node lat="60.40535277417751" lon="12.38406111765493" id="-16712">
		<tag k="name" v="Langdalen" />
		<tag k="natural" v="valley" />
		<tag k="place" v="locality" />
		<tag k="ssr:stedsnr" v="482438" />
	</node>
	<node lat="60.33147778050064" lon="12.496297218457324" id="-16730">
		<tag k="fixme" v="consider natural=peak for the most distinct mountains in the district" />
		<tag k="name" v="Høybråtåberget" />
		<tag k="natural" v="hill" />
		<tag k="place" v="locality" />
		<tag k="ssr:stedsnr" v="404211" />
	</node>
	<node lat="60.504672221110546" lon="12.412747227089843" id="-16752">
		<tag k="name" v="Kontorpet" />
		<tag k="natural" v="hill" />
		<tag k="place" v="locality" />
		<tag k="ssr:stedsnr" v="406901" />
	</node>
	<node lat="60.49278889270364" lon="12.296600002822785" id="-16777">
		<tag k="name" v="Styggdalsberget" />
		<tag k="natural" v="hill" />
		<tag k="place" v="locality" />
		<tag k="ssr:stedsnr" v="491070" />
	</node>
	<node lat="60.405905553631406" lon="12.605699996842977" id="-16782">
		<tag k="fixme" v="consider natural=peak for the most distinct mountains in the district" />
		<tag k="name" v="Moldusen" />
		<tag k="natural" v="hill" />
		<tag k="place" v="locality" />
		<tag k="ssr:stedsnr" v="431044" />
	</node>
	<node lat="60.39065555717185" lon="12.381519445177224" id="-16783">
		<tag k="name" v="Skrivilen" />
		<tag k="natural" v="hill" />
		<tag k="place" v="locality" />
		<tag k="ssr:stedsnr" v="431062" />
	</node>
	<node lat="60.41479444196948" lon="11.986349993623913" id="-16790">
		<tag k="fixme" v="consider natural=peak for the most distinct mountains in the district" />
		<tag k="name" v="Kulåsen" />
		<tag k="natural" v="hill" />
		<tag k="place" v="locality" />
		<tag k="ssr:stedsnr" v="431358" />
	</node>
	<node lat="60.39301111506115" lon="11.930844447389875" id="-16791">
		<tag k="name" v="Linndalsberget" />
		<tag k="natural" v="hill" />
		<tag k="place" v="locality" />
		<tag k="ssr:stedsnr" v="431395" />
	</node>
	<node lat="60.424811112210655" lon="11.843947230995575" id="-16803">
		<tag k="name" v="Bukkeberget" />
		<tag k="natural" v="hill" />
		<tag k="place" v="locality" />
		<tag k="ssr:stedsnr" v="431720" />
	</node>
	<node lat="60.46167777670359" lon="11.915366658798856" id="-16813">
		<tag k="name" v="Skurven" />
		<tag k="natural" v="hill" />
		<tag k="place" v="locality" />
		<tag k="ssr:stedsnr" v="431687" />
	</node>
	<node lat="60.50886389237444" lon="11.972652785389512" id="-16814">
		<tag k="alt_name" v="Rønåsberget" />
		<tag k="name" v="Rønnåsberget" />
		<tag k="natural" v="hill" />
		<tag k="place" v="locality" />
		<tag k="ssr:stedsnr" v="431696" />
	</node>
	<node lat="60.515375000067856" lon="12.084511104855187" id="-16822">
		<tag k="name" v="Sorknesmoen" />
		<tag k="place" v="locality" />
		<tag k="ssr:stedsnr" v="432897" />
	</node>
	<node lat="60.45925555591213" lon="12.231477775251067" id="-16827">
		<tag k="alt_name" v="Østre Tyriberget" />
		<tag k="name" v="Tyriberget" />
		<tag k="natural" v="hill" />
		<tag k="place" v="locality" />
		<tag k="ssr:stedsnr" v="492063" />
	</node>
	<node lat="60.37107777402279" lon="12.051855561372632" id="-16830">
		<tag k="name" v="Brattåsberget" />
		<tag k="natural" v="hill" />
		<tag k="place" v="locality" />
		<tag k="ssr:stedsnr" v="492339" />
	</node>
	<node lat="60.47940277714592" lon="11.833908328778767" id="-16838">
		<tag k="name" v="Mikkelsberget" />
		<tag k="natural" v="hill" />
		<tag k="place" v="locality" />
		<tag k="ssr:stedsnr" v="450375" />
	</node>
	<node lat="60.42632778089674" lon="12.572024993012015" id="-16845">
		<tag k="name" v="Skåkberget" />
		<tag k="natural" v="hill" />
		<tag k="place" v="locality" />
		<tag k="ssr:stedsnr" v="673023" />
	</node>
	<node lat="60.465958335925606" lon="12.597880552209071" id="-16849">
		<tag k="name" v="Balagombo" />
		<tag k="natural" v="hill" />
		<tag k="place" v="locality" />
		<tag k="ssr:stedsnr" v="673122" />
	</node>
	<node lat="60.460652777699565" lon="12.589319441163306" id="-16850">
		<tag k="name" v="Iversberget" />
		<tag k="natural" v="hill" />
		<tag k="place" v="locality" />
		<tag k="ssr:stedsnr" v="673129" />
	</node>
	<node lat="60.451705552805194" lon="12.428819453136917" id="-16865">
		<tag k="name" v="Lindalen" />
		<tag k="natural" v="valley" />
		<tag k="place" v="locality" />
		<tag k="ssr:stedsnr" v="465017" />
	</node>
	<node lat="60.364627774075906" lon="12.234533331428695" id="-16896">
		<tag k="name" v="Horisonten" />
		<tag k="natural" v="hill" />
		<tag k="place" v="locality" />
		<tag k="ssr:stedsnr" v="480721" />
	</node>
	<node lat="60.45478333648565" lon="11.865561111831347" id="-16915">
		<tag k="name" v="Grevlingberget" />
		<tag k="natural" v="hill" />
		<tag k="place" v="locality" />
		<tag k="ssr:stedsnr" v="491724" />
	</node>
	<node lat="60.5078555554978" lon="12.275663891582251" id="-16935">
		<tag k="name" v="Eftasmyrdalen" />
		<tag k="natural" v="valley" />
		<tag k="place" v="locality" />
		<tag k="ssr:stedsnr" v="525473" />
	</node>
	<node lat="60.380761108791376" lon="11.970519448960244" id="-16972">
		<tag k="fixme" v="consider natural=peak for the most distinct mountains in the district" />
		<tag k="name" v="Kringleåsen" />
		<tag k="natural" v="hill" />
		<tag k="place" v="locality" />
		<tag k="ssr:stedsnr" v="552410" />
	</node>
	<node lat="60.52742499813922" lon="12.048025007762252" id="-16984">
		<tag k="name" v="Storsand" />
		<tag k="place" v="locality" />
		<tag k="ssr:stedsnr" v="572846" />
	</node>
	<node lat="60.529322223721174" lon="12.427925001509896" id="-17006">
		<tag k="name" v="Galtryggen" />
		<tag k="natural" v="ridge" />
		<tag k="place" v="locality" />
		<tag k="ssr:stedsnr" v="587918" />
	</node>
	<node lat="60.41861111174668" lon="11.899563881180255" id="-17011">
		<tag k="name" v="Eftasberget" />
		<tag k="natural" v="hill" />
		<tag k="place" v="locality" />
		<tag k="ssr:stedsnr" v="588110" />
	</node>
	<node lat="60.433822218283346" lon="12.215288887959261" id="-17019">
		<tag k="name" v="Møllerkoia" />
		<tag k="place" v="locality" />
		<tag k="ssr:stedsnr" v="600552" />
	</node>
	<node lat="60.38033888480557" lon="12.2709166642135" id="-17021">
		<tag k="name" v="Jønsøkmyrdråga" />
		<tag k="natural" v="valley" />
		<tag k="place" v="locality" />
		<tag k="ssr:stedsnr" v="601507" />
	</node>
	<node lat="60.396136110750476" lon="12.412052784479332" id="-17029">
		<tag k="name" v="Gryta" />
		<tag k="natural" v="valley" />
		<tag k="place" v="locality" />
		<tag k="ssr:stedsnr" v="603067" />
	</node>
	<node lat="60.47126111136608" lon="12.493874992248964" id="-17034">
		<tag k="name" v="Lauvberget" />
		<tag k="natural" v="hill" />
		<tag k="place" v="locality" />
		<tag k="ssr:stedsnr" v="612120" />
	</node>
	<node lat="60.35502777518398" lon="12.203208340128688" id="-17037">
		<tag k="name" v="Høgtidsberget" />
		<tag k="natural" v="hill" />
		<tag k="place" v="locality" />
		<tag k="ssr:stedsnr" v="612268" />
	</node>
	<node lat="60.48352777841597" lon="12.256199993444916" id="-17044">
		<tag k="name" v="Sesselberget" />
		<tag k="natural" v="hill" />
		<tag k="place" v="locality" />
		<tag k="ssr:stedsnr" v="613081" />
	</node>
	<node lat="60.36041944659286" lon="11.933411116425203" id="-17047">
		<tag k="name" v="Kvernberget" />
		<tag k="natural" v="hill" />
		<tag k="place" v="locality" />
		<tag k="ssr:stedsnr" v="613265" />
	</node>
</osm>
