<?xml version="1.0" encoding="UTF-8"?>
<osm generator="osmapis" version="0.6">
	<node id="-40957" lat="60.3359444482" lon="12.2337888956">
		<tag k="name" v="Vestre Venberget" />
		<tag k="place" v="locality" />
		<tag k="ssr:stedsnr" v="42624" />
	</node>
	<node id="-40946" lat="60.5091499996" lon="12.3933583263">
		<tag k="name" v="Nordgarden" />
		<tag k="place" v="locality" />
		<tag k="ssr:stedsnr" v="41234" />
	</node>
	<node id="-41981" lat="60.4582861114" lon="12.567669448">
		<tag k="name" v="Bakkola" />
		<tag k="old_name" v="Bakkoia" />
		<tag k="place" v="farm" />
		<tag k="ssr:stedsnr" v="795151" />
	</node>
	<node id="-40933" lat="60.4481555542" lon="12.0556305617">
		<tag k="name" v="Pelerud" />
		<tag k="place" v="farm" />
		<tag k="ssr:stedsnr" v="26251" />
	</node>
	<node id="-40932" lat="60.4994277813" lon="12.0588638934">
		<tag k="name" v="Engelund" />
		<tag k="place" v="farm" />
		<tag k="ssr:stedsnr" v="26240" />
	</node>
	<node id="-40929" lat="60.4372138918" lon="12.0547333377">
		<tag k="name" v="Skjelver" />
		<tag k="place" v="farm" />
		<tag k="ssr:stedsnr" v="26174" />
	</node>
	<node id="-40928" lat="60.5041888931" lon="12.1161888803">
		<tag k="name" v="Solem" />
		<tag k="place" v="farm" />
		<tag k="ssr:stedsnr" v="7943" />
	</node>
	<node id="-40927" lat="60.5042332874" lon="12.0633410435">
		<tag k="fixme" v="consider place=hamlet" />
		<tag k="name" v="Stemsrud" />
		<tag k="place" v="farm" />
		<tag k="ssr:stedsnr" v="7933" />
	</node>
	<node id="-40926" lat="60.5068250042" lon="12.103086116">
		<tag k="name" v="Hammerbekken" />
		<tag k="place" v="farm" />
		<tag k="ssr:stedsnr" v="7932" />
	</node>
	<node id="-40925" lat="60.5226500007" lon="12.0956194424">
		<tag k="name" v="Renstad" />
		<tag k="place" v="farm" />
		<tag k="ssr:stedsnr" v="7875" />
	</node>
	<node id="-40924" lat="60.5158000004" lon="12.5401722175">
		<tag k="loc_name" v="Raatikkala" />
		<tag k="name" v="Rotberget" />
		<tag k="place" v="hamlet" />
		<tag k="ssr:stedsnr" v="7712" />
	</node>
	<node id="-40921" lat="60.5181666635" lon="12.4718027705">
		<tag k="name" v="Bertola" />
		<tag k="place" v="isolated_dwelling" />
		<tag k="ssr:stedsnr" v="7693" />
	</node>
	<node id="-40920" lat="60.4407249999" lon="12.0224611045">
		<tag k="alt_name" v="Vollsnes" />
		<tag k="name" v="Vølsnes" />
		<tag k="place" v="farm" />
		<tag k="ssr:stedsnr" v="6751" />
	</node>
	<node id="-40919" lat="60.4460000002" lon="12.1074583356">
		<tag k="name" v="Oppåsen" />
		<tag k="place" v="farm" />
		<tag k="ssr:stedsnr" v="6746" />
	</node>
	<node id="-40918" lat="60.4393805587" lon="12.0988861145">
		<tag k="name" v="Møllerud" />
		<tag k="place" v="farm" />
		<tag k="ssr:stedsnr" v="6745" />
	</node>
	<node id="-40917" lat="60.449919448" lon="12.1335000029">
		<tag k="name" v="Bekka" />
		<tag k="place" v="locality" />
		<tag k="ssr:stedsnr" v="6741" />
	</node>
	<node id="-40916" lat="60.4539870798" lon="12.0949082456">
		<tag k="fixme" v="consider place=hamlet" />
		<tag k="name" v="Mosegrein" />
		<tag k="place" v="farm" />
		<tag k="ssr:stedsnr" v="6739" />
	</node>
	<node id="-40915" lat="60.4537055578" lon="12.1894305555">
		<tag k="name" v="Vollstad" />
		<tag k="place" v="locality" />
		<tag k="ssr:stedsnr" v="6736" />
	</node>
	<node id="-40914" lat="60.4534361138" lon="11.9903555506">
		<tag k="name" v="Berget" />
		<tag k="place" v="farm" />
		<tag k="ssr:stedsnr" v="6732" />
	</node>
	<node id="-40913" lat="60.4617203243" lon="12.0023515932">
		<tag k="fixme" v="consider place=hamlet" />
		<tag k="name" v="Kjelsbøl" />
		<tag k="place" v="farm" />
		<tag k="ssr:stedsnr" v="6727" />
	</node>
	<node id="-40912" lat="60.4620618444" lon="12.078178275">
		<tag k="fixme" v="consider place=hamlet" />
		<tag k="name" v="Bårderud" />
		<tag k="place" v="farm" />
		<tag k="ssr:stedsnr" v="6722" />
	</node>
	<node id="-40911" lat="60.4594444417" lon="12.1110611073">
		<tag k="name" v="Øverby" />
		<tag k="place" v="farm" />
		<tag k="ssr:stedsnr" v="6721" />
	</node>
	<node id="-40906" lat="60.4673009349" lon="12.0790627213">
		<tag k="fixme" v="consider place=hamlet" />
		<tag k="name" v="Kingelsrud" />
		<tag k="place" v="farm" />
		<tag k="ssr:stedsnr" v="6665" />
	</node>
	<node id="-40905" lat="60.4659083305" lon="11.9789111036">
		<tag k="name" v="Steinerud" />
		<tag k="place" v="farm" />
		<tag k="ssr:stedsnr" v="6662" />
	</node>
	<node id="-40904" lat="60.4745000011" lon="11.8906888921">
		<tag k="historic" v="shieling" />
		<tag k="name" v="Vakkersætra" />
		<tag k="place" v="locality" />
		<tag k="ssr:stedsnr" v="6660" />
	</node>
	<node id="-40901" lat="60.490608331" lon="12.1077750023">
		<tag k="name" v="Nybrenna" />
		<tag k="place" v="farm" />
		<tag k="ssr:stedsnr" v="6648" />
	</node>
	<node id="-40900" lat="60.4886611155" lon="12.0460611043">
		<tag k="name" v="Rismoen" />
		<tag k="place" v="farm" />
		<tag k="ssr:stedsnr" v="6647" />
	</node>
	<node id="-40897" lat="60.3875555525" lon="12.0081972275">
		<tag k="name" v="Skarahagen" />
		<tag k="place" v="farm" />
		<tag k="ssr:stedsnr" v="6391" />
	</node>
	<node id="-40896" lat="60.4052333776" lon="12.0613494958">
		<tag k="fixme" v="consider place=hamlet" />
		<tag k="name" v="Hammer" />
		<tag k="place" v="farm" />
		<tag k="ssr:stedsnr" v="6368" />
	</node>
	<node id="-40894" lat="60.3956972199" lon="12.0634611169">
		<tag k="name" v="Kverner" />
		<tag k="place" v="farm" />
		<tag k="ssr:stedsnr" v="6348" />
	</node>
	<node id="-40882" lat="60.4931527802" lon="12.3226166625">
		<tag k="name" v="Hytjanstorpet" />
		<tag k="place" v="farm" />
		<tag k="ssr:stedsnr" v="6073" />
	</node>
	<node id="-40881" lat="60.4012638869" lon="12.5897138878">
		<tag k="alt_name" v="Mikkelshemmet" />
		<tag k="name" v="Mikkel" />
		<tag k="place" v="isolated_dwelling" />
		<tag k="ssr:stedsnr" v="6057" />
	</node>
	<node id="-40877" lat="60.3982777764" lon="12.2603972186">
		<tag k="name" v="Lisajordet" />
		<tag k="place" v="isolated_dwelling" />
		<tag k="ssr:stedsnr" v="6041" />
	</node>
	<node id="-40876" lat="60.4213694444" lon="12.4578972308">
		<tag k="building" v="industrial" />
		<tag k="industrial" v="factory" />
		<tag k="name" v="Røgden Bruk" />
		<tag k="ssr:stedsnr" v="6029" />
	</node>
	<node id="-40875" lat="60.4274833315" lon="12.5662027802">
		<tag k="name" v="Skåkberget" />
		<tag k="place" v="isolated_dwelling" />
		<tag k="ssr:stedsnr" v="6025" />
	</node>
	<node id="-41969" lat="60.3572805529" lon="11.8557166689">
		<tag k="name" v="Jonsrud" />
		<tag k="place" v="farm" />
		<tag k="ssr:stedsnr" v="795314" />
	</node>
	<node id="-40868" lat="60.4156444427" lon="12.215233327">
		<tag k="name" v="Sæterlia" />
		<tag k="place" v="isolated_dwelling" />
		<tag k="ssr:stedsnr" v="968564" />
	</node>
	<node id="-40863" lat="60.4887083299" lon="11.9309444445">
		<tag k="name" v="Fjøråsen" />
		<tag k="place" v="farm" />
		<tag k="ssr:stedsnr" v="967069" />
	</node>
	<node id="-40860" lat="60.3838888861" lon="12.4412055463">
		<tag k="name" v="Austgarden" />
		<tag k="place" v="farm" />
		<tag k="ssr:stedsnr" v="965103" />
	</node>
	<node id="-40856" lat="60.4479083334" lon="12.4654861055">
		<tag k="name" v="Nolla" />
		<tag k="place" v="isolated_dwelling" />
		<tag k="ssr:stedsnr" v="952014" />
	</node>
	<node id="-40855" lat="60.4603638935" lon="12.5648472142">
		<tag k="name" v="Antila" />
		<tag k="place" v="isolated_dwelling" />
		<tag k="ssr:stedsnr" v="951606" />
	</node>
	<node id="-40853" lat="60.4977166626" lon="12.3460333405">
		<tag k="name" v="Fjortenkoia" />
		<tag k="place" v="isolated_dwelling" />
		<tag k="ssr:stedsnr" v="951257" />
	</node>
	<node id="-40851" lat="60.3827944473" lon="12.5049638877">
		<tag k="name" v="Sandsjøøkstan" />
		<tag k="place" v="isolated_dwelling" />
		<tag k="ssr:stedsnr" v="951104" />
	</node>
	<node id="-40849" lat="60.3591999981" lon="11.9655888803">
		<tag k="name" v="Solfjeld" />
		<tag k="place" v="farm" />
		<tag k="ssr:stedsnr" v="950023" />
	</node>
	<node id="-40848" lat="60.3924722266" lon="12.047791666">
		<tag k="name" v="Piksrud" />
		<tag k="place" v="farm" />
		<tag k="ssr:stedsnr" v="937213" />
	</node>
	<node id="-40844" lat="60.2809666691" lon="12.5042166603">
		<tag k="name" v="Rotnemoen" />
		<tag k="place" v="farm" />
		<tag k="ssr:stedsnr" v="931014" />
	</node>
	<node id="-40836" lat="60.5023166639" lon="12.2332749915">
		<tag k="name" v="Gammelvollen" />
		<tag k="place" v="isolated_dwelling" />
		<tag k="ssr:stedsnr" v="917716" />
	</node>
	<node id="-41963" lat="60.3665305532" lon="12.2565666599">
		<tag k="name" v="Surstadsaga" />
		<tag k="place" v="isolated_dwelling" />
		<tag k="ssr:stedsnr" v="795233" />
	</node>
	<node id="-40832" lat="60.4904753028" lon="11.9672726103">
		<tag k="fixme" v="consider place=hamlet" />
		<tag k="name" v="Flåset" />
		<tag k="place" v="farm" />
		<tag k="ssr:stedsnr" v="916711" />
	</node>
	<node id="-40830" lat="60.4888055562" lon="11.8693111048">
		<tag k="historic" v="shieling" />
		<tag k="name" v="Gotlandsætra" />
		<tag k="place" v="locality" />
		<tag k="ssr:stedsnr" v="916706" />
	</node>
	<node id="-40829" lat="60.4766420518" lon="12.0792884054">
		<tag k="alt_name" v="Gaustad" />
		<tag k="name" v="Grueberget" />
		<tag k="place" v="farm" />
		<tag k="ssr:stedsnr" v="916669" />
	</node>
	<node id="-40826" lat="60.4174944437" lon="12.0992388839">
		<tag k="name" v="Høgåsen" />
		<tag k="place" v="farm" />
		<tag k="ssr:stedsnr" v="916358" />
	</node>
	<node id="-40825" lat="60.3663249984" lon="12.4015305587">
		<tag k="name" v="Rundhaugen" />
		<tag k="place" v="isolated_dwelling" />
		<tag k="ssr:stedsnr" v="916206" />
	</node>
	<node id="-40822" lat="60.3996833298" lon="12.2233472261">
		<tag k="name" v="Elseberget" />
		<tag k="place" v="isolated_dwelling" />
		<tag k="ssr:stedsnr" v="916033" />
	</node>
	<node id="-40821" lat="60.4177805583" lon="12.4024249973">
		<tag k="fixme" v="consider place=suburb, village or hamlet" />
		<tag k="name" v="Svullrya" />
		<tag k="place" v="quarter" />
		<tag k="ssr:stedsnr" v="916022" />
	</node>
	<node id="-40819" lat="60.4339500025" lon="12.4566249929">
		<tag k="name" v="Neverhaugen" />
		<tag k="place" v="isolated_dwelling" />
		<tag k="ssr:stedsnr" v="916005" />
	</node>
	<node id="-40807" lat="60.4220027774" lon="12.3814916693">
		<tag k="name" v="Stubbliberget" />
		<tag k="place" v="locality" />
		<tag k="ssr:stedsnr" v="890428" />
	</node>
	<node id="-41958" lat="60.4407708065" lon="12.4851930112">
		<tag k="fixme" v="consider place=hamlet" />
		<tag k="name" v="Tvengsberget" />
		<tag k="place" v="farm" />
		<tag k="ssr:stedsnr" v="795001" />
	</node>
	<node id="-40798" lat="60.4702527761" lon="11.9577416736">
		<tag k="alt_name" v="Potteholtet" />
		<tag k="name" v="Potholtet" />
		<tag k="place" v="farm" />
		<tag k="ssr:stedsnr" v="856657" />
	</node>
	<node id="-40797" lat="60.4291083344" lon="12.1675888908">
		<tag k="name" v="Midtskog" />
		<tag k="place" v="isolated_dwelling" />
		<tag k="ssr:stedsnr" v="856727" />
	</node>
	<node id="-40795" lat="60.4259750041" lon="11.9165277698">
		<tag k="name" v="Sagstua" />
		<tag k="place" v="isolated_dwelling" />
		<tag k="ssr:stedsnr" v="856715" />
	</node>
	<node id="-40793" lat="60.3925611122" lon="12.0792888825">
		<tag k="name" v="Vellingroa" />
		<tag k="place" v="hamlet" />
		<tag k="ssr:stedsnr" v="856405" />
	</node>
	<node id="-40792" lat="60.4139499991" lon="11.9326916594">
		<tag k="name" v="Geitkoia" />
		<tag k="place" v="isolated_dwelling" />
		<tag k="ssr:stedsnr" v="856371" />
	</node>
	<node id="-40791" lat="60.3941372975" lon="12.0467689786">
		<tag k="fixme" v="consider place=hamlet" />
		<tag k="name" v="Piksrud" />
		<tag k="place" v="farm" />
		<tag k="ssr:stedsnr" v="856361" />
	</node>
	<node id="-40788" lat="60.4803472208" lon="12.324186114">
		<tag k="alt_name" v="Nedre Storberget" />
		<tag k="name" v="Storberget" />
		<tag k="place" v="isolated_dwelling" />
		<tag k="ssr:stedsnr" v="856072" />
	</node>
	<node id="-40787" lat="60.4887583334" lon="12.3692138871">
		<tag k="alt_name" v="Nordre Pelsholen" />
		<tag k="name" v="Pelsholen" />
		<tag k="place" v="farm" />
		<tag k="ssr:stedsnr" v="856069" />
	</node>
	<node id="-40784" lat="60.2909749958" lon="12.4933555636">
		<tag k="name" v="Moen" />
		<tag k="place" v="isolated_dwelling" />
		<tag k="ssr:stedsnr" v="855164" />
	</node>
	<node id="-40783" lat="60.4599845856" lon="12.5670302997">
		<tag k="fixme" v="consider place=hamlet" />
		<tag k="name" v="Løvhaugen" />
		<tag k="place" v="farm" />
		<tag k="ssr:stedsnr" v="855112" />
	</node>
	<node id="-40782" lat="60.46353056" lon="12.5629833249">
		<tag k="name" v="Heikiplassen" />
		<tag k="place" v="farm" />
		<tag k="ssr:stedsnr" v="855110" />
	</node>
	<node id="-40781" lat="60.4501305567" lon="12.3154500051">
		<tag k="name" v="Sjumann" />
		<tag k="place" v="locality" />
		<tag k="ssr:stedsnr" v="855109" />
	</node>
	<node id="-40780" lat="60.4557944462" lon="12.2273861096">
		<tag k="historic" v="shieling" />
		<tag k="name" v="Holstadsætra" />
		<tag k="place" v="locality" />
		<tag k="ssr:stedsnr" v="855106" />
	</node>
	<node id="-40776" lat="60.3907387617" lon="12.0689288001">
		<tag k="fixme" v="consider place=hamlet" />
		<tag k="name" v="Einarsrud" />
		<tag k="place" v="farm" />
		<tag k="ssr:stedsnr" v="937169" />
	</node>
	<node id="-40775" lat="60.5137999967" lon="12.54113611">
		<tag k="name" v="Østgarden" />
		<tag k="place" v="farm" />
		<tag k="ssr:stedsnr" v="831560" />
	</node>
	<node id="-40773" lat="60.5224472198" lon="12.5364583348">
		<tag k="name" v="Sletvang" />
		<tag k="place" v="farm" />
		<tag k="ssr:stedsnr" v="831555" />
	</node>
	<node id="-40771" lat="60.4123194479" lon="12.0637361191">
		<tag k="name" v="Østgård" />
		<tag k="place" v="farm" />
		<tag k="ssr:stedsnr" v="936193" />
	</node>
	<node id="-40770" lat="60.4416999983" lon="12.080369439">
		<tag k="name" v="Skytre" />
		<tag k="place" v="farm" />
		<tag k="ssr:stedsnr" v="936192" />
	</node>
	<node id="-40769" lat="60.5221055541" lon="12.0938722278">
		<tag k="name" v="Erikstad" />
		<tag k="place" v="farm" />
		<tag k="ssr:stedsnr" v="936178" />
	</node>
	<node id="-40768" lat="60.3758000003" lon="12.0965000001">
		<tag k="name" v="Albertbrakka" />
		<tag k="place" v="isolated_dwelling" />
		<tag k="ssr:stedsnr" v="936160" />
	</node>
	<node id="-40766" lat="60.4223000043" lon="12.3928111122">
		<tag k="leisure" v="park" />
		<tag k="name" v="Finnskogparken" />
		<tag k="ssr:stedsnr" v="829413" />
	</node>
	<node id="-40764" lat="60.4549499956" lon="12.099827781">
		<tag k="name" v="Bergesida" />
		<tag k="place" v="quarter" />
		<tag k="ssr:stedsnr" v="931656" />
	</node>
	<node id="-40763" lat="60.468738892" lon="11.8518888842">
		<tag k="name" v="Plankekoia" />
		<tag k="place" v="isolated_dwelling" />
		<tag k="ssr:stedsnr" v="931653" />
	</node>
	<node id="-40762" lat="60.5022027776" lon="12.0673361088">
		<tag k="name" v="Østby" />
		<tag k="place" v="farm" />
		<tag k="ssr:stedsnr" v="815862" />
	</node>
	<node id="-40760" lat="60.4434055579" lon="12.1049138826">
		<tag k="name" v="Ødegarden" />
		<tag k="place" v="farm" />
		<tag k="ssr:stedsnr" v="815855" />
	</node>
	<node id="-40759" lat="60.439969448" lon="12.0171777705">
		<tag k="alt_name" v="Kongsgarden nordre" />
		<tag k="name" v="Nordre Kongsgarden" />
		<tag k="place" v="farm" />
		<tag k="ssr:stedsnr" v="815758" />
	</node>
	<node id="-40758" lat="60.4154583318" lon="12.0887694423">
		<tag k="name" v="Nygård" />
		<tag k="place" v="farm" />
		<tag k="ssr:stedsnr" v="815224" />
	</node>
	<node id="-40757" lat="60.523288888" lon="12.0927750055">
		<tag k="name" v="Bergli" />
		<tag k="place" v="farm" />
		<tag k="ssr:stedsnr" v="815203" />
	</node>
	<node id="-40753" lat="60.4019444443" lon="12.1844888905">
		<tag k="name" v="Langmyra" />
		<tag k="place" v="farm" />
		<tag k="ssr:stedsnr" v="795365" />
	</node>
	<node id="-40752" lat="60.3985318015" lon="12.0699148066">
		<tag k="fixme" v="consider place=hamlet" />
		<tag k="name" v="Oppi" />
		<tag k="place" v="farm" />
		<tag k="ssr:stedsnr" v="795364" />
	</node>
	<node id="-40749" lat="60.423419443" lon="12.2969638976">
		<tag k="name" v="Lindalen" />
		<tag k="place" v="farm" />
		<tag k="ssr:stedsnr" v="795031" />
	</node>
	<node id="-40745" lat="60.4966944465" lon="12.1143694367">
		<tag k="name" v="Kamphaugen" />
		<tag k="place" v="isolated_dwelling" />
		<tag k="ssr:stedsnr" v="786814" />
	</node>
	<node id="-40744" lat="60.4991138897" lon="12.1267000067">
		<tag k="name" v="Teppen" />
		<tag k="place" v="farm" />
		<tag k="ssr:stedsnr" v="786809" />
	</node>
	<node id="-40742" lat="60.5006527737" lon="12.1231583391">
		<tag k="name" v="Kroken" />
		<tag k="old_name" v="Krokan" />
		<tag k="place" v="farm" />
		<tag k="ssr:stedsnr" v="917925" />
	</node>
	<node id="-40741" lat="60.5131500015" lon="12.098388883">
		<tag k="name" v="Smiholen" />
		<tag k="place" v="isolated_dwelling" />
		<tag k="ssr:stedsnr" v="917883" />
	</node>
	<node id="-40740" lat="60.5261138882" lon="12.1805527795">
		<tag k="name" v="Pyntopp" />
		<tag k="place" v="isolated_dwelling" />
		<tag k="ssr:stedsnr" v="917877" />
	</node>
	<node id="-40738" lat="60.5148333354" lon="12.4806555513">
		<tag k="fixme" v="multiple name tags, choose one and add the other to alt_name" />
		<tag k="name" v="Hergahå;Oksebråten" />
		<tag k="place" v="farm" />
		<tag k="ssr:stedsnr" v="917697" />
	</node>
	<node id="-40736" lat="60.4423680612" lon="12.0809709685">
		<tag k="fixme" v="consider place=hamlet" />
		<tag k="name" v="Skytre" />
		<tag k="place" v="farm" />
		<tag k="ssr:stedsnr" v="917734" />
	</node>
	<node id="-40732" lat="60.4286038183" lon="12.0837076117">
		<tag k="fixme" v="consider place=hamlet" />
		<tag k="name" v="Møystad" />
		<tag k="place" v="farm" />
		<tag k="ssr:stedsnr" v="916740" />
	</node>
	<node id="-40731" lat="60.4303138889" lon="11.8550972213">
		<tag k="name" v="Dulpekoia" />
		<tag k="place" v="isolated_dwelling" />
		<tag k="ssr:stedsnr" v="916727" />
	</node>
	<node id="-40726" lat="60.3970722146" lon="12.0066901159">
		<tag k="fixme" v="consider place=hamlet" />
		<tag k="name" v="Østre Skara" />
		<tag k="place" v="farm" />
		<tag k="ssr:stedsnr" v="916352" />
	</node>
	<node id="-40725" lat="60.4146638856" lon="12.2054083267">
		<tag k="name" v="Møystadsæter" />
		<tag k="place" v="farm" />
		<tag k="ssr:stedsnr" v="916348" />
	</node>
	<node id="-40723" lat="60.5032944449" lon="11.9813777821">
		<tag k="loc_name" v="Rønnåsbråten" />
		<tag k="name" v="Rønåsbråten" />
		<tag k="place" v="isolated_dwelling" />
		<tag k="ssr:stedsnr" v="774055" />
	</node>
	<node id="-40722" lat="60.3760277813" lon="12.0443194402">
		<tag k="alt_name" v="Sæta" />
		<tag k="name" v="Søndre Sæta" />
		<tag k="place" v="farm" />
		<tag k="ssr:stedsnr" v="916390" />
	</node>
	<node id="-40721" lat="60.3373666649" lon="12.234216663">
		<tag k="alt_name" v="Nordre Venberget" />
		<tag k="name" v="Venberget" />
		<tag k="place" v="farm" />
		<tag k="ssr:stedsnr" v="916244" />
	</node>
	<node id="-40716" lat="60.4548277769" lon="12.5673777807">
		<tag k="name" v="Hellerud" />
		<tag k="place" v="farm" />
		<tag k="ssr:stedsnr" v="916135" />
	</node>
	<node id="-40713" lat="60.4829638858" lon="12.3460638823">
		<tag k="name" v="Danielso" />
		<tag k="place" v="locality" />
		<tag k="ssr:stedsnr" v="916077" />
	</node>
	<node id="-40711" lat="60.3841829446" lon="12.4414933433">
		<tag k="fixme" v="consider place=hamlet" />
		<tag k="name" v="Furuberget" />
		<tag k="place" v="farm" />
		<tag k="ssr:stedsnr" v="916059" />
	</node>
	<node id="-40704" lat="60.5270194462" lon="12.4347555544">
		<tag k="name" v="Knaspenhus" />
		<tag k="place" v="locality" />
		<tag k="ssr:stedsnr" v="769911" />
	</node>
	<node id="-40703" lat="60.368086113" lon="12.4373055592">
		<tag k="name" v="Granli" />
		<tag k="place" v="isolated_dwelling" />
		<tag k="ssr:stedsnr" v="769125" />
	</node>
	<node id="-40699" lat="60.4604777814" lon="12.5662277854">
		<tag k="name" v="Bekkola" />
		<tag k="place" v="farm" />
		<tag k="ssr:stedsnr" v="909996" />
	</node>
	<node id="-40693" lat="60.4741249971" lon="11.8445666669">
		<tag k="name" v="Mikkelsbo" />
		<tag k="place" v="locality" />
		<tag k="ssr:stedsnr" v="908049" />
	</node>
	<node id="-40690" lat="60.4876305515" lon="11.9817722185">
		<tag k="name" v="Bekkholt" />
		<tag k="place" v="isolated_dwelling" />
		<tag k="ssr:stedsnr" v="907926" />
	</node>
	<node id="-41802" lat="60.4980833369" lon="12.2407749964">
		<tag k="historic" v="shieling" />
		<tag k="name" v="Byersætra" />
		<tag k="place" v="locality" />
		<tag k="ssr:stedsnr" v="612437" />
	</node>
	<node id="-40682" lat="60.40135278" lon="12.2029222162">
		<tag k="name" v="Bråten" />
		<tag k="place" v="farm" />
		<tag k="ssr:stedsnr" v="905549" />
	</node>
	<node id="-40674" lat="60.4505472258" lon="11.9738833388">
		<tag k="name" v="Åsheim" />
		<tag k="place" v="farm" />
		<tag k="ssr:stedsnr" v="734738" />
	</node>
	<node id="-40673" lat="60.4557337721" lon="12.0090259962">
		<tag k="fixme" v="consider place=hamlet" />
		<tag k="name" v="Bottilsrud" />
		<tag k="place" v="farm" />
		<tag k="ssr:stedsnr" v="734733" />
	</node>
	<node id="-40672" lat="60.4596477175" lon="12.0211218656">
		<tag k="fixme" v="consider place=hamlet" />
		<tag k="name" v="Svinøre" />
		<tag k="place" v="farm" />
		<tag k="ssr:stedsnr" v="734732" />
	</node>
	<node id="-40671" lat="60.4578972205" lon="12.0585527745">
		<tag k="name" v="Kirkenær" />
		<tag k="place" v="village" />
		<tag k="ssr:stedsnr" v="734730" />
	</node>
	<node id="-40670" lat="60.4256805569" lon="12.0949361129">
		<tag k="name" v="Åsen" />
		<tag k="place" v="farm" />
		<tag k="ssr:stedsnr" v="734724" />
	</node>
	<node id="-40667" lat="60.3954527747" lon="12.5539138932">
		<tag k="name" v="Østre Vålberget" />
		<tag k="place" v="farm" />
		<tag k="ssr:stedsnr" v="725773" />
	</node>
	<node id="-40664" lat="60.4932401748" lon="11.9743474649">
		<tag k="alt_name" v="Rønnåsen, nedre" />
		<tag k="fixme" v="consider place=hamlet" />
		<tag k="name" v="Nedre Rønnåsen" />
		<tag k="place" v="farm" />
		<tag k="ssr:stedsnr" v="713049" />
	</node>
	<node id="-40657" lat="60.3817472253" lon="11.9353138967">
		<tag k="name" v="Oslokoia" />
		<tag k="place" v="locality" />
		<tag k="ssr:stedsnr" v="892087" />
	</node>
	<node id="-40656" lat="60.41339167" lon="12.4080472302">
		<tag k="name" v="Ås" />
		<tag k="place" v="farm" />
		<tag k="ssr:stedsnr" v="892059" />
	</node>
	<node id="-40649" lat="60.5178333318" lon="12.5381027832">
		<tag k="name" v="Syverstuen" />
		<tag k="place" v="isolated_dwelling" />
		<tag k="ssr:stedsnr" v="891641" />
	</node>
	<node id="-40646" lat="60.3031138881" lon="12.4994750032">
		<tag k="name" v="Nordlinna" />
		<tag k="place" v="farm" />
		<tag k="ssr:stedsnr" v="891300" />
	</node>
	<node id="-40645" lat="60.29996389" lon="12.5008472136">
		<tag k="name" v="Nordheim" />
		<tag k="place" v="isolated_dwelling" />
		<tag k="ssr:stedsnr" v="891299" />
	</node>
	<node id="-40644" lat="60.292838888" lon="12.5012944364">
		<tag k="name" v="Nystøga" />
		<tag k="place" v="isolated_dwelling" />
		<tag k="ssr:stedsnr" v="891287" />
	</node>
	<node id="-40629" lat="60.5259694464" lon="12.0618472281">
		<tag k="name" v="Dalsbakken" />
		<tag k="place" v="farm" />
		<tag k="ssr:stedsnr" v="694859" />
	</node>
	<node id="-40628" lat="60.4674527793" lon="12.0134361175">
		<tag k="amenity" v="school" />
		<tag k="name" v="Refset skole" />
		<tag k="ssr:stedsnr" v="694826" />
	</node>
	<node id="-40627" lat="60.4622833372" lon="12.0459027692">
		<tag k="name" v="Vestre By" />
		<tag k="place" v="farm" />
		<tag k="ssr:stedsnr" v="694823" />
	</node>
	<node id="-40626" lat="60.4217472203" lon="12.0321416648">
		<tag k="leisure" v="pitch" />
		<tag k="name" v="Grue travbane" />
		<tag k="ssr:stedsnr" v="694816" />
	</node>
	<node id="-40625" lat="60.3969250033" lon="12.0582583287">
		<tag k="alt_name" v="Korsmo nordre" />
		<tag k="name" v="Nordre Korsmo" />
		<tag k="place" v="farm" />
		<tag k="ssr:stedsnr" v="694769" />
	</node>
	<node id="-40623" lat="60.3918583297" lon="12.0791111067">
		<tag k="name" v="Bergsløkken" />
		<tag k="place" v="farm" />
		<tag k="ssr:stedsnr" v="694123" />
	</node>
	<node id="-40622" lat="60.4276277806" lon="11.9986972249">
		<tag k="name" v="Syvderud" />
		<tag k="place" v="farm" />
		<tag k="ssr:stedsnr" v="694122" />
	</node>
	<node id="-40621" lat="60.427225" lon="12.0447055572">
		<tag k="name" v="Nøkleberget" />
		<tag k="place" v="farm" />
		<tag k="ssr:stedsnr" v="694117" />
	</node>
	<node id="-40620" lat="60.4257694447" lon="12.0414361027">
		<tag k="name" v="Vestberg" />
		<tag k="place" v="farm" />
		<tag k="ssr:stedsnr" v="694114" />
	</node>
	<node id="-40619" lat="60.3588055532" lon="11.9488500034">
		<tag k="name" v="Østre Neskvern" />
		<tag k="place" v="farm" />
		<tag k="ssr:stedsnr" v="889031" />
	</node>
	<node id="-40618" lat="60.5042250028" lon="12.1024472219">
		<tag k="name" v="Haugset" />
		<tag k="place" v="farm" />
		<tag k="ssr:stedsnr" v="674925" />
	</node>
	<node id="-40615" lat="60.3602583304" lon="11.9443388871">
		<tag k="name" v="Neskvern" />
		<tag k="place" v="farm" />
		<tag k="ssr:stedsnr" v="674255" />
	</node>
	<node id="-40614" lat="60.3900777795" lon="12.5057111059">
		<tag k="name" v="Sandsjøberget" />
		<tag k="place" v="isolated_dwelling" />
		<tag k="ssr:stedsnr" v="674054" />
	</node>
	<node id="-40606" lat="60.3857666653" lon="11.9883527783">
		<tag k="name" v="Lund" />
		<tag k="place" v="farm" />
		<tag k="ssr:stedsnr" v="662863" />
	</node>
	<node id="-40600" lat="60.4456666641" lon="12.0198555506">
		<tag k="alt_name" v="Vollsnesmoen;Moen" />
		<tag k="name" v="Vølsnesmoen" />
		<tag k="place" v="farm" />
		<tag k="ssr:stedsnr" v="876827" />
	</node>
	<node id="-40599" lat="60.4850749958" lon="12.0005333275">
		<tag k="name" v="Bruvoll" />
		<tag k="place" v="isolated_dwelling" />
		<tag k="ssr:stedsnr" v="876252" />
	</node>
	<node id="-40598" lat="60.4757972268" lon="12.0030833256">
		<tag k="name" v="Nilsrud" />
		<tag k="place" v="farm" />
		<tag k="ssr:stedsnr" v="876248" />
	</node>
	<node id="-40596" lat="60.4564222232" lon="12.1037861145">
		<tag k="name" v="Buffelen" />
		<tag k="place" v="farm" />
		<tag k="ssr:stedsnr" v="876243" />
	</node>
	<node id="-40595" lat="60.4199027801" lon="12.0798611141">
		<tag k="name" v="Hansrud" />
		<tag k="place" v="farm" />
		<tag k="ssr:stedsnr" v="876240" />
	</node>
	<node id="-40594" lat="60.4491166631" lon="12.0763638835">
		<tag k="name" v="Grue kommunegård" />
		<tag k="place" v="farm" />
		<tag k="ssr:stedsnr" v="876232" />
	</node>
	<node id="-40593" lat="60.4503888873" lon="12.0555861139">
		<tag k="alt_name" v="Grue skole" />
		<tag k="amenity" v="school" />
		<tag k="name" v="Kirkenær skole" />
		<tag k="ssr:stedsnr" v="876227" />
	</node>
	<node id="-40592" lat="60.5481333337" lon="12.0727666577">
		<tag k="name" v="Holtet" />
		<tag k="place" v="farm" />
		<tag k="ssr:stedsnr" v="735988" />
	</node>
	<node id="-40590" lat="60.5086722234" lon="12.0816000057">
		<tag k="alt_name" v="Østhagen" />
		<tag k="name" v="Austhagen" />
		<tag k="place" v="farm" />
		<tag k="ssr:stedsnr" v="735930" />
	</node>
	<node id="-40589" lat="60.5148194484" lon="12.1036361132">
		<tag k="alt_name" v="Vestly" />
		<tag k="name" v="Øvergård" />
		<tag k="place" v="farm" />
		<tag k="ssr:stedsnr" v="735919" />
	</node>
	<node id="-40588" lat="60.5177055546" lon="12.0561694414">
		<tag k="name" v="Dalsrud" />
		<tag k="place" v="farm" />
		<tag k="ssr:stedsnr" v="735882" />
	</node>
	<node id="-40587" lat="60.4471832206" lon="12.0799008829">
		<tag k="alt_name" v="Forkerud søndre" />
		<tag k="fixme" v="consider place=hamlet" />
		<tag k="name" v="Forkerud" />
		<tag k="place" v="farm" />
		<tag k="ssr:stedsnr" v="735741" />
	</node>
	<node id="-40586" lat="60.5067527796" lon="12.5081972235">
		<tag k="name" v="Jensila" />
		<tag k="place" v="isolated_dwelling" />
		<tag k="ssr:stedsnr" v="735716" />
	</node>
	<node id="-40585" lat="60.5335222254" lon="12.3614583382">
		<tag k="historic" v="shieling" />
		<tag k="name" v="Smågårdsætra" />
		<tag k="place" v="locality" />
		<tag k="ssr:stedsnr" v="735693" />
	</node>
	<node id="-40584" lat="60.4364867916" lon="12.0659896203">
		<tag k="fixme" v="consider place=hamlet" />
		<tag k="name" v="Huseby" />
		<tag k="place" v="farm" />
		<tag k="ssr:stedsnr" v="735688" />
	</node>
	<node id="-40580" lat="60.4981361153" lon="12.1385083264">
		<tag k="name" v="Monsrud" />
		<tag k="place" v="farm" />
		<tag k="ssr:stedsnr" v="734693" />
	</node>
	<node id="-40578" lat="60.4814111074" lon="11.9742249944">
		<tag k="name" v="Hemsæter" />
		<tag k="place" v="farm" />
		<tag k="ssr:stedsnr" v="734670" />
	</node>
	<node id="-40573" lat="60.4186749959" lon="12.4135249961">
		<tag k="name" v="Brakka" />
		<tag k="place" v="isolated_dwelling" />
		<tag k="ssr:stedsnr" v="648069" />
	</node>
	<node id="-40567" lat="60.4183333292" lon="12.0317749913">
		<tag k="name" v="Kroken" />
		<tag k="place" v="farm" />
		<tag k="ssr:stedsnr" v="734375" />
	</node>
	<node id="-40565" lat="60.4172305591" lon="12.1571194405">
		<tag k="name" v="Velta" />
		<tag k="place" v="isolated_dwelling" />
		<tag k="ssr:stedsnr" v="734370" />
	</node>
	<node id="-40563" lat="60.4803972235" lon="11.825736104">
		<tag k="alt_name" v="Bjørnbo" />
		<tag k="name" v="Bjørnbu" />
		<tag k="place" v="locality" />
		<tag k="ssr:stedsnr" v="734273" />
	</node>
	<node id="-40562" lat="60.3535111099" lon="12.5044305537">
		<tag k="name" v="Kjerkesjøberget" />
		<tag k="place" v="farm" />
		<tag k="ssr:stedsnr" v="734257" />
	</node>
	<node id="-40561" lat="60.3547433678" lon="12.4660701746">
		<tag k="alt_name" v="Østberget, nordre" />
		<tag k="name" v="Nordre Østberget" />
		<tag k="place" v="farm" />
		<tag k="ssr:stedsnr" v="734253" />
	</node>
	<node id="-40554" lat="60.3884027747" lon="12.4410250085">
		<tag k="name" v="Granberget" />
		<tag k="place" v="farm" />
		<tag k="ssr:stedsnr" v="734059" />
	</node>
	<node id="-40553" lat="60.3920861087" lon="12.4354583296">
		<tag k="name" v="Nilstorpet" />
		<tag k="place" v="farm" />
		<tag k="ssr:stedsnr" v="734052" />
	</node>
	<node id="-40552" lat="60.3935499962" lon="12.4432777848">
		<tag k="name" v="Holen" />
		<tag k="place" v="farm" />
		<tag k="ssr:stedsnr" v="734051" />
	</node>
	<node id="-40549" lat="60.4441833374" lon="12.5636666599">
		<tag k="name" v="Langbråten" />
		<tag k="place" v="farm" />
		<tag k="ssr:stedsnr" v="734009" />
	</node>
	<node id="-40548" lat="60.4282252457" lon="12.258769913">
		<tag k="fixme" v="consider place=hamlet" />
		<tag k="name" v="Skasenden" />
		<tag k="place" v="village" />
		<tag k="ssr:stedsnr" v="734008" />
	</node>
	<node id="-40547" lat="60.5015444466" lon="12.0368277748">
		<tag k="name" v="Bjørkhaugen" />
		<tag k="place" v="locality" />
		<tag k="ssr:stedsnr" v="632803" />
	</node>
	<node id="-40542" lat="60.4334333339" lon="12.5569138831">
		<tag k="name" v="Slæbekkoia" />
		<tag k="place" v="isolated_dwelling" />
		<tag k="ssr:stedsnr" v="627658" />
	</node>
	<node id="-40537" lat="60.396119443" lon="12.46561666">
		<tag k="name" v="Solmyrbastuen" />
		<tag k="place" v="locality" />
		<tag k="ssr:stedsnr" v="726075" />
	</node>
	<node id="-40529" lat="60.3551055522" lon="11.9266249937">
		<tag k="name" v="Nesskogen skole" />
		<tag k="place" v="isolated_dwelling" />
		<tag k="ssr:stedsnr" v="725040" />
	</node>
	<node id="-40522" lat="60.4558333315" lon="11.9626888862">
		<tag k="name" v="Vølsnes" />
		<tag k="place" v="farm" />
		<tag k="ssr:stedsnr" v="723861" />
	</node>
	<node id="-40520" lat="60.3664833321" lon="12.2749111034">
		<tag k="name" v="Nedre Morttjernsberget" />
		<tag k="place" v="farm" />
		<tag k="ssr:stedsnr" v="723697" />
	</node>
	<node id="-40509" lat="60.4633944417" lon="12.3072416753">
		<tag k="name" v="Sollikverna" />
		<tag k="place" v="locality" />
		<tag k="ssr:stedsnr" v="722345" />
	</node>
	<node id="-40508" lat="60.4621916668" lon="12.3377555618">
		<tag k="name" v="Sankoppkoia" />
		<tag k="place" v="isolated_dwelling" />
		<tag k="ssr:stedsnr" v="722339" />
	</node>
	<node id="-40503" lat="60.492492324" lon="11.9610749442">
		<tag k="fixme" v="consider place=hamlet" />
		<tag k="name" v="Skjelmerud" />
		<tag k="place" v="farm" />
		<tag k="ssr:stedsnr" v="722105" />
	</node>
	<node id="-40501" lat="60.5010861135" lon="12.1072416609">
		<tag k="alt_name" v="Sagen" />
		<tag k="name" v="Saga" />
		<tag k="place" v="farm" />
		<tag k="ssr:stedsnr" v="614978" />
	</node>
	<node id="-40500" lat="60.5426666684" lon="12.0808083335">
		<tag k="name" v="Nylender" />
		<tag k="place" v="farm" />
		<tag k="ssr:stedsnr" v="613977" />
	</node>
	<node id="-40498" lat="60.4412000536" lon="12.0766624536">
		<tag k="fixme" v="consider place=hamlet" />
		<tag k="name" v="Holstad" />
		<tag k="place" v="farm" />
		<tag k="ssr:stedsnr" v="613735" />
	</node>
	<node id="-40497" lat="60.5142194464" lon="12.6014777847">
		<tag k="alt_name" v="Nordre Baksjøberget" />
		<tag k="name" v="Baksjøberget" />
		<tag k="place" v="farm" />
		<tag k="ssr:stedsnr" v="613721" />
	</node>
	<node id="-40494" lat="60.463062232" lon="11.990582144">
		<tag k="fixme" v="consider place=hamlet" />
		<tag k="name" v="Kulblikk" />
		<tag k="place" v="farm" />
		<tag k="ssr:stedsnr" v="613709" />
	</node>
	<node id="-40491" lat="60.4168111081" lon="11.8920333402">
		<tag k="name" v="Prinsdalen" />
		<tag k="place" v="isolated_dwelling" />
		<tag k="ssr:stedsnr" v="612724" />
	</node>
	<node id="-40490" lat="60.4221111069" lon="11.9910972298">
		<tag k="name" v="Skinnarbøl" />
		<tag k="place" v="farm" />
		<tag k="ssr:stedsnr" v="612720" />
	</node>
	<node id="-40489" lat="60.4404027736" lon="12.2012277783">
		<tag k="name" v="Forkerudsæter" />
		<tag k="place" v="farm" />
		<tag k="ssr:stedsnr" v="612704" />
	</node>
	<node id="-40488" lat="60.4134166656" lon="12.0804444479">
		<tag k="name" v="Tangen" />
		<tag k="place" v="farm" />
		<tag k="ssr:stedsnr" v="612352" />
	</node>
	<node id="-40487" lat="60.4058194439" lon="12.5712444483">
		<tag k="name" v="Torkil" />
		<tag k="place" v="farm" />
		<tag k="ssr:stedsnr" v="612050" />
	</node>
	<node id="-40484" lat="60.4323938693" lon="12.3375036292">
		<tag k="fixme" v="consider place=hamlet" />
		<tag k="name" v="Skasberget" />
		<tag k="place" v="farm" />
		<tag k="ssr:stedsnr" v="612015" />
	</node>
	<node id="-40471" lat="60.4317277741" lon="12.4949527723">
		<tag k="name" v="Jurka" />
		<tag k="place" v="isolated_dwelling" />
		<tag k="ssr:stedsnr" v="588067" />
	</node>
	<node id="-40469" lat="60.4678083363" lon="11.9786388874">
		<tag k="name" v="Skavåsen" />
		<tag k="place" v="farm" />
		<tag k="ssr:stedsnr" v="587866" />
	</node>
	<node id="-40466" lat="60.5233583341" lon="12.3935249915">
		<tag k="name" v="Stallen" />
		<tag k="place" v="locality" />
		<tag k="ssr:stedsnr" v="587273" />
	</node>
	<node id="-41924" lat="60.4903722204" lon="11.9593083409">
		<tag k="amenity" v="school" />
		<tag k="name" v="Skjelmerud skole" />
		<tag k="ssr:stedsnr" v="783072" />
	</node>
	<node id="-40454" lat="60.4962833322" lon="12.5026777723">
		<tag k="name" v="Lauvbergstjennskoia" />
		<tag k="place" v="isolated_dwelling" />
		<tag k="ssr:stedsnr" v="709910" />
	</node>
	<node id="-40452" lat="60.498994446" lon="12.4178583336">
		<tag k="name" v="Rudolfs plass" />
		<tag k="place" v="locality" />
		<tag k="ssr:stedsnr" v="709890" />
	</node>
	<node id="-40447" lat="60.5168138885" lon="12.5391249956">
		<tag k="name" v="Søgård" />
		<tag k="place" v="isolated_dwelling" />
		<tag k="ssr:stedsnr" v="709609" />
	</node>
	<node id="-40441" lat="60.3886833363" lon="12.3653388891">
		<tag k="name" v="Vestli" />
		<tag k="place" v="isolated_dwelling" />
		<tag k="ssr:stedsnr" v="709457" />
	</node>
	<node id="-40432" lat="60.4146444459" lon="12.4253138958">
		<tag k="name" v="Revholtet" />
		<tag k="place" v="isolated_dwelling" />
		<tag k="ssr:stedsnr" v="709071" />
	</node>
	<node id="-40428" lat="60.3869249975" lon="12.5683611098">
		<tag k="name" v="Larsindorpa" />
		<tag k="place" v="locality" />
		<tag k="ssr:stedsnr" v="708812" />
	</node>
	<node id="-40422" lat="60.5123916681" lon="12.1914777771">
		<tag k="name" v="Fålerud" />
		<tag k="place" v="locality" />
		<tag k="ssr:stedsnr" v="707629" />
	</node>
	<node id="-40417" lat="60.5280416621" lon="12.0689861187">
		<tag k="name" v="Bukkemoen" />
		<tag k="place" v="farm" />
		<tag k="ssr:stedsnr" v="572869" />
	</node>
	<node id="-40416" lat="60.5030722188" lon="12.088091672">
		<tag k="name" v="Vang" />
		<tag k="place" v="farm" />
		<tag k="ssr:stedsnr" v="572260" />
	</node>
	<node id="-40415" lat="60.497320022" lon="12.0767116386">
		<tag k="fixme" v="consider place=hamlet" />
		<tag k="name" v="Moen" />
		<tag k="place" v="farm" />
		<tag k="ssr:stedsnr" v="572257" />
	</node>
	<node id="-40411" lat="60.3828621958" lon="12.0399643095">
		<tag k="fixme" v="consider place=hamlet" />
		<tag k="name" v="Hveberg" />
		<tag k="old_name" v="Hvebekk" />
		<tag k="place" v="farm" />
		<tag k="ssr:stedsnr" v="552406" />
	</node>
	<node id="-40409" lat="60.5325999961" lon="12.0495027708">
		<tag k="name" v="Jacopstua" />
		<tag k="place" v="farm" />
		<tag k="ssr:stedsnr" v="694835" />
	</node>
	<node id="-40408" lat="60.4878020642" lon="12.0319197294">
		<tag k="alt_name" v="Sætre Nordgarden" />
		<tag k="fixme" v="consider place=hamlet" />
		<tag k="name" v="Nordgarden Sætre" />
		<tag k="place" v="farm" />
		<tag k="ssr:stedsnr" v="694833" />
	</node>
	<node id="-40407" lat="60.4102972198" lon="12.051905549">
		<tag k="name" v="Lindset" />
		<tag k="place" v="farm" />
		<tag k="ssr:stedsnr" v="694139" />
	</node>
	<node id="-40406" lat="60.4257333342" lon="12.0588583261">
		<tag k="name" v="Gardsmoen" />
		<tag k="place" v="farm" />
		<tag k="ssr:stedsnr" v="694130" />
	</node>
	<node id="-40404" lat="60.4888749975" lon="12.0904972149">
		<tag k="name" v="Grøsetholen" />
		<tag k="place" v="farm" />
		<tag k="ssr:stedsnr" v="694191" />
	</node>
	<node id="-40402" lat="60.3885388926" lon="12.0027749923">
		<tag k="name" v="Skaramyra" />
		<tag k="place" v="farm" />
		<tag k="ssr:stedsnr" v="694169" />
	</node>
	<node id="-40400" lat="60.4058138871" lon="12.5098111159">
		<tag k="name" v="Østre Kalneset" />
		<tag k="place" v="farm" />
		<tag k="ssr:stedsnr" v="544042" />
	</node>
	<node id="-40395" lat="60.4047027815" lon="12.2104027796">
		<tag k="name" v="Trivli" />
		<tag k="place" v="isolated_dwelling" />
		<tag k="ssr:stedsnr" v="541559" />
	</node>
	<node id="-40390" lat="60.462302776" lon="12.4973583345">
		<tag k="name" v="Løvberget" />
		<tag k="place" v="hamlet" />
		<tag k="ssr:stedsnr" v="527977" />
	</node>
	<node id="-40389" lat="60.5133722203" lon="12.5349555604">
		<tag k="name" v="Vestheim" />
		<tag k="place" v="locality" />
		<tag k="ssr:stedsnr" v="527620" />
	</node>
	<node id="-40386" lat="60.5226722224" lon="12.34106111">
		<tag k="name" v="Nordpolen" />
		<tag k="place" v="isolated_dwelling" />
		<tag k="ssr:stedsnr" v="527249" />
	</node>
	<node id="-40382" lat="60.4459361097" lon="11.9909749995">
		<tag k="name" v="Tegelsrud" />
		<tag k="place" v="farm" />
		<tag k="ssr:stedsnr" v="526603" />
	</node>
	<node id="-41853" lat="60.4163416695" lon="12.4090277726">
		<tag k="name" v="Solheim" />
		<tag k="place" v="isolated_dwelling" />
		<tag k="ssr:stedsnr" v="648044" />
	</node>
	<node id="-40376" lat="60.5477000041" lon="12.0672472148">
		<tag k="name" v="Gunnarsrud" />
		<tag k="place" v="farm" />
		<tag k="ssr:stedsnr" v="511085" />
	</node>
	<node id="-42228" lat="60.3788252157" lon="12.044938524">
		<tag k="fixme" v="consider place=hamlet" />
		<tag k="name" v="Sæta" />
		<tag k="place" v="farm" />
		<tag k="ssr:stedsnr" v="1076091" />
	</node>
	<node id="-40373" lat="60.5443694468" lon="12.1716638876">
		<tag k="name" v="Graslikoia" />
		<tag k="place" v="isolated_dwelling" />
		<tag k="ssr:stedsnr" v="674972" />
	</node>
	<node id="-40372" lat="60.5094555598" lon="12.1511972315">
		<tag k="name" v="Holmslia" />
		<tag k="place" v="isolated_dwelling" />
		<tag k="ssr:stedsnr" v="674887" />
	</node>
	<node id="-40369" lat="60.5182749977" lon="12.069022219">
		<tag k="name" v="Bentsrud" />
		<tag k="place" v="farm" />
		<tag k="ssr:stedsnr" v="674875" />
	</node>
	<node id="-40368" lat="60.5102972221" lon="11.9506083395">
		<tag k="alt_name" v="Bresviken" />
		<tag k="name" v="Bresvika" />
		<tag k="place" v="farm" />
		<tag k="ssr:stedsnr" v="674869" />
	</node>
	<node id="-40367" lat="60.4527533193" lon="12.0237094368">
		<tag k="fixme" v="consider place=hamlet" />
		<tag k="name" v="Haugsmo" />
		<tag k="place" v="farm" />
		<tag k="ssr:stedsnr" v="674733" />
	</node>
	<node id="-40365" lat="60.4576166642" lon="12.0434583307">
		<tag k="name" v="Østmo" />
		<tag k="place" v="farm" />
		<tag k="ssr:stedsnr" v="674728" />
	</node>
	<node id="-40364" lat="60.4589833327" lon="12.0912638901">
		<tag k="name" v="Holt" />
		<tag k="place" v="farm" />
		<tag k="ssr:stedsnr" v="674726" />
	</node>
	<node id="-40362" lat="60.4349805595" lon="11.8977027808">
		<tag k="name" v="Bosekopp" />
		<tag k="place" v="isolated_dwelling" />
		<tag k="ssr:stedsnr" v="674702" />
	</node>
	<node id="-40359" lat="60.3782499986" lon="12.0105222227">
		<tag k="name" v="Slettvoll" />
		<tag k="place" v="farm" />
		<tag k="ssr:stedsnr" v="674359" />
	</node>
	<node id="-40357" lat="60.3164583368" lon="12.498783339">
		<tag k="name" v="Leikåsen" />
		<tag k="place" v="farm" />
		<tag k="ssr:stedsnr" v="674133" />
	</node>
	<node id="-40355" lat="60.4786638844" lon="12.4248250074">
		<tag k="name" v="Gangasmægg" />
		<tag k="place" v="locality" />
		<tag k="ssr:stedsnr" v="674094" />
	</node>
	<node id="-40352" lat="60.3960041134" lon="12.5486157594">
		<tag k="fixme" v="consider place=hamlet" />
		<tag k="name" v="Vålberget" />
		<tag k="place" v="farm" />
		<tag k="ssr:stedsnr" v="674041" />
	</node>
	<node id="-40348" lat="60.496188698" lon="11.9773828617">
		<tag k="alt_name" v="Rønåsen" />
		<tag k="name" v="Rønnåsen" />
		<tag k="place" v="hamlet" />
		<tag k="ssr:stedsnr" v="673680" />
	</node>
	<node id="-40347" lat="60.4921278948" lon="11.9551896235">
		<tag k="name" v="Skyrud" />
		<tag k="place" v="hamlet" />
		<tag k="ssr:stedsnr" v="673679" />
	</node>
	<node id="-40345" lat="60.4955250032" lon="12.2789333249">
		<tag k="name" v="Bjørsjøtorpet" />
		<tag k="place" v="farm" />
		<tag k="ssr:stedsnr" v="673429" />
	</node>
	<node id="-40342" lat="60.407200002" lon="12.0760583405">
		<tag k="name" v="Åset" />
		<tag k="place" v="farm" />
		<tag k="ssr:stedsnr" v="673363" />
	</node>
	<node id="-40341" lat="60.4107055595" lon="11.9924250007">
		<tag k="name" v="Sørli" />
		<tag k="place" v="farm" />
		<tag k="ssr:stedsnr" v="673361" />
	</node>
	<node id="-40339" lat="60.4031700601" lon="12.0710269975">
		<tag k="fixme" v="consider place=hamlet" />
		<tag k="name" v="Tostenbøl" />
		<tag k="place" v="farm" />
		<tag k="ssr:stedsnr" v="673344" />
	</node>
	<node id="-40336" lat="60.4413055549" lon="12.2564000072">
		<tag k="name" v="Nytorpet" />
		<tag k="place" v="farm" />
		<tag k="ssr:stedsnr" v="673133" />
	</node>
	<node id="-40335" lat="60.4364694463" lon="12.2639555531">
		<tag k="alt_name" v="Østre Luka" />
		<tag k="name" v="Luka" />
		<tag k="place" v="farm" />
		<tag k="ssr:stedsnr" v="673132" />
	</node>
	<node id="-40332" lat="60.3954361083" lon="11.8704833385">
		<tag k="name" v="Paso" />
		<tag k="place" v="locality" />
		<tag k="ssr:stedsnr" v="482572" />
	</node>
	<node id="-40331" lat="60.4072611133" lon="12.4157500032">
		<tag k="alt_name" v="Nordre Sæterbakken" />
		<tag k="name" v="Sæterbakken" />
		<tag k="place" v="farm" />
		<tag k="ssr:stedsnr" v="673038" />
	</node>
	<node id="-40330" lat="60.4025916654" lon="12.2560944394">
		<tag k="name" v="Skaslia" />
		<tag k="place" v="isolated_dwelling" />
		<tag k="ssr:stedsnr" v="673035" />
	</node>
	<node id="-40327" lat="60.4244194452" lon="12.4447472306">
		<tag k="name" v="Karlstorpet" />
		<tag k="place" v="farm" />
		<tag k="ssr:stedsnr" v="673017" />
	</node>
	<node id="-40325" lat="60.4454944451" lon="12.4453388885">
		<tag k="name" v="Kongshovsætra" />
		<tag k="place" v="locality" />
		<tag k="ssr:stedsnr" v="673004" />
	</node>
	<node id="-40316" lat="60.3843944428" lon="12.4402694416">
		<tag k="name" v="Vestgarden" />
		<tag k="place" v="farm" />
		<tag k="ssr:stedsnr" v="479102" />
	</node>
	<node id="-40311" lat="60.2963666641" lon="12.4982333265">
		<tag k="name" v="Kesten" />
		<tag k="place" v="isolated_dwelling" />
		<tag k="ssr:stedsnr" v="466280" />
	</node>
	<node id="-40309" lat="60.5120361111" lon="12.3449527852">
		<tag k="name" v="Tierkoia" />
		<tag k="place" v="isolated_dwelling" />
		<tag k="ssr:stedsnr" v="466264" />
	</node>
	<node id="-40300" lat="60.3414527763" lon="12.5086972287">
		<tag k="name" v="Oppigarden" />
		<tag k="place" v="isolated_dwelling" />
		<tag k="ssr:stedsnr" v="465158" />
	</node>
	<node id="-40292" lat="60.4847361147" lon="11.9861027805">
		<tag k="name" v="Holtmoen" />
		<tag k="place" v="farm" />
		<tag k="ssr:stedsnr" v="664946" />
	</node>
	<node id="-40288" lat="60.4202555601" lon="11.851661108">
		<tag k="name" v="Bukkebergskoia" />
		<tag k="place" v="locality" />
		<tag k="ssr:stedsnr" v="664538" />
	</node>
	<node id="-40287" lat="60.3980611082" lon="12.5497055578">
		<tag k="name" v="Nedre Vålberget" />
		<tag k="place" v="isolated_dwelling" />
		<tag k="ssr:stedsnr" v="664806" />
	</node>
	<node id="-40285" lat="60.3747527754" lon="11.9443361089">
		<tag k="name" v="Svarvera" />
		<tag k="place" v="farm" />
		<tag k="ssr:stedsnr" v="664023" />
	</node>
	<node id="-40275" lat="60.4087944213" lon="12.033743241">
		<tag k="fixme" v="consider place=hamlet" />
		<tag k="name" v="Mo" />
		<tag k="place" v="farm" />
		<tag k="ssr:stedsnr" v="451830" />
	</node>
	<node id="-40269" lat="60.5001416665" lon="12.3197027776">
		<tag k="name" v="Grusetsætra" />
		<tag k="place" v="locality" />
		<tag k="ssr:stedsnr" v="432710" />
	</node>
	<node id="-40266" lat="60.4034166661" lon="12.0875027698">
		<tag k="name" v="Åsli" />
		<tag k="place" v="farm" />
		<tag k="ssr:stedsnr" v="431345" />
	</node>
	<node id="-40265" lat="60.3577472193" lon="11.8631611066">
		<tag k="name" v="Fossæter" />
		<tag k="place" v="farm" />
		<tag k="ssr:stedsnr" v="431308" />
	</node>
	<node id="-40264" lat="60.3928083305" lon="12.2122111115">
		<tag k="name" v="Frysjøberget" />
		<tag k="place" v="farm" />
		<tag k="ssr:stedsnr" v="431403" />
	</node>
	<node id="-40263" lat="60.3705666633" lon="12.5529194363">
		<tag k="name" v="Kalsjøvika" />
		<tag k="place" v="isolated_dwelling" />
		<tag k="ssr:stedsnr" v="431214" />
	</node>
	<node id="-40260" lat="60.4048749996" lon="12.4215611196">
		<tag k="name" v="Storbråten" />
		<tag k="place" v="isolated_dwelling" />
		<tag k="ssr:stedsnr" v="431041" />
	</node>
	<node id="-40259" lat="60.4202833328" lon="12.584063891">
		<tag k="name" v="Geittjennskoia" />
		<tag k="place" v="isolated_dwelling" />
		<tag k="ssr:stedsnr" v="431034" />
	</node>
	<node id="-41867" lat="60.4250916692" lon="12.0691277769">
		<tag k="name" v="Svenneby" />
		<tag k="place" v="farm" />
		<tag k="ssr:stedsnr" v="754178" />
	</node>
	<node id="-40255" lat="60.4171888886" lon="12.3177611138">
		<tag k="name" v="Hestbråten" />
		<tag k="place" v="locality" />
		<tag k="ssr:stedsnr" v="431022" />
	</node>
	<node id="-40254" lat="60.4277750019" lon="12.3039222211">
		<tag k="name" v="Skytresætra" />
		<tag k="place" v="locality" />
		<tag k="ssr:stedsnr" v="431008" />
	</node>
	<node id="-40253" lat="60.5301833362" lon="12.1261583385">
		<tag k="name" v="Larsonkoia" />
		<tag k="place" v="locality" />
		<tag k="ssr:stedsnr" v="423827" />
	</node>
	<node id="-40252" lat="60.5116361072" lon="12.1511972187">
		<tag k="name" v="Granerud" />
		<tag k="place" v="isolated_dwelling" />
		<tag k="ssr:stedsnr" v="423820" />
	</node>
	<node id="-40251" lat="60.4510194481" lon="11.9650972247">
		<tag k="name" v="Råholt" />
		<tag k="place" v="farm" />
		<tag k="ssr:stedsnr" v="423106" />
	</node>
	<node id="-40246" lat="60.4065722245" lon="12.1989472234">
		<tag k="name" v="Granli" />
		<tag k="place" v="isolated_dwelling" />
		<tag k="ssr:stedsnr" v="419528" />
	</node>
	<node id="-40244" lat="60.5354000024" lon="12.0522888847">
		<tag k="name" v="Gammelstua" />
		<tag k="place" v="farm" />
		<tag k="ssr:stedsnr" v="511842" />
	</node>
	<node id="-40243" lat="60.4992666696" lon="12.0745750088">
		<tag k="amenity" v="school" />
		<tag k="name" v="Namnå sentralskole" />
		<tag k="ssr:stedsnr" v="511831" />
	</node>
	<node id="-40242" lat="60.4900305582" lon="12.09756945">
		<tag k="name" v="Nerby" />
		<tag k="place" v="farm" />
		<tag k="ssr:stedsnr" v="511830" />
	</node>
	<node id="-40241" lat="60.4498972196" lon="12.0595250071">
		<tag k="leisure" v="pitch" />
		<tag k="name" v="Grue stadion" />
		<tag k="ssr:stedsnr" v="511749" />
	</node>
	<node id="-40238" lat="60.535430554" lon="12.09227778">
		<tag k="name" v="Granli" />
		<tag k="place" v="farm" />
		<tag k="ssr:stedsnr" v="511210" />
	</node>
	<node id="-40236" lat="60.4737944426" lon="12.0683472296">
		<tag k="name" v="Bjertnes" />
		<tag k="place" v="farm" />
		<tag k="ssr:stedsnr" v="511203" />
	</node>
	<node id="-40235" lat="60.5084000012" lon="12.0719944521">
		<tag k="name" v="Holtet" />
		<tag k="place" v="farm" />
		<tag k="ssr:stedsnr" v="511196" />
	</node>
	<node id="-40234" lat="60.3745694421" lon="12.0463527798">
		<tag k="name" v="Brattåsen" />
		<tag k="place" v="locality" />
		<tag k="ssr:stedsnr" v="511171" />
	</node>
	<node id="-40232" lat="60.4502805588" lon="12.0510333368">
		<tag k="name" v="Kirkenær" />
		<tag k="place" v="farm" />
		<tag k="ssr:stedsnr" v="511158" />
	</node>
	<node id="-40231" lat="60.3716333306" lon="12.3632138954">
		<tag k="name" v="Stallvikbrakka" />
		<tag k="place" v="locality" />
		<tag k="ssr:stedsnr" v="406506" />
	</node>
	<node id="-40222" lat="60.4192444421" lon="12.4644638922">
		<tag k="name" v="Gjølstadsaga" />
		<tag k="place" v="isolated_dwelling" />
		<tag k="ssr:stedsnr" v="404626" />
	</node>
	<node id="-40218" lat="60.3454416639" lon="12.4780388968">
		<tag k="name" v="Jærviharjo" />
		<tag k="place" v="isolated_dwelling" />
		<tag k="ssr:stedsnr" v="404209" />
	</node>
	<node id="-40214" lat="60.3991750026" lon="12.0007611151">
		<tag k="name" v="Vestre Skara" />
		<tag k="place" v="farm" />
		<tag k="ssr:stedsnr" v="390855" />
	</node>
	<node id="-40213" lat="60.37221667" lon="12.1025555613">
		<tag k="name" v="Storholtkoia" />
		<tag k="place" v="isolated_dwelling" />
		<tag k="ssr:stedsnr" v="390206" />
	</node>
	<node id="-40212" lat="60.4512111088" lon="12.0551194471">
		<tag k="amenity" v="townhall" />
		<tag k="name" v="Grue rådhus" />
		<tag k="ssr:stedsnr" v="390167" />
	</node>
	<node id="-40211" lat="60.4455916706" lon="12.0037611053">
		<tag k="name" v="Brattli" />
		<tag k="place" v="farm" />
		<tag k="ssr:stedsnr" v="390162" />
	</node>
	<node id="-40210" lat="60.4961722198" lon="12.3663027797">
		<tag k="alt_name" v="Tysketorpet, vestre" />
		<tag k="name" v="Vestre Tysketorpet" />
		<tag k="place" v="hamlet" />
		<tag k="ssr:stedsnr" v="493977" />
	</node>
	<node id="-40207" lat="60.5093416639" lon="12.1088777693">
		<tag k="name" v="Østre" />
		<tag k="place" v="farm" />
		<tag k="ssr:stedsnr" v="492927" />
	</node>
	<node id="-40206" lat="60.5052888881" lon="11.9447499935">
		<tag k="name" v="Storbråten" />
		<tag k="place" v="farm" />
		<tag k="ssr:stedsnr" v="492924" />
	</node>
	<node id="-40204" lat="60.5125138913" lon="12.061872221">
		<tag k="name" v="Engebakken" />
		<tag k="place" v="farm" />
		<tag k="ssr:stedsnr" v="492883" />
	</node>
	<node id="-40200" lat="60.4464690892" lon="12.042364712">
		<tag k="fixme" v="consider place=hamlet" />
		<tag k="name" v="Voll" />
		<tag k="place" v="farm" />
		<tag k="ssr:stedsnr" v="492734" />
	</node>
	<node id="-40199" lat="60.4430166661" lon="12.1691194416">
		<tag k="alt_name" v="Lundebysætra" />
		<tag k="historic" v="shieling" />
		<tag k="name" v="Lundbysætra" />
		<tag k="place" v="locality" />
		<tag k="ssr:stedsnr" v="492726" />
	</node>
	<node id="-40188" lat="60.3523527781" lon="12.5075527767">
		<tag k="name" v="Haugen" />
		<tag k="place" v="isolated_dwelling" />
		<tag k="ssr:stedsnr" v="360115" />
	</node>
	<node id="-42235" lat="60.3980119904" lon="12.4370072478">
		<tag k="name" v="Nordre Helgeberget" />
		<tag k="place" v="farm" />
		<tag k="ssr:stedsnr" v="1076108" />
	</node>
	<node id="-42234" lat="60.3954312372" lon="12.5482391494">
		<tag k="name" v="Vestre Vålberget" />
		<tag k="place" v="farm" />
		<tag k="ssr:stedsnr" v="1076106" />
	</node>
	<node id="-42233" lat="60.3979534458" lon="12.002671187">
		<tag k="name" v="Skara" />
		<tag k="place" v="hamlet" />
		<tag k="ssr:stedsnr" v="1076103" />
	</node>
	<node id="-42232" lat="60.4108533706" lon="11.9938693684">
		<tag k="fixme" v="consider place=hamlet" />
		<tag k="name" v="Fuglerud" />
		<tag k="place" v="farm" />
		<tag k="ssr:stedsnr" v="1076102" />
	</node>
	<node id="-42231" lat="60.4934912203" lon="11.9547506512">
		<tag k="fixme" v="consider place=hamlet" />
		<tag k="name" v="Nordre Skyrud" />
		<tag k="place" v="farm" />
		<tag k="ssr:stedsnr" v="1076101" />
	</node>
	<node id="-42230" lat="60.4950132697" lon="11.9712250256">
		<tag k="fixme" v="consider place=hamlet" />
		<tag k="name" v="Åsum" />
		<tag k="place" v="farm" />
		<tag k="ssr:stedsnr" v="1076099" />
	</node>
	<node id="-42229" lat="60.4842883958" lon="12.0543664788">
		<tag k="fixme" v="consider place=hamlet" />
		<tag k="name" v="Østre Enger" />
		<tag k="place" v="farm" />
		<tag k="ssr:stedsnr" v="1076093" />
	</node>
	<node id="-40180" lat="60.4736083352" lon="12.3057166742">
		<tag k="name" v="Solliberghjemmet" />
		<tag k="place" v="locality" />
		<tag k="ssr:stedsnr" v="358313" />
	</node>
	<node id="-42227" lat="60.4565520433" lon="12.0411557036">
		<tag k="fixme" v="consider place=hamlet" />
		<tag k="name" v="Hornbekk" />
		<tag k="place" v="farm" />
		<tag k="ssr:stedsnr" v="1076076" />
	</node>
	<node id="-42226" lat="60.4666907797" lon="12.0287997656">
		<tag k="fixme" v="consider place=hamlet" />
		<tag k="name" v="Vestre By" />
		<tag k="place" v="farm" />
		<tag k="ssr:stedsnr" v="1076075" />
	</node>
	<node id="-42225" lat="60.4799013708" lon="12.071514438">
		<tag k="fixme" v="consider place=hamlet" />
		<tag k="name" v="Grøset" />
		<tag k="place" v="farm" />
		<tag k="ssr:stedsnr" v="1076070" />
	</node>
	<node id="-42224" lat="60.545220391" lon="12.0666342193">
		<tag k="fixme" v="consider place=hamlet" />
		<tag k="name" v="Toverud" />
		<tag k="place" v="farm" />
		<tag k="ssr:stedsnr" v="1076064" />
	</node>
	<node id="-42223" lat="60.382750107" lon="12.039504211">
		<tag k="name" v="Østre Hveberg" />
		<tag k="place" v="farm" />
		<tag k="ssr:stedsnr" v="1076063" />
	</node>
	<node id="-40174" lat="60.4278777802" lon="11.9374916736">
		<tag k="name" v="Tenåskoia" />
		<tag k="place" v="isolated_dwelling" />
		<tag k="ssr:stedsnr" v="491708" />
	</node>
	<node id="-40173" lat="60.4369222251" lon="12.1112500009">
		<tag k="alt_name" v="Lundebymoen" />
		<tag k="name" v="Lundbymoen" />
		<tag k="place" v="farm" />
		<tag k="ssr:stedsnr" v="491700" />
	</node>
	<node id="-40172" lat="60.4891361112" lon="11.9826055568">
		<tag k="name" v="Bekken" />
		<tag k="place" v="farm" />
		<tag k="ssr:stedsnr" v="491685" />
	</node>
	<node id="-40171" lat="60.4691228406" lon="12.0790700204">
		<tag k="fixme" v="consider place=hamlet" />
		<tag k="name" v="Ingelsrud" />
		<tag k="place" v="farm" />
		<tag k="ssr:stedsnr" v="491654" />
	</node>
	<node id="-40170" lat="60.4825722257" lon="12.0766194507">
		<tag k="name" v="Lund" />
		<tag k="place" v="farm" />
		<tag k="ssr:stedsnr" v="491645" />
	</node>
	<node id="-40169" lat="60.4774194457" lon="12.0751027756">
		<tag k="alt_name" v="Grøset, s;Grøset søndre" />
		<tag k="name" v="Søndre Grøset" />
		<tag k="place" v="farm" />
		<tag k="ssr:stedsnr" v="491644" />
	</node>
	<node id="-40168" lat="60.4847305549" lon="12.1025000051">
		<tag k="name" v="Øverby" />
		<tag k="place" v="farm" />
		<tag k="ssr:stedsnr" v="491633" />
	</node>
	<node id="-40167" lat="60.4861978214" lon="12.050306081">
		<tag k="name" v="Enger" />
		<tag k="place" v="hamlet" />
		<tag k="ssr:stedsnr" v="491631" />
	</node>
	<node id="-40166" lat="60.4160611152" lon="12.2047250063">
		<tag k="name" v="Gardsæter" />
		<tag k="place" v="farm" />
		<tag k="ssr:stedsnr" v="491364" />
	</node>
	<node id="-40165" lat="60.417622219" lon="11.9979833359">
		<tag k="name" v="Smedstad" />
		<tag k="place" v="farm" />
		<tag k="ssr:stedsnr" v="491354" />
	</node>
	<node id="-40164" lat="60.4169611156" lon="11.9065666657">
		<tag k="historic" v="shieling" />
		<tag k="name" v="Oppåkersætra" />
		<tag k="place" v="locality" />
		<tag k="ssr:stedsnr" v="491353" />
	</node>
	<node id="-40163" lat="60.4045277794" lon="12.0858972254">
		<tag k="name" v="Åserud" />
		<tag k="place" v="farm" />
		<tag k="ssr:stedsnr" v="491334" />
	</node>
	<node id="-40160" lat="60.3503833357" lon="12.4694138972">
		<tag k="alt_name" v="Østberget, s" />
		<tag k="name" v="Søndre Østberget" />
		<tag k="place" v="isolated_dwelling" />
		<tag k="ssr:stedsnr" v="491236" />
	</node>
	<node id="-40157" lat="60.4613583323" lon="12.5611388964">
		<tag k="name" v="Norrobeldo" />
		<tag k="place" v="farm" />
		<tag k="ssr:stedsnr" v="491108" />
	</node>
	<node id="-40156" lat="60.4570166639" lon="12.4942416598">
		<tag k="name" v="Anderstorpet" />
		<tag k="place" v="locality" />
		<tag k="ssr:stedsnr" v="491105" />
	</node>
	<node id="-40152" lat="60.3919416636" lon="12.4323249953">
		<tag k="name" v="Nilsbråten" />
		<tag k="place" v="farm" />
		<tag k="ssr:stedsnr" v="491045" />
	</node>
	<node id="-40151" lat="60.4102694431" lon="12.4173444493">
		<tag k="name" v="Luka" />
		<tag k="place" v="farm" />
		<tag k="ssr:stedsnr" v="491026" />
	</node>
	<node id="-40150" lat="60.4175478517" lon="12.4252197029">
		<tag k="fixme" v="consider place=hamlet" />
		<tag k="name" v="Revholtet" />
		<tag k="place" v="farm" />
		<tag k="ssr:stedsnr" v="491025" />
	</node>
	<node id="-40148" lat="60.4339277739" lon="12.6031166728">
		<tag k="alt_name" v="Baksjødamkoia" />
		<tag k="name" v="Baksjøkoia" />
		<tag k="place" v="isolated_dwelling" />
		<tag k="ssr:stedsnr" v="491017" />
	</node>
	<node id="-40143" lat="60.4373527808" lon="12.5335111058">
		<tag k="name" v="Håven" />
		<tag k="place" v="isolated_dwelling" />
		<tag k="ssr:stedsnr" v="552021" />
	</node>
	<node id="-40140" lat="60.4513111127" lon="11.9647444449">
		<tag k="name" v="Myrvold" />
		<tag k="place" v="farm" />
		<tag k="ssr:stedsnr" v="344902" />
	</node>
	<node id="-40139" lat="60.4148444414" lon="12.4108416627">
		<tag k="amenity" v="school" />
		<tag k="name" v="Helgeberget skole" />
		<tag k="ssr:stedsnr" v="345054" />
	</node>
	<node id="-42181" lat="60.3660194482" lon="12.5554055542">
		<tag k="name" v="Kalsjøberget" />
		<tag k="place" v="locality" />
		<tag k="ssr:stedsnr" v="965914" />
	</node>
	<node id="-40131" lat="60.4971888854" lon="12.1262555461">
		<tag k="name" v="Steinberg" />
		<tag k="place" v="farm" />
		<tag k="ssr:stedsnr" v="482801" />
	</node>
	<node id="-40117" lat="60.4652083328" lon="12.0934250069">
		<tag k="historic" v="shieling" />
		<tag k="name" v="Bårderudsbråten" />
		<tag k="place" v="locality" />
		<tag k="ssr:stedsnr" v="329246" />
	</node>
	<node id="-40116" lat="60.5347694408" lon="12.1079250051">
		<tag k="historic" v="shieling" />
		<tag k="name" v="Oppisætra" />
		<tag k="place" v="locality" />
		<tag k="ssr:stedsnr" v="329216" />
	</node>
	<node id="-40114" lat="60.4919916645" lon="12.0843472191">
		<tag k="name" v="Kalbakken" />
		<tag k="place" v="farm" />
		<tag k="ssr:stedsnr" v="329212" />
	</node>
	<node id="-40113" lat="60.4951694466" lon="12.0071055574">
		<tag k="name" v="Åsli" />
		<tag k="place" v="farm" />
		<tag k="ssr:stedsnr" v="329202" />
	</node>
	<node id="-40106" lat="60.4319499965" lon="12.1151944495">
		<tag k="name" v="Krokerud" />
		<tag k="place" v="farm" />
		<tag k="ssr:stedsnr" v="298927" />
	</node>
	<node id="-40103" lat="60.4373361119" lon="12.0963527827">
		<tag k="alt_name" v="Pålsrud" />
		<tag k="name" v="Paulsrud" />
		<tag k="place" v="farm" />
		<tag k="ssr:stedsnr" v="309709" />
	</node>
	<node id="-41841" lat="60.3565444424" lon="11.9508472261">
		<tag k="name" v="Søndre Neskvern" />
		<tag k="place" v="farm" />
		<tag k="ssr:stedsnr" v="646023" />
	</node>
	<node id="-40099" lat="60.4515694405" lon="12.563463892">
		<tag k="name" v="Toivola" />
		<tag k="place" v="isolated_dwelling" />
		<tag k="ssr:stedsnr" v="301668" />
	</node>
	<node id="-42133" lat="60.4483055556" lon="12.0111277823">
		<tag k="name" v="Gjeterud" />
		<tag k="place" v="farm" />
		<tag k="ssr:stedsnr" v="876173" />
	</node>
	<node id="-42132" lat="60.4262888892" lon="12.0023416724">
		<tag k="name" v="Nygård" />
		<tag k="place" v="farm" />
		<tag k="ssr:stedsnr" v="876155" />
	</node>
	<node id="-42130" lat="60.3921666653" lon="12.0700916639">
		<tag k="name" v="Løkken" />
		<tag k="place" v="farm" />
		<tag k="ssr:stedsnr" v="876152" />
	</node>
	<node id="-42129" lat="60.5492138855" lon="12.0699999928">
		<tag k="name" v="Nybak" />
		<tag k="place" v="farm" />
		<tag k="ssr:stedsnr" v="876104" />
	</node>
	<node id="-42128" lat="60.3985416695" lon="12.1981305555">
		<tag k="name" v="Snekkara" />
		<tag k="place" v="farm" />
		<tag k="ssr:stedsnr" v="870634" />
	</node>
	<node id="-42127" lat="60.5067638846" lon="12.1517166614">
		<tag k="alt_name" v="Nabben" />
		<tag k="name" v="Nebben" />
		<tag k="place" v="isolated_dwelling" />
		<tag k="ssr:stedsnr" v="857902" />
	</node>
	<node id="-40078" lat="60.373375003" lon="11.860861113">
		<tag k="name" v="Stortjennskoia" />
		<tag k="place" v="locality" />
		<tag k="ssr:stedsnr" v="466238" />
	</node>
	<node id="-40076" lat="60.396480555" lon="12.5880305615">
		<tag k="name" v="Hagen" />
		<tag k="place" v="isolated_dwelling" />
		<tag k="ssr:stedsnr" v="465828" />
	</node>
	<node id="-42123" lat="60.5339722198" lon="12.0508722239">
		<tag k="name" v="Sorknes" />
		<tag k="place" v="hamlet" />
		<tag k="ssr:stedsnr" v="856914" />
	</node>
	<node id="-42122" lat="60.4518968812" lon="12.0404933699">
		<tag k="name" v="Haug" />
		<tag k="place" v="hamlet" />
		<tag k="ssr:stedsnr" v="856750" />
	</node>
	<node id="-42121" lat="60.4375722201" lon="11.8449222288">
		<tag k="name" v="Tobakksholet" />
		<tag k="place" v="isolated_dwelling" />
		<tag k="ssr:stedsnr" v="856702" />
	</node>
	<node id="-42119" lat="60.446786873" lon="12.0932103972">
		<tag k="fixme" v="consider place=hamlet" />
		<tag k="name" v="Berger" />
		<tag k="place" v="farm" />
		<tag k="ssr:stedsnr" v="856759" />
	</node>
	<node id="-42118" lat="60.4434277806" lon="12.1049111129">
		<tag k="name" v="Ødegarden" />
		<tag k="place" v="farm" />
		<tag k="ssr:stedsnr" v="856756" />
	</node>
	<node id="-40069" lat="60.4982972215" lon="12.3800805562">
		<tag k="name" v="Knøttet" />
		<tag k="place" v="isolated_dwelling" />
		<tag k="ssr:stedsnr" v="284257" />
	</node>
	<node id="-40068" lat="60.35590833" lon="11.9447000059">
		<tag k="name" v="Strandås" />
		<tag k="place" v="isolated_dwelling" />
		<tag k="ssr:stedsnr" v="282022" />
	</node>
	<node id="-40067" lat="60.486355552" lon="12.1005138871">
		<tag k="name" v="Byggerholtet" />
		<tag k="old_name" v="Dal" />
		<tag k="place" v="farm" />
		<tag k="ssr:stedsnr" v="278648" />
	</node>
	<node id="-40066" lat="60.5356444453" lon="12.0898916634">
		<tag k="name" v="Sorknesfeltet" />
		<tag k="place" v="hamlet" />
		<tag k="ssr:stedsnr" v="269856" />
	</node>
	<node id="-40064" lat="60.4507277815" lon="12.0885361106">
		<tag k="name" v="Berger" />
		<tag k="place" v="farm" />
		<tag k="ssr:stedsnr" v="269255" />
	</node>
	<node id="-40063" lat="60.4481194413" lon="12.0910611181">
		<tag k="name" v="Berger" />
		<tag k="place" v="farm" />
		<tag k="ssr:stedsnr" v="269252" />
	</node>
	<node id="-42110" lat="60.3546944467" lon="11.8844805576">
		<tag k="name" v="Overåsberget" />
		<tag k="place" v="farm" />
		<tag k="ssr:stedsnr" v="856300" />
	</node>
	<node id="-40061" lat="60.53016389" lon="12.0727527816">
		<tag k="name" v="Trangsrud" />
		<tag k="place" v="farm" />
		<tag k="ssr:stedsnr" v="451874" />
	</node>
	<node id="-42108" lat="60.3890777751" lon="12.4351694439">
		<tag k="name" v="Søgård" />
		<tag k="place" v="farm" />
		<tag k="ssr:stedsnr" v="856051" />
	</node>
	<node id="-40059" lat="60.4441416649" lon="12.1109027864">
		<tag k="name" v="Bråten" />
		<tag k="place" v="farm" />
		<tag k="ssr:stedsnr" v="451858" />
	</node>
	<node id="-42105" lat="60.3923527816" lon="12.3556305493">
		<tag k="name" v="Meldalen" />
		<tag k="place" v="farm" />
		<tag k="ssr:stedsnr" v="856043" />
	</node>
	<node id="-40056" lat="60.4120527741" lon="12.0581722294">
		<tag k="name" v="Tjuren" />
		<tag k="place" v="farm" />
		<tag k="ssr:stedsnr" v="451254" />
	</node>
	<node id="-40055" lat="60.4496138924" lon="12.0356638913">
		<tag k="name" v="Tomterstad" />
		<tag k="place" v="farm" />
		<tag k="ssr:stedsnr" v="451181" />
	</node>
	<node id="-40054" lat="60.443050003" lon="12.0056166665">
		<tag k="name" v="Tveter" />
		<tag k="place" v="farm" />
		<tag k="ssr:stedsnr" v="451180" />
	</node>
	<node id="-40053" lat="60.4505305559" lon="12.0187666658">
		<tag k="name" v="Rønningen" />
		<tag k="place" v="isolated_dwelling" />
		<tag k="ssr:stedsnr" v="451172" />
	</node>
	<node id="-40052" lat="60.4227750028" lon="12.0386749955">
		<tag k="name" v="Fredbo" />
		<tag k="place" v="farm" />
		<tag k="ssr:stedsnr" v="451152" />
	</node>
	<node id="-40051" lat="60.5063722258" lon="12.0420972315">
		<tag k="name" v="Hundbuberget" />
		<tag k="place" v="farm" />
		<tag k="ssr:stedsnr" v="451228" />
	</node>
	<node id="-42098" lat="60.4324444469" lon="11.9953722146">
		<tag k="name" v="Holen" />
		<tag k="place" v="farm" />
		<tag k="ssr:stedsnr" v="848871" />
	</node>
	<node id="-40049" lat="60.3838166684" lon="12.0474416643">
		<tag k="name" v="Skinnfilli" />
		<tag k="place" v="farm" />
		<tag k="ssr:stedsnr" v="249363" />
	</node>
	<node id="-40048" lat="60.3863695133" lon="12.0317847777">
		<tag k="fixme" v="consider place=hamlet" />
		<tag k="name" v="Grinder" />
		<tag k="place" v="farm" />
		<tag k="ssr:stedsnr" v="249362" />
	</node>
	<node id="-42095" lat="60.4997222262" lon="12.1586888967">
		<tag k="name" v="Skulstadsætra" />
		<tag k="place" v="isolated_dwelling" />
		<tag k="ssr:stedsnr" v="848788" />
	</node>
	<node id="-40046" lat="60.367633337" lon="11.8459249999">
		<tag k="name" v="Libergskoia" />
		<tag k="place" v="isolated_dwelling" />
		<tag k="ssr:stedsnr" v="249353" />
	</node>
	<node id="-41831" lat="60.381052776" lon="11.8340749945">
		<tag k="name" v="Meitsjøtorpet" />
		<tag k="place" v="isolated_dwelling" />
		<tag k="ssr:stedsnr" v="613907" />
	</node>
	<node id="-40033" lat="60.4740388868" lon="11.9423194395">
		<tag k="name" v="Steinahemmet" />
		<tag k="place" v="locality" />
		<tag k="ssr:stedsnr" v="298107" />
	</node>
	<node id="-40032" lat="60.4890861113" lon="11.9584583324">
		<tag k="name" v="Skogdal" />
		<tag k="place" v="isolated_dwelling" />
		<tag k="ssr:stedsnr" v="298104" />
	</node>
	<node id="-40030" lat="60.4931166662" lon="11.9528083328">
		<tag k="name" v="Skyrud" />
		<tag k="place" v="farm" />
		<tag k="ssr:stedsnr" v="298098" />
	</node>
	<node id="-40027" lat="60.4831277789" lon="12.4591361145">
		<tag k="name" v="Revtjennskoia" />
		<tag k="place" v="isolated_dwelling" />
		<tag k="ssr:stedsnr" v="285885" />
	</node>
	<node id="-41091" lat="60.4690305553" lon="11.9874472184">
		<tag k="name" v="Koiteppa" />
		<tag k="place" v="farm" />
		<tag k="ssr:stedsnr" v="102693" />
	</node>
	<node id="-40023" lat="60.424766668" lon="12.2893722209">
		<tag k="name" v="Nordre Lindalen" />
		<tag k="place" v="isolated_dwelling" />
		<tag k="ssr:stedsnr" v="285420" />
	</node>
	<node id="-40021" lat="60.4987638909" lon="12.1399027752">
		<tag k="name" v="Monsrud skole" />
		<tag k="place" v="isolated_dwelling" />
		<tag k="ssr:stedsnr" v="180815" />
	</node>
	<node id="-40015" lat="60.4203361074" lon="12.4272444424">
		<tag k="name" v="Klyperud" />
		<tag k="place" v="farm" />
		<tag k="ssr:stedsnr" v="285063" />
	</node>
	<node id="-42062" lat="60.4424472235" lon="12.1942777799">
		<tag k="name" v="Furulundhytta" />
		<tag k="place" v="isolated_dwelling" />
		<tag k="ssr:stedsnr" v="844587" />
	</node>
	<node id="-42057" lat="60.4841583322" lon="11.9429194458">
		<tag k="name" v="Teppa" />
		<tag k="place" v="farm" />
		<tag k="ssr:stedsnr" v="844098" />
	</node>
	<node id="-42056" lat="60.4905833331" lon="11.951874999">
		<tag k="name" v="Skyrud" />
		<tag k="place" v="farm" />
		<tag k="ssr:stedsnr" v="844096" />
	</node>
	<node id="-42054" lat="60.4983972197" lon="11.9277861061">
		<tag k="name" v="Gjerdsla" />
		<tag k="place" v="farm" />
		<tag k="ssr:stedsnr" v="844084" />
	</node>
	<node id="-42052" lat="60.5093499987" lon="12.4038027768">
		<tag k="name" v="Bråten" />
		<tag k="place" v="isolated_dwelling" />
		<tag k="ssr:stedsnr" v="831876" />
	</node>
	<node id="-39998" lat="60.4552222187" lon="11.9896277717">
		<tag k="name" v="Berget" />
		<tag k="place" v="farm" />
		<tag k="ssr:stedsnr" v="284678" />
	</node>
	<node id="-39997" lat="60.5096472201" lon="12.5450833315">
		<tag k="name" v="Nerbråten" />
		<tag k="place" v="isolated_dwelling" />
		<tag k="ssr:stedsnr" v="284635" />
	</node>
	<node id="-39995" lat="60.5153833328" lon="12.5384999954">
		<tag k="name" v="Solheim" />
		<tag k="place" v="isolated_dwelling" />
		<tag k="ssr:stedsnr" v="284632" />
	</node>
	<node id="-39994" lat="60.4202694471" lon="12.2817861158">
		<tag k="name" v="Fagerstrand" />
		<tag k="place" v="isolated_dwelling" />
		<tag k="ssr:stedsnr" v="284587" />
	</node>
	<node id="-39993" lat="60.3041333307" lon="12.4823055488">
		<tag k="name" v="Linnerud" />
		<tag k="place" v="isolated_dwelling" />
		<tag k="ssr:stedsnr" v="284284" />
	</node>
	<node id="-39991" lat="60.3663972246" lon="12.4490166705">
		<tag k="name" v="Kestjordet" />
		<tag k="place" v="locality" />
		<tag k="ssr:stedsnr" v="284201" />
	</node>
	<node id="-39987" lat="60.3860555589" lon="12.4894416616">
		<tag k="name" v="Sandsjøbaden" />
		<tag k="place" v="isolated_dwelling" />
		<tag k="ssr:stedsnr" v="284118" />
	</node>
	<node id="-39986" lat="60.4492166661" lon="11.9038500032">
		<tag k="name" v="Slæbekk-koia" />
		<tag k="place" v="isolated_dwelling" />
		<tag k="ssr:stedsnr" v="283944" />
	</node>
	<node id="-39985" lat="60.3972111082" lon="12.5964694353">
		<tag k="name" v="Køya" />
		<tag k="place" v="isolated_dwelling" />
		<tag k="ssr:stedsnr" v="283820" />
	</node>
	<node id="-39981" lat="60.4856749974" lon="12.567211108">
		<tag k="name" v="Svartbekkoia" />
		<tag k="place" v="isolated_dwelling" />
		<tag k="ssr:stedsnr" v="283555" />
	</node>
	<node id="-42024" lat="60.3430833364" lon="12.1940750014">
		<tag k="historic" v="shieling" />
		<tag k="name" v="Hvebergsætra" />
		<tag k="place" v="locality" />
		<tag k="ssr:stedsnr" v="829695" />
	</node>
	<node id="-41820" lat="60.4631527747" lon="12.3773833327">
		<tag k="alt_name" v="Rotneberget, nedre;Nergarden;Rotneberget" />
		<tag k="name" v="Nedre Rotneberget" />
		<tag k="place" v="farm" />
		<tag k="ssr:stedsnr" v="613106" />
	</node>
	<node id="-42161" lat="60.5339722179" lon="12.17204722">
		<tag k="name" v="Håkonshallen" />
		<tag k="place" v="isolated_dwelling" />
		<tag k="ssr:stedsnr" v="952491" />
	</node>
	<node id="-42012" lat="60.3999111091" lon="12.0476888888">
		<tag k="name" v="Sandmoteppen" />
		<tag k="place" v="farm" />
		<tag k="ssr:stedsnr" v="816187" />
	</node>
	<node id="-42011" lat="60.5326805538" lon="12.051205552">
		<tag k="name" v="Sørgarden" />
		<tag k="place" v="farm" />
		<tag k="ssr:stedsnr" v="815844" />
	</node>
	<node id="-42010" lat="60.4421583323" lon="12.1100194421">
		<tag k="alt_name" v="Ødegarden øvre" />
		<tag k="name" v="Øvre Ødegarden" />
		<tag k="place" v="farm" />
		<tag k="ssr:stedsnr" v="815783" />
	</node>
	<node id="-42009" lat="60.4466499989" lon="12.1037249952">
		<tag k="name" v="Bergeråsen" />
		<tag k="place" v="farm" />
		<tag k="ssr:stedsnr" v="815781" />
	</node>
	<node id="-42008" lat="60.3839611129" lon="11.9812555511">
		<tag k="name" v="Prestegarden" />
		<tag k="place" v="farm" />
		<tag k="ssr:stedsnr" v="815622" />
	</node>
	<node id="-42007" lat="60.476153659" lon="12.0412460597">
		<tag k="fixme" v="consider place=hamlet" />
		<tag k="name" v="Graverenga" />
		<tag k="place" v="farm" />
		<tag k="ssr:stedsnr" v="815240" />
	</node>
	<node id="-42006" lat="60.4689722256" lon="12.069083326">
		<tag k="name" v="Byermoen" />
		<tag k="place" v="farm" />
		<tag k="ssr:stedsnr" v="815234" />
	</node>
	<node id="-39956" lat="60.4696499972" lon="12.0024777716">
		<tag k="name" v="Refsethøgda" />
		<tag k="place" v="quarter" />
		<tag k="ssr:stedsnr" v="269846" />
	</node>
	<node id="-39955" lat="60.45007222" lon="12.0783222292">
		<tag k="amenity" v="nursing_home" />
		<tag k="name" v="Grue alders- og sykehjem" />
		<tag k="ssr:stedsnr" v="269797" />
	</node>
	<node id="-39953" lat="60.5326055519" lon="12.0551972307">
		<tag k="name" v="Østgarden" />
		<tag k="place" v="farm" />
		<tag k="ssr:stedsnr" v="269229" />
	</node>
	<node id="-42000" lat="60.50506944" lon="12.0442277802">
		<tag k="name" v="Bakken" />
		<tag k="place" v="farm" />
		<tag k="ssr:stedsnr" v="796935" />
	</node>
	<node id="-39951" lat="60.5457833375" lon="12.0716888934">
		<tag k="name" v="Myrvang" />
		<tag k="place" v="farm" />
		<tag k="ssr:stedsnr" v="269180" />
	</node>
	<node id="-39950" lat="60.4072250004" lon="12.0301416752">
		<tag k="name" v="Mo" />
		<tag k="place" v="farm" />
		<tag k="ssr:stedsnr" v="269143" />
	</node>
	<node id="-39947" lat="60.4518499983" lon="11.8291500001">
		<tag k="name" v="Åtdalskoia" />
		<tag k="place" v="isolated_dwelling" />
		<tag k="ssr:stedsnr" v="127802" />
	</node>
	<node id="-39946" lat="60.4918499957" lon="11.9251777816">
		<tag k="name" v="Fjøråsen" />
		<tag k="place" v="farm" />
		<tag k="ssr:stedsnr" v="127716" />
	</node>
	<node id="-41993" lat="60.4529655075" lon="12.087947196">
		<tag k="alt_name" v="Tostenrud" />
		<tag k="fixme" v="consider place=hamlet" />
		<tag k="name" v="Tostensrud" />
		<tag k="place" v="farm" />
		<tag k="ssr:stedsnr" v="795745" />
	</node>
	<node id="-41991" lat="60.4465888867" lon="11.9807027774">
		<tag k="name" v="Åsen" />
		<tag k="place" v="farm" />
		<tag k="ssr:stedsnr" v="795734" />
	</node>
	<node id="-39942" lat="60.45586111" lon="12.5639750077">
		<tag k="name" v="Granli" />
		<tag k="place" v="farm" />
		<tag k="ssr:stedsnr" v="127126" />
	</node>
	<node id="-39941" lat="60.4458555516" lon="12.3528805519">
		<tag k="alt_name" v="Svartbergsbrakka" />
		<tag k="name" v="Svartberget" />
		<tag k="place" v="isolated_dwelling" />
		<tag k="ssr:stedsnr" v="127110" />
	</node>
	<node id="-39940" lat="60.4514638929" lon="12.2521194497">
		<tag k="name" v="Torpet" />
		<tag k="place" v="farm" />
		<tag k="ssr:stedsnr" v="127105" />
	</node>
	<node id="-41987" lat="60.4244000031" lon="12.0468777755">
		<tag k="name" v="Vangerud" />
		<tag k="place" v="farm" />
		<tag k="ssr:stedsnr" v="795711" />
	</node>
	<node id="-41985" lat="60.4331194459" lon="12.1126111117">
		<tag k="name" v="Sagerud" />
		<tag k="place" v="farm" />
		<tag k="ssr:stedsnr" v="795707" />
	</node>
	<node id="-39936" lat="60.3639999975" lon="12.4495888886">
		<tag k="name" v="Rya" />
		<tag k="place" v="isolated_dwelling" />
		<tag k="ssr:stedsnr" v="127239" />
	</node>
	<node id="-41983" lat="60.3774361148" lon="11.998858337">
		<tag k="name" v="Nesbakken" />
		<tag k="place" v="farm" />
		<tag k="ssr:stedsnr" v="795424" />
	</node>
	<node id="-39933" lat="60.4349250011" lon="12.5644361078">
		<tag k="name" v="Langmyra" />
		<tag k="place" v="isolated_dwelling" />
		<tag k="ssr:stedsnr" v="127015" />
	</node>
	<node id="-41980" lat="60.4596888876" lon="12.5285361176">
		<tag k="name" v="Svennisilta" />
		<tag k="place" v="isolated_dwelling" />
		<tag k="ssr:stedsnr" v="795139" />
	</node>
	<node id="-41979" lat="60.45894722" lon="12.4876555624">
		<tag k="name" v="Larstorpet" />
		<tag k="place" v="isolated_dwelling" />
		<tag k="ssr:stedsnr" v="795137" />
	</node>
	<node id="-41978" lat="60.4675361077" lon="12.378288885">
		<tag k="alt_name" v="Rotneberget, midtre;Mellem Rotneberget" />
		<tag k="name" v="Midtre Rotneberget" />
		<tag k="place" v="farm" />
		<tag k="ssr:stedsnr" v="795134" />
	</node>
	<node id="-39927" lat="60.4760361084" lon="12.3316888956">
		<tag k="name" v="Bergly" />
		<tag k="place" v="isolated_dwelling" />
		<tag k="ssr:stedsnr" v="116306" />
	</node>
	<node id="-41974" lat="60.4961222252" lon="12.5839027789">
		<tag k="name" v="Baksjødamkoia" />
		<tag k="place" v="isolated_dwelling" />
		<tag k="ssr:stedsnr" v="795109" />
	</node>
	<node id="-39924" lat="60.4178722206" lon="12.4015972224">
		<tag k="name" v="Finnskogen Kro og Motell" />
		<tag k="ssr:stedsnr" v="112016" />
		<tag k="tourism" v="hotel" />
	</node>
	<node id="-41970" lat="60.4030833316" lon="12.591127774">
		<tag k="fixme" v="multiple name tags, choose one and add the other to alt_name" />
		<tag k="name" v="Moldusen;Danielshemmet" />
		<tag k="place" v="isolated_dwelling" />
		<tag k="ssr:stedsnr" v="795077" />
	</node>
	<node id="-39921" lat="60.5489055525" lon="12.0817250087">
		<tag k="alt_name" v="Lislåsen" />
		<tag k="name" v="Lilleåsen" />
		<tag k="place" v="hamlet" />
		<tag k="ssr:stedsnr" v="250989" />
	</node>
	<node id="-39920" lat="60.5061222253" lon="12.1037111177">
		<tag k="alt_name" v="Steinsrød" />
		<tag k="name" v="Steinsrud" />
		<tag k="place" v="farm" />
		<tag k="ssr:stedsnr" v="250919" />
	</node>
	<node id="-41964" lat="60.3843749989" lon="12.5798277687">
		<tag k="name" v="Lintorpet" />
		<tag k="place" v="farm" />
		<tag k="ssr:stedsnr" v="795236" />
	</node>
	<node id="-39915" lat="60.5229583318" lon="12.2388499969">
		<tag k="historic" v="shieling" />
		<tag k="name" v="Nordgrensætra" />
		<tag k="place" v="locality" />
		<tag k="ssr:stedsnr" v="250710" />
	</node>
	<node id="-39914" lat="60.5259583338" lon="12.3090222263">
		<tag k="alt_name" v="Pyrestorpet" />
		<tag k="name" v="Purustorpet" />
		<tag k="place" v="locality" />
		<tag k="ssr:stedsnr" v="250703" />
	</node>
	<node id="-39913" lat="60.5174500007" lon="12.1014083245">
		<tag k="alt_name" v="Østvoll" />
		<tag k="name" v="Austvoll" />
		<tag k="place" v="farm" />
		<tag k="ssr:stedsnr" v="249917" />
	</node>
	<node id="-39912" lat="60.5258605881" lon="12.0555222383">
		<tag k="fixme" v="consider place=hamlet" />
		<tag k="name" v="Dal" />
		<tag k="place" v="farm" />
		<tag k="ssr:stedsnr" v="249899" />
	</node>
	<node id="-41959" lat="60.4149916637" lon="12.6019722132">
		<tag k="name" v="Nordtorpet" />
		<tag k="place" v="locality" />
		<tag k="ssr:stedsnr" v="795051" />
	</node>
	<node id="-39910" lat="60.5369972189" lon="12.0619166582">
		<tag k="name" v="Reinsmoen" />
		<tag k="place" v="farm" />
		<tag k="ssr:stedsnr" v="249886" />
	</node>
	<node id="-39909" lat="60.4555085572" lon="12.0865588594">
		<tag k="fixme" v="consider place=hamlet" />
		<tag k="name" v="Torderud" />
		<tag k="place" v="farm" />
		<tag k="ssr:stedsnr" v="249724" />
	</node>
	<node id="-39908" lat="60.4508944479" lon="11.944705553">
		<tag k="name" v="Svinørsætra" />
		<tag k="place" v="farm" />
		<tag k="ssr:stedsnr" v="249710" />
	</node>
	<node id="-39907" lat="60.4563722253" lon="11.9580861083">
		<tag k="name" v="Furuberget" />
		<tag k="place" v="farm" />
		<tag k="ssr:stedsnr" v="249707" />
	</node>
	<node id="-39905" lat="60.467741665" lon="11.9661722265">
		<tag k="alt_name" v="Torstens" />
		<tag k="name" v="Torsteinsrud" />
		<tag k="place" v="farm" />
		<tag k="ssr:stedsnr" v="249634" />
	</node>
	<node id="-39903" lat="60.4830202628" lon="12.0534684569">
		<tag k="fixme" v="consider place=hamlet" />
		<tag k="name" v="Gotland" />
		<tag k="place" v="farm" />
		<tag k="ssr:stedsnr" v="249617" />
	</node>
	<node id="-39902" lat="60.4187888915" lon="12.0905416749">
		<tag k="name" v="Bråten" />
		<tag k="place" v="farm" />
		<tag k="ssr:stedsnr" v="249331" />
	</node>
	<node id="-39901" lat="60.4171833319" lon="12.0825055614">
		<tag k="name" v="Østberg" />
		<tag k="place" v="farm" />
		<tag k="ssr:stedsnr" v="249330" />
	</node>
	<node id="-39899" lat="60.4057527822" lon="12.20658055">
		<tag k="name" v="Frysjøberget" />
		<tag k="place" v="hamlet" />
		<tag k="ssr:stedsnr" v="249325" />
	</node>
	<node id="-39898" lat="60.3621277806" lon="11.9627361175">
		<tag k="name" v="Bergli" />
		<tag k="place" v="farm" />
		<tag k="ssr:stedsnr" v="249257" />
	</node>
	<node id="-39896" lat="60.470083337" lon="12.3837555643">
		<tag k="alt_name" v="Rotneberget, øvre;Øvergarden" />
		<tag k="name" v="Øvre Rotneberget" />
		<tag k="place" v="farm" />
		<tag k="ssr:stedsnr" v="249097" />
	</node>
	<node id="-39887" lat="60.3713083302" lon="12.2484499967">
		<tag k="name" v="Johannesburg" />
		<tag k="place" v="isolated_dwelling" />
		<tag k="ssr:stedsnr" v="249054" />
	</node>
	<node id="-39886" lat="60.3877805527" lon="12.4346388941">
		<tag k="name" v="Heggelund" />
		<tag k="place" v="farm" />
		<tag k="ssr:stedsnr" v="249051" />
	</node>
	<node id="-39885" lat="60.3995333365" lon="12.53028334">
		<tag k="name" v="Bråten" />
		<tag k="place" v="farm" />
		<tag k="ssr:stedsnr" v="249047" />
	</node>
	<node id="-39884" lat="60.3936638848" lon="12.2249277718">
		<tag k="name" v="Gullhaugen" />
		<tag k="place" v="farm" />
		<tag k="ssr:stedsnr" v="249042" />
	</node>
	<node id="-41931" lat="60.4019499986" lon="12.2519444477">
		<tag k="name" v="Øvre Skaslia" />
		<tag k="place" v="farm" />
		<tag k="ssr:stedsnr" v="783513" />
	</node>
	<node id="-39881" lat="60.4133166638" lon="12.4257083312">
		<tag k="name" v="Sørjordet" />
		<tag k="place" v="farm" />
		<tag k="ssr:stedsnr" v="249025" />
	</node>
	<node id="-39879" lat="60.4236638854" lon="12.1248444514">
		<tag k="name" v="Aurbekkholen" />
		<tag k="place" v="farm" />
		<tag k="ssr:stedsnr" v="248732" />
	</node>
	<node id="-39878" lat="60.4223027757" lon="12.1004222221">
		<tag k="name" v="Haugen" />
		<tag k="place" v="farm" />
		<tag k="ssr:stedsnr" v="248731" />
	</node>
	<node id="-39877" lat="60.49813333" lon="12.106758336">
		<tag k="name" v="Saga" />
		<tag k="place" v="farm" />
		<tag k="ssr:stedsnr" v="248685" />
	</node>
	<node id="-39876" lat="60.4960694436" lon="11.9371249984">
		<tag k="name" v="Haugen" />
		<tag k="place" v="farm" />
		<tag k="ssr:stedsnr" v="248675" />
	</node>
	<node id="-41923" lat="60.5155861078" lon="12.5406583369">
		<tag k="fixme" v="consider tourism=alpine_hut or tourism=chalet" />
		<tag k="name" v="Rotberget bedehus" />
		<tag k="ssr:stedsnr" v="783047" />
		<tag k="tourism" v="wilderness_hut" />
	</node>
	<node id="-39873" lat="60.3739083298" lon="12.4823027817">
		<tag k="name" v="Sekstenkoia" />
		<tag k="place" v="isolated_dwelling" />
		<tag k="ssr:stedsnr" v="248182" />
	</node>
	<node id="-41920" lat="60.3332444428" lon="12.2353916752">
		<tag k="name" v="Søndre Venberget" />
		<tag k="place" v="farm" />
		<tag k="ssr:stedsnr" v="770649" />
	</node>
	<node id="-39867" lat="60.4592555525" lon="12.5624722277">
		<tag k="name" v="Sanabeldo" />
		<tag k="place" v="farm" />
		<tag k="ssr:stedsnr" v="248100" />
	</node>
	<node id="-41911" lat="60.4672833343" lon="11.9887305469">
		<tag k="name" v="Klingenberg" />
		<tag k="place" v="farm" />
		<tag k="ssr:stedsnr" v="769833" />
	</node>
	<node id="-39862" lat="60.4450277791" lon="12.5148000007">
		<tag k="name" v="Kvernbakken" />
		<tag k="place" v="farm" />
		<tag k="ssr:stedsnr" v="248003" />
	</node>
	<node id="-41909" lat="60.5189972188" lon="12.5273722209">
		<tag k="name" v="Bilitt" />
		<tag k="place" v="locality" />
		<tag k="ssr:stedsnr" v="769607" />
	</node>
	<node id="-39860" lat="60.4361855198" lon="12.0973774991">
		<tag k="fixme" v="consider place=hamlet" />
		<tag k="name" v="Tjura" />
		<tag k="place" v="farm" />
		<tag k="ssr:stedsnr" v="67708" />
	</node>
	<node id="-39859" lat="60.4367434535" lon="12.0460453713">
		<tag k="fixme" v="consider place=hamlet" />
		<tag k="name" v="Brynn" />
		<tag k="place" v="farm" />
		<tag k="ssr:stedsnr" v="67701" />
	</node>
	<node id="-39857" lat="60.3223583365" lon="12.4560305612">
		<tag k="name" v="Furumo" />
		<tag k="place" v="isolated_dwelling" />
		<tag k="ssr:stedsnr" v="67152" />
	</node>
	<node id="-41800" lat="60.411322223" lon="11.8591055606">
		<tag k="name" v="Bjerkesætra" />
		<tag k="place" v="hamlet" />
		<tag k="ssr:stedsnr" v="612370" />
	</node>
	<node id="-41902" lat="60.299630559" lon="12.4976194369">
		<tag k="name" v="Solvang" />
		<tag k="place" v="isolated_dwelling" />
		<tag k="ssr:stedsnr" v="769234" />
	</node>
	<node id="-39852" lat="60.4787500022" lon="12.4880361159">
		<tag k="name" v="Søstua" />
		<tag k="place" v="isolated_dwelling" />
		<tag k="ssr:stedsnr" v="67107" />
	</node>
	<node id="-39851" lat="60.4743361117" lon="12.4972361083">
		<tag k="name" v="Tettholtkoia" />
		<tag k="place" v="isolated_dwelling" />
		<tag k="ssr:stedsnr" v="67106" />
	</node>
	<node id="-39850" lat="60.4450611123" lon="12.4733638826">
		<tag k="name" v="Tvengsvika" />
		<tag k="place" v="isolated_dwelling" />
		<tag k="ssr:stedsnr" v="67006" />
	</node>
	<node id="-41897" lat="60.4093472241" lon="12.090633325">
		<tag k="name" v="Østby" />
		<tag k="place" v="farm" />
		<tag k="ssr:stedsnr" v="769082" />
	</node>
	<node id="-39848" lat="60.4572611094" lon="12.5604222303">
		<tag k="name" v="Herra" />
		<tag k="place" v="farm" />
		<tag k="ssr:stedsnr" v="66117" />
	</node>
	<node id="-39847" lat="60.4586277777" lon="12.5638583395">
		<tag k="name" v="Løvhaugen" />
		<tag k="place" v="farm" />
		<tag k="ssr:stedsnr" v="241884" />
	</node>
	<node id="-41893" lat="60.4366638908" lon="12.2622416634">
		<tag k="name" v="Vestre Luka" />
		<tag k="place" v="farm" />
		<tag k="ssr:stedsnr" v="768578" />
	</node>
	<node id="-41883" lat="60.495101917" lon="12.0995405205">
		<tag k="alt_name" v="Navnerud søndre;Navnerud" />
		<tag k="fixme" v="consider place=hamlet" />
		<tag k="name" v="Namerud" />
		<tag k="old_name" v="Kolstad" />
		<tag k="place" v="farm" />
		<tag k="ssr:stedsnr" v="764668" />
	</node>
	<node id="-41882" lat="60.421330552" lon="12.0457888926">
		<tag k="name" v="Myrli" />
		<tag k="place" v="farm" />
		<tag k="ssr:stedsnr" v="755128" />
	</node>
	<node id="-41881" lat="60.3987138883" lon="12.0003444521">
		<tag k="alt_name" v="Skara vestre" />
		<tag k="name" v="Vestre Skara" />
		<tag k="place" v="farm" />
		<tag k="ssr:stedsnr" v="754866" />
	</node>
	<node id="-39832" lat="60.3624249998" lon="12.2101916731">
		<tag k="name" v="Rottjennsbrakka" />
		<tag k="place" v="isolated_dwelling" />
		<tag k="ssr:stedsnr" v="239683" />
	</node>
	<node id="-41879" lat="60.4481638893" lon="12.0645305615">
		<tag k="name" v="Vollermoen" />
		<tag k="place" v="quarter" />
		<tag k="ssr:stedsnr" v="754772" />
	</node>
	<node id="-41877" lat="60.4249027797" lon="12.0947583315">
		<tag k="name" v="Venli" />
		<tag k="place" v="isolated_dwelling" />
		<tag k="ssr:stedsnr" v="754762" />
	</node>
	<node id="-41875" lat="60.49280833" lon="12.0834444466">
		<tag k="name" v="Kvernbakken" />
		<tag k="place" v="isolated_dwelling" />
		<tag k="ssr:stedsnr" v="754286" />
	</node>
	<node id="-41874" lat="60.4161333299" lon="12.0955138958">
		<tag k="name" v="Østbergsbråten" />
		<tag k="place" v="farm" />
		<tag k="ssr:stedsnr" v="754277" />
	</node>
	<node id="-41873" lat="60.4235416698" lon="12.0916333311">
		<tag k="name" v="Hagen" />
		<tag k="place" v="farm" />
		<tag k="ssr:stedsnr" v="754272" />
	</node>
	<node id="-41872" lat="60.4122416691" lon="12.0616444437">
		<tag k="name" v="Stensgård" />
		<tag k="place" v="farm" />
		<tag k="ssr:stedsnr" v="754270" />
	</node>
	<node id="-41871" lat="60.4920166679" lon="12.0451222147">
		<tag k="name" v="Glomstad" />
		<tag k="place" v="farm" />
		<tag k="ssr:stedsnr" v="754262" />
	</node>
	<node id="-41870" lat="60.4905255739" lon="12.062484169">
		<tag k="fixme" v="consider place=hamlet" />
		<tag k="name" v="Heggerenga" />
		<tag k="place" v="farm" />
		<tag k="ssr:stedsnr" v="754238" />
	</node>
	<node id="-41869" lat="60.3786472265" lon="12.0528222235">
		<tag k="name" v="Granli" />
		<tag k="place" v="locality" />
		<tag k="ssr:stedsnr" v="754191" />
	</node>
	<node id="-39819" lat="60.3683138854" lon="11.9407249973">
		<tag k="name" v="Bortatil" />
		<tag k="place" v="farm" />
		<tag k="ssr:stedsnr" v="239035" />
	</node>
	<node id="-41866" lat="60.388694444" lon="12.079505548">
		<tag k="name" v="Mellem" />
		<tag k="place" v="farm" />
		<tag k="ssr:stedsnr" v="754171" />
	</node>
	<node id="-41865" lat="60.4214194485" lon="12.0529222166">
		<tag k="name" v="Solum" />
		<tag k="place" v="farm" />
		<tag k="ssr:stedsnr" v="754159" />
	</node>
	<node id="-39816" lat="60.4058611117" lon="12.4011222277">
		<tag k="building" v="industrial" />
		<tag k="name" v="Kiærsaga" />
		<tag k="ssr:stedsnr" v="57411" />
	</node>
	<node id="-41863" lat="60.511811113" lon="12.6027249914">
		<tag k="name" v="Søndre Baksjøberget" />
		<tag k="place" v="locality" />
		<tag k="ssr:stedsnr" v="648620" />
	</node>
	<node id="-39814" lat="60.4314833356" lon="12.1139583313">
		<tag k="name" v="Knauserud" />
		<tag k="place" v="isolated_dwelling" />
		<tag k="ssr:stedsnr" v="237943" />
	</node>
	<node id="-39812" lat="60.4725555516" lon="11.9426472231">
		<tag k="name" v="Pettershemmet" />
		<tag k="place" v="locality" />
		<tag k="ssr:stedsnr" v="237884" />
	</node>
	<node id="-39811" lat="60.4590055531" lon="11.9788666646">
		<tag k="name" v="Odalsplassen" />
		<tag k="place" v="farm" />
		<tag k="ssr:stedsnr" v="237835" />
	</node>
	<node id="-39807" lat="60.3850777795" lon="11.9895583249">
		<tag k="name" v="Skarateppen" />
		<tag k="place" v="farm" />
		<tag k="ssr:stedsnr" v="55862" />
	</node>
	<node id="-41854" lat="60.3555388903" lon="12.4540749977">
		<tag k="name" v="Hansmannstorpet" />
		<tag k="place" v="locality" />
		<tag k="ssr:stedsnr" v="648225" />
	</node>
	<node id="-40085" lat="60.4109777751" lon="12.3113805481">
		<tag k="name" v="Vårli" />
		<tag k="place" v="isolated_dwelling" />
		<tag k="ssr:stedsnr" v="467436" />
	</node>
	<node id="-39802" lat="60.4553999999" lon="12.3221861187">
		<tag k="name" v="Søndre Lønhaugen" />
		<tag k="place" v="farm" />
		<tag k="ssr:stedsnr" v="237340" />
	</node>
	<node id="-39801" lat="60.474597221" lon="12.334072213">
		<tag k="name" v="Vårt felt" />
		<tag k="place" v="isolated_dwelling" />
		<tag k="ssr:stedsnr" v="237332" />
	</node>
	<node id="-39795" lat="60.4883861103" lon="11.9576305555">
		<tag k="name" v="Skyrudsmoen" />
		<tag k="place" v="farm" />
		<tag k="ssr:stedsnr" v="237084" />
	</node>
	<node id="-39793" lat="60.4812527757" lon="12.4719277851">
		<tag k="name" v="Notilakverna" />
		<tag k="place" v="locality" />
		<tag k="ssr:stedsnr" v="42974" />
	</node>
	<node id="-41840" lat="60.4825166694" lon="12.0032833329">
		<tag k="alt_name" v="Holmrydningen;Kveset" />
		<tag k="name" v="Holmrønningen" />
		<tag k="place" v="farm" />
		<tag k="ssr:stedsnr" v="644721" />
	</node>
	<node id="-41837" lat="60.503725003" lon="12.0737694364">
		<tag k="leisure" v="pitch" />
		<tag k="name" v="Verdande" />
		<tag k="ssr:stedsnr" v="632824" />
	</node>
	<node id="-41836" lat="60.4905944459" lon="12.0400916614">
		<tag k="name" v="Rismoen" />
		<tag k="place" v="farm" />
		<tag k="ssr:stedsnr" v="632241" />
	</node>
	<node id="-41833" lat="60.5435166649" lon="12.0815722135">
		<tag k="name" v="Sorkemoen" />
		<tag k="place" v="farm" />
		<tag k="ssr:stedsnr" v="632195" />
	</node>
	<node id="-41832" lat="60.3547833347" lon="12.4660694508">
		<tag k="alt_name" v="Nordre Østberget" />
		<tag k="name" v="Østberget" />
		<tag k="place" v="farm" />
		<tag k="ssr:stedsnr" v="629989" />
	</node>
	<node id="-39783" lat="60.5125833348" lon="12.0635638967">
		<tag k="name" v="Kjensmo" />
		<tag k="place" v="farm" />
		<tag k="ssr:stedsnr" v="26810" />
	</node>
	<node id="-41829" lat="60.5195666658" lon="12.0794277692">
		<tag k="name" v="Vestli" />
		<tag k="place" v="farm" />
		<tag k="ssr:stedsnr" v="613882" />
	</node>
	<node id="-41827" lat="60.5353638906" lon="12.2247055594">
		<tag k="name" v="Hansekoia" />
		<tag k="place" v="isolated_dwelling" />
		<tag k="ssr:stedsnr" v="613679" />
	</node>
	<node id="-39778" lat="60.3876444448" lon="12.3590027771">
		<tag k="name" v="Bekkeli" />
		<tag k="place" v="isolated_dwelling" />
		<tag k="ssr:stedsnr" v="224433" />
	</node>
	<node id="-39777" lat="60.4308361089" lon="12.337138897">
		<tag k="name" v="Søndre Skasberget" />
		<tag k="place" v="farm" />
		<tag k="ssr:stedsnr" v="224406" />
	</node>
	<node id="-39775" lat="60.4517666691" lon="11.9445555518">
		<tag k="name" v="Svinøresætra" />
		<tag k="place" v="farm" />
		<tag k="ssr:stedsnr" v="223928" />
	</node>
	<node id="-41821" lat="60.2981694433" lon="12.4979861127">
		<tag k="name" v="Mellombråten" />
		<tag k="place" v="farm" />
		<tag k="ssr:stedsnr" v="613142" />
	</node>
	<node id="-39772" lat="60.501069448" lon="12.3661222204">
		<tag k="name" v="Myra" />
		<tag k="place" v="locality" />
		<tag k="ssr:stedsnr" v="223264" />
	</node>
	<node id="-41819" lat="60.4699444407" lon="12.3001666627">
		<tag k="name" v="Sollia" />
		<tag k="place" v="farm" />
		<tag k="ssr:stedsnr" v="613103" />
	</node>
	<node id="-39767" lat="60.3580583324" lon="12.450647228">
		<tag k="name" v="Sengaaho" />
		<tag k="place" v="locality" />
		<tag k="ssr:stedsnr" v="223203" />
	</node>
	<node id="-41814" lat="60.3825666666" lon="12.2390861063">
		<tag k="name" v="Råstua" />
		<tag k="place" v="isolated_dwelling" />
		<tag k="ssr:stedsnr" v="613058" />
	</node>
	<node id="-41812" lat="60.4871298711" lon="12.0203209025">
		<tag k="fixme" v="consider place=hamlet" />
		<tag k="name" v="Kjølset" />
		<tag k="place" v="farm" />
		<tag k="ssr:stedsnr" v="612685" />
	</node>
	<node id="-39763" lat="60.3415333296" lon="12.1966583295">
		<tag k="name" v="Dambrakka" />
		<tag k="place" v="isolated_dwelling" />
		<tag k="ssr:stedsnr" v="222678" />
	</node>
	<node id="-41810" lat="60.4731944413" lon="12.0118555499">
		<tag k="name" v="Arneberg" />
		<tag k="place" v="farm" />
		<tag k="ssr:stedsnr" v="612638" />
	</node>
	<node id="-39761" lat="60.5130388893" lon="12.2044027739">
		<tag k="name" v="Kjelsås" />
		<tag k="place" v="isolated_dwelling" />
		<tag k="ssr:stedsnr" v="222586" />
	</node>
	<node id="-41807" lat="60.3447666669" lon="12.5027583253">
		<tag k="name" v="Skredderbråten" />
		<tag k="place" v="farm" />
		<tag k="ssr:stedsnr" v="612243" />
	</node>
	<node id="-41805" lat="60.4611038587" lon="12.439952836">
		<tag k="fixme" v="consider place=hamlet" />
		<tag k="name" v="Halvortjernsberget" />
		<tag k="old_name" v="Håberget" />
		<tag k="place" v="farm" />
		<tag k="ssr:stedsnr" v="612127" />
	</node>
	<node id="-39755" lat="60.4963277772" lon="12.3682694363">
		<tag k="name" v="Skjæret" />
		<tag k="place" v="locality" />
		<tag k="ssr:stedsnr" v="222283" />
	</node>
	<node id="-39754" lat="60.533777777" lon="12.0900027793">
		<tag k="name" v="Vestheim" />
		<tag k="place" v="farm" />
		<tag k="ssr:stedsnr" v="6899" />
	</node>
	<node id="-41801" lat="60.4072727786" lon="12.0010697569">
		<tag k="fixme" v="consider place=hamlet" />
		<tag k="name" v="Oppåker" />
		<tag k="place" v="farm" />
		<tag k="ssr:stedsnr" v="612372" />
	</node>
	<node id="-39752" lat="60.5359083322" lon="12.0916250035">
		<tag k="name" v="Nordset" />
		<tag k="place" v="farm" />
		<tag k="ssr:stedsnr" v="6901" />
	</node>
	<node id="-42124" lat="60.5396083312" lon="12.0541972266">
		<tag k="name" v="Nordgarden" />
		<tag k="place" v="farm" />
		<tag k="ssr:stedsnr" v="856982" />
	</node>
	<node id="-41792" lat="60.44993056" lon="11.9122888892">
		<tag k="name" v="Lemyrkoia" />
		<tag k="place" v="locality" />
		<tag k="ssr:stedsnr" v="605137" />
	</node>
	<node id="-41790" lat="60.4444472254" lon="12.5481111101">
		<tag k="name" v="Gammelkverna" />
		<tag k="place" v="locality" />
		<tag k="ssr:stedsnr" v="604688" />
	</node>
	<node id="-41786" lat="60.3923499983" lon="12.3677638824">
		<tag k="name" v="Klonkerud" />
		<tag k="place" v="isolated_dwelling" />
		<tag k="ssr:stedsnr" v="603425" />
	</node>
	<node id="-41097" lat="60.4131222204" lon="12.4291444532">
		<tag k="name" v="Østholt" />
		<tag k="place" v="isolated_dwelling" />
		<tag k="ssr:stedsnr" v="103066" />
	</node>
	<node id="-41774" lat="60.4044749982" lon="12.1340916682">
		<tag k="name" v="Kikut" />
		<tag k="place" v="isolated_dwelling" />
		<tag k="ssr:stedsnr" v="601894" />
	</node>
	<node id="-41773" lat="60.4724694416" lon="11.9615166689">
		<tag k="name" v="Jonsrud" />
		<tag k="place" v="farm" />
		<tag k="ssr:stedsnr" v="601885" />
	</node>
	<node id="-41771" lat="60.3595722192" lon="12.2738055554">
		<tag k="name" v="Skogstad" />
		<tag k="place" v="locality" />
		<tag k="ssr:stedsnr" v="601692" />
	</node>
	<node id="-41764" lat="60.4907325566" lon="11.9582596655">
		<tag k="fixme" v="consider place=hamlet" />
		<tag k="name" v="Søndre Skyrud" />
		<tag k="place" v="farm" />
		<tag k="ssr:stedsnr" v="601085" />
	</node>
	<node id="-41763" lat="60.5017027795" lon="11.9481277718">
		<tag k="name" v="Sjøli" />
		<tag k="place" v="isolated_dwelling" />
		<tag k="ssr:stedsnr" v="601083" />
	</node>
	<node id="-41761" lat="60.3954249989" lon="12.4615888871">
		<tag k="name" v="Nilstorpkverna" />
		<tag k="place" v="isolated_dwelling" />
		<tag k="ssr:stedsnr" v="600090" />
	</node>
	<node id="-41759" lat="60.4980277351" lon="11.9776957544">
		<tag k="alt_name" v="Rønnåsen, øvre" />
		<tag k="fixme" v="consider place=hamlet" />
		<tag k="name" v="Øvre Rønnåsen" />
		<tag k="place" v="farm" />
		<tag k="ssr:stedsnr" v="592049" />
	</node>
	<node id="-42117" lat="60.4763998609" lon="11.9853208427">
		<tag k="name" v="Einarsrud" />
		<tag k="place" v="hamlet" />
		<tag k="ssr:stedsnr" v="856651" />
	</node>
	<node id="-42115" lat="60.4060527734" lon="11.9092777746">
		<tag k="name" v="Skaravelta" />
		<tag k="place" v="isolated_dwelling" />
		<tag k="ssr:stedsnr" v="856382" />
	</node>
	<node id="-41740" lat="60.5078472193" lon="12.2240222269">
		<tag k="name" v="Myssmørkoia" />
		<tag k="place" v="isolated_dwelling" />
		<tag k="ssr:stedsnr" v="586629" />
	</node>
	<node id="-41732" lat="60.4500111155" lon="12.4079861113">
		<tag k="name" v="Fredheimkoia" />
		<tag k="place" v="isolated_dwelling" />
		<tag k="ssr:stedsnr" v="586012" />
	</node>
	<node id="-42112" lat="60.3956388925" lon="11.9009111065">
		<tag k="historic" v="shieling" />
		<tag k="name" v="Skarasætra" />
		<tag k="place" v="locality" />
		<tag k="ssr:stedsnr" v="856345" />
	</node>
	<node id="-41725" lat="60.4876055574" lon="12.0783249988">
		<tag k="name" v="Svartmoen" />
		<tag k="place" v="quarter" />
		<tag k="ssr:stedsnr" v="572788" />
	</node>
	<node id="-41723" lat="60.4759027779" lon="12.0830194387">
		<tag k="name" v="Gjemshus" />
		<tag k="place" v="farm" />
		<tag k="ssr:stedsnr" v="572237" />
	</node>
	<node id="-41722" lat="60.5075916642" lon="12.0790305623">
		<tag k="name" v="Moland" />
		<tag k="place" v="farm" />
		<tag k="ssr:stedsnr" v="572232" />
	</node>
	<node id="-41721" lat="60.4101249966" lon="12.049569448">
		<tag k="name" v="Vestlund" />
		<tag k="place" v="farm" />
		<tag k="ssr:stedsnr" v="572183" />
	</node>
	<node id="-41720" lat="60.480813889" lon="12.1214777698">
		<tag k="name" v="Møllerudskoia" />
		<tag k="place" v="isolated_dwelling" />
		<tag k="ssr:stedsnr" v="566876" />
	</node>
	<node id="-41719" lat="60.4715722209" lon="11.9856944441">
		<tag k="name" v="Søkoiteppen" />
		<tag k="place" v="farm" />
		<tag k="ssr:stedsnr" v="566645" />
	</node>
	<node id="-41718" lat="60.5098499981" lon="12.0811444434">
		<tag k="name" v="Moen" />
		<tag k="place" v="isolated_dwelling" />
		<tag k="ssr:stedsnr" v="553933" />
	</node>
	<node id="-41717" lat="60.5090916651" lon="12.0678388956">
		<tag k="name" v="Steinvadet" />
		<tag k="place" v="farm" />
		<tag k="ssr:stedsnr" v="553930" />
	</node>
	<node id="-41716" lat="60.5371472203" lon="12.0569333397">
		<tag k="alt_name" v="Teigstua" />
		<tag k="name" v="Teisstua" />
		<tag k="place" v="farm" />
		<tag k="ssr:stedsnr" v="553967" />
	</node>
	<node id="-41715" lat="60.5189555561" lon="12.4862611113">
		<tag k="fixme" v="multiple name tags, choose one and add the other to alt_name" />
		<tag k="name" v="Raisahå;Volbråten" />
		<tag k="place" v="isolated_dwelling" />
		<tag k="ssr:stedsnr" v="553743" />
	</node>
	<node id="-41712" lat="60.5114916652" lon="12.1118638857">
		<tag k="name" v="Brenna" />
		<tag k="place" v="farm" />
		<tag k="ssr:stedsnr" v="552943" />
	</node>
	<node id="-41710" lat="60.5190666643" lon="12.0793444477">
		<tag k="alt_name" v="Østli" />
		<tag k="name" v="Austli" />
		<tag k="place" v="farm" />
		<tag k="ssr:stedsnr" v="552912" />
	</node>
	<node id="-42109" lat="60.3041916676" lon="12.479827777">
		<tag k="name" v="Midtskog" />
		<tag k="place" v="isolated_dwelling" />
		<tag k="ssr:stedsnr" v="856149" />
	</node>
	<node id="-41708" lat="60.4297166656" lon="12.1945305562">
		<tag k="name" v="Brauter" />
		<tag k="place" v="farm" />
		<tag k="ssr:stedsnr" v="552738" />
	</node>
	<node id="-41707" lat="60.4474444438" lon="12.2155166621">
		<tag k="fixme" v="consider tourism=alpine_hut or tourism=chalet" />
		<tag k="name" v="Brutjernskoia" />
		<tag k="ssr:stedsnr" v="552726" />
		<tag k="tourism" v="wilderness_hut" />
	</node>
	<node id="-41706" lat="60.4902111083" lon="12.0166416627">
		<tag k="name" v="Sundmoen" />
		<tag k="place" v="farm" />
		<tag k="ssr:stedsnr" v="552720" />
	</node>
	<node id="-41705" lat="60.4993941782" lon="12.0901358031">
		<tag k="fixme" v="consider place=hamlet" />
		<tag k="name" v="Møllerud" />
		<tag k="place" v="farm" />
		<tag k="ssr:stedsnr" v="552717" />
	</node>
	<node id="-41704" lat="60.5001472246" lon="12.0784416604">
		<tag k="fixme" v="consider place=suburb, village or hamlet" />
		<tag k="name" v="Namnå" />
		<tag k="place" v="quarter" />
		<tag k="ssr:stedsnr" v="552716" />
	</node>
	<node id="-41703" lat="60.4408638912" lon="12.1102916701">
		<tag k="name" v="Bråten" />
		<tag k="place" v="farm" />
		<tag k="ssr:stedsnr" v="552763" />
	</node>
	<node id="-41700" lat="60.4610416646" lon="11.9519388848">
		<tag k="alt_name" v="Risbergsætra" />
		<tag k="name" v="Risbergsæter" />
		<tag k="place" v="farm" />
		<tag k="ssr:stedsnr" v="552702" />
	</node>
	<node id="-41699" lat="60.4670528502" lon="12.0320284637">
		<tag k="name" v="By" />
		<tag k="place" v="hamlet" />
		<tag k="ssr:stedsnr" v="552687" />
	</node>
	<node id="-42107" lat="60.3962583366" lon="12.5923888928">
		<tag k="name" v="Amund" />
		<tag k="place" v="isolated_dwelling" />
		<tag k="ssr:stedsnr" v="856048" />
	</node>
	<node id="-41695" lat="60.370313885" lon="12.004452772">
		<tag k="name" v="Myrvoll" />
		<tag k="place" v="farm" />
		<tag k="ssr:stedsnr" v="552387" />
	</node>
	<node id="-41694" lat="60.4100787338" lon="12.0616569193">
		<tag k="fixme" v="consider place=hamlet" />
		<tag k="name" v="Høyby" />
		<tag k="place" v="farm" />
		<tag k="ssr:stedsnr" v="552377" />
	</node>
	<node id="-41693" lat="60.413744446" lon="12.1806833339">
		<tag k="name" v="Kolbjørnsæter" />
		<tag k="place" v="farm" />
		<tag k="ssr:stedsnr" v="552369" />
	</node>
	<node id="-41692" lat="60.3999444469" lon="12.0070138845">
		<tag k="name" v="Nerhagen" />
		<tag k="place" v="farm" />
		<tag k="ssr:stedsnr" v="552363" />
	</node>
	<node id="-41689" lat="60.3627666693" lon="12.2319083372">
		<tag k="historic" v="shieling" />
		<tag k="name" v="Grindersæter" />
		<tag k="place" v="locality" />
		<tag k="ssr:stedsnr" v="552218" />
	</node>
	<node id="-41681" lat="60.3976427974" lon="12.4379579818">
		<tag k="fixme" v="consider place=hamlet" />
		<tag k="name" v="Helgeberget" />
		<tag k="place" v="farm" />
		<tag k="ssr:stedsnr" v="552061" />
	</node>
	<node id="-42104" lat="60.4024638853" lon="12.4194416633">
		<tag k="alt_name" v="Søndre Sæterbakken" />
		<tag k="name" v="Sæterbakken" />
		<tag k="place" v="farm" />
		<tag k="ssr:stedsnr" v="856038" />
	</node>
	<node id="-41678" lat="60.3585861107" lon="12.5176888813">
		<tag k="alt_name" v="Årandsberget" />
		<tag k="name" v="Åransberget" />
		<tag k="place" v="farm" />
		<tag k="ssr:stedsnr" v="551224" />
	</node>
	<node id="-41677" lat="60.3669777757" lon="12.2764166659">
		<tag k="alt_name" v="Morttjernsberget" />
		<tag k="name" v="Øvre Morttjernsberget" />
		<tag k="place" v="farm" />
		<tag k="ssr:stedsnr" v="551212" />
	</node>
	<node id="-41675" lat="60.4581027792" lon="12.5578416633">
		<tag k="name" v="Bygningen" />
		<tag k="place" v="farm" />
		<tag k="ssr:stedsnr" v="551123" />
	</node>
	<node id="-41671" lat="60.5154388879" lon="12.1600111125">
		<tag k="name" v="Namsjøkoia" />
		<tag k="place" v="locality" />
		<tag k="ssr:stedsnr" v="544793" />
	</node>
	<node id="-41669" lat="60.468588692" lon="12.0390500554">
		<tag k="fixme" v="consider place=hamlet" />
		<tag k="name" v="Grue Prestegård" />
		<tag k="place" v="farm" />
		<tag k="ssr:stedsnr" v="544936" />
	</node>
	<node id="-42102" lat="60.411936107" lon="12.2395694398">
		<tag k="name" v="Bergli" />
		<tag k="place" v="isolated_dwelling" />
		<tag k="ssr:stedsnr" v="856028" />
	</node>
	<node id="-41664" lat="60.4794972176" lon="12.3270833395">
		<tag k="name" v="Øvre Storberget" />
		<tag k="place" v="farm" />
		<tag k="ssr:stedsnr" v="542295" />
	</node>
	<node id="-42101" lat="60.4219722242" lon="12.2838611143">
		<tag k="name" v="Moen" />
		<tag k="place" v="farm" />
		<tag k="ssr:stedsnr" v="856027" />
	</node>
	<node id="-41658" lat="60.3856861133" lon="11.9921277799">
		<tag k="name" v="Kvernbråten" />
		<tag k="place" v="isolated_dwelling" />
		<tag k="ssr:stedsnr" v="540886" />
	</node>
	<node id="-41655" lat="60.4802305577" lon="11.9484277721">
		<tag k="name" v="Kraslerud" />
		<tag k="place" v="farm" />
		<tag k="ssr:stedsnr" v="540111" />
	</node>
	<node id="-42099" lat="60.436002774" lon="11.9909694401">
		<tag k="name" v="Svartbråten" />
		<tag k="place" v="farm" />
		<tag k="ssr:stedsnr" v="848872" />
	</node>
	<node id="-41642" lat="60.4143194456" lon="12.4325805644">
		<tag k="name" v="Bergejordet" />
		<tag k="place" v="isolated_dwelling" />
		<tag k="ssr:stedsnr" v="527066" />
	</node>
	<node id="-42097" lat="60.4246750013" lon="11.9958111086">
		<tag k="name" v="Opsetmyren" />
		<tag k="place" v="farm" />
		<tag k="ssr:stedsnr" v="848870" />
	</node>
	<node id="-41635" lat="60.501077977" lon="11.937323818">
		<tag k="alt_name" v="Silderud" />
		<tag k="fixme" v="consider place=hamlet" />
		<tag k="name" v="Sillerud" />
		<tag k="place" v="farm" />
		<tag k="ssr:stedsnr" v="432925" />
	</node>
	<node id="-41633" lat="60.5198138871" lon="12.1171833346">
		<tag k="name" v="Brattåsen" />
		<tag k="place" v="locality" />
		<tag k="ssr:stedsnr" v="432883" />
	</node>
	<node id="-42096" lat="60.4528055517" lon="12.1298222166">
		<tag k="name" v="Bekka" />
		<tag k="place" v="locality" />
		<tag k="ssr:stedsnr" v="848798" />
	</node>
	<node id="-41629" lat="60.4609999994" lon="12.04039723">
		<tag k="name" v="Sander" />
		<tag k="old_name" v="Årnes" />
		<tag k="place" v="farm" />
		<tag k="ssr:stedsnr" v="431742" />
	</node>
	<node id="-41628" lat="60.4255027783" lon="12.1025361044">
		<tag k="name" v="Brenna" />
		<tag k="place" v="farm" />
		<tag k="ssr:stedsnr" v="431738" />
	</node>
	<node id="-41626" lat="60.4306694413" lon="12.2106222191">
		<tag k="name" v="Gjedtjernet" />
		<tag k="place" v="farm" />
		<tag k="ssr:stedsnr" v="431733" />
	</node>
	<node id="-41625" lat="60.421900004" lon="11.9148527692">
		<tag k="historic" v="shieling" />
		<tag k="name" v="Oppsetsætra" />
		<tag k="place" v="locality" />
		<tag k="ssr:stedsnr" v="431728" />
	</node>
	<node id="-41624" lat="60.4248916707" lon="12.0719527692">
		<tag k="name" v="Daler" />
		<tag k="place" v="farm" />
		<tag k="ssr:stedsnr" v="431726" />
	</node>
	<node id="-41623" lat="60.4331872317" lon="12.091469739">
		<tag k="fixme" v="consider place=hamlet" />
		<tag k="name" v="Hårstad" />
		<tag k="place" v="farm" />
		<tag k="ssr:stedsnr" v="431722" />
	</node>
	<node id="-41622" lat="60.4367797292" lon="12.0623409361">
		<tag k="fixme" v="consider place=hamlet" />
		<tag k="name" v="Skjelver" />
		<tag k="place" v="farm" />
		<tag k="ssr:stedsnr" v="431721" />
	</node>
	<node id="-41619" lat="60.4811211054" lon="12.0185309055">
		<tag k="name" v="Holmen" />
		<tag k="place" v="hamlet" />
		<tag k="ssr:stedsnr" v="431707" />
	</node>
	<node id="-41618" lat="60.4845388857" lon="11.9891861139">
		<tag k="name" v="Ibenholt" />
		<tag k="place" v="farm" />
		<tag k="ssr:stedsnr" v="431706" />
	</node>
	<node id="-41617" lat="60.4879989567" lon="12.0160661649">
		<tag k="fixme" v="consider place=hamlet" />
		<tag k="name" v="Sund" />
		<tag k="place" v="farm" />
		<tag k="ssr:stedsnr" v="431705" />
	</node>
	<node id="-41616" lat="60.4878888928" lon="11.9343472198">
		<tag k="name" v="Bekkesletta" />
		<tag k="place" v="farm" />
		<tag k="ssr:stedsnr" v="431704" />
	</node>
	<node id="-41615" lat="60.4827916679" lon="11.9501055521">
		<tag k="name" v="Rusvekk" />
		<tag k="place" v="farm" />
		<tag k="ssr:stedsnr" v="431703" />
	</node>
	<node id="-41611" lat="60.4718899466" lon="12.080804164">
		<tag k="fixme" v="consider place=hamlet" />
		<tag k="name" v="Bråten" />
		<tag k="place" v="farm" />
		<tag k="ssr:stedsnr" v="431670" />
	</node>
	<node id="-41610" lat="60.4720166667" lon="12.0724833256">
		<tag k="name" v="Skulstadmoen" />
		<tag k="place" v="farm" />
		<tag k="ssr:stedsnr" v="431669" />
	</node>
	<node id="-41609" lat="60.4757361139" lon="11.8620944379">
		<tag k="historic" v="shieling" />
		<tag k="name" v="Nybosætra" />
		<tag k="place" v="locality" />
		<tag k="ssr:stedsnr" v="431653" />
	</node>
	<node id="-41602" lat="60.371886112" lon="11.9439388932">
		<tag k="name" v="Nessæter" />
		<tag k="place" v="farm" />
		<tag k="ssr:stedsnr" v="431374" />
	</node>
	<node id="-41601" lat="60.4079555574" lon="11.9444666718">
		<tag k="fixme" v="multiple name tags, choose one and add the other to alt_name" />
		<tag k="name" v="Levinskoia;Solbakkoia" />
		<tag k="place" v="isolated_dwelling" />
		<tag k="ssr:stedsnr" v="431367" />
	</node>
	<node id="-41596" lat="60.3614000011" lon="12.2731916682">
		<tag k="name" v="Sørli" />
		<tag k="place" v="isolated_dwelling" />
		<tag k="ssr:stedsnr" v="431226" />
	</node>
	<node id="-41595" lat="60.4401472182" lon="12.5005749936">
		<tag k="name" v="Gammeltorpet" />
		<tag k="place" v="isolated_dwelling" />
		<tag k="ssr:stedsnr" v="431001" />
	</node>
	<node id="-41590" lat="60.4894500034" lon="12.3936805478">
		<tag k="name" v="Søljubråten" />
		<tag k="place" v="farm" />
		<tag k="ssr:stedsnr" v="431076" />
	</node>
	<node id="-41585" lat="60.4269777786" lon="11.9923638957">
		<tag k="name" v="Westerbakk" />
		<tag k="place" v="locality" />
		<tag k="ssr:stedsnr" v="423895" />
	</node>
	<node id="-41584" lat="60.388605555" lon="11.9963694411">
		<tag k="name" v="Nordby" />
		<tag k="place" v="farm" />
		<tag k="ssr:stedsnr" v="423894" />
	</node>
	<node id="-41583" lat="60.4506055579" lon="12.5626833263">
		<tag k="name" v="Rønning" />
		<tag k="place" v="locality" />
		<tag k="ssr:stedsnr" v="423693" />
	</node>
	<node id="-41580" lat="60.3802666691" lon="12.1970722282">
		<tag k="name" v="Grusetkoia" />
		<tag k="place" v="locality" />
		<tag k="ssr:stedsnr" v="422531" />
	</node>
	<node id="-41578" lat="60.495905557" lon="12.0993666579">
		<tag k="alt_name" v="Navnerud søndre" />
		<tag k="name" v="Namerud" />
		<tag k="place" v="farm" />
		<tag k="ssr:stedsnr" v="422389" />
	</node>
	<node id="-41745" lat="60.4873944414" lon="12.5979527824">
		<tag k="name" v="Bjørneborg" />
		<tag k="place" v="locality" />
		<tag k="ssr:stedsnr" v="587630" />
	</node>
	<node id="-41571" lat="60.3544861103" lon="11.9216027718">
		<tag k="name" v="Gjettjennskoia" />
		<tag k="place" v="isolated_dwelling" />
		<tag k="ssr:stedsnr" v="422067" />
	</node>
	<node id="-41570" lat="60.477288892" lon="11.8590249914">
		<tag k="name" v="Nyco" />
		<tag k="place" v="locality" />
		<tag k="ssr:stedsnr" v="422057" />
	</node>
	<node id="-41559" lat="60.4692416682" lon="12.2973861132">
		<tag k="name" v="Vestre Sollia" />
		<tag k="place" v="isolated_dwelling" />
		<tag k="ssr:stedsnr" v="419329" />
	</node>
	<node id="-41555" lat="60.3705944478" lon="11.9555277715">
		<tag k="name" v="Rastakoia" />
		<tag k="place" v="isolated_dwelling" />
		<tag k="ssr:stedsnr" v="419034" />
	</node>
	<node id="-41546" lat="60.4230555561" lon="12.2808888808">
		<tag k="name" v="Bjønnvika" />
		<tag k="place" v="isolated_dwelling" />
		<tag k="ssr:stedsnr" v="406574" />
	</node>
	<node id="-41534" lat="60.4378138904" lon="11.9402361192">
		<tag k="historic" v="shieling" />
		<tag k="name" v="Bottilsrudsæterkoia" />
		<tag k="place" v="locality" />
		<tag k="ssr:stedsnr" v="405094" />
	</node>
	<node id="-41533" lat="60.3849972218" lon="12.56165278">
		<tag k="name" v="Heggendorpa" />
		<tag k="place" v="locality" />
		<tag k="ssr:stedsnr" v="404798" />
	</node>
	<node id="-41532" lat="60.382975001" lon="12.546736112">
		<tag k="name" v="Raisahå" />
		<tag k="place" v="locality" />
		<tag k="ssr:stedsnr" v="404797" />
	</node>
	<node id="-41530" lat="60.3874999986" lon="12.5647027729">
		<tag k="name" v="Karvasdorpa" />
		<tag k="place" v="locality" />
		<tag k="ssr:stedsnr" v="404792" />
	</node>
	<node id="-41529" lat="60.5200249988" lon="12.2998361029">
		<tag k="name" v="Rundtjennkoia" />
		<tag k="place" v="isolated_dwelling" />
		<tag k="ssr:stedsnr" v="404238" />
	</node>
	<node id="-41823" lat="60.3835122031" lon="12.0133869514">
		<tag k="fixme" v="consider place=hamlet" />
		<tag k="name" v="Nes" />
		<tag k="place" v="farm" />
		<tag k="ssr:stedsnr" v="613382" />
	</node>
	<node id="-41524" lat="60.4836388888" lon="12.3756222256">
		<tag k="name" v="Søndre Pelsholen" />
		<tag k="place" v="farm" />
		<tag k="ssr:stedsnr" v="404287" />
	</node>
	<node id="-41519" lat="60.3934527738" lon="12.1109777781">
		<tag k="historic" v="shieling" />
		<tag k="name" v="Tostenbølsætra" />
		<tag k="place" v="locality" />
		<tag k="ssr:stedsnr" v="391139" />
	</node>
	<node id="-41518" lat="60.5362277743" lon="12.0514583377">
		<tag k="name" v="Nordstua" />
		<tag k="place" v="farm" />
		<tag k="ssr:stedsnr" v="390826" />
	</node>
	<node id="-41517" lat="60.461127782" lon="12.048158335">
		<tag k="name" v="Østre By" />
		<tag k="place" v="farm" />
		<tag k="ssr:stedsnr" v="390819" />
	</node>
	<node id="-41516" lat="60.4665979169" lon="12.0334011207">
		<tag k="fixme" v="consider place=hamlet" />
		<tag k="name" v="Østre By" />
		<tag k="place" v="farm" />
		<tag k="ssr:stedsnr" v="390817" />
	</node>
	<node id="-41514" lat="60.3960194424" lon="12.0583305521">
		<tag k="alt_name" v="Korsmo søndre" />
		<tag k="name" v="Søndre Korsmo" />
		<tag k="place" v="farm" />
		<tag k="ssr:stedsnr" v="390749" />
	</node>
	<node id="-41513" lat="60.38418333" lon="11.9920944471">
		<tag k="name" v="Korshella" />
		<tag k="place" v="farm" />
		<tag k="ssr:stedsnr" v="390636" />
	</node>
	<node id="-41512" lat="60.4825805533" lon="12.0017555561">
		<tag k="name" v="Holmgård" />
		<tag k="place" v="farm" />
		<tag k="ssr:stedsnr" v="390248" />
	</node>
	<node id="-41511" lat="60.5385749975" lon="12.0612138864">
		<tag k="name" v="Rensmoen" />
		<tag k="place" v="farm" />
		<tag k="ssr:stedsnr" v="390182" />
	</node>
	<node id="-41509" lat="60.4246444417" lon="12.0511166658">
		<tag k="name" v="Vangen" />
		<tag k="place" v="farm" />
		<tag k="ssr:stedsnr" v="390138" />
	</node>
	<node id="-41508" lat="60.5448999979" lon="12.0661805594">
		<tag k="name" v="Meiningen" />
		<tag k="place" v="farm" />
		<tag k="ssr:stedsnr" v="390177" />
	</node>
	<node id="-41507" lat="60.4615555591" lon="12.1453472219">
		<tag k="name" v="Berger-Økstad" />
		<tag k="place" v="isolated_dwelling" />
		<tag k="ssr:stedsnr" v="384637" />
	</node>
	<node id="-41505" lat="60.5186111077" lon="12.1076138825">
		<tag k="name" v="Høgbrenna" />
		<tag k="place" v="farm" />
		<tag k="ssr:stedsnr" v="371929" />
	</node>
	<node id="-41503" lat="60.5002666655" lon="12.2054027753">
		<tag k="name" v="Hesttjennkoia" />
		<tag k="place" v="isolated_dwelling" />
		<tag k="ssr:stedsnr" v="371920" />
	</node>
	<node id="-41502" lat="60.5498583353" lon="12.0842027866">
		<tag k="name" v="Bonsak" />
		<tag k="place" v="farm" />
		<tag k="ssr:stedsnr" v="371988" />
	</node>
	<node id="-41501" lat="60.5087315691" lon="12.4005088754">
		<tag k="alt_name" v="Tysketorpet, austre;Austre Tysketorpet" />
		<tag k="name" v="Østre Tysketorpet" />
		<tag k="place" v="hamlet" />
		<tag k="ssr:stedsnr" v="371741" />
	</node>
	<node id="-41499" lat="60.470536113" lon="11.7982194511">
		<tag k="historic" v="shieling" />
		<tag k="name" v="Sætersætra" />
		<tag k="place" v="locality" />
		<tag k="ssr:stedsnr" v="370826" />
	</node>
	<node id="-41498" lat="60.4364027761" lon="11.8256722219">
		<tag k="historic" v="shieling" />
		<tag k="name" v="Saltjennsætra" />
		<tag k="place" v="locality" />
		<tag k="ssr:stedsnr" v="370771" />
	</node>
	<node id="-41497" lat="60.4615611133" lon="12.1453833333">
		<tag k="name" v="Økstad" />
		<tag k="place" v="isolated_dwelling" />
		<tag k="ssr:stedsnr" v="370749" />
	</node>
	<node id="-41496" lat="60.456569446" lon="11.8885055542">
		<tag k="historic" v="shieling" />
		<tag k="name" v="Refsetsætra" />
		<tag k="place" v="locality" />
		<tag k="ssr:stedsnr" v="370748" />
	</node>
	<node id="-41495" lat="60.455544445" lon="11.9703194528">
		<tag k="fixme" v="consider place=hamlet" />
		<tag k="name" v="Risberget" />
		<tag k="place" v="village" />
		<tag k="ssr:stedsnr" v="370744" />
	</node>
	<node id="-41494" lat="60.4218583355" lon="12.0206083355">
		<tag k="name" v="Neset" />
		<tag k="place" v="farm" />
		<tag k="ssr:stedsnr" v="370707" />
	</node>
	<node id="-41493" lat="60.4336467149" lon="12.0070397292">
		<tag k="fixme" v="consider place=hamlet" />
		<tag k="name" v="Oppset" />
		<tag k="place" v="farm" />
		<tag k="ssr:stedsnr" v="370694" />
	</node>
	<node id="-41492" lat="60.4357494834" lon="12.025672254">
		<tag k="fixme" v="consider place=hamlet" />
		<tag k="name" v="Kongsgarden" />
		<tag k="place" v="farm" />
		<tag k="ssr:stedsnr" v="370692" />
	</node>
	<node id="-41491" lat="60.4826623935" lon="11.9808468344">
		<tag k="fixme" v="consider place=hamlet" />
		<tag k="name" v="Holt" />
		<tag k="place" v="farm" />
		<tag k="ssr:stedsnr" v="370690" />
	</node>
	<node id="-41489" lat="60.495791665" lon="12.0628166679">
		<tag k="alt_name" v="Hagen" />
		<tag k="name" v="Stemsrudshagen" />
		<tag k="place" v="farm" />
		<tag k="ssr:stedsnr" v="370682" />
	</node>
	<node id="-41488" lat="60.4587027776" lon="11.8437083365">
		<tag k="name" v="Kjølsetsætra" />
		<tag k="place" v="locality" />
		<tag k="ssr:stedsnr" v="370662" />
	</node>
	<node id="-41487" lat="60.4661583311" lon="12.0512194424">
		<tag k="name" v="Byrønningen" />
		<tag k="place" v="farm" />
		<tag k="ssr:stedsnr" v="370660" />
	</node>
	<node id="-41486" lat="60.46347973" lon="12.0172579543">
		<tag k="fixme" v="consider place=hamlet" />
		<tag k="name" v="Sandstad" />
		<tag k="place" v="farm" />
		<tag k="ssr:stedsnr" v="370658" />
	</node>
	<node id="-41485" lat="60.4697319804" lon="12.0066690792">
		<tag k="fixme" v="consider place=hamlet" />
		<tag k="name" v="Refset" />
		<tag k="place" v="farm" />
		<tag k="ssr:stedsnr" v="370657" />
	</node>
	<node id="-41484" lat="60.4758111108" lon="11.9915750005">
		<tag k="name" v="Plassen" />
		<tag k="place" v="farm" />
		<tag k="ssr:stedsnr" v="370648" />
	</node>
	<node id="-41482" lat="60.3854138882" lon="12.0125027781">
		<tag k="name" v="Østmo" />
		<tag k="place" v="farm" />
		<tag k="ssr:stedsnr" v="370412" />
	</node>
	<node id="-41480" lat="60.3716222214" lon="12.1265611064">
		<tag k="historic" v="shieling" />
		<tag k="name" v="Veltsætra" />
		<tag k="place" v="locality" />
		<tag k="ssr:stedsnr" v="370407" />
	</node>
	<node id="-41477" lat="60.4076444465" lon="12.0497611203">
		<tag k="fixme" v="consider place=hamlet" />
		<tag k="name" v="Grinder" />
		<tag k="place" v="village" />
		<tag k="ssr:stedsnr" v="370391" />
	</node>
	<node id="-41476" lat="60.4092194408" lon="12.0340694478">
		<tag k="name" v="Mo" />
		<tag k="place" v="hamlet" />
		<tag k="ssr:stedsnr" v="370390" />
	</node>
	<node id="-41473" lat="60.3973666631" lon="11.9349388947">
		<tag k="alt_name" v="Letjennskoia" />
		<tag k="name" v="Lemyrkoia" />
		<tag k="place" v="isolated_dwelling" />
		<tag k="ssr:stedsnr" v="370366" />
	</node>
	<node id="-41470" lat="60.3412083326" lon="12.4518222295">
		<tag k="name" v="Samuelsmoen" />
		<tag k="place" v="farm" />
		<tag k="ssr:stedsnr" v="370258" />
	</node>
	<node id="-41468" lat="60.314002778" lon="12.4907805501">
		<tag k="name" v="Rybråtan" />
		<tag k="place" v="farm" />
		<tag k="ssr:stedsnr" v="370161" />
	</node>
	<node id="-41465" lat="60.4634861086" lon="12.5005305596">
		<tag k="name" v="Tysken" />
		<tag k="place" v="farm" />
		<tag k="ssr:stedsnr" v="370132" />
	</node>
	<node id="-41464" lat="60.4795611111" lon="12.3783666609">
		<tag k="name" v="Skoglund" />
		<tag k="place" v="farm" />
		<tag k="ssr:stedsnr" v="370116" />
	</node>
	<node id="-41462" lat="60.4864611123" lon="12.5729611185">
		<tag k="name" v="Røgdekoia" />
		<tag k="place" v="farm" />
		<tag k="ssr:stedsnr" v="370103" />
	</node>
	<node id="-41461" lat="60.4963361125" lon="12.4309000078">
		<tag k="name" v="Steinmyrkoia" />
		<tag k="place" v="locality" />
		<tag k="ssr:stedsnr" v="370088" />
	</node>
	<node id="-41460" lat="60.3762611087" lon="12.3572999981">
		<tag k="name" v="Villa Skasen" />
		<tag k="place" v="isolated_dwelling" />
		<tag k="ssr:stedsnr" v="370081" />
	</node>
	<node id="-41456" lat="60.4316638854" lon="12.2734305495">
		<tag k="historic" v="shieling" />
		<tag k="name" v="Veltsætra" />
		<tag k="place" v="locality" />
		<tag k="ssr:stedsnr" v="370006" />
	</node>
	<node id="-41455" lat="60.4480861131" lon="11.976630556">
		<tag k="name" v="Bråten" />
		<tag k="place" v="farm" />
		<tag k="ssr:stedsnr" v="362882" />
	</node>
	<node id="-41454" lat="60.4447527758" lon="11.9830638962">
		<tag k="name" v="Neråsen" />
		<tag k="place" v="farm" />
		<tag k="ssr:stedsnr" v="362881" />
	</node>
	<node id="-41453" lat="60.3881444438" lon="11.9863777768">
		<tag k="name" v="Skaraberget" />
		<tag k="place" v="farm" />
		<tag k="ssr:stedsnr" v="362877" />
	</node>
	<node id="-41437" lat="60.4237777792" lon="12.1277277789">
		<tag k="name" v="Steina" />
		<tag k="place" v="isolated_dwelling" />
		<tag k="ssr:stedsnr" v="358941" />
	</node>
	<node id="-41436" lat="60.4411972269" lon="12.1142083275">
		<tag k="name" v="Midtsundstad" />
		<tag k="place" v="isolated_dwelling" />
		<tag k="ssr:stedsnr" v="358935" />
	</node>
	<node id="-41799" lat="60.415880557" lon="11.999063881">
		<tag k="name" v="Rølla" />
		<tag k="place" v="farm" />
		<tag k="ssr:stedsnr" v="612358" />
	</node>
	<node id="-41431" lat="60.4707499978" lon="11.953561111">
		<tag k="name" v="Kjellerhalsen" />
		<tag k="place" v="farm" />
		<tag k="ssr:stedsnr" v="358885" />
	</node>
	<node id="-41418" lat="60.5133694409" lon="12.5392166603">
		<tag k="name" v="Vestgarden" />
		<tag k="place" v="isolated_dwelling" />
		<tag k="ssr:stedsnr" v="345581" />
	</node>
	<node id="-41381" lat="60.4401367125" lon="12.0232733098">
		<tag k="alt_name" v="Vollsnes" />
		<tag k="fixme" v="consider place=hamlet" />
		<tag k="name" v="Vølsnes" />
		<tag k="place" v="farm" />
		<tag k="ssr:stedsnr" v="329798" />
	</node>
	<node id="-41380" lat="60.5089222203" lon="12.1039222136">
		<tag k="name" v="Gjetholen" />
		<tag k="place" v="farm" />
		<tag k="ssr:stedsnr" v="329195" />
	</node>
	<node id="-41378" lat="60.3867111115" lon="12.0011583378">
		<tag k="name" v="Nesholen" />
		<tag k="place" v="farm" />
		<tag k="ssr:stedsnr" v="329166" />
	</node>
	<node id="-41376" lat="60.3863277818" lon="12.0065222302">
		<tag k="name" v="Nesteppa" />
		<tag k="place" v="farm" />
		<tag k="ssr:stedsnr" v="329155" />
	</node>
	<node id="-41375" lat="60.3832888858" lon="12.0028277808">
		<tag k="name" v="Nesholtet" />
		<tag k="place" v="farm" />
		<tag k="ssr:stedsnr" v="329154" />
	</node>
	<node id="-41372" lat="60.4650612822" lon="12.3811207954">
		<tag k="name" v="Rotneberget" />
		<tag k="place" v="hamlet" />
		<tag k="ssr:stedsnr" v="325987" />
	</node>
	<node id="-41370" lat="60.54458889" lon="12.0593388941">
		<tag k="name" v="Oppi" />
		<tag k="place" v="farm" />
		<tag k="ssr:stedsnr" v="310973" />
	</node>
	<node id="-41369" lat="60.5045555525" lon="12.0936722132">
		<tag k="alt_name" v="Lykset" />
		<tag k="name" v="Lykkset" />
		<tag k="place" v="farm" />
		<tag k="ssr:stedsnr" v="310923" />
	</node>
	<node id="-41368" lat="60.5056456735" lon="11.935803294">
		<tag k="fixme" v="consider place=hamlet" />
		<tag k="name" v="Årnes" />
		<tag k="place" v="farm" />
		<tag k="ssr:stedsnr" v="310920" />
	</node>
	<node id="-41367" lat="60.5091388883" lon="11.9458416723">
		<tag k="name" v="Holtet" />
		<tag k="place" v="farm" />
		<tag k="ssr:stedsnr" v="310919" />
	</node>
	<node id="-41366" lat="60.5172388905" lon="12.1789055545">
		<tag k="historic" v="shieling" />
		<tag k="name" v="Brusætra" />
		<tag k="place" v="locality" />
		<tag k="ssr:stedsnr" v="310913" />
	</node>
	<node id="-41365" lat="60.4998888866" lon="12.1369111091">
		<tag k="alt_name" v="Monsrud, nordre" />
		<tag k="name" v="Nordre Monsrud" />
		<tag k="place" v="farm" />
		<tag k="ssr:stedsnr" v="310893" />
	</node>
	<node id="-41364" lat="60.5369722204" lon="12.0837527697">
		<tag k="name" v="Hestmoen" />
		<tag k="place" v="farm" />
		<tag k="ssr:stedsnr" v="310882" />
	</node>
	<node id="-41363" lat="60.5181388888" lon="12.0656055566">
		<tag k="name" v="Høgmo" />
		<tag k="place" v="farm" />
		<tag k="ssr:stedsnr" v="310880" />
	</node>
	<node id="-41360" lat="60.3721777807" lon="12.0428305498">
		<tag k="name" v="Sjåtil" />
		<tag k="place" v="farm" />
		<tag k="ssr:stedsnr" v="310364" />
	</node>
	<node id="-41358" lat="60.3756111066" lon="11.8907055563">
		<tag k="name" v="Nysæter" />
		<tag k="place" v="farm" />
		<tag k="ssr:stedsnr" v="310352" />
	</node>
	<node id="-41709" lat="60.519094448" lon="12.0568472298">
		<tag k="name" v="Koia" />
		<tag k="place" v="farm" />
		<tag k="ssr:stedsnr" v="552902" />
	</node>
	<node id="-41356" lat="60.4497583356" lon="11.8040250029">
		<tag k="name" v="Hørningkoia" />
		<tag k="place" v="isolated_dwelling" />
		<tag k="ssr:stedsnr" v="309772" />
	</node>
	<node id="-41354" lat="60.471313542" lon="12.0357053704">
		<tag k="name" v="Skulstad" />
		<tag k="place" v="hamlet" />
		<tag k="ssr:stedsnr" v="309670" />
	</node>
	<node id="-41353" lat="60.4659691392" lon="12.0041016273">
		<tag k="fixme" v="consider place=hamlet" />
		<tag k="name" v="Våltorp" />
		<tag k="place" v="farm" />
		<tag k="ssr:stedsnr" v="309666" />
	</node>
	<node id="-41349" lat="60.4803944421" lon="12.0711055517">
		<tag k="alt_name" v="Grøset, nordre" />
		<tag k="name" v="Nordre Grøset" />
		<tag k="place" v="farm" />
		<tag k="ssr:stedsnr" v="309657" />
	</node>
	<node id="-41337" lat="60.3018361082" lon="12.5005527743">
		<tag k="name" v="Linna" />
		<tag k="place" v="farm" />
		<tag k="ssr:stedsnr" v="309172" />
	</node>
	<node id="-41953" lat="60.4349861092" lon="11.8921083393">
		<tag k="name" v="Storfløytkoia" />
		<tag k="place" v="isolated_dwelling" />
		<tag k="ssr:stedsnr" v="787059" />
	</node>
	<node id="-41335" lat="60.4493666675" lon="12.3516583294">
		<tag k="name" v="Knappen" />
		<tag k="place" v="farm" />
		<tag k="ssr:stedsnr" v="309116" />
	</node>
	<node id="-41333" lat="60.4564499973" lon="12.3205583293">
		<tag k="name" v="Lønhaugen" />
		<tag k="place" v="farm" />
		<tag k="ssr:stedsnr" v="309107" />
	</node>
	<node id="-41331" lat="60.3978916644" lon="12.4971222176">
		<tag k="name" v="Kalnesåsen" />
		<tag k="place" v="isolated_dwelling" />
		<tag k="ssr:stedsnr" v="309047" />
	</node>
	<node id="-41329" lat="60.4045361119" lon="12.3998138901">
		<tag k="name" v="Holt" />
		<tag k="place" v="farm" />
		<tag k="ssr:stedsnr" v="309036" />
	</node>
	<node id="-41325" lat="60.4698694407" lon="12.5144416733">
		<tag k="name" v="Løvlia" />
		<tag k="place" v="isolated_dwelling" />
		<tag k="ssr:stedsnr" v="308005" />
	</node>
	<node id="-39753" lat="60.3650111122" lon="11.8255000083">
		<tag k="name" v="Trøhaugen" />
		<tag k="place" v="isolated_dwelling" />
		<tag k="ssr:stedsnr" v="6913" />
	</node>
	<node id="-41318" lat="60.4236055588" lon="11.9950833325">
		<tag k="fixme" v="multiple name tags, choose one and add the other to alt_name" />
		<tag k="name" v="Køya;Meierimoen" />
		<tag k="place" v="farm" />
		<tag k="ssr:stedsnr" v="300886" />
	</node>
	<node id="-41317" lat="60.3917388881" lon="12.5491833323">
		<tag k="name" v="Porkala" />
		<tag k="place" v="locality" />
		<tag k="ssr:stedsnr" v="300801" />
	</node>
	<node id="-41315" lat="60.3895055535" lon="11.9996916715">
		<tag k="name" v="Granli" />
		<tag k="place" v="farm" />
		<tag k="ssr:stedsnr" v="209192" />
	</node>
	<node id="-41314" lat="60.4008722246" lon="12.0557638807">
		<tag k="name" v="Kveiland" />
		<tag k="place" v="farm" />
		<tag k="ssr:stedsnr" v="209185" />
	</node>
	<node id="-41313" lat="60.4998611152" lon="12.0946444514">
		<tag k="name" v="Persholen" />
		<tag k="place" v="farm" />
		<tag k="ssr:stedsnr" v="208859" />
	</node>
	<node id="-41312" lat="60.4517555542" lon="12.0762694423">
		<tag k="amenity" v="school" />
		<tag k="name" v="Furubo" />
		<tag k="ssr:stedsnr" v="208844" />
	</node>
	<node id="-41311" lat="60.4343083314" lon="12.1043277713">
		<tag k="name" v="Myrer" />
		<tag k="place" v="farm" />
		<tag k="ssr:stedsnr" v="208786" />
	</node>
	<node id="-41310" lat="60.3839611129" lon="11.9812555511">
		<tag k="name" v="Nesbråten" />
		<tag k="place" v="farm" />
		<tag k="ssr:stedsnr" v="208645" />
	</node>
	<node id="-41308" lat="60.5018166653" lon="12.0725194367">
		<tag k="name" v="Bjerke" />
		<tag k="place" v="farm" />
		<tag k="ssr:stedsnr" v="208189" />
	</node>
	<node id="-41307" lat="60.5428999985" lon="12.065138892">
		<tag k="name" v="Nygård" />
		<tag k="place" v="farm" />
		<tag k="ssr:stedsnr" v="208167" />
	</node>
	<node id="-41305" lat="60.4449444465" lon="12.0077277796">
		<tag k="name" v="Brenna" />
		<tag k="place" v="isolated_dwelling" />
		<tag k="ssr:stedsnr" v="208148" />
	</node>
	<node id="-41303" lat="60.4193416684" lon="12.0053611076">
		<tag k="name" v="Nymoen" />
		<tag k="place" v="farm" />
		<tag k="ssr:stedsnr" v="208134" />
	</node>
	<node id="-41302" lat="60.4103694425" lon="12.0539722197">
		<tag k="name" v="Skogstad" />
		<tag k="place" v="farm" />
		<tag k="ssr:stedsnr" v="208132" />
	</node>
	<node id="-42041" lat="60.4548388907" lon="11.9472333278">
		<tag k="name" v="Svinøresætra" />
		<tag k="place" v="farm" />
		<tag k="ssr:stedsnr" v="830906" />
	</node>
	<node id="-41299" lat="60.4303944466" lon="12.2878499942">
		<tag k="name" v="Brattberget" />
		<tag k="place" v="locality" />
		<tag k="ssr:stedsnr" v="203013" />
	</node>
	<node id="-41296" lat="60.5005638917" lon="12.187013883">
		<tag k="name" v="Skulstadberget" />
		<tag k="place" v="farm" />
		<tag k="ssr:stedsnr" v="189898" />
	</node>
	<node id="-41294" lat="60.5006888885" lon="12.2562722222">
		<tag k="name" v="Sjøholen" />
		<tag k="place" v="isolated_dwelling" />
		<tag k="ssr:stedsnr" v="189703" />
	</node>
	<node id="-41288" lat="60.4486499993" lon="12.1006194457">
		<tag k="name" v="Bjørnstad" />
		<tag k="place" v="farm" />
		<tag k="ssr:stedsnr" v="188766" />
	</node>
	<node id="-41287" lat="60.4533194445" lon="12.0078500005">
		<tag k="name" v="Oppi" />
		<tag k="place" v="farm" />
		<tag k="ssr:stedsnr" v="188752" />
	</node>
	<node id="-41286" lat="60.4614781434" lon="12.0387828544">
		<tag k="fixme" v="consider place=hamlet" />
		<tag k="name" v="Sander" />
		<tag k="place" v="farm" />
		<tag k="ssr:stedsnr" v="188748" />
	</node>
	<node id="-41285" lat="60.4298944407" lon="12.10079723">
		<tag k="name" v="Teppa" />
		<tag k="place" v="farm" />
		<tag k="ssr:stedsnr" v="188743" />
	</node>
	<node id="-41282" lat="60.42848889" lon="12.0800361196">
		<tag k="name" v="Gard" />
		<tag k="place" v="farm" />
		<tag k="ssr:stedsnr" v="188732" />
	</node>
	<node id="-41280" lat="60.4381249997" lon="12.1119361067">
		<tag k="name" v="Jensrud" />
		<tag k="place" v="farm" />
		<tag k="ssr:stedsnr" v="188724" />
	</node>
	<node id="-41278" lat="60.4335008405" lon="12.049420769">
		<tag k="fixme" v="consider place=hamlet" />
		<tag k="name" v="Kongshov" />
		<tag k="place" v="farm" />
		<tag k="ssr:stedsnr" v="188719" />
	</node>
	<node id="-41277" lat="60.4984916662" lon="12.1237166702">
		<tag k="name" v="Nordli" />
		<tag k="place" v="farm" />
		<tag k="ssr:stedsnr" v="188712" />
	</node>
	<node id="-41276" lat="60.4624055536" lon="11.9414833405">
		<tag k="alt_name" v="Nysætra" />
		<tag k="historic" v="shieling" />
		<tag k="name" v="Nysæter" />
		<tag k="place" v="locality" />
		<tag k="ssr:stedsnr" v="188697" />
	</node>
	<node id="-41274" lat="60.4791027801" lon="11.9953027753">
		<tag k="name" v="Holtet" />
		<tag k="place" v="farm" />
		<tag k="ssr:stedsnr" v="188681" />
	</node>
	<node id="-41270" lat="60.385330552" lon="11.8671000054">
		<tag k="name" v="Gladbakk" />
		<tag k="place" v="isolated_dwelling" />
		<tag k="ssr:stedsnr" v="188404" />
	</node>
	<node id="-41269" lat="60.3897888886" lon="11.9970388921">
		<tag k="name" v="Skaraberget" />
		<tag k="place" v="hamlet" />
		<tag k="ssr:stedsnr" v="188403" />
	</node>
	<node id="-41267" lat="60.3713722236" lon="12.0190250078">
		<tag k="name" v="Delbekk" />
		<tag k="place" v="farm" />
		<tag k="ssr:stedsnr" v="188398" />
	</node>
	<node id="-41266" lat="60.3685916648" lon="12.1810194428">
		<tag k="historic" v="shieling" />
		<tag k="name" v="Mosætra" />
		<tag k="place" v="locality" />
		<tag k="ssr:stedsnr" v="188393" />
	</node>
	<node id="-41263" lat="60.3660250023" lon="12.0007888813">
		<tag k="name" v="Snipen" />
		<tag k="place" v="farm" />
		<tag k="ssr:stedsnr" v="188382" />
	</node>
	<node id="-41261" lat="60.4128800077" lon="12.0162559289">
		<tag k="fixme" v="consider place=hamlet" />
		<tag k="name" v="Bjerke" />
		<tag k="place" v="farm" />
		<tag k="ssr:stedsnr" v="188368" />
	</node>
	<node id="-41260" lat="60.3983018928" lon="12.0011534703">
		<tag k="fixme" v="consider place=hamlet" />
		<tag k="name" v="Vestre Skara" />
		<tag k="place" v="farm" />
		<tag k="ssr:stedsnr" v="188355" />
	</node>
	<node id="-41257" lat="60.4106277809" lon="12.0772777728">
		<tag k="name" v="Våler" />
		<tag k="place" v="farm" />
		<tag k="ssr:stedsnr" v="188346" />
	</node>
	<node id="-41255" lat="60.3420165927" lon="12.506365248">
		<tag k="alt_name" v="Askoberget" />
		<tag k="fixme" v="consider place=hamlet" />
		<tag k="name" v="Askosberget" />
		<tag k="place" v="farm" />
		<tag k="ssr:stedsnr" v="188246" />
	</node>
	<node id="-41254" lat="60.3547361136" lon="12.2287166717">
		<tag k="name" v="Tuterud" />
		<tag k="place" v="isolated_dwelling" />
		<tag k="ssr:stedsnr" v="188241" />
	</node>
	<node id="-41253" lat="60.3682555563" lon="12.4370472267">
		<tag k="name" v="Merraskjulet" />
		<tag k="place" v="isolated_dwelling" />
		<tag k="ssr:stedsnr" v="188225" />
	</node>
	<node id="-41249" lat="60.4645083342" lon="12.4987638804">
		<tag k="name" v="Oppigarden" />
		<tag k="place" v="isolated_dwelling" />
		<tag k="ssr:stedsnr" v="188122" />
	</node>
	<node id="-41246" lat="60.486925002" lon="12.2845166597">
		<tag k="historic" v="shieling" />
		<tag k="name" v="Gruesætra" />
		<tag k="place" v="locality" />
		<tag k="ssr:stedsnr" v="188082" />
	</node>
	<node id="-41244" lat="60.3821972222" lon="12.2194583338">
		<tag k="name" v="Lønhaugen" />
		<tag k="place" v="locality" />
		<tag k="ssr:stedsnr" v="188056" />
	</node>
	<node id="-41238" lat="60.4285805521" lon="12.5023111099">
		<tag k="name" v="Hårsmahå" />
		<tag k="place" v="locality" />
		<tag k="ssr:stedsnr" v="188015" />
	</node>
	<node id="-41233" lat="60.4612916704" lon="11.8129694536">
		<tag k="name" v="Trillingtjennskoia" />
		<tag k="place" v="locality" />
		<tag k="ssr:stedsnr" v="180620" />
	</node>
	<node id="-41301" lat="60.4119555526" lon="12.055547213">
		<tag k="name" v="Myrland" />
		<tag k="place" v="farm" />
		<tag k="ssr:stedsnr" v="208131" />
	</node>
	<node id="-41223" lat="60.3964361101" lon="12.4317972276">
		<tag k="name" v="Solbakken" />
		<tag k="place" v="locality" />
		<tag k="ssr:stedsnr" v="178101" />
	</node>
	<node id="-41217" lat="60.4510916649" lon="12.253038887">
		<tag k="name" v="Sanderjordet" />
		<tag k="place" v="isolated_dwelling" />
		<tag k="ssr:stedsnr" v="176559" />
	</node>
	<node id="-41949" lat="60.4604277736" lon="12.4390944476">
		<tag k="name" v="Halvortjennsberget" />
		<tag k="place" v="isolated_dwelling" />
		<tag k="ssr:stedsnr" v="785965" />
	</node>
	<node id="-41210" lat="60.4619166694" lon="12.381313889">
		<tag k="name" v="Bråten" />
		<tag k="place" v="isolated_dwelling" />
		<tag k="ssr:stedsnr" v="176298" />
	</node>
	<node id="-41209" lat="60.471577778" lon="12.3787722165">
		<tag k="name" v="Vestli" />
		<tag k="place" v="farm" />
		<tag k="ssr:stedsnr" v="176296" />
	</node>
	<node id="-41208" lat="60.3800611143" lon="12.4239638925">
		<tag k="name" v="Fløterbrakka" />
		<tag k="place" v="isolated_dwelling" />
		<tag k="ssr:stedsnr" v="176116" />
	</node>
	<node id="-41206" lat="60.3859750035" lon="12.4405027854">
		<tag k="name" v="Nordgarden" />
		<tag k="place" v="farm" />
		<tag k="ssr:stedsnr" v="176113" />
	</node>
	<node id="-41204" lat="60.4835805514" lon="11.9443138935">
		<tag k="name" v="Kvernbekkbråten" />
		<tag k="place" v="farm" />
		<tag k="ssr:stedsnr" v="176102" />
	</node>
	<node id="-41203" lat="60.395833334" lon="12.4393777832">
		<tag k="name" v="Søndre Helgeberget" />
		<tag k="place" v="farm" />
		<tag k="ssr:stedsnr" v="176101" />
	</node>
	<node id="-41195" lat="60.5187750012" lon="12.5380111028">
		<tag k="name" v="Andersstuen" />
		<tag k="place" v="farm" />
		<tag k="ssr:stedsnr" v="163585" />
	</node>
	<node id="-41193" lat="60.5167361122" lon="12.529133342">
		<tag k="name" v="Slåttbråten" />
		<tag k="place" v="locality" />
		<tag k="ssr:stedsnr" v="163578" />
	</node>
	<node id="-41880" lat="60.4371444418" lon="12.0985111044">
		<tag k="name" v="Tjura" />
		<tag k="place" v="hamlet" />
		<tag k="ssr:stedsnr" v="754778" />
	</node>
	<node id="-41189" lat="60.4099694409" lon="12.09043889">
		<tag k="name" v="Østby" />
		<tag k="place" v="farm" />
		<tag k="ssr:stedsnr" v="163085" />
	</node>
	<node id="-41186" lat="60.3005444462" lon="12.4957000036">
		<tag k="name" v="Råholt" />
		<tag k="place" v="isolated_dwelling" />
		<tag k="ssr:stedsnr" v="162250" />
	</node>
	<node id="-41183" lat="60.5069777785" lon="12.3949611123">
		<tag k="name" v="Håkåsånna" />
		<tag k="place" v="locality" />
		<tag k="ssr:stedsnr" v="162224" />
	</node>
	<node id="-41174" lat="60.4251666697" lon="12.3920666611">
		<tag k="name" v="Damhaug" />
		<tag k="place" v="isolated_dwelling" />
		<tag k="ssr:stedsnr" v="161381" />
	</node>
	<node id="-41172" lat="60.4034666678" lon="12.0436222195">
		<tag k="amenity" v="school" />
		<tag k="name" v="Grinder skole" />
		<tag k="ssr:stedsnr" v="148198" />
	</node>
	<node id="-41171" lat="60.5343499977" lon="12.091022213">
		<tag k="name" v="Skogholt" />
		<tag k="place" v="farm" />
		<tag k="ssr:stedsnr" v="147837" />
	</node>
	<node id="-41169" lat="60.5065138854" lon="12.0696777848">
		<tag k="name" v="Holtet" />
		<tag k="place" v="farm" />
		<tag k="ssr:stedsnr" v="147201" />
	</node>
	<node id="-41168" lat="60.5496222216" lon="12.0786611163">
		<tag k="name" v="Pålsrud" />
		<tag k="place" v="farm" />
		<tag k="ssr:stedsnr" v="147177" />
	</node>
	<node id="-41166" lat="60.3774416622" lon="12.052594452">
		<tag k="name" v="Øverby" />
		<tag k="place" v="locality" />
		<tag k="ssr:stedsnr" v="147166" />
	</node>
	<node id="-41165" lat="60.4259916677" lon="12.0625916579">
		<tag k="name" v="Tollerud" />
		<tag k="place" v="farm" />
		<tag k="ssr:stedsnr" v="147148" />
	</node>
	<node id="-41162" lat="60.5417333349" lon="12.0559805549">
		<tag k="name" v="Brenna" />
		<tag k="place" v="farm" />
		<tag k="ssr:stedsnr" v="128972" />
	</node>
	<node id="-41161" lat="60.5410416642" lon="12.0893138797">
		<tag k="name" v="Saller" />
		<tag k="place" v="farm" />
		<tag k="ssr:stedsnr" v="128967" />
	</node>
	<node id="-41160" lat="60.5353666629" lon="12.1081861122">
		<tag k="name" v="Bergheim" />
		<tag k="place" v="farm" />
		<tag k="ssr:stedsnr" v="128887" />
	</node>
	<node id="-41159" lat="60.5121388866" lon="12.1014666664">
		<tag k="name" v="Solheim" />
		<tag k="place" v="farm" />
		<tag k="ssr:stedsnr" v="128885" />
	</node>
	<node id="-41158" lat="60.5005138887" lon="12.0904999967">
		<tag k="alt_name" v="Tuer" />
		<tag k="name" v="Tuver" />
		<tag k="place" v="farm" />
		<tag k="ssr:stedsnr" v="128923" />
	</node>
	<node id="-41157" lat="60.5155833305" lon="12.4797694465">
		<tag k="name" v="Lukashaugen" />
		<tag k="place" v="hamlet" />
		<tag k="ssr:stedsnr" v="128701" />
	</node>
	<node id="-41150" lat="60.4536194415" lon="11.9246138829">
		<tag k="name" v="Kulblikksætra" />
		<tag k="place" v="hamlet" />
		<tag k="ssr:stedsnr" v="127759" />
	</node>
	<node id="-41147" lat="60.4350583304" lon="12.1064833279">
		<tag k="name" v="Haugen" />
		<tag k="place" v="farm" />
		<tag k="ssr:stedsnr" v="127733" />
	</node>
	<node id="-41146" lat="60.4934527738" lon="12.1392083326">
		<tag k="name" v="Torsberget" />
		<tag k="place" v="isolated_dwelling" />
		<tag k="ssr:stedsnr" v="127672" />
	</node>
	<node id="-41142" lat="60.4000222196" lon="12.0953083384">
		<tag k="name" v="Fjellset" />
		<tag k="place" v="farm" />
		<tag k="ssr:stedsnr" v="127344" />
	</node>
	<node id="-41141" lat="60.4071472262" lon="12.1553472147">
		<tag k="name" v="Storberget" />
		<tag k="place" v="farm" />
		<tag k="ssr:stedsnr" v="127342" />
	</node>
	<node id="-41138" lat="60.4847888869" lon="12.4896861167">
		<tag k="name" v="Notila" />
		<tag k="place" v="isolated_dwelling" />
		<tag k="ssr:stedsnr" v="127086" />
	</node>
	<node id="-41132" lat="60.3824833313" lon="12.2615500022">
		<tag k="name" v="Pondan" />
		<tag k="place" v="isolated_dwelling" />
		<tag k="ssr:stedsnr" v="127052" />
	</node>
	<node id="-41131" lat="60.4056055591" lon="12.4878972239">
		<tag k="name" v="Granlund" />
		<tag k="place" v="isolated_dwelling" />
		<tag k="ssr:stedsnr" v="127041" />
	</node>
	<node id="-41130" lat="60.4211000023" lon="12.2473250014">
		<tag k="historic" v="shieling" />
		<tag k="name" v="Torderudsætra" />
		<tag k="place" v="locality" />
		<tag k="ssr:stedsnr" v="127017" />
	</node>
	<node id="-41128" lat="60.3293222261" lon="12.4860805639">
		<tag k="alt_name" v="Høybråten" />
		<tag k="name" v="Høybråtekoia" />
		<tag k="place" v="isolated_dwelling" />
		<tag k="ssr:stedsnr" v="127140" />
	</node>
	<node id="-41115" lat="60.461258336" lon="11.8993611057">
		<tag k="historic" v="shieling" />
		<tag k="name" v="Djuptjennsætra" />
		<tag k="place" v="locality" />
		<tag k="ssr:stedsnr" v="118072" />
	</node>
	<node id="-41112" lat="60.4586083314" lon="11.9539916616">
		<tag k="name" v="Daler" />
		<tag k="place" v="farm" />
		<tag k="ssr:stedsnr" v="116881" />
	</node>
	<node id="-41108" lat="60.4131694446" lon="12.2088416584">
		<tag k="name" v="Sætersgrenda" />
		<tag k="place" v="hamlet" />
		<tag k="ssr:stedsnr" v="116534" />
	</node>
	<node id="-39959" lat="60.4272138866" lon="12.0725555546">
		<tag k="name" v="Gard" />
		<tag k="place" v="farm" />
		<tag k="ssr:stedsnr" v="147753" />
	</node>
	<node id="-41093" lat="60.52231667" lon="12.4210666668">
		<tag k="name" v="Langmyrkoia" />
		<tag k="place" v="isolated_dwelling" />
		<tag k="ssr:stedsnr" v="102921" />
	</node>
	<node id="-39958" lat="60.4549972198" lon="12.0424805475">
		<tag k="name" v="Haug" />
		<tag k="place" v="farm" />
		<tag k="ssr:stedsnr" v="147806" />
	</node>
	<node id="-41088" lat="60.50786215" lon="12.3999023094">
		<tag k="name" v="Østre Tysketorpet" />
		<tag k="place" v="farm" />
		<tag k="ssr:stedsnr" v="102331" />
	</node>
	<node id="-41080" lat="60.3615416634" lon="12.4354527806">
		<tag k="name" v="Sekstenbrakka" />
		<tag k="place" v="isolated_dwelling" />
		<tag k="ssr:stedsnr" v="102138" />
	</node>
	<node id="-41078" lat="60.5139741653" lon="12.1010557697">
		<tag k="fixme" v="consider place=hamlet" />
		<tag k="name" v="Smiholen" />
		<tag k="place" v="farm" />
		<tag k="ssr:stedsnr" v="102095" />
	</node>
	<node id="-41074" lat="60.4290166706" lon="12.2673527817">
		<tag k="name" v="Strandli" />
		<tag k="place" v="isolated_dwelling" />
		<tag k="ssr:stedsnr" v="101574" />
	</node>
	<node id="-42003" lat="60.4197694436" lon="12.0058888821">
		<tag k="name" v="Skoglund" />
		<tag k="place" v="farm" />
		<tag k="ssr:stedsnr" v="815131" />
	</node>
	<node id="-41069" lat="60.3798666686" lon="12.4241361057">
		<tag k="fixme" v="consider tourism=alpine_hut or tourism=chalet" />
		<tag k="name" v="Helgedammen" />
		<tag k="ssr:stedsnr" v="101384" />
		<tag k="tourism" v="wilderness_hut" />
	</node>
	<node id="-41068" lat="60.4972888864" lon="12.3640944441">
		<tag k="name" v="Austgarden" />
		<tag k="place" v="isolated_dwelling" />
		<tag k="ssr:stedsnr" v="101281" />
	</node>
	<node id="-41067" lat="60.4932916632" lon="12.3456972288">
		<tag k="name" v="Sekstenkoia" />
		<tag k="place" v="isolated_dwelling" />
		<tag k="ssr:stedsnr" v="101276" />
	</node>
	<node id="-41057" lat="60.3995666653" lon="12.0073166652">
		<tag k="name" v="Vestre Skara" />
		<tag k="place" v="farm" />
		<tag k="ssr:stedsnr" v="87866" />
	</node>
	<node id="-41055" lat="60.4538944466" lon="12.1032361116">
		<tag k="name" v="Smeden" />
		<tag k="place" v="farm" />
		<tag k="ssr:stedsnr" v="87845" />
	</node>
	<node id="-41053" lat="60.4884362224" lon="12.0481171931">
		<tag k="alt_name" v="Enger vestre" />
		<tag k="fixme" v="consider place=hamlet" />
		<tag k="name" v="Vestre Enger" />
		<tag k="place" v="farm" />
		<tag k="ssr:stedsnr" v="87828" />
	</node>
	<node id="-41052" lat="60.4103861108" lon="12.0095805582">
		<tag k="name" v="Bjerke" />
		<tag k="place" v="farm" />
		<tag k="ssr:stedsnr" v="87814" />
	</node>
	<node id="-41050" lat="60.4232861153" lon="12.0683444444">
		<tag k="name" v="Gard" />
		<tag k="place" v="farm" />
		<tag k="ssr:stedsnr" v="87228" />
	</node>
	<node id="-41047" lat="60.5164833372" lon="12.0989833292">
		<tag k="name" v="Norderholen" />
		<tag k="place" v="isolated_dwelling" />
		<tag k="ssr:stedsnr" v="87194" />
	</node>
	<node id="-41045" lat="60.3839249991" lon="12.0076083254">
		<tag k="name" v="Nesmoen" />
		<tag k="place" v="farm" />
		<tag k="ssr:stedsnr" v="87150" />
	</node>
	<node id="-41044" lat="60.4601944467" lon="12.1534027731">
		<tag k="name" v="Kallneskoia" />
		<tag k="place" v="isolated_dwelling" />
		<tag k="ssr:stedsnr" v="81664" />
	</node>
	<node id="-41998" lat="60.5185916675" lon="12.4902194518">
		<tag k="name" v="Mattisstua" />
		<tag k="place" v="farm" />
		<tag k="ssr:stedsnr" v="796735" />
	</node>
	<node id="-41042" lat="60.5436055594" lon="12.0590388913">
		<tag k="name" v="Bjørkeli" />
		<tag k="place" v="isolated_dwelling" />
		<tag k="ssr:stedsnr" v="68968" />
	</node>
	<node id="-41036" lat="60.5315000007" lon="12.0642888916">
		<tag k="name" v="Sømoen" />
		<tag k="place" v="farm" />
		<tag k="ssr:stedsnr" v="67893" />
	</node>
	<node id="-41035" lat="60.5156027761" lon="12.0684388875">
		<tag k="name" v="Rønne" />
		<tag k="place" v="farm" />
		<tag k="ssr:stedsnr" v="67891" />
	</node>
	<node id="-41034" lat="60.5198277795" lon="12.0837166621">
		<tag k="name" v="Sandvoll" />
		<tag k="place" v="farm" />
		<tag k="ssr:stedsnr" v="67881" />
	</node>
	<node id="-41032" lat="60.4853147494" lon="12.0329645762">
		<tag k="fixme" v="consider place=hamlet" />
		<tag k="name" v="Sætre" />
		<tag k="place" v="farm" />
		<tag k="ssr:stedsnr" v="67695" />
	</node>
	<node id="-41031" lat="60.4737138898" lon="11.9766861127">
		<tag k="name" v="Skavåsen" />
		<tag k="place" v="farm" />
		<tag k="ssr:stedsnr" v="67646" />
	</node>
	<node id="-41029" lat="60.4378361126" lon="11.9406083341">
		<tag k="name" v="Bottilsrudsætra" />
		<tag k="place" v="isolated_dwelling" />
		<tag k="ssr:stedsnr" v="67735" />
	</node>
	<node id="-41028" lat="60.4495138868" lon="12.0048500076">
		<tag k="name" v="Nordby" />
		<tag k="place" v="farm" />
		<tag k="ssr:stedsnr" v="67731" />
	</node>
	<node id="-41027" lat="60.4573305525" lon="12.0025222247">
		<tag k="name" v="Bergli" />
		<tag k="place" v="farm" />
		<tag k="ssr:stedsnr" v="67727" />
	</node>
	<node id="-41026" lat="60.4634777775" lon="12.0314555528">
		<tag k="alt_name" v="Ødegarden" />
		<tag k="name" v="Øgarden" />
		<tag k="place" v="farm" />
		<tag k="ssr:stedsnr" v="67724" />
	</node>
	<node id="-41025" lat="60.428602778" lon="12.1183777759">
		<tag k="name" v="Holen" />
		<tag k="place" v="farm" />
		<tag k="ssr:stedsnr" v="67719" />
	</node>
	<node id="-41024" lat="60.4247055589" lon="12.1980333409">
		<tag k="name" v="Langholmen" />
		<tag k="place" v="farm" />
		<tag k="ssr:stedsnr" v="67717" />
	</node>
	<node id="-41021" lat="60.3811027786" lon="12.0459555589">
		<tag k="name" v="Nordre Sæta" />
		<tag k="place" v="farm" />
		<tag k="ssr:stedsnr" v="67389" />
	</node>
	<node id="-41994" lat="60.4430145729" lon="12.0931641315">
		<tag k="alt_name" v="Lundeby" />
		<tag k="fixme" v="consider place=hamlet" />
		<tag k="name" v="Lundby" />
		<tag k="place" v="farm" />
		<tag k="ssr:stedsnr" v="795751" />
	</node>
	<node id="-41018" lat="60.4853063576" lon="12.0403233577">
		<tag k="fixme" v="consider place=hamlet" />
		<tag k="name" v="Snapa" />
		<tag k="place" v="farm" />
		<tag k="ssr:stedsnr" v="67638" />
	</node>
	<node id="-41017" lat="60.4809666665" lon="11.8084194482">
		<tag k="name" v="Delikoia" />
		<tag k="place" v="isolated_dwelling" />
		<tag k="ssr:stedsnr" v="67275" />
	</node>
	<node id="-41015" lat="60.4776444474" lon="12.3524694489">
		<tag k="name" v="Rotnedammen" />
		<tag k="place" v="isolated_dwelling" />
		<tag k="ssr:stedsnr" v="67094" />
	</node>
	<node id="-41010" lat="60.4080222194" lon="12.5078749983">
		<tag k="alt_name" v="Vestre Kalneset" />
		<tag k="name" v="Kalneset" />
		<tag k="place" v="farm" />
		<tag k="ssr:stedsnr" v="67054" />
	</node>
	<node id="-41008" lat="60.4034166673" lon="11.8938388942">
		<tag k="name" v="Hiet" />
		<tag k="place" v="isolated_dwelling" />
		<tag k="ssr:stedsnr" v="67364" />
	</node>
	<node id="-41007" lat="60.3956694473" lon="12.0551333295">
		<tag k="name" v="Korsmo" />
		<tag k="place" v="farm" />
		<tag k="ssr:stedsnr" v="67347" />
	</node>
	<node id="-41004" lat="60.3534777753" lon="12.2403777792">
		<tag k="name" v="Roterudkoia" />
		<tag k="place" v="isolated_dwelling" />
		<tag k="ssr:stedsnr" v="66211" />
	</node>
	<node id="-41003" lat="60.3618638876" lon="11.8411416667">
		<tag k="name" v="Trøhaugbråten" />
		<tag k="place" v="locality" />
		<tag k="ssr:stedsnr" v="59309" />
	</node>
	<node id="-40999" lat="60.4511972232" lon="11.9606527813">
		<tag k="name" v="Haugen" />
		<tag k="place" v="farm" />
		<tag k="ssr:stedsnr" v="59093" />
	</node>
	<node id="-41990" lat="60.4610111111" lon="12.1082611196">
		<tag k="name" v="Nordby" />
		<tag k="place" v="farm" />
		<tag k="ssr:stedsnr" v="795728" />
	</node>
	<node id="-41995" lat="60.5384777784" lon="12.0878111151">
		<tag k="name" v="Bråten" />
		<tag k="place" v="farm" />
		<tag k="ssr:stedsnr" v="795990" />
	</node>
	<node id="-40993" lat="60.4866888899" lon="11.9789888962">
		<tag k="name" v="Holtmoen" />
		<tag k="place" v="farm" />
		<tag k="ssr:stedsnr" v="57925" />
	</node>
	<node id="-41989" lat="60.4262722266" lon="12.1255027738">
		<tag k="name" v="Tørrmoen" />
		<tag k="place" v="farm" />
		<tag k="ssr:stedsnr" v="795724" />
	</node>
	<node id="-41988" lat="60.4239555549" lon="11.9896833321">
		<tag k="name" v="Gullikstad" />
		<tag k="place" v="farm" />
		<tag k="ssr:stedsnr" v="795716" />
	</node>
	<node id="-40981" lat="60.3809416694" lon="12.1512416679">
		<tag k="name" v="Brennhaugkoia" />
		<tag k="place" v="isolated_dwelling" />
		<tag k="ssr:stedsnr" v="55897" />
	</node>
	<node id="-40976" lat="60.3780194407" lon="11.975611118">
		<tag k="name" v="Bakkeby" />
		<tag k="place" v="locality" />
		<tag k="ssr:stedsnr" v="55890" />
	</node>
	<node id="-40975" lat="60.385516663" lon="11.9797472287">
		<tag k="name" v="Skarabråten" />
		<tag k="place" v="farm" />
		<tag k="ssr:stedsnr" v="55867" />
	</node>
	<node id="-40973" lat="60.4011805584" lon="12.1982638834">
		<tag k="name" v="Tørmoen" />
		<tag k="place" v="farm" />
		<tag k="ssr:stedsnr" v="55497" />
	</node>
	<node id="-40972" lat="60.3834277788" lon="12.2623055538">
		<tag k="name" v="Pondanskoia" />
		<tag k="place" v="locality" />
		<tag k="ssr:stedsnr" v="55478" />
	</node>
	<node id="-40970" lat="60.4814777816" lon="11.9465277802">
		<tag k="name" v="Flåset" />
		<tag k="place" v="isolated_dwelling" />
		<tag k="ssr:stedsnr" v="55092" />
	</node>
	<node id="-40968" lat="60.5053333352" lon="11.9339944417">
		<tag k="name" v="Årnes mølle" />
		<tag k="place" v="locality" />
		<tag k="ssr:stedsnr" v="55076" />
	</node>
</osm>
