<?xml version="1.0" encoding="UTF-8"?>
<osm version="0.6" generator="osmapis">
	<node lat="60.312675002580875" lon="12.48431667106438" id="-16188">
		<tag k="name" v="Kåddabaika" />
		<tag k="ssr:stedsnr" v="6165" />
		<tag k="waterway" v="stream" />
	</node>
	<node lat="60.40109166341114" lon="12.573686113197164" id="-16189">
		<tag k="name" v="Lomvika" />
		<tag k="natural" v="bay" />
		<tag k="ssr:stedsnr" v="6056" />
	</node>
	<node lat="60.40126388692143" lon="12.589713887753277" id="-16190">
		<tag k="alt_name" v="Mikkelshemmet" />
		<tag k="name" v="Mikkel" />
		<tag k="place" v="isolated_dwelling" />
		<tag k="ssr:stedsnr" v="6057" />
	</node>
	<node lat="60.493152780173055" lon="12.322616662541265" id="-16191">
		<tag k="name" v="Hytjanstorpet" />
		<tag k="place" v="farm" />
		<tag k="ssr:stedsnr" v="6073" />
	</node>
	<node lat="60.45944444173254" lon="12.111061107339435" id="-16192">
		<tag k="name" v="Øverby" />
		<tag k="place" v="farm" />
		<tag k="ssr:stedsnr" v="6721" />
	</node>
	<node lat="60.462061844356924" lon="12.078178274968305" id="-16193">
		<tag k="fixme" v="consider place=hamlet" />
		<tag k="name" v="Bårderud" />
		<tag k="place" v="farm" />
		<tag k="ssr:stedsnr" v="6722" />
	</node>
	<node lat="60.46172032425446" lon="12.002351593184517" id="-16194">
		<tag k="fixme" v="consider place=hamlet" />
		<tag k="name" v="Kjelsbøl" />
		<tag k="place" v="farm" />
		<tag k="ssr:stedsnr" v="6727" />
	</node>
	<node lat="60.45343611380801" lon="11.990355550621821" id="-16195">
		<tag k="name" v="Berget" />
		<tag k="place" v="farm" />
		<tag k="ssr:stedsnr" v="6732" />
	</node>
	<node lat="60.53590833215802" lon="12.091625003474956" id="-16196">
		<tag k="name" v="Nordset" />
		<tag k="place" v="farm" />
		<tag k="ssr:stedsnr" v="6901" />
	</node>
	<node lat="60.36617499968978" lon="11.789022217225606" id="-16197">
		<tag k="alt_name" v="Kuggerudsåa" />
		<tag k="name" v="Kugga" />
		<tag k="ssr:stedsnr" v="6906" />
		<tag k="waterway" v="river" />
	</node>
	<node lat="60.3650111122122" lon="11.825500008264548" id="-16198">
		<tag k="name" v="Trøhaugen" />
		<tag k="place" v="isolated_dwelling" />
		<tag k="ssr:stedsnr" v="6913" />
	</node>
	<node lat="60.507536108504894" lon="12.574555562538738" id="-16199">
		<tag k="name" v="Abbortjennet" />
		<tag k="natural" v="water" />
		<tag k="ssr:stedsnr" v="7703" />
	</node>
	<node lat="60.51580000044754" lon="12.540172217520919" id="-16200">
		<tag k="loc_name" v="Raatikkala" />
		<tag k="name" v="Rotberget" />
		<tag k="place" v="hamlet" />
		<tag k="ssr:stedsnr" v="7712" />
	</node>
	<node lat="60.5041888930503" lon="12.1161888803198" id="-16201">
		<tag k="name" v="Solem" />
		<tag k="place" v="farm" />
		<tag k="ssr:stedsnr" v="7943" />
	</node>
	<node lat="60.37263055307646" lon="12.074177768728648" id="-16202">
		<tag k="name" v="Grevlingskjæra" />
		<tag k="natural" v="hill" />
		<tag k="place" v="locality" />
		<tag k="ssr:stedsnr" v="26221" />
	</node>
	<node lat="60.51627777657662" lon="12.06231943941953" id="-16203">
		<tag k="name" v="Høgmotjennet" />
		<tag k="natural" v="water" />
		<tag k="ssr:stedsnr" v="26223" />
	</node>
	<node lat="60.512583334768784" lon="12.063563896695943" id="-16204">
		<tag k="name" v="Kjensmo" />
		<tag k="place" v="farm" />
		<tag k="ssr:stedsnr" v="26810" />
	</node>
	<node lat="60.494211110406255" lon="12.378349991917563" id="-16205">
		<tag k="name" v="Rønningsmyra" />
		<tag k="natural" v="wetland" />
		<tag k="ssr:stedsnr" v="40305" />
	</node>
	<node lat="60.47843055602558" lon="12.382377770911148" id="-16206">
		<tag k="name" v="Kvernbekken" />
		<tag k="ssr:stedsnr" v="40313" />
		<tag k="waterway" v="stream" />
	</node>
	<node lat="60.44659166398747" lon="12.38370833311055" id="-16207">
		<tag k="name" v="Buttbråtåmyra" />
		<tag k="natural" v="wetland" />
		<tag k="ssr:stedsnr" v="40420" />
	</node>
	<node lat="60.47811388934927" lon="12.558797224269773" id="-16208">
		<tag k="name" v="Vekalamp" />
		<tag k="natural" v="water" />
		<tag k="ssr:stedsnr" v="40604" />
	</node>
	<node lat="60.41130277846663" lon="12.585255554993134" id="-16209">
		<tag k="name" v="Geittjennsmyra" />
		<tag k="natural" v="wetland" />
		<tag k="ssr:stedsnr" v="40830" />
	</node>
	<node lat="60.38764166761029" lon="12.48081110384185" id="-16210">
		<tag k="name" v="Gåstjennet" />
		<tag k="natural" v="water" />
		<tag k="ssr:stedsnr" v="41113" />
	</node>
	<node lat="60.379663890675154" lon="11.864344437207953" id="-16211">
		<tag k="highway" v="path" />
		<tag k="name" v="Halvardsgate" />
		<tag k="ssr:stedsnr" v="41213" />
	</node>
	<node lat="60.48700555136254" lon="12.593794436373331" id="-16212">
		<tag k="name" v="Kanalen" />
		<tag k="ssr:stedsnr" v="41603" />
		<tag k="waterway" v="stream" />
	</node>
	<node lat="60.51211944234259" lon="12.524916672329688" id="-16213">
		<tag k="name" v="Gjersåvika" />
		<tag k="natural" v="bay" />
		<tag k="ssr:stedsnr" v="41607" />
	</node>
	<node lat="60.51381388533761" lon="12.553024992861385" id="-16214">
		<tag k="name" v="Svarttjennet" />
		<tag k="natural" v="water" />
		<tag k="ssr:stedsnr" v="41612" />
	</node>
	<node lat="60.45539999992619" lon="12.322186118748832" id="-16215">
		<tag k="name" v="Søndre Lønhaugen" />
		<tag k="place" v="farm" />
		<tag k="ssr:stedsnr" v="237340" />
	</node>
	<node lat="60.49334999905958" lon="12.15995277482883" id="-16216">
		<tag k="name" v="Lundmyrhølet" />
		<tag k="natural" v="water" />
		<tag k="ssr:stedsnr" v="41800" />
		<tag k="water" v="pond" />
	</node>
	<node lat="60.507677779363945" lon="11.99110833974549" id="-16217">
		<tag k="name" v="Bjørkåsen" />
		<tag k="place" v="locality" />
		<tag k="ssr:stedsnr" v="41934" />
	</node>
	<node lat="60.46798055900325" lon="12.36083333267887" id="-16218">
		<tag k="name" v="Haugsfossen" />
		<tag k="natural" v="waterfall" />
		<tag k="ssr:stedsnr" v="237319" />
	</node>
	<node lat="60.46330833352353" lon="12.358811113347912" id="-16219">
		<tag k="name" v="Kløftfossen" />
		<tag k="natural" v="waterfall" />
		<tag k="ssr:stedsnr" v="237323" />
	</node>
	<node lat="60.477625002217025" lon="12.117913889352124" id="-16220">
		<tag k="name" v="Heierberget" />
		<tag k="place" v="locality" />
		<tag k="ssr:stedsnr" v="41801" />
	</node>
	<node lat="60.38947499819161" lon="11.89229166388139" id="-16221">
		<tag k="name" v="Okseknappen" />
		<tag k="natural" v="valley" />
		<tag k="place" v="locality" />
		<tag k="ssr:stedsnr" v="42112" />
	</node>
	<node lat="60.54414166668398" lon="12.205575005875554" id="-16222">
		<tag k="name" v="Rådeltjenna" />
		<tag k="natural" v="water" />
		<tag k="ssr:stedsnr" v="42474" />
		<tag k="water" v="lake" />
	</node>
	<node lat="60.33594444817211" lon="12.233788895626901" id="-16223">
		<tag k="name" v="Vestre Venberget" />
		<tag k="place" v="locality" />
		<tag k="ssr:stedsnr" v="42624" />
	</node>
	<node lat="60.31574166996287" lon="12.226855552357708" id="-16224">
		<tag k="name" v="Bubergsslåtta" />
		<tag k="place" v="locality" />
		<tag k="ssr:stedsnr" v="42594" />
	</node>
	<node lat="60.36348333592728" lon="12.241091665837557" id="-16225">
		<tag k="highway" v="path" />
		<tag k="name" v="Øvre Smiuskjærvegen" />
		<tag k="ssr:stedsnr" v="237724" />
	</node>
	<node lat="60.406486112933244" lon="12.236258334709536" id="-16226">
		<tag k="name" v="Kalvmyra" />
		<tag k="natural" v="wetland" />
		<tag k="ssr:stedsnr" v="237538" />
	</node>
	<node lat="60.37251666439206" lon="12.155188886385169" id="-16227">
		<tag k="name" v="Høymyra" />
		<tag k="natural" v="wetland" />
		<tag k="ssr:stedsnr" v="237911" />
	</node>
	<node lat="60.4590055530965" lon="11.978866664552584" id="-16228">
		<tag k="name" v="Odalsplassen" />
		<tag k="place" v="farm" />
		<tag k="ssr:stedsnr" v="237835" />
	</node>
	<node lat="60.447502778624646" lon="12.137702772690785" id="-16229">
		<tag k="name" v="Heltbekken" />
		<tag k="ssr:stedsnr" v="237937" />
		<tag k="waterway" v="stream" />
	</node>
	<node lat="60.43148333562" lon="12.113958331300811" id="-16230">
		<tag k="name" v="Knauserud" />
		<tag k="place" v="isolated_dwelling" />
		<tag k="ssr:stedsnr" v="237943" />
	</node>
	<node lat="60.357652779496995" lon="12.151708336660478" id="-16231">
		<tag k="name" v="Krokmyrholmene" />
		<tag k="place" v="locality" />
		<tag k="ssr:stedsnr" v="237967" />
	</node>
	<node lat="60.50819721813178" lon="12.165500003114229" id="-16232">
		<tag k="name" v="Jannåoset" />
		<tag k="natural" v="bay" />
		<tag k="ssr:stedsnr" v="46013" />
	</node>
	<node lat="60.4920500039257" lon="12.077641672596116" id="-16233">
		<tag k="bridge" v="yes" />
		<tag k="layer" v="1" />
		<tag k="name" v="Namnå nordre" />
		<tag k="ssr:stedsnr" v="46717" />
	</node>
	<node lat="60.36031666419124" lon="12.51998888261942" id="-16234">
		<tag k="name" v="Laskobakken" />
		<tag k="natural" v="hill" />
		<tag k="place" v="locality" />
		<tag k="ssr:stedsnr" v="239143" />
	</node>
	<node lat="60.40407778208728" lon="12.356208336899476" id="-16235">
		<tag k="name" v="Hærakassa" />
		<tag k="place" v="locality" />
		<tag k="ssr:stedsnr" v="239426" />
	</node>
	<node lat="60.41064721911626" lon="11.862569445267253" id="-16236">
		<tag k="name" v="Bjerkesætertjenna" />
		<tag k="natural" v="water" />
		<tag k="ssr:stedsnr" v="239571" />
		<tag k="water" v="lake" />
	</node>
	<node lat="60.36242499978116" lon="12.210191673114126" id="-16237">
		<tag k="name" v="Rottjennsbrakka" />
		<tag k="place" v="isolated_dwelling" />
		<tag k="ssr:stedsnr" v="239683" />
	</node>
	<node lat="60.359761111138525" lon="12.195088881127457" id="-16238">
		<tag k="name" v="Høgtidsbergmyra" />
		<tag k="natural" v="wetland" />
		<tag k="ssr:stedsnr" v="239685" />
	</node>
	<node lat="60.375294448740966" lon="12.455641663121225" id="-16239">
		<tag k="name" v="Rimplamp" />
		<tag k="natural" v="water" />
		<tag k="ssr:stedsnr" v="55105" />
	</node>
	<node lat="60.470263884901726" lon="12.30506666790527" id="-16240">
		<tag k="name" v="Sollimyra" />
		<tag k="natural" v="wetland" />
		<tag k="ssr:stedsnr" v="55317" />
	</node>
	<node lat="60.46316388677993" lon="12.34229166724515" id="-16241">
		<tag k="name" v="Skriverholen" />
		<tag k="place" v="locality" />
		<tag k="ssr:stedsnr" v="55321" />
	</node>
	<node lat="60.35969444116333" lon="12.259524991130546" id="-16242">
		<tag k="name" v="Stormyra" />
		<tag k="natural" v="wetland" />
		<tag k="ssr:stedsnr" v="55673" />
	</node>
	<node lat="60.36053333167653" lon="12.553233328138981" id="-16243">
		<tag k="name" v="Kalsjøbekken" />
		<tag k="ssr:stedsnr" v="55913" />
		<tag k="waterway" v="stream" />
	</node>
	<node lat="60.43579999812372" lon="11.875755553428554" id="-16244">
		<tag k="name" v="Fuglemyra" />
		<tag k="natural" v="wetland" />
		<tag k="ssr:stedsnr" v="240040" />
	</node>
	<node lat="60.39928055444825" lon="12.485191661463803" id="-16245">
		<tag k="name" v="Havskaberget" />
		<tag k="natural" v="hill" />
		<tag k="place" v="locality" />
		<tag k="ssr:stedsnr" v="240042" />
	</node>
	<node lat="60.40574999596165" lon="12.476844443344346" id="-16246">
		<tag k="name" v="Rundmyra" />
		<tag k="natural" v="wetland" />
		<tag k="ssr:stedsnr" v="240043" />
	</node>
	<node lat="60.39873888677019" lon="12.503997230440559" id="-16247">
		<tag k="name" v="Åsanoppi" />
		<tag k="natural" v="hill" />
		<tag k="place" v="locality" />
		<tag k="ssr:stedsnr" v="240045" />
	</node>
	<node lat="60.35204722090383" lon="12.514136103973522" id="-16248">
		<tag k="name" v="Mastvingmyra" />
		<tag k="natural" v="wetland" />
		<tag k="ssr:stedsnr" v="57117" />
	</node>
	<node lat="60.35711944318281" lon="12.50608889319169" id="-16249">
		<tag k="name" v="Paskalamp" />
		<tag k="natural" v="water" />
		<tag k="ssr:stedsnr" v="57121" />
	</node>
	<node lat="60.39708055646131" lon="12.47361389756111" id="-16250">
		<tag k="name" v="Bjønnmyrholtet" />
		<tag k="place" v="locality" />
		<tag k="ssr:stedsnr" v="240081" />
	</node>
	<node lat="60.45337499806271" lon="11.888172228868125" id="-16251">
		<tag k="name" v="Byertjennet" />
		<tag k="natural" v="water" />
		<tag k="ssr:stedsnr" v="57073" />
	</node>
	<node lat="60.40586111167358" lon="12.401122227659652" id="-16252">
		<tag k="building" v="industrial" />
		<tag k="name" v="Kiærsaga" />
		<tag k="ssr:stedsnr" v="57411" />
	</node>
	<node lat="60.41004166985225" lon="12.383525005276875" id="-16253">
		<tag k="name" v="Tjyrubrennmyra" />
		<tag k="natural" v="wetland" />
		<tag k="ssr:stedsnr" v="57414" />
	</node>
	<node lat="60.51883333758931" lon="12.498097226914988" id="-16254">
		<tag k="name" v="Bulkasnårramyra" />
		<tag k="natural" v="wetland" />
		<tag k="ssr:stedsnr" v="57920" />
	</node>
	<node lat="60.50535278237235" lon="12.511374992656743" id="-16255">
		<tag k="name" v="Mæginahå" />
		<tag k="place" v="locality" />
		<tag k="ssr:stedsnr" v="57923" />
	</node>
	<node lat="60.486688889870244" lon="11.978988896241011" id="-16256">
		<tag k="name" v="Holtmoen" />
		<tag k="place" v="farm" />
		<tag k="ssr:stedsnr" v="57925" />
	</node>
	<node lat="60.40013333402526" lon="12.574952771718078" id="-16257">
		<tag k="name" v="Midtnabben" />
		<tag k="natural" v="cape" />
		<tag k="ssr:stedsnr" v="57812" />
	</node>
	<node lat="60.36582500168651" lon="11.957558326179313" id="-16258">
		<tag k="name" v="Domtjennsmyrene" />
		<tag k="natural" v="wetland" />
		<tag k="ssr:stedsnr" v="58021" />
	</node>
	<node lat="60.469375000915456" lon="11.873363887482391" id="-16259">
		<tag k="name" v="Hakasjøkallen" />
		<tag k="natural" v="hill" />
		<tag k="place" v="locality" />
		<tag k="ssr:stedsnr" v="59027" />
	</node>
	<node lat="60.36186388760863" lon="11.841141666743333" id="-16260">
		<tag k="name" v="Trøhaugbråten" />
		<tag k="place" v="locality" />
		<tag k="ssr:stedsnr" v="59309" />
	</node>
	<node lat="60.36186111205382" lon="11.850166674326438" id="-16261">
		<tag k="name" v="Rundmyra" />
		<tag k="natural" v="wetland" />
		<tag k="ssr:stedsnr" v="59292" />
	</node>
	<node lat="60.38282222115497" lon="12.229774992260532" id="-16262">
		<tag k="name" v="Smalmyra" />
		<tag k="natural" v="wetland" />
		<tag k="ssr:stedsnr" v="240549" />
	</node>
	<node lat="60.41619721976733" lon="12.194597228164369" id="-16263">
		<tag k="name" v="Kartabborholmen" />
		<tag k="place" v="islet" />
		<tag k="ssr:stedsnr" v="240571" />
	</node>
	<node lat="60.449658332791756" lon="11.965844442028729" id="-16264">
		<tag k="name" v="Risbergsbekken" />
		<tag k="ssr:stedsnr" v="241106" />
		<tag k="waterway" v="stream" />
	</node>
	<node lat="60.448908337255396" lon="11.916122219629386" id="-16265">
		<tag k="fixme" v="consider natural=peak for the most distinct mountains in the district" />
		<tag k="name" v="Lemyrberget" />
		<tag k="natural" v="hill" />
		<tag k="place" v="locality" />
		<tag k="ssr:stedsnr" v="241112" />
	</node>
	<node lat="60.449066669142475" lon="11.910694443729863" id="-16266">
		<tag k="name" v="Lemyrtjennet" />
		<tag k="natural" v="water" />
		<tag k="ssr:stedsnr" v="241113" />
	</node>
	<node lat="60.36174999682752" lon="12.397733337161535" id="-16267">
		<tag k="name" v="Kalvberget" />
		<tag k="natural" v="hill" />
		<tag k="place" v="locality" />
		<tag k="ssr:stedsnr" v="66208" />
	</node>
	<node lat="60.35347777533907" lon="12.240377779220026" id="-16268">
		<tag k="name" v="Roterudkoia" />
		<tag k="place" v="isolated_dwelling" />
		<tag k="ssr:stedsnr" v="66211" />
	</node>
	<node lat="60.440863888457606" lon="12.56769443684049" id="-16269">
		<tag k="name" v="Kampiso" />
		<tag k="natural" v="wetland" />
		<tag k="ssr:stedsnr" v="241654" />
	</node>
	<node lat="60.47433611171305" lon="12.497236108305364" id="-16270">
		<tag k="name" v="Tettholtkoia" />
		<tag k="place" v="isolated_dwelling" />
		<tag k="ssr:stedsnr" v="67106" />
	</node>
	<node lat="60.47875000223056" lon="12.488036115864592" id="-16271">
		<tag k="name" v="Søstua" />
		<tag k="place" v="isolated_dwelling" />
		<tag k="ssr:stedsnr" v="67107" />
	</node>
	<node lat="60.472863888396915" lon="12.35568888046808" id="-16272">
		<tag k="name" v="Nersjøen" />
		<tag k="natural" v="water" />
		<tag k="ssr:stedsnr" v="67112" />
	</node>
	<node lat="60.468830556917986" lon="12.395830560624734" id="-16273">
		<tag k="name" v="Frautjennet" />
		<tag k="natural" v="water" />
		<tag k="ssr:stedsnr" v="67118" />
	</node>
	<node lat="60.4408055600527" lon="12.399391660555294" id="-16274">
		<tag k="name" v="Bårderudsbekken" />
		<tag k="ssr:stedsnr" v="67137" />
		<tag k="waterway" v="stream" />
	</node>
	<node lat="60.40802221939902" lon="12.507874998340299" id="-16275">
		<tag k="alt_name" v="Vestre Kalneset" />
		<tag k="name" v="Kalneset" />
		<tag k="place" v="farm" />
		<tag k="ssr:stedsnr" v="67054" />
	</node>
	<node lat="60.44506111225693" lon="12.473363882595407" id="-16276">
		<tag k="name" v="Tvengsvika" />
		<tag k="place" v="isolated_dwelling" />
		<tag k="ssr:stedsnr" v="67006" />
	</node>
	<node lat="60.47988611343888" lon="12.261169438195253" id="-16277">
		<tag k="name" v="Frautjenna" />
		<tag k="natural" v="water" />
		<tag k="ssr:stedsnr" v="67092" />
		<tag k="water" v="lake" />
	</node>
	<node lat="60.47764444735694" lon="12.352469448883786" id="-16278">
		<tag k="name" v="Rotnedammen" />
		<tag k="place" v="isolated_dwelling" />
		<tag k="ssr:stedsnr" v="67094" />
	</node>
	<node lat="60.498308333948096" lon="12.340502774865996" id="-16279">
		<tag k="name" v="Peppervika" />
		<tag k="natural" v="bay" />
		<tag k="ssr:stedsnr" v="67427" />
	</node>
	<node lat="60.344736115433854" lon="12.205813886102945" id="-16280">
		<tag k="name" v="Østersjøen" />
		<tag k="natural" v="water" />
		<tag k="ssr:stedsnr" v="67326" />
	</node>
	<node lat="60.392783329074035" lon="12.18507778528364" id="-16281">
		<tag k="name" v="Langmyra" />
		<tag k="natural" v="wetland" />
		<tag k="ssr:stedsnr" v="67394" />
	</node>
	<node lat="60.39566944734719" lon="12.055133329533612" id="-16282">
		<tag k="name" v="Korsmo" />
		<tag k="place" v="farm" />
		<tag k="ssr:stedsnr" v="67347" />
	</node>
	<node lat="60.48530635764905" lon="12.040323357660712" id="-16283">
		<tag k="fixme" v="consider place=hamlet" />
		<tag k="name" v="Snapa" />
		<tag k="place" v="farm" />
		<tag k="ssr:stedsnr" v="67638" />
	</node>
	<node lat="60.48045000018863" lon="11.89884999889321" id="-16284">
		<tag k="fixme" v="consider natural=peak for the most distinct mountains in the district" />
		<tag k="name" v="Snaufjellet" />
		<tag k="natural" v="hill" />
		<tag k="place" v="locality" />
		<tag k="ssr:stedsnr" v="67643" />
	</node>
	<node lat="60.47371388975916" lon="11.976686112734363" id="-16285">
		<tag k="name" v="Skavåsen" />
		<tag k="place" v="farm" />
		<tag k="ssr:stedsnr" v="67646" />
	</node>
	<node lat="60.485314749370424" lon="12.032964576154086" id="-16286">
		<tag k="fixme" v="consider place=hamlet" />
		<tag k="name" v="Sætre" />
		<tag k="place" v="farm" />
		<tag k="ssr:stedsnr" v="67695" />
	</node>
	<node lat="60.40587222186653" lon="11.840438897168289" id="-16287">
		<tag k="name" v="Skurvbekken" />
		<tag k="ssr:stedsnr" v="67840" />
		<tag k="waterway" v="stream" />
	</node>
	<node lat="60.43674345347748" lon="12.046045371281226" id="-16288">
		<tag k="fixme" v="consider place=hamlet" />
		<tag k="name" v="Brynn" />
		<tag k="place" v="farm" />
		<tag k="ssr:stedsnr" v="67701" />
	</node>
	<node lat="60.436185519794414" lon="12.09737749905195" id="-16289">
		<tag k="fixme" v="consider place=hamlet" />
		<tag k="name" v="Tjura" />
		<tag k="place" v="farm" />
		<tag k="ssr:stedsnr" v="67708" />
	</node>
	<node lat="60.42133333536614" lon="11.941644447161945" id="-16290">
		<tag k="fixme" v="consider natural=peak for the most distinct mountains in the district" />
		<tag k="name" v="Tenåsen" />
		<tag k="natural" v="hill" />
		<tag k="place" v="locality" />
		<tag k="ssr:stedsnr" v="67716" />
	</node>
	<node lat="60.42470555894008" lon="12.198033340928026" id="-16291">
		<tag k="name" v="Langholmen" />
		<tag k="place" v="farm" />
		<tag k="ssr:stedsnr" v="67717" />
	</node>
	<node lat="60.42860277795426" lon="12.11837777594445" id="-16292">
		<tag k="name" v="Holen" />
		<tag k="place" v="farm" />
		<tag k="ssr:stedsnr" v="67719" />
	</node>
	<node lat="60.4634777775039" lon="12.031455552849822" id="-16293">
		<tag k="alt_name" v="Ødegarden" />
		<tag k="name" v="Øgarden" />
		<tag k="place" v="farm" />
		<tag k="ssr:stedsnr" v="67724" />
	</node>
	<node lat="60.45733055248761" lon="12.002522224688695" id="-16294">
		<tag k="name" v="Bergli" />
		<tag k="place" v="farm" />
		<tag k="ssr:stedsnr" v="67727" />
	</node>
	<node lat="60.449513886789596" lon="12.004850007554042" id="-16295">
		<tag k="name" v="Nordby" />
		<tag k="place" v="farm" />
		<tag k="ssr:stedsnr" v="67731" />
	</node>
	<node lat="60.437836112553306" lon="11.940608334123137" id="-16296">
		<tag k="name" v="Bottilsrudsætra" />
		<tag k="place" v="isolated_dwelling" />
		<tag k="ssr:stedsnr" v="67735" />
	</node>
	<node lat="60.44648333252752" lon="12.12178888264226" id="-16297">
		<tag k="name" v="Lindtjennet" />
		<tag k="natural" v="water" />
		<tag k="ssr:stedsnr" v="67742" />
	</node>
	<node lat="60.51560277614089" lon="12.068438887492581" id="-16298">
		<tag k="name" v="Rønne" />
		<tag k="place" v="farm" />
		<tag k="ssr:stedsnr" v="67891" />
	</node>
	<node lat="60.531500000671265" lon="12.064288891594241" id="-16299">
		<tag k="name" v="Sømoen" />
		<tag k="place" v="farm" />
		<tag k="ssr:stedsnr" v="67893" />
	</node>
	<node lat="60.52288888892399" lon="12.205461105029071" id="-16300">
		<tag k="name" v="Juvberget" />
		<tag k="natural" v="hill" />
		<tag k="old_name" v="Juberget" />
		<tag k="place" v="locality" />
		<tag k="ssr:stedsnr" v="68917" />
	</node>
	<node lat="60.488436222406584" lon="12.048117193113386" id="-16301">
		<tag k="alt_name" v="Enger vestre" />
		<tag k="fixme" v="consider place=hamlet" />
		<tag k="name" v="Vestre Enger" />
		<tag k="place" v="farm" />
		<tag k="ssr:stedsnr" v="87828" />
	</node>
	<node lat="60.48028889168046" lon="12.002241668060279" id="-16302">
		<tag k="amenity" v="community_centre" />
		<tag k="name" v="Vestheim" />
		<tag k="ssr:stedsnr" v="87829" />
	</node>
	<node lat="60.41990833081129" lon="12.104188891675015" id="-16303">
		<tag k="name" v="Hagamyra" />
		<tag k="natural" v="wetland" />
		<tag k="ssr:stedsnr" v="87776" />
	</node>
	<node lat="60.46996666730576" lon="12.527711113585585" id="-16304">
		<tag k="name" v="Fisketjennsfløyta" />
		<tag k="place" v="locality" />
		<tag k="ssr:stedsnr" v="248088" />
	</node>
	<node lat="60.469266671029686" lon="12.592494438236129" id="-16305">
		<tag k="name" v="Såienså" />
		<tag k="natural" v="wetland" />
		<tag k="ssr:stedsnr" v="248091" />
	</node>
	<node lat="60.44730277719563" lon="12.42146388262874" id="-16306">
		<tag k="name" v="Styggberget" />
		<tag k="natural" v="hill" />
		<tag k="place" v="locality" />
		<tag k="ssr:stedsnr" v="248123" />
	</node>
	<node lat="60.45521666786027" lon="12.539552769262185" id="-16307">
		<tag k="name" v="Løvhaugsåa" />
		<tag k="ssr:stedsnr" v="248124" />
		<tag k="waterway" v="river" />
	</node>
	<node lat="60.45925555250673" lon="12.562472227745895" id="-16308">
		<tag k="name" v="Sanabeldo" />
		<tag k="place" v="farm" />
		<tag k="ssr:stedsnr" v="248100" />
	</node>
	<node lat="60.37390832984551" lon="12.482302781717555" id="-16309">
		<tag k="name" v="Sekstenkoia" />
		<tag k="place" v="isolated_dwelling" />
		<tag k="ssr:stedsnr" v="248182" />
	</node>
	<node lat="60.35431111016099" lon="12.523444445092695" id="-16310">
		<tag k="alt_name" v="Kvernberget, vesle" />
		<tag k="name" v="Vesle Kvernberget" />
		<tag k="natural" v="hill" />
		<tag k="place" v="locality" />
		<tag k="ssr:stedsnr" v="248237" />
	</node>
	<node lat="60.50299722263446" lon="12.480908329413895" id="-16311">
		<tag k="name" v="Bekkebakka" />
		<tag k="natural" v="slope" />
		<tag k="place" v="locality" />
		<tag k="ssr:stedsnr" v="100865" />
	</node>
	<node lat="60.45247222625211" lon="12.418552778633774" id="-16312">
		<tag k="name" v="Øvre Roiso" />
		<tag k="natural" v="wetland" />
		<tag k="ssr:stedsnr" v="101018" />
	</node>
	<node lat="60.45638610958495" lon="12.483913884244863" id="-16313">
		<tag k="name" v="Hemtjennet" />
		<tag k="natural" v="water" />
		<tag k="ssr:stedsnr" v="100967" />
	</node>
	<node lat="60.4714305554838" lon="12.514352781936415" id="-16314">
		<tag k="name" v="Koivikkomyra" />
		<tag k="natural" v="wetland" />
		<tag k="ssr:stedsnr" v="100978" />
	</node>
	<node lat="60.386663886247156" lon="12.421700004207635" id="-16315">
		<tag k="name" v="Sundet" />
		<tag k="natural" v="strait" />
		<tag k="ssr:stedsnr" v="101115" />
	</node>
	<node lat="60.42624166535049" lon="12.353622226255686" id="-16316">
		<tag k="fixme" v="consider highway=path" />
		<tag k="highway" v="track" />
		<tag k="name" v="Gamle Skasbergsvegen" />
		<tag k="ssr:stedsnr" v="101412" />
	</node>
	<node lat="60.42807777611067" lon="12.375633341476425" id="-16317">
		<tag k="name" v="Tuvmyra" />
		<tag k="natural" v="wetland" />
		<tag k="ssr:stedsnr" v="101415" />
	</node>
	<node lat="60.37986666860707" lon="12.42413610571577" id="-16318">
		<tag k="fixme" v="consider tourism=alpine_hut or tourism=chalet" />
		<tag k="name" v="Helgedammen" />
		<tag k="ssr:stedsnr" v="101384" />
		<tag k="tourism" v="wilderness_hut" />
	</node>
	<node lat="60.42901667061556" lon="12.267352781741284" id="-16319">
		<tag k="name" v="Strandli" />
		<tag k="place" v="isolated_dwelling" />
		<tag k="ssr:stedsnr" v="101574" />
	</node>
	<node lat="60.33280000224163" lon="12.223727785701287" id="-16320">
		<tag k="name" v="Aursåsmyra" />
		<tag k="natural" v="wetland" />
		<tag k="ssr:stedsnr" v="101671" />
	</node>
	<node lat="60.38310278092198" lon="12.559297229600682" id="-16321">
		<tag k="name" v="Musholen" />
		<tag k="natural" v="ridge" />
		<tag k="place" v="locality" />
		<tag k="ssr:stedsnr" v="101829" />
	</node>
	<node lat="60.42230277573411" lon="12.10042222211635" id="-16322">
		<tag k="name" v="Haugen" />
		<tag k="place" v="farm" />
		<tag k="ssr:stedsnr" v="248731" />
	</node>
	<node lat="60.42366388538836" lon="12.124844451377854" id="-16323">
		<tag k="name" v="Aurbekkholen" />
		<tag k="place" v="farm" />
		<tag k="ssr:stedsnr" v="248732" />
	</node>
	<node lat="60.37994444263271" lon="12.51075555032912" id="-16324">
		<tag k="name" v="Dammikkalamp" />
		<tag k="natural" v="water" />
		<tag k="ssr:stedsnr" v="102170" />
		<tag k="water" v="pond" />
	</node>
	<node lat="60.38022777648365" lon="12.505002782778414" id="-16325">
		<tag k="name" v="Dammikkalamminmæk" />
		<tag k="natural" v="hill" />
		<tag k="place" v="locality" />
		<tag k="ssr:stedsnr" v="102173" />
	</node>
	<node lat="60.50786215000754" lon="12.39990230938551" id="-16326">
		<tag k="name" v="Østre Tysketorpet" />
		<tag k="place" v="farm" />
		<tag k="ssr:stedsnr" v="102331" />
	</node>
	<node lat="60.496069443587245" lon="11.937124998403533" id="-16327">
		<tag k="name" v="Haugen" />
		<tag k="place" v="farm" />
		<tag k="ssr:stedsnr" v="248675" />
	</node>
	<node lat="60.49813332995737" lon="12.10675833596735" id="-16328">
		<tag k="name" v="Saga" />
		<tag k="place" v="farm" />
		<tag k="ssr:stedsnr" v="248685" />
	</node>
	<node lat="60.439669441908144" lon="12.514627772666252" id="-16329">
		<tag k="name" v="Baskabutti" />
		<tag k="natural" v="water" />
		<tag k="ssr:stedsnr" v="103014" />
		<tag k="water" v="pond" />
	</node>
	<node lat="60.37806666600719" lon="11.900350003360993" id="-16330">
		<tag k="name" v="Fuglemyra" />
		<tag k="natural" v="wetland" />
		<tag k="ssr:stedsnr" v="103110" />
	</node>
	<node lat="60.41981666736626" lon="11.906197225580476" id="-16331">
		<tag k="name" v="Oppåkersæterfløyta" />
		<tag k="natural" v="water" />
		<tag k="ssr:stedsnr" v="103111" />
		<tag k="water" v="lake" />
	</node>
	<node lat="60.483055558479265" lon="12.260561106069789" id="-16332">
		<tag k="name" v="Frautjennsmyra" />
		<tag k="natural" v="wetland" />
		<tag k="ssr:stedsnr" v="103610" />
	</node>
	<node lat="60.42403333756559" lon="12.424741661045232" id="-16333">
		<tag k="name" v="Bandiasmyra" />
		<tag k="natural" v="wetland" />
		<tag k="ssr:stedsnr" v="249014" />
	</node>
	<node lat="60.41331666381529" lon="12.42570833124231" id="-16334">
		<tag k="name" v="Sørjordet" />
		<tag k="place" v="farm" />
		<tag k="ssr:stedsnr" v="249025" />
	</node>
	<node lat="60.41052499786943" lon="12.458608327594977" id="-16335">
		<tag k="name" v="Sandsjøbekken" />
		<tag k="ssr:stedsnr" v="249032" />
		<tag k="waterway" v="stream" />
	</node>
	<node lat="60.40298333377957" lon="12.401438894077735" id="-16336">
		<tag k="name" v="Huldretjenn" />
		<tag k="natural" v="water" />
		<tag k="ssr:stedsnr" v="249036" />
	</node>
	<node lat="60.493319444490965" lon="12.505380553283072" id="-16337">
		<tag k="name" v="Nedre Lauvbergstjennet" />
		<tag k="natural" v="water" />
		<tag k="ssr:stedsnr" v="103888" />
	</node>
	<node lat="60.501533334733" lon="12.4325527783203" id="-16338">
		<tag k="name" v="Merketjennsmyra" />
		<tag k="natural" v="wetland" />
		<tag k="ssr:stedsnr" v="103891" />
	</node>
	<node lat="60.482005555861626" lon="12.449633329461443" id="-16339">
		<tag k="name" v="Torvmyra" />
		<tag k="natural" v="wetland" />
		<tag k="ssr:stedsnr" v="103893" />
	</node>
	<node lat="60.39953333647955" lon="12.530283339954048" id="-16340">
		<tag k="name" v="Bråten" />
		<tag k="place" v="farm" />
		<tag k="ssr:stedsnr" v="249047" />
	</node>
	<node lat="60.387780552719995" lon="12.434638894055912" id="-16341">
		<tag k="name" v="Heggelund" />
		<tag k="place" v="farm" />
		<tag k="ssr:stedsnr" v="249051" />
	</node>
	<node lat="60.37130833022395" lon="12.248449996743428" id="-16342">
		<tag k="name" v="Johannesburg" />
		<tag k="place" v="isolated_dwelling" />
		<tag k="ssr:stedsnr" v="249054" />
	</node>
	<node lat="60.39366388477745" lon="12.224927771824282" id="-16343">
		<tag k="name" v="Gullhaugen" />
		<tag k="place" v="farm" />
		<tag k="ssr:stedsnr" v="249042" />
	</node>
	<node lat="60.49330000301663" lon="12.356630547647491" id="-16344">
		<tag k="name" v="Kvernbekken" />
		<tag k="ssr:stedsnr" v="249060" />
		<tag k="waterway" v="stream" />
	</node>
	<node lat="60.49451666299943" lon="12.287375001658909" id="-16345">
		<tag k="name" v="Morttjennet" />
		<tag k="natural" v="water" />
		<tag k="ssr:stedsnr" v="249062" />
	</node>
	<node lat="60.48993889043468" lon="12.433794444296774" id="-16346">
		<tag k="name" v="Elgsmyrtjenna" />
		<tag k="natural" v="water" />
		<tag k="ssr:stedsnr" v="249065" />
		<tag k="water" v="lake" />
	</node>
	<node lat="60.48236389152648" lon="12.41191943563721" id="-16347">
		<tag k="fixme" v="multiple name tags, choose one and add the other to alt_name" />
		<tag k="name" v="Elgsmyrbekken;Hesjemyrbekken" />
		<tag k="ssr:stedsnr" v="249066" />
		<tag k="waterway" v="stream" />
	</node>
	<node lat="60.47345555541175" lon="12.262855550525474" id="-16348">
		<tag k="name" v="Frautjennsmyra" />
		<tag k="natural" v="wetland" />
		<tag k="ssr:stedsnr" v="249072" />
	</node>
	<node lat="60.48391111082219" lon="12.540041671425739" id="-16349">
		<tag k="name" v="Åja" />
		<tag k="natural" v="water" />
		<tag k="ssr:stedsnr" v="249077" />
	</node>
	<node lat="60.49818060901987" lon="12.539655108323885" id="-16350">
		<tag k="fixme" v="multiple name tags, choose one and add the other to alt_name" />
		<tag k="name" v="Rotbergsjøen;Mellom-Røgden" />
		<tag k="natural" v="water" />
		<tag k="ssr:stedsnr" v="249078" />
		<tag k="water" v="lake" />
	</node>
	<node lat="60.46661388764614" lon="12.225436103540734" id="-16351">
		<tag k="alt_name" v="Vestre Fuglemyra" />
		<tag k="name" v="Fuglemyra" />
		<tag k="natural" v="wetland" />
		<tag k="ssr:stedsnr" v="249086" />
	</node>
	<node lat="60.37763611080773" lon="12.502177769674288" id="-16352">
		<tag k="name" v="Kumyra" />
		<tag k="natural" v="wetland" />
		<tag k="ssr:stedsnr" v="249181" />
	</node>
	<node lat="60.367633336988575" lon="11.845924999850324" id="-16353">
		<tag k="name" v="Libergskoia" />
		<tag k="place" v="isolated_dwelling" />
		<tag k="ssr:stedsnr" v="249353" />
	</node>
	<node lat="60.37141389082332" lon="12.140983336489011" id="-16354">
		<tag k="name" v="Gubbetorpet" />
		<tag k="natural" v="hill" />
		<tag k="place" v="locality" />
		<tag k="ssr:stedsnr" v="249355" />
	</node>
	<node lat="60.41718333186296" lon="12.082505561432308" id="-16355">
		<tag k="name" v="Østberg" />
		<tag k="place" v="farm" />
		<tag k="ssr:stedsnr" v="249330" />
	</node>
	<node lat="60.41878889148513" lon="12.090541674858388" id="-16356">
		<tag k="name" v="Bråten" />
		<tag k="place" v="farm" />
		<tag k="ssr:stedsnr" v="249331" />
	</node>
	<node lat="60.3863695132848" lon="12.031784777720263" id="-16357">
		<tag k="fixme" v="consider place=hamlet" />
		<tag k="name" v="Grinder" />
		<tag k="place" v="farm" />
		<tag k="ssr:stedsnr" v="249362" />
	</node>
	<node lat="60.38381666838565" lon="12.047441664253292" id="-16358">
		<tag k="name" v="Skinnfilli" />
		<tag k="place" v="farm" />
		<tag k="ssr:stedsnr" v="249363" />
	</node>
	<node lat="60.38613611174498" lon="11.907588895894824" id="-16359">
		<tag k="name" v="Hestvola" />
		<tag k="natural" v="hill" />
		<tag k="place" v="locality" />
		<tag k="ssr:stedsnr" v="249367" />
	</node>
	<node lat="60.48302026281445" lon="12.053468456930794" id="-16360">
		<tag k="fixme" v="consider place=hamlet" />
		<tag k="name" v="Gotland" />
		<tag k="place" v="farm" />
		<tag k="ssr:stedsnr" v="249617" />
	</node>
	<node lat="60.47336388850357" lon="11.872113883809012" id="-16361">
		<tag k="name" v="Hakasjøen" />
		<tag k="natural" v="water" />
		<tag k="ssr:stedsnr" v="249629" />
	</node>
	<node lat="60.46774166502452" lon="11.966172226495104" id="-16362">
		<tag k="alt_name" v="Torstens" />
		<tag k="name" v="Torsteinsrud" />
		<tag k="place" v="farm" />
		<tag k="ssr:stedsnr" v="249634" />
	</node>
	<node lat="60.43421388937932" lon="11.98260277100875" id="-16363">
		<tag k="name" v="Domma" />
		<tag k="ssr:stedsnr" v="249670" />
		<tag k="waterway" v="stream" />
	</node>
	<node lat="60.45637222529202" lon="11.95808610826499" id="-16364">
		<tag k="name" v="Furuberget" />
		<tag k="place" v="farm" />
		<tag k="ssr:stedsnr" v="249707" />
	</node>
	<node lat="60.45089444788359" lon="11.944705553005221" id="-16365">
		<tag k="name" v="Svinørsætra" />
		<tag k="place" v="farm" />
		<tag k="ssr:stedsnr" v="249710" />
	</node>
	<node lat="60.4555085572415" lon="12.086558859355737" id="-16366">
		<tag k="fixme" v="consider place=hamlet" />
		<tag k="name" v="Torderud" />
		<tag k="place" v="farm" />
		<tag k="ssr:stedsnr" v="249724" />
	</node>
	<node lat="60.536997218888494" lon="12.061916658184552" id="-16367">
		<tag k="name" v="Reinsmoen" />
		<tag k="place" v="farm" />
		<tag k="ssr:stedsnr" v="249886" />
	</node>
	<node lat="60.53305820832687" lon="12.193645081870702" id="-16368">
		<tag k="alt_name" v="Grautsjøen, s" />
		<tag k="name" v="Søndre Grautsjøen" />
		<tag k="natural" v="water" />
		<tag k="ssr:stedsnr" v="249890" />
		<tag k="water" v="lake" />
	</node>
	<node lat="60.525860588118626" lon="12.05552223834747" id="-16369">
		<tag k="fixme" v="consider place=hamlet" />
		<tag k="name" v="Dal" />
		<tag k="place" v="farm" />
		<tag k="ssr:stedsnr" v="249899" />
	</node>
	<node lat="60.51745000067193" lon="12.101408324536916" id="-16370">
		<tag k="alt_name" v="Østvoll" />
		<tag k="name" v="Austvoll" />
		<tag k="place" v="farm" />
		<tag k="ssr:stedsnr" v="249917" />
	</node>
	<node lat="60.4463777746878" lon="12.212774993071928" id="-16372">
		<tag k="name" v="Brutjennet" />
		<tag k="natural" v="water" />
		<tag k="ssr:stedsnr" v="115413" />
	</node>
	<node lat="60.525958333830076" lon="12.309022226315614" id="-16373">
		<tag k="alt_name" v="Pyrestorpet" />
		<tag k="name" v="Purustorpet" />
		<tag k="place" v="locality" />
		<tag k="ssr:stedsnr" v="250703" />
	</node>
	<node lat="60.52295833182815" lon="12.238849996921003" id="-16374">
		<tag k="historic" v="shieling" />
		<tag k="name" v="Nordgrensætra" />
		<tag k="place" v="isolated_dwelling" />
		<tag k="ssr:stedsnr" v="250710" />
	</node>
	<node lat="60.5195361095403" lon="12.449199991834407" id="-16375">
		<tag k="alt_name" v="Dvalatjennet" />
		<tag k="name" v="Dvaladammen" />
		<tag k="natural" v="water" />
		<tag k="ssr:stedsnr" v="250713" />
	</node>
	<node lat="60.51060833474528" lon="12.23913056251581" id="-16376">
		<tag k="alt_name" v="Håkåsberget" />
		<tag k="name" v="Hokåsberget" />
		<tag k="natural" v="hill" />
		<tag k="place" v="locality" />
		<tag k="ssr:stedsnr" v="250720" />
	</node>
	<node lat="60.54890555245565" lon="12.081725008678573" id="-16377">
		<tag k="alt_name" v="Lislåsen" />
		<tag k="name" v="Lilleåsen" />
		<tag k="place" v="hamlet" />
		<tag k="ssr:stedsnr" v="250989" />
	</node>
	<node lat="60.461258336041496" lon="11.899361105699167" id="-16378">
		<tag k="historic" v="shieling" />
		<tag k="name" v="Djuptjennsætra" />
		<tag k="place" v="isolated_dwelling" />
		<tag k="ssr:stedsnr" v="118072" />
	</node>
	<node lat="60.49510833085187" lon="12.312697220183168" id="-16379">
		<tag k="name" v="Fuglemyrbakken" />
		<tag k="natural" v="hill" />
		<tag k="place" v="locality" />
		<tag k="ssr:stedsnr" v="118281" />
	</node>
	<node lat="60.37711111290819" lon="12.199980555793234" id="-16380">
		<tag k="name" v="Måsåmyra" />
		<tag k="natural" v="wetland" />
		<tag k="ssr:stedsnr" v="118482" />
	</node>
	<node lat="60.41760555382762" lon="12.187583330716855" id="-16381">
		<tag k="name" v="Granvasan" />
		<tag k="natural" v="cape" />
		<tag k="ssr:stedsnr" v="118495" />
	</node>
	<node lat="60.420513892588744" lon="12.219277783378148" id="-16382">
		<tag k="name" v="Frysjøberget" />
		<tag k="place" v="locality" />
		<tag k="ssr:stedsnr" v="118496" />
	</node>
	<node lat="60.35745833272201" lon="12.20499999574437" id="-16383">
		<tag k="name" v="Åreithølet" />
		<tag k="natural" v="wetland" />
		<tag k="ssr:stedsnr" v="118647" />
	</node>
	<node lat="60.50701666623453" lon="12.024775004250902" id="-16384">
		<tag k="name" v="Reinmyra" />
		<tag k="natural" v="wetland" />
		<tag k="ssr:stedsnr" v="250915" />
	</node>
	<node lat="60.50612222533922" lon="12.103711117669047" id="-16385">
		<tag k="alt_name" v="Steinsrød" />
		<tag k="name" v="Steinsrud" />
		<tag k="place" v="farm" />
		<tag k="ssr:stedsnr" v="250919" />
	</node>
	<node lat="60.405605559103684" lon="12.487897223932213" id="-16386">
		<tag k="name" v="Granlund" />
		<tag k="place" v="isolated_dwelling" />
		<tag k="ssr:stedsnr" v="127041" />
	</node>
	<node lat="60.38248333126773" lon="12.26155000221542" id="-16387">
		<tag k="name" v="Pondan" />
		<tag k="place" v="isolated_dwelling" />
		<tag k="ssr:stedsnr" v="127052" />
	</node>
	<node lat="60.385447222410754" lon="12.48183888914925" id="-16388">
		<tag k="name" v="Gåstjennsmyra" />
		<tag k="natural" v="wetland" />
		<tag k="ssr:stedsnr" v="127056" />
	</node>
	<node lat="60.46509722447727" lon="12.467824995603543" id="-16389">
		<tag k="name" v="Kverntjennet" />
		<tag k="natural" v="water" />
		<tag k="ssr:stedsnr" v="127093" />
	</node>
	<node lat="60.37071110841587" lon="12.342174999165104" id="-16390">
		<tag k="name" v="Grindholmen" />
		<tag k="place" v="islet" />
		<tag k="ssr:stedsnr" v="127217" />
	</node>
	<node lat="60.3498388900419" lon="12.452480554720095" id="-16391">
		<tag k="name" v="Moberget" />
		<tag k="natural" v="hill" />
		<tag k="place" v="locality" />
		<tag k="ssr:stedsnr" v="127253" />
	</node>
	<node lat="60.35959444417919" lon="12.536752778257673" id="-16392">
		<tag k="alt_name" v="Kvernberget, store" />
		<tag k="name" v="Store Kvernberget" />
		<tag k="natural" v="hill" />
		<tag k="place" v="locality" />
		<tag k="ssr:stedsnr" v="127255" />
	</node>
	<node lat="60.35143834593006" lon="12.490550486335595" id="-16393">
		<tag k="name" v="Kjerkesjøen" />
		<tag k="natural" v="water" />
		<tag k="ssr:stedsnr" v="127256" />
		<tag k="water" v="lake" />
	</node>
	<node lat="60.45146389290883" lon="12.252119449749442" id="-16394">
		<tag k="name" v="Torpet" />
		<tag k="place" v="farm" />
		<tag k="ssr:stedsnr" v="127105" />
	</node>
	<node lat="60.44585555162975" lon="12.352880551918288" id="-16395">
		<tag k="alt_name" v="Svartbergsbrakka" />
		<tag k="name" v="Svartberget" />
		<tag k="place" v="isolated_dwelling" />
		<tag k="ssr:stedsnr" v="127110" />
	</node>
	<node lat="60.32932222610001" lon="12.486080563864919" id="-16396">
		<tag k="alt_name" v="Høybråten" />
		<tag k="name" v="Høybråtekoia" />
		<tag k="place" v="isolated_dwelling" />
		<tag k="ssr:stedsnr" v="127140" />
	</node>
	<node lat="60.30186666777481" lon="12.489538897853267" id="-16397">
		<tag k="name" v="Pillisbekken" />
		<tag k="ssr:stedsnr" v="127153" />
		<tag k="waterway" v="stream" />
	</node>
	<node lat="60.3390361081518" lon="12.212997225072087" id="-16398">
		<tag k="name" v="Jonasmyra" />
		<tag k="natural" v="wetland" />
		<tag k="ssr:stedsnr" v="127316" />
	</node>
	<node lat="60.407147226174956" lon="12.155347214652569" id="-16399">
		<tag k="name" v="Storberget" />
		<tag k="place" v="farm" />
		<tag k="ssr:stedsnr" v="127342" />
	</node>
	<node lat="60.40002221959564" lon="12.09530833843059" id="-16400">
		<tag k="name" v="Fjellset" />
		<tag k="place" v="farm" />
		<tag k="ssr:stedsnr" v="127344" />
	</node>
	<node lat="60.45184999827742" lon="11.829150000149502" id="-16401">
		<tag k="name" v="Åtdalskoia" />
		<tag k="place" v="isolated_dwelling" />
		<tag k="ssr:stedsnr" v="127802" />
	</node>
	<node lat="60.42177500252955" lon="11.867213891706523" id="-16402">
		<tag k="name" v="Saltjennsbekken" />
		<tag k="ssr:stedsnr" v="127744" />
		<tag k="waterway" v="stream" />
	</node>
	<node lat="60.4633083329185" lon="12.110758334354056" id="-16403">
		<tag k="name" v="Hammarberget" />
		<tag k="natural" v="hill" />
		<tag k="place" v="locality" />
		<tag k="ssr:stedsnr" v="127751" />
	</node>
	<node lat="60.446511112995324" lon="12.133466665621777" id="-16404">
		<tag k="name" v="Vabekken" />
		<tag k="ssr:stedsnr" v="128739" />
		<tag k="waterway" v="stream" />
	</node>
	<node lat="60.52156388750559" lon="12.389336111919702" id="-16405">
		<tag k="name" v="Fiskedammen" />
		<tag k="natural" v="water" />
		<tag k="ssr:stedsnr" v="128689" />
	</node>
	<node lat="60.51558333050116" lon="12.47976944650123" id="-16406">
		<tag k="name" v="Lukashaugen" />
		<tag k="place" v="hamlet" />
		<tag k="ssr:stedsnr" v="128701" />
	</node>
	<node lat="60.5121388866326" lon="12.101466666356698" id="-16407">
		<tag k="name" v="Solheim" />
		<tag k="place" v="farm" />
		<tag k="ssr:stedsnr" v="128885" />
	</node>
	<node lat="60.53536666287548" lon="12.108186112245807" id="-16408">
		<tag k="name" v="Bergheim" />
		<tag k="place" v="farm" />
		<tag k="ssr:stedsnr" v="128887" />
	</node>
	<node lat="60.53884999752335" lon="12.361625007175453" id="-16409">
		<tag k="name" v="Aurbekken" />
		<tag k="ssr:stedsnr" v="129975" />
		<tag k="waterway" v="stream" />
	</node>
	<node lat="60.377441662246284" lon="12.052594451967522" id="-16410">
		<tag k="name" v="Øverby" />
		<tag k="place" v="locality" />
		<tag k="ssr:stedsnr" v="147166" />
	</node>
	<node lat="60.374311109170435" lon="12.035738890182635" id="-16411">
		<tag k="name" v="Nersandkila" />
		<tag k="natural" v="water" />
		<tag k="ssr:stedsnr" v="147171" />
		<tag k="water" v="lake" />
	</node>
	<node lat="60.54962222162653" lon="12.078661116308933" id="-16412">
		<tag k="name" v="Pålsrud" />
		<tag k="place" v="farm" />
		<tag k="ssr:stedsnr" v="147177" />
	</node>
	<node lat="60.50664722446155" lon="12.005405551269194" id="-16413">
		<tag k="fixme" v="consider natural=peak for the most distinct mountains in the district" />
		<tag k="name" v="Bjørkåsen" />
		<tag k="natural" v="hill" />
		<tag k="place" v="locality" />
		<tag k="ssr:stedsnr" v="147207" />
	</node>
	<node lat="60.45499721976094" lon="12.04248054753224" id="-16414">
		<tag k="name" v="Haug" />
		<tag k="place" v="farm" />
		<tag k="ssr:stedsnr" v="147806" />
	</node>
	<node lat="60.512205557760176" lon="12.175627769606677" id="-16415">
		<tag k="name" v="Klyperud" />
		<tag k="place" v="locality" />
		<tag k="ssr:stedsnr" v="161604" />
	</node>
	<node lat="60.40932222499207" lon="12.459105555951112" id="-16416">
		<tag k="name" v="Revholtkvenndammen" />
		<tag k="ssr:stedsnr" v="161618" />
		<tag k="waterway" v="dam" />
	</node>
	<node lat="60.33930000326857" lon="12.197925003861979" id="-16417">
		<tag k="name" v="Åmyra" />
		<tag k="natural" v="wetland" />
		<tag k="ssr:stedsnr" v="161655" />
	</node>
	<node lat="60.339199996675625" lon="12.207236115718688" id="-16418">
		<tag k="name" v="Jonasmyrberget" />
		<tag k="natural" v="hill" />
		<tag k="place" v="locality" />
		<tag k="ssr:stedsnr" v="161656" />
	</node>
	<node lat="60.38168055215203" lon="12.472224997089672" id="-16419">
		<tag k="name" v="Skallbergsbråten" />
		<tag k="place" v="locality" />
		<tag k="ssr:stedsnr" v="162151" />
	</node>
	<node lat="60.36910278180652" lon="11.864916670745309" id="-16420">
		<tag k="name" v="Svarttjennet" />
		<tag k="natural" v="water" />
		<tag k="ssr:stedsnr" v="162215" />
	</node>
	<node lat="60.5069777785157" lon="12.394961112284454" id="-16421">
		<tag k="name" v="Håkåsånna" />
		<tag k="place" v="locality" />
		<tag k="ssr:stedsnr" v="162224" />
	</node>
	<node lat="60.300544446177106" lon="12.495700003592564" id="-16422">
		<tag k="name" v="Råholt" />
		<tag k="place" v="isolated_dwelling" />
		<tag k="ssr:stedsnr" v="162250" />
	</node>
	<node lat="60.384113888981055" lon="11.807922219261938" id="-16423">
		<tag k="name" v="Meitsjødammen" />
		<tag k="ssr:stedsnr" v="162604" />
		<tag k="waterway" v="dam" />
	</node>
	<node lat="60.45189999970925" lon="12.470044435462741" id="-16424">
		<tag k="name" v="Øvre Sagmyra" />
		<tag k="natural" v="wetland" />
		<tag k="ssr:stedsnr" v="163007" />
	</node>
	<node lat="60.52712222234527" lon="12.407069448415387" id="-16425">
		<tag k="name" v="Kampebrennmyra" />
		<tag k="natural" v="wetland" />
		<tag k="ssr:stedsnr" v="162922" />
	</node>
	<node lat="60.379977777910774" lon="12.379655550458315" id="-16426">
		<tag k="historic" v="shieling" />
		<tag k="name" v="Søndre Vallesætra" />
		<tag k="place" v="locality" />
		<tag k="ssr:stedsnr" v="163408" />
	</node>
	<node lat="60.386905555249655" lon="12.357227769128183" id="-16427">
		<tag k="name" v="Bekkelibekken" />
		<tag k="ssr:stedsnr" v="163413" />
		<tag k="waterway" v="stream" />
	</node>
	<node lat="60.50653610841802" lon="12.580438889268036" id="-16428">
		<tag k="alt_name" v="Nælkæso" />
		<tag k="name" v="Nälkeso" />
		<tag k="natural" v="wetland" />
		<tag k="ssr:stedsnr" v="163560" />
	</node>
	<node lat="60.516736112156124" lon="12.529133342036033" id="-16429">
		<tag k="name" v="Slåttbråten" />
		<tag k="place" v="locality" />
		<tag k="ssr:stedsnr" v="163578" />
	</node>
	<node lat="60.522780554386536" lon="12.52137222076922" id="-16430">
		<tag k="name" v="Pekkankallio" />
		<tag k="natural" v="slope" />
		<tag k="place" v="locality" />
		<tag k="ssr:stedsnr" v="163581" />
	</node>
	<node lat="60.518775001201746" lon="12.538011102806543" id="-16431">
		<tag k="name" v="Andersstuen" />
		<tag k="place" v="farm" />
		<tag k="ssr:stedsnr" v="163585" />
	</node>
	<node lat="60.49331666338714" lon="12.511438882534655" id="-16432">
		<tag k="name" v="Østre Lauvbergstjennsmyra" />
		<tag k="natural" v="wetland" />
		<tag k="ssr:stedsnr" v="163907" />
	</node>
	<node lat="60.49218055941369" lon="12.45244721469465" id="-16433">
		<tag k="name" v="Bjønnmyra" />
		<tag k="natural" v="wetland" />
		<tag k="ssr:stedsnr" v="163911" />
	</node>
	<node lat="60.48358055142617" lon="11.944313893534416" id="-16434">
		<tag k="name" v="Kvernbekkbråten" />
		<tag k="place" v="farm" />
		<tag k="ssr:stedsnr" v="176102" />
	</node>
	<node lat="60.40282777884838" lon="12.455283341481959" id="-16435">
		<tag k="name" v="Økshammermyra" />
		<tag k="natural" v="wetland" />
		<tag k="ssr:stedsnr" v="176104" />
	</node>
	<node lat="60.3859750035423" lon="12.440502785372468" id="-16436">
		<tag k="name" v="Nordgarden" />
		<tag k="place" v="farm" />
		<tag k="ssr:stedsnr" v="176113" />
	</node>
	<node lat="60.37883611290291" lon="12.423377785436687" id="-16437">
		<tag k="name" v="Helgedammen" />
		<tag k="ssr:stedsnr" v="176114" />
		<tag k="waterway" v="dam" />
	</node>
	<node lat="60.463588889877414" lon="12.32123055022502" id="-16438">
		<tag k="name" v="Sjumannsposten" />
		<tag k="natural" v="wetland" />
		<tag k="ssr:stedsnr" v="176309" />
	</node>
	<node lat="60.47370832988757" lon="12.341788893248577" id="-16439">
		<tag k="name" v="Mortenstjennsmyrene" />
		<tag k="natural" v="wetland" />
		<tag k="ssr:stedsnr" v="176310" />
	</node>
	<node lat="60.378522224246645" lon="12.251625000686023" id="-16440">
		<tag k="highway" v="path" />
		<tag k="name" v="Jønsøkkoievegen" />
		<tag k="ssr:stedsnr" v="176464" />
	</node>
	<node lat="60.37489444317491" lon="12.237811107849687" id="-16441">
		<tag k="name" v="Snupvåla" />
		<tag k="natural" v="hill" />
		<tag k="place" v="locality" />
		<tag k="ssr:stedsnr" v="176469" />
	</node>
	<node lat="60.44560555536842" lon="12.21034722632508" id="-16442">
		<tag k="name" v="Brutjennsåsen" />
		<tag k="natural" v="hill" />
		<tag k="place" v="locality" />
		<tag k="ssr:stedsnr" v="176555" />
	</node>
	<node lat="60.451091664920774" lon="12.253038887045998" id="-16443">
		<tag k="name" v="Sanderjordet" />
		<tag k="place" v="isolated_dwelling" />
		<tag k="ssr:stedsnr" v="176559" />
	</node>
	<node lat="60.35541110813568" lon="12.260411118568042" id="-16444">
		<tag k="name" v="Måsamyra" />
		<tag k="natural" v="wetland" />
		<tag k="ssr:stedsnr" v="176704" />
	</node>
	<node lat="60.3969666669938" lon="12.23219166654291" id="-16445">
		<tag k="name" v="Tømmermyra" />
		<tag k="natural" v="wetland" />
		<tag k="ssr:stedsnr" v="177557" />
	</node>
	<node lat="60.401297226678984" lon="12.23851943584852" id="-16446">
		<tag k="name" v="Måsåmyra" />
		<tag k="natural" v="wetland" />
		<tag k="ssr:stedsnr" v="177564" />
	</node>
	<node lat="60.397000002362404" lon="12.381663894775853" id="-16447">
		<tag k="name" v="Steinhaugen" />
		<tag k="natural" v="hill" />
		<tag k="place" v="locality" />
		<tag k="ssr:stedsnr" v="178422" />
	</node>
	<node lat="60.39108611336711" lon="12.379024993275587" id="-16448">
		<tag k="name" v="Klonkerudberget" />
		<tag k="natural" v="hill" />
		<tag k="place" v="locality" />
		<tag k="ssr:stedsnr" v="178423" />
	</node>
	<node lat="60.398358331133096" lon="12.375136104763557" id="-16449">
		<tag k="name" v="Helvete" />
		<tag k="natural" v="slope" />
		<tag k="place" v="locality" />
		<tag k="ssr:stedsnr" v="178426" />
	</node>
	<node lat="60.398002780436045" lon="12.548691664457836" id="-16450">
		<tag k="amenity" v="community_centre" />
		<tag k="name" v="Vålberget skole" />
		<tag k="ssr:stedsnr" v="178804" />
	</node>
	<node lat="60.38104444567991" lon="12.184991672815457" id="-16451">
		<tag k="name" v="Grådden" />
		<tag k="natural" v="hill" />
		<tag k="place" v="locality" />
		<tag k="ssr:stedsnr" v="179512" />
	</node>
	<node lat="60.37928888713216" lon="12.219422225558223" id="-16452">
		<tag k="name" v="Lønhaugsberget" />
		<tag k="natural" v="hill" />
		<tag k="place" v="locality" />
		<tag k="ssr:stedsnr" v="179513" />
	</node>
	<node lat="60.392305551332136" lon="11.832136114339953" id="-16453">
		<tag k="name" v="Lomtjennsvika" />
		<tag k="natural" v="bay" />
		<tag k="ssr:stedsnr" v="179562" />
	</node>
	<node lat="60.43375555951784" lon="11.897113888768985" id="-16454">
		<tag k="name" v="Storfløytdammen" />
		<tag k="ssr:stedsnr" v="180057" />
		<tag k="waterway" v="dam" />
	</node>
	<node lat="60.394752780311094" lon="12.464961103111124" id="-16455">
		<tag k="name" v="Solmyra" />
		<tag k="natural" v="wetland" />
		<tag k="ssr:stedsnr" v="180069" />
	</node>
	<node lat="60.46129167042408" lon="11.812969453575063" id="-16456">
		<tag k="name" v="Trillingtjennskoia" />
		<tag k="place" v="locality" />
		<tag k="ssr:stedsnr" v="180620" />
	</node>
	<node lat="60.453547218159244" lon="12.577305552711202" id="-16457">
		<tag k="name" v="Torvmyra" />
		<tag k="natural" v="wetland" />
		<tag k="ssr:stedsnr" v="180670" />
	</node>
	<node lat="60.44920833194171" lon="12.557861108428382" id="-16458">
		<tag k="name" v="Dikkasbekken" />
		<tag k="ssr:stedsnr" v="180672" />
		<tag k="waterway" v="stream" />
	</node>
	<node lat="60.44550000370059" lon="12.439644438140261" id="-16459">
		<tag k="name" v="Sætermyra" />
		<tag k="natural" v="wetland" />
		<tag k="ssr:stedsnr" v="188003" />
	</node>
	<node lat="60.4285805521054" lon="12.50231110988739" id="-16460">
		<tag k="name" v="Hårsmahå" />
		<tag k="place" v="locality" />
		<tag k="ssr:stedsnr" v="188015" />
	</node>
	<node lat="60.417241670713146" lon="12.369324999518875" id="-16461">
		<tag k="name" v="Rådelsbekken" />
		<tag k="ssr:stedsnr" v="188027" />
		<tag k="waterway" v="stream" />
	</node>
	<node lat="60.417227782518225" lon="12.530038880730645" id="-16462">
		<tag k="alt_name" v="Løvholmene" />
		<tag k="name" v="Lavvholmen" />
		<tag k="place" v="islet" />
		<tag k="ssr:stedsnr" v="188028" />
	</node>
	<node lat="60.39056111259081" lon="12.524641663183495" id="-16463">
		<tag k="name" v="Mullulamp" />
		<tag k="natural" v="water" />
		<tag k="ssr:stedsnr" v="188070" />
	</node>
	<node lat="60.486925002049645" lon="12.284516659691867" id="-16464">
		<tag k="historic" v="shieling" />
		<tag k="name" v="Gruesætra" />
		<tag k="place" v="isolated_dwelling" />
		<tag k="ssr:stedsnr" v="188082" />
	</node>
	<node lat="60.368255556314516" lon="12.43704722666807" id="-16465">
		<tag k="name" v="Merraskjulet" />
		<tag k="place" v="isolated_dwelling" />
		<tag k="ssr:stedsnr" v="188225" />
	</node>
	<node lat="60.481053111204155" lon="12.393091162037512" id="-16466">
		<tag k="name" v="Damtjenna" />
		<tag k="natural" v="water" />
		<tag k="ssr:stedsnr" v="188107" />
	</node>
	<node lat="60.4639555572186" lon="12.491927772941306" id="-16467">
		<tag k="name" v="Hemtjennet" />
		<tag k="natural" v="water" />
		<tag k="ssr:stedsnr" v="188111" />
	</node>
	<node lat="60.46450833422165" lon="12.49876388041319" id="-16468">
		<tag k="name" v="Oppigarden" />
		<tag k="place" v="isolated_dwelling" />
		<tag k="ssr:stedsnr" v="188122" />
	</node>
	<node lat="60.387075000141884" lon="11.948191673165118" id="-16469">
		<tag k="name" v="Knappholsberget" />
		<tag k="natural" v="hill" />
		<tag k="place" v="locality" />
		<tag k="ssr:stedsnr" v="188402" />
	</node>
	<node lat="60.38978888858788" lon="11.997038892138853" id="-16470">
		<tag k="name" v="Skaraberget" />
		<tag k="place" v="hamlet" />
		<tag k="ssr:stedsnr" v="188403" />
	</node>
	<node lat="60.38533055197232" lon="11.867100005391691" id="-16471">
		<tag k="name" v="Gladbakk" />
		<tag k="place" v="isolated_dwelling" />
		<tag k="ssr:stedsnr" v="188404" />
	</node>
	<node lat="60.379386107291815" lon="11.872141658508008" id="-16472">
		<tag k="name" v="Gobærsknappen" />
		<tag k="natural" v="hill" />
		<tag k="place" v="locality" />
		<tag k="ssr:stedsnr" v="188409" />
	</node>
	<node lat="60.40888055821328" lon="11.960902780497104" id="-16473">
		<tag k="name" v="Langmyrtjennet" />
		<tag k="natural" v="water" />
		<tag k="ssr:stedsnr" v="188381" />
	</node>
	<node lat="60.36602500232201" lon="12.000788881278636" id="-16474">
		<tag k="name" v="Snipen" />
		<tag k="place" v="farm" />
		<tag k="ssr:stedsnr" v="188382" />
	</node>
	<node lat="60.3729361119239" lon="11.86326387989883" id="-16475">
		<tag k="name" v="Stortjennet" />
		<tag k="natural" v="water" />
		<tag k="ssr:stedsnr" v="188387" />
	</node>
	<node lat="60.37533610665098" lon="12.184913894880193" id="-16476">
		<tag k="name" v="Mellomtjennet" />
		<tag k="natural" v="water" />
		<tag k="ssr:stedsnr" v="188392" />
	</node>
	<node lat="60.36859166480754" lon="12.181019442814932" id="-16477">
		<tag k="historic" v="shieling" />
		<tag k="name" v="Mosætra" />
		<tag k="place" v="isolated_dwelling" />
		<tag k="ssr:stedsnr" v="188393" />
	</node>
	<node lat="60.479102780124734" lon="11.995302775258892" id="-16478">
		<tag k="name" v="Holtet" />
		<tag k="place" v="farm" />
		<tag k="ssr:stedsnr" v="188681" />
	</node>
	<node lat="60.51744444505183" lon="12.375324993265918" id="-16479">
		<tag k="name" v="Stemsrudberget" />
		<tag k="natural" v="hill" />
		<tag k="place" v="locality" />
		<tag k="ssr:stedsnr" v="189680" />
	</node>
	<node lat="60.517936112756026" lon="12.417144452240786" id="-16480">
		<tag k="name" v="Høgbråtåtjennet" />
		<tag k="natural" v="water" />
		<tag k="ssr:stedsnr" v="189681" />
	</node>
	<node lat="60.534905553620675" lon="12.455833329749003" id="-16481">
		<tag k="name" v="Rukutjennet" />
		<tag k="natural" v="water" />
		<tag k="ssr:stedsnr" v="189683" />
	</node>
	<node lat="60.50068888850411" lon="12.256272222164439" id="-16482">
		<tag k="name" v="Sjøholen" />
		<tag k="place" v="isolated_dwelling" />
		<tag k="ssr:stedsnr" v="189703" />
	</node>
	<node lat="60.43039444658192" lon="12.287849994176753" id="-16483">
		<tag k="name" v="Brattberget" />
		<tag k="place" v="locality" />
		<tag k="ssr:stedsnr" v="203013" />
	</node>
	<node lat="60.41195555256713" lon="12.055547213040555" id="-16484">
		<tag k="name" v="Myrland" />
		<tag k="place" v="farm" />
		<tag k="ssr:stedsnr" v="208131" />
	</node>
	<node lat="60.410369442481354" lon="12.053972219712216" id="-16485">
		<tag k="name" v="Skogstad" />
		<tag k="place" v="farm" />
		<tag k="ssr:stedsnr" v="208132" />
	</node>
	<node lat="60.419341668389414" lon="12.005361107599699" id="-16486">
		<tag k="name" v="Nymoen" />
		<tag k="place" v="farm" />
		<tag k="ssr:stedsnr" v="208134" />
	</node>
	<node lat="60.50181666527619" lon="12.072519436739425" id="-16487">
		<tag k="name" v="Bjerke" />
		<tag k="place" v="farm" />
		<tag k="ssr:stedsnr" v="208189" />
	</node>
	<node lat="60.5128499992754" lon="12.065575001962594" id="-16488">
		<tag k="name" v="Kjensmotjennet" />
		<tag k="natural" v="water" />
		<tag k="ssr:stedsnr" v="208194" />
	</node>
	<node lat="60.451755554164734" lon="12.076269442272238" id="-16489">
		<tag k="amenity" v="school" />
		<tag k="name" v="Furubo" />
		<tag k="ssr:stedsnr" v="208844" />
	</node>
	<node lat="60.434308331394504" lon="12.104327771275852" id="-16490">
		<tag k="name" v="Myrer" />
		<tag k="place" v="farm" />
		<tag k="ssr:stedsnr" v="208786" />
	</node>
	<node lat="60.54578333745041" lon="12.071688893440507" id="-16491">
		<tag k="name" v="Myrvang" />
		<tag k="place" v="farm" />
		<tag k="ssr:stedsnr" v="269180" />
	</node>
	<node lat="60.40087222460144" lon="12.05576388071083" id="-16492">
		<tag k="name" v="Kveiland" />
		<tag k="place" v="farm" />
		<tag k="ssr:stedsnr" v="209185" />
	</node>
	<node lat="60.38950555354626" lon="11.999691671501493" id="-16493">
		<tag k="name" v="Granli" />
		<tag k="place" v="farm" />
		<tag k="ssr:stedsnr" v="209192" />
	</node>
	<node lat="60.40722500038704" lon="12.030141675244726" id="-16494">
		<tag k="name" v="Mo" />
		<tag k="place" v="farm" />
		<tag k="ssr:stedsnr" v="269143" />
	</node>
	<node lat="60.52944444837448" lon="12.069633332204326" id="-16495">
		<tag k="name" v="Smørhaugen" />
		<tag k="natural" v="hill" />
		<tag k="place" v="locality" />
		<tag k="ssr:stedsnr" v="269227" />
	</node>
	<node lat="60.53260555193058" lon="12.055197230741852" id="-16496">
		<tag k="name" v="Østgarden" />
		<tag k="place" v="farm" />
		<tag k="ssr:stedsnr" v="269229" />
	</node>
	<node lat="60.44811944127237" lon="12.091061118132163" id="-16497">
		<tag k="name" v="Berger" />
		<tag k="place" v="farm" />
		<tag k="ssr:stedsnr" v="269252" />
	</node>
	<node lat="60.45072778150264" lon="12.088536110623203" id="-16498">
		<tag k="name" v="Berger" />
		<tag k="place" v="farm" />
		<tag k="ssr:stedsnr" v="269255" />
	</node>
	<node lat="60.45007222004806" lon="12.078322229223838" id="-16499">
		<tag k="amenity" v="nursing_home" />
		<tag k="name" v="Grue alders- og sykehjem" />
		<tag k="ssr:stedsnr" v="269797" />
	</node>
	<node lat="60.46964999717216" lon="12.002477771604234" id="-16500">
		<tag k="name" v="Refsethøgda" />
		<tag k="place" v="quarter" />
		<tag k="ssr:stedsnr" v="269846" />
	</node>
	<node lat="60.531847222078056" lon="12.045544451255653" id="-16501">
		<tag k="landuse" v="meadow" />
		<tag k="name" v="Holmtuva" />
		<tag k="ssr:stedsnr" v="269854" />
	</node>
	<node lat="60.53564444526445" lon="12.089891663437253" id="-16502">
		<tag k="name" v="Sorknesfeltet" />
		<tag k="place" v="hamlet" />
		<tag k="ssr:stedsnr" v="269856" />
	</node>
	<node lat="60.496327777155884" lon="12.368269436251667" id="-16503">
		<tag k="name" v="Skjæret" />
		<tag k="place" v="locality" />
		<tag k="ssr:stedsnr" v="222283" />
	</node>
	<node lat="60.50202222121873" lon="12.196794448037899" id="-16504">
		<tag k="name" v="Aurkytbekken" />
		<tag k="ssr:stedsnr" v="222576" />
		<tag k="waterway" v="stream" />
	</node>
	<node lat="60.51303888932847" lon="12.204402773870836" id="-16505">
		<tag k="name" v="Kjelsås" />
		<tag k="place" v="isolated_dwelling" />
		<tag k="ssr:stedsnr" v="222586" />
	</node>
	<node lat="60.49867777677532" lon="12.217408339242324" id="-16506">
		<tag k="name" v="Orrtjennet" />
		<tag k="natural" v="water" />
		<tag k="ssr:stedsnr" v="222593" />
	</node>
	<node lat="60.341533329582404" lon="12.19665832948891" id="-16507">
		<tag k="name" v="Dambrakka" />
		<tag k="place" v="isolated_dwelling" />
		<tag k="ssr:stedsnr" v="222678" />
	</node>
	<node lat="60.35805833235606" lon="12.450647228024545" id="-16508">
		<tag k="name" v="Sengaaho" />
		<tag k="place" v="locality" />
		<tag k="ssr:stedsnr" v="223203" />
	</node>
	<node lat="60.37427222424842" lon="11.847405548691045" id="-16509">
		<tag k="name" v="Bjørntjennsbekken" />
		<tag k="ssr:stedsnr" v="223229" />
		<tag k="waterway" v="stream" />
	</node>
	<node lat="60.4207250036389" lon="12.534136105494756" id="-16510">
		<tag k="name" v="Kjerringholmen" />
		<tag k="place" v="islet" />
		<tag k="ssr:stedsnr" v="223785" />
	</node>
	<node lat="60.430836108873024" lon="12.337138896963067" id="-16511">
		<tag k="name" v="Søndre Skasberget" />
		<tag k="place" v="farm" />
		<tag k="ssr:stedsnr" v="224406" />
	</node>
	<node lat="60.387644444758415" lon="12.359002777073922" id="-16512">
		<tag k="name" v="Bekkeli" />
		<tag k="place" v="isolated_dwelling" />
		<tag k="ssr:stedsnr" v="224433" />
	</node>
	<node lat="60.49469722529061" lon="12.511208340590565" id="-16513">
		<tag k="name" v="Bessfarsholen" />
		<tag k="place" v="locality" />
		<tag k="ssr:stedsnr" v="224902" />
	</node>
	<node lat="60.49847499758763" lon="12.446766657896639" id="-16514">
		<tag k="name" v="Bjørnholen" />
		<tag k="place" v="locality" />
		<tag k="ssr:stedsnr" v="224907" />
	</node>
	<node lat="60.48706944829858" lon="12.439144449899757" id="-16515">
		<tag k="name" v="Flaskeposten" />
		<tag k="place" v="locality" />
		<tag k="ssr:stedsnr" v="224909" />
	</node>
	<node lat="60.37366389176737" lon="12.431861112485079" id="-16516">
		<tag k="name" v="Furubergtjennsmyra" />
		<tag k="natural" v="wetland" />
		<tag k="ssr:stedsnr" v="237106" />
	</node>
	<node lat="60.40578333430769" lon="12.434258335829528" id="-16517">
		<tag k="name" v="Morttjennsmyra" />
		<tag k="natural" v="wetland" />
		<tag k="ssr:stedsnr" v="237081" />
	</node>
	<node lat="60.48838611032066" lon="11.957630555532003" id="-16518">
		<tag k="name" v="Skyrudsmoen" />
		<tag k="place" v="farm" />
		<tag k="ssr:stedsnr" v="237084" />
	</node>
	<node lat="60.39184722606086" lon="12.457499996963712" id="-16519">
		<tag k="name" v="Nordre Lomtjennet" />
		<tag k="natural" v="water" />
		<tag k="ssr:stedsnr" v="237086" />
	</node>
	<node lat="60.32378055907403" lon="12.498422226555416" id="-16520">
		<tag k="name" v="Suru" />
		<tag k="natural" v="hill" />
		<tag k="place" v="locality" />
		<tag k="ssr:stedsnr" v="237182" />
	</node>
	<node lat="60.47459722097147" lon="12.33407221302884" id="-16521">
		<tag k="name" v="Vårt felt" />
		<tag k="place" v="isolated_dwelling" />
		<tag k="ssr:stedsnr" v="237332" />
	</node>
	<node lat="60.39576944173033" lon="12.26341111660823" id="-16522">
		<tag k="name" v="Sinkmyra" />
		<tag k="natural" v="wetland" />
		<tag k="ssr:stedsnr" v="237534" />
	</node>
	<node lat="60.44917777818369" lon="12.230749993370996" id="-16523">
		<tag k="name" v="Øvre Rømmegrøthullet" />
		<tag k="natural" v="wetland" />
		<tag k="ssr:stedsnr" v="237591" />
	</node>
	<node lat="60.47255555160626" lon="11.942647223115289" id="-16524">
		<tag k="name" v="Pettershemmet" />
		<tag k="place" v="locality" />
		<tag k="ssr:stedsnr" v="237884" />
	</node>
	<node lat="60.38994999904829" lon="11.966580552796097" id="-16525">
		<tag k="name" v="Skaralibekken" />
		<tag k="ssr:stedsnr" v="239029" />
		<tag k="waterway" v="stream" />
	</node>
	<node lat="60.36831388542075" lon="11.940724997323215" id="-16526">
		<tag k="name" v="Bortatil" />
		<tag k="place" v="farm" />
		<tag k="ssr:stedsnr" v="239035" />
	</node>
	<node lat="60.35681944263593" lon="12.501874996371662" id="-16527">
		<tag k="fixme" v="consider natural=peak for the most distinct mountains in the district" />
		<tag k="name" v="Kjerkesjøberget" />
		<tag k="natural" v="hill" />
		<tag k="place" v="locality" />
		<tag k="ssr:stedsnr" v="239138" />
	</node>
	<node lat="60.50411666380819" lon="12.300669438606047" id="-16528">
		<tag k="name" v="Haradolpa" />
		<tag k="natural" v="wetland" />
		<tag k="ssr:stedsnr" v="239282" />
	</node>
	<node lat="60.40898333745073" lon="12.390719438585101" id="-16529">
		<tag k="name" v="Gjevertaven" />
		<tag k="natural" v="valley" />
		<tag k="place" v="locality" />
		<tag k="ssr:stedsnr" v="239434" />
	</node>
	<node lat="60.39827500198303" lon="11.822436105501996" id="-16530">
		<tag k="name" v="Knektfløyta" />
		<tag k="place" v="locality" />
		<tag k="ssr:stedsnr" v="239577" />
	</node>
	<node lat="60.443050003023124" lon="12.005616666537781" id="-16531">
		<tag k="name" v="Tveter" />
		<tag k="place" v="farm" />
		<tag k="ssr:stedsnr" v="451180" />
	</node>
	<node lat="60.449613892434485" lon="12.035663891251872" id="-16532">
		<tag k="name" v="Tomterstad" />
		<tag k="place" v="farm" />
		<tag k="ssr:stedsnr" v="451181" />
	</node>
	<node lat="60.42277500279548" lon="12.038674995548678" id="-16533">
		<tag k="name" v="Fredbo" />
		<tag k="place" v="farm" />
		<tag k="ssr:stedsnr" v="451152" />
	</node>
	<node lat="60.35913888900993" lon="11.835322213272882" id="-16534">
		<tag k="historic" v="shieling" />
		<tag k="name" v="Nordfjellsætra" />
		<tag k="place" v="locality" />
		<tag k="ssr:stedsnr" v="241301" />
	</node>
	<node lat="60.412052774122714" lon="12.058172229390241" id="-16535">
		<tag k="name" v="Tjuren" />
		<tag k="place" v="farm" />
		<tag k="ssr:stedsnr" v="451254" />
	</node>
	<node lat="60.463513886337125" lon="11.806700001678037" id="-16536">
		<tag k="name" v="Killingen" />
		<tag k="natural" v="water" />
		<tag k="ssr:stedsnr" v="241627" />
	</node>
	<node lat="60.444275004029116" lon="12.293952776012851" id="-16537">
		<tag k="name" v="Finntjennsmyra" />
		<tag k="natural" v="wetland" />
		<tag k="ssr:stedsnr" v="241693" />
	</node>
	<node lat="60.53647222675054" lon="12.156936107123183" id="-16538">
		<tag k="name" v="Kornslodammen" />
		<tag k="ssr:stedsnr" v="241778" />
		<tag k="waterway" v="dam" />
	</node>
	<node lat="60.40721667110007" lon="11.99282222149195" id="-16539">
		<tag k="name" v="Bringsrud" />
		<tag k="place" v="locality" />
		<tag k="ssr:stedsnr" v="241880" />
	</node>
	<node lat="60.45862777771373" lon="12.563858339525257" id="-16540">
		<tag k="name" v="Løvhaugen" />
		<tag k="place" v="farm" />
		<tag k="ssr:stedsnr" v="241884" />
	</node>
	<node lat="60.42591944412066" lon="12.144797224745606" id="-16541">
		<tag k="name" v="Tysjømyra" />
		<tag k="natural" v="wetland" />
		<tag k="ssr:stedsnr" v="451660" />
	</node>
	<node lat="60.40879442129243" lon="12.0337432409561" id="-16542">
		<tag k="fixme" v="consider place=hamlet" />
		<tag k="name" v="Mo" />
		<tag k="place" v="farm" />
		<tag k="ssr:stedsnr" v="451830" />
	</node>
	<node lat="60.49831944672166" lon="11.996936108605086" id="-16543">
		<tag k="fixme" v="consider boundary=protected_area and relevant protect_class if not nature reserve" />
		<tag k="leisure" v="nature_reserve" />
		<tag k="name" v="Rønnåsmyra naturreservat" />
		<tag k="ssr:stedsnr" v="451852" />
	</node>
	<node lat="60.44414166486117" lon="12.11090278641713" id="-16544">
		<tag k="name" v="Bråten" />
		<tag k="place" v="farm" />
		<tag k="ssr:stedsnr" v="451858" />
	</node>
	<node lat="60.445027779137995" lon="12.514800000705694" id="-16545">
		<tag k="name" v="Kvernbakken" />
		<tag k="place" v="farm" />
		<tag k="ssr:stedsnr" v="248003" />
	</node>
	<node lat="60.44249444422958" lon="12.428888895623649" id="-16546">
		<tag k="name" v="Høgbråten" />
		<tag k="natural" v="hill" />
		<tag k="place" v="locality" />
		<tag k="ssr:stedsnr" v="248004" />
	</node>
	<node lat="60.439138885504114" lon="12.577194439926648" id="-16547">
		<tag k="name" v="Gaskmyrane" />
		<tag k="natural" v="wetland" />
		<tag k="ssr:stedsnr" v="248010" />
	</node>
	<node lat="60.33727777356027" lon="12.456863897237271" id="-16548">
		<tag k="alt_name" v="Kjerkesjøåa" />
		<tag k="name" v="Kjerkesjåa" />
		<tag k="ssr:stedsnr" v="248221" />
		<tag k="waterway" v="stream" />
	</node>
	<node lat="60.44741110900514" lon="12.244174999547063" id="-16549">
		<tag k="name" v="Torptjennet" />
		<tag k="natural" v="water" />
		<tag k="ssr:stedsnr" v="248108" />
	</node>
	<node lat="60.44406667111122" lon="12.235258324994788" id="-16550">
		<tag k="name" v="Nytorpknappen" />
		<tag k="natural" v="hill" />
		<tag k="place" v="locality" />
		<tag k="ssr:stedsnr" v="248112" />
	</node>
	<node lat="60.36633888960423" lon="12.52608888188531" id="-16551">
		<tag k="name" v="Gåntigalli" />
		<tag k="natural" v="hill" />
		<tag k="place" v="locality" />
		<tag k="ssr:stedsnr" v="248179" />
	</node>
	<node lat="60.470083336959824" lon="12.383755564272937" id="-16552">
		<tag k="alt_name" v="Rotneberget, øvre;Øvergarden" />
		<tag k="name" v="Øvre Rotneberget" />
		<tag k="place" v="farm" />
		<tag k="ssr:stedsnr" v="249097" />
	</node>
	<node lat="60.36212778059348" lon="11.962736117481029" id="-16553">
		<tag k="name" v="Bergli" />
		<tag k="place" v="farm" />
		<tag k="ssr:stedsnr" v="249257" />
	</node>
	<node lat="60.40575278219463" lon="12.206580550027184" id="-16554">
		<tag k="name" v="Frysjøberget" />
		<tag k="place" v="hamlet" />
		<tag k="ssr:stedsnr" v="249325" />
	</node>
	<node lat="60.398663885675745" lon="12.131550000755794" id="-16555">
		<tag k="name" v="Storberget" />
		<tag k="natural" v="hill" />
		<tag k="place" v="locality" />
		<tag k="ssr:stedsnr" v="249326" />
	</node>
	<node lat="60.23234721891594" lon="12.45742222348456" id="-16556">
		<tag k="highway" v="path" />
		<tag k="name" v="Finnskogleden" />
		<tag k="ssr:stedsnr" v="265983" />
	</node>
	<node lat="60.376586111750974" lon="12.068569444149267" id="-16557">
		<tag k="name" v="Langebråten" />
		<tag k="natural" v="slope" />
		<tag k="place" v="locality" />
		<tag k="ssr:stedsnr" v="269206" />
	</node>
	<node lat="60.50123610731011" lon="12.093905557295281" id="-16558">
		<tag k="name" v="Tuerfossen" />
		<tag k="natural" v="waterfall" />
		<tag k="ssr:stedsnr" v="269239" />
	</node>
	<node lat="60.355908330049864" lon="11.944700005913377" id="-16559">
		<tag k="name" v="Strandås" />
		<tag k="place" v="isolated_dwelling" />
		<tag k="ssr:stedsnr" v="282022" />
	</node>
	<node lat="60.50503611483608" lon="12.478294452681071" id="-16560">
		<tag k="name" v="Hundfløyta" />
		<tag k="natural" v="water" />
		<tag k="ssr:stedsnr" v="282887" />
		<tag k="water" v="lake" />
	</node>
	<node lat="60.386333335397886" lon="12.423647215551222" id="-16561">
		<tag k="name" v="Sandvika" />
		<tag k="natural" v="bay" />
		<tag k="ssr:stedsnr" v="283078" />
	</node>
	<node lat="60.47380277440788" lon="12.493138893901104" id="-16562">
		<tag k="name" v="Kaldkjeldmyra" />
		<tag k="natural" v="wetland" />
		<tag k="ssr:stedsnr" v="282976" />
	</node>
	<node lat="60.46455278241433" lon="12.525847213830113" id="-16563">
		<tag k="name" v="Haukgåsk" />
		<tag k="place" v="locality" />
		<tag k="ssr:stedsnr" v="283528" />
	</node>
	<node lat="60.38658333672291" lon="11.877152774605305" id="-16564">
		<tag k="name" v="Korptjennet" />
		<tag k="natural" v="water" />
		<tag k="ssr:stedsnr" v="284226" />
	</node>
	<node lat="60.51538333278419" lon="12.538499995404639" id="-16565">
		<tag k="name" v="Solheim" />
		<tag k="place" v="isolated_dwelling" />
		<tag k="ssr:stedsnr" v="284632" />
	</node>
	<node lat="60.50476944037796" lon="12.544547213774122" id="-16566">
		<tag k="name" v="Ahoiniemnabben" />
		<tag k="natural" v="cape" />
		<tag k="ssr:stedsnr" v="284634" />
	</node>
	<node lat="60.50964722014406" lon="12.545083331527467" id="-16567">
		<tag k="name" v="Nerbråten" />
		<tag k="place" v="isolated_dwelling" />
		<tag k="ssr:stedsnr" v="284635" />
	</node>
	<node lat="60.420269447132675" lon="12.281786115764232" id="-16568">
		<tag k="name" v="Fagerstrand" />
		<tag k="place" v="isolated_dwelling" />
		<tag k="ssr:stedsnr" v="284587" />
	</node>
	<node lat="60.4552222187403" lon="11.98962777167805" id="-16569">
		<tag k="name" v="Berget" />
		<tag k="place" v="farm" />
		<tag k="ssr:stedsnr" v="284678" />
	</node>
	<node lat="60.42568888877773" lon="12.579327784832431" id="-16570">
		<tag k="name" v="Gadanso" />
		<tag k="natural" v="wetland" />
		<tag k="ssr:stedsnr" v="284804" />
	</node>
	<node lat="60.53347500200141" lon="12.409569440902045" id="-16571">
		<tag k="fixme" v="consider natural=peak for the most distinct mountains in the district" />
		<tag k="name" v="Revtjennsberget" />
		<tag k="natural" v="hill" />
		<tag k="place" v="locality" />
		<tag k="ssr:stedsnr" v="284930" />
	</node>
	<node lat="60.41380555775394" lon="11.918847219827583" id="-16572">
		<tag k="name" v="Vangsmyra" />
		<tag k="natural" v="wetland" />
		<tag k="ssr:stedsnr" v="285126" />
	</node>
	<node lat="60.48312777890062" lon="12.459136114513457" id="-16573">
		<tag k="name" v="Revtjennskoia" />
		<tag k="place" v="isolated_dwelling" />
		<tag k="ssr:stedsnr" v="285885" />
	</node>
	<node lat="60.48959999753786" lon="11.941758326845463" id="-16574">
		<tag k="name" v="Skyrudhaugen" />
		<tag k="natural" v="hill" />
		<tag k="place" v="locality" />
		<tag k="ssr:stedsnr" v="298102" />
	</node>
	<node lat="60.48908611126972" lon="11.958458332411643" id="-16575">
		<tag k="name" v="Skogdal" />
		<tag k="place" v="isolated_dwelling" />
		<tag k="ssr:stedsnr" v="298104" />
	</node>
	<node lat="60.474038886759324" lon="11.942319439492033" id="-16576">
		<tag k="name" v="Steinahemmet" />
		<tag k="place" v="locality" />
		<tag k="ssr:stedsnr" v="298107" />
	</node>
	<node lat="60.37831666938376" lon="12.427722217488451" id="-16577">
		<tag k="name" v="Nordre Furubergtjenn" />
		<tag k="natural" v="water" />
		<tag k="ssr:stedsnr" v="298111" />
	</node>
	<node lat="60.46672499941743" lon="12.333869451891283" id="-16578">
		<tag k="alt_name" v="Vaet" />
		<tag k="ford" v="yes" />
		<tag k="name" v="Vadet" />
		<tag k="place" v="locality" />
		<tag k="ssr:stedsnr" v="298309" />
	</node>
	<node lat="60.39471110793898" lon="12.169750002536126" id="-16579">
		<tag k="name" v="Grådden" />
		<tag k="place" v="locality" />
		<tag k="ssr:stedsnr" v="298886" />
	</node>
	<node lat="60.431949996525255" lon="12.11519444945095" id="-16580">
		<tag k="name" v="Krokerud" />
		<tag k="place" v="farm" />
		<tag k="ssr:stedsnr" v="298927" />
	</node>
	<node lat="60.35905277677914" lon="12.15997777675381" id="-16581">
		<tag k="name" v="Krokbekken" />
		<tag k="ssr:stedsnr" v="298956" />
		<tag k="waterway" v="stream" />
	</node>
	<node lat="60.462736108160904" lon="11.912883326321348" id="-16582">
		<tag k="historic" v="shieling" />
		<tag k="name" v="Skurvsætra" />
		<tag k="place" v="locality" />
		<tag k="ssr:stedsnr" v="300080" />
	</node>
	<node lat="60.48271388703452" lon="11.915072219684946" id="-16583">
		<tag k="name" v="Allemannsmyra" />
		<tag k="natural" v="wetland" />
		<tag k="ssr:stedsnr" v="300087" />
	</node>
	<node lat="60.463008332547375" lon="12.276149992158192" id="-16584">
		<tag k="name" v="Gammelsætermyra" />
		<tag k="natural" v="wetland" />
		<tag k="ssr:stedsnr" v="300602" />
	</node>
	<node lat="60.417486108950364" lon="11.845899992863112" id="-16585">
		<tag k="name" v="Høymyra" />
		<tag k="natural" v="wetland" />
		<tag k="old_name" v="Høimyra" />
		<tag k="ssr:stedsnr" v="300572" />
	</node>
	<node lat="60.40397222059733" lon="11.840988885738636" id="-16586">
		<tag k="name" v="Rybråtåberget" />
		<tag k="natural" v="hill" />
		<tag k="place" v="locality" />
		<tag k="ssr:stedsnr" v="300579" />
	</node>
	<node lat="60.366041670739115" lon="12.175391671889958" id="-16587">
		<tag k="name" v="Slomphaugen" />
		<tag k="natural" v="hill" />
		<tag k="place" v="locality" />
		<tag k="ssr:stedsnr" v="300682" />
	</node>
	<node lat="60.4236055587775" lon="11.995083332466814" id="-16588">
		<tag k="fixme" v="multiple name tags, choose one and add the other to alt_name" />
		<tag k="name" v="Køya;Meierimoen" />
		<tag k="place" v="farm" />
		<tag k="ssr:stedsnr" v="300886" />
	</node>
	<node lat="60.44770555723481" lon="11.827775001358887" id="-16589">
		<tag k="name" v="Åtdalen" />
		<tag k="natural" v="valley" />
		<tag k="place" v="locality" />
		<tag k="ssr:stedsnr" v="301030" />
	</node>
	<node lat="60.43359722107236" lon="11.879455562183301" id="-16590">
		<tag k="name" v="Vestre Korsmyra" />
		<tag k="natural" v="wetland" />
		<tag k="ssr:stedsnr" v="301201" />
	</node>
	<node lat="60.4507444428642" lon="12.545983334732739" id="-16591">
		<tag k="landuse" v="meadow" />
		<tag k="name" v="Sivinitu" />
		<tag k="ssr:stedsnr" v="301658" />
	</node>
	<node lat="60.44484444387116" lon="12.557622226886172" id="-16592">
		<tag k="name" v="Mastarholen" />
		<tag k="place" v="locality" />
		<tag k="ssr:stedsnr" v="301661" />
	</node>
	<node lat="60.52320555286816" lon="12.158955549348885" id="-16593">
		<tag k="name" v="Koiemyra" />
		<tag k="natural" v="wetland" />
		<tag k="ssr:stedsnr" v="302771" />
	</node>
	<node lat="60.46199721994366" lon="12.505836108069795" id="-16594">
		<tag k="name" v="Kalskjeldholtet" />
		<tag k="place" v="locality" />
		<tag k="ssr:stedsnr" v="464969" />
	</node>
	<node lat="60.4831444403759" lon="12.389786117447002" id="-16595">
		<tag k="name" v="Damtjennsmyra" />
		<tag k="natural" v="wetland" />
		<tag k="ssr:stedsnr" v="465305" />
	</node>
	<node lat="60.33055555245616" lon="12.20728611268907" id="-16596">
		<tag k="name" v="Skjæra" />
		<tag k="natural" v="hill" />
		<tag k="place" v="locality" />
		<tag k="ssr:stedsnr" v="465670" />
	</node>
	<node lat="60.46986944072961" lon="12.514441673321812" id="-16597">
		<tag k="name" v="Løvlia" />
		<tag k="place" v="isolated_dwelling" />
		<tag k="ssr:stedsnr" v="308005" />
	</node>
	<node lat="60.448036108318064" lon="12.363613891646356" id="-16598">
		<tag k="name" v="Knappastormyra" />
		<tag k="natural" v="wetland" />
		<tag k="ssr:stedsnr" v="465389" />
	</node>
	<node lat="60.47553611079726" lon="12.573069449266844" id="-16599">
		<tag k="name" v="Bilismyra" />
		<tag k="natural" v="wetland" />
		<tag k="ssr:stedsnr" v="465565" />
	</node>
	<node lat="60.42725278072511" lon="12.436569447990832" id="-16600">
		<tag k="name" v="Lortmyra" />
		<tag k="natural" v="wetland" />
		<tag k="ssr:stedsnr" v="309007" />
	</node>
	<node lat="60.425161114779506" lon="12.34471389092414" id="-16601">
		<tag k="name" v="Svinørebekken" />
		<tag k="ssr:stedsnr" v="309019" />
		<tag k="waterway" v="stream" />
	</node>
	<node lat="60.40453611193268" lon="12.3998138900898" id="-16602">
		<tag k="name" v="Holt" />
		<tag k="place" v="farm" />
		<tag k="ssr:stedsnr" v="309036" />
	</node>
	<node lat="60.39267777882832" lon="12.253958332594138" id="-16603">
		<tag k="alt_name" v="Råmyra, nordre" />
		<tag k="name" v="Nordre Råmyra" />
		<tag k="natural" v="wetland" />
		<tag k="ssr:stedsnr" v="309043" />
	</node>
	<node lat="60.397891664391906" lon="12.49712221763053" id="-16604">
		<tag k="name" v="Kalnesåsen" />
		<tag k="place" v="isolated_dwelling" />
		<tag k="ssr:stedsnr" v="309047" />
	</node>
	<node lat="60.343891662082065" lon="12.181738894097473" id="-16605">
		<tag k="name" v="Hvebergsjøen" />
		<tag k="natural" v="water" />
		<tag k="ssr:stedsnr" v="309343" />
	</node>
	<node lat="60.3496833303869" lon="12.160472214336089" id="-16606">
		<tag k="name" v="Kroktjennet" />
		<tag k="natural" v="water" />
		<tag k="ssr:stedsnr" v="309346" />
	</node>
	<node lat="60.49035000066278" lon="12.268577786019849" id="-16607">
		<tag k="name" v="Bjørsjøberget" />
		<tag k="natural" v="hill" />
		<tag k="place" v="locality" />
		<tag k="ssr:stedsnr" v="309454" />
	</node>
	<node lat="60.39648055497314" lon="12.588030561531085" id="-16608">
		<tag k="name" v="Hagen" />
		<tag k="place" v="isolated_dwelling" />
		<tag k="ssr:stedsnr" v="465828" />
	</node>
	<node lat="60.43838055633211" lon="12.180358327122944" id="-16609">
		<tag k="name" v="Frysjøen" />
		<tag k="natural" v="water" />
		<tag k="ssr:stedsnr" v="309705" />
		<tag k="water" v="lake" />
	</node>
	<node lat="60.43733611191893" lon="12.096352782660578" id="-16610">
		<tag k="alt_name" v="Pålsrud" />
		<tag k="name" v="Paulsrud" />
		<tag k="place" v="farm" />
		<tag k="ssr:stedsnr" v="309709" />
	</node>
	<node lat="60.48532500390688" lon="12.595366668035112" id="-16611">
		<tag k="name" v="Svarttjennet" />
		<tag k="natural" v="water" />
		<tag k="ssr:stedsnr" v="310084" />
	</node>
	<node lat="60.531383329515855" lon="12.420605554066752" id="-16612">
		<tag k="name" v="Kaketjennsberget" />
		<tag k="natural" v="hill" />
		<tag k="place" v="locality" />
		<tag k="ssr:stedsnr" v="310708" />
	</node>
	<node lat="60.517238890490866" lon="12.178905554509685" id="-16613">
		<tag k="historic" v="shieling" />
		<tag k="name" v="Brusætra" />
		<tag k="place" v="isolated_dwelling" />
		<tag k="ssr:stedsnr" v="310913" />
	</node>
	<node lat="60.410524999316216" lon="11.927547222189713" id="-16614">
		<tag k="fixme" v="consider natural=peak for the most distinct mountains in the district" />
		<tag k="name" v="Svartberget" />
		<tag k="natural" v="hill" />
		<tag k="place" v="locality" />
		<tag k="ssr:stedsnr" v="466100" />
	</node>
	<node lat="60.37819166428164" lon="12.489002772281337" id="-16615">
		<tag k="name" v="Metsigaberget" />
		<tag k="natural" v="hill" />
		<tag k="place" v="locality" />
		<tag k="ssr:stedsnr" v="466169" />
	</node>
	<node lat="60.51813888877348" lon="12.065605556606851" id="-16616">
		<tag k="name" v="Høgmo" />
		<tag k="place" v="farm" />
		<tag k="ssr:stedsnr" v="310880" />
	</node>
	<node lat="60.53697222041211" lon="12.083752769735348" id="-16617">
		<tag k="name" v="Hestmoen" />
		<tag k="place" v="farm" />
		<tag k="ssr:stedsnr" v="310882" />
	</node>
	<node lat="60.499888886617065" lon="12.136911109057145" id="-16618">
		<tag k="alt_name" v="Monsrud, nordre" />
		<tag k="name" v="Nordre Monsrud" />
		<tag k="place" v="farm" />
		<tag k="ssr:stedsnr" v="310893" />
	</node>
	<node lat="60.366036114607404" lon="12.4139583254173" id="-16619">
		<tag k="name" v="Siggastjennsmyra" />
		<tag k="natural" v="wetland" />
		<tag k="ssr:stedsnr" v="466142" />
	</node>
	<node lat="60.373375002992226" lon="11.860861113040412" id="-16620">
		<tag k="name" v="Stortjennskoia" />
		<tag k="place" v="locality" />
		<tag k="ssr:stedsnr" v="466238" />
	</node>
	<node lat="60.386183337444706" lon="11.827902786612345" id="-16621">
		<tag k="name" v="Kjellingholmen" />
		<tag k="place" v="islet" />
		<tag k="ssr:stedsnr" v="466243" />
	</node>
	<node lat="60.51203611105423" lon="12.344952785193053" id="-16622">
		<tag k="name" v="Tierkoia" />
		<tag k="place" v="isolated_dwelling" />
		<tag k="ssr:stedsnr" v="466264" />
	</node>
	<node lat="60.50282499941804" lon="12.369388895478528" id="-16623">
		<tag k="name" v="Åsmyra" />
		<tag k="natural" v="wetland" />
		<tag k="ssr:stedsnr" v="466272" />
	</node>
	<node lat="60.29636666410633" lon="12.49823332651447" id="-16624">
		<tag k="name" v="Kesten" />
		<tag k="place" v="isolated_dwelling" />
		<tag k="ssr:stedsnr" v="466280" />
	</node>
	<node lat="60.44898333562053" lon="12.306447225837474" id="-16625">
		<tag k="name" v="Sjumannsmyra" />
		<tag k="natural" v="wetland" />
		<tag k="ssr:stedsnr" v="466393" />
	</node>
	<node lat="60.42240555679284" lon="12.253022218123455" id="-16626">
		<tag k="name" v="Abbortjennet" />
		<tag k="natural" v="water" />
		<tag k="ssr:stedsnr" v="466597" />
	</node>
	<node lat="60.41215555932948" lon="12.417388882065165" id="-16627">
		<tag k="name" v="Lukberget" />
		<tag k="natural" v="hill" />
		<tag k="place" v="locality" />
		<tag k="ssr:stedsnr" v="467039" />
	</node>
	<node lat="60.41097777507904" lon="12.311380548068696" id="-16628">
		<tag k="name" v="Vårli" />
		<tag k="place" v="isolated_dwelling" />
		<tag k="ssr:stedsnr" v="467436" />
	</node>
	<node lat="60.403969442488716" lon="12.32460555909433" id="-16629">
		<tag k="name" v="Storhaugen" />
		<tag k="natural" v="hill" />
		<tag k="place" v="locality" />
		<tag k="ssr:stedsnr" v="467469" />
	</node>
	<node lat="60.38323055345253" lon="12.386188886125694" id="-16630">
		<tag k="name" v="Rundmyrhullet" />
		<tag k="natural" v="wetland" />
		<tag k="ssr:stedsnr" v="467479" />
	</node>
	<node lat="60.50536388786234" lon="12.421722223238515" id="-16631">
		<tag k="name" v="Tørrmyra" />
		<tag k="natural" v="wetland" />
		<tag k="ssr:stedsnr" v="467895" />
	</node>
	<node lat="60.38328888583077" lon="12.002827780807134" id="-16632">
		<tag k="name" v="Nesholtet" />
		<tag k="place" v="farm" />
		<tag k="ssr:stedsnr" v="329154" />
	</node>
	<node lat="60.38632778177787" lon="12.00652223017438" id="-16633">
		<tag k="name" v="Nesteppa" />
		<tag k="place" v="farm" />
		<tag k="ssr:stedsnr" v="329155" />
	</node>
	<node lat="60.49516944655494" lon="12.007105557426542" id="-16634">
		<tag k="name" v="Åsli" />
		<tag k="place" v="farm" />
		<tag k="ssr:stedsnr" v="329202" />
	</node>
	<node lat="60.38699722515399" lon="12.425099995123743" id="-16635">
		<tag k="name" v="Lensenebben" />
		<tag k="natural" v="cape" />
		<tag k="ssr:stedsnr" v="343098" />
	</node>
	<node lat="60.442680555920774" lon="12.385408325721563" id="-16636">
		<tag k="name" v="Vatnarbekken" />
		<tag k="ssr:stedsnr" v="343357" />
		<tag k="waterway" v="stream" />
	</node>
	<node lat="60.435008333390726" lon="12.379994447835628" id="-16637">
		<tag k="landuse" v="meadow" />
		<tag k="name" v="Knappaslåtta" />
		<tag k="ssr:stedsnr" v="343360" />
	</node>
	<node lat="60.45016388756054" lon="12.372224998250186" id="-16638">
		<tag k="name" v="Langfossen" />
		<tag k="natural" v="waterfall" />
		<tag k="ssr:stedsnr" v="343362" />
	</node>
	<node lat="60.42664444435117" lon="12.35916665835874" id="-16639">
		<tag k="name" v="Maultmyra" />
		<tag k="natural" v="wetland" />
		<tag k="ssr:stedsnr" v="343395" />
	</node>
	<node lat="60.373022218845904" lon="12.546922221170215" id="-16640">
		<tag k="name" v="Rolamp" />
		<tag k="natural" v="water" />
		<tag k="ssr:stedsnr" v="343780" />
	</node>
	<node lat="60.37861666912818" lon="12.538577780149923" id="-16641">
		<tag k="fixme" v="consider natural=peak for the most distinct mountains in the district" />
		<tag k="name" v="Maurberget" />
		<tag k="natural" v="hill" />
		<tag k="place" v="locality" />
		<tag k="ssr:stedsnr" v="343781" />
	</node>
	<node lat="60.38054721966372" lon="11.858916670293578" id="-16642">
		<tag k="name" v="Helvetesdalen" />
		<tag k="natural" v="valley" />
		<tag k="place" v="locality" />
		<tag k="ssr:stedsnr" v="344217" />
	</node>
	<node lat="60.38541111351843" lon="11.877638893783791" id="-16643">
		<tag k="name" v="Korpberget" />
		<tag k="natural" v="hill" />
		<tag k="place" v="locality" />
		<tag k="ssr:stedsnr" v="344221" />
	</node>
	<node lat="60.35803055971894" lon="12.43378055123171" id="-16644">
		<tag k="name" v="Viggenlefto" />
		<tag k="place" v="locality" />
		<tag k="ssr:stedsnr" v="344116" />
	</node>
	<node lat="60.454172223791765" lon="12.484783326894846" id="-16645">
		<tag k="name" v="Rådelsbekken" />
		<tag k="ssr:stedsnr" v="345014" />
		<tag k="waterway" v="stream" />
	</node>
	<node lat="60.45274166896763" lon="12.496899996043105" id="-16646">
		<tag k="name" v="Rådelsmyra" />
		<tag k="natural" v="wetland" />
		<tag k="ssr:stedsnr" v="345021" />
	</node>
	<node lat="60.45131111274233" lon="11.964744444892398" id="-16647">
		<tag k="name" v="Myrvold" />
		<tag k="place" v="farm" />
		<tag k="ssr:stedsnr" v="344902" />
	</node>
	<node lat="60.52713055517106" lon="12.419016667487144" id="-16648">
		<tag k="name" v="Kaketjennet" />
		<tag k="natural" v="water" />
		<tag k="ssr:stedsnr" v="344912" />
	</node>
	<node lat="60.369522220596416" lon="12.343858329539348" id="-16649">
		<tag k="name" v="Grindholmsundet" />
		<tag k="natural" v="strait" />
		<tag k="ssr:stedsnr" v="345454" />
	</node>
	<node lat="60.52364166408039" lon="12.550872227341971" id="-16650">
		<tag k="name" v="Rundmyra" />
		<tag k="natural" v="wetland" />
		<tag k="ssr:stedsnr" v="345565" />
	</node>
	<node lat="60.47446389309889" lon="12.274199996014138" id="-16651">
		<tag k="name" v="Lensmannsmyra" />
		<tag k="natural" v="wetland" />
		<tag k="ssr:stedsnr" v="345568" />
	</node>
	<node lat="60.46825555883308" lon="12.28483333914887" id="-16652">
		<tag k="name" v="Sanderberget" />
		<tag k="natural" v="hill" />
		<tag k="place" v="locality" />
		<tag k="ssr:stedsnr" v="345572" />
	</node>
	<node lat="60.50771666974265" lon="12.559283326535006" id="-16653">
		<tag k="name" v="Rotbergsfløyta" />
		<tag k="natural" v="water" />
		<tag k="ssr:stedsnr" v="345574" />
		<tag k="water" v="lake" />
	</node>
	<node lat="60.493755559086686" lon="12.473658338073625" id="-16654">
		<tag k="name" v="Hagalampsmyra" />
		<tag k="natural" v="wetland" />
		<tag k="ssr:stedsnr" v="345971" />
	</node>
	<node lat="60.46216944261751" lon="12.514299993154273" id="-16655">
		<tag k="name" v="Haukåsmyra" />
		<tag k="natural" v="wetland" />
		<tag k="ssr:stedsnr" v="345973" />
	</node>
	<node lat="60.42959722389239" lon="12.044263894502178" id="-16656">
		<tag k="bridge" v="yes" />
		<tag k="layer" v="1" />
		<tag k="name" v="Kongshov bru" />
		<tag k="ssr:stedsnr" v="349712" />
	</node>
	<node lat="60.3837916658184" lon="12.008413897734734" id="-16657">
		<tag k="bridge" v="yes" />
		<tag k="layer" v="1" />
		<tag k="name" v="Neså" />
		<tag k="ssr:stedsnr" v="349713" />
	</node>
	<node lat="60.47726388481328" lon="12.606419449463743" id="-16658">
		<tag k="historic" v="boundary_stone" />
		<tag k="man_made" v="cairn" />
		<tag k="name" v="Vegrøysa" />
		<tag k="old_name" v="Vej Røset" />
		<tag k="place" v="locality" />
		<tag k="ssr:stedsnr" v="474722" />
	</node>
	<node lat="60.46973889109242" lon="12.396311115184469" id="-16660">
		<tag k="name" v="Frautjennsmyrene" />
		<tag k="natural" v="wetland" />
		<tag k="ssr:stedsnr" v="358304" />
	</node>
	<node lat="60.473608335169914" lon="12.305716674180987" id="-16661">
		<tag k="name" v="Solliberghjemmet" />
		<tag k="place" v="locality" />
		<tag k="ssr:stedsnr" v="358313" />
	</node>
	<node lat="60.375780552829134" lon="12.24759166336799" id="-16662">
		<tag k="name" v="Stormyra" />
		<tag k="natural" v="wetland" />
		<tag k="ssr:stedsnr" v="358516" />
	</node>
	<node lat="60.456827780224074" lon="12.196674997339414" id="-16663">
		<tag k="name" v="Vollstadberget" />
		<tag k="old_name" v="Voldstadberget" />
		<tag k="place" v="locality" />
		<tag k="ssr:stedsnr" v="358608" />
	</node>
	<node lat="60.436102774544146" lon="12.147727774518698" id="-16664">
		<tag k="name" v="Tysjøholene" />
		<tag k="place" v="locality" />
		<tag k="ssr:stedsnr" v="358922" />
	</node>
	<node lat="60.36047500079095" lon="12.534391673186226" id="-16665">
		<tag k="name" v="Særkilamp" />
		<tag k="natural" v="water" />
		<tag k="ssr:stedsnr" v="358899" />
	</node>
	<node lat="60.44998333643943" lon="12.175105548327577" id="-16666">
		<tag k="name" v="Nordnesset" />
		<tag k="place" v="locality" />
		<tag k="ssr:stedsnr" v="358999" />
	</node>
	<node lat="60.352352778107246" lon="12.507552776749854" id="-16667">
		<tag k="name" v="Haugen" />
		<tag k="place" v="isolated_dwelling" />
		<tag k="ssr:stedsnr" v="360115" />
	</node>
	<node lat="60.48530555397067" lon="11.88806389643356" id="-16668">
		<tag k="name" v="Abbortjennsbekken" />
		<tag k="ssr:stedsnr" v="360063" />
		<tag k="waterway" v="stream" />
	</node>
	<node lat="60.39969722625037" lon="12.418838895198204" id="-16669">
		<tag k="historic" v="shieling" />
		<tag k="name" v="Skjelvervollen" />
		<tag k="place" v="locality" />
		<tag k="ssr:stedsnr" v="360076" />
	</node>
	<node lat="60.40245833742615" lon="12.461133333097395" id="-16670">
		<tag k="name" v="Dammyra" />
		<tag k="natural" v="wetland" />
		<tag k="ssr:stedsnr" v="479081" />
	</node>
	<node lat="60.38270555706628" lon="12.426202781255952" id="-16671">
		<tag k="name" v="Krokmyra" />
		<tag k="natural" v="wetland" />
		<tag k="ssr:stedsnr" v="479089" />
	</node>
	<node lat="60.48646111232245" lon="12.57296111850439" id="-16672">
		<tag k="name" v="Røgdekoia" />
		<tag k="place" v="farm" />
		<tag k="ssr:stedsnr" v="370103" />
	</node>
	<node lat="60.30952222237944" lon="12.492894444615326" id="-16673">
		<tag k="name" v="Sågæru" />
		<tag k="place" v="locality" />
		<tag k="ssr:stedsnr" v="479199" />
	</node>
	<node lat="60.43166388539357" lon="12.273430549549545" id="-16674">
		<tag k="historic" v="shieling" />
		<tag k="name" v="Veltsætra" />
		<tag k="place" v="isolated_dwelling" />
		<tag k="ssr:stedsnr" v="370006" />
	</node>
	<node lat="60.42806110979809" lon="12.400225007042783" id="-16675">
		<tag k="name" v="Steinetjenn" />
		<tag k="natural" v="water" />
		<tag k="ssr:stedsnr" v="370015" />
	</node>
	<node lat="60.39123055531916" lon="12.457197228187457" id="-16676">
		<tag k="name" v="Lomtjenna" />
		<tag k="natural" v="water" />
		<tag k="ssr:stedsnr" v="370074" />
		<tag k="water" v="lake" />
	</node>
	<node lat="60.376261108746554" lon="12.357299998089124" id="-16677">
		<tag k="name" v="Villa Skasen" />
		<tag k="place" v="isolated_dwelling" />
		<tag k="ssr:stedsnr" v="370081" />
	</node>
	<node lat="60.31400277796755" lon="12.490780550110381" id="-16678">
		<tag k="name" v="Rybråtan" />
		<tag k="place" v="farm" />
		<tag k="ssr:stedsnr" v="370161" />
	</node>
	<node lat="60.39736666306332" lon="11.934938894710381" id="-16679">
		<tag k="alt_name" v="Letjennskoia" />
		<tag k="name" v="Lemyrkoia" />
		<tag k="place" v="isolated_dwelling" />
		<tag k="ssr:stedsnr" v="370366" />
	</node>
	<node lat="60.4112583300446" lon="12.148458341971132" id="-16680">
		<tag k="name" v="Aurbekken" />
		<tag k="ssr:stedsnr" v="370375" />
		<tag k="waterway" v="stream" />
	</node>
	<node lat="60.3940666650394" lon="11.968286107566671" id="-16681">
		<tag k="alt_name" v="Skarliberget" />
		<tag k="name" v="Skaraliberget" />
		<tag k="natural" v="hill" />
		<tag k="place" v="locality" />
		<tag k="ssr:stedsnr" v="370381" />
	</node>
	<node lat="60.32708611501484" lon="12.47447499948816" id="-16682">
		<tag k="name" v="Ladagådaso" />
		<tag k="natural" v="wetland" />
		<tag k="ssr:stedsnr" v="370285" />
	</node>
	<node lat="60.37030555168195" lon="11.912586103299859" id="-16683">
		<tag k="alt_name" v="Mjågmyra, s;Mjågmyra, søndre" />
		<tag k="name" v="Søndre Mjågmyra" />
		<tag k="natural" v="wetland" />
		<tag k="ssr:stedsnr" v="370402" />
	</node>
	<node lat="60.37162222142125" lon="12.12656110636517" id="-16684">
		<tag k="historic" v="shieling" />
		<tag k="name" v="Veltsætra" />
		<tag k="place" v="isolated_dwelling" />
		<tag k="ssr:stedsnr" v="370407" />
	</node>
	<node lat="60.38577499615666" lon="12.064505550614628" id="-16685">
		<tag k="name" v="Djupdalsbekken" />
		<tag k="ssr:stedsnr" v="370410" />
		<tag k="waterway" v="stream" />
	</node>
	<node lat="60.385413888247314" lon="12.012502778088837" id="-16686">
		<tag k="name" v="Østmo" />
		<tag k="place" v="farm" />
		<tag k="ssr:stedsnr" v="370412" />
	</node>
	<node lat="60.39256110808163" lon="11.899650007380544" id="-16687">
		<tag k="name" v="Sætermyra" />
		<tag k="natural" v="wetland" />
		<tag k="ssr:stedsnr" v="370416" />
	</node>
	<node lat="60.421858335468535" lon="12.02060833551039" id="-16688">
		<tag k="name" v="Neset" />
		<tag k="place" v="farm" />
		<tag k="ssr:stedsnr" v="370707" />
	</node>
	<node lat="60.43640277610776" lon="11.82567222188198" id="-16689">
		<tag k="historic" v="shieling" />
		<tag k="name" v="Saltjennsætra" />
		<tag k="place" v="isolated_dwelling" />
		<tag k="ssr:stedsnr" v="370771" />
	</node>
	<node lat="60.46615833108833" lon="12.051219442449305" id="-16690">
		<tag k="name" v="Byrønningen" />
		<tag k="place" v="farm" />
		<tag k="ssr:stedsnr" v="370660" />
	</node>
	<node lat="60.45866542589246" lon="11.843727462451884" id="-16691">
		<tag k="name" v="Kjølsetsætra" />
		<tag k="place" v="locality" />
		<tag k="ssr:stedsnr" v="370662" />
	</node>
	<node lat="60.49579166495897" lon="12.062816667873879" id="-16692">
		<tag k="alt_name" v="Hagen" />
		<tag k="name" v="Stemsrudshagen" />
		<tag k="place" v="farm" />
		<tag k="ssr:stedsnr" v="370682" />
	</node>
	<node lat="60.4979361112949" lon="12.133880557523021" id="-16693">
		<tag k="name" v="Torstjennet" />
		<tag k="natural" v="water" />
		<tag k="ssr:stedsnr" v="370684" />
	</node>
	<node lat="60.48266239348645" lon="11.980846834361158" id="-16694">
		<tag k="fixme" v="consider place=hamlet" />
		<tag k="name" v="Holt" />
		<tag k="place" v="farm" />
		<tag k="ssr:stedsnr" v="370690" />
	</node>
	<node lat="60.47053611298366" lon="11.798219451077156" id="-16695">
		<tag k="historic" v="shieling" />
		<tag k="name" v="Sætersætra" />
		<tag k="place" v="isolated_dwelling" />
		<tag k="ssr:stedsnr" v="370826" />
	</node>
	<node lat="60.46209999706846" lon="12.366530562437939" id="-16696">
		<tag k="name" v="Rønningen" />
		<tag k="place" v="locality" />
		<tag k="ssr:stedsnr" v="479318" />
	</node>
	<node lat="60.46619999923516" lon="12.359044446389653" id="-16697">
		<tag k="name" v="Trollkjerka" />
		<tag k="natural" v="hill" />
		<tag k="place" v="locality" />
		<tag k="ssr:stedsnr" v="479320" />
	</node>
	<node lat="60.456872223944536" lon="12.349041661905135" id="-16698">
		<tag k="name" v="Knapparønningen" />
		<tag k="place" v="locality" />
		<tag k="ssr:stedsnr" v="479322" />
	</node>
	<node lat="60.47131388863506" lon="12.298655562212836" id="-16699">
		<tag k="historic" v="shieling" />
		<tag k="name" v="Haugastuggua" />
		<tag k="place" v="locality" />
		<tag k="ssr:stedsnr" v="479328" />
	</node>
	<node lat="60.46684999781702" lon="12.29525555415291" id="-16700">
		<tag k="name" v="Tjernmyrene" />
		<tag k="natural" v="wetland" />
		<tag k="ssr:stedsnr" v="479341" />
	</node>
	<node lat="60.43621666499185" lon="12.294219452810971" id="-16701">
		<tag k="name" v="Haugmyra" />
		<tag k="natural" v="wetland" />
		<tag k="ssr:stedsnr" v="479345" />
	</node>
	<node lat="60.4338611100091" lon="12.297538892003972" id="-16702">
		<tag k="name" v="Starrmyra" />
		<tag k="natural" v="wetland" />
		<tag k="ssr:stedsnr" v="479346" />
	</node>
	<node lat="60.500266665511056" lon="12.205402775328718" id="-16703">
		<tag k="name" v="Hesttjennkoia" />
		<tag k="place" v="isolated_dwelling" />
		<tag k="ssr:stedsnr" v="371920" />
	</node>
	<node lat="60.5068638916735" lon="12.193363886659355" id="-16704">
		<tag k="alt_name" v="Jannåtjennet" />
		<tag k="name" v="Jernåtjennet" />
		<tag k="natural" v="water" />
		<tag k="ssr:stedsnr" v="371921" />
	</node>
	<node lat="60.47453056009394" lon="12.195880551833627" id="-16705">
		<tag k="name" v="Svarttjennet" />
		<tag k="natural" v="water" />
		<tag k="ssr:stedsnr" v="479596" />
	</node>
	<node lat="60.5109666646398" lon="11.95390277010506" id="-16706">
		<tag k="name" v="Bjørnbekken" />
		<tag k="ssr:stedsnr" v="480075" />
		<tag k="waterway" v="stream" />
	</node>
	<node lat="60.37806388565703" lon="12.26761110896541" id="-16707">
		<tag k="name" v="Jønsøkmyra" />
		<tag k="natural" v="wetland" />
		<tag k="ssr:stedsnr" v="480535" />
	</node>
	<node lat="60.450300003257254" lon="12.23180555708222" id="-16708">
		<tag k="name" v="Holstadberget" />
		<tag k="natural" v="hill" />
		<tag k="place" v="locality" />
		<tag k="ssr:stedsnr" v="480590" />
	</node>
	<node lat="60.390266669692075" lon="12.185530559531825" id="-16709">
		<tag k="name" v="Langtjennsdulpene" />
		<tag k="natural" v="water" />
		<tag k="ssr:stedsnr" v="480546" />
		<tag k="water" v="lake" />
	</node>
	<node lat="60.398916666693125" lon="11.939616667023877" id="-16710">
		<tag k="name" v="Lemyra" />
		<tag k="natural" v="wetland" />
		<tag k="ssr:stedsnr" v="482083" />
	</node>
	<node lat="60.374366665124754" lon="12.411141665475943" id="-16711">
		<tag k="name" v="Helgeklinten" />
		<tag k="natural" v="hill" />
		<tag k="place" v="locality" />
		<tag k="ssr:stedsnr" v="482093" />
	</node>
	<node lat="60.40535277417751" lon="12.38406111765493" id="-16712">
		<tag k="name" v="Langdalen" />
		<tag k="natural" v="valley" />
		<tag k="place" v="locality" />
		<tag k="ssr:stedsnr" v="482438" />
	</node>
	<node lat="60.40935833734701" lon="12.394502773093784" id="-16713">
		<tag k="landuse" v="quarry" />
		<tag k="name" v="Gjevertgrustaket" />
		<tag k="ssr:stedsnr" v="482444" />
	</node>
	<node lat="60.39543610825568" lon="11.87048333849403" id="-16714">
		<tag k="name" v="Paso" />
		<tag k="place" v="locality" />
		<tag k="ssr:stedsnr" v="482572" />
	</node>
	<node lat="60.46104722322009" lon="12.284641662709861" id="-16715">
		<tag k="historic" v="shieling" />
		<tag k="name" v="Gammelvollen" />
		<tag k="place" v="locality" />
		<tag k="ssr:stedsnr" v="482592" />
	</node>
	<node lat="60.4971888854291" lon="12.12625554612501" id="-16716">
		<tag k="name" v="Steinberg" />
		<tag k="place" v="farm" />
		<tag k="ssr:stedsnr" v="482801" />
	</node>
	<node lat="60.455661111419396" lon="12.408769452808372" id="-16717">
		<tag k="name" v="Halvortjennet" />
		<tag k="natural" v="water" />
		<tag k="ssr:stedsnr" v="482950" />
	</node>
	<node lat="60.44559167055674" lon="12.003761105301843" id="-16718">
		<tag k="name" v="Brattli" />
		<tag k="place" v="farm" />
		<tag k="ssr:stedsnr" v="390162" />
	</node>
	<node lat="60.37221666999164" lon="12.102555561302818" id="-16719">
		<tag k="name" v="Storholtkoia" />
		<tag k="place" v="isolated_dwelling" />
		<tag k="ssr:stedsnr" v="390206" />
	</node>
	<node lat="60.38418332997943" lon="11.992094447147966" id="-16720">
		<tag k="name" v="Korshella" />
		<tag k="place" v="farm" />
		<tag k="ssr:stedsnr" v="390636" />
	</node>
	<node lat="60.396019442350955" lon="12.058330552077397" id="-16721">
		<tag k="alt_name" v="Korsmo søndre" />
		<tag k="name" v="Søndre Korsmo" />
		<tag k="place" v="farm" />
		<tag k="ssr:stedsnr" v="390749" />
	</node>
	<node lat="60.429963892508376" lon="12.052613885742353" id="-16722">
		<tag k="fixme" v="consider boundary=protected_area and relevant protect_class if not nature reserve" />
		<tag k="leisure" v="nature_reserve" />
		<tag k="name" v="Gardsjøen naturreservat" />
		<tag k="ssr:stedsnr" v="390810" />
	</node>
	<node lat="60.39345277380714" lon="12.110977778057675" id="-16723">
		<tag k="historic" v="shieling" />
		<tag k="name" v="Tostenbølsætra" />
		<tag k="place" v="isolated_dwelling" />
		<tag k="ssr:stedsnr" v="391139" />
	</node>
	<node lat="60.43634444107732" lon="12.545247221302803" id="-16724">
		<tag k="name" v="Gomalsmyra" />
		<tag k="natural" v="wetland" />
		<tag k="ssr:stedsnr" v="483691" />
	</node>
	<node lat="60.45066666603401" lon="11.91351389613395" id="-16725">
		<tag k="name" v="Lemyra" />
		<tag k="natural" v="wetland" />
		<tag k="ssr:stedsnr" v="484092" />
	</node>
	<node lat="60.441236107033966" lon="11.979327776102576" id="-16726">
		<tag k="name" v="Rådelsbekken" />
		<tag k="ssr:stedsnr" v="484871" />
		<tag k="waterway" v="stream" />
	</node>
	<node lat="60.506269446076516" lon="12.461394435941738" id="-16727">
		<tag k="name" v="Helveteskjella" />
		<tag k="natural" v="water" />
		<tag k="ssr:stedsnr" v="403904" />
	</node>
	<node lat="60.466749999641316" lon="12.513563892807674" id="-16728">
		<tag k="name" v="Brusmyra" />
		<tag k="natural" v="wetland" />
		<tag k="ssr:stedsnr" v="403976" />
	</node>
	<node lat="60.34544166394859" lon="12.478038896819928" id="-16729">
		<tag k="name" v="Jærviharjo" />
		<tag k="place" v="isolated_dwelling" />
		<tag k="ssr:stedsnr" v="404209" />
	</node>
	<node lat="60.33147778050064" lon="12.496297218457324" id="-16730">
		<tag k="fixme" v="consider natural=peak for the most distinct mountains in the district" />
		<tag k="name" v="Høybråtåberget" />
		<tag k="natural" v="hill" />
		<tag k="place" v="locality" />
		<tag k="ssr:stedsnr" v="404211" />
	</node>
	<node lat="60.52002499875849" lon="12.299836102924756" id="-16731">
		<tag k="name" v="Rundtjennkoia" />
		<tag k="place" v="isolated_dwelling" />
		<tag k="ssr:stedsnr" v="404238" />
	</node>
	<node lat="60.486363890581806" lon="12.350158335488038" id="-16732">
		<tag k="name" v="Austmyra" />
		<tag k="natural" v="wetland" />
		<tag k="ssr:stedsnr" v="404285" />
	</node>
	<node lat="60.48363888884893" lon="12.37562222559671" id="-16733">
		<tag k="name" v="Søndre Pelsholen" />
		<tag k="place" v="farm" />
		<tag k="ssr:stedsnr" v="404287" />
	</node>
	<node lat="60.48908333771112" lon="12.378172219866036" id="-16734">
		<tag k="name" v="Revmyra" />
		<tag k="natural" v="wetland" />
		<tag k="ssr:stedsnr" v="404292" />
	</node>
	<node lat="60.49485000158411" lon="12.401875004462683" id="-16735">
		<tag k="name" v="Brennmyra" />
		<tag k="natural" v="wetland" />
		<tag k="ssr:stedsnr" v="404295" />
	</node>
	<node lat="60.45048889164898" lon="12.395308327684539" id="-16736">
		<tag k="name" v="Rundsteinsmyra" />
		<tag k="natural" v="wetland" />
		<tag k="ssr:stedsnr" v="404381" />
	</node>
	<node lat="60.42241388608551" lon="12.372477782233279" id="-16737">
		<tag k="name" v="Jannmyra" />
		<tag k="natural" v="wetland" />
		<tag k="ssr:stedsnr" v="404393" />
	</node>
	<node lat="60.51009722256691" lon="12.1927888933652" id="-16738">
		<tag k="name" v="Bjønnstein" />
		<tag k="natural" v="stone" />
		<tag k="ssr:stedsnr" v="404612" />
	</node>
	<node lat="60.5046388877525" lon="12.207925006490774" id="-16739">
		<tag k="name" v="Myssmørbekken" />
		<tag k="ssr:stedsnr" v="404614" />
		<tag k="waterway" v="stream" />
	</node>
	<node lat="60.38749999864388" lon="12.56470277289212" id="-16740">
		<tag k="name" v="Karvasdorpa" />
		<tag k="place" v="locality" />
		<tag k="ssr:stedsnr" v="404792" />
	</node>
	<node lat="60.39016388728806" lon="12.550033340117066" id="-16741">
		<tag k="name" v="Porkalamyra" />
		<tag k="natural" v="wetland" />
		<tag k="ssr:stedsnr" v="404795" />
	</node>
	<node lat="60.382975000975186" lon="12.546736111960696" id="-16742">
		<tag k="name" v="Raisahå" />
		<tag k="place" v="locality" />
		<tag k="ssr:stedsnr" v="404797" />
	</node>
	<node lat="60.38499722175151" lon="12.561652779967359" id="-16743">
		<tag k="name" v="Heggendorpa" />
		<tag k="place" v="locality" />
		<tag k="ssr:stedsnr" v="404798" />
	</node>
	<node lat="60.52031944842703" lon="12.385336104381052" id="-16744">
		<tag k="name" v="Bakketjennet" />
		<tag k="natural" v="water" />
		<tag k="ssr:stedsnr" v="405245" />
	</node>
	<node lat="60.350294448927755" lon="12.458655551712896" id="-16745">
		<tag k="name" v="Gjeddtjennsmyra" />
		<tag k="natural" v="wetland" />
		<tag k="ssr:stedsnr" v="405186" />
	</node>
	<node lat="60.35351666574677" lon="12.439902776112055" id="-16746">
		<tag k="name" v="Søndre Avmyra" />
		<tag k="natural" v="wetland" />
		<tag k="ssr:stedsnr" v="405188" />
	</node>
	<node lat="60.529916662788004" lon="12.44047778022964" id="-16747">
		<tag k="name" v="Skjultjennsmyra" />
		<tag k="natural" v="wetland" />
		<tag k="ssr:stedsnr" v="405948" />
	</node>
	<node lat="60.49495277347468" lon="12.148347216723188" id="-16748">
		<tag k="name" v="Monsrudberget" />
		<tag k="place" v="locality" />
		<tag k="ssr:stedsnr" v="405837" />
	</node>
	<node lat="60.4822499986692" lon="12.119338890871383" id="-16749">
		<tag k="name" v="Prestefallet" />
		<tag k="place" v="locality" />
		<tag k="ssr:stedsnr" v="405838" />
	</node>
	<node lat="60.38109444528551" lon="12.352230554326617" id="-16750">
		<tag k="name" v="Måkeskjær" />
		<tag k="place" v="islet" />
		<tag k="ssr:stedsnr" v="406504" />
	</node>
	<node lat="60.37163333061047" lon="12.363213895434145" id="-16751">
		<tag k="name" v="Stallvikbrakka" />
		<tag k="place" v="locality" />
		<tag k="ssr:stedsnr" v="406506" />
	</node>
	<node lat="60.504672221110546" lon="12.412747227089843" id="-16752">
		<tag k="name" v="Kontorpet" />
		<tag k="natural" v="hill" />
		<tag k="place" v="locality" />
		<tag k="ssr:stedsnr" v="406901" />
	</node>
	<node lat="60.37059444777978" lon="11.955527771527349" id="-16753">
		<tag k="name" v="Rastakoia" />
		<tag k="place" v="isolated_dwelling" />
		<tag k="ssr:stedsnr" v="419034" />
	</node>
	<node lat="60.40935277958024" lon="12.433480562574834" id="-16754">
		<tag k="name" v="Breimyra" />
		<tag k="natural" v="wetland" />
		<tag k="ssr:stedsnr" v="419090" />
	</node>
	<node lat="60.455463887502404" lon="12.357530561431938" id="-16755">
		<tag k="name" v="Knappakverna" />
		<tag k="place" v="locality" />
		<tag k="ssr:stedsnr" v="419326" />
	</node>
	<node lat="60.46924166816079" lon="12.297386113224606" id="-16756">
		<tag k="name" v="Vestre Sollia" />
		<tag k="place" v="isolated_dwelling" />
		<tag k="ssr:stedsnr" v="419329" />
	</node>
	<node lat="60.472075000230745" lon="12.302233326145247" id="-16757">
		<tag k="historic" v="shieling" />
		<tag k="name" v="Myrstuggua" />
		<tag k="place" v="locality" />
		<tag k="ssr:stedsnr" v="419330" />
	</node>
	<node lat="60.46737777535644" lon="12.219430555598809" id="-16758">
		<tag k="name" v="Nysæterberget" />
		<tag k="place" v="locality" />
		<tag k="ssr:stedsnr" v="419603" />
	</node>
	<node lat="60.46463611175496" lon="12.339508336579886" id="-16759">
		<tag k="name" v="Gråbeinmyra" />
		<tag k="natural" v="wetland" />
		<tag k="ssr:stedsnr" v="419335" />
	</node>
	<node lat="60.47139166624726" lon="12.206633331078766" id="-16760">
		<tag k="name" v="Anderstjennet" />
		<tag k="natural" v="water" />
		<tag k="ssr:stedsnr" v="419587" />
	</node>
	<node lat="60.46787777345415" lon="12.200199994268004" id="-16761">
		<tag k="name" v="Andersbekken" />
		<tag k="ssr:stedsnr" v="419589" />
		<tag k="waterway" v="stream" />
	</node>
	<node lat="60.45581388980454" lon="12.191038881476134" id="-16762">
		<tag k="name" v="Fjøsmyra" />
		<tag k="natural" v="wetland" />
		<tag k="ssr:stedsnr" v="419598" />
	</node>
	<node lat="60.39466389118284" lon="12.147508332614786" id="-16763">
		<tag k="name" v="Køybekken" />
		<tag k="old_name" v="Køibekken" />
		<tag k="ssr:stedsnr" v="419900" />
		<tag k="waterway" v="stream" />
	</node>
	<node lat="60.34579722476093" lon="12.52738334097144" id="-16764">
		<tag k="name" v="Vennersholen" />
		<tag k="place" v="locality" />
		<tag k="ssr:stedsnr" v="419905" />
	</node>
	<node lat="60.413211107083015" lon="12.157177775075153" id="-16765">
		<tag k="name" v="Sjøli" />
		<tag k="place" v="locality" />
		<tag k="ssr:stedsnr" v="419934" />
	</node>
	<node lat="60.443344442182436" lon="11.814547216276557" id="-16766">
		<tag k="name" v="Klyptjennet" />
		<tag k="natural" v="water" />
		<tag k="ssr:stedsnr" v="421613" />
	</node>
	<node lat="60.39170278055517" lon="12.536888882628242" id="-16767">
		<tag k="name" v="Kalvmyra" />
		<tag k="natural" v="wetland" />
		<tag k="ssr:stedsnr" v="421829" />
	</node>
	<node lat="60.40071666650756" lon="11.95761110833502" id="-16768">
		<tag k="name" v="Skaralangmyrtjennet" />
		<tag k="natural" v="water" />
		<tag k="ssr:stedsnr" v="422095" />
	</node>
	<node lat="60.495905557016066" lon="12.099366657897129" id="-16769">
		<tag k="alt_name" v="Navnerud søndre" />
		<tag k="name" v="Namerud" />
		<tag k="place" v="farm" />
		<tag k="ssr:stedsnr" v="422389" />
	</node>
	<node lat="60.372102781966774" lon="12.185927772463192" id="-16770">
		<tag k="name" v="Mellemtjennsdulpa" />
		<tag k="natural" v="water" />
		<tag k="ssr:stedsnr" v="422530" />
	</node>
	<node lat="60.38026666905181" lon="12.197072228194958" id="-16771">
		<tag k="name" v="Grusetkoia" />
		<tag k="place" v="locality" />
		<tag k="ssr:stedsnr" v="422531" />
	</node>
	<node lat="60.438827775733216" lon="11.838700007185912" id="-16772">
		<tag k="name" v="Saltjennsdammen" />
		<tag k="ssr:stedsnr" v="423043" />
		<tag k="waterway" v="dam" />
	</node>
	<node lat="60.51163610722484" lon="12.151197218699451" id="-16773">
		<tag k="name" v="Granerud" />
		<tag k="place" v="isolated_dwelling" />
		<tag k="ssr:stedsnr" v="423820" />
	</node>
	<node lat="60.4454249995829" lon="11.972263881407677" id="-16774">
		<tag k="name" v="Åsermyra" />
		<tag k="natural" v="wetland" />
		<tag k="ssr:stedsnr" v="423899" />
	</node>
	<node lat="60.39194166359237" lon="12.43232499528289" id="-16775">
		<tag k="name" v="Nilsbråten" />
		<tag k="place" v="farm" />
		<tag k="ssr:stedsnr" v="491045" />
	</node>
	<node lat="60.385194442411326" lon="12.497116658082565" id="-16776">
		<tag k="name" v="Sandsjøen" />
		<tag k="natural" v="water" />
		<tag k="ssr:stedsnr" v="491062" />
	</node>
	<node lat="60.49278889270364" lon="12.296600002822785" id="-16777">
		<tag k="name" v="Styggdalsberget" />
		<tag k="natural" v="hill" />
		<tag k="place" v="locality" />
		<tag k="ssr:stedsnr" v="491070" />
	</node>
	<node lat="60.458316669637824" lon="12.414427770841264" id="-16778">
		<tag k="name" v="Langtjennet" />
		<tag k="natural" v="water" />
		<tag k="ssr:stedsnr" v="491111" />
	</node>
	<node lat="60.35038333571144" lon="12.469413897217049" id="-16779">
		<tag k="alt_name" v="Østberget, s" />
		<tag k="name" v="Søndre Østberget" />
		<tag k="place" v="isolated_dwelling" />
		<tag k="ssr:stedsnr" v="491236" />
	</node>
	<node lat="60.4401472181695" lon="12.500574993568318" id="-16780">
		<tag k="name" v="Gammeltorpet" />
		<tag k="place" v="isolated_dwelling" />
		<tag k="ssr:stedsnr" v="431001" />
	</node>
	<node lat="60.47159167040347" lon="12.403783336625652" id="-16781">
		<tag k="name" v="Høytjennet" />
		<tag k="natural" v="water" />
		<tag k="ssr:stedsnr" v="431119" />
	</node>
	<node lat="60.405905553631406" lon="12.605699996842977" id="-16782">
		<tag k="fixme" v="consider natural=peak for the most distinct mountains in the district" />
		<tag k="name" v="Moldusen" />
		<tag k="natural" v="hill" />
		<tag k="place" v="locality" />
		<tag k="ssr:stedsnr" v="431044" />
	</node>
	<node lat="60.39065555717185" lon="12.381519445177224" id="-16783">
		<tag k="name" v="Skrivilen" />
		<tag k="natural" v="hill" />
		<tag k="place" v="locality" />
		<tag k="ssr:stedsnr" v="431062" />
	</node>
	<node lat="60.46417500411756" lon="12.24549444023672" id="-16784">
		<tag k="name" v="Aurkyttjennet" />
		<tag k="natural" v="water" />
		<tag k="ssr:stedsnr" v="431098" />
	</node>
	<node lat="60.4821166665232" lon="12.575958333541532" id="-16785">
		<tag k="name" v="Svartbekken" />
		<tag k="ssr:stedsnr" v="431101" />
		<tag k="waterway" v="stream" />
	</node>
	<node lat="60.37056666331249" lon="12.552919436329137" id="-16786">
		<tag k="name" v="Kalsjøvika" />
		<tag k="place" v="isolated_dwelling" />
		<tag k="ssr:stedsnr" v="431214" />
	</node>
	<node lat="60.34830277737561" lon="12.460447223400603" id="-16787">
		<tag k="name" v="Gjeddetjennet" />
		<tag k="natural" v="water" />
		<tag k="ssr:stedsnr" v="431256" />
	</node>
	<node lat="60.35774721934757" lon="11.863161106555163" id="-16788">
		<tag k="name" v="Fossæter" />
		<tag k="place" v="farm" />
		<tag k="ssr:stedsnr" v="431308" />
	</node>
	<node lat="60.4034166660586" lon="12.087502769787402" id="-16789">
		<tag k="name" v="Åsli" />
		<tag k="place" v="farm" />
		<tag k="ssr:stedsnr" v="431345" />
	</node>
	<node lat="60.41479444196948" lon="11.986349993623913" id="-16790">
		<tag k="fixme" v="consider natural=peak for the most distinct mountains in the district" />
		<tag k="name" v="Kulåsen" />
		<tag k="natural" v="hill" />
		<tag k="place" v="locality" />
		<tag k="ssr:stedsnr" v="431358" />
	</node>
	<node lat="60.39301111506115" lon="11.930844447389875" id="-16791">
		<tag k="name" v="Linndalsberget" />
		<tag k="natural" v="hill" />
		<tag k="place" v="locality" />
		<tag k="ssr:stedsnr" v="431395" />
	</node>
	<node lat="60.391691664431875" lon="11.881127770244627" id="-16792">
		<tag k="name" v="Holmtjennet" />
		<tag k="natural" v="water" />
		<tag k="ssr:stedsnr" v="431397" />
	</node>
	<node lat="60.39280833045404" lon="12.212211111455824" id="-16793">
		<tag k="name" v="Frysjøberget" />
		<tag k="place" v="farm" />
		<tag k="ssr:stedsnr" v="431403" />
	</node>
	<node lat="60.482158335411576" lon="12.031761112427981" id="-16794">
		<tag k="name" v="Jara" />
		<tag k="place" v="locality" />
		<tag k="ssr:stedsnr" v="431646" />
	</node>
	<node lat="60.47573611386747" lon="11.862094437929496" id="-16795">
		<tag k="historic" v="shieling" />
		<tag k="name" v="Nybosætra" />
		<tag k="place" v="isolated_dwelling" />
		<tag k="ssr:stedsnr" v="431653" />
	</node>
	<node lat="60.4045277794226" lon="12.085897225371545" id="-16796">
		<tag k="name" v="Åserud" />
		<tag k="place" v="farm" />
		<tag k="ssr:stedsnr" v="491334" />
	</node>
	<node lat="60.48279166793124" lon="11.950105552147013" id="-16797">
		<tag k="name" v="Rusvekk" />
		<tag k="place" v="farm" />
		<tag k="ssr:stedsnr" v="431703" />
	</node>
	<node lat="60.48788889277171" lon="11.934347219803698" id="-16798">
		<tag k="name" v="Bekkesletta" />
		<tag k="place" v="farm" />
		<tag k="ssr:stedsnr" v="431704" />
	</node>
	<node lat="60.48799895666412" lon="12.01606616491754" id="-16799">
		<tag k="fixme" v="consider place=hamlet" />
		<tag k="name" v="Sund" />
		<tag k="place" v="farm" />
		<tag k="ssr:stedsnr" v="431705" />
	</node>
	<node lat="60.48453888569187" lon="11.989186113908485" id="-16800">
		<tag k="name" v="Ibenholt" />
		<tag k="place" v="farm" />
		<tag k="ssr:stedsnr" v="431706" />
	</node>
	<node lat="60.481121105423135" lon="12.01853090547669" id="-16801">
		<tag k="name" v="Holmen" />
		<tag k="place" v="hamlet" />
		<tag k="ssr:stedsnr" v="431707" />
	</node>
	<node lat="60.435450004392365" lon="11.929758331898933" id="-16802">
		<tag k="name" v="Høgbergsbekken" />
		<tag k="ssr:stedsnr" v="431710" />
		<tag k="waterway" v="stream" />
	</node>
	<node lat="60.424811112210655" lon="11.843947230995575" id="-16803">
		<tag k="name" v="Bukkeberget" />
		<tag k="natural" v="hill" />
		<tag k="place" v="locality" />
		<tag k="ssr:stedsnr" v="431720" />
	</node>
	<node lat="60.43677972919457" lon="12.062340936098588" id="-16804">
		<tag k="fixme" v="consider place=hamlet" />
		<tag k="name" v="Skjelver" />
		<tag k="place" v="farm" />
		<tag k="ssr:stedsnr" v="431721" />
	</node>
	<node lat="60.43318723171481" lon="12.091469738965284" id="-16805">
		<tag k="fixme" v="consider place=hamlet" />
		<tag k="name" v="Hårstad" />
		<tag k="place" v="farm" />
		<tag k="ssr:stedsnr" v="431722" />
	</node>
	<node lat="60.4248916706607" lon="12.071952769190204" id="-16806">
		<tag k="name" v="Daler" />
		<tag k="place" v="farm" />
		<tag k="ssr:stedsnr" v="431726" />
	</node>
	<node lat="60.421900003972794" lon="11.914852769167446" id="-16807">
		<tag k="historic" v="shieling" />
		<tag k="name" v="Oppsetsætra" />
		<tag k="place" v="isolated_dwelling" />
		<tag k="ssr:stedsnr" v="431728" />
	</node>
	<node lat="60.430669441347746" lon="12.210622219081218" id="-16808">
		<tag k="name" v="Gjedtjernet" />
		<tag k="place" v="farm" />
		<tag k="ssr:stedsnr" v="431733" />
	</node>
	<node lat="60.413200003138826" lon="11.871111111456104" id="-16809">
		<tag k="name" v="Stormyra" />
		<tag k="natural" v="wetland" />
		<tag k="ssr:stedsnr" v="431736" />
	</node>
	<node lat="60.42550277829871" lon="12.1025361044327" id="-16810">
		<tag k="name" v="Brenna" />
		<tag k="place" v="farm" />
		<tag k="ssr:stedsnr" v="431738" />
	</node>
	<node lat="60.46099999943184" lon="12.040397229958439" id="-16811">
		<tag k="name" v="Sander" />
		<tag k="old_name" v="Årnes" />
		<tag k="place" v="farm" />
		<tag k="ssr:stedsnr" v="431742" />
	</node>
	<node lat="60.44106111545144" lon="11.97139443626241" id="-16812">
		<tag k="alt_name" v="Dummyra" />
		<tag k="name" v="Dommyra" />
		<tag k="natural" v="wetland" />
		<tag k="ssr:stedsnr" v="431754" />
	</node>
	<node lat="60.46167777670359" lon="11.915366658798856" id="-16813">
		<tag k="name" v="Skurven" />
		<tag k="natural" v="hill" />
		<tag k="place" v="locality" />
		<tag k="ssr:stedsnr" v="431687" />
	</node>
	<node lat="60.50886389237444" lon="11.972652785389512" id="-16814">
		<tag k="alt_name" v="Rønåsberget" />
		<tag k="name" v="Rønnåsberget" />
		<tag k="natural" v="hill" />
		<tag k="place" v="locality" />
		<tag k="ssr:stedsnr" v="431696" />
	</node>
	<node lat="60.41696111563886" lon="11.90656666567281" id="-16815">
		<tag k="historic" v="shieling" />
		<tag k="name" v="Oppåkersætra" />
		<tag k="place" v="isolated_dwelling" />
		<tag k="ssr:stedsnr" v="491353" />
	</node>
	<node lat="60.41762221902136" lon="11.997983335949984" id="-16816">
		<tag k="name" v="Smedstad" />
		<tag k="place" v="farm" />
		<tag k="ssr:stedsnr" v="491354" />
	</node>
	<node lat="60.41606111516503" lon="12.204725006300691" id="-16817">
		<tag k="name" v="Gardsæter" />
		<tag k="place" v="farm" />
		<tag k="ssr:stedsnr" v="491364" />
	</node>
	<node lat="60.535997223871675" lon="12.337255552536911" id="-16818">
		<tag k="alt_name" v="Aursjøen, store" />
		<tag k="name" v="Store Aursjøen" />
		<tag k="natural" v="water" />
		<tag k="ssr:stedsnr" v="432679" />
	</node>
	<node lat="60.52440555635768" lon="12.33023055387189" id="-16819">
		<tag k="name" v="Høytjennet" />
		<tag k="natural" v="water" />
		<tag k="ssr:stedsnr" v="432691" />
	</node>
	<node lat="60.50107797696141" lon="11.937323817988934" id="-16820">
		<tag k="alt_name" v="Silderud" />
		<tag k="fixme" v="consider place=hamlet" />
		<tag k="name" v="Sillerud" />
		<tag k="place" v="farm" />
		<tag k="ssr:stedsnr" v="432925" />
	</node>
	<node lat="60.51981388710065" lon="12.117183334618742" id="-16821">
		<tag k="name" v="Brattåsen" />
		<tag k="place" v="locality" />
		<tag k="ssr:stedsnr" v="432883" />
	</node>
	<node lat="60.515375000067856" lon="12.084511104855187" id="-16822">
		<tag k="name" v="Sorknesmoen" />
		<tag k="place" v="locality" />
		<tag k="ssr:stedsnr" v="432897" />
	</node>
	<node lat="60.47741944566098" lon="12.0751027756228" id="-16823">
		<tag k="alt_name" v="Grøset, s;Grøset søndre" />
		<tag k="name" v="Søndre Grøset" />
		<tag k="place" v="farm" />
		<tag k="ssr:stedsnr" v="491644" />
	</node>
	<node lat="60.48257222571693" lon="12.076619450722694" id="-16824">
		<tag k="name" v="Lund" />
		<tag k="place" v="farm" />
		<tag k="ssr:stedsnr" v="491645" />
	</node>
	<node lat="60.46912284064177" lon="12.079070020435443" id="-16825">
		<tag k="fixme" v="consider place=hamlet" />
		<tag k="name" v="Ingelsrud" />
		<tag k="place" v="farm" />
		<tag k="ssr:stedsnr" v="491654" />
	</node>
	<node lat="60.43692222507852" lon="12.111250000932902" id="-16826">
		<tag k="alt_name" v="Lundebymoen" />
		<tag k="name" v="Lundbymoen" />
		<tag k="place" v="farm" />
		<tag k="ssr:stedsnr" v="491700" />
	</node>
	<node lat="60.45925555591213" lon="12.231477775251067" id="-16827">
		<tag k="alt_name" v="Østre Tyriberget" />
		<tag k="name" v="Tyriberget" />
		<tag k="natural" v="hill" />
		<tag k="place" v="locality" />
		<tag k="ssr:stedsnr" v="492063" />
	</node>
	<node lat="60.47726666552226" lon="12.551241659335593" id="-16828">
		<tag k="name" v="Radalamp" />
		<tag k="natural" v="water" />
		<tag k="ssr:stedsnr" v="492065" />
	</node>
	<node lat="60.368691668291774" lon="12.081844447038325" id="-16829">
		<tag k="name" v="Ulvbergstjennet" />
		<tag k="natural" v="water" />
		<tag k="ssr:stedsnr" v="492337" />
	</node>
	<node lat="60.37107777402279" lon="12.051855561372632" id="-16830">
		<tag k="name" v="Brattåsberget" />
		<tag k="natural" v="hill" />
		<tag k="place" v="locality" />
		<tag k="ssr:stedsnr" v="492339" />
	</node>
	<node lat="60.44646908915933" lon="12.042364712026368" id="-16831">
		<tag k="fixme" v="consider place=hamlet" />
		<tag k="name" v="Voll" />
		<tag k="place" v="farm" />
		<tag k="ssr:stedsnr" v="492734" />
	</node>
	<node lat="60.512513891295505" lon="12.061872221012566" id="-16832">
		<tag k="name" v="Engebakken" />
		<tag k="place" v="farm" />
		<tag k="ssr:stedsnr" v="492883" />
	</node>
	<node lat="60.50528888811867" lon="11.944749993475241" id="-16833">
		<tag k="name" v="Storbråten" />
		<tag k="place" v="farm" />
		<tag k="ssr:stedsnr" v="492924" />
	</node>
	<node lat="60.509341663899534" lon="12.108877769340099" id="-16834">
		<tag k="name" v="Østre" />
		<tag k="place" v="farm" />
		<tag k="ssr:stedsnr" v="492927" />
	</node>
	<node lat="60.507200004299285" lon="12.119630559655471" id="-16835">
		<tag k="name" v="Stormyra" />
		<tag k="natural" v="wetland" />
		<tag k="ssr:stedsnr" v="492930" />
	</node>
	<node lat="60.53484444422531" lon="12.156413887821506" id="-16836">
		<tag k="name" v="Grautåa" />
		<tag k="ssr:stedsnr" v="492893" />
		<tag k="waterway" v="river" />
	</node>
	<node lat="60.49617221980474" lon="12.3663027796525" id="-16837">
		<tag k="alt_name" v="Tysketorpet, vestre" />
		<tag k="name" v="Vestre Tysketorpet" />
		<tag k="place" v="hamlet" />
		<tag k="ssr:stedsnr" v="493977" />
	</node>
	<node lat="60.47940277714592" lon="11.833908328778767" id="-16838">
		<tag k="name" v="Mikkelsberget" />
		<tag k="natural" v="hill" />
		<tag k="place" v="locality" />
		<tag k="ssr:stedsnr" v="450375" />
	</node>
	<node lat="60.450530555930364" lon="12.018766665755807" id="-16839">
		<tag k="name" v="Rønningen" />
		<tag k="place" v="isolated_dwelling" />
		<tag k="ssr:stedsnr" v="451172" />
	</node>
	<node lat="60.50637222576039" lon="12.042097231529333" id="-16840">
		<tag k="name" v="Hundbuberget" />
		<tag k="place" v="farm" />
		<tag k="ssr:stedsnr" v="451228" />
	</node>
	<node lat="60.459941669691325" lon="12.067186118392241" id="-16841">
		<tag k="name" v="Bårderudstjennet" />
		<tag k="natural" v="water" />
		<tag k="ssr:stedsnr" v="451864" />
	</node>
	<node lat="60.5301638899668" lon="12.072752781550214" id="-16842">
		<tag k="name" v="Trangsrud" />
		<tag k="place" v="farm" />
		<tag k="ssr:stedsnr" v="451874" />
	</node>
	<node lat="60.438272226576515" lon="12.515383330879297" id="-16843">
		<tag k="name" v="Gåkolamp" />
		<tag k="natural" v="water" />
		<tag k="ssr:stedsnr" v="673015" />
	</node>
	<node lat="60.42441944521462" lon="12.444747230598537" id="-16844">
		<tag k="name" v="Karlstorpet" />
		<tag k="place" v="farm" />
		<tag k="ssr:stedsnr" v="673017" />
	</node>
	<node lat="60.42632778089674" lon="12.572024993012015" id="-16845">
		<tag k="name" v="Skåkberget" />
		<tag k="natural" v="hill" />
		<tag k="place" v="locality" />
		<tag k="ssr:stedsnr" v="673023" />
	</node>
	<node lat="60.41605833249594" lon="12.539236104677874" id="-16846">
		<tag k="name" v="Storholmen" />
		<tag k="place" v="islet" />
		<tag k="ssr:stedsnr" v="673033" />
	</node>
	<node lat="60.402591665372675" lon="12.256094439355415" id="-16847">
		<tag k="name" v="Skaslia" />
		<tag k="place" v="isolated_dwelling" />
		<tag k="ssr:stedsnr" v="673035" />
	</node>
	<node lat="60.40726111330454" lon="12.415750003224302" id="-16848">
		<tag k="alt_name" v="Nordre Sæterbakken" />
		<tag k="name" v="Sæterbakken" />
		<tag k="place" v="farm" />
		<tag k="ssr:stedsnr" v="673038" />
	</node>
	<node lat="60.465958335925606" lon="12.597880552209071" id="-16849">
		<tag k="name" v="Balagombo" />
		<tag k="natural" v="hill" />
		<tag k="place" v="locality" />
		<tag k="ssr:stedsnr" v="673122" />
	</node>
	<node lat="60.460652777699565" lon="12.589319441163306" id="-16850">
		<tag k="name" v="Iversberget" />
		<tag k="natural" v="hill" />
		<tag k="place" v="locality" />
		<tag k="ssr:stedsnr" v="673129" />
	</node>
	<node lat="60.43646944631912" lon="12.263955553071288" id="-16851">
		<tag k="alt_name" v="Østre Luka" />
		<tag k="name" v="Luka" />
		<tag k="place" v="farm" />
		<tag k="ssr:stedsnr" v="673132" />
	</node>
	<node lat="60.441305554861266" lon="12.256400007212305" id="-16852">
		<tag k="name" v="Nytorpet" />
		<tag k="place" v="farm" />
		<tag k="ssr:stedsnr" v="673133" />
	</node>
	<node lat="60.40317006006844" lon="12.07102699751059" id="-16853">
		<tag k="fixme" v="consider place=hamlet" />
		<tag k="name" v="Tostenbøl" />
		<tag k="place" v="farm" />
		<tag k="ssr:stedsnr" v="673344" />
	</node>
	<node lat="60.49552500323407" lon="12.278933324872842" id="-16854">
		<tag k="name" v="Bjørsjøtorpet" />
		<tag k="place" v="farm" />
		<tag k="ssr:stedsnr" v="673429" />
	</node>
	<node lat="60.49212789478932" lon="11.9551896235357" id="-16855">
		<tag k="name" v="Skyrud" />
		<tag k="place" v="hamlet" />
		<tag k="ssr:stedsnr" v="673679" />
	</node>
	<node lat="60.49618869804014" lon="11.977382861741836" id="-16856">
		<tag k="alt_name" v="Rønåsen" />
		<tag k="name" v="Rønnåsen" />
		<tag k="place" v="hamlet" />
		<tag k="ssr:stedsnr" v="673680" />
	</node>
	<node lat="60.42354999862333" lon="11.874913891183748" id="-16857">
		<tag k="name" v="Kumyra" />
		<tag k="natural" v="wetland" />
		<tag k="ssr:stedsnr" v="673697" />
	</node>
	<node lat="60.396004113431665" lon="12.548615759414163" id="-16858">
		<tag k="fixme" v="consider place=hamlet" />
		<tag k="name" v="Vålberget" />
		<tag k="place" v="farm" />
		<tag k="ssr:stedsnr" v="674041" />
	</node>
	<node lat="60.31645833680898" lon="12.498783339016493" id="-16859">
		<tag k="name" v="Leikåsen" />
		<tag k="place" v="farm" />
		<tag k="ssr:stedsnr" v="674133" />
	</node>
	<node lat="60.39007777950661" lon="12.505711105942407" id="-16860">
		<tag k="name" v="Sandsjøberget" />
		<tag k="place" v="isolated_dwelling" />
		<tag k="ssr:stedsnr" v="674054" />
	</node>
	<node lat="60.48920278155628" lon="12.511911113766745" id="-16861">
		<tag k="name" v="Andersmyra" />
		<tag k="natural" v="wetland" />
		<tag k="ssr:stedsnr" v="674089" />
	</node>
	<node lat="60.466530554213875" lon="12.366777786206807" id="-16862">
		<tag k="name" v="Kvernbekken" />
		<tag k="ssr:stedsnr" v="674100" />
		<tag k="waterway" v="stream" />
	</node>
	<node lat="60.37571666265343" lon="11.918313884801893" id="-16863">
		<tag k="alt_name" v="Mjågmyra, nordre" />
		<tag k="name" v="Nordre Mjågmyra" />
		<tag k="natural" v="wetland" />
		<tag k="ssr:stedsnr" v="674328" />
	</node>
	<node lat="60.39181100006652" lon="12.133192226757703" id="-16864">
		<tag k="name" v="Storbergstjennet" />
		<tag k="natural" v="water" />
		<tag k="ssr:stedsnr" v="674350" />
	</node>
	<node lat="60.451705552805194" lon="12.428819453136917" id="-16865">
		<tag k="name" v="Lindalen" />
		<tag k="natural" v="valley" />
		<tag k="place" v="locality" />
		<tag k="ssr:stedsnr" v="465017" />
	</node>
	<node lat="60.33186389110108" lon="12.489680552174764" id="-16866">
		<tag k="name" v="Spellmannsholtet" />
		<tag k="place" v="locality" />
		<tag k="ssr:stedsnr" v="465215" />
	</node>
	<node lat="60.34564444279607" lon="12.461299999045243" id="-16867">
		<tag k="name" v="Gjeddtjennsbekken" />
		<tag k="ssr:stedsnr" v="465216" />
		<tag k="waterway" v="stream" />
	</node>
	<node lat="60.34145277634854" lon="12.508697228732183" id="-16868">
		<tag k="name" v="Oppigarden" />
		<tag k="place" v="isolated_dwelling" />
		<tag k="ssr:stedsnr" v="465158" />
	</node>
	<node lat="60.43129166484306" lon="12.351688890279068" id="-16869">
		<tag k="name" v="Skasberget" />
		<tag k="place" v="locality" />
		<tag k="ssr:stedsnr" v="465407" />
	</node>
	<node lat="60.50078055985033" lon="12.250536104549042" id="-16870">
		<tag k="name" v="Breisletta" />
		<tag k="natural" v="wetland" />
		<tag k="ssr:stedsnr" v="465623" />
	</node>
	<node lat="60.52598889173595" lon="12.255847221560499" id="-16871">
		<tag k="name" v="Dalamyra" />
		<tag k="natural" v="wetland" />
		<tag k="ssr:stedsnr" v="465711" />
	</node>
	<node lat="60.52621388809948" lon="12.49750278336002" id="-16872">
		<tag k="alt_name" v="Bølkunbekken" />
		<tag k="name" v="Bølgunbekken" />
		<tag k="ssr:stedsnr" v="674731" />
		<tag k="waterway" v="stream" />
	</node>
	<node lat="60.45275331933667" lon="12.02370943679726" id="-16873">
		<tag k="fixme" v="consider place=hamlet" />
		<tag k="name" v="Haugsmo" />
		<tag k="place" v="farm" />
		<tag k="ssr:stedsnr" v="674733" />
	</node>
	<node lat="60.546325003168214" lon="12.219163886417777" id="-16874">
		<tag k="name" v="Luserudmyra" />
		<tag k="natural" v="wetland" />
		<tag k="ssr:stedsnr" v="674692" />
	</node>
	<node lat="60.371172218757344" lon="12.549880558050479" id="-16875">
		<tag k="name" v="Austvika" />
		<tag k="natural" v="bay" />
		<tag k="ssr:stedsnr" v="465761" />
	</node>
	<node lat="60.38236666492578" lon="12.570427778864524" id="-16876">
		<tag k="name" v="Kjerringbråten" />
		<tag k="place" v="locality" />
		<tag k="ssr:stedsnr" v="465764" />
	</node>
	<node lat="60.41896944416585" lon="11.921649994324042" id="-16877">
		<tag k="name" v="Mosemyra" />
		<tag k="natural" v="wetland" />
		<tag k="ssr:stedsnr" v="466111" />
	</node>
	<node lat="60.35129999758008" lon="12.463125001764636" id="-16878">
		<tag k="name" v="Langmyra" />
		<tag k="natural" v="wetland" />
		<tag k="ssr:stedsnr" v="466212" />
	</node>
	<node lat="60.51827499770989" lon="12.069022219004403" id="-16879">
		<tag k="name" v="Bentsrud" />
		<tag k="place" v="farm" />
		<tag k="ssr:stedsnr" v="674875" />
	</node>
	<node lat="60.51347500022184" lon="12.155541673312424" id="-16880">
		<tag k="alt_name" v="Namsjøen" />
		<tag k="name" v="Namnsjøen" />
		<tag k="natural" v="water" />
		<tag k="ssr:stedsnr" v="674911" />
		<tag k="water" v="lake" />
	</node>
	<node lat="60.41985000067998" lon="12.286100006769017" id="-16881">
		<tag k="name" v="Kjerringvika" />
		<tag k="natural" v="bay" />
		<tag k="ssr:stedsnr" v="466605" />
	</node>
	<node lat="60.52349444802479" lon="12.546816669552042" id="-16882">
		<tag k="name" v="Kloppmyra" />
		<tag k="natural" v="wetland" />
		<tag k="ssr:stedsnr" v="466630" />
	</node>
	<node lat="60.531997226549635" lon="12.179333332902408" id="-16883">
		<tag k="alt_name" v="Grautsjøbekken, s" />
		<tag k="name" v="Søndre Grautsjøbekken" />
		<tag k="ssr:stedsnr" v="674878" />
		<tag k="waterway" v="stream" />
	</node>
	<node lat="60.53104166602167" lon="12.155936118268595" id="-16884">
		<tag k="name" v="Sevtjennet" />
		<tag k="natural" v="water" />
		<tag k="ssr:stedsnr" v="674879" />
	</node>
	<node lat="60.50945555984964" lon="12.151197231541994" id="-16885">
		<tag k="name" v="Holmslia" />
		<tag k="place" v="isolated_dwelling" />
		<tag k="ssr:stedsnr" v="674887" />
	</node>
	<node lat="60.504225002811026" lon="12.102447221909433" id="-16886">
		<tag k="name" v="Haugset" />
		<tag k="place" v="farm" />
		<tag k="ssr:stedsnr" v="674925" />
	</node>
	<node lat="60.544369446824206" lon="12.171663887564765" id="-16887">
		<tag k="name" v="Graslikoia" />
		<tag k="place" v="isolated_dwelling" />
		<tag k="ssr:stedsnr" v="674972" />
	</node>
	<node lat="60.394880555184905" lon="12.340091663018024" id="-16888">
		<tag k="name" v="Sandvika" />
		<tag k="natural" v="bay" />
		<tag k="ssr:stedsnr" v="467465" />
	</node>
	<node lat="60.52973889198868" lon="12.222638897162005" id="-16889">
		<tag k="name" v="Rusten" />
		<tag k="place" v="locality" />
		<tag k="ssr:stedsnr" v="467519" />
	</node>
	<node lat="60.52163333401208" lon="12.564366658521923" id="-16890">
		<tag k="name" v="Kverntjenna" />
		<tag k="natural" v="water" />
		<tag k="ssr:stedsnr" v="675738" />
		<tag k="water" v="lake" />
	</node>
	<node lat="60.389883330555726" lon="12.045016659526606" id="-16891">
		<tag k="bridge" v="yes" />
		<tag k="layer" v="1" />
		<tag k="name" v="Kveia" />
		<tag k="ssr:stedsnr" v="470665" />
	</node>
	<node lat="60.384394442759614" lon="12.440269441555309" id="-16892">
		<tag k="name" v="Vestgarden" />
		<tag k="place" v="farm" />
		<tag k="ssr:stedsnr" v="479102" />
	</node>
	<node lat="60.472555557971255" lon="12.39478332539808" id="-16893">
		<tag k="name" v="Malitjennsbekken" />
		<tag k="ssr:stedsnr" v="479312" />
		<tag k="waterway" v="stream" />
	</node>
	<node lat="60.36536388553663" lon="12.557013888181288" id="-16894">
		<tag k="name" v="Kalsjøbergstjennet" />
		<tag k="natural" v="water" />
		<tag k="ssr:stedsnr" v="479916" />
	</node>
	<node lat="60.3652722245799" lon="12.242886108922693" id="-16895">
		<tag k="highway" v="path" />
		<tag k="name" v="Nedre Smiuskjærvegen" />
		<tag k="ssr:stedsnr" v="480719" />
	</node>
	<node lat="60.364627774075906" lon="12.234533331428695" id="-16896">
		<tag k="name" v="Horisonten" />
		<tag k="natural" v="hill" />
		<tag k="place" v="locality" />
		<tag k="ssr:stedsnr" v="480721" />
	</node>
	<node lat="60.37059166589877" lon="12.136322220711662" id="-16897">
		<tag k="name" v="Eftasmyra" />
		<tag k="natural" v="wetland" />
		<tag k="ssr:stedsnr" v="480919" />
	</node>
	<node lat="60.349388889890854" lon="12.480702777301959" id="-16898">
		<tag k="name" v="Nettstakanabben" />
		<tag k="natural" v="cape" />
		<tag k="ssr:stedsnr" v="482124" />
	</node>
	<node lat="60.37122222207406" lon="12.210336108451452" id="-16899">
		<tag k="name" v="Svarttjennet" />
		<tag k="natural" v="water" />
		<tag k="ssr:stedsnr" v="482522" />
	</node>
	<node lat="60.36415277666667" lon="11.847672213063637" id="-16900">
		<tag k="highway" v="path" />
		<tag k="name" v="Meitsjøvegen" />
		<tag k="ssr:stedsnr" v="484271" />
	</node>
	<node lat="60.434825002413774" lon="12.4917083283134" id="-16901">
		<tag k="fixme" v="verify maritime location" />
		<tag k="mooring" v="yes" />
		<tag k="name" v="Valgama" />
		<tag k="place" v="locality" />
		<tag k="ssr:stedsnr" v="491011" />
	</node>
	<node lat="60.42983055778846" lon="12.320486118914664" id="-16902">
		<tag k="alt_name" v="Økslemyra" />
		<tag k="name" v="Øktarmyra" />
		<tag k="natural" v="wetland" />
		<tag k="ssr:stedsnr" v="491015" />
	</node>
	<node lat="60.43392777390912" lon="12.60311667283818" id="-16903">
		<tag k="alt_name" v="Baksjødamkoia" />
		<tag k="name" v="Baksjøkoia" />
		<tag k="place" v="isolated_dwelling" />
		<tag k="ssr:stedsnr" v="491017" />
	</node>
	<node lat="60.42058889201365" lon="12.441191657960964" id="-16904">
		<tag k="name" v="Torgardstjennet" />
		<tag k="natural" v="water" />
		<tag k="ssr:stedsnr" v="491022" />
	</node>
	<node lat="60.41754785168035" lon="12.42521970287198" id="-16905">
		<tag k="fixme" v="consider place=hamlet" />
		<tag k="name" v="Revholtet" />
		<tag k="place" v="farm" />
		<tag k="ssr:stedsnr" v="491025" />
	</node>
	<node lat="60.41026944307628" lon="12.41734444925951" id="-16906">
		<tag k="name" v="Luka" />
		<tag k="place" v="farm" />
		<tag k="ssr:stedsnr" v="491026" />
	</node>
	<node lat="60.45701666389378" lon="12.494241659830038" id="-16907">
		<tag k="name" v="Anderstorpet" />
		<tag k="place" v="isolated_dwelling" />
		<tag k="ssr:stedsnr" v="491105" />
	</node>
	<node lat="60.461358332294445" lon="12.561138896394505" id="-16908">
		<tag k="name" v="Norrobeldo" />
		<tag k="place" v="farm" />
		<tag k="ssr:stedsnr" v="491108" />
	</node>
	<node lat="60.45235277904588" lon="12.50871110224302" id="-16909">
		<tag k="name" v="Tvengsbergtjennet" />
		<tag k="natural" v="water" />
		<tag k="ssr:stedsnr" v="491130" />
	</node>
	<node lat="60.349133331604406" lon="12.209611107572309" id="-16910">
		<tag k="name" v="Bjørntjennet" />
		<tag k="natural" v="water" />
		<tag k="ssr:stedsnr" v="491322" />
	</node>
	<node lat="60.49825781839498" lon="12.5636195266856" id="-16911">
		<tag k="alt_name" v="Fisketjennet" />
		<tag k="name" v="Øvre Okstjennet" />
		<tag k="natural" v="water" />
		<tag k="ssr:stedsnr" v="491080" />
	</node>
	<node lat="60.36108888886331" lon="12.210552775626468" id="-16912">
		<tag k="name" v="Rottjennet" />
		<tag k="natural" v="water" />
		<tag k="ssr:stedsnr" v="491284" />
	</node>
	<node lat="60.427877780155036" lon="11.937491673563983" id="-16913">
		<tag k="name" v="Tenåskoia" />
		<tag k="place" v="isolated_dwelling" />
		<tag k="ssr:stedsnr" v="491708" />
	</node>
	<node lat="60.42691110780413" lon="12.180352780295623" id="-16914">
		<tag k="name" v="Mortholmen" />
		<tag k="place" v="islet" />
		<tag k="ssr:stedsnr" v="491713" />
	</node>
	<node lat="60.45478333648565" lon="11.865561111831347" id="-16915">
		<tag k="name" v="Grevlingberget" />
		<tag k="natural" v="hill" />
		<tag k="place" v="locality" />
		<tag k="ssr:stedsnr" v="491724" />
	</node>
	<node lat="60.48619782138419" lon="12.050306080966903" id="-16916">
		<tag k="name" v="Enger" />
		<tag k="place" v="hamlet" />
		<tag k="ssr:stedsnr" v="491631" />
	</node>
	<node lat="60.48473055490479" lon="12.102500005108043" id="-16917">
		<tag k="name" v="Øverby" />
		<tag k="place" v="farm" />
		<tag k="ssr:stedsnr" v="491633" />
	</node>
	<node lat="60.48913611123862" lon="11.98260555678889" id="-16918">
		<tag k="name" v="Bekken" />
		<tag k="place" v="farm" />
		<tag k="ssr:stedsnr" v="491685" />
	</node>
	<node lat="60.368375000519215" lon="12.014752785398507" id="-16919">
		<tag k="name" v="Nesmyra" />
		<tag k="natural" v="wetland" />
		<tag k="ssr:stedsnr" v="492322" />
	</node>
	<node lat="60.44833888550783" lon="12.208536115684527" id="-16920">
		<tag k="name" v="Hvilesteinen" />
		<tag k="natural" v="stone" />
		<tag k="ssr:stedsnr" v="492672" />
	</node>
	<node lat="60.43505767159172" lon="11.914604438614255" id="-16921">
		<tag k="name" v="Domtjenna" />
		<tag k="natural" v="water" />
		<tag k="ssr:stedsnr" v="492674" />
		<tag k="water" v="lake" />
	</node>
	<node lat="60.52148333176021" lon="12.222749995095326" id="-16922">
		<tag k="loc_name" v="Karusstjenn" />
		<tag k="name" v="Karustjenn" />
		<tag k="natural" v="water" />
		<tag k="ssr:stedsnr" v="492693" />
	</node>
	<node lat="60.51353888452641" lon="12.46108333987935" id="-16923">
		<tag k="name" v="Lukasbekken" />
		<tag k="ssr:stedsnr" v="492704" />
		<tag k="waterway" v="stream" />
	</node>
	<node lat="60.443016666121" lon="12.169119441589537" id="-16924">
		<tag k="alt_name" v="Lundebysætra" />
		<tag k="historic" v="shieling" />
		<tag k="name" v="Lundbysætra" />
		<tag k="place" v="isolated_dwelling" />
		<tag k="ssr:stedsnr" v="492726" />
	</node>
	<node lat="60.541650003141726" lon="12.196136113255971" id="-16925">
		<tag k="name" v="Klartjennet" />
		<tag k="natural" v="water" />
		<tag k="ssr:stedsnr" v="492968" />
	</node>
	<node lat="60.47379444255578" lon="12.068347229636652" id="-16926">
		<tag k="name" v="Bjertnes" />
		<tag k="place" v="farm" />
		<tag k="ssr:stedsnr" v="511203" />
	</node>
	<node lat="60.48820278042175" lon="12.069636103949236" id="-16927">
		<tag k="name" v="Heggertjennet" />
		<tag k="natural" v="water" />
		<tag k="ssr:stedsnr" v="511204" />
	</node>
	<node lat="60.53543055402057" lon="12.092277779979149" id="-16928">
		<tag k="name" v="Granli" />
		<tag k="place" v="farm" />
		<tag k="ssr:stedsnr" v="511210" />
	</node>
	<node lat="60.50840000116388" lon="12.071994452078075" id="-16929">
		<tag k="name" v="Holtet" />
		<tag k="place" v="farm" />
		<tag k="ssr:stedsnr" v="511196" />
	</node>
	<node lat="60.449897219576506" lon="12.059525007102643" id="-16930">
		<tag k="leisure" v="pitch" />
		<tag k="name" v="Grue stadion" />
		<tag k="ssr:stedsnr" v="511749" />
	</node>
	<node lat="60.49003055822042" lon="12.097569449975245" id="-16931">
		<tag k="name" v="Nerby" />
		<tag k="place" v="farm" />
		<tag k="ssr:stedsnr" v="511830" />
	</node>
	<node lat="60.49926666959743" lon="12.074575008787884" id="-16932">
		<tag k="amenity" v="school" />
		<tag k="name" v="Namnå sentralskole" />
		<tag k="ssr:stedsnr" v="511831" />
	</node>
	<node lat="60.33806944021459" lon="12.446211112225294" id="-16933">
		<tag k="name" v="Barskjulfossen" />
		<tag k="natural" v="waterfall" />
		<tag k="ssr:stedsnr" v="525214" />
	</node>
	<node lat="60.33717777829478" lon="12.492891662440801" id="-16934">
		<tag k="name" v="Oggonlampsmyrene" />
		<tag k="natural" v="wetland" />
		<tag k="ssr:stedsnr" v="525226" />
	</node>
	<node lat="60.5078555554978" lon="12.275663891582251" id="-16935">
		<tag k="name" v="Eftasmyrdalen" />
		<tag k="natural" v="valley" />
		<tag k="place" v="locality" />
		<tag k="ssr:stedsnr" v="525473" />
	</node>
	<node lat="60.49783055941873" lon="12.197874991858562" id="-16936">
		<tag k="name" v="Dritputten" />
		<tag k="natural" v="water" />
		<tag k="ssr:stedsnr" v="525613" />
		<tag k="water" v="pond" />
	</node>
	<node lat="60.47922499594229" lon="12.464319451868665" id="-16937">
		<tag k="name" v="Revtjennsbekken" />
		<tag k="ssr:stedsnr" v="525971" />
		<tag k="waterway" v="stream" />
	</node>
	<node lat="60.38277777764176" lon="11.861297224867819" id="-16938">
		<tag k="name" v="Skogermyra" />
		<tag k="natural" v="wetland" />
		<tag k="ssr:stedsnr" v="526204" />
	</node>
	<node lat="60.48697221842598" lon="12.38483054694765" id="-16939">
		<tag k="name" v="Nattmyrbekken" />
		<tag k="ssr:stedsnr" v="526308" />
		<tag k="waterway" v="stream" />
	</node>
	<node lat="60.44593610972511" lon="11.990974999542525" id="-16940">
		<tag k="name" v="Tegelsrud" />
		<tag k="place" v="farm" />
		<tag k="ssr:stedsnr" v="526603" />
	</node>
	<node lat="60.494613885067736" lon="12.566611106688514" id="-16941">
		<tag k="fixme" v="multiple name tags, choose one and add the other to alt_name" />
		<tag k="name" v="Torvmyra;Idabiansuo" />
		<tag k="natural" v="wetland" />
		<tag k="ssr:stedsnr" v="526620" />
	</node>
	<node lat="60.37652222568936" lon="12.568313895586588" id="-16942">
		<tag k="name" v="Vellingmyra" />
		<tag k="natural" v="wetland" />
		<tag k="ssr:stedsnr" v="526785" />
	</node>
	<node lat="60.42641111002237" lon="12.42384444000889" id="-16943">
		<tag k="name" v="Tårnmyra" />
		<tag k="natural" v="wetland" />
		<tag k="ssr:stedsnr" v="527072" />
	</node>
	<node lat="60.36433055304884" lon="12.444336116862447" id="-16944">
		<tag k="name" v="Karibråten" />
		<tag k="place" v="locality" />
		<tag k="ssr:stedsnr" v="527204" />
	</node>
	<node lat="60.51337222033405" lon="12.534955560439602" id="-16945">
		<tag k="name" v="Vestheim" />
		<tag k="place" v="locality" />
		<tag k="ssr:stedsnr" v="527620" />
	</node>
	<node lat="60.49381388880049" lon="12.502202770591559" id="-16946">
		<tag k="name" v="Vestre Lauvbergstjennsmyra" />
		<tag k="natural" v="wetland" />
		<tag k="ssr:stedsnr" v="527903" />
	</node>
	<node lat="60.52475555525822" lon="12.455972219056262" id="-16947">
		<tag k="name" v="Hongaslamp" />
		<tag k="natural" v="water" />
		<tag k="ssr:stedsnr" v="527941" />
	</node>
	<node lat="60.4623027759635" lon="12.497358334474924" id="-16948">
		<tag k="name" v="Løvberget" />
		<tag k="place" v="locality" />
		<tag k="ssr:stedsnr" v="527977" />
	</node>
	<node lat="60.45798611251619" lon="12.515936116950785" id="-16949">
		<tag k="name" v="Tjernsmyra" />
		<tag k="natural" v="wetland" />
		<tag k="ssr:stedsnr" v="527983" />
	</node>
	<node lat="60.40147499887769" lon="12.409997219152192" id="-16950">
		<tag k="historic" v="shieling" />
		<tag k="name" v="Gammelvollen" />
		<tag k="place" v="locality" />
		<tag k="ssr:stedsnr" v="540102" />
	</node>
	<node lat="60.48023055767398" lon="11.948427772051819" id="-16951">
		<tag k="name" v="Kraslerud" />
		<tag k="place" v="farm" />
		<tag k="ssr:stedsnr" v="540111" />
	</node>
	<node lat="60.372522222856155" lon="12.407616657739714" id="-16952">
		<tag k="name" v="Klintmyra" />
		<tag k="natural" v="wetland" />
		<tag k="ssr:stedsnr" v="540120" />
	</node>
	<node lat="60.475091665933164" lon="12.384063880716552" id="-16953">
		<tag k="name" v="Hemtjennsmyra" />
		<tag k="natural" v="wetland" />
		<tag k="ssr:stedsnr" v="540317" />
	</node>
	<node lat="60.460986109957716" lon="12.34962221601457" id="-16954">
		<tag k="name" v="Skrivarmyra" />
		<tag k="natural" v="wetland" />
		<tag k="ssr:stedsnr" v="540318" />
	</node>
	<node lat="60.459486111492176" lon="12.354913886334408" id="-16955">
		<tag k="name" v="Grøndalen" />
		<tag k="place" v="locality" />
		<tag k="ssr:stedsnr" v="540325" />
	</node>
	<node lat="60.45242222554635" lon="12.280675006777939" id="-16956">
		<tag k="name" v="Søndre Revmyra" />
		<tag k="natural" v="wetland" />
		<tag k="ssr:stedsnr" v="540586" />
	</node>
	<node lat="60.369083329840336" lon="12.1284999939589" id="-16957">
		<tag k="name" v="Pixrudhola" />
		<tag k="place" v="locality" />
		<tag k="ssr:stedsnr" v="540909" />
	</node>
	<node lat="60.45066666814275" lon="12.119719440132544" id="-16958">
		<tag k="name" v="Rauåsen" />
		<tag k="place" v="locality" />
		<tag k="ssr:stedsnr" v="540930" />
	</node>
	<node lat="60.42549444700205" lon="12.164511105343507" id="-16959">
		<tag k="name" v="Frysjødammen" />
		<tag k="ssr:stedsnr" v="540936" />
		<tag k="waterway" v="dam" />
	</node>
	<node lat="60.38042499566382" lon="12.204919453070591" id="-16960">
		<tag k="name" v="Søndre Mobakksmyra" />
		<tag k="natural" v="wetland" />
		<tag k="ssr:stedsnr" v="543509" />
	</node>
	<node lat="60.384983332314114" lon="12.204630560488576" id="-16961">
		<tag k="name" v="Mobakksmyra" />
		<tag k="natural" v="wetland" />
		<tag k="ssr:stedsnr" v="543510" />
	</node>
	<node lat="60.45810277919183" lon="12.557841663260394" id="-16962">
		<tag k="name" v="Bygningen" />
		<tag k="place" v="farm" />
		<tag k="ssr:stedsnr" v="551123" />
	</node>
	<node lat="60.36697777573393" lon="12.276416665884952" id="-16963">
		<tag k="alt_name" v="Morttjernsberget" />
		<tag k="name" v="Øvre Morttjernsberget" />
		<tag k="place" v="farm" />
		<tag k="ssr:stedsnr" v="551212" />
	</node>
	<node lat="60.43010277512858" lon="12.219511103016893" id="-16964">
		<tag k="name" v="Gjeddtjennet" />
		<tag k="natural" v="water" />
		<tag k="ssr:stedsnr" v="551800" />
	</node>
	<node lat="60.41311666390302" lon="12.584533331300499" id="-16965">
		<tag k="name" v="Geittjennet" />
		<tag k="natural" v="water" />
		<tag k="ssr:stedsnr" v="552049" />
	</node>
	<node lat="60.48024999783269" lon="12.440763897757558" id="-16966">
		<tag k="name" v="Furutjenna" />
		<tag k="natural" v="water" />
		<tag k="ssr:stedsnr" v="552100" />
		<tag k="water" v="lake" />
	</node>
	<node lat="60.362766669266016" lon="12.231908337207825" id="-16967">
		<tag k="historic" v="shieling" />
		<tag k="name" v="Grindersæter" />
		<tag k="place" v="isolated_dwelling" />
		<tag k="ssr:stedsnr" v="552218" />
	</node>
	<node lat="60.37512499999554" lon="12.497105548720636" id="-16968">
		<tag k="name" v="Gørtilamp" />
		<tag k="natural" v="water" />
		<tag k="ssr:stedsnr" v="552222" />
	</node>
	<node lat="60.46369999887091" lon="12.29921945067354" id="-16969">
		<tag k="name" v="Sollitjennet" />
		<tag k="natural" v="water" />
		<tag k="ssr:stedsnr" v="552106" />
	</node>
	<node lat="60.361274476185535" lon="12.139141169053111" id="-16970">
		<tag k="name" v="Krokmyra" />
		<tag k="natural" v="wetland" />
		<tag k="ssr:stedsnr" v="552310" />
	</node>
	<node lat="60.382862195812415" lon="12.039964309504658" id="-16971">
		<tag k="fixme" v="consider place=hamlet" />
		<tag k="name" v="Hveberg" />
		<tag k="old_name" v="Hvebekk" />
		<tag k="place" v="farm" />
		<tag k="ssr:stedsnr" v="552406" />
	</node>
	<node lat="60.380761108791376" lon="11.970519448960244" id="-16972">
		<tag k="fixme" v="consider natural=peak for the most distinct mountains in the district" />
		<tag k="name" v="Kringleåsen" />
		<tag k="natural" v="hill" />
		<tag k="place" v="locality" />
		<tag k="ssr:stedsnr" v="552410" />
	</node>
	<node lat="60.46104166462402" lon="11.951938884795878" id="-16973">
		<tag k="alt_name" v="Risbergsætra" />
		<tag k="name" v="Risbergsæter" />
		<tag k="place" v="farm" />
		<tag k="ssr:stedsnr" v="552702" />
	</node>
	<node lat="60.51909444799077" lon="12.056847229840756" id="-16974">
		<tag k="name" v="Koia" />
		<tag k="place" v="farm" />
		<tag k="ssr:stedsnr" v="552902" />
	</node>
	<node lat="60.51906666429728" lon="12.079344447729742" id="-16975">
		<tag k="alt_name" v="Østli" />
		<tag k="name" v="Austli" />
		<tag k="place" v="farm" />
		<tag k="ssr:stedsnr" v="552912" />
	</node>
	<node lat="60.37331389061211" lon="11.818411117381268" id="-16976">
		<tag k="name" v="Vesle Lomtjennet" />
		<tag k="natural" v="water" />
		<tag k="ssr:stedsnr" v="552942" />
	</node>
	<node lat="60.511491665224135" lon="12.111863885696973" id="-16977">
		<tag k="name" v="Brenna" />
		<tag k="place" v="farm" />
		<tag k="ssr:stedsnr" v="552943" />
	</node>
	<node lat="60.52480555455278" lon="12.557563882891522" id="-16978">
		<tag k="alt_name" v="Rotnebergsåa" />
		<tag k="name" v="Rotbergsåa" />
		<tag k="ssr:stedsnr" v="553737" />
		<tag k="waterway" v="river" />
	</node>
	<node lat="60.50909166505625" lon="12.067838895646638" id="-16979">
		<tag k="name" v="Steinvadet" />
		<tag k="place" v="farm" />
		<tag k="ssr:stedsnr" v="553930" />
	</node>
	<node lat="60.509849998110646" lon="12.081144443380666" id="-16980">
		<tag k="name" v="Moen" />
		<tag k="place" v="isolated_dwelling" />
		<tag k="ssr:stedsnr" v="553933" />
	</node>
	<node lat="60.480813889029406" lon="12.121477769813023" id="-16981">
		<tag k="name" v="Møllerudskoia" />
		<tag k="place" v="isolated_dwelling" />
		<tag k="ssr:stedsnr" v="566876" />
	</node>
	<node lat="60.497320021998995" lon="12.07671163860714" id="-16982">
		<tag k="fixme" v="consider place=hamlet" />
		<tag k="name" v="Moen" />
		<tag k="place" v="farm" />
		<tag k="ssr:stedsnr" v="572257" />
	</node>
	<node lat="60.50307221884181" lon="12.088091671979537" id="-16983">
		<tag k="name" v="Vang" />
		<tag k="place" v="farm" />
		<tag k="ssr:stedsnr" v="572260" />
	</node>
	<node lat="60.52742499813922" lon="12.048025007762252" id="-16984">
		<tag k="name" v="Storsand" />
		<tag k="place" v="locality" />
		<tag k="ssr:stedsnr" v="572846" />
	</node>
	<node lat="60.42573333422105" lon="12.058858326107396" id="-16985">
		<tag k="name" v="Gardsmoen" />
		<tag k="place" v="farm" />
		<tag k="ssr:stedsnr" v="694130" />
	</node>
	<node lat="60.51178055388026" lon="12.095797220268167" id="-16986">
		<tag k="name" v="Steinsmyra" />
		<tag k="natural" v="wetland" />
		<tag k="ssr:stedsnr" v="694182" />
	</node>
	<node lat="60.48887499749989" lon="12.090497214920498" id="-16987">
		<tag k="name" v="Grøsetholen" />
		<tag k="place" v="farm" />
		<tag k="ssr:stedsnr" v="694191" />
	</node>
	<node lat="60.52136388706092" lon="12.097152776691503" id="-16988">
		<tag k="name" v="Humulsbekken" />
		<tag k="ssr:stedsnr" v="694193" />
		<tag k="waterway" v="stream" />
	</node>
	<node lat="60.41029721984125" lon="12.051905548999267" id="-16989">
		<tag k="name" v="Lindset" />
		<tag k="place" v="farm" />
		<tag k="ssr:stedsnr" v="694139" />
	</node>
	<node lat="60.46228333715718" lon="12.045902769167444" id="-16990">
		<tag k="name" v="Vestre By" />
		<tag k="place" v="farm" />
		<tag k="ssr:stedsnr" v="694823" />
	</node>
	<node lat="60.46745277929158" lon="12.013436117459527" id="-16991">
		<tag k="amenity" v="school" />
		<tag k="name" v="Refset skole" />
		<tag k="ssr:stedsnr" v="694826" />
	</node>
	<node lat="60.48780206418259" lon="12.031919729425363" id="-16992">
		<tag k="alt_name" v="Sætre Nordgarden" />
		<tag k="fixme" v="consider place=hamlet" />
		<tag k="name" v="Nordgarden Sætre" />
		<tag k="place" v="farm" />
		<tag k="ssr:stedsnr" v="694833" />
	</node>
	<node lat="60.53259999610241" lon="12.04950277076844" id="-16993">
		<tag k="name" v="Jacopstua" />
		<tag k="place" v="farm" />
		<tag k="ssr:stedsnr" v="694835" />
	</node>
	<node lat="60.525969446417825" lon="12.061847228120024" id="-16994">
		<tag k="name" v="Dalsbakken" />
		<tag k="place" v="farm" />
		<tag k="ssr:stedsnr" v="694859" />
	</node>
	<node lat="60.34402499873452" lon="12.462205548144226" id="-16995">
		<tag k="name" v="Gjeddtjennsmyra" />
		<tag k="natural" v="wetland" />
		<tag k="ssr:stedsnr" v="586213" />
	</node>
	<node lat="60.34565277949839" lon="12.467819448194337" id="-16996">
		<tag k="name" v="Øvre Mokvernfossen" />
		<tag k="natural" v="waterfall" />
		<tag k="ssr:stedsnr" v="586215" />
	</node>
	<node lat="60.527544446699935" lon="12.320747227260746" id="-16997">
		<tag k="name" v="Høytjennsbekken" />
		<tag k="ssr:stedsnr" v="586253" />
		<tag k="waterway" v="stream" />
	</node>
	<node lat="60.525088888075935" lon="12.306758341124894" id="-16998">
		<tag k="name" v="Purusberget" />
		<tag k="place" v="locality" />
		<tag k="ssr:stedsnr" v="586254" />
	</node>
	<node lat="60.44852500069384" lon="12.357313893503903" id="-16999">
		<tag k="name" v="Svartberget" />
		<tag k="place" v="locality" />
		<tag k="ssr:stedsnr" v="586411" />
	</node>
	<node lat="60.501230555580506" lon="12.280788882839362" id="-17000">
		<tag k="name" v="Stormyra" />
		<tag k="natural" v="wetland" />
		<tag k="ssr:stedsnr" v="586490" />
	</node>
	<node lat="60.48913055493505" lon="12.569069442505363" id="-17001">
		<tag k="name" v="Baksjøbekkoset" />
		<tag k="natural" v="bay" />
		<tag k="ssr:stedsnr" v="586595" />
	</node>
	<node lat="60.47990555580753" lon="12.524625008846703" id="-17002">
		<tag k="name" v="Nydammen" />
		<tag k="ssr:stedsnr" v="586598" />
		<tag k="waterway" v="dam" />
	</node>
	<node lat="60.36939999637877" lon="11.850352782682496" id="-17003">
		<tag k="name" v="Smørtjennet" />
		<tag k="natural" v="water" />
		<tag k="ssr:stedsnr" v="587253" />
	</node>
	<node lat="60.368252776647935" lon="11.861697225529706" id="-17004">
		<tag k="name" v="Svarttjennsmyra" />
		<tag k="natural" v="wetland" />
		<tag k="ssr:stedsnr" v="587256" />
	</node>
	<node lat="60.53241666450713" lon="12.414169438577922" id="-17005">
		<tag k="name" v="Revtjennet" />
		<tag k="natural" v="water" />
		<tag k="ssr:stedsnr" v="587916" />
	</node>
	<node lat="60.529322223721174" lon="12.427925001509896" id="-17006">
		<tag k="name" v="Galtryggen" />
		<tag k="natural" v="ridge" />
		<tag k="place" v="locality" />
		<tag k="ssr:stedsnr" v="587918" />
	</node>
	<node lat="60.4678083363201" lon="11.978638887413688" id="-17007">
		<tag k="name" v="Skavåsen" />
		<tag k="place" v="farm" />
		<tag k="ssr:stedsnr" v="587866" />
	</node>
	<node lat="60.44420555099842" lon="12.46464445013887" id="-17008">
		<tag k="name" v="Sandvika" />
		<tag k="natural" v="bay" />
		<tag k="ssr:stedsnr" v="588063" />
	</node>
	<node lat="60.4317277740991" lon="12.494952772320438" id="-17009">
		<tag k="name" v="Jurka" />
		<tag k="place" v="isolated_dwelling" />
		<tag k="ssr:stedsnr" v="588067" />
	</node>
	<node lat="60.42395555602724" lon="12.414263880376318" id="-17010">
		<tag k="name" v="Skjærmyra" />
		<tag k="natural" v="wetland" />
		<tag k="ssr:stedsnr" v="588070" />
	</node>
	<node lat="60.41861111174668" lon="11.899563881180255" id="-17011">
		<tag k="name" v="Eftasberget" />
		<tag k="natural" v="hill" />
		<tag k="place" v="locality" />
		<tag k="ssr:stedsnr" v="588110" />
	</node>
	<node lat="60.407530556130084" lon="12.341744448447187" id="-17012">
		<tag k="name" v="Løvbergsmyra" />
		<tag k="natural" v="wetland" />
		<tag k="ssr:stedsnr" v="588428" />
	</node>
	<node lat="60.37817499781653" lon="12.385630562584604" id="-17013">
		<tag k="name" v="Skriviltjennet" />
		<tag k="natural" v="water" />
		<tag k="ssr:stedsnr" v="588434" />
	</node>
	<node lat="60.38022777913725" lon="12.352797215002406" id="-17014">
		<tag k="name" v="Taulvasen" />
		<tag k="natural" v="shoal" />
		<tag k="place" v="locality" />
		<tag k="ssr:stedsnr" v="588454" />
	</node>
	<node lat="60.5043888848106" lon="12.428188887583245" id="-17015">
		<tag k="name" v="Påskemyra" />
		<tag k="natural" v="wetland" />
		<tag k="ssr:stedsnr" v="588903" />
	</node>
	<node lat="60.5174583340482" lon="12.425338892835805" id="-17016">
		<tag k="name" v="Kønelen" />
		<tag k="place" v="locality" />
		<tag k="ssr:stedsnr" v="588909" />
	</node>
	<node lat="60.52483610885437" lon="12.114630559948827" id="-17017">
		<tag k="name" v="Pukstein" />
		<tag k="natural" v="stone" />
		<tag k="ssr:stedsnr" v="787777" />
	</node>
	<node lat="60.433277773518796" lon="12.193494449278374" id="-17018">
		<tag k="name" v="Djupvasevika" />
		<tag k="natural" v="bay" />
		<tag k="ssr:stedsnr" v="600548" />
	</node>
	<node lat="60.433822218283346" lon="12.215288887959261" id="-17019">
		<tag k="name" v="Møllerkoia" />
		<tag k="place" v="locality" />
		<tag k="ssr:stedsnr" v="600552" />
	</node>
	<node lat="60.460027773800874" lon="12.305880556132227" id="-17020">
		<tag k="historic" v="shieling" />
		<tag k="name" v="Ødegårdsætra" />
		<tag k="place" v="locality" />
		<tag k="ssr:stedsnr" v="601303" />
	</node>
	<node lat="60.38033888480557" lon="12.2709166642135" id="-17021">
		<tag k="name" v="Jønsøkmyrdråga" />
		<tag k="natural" v="valley" />
		<tag k="place" v="locality" />
		<tag k="ssr:stedsnr" v="601507" />
	</node>
	<node lat="60.366938885262755" lon="12.55600278118987" id="-17022">
		<tag k="name" v="Kalsjøbergsmyra" />
		<tag k="natural" v="wetland" />
		<tag k="ssr:stedsnr" v="601819" />
	</node>
	<node lat="60.446188892428005" lon="12.160802779773443" id="-17023">
		<tag k="alt_name" v="Sætersberget" />
		<tag k="name" v="Sæterberget" />
		<tag k="place" v="locality" />
		<tag k="ssr:stedsnr" v="601926" />
	</node>
	<node lat="60.35211110866931" lon="12.157933329453156" id="-17024">
		<tag k="name" v="Delebekken" />
		<tag k="ssr:stedsnr" v="601962" />
		<tag k="waterway" v="stream" />
	</node>
	<node lat="60.36821666502057" lon="12.168558334018261" id="-17025">
		<tag k="name" v="Rådelstjennet" />
		<tag k="natural" v="water" />
		<tag k="ssr:stedsnr" v="601900" />
	</node>
	<node lat="60.35444721896106" lon="12.480097226284544" id="-17026">
		<tag k="name" v="Kjelkevika" />
		<tag k="natural" v="bay" />
		<tag k="ssr:stedsnr" v="603113" />
	</node>
	<node lat="60.34785277649884" lon="12.477494440599948" id="-17027">
		<tag k="name" v="Bendiksvika" />
		<tag k="natural" v="bay" />
		<tag k="ssr:stedsnr" v="603114" />
	</node>
	<node lat="60.35651666413599" lon="12.469633338950931" id="-17028">
		<tag k="name" v="Pilliso" />
		<tag k="place" v="locality" />
		<tag k="ssr:stedsnr" v="603118" />
	</node>
	<node lat="60.396136110750476" lon="12.412052784479332" id="-17029">
		<tag k="name" v="Gryta" />
		<tag k="natural" v="valley" />
		<tag k="place" v="locality" />
		<tag k="ssr:stedsnr" v="603067" />
	</node>
	<node lat="60.408683330985816" lon="12.485902773309299" id="-17030">
		<tag k="name" v="Bonsbråten" />
		<tag k="place" v="locality" />
		<tag k="ssr:stedsnr" v="604034" />
	</node>
	<node lat="60.43611111190064" lon="12.600152777824778" id="-17031">
		<tag k="name" v="Damvika" />
		<tag k="natural" v="wetland" />
		<tag k="ssr:stedsnr" v="604700" />
	</node>
	<node lat="60.43239386926972" lon="12.33750362923212" id="-17032">
		<tag k="fixme" v="consider place=hamlet" />
		<tag k="name" v="Skasberget" />
		<tag k="place" v="farm" />
		<tag k="ssr:stedsnr" v="612015" />
	</node>
	<node lat="60.42155277345643" lon="12.524600005051344" id="-17033">
		<tag k="name" v="Lyngholmen" />
		<tag k="place" v="islet" />
		<tag k="ssr:stedsnr" v="612026" />
	</node>
	<node lat="60.47126111136608" lon="12.493874992248964" id="-17034">
		<tag k="name" v="Lauvberget" />
		<tag k="natural" v="hill" />
		<tag k="place" v="locality" />
		<tag k="ssr:stedsnr" v="612120" />
	</node>
	<node lat="60.46739166997947" lon="12.541866675896951" id="-17035">
		<tag k="name" v="Fisketjennet" />
		<tag k="natural" v="water" />
		<tag k="ssr:stedsnr" v="612121" />
	</node>
	<node lat="60.46110385865089" lon="12.439952835971736" id="-17036">
		<tag k="fixme" v="consider place=hamlet" />
		<tag k="name" v="Halvortjernsberget" />
		<tag k="old_name" v="Håberget" />
		<tag k="place" v="farm" />
		<tag k="ssr:stedsnr" v="612127" />
	</node>
	<node lat="60.35502777518398" lon="12.203208340128688" id="-17037">
		<tag k="name" v="Høgtidsberget" />
		<tag k="natural" v="hill" />
		<tag k="place" v="locality" />
		<tag k="ssr:stedsnr" v="612268" />
	</node>
	<node lat="60.4113222229673" lon="11.859105560577738" id="-17038">
		<tag k="name" v="Bjerkesætra" />
		<tag k="place" v="hamlet" />
		<tag k="ssr:stedsnr" v="612370" />
	</node>
	<node lat="60.40727277857968" lon="12.001069756859895" id="-17039">
		<tag k="fixme" v="consider place=hamlet" />
		<tag k="name" v="Oppåker" />
		<tag k="place" v="farm" />
		<tag k="ssr:stedsnr" v="612372" />
	</node>
	<node lat="60.48712987111469" lon="12.020320902455401" id="-17040">
		<tag k="fixme" v="consider place=hamlet" />
		<tag k="name" v="Kjølset" />
		<tag k="place" v="farm" />
		<tag k="ssr:stedsnr" v="612685" />
	</node>
	<node lat="60.42211110690985" lon="11.991097229820305" id="-17041">
		<tag k="name" v="Skinnarbøl" />
		<tag k="place" v="farm" />
		<tag k="ssr:stedsnr" v="612720" />
	</node>
	<node lat="60.41681110809675" lon="11.892033340200555" id="-17042">
		<tag k="name" v="Prinsdalen" />
		<tag k="place" v="isolated_dwelling" />
		<tag k="ssr:stedsnr" v="612724" />
	</node>
	<node lat="60.393655558656945" lon="12.584530564712571" id="-17043">
		<tag k="name" v="Langnabben" />
		<tag k="place" v="islet" />
		<tag k="ssr:stedsnr" v="613065" />
	</node>
	<node lat="60.48352777841597" lon="12.256199993444916" id="-17044">
		<tag k="name" v="Sesselberget" />
		<tag k="natural" v="hill" />
		<tag k="place" v="locality" />
		<tag k="ssr:stedsnr" v="613081" />
	</node>
	<node lat="60.46994444067595" lon="12.300166662732655" id="-17045">
		<tag k="name" v="Sollia" />
		<tag k="place" v="farm" />
		<tag k="ssr:stedsnr" v="613103" />
	</node>
	<node lat="60.463152774727185" lon="12.377383332746954" id="-17046">
		<tag k="alt_name" v="Rotneberget, nedre;Nergarden;Rotneberget" />
		<tag k="name" v="Nedre Rotneberget" />
		<tag k="place" v="farm" />
		<tag k="ssr:stedsnr" v="613106" />
	</node>
	<node lat="60.36041944659286" lon="11.933411116425203" id="-17047">
		<tag k="name" v="Kvernberget" />
		<tag k="natural" v="hill" />
		<tag k="place" v="locality" />
		<tag k="ssr:stedsnr" v="613265" />
	</node>
	<node lat="60.3716111147997" lon="12.201952769308082" id="-17048">
		<tag k="name" v="Sarvtjennet" />
		<tag k="natural" v="water" />
		<tag k="ssr:stedsnr" v="613361" />
	</node>
	<node lat="60.51500277480176" lon="12.303216662715514" id="-17049">
		<tag k="name" v="Bjørntjennet" />
		<tag k="natural" v="water" />
		<tag k="ssr:stedsnr" v="613702" />
	</node>
	<node lat="60.544561111891056" lon="12.094530564061918" id="-17050">
		<tag k="name" v="Sorka" />
		<tag k="ssr:stedsnr" v="613902" />
		<tag k="waterway" v="stream" />
	</node>
</osm>
