<?xml version="1.0" encoding="UTF-8"?>
<<<<<<< HEAD
<osm version="0.6" generator="osmapis">
	<node lat="58.42344444276499" lon="7.750763884857266" id="-22864">
		<tag k="name" v="Åsane" />
		<tag k="place" v="farm" />
		<tag k="ssr:stedsnr" v="165" />
	</node>
	<node lat="58.2737916687282" lon="7.970794446254258" id="-22877">
		<tag k="name" v="Vardehei" />
		<tag k="place" v="quarter" />
		<tag k="ssr:stedsnr" v="33906" />
	</node>
	<node lat="58.293358331621384" lon="7.992658334190779" id="-22879">
		<tag k="name" v="Utsikten" />
		<tag k="place" v="quarter" />
		<tag k="ssr:stedsnr" v="33909" />
	</node>
	<node lat="58.257619443292505" lon="7.85611945158339" id="-22908">
		<tag k="name" v="Spansmyr" />
		<tag k="place" v="farm" />
		<tag k="ssr:stedsnr" v="34487" />
	</node>
	<node lat="58.28472777996926" lon="7.976925003169303" id="-22928">
		<tag k="name" v="Ludeflaten" />
		<tag k="place" v="quarter" />
		<tag k="ssr:stedsnr" v="60001" />
	</node>
	<node lat="58.29428889135885" lon="7.794077769198749" id="-22930">
		<tag k="name" v="Sangesland" />
		<tag k="place" v="hamlet" />
		<tag k="ssr:stedsnr" v="60022" />
	</node>
	<node lat="58.374316668356364" lon="7.888977778523505" id="-22931">
		<tag k="fixme" v="consider place=hamlet" />
		<tag k="name" v="Beinestveit" />
		<tag k="place" v="farm" />
		<tag k="ssr:stedsnr" v="60173" />
	</node>
	<node lat="58.23640278152097" lon="7.932822224098027" id="-22936">
		<tag k="fixme" v="consider place=hamlet" />
		<tag k="name" v="Ravnås" />
		<tag k="place" v="farm" />
		<tag k="ssr:stedsnr" v="61093" />
	</node>
	<node lat="58.32369444469529" lon="7.777863882247362" id="-22938">
		<tag k="fixme" v="consider place=hamlet" />
		<tag k="name" v="Histøl" />
=======
<osm generator="osmapis" version="0.6">
	<node id="-564736" lat="58.2453194467" lon="7.87531666027">
		<tag k="name" v="Skodan" />
		<tag k="place" v="hamlet" />
		<tag k="ssr:stedsnr" v="228793" />
	</node>
	<node id="-567296" lat="58.2906944417" lon="7.87362777497">
		<tag k="name" v="Heia" />
>>>>>>> e1d4bc35ff8a6074a6f2e91616a996b547c36f15
		<tag k="place" v="farm" />
		<tag k="ssr:stedsnr" v="61102" />
	</node>
<<<<<<< HEAD
	<node lat="58.29390277346102" lon="7.833494440015388" id="-22939">
		<tag k="alt_name" v="Bjerkåsen" />
		<tag k="name" v="Birkåsen" />
		<tag k="place" v="farm" />
		<tag k="ssr:stedsnr" v="242014" />
	</node>
	<node lat="58.38473055655101" lon="7.666433325664904" id="-22942">
		<tag k="alt_name" v="Høvårsland" />
		<tag k="fixme" v="consider place=hamlet" />
		<tag k="name" v="Høversland" />
=======
	<node id="-568172" lat="58.4118777742" lon="7.74538332682">
		<tag k="name" v="Sauekrokløa" />
		<tag k="place" v="locality" />
		<tag k="ssr:stedsnr" v="762218" />
	</node>
	<node id="-566781" lat="58.2703694485" lon="7.71543055072">
		<tag k="name" v="Fureneset" />
>>>>>>> e1d4bc35ff8a6074a6f2e91616a996b547c36f15
		<tag k="place" v="farm" />
		<tag k="ssr:stedsnr" v="242944" />
	</node>
<<<<<<< HEAD
	<node lat="58.26319166227451" lon="7.819369444947858" id="-22943">
		<tag k="alt_name" v="Iglebekk, store" />
		<tag k="loc_name" v="Iglebekk" />
		<tag k="name" v="Ilebekk" />
=======
	<node id="-567804" lat="58.3880583308" lon="7.65961111881">
		<tag k="name" v="Holtan" />
>>>>>>> e1d4bc35ff8a6074a6f2e91616a996b547c36f15
		<tag k="place" v="farm" />
		<tag k="ssr:stedsnr" v="243045" />
	</node>
<<<<<<< HEAD
	<node lat="58.31170665579599" lon="7.997635201722683" id="-22948">
		<tag k="name" v="Granheim" />
=======
	<node id="-567803" lat="58.3874055587" lon="7.66644721922">
		<tag k="name" v="Knapen" />
>>>>>>> e1d4bc35ff8a6074a6f2e91616a996b547c36f15
		<tag k="place" v="farm" />
		<tag k="ssr:stedsnr" v="243096" />
	</node>
<<<<<<< HEAD
	<node lat="58.335761115273634" lon="7.985252775174591" id="-22953">
		<tag k="alt_name" v="Dalli" />
		<tag k="name" v="Blautekjerrane" />
		<tag k="place" v="farm" />
		<tag k="ssr:stedsnr" v="243112" />
	</node>
	<node lat="58.336436114904984" lon="7.687375001522748" id="-22955">
		<tag k="name" v="Moland" />
=======
	<node id="-567289" lat="58.2571722191" lon="7.74528611644">
		<tag k="name" v="Nordli" />
		<tag k="place" v="farm" />
		<tag k="ssr:stedsnr" v="337541" />
	</node>
	<node id="-567800" lat="58.2981388866" lon="7.77970833788">
		<tag k="amenity" v="nursing_home" />
		<tag k="name" v="Nordhagen" />
		<tag k="ssr:stedsnr" v="579775" />
	</node>
	<node id="-566100" lat="58.3237027783" lon="7.65672221849">
		<tag k="fixme" v="consider place=hamlet" />
		<tag k="name" v="Haugland" />
		<tag k="place" v="farm" />
		<tag k="ssr:stedsnr" v="910773" />
	</node>
	<node id="-567798" lat="58.3158888846" lon="7.80112500645">
		<tag k="name" v="Myran" />
>>>>>>> e1d4bc35ff8a6074a6f2e91616a996b547c36f15
		<tag k="place" v="farm" />
		<tag k="ssr:stedsnr" v="243768" />
	</node>
<<<<<<< HEAD
	<node lat="58.260549997703244" lon="7.9707361035298065" id="-22970">
		<tag k="name" v="Danskehaugen" />
		<tag k="place" v="quarter" />
		<tag k="ssr:stedsnr" v="94615" />
	</node>
	<node lat="58.24548611257262" lon="7.944472214570332" id="-22999">
		<tag k="name" v="Heiselflaten" />
		<tag k="place" v="isolated_dwelling" />
		<tag k="ssr:stedsnr" v="95408" />
	</node>
	<node lat="58.31161389306627" lon="7.960872224924743" id="-23047">
		<tag k="fixme" v="consider place=hamlet" />
		<tag k="name" v="Paulen" />
=======
	<node id="-567283" lat="58.371150003" lon="7.75589721686">
		<tag k="name" v="Øvregarden" />
		<tag k="place" v="farm" />
		<tag k="ssr:stedsnr" v="337509" />
	</node>
	<node id="-567282" lat="58.311019447" lon="7.78308889694">
		<tag k="name" v="Grostøl" />
>>>>>>> e1d4bc35ff8a6074a6f2e91616a996b547c36f15
		<tag k="place" v="farm" />
		<tag k="ssr:stedsnr" v="121115" />
	</node>
<<<<<<< HEAD
	<node lat="58.37979721997732" lon="7.818641670611105" id="-23048">
		<tag k="fixme" v="consider place=hamlet" />
		<tag k="name" v="Flanestad" />
		<tag k="place" v="farm" />
		<tag k="ssr:stedsnr" v="121163" />
	</node>
	<node lat="58.38433611340208" lon="7.834669450033287" id="-23049">
=======
	<node id="-567279" lat="58.2450055582" lon="7.85917499639">
>>>>>>> e1d4bc35ff8a6074a6f2e91616a996b547c36f15
		<tag k="fixme" v="consider place=hamlet" />
		<tag k="name" v="Båseland" />
		<tag k="place" v="farm" />
		<tag k="ssr:stedsnr" v="121174" />
	</node>
<<<<<<< HEAD
	<node lat="58.33963888523277" lon="7.97323610631672" id="-23136">
=======
	<node id="-567278" lat="58.315416665" lon="7.77442777886">
		<tag k="alt_name" v="Fjellstad" />
>>>>>>> e1d4bc35ff8a6074a6f2e91616a996b547c36f15
		<tag k="fixme" v="consider place=hamlet" />
		<tag k="name" v="Jeppestøl" />
		<tag k="place" v="farm" />
		<tag k="ssr:stedsnr" v="182061" />
	</node>
<<<<<<< HEAD
	<node lat="58.2309388876991" lon="7.764249998677246" id="-23137">
=======
	<node id="-567277" lat="58.4043888872" lon="7.84321389433">
>>>>>>> e1d4bc35ff8a6074a6f2e91616a996b547c36f15
		<tag k="fixme" v="consider place=hamlet" />
		<tag k="name" v="Åsen" />
		<tag k="place" v="farm" />
		<tag k="ssr:stedsnr" v="182071" />
	</node>
<<<<<<< HEAD
	<node lat="58.326747222778124" lon="7.772836111777192" id="-23139">
		<tag k="alt_name" v="Stovevollen" />
		<tag k="name" v="Stuevollen" />
		<tag k="place" v="farm" />
		<tag k="ssr:stedsnr" v="182103" />
	</node>
	<node lat="58.371530552087386" lon="7.7557111083261425" id="-23141">
=======
	<node id="-566477" lat="58.4317361092" lon="7.74200834009">
		<tag k="name" v="Derute" />
		<tag k="place" v="farm" />
		<tag k="ssr:stedsnr" v="884953" />
	</node>
	<node id="-567274" lat="58.3900861125" lon="7.73276666583">
>>>>>>> e1d4bc35ff8a6074a6f2e91616a996b547c36f15
		<tag k="fixme" v="consider place=hamlet" />
		<tag k="name" v="Eikeland" />
		<tag k="place" v="farm" />
		<tag k="ssr:stedsnr" v="182150" />
	</node>
<<<<<<< HEAD
	<node lat="58.37796110726583" lon="7.885424995144" id="-23142">
=======
	<node id="-566249" lat="58.2424707225" lon="7.94772592713">
>>>>>>> e1d4bc35ff8a6074a6f2e91616a996b547c36f15
		<tag k="fixme" v="consider place=hamlet" />
		<tag k="name" v="Skåreland" />
		<tag k="place" v="farm" />
		<tag k="ssr:stedsnr" v="182157" />
	</node>
<<<<<<< HEAD
	<node lat="58.33985555612665" lon="7.886333330687496" id="-23152">
		<tag k="name" v="Øygarden" />
		<tag k="place" v="farm" />
		<tag k="ssr:stedsnr" v="216271" />
	</node>
	<node lat="58.341412345141485" lon="7.884648536687023" id="-23153">
		<tag k="name" v="Bakken" />
=======
	<node id="-567272" lat="58.2673055565" lon="7.70955555629">
		<tag k="name" v="Årvoll" />
		<tag k="place" v="farm" />
		<tag k="ssr:stedsnr" v="303216" />
	</node>
	<node id="-567271" lat="58.2639527803" lon="7.95931943749">
		<tag k="fixme" v="consider place=suburb, village or hamlet" />
		<tag k="name" v="Moseidmoen" />
		<tag k="place" v="quarter" />
		<tag k="ssr:stedsnr" v="303051" />
	</node>
	<node id="-565221" lat="58.386213893" lon="7.66698334142">
		<tag k="name" v="Eikerapen" />
>>>>>>> e1d4bc35ff8a6074a6f2e91616a996b547c36f15
		<tag k="place" v="farm" />
		<tag k="ssr:stedsnr" v="216273" />
	</node>
<<<<<<< HEAD
	<node lat="58.261291666695435" lon="7.854036115903368" id="-23165">
		<tag k="name" v="Krogan" />
		<tag k="place" v="locality" />
		<tag k="ssr:stedsnr" v="216183" />
	</node>
	<node lat="58.259750003157976" lon="7.858744443562934" id="-23166">
		<tag k="name" v="Lolandsbakken" />
		<tag k="place" v="locality" />
		<tag k="ssr:stedsnr" v="216184" />
	</node>
	<node lat="58.35968333062071" lon="7.637166668146176" id="-23199">
=======
	<node id="-565220" lat="58.3887222248" lon="7.8904972224">
		<tag k="name" v="Herstad" />
		<tag k="place" v="farm" />
		<tag k="ssr:stedsnr" v="459605" />
	</node>
	<node id="-567778" lat="58.2866305555" lon="7.84410833014">
		<tag k="name" v="Tverrbakken" />
		<tag k="place" v="farm" />
		<tag k="ssr:stedsnr" v="579090" />
	</node>
	<node id="-567265" lat="58.3596833306" lon="7.63716666815">
>>>>>>> e1d4bc35ff8a6074a6f2e91616a996b547c36f15
		<tag k="name" v="Gamle Mørkestøl" />
		<tag k="place" v="locality" />
		<tag k="ssr:stedsnr" v="216922" />
	</node>
<<<<<<< HEAD
	<node lat="58.245319446685784" lon="7.875316660271019" id="-23237">
		<tag k="name" v="Skodan" />
		<tag k="place" v="hamlet" />
		<tag k="ssr:stedsnr" v="228793" />
	</node>
	<node lat="58.3576138890152" lon="7.685758339397035" id="-23241">
		<tag k="fixme" v="consider place=hamlet" />
		<tag k="name" v="Vikstøl" />
=======
	<node id="-567264" lat="58.4187916665" lon="7.70908055721">
		<tag k="name" v="Vestheiløa" />
		<tag k="place" v="locality" />
		<tag k="ssr:stedsnr" v="216919" />
	</node>
	<node id="-568286" lat="58.291838891" lon="7.79396944076">
		<tag k="name" v="Monen" />
>>>>>>> e1d4bc35ff8a6074a6f2e91616a996b547c36f15
		<tag k="place" v="farm" />
		<tag k="ssr:stedsnr" v="243787" />
	</node>
<<<<<<< HEAD
	<node lat="58.29462777980667" lon="7.869563882157757" id="-23244">
		<tag k="name" v="Stien" />
=======
	<node id="-567773" lat="58.3667555544" lon="7.81876945248">
		<tag k="alt_name" v="Storhei" />
		<tag k="fixme" v="consider place=hamlet" />
		<tag k="name" v="Storrhei" />
>>>>>>> e1d4bc35ff8a6074a6f2e91616a996b547c36f15
		<tag k="place" v="farm" />
		<tag k="ssr:stedsnr" v="458088" />
	</node>
<<<<<<< HEAD
	<node lat="58.25903889296173" lon="7.744741668599881" id="-23252">
		<tag k="name" v="Monen" />
=======
	<node id="-567770" lat="58.3100055551" lon="7.99090555037">
		<tag k="name" v="Bjelkedalen" />
>>>>>>> e1d4bc35ff8a6074a6f2e91616a996b547c36f15
		<tag k="place" v="farm" />
		<tag k="ssr:stedsnr" v="458301" />
	</node>
<<<<<<< HEAD
	<node lat="58.22479009395912" lon="7.9385263387554446" id="-23284">
		<tag k="name" v="Saga" />
=======
	<node id="-567769" lat="58.3080111151" lon="7.79424444537">
		<tag k="alt_name" v="Raustad" />
		<tag k="fixme" v="consider place=hamlet" />
		<tag k="name" v="Røstad" />
>>>>>>> e1d4bc35ff8a6074a6f2e91616a996b547c36f15
		<tag k="place" v="farm" />
		<tag k="ssr:stedsnr" v="459291" />
	</node>
<<<<<<< HEAD
	<node lat="58.24809722473145" lon="7.965436112937091" id="-23297">
		<tag k="name" v="Goli" />
=======
	<node id="-567768" lat="58.3467333326" lon="7.78126943976">
		<tag k="fixme" v="consider place=hamlet" />
		<tag k="name" v="Åmdal" />
>>>>>>> e1d4bc35ff8a6074a6f2e91616a996b547c36f15
		<tag k="place" v="farm" />
		<tag k="ssr:stedsnr" v="459423" />
	</node>
	<node lat="58.25871666876326" lon="7.973233331825414" id="-23300">
		<tag k="name" v="Tjorvemoen" />
		<tag k="place" v="isolated_dwelling" />
		<tag k="ssr:stedsnr" v="459400" />
	</node>
<<<<<<< HEAD
	<node lat="58.37588611254624" lon="7.756736102972279" id="-23303">
=======
	<node id="-565207" lat="58.3758861125" lon="7.75673610297">
>>>>>>> e1d4bc35ff8a6074a6f2e91616a996b547c36f15
		<tag k="name" v="Nordgarden" />
		<tag k="place" v="farm" />
		<tag k="ssr:stedsnr" v="459436" />
	</node>
<<<<<<< HEAD
	<node lat="58.31506389158065" lon="7.759319448233331" id="-23308">
=======
	<node id="-567766" lat="58.3439111122" lon="8.03372221647">
>>>>>>> e1d4bc35ff8a6074a6f2e91616a996b547c36f15
		<tag k="fixme" v="consider place=hamlet" />
		<tag k="name" v="Frustøl" />
		<tag k="place" v="farm" />
		<tag k="ssr:stedsnr" v="275228" />
	</node>
<<<<<<< HEAD
	<node lat="58.33793055156284" lon="7.686611107866885" id="-23375">
		<tag k="name" v="Nordbø" />
=======
	<node id="-564693" lat="58.4234444428" lon="7.75076388486">
		<tag k="name" v="Åsane" />
>>>>>>> e1d4bc35ff8a6074a6f2e91616a996b547c36f15
		<tag k="place" v="farm" />
		<tag k="ssr:stedsnr" v="277414" />
	</node>
<<<<<<< HEAD
	<node lat="58.24881944853345" lon="7.960733330991505" id="-23379">
		<tag k="name" v="Bakhei" />
		<tag k="place" v="quarter" />
		<tag k="ssr:stedsnr" v="277433" />
	</node>
	<node lat="58.43562777582379" lon="7.784941671873528" id="-23418">
		<tag k="name" v="Der heime" />
		<tag k="place" v="farm" />
		<tag k="ssr:stedsnr" v="459994" />
	</node>
	<node lat="58.26730555651245" lon="7.7095555562911615" id="-23445">
		<tag k="name" v="Årvoll" />
		<tag k="place" v="farm" />
		<tag k="ssr:stedsnr" v="303216" />
	</node>
	<node lat="58.389572225233884" lon="7.741291661889197" id="-23486">
		<tag k="name" v="Nesheim" />
		<tag k="place" v="farm" />
		<tag k="ssr:stedsnr" v="337402" />
	</node>
	<node lat="58.371150003015536" lon="7.75589721685993" id="-23496">
		<tag k="name" v="Øvregarden" />
=======
	<node id="-568276" lat="58.3155277764" lon="8.01581944775">
		<tag k="alt_name" v="Rugenes" />
		<tag k="fixme" v="consider place=hamlet" />
		<tag k="name" v="Ruenes" />
		<tag k="place" v="farm" />
		<tag k="ssr:stedsnr" v="789097" />
	</node>
	<node id="-568273" lat="58.3871200656" lon="7.68934086045">
		<tag k="alt_name" v="Skuggunsa" />
		<tag k="name" v="Skuggupsa" />
		<tag k="place" v="farm" />
		<tag k="ssr:stedsnr" v="788939" />
	</node>
	<node id="-567760" lat="58.2876638918" lon="7.87729999897">
		<tag k="name" v="Loland" />
		<tag k="place" v="hamlet" />
		<tag k="ssr:stedsnr" v="546013" />
	</node>
	<node id="-565199" lat="58.2587166688" lon="7.97323333183">
		<tag k="name" v="Tjorvemoen" />
		<tag k="place" v="isolated_dwelling" />
		<tag k="ssr:stedsnr" v="459400" />
	</node>
	<node id="-567758" lat="58.2886444453" lon="7.98534444906">
		<tag k="alt_name" v="Liane" />
		<tag k="fixme" v="consider place=hamlet" />
		<tag k="name" v="Lian" />
>>>>>>> e1d4bc35ff8a6074a6f2e91616a996b547c36f15
		<tag k="place" v="farm" />
		<tag k="ssr:stedsnr" v="337509" />
	</node>
	<node lat="58.2579972246756" lon="7.964536109753502" id="-23522">
		<tag k="building" v="industrial" />
		<tag k="name" v="Reber fabr." />
		<tag k="ssr:stedsnr" v="338351" />
	</node>
<<<<<<< HEAD
	<node lat="58.3008166698993" lon="7.795847217312929" id="-23551">
		<tag k="alt_name" v="Li" />
=======
	<node id="-566733" lat="58.3743166684" lon="7.88897777852">
>>>>>>> e1d4bc35ff8a6074a6f2e91616a996b547c36f15
		<tag k="fixme" v="consider place=hamlet" />
		<tag k="name" v="Lie" />
		<tag k="place" v="farm" />
		<tag k="ssr:stedsnr" v="364113" />
	</node>
<<<<<<< HEAD
	<node lat="58.33080833079668" lon="7.860544446698271" id="-23552">
		<tag k="name" v="Føreland" />
=======
	<node id="-566731" lat="58.2965500042" lon="8.00808889029">
		<tag k="alt_name" v="Rønningen;Rydningen" />
		<tag k="fixme" v="consider place=hamlet" />
		<tag k="name" v="Rønninga" />
>>>>>>> e1d4bc35ff8a6074a6f2e91616a996b547c36f15
		<tag k="place" v="farm" />
		<tag k="ssr:stedsnr" v="364126" />
	</node>
<<<<<<< HEAD
	<node lat="58.24845000404753" lon="7.869475006727814" id="-23554">
		<tag k="name" v="Stemmen" />
=======
	<node id="-566729" lat="58.2942888914" lon="7.7940777692">
		<tag k="name" v="Sangesland" />
>>>>>>> e1d4bc35ff8a6074a6f2e91616a996b547c36f15
		<tag k="place" v="hamlet" />
		<tag k="ssr:stedsnr" v="392440" />
	</node>
<<<<<<< HEAD
	<node lat="58.265941662907856" lon="7.82989999727586" id="-23567">
		<tag k="name" v="Slettebrotane" />
		<tag k="place" v="quarter" />
		<tag k="ssr:stedsnr" v="397499" />
	</node>
	<node lat="58.30812778178927" lon="7.828036104024396" id="-23569">
		<tag k="name" v="Bakkan" />
=======
	<node id="-567240" lat="58.3702222181" lon="7.75897221585">
		<tag k="name" v="Hopsåkeren" />
>>>>>>> e1d4bc35ff8a6074a6f2e91616a996b547c36f15
		<tag k="place" v="farm" />
		<tag k="ssr:stedsnr" v="397736" />
	</node>
<<<<<<< HEAD
	<node lat="58.27183610888197" lon="7.9734944377688945" id="-23570">
		<tag k="name" v="Tvidøblane" />
		<tag k="place" v="quarter" />
		<tag k="ssr:stedsnr" v="397916" />
	</node>
	<node lat="58.348675004141434" lon="7.880197226249154" id="-23586">
		<tag k="name" v="Bumyr" />
=======
	<node id="-565191" lat="58.2248555548" lon="7.93773611495">
		<tag k="name" v="Saga" />
		<tag k="place" v="isolated_dwelling" />
		<tag k="ssr:stedsnr" v="459291" />
	</node>
	<node id="-565187" lat="58.3258416641" lon="7.85338888627">
		<tag k="name" v="Røllend" />
>>>>>>> e1d4bc35ff8a6074a6f2e91616a996b547c36f15
		<tag k="place" v="locality" />
		<tag k="ssr:stedsnr" v="398201" />
	</node>
	<node lat="58.37294444708566" lon="7.758991670563639" id="-23602">
		<tag k="name" v="Nergarden" />
		<tag k="place" v="farm" />
		<tag k="ssr:stedsnr" v="398436" />
	</node>
	<node lat="58.255672223414" lon="7.750627778162614" id="-23607">
		<tag k="name" v="Lian" />
		<tag k="place" v="farm" />
		<tag k="ssr:stedsnr" v="398507" />
	</node>
<<<<<<< HEAD
	<node lat="58.30583055309666" lon="7.823788885114814" id="-23631">
		<tag k="alt_name" v="Sandrip" />
		<tag k="name" v="Sandrep" />
		<tag k="place" v="hamlet" />
		<tag k="ssr:stedsnr" v="485097" />
	</node>
	<node lat="58.32901388671441" lon="7.776108335171645" id="-23632">
		<tag k="fixme" v="consider place=hamlet" />
		<tag k="name" v="Ropstad" />
		<tag k="place" v="farm" />
		<tag k="ssr:stedsnr" v="485098" />
	</node>
	<node lat="58.38342778141406" lon="7.7413361052578304" id="-23635">
		<tag k="alt_name" v="Hægelandskrossen" />
		<tag k="fixme" v="consider place=suburb, village or hamlet" />
		<tag k="name" v="Hægeland" />
		<tag k="place" v="quarter" />
		<tag k="ssr:stedsnr" v="485142" />
	</node>
	<node lat="58.34301388640812" lon="7.690316660717115" id="-23637">
		<tag k="alt_name" v="Førland" />
		<tag k="name" v="Føreland" />
=======
	<node id="-565408" lat="58.2538527743" lon="7.76730000227">
		<tag k="alt_name" v="Hægeland, yt" />
		<tag k="fixme" v="consider place=hamlet" />
		<tag k="name" v="Ytre Hægeland" />
		<tag k="place" v="farm" />
		<tag k="ssr:stedsnr" v="425028" />
	</node>
	<node id="-568514" lat="58.279463641" lon="7.95295047209">
		<tag k="fixme" v="consider place=hamlet" />
		<tag k="name" v="Bommen" />
		<tag k="place" v="farm" />
		<tag k="ssr:stedsnr" v="978454" />
	</node>
	<node id="-565322" lat="58.3649055568" lon="7.65543888286">
		<tag k="alt_name" v="Mørkestøl" />
		<tag k="name" v="Ny Mørkestøl" />
		<tag k="place" v="locality" />
		<tag k="ssr:stedsnr" v="303966" />
	</node>
	<node id="-566200" lat="58.4050055593" lon="7.83554721491">
		<tag k="name" v="Sommerfjoset" />
		<tag k="place" v="locality" />
		<tag k="ssr:stedsnr" v="823330" />
	</node>
	<node id="-566197" lat="58.2891499974" lon="7.84326943897">
		<tag k="name" v="Skuland" />
>>>>>>> e1d4bc35ff8a6074a6f2e91616a996b547c36f15
		<tag k="place" v="farm" />
		<tag k="ssr:stedsnr" v="485769" />
	</node>
<<<<<<< HEAD
	<node lat="58.26392222151201" lon="7.732352781538742" id="-23654">
		<tag k="alt_name" v="Rolleivstad" />
		<tag k="fixme" v="consider place=hamlet" />
		<tag k="name" v="Rollestad" />
		<tag k="place" v="farm" />
		<tag k="ssr:stedsnr" v="425009" />
	</node>
	<node lat="58.30121944751454" lon="7.984025007689792" id="-23655">
		<tag k="fixme" v="consider place=hamlet" />
		<tag k="name" v="Grovane" />
		<tag k="place" v="village" />
		<tag k="ssr:stedsnr" v="425018" />
	</node>
	<node lat="58.262822981918035" lon="8.01762697810576" id="-23657">
		<tag k="name" v="Røssebrekka" />
		<tag k="place" v="farm" />
		<tag k="ssr:stedsnr" v="425046" />
	</node>
	<node lat="58.34488888985074" lon="7.75668055018772" id="-23659">
		<tag k="fixme" v="consider place=hamlet" />
		<tag k="name" v="Røyneland" />
		<tag k="place" v="farm" />
		<tag k="ssr:stedsnr" v="425061" />
	</node>
	<node lat="58.32352500269195" lon="7.881113882678486" id="-23662">
		<tag k="name" v="Løyning" />
		<tag k="place" v="farm" />
		<tag k="ssr:stedsnr" v="425108" />
	</node>
	<node lat="58.32636110778272" lon="7.795694446158357" id="-23663">
		<tag k="alt_name" v="Reiarsdal" />
		<tag k="name" v="Reiersdal" />
=======
	<node id="-567220" lat="58.2597500032" lon="7.85874444356">
		<tag k="name" v="Lolandsbakken" />
		<tag k="place" v="locality" />
		<tag k="ssr:stedsnr" v="216184" />
	</node>
	<node id="-567710" lat="58.2468083309" lon="7.9718222295">
		<tag k="name" v="Dallen" />
		<tag k="place" v="farm" />
		<tag k="ssr:stedsnr" v="520455" />
	</node>
	<node id="-567517" lat="58.4267916689" lon="7.73538888264">
		<tag k="name" v="Finnemyrløa" />
		<tag k="place" v="locality" />
		<tag k="ssr:stedsnr" v="398150" />
	</node>
	<node id="-565405" lat="58.2639222215" lon="7.73235278154">
		<tag k="alt_name" v="Rolleivstad" />
		<tag k="fixme" v="consider place=hamlet" />
		<tag k="name" v="Rollestad" />
		<tag k="place" v="farm" />
		<tag k="ssr:stedsnr" v="425009" />
	</node>
	<node id="-565163" lat="58.2460277761" lon="7.87357777563">
		<tag k="name" v="Skudene" />
		<tag k="place" v="isolated_dwelling" />
		<tag k="ssr:stedsnr" v="277472" />
	</node>
	<node id="-567207" lat="58.3415555549" lon="7.88472222583">
		<tag k="name" v="Bakken" />
		<tag k="place" v="isolated_dwelling" />
		<tag k="ssr:stedsnr" v="216273" />
	</node>
	<node id="-567206" lat="58.3398555561" lon="7.88633333069">
		<tag k="name" v="Øygarden" />
>>>>>>> e1d4bc35ff8a6074a6f2e91616a996b547c36f15
		<tag k="place" v="farm" />
		<tag k="ssr:stedsnr" v="425109" />
	</node>
<<<<<<< HEAD
	<node lat="58.32842221963542" lon="8.005083338302349" id="-23664">
		<tag k="fixme" v="consider place=hamlet" />
		<tag k="name" v="Åmdal" />
=======
	<node id="-565157" lat="58.3379305516" lon="7.68661110787">
		<tag k="name" v="Nordbø" />
>>>>>>> e1d4bc35ff8a6074a6f2e91616a996b547c36f15
		<tag k="place" v="farm" />
		<tag k="ssr:stedsnr" v="425115" />
	</node>
<<<<<<< HEAD
	<node lat="58.294263886253596" lon="7.73330832972025" id="-23677">
		<tag k="name" v="Fjellhaug" />
		<tag k="place" v="farm" />
		<tag k="ssr:stedsnr" v="458926" />
	</node>
	<node lat="58.27988889151812" lon="7.972988895607572" id="-23678">
		<tag k="name" v="Holte" />
		<tag k="place" v="quarter" />
		<tag k="ssr:stedsnr" v="458928" />
	</node>
	<node lat="58.32584166409594" lon="7.8533888862664645" id="-23685">
		<tag k="name" v="Røllend" />
		<tag k="place" v="locality" />
		<tag k="ssr:stedsnr" v="459268" />
	</node>
	<node lat="58.38872222484592" lon="7.890497222396479" id="-23700">
		<tag k="name" v="Herstad" />
=======
	<node id="-567204" lat="58.329594444" lon="7.84909999574">
		<tag k="name" v="Groskleiv" />
		<tag k="place" v="locality" />
		<tag k="ssr:stedsnr" v="216256" />
	</node>
	<node id="-565667" lat="58.2532361076" lon="7.89617500797">
		<tag k="building" v="industrial" />
		<tag k="name" v="RKR" />
		<tag k="ssr:stedsnr" v="702496" />
	</node>
	<node id="-565664" lat="58.2524388905" lon="7.94328333663">
		<tag k="name" v="Lindekleiv" />
		<tag k="place" v="hamlet" />
		<tag k="ssr:stedsnr" v="702479" />
	</node>
	<node id="-565150" lat="58.3297638933" lon="7.86587500023">
		<tag k="name" v="Dugan" />
		<tag k="place" v="farm" />
		<tag k="ssr:stedsnr" v="277257" />
	</node>
	<node id="-566255" lat="58.3214472242" lon="7.76133889679">
		<tag k="name" v="Heimdal" />
>>>>>>> e1d4bc35ff8a6074a6f2e91616a996b547c36f15
		<tag k="place" v="farm" />
		<tag k="ssr:stedsnr" v="943278" />
	</node>
<<<<<<< HEAD
	<node lat="58.38621389304257" lon="7.66698334142387" id="-23701">
		<tag k="name" v="Eikerapen" />
		<tag k="place" v="farm" />
		<tag k="ssr:stedsnr" v="459612" />
	</node>
	<node lat="58.34964166700406" lon="7.900269452203879" id="-23713">
		<tag k="name" v="Nedremyr" />
		<tag k="place" v="farm" />
		<tag k="ssr:stedsnr" v="459966" />
	</node>
	<node lat="58.41477777537689" lon="7.7658111091772986" id="-23734">
		<tag k="name" v="Hogganfeta" />
=======
	<node id="-565652" lat="58.4318527738" lon="7.73661389382">
		<tag k="name" v="Ytterjorde" />
		<tag k="place" v="farm" />
		<tag k="ssr:stedsnr" v="701933" />
	</node>
	<node id="-566229" lat="58.2709305586" lon="7.97370832915">
		<tag k="name" v="Venneslamoen" />
		<tag k="place" v="quarter" />
		<tag k="ssr:stedsnr" v="823860" />
	</node>
	<node id="-566906" lat="58.3162111149" lon="8.0046416718">
		<tag k="fixme" v="consider place=suburb, village or hamlet" />
		<tag k="name" v="Samkom" />
		<tag k="place" v="quarter" />
		<tag k="ssr:stedsnr" v="121112" />
	</node>
	<node id="-568202" lat="58.2655527735" lon="7.97844722963">
		<tag k="name" v="Graslijordet" />
		<tag k="place" v="quarter" />
		<tag k="ssr:stedsnr" v="762883" />
	</node>
	<node id="-567174" lat="58.2507083339" lon="7.96560278374">
		<tag k="fixme" v="consider place=suburb, village or hamlet" />
		<tag k="name" v="Lunden" />
		<tag k="place" v="quarter" />
		<tag k="ssr:stedsnr" v="206071" />
	</node>
	<node id="-567172" lat="58.3652361123" lon="7.70191388114">
		<tag k="fixme" v="consider place=hamlet" />
		<tag k="name" v="Sandland" />
>>>>>>> e1d4bc35ff8a6074a6f2e91616a996b547c36f15
		<tag k="place" v="farm" />
		<tag k="ssr:stedsnr" v="485118" />
	</node>
<<<<<<< HEAD
	<node lat="58.283630559115565" lon="7.837336119151423" id="-23735">
		<tag k="alt_name" v="Almen, store" />
		<tag k="name" v="Stor Almen" />
=======
	<node id="-567168" lat="58.3715305521" lon="7.75571110833">
		<tag k="fixme" v="consider place=hamlet" />
		<tag k="name" v="Eikeland" />
>>>>>>> e1d4bc35ff8a6074a6f2e91616a996b547c36f15
		<tag k="place" v="farm" />
		<tag k="ssr:stedsnr" v="485006" />
	</node>
<<<<<<< HEAD
	<node lat="58.335397220501356" lon="7.812341671197755" id="-23764">
		<tag k="name" v="Mølla" />
		<tag k="place" v="farm" />
		<tag k="ssr:stedsnr" v="519362" />
	</node>
	<node lat="58.37489722372325" lon="7.758377774186059" id="-23768">
		<tag k="name" v="Bubroten" />
=======
	<node id="-568191" lat="58.2433388885" lon="7.94405555993">
		<tag k="name" v="Skjebua" />
		<tag k="place" v="farm" />
		<tag k="ssr:stedsnr" v="762449" />
	</node>
	<node id="-567166" lat="58.3752805531" lon="7.69554445286">
		<tag k="name" v="Hægeland" />
		<tag k="place" v="hamlet" />
		<tag k="ssr:stedsnr" v="182128" />
	</node>
	<node id="-567164" lat="58.3267472228" lon="7.77283611178">
		<tag k="alt_name" v="Stovevollen" />
		<tag k="name" v="Stuevollen" />
>>>>>>> e1d4bc35ff8a6074a6f2e91616a996b547c36f15
		<tag k="place" v="farm" />
		<tag k="ssr:stedsnr" v="519515" />
	</node>
<<<<<<< HEAD
	<node lat="58.34391111219145" lon="8.033722216473135" id="-23837">
		<tag k="fixme" v="consider place=hamlet" />
		<tag k="name" v="Skjervedal" />
=======
	<node id="-567162" lat="58.2606472182" lon="7.86564721682">
		<tag k="alt_name" v="Holtane" />
		<tag k="name" v="Holtan" />
>>>>>>> e1d4bc35ff8a6074a6f2e91616a996b547c36f15
		<tag k="place" v="farm" />
		<tag k="ssr:stedsnr" v="546082" />
	</node>
<<<<<<< HEAD
	<node lat="58.35465556000342" lon="7.77928611657244" id="-23838">
		<tag k="alt_name" v="Karten" />
		<tag k="name" v="Einstablandskarten" />
		<tag k="place" v="isolated_dwelling" />
		<tag k="ssr:stedsnr" v="546087" />
	</node>
	<node lat="58.34673333259813" lon="7.781269439758551" id="-23839">
		<tag k="fixme" v="consider place=hamlet" />
		<tag k="name" v="Åmdal" />
		<tag k="place" v="farm" />
		<tag k="ssr:stedsnr" v="546095" />
	</node>
	<node lat="58.30801111509866" lon="7.794244445366112" id="-23841">
		<tag k="alt_name" v="Raustad" />
=======
	<node id="-568185" lat="58.2452416675" lon="7.95974999797">
		<tag k="name" v="Naudeskaret" />
		<tag k="place" v="isolated_dwelling" />
		<tag k="ssr:stedsnr" v="762434" />
	</node>
	<node id="-567672" lat="58.382872223" lon="7.7146749928">
		<tag k="name" v="Skreppestøl" />
		<tag k="place" v="farm" />
		<tag k="ssr:stedsnr" v="425936" />
	</node>
	<node id="-567157" lat="58.2872611092" lon="7.83639444565">
		<tag k="alt_name" v="Almen, l" />
		<tag k="name" v="Lille Almen" />
		<tag k="place" v="farm" />
		<tag k="ssr:stedsnr" v="182008" />
	</node>
	<node id="-567155" lat="58.3779611073" lon="7.88542499514">
>>>>>>> e1d4bc35ff8a6074a6f2e91616a996b547c36f15
		<tag k="fixme" v="consider place=hamlet" />
		<tag k="name" v="Røstad" />
		<tag k="place" v="farm" />
		<tag k="ssr:stedsnr" v="546106" />
	</node>
<<<<<<< HEAD
	<node lat="58.31000555509465" lon="7.990905550373071" id="-23842">
		<tag k="name" v="Bjelkedalen" />
		<tag k="place" v="farm" />
		<tag k="ssr:stedsnr" v="546117" />
	</node>
	<node lat="58.2866305554783" lon="7.84410833014453" id="-23847">
		<tag k="name" v="Tverrbakken" />
=======
	<node id="-565106" lat="58.2939694459" lon="7.79930832538">
		<tag k="name" v="Steinvollen" />
		<tag k="place" v="quarter" />
		<tag k="ssr:stedsnr" v="276306" />
	</node>
	<node id="-567665" lat="58.3284222196" lon="8.0050833383">
		<tag k="fixme" v="consider place=hamlet" />
		<tag k="name" v="Åmdal" />
>>>>>>> e1d4bc35ff8a6074a6f2e91616a996b547c36f15
		<tag k="place" v="farm" />
		<tag k="ssr:stedsnr" v="579090" />
	</node>
<<<<<<< HEAD
	<node lat="58.285455555885726" lon="7.868061117438485" id="-23849">
		<tag k="name" v="Eigevollen" />
=======
	<node id="-567664" lat="58.3263611078" lon="7.79569444616">
		<tag k="alt_name" v="Reiarsdal" />
		<tag k="name" v="Reiersdal" />
>>>>>>> e1d4bc35ff8a6074a6f2e91616a996b547c36f15
		<tag k="place" v="farm" />
		<tag k="ssr:stedsnr" v="579093" />
	</node>
<<<<<<< HEAD
	<node lat="58.26455277656714" lon="7.989861110075925" id="-23860">
		<tag k="name" v="Breimyr" />
=======
	<node id="-567663" lat="58.3235250027" lon="7.88111388268">
		<tag k="name" v="Løyning" />
>>>>>>> e1d4bc35ff8a6074a6f2e91616a996b547c36f15
		<tag k="place" v="farm" />
		<tag k="ssr:stedsnr" v="579895" />
	</node>
<<<<<<< HEAD
	<node lat="58.30050000431346" lon="8.049522220167118" id="-23872">
		<tag k="name" v="Øygarden" />
=======
	<node id="-567662" lat="58.3179527744" lon="7.87135278379">
		<tag k="name" v="Steane" />
>>>>>>> e1d4bc35ff8a6074a6f2e91616a996b547c36f15
		<tag k="place" v="farm" />
		<tag k="ssr:stedsnr" v="579993" />
	</node>
<<<<<<< HEAD
	<node lat="58.34628055932531" lon="7.793602772145962" id="-23876">
		<tag k="name" v="Solås" />
		<tag k="place" v="locality" />
		<tag k="ssr:stedsnr" v="580202" />
	</node>
	<node lat="58.295436113733615" lon="7.840424998637877" id="-23932">
		<tag k="fixme" v="consider place=hamlet" />
		<tag k="name" v="Skarpengland" />
		<tag k="place" v="village" />
		<tag k="ssr:stedsnr" v="606013" />
	</node>
	<node lat="58.35622777939485" lon="8.03299166321528" id="-23934">
		<tag k="fixme" v="consider place=hamlet" />
		<tag k="name" v="Voreland" />
=======
	<node id="-567148" lat="58.2309388877" lon="7.76424999868">
		<tag k="fixme" v="consider place=hamlet" />
		<tag k="name" v="Åsen" />
		<tag k="place" v="farm" />
		<tag k="ssr:stedsnr" v="182071" />
	</node>
	<node id="-567147" lat="58.3396388852" lon="7.97323610632">
		<tag k="fixme" v="consider place=hamlet" />
		<tag k="name" v="Jeppestøl" />
		<tag k="place" v="farm" />
		<tag k="ssr:stedsnr" v="182061" />
	</node>
	<node id="-566634" lat="58.2576194433" lon="7.85611945158">
		<tag k="name" v="Spansmyr" />
>>>>>>> e1d4bc35ff8a6074a6f2e91616a996b547c36f15
		<tag k="place" v="farm" />
		<tag k="ssr:stedsnr" v="606083" />
	</node>
<<<<<<< HEAD
	<node lat="58.35094167021842" lon="7.759894445387249" id="-23935">
		<tag k="alt_name" v="Einstabeland" />
=======
	<node id="-567657" lat="58.3448888899" lon="7.75668055019">
>>>>>>> e1d4bc35ff8a6074a6f2e91616a996b547c36f15
		<tag k="fixme" v="consider place=hamlet" />
		<tag k="name" v="Einstabland" />
		<tag k="place" v="farm" />
		<tag k="ssr:stedsnr" v="606088" />
	</node>
<<<<<<< HEAD
	<node lat="58.36633888632425" lon="7.693513891751755" id="-23936">
		<tag k="name" v="Nygard" />
=======
	<node id="-566118" lat="58.3394944426" lon="7.97358333473">
		<tag k="name" v="Monen" />
>>>>>>> e1d4bc35ff8a6074a6f2e91616a996b547c36f15
		<tag k="place" v="farm" />
		<tag k="ssr:stedsnr" v="606965" />
	</node>
<<<<<<< HEAD
	<node lat="58.429588891730596" lon="7.741413896683995" id="-23946">
		<tag k="name" v="Djupemyrløa" />
		<tag k="place" v="locality" />
		<tag k="ssr:stedsnr" v="701189" />
	</node>
	<node lat="58.43185277375781" lon="7.736613893822388" id="-24018">
		<tag k="name" v="Ytterjorde" />
		<tag k="place" v="farm" />
		<tag k="ssr:stedsnr" v="701933" />
	</node>
	<node lat="58.252438890535714" lon="7.9432833366266955" id="-24030">
		<tag k="name" v="Lindekleiv" />
		<tag k="place" v="hamlet" />
		<tag k="ssr:stedsnr" v="702479" />
	</node>
	<node lat="58.25323610762235" lon="7.896175007974444" id="-24032">
		<tag k="building" v="industrial" />
		<tag k="name" v="RKR" />
		<tag k="ssr:stedsnr" v="702496" />
	</node>
	<node lat="58.246086111115794" lon="7.9495749918893495" id="-24037">
		<tag k="fixme" v="consider place=hamlet" />
		<tag k="name" v="Heisel" />
		<tag k="place" v="farm" />
		<tag k="ssr:stedsnr" v="634429" />
	</node>
	<node lat="58.35045555549915" lon="7.86572499903817" id="-24045">
		<tag k="name" v="Nordbu" />
		<tag k="place" v="isolated_dwelling" />
		<tag k="ssr:stedsnr" v="640215" />
	</node>
	<node lat="58.27554722480814" lon="7.757208338268194" id="-24133">
		<tag k="alt_name" v="Upsal;Opsal" />
		<tag k="fixme" v="consider place=hamlet" />
		<tag k="name" v="Oppsal" />
		<tag k="place" v="farm" />
		<tag k="ssr:stedsnr" v="667019" />
	</node>
	<node lat="58.30052221945408" lon="7.840655547984601" id="-24134">
		<tag k="name" v="Fjellet" />
		<tag k="place" v="locality" />
		<tag k="ssr:stedsnr" v="667028" />
	</node>
	<node lat="58.30351944312565" lon="8.05436110284169" id="-24135">
		<tag k="alt_name" v="Verås, store;Verås" />
		<tag k="name" v="Store Verås" />
		<tag k="place" v="farm" />
		<tag k="ssr:stedsnr" v="667030" />
	</node>
	<node lat="58.29602222571451" lon="7.735430555917382" id="-24136">
		<tag k="name" v="Dynestøl" />
		<tag k="place" v="farm" />
		<tag k="ssr:stedsnr" v="667032" />
	</node>
	<node lat="58.360683333866206" lon="7.792908330320094" id="-24139">
		<tag k="fixme" v="consider place=hamlet" />
		<tag k="name" v="Espeland" />
		<tag k="place" v="farm" />
		<tag k="ssr:stedsnr" v="667106" />
	</node>
	<node lat="58.34896110852702" lon="7.820352779793162" id="-24141">
		<tag k="alt_name" v="Listø" />
		<tag k="name" v="Liestø" />
		<tag k="place" v="isolated_dwelling" />
		<tag k="ssr:stedsnr" v="667118" />
	</node>
	<node lat="58.28428593597203" lon="7.840020955344875" id="-24145">
		<tag k="name" v="Almen" />
		<tag k="place" v="hamlet" />
		<tag k="ssr:stedsnr" v="667607" />
	</node>
	<node lat="58.321347220349686" lon="7.6577222260655855" id="-24198">
		<tag k="name" v="Bakken" />
=======
	<node id="-568465" lat="58.3461500037" lon="7.65984166544">
		<tag k="fixme" v="consider place=hamlet" />
		<tag k="name" v="Steinsland" />
		<tag k="place" v="farm" />
		<tag k="ssr:stedsnr" v="850804" />
	</node>
	<node id="-565098" lat="58.2942638863" lon="7.73330832972">
		<tag k="name" v="Fjellhaug" />
		<tag k="place" v="farm" />
		<tag k="ssr:stedsnr" v="458926" />
	</node>
	<node id="-566112" lat="58.3049194405" lon="7.79339166448">
		<tag k="name" v="Vårheim" />
		<tag k="place" v="farm" />
		<tag k="ssr:stedsnr" v="761662" />
	</node>
	<node id="-567952" lat="58.2951444473" lon="7.86585555783">
		<tag k="name" v="Vollan" />
		<tag k="place" v="farm" />
		<tag k="ssr:stedsnr" v="640083" />
	</node>
	<node id="-566109" lat="58.3206750003" lon="7.74503888073">
		<tag k="name" v="Vollen" />
		<tag k="place" v="farm" />
		<tag k="ssr:stedsnr" v="761311" />
	</node>
	<node id="-565083" lat="58.3696833357" lon="7.75688055953">
		<tag k="name" v="Vollan" />
		<tag k="place" v="farm" />
		<tag k="ssr:stedsnr" v="519532" />
	</node>
	<node id="-565081" lat="58.259038893" lon="7.7447416686">
		<tag k="name" v="Monen" />
		<tag k="place" v="farm" />
		<tag k="ssr:stedsnr" v="458301" />
	</node>
	<node id="-567780" lat="58.2854555559" lon="7.86806111744">
		<tag k="name" v="Eigevollen" />
		<tag k="place" v="farm" />
		<tag k="ssr:stedsnr" v="579093" />
	</node>
	<node id="-566612" lat="58.3387249989" lon="7.7924999928">
		<tag k="name" v="Brattestien" />
		<tag k="place" v="locality" />
		<tag k="ssr:stedsnr" v="34300" />
	</node>
	<node id="-565794" lat="58.3162333348" lon="7.74545000644">
		<tag k="name" v="Tjomsås" />
		<tag k="place" v="hamlet" />
		<tag k="ssr:stedsnr" v="728107" />
	</node>
	<node id="-566095" lat="58.291472222" lon="7.77846389545">
		<tag k="fixme" v="consider place=hamlet" />
		<tag k="name" v="Øvrebø" />
		<tag k="place" v="village" />
		<tag k="ssr:stedsnr" v="910034" />
	</node>
	<node id="-568141" lat="58.2842638886" lon="7.98641945089">
		<tag k="name" v="Heptekjerr" />
		<tag k="place" v="quarter" />
		<tag k="ssr:stedsnr" v="761928" />
	</node>
	<node id="-566092" lat="58.2994277763" lon="8.04141389125">
		<tag k="alt_name" v="Verås, l" />
		<tag k="name" v="Lille Verås" />
		<tag k="place" v="farm" />
		<tag k="ssr:stedsnr" v="728027" />
	</node>
	<node id="-565579" lat="58.4295888917" lon="7.74141389668">
		<tag k="name" v="Djupemyrløa" />
		<tag k="place" v="locality" />
		<tag k="ssr:stedsnr" v="701189" />
	</node>
	<node id="-565059" lat="58.3364361149" lon="7.68737500152">
		<tag k="name" v="Moland" />
		<tag k="place" v="farm" />
		<tag k="ssr:stedsnr" v="243768" />
	</node>
	<node id="-565057" lat="58.3357611153" lon="7.98525277517">
		<tag k="alt_name" v="Dalli" />
		<tag k="name" v="Blautekjerrane" />
		<tag k="place" v="farm" />
		<tag k="ssr:stedsnr" v="243112" />
	</node>
	<node id="-565056" lat="58.3298777821" lon="7.99317222613">
		<tag k="alt_name" v="Buheia" />
		<tag k="name" v="Bueheia" />
		<tag k="place" v="locality" />
		<tag k="ssr:stedsnr" v="243111" />
	</node>
	<node id="-566591" lat="58.4262500029" lon="7.74522222312">
		<tag k="name" v="Åsmyrløa" />
		<tag k="place" v="locality" />
		<tag k="ssr:stedsnr" v="34163" />
	</node>
	<node id="-566527" lat="58.397780553" lon="7.80418056075">
		<tag k="name" v="Åsen" />
		<tag k="place" v="farm" />
		<tag k="ssr:stedsnr" v="194" />
	</node>
	<node id="-565071" lat="58.2946277798" lon="7.86956388216">
		<tag k="name" v="Stien" />
		<tag k="place" v="farm" />
		<tag k="ssr:stedsnr" v="458088" />
	</node>
	<node id="-565048" lat="58.2939027735" lon="7.83349444002">
		<tag k="alt_name" v="Bjerkåsen" />
		<tag k="name" v="Birkåsen" />
>>>>>>> e1d4bc35ff8a6074a6f2e91616a996b547c36f15
		<tag k="place" v="farm" />
		<tag k="ssr:stedsnr" v="701474" />
	</node>
<<<<<<< HEAD
	<node lat="58.29138611252627" lon="7.781497225921478" id="-24218">
		<tag k="name" v="Vollen" />
		<tag k="place" v="farm" />
		<tag k="ssr:stedsnr" v="701775" />
	</node>
	<node lat="58.29942777634183" lon="8.0414138912455" id="-24261">
		<tag k="alt_name" v="Verås, l" />
		<tag k="name" v="Lille Verås" />
=======
	<node id="-565558" lat="58.3748972237" lon="7.75837777419">
		<tag k="name" v="Bubroten" />
>>>>>>> e1d4bc35ff8a6074a6f2e91616a996b547c36f15
		<tag k="place" v="farm" />
		<tag k="ssr:stedsnr" v="728027" />
	</node>
<<<<<<< HEAD
	<node lat="58.22373055400563" lon="7.939380556188741" id="-24262">
		<tag k="name" v="Flaten" />
		<tag k="place" v="farm" />
		<tag k="ssr:stedsnr" v="728105" />
	</node>
	<node lat="58.31623333476419" lon="7.745450006437519" id="-24263">
		<tag k="name" v="Tjomsås" />
		<tag k="place" v="hamlet" />
		<tag k="ssr:stedsnr" v="728107" />
	</node>
	<node lat="58.228338887429715" lon="7.753227773617785" id="-24264">
		<tag k="fixme" v="consider place=hamlet" />
		<tag k="name" v="Kravlen" />
		<tag k="place" v="farm" />
		<tag k="ssr:stedsnr" v="728071" />
	</node>
	<node lat="58.320675000282634" lon="7.745038880728939" id="-24274">
		<tag k="name" v="Vollen" />
=======
	<node id="-567060" lat="58.4514527737" lon="7.76925556288">
		<tag k="name" v="Dalansløa" />
		<tag k="place" v="locality" />
		<tag k="ssr:stedsnr" v="155770" />
	</node>
	<node id="-566578" lat="58.4078138907" lon="7.71290276976">
		<tag k="name" v="Lislebu" />
		<tag k="place" v="isolated_dwelling" />
		<tag k="ssr:stedsnr" v="34030" />
	</node>
	<node id="-565552" lat="58.4147777754" lon="7.76581110918">
		<tag k="name" v="Hogganfeta" />
>>>>>>> e1d4bc35ff8a6074a6f2e91616a996b547c36f15
		<tag k="place" v="farm" />
		<tag k="ssr:stedsnr" v="761311" />
	</node>
<<<<<<< HEAD
	<node lat="58.33949444264877" lon="7.97358333472629" id="-24283">
		<tag k="name" v="Monen" />
		<tag k="place" v="farm" />
		<tag k="ssr:stedsnr" v="762108" />
	</node>
	<node lat="58.243338888546226" lon="7.944055559930838" id="-24311">
		<tag k="name" v="Skjebua" />
		<tag k="place" v="farm" />
		<tag k="ssr:stedsnr" v="762449" />
	</node>
	<node lat="58.2914722219613" lon="7.778463895446205" id="-24345">
		<tag k="fixme" v="consider place=hamlet" />
		<tag k="name" v="Øvrebø" />
		<tag k="place" v="village" />
		<tag k="ssr:stedsnr" v="910034" />
	</node>
	<node lat="58.32370277831062" lon="7.656722218488061" id="-24348">
		<tag k="fixme" v="consider place=hamlet" />
		<tag k="name" v="Haugland" />
		<tag k="place" v="farm" />
		<tag k="ssr:stedsnr" v="910773" />
	</node>
	<node lat="58.3907388861379" lon="7.750825003963439" id="-24424">
		<tag k="name" v="Bruna" />
		<tag k="place" v="farm" />
		<tag k="ssr:stedsnr" v="849213" />
	</node>
	<node lat="58.3087194432786" lon="7.8118361047450255" id="-24426">
		<tag k="alt_name" v="Daleheftet" />
		<tag k="name" v="Dalehefte" />
		<tag k="place" v="isolated_dwelling" />
		<tag k="ssr:stedsnr" v="850110" />
	</node>
	<node lat="58.315786115270285" lon="7.884463895679586" id="-24431">
		<tag k="name" v="Bjørndalen" />
		<tag k="place" v="farm" />
		<tag k="ssr:stedsnr" v="850098" />
	</node>
	<node lat="58.34615000366616" lon="7.659841665439919" id="-24432">
=======
	<node id="-565725" lat="58.2552416664" lon="7.85848888308">
		<tag k="name" v="Kviegna" />
		<tag k="place" v="farm" />
		<tag k="ssr:stedsnr" v="580484" />
	</node>
	<node id="-565554" lat="58.3430138864" lon="7.69031666072">
		<tag k="alt_name" v="Førland" />
		<tag k="name" v="Føreland" />
		<tag k="place" v="farm" />
		<tag k="ssr:stedsnr" v="485769" />
	</node>
	<node id="-567081" lat="58.4207611132" lon="7.72374444433">
		<tag k="name" v="Lauvskårløa" />
		<tag k="place" v="locality" />
		<tag k="ssr:stedsnr" v="155896" />
	</node>
	<node id="-567079" lat="58.2773527792" lon="7.97602778187">
		<tag k="name" v="Brandehei" />
		<tag k="place" v="quarter" />
		<tag k="ssr:stedsnr" v="155887" />
	</node>
	<node id="-568102" lat="58.2520833289" lon="7.78787222214">
		<tag k="fixme" v="consider place=hamlet" />
		<tag k="name" v="Topstad" />
		<tag k="place" v="farm" />
		<tag k="ssr:stedsnr" v="641953" />
	</node>
	<node id="-565541" lat="58.284285936" lon="7.84002095534">
		<tag k="name" v="Almen" />
		<tag k="place" v="hamlet" />
		<tag k="ssr:stedsnr" v="667607" />
	</node>
	<node id="-566564" lat="58.2737916687" lon="7.97079444625">
		<tag k="name" v="Vardehei" />
		<tag k="place" v="quarter" />
		<tag k="ssr:stedsnr" v="33906" />
	</node>
	<node id="-566561" lat="58.2731000042" lon="7.98423332904">
		<tag k="name" v="Rundåsen" />
		<tag k="place" v="quarter" />
		<tag k="ssr:stedsnr" v="33892" />
	</node>
	<node id="-565536" lat="58.4315833349" lon="7.74160277765">
		<tag k="fixme" v="consider place=hamlet" />
		<tag k="name" v="Lauvås" />
		<tag k="place" v="farm" />
		<tag k="ssr:stedsnr" v="667178" />
	</node>
	<node id="-565532" lat="58.3489611085" lon="7.82035277979">
		<tag k="alt_name" v="Listø" />
		<tag k="name" v="Liestø" />
		<tag k="place" v="isolated_dwelling" />
		<tag k="ssr:stedsnr" v="667118" />
	</node>
	<node id="-566746" lat="58.330836113" lon="7.64460554836">
		<tag k="alt_name" v="Frammnes" />
		<tag k="name" v="Framnes" />
		<tag k="place" v="farm" />
		<tag k="ssr:stedsnr" v="61746" />
	</node>
	<node id="-565530" lat="58.3606833339" lon="7.79290833032">
		<tag k="fixme" v="consider place=hamlet" />
		<tag k="name" v="Espeland" />
		<tag k="place" v="farm" />
		<tag k="ssr:stedsnr" v="667106" />
	</node>
	<node id="-565529" lat="58.2681333306" lon="7.80486944349">
		<tag k="fixme" v="consider place=hamlet" />
		<tag k="name" v="Mushom" />
		<tag k="place" v="farm" />
		<tag k="ssr:stedsnr" v="667072" />
	</node>
	<node id="-567576" lat="58.2556722234" lon="7.75062777816">
		<tag k="name" v="Lian" />
		<tag k="place" v="farm" />
		<tag k="ssr:stedsnr" v="398507" />
	</node>
	<node id="-566148" lat="58.2517722221" lon="7.939983333">
		<tag k="name" v="Hagen" />
		<tag k="place" v="farm" />
		<tag k="ssr:stedsnr" v="762467" />
	</node>
	<node id="-565526" lat="58.2554666698" lon="7.82808056138">
>>>>>>> e1d4bc35ff8a6074a6f2e91616a996b547c36f15
		<tag k="fixme" v="consider place=hamlet" />
		<tag k="name" v="Steinsland" />
		<tag k="place" v="farm" />
		<tag k="ssr:stedsnr" v="850804" />
	</node>
<<<<<<< HEAD
	<node lat="58.326227775927826" lon="7.731336117001461" id="-24471">
		<tag k="name" v="Heia" />
		<tag k="place" v="locality" />
		<tag k="ssr:stedsnr" v="884302" />
	</node>
	<node lat="58.25662532067846" lon="7.956383420158123" id="-24479">
		<tag k="name" v="Hallan" />
=======
	<node id="-566745" lat="58.3732083352" lon="7.87396665829">
		<tag k="name" v="Lonane" />
		<tag k="place" v="farm" />
		<tag k="ssr:stedsnr" v="61146" />
	</node>
	<node id="-565524" lat="58.2960222257" lon="7.73543055592">
		<tag k="name" v="Dynestøl" />
		<tag k="place" v="farm" />
		<tag k="ssr:stedsnr" v="667032" />
	</node>
	<node id="-565523" lat="58.3035194431" lon="8.05436110284">
		<tag k="alt_name" v="Verås, store;Verås" />
		<tag k="name" v="Store Verås" />
>>>>>>> e1d4bc35ff8a6074a6f2e91616a996b547c36f15
		<tag k="place" v="farm" />
		<tag k="ssr:stedsnr" v="884502" />
	</node>
<<<<<<< HEAD
	<node lat="58.444219445991216" lon="7.762327773650245" id="-24488">
		<tag k="name" v="Strandbergløa" />
		<tag k="place" v="locality" />
		<tag k="ssr:stedsnr" v="884755" />
	</node>
	<node lat="58.431736109158045" lon="7.742008340089747" id="-24498">
		<tag k="name" v="Derute" />
=======
	<node id="-565522" lat="58.3005222195" lon="7.84065554798">
		<tag k="name" v="Fjellet" />
		<tag k="place" v="locality" />
		<tag k="ssr:stedsnr" v="667028" />
	</node>
	<node id="-565521" lat="58.2755472248" lon="7.75720833827">
		<tag k="alt_name" v="Oppsal" />
		<tag k="fixme" v="multiple name tags, choose one and add the other to alt_name; consider place=hamlet" />
		<tag k="name" v="Upsal;Opsal" />
		<tag k="place" v="farm" />
		<tag k="ssr:stedsnr" v="667019" />
	</node>
	<node id="-566544" lat="58.2954444452" lon="7.97035277689">
		<tag k="name" v="Drivenesmoen" />
		<tag k="place" v="quarter" />
		<tag k="ssr:stedsnr" v="33200" />
	</node>
	<node id="-566744" lat="58.3236944447" lon="7.77786388225">
		<tag k="fixme" v="consider place=hamlet" />
		<tag k="name" v="Histøl" />
		<tag k="place" v="farm" />
		<tag k="ssr:stedsnr" v="61102" />
	</node>
	<node id="-566542" lat="58.295374997" lon="7.86297221921">
		<tag k="name" v="Langebakk" />
		<tag k="place" v="farm" />
		<tag k="ssr:stedsnr" v="33088" />
	</node>
	<node id="-567565" lat="58.3729444471" lon="7.75899167056">
		<tag k="name" v="Nergarden" />
>>>>>>> e1d4bc35ff8a6074a6f2e91616a996b547c36f15
		<tag k="place" v="farm" />
		<tag k="ssr:stedsnr" v="884953" />
	</node>
<<<<<<< HEAD
	<node lat="58.27111944842053" lon="7.723566663477024" id="-24516">
		<tag k="alt_name" v="Greibesland" />
		<tag k="fixme" v="consider place=hamlet" />
		<tag k="name" v="Gribesland" />
=======
	<node id="-567767" lat="58.35465556" lon="7.77928611657">
		<tag k="alt_name" v="Karten" />
		<tag k="name" v="Einstablandskarten" />
		<tag k="place" v="isolated_dwelling" />
		<tag k="ssr:stedsnr" v="546087" />
	</node>
	<node id="-565000" lat="58.2994972201" lon="7.73101388093">
		<tag k="name" v="Vestheim" />
>>>>>>> e1d4bc35ff8a6074a6f2e91616a996b547c36f15
		<tag k="place" v="farm" />
		<tag k="ssr:stedsnr" v="910015" />
	</node>
<<<<<<< HEAD
	<node lat="58.29089167037304" lon="7.770113882280061" id="-24573">
		<tag k="name" v="Vestbø" />
=======
	<node id="-566023" lat="58.2913861125" lon="7.78149722592">
		<tag k="name" v="Vollen" />
>>>>>>> e1d4bc35ff8a6074a6f2e91616a996b547c36f15
		<tag k="place" v="farm" />
		<tag k="ssr:stedsnr" v="944808" />
	</node>
<<<<<<< HEAD
	<node lat="58.273774998859025" lon="7.981094436126404" id="-24575">
		<tag k="name" v="Rundåslia" />
		<tag k="place" v="quarter" />
		<tag k="ssr:stedsnr" v="944884" />
	</node>
	<node lat="58.25424444386301" lon="7.96469999569255" id="-24585">
		<tag k="building" v="industrial" />
		<tag k="industrial" v="factory" />
		<tag k="name" v="Norsk Wallboard" />
		<tag k="ssr:stedsnr" v="945384" />
	</node>
	<node lat="58.24402933116891" lon="7.790103031506326" id="-24600">
=======
	<node id="-564998" lat="58.3963416638" lon="7.72360278283">
		<tag k="name" v="Storemyrløa" />
		<tag k="place" v="locality" />
		<tag k="ssr:stedsnr" v="216039" />
	</node>
	<node id="-566533" lat="58.2722861111" lon="7.71453889432">
		<tag k="name" v="Bakken" />
		<tag k="place" v="farm" />
		<tag k="ssr:stedsnr" v="837" />
	</node>
	<node id="-566532" lat="58.3523722266" lon="7.641108336">
>>>>>>> e1d4bc35ff8a6074a6f2e91616a996b547c36f15
		<tag k="fixme" v="consider place=hamlet" />
		<tag k="name" v="Fjeldkjønn" />
		<tag k="place" v="farm" />
<<<<<<< HEAD
		<tag k="ssr:stedsnr" v="978467" />
	</node>
	<node lat="58.258091301074906" lon="7.749759538508672" id="-24601">
=======
		<tag k="ssr:stedsnr" v="811" />
	</node>
	<node id="-568067" lat="58.2880361108" lon="8.01870278026">
		<tag k="name" v="Monreset" />
		<tag k="place" v="hamlet" />
		<tag k="ssr:stedsnr" v="640742" />
	</node>
	<node id="-566529" lat="58.4369944453" lon="7.78716111522">
		<tag k="alt_name" v="Kiledalen" />
>>>>>>> e1d4bc35ff8a6074a6f2e91616a996b547c36f15
		<tag k="fixme" v="consider place=hamlet" />
		<tag k="name" v="Knollen" />
		<tag k="place" v="farm" />
<<<<<<< HEAD
		<tag k="ssr:stedsnr" v="978468" />
	</node>
	<node lat="58.25483171498399" lon="7.751911796962194" id="-24602">
		<tag k="fixme" v="consider place=hamlet" />
		<tag k="name" v="Stallemoliene" />
=======
		<tag k="ssr:stedsnr" v="225" />
	</node>
	<node id="-568063" lat="58.3051333324" lon="7.81706388331">
		<tag k="name" v="Tjønna" />
>>>>>>> e1d4bc35ff8a6074a6f2e91616a996b547c36f15
		<tag k="place" v="farm" />
		<tag k="ssr:stedsnr" v="978469" />
	</node>
<<<<<<< HEAD
	<node lat="58.292223921563846" lon="7.77994814228627" id="-24603">
		<tag k="fixme" v="consider place=hamlet" />
		<tag k="name" v="Øvrebø" />
=======
	<node id="-566526" lat="58.3818111116" lon="7.89589166849">
		<tag k="alt_name" v="Bjørndal" />
		<tag k="name" v="Bjørndalen" />
>>>>>>> e1d4bc35ff8a6074a6f2e91616a996b547c36f15
		<tag k="place" v="farm" />
		<tag k="ssr:stedsnr" v="978470" />
	</node>
<<<<<<< HEAD
	<node lat="58.29238036129151" lon="7.789733032842665" id="-24604">
		<tag k="fixme" v="consider place=hamlet" />
		<tag k="name" v="Sangesland" />
		<tag k="place" v="farm" />
		<tag k="ssr:stedsnr" v="978471" />
	</node>
	<node lat="58.32798780540824" lon="7.80931159951874" id="-24605">
		<tag k="fixme" v="consider place=hamlet" />
		<tag k="name" v="Reiersdal" />
		<tag k="place" v="farm" />
		<tag k="ssr:stedsnr" v="978491" />
	</node>
	<node lat="58.30664333569628" lon="7.8251538103732825" id="-24606">
=======
	<node id="-565205" lat="58.2480972247" lon="7.96543611294">
		<tag k="name" v="Goli" />
		<tag k="place" v="isolated_dwelling" />
		<tag k="ssr:stedsnr" v="459423" />
	</node>
	<node id="-566271" lat="58.3999388873" lon="7.75859721997">
		<tag k="name" v="Simonstad" />
		<tag k="place" v="farm" />
		<tag k="ssr:stedsnr" v="944085" />
	</node>
	<node id="-566523" lat="58.3167972265" lon="7.72443054925">
>>>>>>> e1d4bc35ff8a6074a6f2e91616a996b547c36f15
		<tag k="fixme" v="consider place=hamlet" />
		<tag k="name" v="Sandrep" />
		<tag k="place" v="farm" />
<<<<<<< HEAD
		<tag k="ssr:stedsnr" v="978494" />
	</node>
	<node lat="58.294457393793614" lon="7.84149539523089" id="-24607">
		<tag k="fixme" v="consider place=hamlet" />
		<tag k="name" v="Skarpengland" />
=======
		<tag k="ssr:stedsnr" v="133" />
	</node>
	<node id="-566522" lat="58.3081027784" lon="7.99346667135">
		<tag k="name" v="Hagen" />
		<tag k="place" v="isolated_dwelling" />
		<tag k="ssr:stedsnr" v="111" />
	</node>
	<node id="-566521" lat="58.3193833306" lon="8.0497333372">
		<tag k="name" v="Hammen" />
>>>>>>> e1d4bc35ff8a6074a6f2e91616a996b547c36f15
		<tag k="place" v="farm" />
		<tag k="ssr:stedsnr" v="978497" />
	</node>
<<<<<<< HEAD
	<node lat="58.224073702273" lon="7.939789762657962" id="-24608">
		<tag k="fixme" v="consider place=hamlet" />
		<tag k="name" v="Sagen" />
		<tag k="place" v="farm" />
		<tag k="ssr:stedsnr" v="978438" />
	</node>
	<node lat="58.23493344388862" lon="7.937981930241793" id="-24609">
=======
	<node id="-566008" lat="58.3213472203" lon="7.65772222607">
		<tag k="name" v="Bakken" />
		<tag k="place" v="farm" />
		<tag k="ssr:stedsnr" v="701474" />
	</node>
	<node id="-567764" lat="58.264855555" lon="7.97776945182">
		<tag k="fixme" v="consider place=suburb, village or hamlet" />
		<tag k="name" v="Graslia" />
		<tag k="place" v="quarter" />
		<tag k="ssr:stedsnr" v="546061" />
	</node>
	<node id="-567030" lat="58.3030750017" lon="7.82037222498">
		<tag k="name" v="Furely" />
		<tag k="place" v="isolated_dwelling" />
		<tag k="ssr:stedsnr" v="155595" />
	</node>
	<node id="-566517" lat="58.3573083345" lon="7.80346388546">
>>>>>>> e1d4bc35ff8a6074a6f2e91616a996b547c36f15
		<tag k="fixme" v="consider place=hamlet" />
		<tag k="name" v="Kvarstein" />
		<tag k="place" v="farm" />
		<tag k="ssr:stedsnr" v="978439" />
	</node>
<<<<<<< HEAD
	<node lat="58.24295931415327" lon="7.951583684989725" id="-24610">
		<tag k="fixme" v="consider place=hamlet" />
		<tag k="name" v="Vikeland Ytre" />
=======
	<node id="-566910" lat="58.37979722" lon="7.81864167061">
		<tag k="fixme" v="consider place=hamlet" />
		<tag k="name" v="Flanestad" />
		<tag k="place" v="farm" />
		<tag k="ssr:stedsnr" v="121163" />
	</node>
	<node id="-566514" lat="58.2517027792" lon="7.84571667278">
		<tag k="alt_name" v="Skottedal" />
		<tag k="name" v="Skottedalen" />
>>>>>>> e1d4bc35ff8a6074a6f2e91616a996b547c36f15
		<tag k="place" v="farm" />
		<tag k="ssr:stedsnr" v="978440" />
	</node>
<<<<<<< HEAD
	<node lat="58.288272223426816" lon="8.028655548596335" id="-24612">
=======
	<node id="-566512" lat="58.2942888927" lon="7.86990555588">
>>>>>>> e1d4bc35ff8a6074a6f2e91616a996b547c36f15
		<tag k="fixme" v="consider place=hamlet" />
		<tag k="name" v="Eikeland" />
		<tag k="place" v="farm" />
		<tag k="ssr:stedsnr" v="4" />
	</node>
<<<<<<< HEAD
	<node lat="58.29647221881006" lon="7.835750003686041" id="-24614">
=======
	<node id="-566511" lat="58.2964722188" lon="7.83575000369">
>>>>>>> e1d4bc35ff8a6074a6f2e91616a996b547c36f15
		<tag k="name" v="Mølla" />
		<tag k="place" v="village" />
		<tag k="ssr:stedsnr" v="17" />
	</node>
<<<<<<< HEAD
	<node lat="58.294288892673315" lon="7.869905555879601" id="-24615">
=======
	<node id="-566509" lat="58.2882722234" lon="8.0286555486">
>>>>>>> e1d4bc35ff8a6074a6f2e91616a996b547c36f15
		<tag k="fixme" v="consider place=hamlet" />
		<tag k="name" v="Engeland" />
		<tag k="place" v="farm" />
		<tag k="ssr:stedsnr" v="18" />
	</node>
<<<<<<< HEAD
	<node lat="58.25170277917965" lon="7.845716672777759" id="-24617">
		<tag k="alt_name" v="Skottedal" />
		<tag k="name" v="Skottedalen" />
=======
	<node id="-565484" lat="58.3353972205" lon="7.8123416712">
		<tag k="name" v="Mølla" />
>>>>>>> e1d4bc35ff8a6074a6f2e91616a996b547c36f15
		<tag k="place" v="farm" />
		<tag k="ssr:stedsnr" v="36" />
	</node>
<<<<<<< HEAD
	<node lat="58.357308334511075" lon="7.803463885457545" id="-24620">
		<tag k="fixme" v="consider place=hamlet" />
		<tag k="name" v="Frivoll" />
		<tag k="place" v="farm" />
		<tag k="ssr:stedsnr" v="83" />
	</node>
	<node lat="58.354197219703764" lon="7.902308326809713" id="-24622">
		<tag k="name" v="Nomeland" />
		<tag k="place" v="hamlet" />
		<tag k="ssr:stedsnr" v="95" />
	</node>
	<node lat="58.3818111116443" lon="7.895891668494786" id="-24624">
		<tag k="alt_name" v="Bjørndal" />
		<tag k="name" v="Bjørndalen" />
		<tag k="place" v="farm" />
		<tag k="ssr:stedsnr" v="185" />
	</node>
	<node lat="58.397780553035844" lon="7.804180560748985" id="-24625">
		<tag k="name" v="Åsen" />
		<tag k="place" v="farm" />
		<tag k="ssr:stedsnr" v="194" />
	</node>
	<node lat="58.319383330550956" lon="8.049733337204293" id="-24627">
		<tag k="name" v="Hammen" />
		<tag k="place" v="farm" />
		<tag k="ssr:stedsnr" v="107" />
	</node>
	<node lat="58.30740335204338" lon="7.9918301928606565" id="-24628">
		<tag k="name" v="Hagen" />
=======
	<node id="-568041" lat="58.2641472221" lon="7.96754721506">
		<tag k="building" v="industrial" />
		<tag k="industrial" v="factory" />
		<tag k="name" v="Hunsfoss fabrikker" />
		<tag k="ssr:stedsnr" v="640583" />
	</node>
	<node id="-565479" lat="58.2920138896" lon="7.79053888657">
		<tag k="name" v="Bastubakken" />
		<tag k="place" v="farm" />
		<tag k="ssr:stedsnr" v="519333" />
	</node>
	<node id="-567526" lat="58.3486750041" lon="7.88019722625">
		<tag k="name" v="Bumyr" />
		<tag k="place" v="locality" />
		<tag k="ssr:stedsnr" v="398201" />
	</node>
	<node id="-568037" lat="58.3827388853" lon="7.79169166702">
		<tag k="name" v="Urvann" />
		<tag k="place" v="locality" />
		<tag k="ssr:stedsnr" v="640563" />
	</node>
	<node id="-566566" lat="58.2933583316" lon="7.99265833419">
		<tag k="name" v="Utsikten" />
		<tag k="place" v="quarter" />
		<tag k="ssr:stedsnr" v="33909" />
	</node>
	<node id="-567010" lat="58.3737638877" lon="7.75598610996">
		<tag k="name" v="Haugen" />
		<tag k="place" v="farm" />
		<tag k="ssr:stedsnr" v="155472" />
	</node>
	<node id="-566907" lat="58.3116138931" lon="7.96087222492">
		<tag k="fixme" v="consider place=hamlet" />
		<tag k="name" v="Paulen" />
		<tag k="place" v="farm" />
		<tag k="ssr:stedsnr" v="121115" />
	</node>
	<node id="-567504" lat="58.2718361089" lon="7.97349443777">
		<tag k="name" v="Tvidøblane" />
		<tag k="place" v="quarter" />
		<tag k="ssr:stedsnr" v="397916" />
	</node>
	<node id="-568541" lat="58.2495292094" lon="7.9546896433">
		<tag k="amenity" v="cafe" />
		<tag k="name" v="Vigeland Hovedgård" />
		<tag k="ssr:stedsnr" v="1077235" />
	</node>
	<node id="-567515" lat="58.329777774" lon="7.99882223021">
		<tag k="name" v="Rynninga" />
>>>>>>> e1d4bc35ff8a6074a6f2e91616a996b547c36f15
		<tag k="place" v="farm" />
		<tag k="ssr:stedsnr" v="111" />
	</node>
<<<<<<< HEAD
	<node lat="58.31679722648236" lon="7.724430549247514" id="-24629">
=======
	<node id="-566909" lat="58.3708388871" lon="7.79245832966">
		<tag k="fixme" v="consider place=hamlet" />
		<tag k="name" v="Tussekilen" />
		<tag k="place" v="farm" />
		<tag k="ssr:stedsnr" v="121156" />
	</node>
	<node id="-568015" lat="58.3934972267" lon="7.74703333538">
		<tag k="name" v="Homme sag" />
		<tag k="place" v="locality" />
		<tag k="ssr:stedsnr" v="640420" />
	</node>
	<node id="-568535" lat="58.3346186114" lon="7.87769309549">
>>>>>>> e1d4bc35ff8a6074a6f2e91616a996b547c36f15
		<tag k="fixme" v="consider place=hamlet" />
		<tag k="name" v="Hageland" />
		<tag k="place" v="farm" />
		<tag k="ssr:stedsnr" v="133" />
	</node>
<<<<<<< HEAD
	<node lat="58.43699444528533" lon="7.787161115221634" id="-24633">
		<tag k="alt_name" v="Kiledalen" />
=======
	<node id="-568534" lat="58.3548393734" lon="7.9046922362">
>>>>>>> e1d4bc35ff8a6074a6f2e91616a996b547c36f15
		<tag k="fixme" v="consider place=hamlet" />
		<tag k="name" v="Kiledal" />
		<tag k="place" v="farm" />
<<<<<<< HEAD
		<tag k="ssr:stedsnr" v="225" />
	</node>
	<node lat="58.352372226593424" lon="7.641108335996518" id="-24636">
=======
		<tag k="ssr:stedsnr" v="978525" />
	</node>
	<node id="-568532" lat="58.4069487621" lon="7.76657736786">
		<tag k="fixme" v="consider place=hamlet" />
		<tag k="name" v="Kile" />
		<tag k="place" v="farm" />
		<tag k="ssr:stedsnr" v="978521" />
	</node>
	<node id="-568531" lat="58.341809028" lon="7.69038412559">
>>>>>>> e1d4bc35ff8a6074a6f2e91616a996b547c36f15
		<tag k="fixme" v="consider place=hamlet" />
		<tag k="name" v="Buåsen" />
		<tag k="place" v="farm" />
		<tag k="ssr:stedsnr" v="811" />
	</node>
<<<<<<< HEAD
	<node lat="58.27228611112546" lon="7.714538894315842" id="-24637">
		<tag k="name" v="Bakken" />
=======
	<node id="-568530" lat="58.3836831236" lon="7.74210936838">
		<tag k="fixme" v="consider place=hamlet" />
		<tag k="name" v="Øvre Hægeland" />
>>>>>>> e1d4bc35ff8a6074a6f2e91616a996b547c36f15
		<tag k="place" v="farm" />
		<tag k="ssr:stedsnr" v="837" />
	</node>
<<<<<<< HEAD
	<node lat="58.29537499702514" lon="7.862972219205625" id="-24643">
		<tag k="name" v="Langebakk" />
=======
	<node id="-568529" lat="58.3822546996" lon="7.79147006028">
		<tag k="fixme" v="consider place=hamlet" />
		<tag k="name" v="Jammerdal" />
>>>>>>> e1d4bc35ff8a6074a6f2e91616a996b547c36f15
		<tag k="place" v="farm" />
		<tag k="ssr:stedsnr" v="33088" />
	</node>
<<<<<<< HEAD
	<node lat="58.29544444516402" lon="7.970352776885756" id="-24645">
		<tag k="name" v="Drivenesmoen" />
		<tag k="place" v="quarter" />
		<tag k="ssr:stedsnr" v="33200" />
	</node>
	<node lat="58.27310000417497" lon="7.984233329041673" id="-24659">
		<tag k="name" v="Rundåsen" />
		<tag k="place" v="quarter" />
		<tag k="ssr:stedsnr" v="33892" />
	</node>
	<node lat="58.42625000285873" lon="7.745222223115365" id="-24663">
		<tag k="name" v="Åsmyrløa" />
		<tag k="place" v="locality" />
		<tag k="ssr:stedsnr" v="34163" />
	</node>
	<node lat="58.407813890729294" lon="7.712902769762572" id="-24670">
		<tag k="name" v="Lislebu" />
		<tag k="place" v="isolated_dwelling" />
		<tag k="ssr:stedsnr" v="34030" />
	</node>
	<node lat="58.33872499885465" lon="7.792499992801138" id="-24687">
		<tag k="name" v="Brattestien" />
		<tag k="place" v="locality" />
		<tag k="ssr:stedsnr" v="34300" />
	</node>
	<node lat="58.29655000421702" lon="8.008088890285267" id="-24779">
		<tag k="alt_name" v="Rønningen;Rydningen" />
=======
	<node id="-568528" lat="58.3456015508" lon="7.79136635135">
		<tag k="name" v="Solåsen" />
		<tag k="place" v="locality" />
		<tag k="ssr:stedsnr" v="978513" />
	</node>
	<node id="-568527" lat="58.3168722547" lon="7.74469437897">
		<tag k="fixme" v="consider place=hamlet" />
		<tag k="name" v="Tjomsås" />
		<tag k="place" v="farm" />
		<tag k="ssr:stedsnr" v="978507" />
	</node>
	<node id="-568525" lat="58.2854349226" lon="7.87696348116">
		<tag k="fixme" v="consider place=hamlet" />
		<tag k="name" v="Loland" />
		<tag k="place" v="farm" />
		<tag k="ssr:stedsnr" v="978500" />
	</node>
	<node id="-568524" lat="58.2944573938" lon="7.84149539523">
>>>>>>> e1d4bc35ff8a6074a6f2e91616a996b547c36f15
		<tag k="fixme" v="consider place=hamlet" />
		<tag k="name" v="Rønninga" />
		<tag k="place" v="farm" />
		<tag k="ssr:stedsnr" v="60042" />
	</node>
<<<<<<< HEAD
	<node lat="58.26880278168628" lon="7.955255563091157" id="-24781">
		<tag k="fixme" v="consider place=hamlet" />
		<tag k="name" v="Moseid" />
		<tag k="place" v="farm" />
		<tag k="ssr:stedsnr" v="61039" />
	</node>
	<node lat="58.23972777792864" lon="7.943536110001327" id="-24783">
=======
	<node id="-567499" lat="58.3081277818" lon="7.82803610402">
		<tag k="name" v="Bakkan" />
		<tag k="place" v="farm" />
		<tag k="ssr:stedsnr" v="397736" />
	</node>
	<node id="-568522" lat="58.3279878054" lon="7.80931159952">
>>>>>>> e1d4bc35ff8a6074a6f2e91616a996b547c36f15
		<tag k="fixme" v="consider place=hamlet" />
		<tag k="name" v="Kvarstein" />
		<tag k="place" v="village" />
		<tag k="ssr:stedsnr" v="61066" />
	</node>
	<node lat="58.37320833518391" lon="7.873966658287162" id="-24785">
		<tag k="name" v="Lonane" />
		<tag k="place" v="farm" />
		<tag k="ssr:stedsnr" v="61146" />
	</node>
<<<<<<< HEAD
	<node lat="58.33083611302046" lon="7.644605548360493" id="-24786">
		<tag k="alt_name" v="Frammnes" />
		<tag k="name" v="Framnes" />
=======
	<node id="-568521" lat="58.2923803613" lon="7.78973303284">
		<tag k="fixme" v="consider place=hamlet" />
		<tag k="name" v="Sangesland" />
>>>>>>> e1d4bc35ff8a6074a6f2e91616a996b547c36f15
		<tag k="place" v="farm" />
		<tag k="ssr:stedsnr" v="61746" />
	</node>
<<<<<<< HEAD
	<node lat="58.301327773726726" lon="7.787824991881947" id="-24804">
		<tag k="name" v="Nedre Lie" />
=======
	<node id="-568520" lat="58.2922239216" lon="7.77994814229">
		<tag k="fixme" v="consider place=hamlet" />
		<tag k="name" v="Øvrebø" />
>>>>>>> e1d4bc35ff8a6074a6f2e91616a996b547c36f15
		<tag k="place" v="farm" />
		<tag k="ssr:stedsnr" v="94657" />
	</node>
<<<<<<< HEAD
	<node lat="58.27036944853819" lon="7.715430550715049" id="-24807">
		<tag k="name" v="Fureneset" />
=======
	<node id="-568519" lat="58.254831715" lon="7.75191179696">
		<tag k="fixme" v="consider place=hamlet" />
		<tag k="name" v="Stallemoliene" />
>>>>>>> e1d4bc35ff8a6074a6f2e91616a996b547c36f15
		<tag k="place" v="farm" />
		<tag k="ssr:stedsnr" v="94744" />
	</node>
<<<<<<< HEAD
	<node lat="58.38855832974016" lon="7.888122215920532" id="-24892">
		<tag k="name" v="Vallberg" />
=======
	<node id="-568518" lat="58.2580913011" lon="7.74975953851">
		<tag k="fixme" v="consider place=hamlet" />
		<tag k="name" v="Knollen" />
>>>>>>> e1d4bc35ff8a6074a6f2e91616a996b547c36f15
		<tag k="place" v="farm" />
		<tag k="ssr:stedsnr" v="108927" />
	</node>
<<<<<<< HEAD
	<node lat="58.31842777471621" lon="8.037266666436755" id="-24893">
		<tag k="fixme" v="consider place=hamlet" />
		<tag k="name" v="Honnemyr" />
		<tag k="place" v="farm" />
		<tag k="ssr:stedsnr" v="121120" />
	</node>
	<node lat="58.25430277928785" lon="7.877638896724071" id="-24894">
=======
	<node id="-565537" lat="58.3869749999" lon="7.727797221">
		<tag k="fixme" v="consider place=hamlet" />
		<tag k="name" v="Tveite" />
		<tag k="place" v="farm" />
		<tag k="ssr:stedsnr" v="667193" />
	</node>
	<node id="-568516" lat="58.26491746" lon="7.8238350524">
>>>>>>> e1d4bc35ff8a6074a6f2e91616a996b547c36f15
		<tag k="fixme" v="consider place=hamlet" />
		<tag k="name" v="Vatnedal" />
		<tag k="place" v="farm" />
		<tag k="ssr:stedsnr" v="121039" />
	</node>
<<<<<<< HEAD
	<node lat="58.25224444026617" lon="7.964313886056794" id="-24895">
		<tag k="alt_name" v="Vigeland" />
		<tag k="name" v="Vikeland" />
		<tag k="place" v="village" />
		<tag k="ssr:stedsnr" v="121041" />
	</node>
	<node lat="58.25348055641122" lon="7.85556388145841" id="-24896">
		<tag k="fixme" v="consider place=hamlet" />
		<tag k="name" v="Vehus" />
		<tag k="place" v="farm" />
		<tag k="ssr:stedsnr" v="121043" />
	</node>
	<node lat="58.279872219687114" lon="7.752886115719795" id="-24897">
		<tag k="alt_name" v="Dalane" />
		<tag k="name" v="Daland" />
		<tag k="place" v="farm" />
		<tag k="ssr:stedsnr" v="121006" />
	</node>
	<node lat="58.28852500159719" lon="7.848138882227131" id="-24898">
		<tag k="alt_name" v="Bakkane" />
		<tag k="name" v="Bakkan" />
=======
	<node id="-568515" lat="58.2612584933" lon="7.89197516217">
		<tag k="name" v="Lolandstølen" />
		<tag k="place" v="isolated_dwelling" />
		<tag k="ssr:stedsnr" v="978455" />
	</node>
	<node id="-567490" lat="58.2659416629" lon="7.82989999728">
		<tag k="name" v="Slettebrotane" />
		<tag k="place" v="quarter" />
		<tag k="ssr:stedsnr" v="397499" />
	</node>
	<node id="-568523" lat="58.3066433357" lon="7.82515381037">
		<tag k="fixme" v="consider place=hamlet" />
		<tag k="name" v="Sandrep" />
		<tag k="place" v="farm" />
		<tag k="ssr:stedsnr" v="978494" />
	</node>
	<node id="-568512" lat="58.3003124785" lon="7.9826481894">
		<tag k="fixme" v="consider place=hamlet" />
		<tag k="name" v="Grovane" />
>>>>>>> e1d4bc35ff8a6074a6f2e91616a996b547c36f15
		<tag k="place" v="farm" />
		<tag k="ssr:stedsnr" v="121012" />
	</node>
<<<<<<< HEAD
	<node lat="58.33747222108085" lon="7.823538891251003" id="-24900">
=======
	<node id="-568511" lat="58.3021164516" lon="8.04880395584">
>>>>>>> e1d4bc35ff8a6074a6f2e91616a996b547c36f15
		<tag k="fixme" v="consider place=hamlet" />
		<tag k="name" v="Langeland" />
		<tag k="place" v="farm" />
		<tag k="ssr:stedsnr" v="121086" />
	</node>
	<node lat="58.3162111148866" lon="8.00464167179509" id="-24902">
		<tag k="fixme" v="consider place=suburb, village or hamlet" />
		<tag k="name" v="Samkom" />
		<tag k="place" v="quarter" />
		<tag k="ssr:stedsnr" v="121112" />
	</node>
<<<<<<< HEAD
	<node lat="58.37083888711549" lon="7.792458329657004" id="-24903">
=======
	<node id="-568510" lat="58.2987211637" lon="7.98207029885">
>>>>>>> e1d4bc35ff8a6074a6f2e91616a996b547c36f15
		<tag k="fixme" v="consider place=hamlet" />
		<tag k="name" v="Tussekilen" />
		<tag k="place" v="farm" />
		<tag k="ssr:stedsnr" v="121156" />
	</node>
<<<<<<< HEAD
	<node lat="58.32925277510847" lon="7.6817499939463305" id="-24905">
		<tag k="name" v="Nyberg" />
		<tag k="place" v="farm" />
		<tag k="ssr:stedsnr" v="121746" />
	</node>
	<node lat="58.40017499709441" lon="7.7628000052069615" id="-24922">
		<tag k="name" v="Myrengen" />
=======
	<node id="-568509" lat="58.2699364242" lon="7.9752850438">
		<tag k="name" v="Vennesla" />
		<tag k="place" v="locality" />
		<tag k="ssr:stedsnr" v="978442" />
	</node>
	<node id="-568508" lat="58.2500325909" lon="7.95574006253">
		<tag k="fixme" v="consider place=hamlet" />
		<tag k="name" v="Øvre Vikeland" />
>>>>>>> e1d4bc35ff8a6074a6f2e91616a996b547c36f15
		<tag k="place" v="farm" />
		<tag k="ssr:stedsnr" v="155089" />
	</node>
<<<<<<< HEAD
	<node lat="58.29692221922679" lon="7.833791669611386" id="-24961">
		<tag k="name" v="Vormbrokka" />
		<tag k="place" v="quarter" />
		<tag k="ssr:stedsnr" v="155288" />
	</node>
	<node lat="58.37376388771355" lon="7.755986109962221" id="-24993">
		<tag k="name" v="Haugen" />
		<tag k="place" v="farm" />
		<tag k="ssr:stedsnr" v="155472" />
	</node>
	<node lat="58.3030795162749" lon="7.820482870374438" id="-25002">
		<tag k="name" v="Furely" />
		<tag k="place" v="farm" />
		<tag k="ssr:stedsnr" v="155595" />
	</node>
	<node lat="58.277352779192945" lon="7.9760277818739675" id="-25029">
		<tag k="name" v="Brandehei" />
=======
	<node id="-568507" lat="58.2429593142" lon="7.95158368499">
		<tag k="fixme" v="consider place=hamlet" />
		<tag k="name" v="Vikeland Ytre" />
		<tag k="place" v="farm" />
		<tag k="ssr:stedsnr" v="978440" />
	</node>
	<node id="-568506" lat="58.2349334439" lon="7.93798193024">
		<tag k="fixme" v="consider place=hamlet" />
		<tag k="name" v="Kvarstein" />
		<tag k="place" v="farm" />
		<tag k="ssr:stedsnr" v="978439" />
	</node>
	<node id="-568505" lat="58.2244256148" lon="7.93903888535">
		<tag k="name" v="Sagen" />
		<tag k="place" v="isolated_dwelling" />
		<tag k="ssr:stedsnr" v="978438" />
	</node>
	<node id="-567341" lat="58.3895722252" lon="7.74129166189">
		<tag k="name" v="Nesheim" />
		<tag k="place" v="farm" />
		<tag k="ssr:stedsnr" v="337402" />
	</node>
	<node id="-567473" lat="58.2877277755" lon="7.87912777857">
		<tag k="name" v="Røddebakken" />
>>>>>>> e1d4bc35ff8a6074a6f2e91616a996b547c36f15
		<tag k="place" v="quarter" />
		<tag k="ssr:stedsnr" v="155887" />
	</node>
<<<<<<< HEAD
	<node lat="58.42076111323445" lon="7.723744444333643" id="-25031">
		<tag k="name" v="Lauvskårløa" />
		<tag k="place" v="locality" />
		<tag k="ssr:stedsnr" v="155896" />
	</node>
	<node lat="58.28726110922602" lon="7.836394445645661" id="-25085">
		<tag k="alt_name" v="Almen, l" />
		<tag k="name" v="Lille Almen" />
=======
	<node id="-565936" lat="58.2494694429" lon="7.95458888608">
		<tag k="name" v="Vigeland gård" />
>>>>>>> e1d4bc35ff8a6074a6f2e91616a996b547c36f15
		<tag k="place" v="farm" />
		<tag k="ssr:stedsnr" v="182008" />
	</node>
<<<<<<< HEAD
	<node lat="58.26064721824062" lon="7.8656472168228015" id="-25090">
		<tag k="alt_name" v="Holtane" />
		<tag k="name" v="Holtan" />
		<tag k="place" v="farm" />
		<tag k="ssr:stedsnr" v="182047" />
	</node>
	<node lat="58.330855557384645" lon="7.823074991579561" id="-25096">
		<tag k="name" v="Midbø" />
		<tag k="place" v="farm" />
		<tag k="ssr:stedsnr" v="182101" />
	</node>
	<node lat="58.37528055312981" lon="7.695544452863777" id="-25097">
		<tag k="name" v="Hægeland" />
		<tag k="place" v="hamlet" />
		<tag k="ssr:stedsnr" v="182128" />
	</node>
	<node lat="58.36523611228048" lon="7.70191388113873" id="-25101">
		<tag k="fixme" v="consider place=hamlet" />
		<tag k="name" v="Sandland" />
		<tag k="place" v="farm" />
		<tag k="ssr:stedsnr" v="182955" />
	</node>
	<node lat="58.250708333942775" lon="7.965602783744835" id="-25103">
		<tag k="fixme" v="consider place=suburb, village or hamlet" />
		<tag k="name" v="Lunden" />
		<tag k="place" v="quarter" />
		<tag k="ssr:stedsnr" v="206071" />
	</node>
	<node lat="58.29949722012243" lon="7.731013880927623" id="-25109">
		<tag k="name" v="Vestheim" />
=======
	<node id="-567471" lat="58.248450004" lon="7.86947500673">
		<tag k="name" v="Stemmen" />
		<tag k="place" v="hamlet" />
		<tag k="ssr:stedsnr" v="392440" />
	</node>
	<node id="-567981" lat="58.3504555555" lon="7.86572499904">
		<tag k="name" v="Nordbu" />
		<tag k="place" v="isolated_dwelling" />
		<tag k="ssr:stedsnr" v="640215" />
	</node>
	<node id="-565420" lat="58.4048166676" lon="7.72193888622">
		<tag k="name" v="Lunneløa" />
		<tag k="place" v="locality" />
		<tag k="ssr:stedsnr" v="519034" />
	</node>
	<node id="-567154" lat="58.3308555574" lon="7.82307499158">
		<tag k="name" v="Midbø" />
		<tag k="place" v="farm" />
		<tag k="ssr:stedsnr" v="182101" />
	</node>
	<node id="-566727" lat="58.28472778" lon="7.97692500317">
		<tag k="name" v="Ludeflaten" />
		<tag k="place" v="quarter" />
		<tag k="ssr:stedsnr" v="60001" />
	</node>
	<node id="-565415" lat="58.3138027772" lon="7.78271667174">
		<tag k="name" v="Nygård" />
		<tag k="place" v="farm" />
		<tag k="ssr:stedsnr" v="518244" />
	</node>
	<node id="-565926" lat="58.2569277787" lon="7.95611666137">
		<tag k="name" v="Hallan" />
		<tag k="place" v="isolated_dwelling" />
		<tag k="ssr:stedsnr" v="884502" />
	</node>
	<node id="-568517" lat="58.2440293312" lon="7.79010303151">
		<tag k="fixme" v="consider place=hamlet" />
		<tag k="name" v="Fjeldkjønn" />
		<tag k="place" v="farm" />
		<tag k="ssr:stedsnr" v="978467" />
	</node>
	<node id="-565409" lat="58.2628229819" lon="8.01762697811">
		<tag k="name" v="Røssebrekka" />
>>>>>>> e1d4bc35ff8a6074a6f2e91616a996b547c36f15
		<tag k="place" v="farm" />
		<tag k="ssr:stedsnr" v="215919" />
	</node>
	<node lat="58.32499999967713" lon="8.01349999253715" id="-25126">
		<tag k="name" v="Tvibekkmonen" />
		<tag k="place" v="farm" />
		<tag k="ssr:stedsnr" v="216036" />
	</node>
	<node lat="58.329594444047714" lon="7.849099995743585" id="-25148">
		<tag k="name" v="Groskleiv" />
		<tag k="place" v="locality" />
		<tag k="ssr:stedsnr" v="216256" />
	</node>
<<<<<<< HEAD
	<node lat="58.37022221811026" lon="7.758972215848198" id="-25157">
		<tag k="name" v="Hopsåkeren" />
		<tag k="place" v="farm" />
		<tag k="ssr:stedsnr" v="216491" />
	</node>
	<node lat="58.26086667086062" lon="7.977261105079053" id="-25162">
		<tag k="name" v="Nordgård" />
=======
	<node id="-567456" lat="58.3308083308" lon="7.8605444467">
		<tag k="name" v="Føreland" />
		<tag k="place" v="farm" />
		<tag k="ssr:stedsnr" v="364126" />
	</node>
	<node id="-567455" lat="58.3008166699" lon="7.79584721731">
		<tag k="alt_name" v="Li" />
		<tag k="fixme" v="consider place=hamlet" />
		<tag k="name" v="Lie" />
>>>>>>> e1d4bc35ff8a6074a6f2e91616a996b547c36f15
		<tag k="place" v="farm" />
		<tag k="ssr:stedsnr" v="216546" />
	</node>
<<<<<<< HEAD
	<node lat="58.293969445944306" lon="7.799308325377753" id="-25235">
		<tag k="name" v="Steinvollen" />
		<tag k="place" v="quarter" />
		<tag k="ssr:stedsnr" v="276306" />
	</node>
	<node lat="58.428297218624614" lon="7.7820194439612855" id="-25279">
		<tag k="name" v="Stean" />
		<tag k="place" v="farm" />
		<tag k="ssr:stedsnr" v="277146" />
	</node>
	<node lat="58.32976389333172" lon="7.865875000234456" id="-25288">
		<tag k="name" v="Dugan" />
=======
	<node id="-565406" lat="58.3012194475" lon="7.98402500769">
		<tag k="fixme" v="consider place=hamlet" />
		<tag k="name" v="Grovane" />
		<tag k="place" v="village" />
		<tag k="ssr:stedsnr" v="425018" />
	</node>
	<node id="-566469" lat="58.444219446" lon="7.76232777365">
		<tag k="name" v="Strandbergløa" />
		<tag k="place" v="locality" />
		<tag k="ssr:stedsnr" v="884755" />
	</node>
	<node id="-567452" lat="58.348563889" lon="8.04356388269">
		<tag k="alt_name" v="Bjørndalen" />
		<tag k="name" v="Bjønndalen" />
>>>>>>> e1d4bc35ff8a6074a6f2e91616a996b547c36f15
		<tag k="place" v="farm" />
		<tag k="ssr:stedsnr" v="277257" />
	</node>
<<<<<<< HEAD
	<node lat="58.237147222760775" lon="7.9424305628714595" id="-25293">
		<tag k="name" v="Synestad" />
		<tag k="place" v="farm" />
		<tag k="ssr:stedsnr" v="277379" />
	</node>
	<node lat="58.2460277761399" lon="7.873577775633917" id="-25296">
		<tag k="name" v="Skudene" />
		<tag k="place" v="farm" />
		<tag k="ssr:stedsnr" v="277472" />
	</node>
	<node lat="58.2760722199715" lon="7.832019439258691" id="-25380">
=======
	<node id="-565972" lat="58.4369722224" lon="7.78296666192">
		<tag k="name" v="Lia" />
		<tag k="place" v="farm" />
		<tag k="ssr:stedsnr" v="884987" />
	</node>
	<node id="-565871" lat="58.2889638848" lon="7.97838610378">
		<tag k="alt_name" v="Eikelandsåen" />
		<tag k="fixme" v="consider place=hamlet" />
		<tag k="name" v="Eikelandså" />
		<tag k="place" v="farm" />
		<tag k="ssr:stedsnr" v="883931" />
	</node>
	<node id="-565916" lat="58.3262277759" lon="7.731336117">
		<tag k="name" v="Heia" />
		<tag k="place" v="locality" />
		<tag k="ssr:stedsnr" v="884302" />
	</node>
	<node id="-568467" lat="58.3724194476" lon="7.69211388252">
>>>>>>> e1d4bc35ff8a6074a6f2e91616a996b547c36f15
		<tag k="fixme" v="consider place=hamlet" />
		<tag k="name" v="Homme" />
		<tag k="place" v="farm" />
		<tag k="ssr:stedsnr" v="303014" />
	</node>
<<<<<<< HEAD
	<node lat="58.26395278032444" lon="7.959319437493066" id="-25386">
		<tag k="fixme" v="consider place=suburb, village or hamlet" />
		<tag k="name" v="Moseidmoen" />
=======
	<node id="-567954" lat="58.2978499972" lon="7.85222222473">
		<tag k="name" v="Solkniben" />
>>>>>>> e1d4bc35ff8a6074a6f2e91616a996b547c36f15
		<tag k="place" v="quarter" />
		<tag k="ssr:stedsnr" v="303051" />
	</node>
<<<<<<< HEAD
	<node lat="58.26192222105152" lon="7.801011107788107" id="-25387">
		<tag k="alt_name" v="Iglebekk, l;Lille Iglebæk" />
		<tag k="fixme" v="consider place=hamlet" />
		<tag k="name" v="Lille Ilebekk" />
		<tag k="place" v="farm" />
		<tag k="ssr:stedsnr" v="303055" />
	</node>
	<node lat="58.34550555608016" lon="7.80736667223145" id="-25389">
		<tag k="fixme" v="consider place=hamlet" />
		<tag k="name" v="Neset" />
		<tag k="place" v="farm" />
		<tag k="ssr:stedsnr" v="303068" />
	</node>
	<node lat="58.344455551645964" lon="7.897688882242929" id="-25390">
=======
	<node id="-567235" lat="58.2608666709" lon="7.97726110508">
		<tag k="name" v="Nordgård" />
		<tag k="place" v="farm" />
		<tag k="ssr:stedsnr" v="216546" />
	</node>
	<node id="-564880" lat="58.2488194485" lon="7.96073333099">
		<tag k="name" v="Bakhei" />
		<tag k="place" v="quarter" />
		<tag k="ssr:stedsnr" v="277433" />
	</node>
	<node id="-568461" lat="58.4082972205" lon="7.76419721821">
>>>>>>> e1d4bc35ff8a6074a6f2e91616a996b547c36f15
		<tag k="fixme" v="consider place=hamlet" />
		<tag k="name" v="Røyknes" />
		<tag k="place" v="village" />
		<tag k="ssr:stedsnr" v="303070" />
	</node>
<<<<<<< HEAD
	<node lat="58.390086112543905" lon="7.732766665834983" id="-25392">
		<tag k="fixme" v="consider place=hamlet" />
		<tag k="name" v="Homme" />
		<tag k="place" v="farm" />
		<tag k="ssr:stedsnr" v="303191" />
	</node>
	<node lat="58.37020000093414" lon="7.833955557711304" id="-25393">
		<tag k="name" v="Murtedal" />
=======
	<node id="-566412" lat="58.2542444439" lon="7.96469999569">
		<tag k="building" v="industrial" />
		<tag k="industrial" v="factory" />
		<tag k="name" v="Norsk Wallboard" />
		<tag k="ssr:stedsnr" v="945384" />
	</node>
	<node id="-568459" lat="58.3087194433" lon="7.81183610475">
		<tag k="alt_name" v="Daleheftet" />
		<tag k="name" v="Dalehefte" />
>>>>>>> e1d4bc35ff8a6074a6f2e91616a996b547c36f15
		<tag k="place" v="isolated_dwelling" />
		<tag k="ssr:stedsnr" v="303165" />
	</node>
<<<<<<< HEAD
	<node lat="58.364905556799684" lon="7.655438882860653" id="-25394">
		<tag k="alt_name" v="Mørkestøl" />
		<tag k="name" v="Ny Mørkestøl" />
		<tag k="place" v="locality" />
		<tag k="ssr:stedsnr" v="303966" />
	</node>
	<node lat="58.31541666496559" lon="7.774427778859134" id="-25397">
		<tag k="alt_name" v="Fjellstad" />
		<tag k="fixme" v="consider place=hamlet" />
		<tag k="name" v="Fjellestad" />
=======
	<node id="-568458" lat="58.3157861153" lon="7.88446389568">
		<tag k="name" v="Bjørndalen" />
>>>>>>> e1d4bc35ff8a6074a6f2e91616a996b547c36f15
		<tag k="place" v="farm" />
		<tag k="ssr:stedsnr" v="304086" />
	</node>
<<<<<<< HEAD
	<node lat="58.404388887170235" lon="7.843213894325377" id="-25398">
=======
	<node id="-565527" lat="58.2685638879" lon="7.9731444449">
		<tag k="name" v="Vennesla" />
		<tag k="place" v="village" />
		<tag k="ssr:stedsnr" v="667070" />
	</node>
	<node id="-568456" lat="58.2694944415" lon="7.78731666647">
>>>>>>> e1d4bc35ff8a6074a6f2e91616a996b547c36f15
		<tag k="fixme" v="consider place=hamlet" />
		<tag k="name" v="Gåseflå" />
		<tag k="place" v="farm" />
		<tag k="ssr:stedsnr" v="304116" />
	</node>
<<<<<<< HEAD
	<node lat="58.24500555822443" lon="7.859174996392752" id="-25399">
		<tag k="fixme" v="consider place=hamlet" />
		<tag k="name" v="Bue" />
		<tag k="place" v="farm" />
		<tag k="ssr:stedsnr" v="331399" />
	</node>
	<node lat="58.25717221905977" lon="7.74528611644354" id="-25401">
		<tag k="name" v="Nordli" />
		<tag k="place" v="farm" />
		<tag k="ssr:stedsnr" v="337541" />
	</node>
	<node lat="58.31101944699138" lon="7.783088896938268" id="-25407">
		<tag k="name" v="Grostøl" />
		<tag k="place" v="farm" />
		<tag k="ssr:stedsnr" v="336667" />
	</node>
	<node lat="58.29069444172147" lon="7.87362777497038" id="-25412">
		<tag k="name" v="Heia" />
=======
	<node id="-568455" lat="58.2625944413" lon="7.83098333919">
		<tag k="alt_name" v="Homsteane" />
		<tag k="fixme" v="consider place=suburb, village or hamlet" />
		<tag k="name" v="Homstean" />
		<tag k="place" v="quarter" />
		<tag k="ssr:stedsnr" v="850046" />
	</node>
	<node id="-568513" lat="58.2830822244" lon="7.96056552618">
		<tag k="fixme" v="consider place=hamlet" />
		<tag k="name" v="Drivenes" />
		<tag k="place" v="farm" />
		<tag k="ssr:stedsnr" v="978453" />
	</node>
	<node id="-567940" lat="58.2460861111" lon="7.94957499189">
		<tag k="fixme" v="consider place=hamlet" />
		<tag k="name" v="Heisel" />
		<tag k="place" v="farm" />
		<tag k="ssr:stedsnr" v="634429" />
	</node>
	<node id="-567939" lat="58.3799555574" lon="7.65289166473">
		<tag k="fixme" v="consider place=hamlet" />
		<tag k="name" v="Gunstveit" />
>>>>>>> e1d4bc35ff8a6074a6f2e91616a996b547c36f15
		<tag k="place" v="farm" />
		<tag k="ssr:stedsnr" v="337063" />
	</node>
	<node lat="58.45057221948047" lon="7.758294442324632" id="-25466">
		<tag k="name" v="Lunneslåtthytta" />
		<tag k="place" v="isolated_dwelling" />
		<tag k="ssr:stedsnr" v="337787" />
	</node>
	<node lat="58.25670277334822" lon="7.97154721397186" id="-25476">
		<tag k="name" v="Rakkestad" />
		<tag k="place" v="quarter" />
		<tag k="ssr:stedsnr" v="338373" />
	</node>
	<node lat="58.348563889049196" lon="8.043563882690766" id="-25514">
		<tag k="alt_name" v="Bjørndalen" />
		<tag k="name" v="Bjønndalen" />
		<tag k="place" v="farm" />
		<tag k="ssr:stedsnr" v="364058" />
	</node>
<<<<<<< HEAD
	<node lat="58.35082221910339" lon="7.704680553156215" id="-25520">
=======
	<node id="-565378" lat="58.3508222191" lon="7.70468055316">
>>>>>>> e1d4bc35ff8a6074a6f2e91616a996b547c36f15
		<tag k="alt_name" v="Førlandsåsan" />
		<tag k="name" v="Åsan" />
		<tag k="place" v="farm" />
		<tag k="ssr:stedsnr" v="364831" />
	</node>
<<<<<<< HEAD
	<node lat="58.28772777545488" lon="7.879127778569104" id="-25524">
		<tag k="name" v="Røddebakken" />
		<tag k="place" v="quarter" />
		<tag k="ssr:stedsnr" v="397069" />
	</node>
	<node lat="58.32977777396207" lon="7.99882223021169" id="-25542">
		<tag k="name" v="Rynninga" />
		<tag k="place" v="farm" />
		<tag k="ssr:stedsnr" v="398094" />
	</node>
	<node lat="58.25550833074354" lon="7.967138842907999" id="-25579">
		<tag k="name" v="Harket" />
		<tag k="place" v="farm" />
		<tag k="ssr:stedsnr" v="398383" />
	</node>
	<node lat="58.2538527742765" lon="7.767300002269642" id="-25639">
		<tag k="alt_name" v="Hægeland, yt" />
		<tag k="fixme" v="consider place=hamlet" />
		<tag k="name" v="Ytre Hægeland" />
		<tag k="place" v="farm" />
		<tag k="ssr:stedsnr" v="425028" />
	</node>
	<node lat="58.31795277436823" lon="7.8713527837866675" id="-25643">
		<tag k="name" v="Steane" />
		<tag k="place" v="farm" />
		<tag k="ssr:stedsnr" v="425084" />
	</node>
	<node lat="58.38287222304387" lon="7.714674992797752" id="-25647">
		<tag k="name" v="Skreppestøl" />
		<tag k="place" v="farm" />
		<tag k="ssr:stedsnr" v="425936" />
	</node>
	<node lat="58.313802777188336" lon="7.782716671736747" id="-25649">
		<tag k="name" v="Nygård" />
=======
	<node id="-565099" lat="58.2798888915" lon="7.97298889561">
		<tag k="name" v="Holte" />
		<tag k="place" v="quarter" />
		<tag k="ssr:stedsnr" v="458928" />
	</node>
	<node id="-566911" lat="58.3843361134" lon="7.83466945003">
		<tag k="fixme" v="consider place=hamlet" />
		<tag k="name" v="Båseland" />
		<tag k="place" v="farm" />
		<tag k="ssr:stedsnr" v="121174" />
	</node>
	<node id="-567934" lat="58.4146055598" lon="7.76562500085">
		<tag k="name" v="Bergebakken" />
>>>>>>> e1d4bc35ff8a6074a6f2e91616a996b547c36f15
		<tag k="place" v="farm" />
		<tag k="ssr:stedsnr" v="518244" />
	</node>
<<<<<<< HEAD
	<node lat="58.29201388964132" lon="7.790538886571627" id="-25693">
		<tag k="name" v="Bastubakken" />
		<tag k="place" v="farm" />
		<tag k="ssr:stedsnr" v="519333" />
	</node>
	<node lat="58.36968333573575" lon="7.756880559530005" id="-25705">
		<tag k="name" v="Vollan" />
		<tag k="place" v="farm" />
		<tag k="ssr:stedsnr" v="519532" />
	</node>
	<node lat="58.24680833087051" lon="7.971822229497641" id="-25740">
		<tag k="name" v="Dallen" />
=======
	<node id="-567933" lat="58.4014638854" lon="7.76454445199">
		<tag k="name" v="Monan" />
		<tag k="place" v="farm" />
		<tag k="ssr:stedsnr" v="606136" />
	</node>
	<node id="-566908" lat="58.3184277747" lon="8.03726666644">
		<tag k="fixme" v="consider place=hamlet" />
		<tag k="name" v="Honnemyr" />
		<tag k="place" v="farm" />
		<tag k="ssr:stedsnr" v="121120" />
	</node>
	<node id="-567931" lat="58.2312111081" lon="7.93999166835">
		<tag k="name" v="Sagbakken" />
>>>>>>> e1d4bc35ff8a6074a6f2e91616a996b547c36f15
		<tag k="place" v="farm" />
		<tag k="ssr:stedsnr" v="520455" />
	</node>
<<<<<<< HEAD
	<node lat="58.26485555502502" lon="7.977769451824434" id="-25772">
		<tag k="fixme" v="consider place=suburb, village or hamlet" />
		<tag k="name" v="Graslia" />
		<tag k="place" v="quarter" />
		<tag k="ssr:stedsnr" v="546061" />
	</node>
	<node lat="58.28864444531719" lon="7.9853444490550425" id="-25773">
		<tag k="alt_name" v="Liane" />
		<tag k="fixme" v="consider place=hamlet" />
		<tag k="name" v="Lian" />
		<tag k="place" v="farm" />
		<tag k="ssr:stedsnr" v="546001" />
	</node>
	<node lat="58.28766389179962" lon="7.877299998967048" id="-25774">
		<tag k="name" v="Loland" />
		<tag k="place" v="hamlet" />
		<tag k="ssr:stedsnr" v="546013" />
	</node>
	<node lat="58.366755554395745" lon="7.818769452478851" id="-25776">
		<tag k="alt_name" v="Storhei" />
=======
	<node id="-567930" lat="58.3509416702" lon="7.75989444539">
		<tag k="alt_name" v="Einstabeland" />
		<tag k="fixme" v="consider place=hamlet" />
		<tag k="name" v="Einstabland" />
		<tag k="place" v="farm" />
		<tag k="ssr:stedsnr" v="606088" />
	</node>
	<node id="-567929" lat="58.3562277794" lon="8.03299166322">
		<tag k="fixme" v="consider place=hamlet" />
		<tag k="name" v="Voreland" />
		<tag k="place" v="farm" />
		<tag k="ssr:stedsnr" v="606083" />
	</node>
	<node id="-566904" lat="58.3374722211" lon="7.82353889125">
>>>>>>> e1d4bc35ff8a6074a6f2e91616a996b547c36f15
		<tag k="fixme" v="consider place=hamlet" />
		<tag k="name" v="Storrhei" />
		<tag k="place" v="farm" />
		<tag k="ssr:stedsnr" v="546161" />
	</node>
<<<<<<< HEAD
	<node lat="58.31588888458345" lon="7.801125006454373" id="-25807">
		<tag k="name" v="Myran" />
		<tag k="place" v="farm" />
		<tag k="ssr:stedsnr" v="579753" />
	</node>
	<node lat="58.298138886597" lon="7.779708337875322" id="-25809">
		<tag k="amenity" v="nursing_home" />
		<tag k="name" v="Nordhagen" />
		<tag k="ssr:stedsnr" v="579775" />
	</node>
	<node lat="58.38740555865697" lon="7.666447219223594" id="-25825">
		<tag k="name" v="Knapen" />
=======
	<node id="-564855" lat="58.2371472228" lon="7.94243056287">
		<tag k="name" v="Synestad" />
		<tag k="place" v="farm" />
		<tag k="ssr:stedsnr" v="277379" />
	</node>
	<node id="-566902" lat="58.2534805564" lon="7.85556388146">
		<tag k="fixme" v="consider place=hamlet" />
		<tag k="name" v="Vehus" />
>>>>>>> e1d4bc35ff8a6074a6f2e91616a996b547c36f15
		<tag k="place" v="farm" />
		<tag k="ssr:stedsnr" v="580160" />
	</node>
<<<<<<< HEAD
	<node lat="58.38805833083341" lon="7.659611118808931" id="-25826">
		<tag k="name" v="Holtan" />
		<tag k="place" v="farm" />
		<tag k="ssr:stedsnr" v="580163" />
	</node>
	<node lat="58.24681110887686" lon="7.943844436558039" id="-25837">
		<tag k="name" v="Heiselflaten" />
=======
	<node id="-566901" lat="58.2522444403" lon="7.96431388606">
		<tag k="alt_name" v="Vigeland" />
		<tag k="name" v="Vikeland" />
		<tag k="place" v="village" />
		<tag k="ssr:stedsnr" v="121041" />
	</node>
	<node id="-566900" lat="58.2543027793" lon="7.87763889672">
		<tag k="fixme" v="consider place=hamlet" />
		<tag k="name" v="Vatnedal" />
>>>>>>> e1d4bc35ff8a6074a6f2e91616a996b547c36f15
		<tag k="place" v="farm" />
		<tag k="ssr:stedsnr" v="580420" />
	</node>
<<<<<<< HEAD
	<node lat="58.2552416664389" lon="7.858488883078131" id="-25855">
		<tag k="name" v="Kviegna" />
		<tag k="place" v="farm" />
		<tag k="ssr:stedsnr" v="580484" />
	</node>
	<node lat="58.341211111959346" lon="7.749055548001984" id="-25908">
		<tag k="alt_name" v="Bringsvær" />
		<tag k="amenity" v="school" />
		<tag k="name" v="Bringsverd" />
		<tag k="ssr:stedsnr" v="606066" />
	</node>
	<node lat="58.23121110811023" lon="7.939991668345857" id="-25909">
		<tag k="name" v="Sagbakken" />
=======
	<node id="-566387" lat="58.2737749989" lon="7.98109443613">
		<tag k="name" v="Rundåslia" />
		<tag k="place" v="quarter" />
		<tag k="ssr:stedsnr" v="944884" />
	</node>
	<node id="-566898" lat="58.2885250016" lon="7.84813888223">
		<tag k="alt_name" v="Bakkane" />
		<tag k="name" v="Bakkan" />
>>>>>>> e1d4bc35ff8a6074a6f2e91616a996b547c36f15
		<tag k="place" v="farm" />
		<tag k="ssr:stedsnr" v="606107" />
	</node>
<<<<<<< HEAD
	<node lat="58.40146388543899" lon="7.7645444519937294" id="-25911">
		<tag k="name" v="Monan" />
=======
	<node id="-566897" lat="58.2798722197" lon="7.75288611572">
		<tag k="alt_name" v="Dalane" />
		<tag k="name" v="Daland" />
>>>>>>> e1d4bc35ff8a6074a6f2e91616a996b547c36f15
		<tag k="place" v="farm" />
		<tag k="ssr:stedsnr" v="606136" />
	</node>
<<<<<<< HEAD
	<node lat="58.41460555976462" lon="7.7656250008480745" id="-25912">
		<tag k="name" v="Bergebakken" />
=======
	<node id="-566896" lat="58.3885583297" lon="7.88812221592">
		<tag k="name" v="Vallberg" />
>>>>>>> e1d4bc35ff8a6074a6f2e91616a996b547c36f15
		<tag k="place" v="farm" />
		<tag k="ssr:stedsnr" v="606140" />
	</node>
<<<<<<< HEAD
	<node lat="58.37995555737731" lon="7.652891664730082" id="-25918">
		<tag k="fixme" v="consider place=hamlet" />
		<tag k="name" v="Gunstveit" />
		<tag k="place" v="farm" />
		<tag k="ssr:stedsnr" v="606933" />
	</node>
	<node lat="58.295144447337506" lon="7.865855557827858" id="-25928">
		<tag k="name" v="Vollan" />
		<tag k="place" v="farm" />
		<tag k="ssr:stedsnr" v="640083" />
	</node>
	<node lat="58.29784999715985" lon="7.852222224726225" id="-25930">
		<tag k="name" v="Solkniben" />
		<tag k="place" v="quarter" />
		<tag k="ssr:stedsnr" v="640089" />
	</node>
	<node lat="58.39349722667968" lon="7.747033335378504" id="-25979">
		<tag k="name" v="Homme sag" />
		<tag k="place" v="locality" />
		<tag k="ssr:stedsnr" v="640420" />
	</node>
	<node lat="58.264147222096" lon="7.96754721506098" id="-25983">
		<tag k="building" v="industrial" />
		<tag k="industrial" v="factory" />
		<tag k="name" v="Hunsfoss fabrikker" />
		<tag k="ssr:stedsnr" v="640583" />
	</node>
	<node lat="58.305133332413554" lon="7.81706388330907" id="-25993">
		<tag k="name" v="Tjønna" />
=======
	<node id="-567407" lat="58.2567027733" lon="7.97154721397">
		<tag k="name" v="Rakkestad" />
		<tag k="place" v="quarter" />
		<tag k="ssr:stedsnr" v="338373" />
	</node>
	<node id="-566382" lat="58.2908916704" lon="7.77011388228">
		<tag k="name" v="Vestbø" />
		<tag k="place" v="farm" />
		<tag k="ssr:stedsnr" v="944808" />
	</node>
	<node id="-565949" lat="58.4528777745" lon="7.76683332577">
		<tag k="name" v="Dalanshytta" />
		<tag k="place" v="isolated_dwelling" />
		<tag k="ssr:stedsnr" v="884640" />
	</node>
	<node id="-566737" lat="58.2397277779" lon="7.94353611">
		<tag k="fixme" v="consider place=hamlet" />
		<tag k="name" v="Kvarstein" />
		<tag k="place" v="village" />
		<tag k="ssr:stedsnr" v="61066" />
	</node>
	<node id="-565266" lat="58.4356277758" lon="7.78494167187">
		<tag k="name" v="Der heime" />
		<tag k="place" v="farm" />
		<tag k="ssr:stedsnr" v="459994" />
	</node>
	<node id="-565354" lat="58.3834277814" lon="7.74133610526">
		<tag k="alt_name" v="Hægelandskrossen" />
		<tag k="fixme" v="consider place=suburb, village or hamlet" />
		<tag k="name" v="Hægeland" />
		<tag k="place" v="quarter" />
		<tag k="ssr:stedsnr" v="485142" />
	</node>
	<node id="-564840" lat="58.4282972186" lon="7.78201944396">
		<tag k="name" v="Stean" />
>>>>>>> e1d4bc35ff8a6074a6f2e91616a996b547c36f15
		<tag k="place" v="farm" />
		<tag k="ssr:stedsnr" v="640734" />
	</node>
<<<<<<< HEAD
	<node lat="58.28803611076667" lon="8.018702780262881" id="-25997">
		<tag k="name" v="Monreset" />
		<tag k="place" v="hamlet" />
		<tag k="ssr:stedsnr" v="640742" />
	</node>
	<node lat="58.382738885347706" lon="7.79169166701855" id="-26005">
		<tag k="name" v="Urvann" />
		<tag k="place" v="locality" />
		<tag k="ssr:stedsnr" v="640563" />
	</node>
	<node lat="58.25208332894558" lon="7.787872222144253" id="-26033">
=======
	<node id="-566972" lat="58.2969222192" lon="7.83379166961">
		<tag k="name" v="Vormbrokka" />
		<tag k="place" v="quarter" />
		<tag k="ssr:stedsnr" v="155288" />
	</node>
	<node id="-565349" lat="58.3290138867" lon="7.77610833517">
>>>>>>> e1d4bc35ff8a6074a6f2e91616a996b547c36f15
		<tag k="fixme" v="consider place=hamlet" />
		<tag k="name" v="Topstad" />
		<tag k="place" v="farm" />
<<<<<<< HEAD
		<tag k="ssr:stedsnr" v="641953" />
	</node>
	<node lat="58.25546666984895" lon="7.828080561376804" id="-26059">
		<tag k="fixme" v="consider place=hamlet" />
		<tag k="name" v="Berge" />
		<tag k="place" v="farm" />
		<tag k="ssr:stedsnr" v="667047" />
	</node>
	<node lat="58.26856388793726" lon="7.973144444896158" id="-26060">
		<tag k="name" v="Vennesla" />
		<tag k="place" v="village" />
		<tag k="ssr:stedsnr" v="667070" />
	</node>
	<node lat="58.268133330612244" lon="7.8048694434850745" id="-26062">
		<tag k="fixme" v="consider place=hamlet" />
		<tag k="name" v="Mushom" />
		<tag k="place" v="farm" />
		<tag k="ssr:stedsnr" v="667072" />
	</node>
	<node lat="58.43158333490589" lon="7.741602777648803" id="-26063">
		<tag k="fixme" v="consider place=hamlet" />
		<tag k="name" v="Lauvås" />
		<tag k="place" v="farm" />
		<tag k="ssr:stedsnr" v="667178" />
	</node>
	<node lat="58.38697499990595" lon="7.7277972209993315" id="-26064">
		<tag k="fixme" v="consider place=hamlet" />
		<tag k="name" v="Tveite" />
		<tag k="place" v="farm" />
		<tag k="ssr:stedsnr" v="667193" />
	</node>
	<node lat="58.24581666731042" lon="7.758058341677764" id="-26093">
		<tag k="fixme" v="consider place=hamlet" />
		<tag k="name" v="Stallemo" />
		<tag k="place" v="farm" />
		<tag k="ssr:stedsnr" v="728068" />
	</node>
	<node lat="58.33537499805791" lon="7.875958334697945" id="-26097">
		<tag k="name" v="Samkom" />
		<tag k="place" v="hamlet" />
		<tag k="ssr:stedsnr" v="728090" />
	</node>
	<node lat="58.28426388860399" lon="7.98641945088701" id="-26107">
		<tag k="name" v="Heptekjerr" />
		<tag k="place" v="quarter" />
		<tag k="ssr:stedsnr" v="761928" />
	</node>
	<node lat="58.304919440467216" lon="7.793391664480696" id="-26110">
		<tag k="name" v="Vårheim" />
		<tag k="place" v="farm" />
		<tag k="ssr:stedsnr" v="761662" />
	</node>
	<node lat="58.41152778175833" lon="7.7635583330332425" id="-26126">
		<tag k="name" v="Bergebakken" />
		<tag k="place" v="farm" />
		<tag k="ssr:stedsnr" v="762216" />
	</node>
	<node lat="58.329944447653304" lon="7.751391666275056" id="-26132">
		<tag k="name" v="Kjerran" />
		<tag k="place" v="locality" />
		<tag k="ssr:stedsnr" v="762331" />
	</node>
	<node lat="58.24524166745931" lon="7.959749997969506" id="-26151">
		<tag k="name" v="Naudeskaret" />
		<tag k="place" v="isolated_dwelling" />
		<tag k="ssr:stedsnr" v="762434" />
	</node>
	<node lat="58.25177222209956" lon="7.939983332997382" id="-26162">
		<tag k="name" v="Hagen" />
		<tag k="place" v="farm" />
		<tag k="ssr:stedsnr" v="762467" />
	</node>
	<node lat="58.2655527734567" lon="7.978447229632531" id="-26186">
		<tag k="name" v="Graslijordet" />
		<tag k="place" v="quarter" />
		<tag k="ssr:stedsnr" v="762883" />
	</node>
	<node lat="58.385830552177" lon="7.669213886202488" id="-26237">
		<tag k="name" v="Lunden" />
=======
		<tag k="ssr:stedsnr" v="485098" />
	</node>
	<node id="-565348" lat="58.3058305531" lon="7.82378888511">
		<tag k="alt_name" v="Sandrip" />
		<tag k="name" v="Sandrep" />
		<tag k="place" v="hamlet" />
		<tag k="ssr:stedsnr" v="485097" />
	</node>
	<node id="-568452" lat="58.3907388861" lon="7.75082500396">
		<tag k="name" v="Bruna" />
		<tag k="place" v="farm" />
		<tag k="ssr:stedsnr" v="849213" />
	</node>
	<node id="-565789" lat="58.2458166673" lon="7.75805834168">
		<tag k="fixme" v="consider place=hamlet" />
		<tag k="name" v="Stallemo" />
		<tag k="place" v="farm" />
		<tag k="ssr:stedsnr" v="728068" />
	</node>
	<node id="-565852" lat="58.2934388925" lon="7.7862861135">
		<tag k="fixme" v="multiple name tags, choose one and add the other to alt_name; consider place=hamlet" />
		<tag k="name" v="Prestegarden;Øvrebø Prestegård" />
		<tag k="place" v="farm" />
		<tag k="ssr:stedsnr" v="883328" />
	</node>
	<node id="-566777" lat="58.3013277737" lon="7.78782499188">
		<tag k="name" v="Nedre Lie" />
		<tag k="place" v="farm" />
		<tag k="ssr:stedsnr" v="94657" />
	</node>
	<node id="-567493" lat="58.2628916652" lon="8.01742777564">
		<tag k="name" v="Røssebrekka" />
		<tag k="place" v="farm" />
		<tag k="ssr:stedsnr" v="397578" />
	</node>
	<node id="-567510" lat="58.2917666688" lon="8.03035554815">
		<tag k="name" v="Heimsteløa" />
		<tag k="place" v="locality" />
		<tag k="ssr:stedsnr" v="397973" />
	</node>
	<node id="-565262" lat="58.349641667" lon="7.9002694522">
		<tag k="name" v="Nedremyr" />
		<tag k="place" v="farm" />
		<tag k="ssr:stedsnr" v="459966" />
	</node>
	<node id="-567378" lat="58.4505722195" lon="7.75829444232">
		<tag k="name" v="Lunneslåtthytta" />
		<tag k="place" v="isolated_dwelling" />
		<tag k="ssr:stedsnr" v="337787" />
	</node>
	<node id="-566735" lat="58.2688027817" lon="7.95525556309">
		<tag k="fixme" v="consider place=hamlet" />
		<tag k="name" v="Moseid" />
		<tag k="place" v="farm" />
		<tag k="ssr:stedsnr" v="61039" />
	</node>
	<node id="-566180" lat="58.3858305522" lon="7.6692138862">
		<tag k="name" v="Lunden" />
		<tag k="place" v="farm" />
		<tag k="ssr:stedsnr" v="775079" />
	</node>
	<node id="-568277" lat="58.307899398" lon="7.76548254372">
		<tag k="alt_name" v="Håresland" />
		<tag k="fixme" v="consider place=hamlet" />
		<tag k="name" v="Horrisland" />
		<tag k="place" v="farm" />
		<tag k="ssr:stedsnr" v="789098" />
	</node>
	<node id="-566913" lat="58.3292527751" lon="7.68174999395">
		<tag k="name" v="Nyberg" />
		<tag k="place" v="farm" />
		<tag k="ssr:stedsnr" v="121746" />
	</node>
	<node id="-565549" lat="58.2836305591" lon="7.83733611915">
		<tag k="alt_name" v="Almen, store" />
		<tag k="name" v="Stor Almen" />
		<tag k="place" v="farm" />
		<tag k="ssr:stedsnr" v="485006" />
	</node>
	<node id="-565321" lat="58.3702000009" lon="7.83395555771">
		<tag k="name" v="Murtedal" />
		<tag k="place" v="isolated_dwelling" />
		<tag k="ssr:stedsnr" v="303165" />
	</node>
	<node id="-565320" lat="58.3444555516" lon="7.89768888224">
		<tag k="fixme" v="consider place=hamlet" />
		<tag k="name" v="Røyknes" />
		<tag k="place" v="village" />
		<tag k="ssr:stedsnr" v="303070" />
	</node>
	<node id="-565319" lat="58.3455055561" lon="7.80736667223">
		<tag k="fixme" v="consider place=hamlet" />
		<tag k="name" v="Neset" />
		<tag k="place" v="farm" />
		<tag k="ssr:stedsnr" v="303068" />
	</node>
	<node id="-565317" lat="58.2619222211" lon="7.80101110779">
		<tag k="alt_name" v="Iglebekk, l;Lille Iglebæk" />
		<tag k="fixme" v="consider place=hamlet" />
		<tag k="name" v="Lille Ilebekk" />
		<tag k="place" v="farm" />
		<tag k="ssr:stedsnr" v="303055" />
	</node>
	<node id="-566339" lat="58.3750416704" lon="7.76198055629">
		<tag k="name" v="Myran" />
		<tag k="place" v="farm" />
		<tag k="ssr:stedsnr" v="944521" />
	</node>
	<node id="-565313" lat="58.27607222" lon="7.83201943926">
		<tag k="fixme" v="consider place=hamlet" />
		<tag k="name" v="Homme" />
>>>>>>> e1d4bc35ff8a6074a6f2e91616a996b547c36f15
		<tag k="place" v="farm" />
		<tag k="ssr:stedsnr" v="775079" />
	</node>
<<<<<<< HEAD
	<node lat="58.387120065563835" lon="7.689340860453331" id="-26242">
		<tag k="alt_name" v="Skuggunsa" />
		<tag k="name" v="Skuggupsa" />
		<tag k="place" v="farm" />
		<tag k="ssr:stedsnr" v="788939" />
	</node>
	<node lat="58.31552777642666" lon="8.015819447752994" id="-26246">
		<tag k="alt_name" v="Rugenes" />
		<tag k="fixme" v="consider place=hamlet" />
		<tag k="name" v="Ruenes" />
		<tag k="place" v="farm" />
		<tag k="ssr:stedsnr" v="789097" />
	</node>
	<node lat="58.30789939804464" lon="7.765482543723462" id="-26247">
		<tag k="alt_name" v="Håresland" />
		<tag k="fixme" v="consider place=hamlet" />
		<tag k="name" v="Horrisland" />
		<tag k="place" v="farm" />
		<tag k="ssr:stedsnr" v="789098" />
	</node>
	<node lat="58.29183889104755" lon="7.793969440760766" id="-26268">
		<tag k="name" v="Monen" />
=======
	<node id="-564798" lat="58.3150638916" lon="7.75931944823">
		<tag k="fixme" v="consider place=hamlet" />
		<tag k="name" v="Frustøl" />
		<tag k="place" v="farm" />
		<tag k="ssr:stedsnr" v="275228" />
	</node>
	<node id="-566742" lat="58.2364027815" lon="7.9328222241">
		<tag k="fixme" v="consider place=hamlet" />
		<tag k="name" v="Ravnås" />
		<tag k="place" v="farm" />
		<tag k="ssr:stedsnr" v="61093" />
	</node>
	<node id="-565963" lat="58.3043611101" lon="7.82507499718">
		<tag k="name" v="Kringlebakken" />
		<tag k="place" v="farm" />
		<tag k="ssr:stedsnr" v="884690" />
	</node>
	<node id="-565719" lat="58.2468111089" lon="7.94384443656">
		<tag k="name" v="Heiselflaten" />
		<tag k="place" v="farm" />
		<tag k="ssr:stedsnr" v="580420" />
	</node>
	<node id="-566776" lat="58.2605499977" lon="7.97073610353">
		<tag k="name" v="Danskehaugen" />
		<tag k="place" v="quarter" />
		<tag k="ssr:stedsnr" v="94615" />
	</node>
	<node id="-568377" lat="58.2602083328" lon="7.97618332795">
		<tag k="name" v="Nordli" />
		<tag k="place" v="quarter" />
		<tag k="ssr:stedsnr" v="823540" />
	</node>
	<node id="-568375" lat="58.2517777811" lon="7.9544083303">
		<tag k="name" v="Foss" />
>>>>>>> e1d4bc35ff8a6074a6f2e91616a996b547c36f15
		<tag k="place" v="farm" />
		<tag k="ssr:stedsnr" v="822290" />
	</node>
<<<<<<< HEAD
	<node lat="58.28902778140119" lon="7.842027783994891" id="-26292">
=======
	<node id="-565854" lat="58.2614388865" lon="7.87890833894">
		<tag k="name" v="Engelsåsen" />
		<tag k="place" v="locality" />
		<tag k="ssr:stedsnr" v="883271" />
	</node>
	<node id="-567219" lat="58.2612916667" lon="7.8540361159">
		<tag k="name" v="Krogan" />
		<tag k="place" v="locality" />
		<tag k="ssr:stedsnr" v="216183" />
	</node>
	<node id="-566196" lat="58.2890277814" lon="7.84202778399">
>>>>>>> e1d4bc35ff8a6074a6f2e91616a996b547c36f15
		<tag k="name" v="Myra" />
		<tag k="place" v="farm" />
		<tag k="ssr:stedsnr" v="823088" />
	</node>
<<<<<<< HEAD
	<node lat="58.28914999740458" lon="7.843269438969748" id="-26293">
		<tag k="name" v="Skuland" />
		<tag k="place" v="farm" />
		<tag k="ssr:stedsnr" v="823090" />
	</node>
	<node lat="58.27093055861282" lon="7.9737083291519335" id="-26308">
		<tag k="name" v="Venneslamoen" />
		<tag k="place" v="quarter" />
		<tag k="ssr:stedsnr" v="823860" />
	</node>
	<node lat="58.25177778112117" lon="7.954408330300516" id="-26325">
		<tag k="name" v="Foss" />
		<tag k="place" v="farm" />
		<tag k="ssr:stedsnr" v="823535" />
	</node>
	<node lat="58.26020833284213" lon="7.976183327949549" id="-26327">
		<tag k="name" v="Nordli" />
		<tag k="place" v="quarter" />
		<tag k="ssr:stedsnr" v="823540" />
	</node>
	<node lat="58.2625944413153" lon="7.830983339190374" id="-26404">
		<tag k="alt_name" v="Homsteane" />
		<tag k="fixme" v="consider place=suburb, village or hamlet" />
		<tag k="name" v="Homstean" />
		<tag k="place" v="quarter" />
		<tag k="ssr:stedsnr" v="850046" />
	</node>
	<node lat="58.2694944414695" lon="7.787316666467941" id="-26405">
		<tag k="fixme" v="consider place=hamlet" />
		<tag k="name" v="Halland" />
		<tag k="place" v="farm" />
		<tag k="ssr:stedsnr" v="850049" />
	</node>
	<node lat="58.40829722053621" lon="7.76419721820837" id="-26406">
		<tag k="fixme" v="consider place=hamlet" />
		<tag k="name" v="Kile" />
		<tag k="place" v="village" />
		<tag k="ssr:stedsnr" v="850145" />
	</node>
	<node lat="58.37241944756664" lon="7.692113882518" id="-26411">
		<tag k="fixme" v="consider place=hamlet" />
		<tag k="name" v="Sandtveit" />
		<tag k="place" v="farm" />
		<tag k="ssr:stedsnr" v="850944" />
	</node>
	<node lat="58.293438892473" lon="7.786286113504834" id="-26439">
		<tag k="fixme" v="multiple name tags, choose one and add the other to alt_name; consider place=hamlet" />
		<tag k="name" v="Prestegarden;Øvrebø Prestegård" />
		<tag k="place" v="farm" />
		<tag k="ssr:stedsnr" v="883328" />
	</node>
	<node lat="58.26143888646975" lon="7.878908338940265" id="-26441">
		<tag k="name" v="Engelsåsen" />
		<tag k="place" v="locality" />
		<tag k="ssr:stedsnr" v="883271" />
	</node>
	<node lat="58.288963884818386" lon="7.978386103783994" id="-26464">
		<tag k="alt_name" v="Eikelandsåen" />
		<tag k="fixme" v="consider place=hamlet" />
		<tag k="name" v="Eikelandså" />
		<tag k="place" v="farm" />
		<tag k="ssr:stedsnr" v="883931" />
	</node>
	<node lat="58.29169166262989" lon="7.978405549471794" id="-26465">
		<tag k="building" v="commercial" />
		<tag k="name" v="Grovane sagbruk" />
		<tag k="ssr:stedsnr" v="883933" />
	</node>
	<node lat="58.24946944285997" lon="7.954588886084584" id="-26519">
		<tag k="name" v="Vigeland gård" />
		<tag k="place" v="farm" />
		<tag k="ssr:stedsnr" v="884418" />
	</node>
	<node lat="58.45287777449501" lon="7.766833325771769" id="-26528">
		<tag k="name" v="Dalanshytta" />
		<tag k="place" v="isolated_dwelling" />
		<tag k="ssr:stedsnr" v="884640" />
	</node>
	<node lat="58.30436111012137" lon="7.825074997177149" id="-26535">
		<tag k="name" v="Kringlebakken" />
		<tag k="place" v="farm" />
		<tag k="ssr:stedsnr" v="884690" />
	</node>
	<node lat="58.43697222243139" lon="7.7829666619174676" id="-26544">
		<tag k="name" v="Lia" />
		<tag k="place" v="farm" />
		<tag k="ssr:stedsnr" v="884987" />
	</node>
	<node lat="58.24247072253191" lon="7.947725927125314" id="-26549">
		<tag k="fixme" v="consider place=hamlet" />
		<tag k="name" v="Åbål" />
		<tag k="place" v="farm" />
		<tag k="ssr:stedsnr" v="938401" />
	</node>
	<node lat="58.32144722423794" lon="7.761338896786659" id="-26553">
		<tag k="name" v="Heimdal" />
		<tag k="place" v="farm" />
		<tag k="ssr:stedsnr" v="943278" />
	</node>
	<node lat="58.399938887329455" lon="7.758597219968833" id="-26582">
		<tag k="name" v="Simonstad" />
		<tag k="place" v="farm" />
		<tag k="ssr:stedsnr" v="944085" />
	</node>
	<node lat="58.33968055776165" lon="7.880669438806838" id="-26602">
		<tag k="name" v="Kleivane" />
		<tag k="place" v="farm" />
		<tag k="ssr:stedsnr" v="944329" />
	</node>
	<node lat="58.40145555400956" lon="7.8450611066737235" id="-26606">
		<tag k="name" v="Saga" />
		<tag k="place" v="locality" />
		<tag k="ssr:stedsnr" v="944353" />
	</node>
	<node lat="58.37504167037265" lon="7.761980556290019" id="-26623">
		<tag k="name" v="Myran" />
		<tag k="place" v="farm" />
		<tag k="ssr:stedsnr" v="944521" />
=======
	<node id="-565872" lat="58.2916916626" lon="7.97840554947">
		<tag k="building" v="commercial" />
		<tag k="name" v="Grovane sagbruk" />
		<tag k="ssr:stedsnr" v="883933" />
	</node>
	<node id="-566929" lat="58.4001749971" lon="7.76280000521">
		<tag k="name" v="Myrengen" />
		<tag k="place" v="farm" />
		<tag k="ssr:stedsnr" v="155089" />
	</node>
	<node id="-566313" lat="58.401455554" lon="7.84506110667">
		<tag k="name" v="Saga" />
		<tag k="place" v="locality" />
		<tag k="ssr:stedsnr" v="944353" />
	</node>
	<node id="-566309" lat="58.3396805578" lon="7.88066943881">
		<tag k="name" v="Kleivane" />
		<tag k="place" v="isolated_dwelling" />
		<tag k="ssr:stedsnr" v="944329" />
	</node>
	<node id="-567927" lat="58.341211112" lon="7.749055548">
		<tag k="alt_name" v="Bringsvær" />
		<tag k="amenity" v="school" />
		<tag k="name" v="Bringsverd" />
		<tag k="ssr:stedsnr" v="606066" />
	</node>
	<node id="-567406" lat="58.2579972247" lon="7.96453610975">
		<tag k="building" v="industrial" />
		<tag k="name" v="Reber fabr." />
		<tag k="ssr:stedsnr" v="338351" />
	</node>
	<node id="-565793" lat="58.223730554" lon="7.93938055619">
		<tag k="name" v="Flaten" />
		<tag k="place" v="farm" />
		<tag k="ssr:stedsnr" v="728105" />
	</node>
	<node id="-565792" lat="58.3353749981" lon="7.8759583347">
		<tag k="name" v="Samkom" />
		<tag k="place" v="hamlet" />
		<tag k="ssr:stedsnr" v="728090" />
	</node>
	<node id="-567839" lat="58.3005000043" lon="8.04952222017">
		<tag k="name" v="Øygarden" />
		<tag k="place" v="farm" />
		<tag k="ssr:stedsnr" v="579993" />
	</node>
	<node id="-565790" lat="58.2283388874" lon="7.75322777362">
		<tag k="fixme" v="consider place=hamlet" />
		<tag k="name" v="Kravlen" />
		<tag k="place" v="farm" />
		<tag k="ssr:stedsnr" v="728071" />
	</node>
	<node id="-564997" lat="58.3249999997" lon="8.01349999254">
		<tag k="name" v="Tvibekkmonen" />
		<tag k="place" v="farm" />
		<tag k="ssr:stedsnr" v="216036" />
	</node>
	<node id="-564764" lat="58.2454861126" lon="7.94447221457">
		<tag k="name" v="Heiselflaten" />
		<tag k="place" v="isolated_dwelling" />
		<tag k="ssr:stedsnr" v="95408" />
	</node>
	<node id="-566093" lat="58.2711194484" lon="7.72356666348">
		<tag k="alt_name" v="Greibesland" />
		<tag k="fixme" v="consider place=hamlet" />
		<tag k="name" v="Gribesland" />
		<tag k="place" v="farm" />
		<tag k="ssr:stedsnr" v="910015" />
	</node>
	<node id="-565782" lat="58.3663388863" lon="7.69351389175">
		<tag k="name" v="Nygard" />
		<tag k="place" v="farm" />
		<tag k="ssr:stedsnr" v="606965" />
	</node>
	<node id="-568153" lat="58.3299444477" lon="7.75139166628">
		<tag k="name" v="Kjerran" />
		<tag k="place" v="locality" />
		<tag k="ssr:stedsnr" v="762331" />
	</node>
	<node id="-566519" lat="58.3541972197" lon="7.90230832681">
		<tag k="name" v="Nomeland" />
		<tag k="place" v="hamlet" />
		<tag k="ssr:stedsnr" v="95" />
	</node>
	<node id="-565779" lat="58.2954361137" lon="7.84042499864">
		<tag k="fixme" v="consider place=hamlet" />
		<tag k="name" v="Skarpengland" />
		<tag k="place" v="village" />
		<tag k="ssr:stedsnr" v="606013" />
	</node>
	<node id="-564754" lat="58.357613889" lon="7.6857583394">
		<tag k="fixme" v="consider place=hamlet" />
		<tag k="name" v="Vikstøl" />
		<tag k="place" v="farm" />
		<tag k="ssr:stedsnr" v="243787" />
	</node>
	<node id="-564753" lat="58.2631916623" lon="7.81936944495">
		<tag k="alt_name" v="Iglebekk, store" />
		<tag k="loc_name" v="Iglebekk" />
		<tag k="name" v="Ilebekk" />
		<tag k="place" v="farm" />
		<tag k="ssr:stedsnr" v="243045" />
	</node>
	<node id="-564752" lat="58.3118999963" lon="7.99778055912">
		<tag k="name" v="Granheim" />
		<tag k="place" v="isolated_dwelling" />
		<tag k="ssr:stedsnr" v="243096" />
	</node>
	<node id="-567823" lat="58.2645527766" lon="7.98986111008">
		<tag k="name" v="Breimyr" />
		<tag k="place" v="farm" />
		<tag k="ssr:stedsnr" v="579895" />
	</node>
	<node id="-564750" lat="58.3847305566" lon="7.66643332566">
		<tag k="alt_name" v="Høvårsland" />
		<tag k="fixme" v="consider place=hamlet" />
		<tag k="name" v="Høversland" />
		<tag k="place" v="farm" />
		<tag k="ssr:stedsnr" v="242944" />
	</node>
	<node id="-568171" lat="58.4115277818" lon="7.76355833303">
		<tag k="name" v="Bergebakken" />
		<tag k="place" v="farm" />
		<tag k="ssr:stedsnr" v="762216" />
	</node>
	<node id="-568330" lat="58.3984055549" lon="7.82061943855">
		<tag k="name" v="Med den gamle saga" />
		<tag k="place" v="locality" />
		<tag k="ssr:stedsnr" v="823336" />
	</node>
	<node id="-567383" lat="58.4414555582" lon="7.69481110376">
		<tag k="name" v="Rydlenløa" />
		<tag k="place" v="locality" />
		<tag k="ssr:stedsnr" v="337867" />
	</node>
	<node id="-567816" lat="58.3462805593" lon="7.79360277215">
		<tag k="name" v="Solås" />
		<tag k="place" v="locality" />
		<tag k="ssr:stedsnr" v="580202" />
	</node>
	<node id="-566790" lat="58.2936472245" lon="8.03158056375">
		<tag k="name" v="Nyløa" />
		<tag k="place" v="locality" />
		<tag k="ssr:stedsnr" v="94972" />
	</node>
	<node id="-567558" lat="58.2559111109" lon="7.96602499584">
		<tag k="name" v="Harket" />
		<tag k="place" v="isolated_dwelling" />
		<tag k="ssr:stedsnr" v="398383" />
>>>>>>> e1d4bc35ff8a6074a6f2e91616a996b547c36f15
	</node>
</osm>
