<?xml version="1.0" encoding="UTF-8"?>
<osm version="0.6" generator="osmapis">
	<node lat="58.27971666407112" lon="7.716958334237047" id="-60558">
		<tag k="name" v="Torvmyra" />
		<tag k="natural" v="wetland" />
		<tag k="ssr:stedsnr" v="33901" />
	</node>
	<node lat="58.301047225977726" lon="7.978586110970813" id="-60561">
		<tag k="name" v="Sjursmyre" />
		<tag k="natural" v="wetland" />
		<tag k="ssr:stedsnr" v="33907" />
	</node>
	<node lat="58.29723055458973" lon="8.045527778106496" id="-60566">
		<tag k="name" v="Sølvdalsmyra" />
		<tag k="natural" v="wetland" />
		<tag k="ssr:stedsnr" v="33987" />
	</node>
	<node lat="58.389166666937854" lon="7.692774999437193" id="-60568">
		<tag k="name" v="Lonemyr" />
		<tag k="natural" v="wetland" />
		<tag k="ssr:stedsnr" v="34108" />
	</node>
	<node lat="58.33675278214416" lon="7.661894443845164" id="-60571">
		<tag k="name" v="Storemyr" />
		<tag k="natural" v="wetland" />
		<tag k="ssr:stedsnr" v="34017" />
	</node>
	<node lat="58.340725000104236" lon="7.7051305521565085" id="-60580">
		<tag k="name" v="Grautmyr" />
		<tag k="natural" v="wetland" />
		<tag k="ssr:stedsnr" v="34372" />
	</node>
	<node lat="58.37648610744099" lon="7.8298583376540805" id="-60583">
		<tag k="name" v="Brønndalskjerret" />
		<tag k="natural" v="wetland" />
		<tag k="ssr:stedsnr" v="34504" />
	</node>
	<node lat="58.24632222602595" lon="7.915088882583027" id="-60585">
		<tag k="name" v="Surtemyrkjerrane" />
		<tag k="natural" v="wetland" />
		<tag k="ssr:stedsnr" v="34514" />
	</node>
	<node lat="58.24180555313423" lon="7.917463887150556" id="-60586">
		<tag k="name" v="Ravnås Øygard" />
		<tag k="natural" v="wetland" />
		<tag k="ssr:stedsnr" v="34518" />
	</node>
	<node lat="58.37945555377914" lon="7.6497888966262275" id="-60593">
		<tag k="name" v="Dukan" />
		<tag k="place" v="locality" />
		<tag k="ssr:stedsnr" v="34599" />
	</node>
	<node lat="58.37345833614583" lon="7.6422055529511335" id="-60594">
		<tag k="name" v="Reverøysa" />
		<tag k="natural" v="scree" />
		<tag k="ssr:stedsnr" v="34619" />
	</node>
	<node lat="58.23891667022201" lon="7.759236114764958" id="-60595">
		<tag k="name" v="Slåttane" />
		<tag k="natural" v="wetland" />
		<tag k="ssr:stedsnr" v="34697" />
	</node>
	<node lat="58.37630833095503" lon="7.646197220692554" id="-60610">
		<tag k="name" v="Strandan" />
		<tag k="natural" v="wetland" />
		<tag k="ssr:stedsnr" v="46201" />
	</node>
	<node lat="58.315730553826896" lon="7.850727777475278" id="-60617">
		<tag k="name" v="Bumyr" />
		<tag k="natural" v="wetland" />
		<tag k="ssr:stedsnr" v="61081" />
	</node>
	<node lat="58.29091111525071" lon="7.852108333333347" id="-60649">
		<tag k="name" v="Utsmyr" />
		<tag k="natural" v="wetland" />
		<tag k="ssr:stedsnr" v="94103" />
	</node>
	<node lat="58.27076666382504" lon="7.999419440649611" id="-60656">
		<tag k="name" v="Storemyr" />
		<tag k="natural" v="wetland" />
		<tag k="ssr:stedsnr" v="94925" />
	</node>
	<node lat="58.276311109517636" lon="7.963755562128606" id="-60657">
		<tag k="name" v="Kalvhagen" />
		<tag k="place" v="locality" />
		<tag k="ssr:stedsnr" v="94934" />
	</node>
	<node lat="58.27419722223091" lon="7.965536115464695" id="-60658">
		<tag k="name" v="Digemyra" />
		<tag k="natural" v="wetland" />
		<tag k="ssr:stedsnr" v="94936" />
	</node>
	<node lat="58.400472226786384" lon="7.665494451407444" id="-60660">
		<tag k="name" v="Elghola" />
		<tag k="natural" v="wetland" />
		<tag k="ssr:stedsnr" v="95202" />
	</node>
	<node lat="58.33191389038611" lon="7.901708326061463" id="-60663">
		<tag k="name" v="Bjørkjerrane" />
		<tag k="natural" v="wetland" />
		<tag k="ssr:stedsnr" v="95225" />
	</node>
	<node lat="58.2318750016295" lon="7.753130553269868" id="-60665">
		<tag k="name" v="Tiblemyr" />
		<tag k="place" v="locality" />
		<tag k="ssr:stedsnr" v="95232" />
	</node>
	<node lat="58.234002775134535" lon="7.7456361091910235" id="-60666">
		<tag k="name" v="Fidjemyr" />
		<tag k="natural" v="wetland" />
		<tag k="ssr:stedsnr" v="95235" />
	</node>
	<node lat="58.221658333459104" lon="7.7752666730764055" id="-60667">
		<tag k="name" v="Halvorsmyr" />
		<tag k="natural" v="wetland" />
		<tag k="ssr:stedsnr" v="95240" />
	</node>
	<node lat="58.417361110875255" lon="7.734347217158781" id="-60668">
		<tag k="name" v="Joneslåtta" />
		<tag k="natural" v="wetland" />
		<tag k="ssr:stedsnr" v="95114" />
	</node>
	<node lat="58.387255555329546" lon="7.646463885775706" id="-60670">
		<tag k="name" v="Neset" />
		<tag k="natural" v="wetland" />
		<tag k="ssr:stedsnr" v="95163" />
	</node>
	<node lat="58.40065555818974" lon="7.800177781546508" id="-60675">
		<tag k="name" v="Kringlemyr" />
		<tag k="natural" v="wetland" />
		<tag k="ssr:stedsnr" v="95303" />
	</node>
	<node lat="58.40372500380936" lon="7.807705552003352" id="-60677">
		<tag k="name" v="Markslåtta" />
		<tag k="natural" v="wetland" />
		<tag k="ssr:stedsnr" v="95307" />
	</node>
	<node lat="58.402436112933934" lon="7.786738885282989" id="-60679">
		<tag k="name" v="Bakkmekarten" />
		<tag k="natural" v="wetland" />
		<tag k="ssr:stedsnr" v="95313" />
	</node>
	<node lat="58.324644444513794" lon="7.6720250007470385" id="-60681">
		<tag k="name" v="Lundemyra" />
		<tag k="place" v="locality" />
		<tag k="ssr:stedsnr" v="95405" />
	</node>
	<node lat="58.378361109268546" lon="7.756008329181006" id="-60685">
		<tag k="name" v="Bringmyr" />
		<tag k="natural" v="wetland" />
		<tag k="ssr:stedsnr" v="95419" />
	</node>
	<node lat="58.24006944401197" lon="7.936436104849208" id="-60687">
		<tag k="name" v="Spelemannsteinen" />
		<tag k="natural" v="stone" />
		<tag k="ssr:stedsnr" v="95485" />
	</node>
	<node lat="58.385702776220384" lon="7.708111118944156" id="-60689">
		<tag k="name" v="Orreleiksmyr" />
		<tag k="natural" v="wetland" />
		<tag k="ssr:stedsnr" v="95622" />
	</node>
	<node lat="58.31064166794184" lon="7.805716665852858" id="-60695">
		<tag k="name" v="Kartane" />
		<tag k="natural" v="wetland" />
		<tag k="ssr:stedsnr" v="95707" />
	</node>
	<node lat="58.25586944572188" lon="7.8049277861759405" id="-60697">
		<tag k="name" v="Hessmyr" />
		<tag k="natural" v="wetland" />
		<tag k="ssr:stedsnr" v="95671" />
	</node>
	<node lat="58.36150277910368" lon="7.762013885465405" id="-60698">
		<tag k="name" v="Snømyr" />
		<tag k="natural" v="wetland" />
		<tag k="ssr:stedsnr" v="95806" />
	</node>
	<node lat="58.3421305538032" lon="7.659002775143037" id="-60728">
		<tag k="name" v="Flåna" />
		<tag k="natural" v="wetland" />
		<tag k="ssr:stedsnr" v="108109" />
	</node>
	<node lat="58.22252777912094" lon="7.973449995435039" id="-60735">
		<tag k="name" v="Spangemyr" />
		<tag k="natural" v="wetland" />
		<tag k="ssr:stedsnr" v="149420" />
	</node>
	<node lat="58.29371389043015" lon="7.852441671991561" id="-60736">
		<tag k="name" v="Vamyrene" />
		<tag k="natural" v="wetland" />
		<tag k="ssr:stedsnr" v="155050" />
	</node>
	<node lat="58.33474166403704" lon="7.889736107286835" id="-60746">
		<tag k="name" v="Sjuermyr" />
		<tag k="natural" v="wetland" />
		<tag k="ssr:stedsnr" v="155298" />
	</node>
	<node lat="58.38878055444542" lon="7.808241672758841" id="-60752">
		<tag k="name" v="Storevannsmyr" />
		<tag k="natural" v="wetland" />
		<tag k="ssr:stedsnr" v="155424" />
	</node>
	<node lat="58.3267805526234" lon="7.827416671117244" id="-60760">
		<tag k="name" v="Bjelkemyr" />
		<tag k="natural" v="wetland" />
		<tag k="ssr:stedsnr" v="155322" />
	</node>
	<node lat="58.339944447788426" lon="7.780441664975749" id="-60762">
		<tag k="name" v="Myran" />
		<tag k="natural" v="wetland" />
		<tag k="ssr:stedsnr" v="155348" />
	</node>
	<node lat="58.405399998252776" lon="7.793274994705452" id="-60765">
		<tag k="name" v="Det lange kjerret" />
		<tag k="natural" v="wetland" />
		<tag k="ssr:stedsnr" v="155367" />
	</node>
	<node lat="58.38210833641095" lon="7.8535138878085435" id="-60770">
		<tag k="name" v="Stemmyran" />
		<tag k="natural" v="wetland" />
		<tag k="ssr:stedsnr" v="155565" />
	</node>
	<node lat="58.359813890629205" lon="7.738316672476467" id="-60783">
		<tag k="name" v="Botnet" />
		<tag k="natural" v="wetland" />
		<tag k="ssr:stedsnr" v="155813" />
	</node>
	<node lat="58.361424998481304" lon="7.755508332032078" id="-60784">
		<tag k="name" v="Orreleiksmyr" />
		<tag k="natural" v="wetland" />
		<tag k="ssr:stedsnr" v="155815" />
	</node>
	<node lat="58.35426389263862" lon="7.782297223609627" id="-60785">
		<tag k="name" v="Vedremyrane" />
		<tag k="natural" v="wetland" />
		<tag k="ssr:stedsnr" v="155824" />
	</node>
	<node lat="58.3567749956822" lon="7.760799996001986" id="-60786">
		<tag k="name" v="Langemyr" />
		<tag k="natural" v="wetland" />
		<tag k="ssr:stedsnr" v="155798" />
	</node>
	<node lat="58.43000278197633" lon="7.757752772518214" id="-60791">
		<tag k="name" v="Kiledalsgrosmyr" />
		<tag k="natural" v="wetland" />
		<tag k="ssr:stedsnr" v="155965" />
	</node>
	<node lat="58.418422218928356" lon="7.710561116211557" id="-60796">
		<tag k="name" v="Gråtarmyra" />
		<tag k="natural" v="wetland" />
		<tag k="ssr:stedsnr" v="155901" />
	</node>
	<node lat="58.25706944735635" lon="7.822350005065358" id="-60804">
		<tag k="name" v="Raunåskjerr" />
		<tag k="natural" v="wetland" />
		<tag k="ssr:stedsnr" v="156680" />
	</node>
	<node lat="58.354274999390675" lon="8.04142500737984" id="-60832">
		<tag k="name" v="Hodnemyr" />
		<tag k="natural" v="wetland" />
		<tag k="ssr:stedsnr" v="216106" />
	</node>
	<node lat="58.3634166673303" lon="7.830680555656025" id="-60853">
		<tag k="name" v="Bjørkeslåtta" />
		<tag k="natural" v="wetland" />
		<tag k="ssr:stedsnr" v="216191" />
	</node>
	<node lat="58.23756111011212" lon="7.748330551267292" id="-60868">
		<tag k="name" v="Geitekjerrane" />
		<tag k="natural" v="wetland" />
		<tag k="ssr:stedsnr" v="216692" />
	</node>
	<node lat="58.37706666734257" lon="7.793152779454004" id="-60871">
		<tag k="name" v="Godmorsmyr" />
		<tag k="natural" v="wetland" />
		<tag k="ssr:stedsnr" v="216536" />
	</node>
	<node lat="58.314597221143785" lon="7.887597229649206" id="-60873">
		<tag k="name" v="Bjelkemyrane" />
		<tag k="natural" v="wetland" />
		<tag k="ssr:stedsnr" v="216595" />
	</node>
	<node lat="58.42751389156042" lon="7.722024996055429" id="-60881">
		<tag k="name" v="Godåsmyr" />
		<tag k="natural" v="wetland" />
		<tag k="ssr:stedsnr" v="216907" />
	</node>
	<node lat="58.442324998919936" lon="7.77909166603845" id="-60883">
		<tag k="name" v="Den hole steinen" />
		<tag k="natural" v="stone" />
		<tag k="ssr:stedsnr" v="216924" />
	</node>
	<node lat="58.359127774388" lon="7.641841666045068" id="-60884">
		<tag k="name" v="Kvennhusmyr" />
		<tag k="natural" v="wetland" />
		<tag k="ssr:stedsnr" v="216930" />
	</node>
	<node lat="58.29753333200351" lon="8.041124993851447" id="-60887">
		<tag k="name" v="Veråsmyr" />
		<tag k="natural" v="wetland" />
		<tag k="ssr:stedsnr" v="216982" />
	</node>
	<node lat="58.27900833284372" lon="7.9960722223945035" id="-60890">
		<tag k="name" v="Ågrestem" />
		<tag k="natural" v="wetland" />
		<tag k="ssr:stedsnr" v="216884" />
	</node>
	<node lat="58.22904444109215" lon="7.9545833394421255" id="-60892">
		<tag k="name" v="Kringlemyr" />
		<tag k="place" v="locality" />
		<tag k="ssr:stedsnr" v="217226" />
	</node>
	<node lat="58.25763055795884" lon="7.925822221931256" id="-60895">
		<tag k="name" v="Øvre Bumyr" />
		<tag k="natural" v="wetland" />
		<tag k="ssr:stedsnr" v="217514" />
	</node>
	<node lat="58.30971666861244" lon="7.917177779452676" id="-60922">
		<tag k="name" v="Varemyr" />
		<tag k="natural" v="wetland" />
		<tag k="ssr:stedsnr" v="242092" />
	</node>
	<node lat="58.39309166710799" lon="7.852047219524315" id="-60923">
		<tag k="name" v="Djupemyr" />
		<tag k="natural" v="wetland" />
		<tag k="ssr:stedsnr" v="471940" />
	</node>
	<node lat="58.33418611426332" lon="8.004236102644624" id="-60954">
		<tag k="name" v="Penestad" />
		<tag k="natural" v="wetland" />
		<tag k="ssr:stedsnr" v="459035" />
	</node>
	<node lat="58.33488889262874" lon="8.027258337165478" id="-60956">
		<tag k="name" v="Bjørkekjerrane" />
		<tag k="natural" v="wetland" />
		<tag k="ssr:stedsnr" v="459089" />
	</node>
	<node lat="58.425180551586514" lon="7.739697222684034" id="-60957">
		<tag k="name" v="Pressummyr" />
		<tag k="natural" v="wetland" />
		<tag k="ssr:stedsnr" v="459158" />
	</node>
	<node lat="58.22752777572026" lon="7.745702785993818" id="-60964">
		<tag k="name" v="Tjønnemyrane" />
		<tag k="natural" v="wetland" />
		<tag k="ssr:stedsnr" v="459188" />
	</node>
	<node lat="58.22892499708425" lon="7.772194451736718" id="-60966">
		<tag k="name" v="Ånensmyr" />
		<tag k="natural" v="wetland" />
		<tag k="ssr:stedsnr" v="459289" />
	</node>
	<node lat="58.34268889008489" lon="7.845552785021718" id="-60968">
		<tag k="name" v="Langemyr" />
		<tag k="natural" v="wetland" />
		<tag k="ssr:stedsnr" v="459296" />
	</node>
	<node lat="58.406291665382405" lon="7.672458329702695" id="-60971">
		<tag k="name" v="Sauemyr" />
		<tag k="natural" v="wetland" />
		<tag k="ssr:stedsnr" v="459227" />
	</node>
	<node lat="58.36288055133704" lon="7.845586115003697" id="-60972">
		<tag k="name" v="Storemyr" />
		<tag k="natural" v="wetland" />
		<tag k="ssr:stedsnr" v="459229" />
	</node>
	<node lat="58.336916670114825" lon="7.725486103650018" id="-60982">
		<tag k="name" v="Tretteslåtta" />
		<tag k="natural" v="wetland" />
		<tag k="ssr:stedsnr" v="459383" />
	</node>
	<node lat="58.39563610785101" lon="7.790361105179456" id="-60984">
		<tag k="name" v="Sokkekjerr" />
		<tag k="natural" v="wetland" />
		<tag k="ssr:stedsnr" v="459407" />
	</node>
	<node lat="58.282719441625346" lon="7.934461105561987" id="-61003">
		<tag k="name" v="Fjellmyra" />
		<tag k="natural" v="wetland" />
		<tag k="ssr:stedsnr" v="276220" />
	</node>
	<node lat="58.271633333126054" lon="7.880430547563606" id="-61005">
		<tag k="name" v="Dognemyr" />
		<tag k="natural" v="wetland" />
		<tag k="ssr:stedsnr" v="276271" />
	</node>
	<node lat="58.27391666699322" lon="7.783652772364606" id="-61011">
		<tag k="name" v="Hagemyr" />
		<tag k="natural" v="wetland" />
		<tag k="ssr:stedsnr" v="276319" />
	</node>
	<node lat="58.290972225476125" lon="7.789005563585405" id="-61014">
		<tag k="name" v="Eikelunden" />
		<tag k="place" v="locality" />
		<tag k="ssr:stedsnr" v="276381" />
	</node>
	<node lat="58.349316668827576" lon="7.656447226067939" id="-61021">
		<tag k="name" v="Lyngkjerret" />
		<tag k="natural" v="wetland" />
		<tag k="ssr:stedsnr" v="459747" />
	</node>
	<node lat="58.295652775582425" lon="7.782019439447038" id="-61024">
		<tag k="name" v="Skolandsmyr" />
		<tag k="place" v="locality" />
		<tag k="ssr:stedsnr" v="276790" />
	</node>
	<node lat="58.30061944677594" lon="8.033455553241678" id="-61027">
		<tag k="name" v="Såtemyr" />
		<tag k="natural" v="wetland" />
		<tag k="ssr:stedsnr" v="276923" />
	</node>
	<node lat="58.44507222150689" lon="7.771491668920481" id="-61032">
		<tag k="name" v="Skonneslåtta" />
		<tag k="natural" v="wetland" />
		<tag k="ssr:stedsnr" v="459784" />
	</node>
	<node lat="58.230116664691764" lon="7.958350004618471" id="-61038">
		<tag k="name" v="Storemyr" />
		<tag k="natural" v="wetland" />
		<tag k="ssr:stedsnr" v="277207" />
	</node>
	<node lat="58.35213888764502" lon="7.747372226041611" id="-61041">
		<tag k="name" v="Skaremyr" />
		<tag k="natural" v="wetland" />
		<tag k="ssr:stedsnr" v="459818" />
	</node>
	<node lat="58.41854444705679" lon="7.750308329193117" id="-61043">
		<tag k="name" v="Storemyr" />
		<tag k="natural" v="wetland" />
		<tag k="ssr:stedsnr" v="277117" />
	</node>
	<node lat="58.40342777377642" lon="7.813611109332852" id="-61049">
		<tag k="name" v="Bumyr stø" />
		<tag k="natural" v="wetland" />
		<tag k="ssr:stedsnr" v="277331" />
	</node>
	<node lat="58.33655555581286" lon="7.76066389396044" id="-61052">
		<tag k="name" v="Lusemyr" />
		<tag k="natural" v="wetland" />
		<tag k="ssr:stedsnr" v="277335" />
	</node>
	<node lat="58.38321110969474" lon="7.806041674612535" id="-61066">
		<tag k="name" v="Djupemyr" />
		<tag k="natural" v="wetland" />
		<tag k="ssr:stedsnr" v="277485" />
	</node>
	<node lat="58.32100278148011" lon="7.861908333924115" id="-61068">
		<tag k="name" v="Torsmyr" />
		<tag k="natural" v="wetland" />
		<tag k="ssr:stedsnr" v="277618" />
	</node>
	<node lat="58.254124997553454" lon="7.868622229827917" id="-61072">
		<tag k="name" v="Kvennhusmyr" />
		<tag k="natural" v="wetland" />
		<tag k="ssr:stedsnr" v="277509" />
	</node>
	<node lat="58.37696389239256" lon="7.818108335011468" id="-61073">
		<tag k="name" v="Langemyr" />
		<tag k="natural" v="wetland" />
		<tag k="ssr:stedsnr" v="277519" />
	</node>
	<node lat="58.37243888641212" lon="7.822061113744705" id="-61075">
		<tag k="name" v="Blautemyr" />
		<tag k="natural" v="wetland" />
		<tag k="ssr:stedsnr" v="277525" />
	</node>
	<node lat="58.37064722384692" lon="7.837436118832741" id="-61076">
		<tag k="name" v="Tverrmyr" />
		<tag k="natural" v="wetland" />
		<tag k="ssr:stedsnr" v="277527" />
	</node>
	<node lat="58.36897221895366" lon="7.721263880709744" id="-61079">
		<tag k="name" v="Slåttane" />
		<tag k="natural" v="wetland" />
		<tag k="ssr:stedsnr" v="277722" />
	</node>
	<node lat="58.347891670954844" lon="7.740311107259071" id="-61085">
		<tag k="name" v="Porsmyr" />
		<tag k="natural" v="wetland" />
		<tag k="ssr:stedsnr" v="277876" />
	</node>
	<node lat="58.42128611375146" lon="7.722380557560388" id="-61088">
		<tag k="name" v="Lauvskårmyr" />
		<tag k="natural" v="wetland" />
		<tag k="ssr:stedsnr" v="277922" />
	</node>
	<node lat="58.3732472220828" lon="7.878188896994604" id="-61097">
		<tag k="name" v="Spikkekjerret" />
		<tag k="natural" v="wetland" />
		<tag k="ssr:stedsnr" v="459936" />
	</node>
	<node lat="58.23630555829407" lon="7.972386103077041" id="-61152">
		<tag k="name" v="Elgsmyrane" />
		<tag k="natural" v="wetland" />
		<tag k="ssr:stedsnr" v="520222" />
	</node>
	<node lat="58.342969442194416" lon="7.997038886582568" id="-61156">
		<tag k="name" v="Romen" />
		<tag k="natural" v="wetland" />
		<tag k="ssr:stedsnr" v="337101" />
	</node>
	<node lat="58.388613887748924" lon="7.65011110987948" id="-61157">
		<tag k="name" v="Djupemyr" />
		<tag k="natural" v="wetland" />
		<tag k="ssr:stedsnr" v="337202" />
	</node>
	<node lat="58.40426111360839" lon="7.690099991822577" id="-61159">
		<tag k="name" v="Moråsmyr" />
		<tag k="natural" v="wetland" />
		<tag k="ssr:stedsnr" v="337206" />
	</node>
	<node lat="58.26662777376203" lon="7.881063890433632" id="-61161">
		<tag k="name" v="Eikebrokkslåtta" />
		<tag k="natural" v="wetland" />
		<tag k="ssr:stedsnr" v="337212" />
	</node>
	<node lat="58.24592500251504" lon="7.773247219654159" id="-61177">
		<tag k="name" v="Myrane" />
		<tag k="natural" v="wetland" />
		<tag k="ssr:stedsnr" v="337502" />
	</node>
	<node lat="58.27280413102869" lon="8.017929016204377" id="-61182">
		<tag k="name" v="Grokjerrene" />
		<tag k="natural" v="wetland" />
		<tag k="ssr:stedsnr" v="337529" />
	</node>
	<node lat="58.35274444433015" lon="7.7132361194580925" id="-61193">
		<tag k="name" v="Moltemyr" />
		<tag k="natural" v="wetland" />
		<tag k="ssr:stedsnr" v="337792" />
	</node>
	<node lat="58.449786112515106" lon="7.775347223245591" id="-61194">
		<tag k="name" v="Bjørnetjønnmyra" />
		<tag k="natural" v="wetland" />
		<tag k="ssr:stedsnr" v="337799" />
	</node>
	<node lat="58.42455833670572" lon="7.702808330064536" id="-61197">
		<tag k="name" v="Surtekjerrane" />
		<tag k="natural" v="wetland" />
		<tag k="ssr:stedsnr" v="337909" />
	</node>
	<node lat="58.41787221808842" lon="7.673677770226952" id="-61199">
		<tag k="name" v="Bruskarstean" />
		<tag k="natural" v="wetland" />
		<tag k="ssr:stedsnr" v="337913" />
	</node>
	<node lat="58.37672500423499" lon="7.867200004229515" id="-61201">
		<tag k="name" v="Småmyran" />
		<tag k="natural" v="wetland" />
		<tag k="ssr:stedsnr" v="337921" />
	</node>
	<node lat="58.287755552665715" lon="8.021105561682782" id="-61202">
		<tag k="name" v="Sagvollen" />
		<tag k="place" v="locality" />
		<tag k="ssr:stedsnr" v="337953" />
	</node>
	<node lat="58.435544443443526" lon="7.7493333312927355" id="-61230">
		<tag k="name" v="Finnmyran" />
		<tag k="natural" v="wetland" />
		<tag k="ssr:stedsnr" v="350114" />
	</node>
	<node lat="58.329599996347575" lon="7.97601944387157" id="-61238">
		<tag k="name" v="Langemyr" />
		<tag k="natural" v="wetland" />
		<tag k="ssr:stedsnr" v="397134" />
	</node>
	<node lat="58.294538892412376" lon="7.889772216775262" id="-61240">
		<tag k="name" v="Lindåsmyr" />
		<tag k="natural" v="wetland" />
		<tag k="ssr:stedsnr" v="397082" />
	</node>
	<node lat="58.299036113597296" lon="7.8672833339702795" id="-61241">
		<tag k="name" v="Smalmyr" />
		<tag k="natural" v="wetland" />
		<tag k="ssr:stedsnr" v="397088" />
	</node>
	<node lat="58.281886115344626" lon="7.915108333971005" id="-61243">
		<tag k="name" v="Skulemyr" />
		<tag k="natural" v="wetland" />
		<tag k="ssr:stedsnr" v="397203" />
	</node>
	<node lat="58.314986111464094" lon="7.78264444957821" id="-61244">
		<tag k="name" v="Hessvollen" />
		<tag k="place" v="locality" />
		<tag k="ssr:stedsnr" v="397277" />
	</node>
	<node lat="58.26859444276381" lon="7.770725001103348" id="-61246">
		<tag k="name" v="Røydekjerrane" />
		<tag k="natural" v="wetland" />
		<tag k="ssr:stedsnr" v="397282" />
	</node>
	<node lat="58.297080558242705" lon="7.829233338667611" id="-61247">
		<tag k="name" v="Bjørnekjerrane" />
		<tag k="natural" v="wetland" />
		<tag k="ssr:stedsnr" v="397285" />
	</node>
	<node lat="58.389713887680706" lon="7.687636113012715" id="-61260">
		<tag k="name" v="Porsmyr" />
		<tag k="natural" v="wetland" />
		<tag k="ssr:stedsnr" v="398029" />
	</node>
	<node lat="58.40242778036574" lon="7.675033331897011" id="-61268">
		<tag k="name" v="Langedalsmyra" />
		<tag k="natural" v="wetland" />
		<tag k="ssr:stedsnr" v="398200" />
	</node>
	<node lat="58.39517222607273" lon="7.804322226925715" id="-61280">
		<tag k="name" v="Langemyr" />
		<tag k="natural" v="wetland" />
		<tag k="ssr:stedsnr" v="398408" />
	</node>
	<node lat="58.24767222040866" lon="7.981483329315946" id="-61281">
		<tag k="name" v="Gjetemyr" />
		<tag k="natural" v="wetland" />
		<tag k="ssr:stedsnr" v="398409" />
	</node>
	<node lat="58.24592500078985" lon="7.763813883026203" id="-61288">
		<tag k="name" v="Monan" />
		<tag k="place" v="locality" />
		<tag k="ssr:stedsnr" v="398442" />
	</node>
	<node lat="58.302230559944974" lon="7.82205555206358" id="-61292">
		<tag k="name" v="Sauemyr" />
		<tag k="place" v="locality" />
		<tag k="ssr:stedsnr" v="398595" />
	</node>
	<node lat="58.36185833335453" lon="7.7120361157148345" id="-61304">
		<tag k="name" v="Holmemyra" />
		<tag k="natural" v="wetland" />
		<tag k="ssr:stedsnr" v="398786" />
	</node>
	<node lat="58.265341670771214" lon="7.808791660274676" id="-61355">
		<tag k="name" v="Stemtjønn" />
		<tag k="natural" v="wetland" />
		<tag k="ssr:stedsnr" v="458562" />
	</node>
	<node lat="58.39070833503121" lon="7.6974805581205485" id="-61371">
		<tag k="name" v="Stutemyr" />
		<tag k="natural" v="wetland" />
		<tag k="ssr:stedsnr" v="459111" />
	</node>
	<node lat="58.34013610704364" lon="7.8045805494450535" id="-61378">
		<tag k="name" v="Storemyr" />
		<tag k="natural" v="wetland" />
		<tag k="ssr:stedsnr" v="459323" />
	</node>
	<node lat="58.39638889301889" lon="7.784227774148963" id="-61380">
		<tag k="name" v="Bytingsmyr" />
		<tag k="natural" v="wetland" />
		<tag k="ssr:stedsnr" v="459406" />
	</node>
	<node lat="58.38618055897291" lon="7.807513880250239" id="-61381">
		<tag k="name" v="Bjønnsmyr" />
		<tag k="natural" v="wetland" />
		<tag k="ssr:stedsnr" v="459469" />
	</node>
	<node lat="58.38296388618445" lon="7.6431861137969195" id="-61386">
		<tag k="name" v="Stedjan" />
		<tag k="natural" v="wetland" />
		<tag k="ssr:stedsnr" v="459621" />
	</node>
	<node lat="58.31348889258358" lon="7.919788896780344" id="-61387">
		<tag k="name" v="Revemyr" />
		<tag k="natural" v="wetland" />
		<tag k="ssr:stedsnr" v="459658" />
	</node>
	<node lat="58.38378333617659" lon="7.865488887179791" id="-61391">
		<tag k="name" v="Nordmyrane" />
		<tag k="natural" v="wetland" />
		<tag k="ssr:stedsnr" v="459564" />
	</node>
	<node lat="58.38145832946869" lon="7.752277775065794" id="-61392">
		<tag k="name" v="Hægelandsteane" />
		<tag k="natural" v="wetland" />
		<tag k="ssr:stedsnr" v="459704" />
	</node>
	<node lat="58.29501666503224" lon="7.850802784440627" id="-61424">
		<tag k="name" v="Holtane" />
		<tag k="place" v="locality" />
		<tag k="ssr:stedsnr" v="519061" />
	</node>
	<node lat="58.349969441039946" lon="7.843613891510747" id="-61427">
		<tag k="name" v="Knipemyr" />
		<tag k="natural" v="wetland" />
		<tag k="ssr:stedsnr" v="519215" />
	</node>
	<node lat="58.40507500159446" lon="7.682986106217413" id="-61430">
		<tag k="name" v="Orreleiksmyr" />
		<tag k="natural" v="wetland" />
		<tag k="ssr:stedsnr" v="519220" />
	</node>
	<node lat="58.40398333410893" lon="7.672077778963462" id="-61434">
		<tag k="name" v="Blautemyr" />
		<tag k="natural" v="wetland" />
		<tag k="ssr:stedsnr" v="519262" />
	</node>
	<node lat="58.29745555883575" lon="7.792647225640722" id="-61439">
		<tag k="name" v="Langekjerr" />
		<tag k="natural" v="wetland" />
		<tag k="ssr:stedsnr" v="519284" />
	</node>
	<node lat="58.34885000309679" lon="8.005988882167483" id="-61440">
		<tag k="name" v="Dyplemyr" />
		<tag k="natural" v="wetland" />
		<tag k="ssr:stedsnr" v="519159" />
	</node>
	<node lat="58.29534444777696" lon="7.822200004216174" id="-61446">
		<tag k="name" v="Lonemyr" />
		<tag k="natural" v="wetland" />
		<tag k="ssr:stedsnr" v="519317" />
	</node>
	<node lat="58.306813884934385" lon="7.976661115477677" id="-61449">
		<tag k="name" v="Stemmyrane" />
		<tag k="natural" v="wetland" />
		<tag k="ssr:stedsnr" v="519503" />
	</node>
	<node lat="58.24349166895241" lon="7.750913882231427" id="-61454">
		<tag k="name" v="Understigen" />
		<tag k="natural" v="wetland" />
		<tag k="ssr:stedsnr" v="519518" />
	</node>
	<node lat="58.39892777912446" lon="7.806894449564584" id="-61457">
		<tag k="name" v="Gullreiskjerr" />
		<tag k="natural" v="wetland" />
		<tag k="ssr:stedsnr" v="519479" />
	</node>
	<node lat="58.31031111249648" lon="7.87121111260564" id="-61460">
		<tag k="name" v="Lunnan" />
		<tag k="place" v="locality" />
		<tag k="ssr:stedsnr" v="519660" />
	</node>
	<node lat="58.31436389271789" lon="7.785863884569676" id="-61467">
		<tag k="name" v="Øygarden" />
		<tag k="place" v="locality" />
		<tag k="ssr:stedsnr" v="519716" />
	</node>
	<node lat="58.23760832888805" lon="7.776011106930935" id="-61468">
		<tag k="name" v="Karten" />
		<tag k="natural" v="wetland" />
		<tag k="ssr:stedsnr" v="519725" />
	</node>
	<node lat="58.44027221972706" lon="7.72385554748656" id="-61470">
		<tag k="name" v="Kitelslåtta" />
		<tag k="natural" v="wetland" />
		<tag k="ssr:stedsnr" v="519768" />
	</node>
	<node lat="58.27231110687701" lon="8.002333333532585" id="-61473">
		<tag k="name" v="Ravnåsmyr" />
		<tag k="natural" v="wetland" />
		<tag k="ssr:stedsnr" v="519903" />
	</node>
	<node lat="58.29483888868952" lon="7.984983336231133" id="-61475">
		<tag k="name" v="Torvstrømyr" />
		<tag k="natural" v="wetland" />
		<tag k="ssr:stedsnr" v="519910" />
	</node>
	<node lat="58.37080555509888" lon="7.882630560265597" id="-61476">
		<tag k="name" v="Hagestemyra" />
		<tag k="natural" v="wetland" />
		<tag k="ssr:stedsnr" v="519915" />
	</node>
	<node lat="58.3004416639513" lon="7.987991663821109" id="-61478">
		<tag k="name" v="Langemyr" />
		<tag k="natural" v="wetland" />
		<tag k="ssr:stedsnr" v="519917" />
	</node>
	<node lat="58.32316944488772" lon="8.042530556126529" id="-61484">
		<tag k="name" v="Hågånsmyr" />
		<tag k="natural" v="wetland" />
		<tag k="ssr:stedsnr" v="519964" />
	</node>
	<node lat="58.23145833491137" lon="7.9620611069320155" id="-61487">
		<tag k="name" v="Hestesteane" />
		<tag k="natural" v="wetland" />
		<tag k="ssr:stedsnr" v="520218" />
	</node>
	<node lat="58.23411110893552" lon="7.756938895256863" id="-61489">
		<tag k="name" v="Langemyr" />
		<tag k="place" v="locality" />
		<tag k="ssr:stedsnr" v="520268" />
	</node>
	<node lat="58.4528694478258" lon="7.697161115713172" id="-61529">
		<tag k="name" v="Skrubbsursteinen" />
		<tag k="natural" v="stone" />
		<tag k="ssr:stedsnr" v="578751" />
	</node>
	<node lat="58.27386944557791" lon="7.779544439859116" id="-61537">
		<tag k="name" v="Løhusmyr" />
		<tag k="natural" v="wetland" />
		<tag k="ssr:stedsnr" v="579299" />
	</node>
	<node lat="58.283013888829664" lon="8.011880559857907" id="-61541">
		<tag k="name" v="Stemtjønnmyr" />
		<tag k="natural" v="wetland" />
		<tag k="ssr:stedsnr" v="579720" />
	</node>
	<node lat="58.36817499805325" lon="7.887349995656548" id="-61549">
		<tag k="name" v="Storemyr" />
		<tag k="natural" v="wetland" />
		<tag k="ssr:stedsnr" v="579919" />
	</node>
	<node lat="58.293441669940684" lon="7.998469444675412" id="-61552">
		<tag k="name" v="Gjermundsmyr" />
		<tag k="natural" v="wetland" />
		<tag k="ssr:stedsnr" v="579924" />
	</node>
	<node lat="58.405316665113325" lon="7.754891673724023" id="-61558">
		<tag k="name" v="Småsteane" />
		<tag k="natural" v="wetland" />
		<tag k="ssr:stedsnr" v="580097" />
	</node>
	<node lat="58.401230553324034" lon="7.84044722356917" id="-61565">
		<tag k="name" v="Revekjerrholtet" />
		<tag k="place" v="locality" />
		<tag k="ssr:stedsnr" v="580259" />
	</node>
	<node lat="58.39836667085425" lon="7.805861113844258" id="-61567">
		<tag k="name" v="Knipemyr" />
		<tag k="place" v="locality" />
		<tag k="ssr:stedsnr" v="580404" />
	</node>
	<node lat="58.22806667037826" lon="7.965691669011408" id="-61573">
		<tag k="name" v="Medåskjerret" />
		<tag k="natural" v="wetland" />
		<tag k="ssr:stedsnr" v="580193" />
	</node>
	<node lat="58.39797777566178" lon="7.6674944392336" id="-61576">
		<tag k="name" v="Stemyr" />
		<tag k="natural" v="wetland" />
		<tag k="ssr:stedsnr" v="580201" />
	</node>
	<node lat="58.3846083314885" lon="7.715138893759938" id="-61590">
		<tag k="name" v="Slåttane" />
		<tag k="natural" v="wetland" />
		<tag k="ssr:stedsnr" v="580653" />
	</node>
	<node lat="58.28451944668782" lon="7.881116669785112" id="-61622">
		<tag k="name" v="Dugane" />
		<tag k="place" v="locality" />
		<tag k="ssr:stedsnr" v="701072" />
	</node>
	<node lat="58.41610833314004" lon="7.766144450904426" id="-61624">
		<tag k="name" v="Dei store steinane" />
		<tag k="natural" v="stone" />
		<tag k="ssr:stedsnr" v="701144" />
	</node>
	<node lat="58.423063889372216" lon="7.7439472282170705" id="-61628">
		<tag k="name" v="Samlemyr" />
		<tag k="natural" v="wetland" />
		<tag k="ssr:stedsnr" v="701176" />
	</node>
	<node lat="58.40010555292293" lon="7.660902780749424" id="-61638">
		<tag k="name" v="Kalvedalsmyr" />
		<tag k="natural" v="wetland" />
		<tag k="ssr:stedsnr" v="701299" />
	</node>
	<node lat="58.39768333111164" lon="7.84650556023133" id="-61649">
		<tag k="name" v="Maurbakkjerr" />
		<tag k="natural" v="wetland" />
		<tag k="ssr:stedsnr" v="701391" />
	</node>
	<node lat="58.40102778217704" lon="7.824922216465457" id="-61653">
		<tag k="name" v="Eikemyr" />
		<tag k="natural" v="wetland" />
		<tag k="ssr:stedsnr" v="701442" />
	</node>
	<node lat="58.40129722267681" lon="7.798630549007281" id="-61654">
		<tag k="name" v="Langemyr" />
		<tag k="natural" v="wetland" />
		<tag k="ssr:stedsnr" v="701449" />
	</node>
	<node lat="58.34708055343155" lon="7.745277774091154" id="-61655">
		<tag k="name" v="Kartan" />
		<tag k="natural" v="wetland" />
		<tag k="ssr:stedsnr" v="701450" />
	</node>
	<node lat="58.39634721868072" lon="7.810375007877835" id="-61658">
		<tag k="name" v="Toresmyr" />
		<tag k="natural" v="wetland" />
		<tag k="ssr:stedsnr" v="701527" />
	</node>
	<node lat="58.38345833118262" lon="7.795113881218107" id="-61663">
		<tag k="name" v="Store Knipemyr" />
		<tag k="natural" v="wetland" />
		<tag k="ssr:stedsnr" v="701596" />
	</node>
	<node lat="58.434702781468616" lon="7.7247138906584265" id="-61671">
		<tag k="name" v="Skjelingsmyr" />
		<tag k="natural" v="wetland" />
		<tag k="ssr:stedsnr" v="701793" />
	</node>
	<node lat="58.365363891470835" lon="7.66797221586582" id="-61673">
		<tag k="name" v="Nedre Løemyr" />
		<tag k="natural" v="wetland" />
		<tag k="ssr:stedsnr" v="701697" />
	</node>
	<node lat="58.28774444868075" lon="8.010911110403399" id="-61676">
		<tag k="name" v="Slåttekjerrane" />
		<tag k="natural" v="wetland" />
		<tag k="ssr:stedsnr" v="701707" />
	</node>
	<node lat="58.375591664277344" lon="7.706100006871658" id="-61677">
		<tag k="name" v="Vedremyrane" />
		<tag k="natural" v="wetland" />
		<tag k="ssr:stedsnr" v="701709" />
	</node>
	<node lat="58.448549996446054" lon="7.761188882572904" id="-61680">
		<tag k="name" v="Lunneslåttmyra" />
		<tag k="natural" v="wetland" />
		<tag k="ssr:stedsnr" v="701808" />
	</node>
	<node lat="58.35218889298997" lon="7.680452779187507" id="-61682">
		<tag k="name" v="Knutsmyr" />
		<tag k="natural" v="wetland" />
		<tag k="ssr:stedsnr" v="701823" />
	</node>
	<node lat="58.27789722635564" lon="7.990938889484697" id="-61688">
		<tag k="name" v="Hellåsmyr" />
		<tag k="natural" v="wetland" />
		<tag k="ssr:stedsnr" v="701889" />
	</node>
	<node lat="58.30425555173662" lon="8.049811112277682" id="-61694">
		<tag k="name" v="Monen" />
		<tag k="place" v="locality" />
		<tag k="ssr:stedsnr" v="701918" />
	</node>
	<node lat="58.38004999735182" lon="7.842688892068111" id="-61695">
		<tag k="name" v="Slettemyr" />
		<tag k="natural" v="wetland" />
		<tag k="ssr:stedsnr" v="701919" />
	</node>
	<node lat="58.303933336354284" lon="8.043383335394044" id="-61696">
		<tag k="name" v="Monemyr" />
		<tag k="natural" v="wetland" />
		<tag k="ssr:stedsnr" v="701920" />
	</node>
	<node lat="58.37436944129773" lon="7.882272230452334" id="-61698">
		<tag k="name" v="Rønningen" />
		<tag k="place" v="locality" />
		<tag k="ssr:stedsnr" v="701928" />
	</node>
	<node lat="58.35136389314402" lon="7.666002769800625" id="-61705">
		<tag k="name" v="Kyrkjemyr" />
		<tag k="natural" v="wetland" />
		<tag k="ssr:stedsnr" v="701992" />
	</node>
	<node lat="58.23184999872872" lon="7.983350003543892" id="-61708">
		<tag k="name" v="Eilifsmyr" />
		<tag k="natural" v="wetland" />
		<tag k="ssr:stedsnr" v="702212" />
	</node>
	<node lat="58.23469166239823" lon="7.973547218775262" id="-61709">
		<tag k="name" v="Skarkekjerrane" />
		<tag k="natural" v="wetland" />
		<tag k="ssr:stedsnr" v="702214" />
	</node>
	<node lat="58.254119448825406" lon="7.847894438124366" id="-61719">
		<tag k="name" v="Nordmyr" />
		<tag k="place" v="locality" />
		<tag k="ssr:stedsnr" v="702657" />
	</node>
	<node lat="58.408444444250705" lon="7.678436107534894" id="-61729">
		<tag k="name" v="Mailesmyrane" />
		<tag k="natural" v="wetland" />
		<tag k="ssr:stedsnr" v="640236" />
	</node>
	<node lat="58.29880000213671" lon="7.914969438062286" id="-61734">
		<tag k="name" v="Langemyr" />
		<tag k="place" v="locality" />
		<tag k="ssr:stedsnr" v="640125" />
	</node>
	<node lat="58.27257222053633" lon="7.793847216805505" id="-61738">
		<tag k="name" v="Storemyr" />
		<tag k="natural" v="wetland" />
		<tag k="ssr:stedsnr" v="640323" />
	</node>
	<node lat="58.30040000139333" lon="7.830713881835032" id="-61744">
		<tag k="name" v="Vormbrokksmyr" />
		<tag k="natural" v="wetland" />
		<tag k="ssr:stedsnr" v="640314" />
	</node>
	<node lat="58.33073055238156" lon="7.8720055573781" id="-61745">
		<tag k="name" v="Tjørgromsmyr" />
		<tag k="natural" v="wetland" />
		<tag k="ssr:stedsnr" v="640316" />
	</node>
	<node lat="58.271430556293765" lon="7.7781722189210525" id="-61748">
		<tag k="name" v="Konsmyr" />
		<tag k="natural" v="wetland" />
		<tag k="ssr:stedsnr" v="640285" />
	</node>
	<node lat="58.39420000081535" lon="7.792386108500149" id="-61752">
		<tag k="name" v="Smalemyr" />
		<tag k="natural" v="wetland" />
		<tag k="ssr:stedsnr" v="640475" />
	</node>
	<node lat="58.38442778060189" lon="7.856213881995148" id="-61757">
		<tag k="name" v="Blautemyrane" />
		<tag k="natural" v="wetland" />
		<tag k="ssr:stedsnr" v="640617" />
	</node>
	<node lat="58.27930277394643" lon="7.849727775372959" id="-61759">
		<tag k="name" v="Myrholane" />
		<tag k="natural" v="wetland" />
		<tag k="ssr:stedsnr" v="640384" />
	</node>
	<node lat="58.39634166691053" lon="7.82104443769621" id="-61760">
		<tag k="name" v="Årgardsmyr" />
		<tag k="natural" v="wetland" />
		<tag k="ssr:stedsnr" v="640507" />
	</node>
	<node lat="58.378969444139486" lon="7.761022223574799" id="-61761">
		<tag k="name" v="Eikelandsteane" />
		<tag k="place" v="locality" />
		<tag k="ssr:stedsnr" v="640509" />
	</node>
	<node lat="58.303422220464924" lon="7.985313885487535" id="-61762">
		<tag k="name" v="Hageurane" />
		<tag k="natural" v="scree" />
		<tag k="ssr:stedsnr" v="640512" />
	</node>
	<node lat="58.28641944484288" lon="7.771455558882822" id="-61768">
		<tag k="name" v="Hægelandsmyrane" />
		<tag k="natural" v="wetland" />
		<tag k="ssr:stedsnr" v="640808" />
	</node>
	<node lat="58.43857499825917" lon="7.728750001118356" id="-61769">
		<tag k="name" v="Blautemyr" />
		<tag k="natural" v="wetland" />
		<tag k="ssr:stedsnr" v="640810" />
	</node>
	<node lat="58.29738888500242" lon="8.021380561563745" id="-61774">
		<tag k="name" v="Jonsmyr" />
		<tag k="natural" v="wetland" />
		<tag k="ssr:stedsnr" v="640876" />
	</node>
	<node lat="58.37058055342878" lon="7.845330547220582" id="-61783">
		<tag k="name" v="Hellemyrane" />
		<tag k="natural" v="wetland" />
		<tag k="ssr:stedsnr" v="640906" />
	</node>
	<node lat="58.350213884557036" lon="7.659313886409675" id="-61789">
		<tag k="name" v="Sigmundskjerret" />
		<tag k="natural" v="wetland" />
		<tag k="ssr:stedsnr" v="640989" />
	</node>
	<node lat="58.435544443443526" lon="7.7493333312927355" id="-61850">
		<tag k="name" v="Storemyr" />
		<tag k="natural" v="wetland" />
		<tag k="ssr:stedsnr" v="894777" />
	</node>
	<node lat="58.28100278176541" lon="7.886366669290497" id="-61857">
		<tag k="name" v="Bjønnsmyr" />
		<tag k="natural" v="wetland" />
		<tag k="ssr:stedsnr" v="701105" />
	</node>
	<node lat="58.40564444775379" lon="7.750627773915173" id="-61859">
		<tag k="name" v="Lillestemmen" />
		<tag k="natural" v="wetland" />
		<tag k="ssr:stedsnr" v="701121" />
	</node>
	<node lat="58.35724444724689" lon="7.874966673832104" id="-61864">
		<tag k="name" v="Romemyr" />
		<tag k="natural" v="wetland" />
		<tag k="ssr:stedsnr" v="701223" />
	</node>
	<node lat="58.27340832997282" lon="7.919805548631835" id="-61868">
		<tag k="name" v="Trettestykket" />
		<tag k="natural" v="wetland" />
		<tag k="ssr:stedsnr" v="701269" />
	</node>
	<node lat="58.27679444157976" lon="7.806219436177794" id="-61873">
		<tag k="name" v="Snømyr" />
		<tag k="natural" v="wetland" />
		<tag k="ssr:stedsnr" v="701366" />
	</node>
	<node lat="58.39931944731312" lon="7.7439166744772105" id="-61882">
		<tag k="name" v="Stokkdalsmyra" />
		<tag k="natural" v="wetland" />
		<tag k="ssr:stedsnr" v="701477" />
	</node>
	<node lat="58.36999721880465" lon="7.6570277813740955" id="-61889">
		<tag k="name" v="Kverlemyr" />
		<tag k="natural" v="wetland" />
		<tag k="ssr:stedsnr" v="701677" />
	</node>
	<node lat="58.4505777745792" lon="7.7431694496819965" id="-61892">
		<tag k="name" v="Øyeslåtta" />
		<tag k="natural" v="wetland" />
		<tag k="ssr:stedsnr" v="701806" />
	</node>
	<node lat="58.29448611335903" lon="7.741508329710251" id="-61903">
		<tag k="name" v="Kringlemyr" />
		<tag k="natural" v="wetland" />
		<tag k="ssr:stedsnr" v="701782" />
	</node>
	<node lat="58.41900833020874" lon="7.71944721813566" id="-61904">
		<tag k="name" v="Jenseslåtta" />
		<tag k="natural" v="wetland" />
		<tag k="ssr:stedsnr" v="701906" />
	</node>
	<node lat="58.41574166568349" lon="7.713025003060775" id="-61905">
		<tag k="name" v="Merrekjerret" />
		<tag k="natural" v="wetland" />
		<tag k="ssr:stedsnr" v="701908" />
	</node>
	<node lat="58.37092222310946" lon="7.891669444074507" id="-61906">
		<tag k="name" v="Storemyra" />
		<tag k="natural" v="wetland" />
		<tag k="ssr:stedsnr" v="701909" />
	</node>
	<node lat="58.291394442484155" lon="7.751725002198723" id="-61907">
		<tag k="name" v="Kloppmyr" />
		<tag k="natural" v="wetland" />
		<tag k="ssr:stedsnr" v="701817" />
	</node>
	<node lat="58.33129166684634" lon="7.658694447936654" id="-61908">
		<tag k="name" v="Småmyrane" />
		<tag k="natural" v="wetland" />
		<tag k="ssr:stedsnr" v="702018" />
	</node>
	<node lat="58.26127778228388" lon="7.691294448462203" id="-61917">
		<tag k="name" v="Krosteinen" />
		<tag k="natural" v="stone" />
		<tag k="ssr:stedsnr" v="706525" />
	</node>
	<node lat="58.38773889121452" lon="7.7165166740643185" id="-61964">
		<tag k="name" v="Slåttane" />
		<tag k="natural" v="wetland" />
		<tag k="ssr:stedsnr" v="762104" />
	</node>
	<node lat="58.407519440097005" lon="7.748402770560453" id="-61965">
		<tag k="name" v="Farsmyran" />
		<tag k="natural" v="wetland" />
		<tag k="ssr:stedsnr" v="762107" />
	</node>
	<node lat="58.41312499998146" lon="7.741766664472" id="-61969">
		<tag k="name" v="Stakksteinen" />
		<tag k="natural" v="stone" />
		<tag k="ssr:stedsnr" v="762143" />
	</node>
	<node lat="58.34656944028152" lon="8.005161110375619" id="-61970">
		<tag k="name" v="Djupemyr" />
		<tag k="natural" v="wetland" />
		<tag k="ssr:stedsnr" v="762144" />
	</node>
	<node lat="58.34666388922933" lon="7.855755551977449" id="-61971">
		<tag k="name" v="Breiemyr" />
		<tag k="natural" v="wetland" />
		<tag k="ssr:stedsnr" v="762198" />
	</node>
	<node lat="58.40381944403938" lon="7.800897221182721" id="-61978">
		<tag k="name" v="Jensmyr" />
		<tag k="natural" v="wetland" />
		<tag k="ssr:stedsnr" v="762345" />
	</node>
	<node lat="58.23693888981673" lon="7.9796499946405515" id="-61981">
		<tag k="name" v="Lusekjerrane" />
		<tag k="natural" v="wetland" />
		<tag k="ssr:stedsnr" v="762350" />
	</node>
	<node lat="58.25018333127771" lon="7.73734166037666" id="-61984">
		<tag k="name" v="Tverrbekkstø" />
		<tag k="natural" v="wetland" />
		<tag k="ssr:stedsnr" v="762507" />
	</node>
	<node lat="58.37712500336856" lon="7.834291673105372" id="-61985">
		<tag k="name" v="Vintermyr" />
		<tag k="natural" v="wetland" />
		<tag k="ssr:stedsnr" v="762516" />
	</node>
	<node lat="58.379122223373535" lon="7.741413882240596" id="-61997">
		<tag k="name" v="Blotmyr" />
		<tag k="natural" v="wetland" />
		<tag k="ssr:stedsnr" v="762456" />
	</node>
	<node lat="58.25599166449782" lon="7.924752771613016" id="-61999">
		<tag k="name" v="Nedre Bumyr" />
		<tag k="natural" v="wetland" />
		<tag k="ssr:stedsnr" v="762460" />
	</node>
	<node lat="58.318324998349624" lon="7.912216669238751" id="-62000">
		<tag k="name" v="Mittslåttan" />
		<tag k="natural" v="wetland" />
		<tag k="ssr:stedsnr" v="762647" />
	</node>
	<node lat="58.273505553273424" lon="7.7262111169477405" id="-62001">
		<tag k="name" v="Folemyr" />
		<tag k="natural" v="wetland" />
		<tag k="ssr:stedsnr" v="762694" />
	</node>
	<node lat="58.23963611438659" lon="7.915841659475917" id="-62006">
		<tag k="name" v="Bjønningsmyr" />
		<tag k="natural" v="wetland" />
		<tag k="ssr:stedsnr" v="762541" />
	</node>
	<node lat="58.368933330202275" lon="7.717077775724394" id="-62009">
		<tag k="name" v="Kyrkjemyr" />
		<tag k="natural" v="wetland" />
		<tag k="ssr:stedsnr" v="762713" />
	</node>
	<node lat="58.35893611027048" lon="7.707599995278457" id="-62010">
		<tag k="name" v="Leirånmyra" />
		<tag k="natural" v="wetland" />
		<tag k="ssr:stedsnr" v="762745" />
	</node>
	<node lat="58.43273888866833" lon="7.752261116766881" id="-62016">
		<tag k="name" v="Løemyrane" />
		<tag k="natural" v="wetland" />
		<tag k="ssr:stedsnr" v="762958" />
	</node>
	<node lat="58.28344721991016" lon="7.939822220371109" id="-62041">
		<tag k="name" v="Stedjemyr" />
		<tag k="natural" v="wetland" />
		<tag k="ssr:stedsnr" v="822188" />
	</node>
	<node lat="58.29403055544452" lon="7.789805555287527" id="-62042">
		<tag k="name" v="Skeia" />
		<tag k="place" v="locality" />
		<tag k="ssr:stedsnr" v="822303" />
	</node>
	<node lat="58.3350777808057" lon="8.011224998423295" id="-62050">
		<tag k="name" v="Røyemyra" />
		<tag k="natural" v="wetland" />
		<tag k="ssr:stedsnr" v="823024" />
	</node>
	<node lat="58.23315277466326" lon="7.746452781931509" id="-62054">
		<tag k="name" v="Kravlemyr" />
		<tag k="natural" v="wetland" />
		<tag k="ssr:stedsnr" v="823238" />
	</node>
	<node lat="58.4043833291543" lon="7.697572220127052" id="-62060">
		<tag k="name" v="Flåmyr" />
		<tag k="natural" v="wetland" />
		<tag k="ssr:stedsnr" v="823177" />
	</node>
	<node lat="58.362433337151174" lon="7.837922227478612" id="-62062">
		<tag k="name" v="Breimyr" />
		<tag k="natural" v="wetland" />
		<tag k="ssr:stedsnr" v="823186" />
	</node>
	<node lat="58.27847500195425" lon="7.923063891920769" id="-62063">
		<tag k="name" v="Villemyr" />
		<tag k="natural" v="wetland" />
		<tag k="ssr:stedsnr" v="823188" />
	</node>
	<node lat="58.35528055939067" lon="7.836255553965637" id="-62064">
		<tag k="name" v="Haugestølmyr" />
		<tag k="natural" v="wetland" />
		<tag k="ssr:stedsnr" v="823189" />
	</node>
	<node lat="58.23541389008234" lon="7.958455556496472" id="-62069">
		<tag k="name" v="Normyrane" />
		<tag k="natural" v="wetland" />
		<tag k="ssr:stedsnr" v="823201" />
	</node>
	<node lat="58.24851111080241" lon="7.767327778425983" id="-62073">
		<tag k="name" v="Nesane" />
		<tag k="place" v="locality" />
		<tag k="ssr:stedsnr" v="823466" />
	</node>
	<node lat="58.37163055225425" lon="7.671058329272716" id="-62079">
		<tag k="name" v="Den lange bytesteinen" />
		<tag k="natural" v="stone" />
		<tag k="ssr:stedsnr" v="823619" />
	</node>
	<node lat="58.32166389211037" lon="7.672049996393943" id="-62080">
		<tag k="name" v="Monen" />
		<tag k="place" v="locality" />
		<tag k="ssr:stedsnr" v="823376" />
	</node>
	<node lat="58.37321944896438" lon="7.819894450217616" id="-62084">
		<tag k="name" v="Tagdalsmyr" />
		<tag k="natural" v="wetland" />
		<tag k="ssr:stedsnr" v="823522" />
	</node>
	<node lat="58.456861108803906" lon="7.747869446008249" id="-62086">
		<tag k="name" v="Skridarmyr" />
		<tag k="natural" v="wetland" />
		<tag k="ssr:stedsnr" v="823580" />
	</node>
	<node lat="58.22917499848028" lon="7.7774500044084265" id="-62091">
		<tag k="name" v="Blautemyr" />
		<tag k="natural" v="wetland" />
		<tag k="ssr:stedsnr" v="824333" />
	</node>
	<node lat="58.29518333386356" lon="7.728483339174049" id="-62116">
		<tag k="name" v="Tømmeråsmyr" />
		<tag k="natural" v="wetland" />
		<tag k="ssr:stedsnr" v="882919" />
	</node>
	<node lat="58.29885277693026" lon="7.815561113036057" id="-62119">
		<tag k="name" v="Karten" />
		<tag k="natural" v="wetland" />
		<tag k="ssr:stedsnr" v="883315" />
	</node>
	<node lat="58.29743888896687" lon="7.818619441508074" id="-62120">
		<tag k="name" v="Rusekjerrane" />
		<tag k="natural" v="wetland" />
		<tag k="ssr:stedsnr" v="883321" />
	</node>
	<node lat="58.2836222216789" lon="7.82088610565466" id="-62121">
		<tag k="name" v="Storemyr" />
		<tag k="natural" v="wetland" />
		<tag k="ssr:stedsnr" v="883355" />
	</node>
	<node lat="58.308588887410785" lon="7.8738472285638705" id="-62124">
		<tag k="name" v="Storeste" />
		<tag k="place" v="locality" />
		<tag k="ssr:stedsnr" v="883709" />
	</node>
	<node lat="58.38800278141331" lon="7.695158341041639" id="-62127">
		<tag k="name" v="Dikemyr" />
		<tag k="natural" v="wetland" />
		<tag k="ssr:stedsnr" v="884097" />
	</node>
	<node lat="58.40511944805443" lon="7.751338881024457" id="-62137">
		<tag k="name" v="Føresteane" />
		<tag k="natural" v="wetland" />
		<tag k="ssr:stedsnr" v="884112" />
	</node>
	<node lat="58.42387777672536" lon="7.730563895569617" id="-62138">
		<tag k="name" v="Kringlemyr" />
		<tag k="natural" v="wetland" />
		<tag k="ssr:stedsnr" v="884149" />
	</node>
	<node lat="58.42916666337068" lon="7.75244444139692" id="-62142">
		<tag k="name" v="Bjørnestea" />
		<tag k="natural" v="wetland" />
		<tag k="ssr:stedsnr" v="884166" />
	</node>
	<node lat="58.341574998201985" lon="7.69465000602546" id="-62146">
		<tag k="name" v="Vollane" />
		<tag k="place" v="locality" />
		<tag k="ssr:stedsnr" v="884401" />
	</node>
	<node lat="58.25126111013103" lon="7.920166666591683" id="-62155">
		<tag k="name" v="Pålsmyr" />
		<tag k="natural" v="wetland" />
		<tag k="ssr:stedsnr" v="884447" />
	</node>
	<node lat="58.367611114654395" lon="7.763052777818627" id="-62158">
		<tag k="name" v="Sjøngsmyr" />
		<tag k="natural" v="wetland" />
		<tag k="ssr:stedsnr" v="884457" />
	</node>
	<node lat="58.30290277722029" lon="8.047877770383574" id="-62173">
		<tag k="name" v="Skjelbakkmyra" />
		<tag k="place" v="locality" />
		<tag k="ssr:stedsnr" v="884907" />
	</node>
	<node lat="58.378005553962836" lon="7.87360554851734" id="-62176">
		<tag k="name" v="Fuglekjerr" />
		<tag k="natural" v="wetland" />
		<tag k="ssr:stedsnr" v="884921" />
	</node>
	<node lat="58.443324998552285" lon="7.778097218472646" id="-62177">
		<tag k="name" v="Den heimre myra" />
		<tag k="natural" v="wetland" />
		<tag k="ssr:stedsnr" v="884928" />
	</node>
	<node lat="58.36959999872226" lon="7.904983341086576" id="-62179">
		<tag k="name" v="Steinbrotsmyra" />
		<tag k="natural" v="wetland" />
		<tag k="ssr:stedsnr" v="884948" />
	</node>
	<node lat="58.36774444422136" lon="7.6478972301836565" id="-62202">
		<tag k="alt_name" v="Stormyra" />
		<tag k="name" v="Storemyr" />
		<tag k="natural" v="wetland" />
		<tag k="ssr:stedsnr" v="910966" />
	</node>
	<node lat="58.29254444092384" lon="7.901427786313595" id="-62206">
		<tag k="name" v="Holtet" />
		<tag k="place" v="locality" />
		<tag k="ssr:stedsnr" v="944159" />
	</node>
	<node lat="58.412624997499606" lon="7.691080550547518" id="-62207">
		<tag k="name" v="Paulen" />
		<tag k="natural" v="wetland" />
		<tag k="ssr:stedsnr" v="944169" />
	</node>
	<node lat="58.28196666876974" lon="7.924841663495168" id="-62208">
		<tag k="name" v="Røyrmyr" />
		<tag k="natural" v="wetland" />
		<tag k="ssr:stedsnr" v="944170" />
	</node>
	<node lat="58.360558332045976" lon="8.014849993862073" id="-62210">
		<tag k="name" v="Kringlemyr" />
		<tag k="natural" v="wetland" />
		<tag k="ssr:stedsnr" v="944189" />
	</node>
	<node lat="58.35723610677432" lon="7.831852772854156" id="-62217">
		<tag k="name" v="Limyr" />
		<tag k="natural" v="wetland" />
		<tag k="ssr:stedsnr" v="944235" />
	</node>
	<node lat="58.41377222508079" lon="7.748991664583641" id="-62220">
		<tag k="name" v="Verteslåtta" />
		<tag k="natural" v="wetland" />
		<tag k="ssr:stedsnr" v="944246" />
	</node>
	<node lat="58.27097777616414" lon="7.74452499700837" id="-62225">
		<tag k="name" v="Ormekjerrane" />
		<tag k="natural" v="wetland" />
		<tag k="ssr:stedsnr" v="944290" />
	</node>
	<node lat="58.27627221837735" lon="7.840280558318981" id="-62231">
		<tag k="name" v="Øygemyr" />
		<tag k="natural" v="wetland" />
		<tag k="ssr:stedsnr" v="944436" />
	</node>
	<node lat="58.26888055306416" lon="7.810966667739662" id="-62233">
		<tag k="name" v="Moråskjerrane" />
		<tag k="natural" v="wetland" />
		<tag k="ssr:stedsnr" v="944487" />
	</node>
	<node lat="58.267611107303004" lon="7.834569439147159" id="-62234">
		<tag k="name" v="Flismyr" />
		<tag k="natural" v="wetland" />
		<tag k="ssr:stedsnr" v="944494" />
	</node>
	<node lat="58.3380638851666" lon="7.689511110492409" id="-62236">
		<tag k="name" v="Bastemoen" />
		<tag k="place" v="locality" />
		<tag k="ssr:stedsnr" v="944499" />
	</node>
	<node lat="58.37050000164254" lon="7.824605554149596" id="-62244">
		<tag k="name" v="Oddermyr" />
		<tag k="natural" v="wetland" />
		<tag k="ssr:stedsnr" v="944590" />
	</node>
	<node lat="58.372144441058964" lon="7.860825003560336" id="-62247">
		<tag k="name" v="Homevannsmyrane" />
		<tag k="natural" v="wetland" />
		<tag k="ssr:stedsnr" v="944908" />
	</node>
	<node lat="58.37186388853256" lon="7.840527779818373" id="-62249">
		<tag k="name" v="Tverrkjerrane" />
		<tag k="natural" v="wetland" />
		<tag k="ssr:stedsnr" v="944915" />
	</node>
	<node lat="58.40937778222998" lon="7.6765027779342585" id="-62250">
		<tag k="name" v="Timremyr" />
		<tag k="natural" v="wetland" />
		<tag k="ssr:stedsnr" v="944917" />
	</node>
	<node lat="58.384566665376006" lon="7.873116674311785" id="-62260">
		<tag k="name" v="Lille Svinsokskjerr" />
		<tag k="natural" v="wetland" />
		<tag k="ssr:stedsnr" v="944889" />
	</node>
	<node lat="58.227383329275206" lon="7.9567305481226125" id="-62263">
		<tag k="name" v="Stokkmyr" />
		<tag k="natural" v="wetland" />
		<tag k="ssr:stedsnr" v="945206" />
	</node>
	<node lat="58.236238886158525" lon="7.767694445147627" id="-62266">
		<tag k="name" v="Torvstrømyra" />
		<tag k="natural" v="wetland" />
		<tag k="ssr:stedsnr" v="945281" />
	</node>
	<node lat="58.34981817822895" lon="7.8680235984234175" id="-62294">
		<tag k="name" v="Nordbø" />
		<tag k="place" v="locality" />
		<tag k="ssr:stedsnr" v="978524" />
	</node>
	<node lat="58.370922223840466" lon="7.774691664019574" id="-62323">
		<tag k="name" v="Tromyr" />
		<tag k="natural" v="wetland" />
		<tag k="ssr:stedsnr" v="24069" />
	</node>
	<node lat="58.28411944838159" lon="7.936899992595506" id="-62327">
		<tag k="name" v="Øygardsmyr" />
		<tag k="natural" v="wetland" />
		<tag k="ssr:stedsnr" v="33193" />
	</node>
	<node lat="58.29626111097839" lon="7.80659999999401" id="-62330">
		<tag k="name" v="Jypemyr" />
		<tag k="natural" v="wetland" />
		<tag k="ssr:stedsnr" v="33297" />
	</node>
	<node lat="58.260183333889195" lon="7.84660833458071" id="-62333">
		<tag k="name" v="Torkelsmyra" />
		<tag k="natural" v="wetland" />
		<tag k="ssr:stedsnr" v="33232" />
	</node>
	<node lat="58.26034444313511" lon="7.909994438969866" id="-62339">
		<tag k="name" v="Øygard" />
		<tag k="place" v="locality" />
		<tag k="ssr:stedsnr" v="33928" />
	</node>
	<node lat="58.42228055727018" lon="7.735969448877229" id="-62345">
		<tag k="name" v="Gunnerslåttane" />
		<tag k="natural" v="wetland" />
		<tag k="ssr:stedsnr" v="34162" />
	</node>
	<node lat="58.23715000120176" lon="7.961838884981301" id="-62351">
		<tag k="name" v="Studemyr" />
		<tag k="natural" v="wetland" />
		<tag k="ssr:stedsnr" v="34195" />
	</node>
	<node lat="58.35136388631997" lon="8.011308325811752" id="-62358">
		<tag k="name" v="Storemyr" />
		<tag k="natural" v="wetland" />
		<tag k="ssr:stedsnr" v="34144" />
	</node>
	<node lat="58.22269444205367" lon="7.967202773204081" id="-62361">
		<tag k="name" v="Ikkonkjerrane" />
		<tag k="natural" v="wetland" />
		<tag k="ssr:stedsnr" v="34218" />
	</node>
	<node lat="58.39958055480119" lon="7.824363882169804" id="-62375">
		<tag k="name" v="Ospelimyr" />
		<tag k="natural" v="wetland" />
		<tag k="ssr:stedsnr" v="34320" />
	</node>
	<node lat="58.402905559621374" lon="7.795147228575981" id="-62380">
		<tag k="name" v="Puttmyr" />
		<tag k="natural" v="wetland" />
		<tag k="ssr:stedsnr" v="34336" />
	</node>
	<node lat="58.248886114045874" lon="7.928830563476191" id="-62384">
		<tag k="name" v="Djupemyr" />
		<tag k="natural" v="wetland" />
		<tag k="ssr:stedsnr" v="34560" />
	</node>
	<node lat="58.24550277553643" lon="7.9242777760581244" id="-62385">
		<tag k="name" v="Slåttekjerr" />
		<tag k="natural" v="wetland" />
		<tag k="ssr:stedsnr" v="34563" />
	</node>
	<node lat="58.25066944444752" lon="7.834969446314452" id="-62399">
		<tag k="name" v="Hestmyr" />
		<tag k="natural" v="wetland" />
		<tag k="ssr:stedsnr" v="34661" />
	</node>
	<node lat="58.366711111692865" lon="7.704049991831287" id="-62400">
		<tag k="name" v="Gåsedammen" />
		<tag k="natural" v="wetland" />
		<tag k="ssr:stedsnr" v="34670" />
	</node>
	<node lat="58.4314416647225" lon="7.75118888471652" id="-62416">
		<tag k="name" v="Torva" />
		<tag k="natural" v="wetland" />
		<tag k="ssr:stedsnr" v="34963" />
	</node>
	<node lat="58.35557777383044" lon="7.633511105678335" id="-62417">
		<tag k="name" v="Strengemyr" />
		<tag k="natural" v="wetland" />
		<tag k="ssr:stedsnr" v="34968" />
	</node>
	<node lat="58.35030000166214" lon="7.896519448360118" id="-62423">
		<tag k="name" v="Øvremyr" />
		<tag k="place" v="locality" />
		<tag k="ssr:stedsnr" v="34946" />
	</node>
	<node lat="58.30939444130483" lon="8.02842222378343" id="-62425">
		<tag k="name" v="Jonsmyr" />
		<tag k="natural" v="wetland" />
		<tag k="ssr:stedsnr" v="34957" />
	</node>
	<node lat="58.42397222049186" lon="7.771227786233869" id="-62453">
		<tag k="name" v="Vollestee" />
		<tag k="natural" v="wetland" />
		<tag k="ssr:stedsnr" v="44764" />
	</node>
	<node lat="58.239663890817965" lon="7.73412777209066" id="-62482">
		<tag k="name" v="Glugvardsmyrane" />
		<tag k="natural" v="wetland" />
		<tag k="ssr:stedsnr" v="94578" />
	</node>
	<node lat="58.28127222065446" lon="8.027633333384713" id="-62488">
		<tag k="name" v="Døblemyr" />
		<tag k="natural" v="wetland" />
		<tag k="ssr:stedsnr" v="94726" />
	</node>
	<node lat="58.239005554599565" lon="7.779511109909105" id="-62491">
		<tag k="name" v="Langemyr" />
		<tag k="natural" v="wetland" />
		<tag k="ssr:stedsnr" v="94748" />
	</node>
	<node lat="58.387686109399446" lon="7.679894445387433" id="-62500">
		<tag k="name" v="Djupemyr" />
		<tag k="natural" v="wetland" />
		<tag k="ssr:stedsnr" v="95017" />
	</node>
	<node lat="58.396613885453824" lon="7.768866658288372" id="-62504">
		<tag k="name" v="Blautekjerret" />
		<tag k="natural" v="wetland" />
		<tag k="ssr:stedsnr" v="95056" />
	</node>
	<node lat="58.3945416702129" lon="7.76018056306199" id="-62505">
		<tag k="name" v="Bjørnebærmyra" />
		<tag k="natural" v="wetland" />
		<tag k="ssr:stedsnr" v="95059" />
	</node>
	<node lat="58.39567500187182" lon="7.655572230591305" id="-62515">
		<tag k="name" v="Fjellmyr" />
		<tag k="natural" v="wetland" />
		<tag k="ssr:stedsnr" v="95198" />
	</node>
	<node lat="58.38448055713808" lon="7.81255277010946" id="-62521">
		<tag k="name" v="Krokevannslåtta" />
		<tag k="natural" v="wetland" />
		<tag k="ssr:stedsnr" v="95462" />
	</node>
	<node lat="58.256002776067845" lon="7.943149999579597" id="-62523">
		<tag k="name" v="Andre Låsmyr" />
		<tag k="natural" v="wetland" />
		<tag k="ssr:stedsnr" v="95444" />
	</node>
	<node lat="58.38442499884902" lon="7.676080551882489" id="-62530">
		<tag k="name" v="Pråmstemyr" />
		<tag k="natural" v="wetland" />
		<tag k="ssr:stedsnr" v="95630" />
	</node>
	<node lat="58.36646388866997" lon="7.643822216401765" id="-62531">
		<tag k="name" v="Storemyrøya" />
		<tag k="place" v="locality" />
		<tag k="ssr:stedsnr" v="95631" />
	</node>
	<node lat="58.37919999918564" lon="7.867094451513068" id="-62540">
		<tag k="name" v="Storemyr" />
		<tag k="natural" v="wetland" />
		<tag k="ssr:stedsnr" v="95927" />
	</node>
	<node lat="58.42003888455568" lon="7.684158335957115" id="-62542">
		<tag k="name" v="Ruglesteinen" />
		<tag k="natural" v="stone" />
		<tag k="ssr:stedsnr" v="95933" />
	</node>
	<node lat="58.31335555528122" lon="7.828874998859656" id="-62545">
		<tag k="name" v="Bjørnskjeggmyr" />
		<tag k="natural" v="wetland" />
		<tag k="ssr:stedsnr" v="95696" />
	</node>
	<node lat="58.35416666793691" lon="7.707805555741662" id="-62589">
		<tag k="name" v="Surtemyr" />
		<tag k="natural" v="wetland" />
		<tag k="ssr:stedsnr" v="121783" />
	</node>
	<node lat="58.37725555860842" lon="7.88118889064247" id="-62592">
		<tag k="name" v="Sommerfjøsmyrane" />
		<tag k="natural" v="wetland" />
		<tag k="ssr:stedsnr" v="155862" />
	</node>
	<node lat="58.28739722560535" lon="7.729769446099708" id="-62595">
		<tag k="name" v="Storemyr" />
		<tag k="natural" v="wetland" />
		<tag k="ssr:stedsnr" v="154949" />
	</node>
	<node lat="58.27446944633065" lon="7.924716674868638" id="-62596">
		<tag k="name" v="Store Såtemyr" />
		<tag k="natural" v="wetland" />
		<tag k="ssr:stedsnr" v="155226" />
	</node>
	<node lat="58.410516666132" lon="7.742944449304459" id="-62610">
		<tag k="name" v="Venemyr" />
		<tag k="natural" v="wetland" />
		<tag k="ssr:stedsnr" v="155154" />
	</node>
	<node lat="58.28528888917189" lon="7.907836114121004" id="-62614">
		<tag k="name" v="Klovsteinen" />
		<tag k="natural" v="stone" />
		<tag k="ssr:stedsnr" v="155169" />
	</node>
	<node lat="58.365697226456376" lon="8.019511103260118" id="-62618">
		<tag k="name" v="Svintoksmyra" />
		<tag k="natural" v="wetland" />
		<tag k="ssr:stedsnr" v="155181" />
	</node>
	<node lat="58.417886113319135" lon="7.773283326063036" id="-62619">
		<tag k="name" v="Blautekjerret" />
		<tag k="natural" v="wetland" />
		<tag k="ssr:stedsnr" v="155182" />
	</node>
	<node lat="58.28171388861156" lon="7.958150007529943" id="-62621">
		<tag k="name" v="Lundevoll" />
		<tag k="place" v="locality" />
		<tag k="ssr:stedsnr" v="155187" />
	</node>
	<node lat="58.357650002345395" lon="7.813911112243007" id="-62628">
		<tag k="name" v="Vanne" />
		<tag k="natural" v="wetland" />
		<tag k="ssr:stedsnr" v="155222" />
	</node>
	<node lat="58.277725000407635" lon="7.918674999771078" id="-62629">
		<tag k="name" v="Døblemyr" />
		<tag k="natural" v="wetland" />
		<tag k="ssr:stedsnr" v="155223" />
	</node>
	<node lat="58.29746111448685" lon="7.801941665514283" id="-62639">
		<tag k="name" v="Fossmyr" />
		<tag k="natural" v="wetland" />
		<tag k="ssr:stedsnr" v="155263" />
	</node>
	<node lat="58.27240833640677" lon="7.768869443089792" id="-62641">
		<tag k="name" v="Klovsteinsmyr" />
		<tag k="natural" v="wetland" />
		<tag k="ssr:stedsnr" v="155272" />
	</node>
	<node lat="58.2771027781087" lon="7.812572215970118" id="-62642">
		<tag k="name" v="Vermyr" />
		<tag k="natural" v="wetland" />
		<tag k="ssr:stedsnr" v="155280" />
	</node>
	<node lat="58.40086111444357" lon="7.801713897142233" id="-62647">
		<tag k="name" v="Blautemyr" />
		<tag k="natural" v="wetland" />
		<tag k="ssr:stedsnr" v="155361" />
	</node>
	<node lat="58.402577780630246" lon="7.814122229402433" id="-62649">
		<tag k="name" v="Bumyr" />
		<tag k="natural" v="wetland" />
		<tag k="ssr:stedsnr" v="155365" />
	</node>
	<node lat="58.39903888940593" lon="7.811597227652723" id="-62659">
		<tag k="name" v="Sessmyr" />
		<tag k="natural" v="wetland" />
		<tag k="ssr:stedsnr" v="155443" />
	</node>
	<node lat="58.37253333591356" lon="7.803261115741663" id="-62666">
		<tag k="name" v="Dyblemyr" />
		<tag k="natural" v="wetland" />
		<tag k="ssr:stedsnr" v="155532" />
	</node>
	<node lat="58.371986114082446" lon="7.811080560925858" id="-62668">
		<tag k="name" v="Djupemyr" />
		<tag k="natural" v="wetland" />
		<tag k="ssr:stedsnr" v="155538" />
	</node>
	<node lat="58.376299995998565" lon="7.660075005776967" id="-62673">
		<tag k="name" v="Djupemyr" />
		<tag k="natural" v="wetland" />
		<tag k="ssr:stedsnr" v="155634" />
	</node>
	<node lat="58.38097777560549" lon="7.862333335248806" id="-62681">
		<tag k="name" v="Krikken" />
		<tag k="natural" v="wetland" />
		<tag k="ssr:stedsnr" v="155577" />
	</node>
	<node lat="58.27027222005665" lon="7.7260500030568275" id="-62689">
		<tag k="name" v="Jordsmyr" />
		<tag k="natural" v="wetland" />
		<tag k="ssr:stedsnr" v="155685" />
	</node>
	<node lat="58.364524998286356" lon="7.677233335554919" id="-62693">
		<tag k="name" v="Moltekarten" />
		<tag k="natural" v="wetland" />
		<tag k="ssr:stedsnr" v="155731" />
	</node>
	<node lat="58.345599996194714" lon="7.667691669712531" id="-62697">
		<tag k="name" v="Hodnemyrkarten" />
		<tag k="natural" v="wetland" />
		<tag k="ssr:stedsnr" v="155755" />
	</node>
	<node lat="58.28188611476029" lon="7.769725004255753" id="-62699">
		<tag k="name" v="Suglemyr" />
		<tag k="natural" v="wetland" />
		<tag k="ssr:stedsnr" v="155767" />
	</node>
	<node lat="58.287536113181375" lon="7.763269448826069" id="-62700">
		<tag k="name" v="Snømyr" />
		<tag k="natural" v="wetland" />
		<tag k="ssr:stedsnr" v="155769" />
	</node>
	<node lat="58.421322221655025" lon="7.690636106763809" id="-62719">
		<tag k="name" v="Grokjerrane" />
		<tag k="natural" v="wetland" />
		<tag k="ssr:stedsnr" v="155915" />
	</node>
	<node lat="58.439169442318935" lon="7.772947214018907" id="-62723">
		<tag k="name" v="Ospehommyra" />
		<tag k="natural" v="wetland" />
		<tag k="ssr:stedsnr" v="155939" />
	</node>
	<node lat="58.22788333519019" lon="7.7631583268274955" id="-62728">
		<tag k="name" v="Kravleneset" />
		<tag k="place" v="locality" />
		<tag k="ssr:stedsnr" v="156186" />
	</node>
	<node lat="58.22506944891584" lon="7.778883333660425" id="-62730">
		<tag k="name" v="Dei hole steinane" />
		<tag k="natural" v="stone" />
		<tag k="ssr:stedsnr" v="156272" />
	</node>
	<node lat="58.22666388640753" lon="7.780286116553851" id="-62731">
		<tag k="name" v="Rømyr" />
		<tag k="natural" v="wetland" />
		<tag k="ssr:stedsnr" v="156275" />
	</node>
	<node lat="58.25716110879839" lon="7.943136109499374" id="-62788">
		<tag k="name" v="Tredje Låsmyr" />
		<tag k="natural" v="wetland" />
		<tag k="ssr:stedsnr" v="217501" />
	</node>
	<node lat="58.39326944789899" lon="7.68110000577415" id="-62790">
		<tag k="name" v="Lomtjønnmyr" />
		<tag k="natural" v="wetland" />
		<tag k="ssr:stedsnr" v="216023" />
	</node>
	<node lat="58.2811000039391" lon="7.8571472240289735" id="-62798">
		<tag k="name" v="Sirismyr" />
		<tag k="natural" v="wetland" />
		<tag k="ssr:stedsnr" v="216088" />
	</node>
	<node lat="58.34752499675804" lon="8.028169437698594" id="-62801">
		<tag k="name" v="Skjervedalsmyra" />
		<tag k="place" v="locality" />
		<tag k="ssr:stedsnr" v="216101" />
	</node>
	<node lat="58.326261113735335" lon="7.870433337515759" id="-62806">
		<tag k="name" v="Kartemyr" />
		<tag k="natural" v="wetland" />
		<tag k="ssr:stedsnr" v="216245" />
	</node>
	<node lat="58.2497444462776" lon="7.980661107302549" id="-62808">
		<tag k="name" v="Lyngmyr" />
		<tag k="natural" v="wetland" />
		<tag k="ssr:stedsnr" v="217436" />
	</node>
	<node lat="58.29141666278812" lon="7.883352783558455" id="-62811">
		<tag k="name" v="Slettåsmyr" />
		<tag k="natural" v="wetland" />
		<tag k="ssr:stedsnr" v="216055" />
	</node>
	<node lat="58.419916664455265" lon="7.746177774540726" id="-62818">
		<tag k="name" v="Dei lange myrane" />
		<tag k="natural" v="wetland" />
		<tag k="ssr:stedsnr" v="216125" />
	</node>
	<node lat="58.28263055851013" lon="7.922719444627858" id="-62819">
		<tag k="name" v="Breimyr" />
		<tag k="natural" v="wetland" />
		<tag k="ssr:stedsnr" v="216142" />
	</node>
	<node lat="58.28479722279943" lon="7.946113887246283" id="-62822">
		<tag k="name" v="Einerstekjerrane" />
		<tag k="place" v="locality" />
		<tag k="ssr:stedsnr" v="216158" />
	</node>
	<node lat="58.419236107475406" lon="7.768863885084685" id="-62823">
		<tag k="name" v="Rossemyr" />
		<tag k="natural" v="wetland" />
		<tag k="ssr:stedsnr" v="216161" />
	</node>
	<node lat="58.260722218515475" lon="7.763808331483146" id="-62832">
		<tag k="name" v="Kringlemyr" />
		<tag k="natural" v="wetland" />
		<tag k="ssr:stedsnr" v="216261" />
	</node>
	<node lat="58.39711944234646" lon="7.812158336864105" id="-62836">
		<tag k="name" v="Vaggesteinmyr" />
		<tag k="natural" v="wetland" />
		<tag k="ssr:stedsnr" v="216437" />
	</node>
	<node lat="58.3205194404258" lon="7.992541673859005" id="-62838">
		<tag k="name" v="Snømyr" />
		<tag k="natural" v="wetland" />
		<tag k="ssr:stedsnr" v="216463" />
	</node>
	<node lat="58.38599722431624" lon="7.68150277678015" id="-62848">
		<tag k="name" v="Jemyr" />
		<tag k="natural" v="wetland" />
		<tag k="ssr:stedsnr" v="216636" />
	</node>
	<node lat="58.31328332902195" lon="7.772130552646175" id="-62852">
		<tag k="name" v="Bakkan" />
		<tag k="place" v="locality" />
		<tag k="ssr:stedsnr" v="216651" />
	</node>
	<node lat="58.257166670898094" lon="7.819775004307475" id="-62856">
		<tag k="name" v="Krosskjerr" />
		<tag k="natural" v="wetland" />
		<tag k="ssr:stedsnr" v="216665" />
	</node>
	<node lat="58.43846111077733" lon="7.714011113355774" id="-62858">
		<tag k="name" v="Revura" />
		<tag k="natural" v="scree" />
		<tag k="ssr:stedsnr" v="216740" />
	</node>
	<node lat="58.44120000295707" lon="7.712555553603752" id="-62859">
		<tag k="name" v="Buveimyra" />
		<tag k="natural" v="wetland" />
		<tag k="ssr:stedsnr" v="216741" />
	</node>
	<node lat="58.44280833159173" lon="7.754700002233781" id="-62867">
		<tag k="name" v="Strandbergmyra" />
		<tag k="natural" v="wetland" />
		<tag k="ssr:stedsnr" v="216937" />
	</node>
	<node lat="58.35705277416508" lon="7.636897225283467" id="-62871">
		<tag k="name" v="Hæråsslåttan" />
		<tag k="natural" v="wetland" />
		<tag k="ssr:stedsnr" v="216953" />
	</node>
	<node lat="58.44252777955199" lon="7.801569441427888" id="-62874">
		<tag k="name" v="Dei lange myrane" />
		<tag k="natural" v="wetland" />
		<tag k="ssr:stedsnr" v="216894" />
	</node>
	<node lat="58.4110305586695" lon="7.683586107286334" id="-62877">
		<tag k="name" v="Flekemyrane" />
		<tag k="natural" v="wetland" />
		<tag k="ssr:stedsnr" v="216917" />
	</node>
	<node lat="58.23278610936498" lon="7.97801110500281" id="-62884">
		<tag k="name" v="Langemyr" />
		<tag k="natural" v="wetland" />
		<tag k="ssr:stedsnr" v="217245" />
	</node>
	<node lat="58.25593888844894" lon="7.991438882344224" id="-62885">
		<tag k="name" v="Snømyr" />
		<tag k="natural" v="wetland" />
		<tag k="ssr:stedsnr" v="217432" />
	</node>
	<node lat="58.28216111020833" lon="7.721038890449756" id="-62912">
		<tag k="name" v="Knudestean" />
		<tag k="natural" v="wetland" />
		<tag k="ssr:stedsnr" v="275934" />
	</node>
	<node lat="58.28087777957759" lon="7.873055560079557" id="-62913">
		<tag k="name" v="Storemyr" />
		<tag k="natural" v="wetland" />
		<tag k="ssr:stedsnr" v="276135" />
	</node>
	<node lat="58.26457222392266" lon="7.8863249932677455" id="-62922">
		<tag k="name" v="Grytemyr" />
		<tag k="natural" v="wetland" />
		<tag k="ssr:stedsnr" v="276265" />
	</node>
	<node lat="58.299030554320005" lon="8.053527783011889" id="-62937">
		<tag k="name" v="Fredriksmyr" />
		<tag k="natural" v="wetland" />
		<tag k="ssr:stedsnr" v="276995" />
	</node>
	<node lat="58.355599997949334" lon="7.846261107082705" id="-62942">
		<tag k="name" v="Tunballslåtta" />
		<tag k="natural" v="wetland" />
		<tag k="ssr:stedsnr" v="277171" />
	</node>
	<node lat="58.38539166930612" lon="7.853036109192454" id="-62944">
		<tag k="name" v="Kvernhuskjerret" />
		<tag k="natural" v="wetland" />
		<tag k="ssr:stedsnr" v="277580" />
	</node>
	<node lat="58.369788890570945" lon="7.866172221290514" id="-62953">
		<tag k="name" v="Okkomkjerr" />
		<tag k="natural" v="wetland" />
		<tag k="ssr:stedsnr" v="276944" />
	</node>
	<node lat="58.36683610721703" lon="7.847369448102889" id="-62955">
		<tag k="name" v="Murtetjønnsteane" />
		<tag k="natural" v="wetland" />
		<tag k="ssr:stedsnr" v="276946" />
	</node>
	<node lat="58.33426388737054" lon="8.015330562688906" id="-62960">
		<tag k="name" v="Tjæregrovmyra" />
		<tag k="natural" v="wetland" />
		<tag k="ssr:stedsnr" v="277032" />
	</node>
	<node lat="58.426219443853874" lon="7.760833330334514" id="-62963">
		<tag k="name" v="Orekjerret" />
		<tag k="natural" v="wetland" />
		<tag k="ssr:stedsnr" v="277153" />
	</node>
	<node lat="58.361444443110905" lon="7.850136109377805" id="-62964">
		<tag k="name" v="Langemyr" />
		<tag k="natural" v="wetland" />
		<tag k="ssr:stedsnr" v="277157" />
	</node>
	<node lat="58.22786111306456" lon="7.749219451835439" id="-62965">
		<tag k="name" v="Jordmyr" />
		<tag k="place" v="locality" />
		<tag k="ssr:stedsnr" v="277159" />
	</node>
	<node lat="58.360894440852036" lon="7.884891663180805" id="-62967">
		<tag k="name" v="Stemmyr" />
		<tag k="natural" v="wetland" />
		<tag k="ssr:stedsnr" v="277165" />
	</node>
	<node lat="58.32720278164143" lon="7.843811115797808" id="-62970">
		<tag k="name" v="Kartan" />
		<tag k="natural" v="wetland" />
		<tag k="ssr:stedsnr" v="277253" />
	</node>
	<node lat="58.36659722484069" lon="7.766794443066839" id="-62980">
		<tag k="name" v="Tørrgrovmyr" />
		<tag k="natural" v="wetland" />
		<tag k="ssr:stedsnr" v="277473" />
	</node>
	<node lat="58.33231944813534" lon="7.892091661811248" id="-62984">
		<tag k="name" v="Skaudreikjerr" />
		<tag k="natural" v="wetland" />
		<tag k="ssr:stedsnr" v="277271" />
	</node>
	<node lat="58.3340166630376" lon="7.810761113543093" id="-62987">
		<tag k="name" v="Kjerran" />
		<tag k="natural" v="wetland" />
		<tag k="ssr:stedsnr" v="277294" />
	</node>
	<node lat="58.380255556318765" lon="7.659344445645009" id="-62997">
		<tag k="name" v="Mosemyr" />
		<tag k="natural" v="wetland" />
		<tag k="ssr:stedsnr" v="277624" />
	</node>
	<node lat="58.43257777730996" lon="7.710305558612399" id="-63011">
		<tag k="name" v="Moltekarten" />
		<tag k="natural" v="wetland" />
		<tag k="ssr:stedsnr" v="277782" />
	</node>
	<node lat="58.35181944686192" lon="7.663841666460595" id="-63015">
		<tag k="name" v="Skreppestølmyr" />
		<tag k="natural" v="wetland" />
		<tag k="ssr:stedsnr" v="277993" />
	</node>
	<node lat="58.36118888991532" lon="7.706036107380568" id="-63017">
		<tag k="name" v="Timberslåtta" />
		<tag k="natural" v="wetland" />
		<tag k="ssr:stedsnr" v="277761" />
	</node>
	<node lat="58.299836114513546" lon="7.928752784834311" id="-63056">
		<tag k="name" v="Røyråsmyra" />
		<tag k="natural" v="wetland" />
		<tag k="ssr:stedsnr" v="337134" />
	</node>
	<node lat="58.35979722335852" lon="7.842849992785133" id="-63057">
		<tag k="name" v="Loneslåtta" />
		<tag k="natural" v="wetland" />
		<tag k="ssr:stedsnr" v="337259" />
	</node>
	<node lat="58.29640833521807" lon="7.803663880651326" id="-63058">
		<tag k="name" v="Torvmyra" />
		<tag k="natural" v="wetland" />
		<tag k="ssr:stedsnr" v="337268" />
	</node>
	<node lat="58.31620555677704" lon="7.855586118711331" id="-63078">
		<tag k="name" v="Loppemyr" />
		<tag k="natural" v="wetland" />
		<tag k="ssr:stedsnr" v="304083" />
	</node>
	<node lat="58.288436113429434" lon="7.7292388928607805" id="-63091">
		<tag k="name" v="Langemyr" />
		<tag k="natural" v="wetland" />
		<tag k="ssr:stedsnr" v="336936" />
	</node>
	<node lat="58.39686666952664" lon="7.682105560130717" id="-63092">
		<tag k="name" v="Storemyr" />
		<tag k="natural" v="wetland" />
		<tag k="ssr:stedsnr" v="337025" />
	</node>
	<node lat="58.28531944263846" lon="7.901800007059137" id="-63101">
		<tag k="name" v="Svillåsmyr" />
		<tag k="natural" v="wetland" />
		<tag k="ssr:stedsnr" v="337161" />
	</node>
	<node lat="58.345377775921335" lon="7.988422226515746" id="-63103">
		<tag k="name" v="Stremyr" />
		<tag k="natural" v="wetland" />
		<tag k="ssr:stedsnr" v="337179" />
	</node>
	<node lat="58.42615832972319" lon="7.781833333737183" id="-63104">
		<tag k="name" v="Driftestea" />
		<tag k="natural" v="wetland" />
		<tag k="ssr:stedsnr" v="337183" />
	</node>
	<node lat="58.39766388513736" lon="7.787761110179988" id="-63118">
		<tag k="name" v="Trollskillingsmyr" />
		<tag k="natural" v="wetland" />
		<tag k="ssr:stedsnr" v="337468" />
	</node>
	<node lat="58.25951944136895" lon="7.808155555553153" id="-63119">
		<tag k="name" v="Stemmyran" />
		<tag k="natural" v="wetland" />
		<tag k="ssr:stedsnr" v="337477" />
	</node>
	<node lat="58.304986110509766" lon="7.925016669528227" id="-63121">
		<tag k="name" v="Grådarmyra" />
		<tag k="natural" v="wetland" />
		<tag k="ssr:stedsnr" v="337568" />
	</node>
	<node lat="58.38591944625662" lon="7.7117805599457565" id="-63127">
		<tag k="name" v="Bjørkeholtet" />
		<tag k="place" v="locality" />
		<tag k="ssr:stedsnr" v="337677" />
	</node>
	<node lat="58.305338890734234" lon="7.7373194363373345" id="-63128">
		<tag k="name" v="Byttingsmyr" />
		<tag k="natural" v="wetland" />
		<tag k="ssr:stedsnr" v="337679" />
	</node>
	<node lat="58.31070277746988" lon="7.855050007649821" id="-63134">
		<tag k="name" v="Hesteste" />
		<tag k="natural" v="wetland" />
		<tag k="ssr:stedsnr" v="337635" />
	</node>
	<node lat="58.27459166847354" lon="7.7138861040249225" id="-63144">
		<tag k="name" v="Knutesteane" />
		<tag k="natural" v="wetland" />
		<tag k="ssr:stedsnr" v="337687" />
	</node>
	<node lat="58.29553055882717" lon="8.034155548980172" id="-63151">
		<tag k="name" v="Karten" />
		<tag k="natural" v="wetland" />
		<tag k="ssr:stedsnr" v="337882" />
	</node>
	<node lat="58.434252781889434" lon="7.747697224508784" id="-63152">
		<tag k="name" v="Porskjerret" />
		<tag k="natural" v="wetland" />
		<tag k="ssr:stedsnr" v="337961" />
	</node>
	<node lat="58.44805278105737" lon="7.782827783290504" id="-63156">
		<tag k="name" v="Instreslåtta" />
		<tag k="natural" v="wetland" />
		<tag k="ssr:stedsnr" v="337978" />
	</node>
	<node lat="58.35169999560558" lon="7.652194442285752" id="-63157">
		<tag k="name" v="Mauråsmyra" />
		<tag k="natural" v="wetland" />
		<tag k="ssr:stedsnr" v="337983" />
	</node>
	<node lat="58.22528055701464" lon="7.964755550303681" id="-63195">
		<tag k="name" v="Laumyr" />
		<tag k="natural" v="wetland" />
		<tag k="ssr:stedsnr" v="350987" />
	</node>
	<node lat="58.30008333225442" lon="7.848830552776516" id="-63206">
		<tag k="name" v="Hellermyra" />
		<tag k="natural" v="wetland" />
		<tag k="ssr:stedsnr" v="397058" />
	</node>
	<node lat="58.30024444347764" lon="7.942066669064308" id="-63209">
		<tag k="name" v="Tjønnmyr" />
		<tag k="natural" v="wetland" />
		<tag k="ssr:stedsnr" v="397160" />
	</node>
	<node lat="58.25981944597379" lon="7.878213882952484" id="-63210">
		<tag k="name" v="Storrmyr" />
		<tag k="natural" v="wetland" />
		<tag k="ssr:stedsnr" v="397238" />
	</node>
	<node lat="58.30150000031069" lon="7.789747225279808" id="-63219">
		<tag k="name" v="Tuptan" />
		<tag k="place" v="locality" />
		<tag k="ssr:stedsnr" v="397645" />
	</node>
	<node lat="58.4226055545352" lon="7.75288889428507" id="-63226">
		<tag k="name" v="Brulimyr" />
		<tag k="natural" v="wetland" />
		<tag k="ssr:stedsnr" v="398120" />
	</node>
	<node lat="58.34880555255007" lon="8.037344445962795" id="-63228">
		<tag k="name" v="Bjønndalsmyra" />
		<tag k="natural" v="wetland" />
		<tag k="ssr:stedsnr" v="398124" />
	</node>
	<node lat="58.362038893223456" lon="8.0236333321658" id="-63229">
		<tag k="name" v="Tjæregrovmyra" />
		<tag k="natural" v="wetland" />
		<tag k="ssr:stedsnr" v="398180" />
	</node>
	<node lat="58.331327775695826" lon="7.790594445239043" id="-63237">
		<tag k="name" v="Åmdalskjerr" />
		<tag k="natural" v="wetland" />
		<tag k="ssr:stedsnr" v="398290" />
	</node>
	<node lat="58.4025999975312" lon="7.778083335677647" id="-63238">
		<tag k="name" v="Moltekarten" />
		<tag k="natural" v="wetland" />
		<tag k="ssr:stedsnr" v="398069" />
	</node>
	<node lat="58.41746666390893" lon="7.7376305598746145" id="-63239">
		<tag k="name" v="Røsepungen" />
		<tag k="natural" v="wetland" />
		<tag k="ssr:stedsnr" v="398138" />
	</node>
	<node lat="58.23430555184669" lon="7.982113893341412" id="-63241">
		<tag k="name" v="Linvannsheislåtta" />
		<tag k="natural" v="wetland" />
		<tag k="ssr:stedsnr" v="398229" />
	</node>
	<node lat="58.297244448407746" lon="7.788352774182358" id="-63244">
		<tag k="name" v="Øygardsmyr" />
		<tag k="natural" v="wetland" />
		<tag k="ssr:stedsnr" v="398248" />
	</node>
	<node lat="58.34226944104482" lon="7.70361666457131" id="-63255">
		<tag k="name" v="Kartane" />
		<tag k="natural" v="wetland" />
		<tag k="ssr:stedsnr" v="398370" />
	</node>
	<node lat="58.36886388688793" lon="7.823672220462818" id="-63258">
		<tag k="name" v="Blautekjerrane" />
		<tag k="natural" v="wetland" />
		<tag k="ssr:stedsnr" v="398542" />
	</node>
	<node lat="58.367638887620835" lon="7.820616663866967" id="-63259">
		<tag k="name" v="Bjønneskjeggmyr" />
		<tag k="natural" v="wetland" />
		<tag k="ssr:stedsnr" v="398546" />
	</node>
	<node lat="58.30769444615258" lon="7.9549694382640315" id="-63261">
		<tag k="name" v="Kråkemyr" />
		<tag k="natural" v="wetland" />
		<tag k="ssr:stedsnr" v="398556" />
	</node>
	<node lat="58.24722500181177" lon="7.7294583403780734" id="-63264">
		<tag k="name" v="Suvalsmyr" />
		<tag k="natural" v="wetland" />
		<tag k="ssr:stedsnr" v="398494" />
	</node>
	<node lat="58.374886113887825" lon="7.695311111638557" id="-63269">
		<tag k="name" v="Loneholtet" />
		<tag k="place" v="locality" />
		<tag k="ssr:stedsnr" v="398656" />
	</node>
	<node lat="58.29421666842207" lon="7.858877779891472" id="-63344">
		<tag k="name" v="Lillemyr" />
		<tag k="natural" v="wetland" />
		<tag k="ssr:stedsnr" v="519087" />
	</node>
	<node lat="58.29265277593109" lon="7.8585611084256115" id="-63345">
		<tag k="name" v="Myra" />
		<tag k="natural" v="wetland" />
		<tag k="ssr:stedsnr" v="519088" />
	</node>
	<node lat="58.33514722254762" lon="8.042636112783361" id="-63347">
		<tag k="name" v="Rundemyr" />
		<tag k="natural" v="wetland" />
		<tag k="ssr:stedsnr" v="519096" />
	</node>
	<node lat="58.28713889114298" lon="7.8519083416460385" id="-63348">
		<tag k="name" v="Bukleivmyr" />
		<tag k="natural" v="wetland" />
		<tag k="ssr:stedsnr" v="519098" />
	</node>
	<node lat="58.289283333868894" lon="7.963941667354793" id="-63350">
		<tag k="name" v="Erikstykket" />
		<tag k="place" v="locality" />
		<tag k="ssr:stedsnr" v="519191" />
	</node>
	<node lat="58.28885277497191" lon="7.958355553252614" id="-63351">
		<tag k="name" v="Vollan" />
		<tag k="place" v="locality" />
		<tag k="ssr:stedsnr" v="519193" />
	</node>
	<node lat="58.360261111351534" lon="8.02766388237954" id="-63352">
		<tag k="name" v="Orremyr" />
		<tag k="natural" v="wetland" />
		<tag k="ssr:stedsnr" v="519195" />
	</node>
	<node lat="58.39100277893084" lon="7.815266666070785" id="-63358">
		<tag k="name" v="Poddetjønnholtane" />
		<tag k="place" v="locality" />
		<tag k="ssr:stedsnr" v="519490" />
	</node>
	<node lat="58.39373610787024" lon="7.820472224963294" id="-63359">
		<tag k="name" v="Langemyr" />
		<tag k="natural" v="wetland" />
		<tag k="ssr:stedsnr" v="519499" />
	</node>
	<node lat="58.30278889131936" lon="7.989924994405787" id="-63361">
		<tag k="name" v="Fidjeåsmyra" />
		<tag k="natural" v="wetland" />
		<tag k="ssr:stedsnr" v="519501" />
	</node>
	<node lat="58.30100833062141" lon="7.934500002093933" id="-63364">
		<tag k="name" v="Rosteane" />
		<tag k="natural" v="wetland" />
		<tag k="ssr:stedsnr" v="519142" />
	</node>
	<node lat="58.42078888521942" lon="7.73255554769135" id="-63366">
		<tag k="name" v="Storemyr" />
		<tag k="natural" v="wetland" />
		<tag k="ssr:stedsnr" v="519152" />
	</node>
	<node lat="58.42011111069994" lon="7.729863887602032" id="-63367">
		<tag k="name" v="Lunnan" />
		<tag k="place" v="locality" />
		<tag k="ssr:stedsnr" v="519158" />
	</node>
	<node lat="58.26966666615133" lon="7.864750002430207" id="-63368">
		<tag k="name" v="Klovsteinsmyr" />
		<tag k="natural" v="wetland" />
		<tag k="ssr:stedsnr" v="519227" />
	</node>
	<node lat="58.260569444994346" lon="7.7157888866315245" id="-63375">
		<tag k="name" v="Skogkjerrane" />
		<tag k="natural" v="wetland" />
		<tag k="ssr:stedsnr" v="519329" />
	</node>
	<node lat="58.38937500224727" lon="7.8852722278340694" id="-63377">
		<tag k="name" v="Mørkekjerr" />
		<tag k="natural" v="wetland" />
		<tag k="ssr:stedsnr" v="519334" />
	</node>
	<node lat="58.32379999866152" lon="7.795463881015301" id="-63380">
		<tag k="name" v="Trollkjerr" />
		<tag k="natural" v="wetland" />
		<tag k="ssr:stedsnr" v="519351" />
	</node>
	<node lat="58.39680833738367" lon="7.72855556383552" id="-63383">
		<tag k="name" v="Blekkhusmyr" />
		<tag k="natural" v="wetland" />
		<tag k="ssr:stedsnr" v="519432" />
	</node>
	<node lat="58.385155556341104" lon="7.805224997663094" id="-63389">
		<tag k="name" v="Porsmyr" />
		<tag k="natural" v="wetland" />
		<tag k="ssr:stedsnr" v="519544" />
	</node>
	<node lat="58.44788888470156" lon="7.72816388584948" id="-63392">
		<tag k="name" v="Storemyr" />
		<tag k="natural" v="wetland" />
		<tag k="ssr:stedsnr" v="519784" />
	</node>
	<node lat="58.448130554011584" lon="7.75100555663518" id="-63396">
		<tag k="name" v="Midtslåtta" />
		<tag k="natural" v="wetland" />
		<tag k="ssr:stedsnr" v="519795" />
	</node>
	<node lat="58.238011111849204" lon="7.755863888723538" id="-63404">
		<tag k="name" v="Myra" />
		<tag k="natural" v="wetland" />
		<tag k="ssr:stedsnr" v="519733" />
	</node>
	<node lat="58.29309999950832" lon="8.004238880478162" id="-63408">
		<tag k="name" v="Honnemyr" />
		<tag k="natural" v="wetland" />
		<tag k="ssr:stedsnr" v="519746" />
	</node>
	<node lat="58.35953333169307" lon="7.776416671397921" id="-63411">
		<tag k="name" v="Langemyr" />
		<tag k="natural" v="wetland" />
		<tag k="ssr:stedsnr" v="519841" />
	</node>
	<node lat="58.41723611541422" lon="7.673811109248021" id="-63414">
		<tag k="name" v="Stigedalsmyr" />
		<tag k="natural" v="wetland" />
		<tag k="ssr:stedsnr" v="519925" />
	</node>
	<node lat="58.26199166801883" lon="7.9431777789026174" id="-63416">
		<tag k="name" v="Karten" />
		<tag k="natural" v="wetland" />
		<tag k="ssr:stedsnr" v="519932" />
	</node>
	<node lat="58.29680555466365" lon="7.944699996035382" id="-63464">
		<tag k="name" v="Treskokjerrane" />
		<tag k="natural" v="wetland" />
		<tag k="ssr:stedsnr" v="579138" />
	</node>
	<node lat="58.33771944487577" lon="8.012102771973181" id="-63465">
		<tag k="name" v="Ringkjelmyr" />
		<tag k="natural" v="wetland" />
		<tag k="ssr:stedsnr" v="579077" />
	</node>
	<node lat="58.262436109898125" lon="7.7565722205502885" id="-63468">
		<tag k="name" v="Langemyr" />
		<tag k="natural" v="wetland" />
		<tag k="ssr:stedsnr" v="579270" />
	</node>
	<node lat="58.26508888861322" lon="7.8067861172919955" id="-63475">
		<tag k="name" v="Kvennhusmyra" />
		<tag k="place" v="locality" />
		<tag k="ssr:stedsnr" v="579564" />
	</node>
	<node lat="58.38021111222968" lon="7.710352771398186" id="-63477">
		<tag k="name" v="Torsmyr" />
		<tag k="natural" v="wetland" />
		<tag k="ssr:stedsnr" v="580656" />
	</node>
	<node lat="58.26922222379081" lon="7.732902771987443" id="-63479">
		<tag k="name" v="Øygenesane" />
		<tag k="place" v="locality" />
		<tag k="ssr:stedsnr" v="579284" />
	</node>
	<node lat="58.28130000119715" lon="8.00910276922478" id="-63486">
		<tag k="name" v="Runsekjerr" />
		<tag k="natural" v="wetland" />
		<tag k="ssr:stedsnr" v="579725" />
	</node>
	<node lat="58.285780558329954" lon="8.006208332667024" id="-63491">
		<tag k="name" v="Slettåskjerrane" />
		<tag k="natural" v="wetland" />
		<tag k="ssr:stedsnr" v="579769" />
	</node>
	<node lat="58.30037222657813" lon="7.777691666065773" id="-63493">
		<tag k="name" v="Kloppemyr" />
		<tag k="natural" v="wetland" />
		<tag k="ssr:stedsnr" v="579778" />
	</node>
	<node lat="58.366186107398086" lon="7.8548638932052794" id="-63497">
		<tag k="name" v="Myglandskjerrane" />
		<tag k="natural" v="wetland" />
		<tag k="ssr:stedsnr" v="579931" />
	</node>
	<node lat="58.35192221887438" lon="8.034291665342003" id="-63499">
		<tag k="name" v="Kynningsmyr" />
		<tag k="natural" v="wetland" />
		<tag k="ssr:stedsnr" v="580115" />
	</node>
	<node lat="58.41866388484383" lon="7.7437194438920915" id="-63500">
		<tag k="name" v="Elgspranget" />
		<tag k="natural" v="wetland" />
		<tag k="ssr:stedsnr" v="580127" />
	</node>
	<node lat="58.286080554903265" lon="8.019197215710454" id="-63502">
		<tag k="name" v="Hagen" />
		<tag k="place" v="locality" />
		<tag k="ssr:stedsnr" v="579980" />
	</node>
	<node lat="58.22269444175939" lon="7.766858334134131" id="-63510">
		<tag k="name" v="Slåttemyra" />
		<tag k="natural" v="wetland" />
		<tag k="ssr:stedsnr" v="580171" />
	</node>
	<node lat="58.223897222583126" lon="7.770377770415008" id="-63511">
		<tag k="name" v="Briskehola" />
		<tag k="natural" v="wetland" />
		<tag k="ssr:stedsnr" v="580172" />
	</node>
	<node lat="58.40968333264822" lon="7.794947223531871" id="-63514">
		<tag k="name" v="17. mai-kjerret" />
		<tag k="natural" v="wetland" />
		<tag k="ssr:stedsnr" v="580186" />
	</node>
	<node lat="58.39665555464436" lon="7.7894888972888285" id="-63519">
		<tag k="name" v="Røysmyr" />
		<tag k="natural" v="wetland" />
		<tag k="ssr:stedsnr" v="580399" />
	</node>
	<node lat="58.317875002665055" lon="8.017825006646683" id="-63523">
		<tag k="name" v="Hestehagmyra" />
		<tag k="natural" v="wetland" />
		<tag k="ssr:stedsnr" v="580426" />
	</node>
	<node lat="58.392244440534064" lon="7.838927779264483" id="-63526">
		<tag k="name" v="Barlønmyr" />
		<tag k="natural" v="wetland" />
		<tag k="ssr:stedsnr" v="580261" />
	</node>
	<node lat="58.39752499694292" lon="7.751372216917458" id="-63532">
		<tag k="name" v="Fyresmyr" />
		<tag k="natural" v="wetland" />
		<tag k="ssr:stedsnr" v="580352" />
	</node>
	<node lat="58.25161944115478" lon="7.960983330628065" id="-63533">
		<tag k="name" v="Kvivollen" />
		<tag k="place" v="locality" />
		<tag k="ssr:stedsnr" v="580380" />
	</node>
	<node lat="58.366777774488014" lon="7.75744443866328" id="-63534">
		<tag k="name" v="Skrapslåtta" />
		<tag k="natural" v="wetland" />
		<tag k="ssr:stedsnr" v="580459" />
	</node>
	<node lat="58.32220000156438" lon="7.791036118694228" id="-63547">
		<tag k="name" v="Langemyr" />
		<tag k="natural" v="wetland" />
		<tag k="ssr:stedsnr" v="580679" />
	</node>
	<node lat="58.31866944631158" lon="7.792341671392449" id="-63548">
		<tag k="name" v="Reveknatten" />
		<tag k="natural" v="wetland" />
		<tag k="ssr:stedsnr" v="580683" />
	</node>
	<node lat="58.376375002547164" lon="7.881099996647035" id="-63553">
		<tag k="name" v="Langelandskjerrane" />
		<tag k="natural" v="wetland" />
		<tag k="ssr:stedsnr" v="580874" />
	</node>
	<node lat="58.35140000004365" lon="7.656333327316936" id="-63559">
		<tag k="name" v="Toraslåtta" />
		<tag k="natural" v="wetland" />
		<tag k="ssr:stedsnr" v="580976" />
	</node>
	<node lat="58.39520555135125" lon="7.771250004735033" id="-63608">
		<tag k="name" v="Bjørnehiet" />
		<tag k="natural" v="scree" />
		<tag k="ssr:stedsnr" v="640076" />
	</node>
	<node lat="58.3356444488741" lon="8.00871111598513" id="-63609">
		<tag k="name" v="Fænemyr" />
		<tag k="natural" v="wetland" />
		<tag k="ssr:stedsnr" v="640077" />
	</node>
	<node lat="58.397716667573015" lon="7.772505549787184" id="-63612">
		<tag k="name" v="Fjerdingskjerret" />
		<tag k="natural" v="wetland" />
		<tag k="ssr:stedsnr" v="640086" />
	</node>
	<node lat="58.41800555389303" lon="7.741213886073326" id="-63622">
		<tag k="name" v="Kistesteinen" />
		<tag k="natural" v="stone" />
		<tag k="ssr:stedsnr" v="640147" />
	</node>
	<node lat="58.29680555284168" lon="7.936994437963252" id="-63623">
		<tag k="name" v="Velldalen" />
		<tag k="natural" v="wetland" />
		<tag k="ssr:stedsnr" v="640152" />
	</node>
	<node lat="58.41610277432338" lon="7.753861115941587" id="-63624">
		<tag k="name" v="Med lona" />
		<tag k="natural" v="wetland" />
		<tag k="ssr:stedsnr" v="640153" />
	</node>
	<node lat="58.37140555450138" lon="8.03783888323631" id="-63628">
		<tag k="name" v="Blåmyr" />
		<tag k="natural" v="wetland" />
		<tag k="ssr:stedsnr" v="640168" />
	</node>
	<node lat="58.44582778053285" lon="7.760980556628918" id="-63629">
		<tag k="name" v="Lunneslåtta" />
		<tag k="natural" v="wetland" />
		<tag k="ssr:stedsnr" v="640798" />
	</node>
	<node lat="58.39293055500392" lon="7.671975005967268" id="-63636">
		<tag k="name" v="Torkelsmyr" />
		<tag k="natural" v="wetland" />
		<tag k="ssr:stedsnr" v="640262" />
	</node>
	<node lat="58.37530833246856" lon="7.829536104655366" id="-63665">
		<tag k="name" v="Knutsmyr" />
		<tag k="natural" v="wetland" />
		<tag k="ssr:stedsnr" v="640582" />
	</node>
	<node lat="58.37708889009425" lon="7.666536118599381" id="-63671">
		<tag k="name" v="Eikåsmyra" />
		<tag k="natural" v="wetland" />
		<tag k="ssr:stedsnr" v="640670" />
	</node>
	<node lat="58.36412778117875" lon="7.770152774183035" id="-63684">
		<tag k="name" v="Småsteane" />
		<tag k="natural" v="wetland" />
		<tag k="ssr:stedsnr" v="640832" />
	</node>
	<node lat="58.25462778049502" lon="7.742386115502609" id="-63685">
		<tag k="name" v="Geitekjerrane" />
		<tag k="natural" v="wetland" />
		<tag k="ssr:stedsnr" v="640554" />
	</node>
	<node lat="58.382763884591" lon="7.786922230061729" id="-63689">
		<tag k="name" v="Hagane" />
		<tag k="natural" v="wetland" />
		<tag k="ssr:stedsnr" v="640564" />
	</node>
	<node lat="58.37138055984568" lon="7.6830750028470485" id="-63691">
		<tag k="name" v="Grønemyr" />
		<tag k="natural" v="wetland" />
		<tag k="ssr:stedsnr" v="640697" />
	</node>
	<node lat="58.434786107724086" lon="7.804899992950803" id="-63695">
		<tag k="name" v="Den runde myra" />
		<tag k="natural" v="wetland" />
		<tag k="ssr:stedsnr" v="640899" />
	</node>
	<node lat="58.344824997830116" lon="7.735669450017952" id="-63703">
		<tag k="name" v="Kileslåtta" />
		<tag k="natural" v="wetland" />
		<tag k="ssr:stedsnr" v="640872" />
	</node>
	<node lat="58.30825555158933" lon="8.006938896624364" id="-63706">
		<tag k="name" v="Kleivemyr" />
		<tag k="natural" v="wetland" />
		<tag k="ssr:stedsnr" v="640940" />
	</node>
	<node lat="58.36855833220163" lon="7.897802780804645" id="-63708">
		<tag k="name" v="Dyblemyr" />
		<tag k="natural" v="wetland" />
		<tag k="ssr:stedsnr" v="640955" />
	</node>
	<node lat="58.25769444815" lon="7.817400000488528" id="-63715">
		<tag k="name" v="Langemyr" />
		<tag k="natural" v="wetland" />
		<tag k="ssr:stedsnr" v="641664" />
	</node>
	<node lat="58.370802778631656" lon="7.66606666230982" id="-63771">
		<tag k="name" v="Stilletidkarten" />
		<tag k="natural" v="wetland" />
		<tag k="ssr:stedsnr" v="715070" />
	</node>
	<node lat="58.33748888543106" lon="8.013794452363088" id="-63784">
		<tag k="name" v="Steinmyra" />
		<tag k="natural" v="wetland" />
		<tag k="ssr:stedsnr" v="761090" />
	</node>
	<node lat="58.37040833342254" lon="7.875325003840407" id="-63792">
		<tag k="name" v="Fænkjerret" />
		<tag k="natural" v="wetland" />
		<tag k="ssr:stedsnr" v="761932" />
	</node>
	<node lat="58.343349999665236" lon="8.025208340959603" id="-63796">
		<tag k="name" v="Brunste" />
		<tag k="natural" v="wetland" />
		<tag k="ssr:stedsnr" v="762077" />
	</node>
	<node lat="58.39346111424271" lon="7.676872219690194" id="-63797">
		<tag k="name" v="Torkelsmyr" />
		<tag k="natural" v="wetland" />
		<tag k="ssr:stedsnr" v="762024" />
	</node>
	<node lat="58.39716389012567" lon="7.723075002403245" id="-63799">
		<tag k="name" v="Storemyr" />
		<tag k="natural" v="wetland" />
		<tag k="ssr:stedsnr" v="762039" />
	</node>
	<node lat="58.35991666411766" lon="8.042530556800893" id="-63802">
		<tag k="name" v="Tverrdalsmyra" />
		<tag k="natural" v="wetland" />
		<tag k="ssr:stedsnr" v="762130" />
	</node>
	<node lat="58.33081666617867" lon="7.742602775817672" id="-63814">
		<tag k="name" v="Kringleåsmyrane" />
		<tag k="natural" v="wetland" />
		<tag k="ssr:stedsnr" v="762330" />
	</node>
	<node lat="58.42718055595591" lon="7.735894450477976" id="-63819">
		<tag k="name" v="Finnemyr" />
		<tag k="natural" v="wetland" />
		<tag k="ssr:stedsnr" v="762153" />
	</node>
	<node lat="58.40999999763137" lon="7.703877772111495" id="-63820">
		<tag k="name" v="Langesteinen" />
		<tag k="natural" v="stone" />
		<tag k="ssr:stedsnr" v="762163" />
	</node>
	<node lat="58.42717777884956" lon="7.754980552036296" id="-63821">
		<tag k="name" v="Grosmyr" />
		<tag k="natural" v="wetland" />
		<tag k="ssr:stedsnr" v="762177" />
	</node>
	<node lat="58.32730555235228" lon="7.849272216230505" id="-63827">
		<tag k="name" v="Tjørgrevmyr" />
		<tag k="natural" v="wetland" />
		<tag k="ssr:stedsnr" v="762261" />
	</node>
	<node lat="58.393394443939435" lon="7.824580550657515" id="-63835">
		<tag k="name" v="Nygårdsholtane" />
		<tag k="place" v="locality" />
		<tag k="ssr:stedsnr" v="762435" />
	</node>
	<node lat="58.394927779622385" lon="7.755011117420963" id="-63843">
		<tag k="name" v="Torvstrømyra" />
		<tag k="natural" v="wetland" />
		<tag k="ssr:stedsnr" v="762378" />
	</node>
	<node lat="58.253105551646414" lon="7.73471388521771" id="-63849">
		<tag k="name" v="Geitemyr" />
		<tag k="natural" v="wetland" />
		<tag k="ssr:stedsnr" v="762488" />
	</node>
	<node lat="58.30393610813882" lon="7.8139111147812645" id="-63851">
		<tag k="name" v="Hellarkjerrholtan" />
		<tag k="place" v="locality" />
		<tag k="ssr:stedsnr" v="762576" />
	</node>
	<node lat="58.37268055317281" lon="7.831969452369" id="-63854">
		<tag k="name" v="Harelabbmyr" />
		<tag k="natural" v="wetland" />
		<tag k="ssr:stedsnr" v="762528" />
	</node>
	<node lat="58.235952782062824" lon="7.977294449018132" id="-63855">
		<tag k="name" v="Sprettmyr" />
		<tag k="natural" v="wetland" />
		<tag k="ssr:stedsnr" v="763265" />
	</node>
	<node lat="58.43971110935413" lon="7.726433334001877" id="-63860">
		<tag k="name" v="Runnemyr" />
		<tag k="natural" v="wetland" />
		<tag k="ssr:stedsnr" v="762760" />
	</node>
	<node lat="58.27068333695246" lon="7.992636103496524" id="-63868">
		<tag k="name" v="Stølemyr" />
		<tag k="natural" v="wetland" />
		<tag k="ssr:stedsnr" v="762879" />
	</node>
	<node lat="58.42355833364847" lon="7.669455558673559" id="-63870">
		<tag k="name" v="Grønemyr" />
		<tag k="natural" v="wetland" />
		<tag k="ssr:stedsnr" v="762886" />
	</node>
	<node lat="58.43037777916433" lon="7.739241662985743" id="-63872">
		<tag k="name" v="Djupemyr" />
		<tag k="natural" v="wetland" />
		<tag k="ssr:stedsnr" v="762960" />
	</node>
	<node lat="58.42021944416046" lon="7.6743833395106575" id="-63876">
		<tag k="name" v="Botnemyra" />
		<tag k="natural" v="wetland" />
		<tag k="ssr:stedsnr" v="762917" />
	</node>
	<node lat="58.352283331400216" lon="7.659972222442387" id="-63883">
		<tag k="name" v="Ospelundholtet" />
		<tag k="place" v="locality" />
		<tag k="ssr:stedsnr" v="762994" />
	</node>
	<node lat="58.23264722384108" lon="7.947544446516875" id="-63933">
		<tag k="name" v="Storedalsmyra" />
		<tag k="natural" v="wetland" />
		<tag k="ssr:stedsnr" v="823387" />
	</node>
	<node lat="58.2773611084453" lon="8.02189444104715" id="-63939">
		<tag k="name" v="Kringlemyr" />
		<tag k="natural" v="wetland" />
		<tag k="ssr:stedsnr" v="823489" />
	</node>
	<node lat="58.31495277993123" lon="7.796500002166062" id="-63946">
		<tag k="name" v="Revemyr" />
		<tag k="natural" v="wetland" />
		<tag k="ssr:stedsnr" v="822738" />
	</node>
	<node lat="58.29925555262426" lon="7.949633338428056" id="-63949">
		<tag k="name" v="Krokmyr" />
		<tag k="natural" v="wetland" />
		<tag k="ssr:stedsnr" v="822197" />
	</node>
	<node lat="58.333805557671035" lon="7.794444449569337" id="-63956">
		<tag k="name" v="Eljemyr" />
		<tag k="natural" v="wetland" />
		<tag k="ssr:stedsnr" v="823284" />
	</node>
	<node lat="58.39098889093316" lon="7.784916665441751" id="-63962">
		<tag k="name" v="Røysmyr" />
		<tag k="natural" v="wetland" />
		<tag k="ssr:stedsnr" v="823434" />
	</node>
	<node lat="58.3912361081857" lon="7.823847228997011" id="-63966">
		<tag k="name" v="Nygårdsmyrane" />
		<tag k="natural" v="wetland" />
		<tag k="ssr:stedsnr" v="823447" />
	</node>
	<node lat="58.25321666364502" lon="7.7788250035393505" id="-63967">
		<tag k="name" v="Krokmyr" />
		<tag k="natural" v="wetland" />
		<tag k="ssr:stedsnr" v="823459" />
	</node>
	<node lat="58.292911109685505" lon="7.856016667405617" id="-63969">
		<tag k="name" v="Dybemyr" />
		<tag k="natural" v="wetland" />
		<tag k="ssr:stedsnr" v="823049" />
	</node>
	<node lat="58.374075003294855" lon="7.841313894176735" id="-63972">
		<tag k="name" v="Røyekjerret" />
		<tag k="natural" v="wetland" />
		<tag k="ssr:stedsnr" v="822946" />
	</node>
	<node lat="58.3997749977315" lon="7.819572215547319" id="-63985">
		<tag k="name" v="Holebekkmyr" />
		<tag k="natural" v="wetland" />
		<tag k="ssr:stedsnr" v="823332" />
	</node>
	<node lat="58.34921388569319" lon="7.99777221735986" id="-63986">
		<tag k="name" v="Blåmyr" />
		<tag k="natural" v="wetland" />
		<tag k="ssr:stedsnr" v="823149" />
	</node>
	<node lat="58.30147500414928" lon="8.037797218027974" id="-63988">
		<tag k="name" v="Storemyr" />
		<tag k="natural" v="wetland" />
		<tag k="ssr:stedsnr" v="823851" />
	</node>
	<node lat="58.31464721930834" lon="8.041402778683091" id="-63993">
		<tag k="name" v="Kringlemyr" />
		<tag k="natural" v="wetland" />
		<tag k="ssr:stedsnr" v="823944" />
	</node>
	<node lat="58.38083055961999" lon="7.900094449783607" id="-63994">
		<tag k="name" v="Geitekjerr" />
		<tag k="natural" v="wetland" />
		<tag k="ssr:stedsnr" v="823948" />
	</node>
	<node lat="58.37910555974605" lon="7.897383338791933" id="-63996">
		<tag k="name" v="Karten" />
		<tag k="natural" v="wetland" />
		<tag k="ssr:stedsnr" v="823955" />
	</node>
	<node lat="58.33654999867718" lon="7.765358330684392" id="-63999">
		<tag k="name" v="Moltemyr" />
		<tag k="natural" v="wetland" />
		<tag k="ssr:stedsnr" v="823341" />
	</node>
	<node lat="58.407444448469484" lon="7.794524996844022" id="-64001">
		<tag k="name" v="Holekjerr" />
		<tag k="natural" v="wetland" />
		<tag k="ssr:stedsnr" v="823362" />
	</node>
	<node lat="58.372458333880594" lon="7.836963891738206" id="-64006">
		<tag k="name" v="Rundemyr" />
		<tag k="natural" v="wetland" />
		<tag k="ssr:stedsnr" v="823530" />
	</node>
	<node lat="58.417880551306055" lon="7.693013893919302" id="-64018">
		<tag k="name" v="Fiskvannsmyr" />
		<tag k="natural" v="wetland" />
		<tag k="ssr:stedsnr" v="823896" />
	</node>
	<node lat="58.379883337056384" lon="7.746305561735201" id="-64024">
		<tag k="name" v="Bøykarholtane" />
		<tag k="place" v="locality" />
		<tag k="ssr:stedsnr" v="823696" />
	</node>
	<node lat="58.382858334475245" lon="7.780133338366709" id="-64027">
		<tag k="name" v="Bumyr" />
		<tag k="natural" v="wetland" />
		<tag k="ssr:stedsnr" v="823701" />
	</node>
	<node lat="58.37318888452243" lon="7.867763889192208" id="-64033">
		<tag k="name" v="Moltemyr" />
		<tag k="natural" v="wetland" />
		<tag k="ssr:stedsnr" v="823892" />
	</node>
	<node lat="58.44446388933402" lon="7.777616663677561" id="-64036">
		<tag k="name" v="Finnestean" />
		<tag k="natural" v="wetland" />
		<tag k="ssr:stedsnr" v="823754" />
	</node>
	<node lat="58.263286110964955" lon="7.930622226973046" id="-64042">
		<tag k="name" v="Hellingsbrokkstø" />
		<tag k="natural" v="wetland" />
		<tag k="ssr:stedsnr" v="823898" />
	</node>
	<node lat="58.37806388848981" lon="7.876972217375091" id="-64045">
		<tag k="name" v="Polmannskjerret" />
		<tag k="natural" v="wetland" />
		<tag k="ssr:stedsnr" v="823903" />
	</node>
	<node lat="58.3771527797684" lon="7.873619442191034" id="-64046">
		<tag k="name" v="Surtekjerret" />
		<tag k="natural" v="wetland" />
		<tag k="ssr:stedsnr" v="823905" />
	</node>
	<node lat="58.23525000402549" lon="7.968161115498114" id="-64048">
		<tag k="name" v="Bjørkemyrane" />
		<tag k="natural" v="wetland" />
		<tag k="ssr:stedsnr" v="824233" />
	</node>
	<node lat="58.38370832977825" lon="7.8802416620067595" id="-64102">
		<tag k="name" v="Svinsokskjerr" />
		<tag k="natural" v="wetland" />
		<tag k="ssr:stedsnr" v="884886" />
	</node>
	<node lat="58.435600002819776" lon="7.79451110634823" id="-64104">
		<tag k="name" v="Kjerrane" />
		<tag k="natural" v="wetland" />
		<tag k="ssr:stedsnr" v="884893" />
	</node>
	<node lat="58.30040277543788" lon="7.861002772152777" id="-64115">
		<tag k="name" v="Langemyr" />
		<tag k="natural" v="wetland" />
		<tag k="ssr:stedsnr" v="883078" />
	</node>
	<node lat="58.28676666696046" lon="7.857166672576787" id="-64117">
		<tag k="name" v="Kringlemyr" />
		<tag k="natural" v="wetland" />
		<tag k="ssr:stedsnr" v="883089" />
	</node>
	<node lat="58.28949444248016" lon="7.8635027701810545" id="-64118">
		<tag k="name" v="Langemyr" />
		<tag k="natural" v="wetland" />
		<tag k="ssr:stedsnr" v="883094" />
	</node>
	<node lat="58.27876111532746" lon="7.91291667205261" id="-64125">
		<tag k="name" v="Radmyr" />
		<tag k="natural" v="wetland" />
		<tag k="ssr:stedsnr" v="883278" />
	</node>
	<node lat="58.40579999908645" lon="7.801736108030743" id="-64131">
		<tag k="name" v="Stemmane" />
		<tag k="natural" v="wetland" />
		<tag k="ssr:stedsnr" v="884324" />
	</node>
	<node lat="58.40170555641915" lon="7.796108337788181" id="-64133">
		<tag k="name" v="Snømyr" />
		<tag k="natural" v="wetland" />
		<tag k="ssr:stedsnr" v="884332" />
	</node>
	<node lat="58.254505555534244" lon="7.729119447607853" id="-64134">
		<tag k="name" v="Storemyr" />
		<tag k="natural" v="wetland" />
		<tag k="ssr:stedsnr" v="883619" />
	</node>
	<node lat="58.23911944787544" lon="7.752916658581188" id="-64138">
		<tag k="name" v="Ytre Slåttane" />
		<tag k="natural" v="wetland" />
		<tag k="ssr:stedsnr" v="883780" />
	</node>
	<node lat="58.28389167006564" lon="8.007541663043797" id="-64141">
		<tag k="name" v="Storemyr" />
		<tag k="natural" v="wetland" />
		<tag k="ssr:stedsnr" v="883740" />
	</node>
	<node lat="58.30155000315363" lon="8.032200000568938" id="-64144">
		<tag k="name" v="Flossekarten" />
		<tag k="natural" v="wetland" />
		<tag k="ssr:stedsnr" v="883920" />
	</node>
	<node lat="58.27044999644555" lon="7.9811027842345315" id="-64146">
		<tag k="name" v="Bjørnåskjerrane" />
		<tag k="natural" v="wetland" />
		<tag k="ssr:stedsnr" v="883928" />
	</node>
	<node lat="58.34012777686052" lon="7.64751943692189" id="-64153">
		<tag k="name" v="Langekjerret" />
		<tag k="natural" v="wetland" />
		<tag k="ssr:stedsnr" v="884021" />
	</node>
	<node lat="58.327655556612804" lon="8.000705562617943" id="-64157">
		<tag k="name" v="Hvermannshola" />
		<tag k="place" v="locality" />
		<tag k="ssr:stedsnr" v="884095" />
	</node>
	<node lat="58.426172221099854" lon="7.758316663193184" id="-64158">
		<tag k="name" v="Vierkjerret" />
		<tag k="natural" v="wetland" />
		<tag k="ssr:stedsnr" v="884169" />
	</node>
	<node lat="58.387108333703054" lon="7.6584694413854" id="-64160">
		<tag k="name" v="Brattemyr" />
		<tag k="natural" v="wetland" />
		<tag k="ssr:stedsnr" v="884174" />
	</node>
	<node lat="58.22689444097716" lon="7.950883340402141" id="-64164">
		<tag k="name" v="Moråskjerret" />
		<tag k="natural" v="wetland" />
		<tag k="ssr:stedsnr" v="884190" />
	</node>
	<node lat="58.32329444200072" lon="7.836738882928778" id="-64167">
		<tag k="name" v="Fosseslåtta" />
		<tag k="natural" v="wetland" />
		<tag k="ssr:stedsnr" v="884273" />
	</node>
	<node lat="58.395355559000876" lon="7.852627785828161" id="-64169">
		<tag k="name" v="Langemyr" />
		<tag k="natural" v="wetland" />
		<tag k="ssr:stedsnr" v="884281" />
	</node>
	<node lat="58.282966669165496" lon="7.805299991881686" id="-64171">
		<tag k="name" v="Borkehyttkjerrane" />
		<tag k="natural" v="wetland" />
		<tag k="ssr:stedsnr" v="884283" />
	</node>
	<node lat="58.399269440654585" lon="7.7188972209503115" id="-64174">
		<tag k="name" v="Høgemyr" />
		<tag k="natural" v="wetland" />
		<tag k="ssr:stedsnr" v="884036" />
	</node>
	<node lat="58.3925833322913" lon="7.715758327565205" id="-64175">
		<tag k="name" v="Dalansmyra" />
		<tag k="natural" v="wetland" />
		<tag k="ssr:stedsnr" v="884039" />
	</node>
	<node lat="58.351416665300015" lon="8.039624995121217" id="-64176">
		<tag k="name" v="Langemyr" />
		<tag k="natural" v="wetland" />
		<tag k="ssr:stedsnr" v="884132" />
	</node>
	<node lat="58.33534722545692" lon="7.895411105125384" id="-64180">
		<tag k="name" v="Storemyr" />
		<tag k="natural" v="wetland" />
		<tag k="ssr:stedsnr" v="884232" />
	</node>
	<node lat="58.385275003910266" lon="7.821394450674492" id="-64191">
		<tag k="name" v="Stakkemyr" />
		<tag k="natural" v="wetland" />
		<tag k="ssr:stedsnr" v="884481" />
	</node>
	<node lat="58.37928333426168" lon="7.835250000504303" id="-64194">
		<tag k="name" v="Sagemyr" />
		<tag k="natural" v="wetland" />
		<tag k="ssr:stedsnr" v="884494" />
	</node>
	<node lat="58.2474250009397" lon="7.954955563964979" id="-64201">
		<tag k="name" v="Høgevollen" />
		<tag k="place" v="locality" />
		<tag k="ssr:stedsnr" v="884417" />
	</node>
	<node lat="58.31357222575673" lon="7.984550006023897" id="-64204">
		<tag k="name" v="Storemyr" />
		<tag k="natural" v="wetland" />
		<tag k="ssr:stedsnr" v="884434" />
	</node>
	<node lat="58.3074749985328" lon="7.98107223040569" id="-64206">
		<tag k="name" v="Kartmyr" />
		<tag k="natural" v="wetland" />
		<tag k="ssr:stedsnr" v="884439" />
	</node>
	<node lat="58.30458055525618" lon="7.775027778196361" id="-64215">
		<tag k="name" v="Listemmen" />
		<tag k="natural" v="wetland" />
		<tag k="ssr:stedsnr" v="884670" />
	</node>
	<node lat="58.34857778176252" lon="7.721563895173619" id="-64224">
		<tag k="name" v="Røyrmyr" />
		<tag k="natural" v="wetland" />
		<tag k="ssr:stedsnr" v="884737" />
	</node>
	<node lat="58.34642222259297" lon="7.676725002796741" id="-64225">
		<tag k="name" v="Gamlestem" />
		<tag k="place" v="locality" />
		<tag k="ssr:stedsnr" v="884741" />
	</node>
	<node lat="58.35499444269548" lon="7.669669437403736" id="-64228">
		<tag k="name" v="Storemyr" />
		<tag k="natural" v="wetland" />
		<tag k="ssr:stedsnr" v="884991" />
	</node>
	<node lat="58.315744447918355" lon="7.7813194432181545" id="-64233">
		<tag k="name" v="Solåsmyr" />
		<tag k="natural" v="wetland" />
		<tag k="ssr:stedsnr" v="943264" />
	</node>
	<node lat="58.28603055760883" lon="8.008661112083416" id="-64252">
		<tag k="name" v="Lille Slettåskjerret" />
		<tag k="natural" v="wetland" />
		<tag k="ssr:stedsnr" v="944694" />
	</node>
	<node lat="58.385691668942265" lon="7.726575001872211" id="-64255">
		<tag k="name" v="Kattemyr" />
		<tag k="natural" v="wetland" />
		<tag k="ssr:stedsnr" v="944705" />
	</node>
	<node lat="58.300619445022576" lon="7.74165276971822" id="-64258">
		<tag k="name" v="Tjovemyran" />
		<tag k="place" v="locality" />
		<tag k="ssr:stedsnr" v="943898" />
	</node>
	<node lat="58.286216667355546" lon="7.725394443665517" id="-64260">
		<tag k="name" v="Bukkekjerran" />
		<tag k="natural" v="wetland" />
		<tag k="ssr:stedsnr" v="943933" />
	</node>
	<node lat="58.33225833334774" lon="8.050055551013575" id="-64264">
		<tag k="name" v="Storemyr" />
		<tag k="natural" v="wetland" />
		<tag k="ssr:stedsnr" v="944081" />
	</node>
	<node lat="58.34215277660191" lon="7.999847222899561" id="-64267">
		<tag k="name" v="Storemyr" />
		<tag k="natural" v="wetland" />
		<tag k="ssr:stedsnr" v="944094" />
	</node>
	<node lat="58.289941662484075" lon="7.820563885329192" id="-64271">
		<tag k="name" v="Suglemyrane" />
		<tag k="natural" v="wetland" />
		<tag k="ssr:stedsnr" v="944300" />
	</node>
	<node lat="58.395788890193955" lon="7.7262833357280165" id="-64275">
		<tag k="name" v="Heimermyr" />
		<tag k="natural" v="wetland" />
		<tag k="ssr:stedsnr" v="944039" />
	</node>
	<node lat="58.396311108027184" lon="7.778994447307405" id="-64277">
		<tag k="name" v="Tjønneråskarten" />
		<tag k="natural" v="wetland" />
		<tag k="ssr:stedsnr" v="944066" />
	</node>
	<node lat="58.289736113055184" lon="7.847830548941337" id="-64281">
		<tag k="name" v="Lyngmyr" />
		<tag k="natural" v="wetland" />
		<tag k="ssr:stedsnr" v="944078" />
	</node>
	<node lat="58.40935278146599" lon="7.7975194517239865" id="-64284">
		<tag k="name" v="Vierkjerr" />
		<tag k="natural" v="wetland" />
		<tag k="ssr:stedsnr" v="944266" />
	</node>
	<node lat="58.392744440461755" lon="7.879016672458618" id="-64288">
		<tag k="name" v="Eikedalskjerrane" />
		<tag k="natural" v="wetland" />
		<tag k="ssr:stedsnr" v="944348" />
	</node>
	<node lat="58.33327500370844" lon="7.688852782150307" id="-64298">
		<tag k="name" v="Dølegota" />
		<tag k="natural" v="wetland" />
		<tag k="ssr:stedsnr" v="944463" />
	</node>
	<node lat="58.390122226128206" lon="7.827658337748797" id="-64300">
		<tag k="name" v="Tyresmyr" />
		<tag k="natural" v="wetland" />
		<tag k="ssr:stedsnr" v="944477" />
	</node>
	<node lat="58.397125001114375" lon="7.825427774440486" id="-64303">
		<tag k="name" v="Tollakskjerrane" />
		<tag k="natural" v="wetland" />
		<tag k="ssr:stedsnr" v="944422" />
	</node>
	<node lat="58.377208335849296" lon="7.772180553944308" id="-64310">
		<tag k="name" v="Kringlemyr" />
		<tag k="natural" v="wetland" />
		<tag k="ssr:stedsnr" v="944745" />
	</node>
	<node lat="58.43835833507353" lon="7.707933335694384" id="-64314">
		<tag k="name" v="Den vene myra" />
		<tag k="natural" v="wetland" />
		<tag k="ssr:stedsnr" v="944768" />
	</node>
	<node lat="58.29365833181993" lon="8.04846111830666" id="-64316">
		<tag k="name" v="Ytreheimyra" />
		<tag k="natural" v="wetland" />
		<tag k="ssr:stedsnr" v="945000" />
	</node>
	<node lat="58.366652780047374" lon="7.700069450302225" id="-64317">
		<tag k="name" v="Grønemyr" />
		<tag k="natural" v="wetland" />
		<tag k="ssr:stedsnr" v="944712" />
	</node>
	<node lat="58.313013888700745" lon="7.749786110933195" id="-64320">
		<tag k="name" v="Myrvollen" />
		<tag k="place" v="locality" />
		<tag k="ssr:stedsnr" v="944715" />
	</node>
	<node lat="58.31984722325222" lon="7.785291671599193" id="-64322">
		<tag k="name" v="Bjelkemyr" />
		<tag k="natural" v="wetland" />
		<tag k="ssr:stedsnr" v="944719" />
	</node>
	<node lat="58.353494445560415" lon="7.736622218894167" id="-64323">
		<tag k="name" v="Bjørneskjeggmyr" />
		<tag k="natural" v="wetland" />
		<tag k="ssr:stedsnr" v="944870" />
	</node>
	<node lat="58.29810277535146" lon="8.036125004542233" id="-64324">
		<tag k="name" v="Trollmyr" />
		<tag k="natural" v="wetland" />
		<tag k="ssr:stedsnr" v="944876" />
	</node>
	<node lat="58.30497878583161" lon="7.729227711044537" id="-64373">
		<tag k="name" v="Knipe" />
		<tag k="place" v="locality" />
		<tag k="ssr:stedsnr" v="978503" />
	</node>
</osm>
