<?xml version="1.0" encoding="UTF-8"?>
<osm generator="osmapis" version="0.6">
	<node id="-487423" lat="58.2542694457" lon="7.82436944959">
		<tag k="name" v="Sagemonen" />
		<tag k="natural" v="cape" />
		<tag k="ssr:stedsnr" v="398679" />
	</node>
	<node id="-485374" lat="58.3604027755" lon="7.64958888636">
		<tag k="alt_name" v="Lomtjørn" />
		<tag k="name" v="Lomtjønn" />
		<tag k="natural" v="water" />
		<tag k="ssr:stedsnr" v="667742" />
	</node>
	<node id="-485375" lat="58.3361888851" lon="7.63450555519">
		<tag k="alt_name" v="Kvellandsvatnet" />
		<tag k="name" v="Kvellandsvannet" />
		<tag k="natural" v="water" />
		<tag k="ssr:stedsnr" v="667760" />
		<tag k="water" v="lake" />
	</node>
	<node id="-487416" lat="58.3688249966" lon="7.65129166862">
		<tag k="name" v="Byttingshølen" />
		<tag k="place" v="locality" />
		<tag k="ssr:stedsnr" v="398627" />
	</node>
	<node id="-485367" lat="58.3194055551" lon="7.7183694369">
		<tag k="alt_name" v="Hagelansvatnet" />
		<tag k="name" v="Hagelandsvann" />
		<tag k="natural" v="water" />
		<tag k="ssr:stedsnr" v="667139" />
		<tag k="water" v="lake" />
	</node>
	<node id="-485366" lat="58.3305249965" lon="7.92754722312">
		<tag k="name" v="Beiehølen" />
		<tag k="natural" v="water" />
		<tag k="ssr:stedsnr" v="667136" />
	</node>
	<node id="-487412" lat="58.381302781" lon="7.84555834066">
		<tag k="name" v="Løedalskilen" />
		<tag k="natural" v="bay" />
		<tag k="ssr:stedsnr" v="398548" />
	</node>
	<node id="-485363" lat="58.238297223" lon="7.75376667366">
		<tag k="alt_name" v="Lonane" />
		<tag k="name" v="Lona" />
		<tag k="natural" v="water" />
		<tag k="ssr:stedsnr" v="667116" />
	</node>
	<node id="-485360" lat="58.2713388883" lon="8.00726667361">
		<tag k="alt_name" v="Støletjørn" />
		<tag k="name" v="Støletjønn" />
		<tag k="natural" v="water" />
		<tag k="ssr:stedsnr" v="667071" />
	</node>
	<node id="-485357" lat="58.290044441" lon="7.79945833551">
		<tag k="alt_name" v="Sangeslandsvatnet" />
		<tag k="name" v="Sangeslandsvannet" />
		<tag k="natural" v="water" />
		<tag k="ssr:stedsnr" v="667035" />
		<tag k="water" v="lake" />
	</node>
	<node id="-487403" lat="58.2552749972" lon="7.88918055104">
		<tag k="name" v="Mørkvann" />
		<tag k="natural" v="water" />
		<tag k="ssr:stedsnr" v="398472" />
		<tag k="water" v="lake" />
	</node>
	<node id="-487399" lat="58.3095527808" lon="7.99406389289">
		<tag k="name" v="Slåsshølen" />
		<tag k="place" v="locality" />
		<tag k="ssr:stedsnr" v="398441" />
	</node>
	<node id="-485348" lat="58.4127166667" lon="7.74464721922">
		<tag k="name" v="Sauekroktjønna" />
		<tag k="natural" v="water" />
		<tag k="ssr:stedsnr" v="459217" />
	</node>
	<node id="-485347" lat="58.4100166667" lon="7.77453333562">
		<tag k="name" v="Kjeøya" />
		<tag k="place" v="islet" />
		<tag k="ssr:stedsnr" v="459215" />
	</node>
	<node id="-485345" lat="58.4204611098" lon="7.79190833871">
		<tag k="name" v="Smissdalsbukta" />
		<tag k="natural" v="bay" />
		<tag k="ssr:stedsnr" v="459211" />
	</node>
	<node id="-487388" lat="58.2503666655" lon="7.95418610416">
		<tag k="name" v="Kollerkilen" />
		<tag k="natural" v="bay" />
		<tag k="ssr:stedsnr" v="398369" />
	</node>
	<node id="-485028" lat="58.3194111135" lon="7.67100556267">
		<tag k="name" v="Pineneset" />
		<tag k="natural" v="cape" />
		<tag k="ssr:stedsnr" v="459356" />
	</node>
	<node id="-485331" lat="58.373730557" lon="7.77907499772">
		<tag k="name" v="Lille holmen" />
		<tag k="place" v="islet" />
		<tag k="ssr:stedsnr" v="519516" />
	</node>
	<node id="-487375" lat="58.3225500038" lon="7.80656111545">
		<tag k="name" v="Lintjønn" />
		<tag k="natural" v="water" />
		<tag k="ssr:stedsnr" v="398287" />
	</node>
	<node id="-487373" lat="58.2234166624" lon="7.94161665842">
		<tag k="name" v="Sagebekken" />
		<tag k="ssr:stedsnr" v="398270" />
		<tag k="waterway" v="stream" />
	</node>
	<node id="-485026" lat="58.3345583294" lon="7.80158334071">
		<tag k="name" v="Fjelltjønn" />
		<tag k="natural" v="water" />
		<tag k="ssr:stedsnr" v="459309" />
	</node>
	<node id="-487370" lat="58.3275833346" lon="7.89816666066">
		<tag k="name" v="Lyngtjønn" />
		<tag k="natural" v="water" />
		<tag k="ssr:stedsnr" v="398251" />
	</node>
	<node id="-487368" lat="58.3075111132" lon="7.7253722201">
		<tag k="name" v="Ytre Knibevann" />
		<tag k="natural" v="water" />
		<tag k="ssr:stedsnr" v="398244" />
		<tag k="water" v="lake" />
	</node>
	<node id="-487367" lat="58.4060722249" lon="7.65561389677">
		<tag k="name" v="Indre Vormebrokkstjønn" />
		<tag k="natural" v="water" />
		<tag k="ssr:stedsnr" v="398231" />
	</node>
	<node id="-485318" lat="58.3266277747" lon="7.78579166259">
		<tag k="name" v="Reiersdalvann" />
		<tag k="natural" v="water" />
		<tag k="ssr:stedsnr" v="519385" />
		<tag k="water" v="lake" />
	</node>
	<node id="-487365" lat="58.3956722184" lon="7.66783333376">
		<tag k="name" v="Stebekken" />
		<tag k="ssr:stedsnr" v="398227" />
		<tag k="waterway" v="stream" />
	</node>
	<node id="-487364" lat="58.233508331" lon="7.96540555146">
		<tag k="name" v="Lintjønn" />
		<tag k="natural" v="water" />
		<tag k="ssr:stedsnr" v="398225" />
	</node>
	<node id="-487362" lat="58.4117444427" lon="7.77344166152">
		<tag k="name" v="Lysholmen" />
		<tag k="place" v="islet" />
		<tag k="ssr:stedsnr" v="398222" />
	</node>
	<node id="-487361" lat="58.2246527737" lon="7.95693332878">
		<tag k="name" v="Krogtjønn" />
		<tag k="natural" v="water" />
		<tag k="ssr:stedsnr" v="398220" />
	</node>
	<node id="-487360" lat="58.4059527738" lon="7.68229999677">
		<tag k="name" v="Orreleikstjønn" />
		<tag k="natural" v="water" />
		<tag k="ssr:stedsnr" v="398205" />
	</node>
	<node id="-485305" lat="58.3303222182" lon="7.87542500484">
		<tag k="name" v="Hørtetjønn" />
		<tag k="natural" v="water" />
		<tag k="ssr:stedsnr" v="519309" />
	</node>
	<node id="-487352" lat="58.3871805531" lon="7.67293055622">
		<tag k="name" v="Huåna" />
		<tag k="ssr:stedsnr" v="398183" />
		<tag k="waterway" v="stream" />
	</node>
	<node id="-485303" lat="58.2610916665" lon="7.78284721946">
		<tag k="name" v="Poddetjønn" />
		<tag k="natural" v="water" />
		<tag k="ssr:stedsnr" v="519301" />
	</node>
	<node id="-485300" lat="58.3322972205" lon="7.9080694464">
		<tag k="name" v="Kroktjønn" />
		<tag k="natural" v="water" />
		<tag k="ssr:stedsnr" v="519285" />
	</node>
	<node id="-487346" lat="58.3894083327" lon="7.68946945291">
		<tag k="name" v="Lona" />
		<tag k="natural" v="water" />
		<tag k="ssr:stedsnr" v="398093" />
		<tag k="water" v="lake" />
	</node>
	<node id="-485293" lat="58.4030361082" lon="7.67296944884">
		<tag k="name" v="Langedalstjønn" />
		<tag k="natural" v="water" />
		<tag k="ssr:stedsnr" v="519261" />
	</node>
	<node id="-485291" lat="58.3940138893" lon="7.65849721852">
		<tag k="name" v="Raudtjønn" />
		<tag k="natural" v="water" />
		<tag k="ssr:stedsnr" v="519257" />
	</node>
	<node id="-487338" lat="58.3706833301" lon="7.87902778319">
		<tag k="name" v="Kringletjønn" />
		<tag k="natural" v="water" />
		<tag k="ssr:stedsnr" v="397928" />
	</node>
	<node id="-485289" lat="58.4214111123" lon="7.79766110762">
		<tag k="name" v="Øvre Leitesneset" />
		<tag k="natural" v="cape" />
		<tag k="ssr:stedsnr" v="519237" />
	</node>
	<node id="-485285" lat="58.3478805543" lon="7.86811943655">
		<tag k="name" v="Lomtjønn" />
		<tag k="natural" v="water" />
		<tag k="ssr:stedsnr" v="519221" />
	</node>
	<node id="-485283" lat="58.348863886" lon="7.88516389149">
		<tag k="name" v="Bumyrtjønn" />
		<tag k="natural" v="water" />
		<tag k="ssr:stedsnr" v="519219" />
	</node>
	<node id="-487330" lat="58.2960555599" lon="8.0593527715">
		<tag k="name" v="Øvre Stemtjønn" />
		<tag k="natural" v="water" />
		<tag k="ssr:stedsnr" v="397709" />
	</node>
	<node id="-487328" lat="58.3172916667" lon="7.90421110825">
		<tag k="name" v="Dagrestjønn" />
		<tag k="natural" v="water" />
		<tag k="ssr:stedsnr" v="397691" />
	</node>
	<node id="-487326" lat="58.2635527742" lon="7.97733333543">
		<tag k="name" v="Kilane" />
		<tag k="natural" v="water" />
		<tag k="ssr:stedsnr" v="397613" />
		<tag k="water" v="lake" />
	</node>
	<node id="-485275" lat="58.4199611117" lon="7.74237777186">
		<tag k="name" v="Øvre Brulitjønn" />
		<tag k="natural" v="water" />
		<tag k="ssr:stedsnr" v="519163" />
	</node>
	<node id="-485274" lat="58.2941999983" lon="7.90926666829">
		<tag k="name" v="Gautsbekk" />
		<tag k="ssr:stedsnr" v="519160" />
		<tag k="waterway" v="stream" />
	</node>
	<node id="-485261" lat="58.33295278" lon="8.04132500278">
		<tag k="name" v="Lille Bjortjønn" />
		<tag k="natural" v="water" />
		<tag k="ssr:stedsnr" v="519094" />
	</node>
	<node id="-487301" lat="58.3059083355" lon="7.67985832882">
		<tag k="alt_name" v="Sogna" />
		<tag k="name" v="Songa" />
		<tag k="ssr:stedsnr" v="364875" />
		<tag k="waterway" v="river" />
	</node>
	<node id="-485014" lat="58.4364805572" lon="7.80423888472">
		<tag k="name" v="Kvennhusbekken" />
		<tag k="ssr:stedsnr" v="277908" />
		<tag k="waterway" v="stream" />
	</node>
	<node id="-485250" lat="58.3426222201" lon="7.63679445045">
		<tag k="name" v="Hobdåsbekken" />
		<tag k="ssr:stedsnr" v="519026" />
		<tag k="waterway" v="stream" />
	</node>
	<node id="-487297" lat="58.4463444488" lon="7.7348888944">
		<tag k="name" v="Sangreidtjønn" />
		<tag k="natural" v="water" />
		<tag k="ssr:stedsnr" v="519793" />
	</node>
	<node id="-487290" lat="58.4379666666" lon="7.70056388917">
		<tag k="name" v="Flåtjønn" />
		<tag k="natural" v="water" />
		<tag k="ssr:stedsnr" v="519755" />
	</node>
	<node id="-485239" lat="58.2529394747" lon="7.99806056827">
		<tag k="alt_name" v="Igletjørn" />
		<tag k="name" v="Igletjønn" />
		<tag k="natural" v="water" />
		<tag k="ssr:stedsnr" v="425023" />
	</node>
	<node id="-487286" lat="58.3429277781" lon="7.74395278416">
		<tag k="alt_name" v="Røynelandsvatnet" />
		<tag k="name" v="Røynelandsvannet" />
		<tag k="natural" v="water" />
		<tag k="ssr:stedsnr" v="364089" />
	</node>
	<node id="-485236" lat="58.2906388911" lon="7.89809722357">
		<tag k="alt_name" v="Mønnetjørn" />
		<tag k="name" v="Mønnetjønn" />
		<tag k="natural" v="water" />
		<tag k="ssr:stedsnr" v="425004" />
	</node>
	<node id="-487282" lat="58.2936749977" lon="7.9226250008">
		<tag k="alt_name" v="Drivenesvatnet" />
		<tag k="name" v="Drivenesvannet" />
		<tag k="natural" v="water" />
		<tag k="ssr:stedsnr" v="364028" />
	</node>
	<node id="-487281" lat="58.3075416652" lon="8.05312221954">
		<tag k="alt_name" v="Veråstjørna" />
		<tag k="name" v="Veråstjønna" />
		<tag k="natural" v="water" />
		<tag k="ssr:stedsnr" v="364018" />
	</node>
	<node id="-487280" lat="58.285338893" lon="7.96602499566">
		<tag k="name" v="Drivenes" />
		<tag k="natural" v="cape" />
		<tag k="ssr:stedsnr" v="364005" />
	</node>
	<node id="-487279" lat="58.3601111084" lon="7.89588611945">
		<tag k="name" v="Nomelandsdammen" />
		<tag k="natural" v="water" />
		<tag k="ssr:stedsnr" v="364178" />
		<tag k="water" v="lake" />
	</node>
	<node id="-485220" lat="58.3420598491" lon="7.67383080673">
		<tag k="name" v="Fisketjønn" />
		<tag k="natural" v="water" />
		<tag k="ssr:stedsnr" v="398015" />
	</node>
	<node id="-485215" lat="58.4081111121" lon="7.76676667072">
		<tag k="name" v="Lillebukta" />
		<tag k="natural" v="water" />
		<tag k="ssr:stedsnr" v="398107" />
	</node>
	<node id="-485209" lat="58.3437527783" lon="7.65990833497">
		<tag k="alt_name" v="Steinslandstjørna" />
		<tag k="name" v="Steinslandsvannet" />
		<tag k="natural" v="water" />
		<tag k="ssr:stedsnr" v="364823" />
	</node>
	<node id="-487243" lat="58.2429694435" lon="7.94130278591">
		<tag k="name" v="Piningen" />
		<tag k="ssr:stedsnr" v="338540" />
		<tag k="waterway" v="rapids" />
	</node>
	<node id="-487241" lat="58.2533166642" lon="7.86868611729">
		<tag k="name" v="Kvennhustjønn" />
		<tag k="natural" v="water" />
		<tag k="ssr:stedsnr" v="338478" />
	</node>
	<node id="-485187" lat="58.3862972258" lon="7.70503888372">
		<tag k="name" v="Hagetjønn" />
		<tag k="natural" v="water" />
		<tag k="ssr:stedsnr" v="519677" />
	</node>
	<node id="-487234" lat="58.44915278" lon="7.80331111835">
		<tag k="name" v="Sauekilen" />
		<tag k="natural" v="bay" />
		<tag k="ssr:stedsnr" v="337969" />
	</node>
	<node id="-487232" lat="58.2933861093" lon="8.02517221713">
		<tag k="name" v="Myrtjønna" />
		<tag k="natural" v="water" />
		<tag k="ssr:stedsnr" v="337956" />
	</node>
	<node id="-485183" lat="58.2766166656" lon="7.73731667456">
		<tag k="alt_name" v="Stemtjørn" />
		<tag k="name" v="Stemtjønn" />
		<tag k="natural" v="water" />
		<tag k="ssr:stedsnr" v="485001" />
	</node>
	<node id="-487229" lat="58.3589638872" lon="7.63682222919">
		<tag k="name" v="Mørkestøltjønn" />
		<tag k="natural" v="water" />
		<tag k="ssr:stedsnr" v="337933" />
	</node>
	<node id="-487226" lat="58.3774972206" lon="7.858950004">
		<tag k="name" v="Ytre neset" />
		<tag k="natural" v="cape" />
		<tag k="ssr:stedsnr" v="337919" />
	</node>
	<node id="-485176" lat="58.3864944418" lon="7.65172777158">
		<tag k="name" v="Hestehølen" />
		<tag k="place" v="locality" />
		<tag k="ssr:stedsnr" v="337615" />
	</node>
	<node id="-485168" lat="58.390663888" lon="7.79210277019">
		<tag k="name" v="Gastetjønn" />
		<tag k="natural" v="water" />
		<tag k="ssr:stedsnr" v="337462" />
	</node>
	<node id="-487214" lat="58.350927777" lon="7.70110833481">
		<tag k="name" v="Åsankilen" />
		<tag k="natural" v="bay" />
		<tag k="ssr:stedsnr" v="337811" />
	</node>
	<node id="-485163" lat="58.3215055583" lon="7.99736111516">
		<tag k="name" v="Svartetjønn" />
		<tag k="natural" v="water" />
		<tag k="ssr:stedsnr" v="519633" />
	</node>
	<node id="-485162" lat="58.3125749977" lon="7.94049444521">
		<tag k="name" v="Tretjønnane" />
		<tag k="natural" v="water" />
		<tag k="ssr:stedsnr" v="519587" />
	</node>
	<node id="-487207" lat="58.4457027801" lon="7.75356666807">
		<tag k="name" v="Lonane" />
		<tag k="natural" v="water" />
		<tag k="ssr:stedsnr" v="337782" />
		<tag k="water" v="lake" />
	</node>
	<node id="-485150" lat="58.2566333309" lon="7.78938055511">
		<tag k="alt_name" v="Topstadvatnet" />
		<tag k="name" v="Topstadvann" />
		<tag k="natural" v="water" />
		<tag k="ssr:stedsnr" v="303056" />
	</node>
	<node id="-485147" lat="58.2767722243" lon="7.95977777404">
		<tag k="name" v="Venneslafjorden" />
		<tag k="natural" v="water" />
		<tag k="ssr:stedsnr" v="303016" />
		<tag k="water" v="lake" />
	</node>
	<node id="-485146" lat="58.2773861131" lon="7.89563611686">
		<tag k="alt_name" v="Lolandsvatnet" />
		<tag k="name" v="Lolandsvannet" />
		<tag k="natural" v="water" />
		<tag k="ssr:stedsnr" v="303015" />
		<tag k="water" v="lake" />
	</node>
	<node id="-487192" lat="58.382188888" lon="7.68407500095">
		<tag k="name" v="Lyngtangen" />
		<tag k="natural" v="cape" />
		<tag k="ssr:stedsnr" v="337655" />
	</node>
	<node id="-487190" lat="58.3123305537" lon="7.86009443651">
		<tag k="name" v="Hestetjønn" />
		<tag k="natural" v="water" />
		<tag k="ssr:stedsnr" v="337637" />
	</node>
	<node id="-487186" lat="58.3822833304" lon="7.85899721689">
		<tag k="name" v="Storetjønn" />
		<tag k="natural" v="water" />
		<tag k="ssr:stedsnr" v="337585" />
	</node>
	<node id="-487180" lat="58.3815194469" lon="7.81089167444">
		<tag k="name" v="Flanestadvann" />
		<tag k="natural" v="water" />
		<tag k="ssr:stedsnr" v="337551" />
		<tag k="water" v="lake" />
	</node>
	<node id="-484994" lat="58.3778166634" lon="7.74071944681">
		<tag k="name" v="Flæsebekken" />
		<tag k="ssr:stedsnr" v="277470" />
		<tag k="waterway" v="stream" />
	</node>
	<node id="-487178" lat="58.2314888887" lon="7.9525805616">
		<tag k="name" v="Fisketjønn" />
		<tag k="natural" v="water" />
		<tag k="ssr:stedsnr" v="338192" />
	</node>
	<node id="-487176" lat="58.3397194419" lon="7.72085834031">
		<tag k="name" v="Krogtjønnane" />
		<tag k="natural" v="water" />
		<tag k="ssr:stedsnr" v="337442" />
	</node>
	<node id="-485340" lat="58.3558333358" lon="7.8853749971">
		<tag k="name" v="Stemtjønn" />
		<tag k="natural" v="water" />
		<tag k="ssr:stedsnr" v="459184" />
	</node>
	<node id="-487166" lat="58.2845444411" lon="7.79090277041">
		<tag k="name" v="Prestodden" />
		<tag k="natural" v="cape" />
		<tag k="ssr:stedsnr" v="337324" />
	</node>
	<node id="-487163" lat="58.3913277759" lon="7.87100277209">
		<tag k="name" v="Molen" />
		<tag k="ssr:stedsnr" v="337317" />
		<tag k="waterway" v="river" />
	</node>
	<node id="-485113" lat="58.2630500033" lon="7.82659999583">
		<tag k="name" v="Homselva" />
		<tag k="ssr:stedsnr" v="290972" />
		<tag k="waterway" v="stream" />
	</node>
	<node id="-485112" lat="58.3570805554" lon="7.71328888046">
		<tag k="name" v="Lonane" />
		<tag k="natural" v="water" />
		<tag k="ssr:stedsnr" v="289226" />
		<tag k="water" v="lake" />
	</node>
	<node id="-487157" lat="58.3238416696" lon="7.90618610717">
		<tag k="name" v="Skjeretjønn" />
		<tag k="natural" v="water" />
		<tag k="ssr:stedsnr" v="337278" />
	</node>
	<node id="-487153" lat="58.4288861135" lon="7.80285832978">
		<tag k="name" v="Pjoskerneset" />
		<tag k="natural" v="cape" />
		<tag k="ssr:stedsnr" v="337227" />
	</node>
	<node id="-487152" lat="58.4171888866" lon="7.78374999836">
		<tag k="name" v="Kavringen" />
		<tag k="natural" v="cape" />
		<tag k="ssr:stedsnr" v="337223" />
	</node>
	<node id="-487145" lat="58.351675" lon="7.86273333779">
		<tag k="name" v="Gropebekken" />
		<tag k="ssr:stedsnr" v="337194" />
		<tag k="waterway" v="stream" />
	</node>
	<node id="-485095" lat="58.4458722194" lon="7.78517777543">
		<tag k="name" v="Med stemmen" />
		<tag k="natural" v="water" />
		<tag k="ssr:stedsnr" v="459981" />
		<tag k="water" v="lake" />
	</node>
	<node id="-487142" lat="58.2831055597" lon="7.91732499668">
		<tag k="name" v="Skuletjønn" />
		<tag k="natural" v="water" />
		<tag k="ssr:stedsnr" v="337166" />
	</node>
	<node id="-485092" lat="58.3168805563" lon="8.03046111026">
		<tag k="name" v="Lonestemmen" />
		<tag k="place" v="locality" />
		<tag k="ssr:stedsnr" v="459962" />
	</node>
	<node id="-487137" lat="58.4034500019" lon="7.76818055871">
		<tag k="name" v="Holmane" />
		<tag k="place" v="island" />
		<tag k="ssr:stedsnr" v="337126" />
	</node>
	<node id="-485088" lat="58.4133694412" lon="7.70258056351">
		<tag k="name" v="Bjorhølen" />
		<tag k="place" v="locality" />
		<tag k="ssr:stedsnr" v="459932" />
	</node>
	<node id="-487133" lat="58.3930388889" lon="7.75978055137">
		<tag k="name" v="Eljansåna" />
		<tag k="ssr:stedsnr" v="337085" />
		<tag k="waterway" v="river" />
	</node>
	<node id="-485084" lat="58.3445833378" lon="7.74101944797">
		<tag k="name" v="Tollodden" />
		<tag k="natural" v="cape" />
		<tag k="ssr:stedsnr" v="459843" />
	</node>
	<node id="-487131" lat="58.4069305512" lon="7.76936944818">
		<tag k="name" v="Storebukta" />
		<tag k="natural" v="bay" />
		<tag k="ssr:stedsnr" v="337072" />
	</node>
	<node id="-487129" lat="58.4038583332" lon="7.78011388889">
		<tag k="name" v="Ramnetjønn" />
		<tag k="natural" v="water" />
		<tag k="ssr:stedsnr" v="337065" />
	</node>
	<node id="-485080" lat="58.4504944454" lon="7.78093611826">
		<tag k="name" v="Bjørnetjønn" />
		<tag k="natural" v="water" />
		<tag k="ssr:stedsnr" v="459788" />
	</node>
	<node id="-487125" lat="58.3915888874" lon="7.68422777374">
		<tag k="name" v="Heitjønn" />
		<tag k="natural" v="water" />
		<tag k="ssr:stedsnr" v="337026" />
	</node>
	<node id="-487120" lat="58.2494805563" lon="7.7295027831">
		<tag k="name" v="Suvalstjønn" />
		<tag k="natural" v="water" />
		<tag k="ssr:stedsnr" v="337537" />
	</node>
	<node id="-487112" lat="58.3405499997" lon="7.91015555983">
		<tag k="name" v="Nedrefjorden" />
		<tag k="natural" v="water" />
		<tag k="ssr:stedsnr" v="333191" />
		<tag k="water" v="lake" />
	</node>
	<node id="-487108" lat="58.389891667" lon="7.6475027819">
		<tag k="alt_name" v="Leintjørna" />
		<tag k="name" v="Lintjønn" />
		<tag k="natural" v="water" />
		<tag k="ssr:stedsnr" v="303996" />
	</node>
	<node id="-487107" lat="58.4251638848" lon="7.70007500753">
		<tag k="alt_name" v="Lonan" />
		<tag k="name" v="Lonane" />
		<tag k="natural" v="water" />
		<tag k="ssr:stedsnr" v="303882" />
	</node>
	<node id="-485058" lat="58.303422218" lon="7.86373889665">
		<tag k="name" v="Kålgardstjønn" />
		<tag k="natural" v="water" />
		<tag k="ssr:stedsnr" v="459649" />
	</node>
	<node id="-485057" lat="58.4589972227" lon="7.71817499929">
		<tag k="name" v="Bjørnstangen" />
		<tag k="natural" v="cape" />
		<tag k="ssr:stedsnr" v="459634" />
	</node>
	<node id="-487102" lat="58.3541972242" lon="7.83311388377">
		<tag k="alt_name" v="Haugestøltjørn" />
		<tag k="name" v="Bjørnsheivann" />
		<tag k="natural" v="water" />
		<tag k="ssr:stedsnr" v="303096" />
	</node>
	<node id="-487101" lat="58.3519666627" lon="7.81065000607">
		<tag k="alt_name" v="Langevann" />
		<tag k="name" v="Langevatn" />
		<tag k="natural" v="water" />
		<tag k="ssr:stedsnr" v="303086" />
		<tag k="water" v="lake" />
	</node>
	<node id="-487100" lat="58.2755862273" lon="8.01215707948">
		<tag k="alt_name" v="Rundåstjørna" />
		<tag k="name" v="Rundåstjønn" />
		<tag k="natural" v="water" />
		<tag k="ssr:stedsnr" v="303045" />
	</node>
	<node id="-485322" lat="58.3224611129" lon="7.68022778546">
		<tag k="name" v="Lyngholmen" />
		<tag k="place" v="islet" />
		<tag k="ssr:stedsnr" v="519437" />
	</node>
	<node id="-487095" lat="58.3596222205" lon="7.74142778171">
		<tag k="name" v="Torvtjønn" />
		<tag k="natural" v="water" />
		<tag k="ssr:stedsnr" v="216800" />
	</node>
	<node id="-487093" lat="58.4372499992" lon="7.7474888831">
		<tag k="name" v="Kvennhusbekken" />
		<tag k="ssr:stedsnr" v="216770" />
		<tag k="waterway" v="stream" />
	</node>
	<node id="-487092" lat="58.3570499978" lon="7.70601388437">
		<tag k="name" v="Leiråna" />
		<tag k="ssr:stedsnr" v="216768" />
		<tag k="waterway" v="stream" />
	</node>
	<node id="-487091" lat="58.4463527777" lon="7.77876388102">
		<tag k="name" v="Langelona" />
		<tag k="natural" v="water" />
		<tag k="ssr:stedsnr" v="216765" />
		<tag k="water" v="lake" />
	</node>
	<node id="-485040" lat="58.3727305525" lon="7.78216944404">
		<tag k="name" v="Store holmen" />
		<tag k="place" v="islet" />
		<tag k="ssr:stedsnr" v="459439" />
	</node>
	<node id="-485320" lat="58.3253444449" lon="7.72544722914">
		<tag k="name" v="Indre Hagelandsvann" />
		<tag k="natural" v="water" />
		<tag k="ssr:stedsnr" v="519426" />
		<tag k="water" v="lake" />
	</node>
	<node id="-485034" lat="58.3293500035" lon="7.6411194487">
		<tag k="name" v="Kilane" />
		<tag k="natural" v="bay" />
		<tag k="ssr:stedsnr" v="459416" />
	</node>
	<node id="-487080" lat="58.3164416634" lon="7.94546111693">
		<tag k="name" v="Vrengen" />
		<tag k="place" v="locality" />
		<tag k="ssr:stedsnr" v="216646" />
	</node>
	<node id="-487079" lat="58.4520694476" lon="7.7782388861">
		<tag k="name" v="Søyltjønn" />
		<tag k="natural" v="water" />
		<tag k="ssr:stedsnr" v="216642" />
	</node>
	<node id="-487076" lat="58.3814499971" lon="7.68706388346">
		<tag k="name" v="Reipetangen" />
		<tag k="natural" v="cape" />
		<tag k="ssr:stedsnr" v="216634" />
	</node>
	<node id="-487075" lat="58.3827083338" lon="7.69083333199">
		<tag k="name" v="St. Helena" />
		<tag k="place" v="islet" />
		<tag k="ssr:stedsnr" v="216632" />
	</node>
	<node id="-487074" lat="58.3202611068" lon="7.90142222212">
		<tag k="name" v="Hestetjønnan" />
		<tag k="natural" v="water" />
		<tag k="ssr:stedsnr" v="216631" />
	</node>
	<node id="-485025" lat="58.3998222191" lon="7.85368888513">
		<tag k="name" v="Gåseflådammen" />
		<tag k="ssr:stedsnr" v="459303" />
		<tag k="waterway" v="dam" />
	</node>
	<node id="-487068" lat="58.2419972218" lon="7.78148611914">
		<tag k="name" v="Kollfjelltjønn" />
		<tag k="natural" v="water" />
		<tag k="ssr:stedsnr" v="216455" />
	</node>
	<node id="-485018" lat="58.4161944483" lon="7.69340556236">
		<tag k="name" v="Lonane" />
		<tag k="natural" v="water" />
		<tag k="ssr:stedsnr" v="277940" />
		<tag k="water" v="lake" />
	</node>
	<node id="-487062" lat="58.3921638856" lon="7.85824999959">
		<tag k="name" v="Stemdalsia" />
		<tag k="natural" v="water" />
		<tag k="ssr:stedsnr" v="216300" />
		<tag k="water" v="lake" />
	</node>
	<node id="-485013" lat="58.325613889" lon="7.91440555958">
		<tag k="name" v="Tranetjønn" />
		<tag k="natural" v="water" />
		<tag k="ssr:stedsnr" v="459257" />
	</node>
	<node id="-485011" lat="58.3176250001" lon="7.72772500359">
		<tag k="name" v="Hagelandstjønn" />
		<tag k="natural" v="water" />
		<tag k="ssr:stedsnr" v="459253" />
	</node>
	<node id="-485010" lat="58.4160388923" lon="7.73423610722">
		<tag k="name" v="Skorsåstjønn" />
		<tag k="natural" v="water" />
		<tag k="ssr:stedsnr" v="459138" />
	</node>
	<node id="-487057" lat="58.3550916675" lon="7.81191944688">
		<tag k="name" v="Leirkilen" />
		<tag k="natural" v="bay" />
		<tag k="ssr:stedsnr" v="216197" />
	</node>
	<node id="-485001" lat="58.3091999958" lon="7.92294999468">
		<tag k="name" v="Lomtjønn" />
		<tag k="natural" v="water" />
		<tag k="ssr:stedsnr" v="277522" />
	</node>
	<node id="-487042" lat="58.2744444473" lon="7.93283054788">
		<tag k="name" v="Kveldreistjønn" />
		<tag k="natural" v="water" />
		<tag k="ssr:stedsnr" v="216154" />
	</node>
	<node id="-484993" lat="58.2437361126" lon="7.93938610317">
		<tag k="name" v="Frakkekilen" />
		<tag k="natural" v="bay" />
		<tag k="ssr:stedsnr" v="277458" />
	</node>
	<node id="-484991" lat="58.3980527792" lon="7.80998888743">
		<tag k="name" v="Lona" />
		<tag k="natural" v="water" />
		<tag k="ssr:stedsnr" v="277425" />
		<tag k="water" v="lake" />
	</node>
	<node id="-484990" lat="58.2571694463" lon="7.99779443658">
		<tag k="name" v="Svartetjønn" />
		<tag k="natural" v="water" />
		<tag k="ssr:stedsnr" v="277423" />
	</node>
	<node id="-484988" lat="58.3387750016" lon="7.68510833984">
		<tag k="name" v="Nordtjønn" />
		<tag k="natural" v="water" />
		<tag k="ssr:stedsnr" v="277411" />
	</node>
	<node id="-487026" lat="58.3384083303" lon="7.97337500339">
		<tag k="name" v="Olastjønn" />
		<tag k="natural" v="water" />
		<tag k="ssr:stedsnr" v="216089" />
	</node>
	<node id="-484968" lat="58.4157194419" lon="7.74182222905">
		<tag k="name" v="Eintrestemmen" />
		<tag k="place" v="locality" />
		<tag k="ssr:stedsnr" v="277116" />
	</node>
	<node id="-484966" lat="58.37703056" lon="7.85258055986">
		<tag k="name" v="Nesane" />
		<tag k="natural" v="cape" />
		<tag k="ssr:stedsnr" v="276953" />
	</node>
	<node id="-487013" lat="58.2931611105" lon="7.89562222265">
		<tag k="name" v="Krakketjønn" />
		<tag k="natural" v="water" />
		<tag k="ssr:stedsnr" v="216123" />
	</node>
	<node id="-484961" lat="58.3957722186" lon="7.68925833655">
		<tag k="name" v="Lonane" />
		<tag k="natural" v="water" />
		<tag k="ssr:stedsnr" v="459025" />
		<tag k="water" v="lake" />
	</node>
	<node id="-484960" lat="58.3365361139" lon="7.63823611041">
		<tag k="name" v="Storeneset" />
		<tag k="natural" v="cape" />
		<tag k="ssr:stedsnr" v="459024" />
	</node>
	<node id="-484958" lat="58.3991111105" lon="7.69370833623">
		<tag k="name" v="Flåtjønn" />
		<tag k="natural" v="water" />
		<tag k="ssr:stedsnr" v="459022" />
	</node>
	<node id="-487005" lat="58.4129749959" lon="7.706147215">
		<tag k="alt_name" v="Gamaltjørn" />
		<tag k="name" v="Gåmålstjønn" />
		<tag k="natural" v="water" />
		<tag k="ssr:stedsnr" v="182963" />
	</node>
	<node id="-487003" lat="58.3511999974" lon="7.63563888732">
		<tag k="alt_name" v="Butjørn" />
		<tag k="name" v="Buvann" />
		<tag k="natural" v="water" />
		<tag k="ssr:stedsnr" v="182792" />
	</node>
	<node id="-486997" lat="58.3245416688" lon="8.00067222173">
		<tag k="alt_name" v="Åmdalstjørna" />
		<tag k="name" v="Åmdalstjønna" />
		<tag k="natural" v="water" />
		<tag k="ssr:stedsnr" v="182106" />
	</node>
	<node id="-486993" lat="58.2914416688" lon="7.74308054806">
		<tag k="alt_name" v="Dynestøltjerna" />
		<tag k="name" v="Dynestøltjønn" />
		<tag k="natural" v="water" />
		<tag k="ssr:stedsnr" v="182025" />
	</node>
	<node id="-486992" lat="58.3115666632" lon="8.02844999589">
		<tag k="alt_name" v="Bjortjørn" />
		<tag k="name" v="Bjortjønn" />
		<tag k="natural" v="water" />
		<tag k="ssr:stedsnr" v="182023" />
	</node>
	<node id="-486991" lat="58.297383331" lon="7.8988222158">
		<tag k="alt_name" v="Tjåvatn" />
		<tag k="name" v="Kjåvann" />
		<tag k="natural" v="water" />
		<tag k="ssr:stedsnr" v="182019" />
		<tag k="water" v="lake" />
	</node>
	<node id="-486990" lat="58.2829888849" lon="8.0154277798">
		<tag k="alt_name" v="Stemtjørna" />
		<tag k="name" v="Stemtjønn" />
		<tag k="natural" v="water" />
		<tag k="ssr:stedsnr" v="182011" />
	</node>
	<node id="-486988" lat="58.3871888877" lon="7.81194444368">
		<tag k="alt_name" v="Storevatnet" />
		<tag k="name" v="Storevann" />
		<tag k="natural" v="water" />
		<tag k="ssr:stedsnr" v="182169" />
		<tag k="water" v="lake" />
	</node>
	<node id="-484939" lat="58.2656805574" lon="7.77748889542">
		<tag k="name" v="Steholmen" />
		<tag k="place" v="islet" />
		<tag k="ssr:stedsnr" v="276308" />
	</node>
	<node id="-484937" lat="58.3790750021" lon="7.83901388139">
		<tag k="name" v="Kolbladstjønn" />
		<tag k="natural" v="water" />
		<tag k="ssr:stedsnr" v="458934" />
	</node>
	<node id="-486984" lat="58.3163999992" lon="7.98688889426">
		<tag k="alt_name" v="Butjørn" />
		<tag k="name" v="Butjønn" />
		<tag k="natural" v="water" />
		<tag k="ssr:stedsnr" v="182087" />
	</node>
	<node id="-486983" lat="58.3112027796" lon="7.86541665844">
		<tag k="alt_name" v="Stemvatn" />
		<tag k="name" v="Stemvann" />
		<tag k="natural" v="water" />
		<tag k="ssr:stedsnr" v="182085" />
	</node>
	<node id="-486982" lat="58.3453138862" lon="7.89991943787">
		<tag k="name" v="Røyknesfjorden" />
		<tag k="natural" v="water" />
		<tag k="ssr:stedsnr" v="182080" />
		<tag k="water" v="lake" />
	</node>
	<node id="-484932" lat="58.2901611068" lon="7.97126110318">
		<tag k="name" v="Drivenesøya" />
		<tag k="place" v="island" />
		<tag k="ssr:stedsnr" v="276252" />
	</node>
	<node id="-486978" lat="58.3442833301" lon="7.72099445251">
		<tag k="alt_name" v="Jyskartjørna" />
		<tag k="name" v="Gytjønn" />
		<tag k="natural" v="water" />
		<tag k="ssr:stedsnr" v="182055" />
	</node>
	<node id="-484914" lat="58.2900583377" lon="7.81665833462">
		<tag k="name" v="Lille Suglemyrtjønn" />
		<tag k="natural" v="water" />
		<tag k="ssr:stedsnr" v="458343" />
	</node>
	<node id="-485640" lat="58.3547027807" lon="7.77065834056">
		<tag k="name" v="Svartehøl" />
		<tag k="place" v="locality" />
		<tag k="ssr:stedsnr" v="640818" />
	</node>
	<node id="-484909" lat="58.2731111116" lon="7.87673055025">
		<tag k="name" v="Vedretjønn" />
		<tag k="natural" v="water" />
		<tag k="ssr:stedsnr" v="458234" />
	</node>
	<node id="-484900" lat="58.3708138876" lon="7.73903610284">
		<tag k="name" v="Sandbrunbekken" />
		<tag k="ssr:stedsnr" v="519528" />
		<tag k="waterway" v="stream" />
	</node>
	<node id="-486945" lat="58.2445027819" lon="7.85003333745">
		<tag k="name" v="Bladetjønna" />
		<tag k="natural" v="water" />
		<tag k="ssr:stedsnr" v="156505" />
	</node>
	<node id="-486944" lat="58.257736113" lon="7.90633333557">
		<tag k="name" v="Stølebekken" />
		<tag k="ssr:stedsnr" v="156503" />
		<tag k="waterway" v="stream" />
	</node>
	<node id="-484895" lat="58.3492583377" lon="7.68290277129">
		<tag k="alt_name" v="Stemmetjørn" />
		<tag k="name" v="Stemtjønn" />
		<tag k="natural" v="water" />
		<tag k="ssr:stedsnr" v="243808" />
	</node>
	<node id="-486942" lat="58.2230305531" lon="7.94689721701">
		<tag k="name" v="Store Stem" />
		<tag k="place" v="locality" />
		<tag k="ssr:stedsnr" v="156282" />
	</node>
	<node id="-484893" lat="58.4455388906" lon="7.70250555173">
		<tag k="alt_name" v="Hisvatnet" />
		<tag k="name" v="Hisvannet" />
		<tag k="natural" v="water" />
		<tag k="ssr:stedsnr" v="243919" />
	</node>
	<node id="-484892" lat="58.3402444406" lon="7.68955277741">
		<tag k="fixme" v="multiple name tags, choose one and add the other to alt_name" />
		<tag k="name" v="Jordstjønn;Vollantjørna" />
		<tag k="natural" v="water" />
		<tag k="ssr:stedsnr" v="243769" />
	</node>
	<node id="-484890" lat="58.3171916635" lon="7.87904444226">
		<tag k="alt_name" v="Løyningsvatn" />
		<tag k="name" v="Løyningsvannet" />
		<tag k="natural" v="water" />
		<tag k="ssr:stedsnr" v="243114" />
	</node>
	<node id="-484887" lat="58.3388370639" lon="8.05588633575">
		<tag k="alt_name" v="Kvaretjørna" />
		<tag k="name" v="Kvaretjønn" />
		<tag k="natural" v="water" />
		<tag k="ssr:stedsnr" v="243110" />
	</node>
	<node id="-486934" lat="58.3561416632" lon="7.65963610353">
		<tag k="name" v="Svartetjønn" />
		<tag k="natural" v="water" />
		<tag k="ssr:stedsnr" v="155979" />
	</node>
	<node id="-484885" lat="58.2200277741" lon="7.95844166356">
		<tag k="alt_name" v="Sagvatnet" />
		<tag k="name" v="Sagevannet" />
		<tag k="natural" v="water" />
		<tag k="ssr:stedsnr" v="243104" />
	</node>
	<node id="-486932" lat="58.375191666" lon="7.90690555447">
		<tag k="name" v="Sauehalvøya" />
		<tag k="natural" v="cape" />
		<tag k="ssr:stedsnr" v="155967" />
	</node>
	<node id="-486930" lat="58.3463666657" lon="7.90109999862">
		<tag k="name" v="Snauholmen" />
		<tag k="place" v="islet" />
		<tag k="ssr:stedsnr" v="155962" />
	</node>
	<node id="-486922" lat="58.4135305587" lon="7.70080000836">
		<tag k="name" v="Hesteselen" />
		<tag k="natural" v="cape" />
		<tag k="ssr:stedsnr" v="155916" />
	</node>
	<node id="-484871" lat="58.2544999988" lon="7.87515833496">
		<tag k="name" v="Vatnedalsvann" />
		<tag k="natural" v="water" />
		<tag k="ssr:stedsnr" v="217534" />
	</node>
	<node id="-484869" lat="58.2547527746" lon="7.94249999936">
		<tag k="name" v="Låsmyrbekken" />
		<tag k="ssr:stedsnr" v="217505" />
		<tag k="waterway" v="stream" />
	</node>
	<node id="-486915" lat="58.4169638898" lon="7.71327499392">
		<tag k="name" v="Bringtjønn" />
		<tag k="natural" v="water" />
		<tag k="ssr:stedsnr" v="155899" />
	</node>
	<node id="-484949" lat="58.2972972264" lon="8.01713611648">
		<tag k="name" v="Lyngodden" />
		<tag k="natural" v="cape" />
		<tag k="ssr:stedsnr" v="276915" />
	</node>
	<node id="-484859" lat="58.3449638915" lon="7.74545277423">
		<tag k="name" v="Raggetassen" />
		<tag k="place" v="islet" />
		<tag k="ssr:stedsnr" v="216822" />
	</node>
	<node id="-486906" lat="58.3007972238" lon="8.02001389677">
		<tag k="name" v="Strengenes" />
		<tag k="natural" v="cape" />
		<tag k="ssr:stedsnr" v="155863" />
	</node>
	<node id="-486904" lat="58.3612861144" lon="7.79618610307">
		<tag k="name" v="Espelandstjønn" />
		<tag k="natural" v="water" />
		<tag k="ssr:stedsnr" v="155840" />
	</node>
	<node id="-484855" lat="58.3643083304" lon="7.73934444325">
		<tag k="name" v="Stemtjønn" />
		<tag k="natural" v="water" />
		<tag k="ssr:stedsnr" v="216753" />
	</node>
	<node id="-486898" lat="58.4451472242" lon="7.77998333783">
		<tag k="name" v="Lona" />
		<tag k="natural" v="water" />
		<tag k="ssr:stedsnr" v="155783" />
		<tag k="water" v="lake" />
	</node>
	<node id="-486896" lat="58.353766668" lon="7.71119999166">
		<tag k="name" v="Litjønn" />
		<tag k="natural" v="water" />
		<tag k="ssr:stedsnr" v="155775" />
	</node>
	<node id="-484847" lat="58.3803388868" lon="7.76607500027">
		<tag k="name" v="Surtetjønn" />
		<tag k="natural" v="water" />
		<tag k="ssr:stedsnr" v="216706" />
	</node>
	<node id="-484845" lat="58.3925250026" lon="7.83068333982">
		<tag k="name" v="Rikreistjønn" />
		<tag k="natural" v="water" />
		<tag k="ssr:stedsnr" v="216447" />
	</node>
	<node id="-484843" lat="58.3934111077" lon="7.80023055164">
		<tag k="name" v="Knipetjønn" />
		<tag k="natural" v="water" />
		<tag k="ssr:stedsnr" v="216427" />
	</node>
	<node id="-486887" lat="58.364425003" lon="7.72389722347">
		<tag k="name" v="Heitjønn" />
		<tag k="natural" v="water" />
		<tag k="ssr:stedsnr" v="155739" />
	</node>
	<node id="-486886" lat="58.3643833317" lon="7.68056667219">
		<tag k="name" v="Hestetjønn" />
		<tag k="natural" v="water" />
		<tag k="ssr:stedsnr" v="155732" />
	</node>
	<node id="-486882" lat="58.3865388845" lon="7.73637221448">
		<tag k="name" v="Lona" />
		<tag k="natural" v="water" />
		<tag k="ssr:stedsnr" v="155709" />
		<tag k="water" v="lake" />
	</node>
	<node id="-486881" lat="58.3165499958" lon="7.82428610924">
		<tag k="name" v="Svartetjønn" />
		<tag k="natural" v="water" />
		<tag k="ssr:stedsnr" v="155708" />
	</node>
	<node id="-484831" lat="58.2946583331" lon="7.84669722047">
		<tag k="name" v="Skarpenglandsvann" />
		<tag k="natural" v="water" />
		<tag k="ssr:stedsnr" v="216046" />
		<tag k="water" v="lake" />
	</node>
	<node id="-484828" lat="58.3382861131" lon="7.63352221549">
		<tag k="name" v="Pinetangen" />
		<tag k="natural" v="cape" />
		<tag k="ssr:stedsnr" v="216024" />
	</node>
	<node id="-486875" lat="58.3774749974" lon="7.71245555666">
		<tag k="name" v="Bjelkelona" />
		<tag k="natural" v="water" />
		<tag k="ssr:stedsnr" v="155665" />
		<tag k="water" v="lake" />
	</node>
	<node id="-484824" lat="58.3289194481" lon="7.98819721664">
		<tag k="name" v="Knipetjønn" />
		<tag k="natural" v="water" />
		<tag k="ssr:stedsnr" v="215127" />
	</node>
	<node id="-486870" lat="58.3791694466" lon="7.69039166525">
		<tag k="name" v="Kvennhuslona" />
		<tag k="natural" v="water" />
		<tag k="ssr:stedsnr" v="155642" />
		<tag k="water" v="lake" />
	</node>
	<node id="-486869" lat="58.4513083339" lon="7.69889721712">
		<tag k="name" v="Skrubbsurtjønn" />
		<tag k="natural" v="water" />
		<tag k="ssr:stedsnr" v="155637" />
	</node>
	<node id="-484820" lat="58.2471472247" lon="7.77697221975">
		<tag k="alt_name" v="Tangetjørnane" />
		<tag k="name" v="Tangetjønnane" />
		<tag k="natural" v="water" />
		<tag k="ssr:stedsnr" v="291424" />
	</node>
	<node id="-486867" lat="58.4450750035" lon="7.71165833119">
		<tag k="name" v="Ljotjelltjønn" />
		<tag k="natural" v="water" />
		<tag k="ssr:stedsnr" v="155632" />
	</node>
	<node id="-486866" lat="58.3688305567" lon="7.64931111334">
		<tag k="name" v="Kattepytten" />
		<tag k="natural" v="water" />
		<tag k="ssr:stedsnr" v="155629" />
		<tag k="water" v="pond" />
	</node>
	<node id="-486864" lat="58.3222888854" lon="7.88733334055">
		<tag k="name" v="Grastjønn" />
		<tag k="natural" v="water" />
		<tag k="ssr:stedsnr" v="155614" />
	</node>
	<node id="-486859" lat="58.3126805587" lon="7.78500555167">
		<tag k="name" v="Vitjønn" />
		<tag k="natural" v="water" />
		<tag k="ssr:stedsnr" v="155587" />
	</node>
	<node id="-486849" lat="58.381452774" lon="7.81422500814">
		<tag k="name" v="Tangen" />
		<tag k="natural" v="cape" />
		<tag k="ssr:stedsnr" v="155514" />
	</node>
	<node id="-485280" lat="58.262652779" lon="7.86416944335">
		<tag k="name" v="Mønevann" />
		<tag k="natural" v="water" />
		<tag k="ssr:stedsnr" v="519214" />
	</node>
	<node id="-484597" lat="58.321130553" lon="8.02221111144">
		<tag k="name" v="Tretjønnane" />
		<tag k="natural" v="water" />
		<tag k="ssr:stedsnr" v="95412" />
	</node>
	<node id="-486844" lat="58.2782972256" lon="8.01718056201">
		<tag k="name" v="Bjortjønn" />
		<tag k="natural" v="water" />
		<tag k="ssr:stedsnr" v="155488" />
	</node>
	<node id="-486985" lat="58.3022166691" lon="7.85478611815">
		<tag k="alt_name" v="Bærvatn" />
		<tag k="name" v="Bærvannet" />
		<tag k="natural" v="water" />
		<tag k="ssr:stedsnr" v="182097" />
	</node>
	<node id="-486833" lat="58.3895888861" lon="7.81833333739">
		<tag k="name" v="Poddetjønn" />
		<tag k="natural" v="water" />
		<tag k="ssr:stedsnr" v="155421" />
	</node>
	<node id="-486831" lat="58.3314333314" lon="7.72784444947">
		<tag k="name" v="Vardeslåttjønn" />
		<tag k="natural" v="water" />
		<tag k="ssr:stedsnr" v="155397" />
	</node>
	<node id="-486829" lat="58.2748277778" lon="7.85126110955">
		<tag k="name" v="Skuggelitjønn" />
		<tag k="natural" v="water" />
		<tag k="ssr:stedsnr" v="155371" />
	</node>
	<node id="-486828" lat="58.4064194471" lon="7.80377777783">
		<tag k="name" v="Lyngheibekken" />
		<tag k="ssr:stedsnr" v="155368" />
		<tag k="waterway" v="stream" />
	</node>
	<node id="-485618" lat="58.2505861075" lon="7.86634166693">
		<tag k="alt_name" v="Lonan" />
		<tag k="name" v="Lona" />
		<tag k="natural" v="water" />
		<tag k="ssr:stedsnr" v="728036" />
	</node>
	<node id="-486820" lat="58.3431500042" lon="7.79401388778">
		<tag k="name" v="Dyntjønn" />
		<tag k="natural" v="water" />
		<tag k="ssr:stedsnr" v="155340" />
	</node>
	<node id="-486815" lat="58.2896416627" lon="7.79206111797">
		<tag k="name" v="Målvollkilen" />
		<tag k="natural" v="bay" />
		<tag k="ssr:stedsnr" v="155313" />
	</node>
	<node id="-486814" lat="58.2888805551" lon="7.80250832959">
		<tag k="name" v="Trolldalsvika" />
		<tag k="natural" v="bay" />
		<tag k="ssr:stedsnr" v="155311" />
	</node>
	<node id="-486810" lat="58.3409222259" lon="7.83991110931">
		<tag k="name" v="Radetjønn" />
		<tag k="natural" v="water" />
		<tag k="ssr:stedsnr" v="155301" />
	</node>
	<node id="-484761" lat="58.4510000006" lon="7.79689166609">
		<tag k="name" v="Auglandsbukta" />
		<tag k="natural" v="bay" />
		<tag k="ssr:stedsnr" v="277978" />
	</node>
	<node id="-484757" lat="58.3837111152" lon="7.90436111091">
		<tag k="name" v="Øverro" />
		<tag k="place" v="locality" />
		<tag k="ssr:stedsnr" v="277960" />
	</node>
	<node id="-484752" lat="58.347111109" lon="7.70900556201">
		<tag k="name" v="Hægsåtjønn" />
		<tag k="natural" v="water" />
		<tag k="ssr:stedsnr" v="277786" />
	</node>
	<node id="-484748" lat="58.4345888889" lon="7.69679444897">
		<tag k="name" v="Krossdalstjønn" />
		<tag k="natural" v="water" />
		<tag k="ssr:stedsnr" v="277768" />
	</node>
	<node id="-484746" lat="58.4362000033" lon="7.700547229">
		<tag k="name" v="Tomtjønn" />
		<tag k="natural" v="water" />
		<tag k="ssr:stedsnr" v="277752" />
	</node>
	<node id="-486793" lat="58.2645111088" lon="7.75871665844">
		<tag k="name" v="Månetjønn" />
		<tag k="natural" v="water" />
		<tag k="ssr:stedsnr" v="155250" />
	</node>
	<node id="-484744" lat="58.377911108" lon="7.72027500002">
		<tag k="name" v="Skothølen" />
		<tag k="place" v="locality" />
		<tag k="ssr:stedsnr" v="277689" />
	</node>
	<node id="-486791" lat="58.4075138907" lon="7.66459722633">
		<tag k="name" v="Breitjønn" />
		<tag k="natural" v="water" />
		<tag k="ssr:stedsnr" v="155245" />
	</node>
	<node id="-486790" lat="58.3469833364" lon="7.81543333933">
		<tag k="name" v="Buneset" />
		<tag k="natural" v="cape" />
		<tag k="ssr:stedsnr" v="155243" />
	</node>
	<node id="-486789" lat="58.3451694405" lon="7.78981388832">
		<tag k="name" v="Meåstjønn" />
		<tag k="natural" v="water" />
		<tag k="ssr:stedsnr" v="155238" />
	</node>
	<node id="-484738" lat="58.370380552" lon="7.68541944636">
		<tag k="name" v="Merkevolltjønna" />
		<tag k="natural" v="water" />
		<tag k="ssr:stedsnr" v="277679" />
	</node>
	<node id="-484735" lat="58.3836249959" lon="7.70729445183">
		<tag k="name" v="Stemtjønn" />
		<tag k="natural" v="water" />
		<tag k="ssr:stedsnr" v="277661" />
	</node>
	<node id="-486774" lat="58.2881499959" lon="7.96272777255">
		<tag k="name" v="Kilen" />
		<tag k="natural" v="bay" />
		<tag k="ssr:stedsnr" v="155186" />
	</node>
	<node id="-484724" lat="58.3834611113" lon="7.83984999625">
		<tag k="name" v="Storetjønn" />
		<tag k="natural" v="water" />
		<tag k="ssr:stedsnr" v="277563" />
	</node>
	<node id="-484722" lat="58.2468944452" lon="7.90685556274">
		<tag k="name" v="Lolandsdalstjønna" />
		<tag k="natural" v="water" />
		<tag k="ssr:stedsnr" v="277546" />
	</node>
	<node id="-486769" lat="58.3504999957" lon="7.9993805603">
		<tag k="name" v="Tritjønnane" />
		<tag k="natural" v="water" />
		<tag k="ssr:stedsnr" v="155172" />
	</node>
	<node id="-484719" lat="58.3096361073" lon="7.94273333834">
		<tag k="name" v="Lille Vrengtjønn" />
		<tag k="natural" v="water" />
		<tag k="ssr:stedsnr" v="277528" />
	</node>
	<node id="-484717" lat="58.3159472197" lon="8.03111943796">
		<tag k="name" v="Lonefossen" />
		<tag k="natural" v="waterfall" />
		<tag k="ssr:stedsnr" v="277451" />
	</node>
	<node id="-484714" lat="58.244155559" lon="7.9493416583">
		<tag k="name" v="Ålestrømmen" />
		<tag k="ssr:stedsnr" v="277438" />
		<tag k="waterway" v="rapids" />
	</node>
	<node id="-486758" lat="58.293113886" lon="7.88358611129">
		<tag k="name" v="Fyllstjønn" />
		<tag k="natural" v="water" />
		<tag k="ssr:stedsnr" v="155067" />
	</node>
	<node id="-486757" lat="58.3386361076" lon="8.02245555905">
		<tag k="name" v="Åmdalstjønna" />
		<tag k="natural" v="water" />
		<tag k="ssr:stedsnr" v="155064" />
	</node>
	<node id="-486755" lat="58.3324361095" lon="8.03015000431">
		<tag k="name" v="Hågånhølen" />
		<tag k="place" v="locality" />
		<tag k="ssr:stedsnr" v="155039" />
	</node>
	<node id="-484706" lat="58.3911694451" lon="7.74086944745">
		<tag k="name" v="Hommeneset" />
		<tag k="natural" v="cape" />
		<tag k="ssr:stedsnr" v="277346" />
	</node>
	<node id="-486753" lat="58.3747611071" lon="7.85705833128">
		<tag k="name" v="Homevannsneset" />
		<tag k="natural" v="cape" />
		<tag k="ssr:stedsnr" v="154935" />
	</node>
	<node id="-486748" lat="58.3727333368" lon="7.69690833502">
		<tag k="alt_name" v="Sandtveitvatnet" />
		<tag k="name" v="Sandtveitvannet" />
		<tag k="natural" v="water" />
		<tag k="ssr:stedsnr" v="121969" />
		<tag k="water" v="lake" />
	</node>
	<node id="-487099" lat="58.2532361137" lon="7.93122778321">
		<tag k="name" v="Rauåna" />
		<tag k="ssr:stedsnr" v="303030" />
		<tag k="waterway" v="stream" />
	</node>
	<node id="-484697" lat="58.2284833357" lon="7.94286388752">
		<tag k="name" v="Butjønn" />
		<tag k="natural" v="water" />
		<tag k="ssr:stedsnr" v="277280" />
	</node>
	<node id="-486744" lat="58.4584653454" lon="7.718591078">
		<tag k="alt_name" v="Vålevatn;Vålevatnet" />
		<tag k="name" v="Vålevannet" />
		<tag k="natural" v="water" />
		<tag k="ssr:stedsnr" v="121243" />
	</node>
	<node id="-486735" lat="58.345163886" lon="7.84754722498">
		<tag k="alt_name" v="Fisketjørn" />
		<tag k="name" v="Fisketjønn" />
		<tag k="natural" v="water" />
		<tag k="ssr:stedsnr" v="121084" />
	</node>
	<node id="-484684" lat="58.2911638918" lon="7.81919721904">
		<tag k="name" v="Leirbekken" />
		<tag k="ssr:stedsnr" v="277245" />
		<tag k="waterway" v="stream" />
	</node>
	<node id="-486731" lat="58.300299996" lon="7.74772778071">
		<tag k="alt_name" v="Tovetjørna" />
		<tag k="name" v="Tjovetjønn" />
		<tag k="natural" v="water" />
		<tag k="ssr:stedsnr" v="121030" />
	</node>
	<node id="-484682" lat="58.3329416708" lon="7.90215278196">
		<tag k="name" v="Sandtjønn" />
		<tag k="natural" v="water" />
		<tag k="ssr:stedsnr" v="277238" />
	</node>
	<node id="-484678" lat="58.4173833365" lon="7.78696388114">
		<tag k="name" v="Lyngholmane" />
		<tag k="place" v="island" />
		<tag k="ssr:stedsnr" v="277187" />
	</node>
	<node id="-484677" lat="58.4186527752" lon="7.79305277668">
		<tag k="name" v="Leitesneset" />
		<tag k="place" v="islet" />
		<tag k="ssr:stedsnr" v="277186" />
	</node>
	<node id="-484676" lat="58.4117805527" lon="7.78466388974">
		<tag k="name" v="Hangaren" />
		<tag k="natural" v="cape" />
		<tag k="ssr:stedsnr" v="277185" />
	</node>
	<node id="-484674" lat="58.4183833356" lon="7.77976110624">
		<tag k="name" v="Uråna" />
		<tag k="ssr:stedsnr" v="277149" />
		<tag k="waterway" v="river" />
	</node>
	<node id="-484673" lat="58.4161305598" lon="7.78017499808">
		<tag k="name" v="Borneset" />
		<tag k="natural" v="cape" />
		<tag k="ssr:stedsnr" v="277147" />
	</node>
	<node id="-484671" lat="58.4075166626" lon="7.7409444376">
		<tag k="name" v="St. Olavskjelda" />
		<tag k="place" v="locality" />
		<tag k="ssr:stedsnr" v="277094" />
	</node>
	<node id="-484670" lat="58.4020055596" lon="7.73765833481">
		<tag k="name" v="Blomtjønn" />
		<tag k="natural" v="water" />
		<tag k="ssr:stedsnr" v="277091" />
	</node>
	<node id="-484668" lat="58.379611113" lon="7.84483333419">
		<tag k="name" v="Beverlona" />
		<tag k="natural" v="water" />
		<tag k="ssr:stedsnr" v="276948" />
		<tag k="water" v="lake" />
	</node>
	<node id="-484575" lat="58.3511416674" lon="7.6990222276">
		<tag k="name" v="Odden" />
		<tag k="natural" v="cape" />
		<tag k="ssr:stedsnr" v="34769" />
	</node>
	<node id="-484664" lat="58.3690749991" lon="7.86061388556">
		<tag k="name" v="Smalsund" />
		<tag k="natural" v="water" />
		<tag k="ssr:stedsnr" v="276943" />
		<tag k="water" v="lake" />
	</node>
	<node id="-484661" lat="58.2954111148" lon="7.97638333579">
		<tag k="name" v="Nesane" />
		<tag k="natural" v="cape" />
		<tag k="ssr:stedsnr" v="276939" />
	</node>
	<node id="-484650" lat="58.2513666674" lon="7.7582000036">
		<tag k="name" v="Vedretjønn" />
		<tag k="natural" v="water" />
		<tag k="ssr:stedsnr" v="276632" />
	</node>
	<node id="-486693" lat="58.3610638878" lon="7.65543333388">
		<tag k="name" v="Mørkestølkilen" />
		<tag k="natural" v="bay" />
		<tag k="ssr:stedsnr" v="95997" />
	</node>
	<node id="-484644" lat="58.285494447" lon="7.7904111144">
		<tag k="name" v="Flottmyrkilen" />
		<tag k="natural" v="bay" />
		<tag k="ssr:stedsnr" v="276385" />
	</node>
	<node id="-484642" lat="58.2882500001" lon="7.79604166453">
		<tag k="name" v="Kalvodden" />
		<tag k="natural" v="cape" />
		<tag k="ssr:stedsnr" v="276379" />
	</node>
	<node id="-486689" lat="58.3625916684" lon="7.63238888589">
		<tag k="name" v="Kyretjønn" />
		<tag k="natural" v="water" />
		<tag k="ssr:stedsnr" v="95946" />
	</node>
	<node id="-484639" lat="58.2719694439" lon="7.94644165856">
		<tag k="name" v="Skottjønn" />
		<tag k="natural" v="water" />
		<tag k="ssr:stedsnr" v="276219" />
	</node>
	<node id="-484632" lat="58.3404861124" lon="8.00362222461">
		<tag k="name" v="Butjønn" />
		<tag k="natural" v="water" />
		<tag k="ssr:stedsnr" v="276089" />
	</node>
	<node id="-486679" lat="58.4543555558" lon="7.73198333632">
		<tag k="name" v="Høgeheitjønn" />
		<tag k="natural" v="water" />
		<tag k="ssr:stedsnr" v="95570" />
	</node>
	<node id="-486668" lat="58.2423722257" lon="7.94018610955">
		<tag k="name" v="Holmane" />
		<tag k="place" v="islet" />
		<tag k="ssr:stedsnr" v="95545" />
	</node>
	<node id="-486666" lat="58.3806138933" lon="7.85902222266">
		<tag k="name" v="Krikkekilen" />
		<tag k="natural" v="bay" />
		<tag k="ssr:stedsnr" v="95532" />
	</node>
	<node id="-486659" lat="58.3394944486" lon="7.78231111462">
		<tag k="name" v="Øksetjønn" />
		<tag k="natural" v="water" />
		<tag k="ssr:stedsnr" v="95292" />
	</node>
	<node id="-485931" lat="58.3773583351" lon="7.78480834053">
		<tag k="alt_name" v="Nedretjørna" />
		<tag k="name" v="Nedretjønn" />
		<tag k="natural" v="water" />
		<tag k="ssr:stedsnr" v="910180" />
	</node>
	<node id="-486656" lat="58.2946083304" lon="7.82036944545">
		<tag k="name" v="Lonemyrtjønn" />
		<tag k="natural" v="water" />
		<tag k="ssr:stedsnr" v="95254" />
	</node>
	<node id="-484606" lat="58.3627361066" lon="7.68495555135">
		<tag k="name" v="Gjengstitjønn" />
		<tag k="natural" v="water" />
		<tag k="ssr:stedsnr" v="95713" />
	</node>
	<node id="-485391" lat="58.2572222248" lon="7.96372778604">
		<tag k="name" v="Hallandsfossen" />
		<tag k="natural" v="waterfall" />
		<tag k="ssr:stedsnr" v="520422" />
	</node>
	<node id="-484604" lat="58.3192750032" lon="7.97342777109">
		<tag k="name" v="Kuåna" />
		<tag k="ssr:stedsnr" v="95558" />
		<tag k="waterway" v="river" />
	</node>
	<node id="-484603" lat="58.321216664" lon="7.9767666616">
		<tag k="name" v="Bjorhølen" />
		<tag k="place" v="locality" />
		<tag k="ssr:stedsnr" v="95557" />
	</node>
	<node id="-486649" lat="58.3194083336" lon="7.7359000044">
		<tag k="name" v="Tometjønn" />
		<tag k="natural" v="water" />
		<tag k="ssr:stedsnr" v="95216" />
	</node>
	<node id="-486647" lat="58.3991805593" lon="7.66109167045">
		<tag k="name" v="Kalvedalstjønn" />
		<tag k="natural" v="water" />
		<tag k="ssr:stedsnr" v="95201" />
	</node>
	<node id="-486645" lat="58.3497083357" lon="7.78698610586">
		<tag k="name" v="Espetjønn" />
		<tag k="natural" v="water" />
		<tag k="ssr:stedsnr" v="95194" />
	</node>
	<node id="-486644" lat="58.3478055535" lon="7.7910166688">
		<tag k="name" v="Klåmretjønn" />
		<tag k="natural" v="water" />
		<tag k="ssr:stedsnr" v="95192" />
	</node>
	<node id="-486640" lat="58.4111638853" lon="7.77020277082">
		<tag k="name" v="Trelertangen" />
		<tag k="natural" v="cape" />
		<tag k="ssr:stedsnr" v="95186" />
	</node>
	<node id="-486637" lat="58.4277416697" lon="7.79794722089">
		<tag k="name" v="Ytre Langvik" />
		<tag k="natural" v="bay" />
		<tag k="ssr:stedsnr" v="95181" />
	</node>
	<node id="-484587" lat="58.3303166625" lon="7.88105833325">
		<tag k="name" v="Løyningsåna" />
		<tag k="ssr:stedsnr" v="95253" />
		<tag k="waterway" v="river" />
	</node>
	<node id="-484583" lat="58.2427916702" lon="7.78943611779">
		<tag k="alt_name" v="Krossvatnet" />
		<tag k="name" v="Krossvann" />
		<tag k="natural" v="water" />
		<tag k="ssr:stedsnr" v="243085" />
	</node>
	<node id="-486628" lat="58.3273055536" lon="8.05786666748">
		<tag k="name" v="Svanetjønn" />
		<tag k="natural" v="water" />
		<tag k="ssr:stedsnr" v="95033" />
	</node>
	<node id="-485926" lat="58.301425004" lon="8.069655555">
		<tag k="alt_name" v="Hulleråstjørna" />
		<tag k="name" v="Huldreåstjønna" />
		<tag k="natural" v="water" />
		<tag k="ssr:stedsnr" v="910031" />
	</node>
	<node id="-486623" lat="58.2869972252" lon="8.03256943916">
		<tag k="name" v="Eikelandsvannet" />
		<tag k="natural" v="water" />
		<tag k="ssr:stedsnr" v="94974" />
		<tag k="water" v="lake" />
	</node>
	<node id="-485242" lat="58.2615222236" lon="7.88458054921">
		<tag k="alt_name" v="Engelsvatnet" />
		<tag k="name" v="Engelsvann" />
		<tag k="natural" v="water" />
		<tag k="ssr:stedsnr" v="425052" />
	</node>
	<node id="-484569" lat="58.3271777807" lon="7.98226111737">
		<tag k="name" v="Igletjønn" />
		<tag k="natural" v="water" />
		<tag k="ssr:stedsnr" v="33140" />
	</node>
	<node id="-486607" lat="58.2795138845" lon="8.0089527726">
		<tag k="name" v="Uletjønn" />
		<tag k="natural" v="water" />
		<tag k="ssr:stedsnr" v="94590" />
	</node>
	<node id="-486606" lat="58.2431888859" lon="7.73923889478">
		<tag k="name" v="Småtjønnane" />
		<tag k="natural" v="water" />
		<tag k="ssr:stedsnr" v="94583" />
	</node>
	<node id="-486598" lat="58.3152555569" lon="7.75447222249">
		<tag k="name" v="Tjomsåsvann" />
		<tag k="natural" v="water" />
		<tag k="ssr:stedsnr" v="94320" />
	</node>
	<node id="-485921" lat="58.3796055587" lon="7.85209722041">
		<tag k="name" v="Storeholmen" />
		<tag k="place" v="islet" />
		<tag k="ssr:stedsnr" v="897910" />
	</node>
	<node id="-486596" lat="58.2688333377" lon="7.84993610388">
		<tag k="name" v="Rona" />
		<tag k="natural" v="strait" />
		<tag k="ssr:stedsnr" v="94251" />
	</node>
	<node id="-486595" lat="58.2865277768" lon="7.96931111413">
		<tag k="name" v="Hesteholmane" />
		<tag k="place" v="island" />
		<tag k="ssr:stedsnr" v="94229" />
	</node>
	<node id="-485920" lat="58.3287027813" lon="7.90183610516">
		<tag k="name" v="Lyngtjønn" />
		<tag k="natural" v="water" />
		<tag k="ssr:stedsnr" v="897866" />
	</node>
	<node id="-486590" lat="58.2923444458" lon="7.87732222029">
		<tag k="name" v="Nordtjønn" />
		<tag k="natural" v="water" />
		<tag k="ssr:stedsnr" v="94074" />
	</node>
	<node id="-486589" lat="58.2914444481" lon="7.87897222447">
		<tag k="name" v="Lille Nordtjønn" />
		<tag k="natural" v="water" />
		<tag k="ssr:stedsnr" v="94073" />
	</node>
	<node id="-486587" lat="58.2964916644" lon="7.74762777049">
		<tag k="name" v="Heietjønn" />
		<tag k="natural" v="water" />
		<tag k="ssr:stedsnr" v="93867" />
	</node>
	<node id="-486586" lat="58.2726722182" lon="7.91724165991">
		<tag k="name" v="Vardetjønn" />
		<tag k="natural" v="water" />
		<tag k="ssr:stedsnr" v="94264" />
	</node>
	<node id="-486580" lat="58.3577055591" lon="7.64598888281">
		<tag k="alt_name" v="Mørkevatnet" />
		<tag k="name" v="Merkevannet" />
		<tag k="natural" v="water" />
		<tag k="ssr:stedsnr" v="61778" />
		<tag k="water" v="lake" />
	</node>
	<node id="-486579" lat="58.3386055511" lon="7.70346388634">
		<tag k="alt_name" v="Langetjørna" />
		<tag k="name" v="Langetjønn" />
		<tag k="natural" v="water" />
		<tag k="ssr:stedsnr" v="61753" />
	</node>
	<node id="-484528" lat="58.2372888925" lon="7.93425833491">
		<tag k="name" v="Lillekil" />
		<tag k="natural" v="bay" />
		<tag k="ssr:stedsnr" v="217550" />
	</node>
	<node id="-484526" lat="58.3802722181" lon="7.78195555454">
		<tag k="alt_name" v="Surtetjørna" />
		<tag k="name" v="Øvretjønn" />
		<tag k="natural" v="water" />
		<tag k="ssr:stedsnr" v="178" />
	</node>
	<node id="-486573" lat="58.3170277746" lon="7.90855000279">
		<tag k="alt_name" v="Fiskelaus" />
		<tag k="name" v="Fiskelausvann" />
		<tag k="natural" v="water" />
		<tag k="ssr:stedsnr" v="61088" />
		<tag k="water" v="lake" />
	</node>
	<node id="-484524" lat="58.4098527741" lon="7.73409444695">
		<tag k="alt_name" v="Stemmevatn" />
		<tag k="name" v="Stemvannet" />
		<tag k="natural" v="water" />
		<tag k="ssr:stedsnr" v="153" />
	</node>
	<node id="-486571" lat="58.2374666628" lon="7.73488333236">
		<tag k="alt_name" v="Langevatnet" />
		<tag k="name" v="Langevann" />
		<tag k="natural" v="water" />
		<tag k="ssr:stedsnr" v="61076" />
	</node>
	<node id="-484522" lat="58.2662416679" lon="7.85278610873">
		<tag k="alt_name" v="Støsvatnet" />
		<tag k="name" v="Stølsvannet" />
		<tag k="natural" v="water" />
		<tag k="ssr:stedsnr" v="55" />
	</node>
	<node id="-486566" lat="58.2500722188" lon="7.78823054745">
		<tag k="alt_name" v="Flottorpvatnet" />
		<tag k="name" v="Flottorpvannet" />
		<tag k="natural" v="water" />
		<tag k="ssr:stedsnr" v="61024" />
	</node>
	<node id="-487161" lat="58.2899583332" lon="7.82636110291">
		<tag k="name" v="Tømmertjønn" />
		<tag k="natural" v="water" />
		<tag k="ssr:stedsnr" v="337296" />
	</node>
	<node id="-484705" lat="58.3201027742" lon="7.67593889542">
		<tag k="name" v="Nestangen" />
		<tag k="natural" v="cape" />
		<tag k="ssr:stedsnr" v="277340" />
	</node>
	<node id="-484886" lat="58.3358638891" lon="7.78491665868">
		<tag k="alt_name" v="Bærvatnet" />
		<tag k="name" v="Bervann" />
		<tag k="natural" v="water" />
		<tag k="ssr:stedsnr" v="243106" />
	</node>
	<node id="-484884" lat="58.2293111099" lon="7.78483889363">
		<tag k="alt_name" v="Jostadvatnet" />
		<tag k="name" v="Jostadvann" />
		<tag k="natural" v="water" />
		<tag k="ssr:stedsnr" v="243077" />
	</node>
	<node id="-486512" lat="58.3482611095" lon="7.64128611756">
		<tag k="name" v="Hobdåstjønn" />
		<tag k="natural" v="water" />
		<tag k="ssr:stedsnr" v="34974" />
	</node>
	<node id="-486508" lat="58.3190638925" lon="8.03199167222">
		<tag k="name" v="Smalsundet" />
		<tag k="place" v="locality" />
		<tag k="ssr:stedsnr" v="34952" />
	</node>
	<node id="-484882" lat="58.3278472199" lon="7.74482500411">
		<tag k="alt_name" v="Lauvåstjørna" />
		<tag k="name" v="Lauvåstjønn" />
		<tag k="natural" v="water" />
		<tag k="ssr:stedsnr" v="243063" />
	</node>
	<node id="-486506" lat="58.4438277757" lon="7.74137499676">
		<tag k="name" v="Den indre stemmen" />
		<tag k="place" v="locality" />
		<tag k="ssr:stedsnr" v="34944" />
	</node>
	<node id="-486501" lat="58.4412416697" lon="7.70017499639">
		<tag k="name" v="Øvre Trolldaltjønn" />
		<tag k="natural" v="water" />
		<tag k="ssr:stedsnr" v="34844" />
	</node>
	<node id="-486246" lat="58.2568777737" lon="7.93412778013">
		<tag k="name" v="Skottjønn" />
		<tag k="natural" v="water" />
		<tag k="ssr:stedsnr" v="945435" />
	</node>
	<node id="-486498" lat="58.3594861131" lon="7.73068610326">
		<tag k="name" v="Berntjønn" />
		<tag k="natural" v="water" />
		<tag k="ssr:stedsnr" v="34796" />
	</node>
	<node id="-486495" lat="58.3555583301" lon="7.76388056026">
		<tag k="name" v="Tjønna" />
		<tag k="natural" v="water" />
		<tag k="ssr:stedsnr" v="34781" />
	</node>
	<node id="-486491" lat="58.3020666633" lon="7.77675833665">
		<tag k="name" v="Sagebekken" />
		<tag k="ssr:stedsnr" v="34685" />
		<tag k="waterway" v="stream" />
	</node>
	<node id="-486484" lat="58.368599996" lon="7.65766944176">
		<tag k="name" v="Svartetjønn" />
		<tag k="natural" v="water" />
		<tag k="ssr:stedsnr" v="34628" />
	</node>
	<node id="-486479" lat="58.4523638862" lon="7.73734723014">
		<tag k="name" v="Jamneheitjønn" />
		<tag k="natural" v="water" />
		<tag k="ssr:stedsnr" v="34584" />
	</node>
	<node id="-486475" lat="58.3812805555" lon="7.85719999242">
		<tag k="name" v="Kvietjønn" />
		<tag k="natural" v="water" />
		<tag k="ssr:stedsnr" v="34548" />
	</node>
	<node id="-486474" lat="58.3018027746" lon="7.9675444477">
		<tag k="name" v="Urfossen" />
		<tag k="natural" v="waterfall" />
		<tag k="ssr:stedsnr" v="34543" />
	</node>
	<node id="-486468" lat="58.3034833305" lon="7.9115972221">
		<tag k="name" v="Skottjønn" />
		<tag k="natural" v="water" />
		<tag k="ssr:stedsnr" v="34502" />
	</node>
	<node id="-485558" lat="58.3820750031" lon="7.79524167284">
		<tag k="name" v="Jammerdalsvann" />
		<tag k="natural" v="water" />
		<tag k="ssr:stedsnr" v="580487" />
		<tag k="water" v="lake" />
	</node>
	<node id="-486465" lat="58.3792416657" lon="7.79797222287">
		<tag k="name" v="Rundtjønn" />
		<tag k="natural" v="water" />
		<tag k="ssr:stedsnr" v="34483" />
	</node>
	<node id="-486459" lat="58.3043638898" lon="7.99633888283">
		<tag k="name" v="Blindetjønn" />
		<tag k="natural" v="water" />
		<tag k="ssr:stedsnr" v="34425" />
	</node>
	<node id="-486452" lat="58.318077779" lon="7.67801110436">
		<tag k="name" v="Ålekilen" />
		<tag k="natural" v="bay" />
		<tag k="ssr:stedsnr" v="34333" />
	</node>
	<node id="-486451" lat="58.3350749982" lon="7.74296945252">
		<tag k="name" v="Maurkleivtjønn" />
		<tag k="natural" v="water" />
		<tag k="ssr:stedsnr" v="34329" />
	</node>
	<node id="-486446" lat="58.3276972238" lon="7.75419721779">
		<tag k="name" v="Knutstjønn" />
		<tag k="natural" v="water" />
		<tag k="ssr:stedsnr" v="34314" />
	</node>
	<node id="-486437" lat="58.3268333356" lon="7.87209722763">
		<tag k="name" v="Kartemyrtjønn" />
		<tag k="natural" v="water" />
		<tag k="ssr:stedsnr" v="34247" />
	</node>
	<node id="-486430" lat="58.3484166655" lon="7.83523611029">
		<tag k="name" v="Lyngtjønn" />
		<tag k="natural" v="water" />
		<tag k="ssr:stedsnr" v="34214" />
	</node>
	<node id="-486425" lat="58.4101583367" lon="7.70798055271">
		<tag k="name" v="Svartetjønn" />
		<tag k="natural" v="water" />
		<tag k="ssr:stedsnr" v="34173" />
	</node>
	<node id="-486421" lat="58.3688555535" lon="8.03746943611">
		<tag k="name" v="Knipetjønn" />
		<tag k="natural" v="water" />
		<tag k="ssr:stedsnr" v="34160" />
	</node>
	<node id="-486417" lat="58.415091664" lon="7.75105556208">
		<tag k="name" v="Verteslått-tjønna" />
		<tag k="natural" v="water" />
		<tag k="ssr:stedsnr" v="34138" />
	</node>
	<node id="-486414" lat="58.3411333357" lon="7.97542500151">
		<tag k="name" v="Lona" />
		<tag k="natural" v="water" />
		<tag k="ssr:stedsnr" v="34122" />
		<tag k="water" v="lake" />
	</node>
	<node id="-485547" lat="58.3924749972" lon="7.80968610966">
		<tag k="name" v="Storevannsvaet" />
		<tag k="natural" v="strait" />
		<tag k="ssr:stedsnr" v="580405" />
	</node>
	<node id="-485178" lat="58.2448527794" lon="7.8660972252">
		<tag k="alt_name" v="Grunntjørn" />
		<tag k="name" v="Grunnetjønn" />
		<tag k="natural" v="water" />
		<tag k="ssr:stedsnr" v="485082" />
	</node>
	<node id="-486378" lat="58.2749" lon="7.88220833051">
		<tag k="name" v="Fiskebekk" />
		<tag k="ssr:stedsnr" v="33213" />
		<tag k="waterway" v="stream" />
	</node>
	<node id="-486372" lat="58.3189472185" lon="7.94186110443">
		<tag k="name" v="Steinfossen" />
		<tag k="natural" v="waterfall" />
		<tag k="ssr:stedsnr" v="30143" />
	</node>
	<node id="-486369" lat="58.4123444429" lon="7.68698055336">
		<tag k="alt_name" v="Fleketjørn" />
		<tag k="name" v="Fleketjønn" />
		<tag k="natural" v="water" />
		<tag k="ssr:stedsnr" v="977" />
	</node>
	<node id="-486368" lat="58.4170777771" lon="7.69747777584">
		<tag k="alt_name" v="Fiskevatnet" />
		<tag k="name" v="Fiskvannet" />
		<tag k="natural" v="water" />
		<tag k="ssr:stedsnr" v="910" />
		<tag k="water" v="lake" />
	</node>
	<node id="-486366" lat="58.4316916642" lon="7.70739443799">
		<tag k="alt_name" v="Lislevatnet" />
		<tag k="name" v="Lislevann" />
		<tag k="natural" v="water" />
		<tag k="ssr:stedsnr" v="892" />
	</node>
	<node id="-486363" lat="58.4393916651" lon="7.79936110698">
		<tag k="alt_name" v="Stemmevatn" />
		<tag k="name" v="Stemvannet" />
		<tag k="natural" v="water" />
		<tag k="ssr:stedsnr" v="235" />
	</node>
	<node id="-486362" lat="58.4430777799" lon="7.73683333682">
		<tag k="alt_name" v="Stemmevatn" />
		<tag k="name" v="Stemvannet" />
		<tag k="natural" v="water" />
		<tag k="ssr:stedsnr" v="228" />
		<tag k="water" v="lake" />
	</node>
	<node id="-486360" lat="58.2705250021" lon="7.70902221425">
		<tag k="alt_name" v="Greipslandsvatnet" />
		<tag k="name" v="Greibeslandsvannet" />
		<tag k="natural" v="water" />
		<tag k="ssr:stedsnr" v="223" />
		<tag k="water" v="lake" />
	</node>
	<node id="-486356" lat="58.3102361152" lon="7.73108611138">
		<tag k="alt_name" v="Knipevatna" />
		<tag k="name" v="Indre Knibevann" />
		<tag k="natural" v="water" />
		<tag k="ssr:stedsnr" v="136" />
	</node>
	<node id="-486352" lat="58.3131055563" lon="7.89679721795">
		<tag k="alt_name" v="Stemtjørn" />
		<tag k="name" v="Stemtjønn" />
		<tag k="natural" v="water" />
		<tag k="ssr:stedsnr" v="104" />
	</node>
	<node id="-484856" lat="58.3831388854" lon="7.64591666578">
		<tag k="name" v="Murtetjønn" />
		<tag k="natural" v="water" />
		<tag k="ssr:stedsnr" v="216608" />
	</node>
	<node id="-486348" lat="58.2530166674" lon="7.79926667267">
		<tag k="alt_name" v="Iglebekkvatnet" />
		<tag k="name" v="Iglevann" />
		<tag k="natural" v="water" />
		<tag k="ssr:stedsnr" v="40" />
	</node>
	<node id="-486345" lat="58.1441416641" lon="8.01308333332">
		<tag k="alt_name" v="Otri" />
		<tag k="name" v="Otra" />
		<tag k="ssr:stedsnr" v="28" />
		<tag k="waterway" v="river" />
	</node>
	<node id="-486342" lat="58.2859555546" lon="7.91824167425">
		<tag k="alt_name" v="Skulebergvatnet" />
		<tag k="name" v="Skulebergvannet" />
		<tag k="natural" v="water" />
		<tag k="ssr:stedsnr" v="6" />
	</node>
	<node id="-486340" lat="58.2253361089" lon="7.75638055879">
		<tag k="name" v="Kravlevann" />
		<tag k="natural" v="water" />
		<tag k="ssr:stedsnr" v="217189" />
		<tag k="water" v="lake" />
	</node>
	<node id="-486332" lat="58.2336333308" lon="7.95241666408">
		<tag k="name" v="Torgrimstjønn" />
		<tag k="natural" v="water" />
		<tag k="ssr:stedsnr" v="945232" />
	</node>
	<node id="-486330" lat="58.2266916646" lon="7.95384722662">
		<tag k="name" v="Fiskebekken" />
		<tag k="ssr:stedsnr" v="945209" />
		<tag k="waterway" v="stream" />
	</node>
	<node id="-485535" lat="58.4074527777" lon="7.77546667188">
		<tag k="name" v="Loppehola" />
		<tag k="natural" v="bay" />
		<tag k="ssr:stedsnr" v="580057" />
	</node>
	<node id="-486324" lat="58.2242499956" lon="7.97889165956">
		<tag k="name" v="Lyngvann" />
		<tag k="natural" v="water" />
		<tag k="ssr:stedsnr" v="217229" />
		<tag k="water" v="lake" />
	</node>
	<node id="-486316" lat="58.3590833299" lon="7.65761111376">
		<tag k="name" v="Verekilen" />
		<tag k="natural" v="bay" />
		<tag k="ssr:stedsnr" v="216998" />
	</node>
	<node id="-486313" lat="58.4486916685" lon="7.79514721883">
		<tag k="name" v="Hornskilen" />
		<tag k="natural" v="bay" />
		<tag k="ssr:stedsnr" v="884974" />
	</node>
	<node id="-486310" lat="58.4468861141" lon="7.78327777284">
		<tag k="name" v="Den hole tjønna" />
		<tag k="natural" v="water" />
		<tag k="ssr:stedsnr" v="884965" />
	</node>
	<node id="-486297" lat="58.3469194442" lon="7.77808610319">
		<tag k="name" v="Kleivtjønn" />
		<tag k="natural" v="water" />
		<tag k="ssr:stedsnr" v="884820" />
	</node>
	<node id="-486296" lat="58.3634111077" lon="7.77783611118">
		<tag k="name" v="Fossåna" />
		<tag k="ssr:stedsnr" v="884810" />
		<tag k="waterway" v="stream" />
	</node>
	<node id="-486294" lat="58.2474555598" lon="7.91330277388">
		<tag k="name" v="Tvitjønnane" />
		<tag k="natural" v="water" />
		<tag k="ssr:stedsnr" v="884506" />
	</node>
	<node id="-486289" lat="58.2451222206" lon="7.85664722653">
		<tag k="name" v="Bulietjønnan" />
		<tag k="natural" v="water" />
		<tag k="ssr:stedsnr" v="884468" />
	</node>
	<node id="-488336" lat="58.3828888854" lon="7.85791111173">
		<tag k="name" v="Lilletjønn" />
		<tag k="natural" v="water" />
		<tag k="ssr:stedsnr" v="957921" />
	</node>
	<node id="-486284" lat="58.3738000041" lon="7.73653889584">
		<tag k="name" v="Øvre Kråketjønn" />
		<tag k="natural" v="water" />
		<tag k="ssr:stedsnr" v="884454" />
	</node>
	<node id="-486277" lat="58.2354166659" lon="7.7797944494">
		<tag k="name" v="Fidjetjønn" />
		<tag k="natural" v="water" />
		<tag k="ssr:stedsnr" v="884260" />
	</node>
	<node id="-486276" lat="58.2326472199" lon="7.77730554946">
		<tag k="name" v="Gyråstjønn" />
		<tag k="natural" v="water" />
		<tag k="ssr:stedsnr" v="884258" />
	</node>
	<node id="-485184" lat="58.2983222239" lon="8.01799444868">
		<tag k="alt_name" v="Grunnevatn" />
		<tag k="name" v="Grunnevannet" />
		<tag k="natural" v="water" />
		<tag k="ssr:stedsnr" v="485028" />
	</node>
	<node id="-486263" lat="58.3417666665" lon="7.65328889154">
		<tag k="name" v="Vassenden" />
		<tag k="natural" v="bay" />
		<tag k="ssr:stedsnr" v="884022" />
	</node>
	<node id="-484696" lat="58.4198055592" lon="7.73869999203">
		<tag k="name" v="Nedre Brulitjønn" />
		<tag k="natural" v="water" />
		<tag k="ssr:stedsnr" v="155157" />
	</node>
	<node id="-486254" lat="58.28716389" lon="7.96587499905">
		<tag k="name" v="Likholmen" />
		<tag k="place" v="islet" />
		<tag k="ssr:stedsnr" v="883215" />
	</node>
	<node id="-484839" lat="58.4064916671" lon="7.66810833563">
		<tag k="name" v="Søyletjønn" />
		<tag k="natural" v="water" />
		<tag k="ssr:stedsnr" v="216212" />
	</node>
	<node id="-488295" lat="58.3572472227" lon="7.692599996">
		<tag k="alt_name" v="Sandlandsvatnet" />
		<tag k="name" v="Sandlandsvannet" />
		<tag k="natural" v="water" />
		<tag k="ssr:stedsnr" v="850782" />
		<tag k="water" v="lake" />
	</node>
	<node id="-488294" lat="58.3669499994" lon="7.85265000073">
		<tag k="alt_name" v="Murtetjørn" />
		<tag k="name" v="Murtetjønn" />
		<tag k="natural" v="water" />
		<tag k="ssr:stedsnr" v="850162" />
	</node>
	<node id="-488289" lat="58.3527749999" lon="7.85088332875">
		<tag k="alt_name" v="Stegletjørn" />
		<tag k="name" v="Stegletjønn" />
		<tag k="natural" v="water" />
		<tag k="ssr:stedsnr" v="850091" />
	</node>
	<node id="-486235" lat="58.3200916633" lon="8.05607499776">
		<tag k="name" v="Stampefoss" />
		<tag k="natural" v="waterfall" />
		<tag k="ssr:stedsnr" v="944964" />
	</node>
	<node id="-488281" lat="58.3782722188" lon="7.85317776981">
		<tag k="name" v="Lyngholmen" />
		<tag k="place" v="islet" />
		<tag k="ssr:stedsnr" v="836934" />
	</node>
	<node id="-486232" lat="58.3222194416" lon="8.03595278523">
		<tag k="name" v="Kvarebekken" />
		<tag k="ssr:stedsnr" v="944952" />
		<tag k="waterway" v="stream" />
	</node>
	<node id="-486223" lat="58.4184972206" lon="7.70783888443">
		<tag k="name" v="Vestheitjønn" />
		<tag k="natural" v="water" />
		<tag k="ssr:stedsnr" v="944907" />
	</node>
	<node id="-486220" lat="58.408952775" lon="7.66328611578">
		<tag k="name" v="Langetjønn" />
		<tag k="natural" v="water" />
		<tag k="ssr:stedsnr" v="944886" />
	</node>
	<node id="-486211" lat="58.4399694453" lon="7.72084723026">
		<tag k="name" v="Fruetjønn" />
		<tag k="natural" v="water" />
		<tag k="ssr:stedsnr" v="944770" />
	</node>
	<node id="-486190" lat="58.3814444443" lon="7.70243056379">
		<tag k="name" v="Vassbrokktjønn" />
		<tag k="natural" v="water" />
		<tag k="ssr:stedsnr" v="944682" />
	</node>
	<node id="-486189" lat="58.4549472182" lon="7.80602222353">
		<tag k="name" v="Striodden" />
		<tag k="natural" v="cape" />
		<tag k="ssr:stedsnr" v="944677" />
	</node>
	<node id="-488236" lat="58.2359249982" lon="7.95308610422">
		<tag k="name" v="Stusstjønn" />
		<tag k="natural" v="water" />
		<tag k="ssr:stedsnr" v="824237" />
	</node>
	<node id="-486187" lat="58.383352782" lon="7.85026389238">
		<tag k="name" v="Sauetjønn" />
		<tag k="natural" v="water" />
		<tag k="ssr:stedsnr" v="944622" />
	</node>
	<node id="-488232" lat="58.2330416691" lon="7.96044166713">
		<tag k="name" v="Tretjønnane" />
		<tag k="natural" v="water" />
		<tag k="ssr:stedsnr" v="824275" />
	</node>
	<node id="-486174" lat="58.3773027803" lon="7.73857499479">
		<tag k="name" v="Kråketjønn" />
		<tag k="natural" v="water" />
		<tag k="ssr:stedsnr" v="944549" />
	</node>
	<node id="-488219" lat="58.2962194429" lon="7.99020278628">
		<tag k="name" v="Svartetjønn" />
		<tag k="natural" v="water" />
		<tag k="ssr:stedsnr" v="823879" />
	</node>
	<node id="-488218" lat="58.4153805589" lon="7.72487221404">
		<tag k="name" v="Hutåstjønn" />
		<tag k="natural" v="water" />
		<tag k="ssr:stedsnr" v="823878" />
	</node>
	<node id="-486169" lat="58.3945611097" lon="7.79824444462">
		<tag k="name" v="Knipetjønn" />
		<tag k="natural" v="water" />
		<tag k="ssr:stedsnr" v="944509" />
	</node>
	<node id="-488216" lat="58.4475055546" lon="7.73740278185">
		<tag k="name" v="Midvatjønn" />
		<tag k="natural" v="water" />
		<tag k="ssr:stedsnr" v="823741" />
	</node>
	<node id="-488208" lat="58.3753055598" lon="7.7968916705">
		<tag k="name" v="Kalvetjønn" />
		<tag k="natural" v="water" />
		<tag k="ssr:stedsnr" v="823539" />
	</node>
	<node id="-488206" lat="58.2682583342" lon="7.96961111112">
		<tag k="name" v="Kaninøya" />
		<tag k="place" v="islet" />
		<tag k="ssr:stedsnr" v="823532" />
	</node>
	<node id="-486155" lat="58.4078611095" lon="7.81726944935">
		<tag k="name" v="Øvre Gåseflå" />
		<tag k="natural" v="bay" />
		<tag k="ssr:stedsnr" v="944429" />
	</node>
	<node id="-486154" lat="58.3385222236" lon="7.77590833341">
		<tag k="name" v="Trolldalstjønn" />
		<tag k="natural" v="water" />
		<tag k="ssr:stedsnr" v="944426" />
	</node>
	<node id="-488200" lat="58.2534499959" lon="7.88658332605">
		<tag k="name" v="Krokvann" />
		<tag k="natural" v="water" />
		<tag k="ssr:stedsnr" v="823490" />
		<tag k="water" v="lake" />
	</node>
	<node id="-486150" lat="58.3408000018" lon="7.82411944478">
		<tag k="name" v="Revetjønn" />
		<tag k="natural" v="water" />
		<tag k="ssr:stedsnr" v="944371" />
	</node>
	<node id="-488197" lat="58.2427833368" lon="7.7494111145">
		<tag k="name" v="Høytjønn" />
		<tag k="natural" v="water" />
		<tag k="ssr:stedsnr" v="823475" />
	</node>
	<node id="-486148" lat="58.3365388912" lon="7.80296943864">
		<tag k="name" v="Tverrbekken" />
		<tag k="ssr:stedsnr" v="944364" />
		<tag k="waterway" v="stream" />
	</node>
	<node id="-484822" lat="58.2287777765" lon="7.9752138814">
		<tag k="name" v="Indre Linvannet" />
		<tag k="natural" v="water" />
		<tag k="ssr:stedsnr" v="210127" />
	</node>
	<node id="-488192" lat="58.3200416674" lon="7.93198889658">
		<tag k="name" v="Vrengtjønn" />
		<tag k="natural" v="water" />
		<tag k="ssr:stedsnr" v="823636" />
	</node>
	<node id="-488191" lat="58.3863111085" lon="7.6926083314">
		<tag k="name" v="Heiåna" />
		<tag k="ssr:stedsnr" v="823635" />
		<tag k="waterway" v="river" />
	</node>
	<node id="-486142" lat="58.3892499985" lon="7.85884165974">
		<tag k="name" v="Homevannsevja" />
		<tag k="place" v="locality" />
		<tag k="ssr:stedsnr" v="944338" />
	</node>
	<node id="-488189" lat="58.3173500018" lon="7.89201111296">
		<tag k="name" v="Løyningstjønn" />
		<tag k="natural" v="water" />
		<tag k="ssr:stedsnr" v="823599" />
	</node>
	<node id="-486139" lat="58.29373611" lon="7.81612222625">
		<tag k="name" v="Saglonane" />
		<tag k="natural" v="water" />
		<tag k="ssr:stedsnr" v="944324" />
	</node>
	<node id="-488182" lat="58.2465805577" lon="7.97650834089">
		<tag k="name" v="Dalletjønna" />
		<tag k="natural" v="water" />
		<tag k="ssr:stedsnr" v="823445" />
	</node>
	<node id="-486132" lat="58.2764833374" lon="7.74851666346">
		<tag k="name" v="Jøranshølen" />
		<tag k="place" v="locality" />
		<tag k="ssr:stedsnr" v="944287" />
	</node>
	<node id="-486131" lat="58.2961277736" lon="7.80088889322">
		<tag k="name" v="Vallbekken" />
		<tag k="ssr:stedsnr" v="944280" />
		<tag k="waterway" v="stream" />
	</node>
	<node id="-486184" lat="58.2630194422" lon="7.95725277671">
		<tag k="name" v="Montjønn" />
		<tag k="natural" v="water" />
		<tag k="ssr:stedsnr" v="944604" />
	</node>
	<node id="-486123" lat="58.4081055555" lon="7.67561944187">
		<tag k="name" v="Timretjønn" />
		<tag k="natural" v="water" />
		<tag k="ssr:stedsnr" v="944226" />
	</node>
	<node id="-488169" lat="58.3233250034" lon="7.85919445214">
		<tag k="name" v="Hestetjønn" />
		<tag k="natural" v="water" />
		<tag k="ssr:stedsnr" v="823237" />
	</node>
	<node id="-488167" lat="58.3103111075" lon="7.99536943618">
		<tag k="name" v="Rogåna" />
		<tag k="ssr:stedsnr" v="823467" />
		<tag k="waterway" v="river" />
	</node>
	<node id="-486117" lat="58.4290527762" lon="7.72954444664">
		<tag k="name" v="Hesttjønn" />
		<tag k="natural" v="water" />
		<tag k="ssr:stedsnr" v="944175" />
	</node>
	<node id="-488163" lat="58.2489027819" lon="7.95127499191">
		<tag k="name" v="Heiselhølen" />
		<tag k="place" v="locality" />
		<tag k="ssr:stedsnr" v="823337" />
	</node>
	<node id="-488159" lat="58.3371166657" lon="7.83221944744">
		<tag k="name" v="Stemtjønn" />
		<tag k="natural" v="water" />
		<tag k="ssr:stedsnr" v="823293" />
	</node>
	<node id="-488151" lat="58.3997833299" lon="7.66278888337">
		<tag k="name" v="Revetjønn" />
		<tag k="natural" v="water" />
		<tag k="ssr:stedsnr" v="823203" />
	</node>
	<node id="-488146" lat="58.3484083316" lon="7.79698332634">
		<tag k="name" v="Mørkvann" />
		<tag k="natural" v="water" />
		<tag k="ssr:stedsnr" v="823195" />
		<tag k="water" v="lake" />
	</node>
	<node id="-486095" lat="58.3448138901" lon="8.01641666192">
		<tag k="name" v="Fjelltjønn" />
		<tag k="natural" v="water" />
		<tag k="ssr:stedsnr" v="944065" />
	</node>
	<node id="-488141" lat="58.4125722243" lon="7.79113610676">
		<tag k="name" v="Soga" />
		<tag k="place" v="islet" />
		<tag k="ssr:stedsnr" v="823185" />
	</node>
	<node id="-488139" lat="58.279502781" lon="7.89298333837">
		<tag k="name" v="Ronebekk" />
		<tag k="ssr:stedsnr" v="823172" />
		<tag k="waterway" v="stream" />
	</node>
	<node id="-485304" lat="58.295430553" lon="7.81546388145">
		<tag k="name" v="Stemmen" />
		<tag k="place" v="locality" />
		<tag k="ssr:stedsnr" v="519302" />
	</node>
	<node id="-488135" lat="58.3273222221" lon="8.018544445">
		<tag k="name" v="Helvedesfossen" />
		<tag k="natural" v="waterfall" />
		<tag k="ssr:stedsnr" v="823037" />
	</node>
	<node id="-486086" lat="58.3209722264" lon="7.76871944973">
		<tag k="name" v="Histølvann" />
		<tag k="natural" v="water" />
		<tag k="ssr:stedsnr" v="943277" />
		<tag k="water" v="lake" />
	</node>
	<node id="-486082" lat="58.2815638877" lon="7.77938055775">
		<tag k="alt_name" v="Gullringstjørna" />
		<tag k="name" v="Gullringstjønn" />
		<tag k="natural" v="water" />
		<tag k="ssr:stedsnr" v="850009" />
	</node>
	<node id="-488123" lat="58.3129333361" lon="7.76065556084">
		<tag k="name" v="Frustølvann" />
		<tag k="natural" v="water" />
		<tag k="ssr:stedsnr" v="822719" />
		<tag k="water" v="lake" />
	</node>
	<node id="-486074" lat="58.4383750019" lon="7.79273610446">
		<tag k="name" v="Lilletjønn" />
		<tag k="natural" v="water" />
		<tag k="ssr:stedsnr" v="216981" />
	</node>
	<node id="-486073" lat="58.4496083376" lon="7.78369166184">
		<tag k="name" v="Holetjønn" />
		<tag k="natural" v="water" />
		<tag k="ssr:stedsnr" v="216975" />
	</node>
	<node id="-488119" lat="58.3175845381" lon="7.77176795466">
		<tag k="name" v="Finntjønn" />
		<tag k="natural" v="water" />
		<tag k="ssr:stedsnr" v="822294" />
	</node>
	<node id="-486070" lat="58.4498138884" lon="7.80878055898">
		<tag k="name" v="Ropetangen" />
		<tag k="natural" v="cape" />
		<tag k="ssr:stedsnr" v="216952" />
	</node>
	<node id="-488117" lat="58.2885944435" lon="7.96439166819">
		<tag k="name" v="Moneset" />
		<tag k="natural" v="cape" />
		<tag k="ssr:stedsnr" v="822201" />
	</node>
	<node id="-486064" lat="58.2210555531" lon="7.76193333986">
		<tag k="name" v="Kravleelva" />
		<tag k="ssr:stedsnr" v="824253" />
		<tag k="waterway" v="river" />
	</node>
	<node id="-488111" lat="58.3881000043" lon="7.89678610637">
		<tag k="name" v="Kattefoss" />
		<tag k="natural" v="waterfall" />
		<tag k="ssr:stedsnr" v="819029" />
	</node>
	<node id="-488110" lat="58.3049805562" lon="7.86103889565">
		<tag k="alt_name" v="Kroktjørn" />
		<tag k="name" v="Krogtjønn" />
		<tag k="natural" v="water" />
		<tag k="ssr:stedsnr" v="789104" />
	</node>
	<node id="-488106" lat="58.3379916671" lon="7.73058888108">
		<tag k="alt_name" v="Måtjørn" />
		<tag k="name" v="Måtjønn" />
		<tag k="natural" v="water" />
		<tag k="ssr:stedsnr" v="789062" />
	</node>
	<node id="-488104" lat="58.2634444475" lon="7.77709999997">
		<tag k="alt_name" v="Hægelandsvatnet" />
		<tag k="name" v="Hægelandsvann" />
		<tag k="natural" v="water" />
		<tag k="ssr:stedsnr" v="789053" />
	</node>
	<node id="-488103" lat="58.2693916681" lon="7.7578444412">
		<tag k="alt_name" v="Homevatn" />
		<tag k="name" v="Homevann" />
		<tag k="natural" v="water" />
		<tag k="ssr:stedsnr" v="789047" />
		<tag k="water" v="lake" />
	</node>
	<node id="-486054" lat="58.4355333309" lon="7.76744722143">
		<tag k="name" v="Seiltjønn" />
		<tag k="natural" v="water" />
		<tag k="ssr:stedsnr" v="823924" />
	</node>
	<node id="-486047" lat="58.2572861123" lon="7.82667222911">
		<tag k="name" v="Bergehølen" />
		<tag k="place" v="locality" />
		<tag k="ssr:stedsnr" v="823673" />
	</node>
	<node id="-486042" lat="58.307450003" lon="7.84592222118">
		<tag k="name" v="Sandreptjønn" />
		<tag k="natural" v="water" />
		<tag k="ssr:stedsnr" v="823617" />
	</node>
	<node id="-486033" lat="58.2726805572" lon="7.84856666142">
		<tag k="name" v="Snikkertjønn" />
		<tag k="natural" v="water" />
		<tag k="ssr:stedsnr" v="823353" />
	</node>
	<node id="-486020" lat="58.3146361128" lon="7.76558888149">
		<tag k="name" v="Krågetjønn" />
		<tag k="natural" v="water" />
		<tag k="ssr:stedsnr" v="822304" />
	</node>
	<node id="-486018" lat="58.2939972259" lon="7.92009721687">
		<tag k="name" v="Smalsundet" />
		<tag k="natural" v="strait" />
		<tag k="ssr:stedsnr" v="822160" />
	</node>
	<node id="-486017" lat="58.2810388916" lon="7.9600861169">
		<tag k="name" v="Sønninga" />
		<tag k="natural" v="cape" />
		<tag k="ssr:stedsnr" v="822205" />
	</node>
	<node id="-485097" lat="58.3563750012" lon="7.66755833348">
		<tag k="name" v="Søndre Tuptelitjønn" />
		<tag k="natural" v="water" />
		<tag k="ssr:stedsnr" v="459989" />
	</node>
	<node id="-486014" lat="58.4491250005" lon="7.7328166733">
		<tag k="alt_name" v="Kroktjørn" />
		<tag k="name" v="Krokvann" />
		<tag k="natural" v="water" />
		<tag k="ssr:stedsnr" v="789236" />
	</node>
	<node id="-488059" lat="58.4489888923" lon="7.76637221882">
		<tag k="name" v="Lunneslåttjønn" />
		<tag k="natural" v="water" />
		<tag k="ssr:stedsnr" v="762777" />
	</node>
	<node id="-488057" lat="58.3627638906" lon="7.73771389118">
		<tag k="name" v="Vestre Stemtjønn" />
		<tag k="natural" v="water" />
		<tag k="ssr:stedsnr" v="762767" />
	</node>
	<node id="-485480" lat="58.3796138897" lon="7.84726110349">
		<tag k="name" v="Norare nesane" />
		<tag k="natural" v="cape" />
		<tag k="ssr:stedsnr" v="701921" />
	</node>
	<node id="-488046" lat="58.3584083312" lon="7.66855833831">
		<tag k="name" v="Nordre Tuptelitjønn" />
		<tag k="natural" v="water" />
		<tag k="ssr:stedsnr" v="762991" />
	</node>
	<node id="-488044" lat="58.4484222211" lon="7.78530556107">
		<tag k="name" v="Instreslåttjønna" />
		<tag k="natural" v="water" />
		<tag k="old_name" v="Instreslåtttjønna" />
		<tag k="ssr:stedsnr" v="762976" />
	</node>
	<node id="-485994" lat="58.3797055559" lon="7.85848888554">
		<tag k="name" v="Norare neset" />
		<tag k="natural" v="cape" />
		<tag k="ssr:stedsnr" v="762927" />
	</node>
	<node id="-485991" lat="58.300416668" lon="7.9948138911">
		<tag k="name" v="Eitjønn" />
		<tag k="natural" v="water" />
		<tag k="ssr:stedsnr" v="762908" />
	</node>
	<node id="-488036" lat="58.4325361132" lon="7.7846166636">
		<tag k="name" v="Yddertjønn" />
		<tag k="natural" v="water" />
		<tag k="ssr:stedsnr" v="762889" />
	</node>
	<node id="-488031" lat="58.4542083336" lon="7.80142778289">
		<tag k="name" v="Hornskilen" />
		<tag k="natural" v="water" />
		<tag k="ssr:stedsnr" v="762640" />
	</node>
	<node id="-488022" lat="58.305005557" lon="7.99849721718">
		<tag k="name" v="Kalvetjønn" />
		<tag k="natural" v="water" />
		<tag k="ssr:stedsnr" v="762448" />
	</node>
	<node id="-485971" lat="58.383183336" lon="7.83818055963">
		<tag k="name" v="Lilletjønn" />
		<tag k="natural" v="water" />
		<tag k="ssr:stedsnr" v="762543" />
	</node>
	<node id="-488012" lat="58.3880638897" lon="7.82697499156">
		<tag k="name" v="Fjelltjønn" />
		<tag k="natural" v="water" />
		<tag k="ssr:stedsnr" v="762398" />
	</node>
	<node id="-488011" lat="58.338388891" lon="7.71693888091">
		<tag k="name" v="Grasdalstjønn" />
		<tag k="natural" v="water" />
		<tag k="ssr:stedsnr" v="762394" />
	</node>
	<node id="-485962" lat="58.3892999976" lon="7.83870000417">
		<tag k="name" v="Bjortjønn" />
		<tag k="natural" v="water" />
		<tag k="ssr:stedsnr" v="762306" />
	</node>
	<node id="-485961" lat="58.4240944454" lon="7.73980277139">
		<tag k="name" v="Pressumbekken" />
		<tag k="ssr:stedsnr" v="762150" />
		<tag k="waterway" v="stream" />
	</node>
	<node id="-488005" lat="58.2223416634" lon="7.95287778462">
		<tag k="name" v="Bunesane" />
		<tag k="natural" v="cape" />
		<tag k="ssr:stedsnr" v="762219" />
	</node>
	<node id="-488002" lat="58.4076694462" lon="7.67792222551">
		<tag k="name" v="Mailestjønn" />
		<tag k="natural" v="water" />
		<tag k="ssr:stedsnr" v="762211" />
	</node>
	<node id="-488000" lat="58.3450472193" lon="7.84075277562">
		<tag k="name" v="Djupetjønn" />
		<tag k="natural" v="water" />
		<tag k="ssr:stedsnr" v="762200" />
	</node>
	<node id="-486837" lat="58.3964055556" lon="7.81516110487">
		<tag k="name" v="Storevannsbekken" />
		<tag k="ssr:stedsnr" v="155446" />
		<tag k="waterway" v="stream" />
	</node>
	<node id="-485939" lat="58.2977055588" lon="7.97523054915">
		<tag k="name" v="Kattfoss" />
		<tag k="natural" v="strait" />
		<tag k="ssr:stedsnr" v="761206" />
	</node>
	<node id="-487979" lat="58.2811944469" lon="7.81450000731">
		<tag k="name" v="Homme tjønner" />
		<tag k="natural" v="water" />
		<tag k="ssr:stedsnr" v="762277" />
	</node>
	<node id="-485930" lat="58.3331472241" lon="7.97360555003">
		<tag k="alt_name" v="Ytre Jeppestølvatn;Jeppestølvatnet, yt;Ytre Jeppestølvann" />
		<tag k="name" v="Ytre Jeppestølvatnet" />
		<tag k="natural" v="water" />
		<tag k="ssr:stedsnr" v="910116" />
		<tag k="water" v="lake" />
	</node>
	<node id="-485929" lat="58.2461027793" lon="7.79180555798">
		<tag k="name" v="Lyngtjønn" />
		<tag k="natural" v="water" />
		<tag k="ssr:stedsnr" v="910100" />
	</node>
	<node id="-485928" lat="58.3416166706" lon="8.00676666896">
		<tag k="alt_name" v="Bjortjørna" />
		<tag k="name" v="Bjortjønn" />
		<tag k="natural" v="water" />
		<tag k="ssr:stedsnr" v="910086" />
	</node>
	<node id="-487974" lat="58.2804249965" lon="7.71338333383">
		<tag k="name" v="Svartetjønn" />
		<tag k="natural" v="water" />
		<tag k="ssr:stedsnr" v="761929" />
	</node>
	<node id="-485923" lat="58.276149997" lon="8.02563889739">
		<tag k="alt_name" v="Fiskelausvatnet" />
		<tag k="name" v="Fiskelausvannet" />
		<tag k="natural" v="water" />
		<tag k="ssr:stedsnr" v="728015" />
		<tag k="water" v="lake" />
	</node>
	<node id="-485922" lat="58.2804211291" lon="8.00010160222">
		<tag k="alt_name" v="Tretjørnane" />
		<tag k="name" v="Tretjønnane" />
		<tag k="natural" v="water" />
		<tag k="ssr:stedsnr" v="728013" />
	</node>
	<node id="-487969" lat="58.2834138877" lon="7.79313888041">
		<tag k="name" v="Klomrebekkilen" />
		<tag k="natural" v="bay" />
		<tag k="ssr:stedsnr" v="761386" />
	</node>
	<node id="-487968" lat="58.3147444428" lon="7.7885194483">
		<tag k="name" v="Skjeretjønn" />
		<tag k="natural" v="water" />
		<tag k="ssr:stedsnr" v="761756" />
	</node>
	<node id="-485918" lat="58.4348444443" lon="7.75470555695">
		<tag k="name" v="Kiledalsvaet" />
		<tag k="natural" v="water" />
		<tag k="ssr:stedsnr" v="715004" />
		<tag k="water" v="pond" />
	</node>
	<node id="-487958" lat="58.3158972217" lon="8.00479167342">
		<tag k="name" v="Hestehølen" />
		<tag k="place" v="locality" />
		<tag k="ssr:stedsnr" v="653981" />
	</node>
	<node id="-487931" lat="58.2404444447" lon="7.92779999581">
		<tag k="name" v="Revetjønn" />
		<tag k="natural" v="water" />
		<tag k="ssr:stedsnr" v="641501" />
	</node>
	<node id="-487928" lat="58.2575416674" lon="7.97886665874">
		<tag k="name" v="Lomtjønn" />
		<tag k="natural" v="water" />
		<tag k="ssr:stedsnr" v="641380" />
	</node>
	<node id="-487923" lat="58.2960138848" lon="8.04681945048">
		<tag k="name" v="Sølvdalstjønna" />
		<tag k="natural" v="water" />
		<tag k="ssr:stedsnr" v="640987" />
	</node>
	<node id="-485874" lat="58.3199388911" lon="7.87456944269">
		<tag k="name" v="Djubetjønn" />
		<tag k="natural" v="water" />
		<tag k="ssr:stedsnr" v="702606" />
	</node>
	<node id="-485873" lat="58.3201111096" lon="8.03006944415">
		<tag k="name" v="Lonane" />
		<tag k="natural" v="water" />
		<tag k="ssr:stedsnr" v="702454" />
		<tag k="water" v="lake" />
	</node>
	<node id="-485865" lat="58.3491166705" lon="7.74652221418">
		<tag k="name" v="Svolekilen" />
		<tag k="natural" v="bay" />
		<tag k="ssr:stedsnr" v="701854" />
	</node>
	<node id="-487911" lat="58.3490027761" lon="7.73277222107">
		<tag k="name" v="Oksletjønn" />
		<tag k="natural" v="water" />
		<tag k="ssr:stedsnr" v="640871" />
	</node>
	<node id="-487910" lat="58.3569694406" lon="7.74062221935">
		<tag k="name" v="Lomtjønn" />
		<tag k="natural" v="water" />
		<tag k="ssr:stedsnr" v="640864" />
	</node>
	<node id="-485798" lat="58.4339861126" lon="7.80493054935">
		<tag k="name" v="Rekevik" />
		<tag k="natural" v="bay" />
		<tag k="ssr:stedsnr" v="884882" />
	</node>
	<node id="-487905" lat="58.3471500029" lon="7.71643332901">
		<tag k="name" v="Månetjønn" />
		<tag k="natural" v="water" />
		<tag k="ssr:stedsnr" v="640787" />
	</node>
	<node id="-487902" lat="58.3650666681" lon="7.69389723057">
		<tag k="name" v="Nygårdskilen" />
		<tag k="natural" v="bay" />
		<tag k="ssr:stedsnr" v="640759" />
	</node>
	<node id="-485853" lat="58.3832833325" lon="7.72649999553">
		<tag k="name" v="Dalestø" />
		<tag k="natural" v="bay" />
		<tag k="ssr:stedsnr" v="701721" />
	</node>
	<node id="-485850" lat="58.3060944487" lon="7.74496388471">
		<tag k="name" v="Sandåstjønn" />
		<tag k="natural" v="water" />
		<tag k="ssr:stedsnr" v="701716" />
	</node>
	<node id="-484955" lat="58.2375361154" lon="7.95686389604">
		<tag k="name" v="Lågetjønn" />
		<tag k="natural" v="water" />
		<tag k="ssr:stedsnr" v="277318" />
	</node>
	<node id="-487893" lat="58.3195861115" lon="7.82838333872">
		<tag k="name" v="Stemtjønn" />
		<tag k="natural" v="water" />
		<tag k="ssr:stedsnr" v="640727" />
	</node>
	<node id="-485843" lat="58.3821972255" lon="7.85127221885">
		<tag k="name" v="Stemkilen" />
		<tag k="natural" v="bay" />
		<tag k="ssr:stedsnr" v="701616" />
	</node>
	<node id="-485842" lat="58.2626972206" lon="7.9709722231">
		<tag k="name" v="Hunsøya" />
		<tag k="place" v="island" />
		<tag k="ssr:stedsnr" v="701604" />
	</node>
	<node id="-485838" lat="58.3231277788" lon="7.7672666628">
		<tag k="name" v="Grisetjønn" />
		<tag k="natural" v="water" />
		<tag k="ssr:stedsnr" v="701413" />
	</node>
	<node id="-487881" lat="58.3674999956" lon="7.65533610665">
		<tag k="name" v="Ålstjønn" />
		<tag k="natural" v="water" />
		<tag k="ssr:stedsnr" v="640665" />
	</node>
	<node id="-487879" lat="58.319616666" lon="7.86150277546">
		<tag k="name" v="Telabekk" />
		<tag k="ssr:stedsnr" v="640647" />
		<tag k="waterway" v="stream" />
	</node>
	<node id="-485830" lat="58.3280388921" lon="7.84012777688">
		<tag k="name" v="Poddetjønn" />
		<tag k="natural" v="water" />
		<tag k="ssr:stedsnr" v="701356" />
	</node>
	<node id="-485826" lat="58.2708833294" lon="7.87706665876">
		<tag k="name" v="Vedretjønn" />
		<tag k="natural" v="water" />
		<tag k="ssr:stedsnr" v="701263" />
	</node>
	<node id="-485819" lat="58.3873166688" lon="7.67147499239">
		<tag k="name" v="Huhylen" />
		<tag k="place" v="locality" />
		<tag k="ssr:stedsnr" v="701219" />
	</node>
	<node id="-485818" lat="58.3602916648" lon="7.8690805624">
		<tag k="loc_name" v="Midtbuvann" />
		<tag k="name" v="Midtvann" />
		<tag k="natural" v="water" />
		<tag k="ssr:stedsnr" v="701217" />
	</node>
	<node id="-485817" lat="58.3637027739" lon="7.8684499927">
		<tag k="name" v="Nordbudalsvann" />
		<tag k="natural" v="water" />
		<tag k="ssr:stedsnr" v="701216" />
		<tag k="water" v="lake" />
	</node>
	<node id="-487859" lat="58.2622055592" lon="7.79478888449">
		<tag k="name" v="Huetjønn" />
		<tag k="natural" v="water" />
		<tag k="ssr:stedsnr" v="640497" />
	</node>
	<node id="-485808" lat="58.3584055555" lon="7.64298333055">
		<tag k="name" v="Kallvika" />
		<tag k="natural" v="bay" />
		<tag k="ssr:stedsnr" v="884929" />
	</node>
	<node id="-487855" lat="58.4559444414" lon="7.78906388564">
		<tag k="name" v="Pederstjønn" />
		<tag k="natural" v="water" />
		<tag k="ssr:stedsnr" v="640672" />
	</node>
	<node id="-485806" lat="58.3500694479" lon="7.73613889296">
		<tag k="name" v="Holmevannet" />
		<tag k="natural" v="water" />
		<tag k="ssr:stedsnr" v="884845" />
		<tag k="water" v="lake" />
	</node>
	<node id="-487846" lat="58.3951388859" lon="7.7431055489">
		<tag k="name" v="Stokkdalsbekken" />
		<tag k="ssr:stedsnr" v="640418" />
		<tag k="waterway" v="stream" />
	</node>
	<node id="-487841" lat="58.33566667" lon="7.79106667475">
		<tag k="name" v="Svartehøl" />
		<tag k="place" v="locality" />
		<tag k="ssr:stedsnr" v="640345" />
	</node>
	<node id="-487839" lat="58.3419750004" lon="7.86419444879">
		<tag k="name" v="Kroktjønn" />
		<tag k="natural" v="water" />
		<tag k="ssr:stedsnr" v="640333" />
	</node>
	<node id="-485790" lat="58.3528277816" lon="7.72096944138">
		<tag k="name" v="Seljepytten" />
		<tag k="natural" v="water" />
		<tag k="ssr:stedsnr" v="884751" />
		<tag k="water" v="pond" />
	</node>
	<node id="-487833" lat="58.3290611092" lon="7.87020555956">
		<tag k="name" v="Duganstjønn" />
		<tag k="natural" v="water" />
		<tag k="ssr:stedsnr" v="640308" />
	</node>
	<node id="-485785" lat="58.4393055521" lon="7.70872221681">
		<tag k="name" v="Gledetjønn" />
		<tag k="natural" v="water" />
		<tag k="ssr:stedsnr" v="884727" />
	</node>
	<node id="-485780" lat="58.3673055558" lon="7.66385000041">
		<tag k="name" v="Steinslandstjønn" />
		<tag k="natural" v="water" />
		<tag k="ssr:stedsnr" v="884637" />
	</node>
	<node id="-487827" lat="58.2882944444" lon="7.8221583294">
		<tag k="name" v="Suglemyrtjønn" />
		<tag k="natural" v="water" />
		<tag k="ssr:stedsnr" v="640287" />
	</node>
	<node id="-485778" lat="58.3145777775" lon="7.9136333351">
		<tag k="name" v="Tometjønn" />
		<tag k="natural" v="water" />
		<tag k="ssr:stedsnr" v="884627" />
	</node>
	<node id="-485776" lat="58.3869638933" lon="7.8639722264">
		<tag k="name" v="Ormebekken" />
		<tag k="ssr:stedsnr" v="884549" />
		<tag k="waterway" v="stream" />
	</node>
	<node id="-485774" lat="58.242247218" lon="7.92520554736">
		<tag k="name" v="Ånestjønn" />
		<tag k="natural" v="water" />
		<tag k="ssr:stedsnr" v="884546" />
	</node>
	<node id="-487819" lat="58.4094972249" lon="7.76904999492">
		<tag k="name" v="Hestøya" />
		<tag k="natural" v="cape" />
		<tag k="ssr:stedsnr" v="640250" />
	</node>
	<node id="-487818" lat="58.4258944435" lon="7.8005805513">
		<tag k="name" v="Nedre Haukereiret" />
		<tag k="natural" v="bay" />
		<tag k="ssr:stedsnr" v="640248" />
	</node>
	<node id="-485767" lat="58.3889055517" lon="7.73892777609">
		<tag k="name" v="Kyrkjehølen" />
		<tag k="place" v="locality" />
		<tag k="ssr:stedsnr" v="884337" />
	</node>
	<node id="-487808" lat="58.4080138884" lon="7.70826110851">
		<tag k="name" v="Lislevann" />
		<tag k="natural" v="water" />
		<tag k="ssr:stedsnr" v="640187" />
	</node>
	<node id="-487806" lat="58.4124916691" lon="7.71835556193">
		<tag k="name" v="Djupetjønnmyrane" />
		<tag k="natural" v="water" />
		<tag k="ssr:stedsnr" v="640184" />
	</node>
	<node id="-487804" lat="58.4294805529" lon="7.74328055731">
		<tag k="name" v="Lislåsbekken" />
		<tag k="ssr:stedsnr" v="640178" />
		<tag k="waterway" v="stream" />
	</node>
	<node id="-487803" lat="58.369313886" lon="8.02803333247">
		<tag k="name" v="Hulletjønn" />
		<tag k="natural" v="water" />
		<tag k="ssr:stedsnr" v="640177" />
	</node>
	<node id="-485754" lat="58.3858833296" lon="7.81726389686">
		<tag k="name" v="Kvernhusbekken" />
		<tag k="ssr:stedsnr" v="884482" />
		<tag k="waterway" v="stream" />
	</node>
	<node id="-485752" lat="58.2287749968" lon="7.9752111179">
		<tag k="name" v="Linvatna" />
		<tag k="natural" v="water" />
		<tag k="ssr:stedsnr" v="884478" />
	</node>
	<node id="-487799" lat="58.4181694483" lon="7.73120276996">
		<tag k="name" v="Skautreitjønn" />
		<tag k="natural" v="water" />
		<tag k="ssr:stedsnr" v="640161" />
	</node>
	<node id="-486121" lat="58.357694445" lon="7.84223334025">
		<tag k="name" v="Palen" />
		<tag k="natural" v="water" />
		<tag k="ssr:stedsnr" v="944211" />
	</node>
	<node id="-487794" lat="58.3345861144" lon="7.97160832557">
		<tag k="name" v="Geiteholmen" />
		<tag k="place" v="islet" />
		<tag k="ssr:stedsnr" v="640139" />
	</node>
	<node id="-485779" lat="58.3851999985" lon="7.68324444439">
		<tag k="name" v="Søndagstø" />
		<tag k="natural" v="bay" />
		<tag k="ssr:stedsnr" v="884629" />
	</node>
	<node id="-485742" lat="58.4006777738" lon="7.65254444334">
		<tag k="name" v="Vormebrokkstjønn" />
		<tag k="natural" v="water" />
		<tag k="ssr:stedsnr" v="884200" />
	</node>
	<node id="-485740" lat="58.4135333349" lon="7.77212777765">
		<tag k="name" v="Gråholmen" />
		<tag k="place" v="islet" />
		<tag k="ssr:stedsnr" v="884193" />
	</node>
	<node id="-485737" lat="58.3648472231" lon="7.83361389657">
		<tag k="name" v="Stistjønn" />
		<tag k="natural" v="water" />
		<tag k="ssr:stedsnr" v="884187" />
	</node>
	<node id="-485736" lat="58.2256972186" lon="7.76585277588">
		<tag k="name" v="Kravlefossen" />
		<tag k="natural" v="waterfall" />
		<tag k="ssr:stedsnr" v="884181" />
	</node>
	<node id="-487777" lat="58.3929333349" lon="7.68873333289">
		<tag k="name" v="Sloffa" />
		<tag k="place" v="locality" />
		<tag k="ssr:stedsnr" v="640025" />
	</node>
	<node id="-487770" lat="58.4025138847" lon="7.69198611419">
		<tag k="name" v="Geittjønn" />
		<tag k="natural" v="water" />
		<tag k="ssr:stedsnr" v="606983" />
	</node>
	<node id="-485716" lat="58.2966944472" lon="7.97838056376">
		<tag k="name" v="Ikkonfoss" />
		<tag k="natural" v="waterfall" />
		<tag k="ssr:stedsnr" v="883952" />
	</node>
	<node id="-487760" lat="58.3561611118" lon="7.73523888127">
		<tag k="alt_name" v="Sandlandsvatnet" />
		<tag k="name" v="Sandlandstjønnane" />
		<tag k="natural" v="water" />
		<tag k="ssr:stedsnr" v="606077" />
	</node>
	<node id="-485708" lat="58.292958333" lon="8.01341111117">
		<tag k="name" v="Igletjønn" />
		<tag k="natural" v="water" />
		<tag k="ssr:stedsnr" v="883793" />
	</node>
	<node id="-485089" lat="58.3785444433" lon="7.85990832617">
		<tag k="name" v="Vaskeholmskilen" />
		<tag k="natural" v="bay" />
		<tag k="ssr:stedsnr" v="459935" />
	</node>
	<node id="-485771" lat="58.3124611121" lon="7.99915000579">
		<tag k="name" v="Rigreshølen" />
		<tag k="place" v="locality" />
		<tag k="ssr:stedsnr" v="884435" />
	</node>
	<node id="-486111" lat="58.3529861092" lon="8.00741388503">
		<tag k="name" v="Vardetjønn" />
		<tag k="natural" v="water" />
		<tag k="ssr:stedsnr" v="944144" />
	</node>
	<node id="-485688" lat="58.2602222207" lon="7.77582777018">
		<tag k="name" v="Granbekken" />
		<tag k="ssr:stedsnr" v="883380" />
		<tag k="waterway" v="stream" />
	</node>
	<node id="-485685" lat="58.2928277808" lon="7.80389444925">
		<tag k="name" v="Sandodden" />
		<tag k="natural" v="cape" />
		<tag k="ssr:stedsnr" v="883333" />
	</node>
	<node id="-485403" lat="58.3424833302" lon="8.01113055353">
		<tag k="name" v="Sandbekken" />
		<tag k="ssr:stedsnr" v="701080" />
		<tag k="waterway" v="stream" />
	</node>
	<node id="-485676" lat="58.2874111094" lon="7.88992222022">
		<tag k="name" v="Røystjønn" />
		<tag k="natural" v="water" />
		<tag k="ssr:stedsnr" v="883069" />
	</node>
	<node id="-484743" lat="58.4331666711" lon="7.73328610466">
		<tag k="alt_name" v="Kjønna" />
		<tag k="name" v="Tjønna" />
		<tag k="natural" v="water" />
		<tag k="ssr:stedsnr" v="277945" />
	</node>
	<node id="-485672" lat="58.3893027746" lon="7.85984999397">
		<tag k="name" v="Homevannsevja" />
		<tag k="old_name" v="Momevannsevja" />
		<tag k="place" v="locality" />
		<tag k="ssr:stedsnr" v="880042" />
	</node>
	<node id="-484742" lat="58.4191722191" lon="7.68289166751">
		<tag k="name" v="Høgeheitjønn" />
		<tag k="natural" v="water" />
		<tag k="ssr:stedsnr" v="277942" />
	</node>
	<node id="-487713" lat="58.3742333318" lon="7.90081666261">
		<tag k="name" v="Benestveitkilen" />
		<tag k="natural" v="bay" />
		<tag k="ssr:stedsnr" v="580954" />
	</node>
	<node id="-487707" lat="58.4494444489" lon="7.73738333107">
		<tag k="name" v="Midvaet" />
		<tag k="natural" v="strait" />
		<tag k="ssr:stedsnr" v="580765" />
	</node>
	<node id="-487706" lat="58.303297225" lon="7.74393888636">
		<tag k="name" v="Kvennhusbekken" />
		<tag k="ssr:stedsnr" v="580691" />
		<tag k="waterway" v="stream" />
	</node>
	<node id="-487705" lat="58.3161194403" lon="7.78875000461">
		<tag k="name" v="Nordtjønn" />
		<tag k="natural" v="water" />
		<tag k="ssr:stedsnr" v="580687" />
	</node>
	<node id="-485655" lat="58.3643250007" lon="7.90597777576">
		<tag k="name" v="Fiskøya" />
		<tag k="place" v="islet" />
		<tag k="ssr:stedsnr" v="640944" />
	</node>
	<node id="-485653" lat="58.4390749997" lon="7.76226389123">
		<tag k="name" v="Skjebbetjønn" />
		<tag k="natural" v="water" />
		<tag k="ssr:stedsnr" v="640938" />
	</node>
	<node id="-485651" lat="58.2587944417" lon="7.90352499782">
		<tag k="name" v="Støletjønn" />
		<tag k="natural" v="water" />
		<tag k="ssr:stedsnr" v="640922" />
	</node>
	<node id="-485649" lat="58.2603055531" lon="7.94137500547">
		<tag k="name" v="Moseidtjønna" />
		<tag k="natural" v="water" />
		<tag k="ssr:stedsnr" v="640914" />
	</node>
	<node id="-485648" lat="58.3732472229" lon="7.8558861031">
		<tag k="name" v="Homevannskilen" />
		<tag k="natural" v="bay" />
		<tag k="ssr:stedsnr" v="640912" />
	</node>
	<node id="-485647" lat="58.3782611112" lon="7.84599999844">
		<tag k="name" v="Nesekilen" />
		<tag k="natural" v="bay" />
		<tag k="ssr:stedsnr" v="640910" />
	</node>
	<node id="-485645" lat="58.3724805548" lon="7.8465666612">
		<tag k="name" v="Venetjønn" />
		<tag k="natural" v="water" />
		<tag k="ssr:stedsnr" v="640905" />
	</node>
	<node id="-487692" lat="58.3261027772" lon="7.72626944361">
		<tag k="name" v="Bollen" />
		<tag k="natural" v="cape" />
		<tag k="ssr:stedsnr" v="580340" />
	</node>
	<node id="-484897" lat="58.2773222205" lon="7.8883083398">
		<tag k="alt_name" v="Stegletjørn" />
		<tag k="name" v="Steiltjønn" />
		<tag k="natural" v="water" />
		<tag k="ssr:stedsnr" v="546024" />
	</node>
	<node id="-487690" lat="58.3862166695" lon="7.7004249975">
		<tag k="name" v="Reipetjønn" />
		<tag k="natural" v="water" />
		<tag k="ssr:stedsnr" v="580632" />
	</node>
	<node id="-487689" lat="58.4230999984" lon="7.79797500628">
		<tag k="name" v="Kilefjorden" />
		<tag k="natural" v="water" />
		<tag k="ssr:stedsnr" v="580626" />
		<tag k="water" v="lake" />
	</node>
	<node id="-487688" lat="58.3692888923" lon="7.66840555915">
		<tag k="name" v="Igletjønn" />
		<tag k="natural" v="water" />
		<tag k="ssr:stedsnr" v="580609" />
	</node>
	<node id="-485635" lat="58.3961138906" lon="7.69272499351">
		<tag k="alt_name" v="Flåtjørnane" />
		<tag k="name" v="Heimre Flåtjønn" />
		<tag k="natural" v="water" />
		<tag k="ssr:stedsnr" v="728990" />
	</node>
	<node id="-485634" lat="58.3833555524" lon="7.68429166745">
		<tag k="alt_name" v="Høvårslandsvatnet" />
		<tag k="name" v="Høverslandsvannet" />
		<tag k="natural" v="water" />
		<tag k="ssr:stedsnr" v="728931" />
	</node>
	<node id="-485633" lat="58.428191668" lon="7.7072750071">
		<tag k="alt_name" v="Risvatnet" />
		<tag k="name" v="Risvannet" />
		<tag k="natural" v="water" />
		<tag k="ssr:stedsnr" v="728876" />
		<tag k="water" v="lake" />
	</node>
	<node id="-485630" lat="58.3193916659" lon="7.65167222846">
		<tag k="alt_name" v="Radetjørna" />
		<tag k="name" v="Radetjønn" />
		<tag k="natural" v="water" />
		<tag k="ssr:stedsnr" v="728747" />
	</node>
	<node id="-485077" lat="58.4510333333" lon="7.77171388604">
		<tag k="name" v="Seiltjønn" />
		<tag k="natural" v="water" />
		<tag k="ssr:stedsnr" v="459783" />
	</node>
	<node id="-485628" lat="58.3839222223" lon="7.73169999638">
		<tag k="alt_name" v="Hægelandsvatnet" />
		<tag k="name" v="Hægelandsvannet" />
		<tag k="natural" v="water" />
		<tag k="ssr:stedsnr" v="728152" />
		<tag k="water" v="lake" />
	</node>
	<node id="-485627" lat="58.3694694404" lon="7.78354722015">
		<tag k="alt_name" v="Eikelandsvann" />
		<tag k="loc_name" v="Eikelandsvannet" />
		<tag k="name" v="Eikelandsvatnet" />
		<tag k="natural" v="water" />
		<tag k="ssr:stedsnr" v="728138" />
		<tag k="water" v="lake" />
	</node>
	<node id="-485623" lat="58.3028166694" lon="7.90340277629">
		<tag k="loc_name" v="Nasbøtjønna" />
		<tag k="name" v="Naspevatn" />
		<tag k="natural" v="water" />
		<tag k="ssr:stedsnr" v="728085" />
	</node>
	<node id="-487670" lat="58.2874694406" lon="8.03805277757">
		<tag k="name" v="Holmane" />
		<tag k="place" v="islet" />
		<tag k="ssr:stedsnr" v="579987" />
	</node>
	<node id="-485619" lat="58.2715944417" lon="7.73839722091">
		<tag k="alt_name" v="Jinningstjørn" />
		<tag k="name" v="Gjeningstjønn" />
		<tag k="natural" v="water" />
		<tag k="ssr:stedsnr" v="728046" />
	</node>
	<node id="-487666" lat="58.375933331" lon="7.85858056299">
		<tag k="name" v="Skrubbedalskilen" />
		<tag k="natural" v="bay" />
		<tag k="ssr:stedsnr" v="579942" />
	</node>
	<node id="-488102" lat="58.3915750015" lon="7.70132776924">
		<tag k="alt_name" v="Fisketjørna" />
		<tag k="name" v="Fisketjønna" />
		<tag k="natural" v="water" />
		<tag k="ssr:stedsnr" v="788990" />
	</node>
	<node id="-485615" lat="58.2916861137" lon="7.79751945045">
		<tag k="name" v="Storebekk" />
		<tag k="ssr:stedsnr" v="761384" />
		<tag k="waterway" v="stream" />
	</node>
	<node id="-487662" lat="58.3689583341" lon="7.85398611013">
		<tag k="name" v="Huetjønn" />
		<tag k="natural" v="water" />
		<tag k="ssr:stedsnr" v="579927" />
	</node>
	<node id="-484538" lat="58.3135777822" lon="7.82626111265">
		<tag k="alt_name" v="Vietjørn" />
		<tag k="name" v="Vietjønn" />
		<tag k="natural" v="water" />
		<tag k="ssr:stedsnr" v="304084" />
	</node>
	<node id="-487659" lat="58.3665361075" lon="7.881155551">
		<tag k="name" v="Kroktjønn" />
		<tag k="natural" v="water" />
		<tag k="ssr:stedsnr" v="579922" />
	</node>
	<node id="-485609" lat="58.4041611106" lon="7.84804722179">
		<tag k="name" v="Gåsefjellet" />
		<tag k="place" v="islet" />
		<tag k="ssr:stedsnr" v="714942" />
	</node>
	<node id="-485629" lat="58.3289666679" lon="7.6507722173">
		<tag k="alt_name" v="Hauglandsvatnet" />
		<tag k="name" v="Hauglandsvannet" />
		<tag k="natural" v="water" />
		<tag k="ssr:stedsnr" v="728724" />
		<tag k="water" v="lake" />
	</node>
	<node id="-487649" lat="58.4092805598" lon="7.80737499606">
		<tag k="name" v="Rekevik" />
		<tag k="natural" v="bay" />
		<tag k="ssr:stedsnr" v="580206" />
	</node>
	<node id="-485600" lat="58.3788416631" lon="7.85356111381">
		<tag k="name" v="Mosterholmen" />
		<tag k="place" v="islet" />
		<tag k="ssr:stedsnr" v="593903" />
	</node>
	<node id="-487646" lat="58.3946888924" lon="7.64774444881">
		<tag k="name" v="Olaugstjønn" />
		<tag k="natural" v="water" />
		<tag k="ssr:stedsnr" v="580198" />
	</node>
	<node id="-487642" lat="58.4271611077" lon="7.80239167172">
		<tag k="name" v="Øvre haukereiret" />
		<tag k="natural" v="bay" />
		<tag k="ssr:stedsnr" v="580188" />
	</node>
	<node id="-487639" lat="58.4041750041" lon="7.68216666281">
		<tag k="name" v="Orreleikstjønn" />
		<tag k="natural" v="water" />
		<tag k="ssr:stedsnr" v="580175" />
	</node>
	<node id="-487634" lat="58.4275861096" lon="7.76341110974">
		<tag k="name" v="Bjorstelona" />
		<tag k="natural" v="water" />
		<tag k="ssr:stedsnr" v="580156" />
		<tag k="water" v="lake" />
	</node>
	<node id="-487627" lat="58.22360833" lon="7.94539166024">
		<tag k="name" v="Lona" />
		<tag k="natural" v="water" />
		<tag k="ssr:stedsnr" v="580244" />
		<tag k="water" v="lake" />
	</node>
	<node id="-485751" lat="58.253794446" lon="7.980733338">
		<tag k="name" v="Skoddtjønn" />
		<tag k="natural" v="water" />
		<tag k="ssr:stedsnr" v="884402" />
	</node>
	<node id="-487620" lat="58.2823777819" lon="7.80607777124">
		<tag k="name" v="Røyåsbekken" />
		<tag k="ssr:stedsnr" v="579370" />
		<tag k="waterway" v="stream" />
	</node>
	<node id="-487618" lat="58.2649111086" lon="7.69491944609">
		<tag k="name" v="Krogevannet" />
		<tag k="natural" v="water" />
		<tag k="ssr:stedsnr" v="579352" />
	</node>
	<node id="-485567" lat="58.413802779" lon="7.69145277468">
		<tag k="name" v="Paultjønn" />
		<tag k="natural" v="water" />
		<tag k="ssr:stedsnr" v="580926" />
	</node>
	<node id="-485565" lat="58.3103666707" lon="7.82697499665">
		<tag k="name" v="Limyrtjønn" />
		<tag k="natural" v="water" />
		<tag k="ssr:stedsnr" v="580723" />
	</node>
	<node id="-487608" lat="58.3961305531" lon="7.68542222592">
		<tag k="alt_name" v="Lomtjørna" />
		<tag k="name" v="Lomtjønn" />
		<tag k="natural" v="water" />
		<tag k="ssr:stedsnr" v="546989" />
	</node>
	<node id="-487607" lat="58.4532222203" lon="7.80767777049">
		<tag k="alt_name" v="Elgsnes" />
		<tag k="name" v="Eldsnes" />
		<tag k="natural" v="cape" />
		<tag k="ssr:stedsnr" v="546232" />
	</node>
	<node id="-487606" lat="58.3916972185" lon="7.77348332817">
		<tag k="alt_name" v="Knudetjørn" />
		<tag k="name" v="Knutetjønn" />
		<tag k="natural" v="water" />
		<tag k="ssr:stedsnr" v="546184" />
	</node>
	<node id="-485555" lat="58.384486115" lon="7.78619167408">
		<tag k="name" v="Stutebekken" />
		<tag k="ssr:stedsnr" v="580467" />
		<tag k="waterway" v="stream" />
	</node>
	<node id="-485064" lat="58.253700598" lon="7.8099738442">
		<tag k="name" v="Skjemtetjønn" />
		<tag k="natural" v="water" />
		<tag k="ssr:stedsnr" v="459686" />
	</node>
	<node id="-487595" lat="58.2602777784" lon="8.01014722219">
		<tag k="alt_name" v="Stutjørn" />
		<tag k="name" v="Stutjønn" />
		<tag k="natural" v="water" />
		<tag k="ssr:stedsnr" v="546059" />
	</node>
	<node id="-487591" lat="58.2850277767" lon="7.82623333172">
		<tag k="alt_name" v="Åltjern" />
		<tag k="name" v="Åletjønn" />
		<tag k="natural" v="water" />
		<tag k="ssr:stedsnr" v="546009" />
	</node>
	<node id="-485542" lat="58.2414611133" lon="7.91603889232">
		<tag k="name" v="Kjeksebekk" />
		<tag k="ssr:stedsnr" v="580514" />
		<tag k="waterway" v="stream" />
	</node>
	<node id="-485538" lat="58.3422111139" lon="8.04191666351">
		<tag k="name" v="Svartehølen" />
		<tag k="place" v="locality" />
		<tag k="ssr:stedsnr" v="580071" />
	</node>
	<node id="-485537" lat="58.391236114" lon="7.76714722375">
		<tag k="name" v="Heitjønn" />
		<tag k="natural" v="water" />
		<tag k="ssr:stedsnr" v="580069" />
	</node>
	<node id="-485081" lat="58.4451555592" lon="7.78188611649">
		<tag k="name" v="Sandlona" />
		<tag k="natural" v="water" />
		<tag k="ssr:stedsnr" v="459791" />
		<tag k="water" v="lake" />
	</node>
	<node id="-485534" lat="58.4149416685" lon="7.77530277152">
		<tag k="name" v="Frøysnesodden" />
		<tag k="natural" v="cape" />
		<tag k="ssr:stedsnr" v="580146" />
	</node>
	<node id="-485523" lat="58.2760972228" lon="7.78923889167">
		<tag k="name" v="Hallandstjønn" />
		<tag k="natural" v="water" />
		<tag k="ssr:stedsnr" v="579330" />
	</node>
	<node id="-487550" lat="58.2526555548" lon="7.81896389306">
		<tag k="name" v="Merkehølen" />
		<tag k="place" v="locality" />
		<tag k="ssr:stedsnr" v="520710" />
	</node>
	<node id="-487549" lat="58.2444805576" lon="7.79007778276">
		<tag k="name" v="Fjelltjønn" />
		<tag k="natural" v="water" />
		<tag k="ssr:stedsnr" v="520695" />
	</node>
	<node id="-485491" lat="58.23171667" lon="7.96963333337">
		<tag k="name" v="Linvannet" />
		<tag k="natural" v="water" />
		<tag k="ssr:stedsnr" v="702208" />
		<tag k="water" v="lake" />
	</node>
	<node id="-485487" lat="58.3609861085" lon="7.66527778069">
		<tag k="name" v="Tretjønnan" />
		<tag k="natural" v="water" />
		<tag k="ssr:stedsnr" v="701984" />
	</node>
	<node id="-485486" lat="58.3566861115" lon="7.65294444563">
		<tag k="name" v="Småstekilen" />
		<tag k="natural" v="bay" />
		<tag k="ssr:stedsnr" v="701979" />
	</node>
	<node id="-487533" lat="58.4476500007" lon="7.81275277903">
		<tag k="name" v="Biskopsund" />
		<tag k="natural" v="strait" />
		<tag k="ssr:stedsnr" v="519978" />
	</node>
	<node id="-487532" lat="58.3809583308" lon="7.90786944827">
		<tag k="name" v="Benestveitøya" />
		<tag k="place" v="island" />
		<tag k="ssr:stedsnr" v="519976" />
	</node>
	<node id="-487531" lat="58.2892861106" lon="8.03230834148">
		<tag k="name" v="Fossbekk" />
		<tag k="ssr:stedsnr" v="519967" />
		<tag k="waterway" v="stream" />
	</node>
	<node id="-487529" lat="58.3537638911" lon="7.9075888846">
		<tag k="name" v="Verdens ende" />
		<tag k="natural" v="cape" />
		<tag k="ssr:stedsnr" v="519963" />
	</node>
	<node id="-487528" lat="58.4391000038" lon="7.74954445009">
		<tag k="name" v="Poddetjønn" />
		<tag k="natural" v="water" />
		<tag k="ssr:stedsnr" v="519959" />
	</node>
	<node id="-487527" lat="58.3604000002" lon="7.63062500401">
		<tag k="name" v="Poddetjønn" />
		<tag k="natural" v="water" />
		<tag k="ssr:stedsnr" v="519957" />
	</node>
	<node id="-485051" lat="58.3861833342" lon="7.65354723021">
		<tag k="name" v="Fruhølen" />
		<tag k="place" v="locality" />
		<tag k="ssr:stedsnr" v="459599" />
	</node>
	<node id="-485471" lat="58.2725444442" lon="7.96010277979">
		<tag k="name" v="Neset" />
		<tag k="natural" v="cape" />
		<tag k="ssr:stedsnr" v="701900" />
	</node>
	<node id="-487516" lat="58.4308777735" lon="7.8023638973">
		<tag k="name" v="Langviksøya" />
		<tag k="place" v="islet" />
		<tag k="ssr:stedsnr" v="519896" />
	</node>
	<node id="-487513" lat="58.3478055533" lon="7.74997777911">
		<tag k="name" v="Langtangen" />
		<tag k="natural" v="cape" />
		<tag k="ssr:stedsnr" v="519851" />
	</node>
	<node id="-487508" lat="58.2995888919" lon="7.99992222011">
		<tag k="name" v="Fisketjønn" />
		<tag k="natural" v="water" />
		<tag k="ssr:stedsnr" v="519919" />
	</node>
	<node id="-487505" lat="58.3167260281" lon="7.67372534976">
		<tag k="alt_name" v="Songevatnet" />
		<tag k="name" v="Sognevann" />
		<tag k="natural" v="water" />
		<tag k="ssr:stedsnr" v="425789" />
		<tag k="water" v="lake" />
	</node>
	<node id="-485455" lat="58.4553555596" lon="7.75430277514">
		<tag k="name" v="Heitjønn" />
		<tag k="natural" v="water" />
		<tag k="ssr:stedsnr" v="701696" />
	</node>
	<node id="-487501" lat="58.3777583328" lon="7.79941389638">
		<tag k="alt_name" v="Hudetjørn" />
		<tag k="name" v="Hudetjønn" />
		<tag k="natural" v="water" />
		<tag k="ssr:stedsnr" v="425173" />
	</node>
	<node id="-487500" lat="58.377188888" lon="7.85609166646">
		<tag k="name" v="Homevatnet" />
		<tag k="natural" v="water" />
		<tag k="ssr:stedsnr" v="425172" />
		<tag k="water" v="lake" />
	</node>
	<node id="-485448" lat="58.3134500009" lon="7.78633889421">
		<tag k="name" v="Stemtjønn" />
		<tag k="natural" v="water" />
		<tag k="ssr:stedsnr" v="701643" />
	</node>
	<node id="-487493" lat="58.3519166706" lon="7.8695444401">
		<tag k="alt_name" v="Nordbøvatnet" />
		<tag k="name" v="Nordbuvann" />
		<tag k="natural" v="water" />
		<tag k="ssr:stedsnr" v="425081" />
	</node>
	<node id="-487492" lat="58.3529499984" lon="7.77769167333">
		<tag k="alt_name" v="Krokvatnet" />
		<tag k="name" v="Krokvannet" />
		<tag k="natural" v="water" />
		<tag k="ssr:stedsnr" v="425078" />
	</node>
	<node id="-486069" lat="58.3460694486" lon="7.90330556193">
		<tag k="name" v="Tykkholmen" />
		<tag k="place" v="islet" />
		<tag k="ssr:stedsnr" v="216945" />
	</node>
	<node id="-485433" lat="58.3313083319" lon="7.834836118">
		<tag k="name" v="Langåna" />
		<tag k="ssr:stedsnr" v="701395" />
		<tag k="waterway" v="river" />
	</node>
	<node id="-485282" lat="58.4026611083" lon="7.69449444546">
		<tag k="name" v="Svarttjønn" />
		<tag k="natural" v="water" />
		<tag k="ssr:stedsnr" v="519218" />
	</node>
	<node id="-485426" lat="58.2757888913" lon="7.76763333383">
		<tag k="name" v="Mørkevann" />
		<tag k="natural" v="water" />
		<tag k="ssr:stedsnr" v="701337" />
		<tag k="water" v="lake" />
	</node>
	<node id="-485424" lat="58.3193694427" lon="7.71980832549">
		<tag k="name" v="Holmen" />
		<tag k="place" v="islet" />
		<tag k="ssr:stedsnr" v="701331" />
	</node>
	<node id="-485421" lat="58.3926638871" lon="7.65505277967">
		<tag k="name" v="Poddetjønn" />
		<tag k="natural" v="water" />
		<tag k="ssr:stedsnr" v="701295" />
	</node>
	<node id="-485418" lat="58.4072111119" lon="7.6841583366">
		<tag k="name" v="Orreleikstjønn" />
		<tag k="natural" v="water" />
		<tag k="ssr:stedsnr" v="701248" />
	</node>
	<node id="-485383" lat="58.4068805587" lon="7.83257222191">
		<tag k="name" v="Gåseflåfjorden" />
		<tag k="natural" v="water" />
		<tag k="ssr:stedsnr" v="485106" />
		<tag k="water" v="lake" />
	</node>
	<node id="-485416" lat="58.34850278" lon="7.85111665818">
		<tag k="name" v="Lille Fisketjønn" />
		<tag k="natural" v="water" />
		<tag k="ssr:stedsnr" v="701241" />
	</node>
	<node id="-485415" lat="58.2617583374" lon="7.84542778279">
		<tag k="name" v="Poddetjønn" />
		<tag k="natural" v="water" />
		<tag k="ssr:stedsnr" v="701239" />
	</node>
	<node id="-485382" lat="58.3518027802" lon="7.75202500662">
		<tag k="alt_name" v="Einstabelandsvatnet" />
		<tag k="name" v="Einstablandsvannet" />
		<tag k="natural" v="water" />
		<tag k="ssr:stedsnr" v="485077" />
	</node>
	<node id="-487455" lat="58.437136109" lon="7.78522500436">
		<tag k="name" v="Kiledalstjønn" />
		<tag k="natural" v="water" />
		<tag k="ssr:stedsnr" v="398996" />
	</node>
	<node id="-484609" lat="58.3613194407" lon="7.72217777792">
		<tag k="name" v="Bjortjønn" />
		<tag k="natural" v="water" />
		<tag k="ssr:stedsnr" v="95768" />
	</node>
	<node id="-487453" lat="58.3502111142" lon="7.65577777076">
		<tag k="name" v="Revedalstjønn" />
		<tag k="natural" v="water" />
		<tag k="ssr:stedsnr" v="398973" />
	</node>
	<node id="-487451" lat="58.3532972197" lon="7.62765000192">
		<tag k="name" v="Kjellinghylen" />
		<tag k="place" v="locality" />
		<tag k="ssr:stedsnr" v="398962" />
	</node>
	<node id="-487448" lat="58.3144583295" lon="8.00692499262">
		<tag k="name" v="Lonane" />
		<tag k="natural" v="water" />
		<tag k="ssr:stedsnr" v="398924" />
		<tag k="water" v="lake" />
	</node>
	<node id="-487447" lat="58.3754027801" lon="7.85151111721">
		<tag k="name" v="Bjorhuskilen" />
		<tag k="natural" v="bay" />
		<tag k="ssr:stedsnr" v="398915" />
	</node>
	<node id="-485397" lat="58.2409505879" lon="7.86477831116">
		<tag k="name" v="Buetjønn" />
		<tag k="natural" v="water" />
		<tag k="ssr:stedsnr" v="532990" />
	</node>
	<node id="-486062" lat="58.4308083338" lon="7.79878611436">
		<tag k="name" v="Øvre Langevik" />
		<tag k="natural" v="bay" />
		<tag k="ssr:stedsnr" v="823863" />
	</node>
	<node id="-487441" lat="58.3447777815" lon="7.74781389685">
		<tag k="name" v="Lensmannsholmen" />
		<tag k="place" v="islet" />
		<tag k="ssr:stedsnr" v="398833" />
	</node>
	<node id="-487439" lat="58.3571749987" lon="7.75138056017">
		<tag k="name" v="Poddetjønn" />
		<tag k="natural" v="water" />
		<tag k="ssr:stedsnr" v="398801" />
	</node>
	<node id="-487436" lat="58.4454222238" lon="7.76056111143">
		<tag k="name" v="Dybla" />
		<tag k="natural" v="water" />
		<tag k="ssr:stedsnr" v="398784" />
		<tag k="water" v="pond" />
	</node>
	<node id="-485385" lat="58.3930777774" lon="7.81605277142">
		<tag k="alt_name" v="Einstaktjørna" />
		<tag k="name" v="Einstakktjønn" />
		<tag k="natural" v="water" />
		<tag k="ssr:stedsnr" v="485152" />
	</node>
	<node id="-487431" lat="58.4346638235" lon="7.68117192119">
		<tag k="name" v="Oksletjønn" />
		<tag k="natural" v="water" />
		<tag k="ssr:stedsnr" v="398759" />
	</node>
	<node id="-487430" lat="58.4338194414" lon="7.68547499699">
		<tag k="name" v="Oksletjønn" />
		<tag k="natural" v="water" />
		<tag k="ssr:stedsnr" v="398756" />
	</node>
	<node id="-487429" lat="58.4340583367" lon="7.69298611374">
		<tag k="name" v="Nedre Trolldalstjønn" />
		<tag k="natural" v="water" />
		<tag k="ssr:stedsnr" v="398755" />
	</node>
	<node id="-485377" lat="58.4334472267" lon="7.71688054918">
		<tag k="alt_name" v="Sandvatnet" />
		<tag k="name" v="Sandvann" />
		<tag k="natural" v="water" />
		<tag k="ssr:stedsnr" v="667853" />
		<tag k="water" v="lake" />
	</node>
</osm>
