<?xml version="1.0" encoding="UTF-8"?>
<<<<<<< HEAD
<osm version="0.6" generator="osmapis">
	<node lat="58.34077499604815" lon="7.632563887095542" id="-22890">
		<tag k="ford" v="yes" />
		<tag k="name" v="Teinevadet" />
		<tag k="place" v="locality" />
		<tag k="ssr:stedsnr" v="34024" />
	</node>
	<node lat="58.33155277671396" lon="8.027102772245915" id="-22925">
		<tag k="bridge" v="yes" />
		<tag k="layer" v="1" />
		<tag k="name" v="Sandbekk" />
		<tag k="ssr:stedsnr" v="46073" />
	</node>
	<node lat="58.32920833086187" lon="7.88146944706386" id="-22926">
		<tag k="bridge" v="yes" />
		<tag k="layer" v="1" />
		<tag k="name" v="Ålkjærlien" />
		<tag k="ssr:stedsnr" v="46079" />
	</node>
	<node lat="58.4069166709646" lon="7.810886114180441" id="-22995">
		<tag k="bridge" v="yes" />
		<tag k="layer" v="1" />
		<tag k="name" v="Lyngheibrua" />
		<tag k="ssr:stedsnr" v="95308" />
	</node>
	<node lat="58.40656944192259" lon="7.757538891320228" id="-23055">
		<tag k="highway" v="path" />
		<tag k="name" v="Høgvegen" />
		<tag k="ssr:stedsnr" v="155111" />
	</node>
	<node lat="58.29864444028839" lon="7.83604722974906" id="-23257">
		<tag k="highway" v="path" />
		<tag k="name" v="Fjellevegen" />
		<tag k="ssr:stedsnr" v="458356" />
	</node>
	<node lat="58.407705556076316" lon="7.760716666305639" id="-23481">
=======
<osm generator="osmapis" version="0.6">
	<node id="-567292" lat="58.4077055561" lon="7.76071666631">
>>>>>>> e1d4bc35ff8a6074a6f2e91616a996b547c36f15
		<tag k="highway" v="path" />
		<tag k="name" v="Gravkleiv" />
		<tag k="ssr:stedsnr" v="337115" />
	</node>
<<<<<<< HEAD
	<node lat="58.330547221643975" lon="7.896247214621344" id="-23484">
=======
	<node id="-566248" lat="58.2687833334" lon="7.97057221856">
		<tag k="bridge" v="yes" />
		<tag k="layer" v="1" />
		<tag k="name" v="Venneslabrua" />
		<tag k="ssr:stedsnr" v="836066" />
	</node>
	<node id="-566247" lat="58.2948388848" lon="7.84061388456">
		<tag k="bridge" v="yes" />
		<tag k="layer" v="1" />
		<tag k="name" v="Skarpengland" />
		<tag k="ssr:stedsnr" v="836062" />
	</node>
	<node id="-566246" lat="58.3782194474" lon="7.69104166965">
		<tag k="bridge" v="yes" />
		<tag k="layer" v="1" />
		<tag k="name" v="Sandtveit" />
		<tag k="ssr:stedsnr" v="836058" />
	</node>
	<node id="-566245" lat="58.2242805541" lon="7.93672778467">
		<tag k="bridge" v="yes" />
		<tag k="layer" v="1" />
		<tag k="name" v="Saga" />
		<tag k="ssr:stedsnr" v="836056" />
	</node>
	<node id="-568288" lat="58.2954972233" lon="7.79469166446">
>>>>>>> e1d4bc35ff8a6074a6f2e91616a996b547c36f15
		<tag k="fixme" v="consider highway=path" />
		<tag k="highway" v="track" />
		<tag k="name" v="Dalanveien" />
		<tag k="ssr:stedsnr" v="337308" />
	</node>
<<<<<<< HEAD
	<node lat="58.317180551219735" lon="7.98966110404282" id="-23603">
		<tag k="highway" v="path" />
		<tag k="name" v="Fjellvegen" />
		<tag k="ssr:stedsnr" v="398439" />
	</node>
	<node lat="58.372125001247696" lon="7.65853888346367" id="-23614">
=======
	<node id="-566749" lat="58.406916671" lon="7.81088611418">
		<tag k="bridge" v="yes" />
		<tag k="layer" v="1" />
		<tag k="name" v="Lyngheibrua" />
		<tag k="ssr:stedsnr" v="95308" />
	</node>
	<node id="-565718" lat="58.3029138872" lon="7.97832778094">
>>>>>>> e1d4bc35ff8a6074a6f2e91616a996b547c36f15
		<tag k="highway" v="path" />
		<tag k="name" v="Mørkestølvegen" />
		<tag k="ssr:stedsnr" v="398632" />
	</node>
<<<<<<< HEAD
	<node lat="58.38814444157365" lon="7.894555561059317" id="-23634">
		<tag k="name" v="Iveland" />
		<tag k="railway" v="station" />
		<tag k="ssr:stedsnr" v="485140" />
		<tag k="train" v="yes" />
	</node>
	<node lat="58.38361389157832" lon="7.673166669620916" id="-23731">
		<tag k="bridge" v="yes" />
		<tag k="layer" v="1" />
		<tag k="name" v="Karten" />
		<tag k="ssr:stedsnr" v="471068" />
	</node>
	<node lat="58.38396389185036" lon="7.662486106709002" id="-23732">
=======
	<node id="-567545" lat="58.3938722255" lon="7.84326388472">
		<tag k="highway" v="path" />
		<tag k="name" v="Båselandsvegen" />
		<tag k="ssr:stedsnr" v="398292" />
	</node>
	<node id="-565326" lat="58.3839638919" lon="7.66248610671">
		<tag k="bridge" v="yes" />
		<tag k="layer" v="1" />
		<tag k="name" v="Høversland" />
		<tag k="ssr:stedsnr" v="471073" />
	</node>
	<node id="-566736" lat="58.2604361097" lon="7.89846110668">
		<tag k="landuse" v="industrial" />
		<tag k="name" v="Stølen" />
		<tag k="power" v="plant" />
		<tag k="ssr:stedsnr" v="61044" />
	</node>
	<node id="-568269" lat="58.3007861084" lon="7.96734999645">
		<tag k="alt_name" v="Steinsfoss" />
		<tag k="landuse" v="industrial" />
		<tag k="name" v="Steinsfossen" />
		<tag k="power" v="plant" />
		<tag k="ssr:stedsnr" v="788022" />
	</node>
	<node id="-567756" lat="58.2527416658" lon="7.76503611674">
>>>>>>> e1d4bc35ff8a6074a6f2e91616a996b547c36f15
		<tag k="bridge" v="yes" />
		<tag k="layer" v="1" />
		<tag k="name" v="Høversland" />
		<tag k="ssr:stedsnr" v="471073" />
	</node>
	<node lat="58.26305833654768" lon="7.737344452772194" id="-23754">
		<tag k="highway" v="path" />
		<tag k="name" v="Kjørkestien" />
		<tag k="ssr:stedsnr" v="519274" />
	</node>
<<<<<<< HEAD
	<node lat="58.423127780284666" lon="7.6971222258789735" id="-23794">
		<tag k="ford" v="yes" />
		<tag k="name" v="Bergvad" />
		<tag k="place" v="locality" />
		<tag k="ssr:stedsnr" v="519916" />
	</node>
	<node lat="58.22671389133362" lon="7.764638881715947" id="-23832">
=======
	<node id="-567755" lat="58.2267138913" lon="7.76463888172">
>>>>>>> e1d4bc35ff8a6074a6f2e91616a996b547c36f15
		<tag k="bridge" v="yes" />
		<tag k="layer" v="1" />
		<tag k="name" v="Åsen" />
		<tag k="ssr:stedsnr" v="532075" />
	</node>
<<<<<<< HEAD
	<node lat="58.252741665768106" lon="7.765036116739222" id="-23833">
=======
	<node id="-567754" lat="58.2587944433" lon="7.9714666715">
>>>>>>> e1d4bc35ff8a6074a6f2e91616a996b547c36f15
		<tag k="bridge" v="yes" />
		<tag k="layer" v="1" />
		<tag k="name" v="Stallemo" />
		<tag k="ssr:stedsnr" v="532081" />
	</node>
<<<<<<< HEAD
	<node lat="58.30291388722688" lon="7.9783277809390585" id="-23888">
		<tag k="highway" v="path" />
		<tag k="name" v="Fjellvegen" />
		<tag k="ssr:stedsnr" v="580419" />
	</node>
	<node lat="58.273269446396235" lon="7.741855559796328" id="-23926">
=======
	<node id="-567753" lat="58.3746972183" lon="7.89877221628">
>>>>>>> e1d4bc35ff8a6074a6f2e91616a996b547c36f15
		<tag k="bridge" v="yes" />
		<tag k="layer" v="1" />
		<tag k="name" v="Dalandsbekken" />
		<tag k="ssr:stedsnr" v="592057" />
	</node>
<<<<<<< HEAD
	<node lat="58.336866668226556" lon="7.877727782689603" id="-23927">
=======
	<node id="-566724" lat="58.3292083309" lon="7.88146944706">
>>>>>>> e1d4bc35ff8a6074a6f2e91616a996b547c36f15
		<tag k="bridge" v="yes" />
		<tag k="layer" v="1" />
		<tag k="name" v="Bakken" />
		<tag k="ssr:stedsnr" v="592061" />
	</node>
<<<<<<< HEAD
	<node lat="58.255769444683175" lon="7.767391658378282" id="-23928">
=======
	<node id="-566723" lat="58.3315527767" lon="8.02710277225">
>>>>>>> e1d4bc35ff8a6074a6f2e91616a996b547c36f15
		<tag k="bridge" v="yes" />
		<tag k="layer" v="1" />
		<tag k="name" v="Hægelandstjønnbekk" />
		<tag k="ssr:stedsnr" v="592069" />
	</node>
<<<<<<< HEAD
	<node lat="58.25160555117889" lon="7.945508334750134" id="-23929">
=======
	<node id="-566722" lat="58.2962472262" lon="7.83311944129">
>>>>>>> e1d4bc35ff8a6074a6f2e91616a996b547c36f15
		<tag k="bridge" v="yes" />
		<tag k="layer" v="1" />
		<tag k="name" v="Moen" />
		<tag k="ssr:stedsnr" v="592075" />
	</node>
<<<<<<< HEAD
	<node lat="58.2681055580938" lon="7.938055562682673" id="-24017">
		<tag k="highway" v="path" />
		<tag k="name" v="Hestkleiv" />
		<tag k="ssr:stedsnr" v="701932" />
	</node>
	<node lat="58.44046944640618" lon="7.78364444608429" id="-24024">
		<tag k="highway" v="path" />
		<tag k="name" v="Steinkleiv" />
		<tag k="ssr:stedsnr" v="702000" />
	</node>
	<node lat="58.44025833218567" lon="7.794263886862781" id="-24092">
		<tag k="highway" v="path" />
		<tag k="name" v="Odderstølvegen" />
		<tag k="ssr:stedsnr" v="640880" />
	</node>
	<node lat="58.408627778205904" lon="7.7680000001314955" id="-24169">
=======
	<node id="-566721" lat="58.4493194468" lon="7.79513332897">
>>>>>>> e1d4bc35ff8a6074a6f2e91616a996b547c36f15
		<tag k="bridge" v="yes" />
		<tag k="layer" v="1" />
		<tag k="name" v="Stemmevassbekk" />
		<tag k="ssr:stedsnr" v="896078" />
	</node>
	<node lat="58.26158333063328" lon="7.875122227672452" id="-24285">
		<tag k="highway" v="path" />
		<tag k="name" v="Stien" />
		<tag k="ssr:stedsnr" v="762203" />
	</node>
	<node lat="58.41984444229556" lon="7.740872225184842" id="-24522">
		<tag k="highway" v="path" />
		<tag k="name" v="Kyrkjevegen" />
		<tag k="ssr:stedsnr" v="944149" />
	</node>
<<<<<<< HEAD
	<node lat="58.29522222375154" lon="7.787774997782009" id="-24682">
		<tag k="highway" v="path" />
		<tag k="name" v="Stien" />
		<tag k="ssr:stedsnr" v="34234" />
	</node>
	<node lat="58.29190832904178" lon="7.931838883577561" id="-24772">
=======
	<node id="-566720" lat="58.2574249971" lon="7.96414722522">
>>>>>>> e1d4bc35ff8a6074a6f2e91616a996b547c36f15
		<tag k="bridge" v="yes" />
		<tag k="layer" v="1" />
		<tag k="name" v="Drivenesvassbekk bru" />
		<tag k="ssr:stedsnr" v="46052" />
	</node>
<<<<<<< HEAD
	<node lat="58.34012499661197" lon="7.977625005236428" id="-24773">
=======
	<node id="-566719" lat="58.3401249966" lon="7.97762500524">
>>>>>>> e1d4bc35ff8a6074a6f2e91616a996b547c36f15
		<tag k="bridge" v="yes" />
		<tag k="layer" v="1" />
		<tag k="name" v="Bjortjønnbekk" />
		<tag k="ssr:stedsnr" v="46054" />
	</node>
<<<<<<< HEAD
	<node lat="58.25742499709612" lon="7.964147225216746" id="-24774">
=======
	<node id="-566718" lat="58.291908329" lon="7.93183888358">
>>>>>>> e1d4bc35ff8a6074a6f2e91616a996b547c36f15
		<tag k="bridge" v="yes" />
		<tag k="layer" v="1" />
		<tag k="name" v="Hallandfoss" />
		<tag k="ssr:stedsnr" v="46056" />
	</node>
<<<<<<< HEAD
	<node lat="58.44931944680083" lon="7.795133328966658" id="-24775">
=======
	<node id="-566179" lat="58.2687194464" lon="7.95394444324">
>>>>>>> e1d4bc35ff8a6074a6f2e91616a996b547c36f15
		<tag k="bridge" v="yes" />
		<tag k="layer" v="1" />
		<tag k="name" v="Kiledal" />
		<tag k="ssr:stedsnr" v="46062" />
	</node>
<<<<<<< HEAD
	<node lat="58.296247226219045" lon="7.833119441293392" id="-24776">
=======
	<node id="-566178" lat="58.3381055535" lon="7.81137222828">
>>>>>>> e1d4bc35ff8a6074a6f2e91616a996b547c36f15
		<tag k="bridge" v="yes" />
		<tag k="layer" v="1" />
		<tag k="name" v="Krossen" />
		<tag k="ssr:stedsnr" v="46063" />
	</node>
<<<<<<< HEAD
	<node lat="58.29512725914332" lon="7.980472364853132" id="-24780">
		<tag k="name" v="Grovane" />
		<tag k="railway" v="station" />
		<tag k="ssr:stedsnr" v="60043" />
		<tag k="train" v="yes" />
	</node>
	<node lat="58.260436109703726" lon="7.898461106682634" id="-24782">
		<tag k="landuse" v="industrial" />
		<tag k="name" v="Stølen" />
		<tag k="power" v="plant" />
		<tag k="ssr:stedsnr" v="61044" />
	</node>
	<node lat="58.37523610896781" lon="7.697411103693895" id="-24907">
		<tag k="junction" v="yes" />
		<tag k="name" v="Brokka" />
		<tag k="place" v="locality" />
		<tag k="ssr:stedsnr" v="145087" />
	</node>
	<node lat="58.40353888892442" lon="7.7533333335085395" id="-24948">
		<tag k="fixme" v="consider highway=path" />
		<tag k="highway" v="track" />
		<tag k="name" v="Tranlekleiv" />
		<tag k="ssr:stedsnr" v="155128" />
	</node>
	<node lat="58.38688888986996" lon="7.890316660018009" id="-25027">
=======
	<node id="-565658" lat="58.4404694464" lon="7.78364444608">
		<tag k="highway" v="path" />
		<tag k="name" v="Steinkleiv" />
		<tag k="ssr:stedsnr" v="702000" />
	</node>
	<node id="-565651" lat="58.2681055581" lon="7.93805556268">
		<tag k="highway" v="path" />
		<tag k="name" v="Hestkleiv" />
		<tag k="ssr:stedsnr" v="701932" />
	</node>
	<node id="-566151" lat="58.2428166711" lon="7.8610916701">
		<tag k="fixme" v="consider highway=path" />
		<tag k="highway" v="track" />
		<tag k="name" v="Buekleiv" />
		<tag k="ssr:stedsnr" v="762484" />
	</node>
	<node id="-567674" lat="58.4231277803" lon="7.69712222588">
		<tag k="ford" v="yes" />
		<tag k="name" v="Bergvad" />
		<tag k="place" v="locality" />
		<tag k="ssr:stedsnr" v="519916" />
	</node>
	<node id="-564884" lat="58.3215388913" lon="8.0089111135">
		<tag k="junction" v="yes" />
		<tag k="name" v="Åmdal sag" />
		<tag k="place" v="locality" />
		<tag k="ssr:stedsnr" v="277445" />
	</node>
	<node id="-566125" lat="58.4162805581" lon="7.76994166126">
>>>>>>> e1d4bc35ff8a6074a6f2e91616a996b547c36f15
		<tag k="fixme" v="consider highway=path" />
		<tag k="highway" v="track" />
		<tag k="name" v="Rigreisvei" />
		<tag k="ssr:stedsnr" v="155877" />
	</node>
<<<<<<< HEAD
	<node lat="58.2634694480101" lon="7.9366999958023525" id="-25034">
		<tag k="fixme" v="consider highway=path" />
		<tag k="highway" v="track" />
		<tag k="name" v="Moseidkleivane" />
		<tag k="ssr:stedsnr" v="155913" />
	</node>
	<node lat="58.2641138878257" lon="7.8305611036690435" id="-25082">
=======
	<node id="-567145" lat="58.2712277773" lon="7.82834721531">
		<tag k="bridge" v="yes" />
		<tag k="layer" v="1" />
		<tag k="name" v="Homme" />
		<tag k="ssr:stedsnr" v="168085" />
	</node>
	<node id="-567144" lat="58.2641138878" lon="7.83056110367">
>>>>>>> e1d4bc35ff8a6074a6f2e91616a996b547c36f15
		<tag k="bridge" v="yes" />
		<tag k="layer" v="1" />
		<tag k="name" v="Homsteane" />
		<tag k="ssr:stedsnr" v="168084" />
	</node>
<<<<<<< HEAD
	<node lat="58.27122777729705" lon="7.828347215309526" id="-25083">
=======
	<node id="-567655" lat="58.3199194474" lon="8.04836389464">
>>>>>>> e1d4bc35ff8a6074a6f2e91616a996b547c36f15
		<tag k="bridge" v="yes" />
		<tag k="layer" v="1" />
		<tag k="name" v="Homme" />
		<tag k="ssr:stedsnr" v="168085" />
	</node>
<<<<<<< HEAD
	<node lat="58.4505388881644" lon="7.794413882543727" id="-25189">
		<tag k="highway" v="path" />
		<tag k="name" v="Den store kleiva" />
		<tag k="ssr:stedsnr" v="216957" />
	</node>
	<node lat="58.24218889117599" lon="7.76559722802721" id="-25245">
		<tag k="alt_name" v="Nedre Stallemo" />
=======
	<node id="-567654" lat="58.3730388909" lon="7.69422778319">
>>>>>>> e1d4bc35ff8a6074a6f2e91616a996b547c36f15
		<tag k="bridge" v="yes" />
		<tag k="layer" v="1" />
		<tag k="name" v="Fidjevabrua" />
		<tag k="ssr:stedsnr" v="276582" />
	</node>
	<node lat="58.32153889130806" lon="8.008911113504263" id="-25306">
		<tag k="junction" v="yes" />
		<tag k="name" v="Åmdal sag" />
		<tag k="place" v="locality" />
		<tag k="ssr:stedsnr" v="277445" />
	</node>
<<<<<<< HEAD
	<node lat="58.27019444431506" lon="7.977030552372663" id="-25362">
=======
	<node id="-567653" lat="58.3877694473" lon="7.89621667063">
>>>>>>> e1d4bc35ff8a6074a6f2e91616a996b547c36f15
		<tag k="bridge" v="yes" />
		<tag k="layer" v="1" />
		<tag k="name" v="Graslia" />
		<tag k="ssr:stedsnr" v="289052" />
	</node>
<<<<<<< HEAD
	<node lat="58.37656111225307" lon="7.7574722250223305" id="-25363">
=======
	<node id="-567652" lat="58.2928722245" lon="7.78570278077">
>>>>>>> e1d4bc35ff8a6074a6f2e91616a996b547c36f15
		<tag k="bridge" v="yes" />
		<tag k="layer" v="1" />
		<tag k="name" v="Eikeland" />
		<tag k="ssr:stedsnr" v="289053" />
	</node>
<<<<<<< HEAD
	<node lat="58.343205554149186" lon="7.980302774530611" id="-25364">
		<tag k="alt_name" v="Leeslandsåa" />
		<tag k="bridge" v="yes" />
		<tag k="layer" v="1" />
		<tag k="name" v="Leeslandsåna" />
		<tag k="ssr:stedsnr" v="289060" />
	</node>
	<node lat="58.26163610751741" lon="7.828172228109609" id="-25365">
		<tag k="bridge" v="yes" />
		<tag k="layer" v="1" />
		<tag k="name" v="Homstean" />
		<tag k="ssr:stedsnr" v="289063" />
	</node>
	<node lat="58.31467777477043" lon="8.003363884906632" id="-25366">
=======
	<node id="-567651" lat="58.4260277816" lon="7.78159722411">
		<tag k="bridge" v="yes" />
		<tag k="layer" v="1" />
		<tag k="name" v="Risfed" />
		<tag k="ssr:stedsnr" v="410069" />
	</node>
	<node id="-565086" lat="58.2986444403" lon="7.83604722975">
		<tag k="highway" v="path" />
		<tag k="name" v="Fjellevegen" />
		<tag k="ssr:stedsnr" v="458356" />
	</node>
	<node id="-566604" lat="58.2952222238" lon="7.78777499778">
		<tag k="highway" v="path" />
		<tag k="name" v="Stien" />
		<tag k="ssr:stedsnr" v="34234" />
	</node>
	<node id="-566087" lat="58.4086277782" lon="7.76800000013">
>>>>>>> e1d4bc35ff8a6074a6f2e91616a996b547c36f15
		<tag k="bridge" v="yes" />
		<tag k="layer" v="1" />
		<tag k="name" v="Samkom" />
		<tag k="ssr:stedsnr" v="289066" />
	</node>
<<<<<<< HEAD
	<node lat="58.335299997636774" lon="7.876141670806018" id="-25367">
		<tag k="bridge" v="yes" />
		<tag k="layer" v="1" />
		<tag k="name" v="Samkom" />
		<tag k="ssr:stedsnr" v="289068" />
	</node>
	<node lat="58.295636111557585" lon="7.837813889436324" id="-25368">
		<tag k="bridge" v="yes" />
		<tag k="layer" v="1" />
		<tag k="name" v="Skarpengland" />
		<tag k="ssr:stedsnr" v="289069" />
	</node>
	<node lat="58.27645555416518" lon="7.952211106152215" id="-25510">
		<tag k="bridge" v="yes" />
		<tag k="layer" v="1" />
		<tag k="name" v="Skulebergvassbekk" />
		<tag k="ssr:stedsnr" v="350074" />
	</node>
	<node lat="58.272891665764845" lon="7.740102772932783" id="-25511">
=======
	<node id="-566240" lat="58.4505388882" lon="7.79441388254">
		<tag k="highway" v="path" />
		<tag k="name" v="Den store kleiva" />
		<tag k="ssr:stedsnr" v="216957" />
	</node>
	<node id="-568125" lat="58.3284694457" lon="7.81105832516">
		<tag k="bridge" v="yes" />
		<tag k="layer" v="1" />
		<tag k="name" v="Reiersdal" />
		<tag k="ssr:stedsnr" v="653070" />
	</node>
	<node id="-566577" lat="58.340774996" lon="7.6325638871">
		<tag k="ford" v="yes" />
		<tag k="name" v="Teinevadet" />
		<tag k="place" v="locality" />
		<tag k="ssr:stedsnr" v="34024" />
	</node>
	<node id="-567087" lat="58.263469448" lon="7.9366999958">
		<tag k="fixme" v="consider highway=path" />
		<tag k="highway" v="track" />
		<tag k="name" v="Moseidkleivane" />
		<tag k="ssr:stedsnr" v="155913" />
	</node>
	<node id="-567077" lat="58.3868888899" lon="7.89031666002">
		<tag k="fixme" v="consider highway=path" />
		<tag k="highway" v="track" />
		<tag k="name" v="Rigreisvei" />
		<tag k="ssr:stedsnr" v="155877" />
	</node>
	<node id="-567585" lat="58.3721250012" lon="7.65853888346">
		<tag k="highway" v="path" />
		<tag k="name" v="Mørkestølvegen" />
		<tag k="ssr:stedsnr" v="398632" />
	</node>
	<node id="-568082" lat="58.4402583322" lon="7.79426388686">
		<tag k="highway" v="path" />
		<tag k="name" v="Odderstølvegen" />
		<tag k="ssr:stedsnr" v="640880" />
	</node>
	<node id="-567566" lat="58.3171805512" lon="7.98966110404">
		<tag k="highway" v="path" />
		<tag k="name" v="Fjellvegen" />
		<tag k="ssr:stedsnr" v="398439" />
	</node>
	<node id="-564986" lat="58.2956361116" lon="7.83781388944">
>>>>>>> e1d4bc35ff8a6074a6f2e91616a996b547c36f15
		<tag k="bridge" v="yes" />
		<tag k="layer" v="1" />
		<tag k="name" v="Stemtjønnbekk" />
		<tag k="ssr:stedsnr" v="350075" />
	</node>
	<node lat="58.275249998762014" lon="7.884366666321803" id="-25521">
		<tag k="ford" v="yes" />
		<tag k="name" v="Fiskebekkvaet" />
		<tag k="place" v="locality" />
		<tag k="ssr:stedsnr" v="397226" />
	</node>
<<<<<<< HEAD
	<node lat="58.393872225462054" lon="7.84326388472205" id="-25566">
		<tag k="highway" v="path" />
		<tag k="name" v="Båselandsvegen" />
		<tag k="ssr:stedsnr" v="398292" />
	</node>
	<node lat="58.426027781560585" lon="7.781597224110272" id="-25634">
=======
	<node id="-564985" lat="58.3352999976" lon="7.87614167081">
		<tag k="bridge" v="yes" />
		<tag k="layer" v="1" />
		<tag k="name" v="Samkom" />
		<tag k="ssr:stedsnr" v="289068" />
	</node>
	<node id="-564984" lat="58.3146777748" lon="8.00336388491">
>>>>>>> e1d4bc35ff8a6074a6f2e91616a996b547c36f15
		<tag k="bridge" v="yes" />
		<tag k="layer" v="1" />
		<tag k="name" v="Risfed" />
		<tag k="ssr:stedsnr" v="410069" />
	</node>
<<<<<<< HEAD
	<node lat="58.29287222453212" lon="7.785702780768515" id="-25635">
=======
	<node id="-564983" lat="58.2616361075" lon="7.82817222811">
>>>>>>> e1d4bc35ff8a6074a6f2e91616a996b547c36f15
		<tag k="bridge" v="yes" />
		<tag k="layer" v="1" />
		<tag k="name" v="Prestbekk" />
		<tag k="ssr:stedsnr" v="410078" />
	</node>
<<<<<<< HEAD
	<node lat="58.387769447342215" lon="7.896216670625833" id="-25636">
=======
	<node id="-564982" lat="58.3432055541" lon="7.98030277453">
		<tag k="alt_name" v="Leeslandsåa" />
>>>>>>> e1d4bc35ff8a6074a6f2e91616a996b547c36f15
		<tag k="bridge" v="yes" />
		<tag k="layer" v="1" />
		<tag k="name" v="Iveland" />
		<tag k="ssr:stedsnr" v="411070" />
	</node>
<<<<<<< HEAD
	<node lat="58.37303889085354" lon="7.69422778319126" id="-25637">
=======
	<node id="-564981" lat="58.3765611123" lon="7.75747222502">
>>>>>>> e1d4bc35ff8a6074a6f2e91616a996b547c36f15
		<tag k="bridge" v="yes" />
		<tag k="layer" v="1" />
		<tag k="name" v="Lille Sandtveit" />
		<tag k="ssr:stedsnr" v="411073" />
	</node>
<<<<<<< HEAD
	<node lat="58.3199194473501" lon="8.048363894643787" id="-25638">
=======
	<node id="-564980" lat="58.2701944443" lon="7.97703055237">
>>>>>>> e1d4bc35ff8a6074a6f2e91616a996b547c36f15
		<tag k="bridge" v="yes" />
		<tag k="layer" v="1" />
		<tag k="name" v="Honnemyr" />
		<tag k="ssr:stedsnr" v="411076" />
	</node>
<<<<<<< HEAD
	<node lat="58.40386111485609" lon="7.7548833382252305" id="-25660">
		<tag k="fixme" v="consider highway=path" />
		<tag k="highway" v="track" />
		<tag k="name" v="Vrengen" />
		<tag k="ssr:stedsnr" v="519129" />
	</node>
	<node lat="58.37469721834557" lon="7.8987722162753835" id="-25765">
=======
	<node id="-568031" lat="58.3791250024" lon="7.75067777323">
>>>>>>> e1d4bc35ff8a6074a6f2e91616a996b547c36f15
		<tag k="bridge" v="yes" />
		<tag k="layer" v="1" />
		<tag k="name" v="Beinestveitkilen" />
		<tag k="ssr:stedsnr" v="532053" />
	</node>
<<<<<<< HEAD
	<node lat="58.258794443324966" lon="7.971466671497766" id="-25766">
		<tag k="bridge" v="yes" />
		<tag k="layer" v="1" />
		<tag k="name" v="Hunsfoss" />
		<tag k="ssr:stedsnr" v="532064" />
	</node>
	<node lat="58.22628888586591" lon="7.9355916666049815" id="-25767">
		<tag k="bridge" v="yes" />
		<tag k="layer" v="1" />
		<tag k="name" v="Kvarstein" />
		<tag k="ssr:stedsnr" v="532107" />
	</node>
	<node lat="58.392136107493464" lon="7.7315833400986005" id="-25962">
=======
	<node id="-565465" lat="58.2630583365" lon="7.73734445277">
		<tag k="highway" v="path" />
		<tag k="name" v="Kjørkestien" />
		<tag k="ssr:stedsnr" v="519274" />
	</node>
	<node id="-568017" lat="58.3921361075" lon="7.7315833401">
>>>>>>> e1d4bc35ff8a6074a6f2e91616a996b547c36f15
		<tag k="fixme" v="consider highway=path" />
		<tag k="highway" v="track" />
		<tag k="name" v="Sandkleiv" />
		<tag k="ssr:stedsnr" v="640425" />
	</node>
<<<<<<< HEAD
	<node lat="58.37912500242475" lon="7.750677773231293" id="-25967">
		<tag k="bridge" v="yes" />
		<tag k="layer" v="1" />
		<tag k="name" v="Sandbruna" />
		<tag k="ssr:stedsnr" v="640523" />
	</node>
	<node lat="58.271552781210126" lon="7.728197226950506" id="-26054">
		<tag k="bridge" v="yes" />
		<tag k="layer" v="1" />
		<tag k="name" v="Kyrkjbrua" />
		<tag k="ssr:stedsnr" v="653058" />
	</node>
	<node lat="58.328469445706546" lon="7.811058325162823" id="-26055">
=======
	<node id="-567757" lat="58.2262888859" lon="7.9355916666">
		<tag k="bridge" v="yes" />
		<tag k="layer" v="1" />
		<tag k="name" v="Kvarstein" />
		<tag k="ssr:stedsnr" v="532107" />
	</node>
	<node id="-566732" lat="58.2951272591" lon="7.98047236485">
		<tag k="name" v="Grovane" />
		<tag k="railway" v="station" />
		<tag k="ssr:stedsnr" v="60043" />
		<tag k="train" v="yes" />
	</node>
	<node id="-567925" lat="58.2557694447" lon="7.76739165838">
		<tag k="bridge" v="yes" />
		<tag k="layer" v="1" />
		<tag k="name" v="Hægelandstjønnbekk" />
		<tag k="ssr:stedsnr" v="592069" />
	</node>
	<node id="-565434" lat="58.4038611149" lon="7.75488333823">
		<tag k="fixme" v="consider highway=path" />
		<tag k="highway" v="track" />
		<tag k="name" v="Vrengen" />
		<tag k="ssr:stedsnr" v="519129" />
	</node>
	<node id="-567480" lat="58.2752499988" lon="7.88436666632">
		<tag k="ford" v="yes" />
		<tag k="name" v="Fiskebekkvaet" />
		<tag k="place" v="locality" />
		<tag k="ssr:stedsnr" v="397226" />
	</node>
	<node id="-568503" lat="58.3267500002" lon="7.78925277911">
>>>>>>> e1d4bc35ff8a6074a6f2e91616a996b547c36f15
		<tag k="bridge" v="yes" />
		<tag k="layer" v="1" />
		<tag k="name" v="Reiersdal" />
		<tag k="ssr:stedsnr" v="653070" />
	</node>
<<<<<<< HEAD
	<node lat="58.376527779618264" lon="7.709805561428753" id="-26081">
=======
	<node id="-568502" lat="58.3441805523" lon="7.89813888551">
>>>>>>> e1d4bc35ff8a6074a6f2e91616a996b547c36f15
		<tag k="bridge" v="yes" />
		<tag k="layer" v="1" />
		<tag k="name" v="Odderli" />
		<tag k="ssr:stedsnr" v="714076" />
	</node>
<<<<<<< HEAD
	<node lat="58.32752500076024" lon="7.811869438880395" id="-26082">
=======
	<node id="-568501" lat="58.2959444481" lon="7.85274722391">
>>>>>>> e1d4bc35ff8a6074a6f2e91616a996b547c36f15
		<tag k="bridge" v="yes" />
		<tag k="layer" v="1" />
		<tag k="name" v="Reiersdal" />
		<tag k="ssr:stedsnr" v="714078" />
	</node>
<<<<<<< HEAD
	<node lat="58.28865278051498" lon="7.983249996341264" id="-26083">
		<tag k="bridge" v="yes" />
		<tag k="layer" v="1" />
		<tag k="name" v="Storevoll" />
		<tag k="ssr:stedsnr" v="714084" />
	</node>
	<node lat="58.383455552727824" lon="7.642886106735503" id="-26084">
=======
	<node id="-567444" lat="58.2728916658" lon="7.74010277293">
>>>>>>> e1d4bc35ff8a6074a6f2e91616a996b547c36f15
		<tag k="bridge" v="yes" />
		<tag k="layer" v="1" />
		<tag k="name" v="Øygarden nedre" />
		<tag k="ssr:stedsnr" v="714085" />
	</node>
<<<<<<< HEAD
	<node lat="58.333369443982555" lon="8.032652772597775" id="-26085">
=======
	<node id="-567443" lat="58.2764555542" lon="7.95221110615">
>>>>>>> e1d4bc35ff8a6074a6f2e91616a996b547c36f15
		<tag k="bridge" v="yes" />
		<tag k="layer" v="1" />
		<tag k="name" v="Hågonsbekk bru" />
		<tag k="ssr:stedsnr" v="714067" />
	</node>
<<<<<<< HEAD
	<node lat="58.32115277503554" lon="8.008519443014237" id="-26086">
		<tag k="bridge" v="yes" />
		<tag k="layer" v="1" />
		<tag k="name" v="Omdalsvadet" />
		<tag k="ssr:stedsnr" v="714073" />
	</node>
	<node lat="58.416280558050545" lon="7.769941661257619" id="-26123">
=======
	<node id="-566917" lat="58.375236109" lon="7.69741110369">
		<tag k="junction" v="yes" />
		<tag k="name" v="Brokka" />
		<tag k="place" v="locality" />
		<tag k="ssr:stedsnr" v="145087" />
	</node>
	<node id="-564858" lat="58.4035388889" lon="7.75333333351">
>>>>>>> e1d4bc35ff8a6074a6f2e91616a996b547c36f15
		<tag k="fixme" v="consider highway=path" />
		<tag k="highway" v="track" />
		<tag k="name" v="Steinkleiv" />
		<tag k="ssr:stedsnr" v="762137" />
	</node>
<<<<<<< HEAD
	<node lat="58.24281667111169" lon="7.861091670099296" id="-26165">
		<tag k="fixme" v="consider highway=path" />
		<tag k="highway" v="track" />
		<tag k="name" v="Buekleiv" />
		<tag k="ssr:stedsnr" v="762484" />
	</node>
	<node lat="58.33810555351898" lon="7.811372228277905" id="-26235">
=======
	<node id="-564856" lat="58.4065694419" lon="7.75753889132">
		<tag k="highway" v="path" />
		<tag k="name" v="Høgvegen" />
		<tag k="ssr:stedsnr" v="155111" />
	</node>
	<node id="-567926" lat="58.2516055512" lon="7.94550833475">
>>>>>>> e1d4bc35ff8a6074a6f2e91616a996b547c36f15
		<tag k="bridge" v="yes" />
		<tag k="layer" v="1" />
		<tag k="name" v="Langeland" />
		<tag k="ssr:stedsnr" v="775069" />
	</node>
<<<<<<< HEAD
	<node lat="58.26871944637074" lon="7.953944443238849" id="-26236">
		<tag k="bridge" v="yes" />
		<tag k="layer" v="1" />
		<tag k="name" v="Moseid Armcorør" />
		<tag k="ssr:stedsnr" v="775076" />
	</node>
	<node lat="58.30078610838044" lon="7.967349996445023" id="-26239">
		<tag k="alt_name" v="Steinsfoss" />
		<tag k="landuse" v="industrial" />
		<tag k="name" v="Steinsfossen" />
		<tag k="power" v="plant" />
		<tag k="ssr:stedsnr" v="788022" />
	</node>
	<node lat="58.29549722327773" lon="7.794691664463959" id="-26270">
		<tag k="fixme" v="consider highway=path" />
		<tag k="highway" v="track" />
		<tag k="name" v="Sangeslandskleiva" />
		<tag k="ssr:stedsnr" v="822302" />
	</node>
	<node lat="58.35826944107181" lon="7.7225249959257045" id="-26352">
		<tag k="highway" v="path" />
		<tag k="name" v="Steinkleiva" />
		<tag k="ssr:stedsnr" v="823750" />
	</node>
	<node lat="58.22428055410688" lon="7.93672778466531" id="-26397">
		<tag k="bridge" v="yes" />
		<tag k="layer" v="1" />
		<tag k="name" v="Saga" />
		<tag k="ssr:stedsnr" v="836056" />
	</node>
	<node lat="58.37821944743746" lon="7.6910416696545045" id="-26398">
=======
	<node id="-568169" lat="58.2615833306" lon="7.87512222767">
		<tag k="highway" v="path" />
		<tag k="name" v="Stien" />
		<tag k="ssr:stedsnr" v="762203" />
	</node>
	<node id="-567924" lat="58.3368666682" lon="7.87772778269">
		<tag k="bridge" v="yes" />
		<tag k="layer" v="1" />
		<tag k="name" v="Bakken" />
		<tag k="ssr:stedsnr" v="592061" />
	</node>
	<node id="-567923" lat="58.2732694464" lon="7.7418555598">
		<tag k="bridge" v="yes" />
		<tag k="layer" v="1" />
		<tag k="name" v="Dalandsbekken" />
		<tag k="ssr:stedsnr" v="592057" />
	</node>
	<node id="-565353" lat="58.3881444416" lon="7.89455556106">
		<tag k="name" v="Iveland" />
		<tag k="railway" v="station" />
		<tag k="ssr:stedsnr" v="485140" />
		<tag k="train" v="yes" />
	</node>
	<node id="-564817" lat="58.2421888912" lon="7.76559722803">
		<tag k="alt_name" v="Nedre Stallemo" />
>>>>>>> e1d4bc35ff8a6074a6f2e91616a996b547c36f15
		<tag k="bridge" v="yes" />
		<tag k="layer" v="1" />
		<tag k="name" v="Sandtveit" />
		<tag k="ssr:stedsnr" v="836058" />
	</node>
<<<<<<< HEAD
	<node lat="58.29483888484141" lon="7.8406138845641244" id="-26399">
		<tag k="bridge" v="yes" />
		<tag k="layer" v="1" />
		<tag k="name" v="Skarpengland" />
		<tag k="ssr:stedsnr" v="836062" />
	</node>
	<node lat="58.268783333429745" lon="7.9705722185616565" id="-26400">
=======
	<node id="-565838" lat="58.2715527812" lon="7.72819722695">
		<tag k="bridge" v="yes" />
		<tag k="layer" v="1" />
		<tag k="name" v="Kyrkjbrua" />
		<tag k="ssr:stedsnr" v="653058" />
	</node>
	<node id="-565325" lat="58.3836138916" lon="7.67316666962">
>>>>>>> e1d4bc35ff8a6074a6f2e91616a996b547c36f15
		<tag k="bridge" v="yes" />
		<tag k="layer" v="1" />
		<tag k="name" v="Venneslabrua" />
		<tag k="ssr:stedsnr" v="836066" />
	</node>
<<<<<<< HEAD
	<node lat="58.25695833508139" lon="7.741969446329805" id="-26559">
=======
	<node id="-566346" lat="58.2569583351" lon="7.74196944633">
>>>>>>> e1d4bc35ff8a6074a6f2e91616a996b547c36f15
		<tag k="highway" v="path" />
		<tag k="name" v="Stien" />
		<tag k="ssr:stedsnr" v="944570" />
	</node>
<<<<<<< HEAD
	<node lat="58.41528055441954" lon="7.76735833706788" id="-26599">
=======
	<node id="-568385" lat="58.3582694411" lon="7.72252499593">
		<tag k="highway" v="path" />
		<tag k="name" v="Steinkleiva" />
		<tag k="ssr:stedsnr" v="823750" />
	</node>
	<node id="-566281" lat="58.4198444423" lon="7.74087222518">
		<tag k="highway" v="path" />
		<tag k="name" v="Kyrkjevegen" />
		<tag k="ssr:stedsnr" v="944149" />
	</node>
	<node id="-567330" lat="58.3305472216" lon="7.89624721462">
>>>>>>> e1d4bc35ff8a6074a6f2e91616a996b547c36f15
		<tag k="fixme" v="consider highway=path" />
		<tag k="highway" v="track" />
		<tag k="name" v="Sandkleiv" />
		<tag k="ssr:stedsnr" v="944129" />
	</node>
	<node id="-565774" lat="58.3834555527" lon="7.64288610674">
		<tag k="bridge" v="yes" />
		<tag k="layer" v="1" />
		<tag k="name" v="Øygarden nedre" />
		<tag k="ssr:stedsnr" v="714085" />
	</node>
	<node id="-565773" lat="58.2886527805" lon="7.98324999634">
		<tag k="bridge" v="yes" />
		<tag k="layer" v="1" />
		<tag k="name" v="Storevoll" />
		<tag k="ssr:stedsnr" v="714084" />
	</node>
	<node id="-565772" lat="58.3275250008" lon="7.81186943888">
		<tag k="bridge" v="yes" />
		<tag k="layer" v="1" />
		<tag k="name" v="Reiersdal" />
		<tag k="ssr:stedsnr" v="714078" />
	</node>
	<node id="-565771" lat="58.3765277796" lon="7.70980556143">
		<tag k="bridge" v="yes" />
		<tag k="layer" v="1" />
		<tag k="name" v="Odderli" />
		<tag k="ssr:stedsnr" v="714076" />
	</node>
	<node id="-565770" lat="58.321152775" lon="8.00851944301">
		<tag k="bridge" v="yes" />
		<tag k="layer" v="1" />
		<tag k="name" v="Omdalsvadet" />
		<tag k="ssr:stedsnr" v="714073" />
	</node>
	<node id="-565769" lat="58.333369444" lon="8.0326527726">
		<tag k="bridge" v="yes" />
		<tag k="layer" v="1" />
		<tag k="name" v="Hågonsbekk bru" />
		<tag k="ssr:stedsnr" v="714067" />
	</node>
	<node id="-566277" lat="58.4152805544" lon="7.76735833707">
		<tag k="fixme" v="consider highway=path" />
		<tag k="highway" v="track" />
		<tag k="name" v="Sandkleiv" />
		<tag k="ssr:stedsnr" v="944129" />
	</node>
</osm>
