<?xml version="1.0" encoding="UTF-8"?>
<osm version="0.6" generator="osmapis">
	<node lat="60.747438886248275" lon="7.243725000299856" id="-77573">
		<tag k="name" v="Eitra" />
		<tag k="ssr:stedsnr" v="6013" />
		<tag k="waterway" v="stream" />
	</node>
	<node lat="60.86570555811485" lon="7.18172500691989" id="-77579">
		<tag k="name" v="Vardaskreda" />
		<tag k="ssr:stedsnr" v="8122" />
		<tag k="waterway" v="stream" />
	</node>
	<node lat="60.86376960590513" lon="7.633795370700391" id="-77586">
		<tag k="alt_name" v="Liavatnet, store" />
		<tag k="name" v="Store Liavatnet" />
		<tag k="natural" v="water" />
		<tag k="ssr:stedsnr" v="8346" />
		<tag k="water" v="lake" />
	</node>
	<node lat="60.81637500164665" lon="7.495725007655078" id="-77597">
		<tag k="name" v="Nonsgrovi" />
		<tag k="ssr:stedsnr" v="9243" />
		<tag k="waterway" v="stream" />
	</node>
	<node lat="60.87482777396459" lon="7.417858332616154" id="-77599">
		<tag k="name" v="Grovselvi" />
		<tag k="ssr:stedsnr" v="9310" />
		<tag k="waterway" v="stream" />
	</node>
	<node lat="60.92482777658959" lon="7.215802777649199" id="-77619">
		<tag k="name" v="Husaskreddøla" />
		<tag k="ssr:stedsnr" v="28313" />
		<tag k="waterway" v="stream" />
	</node>
	<node lat="60.96618610838527" lon="6.919452780205238" id="-77621">
		<tag k="name" v="Sjonarhauggrovi" />
		<tag k="ssr:stedsnr" v="28712" />
		<tag k="waterway" v="stream" />
	</node>
	<node lat="60.85776388728846" lon="6.782419451954017" id="-77624">
		<tag k="name" v="Svartehølen" />
		<tag k="place" v="locality" />
		<tag k="ssr:stedsnr" v="28982" />
	</node>
	<node lat="60.8502416691719" lon="7.095411114242264" id="-77625">
		<tag k="name" v="Vetlahamra" />
		<tag k="ssr:stedsnr" v="28992" />
		<tag k="waterway" v="stream" />
	</node>
	<node lat="60.844538889141376" lon="7.309199991146632" id="-77629">
		<tag k="name" v="Breiasetgrøvene" />
		<tag k="ssr:stedsnr" v="29425" />
		<tag k="waterway" v="stream" />
	</node>
	<node lat="60.89470555300945" lon="7.135250001519862" id="-77639">
		<tag k="name" v="Kongsteigsgrovi" />
		<tag k="ssr:stedsnr" v="29982" />
		<tag k="waterway" v="stream" />
	</node>
	<node lat="60.73416668821665" lon="7.496410908447201" id="-77643">
		<tag k="name" v="Svartavatnet" />
		<tag k="natural" v="water" />
		<tag k="ssr:stedsnr" v="68885" />
		<tag k="water" v="lake" />
	</node>
	<node lat="60.81798611472367" lon="7.479766674965159" id="-77654">
		<tag k="name" v="Bjørnsgrovi" />
		<tag k="ssr:stedsnr" v="69296" />
		<tag k="waterway" v="stream" />
	</node>
	<node lat="60.942308330351636" lon="7.526461107266101" id="-77657">
		<tag k="name" v="Ljosegrunnseggvatnet" />
		<tag k="natural" v="water" />
		<tag k="ssr:stedsnr" v="69412" />
	</node>
	<node lat="60.7649027753719" lon="6.9895277850030775" id="-77659">
		<tag k="name" v="Hestabotnvatnet" />
		<tag k="natural" v="water" />
		<tag k="ssr:stedsnr" v="69489" />
	</node>
	<node lat="60.95383610994955" lon="7.4005305579371905" id="-77662">
		<tag k="name" v="Grønebergvatnet" />
		<tag k="natural" v="water" />
		<tag k="ssr:stedsnr" v="69511" />
	</node>
	<node lat="60.97965000027725" lon="6.861208338237284" id="-77664">
		<tag k="name" v="Styvisdalselvi" />
		<tag k="ssr:stedsnr" v="69930" />
		<tag k="waterway" v="stream" />
	</node>
	<node lat="60.952694442639455" lon="7.507430549788956" id="-77672">
		<tag k="name" v="Bukkaholmvatnet" />
		<tag k="natural" v="water" />
		<tag k="ssr:stedsnr" v="85312" />
		<tag k="water" v="lake" />
	</node>
	<node lat="60.89041666667263" lon="6.86811388217351" id="-77674">
		<tag k="name" v="Løskredgrovi" />
		<tag k="ssr:stedsnr" v="88487" />
		<tag k="waterway" v="stream" />
	</node>
	<node lat="60.748377777695424" lon="7.148538888595913" id="-77677">
		<tag k="name" v="Grovadøla" />
		<tag k="ssr:stedsnr" v="89516" />
		<tag k="waterway" v="stream" />
	</node>
	<node lat="60.822983328976406" lon="7.074122219919871" id="-77684">
		<tag k="name" v="Vidalselvi" />
		<tag k="ssr:stedsnr" v="89626" />
		<tag k="waterway" v="stream" />
	</node>
	<node lat="60.83158333423217" lon="7.2745305637727355" id="-77695">
		<tag k="name" v="Svartahølen" />
		<tag k="place" v="locality" />
		<tag k="ssr:stedsnr" v="90428" />
	</node>
	<node lat="60.86514444138205" lon="7.410269451385238" id="-77697">
		<tag k="name" v="Strøkjagrovi" />
		<tag k="ssr:stedsnr" v="90171" />
		<tag k="waterway" v="stream" />
	</node>
	<node lat="60.86051388811153" lon="7.274272214447225" id="-77698">
		<tag k="name" v="Råkagrovi" />
		<tag k="ssr:stedsnr" v="90378" />
		<tag k="waterway" v="stream" />
	</node>
	<node lat="60.90123709802549" lon="6.881090229306763" id="-77700">
		<tag k="alt_name" v="Søstrene" />
		<tag k="loc_name" v="Systrene" />
		<tag k="name" v="Systrane" />
		<tag k="ssr:stedsnr" v="115114" />
		<tag k="waterway" v="stream" />
	</node>
	<node lat="60.90766111193956" lon="7.144444452202091" id="-77717">
		<tag k="name" v="Flugandegrovi" />
		<tag k="ssr:stedsnr" v="251192" />
		<tag k="waterway" v="stream" />
	</node>
	<node lat="60.895238886676154" lon="6.97165000922941" id="-77722">
		<tag k="name" v="Jonadalsvatnet" />
		<tag k="natural" v="water" />
		<tag k="ssr:stedsnr" v="251176" />
	</node>
	<node lat="60.93925278173794" lon="7.089466660011353" id="-77727">
		<tag k="alt_name" v="Underdalselvi" />
		<tag k="name" v="Undredalselvi" />
		<tag k="ssr:stedsnr" v="251204" />
		<tag k="waterway" v="river" />
	</node>
	<node lat="60.98580833602826" lon="7.215386103843364" id="-77730">
		<tag k="name" v="Åmotet" />
		<tag k="ssr:stedsnr" v="251250" />
		<tag k="waterway" v="stream" />
	</node>
	<node lat="60.810911106785" lon="7.575966666615457" id="-77735">
		<tag k="name" v="Nosavatnet" />
		<tag k="natural" v="water" />
		<tag k="ssr:stedsnr" v="251271" />
	</node>
	<node lat="60.823869444480664" lon="7.586405561987281" id="-77738">
		<tag k="name" v="Grøna" />
		<tag k="ssr:stedsnr" v="251284" />
		<tag k="waterway" v="stream" />
	</node>
	<node lat="60.827741536217275" lon="7.491968969665119" id="-77741">
		<tag k="name" v="Vikjaneset" />
		<tag k="natural" v="cape" />
		<tag k="ssr:stedsnr" v="251294" />
	</node>
	<node lat="60.789463885057046" lon="7.390600006901899" id="-77744">
		<tag k="name" v="Fossane" />
		<tag k="natural" v="waterfall" />
		<tag k="ssr:stedsnr" v="251333" />
	</node>
	<node lat="60.92776944217848" lon="7.431950008376917" id="-77745">
		<tag k="name" v="Kvanngrøelvi" />
		<tag k="ssr:stedsnr" v="251394" />
		<tag k="waterway" v="stream" />
	</node>
	<node lat="60.848938892875125" lon="7.409494435682876" id="-77747">
		<tag k="name" v="Botnagrovi" />
		<tag k="ssr:stedsnr" v="251355" />
		<tag k="waterway" v="stream" />
	</node>
	<node lat="60.979322317320495" lon="7.342844432341796" id="-77752">
		<tag k="alt_name" v="Andisvatnet, vle;Andisvatnet, vetle" />
		<tag k="name" v="Vetle Andisvatnet" />
		<tag k="natural" v="water" />
		<tag k="ssr:stedsnr" v="251500" />
	</node>
	<node lat="60.8638416692508" lon="7.112958329285522" id="-77758">
		<tag k="name" v="Flåmselvi" />
		<tag k="ssr:stedsnr" v="251457" />
		<tag k="waterway" v="river" />
	</node>
	<node lat="60.85428889166481" lon="6.78748056172722" id="-77761">
		<tag k="name" v="Fossagrovi" />
		<tag k="ssr:stedsnr" v="251835" />
		<tag k="waterway" v="stream" />
	</node>
	<node lat="60.826849995871925" lon="7.2697583348926615" id="-77780">
		<tag k="name" v="Låvidammen" />
		<tag k="ssr:stedsnr" v="129034" />
		<tag k="waterway" v="dam" />
	</node>
	<node lat="60.82663055967151" lon="7.596088896900091" id="-77782">
		<tag k="name" v="Storagrovi" />
		<tag k="ssr:stedsnr" v="129280" />
		<tag k="waterway" v="stream" />
	</node>
	<node lat="60.824350000019486" lon="7.650477778456551" id="-77783">
		<tag k="alt_name" v="Grøna, vetle" />
		<tag k="name" v="Vetle Grøna" />
		<tag k="ssr:stedsnr" v="129286" />
		<tag k="waterway" v="stream" />
	</node>
	<node lat="60.83090277543278" lon="7.442802785892918" id="-77787">
		<tag k="alt_name" v="Vetlevatnet" />
		<tag k="name" v="Vetlavatnet" />
		<tag k="natural" v="water" />
		<tag k="ssr:stedsnr" v="129349" />
	</node>
	<node lat="60.93781944767051" lon="7.397000003877822" id="-77789">
		<tag k="alt_name" v="Leitevatnet, øvre" />
		<tag k="name" v="Øvre Leitevatnet" />
		<tag k="natural" v="water" />
		<tag k="ssr:stedsnr" v="129396" />
	</node>
	<node lat="61.06300555917026" lon="7.187380559968865" id="-77796">
		<tag k="name" v="Storebotnelvi" />
		<tag k="ssr:stedsnr" v="130378" />
		<tag k="waterway" v="stream" />
	</node>
	<node lat="60.856761115029926" lon="7.383791659483961" id="-77800">
		<tag k="alt_name" v="Frivollsgrovi" />
		<tag k="name" v="Frivollgrovi" />
		<tag k="ssr:stedsnr" v="130285" />
		<tag k="waterway" v="stream" />
	</node>
	<node lat="60.7911479920141" lon="7.237749899841124" id="-77803">
		<tag k="name" v="Viddalsdammen" />
		<tag k="natural" v="water" />
		<tag k="ssr:stedsnr" v="141391" />
		<tag k="water" v="lake" />
	</node>
	<node lat="60.81812500430834" lon="7.254602768584049" id="-77804">
		<tag k="name" v="Viddalsvatnet" />
		<tag k="natural" v="water" />
		<tag k="ssr:stedsnr" v="141393" />
		<tag k="water" v="lake" />
	</node>
	<node lat="60.94496111526014" lon="7.420530551853818" id="-77808">
		<tag k="name" v="Tjørnane" />
		<tag k="natural" v="water" />
		<tag k="ssr:stedsnr" v="146609" />
		<tag k="water" v="lake" />
	</node>
	<node lat="60.90350277986137" lon="6.858900003434704" id="-77810">
		<tag k="name" v="Vetlaskredgrovi" />
		<tag k="ssr:stedsnr" v="148565" />
		<tag k="waterway" v="stream" />
	</node>
	<node lat="60.93559166280061" lon="6.879224995678797" id="-77811">
		<tag k="name" v="Breiskredgrovi" />
		<tag k="ssr:stedsnr" v="148972" />
		<tag k="waterway" v="river" />
	</node>
	<node lat="60.90490555193983" lon="7.192430548276364" id="-77812">
		<tag k="name" v="Neset" />
		<tag k="natural" v="cape" />
		<tag k="ssr:stedsnr" v="149364" />
	</node>
	<node lat="60.95333610889808" lon="6.921872230992821" id="-77818">
		<tag k="name" v="Heimste Skogagrovi" />
		<tag k="ssr:stedsnr" v="149715" />
		<tag k="waterway" v="stream" />
	</node>
	<node lat="60.891005553380495" lon="7.23155833803305" id="-77826">
		<tag k="name" v="Leirhola" />
		<tag k="place" v="locality" />
		<tag k="ssr:stedsnr" v="150155" />
	</node>
	<node lat="60.886941665112374" lon="7.334808325642727" id="-77828">
		<tag k="name" v="Kvålafossen" />
		<tag k="natural" v="waterfall" />
		<tag k="ssr:stedsnr" v="150307" />
	</node>
	<node lat="60.78010832973886" lon="7.099927772461903" id="-77834">
		<tag k="alt_name" v="Stakstø" />
		<tag k="name" v="Stakkstø" />
		<tag k="natural" v="cape" />
		<tag k="ssr:stedsnr" v="150916" />
	</node>
	<node lat="60.83609722240795" lon="7.026458325403687" id="-77840">
		<tag k="name" v="Skratlandevatnet" />
		<tag k="natural" v="water" />
		<tag k="ssr:stedsnr" v="190011" />
	</node>
	<node lat="60.98956944444001" lon="6.998400004187867" id="-77846">
		<tag k="alt_name" v="Lomtjødni" />
		<tag k="name" v="Lomtjørni" />
		<tag k="natural" v="water" />
		<tag k="ssr:stedsnr" v="190218" />
	</node>
	<node lat="60.88500555143654" lon="7.4716750056333545" id="-77851">
		<tag k="name" v="Joanosvotni" />
		<tag k="natural" v="water" />
		<tag k="ssr:stedsnr" v="190424" />
		<tag k="water" v="lake" />
	</node>
	<node lat="60.89103889043315" lon="7.503452780923146" id="-77852">
		<tag k="name" v="Grodalstrupvatnet" />
		<tag k="natural" v="water" />
		<tag k="ssr:stedsnr" v="190425" />
	</node>
	<node lat="60.78853332989801" lon="7.562525004072671" id="-77868">
		<tag k="name" v="Vetlebotnvatnet" />
		<tag k="natural" v="water" />
		<tag k="ssr:stedsnr" v="191256" />
		<tag k="water" v="lake" />
	</node>
	<node lat="60.85513333578487" lon="7.353813883511212" id="-77870">
		<tag k="name" v="Stondalselvi" />
		<tag k="ssr:stedsnr" v="191275" />
		<tag k="waterway" v="river" />
	</node>
	<node lat="60.94297797779892" lon="6.9398914014441395" id="-77874">
		<tag k="name" v="Kyrjukelgrovi" />
		<tag k="ssr:stedsnr" v="263457" />
		<tag k="waterway" v="stream" />
	</node>
	<node lat="60.87654999804321" lon="7.323863896001428" id="-77875">
		<tag k="loc_name" v="Løelvi" />
		<tag k="name" v="Midjeelvi" />
		<tag k="ssr:stedsnr" v="263569" />
		<tag k="waterway" v="river" />
	</node>
	<node lat="60.85657777389" lon="7.306499991256939" id="-77876">
		<tag k="name" v="Grimsetelvi" />
		<tag k="ssr:stedsnr" v="263571" />
		<tag k="waterway" v="river" />
	</node>
	<node lat="60.772475628618785" lon="7.5379514985850316" id="-77881">
		<tag k="name" v="Høganosvotni" />
		<tag k="natural" v="water" />
		<tag k="ssr:stedsnr" v="267861" />
		<tag k="water" v="lake" />
	</node>
	<node lat="61.01581110680937" lon="7.0236000025158924" id="-77884">
		<tag k="name" v="Inste Aksnesgrovi" />
		<tag k="ssr:stedsnr" v="269146" />
		<tag k="waterway" v="stream" />
	</node>
	<node lat="61.03257778018636" lon="7.050330557200874" id="-77885">
		<tag k="name" v="Breisnesskreda" />
		<tag k="ssr:stedsnr" v="269154" />
		<tag k="waterway" v="stream" />
	</node>
	<node lat="60.94142222461363" lon="6.950016659207372" id="-77886">
		<tag k="name" v="Nyskredgrovi" />
		<tag k="ssr:stedsnr" v="269188" />
		<tag k="waterway" v="stream" />
	</node>
	<node lat="60.97612777810054" lon="7.1114722223331315" id="-77887">
		<tag k="name" v="Vetlagrovi" />
		<tag k="ssr:stedsnr" v="210114" />
		<tag k="waterway" v="stream" />
	</node>
	<node lat="60.86537500035314" lon="6.822383337571637" id="-77890">
		<tag k="name" v="Nyehølen" />
		<tag k="place" v="locality" />
		<tag k="ssr:stedsnr" v="210244" />
	</node>
	<node lat="60.86344444358583" lon="7.300297230146419" id="-77899">
		<tag k="name" v="Stodvad" />
		<tag k="natural" v="cape" />
		<tag k="ssr:stedsnr" v="211012" />
	</node>
	<node lat="60.909111109525135" lon="7.069111119655652" id="-77904">
		<tag k="name" v="Seljedottgrovi" />
		<tag k="ssr:stedsnr" v="211309" />
		<tag k="waterway" v="stream" />
	</node>
	<node lat="60.828269443807685" lon="7.111463896741759" id="-77906">
		<tag k="name" v="Bjønnøyane" />
		<tag k="place" v="island" />
		<tag k="ssr:stedsnr" v="211235" />
	</node>
	<node lat="60.90083611312336" lon="7.1959500041034605" id="-77908">
		<tag k="name" v="Kjærøyna" />
		<tag k="place" v="island" />
		<tag k="ssr:stedsnr" v="211431" />
	</node>
	<node lat="60.90224444297764" lon="7.352505563470782" id="-77909">
		<tag k="name" v="Liagrovi" />
		<tag k="ssr:stedsnr" v="211331" />
		<tag k="waterway" v="stream" />
	</node>
	<node lat="60.844774998250095" lon="7.348777783602637" id="-77913">
		<tag k="name" v="Klovhalsgrovi" />
		<tag k="ssr:stedsnr" v="211377" />
		<tag k="waterway" v="stream" />
	</node>
	<node lat="60.97122777957979" lon="7.104458329657453" id="-77920">
		<tag k="name" v="Kappadalselvi" />
		<tag k="ssr:stedsnr" v="211802" />
		<tag k="waterway" v="stream" />
	</node>
	<node lat="60.97896666769936" lon="7.105452769454095" id="-77921">
		<tag k="name" v="Stølsgrovi" />
		<tag k="ssr:stedsnr" v="211803" />
		<tag k="waterway" v="stream" />
	</node>
	<node lat="60.845786114319274" lon="7.098061116026427" id="-77931">
		<tag k="name" v="Hilda" />
		<tag k="ssr:stedsnr" v="211981" />
		<tag k="waterway" v="stream" />
	</node>
	<node lat="60.934108335424845" lon="6.869244436582928" id="-77932">
		<tag k="name" v="Lindagrovi" />
		<tag k="ssr:stedsnr" v="270994" />
		<tag k="waterway" v="stream" />
	</node>
	<node lat="60.878202781307486" lon="7.24935277106645" id="-77943">
		<tag k="name" v="Tverrelvi" />
		<tag k="ssr:stedsnr" v="271114" />
		<tag k="waterway" v="river" />
	</node>
	<node lat="60.877874999575575" lon="7.23173610970899" id="-77944">
		<tag k="name" v="Geithellergrovi" />
		<tag k="ssr:stedsnr" v="271137" />
		<tag k="waterway" v="stream" />
	</node>
	<node lat="60.97215000388118" lon="7.026888888986296" id="-77951">
		<tag k="name" v="Mjåbergsgrovi" />
		<tag k="ssr:stedsnr" v="271290" />
		<tag k="waterway" v="stream" />
	</node>
	<node lat="60.919974998542344" lon="7.198902778315979" id="-77953">
		<tag k="name" v="Linddøla" />
		<tag k="ssr:stedsnr" v="271441" />
		<tag k="waterway" v="stream" />
	</node>
	<node lat="60.922874996577455" lon="7.20070278408626" id="-77954">
		<tag k="name" v="Kvennagrovi" />
		<tag k="ssr:stedsnr" v="271445" />
		<tag k="waterway" v="stream" />
	</node>
	<node lat="60.889200002529705" lon="7.2151527699587605" id="-77955">
		<tag k="name" v="Sjurshellergrovi" />
		<tag k="ssr:stedsnr" v="271448" />
		<tag k="waterway" v="stream" />
	</node>
	<node lat="60.96030555385552" lon="6.981102772646235" id="-77964">
		<tag k="name" v="Kobbaskjergrovi" />
		<tag k="ssr:stedsnr" v="271874" />
		<tag k="waterway" v="stream" />
	</node>
	<node lat="60.976497223024964" lon="7.107955563973097" id="-77968">
		<tag k="name" v="Storekatlagrovi" />
		<tag k="ssr:stedsnr" v="271855" />
		<tag k="waterway" v="stream" />
	</node>
	<node lat="60.989052780364624" lon="7.080061115454411" id="-77974">
		<tag k="name" v="Hortelvi" />
		<tag k="ssr:stedsnr" v="236649" />
		<tag k="waterway" v="stream" />
	</node>
	<node lat="60.728513885583084" lon="7.0289944505459925" id="-77982">
		<tag k="name" v="Jernhusåi" />
		<tag k="ssr:stedsnr" v="249001" />
		<tag k="waterway" v="stream" />
	</node>
	<node lat="60.920094445184176" lon="6.913577782927518" id="-77993">
		<tag k="name" v="Nissedalselvi" />
		<tag k="ssr:stedsnr" v="453234" />
		<tag k="waterway" v="river" />
	</node>
	<node lat="60.83819444553199" lon="7.11609444200555" id="-77995">
		<tag k="name" v="Stegagrovi" />
		<tag k="ssr:stedsnr" v="453256" />
		<tag k="waterway" v="stream" />
	</node>
	<node lat="60.886355559813516" lon="7.314966665458059" id="-77998">
		<tag k="name" v="Rangabekk" />
		<tag k="ssr:stedsnr" v="454795" />
		<tag k="waterway" v="stream" />
	</node>
	<node lat="60.955086114867775" lon="6.9262583380018174" id="-78004">
		<tag k="name" v="Hundagalsgrovi" />
		<tag k="ssr:stedsnr" v="453738" />
		<tag k="waterway" v="stream" />
	</node>
	<node lat="60.97528611545659" lon="7.0583083284309645" id="-78012">
		<tag k="alt_name" v="Stigeelvi" />
		<tag k="name" v="Stegeelvi" />
		<tag k="ssr:stedsnr" v="453854" />
		<tag k="waterway" v="stream" />
	</node>
	<node lat="60.93810000021782" lon="7.210050004490253" id="-78016">
		<tag k="name" v="Midtfossen" />
		<tag k="natural" v="waterfall" />
		<tag k="ssr:stedsnr" v="453951" />
	</node>
	<node lat="60.939430556248745" lon="7.211575006042262" id="-78017">
		<tag k="name" v="Voldefossen" />
		<tag k="natural" v="waterfall" />
		<tag k="ssr:stedsnr" v="453952" />
	</node>
	<node lat="60.89171110682093" lon="7.231086109070517" id="-78020">
		<tag k="name" v="Øyna" />
		<tag k="natural" v="cape" />
		<tag k="ssr:stedsnr" v="454160" />
	</node>
	<node lat="60.87025833027098" lon="7.310688887651139" id="-78021">
		<tag k="name" v="Steinsøyna" />
		<tag k="place" v="island" />
		<tag k="ssr:stedsnr" v="454260" />
	</node>
	<node lat="60.83296111537135" lon="7.27796666800222" id="-78024">
		<tag k="name" v="Storøyna" />
		<tag k="place" v="island" />
		<tag k="ssr:stedsnr" v="454451" />
	</node>
	<node lat="60.77309721861812" lon="7.377780556870054" id="-78030">
		<tag k="name" v="Nedre Snøjuvvatnet" />
		<tag k="natural" v="water" />
		<tag k="ssr:stedsnr" v="267818" />
		<tag k="water" v="lake" />
	</node>
	<node lat="60.912483335961916" lon="6.862813888038661" id="-78033">
		<tag k="name" v="Tåna" />
		<tag k="ssr:stedsnr" v="270943" />
		<tag k="waterway" v="stream" />
	</node>
	<node lat="60.87204166556152" lon="6.832263895243131" id="-78038">
		<tag k="name" v="Botahølen" />
		<tag k="place" v="locality" />
		<tag k="ssr:stedsnr" v="271243" />
	</node>
	<node lat="60.86900277770786" lon="6.827036112599526" id="-78039">
		<tag k="name" v="Tennøyna" />
		<tag k="place" v="island" />
		<tag k="ssr:stedsnr" v="271244" />
	</node>
	<node lat="60.92702500399065" lon="7.145252769346274" id="-78051">
		<tag k="name" v="Klokkarfossen" />
		<tag k="natural" v="waterfall" />
		<tag k="ssr:stedsnr" v="271899" />
	</node>
	<node lat="60.868980557227424" lon="7.397472222950469" id="-78054">
		<tag k="name" v="Kråka" />
		<tag k="ssr:stedsnr" v="272217" />
		<tag k="waterway" v="stream" />
	</node>
	<node lat="60.82455277870378" lon="7.52504722852754" id="-78055">
		<tag k="name" v="Liagrovi" />
		<tag k="ssr:stedsnr" v="272407" />
		<tag k="waterway" v="stream" />
	</node>
	<node lat="60.90197777384964" lon="7.349527780632349" id="-78056">
		<tag k="name" v="Blomdalsøyna" />
		<tag k="place" v="island" />
		<tag k="ssr:stedsnr" v="272304" />
	</node>
	<node lat="60.86156111061461" lon="7.350505548461541" id="-78057">
		<tag k="name" v="Vetleteiggrovi" />
		<tag k="ssr:stedsnr" v="272373" />
		<tag k="waterway" v="stream" />
	</node>
	<node lat="60.71766666554416" lon="7.0143916697240165" id="-78062">
		<tag k="name" v="Trettehaugstjørni" />
		<tag k="natural" v="water" />
		<tag k="ssr:stedsnr" v="463000" />
	</node>
	<node lat="60.745874999234175" lon="7.138875003764991" id="-78066">
		<tag k="name" v="Kjosfossen" />
		<tag k="natural" v="waterfall" />
		<tag k="ssr:stedsnr" v="310008" />
	</node>
	<node lat="60.836808335307616" lon="7.037750004539474" id="-78075">
		<tag k="name" v="Fessene" />
		<tag k="ssr:stedsnr" v="312018" />
		<tag k="waterway" v="stream" />
	</node>
	<node lat="60.98181944895814" lon="7.249397224025138" id="-78079">
		<tag k="name" v="Fagerdalselvi" />
		<tag k="ssr:stedsnr" v="312219" />
		<tag k="waterway" v="stream" />
	</node>
	<node lat="61.03585043376275" lon="7.117354814484709" id="-78084">
		<tag k="alt_name" v="Storebotnvatnet, nedsta" />
		<tag k="name" v="Nedsta Storebotnvatnet" />
		<tag k="natural" v="water" />
		<tag k="ssr:stedsnr" v="312412" />
		<tag k="water" v="lake" />
	</node>
	<node lat="60.90754444024814" lon="7.028127771472219" id="-78089">
		<tag k="name" v="Sørfallgrovi" />
		<tag k="ssr:stedsnr" v="312173" />
		<tag k="waterway" v="stream" />
	</node>
	<node lat="60.88223055586926" lon="6.835522219621405" id="-78092">
		<tag k="alt_name" v="Nautagrovi" />
		<tag k="name" v="Nauta" />
		<tag k="ssr:stedsnr" v="312817" />
		<tag k="waterway" v="stream" />
	</node>
	<node lat="60.91072222470857" lon="7.06493333088116" id="-78096">
		<tag k="name" v="Djupsåna" />
		<tag k="ssr:stedsnr" v="323426" />
		<tag k="waterway" v="stream" />
	</node>
	<node lat="60.80476666343087" lon="7.114400001853688" id="-78106">
		<tag k="name" v="Vetleøyna" />
		<tag k="place" v="islet" />
		<tag k="ssr:stedsnr" v="332042" />
	</node>
	<node lat="60.935188891345874" lon="7.14436945130469" id="-78135">
		<tag k="name" v="Kambagrovi" />
		<tag k="ssr:stedsnr" v="332816" />
		<tag k="waterway" v="stream" />
	</node>
	<node lat="60.97999999997106" lon="7.082894449245971" id="-78136">
		<tag k="name" v="Høyskredgrovi" />
		<tag k="ssr:stedsnr" v="332818" />
		<tag k="waterway" v="stream" />
	</node>
	<node lat="60.85933611075807" lon="7.106488894501028" id="-78139">
		<tag k="name" v="Orøyane" />
		<tag k="natural" v="cape" />
		<tag k="ssr:stedsnr" v="332946" />
	</node>
	<node lat="60.85621373201745" lon="6.779011937945087" id="-78140">
		<tag k="name" v="Vetlevotni" />
		<tag k="natural" v="water" />
		<tag k="ssr:stedsnr" v="332957" />
		<tag k="water" v="lake" />
	</node>
	<node lat="60.87090555947288" lon="7.073563887728123" id="-78153">
		<tag k="alt_name" v="Lintuvatn" />
		<tag k="name" v="Lintuvatnet" />
		<tag k="natural" v="water" />
		<tag k="ssr:stedsnr" v="372110" />
	</node>
	<node lat="60.79677787177873" lon="7.025367907408063" id="-78158">
		<tag k="name" v="Vassetvatnet" />
		<tag k="natural" v="water" />
		<tag k="ssr:stedsnr" v="372058" />
		<tag k="water" v="lake" />
	</node>
	<node lat="60.9946638882053" lon="7.085211110826217" id="-78161">
		<tag k="name" v="Kotningen" />
		<tag k="ssr:stedsnr" v="372217" />
		<tag k="waterway" v="stream" />
	</node>
	<node lat="60.973008337709395" lon="7.33068610293589" id="-78164">
		<tag k="name" v="Andisvatnet" />
		<tag k="natural" v="water" />
		<tag k="ssr:stedsnr" v="372251" />
	</node>
	<node lat="60.963499999287016" lon="7.012416674386741" id="-78165">
		<tag k="name" v="Hovsgrøvene" />
		<tag k="ssr:stedsnr" v="372254" />
		<tag k="waterway" v="stream" />
	</node>
	<node lat="60.830074998644996" lon="7.525597215235352" id="-78168">
		<tag k="name" v="Skaimsdalsgrovi" />
		<tag k="ssr:stedsnr" v="372374" />
		<tag k="waterway" v="stream" />
	</node>
	<node lat="60.95934433581007" lon="7.431881977712773" id="-78169">
		<tag k="name" v="Norddalsvatnet" />
		<tag k="natural" v="water" />
		<tag k="ssr:stedsnr" v="372502" />
		<tag k="water" v="lake" />
	</node>
	<node lat="60.97145277647556" lon="6.930391662843251" id="-78172">
		<tag k="name" v="Halvfjerdingsgrovi" />
		<tag k="ssr:stedsnr" v="372917" />
		<tag k="waterway" v="stream" />
	</node>
	<node lat="60.83576666956767" lon="6.946291668663953" id="-78174">
		<tag k="name" v="Raudeggvatnet" />
		<tag k="natural" v="water" />
		<tag k="ssr:stedsnr" v="372806" />
	</node>
	<node lat="60.873725001194124" lon="7.454716659664894" id="-78180">
		<tag k="name" v="Veiverdalsvotni" />
		<tag k="natural" v="water" />
		<tag k="ssr:stedsnr" v="373324" />
		<tag k="water" v="lake" />
	</node>
	<node lat="60.858888889620786" lon="7.442452773707852" id="-78182">
		<tag k="name" v="Sprenetjørnane" />
		<tag k="natural" v="water" />
		<tag k="ssr:stedsnr" v="373300" />
		<tag k="water" v="lake" />
	</node>
	<node lat="60.93199444083139" lon="6.865686109412975" id="-78191">
		<tag k="name" v="Kjødnesgrovi" />
		<tag k="ssr:stedsnr" v="392000" />
		<tag k="waterway" v="stream" />
	</node>
	<node lat="60.894636110356814" lon="7.192394438098684" id="-78195">
		<tag k="name" v="Fremre vasstaket" />
		<tag k="place" v="locality" />
		<tag k="ssr:stedsnr" v="392505" />
	</node>
	<node lat="60.91821111506987" lon="7.065713892160456" id="-78196">
		<tag k="name" v="Bjønnaskreda" />
		<tag k="ssr:stedsnr" v="392300" />
		<tag k="waterway" v="stream" />
	</node>
	<node lat="60.92382221963034" lon="7.071716668572818" id="-78197">
		<tag k="name" v="Fløytagrovi" />
		<tag k="ssr:stedsnr" v="392301" />
		<tag k="waterway" v="river" />
	</node>
	<node lat="60.938813884999036" lon="7.098244449067625" id="-78201">
		<tag k="name" v="Nautabrønnsgrovi" />
		<tag k="ssr:stedsnr" v="392588" />
		<tag k="waterway" v="stream" />
	</node>
	<node lat="60.76788055902742" lon="7.1014944456845885" id="-78202">
		<tag k="name" v="Øygarden" />
		<tag k="natural" v="cape" />
		<tag k="ssr:stedsnr" v="392592" />
	</node>
	<node lat="60.96043611404779" lon="6.859655546190065" id="-78210">
		<tag k="name" v="Middagsgrovi" />
		<tag k="ssr:stedsnr" v="392699" />
		<tag k="waterway" v="stream" />
	</node>
	<node lat="60.86532499816535" lon="7.403116661960851" id="-78219">
		<tag k="name" v="Rennerstrøki" />
		<tag k="ssr:stedsnr" v="393210" />
		<tag k="waterway" v="rapids" />
	</node>
	<node lat="60.715900003400584" lon="7.049450006449417" id="-78223">
		<tag k="name" v="Gangdalsvatnet" />
		<tag k="natural" v="water" />
		<tag k="ssr:stedsnr" v="432104" />
	</node>
	<node lat="60.71935833517381" lon="7.02585833016736" id="-78225">
		<tag k="name" v="Gangdøla" />
		<tag k="ssr:stedsnr" v="432111" />
		<tag k="waterway" v="stream" />
	</node>
	<node lat="60.70792988586314" lon="7.206171733782941" id="-78226">
		<tag k="alt_name" v="Klevavatn" />
		<tag k="name" v="Klevavatnet" />
		<tag k="natural" v="water" />
		<tag k="ssr:stedsnr" v="432094" />
		<tag k="water" v="lake" />
	</node>
	<node lat="60.73582500060319" lon="7.59057500068619" id="-78227">
		<tag k="name" v="Rossdøla" />
		<tag k="ssr:stedsnr" v="432205" />
		<tag k="waterway" v="stream" />
	</node>
	<node lat="60.81447499646135" lon="7.0030027759650455" id="-78232">
		<tag k="name" v="Brekkedalsvatnet" />
		<tag k="natural" v="water" />
		<tag k="ssr:stedsnr" v="433028" />
	</node>
	<node lat="60.82609166411892" lon="7.177041669947726" id="-78233">
		<tag k="name" v="Kloppelvi" />
		<tag k="ssr:stedsnr" v="433029" />
		<tag k="waterway" v="stream" />
	</node>
	<node lat="60.75455555928204" lon="7.0921638848050055" id="-78243">
		<tag k="name" v="Illagrovi" />
		<tag k="ssr:stedsnr" v="433429" />
		<tag k="waterway" v="stream" />
	</node>
	<node lat="60.8978689462154" lon="7.604371269573808" id="-78244">
		<tag k="name" v="Hellenutvatnet" />
		<tag k="natural" v="water" />
		<tag k="ssr:stedsnr" v="433389" />
		<tag k="water" v="lake" />
	</node>
	<node lat="60.80550278022788" lon="6.925452779777773" id="-78246">
		<tag k="name" v="Storhaugvatnet" />
		<tag k="natural" v="water" />
		<tag k="ssr:stedsnr" v="433788" />
	</node>
	<node lat="60.709896397221065" lon="7.443130995493981" id="-78250">
		<tag k="name" v="Vetla Vargavatnet" />
		<tag k="natural" v="water" />
		<tag k="ssr:stedsnr" v="492166" />
		<tag k="water" v="lake" />
	</node>
	<node lat="60.82678055550301" lon="7.144849992525426" id="-78252">
		<tag k="name" v="Gudmedøla" />
		<tag k="ssr:stedsnr" v="493040" />
		<tag k="waterway" v="river" />
	</node>
	<node lat="60.85458611437174" lon="7.327591663516083" id="-78254">
		<tag k="name" v="Storavatnet" />
		<tag k="natural" v="water" />
		<tag k="ssr:stedsnr" v="493136" />
	</node>
	<node lat="60.85144166695698" lon="7.271447229629781" id="-78263">
		<tag k="name" v="Tvinna" />
		<tag k="ssr:stedsnr" v="494006" />
		<tag k="waterway" v="stream" />
	</node>
	<node lat="60.8617138917865" lon="7.408091663662258" id="-78274">
		<tag k="name" v="Veiverdalselvi" />
		<tag k="ssr:stedsnr" v="494296" />
		<tag k="waterway" v="stream" />
	</node>
	<node lat="60.92061388811371" lon="7.367183338843236" id="-78277">
		<tag k="name" v="Leita" />
		<tag k="ssr:stedsnr" v="494359" />
		<tag k="waterway" v="stream" />
	</node>
	<node lat="60.89042079647513" lon="7.464026607110936" id="-78280">
		<tag k="name" v="Langavatnet" />
		<tag k="natural" v="water" />
		<tag k="ssr:stedsnr" v="494391" />
		<tag k="water" v="lake" />
	</node>
	<node lat="60.894099007743726" lon="7.517761301310931" id="-78281">
		<tag k="alt_name" v="Kjeldhusnosvatnet, fremste" />
		<tag k="name" v="Fremste Kjeldhusnosvatnet" />
		<tag k="natural" v="water" />
		<tag k="ssr:stedsnr" v="494393" />
		<tag k="water" v="lake" />
	</node>
	<node lat="61.0657722241118" lon="7.174622219461195" id="-78284">
		<tag k="name" v="Merkesvatnet" />
		<tag k="natural" v="water" />
		<tag k="ssr:stedsnr" v="494399" />
	</node>
	<node lat="60.97402499872823" lon="7.223419435523711" id="-78286">
		<tag k="alt_name" v="Storeelvi" />
		<tag k="name" v="Storelvi" />
		<tag k="ssr:stedsnr" v="494769" />
		<tag k="waterway" v="river" />
	</node>
	<node lat="60.84459166597248" lon="7.312091669930735" id="-78289">
		<tag k="name" v="Kvamsgrovi" />
		<tag k="ssr:stedsnr" v="272401" />
		<tag k="waterway" v="stream" />
	</node>
	<node lat="60.89240277656023" lon="7.212322221545858" id="-78293">
		<tag k="name" v="Raveltagrovi" />
		<tag k="ssr:stedsnr" v="453406" />
		<tag k="waterway" v="stream" />
	</node>
	<node lat="60.88346666532853" lon="7.10361944159346" id="-78296">
		<tag k="name" v="Haldora" />
		<tag k="ssr:stedsnr" v="453608" />
		<tag k="waterway" v="stream" />
	</node>
	<node lat="60.968191667704644" lon="6.914763895714852" id="-78299">
		<tag k="name" v="Jeiskaligrovi" />
		<tag k="ssr:stedsnr" v="453718" />
		<tag k="waterway" v="stream" />
	</node>
	<node lat="60.86318333055722" lon="7.294491663456091" id="-78301">
		<tag k="name" v="Kråka" />
		<tag k="natural" v="cape" />
		<tag k="ssr:stedsnr" v="454026" />
	</node>
	<node lat="60.894930556666644" lon="7.221036108920612" id="-78307">
		<tag k="name" v="Kjærbakken" />
		<tag k="natural" v="shoal" />
		<tag k="ssr:stedsnr" v="454162" />
	</node>
	<node lat="60.83642777873664" lon="7.346638883888212" id="-78309">
		<tag k="name" v="Storehølen" />
		<tag k="place" v="locality" />
		<tag k="ssr:stedsnr" v="454368" />
	</node>
	<node lat="60.87304166462537" lon="7.015058335487916" id="-78313">
		<tag k="name" v="Underdalsmoelvi" />
		<tag k="ssr:stedsnr" v="454863" />
		<tag k="waterway" v="river" />
	</node>
	<node lat="60.745694986852975" lon="7.46787671195789" id="-78317">
		<tag k="alt_name" v="Mellomvatnet, nedre" />
		<tag k="name" v="Nedre Mellomvatnet" />
		<tag k="natural" v="water" />
		<tag k="old_name" v="Mellomvatnet" />
		<tag k="ssr:stedsnr" v="674215" />
		<tag k="water" v="lake" />
	</node>
	<node lat="60.75077766457815" lon="7.44299729394984" id="-78318">
		<tag k="alt_name" v="Mellomvatnet, midtre" />
		<tag k="name" v="Midtre Mellomvatnet" />
		<tag k="natural" v="water" />
		<tag k="ssr:stedsnr" v="674216" />
		<tag k="water" v="lake" />
	</node>
	<node lat="60.81927222027329" lon="7.028763896591271" id="-78319">
		<tag k="name" v="Svarvavatnet" />
		<tag k="natural" v="water" />
		<tag k="ssr:stedsnr" v="675045" />
	</node>
	<node lat="60.904041662790476" lon="7.242655562214241" id="-78329">
		<tag k="name" v="Budeiegrovi" />
		<tag k="ssr:stedsnr" v="676069" />
		<tag k="waterway" v="stream" />
	</node>
	<node lat="60.97978610760354" lon="7.227941672103298" id="-78332">
		<tag k="name" v="Øyestølselvi" />
		<tag k="ssr:stedsnr" v="676222" />
		<tag k="waterway" v="stream" />
	</node>
	<node lat="60.95386111059981" lon="6.967661105893739" id="-78334">
		<tag k="name" v="Geitåna" />
		<tag k="ssr:stedsnr" v="676234" />
		<tag k="waterway" v="stream" />
	</node>
	<node lat="60.82621091921635" lon="7.497506643434512" id="-78342">
		<tag k="name" v="Aurdalsvatnet" />
		<tag k="natural" v="water" />
		<tag k="ssr:stedsnr" v="676259" />
		<tag k="water" v="lake" />
	</node>
	<node lat="60.906244444617066" lon="7.451872226547762" id="-78351">
		<tag k="name" v="Rustatjørni" />
		<tag k="natural" v="water" />
		<tag k="ssr:stedsnr" v="676431" />
	</node>
	<node lat="60.82382221922725" lon="6.9074166757934865" id="-78353">
		<tag k="name" v="Jøtebotnvatnet" />
		<tag k="natural" v="water" />
		<tag k="ssr:stedsnr" v="676779" />
	</node>
	<node lat="60.93822777956511" lon="6.77419721654519" id="-78357">
		<tag k="name" v="Breidalselvi" />
		<tag k="ssr:stedsnr" v="676875" />
		<tag k="waterway" v="stream" />
	</node>
	<node lat="60.74913889260781" lon="7.20722499336853" id="-78363">
		<tag k="name" v="Ryggvellevatnet" />
		<tag k="natural" v="water" />
		<tag k="ssr:stedsnr" v="492008" />
	</node>
	<node lat="60.703514623056904" lon="7.31050002027161" id="-78364">
		<tag k="name" v="Svartavatnet" />
		<tag k="natural" v="water" />
		<tag k="ssr:stedsnr" v="492080" />
		<tag k="water" v="lake" />
	</node>
	<node lat="60.99032222664149" lon="6.970600004079879" id="-78366">
		<tag k="name" v="Lægdavatnet" />
		<tag k="natural" v="water" />
		<tag k="ssr:stedsnr" v="493217" />
	</node>
	<node lat="60.85348333382878" lon="7.0387500041961575" id="-78371">
		<tag k="name" v="Husdalsvatnet" />
		<tag k="natural" v="water" />
		<tag k="ssr:stedsnr" v="493125" />
	</node>
	<node lat="60.93945833111572" lon="7.355000005987894" id="-78377">
		<tag k="name" v="Hornselvi" />
		<tag k="ssr:stedsnr" v="493389" />
		<tag k="waterway" v="stream" />
	</node>
	<node lat="60.96124444339289" lon="6.851563890362022" id="-78380">
		<tag k="name" v="Vassetelvi" />
		<tag k="ssr:stedsnr" v="493918" />
		<tag k="waterway" v="stream" />
	</node>
	<node lat="60.88190833359307" lon="6.823952778656035" id="-78383">
		<tag k="name" v="Langageiti" />
		<tag k="ssr:stedsnr" v="493863" />
		<tag k="waterway" v="stream" />
	</node>
	<node lat="60.83115555868582" lon="7.478033339977322" id="-78387">
		<tag k="name" v="Nesbøvatnet" />
		<tag k="natural" v="water" />
		<tag k="ssr:stedsnr" v="494323" />
	</node>
	<node lat="60.98300000137767" lon="7.325411102300708" id="-78393">
		<tag k="name" v="Reindalsvatnet" />
		<tag k="natural" v="water" />
		<tag k="ssr:stedsnr" v="494211" />
	</node>
	<node lat="60.8638944461357" lon="7.148994447772703" id="-78404">
		<tag k="name" v="Markåna" />
		<tag k="ssr:stedsnr" v="506118" />
		<tag k="waterway" v="stream" />
	</node>
	<node lat="60.77810278119359" lon="7.37141389334646" id="-78407">
		<tag k="name" v="Snøjuvelvi" />
		<tag k="ssr:stedsnr" v="510658" />
		<tag k="waterway" v="river" />
	</node>
	<node lat="60.889138891358954" lon="7.21310555249399" id="-78418">
		<tag k="name" v="Kjellargrovi" />
		<tag k="ssr:stedsnr" v="514419" />
		<tag k="waterway" v="stream" />
	</node>
	<node lat="60.890669443319936" lon="6.843694437684093" id="-78419">
		<tag k="name" v="Hestanesgrovi" />
		<tag k="ssr:stedsnr" v="514465" />
		<tag k="waterway" v="stream" />
	</node>
	<node lat="60.742047977067905" lon="7.155041949090728" id="-78421">
		<tag k="loc_name" v="Kjærleiksholmen" />
		<tag k="name" v="Kjærlighetsholmen" />
		<tag k="place" v="islet" />
		<tag k="ssr:stedsnr" v="514512" />
	</node>
	<node lat="60.83211944127901" lon="7.407938883093008" id="-78452">
		<tag k="name" v="Moldedalsgrovi" />
		<tag k="ssr:stedsnr" v="554386" />
		<tag k="waterway" v="stream" />
	</node>
	<node lat="60.81042316439846" lon="7.628945081943274" id="-78456">
		<tag k="name" v="Finndalsvatnet" />
		<tag k="natural" v="water" />
		<tag k="ssr:stedsnr" v="554283" />
		<tag k="water" v="lake" />
	</node>
	<node lat="60.92602777613447" lon="7.420649993428775" id="-78457">
		<tag k="name" v="Kvanngrøfossen" />
		<tag k="natural" v="waterfall" />
		<tag k="ssr:stedsnr" v="554404" />
	</node>
	<node lat="60.80938332920901" lon="7.559769445478431" id="-78462">
		<tag k="name" v="Storagrovi" />
		<tag k="ssr:stedsnr" v="554821" />
		<tag k="waterway" v="stream" />
	</node>
	<node lat="60.7474413772691" lon="7.449180810086876" id="-78469">
		<tag k="name" v="Mellomvotni" />
		<tag k="natural" v="water" />
		<tag k="ssr:stedsnr" v="570420" />
		<tag k="water" v="lake" />
	</node>
	<node lat="60.874438888485024" lon="7.240613886177265" id="-78476">
		<tag k="name" v="Fossen" />
		<tag k="natural" v="waterfall" />
		<tag k="ssr:stedsnr" v="574126" />
	</node>
	<node lat="60.84718333460583" lon="7.348322215510208" id="-78484">
		<tag k="name" v="Gjeljeøyna" />
		<tag k="natural" v="cape" />
		<tag k="ssr:stedsnr" v="574407" />
	</node>
	<node lat="60.91397222014149" lon="7.076749995084065" id="-78486">
		<tag k="name" v="Djupeskreda" />
		<tag k="ssr:stedsnr" v="574307" />
		<tag k="waterway" v="stream" />
	</node>
	<node lat="60.92003889144537" lon="7.081680552788323" id="-78487">
		<tag k="name" v="Flenjajuva" />
		<tag k="ssr:stedsnr" v="574309" />
		<tag k="waterway" v="river" />
	</node>
	<node lat="60.7364555553477" lon="7.147822228384185" id="-78492">
		<tag k="name" v="Styvedalsgrovi" />
		<tag k="ssr:stedsnr" v="574521" />
		<tag k="waterway" v="stream" />
	</node>
	<node lat="60.91014722670139" lon="6.861686110457793" id="-78502">
		<tag k="name" v="Tangaskredgrovi" />
		<tag k="ssr:stedsnr" v="695880" />
		<tag k="waterway" v="stream" />
	</node>
	<node lat="60.81176110950114" lon="7.129880562299471" id="-78505">
		<tag k="name" v="Dalsbotnelvi" />
		<tag k="ssr:stedsnr" v="696028" />
		<tag k="waterway" v="stream" />
	</node>
	<node lat="60.86334722469065" lon="6.790424993553474" id="-78513">
		<tag k="name" v="Solbjørgagrovi" />
		<tag k="ssr:stedsnr" v="696133" />
		<tag k="waterway" v="stream" />
	</node>
	<node lat="60.844294443923665" lon="7.340719444206503" id="-78519">
		<tag k="name" v="Brandsgrovi" />
		<tag k="ssr:stedsnr" v="696376" />
		<tag k="waterway" v="stream" />
	</node>
	<node lat="60.86321389320873" lon="7.09474723032197" id="-78527">
		<tag k="name" v="Norpa" />
		<tag k="ssr:stedsnr" v="696542" />
		<tag k="waterway" v="stream" />
	</node>
	<node lat="60.99992222302489" lon="7.073797224828155" id="-78534">
		<tag k="alt_name" v="Geitåna" />
		<tag k="name" v="Inste Geitanesgrovi" />
		<tag k="ssr:stedsnr" v="696830" />
		<tag k="waterway" v="stream" />
	</node>
	<node lat="60.82600544874432" lon="7.504480203461526" id="-78545">
		<tag k="name" v="Stokkøynaden" />
		<tag k="place" v="island" />
		<tag k="ssr:stedsnr" v="272456" />
	</node>
	<node lat="60.808355552308946" lon="6.999891672468094" id="-78547">
		<tag k="name" v="Brekkedalselvi" />
		<tag k="ssr:stedsnr" v="614057" />
		<tag k="waterway" v="stream" />
	</node>
	<node lat="60.84507503420704" lon="7.657536872312508" id="-78551">
		<tag k="name" v="Holmavatnet" />
		<tag k="natural" v="water" />
		<tag k="ssr:stedsnr" v="614371" />
		<tag k="water" v="lake" />
	</node>
	<node lat="60.76687222451581" lon="7.419647222153854" id="-78564">
		<tag k="name" v="Langavatnet" />
		<tag k="natural" v="water" />
		<tag k="ssr:stedsnr" v="615256" />
		<tag k="water" v="lake" />
	</node>
	<node lat="61.06019166813357" lon="7.049738883958344" id="-78568">
		<tag k="alt_name" v="Merkesgrova" />
		<tag k="name" v="Merkesgrovi" />
		<tag k="ssr:stedsnr" v="615417" />
		<tag k="waterway" v="stream" />
	</node>
	<node lat="60.902186112497496" lon="7.421202772049927" id="-78570">
		<tag k="name" v="Kjelsgrovi" />
		<tag k="ssr:stedsnr" v="615419" />
		<tag k="waterway" v="stream" />
	</node>
	<node lat="60.91891684897656" lon="7.460679036684531" id="-78581">
		<tag k="name" v="Eitrevotni" />
		<tag k="natural" v="water" />
		<tag k="ssr:stedsnr" v="631397" />
		<tag k="water" v="lake" />
	</node>
	<node lat="60.93496666441606" lon="6.930136103593063" id="-78583">
		<tag k="name" v="Nonsgrovi" />
		<tag k="ssr:stedsnr" v="634313" />
		<tag k="waterway" v="stream" />
	</node>
	<node lat="60.857200003986726" lon="6.814386106246649" id="-78585">
		<tag k="name" v="Snya" />
		<tag k="ssr:stedsnr" v="634277" />
		<tag k="waterway" v="stream" />
	</node>
	<node lat="60.925758330269595" lon="6.867113895204822" id="-78588">
		<tag k="name" v="Flåtagrovi" />
		<tag k="ssr:stedsnr" v="634989" />
		<tag k="waterway" v="stream" />
	</node>
	<node lat="60.87618055144727" lon="7.2355583360751385" id="-78589">
		<tag k="name" v="Vetlateiga" />
		<tag k="ssr:stedsnr" v="635107" />
		<tag k="waterway" v="stream" />
	</node>
	<node lat="60.83473888628731" lon="7.448408328112605" id="-78594">
		<tag k="name" v="Søndagsvatnet" />
		<tag k="ssr:stedsnr" v="635279" />
		<tag k="waterway" v="river" />
	</node>
	<node lat="60.836099997102586" lon="7.459922217491328" id="-78595">
		<tag k="name" v="Likkista" />
		<tag k="place" v="islet" />
		<tag k="ssr:stedsnr" v="635280" />
	</node>
	<node lat="60.82982777657318" lon="7.47676666588469" id="-78596">
		<tag k="name" v="Nesbøvestsida" />
		<tag k="natural" v="beach" />
		<tag k="ssr:stedsnr" v="635284" />
	</node>
	<node lat="60.736855558453506" lon="7.16048332514698" id="-78606">
		<tag k="name" v="Tunshelleøyna" />
		<tag k="place" v="island" />
		<tag k="ssr:stedsnr" v="635487" />
	</node>
	<node lat="60.979780551270906" lon="6.80305000681159" id="-78610">
		<tag k="name" v="Huldabotngrovi" />
		<tag k="ssr:stedsnr" v="635633" />
		<tag k="waterway" v="stream" />
	</node>
	<node lat="60.84987499566186" lon="7.372119445828354" id="-78622">
		<tag k="name" v="Hovdungagrovi" />
		<tag k="ssr:stedsnr" v="675352" />
		<tag k="waterway" v="stream" />
	</node>
	<node lat="60.84606666222726" lon="7.1327805557380835" id="-78625">
		<tag k="name" v="Tivesja" />
		<tag k="ssr:stedsnr" v="676004" />
		<tag k="waterway" v="stream" />
	</node>
	<node lat="60.80063055122909" lon="7.059041663769569" id="-78628">
		<tag k="name" v="Vetlavatnet" />
		<tag k="natural" v="water" />
		<tag k="ssr:stedsnr" v="676054" />
	</node>
	<node lat="60.873233336641434" lon="7.578016669617461" id="-78642">
		<tag k="name" v="Svarthovdvatnet" />
		<tag k="natural" v="water" />
		<tag k="ssr:stedsnr" v="676315" />
		<tag k="water" v="lake" />
	</node>
	<node lat="61.02900555521451" lon="7.076922223710848" id="-78644">
		<tag k="alt_name" v="Tverrelvi" />
		<tag k="name" v="Fjellsgrovi" />
		<tag k="ssr:stedsnr" v="676412" />
		<tag k="waterway" v="stream" />
	</node>
	<node lat="60.88280009406424" lon="7.525215144015367" id="-78654">
		<tag k="name" v="Rynjulsvotni" />
		<tag k="natural" v="water" />
		<tag k="ssr:stedsnr" v="676336" />
		<tag k="water" v="lake" />
	</node>
	<node lat="61.004852775363695" lon="7.328016673242793" id="-78655">
		<tag k="name" v="Flotvatnet" />
		<tag k="natural" v="water" />
		<tag k="ssr:stedsnr" v="676396" />
	</node>
	<node lat="60.96394722351219" lon="6.924155553961057" id="-78662">
		<tag k="name" v="Nyskredgrovi" />
		<tag k="ssr:stedsnr" v="676890" />
		<tag k="waterway" v="stream" />
	</node>
	<node lat="60.82601046790715" lon="6.96415287140549" id="-78663">
		<tag k="name" v="Soleifletvatnet" />
		<tag k="natural" v="water" />
		<tag k="ssr:stedsnr" v="676782" />
		<tag k="water" v="lake" />
	</node>
	<node lat="60.96747499643702" lon="6.928691675804704" id="-78666">
		<tag k="name" v="Dyrdalselvi" />
		<tag k="ssr:stedsnr" v="676907" />
		<tag k="waterway" v="stream" />
	</node>
	<node lat="60.98113055471932" lon="6.813388880232784" id="-78684">
		<tag k="name" v="Huldabotngyldre" />
		<tag k="ssr:stedsnr" v="696665" />
		<tag k="waterway" v="stream" />
	</node>
	<node lat="60.98933611394165" lon="6.975716658666209" id="-78686">
		<tag k="name" v="Legdeelvi" />
		<tag k="ssr:stedsnr" v="696875" />
		<tag k="waterway" v="river" />
	</node>
	<node lat="60.95021666543627" lon="7.181219447748145" id="-78690">
		<tag k="name" v="Ståi" />
		<tag k="natural" v="beach" />
		<tag k="ssr:stedsnr" v="696906" />
	</node>
	<node lat="60.95261667035332" lon="7.196936111520201" id="-78695">
		<tag k="alt_name" v="Skjerdalselvi" />
		<tag k="name" v="Ståelvi" />
		<tag k="ssr:stedsnr" v="696919" />
		<tag k="waterway" v="river" />
	</node>
	<node lat="60.741067616273085" lon="7.150486970204919" id="-78702">
		<tag k="alt_name" v="Reinungavatn" />
		<tag k="name" v="Reinungavatnet" />
		<tag k="natural" v="water" />
		<tag k="ssr:stedsnr" v="735005" />
		<tag k="water" v="lake" />
	</node>
	<node lat="60.748952776062076" lon="7.058916671952777" id="-78704">
		<tag k="name" v="Kreklevatnet" />
		<tag k="natural" v="water" />
		<tag k="ssr:stedsnr" v="735012" />
	</node>
	<node lat="60.72512499931185" lon="7.205899991298421" id="-78706">
		<tag k="fixme" v="multiple name tags, choose one and add the other to alt_name" />
		<tag k="loc_name" v="Moldo;Molda" />
		<tag k="name" v="Moldåna;Moldåni" />
		<tag k="ssr:stedsnr" v="735104" />
		<tag k="waterway" v="river" />
	</node>
	<node lat="60.725100000927796" lon="7.108300008958079" id="-78708">
		<tag k="name" v="Storagrovi" />
		<tag k="ssr:stedsnr" v="735113" />
		<tag k="waterway" v="stream" />
	</node>
	<node lat="60.85494166999578" lon="7.240072219244061" id="-78710">
		<tag k="name" v="Vetlefjellsvatnet" />
		<tag k="natural" v="water" />
		<tag k="ssr:stedsnr" v="736127" />
	</node>
	<node lat="60.75078610808472" lon="7.568233326145835" id="-78717">
		<tag k="fixme" v="multiple name tags, choose one and add the other to alt_name" />
		<tag k="name" v="Bruahallvotni;Brubotnvotni" />
		<tag k="natural" v="water" />
		<tag k="ssr:stedsnr" v="736303" />
		<tag k="water" v="lake" />
	</node>
	<node lat="60.9232500014363" lon="7.391216666095129" id="-78718">
		<tag k="alt_name" v="Leitevatnet, nedre" />
		<tag k="name" v="Nedre Leitevatnet" />
		<tag k="natural" v="water" />
		<tag k="ssr:stedsnr" v="736378" />
	</node>
	<node lat="60.96768889175628" lon="6.865966672780999" id="-78720">
		<tag k="name" v="Vassetvatnet" />
		<tag k="natural" v="water" />
		<tag k="ssr:stedsnr" v="736906" />
	</node>
	<node lat="60.88458708723077" lon="6.98387708589132" id="-78723">
		<tag k="name" v="Skammadalsvatnet" />
		<tag k="natural" v="water" />
		<tag k="ssr:stedsnr" v="737082" />
		<tag k="water" v="lake" />
	</node>
	<node lat="60.98004444424095" lon="7.125713898125004" id="-78739">
		<tag k="name" v="Kvitargrov" />
		<tag k="ssr:stedsnr" v="756064" />
		<tag k="waterway" v="stream" />
	</node>
	<node lat="60.87340277661872" lon="6.825005553721167" id="-78740">
		<tag k="name" v="Giljagrovi" />
		<tag k="ssr:stedsnr" v="756203" />
		<tag k="waterway" v="stream" />
	</node>
	<node lat="60.89411389243487" lon="7.205438895441537" id="-78742">
		<tag k="name" v="Kleppagrovi" />
		<tag k="ssr:stedsnr" v="756455" />
		<tag k="waterway" v="stream" />
	</node>
	<node lat="60.738491669499304" lon="7.163291669255847" id="-78744">
		<tag k="name" v="Kaldaklovfossen" />
		<tag k="natural" v="waterfall" />
		<tag k="ssr:stedsnr" v="756501" />
	</node>
	<node lat="60.87130832956676" lon="7.119180549692472" id="-78747">
		<tag k="name" v="Vetlesandhaugrovi" />
		<tag k="ssr:stedsnr" v="756709" />
		<tag k="waterway" v="stream" />
	</node>
	<node lat="60.92342222400234" lon="7.215327778732503" id="-78761">
		<tag k="name" v="Dalsskreddøla" />
		<tag k="ssr:stedsnr" v="757295" />
		<tag k="waterway" v="stream" />
	</node>
	<node lat="60.87828333473387" lon="7.352286102973683" id="-78763">
		<tag k="name" v="Hålandsgrovi" />
		<tag k="ssr:stedsnr" v="757454" />
		<tag k="waterway" v="stream" />
	</node>
	<node lat="60.897722225513796" lon="7.0103277768763785" id="-78765">
		<tag k="name" v="Middagsskreda" />
		<tag k="ssr:stedsnr" v="757853" />
		<tag k="waterway" v="stream" />
	</node>
	<node lat="60.86318611289556" lon="6.998175001697398" id="-78774">
		<tag k="name" v="Grindafletelvi" />
		<tag k="ssr:stedsnr" v="797111" />
		<tag k="waterway" v="river" />
	</node>
	<node lat="60.946768694699166" lon="7.333320707158507" id="-78779">
		<tag k="name" v="Hornsvotni" />
		<tag k="natural" v="water" />
		<tag k="ssr:stedsnr" v="797155" />
		<tag k="water" v="lake" />
	</node>
	<node lat="60.89483611450429" lon="7.3620277762350845" id="-78786">
		<tag k="name" v="Kleåelvi" />
		<tag k="ssr:stedsnr" v="797403" />
		<tag k="waterway" v="river" />
	</node>
	<node lat="60.795397225480755" lon="7.148336108812056" id="-78788">
		<tag k="name" v="Geismeelvi" />
		<tag k="ssr:stedsnr" v="797459" />
		<tag k="waterway" v="stream" />
	</node>
	<node lat="60.70430783188377" lon="7.147794447831204" id="-78797">
		<tag k="name" v="Paulvatni" />
		<tag k="natural" v="water" />
		<tag k="ssr:stedsnr" v="917099" />
		<tag k="water" v="lake" />
	</node>
	<node lat="60.745349996615786" lon="7.4262749975245566" id="-78798">
		<tag k="alt_name" v="Mellomvatnet, øvre" />
		<tag k="name" v="Øvre Mellomvatnet" />
		<tag k="natural" v="water" />
		<tag k="ssr:stedsnr" v="917180" />
		<tag k="water" v="lake" />
	</node>
	<node lat="60.73810000293605" lon="7.680549995773873" id="-78799">
		<tag k="name" v="Jutulvatnet" />
		<tag k="natural" v="water" />
		<tag k="ssr:stedsnr" v="917184" />
		<tag k="water" v="lake" />
	</node>
	<node lat="60.82485555531246" lon="7.107249995529628" id="-78800">
		<tag k="name" v="Rjoandefossen" />
		<tag k="natural" v="waterfall" />
		<tag k="ssr:stedsnr" v="918039" />
	</node>
	<node lat="60.93456152674897" lon="7.4784632723634665" id="-78815">
		<tag k="name" v="Vetlemelavatnet" />
		<tag k="natural" v="water" />
		<tag k="ssr:stedsnr" v="918445" />
		<tag k="water" v="lake" />
	</node>
	<node lat="60.960122219658885" lon="7.008174991867833" id="-78820">
		<tag k="name" v="Kappadalsgrovi" />
		<tag k="ssr:stedsnr" v="919235" />
		<tag k="waterway" v="stream" />
	</node>
	<node lat="60.92621944281541" lon="7.324702776587176" id="-78822">
		<tag k="name" v="Storagrovvatnet" />
		<tag k="natural" v="water" />
		<tag k="ssr:stedsnr" v="919168" />
	</node>
	<node lat="60.98392777415374" lon="7.000733338376494" id="-78824">
		<tag k="name" v="Sagelvi" />
		<tag k="ssr:stedsnr" v="919185" />
		<tag k="waterway" v="stream" />
	</node>
	<node lat="60.98882777734341" lon="7.020483334392843" id="-78825">
		<tag k="name" v="Skomakargrovi" />
		<tag k="ssr:stedsnr" v="919192" />
		<tag k="waterway" v="stream" />
	</node>
	<node lat="60.77649999547978" lon="7.5918361028268" id="-78829">
		<tag k="name" v="Tverrelvi" />
		<tag k="ssr:stedsnr" v="919277" />
		<tag k="waterway" v="stream" />
	</node>
	<node lat="60.94171389174662" lon="6.896283336034595" id="-78831">
		<tag k="name" v="Håberggrovi" />
		<tag k="ssr:stedsnr" v="816503" />
		<tag k="waterway" v="stream" />
	</node>
	<node lat="60.78599444200664" lon="7.438286108973147" id="-78832">
		<tag k="name" v="Berdalsvotni" />
		<tag k="natural" v="water" />
		<tag k="ssr:stedsnr" v="919294" />
		<tag k="water" v="lake" />
	</node>
	<node lat="60.98170676469665" lon="7.409065980770901" id="-78848">
		<tag k="name" v="Tissedalsvatnet" />
		<tag k="natural" v="water" />
		<tag k="ssr:stedsnr" v="919480" />
		<tag k="water" v="lake" />
	</node>
	<node lat="60.8518083344677" lon="7.0841111042999225" id="-78857">
		<tag k="name" v="Brekkeelvi" />
		<tag k="ssr:stedsnr" v="817920" />
		<tag k="waterway" v="stream" />
	</node>
	<node lat="60.861913888856755" lon="7.274086115461904" id="-78863">
		<tag k="name" v="Vetleråken" />
		<tag k="natural" v="cape" />
		<tag k="ssr:stedsnr" v="818026" />
	</node>
	<node lat="60.83418888620915" lon="7.47786110916833" id="-78868">
		<tag k="name" v="Gravadalsgrovi" />
		<tag k="ssr:stedsnr" v="818303" />
		<tag k="waterway" v="stream" />
	</node>
	<node lat="60.86094999607582" lon="6.8092111133881135" id="-78872">
		<tag k="name" v="Nærøydalselvi" />
		<tag k="ssr:stedsnr" v="919798" />
		<tag k="waterway" v="river" />
	</node>
	<node lat="60.87401944173764" lon="6.7873861200523935" id="-78873">
		<tag k="name" v="Hemrisgrovi" />
		<tag k="ssr:stedsnr" v="919825" />
		<tag k="waterway" v="stream" />
	</node>
	<node lat="60.94671414626696" lon="6.818444014986494" id="-78874">
		<tag k="name" v="Vassbotnvatnet" />
		<tag k="natural" v="water" />
		<tag k="ssr:stedsnr" v="919881" />
		<tag k="water" v="lake" />
	</node>
	<node lat="60.88616388639888" lon="7.129122231303298" id="-78875">
		<tag k="alt_name" v="Frondalselvi" />
		<tag k="name" v="Frondøla" />
		<tag k="ssr:stedsnr" v="818978" />
		<tag k="waterway" v="river" />
	</node>
	<node lat="60.72673270197262" lon="7.066589659669233" id="-78879">
		<tag k="name" v="Geitavatnet" />
		<tag k="natural" v="water" />
		<tag k="ssr:stedsnr" v="856005" />
	</node>
	<node lat="60.73255996667732" lon="7.037363391472" id="-78880">
		<tag k="name" v="Jernhusvatnet" />
		<tag k="natural" v="water" />
		<tag k="ssr:stedsnr" v="856002" />
	</node>
	<node lat="60.734302175380954" lon="7.178189563248131" id="-78882">
		<tag k="name" v="Seltuftvatnet" />
		<tag k="natural" v="water" />
		<tag k="old_name" v="Saltuftvatnet" />
		<tag k="ssr:stedsnr" v="856115" />
		<tag k="water" v="lake" />
	</node>
	<node lat="60.87652756639429" lon="6.99429097898832" id="-78890">
		<tag k="name" v="Undredalsmovotni" />
		<tag k="natural" v="water" />
		<tag k="ssr:stedsnr" v="858096" />
		<tag k="water" v="lake" />
	</node>
	<node lat="60.76499941923705" lon="7.70073253396934" id="-78893">
		<tag k="name" v="Langavatnet" />
		<tag k="natural" v="water" />
		<tag k="ssr:stedsnr" v="858307" />
		<tag k="water" v="lake" />
	</node>
	<node lat="60.78333889275216" lon="7.495033339553305" id="-78896">
		<tag k="name" v="Storavatnet" />
		<tag k="natural" v="water" />
		<tag k="ssr:stedsnr" v="858320" />
	</node>
	<node lat="60.97374999586042" lon="7.352541661819212" id="-78897">
		<tag k="name" v="Flyvotni" />
		<tag k="natural" v="water" />
		<tag k="ssr:stedsnr" v="858507" />
		<tag k="water" v="lake" />
	</node>
	<node lat="60.812933329462254" lon="7.523588892596061" id="-78898">
		<tag k="alt_name" v="Botnagrovi" />
		<tag k="name" v="Botnaelvi" />
		<tag k="ssr:stedsnr" v="858286" />
		<tag k="waterway" v="stream" />
	</node>
	<node lat="60.93511389201741" lon="7.4450249986414025" id="-78902">
		<tag k="name" v="Kvanngrøvatnet" />
		<tag k="natural" v="water" />
		<tag k="ssr:stedsnr" v="858406" />
	</node>
	<node lat="60.785263890090356" lon="7.087786116151603" id="-78904">
		<tag k="name" v="Vetlareppa" />
		<tag k="ssr:stedsnr" v="858484" />
		<tag k="waterway" v="river" />
	</node>
	<node lat="61.01738055712287" lon="7.12444166426795" id="-78910">
		<tag k="name" v="Leitesgrovi" />
		<tag k="ssr:stedsnr" v="859362" />
		<tag k="waterway" v="stream" />
	</node>
	<node lat="60.96014133888913" lon="7.46191648612101" id="-78916">
		<tag k="name" v="Toddivatnet" />
		<tag k="natural" v="water" />
		<tag k="ssr:stedsnr" v="875611" />
		<tag k="water" v="lake" />
	</node>
	<node lat="60.944197217887734" lon="6.912325002814106" id="-78917">
		<tag k="name" v="Stavvikgrovi" />
		<tag k="ssr:stedsnr" v="877504" />
		<tag k="waterway" v="stream" />
	</node>
	<node lat="60.93379721952454" lon="7.070966661070152" id="-78923">
		<tag k="name" v="Tvenningagrovi" />
		<tag k="ssr:stedsnr" v="878312" />
		<tag k="waterway" v="stream" />
	</node>
	<node lat="60.82506389098988" lon="7.491041660599433" id="-78924">
		<tag k="name" v="Vikavestsida" />
		<tag k="natural" v="beach" />
		<tag k="ssr:stedsnr" v="878320" />
	</node>
	<node lat="60.74182222218298" lon="7.142283330142995" id="-78935">
		<tag k="name" v="Løken" />
		<tag k="natural" v="bay" />
		<tag k="ssr:stedsnr" v="878564" />
	</node>
	<node lat="60.96713055713772" lon="7.069905560835892" id="-78938">
		<tag k="name" v="Koldegrypjo" />
		<tag k="ssr:stedsnr" v="878614" />
		<tag k="waterway" v="stream" />
	</node>
	<node lat="60.90315282503395" lon="7.304857259569371" id="-78943">
		<tag k="name" v="Hestavatnet" />
		<tag k="natural" v="water" />
		<tag k="ssr:stedsnr" v="878801" />
		<tag k="water" v="lake" />
	</node>
	<node lat="60.85069722648237" lon="7.080341659005915" id="-78955">
		<tag k="name" v="Ljosdøla" />
		<tag k="ssr:stedsnr" v="918006" />
		<tag k="waterway" v="stream" />
	</node>
	<node lat="60.94013888851335" lon="7.215083337448481" id="-78962">
		<tag k="name" v="Volda" />
		<tag k="ssr:stedsnr" v="918160" />
		<tag k="waterway" v="stream" />
	</node>
	<node lat="60.81436944746518" lon="7.61377222623253" id="-78970">
		<tag k="name" v="Finndalselvi" />
		<tag k="ssr:stedsnr" v="919250" />
		<tag k="waterway" v="stream" />
	</node>
	<node lat="60.83131111122778" lon="7.656013881814871" id="-78971">
		<tag k="name" v="Grønebotnvatnet" />
		<tag k="natural" v="water" />
		<tag k="ssr:stedsnr" v="919267" />
	</node>
	<node lat="60.76535000040837" lon="7.1155000076474595" id="-78975">
		<tag k="name" v="Kvanntjørnelvi" />
		<tag k="ssr:stedsnr" v="919454" />
		<tag k="waterway" v="stream" />
	</node>
	<node lat="60.85793611057533" lon="7.424277773963342" id="-78979">
		<tag k="name" v="Aurshovdtjørni" />
		<tag k="natural" v="water" />
		<tag k="ssr:stedsnr" v="919310" />
	</node>
	<node lat="60.80203332906213" lon="7.126822223216627" id="-78984">
		<tag k="name" v="Tungeelvi" />
		<tag k="ssr:stedsnr" v="931414" />
		<tag k="waterway" v="river" />
	</node>
	<node lat="60.74738610696076" lon="7.099505556995129" id="-78987">
		<tag k="name" v="Uvgjesdøla" />
		<tag k="ssr:stedsnr" v="939004" />
		<tag k="waterway" v="river" />
	</node>
	<node lat="60.89542778071324" lon="7.365033326867316" id="-78994">
		<tag k="name" v="Stronkefossen" />
		<tag k="natural" v="waterfall" />
		<tag k="ssr:stedsnr" v="939287" />
	</node>
	<node lat="60.898877773338974" lon="7.370313882592401" id="-78996">
		<tag k="name" v="Leitegrovi" />
		<tag k="ssr:stedsnr" v="939291" />
		<tag k="waterway" v="stream" />
	</node>
	<node lat="60.864952777939436" lon="7.350569447598288" id="-79000">
		<tag k="name" v="Kambagrovi" />
		<tag k="ssr:stedsnr" v="939483" />
		<tag k="waterway" v="stream" />
	</node>
	<node lat="60.95603888591434" lon="7.179283337900384" id="-79009">
		<tag k="name" v="Seljeskredene" />
		<tag k="ssr:stedsnr" v="939904" />
		<tag k="waterway" v="stream" />
	</node>
	<node lat="60.86253055631735" lon="6.759986115186614" id="-79010">
		<tag k="name" v="Husanovgrovi" />
		<tag k="ssr:stedsnr" v="939934" />
		<tag k="waterway" v="stream" />
	</node>
	<node lat="60.955252781021336" lon="7.204524999765516" id="-79011">
		<tag k="name" v="Leimsdøla" />
		<tag k="ssr:stedsnr" v="939939" />
		<tag k="waterway" v="river" />
	</node>
	<node lat="60.73092706202864" lon="7.378062201571426" id="-79024">
		<tag k="name" v="Hednedalsvatnet" />
		<tag k="natural" v="water" />
		<tag k="ssr:stedsnr" v="7236" />
		<tag k="water" v="lake" />
	</node>
	<node lat="60.73101219853124" lon="7.568537504463361" id="-79025">
		<tag k="name" v="Vestredalsvatnet" />
		<tag k="natural" v="water" />
		<tag k="ssr:stedsnr" v="7242" />
		<tag k="water" v="lake" />
	</node>
	<node lat="60.78986666731601" lon="7.127030556655886" id="-79028">
		<tag k="name" v="Tunnshelloelvi" />
		<tag k="ssr:stedsnr" v="8066" />
		<tag k="waterway" v="stream" />
	</node>
	<node lat="60.89348333410144" lon="7.122469448549742" id="-79030">
		<tag k="name" v="Kongsteiggrovi" />
		<tag k="ssr:stedsnr" v="8081" />
		<tag k="waterway" v="stream" />
	</node>
	<node lat="60.927677776854416" lon="7.266136105118953" id="-79032">
		<tag k="name" v="Koldsa" />
		<tag k="ssr:stedsnr" v="8178" />
		<tag k="waterway" v="stream" />
	</node>
	<node lat="60.8529388868393" lon="6.80427222123581" id="-79039">
		<tag k="name" v="Hallinggrovi" />
		<tag k="ssr:stedsnr" v="8814" />
		<tag k="waterway" v="stream" />
	</node>
	<node lat="60.90928333551879" lon="7.420816666802792" id="-79045">
		<tag k="name" v="Kjel" />
		<tag k="ssr:stedsnr" v="9416" />
		<tag k="waterway" v="stream" />
	</node>
	<node lat="60.98181944471775" lon="7.34683888310127" id="-79046">
		<tag k="name" v="Andisa" />
		<tag k="ssr:stedsnr" v="9487" />
		<tag k="waterway" v="stream" />
	</node>
	<node lat="60.769408331961436" lon="7.5791888979518065" id="-79048">
		<tag k="name" v="Stemmerdøla" />
		<tag k="ssr:stedsnr" v="9255" />
		<tag k="waterway" v="river" />
	</node>
	<node lat="60.75271111395786" lon="7.1063916590765075" id="-79058">
		<tag k="name" v="Kårdalsfossen" />
		<tag k="natural" v="waterfall" />
		<tag k="ssr:stedsnr" v="21414" />
	</node>
	<node lat="60.943213886972856" lon="6.936699992515199" id="-79061">
		<tag k="name" v="Styviselvi" />
		<tag k="ssr:stedsnr" v="21470" />
		<tag k="waterway" v="stream" />
	</node>
	<node lat="60.84736666824688" lon="7.117483331274391" id="-79066">
		<tag k="name" v="Steinshølen" />
		<tag k="place" v="locality" />
		<tag k="ssr:stedsnr" v="28089" />
	</node>
	<node lat="60.9349055583702" lon="6.874005563471134" id="-79068">
		<tag k="name" v="Kastagrovi" />
		<tag k="ssr:stedsnr" v="27995" />
		<tag k="waterway" v="stream" />
	</node>
	<node lat="60.86061666332965" lon="6.803961117136936" id="-79072">
		<tag k="name" v="Steinshølen" />
		<tag k="place" v="locality" />
		<tag k="ssr:stedsnr" v="28093" />
	</node>
	<node lat="61.01216944206692" lon="7.025672217220424" id="-79077">
		<tag k="name" v="Aksnesgrøvene" />
		<tag k="ssr:stedsnr" v="28229" />
		<tag k="waterway" v="stream" />
	</node>
	<node lat="60.86755555978725" lon="6.824202781835412" id="-79079">
		<tag k="name" v="Hellehølen" />
		<tag k="place" v="locality" />
		<tag k="ssr:stedsnr" v="28238" />
	</node>
	<node lat="60.87503055788147" lon="6.841616668462245" id="-79082">
		<tag k="name" v="Kjelfossgrovi" />
		<tag k="ssr:stedsnr" v="28353" />
		<tag k="waterway" v="stream" />
	</node>
	<node lat="60.96635278046376" lon="6.946266666359409" id="-79087">
		<tag k="name" v="Geitsteggrovi" />
		<tag k="ssr:stedsnr" v="28865" />
		<tag k="waterway" v="stream" />
	</node>
	<node lat="60.879524996579384" lon="7.254280557296369" id="-79094">
		<tag k="name" v="Saurehølen" />
		<tag k="place" v="locality" />
		<tag k="ssr:stedsnr" v="29075" />
	</node>
	<node lat="60.8239499986482" lon="7.501983326320011" id="-79108">
		<tag k="name" v="Venasetgrovi" />
		<tag k="ssr:stedsnr" v="29522" />
		<tag k="waterway" v="stream" />
	</node>
	<node lat="60.76687777803566" lon="7.0986888802200605" id="-79110">
		<tag k="name" v="Kvennhusøyna" />
		<tag k="place" v="island" />
		<tag k="ssr:stedsnr" v="29533" />
	</node>
	<node lat="60.95019166297872" lon="7.196941676091089" id="-79113">
		<tag k="name" v="Lauvåna" />
		<tag k="ssr:stedsnr" v="29906" />
		<tag k="waterway" v="stream" />
	</node>
	<node lat="60.703960488657714" lon="7.4892261317334485" id="-79119">
		<tag k="name" v="Stora Vargavatnet" />
		<tag k="natural" v="water" />
		<tag k="ssr:stedsnr" v="67235" />
		<tag k="water" v="lake" />
	</node>
	<node lat="60.92397777621442" lon="7.1455888832082" id="-79132">
		<tag k="name" v="Dimmegrovi" />
		<tag k="ssr:stedsnr" v="69176" />
		<tag k="waterway" v="stream" />
	</node>
	<node lat="60.875074997542036" lon="7.393641671065628" id="-79147">
		<tag k="name" v="Ilaget" />
		<tag k="ssr:stedsnr" v="69350" />
		<tag k="waterway" v="stream" />
	</node>
	<node lat="60.901713891382975" lon="7.349050002891818" id="-79151">
		<tag k="alt_name" v="Furudøla" />
		<tag k="name" v="Furedøla" />
		<tag k="ssr:stedsnr" v="69466" />
		<tag k="waterway" v="river" />
	</node>
	<node lat="60.8454388888431" lon="7.347866663030724" id="-79181">
		<tag k="name" v="Sladdøyane" />
		<tag k="natural" v="cape" />
		<tag k="ssr:stedsnr" v="89398" />
	</node>
	<node lat="60.88756944125332" lon="6.838369452381005" id="-79182">
		<tag k="name" v="Vetlaskreda" />
		<tag k="ssr:stedsnr" v="89473" />
		<tag k="waterway" v="stream" />
	</node>
	<node lat="60.9571888904003" lon="6.824225006518613" id="-79187">
		<tag k="name" v="Kolsetelvi" />
		<tag k="ssr:stedsnr" v="89654" />
		<tag k="waterway" v="river" />
	</node>
	<node lat="60.85459444513667" lon="6.772322213298612" id="-79192">
		<tag k="name" v="Sæbelhaggrovi" />
		<tag k="ssr:stedsnr" v="89920" />
		<tag k="waterway" v="stream" />
	</node>
	<node lat="60.89000833064186" lon="7.331322215474171" id="-79198">
		<tag k="name" v="Bjønnskorgrovi" />
		<tag k="ssr:stedsnr" v="90267" />
		<tag k="waterway" v="stream" />
	</node>
	<node lat="60.91161111558329" lon="7.144652784719343" id="-79201">
		<tag k="name" v="Vetlaflugande" />
		<tag k="ssr:stedsnr" v="89818" />
		<tag k="waterway" v="stream" />
	</node>
	<node lat="60.87602777878093" lon="7.331977775968973" id="-79213">
		<tag k="name" v="Øyregrovi" />
		<tag k="ssr:stedsnr" v="90485" />
		<tag k="waterway" v="stream" />
	</node>
	<node lat="60.8214444489369" lon="7.34899167469564" id="-79214">
		<tag k="name" v="Reppaelvi" />
		<tag k="ssr:stedsnr" v="90328" />
		<tag k="waterway" v="stream" />
	</node>
	<node lat="60.87483055749871" lon="7.01853611005508" id="-79216">
		<tag k="name" v="Fjellmannsskorfossen" />
		<tag k="natural" v="waterfall" />
		<tag k="ssr:stedsnr" v="90832" />
	</node>
	<node lat="60.839580236180346" lon="6.984531267970796" id="-79225">
		<tag k="name" v="Hestbakkvotni" />
		<tag k="natural" v="water" />
		<tag k="ssr:stedsnr" v="129023" />
		<tag k="water" v="lake" />
	</node>
	<node lat="60.86448506127399" lon="7.277941939334489" id="-79229">
		<tag k="name" v="Vassbygdevatnet" />
		<tag k="natural" v="water" />
		<tag k="ssr:stedsnr" v="129137" />
		<tag k="water" v="lake" />
	</node>
	<node lat="60.94567225085653" lon="7.117460616408788" id="-79233">
		<tag k="alt_name" v="Hjøllagrovi" />
		<tag k="name" v="Hjøllateiggrovi" />
		<tag k="ssr:stedsnr" v="129153" />
		<tag k="waterway" v="stream" />
	</node>
	<node lat="60.94765555910104" lon="7.0830333266199945" id="-79234">
		<tag k="name" v="Tverrelvi" />
		<tag k="ssr:stedsnr" v="129154" />
		<tag k="waterway" v="stream" />
	</node>
	<node lat="60.82910278011087" lon="7.416936103194858" id="-79237">
		<tag k="name" v="Sangligrovi" />
		<tag k="ssr:stedsnr" v="129354" />
		<tag k="waterway" v="stream" />
	</node>
	<node lat="60.867676197480094" lon="6.8723500187861655" id="-79259">
		<tag k="name" v="Kjelfossvotni" />
		<tag k="natural" v="water" />
		<tag k="ssr:stedsnr" v="130753" />
		<tag k="water" v="lake" />
	</node>
	<node lat="60.85276666519548" lon="6.763816664469385" id="-79260">
		<tag k="name" v="Hagagrovi" />
		<tag k="ssr:stedsnr" v="130758" />
		<tag k="waterway" v="stream" />
	</node>
	<node lat="60.98258333578131" lon="7.004555561910563" id="-79261">
		<tag k="name" v="Lægdafossen" />
		<tag k="natural" v="waterfall" />
		<tag k="ssr:stedsnr" v="141431" />
	</node>
	<node lat="60.9844805544213" lon="6.884683335214731" id="-79266">
		<tag k="name" v="Bringebærgrovi" />
		<tag k="ssr:stedsnr" v="149775" />
		<tag k="waterway" v="stream" />
	</node>
	<node lat="60.919163888150834" lon="6.8618749932467225" id="-79268">
		<tag k="name" v="Blombakkagrovi" />
		<tag k="ssr:stedsnr" v="148984" />
		<tag k="waterway" v="stream" />
	</node>
	<node lat="60.929652780607405" lon="6.859375007277044" id="-79272">
		<tag k="name" v="Sauaskredgrovi" />
		<tag k="ssr:stedsnr" v="149000" />
		<tag k="waterway" v="stream" />
	</node>
	<node lat="60.87803055738606" lon="6.850416670712775" id="-79274">
		<tag k="name" v="Sandskredgrovi" />
		<tag k="ssr:stedsnr" v="149337" />
		<tag k="waterway" v="stream" />
	</node>
	<node lat="60.89121944809326" lon="7.0542499935944" id="-79280">
		<tag k="name" v="Storefossgrovi" />
		<tag k="ssr:stedsnr" v="149553" />
		<tag k="waterway" v="stream" />
	</node>
	<node lat="60.88890197675269" lon="6.86743519694922" id="-79284">
		<tag k="loc_name" v="Løhaugtjørni" />
		<tag k="name" v="Løhaugtjødnet" />
		<tag k="natural" v="water" />
		<tag k="ssr:stedsnr" v="149561" />
	</node>
	<node lat="60.85824722454011" lon="6.7724944530268365" id="-79288">
		<tag k="name" v="Grynna" />
		<tag k="natural" v="cape" />
		<tag k="ssr:stedsnr" v="149929" />
	</node>
	<node lat="60.93191944060521" lon="7.143611116504292" id="-79292">
		<tag k="name" v="Kvamsgrovi" />
		<tag k="ssr:stedsnr" v="149888" />
		<tag k="waterway" v="stream" />
	</node>
	<node lat="60.97160833162341" lon="6.954724992537544" id="-79293">
		<tag k="name" v="Basthamargrovi" />
		<tag k="ssr:stedsnr" v="149897" />
		<tag k="waterway" v="stream" />
	</node>
	<node lat="60.873975004328834" lon="7.262394441543395" id="-79297">
		<tag k="name" v="Ståi" />
		<tag k="natural" v="bay" />
		<tag k="ssr:stedsnr" v="150048" />
	</node>
	<node lat="60.879358329631174" lon="7.317508342434006" id="-79301">
		<tag k="name" v="Kvitra" />
		<tag k="ssr:stedsnr" v="150243" />
		<tag k="waterway" v="stream" />
	</node>
	<node lat="60.82675833601423" lon="7.348986118277598" id="-79304">
		<tag k="name" v="Øyane" />
		<tag k="place" v="island" />
		<tag k="ssr:stedsnr" v="150351" />
	</node>
	<node lat="60.90289495432365" lon="7.282480914141115" id="-79308">
		<tag k="name" v="Fjølatjørni" />
		<tag k="natural" v="water" />
		<tag k="ssr:stedsnr" v="150742" />
	</node>
	<node lat="60.79355000139479" lon="7.101597230234186" id="-79314">
		<tag k="name" v="Tudnea" />
		<tag k="natural" v="cape" />
		<tag k="ssr:stedsnr" v="150981" />
	</node>
	<node lat="60.72147499968956" lon="7.40625000153445" id="-79320">
		<tag k="name" v="Nedste Grovgjuvvatnet" />
		<tag k="natural" v="water" />
		<tag k="ssr:stedsnr" v="189208" />
	</node>
	<node lat="60.848677779187824" lon="7.329224995892554" id="-79321">
		<tag k="name" v="Mosatjørni" />
		<tag k="natural" v="water" />
		<tag k="ssr:stedsnr" v="190003" />
	</node>
	<node lat="60.82330555689256" lon="7.043616672827319" id="-79334">
		<tag k="name" v="Viddalsvatnet" />
		<tag k="natural" v="water" />
		<tag k="ssr:stedsnr" v="190044" />
	</node>
	<node lat="60.81046944316328" lon="7.029894445826803" id="-79335">
		<tag k="name" v="Kupatjørni" />
		<tag k="natural" v="water" />
		<tag k="ssr:stedsnr" v="190055" />
	</node>
	<node lat="60.83980278169284" lon="7.463716672532568" id="-79342">
		<tag k="alt_name" v="Teigsgrovi" />
		<tag k="name" v="Dalarteiggrovi" />
		<tag k="ssr:stedsnr" v="190376" />
		<tag k="waterway" v="stream" />
	</node>
	<node lat="60.91344166423552" lon="7.4151000029635785" id="-79344">
		<tag k="name" v="Norddalsfossen" />
		<tag k="natural" v="waterfall" />
		<tag k="ssr:stedsnr" v="190389" />
	</node>
	<node lat="60.92581111100631" lon="7.4909555633456995" id="-79345">
		<tag k="name" v="Melaelvi" />
		<tag k="ssr:stedsnr" v="190393" />
		<tag k="waterway" v="stream" />
	</node>
	<node lat="60.833175000611334" lon="7.5042277714781465" id="-79347">
		<tag k="name" v="Langedøla" />
		<tag k="ssr:stedsnr" v="190355" />
		<tag k="waterway" v="stream" />
	</node>
	<node lat="61.02561388474643" lon="7.258330557248865" id="-79354">
		<tag k="name" v="Modlaugsvatnet" />
		<tag k="natural" v="water" />
		<tag k="ssr:stedsnr" v="191375" />
	</node>
	<node lat="61.00565278003221" lon="6.916475002978418" id="-79358">
		<tag k="alt_name" v="Snauasetvatnet, øvsta" />
		<tag k="name" v="Øvsta Snauasetvatnet" />
		<tag k="natural" v="water" />
		<tag k="ssr:stedsnr" v="192165" />
	</node>
	<node lat="60.89767777741785" lon="7.218869444618443" id="-79359">
		<tag k="alt_name" v="Turlielvi" />
		<tag k="name" v="Tverrelvi" />
		<tag k="ssr:stedsnr" v="203560" />
		<tag k="waterway" v="river" />
	</node>
	<node lat="60.900430559129134" lon="6.855236112329785" id="-79362">
		<tag k="name" v="Høyskreda" />
		<tag k="ssr:stedsnr" v="210195" />
		<tag k="waterway" v="stream" />
	</node>
	<node lat="60.83218611538855" lon="7.11105833348406" id="-79363">
		<tag k="name" v="Stølsgrovi" />
		<tag k="ssr:stedsnr" v="211238" />
		<tag k="waterway" v="stream" />
	</node>
	<node lat="60.88956388944365" lon="6.83792221460342" id="-79367">
		<tag k="name" v="Smellagrovi" />
		<tag k="ssr:stedsnr" v="210452" />
		<tag k="waterway" v="stream" />
	</node>
	<node lat="60.98767778140875" lon="6.876952784229347" id="-79370">
		<tag k="name" v="Handadalsfossen" />
		<tag k="natural" v="waterfall" />
		<tag k="ssr:stedsnr" v="210721" />
	</node>
	<node lat="60.929819445923854" lon="6.86304999212709" id="-79373">
		<tag k="name" v="Ytre Bakkagrovi" />
		<tag k="ssr:stedsnr" v="210999" />
		<tag k="waterway" v="stream" />
	</node>
	<node lat="60.85774166945856" lon="6.778041669888633" id="-79378">
		<tag k="name" v="Holmane" />
		<tag k="natural" v="cape" />
		<tag k="ssr:stedsnr" v="210970" />
	</node>
	<node lat="60.88411111273002" lon="7.2378416622974875" id="-79381">
		<tag k="name" v="Skjershølen" />
		<tag k="place" v="locality" />
		<tag k="ssr:stedsnr" v="211153" />
	</node>
	<node lat="60.870838886372155" lon="7.263913893862802" id="-79383">
		<tag k="name" v="Forvoi" />
		<tag k="natural" v="bay" />
		<tag k="ssr:stedsnr" v="211046" />
	</node>
	<node lat="60.7409527769758" lon="7.157672227655266" id="-79394">
		<tag k="name" v="Neset" />
		<tag k="natural" v="cape" />
		<tag k="ssr:stedsnr" v="211485" />
	</node>
	<node lat="60.84974999651706" lon="7.426477772395697" id="-79428">
		<tag k="alt_name" v="Bakkagrovi" />
		<tag k="name" v="Bakkegrovi" />
		<tag k="ssr:stedsnr" v="311394" />
		<tag k="waterway" v="stream" />
	</node>
	<node lat="60.85453055793359" lon="7.543155561068653" id="-79429">
		<tag k="name" v="Sleipå" />
		<tag k="ssr:stedsnr" v="311419" />
		<tag k="waterway" v="stream" />
	</node>
	<node lat="60.78671820991429" lon="7.689253030062424" id="-79438">
		<tag k="name" v="Kongshellervatnet" />
		<tag k="natural" v="water" />
		<tag k="ssr:stedsnr" v="312299" />
		<tag k="water" v="lake" />
	</node>
	<node lat="60.80622500173534" lon="7.353205563062035" id="-79443">
		<tag k="alt_name" v="Reppagrovi" />
		<tag k="name" v="Reppa" />
		<tag k="ssr:stedsnr" v="312240" />
		<tag k="waterway" v="stream" />
	</node>
	<node lat="60.79726944888164" lon="7.469255560646817" id="-79444">
		<tag k="name" v="Katlavatnet" />
		<tag k="natural" v="water" />
		<tag k="ssr:stedsnr" v="312241" />
	</node>
	<node lat="60.797330558753245" lon="7.453216662705072" id="-79445">
		<tag k="name" v="Øykjabakkvatnet" />
		<tag k="natural" v="water" />
		<tag k="ssr:stedsnr" v="312244" />
		<tag k="water" v="lake" />
	</node>
	<node lat="60.83591278445091" lon="7.454397212957756" id="-79447">
		<tag k="name" v="Lomatjørn" />
		<tag k="natural" v="water" />
		<tag k="ssr:stedsnr" v="312334" />
	</node>
	<node lat="60.83708558572779" lon="7.585416718984495" id="-79449">
		<tag k="name" v="Tempelvotni" />
		<tag k="natural" v="water" />
		<tag k="ssr:stedsnr" v="312345" />
		<tag k="water" v="lake" />
	</node>
	<node lat="60.92679166805683" lon="7.3543250051750855" id="-79450">
		<tag k="name" v="Breiavad" />
		<tag k="natural" v="water" />
		<tag k="ssr:stedsnr" v="312360" />
	</node>
	<node lat="60.91356388772614" lon="7.41885555506009" id="-79452">
		<tag k="name" v="Eitrefossen" />
		<tag k="natural" v="waterfall" />
		<tag k="ssr:stedsnr" v="312434" />
	</node>
	<node lat="60.783462222076196" lon="7.303635688483572" id="-79454">
		<tag k="name" v="Kreklevotni" />
		<tag k="natural" v="water" />
		<tag k="ssr:stedsnr" v="312446" />
		<tag k="water" v="lake" />
	</node>
	<node lat="60.77157222116893" lon="6.995280551899566" id="-79456">
		<tag k="name" v="Uksabotnvatnet" />
		<tag k="natural" v="water" />
		<tag k="ssr:stedsnr" v="312448" />
	</node>
	<node lat="60.782099810906715" lon="7.036962653114509" id="-79459">
		<tag k="name" v="Fossdalsvatnet" />
		<tag k="natural" v="water" />
		<tag k="ssr:stedsnr" v="312458" />
		<tag k="water" v="lake" />
	</node>
	<node lat="60.83633611502996" lon="6.751308325496272" id="-79460">
		<tag k="name" v="Kyrajukelen" />
		<tag k="natural" v="water" />
		<tag k="ssr:stedsnr" v="312781" />
	</node>
	<node lat="60.834923898487226" lon="7.124731977408026" id="-79483">
		<tag k="alt_name" v="Gjeilagrovi" />
		<tag k="name" v="Geilagrovi" />
		<tag k="ssr:stedsnr" v="332189" />
		<tag k="waterway" v="stream" />
	</node>
	<node lat="60.83135277495522" lon="7.121052778136813" id="-79484">
		<tag k="name" v="Tverrelvi" />
		<tag k="ssr:stedsnr" v="332192" />
		<tag k="waterway" v="river" />
	</node>
	<node lat="60.9033166674001" lon="7.192408330224623" id="-79491">
		<tag k="name" v="Paradis" />
		<tag k="place" v="island" />
		<tag k="ssr:stedsnr" v="332420" />
	</node>
	<node lat="60.934391665254815" lon="7.089558324362517" id="-79493">
		<tag k="name" v="Kjedjajuvgrovi" />
		<tag k="ssr:stedsnr" v="332516" />
		<tag k="waterway" v="stream" />
	</node>
	<node lat="60.95976944625415" lon="7.0702250084155995" id="-79505">
		<tag k="name" v="Holegrovi" />
		<tag k="ssr:stedsnr" v="332541" />
		<tag k="waterway" v="stream" />
	</node>
	<node lat="60.97211111112714" lon="6.965725006818677" id="-79513">
		<tag k="name" v="Hatleskorgrovi" />
		<tag k="ssr:stedsnr" v="332849" />
		<tag k="waterway" v="stream" />
	</node>
	<node lat="60.95095832991536" lon="7.21136388157598" id="-79518">
		<tag k="name" v="Skjersdøla" />
		<tag k="ssr:stedsnr" v="332902" />
		<tag k="waterway" v="stream" />
	</node>
	<node lat="60.802588891047904" lon="7.580399991379951" id="-79534">
		<tag k="name" v="Øyestølgrovi" />
		<tag k="ssr:stedsnr" v="372280" />
		<tag k="waterway" v="stream" />
	</node>
	<node lat="60.85223611013554" lon="7.403349993297353" id="-79540">
		<tag k="name" v="Bridlegrovi" />
		<tag k="ssr:stedsnr" v="372345" />
		<tag k="waterway" v="stream" />
	</node>
	<node lat="60.85338225927997" lon="7.575685452416949" id="-79553">
		<tag k="name" v="Sleipåvotni" />
		<tag k="natural" v="water" />
		<tag k="ssr:stedsnr" v="372384" />
		<tag k="water" v="lake" />
	</node>
	<node lat="60.919422396032246" lon="7.49123546944393" id="-79556">
		<tag k="name" v="Melavotni" />
		<tag k="natural" v="water" />
		<tag k="ssr:stedsnr" v="372397" />
		<tag k="water" v="lake" />
	</node>
	<node lat="60.754702778532895" lon="7.098349995143648" id="-79557">
		<tag k="name" v="Erlegrovi" />
		<tag k="ssr:stedsnr" v="372460" />
		<tag k="waterway" v="stream" />
	</node>
	<node lat="60.767766666098815" lon="7.087138887277002" id="-79559">
		<tag k="name" v="Trolla" />
		<tag k="ssr:stedsnr" v="372473" />
		<tag k="waterway" v="stream" />
	</node>
	<node lat="60.78904166223695" lon="7.199447218142847" id="-79560">
		<tag k="name" v="Kaldavatnet" />
		<tag k="natural" v="water" />
		<tag k="ssr:stedsnr" v="372479" />
	</node>
	<node lat="60.99714167009486" lon="6.861605553784538" id="-79568">
		<tag k="name" v="Handadalselvi" />
		<tag k="ssr:stedsnr" v="372935" />
		<tag k="waterway" v="stream" />
	</node>
	<node lat="61.01153889049764" lon="7.14428611808911" id="-79574">
		<tag k="name" v="Sjogargrovi" />
		<tag k="ssr:stedsnr" v="373393" />
		<tag k="waterway" v="stream" />
	</node>
	<node lat="61.022322225625985" lon="7.020286112165328" id="-79581">
		<tag k="name" v="Trollsgjelsgrovi" />
		<tag k="ssr:stedsnr" v="390147" />
		<tag k="waterway" v="stream" />
	</node>
	<node lat="60.89498888949791" lon="6.873516662668424" id="-79583">
		<tag k="name" v="Nobbagrovi" />
		<tag k="ssr:stedsnr" v="391679" />
		<tag k="waterway" v="stream" />
	</node>
	<node lat="60.98134444673213" lon="7.116947216297717" id="-79586">
		<tag k="name" v="Trollaholtgrovi" />
		<tag k="ssr:stedsnr" v="392078" />
		<tag k="waterway" v="stream" />
	</node>
	<node lat="60.86182777698757" lon="6.813466663910383" id="-79589">
		<tag k="name" v="Kolmehølen" />
		<tag k="place" v="locality" />
		<tag k="ssr:stedsnr" v="392280" />
	</node>
	<node lat="60.86910555978736" lon="6.8525138799571" id="-79591">
		<tag k="name" v="Middagsgrovi" />
		<tag k="ssr:stedsnr" v="392369" />
		<tag k="waterway" v="stream" />
	</node>
	<node lat="60.73468332991944" lon="7.155900006476794" id="-79594">
		<tag k="name" v="Setregrovi" />
		<tag k="ssr:stedsnr" v="392535" />
		<tag k="waterway" v="stream" />
	</node>
	<node lat="60.973852780598854" lon="6.888950006710649" id="-79600">
		<tag k="name" v="Robbagrøvene" />
		<tag k="ssr:stedsnr" v="392760" />
		<tag k="waterway" v="stream" />
	</node>
	<node lat="60.968030559508634" lon="6.9558416611717275" id="-79601">
		<tag k="name" v="Djupahabngrovi" />
		<tag k="ssr:stedsnr" v="392857" />
		<tag k="waterway" v="stream" />
	</node>
	<node lat="60.8692999980835" lon="7.313263892954652" id="-79608">
		<tag k="name" v="Selhagalandet" />
		<tag k="natural" v="cape" />
		<tag k="ssr:stedsnr" v="393016" />
	</node>
	<node lat="60.88034444756463" lon="7.225291671207694" id="-79609">
		<tag k="name" v="Holtagrovi" />
		<tag k="ssr:stedsnr" v="393130" />
		<tag k="waterway" v="stream" />
	</node>
	<node lat="60.85897777852396" lon="6.791941669018635" id="-79612">
		<tag k="name" v="Bruhølen" />
		<tag k="place" v="locality" />
		<tag k="ssr:stedsnr" v="392967" />
	</node>
	<node lat="60.85851388488286" lon="6.784441660653126" id="-79613">
		<tag k="name" v="Øy-hølen" />
		<tag k="place" v="locality" />
		<tag k="ssr:stedsnr" v="392970" />
	</node>
	<node lat="60.85213611010517" lon="7.109013886212968" id="-79614">
		<tag k="name" v="Grindahølen" />
		<tag k="place" v="locality" />
		<tag k="ssr:stedsnr" v="392971" />
	</node>
	<node lat="60.900358332515346" lon="7.220219440807212" id="-79617">
		<tag k="name" v="Fossadrevet" />
		<tag k="natural" v="waterfall" />
		<tag k="ssr:stedsnr" v="393177" />
	</node>
	<node lat="60.85913055300228" lon="7.279408340247367" id="-79621">
		<tag k="name" v="Fossen" />
		<tag k="natural" v="waterfall" />
		<tag k="ssr:stedsnr" v="393391" />
	</node>
	<node lat="60.86719166447721" lon="7.380533324662995" id="-79625">
		<tag k="name" v="Ospedelsgrovi" />
		<tag k="ssr:stedsnr" v="393472" />
		<tag k="waterway" v="stream" />
	</node>
	<node lat="60.97126666414057" lon="6.935933341822371" id="-79626">
		<tag k="name" v="Stokkagrovi" />
		<tag k="ssr:stedsnr" v="393761" />
		<tag k="waterway" v="stream" />
	</node>
	<node lat="60.91784444075216" lon="7.242761109218136" id="-79627">
		<tag k="name" v="Kvammadalselvi" />
		<tag k="ssr:stedsnr" v="393765" />
		<tag k="waterway" v="river" />
	</node>
	<node lat="60.805772221738195" lon="7.158197215269845" id="-79638">
		<tag k="name" v="Dalsbotnelvi" />
		<tag k="ssr:stedsnr" v="433069" />
		<tag k="waterway" v="stream" />
	</node>
	<node lat="60.945483329017115" lon="7.127688889806168" id="-79640">
		<tag k="alt_name" v="Koldnafossen, l" />
		<tag k="name" v="Kolnafossen" />
		<tag k="natural" v="waterfall" />
		<tag k="ssr:stedsnr" v="433148" />
	</node>
	<node lat="60.89419166515609" lon="7.0602527809033955" id="-79643">
		<tag k="name" v="Storefossen" />
		<tag k="natural" v="waterfall" />
		<tag k="ssr:stedsnr" v="433088" />
	</node>
	<node lat="60.970841664034964" lon="7.154197224857647" id="-79646">
		<tag k="name" v="Storevatnet" />
		<tag k="natural" v="water" />
		<tag k="ssr:stedsnr" v="433219" />
	</node>
	<node lat="60.806472278135296" lon="7.495411603707974" id="-79648">
		<tag k="name" v="Katlanosvotni" />
		<tag k="natural" v="water" />
		<tag k="ssr:stedsnr" v="433241" />
		<tag k="water" v="lake" />
	</node>
	<node lat="60.82434722321933" lon="7.4659194357500605" id="-79650">
		<tag k="name" v="Katla" />
		<tag k="ssr:stedsnr" v="433260" />
		<tag k="waterway" v="stream" />
	</node>
	<node lat="60.92047777756752" lon="7.416591657544227" id="-79656">
		<tag k="name" v="Norddøla" />
		<tag k="ssr:stedsnr" v="433363" />
		<tag k="waterway" v="stream" />
	</node>
	<node lat="60.778633336601764" lon="7.088897224633136" id="-79659">
		<tag k="name" v="Storareppa" />
		<tag k="ssr:stedsnr" v="433449" />
		<tag k="waterway" v="stream" />
	</node>
	<node lat="60.86202222224932" lon="7.491630553167405" id="-79665">
		<tag k="name" v="Vasselsvotni" />
		<tag k="natural" v="water" />
		<tag k="ssr:stedsnr" v="434273" />
		<tag k="water" v="lake" />
	</node>
	<node lat="60.876366670847666" lon="7.358188885217267" id="-79666">
		<tag k="name" v="Snødøla" />
		<tag k="ssr:stedsnr" v="434288" />
		<tag k="waterway" v="stream" />
	</node>
	<node lat="60.767286112279784" lon="7.363975008210631" id="-79670">
		<tag k="name" v="Hunabotnvatnet" />
		<tag k="natural" v="water" />
		<tag k="ssr:stedsnr" v="434261" />
	</node>
	<node lat="60.79534624121901" lon="7.241203712047185" id="-79674">
		<tag k="name" v="Liverdalsvatnet" />
		<tag k="natural" v="water" />
		<tag k="ssr:stedsnr" v="445395" />
		<tag k="water" v="lake" />
	</node>
	<node lat="60.93246666749554" lon="6.903786116209691" id="-79679">
		<tag k="name" v="Odnesfossen" />
		<tag k="natural" v="waterfall" />
		<tag k="ssr:stedsnr" v="506435" />
	</node>
	<node lat="60.764632394252594" lon="7.389751117811467" id="-79682">
		<tag k="name" v="Mellomste Snøjuvvatnet" />
		<tag k="natural" v="water" />
		<tag k="ssr:stedsnr" v="509784" />
		<tag k="water" v="lake" />
	</node>
	<node lat="61.0185166628899" lon="7.022722217152432" id="-79684">
		<tag k="name" v="Yste Aknesgrovi" />
		<tag k="ssr:stedsnr" v="511146" />
		<tag k="waterway" v="stream" />
	</node>
	<node lat="60.8626027741452" lon="6.773419440812051" id="-79687">
		<tag k="name" v="Storskorgrovi" />
		<tag k="ssr:stedsnr" v="514900" />
		<tag k="waterway" v="stream" />
	</node>
	<node lat="60.86653055964097" lon="7.267063881619475" id="-79689">
		<tag k="name" v="Hauganeset" />
		<tag k="natural" v="cape" />
		<tag k="ssr:stedsnr" v="514031" />
	</node>
	<node lat="60.87538888777039" lon="7.2639777800468135" id="-79691">
		<tag k="name" v="Osen" />
		<tag k="natural" v="bay" />
		<tag k="ssr:stedsnr" v="514060" />
	</node>
	<node lat="60.87279166368731" lon="6.843750002123099" id="-79699">
		<tag k="name" v="Løkabakkgrovi" />
		<tag k="ssr:stedsnr" v="514376" />
		<tag k="waterway" v="stream" />
	</node>
	<node lat="60.86601389201189" lon="7.140319442329488" id="-79716">
		<tag k="name" v="Stampa" />
		<tag k="ssr:stedsnr" v="514654" />
		<tag k="waterway" v="stream" />
	</node>
	<node lat="60.97583333304348" lon="6.92095278501489" id="-79717">
		<tag k="name" v="Ilaggrovi" />
		<tag k="ssr:stedsnr" v="514765" />
		<tag k="waterway" v="stream" />
	</node>
	<node lat="60.91698055557161" lon="7.236958326892048" id="-79718">
		<tag k="name" v="Øyna" />
		<tag k="place" v="island" />
		<tag k="ssr:stedsnr" v="514769" />
	</node>
	<node lat="60.966511112571055" lon="6.9345666698486985" id="-79721">
		<tag k="name" v="Øykjabekkgrovi" />
		<tag k="ssr:stedsnr" v="514796" />
		<tag k="waterway" v="stream" />
	</node>
	<node lat="61.009755555338266" lon="7.073225007205513" id="-79722">
		<tag k="name" v="Kalsnesgrovi" />
		<tag k="ssr:stedsnr" v="514798" />
		<tag k="waterway" v="stream" />
	</node>
	<node lat="60.849797225847354" lon="7.09596666138798" id="-79727">
		<tag k="name" v="Hestlia" />
		<tag k="ssr:stedsnr" v="514979" />
		<tag k="waterway" v="stream" />
	</node>
	<node lat="60.832227780628976" lon="7.559144442836492" id="-79745">
		<tag k="name" v="Storavatnet" />
		<tag k="natural" v="water" />
		<tag k="ssr:stedsnr" v="554370" />
	</node>
	<node lat="61.05059444776451" lon="7.137094446153018" id="-79746">
		<tag k="alt_name" v="Storebotnvatnet, midtra" />
		<tag k="name" v="Midtra Storebotnvatnet" />
		<tag k="natural" v="water" />
		<tag k="ssr:stedsnr" v="554436" />
	</node>
	<node lat="61.04688889326943" lon="7.189505555325872" id="-79747">
		<tag k="name" v="Fossvatnet" />
		<tag k="natural" v="water" />
		<tag k="ssr:stedsnr" v="554437" />
	</node>
	<node lat="60.91077777566746" lon="7.561241663279125" id="-79748">
		<tag k="name" v="Grånosvatnet" />
		<tag k="natural" v="water" />
		<tag k="ssr:stedsnr" v="554440" />
	</node>
	<node lat="60.88811285598482" lon="7.292967080574231" id="-79753">
		<tag k="alt_name" v="Lomatjernet" />
		<tag k="name" v="Lomatjørni" />
		<tag k="natural" v="water" />
		<tag k="ssr:stedsnr" v="554096" />
	</node>
	<node lat="60.921366667371196" lon="7.072080564480792" id="-79755">
		<tag k="alt_name" v="Breiskreda" />
		<tag k="name" v="Breskrida" />
		<tag k="ssr:stedsnr" v="554175" />
		<tag k="waterway" v="stream" />
	</node>
	<node lat="60.90640555350958" lon="7.291538886302163" id="-79759">
		<tag k="name" v="Storhovdvatnet" />
		<tag k="natural" v="water" />
		<tag k="ssr:stedsnr" v="554066" />
	</node>
	<node lat="60.89970277759676" lon="7.204402783662249" id="-79762">
		<tag k="name" v="Aurlandselvi" />
		<tag k="ssr:stedsnr" v="554073" />
		<tag k="waterway" v="river" />
	</node>
	<node lat="60.975161113430325" lon="7.1153249981244775" id="-79766">
		<tag k="name" v="Stoelvi" />
		<tag k="ssr:stedsnr" v="554241" />
		<tag k="waterway" v="stream" />
	</node>
	<node lat="60.8044249995144" lon="7.559805549997928" id="-79768">
		<tag k="name" v="Øyestølsvatnet" />
		<tag k="natural" v="water" />
		<tag k="ssr:stedsnr" v="554265" />
	</node>
	<node lat="60.78847850205886" lon="7.235944765701098" id="-79770">
		<tag k="name" v="Fretheimsdalsvatnet" />
		<tag k="natural" v="water" />
		<tag k="ssr:stedsnr" v="554488" />
		<tag k="water" v="lake" />
	</node>
	<node lat="60.9415955765866" lon="6.933675812256961" id="-79775">
		<tag k="name" v="Kleppsgrovi" />
		<tag k="ssr:stedsnr" v="554882" />
		<tag k="waterway" v="stream" />
	</node>
	<node lat="60.76643055314237" lon="7.236094446277052" id="-79779">
		<tag k="name" v="Prestå" />
		<tag k="ssr:stedsnr" v="554458" />
		<tag k="waterway" v="stream" />
	</node>
	<node lat="60.98373516030157" lon="6.799700829036142" id="-79788">
		<tag k="name" v="Huldabotnvatnet" />
		<tag k="natural" v="water" />
		<tag k="ssr:stedsnr" v="566444" />
		<tag k="water" v="lake" />
	</node>
	<node lat="60.90227222472192" lon="6.8516111183262955" id="-79796">
		<tag k="name" v="Storskredgrovi" />
		<tag k="ssr:stedsnr" v="573512" />
		<tag k="waterway" v="stream" />
	</node>
	<node lat="60.886016669435314" lon="6.861113881628219" id="-79797">
		<tag k="name" v="Sjøskreda" />
		<tag k="ssr:stedsnr" v="573514" />
		<tag k="waterway" v="stream" />
	</node>
	<node lat="60.803141666837256" lon="7.113352780772872" id="-79805">
		<tag k="name" v="Storøyna" />
		<tag k="place" v="islet" />
		<tag k="ssr:stedsnr" v="574044" />
	</node>
	<node lat="60.85995277768739" lon="7.260816666936327" id="-79808">
		<tag k="name" v="Vitjagrovi" />
		<tag k="ssr:stedsnr" v="574271" />
		<tag k="waterway" v="stream" />
	</node>
	<node lat="60.87333333615013" lon="6.834080559211507" id="-79809">
		<tag k="name" v="Langøynehølen" />
		<tag k="place" v="locality" />
		<tag k="ssr:stedsnr" v="574389" />
	</node>
	<node lat="60.74664166652846" lon="7.121155554920341" id="-79812">
		<tag k="name" v="Øyane" />
		<tag k="place" v="island" />
		<tag k="ssr:stedsnr" v="574533" />
	</node>
	<node lat="60.89687778206548" lon="7.2117111135241965" id="-79813">
		<tag k="name" v="Nedre Tokvam" />
		<tag k="natural" v="cape" />
		<tag k="ssr:stedsnr" v="574442" />
	</node>
	<node lat="60.85982777348614" lon="7.092980556902391" id="-79825">
		<tag k="name" v="Yste Kjeppagrovi" />
		<tag k="ssr:stedsnr" v="574921" />
		<tag k="waterway" v="stream" />
	</node>
	<node lat="60.904386106871655" lon="7.049538895521011" id="-79833">
		<tag k="name" v="Bergjuvgrovi" />
		<tag k="ssr:stedsnr" v="574936" />
		<tag k="waterway" v="stream" />
	</node>
	<node lat="60.88515687629387" lon="7.338129947060468" id="-79839">
		<tag k="name" v="Brønnsgrovi" />
		<tag k="ssr:stedsnr" v="575272" />
		<tag k="waterway" v="stream" />
	</node>
	<node lat="60.8319972196059" lon="7.49661110224072" id="-79845">
		<tag k="name" v="Vikagrovi" />
		<tag k="ssr:stedsnr" v="575471" />
		<tag k="waterway" v="stream" />
	</node>
	<node lat="60.97668889111265" lon="6.926055559160487" id="-79846">
		<tag k="name" v="Svillagrovi" />
		<tag k="ssr:stedsnr" v="575743" />
		<tag k="waterway" v="stream" />
	</node>
	<node lat="60.93705277409396" lon="6.883358328409645" id="-79850">
		<tag k="name" v="Skratlo" />
		<tag k="ssr:stedsnr" v="600205" />
		<tag k="waterway" v="stream" />
	</node>
	<node lat="60.7495877173472" lon="7.6381823346835365" id="-79852">
		<tag k="name" v="Bolhovdvatnet" />
		<tag k="natural" v="water" />
		<tag k="ssr:stedsnr" v="613225" />
	</node>
	<node lat="60.736650776974535" lon="7.419357655380537" id="-79853">
		<tag k="name" v="Alvsvatnet" />
		<tag k="natural" v="water" />
		<tag k="old_name" v="Alsvatnet" />
		<tag k="ssr:stedsnr" v="613227" />
		<tag k="water" v="lake" />
	</node>
	<node lat="60.93205000054954" lon="7.250838886004405" id="-79866">
		<tag k="name" v="Vetlabotna" />
		<tag k="ssr:stedsnr" v="615153" />
		<tag k="waterway" v="stream" />
	</node>
	<node lat="60.99789722249536" lon="7.330488896726876" id="-79867">
		<tag k="name" v="Flotevatnet" />
		<tag k="natural" v="water" />
		<tag k="ssr:stedsnr" v="615183" />
	</node>
	<node lat="60.75367143728062" lon="7.527346679463442" id="-79869">
		<tag k="name" v="Dyranosvotni" />
		<tag k="natural" v="water" />
		<tag k="ssr:stedsnr" v="615271" />
		<tag k="water" v="lake" />
	</node>
	<node lat="60.82347222114986" lon="7.555958325845584" id="-79875">
		<tag k="name" v="Grøndalagrovi" />
		<tag k="ssr:stedsnr" v="615241" />
		<tag k="waterway" v="stream" />
	</node>
	<node lat="60.77318888638257" lon="7.509208338759225" id="-79878">
		<tag k="name" v="Langavatnet" />
		<tag k="natural" v="water" />
		<tag k="ssr:stedsnr" v="615284" />
	</node>
	<node lat="60.91874999572275" lon="7.435252783167221" id="-79880">
		<tag k="name" v="Eitra" />
		<tag k="ssr:stedsnr" v="615424" />
		<tag k="waterway" v="stream" />
	</node>
	<node lat="60.82646666534596" lon="7.059627779934874" id="-79886">
		<tag k="name" v="Fessene" />
		<tag k="ssr:stedsnr" v="615769" />
		<tag k="waterway" v="stream" />
	</node>
	<node lat="60.93184512804214" lon="6.823515475980845" id="-79889">
		<tag k="name" v="Skarsvotni" />
		<tag k="natural" v="water" />
		<tag k="ssr:stedsnr" v="615865" />
		<tag k="water" v="lake" />
	</node>
	<node lat="60.82639444349077" lon="7.432436107866147" id="-79896">
		<tag k="name" v="Berdalselvi" />
		<tag k="ssr:stedsnr" v="635158" />
		<tag k="waterway" v="stream" />
	</node>
	<node lat="60.75735832515221" lon="7.392017869134595" id="-79902">
		<tag k="name" v="Øvre Snøjuvvatnet" />
		<tag k="natural" v="water" />
		<tag k="ssr:stedsnr" v="630779" />
	</node>
	<node lat="60.73228888859506" lon="7.547455557690932" id="-79904">
		<tag k="name" v="Heimste Varga" />
		<tag k="ssr:stedsnr" v="631871" />
		<tag k="waterway" v="river" />
	</node>
	<node lat="60.930488887590954" lon="6.908841659539565" id="-79910">
		<tag k="name" v="Odneselvi" />
		<tag k="ssr:stedsnr" v="634521" />
		<tag k="waterway" v="river" />
	</node>
	<node lat="60.89356667027177" lon="7.243699997377426" id="-79917">
		<tag k="name" v="Håligrovi" />
		<tag k="ssr:stedsnr" v="635123" />
		<tag k="waterway" v="stream" />
	</node>
	<node lat="60.96552221825152" lon="7.0583138891437684" id="-79922">
		<tag k="name" v="Svagrovi" />
		<tag k="ssr:stedsnr" v="635548" />
		<tag k="waterway" v="stream" />
	</node>
	<node lat="60.82698332931625" lon="7.513538886972853" id="-79925">
		<tag k="name" v="Friligrovi" />
		<tag k="ssr:stedsnr" v="635467" />
		<tag k="waterway" v="stream" />
	</node>
	<node lat="60.87452222357118" lon="7.3390805618793715" id="-79926">
		<tag k="name" v="Veimsgrovi" />
		<tag k="ssr:stedsnr" v="635501" />
		<tag k="waterway" v="stream" />
	</node>
	<node lat="60.86647176018577" lon="7.112097159850479" id="-79930">
		<tag k="name" v="Ennegrovi" />
		<tag k="ssr:stedsnr" v="635671" />
		<tag k="waterway" v="stream" />
	</node>
	<node lat="61.00061944351856" lon="7.074172218029829" id="-79933">
		<tag k="name" v="Yste Geitanesgrovi" />
		<tag k="ssr:stedsnr" v="635801" />
		<tag k="waterway" v="stream" />
	</node>
	<node lat="60.95755555607315" lon="7.133027776407786" id="-79943">
		<tag k="alt_name" v="Bessagrovi" />
		<tag k="name" v="Bessegrovi" />
		<tag k="ssr:stedsnr" v="660625" />
		<tag k="waterway" v="stream" />
	</node>
	<node lat="60.95505833429153" lon="7.157091671358795" id="-79946">
		<tag k="name" v="Reipakråi" />
		<tag k="ssr:stedsnr" v="721601" />
		<tag k="waterway" v="stream" />
	</node>
	<node lat="60.829399997869324" lon="7.172805546809096" id="-79952">
		<tag k="alt_name" v="Lysegroi" />
		<tag k="name" v="Lysegrovi" />
		<tag k="ssr:stedsnr" v="736036" />
		<tag k="waterway" v="stream" />
	</node>
	<node lat="60.80592222272628" lon="6.981347215301236" id="-79953">
		<tag k="name" v="Vassdalsvatnet" />
		<tag k="natural" v="water" />
		<tag k="ssr:stedsnr" v="736052" />
	</node>
	<node lat="60.93679722405785" lon="7.07658056006951" id="-79959">
		<tag k="name" v="Helgåna" />
		<tag k="ssr:stedsnr" v="736156" />
		<tag k="waterway" v="stream" />
	</node>
	<node lat="60.99290807494208" lon="7.296675676449793" id="-79961">
		<tag k="name" v="Soleibakkvotni" />
		<tag k="natural" v="water" />
		<tag k="ssr:stedsnr" v="736230" />
		<tag k="water" v="lake" />
	</node>
	<node lat="60.96903055532096" lon="7.03804999824949" id="-79963">
		<tag k="name" v="Kråkedøla" />
		<tag k="ssr:stedsnr" v="736243" />
		<tag k="waterway" v="stream" />
	</node>
	<node lat="60.900441670223636" lon="7.026352768827307" id="-79965">
		<tag k="name" v="Haskåna" />
		<tag k="ssr:stedsnr" v="736183" />
		<tag k="waterway" v="stream" />
	</node>
	<node lat="60.776872220319206" lon="6.953091662905455" id="-79969">
		<tag k="name" v="Vassetelvi" />
		<tag k="ssr:stedsnr" v="736789" />
		<tag k="waterway" v="river" />
	</node>
	<node lat="61.030672219205655" lon="7.297224992607132" id="-79971">
		<tag k="alt_name" v="Vardahaugselvi" />
		<tag k="name" v="Modlaugselvi" />
		<tag k="ssr:stedsnr" v="737376" />
		<tag k="waterway" v="river" />
	</node>
	<node lat="61.026244446596586" lon="7.005602781444901" id="-79972">
		<tag k="alt_name" v="Favnagrovi" />
		<tag k="name" v="Famnagrovi" />
		<tag k="ssr:stedsnr" v="737379" />
		<tag k="waterway" v="stream" />
	</node>
	<node lat="60.884316671034505" lon="7.377997225293459" id="-79976">
		<tag k="name" v="Vatningatjørni" />
		<tag k="natural" v="water" />
		<tag k="ssr:stedsnr" v="737387" />
	</node>
	<node lat="61.035886110216985" lon="7.206241662006026" id="-79977">
		<tag k="name" v="Svartavatnet" />
		<tag k="natural" v="water" />
		<tag k="ssr:stedsnr" v="737389" />
	</node>
	<node lat="60.90736111401874" lon="7.504863889246896" id="-79979">
		<tag k="alt_name" v="Kjeldhusnosvatnet, heimste" />
		<tag k="name" v="Heimste Kjeldhusnosvatnet" />
		<tag k="natural" v="water" />
		<tag k="ssr:stedsnr" v="737399" />
		<tag k="water" v="lake" />
	</node>
	<node lat="61.05906111192075" lon="7.161297219868758" id="-79980">
		<tag k="alt_name" v="Storebotnvatnet, øvsta" />
		<tag k="name" v="Øvsta Storebotnvatnet" />
		<tag k="natural" v="water" />
		<tag k="ssr:stedsnr" v="737402" />
		<tag k="water" v="lake" />
	</node>
	<node lat="60.901569440689" lon="7.118158326439878" id="-79985">
		<tag k="name" v="Høydøla" />
		<tag k="ssr:stedsnr" v="737057" />
		<tag k="waterway" v="stream" />
	</node>
	<node lat="60.96761111357709" lon="7.143391657934309" id="-79986">
		<tag k="name" v="Klovnesteinvatnet" />
		<tag k="natural" v="water" />
		<tag k="ssr:stedsnr" v="737213" />
	</node>
	<node lat="60.96940277600737" lon="7.064413885729112" id="-79989">
		<tag k="name" v="Kolda" />
		<tag k="ssr:stedsnr" v="737226" />
		<tag k="waterway" v="stream" />
	</node>
	<node lat="60.9614416659839" lon="7.076699998035942" id="-79990">
		<tag k="name" v="Beinsnesgrovi" />
		<tag k="ssr:stedsnr" v="737228" />
		<tag k="waterway" v="river" />
	</node>
	<node lat="61.04429444146649" lon="7.041330557657258" id="-79996">
		<tag k="name" v="Lekjagjelsgrovi" />
		<tag k="ssr:stedsnr" v="754184" />
		<tag k="waterway" v="stream" />
	</node>
	<node lat="60.925177777085345" lon="6.855452776254463" id="-79997">
		<tag k="name" v="Tufteelvi" />
		<tag k="ssr:stedsnr" v="755985" />
		<tag k="waterway" v="river" />
	</node>
	<node lat="60.86220277586345" lon="6.800977783939082" id="-79999">
		<tag k="name" v="Trågrovi" />
		<tag k="ssr:stedsnr" v="756038" />
		<tag k="waterway" v="stream" />
	</node>
	<node lat="60.87190278128231" lon="7.2724777811278045" id="-80003">
		<tag k="name" v="Terastrondi" />
		<tag k="natural" v="beach" />
		<tag k="ssr:stedsnr" v="757018" />
	</node>
	<node lat="60.896058337621234" lon="7.216358335259315" id="-80008">
		<tag k="name" v="Prestøyna" />
		<tag k="place" v="island" />
		<tag k="ssr:stedsnr" v="756391" />
	</node>
	<node lat="60.89851111243045" lon="7.198152769538651" id="-80011">
		<tag k="name" v="Hagafossen" />
		<tag k="natural" v="waterfall" />
		<tag k="ssr:stedsnr" v="756430" />
	</node>
	<node lat="60.951933332736104" lon="6.918311105259007" id="-80013">
		<tag k="name" v="Inste Skogagrovi" />
		<tag k="ssr:stedsnr" v="756735" />
		<tag k="waterway" v="stream" />
	</node>
	<node lat="60.89384722216333" lon="6.872380552409646" id="-80016">
		<tag k="name" v="Kåraligrovi" />
		<tag k="ssr:stedsnr" v="756686" />
		<tag k="waterway" v="stream" />
	</node>
	<node lat="60.906408335098355" lon="7.147311119392553" id="-80018">
		<tag k="name" v="Flugandefossen" />
		<tag k="natural" v="waterfall" />
		<tag k="ssr:stedsnr" v="756832" />
	</node>
	<node lat="60.835708332207" lon="7.120683333993662" id="-80033">
		<tag k="name" v="Framigarden" />
		<tag k="natural" v="cape" />
		<tag k="ssr:stedsnr" v="757182" />
	</node>
	<node lat="60.84082222215709" lon="7.292852785062053" id="-80040">
		<tag k="name" v="Skuregrovi" />
		<tag k="ssr:stedsnr" v="757411" />
		<tag k="waterway" v="stream" />
	</node>
	<node lat="60.85300000337018" lon="7.349386116256051" id="-80044">
		<tag k="name" v="Alkjosøyna" />
		<tag k="place" v="island" />
		<tag k="ssr:stedsnr" v="757379" />
	</node>
	<node lat="60.904325002659064" lon="7.041961118469095" id="-80049">
		<tag k="name" v="Skratla" />
		<tag k="ssr:stedsnr" v="757873" />
		<tag k="waterway" v="stream" />
	</node>
	<node lat="60.952716662383644" lon="7.176361120303125" id="-80050">
		<tag k="name" v="Nisåna" />
		<tag k="ssr:stedsnr" v="757875" />
		<tag k="waterway" v="river" />
	</node>
	<node lat="60.94378889001495" lon="6.949783341146563" id="-80061">
		<tag k="name" v="Ytstaskredgrovi" />
		<tag k="ssr:stedsnr" v="797872" />
		<tag k="waterway" v="stream" />
	</node>
	<node lat="60.751607660325405" lon="7.407776412427755" id="-80064">
		<tag k="name" v="Adamsvatnet" />
		<tag k="natural" v="water" />
		<tag k="ssr:stedsnr" v="796223" />
		<tag k="water" v="lake" />
	</node>
	<node lat="60.74109601252705" lon="7.531024015306509" id="-80065">
		<tag k="name" v="Vargabottsvatnet" />
		<tag k="natural" v="water" />
		<tag k="ssr:stedsnr" v="796224" />
	</node>
	<node lat="60.722374996951466" lon="7.43342500109799" id="-80067">
		<tag k="name" v="Øvste Grovgjuvvatnet" />
		<tag k="natural" v="water" />
		<tag k="ssr:stedsnr" v="796229" />
	</node>
	<node lat="60.828750003069565" lon="7.088499991245277" id="-80072">
		<tag k="name" v="Netjørn" />
		<tag k="natural" v="water" />
		<tag k="ssr:stedsnr" v="797036" />
	</node>
	<node lat="60.97925278175365" lon="7.214774998089688" id="-80077">
		<tag k="name" v="Kongshelleelvi" />
		<tag k="ssr:stedsnr" v="797225" />
		<tag k="waterway" v="stream" />
	</node>
	<node lat="60.91537777630992" lon="7.266952783355407" id="-80081">
		<tag k="name" v="Helgåna" />
		<tag k="ssr:stedsnr" v="797180" />
		<tag k="waterway" v="stream" />
	</node>
	<node lat="60.798541670907554" lon="7.340713886928211" id="-80090">
		<tag k="name" v="Reppavatnet" />
		<tag k="natural" v="water" />
		<tag k="ssr:stedsnr" v="797466" />
	</node>
	<node lat="60.95746368774611" lon="7.356611198870741" id="-80091">
		<tag k="name" v="Hornsvatnet" />
		<tag k="natural" v="water" />
		<tag k="ssr:stedsnr" v="797470" />
		<tag k="water" v="lake" />
	</node>
	<node lat="61.00644722244117" lon="7.218833331479828" id="-80093">
		<tag k="name" v="Erterhaugvatnet" />
		<tag k="natural" v="water" />
		<tag k="ssr:stedsnr" v="798365" />
	</node>
	<node lat="61.02538055304849" lon="7.097447224809491" id="-80095">
		<tag k="alt_name" v="Fremste Tverrelvi" />
		<tag k="name" v="Tverrelvsgrovi" />
		<tag k="ssr:stedsnr" v="798371" />
		<tag k="waterway" v="stream" />
	</node>
	<node lat="61.02096389177169" lon="7.101338887275204" id="-80096">
		<tag k="name" v="Kolarselvi" />
		<tag k="ssr:stedsnr" v="798373" />
		<tag k="waterway" v="river" />
	</node>
	<node lat="60.769751506421244" lon="7.387043626901093" id="-80102">
		<tag k="name" v="Snøjuvvotni" />
		<tag k="natural" v="water" />
		<tag k="ssr:stedsnr" v="798270" />
		<tag k="water" v="lake" />
	</node>
	<node lat="61.02757222464913" lon="7.054908337035258" id="-80109">
		<tag k="name" v="Djupehavngrovi" />
		<tag k="ssr:stedsnr" v="815151" />
		<tag k="waterway" v="stream" />
	</node>
	<node lat="61.05582500304591" lon="7.052649996426349" id="-80111">
		<tag k="alt_name" v="Vrangebekken" />
		<tag k="name" v="Rangebekkgrovi" />
		<tag k="ssr:stedsnr" v="815163" />
		<tag k="waterway" v="stream" />
	</node>
	<node lat="60.74234444209334" lon="7.1231222223109905" id="-80118">
		<tag k="name" v="Myrdøla" />
		<tag k="ssr:stedsnr" v="817487" />
		<tag k="waterway" v="river" />
	</node>
	<node lat="60.89581666757618" lon="7.364791673053973" id="-80120">
		<tag k="name" v="Svoldøla" />
		<tag k="ssr:stedsnr" v="818293" />
		<tag k="waterway" v="river" />
	</node>
	<node lat="60.82725833764876" lon="7.480458326192266" id="-80121">
		<tag k="name" v="Merkesgrovi" />
		<tag k="ssr:stedsnr" v="818301" />
		<tag k="waterway" v="stream" />
	</node>
	<node lat="60.87247777870173" lon="6.83923334077436" id="-80124">
		<tag k="name" v="Kvitabergsgrovi" />
		<tag k="ssr:stedsnr" v="817368" />
		<tag k="waterway" v="stream" />
	</node>
	<node lat="60.943822218551155" lon="7.105069452003448" id="-80128">
		<tag k="name" v="Skreda" />
		<tag k="ssr:stedsnr" v="817539" />
		<tag k="waterway" v="stream" />
	</node>
	<node lat="60.85864999960669" lon="6.775924990964868" id="-80136">
		<tag k="name" v="Hyllandsvatnet" />
		<tag k="natural" v="water" />
		<tag k="ssr:stedsnr" v="817940" />
		<tag k="water" v="lake" />
	</node>
	<node lat="60.92772222608123" lon="7.140150007100922" id="-80140">
		<tag k="name" v="Klokkargrovi" />
		<tag k="ssr:stedsnr" v="817886" />
		<tag k="waterway" v="stream" />
	</node>
	<node lat="60.97207777764895" lon="6.960000003547026" id="-80141">
		<tag k="name" v="Tidvesja" />
		<tag k="ssr:stedsnr" v="817900" />
		<tag k="waterway" v="stream" />
	</node>
	<node lat="60.97209166327287" lon="6.973888894223065" id="-80142">
		<tag k="name" v="Svamsgrovi" />
		<tag k="ssr:stedsnr" v="817901" />
		<tag k="waterway" v="stream" />
	</node>
	<node lat="60.801199999770525" lon="7.107924994451126" id="-80158">
		<tag k="name" v="Geithusgrovi" />
		<tag k="ssr:stedsnr" v="818626" />
		<tag k="waterway" v="stream" />
	</node>
	<node lat="60.8741446192696" lon="6.857044565590348" id="-80168">
		<tag k="name" v="Kjelfossen" />
		<tag k="natural" v="waterfall" />
		<tag k="ssr:stedsnr" v="858838" />
	</node>
	<node lat="60.88685277931405" lon="6.88375555904047" id="-80170">
		<tag k="alt_name" v="Telnesgrovi" />
		<tag k="name" v="Telsnesgrovi" />
		<tag k="ssr:stedsnr" v="858853" />
		<tag k="waterway" v="stream" />
	</node>
	<node lat="60.79977500230175" lon="7.5241666612827895" id="-80189">
		<tag k="name" v="Langavotni" />
		<tag k="natural" v="water" />
		<tag k="ssr:stedsnr" v="858262" />
		<tag k="water" v="lake" />
	</node>
	<node lat="60.808630559862976" lon="7.672236114836228" id="-80190">
		<tag k="name" v="Nyhellervatnet" />
		<tag k="natural" v="water" />
		<tag k="ssr:stedsnr" v="858267" />
		<tag k="water" v="lake" />
	</node>
	<node lat="60.871452777674264" lon="7.53446388125333" id="-80193">
		<tag k="name" v="Austevad" />
		<tag k="place" v="locality" />
		<tag k="ssr:stedsnr" v="858349" />
	</node>
	<node lat="60.853430558334615" lon="7.499027768476922" id="-80196">
		<tag k="name" v="Tverrelvi" />
		<tag k="ssr:stedsnr" v="858367" />
		<tag k="waterway" v="stream" />
	</node>
	<node lat="60.979474999212144" lon="6.917694439000409" id="-80201">
		<tag k="name" v="Håbruelvi" />
		<tag k="ssr:stedsnr" v="870451" />
		<tag k="waterway" v="stream" />
	</node>
	<node lat="61.02387221811884" lon="7.067352782107432" id="-80208">
		<tag k="name" v="Norheimsdøla" />
		<tag k="ssr:stedsnr" v="877322" />
		<tag k="waterway" v="river" />
	</node>
	<node lat="60.93700833136515" lon="7.09722500037371" id="-80212">
		<tag k="name" v="Nyskreda" />
		<tag k="ssr:stedsnr" v="878592" />
		<tag k="waterway" v="stream" />
	</node>
	<node lat="60.86133889188335" lon="6.7885000034706495" id="-80218">
		<tag k="name" v="Storagrovi" />
		<tag k="ssr:stedsnr" v="878137" />
		<tag k="waterway" v="stream" />
	</node>
	<node lat="60.85276666862961" lon="7.342697223859743" id="-80233">
		<tag k="name" v="Alkjosgrovi" />
		<tag k="ssr:stedsnr" v="878442" />
		<tag k="waterway" v="stream" />
	</node>
	<node lat="60.86758888879229" lon="7.104919452049592" id="-80237">
		<tag k="name" v="Harajuva" />
		<tag k="ssr:stedsnr" v="878634" />
		<tag k="waterway" v="stream" />
	</node>
	<node lat="60.94006944470543" lon="7.137138895318671" id="-80242">
		<tag k="name" v="Søstragrovi" />
		<tag k="ssr:stedsnr" v="878842" />
		<tag k="waterway" v="stream" />
	</node>
	<node lat="61.00213888718426" lon="7.075033335547266" id="-80243">
		<tag k="name" v="Storefossen" />
		<tag k="natural" v="waterfall" />
		<tag k="ssr:stedsnr" v="878848" />
	</node>
	<node lat="60.87278055676776" lon="6.81298888410869" id="-80246">
		<tag k="name" v="Kjerringfossen" />
		<tag k="natural" v="waterfall" />
		<tag k="ssr:stedsnr" v="878931" />
	</node>
	<node lat="60.855650001189304" lon="6.8109277839880376" id="-80247">
		<tag k="name" v="Vetlefossen" />
		<tag k="natural" v="waterfall" />
		<tag k="ssr:stedsnr" v="878933" />
	</node>
	<node lat="60.847530552277824" lon="7.114711118277546" id="-80264">
		<tag k="name" v="Øyna" />
		<tag k="place" v="island" />
		<tag k="ssr:stedsnr" v="939087" />
	</node>
	<node lat="60.86397777356226" lon="7.410219446993168" id="-80266">
		<tag k="name" v="Halsagrovi" />
		<tag k="ssr:stedsnr" v="939227" />
		<tag k="waterway" v="stream" />
	</node>
	<node lat="60.876105551811264" lon="6.83705832919761" id="-80270">
		<tag k="name" v="Nepegjerdsøy" />
		<tag k="place" v="island" />
		<tag k="ssr:stedsnr" v="939369" />
	</node>
	<node lat="60.828011109785066" lon="7.425261117441807" id="-80272">
		<tag k="name" v="Snøjuvsgrovi" />
		<tag k="ssr:stedsnr" v="939178" />
		<tag k="waterway" v="stream" />
	</node>
	<node lat="60.85401944560331" lon="7.360908330130393" id="-80275">
		<tag k="name" v="Allmenningane" />
		<tag k="ssr:stedsnr" v="939402" />
		<tag k="waterway" v="stream" />
	</node>
	<node lat="60.868186112049806" lon="6.840747218563506" id="-80282">
		<tag k="name" v="Fremste Kvitabergsgrovi" />
		<tag k="ssr:stedsnr" v="939371" />
		<tag k="waterway" v="stream" />
	</node>
	<node lat="60.876861108779444" lon="7.159597214456036" id="-80288">
		<tag k="alt_name" v="Sevåtsgrovi" />
		<tag k="name" v="Sevålsgrovi" />
		<tag k="ssr:stedsnr" v="939550" />
		<tag k="waterway" v="stream" />
	</node>
	<node lat="60.857733337613794" lon="6.769336102507386" id="-80300">
		<tag k="name" v="Fanten" />
		<tag k="natural" v="cape" />
		<tag k="ssr:stedsnr" v="939919" />
	</node>
	<node lat="60.97087499925681" lon="6.979669437897993" id="-80308">
		<tag k="name" v="Svamsgyldre" />
		<tag k="ssr:stedsnr" v="939871" />
		<tag k="waterway" v="stream" />
	</node>
	<node lat="60.85747777658486" lon="7.091377781572953" id="-80309">
		<tag k="name" v="Fremste Kjeppagrovi" />
		<tag k="ssr:stedsnr" v="939880" />
		<tag k="waterway" v="stream" />
	</node>
	<node lat="60.85751944099324" lon="7.106999995366514" id="-80311">
		<tag k="name" v="Bruahølen" />
		<tag k="place" v="locality" />
		<tag k="ssr:stedsnr" v="939961" />
	</node>
	<node lat="60.9203446244636" lon="6.746523237466157" id="-80318">
		<tag k="name" v="Kåsteinselvi" />
		<tag k="ssr:stedsnr" v="977772" />
		<tag k="waterway" v="river" />
	</node>
	<node lat="60.84333215999781" lon="6.721428285797466" id="-80320">
		<tag k="name" v="Jordalselvi" />
		<tag k="ssr:stedsnr" v="977774" />
		<tag k="waterway" v="river" />
	</node>
</osm>
