<?xml version="1.0" encoding="UTF-8"?>
<osm version="0.6" generator="osmapis">
	<node lat="60.9264967325844" lon="6.881234076696778" id="-77016">
		<tag k="alt_name" v="Ytste Holmaviki" />
		<tag k="name" v="Holmaviki" />
		<tag k="natural" v="bay" />
		<tag k="ssr:stedsnr" v="28224" />
	</node>
	<node lat="60.86773888795133" lon="7.140558326252071" id="-77037">
		<tag k="name" v="Stampeviki" />
		<tag k="natural" v="bay" />
		<tag k="ssr:stedsnr" v="54719" />
	</node>
	<node lat="61.014858329275924" lon="7.055980547142219" id="-77067">
		<tag k="alt_name" v="Kalsneset" />
		<tag k="name" v="Kalvsnes" />
		<tag k="natural" v="cape" />
		<tag k="ssr:stedsnr" v="70375" />
	</node>
	<node lat="60.91256666795588" lon="6.87415000223986" id="-77072">
		<tag k="name" v="Knukaneset" />
		<tag k="natural" v="cape" />
		<tag k="ssr:stedsnr" v="88887" />
	</node>
	<node lat="60.95050833611165" lon="6.950866658488119" id="-77097">
		<tag k="name" v="Solaløysa" />
		<tag k="natural" v="bay" />
		<tag k="ssr:stedsnr" v="115205" />
	</node>
	<node lat="60.939924998353604" lon="6.899449991797649" id="-77098">
		<tag k="name" v="Grubbaberget" />
		<tag k="natural" v="cape" />
		<tag k="ssr:stedsnr" v="115216" />
	</node>
	<node lat="60.964366662824695" lon="7.082913880613847" id="-77130">
		<tag k="name" v="Beinsnes" />
		<tag k="natural" v="cape" />
		<tag k="ssr:stedsnr" v="251268" />
	</node>
	<node lat="60.88180000174725" lon="6.847861118296296" id="-77162">
		<tag k="name" v="Ramsøy" />
		<tag k="natural" v="cape" />
		<tag k="ssr:stedsnr" v="251854" />
	</node>
	<node lat="60.942069448235635" lon="6.9144277739774225" id="-77165">
		<tag k="name" v="Stavvikneset" />
		<tag k="natural" v="cape" />
		<tag k="ssr:stedsnr" v="251905" />
	</node>
	<node lat="60.929941666979516" lon="6.885305546466009" id="-77188">
		<tag k="name" v="Stolen" />
		<tag k="natural" v="cape" />
		<tag k="ssr:stedsnr" v="129860" />
	</node>
	<node lat="60.902019441115804" lon="6.8626416658773275" id="-77205">
		<tag k="name" v="Russeviki" />
		<tag k="natural" v="bay" />
		<tag k="ssr:stedsnr" v="148564" />
	</node>
	<node lat="60.969958330418386" lon="6.982577785328829" id="-77213">
		<tag k="name" v="Eddikhole" />
		<tag k="natural" v="bay" />
		<tag k="ssr:stedsnr" v="149858" />
	</node>
	<node lat="61.009222220229795" lon="7.0285388844127885" id="-77262">
		<tag k="name" v="Aksnesviki" />
		<tag k="natural" v="bay" />
		<tag k="ssr:stedsnr" v="191358" />
	</node>
	<node lat="60.940827777312556" lon="6.928724993555149" id="-77287">
		<tag k="alt_name" v="Grasneset" />
		<tag k="name" v="Gasneset" />
		<tag k="natural" v="cape" />
		<tag k="ssr:stedsnr" v="210315" />
	</node>
	<node lat="60.8945333329992" lon="6.8687138825365315" id="-77291">
		<tag k="name" v="Telsnesviki" />
		<tag k="natural" v="bay" />
		<tag k="ssr:stedsnr" v="210678" />
	</node>
	<node lat="60.89435555249786" lon="7.139697217207603" id="-77326">
		<tag k="name" v="Skaffaråkeren" />
		<tag k="natural" v="cape" />
		<tag k="ssr:stedsnr" v="211978" />
	</node>
	<node lat="60.9332388878384" lon="6.8763777709872675" id="-77329">
		<tag k="name" v="Inste Breiskredviki" />
		<tag k="natural" v="bay" />
		<tag k="ssr:stedsnr" v="270998" />
	</node>
	<node lat="60.88693611371516" lon="6.846863883106841" id="-77352">
		<tag k="name" v="Smelleneset" />
		<tag k="natural" v="cape" />
		<tag k="ssr:stedsnr" v="271513" />
	</node>
	<node lat="60.94568055392327" lon="6.9424777865361085" id="-77375">
		<tag k="name" v="Ytste Skredneset" />
		<tag k="natural" v="cape" />
		<tag k="ssr:stedsnr" v="451195" />
	</node>
	<node lat="60.86243332980564" lon="7.124572220478387" id="-77404">
		<tag k="name" v="Bjørkhamarneset" />
		<tag k="natural" v="cape" />
		<tag k="ssr:stedsnr" v="453649" />
	</node>
	<node lat="60.934086110257894" lon="6.8977027865248095" id="-77427">
		<tag k="name" v="Odnesviki" />
		<tag k="natural" v="bay" />
		<tag k="ssr:stedsnr" v="270482" />
	</node>
	<node lat="60.89825508625049" lon="6.872454374882549" id="-77428">
		<tag k="fixme" v="consider seamark:type=rock or natural=shoal" />
		<tag k="name" v="Tuftaskjer" />
		<tag k="place" v="islet" />
		<tag k="ssr:stedsnr" v="270822" />
	</node>
	<node lat="60.921911114385466" lon="6.868588889946412" id="-77430">
		<tag k="fixme" v="consider seamark:type=rock or natural=shoal" />
		<tag k="name" v="Ternesteinane" />
		<tag k="place" v="islet" />
		<tag k="ssr:stedsnr" v="270991" />
	</node>
	<node lat="60.887911112486705" lon="6.84755000237151" id="-77442">
		<tag k="name" v="Hestanesviki" />
		<tag k="natural" v="bay" />
		<tag k="ssr:stedsnr" v="271506" />
	</node>
	<node lat="60.973455552040996" lon="6.995700008845111" id="-77448">
		<tag k="name" v="Korthellerviki" />
		<tag k="natural" v="bay" />
		<tag k="ssr:stedsnr" v="271912" />
	</node>
	<node lat="60.87550492762345" lon="7.143289586286539" id="-77459">
		<tag k="loc_name" v="Kråkeviki" />
		<tag k="name" v="Kråkaviki" />
		<tag k="natural" v="bay" />
		<tag k="ssr:stedsnr" v="297680" />
	</node>
	<node lat="60.969455554240476" lon="6.9812416665896375" id="-77476">
		<tag k="name" v="Svamen" />
		<tag k="natural" v="cape" />
		<tag k="ssr:stedsnr" v="312221" />
	</node>
	<node lat="60.91403333507708" lon="6.869205556766092" id="-77496">
		<tag k="name" v="Borgaviki" />
		<tag k="natural" v="bay" />
		<tag k="ssr:stedsnr" v="331959" />
	</node>
	<node lat="60.965697218417006" lon="7.110477772428249" id="-77523">
		<tag k="name" v="Gudbrandsneset" />
		<tag k="natural" v="cape" />
		<tag k="ssr:stedsnr" v="332562" />
	</node>
	<node lat="60.96366666614361" lon="6.951933330441178" id="-77529">
		<tag k="name" v="Leirhola" />
		<tag k="natural" v="bay" />
		<tag k="ssr:stedsnr" v="332803" />
	</node>
	<node lat="60.97835555987572" lon="7.083736113065207" id="-77558">
		<tag k="name" v="Nobbi" />
		<tag k="natural" v="cape" />
		<tag k="ssr:stedsnr" v="372219" />
	</node>
	<node lat="61.0182861140426" lon="7.0285861078928935" id="-77579">
		<tag k="alt_name" v="Aksneset" />
		<tag k="name" v="Aksnes" />
		<tag k="natural" v="cape" />
		<tag k="ssr:stedsnr" v="373402" />
	</node>
	<node lat="61.03377222235553" lon="7.040419445120676" id="-77581">
		<tag k="name" v="Breisnes" />
		<tag k="natural" v="cape" />
		<tag k="ssr:stedsnr" v="373412" />
	</node>
	<node lat="60.942763890833135" lon="6.938688892158397" id="-77583">
		<tag k="name" v="Vetlestyvi" />
		<tag k="natural" v="cape" />
		<tag k="ssr:stedsnr" v="390187" />
	</node>
	<node lat="60.94083611471366" lon="6.906405552974561" id="-77585">
		<tag k="name" v="Grubbalegviki" />
		<tag k="natural" v="bay" />
		<tag k="ssr:stedsnr" v="391497" />
	</node>
	<node lat="60.900527774531895" lon="7.14554445233635" id="-77610">
		<tag k="name" v="Bukkataket" />
		<tag k="natural" v="cape" />
		<tag k="ssr:stedsnr" v="392994" />
	</node>
	<node lat="60.9616694415608" lon="6.990825004338073" id="-77634">
		<tag k="name" v="Kappadalsviki" />
		<tag k="natural" v="bay" />
		<tag k="ssr:stedsnr" v="433231" />
	</node>
	<node lat="61.059494441190594" lon="7.045397227623041" id="-77683">
		<tag k="name" v="Digerurbukti" />
		<tag k="natural" v="bay" />
		<tag k="ssr:stedsnr" v="451169" />
	</node>
	<node lat="60.895033333252954" lon="6.869205560560533" id="-77686">
		<tag k="name" v="Vetlaneset" />
		<tag k="natural" v="cape" />
		<tag k="ssr:stedsnr" v="452665" />
	</node>
	<node lat="60.9704861109315" lon="7.020061117040063" id="-77688">
		<tag k="name" v="Grisataket" />
		<tag k="natural" v="cape" />
		<tag k="ssr:stedsnr" v="453278" />
	</node>
	<node lat="60.91512777626576" lon="7.189294449733433" id="-77734">
		<tag k="name" v="Neset" />
		<tag k="natural" v="cape" />
		<tag k="ssr:stedsnr" v="676175" />
	</node>
	<node lat="60.955419448911314" lon="6.932911119627333" id="-77820">
		<tag k="name" v="Jektahabn" />
		<tag k="natural" v="bay" />
		<tag k="ssr:stedsnr" v="514703" />
	</node>
	<node lat="60.917305553654515" lon="6.874430553251368" id="-77827">
		<tag k="name" v="Bakkasundet" />
		<tag k="natural" v="strait" />
		<tag k="ssr:stedsnr" v="539108" />
	</node>
	<node lat="60.87603036591233" lon="7.143923616889223" id="-77828">
		<tag k="loc_name" v="Kråkevikneset" />
		<tag k="name" v="Kråkavikneset" />
		<tag k="natural" v="cape" />
		<tag k="ssr:stedsnr" v="540702" />
	</node>
	<node lat="60.95005277928249" lon="6.95066388967206" id="-77859">
		<tag k="name" v="Solaløysa" />
		<tag k="natural" v="cape" />
		<tag k="ssr:stedsnr" v="554902" />
	</node>
	<node lat="61.025872218800174" lon="7.051675003057541" id="-77864">
		<tag k="name" v="Djupehavn" />
		<tag k="natural" v="bay" />
		<tag k="ssr:stedsnr" v="693163" />
	</node>
	<node lat="60.93074912316562" lon="6.882377367027344" id="-77870">
		<tag k="name" v="Stolsgrunnen" />
		<tag k="natural" v="shoal" />
		<tag k="place" v="locality" />
		<tag k="ssr:stedsnr" v="573415" />
	</node>
	<node lat="60.941866666548094" lon="6.931727783539774" id="-77895">
		<tag k="alt_name" v="Styvesviki" />
		<tag k="name" v="Styvisviki" />
		<tag k="natural" v="bay" />
		<tag k="ssr:stedsnr" v="695302" />
	</node>
	<node lat="60.9003843202037" lon="7.170388701360272" id="-77922">
		<tag k="alt_name" v="Heggeviki" />
		<tag k="name" v="Heggviki" />
		<tag k="natural" v="bay" />
		<tag k="ssr:stedsnr" v="696523" />
	</node>
	<node lat="60.95285833005392" lon="6.933597213469173" id="-77929">
		<tag k="name" v="Kobbaskjerneset" />
		<tag k="natural" v="cape" />
		<tag k="ssr:stedsnr" v="696708" />
	</node>
	<node lat="60.9322027735058" lon="7.15083333971895" id="-77933">
		<tag k="name" v="Tyviki" />
		<tag k="natural" v="bay" />
		<tag k="ssr:stedsnr" v="696860" />
	</node>
	<node lat="61.04806666834211" lon="7.036722225996618" id="-78010">
		<tag k="alt_name" v="Digroneset" />
		<tag k="name" v="Digerurneset" />
		<tag k="natural" v="cape" />
		<tag k="ssr:stedsnr" v="661388" />
	</node>
	<node lat="60.91548055350778" lon="7.170222214255655" id="-78031">
		<tag k="bay" v="fjord" />
		<tag k="name" v="Aurlandsfjorden" />
		<tag k="natural" v="bay" />
		<tag k="ssr:stedsnr" v="676215" />
	</node>
	<node lat="60.95032557147041" lon="7.108683306156613" id="-78076">
		<tag k="alt_name" v="Hjøllaviki" />
		<tag k="name" v="Hjøllabukti" />
		<tag k="natural" v="bay" />
		<tag k="ssr:stedsnr" v="696568" />
	</node>
	<node lat="60.951916670227796" lon="6.933222215386678" id="-78079">
		<tag k="name" v="Salthelleviki" />
		<tag k="natural" v="bay" />
		<tag k="ssr:stedsnr" v="696705" />
	</node>
	<node lat="60.92087777524902" lon="6.874358335707413" id="-78097">
		<tag k="name" v="Holmagrunnen" />
		<tag k="natural" v="shoal" />
		<tag k="place" v="locality" />
		<tag k="ssr:stedsnr" v="722077" />
	</node>
	<node lat="60.99025277574847" lon="7.026422222706703" id="-78110">
		<tag k="name" v="Franskorneset" />
		<tag k="natural" v="cape" />
		<tag k="ssr:stedsnr" v="736229" />
	</node>
	<node lat="60.964569441728244" lon="6.956519440000366" id="-78149">
		<tag k="name" v="Fluurviki" />
		<tag k="natural" v="bay" />
		<tag k="ssr:stedsnr" v="756855" />
	</node>
	<node lat="60.98501944786571" lon="7.045105563892759" id="-78219">
		<tag k="name" v="Beitelen" />
		<tag k="natural" v="cape" />
		<tag k="ssr:stedsnr" v="919183" />
	</node>
	<node lat="60.99962500110059" lon="7.07211666169127" id="-78274">
		<tag k="name" v="Geitaneset" />
		<tag k="natural" v="cape" />
		<tag k="ssr:stedsnr" v="843710" />
	</node>
	<node lat="60.93799721898005" lon="6.919316658827565" id="-78314">
		<tag k="name" v="Galdsviki" />
		<tag k="natural" v="bay" />
		<tag k="ssr:stedsnr" v="877510" />
	</node>
	<node lat="60.91938332982257" lon="6.877866661461067" id="-78324">
		<tag k="name" v="Inste Holmaviki" />
		<tag k="natural" v="bay" />
		<tag k="ssr:stedsnr" v="878223" />
	</node>
	<node lat="60.976386112452374" lon="7.035716667145736" id="-78327">
		<tag k="name" v="Morkalandet" />
		<tag k="natural" v="beach" />
		<tag k="ssr:stedsnr" v="878259" />
	</node>
	<node lat="60.88270832940352" lon="7.134716661625433" id="-78337">
		<tag k="name" v="Flesjehamaren" />
		<tag k="natural" v="cape" />
		<tag k="ssr:stedsnr" v="878664" />
	</node>
	<node lat="60.95358333065249" lon="7.1019749927678735" id="-78398">
		<tag k="name" v="Krossnes" />
		<tag k="natural" v="cape" />
		<tag k="ssr:stedsnr" v="939584" />
	</node>
	<node lat="60.93476666634017" lon="7.193291663459065" id="-78409">
		<tag k="name" v="Orevik" />
		<tag k="natural" v="bay" />
		<tag k="ssr:stedsnr" v="939943" />
	</node>
	<node lat="61.01533610730157" lon="7.029486112237461" id="-78460">
		<tag k="name" v="Geitaneset" />
		<tag k="natural" v="cape" />
		<tag k="ssr:stedsnr" v="26165" />
	</node>
	<node lat="60.92006111096598" lon="6.868158330564218" id="-78463">
		<tag k="name" v="Blombakkaviki" />
		<tag k="natural" v="bay" />
		<tag k="ssr:stedsnr" v="27994" />
	</node>
	<node lat="60.885686111263176" lon="6.857661106633873" id="-78480">
		<tag k="name" v="Sjøskredviki" />
		<tag k="natural" v="bay" />
		<tag k="ssr:stedsnr" v="28564" />
	</node>
	<node lat="60.922380551593065" lon="6.867322216687876" id="-78560">
		<tag k="name" v="Kvernaviki" />
		<tag k="natural" v="bay" />
		<tag k="ssr:stedsnr" v="88994" />
	</node>
	<node lat="60.92340555248957" lon="6.875166660294921" id="-78617">
		<tag k="name" v="Holmaneset" />
		<tag k="natural" v="cape" />
		<tag k="ssr:stedsnr" v="115065" />
	</node>
	<node lat="60.898480553739375" lon="6.8585166641390005" id="-78660">
		<tag k="name" v="Halvfjerdingen" />
		<tag k="natural" v="cape" />
		<tag k="ssr:stedsnr" v="148551" />
	</node>
	<node lat="60.93071944275859" lon="6.871722216455655" id="-78665">
		<tag k="name" v="Kjødnesviki" />
		<tag k="natural" v="bay" />
		<tag k="ssr:stedsnr" v="148988" />
	</node>
	<node lat="60.927013888103" lon="6.869852782492614" id="-78667">
		<tag k="alt_name" v="Ytrebakkaneset;Ytste Bakka" />
		<tag k="name" v="Ytre Bakkagrovi" />
		<tag k="natural" v="cape" />
		<tag k="ssr:stedsnr" v="148995" />
	</node>
	<node lat="60.88711944643712" lon="7.154983332540347" id="-78714">
		<tag k="name" v="Nautaviki" />
		<tag k="natural" v="bay" />
		<tag k="ssr:stedsnr" v="176696" />
	</node>
	<node lat="60.964530553796436" lon="7.002041668875458" id="-78837">
		<tag k="name" v="Mjelkeplassen" />
		<tag k="natural" v="cape" />
		<tag k="ssr:stedsnr" v="312233" />
	</node>
	<node lat="60.93553055856654" lon="6.883169450664744" id="-78866">
		<tag k="name" v="Ytsta Breiskredviki" />
		<tag k="natural" v="bay" />
		<tag k="ssr:stedsnr" v="331425" />
	</node>
	<node lat="60.933147221280784" lon="6.894119449806985" id="-78869">
		<tag k="name" v="Essen" />
		<tag k="natural" v="bay" />
		<tag k="ssr:stedsnr" v="331472" />
	</node>
	<node lat="60.906983330647115" lon="6.867463893965997" id="-78870">
		<tag k="name" v="Stølsnes" />
		<tag k="natural" v="cape" />
		<tag k="ssr:stedsnr" v="331896" />
	</node>
	<node lat="60.984638889576495" lon="7.017441658083676" id="-78876">
		<tag k="name" v="Bandaformi" />
		<tag k="natural" v="bay" />
		<tag k="ssr:stedsnr" v="332081" />
	</node>
	<node lat="60.860513886860495" lon="7.121086105477113" id="-78877">
		<tag k="name" v="Viki" />
		<tag k="natural" v="bay" />
		<tag k="ssr:stedsnr" v="332088" />
	</node>
	<node lat="60.884011110289535" lon="7.153580551976863" id="-78921">
		<tag k="name" v="Hund" />
		<tag k="natural" v="beach" />
		<tag k="ssr:stedsnr" v="332994" />
	</node>
	<node lat="60.95446110952844" lon="6.9333444411270895" id="-78995">
		<tag k="alt_name" v="Hundegalsneset" />
		<tag k="name" v="Hundagalsneset" />
		<tag k="natural" v="cape" />
		<tag k="ssr:stedsnr" v="392750" />
	</node>
	<node lat="60.97279444661816" lon="6.993505563096768" id="-79000">
		<tag k="alt_name" v="Kufthellerneset" />
		<tag k="name" v="Korthellerneset" />
		<tag k="natural" v="cape" />
		<tag k="ssr:stedsnr" v="392906" />
	</node>
	<node lat="60.905594443101414" lon="6.87725833389838" id="-79026">
		<tag k="name" v="Fjøsarhola" />
		<tag k="natural" v="bay" />
		<tag k="ssr:stedsnr" v="418098" />
	</node>
	<node lat="60.938000002168586" lon="6.914305559167396" id="-79060">
		<tag k="name" v="Galden" />
		<tag k="natural" v="cape" />
		<tag k="ssr:stedsnr" v="433867" />
	</node>
	<node lat="60.88607222269779" lon="7.1537999972860975" id="-79127">
		<tag k="name" v="Nautavikneset" />
		<tag k="natural" v="cape" />
		<tag k="ssr:stedsnr" v="514998" />
	</node>
	<node lat="60.97212222521286" lon="6.990158341015033" id="-79129">
		<tag k="name" v="Bilete" />
		<tag k="natural" v="bay" />
		<tag k="ssr:stedsnr" v="514854" />
	</node>
	<node lat="60.91371389143727" lon="6.871163887693161" id="-79132">
		<tag k="name" v="Borgagrunnen" />
		<tag k="natural" v="shoal" />
		<tag k="place" v="locality" />
		<tag k="ssr:stedsnr" v="539066" />
	</node>
	<node lat="60.93004444090738" lon="6.87131110963013" id="-79200">
		<tag k="name" v="Kjødnes" />
		<tag k="natural" v="cape" />
		<tag k="ssr:stedsnr" v="573997" />
	</node>
	<node lat="60.87769744321502" lon="7.147516829856182" id="-79214">
		<tag k="alt_name" v="Hellestahamaren" />
		<tag k="name" v="Hellestøhamaren" />
		<tag k="natural" v="cape" />
		<tag k="ssr:stedsnr" v="574589" />
	</node>
	<node lat="61.019625000072686" lon="7.059061112609103" id="-79302">
		<tag k="name" v="Norheimsdalssagi" />
		<tag k="natural" v="cape" />
		<tag k="ssr:stedsnr" v="632384" />
	</node>
	<node lat="60.93625000083278" lon="6.8844805605686865" id="-79304">
		<tag k="name" v="Skratleviki" />
		<tag k="natural" v="bay" />
		<tag k="ssr:stedsnr" v="634466" />
	</node>
	<node lat="60.93013644441034" lon="6.8862144876895925" id="-79305">
		<tag k="name" v="Stolsviki" />
		<tag k="natural" v="bay" />
		<tag k="ssr:stedsnr" v="634471" />
	</node>
	<node lat="60.876921202755554" lon="7.1455390526249" id="-79340">
		<tag k="loc_name" v="Fuglaviki" />
		<tag k="name" v="Fulaviki" />
		<tag k="natural" v="bay" />
		<tag k="ssr:stedsnr" v="661652" />
	</node>
	<node lat="60.89489166891992" lon="6.859477786374513" id="-79378">
		<tag k="bay" v="fjord" />
		<tag k="name" v="Nærøyfjorden" />
		<tag k="natural" v="bay" />
		<tag k="ssr:stedsnr" v="736846" />
	</node>
	<node lat="60.974830556586284" lon="6.9980694466462205" id="-79396">
		<tag k="name" v="Bokaneset" />
		<tag k="natural" v="cape" />
		<tag k="ssr:stedsnr" v="756071" />
	</node>
	<node lat="61.002669447320606" lon="7.032536106007765" id="-79397">
		<tag k="name" v="Brenneneset" />
		<tag k="natural" v="cape" />
		<tag k="ssr:stedsnr" v="756319" />
	</node>
	<node lat="60.94245555855576" lon="6.9166527738307755" id="-79406">
		<tag k="name" v="Stavviki" />
		<tag k="natural" v="bay" />
		<tag k="ssr:stedsnr" v="756493" />
	</node>
	<node lat="60.953838891707775" lon="7.158508335079806" id="-79452">
		<tag k="name" v="Atlaugaviki" />
		<tag k="natural" v="bay" />
		<tag k="ssr:stedsnr" v="782585" />
	</node>
	<node lat="60.95377777850633" lon="7.150219445467006" id="-79453">
		<tag k="name" v="Reipaneset" />
		<tag k="natural" v="cape" />
		<tag k="ssr:stedsnr" v="782586" />
	</node>
	<node lat="60.9039111075767" lon="7.177927786446874" id="-79454">
		<tag k="name" v="Salthella" />
		<tag k="natural" v="cape" />
		<tag k="ssr:stedsnr" v="782691" />
	</node>
	<node lat="60.94624444150097" lon="6.942936109079562" id="-79504">
		<tag k="name" v="Skalmenesviki" />
		<tag k="natural" v="bay" />
		<tag k="ssr:stedsnr" v="815182" />
	</node>
	<node lat="60.903830551364464" lon="7.179252771659681" id="-79523">
		<tag k="name" v="Onstadbukti" />
		<tag k="natural" v="bay" />
		<tag k="ssr:stedsnr" v="817467" />
	</node>
	<node lat="60.96317221790795" lon="7.113274997674481" id="-79527">
		<tag k="name" v="Geitravollneset" />
		<tag k="natural" v="cape" />
		<tag k="ssr:stedsnr" v="817562" />
	</node>
	<node lat="60.874083329041326" lon="7.133188892644059" id="-79561">
		<tag k="name" v="Fretheimgrunnen" />
		<tag k="natural" v="shoal" />
		<tag k="place" v="locality" />
		<tag k="ssr:stedsnr" v="843744" />
	</node>
	<node lat="61.03256111096037" lon="7.043002786676853" id="-79602">
		<tag k="name" v="Sag" />
		<tag k="natural" v="bay" />
		<tag k="ssr:stedsnr" v="875156" />
	</node>
	<node lat="60.93689444758048" lon="6.906608326375109" id="-79654">
		<tag k="alt_name" v="Fureneset" />
		<tag k="name" v="Frunes" />
		<tag k="natural" v="cape" />
		<tag k="ssr:stedsnr" v="938485" />
	</node>
	<node lat="60.90348888861285" lon="7.17394999298517" id="-79675">
		<tag k="name" v="Galdshola" />
		<tag k="natural" v="bay" />
		<tag k="ssr:stedsnr" v="939517" />
	</node>
	<node lat="60.89699444870689" lon="6.857705564019909" id="-79680">
		<tag k="name" v="Høyskredsteinane" />
		<tag k="natural" v="cape" />
		<tag k="ssr:stedsnr" v="939460" />
	</node>
	<node lat="60.961499996917766" lon="6.981852771163671" id="-79695">
		<tag k="fixme" v="consider seamark:type=rock or natural=shoal" />
		<tag k="name" v="Kobbaskjer" />
		<tag k="place" v="islet" />
		<tag k="ssr:stedsnr" v="939831" />
	</node>
	<node lat="60.895138886993756" lon="7.1635444531765575" id="-79699">
		<tag k="name" v="Lialandet" />
		<tag k="natural" v="beach" />
		<tag k="ssr:stedsnr" v="939753" />
	</node>
</osm>
