<?xml version="1.0" encoding="UTF-8"?>
<<<<<<< HEAD
<osm version="0.6" generator="osmapis">
	<node lat="60.81043055999947" lon="7.140555555061182" id="-35873">
=======
<osm generator="osmapis" version="0.6">
	<node id="-675840" lat="60.9510444461" lon="7.36254165765">
		<tag k="name" v="Hornshytta" />
		<tag k="place" v="locality" />
		<tag k="ssr:stedsnr" v="311448" />
	</node>
	<node id="-674304" lat="60.9151583345" lon="7.18953332849">
		<tag k="name" v="Araldsnes" />
		<tag k="place" v="farm" />
		<tag k="ssr:stedsnr" v="478911" />
	</node>
	<node id="-675838" lat="60.8447888887" lon="7.36072777807">
		<tag k="historic" v="shieling" />
		<tag k="name" v="Mjelkeberg" />
		<tag k="place" v="locality" />
		<tag k="ssr:stedsnr" v="311422" />
	</node>
	<node id="-675835" lat="60.8534527739" lon="7.36980555998">
		<tag k="historic" v="shieling" />
		<tag k="name" v="Hovdungo" />
		<tag k="place" v="locality" />
		<tag k="ssr:stedsnr" v="311392" />
	</node>
	<node id="-674810" lat="60.8434416662" lon="7.11781388373">
		<tag k="amenity" v="school" />
		<tag k="name" v="Flåm skule" />
		<tag k="ssr:stedsnr" v="635068" />
	</node>
	<node id="-674962" lat="60.873686796" lon="6.82943236246">
		<tag k="fixme" v="consider place=hamlet" />
		<tag k="name" v="Gudvangen" />
		<tag k="place" v="farm" />
		<tag k="ssr:stedsnr" v="676803" />
	</node>
	<node id="-676339" lat="60.8945027802" lon="7.34098889423">
		<tag k="name" v="Hansateigen" />
		<tag k="place" v="locality" />
		<tag k="ssr:stedsnr" v="635299" />
	</node>
	<node id="-675314" lat="60.8303500043" lon="7.43966388139">
		<tag k="name" v="Heimrebø" />
		<tag k="place" v="locality" />
		<tag k="ssr:stedsnr" v="8364" />
	</node>
	<node id="-675313" lat="60.8537888848" lon="7.41851110811">
		<tag k="alt_name" v="Skåri" />
		<tag k="name" v="Skori" />
		<tag k="place" v="farm" />
		<tag k="ssr:stedsnr" v="8351" />
	</node>
	<node id="-674197" lat="60.9723645917" lon="7.06148295722">
		<tag k="fixme" v="consider place=hamlet" />
		<tag k="name" v="Stigen" />
		<tag k="place" v="farm" />
		<tag k="ssr:stedsnr" v="251258" />
	</node>
	<node id="-674798" lat="60.8512555517" lon="7.52355555056">
		<tag k="historic" v="shieling" />
		<tag k="name" v="Langedalen" />
		<tag k="place" v="locality" />
		<tag k="ssr:stedsnr" v="736343" />
	</node>
	<node id="-674796" lat="60.7594027763" lon="7.11106945316">
		<tag k="historic" v="shieling" />
		<tag k="name" v="Kvanntjørn" />
		<tag k="place" v="locality" />
		<tag k="ssr:stedsnr" v="627412" />
	</node>
	<node id="-675307" lat="60.9912904725" lon="7.08214532003">
		<tag k="name" v="Horten" />
		<tag k="place" v="locality" />
		<tag k="ssr:stedsnr" v="8245" />
	</node>
	<node id="-675306" lat="60.9286805572" lon="7.1967749961">
		<tag k="name" v="Nordheim" />
		<tag k="place" v="farm" />
		<tag k="ssr:stedsnr" v="8182" />
	</node>
	<node id="-675297" lat="60.9044222189" lon="7.0597583319">
		<tag k="historic" v="shieling" />
		<tag k="name" v="Haskåhalsen" />
		<tag k="place" v="locality" />
		<tag k="ssr:stedsnr" v="8068" />
	</node>
	<node id="-675294" lat="60.81043056" lon="7.14055555506">
		<tag k="historic" v="shieling" />
		<tag k="name" v="Rond" />
		<tag k="place" v="locality" />
		<tag k="ssr:stedsnr" v="8049" />
	</node>
	<node id="-674781" lat="60.7947944475" lon="7.38428611297">
		<tag k="historic" v="shieling" />
		<tag k="name" v="Rausmesdalen" />
		<tag k="place" v="locality" />
		<tag k="ssr:stedsnr" v="615238" />
	</node>
	<node id="-676090" lat="60.9029111071" lon="7.22548056263">
		<tag k="historic" v="shieling" />
		<tag k="name" v="Berg" />
		<tag k="place" v="locality" />
		<tag k="ssr:stedsnr" v="433075" />
	</node>
	<node id="-674778" lat="60.9639666643" lon="7.20501111415">
		<tag k="alt_name" v="Vassbrusletti" />
		<tag k="historic" v="shieling" />
		<tag k="name" v="Vassbrusletta" />
		<tag k="place" v="locality" />
		<tag k="ssr:stedsnr" v="615219" />
	</node>
	<node id="-674777" lat="60.9733888858" lon="7.17253055988">
		<tag k="alt_name" v="Brekkasete" />
		<tag k="name" v="Brekasete" />
		<tag k="place" v="locality" />
		<tag k="ssr:stedsnr" v="615205" />
	</node>
	<node id="-674931" lat="60.875172412" lon="7.1496684989">
		<tag k="fixme" v="consider place=hamlet" />
		<tag k="name" v="Åtnes" />
		<tag k="old_name" v="Aatrenes" />
		<tag k="place" v="farm" />
		<tag k="ssr:stedsnr" v="676103" />
	</node>
	<node id="-675287" lat="60.8518666625" lon="7.09879167417">
		<tag k="name" v="Fossen" />
		<tag k="place" v="locality" />
		<tag k="ssr:stedsnr" v="939979" />
	</node>
	<node id="-676310" lat="60.8106388873" lon="7.06200832617">
		<tag k="name" v="Bjørndalen" />
		<tag k="place" v="locality" />
		<tag k="ssr:stedsnr" v="631080" />
	</node>
	<node id="-674773" lat="60.8358944487" lon="7.10097221982">
		<tag k="historic" v="shieling" />
		<tag k="name" v="Ljoren" />
		<tag k="place" v="locality" />
		<tag k="ssr:stedsnr" v="615014" />
	</node>
	<node id="-675794" lat="60.8586277811" lon="7.35380832902">
		<tag k="name" v="Bjønnhiet" />
		<tag k="place" v="locality" />
		<tag k="ssr:stedsnr" v="211387" />
	</node>
	<node id="-676003" lat="60.8979638873" lon="7.37967777278">
		<tag k="historic" v="shieling" />
		<tag k="name" v="Stuasete" />
		<tag k="place" v="locality" />
		<tag k="ssr:stedsnr" v="372435" />
	</node>
	<node id="-674765" lat="60.8374444422" lon="7.44165555174">
>>>>>>> e1d4bc35ff8a6074a6f2e91616a996b547c36f15
		<tag k="historic" v="shieling" />
		<tag k="name" v="Rond" />
		<tag k="place" v="isolated_dwelling" />
		<tag k="ssr:stedsnr" v="8049" />
	</node>
<<<<<<< HEAD
	<node lat="60.991290472465444" lon="7.0821453200317" id="-35878">
		<tag k="name" v="Horten" />
		<tag k="place" v="locality" />
		<tag k="ssr:stedsnr" v="8245" />
	</node>
	<node lat="60.853788884821604" lon="7.418511108109708" id="-35884">
		<tag k="alt_name" v="Skåri" />
		<tag k="name" v="Skori" />
		<tag k="place" v="farm" />
		<tag k="ssr:stedsnr" v="8351" />
	</node>
	<node lat="60.82649722651841" lon="7.142313890155703" id="-35905">
=======
	<node id="-674251" lat="60.8560583294" lon="7.35591388998">
		<tag k="name" v="Allmenningane" />
		<tag k="place" v="locality" />
		<tag k="ssr:stedsnr" v="454391" />
	</node>
	<node id="-674551" lat="60.8427172013" lon="7.13519491747">
		<tag k="fixme" v="consider place=hamlet" />
		<tag k="name" v="Indreli" />
		<tag k="place" v="farm" />
		<tag k="ssr:stedsnr" v="433014" />
	</node>
	<node id="-674419" lat="60.9370777769" lon="7.14517222831">
		<tag k="name" v="Kamben" />
		<tag k="place" v="locality" />
		<tag k="ssr:stedsnr" v="372156" />
	</node>
	<node id="-675271" lat="60.8413611119" lon="7.12195555676">
		<tag k="name" v="Moldstein" />
		<tag k="place" v="farm" />
		<tag k="ssr:stedsnr" v="939083" />
	</node>
	<node id="-675855" lat="60.9216864772" lon="7.1995079372">
		<tag k="fixme" v="consider place=hamlet" />
		<tag k="name" v="Ty" />
		<tag k="place" v="farm" />
		<tag k="ssr:stedsnr" v="312144" />
	</node>
	<node id="-675777" lat="60.9240833367" lon="6.85892222189">
		<tag k="name" v="Seltuft" />
		<tag k="place" v="locality" />
		<tag k="ssr:stedsnr" v="210990" />
	</node>
	<node id="-674965" lat="60.8588181428" lon="6.76173818897">
		<tag k="fixme" v="consider place=hamlet" />
		<tag k="name" v="Hylland" />
		<tag k="place" v="farm" />
		<tag k="ssr:stedsnr" v="676815" />
	</node>
	<node id="-676287" lat="60.8983166698" lon="7.37378056195">
		<tag k="alt_name" v="Svoldalen" />
>>>>>>> e1d4bc35ff8a6074a6f2e91616a996b547c36f15
		<tag k="historic" v="shieling" />
		<tag k="name" v="Tjørnsete" />
		<tag k="place" v="isolated_dwelling" />
		<tag k="ssr:stedsnr" v="21448" />
	</node>
<<<<<<< HEAD
	<node lat="60.91622778037603" lon="7.500008328412724" id="-35906">
		<tag k="name" v="Melahytta" />
		<tag k="place" v="isolated_dwelling" />
		<tag k="ssr:stedsnr" v="22314" />
	</node>
	<node lat="60.895027775945444" lon="7.1672444380674225" id="-35916">
		<tag k="name" v="Hatleteigen" />
		<tag k="place" v="farm" />
		<tag k="ssr:stedsnr" v="28809" />
	</node>
	<node lat="60.961461109070534" lon="7.166461113367709" id="-35929">
		<tag k="name" v="Dalarsteigen" />
=======
	<node id="-675262" lat="60.787590646" lon="7.09817646569">
		<tag k="fixme" v="consider place=hamlet" />
		<tag k="name" v="Berekvam" />
		<tag k="place" v="farm" />
		<tag k="ssr:stedsnr" v="919456" />
	</node>
	<node id="-676285" lat="61.0316305348" lon="7.04455211845">
		<tag k="fixme" v="consider place=hamlet" />
		<tag k="name" v="Breisnes" />
		<tag k="place" v="farm" />
		<tag k="ssr:stedsnr" v="615397" />
	</node>
	<node id="-674555" lat="60.9423250025" lon="7.13500833712">
		<tag k="name" v="Rudningen" />
		<tag k="place" v="locality" />
		<tag k="ssr:stedsnr" v="433136" />
	</node>
	<node id="-675770" lat="60.8094222227" lon="7.12605556421">
		<tag k="name" v="Løengi" />
>>>>>>> e1d4bc35ff8a6074a6f2e91616a996b547c36f15
		<tag k="place" v="locality" />
		<tag k="ssr:stedsnr" v="29870" />
	</node>
<<<<<<< HEAD
	<node lat="60.795047223185556" lon="7.103372213937581" id="-35939">
		<tag k="historic" v="shieling" />
		<tag k="name" v="Styvissete" />
		<tag k="place" v="isolated_dwelling" />
		<tag k="ssr:stedsnr" v="69058" />
	</node>
	<node lat="60.896055551312415" lon="7.241200006025046" id="-35941">
		<tag k="historic" v="shieling" />
		<tag k="name" v="Håli" />
		<tag k="place" v="isolated_dwelling" />
		<tag k="ssr:stedsnr" v="69090" />
	</node>
	<node lat="60.81795555342331" lon="7.355374998534489" id="-35949">
		<tag k="historic" v="shieling" />
		<tag k="name" v="Vetledalen" />
		<tag k="place" v="isolated_dwelling" />
		<tag k="ssr:stedsnr" v="69299" />
	</node>
	<node lat="60.83395617375953" lon="7.345782461508733" id="-35954">
=======
	<node id="-675257" lat="60.8752555535" lon="7.37666667344">
		<tag k="historic" v="shieling" />
		<tag k="name" v="Eisingane" />
		<tag k="place" v="locality" />
		<tag k="ssr:stedsnr" v="919323" />
	</node>
	<node id="-676280" lat="60.9218138926" lon="7.20317500776">
		<tag k="name" v="Nordby" />
		<tag k="place" v="farm" />
		<tag k="ssr:stedsnr" v="615137" />
	</node>
	<node id="-676278" lat="60.8706277746" lon="7.06787222808">
		<tag k="name" v="Lintu" />
		<tag k="place" v="locality" />
		<tag k="ssr:stedsnr" v="615090" />
	</node>
	<node id="-674998" lat="60.9731250028" lon="7.21355556331">
		<tag k="historic" v="shieling" />
		<tag k="name" v="Myri" />
		<tag k="place" v="locality" />
		<tag k="ssr:stedsnr" v="696955" />
	</node>
	<node id="-674206" lat="60.8217750025" lon="7.5473861061">
		<tag k="name" v="Grønestøl" />
		<tag k="place" v="locality" />
		<tag k="ssr:stedsnr" v="251297" />
	</node>
	<node id="-674738" lat="60.8494444426" lon="7.10943611872">
		<tag k="name" v="Lunden" />
		<tag k="place" v="farm" />
		<tag k="ssr:stedsnr" v="570130" />
	</node>
	<node id="-675249" lat="60.9753402608" lon="7.09432826892">
>>>>>>> e1d4bc35ff8a6074a6f2e91616a996b547c36f15
		<tag k="fixme" v="consider place=hamlet" />
		<tag k="name" v="Stondalen" />
		<tag k="place" v="farm" />
		<tag k="ssr:stedsnr" v="69382" />
	</node>
<<<<<<< HEAD
	<node lat="60.91064166726006" lon="6.753452776574101" id="-35961">
		<tag k="historic" v="shieling" />
		<tag k="name" v="Røyrdotten" />
		<tag k="place" v="isolated_dwelling" />
		<tag k="ssr:stedsnr" v="69881" />
	</node>
	<node lat="60.92587983520597" lon="6.879427895146835" id="-35962">
=======
	<node id="-676272" lat="60.9769309053" lon="6.8996742171">
		<tag k="fixme" v="consider place=hamlet" />
		<tag k="name" v="Drægo" />
		<tag k="place" v="farm" />
		<tag k="ssr:stedsnr" v="614919" />
	</node>
	<node id="-676271" lat="60.7986458351" lon="7.24035983259">
>>>>>>> e1d4bc35ff8a6074a6f2e91616a996b547c36f15
		<tag k="historic" v="shieling" />
		<tag k="name" v="Holmo" />
		<tag k="place" v="isolated_dwelling" />
		<tag k="ssr:stedsnr" v="69885" />
	</node>
<<<<<<< HEAD
	<node lat="60.93379444162225" lon="6.753319450949488" id="-35963">
=======
	<node id="-676270" lat="60.8451222214" lon="7.32775277122">
>>>>>>> e1d4bc35ff8a6074a6f2e91616a996b547c36f15
		<tag k="historic" v="shieling" />
		<tag k="name" v="Breidalen" />
		<tag k="place" v="isolated_dwelling" />
		<tag k="ssr:stedsnr" v="69892" />
	</node>
<<<<<<< HEAD
	<node lat="60.743447218496236" lon="7.13151944458218" id="-35967">
		<tag k="name" v="Vatnahalsen" />
		<tag k="ssr:stedsnr" v="86226" />
		<tag k="tourism" v="hotel" />
	</node>
	<node lat="60.801336111433365" lon="7.105302773760278" id="-35976">
		<tag k="historic" v="shieling" />
		<tag k="name" v="Geithus" />
=======
	<node id="-676269" lat="60.9075555543" lon="6.90159721805">
		<tag k="name" v="Nisedalen" />
>>>>>>> e1d4bc35ff8a6074a6f2e91616a996b547c36f15
		<tag k="place" v="isolated_dwelling" />
		<tag k="ssr:stedsnr" v="89625" />
	</node>
<<<<<<< HEAD
	<node lat="60.779761109056686" lon="7.113391658811304" id="-35984">
		<tag k="name" v="Hovdaliselbøen" />
=======
	<node id="-675243" lat="60.8437249972" lon="7.42225554865">
		<tag k="alt_name" v="Vetlehelvete" />
		<tag k="name" v="Vetlahelvete" />
>>>>>>> e1d4bc35ff8a6074a6f2e91616a996b547c36f15
		<tag k="place" v="locality" />
		<tag k="ssr:stedsnr" v="89973" />
	</node>
<<<<<<< HEAD
	<node lat="60.79951944815569" lon="7.125638888826399" id="-36001">
		<tag k="name" v="Kolåsen" />
=======
	<node id="-673948" lat="60.9162277804" lon="7.50000832841">
		<tag k="name" v="Melahytta" />
		<tag k="place" v="isolated_dwelling" />
		<tag k="ssr:stedsnr" v="22314" />
	</node>
	<node id="-676262" lat="60.8616833331" lon="7.16806944865">
		<tag k="historic" v="shieling" />
		<tag k="name" v="Joasete" />
>>>>>>> e1d4bc35ff8a6074a6f2e91616a996b547c36f15
		<tag k="place" v="locality" />
		<tag k="ssr:stedsnr" v="251056" />
	</node>
<<<<<<< HEAD
	<node lat="60.80591814181517" lon="7.129910902373258" id="-36003">
=======
	<node id="-674724" lat="60.8585543438" lon="7.11708781915">
>>>>>>> e1d4bc35ff8a6074a6f2e91616a996b547c36f15
		<tag k="fixme" v="consider place=hamlet" />
		<tag k="name" v="Geisme" />
		<tag k="place" v="farm" />
<<<<<<< HEAD
		<tag k="ssr:stedsnr" v="251064" />
	</node>
	<node lat="60.94976395842619" lon="7.191049506017531" id="-36006">
=======
		<tag k="ssr:stedsnr" v="554124" />
	</node>
	<node id="-676259" lat="60.7247750013" lon="7.02015277714">
		<tag k="alt_name" v="Uppsete, vetle" />
		<tag k="historic" v="shieling" />
		<tag k="name" v="Vetle Uppsete" />
		<tag k="place" v="locality" />
		<tag k="ssr:stedsnr" v="603096" />
	</node>
	<node id="-675234" lat="60.8773917047" lon="7.25460829525">
>>>>>>> e1d4bc35ff8a6074a6f2e91616a996b547c36f15
		<tag k="fixme" v="consider place=hamlet" />
		<tag k="name" v="Skjerdal" />
		<tag k="place" v="farm" />
		<tag k="ssr:stedsnr" v="251138" />
	</node>
<<<<<<< HEAD
	<node lat="60.94585042601071" lon="7.0997227573009445" id="-36007">
		<tag k="alt_name" v="Heimre Hjøllo;Fremre Hjøllo" />
		<tag k="fixme" v="consider place=hamlet" />
		<tag k="name" v="Hjøllo" />
		<tag k="place" v="farm" />
		<tag k="ssr:stedsnr" v="251142" />
	</node>
	<node lat="60.883333329061614" lon="7.308508334980466" id="-36008">
		<tag k="historic" v="shieling" />
		<tag k="name" v="Hola" />
		<tag k="place" v="isolated_dwelling" />
		<tag k="ssr:stedsnr" v="251104" />
	</node>
	<node lat="60.90575725112267" lon="7.186977074299015" id="-36011">
		<tag k="name" v="Aurlandsvangen" />
		<tag k="place" v="village" />
		<tag k="ssr:stedsnr" v="251194" />
	</node>
	<node lat="60.91596389214808" lon="7.20486944727643" id="-36018">
		<tag k="name" v="Kvamshagane" />
		<tag k="place" v="locality" />
		<tag k="ssr:stedsnr" v="251182" />
	</node>
	<node lat="60.972523344445115" lon="7.06058789811132" id="-36024">
		<tag k="fixme" v="consider place=hamlet" />
		<tag k="name" v="Stigen" />
		<tag k="place" v="farm" />
		<tag k="ssr:stedsnr" v="251258" />
	</node>
	<node lat="60.966202777955985" lon="7.058730554086886" id="-36026">
		<tag k="name" v="Fjellstølen" />
=======
	<node id="-676617" lat="60.8304138858" lon="7.45172777523">
		<tag k="name" v="Ljøtebotn" />
		<tag k="place" v="locality" />
		<tag k="ssr:stedsnr" v="858350" />
	</node>
	<node id="-675230" lat="60.916166663" lon="7.19239167183">
		<tag k="name" v="Fjellborg" />
		<tag k="place" v="farm" />
		<tag k="ssr:stedsnr" v="903919" />
	</node>
	<node id="-675229" lat="60.8952027747" lon="7.22447221554">
		<tag k="name" v="Nygard" />
		<tag k="place" v="isolated_dwelling" />
		<tag k="ssr:stedsnr" v="903917" />
	</node>
	<node id="-674715" lat="60.8559416643" lon="7.0882916642">
		<tag k="name" v="Nylendmarki" />
		<tag k="place" v="locality" />
		<tag k="ssr:stedsnr" v="696894" />
	</node>
	<node id="-676499" lat="60.8015722182" lon="7.02336389412">
		<tag k="historic" v="shieling" />
		<tag k="name" v="Vassete" />
		<tag k="place" v="locality" />
		<tag k="ssr:stedsnr" v="797053" />
	</node>
	<node id="-674953" lat="60.9122944463" lon="7.35001389089">
		<tag k="alt_name" v="Furedalen, vetle" />
		<tag k="name" v="Vetle Furedalen" />
		<tag k="place" v="locality" />
		<tag k="ssr:stedsnr" v="676374" />
	</node>
	<node id="-675223" lat="60.9917277813" lon="6.9051277773">
		<tag k="historic" v="shieling" />
		<tag k="name" v="Snauasete" />
>>>>>>> e1d4bc35ff8a6074a6f2e91616a996b547c36f15
		<tag k="place" v="locality" />
		<tag k="ssr:stedsnr" v="251266" />
	</node>
<<<<<<< HEAD
	<node lat="60.772850002285644" lon="7.573963886275988" id="-36033">
		<tag k="name" v="Fitjane" />
=======
	<node id="-675222" lat="60.9582777757" lon="6.82717778422">
		<tag k="name" v="Kolsete" />
>>>>>>> e1d4bc35ff8a6074a6f2e91616a996b547c36f15
		<tag k="place" v="locality" />
		<tag k="ssr:stedsnr" v="251340" />
	</node>
<<<<<<< HEAD
	<node lat="60.82177500245954" lon="7.547386106097894" id="-36035">
		<tag k="name" v="Grønestøl" />
		<tag k="place" v="locality" />
		<tag k="ssr:stedsnr" v="251297" />
	</node>
	<node lat="60.757349995793035" lon="7.364127784641905" id="-36036">
=======
	<node id="-675733" lat="60.8753361112" lon="7.17741944617">
		<tag k="historic" v="shieling" />
		<tag k="name" v="Høgsete" />
		<tag k="place" v="locality" />
		<tag k="ssr:stedsnr" v="191080" />
	</node>
	<node id="-674196" lat="60.7573499958" lon="7.36412778464">
>>>>>>> e1d4bc35ff8a6074a6f2e91616a996b547c36f15
		<tag k="historic" v="shieling" />
		<tag k="name" v="Flatnosi" />
		<tag k="place" v="isolated_dwelling" />
		<tag k="ssr:stedsnr" v="251317" />
	</node>
<<<<<<< HEAD
	<node lat="60.86514166701975" lon="7.360386102002475" id="-36041">
		<tag k="name" v="Øygarden" />
=======
	<node id="-675731" lat="60.9590876217" lon="6.93302034209">
		<tag k="fixme" v="consider place=hamlet" />
		<tag k="name" v="Dyrdal" />
		<tag k="place" v="farm" />
		<tag k="ssr:stedsnr" v="190893" />
	</node>
	<node id="-675213" lat="60.8367347136" lon="7.42303219773">
		<tag k="alt_name" v="Vetleberekvam" />
		<tag k="name" v="Berekvam" />
>>>>>>> e1d4bc35ff8a6074a6f2e91616a996b547c36f15
		<tag k="place" v="locality" />
		<tag k="ssr:stedsnr" v="251367" />
	</node>
<<<<<<< HEAD
	<node lat="60.86997499985113" lon="7.405980558578205" id="-36042">
		<tag k="historic" v="shieling" />
		<tag k="name" v="Grov" />
		<tag k="place" v="isolated_dwelling" />
		<tag k="ssr:stedsnr" v="251369" />
	</node>
	<node lat="60.93180833478617" lon="7.085222217219346" id="-36055">
		<tag k="historic" v="shieling" />
		<tag k="name" v="Melhus" />
		<tag k="place" v="isolated_dwelling" />
		<tag k="ssr:stedsnr" v="251819" />
	</node>
	<node lat="60.865478194082804" lon="6.791506492026563" id="-36058">
		<tag k="name" v="Solbjørgo" />
		<tag k="place" v="locality" />
		<tag k="ssr:stedsnr" v="251846" />
	</node>
	<node lat="60.9774583337701" lon="6.892424991072499" id="-36060">
		<tag k="historic" v="shieling" />
		<tag k="name" v="Løhaug" />
		<tag k="place" v="isolated_dwelling" />
		<tag k="ssr:stedsnr" v="251943" />
	</node>
	<node lat="60.849546206815866" lon="7.312017186438432" id="-36070">
		<tag k="historic" v="shieling" />
		<tag k="name" v="Grimsete" />
=======
	<node id="-674417" lat="60.8765397155" lon="7.33701250068">
		<tag k="fixme" v="consider place=hamlet" />
		<tag k="name" v="Veim" />
		<tag k="place" v="farm" />
		<tag k="ssr:stedsnr" v="372116" />
	</node>
	<node id="-674199" lat="60.966202778" lon="7.05873055409">
		<tag k="name" v="Fjellstølen" />
		<tag k="place" v="locality" />
		<tag k="ssr:stedsnr" v="251266" />
	</node>
	<node id="-674696" lat="60.8537888907" lon="7.30873611812">
		<tag k="name" v="Kolbakk" />
		<tag k="place" v="locality" />
		<tag k="ssr:stedsnr" v="696447" />
	</node>
	<node id="-676231" lat="60.9045472231" lon="7.19763055179">
		<tag k="amenity" v="nursing_home" />
		<tag k="name" v="Gamleheimen" />
		<tag k="ssr:stedsnr" v="574420" />
	</node>
	<node id="-674694" lat="60.8987333349" lon="7.21190555514">
		<tag k="name" v="Nyheim" />
		<tag k="place" v="farm" />
		<tag k="ssr:stedsnr" v="696466" />
	</node>
	<node id="-675205" lat="60.9009138853" lon="7.23108888535">
		<tag k="historic" v="shieling" />
		<tag k="name" v="Galden" />
		<tag k="place" v="locality" />
		<tag k="ssr:stedsnr" v="858069" />
	</node>
	<node id="-675202" lat="60.8016277807" lon="6.99738889743">
		<tag k="name" v="Skubbesete" />
		<tag k="place" v="locality" />
		<tag k="ssr:stedsnr" v="858053" />
	</node>
	<node id="-675713" lat="60.8430944474" lon="7.50665277919">
		<tag k="name" v="Herdølestølen" />
		<tag k="place" v="locality" />
		<tag k="ssr:stedsnr" v="190382" />
	</node>
	<node id="-676245" lat="60.7913138879" lon="7.11199166894">
		<tag k="name" v="Hellerengi" />
		<tag k="place" v="locality" />
		<tag k="ssr:stedsnr" v="574976" />
	</node>
	<node id="-675707" lat="60.8306111113" lon="7.49673612004">
		<tag k="name" v="Viki" />
>>>>>>> e1d4bc35ff8a6074a6f2e91616a996b547c36f15
		<tag k="place" v="isolated_dwelling" />
		<tag k="ssr:stedsnr" v="129004" />
	</node>
<<<<<<< HEAD
	<node lat="60.950088892567436" lon="7.101852782549978" id="-36086">
		<tag k="fixme" v="consider place=hamlet" />
		<tag k="name" v="Undredal" />
		<tag k="place" v="village" />
		<tag k="ssr:stedsnr" v="130108" />
	</node>
	<node lat="60.899866665230704" lon="7.392283339081629" id="-36088">
		<tag k="name" v="Kleåvellene" />
=======
	<node id="-675705" lat="60.820505556" lon="7.56123332431">
		<tag k="name" v="Nosi" />
>>>>>>> e1d4bc35ff8a6074a6f2e91616a996b547c36f15
		<tag k="place" v="locality" />
		<tag k="ssr:stedsnr" v="130372" />
	</node>
<<<<<<< HEAD
	<node lat="60.77920558176123" lon="7.580758269898647" id="-36100">
		<tag k="fixme" v="consider tourism=alpine_hut or tourism=chalet" />
		<tag k="name" v="Steinbergdalshytta" />
		<tag k="ssr:stedsnr" v="145115" />
		<tag k="tourism" v="wilderness_hut" />
	</node>
	<node lat="60.81883210473132" lon="7.026660065520154" id="-36136">
=======
	<node id="-675704" lat="60.9750222194" lon="7.22894443955">
>>>>>>> e1d4bc35ff8a6074a6f2e91616a996b547c36f15
		<tag k="historic" v="shieling" />
		<tag k="name" v="Svarven" />
		<tag k="place" v="isolated_dwelling" />
		<tag k="ssr:stedsnr" v="190024" />
	</node>
<<<<<<< HEAD
	<node lat="60.90339332341812" lon="7.188779315384271" id="-36138">
=======
	<node id="-675476" lat="60.8818898372" lon="6.84981049427">
		<tag k="fixme" v="consider place=hamlet" />
		<tag k="name" v="Ramsøy" />
		<tag k="place" v="farm" />
		<tag k="ssr:stedsnr" v="69849" />
	</node>
	<node id="-674166" lat="60.868095062" lon="7.39468156647">
>>>>>>> e1d4bc35ff8a6074a6f2e91616a996b547c36f15
		<tag k="fixme" v="consider place=hamlet" />
		<tag k="name" v="Onstad" />
		<tag k="place" v="farm" />
		<tag k="ssr:stedsnr" v="190077" />
	</node>
<<<<<<< HEAD
	<node lat="60.91788889272606" lon="7.195797219179702" id="-36140">
		<tag k="name" v="Klokkargarden" />
=======
	<node id="-675701" lat="60.9209722216" lon="7.1979833288">
		<tag k="name" v="Voni" />
>>>>>>> e1d4bc35ff8a6074a6f2e91616a996b547c36f15
		<tag k="place" v="farm" />
		<tag k="ssr:stedsnr" v="190170" />
	</node>
<<<<<<< HEAD
	<node lat="60.92097222161134" lon="7.1979833288047335" id="-36141">
		<tag k="name" v="Voni" />
=======
	<node id="-676212" lat="60.8175638892" lon="7.12463610999">
		<tag k="name" v="Nedrebø" />
>>>>>>> e1d4bc35ff8a6074a6f2e91616a996b547c36f15
		<tag k="place" v="farm" />
		<tag k="ssr:stedsnr" v="190171" />
	</node>
<<<<<<< HEAD
	<node lat="60.86809506204702" lon="7.394681566471219" id="-36158">
=======
	<node id="-675219" lat="60.8197277746" lon="6.95399444034">
		<tag k="historic" v="shieling" />
		<tag k="name" v="Soleifletene" />
		<tag k="place" v="locality" />
		<tag k="ssr:stedsnr" v="858803" />
	</node>
	<node id="-675696" lat="60.8568117161" lon="7.10629195609">
		<tag k="alt_name" v="Nedre Brekke;Øvre Brekke" />
>>>>>>> e1d4bc35ff8a6074a6f2e91616a996b547c36f15
		<tag k="fixme" v="consider place=hamlet" />
		<tag k="name" v="Almen" />
		<tag k="place" v="farm" />
<<<<<<< HEAD
		<tag k="ssr:stedsnr" v="191305" />
	</node>
	<node lat="60.75254444188442" lon="7.457250008057513" id="-36170">
		<tag k="name" v="Mellomvasshytta" />
		<tag k="place" v="isolated_dwelling" />
		<tag k="ssr:stedsnr" v="267158" />
	</node>
	<node lat="60.858627781081275" lon="7.353808329022777" id="-36205">
		<tag k="name" v="Bjønnhiet" />
		<tag k="place" v="locality" />
		<tag k="ssr:stedsnr" v="211387" />
	</node>
	<node lat="60.84530555644219" lon="7.120230556707173" id="-36229">
		<tag k="name" v="Heimdal" />
=======
		<tag k="ssr:stedsnr" v="190128" />
	</node>
	<node id="-675695" lat="60.8571694409" lon="7.03963055858">
		<tag k="name" v="Øyestølen" />
		<tag k="place" v="locality" />
		<tag k="ssr:stedsnr" v="190123" />
	</node>
	<node id="-675694" lat="60.8743777748" lon="7.33685277388">
		<tag k="fixme" v="consider place=hamlet" />
		<tag k="name" v="Vassbygdi" />
		<tag k="place" v="village" />
		<tag k="ssr:stedsnr" v="190121" />
	</node>
	<node id="-675691" lat="60.9033933234" lon="7.18877931538">
		<tag k="fixme" v="consider place=hamlet" />
		<tag k="name" v="Onstad" />
>>>>>>> e1d4bc35ff8a6074a6f2e91616a996b547c36f15
		<tag k="place" v="farm" />
		<tag k="ssr:stedsnr" v="271092" />
	</node>
<<<<<<< HEAD
	<node lat="60.89796110985825" lon="7.168333334424398" id="-36267">
		<tag k="name" v="Nordli" />
		<tag k="place" v="farm" />
		<tag k="ssr:stedsnr" v="236704" />
	</node>
	<node lat="60.73557500147571" lon="7.199025005654909" id="-36275">
		<tag k="historic" v="shieling" />
		<tag k="name" v="Seltuft" />
		<tag k="place" v="isolated_dwelling" />
		<tag k="ssr:stedsnr" v="249121" />
	</node>
	<node lat="60.97421389350301" lon="7.116413895908086" id="-36283">
		<tag k="name" v="Storeteigen" />
		<tag k="place" v="locality" />
		<tag k="ssr:stedsnr" v="453143" />
	</node>
	<node lat="60.96144444371099" lon="7.203511104484469" id="-36303">
=======
	<node id="-675177" lat="60.9200916638" lon="7.15238889755">
>>>>>>> e1d4bc35ff8a6074a6f2e91616a996b547c36f15
		<tag k="historic" v="shieling" />
		<tag k="name" v="Bjørkehaug" />
		<tag k="place" v="isolated_dwelling" />
		<tag k="ssr:stedsnr" v="453935" />
	</node>
	<node lat="60.856058329378804" lon="7.355913889980857" id="-36311">
		<tag k="name" v="Allmenningane" />
		<tag k="place" v="locality" />
		<tag k="ssr:stedsnr" v="454391" />
	</node>
<<<<<<< HEAD
	<node lat="60.97205278082472" lon="7.063125002868443" id="-36340">
		<tag k="alt_name" v="Neste Stigen" />
		<tag k="name" v="Nedste Stigen" />
		<tag k="place" v="farm" />
		<tag k="ssr:stedsnr" v="272135" />
	</node>
	<node lat="60.903030559984394" lon="7.2007833317877425" id="-36347">
		<tag k="amenity" v="school" />
		<tag k="name" v="Sogn jord- og hagebruksskule" />
		<tag k="old_name" v="Sogn jord- og hagebruksskole" />
		<tag k="ssr:stedsnr" v="282071" />
	</node>
	<node lat="60.84478888869238" lon="7.360727778073641" id="-36359">
		<tag k="historic" v="shieling" />
		<tag k="name" v="Mjelkeberg" />
		<tag k="place" v="isolated_dwelling" />
		<tag k="ssr:stedsnr" v="311422" />
	</node>
	<node lat="60.89997500085453" lon="7.208699996637377" id="-36363">
		<tag k="name" v="Lunde" />
		<tag k="place" v="farm" />
		<tag k="ssr:stedsnr" v="312065" />
	</node>
	<node lat="60.9553908615498" lon="7.157911892760365" id="-36364">
		<tag k="historic" v="shieling" />
		<tag k="name" v="Fritilja" />
		<tag k="place" v="isolated_dwelling" />
		<tag k="ssr:stedsnr" v="312114" />
	</node>
	<node lat="60.97227777450059" lon="7.118397219120204" id="-36365">
=======
	<node id="-675686" lat="60.8199777753" lon="7.12514166244">
		<tag k="name" v="Botn" />
		<tag k="place" v="farm" />
		<tag k="ssr:stedsnr" v="190039" />
	</node>
	<node id="-675685" lat="60.8188321047" lon="7.02666006552">
		<tag k="historic" v="shieling" />
		<tag k="name" v="Svarven" />
		<tag k="place" v="locality" />
		<tag k="ssr:stedsnr" v="190024" />
	</node>
	<node id="-675575" lat="60.912477775" lon="7.12948611496">
		<tag k="name" v="Flenjane" />
		<tag k="place" v="locality" />
		<tag k="ssr:stedsnr" v="129199" />
	</node>
	<node id="-675167" lat="60.9514222211" lon="7.10291944344">
		<tag k="name" v="Garden" />
		<tag k="place" v="farm" />
		<tag k="ssr:stedsnr" v="939586" />
	</node>
	<node id="-676190" lat="60.9244187735" lon="6.867129373">
		<tag k="fixme" v="consider place=hamlet" />
		<tag k="name" v="Tufto" />
		<tag k="place" v="farm" />
		<tag k="ssr:stedsnr" v="554891" />
	</node>
	<node id="-674361" lat="60.96326389" lon="7.44934166298">
		<tag k="name" v="Norddalshelleren" />
		<tag k="place" v="isolated_dwelling" />
		<tag k="ssr:stedsnr" v="493473" />
	</node>
	<node id="-674645" lat="60.8258944446" lon="7.58252778636">
>>>>>>> e1d4bc35ff8a6074a6f2e91616a996b547c36f15
		<tag k="historic" v="shieling" />
		<tag k="name" v="Selbøane" />
		<tag k="place" v="isolated_dwelling" />
		<tag k="ssr:stedsnr" v="312216" />
	</node>
<<<<<<< HEAD
	<node lat="60.787411112560775" lon="7.568505556170097" id="-36369">
		<tag k="name" v="Nipa" />
=======
	<node id="-676179" lat="60.7953222207" lon="7.13249999402">
		<tag k="name" v="Raudasete" />
>>>>>>> e1d4bc35ff8a6074a6f2e91616a996b547c36f15
		<tag k="place" v="locality" />
		<tag k="ssr:stedsnr" v="312291" />
	</node>
<<<<<<< HEAD
	<node lat="60.9143416712733" lon="7.237572228942051" id="-36373">
		<tag k="historic" v="shieling" />
		<tag k="name" v="Glomsete" />
		<tag k="place" v="isolated_dwelling" />
		<tag k="ssr:stedsnr" v="312164" />
	</node>
	<node lat="60.90570555799765" lon="7.060400008395318" id="-36377">
		<tag k="historic" v="shieling" />
		<tag k="name" v="Langhuso" />
		<tag k="place" v="isolated_dwelling" />
		<tag k="ssr:stedsnr" v="312175" />
	</node>
	<node lat="60.893368663537444" lon="7.162265765164731" id="-36382">
		<tag k="fixme" v="consider place=hamlet" />
		<tag k="name" v="Kvitt" />
		<tag k="place" v="farm" />
		<tag k="ssr:stedsnr" v="323424" />
	</node>
	<node lat="60.83003268388058" lon="7.50020662083876" id="-36410">
		<tag k="fixme" v="consider place=hamlet" />
		<tag k="name" v="Urvik" />
		<tag k="place" v="farm" />
		<tag k="ssr:stedsnr" v="332500" />
	</node>
	<node lat="60.83213610729669" lon="7.498750008803519" id="-36411">
=======
	<node id="-675154" lat="60.93251389" lon="7.06635000504">
		<tag k="historic" v="shieling" />
		<tag k="name" v="Tvenningo" />
		<tag k="place" v="locality" />
		<tag k="ssr:stedsnr" v="939289" />
	</node>
	<node id="-676177" lat="60.8605206091" lon="7.40317833883">
		<tag k="fixme" v="consider place=hamlet" />
		<tag k="name" v="Teigen" />
		<tag k="place" v="farm" />
		<tag k="ssr:stedsnr" v="554341" />
	</node>
	<node id="-674640" lat="60.9233416673" lon="7.15202221507">
		<tag k="historic" v="shieling" />
		<tag k="name" v="Rognaldsstølen" />
		<tag k="place" v="locality" />
		<tag k="ssr:stedsnr" v="493173" />
	</node>
	<node id="-675663" lat="60.7827111113" lon="7.09411945049">
		<tag k="name" v="Vetlestølen" />
		<tag k="place" v="locality" />
		<tag k="ssr:stedsnr" v="150882" />
	</node>
	<node id="-676174" lat="60.7928500014" lon="7.49093334014">
		<tag k="historic" v="shieling" />
		<tag k="name" v="Håbergsholene" />
		<tag k="place" v="locality" />
		<tag k="ssr:stedsnr" v="554320" />
	</node>
	<node id="-674824" lat="60.7240888926" lon="7.00968055016">
		<tag k="historic" v="shieling" />
		<tag k="name" v="Uppsete" />
		<tag k="place" v="locality" />
		<tag k="ssr:stedsnr" v="735002" />
	</node>
	<node id="-676168" lat="60.9705499972" lon="7.13509166619">
>>>>>>> e1d4bc35ff8a6074a6f2e91616a996b547c36f15
		<tag k="historic" v="shieling" />
		<tag k="name" v="Vetlestølen" />
		<tag k="place" v="isolated_dwelling" />
		<tag k="ssr:stedsnr" v="332502" />
	</node>
<<<<<<< HEAD
	<node lat="60.96858888808266" lon="7.110280560364194" id="-36412">
		<tag k="name" v="Bortomteigane" />
		<tag k="place" v="locality" />
		<tag k="ssr:stedsnr" v="332559" />
	</node>
	<node lat="60.931202774702484" lon="7.1502999956661" id="-36424">
		<tag k="historic" v="shieling" />
		<tag k="name" v="Frangrovstølen" />
		<tag k="place" v="isolated_dwelling" />
		<tag k="ssr:stedsnr" v="332847" />
	</node>
	<node lat="60.915158334469695" lon="7.189533328490716" id="-36430">
		<tag k="name" v="Araldsnes" />
		<tag k="place" v="farm" />
		<tag k="ssr:stedsnr" v="478911" />
	</node>
	<node lat="60.88456388812812" lon="7.270924997461671" id="-36438">
		<tag k="alt_name" v="Stausete" />
		<tag k="historic" v="shieling" />
		<tag k="name" v="Stuasete" />
		<tag k="place" v="isolated_dwelling" />
		<tag k="ssr:stedsnr" v="372106" />
	</node>
	<node lat="60.8747676050124" lon="7.323704901264417" id="-36440">
		<tag k="fixme" v="consider place=hamlet" />
		<tag k="name" v="Øyo" />
		<tag k="place" v="farm" />
		<tag k="ssr:stedsnr" v="372115" />
	</node>
	<node lat="60.87653971551305" lon="7.3370125006827775" id="-36441">
		<tag k="fixme" v="consider place=hamlet" />
		<tag k="name" v="Veim" />
		<tag k="place" v="farm" />
		<tag k="ssr:stedsnr" v="372116" />
	</node>
	<node lat="60.93707777692904" lon="7.14517222831412" id="-36443">
		<tag k="name" v="Kamben" />
		<tag k="place" v="locality" />
		<tag k="ssr:stedsnr" v="372156" />
	</node>
	<node lat="60.96029041814879" lon="6.940053309790545" id="-36459">
=======
	<node id="-676166" lat="60.993511111" lon="7.08133611814">
		<tag k="name" v="Hortastølen" />
		<tag k="place" v="locality" />
		<tag k="ssr:stedsnr" v="554235" />
	</node>
	<node id="-674627" lat="60.9059999972" lon="7.3497138927">
		<tag k="name" v="Øyestølen" />
		<tag k="place" v="locality" />
		<tag k="ssr:stedsnr" v="676435" />
	</node>
	<node id="-674926" lat="60.938380554" lon="7.14482778535">
		<tag k="name" v="Holten" />
		<tag k="place" v="locality" />
		<tag k="ssr:stedsnr" v="675172" />
	</node>
	<node id="-676160" lat="60.8329444431" lon="7.49579444377">
		<tag k="name" v="Jono" />
		<tag k="place" v="locality" />
		<tag k="ssr:stedsnr" v="554367" />
	</node>
	<node id="-674528" lat="60.9740916689" lon="6.92524443534">
		<tag k="name" v="Svillateigene" />
		<tag k="place" v="locality" />
		<tag k="ssr:stedsnr" v="514773" />
	</node>
	<node id="-674838" lat="60.9495583314" lon="7.18399721409">
		<tag k="name" v="Bygningen" />
		<tag k="place" v="isolated_dwelling" />
		<tag k="ssr:stedsnr" v="736134" />
	</node>
	<node id="-674621" lat="60.924863889" lon="7.46565278021">
		<tag k="name" v="Spelefjellhytta" />
		<tag k="place" v="locality" />
		<tag k="ssr:stedsnr" v="676379" />
	</node>
	<node id="-676156" lat="60.9599194432" lon="7.20390832897">
		<tag k="name" v="Sel" />
		<tag k="place" v="locality" />
		<tag k="ssr:stedsnr" v="554139" />
	</node>
	<node id="-676490" lat="60.8836506244" lon="7.11733476741">
		<tag k="name" v="Frondal" />
		<tag k="place" v="locality" />
		<tag k="ssr:stedsnr" v="782654" />
	</node>
	<node id="-676153" lat="60.8830484639" lon="7.25195551802">
>>>>>>> e1d4bc35ff8a6074a6f2e91616a996b547c36f15
		<tag k="fixme" v="consider place=hamlet" />
		<tag k="name" v="Arnehus" />
		<tag k="place" v="farm" />
		<tag k="ssr:stedsnr" v="372920" />
	</node>
<<<<<<< HEAD
	<node lat="60.87772777388555" lon="6.837947214788639" id="-36461">
		<tag k="fixme" v="consider place=suburb, village or hamlet" />
		<tag k="name" v="Gudvangen" />
		<tag k="place" v="quarter" />
		<tag k="ssr:stedsnr" v="372857" />
	</node>
	<node lat="60.89906389225697" lon="7.1439333240933145" id="-36467">
		<tag k="name" v="Myri" />
		<tag k="place" v="locality" />
		<tag k="ssr:stedsnr" v="479693" />
	</node>
	<node lat="60.919576814783895" lon="7.196336726694508" id="-36484">
=======
	<node id="-676151" lat="60.8834555545" lon="7.21500833737">
		<tag k="historic" v="shieling" />
		<tag k="name" v="Hovden" />
		<tag k="place" v="locality" />
		<tag k="ssr:stedsnr" v="554085" />
	</node>
	<node id="-676415" lat="60.927180558" lon="6.86324165922">
		<tag k="name" v="Flåtane" />
		<tag k="place" v="locality" />
		<tag k="ssr:stedsnr" v="755986" />
	</node>
	<node id="-675977" lat="60.8291555575" lon="7.15944722659">
		<tag k="historic" v="shieling" />
		<tag k="name" v="Gudmedalen" />
		<tag k="place" v="locality" />
		<tag k="ssr:stedsnr" v="372035" />
	</node>
	<node id="-674612" lat="60.9077021834" lon="7.22721179349">
		<tag k="fixme" v="consider place=hamlet" />
		<tag k="name" v="Turli" />
		<tag k="place" v="farm" />
		<tag k="ssr:stedsnr" v="676179" />
	</node>
	<node id="-674611" lat="60.9112528268" lon="7.22548863635">
		<tag k="alt_name" v="Øvre Bjørgo;Nedre Bjørgo" />
>>>>>>> e1d4bc35ff8a6074a6f2e91616a996b547c36f15
		<tag k="fixme" v="consider place=hamlet" />
		<tag k="name" v="Kannikksteigen" />
		<tag k="place" v="farm" />
		<tag k="ssr:stedsnr" v="392410" />
	</node>
<<<<<<< HEAD
	<node lat="60.76909999956401" lon="7.103936119249249" id="-36490">
		<tag k="historic" v="shieling" />
		<tag k="name" v="Storaberget" />
		<tag k="place" v="isolated_dwelling" />
		<tag k="ssr:stedsnr" v="392596" />
	</node>
	<node lat="60.715874996843404" lon="7.241749997400327" id="-36510">
		<tag k="historic" v="shieling" />
		<tag k="name" v="Vindedalen" />
		<tag k="place" v="isolated_dwelling" />
		<tag k="ssr:stedsnr" v="432105" />
	</node>
	<node lat="60.857939627635645" lon="7.110749565380686" id="-36515">
		<tag k="fixme" v="consider place=hamlet" />
		<tag k="name" v="Flåm" />
		<tag k="place" v="village" />
		<tag k="ssr:stedsnr" v="433011" />
	</node>
	<node lat="60.84271720131064" lon="7.135194917468727" id="-36516">
=======
	<node id="-676658" lat="60.955993473" lon="7.14609885714">
		<tag k="historic" v="shieling" />
		<tag k="name" v="Lindedokki" />
		<tag k="place" v="locality" />
		<tag k="ssr:stedsnr" v="1075106" />
	</node>
	<node id="-674609" lat="60.9016888877" lon="7.01161945136">
		<tag k="name" v="Jonadalen" />
		<tag k="place" v="locality" />
		<tag k="ssr:stedsnr" v="676172" />
	</node>
	<node id="-674608" lat="60.835500882" lon="7.13939350627">
		<tag k="fixme" v="consider place=hamlet" />
		<tag k="name" v="Ryo" />
		<tag k="place" v="farm" />
		<tag k="ssr:stedsnr" v="676024" />
	</node>
	<node id="-675854" lat="60.9553908615" lon="7.15791189276">
		<tag k="historic" v="shieling" />
		<tag k="name" v="Fritilja" />
		<tag k="place" v="locality" />
		<tag k="ssr:stedsnr" v="312114" />
	</node>
	<node id="-676142" lat="60.8186847667" lon="7.13166743959">
>>>>>>> e1d4bc35ff8a6074a6f2e91616a996b547c36f15
		<tag k="fixme" v="consider place=hamlet" />
		<tag k="name" v="Indreli" />
		<tag k="place" v="farm" />
		<tag k="ssr:stedsnr" v="433014" />
	</node>
<<<<<<< HEAD
	<node lat="60.90291110714452" lon="7.225480562634183" id="-36521">
=======
	<node id="-674605" lat="60.8859833334" lon="7.31140833436">
>>>>>>> e1d4bc35ff8a6074a6f2e91616a996b547c36f15
		<tag k="historic" v="shieling" />
		<tag k="name" v="Berg" />
		<tag k="place" v="isolated_dwelling" />
		<tag k="ssr:stedsnr" v="433075" />
	</node>
<<<<<<< HEAD
	<node lat="60.90420000073063" lon="7.409858337490685" id="-36526">
		<tag k="historic" v="shieling" />
		<tag k="name" v="Fornastølen" />
		<tag k="place" v="isolated_dwelling" />
		<tag k="ssr:stedsnr" v="433408" />
	</node>
	<node lat="60.90918332933223" lon="7.384455547860187" id="-36527">
		<tag k="name" v="Breidagrø" />
		<tag k="place" v="locality" />
		<tag k="ssr:stedsnr" v="433410" />
	</node>
	<node lat="60.834380556144374" lon="7.417666667702778" id="-36545">
		<tag k="name" v="Flatane" />
		<tag k="place" v="locality" />
		<tag k="ssr:stedsnr" v="493362" />
	</node>
	<node lat="60.80564923727143" lon="7.104212560219258" id="-36550">
=======
	<node id="-674604" lat="60.8892888888" lon="7.28100833652">
		<tag k="historic" v="shieling" />
		<tag k="name" v="Fleningo" />
		<tag k="place" v="locality" />
		<tag k="ssr:stedsnr" v="676092" />
	</node>
	<node id="-676649" lat="60.7268524105" lon="7.01915064561">
		<tag k="fixme" v="consider tourism=alpine_hut or tourism=chalet" />
		<tag k="name" v="Upsete fjellstove" />
		<tag k="ssr:stedsnr" v="987818" />
		<tag k="tourism" v="wilderness_hut" />
	</node>
	<node id="-674087" lat="60.8453055564" lon="7.12023055671">
		<tag k="name" v="Heimdal" />
		<tag k="place" v="farm" />
		<tag k="ssr:stedsnr" v="271092" />
	</node>
	<node id="-676646" lat="60.9747137824" lon="7.11311414146">
		<tag k="name" v="Kappadalen" />
		<tag k="place" v="locality" />
		<tag k="ssr:stedsnr" v="979454" />
	</node>
	<node id="-676645" lat="60.9504191185" lon="7.10265101238">
		<tag k="fixme" v="consider place=hamlet" />
		<tag k="name" v="Undredal" />
		<tag k="place" v="farm" />
		<tag k="ssr:stedsnr" v="979452" />
	</node>
	<node id="-676644" lat="60.8398222941" lon="7.11998230688">
>>>>>>> e1d4bc35ff8a6074a6f2e91616a996b547c36f15
		<tag k="fixme" v="consider place=hamlet" />
		<tag k="name" v="Vidme" />
		<tag k="place" v="farm" />
		<tag k="ssr:stedsnr" v="494054" />
	</node>
<<<<<<< HEAD
	<node lat="60.91220833123091" lon="7.587863895058133" id="-36568">
		<tag k="name" v="Fredlaushytta" />
		<tag k="place" v="locality" />
		<tag k="ssr:stedsnr" v="494396" />
	</node>
	<node lat="60.9081916623737" lon="7.460555555070058" id="-36571">
		<tag k="name" v="Rustavadet" />
=======
	<node id="-676643" lat="60.9061124459" lon="7.18672257069">
		<tag k="name" v="Vangen" />
		<tag k="place" v="locality" />
		<tag k="ssr:stedsnr" v="979446" />
	</node>
	<node id="-675618" lat="60.776386109" lon="7.57693333602">
		<tag k="fixme" v="consider tourism=alpine_hut or tourism=chalet" />
		<tag k="name" v="Steinbergdalshytta" />
		<tag k="ssr:stedsnr" v="145115" />
		<tag k="tourism" v="wilderness_hut" />
	</node>
	<node id="-675105" lat="60.8976916661" lon="7.17721110881">
		<tag k="name" v="Oppheim" />
>>>>>>> e1d4bc35ff8a6074a6f2e91616a996b547c36f15
		<tag k="place" v="locality" />
		<tag k="ssr:stedsnr" v="494400" />
	</node>
<<<<<<< HEAD
	<node lat="60.919827776461375" lon="7.238630557786164" id="-36598">
=======
	<node id="-674592" lat="60.9198277765" lon="7.23863055779">
>>>>>>> e1d4bc35ff8a6074a6f2e91616a996b547c36f15
		<tag k="historic" v="shieling" />
		<tag k="name" v="Bjørgaseli" />
		<tag k="place" v="isolated_dwelling" />
		<tag k="ssr:stedsnr" v="454806" />
	</node>
<<<<<<< HEAD
	<node lat="60.93838055400503" lon="7.14482778534888" id="-36606">
		<tag k="name" v="Holten" />
=======
	<node id="-676126" lat="61.0150833305" lon="7.33188056275">
		<tag k="historic" v="shieling" />
		<tag k="name" v="Skålane" />
		<tag k="place" v="locality" />
		<tag k="ssr:stedsnr" v="434361" />
	</node>
	<node id="-675100" lat="60.7495861114" lon="7.10975555844">
		<tag k="name" v="Kårdalshagen" />
>>>>>>> e1d4bc35ff8a6074a6f2e91616a996b547c36f15
		<tag k="place" v="locality" />
		<tag k="ssr:stedsnr" v="675172" />
	</node>
<<<<<<< HEAD
	<node lat="60.86457021696797" lon="7.406780912984929" id="-36611">
		<tag k="alt_name" v="Sinjareim" />
		<tag k="fixme" v="consider place=hamlet" />
		<tag k="name" v="Sinjarheim" />
		<tag k="place" v="farm" />
		<tag k="ssr:stedsnr" v="676343" />
	</node>
	<node lat="60.91646716621818" lon="6.8685100293521" id="-36612">
		<tag k="fixme" v="consider place=hamlet" />
		<tag k="name" v="Bakka" />
		<tag k="place" v="farm" />
		<tag k="ssr:stedsnr" v="675859" />
	</node>
	<node lat="60.83550088201179" lon="7.139393506274698" id="-36614">
		<tag k="fixme" v="consider place=hamlet" />
		<tag k="name" v="Ryo" />
		<tag k="place" v="farm" />
		<tag k="ssr:stedsnr" v="676024" />
	</node>
	<node lat="60.891449996913565" lon="7.1144611151795205" id="-36616">
		<tag k="alt_name" v="Toristølen" />
		<tag k="name" v="Torisstølen" />
=======
	<node id="-676123" lat="60.8944972206" lon="7.18321943533">
		<tag k="historic" v="shieling" />
		<tag k="name" v="Sele" />
		<tag k="place" v="locality" />
		<tag k="ssr:stedsnr" v="434064" />
	</node>
	<node id="-676122" lat="60.8788638914" lon="7.4303694438">
		<tag k="name" v="Smørkoven" />
		<tag k="place" v="locality" />
		<tag k="ssr:stedsnr" v="434290" />
	</node>
	<node id="-674073" lat="60.7525444419" lon="7.45725000806">
		<tag k="name" v="Mellomvasshytta" />
		<tag k="place" v="isolated_dwelling" />
		<tag k="ssr:stedsnr" v="267158" />
	</node>
	<node id="-674584" lat="60.9614444437" lon="7.20351110448">
		<tag k="historic" v="shieling" />
		<tag k="name" v="Bjørkehaug" />
>>>>>>> e1d4bc35ff8a6074a6f2e91616a996b547c36f15
		<tag k="place" v="locality" />
		<tag k="ssr:stedsnr" v="676073" />
	</node>
<<<<<<< HEAD
	<node lat="60.90168888769322" lon="7.011619451361912" id="-36623">
		<tag k="name" v="Jonadalen" />
=======
	<node id="-675607" lat="60.8998666652" lon="7.39228333908">
		<tag k="name" v="Kleåvellene" />
>>>>>>> e1d4bc35ff8a6074a6f2e91616a996b547c36f15
		<tag k="place" v="locality" />
		<tag k="ssr:stedsnr" v="676172" />
	</node>
<<<<<<< HEAD
	<node lat="60.9112528267957" lon="7.225488636347625" id="-36625">
		<tag k="alt_name" v="Øvre Bjørgo;Nedre Bjørgo" />
		<tag k="fixme" v="consider place=hamlet" />
		<tag k="name" v="Bjørgo" />
		<tag k="place" v="farm" />
		<tag k="ssr:stedsnr" v="676178" />
	</node>
	<node lat="60.907702183429016" lon="7.2272117934937885" id="-36626">
		<tag k="fixme" v="consider place=hamlet" />
		<tag k="name" v="Turli" />
		<tag k="place" v="farm" />
		<tag k="ssr:stedsnr" v="676179" />
	</node>
	<node lat="60.91229444626514" lon="7.3500138908937505" id="-36631">
		<tag k="alt_name" v="Furedalen, vetle" />
		<tag k="name" v="Vetle Furedalen" />
=======
	<node id="-675606" lat="60.7601583318" lon="7.21188054842">
		<tag k="historic" v="shieling" />
		<tag k="name" v="Fretheimsdalen" />
		<tag k="place" v="locality" />
		<tag k="ssr:stedsnr" v="130458" />
	</node>
	<node id="-675605" lat="60.7514722207" lon="7.15083332754">
		<tag k="historic" v="shieling" />
		<tag k="name" v="Reinunga" />
		<tag k="place" v="locality" />
		<tag k="ssr:stedsnr" v="130454" />
	</node>
	<node id="-676628" lat="60.7926638896" lon="6.96323612012">
		<tag k="historic" v="shieling" />
		<tag k="name" v="Tørva" />
>>>>>>> e1d4bc35ff8a6074a6f2e91616a996b547c36f15
		<tag k="place" v="locality" />
		<tag k="ssr:stedsnr" v="676374" />
	</node>
<<<<<<< HEAD
	<node lat="60.92486388904672" lon="7.465652780206512" id="-36633">
		<tag k="name" v="Spelefjellhytta" />
=======
	<node id="-676626" lat="60.9049333367" lon="7.41350833959">
		<tag k="historic" v="shieling" />
		<tag k="name" v="Kleå" />
>>>>>>> e1d4bc35ff8a6074a6f2e91616a996b547c36f15
		<tag k="place" v="locality" />
		<tag k="ssr:stedsnr" v="676379" />
	</node>
<<<<<<< HEAD
	<node lat="60.94173142488133" lon="6.936057938504252" id="-36642">
=======
	<node id="-676113" lat="60.896118009" lon="7.34955068768">
>>>>>>> e1d4bc35ff8a6074a6f2e91616a996b547c36f15
		<tag k="fixme" v="consider place=hamlet" />
		<tag k="name" v="Styvi" />
		<tag k="place" v="farm" />
		<tag k="ssr:stedsnr" v="676865" />
	</node>
<<<<<<< HEAD
	<node lat="60.87473124368364" lon="7.3409637007497555" id="-36655">
		<tag k="fixme" v="consider place=hamlet" />
		<tag k="name" v="Belle" />
		<tag k="place" v="farm" />
		<tag k="ssr:stedsnr" v="493116" />
	</node>
	<node lat="60.85224999591744" lon="7.082052784747843" id="-36658">
		<tag k="name" v="Ljosdalen" />
		<tag k="place" v="locality" />
		<tag k="ssr:stedsnr" v="493127" />
	</node>
	<node lat="60.91956173878089" lon="7.202461183884105" id="-36659">
		<tag k="fixme" v="consider place=hamlet" />
		<tag k="name" v="Kvam" />
		<tag k="place" v="farm" />
		<tag k="ssr:stedsnr" v="493168" />
	</node>
	<node lat="60.92334166727488" lon="7.15202221507257" id="-36660">
		<tag k="historic" v="shieling" />
		<tag k="name" v="Rognaldsstølen" />
=======
	<node id="-675088" lat="60.9153027812" lon="7.14486944632">
		<tag k="name" v="Kvitaberg" />
		<tag k="place" v="locality" />
		<tag k="ssr:stedsnr" v="797184" />
	</node>
	<node id="-674063" lat="60.8124694413" lon="7.10511667192">
		<tag k="historic" v="shieling" />
		<tag k="name" v="Vetlestølen" />
		<tag k="place" v="locality" />
		<tag k="ssr:stedsnr" v="129055" />
	</node>
	<node id="-674574" lat="60.9335361132" lon="7.08604166885">
		<tag k="historic" v="shieling" />
		<tag k="name" v="Hjølla" />
		<tag k="place" v="locality" />
		<tag k="ssr:stedsnr" v="736157" />
	</node>
	<node id="-676109" lat="60.8227583353" lon="7.43205278073">
		<tag k="name" v="Berdalen" />
>>>>>>> e1d4bc35ff8a6074a6f2e91616a996b547c36f15
		<tag k="place" v="isolated_dwelling" />
		<tag k="ssr:stedsnr" v="493173" />
	</node>
<<<<<<< HEAD
	<node lat="60.924631962890544" lon="7.198913267848567" id="-36661">
		<tag k="fixme" v="consider place=hamlet" />
		<tag k="name" v="Høydalen" />
		<tag k="place" v="farm" />
		<tag k="ssr:stedsnr" v="493178" />
	</node>
	<node lat="60.95874167007945" lon="7.482230549313892" id="-36664">
		<tag k="name" v="Gjetarhyttene" />
		<tag k="place" v="locality" />
		<tag k="ssr:stedsnr" v="493468" />
	</node>
	<node lat="60.96326389002287" lon="7.4493416629841365" id="-36665">
		<tag k="name" v="Norddalshelleren" />
		<tag k="place" v="isolated_dwelling" />
		<tag k="ssr:stedsnr" v="493473" />
	</node>
	<node lat="60.98029722069607" lon="6.876138889373094" id="-36667">
		<tag k="name" v="Hjølmo" />
		<tag k="place" v="isolated_dwelling" />
		<tag k="ssr:stedsnr" v="493930" />
	</node>
	<node lat="60.89294418770161" lon="7.226649873842169" id="-36676">
		<tag k="fixme" v="consider place=hamlet" />
		<tag k="name" v="Tokvam" />
		<tag k="place" v="farm" />
		<tag k="ssr:stedsnr" v="494084" />
	</node>
	<node lat="60.89213611214099" lon="7.19382500087727" id="-36677">
		<tag k="historic" v="shieling" />
		<tag k="name" v="Hovdungo" />
		<tag k="place" v="isolated_dwelling" />
		<tag k="ssr:stedsnr" v="494085" />
	</node>
	<node lat="60.898133330517595" lon="7.214683328648941" id="-36678">
		<tag k="name" v="Fossheim" />
		<tag k="place" v="farm" />
		<tag k="ssr:stedsnr" v="494088" />
	</node>
	<node lat="60.91141666649515" lon="7.454547215967692" id="-36685">
		<tag k="name" v="Rusti" />
=======
	<node id="-675896" lat="60.9633972202" lon="6.86213333381">
		<tag k="historic" v="shieling" />
		<tag k="name" v="Vassete" />
		<tag k="place" v="locality" />
		<tag k="ssr:stedsnr" v="312901" />
	</node>
	<node id="-674873" lat="60.8900083361" lon="7.33789721555">
		<tag k="name" v="Geitheim" />
		<tag k="place" v="locality" />
		<tag k="ssr:stedsnr" v="878337" />
	</node>
	<node id="-675081" lat="60.934213885" lon="7.08563056332">
		<tag k="historic" v="shieling" />
		<tag k="name" v="Melhus" />
		<tag k="place" v="locality" />
		<tag k="ssr:stedsnr" v="797154" />
	</node>
	<node id="-675592" lat="60.9036916698" lon="7.19700556447">
		<tag k="amenity" v="sports_centre" />
		<tag k="name" v="Hopen" />
		<tag k="ssr:stedsnr" v="130053" />
	</node>
	<node id="-676615" lat="60.8690583369" lon="7.40834443995">
		<tag k="name" v="Orrasete" />
		<tag k="place" v="locality" />
		<tag k="ssr:stedsnr" v="858345" />
	</node>
	<node id="-675201" lat="60.823888887" lon="7.08082500887">
		<tag k="name" v="Kringle" />
		<tag k="place" v="locality" />
		<tag k="ssr:stedsnr" v="858019" />
	</node>
	<node id="-674958" lat="60.8950527761" lon="7.57726666739">
		<tag k="name" v="Hellenuthytta" />
		<tag k="place" v="isolated_dwelling" />
		<tag k="ssr:stedsnr" v="676419" />
	</node>
	<node id="-674562" lat="60.9091833293" lon="7.38445554786">
		<tag k="name" v="Breidagrø" />
		<tag k="place" v="locality" />
		<tag k="ssr:stedsnr" v="433410" />
	</node>
	<node id="-674561" lat="60.9042000007" lon="7.40985833749">
		<tag k="historic" v="shieling" />
		<tag k="name" v="Fornastølen" />
>>>>>>> e1d4bc35ff8a6074a6f2e91616a996b547c36f15
		<tag k="place" v="locality" />
		<tag k="ssr:stedsnr" v="494402" />
	</node>
<<<<<<< HEAD
	<node lat="60.91575555915169" lon="7.581138881990979" id="-36686">
		<tag k="name" v="Kvalrygghytta" />
		<tag k="place" v="isolated_dwelling" />
		<tag k="ssr:stedsnr" v="494413" />
	</node>
	<node lat="60.85913168075491" lon="6.802400348027412" id="-36687">
		<tag k="fixme" v="consider place=hamlet" />
		<tag k="name" v="Skjerpi" />
		<tag k="place" v="farm" />
		<tag k="ssr:stedsnr" v="494802" />
	</node>
	<node lat="60.75074722513411" lon="7.1082722309962625" id="-36696">
=======
	<node id="-675486" lat="60.970308336" lon="7.11896111312">
		<tag k="historic" v="shieling" />
		<tag k="name" v="Kappadalsstølen" />
		<tag k="place" v="locality" />
		<tag k="ssr:stedsnr" v="81451" />
	</node>
	<node id="-675069" lat="60.7416527773" lon="7.09353610894">
		<tag k="alt_name" v="Uvgjesdalen" />
>>>>>>> e1d4bc35ff8a6074a6f2e91616a996b547c36f15
		<tag k="historic" v="shieling" />
		<tag k="name" v="Fellesstøl" />
		<tag k="place" v="isolated_dwelling" />
		<tag k="ssr:stedsnr" v="514010" />
	</node>
<<<<<<< HEAD
	<node lat="60.900766665518525" lon="7.228986104210448" id="-36700">
		<tag k="historic" v="shieling" />
		<tag k="name" v="Fossheimsberg" />
		<tag k="place" v="isolated_dwelling" />
		<tag k="ssr:stedsnr" v="514179" />
	</node>
	<node lat="60.966291669620425" lon="7.206733330947408" id="-36715">
		<tag k="historic" v="shieling" />
		<tag k="name" v="Fremste nystølen" />
		<tag k="place" v="isolated_dwelling" />
		<tag k="ssr:stedsnr" v="514927" />
	</node>
	<node lat="60.85855434381562" lon="7.117087819148747" id="-36726">
=======
	<node id="-676603" lat="60.8847527748" lon="7.11393332751">
		<tag k="historic" v="shieling" />
		<tag k="name" v="Vetlestølen" />
		<tag k="place" v="locality" />
		<tag k="ssr:stedsnr" v="858085" />
	</node>
	<node id="-676602" lat="60.8942677455" lon="7.17231858317">
>>>>>>> e1d4bc35ff8a6074a6f2e91616a996b547c36f15
		<tag k="fixme" v="consider place=hamlet" />
		<tag k="name" v="Fretheim" />
		<tag k="place" v="farm" />
		<tag k="ssr:stedsnr" v="554124" />
	</node>
<<<<<<< HEAD
	<node lat="60.9599194432398" lon="7.203908328972126" id="-36727">
		<tag k="name" v="Sel" />
		<tag k="place" v="locality" />
		<tag k="ssr:stedsnr" v="554139" />
	</node>
	<node lat="60.81868476670967" lon="7.131667439585729" id="-36729">
=======
	<node id="-675349" lat="60.8618944468" lon="7.1123388969">
		<tag k="alt_name" v="Fretheim" />
		<tag k="name" v="Fretheim turisthotell" />
		<tag k="old_name" v="Freteim" />
		<tag k="ssr:stedsnr" v="25044" />
		<tag k="tourism" v="hotel" />
	</node>
	<node id="-676087" lat="60.8136138907" lon="7.1395055608">
		<tag k="historic" v="shieling" />
		<tag k="name" v="Kleistdalen" />
		<tag k="place" v="locality" />
		<tag k="ssr:stedsnr" v="433058" />
	</node>
	<node id="-674550" lat="60.8579396276" lon="7.11074956538">
>>>>>>> e1d4bc35ff8a6074a6f2e91616a996b547c36f15
		<tag k="fixme" v="consider place=hamlet" />
		<tag k="name" v="Holo" />
		<tag k="place" v="farm" />
		<tag k="ssr:stedsnr" v="554026" />
	</node>
<<<<<<< HEAD
	<node lat="60.79285000142968" lon="7.49093334014396" id="-36732">
=======
	<node id="-674071" lat="60.9500888926" lon="7.10185278255">
		<tag k="fixme" v="consider place=hamlet" />
		<tag k="name" v="Undredal" />
		<tag k="place" v="village" />
		<tag k="ssr:stedsnr" v="130108" />
	</node>
	<node id="-674446" lat="60.9602904181" lon="6.94005330979">
		<tag k="fixme" v="consider place=hamlet" />
		<tag k="name" v="Arnehus" />
		<tag k="place" v="farm" />
		<tag k="ssr:stedsnr" v="372920" />
	</node>
	<node id="-674034" lat="60.9774583338" lon="6.89242499107">
>>>>>>> e1d4bc35ff8a6074a6f2e91616a996b547c36f15
		<tag k="historic" v="shieling" />
		<tag k="name" v="Håbergsholene" />
		<tag k="place" v="isolated_dwelling" />
		<tag k="ssr:stedsnr" v="554320" />
	</node>
<<<<<<< HEAD
	<node lat="60.993511111032156" lon="7.081336118138715" id="-36738">
		<tag k="name" v="Hortastølen" />
=======
	<node id="-675056" lat="61.0081138873" lon="7.13684721361">
		<tag k="historic" v="shieling" />
		<tag k="name" v="Kolaren" />
>>>>>>> e1d4bc35ff8a6074a6f2e91616a996b547c36f15
		<tag k="place" v="locality" />
		<tag k="ssr:stedsnr" v="554235" />
	</node>
<<<<<<< HEAD
	<node lat="60.79532222065659" lon="7.1324999940169995" id="-36745">
		<tag k="name" v="Raudasete" />
		<tag k="place" v="locality" />
		<tag k="ssr:stedsnr" v="554481" />
	</node>
	<node lat="60.81756388921951" lon="7.124636109993251" id="-36761">
		<tag k="name" v="Nedrebø" />
		<tag k="place" v="farm" />
		<tag k="ssr:stedsnr" v="574030" />
	</node>
	<node lat="60.85378889068306" lon="7.3087361181244415" id="-36806">
		<tag k="name" v="Kolbakk" />
=======
	<node id="-675055" lat="60.9236027814" lon="7.41514443629">
		<tag k="historic" v="shieling" />
		<tag k="name" v="Norddalen" />
		<tag k="place" v="locality" />
		<tag k="ssr:stedsnr" v="919381" />
	</node>
	<node id="-675453" lat="60.9721750002" lon="7.20508333241">
		<tag k="name" v="Fjellstølen" />
		<tag k="place" v="locality" />
		<tag k="ssr:stedsnr" v="69226" />
	</node>
	<node id="-674027" lat="60.8654781941" lon="6.79150649203">
		<tag k="name" v="Solbjørgo" />
>>>>>>> e1d4bc35ff8a6074a6f2e91616a996b547c36f15
		<tag k="place" v="locality" />
		<tag k="ssr:stedsnr" v="696447" />
	</node>
<<<<<<< HEAD
	<node lat="60.97312500275735" lon="7.213555563305785" id="-36825">
		<tag k="historic" v="shieling" />
		<tag k="name" v="Myri" />
		<tag k="place" v="isolated_dwelling" />
		<tag k="ssr:stedsnr" v="696955" />
	</node>
	<node lat="60.8559416642642" lon="7.088291664201445" id="-36827">
		<tag k="name" v="Nylendmarki" />
=======
	<node id="-674025" lat="60.9318083348" lon="7.08522221722">
		<tag k="historic" v="shieling" />
		<tag k="name" v="Melhus" />
		<tag k="place" v="locality" />
		<tag k="ssr:stedsnr" v="251819" />
	</node>
	<node id="-676014" lat="60.777302782" lon="7.70143054956">
		<tag k="fixme" v="consider tourism=alpine_hut or tourism=chalet" />
		<tag k="name" v="Kongshelleren" />
		<tag k="ssr:stedsnr" v="373274" />
		<tag k="tourism" v="wilderness_hut" />
	</node>
	<node id="-675043" lat="60.8800777761" lon="7.09381388313">
		<tag k="historic" v="shieling" />
		<tag k="name" v="Håvasete" />
>>>>>>> e1d4bc35ff8a6074a6f2e91616a996b547c36f15
		<tag k="place" v="locality" />
		<tag k="ssr:stedsnr" v="696894" />
	</node>
<<<<<<< HEAD
	<node lat="60.90755555427094" lon="6.901597218046227" id="-36837">
		<tag k="name" v="Nisedalen" />
		<tag k="place" v="isolated_dwelling" />
		<tag k="ssr:stedsnr" v="614859" />
	</node>
	<node lat="60.835894448714555" lon="7.100972219822139" id="-36838">
		<tag k="historic" v="shieling" />
		<tag k="name" v="Ljoren" />
=======
	<node id="-674568" lat="60.927038887" lon="7.12591944535">
		<tag k="name" v="Dimma" />
		<tag k="place" v="locality" />
		<tag k="ssr:stedsnr" v="736148" />
	</node>
	<node id="-675040" lat="60.8327917315" lon="7.47669473653">
		<tag k="fixme" v="consider place=hamlet" />
		<tag k="name" v="Nesbø" />
		<tag k="place" v="farm" />
		<tag k="ssr:stedsnr" v="919340" />
	</node>
	<node id="-675246" lat="60.8986805514" lon="7.14355000563">
		<tag k="name" v="Høydøla" />
		<tag k="place" v="locality" />
		<tag k="ssr:stedsnr" v="919064" />
	</node>
	<node id="-674343" lat="60.8747312437" lon="7.34096370075">
		<tag k="fixme" v="consider place=hamlet" />
		<tag k="name" v="Belle" />
		<tag k="place" v="farm" />
		<tag k="ssr:stedsnr" v="493116" />
	</node>
	<node id="-675037" lat="60.9675155341" lon="7.0764444574">
		<tag k="alt_name" v="Stokko øydegard" />
		<tag k="fixme" v="consider place=hamlet" />
		<tag k="name" v="Stokko" />
		<tag k="place" v="farm" />
		<tag k="ssr:stedsnr" v="919240" />
	</node>
	<node id="-676572" lat="60.8803833333" lon="7.26948611436">
		<tag k="name" v="Sagi" />
>>>>>>> e1d4bc35ff8a6074a6f2e91616a996b547c36f15
		<tag k="place" v="isolated_dwelling" />
		<tag k="ssr:stedsnr" v="615014" />
	</node>
<<<<<<< HEAD
	<node lat="60.845122221431865" lon="7.327752771219617" id="-36840">
		<tag k="historic" v="shieling" />
		<tag k="name" v="Grind" />
		<tag k="place" v="isolated_dwelling" />
		<tag k="ssr:stedsnr" v="615021" />
	</node>
	<node lat="60.97693090534009" lon="6.899674217096148" id="-36841">
		<tag k="fixme" v="consider place=hamlet" />
		<tag k="name" v="Drægo" />
		<tag k="place" v="farm" />
		<tag k="ssr:stedsnr" v="614919" />
	</node>
	<node lat="60.973388885786434" lon="7.172530559876243" id="-36842">
		<tag k="alt_name" v="Brekkasete" />
		<tag k="name" v="Brekasete" />
=======
	<node id="-675545" lat="60.8919527749" lon="7.34578610885">
		<tag k="name" v="Brauti" />
		<tag k="place" v="locality" />
		<tag k="ssr:stedsnr" v="90272" />
	</node>
	<node id="-674008" lat="60.8699749999" lon="7.40598055858">
		<tag k="historic" v="shieling" />
		<tag k="name" v="Grov" />
		<tag k="place" v="locality" />
		<tag k="ssr:stedsnr" v="251369" />
	</node>
	<node id="-674007" lat="60.865141667" lon="7.360386102">
		<tag k="name" v="Øygarden" />
>>>>>>> e1d4bc35ff8a6074a6f2e91616a996b547c36f15
		<tag k="place" v="locality" />
		<tag k="ssr:stedsnr" v="615205" />
	</node>
<<<<<<< HEAD
	<node lat="60.96396666427118" lon="7.205011114145931" id="-36843">
		<tag k="alt_name" v="Vassbrusletti" />
		<tag k="historic" v="shieling" />
		<tag k="name" v="Vassbrusletta" />
		<tag k="place" v="isolated_dwelling" />
		<tag k="ssr:stedsnr" v="615219" />
	</node>
	<node lat="60.89831666982496" lon="7.373780561953677" id="-36850">
		<tag k="alt_name" v="Svoldalen" />
=======
	<node id="-676052" lat="60.7690999996" lon="7.10393611925">
>>>>>>> e1d4bc35ff8a6074a6f2e91616a996b547c36f15
		<tag k="historic" v="shieling" />
		<tag k="name" v="Svoledalen" />
		<tag k="place" v="isolated_dwelling" />
		<tag k="ssr:stedsnr" v="615408" />
	</node>
<<<<<<< HEAD
	<node lat="61.03163053479381" lon="7.044552118445673" id="-36863">
		<tag k="fixme" v="consider place=hamlet" />
		<tag k="name" v="Breisnes" />
		<tag k="place" v="farm" />
		<tag k="ssr:stedsnr" v="615397" />
	</node>
	<node lat="60.88928888883438" lon="7.281008336515248" id="-36914">
=======
	<node id="-675107" lat="60.9731638897" lon="7.05982221764">
		<tag k="name" v="Øvste Stigen" />
		<tag k="place" v="farm" />
		<tag k="ssr:stedsnr" v="818115" />
	</node>
	<node id="-674512" lat="60.9117527742" lon="7.18915278179">
		<tag k="amenity" v="nursing_home" />
		<tag k="name" v="Sjukestova" />
		<tag k="ssr:stedsnr" v="514388" />
	</node>
	<node id="-675535" lat="60.7797611091" lon="7.11339165881">
		<tag k="name" v="Hovdaliselbøen" />
		<tag k="place" v="locality" />
		<tag k="ssr:stedsnr" v="89973" />
	</node>
	<node id="-675532" lat="60.9720583305" lon="7.21152221357">
>>>>>>> e1d4bc35ff8a6074a6f2e91616a996b547c36f15
		<tag k="historic" v="shieling" />
		<tag k="name" v="Fleningo" />
		<tag k="place" v="isolated_dwelling" />
		<tag k="ssr:stedsnr" v="676092" />
	</node>
<<<<<<< HEAD
	<node lat="60.8859833333732" lon="7.311408334355413" id="-36915">
		<tag k="historic" v="shieling" />
		<tag k="name" v="Kvitingane" />
		<tag k="place" v="isolated_dwelling" />
		<tag k="ssr:stedsnr" v="676097" />
	</node>
	<node lat="60.96848333547162" lon="7.059405560416774" id="-36920">
		<tag k="historic" v="shieling" />
		<tag k="name" v="Fristølen" />
		<tag k="place" v="isolated_dwelling" />
		<tag k="ssr:stedsnr" v="676218" />
	</node>
	<node lat="60.87517241202276" lon="7.149668498898411" id="-36921">
		<tag k="fixme" v="consider place=hamlet" />
		<tag k="name" v="Åtnes" />
		<tag k="old_name" v="Aatrenes" />
		<tag k="place" v="farm" />
		<tag k="ssr:stedsnr" v="676103" />
	</node>
	<node lat="60.89248888989932" lon="7.551413880830162" id="-36930">
		<tag k="name" v="Botolv Olavsbu" />
		<tag k="place" v="isolated_dwelling" />
		<tag k="ssr:stedsnr" v="676418" />
	</node>
	<node lat="60.89505277608709" lon="7.577266667389538" id="-36931">
		<tag k="name" v="Hellenuthytta" />
		<tag k="place" v="isolated_dwelling" />
		<tag k="ssr:stedsnr" v="676419" />
	</node>
	<node lat="60.90599999718803" lon="7.349713892701053" id="-36933">
		<tag k="name" v="Øyestølen" />
		<tag k="place" v="locality" />
		<tag k="ssr:stedsnr" v="676435" />
	</node>
	<node lat="60.873686795977335" lon="6.829432362464353" id="-36941">
		<tag k="fixme" v="consider place=hamlet" />
		<tag k="name" v="Gudvangen" />
		<tag k="place" v="farm" />
		<tag k="ssr:stedsnr" v="676803" />
	</node>
	<node lat="60.85881814278691" lon="6.761738188970985" id="-36944">
=======
	<node id="-674594" lat="60.9262749989" lon="7.2022416743">
		<tag k="name" v="Bell" />
		<tag k="place" v="farm" />
		<tag k="ssr:stedsnr" v="736179" />
	</node>
	<node id="-675530" lat="60.9703000026" lon="7.20516111956">
		<tag k="name" v="Reinungasletti" />
		<tag k="place" v="locality" />
		<tag k="ssr:stedsnr" v="89954" />
	</node>
	<node id="-673993" lat="60.9159638921" lon="7.20486944728">
		<tag k="name" v="Kvamshagane" />
		<tag k="place" v="locality" />
		<tag k="ssr:stedsnr" v="251182" />
	</node>
	<node id="-674503" lat="60.9007666655" lon="7.22898610421">
		<tag k="historic" v="shieling" />
		<tag k="name" v="Fossheimsberg" />
		<tag k="place" v="locality" />
		<tag k="ssr:stedsnr" v="514179" />
	</node>
	<node id="-674358" lat="60.8343805561" lon="7.4176666677">
		<tag k="name" v="Flatane" />
		<tag k="place" v="locality" />
		<tag k="ssr:stedsnr" v="493362" />
	</node>
	<node id="-675991" lat="60.9124372252" lon="7.19348313065">
		<tag k="fixme" v="consider place=hamlet" />
		<tag k="name" v="Vinjane" />
		<tag k="place" v="farm" />
		<tag k="ssr:stedsnr" v="372184" />
	</node>
	<node id="-674499" lat="60.8463500021" lon="7.11538888188">
		<tag k="name" v="Brekkehagen" />
		<tag k="place" v="locality" />
		<tag k="ssr:stedsnr" v="514092" />
	</node>
	<node id="-673986" lat="60.945850426" lon="7.0997227573">
		<tag k="alt_name" v="Heimre Hjøllo;Fremre Hjøllo" />
		<tag k="fixme" v="consider place=hamlet" />
		<tag k="name" v="Hjøllo" />
		<tag k="place" v="farm" />
		<tag k="ssr:stedsnr" v="251142" />
	</node>
	<node id="-673985" lat="60.9497639584" lon="7.19104950602">
>>>>>>> e1d4bc35ff8a6074a6f2e91616a996b547c36f15
		<tag k="fixme" v="consider place=hamlet" />
		<tag k="name" v="Hylland" />
		<tag k="place" v="farm" />
		<tag k="ssr:stedsnr" v="676815" />
	</node>
<<<<<<< HEAD
	<node lat="60.89873333492782" lon="7.211905555144257" id="-36961">
		<tag k="name" v="Nyheim" />
		<tag k="place" v="farm" />
		<tag k="ssr:stedsnr" v="696466" />
	</node>
	<node lat="60.964263887376156" lon="7.174719442137492" id="-36975">
		<tag k="historic" v="shieling" />
		<tag k="name" v="Mørkeli" />
		<tag k="place" v="isolated_dwelling" />
		<tag k="ssr:stedsnr" v="696907" />
	</node>
	<node lat="60.82878633352812" lon="7.505947167415352" id="-36983">
=======
	<node id="-675520" lat="60.8013361114" lon="7.10530277376">
		<tag k="historic" v="shieling" />
		<tag k="name" v="Geithus" />
		<tag k="place" v="locality" />
		<tag k="ssr:stedsnr" v="89625" />
	</node>
	<node id="-674421" lat="60.8437083309" lon="7.33530000523">
		<tag k="historic" v="shieling" />
		<tag k="name" v="Botolvsstølen" />
		<tag k="place" v="locality" />
		<tag k="ssr:stedsnr" v="372017" />
	</node>
	<node id="-673980" lat="60.8059181418" lon="7.12991090237">
		<tag k="fixme" v="consider place=hamlet" />
		<tag k="name" v="Geisme" />
		<tag k="place" v="farm" />
		<tag k="ssr:stedsnr" v="251064" />
	</node>
	<node id="-673978" lat="60.7995194482" lon="7.12563888883">
		<tag k="name" v="Kolåsen" />
		<tag k="place" v="locality" />
		<tag k="ssr:stedsnr" v="251056" />
	</node>
	<node id="-675001" lat="60.8287863335" lon="7.50594716742">
>>>>>>> e1d4bc35ff8a6074a6f2e91616a996b547c36f15
		<tag k="fixme" v="consider tourism=alpine_hut or tourism=chalet" />
		<tag k="name" v="Østerbø Fjellstove" />
		<tag k="ssr:stedsnr" v="718789" />
		<tag k="tourism" v="wilderness_hut" />
	</node>
<<<<<<< HEAD
	<node lat="60.72408889257389" lon="7.009680550163176" id="-36988">
		<tag k="historic" v="shieling" />
		<tag k="loc_name" v="Upsete" />
		<tag k="name" v="Uppsete" />
		<tag k="place" v="isolated_dwelling" />
		<tag k="ssr:stedsnr" v="735002" />
	</node>
	<node lat="60.926274998908056" lon="7.202241674303035" id="-36993">
		<tag k="name" v="Bell" />
		<tag k="place" v="farm" />
		<tag k="ssr:stedsnr" v="736179" />
	</node>
	<node lat="60.82589444457699" lon="7.58252778635964" id="-36997">
=======
	<node id="-675700" lat="60.9178888927" lon="7.19579721918">
		<tag k="name" v="Klokkargarden" />
		<tag k="place" v="farm" />
		<tag k="ssr:stedsnr" v="190170" />
	</node>
	<node id="-674486" lat="60.7638111086" lon="7.3726333311">
		<tag k="name" v="Lordahytta" />
		<tag k="place" v="isolated_dwelling" />
		<tag k="ssr:stedsnr" v="509781" />
	</node>
	<node id="-673972" lat="60.7355750015" lon="7.19902500565">
>>>>>>> e1d4bc35ff8a6074a6f2e91616a996b547c36f15
		<tag k="historic" v="shieling" />
		<tag k="name" v="Sauavad" />
		<tag k="place" v="isolated_dwelling" />
		<tag k="ssr:stedsnr" v="736280" />
	</node>
<<<<<<< HEAD
	<node lat="60.88713055955258" lon="7.232197225312631" id="-37006">
		<tag k="name" v="Mjå" />
		<tag k="place" v="locality" />
		<tag k="ssr:stedsnr" v="737085" />
	</node>
	<node lat="60.95389444286091" lon="7.173849997503292" id="-37007">
		<tag k="historic" v="shieling" />
		<tag k="name" v="Luen" />
		<tag k="place" v="isolated_dwelling" />
		<tag k="ssr:stedsnr" v="737122" />
	</node>
	<node lat="60.95675029092696" lon="7.149818858209643" id="-37008">
		<tag k="historic" v="shieling" />
		<tag k="name" v="Tubba" />
		<tag k="place" v="isolated_dwelling" />
		<tag k="ssr:stedsnr" v="737126" />
	</node>
	<node lat="60.750313886336336" lon="7.121869443295034" id="-37014">
		<tag k="historic" v="shieling" />
		<tag k="loc_name" v="Nålii" />
		<tag k="name" v="Nåli" />
		<tag k="place" v="isolated_dwelling" />
		<tag k="ssr:stedsnr" v="737479" />
	</node>
	<node lat="60.73394167120496" lon="7.120441668381653" id="-37018">
		<tag k="fixme" v="consider tourism=alpine_hut or tourism=chalet" />
		<tag k="name" v="Myrdal Fjellstove" />
		<tag k="ssr:stedsnr" v="753172" />
		<tag k="tourism" v="wilderness_hut" />
	</node>
	<node lat="60.85006110758411" lon="7.111574993574543" id="-37037">
		<tag k="name" v="Haugen" />
		<tag k="place" v="farm" />
		<tag k="ssr:stedsnr" v="757106" />
	</node>
	<node lat="60.88365062442185" lon="7.117334767408689" id="-37051">
		<tag k="name" v="Frondal" />
		<tag k="place" v="locality" />
		<tag k="ssr:stedsnr" v="782654" />
	</node>
	<node lat="60.74165277725599" lon="7.09353610894263" id="-37054">
		<tag k="alt_name" v="Uvgjesdalen" />
		<tag k="historic" v="shieling" />
		<tag k="name" v="Ugjerdsdalen" />
		<tag k="place" v="isolated_dwelling" />
		<tag k="ssr:stedsnr" v="795010" />
	</node>
	<node lat="60.934213885005455" lon="7.085630563324418" id="-37060">
		<tag k="historic" v="shieling" />
		<tag k="name" v="Melhus" />
		<tag k="place" v="isolated_dwelling" />
		<tag k="ssr:stedsnr" v="797154" />
	</node>
	<node lat="60.92432500083211" lon="7.149161110003191" id="-37064">
		<tag k="alt_name" v="Skreda" />
		<tag k="name" v="Gjerlåskrida" />
		<tag k="place" v="locality" />
		<tag k="ssr:stedsnr" v="797170" />
	</node>
	<node lat="60.801572218221054" lon="7.023363894121488" id="-37067">
		<tag k="historic" v="shieling" />
		<tag k="name" v="Vassete" />
		<tag k="place" v="isolated_dwelling" />
		<tag k="ssr:stedsnr" v="797053" />
	</node>
	<node lat="60.75325122787761" lon="7.106325464609831" id="-37071">
		<tag k="fixme" v="consider place=hamlet" />
		<tag k="name" v="Kårdal" />
		<tag k="place" v="farm" />
		<tag k="ssr:stedsnr" v="797499" />
	</node>
	<node lat="60.88007777605652" lon="7.093813883129039" id="-37092">
		<tag k="historic" v="shieling" />
		<tag k="name" v="Håvasete" />
		<tag k="place" v="isolated_dwelling" />
		<tag k="ssr:stedsnr" v="919084" />
	</node>
	<node lat="60.84372499721405" lon="7.422255548650409" id="-37095">
		<tag k="alt_name" v="Vetlehelvete" />
		<tag k="name" v="Vetlahelvete" />
		<tag k="place" v="locality" />
		<tag k="ssr:stedsnr" v="918420" />
	</node>
	<node lat="60.97702777514211" lon="7.053986115357374" id="-37100">
		<tag k="historic" v="shieling" />
		<tag k="name" v="Åsen" />
		<tag k="place" v="isolated_dwelling" />
		<tag k="ssr:stedsnr" v="919221" />
	</node>
	<node lat="60.967515534083546" lon="7.07644445739731" id="-37109">
		<tag k="alt_name" v="Stokko øydegard" />
=======
	<node id="-675437" lat="60.9553999978" lon="7.20383055968">
		<tag k="historic" v="shieling" />
		<tag k="name" v="Leim" />
		<tag k="place" v="locality" />
		<tag k="ssr:stedsnr" v="69142" />
	</node>
	<node id="-673969" lat="60.8738444478" lon="7.34093333609">
		<tag k="name" v="Belle" />
		<tag k="place" v="hamlet" />
		<tag k="ssr:stedsnr" v="69816" />
	</node>
	<node id="-674546" lat="60.7158749968" lon="7.2417499974">
		<tag k="historic" v="shieling" />
		<tag k="name" v="Vindedalen" />
		<tag k="place" v="locality" />
		<tag k="ssr:stedsnr" v="432105" />
	</node>
	<node id="-674639" lat="60.9195617388" lon="7.20246118388">
		<tag k="fixme" v="consider place=hamlet" />
		<tag k="name" v="Kvam" />
		<tag k="place" v="farm" />
		<tag k="ssr:stedsnr" v="493168" />
	</node>
	<node id="-673996" lat="60.9057572511" lon="7.1869770743">
		<tag k="name" v="Aurlandsvangen" />
		<tag k="place" v="village" />
		<tag k="ssr:stedsnr" v="251194" />
	</node>
	<node id="-676010" lat="60.9836750008" lon="6.88582222336">
		<tag k="historic" v="shieling" />
		<tag k="name" v="Torisstølen" />
		<tag k="place" v="locality" />
		<tag k="ssr:stedsnr" v="372937" />
	</node>
	<node id="-675853" lat="60.8796690307" lon="7.16962586034">
		<tag k="fixme" v="consider place=hamlet" />
		<tag k="name" v="Vikesland" />
		<tag k="place" v="farm" />
		<tag k="ssr:stedsnr" v="312089" />
	</node>
	<node id="-676006" lat="60.8777277739" lon="6.83794721479">
		<tag k="fixme" v="consider place=suburb, village or hamlet" />
		<tag k="name" v="Gudvangen" />
		<tag k="place" v="quarter" />
		<tag k="ssr:stedsnr" v="372857" />
	</node>
	<node id="-676517" lat="60.8921442075" lon="7.23469906186">
>>>>>>> e1d4bc35ff8a6074a6f2e91616a996b547c36f15
		<tag k="fixme" v="consider place=hamlet" />
		<tag k="name" v="Stokko" />
		<tag k="place" v="farm" />
		<tag k="ssr:stedsnr" v="919240" />
	</node>
<<<<<<< HEAD
	<node lat="60.92360278137297" lon="7.415144436286261" id="-37117">
		<tag k="historic" v="shieling" />
		<tag k="name" v="Norddalen" />
		<tag k="place" v="isolated_dwelling" />
		<tag k="ssr:stedsnr" v="919381" />
	</node>
	<node lat="60.83279173151411" lon="7.4766947365268575" id="-37119">
		<tag k="fixme" v="consider place=hamlet" />
		<tag k="name" v="Nesbø" />
=======
	<node id="-676515" lat="60.7532512279" lon="7.10632546461">
		<tag k="fixme" v="consider place=hamlet" />
		<tag k="name" v="Kårdal" />
		<tag k="place" v="farm" />
		<tag k="ssr:stedsnr" v="797499" />
	</node>
	<node id="-674466" lat="60.9011388863" lon="7.2046777757">
		<tag k="name" v="Furuly" />
>>>>>>> e1d4bc35ff8a6074a6f2e91616a996b547c36f15
		<tag k="place" v="farm" />
		<tag k="ssr:stedsnr" v="919340" />
	</node>
<<<<<<< HEAD
	<node lat="61.008113887260066" lon="7.136847213612307" id="-37121">
=======
	<node id="-676513" lat="60.8374333358" lon="7.47199444015">
>>>>>>> e1d4bc35ff8a6074a6f2e91616a996b547c36f15
		<tag k="historic" v="shieling" />
		<tag k="name" v="Kolaren" />
		<tag k="place" v="isolated_dwelling" />
		<tag k="ssr:stedsnr" v="919389" />
	</node>
	<node lat="60.74958611137682" lon="7.1097555584395025" id="-37122">
		<tag k="name" v="Kårdalshagen" />
		<tag k="place" v="locality" />
		<tag k="ssr:stedsnr" v="817013" />
	</node>
<<<<<<< HEAD
	<node lat="60.880383333255814" lon="7.269486114358534" id="-37144">
		<tag k="name" v="Sagi" />
		<tag k="place" v="isolated_dwelling" />
		<tag k="ssr:stedsnr" v="818019" />
	</node>
	<node lat="60.823888886999576" lon="7.080825008872163" id="-37169">
		<tag k="name" v="Kringle" />
=======
	<node id="-676512" lat="60.835149996" lon="7.491330562">
		<tag k="historic" v="shieling" />
		<tag k="name" v="Myrane" />
>>>>>>> e1d4bc35ff8a6074a6f2e91616a996b547c36f15
		<tag k="place" v="locality" />
		<tag k="ssr:stedsnr" v="858019" />
	</node>
<<<<<<< HEAD
	<node lat="60.89426774553135" lon="7.172318583168528" id="-37170">
=======
	<node id="-674463" lat="60.9195768148" lon="7.19633672669">
>>>>>>> e1d4bc35ff8a6074a6f2e91616a996b547c36f15
		<tag k="fixme" v="consider place=hamlet" />
		<tag k="name" v="Li" />
		<tag k="place" v="farm" />
		<tag k="ssr:stedsnr" v="858081" />
	</node>
<<<<<<< HEAD
	<node lat="60.88475277482674" lon="7.113933327514582" id="-37171">
		<tag k="historic" v="shieling" />
		<tag k="name" v="Vetlestølen" />
		<tag k="place" v="isolated_dwelling" />
		<tag k="ssr:stedsnr" v="858085" />
	</node>
	<node lat="60.819727774591" lon="6.953994440337945" id="-37188">
		<tag k="historic" v="shieling" />
		<tag k="name" v="Soleifletene" />
		<tag k="place" v="isolated_dwelling" />
		<tag k="ssr:stedsnr" v="858803" />
	</node>
	<node lat="60.792663889550646" lon="6.963236120115058" id="-37190">
		<tag k="historic" v="shieling" />
		<tag k="name" v="Tørva" />
		<tag k="place" v="isolated_dwelling" />
		<tag k="ssr:stedsnr" v="858793" />
	</node>
	<node lat="60.99172778129363" lon="6.905127777299904" id="-37191">
=======
	<node id="-675998" lat="60.8415555521" lon="7.34828889643">
		<tag k="alt_name" v="Vetlesladden" />
		<tag k="name" v="Sladden" />
		<tag k="place" v="locality" />
		<tag k="ssr:stedsnr" v="372385" />
	</node>
	<node id="-675996" lat="60.8504916661" lon="7.43222499365">
		<tag k="name" v="Øyestølen" />
		<tag k="place" v="locality" />
		<tag k="ssr:stedsnr" v="372383" />
	</node>
	<node id="-675098" lat="61.0344083346" lon="7.07981666534">
		<tag k="historic" v="shieling" />
		<tag k="name" v="Nordheimsdalen" />
		<tag k="place" v="locality" />
		<tag k="ssr:stedsnr" v="798375" />
	</node>
	<node id="-675482" lat="61.0236305552" lon="7.08931389187">
>>>>>>> e1d4bc35ff8a6074a6f2e91616a996b547c36f15
		<tag k="historic" v="shieling" />
		<tag k="name" v="Snauasete" />
		<tag k="place" v="isolated_dwelling" />
		<tag k="ssr:stedsnr" v="858917" />
	</node>
<<<<<<< HEAD
	<node lat="60.966438888512805" lon="7.1678527710500415" id="-37224">
=======
	<node id="-674159" lat="60.90303056" lon="7.20078333179">
		<tag k="amenity" v="school" />
		<tag k="name" v="Sogn jord- og hagebruksskule" />
		<tag k="old_name" v="Sogn jord- og hagebruksskole" />
		<tag k="ssr:stedsnr" v="282071" />
	</node>
	<node id="-675480" lat="60.9337944416" lon="6.75331945095">
>>>>>>> e1d4bc35ff8a6074a6f2e91616a996b547c36f15
		<tag k="historic" v="shieling" />
		<tag k="name" v="Skori" />
		<tag k="place" v="isolated_dwelling" />
		<tag k="ssr:stedsnr" v="878909" />
	</node>
<<<<<<< HEAD
	<node lat="60.89520277470515" lon="7.2244722155362116" id="-37231">
		<tag k="name" v="Nygard" />
		<tag k="place" v="isolated_dwelling" />
		<tag k="ssr:stedsnr" v="903917" />
	</node>
	<node lat="60.91616666297318" lon="7.192391671832566" id="-37232">
		<tag k="name" v="Fjellborg" />
		<tag k="place" v="farm" />
		<tag k="ssr:stedsnr" v="903919" />
	</node>
	<node lat="60.87739170466515" lon="7.254608295249042" id="-37237">
		<tag k="fixme" v="consider place=hamlet" />
		<tag k="name" v="Låvi" />
		<tag k="place" v="farm" />
		<tag k="ssr:stedsnr" v="918106" />
	</node>
	<node lat="60.898680551421364" lon="7.14355000563105" id="-37246">
		<tag k="name" v="Høydøla" />
=======
	<node id="-675479" lat="60.9256388883" lon="6.87900555361">
		<tag k="historic" v="shieling" />
		<tag k="name" v="Holmo" />
		<tag k="place" v="locality" />
		<tag k="ssr:stedsnr" v="69885" />
	</node>
	<node id="-675478" lat="60.9106416673" lon="6.75345277657">
		<tag k="historic" v="shieling" />
		<tag k="name" v="Røyrdotten" />
		<tag k="place" v="locality" />
		<tag k="ssr:stedsnr" v="69881" />
	</node>
	<node id="-675989" lat="60.897302774" lon="7.23605833998">
		<tag k="alt_name" v="Furuberg" />
		<tag k="historic" v="shieling" />
		<tag k="name" v="Furberg" />
>>>>>>> e1d4bc35ff8a6074a6f2e91616a996b547c36f15
		<tag k="place" v="locality" />
		<tag k="ssr:stedsnr" v="919064" />
	</node>
<<<<<<< HEAD
	<node lat="60.975340260761904" lon="7.094328268915837" id="-37248">
		<tag k="fixme" v="consider place=hamlet" />
		<tag k="name" v="Nedbergo" />
		<tag k="place" v="farm" />
		<tag k="ssr:stedsnr" v="919204" />
	</node>
	<node lat="60.78759064602877" lon="7.098176465685645" id="-37256">
		<tag k="fixme" v="consider place=hamlet" />
		<tag k="name" v="Berekvam" />
		<tag k="place" v="farm" />
		<tag k="ssr:stedsnr" v="919456" />
	</node>
	<node lat="60.91686634602625" lon="7.196144543756966" id="-37257">
=======
	<node id="-675988" lat="60.8909944444" lon="7.25299444511">
		<tag k="historic" v="shieling" />
		<tag k="name" v="Totland" />
		<tag k="place" v="locality" />
		<tag k="ssr:stedsnr" v="372093" />
	</node>
	<node id="-675438" lat="60.951999078" lon="7.08359206852">
		<tag k="historic" v="shieling" />
		<tag k="name" v="Hovdungo" />
		<tag k="place" v="locality" />
		<tag k="ssr:stedsnr" v="69148" />
	</node>
	<node id="-676498" lat="60.8107812609" lon="7.12240707682">
>>>>>>> e1d4bc35ff8a6074a6f2e91616a996b547c36f15
		<tag k="fixme" v="consider place=hamlet" />
		<tag k="name" v="Gjerlå" />
		<tag k="place" v="farm" />
		<tag k="ssr:stedsnr" v="919159" />
	</node>
<<<<<<< HEAD
	<node lat="60.87525555345293" lon="7.376666673436052" id="-37260">
		<tag k="historic" v="shieling" />
		<tag k="name" v="Eisingane" />
		<tag k="place" v="isolated_dwelling" />
		<tag k="ssr:stedsnr" v="919323" />
	</node>
	<node lat="60.932513889957875" lon="7.066350005042804" id="-37275">
=======
	<node id="-675011" lat="60.9326472225" lon="7.20086944723">
		<tag k="name" v="Tyhagane" />
		<tag k="place" v="locality" />
		<tag k="ssr:stedsnr" v="757936" />
	</node>
	<node id="-675984" lat="60.9660111114" lon="7.20698332751">
		<tag k="alt_name" v="Øyestølen, heimste;Heimste øystølen" />
>>>>>>> e1d4bc35ff8a6074a6f2e91616a996b547c36f15
		<tag k="historic" v="shieling" />
		<tag k="name" v="Tvenningo" />
		<tag k="place" v="isolated_dwelling" />
		<tag k="ssr:stedsnr" v="939289" />
	</node>
	<node lat="60.95142222112925" lon="7.102919443438576" id="-37283">
		<tag k="name" v="Garden" />
		<tag k="place" v="farm" />
		<tag k="ssr:stedsnr" v="939586" />
	</node>
	<node lat="60.906112445893534" lon="7.186722570693662" id="-37296">
		<tag k="name" v="Vangen" />
		<tag k="place" v="locality" />
		<tag k="ssr:stedsnr" v="979446" />
	</node>
<<<<<<< HEAD
	<node lat="60.839822294059914" lon="7.119982306883795" id="-37297">
		<tag k="fixme" v="consider place=hamlet" />
		<tag k="name" v="Flåm" />
		<tag k="place" v="farm" />
		<tag k="ssr:stedsnr" v="979449" />
	</node>
	<node lat="60.95041911848423" lon="7.1026510123769055" id="-37298">
=======
	<node id="-675602" lat="60.8644944488" lon="7.41728333076">
		<tag k="historic" v="shieling" />
		<tag k="name" v="Veiverdalen" />
		<tag k="place" v="locality" />
		<tag k="ssr:stedsnr" v="130288" />
	</node>
	<node id="-675982" lat="60.9273000025" lon="7.14926388725">
		<tag k="alt_name" v="Kvamsteigane" />
		<tag k="name" v="Kvamsteigen" />
		<tag k="place" v="locality" />
		<tag k="ssr:stedsnr" v="372148" />
	</node>
	<node id="-674957" lat="60.8924888899" lon="7.55141388083">
		<tag k="name" v="Botolv Olavsbu" />
		<tag k="place" v="isolated_dwelling" />
		<tag k="ssr:stedsnr" v="676418" />
	</node>
	<node id="-675468" lat="60.8339561738" lon="7.34578246151">
>>>>>>> e1d4bc35ff8a6074a6f2e91616a996b547c36f15
		<tag k="fixme" v="consider place=hamlet" />
		<tag k="name" v="Undredal" />
		<tag k="place" v="farm" />
		<tag k="ssr:stedsnr" v="979452" />
	</node>
<<<<<<< HEAD
	<node lat="60.97471378236393" lon="7.113114141460664" id="-37299">
		<tag k="name" v="Kappadalen" />
		<tag k="place" v="locality" />
		<tag k="ssr:stedsnr" v="979454" />
	</node>
	<node lat="60.904422218858656" lon="7.059758331897176" id="-37309">
		<tag k="historic" v="shieling" />
		<tag k="name" v="Haskåhalsen" />
		<tag k="place" v="isolated_dwelling" />
		<tag k="ssr:stedsnr" v="8068" />
	</node>
	<node lat="60.92868055724552" lon="7.196774996098935" id="-37313">
		<tag k="name" v="Nordheim" />
		<tag k="place" v="farm" />
		<tag k="ssr:stedsnr" v="8182" />
	</node>
	<node lat="60.830350004297046" lon="7.439663881388068" id="-37315">
		<tag k="name" v="Heimrebø" />
=======
	<node id="-674905" lat="60.9983861092" lon="6.97152500285">
		<tag k="historic" v="shieling" />
		<tag k="name" v="Legdo" />
		<tag k="place" v="locality" />
		<tag k="ssr:stedsnr" v="878873" />
	</node>
	<node id="-675465" lat="60.8179555534" lon="7.35537499853">
		<tag k="historic" v="shieling" />
		<tag k="name" v="Vetledalen" />
		<tag k="place" v="locality" />
		<tag k="ssr:stedsnr" v="69299" />
	</node>
	<node id="-675462" lat="60.8026694437" lon="7.5651583302">
		<tag k="historic" v="shieling" />
		<tag k="name" v="Øyestølen" />
>>>>>>> e1d4bc35ff8a6074a6f2e91616a996b547c36f15
		<tag k="place" v="locality" />
		<tag k="ssr:stedsnr" v="8364" />
	</node>
<<<<<<< HEAD
	<node lat="60.956453009189914" lon="7.132174149945006" id="-37337">
=======
	<node id="-676485" lat="60.9760916665" lon="7.21536110492">
>>>>>>> e1d4bc35ff8a6074a6f2e91616a996b547c36f15
		<tag k="historic" v="shieling" />
		<tag k="name" v="Husaflaten" />
		<tag k="place" v="isolated_dwelling" />
		<tag k="ssr:stedsnr" v="21417" />
	</node>
<<<<<<< HEAD
	<node lat="60.861894446813025" lon="7.112338896899498" id="-37340">
		<tag k="alt_name" v="Fretheim" />
		<tag k="name" v="Fretheim turisthotell" />
		<tag k="old_name" v="Freteim" />
		<tag k="ssr:stedsnr" v="25044" />
		<tag k="tourism" v="hotel" />
	</node>
	<node lat="60.97361944685507" lon="7.111905556831393" id="-37349">
		<tag k="name" v="Gamle Kappadalen" />
=======
	<node id="-676483" lat="60.9751611112" lon="6.92069443581">
		<tag k="name" v="Bordteigen" />
>>>>>>> e1d4bc35ff8a6074a6f2e91616a996b547c36f15
		<tag k="place" v="locality" />
		<tag k="ssr:stedsnr" v="28128" />
	</node>
	<node lat="60.8836472224478" lon="7.242888888840387" id="-37374">
		<tag k="amenity" v="school" />
		<tag k="name" v="Dalen" />
		<tag k="ssr:stedsnr" v="29139" />
	</node>
<<<<<<< HEAD
	<node lat="60.82426666880717" lon="7.500933328726812" id="-37387">
		<tag k="historic" v="shieling" />
		<tag k="name" v="Venasete" />
		<tag k="place" v="isolated_dwelling" />
		<tag k="ssr:stedsnr" v="29523" />
	</node>
	<node lat="60.97834444105514" lon="6.918583329211719" id="-37390">
		<tag k="name" v="Håbruteigen" />
		<tag k="place" v="locality" />
		<tag k="ssr:stedsnr" v="29778" />
	</node>
	<node lat="60.8726761101174" lon="7.312075460672565" id="-37399">
		<tag k="fixme" v="consider place=hamlet" />
		<tag k="name" v="Steine" />
		<tag k="place" v="farm" />
		<tag k="ssr:stedsnr" v="69104" />
	</node>
	<node lat="60.955399997793855" lon="7.20383055968031" id="-37402">
		<tag k="historic" v="shieling" />
		<tag k="name" v="Leim" />
		<tag k="place" v="isolated_dwelling" />
		<tag k="ssr:stedsnr" v="69142" />
	</node>
	<node lat="60.95199907803467" lon="7.083592068519354" id="-37403">
=======
	<node id="-675458" lat="60.8125777809" lon="7.55146110647">
		<tag k="name" v="Vestaforstølen" />
		<tag k="place" v="locality" />
		<tag k="ssr:stedsnr" v="69264" />
	</node>
	<node id="-674411" lat="60.8591316808" lon="6.80240034803">
		<tag k="fixme" v="consider place=hamlet" />
		<tag k="name" v="Skjerpi" />
		<tag k="place" v="farm" />
		<tag k="ssr:stedsnr" v="494802" />
	</node>
	<node id="-674943" lat="60.9684833355" lon="7.05940556042">
>>>>>>> e1d4bc35ff8a6074a6f2e91616a996b547c36f15
		<tag k="historic" v="shieling" />
		<tag k="name" v="Hovdungo" />
		<tag k="place" v="isolated_dwelling" />
		<tag k="ssr:stedsnr" v="69148" />
	</node>
<<<<<<< HEAD
	<node lat="60.9239264107288" lon="7.2127663265731865" id="-37407">
		<tag k="fixme" v="consider place=hamlet" />
		<tag k="name" v="Ås" />
		<tag k="place" v="farm" />
		<tag k="ssr:stedsnr" v="69165" />
	</node>
	<node lat="60.91572777926175" lon="7.1912888897948894" id="-37408">
		<tag k="name" v="Tero" />
		<tag k="place" v="farm" />
		<tag k="ssr:stedsnr" v="69170" />
	</node>
	<node lat="60.976374997939054" lon="7.104627774879377" id="-37410">
=======
	<node id="-676117" lat="60.9252499976" lon="6.8388222284">
		<tag k="name" v="Rimstigen" />
		<tag k="place" v="locality" />
		<tag k="ssr:stedsnr" v="433876" />
	</node>
	<node id="-675452" lat="60.9763749979" lon="7.10462777488">
>>>>>>> e1d4bc35ff8a6074a6f2e91616a996b547c36f15
		<tag k="historic" v="shieling" />
		<tag k="name" v="Heimastølen" />
		<tag k="place" v="isolated_dwelling" />
		<tag k="ssr:stedsnr" v="69223" />
	</node>
<<<<<<< HEAD
	<node lat="60.972175000228745" lon="7.205083332411329" id="-37411">
		<tag k="name" v="Fjellstølen" />
		<tag k="place" v="locality" />
		<tag k="ssr:stedsnr" v="69226" />
	</node>
	<node lat="60.8125777808686" lon="7.551461106473413" id="-37416">
		<tag k="name" v="Vestaforstølen" />
=======
	<node id="-674938" lat="60.8914499969" lon="7.11446111518">
		<tag k="alt_name" v="Toristølen" />
		<tag k="name" v="Torisstølen" />
		<tag k="place" v="locality" />
		<tag k="ssr:stedsnr" v="676073" />
	</node>
	<node id="-674118" lat="60.9720527808" lon="7.06312500287">
		<tag k="name" v="Neste Stigen" />
		<tag k="place" v="farm" />
		<tag k="ssr:stedsnr" v="272135" />
	</node>
	<node id="-675959" lat="60.9312027747" lon="7.15029999567">
		<tag k="historic" v="shieling" />
		<tag k="name" v="Frangrovstølen" />
>>>>>>> e1d4bc35ff8a6074a6f2e91616a996b547c36f15
		<tag k="place" v="locality" />
		<tag k="ssr:stedsnr" v="69264" />
	</node>
<<<<<<< HEAD
	<node lat="60.80266944366618" lon="7.565158330204562" id="-37420">
		<tag k="historic" v="shieling" />
		<tag k="name" v="Øyestølen" />
		<tag k="place" v="isolated_dwelling" />
		<tag k="ssr:stedsnr" v="69277" />
	</node>
	<node lat="60.860905553321984" lon="7.387888893100785" id="-37421">
		<tag k="name" v="Frivoll" />
=======
	<node id="-674422" lat="60.8378817645" lon="7.2927564093">
		<tag k="fixme" v="multiple name tags, choose one and add the other to alt_name" />
		<tag k="historic" v="shieling" />
		<tag k="name" v="Ådnastølen;Låvistølen" />
		<tag k="place" v="locality" />
		<tag k="ssr:stedsnr" v="372019" />
	</node>
	<node id="-674665" lat="60.9662916696" lon="7.20673333095">
		<tag k="historic" v="shieling" />
		<tag k="name" v="Fremste nystølen" />
>>>>>>> e1d4bc35ff8a6074a6f2e91616a996b547c36f15
		<tag k="place" v="locality" />
		<tag k="ssr:stedsnr" v="514927" />
	</node>
<<<<<<< HEAD
	<node lat="60.873844447845435" lon="7.340933336085138" id="-37426">
		<tag k="name" v="Belle" />
		<tag k="place" v="hamlet" />
		<tag k="ssr:stedsnr" v="69816" />
	</node>
	<node lat="60.88188983723702" lon="6.84981049427306" id="-37429">
		<tag k="fixme" v="consider place=hamlet" />
		<tag k="name" v="Ramsøy" />
		<tag k="place" v="farm" />
		<tag k="ssr:stedsnr" v="69849" />
	</node>
	<node lat="61.02363055516166" lon="7.089313891874828" id="-37431">
		<tag k="historic" v="shieling" />
		<tag k="name" v="Øygarden" />
		<tag k="place" v="isolated_dwelling" />
		<tag k="ssr:stedsnr" v="70371" />
	</node>
	<node lat="60.97030833596085" lon="7.118961113123761" id="-37433">
		<tag k="historic" v="shieling" />
		<tag k="name" v="Kappadalsstølen" />
		<tag k="place" v="isolated_dwelling" />
		<tag k="ssr:stedsnr" v="81451" />
	</node>
	<node lat="60.8919527749375" lon="7.345786108853251" id="-37475">
		<tag k="name" v="Brauti" />
		<tag k="place" v="locality" />
		<tag k="ssr:stedsnr" v="90272" />
	</node>
	<node lat="60.97030000261481" lon="7.205161119562038" id="-37482">
		<tag k="name" v="Reinungasletti" />
=======
	<node id="-676468" lat="60.8286194423" lon="7.48761666048">
		<tag k="historic" v="shieling" />
		<tag k="name" v="Vetlestølen" />
		<tag k="place" v="locality" />
		<tag k="ssr:stedsnr" v="757287" />
	</node>
	<node id="-675443" lat="60.9157277793" lon="7.19128888979">
		<tag k="name" v="Tero" />
		<tag k="place" v="farm" />
		<tag k="ssr:stedsnr" v="69170" />
	</node>
	<node id="-675442" lat="60.9239264107" lon="7.21276632657">
		<tag k="fixme" v="consider place=hamlet" />
		<tag k="name" v="Ås" />
		<tag k="place" v="farm" />
		<tag k="ssr:stedsnr" v="69165" />
	</node>
	<node id="-674929" lat="60.9164671662" lon="6.86851002935">
		<tag k="fixme" v="consider place=hamlet" />
		<tag k="name" v="Bakka" />
		<tag k="place" v="farm" />
		<tag k="ssr:stedsnr" v="675859" />
	</node>
	<node id="-674416" lat="60.874767605" lon="7.32370490126">
		<tag k="fixme" v="consider place=hamlet" />
		<tag k="name" v="Øyo" />
		<tag k="place" v="farm" />
		<tag k="ssr:stedsnr" v="372115" />
	</node>
	<node id="-674414" lat="60.8845638881" lon="7.27092499746">
		<tag k="alt_name" v="Stausete" />
		<tag k="historic" v="shieling" />
		<tag k="name" v="Stuasete" />
		<tag k="place" v="locality" />
		<tag k="ssr:stedsnr" v="372106" />
	</node>
	<node id="-675949" lat="60.8300326839" lon="7.50020662084">
		<tag k="fixme" v="consider place=hamlet" />
		<tag k="name" v="Urvik" />
		<tag k="place" v="farm" />
		<tag k="ssr:stedsnr" v="332500" />
	</node>
	<node id="-676460" lat="60.8500611076" lon="7.11157499357">
		<tag k="name" v="Haugen" />
		<tag k="place" v="farm" />
		<tag k="ssr:stedsnr" v="757106" />
	</node>
	<node id="-675435" lat="60.8726761101" lon="7.31207546067">
		<tag k="fixme" v="consider place=hamlet" />
		<tag k="name" v="Steine" />
		<tag k="place" v="farm" />
		<tag k="ssr:stedsnr" v="69104" />
	</node>
	<node id="-675946" lat="60.9685888881" lon="7.11028056036">
		<tag k="name" v="Bortomteigane" />
>>>>>>> e1d4bc35ff8a6074a6f2e91616a996b547c36f15
		<tag k="place" v="locality" />
		<tag k="ssr:stedsnr" v="89954" />
	</node>
<<<<<<< HEAD
	<node lat="60.972058330458964" lon="7.211522213571728" id="-37484">
		<tag k="historic" v="shieling" />
		<tag k="name" v="Myrasete" />
		<tag k="place" v="isolated_dwelling" />
		<tag k="ssr:stedsnr" v="89956" />
	</node>
	<node lat="60.86449444876599" lon="7.417283330761996" id="-37492">
=======
	<node id="-675433" lat="60.8960555513" lon="7.24120000603">
		<tag k="historic" v="shieling" />
		<tag k="name" v="Håli" />
		<tag k="place" v="locality" />
		<tag k="ssr:stedsnr" v="69090" />
	</node>
	<node id="-675431" lat="60.7950472232" lon="7.10337221394">
>>>>>>> e1d4bc35ff8a6074a6f2e91616a996b547c36f15
		<tag k="historic" v="shieling" />
		<tag k="name" v="Veiverdalen" />
		<tag k="place" v="isolated_dwelling" />
		<tag k="ssr:stedsnr" v="130288" />
	</node>
<<<<<<< HEAD
	<node lat="60.822141665456925" lon="7.084958329342741" id="-37499">
		<tag k="historic" v="shieling" />
		<tag k="name" v="Øyane" />
=======
	<node id="-674406" lat="60.9157555592" lon="7.58113888199">
		<tag k="name" v="Kvalrygghytta" />
>>>>>>> e1d4bc35ff8a6074a6f2e91616a996b547c36f15
		<tag k="place" v="isolated_dwelling" />
		<tag k="ssr:stedsnr" v="129052" />
	</node>
<<<<<<< HEAD
	<node lat="60.81246944131423" lon="7.105116671924329" id="-37501">
		<tag k="historic" v="shieling" />
		<tag k="name" v="Vetlestølen" />
		<tag k="place" v="isolated_dwelling" />
		<tag k="ssr:stedsnr" v="129055" />
	</node>
	<node lat="60.85364166549324" lon="7.0731861066579755" id="-37505">
		<tag k="name" v="Øyestølen" />
=======
	<node id="-674405" lat="60.9114166665" lon="7.45454721597">
		<tag k="name" v="Rusti" />
		<tag k="place" v="locality" />
		<tag k="ssr:stedsnr" v="494402" />
	</node>
	<node id="-674404" lat="60.9081916624" lon="7.46055555507">
		<tag k="name" v="Rustavadet" />
>>>>>>> e1d4bc35ff8a6074a6f2e91616a996b547c36f15
		<tag k="place" v="locality" />
		<tag k="ssr:stedsnr" v="129139" />
	</node>
<<<<<<< HEAD
	<node lat="60.91247777495172" lon="7.129486114956004" id="-37520">
		<tag k="name" v="Flenjane" />
=======
	<node id="-675179" lat="60.8986250017" lon="7.1706111052">
		<tag k="alt_name" v="Høgheim" />
		<tag k="name" v="Underbalen" />
		<tag k="place" v="farm" />
		<tag k="ssr:stedsnr" v="939784" />
	</node>
	<node id="-673974" lat="60.7434472185" lon="7.13151944458">
		<tag k="name" v="Vatnahalsen" />
		<tag k="ssr:stedsnr" v="86226" />
		<tag k="tourism" v="hotel" />
	</node>
	<node id="-674401" lat="60.9122083312" lon="7.58786389506">
		<tag k="name" v="Fredlaushytta" />
>>>>>>> e1d4bc35ff8a6074a6f2e91616a996b547c36f15
		<tag k="place" v="locality" />
		<tag k="ssr:stedsnr" v="129199" />
	</node>
<<<<<<< HEAD
	<node lat="60.90369166980061" lon="7.197005564467147" id="-37529">
		<tag k="amenity" v="sports_centre" />
		<tag k="name" v="Hopen" />
		<tag k="ssr:stedsnr" v="130053" />
	</node>
	<node lat="60.75147222070904" lon="7.15083332754082" id="-37532">
=======
	<node id="-674066" lat="60.8536416655" lon="7.07318610666">
		<tag k="name" v="Øyestølen" />
		<tag k="place" v="locality" />
		<tag k="ssr:stedsnr" v="129139" />
	</node>
	<node id="-674907" lat="60.9664388885" lon="7.16785277105">
>>>>>>> e1d4bc35ff8a6074a6f2e91616a996b547c36f15
		<tag k="historic" v="shieling" />
		<tag k="name" v="Reinunga" />
		<tag k="place" v="isolated_dwelling" />
		<tag k="ssr:stedsnr" v="130454" />
	</node>
<<<<<<< HEAD
	<node lat="60.760158331804" lon="7.211880548422545" id="-37533">
		<tag k="historic" v="shieling" />
		<tag k="name" v="Fretheimsdalen" />
		<tag k="place" v="isolated_dwelling" />
		<tag k="ssr:stedsnr" v="130458" />
	</node>
	<node lat="60.7827111113292" lon="7.0941194504880976" id="-37584">
		<tag k="name" v="Vetlestølen" />
		<tag k="place" v="locality" />
		<tag k="ssr:stedsnr" v="150882" />
	</node>
	<node lat="60.87437777483036" lon="7.336852773883222" id="-37600">
		<tag k="fixme" v="consider place=hamlet" />
		<tag k="name" v="Vassbygdi" />
		<tag k="place" v="village" />
		<tag k="ssr:stedsnr" v="190121" />
	</node>
	<node lat="60.857169440865405" lon="7.039630558578624" id="-37601">
		<tag k="name" v="Øyestølen" />
=======
	<node id="-674575" lat="60.9742138935" lon="7.11641389591">
		<tag k="name" v="Storeteigen" />
		<tag k="place" v="locality" />
		<tag k="ssr:stedsnr" v="453143" />
	</node>
	<node id="-674492" lat="60.7507472251" lon="7.108272231">
		<tag k="historic" v="shieling" />
		<tag k="name" v="Fellesstøl" />
		<tag k="place" v="locality" />
		<tag k="ssr:stedsnr" v="514010" />
	</node>
	<node id="-676622" lat="60.9676444468" lon="7.17326665896">
		<tag k="name" v="Nisedalen" />
		<tag k="place" v="locality" />
		<tag k="ssr:stedsnr" v="858235" />
	</node>
	<node id="-675413" lat="60.9614611091" lon="7.16646111337">
		<tag k="name" v="Dalarsteigen" />
>>>>>>> e1d4bc35ff8a6074a6f2e91616a996b547c36f15
		<tag k="place" v="locality" />
		<tag k="ssr:stedsnr" v="190123" />
	</node>
<<<<<<< HEAD
	<node lat="60.85681171605006" lon="7.106291956091068" id="-37602">
		<tag k="alt_name" v="Nedre Brekke;Øvre Brekke" />
		<tag k="fixme" v="consider place=hamlet" />
		<tag k="name" v="Brekke" />
		<tag k="place" v="farm" />
		<tag k="ssr:stedsnr" v="190128" />
	</node>
	<node lat="60.81997777529427" lon="7.125141662443217" id="-37606">
		<tag k="name" v="Botn" />
		<tag k="place" v="farm" />
		<tag k="ssr:stedsnr" v="190039" />
	</node>
	<node lat="60.97502221942257" lon="7.228944439553635" id="-37610">
=======
	<node id="-674062" lat="60.8221416655" lon="7.08495832934">
		<tag k="historic" v="shieling" />
		<tag k="name" v="Øyane" />
		<tag k="place" v="locality" />
		<tag k="ssr:stedsnr" v="129052" />
	</node>
	<node id="-673984" lat="60.8833333291" lon="7.30850833498">
		<tag k="historic" v="shieling" />
		<tag k="name" v="Hola" />
		<tag k="place" v="locality" />
		<tag k="ssr:stedsnr" v="251104" />
	</node>
	<node id="-675408" lat="60.8242666688" lon="7.50093332873">
>>>>>>> e1d4bc35ff8a6074a6f2e91616a996b547c36f15
		<tag k="historic" v="shieling" />
		<tag k="name" v="Øyestølen" />
		<tag k="place" v="isolated_dwelling" />
		<tag k="ssr:stedsnr" v="190244" />
	</node>
<<<<<<< HEAD
	<node lat="60.82050555597836" lon="7.561233324307861" id="-37611">
		<tag k="name" v="Nosi" />
		<tag k="place" v="locality" />
		<tag k="ssr:stedsnr" v="190253" />
	</node>
	<node lat="60.830611111274905" lon="7.496736120041075" id="-37613">
		<tag k="name" v="Viki" />
		<tag k="place" v="isolated_dwelling" />
		<tag k="ssr:stedsnr" v="190278" />
	</node>
	<node lat="60.84309444741179" lon="7.506652779188737" id="-37617">
		<tag k="name" v="Herdølestølen" />
=======
	<node id="-674630" lat="60.864570217" lon="7.40678091298">
		<tag k="alt_name" v="Sinjareim" />
		<tag k="fixme" v="consider place=hamlet" />
		<tag k="name" v="Sinjarheim" />
		<tag k="place" v="farm" />
		<tag k="ssr:stedsnr" v="676343" />
	</node>
	<node id="-675085" lat="60.9243250008" lon="7.14916111">
		<tag k="alt_name" v="Skreda" />
		<tag k="name" v="Gjerlåskrida" />
		<tag k="place" v="locality" />
		<tag k="ssr:stedsnr" v="797170" />
	</node>
	<node id="-675916" lat="60.8373750022" lon="7.11781388053">
		<tag k="name" v="Flåmshagen" />
>>>>>>> e1d4bc35ff8a6074a6f2e91616a996b547c36f15
		<tag k="place" v="locality" />
		<tag k="ssr:stedsnr" v="190382" />
	</node>
<<<<<<< HEAD
	<node lat="60.95908762165011" lon="6.933020342094649" id="-37625">
		<tag k="fixme" v="consider place=hamlet" />
		<tag k="name" v="Dyrdal" />
=======
	<node id="-673946" lat="60.9564530092" lon="7.13217414995">
		<tag k="historic" v="shieling" />
		<tag k="name" v="Husaflaten" />
		<tag k="place" v="locality" />
		<tag k="ssr:stedsnr" v="21417" />
	</node>
	<node id="-674377" lat="60.8981333305" lon="7.21468332865">
		<tag k="name" v="Fossheim" />
>>>>>>> e1d4bc35ff8a6074a6f2e91616a996b547c36f15
		<tag k="place" v="farm" />
		<tag k="ssr:stedsnr" v="190893" />
	</node>
<<<<<<< HEAD
	<node lat="60.875336111170576" lon="7.17741944617404" id="-37627">
=======
	<node id="-674376" lat="60.8921361121" lon="7.19382500088">
>>>>>>> e1d4bc35ff8a6074a6f2e91616a996b547c36f15
		<tag k="historic" v="shieling" />
		<tag k="name" v="Høgsete" />
		<tag k="place" v="isolated_dwelling" />
		<tag k="ssr:stedsnr" v="191080" />
	</node>
	<node lat="60.92408333668744" lon="6.858922221893273" id="-37645">
		<tag k="name" v="Seltuft" />
		<tag k="place" v="locality" />
		<tag k="ssr:stedsnr" v="210990" />
	</node>
	<node lat="60.80942222269326" lon="7.1260555642084515" id="-37655">
		<tag k="name" v="Løengi" />
		<tag k="place" v="locality" />
		<tag k="ssr:stedsnr" v="211027" />
	</node>
<<<<<<< HEAD
	<node lat="60.794680781846424" lon="7.11024687634464" id="-37693">
=======
	<node id="-674375" lat="60.8929441877" lon="7.22664987384">
>>>>>>> e1d4bc35ff8a6074a6f2e91616a996b547c36f15
		<tag k="fixme" v="consider place=hamlet" />
		<tag k="name" v="Tunshelle" />
		<tag k="place" v="farm" />
		<tag k="ssr:stedsnr" v="312057" />
	</node>
<<<<<<< HEAD
	<node lat="60.95104444612945" lon="7.362541657650525" id="-37698">
		<tag k="name" v="Hornshytta" />
		<tag k="place" v="locality" />
		<tag k="ssr:stedsnr" v="311448" />
	</node>
	<node lat="60.853452773872085" lon="7.369805559976564" id="-37699">
		<tag k="historic" v="shieling" />
		<tag k="name" v="Hovdungo" />
		<tag k="place" v="isolated_dwelling" />
		<tag k="ssr:stedsnr" v="311392" />
	</node>
	<node lat="60.90340277445249" lon="7.186291671948715" id="-37702">
		<tag k="name" v="Sandbakken" />
		<tag k="place" v="farm" />
		<tag k="ssr:stedsnr" v="312066" />
	</node>
	<node lat="60.921686477158964" lon="7.199507937203467" id="-37703">
		<tag k="fixme" v="consider place=hamlet" />
		<tag k="name" v="Ty" />
		<tag k="place" v="farm" />
		<tag k="ssr:stedsnr" v="312144" />
	</node>
	<node lat="60.879669030736515" lon="7.169625860342712" id="-37707">
		<tag k="fixme" v="consider place=hamlet" />
		<tag k="name" v="Vikesland" />
		<tag k="place" v="farm" />
		<tag k="ssr:stedsnr" v="312089" />
	</node>
	<node lat="60.96339722019641" lon="6.862133333810848" id="-37736">
		<tag k="historic" v="shieling" />
		<tag k="name" v="Vassete" />
=======
	<node id="-676103" lat="60.7726322723" lon="7.09957336532">
		<tag k="fixme" v="consider place=hamlet" />
		<tag k="name" v="Melhus" />
		<tag k="place" v="farm" />
		<tag k="ssr:stedsnr" v="433452" />
	</node>
	<node id="-676457" lat="60.8402638869" lon="7.12338889724">
		<tag k="name" v="Klørne" />
		<tag k="place" v="farm" />
		<tag k="ssr:stedsnr" v="757075" />
	</node>
	<node id="-675254" lat="60.916866346" lon="7.19614454376">
		<tag k="fixme" v="consider place=hamlet" />
		<tag k="name" v="Gjerlå" />
		<tag k="place" v="farm" />
		<tag k="ssr:stedsnr" v="919159" />
	</node>
	<node id="-674370" lat="60.8056492373" lon="7.10421256022">
		<tag k="fixme" v="consider place=hamlet" />
		<tag k="name" v="Vidme" />
		<tag k="place" v="farm" />
		<tag k="ssr:stedsnr" v="494054" />
	</node>
	<node id="-675391" lat="60.8836472224" lon="7.24288888884">
		<tag k="amenity" v="school" />
		<tag k="name" v="Dalen" />
		<tag k="ssr:stedsnr" v="29139" />
	</node>
	<node id="-674365" lat="60.9802972207" lon="6.87613888937">
		<tag k="name" v="Hjølmo" />
>>>>>>> e1d4bc35ff8a6074a6f2e91616a996b547c36f15
		<tag k="place" v="isolated_dwelling" />
		<tag k="ssr:stedsnr" v="312901" />
	</node>
<<<<<<< HEAD
	<node lat="60.94986944302119" lon="7.104086115400459" id="-37741">
=======
	<node id="-675900" lat="60.949869443" lon="7.1040861154">
>>>>>>> e1d4bc35ff8a6074a6f2e91616a996b547c36f15
		<tag k="name" v="Nigarden" />
		<tag k="place" v="farm" />
		<tag k="ssr:stedsnr" v="325346" />
	</node>
<<<<<<< HEAD
	<node lat="60.83737500222781" lon="7.117813880532496" id="-37749">
		<tag k="name" v="Flåmshagen" />
		<tag k="place" v="locality" />
		<tag k="ssr:stedsnr" v="332219" />
	</node>
	<node lat="60.83890000425009" lon="7.12457776841057" id="-37754">
		<tag k="name" v="Ingridteigen" />
		<tag k="place" v="locality" />
		<tag k="ssr:stedsnr" v="332181" />
	</node>
	<node lat="60.89099444444327" lon="7.252994445109907" id="-37801">
		<tag k="historic" v="shieling" />
		<tag k="name" v="Totland" />
		<tag k="place" v="isolated_dwelling" />
		<tag k="ssr:stedsnr" v="372093" />
	</node>
	<node lat="60.89730277404439" lon="7.236058339983611" id="-37802">
		<tag k="alt_name" v="Furuberg" />
		<tag k="historic" v="shieling" />
		<tag k="name" v="Furberg" />
		<tag k="place" v="isolated_dwelling" />
		<tag k="ssr:stedsnr" v="372095" />
	</node>
	<node lat="60.91243722522954" lon="7.1934831306466" id="-37804">
		<tag k="fixme" v="consider place=hamlet" />
		<tag k="name" v="Vinjane" />
		<tag k="place" v="farm" />
		<tag k="ssr:stedsnr" v="372184" />
	</node>
	<node lat="60.843708330874655" lon="7.335300005231928" id="-37807">
		<tag k="historic" v="shieling" />
		<tag k="name" v="Botolvsstølen" />
		<tag k="place" v="isolated_dwelling" />
		<tag k="ssr:stedsnr" v="372017" />
	</node>
	<node lat="60.837881764519345" lon="7.292756409297561" id="-37808">
		<tag k="fixme" v="multiple name tags, choose one and add the other to alt_name" />
=======
	<node id="-676106" lat="60.8236555528" lon="7.470025003">
		<tag k="historic" v="shieling" />
		<tag k="name" v="Kringla" />
		<tag k="place" v="locality" />
		<tag k="ssr:stedsnr" v="433261" />
	</node>
	<node id="-676410" lat="60.7339416712" lon="7.12044166838">
		<tag k="fixme" v="consider tourism=alpine_hut or tourism=chalet" />
		<tag k="name" v="Myrdal Fjellstove" />
		<tag k="ssr:stedsnr" v="753172" />
		<tag k="tourism" v="wilderness_hut" />
	</node>
	<node id="-675897" lat="60.8933686635" lon="7.16226576516">
		<tag k="fixme" v="consider place=hamlet" />
		<tag k="name" v="Kvitt" />
		<tag k="place" v="farm" />
		<tag k="ssr:stedsnr" v="323424" />
	</node>
	<node id="-674360" lat="60.9587416701" lon="7.48223054931">
		<tag k="name" v="Gjetarhyttene" />
		<tag k="place" v="locality" />
		<tag k="ssr:stedsnr" v="493468" />
	</node>
	<node id="-674871" lat="60.887122221" lon="7.33842500513">
		<tag k="name" v="Kvålene" />
		<tag k="place" v="locality" />
		<tag k="ssr:stedsnr" v="878324" />
	</node>
	<node id="-676406" lat="60.7503138863" lon="7.1218694433">
>>>>>>> e1d4bc35ff8a6074a6f2e91616a996b547c36f15
		<tag k="historic" v="shieling" />
		<tag k="name" v="Ådnastølen;Låvistølen" />
		<tag k="place" v="isolated_dwelling" />
		<tag k="ssr:stedsnr" v="372019" />
	</node>
<<<<<<< HEAD
	<node lat="60.82915555745984" lon="7.1594472265866616" id="-37813">
		<tag k="historic" v="shieling" />
		<tag k="name" v="Gudmedalen" />
		<tag k="place" v="isolated_dwelling" />
		<tag k="ssr:stedsnr" v="372035" />
	</node>
	<node lat="60.92730000253811" lon="7.149263887253826" id="-37818">
		<tag k="alt_name" v="Kvamsteigane" />
		<tag k="name" v="Kvamsteigen" />
		<tag k="place" v="locality" />
		<tag k="ssr:stedsnr" v="372148" />
	</node>
	<node lat="60.96601111143544" lon="7.206983327510671" id="-37820">
		<tag k="alt_name" v="Øyestølen, heimste;Heimste øystølen" />
		<tag k="historic" v="shieling" />
		<tag k="name" v="Heimste Øyestølen" />
		<tag k="place" v="isolated_dwelling" />
		<tag k="ssr:stedsnr" v="372241" />
	</node>
	<node lat="60.9633499975387" lon="7.20728056160898" id="-37821">
		<tag k="historic" v="shieling" />
		<tag k="name" v="Nystølen" />
		<tag k="place" v="isolated_dwelling" />
		<tag k="ssr:stedsnr" v="372244" />
	</node>
	<node lat="60.85049166607651" lon="7.432224993651113" id="-37824">
		<tag k="name" v="Øyestølen" />
=======
	<node id="-674569" lat="60.8284782867" lon="7.50470821539">
		<tag k="fixme" v="consider tourism=alpine_hut or tourism=chalet" />
		<tag k="name" v="Aurlandsdalen turisthytte" />
		<tag k="old_name" v="Østerbø;Østerbø Turisthytte" />
		<tag k="ssr:stedsnr" v="449008" />
		<tag k="tourism" v="wilderness_hut" />
	</node>
	<node id="-675380" lat="60.8950277759" lon="7.16724443807">
		<tag k="name" v="Hatleteigen" />
		<tag k="place" v="farm" />
		<tag k="ssr:stedsnr" v="28809" />
	</node>
	<node id="-675251" lat="60.9770277751" lon="7.05398611536">
		<tag k="historic" v="shieling" />
		<tag k="name" v="Åsen" />
		<tag k="place" v="locality" />
		<tag k="ssr:stedsnr" v="919221" />
	</node>
	<node id="-675919" lat="60.8389000043" lon="7.12457776841">
		<tag k="name" v="Ingridteigen" />
		<tag k="place" v="locality" />
		<tag k="ssr:stedsnr" v="332181" />
	</node>
	<node id="-674349" lat="60.9246319629" lon="7.19891326785">
		<tag k="fixme" v="consider place=hamlet" />
		<tag k="name" v="Høydalen" />
		<tag k="place" v="farm" />
		<tag k="ssr:stedsnr" v="493178" />
	</node>
	<node id="-674346" lat="60.8522499959" lon="7.08205278475">
		<tag k="name" v="Ljosdalen" />
>>>>>>> e1d4bc35ff8a6074a6f2e91616a996b547c36f15
		<tag k="place" v="locality" />
		<tag k="ssr:stedsnr" v="372383" />
	</node>
<<<<<<< HEAD
	<node lat="60.84155555212408" lon="7.348288896431208" id="-37826">
		<tag k="alt_name" v="Vetlesladden" />
		<tag k="name" v="Sladden" />
		<tag k="place" v="locality" />
		<tag k="ssr:stedsnr" v="372385" />
	</node>
	<node lat="60.8979638873121" lon="7.379677772780431" id="-37834">
		<tag k="historic" v="shieling" />
		<tag k="name" v="Stuasete" />
		<tag k="place" v="isolated_dwelling" />
		<tag k="ssr:stedsnr" v="372435" />
	</node>
	<node lat="60.983675000817584" lon="6.8858222233607576" id="-37841">
		<tag k="historic" v="shieling" />
		<tag k="name" v="Torisstølen" />
		<tag k="place" v="isolated_dwelling" />
		<tag k="ssr:stedsnr" v="372937" />
	</node>
	<node lat="60.777302781954795" lon="7.701430549558184" id="-37842">
		<tag k="fixme" v="consider tourism=alpine_hut or tourism=chalet" />
		<tag k="name" v="Kongshelleren" />
		<tag k="ssr:stedsnr" v="373274" />
		<tag k="tourism" v="wilderness_hut" />
	</node>
	<node lat="60.901138886285544" lon="7.2046777756976015" id="-37859">
		<tag k="name" v="Furuly" />
		<tag k="place" v="farm" />
		<tag k="ssr:stedsnr" v="392518" />
	</node>
	<node lat="60.82847828665324" lon="7.50470821539193" id="-37900">
		<tag k="fixme" v="consider tourism=alpine_hut or tourism=chalet" />
		<tag k="name" v="Aurlandsdalen turisthytte" />
		<tag k="old_name" v="Østerbø;Østerbø Turisthytte" />
		<tag k="ssr:stedsnr" v="449008" />
		<tag k="tourism" v="wilderness_hut" />
	</node>
	<node lat="60.81361389070304" lon="7.139505560796384" id="-37907">
=======
	<node id="-674055" lat="60.8495462068" lon="7.31201718644">
		<tag k="historic" v="shieling" />
		<tag k="name" v="Grimsete" />
		<tag k="place" v="locality" />
		<tag k="ssr:stedsnr" v="129004" />
	</node>
	<node id="-675411" lat="60.9783444411" lon="6.91858332921">
		<tag k="name" v="Håbruteigen" />
		<tag k="place" v="locality" />
		<tag k="ssr:stedsnr" v="29778" />
	</node>
	<node id="-674993" lat="60.9642638874" lon="7.17471944214">
		<tag k="historic" v="shieling" />
		<tag k="name" v="Mørkeli" />
		<tag k="place" v="locality" />
		<tag k="ssr:stedsnr" v="696907" />
	</node>
	<node id="-675445" lat="60.8609055533" lon="7.3878888931">
		<tag k="name" v="Frivoll" />
		<tag k="place" v="locality" />
		<tag k="ssr:stedsnr" v="69336" />
	</node>
	<node id="-675873" lat="60.7874111126" lon="7.56850555617">
		<tag k="name" v="Nipa" />
		<tag k="place" v="locality" />
		<tag k="ssr:stedsnr" v="312291" />
	</node>
	<node id="-676408" lat="60.8279868076" lon="7.50272681367">
		<tag k="fixme" v="consider place=hamlet" />
		<tag k="name" v="Aurdalen" />
		<tag k="place" v="farm" />
		<tag k="ssr:stedsnr" v="751286" />
	</node>
	<node id="-676383" lat="60.9567502909" lon="7.14981885821">
>>>>>>> e1d4bc35ff8a6074a6f2e91616a996b547c36f15
		<tag k="historic" v="shieling" />
		<tag k="name" v="Kleistdalen" />
		<tag k="place" v="isolated_dwelling" />
		<tag k="ssr:stedsnr" v="433058" />
	</node>
	<node lat="60.94232500252523" lon="7.135008337119185" id="-37910">
		<tag k="name" v="Rudningen" />
		<tag k="place" v="locality" />
		<tag k="ssr:stedsnr" v="433136" />
	</node>
	<node lat="60.89611800903703" lon="7.349550687681192" id="-37918">
		<tag k="fixme" v="consider place=hamlet" />
		<tag k="name" v="Midje" />
		<tag k="place" v="farm" />
		<tag k="ssr:stedsnr" v="433396" />
	</node>
<<<<<<< HEAD
	<node lat="60.823655552754474" lon="7.470025003000087" id="-37922">
=======
	<node id="-676382" lat="60.9538944429" lon="7.1738499975">
>>>>>>> e1d4bc35ff8a6074a6f2e91616a996b547c36f15
		<tag k="historic" v="shieling" />
		<tag k="name" v="Kringla" />
		<tag k="place" v="isolated_dwelling" />
		<tag k="ssr:stedsnr" v="433261" />
	</node>
<<<<<<< HEAD
	<node lat="60.822758335318575" lon="7.432052780727661" id="-37925">
		<tag k="name" v="Berdalen" />
		<tag k="place" v="isolated_dwelling" />
		<tag k="ssr:stedsnr" v="433341" />
	</node>
	<node lat="60.77263227225007" lon="7.099573365320603" id="-37931">
		<tag k="fixme" v="consider place=hamlet" />
		<tag k="name" v="Melhus" />
		<tag k="place" v="farm" />
		<tag k="ssr:stedsnr" v="433452" />
	</node>
	<node lat="60.87886389137752" lon="7.4303694437952865" id="-37938">
		<tag k="name" v="Smørkoven" />
=======
	<node id="-676380" lat="60.8871305596" lon="7.23219722531">
		<tag k="name" v="Mjå" />
		<tag k="place" v="locality" />
		<tag k="ssr:stedsnr" v="737085" />
	</node>
	<node id="-675354" lat="60.9736194469" lon="7.11190555683">
		<tag k="name" v="Gamle Kappadalen" />
>>>>>>> e1d4bc35ff8a6074a6f2e91616a996b547c36f15
		<tag k="place" v="locality" />
		<tag k="ssr:stedsnr" v="434290" />
	</node>
<<<<<<< HEAD
	<node lat="60.925249997605576" lon="6.838822228402266" id="-37939">
		<tag k="name" v="Rimstigen" />
		<tag k="place" v="locality" />
		<tag k="ssr:stedsnr" v="433876" />
	</node>
	<node lat="60.894497220586494" lon="7.183219435328457" id="-37940">
=======
	<node id="-675863" lat="60.9722777745" lon="7.11839721912">
>>>>>>> e1d4bc35ff8a6074a6f2e91616a996b547c36f15
		<tag k="historic" v="shieling" />
		<tag k="name" v="Sele" />
		<tag k="place" v="isolated_dwelling" />
		<tag k="ssr:stedsnr" v="434064" />
	</node>
<<<<<<< HEAD
	<node lat="61.01508333047237" lon="7.331880562749611" id="-37943">
=======
	<node id="-675862" lat="60.905705558" lon="7.0604000084">
>>>>>>> e1d4bc35ff8a6074a6f2e91616a996b547c36f15
		<tag k="historic" v="shieling" />
		<tag k="name" v="Skålane" />
		<tag k="place" v="isolated_dwelling" />
		<tag k="ssr:stedsnr" v="434361" />
	</node>
<<<<<<< HEAD
	<node lat="60.763811108637" lon="7.372633331104354" id="-37951">
		<tag k="name" v="Lordahytta" />
		<tag k="place" v="isolated_dwelling" />
		<tag k="ssr:stedsnr" v="509781" />
	</node>
	<node lat="60.84635000212211" lon="7.115388881884271" id="-37964">
		<tag k="name" v="Brekkehagen" />
=======
	<node id="-676373" lat="60.9755750006" lon="6.9147305602">
		<tag k="name" v="Drægali" />
		<tag k="place" v="farm" />
		<tag k="ssr:stedsnr" v="736898" />
	</node>
	<node id="-675347" lat="60.8264972265" lon="7.14231389016">
		<tag k="historic" v="shieling" />
		<tag k="name" v="Tjørnsete" />
>>>>>>> e1d4bc35ff8a6074a6f2e91616a996b547c36f15
		<tag k="place" v="locality" />
		<tag k="ssr:stedsnr" v="514092" />
	</node>
<<<<<<< HEAD
	<node lat="60.911752774229754" lon="7.189152781794097" id="-37980">
		<tag k="amenity" v="nursing_home" />
		<tag k="name" v="Sjukestova" />
		<tag k="ssr:stedsnr" v="514388" />
	</node>
	<node lat="60.97409166893743" lon="6.925244435344293" id="-37989">
		<tag k="name" v="Svillateigene" />
=======
	<node id="-675858" lat="60.9143416713" lon="7.23757222894">
		<tag k="historic" v="shieling" />
		<tag k="name" v="Glomsete" />
		<tag k="place" v="locality" />
		<tag k="ssr:stedsnr" v="312164" />
	</node>
	<node id="-674967" lat="60.9417314249" lon="6.9360579385">
		<tag k="fixme" v="consider place=hamlet" />
		<tag k="name" v="Styvi" />
		<tag k="place" v="farm" />
		<tag k="ssr:stedsnr" v="676865" />
	</node>
	<node id="-674320" lat="60.8321361073" lon="7.4987500088">
		<tag k="historic" v="shieling" />
		<tag k="name" v="Vetlestølen" />
>>>>>>> e1d4bc35ff8a6074a6f2e91616a996b547c36f15
		<tag k="place" v="locality" />
		<tag k="ssr:stedsnr" v="514773" />
	</node>
<<<<<<< HEAD
	<node lat="60.860520609121565" lon="7.403178338828263" id="-38010">
		<tag k="fixme" v="consider place=hamlet" />
		<tag k="name" v="Teigen" />
		<tag k="place" v="farm" />
		<tag k="ssr:stedsnr" v="554341" />
	</node>
	<node lat="60.83294444307316" lon="7.495794443770965" id="-38013">
		<tag k="name" v="Jono" />
		<tag k="place" v="locality" />
		<tag k="ssr:stedsnr" v="554367" />
	</node>
	<node lat="60.88345555454513" lon="7.215008337369213" id="-38020">
		<tag k="historic" v="shieling" />
		<tag k="name" v="Hovden" />
		<tag k="place" v="isolated_dwelling" />
		<tag k="ssr:stedsnr" v="554085" />
	</node>
	<node lat="60.88304846393415" lon="7.25195551802082" id="-38022">
		<tag k="fixme" v="consider place=hamlet" />
		<tag k="name" v="Tero" />
		<tag k="place" v="farm" />
		<tag k="ssr:stedsnr" v="554094" />
	</node>
	<node lat="60.97054999719372" lon="7.135091666187415" id="-38037">
		<tag k="historic" v="shieling" />
		<tag k="name" v="Vassetstølen" />
		<tag k="place" v="isolated_dwelling" />
		<tag k="ssr:stedsnr" v="554246" />
	</node>
	<node lat="60.924418773503966" lon="6.867129373000881" id="-38046">
		<tag k="fixme" v="consider place=hamlet" />
		<tag k="name" v="Tufto" />
=======
	<node id="-674004" lat="60.7728500023" lon="7.57396388628">
		<tag k="name" v="Fitjane" />
		<tag k="place" v="locality" />
		<tag k="ssr:stedsnr" v="251340" />
	</node>
	<node id="-676366" lat="60.7806305521" lon="6.91071389086">
		<tag k="name" v="Stordalen" />
		<tag k="place" v="locality" />
		<tag k="ssr:stedsnr" v="736792" />
	</node>
	<node id="-674733" lat="60.8590794666" lon="6.78866203658">
		<tag k="fixme" v="consider place=hamlet" />
		<tag k="name" v="Hemri" />
		<tag k="place" v="farm" />
		<tag k="ssr:stedsnr" v="554854" />
	</node>
	<node id="-675849" lat="60.9034027745" lon="7.18629167195">
		<tag k="name" v="Sandbakken" />
>>>>>>> e1d4bc35ff8a6074a6f2e91616a996b547c36f15
		<tag k="place" v="farm" />
		<tag k="ssr:stedsnr" v="554891" />
	</node>
<<<<<<< HEAD
	<node lat="60.859079466645156" lon="6.788662036579421" id="-38050">
		<tag k="fixme" v="consider place=hamlet" />
		<tag k="name" v="Hemri" />
		<tag k="place" v="farm" />
		<tag k="ssr:stedsnr" v="554854" />
	</node>
	<node lat="60.849444442637655" lon="7.109436118718639" id="-38058">
		<tag k="name" v="Lunden" />
=======
	<node id="-675848" lat="60.8999750009" lon="7.20869999664">
		<tag k="name" v="Lunde" />
		<tag k="place" v="farm" />
		<tag k="ssr:stedsnr" v="312065" />
	</node>
	<node id="-675846" lat="60.7946807818" lon="7.11024687634">
		<tag k="fixme" v="consider place=hamlet" />
		<tag k="name" v="Tunshelle" />
>>>>>>> e1d4bc35ff8a6074a6f2e91616a996b547c36f15
		<tag k="place" v="farm" />
		<tag k="ssr:stedsnr" v="570130" />
	</node>
<<<<<<< HEAD
	<node lat="60.90454722307032" lon="7.197630551787771" id="-38071">
		<tag k="amenity" v="nursing_home" />
		<tag k="name" v="Gamleheimen" />
		<tag k="ssr:stedsnr" v="574420" />
	</node>
	<node lat="60.79131388789882" lon="7.111991668935772" id="-38098">
		<tag k="name" v="Hellerengi" />
=======
	<node id="-675985" lat="60.9633499975" lon="7.20728056161">
		<tag k="historic" v="shieling" />
		<tag k="name" v="Nystølen" />
		<tag k="place" v="locality" />
		<tag k="ssr:stedsnr" v="372244" />
	</node>
	<node id="-674307" lat="60.8990638923" lon="7.14393332409">
		<tag k="name" v="Myri" />
>>>>>>> e1d4bc35ff8a6074a6f2e91616a996b547c36f15
		<tag k="place" v="locality" />
		<tag k="ssr:stedsnr" v="574976" />
	</node>
<<<<<<< HEAD
	<node lat="60.72477500134216" lon="7.020152777143028" id="-38119">
		<tag k="alt_name" v="Uppsete, vetle" />
		<tag k="historic" v="shieling" />
		<tag k="loc_name" v="Vetla Uppsete" />
		<tag k="name" v="Vetle Uppsete" />
		<tag k="place" v="isolated_dwelling" />
		<tag k="ssr:stedsnr" v="603096" />
	</node>
	<node lat="60.86168333314877" lon="7.168069448654217" id="-38122">
		<tag k="historic" v="shieling" />
		<tag k="name" v="Joasete" />
		<tag k="place" v="isolated_dwelling" />
		<tag k="ssr:stedsnr" v="614118" />
	</node>
	<node lat="60.79864583506556" lon="7.240359832588424" id="-38130">
		<tag k="historic" v="shieling" />
		<tag k="name" v="Åtnesdalen" />
		<tag k="place" v="isolated_dwelling" />
		<tag k="ssr:stedsnr" v="615061" />
	</node>
	<node lat="60.8706277746124" lon="7.067872228077876" id="-38133">
		<tag k="name" v="Lintu" />
		<tag k="place" v="locality" />
		<tag k="ssr:stedsnr" v="615090" />
	</node>
	<node lat="60.92181389263582" lon="7.203175007757641" id="-38140">
		<tag k="name" v="Nordby" />
		<tag k="place" v="farm" />
		<tag k="ssr:stedsnr" v="615137" />
	</node>
	<node lat="60.79479444751694" lon="7.384286112966277" id="-38141">
		<tag k="historic" v="shieling" />
		<tag k="name" v="Rausmesdalen" />
		<tag k="place" v="isolated_dwelling" />
		<tag k="ssr:stedsnr" v="615238" />
	</node>
	<node lat="60.843441666190536" lon="7.117813883728296" id="-38162">
		<tag k="amenity" v="school" />
		<tag k="name" v="Flåm skule" />
		<tag k="ssr:stedsnr" v="635068" />
	</node>
	<node lat="60.7594027763133" lon="7.111069453163694" id="-38167">
		<tag k="historic" v="shieling" />
		<tag k="name" v="Kvanntjørn" />
		<tag k="place" v="isolated_dwelling" />
		<tag k="ssr:stedsnr" v="627412" />
	</node>
	<node lat="60.810638887309615" lon="7.062008326166155" id="-38171">
		<tag k="name" v="Bjørndalen" />
		<tag k="place" v="locality" />
		<tag k="ssr:stedsnr" v="631080" />
	</node>
	<node lat="60.89450278015685" lon="7.340988894228184" id="-38187">
		<tag k="name" v="Hansateigen" />
		<tag k="place" v="locality" />
		<tag k="ssr:stedsnr" v="635299" />
	</node>
	<node lat="60.885561108826096" lon="7.312616672009504" id="-38199">
		<tag k="historic" v="shieling" />
		<tag k="name" v="Øyaselet" />
		<tag k="place" v="isolated_dwelling" />
		<tag k="ssr:stedsnr" v="635757" />
	</node>
	<node lat="60.97557500063559" lon="6.914730560197647" id="-38219">
		<tag k="name" v="Drægali" />
		<tag k="place" v="farm" />
		<tag k="ssr:stedsnr" v="736898" />
	</node>
	<node lat="60.94955833136848" lon="7.18399721408614" id="-38224">
		<tag k="name" v="Bygningen" />
		<tag k="place" v="isolated_dwelling" />
		<tag k="ssr:stedsnr" v="736134" />
	</node>
	<node lat="60.92703888695755" lon="7.125919445354636" id="-38226">
		<tag k="name" v="Dimma" />
		<tag k="place" v="locality" />
		<tag k="ssr:stedsnr" v="736148" />
	</node>
	<node lat="60.93353611320616" lon="7.086041668851223" id="-38228">
		<tag k="historic" v="shieling" />
		<tag k="name" v="Hjølla" />
		<tag k="place" v="isolated_dwelling" />
		<tag k="ssr:stedsnr" v="736157" />
	</node>
	<node lat="60.83744444222164" lon="7.4416555517435725" id="-38234">
		<tag k="historic" v="shieling" />
		<tag k="name" v="Holmen" />
		<tag k="place" v="isolated_dwelling" />
		<tag k="ssr:stedsnr" v="736331" />
	</node>
	<node lat="60.85125555167788" lon="7.52355555056377" id="-38235">
		<tag k="historic" v="shieling" />
		<tag k="name" v="Langedalen" />
		<tag k="place" v="isolated_dwelling" />
		<tag k="ssr:stedsnr" v="736343" />
	</node>
	<node lat="60.78063055212373" lon="6.91071389086386" id="-38238">
		<tag k="name" v="Stordalen" />
		<tag k="place" v="locality" />
		<tag k="ssr:stedsnr" v="736792" />
	</node>
	<node lat="60.82798680757186" lon="7.502726813665838" id="-38262">
		<tag k="fixme" v="consider place=hamlet" />
		<tag k="name" v="Aurdalen" />
		<tag k="place" v="farm" />
		<tag k="ssr:stedsnr" v="751286" />
	</node>
	<node lat="60.9271805580277" lon="6.863241659216101" id="-38265">
		<tag k="name" v="Flåtane" />
		<tag k="place" v="locality" />
		<tag k="ssr:stedsnr" v="755986" />
	</node>
	<node lat="60.93264722253991" lon="7.200869447232366" id="-38290">
		<tag k="name" v="Tyhagane" />
		<tag k="place" v="locality" />
		<tag k="ssr:stedsnr" v="757936" />
	</node>
	<node lat="60.84026388692593" lon="7.1233888972429" id="-38297">
		<tag k="name" v="Klørne" />
		<tag k="place" v="farm" />
		<tag k="ssr:stedsnr" v="757075" />
	</node>
	<node lat="60.828619442279376" lon="7.4876166604772685" id="-38302">
		<tag k="historic" v="shieling" />
		<tag k="name" v="Vetlestølen" />
		<tag k="place" v="isolated_dwelling" />
		<tag k="ssr:stedsnr" v="757287" />
	</node>
	<node lat="60.97516111120578" lon="6.920694435808407" id="-38313">
		<tag k="name" v="Bordteigen" />
		<tag k="place" v="locality" />
		<tag k="ssr:stedsnr" v="757740" />
	</node>
	<node lat="60.9760916665106" lon="7.215361104924674" id="-38317">
		<tag k="historic" v="shieling" />
		<tag k="name" v="Skulesete" />
		<tag k="place" v="isolated_dwelling" />
		<tag k="ssr:stedsnr" v="757968" />
	</node>
	<node lat="60.810781260937226" lon="7.122407076822091" id="-38339">
		<tag k="fixme" v="consider place=hamlet" />
		<tag k="name" v="Dalsbotn" />
		<tag k="place" v="farm" />
		<tag k="ssr:stedsnr" v="797042" />
	</node>
	<node lat="60.915302781232576" lon="7.144869446324653" id="-38347">
		<tag k="name" v="Kvitaberg" />
		<tag k="place" v="locality" />
		<tag k="ssr:stedsnr" v="797184" />
	</node>
	<node lat="60.83514999601402" lon="7.491330562000116" id="-38352">
		<tag k="historic" v="shieling" />
		<tag k="name" v="Myrane" />
		<tag k="place" v="isolated_dwelling" />
		<tag k="ssr:stedsnr" v="797335" />
	</node>
	<node lat="60.8374333357749" lon="7.471994440148632" id="-38353">
		<tag k="historic" v="shieling" />
		<tag k="name" v="Tindi" />
		<tag k="place" v="isolated_dwelling" />
		<tag k="ssr:stedsnr" v="797338" />
	</node>
	<node lat="61.0344083346495" lon="7.079816665338374" id="-38362">
		<tag k="historic" v="shieling" />
		<tag k="name" v="Nordheimsdalen" />
		<tag k="place" v="isolated_dwelling" />
		<tag k="ssr:stedsnr" v="798375" />
	</node>
	<node lat="60.89214420754524" lon="7.23469906186258" id="-38366">
		<tag k="fixme" v="consider place=hamlet" />
		<tag k="name" v="Skaim" />
		<tag k="place" v="farm" />
		<tag k="ssr:stedsnr" v="798076" />
	</node>
	<node lat="60.897691666088484" lon="7.177211108806336" id="-38391">
		<tag k="name" v="Oppheim" />
		<tag k="place" v="locality" />
		<tag k="ssr:stedsnr" v="817460" />
	</node>
	<node lat="60.97316388967061" lon="7.059822217642884" id="-38412">
		<tag k="name" v="Øvste Stigen" />
		<tag k="place" v="farm" />
		<tag k="ssr:stedsnr" v="818115" />
	</node>
	<node lat="60.80162778073565" lon="6.997388897433858" id="-38438">
		<tag k="name" v="Skubbesete" />
		<tag k="place" v="locality" />
		<tag k="ssr:stedsnr" v="858053" />
	</node>
	<node lat="60.90091388534611" lon="7.231088885350924" id="-38441">
		<tag k="historic" v="shieling" />
		<tag k="name" v="Galden" />
		<tag k="place" v="isolated_dwelling" />
		<tag k="ssr:stedsnr" v="858069" />
	</node>
	<node lat="60.96764444678302" lon="7.173266658958639" id="-38447">
		<tag k="name" v="Nisedalen" />
		<tag k="place" v="locality" />
		<tag k="ssr:stedsnr" v="858235" />
	</node>
	<node lat="60.95827777573253" lon="6.827177784219752" id="-38452">
		<tag k="name" v="Kolsete" />
		<tag k="place" v="locality" />
		<tag k="ssr:stedsnr" v="858909" />
	</node>
	<node lat="60.86905833686066" lon="7.408344439945075" id="-38456">
		<tag k="name" v="Orrasete" />
		<tag k="place" v="locality" />
		<tag k="ssr:stedsnr" v="858345" />
	</node>
	<node lat="60.830413885788005" lon="7.4517277752346995" id="-38458">
		<tag k="name" v="Ljøtebotn" />
		<tag k="place" v="locality" />
		<tag k="ssr:stedsnr" v="858350" />
	</node>
	<node lat="60.836734713552715" lon="7.423032197731116" id="-38459">
		<tag k="alt_name" v="Vetleberekvam" />
		<tag k="name" v="Berekvam" />
		<tag k="place" v="locality" />
		<tag k="ssr:stedsnr" v="858355" />
	</node>
	<node lat="60.904933336711935" lon="7.413508339594143" id="-38461">
		<tag k="historic" v="shieling" />
		<tag k="name" v="Kleå" />
		<tag k="place" v="isolated_dwelling" />
		<tag k="ssr:stedsnr" v="858446" />
	</node>
	<node lat="60.88712222101528" lon="7.338425005128103" id="-38485">
		<tag k="name" v="Kvålene" />
		<tag k="place" v="locality" />
		<tag k="ssr:stedsnr" v="878324" />
	</node>
	<node lat="60.89000833605427" lon="7.3378972155536815" id="-38487">
		<tag k="name" v="Geitheim" />
		<tag k="place" v="locality" />
		<tag k="ssr:stedsnr" v="878337" />
	</node>
	<node lat="60.99838610923686" lon="6.971525002847292" id="-38512">
		<tag k="historic" v="shieling" />
		<tag k="name" v="Legdo" />
		<tag k="place" v="isolated_dwelling" />
		<tag k="ssr:stedsnr" v="878873" />
	</node>
	<node lat="60.84136111194915" lon="7.121955556758148" id="-38524">
		<tag k="name" v="Moldstein" />
		<tag k="place" v="farm" />
		<tag k="ssr:stedsnr" v="939083" />
	</node>
	<node lat="60.8986250017305" lon="7.170611105200807" id="-38554">
		<tag k="alt_name" v="Høgheim" />
		<tag k="name" v="Underbalen" />
		<tag k="place" v="farm" />
		<tag k="ssr:stedsnr" v="939784" />
	</node>
	<node lat="60.92009166384142" lon="7.152388897554672" id="-38567">
		<tag k="historic" v="shieling" />
		<tag k="name" v="Stølsnes" />
		<tag k="place" v="isolated_dwelling" />
		<tag k="ssr:stedsnr" v="939773" />
	</node>
	<node lat="60.85186666253082" lon="7.09879167416845" id="-38574">
		<tag k="name" v="Fossen" />
		<tag k="place" v="locality" />
		<tag k="ssr:stedsnr" v="939979" />
	</node>
	<node lat="60.72685241045653" lon="7.01915064560575" id="-38583">
		<tag k="fixme" v="consider tourism=alpine_hut or tourism=chalet" />
		<tag k="name" v="Upsete fjellstove" />
		<tag k="ssr:stedsnr" v="987818" />
		<tag k="tourism" v="wilderness_hut" />
	</node>
	<node lat="60.955993472984325" lon="7.146098857142171" id="-38589">
		<tag k="historic" v="shieling" />
		<tag k="name" v="Lindedokki" />
		<tag k="place" v="isolated_dwelling" />
		<tag k="ssr:stedsnr" v="1075106" />
=======
	<node id="-674818" lat="60.8855611088" lon="7.31261667201">
		<tag k="historic" v="shieling" />
		<tag k="name" v="Øyaselet" />
		<tag k="place" v="locality" />
		<tag k="ssr:stedsnr" v="635757" />
	</node>
	<node id="-673963" lat="60.8979611099" lon="7.16833333442">
		<tag k="name" v="Nordli" />
		<tag k="place" v="farm" />
		<tag k="ssr:stedsnr" v="236704" />
>>>>>>> e1d4bc35ff8a6074a6f2e91616a996b547c36f15
	</node>
</osm>
