<?xml version="1.0" encoding="UTF-8"?>
<osm version="0.6" generator="osmapis">
	<node lat="60.744933329728134" lon="7.31302777864787" id="-85571">
		<tag k="name" v="Storskavlen" />
		<tag k="natural" v="glacier" />
		<tag k="ssr:stedsnr" v="7002" />
	</node>
	<node lat="60.888050004043734" lon="7.492999997273334" id="-85603">
		<tag k="name" v="Langafonni" />
		<tag k="natural" v="glacier" />
		<tag k="ssr:stedsnr" v="9393" />
	</node>
	<node lat="60.88454444859654" lon="7.276716659547364" id="-85630">
		<tag k="name" v="Dradla" />
		<tag k="natural" v="wetland" />
		<tag k="ssr:stedsnr" v="29774" />
	</node>
	<node lat="60.69685277656139" lon="7.368250007720024" id="-85639">
		<tag k="name" v="Skomabreen" />
		<tag k="natural" v="glacier" />
		<tag k="ssr:stedsnr" v="68208" />
	</node>
	<node lat="60.846927779040286" lon="7.104869449115642" id="-85690">
		<tag k="name" v="Hildurane" />
		<tag k="natural" v="scree" />
		<tag k="ssr:stedsnr" v="89977" />
	</node>
	<node lat="60.882188890395625" lon="7.029138895109296" id="-85703">
		<tag k="name" v="Storuri" />
		<tag k="natural" v="scree" />
		<tag k="ssr:stedsnr" v="251092" />
	</node>
	<node lat="60.67995277349396" lon="7.455872225409617" id="-85768">
		<tag k="name" v="Vargabreen" />
		<tag k="natural" v="glacier" />
		<tag k="ssr:stedsnr" v="128189" />
	</node>
	<node lat="60.92258333481381" lon="6.881433326576409" id="-85886">
		<tag k="name" v="Bringebærurane" />
		<tag k="natural" v="scree" />
		<tag k="ssr:stedsnr" v="210231" />
	</node>
	<node lat="60.845172224647705" lon="7.140550003489922" id="-85933">
		<tag k="name" v="Bollesteinurane" />
		<tag k="natural" v="scree" />
		<tag k="ssr:stedsnr" v="271064" />
	</node>
	<node lat="60.84491944093226" lon="7.130719437991061" id="-85938">
		<tag k="name" v="Myrane" />
		<tag k="natural" v="wetland" />
		<tag k="ssr:stedsnr" v="271109" />
	</node>
	<node lat="60.82397221803373" lon="7.116780562473127" id="-85946">
		<tag k="name" v="Spelemyri" />
		<tag k="natural" v="wetland" />
		<tag k="ssr:stedsnr" v="271266" />
	</node>
	<node lat="60.9497250036442" lon="6.933419449034634" id="-86002">
		<tag k="name" v="Kvitesteinen" />
		<tag k="natural" v="stone" />
		<tag k="ssr:stedsnr" v="453739" />
	</node>
	<node lat="60.93150555988291" lon="7.211766669467543" id="-86011">
		<tag k="name" v="Fururi" />
		<tag k="natural" v="scree" />
		<tag k="ssr:stedsnr" v="453944" />
	</node>
	<node lat="60.88170833692602" lon="7.276811106037318" id="-86099">
		<tag k="name" v="Odnamyr" />
		<tag k="natural" v="wetland" />
		<tag k="ssr:stedsnr" v="332021" />
	</node>
	<node lat="60.72409722246412" lon="7.4760666752234926" id="-86147">
		<tag k="name" v="Svartavassbreen" />
		<tag k="natural" v="glacier" />
		<tag k="ssr:stedsnr" v="371212" />
	</node>
	<node lat="60.85457778207076" lon="7.018505558136029" id="-86153">
		<tag k="name" v="Njukafonni" />
		<tag k="natural" v="glacier" />
		<tag k="ssr:stedsnr" v="372120" />
	</node>
	<node lat="60.97836944499997" lon="7.216436114635457" id="-86160">
		<tag k="name" v="Kongshella" />
		<tag k="natural" v="stone" />
		<tag k="ssr:stedsnr" v="372226" />
	</node>
	<node lat="60.839377773372725" lon="7.425141663587752" id="-86212">
		<tag k="name" v="Grytemyrane" />
		<tag k="natural" v="wetland" />
		<tag k="ssr:stedsnr" v="393182" />
	</node>
	<node lat="60.98135833687865" lon="6.892877778240972" id="-86218">
		<tag k="name" v="Vetleuri" />
		<tag k="natural" v="scree" />
		<tag k="ssr:stedsnr" v="393715" />
	</node>
	<node lat="60.89581110995459" lon="7.165377784755767" id="-86359">
		<tag k="name" v="Uri" />
		<tag k="natural" v="scree" />
		<tag k="ssr:stedsnr" v="479689" />
	</node>
	<node lat="60.75425000083037" lon="7.35032500472464" id="-86392">
		<tag k="name" v="Hunabotnsandane" />
		<tag k="natural" v="wetland" />
		<tag k="ssr:stedsnr" v="494269" />
	</node>
	<node lat="60.845777775862615" lon="7.173036105811107" id="-86402">
		<tag k="name" v="Rupnafonni" />
		<tag k="place" v="locality" />
		<tag k="ssr:stedsnr" v="506417" />
	</node>
	<node lat="60.901236109266826" lon="7.215441665109312" id="-86414">
		<tag k="name" v="Sølvbergurane" />
		<tag k="natural" v="scree" />
		<tag k="ssr:stedsnr" v="514409" />
	</node>
	<node lat="60.92748055289602" lon="7.201661111266331" id="-86536">
		<tag k="name" v="Sel" />
		<tag k="place" v="locality" />
		<tag k="ssr:stedsnr" v="696941" />
	</node>
	<node lat="60.832002778472955" lon="7.019866660597629" id="-86552">
		<tag k="name" v="Jordalsskavlen" />
		<tag k="natural" v="glacier" />
		<tag k="ssr:stedsnr" v="615015" />
	</node>
	<node lat="60.88440277507309" lon="6.856191666697384" id="-86598">
		<tag k="name" v="Nausturi" />
		<tag k="natural" v="scree" />
		<tag k="ssr:stedsnr" v="635337" />
	</node>
	<node lat="60.92956111428196" lon="7.0234250048880975" id="-86616">
		<tag k="alt_name" v="Sørdalsbreen" />
		<tag k="name" v="Syrdalsbreen" />
		<tag k="natural" v="glacier" />
		<tag k="ssr:stedsnr" v="675161" />
	</node>
	<node lat="60.878058334034264" lon="6.957502781548864" id="-86655">
		<tag k="name" v="Øyaskavlen" />
		<tag k="natural" v="glacier" />
		<tag k="ssr:stedsnr" v="676808" />
	</node>
	<node lat="60.86381931264259" lon="6.829020890204596" id="-86667">
		<tag k="name" v="Kjerrskredene" />
		<tag k="natural" v="scree" />
		<tag k="place" v="locality" />
		<tag k="ssr:stedsnr" v="696222" />
	</node>
	<node lat="60.82582500313207" lon="7.123055547236591" id="-86668">
		<tag k="name" v="Sokkamyri" />
		<tag k="natural" v="wetland" />
		<tag k="ssr:stedsnr" v="696223" />
	</node>
	<node lat="60.983630551181605" lon="7.042824996084274" id="-86710">
		<tag k="name" v="Linhella" />
		<tag k="natural" v="stone" />
		<tag k="ssr:stedsnr" v="736220" />
	</node>
	<node lat="60.808812248814185" lon="7.022991406113471" id="-86803">
		<tag k="historic" v="shieling" />
		<tag k="name" v="Kupo" />
		<tag k="place" v="locality" />
		<tag k="ssr:stedsnr" v="918046" />
	</node>
	<node lat="60.97462500302972" lon="6.869986109419769" id="-86851">
		<tag k="name" v="Storamyri" />
		<tag k="natural" v="wetland" />
		<tag k="ssr:stedsnr" v="817682" />
	</node>
	<node lat="60.855141663063975" lon="7.407213884385651" id="-86861">
		<tag k="name" v="Brilleuri" />
		<tag k="natural" v="scree" />
		<tag k="ssr:stedsnr" v="818210" />
	</node>
	<node lat="60.85043611411592" lon="7.174944440250695" id="-86909">
		<tag k="name" v="Hønemyri" />
		<tag k="natural" v="wetland" />
		<tag k="ssr:stedsnr" v="870419" />
	</node>
	<node lat="60.89136299534391" lon="7.243441581183269" id="-86917">
		<tag k="name" v="Apridl" />
		<tag k="place" v="locality" />
		<tag k="ssr:stedsnr" v="878166" />
	</node>
	<node lat="60.96255000343158" lon="6.852747224980278" id="-86939">
		<tag k="name" v="Torvmyrane" />
		<tag k="natural" v="wetland" />
		<tag k="ssr:stedsnr" v="878672" />
	</node>
	<node lat="60.777488892563056" lon="7.148269447094202" id="-87051">
		<tag k="name" v="Brattefonni" />
		<tag k="place" v="locality" />
		<tag k="ssr:stedsnr" v="9785" />
	</node>
	<node lat="60.95052222360861" lon="7.182175000630912" id="-87057">
		<tag k="landuse" v="meadow" />
		<tag k="name" v="Buvollen" />
		<tag k="ssr:stedsnr" v="21419" />
	</node>
	<node lat="60.95913611524811" lon="6.9287305598540545" id="-87086">
		<tag k="name" v="Urane" />
		<tag k="natural" v="scree" />
		<tag k="ssr:stedsnr" v="28762" />
	</node>
	<node lat="60.840441665350966" lon="7.1447666757219785" id="-87162">
		<tag k="name" v="Nystein" />
		<tag k="natural" v="stone" />
		<tag k="ssr:stedsnr" v="89050" />
	</node>
	<node lat="60.85682222425527" lon="6.77550000245382" id="-87190">
		<tag k="name" v="Myri" />
		<tag k="natural" v="wetland" />
		<tag k="ssr:stedsnr" v="89921" />
	</node>
	<node lat="60.885491667456094" lon="7.174702782731932" id="-87252">
		<tag k="name" v="Kloven" />
		<tag k="natural" v="stone" />
		<tag k="ssr:stedsnr" v="130064" />
	</node>
	<node lat="60.930400001091954" lon="6.887463887504258" id="-87259">
		<tag k="name" v="Myri" />
		<tag k="natural" v="wetland" />
		<tag k="ssr:stedsnr" v="148437" />
	</node>
	<node lat="60.904472220951455" lon="7.148222215916436" id="-87292">
		<tag k="name" v="Ladberguri" />
		<tag k="natural" v="scree" />
		<tag k="ssr:stedsnr" v="149995" />
	</node>
	<node lat="60.84333333665808" lon="6.814538894374841" id="-87346">
		<tag k="historic" v="shieling" />
		<tag k="name" v="Skjerpishalsen" />
		<tag k="place" v="locality" />
		<tag k="ssr:stedsnr" v="190840" />
	</node>
	<node lat="60.87292777807601" lon="7.356672226039465" id="-87387">
		<tag k="name" v="Håliurane" />
		<tag k="natural" v="scree" />
		<tag k="ssr:stedsnr" v="211464" />
	</node>
	<node lat="60.8990777763121" lon="7.305113883068654" id="-87401">
		<tag k="name" v="Børesteinen" />
		<tag k="natural" v="stone" />
		<tag k="ssr:stedsnr" v="211771" />
	</node>
	<node lat="60.89634444851849" lon="7.249199991281213" id="-87430">
		<tag k="name" v="Stolpuri" />
		<tag k="natural" v="scree" />
		<tag k="ssr:stedsnr" v="312078" />
	</node>
	<node lat="60.97158500089673" lon="6.920003574778377" id="-87460">
		<tag k="name" v="Svili" />
		<tag k="place" v="locality" />
		<tag k="ssr:stedsnr" v="312896" />
	</node>
	<node lat="60.93286944106436" lon="6.897044443881286" id="-87468">
		<tag k="name" v="Nyuri" />
		<tag k="natural" v="scree" />
		<tag k="ssr:stedsnr" v="331468" />
	</node>
	<node lat="60.7704222257883" lon="7.0989166589517625" id="-87493">
		<tag k="name" v="Storamyri" />
		<tag k="natural" v="wetland" />
		<tag k="ssr:stedsnr" v="332534" />
	</node>
	<node lat="60.87064444642513" lon="6.783452779385769" id="-87573">
		<tag k="historic" v="shieling" />
		<tag k="name" v="Solbjørgastølen" />
		<tag k="place" v="locality" />
		<tag k="ssr:stedsnr" v="384438" />
	</node>
	<node lat="60.77478055317746" lon="7.105150006166663" id="-87593">
		<tag k="name" v="Storuri" />
		<tag k="natural" v="scree" />
		<tag k="ssr:stedsnr" v="392603" />
	</node>
	<node lat="60.957611106990306" lon="7.09313611224409" id="-87594">
		<tag k="name" v="Glitastein" />
		<tag k="natural" v="stone" />
		<tag k="ssr:stedsnr" v="392623" />
	</node>
	<node lat="60.892936115332354" lon="7.128288890995502" id="-87642">
		<tag k="name" v="Raunetuft" />
		<tag k="place" v="locality" />
		<tag k="ssr:stedsnr" v="433098" />
	</node>
	<node lat="60.87647221902925" lon="7.316161115468008" id="-87694">
		<tag k="name" v="Tungauri" />
		<tag k="natural" v="scree" />
		<tag k="ssr:stedsnr" v="514286" />
	</node>
	<node lat="60.911352780853505" lon="6.878497216443305" id="-87702">
		<tag k="alt_name" v="Knukuri" />
		<tag k="name" v="Knokurane" />
		<tag k="natural" v="scree" />
		<tag k="ssr:stedsnr" v="514228" />
	</node>
	<node lat="60.96512500110628" lon="6.954041673586215" id="-87717">
		<tag k="name" v="Fluuri" />
		<tag k="natural" v="scree" />
		<tag k="ssr:stedsnr" v="514793" />
	</node>
	<node lat="61.029255556137834" lon="7.050761112245508" id="-87789">
		<tag k="name" v="Kvituri" />
		<tag k="natural" v="scree" />
		<tag k="ssr:stedsnr" v="572175" />
	</node>
	<node lat="60.85504166786298" lon="7.09891389325729" id="-87828">
		<tag k="name" v="Stovuri" />
		<tag k="natural" v="scree" />
		<tag k="ssr:stedsnr" v="574990" />
	</node>
	<node lat="60.84951388619493" lon="7.349705556418308" id="-87840">
		<tag k="name" v="Storuri" />
		<tag k="natural" v="scree" />
		<tag k="ssr:stedsnr" v="575328" />
	</node>
	<node lat="61.050241669080684" lon="7.048555558898833" id="-87876">
		<tag k="alt_name" v="Digrourane" />
		<tag k="name" v="Digerurane" />
		<tag k="natural" v="scree" />
		<tag k="ssr:stedsnr" v="615421" />
	</node>
	<node lat="60.84675000308332" lon="7.420341657451131" id="-87894">
		<tag k="name" v="Skårsmyrane" />
		<tag k="natural" v="wetland" />
		<tag k="ssr:stedsnr" v="635165" />
	</node>
	<node lat="60.81069167047835" lon="7.235702771288765" id="-87898">
		<tag k="name" v="Brattefonni" />
		<tag k="place" v="locality" />
		<tag k="ssr:stedsnr" v="627426" />
	</node>
	<node lat="61.003230555433646" lon="7.072305550121082" id="-87944">
		<tag k="name" v="Storestøkken" />
		<tag k="natural" v="scree" />
		<tag k="ssr:stedsnr" v="721663" />
	</node>
	<node lat="60.964433332984285" lon="7.1611472243122565" id="-87984">
		<tag k="historic" v="shieling" />
		<tag k="name" v="Øvste Nisedalen" />
		<tag k="place" v="locality" />
		<tag k="ssr:stedsnr" v="737215" />
	</node>
	<node lat="60.96348610801287" lon="7.113874995868803" id="-88052">
		<tag k="historic" v="shieling" />
		<tag k="name" v="Geitravollen" />
		<tag k="place" v="locality" />
		<tag k="ssr:stedsnr" v="782563" />
	</node>
	<node lat="60.84641388934817" lon="7.070344450508491" id="-88072">
		<tag k="name" v="Myrane" />
		<tag k="natural" v="wetland" />
		<tag k="ssr:stedsnr" v="797128" />
	</node>
	<node lat="60.957977781815536" lon="7.270955554480005" id="-88096">
		<tag k="name" v="Blåskavlen" />
		<tag k="natural" v="glacier" />
		<tag k="ssr:stedsnr" v="798127" />
	</node>
	<node lat="60.86759166326203" lon="7.142911102891779" id="-88130">
		<tag k="name" v="Vatnasteinane" />
		<tag k="natural" v="stone" />
		<tag k="ssr:stedsnr" v="817613" />
	</node>
	<node lat="60.9121638889792" lon="6.875897230140521" id="-88160">
		<tag k="name" v="Knokurane" />
		<tag k="natural" v="scree" />
		<tag k="ssr:stedsnr" v="843100" />
	</node>
	<node lat="60.897477777922724" lon="6.8815944423050714" id="-88166">
		<tag k="historic" v="shieling" />
		<tag k="name" v="Stølshaug" />
		<tag k="place" v="locality" />
		<tag k="ssr:stedsnr" v="858843" />
	</node>
	<node lat="60.980213885444655" lon="6.89654166612151" id="-88211">
		<tag k="name" v="Storuri" />
		<tag k="natural" v="scree" />
		<tag k="ssr:stedsnr" v="878766" />
	</node>
	<node lat="60.85666110706552" lon="6.803316660570878" id="-88262">
		<tag k="name" v="Hallinguri" />
		<tag k="natural" v="scree" />
		<tag k="ssr:stedsnr" v="939126" />
	</node>
	<node lat="60.74301666967382" lon="7.136877779471132" id="-88275">
		<tag k="name" v="Kjosfossmyrane" />
		<tag k="natural" v="wetland" />
		<tag k="ssr:stedsnr" v="939509" />
	</node>
	<node lat="60.88058889055889" lon="7.131588887732582" id="-88289">
		<tag k="name" v="Helleberguri" />
		<tag k="natural" v="scree" />
		<tag k="ssr:stedsnr" v="939631" />
	</node>
</osm>
