<?xml version="1.0" encoding="UTF-8"?>
<osm generator="osmapis" version="0.6">
	<node id="-35195" lat="59.894761114" lon="11.0107499993">
		<tag k="alt_name" v="Veslevann" />
		<tag k="name" v="Veslevannet" />
		<tag k="natural" v="water" />
		<tag k="ssr:stedsnr" v="811891" />
	</node>
	<node id="-35061" lat="59.9023500045" lon="10.9201888808">
		<tag k="name" v="Igletjernbekken" />
		<tag k="ssr:stedsnr" v="569911" />
		<tag k="waterway" v="stream" />
	</node>
	<node id="-35060" lat="59.8746500037" lon="10.9920472194">
		<tag k="name" v="St. Helena" />
		<tag k="place" v="islet" />
		<tag k="ssr:stedsnr" v="569906" />
	</node>
	<node id="-35055" lat="59.9360777806" lon="11.0049305618">
		<tag k="name" v="Bårlibekken" />
		<tag k="ssr:stedsnr" v="569642" />
		<tag k="waterway" v="stream" />
	</node>
	<node id="-34926" lat="59.8402222245" lon="10.985222224">
		<tag k="name" v="Liseterputten" />
		<tag k="natural" v="water" />
		<tag k="ssr:stedsnr" v="186195" />
	</node>
	<node id="-34925" lat="59.8756333356" lon="10.9747249921">
		<tag k="name" v="Endtjernet" />
		<tag k="natural" v="water" />
		<tag k="ssr:stedsnr" v="186178" />
	</node>
	<node id="-35175" lat="59.8742555524" lon="10.9931527794">
		<tag k="name" v="Maurodden" />
		<tag k="natural" v="cape" />
		<tag k="ssr:stedsnr" v="751941" />
	</node>
	<node id="-34789" lat="59.8682999964" lon="11.0002444356">
		<tag k="name" v="Geiterudtangen" />
		<tag k="natural" v="cape" />
		<tag k="ssr:stedsnr" v="387919" />
	</node>
	<node id="-35042" lat="59.8734717329" lon="10.9941415527">
		<tag k="name" v="Mønevannet" />
		<tag k="natural" v="water" />
		<tag k="old_name" v="Mønevatn" />
		<tag k="ssr:stedsnr" v="550186" />
		<tag k="water" v="lake" />
	</node>
	<node id="-35041" lat="59.8756638855" lon="10.951027769">
		<tag k="alt_name" v="Halssjøen" />
		<tag k="name" v="Halsjøen" />
		<tag k="natural" v="water" />
		<tag k="old_name" v="Store Halsjøen" />
		<tag k="ssr:stedsnr" v="550185" />
		<tag k="water" v="lake" />
	</node>
	<node id="-35168" lat="59.8722611137" lon="10.964041672">
		<tag k="name" v="Klubbtjern" />
		<tag k="natural" v="water" />
		<tag k="ssr:stedsnr" v="751111" />
	</node>
	<node id="-34911" lat="59.9371833301" lon="10.9873749989">
		<tag k="name" v="Fjellhamardammen" />
		<tag k="natural" v="water" />
		<tag k="ssr:stedsnr" v="144930" />
		<tag k="water" v="lake" />
	</node>
	<node id="-34910" lat="59.8685111125" lon="11.0071722286">
		<tag k="name" v="Geitsjøbogen" />
		<tag k="natural" v="cape" />
		<tag k="ssr:stedsnr" v="144927" />
	</node>
	<node id="-35160" lat="59.8474638904" lon="11.0220583343">
		<tag k="alt_name" v="Nordre Krokvann" />
		<tag k="name" v="Nordre Krokvannet" />
		<tag k="natural" v="water" />
		<tag k="old_name" v="Krokvatnet, nordre" />
		<tag k="ssr:stedsnr" v="733230" />
	</node>
	<node id="-35159" lat="59.8554499994" lon="11.0044916606">
		<tag k="name" v="Røyrivannet" />
		<tag k="natural" v="water" />
		<tag k="old_name" v="Røyrivatnet" />
		<tag k="ssr:stedsnr" v="733218" />
	</node>
	<node id="-35158" lat="59.8577638881" lon="10.9160527811">
		<tag k="alt_name" v="Søndre Elvåga" />
		<tag k="name" v="Sør-Elvåga" />
		<tag k="natural" v="water" />
		<tag k="ssr:stedsnr" v="733213" />
		<tag k="water" v="lake" />
	</node>
	<node id="-34873" lat="59.9128166646" lon="10.9157027811">
		<tag k="name" v="Dammen" />
		<tag k="ssr:stedsnr" v="84669" />
		<tag k="waterway" v="dam" />
	</node>
	<node id="-34771" lat="59.8671555572" lon="10.9989888935">
		<tag k="name" v="Fløyta" />
		<tag k="natural" v="water" />
		<tag k="ssr:stedsnr" v="369131" />
	</node>
	<node id="-34770" lat="59.8662722244" lon="10.9610777811">
		<tag k="name" v="Mortvannet" />
		<tag k="natural" v="water" />
		<tag k="old_name" v="Mortvatn" />
		<tag k="ssr:stedsnr" v="369126" />
	</node>
	<node id="-35025" lat="59.8443277761" lon="10.9262416615">
		<tag k="alt_name" v="Svanefoss" />
		<tag k="name" v="Svanefossen" />
		<tag k="natural" v="waterfall" />
		<tag k="ssr:stedsnr" v="509902" />
	</node>
	<node id="-35280" lat="59.8669972213" lon="11.0105361041">
		<tag k="name" v="Tyrihjellnebbet" />
		<tag k="natural" v="cape" />
		<tag k="ssr:stedsnr" v="934921" />
	</node>
	<node id="-35279" lat="59.8752555584" lon="10.9965249934">
		<tag k="name" v="Bispetangen" />
		<tag k="natural" v="cape" />
		<tag k="ssr:stedsnr" v="934915" />
	</node>
	<node id="-35115" lat="59.8652361108" lon="11.0083999997">
		<tag k="name" v="Geitsjøen" />
		<tag k="natural" v="water" />
		<tag k="ssr:stedsnr" v="672129" />
	</node>
	<node id="-34891" lat="59.8787222183" lon="10.9666999957">
		<tag k="name" v="Igletjernet" />
		<tag k="natural" v="water" />
		<tag k="ssr:stedsnr" v="126171" />
	</node>
	<node id="-34887" lat="59.8704861118" lon="10.9729472141">
		<tag k="alt_name" v="Fiskeløysa" />
		<tag k="name" v="Fiskelausa" />
		<tag k="natural" v="water" />
		<tag k="ssr:stedsnr" v="126133" />
	</node>
	<node id="-35014" lat="59.843388887" lon="11.0058027723">
		<tag k="name" v="Lagmannsputten" />
		<tag k="natural" v="water" />
		<tag k="ssr:stedsnr" v="509115" />
		<tag k="water" v="pond" />
	</node>
	<node id="-34756" lat="59.8665333377" lon="10.9124222253">
		<tag k="name" v="Skullerudtangen" />
		<tag k="natural" v="cape" />
		<tag k="ssr:stedsnr" v="327906" />
	</node>
	<node id="-34755" lat="59.9247083325" lon="10.9813944418">
		<tag k="name" v="St. Olavs kilde" />
		<tag k="place" v="locality" />
		<tag k="ssr:stedsnr" v="327900" />
	</node>
	<node id="-34955" lat="59.8487083332" lon="10.9321527833">
		<tag k="alt_name" v="Slepptjernet" />
		<tag k="name" v="Slepptjern" />
		<tag k="natural" v="water" />
		<tag k="ssr:stedsnr" v="248239" />
	</node>
	<node id="-35008" lat="59.8943527752" lon="10.9872249937">
		<tag k="name" v="Losbyelva" />
		<tag k="ssr:stedsnr" v="490083" />
		<tag k="waterway" v="stream" />
	</node>
	<node id="-35263" lat="59.9067749975" lon="10.9351861137">
		<tag k="alt_name" v="Lintjernet" />
		<tag k="name" v="Lintjern" />
		<tag k="natural" v="water" />
		<tag k="ssr:stedsnr" v="915069" />
	</node>
	<node id="-34877" lat="59.8623027741" lon="10.9714666631">
		<tag k="name" v="Slettnebbet" />
		<tag k="natural" v="cape" />
		<tag k="ssr:stedsnr" v="84941" />
	</node>
	<node id="-34833" lat="59.8718611131" lon="10.9381388858">
		<tag k="name" v="Halssjøputten" />
		<tag k="natural" v="bay" />
		<tag k="ssr:stedsnr" v="23143" />
	</node>
	<node id="-34826" lat="59.8459583291" lon="10.9589833248">
		<tag k="alt_name" v="Svarttjernet" />
		<tag k="name" v="Svartkulp" />
		<tag k="natural" v="water" />
		<tag k="ssr:stedsnr" v="5239" />
	</node>
	<node id="-35129" lat="59.8723888932" lon="10.9986916599">
		<tag k="name" v="Grytebråtevika" />
		<tag k="natural" v="bay" />
		<tag k="ssr:stedsnr" v="691144" />
	</node>
	<node id="-34932" lat="59.8882333357" lon="10.9104694375">
		<tag k="name" v="Mortvika" />
		<tag k="natural" v="bay" />
		<tag k="ssr:stedsnr" v="205128" />
	</node>
	<node id="-35254" lat="59.9381638875" lon="10.9994166677">
		<tag k="name" v="Vittenbergbekken" />
		<tag k="ssr:stedsnr" v="873925" />
		<tag k="waterway" v="stream" />
	</node>
	<node id="-35253" lat="59.9482694469" lon="10.9512416752">
		<tag k="name" v="Djupdalsbekken" />
		<tag k="ssr:stedsnr" v="873923" />
		<tag k="waterway" v="stream" />
	</node>
	<node id="-34868" lat="59.846388893" lon="11.0159305605">
		<tag k="name" v="Skårerputten" />
		<tag k="natural" v="water" />
		<tag k="ssr:stedsnr" v="84140" />
	</node>
	<node id="-34735" lat="59.8569972203" lon="10.9691861022">
		<tag k="name" v="Tretjerna" />
		<tag k="natural" v="water" />
		<tag k="ssr:stedsnr" v="308203" />
	</node>
	<node id="-34988" lat="59.9162777787" lon="10.9716083422">
		<tag k="name" v="Finstadbekken" />
		<tag k="ssr:stedsnr" v="448666" />
		<tag k="waterway" v="stream" />
	</node>
	<node id="-34987" lat="59.8516138873" lon="11.0072305557">
		<tag k="name" v="Tonevannsvika" />
		<tag k="natural" v="bay" />
		<tag k="ssr:stedsnr" v="448128" />
	</node>
	<node id="-34986" lat="59.9345638906" lon="10.9681638876">
		<tag k="name" v="Vesletjernet" />
		<tag k="natural" v="water" />
		<tag k="ssr:stedsnr" v="448121" />
	</node>
	<node id="-35113" lat="59.9079749973" lon="11.0023027854">
		<tag k="name" v="Røyritjernet" />
		<tag k="natural" v="water" />
		<tag k="ssr:stedsnr" v="672110" />
	</node>
	<node id="-35242" lat="59.8770194479" lon="11.0041750062">
		<tag k="name" v="Putten" />
		<tag k="natural" v="water" />
		<tag k="ssr:stedsnr" v="873132" />
	</node>
	<node id="-34852" lat="59.9385496132" lon="10.9552640902">
		<tag k="alt_name" v="Langtjernet" />
		<tag k="name" v="Langvannet" />
		<tag k="natural" v="water" />
		<tag k="ssr:stedsnr" v="65045" />
	</node>
	<node id="-34978" lat="59.8445892657" lon="10.9707093273">
		<tag k="name" v="Skålsjøen" />
		<tag k="natural" v="water" />
		<tag k="ssr:stedsnr" v="430230" />
		<tag k="water" v="lake" />
	</node>
	<node id="-34977" lat="59.863661109" lon="10.9971611142">
		<tag k="alt_name" v="Malmern" />
		<tag k="name" v="Malmeren" />
		<tag k="natural" v="water" />
		<tag k="ssr:stedsnr" v="430129" />
	</node>
	<node id="-34974" lat="59.9514722239" lon="10.9678388895">
		<tag k="name" v="Svarttjern" />
		<tag k="natural" v="water" />
		<tag k="ssr:stedsnr" v="429032" />
	</node>
	<node id="-35205" lat="59.8600277804" lon="10.9998638893">
		<tag k="name" v="Knurra" />
		<tag k="natural" v="strait" />
		<tag k="ssr:stedsnr" v="812149" />
	</node>
	<node id="-34843" lat="59.9066055541" lon="10.9552916694">
		<tag k="name" v="Haugerbekken" />
		<tag k="ssr:stedsnr" v="23940" />
		<tag k="waterway" v="stream" />
	</node>
	<node id="-35226" lat="59.8771499988" lon="10.9091111148">
		<tag k="alt_name" v="Nordre Elvåga" />
		<tag k="name" v="Nord-Elvåga" />
		<tag k="natural" v="water" />
		<tag k="ssr:stedsnr" v="854169" />
		<tag k="water" v="lake" />
	</node>
	<node id="-35225" lat="59.8633666696" lon="10.9697666617">
		<tag k="alt_name" v="Drettvann" />
		<tag k="name" v="Drettvannet" />
		<tag k="natural" v="water" />
		<tag k="old_name" v="Dretvatn" />
		<tag k="ssr:stedsnr" v="854125" />
		<tag k="water" v="lake" />
	</node>
	<node id="-35140" lat="59.8926722195" lon="10.9505916607">
		<tag k="name" v="Skillebekk" />
		<tag k="ssr:stedsnr" v="691910" />
		<tag k="waterway" v="stream" />
	</node>
	<node id="-34819" lat="59.9320305519" lon="10.9700888916">
		<tag k="alt_name" v="Fjellhammarelva" />
		<tag k="name" v="Fjellhamarelva" />
		<tag k="ssr:stedsnr" v="4012" />
		<tag k="waterway" v="stream" />
	</node>
	<node id="-34902" lat="59.9049750021" lon="10.9133416696">
		<tag k="name" v="Dammen" />
		<tag k="ssr:stedsnr" v="144666" />
		<tag k="waterway" v="dam" />
	</node>
	<node id="-35252" lat="59.8690777759" lon="11.0048444386">
		<tag k="name" v="Ospøya" />
		<tag k="place" v="island" />
		<tag k="ssr:stedsnr" v="873921" />
	</node>
	<node id="-34961" lat="59.941088892" lon="10.9422944457">
		<tag k="name" v="Ellingsrudelva" />
		<tag k="ssr:stedsnr" v="266129" />
		<tag k="waterway" v="river" />
	</node>
	<node id="-34870" lat="59.9202861115" lon="11.0265638978">
		<tag k="name" v="Hovelsrudtangen" />
		<tag k="natural" v="cape" />
		<tag k="ssr:stedsnr" v="84654" />
	</node>
	<node id="-34959" lat="59.874944447" lon="10.9402388829">
		<tag k="name" v="Vesle Halssjøen" />
		<tag k="natural" v="water" />
		<tag k="ssr:stedsnr" v="266102" />
	</node>
	<node id="-35202" lat="59.8961583371" lon="10.9243694497">
		<tag k="name" v="Igletjern" />
		<tag k="natural" v="water" />
		<tag k="ssr:stedsnr" v="812131" />
	</node>
	<node id="-34954" lat="59.8920027816" lon="10.9345583341">
		<tag k="alt_name" v="Knuttjernet" />
		<tag k="name" v="Knuttjern" />
		<tag k="natural" v="water" />
		<tag k="ssr:stedsnr" v="248080" />
	</node>
	<node id="-35095" lat="59.8686638905" lon="10.9109999953">
		<tag k="name" v="Tangenøya" />
		<tag k="place" v="island" />
		<tag k="ssr:stedsnr" v="630916" />
	</node>
	<node id="-34824" lat="59.9009083367" lon="10.9997388834">
		<tag k="name" v="Styggvannet" />
		<tag k="natural" v="water" />
		<tag k="old_name" v="Styggvatnet" />
		<tag k="ssr:stedsnr" v="5060" />
	</node>
	<node id="-34823" lat="59.8400833355" lon="11.0185611133">
		<tag k="alt_name" v="Kytetjernet, nordre;Nordre Kyttjern" />
		<tag k="name" v="Nordre Kytetjernet" />
		<tag k="natural" v="water" />
		<tag k="ssr:stedsnr" v="4203" />
	</node>
	<node id="-34950" lat="59.9095472181" lon="11.0199499927">
		<tag k="name" v="Østbyputten" />
		<tag k="natural" v="water" />
		<tag k="ssr:stedsnr" v="247105" />
	</node>
	<node id="-34842" lat="59.918338891" lon="10.9792250043">
		<tag k="name" v="Neskulpen" />
		<tag k="place" v="locality" />
		<tag k="ssr:stedsnr" v="23937" />
	</node>
	<node id="-35204" lat="59.8781777822" lon="10.9516194365">
		<tag k="name" v="Morkputten" />
		<tag k="natural" v="water" />
		<tag k="ssr:stedsnr" v="812148" />
		<tag k="water" v="pond" />
	</node>
	<node id="-35203" lat="59.9012194426" lon="11.0101305503">
		<tag k="name" v="Plåterudsetertjern" />
		<tag k="natural" v="water" />
		<tag k="ssr:stedsnr" v="812144" />
	</node>
	<node id="-35074" lat="59.8881583294" lon="10.9400249956">
		<tag k="alt_name" v="Skullerudtjernet" />
		<tag k="name" v="Skullerudtjern" />
		<tag k="natural" v="water" />
		<tag k="ssr:stedsnr" v="611159" />
	</node>
	<node id="-35201" lat="59.868036113" lon="10.9781666649">
		<tag k="name" v="Lusetjern" />
		<tag k="natural" v="water" />
		<tag k="ssr:stedsnr" v="812126" />
	</node>
</osm>
