<?xml version="1.0" encoding="UTF-8"?>
<osm generator="osmapis" version="0.6">
	<node id="-35068" lat="59.9429833334" lon="10.9471194438">
		<tag k="bridge" v="yes" />
		<tag k="layer" v="1" />
		<tag k="name" v="Robsrud" />
		<tag k="ssr:stedsnr" v="592022" />
	</node>
	<node id="-35067" lat="59.9436333372" lon="10.9466277809">
		<tag k="bridge" v="yes" />
		<tag k="layer" v="1" />
		<tag k="name" v="Stasjonsmyra" />
		<tag k="ssr:stedsnr" v="592013" />
	</node>
	<node id="-35185" lat="59.9406992359" lon="10.9817560465">
		<tag k="alt_name" v="Fjellhamar" />
		<tag k="name" v="Fjellhamar holdeplass" />
		<tag k="railway" v="halt" />
		<tag k="ssr:stedsnr" v="793058" />
		<tag k="train" v="yes" />
	</node>
	<node id="-34800" lat="59.9472361067" lon="10.9479805577">
		<tag k="bridge" v="yes" />
		<tag k="layer" v="1" />
		<tag k="name" v="Tangerud" />
		<tag k="ssr:stedsnr" v="896012" />
	</node>
	<node id="-35182" lat="59.939844448" lon="10.9878916597">
		<tag k="bridge" v="yes" />
		<tag k="layer" v="1" />
		<tag k="name" v="Fjellhammer" />
		<tag k="ssr:stedsnr" v="774021" />
	</node>
	<node id="-34797" lat="59.9126277748" lon="10.9601722201">
		<tag k="bridge" v="yes" />
		<tag k="layer" v="1" />
		<tag k="name" v="Finstadrabben" />
		<tag k="ssr:stedsnr" v="410018" />
	</node>
	<node id="-34922" lat="59.9364444402" lon="10.9931027745">
		<tag k="bridge" v="yes" />
		<tag k="layer" v="1" />
		<tag k="name" v="Brannvaktveien" />
		<tag k="ssr:stedsnr" v="167026" />
	</node>
	<node id="-34921" lat="59.930838889" lon="10.9465611171">
		<tag k="bridge" v="yes" />
		<tag k="layer" v="1" />
		<tag k="name" v="Thurmannskogen" />
		<tag k="ssr:stedsnr" v="167018" />
	</node>
	<node id="-34920" lat="59.9209916699" lon="10.9790666658">
		<tag k="bridge" v="yes" />
		<tag k="layer" v="1" />
		<tag k="name" v="Sørli" />
		<tag k="ssr:stedsnr" v="167016" />
	</node>
	<node id="-35045" lat="59.9451967919" lon="10.9434520604">
		<tag k="alt_name" v="Lørenskog;Lørenskog st." />
		<tag k="name" v="Lørenskog stasjon" />
		<tag k="railway" v="station" />
		<tag k="ssr:stedsnr" v="550504" />
		<tag k="train" v="yes" />
	</node>
	<node id="-34916" lat="59.9349333364" lon="10.9364444438">
		<tag k="junction" v="yes" />
		<tag k="name" v="Visperud" />
		<tag k="place" v="locality" />
		<tag k="ssr:stedsnr" v="144991" />
	</node>
	<node id="-35164" lat="59.9111916708" lon="11.0237555508">
		<tag k="highway" v="path" />
		<tag k="name" v="Oskarsgate" />
		<tag k="ssr:stedsnr" v="751683" />
	</node>
	<node id="-35163" lat="59.9139361105" lon="10.9198972187">
		<tag k="highway" v="path" />
		<tag k="name" v="Mølleråsveien" />
		<tag k="ssr:stedsnr" v="751680" />
	</node>
	<node id="-35290" lat="59.9427805565" lon="10.9915861185">
		<tag k="bridge" v="yes" />
		<tag k="layer" v="1" />
		<tag k="name" v="Fjellhamarelva" />
		<tag k="ssr:stedsnr" v="956028" />
	</node>
	<node id="-35289" lat="59.9310277749" lon="10.967086108">
		<tag k="bridge" v="yes" />
		<tag k="layer" v="1" />
		<tag k="name" v="Knatten" />
		<tag k="ssr:stedsnr" v="956029" />
	</node>
	<node id="-35149" lat="59.9293055581" lon="10.9461222143">
		<tag k="bridge" v="yes" />
		<tag k="layer" v="1" />
		<tag k="name" v="Thurmann" />
		<tag k="ssr:stedsnr" v="713016" />
	</node>
	<node id="-34747" lat="59.9348416674" lon="10.9815083317">
		<tag k="bridge" v="yes" />
		<tag k="layer" v="1" />
		<tag k="name" v="Kloppa" />
		<tag k="ssr:stedsnr" v="327613" />
	</node>
	<node id="-35130" lat="59.8908499969" lon="10.9275944498">
		<tag k="highway" v="path" />
		<tag k="name" v="Kustinta" />
		<tag k="ssr:stedsnr" v="691641" />
	</node>
	<node id="-35034" lat="59.9287444468" lon="10.9656416692">
		<tag k="bridge" v="yes" />
		<tag k="layer" v="1" />
		<tag k="name" v="Knattenkrysset" />
		<tag k="ssr:stedsnr" v="531019" />
	</node>
	<node id="-35105" lat="59.9337638896" lon="10.9821416684">
		<tag k="bridge" v="yes" />
		<tag k="layer" v="1" />
		<tag k="name" v="Kloppa" />
		<tag k="ssr:stedsnr" v="652014" />
	</node>
	<node id="-35104" lat="59.9181666672" lon="10.9470166698">
		<tag k="bridge" v="yes" />
		<tag k="layer" v="1" />
		<tag k="name" v="Vallerud" />
		<tag k="ssr:stedsnr" v="652012" />
	</node>
	<node id="-35162" lat="59.9059027751" lon="11.011838882">
		<tag k="alt_name" v="Seterle" />
		<tag k="name" v="Seterled" />
		<tag k="place" v="locality" />
		<tag k="ssr:stedsnr" v="751676" />
	</node>
	<node id="-35223" lat="59.9374416635" lon="10.9332833294">
		<tag k="bridge" v="yes" />
		<tag k="layer" v="1" />
		<tag k="name" v="Enga" />
		<tag k="ssr:stedsnr" v="835025" />
	</node>
	<node id="-35085" lat="59.9178361083" lon="10.9583138947">
		<tag k="junction" v="yes" />
		<tag k="name" v="Skårer" />
		<tag k="place" v="locality" />
		<tag k="ssr:stedsnr" v="630595" />
	</node>
	<node id="-34821" lat="59.9388399285" lon="10.9661146322">
		<tag k="alt_name" v="Hanaborg" />
		<tag k="name" v="Hanaborg holdeplass" />
		<tag k="railway" v="halt" />
		<tag k="ssr:stedsnr" v="4059" />
		<tag k="train" v="yes" />
	</node>
	<node id="-34946" lat="59.9387055526" lon="10.9676555501">
		<tag k="bridge" v="yes" />
		<tag k="layer" v="1" />
		<tag k="name" v="Haneborg" />
		<tag k="ssr:stedsnr" v="228024" />
	</node>
</osm>
