<?xml version="1.0" encoding="UTF-8"?>
<osm generator="osmapis" version="0.6">
	<node id="-51197" lat="62.5406111131" lon="6.59885278361">
		<tag k="name" v="Mulen" />
		<tag k="natural" v="ridge" />
		<tag k="place" v="locality" />
		<tag k="ssr:stedsnr" v="337608" />
	</node>
	<node id="-51196" lat="62.5773472228" lon="6.72111111639">
		<tag k="name" v="Demmehaugen" />
		<tag k="natural" v="hill" />
		<tag k="place" v="locality" />
		<tag k="ssr:stedsnr" v="337494" />
	</node>
	<node id="-51194" lat="62.582094446" lon="6.7057888958">
		<tag k="name" v="Kroklia" />
		<tag k="natural" v="slope" />
		<tag k="place" v="locality" />
		<tag k="ssr:stedsnr" v="337481" />
	</node>
	<node id="-53240" lat="62.6197305546" lon="6.15162776865">
		<tag k="name" v="Rønstadhelleren" />
		<tag k="place" v="locality" />
		<tag k="ssr:stedsnr" v="20225" />
	</node>
	<node id="-51191" lat="62.5237527814" lon="6.53974444464">
		<tag k="name" v="Kallskaret" />
		<tag k="natural" v="valley" />
		<tag k="place" v="locality" />
		<tag k="ssr:stedsnr" v="337004" />
	</node>
	<node id="-53237" lat="62.6987083354" lon="6.39983611017">
		<tag k="name" v="Liahaugen" />
		<tag k="natural" v="hill" />
		<tag k="place" v="locality" />
		<tag k="ssr:stedsnr" v="12890" />
	</node>
	<node id="-53234" lat="62.6841500027" lon="6.24689165711">
		<tag k="name" v="Midt-Haugen" />
		<tag k="natural" v="hill" />
		<tag k="place" v="locality" />
		<tag k="ssr:stedsnr" v="12875" />
	</node>
	<node id="-53233" lat="62.5159933524" lon="6.79933328756">
		<tag k="fixme" v="consider natural=peak for the most distinct mountains in the district" />
		<tag k="name" v="Høgnøsa" />
		<tag k="natural" v="hill" />
		<tag k="ssr:stedsnr" v="12867" />
	</node>
	<node id="-51182" lat="62.6301833342" lon="6.18956667441">
		<tag k="name" v="Sætnakken" />
		<tag k="place" v="locality" />
		<tag k="ssr:stedsnr" v="335705" />
	</node>
	<node id="-51180" lat="62.6864499965" lon="6.25613888402">
		<tag k="name" v="Sandvikfjellet" />
		<tag k="place" v="locality" />
		<tag k="ssr:stedsnr" v="335628" />
	</node>
	<node id="-51178" lat="62.7396888905" lon="6.4329472156">
		<tag k="name" v="Katthammaren" />
		<tag k="natural" v="hill" />
		<tag k="place" v="locality" />
		<tag k="ssr:stedsnr" v="335312" />
	</node>
	<node id="-50513" lat="62.4941277757" lon="6.55563332608">
		<tag k="name" v="Meraftanakken" />
		<tag k="natural" v="ridge" />
		<tag k="place" v="locality" />
		<tag k="ssr:stedsnr" v="278347" />
	</node>
	<node id="-51171" lat="62.8207638889" lon="6.58101389243">
		<tag k="name" v="Bustihaugen" />
		<tag k="natural" v="hill" />
		<tag k="place" v="locality" />
		<tag k="ssr:stedsnr" v="335104" />
	</node>
	<node id="-53218" lat="62.6128833356" lon="6.48184444033">
		<tag k="fixme" v="consider natural=peak for the most distinct mountains in the district" />
		<tag k="name" v="Høgenosa" />
		<tag k="natural" v="hill" />
		<tag k="place" v="locality" />
		<tag k="ssr:stedsnr" v="12424" />
	</node>
	<node id="-53212" lat="62.5656722232" lon="6.6361416577">
		<tag k="name" v="Lihaugen" />
		<tag k="natural" v="hill" />
		<tag k="place" v="locality" />
		<tag k="ssr:stedsnr" v="12269" />
	</node>
	<node id="-53202" lat="62.5071527771" lon="6.36360277142">
		<tag k="name" v="Storkleiva" />
		<tag k="natural" v="hill" />
		<tag k="place" v="locality" />
		<tag k="ssr:stedsnr" v="12151" />
	</node>
	<node id="-53201" lat="62.5046722191" lon="6.25001943801">
		<tag k="fixme" v="consider natural=peak for the most distinct mountains in the district" />
		<tag k="name" v="Rørene" />
		<tag k="natural" v="hill" />
		<tag k="place" v="locality" />
		<tag k="ssr:stedsnr" v="12148" />
	</node>
	<node id="-51149" lat="62.5599083371" lon="6.53059166618">
		<tag k="name" v="Skåtehjellen" />
		<tag k="place" v="locality" />
		<tag k="ssr:stedsnr" v="519618" />
	</node>
	<node id="-51147" lat="62.5537027811" lon="6.50784722273">
		<tag k="name" v="Rimedalen" />
		<tag k="natural" v="valley" />
		<tag k="place" v="locality" />
		<tag k="ssr:stedsnr" v="519606" />
	</node>
	<node id="-53194" lat="62.6772055561" lon="6.17508055153">
		<tag k="name" v="Nova" />
		<tag k="natural" v="hill" />
		<tag k="place" v="locality" />
		<tag k="ssr:stedsnr" v="11742" />
	</node>
	<node id="-51145" lat="62.5660722267" lon="6.5230472276">
		<tag k="name" v="Nedste Litletrolldalskjæften" />
		<tag k="natural" v="valley" />
		<tag k="place" v="locality" />
		<tag k="ssr:stedsnr" v="519594" />
	</node>
	<node id="-50849" lat="62.7377888851" lon="6.43869167331">
		<tag k="name" v="Skarhaugane" />
		<tag k="natural" v="hill" />
		<tag k="place" v="locality" />
		<tag k="ssr:stedsnr" v="457725" />
	</node>
	<node id="-53184" lat="62.5622194475" lon="6.50716944375">
		<tag k="name" v="Remeheia" />
		<tag k="natural" v="hill" />
		<tag k="place" v="locality" />
		<tag k="ssr:stedsnr" v="11270" />
	</node>
	<node id="-53182" lat="62.5469222249" lon="6.47401945171">
		<tag k="name" v="Sætrehola" />
		<tag k="natural" v="valley" />
		<tag k="place" v="locality" />
		<tag k="ssr:stedsnr" v="11239" />
	</node>
	<node id="-51132" lat="62.6045277792" lon="6.69911666723">
		<tag k="name" v="Husnakken" />
		<tag k="natural" v="hill" />
		<tag k="place" v="locality" />
		<tag k="ssr:stedsnr" v="315366" />
	</node>
	<node id="-53177" lat="62.5994861077" lon="6.36439999309">
		<tag k="fixme" v="consider natural=peak for the most distinct mountains in the district" />
		<tag k="name" v="Rambjøra" />
		<tag k="natural" v="hill" />
		<tag k="place" v="locality" />
		<tag k="ssr:stedsnr" v="11398" />
	</node>
	<node id="-51124" lat="62.5748500038" lon="6.30686111922">
		<tag k="fixme" v="consider natural=peak for the most distinct mountains in the district" />
		<tag k="name" v="Hurlaveten" />
		<tag k="natural" v="hill" />
		<tag k="place" v="locality" />
		<tag k="ssr:stedsnr" v="315309" />
	</node>
	<node id="-51121" lat="62.5113027762" lon="6.3104611187">
		<tag k="name" v="Nakken" />
		<tag k="natural" v="hill" />
		<tag k="place" v="locality" />
		<tag k="ssr:stedsnr" v="315170" />
	</node>
	<node id="-51116" lat="62.5499527737" lon="6.58136111627">
		<tag k="fixme" v="consider natural=peak for the most distinct mountains in the district" />
		<tag k="name" v="Nakkan" />
		<tag k="natural" v="hill" />
		<tag k="place" v="locality" />
		<tag k="ssr:stedsnr" v="315206" />
	</node>
	<node id="-51108" lat="62.4198111156" lon="7.08991945015">
		<tag k="fixme" v="consider natural=peak for the most distinct mountains in the district" />
		<tag k="name" v="Sandegga" />
		<tag k="natural" v="hill" />
		<tag k="place" v="locality" />
		<tag k="ssr:stedsnr" v="314665" />
	</node>
	<node id="-53154" lat="62.4957055583" lon="6.46308610963">
		<tag k="name" v="Hornrøysene" />
		<tag k="natural" v="ridge" />
		<tag k="place" v="locality" />
		<tag k="ssr:stedsnr" v="217360" />
	</node>
	<node id="-50843" lat="62.7451944422" lon="6.44015833657">
		<tag k="name" v="Fjøsbakken" />
		<tag k="natural" v="slope" />
		<tag k="place" v="locality" />
		<tag k="ssr:stedsnr" v="457451" />
	</node>
	<node id="-50160" lat="62.5587333333" lon="6.60832221651">
		<tag k="name" v="Haugen" />
		<tag k="natural" v="hill" />
		<tag k="place" v="locality" />
		<tag k="ssr:stedsnr" v="232991" />
	</node>
	<node id="-50841" lat="62.7583111123" lon="6.47829999904">
		<tag k="name" v="Skarhaugen" />
		<tag k="natural" v="hill" />
		<tag k="place" v="locality" />
		<tag k="ssr:stedsnr" v="457442" />
	</node>
	<node id="-51085" lat="62.5542305566" lon="6.55357499133">
		<tag k="name" v="Kristofferhammaren" />
		<tag k="natural" v="cliff" />
		<tag k="ssr:stedsnr" v="519567" />
	</node>
	<node id="-51084" lat="62.5597249965" lon="6.5521694422">
		<tag k="name" v="Såsteinryggen" />
		<tag k="natural" v="ridge" />
		<tag k="place" v="locality" />
		<tag k="ssr:stedsnr" v="519562" />
	</node>
	<node id="-51080" lat="62.5542555596" lon="6.57878611018">
		<tag k="name" v="Bolthaugen" />
		<tag k="natural" v="hill" />
		<tag k="place" v="locality" />
		<tag k="ssr:stedsnr" v="519549" />
	</node>
	<node id="-50497" lat="62.5427388908" lon="6.804533338">
		<tag k="name" v="Dalsbotn" />
		<tag k="natural" v="valley" />
		<tag k="place" v="locality" />
		<tag k="ssr:stedsnr" v="278065" />
	</node>
	<node id="-53120" lat="62.5055177481" lon="6.99157193385">
		<tag k="name" v="Steingardsheia" />
		<tag k="natural" v="hill" />
		<tag k="place" v="locality" />
		<tag k="ssr:stedsnr" v="972732" />
	</node>
	<node id="-53119" lat="62.4621859813" lon="6.32081697348">
		<tag k="name" v="Geilehaugen" />
		<tag k="natural" v="hill" />
		<tag k="place" v="locality" />
		<tag k="ssr:stedsnr" v="971338" />
	</node>
	<node id="-50837" lat="62.7443611137" lon="6.43343611503">
		<tag k="name" v="Haugen" />
		<tag k="natural" v="hill" />
		<tag k="place" v="locality" />
		<tag k="ssr:stedsnr" v="457349" />
	</node>
	<node id="-51066" lat="62.4864805569" lon="6.42975833396">
		<tag k="name" v="Sætrenakken" />
		<tag k="natural" v="ridge" />
		<tag k="place" v="locality" />
		<tag k="ssr:stedsnr" v="462564" />
	</node>
	<node id="-50836" lat="62.6810472241" lon="6.18288611007">
		<tag k="name" v="Katagylet" />
		<tag k="natural" v="valley" />
		<tag k="place" v="locality" />
		<tag k="ssr:stedsnr" v="457322" />
	</node>
	<node id="-51062" lat="62.4850999975" lon="6.42234722058">
		<tag k="name" v="Sætrenakken" />
		<tag k="natural" v="ridge" />
		<tag k="place" v="locality" />
		<tag k="ssr:stedsnr" v="462515" />
	</node>
	<node id="-53097" lat="62.5083583298" lon="6.27515277637">
		<tag k="name" v="Sætrehaugen" />
		<tag k="natural" v="hill" />
		<tag k="place" v="locality" />
		<tag k="ssr:stedsnr" v="948577" />
	</node>
	<node id="-53095" lat="62.4444805597" lon="6.35788889667">
		<tag k="name" v="Breivikhaugen" />
		<tag k="natural" v="hill" />
		<tag k="place" v="locality" />
		<tag k="ssr:stedsnr" v="948653" />
	</node>
	<node id="-53094" lat="62.4327361126" lon="6.3863222132">
		<tag k="name" v="Kvernhusdalen" />
		<tag k="natural" v="valley" />
		<tag k="place" v="locality" />
		<tag k="ssr:stedsnr" v="948620" />
	</node>
	<node id="-53093" lat="62.4612777779" lon="6.32347221899">
		<tag k="name" v="Geileberget" />
		<tag k="natural" v="hill" />
		<tag k="place" v="locality" />
		<tag k="ssr:stedsnr" v="948609" />
	</node>
	<node id="-51043" lat="62.4648944479" lon="6.9448111013">
		<tag k="name" v="Grynukdalen" />
		<tag k="natural" v="valley" />
		<tag k="place" v="locality" />
		<tag k="ssr:stedsnr" v="460690" />
	</node>
	<node id="-51042" lat="62.4764055527" lon="6.94353889418">
		<tag k="name" v="Heiane" />
		<tag k="natural" v="slope" />
		<tag k="place" v="locality" />
		<tag k="ssr:stedsnr" v="460688" />
	</node>
	<node id="-53089" lat="62.4922138933" lon="6.61431666347">
		<tag k="name" v="Lyngbakkane" />
		<tag k="natural" v="slope" />
		<tag k="place" v="locality" />
		<tag k="ssr:stedsnr" v="945311" />
	</node>
	<node id="-51039" lat="62.4672666706" lon="6.79447499981">
		<tag k="name" v="Kamberørene" />
		<tag k="natural" v="ridge" />
		<tag k="place" v="locality" />
		<tag k="ssr:stedsnr" v="460676" />
	</node>
	<node id="-51037" lat="62.4690944437" lon="6.82186943498">
		<tag k="name" v="Langhaugen" />
		<tag k="natural" v="hill" />
		<tag k="place" v="locality" />
		<tag k="ssr:stedsnr" v="460670" />
	</node>
	<node id="-53084" lat="62.8223805579" lon="6.583002787">
		<tag k="name" v="Varden" />
		<tag k="natural" v="hill" />
		<tag k="place" v="locality" />
		<tag k="ssr:stedsnr" v="942106" />
	</node>
	<node id="-51035" lat="62.499347225" lon="6.819088887">
		<tag k="name" v="Brauta" />
		<tag k="natural" v="slope" />
		<tag k="place" v="locality" />
		<tag k="ssr:stedsnr" v="460661" />
	</node>
	<node id="-51034" lat="62.4580416635" lon="7.001519441">
		<tag k="name" v="Åsen" />
		<tag k="natural" v="slope" />
		<tag k="place" v="locality" />
		<tag k="ssr:stedsnr" v="460654" />
	</node>
	<node id="-51033" lat="62.5036194433" lon="6.88116111386">
		<tag k="name" v="Litleskaret" />
		<tag k="natural" v="valley" />
		<tag k="place" v="locality" />
		<tag k="ssr:stedsnr" v="460650" />
	</node>
	<node id="-51032" lat="62.4721722235" lon="6.82832222033">
		<tag k="name" v="Strupen" />
		<tag k="natural" v="valley" />
		<tag k="place" v="locality" />
		<tag k="ssr:stedsnr" v="460637" />
	</node>
	<node id="-53079" lat="62.7045333318" lon="6.39586110546">
		<tag k="fixme" v="consider natural=peak for the most distinct mountains in the district" />
		<tag k="name" v="Øvre Mangsfjellet" />
		<tag k="natural" v="hill" />
		<tag k="place" v="locality" />
		<tag k="ssr:stedsnr" v="922925" />
	</node>
	<node id="-51029" lat="62.5110500006" lon="6.92335556188">
		<tag k="name" v="Giskemodalen" />
		<tag k="natural" v="valley" />
		<tag k="place" v="locality" />
		<tag k="ssr:stedsnr" v="460604" />
	</node>
	<node id="-51028" lat="62.4631583334" lon="6.79087222311">
		<tag k="name" v="Myrholten" />
		<tag k="natural" v="hill" />
		<tag k="place" v="locality" />
		<tag k="ssr:stedsnr" v="460601" />
	</node>
	<node id="-53074" lat="62.6829472222" lon="6.27823334069">
		<tag k="name" v="Bergedalen" />
		<tag k="natural" v="valley" />
		<tag k="place" v="locality" />
		<tag k="ssr:stedsnr" v="922867" />
	</node>
	<node id="-51025" lat="62.4489416656" lon="7.00175833819">
		<tag k="name" v="Høghaugane" />
		<tag k="natural" v="slope" />
		<tag k="place" v="locality" />
		<tag k="ssr:stedsnr" v="460590" />
	</node>
	<node id="-51024" lat="62.454638885" lon="6.95773056415">
		<tag k="name" v="Kvervebakkane" />
		<tag k="natural" v="slope" />
		<tag k="place" v="locality" />
		<tag k="ssr:stedsnr" v="460589" />
	</node>
	<node id="-51023" lat="62.4367500037" lon="7.00471666541">
		<tag k="name" v="Skurbotnen" />
		<tag k="natural" v="valley" />
		<tag k="place" v="locality" />
		<tag k="ssr:stedsnr" v="460586" />
	</node>
	<node id="-51021" lat="62.4623972244" lon="6.83138333331">
		<tag k="name" v="Einehaugen" />
		<tag k="natural" v="hill" />
		<tag k="place" v="locality" />
		<tag k="ssr:stedsnr" v="460546" />
	</node>
	<node id="-53068" lat="62.5531138884" lon="6.50067500093">
		<tag k="fixme" v="consider natural=peak for the most distinct mountains in the district" />
		<tag k="name" v="Remefjellet" />
		<tag k="natural" v="hill" />
		<tag k="place" v="locality" />
		<tag k="ssr:stedsnr" v="922239" />
	</node>
	<node id="-51019" lat="62.5142833334" lon="6.64077499921">
		<tag k="name" v="Bjønnalemmen" />
		<tag k="natural" v="slope" />
		<tag k="place" v="locality" />
		<tag k="ssr:stedsnr" v="460538" />
	</node>
	<node id="-51016" lat="62.5357944455" lon="6.72096111475">
		<tag k="name" v="Geilhaugen" />
		<tag k="natural" v="hill" />
		<tag k="place" v="locality" />
		<tag k="ssr:stedsnr" v="460463" />
	</node>
	<node id="-51013" lat="62.4713083321" lon="6.63196945232">
		<tag k="name" v="Valledalen" />
		<tag k="natural" v="valley" />
		<tag k="place" v="locality" />
		<tag k="ssr:stedsnr" v="460446" />
	</node>
	<node id="-51012" lat="62.4688444448" lon="6.66453333792">
		<tag k="name" v="Slentrehola" />
		<tag k="place" v="locality" />
		<tag k="ssr:stedsnr" v="460445" />
	</node>
	<node id="-53059" lat="62.4371499975" lon="6.98022499147">
		<tag k="fixme" v="consider natural=peak for the most distinct mountains in the district" />
		<tag k="name" v="Bolleberget" />
		<tag k="natural" v="hill" />
		<tag k="place" v="locality" />
		<tag k="ssr:stedsnr" v="920688" />
	</node>
	<node id="-53057" lat="62.4934111086" lon="6.53095278176">
		<tag k="name" v="Grønskarhaugen" />
		<tag k="natural" v="hill" />
		<tag k="place" v="locality" />
		<tag k="ssr:stedsnr" v="217265" />
	</node>
	<node id="-53056" lat="62.4842527739" lon="6.51326388737">
		<tag k="name" v="Reset" />
		<tag k="natural" v="ridge" />
		<tag k="place" v="locality" />
		<tag k="ssr:stedsnr" v="217096" />
	</node>
	<node id="-51007" lat="62.4865027802" lon="6.57592499337">
		<tag k="name" v="Skinstadreset" />
		<tag k="natural" v="valley" />
		<tag k="place" v="locality" />
		<tag k="ssr:stedsnr" v="460388" />
	</node>
	<node id="-51006" lat="62.4929388905" lon="6.58505278576">
		<tag k="name" v="Straumedalen" />
		<tag k="natural" v="valley" />
		<tag k="place" v="locality" />
		<tag k="ssr:stedsnr" v="460384" />
	</node>
	<node id="-51004" lat="62.4883777755" lon="6.56096666002">
		<tag k="name" v="Gamlehjellbakkane" />
		<tag k="natural" v="slope" />
		<tag k="place" v="locality" />
		<tag k="ssr:stedsnr" v="460364" />
	</node>
	<node id="-53051" lat="62.4707305569" lon="6.19754999811">
		<tag k="name" v="Volsdalen" />
		<tag k="natural" v="valley" />
		<tag k="place" v="locality" />
		<tag k="ssr:stedsnr" v="906218" />
	</node>
	<node id="-51001" lat="62.4972694433" lon="6.52568056025">
		<tag k="name" v="Svarthammaren" />
		<tag k="natural" v="ridge" />
		<tag k="place" v="locality" />
		<tag k="ssr:stedsnr" v="460332" />
	</node>
	<node id="-50483" lat="62.5508444478" lon="6.53343888796">
		<tag k="name" v="Botnasletta" />
		<tag k="place" v="locality" />
		<tag k="ssr:stedsnr" v="277572" />
	</node>
	<node id="-50799" lat="62.4673083358" lon="6.10496945069">
		<tag k="name" v="Meskaret" />
		<tag k="natural" v="valley" />
		<tag k="place" v="locality" />
		<tag k="ssr:stedsnr" v="462985" />
	</node>
	<node id="-50990" lat="62.4933611132" lon="6.5428805544">
		<tag k="name" v="Skaret" />
		<tag k="natural" v="valley" />
		<tag k="place" v="locality" />
		<tag k="ssr:stedsnr" v="460124" />
	</node>
	<node id="-50989" lat="62.547324996" lon="6.66932778463">
		<tag k="name" v="Lyhaugen" />
		<tag k="natural" v="hill" />
		<tag k="place" v="locality" />
		<tag k="ssr:stedsnr" v="460122" />
	</node>
	<node id="-50984" lat="62.4475638891" lon="6.55956388239">
		<tag k="name" v="Smågjæra" />
		<tag k="natural" v="slope" />
		<tag k="place" v="locality" />
		<tag k="ssr:stedsnr" v="460089" />
	</node>
	<node id="-50481" lat="62.5605333351" lon="6.50979722411">
		<tag k="name" v="Heiarøra" />
		<tag k="natural" v="ridge" />
		<tag k="place" v="locality" />
		<tag k="ssr:stedsnr" v="277548" />
	</node>
	<node id="-50980" lat="62.5138611083" lon="6.46503610558">
		<tag k="name" v="Maurekjerringa" />
		<tag k="natural" v="hill" />
		<tag k="place" v="locality" />
		<tag k="ssr:stedsnr" v="460042" />
	</node>
	<node id="-50979" lat="62.456019447" lon="6.59891111792">
		<tag k="name" v="Kleiva" />
		<tag k="natural" v="slope" />
		<tag k="place" v="locality" />
		<tag k="ssr:stedsnr" v="460029" />
	</node>
	<node id="-53026" lat="62.4536194429" lon="6.37884445003">
		<tag k="name" v="Klipeskarhaugen" />
		<tag k="natural" v="hill" />
		<tag k="place" v="locality" />
		<tag k="ssr:stedsnr" v="887628" />
	</node>
	<node id="-50480" lat="62.5671444427" lon="6.53525555339">
		<tag k="name" v="Ramsegjerdet" />
		<tag k="natural" v="slope" />
		<tag k="place" v="locality" />
		<tag k="ssr:stedsnr" v="277534" />
	</node>
	<node id="-53022" lat="62.4678777799" lon="6.31919722883">
		<tag k="fixme" v="consider natural=peak for the most distinct mountains in the district" />
		<tag k="name" v="Kyrkjehaugen" />
		<tag k="natural" v="hill" />
		<tag k="place" v="locality" />
		<tag k="ssr:stedsnr" v="887608" />
	</node>
	<node id="-53021" lat="62.4741527775" lon="6.38217221399">
		<tag k="fixme" v="consider natural=peak for the most distinct mountains in the district" />
		<tag k="name" v="Skothaugen" />
		<tag k="natural" v="hill" />
		<tag k="place" v="locality" />
		<tag k="ssr:stedsnr" v="887578" />
	</node>
	<node id="-53020" lat="62.4526083324" lon="6.46724722325">
		<tag k="name" v="Breiskaret" />
		<tag k="natural" v="valley" />
		<tag k="place" v="locality" />
		<tag k="ssr:stedsnr" v="887563" />
	</node>
	<node id="-53019" lat="62.4521222256" lon="6.46293055115">
		<tag k="name" v="Breiskarnakken" />
		<tag k="natural" v="hill" />
		<tag k="place" v="locality" />
		<tag k="ssr:stedsnr" v="887562" />
	</node>
	<node id="-53018" lat="62.4595861134" lon="6.36617222946">
		<tag k="name" v="Skoghaugen" />
		<tag k="natural" v="hill" />
		<tag k="place" v="locality" />
		<tag k="ssr:stedsnr" v="887557" />
	</node>
	<node id="-50969" lat="62.5656111126" lon="6.51022500245">
		<tag k="name" v="Øvste Litletrolldalskjæften" />
		<tag k="natural" v="valley" />
		<tag k="place" v="locality" />
		<tag k="ssr:stedsnr" v="459523" />
	</node>
	<node id="-50968" lat="62.5474888909" lon="6.49828888102">
		<tag k="name" v="Bjønnadalen" />
		<tag k="natural" v="valley" />
		<tag k="place" v="locality" />
		<tag k="ssr:stedsnr" v="459508" />
	</node>
	<node id="-50820" lat="62.7683527735" lon="6.4533999922">
		<tag k="name" v="Tjuvhaugen" />
		<tag k="natural" v="hill" />
		<tag k="place" v="locality" />
		<tag k="ssr:stedsnr" v="457131" />
	</node>
	<node id="-53014" lat="62.4636111128" lon="6.81517222357">
		<tag k="name" v="Lisetskaret" />
		<tag k="natural" v="valley" />
		<tag k="place" v="locality" />
		<tag k="ssr:stedsnr" v="885674" />
	</node>
	<node id="-53013" lat="62.4650694444" lon="6.87332223142">
		<tag k="name" v="Beingjæra" />
		<tag k="natural" v="slope" />
		<tag k="place" v="locality" />
		<tag k="ssr:stedsnr" v="885672" />
	</node>
	<node id="-53012" lat="62.4867250015" lon="6.86464722408">
		<tag k="name" v="Gjærsnakken" />
		<tag k="natural" v="hill" />
		<tag k="place" v="locality" />
		<tag k="ssr:stedsnr" v="885621" />
	</node>
	<node id="-53011" lat="62.4690861114" lon="6.9829500035">
		<tag k="name" v="Grønlibruna" />
		<tag k="natural" v="ridge" />
		<tag k="place" v="locality" />
		<tag k="ssr:stedsnr" v="885612" />
	</node>
	<node id="-50962" lat="62.5211194448" lon="6.91044722424">
		<tag k="name" v="Svartvasshaugen" />
		<tag k="natural" v="hill" />
		<tag k="place" v="locality" />
		<tag k="ssr:stedsnr" v="278642" />
	</node>
	<node id="-53009" lat="62.5110305552" lon="6.91180555783">
		<tag k="name" v="Mjelthaugen" />
		<tag k="natural" v="hill" />
		<tag k="place" v="locality" />
		<tag k="ssr:stedsnr" v="885604" />
	</node>
	<node id="-53008" lat="62.4940666653" lon="6.72004722808">
		<tag k="name" v="Apalvikhaugen" />
		<tag k="natural" v="hill" />
		<tag k="place" v="locality" />
		<tag k="ssr:stedsnr" v="885458" />
	</node>
	<node id="-50959" lat="62.4627722214" lon="6.80548056161">
		<tag k="name" v="Bruna" />
		<tag k="natural" v="slope" />
		<tag k="place" v="locality" />
		<tag k="ssr:stedsnr" v="278630" />
	</node>
	<node id="-53005" lat="62.4529749975" lon="6.88133055981">
		<tag k="name" v="Rusevollhola" />
		<tag k="natural" v="valley" />
		<tag k="place" v="locality" />
		<tag k="ssr:stedsnr" v="885566" />
	</node>
	<node id="-53004" lat="62.4629916677" lon="6.89689445348">
		<tag k="name" v="Gjærhaugen" />
		<tag k="natural" v="hill" />
		<tag k="place" v="locality" />
		<tag k="ssr:stedsnr" v="885564" />
	</node>
	<node id="-53002" lat="62.4595750031" lon="6.83420000246">
		<tag k="name" v="Brattebakkane" />
		<tag k="natural" v="slope" />
		<tag k="place" v="locality" />
		<tag k="ssr:stedsnr" v="885558" />
	</node>
	<node id="-53001" lat="62.5019194476" lon="6.87116944798">
		<tag k="name" v="Ytstenakken" />
		<tag k="natural" v="ridge" />
		<tag k="place" v="locality" />
		<tag k="ssr:stedsnr" v="885516" />
	</node>
	<node id="-50952" lat="62.4583055584" lon="6.98322499076">
		<tag k="name" v="Plitthaugen" />
		<tag k="natural" v="hill" />
		<tag k="place" v="locality" />
		<tag k="ssr:stedsnr" v="278608" />
	</node>
	<node id="-52999" lat="62.4846472261" lon="6.82955834189">
		<tag k="name" v="Bjørkereitane" />
		<tag k="natural" v="slope" />
		<tag k="place" v="locality" />
		<tag k="ssr:stedsnr" v="885511" />
	</node>
	<node id="-52997" lat="62.4900138923" lon="6.80777500529">
		<tag k="name" v="Vassnakken" />
		<tag k="natural" v="ridge" />
		<tag k="place" v="locality" />
		<tag k="ssr:stedsnr" v="885509" />
	</node>
	<node id="-50947" lat="62.5592777804" lon="6.42773056219">
		<tag k="name" v="Løyndehjellen" />
		<tag k="place" v="locality" />
		<tag k="ssr:stedsnr" v="459366" />
	</node>
	<node id="-52994" lat="62.4694027737" lon="6.62883332819">
		<tag k="name" v="Vikefjellet" />
		<tag k="natural" v="hill" />
		<tag k="place" v="locality" />
		<tag k="ssr:stedsnr" v="885413" />
	</node>
	<node id="-52992" lat="62.4902250018" lon="6.51739445238">
		<tag k="name" v="Trongdalen" />
		<tag k="natural" v="valley" />
		<tag k="place" v="locality" />
		<tag k="ssr:stedsnr" v="885274" />
	</node>
	<node id="-52991" lat="62.4702416692" lon="6.60358333208">
		<tag k="name" v="Mjølkebrauta" />
		<tag k="natural" v="slope" />
		<tag k="place" v="locality" />
		<tag k="ssr:stedsnr" v="885263" />
	</node>
	<node id="-52990" lat="62.5186166627" lon="6.54225555004">
		<tag k="fixme" v="consider natural=peak for the most distinct mountains in the district" />
		<tag k="name" v="Langhaugen" />
		<tag k="natural" v="hill" />
		<tag k="place" v="locality" />
		<tag k="ssr:stedsnr" v="885260" />
	</node>
	<node id="-52988" lat="62.4907277798" lon="6.56443056111">
		<tag k="name" v="Middagshaugen" />
		<tag k="natural" v="hill" />
		<tag k="place" v="locality" />
		<tag k="ssr:stedsnr" v="885322" />
	</node>
	<node id="-52987" lat="62.4655722216" lon="6.5339944522">
		<tag k="name" v="Botnane" />
		<tag k="natural" v="valley" />
		<tag k="place" v="locality" />
		<tag k="ssr:stedsnr" v="885103" />
	</node>
	<node id="-52985" lat="62.553358335" lon="6.50127223061">
		<tag k="name" v="Rimeriset" />
		<tag k="natural" v="valley" />
		<tag k="place" v="locality" />
		<tag k="ssr:stedsnr" v="884518" />
	</node>
	<node id="-52984" lat="62.5617583294" lon="6.51399722151">
		<tag k="name" v="Storklubben" />
		<tag k="natural" v="cliff" />
		<tag k="ssr:stedsnr" v="884511" />
	</node>
	<node id="-50931" lat="62.5387027772" lon="6.66565277563">
		<tag k="name" v="Stigehaugane" />
		<tag k="natural" v="hill" />
		<tag k="place" v="locality" />
		<tag k="ssr:stedsnr" v="276771" />
	</node>
	<node id="-50930" lat="62.5350250031" lon="6.64860000028">
		<tag k="name" v="Torvløbakken" />
		<tag k="natural" v="hill" />
		<tag k="place" v="locality" />
		<tag k="ssr:stedsnr" v="276764" />
	</node>
	<node id="-52976" lat="62.5397666664" lon="6.50598333553">
		<tag k="name" v="Utehaugen" />
		<tag k="natural" v="hill" />
		<tag k="place" v="locality" />
		<tag k="ssr:stedsnr" v="884007" />
	</node>
	<node id="-52975" lat="62.578697224" lon="6.60654999783">
		<tag k="name" v="Nausthamaren" />
		<tag k="natural" v="cliff" />
		<tag k="ssr:stedsnr" v="883871" />
	</node>
	<node id="-52974" lat="62.5731027814" lon="6.59370555744">
		<tag k="name" v="Tåna" />
		<tag k="natural" v="slope" />
		<tag k="place" v="locality" />
		<tag k="ssr:stedsnr" v="883867" />
	</node>
	<node id="-52973" lat="62.6107222185" lon="6.54037777047">
		<tag k="name" v="Skaret" />
		<tag k="natural" v="valley" />
		<tag k="place" v="locality" />
		<tag k="ssr:stedsnr" v="883823" />
	</node>
	<node id="-52972" lat="62.5499444471" lon="6.68014999285">
		<tag k="name" v="Gnubben" />
		<tag k="natural" v="hill" />
		<tag k="place" v="locality" />
		<tag k="ssr:stedsnr" v="883472" />
	</node>
	<node id="-50922" lat="62.561427775" lon="6.57982777417">
		<tag k="name" v="Skabakken" />
		<tag k="natural" v="slope" />
		<tag k="place" v="locality" />
		<tag k="ssr:stedsnr" v="276612" />
	</node>
	<node id="-52969" lat="62.5926055562" lon="6.30412221663">
		<tag k="name" v="Bruna" />
		<tag k="natural" v="slope" />
		<tag k="place" v="locality" />
		<tag k="ssr:stedsnr" v="883322" />
	</node>
	<node id="-52968" lat="62.6343833354" lon="6.680558329">
		<tag k="name" v="Haggardsberget" />
		<tag k="natural" v="hill" />
		<tag k="place" v="locality" />
		<tag k="ssr:stedsnr" v="883312" />
	</node>
	<node id="-52966" lat="62.7551444469" lon="6.37642500623">
		<tag k="name" v="Tjukkhaugan" />
		<tag k="natural" v="hill" />
		<tag k="place" v="locality" />
		<tag k="ssr:stedsnr" v="881927" />
	</node>
	<node id="-50916" lat="62.6244111124" lon="6.68962499733">
		<tag k="name" v="Gamlestølen" />
		<tag k="natural" v="slope" />
		<tag k="place" v="locality" />
		<tag k="ssr:stedsnr" v="276455" />
	</node>
	<node id="-52963" lat="62.4431916689" lon="6.45704444604">
		<tag k="name" v="Legene" />
		<tag k="natural" v="slope" />
		<tag k="place" v="locality" />
		<tag k="ssr:stedsnr" v="949000" />
	</node>
	<node id="-50914" lat="62.6124805594" lon="6.47650278506">
		<tag k="name" v="Ølabakken" />
		<tag k="natural" v="slope" />
		<tag k="place" v="locality" />
		<tag k="ssr:stedsnr" v="458897" />
	</node>
	<node id="-52960" lat="62.5016305544" lon="6.34800556371">
		<tag k="name" v="Bøskaret" />
		<tag k="natural" v="valley" />
		<tag k="place" v="locality" />
		<tag k="ssr:stedsnr" v="948987" />
	</node>
	<node id="-50907" lat="62.6120694443" lon="6.33577778578">
		<tag k="name" v="Storhaugen" />
		<tag k="natural" v="hill" />
		<tag k="place" v="locality" />
		<tag k="ssr:stedsnr" v="275556" />
	</node>
	<node id="-50906" lat="62.642066665" lon="6.24169722422">
		<tag k="name" v="Måshamrane" />
		<tag k="natural" v="cliff" />
		<tag k="ssr:stedsnr" v="275552" />
	</node>
	<node id="-52951" lat="62.4631583363" lon="6.31174444461">
		<tag k="name" v="Åsehaugen" />
		<tag k="natural" v="hill" />
		<tag k="place" v="locality" />
		<tag k="ssr:stedsnr" v="948638" />
	</node>
	<node id="-52950" lat="62.5123888928" lon="6.23939167216">
		<tag k="name" v="Storhylla" />
		<tag k="place" v="locality" />
		<tag k="ssr:stedsnr" v="948635" />
	</node>
	<node id="-52949" lat="62.4992916635" lon="6.19111943908">
		<tag k="name" v="Leitahaugen" />
		<tag k="natural" v="hill" />
		<tag k="place" v="locality" />
		<tag k="ssr:stedsnr" v="948631" />
	</node>
	<node id="-52948" lat="62.4982250014" lon="6.20948610572">
		<tag k="name" v="Svehaugen" />
		<tag k="natural" v="hill" />
		<tag k="place" v="locality" />
		<tag k="ssr:stedsnr" v="948628" />
	</node>
	<node id="-50898" lat="62.7479277779" lon="6.36552777965">
		<tag k="name" v="Høgberget" />
		<tag k="natural" v="hill" />
		<tag k="place" v="locality" />
		<tag k="ssr:stedsnr" v="274852" />
	</node>
	<node id="-50896" lat="62.7553805565" lon="6.3713194475">
		<tag k="name" v="Yste Kråkelihaugen" />
		<tag k="natural" v="hill" />
		<tag k="place" v="locality" />
		<tag k="ssr:stedsnr" v="274915" />
	</node>
	<node id="-52943" lat="62.4982249995" lon="6.18353333157">
		<tag k="name" v="Purkeskylet" />
		<tag k="natural" v="slope" />
		<tag k="place" v="locality" />
		<tag k="ssr:stedsnr" v="948588" />
	</node>
	<node id="-50892" lat="62.7515777781" lon="6.36313610733">
		<tag k="name" v="Søre Svelingshaugen" />
		<tag k="natural" v="hill" />
		<tag k="place" v="locality" />
		<tag k="ssr:stedsnr" v="274713" />
	</node>
	<node id="-52939" lat="62.5282000014" lon="6.87481111054">
		<tag k="name" v="Løklia" />
		<tag k="natural" v="slope" />
		<tag k="place" v="locality" />
		<tag k="ssr:stedsnr" v="946549" />
	</node>
	<node id="-50889" lat="62.4781833369" lon="6.7416861159">
		<tag k="name" v="Gaupefloget" />
		<tag k="natural" v="slope" />
		<tag k="place" v="locality" />
		<tag k="ssr:stedsnr" v="274295" />
	</node>
	<node id="-52936" lat="62.5069333376" lon="6.65718610697">
		<tag k="name" v="Kvennhushaugen" />
		<tag k="natural" v="hill" />
		<tag k="place" v="locality" />
		<tag k="ssr:stedsnr" v="946427" />
	</node>
	<node id="-52935" lat="62.5055499974" lon="6.70535000375">
		<tag k="name" v="Brisingberget" />
		<tag k="natural" v="hill" />
		<tag k="place" v="locality" />
		<tag k="ssr:stedsnr" v="946423" />
	</node>
	<node id="-52933" lat="62.4817944427" lon="6.72795833813">
		<tag k="name" v="Stornakken" />
		<tag k="natural" v="ridge" />
		<tag k="place" v="locality" />
		<tag k="ssr:stedsnr" v="946411" />
	</node>
	<node id="-52930" lat="62.4772944479" lon="6.66997499667">
		<tag k="name" v="Kleivaskaret" />
		<tag k="natural" v="valley" />
		<tag k="place" v="locality" />
		<tag k="ssr:stedsnr" v="946400" />
	</node>
	<node id="-52929" lat="62.4652055583" lon="6.63952777807">
		<tag k="name" v="Hjellhaugen" />
		<tag k="natural" v="hill" />
		<tag k="place" v="locality" />
		<tag k="ssr:stedsnr" v="946396" />
	</node>
	<node id="-52927" lat="62.5283694478" lon="6.71839166546">
		<tag k="name" v="Brunekyrkja" />
		<tag k="place" v="locality" />
		<tag k="ssr:stedsnr" v="946385" />
	</node>
	<node id="-52925" lat="62.5289888912" lon="6.79815833424">
		<tag k="name" v="Stabbefurhaugane" />
		<tag k="natural" v="hill" />
		<tag k="place" v="locality" />
		<tag k="ssr:stedsnr" v="946379" />
	</node>
	<node id="-52924" lat="62.4735944437" lon="6.61428612001">
		<tag k="name" v="Glomsetheia" />
		<tag k="natural" v="slope" />
		<tag k="place" v="locality" />
		<tag k="ssr:stedsnr" v="946377" />
	</node>
	<node id="-51146" lat="62.5559361066" lon="6.49396110232">
		<tag k="name" v="Rimeklubbane" />
		<tag k="natural" v="hill" />
		<tag k="place" v="locality" />
		<tag k="ssr:stedsnr" v="519601" />
	</node>
	<node id="-50517" lat="62.4612388918" lon="6.55561944877">
		<tag k="name" v="Nedsteheia" />
		<tag k="natural" v="slope" />
		<tag k="place" v="locality" />
		<tag k="ssr:stedsnr" v="278391" />
	</node>
	<node id="-52918" lat="62.4576361087" lon="6.59628056305">
		<tag k="name" v="Kleivahaugen" />
		<tag k="natural" v="hill" />
		<tag k="place" v="locality" />
		<tag k="ssr:stedsnr" v="946353" />
	</node>
	<node id="-52917" lat="62.4574805586" lon="6.56371666487">
		<tag k="name" v="Fjellsenden" />
		<tag k="natural" v="ridge" />
		<tag k="place" v="locality" />
		<tag k="ssr:stedsnr" v="946350" />
	</node>
	<node id="-52914" lat="62.5174388879" lon="6.47642499104">
		<tag k="name" v="Fjellsenden" />
		<tag k="natural" v="ridge" />
		<tag k="place" v="locality" />
		<tag k="ssr:stedsnr" v="946334" />
	</node>
	<node id="-52912" lat="62.4981527789" lon="6.47578611353">
		<tag k="name" v="Sætrehaugen" />
		<tag k="natural" v="hill" />
		<tag k="place" v="locality" />
		<tag k="ssr:stedsnr" v="946327" />
	</node>
	<node id="-52911" lat="62.4864194468" lon="6.74296110201">
		<tag k="name" v="Svartedøra" />
		<tag k="natural" v="cliff" />
		<tag k="ssr:stedsnr" v="946284" />
	</node>
	<node id="-52910" lat="62.5341722183" lon="6.78899443969">
		<tag k="name" v="Nakkane" />
		<tag k="natural" v="slope" />
		<tag k="place" v="locality" />
		<tag k="ssr:stedsnr" v="946044" />
	</node>
	<node id="-50861" lat="62.5964777769" lon="6.31999999664">
		<tag k="name" v="Brendehaugen" />
		<tag k="natural" v="hill" />
		<tag k="place" v="locality" />
		<tag k="ssr:stedsnr" v="458309" />
	</node>
	<node id="-50858" lat="62.6199916667" lon="6.63903055359">
		<tag k="name" v="Røffelnakken" />
		<tag k="natural" v="ridge" />
		<tag k="place" v="locality" />
		<tag k="ssr:stedsnr" v="458244" />
	</node>
	<node id="-50856" lat="62.6142527789" lon="6.63401111843">
		<tag k="name" v="Karisæterhaugen" />
		<tag k="natural" v="hill" />
		<tag k="place" v="locality" />
		<tag k="ssr:stedsnr" v="458044" />
	</node>
	<node id="-52903" lat="62.4619583334" lon="6.77979722292">
		<tag k="name" v="Menakken" />
		<tag k="natural" v="ridge" />
		<tag k="place" v="locality" />
		<tag k="ssr:stedsnr" v="945980" />
	</node>
	<node id="-52900" lat="62.4591722261" lon="6.8794361143">
		<tag k="name" v="Løbakken" />
		<tag k="natural" v="slope" />
		<tag k="place" v="locality" />
		<tag k="ssr:stedsnr" v="945665" />
	</node>
	<node id="-50851" lat="62.5789111146" lon="6.28383332832">
		<tag k="name" v="Bukkebakken" />
		<tag k="natural" v="slope" />
		<tag k="place" v="locality" />
		<tag k="ssr:stedsnr" v="457883" />
	</node>
	<node id="-52897" lat="62.4789361109" lon="6.80945278044">
		<tag k="name" v="Osberget" />
		<tag k="natural" v="hill" />
		<tag k="place" v="locality" />
		<tag k="ssr:stedsnr" v="945623" />
	</node>
	<node id="-52896" lat="62.5036972186" lon="6.78436388813">
		<tag k="name" v="Huldrehaugen" />
		<tag k="natural" v="hill" />
		<tag k="place" v="locality" />
		<tag k="ssr:stedsnr" v="945618" />
	</node>
	<node id="-52895" lat="62.4954944432" lon="6.88415833466">
		<tag k="name" v="Giskemodalen" />
		<tag k="natural" v="valley" />
		<tag k="place" v="locality" />
		<tag k="ssr:stedsnr" v="945615" />
	</node>
	<node id="-50117" lat="62.5724888872" lon="6.32750000529">
		<tag k="name" v="Trollhola" />
		<tag k="natural" v="valley" />
		<tag k="place" v="locality" />
		<tag k="ssr:stedsnr" v="12339" />
	</node>
	<node id="-52892" lat="62.4937666695" lon="6.82313055204">
		<tag k="name" v="Løkjingsmyrbotnen" />
		<tag k="natural" v="valley" />
		<tag k="place" v="locality" />
		<tag k="ssr:stedsnr" v="945597" />
	</node>
	<node id="-52891" lat="62.5024527745" lon="6.87621943499">
		<tag k="name" v="Storskaret" />
		<tag k="natural" v="valley" />
		<tag k="place" v="locality" />
		<tag k="ssr:stedsnr" v="945569" />
	</node>
	<node id="-52890" lat="62.4911805569" lon="6.81153334076">
		<tag k="name" v="Kvilshaugen" />
		<tag k="natural" v="hill" />
		<tag k="place" v="locality" />
		<tag k="ssr:stedsnr" v="945555" />
	</node>
	<node id="-52889" lat="62.4964361069" lon="6.81115277635">
		<tag k="name" v="Fjellsenden" />
		<tag k="place" v="locality" />
		<tag k="ssr:stedsnr" v="945554" />
	</node>
	<node id="-52887" lat="62.4835305572" lon="6.9588277771">
		<tag k="name" v="Risbakkane" />
		<tag k="natural" v="slope" />
		<tag k="place" v="locality" />
		<tag k="ssr:stedsnr" v="945547" />
	</node>
	<node id="-52885" lat="62.4847388855" lon="6.80499999526">
		<tag k="name" v="Honnelbakken" />
		<tag k="natural" v="slope" />
		<tag k="place" v="locality" />
		<tag k="ssr:stedsnr" v="945534" />
	</node>
	<node id="-52884" lat="62.4597361131" lon="6.96266110835">
		<tag k="name" v="Småslætta" />
		<tag k="natural" v="slope" />
		<tag k="place" v="locality" />
		<tag k="ssr:stedsnr" v="945505" />
	</node>
	<node id="-52883" lat="62.4754111076" lon="6.92086666811">
		<tag k="name" v="Storløslætta" />
		<tag k="natural" v="slope" />
		<tag k="place" v="locality" />
		<tag k="ssr:stedsnr" v="945494" />
	</node>
	<node id="-52882" lat="62.4493555562" lon="6.91961111119">
		<tag k="name" v="Breiskaret" />
		<tag k="natural" v="valley" />
		<tag k="place" v="locality" />
		<tag k="ssr:stedsnr" v="945481" />
	</node>
	<node id="-52881" lat="62.4573361108" lon="6.96639443692">
		<tag k="name" v="Hjellhaugen" />
		<tag k="natural" v="hill" />
		<tag k="place" v="locality" />
		<tag k="ssr:stedsnr" v="945479" />
	</node>
	<node id="-52880" lat="62.5140999989" lon="6.90574166976">
		<tag k="name" v="Nysæterbakkane" />
		<tag k="natural" v="slope" />
		<tag k="place" v="locality" />
		<tag k="ssr:stedsnr" v="945453" />
	</node>
	<node id="-50831" lat="62.8607805589" lon="6.54361943943">
		<tag k="name" v="Heia" />
		<tag k="natural" v="hill" />
		<tag k="place" v="locality" />
		<tag k="ssr:stedsnr" v="457295" />
	</node>
	<node id="-52878" lat="62.4568166648" lon="6.8797583402">
		<tag k="fixme" v="consider natural=peak for the most distinct mountains in the district" />
		<tag k="name" v="Litleåsen" />
		<tag k="natural" v="hill" />
		<tag k="place" v="locality" />
		<tag k="ssr:stedsnr" v="945431" />
	</node>
	<node id="-52877" lat="62.4743083319" lon="6.82481945154">
		<tag k="name" v="Breinakkane" />
		<tag k="natural" v="hill" />
		<tag k="place" v="locality" />
		<tag k="ssr:stedsnr" v="945420" />
	</node>
	<node id="-52876" lat="62.4657361106" lon="6.82740276882">
		<tag k="name" v="Holane" />
		<tag k="place" v="locality" />
		<tag k="ssr:stedsnr" v="945418" />
	</node>
	<node id="-52875" lat="62.4657944455" lon="6.80170833441">
		<tag k="name" v="Nykjen" />
		<tag k="natural" v="ridge" />
		<tag k="place" v="locality" />
		<tag k="ssr:stedsnr" v="945411" />
	</node>
	<node id="-52874" lat="62.4845611102" lon="6.56865833796">
		<tag k="name" v="Nørebotnen" />
		<tag k="natural" v="valley" />
		<tag k="place" v="locality" />
		<tag k="ssr:stedsnr" v="945299" />
	</node>
	<node id="-52873" lat="62.4886944469" lon="6.59558054609">
		<tag k="name" v="Vasshaugen" />
		<tag k="natural" v="hill" />
		<tag k="place" v="locality" />
		<tag k="ssr:stedsnr" v="945297" />
	</node>
	<node id="-52870" lat="62.4926138918" lon="6.54426945287">
		<tag k="name" v="Fjellsenden" />
		<tag k="natural" v="ridge" />
		<tag k="place" v="locality" />
		<tag k="ssr:stedsnr" v="945258" />
	</node>
	<node id="-52868" lat="62.4672666685" lon="6.59844722795">
		<tag k="name" v="Honningdalsdalen" />
		<tag k="natural" v="valley" />
		<tag k="place" v="locality" />
		<tag k="ssr:stedsnr" v="945253" />
	</node>
	<node id="-50819" lat="62.8146666702" lon="6.58466945109">
		<tag k="name" v="Erhaugen" />
		<tag k="natural" v="hill" />
		<tag k="place" v="locality" />
		<tag k="ssr:stedsnr" v="457102" />
	</node>
	<node id="-52865" lat="62.480888887" lon="6.59545833142">
		<tag k="name" v="Akslene" />
		<tag k="natural" v="ridge" />
		<tag k="place" v="locality" />
		<tag k="ssr:stedsnr" v="945087" />
	</node>
	<node id="-53180" lat="62.6145527735" lon="6.64003055707">
		<tag k="fixme" v="consider natural=peak for the most distinct mountains in the district" />
		<tag k="name" v="Hellenakken" />
		<tag k="natural" v="hill" />
		<tag k="place" v="locality" />
		<tag k="ssr:stedsnr" v="11448" />
	</node>
	<node id="-50815" lat="62.7512333363" lon="6.35971110936">
		<tag k="name" v="Skjelvikhaugen" />
		<tag k="natural" v="hill" />
		<tag k="place" v="locality" />
		<tag k="ssr:stedsnr" v="456787" />
	</node>
	<node id="-50813" lat="62.8633861094" lon="6.54274166219">
		<tag k="name" v="Kalven" />
		<tag k="natural" v="hill" />
		<tag k="place" v="locality" />
		<tag k="ssr:stedsnr" v="456323" />
	</node>
	<node id="-50809" lat="62.8139833348" lon="6.52154999137">
		<tag k="name" v="Sørhaugen" />
		<tag k="natural" v="hill" />
		<tag k="place" v="locality" />
		<tag k="ssr:stedsnr" v="456140" />
	</node>
	<node id="-52856" lat="62.4804611108" lon="6.64959167357">
		<tag k="name" v="Nakkane" />
		<tag k="natural" v="ridge" />
		<tag k="place" v="locality" />
		<tag k="ssr:stedsnr" v="945007" />
	</node>
	<node id="-50452" lat="62.5628222198" lon="6.56190277025">
		<tag k="name" v="Lia" />
		<tag k="natural" v="slope" />
		<tag k="place" v="locality" />
		<tag k="ssr:stedsnr" v="276617" />
	</node>
	<node id="-52852" lat="62.5685722218" lon="6.52897777209">
		<tag k="name" v="Trolldalskjæften" />
		<tag k="natural" v="valley" />
		<tag k="place" v="locality" />
		<tag k="ssr:stedsnr" v="944983" />
	</node>
	<node id="-52851" lat="62.5948277749" lon="6.51508888752">
		<tag k="name" v="Evelsbreden" />
		<tag k="natural" v="ridge" />
		<tag k="place" v="locality" />
		<tag k="ssr:stedsnr" v="944980" />
	</node>
	<node id="-52850" lat="62.6108611066" lon="6.48943332483">
		<tag k="name" v="Ramnfloget" />
		<tag k="natural" v="cliff" />
		<tag k="ssr:stedsnr" v="944976" />
	</node>
	<node id="-50800" lat="62.4749111091" lon="6.16602777103">
		<tag k="name" v="Kniven" />
		<tag k="natural" v="ridge" />
		<tag k="place" v="locality" />
		<tag k="ssr:stedsnr" v="462987" />
	</node>
	<node id="-52847" lat="62.5828888847" lon="6.6396472133">
		<tag k="name" v="Åmundteigen" />
		<tag k="natural" v="slope" />
		<tag k="place" v="locality" />
		<tag k="ssr:stedsnr" v="944951" />
	</node>
	<node id="-52845" lat="62.5810222196" lon="6.56805000251">
		<tag k="name" v="Botnaskaret" />
		<tag k="natural" v="valley" />
		<tag k="place" v="locality" />
		<tag k="ssr:stedsnr" v="944897" />
	</node>
	<node id="-50450" lat="62.5717555566" lon="6.72723054896">
		<tag k="name" v="Fonnalaupen" />
		<tag k="natural" v="slope" />
		<tag k="place" v="locality" />
		<tag k="ssr:stedsnr" v="276562" />
	</node>
	<node id="-50794" lat="62.5093388888" lon="6.71999999937">
		<tag k="name" v="Vassberget" />
		<tag k="natural" v="hill" />
		<tag k="place" v="locality" />
		<tag k="ssr:stedsnr" v="254858" />
	</node>
	<node id="-52841" lat="62.5904944424" lon="6.63820000115">
		<tag k="name" v="Djupedalen" />
		<tag k="natural" v="valley" />
		<tag k="place" v="locality" />
		<tag k="ssr:stedsnr" v="944866" />
	</node>
	<node id="-52840" lat="62.6034250021" lon="6.63954444659">
		<tag k="name" v="Løypehamaren" />
		<tag k="natural" v="cliff" />
		<tag k="ssr:stedsnr" v="944854" />
	</node>
	<node id="-52839" lat="62.601697218" lon="6.64726111076">
		<tag k="name" v="Rabbane" />
		<tag k="natural" v="ridge" />
		<tag k="place" v="locality" />
		<tag k="ssr:stedsnr" v="944853" />
	</node>
	<node id="-52837" lat="62.6045944422" lon="6.64141666568">
		<tag k="name" v="Ospene" />
		<tag k="natural" v="slope" />
		<tag k="place" v="locality" />
		<tag k="ssr:stedsnr" v="944837" />
	</node>
	<node id="-52836" lat="62.6076833333" lon="6.64270556337">
		<tag k="name" v="Ukselia" />
		<tag k="natural" v="slope" />
		<tag k="place" v="locality" />
		<tag k="ssr:stedsnr" v="944835" />
	</node>
	<node id="-52833" lat="62.6156444472" lon="6.46569999034">
		<tag k="name" v="Langeberget" />
		<tag k="natural" v="hill" />
		<tag k="place" v="locality" />
		<tag k="ssr:stedsnr" v="944814" />
	</node>
	<node id="-50784" lat="62.5991722189" lon="6.41830833749">
		<tag k="name" v="Vasskarhamrane" />
		<tag k="natural" v="hill" />
		<tag k="place" v="locality" />
		<tag k="ssr:stedsnr" v="254373" />
	</node>
	<node id="-50448" lat="62.5806777785" lon="6.70334443598">
		<tag k="name" v="Hellaren" />
		<tag k="place" v="locality" />
		<tag k="ssr:stedsnr" v="276551" />
	</node>
	<node id="-52828" lat="62.5391472263" lon="6.66484722686">
		<tag k="name" v="Skarsberget" />
		<tag k="natural" v="hill" />
		<tag k="place" v="locality" />
		<tag k="ssr:stedsnr" v="944740" />
	</node>
	<node id="-52827" lat="62.5686777741" lon="6.78251388231">
		<tag k="name" v="Skåla" />
		<tag k="natural" v="valley" />
		<tag k="place" v="locality" />
		<tag k="ssr:stedsnr" v="944730" />
	</node>
	<node id="-52825" lat="62.520613892" lon="6.87638611504">
		<tag k="alt_name" v="Bjønnskaret" />
		<tag k="name" v="Bjørnskaret" />
		<tag k="natural" v="valley" />
		<tag k="place" v="locality" />
		<tag k="ssr:stedsnr" v="861815" />
	</node>
	<node id="-52822" lat="62.5525527735" lon="6.78143612088">
		<tag k="fixme" v="multiple name tags, choose one and add the other to alt_name" />
		<tag k="name" v="Engsetbotnen;Litle Engsetbotnen" />
		<tag k="natural" v="valley" />
		<tag k="place" v="locality" />
		<tag k="ssr:stedsnr" v="861932" />
	</node>
	<node id="-50773" lat="62.5578749985" lon="6.42163889582">
		<tag k="fixme" v="consider natural=peak for the most distinct mountains in the district" />
		<tag k="name" v="Tinden" />
		<tag k="natural" v="hill" />
		<tag k="place" v="locality" />
		<tag k="ssr:stedsnr" v="254265" />
	</node>
	<node id="-52820" lat="62.5482444418" lon="6.79340832415">
		<tag k="fixme" v="consider natural=peak for the most distinct mountains in the district" />
		<tag k="name" v="Småheiane" />
		<tag k="natural" v="hill" />
		<tag k="place" v="locality" />
		<tag k="ssr:stedsnr" v="861918" />
	</node>
	<node id="-50446" lat="62.6827638883" lon="6.26556944786">
		<tag k="name" v="Flemshalsen" />
		<tag k="natural" v="ridge" />
		<tag k="place" v="locality" />
		<tag k="ssr:stedsnr" v="153436" />
	</node>
	<node id="-50104" lat="62.6073027817" lon="6.48654722877">
		<tag k="fixme" v="consider natural=peak for the most distinct mountains in the district" />
		<tag k="name" v="Heia" />
		<tag k="natural" v="hill" />
		<tag k="place" v="locality" />
		<tag k="ssr:stedsnr" v="11407" />
	</node>
	<node id="-50766" lat="62.5374662094" lon="6.6579694737">
		<tag k="fixme" v="consider natural=peak for the most distinct mountains in the district" />
		<tag k="name" v="Stigenakken" />
		<tag k="natural" v="hill" />
		<tag k="place" v="locality" />
		<tag k="ssr:stedsnr" v="254136" />
	</node>
	<node id="-52809" lat="62.5530138867" lon="6.52050833185">
		<tag k="name" v="Jogjerdet" />
		<tag k="natural" v="slope" />
		<tag k="place" v="locality" />
		<tag k="ssr:stedsnr" v="944623" />
	</node>
	<node id="-52808" lat="62.5566388895" lon="6.51057500361">
		<tag k="name" v="Heia" />
		<tag k="natural" v="hill" />
		<tag k="place" v="locality" />
		<tag k="ssr:stedsnr" v="944613" />
	</node>
	<node id="-50757" lat="62.5342222202" lon="6.64553332872">
		<tag k="name" v="Ånareset" />
		<tag k="natural" v="slope" />
		<tag k="place" v="locality" />
		<tag k="ssr:stedsnr" v="519724" />
	</node>
	<node id="-52803" lat="62.5541833314" lon="6.38391667036">
		<tag k="name" v="Inste Vassida" />
		<tag k="natural" v="slope" />
		<tag k="place" v="locality" />
		<tag k="ssr:stedsnr" v="861271" />
	</node>
	<node id="-50754" lat="62.463833333" lon="6.10250000573">
		<tag k="name" v="Storskaret" />
		<tag k="natural" v="valley" />
		<tag k="place" v="locality" />
		<tag k="ssr:stedsnr" v="220627" />
	</node>
	<node id="-50752" lat="62.4944138861" lon="6.17648056477">
		<tag k="name" v="Fjellsenden" />
		<tag k="natural" v="ridge" />
		<tag k="place" v="locality" />
		<tag k="ssr:stedsnr" v="220611" />
	</node>
	<node id="-50109" lat="62.6115194459" lon="6.17727499954">
		<tag k="name" v="Glettehaugen" />
		<tag k="natural" v="hill" />
		<tag k="place" v="locality" />
		<tag k="ssr:stedsnr" v="11817" />
	</node>
	<node id="-50749" lat="62.4646055591" lon="6.43395556202">
		<tag k="name" v="Blombakkane" />
		<tag k="natural" v="slope" />
		<tag k="place" v="locality" />
		<tag k="ssr:stedsnr" v="220589" />
	</node>
	<node id="-50746" lat="62.472197221" lon="6.85819165947">
		<tag k="name" v="Brendhaugen" />
		<tag k="natural" v="hill" />
		<tag k="place" v="locality" />
		<tag k="ssr:stedsnr" v="217631" />
	</node>
	<node id="-50745" lat="62.461530555" lon="6.94157778676">
		<tag k="name" v="Skardalen" />
		<tag k="natural" v="valley" />
		<tag k="place" v="locality" />
		<tag k="ssr:stedsnr" v="217624" />
	</node>
	<node id="-50744" lat="62.4866833338" lon="6.85799721987">
		<tag k="name" v="Gjerdsnakken" />
		<tag k="natural" v="ridge" />
		<tag k="place" v="locality" />
		<tag k="ssr:stedsnr" v="217623" />
	</node>
	<node id="-50743" lat="62.4457805522" lon="6.94140278175">
		<tag k="name" v="Hallvardslia" />
		<tag k="natural" v="slope" />
		<tag k="place" v="locality" />
		<tag k="ssr:stedsnr" v="217611" />
	</node>
	<node id="-52789" lat="62.5908277757" lon="6.69323055136">
		<tag k="name" v="Koldalen" />
		<tag k="natural" v="valley" />
		<tag k="place" v="locality" />
		<tag k="ssr:stedsnr" v="944524" />
	</node>
	<node id="-52788" lat="62.5685027748" lon="6.71081944586">
		<tag k="name" v="Kohjellen" />
		<tag k="place" v="locality" />
		<tag k="ssr:stedsnr" v="944518" />
	</node>
	<node id="-50739" lat="62.4603749957" lon="6.94832222378">
		<tag k="name" v="Høgberget" />
		<tag k="natural" v="slope" />
		<tag k="place" v="locality" />
		<tag k="ssr:stedsnr" v="217529" />
	</node>
	<node id="-50738" lat="62.5140472251" lon="6.94054444818">
		<tag k="name" v="Langrystene" />
		<tag k="natural" v="slope" />
		<tag k="place" v="locality" />
		<tag k="ssr:stedsnr" v="217528" />
	</node>
	<node id="-50737" lat="62.5068555593" lon="6.9287444415">
		<tag k="name" v="Smånebbene" />
		<tag k="natural" v="hill" />
		<tag k="place" v="locality" />
		<tag k="ssr:stedsnr" v="217527" />
	</node>
	<node id="-50736" lat="62.4392249958" lon="7.04200278385">
		<tag k="name" v="Høgreinene" />
		<tag k="natural" v="hill" />
		<tag k="place" v="locality" />
		<tag k="ssr:stedsnr" v="217521" />
	</node>
	<node id="-50735" lat="62.4827611147" lon="6.94278332672">
		<tag k="name" v="Røra" />
		<tag k="natural" v="slope" />
		<tag k="place" v="locality" />
		<tag k="ssr:stedsnr" v="217516" />
	</node>
	<node id="-52782" lat="62.4854749996" lon="6.76628888244">
		<tag k="fixme" v="consider natural=peak for the most distinct mountains in the district" />
		<tag k="name" v="Liafjellet" />
		<tag k="natural" v="hill" />
		<tag k="place" v="locality" />
		<tag k="ssr:stedsnr" v="860358" />
	</node>
	<node id="-50733" lat="62.5151750013" lon="6.70182777721">
		<tag k="name" v="Brendeskolten" />
		<tag k="natural" v="hill" />
		<tag k="place" v="locality" />
		<tag k="ssr:stedsnr" v="217437" />
	</node>
	<node id="-52780" lat="62.5701027776" lon="6.72548332699">
		<tag k="name" v="Jonakken" />
		<tag k="natural" v="ridge" />
		<tag k="place" v="locality" />
		<tag k="ssr:stedsnr" v="944474" />
	</node>
	<node id="-50731" lat="62.5230361121" lon="6.53379443735">
		<tag k="name" v="Kallskaret" />
		<tag k="natural" v="valley" />
		<tag k="place" v="locality" />
		<tag k="ssr:stedsnr" v="217418" />
	</node>
	<node id="-52778" lat="62.4635666705" lon="7.00722222037">
		<tag k="alt_name" v="Åsrørene" />
		<tag k="fixme" v="consider natural=peak for the most distinct mountains in the district" />
		<tag k="name" v="Åsrørne" />
		<tag k="natural" v="hill" />
		<tag k="old_name" v="Åsrora" />
		<tag k="place" v="locality" />
		<tag k="ssr:stedsnr" v="860416" />
	</node>
	<node id="-50729" lat="62.4968472253" lon="6.58419166143">
		<tag k="name" v="Nausa" />
		<tag k="natural" v="ridge" />
		<tag k="place" v="locality" />
		<tag k="ssr:stedsnr" v="217322" />
	</node>
	<node id="-50727" lat="62.5150194432" lon="6.7502416655">
		<tag k="name" v="Kvennhuslia" />
		<tag k="natural" v="slope" />
		<tag k="place" v="locality" />
		<tag k="ssr:stedsnr" v="217318" />
	</node>
	<node id="-50725" lat="62.4888999981" lon="6.5795333403">
		<tag k="name" v="Digerneslia" />
		<tag k="natural" v="slope" />
		<tag k="place" v="locality" />
		<tag k="ssr:stedsnr" v="217309" />
	</node>
	<node id="-52772" lat="62.5606805569" lon="6.46828888738">
		<tag k="name" v="Timberdalen" />
		<tag k="natural" v="valley" />
		<tag k="place" v="locality" />
		<tag k="ssr:stedsnr" v="944445" />
	</node>
	<node id="-50723" lat="62.4895805564" lon="6.5121888857">
		<tag k="name" v="Skylegga" />
		<tag k="natural" v="hill" />
		<tag k="place" v="locality" />
		<tag k="ssr:stedsnr" v="217117" />
	</node>
	<node id="-52770" lat="62.4775194421" lon="6.61856943764">
		<tag k="alt_name" v="Hovudtuva" />
		<tag k="fixme" v="consider natural=peak for the most distinct mountains in the district" />
		<tag k="name" v="Haugtua" />
		<tag k="natural" v="hill" />
		<tag k="place" v="locality" />
		<tag k="ssr:stedsnr" v="860027" />
	</node>
	<node id="-52769" lat="62.4614111141" lon="6.42035832611">
		<tag k="fixme" v="consider natural=peak for the most distinct mountains in the district" />
		<tag k="name" v="Rambjøra" />
		<tag k="natural" v="hill" />
		<tag k="place" v="locality" />
		<tag k="ssr:stedsnr" v="860008" />
	</node>
	<node id="-50720" lat="62.4951111066" lon="6.59405832582">
		<tag k="name" v="Kleiva" />
		<tag k="natural" v="slope" />
		<tag k="place" v="locality" />
		<tag k="ssr:stedsnr" v="217029" />
	</node>
	<node id="-50719" lat="62.4732194413" lon="6.65437221353">
		<tag k="name" v="Fonne" />
		<tag k="natural" v="slope" />
		<tag k="place" v="locality" />
		<tag k="ssr:stedsnr" v="217011" />
	</node>
	<node id="-50718" lat="62.5063916638" lon="6.66658888578">
		<tag k="name" v="Haretua" />
		<tag k="natural" v="hill" />
		<tag k="place" v="locality" />
		<tag k="ssr:stedsnr" v="217006" />
	</node>
	<node id="-52765" lat="62.6306249965" lon="6.71587221394">
		<tag k="name" v="Egga" />
		<tag k="place" v="locality" />
		<tag k="ssr:stedsnr" v="944092" />
	</node>
	<node id="-50716" lat="62.6011611142" lon="6.64019999909">
		<tag k="name" v="Løhamaren" />
		<tag k="natural" v="cliff" />
		<tag k="ssr:stedsnr" v="216839" />
	</node>
	<node id="-50715" lat="62.5958444481" lon="6.63770277605">
		<tag k="name" v="Stølen" />
		<tag k="natural" v="slope" />
		<tag k="place" v="locality" />
		<tag k="ssr:stedsnr" v="216837" />
	</node>
	<node id="-50713" lat="62.5330555599" lon="6.58744722291">
		<tag k="name" v="Kvernbakken" />
		<tag k="natural" v="slope" />
		<tag k="place" v="locality" />
		<tag k="ssr:stedsnr" v="216616" />
	</node>
	<node id="-52760" lat="62.7043555588" lon="6.39338333549">
		<tag k="name" v="Såta" />
		<tag k="natural" v="hill" />
		<tag k="place" v="locality" />
		<tag k="ssr:stedsnr" v="943943" />
	</node>
	<node id="-50711" lat="62.5891361075" lon="6.58231944351">
		<tag k="name" v="Gamlehaugen" />
		<tag k="natural" v="hill" />
		<tag k="place" v="locality" />
		<tag k="ssr:stedsnr" v="216721" />
	</node>
	<node id="-50710" lat="62.593983334" lon="6.58604445175">
		<tag k="name" v="Katthamaren" />
		<tag k="natural" v="hill" />
		<tag k="place" v="locality" />
		<tag k="ssr:stedsnr" v="216719" />
	</node>
	<node id="-52757" lat="62.5358277752" lon="6.2842611209">
		<tag k="fixme" v="consider natural=peak for the most distinct mountains in the district" />
		<tag k="name" v="Høgefjellet" />
		<tag k="natural" v="hill" />
		<tag k="place" v="locality" />
		<tag k="ssr:stedsnr" v="943651" />
	</node>
	<node id="-50707" lat="62.6178111135" lon="6.68288055438">
		<tag k="name" v="Hornskaret" />
		<tag k="natural" v="valley" />
		<tag k="place" v="locality" />
		<tag k="ssr:stedsnr" v="216414" />
	</node>
	<node id="-50704" lat="62.6317722263" lon="6.66023332468">
		<tag k="name" v="Eikenesberget" />
		<tag k="natural" v="hill" />
		<tag k="place" v="locality" />
		<tag k="ssr:stedsnr" v="216319" />
	</node>
	<node id="-50702" lat="62.6109944451" lon="6.64477500861">
		<tag k="name" v="Skarhaugen" />
		<tag k="natural" v="hill" />
		<tag k="place" v="locality" />
		<tag k="ssr:stedsnr" v="216034" />
	</node>
	<node id="-52748" lat="62.6246583304" lon="6.15548332837">
		<tag k="name" v="Kannerhaugen" />
		<tag k="natural" v="hill" />
		<tag k="place" v="locality" />
		<tag k="ssr:stedsnr" v="942921" />
	</node>
	<node id="-52746" lat="62.612666665" lon="6.17203610261">
		<tag k="name" v="Måsehamrane" />
		<tag k="natural" v="cliff" />
		<tag k="ssr:stedsnr" v="942912" />
	</node>
	<node id="-52741" lat="62.5758388918" lon="6.28046389449">
		<tag k="name" v="Røvaslettå" />
		<tag k="place" v="locality" />
		<tag k="ssr:stedsnr" v="942888" />
	</node>
	<node id="-52740" lat="62.6285194454" lon="6.13259722613">
		<tag k="name" v="Veggen" />
		<tag k="natural" v="cliff" />
		<tag k="ssr:stedsnr" v="942887" />
	</node>
	<node id="-52739" lat="62.735063885" lon="6.45430278265">
		<tag k="name" v="Rekhaugen" />
		<tag k="natural" v="hill" />
		<tag k="place" v="locality" />
		<tag k="ssr:stedsnr" v="942747" />
	</node>
	<node id="-52738" lat="62.6267055563" lon="6.1851861017">
		<tag k="name" v="Svanselihaugen" />
		<tag k="natural" v="hill" />
		<tag k="place" v="locality" />
		<tag k="ssr:stedsnr" v="942691" />
	</node>
	<node id="-50688" lat="62.7532194438" lon="6.37073055375">
		<tag k="name" v="Inste Kråkelihaugen" />
		<tag k="natural" v="hill" />
		<tag k="place" v="locality" />
		<tag k="ssr:stedsnr" v="213930" />
	</node>
	<node id="-50687" lat="62.7461833361" lon="6.3631611164">
		<tag k="name" v="Nausthaugen" />
		<tag k="natural" v="hill" />
		<tag k="place" v="locality" />
		<tag k="ssr:stedsnr" v="213812" />
	</node>
	<node id="-50686" lat="62.746361114" lon="6.35913334089">
		<tag k="name" v="Varden" />
		<tag k="natural" v="hill" />
		<tag k="place" v="locality" />
		<tag k="ssr:stedsnr" v="213803" />
	</node>
	<node id="-52727" lat="62.8227194487" lon="6.58803055782">
		<tag k="name" v="Remman" />
		<tag k="natural" v="ridge" />
		<tag k="place" v="locality" />
		<tag k="ssr:stedsnr" v="942060" />
	</node>
	<node id="-52726" lat="62.7560555547" lon="6.37359723169">
		<tag k="name" v="Nøre Kråkelihaugen" />
		<tag k="natural" v="hill" />
		<tag k="place" v="locality" />
		<tag k="ssr:stedsnr" v="941922" />
	</node>
	<node id="-52725" lat="62.7526444428" lon="6.37503055648">
		<tag k="name" v="Moldremma" />
		<tag k="natural" v="ridge" />
		<tag k="place" v="locality" />
		<tag k="ssr:stedsnr" v="941899" />
	</node>
	<node id="-52721" lat="62.7466833377" lon="6.35972222031">
		<tag k="name" v="Gåskaret" />
		<tag k="natural" v="valley" />
		<tag k="place" v="locality" />
		<tag k="ssr:stedsnr" v="941781" />
	</node>
	<node id="-52714" lat="62.8011527821" lon="6.53003333277">
		<tag k="name" v="Storhaugen" />
		<tag k="natural" v="hill" />
		<tag k="place" v="locality" />
		<tag k="ssr:stedsnr" v="941083" />
	</node>
	<node id="-52709" lat="62.8118833369" lon="6.53516666266">
		<tag k="name" v="Langhaugen" />
		<tag k="natural" v="hill" />
		<tag k="place" v="locality" />
		<tag k="ssr:stedsnr" v="941055" />
	</node>
	<node id="-52703" lat="62.6623861113" lon="6.1947166729">
		<tag k="fixme" v="consider natural=peak for the most distinct mountains in the district" />
		<tag k="name" v="Haramsfjellet" />
		<tag k="natural" v="hill" />
		<tag k="place" v="locality" />
		<tag k="ssr:stedsnr" v="841721" />
	</node>
	<node id="-50651" lat="62.6357777817" lon="6.2640444398">
		<tag k="name" v="Varden" />
		<tag k="natural" v="hill" />
		<tag k="place" v="locality" />
		<tag k="ssr:stedsnr" v="194417" />
	</node>
	<node id="-52695" lat="62.5781611074" lon="6.64122777174">
		<tag k="name" v="Brunhaugen" />
		<tag k="natural" v="hill" />
		<tag k="place" v="locality" />
		<tag k="ssr:stedsnr" v="216988" />
	</node>
	<node id="-50646" lat="62.6323555597" lon="6.67142499578">
		<tag k="name" v="Nosa" />
		<tag k="natural" v="hill" />
		<tag k="place" v="locality" />
		<tag k="ssr:stedsnr" v="194402" />
	</node>
	<node id="-50425" lat="62.6774166628" lon="6.18053333608">
		<tag k="name" v="Storhamaren" />
		<tag k="natural" v="cliff" />
		<tag k="ssr:stedsnr" v="275389" />
	</node>
	<node id="-52692" lat="62.5841722203" lon="6.63243332388">
		<tag k="name" v="Kleiva" />
		<tag k="natural" v="cliff" />
		<tag k="ssr:stedsnr" v="216973" />
	</node>
	<node id="-52691" lat="62.5864888906" lon="6.63246111325">
		<tag k="name" v="Fonnasletta" />
		<tag k="natural" v="slope" />
		<tag k="place" v="locality" />
		<tag k="ssr:stedsnr" v="216969" />
	</node>
	<node id="-50642" lat="62.5938694463" lon="6.54180555544">
		<tag k="name" v="Sætredalen" />
		<tag k="natural" v="valley" />
		<tag k="place" v="locality" />
		<tag k="ssr:stedsnr" v="194325" />
	</node>
	<node id="-50641" lat="62.5915694433" lon="6.63932222415">
		<tag k="name" v="Svartegjølet" />
		<tag k="natural" v="valley" />
		<tag k="place" v="locality" />
		<tag k="ssr:stedsnr" v="194323" />
	</node>
	<node id="-50640" lat="62.5925916636" lon="6.6659111141">
		<tag k="name" v="Dysadalen" />
		<tag k="natural" v="valley" />
		<tag k="place" v="locality" />
		<tag k="ssr:stedsnr" v="194321" />
	</node>
	<node id="-50424" lat="62.682224996" lon="6.29608610561">
		<tag k="name" v="Dalsgjølet" />
		<tag k="natural" v="gorge" />
		<tag k="ssr:stedsnr" v="275387" />
	</node>
	<node id="-50637" lat="62.5822055579" lon="6.3767388968">
		<tag k="name" v="Grønebakken" />
		<tag k="natural" v="hill" />
		<tag k="place" v="locality" />
		<tag k="ssr:stedsnr" v="194307" />
	</node>
	<node id="-52681" lat="62.4755416677" lon="6.24036666896">
		<tag k="fixme" v="consider natural=peak for the most distinct mountains in the district" />
		<tag k="name" v="Husafjellet" />
		<tag k="natural" v="hill" />
		<tag k="place" v="locality" />
		<tag k="ssr:stedsnr" v="827707" />
	</node>
	<node id="-52678" lat="62.4639222198" lon="6.22943054632">
		<tag k="name" v="Skotteberget" />
		<tag k="natural" v="hill" />
		<tag k="place" v="locality" />
		<tag k="ssr:stedsnr" v="827643" />
	</node>
	<node id="-52676" lat="62.4622999965" lon="6.41845832406">
		<tag k="name" v="Storfonna" />
		<tag k="natural" v="valley" />
		<tag k="place" v="locality" />
		<tag k="ssr:stedsnr" v="827630" />
	</node>
	<node id="-52675" lat="62.4790833291" lon="6.40997223107">
		<tag k="name" v="Plettedalen" />
		<tag k="natural" v="valley" />
		<tag k="place" v="locality" />
		<tag k="ssr:stedsnr" v="827627" />
	</node>
	<node id="-50620" lat="62.5689000008" lon="6.43808611447">
		<tag k="fixme" v="consider natural=peak for the most distinct mountains in the district" />
		<tag k="name" v="Furnakken" />
		<tag k="natural" v="hill" />
		<tag k="place" v="locality" />
		<tag k="ssr:stedsnr" v="193311" />
	</node>
	<node id="-52667" lat="62.4635861144" lon="6.82681111766">
		<tag k="name" v="Reset" />
		<tag k="natural" v="ridge" />
		<tag k="place" v="locality" />
		<tag k="ssr:stedsnr" v="824606" />
	</node>
	<node id="-52666" lat="62.4813222221" lon="6.92619721683">
		<tag k="name" v="Aksla" />
		<tag k="natural" v="ridge" />
		<tag k="place" v="locality" />
		<tag k="ssr:stedsnr" v="824603" />
	</node>
	<node id="-50616" lat="62.5976611107" lon="6.40614445418">
		<tag k="name" v="Søre Botnen" />
		<tag k="natural" v="valley" />
		<tag k="place" v="locality" />
		<tag k="ssr:stedsnr" v="193429" />
	</node>
	<node id="-52662" lat="62.5077500035" lon="6.8268583374">
		<tag k="name" v="Kvileberget" />
		<tag k="natural" v="hill" />
		<tag k="place" v="locality" />
		<tag k="ssr:stedsnr" v="824575" />
	</node>
	<node id="-52661" lat="62.4535444449" lon="6.88042776865">
		<tag k="name" v="Slentrehola" />
		<tag k="natural" v="valley" />
		<tag k="place" v="locality" />
		<tag k="ssr:stedsnr" v="824567" />
	</node>
	<node id="-52660" lat="62.4954916662" lon="6.8390611197">
		<tag k="name" v="Øvstestigane" />
		<tag k="natural" v="slope" />
		<tag k="place" v="locality" />
		<tag k="ssr:stedsnr" v="824559" />
	</node>
	<node id="-52659" lat="62.4490527807" lon="6.92089721299">
		<tag k="name" v="Vassbakken" />
		<tag k="natural" v="slope" />
		<tag k="place" v="locality" />
		<tag k="ssr:stedsnr" v="824525" />
	</node>
	<node id="-50610" lat="62.4736027786" lon="6.39693056382">
		<tag k="name" v="Bjørkedalen" />
		<tag k="natural" v="valley" />
		<tag k="place" v="locality" />
		<tag k="ssr:stedsnr" v="193015" />
	</node>
	<node id="-52657" lat="62.5074055564" lon="6.66146943711">
		<tag k="name" v="Øvste Rongja" />
		<tag k="natural" v="valley" />
		<tag k="place" v="locality" />
		<tag k="ssr:stedsnr" v="824469" />
	</node>
	<node id="-52655" lat="62.518274997" lon="6.73115833221">
		<tag k="name" v="Brisingberget" />
		<tag k="natural" v="hill" />
		<tag k="place" v="locality" />
		<tag k="ssr:stedsnr" v="824458" />
	</node>
	<node id="-52651" lat="62.4707444476" lon="6.65878056409">
		<tag k="name" v="Rabben" />
		<tag k="natural" v="valley" />
		<tag k="place" v="locality" />
		<tag k="ssr:stedsnr" v="824410" />
	</node>
	<node id="-52650" lat="62.4712222255" lon="6.65517499038">
		<tag k="name" v="Høghaugen" />
		<tag k="natural" v="hill" />
		<tag k="place" v="locality" />
		<tag k="ssr:stedsnr" v="824407" />
	</node>
	<node id="-52642" lat="62.5353111157" lon="6.74278889632">
		<tag k="name" v="Brenne" />
		<tag k="natural" v="slope" />
		<tag k="place" v="locality" />
		<tag k="ssr:stedsnr" v="824011" />
	</node>
	<node id="-52641" lat="62.492747222" lon="6.57108889355">
		<tag k="name" v="Hønnet" />
		<tag k="natural" v="hill" />
		<tag k="place" v="locality" />
		<tag k="ssr:stedsnr" v="824008" />
	</node>
	<node id="-52639" lat="62.5782611114" lon="6.55012500031">
		<tag k="name" v="Fonnaledet" />
		<tag k="natural" v="slope" />
		<tag k="place" v="locality" />
		<tag k="ssr:stedsnr" v="823864" />
	</node>
	<node id="-50589" lat="62.4600749999" lon="6.1339138798">
		<tag k="name" v="Hessaskaret" />
		<tag k="natural" v="valley" />
		<tag k="place" v="locality" />
		<tag k="ssr:stedsnr" v="281942" />
	</node>
	<node id="-50588" lat="62.4614361134" lon="6.12005556095">
		<tag k="name" v="Kleivane" />
		<tag k="natural" v="hill" />
		<tag k="place" v="locality" />
		<tag k="ssr:stedsnr" v="281708" />
	</node>
	<node id="-52632" lat="62.5462944462" lon="6.51496389469">
		<tag k="name" v="Varghola" />
		<tag k="natural" v="valley" />
		<tag k="place" v="locality" />
		<tag k="ssr:stedsnr" v="823517" />
	</node>
	<node id="-50581" lat="62.4642694418" lon="6.35296666053">
		<tag k="name" v="Aspehaugen" />
		<tag k="natural" v="hill" />
		<tag k="place" v="locality" />
		<tag k="ssr:stedsnr" v="281620" />
	</node>
	<node id="-52627" lat="62.5966277749" lon="6.64124165844">
		<tag k="name" v="Buhaugen" />
		<tag k="natural" v="hill" />
		<tag k="place" v="locality" />
		<tag k="ssr:stedsnr" v="822876" />
	</node>
	<node id="-52626" lat="62.5883249979" lon="6.62891389804">
		<tag k="name" v="Bindarryggen" />
		<tag k="natural" v="ridge" />
		<tag k="place" v="locality" />
		<tag k="ssr:stedsnr" v="822875" />
	</node>
	<node id="-52624" lat="62.5811916641" lon="6.56828611999">
		<tag k="name" v="Fanneskaret" />
		<tag k="natural" v="valley" />
		<tag k="place" v="locality" />
		<tag k="ssr:stedsnr" v="216899" />
	</node>
	<node id="-52622" lat="62.6187722212" lon="6.15343611697">
		<tag k="name" v="Senhaugen" />
		<tag k="natural" v="hill" />
		<tag k="place" v="locality" />
		<tag k="ssr:stedsnr" v="821912" />
	</node>
	<node id="-52621" lat="62.7663277738" lon="6.41891389297">
		<tag k="name" v="Smihaugen" />
		<tag k="natural" v="hill" />
		<tag k="place" v="locality" />
		<tag k="ssr:stedsnr" v="821560" />
	</node>
	<node id="-50571" lat="62.4655444403" lon="6.45020278026">
		<tag k="name" v="Nevregylet" />
		<tag k="natural" v="gorge" />
		<tag k="ssr:stedsnr" v="280618" />
	</node>
	<node id="-50103" lat="62.5924861136" lon="6.69054167501">
		<tag k="fixme" v="consider natural=peak for the most distinct mountains in the district" />
		<tag k="name" v="Kammen" />
		<tag k="natural" v="hill" />
		<tag k="place" v="locality" />
		<tag k="ssr:stedsnr" v="11335" />
	</node>
	<node id="-52617" lat="62.6677888866" lon="6.16346944733">
		<tag k="name" v="Årehaugen" />
		<tag k="natural" v="hill" />
		<tag k="place" v="locality" />
		<tag k="ssr:stedsnr" v="821507" />
	</node>
	<node id="-50567" lat="62.4400277801" lon="6.52287221592">
		<tag k="name" v="Blånibba" />
		<tag k="natural" v="hill" />
		<tag k="place" v="locality" />
		<tag k="ssr:stedsnr" v="280561" />
	</node>
	<node id="-52613" lat="62.7423166657" lon="6.43331111039">
		<tag k="name" v="Ekrehaugen" />
		<tag k="natural" v="hill" />
		<tag k="place" v="locality" />
		<tag k="ssr:stedsnr" v="821325" />
	</node>
	<node id="-50563" lat="62.5015972232" lon="6.24387499435">
		<tag k="fixme" v="consider natural=peak for the most distinct mountains in the district" />
		<tag k="name" v="Nøringen" />
		<tag k="natural" v="hill" />
		<tag k="place" v="locality" />
		<tag k="ssr:stedsnr" v="159958" />
	</node>
	<node id="-52609" lat="62.7450083289" lon="6.4497222214">
		<tag k="name" v="Grødalsaksla" />
		<tag k="place" v="locality" />
		<tag k="ssr:stedsnr" v="821467" />
	</node>
	<node id="-50559" lat="62.488172219" lon="6.43481944683">
		<tag k="fixme" v="consider natural=peak for the most distinct mountains in the district" />
		<tag k="name" v="Hollnakken" />
		<tag k="natural" v="hill" />
		<tag k="place" v="locality" />
		<tag k="ssr:stedsnr" v="159621" />
	</node>
	<node id="-52606" lat="62.6785277808" lon="6.29482221715">
		<tag k="name" v="Tverreidet" />
		<tag k="place" v="locality" />
		<tag k="ssr:stedsnr" v="821415" />
	</node>
	<node id="-52603" lat="62.8198916708" lon="6.59578610848">
		<tag k="name" v="Sjåberget" />
		<tag k="natural" v="hill" />
		<tag k="place" v="locality" />
		<tag k="ssr:stedsnr" v="821070" />
	</node>
	<node id="-52602" lat="62.8173222238" lon="6.59415000634">
		<tag k="name" v="Kolhaugen" />
		<tag k="natural" v="hill" />
		<tag k="place" v="locality" />
		<tag k="ssr:stedsnr" v="821065" />
	</node>
	<node id="-52599" lat="62.8566833347" lon="6.54490832422">
		<tag k="name" v="Kalvvikhaugen" />
		<tag k="natural" v="hill" />
		<tag k="place" v="locality" />
		<tag k="ssr:stedsnr" v="820953" />
	</node>
	<node id="-50550" lat="62.474349996" lon="6.85931388119">
		<tag k="name" v="Brendhaugrørene" />
		<tag k="natural" v="ridge" />
		<tag k="place" v="locality" />
		<tag k="ssr:stedsnr" v="278729" />
	</node>
	<node id="-50549" lat="62.4746694453" lon="6.98117776852">
		<tag k="name" v="Sollikvandalen" />
		<tag k="natural" v="valley" />
		<tag k="place" v="locality" />
		<tag k="ssr:stedsnr" v="278726" />
	</node>
	<node id="-50548" lat="62.4630138921" lon="6.81714723112">
		<tag k="name" v="Høghaugen" />
		<tag k="natural" v="hill" />
		<tag k="place" v="locality" />
		<tag k="ssr:stedsnr" v="278713" />
	</node>
	<node id="-50545" lat="62.4781750006" lon="6.92749166306">
		<tag k="name" v="Røra" />
		<tag k="natural" v="slope" />
		<tag k="place" v="locality" />
		<tag k="ssr:stedsnr" v="278678" />
	</node>
	<node id="-52592" lat="62.4950861149" lon="6.51823334231">
		<tag k="fixme" v="consider natural=peak for the most distinct mountains in the district" />
		<tag k="name" v="Storegga" />
		<tag k="natural" v="hill" />
		<tag k="place" v="locality" />
		<tag k="ssr:stedsnr" v="930333" />
	</node>
	<node id="-52590" lat="62.4618722211" lon="6.45379999163">
		<tag k="fixme" v="consider natural=peak for the most distinct mountains in the district" />
		<tag k="name" v="Spjelkavikfjellet" />
		<tag k="natural" v="hill" />
		<tag k="place" v="locality" />
		<tag k="ssr:stedsnr" v="809348" />
	</node>
	<node id="-50539" lat="62.4546555555" lon="6.87983611505">
		<tag k="name" v="Rimane" />
		<tag k="natural" v="slope" />
		<tag k="place" v="locality" />
		<tag k="ssr:stedsnr" v="278597" />
	</node>
	<node id="-50538" lat="62.5088472212" lon="6.79945276888">
		<tag k="name" v="Gjerdebakkane" />
		<tag k="natural" v="slope" />
		<tag k="place" v="locality" />
		<tag k="ssr:stedsnr" v="278595" />
	</node>
	<node id="-50535" lat="62.4823527785" lon="6.86704167377">
		<tag k="name" v="Pinå" />
		<tag k="natural" v="slope" />
		<tag k="place" v="locality" />
		<tag k="ssr:stedsnr" v="278552" />
	</node>
	<node id="-52581" lat="62.5385499962" lon="6.32293889105">
		<tag k="name" v="Litlehornet" />
		<tag k="natural" v="hill" />
		<tag k="place" v="locality" />
		<tag k="ssr:stedsnr" v="801222" />
	</node>
	<node id="-52580" lat="62.5420388925" lon="6.35944443929">
		<tag k="name" v="Skålbotnen" />
		<tag k="natural" v="valley" />
		<tag k="place" v="locality" />
		<tag k="ssr:stedsnr" v="801219" />
	</node>
	<node id="-50531" lat="62.5159305571" lon="6.65373332352">
		<tag k="name" v="Ringen" />
		<tag k="natural" v="hill" />
		<tag k="place" v="locality" />
		<tag k="ssr:stedsnr" v="278530" />
	</node>
	<node id="-50529" lat="62.5140055557" lon="6.66872222351">
		<tag k="name" v="Rognskaret" />
		<tag k="natural" v="valley" />
		<tag k="place" v="locality" />
		<tag k="ssr:stedsnr" v="278521" />
	</node>
	<node id="-52576" lat="62.521058334" lon="6.83284722806">
		<tag k="name" v="Liasæterkamben" />
		<tag k="natural" v="hill" />
		<tag k="place" v="locality" />
		<tag k="ssr:stedsnr" v="800787" />
	</node>
	<node id="-52575" lat="62.5368527777" lon="6.771036115">
		<tag k="fixme" v="multiple name tags, choose one and add the other to alt_name; consider natural=peak for the most distinct mountains in the district" />
		<tag k="name" v="Engsetfjellet;Fyllingfjellet" />
		<tag k="natural" v="hill" />
		<tag k="place" v="locality" />
		<tag k="ssr:stedsnr" v="800822" />
	</node>
	<node id="-50526" lat="62.4751999999" lon="6.67386667517">
		<tag k="name" v="Bratteberget" />
		<tag k="natural" v="cliff" />
		<tag k="ssr:stedsnr" v="278494" />
	</node>
	<node id="-50525" lat="62.5436027743" lon="6.69113612052">
		<tag k="name" v="Grasdalen" />
		<tag k="natural" v="valley" />
		<tag k="place" v="locality" />
		<tag k="ssr:stedsnr" v="278468" />
	</node>
	<node id="-50521" lat="62.4766722224" lon="6.62074721385">
		<tag k="name" v="Gudmundshamrane" />
		<tag k="natural" v="cliff" />
		<tag k="ssr:stedsnr" v="278451" />
	</node>
	<node id="-50520" lat="62.4586638932" lon="6.60686110499">
		<tag k="name" v="Einhaugen" />
		<tag k="natural" v="hill" />
		<tag k="place" v="locality" />
		<tag k="ssr:stedsnr" v="278428" />
	</node>
	<node id="-52567" lat="62.581072224" lon="6.30203333884">
		<tag k="name" v="Vetesida" />
		<tag k="natural" v="slope" />
		<tag k="place" v="locality" />
		<tag k="ssr:stedsnr" v="800361" />
	</node>
	<node id="-52565" lat="62.4388138932" lon="6.93567777971">
		<tag k="fixme" v="consider natural=peak for the most distinct mountains in the district" />
		<tag k="name" v="Hallvardsfjellet" />
		<tag k="natural" v="hill" />
		<tag k="place" v="locality" />
		<tag k="ssr:stedsnr" v="800356" />
	</node>
	<node id="-50515" lat="62.4897583365" lon="6.61954166879">
		<tag k="name" v="Timbrehaugane" />
		<tag k="natural" v="hill" />
		<tag k="place" v="locality" />
		<tag k="ssr:stedsnr" v="278379" />
	</node>
	<node id="-52561" lat="62.6060249957" lon="6.55179444922">
		<tag k="name" v="Grønhornet" />
		<tag k="natural" v="hill" />
		<tag k="place" v="locality" />
		<tag k="ssr:stedsnr" v="800405" />
	</node>
	<node id="-50512" lat="62.489399999" lon="6.56785833562">
		<tag k="name" v="Bjønnahiet" />
		<tag k="place" v="locality" />
		<tag k="ssr:stedsnr" v="278341" />
	</node>
	<node id="-50511" lat="62.488027782" lon="6.5355972215">
		<tag k="name" v="Olaplassen" />
		<tag k="natural" v="valley" />
		<tag k="place" v="locality" />
		<tag k="ssr:stedsnr" v="278312" />
	</node>
	<node id="-50510" lat="62.4901527755" lon="6.50201111921">
		<tag k="fixme" v="consider natural=peak for the most distinct mountains in the district" />
		<tag k="name" v="Slettbakk-kleiva" />
		<tag k="natural" v="hill" />
		<tag k="place" v="locality" />
		<tag k="ssr:stedsnr" v="278310" />
	</node>
	<node id="-50061" lat="62.4462527806" lon="6.91104999459">
		<tag k="name" v="Øggardsbakkane" />
		<tag k="natural" v="slope" />
		<tag k="place" v="locality" />
		<tag k="ssr:stedsnr" v="217542" />
	</node>
	<node id="-50508" lat="62.4993777791" lon="6.51969722377">
		<tag k="name" v="Høghjellen" />
		<tag k="place" v="locality" />
		<tag k="ssr:stedsnr" v="278304" />
	</node>
	<node id="-50507" lat="62.479172222" lon="6.60536110975">
		<tag k="name" v="Fuglenakkane" />
		<tag k="natural" v="ridge" />
		<tag k="place" v="locality" />
		<tag k="ssr:stedsnr" v="278289" />
	</node>
	<node id="-50505" lat="62.4955222228" lon="6.51065000519">
		<tag k="name" v="Grønhola" />
		<tag k="natural" v="valley" />
		<tag k="place" v="locality" />
		<tag k="ssr:stedsnr" v="278136" />
	</node>
	<node id="-52552" lat="62.5409305543" lon="6.64572777579">
		<tag k="name" v="Kviteberget" />
		<tag k="natural" v="hill" />
		<tag k="place" v="locality" />
		<tag k="ssr:stedsnr" v="800154" />
	</node>
	<node id="-50503" lat="62.5000055549" lon="6.47800832947">
		<tag k="name" v="Rabben" />
		<tag k="natural" v="slope" />
		<tag k="place" v="locality" />
		<tag k="ssr:stedsnr" v="278131" />
	</node>
	<node id="-50501" lat="62.475925" lon="6.59709444738">
		<tag k="name" v="Fugledalen" />
		<tag k="natural" v="valley" />
		<tag k="place" v="locality" />
		<tag k="ssr:stedsnr" v="156227" />
	</node>
	<node id="-52547" lat="62.6699944425" lon="6.27538055856">
		<tag k="name" v="Longvadalen" />
		<tag k="natural" v="valley" />
		<tag k="place" v="locality" />
		<tag k="ssr:stedsnr" v="922999" />
	</node>
	<node id="-52545" lat="62.6054861091" lon="6.73930554609">
		<tag k="fixme" v="consider natural=peak for the most distinct mountains in the district" />
		<tag k="name" v="Blåskjerdingen" />
		<tag k="natural" v="hill" />
		<tag k="place" v="locality" />
		<tag k="ssr:stedsnr" v="922995" />
	</node>
	<node id="-50495" lat="62.500291667" lon="6.53103055498">
		<tag k="name" v="Haugen" />
		<tag k="natural" v="hill" />
		<tag k="place" v="locality" />
		<tag k="ssr:stedsnr" v="278061" />
	</node>
	<node id="-50493" lat="62.4776500003" lon="6.55011110238">
		<tag k="name" v="Rambjøra" />
		<tag k="natural" v="hill" />
		<tag k="place" v="locality" />
		<tag k="ssr:stedsnr" v="278010" />
	</node>
	<node id="-50490" lat="62.4886472223" lon="6.53919999789">
		<tag k="name" v="Nakken" />
		<tag k="natural" v="hill" />
		<tag k="place" v="locality" />
		<tag k="ssr:stedsnr" v="278115" />
	</node>
	<node id="-52537" lat="62.523875001" lon="6.93630277641">
		<tag k="fixme" v="consider natural=peak for the most distinct mountains in the district" />
		<tag k="name" v="Nysæternakken" />
		<tag k="natural" v="hill" />
		<tag k="place" v="locality" />
		<tag k="ssr:stedsnr" v="922789" />
	</node>
	<node id="-50484" lat="62.5592611102" lon="6.53386666948">
		<tag k="name" v="Hjellane" />
		<tag k="place" v="locality" />
		<tag k="ssr:stedsnr" v="277575" />
	</node>
	<node id="-52531" lat="62.6745722214" lon="6.19283888461">
		<tag k="fixme" v="consider natural=peak for the most distinct mountains in the district" />
		<tag k="name" v="Ullahornet" />
		<tag k="natural" v="hill" />
		<tag k="place" v="locality" />
		<tag k="ssr:stedsnr" v="922675" />
	</node>
	<node id="-52530" lat="62.7995502443" lon="6.53100797265">
		<tag k="name" v="Korshaugen" />
		<tag k="natural" v="hill" />
		<tag k="place" v="locality" />
		<tag k="ssr:stedsnr" v="922445" />
	</node>
	<node id="-52529" lat="62.6460333376" lon="6.24199722093">
		<tag k="name" v="Åkreskaret" />
		<tag k="natural" v="valley" />
		<tag k="place" v="locality" />
		<tag k="ssr:stedsnr" v="922444" />
	</node>
	<node id="-52528" lat="62.7972805589" lon="6.49368333868">
		<tag k="name" v="Bollhaugane" />
		<tag k="natural" v="hill" />
		<tag k="place" v="locality" />
		<tag k="ssr:stedsnr" v="922443" />
	</node>
	<node id="-50478" lat="62.6133166623" lon="6.63046666396">
		<tag k="name" v="Ramnereiret" />
		<tag k="natural" v="cliff" />
		<tag k="ssr:stedsnr" v="155030" />
	</node>
	<node id="-50474" lat="62.526316665" lon="6.53291111918">
		<tag k="name" v="Svarthamaren" />
		<tag k="natural" v="cliff" />
		<tag k="ssr:stedsnr" v="155004" />
	</node>
	<node id="-52511" lat="62.5969972228" lon="6.67815000806">
		<tag k="name" v="Gåsdalen" />
		<tag k="natural" v="valley" />
		<tag k="place" v="locality" />
		<tag k="ssr:stedsnr" v="922361" />
	</node>
	<node id="-50461" lat="62.5705388848" lon="6.58617222082">
		<tag k="name" v="Skreden" />
		<tag k="natural" v="valley" />
		<tag k="place" v="locality" />
		<tag k="ssr:stedsnr" v="276850" />
	</node>
	<node id="-50460" lat="62.5714555596" lon="6.5856055544">
		<tag k="name" v="Kilen" />
		<tag k="natural" v="valley" />
		<tag k="place" v="locality" />
		<tag k="ssr:stedsnr" v="276848" />
	</node>
	<node id="-50456" lat="62.5374749986" lon="6.57202222735">
		<tag k="name" v="Skarveberget" />
		<tag k="natural" v="hill" />
		<tag k="place" v="locality" />
		<tag k="ssr:stedsnr" v="276686" />
	</node>
	<node id="-52503" lat="62.5747333305" lon="6.31662777226">
		<tag k="fixme" v="consider natural=peak for the most distinct mountains in the district" />
		<tag k="name" v="Gamlemsveten" />
		<tag k="natural" v="hill" />
		<tag k="place" v="locality" />
		<tag k="ssr:stedsnr" v="922317" />
	</node>
	<node id="-50454" lat="62.5623611084" lon="6.55524721811">
		<tag k="name" v="Skåtesvora" />
		<tag k="natural" v="valley" />
		<tag k="place" v="locality" />
		<tag k="ssr:stedsnr" v="276621" />
	</node>
	<node id="-52500" lat="62.5806972189" lon="6.44768333938">
		<tag k="fixme" v="consider natural=peak for the most distinct mountains in the district" />
		<tag k="name" v="Aksla" />
		<tag k="natural" v="hill" />
		<tag k="place" v="locality" />
		<tag k="ssr:stedsnr" v="922306" />
	</node>
	<node id="-50734" lat="62.513919442" lon="6.81363889455">
		<tag k="name" v="Akslevollbotnen" />
		<tag k="natural" v="valley" />
		<tag k="place" v="locality" />
		<tag k="ssr:stedsnr" v="217509" />
	</node>
	<node id="-52498" lat="62.5812750033" lon="6.5461777744">
		<tag k="name" v="Stigen" />
		<tag k="natural" v="slope" />
		<tag k="place" v="locality" />
		<tag k="ssr:stedsnr" v="922302" />
	</node>
	<node id="-52497" lat="62.5810277781" lon="6.68286387946">
		<tag k="fixme" v="consider natural=peak for the most distinct mountains in the district" />
		<tag k="name" v="Otrefjellet" />
		<tag k="natural" v="hill" />
		<tag k="place" v="locality" />
		<tag k="ssr:stedsnr" v="922298" />
	</node>
	<node id="-52496" lat="62.5790444418" lon="6.68621111416">
		<tag k="name" v="Vasslia" />
		<tag k="natural" v="slope" />
		<tag k="place" v="locality" />
		<tag k="ssr:stedsnr" v="922265" />
	</node>
	<node id="-52495" lat="62.5568555594" lon="6.31407500515">
		<tag k="name" v="Søvikvarden" />
		<tag k="natural" v="hill" />
		<tag k="place" v="locality" />
		<tag k="ssr:stedsnr" v="922258" />
	</node>
	<node id="-52494" lat="62.5638638904" lon="6.50372221629">
		<tag k="name" v="Stølehola" />
		<tag k="natural" v="valley" />
		<tag k="place" v="locality" />
		<tag k="ssr:stedsnr" v="922256" />
	</node>
	<node id="-52491" lat="62.5379499971" lon="6.43553610535">
		<tag k="name" v="Brautene" />
		<tag k="natural" v="slope" />
		<tag k="place" v="locality" />
		<tag k="ssr:stedsnr" v="922198" />
	</node>
	<node id="-50732" lat="62.5132583358" lon="6.68028889508">
		<tag k="name" v="Smaleskaret" />
		<tag k="natural" v="valley" />
		<tag k="place" v="locality" />
		<tag k="ssr:stedsnr" v="217435" />
	</node>
	<node id="-50436" lat="62.6036750046" lon="6.41642778047">
		<tag k="name" v="Sætrehaugen" />
		<tag k="natural" v="hill" />
		<tag k="place" v="locality" />
		<tag k="ssr:stedsnr" v="275930" />
	</node>
	<node id="-52477" lat="62.4753246898" lon="6.16801895929">
		<tag k="fixme" v="consider natural=peak for the most distinct mountains in the district" />
		<tag k="name" v="Aksla" />
		<tag k="natural" v="hill" />
		<tag k="place" v="locality" />
		<tag k="ssr:stedsnr" v="921926" />
	</node>
	<node id="-52473" lat="62.6145277809" lon="6.14756388401">
		<tag k="name" v="Nosa" />
		<tag k="natural" v="hill" />
		<tag k="place" v="locality" />
		<tag k="ssr:stedsnr" v="921724" />
	</node>
	<node id="-52472" lat="62.6699861121" lon="6.3159944369">
		<tag k="name" v="Storgjølet" />
		<tag k="natural" v="valley" />
		<tag k="place" v="locality" />
		<tag k="ssr:stedsnr" v="922979" />
	</node>
	<node id="-52470" lat="62.6543444456" lon="6.23532778267">
		<tag k="name" v="Kannarhaugen" />
		<tag k="natural" v="hill" />
		<tag k="place" v="locality" />
		<tag k="ssr:stedsnr" v="922955" />
	</node>
	<node id="-50421" lat="62.775427779" lon="6.45472776872">
		<tag k="name" v="Stokkhaugen" />
		<tag k="natural" v="hill" />
		<tag k="place" v="locality" />
		<tag k="ssr:stedsnr" v="275193" />
	</node>
	<node id="-50419" lat="62.692683329" lon="6.23591388306">
		<tag k="name" v="Skaberga" />
		<tag k="natural" v="hill" />
		<tag k="place" v="locality" />
		<tag k="ssr:stedsnr" v="275294" />
	</node>
	<node id="-52464" lat="62.6108972186" lon="6.53517222378">
		<tag k="fixme" v="consider natural=peak for the most distinct mountains in the district" />
		<tag k="name" v="Skoranakken" />
		<tag k="natural" v="hill" />
		<tag k="place" v="locality" />
		<tag k="ssr:stedsnr" v="921449" />
	</node>
	<node id="-50415" lat="62.8582916641" lon="6.54495555744">
		<tag k="name" v="Gardshaugen" />
		<tag k="natural" v="hill" />
		<tag k="place" v="locality" />
		<tag k="ssr:stedsnr" v="274942" />
	</node>
	<node id="-50413" lat="62.7578999963" lon="6.39912222428">
		<tag k="name" v="Småsundhaugan" />
		<tag k="natural" v="hill" />
		<tag k="place" v="locality" />
		<tag k="ssr:stedsnr" v="274933" />
	</node>
	<node id="-52460" lat="62.5950111113" lon="6.39302776816">
		<tag k="name" v="Kvitberga" />
		<tag k="natural" v="hill" />
		<tag k="place" v="locality" />
		<tag k="ssr:stedsnr" v="921434" />
	</node>
	<node id="-50411" lat="62.8264499956" lon="6.57921110748">
		<tag k="name" v="Litle Straumsundhaug" />
		<tag k="natural" v="hill" />
		<tag k="place" v="locality" />
		<tag k="ssr:stedsnr" v="274800" />
	</node>
	<node id="-50409" lat="62.7519888927" lon="6.37558888635">
		<tag k="name" v="Inste Moldremmshaugen" />
		<tag k="natural" v="hill" />
		<tag k="place" v="locality" />
		<tag k="ssr:stedsnr" v="274886" />
	</node>
	<node id="-52454" lat="62.5653444474" lon="6.30676667607">
		<tag k="fixme" v="consider natural=peak for the most distinct mountains in the district" />
		<tag k="name" v="Reinhausen" />
		<tag k="natural" v="hill" />
		<tag k="place" v="locality" />
		<tag k="ssr:stedsnr" v="921326" />
	</node>
	<node id="-52452" lat="62.5662916635" lon="6.57751943612">
		<tag k="fixme" v="consider natural=peak for the most distinct mountains in the district" />
		<tag k="name" v="Grøtshornet" />
		<tag k="natural" v="hill" />
		<tag k="place" v="locality" />
		<tag k="ssr:stedsnr" v="921310" />
	</node>
	<node id="-52451" lat="62.574144445" lon="6.50817500417">
		<tag k="fixme" v="consider natural=peak for the most distinct mountains in the district" />
		<tag k="name" v="Tverrheiane" />
		<tag k="natural" v="hill" />
		<tag k="place" v="locality" />
		<tag k="ssr:stedsnr" v="921307" />
	</node>
	<node id="-50402" lat="62.745861108" lon="6.44983056171">
		<tag k="name" v="Kleiva" />
		<tag k="natural" v="slope" />
		<tag k="place" v="locality" />
		<tag k="ssr:stedsnr" v="274443" />
	</node>
	<node id="-50400" lat="62.7442444485" lon="6.42646944411">
		<tag k="name" v="Grinddalshaugen" />
		<tag k="natural" v="hill" />
		<tag k="place" v="locality" />
		<tag k="ssr:stedsnr" v="274145" />
	</node>
	<node id="-50397" lat="62.8191249979" lon="6.59471389033">
		<tag k="name" v="Bekhaugan" />
		<tag k="natural" v="hill" />
		<tag k="place" v="locality" />
		<tag k="ssr:stedsnr" v="274071" />
	</node>
	<node id="-50392" lat="62.5864500005" lon="6.52292221439">
		<tag k="name" v="Sætredalen" />
		<tag k="natural" v="valley" />
		<tag k="place" v="locality" />
		<tag k="ssr:stedsnr" v="133329" />
	</node>
	<node id="-50724" lat="62.4672527823" lon="6.63135000415">
		<tag k="name" v="Svadalen" />
		<tag k="natural" v="valley" />
		<tag k="place" v="locality" />
		<tag k="ssr:stedsnr" v="217118" />
	</node>
	<node id="-50389" lat="62.5810333318" lon="6.36700834075">
		<tag k="name" v="Svarthamaren" />
		<tag k="natural" v="hill" />
		<tag k="place" v="locality" />
		<tag k="ssr:stedsnr" v="133310" />
	</node>
	<node id="-50388" lat="62.5754972237" lon="6.49990554875">
		<tag k="name" v="Ringstadbotnen" />
		<tag k="natural" v="valley" />
		<tag k="place" v="locality" />
		<tag k="ssr:stedsnr" v="133304" />
	</node>
	<node id="-50386" lat="62.6392361109" lon="6.24577223169">
		<tag k="fixme" v="consider natural=peak for the most distinct mountains in the district" />
		<tag k="name" v="Myskjafjellet" />
		<tag k="natural" v="hill" />
		<tag k="place" v="locality" />
		<tag k="ssr:stedsnr" v="133432" />
	</node>
	<node id="-52429" lat="62.5768305525" lon="6.4334361184">
		<tag k="name" v="Austadalen" />
		<tag k="natural" v="valley" />
		<tag k="place" v="locality" />
		<tag k="ssr:stedsnr" v="216878" />
	</node>
	<node id="-50722" lat="62.4781722211" lon="6.54467778207">
		<tag k="name" v="Rambjøra" />
		<tag k="natural" v="cliff" />
		<tag k="ssr:stedsnr" v="217108" />
	</node>
	<node id="-52425" lat="62.4313416647" lon="6.49052777056">
		<tag k="name" v="Akselhaugen" />
		<tag k="natural" v="hill" />
		<tag k="place" v="locality" />
		<tag k="ssr:stedsnr" v="766706" />
	</node>
	<node id="-52423" lat="62.4675055542" lon="6.80539445006">
		<tag k="name" v="Middagshola" />
		<tag k="natural" v="valley" />
		<tag k="place" v="locality" />
		<tag k="ssr:stedsnr" v="763676" />
	</node>
	<node id="-52422" lat="62.4847944464" lon="6.4404888796">
		<tag k="name" v="Demmhaugen" />
		<tag k="natural" v="hill" />
		<tag k="place" v="locality" />
		<tag k="ssr:stedsnr" v="763500" />
	</node>
	<node id="-50721" lat="62.4887249997" lon="6.45277499156">
		<tag k="name" v="Smørdalsrøra" />
		<tag k="natural" v="ridge" />
		<tag k="place" v="locality" />
		<tag k="ssr:stedsnr" v="217040" />
	</node>
	<node id="-50372" lat="62.6056222183" lon="6.42581944132">
		<tag k="name" v="Nesdalen" />
		<tag k="natural" v="valley" />
		<tag k="place" v="locality" />
		<tag k="ssr:stedsnr" v="132413" />
	</node>
	<node id="-50364" lat="62.2825638889" lon="6.74253611771">
		<tag k="fixme" v="multiple name tags, choose one and add the other to alt_name; consider natural=peak for the most distinct mountains in the district" />
		<tag k="name" v="Holetindane;Ytstevasshornet" />
		<tag k="natural" v="hill" />
		<tag k="old_name" v="Ystevasshornet" />
		<tag k="place" v="locality" />
		<tag k="ssr:stedsnr" v="265628" />
	</node>
	<node id="-52409" lat="62.5914388895" lon="6.48626944775">
		<tag k="name" v="Nyfonna" />
		<tag k="natural" v="slope" />
		<tag k="place" v="locality" />
		<tag k="ssr:stedsnr" v="762498" />
	</node>
	<node id="-50351" lat="62.4410944443" lon="6.3895638961">
		<tag k="name" v="Ospadalen" />
		<tag k="natural" v="valley" />
		<tag k="place" v="locality" />
		<tag k="ssr:stedsnr" v="98563" />
	</node>
	<node id="-50717" lat="62.5998472204" lon="6.64144167078">
		<tag k="name" v="Gåshamaren" />
		<tag k="natural" v="cliff" />
		<tag k="ssr:stedsnr" v="216843" />
	</node>
	<node id="-50348" lat="62.4722194402" lon="6.49208054708">
		<tag k="name" v="Vasstrandlia" />
		<tag k="natural" v="slope" />
		<tag k="place" v="locality" />
		<tag k="ssr:stedsnr" v="98553" />
	</node>
	<node id="-50347" lat="62.437013889" lon="6.49973055862">
		<tag k="name" v="Skallehammaren" />
		<tag k="natural" v="cliff" />
		<tag k="ssr:stedsnr" v="98611" />
	</node>
	<node id="-50346" lat="62.435933337" lon="6.50776667382">
		<tag k="name" v="Magerholmdalen" />
		<tag k="natural" v="valley" />
		<tag k="place" v="locality" />
		<tag k="ssr:stedsnr" v="98610" />
	</node>
	<node id="-50342" lat="62.4745388912" lon="6.81203888564">
		<tag k="name" v="Kråa" />
		<tag k="natural" v="valley" />
		<tag k="place" v="locality" />
		<tag k="ssr:stedsnr" v="96657" />
	</node>
	<node id="-52389" lat="62.7649777756" lon="6.43479444307">
		<tag k="name" v="Langremhaugen" />
		<tag k="natural" v="hill" />
		<tag k="place" v="locality" />
		<tag k="ssr:stedsnr" v="760864" />
	</node>
	<node id="-52386" lat="62.6679750033" lon="6.16791945299">
		<tag k="name" v="Stavnesryggen" />
		<tag k="natural" v="ridge" />
		<tag k="place" v="locality" />
		<tag k="ssr:stedsnr" v="760510" />
	</node>
	<node id="-50337" lat="62.4936666634" lon="6.83430555223">
		<tag k="name" v="Nedstestigane" />
		<tag k="natural" v="valley" />
		<tag k="place" v="locality" />
		<tag k="ssr:stedsnr" v="96563" />
	</node>
	<node id="-50336" lat="62.4691250025" lon="6.92423334219">
		<tag k="name" v="Skinnakken" />
		<tag k="natural" v="hill" />
		<tag k="place" v="locality" />
		<tag k="ssr:stedsnr" v="96557" />
	</node>
	<node id="-52383" lat="62.7441805592" lon="6.45340832846">
		<tag k="name" v="Buskedalen" />
		<tag k="natural" v="valley" />
		<tag k="place" v="locality" />
		<tag k="ssr:stedsnr" v="760468" />
	</node>
	<node id="-52373" lat="62.5440194442" lon="6.65629999585">
		<tag k="name" v="Kleiva" />
		<tag k="natural" v="valley" />
		<tag k="place" v="locality" />
		<tag k="ssr:stedsnr" v="216688" />
	</node>
	<node id="-52372" lat="62.5423833362" lon="6.64239166504">
		<tag k="name" v="Ospanakken" />
		<tag k="natural" v="hill" />
		<tag k="place" v="locality" />
		<tag k="ssr:stedsnr" v="216676" />
	</node>
	<node id="-50323" lat="62.4874527758" lon="6.44722500631">
		<tag k="name" v="Gråsteinen" />
		<tag k="natural" v="hill" />
		<tag k="place" v="locality" />
		<tag k="ssr:stedsnr" v="96362" />
	</node>
	<node id="-50320" lat="62.5068888925" lon="6.70757499091">
		<tag k="name" v="Nakken" />
		<tag k="natural" v="hill" />
		<tag k="place" v="locality" />
		<tag k="ssr:stedsnr" v="96069" />
	</node>
	<node id="-50319" lat="62.4951666675" lon="6.48773055236">
		<tag k="name" v="Gamlesæterhola" />
		<tag k="natural" v="valley" />
		<tag k="place" v="locality" />
		<tag k="ssr:stedsnr" v="96305" />
	</node>
	<node id="-50318" lat="62.4929500034" lon="6.46546388113">
		<tag k="name" v="Skaret" />
		<tag k="natural" v="valley" />
		<tag k="place" v="locality" />
		<tag k="ssr:stedsnr" v="96123" />
	</node>
	<node id="-51697" lat="62.8601972218" lon="6.53842499373">
		<tag k="name" v="Haugen" />
		<tag k="natural" v="hill" />
		<tag k="place" v="locality" />
		<tag k="ssr:stedsnr" v="699299" />
	</node>
	<node id="-52362" lat="62.5586472253" lon="6.75712500518">
		<tag k="fixme" v="consider natural=peak for the most distinct mountains in the district" />
		<tag k="name" v="Høgsalen" />
		<tag k="natural" v="hill" />
		<tag k="place" v="locality" />
		<tag k="ssr:stedsnr" v="740866" />
	</node>
	<node id="-52361" lat="62.5623749967" lon="6.77793888059">
		<tag k="name" v="Vatneskåla" />
		<tag k="natural" v="valley" />
		<tag k="place" v="locality" />
		<tag k="ssr:stedsnr" v="740861" />
	</node>
	<node id="-50312" lat="62.581830554" lon="6.47677221812">
		<tag k="name" v="Nyløypa" />
		<tag k="natural" v="slope" />
		<tag k="place" v="locality" />
		<tag k="ssr:stedsnr" v="95902" />
	</node>
	<node id="-52357" lat="62.5844000029" lon="6.53555833232">
		<tag k="name" v="Øygardsdekta" />
		<tag k="natural" v="valley" />
		<tag k="place" v="locality" />
		<tag k="ssr:stedsnr" v="740323" />
	</node>
	<node id="-50307" lat="62.6042111136" lon="6.43413333893">
		<tag k="name" v="Lynghammaren" />
		<tag k="place" v="locality" />
		<tag k="ssr:stedsnr" v="95471" />
	</node>
	<node id="-50306" lat="62.5658805593" lon="6.75405278243">
		<tag k="name" v="Hundålia" />
		<tag k="natural" v="slope" />
		<tag k="place" v="locality" />
		<tag k="ssr:stedsnr" v="95607" />
	</node>
	<node id="-50298" lat="62.5855333326" lon="6.76888611738">
		<tag k="name" v="Skjerdingreset" />
		<tag k="natural" v="valley" />
		<tag k="place" v="locality" />
		<tag k="ssr:stedsnr" v="254961" />
	</node>
	<node id="-52341" lat="62.6137861108" lon="6.64356110436">
		<tag k="name" v="Langsetskaret" />
		<tag k="natural" v="valley" />
		<tag k="place" v="locality" />
		<tag k="ssr:stedsnr" v="739409" />
	</node>
	<node id="-52338" lat="62.5688166687" lon="6.43548611022">
		<tag k="name" v="Håvikskaret" />
		<tag k="natural" v="valley" />
		<tag k="place" v="locality" />
		<tag k="ssr:stedsnr" v="739289" />
	</node>
	<node id="-50912" lat="62.6083305582" lon="6.62304722691">
		<tag k="name" v="Leitetuva" />
		<tag k="natural" v="hill" />
		<tag k="place" v="locality" />
		<tag k="ssr:stedsnr" v="458875" />
	</node>
	<node id="-52336" lat="62.5657222265" lon="6.37418333569">
		<tag k="fixme" v="consider natural=peak for the most distinct mountains in the district" />
		<tag k="name" v="Kniven" />
		<tag k="natural" v="hill" />
		<tag k="place" v="locality" />
		<tag k="ssr:stedsnr" v="739286" />
	</node>
	<node id="-52335" lat="62.4962305557" lon="6.8472888794">
		<tag k="name" v="Verahornet" />
		<tag k="natural" v="hill" />
		<tag k="old_name" v="Værhornet" />
		<tag k="place" v="locality" />
		<tag k="ssr:stedsnr" v="739278" />
	</node>
	<node id="-52333" lat="62.5706833302" lon="6.63829167399">
		<tag k="fixme" v="consider natural=peak for the most distinct mountains in the district" />
		<tag k="name" v="Ulvestadheia" />
		<tag k="natural" v="hill" />
		<tag k="place" v="locality" />
		<tag k="ssr:stedsnr" v="739273" />
	</node>
	<node id="-52332" lat="62.5752444461" lon="6.69918055386">
		<tag k="name" v="Kjerringholen" />
		<tag k="natural" v="hill" />
		<tag k="place" v="locality" />
		<tag k="ssr:stedsnr" v="739272" />
	</node>
	<node id="-51047" lat="62.4616972216" lon="6.88108332524">
		<tag k="name" v="Briseberget" />
		<tag k="natural" v="hill" />
		<tag k="place" v="locality" />
		<tag k="ssr:stedsnr" v="460728" />
	</node>
	<node id="-50280" lat="62.6163083326" lon="6.54938610402">
		<tag k="fixme" v="consider natural=peak for the most distinct mountains in the district" />
		<tag k="name" v="Skorahornet" />
		<tag k="natural" v="hill" />
		<tag k="place" v="locality" />
		<tag k="ssr:stedsnr" v="254409" />
	</node>
	<node id="-50278" lat="62.5889611137" lon="6.49197499875">
		<tag k="name" v="Klungerdalen" />
		<tag k="natural" v="valley" />
		<tag k="place" v="locality" />
		<tag k="ssr:stedsnr" v="254346" />
	</node>
	<node id="-50276" lat="62.5942833367" lon="6.52458888561">
		<tag k="fixme" v="consider natural=peak for the most distinct mountains in the district" />
		<tag k="name" v="Keipen" />
		<tag k="natural" v="hill" />
		<tag k="place" v="locality" />
		<tag k="ssr:stedsnr" v="254328" />
	</node>
	<node id="-51046" lat="62.4638361136" lon="6.78413610471">
		<tag k="name" v="Kyrkjebakkane" />
		<tag k="natural" v="slope" />
		<tag k="place" v="locality" />
		<tag k="ssr:stedsnr" v="460721" />
	</node>
	<node id="-50272" lat="62.5543083343" lon="6.42498333453">
		<tag k="name" v="Samhjartet" />
		<tag k="natural" v="slope" />
		<tag k="place" v="locality" />
		<tag k="ssr:stedsnr" v="254249" />
	</node>
	<node id="-50266" lat="62.4234999999" lon="7.09433333001">
		<tag k="name" v="Isbotnen" />
		<tag k="natural" v="valley" />
		<tag k="old_name" v="Isbotn" />
		<tag k="place" v="locality" />
		<tag k="ssr:stedsnr" v="253682" />
	</node>
	<node id="-50265" lat="62.4651944418" lon="6.95160556393">
		<tag k="alt_name" v="Mysenykjen;Mosenyken" />
		<tag k="name" v="Mysenyken" />
		<tag k="natural" v="hill" />
		<tag k="old_name" v="Møsenykjen" />
		<tag k="place" v="locality" />
		<tag k="ssr:stedsnr" v="253407" />
	</node>
	<node id="-50264" lat="62.4739277746" lon="6.95135556226">
		<tag k="fixme" v="consider natural=peak for the most distinct mountains in the district" />
		<tag k="name" v="Vestrefjellet" />
		<tag k="natural" v="hill" />
		<tag k="place" v="locality" />
		<tag k="ssr:stedsnr" v="253398" />
	</node>
	<node id="-50262" lat="62.4863833365" lon="6.97967222909">
		<tag k="fixme" v="consider natural=peak for the most distinct mountains in the district" />
		<tag k="name" v="Geitenibba" />
		<tag k="natural" v="hill" />
		<tag k="place" v="locality" />
		<tag k="ssr:stedsnr" v="253362" />
	</node>
	<node id="-52309" lat="62.5150777762" lon="6.29381944655">
		<tag k="name" v="Leitet" />
		<tag k="natural" v="valley" />
		<tag k="place" v="locality" />
		<tag k="ssr:stedsnr" v="718356" />
	</node>
	<node id="-52308" lat="62.4671916686" lon="6.86440277303">
		<tag k="name" v="Jarskarhaugen" />
		<tag k="natural" v="hill" />
		<tag k="place" v="locality" />
		<tag k="ssr:stedsnr" v="703646" />
	</node>
	<node id="-50259" lat="62.4961222206" lon="6.94991111425">
		<tag k="fixme" v="consider natural=peak for the most distinct mountains in the district" />
		<tag k="name" v="Koldafjellet" />
		<tag k="natural" v="hill" />
		<tag k="place" v="locality" />
		<tag k="ssr:stedsnr" v="253335" />
	</node>
	<node id="-52306" lat="62.4413583302" lon="6.96170278621">
		<tag k="name" v="Skålbotnen" />
		<tag k="natural" v="valley" />
		<tag k="place" v="locality" />
		<tag k="ssr:stedsnr" v="703627" />
	</node>
	<node id="-52305" lat="62.5054944415" lon="6.81254444211">
		<tag k="name" v="Geilhaugen" />
		<tag k="natural" v="hill" />
		<tag k="place" v="locality" />
		<tag k="ssr:stedsnr" v="703625" />
	</node>
	<node id="-52303" lat="62.462355555" lon="6.89043611072">
		<tag k="name" v="Ormhaugen" />
		<tag k="natural" v="hill" />
		<tag k="place" v="locality" />
		<tag k="ssr:stedsnr" v="703532" />
	</node>
	<node id="-52300" lat="62.5199638876" lon="6.55271388223">
		<tag k="name" v="Haugane" />
		<tag k="natural" v="hill" />
		<tag k="place" v="locality" />
		<tag k="ssr:stedsnr" v="702316" />
	</node>
	<node id="-52298" lat="62.4942861116" lon="6.5638555537">
		<tag k="name" v="Lillenakken" />
		<tag k="natural" v="hill" />
		<tag k="place" v="locality" />
		<tag k="ssr:stedsnr" v="702307" />
	</node>
	<node id="-52296" lat="62.6080055521" lon="6.62130833053">
		<tag k="name" v="Kattahamaren" />
		<tag k="natural" v="hill" />
		<tag k="place" v="locality" />
		<tag k="ssr:stedsnr" v="701856" />
	</node>
	<node id="-52295" lat="62.608363891" lon="6.63888056341">
		<tag k="name" v="Skotsnakken" />
		<tag k="place" v="locality" />
		<tag k="ssr:stedsnr" v="701853" />
	</node>
	<node id="-52294" lat="62.5697888908" lon="6.59218888027">
		<tag k="name" v="Røvarhellaren" />
		<tag k="place" v="locality" />
		<tag k="ssr:stedsnr" v="701829" />
	</node>
	<node id="-51041" lat="62.4775555528" lon="6.81312499733">
		<tag k="name" v="Presteøyrane" />
		<tag k="place" v="locality" />
		<tag k="ssr:stedsnr" v="460680" />
	</node>
	<node id="-50244" lat="62.5097982644" lon="6.97723174255">
		<tag k="alt_name" v="Kvanndalsaksla" />
		<tag k="fixme" v="consider natural=peak for the most distinct mountains in the district" />
		<tag k="name" v="Benkene" />
		<tag k="natural" v="hill" />
		<tag k="place" v="locality" />
		<tag k="ssr:stedsnr" v="72841" />
	</node>
	<node id="-52291" lat="62.5412694486" lon="6.67165277748">
		<tag k="name" v="Lilleberget" />
		<tag k="natural" v="hill" />
		<tag k="place" v="locality" />
		<tag k="ssr:stedsnr" v="701754" />
	</node>
	<node id="-52290" lat="62.558519445" lon="6.63273610994">
		<tag k="name" v="Rustene" />
		<tag k="natural" v="slope" />
		<tag k="place" v="locality" />
		<tag k="ssr:stedsnr" v="701625" />
	</node>
	<node id="-50241" lat="62.5028083314" lon="6.75653888638">
		<tag k="name" v="Furlirørene" />
		<tag k="natural" v="hill" />
		<tag k="place" v="locality" />
		<tag k="ssr:stedsnr" v="72835" />
	</node>
	<node id="-52287" lat="62.5482583372" lon="6.32225555323">
		<tag k="name" v="Søvikdalen" />
		<tag k="natural" v="valley" />
		<tag k="place" v="locality" />
		<tag k="ssr:stedsnr" v="701603" />
	</node>
	<node id="-50237" lat="62.5442472206" lon="6.902980546">
		<tag k="fixme" v="consider natural=peak for the most distinct mountains in the district" />
		<tag k="name" v="Kjølen" />
		<tag k="natural" v="hill" />
		<tag k="place" v="locality" />
		<tag k="ssr:stedsnr" v="72815" />
	</node>
	<node id="-52282" lat="62.6149611154" lon="6.66750833467">
		<tag k="name" v="Storsteinrima" />
		<tag k="natural" v="ridge" />
		<tag k="place" v="locality" />
		<tag k="ssr:stedsnr" v="701006" />
	</node>
	<node id="-52281" lat="62.6156222189" lon="6.62394722299">
		<tag k="name" v="Morteberget" />
		<tag k="natural" v="hill" />
		<tag k="place" v="locality" />
		<tag k="ssr:stedsnr" v="701218" />
	</node>
	<node id="-50229" lat="62.5862555544" lon="6.35107776973">
		<tag k="name" v="Hildredalen" />
		<tag k="natural" v="valley" />
		<tag k="place" v="locality" />
		<tag k="ssr:stedsnr" v="72344" />
	</node>
	<node id="-50228" lat="62.5855083345" lon="6.44698054952">
		<tag k="name" v="Vågshaugen" />
		<tag k="natural" v="hill" />
		<tag k="place" v="locality" />
		<tag k="ssr:stedsnr" v="72340" />
	</node>
	<node id="-52273" lat="62.7383777815" lon="6.44611389343">
		<tag k="name" v="Hyrvedalen" />
		<tag k="natural" v="valley" />
		<tag k="place" v="locality" />
		<tag k="ssr:stedsnr" v="699720" />
	</node>
	<node id="-52271" lat="62.8016472215" lon="6.49914721295">
		<tag k="name" v="Smådrågan" />
		<tag k="natural" v="valley" />
		<tag k="place" v="locality" />
		<tag k="ssr:stedsnr" v="699408" />
	</node>
	<node id="-50221" lat="62.5784027748" lon="6.48764443816">
		<tag k="fixme" v="consider natural=peak for the most distinct mountains in the district" />
		<tag k="name" v="Borgetinden" />
		<tag k="natural" v="hill" />
		<tag k="place" v="locality" />
		<tag k="ssr:stedsnr" v="72314" />
	</node>
	<node id="-50219" lat="62.5771972213" lon="6.57811665886">
		<tag k="name" v="Botnen" />
		<tag k="natural" v="valley" />
		<tag k="place" v="locality" />
		<tag k="ssr:stedsnr" v="72311" />
	</node>
	<node id="-52264" lat="62.5380527763" lon="6.80312223163">
		<tag k="name" v="Leikvollsrørene" />
		<tag k="natural" v="ridge" />
		<tag k="place" v="locality" />
		<tag k="ssr:stedsnr" v="694315" />
	</node>
	<node id="-50212" lat="62.4289500022" lon="7.11475276968">
		<tag k="name" v="Tverrbotnsegga" />
		<tag k="natural" v="ridge" />
		<tag k="old_name" v="Tverrbottsegga" />
		<tag k="place" v="locality" />
		<tag k="ssr:stedsnr" v="71706" />
	</node>
	<node id="-50210" lat="62.4847444464" lon="6.91893889331">
		<tag k="name" v="Småbotnane" />
		<tag k="natural" v="valley" />
		<tag k="place" v="locality" />
		<tag k="ssr:stedsnr" v="71343" />
	</node>
	<node id="-50209" lat="62.4908166686" lon="7.00773333057">
		<tag k="fixme" v="consider natural=peak for the most distinct mountains in the district" />
		<tag k="name" v="Høgsvora" />
		<tag k="natural" v="hill" />
		<tag k="place" v="locality" />
		<tag k="ssr:stedsnr" v="71337" />
	</node>
	<node id="-50208" lat="62.4916083323" lon="6.88631389569">
		<tag k="alt_name" v="Giskemodalen" />
		<tag k="name" v="Landedalen" />
		<tag k="natural" v="valley" />
		<tag k="place" v="locality" />
		<tag k="ssr:stedsnr" v="71317" />
	</node>
	<node id="-52255" lat="62.4716111079" lon="6.24596667579">
		<tag k="fixme" v="consider natural=peak for the most distinct mountains in the district" />
		<tag k="name" v="Fredsberg" />
		<tag k="natural" v="hill" />
		<tag k="place" v="locality" />
		<tag k="ssr:stedsnr" v="887681" />
	</node>
	<node id="-50447" lat="62.6772000036" lon="6.26815277222">
		<tag k="name" v="Raudehamaren" />
		<tag k="natural" v="cliff" />
		<tag k="ssr:stedsnr" v="153438" />
	</node>
	<node id="-52247" lat="62.4643361123" lon="6.28830833754">
		<tag k="alt_name" v="Hatleåsen" />
		<tag k="fixme" v="consider natural=peak for the most distinct mountains in the district" />
		<tag k="name" v="Hatlaåsen" />
		<tag k="natural" v="hill" />
		<tag k="place" v="locality" />
		<tag k="ssr:stedsnr" v="887591" />
	</node>
	<node id="-52243" lat="62.4505861152" lon="6.35727776919">
		<tag k="name" v="Skothaugen" />
		<tag k="natural" v="hill" />
		<tag k="place" v="locality" />
		<tag k="ssr:stedsnr" v="887582" />
	</node>
	<node id="-50349" lat="62.4988944444" lon="6.30044722463">
		<tag k="fixme" v="consider natural=peak for the most distinct mountains in the district" />
		<tag k="name" v="Storfarhaugen" />
		<tag k="natural" v="hill" />
		<tag k="place" v="locality" />
		<tag k="ssr:stedsnr" v="98557" />
	</node>
	<node id="-50690" lat="62.7442611137" lon="6.46274165807">
		<tag k="name" v="Orevollen" />
		<tag k="place" v="locality" />
		<tag k="ssr:stedsnr" v="214446" />
	</node>
	<node id="-52234" lat="62.4501055572" lon="6.93232222288">
		<tag k="name" v="Stornakken" />
		<tag k="natural" v="ridge" />
		<tag k="place" v="locality" />
		<tag k="ssr:stedsnr" v="885601" />
	</node>
	<node id="-51031" lat="62.501780554" lon="6.84444721432">
		<tag k="name" v="Heimsteskaret" />
		<tag k="natural" v="valley" />
		<tag k="place" v="locality" />
		<tag k="ssr:stedsnr" v="460616" />
	</node>
	<node id="-52232" lat="62.4692944442" lon="6.84168055506">
		<tag k="name" v="Vallbørørene" />
		<tag k="natural" v="ridge" />
		<tag k="place" v="locality" />
		<tag k="ssr:stedsnr" v="885595" />
	</node>
	<node id="-52229" lat="62.4630527759" lon="6.83408888129">
		<tag k="name" v="Geilhaugen" />
		<tag k="natural" v="hill" />
		<tag k="place" v="locality" />
		<tag k="ssr:stedsnr" v="885590" />
	</node>
	<node id="-52228" lat="62.4783416665" lon="6.83990834106">
		<tag k="name" v="Haukåshaugen" />
		<tag k="natural" v="hill" />
		<tag k="place" v="locality" />
		<tag k="ssr:stedsnr" v="885578" />
	</node>
	<node id="-52227" lat="62.4594944473" lon="6.8288583384">
		<tag k="name" v="Skjerhaugane" />
		<tag k="natural" v="hill" />
		<tag k="place" v="locality" />
		<tag k="ssr:stedsnr" v="885495" />
	</node>
	<node id="-52226" lat="62.5122388866" lon="6.61671944159">
		<tag k="name" v="Storløypa" />
		<tag k="natural" v="ridge" />
		<tag k="place" v="locality" />
		<tag k="ssr:stedsnr" v="885494" />
	</node>
	<node id="-52224" lat="62.5124027782" lon="6.6349027829">
		<tag k="name" v="Osphjellen" />
		<tag k="place" v="locality" />
		<tag k="ssr:stedsnr" v="885480" />
	</node>
	<node id="-52222" lat="62.4682611155" lon="6.64045555894">
		<tag k="name" v="Matkisthola" />
		<tag k="place" v="locality" />
		<tag k="ssr:stedsnr" v="885401" />
	</node>
	<node id="-52221" lat="62.4704388931" lon="6.6355249965">
		<tag k="name" v="Ospahaugbakken" />
		<tag k="natural" v="slope" />
		<tag k="place" v="locality" />
		<tag k="ssr:stedsnr" v="885400" />
	</node>
	<node id="-52220" lat="62.4998972189" lon="6.7712750038">
		<tag k="name" v="Solnørdalslia" />
		<tag k="natural" v="slope" />
		<tag k="place" v="locality" />
		<tag k="ssr:stedsnr" v="885648" />
	</node>
	<node id="-52219" lat="62.4863444446" lon="6.79285833741">
		<tag k="fixme" v="consider natural=peak for the most distinct mountains in the district" />
		<tag k="name" v="Nedsteaksla" />
		<tag k="natural" v="hill" />
		<tag k="place" v="locality" />
		<tag k="ssr:stedsnr" v="885638" />
	</node>
	<node id="-52218" lat="62.5077777792" lon="6.91256944759">
		<tag k="name" v="Dalehøgdene" />
		<tag k="natural" v="slope" />
		<tag k="place" v="locality" />
		<tag k="ssr:stedsnr" v="885552" />
	</node>
	<node id="-52217" lat="62.4910583328" lon="6.86648332889">
		<tag k="name" v="Haugane" />
		<tag k="natural" v="hill" />
		<tag k="place" v="locality" />
		<tag k="ssr:stedsnr" v="885549" />
	</node>
	<node id="-52216" lat="62.5205305519" lon="6.89859445305">
		<tag k="name" v="Kopen" />
		<tag k="natural" v="valley" />
		<tag k="place" v="locality" />
		<tag k="ssr:stedsnr" v="885524" />
	</node>
	<node id="-52213" lat="62.4849166628" lon="6.53030000929">
		<tag k="name" v="Elvadalen" />
		<tag k="natural" v="valley" />
		<tag k="place" v="locality" />
		<tag k="ssr:stedsnr" v="885435" />
	</node>
	<node id="-52211" lat="62.4852444413" lon="6.57435832728">
		<tag k="name" v="Brøthaugane" />
		<tag k="natural" v="hill" />
		<tag k="place" v="locality" />
		<tag k="ssr:stedsnr" v="885341" />
	</node>
	<node id="-52210" lat="62.4949833292" lon="6.60545000354">
		<tag k="name" v="Ramnhammaren" />
		<tag k="natural" v="cliff" />
		<tag k="ssr:stedsnr" v="885336" />
	</node>
	<node id="-52208" lat="62.4448083314" lon="6.55529166877">
		<tag k="name" v="Hessebergdalen" />
		<tag k="natural" v="valley" />
		<tag k="place" v="locality" />
		<tag k="ssr:stedsnr" v="885393" />
	</node>
	<node id="-52207" lat="62.4519861145" lon="6.59029444587">
		<tag k="name" v="Lillehalsen" />
		<tag k="natural" v="ridge" />
		<tag k="place" v="locality" />
		<tag k="ssr:stedsnr" v="885385" />
	</node>
	<node id="-52204" lat="62.4825999979" lon="6.53355556239">
		<tag k="name" v="Vasshaugane" />
		<tag k="natural" v="hill" />
		<tag k="place" v="locality" />
		<tag k="ssr:stedsnr" v="885281" />
	</node>
	<node id="-51026" lat="62.4751888867" lon="6.9175805502">
		<tag k="name" v="Småbotnen" />
		<tag k="natural" v="valley" />
		<tag k="place" v="locality" />
		<tag k="ssr:stedsnr" v="460595" />
	</node>
	<node id="-50154" lat="62.7390027784" lon="6.44913610225">
		<tag k="name" v="Store Harøyburet" />
		<tag k="natural" v="hill" />
		<tag k="place" v="locality" />
		<tag k="ssr:stedsnr" v="232801" />
	</node>
	<node id="-52201" lat="62.4864916681" lon="6.51910000732">
		<tag k="name" v="Dalane" />
		<tag k="natural" v="valley" />
		<tag k="place" v="locality" />
		<tag k="ssr:stedsnr" v="885094" />
	</node>
	<node id="-50152" lat="62.4632666624" lon="6.44416944308">
		<tag k="fixme" v="consider natural=peak for the most distinct mountains in the district" />
		<tag k="name" v="Geitnosa" />
		<tag k="natural" v="hill" />
		<tag k="place" v="locality" />
		<tag k="ssr:stedsnr" v="38972" />
	</node>
	<node id="-52199" lat="62.5053666624" lon="6.63708333793">
		<tag k="name" v="Grindvikbakkane" />
		<tag k="natural" v="slope" />
		<tag k="place" v="locality" />
		<tag k="ssr:stedsnr" v="885036" />
	</node>
	<node id="-50150" lat="62.4596527814" lon="6.40638888743">
		<tag k="name" v="Myrdalen" />
		<tag k="natural" v="valley" />
		<tag k="place" v="locality" />
		<tag k="ssr:stedsnr" v="38968" />
	</node>
	<node id="-50149" lat="62.4904138908" lon="6.42756943467">
		<tag k="name" v="Lia" />
		<tag k="natural" v="slope" />
		<tag k="place" v="locality" />
		<tag k="ssr:stedsnr" v="38966" />
	</node>
	<node id="-52196" lat="62.4947861153" lon="6.53820833287">
		<tag k="name" v="Bruna" />
		<tag k="natural" v="ridge" />
		<tag k="place" v="locality" />
		<tag k="ssr:stedsnr" v="885082" />
	</node>
	<node id="-50145" lat="62.447955558" lon="6.3669694476">
		<tag k="name" v="Nordre Nakken" />
		<tag k="natural" v="ridge" />
		<tag k="place" v="locality" />
		<tag k="ssr:stedsnr" v="38701" />
	</node>
	<node id="-52190" lat="62.5692722184" lon="6.53741111324">
		<tag k="name" v="Smørøskja" />
		<tag k="natural" v="hill" />
		<tag k="place" v="locality" />
		<tag k="ssr:stedsnr" v="884994" />
	</node>
	<node id="-50341" lat="62.4882233839" lon="6.86512956856">
		<tag k="name" v="Tottagrova" />
		<tag k="place" v="locality" />
		<tag k="ssr:stedsnr" v="96654" />
	</node>
	<node id="-52187" lat="62.5737750038" lon="6.7773472201">
		<tag k="name" v="Godmorhola" />
		<tag k="place" v="locality" />
		<tag k="ssr:stedsnr" v="884695" />
	</node>
	<node id="-52185" lat="62.5527999992" lon="6.52346110716">
		<tag k="name" v="Steinvegteigane" />
		<tag k="natural" v="slope" />
		<tag k="place" v="locality" />
		<tag k="ssr:stedsnr" v="884532" />
	</node>
	<node id="-50136" lat="62.4829305598" lon="6.6172944527">
		<tag k="name" v="Høgfjellet" />
		<tag k="natural" v="hill" />
		<tag k="place" v="locality" />
		<tag k="ssr:stedsnr" v="35424" />
	</node>
	<node id="-52183" lat="62.6268138919" lon="6.6073444489">
		<tag k="name" v="Rusta" />
		<tag k="natural" v="slope" />
		<tag k="place" v="locality" />
		<tag k="ssr:stedsnr" v="884348" />
	</node>
	<node id="-50134" lat="62.4875083329" lon="6.61544443639">
		<tag k="name" v="Gamlehjellen" />
		<tag k="place" v="locality" />
		<tag k="ssr:stedsnr" v="35415" />
	</node>
	<node id="-52180" lat="62.6222500012" lon="6.59720554926">
		<tag k="name" v="Kuberget" />
		<tag k="natural" v="hill" />
		<tag k="place" v="locality" />
		<tag k="ssr:stedsnr" v="884339" />
	</node>
	<node id="-50131" lat="62.4821111136" lon="6.58081667449">
		<tag k="name" v="Ørnakkskaret" />
		<tag k="natural" v="valley" />
		<tag k="place" v="locality" />
		<tag k="ssr:stedsnr" v="35401" />
	</node>
	<node id="-52173" lat="62.5853666681" lon="6.31801388318">
		<tag k="name" v="Hornvasslia" />
		<tag k="natural" v="slope" />
		<tag k="place" v="locality" />
		<tag k="ssr:stedsnr" v="883983" />
	</node>
	<node id="-50338" lat="62.5199638921" lon="6.93230277246">
		<tag k="name" v="Nysæterlia" />
		<tag k="natural" v="slope" />
		<tag k="place" v="locality" />
		<tag k="ssr:stedsnr" v="96572" />
	</node>
	<node id="-51020" lat="62.4667722244" lon="6.80615555908">
		<tag k="name" v="Middagsfjellet" />
		<tag k="natural" v="hill" />
		<tag k="place" v="locality" />
		<tag k="ssr:stedsnr" v="460543" />
	</node>
	<node id="-52166" lat="62.5557083346" lon="6.55670833864">
		<tag k="name" v="Ramsegrø" />
		<tag k="natural" v="slope" />
		<tag k="place" v="locality" />
		<tag k="ssr:stedsnr" v="883630" />
	</node>
	<node id="-52165" lat="62.5556555525" lon="6.56168610417">
		<tag k="name" v="Tåferhaugen" />
		<tag k="natural" v="hill" />
		<tag k="place" v="locality" />
		<tag k="ssr:stedsnr" v="883629" />
	</node>
	<node id="-52164" lat="62.5513222237" lon="6.56365277945">
		<tag k="name" v="Løkhaugen" />
		<tag k="natural" v="hill" />
		<tag k="place" v="locality" />
		<tag k="ssr:stedsnr" v="883616" />
	</node>
	<node id="-52160" lat="62.5966555513" lon="6.32663888729">
		<tag k="name" v="Ormehaugane" />
		<tag k="natural" v="hill" />
		<tag k="place" v="locality" />
		<tag k="ssr:stedsnr" v="883334" />
	</node>
	<node id="-52159" lat="62.5684416709" lon="6.36745833147">
		<tag k="name" v="Grytakoppen" />
		<tag k="natural" v="valley" />
		<tag k="place" v="locality" />
		<tag k="ssr:stedsnr" v="883250" />
	</node>
	<node id="-52158" lat="62.6212194444" lon="6.63909444354">
		<tag k="name" v="Langsetnakken" />
		<tag k="natural" v="ridge" />
		<tag k="place" v="locality" />
		<tag k="ssr:stedsnr" v="883241" />
	</node>
	<node id="-52157" lat="62.6139055521" lon="6.64391944139">
		<tag k="name" v="Ripa" />
		<tag k="natural" v="valley" />
		<tag k="place" v="locality" />
		<tag k="ssr:stedsnr" v="883033" />
	</node>
	<node id="-50108" lat="62.7814833301" lon="6.44728333014">
		<tag k="name" v="Leghaugane" />
		<tag k="natural" v="hill" />
		<tag k="place" v="locality" />
		<tag k="ssr:stedsnr" v="11501" />
	</node>
	<node id="-52155" lat="62.6351277767" lon="6.15448332845">
		<tag k="name" v="Sæthellaren" />
		<tag k="place" v="locality" />
		<tag k="ssr:stedsnr" v="882926" />
	</node>
	<node id="-50335" lat="62.4846111121" lon="6.77685833665">
		<tag k="name" v="Slettehammaren" />
		<tag k="natural" v="cliff" />
		<tag k="ssr:stedsnr" v="96973" />
	</node>
	<node id="-52152" lat="62.6067444441" lon="6.42326110523">
		<tag k="name" v="Djupedalen" />
		<tag k="natural" v="valley" />
		<tag k="place" v="locality" />
		<tag k="ssr:stedsnr" v="882921" />
	</node>
	<node id="-52151" lat="62.6056083317" lon="6.40455278372">
		<tag k="name" v="Sotånakken" />
		<tag k="place" v="locality" />
		<tag k="ssr:stedsnr" v="882917" />
	</node>
	<node id="-52150" lat="62.6195194484" lon="6.15073055786">
		<tag k="name" v="Hellargjølet" />
		<tag k="natural" v="valley" />
		<tag k="place" v="locality" />
		<tag k="ssr:stedsnr" v="882890" />
	</node>
	<node id="-52149" lat="62.5850166658" lon="6.29244166277">
		<tag k="name" v="Midtistølgjelet" />
		<tag k="natural" v="valley" />
		<tag k="place" v="locality" />
		<tag k="ssr:stedsnr" v="882874" />
	</node>
	<node id="-52148" lat="62.6721388887" lon="6.33029444242">
		<tag k="name" v="Kannarhaugane" />
		<tag k="natural" v="hill" />
		<tag k="place" v="locality" />
		<tag k="ssr:stedsnr" v="882872" />
	</node>
	<node id="-50098" lat="62.5687638864" lon="6.30569721887">
		<tag k="name" v="Olausdalen" />
		<tag k="natural" v="valley" />
		<tag k="place" v="locality" />
		<tag k="ssr:stedsnr" v="11301" />
	</node>
	<node id="-52145" lat="62.6702777807" lon="6.30443888794">
		<tag k="name" v="Skulesida" />
		<tag k="natural" v="slope" />
		<tag k="place" v="locality" />
		<tag k="ssr:stedsnr" v="882856" />
	</node>
	<node id="-50096" lat="62.442486113" lon="6.40519445244">
		<tag k="name" v="Alldalen" />
		<tag k="natural" v="valley" />
		<tag k="place" v="locality" />
		<tag k="ssr:stedsnr" v="220997" />
	</node>
	<node id="-50095" lat="62.4292861101" lon="6.4833111104">
		<tag k="name" v="Kvalen" />
		<tag k="natural" v="hill" />
		<tag k="place" v="locality" />
		<tag k="ssr:stedsnr" v="220995" />
	</node>
	<node id="-50091" lat="62.475019446" lon="6.22024165838">
		<tag k="name" v="Fagerlia" />
		<tag k="natural" v="slope" />
		<tag k="place" v="locality" />
		<tag k="ssr:stedsnr" v="220962" />
	</node>
	<node id="-50085" lat="62.447027774" lon="6.38192221743">
		<tag k="name" v="Rasmushjellen" />
		<tag k="place" v="locality" />
		<tag k="ssr:stedsnr" v="220685" />
	</node>
	<node id="-52132" lat="62.6277499982" lon="6.68446388271">
		<tag k="fixme" v="consider natural=peak for the most distinct mountains in the district" />
		<tag k="name" v="Eikenakken" />
		<tag k="natural" v="hill" />
		<tag k="place" v="locality" />
		<tag k="ssr:stedsnr" v="679417" />
	</node>
	<node id="-52131" lat="62.6291694408" lon="6.64202778153">
		<tag k="name" v="Aksla" />
		<tag k="natural" v="hill" />
		<tag k="place" v="locality" />
		<tag k="ssr:stedsnr" v="679413" />
	</node>
	<node id="-50082" lat="62.4537916632" lon="6.45927500656">
		<tag k="name" v="Emblemsdalen" />
		<tag k="natural" v="valley" />
		<tag k="place" v="locality" />
		<tag k="ssr:stedsnr" v="220670" />
	</node>
	<node id="-52128" lat="62.5277999958" lon="6.71102777998">
		<tag k="fixme" v="consider natural=peak for the most distinct mountains in the district" />
		<tag k="name" v="Høgåsen" />
		<tag k="natural" v="hill" />
		<tag k="place" v="locality" />
		<tag k="ssr:stedsnr" v="679162" />
	</node>
	<node id="-52126" lat="62.5557277754" lon="6.44560278739">
		<tag k="fixme" v="consider natural=peak for the most distinct mountains in the district" />
		<tag k="name" v="Skulstadhornet" />
		<tag k="natural" v="hill" />
		<tag k="place" v="locality" />
		<tag k="ssr:stedsnr" v="679221" />
	</node>
	<node id="-52123" lat="62.6220805541" lon="6.19598889214">
		<tag k="name" v="Svarthammaren" />
		<tag k="natural" v="hill" />
		<tag k="place" v="locality" />
		<tag k="ssr:stedsnr" v="678708" />
	</node>
	<node id="-52118" lat="62.4302000018" lon="7.11686110378">
		<tag k="name" v="Trollbotnen" />
		<tag k="natural" v="valley" />
		<tag k="old_name" v="Trollbotn" />
		<tag k="place" v="locality" />
		<tag k="ssr:stedsnr" v="678664" />
	</node>
	<node id="-50068" lat="62.4413305559" lon="6.9069499911">
		<tag k="name" v="Kolvet" />
		<tag k="natural" v="valley" />
		<tag k="place" v="locality" />
		<tag k="ssr:stedsnr" v="217686" />
	</node>
	<node id="-50700" lat="62.6287222255" lon="6.6643805557">
		<tag k="name" v="Grøtnesrabben" />
		<tag k="natural" v="hill" />
		<tag k="place" v="locality" />
		<tag k="ssr:stedsnr" v="216013" />
	</node>
	<node id="-50066" lat="62.4928249996" lon="6.84280276887">
		<tag k="name" v="Gamlesætermarka" />
		<tag k="natural" v="slope" />
		<tag k="place" v="locality" />
		<tag k="ssr:stedsnr" v="217586" />
	</node>
	<node id="-51011" lat="62.5017388869" lon="6.47090556202">
		<tag k="name" v="Storhaugen" />
		<tag k="natural" v="hill" />
		<tag k="place" v="locality" />
		<tag k="ssr:stedsnr" v="460431" />
	</node>
	<node id="-52112" lat="62.4954111079" lon="6.5197388988">
		<tag k="fixme" v="consider natural=peak for the most distinct mountains in the district" />
		<tag k="name" v="Utvikfjellet" />
		<tag k="natural" v="hill" />
		<tag k="place" v="locality" />
		<tag k="ssr:stedsnr" v="678267" />
	</node>
	<node id="-50062" lat="62.4602000001" lon="6.88292499031">
		<tag k="name" v="Høgbøen" />
		<tag k="natural" v="hill" />
		<tag k="place" v="locality" />
		<tag k="ssr:stedsnr" v="217543" />
	</node>
	<node id="-52109" lat="62.5107611084" lon="6.63425555169">
		<tag k="name" v="Straumsdalen" />
		<tag k="natural" v="valley" />
		<tag k="place" v="locality" />
		<tag k="ssr:stedsnr" v="678161" />
	</node>
	<node id="-52108" lat="62.5081722256" lon="6.63729722575">
		<tag k="name" v="Løhammaren" />
		<tag k="natural" v="hill" />
		<tag k="place" v="locality" />
		<tag k="ssr:stedsnr" v="678160" />
	</node>
	<node id="-52107" lat="62.5108305516" lon="6.71454165876">
		<tag k="name" v="Nausa" />
		<tag k="natural" v="hill" />
		<tag k="place" v="locality" />
		<tag k="ssr:stedsnr" v="678116" />
	</node>
	<node id="-50058" lat="62.4969500019" lon="6.81298611045">
		<tag k="name" v="Dalsskaret" />
		<tag k="natural" v="valley" />
		<tag k="place" v="locality" />
		<tag k="ssr:stedsnr" v="217496" />
	</node>
	<node id="-50116" lat="62.5814833317" lon="6.67133889342">
		<tag k="name" v="Brekka" />
		<tag k="natural" v="slope" />
		<tag k="place" v="locality" />
		<tag k="ssr:stedsnr" v="12323" />
	</node>
	<node id="-50052" lat="62.5042416681" lon="6.62901666624">
		<tag k="name" v="Kvennhushammaren" />
		<tag k="natural" v="cliff" />
		<tag k="ssr:stedsnr" v="217460" />
	</node>
	<node id="-50051" lat="62.5108888898" lon="6.63811945328">
		<tag k="name" v="Djupdalssletta" />
		<tag k="natural" v="valley" />
		<tag k="place" v="locality" />
		<tag k="ssr:stedsnr" v="217449" />
	</node>
	<node id="-51008" lat="62.4859500038" lon="6.56565555332">
		<tag k="fixme" v="consider natural=peak for the most distinct mountains in the district" />
		<tag k="name" v="Fjellsenden" />
		<tag k="natural" v="hill" />
		<tag k="place" v="locality" />
		<tag k="ssr:stedsnr" v="460389" />
	</node>
	<node id="-52094" lat="62.6172555558" lon="6.20491666178">
		<tag k="name" v="Trollsteingjølet" />
		<tag k="natural" v="valley" />
		<tag k="place" v="locality" />
		<tag k="ssr:stedsnr" v="882506" />
	</node>
	<node id="-52091" lat="62.6837944406" lon="6.28296666982">
		<tag k="name" v="Størøra" />
		<tag k="natural" v="valley" />
		<tag k="place" v="locality" />
		<tag k="ssr:stedsnr" v="882388" />
	</node>
	<node id="-50324" lat="62.4886111083" lon="6.44306389812">
		<tag k="name" v="Pipenakken" />
		<tag k="natural" v="hill" />
		<tag k="place" v="locality" />
		<tag k="ssr:stedsnr" v="96369" />
	</node>
	<node id="-52078" lat="62.7486277809" lon="6.36974167347">
		<tag k="name" v="Gardhaugen" />
		<tag k="natural" v="hill" />
		<tag k="place" v="locality" />
		<tag k="ssr:stedsnr" v="881869" />
	</node>
	<node id="-52074" lat="62.7665583307" lon="6.42682776888">
		<tag k="name" v="Stølshaugen" />
		<tag k="natural" v="hill" />
		<tag k="place" v="locality" />
		<tag k="ssr:stedsnr" v="881567" />
	</node>
	<node id="-52073" lat="62.7644433415" lon="6.41450224493">
		<tag k="name" v="Sjøvershaugen" />
		<tag k="natural" v="hill" />
		<tag k="place" v="locality" />
		<tag k="ssr:stedsnr" v="881552" />
	</node>
	<node id="-52069" lat="62.749116669" lon="6.43987499037">
		<tag k="name" v="Køyrselhaugen" />
		<tag k="natural" v="hill" />
		<tag k="place" v="locality" />
		<tag k="ssr:stedsnr" v="881330" />
	</node>
	<node id="-52067" lat="62.4368222258" lon="6.35041944456">
		<tag k="name" v="Lilleberget" />
		<tag k="natural" v="hill" />
		<tag k="place" v="locality" />
		<tag k="ssr:stedsnr" v="881173" />
	</node>
	<node id="-51003" lat="62.4914611119" lon="6.56142499216">
		<tag k="name" v="Depleskaret" />
		<tag k="natural" v="valley" />
		<tag k="place" v="locality" />
		<tag k="ssr:stedsnr" v="460362" />
	</node>
	<node id="-52064" lat="62.8136138901" lon="6.53315554857">
		<tag k="name" v="Seterhaugen" />
		<tag k="natural" v="hill" />
		<tag k="place" v="locality" />
		<tag k="ssr:stedsnr" v="881124" />
	</node>
	<node id="-52063" lat="62.8162138923" lon="6.53074444876">
		<tag k="name" v="Hardhaugen" />
		<tag k="natural" v="hill" />
		<tag k="place" v="locality" />
		<tag k="ssr:stedsnr" v="881115" />
	</node>
	<node id="-52059" lat="62.7982749998" lon="6.51021111399">
		<tag k="name" v="Ramnhaugen" />
		<tag k="natural" v="hill" />
		<tag k="place" v="locality" />
		<tag k="ssr:stedsnr" v="881074" />
	</node>
	<node id="-50084" lat="62.4434138853" lon="6.40349167533">
		<tag k="name" v="Ramskredhamrane" />
		<tag k="natural" v="cliff" />
		<tag k="ssr:stedsnr" v="220682" />
	</node>
	<node id="-52041" lat="62.5692555594" lon="6.57158056124">
		<tag k="name" v="Storsolabakken" />
		<tag k="natural" v="slope" />
		<tag k="place" v="locality" />
		<tag k="ssr:stedsnr" v="640913" />
	</node>
	<node id="-52036" lat="62.5740833363" lon="6.59290833651">
		<tag k="name" v="Bolthaugen" />
		<tag k="natural" v="hill" />
		<tag k="place" v="locality" />
		<tag k="ssr:stedsnr" v="640822" />
	</node>
	<node id="-52035" lat="62.5772416699" lon="6.59331389597">
		<tag k="name" v="Omnane" />
		<tag k="natural" v="cliff" />
		<tag k="ssr:stedsnr" v="640820" />
	</node>
	<node id="-52033" lat="62.5574111142" lon="6.29714166607">
		<tag k="name" v="Tua" />
		<tag k="natural" v="hill" />
		<tag k="place" v="locality" />
		<tag k="ssr:stedsnr" v="639310" />
	</node>
	<node id="-52031" lat="62.6799888897" lon="6.19514166377">
		<tag k="name" v="Laugarberget" />
		<tag k="natural" v="hill" />
		<tag k="place" v="locality" />
		<tag k="ssr:stedsnr" v="638311" />
	</node>
	<node id="-52030" lat="62.6863472247" lon="6.22624443953">
		<tag k="alt_name" v="Kleppen" />
		<tag k="name" v="Klepphaugen" />
		<tag k="natural" v="hill" />
		<tag k="place" v="locality" />
		<tag k="ssr:stedsnr" v="638307" />
	</node>
	<node id="-52024" lat="62.4681888887" lon="6.10704999586">
		<tag k="name" v="Olsfjellet" />
		<tag k="natural" v="hill" />
		<tag k="place" v="locality" />
		<tag k="ssr:stedsnr" v="634597" />
	</node>
	<node id="-50313" lat="62.4739750013" lon="6.57394999194">
		<tag k="name" v="Svene" />
		<tag k="natural" v="hill" />
		<tag k="place" v="locality" />
		<tag k="ssr:stedsnr" v="96005" />
	</node>
	<node id="-52019" lat="62.4365388848" lon="6.48150000212">
		<tag k="fixme" v="consider natural=peak for the most distinct mountains in the district" />
		<tag k="name" v="Lillenakken" />
		<tag k="natural" v="hill" />
		<tag k="place" v="locality" />
		<tag k="ssr:stedsnr" v="726613" />
	</node>
	<node id="-50083" lat="62.4551944452" lon="6.47631389263">
		<tag k="fixme" v="consider natural=peak for the most distinct mountains in the district" />
		<tag k="name" v="Høgekubben" />
		<tag k="natural" v="hill" />
		<tag k="place" v="locality" />
		<tag k="ssr:stedsnr" v="220672" />
	</node>
	<node id="-50833" lat="62.7434916672" lon="6.43946944464">
		<tag k="name" v="Myrstølhaugen" />
		<tag k="natural" v="hill" />
		<tag k="place" v="locality" />
		<tag k="ssr:stedsnr" v="457302" />
	</node>
	<node id="-50151" lat="62.4479944432" lon="6.37504166136">
		<tag k="name" v="Botnen" />
		<tag k="natural" v="valley" />
		<tag k="place" v="locality" />
		<tag k="ssr:stedsnr" v="38969" />
	</node>
	<node id="-52002" lat="62.6027555571" lon="6.53653055434">
		<tag k="fixme" v="consider natural=peak for the most distinct mountains in the district" />
		<tag k="name" v="Øvrenakken" />
		<tag k="natural" v="hill" />
		<tag k="place" v="locality" />
		<tag k="ssr:stedsnr" v="618390" />
	</node>
	<node id="-50309" lat="62.5639972244" lon="6.53151111716">
		<tag k="name" v="Sætremarka" />
		<tag k="natural" v="slope" />
		<tag k="place" v="locality" />
		<tag k="ssr:stedsnr" v="95503" />
	</node>
	<node id="-51991" lat="62.5561083362" lon="6.37495277711">
		<tag k="name" v="Ytste Vassida" />
		<tag k="natural" v="slope" />
		<tag k="place" v="locality" />
		<tag k="ssr:stedsnr" v="618247" />
	</node>
	<node id="-51985" lat="62.5454138904" lon="6.46163888063">
		<tag k="name" v="Botnen" />
		<tag k="natural" v="valley" />
		<tag k="place" v="locality" />
		<tag k="ssr:stedsnr" v="618204" />
	</node>
	<node id="-51982" lat="62.4765222224" lon="7.0102194498">
		<tag k="fixme" v="consider natural=peak for the most distinct mountains in the district" />
		<tag k="name" v="Dyrshamrane" />
		<tag k="natural" v="hill" />
		<tag k="place" v="locality" />
		<tag k="ssr:stedsnr" v="617361" />
	</node>
	<node id="-50900" lat="62.5800999981" lon="6.59887221887">
		<tag k="name" v="Høghaugen" />
		<tag k="natural" v="hill" />
		<tag k="place" v="locality" />
		<tag k="ssr:stedsnr" v="458836" />
	</node>
	<node id="-50627" lat="62.5194555589" lon="6.79353611353">
		<tag k="fixme" v="consider natural=peak for the most distinct mountains in the district" />
		<tag k="name" v="Sætrefjellet" />
		<tag k="natural" v="hill" />
		<tag k="place" v="locality" />
		<tag k="ssr:stedsnr" v="193823" />
	</node>
	<node id="-52802" lat="62.5549333296" lon="6.35131666905">
		<tag k="fixme" v="consider natural=peak for the most distinct mountains in the district" />
		<tag k="name" v="Tverrbotshornet" />
		<tag k="natural" v="hill" />
		<tag k="place" v="locality" />
		<tag k="ssr:stedsnr" v="861269" />
	</node>
	<node id="-50644" lat="62.5158166682" lon="6.65446943716">
		<tag k="fixme" v="consider natural=peak for the most distinct mountains in the district" />
		<tag k="name" v="Stettefjellet" />
		<tag k="natural" v="hill" />
		<tag k="place" v="locality" />
		<tag k="ssr:stedsnr" v="194128" />
	</node>
	<node id="-51948" lat="62.5190111102" lon="6.82334721708">
		<tag k="name" v="Storhaugen" />
		<tag k="natural" v="hill" />
		<tag k="place" v="locality" />
		<tag k="ssr:stedsnr" v="581610" />
	</node>
	<node id="-51947" lat="62.4785888873" lon="6.82245832647">
		<tag k="name" v="Lunden" />
		<tag k="place" v="locality" />
		<tag k="ssr:stedsnr" v="581608" />
	</node>
	<node id="-51946" lat="62.4848222188" lon="6.8339638823">
		<tag k="name" v="Olebakkane" />
		<tag k="natural" v="slope" />
		<tag k="place" v="locality" />
		<tag k="ssr:stedsnr" v="581606" />
	</node>
	<node id="-51936" lat="62.4944583292" lon="6.49286389286">
		<tag k="name" v="Furhamrane" />
		<tag k="natural" v="hill" />
		<tag k="place" v="locality" />
		<tag k="ssr:stedsnr" v="581317" />
	</node>
	<node id="-51930" lat="62.5092027792" lon="6.73098055534">
		<tag k="name" v="Skura" />
		<tag k="natural" v="slope" />
		<tag k="place" v="locality" />
		<tag k="ssr:stedsnr" v="581058" />
	</node>
	<node id="-51927" lat="62.6059861138" lon="6.44445833747">
		<tag k="name" v="Hansgardhaugen" />
		<tag k="natural" v="hill" />
		<tag k="place" v="locality" />
		<tag k="ssr:stedsnr" v="580490" />
	</node>
	<node id="-51924" lat="62.5584750038" lon="6.5348833296">
		<tag k="name" v="Hjellleteigane" />
		<tag k="natural" v="slope" />
		<tag k="place" v="locality" />
		<tag k="ssr:stedsnr" v="580537" />
	</node>
	<node id="-51922" lat="62.5487083321" lon="6.51251389114">
		<tag k="name" v="Almedalen" />
		<tag k="natural" v="valley" />
		<tag k="place" v="locality" />
		<tag k="ssr:stedsnr" v="580503" />
	</node>
	<node id="-51920" lat="62.6229722268" lon="6.60078333746">
		<tag k="name" v="Skarvehamaren" />
		<tag k="natural" v="hill" />
		<tag k="place" v="locality" />
		<tag k="ssr:stedsnr" v="580310" />
	</node>
	<node id="-51917" lat="62.5423416675" lon="6.52178055518">
		<tag k="name" v="Bakken" />
		<tag k="natural" v="slope" />
		<tag k="place" v="locality" />
		<tag k="ssr:stedsnr" v="580052" />
	</node>
	<node id="-51916" lat="62.615655559" lon="6.53292221863">
		<tag k="name" v="Rima" />
		<tag k="natural" v="ridge" />
		<tag k="place" v="locality" />
		<tag k="ssr:stedsnr" v="579860" />
	</node>
	<node id="-51914" lat="62.5251416702" lon="6.55353610127">
		<tag k="name" v="Trongeskaret" />
		<tag k="natural" v="valley" />
		<tag k="place" v="locality" />
		<tag k="ssr:stedsnr" v="579716" />
	</node>
	<node id="-51913" lat="62.6055333369" lon="6.74840000684">
		<tag k="name" v="Kjelen" />
		<tag k="natural" v="valley" />
		<tag k="place" v="locality" />
		<tag k="ssr:stedsnr" v="579291" />
	</node>
	<node id="-51912" lat="62.5972222179" lon="6.32027777187">
		<tag k="name" v="Storremma" />
		<tag k="natural" v="ridge" />
		<tag k="place" v="locality" />
		<tag k="ssr:stedsnr" v="579285" />
	</node>
	<node id="-51909" lat="62.5715833315" lon="6.2389833334">
		<tag k="name" v="Skarveneshaugen" />
		<tag k="natural" v="hill" />
		<tag k="place" v="locality" />
		<tag k="ssr:stedsnr" v="578893" />
	</node>
	<node id="-51907" lat="62.6292694475" lon="6.13871943709">
		<tag k="name" v="Hestehjellane" />
		<tag k="place" v="locality" />
		<tag k="ssr:stedsnr" v="578911" />
	</node>
	<node id="-51903" lat="62.6864083302" lon="6.25305555575">
		<tag k="name" v="Sakshamarhaugen" />
		<tag k="natural" v="hill" />
		<tag k="place" v="locality" />
		<tag k="ssr:stedsnr" v="578605" />
	</node>
	<node id="-50293" lat="62.6192472189" lon="6.19044444856">
		<tag k="fixme" v="consider natural=peak for the most distinct mountains in the district" />
		<tag k="name" v="Goaldet" />
		<tag k="natural" v="hill" />
		<tag k="place" v="locality" />
		<tag k="ssr:stedsnr" v="254690" />
	</node>
	<node id="-51900" lat="62.8122805513" lon="6.59170556438">
		<tag k="name" v="Kråksteinen" />
		<tag k="natural" v="hill" />
		<tag k="place" v="locality" />
		<tag k="ssr:stedsnr" v="578085" />
	</node>
	<node id="-51897" lat="62.8615583377" lon="6.54728611843">
		<tag k="name" v="Oterura" />
		<tag k="natural" v="hill" />
		<tag k="place" v="locality" />
		<tag k="ssr:stedsnr" v="577313" />
	</node>
	<node id="-50101" lat="62.4719722179" lon="6.98914444001">
		<tag k="fixme" v="consider natural=peak for the most distinct mountains in the district" />
		<tag k="name" v="Grønlifjellet" />
		<tag k="natural" v="hill" />
		<tag k="place" v="locality" />
		<tag k="ssr:stedsnr" v="11322" />
	</node>
	<node id="-50974" lat="62.5915555555" lon="6.3500444498">
		<tag k="name" v="Skakkholå" />
		<tag k="natural" v="valley" />
		<tag k="place" v="locality" />
		<tag k="ssr:stedsnr" v="459607" />
	</node>
	<node id="-51886" lat="62.5034694427" lon="6.25737499167">
		<tag k="name" v="Skaret" />
		<tag k="natural" v="valley" />
		<tag k="place" v="locality" />
		<tag k="ssr:stedsnr" v="705954" />
	</node>
	<node id="-51880" lat="62.4430027779" lon="6.41678332817">
		<tag k="name" v="Bjønnalågja" />
		<tag k="place" v="locality" />
		<tag k="ssr:stedsnr" v="705703" />
	</node>
	<node id="-51879" lat="62.442100003" lon="6.41224999749">
		<tag k="fixme" v="consider natural=peak for the most distinct mountains in the district" />
		<tag k="name" v="Raudefjellet" />
		<tag k="natural" v="hill" />
		<tag k="place" v="locality" />
		<tag k="ssr:stedsnr" v="705702" />
	</node>
	<node id="-51878" lat="62.4403833349" lon="6.30972221851">
		<tag k="name" v="Notaberget" />
		<tag k="natural" v="hill" />
		<tag k="place" v="locality" />
		<tag k="ssr:stedsnr" v="705688" />
	</node>
	<node id="-51867" lat="62.4623277743" lon="6.49502221777">
		<tag k="name" v="Langevassberget" />
		<tag k="natural" v="slope" />
		<tag k="place" v="locality" />
		<tag k="ssr:stedsnr" v="705597" />
	</node>
	<node id="-50287" lat="62.6105222191" lon="6.52013610985">
		<tag k="name" v="Skoradalen" />
		<tag k="natural" v="valley" />
		<tag k="place" v="locality" />
		<tag k="ssr:stedsnr" v="254377" />
	</node>
	<node id="-51857" lat="62.461488892" lon="6.78260278568">
		<tag k="name" v="Nykjen" />
		<tag k="natural" v="ridge" />
		<tag k="place" v="locality" />
		<tag k="ssr:stedsnr" v="703702" />
	</node>
	<node id="-51855" lat="62.5126111081" lon="6.62791388331">
		<tag k="name" v="Tverrbotnbakkane" />
		<tag k="natural" v="slope" />
		<tag k="place" v="locality" />
		<tag k="ssr:stedsnr" v="703498" />
	</node>
	<node id="-51854" lat="62.5187166686" lon="6.69844999083">
		<tag k="name" v="Løhammaren" />
		<tag k="natural" v="cliff" />
		<tag k="ssr:stedsnr" v="703492" />
	</node>
	<node id="-51853" lat="62.508227776" lon="6.64677777102">
		<tag k="name" v="Tverrdalen" />
		<tag k="natural" v="valley" />
		<tag k="place" v="locality" />
		<tag k="ssr:stedsnr" v="703489" />
	</node>
	<node id="-51852" lat="62.512919442" lon="6.67332222443">
		<tag k="name" v="Ørnekula" />
		<tag k="natural" v="hill" />
		<tag k="place" v="locality" />
		<tag k="ssr:stedsnr" v="703482" />
	</node>
	<node id="-51850" lat="62.4926972257" lon="6.72581945256">
		<tag k="name" v="Sundsbakken" />
		<tag k="natural" v="slope" />
		<tag k="place" v="locality" />
		<tag k="ssr:stedsnr" v="703475" />
	</node>
	<node id="-50284" lat="62.5687638869" lon="6.50206667414">
		<tag k="fixme" v="consider natural=peak for the most distinct mountains in the district" />
		<tag k="name" v="Urfjellet" />
		<tag k="natural" v="hill" />
		<tag k="place" v="locality" />
		<tag k="ssr:stedsnr" v="254278" />
	</node>
	<node id="-51846" lat="62.467861115" lon="6.6511916671">
		<tag k="name" v="Hatlarørene" />
		<tag k="natural" v="ridge" />
		<tag k="place" v="locality" />
		<tag k="ssr:stedsnr" v="703434" />
	</node>
	<node id="-51845" lat="62.4696666683" lon="6.66508333985">
		<tag k="name" v="Jovikhaugen" />
		<tag k="natural" v="hill" />
		<tag k="place" v="locality" />
		<tag k="ssr:stedsnr" v="703433" />
	</node>
	<node id="-51844" lat="62.4688583313" lon="6.53619443545">
		<tag k="name" v="Bjørkelia" />
		<tag k="natural" v="slope" />
		<tag k="place" v="locality" />
		<tag k="ssr:stedsnr" v="703422" />
	</node>
	<node id="-50966" lat="62.6031666648" lon="6.46730000594">
		<tag k="name" v="Grøthaugen" />
		<tag k="natural" v="hill" />
		<tag k="place" v="locality" />
		<tag k="ssr:stedsnr" v="459478" />
	</node>
	<node id="-51841" lat="62.4990222243" lon="6.47278611551">
		<tag k="name" v="Trollkjerringa" />
		<tag k="natural" v="cliff" />
		<tag k="ssr:stedsnr" v="703409" />
	</node>
	<node id="-51840" lat="62.4861916679" lon="6.45073056512">
		<tag k="name" v="Langedalsrøra" />
		<tag k="natural" v="ridge" />
		<tag k="place" v="locality" />
		<tag k="ssr:stedsnr" v="703405" />
	</node>
	<node id="-51839" lat="62.4731444411" lon="6.56217777544">
		<tag k="name" v="Bjønntjønn-nakken" />
		<tag k="natural" v="hill" />
		<tag k="place" v="locality" />
		<tag k="ssr:stedsnr" v="703396" />
	</node>
	<node id="-51838" lat="62.5116333309" lon="6.753775008">
		<tag k="name" v="Bjørnhaugen" />
		<tag k="natural" v="hill" />
		<tag k="place" v="locality" />
		<tag k="ssr:stedsnr" v="703359" />
	</node>
	<node id="-51837" lat="62.4847222195" lon="6.76463888786">
		<tag k="name" v="Vetegylet" />
		<tag k="natural" v="gorge" />
		<tag k="ssr:stedsnr" v="703690" />
	</node>
	<node id="-51836" lat="62.4838138919" lon="6.75967221749">
		<tag k="name" v="Hesteløypa" />
		<tag k="natural" v="valley" />
		<tag k="place" v="locality" />
		<tag k="ssr:stedsnr" v="703687" />
	</node>
	<node id="-51833" lat="62.5007638868" lon="6.78924445139">
		<tag k="name" v="Barhusdalen" />
		<tag k="natural" v="valley" />
		<tag k="place" v="locality" />
		<tag k="ssr:stedsnr" v="703674" />
	</node>
	<node id="-51832" lat="62.5094555524" lon="6.79104999204">
		<tag k="name" v="Ytstereset" />
		<tag k="natural" v="ridge" />
		<tag k="place" v="locality" />
		<tag k="ssr:stedsnr" v="703673" />
	</node>
	<node id="-50964" lat="62.590975001" lon="6.42847778371">
		<tag k="name" v="Reset" />
		<tag k="natural" v="slope" />
		<tag k="place" v="locality" />
		<tag k="ssr:stedsnr" v="459448" />
	</node>
	<node id="-51829" lat="62.4821888882" lon="6.88028055951">
		<tag k="name" v="Giskemoberget" />
		<tag k="place" v="locality" />
		<tag k="ssr:stedsnr" v="703664" />
	</node>
	<node id="-51828" lat="62.4422888898" lon="6.91186944727">
		<tag k="name" v="Visetfjellet" />
		<tag k="natural" v="hill" />
		<tag k="place" v="locality" />
		<tag k="ssr:stedsnr" v="703593" />
	</node>
	<node id="-51827" lat="62.4610000023" lon="6.92551110198">
		<tag k="name" v="Storhaugen" />
		<tag k="natural" v="hill" />
		<tag k="place" v="locality" />
		<tag k="ssr:stedsnr" v="703588" />
	</node>
	<node id="-51826" lat="62.5429416642" lon="6.90529999571">
		<tag k="name" v="Kjølen" />
		<tag k="natural" v="slope" />
		<tag k="place" v="locality" />
		<tag k="ssr:stedsnr" v="703584" />
	</node>
	<node id="-51824" lat="62.4679583352" lon="6.892605557">
		<tag k="name" v="Nakkane" />
		<tag k="natural" v="hill" />
		<tag k="place" v="locality" />
		<tag k="ssr:stedsnr" v="703581" />
	</node>
	<node id="-51822" lat="62.4951027766" lon="6.93166667211">
		<tag k="name" v="Snaufjellskredene" />
		<tag k="natural" v="slope" />
		<tag k="place" v="locality" />
		<tag k="ssr:stedsnr" v="703573" />
	</node>
	<node id="-51821" lat="62.4688083336" lon="6.93486945037">
		<tag k="name" v="Sætredalen" />
		<tag k="natural" v="valley" />
		<tag k="place" v="locality" />
		<tag k="ssr:stedsnr" v="703566" />
	</node>
	<node id="-51816" lat="62.4572222209" lon="6.58824166438">
		<tag k="name" v="Osphaugane" />
		<tag k="natural" v="hill" />
		<tag k="place" v="locality" />
		<tag k="ssr:stedsnr" v="703038" />
	</node>
	<node id="-51815" lat="62.4777944401" lon="6.58060555932">
		<tag k="name" v="Ørnakken" />
		<tag k="natural" v="ridge" />
		<tag k="place" v="locality" />
		<tag k="ssr:stedsnr" v="703033" />
	</node>
	<node id="-51814" lat="62.4524888916" lon="6.58009444166">
		<tag k="name" v="Nakkane" />
		<tag k="natural" v="hill" />
		<tag k="place" v="locality" />
		<tag k="ssr:stedsnr" v="703026" />
	</node>
	<node id="-50961" lat="62.4965333301" lon="6.80301943868">
		<tag k="name" v="Langholen" />
		<tag k="natural" v="slope" />
		<tag k="place" v="locality" />
		<tag k="ssr:stedsnr" v="278636" />
	</node>
	<node id="-51810" lat="62.5584805529" lon="6.52321944636">
		<tag k="name" v="Fonnaberga" />
		<tag k="natural" v="slope" />
		<tag k="place" v="locality" />
		<tag k="ssr:stedsnr" v="702536" />
	</node>
	<node id="-51809" lat="62.4845694478" lon="6.62187499156">
		<tag k="name" v="Høgbrauta" />
		<tag k="natural" v="slope" />
		<tag k="place" v="locality" />
		<tag k="ssr:stedsnr" v="702302" />
	</node>
	<node id="-50960" lat="62.4845555538" lon="6.80269722479">
		<tag k="name" v="Ospanakken" />
		<tag k="natural" v="hill" />
		<tag k="place" v="locality" />
		<tag k="ssr:stedsnr" v="278634" />
	</node>
	<node id="-51803" lat="62.4815583317" lon="6.58813888441">
		<tag k="name" v="Bjørnhaugen" />
		<tag k="natural" v="hill" />
		<tag k="place" v="locality" />
		<tag k="ssr:stedsnr" v="702282" />
	</node>
	<node id="-50455" lat="62.5597388864" lon="6.55605833873">
		<tag k="name" v="Gutahjellen" />
		<tag k="place" v="locality" />
		<tag k="ssr:stedsnr" v="276622" />
	</node>
	<node id="-51801" lat="62.491061109" lon="6.60670000182">
		<tag k="name" v="Timbrehaugane" />
		<tag k="natural" v="hill" />
		<tag k="place" v="locality" />
		<tag k="ssr:stedsnr" v="702278" />
	</node>
	<node id="-51800" lat="62.488549998" lon="6.53366666503">
		<tag k="name" v="Demmehaugen" />
		<tag k="natural" v="hill" />
		<tag k="place" v="locality" />
		<tag k="ssr:stedsnr" v="702241" />
	</node>
	<node id="-51798" lat="62.4916305554" lon="6.54335554688">
		<tag k="name" v="Pehola" />
		<tag k="natural" v="valley" />
		<tag k="place" v="locality" />
		<tag k="ssr:stedsnr" v="702233" />
	</node>
	<node id="-51797" lat="62.4729249976" lon="6.59786944147">
		<tag k="name" v="Fugledalsbrauta" />
		<tag k="natural" v="slope" />
		<tag k="place" v="locality" />
		<tag k="ssr:stedsnr" v="702225" />
	</node>
	<node id="-51795" lat="62.5684416705" lon="6.51464166863">
		<tag k="name" v="Klivet" />
		<tag k="natural" v="cliff" />
		<tag k="ssr:stedsnr" v="701993" />
	</node>
	<node id="-51794" lat="62.5674277784" lon="6.62691943526">
		<tag k="name" v="Bakkedalen" />
		<tag k="natural" v="valley" />
		<tag k="place" v="locality" />
		<tag k="ssr:stedsnr" v="701987" />
	</node>
	<node id="-50275" lat="62.5957694402" lon="6.7116583332">
		<tag k="name" v="Skjerdinghola" />
		<tag k="natural" v="valley" />
		<tag k="place" v="locality" />
		<tag k="ssr:stedsnr" v="254323" />
	</node>
	<node id="-51792" lat="62.5699083334" lon="6.53226666404">
		<tag k="name" v="Bolthaugen" />
		<tag k="natural" v="hill" />
		<tag k="place" v="locality" />
		<tag k="ssr:stedsnr" v="701985" />
	</node>
	<node id="-51789" lat="62.5715722227" lon="6.55436945188">
		<tag k="name" v="Timbreskaret" />
		<tag k="natural" v="valley" />
		<tag k="place" v="locality" />
		<tag k="ssr:stedsnr" v="701922" />
	</node>
	<node id="-51787" lat="62.5796416677" lon="6.5582972314">
		<tag k="name" v="Hjellen" />
		<tag k="place" v="locality" />
		<tag k="ssr:stedsnr" v="701891" />
	</node>
	<node id="-51785" lat="62.5863388874" lon="6.72471388994">
		<tag k="name" v="Jolegrødet" />
		<tag k="natural" v="slope" />
		<tag k="place" v="locality" />
		<tag k="ssr:stedsnr" v="557969" />
	</node>
	<node id="-51783" lat="62.5805805518" lon="6.32016944946">
		<tag k="name" v="Veteberga" />
		<tag k="natural" v="hill" />
		<tag k="place" v="locality" />
		<tag k="ssr:stedsnr" v="701959" />
	</node>
	<node id="-51780" lat="62.7463388852" lon="6.46005555617">
		<tag k="name" v="Orevollhaugen" />
		<tag k="natural" v="hill" />
		<tag k="place" v="locality" />
		<tag k="ssr:stedsnr" v="557862" />
	</node>
	<node id="-51779" lat="62.5340416667" lon="6.90395000626">
		<tag k="alt_name" v="Skållinakken" />
		<tag k="name" v="Skålhaugen" />
		<tag k="natural" v="hill" />
		<tag k="place" v="locality" />
		<tag k="ssr:stedsnr" v="557819" />
	</node>
	<node id="-50075" lat="62.4715277738" lon="6.29503889746">
		<tag k="alt_name" v="Leirstadnakken" />
		<tag k="fixme" v="consider natural=peak for the most distinct mountains in the district" />
		<tag k="name" v="Lerstadnakken" />
		<tag k="natural" v="hill" />
		<tag k="place" v="locality" />
		<tag k="ssr:stedsnr" v="220593" />
	</node>
	<node id="-51773" lat="62.6207472215" lon="6.54734166211">
		<tag k="name" v="Reithaugen" />
		<tag k="natural" v="hill" />
		<tag k="place" v="locality" />
		<tag k="ssr:stedsnr" v="701797" />
	</node>
	<node id="-50612" lat="62.5329000028" lon="6.28333054619">
		<tag k="name" v="Uggedalen" />
		<tag k="natural" v="valley" />
		<tag k="place" v="locality" />
		<tag k="ssr:stedsnr" v="193208" />
	</node>
	<node id="-52146" lat="62.5779638869" lon="6.28746388547">
		<tag k="name" v="Storsvorkjeften" />
		<tag k="natural" v="cliff" />
		<tag k="ssr:stedsnr" v="882859" />
	</node>
	<node id="-51765" lat="62.5837361112" lon="6.43449721873">
		<tag k="name" v="Furelia" />
		<tag k="natural" v="slope" />
		<tag k="place" v="locality" />
		<tag k="ssr:stedsnr" v="701880" />
	</node>
	<node id="-51761" lat="62.5618472211" lon="6.39945555456">
		<tag k="fixme" v="consider natural=peak for the most distinct mountains in the district" />
		<tag k="name" v="Hildrehesten" />
		<tag k="natural" v="hill" />
		<tag k="place" v="locality" />
		<tag k="ssr:stedsnr" v="557320" />
	</node>
	<node id="-51759" lat="62.5762305539" lon="6.41371944818">
		<tag k="name" v="Dyrstigen" />
		<tag k="natural" v="slope" />
		<tag k="place" v="locality" />
		<tag k="ssr:stedsnr" v="557311" />
	</node>
	<node id="-51758" lat="62.5773750042" lon="6.53070834118">
		<tag k="fixme" v="consider natural=peak for the most distinct mountains in the district" />
		<tag k="name" v="Fannegga" />
		<tag k="natural" v="hill" />
		<tag k="place" v="locality" />
		<tag k="ssr:stedsnr" v="557307" />
	</node>
	<node id="-51753" lat="62.5277222263" lon="6.65101943466">
		<tag k="name" v="Skaret" />
		<tag k="natural" v="valley" />
		<tag k="place" v="locality" />
		<tag k="ssr:stedsnr" v="701744" />
	</node>
	<node id="-51748" lat="62.5591333374" lon="6.3964833389">
		<tag k="name" v="Tjørnskaret" />
		<tag k="natural" v="valley" />
		<tag k="place" v="locality" />
		<tag k="ssr:stedsnr" v="557271" />
	</node>
	<node id="-51747" lat="62.5566194441" lon="6.41828332893">
		<tag k="name" v="Baklia" />
		<tag k="natural" v="slope" />
		<tag k="place" v="locality" />
		<tag k="ssr:stedsnr" v="557262" />
	</node>
	<node id="-50100" lat="62.4651891656" lon="6.89063375168">
		<tag k="name" v="Vestreberget" />
		<tag k="natural" v="hill" />
		<tag k="place" v="locality" />
		<tag k="ssr:stedsnr" v="11319" />
	</node>
	<node id="-51743" lat="62.5349611069" lon="6.43374999433">
		<tag k="name" v="Gjersetlia" />
		<tag k="natural" v="slope" />
		<tag k="place" v="locality" />
		<tag k="ssr:stedsnr" v="557213" />
	</node>
	<node id="-51735" lat="62.5057305562" lon="6.27873332377">
		<tag k="fixme" v="consider natural=peak for the most distinct mountains in the district" />
		<tag k="name" v="Rotnakken" />
		<tag k="natural" v="hill" />
		<tag k="place" v="locality" />
		<tag k="ssr:stedsnr" v="557122" />
	</node>
	<node id="-51734" lat="62.5173225329" lon="6.66714561831">
		<tag k="fixme" v="consider natural=peak for the most distinct mountains in the district" />
		<tag k="name" v="Nihusen" />
		<tag k="natural" v="hill" />
		<tag k="place" v="locality" />
		<tag k="ssr:stedsnr" v="557120" />
	</node>
	<node id="-50619" lat="62.6110694419" lon="6.47041945375">
		<tag k="fixme" v="consider natural=peak for the most distinct mountains in the district" />
		<tag k="name" v="Husfjellet" />
		<tag k="natural" v="hill" />
		<tag k="place" v="locality" />
		<tag k="ssr:stedsnr" v="193437" />
	</node>
	<node id="-51728" lat="62.5893527796" lon="6.35658332812">
		<tag k="name" v="Ørveden" />
		<tag k="natural" v="slope" />
		<tag k="place" v="locality" />
		<tag k="ssr:stedsnr" v="701656" />
	</node>
	<node id="-51722" lat="62.5652555563" lon="6.56665000758">
		<tag k="name" v="Storsolabakken" />
		<tag k="natural" v="slope" />
		<tag k="place" v="locality" />
		<tag k="ssr:stedsnr" v="701574" />
	</node>
	<node id="-51717" lat="62.5828333318" lon="6.38724167622">
		<tag k="name" v="Grytakoppen" />
		<tag k="natural" v="ridge" />
		<tag k="place" v="locality" />
		<tag k="ssr:stedsnr" v="701240" />
	</node>
	<node id="-51715" lat="62.6065333309" lon="6.41825277539">
		<tag k="name" v="Vikadalen" />
		<tag k="natural" v="valley" />
		<tag k="place" v="locality" />
		<tag k="ssr:stedsnr" v="700939" />
	</node>
	<node id="-51714" lat="62.6064916689" lon="6.41363889135">
		<tag k="name" v="Kvithaugnakken" />
		<tag k="place" v="locality" />
		<tag k="ssr:stedsnr" v="700938" />
	</node>
	<node id="-51712" lat="62.6858305528" lon="6.25883610803">
		<tag k="name" v="Trollholå" />
		<tag k="natural" v="valley" />
		<tag k="place" v="locality" />
		<tag k="ssr:stedsnr" v="700632" />
	</node>
	<node id="-50141" lat="62.4927972247" lon="6.25389167097">
		<tag k="name" v="Vardehaugen" />
		<tag k="natural" v="hill" />
		<tag k="place" v="locality" />
		<tag k="ssr:stedsnr" v="38518" />
	</node>
	<node id="-51706" lat="62.8581250014" lon="6.54886110584">
		<tag k="name" v="Ramnbjøra" />
		<tag k="natural" v="hill" />
		<tag k="place" v="locality" />
		<tag k="ssr:stedsnr" v="699951" />
	</node>
	<node id="-51702" lat="62.6334111089" lon="6.13110833651">
		<tag k="name" v="Hestedalsnakken" />
		<tag k="place" v="locality" />
		<tag k="ssr:stedsnr" v="699928" />
	</node>
	<node id="-51700" lat="62.5682416674" lon="6.29584721874">
		<tag k="name" v="Olausdalen" />
		<tag k="natural" v="valley" />
		<tag k="place" v="locality" />
		<tag k="ssr:stedsnr" v="699887" />
	</node>
	<node id="-52307" lat="62.5148027744" lon="6.8398666634">
		<tag k="name" v="Bjønnanakkane" />
		<tag k="natural" v="hill" />
		<tag k="place" v="locality" />
		<tag k="ssr:stedsnr" v="703643" />
	</node>
	<node id="-51696" lat="62.8604083376" lon="6.54237777468">
		<tag k="name" v="Skrubbehaugen" />
		<tag k="natural" v="hill" />
		<tag k="place" v="locality" />
		<tag k="ssr:stedsnr" v="699298" />
	</node>
	<node id="-51695" lat="62.798824997" lon="6.52864167333">
		<tag k="loc_name" v="Ørneberget" />
		<tag k="name" v="Ørnehaugen" />
		<tag k="natural" v="hill" />
		<tag k="place" v="locality" />
		<tag k="ssr:stedsnr" v="699080" />
	</node>
	<node id="-51694" lat="62.7577138898" lon="6.38226667531">
		<tag k="name" v="Storsjøhaugan" />
		<tag k="natural" v="hill" />
		<tag k="place" v="locality" />
		<tag k="ssr:stedsnr" v="698939" />
	</node>
	<node id="-51693" lat="62.754294446" lon="6.38354166715">
		<tag k="name" v="Laberget" />
		<tag k="natural" v="hill" />
		<tag k="place" v="locality" />
		<tag k="ssr:stedsnr" v="698931" />
	</node>
	<node id="-51692" lat="62.7550361087" lon="6.38088611599">
		<tag k="name" v="Torhaugen" />
		<tag k="natural" v="hill" />
		<tag k="place" v="locality" />
		<tag k="ssr:stedsnr" v="698928" />
	</node>
	<node id="-51691" lat="62.7490222206" lon="6.37788611061">
		<tag k="name" v="Kviteberget" />
		<tag k="natural" v="hill" />
		<tag k="place" v="locality" />
		<tag k="ssr:stedsnr" v="698886" />
	</node>
	<node id="-50940" lat="62.5459194423" lon="6.49583611188">
		<tag k="name" v="Bjønnadalsheia" />
		<tag k="natural" v="hill" />
		<tag k="place" v="locality" />
		<tag k="ssr:stedsnr" v="277523" />
	</node>
	<node id="-50822" lat="62.7725444463" lon="6.42962500906">
		<tag k="name" v="Nausthaugen" />
		<tag k="natural" v="hill" />
		<tag k="place" v="locality" />
		<tag k="ssr:stedsnr" v="457146" />
	</node>
	<node id="-50255" lat="62.4979388881" lon="6.25776945231">
		<tag k="name" v="Skuldalen" />
		<tag k="natural" v="valley" />
		<tag k="place" v="locality" />
		<tag k="ssr:stedsnr" v="253233" />
	</node>
	<node id="-51671" lat="62.4426611083" lon="6.48734166452">
		<tag k="fixme" v="consider natural=peak for the most distinct mountains in the district" />
		<tag k="name" v="Brunskarnakkane" />
		<tag k="natural" v="hill" />
		<tag k="place" v="locality" />
		<tag k="ssr:stedsnr" v="525566" />
	</node>
	<node id="-50937" lat="62.626916667" lon="6.6017527686">
		<tag k="name" v="Bekkevollen" />
		<tag k="natural" v="hill" />
		<tag k="place" v="locality" />
		<tag k="ssr:stedsnr" v="277319" />
	</node>
	<node id="-51662" lat="62.452455558" lon="6.43685833303">
		<tag k="fixme" v="consider natural=peak for the most distinct mountains in the district" />
		<tag k="name" v="Emblemsfjellet" />
		<tag k="natural" v="hill" />
		<tag k="place" v="locality" />
		<tag k="ssr:stedsnr" v="687333" />
	</node>
	<node id="-51661" lat="62.4971444407" lon="6.26269721329">
		<tag k="fixme" v="consider natural=peak for the most distinct mountains in the district" />
		<tag k="name" v="Skulen" />
		<tag k="natural" v="hill" />
		<tag k="place" v="locality" />
		<tag k="ssr:stedsnr" v="687316" />
	</node>
	<node id="-51660" lat="62.4953416709" lon="6.46931667077">
		<tag k="fixme" v="consider natural=peak for the most distinct mountains in the district" />
		<tag k="name" v="Varden" />
		<tag k="natural" v="hill" />
		<tag k="place" v="locality" />
		<tag k="ssr:stedsnr" v="687311" />
	</node>
	<node id="-51659" lat="62.4869249964" lon="6.81652500511">
		<tag k="name" v="Sjøholtreitane" />
		<tag k="natural" v="slope" />
		<tag k="place" v="locality" />
		<tag k="ssr:stedsnr" v="520536" />
	</node>
	<node id="-51658" lat="62.4717138875" lon="6.89300556096">
		<tag k="name" v="Brunstadberget" />
		<tag k="natural" v="slope" />
		<tag k="place" v="locality" />
		<tag k="ssr:stedsnr" v="520532" />
	</node>
	<node id="-51657" lat="62.467144446" lon="7.02547500502">
		<tag k="name" v="Kjersemfjellet" />
		<tag k="natural" v="hill" />
		<tag k="place" v="locality" />
		<tag k="ssr:stedsnr" v="520526" />
	</node>
	<node id="-51656" lat="62.4433666703" lon="6.92092499063">
		<tag k="name" v="Dektene" />
		<tag k="natural" v="valley" />
		<tag k="place" v="locality" />
		<tag k="ssr:stedsnr" v="520515" />
	</node>
	<node id="-51651" lat="62.62666111" lon="6.6027805614">
		<tag k="name" v="Storåkerbakken" />
		<tag k="natural" v="slope" />
		<tag k="place" v="locality" />
		<tag k="ssr:stedsnr" v="519416" />
	</node>
	<node id="-51650" lat="62.6277305587" lon="6.60938611133">
		<tag k="name" v="Bakken" />
		<tag k="natural" v="slope" />
		<tag k="place" v="locality" />
		<tag k="ssr:stedsnr" v="519415" />
	</node>
	<node id="-50957" lat="62.4629388892" lon="6.85436388054">
		<tag k="fixme" v="consider natural=peak for the most distinct mountains in the district" />
		<tag k="name" v="Skarbøhammaren" />
		<tag k="natural" v="hill" />
		<tag k="place" v="locality" />
		<tag k="ssr:stedsnr" v="278623" />
	</node>
	<node id="-51639" lat="62.688608329" lon="6.24071110771">
		<tag k="fixme" v="consider natural=peak for the most distinct mountains in the district" />
		<tag k="name" v="Husfjellet" />
		<tag k="natural" v="hill" />
		<tag k="place" v="locality" />
		<tag k="ssr:stedsnr" v="497922" />
	</node>
	<node id="-51637" lat="62.5098416648" lon="6.87905555001">
		<tag k="name" v="Landeheia" />
		<tag k="natural" v="slope" />
		<tag k="place" v="locality" />
		<tag k="ssr:stedsnr" v="497853" />
	</node>
	<node id="-51630" lat="62.5628694457" lon="6.51400556457">
		<tag k="name" v="Klubben" />
		<tag k="natural" v="hill" />
		<tag k="place" v="locality" />
		<tag k="ssr:stedsnr" v="497263" />
	</node>
	<node id="-51627" lat="62.5108416701" lon="6.39939444022">
		<tag k="name" v="Ellingshaugen" />
		<tag k="natural" v="hill" />
		<tag k="place" v="locality" />
		<tag k="ssr:stedsnr" v="497133" />
	</node>
	<node id="-51623" lat="62.5379472184" lon="6.7497777753">
		<tag k="name" v="Kvitnakken" />
		<tag k="natural" v="hill" />
		<tag k="place" v="locality" />
		<tag k="ssr:stedsnr" v="496909" />
	</node>
	<node id="-51621" lat="62.4915777774" lon="6.95470555058">
		<tag k="name" v="Kolda" />
		<tag k="place" v="locality" />
		<tag k="ssr:stedsnr" v="496319" />
	</node>
	<node id="-51617" lat="62.4949861157" lon="6.46907500497">
		<tag k="fixme" v="consider natural=peak for the most distinct mountains in the district" />
		<tag k="name" v="Hornet" />
		<tag k="natural" v="hill" />
		<tag k="place" v="locality" />
		<tag k="ssr:stedsnr" v="496261" />
	</node>
	<node id="-51616" lat="62.5400583329" lon="6.41005278619">
		<tag k="name" v="Trøskaret" />
		<tag k="natural" v="valley" />
		<tag k="place" v="locality" />
		<tag k="ssr:stedsnr" v="496259" />
	</node>
	<node id="-51615" lat="62.5454805536" lon="6.49579167625">
		<tag k="fixme" v="consider natural=peak for the most distinct mountains in the district" />
		<tag k="name" v="Øygardsheia" />
		<tag k="natural" v="hill" />
		<tag k="old_name" v="Øydegardsheia" />
		<tag k="place" v="locality" />
		<tag k="ssr:stedsnr" v="496258" />
	</node>
	<node id="-51613" lat="62.4858999961" lon="6.44016110436">
		<tag k="name" v="Demma" />
		<tag k="natural" v="valley" />
		<tag k="place" v="locality" />
		<tag k="ssr:stedsnr" v="496253" />
	</node>
	<node id="-51612" lat="62.5065027757" lon="6.70731944282">
		<tag k="name" v="Klubben" />
		<tag k="natural" v="hill" />
		<tag k="place" v="locality" />
		<tag k="ssr:stedsnr" v="496105" />
	</node>
	<node id="-50956" lat="62.51744722" lon="6.93018610325">
		<tag k="name" v="Reset" />
		<tag k="natural" v="slope" />
		<tag k="place" v="locality" />
		<tag k="ssr:stedsnr" v="278620" />
	</node>
	<node id="-51609" lat="62.7389777757" lon="6.44981943714">
		<tag k="name" v="Harøyburet" />
		<tag k="natural" v="hill" />
		<tag k="place" v="locality" />
		<tag k="ssr:stedsnr" v="679837" />
	</node>
	<node id="-51605" lat="62.7016861098" lon="6.39619166802">
		<tag k="fixme" v="consider natural=peak for the most distinct mountains in the district" />
		<tag k="name" v="Æafjellet" />
		<tag k="natural" v="hill" />
		<tag k="place" v="locality" />
		<tag k="ssr:stedsnr" v="679924" />
	</node>
	<node id="-51602" lat="62.5731249993" lon="6.78083612078">
		<tag k="name" v="Reset" />
		<tag k="natural" v="valley" />
		<tag k="place" v="locality" />
		<tag k="ssr:stedsnr" v="679892" />
	</node>
	<node id="-50925" lat="62.6142166676" lon="6.46240832955">
		<tag k="name" v="Hesthammaren" />
		<tag k="natural" v="hill" />
		<tag k="place" v="locality" />
		<tag k="ssr:stedsnr" v="276855" />
	</node>
	<node id="-50242" lat="62.7421166683" lon="6.45640277503">
		<tag k="name" v="Breidalen" />
		<tag k="natural" v="valley" />
		<tag k="place" v="locality" />
		<tag k="ssr:stedsnr" v="72836" />
	</node>
	<node id="-51588" lat="62.564149997" lon="6.68145278382">
		<tag k="fixme" v="consider natural=peak for the most distinct mountains in the district" />
		<tag k="name" v="Storbakken" />
		<tag k="natural" v="hill" />
		<tag k="place" v="locality" />
		<tag k="ssr:stedsnr" v="679239" />
	</node>
	<node id="-51587" lat="62.5619333335" lon="6.57159166724">
		<tag k="fixme" v="consider natural=peak for the most distinct mountains in the district" />
		<tag k="name" v="Eidsvikheia" />
		<tag k="natural" v="hill" />
		<tag k="place" v="locality" />
		<tag k="ssr:stedsnr" v="679235" />
	</node>
	<node id="-51585" lat="62.559647225" lon="6.3642166691">
		<tag k="alt_name" v="Tverrberget" />
		<tag k="fixme" v="consider natural=peak for the most distinct mountains in the district" />
		<tag k="name" v="Tverrfjellet" />
		<tag k="natural" v="hill" />
		<tag k="place" v="locality" />
		<tag k="ssr:stedsnr" v="679227" />
	</node>
	<node id="-51581" lat="62.5866861112" lon="6.35863610401">
		<tag k="name" v="Hildrelia" />
		<tag k="natural" v="slope" />
		<tag k="place" v="locality" />
		<tag k="ssr:stedsnr" v="679336" />
	</node>
	<node id="-50817" lat="62.7560972186" lon="6.38297222869">
		<tag k="name" v="Høgværhaugen" />
		<tag k="natural" v="hill" />
		<tag k="place" v="locality" />
		<tag k="ssr:stedsnr" v="456947" />
	</node>
	<node id="-51576" lat="62.5849194429" lon="6.64647222271">
		<tag k="fixme" v="consider natural=peak for the most distinct mountains in the district" />
		<tag k="name" v="Hovsetheia" />
		<tag k="natural" v="hill" />
		<tag k="place" v="locality" />
		<tag k="ssr:stedsnr" v="679273" />
	</node>
	<node id="-51574" lat="62.5234027759" lon="6.51263055118">
		<tag k="fixme" v="consider natural=peak for the most distinct mountains in the district" />
		<tag k="name" v="Stavsetfjellet" />
		<tag k="natural" v="hill" />
		<tag k="place" v="locality" />
		<tag k="ssr:stedsnr" v="679151" />
	</node>
	<node id="-50921" lat="62.5496416684" lon="6.57207777471">
		<tag k="name" v="Sætreskaret" />
		<tag k="natural" v="valley" />
		<tag k="place" v="locality" />
		<tag k="ssr:stedsnr" v="276611" />
	</node>
	<node id="-51562" lat="62.5684555512" lon="6.4062388883">
		<tag k="name" v="Gjersetskåla" />
		<tag k="natural" v="valley" />
		<tag k="place" v="locality" />
		<tag k="ssr:stedsnr" v="678334" />
	</node>
	<node id="-51559" lat="62.4864249967" lon="6.7690916607">
		<tag k="alt_name" v="Vetafjellet" />
		<tag k="name" v="Veten" />
		<tag k="natural" v="hill" />
		<tag k="place" v="locality" />
		<tag k="ssr:stedsnr" v="678321" />
	</node>
	<node id="-50576" lat="62.4662499993" lon="6.26998054895">
		<tag k="name" v="Vandberg" />
		<tag k="natural" v="hill" />
		<tag k="place" v="locality" />
		<tag k="ssr:stedsnr" v="280977" />
	</node>
	<node id="-50613" lat="62.6013277795" lon="6.65413611126">
		<tag k="name" v="Harfloget" />
		<tag k="natural" v="hill" />
		<tag k="place" v="locality" />
		<tag k="ssr:stedsnr" v="193410" />
	</node>
	<node id="-50233" lat="62.6194083353" lon="6.63498332507">
		<tag k="name" v="Geitstigskaret" />
		<tag k="natural" v="valley" />
		<tag k="place" v="locality" />
		<tag k="ssr:stedsnr" v="72430" />
	</node>
	<node id="-50915" lat="62.6148666666" lon="6.73486667004">
		<tag k="name" v="Steinrabben" />
		<tag k="place" v="locality" />
		<tag k="ssr:stedsnr" v="276452" />
	</node>
	<node id="-51533" lat="62.4839027762" lon="6.41332777736">
		<tag k="name" v="Ospenakken" />
		<tag k="natural" v="ridge" />
		<tag k="place" v="locality" />
		<tag k="ssr:stedsnr" v="463654" />
	</node>
	<node id="-51532" lat="62.4684194431" lon="6.33379166895">
		<tag k="fixme" v="consider natural=peak for the most distinct mountains in the district" />
		<tag k="name" v="Åsemulen" />
		<tag k="natural" v="hill" />
		<tag k="place" v="locality" />
		<tag k="ssr:stedsnr" v="462969" />
	</node>
	<node id="-51531" lat="62.4968361129" lon="6.27094722611">
		<tag k="name" v="Reset" />
		<tag k="natural" v="ridge" />
		<tag k="place" v="locality" />
		<tag k="ssr:stedsnr" v="462964" />
	</node>
	<node id="-50885" lat="62.8196194435" lon="6.58006944108">
		<tag k="name" v="Buhaugen" />
		<tag k="natural" v="hill" />
		<tag k="place" v="locality" />
		<tag k="ssr:stedsnr" v="274114" />
	</node>
	<node id="-50135" lat="62.4853277787" lon="6.6263472158">
		<tag k="name" v="Nonsstomnen" />
		<tag k="place" v="locality" />
		<tag k="ssr:stedsnr" v="35423" />
	</node>
	<node id="-50953" lat="62.5021138863" lon="6.9259666756">
		<tag k="name" v="Heia" />
		<tag k="natural" v="slope" />
		<tag k="place" v="locality" />
		<tag k="ssr:stedsnr" v="278612" />
	</node>
	<node id="-51519" lat="62.7466999968" lon="6.45072222178">
		<tag k="name" v="Brenslehaugen" />
		<tag k="natural" v="hill" />
		<tag k="place" v="locality" />
		<tag k="ssr:stedsnr" v="457461" />
	</node>
	<node id="-50569" lat="62.4477861124" lon="6.44818611609">
		<tag k="name" v="Bjørnenakken" />
		<tag k="natural" v="ridge" />
		<tag k="place" v="locality" />
		<tag k="ssr:stedsnr" v="280566" />
	</node>
	<node id="-50225" lat="62.5915222216" lon="6.67618332506">
		<tag k="name" v="Halsen" />
		<tag k="natural" v="ridge" />
		<tag k="place" v="locality" />
		<tag k="ssr:stedsnr" v="72333" />
	</node>
	<node id="-51488" lat="62.5823611116" lon="6.72540832508">
		<tag k="name" v="Trollhola" />
		<tag k="natural" v="valley" />
		<tag k="place" v="locality" />
		<tag k="ssr:stedsnr" v="519496" />
	</node>
	<node id="-51486" lat="62.5651166683" lon="6.43548611565">
		<tag k="name" v="Storlyfthammaren" />
		<tag k="natural" v="cliff" />
		<tag k="ssr:stedsnr" v="519419" />
	</node>
	<node id="-51485" lat="62.6157499986" lon="6.72128889504">
		<tag k="name" v="Heiarøra" />
		<tag k="natural" v="ridge" />
		<tag k="place" v="locality" />
		<tag k="ssr:stedsnr" v="519399" />
	</node>
	<node id="-51484" lat="62.6275000009" lon="6.59909444016">
		<tag k="name" v="Stølshaugen" />
		<tag k="natural" v="hill" />
		<tag k="place" v="locality" />
		<tag k="ssr:stedsnr" v="519388" />
	</node>
	<node id="-51483" lat="62.6286444414" lon="6.60024445362">
		<tag k="name" v="Langhaugen" />
		<tag k="natural" v="hill" />
		<tag k="place" v="locality" />
		<tag k="ssr:stedsnr" v="519387" />
	</node>
	<node id="-51480" lat="62.6227027782" lon="6.63846111003">
		<tag k="name" v="Hjellane" />
		<tag k="place" v="locality" />
		<tag k="ssr:stedsnr" v="519211" />
	</node>
	<node id="-50406" lat="62.7651926589" lon="6.4171795991">
		<tag k="name" v="Trøhaugen" />
		<tag k="natural" v="hill" />
		<tag k="place" v="locality" />
		<tag k="ssr:stedsnr" v="274547" />
	</node>
	<node id="-50065" lat="62.5051416686" lon="6.86182499204">
		<tag k="name" v="Sjøholtheia" />
		<tag k="natural" v="slope" />
		<tag k="place" v="locality" />
		<tag k="ssr:stedsnr" v="217566" />
	</node>
	<node id="-51474" lat="62.7032055553" lon="6.38663055606">
		<tag k="name" v="Durmålshaugane" />
		<tag k="natural" v="hill" />
		<tag k="place" v="locality" />
		<tag k="ssr:stedsnr" v="518946" />
	</node>
	<node id="-51472" lat="62.6063361088" lon="6.40345278278">
		<tag k="name" v="Blomdalen" />
		<tag k="natural" v="valley" />
		<tag k="place" v="locality" />
		<tag k="ssr:stedsnr" v="518923" />
	</node>
	<node id="-52144" lat="62.5712333357" lon="6.28344444804">
		<tag k="name" v="Nakken" />
		<tag k="place" v="locality" />
		<tag k="ssr:stedsnr" v="882854" />
	</node>
	<node id="-50951" lat="62.4506777751" lon="6.90244166001">
		<tag k="name" v="Stomn" />
		<tag k="place" v="locality" />
		<tag k="ssr:stedsnr" v="278605" />
	</node>
	<node id="-50902" lat="62.6872638866" lon="6.27705833361">
		<tag k="name" v="Støhalsen" />
		<tag k="natural" v="ridge" />
		<tag k="place" v="locality" />
		<tag k="ssr:stedsnr" v="275402" />
	</node>
	<node id="-50901" lat="62.4757805568" lon="6.81418611451">
		<tag k="name" v="Klokkarberget" />
		<tag k="natural" v="hill" />
		<tag k="place" v="locality" />
		<tag k="ssr:stedsnr" v="275270" />
	</node>
	<node id="-51452" lat="62.5833583302" lon="6.28743055836">
		<tag k="name" v="Hurlalia" />
		<tag k="natural" v="slope" />
		<tag k="place" v="locality" />
		<tag k="ssr:stedsnr" v="436352" />
	</node>
	<node id="-51450" lat="62.4715749961" lon="7.01532221478">
		<tag k="alt_name" v="Mjågskaret" />
		<tag k="name" v="Mjogskardet" />
		<tag k="natural" v="valley" />
		<tag k="place" v="locality" />
		<tag k="ssr:stedsnr" v="436308" />
	</node>
	<node id="-51447" lat="62.5400444413" lon="6.48502500793">
		<tag k="fixme" v="consider natural=peak for the most distinct mountains in the district" />
		<tag k="name" v="Hagenakken" />
		<tag k="natural" v="hill" />
		<tag k="place" v="locality" />
		<tag k="ssr:stedsnr" v="436225" />
	</node>
	<node id="-51441" lat="62.6576083299" lon="6.19210832862">
		<tag k="name" v="Sæberget" />
		<tag k="natural" v="hill" />
		<tag k="place" v="locality" />
		<tag k="ssr:stedsnr" v="518477" />
	</node>
	<node id="-51439" lat="62.4387496006" lon="6.48733115226">
		<tag k="fixme" v="consider natural=peak for the most distinct mountains in the district" />
		<tag k="name" v="Storenakken" />
		<tag k="natural" v="hill" />
		<tag k="place" v="locality" />
		<tag k="ssr:stedsnr" v="435108" />
	</node>
	<node id="-51436" lat="62.5582805568" lon="6.25682777738">
		<tag k="name" v="Terøyskaret" />
		<tag k="natural" v="valley" />
		<tag k="place" v="locality" />
		<tag k="ssr:stedsnr" v="518287" />
	</node>
	<node id="-51432" lat="62.6884277806" lon="6.25751944122">
		<tag k="name" v="Sandvikhaugane" />
		<tag k="natural" v="hill" />
		<tag k="place" v="locality" />
		<tag k="ssr:stedsnr" v="517618" />
	</node>
	<node id="-51430" lat="62.6437888883" lon="6.24726388619">
		<tag k="name" v="Kanteraua" />
		<tag k="place" v="locality" />
		<tag k="ssr:stedsnr" v="517581" />
	</node>
	<node id="-51428" lat="62.7682194442" lon="6.41666666494">
		<tag k="name" v="Vasshaugen" />
		<tag k="natural" v="hill" />
		<tag k="place" v="locality" />
		<tag k="ssr:stedsnr" v="517569" />
	</node>
	<node id="-51427" lat="62.7656388863" lon="6.41873055291">
		<tag k="name" v="Bolthaugen" />
		<tag k="natural" v="hill" />
		<tag k="place" v="locality" />
		<tag k="ssr:stedsnr" v="517567" />
	</node>
	<node id="-51426" lat="62.614952777" lon="6.20241388423">
		<tag k="name" v="Hagardsgjølet" />
		<tag k="natural" v="valley" />
		<tag k="place" v="locality" />
		<tag k="ssr:stedsnr" v="517564" />
	</node>
	<node id="-50555" lat="62.4648944433" lon="6.77625278706">
		<tag k="name" v="Kjelane" />
		<tag k="natural" v="slope" />
		<tag k="place" v="locality" />
		<tag k="ssr:stedsnr" v="278981" />
	</node>
	<node id="-51424" lat="62.6821749994" lon="6.17256111963">
		<tag k="name" v="Hornhamaren" />
		<tag k="natural" v="hill" />
		<tag k="place" v="locality" />
		<tag k="ssr:stedsnr" v="517532" />
	</node>
	<node id="-51419" lat="62.7476333357" lon="6.4640194438">
		<tag k="name" v="Tonderåshaugan" />
		<tag k="natural" v="hill" />
		<tag k="place" v="locality" />
		<tag k="ssr:stedsnr" v="517448" />
	</node>
	<node id="-51418" lat="62.6763861097" lon="6.27283888159">
		<tag k="name" v="Slettene" />
		<tag k="natural" v="slope" />
		<tag k="place" v="locality" />
		<tag k="ssr:stedsnr" v="517415" />
	</node>
	<node id="-51417" lat="62.6571888926" lon="6.19802223008">
		<tag k="name" v="Kyrkjeryggen" />
		<tag k="natural" v="ridge" />
		<tag k="place" v="locality" />
		<tag k="ssr:stedsnr" v="517396" />
	</node>
	<node id="-51416" lat="62.7461194401" lon="6.43392777467">
		<tag k="name" v="Nausthaugen" />
		<tag k="natural" v="hill" />
		<tag k="place" v="locality" />
		<tag k="ssr:stedsnr" v="517342" />
	</node>
	<node id="-51414" lat="62.6787166663" lon="6.19750833372">
		<tag k="name" v="Brisingberget" />
		<tag k="natural" v="hill" />
		<tag k="place" v="locality" />
		<tag k="ssr:stedsnr" v="517316" />
	</node>
	<node id="-51409" lat="62.693458336" lon="6.23251665717">
		<tag k="name" v="Arhaugen" />
		<tag k="natural" v="hill" />
		<tag k="place" v="locality" />
		<tag k="ssr:stedsnr" v="517297" />
	</node>
	<node id="-51403" lat="62.7720027816" lon="6.42789445018">
		<tag k="name" v="Trøhaugen" />
		<tag k="natural" v="hill" />
		<tag k="place" v="locality" />
		<tag k="ssr:stedsnr" v="517154" />
	</node>
	<node id="-50551" lat="62.4804500028" lon="6.70893056387">
		<tag k="name" v="Sandgota" />
		<tag k="natural" v="ridge" />
		<tag k="place" v="locality" />
		<tag k="ssr:stedsnr" v="278732" />
	</node>
	<node id="-51397" lat="62.7824444436" lon="6.46064167191">
		<tag k="name" v="Nebithaugen" />
		<tag k="natural" v="hill" />
		<tag k="place" v="locality" />
		<tag k="ssr:stedsnr" v="517035" />
	</node>
	<node id="-51395" lat="62.7589083358" lon="6.40465277569">
		<tag k="name" v="Hellesundhaugen" />
		<tag k="natural" v="hill" />
		<tag k="place" v="locality" />
		<tag k="ssr:stedsnr" v="516108" />
	</node>
	<node id="-51390" lat="62.5710722257" lon="6.58968333045">
		<tag k="name" v="Bjørnestien" />
		<tag k="natural" v="valley" />
		<tag k="place" v="locality" />
		<tag k="ssr:stedsnr" v="519817" />
	</node>
	<node id="-50888" lat="62.7422777796" lon="6.43374165775">
		<tag k="name" v="Skomelshaugen" />
		<tag k="natural" v="hill" />
		<tag k="place" v="locality" />
		<tag k="ssr:stedsnr" v="274285" />
	</node>
	<node id="-51369" lat="62.4758194424" lon="6.2067194456">
		<tag k="name" v="Kråkeskar" />
		<tag k="natural" v="hill" />
		<tag k="place" v="locality" />
		<tag k="ssr:stedsnr" v="299234" />
	</node>
	<node id="-51368" lat="62.4673499974" lon="6.50477221832">
		<tag k="name" v="Gråsteinsegga" />
		<tag k="natural" v="ridge" />
		<tag k="place" v="locality" />
		<tag k="ssr:stedsnr" v="402722" />
	</node>
	<node id="-51367" lat="62.4702611128" lon="6.10601389291">
		<tag k="fixme" v="consider natural=peak for the most distinct mountains in the district" />
		<tag k="name" v="Storhaugen" />
		<tag k="natural" v="hill" />
		<tag k="place" v="locality" />
		<tag k="ssr:stedsnr" v="402714" />
	</node>
	<node id="-51365" lat="62.4492527768" lon="6.36604443487">
		<tag k="name" v="Langdalen" />
		<tag k="natural" v="valley" />
		<tag k="place" v="locality" />
		<tag k="ssr:stedsnr" v="402654" />
	</node>
	<node id="-51363" lat="62.4797194415" lon="6.59202499539">
		<tag k="name" v="Akslene" />
		<tag k="natural" v="ridge" />
		<tag k="place" v="locality" />
		<tag k="ssr:stedsnr" v="399007" />
	</node>
	<node id="-51362" lat="62.5093583322" lon="6.6670166689">
		<tag k="name" v="Brauta" />
		<tag k="natural" v="slope" />
		<tag k="place" v="locality" />
		<tag k="ssr:stedsnr" v="399005" />
	</node>
	<node id="-50544" lat="62.4839416699" lon="6.7795638921">
		<tag k="name" v="Furnakken" />
		<tag k="natural" v="ridge" />
		<tag k="place" v="locality" />
		<tag k="ssr:stedsnr" v="278676" />
	</node>
	<node id="-51357" lat="62.7524361153" lon="6.36790277929">
		<tag k="name" v="Nøre Svelingshaugen" />
		<tag k="natural" v="hill" />
		<tag k="place" v="locality" />
		<tag k="ssr:stedsnr" v="395914" />
	</node>
	<node id="-51356" lat="62.7845527811" lon="6.45477222519">
		<tag k="name" v="Sevikhaugen" />
		<tag k="natural" v="hill" />
		<tag k="place" v="locality" />
		<tag k="ssr:stedsnr" v="395029" />
	</node>
	<node id="-51353" lat="62.5260249995" lon="6.56215278208">
		<tag k="alt_name" v="Kleivane" />
		<tag k="name" v="Kleiva" />
		<tag k="natural" v="slope" />
		<tag k="place" v="locality" />
		<tag k="ssr:stedsnr" v="519689" />
	</node>
	<node id="-51349" lat="62.8254805592" lon="6.58313889112">
		<tag k="name" v="Varden" />
		<tag k="natural" v="hill" />
		<tag k="place" v="locality" />
		<tag k="ssr:stedsnr" v="376403" />
	</node>
	<node id="-51348" lat="62.5606361112" lon="6.69437776819">
		<tag k="name" v="Vatnedalen" />
		<tag k="natural" v="valley" />
		<tag k="place" v="locality" />
		<tag k="ssr:stedsnr" v="375868" />
	</node>
	<node id="-51347" lat="62.6845055583" lon="6.24443610307">
		<tag k="name" v="Nest-Haugen" />
		<tag k="natural" v="hill" />
		<tag k="place" v="locality" />
		<tag k="ssr:stedsnr" v="375865" />
	</node>
	<node id="-51345" lat="62.5072722261" lon="6.75528611677">
		<tag k="name" v="Langhaugane" />
		<tag k="natural" v="hill" />
		<tag k="place" v="locality" />
		<tag k="ssr:stedsnr" v="375856" />
	</node>
	<node id="-51344" lat="62.5120555577" lon="6.78716667289">
		<tag k="name" v="Sætrelia" />
		<tag k="natural" v="slope" />
		<tag k="place" v="locality" />
		<tag k="ssr:stedsnr" v="375854" />
	</node>
	<node id="-51343" lat="62.5488166667" lon="6.82720834211">
		<tag k="name" v="Dyrlia" />
		<tag k="natural" v="slope" />
		<tag k="place" v="locality" />
		<tag k="ssr:stedsnr" v="375912" />
	</node>
	<node id="-51342" lat="62.5318999973" lon="6.97851388189">
		<tag k="fixme" v="consider natural=peak for the most distinct mountains in the district" />
		<tag k="name" v="Varguraksla" />
		<tag k="natural" v="hill" />
		<tag k="place" v="locality" />
		<tag k="ssr:stedsnr" v="375802" />
	</node>
	<node id="-50199" lat="62.5994250023" lon="6.73861945228">
		<tag k="name" v="Skjerdingan" />
		<tag k="natural" v="mountain_range" />
		<tag k="ssr:stedsnr" v="239459" />
	</node>
	<node id="-51336" lat="62.5773722266" lon="6.29369166099">
		<tag k="name" v="Kvarven" />
		<tag k="natural" v="hill" />
		<tag k="place" v="locality" />
		<tag k="ssr:stedsnr" v="375306" />
	</node>
	<node id="-50881" lat="62.537355552" lon="6.63898889865">
		<tag k="name" v="Klokksetnakken" />
		<tag k="natural" v="hill" />
		<tag k="place" v="locality" />
		<tag k="ssr:stedsnr" v="458678" />
	</node>
	<node id="-51329" lat="62.5579555519" lon="6.44515834161">
		<tag k="fixme" v="consider natural=peak for the most distinct mountains in the district" />
		<tag k="name" v="Håvikhornet" />
		<tag k="natural" v="hill" />
		<tag k="place" v="locality" />
		<tag k="ssr:stedsnr" v="375224" />
	</node>
	<node id="-50060" lat="62.4702027764" lon="6.8053222209">
		<tag k="name" v="Skråvikhammaren" />
		<tag k="natural" v="cliff" />
		<tag k="ssr:stedsnr" v="217655" />
	</node>
	<node id="-51325" lat="62.5450833315" lon="6.64537778441">
		<tag k="name" v="Skarskleiva" />
		<tag k="natural" v="valley" />
		<tag k="place" v="locality" />
		<tag k="ssr:stedsnr" v="375157" />
	</node>
	<node id="-51323" lat="62.5032777756" lon="6.24478888126">
		<tag k="name" v="Ramneskaret" />
		<tag k="natural" v="valley" />
		<tag k="place" v="locality" />
		<tag k="ssr:stedsnr" v="375106" />
	</node>
	<node id="-51322" lat="62.5190694454" lon="6.67178332562">
		<tag k="name" v="Markadelda" />
		<tag k="natural" v="valley" />
		<tag k="place" v="locality" />
		<tag k="ssr:stedsnr" v="375103" />
	</node>
	<node id="-51320" lat="62.457036113" lon="6.89742500651">
		<tag k="fixme" v="consider natural=peak for the most distinct mountains in the district" />
		<tag k="name" v="Solliåsen" />
		<tag k="natural" v="hill" />
		<tag k="place" v="locality" />
		<tag k="ssr:stedsnr" v="374367" />
	</node>
	<node id="-51318" lat="62.4641722196" lon="6.79841110775">
		<tag k="name" v="Høghaugen" />
		<tag k="natural" v="hill" />
		<tag k="place" v="locality" />
		<tag k="ssr:stedsnr" v="374358" />
	</node>
	<node id="-51315" lat="62.6670249961" lon="6.28526388901">
		<tag k="name" v="Stølshaugane" />
		<tag k="natural" v="hill" />
		<tag k="place" v="locality" />
		<tag k="ssr:stedsnr" v="497983" />
	</node>
	<node id="-51312" lat="62.6129305596" lon="6.75143054704">
		<tag k="name" v="Langedalen" />
		<tag k="natural" v="valley" />
		<tag k="place" v="locality" />
		<tag k="ssr:stedsnr" v="497956" />
	</node>
	<node id="-51303" lat="62.5655126397" lon="6.80703782779">
		<tag k="alt_name" v="Nedste Egga" />
		<tag k="fixme" v="consider natural=peak for the most distinct mountains in the district" />
		<tag k="name" v="Svartvassegga" />
		<tag k="natural" v="hill" />
		<tag k="place" v="locality" />
		<tag k="ssr:stedsnr" v="497869" />
	</node>
	<node id="-51302" lat="62.6867111101" lon="6.25290833056">
		<tag k="name" v="Sakshamaren" />
		<tag k="natural" v="hill" />
		<tag k="place" v="locality" />
		<tag k="ssr:stedsnr" v="497868" />
	</node>
	<node id="-51297" lat="62.6257694483" lon="6.70975832697">
		<tag k="name" v="Breiskaret" />
		<tag k="natural" v="valley" />
		<tag k="place" v="locality" />
		<tag k="ssr:stedsnr" v="497430" />
	</node>
	<node id="-50532" lat="62.5128250019" lon="6.61101111549">
		<tag k="name" v="Langhaugane" />
		<tag k="natural" v="hill" />
		<tag k="place" v="locality" />
		<tag k="ssr:stedsnr" v="278534" />
	</node>
	<node id="-51285" lat="62.5915305568" lon="6.66108332863">
		<tag k="name" v="Trollkufta" />
		<tag k="natural" v="valley" />
		<tag k="place" v="locality" />
		<tag k="ssr:stedsnr" v="497354" />
	</node>
	<node id="-51281" lat="62.5788583314" lon="6.39236111362">
		<tag k="fixme" v="consider natural=peak for the most distinct mountains in the district" />
		<tag k="name" v="Hestehaudet" />
		<tag k="natural" v="hill" />
		<tag k="place" v="locality" />
		<tag k="ssr:stedsnr" v="497337" />
	</node>
	<node id="-51274" lat="62.5404249986" lon="6.36157222292">
		<tag k="name" v="Grønebakkane" />
		<tag k="natural" v="slope" />
		<tag k="place" v="locality" />
		<tag k="ssr:stedsnr" v="497220" />
	</node>
	<node id="-51270" lat="62.5288750037" lon="6.60326944472">
		<tag k="fixme" v="consider natural=peak for the most distinct mountains in the district" />
		<tag k="name" v="Støråkfjellet" />
		<tag k="natural" v="hill" />
		<tag k="place" v="locality" />
		<tag k="ssr:stedsnr" v="497156" />
	</node>
	<node id="-51264" lat="62.5394555528" lon="6.76668888802">
		<tag k="name" v="Baklia" />
		<tag k="natural" v="slope" />
		<tag k="place" v="locality" />
		<tag k="ssr:stedsnr" v="496834" />
	</node>
	<node id="-51256" lat="62.5974472244" lon="6.51514721662">
		<tag k="name" v="Ævelsdalen" />
		<tag k="natural" v="valley" />
		<tag k="place" v="locality" />
		<tag k="ssr:stedsnr" v="496414" />
	</node>
	<node id="-52233" lat="62.4859583353" lon="6.79868611335">
		<tag k="name" v="Malmgruvene" />
		<tag k="place" v="locality" />
		<tag k="ssr:stedsnr" v="885596" />
	</node>
	<node id="-51252" lat="62.4807777805" lon="6.97586111827">
		<tag k="name" v="Kleggeskardet" />
		<tag k="natural" v="valley" />
		<tag k="place" v="locality" />
		<tag k="ssr:stedsnr" v="496343" />
	</node>
	<node id="-51250" lat="62.5636111132" lon="6.23626389684">
		<tag k="name" v="Bjørnøyvarden" />
		<tag k="natural" v="hill" />
		<tag k="place" v="locality" />
		<tag k="ssr:stedsnr" v="496331" />
	</node>
	<node id="-51246" lat="62.6117777804" lon="6.69931666502">
		<tag k="fixme" v="consider natural=peak for the most distinct mountains in the district" />
		<tag k="name" v="Byrkjevollhornet" />
		<tag k="natural" v="hill" />
		<tag k="place" v="locality" />
		<tag k="ssr:stedsnr" v="496480" />
	</node>
	<node id="-50866" lat="62.5602666642" lon="6.67735277981">
		<tag k="name" v="Svørabakken" />
		<tag k="natural" v="slope" />
		<tag k="place" v="locality" />
		<tag k="ssr:stedsnr" v="458415" />
	</node>
	<node id="-51235" lat="62.5441722181" lon="6.69907223091">
		<tag k="alt_name" v="Grasdalsåsen" />
		<tag k="fixme" v="consider natural=peak for the most distinct mountains in the district" />
		<tag k="name" v="Lassehaugåsen" />
		<tag k="natural" v="hill" />
		<tag k="place" v="locality" />
		<tag k="ssr:stedsnr" v="496220" />
	</node>
	<node id="-50864" lat="62.5618527742" lon="6.6917555613">
		<tag k="name" v="Orøybakken" />
		<tag k="natural" v="slope" />
		<tag k="place" v="locality" />
		<tag k="ssr:stedsnr" v="458409" />
	</node>
	<node id="-51219" lat="62.4379777745" lon="7.01423611256">
		<tag k="alt_name" v="Skurfjellet" />
		<tag k="fixme" v="multiple name tags, choose one and add the other to alt_name; consider natural=peak for the most distinct mountains in the district" />
		<tag k="name" v="Høgheia;Skurdfjellet" />
		<tag k="natural" v="hill" />
		<tag k="place" v="locality" />
		<tag k="ssr:stedsnr" v="495685" />
	</node>
	<node id="-51215" lat="62.5378833338" lon="6.72462223105">
		<tag k="name" v="Engsetdalen" />
		<tag k="natural" v="valley" />
		<tag k="place" v="locality" />
		<tag k="ssr:stedsnr" v="358964" />
	</node>
	<node id="-51202" lat="62.466713893" lon="6.57021666412">
		<tag k="name" v="Trøne" />
		<tag k="natural" v="valley" />
		<tag k="place" v="locality" />
		<tag k="ssr:stedsnr" v="338092" />
	</node>
</osm>
