<?xml version="1.0" encoding="UTF-8"?>
<osm version="0.6" generator="osmapis">
	<node lat="62.47902366506492" lon="6.812092819691052" id="-4844">
		<tag k="alt_name" v="Ørskog" />
		<tag k="amenity" v="place_of_worship" />
		<tag k="denomination" v="lutheran" />
		<tag k="name" v="Ørskog kyrkje" />
		<tag k="religion" v="christian" />
		<tag k="ssr:stedsnr" v="10297" />
	</node>
	<node lat="62.472108335651946" lon="6.156919437702663" id="-5137">
		<tag k="name" v="Ålesund museum" />
		<tag k="ssr:stedsnr" v="98572" />
		<tag k="tourism" v="attraction" />
	</node>
	<node lat="62.479188889602966" lon="6.188041669142552" id="-5310">
		<tag k="name" v="Siem" />
		<tag k="place" v="locality" />
		<tag k="ssr:stedsnr" v="165222" />
	</node>
	<node lat="62.466586112425134" lon="6.237663885728274" id="-5519">
		<tag k="name" v="Kaupangen" />
		<tag k="ssr:stedsnr" v="220748" />
		<tag k="tourism" v="attraction" />
	</node>
	<node lat="62.46630449544602" lon="6.233895431516319" id="-5551">
		<tag k="alt_name" v="Borgund kirke;Borgund" />
		<tag k="amenity" v="place_of_worship" />
		<tag k="denomination" v="lutheran" />
		<tag k="name" v="Borgund kyrkje" />
		<tag k="religion" v="christian" />
		<tag k="ssr:stedsnr" v="253018" />
	</node>
	<node lat="62.58202500303532" lon="6.622683327293368" id="-5926">
		<tag k="name" v="Haugstabburet" />
		<tag k="place" v="locality" />
		<tag k="ssr:stedsnr" v="337966" />
	</node>
	<node lat="62.471177774869346" lon="6.14571389873274" id="-5971">
		<tag k="amenity" v="place_of_worship" />
		<tag k="denomination" v="lutheran" />
		<tag k="name" v="Ålesund kirke" />
		<tag k="religion" v="christian" />
		<tag k="ssr:stedsnr" v="461650" />
	</node>
	<node lat="62.81873055791181" lon="6.584205551303461" id="-6519">
		<tag k="alt_name" v="Sandøy" />
		<tag k="amenity" v="place_of_worship" />
		<tag k="denomination" v="lutheran" />
		<tag k="loc_name" v="Sandøya" />
		<tag k="name" v="Sandøy kyrkje" />
		<tag k="religion" v="christian" />
		<tag k="ssr:stedsnr" v="679357" />
	</node>
	<node lat="62.65401666864349" lon="6.226519452642189" id="-6757">
		<tag k="amenity" v="community_centre" />
		<tag k="name" v="Fjelltun" />
		<tag k="ssr:stedsnr" v="638432" />
	</node>
	<node lat="62.50600529248547" lon="6.697166990948623" id="-6881">
		<tag k="amenity" v="place_of_worship" />
		<tag k="denomination" v="lutheran" />
		<tag k="name" v="Skodje kyrkje" />
		<tag k="religion" v="christian" />
		<tag k="ssr:stedsnr" v="678103" />
	</node>
	<node lat="62.52347500212218" lon="6.974380558119631" id="-7051">
		<tag k="alt_name" v="Steintaklødå" />
		<tag k="name" v="Steintakløå" />
		<tag k="place" v="locality" />
		<tag k="ssr:stedsnr" v="703619" />
	</node>
	<node lat="62.474863889206766" lon="6.232091675896524" id="-7072">
		<tag k="alt_name" v="Krematoriet" />
		<tag k="amenity" v="place_of_worship" />
		<tag k="fixme" v="specify religion=*, denomination=*, building=* etc" />
		<tag k="name" v="Ålesund Krematorium" />
		<tag k="ssr:stedsnr" v="706926" />
	</node>
	<node lat="62.82012500402769" lon="6.588474996916707" id="-7169">
		<tag k="amenity" v="community_centre" />
		<tag k="name" v="Kringsjå" />
		<tag k="ssr:stedsnr" v="760064" />
	</node>
	<node lat="62.531951187703825" lon="6.2688353494632745" id="-7282">
		<tag k="amenity" v="place_of_worship" />
		<tag k="denomination" v="lutheran" />
		<tag k="name" v="Hamnsund kyrkje" />
		<tag k="religion" v="christian" />
		<tag k="ssr:stedsnr" v="800203" />
	</node>
	<node lat="62.4680638928022" lon="6.234422227871028" id="-7425">
		<tag k="name" v="Sunnmøre museum" />
		<tag k="ssr:stedsnr" v="827589" />
		<tag k="tourism" v="museum" />
	</node>
	<node lat="62.761541638588554" lon="6.458595864160817" id="-7478">
		<tag k="alt_name" v="Harøy" />
		<tag k="amenity" v="place_of_worship" />
		<tag k="denomination" v="lutheran" />
		<tag k="name" v="Harøy kyrkje " />
		<tag k="religion" v="christian" />
		<tag k="ssr:stedsnr" v="861066" />
	</node>
	<node lat="62.46629721976914" lon="6.223780560893948" id="-8381">
		<tag k="name" v="Borgundgavlen" />
		<tag k="place" v="locality" />
		<tag k="ssr:stedsnr" v="98602" />
	</node>
	<node lat="62.47644999985248" lon="6.179333326385196" id="-8645">
		<tag k="name" v="Rundskue" />
		<tag k="ssr:stedsnr" v="159969" />
		<tag k="tourism" v="viewpoint" />
	</node>
	<node lat="62.47216667105173" lon="6.2294194414516735" id="-8647">
		<tag k="cemetery" v="grave" />
		<tag k="name" v="Nørve kirkegård" />
		<tag k="place" v="locality" />
		<tag k="ssr:stedsnr" v="159935" />
	</node>
	<node lat="62.50229999737659" lon="6.223069446726955" id="-8985">
		<tag k="name" v="Draget" />
		<tag k="place" v="locality" />
		<tag k="ssr:stedsnr" v="280968" />
	</node>
	<node lat="62.467725478633206" lon="6.347831424818673" id="-9007">
		<tag k="amenity" v="place_of_worship" />
		<tag k="denomination" v="lutheran" />
		<tag k="name" v="Spjelkavik kyrkje" />
		<tag k="religion" v="christian" />
		<tag k="ssr:stedsnr" v="284275" />
	</node>
	<node lat="62.49221428615228" lon="6.271553999209194" id="-9008">
		<tag k="amenity" v="place_of_worship" />
		<tag k="denomination" v="lutheran" />
		<tag k="name" v="Ellingsøy kyrkje" />
		<tag k="religion" v="christian" />
		<tag k="ssr:stedsnr" v="284283" />
	</node>
	<node lat="62.59159166732698" lon="6.442499997905933" id="-9177">
		<tag k="amenity" v="community_centre" />
		<tag k="name" v="Våghall" />
		<tag k="ssr:stedsnr" v="337526" />
	</node>
	<node lat="62.499930552819634" lon="6.6768722187061424" id="-9460">
		<tag k="name" v="Gommerrøysa" />
		<tag k="place" v="locality" />
		<tag k="ssr:stedsnr" v="399474" />
	</node>
	<node lat="62.610958044700936" lon="6.336401759700874" id="-9633">
		<tag k="amenity" v="place_of_worship" />
		<tag k="denomination" v="lutheran" />
		<tag k="name" v="Hildrestranda kyrkje" />
		<tag k="religion" v="christian" />
		<tag k="ssr:stedsnr" v="497443" />
	</node>
	<node lat="62.471430559313745" lon="6.188636113630459" id="-9668">
		<tag k="alt_name" v="Volsdalens  kirke;Volsdalen" />
		<tag k="amenity" v="place_of_worship" />
		<tag k="denomination" v="lutheran" />
		<tag k="name" v="Volsdalen kirke" />
		<tag k="religion" v="christian" />
		<tag k="ssr:stedsnr" v="505348" />
	</node>
	<node lat="62.465786792297074" lon="6.110646706307543" id="-10044">
		<tag k="amenity" v="place_of_worship" />
		<tag k="denomination" v="lutheran" />
		<tag k="name" v="Skarbøvik kirke" />
		<tag k="religion" v="christian" />
		<tag k="ssr:stedsnr" v="586225" />
	</node>
	<node lat="62.55463001057635" lon="6.606838189323508" id="-10087">
		<tag k="amenity" v="place_of_worship" />
		<tag k="denomination" v="lutheran" />
		<tag k="name" v="Vatne kyrkje" />
		<tag k="religion" v="christian" />
		<tag k="ssr:stedsnr" v="618179" />
	</node>
	<node lat="62.70609988226899" lon="6.374697693175542" id="-10147">
		<tag k="amenity" v="place_of_worship" />
		<tag k="denomination" v="lutheran" />
		<tag k="name" v="Fjørtoft kyrkje" />
		<tag k="religion" v="christian" />
		<tag k="ssr:stedsnr" v="618916" />
	</node>
	<node lat="62.631655034494926" lon="6.2733904307282895" id="-10784">
		<tag k="amenity" v="place_of_worship" />
		<tag k="denomination" v="lutheran" />
		<tag k="name" v="Haram kyrkje" />
		<tag k="religion" v="christian" />
		<tag k="ssr:stedsnr" v="801470" />
	</node>
	<node lat="62.6608833377641" lon="6.3232833377171636" id="-10813">
		<tag k="amenity" v="community_centre" />
		<tag k="name" v="Framtun" />
		<tag k="ssr:stedsnr" v="821629" />
	</node>
	<node lat="62.53430277521352" lon="6.422486120355481" id="-11168">
		<tag k="amenity" v="community_centre" />
		<tag k="name" v="Furulund" />
		<tag k="ssr:stedsnr" v="944777" />
	</node>
	<node lat="62.60200516400075" lon="6.441581709550208" id="-12312">
		<tag k="amenity" v="place_of_worship" />
		<tag k="denomination" v="lutheran" />
		<tag k="name" v="Brattvåg kyrkje" />
		<tag k="religion" v="christian" />
		<tag k="ssr:stedsnr" v="1083277" />
	</node>
	<node lat="62.60684308671984" lon="6.330853900597897" id="-12313">
		<tag k="amenity" v="place_of_worship" />
		<tag k="denomination" v="lutheran" />
		<tag k="name" v="Hildre kyrkje" />
		<tag k="religion" v="christian" />
		<tag k="ssr:stedsnr" v="1083279" />
	</node>
</osm>
