<?xml version="1.0" encoding="UTF-8"?>
<osm generator="osmapis" version="0.6">
	<node id="-8191" lat="62.6032138884" lon="6.34453332664">
		<tag k="name" v="Årøyane" />
		<tag k="place" v="island" />
		<tag k="ssr:stedsnr" v="95568" />
	</node>
	<node id="-8189" lat="62.5366305585" lon="6.40009443536">
		<tag k="name" v="Holmesetelva" />
		<tag k="ssr:stedsnr" v="95738" />
		<tag k="waterway" v="stream" />
	</node>
	<node id="-6127" lat="62.4908027776" lon="6.98418888198">
		<tag k="name" v="Kvanndalsvatnet" />
		<tag k="natural" v="water" />
		<tag k="ssr:stedsnr" v="678332" />
	</node>
	<node id="-6126" lat="62.5725250015" lon="6.47392777418">
		<tag k="name" v="Bjørlykksvora" />
		<tag k="ssr:stedsnr" v="678331" />
		<tag k="waterway" v="stream" />
	</node>
	<node id="-6124" lat="62.5695583334" lon="6.5463833305">
		<tag k="name" v="Fannevatnet" />
		<tag k="natural" v="water" />
		<tag k="ssr:stedsnr" v="678319" />
		<tag k="water" v="lake" />
	</node>
	<node id="-6121" lat="62.4773350612" lon="6.47152931967">
		<tag k="name" v="Brusdalsvatnet" />
		<tag k="natural" v="water" />
		<tag k="ssr:stedsnr" v="678244" />
		<tag k="water" v="lake" />
	</node>
	<node id="-8166" lat="62.5335861083" lon="6.59862778375">
		<tag k="name" v="Laksehølen" />
		<tag k="place" v="locality" />
		<tag k="ssr:stedsnr" v="94687" />
	</node>
	<node id="-8158" lat="62.6231305548" lon="6.71059999904">
		<tag k="name" v="Breiskarelva" />
		<tag k="ssr:stedsnr" v="94458" />
		<tag k="waterway" v="stream" />
	</node>
	<node id="-8150" lat="62.5917777754" lon="6.29486945178">
		<tag k="name" v="Kvennhuselva" />
		<tag k="ssr:stedsnr" v="93921" />
		<tag k="waterway" v="stream" />
	</node>
	<node id="-6095" lat="62.4434416705" lon="6.51945833765">
		<tag k="name" v="Eiteråna" />
		<tag k="ssr:stedsnr" v="462945" />
		<tag k="waterway" v="stream" />
	</node>
	<node id="-8129" lat="62.6845611087" lon="6.24808611504">
		<tag k="name" v="Mjølkegrova" />
		<tag k="ssr:stedsnr" v="93322" />
		<tag k="waterway" v="stream" />
	</node>
	<node id="-8128" lat="62.69250556" lon="6.23968333657">
		<tag k="name" v="Storetjønna" />
		<tag k="natural" v="water" />
		<tag k="ssr:stedsnr" v="93319" />
	</node>
	<node id="-8112" lat="62.743091663" lon="6.47673333992">
		<tag k="name" v="Kvitsteingrova" />
		<tag k="ssr:stedsnr" v="92460" />
		<tag k="waterway" v="stream" />
	</node>
	<node id="-8095" lat="62.4718138873" lon="6.23856944223">
		<tag k="name" v="Djupvikvatnet" />
		<tag k="natural" v="water" />
		<tag k="ssr:stedsnr" v="88922" />
		<tag k="water" v="lake" />
	</node>
	<node id="-7493" lat="62.5341944427" lon="6.82476389478">
		<tag k="name" v="Sævika" />
		<tag k="natural" v="bay" />
		<tag k="ssr:stedsnr" v="946381" />
	</node>
	<node id="-6044" lat="62.5594194411" lon="6.53820833009">
		<tag k="name" v="Langeneset" />
		<tag k="natural" v="cape" />
		<tag k="ssr:stedsnr" v="437269" />
	</node>
	<node id="-8091" lat="62.5307250016" lon="6.32588610838">
		<tag k="name" v="Grytastranda" />
		<tag k="natural" v="beach" />
		<tag k="ssr:stedsnr" v="81079" />
	</node>
	<node id="-6026" lat="62.5873083301" lon="6.34397222062">
		<tag k="name" v="Hildreelva" />
		<tag k="ssr:stedsnr" v="436376" />
		<tag k="waterway" v="river" />
	</node>
	<node id="-6015" lat="62.5491166676" lon="6.50221665998">
		<tag k="name" v="Øygardsvatnet" />
		<tag k="natural" v="water" />
		<tag k="ssr:stedsnr" v="436231" />
	</node>
	<node id="-8057" lat="62.5670861142" lon="6.5503833357">
		<tag k="name" v="Tunga" />
		<tag k="natural" v="cape" />
		<tag k="ssr:stedsnr" v="72297" />
	</node>
	<node id="-8049" lat="62.5667111107" lon="6.69680556347">
		<tag k="name" v="Sagåna" />
		<tag k="ssr:stedsnr" v="72262" />
		<tag k="waterway" v="stream" />
	</node>
	<node id="-8048" lat="62.5593222196" lon="6.55168332386">
		<tag k="name" v="Pålpina" />
		<tag k="natural" v="cape" />
		<tag k="ssr:stedsnr" v="72256" />
	</node>
	<node id="-5987" lat="62.749158335" lon="6.48196388097">
		<tag k="name" v="Malegrova" />
		<tag k="ssr:stedsnr" v="517460" />
		<tag k="waterway" v="stream" />
	</node>
	<node id="-8034" lat="62.5232500044" lon="6.70406944011">
		<tag k="name" v="Langneset" />
		<tag k="natural" v="cape" />
		<tag k="ssr:stedsnr" v="72122" />
	</node>
	<node id="-8346" lat="62.578338891" lon="6.64391667382">
		<tag k="name" v="Hovsetvatna" />
		<tag k="natural" v="water" />
		<tag k="ssr:stedsnr" v="133285" />
	</node>
	<node id="-5085" lat="62.4640972205" lon="6.53790555104">
		<tag k="name" v="Botnaelva" />
		<tag k="ssr:stedsnr" v="278417" />
		<tag k="waterway" v="stream" />
	</node>
	<node id="-5926" lat="62.658211109" lon="6.3271222204">
		<tag k="name" v="Larsdemma" />
		<tag k="natural" v="water" />
		<tag k="ssr:stedsnr" v="396602" />
	</node>
	<node id="-7966" lat="62.5074583369" lon="6.90073888028">
		<tag k="name" v="Søvik-Lars-øyna" />
		<tag k="place" v="island" />
		<tag k="ssr:stedsnr" v="35676" />
	</node>
	<node id="-7959" lat="62.5163416699" lon="6.96920000199">
		<tag k="name" v="Måsligrova" />
		<tag k="ssr:stedsnr" v="35597" />
		<tag k="waterway" v="stream" />
	</node>
	<node id="-7954" lat="62.5209583325" lon="6.63371111317">
		<tag k="name" v="Stetteelva" />
		<tag k="ssr:stedsnr" v="35551" />
		<tag k="waterway" v="river" />
	</node>
	<node id="-5905" lat="62.6122388928" lon="6.56369999745">
		<tag k="name" v="Ryggelva" />
		<tag k="ssr:stedsnr" v="375373" />
		<tag k="waterway" v="stream" />
	</node>
	<node id="-7947" lat="62.5356555551" lon="6.69717222218">
		<tag k="name" v="Lassehaugtjønna" />
		<tag k="natural" v="water" />
		<tag k="ssr:stedsnr" v="35499" />
	</node>
	<node id="-5886" lat="62.466052782" lon="6.96411389627">
		<tag k="name" v="Heimsteelva" />
		<tag k="ssr:stedsnr" v="374361" />
		<tag k="waterway" v="stream" />
	</node>
	<node id="-5076" lat="62.4959805571" lon="6.50541110287">
		<tag k="name" v="Insteelva" />
		<tag k="ssr:stedsnr" v="278309" />
		<tag k="waterway" v="stream" />
	</node>
	<node id="-5878" lat="62.5747277803" lon="6.75128055364">
		<tag k="name" v="Hundåna" />
		<tag k="ssr:stedsnr" v="497895" />
		<tag k="waterway" v="stream" />
	</node>
	<node id="-5877" lat="62.5752666633" lon="6.7280138881">
		<tag k="name" v="Bergelva" />
		<tag k="ssr:stedsnr" v="497892" />
		<tag k="waterway" v="stream" />
	</node>
	<node id="-7924" lat="62.5092222233" lon="6.6279305577">
		<tag k="name" v="Nøretjønna" />
		<tag k="natural" v="water" />
		<tag k="ssr:stedsnr" v="35047" />
	</node>
	<node id="-7923" lat="62.4894055533" lon="6.47307778632">
		<tag k="name" v="Lillevatnet" />
		<tag k="natural" v="water" />
		<tag k="ssr:stedsnr" v="35045" />
	</node>
	<node id="-7921" lat="62.4846611144" lon="6.5499138925">
		<tag k="name" v="Olvika" />
		<tag k="natural" v="bay" />
		<tag k="ssr:stedsnr" v="35037" />
	</node>
	<node id="-7918" lat="62.4896916699" lon="6.62934166142">
		<tag k="name" v="Einaelva" />
		<tag k="ssr:stedsnr" v="35018" />
		<tag k="waterway" v="stream" />
	</node>
	<node id="-7900" lat="62.5350916706" lon="6.42966388228">
		<tag k="name" v="Daleelva" />
		<tag k="ssr:stedsnr" v="34407" />
		<tag k="waterway" v="stream" />
	</node>
	<node id="-5837" lat="62.5266611139" lon="6.69527221246">
		<tag k="alt_name" v="Storholmen" />
		<tag k="name" v="Kasnesholmen" />
		<tag k="place" v="islet" />
		<tag k="ssr:stedsnr" v="497160" />
	</node>
	<node id="-7874" lat="62.5354527737" lon="6.64544166924">
		<tag k="name" v="Skarsåna" />
		<tag k="ssr:stedsnr" v="33742" />
		<tag k="waterway" v="stream" />
	</node>
	<node id="-5825" lat="62.6061083291" lon="6.54321111966">
		<tag k="name" v="Åsevatnet" />
		<tag k="natural" v="water" />
		<tag k="ssr:stedsnr" v="496446" />
	</node>
	<node id="-5824" lat="62.5998361112" lon="6.40907222851">
		<tag k="name" v="Sætrevatnet" />
		<tag k="natural" v="water" />
		<tag k="ssr:stedsnr" v="496438" />
	</node>
	<node id="-7871" lat="62.5360277819" lon="6.62120833676">
		<tag k="name" v="Pervika" />
		<tag k="natural" v="bay" />
		<tag k="ssr:stedsnr" v="33683" />
	</node>
	<node id="-7865" lat="62.5647277762" lon="6.69716388497">
		<tag k="name" v="Sagåna" />
		<tag k="ssr:stedsnr" v="33410" />
		<tag k="waterway" v="river" />
	</node>
	<node id="-5805" lat="62.4802083364" lon="6.62252778195">
		<tag k="alt_name" v="Haugtjønna" />
		<tag k="name" v="Haugtjørna" />
		<tag k="natural" v="water" />
		<tag k="ssr:stedsnr" v="496241" />
	</node>
	<node id="-5795" lat="62.4567500005" lon="6.52343055481">
		<tag k="name" v="Sætrevatnet" />
		<tag k="natural" v="water" />
		<tag k="ssr:stedsnr" v="496049" />
	</node>
	<node id="-5793" lat="62.4454222216" lon="6.4840666684">
		<tag k="name" v="Østremselva" />
		<tag k="ssr:stedsnr" v="496035" />
		<tag k="waterway" v="stream" />
	</node>
	<node id="-7825" lat="62.7730972182" lon="6.43407499294">
		<tag k="name" v="Elva" />
		<tag k="ssr:stedsnr" v="32107" />
		<tag k="waterway" v="stream" />
	</node>
	<node id="-7800" lat="62.5640040877" lon="6.79695313015">
		<tag k="alt_name" v="Skålsvatnet" />
		<tag k="name" v="Litlevatnet" />
		<tag k="natural" v="water" />
		<tag k="ssr:stedsnr" v="12876" />
	</node>
	<node id="-7795" lat="62.5097111125" lon="6.8744249953">
		<tag k="name" v="Trolldalsgrova" />
		<tag k="ssr:stedsnr" v="12848" />
		<tag k="waterway" v="stream" />
	</node>
	<node id="-7352" lat="62.5776166692" lon="6.70588610649">
		<tag k="name" v="Dyrelva" />
		<tag k="ssr:stedsnr" v="944513" />
		<tag k="waterway" v="stream" />
	</node>
	<node id="-7784" lat="62.61464167" lon="6.53577777302">
		<tag k="name" v="Kloppelva" />
		<tag k="ssr:stedsnr" v="12427" />
		<tag k="waterway" v="stream" />
	</node>
	<node id="-7776" lat="62.5487643036" lon="6.29249465066">
		<tag k="name" v="Niklaelva" />
		<tag k="ssr:stedsnr" v="12255" />
		<tag k="waterway" v="stream" />
	</node>
	<node id="-5723" lat="62.4876111076" lon="6.72441666583">
		<tag k="name" v="Osen" />
		<tag k="natural" v="bay" />
		<tag k="ssr:stedsnr" v="476449" />
	</node>
	<node id="-7770" lat="62.5306222179" lon="6.66283056105">
		<tag k="name" v="Korsneset" />
		<tag k="natural" v="cape" />
		<tag k="ssr:stedsnr" v="12171" />
	</node>
	<node id="-8374" lat="62.6689694429" lon="6.2841277857">
		<tag k="name" v="Bakkedemma" />
		<tag k="natural" v="water" />
		<tag k="ssr:stedsnr" v="133980" />
	</node>
	<node id="-5707" lat="62.5165694463" lon="6.98207778537">
		<tag k="name" v="Måslielva" />
		<tag k="ssr:stedsnr" v="315861" />
		<tag k="waterway" v="stream" />
	</node>
	<node id="-7753" lat="62.6210500014" lon="6.69142221747">
		<tag k="name" v="Eikeelva" />
		<tag k="ssr:stedsnr" v="11453" />
		<tag k="waterway" v="stream" />
	</node>
	<node id="-7750" lat="62.5706333366" lon="6.37699999711">
		<tag k="name" v="Tredjevatnet" />
		<tag k="natural" v="water" />
		<tag k="ssr:stedsnr" v="11292" />
	</node>
	<node id="-7739" lat="62.4419694402" lon="7.00391110833">
		<tag k="name" v="Skurdgrova" />
		<tag k="old_name" v="Skurgrova" />
		<tag k="ssr:stedsnr" v="11372" />
		<tag k="waterway" v="stream" />
	</node>
	<node id="-5676" lat="62.61844722" lon="6.17925000735">
		<tag k="name" v="Korstjørna" />
		<tag k="natural" v="water" />
		<tag k="ssr:stedsnr" v="314708" />
	</node>
	<node id="-7717" lat="62.4664166697" lon="6.57881389799">
		<tag k="name" v="Trøgrova" />
		<tag k="ssr:stedsnr" v="217352" />
		<tag k="waterway" v="stream" />
	</node>
	<node id="-7713" lat="62.4832000004" lon="6.58753333786">
		<tag k="name" v="Langedalsvika" />
		<tag k="natural" v="bay" />
		<tag k="ssr:stedsnr" v="217330" />
	</node>
	<node id="-5653" lat="62.4597555594" lon="6.49608610848">
		<tag k="name" v="Langevatnet" />
		<tag k="natural" v="water" />
		<tag k="ssr:stedsnr" v="314003" />
	</node>
	<node id="-5652" lat="62.4623861072" lon="6.57888611757">
		<tag k="name" v="Sætrevatnet" />
		<tag k="natural" v="water" />
		<tag k="ssr:stedsnr" v="314002" />
	</node>
	<node id="-5648" lat="62.6032833299" lon="6.47343611666">
		<tag k="name" v="Vikeelva" />
		<tag k="ssr:stedsnr" v="519555" />
		<tag k="waterway" v="stream" />
	</node>
	<node id="-5644" lat="62.5476527762" lon="6.56092778584">
		<tag k="name" v="Skogaelva" />
		<tag k="ssr:stedsnr" v="519536" />
		<tag k="waterway" v="stream" />
	</node>
	<node id="-6743" lat="62.5828888924" lon="6.62616389587">
		<tag k="name" v="Demma" />
		<tag k="ssr:stedsnr" v="883990" />
		<tag k="waterway" v="stream" />
	</node>
	<node id="-5636" lat="62.445466666" lon="6.36996667603">
		<tag k="name" v="Stovedalselva" />
		<tag k="ssr:stedsnr" v="462617" />
		<tag k="waterway" v="stream" />
	</node>
	<node id="-7661" lat="62.4685694477" lon="6.2029555571">
		<tag k="name" v="Nørveneset" />
		<tag k="natural" v="cape" />
		<tag k="ssr:stedsnr" v="948666" />
	</node>
	<node id="-7651" lat="62.7726861103" lon="6.43708611254">
		<tag k="name" v="Selviktjørna" />
		<tag k="natural" v="water" />
		<tag k="ssr:stedsnr" v="942120" />
	</node>
	<node id="-8784" lat="62.4601499973" lon="7.04293610538">
		<tag k="alt_name" v="Heielva" />
		<tag k="name" v="Blåfjellelva" />
		<tag k="ssr:stedsnr" v="314384" />
		<tag k="waterway" v="stream" />
	</node>
	<node id="-5588" lat="62.4505638864" lon="6.89085277074">
		<tag k="name" v="Øyrane" />
		<tag k="place" v="island" />
		<tag k="ssr:stedsnr" v="460557" />
	</node>
	<node id="-5584" lat="62.4763888918" lon="6.5738416677">
		<tag k="name" v="Ørnakktjønna" />
		<tag k="natural" v="water" />
		<tag k="ssr:stedsnr" v="460477" />
	</node>
	<node id="-5583" lat="62.4754388886" lon="6.66256110687">
		<tag k="name" v="Valletjønna" />
		<tag k="natural" v="water" />
		<tag k="ssr:stedsnr" v="460473" />
	</node>
	<node id="-5581" lat="62.5353111119" lon="6.82633888029">
		<tag k="name" v="Sævikneset" />
		<tag k="natural" v="cape" />
		<tag k="ssr:stedsnr" v="460460" />
	</node>
	<node id="-5580" lat="62.4691055515" lon="6.61593611573">
		<tag k="name" v="Glomsetelva" />
		<tag k="ssr:stedsnr" v="460454" />
		<tag k="waterway" v="stream" />
	</node>
	<node id="-7623" lat="62.4818027779" lon="6.53478333743">
		<tag k="name" v="Kalvevika" />
		<tag k="natural" v="bay" />
		<tag k="ssr:stedsnr" v="217271" />
	</node>
	<node id="-5571" lat="62.4841777782" lon="6.55016111796">
		<tag k="name" v="Olvikneset" />
		<tag k="natural" v="cape" />
		<tag k="ssr:stedsnr" v="460367" />
	</node>
	<node id="-5560" lat="62.4902500004" lon="6.27227500493">
		<tag k="name" v="Erikneset" />
		<tag k="natural" v="cape" />
		<tag k="ssr:stedsnr" v="280549" />
	</node>
	<node id="-5559" lat="62.4837888858" lon="6.47964444608">
		<tag k="name" v="Kolda" />
		<tag k="natural" v="bay" />
		<tag k="ssr:stedsnr" v="460135" />
	</node>
	<node id="-5554" lat="62.4888722214" lon="6.53138055325">
		<tag k="name" v="Sagdemme" />
		<tag k="natural" v="water" />
		<tag k="ssr:stedsnr" v="460121" />
	</node>
	<node id="-7597" lat="62.4865638885" lon="6.68023333359">
		<tag k="name" v="Igletjønna" />
		<tag k="natural" v="water" />
		<tag k="ssr:stedsnr" v="217053" />
	</node>
	<node id="-7594" lat="62.4980444427" lon="6.28087499765">
		<tag k="name" v="Liamyra" />
		<tag k="ssr:stedsnr" v="887966" />
		<tag k="waterway" v="dam" />
	</node>
	<node id="-5544" lat="62.452827782" lon="6.58748056346">
		<tag k="name" v="Tøtelva" />
		<tag k="ssr:stedsnr" v="460028" />
		<tag k="waterway" v="stream" />
	</node>
	<node id="-7591" lat="62.446086111" lon="6.44612778608">
		<tag k="name" v="Røssevollelva" />
		<tag k="ssr:stedsnr" v="887613" />
		<tag k="waterway" v="river" />
	</node>
	<node id="-7572" lat="62.5242861138" lon="6.89266667421">
		<tag k="name" v="Bjønnskargrova" />
		<tag k="ssr:stedsnr" v="885569" />
		<tag k="waterway" v="stream" />
	</node>
	<node id="-7569" lat="62.4641027787" lon="6.82294167253">
		<tag k="name" v="Lisetvatnet" />
		<tag k="natural" v="water" />
		<tag k="ssr:stedsnr" v="885561" />
	</node>
	<node id="-5520" lat="62.5058361091" lon="6.93062777672">
		<tag k="name" v="Sætregrova" />
		<tag k="ssr:stedsnr" v="278613" />
		<tag k="waterway" v="stream" />
	</node>
	<node id="-5016" lat="62.6129583329" lon="6.71185832605">
		<tag k="name" v="Holevatnet" />
		<tag k="natural" v="water" />
		<tag k="ssr:stedsnr" v="276451" />
		<tag k="water" v="lake" />
	</node>
	<node id="-5508" lat="62.513836108" lon="6.98142777771">
		<tag k="name" v="Forslielva" />
		<tag k="ssr:stedsnr" v="459104" />
		<tag k="waterway" v="stream" />
	</node>
	<node id="-7543" lat="62.5384055593" lon="6.64946388928">
		<tag k="name" v="Løkane" />
		<tag k="ssr:stedsnr" v="883777" />
		<tag k="waterway" v="stream" />
	</node>
	<node id="-5492" lat="62.5694027806" lon="6.59688888936">
		<tag k="name" v="Storfonna" />
		<tag k="ssr:stedsnr" v="276856" />
		<tag k="waterway" v="stream" />
	</node>
	<node id="-7537" lat="62.5652638898" lon="6.71658333108">
		<tag k="name" v="Ivabruhylet" />
		<tag k="place" v="locality" />
		<tag k="ssr:stedsnr" v="883462" />
	</node>
	<node id="-5485" lat="62.6089611154" lon="6.75001945133">
		<tag k="name" v="Storknausvatnet" />
		<tag k="natural" v="water" />
		<tag k="ssr:stedsnr" v="276321" />
		<tag k="water" v="lake" />
	</node>
	<node id="-7526" lat="62.4584472195" lon="6.24716111122">
		<tag k="name" v="Kjerringholmen" />
		<tag k="place" v="islet" />
		<tag k="ssr:stedsnr" v="948984" />
	</node>
	<node id="-5469" lat="62.6860694433" lon="6.26835276923">
		<tag k="name" v="Kvalvikelva" />
		<tag k="ssr:stedsnr" v="275404" />
		<tag k="waterway" v="stream" />
	</node>
	<node id="-7513" lat="62.448700003" lon="6.31043332633">
		<tag k="name" v="Midtiholmen" />
		<tag k="place" v="islet" />
		<tag k="ssr:stedsnr" v="948688" />
	</node>
	<node id="-7511" lat="62.4286194485" lon="6.38630000149">
		<tag k="name" v="Klungerholmane" />
		<tag k="place" v="islet" />
		<tag k="ssr:stedsnr" v="948594" />
	</node>
	<node id="-5459" lat="62.7365361083" lon="6.44685278075">
		<tag k="name" v="Lomstjørna" />
		<tag k="natural" v="water" />
		<tag k="ssr:stedsnr" v="274715" />
	</node>
	<node id="-5457" lat="62.7340777749" lon="6.43369722405">
		<tag k="name" v="Kvennhuselva" />
		<tag k="ssr:stedsnr" v="274702" />
		<tag k="waterway" v="stream" />
	</node>
	<node id="-7501" lat="62.4892555558" lon="6.73197500953">
		<tag k="name" v="Solnørelva" />
		<tag k="ssr:stedsnr" v="946418" />
		<tag k="waterway" v="river" />
	</node>
	<node id="-5450" lat="62.5331499974" lon="6.59582223127">
		<tag k="name" v="Tennfjordelva" />
		<tag k="ssr:stedsnr" v="458701" />
		<tag k="waterway" v="river" />
	</node>
	<node id="-7495" lat="62.5351277819" lon="6.69093889191">
		<tag k="name" v="Lassehaugvika" />
		<tag k="natural" v="bay" />
		<tag k="ssr:stedsnr" v="946390" />
	</node>
	<node id="-5445" lat="62.5709305529" lon="6.68646388646">
		<tag k="name" v="Smørelva" />
		<tag k="ssr:stedsnr" v="458557" />
		<tag k="waterway" v="stream" />
	</node>
	<node id="-5442" lat="62.5672416683" lon="6.72154723028">
		<tag k="name" v="Jakopgarden" />
		<tag k="ssr:stedsnr" v="458518" />
		<tag k="waterway" v="river" />
	</node>
	<node id="-9439" lat="62.520744448" lon="6.55714445024">
		<tag k="name" v="Eiteråna" />
		<tag k="ssr:stedsnr" v="520026" />
		<tag k="waterway" v="stream" />
	</node>
	<node id="-7480" lat="62.5047972255" lon="6.46452221424">
		<tag k="name" v="Dyrøysundet" />
		<tag k="natural" v="strait" />
		<tag k="ssr:stedsnr" v="946333" />
	</node>
	<node id="-7455" lat="62.4930666665" lon="6.98231111375">
		<tag k="name" v="Osen" />
		<tag k="natural" v="bay" />
		<tag k="ssr:stedsnr" v="945550" />
	</node>
	<node id="-5392" lat="62.5602194413" lon="6.28646944916">
		<tag k="name" v="Lånaelva" />
		<tag k="ssr:stedsnr" v="457264" />
		<tag k="waterway" v="stream" />
	</node>
	<node id="-7438" lat="62.4809749979" lon="6.52990000424">
		<tag k="name" v="Sagholmen" />
		<tag k="place" v="islet" />
		<tag k="ssr:stedsnr" v="945259" />
	</node>
	<node id="-7421" lat="62.5682916705" lon="6.53286389728">
		<tag k="name" v="Trolldalselva" />
		<tag k="ssr:stedsnr" v="944998" />
		<tag k="waterway" v="stream" />
	</node>
	<node id="-7416" lat="62.5728333376" lon="6.53468611457">
		<tag k="name" v="Nakkesvora" />
		<tag k="ssr:stedsnr" v="944969" />
		<tag k="waterway" v="stream" />
	</node>
	<node id="-7415" lat="62.5845666631" lon="6.54614166685">
		<tag k="name" v="Synste Stigsvora" />
		<tag k="ssr:stedsnr" v="944966" />
		<tag k="waterway" v="stream" />
	</node>
	<node id="-7413" lat="62.5845694479" lon="6.55026665941">
		<tag k="name" v="Stigsvorene" />
		<tag k="ssr:stedsnr" v="944900" />
		<tag k="waterway" v="stream" />
	</node>
	<node id="-5363" lat="62.5654055558" lon="6.82792499812">
		<tag k="name" v="Trollbotntjørna" />
		<tag k="natural" v="water" />
		<tag k="ssr:stedsnr" v="254868" />
	</node>
	<node id="-7410" lat="62.6015999987" lon="6.56226944596">
		<tag k="name" v="Klungerelva" />
		<tag k="ssr:stedsnr" v="944869" />
		<tag k="waterway" v="stream" />
	</node>
	<node id="-5361" lat="62.516105557" lon="6.73337500818">
		<tag k="name" v="Gytta" />
		<tag k="ssr:stedsnr" v="254862" />
		<tag k="waterway" v="stream" />
	</node>
	<node id="-7399" lat="62.5733222258" lon="6.59748332434">
		<tag k="name" v="Isbergfonna" />
		<tag k="ssr:stedsnr" v="944812" />
		<tag k="waterway" v="stream" />
	</node>
	<node id="-9444" lat="62.4819916685" lon="6.52469444142">
		<tag k="name" v="Sandvika" />
		<tag k="natural" v="bay" />
		<tag k="ssr:stedsnr" v="520086" />
	</node>
	<node id="-7393" lat="62.5385722215" lon="6.64163610563">
		<tag k="name" v="Tjønna" />
		<tag k="natural" v="water" />
		<tag k="ssr:stedsnr" v="944726" />
	</node>
	<node id="-7391" lat="62.7112527769" lon="6.40129444473">
		<tag k="name" v="Storedemma" />
		<tag k="natural" v="water" />
		<tag k="ssr:stedsnr" v="861813" />
	</node>
	<node id="-5342" lat="62.5838777802" lon="6.54864999047">
		<tag k="name" v="Stigelva" />
		<tag k="ssr:stedsnr" v="254308" />
		<tag k="waterway" v="stream" />
	</node>
	<node id="-5340" lat="62.5720916646" lon="6.54290554599">
		<tag k="name" v="Fjøsneset" />
		<tag k="natural" v="cape" />
		<tag k="ssr:stedsnr" v="254276" />
	</node>
	<node id="-7383" lat="62.5344833373" lon="6.6167499975">
		<tag k="name" v="Sundet" />
		<tag k="natural" v="beach" />
		<tag k="ssr:stedsnr" v="944664" />
	</node>
	<node id="-5333" lat="62.5388388888" lon="6.66135000762">
		<tag k="name" v="Skartjørna" />
		<tag k="natural" v="water" />
		<tag k="ssr:stedsnr" v="254137" />
	</node>
	<node id="-5327" lat="62.4340166695" lon="6.51670834112">
		<tag k="name" v="Eiteråna" />
		<tag k="ssr:stedsnr" v="445336" />
		<tag k="waterway" v="stream" />
	</node>
	<node id="-9422" lat="62.5926444437" lon="6.557680556">
		<tag k="name" v="Borgaelva" />
		<tag k="ssr:stedsnr" v="519875" />
		<tag k="waterway" v="stream" />
	</node>
	<node id="-7373" lat="62.6085611128" lon="6.54027777413">
		<tag k="name" v="Skoravatnet" />
		<tag k="natural" v="water" />
		<tag k="ssr:stedsnr" v="861381" />
	</node>
	<node id="-7368" lat="62.5651194466" lon="6.53709445025">
		<tag k="name" v="Sætra" />
		<tag k="natural" v="cape" />
		<tag k="ssr:stedsnr" v="861253" />
	</node>
	<node id="-7366" lat="62.5876166668" lon="6.48316111055">
		<tag k="name" v="Ringstadelva" />
		<tag k="ssr:stedsnr" v="944571" />
		<tag k="waterway" v="river" />
	</node>
	<node id="-7361" lat="62.5988749959" lon="6.67556945411">
		<tag k="name" v="Vestreelva" />
		<tag k="ssr:stedsnr" v="944541" />
		<tag k="waterway" v="river" />
	</node>
	<node id="-7360" lat="62.5623666682" lon="6.55141667149">
		<tag k="name" v="Slyngstadvatnet" />
		<tag k="natural" v="water" />
		<tag k="ssr:stedsnr" v="861204" />
		<tag k="water" v="lake" />
	</node>
	<node id="-9401" lat="62.5212055547" lon="6.64112221501">
		<tag k="name" v="Stettetjørna" />
		<tag k="natural" v="water" />
		<tag k="ssr:stedsnr" v="437156" />
	</node>
	<node id="-9400" lat="62.7571861073" lon="6.46282500244">
		<tag k="name" v="Lomtjørna" />
		<tag k="natural" v="water" />
		<tag k="ssr:stedsnr" v="437077" />
	</node>
	<node id="-7351" lat="62.5659333329" lon="6.72295832976">
		<tag k="name" v="Smihylen" />
		<tag k="place" v="locality" />
		<tag k="ssr:stedsnr" v="944480" />
	</node>
	<node id="-7348" lat="62.4919805529" lon="6.74141945427">
		<tag k="name" v="Solnørelva" />
		<tag k="old_name" v="Salnørelva" />
		<tag k="ssr:stedsnr" v="860353" />
		<tag k="waterway" v="river" />
	</node>
	<node id="-9395" lat="62.5074527807" lon="6.78865277827">
		<tag k="name" v="Løkane" />
		<tag k="ssr:stedsnr" v="436845" />
		<tag k="waterway" v="stream" />
	</node>
	<node id="-7346" lat="62.5504222222" lon="6.4314305597">
		<tag k="name" v="Tindgrovneset" />
		<tag k="natural" v="cape" />
		<tag k="ssr:stedsnr" v="944464" />
	</node>
	<node id="-9416" lat="62.6151083305" lon="6.51927777305">
		<tag k="name" v="Kvernhuselva" />
		<tag k="ssr:stedsnr" v="519850" />
		<tag k="waterway" v="stream" />
	</node>
	<node id="-9386" lat="62.5252249992" lon="6.91543334211">
		<tag k="alt_name" v="Svartvatnet" />
		<tag k="name" v="Nysætervatnet" />
		<tag k="natural" v="water" />
		<tag k="ssr:stedsnr" v="436813" />
		<tag k="water" v="lake" />
	</node>
	<node id="-7331" lat="62.5426194418" lon="6.52446666049">
		<tag k="name" v="Kvitla" />
		<tag k="ssr:stedsnr" v="944049" />
		<tag k="waterway" v="stream" />
	</node>
	<node id="-9376" lat="62.4639975586" lon="6.91260176634">
		<tag k="name" v="Sætregrova" />
		<tag k="ssr:stedsnr" v="436319" />
		<tag k="waterway" v="stream" />
	</node>
	<node id="-9375" lat="62.5662111154" lon="6.28471110359">
		<tag k="name" v="Gamlemselva" />
		<tag k="ssr:stedsnr" v="436288" />
		<tag k="waterway" v="stream" />
	</node>
	<node id="-9374" lat="62.4874111143" lon="6.89249166342">
		<tag k="name" v="Stiggrova" />
		<tag k="old_name" v="Stigrova" />
		<tag k="ssr:stedsnr" v="436284" />
		<tag k="waterway" v="stream" />
	</node>
	<node id="-5275" lat="62.567769445" lon="6.7180388897">
		<tag k="name" v="Kalvtjørna" />
		<tag k="natural" v="water" />
		<tag k="ssr:stedsnr" v="216446" />
	</node>
	<node id="-7322" lat="62.5909333327" lon="6.28538332751">
		<tag k="name" v="Skjelteelva" />
		<tag k="ssr:stedsnr" v="943476" />
		<tag k="waterway" v="stream" />
	</node>
	<node id="-4975" lat="62.7284361117" lon="6.46209444916">
		<tag k="name" v="Sikå" />
		<tag k="ssr:stedsnr" v="274700" />
		<tag k="waterway" v="stream" />
	</node>
	<node id="-5264" lat="62.5660833358" lon="6.24448610571">
		<tag k="name" v="Bjørnøyvatnet" />
		<tag k="natural" v="water" />
		<tag k="ssr:stedsnr" v="215427" />
		<tag k="water" v="lake" />
	</node>
	<node id="-9357" lat="62.468966663" lon="6.59117778645">
		<tag k="alt_name" v="Lilletjønna" />
		<tag k="name" v="Litletjørna" />
		<tag k="natural" v="water" />
		<tag k="ssr:stedsnr" v="436001" />
	</node>
	<node id="-5258" lat="62.7402888857" lon="6.47405277351">
		<tag k="name" v="Svartsteinsgrova" />
		<tag k="ssr:stedsnr" v="214449" />
		<tag k="waterway" v="stream" />
	</node>
	<node id="-5256" lat="62.7516444419" lon="6.46023888173">
		<tag k="name" v="Nørde Løken" />
		<tag k="ssr:stedsnr" v="214438" />
		<tag k="waterway" v="stream" />
	</node>
	<node id="-9348" lat="62.4710472196" lon="6.59523889565">
		<tag k="alt_name" v="Røynavatnet" />
		<tag k="name" v="Røyravatnet" />
		<tag k="natural" v="water" />
		<tag k="ssr:stedsnr" v="435040" />
	</node>
	<node id="-9063" lat="62.5594916659" lon="6.54287499746">
		<tag k="name" v="Storholmen" />
		<tag k="place" v="islet" />
		<tag k="ssr:stedsnr" v="375232" />
	</node>
	<node id="-5223" lat="62.6631333334" lon="6.31925276918">
		<tag k="name" v="Larselva" />
		<tag k="ssr:stedsnr" v="194932" />
		<tag k="waterway" v="stream" />
	</node>
	<node id="-4625" lat="62.4997277737" lon="6.79923055014">
		<tag k="alt_name" v="Haugelva;Sætreelva" />
		<tag k="name" v="Dalselva" />
		<tag k="ssr:stedsnr" v="217494" />
		<tag k="waterway" v="river" />
	</node>
	<node id="-9314" lat="62.4646305555" lon="6.82809444793">
		<tag k="name" v="Lisetkanalen" />
		<tag k="ssr:stedsnr" v="405831" />
		<tag k="waterway" v="river" />
	</node>
	<node id="-7261" lat="62.5735972203" lon="6.6358861118">
		<tag k="name" v="Sætreelva" />
		<tag k="ssr:stedsnr" v="216985" />
		<tag k="waterway" v="stream" />
	</node>
	<node id="-5212" lat="62.5189138871" lon="6.71285555744">
		<tag k="name" v="Fyllingsvatnet" />
		<tag k="natural" v="water" />
		<tag k="ssr:stedsnr" v="194133" />
		<tag k="water" v="lake" />
	</node>
	<node id="-5210" lat="62.5848138883" lon="6.37645000555">
		<tag k="name" v="Litle Hestevatnet" />
		<tag k="natural" v="water" />
		<tag k="ssr:stedsnr" v="194331" />
	</node>
	<node id="-7255" lat="62.558502774" lon="6.60543889642">
		<tag k="name" v="Vikaelva" />
		<tag k="ssr:stedsnr" v="216938" />
		<tag k="waterway" v="stream" />
	</node>
	<node id="-9301" lat="62.4975944416" lon="6.26557777019">
		<tag k="name" v="Skuledalsdemma" />
		<tag k="ssr:stedsnr" v="402548" />
		<tag k="waterway" v="dam" />
	</node>
	<node id="-9298" lat="62.4346638879" lon="6.3904416645">
		<tag k="name" v="Byteelva" />
		<tag k="ssr:stedsnr" v="401978" />
		<tag k="waterway" v="stream" />
	</node>
	<node id="-8035" lat="62.5221416686" lon="6.6696777848">
		<tag k="name" v="Neskjosen" />
		<tag k="natural" v="bay" />
		<tag k="ssr:stedsnr" v="72123" />
	</node>
	<node id="-7247" lat="62.4653694455" lon="6.46825556231">
		<tag k="name" v="Bassenget" />
		<tag k="ssr:stedsnr" v="827653" />
		<tag k="waterway" v="dam" />
	</node>
	<node id="-5193" lat="62.5276583309" lon="6.81607778126">
		<tag k="name" v="Mevatnet" />
		<tag k="natural" v="water" />
		<tag k="ssr:stedsnr" v="193819" />
		<tag k="water" v="lake" />
	</node>
	<node id="-7236" lat="62.4358111066" lon="7.04466943553">
		<tag k="name" v="Litlebotselva" />
		<tag k="ssr:stedsnr" v="824671" />
		<tag k="waterway" v="stream" />
	</node>
	<node id="-7235" lat="62.4406999991" lon="7.03665277143">
		<tag k="name" v="Litlebotselva" />
		<tag k="ssr:stedsnr" v="824667" />
		<tag k="waterway" v="river" />
	</node>
	<node id="-9281" lat="62.4432416637" lon="7.04168889435">
		<tag k="name" v="Grytagrova" />
		<tag k="ssr:stedsnr" v="399658" />
		<tag k="waterway" v="stream" />
	</node>
	<node id="-5182" lat="62.5969000009" lon="6.38935555339">
		<tag k="name" v="Alvestadelva" />
		<tag k="ssr:stedsnr" v="193427" />
		<tag k="waterway" v="stream" />
	</node>
	<node id="-9276" lat="62.514236109" lon="6.80324443717">
		<tag k="name" v="Tjønna" />
		<tag k="natural" v="water" />
		<tag k="ssr:stedsnr" v="399602" />
	</node>
	<node id="-7221" lat="62.5160833377" lon="6.73240832946">
		<tag k="name" v="Gryteelva" />
		<tag k="ssr:stedsnr" v="824456" />
		<tag k="waterway" v="stream" />
	</node>
	<node id="-7214" lat="62.4855583333" lon="6.50566389545">
		<tag k="name" v="Slettebakktjønna" />
		<tag k="natural" v="water" />
		<tag k="ssr:stedsnr" v="824316" />
	</node>
	<node id="-7213" lat="62.4815972234" lon="6.52461944038">
		<tag k="name" v="Høyvikneset" />
		<tag k="natural" v="cape" />
		<tag k="ssr:stedsnr" v="824310" />
	</node>
	<node id="-9257" lat="62.5359888906" lon="6.8342194437">
		<tag k="name" v="Langerumpa" />
		<tag k="natural" v="cape" />
		<tag k="ssr:stedsnr" v="399440" />
	</node>
	<node id="-5159" lat="62.4846027789" lon="6.81266666745">
		<tag k="name" v="Wensellelva" />
		<tag k="ssr:stedsnr" v="283360" />
		<tag k="waterway" v="river" />
	</node>
	<node id="-7204" lat="62.5717222247" lon="6.59794167102">
		<tag k="name" v="Slettesnesfonna" />
		<tag k="ssr:stedsnr" v="823767" />
		<tag k="waterway" v="stream" />
	</node>
	<node id="-7203" lat="62.5730499976" lon="6.74849999612">
		<tag k="name" v="Heimste Hundåna" />
		<tag k="ssr:stedsnr" v="823621" />
		<tag k="waterway" v="stream" />
	</node>
	<node id="-5154" lat="62.4465722221" lon="6.50816665717">
		<tag k="name" v="Sætreelva" />
		<tag k="ssr:stedsnr" v="281707" />
		<tag k="waterway" v="stream" />
	</node>
	<node id="-9247" lat="62.4902333324" lon="6.61359721299">
		<tag k="name" v="Svortaelva" />
		<tag k="ssr:stedsnr" v="399373" />
		<tag k="waterway" v="stream" />
	</node>
	<node id="-5150" lat="62.4472722247" lon="6.36785554701">
		<tag k="name" v="Breivikelva" />
		<tag k="ssr:stedsnr" v="281650" />
		<tag k="waterway" v="stream" />
	</node>
	<node id="-5149" lat="62.4335750019" lon="6.45088333215">
		<tag k="name" v="Trollfossen" />
		<tag k="natural" v="waterfall" />
		<tag k="ssr:stedsnr" v="281626" />
	</node>
	<node id="-9244" lat="62.5327499963" lon="6.65246388527">
		<tag k="name" v="Korsneset" />
		<tag k="natural" v="cape" />
		<tag k="ssr:stedsnr" v="399347" />
	</node>
	<node id="-7195" lat="62.5412916622" lon="6.5223083307">
		<tag k="name" v="Geitgrova" />
		<tag k="ssr:stedsnr" v="823059" />
		<tag k="waterway" v="stream" />
	</node>
	<node id="-5144" lat="62.4786805588" lon="6.20375277116">
		<tag k="name" v="Malurken" />
		<tag k="place" v="islet" />
		<tag k="ssr:stedsnr" v="280987" />
	</node>
	<node id="-5141" lat="62.5075194417" lon="6.28775832878">
		<tag k="name" v="Vatnet" />
		<tag k="natural" v="water" />
		<tag k="ssr:stedsnr" v="280949" />
		<tag k="water" v="lake" />
	</node>
	<node id="-5139" lat="62.4589888926" lon="6.44260556423">
		<tag k="name" v="Høgstølvatnet" />
		<tag k="natural" v="water" />
		<tag k="ssr:stedsnr" v="280620" />
		<tag k="water" v="lake" />
	</node>
	<node id="-9234" lat="62.4773194429" lon="6.53477223127">
		<tag k="name" v="Sandvika" />
		<tag k="natural" v="bay" />
		<tag k="ssr:stedsnr" v="399119" />
	</node>
	<node id="-7175" lat="62.7421055516" lon="6.46394444216">
		<tag k="name" v="Kvitsteinsgrova" />
		<tag k="ssr:stedsnr" v="821453" />
		<tag k="waterway" v="stream" />
	</node>
	<node id="-9206" lat="62.5636166709" lon="6.43235554728">
		<tag k="name" v="Gjersetelva" />
		<tag k="ssr:stedsnr" v="398345" />
		<tag k="waterway" v="river" />
	</node>
	<node id="-5101" lat="62.481547221" lon="6.87069722225">
		<tag k="name" v="Rashølen" />
		<tag k="place" v="locality" />
		<tag k="ssr:stedsnr" v="278550" />
	</node>
	<node id="-7146" lat="62.5430333335" lon="6.37411943711">
		<tag k="name" v="Grytaelva" />
		<tag k="ssr:stedsnr" v="801217" />
		<tag k="waterway" v="stream" />
	</node>
	<node id="-9192" lat="62.5836194484" lon="6.58153888281">
		<tag k="name" v="Olagardselva" />
		<tag k="ssr:stedsnr" v="397918" />
		<tag k="waterway" v="stream" />
	</node>
	<node id="-5095" lat="62.5084666689" lon="6.63252778592">
		<tag k="name" v="Straumsdemma" />
		<tag k="natural" v="water" />
		<tag k="ssr:stedsnr" v="278518" />
	</node>
	<node id="-9190" lat="62.5869305529" lon="6.57895276954">
		<tag k="name" v="Navarselva" />
		<tag k="ssr:stedsnr" v="397914" />
		<tag k="waterway" v="stream" />
	</node>
	<node id="-5091" lat="62.5379194451" lon="6.71378054939">
		<tag k="name" v="Engsetelva" />
		<tag k="ssr:stedsnr" v="278466" />
		<tag k="waterway" v="stream" />
	</node>
	<node id="-5090" lat="62.5319027763" lon="6.73195278556">
		<tag k="name" v="Kasneselva" />
		<tag k="ssr:stedsnr" v="278460" />
		<tag k="waterway" v="stream" />
	</node>
	<node id="-5089" lat="62.5255999985" lon="6.69020277012">
		<tag k="name" v="Nesholmen" />
		<tag k="place" v="islet" />
		<tag k="ssr:stedsnr" v="278457" />
	</node>
	<node id="-7136" lat="62.5993083291" lon="6.48502223184">
		<tag k="name" v="Reitefonnelva" />
		<tag k="ssr:stedsnr" v="800366" />
		<tag k="waterway" v="stream" />
	</node>
	<node id="-7133" lat="62.5813444456" lon="6.35211945133">
		<tag k="name" v="Hildrevatnet" />
		<tag k="natural" v="water" />
		<tag k="ssr:stedsnr" v="800358" />
	</node>
	<node id="-5081" lat="62.5073249965" lon="6.77739721669">
		<tag k="name" v="Apalvikdemma" />
		<tag k="natural" v="water" />
		<tag k="ssr:stedsnr" v="278349" />
	</node>
	<node id="-7127" lat="62.6081500031" lon="6.56348888974">
		<tag k="name" v="Ukselva" />
		<tag k="ssr:stedsnr" v="800403" />
		<tag k="waterway" v="stream" />
	</node>
	<node id="-9172" lat="62.6186499977" lon="6.71284167164">
		<tag k="name" v="Urlielva" />
		<tag k="ssr:stedsnr" v="397411" />
		<tag k="waterway" v="stream" />
	</node>
	<node id="-7120" lat="62.5260333328" lon="6.67951945407">
		<tag k="name" v="Kalveneset" />
		<tag k="natural" v="cape" />
		<tag k="ssr:stedsnr" v="800177" />
	</node>
	<node id="-5069" lat="62.4738694454" lon="6.59557222571">
		<tag k="name" v="Fugledalselva" />
		<tag k="ssr:stedsnr" v="156228" />
		<tag k="waterway" v="stream" />
	</node>
	<node id="-5063" lat="62.5153333372" lon="6.71263055248">
		<tag k="name" v="Barvika" />
		<tag k="natural" v="bay" />
		<tag k="ssr:stedsnr" v="278064" />
	</node>
	<node id="-9154" lat="62.5842111067" lon="6.26949444494">
		<tag k="name" v="Gunnasøylå" />
		<tag k="natural" v="water" />
		<tag k="ssr:stedsnr" v="396879" />
	</node>
	<node id="-5052" lat="62.6071138928" lon="6.47364444455">
		<tag k="name" v="Sandvikelva" />
		<tag k="ssr:stedsnr" v="277499" />
		<tag k="waterway" v="stream" />
	</node>
	<node id="-9137" lat="62.6805111136" lon="6.18930833511">
		<tag k="name" v="Ullaelva" />
		<tag k="ssr:stedsnr" v="396300" />
		<tag k="waterway" v="stream" />
	</node>
	<node id="-5037" lat="62.5509777755" lon="6.47587221819">
		<tag k="name" v="Remmeelva" />
		<tag k="ssr:stedsnr" v="277338" />
		<tag k="waterway" v="stream" />
	</node>
	<node id="-9132" lat="62.7745694483" lon="6.4508388876">
		<tag k="name" v="Vågsløken" />
		<tag k="ssr:stedsnr" v="396124" />
		<tag k="waterway" v="stream" />
	</node>
	<node id="-5024" lat="62.613525" lon="6.52118056039">
		<tag k="name" v="Kvernhuselva" />
		<tag k="ssr:stedsnr" v="276881" />
		<tag k="waterway" v="stream" />
	</node>
	<node id="-5274" lat="62.6197222208" lon="6.66643889681">
		<tag k="name" v="Litleelva" />
		<tag k="ssr:stedsnr" v="216445" />
		<tag k="waterway" v="stream" />
	</node>
	<node id="-9112" lat="62.4600499971" lon="6.40500000834">
		<tag k="name" v="Årsetelva" />
		<tag k="ssr:stedsnr" v="384349" />
		<tag k="waterway" v="river" />
	</node>
	<node id="-4989" lat="62.659752777" lon="6.29867222184">
		<tag k="name" v="Sandgotelva" />
		<tag k="ssr:stedsnr" v="275249" />
		<tag k="waterway" v="stream" />
	</node>
	<node id="-4987" lat="62.6635805577" lon="6.29505554841">
		<tag k="name" v="Gunnardemma" />
		<tag k="natural" v="water" />
		<tag k="ssr:stedsnr" v="275328" />
	</node>
	<node id="-7023" lat="62.4684055538" lon="6.97953055711">
		<tag k="name" v="Midtelva" />
		<tag k="ssr:stedsnr" v="921352" />
		<tag k="waterway" v="stream" />
	</node>
	<node id="-7020" lat="62.5692166678" lon="6.55922221384">
		<tag k="name" v="Vågsvatnet" />
		<tag k="natural" v="water" />
		<tag k="ssr:stedsnr" v="921315" />
	</node>
	<node id="-7017" lat="62.4966499999" lon="6.88475276941">
		<tag k="name" v="Ørskogelva" />
		<tag k="ssr:stedsnr" v="921301" />
		<tag k="waterway" v="river" />
	</node>
	<node id="-9064" lat="62.5624861138" lon="6.41841667051">
		<tag k="name" v="Botnaelva" />
		<tag k="ssr:stedsnr" v="375237" />
		<tag k="waterway" v="stream" />
	</node>
	<node id="-7015" lat="62.5483972193" lon="6.53252500009">
		<tag k="name" v="Litlevatnet" />
		<tag k="natural" v="water" />
		<tag k="ssr:stedsnr" v="921251" />
	</node>
	<node id="-4962" lat="62.4962552878" lon="6.78638979373">
		<tag k="name" v="Solnørdalselva" />
		<tag k="ssr:stedsnr" v="269094" />
		<tag k="waterway" v="river" />
	</node>
	<node id="-7006" lat="62.4482472222" lon="6.43556944191">
		<tag k="name" v="Røssevollsvatnet" />
		<tag k="natural" v="water" />
		<tag k="ssr:stedsnr" v="921036" />
	</node>
	<node id="-4957" lat="62.5784888922" lon="6.31202222127">
		<tag k="name" v="Vetevatnet" />
		<tag k="natural" v="water" />
		<tag k="ssr:stedsnr" v="133313" />
	</node>
	<node id="-9051" lat="62.4793027735" lon="6.90451110275">
		<tag k="name" v="Øyagrova" />
		<tag k="ssr:stedsnr" v="374342" />
		<tag k="waterway" v="stream" />
	</node>
	<node id="-6997" lat="62.5735055598" lon="6.44537778101">
		<tag k="name" v="Kobbeneselva" />
		<tag k="ssr:stedsnr" v="216879" />
		<tag k="waterway" v="stream" />
	</node>
	<node id="-4947" lat="62.5461027792" lon="6.86471389409">
		<tag k="alt_name" v="Svartløkvatnet" />
		<tag k="name" v="Tomrevatnet" />
		<tag k="natural" v="water" />
		<tag k="ssr:stedsnr" v="132834" />
		<tag k="water" v="lake" />
	</node>
	<node id="-6994" lat="62.5908805596" lon="6.63336110462">
		<tag k="name" v="Litleelva" />
		<tag k="ssr:stedsnr" v="216858" />
		<tag k="waterway" v="stream" />
	</node>
	<node id="-4931" lat="62.4416000043" lon="6.40969999105">
		<tag k="name" v="Byteelva" />
		<tag k="ssr:stedsnr" v="263357" />
		<tag k="waterway" v="river" />
	</node>
	<node id="-6974" lat="62.601311115" lon="6.67626111921">
		<tag k="name" v="Løkelva" />
		<tag k="ssr:stedsnr" v="762463" />
		<tag k="waterway" v="stream" />
	</node>
	<node id="-6965" lat="62.5312138883" lon="6.61563888703">
		<tag k="name" v="Tennfjordelva" />
		<tag k="ssr:stedsnr" v="761676" />
		<tag k="waterway" v="river" />
	</node>
	<node id="-9010" lat="62.4676527804" lon="6.2986777768">
		<tag k="name" v="Lerstadvatnet" />
		<tag k="natural" v="water" />
		<tag k="ssr:stedsnr" v="341733" />
		<tag k="water" v="lake" />
	</node>
	<node id="-6957" lat="62.567783329" lon="6.30206667286">
		<tag k="name" v="Gamlemselva" />
		<tag k="ssr:stedsnr" v="760881" />
		<tag k="waterway" v="stream" />
	</node>
	<node id="-6951" lat="62.6605249972" lon="6.19253332481">
		<tag k="name" v="Kvameelva" />
		<tag k="ssr:stedsnr" v="760474" />
		<tag k="waterway" v="stream" />
	</node>
	<node id="-8997" lat="62.4650277796" lon="6.50424444673">
		<tag k="name" v="Hesteskarvatnet" />
		<tag k="natural" v="water" />
		<tag k="ssr:stedsnr" v="341599" />
	</node>
	<node id="-4900" lat="62.5212444423" lon="6.67935000857">
		<tag k="name" v="Grønneset" />
		<tag k="natural" v="cape" />
		<tag k="ssr:stedsnr" v="96476" />
	</node>
	<node id="-8995" lat="62.4939555543" lon="6.27870277431">
		<tag k="name" v="Kvalsteinelva" />
		<tag k="ssr:stedsnr" v="341585" />
		<tag k="waterway" v="stream" />
	</node>
	<node id="-4897" lat="62.5324611127" lon="6.7222527722">
		<tag k="name" v="Engsettjønna" />
		<tag k="natural" v="water" />
		<tag k="ssr:stedsnr" v="96419" />
	</node>
	<node id="-4896" lat="62.5435638871" lon="6.8484805638">
		<tag k="name" v="Storneset" />
		<tag k="natural" v="cape" />
		<tag k="ssr:stedsnr" v="96413" />
	</node>
	<node id="-8988" lat="62.5312555597" lon="6.83153055734">
		<tag k="name" v="Osane" />
		<tag k="natural" v="bay" />
		<tag k="ssr:stedsnr" v="338979" />
	</node>
	<node id="-6934" lat="62.4603722234" lon="6.3594472157">
		<tag k="name" v="Gamleelva" />
		<tag k="ssr:stedsnr" v="906688" />
		<tag k="waterway" v="river" />
	</node>
	<node id="-4885" lat="62.468497223" lon="6.54348333673">
		<tag k="name" v="Tveråna" />
		<tag k="ssr:stedsnr" v="96120" />
		<tag k="waterway" v="stream" />
	</node>
	<node id="-4879" lat="62.5479472236" lon="6.52769999055">
		<tag k="name" v="Litlevassosen" />
		<tag k="natural" v="bay" />
		<tag k="ssr:stedsnr" v="95524" />
	</node>
	<node id="-6926" lat="62.551444442" lon="6.32329723016">
		<tag k="name" v="Storelva" />
		<tag k="ssr:stedsnr" v="740254" />
		<tag k="waterway" v="stream" />
	</node>
	<node id="-4876" lat="62.6031194464" lon="6.43949445177">
		<tag k="name" v="Synnalandselva" />
		<tag k="ssr:stedsnr" v="95472" />
		<tag k="waterway" v="river" />
	</node>
	<node id="-6923" lat="62.5530944438" lon="6.55594999968">
		<tag k="name" v="Sætreelva" />
		<tag k="ssr:stedsnr" v="740213" />
		<tag k="waterway" v="stream" />
	</node>
	<node id="-8963" lat="62.4487833294" lon="6.88502777556">
		<tag k="name" v="Visetneset" />
		<tag k="natural" v="cape" />
		<tag k="ssr:stedsnr" v="338494" />
	</node>
	<node id="-8961" lat="62.5088472247" lon="6.82375833755">
		<tag k="name" v="Heimsteosen" />
		<tag k="natural" v="bay" />
		<tag k="ssr:stedsnr" v="338440" />
	</node>
	<node id="-6912" lat="62.5829444463" lon="6.3299500012">
		<tag k="name" v="Hornvatnet" />
		<tag k="natural" v="water" />
		<tag k="ssr:stedsnr" v="739354" />
	</node>
	<node id="-6906" lat="62.5658777783" lon="6.41919166457">
		<tag k="name" v="Igletjørna" />
		<tag k="natural" v="water" />
		<tag k="ssr:stedsnr" v="739292" />
	</node>
	<node id="-8952" lat="62.4837833297" lon="6.51292222049">
		<tag k="name" v="Lillerestjønna" />
		<tag k="natural" v="water" />
		<tag k="ssr:stedsnr" v="338368" />
	</node>
	<node id="-6901" lat="62.497302778" lon="6.76526944067">
		<tag k="name" v="Engjavatnet" />
		<tag k="natural" v="water" />
		<tag k="old_name" v="Engavatnet" />
		<tag k="ssr:stedsnr" v="739277" />
	</node>
	<node id="-6898" lat="62.5596944414" lon="6.38368610594">
		<tag k="name" v="Store Grytavatnet" />
		<tag k="natural" v="water" />
		<tag k="ssr:stedsnr" v="739271" />
	</node>
	<node id="-8940" lat="62.4679805533" lon="6.56412499521">
		<tag k="name" v="Honningdalselva" />
		<tag k="ssr:stedsnr" v="338280" />
		<tag k="waterway" v="stream" />
	</node>
	<node id="-8933" lat="62.4888083295" lon="6.5933916724">
		<tag k="name" v="Vassvika" />
		<tag k="ssr:stedsnr" v="338025" />
		<tag k="waterway" v="river" />
	</node>
	<node id="-8931" lat="62.4909749975" lon="6.54854165976">
		<tag k="name" v="Tjønna" />
		<tag k="natural" v="water" />
		<tag k="ssr:stedsnr" v="338013" />
	</node>
	<node id="-8926" lat="62.5692416662" lon="6.62426944412">
		<tag k="name" v="Vikaelva" />
		<tag k="ssr:stedsnr" v="337985" />
		<tag k="waterway" v="stream" />
	</node>
	<node id="-4827" lat="62.4975388914" lon="6.91156111434">
		<tag k="name" v="Heivatnet" />
		<tag k="natural" v="water" />
		<tag k="ssr:stedsnr" v="253337" />
	</node>
	<node id="-6871" lat="62.4793777744" lon="6.81953889678">
		<tag k="name" v="Årøyane" />
		<tag k="place" v="island" />
		<tag k="ssr:stedsnr" v="703608" />
	</node>
	<node id="-6864" lat="62.5473722223" lon="6.52588333736">
		<tag k="name" v="Slyngstadelva" />
		<tag k="ssr:stedsnr" v="702054" />
		<tag k="waterway" v="river" />
	</node>
	<node id="-8908" lat="62.5306083369" lon="6.64736666048">
		<tag k="alt_name" v="Yste Korsneset" />
		<tag k="name" v="Ytste Korsneset" />
		<tag k="natural" v="cape" />
		<tag k="ssr:stedsnr" v="337709" />
	</node>
	<node id="-6859" lat="62.594561113" lon="6.57108610347">
		<tag k="name" v="Borgaelva" />
		<tag k="ssr:stedsnr" v="701769" />
		<tag k="waterway" v="stream" />
	</node>
	<node id="-8904" lat="62.5319944448" lon="6.61363332702">
		<tag k="name" v="Vadsetvadet" />
		<tag k="natural" v="shoal" />
		<tag k="place" v="locality" />
		<tag k="ssr:stedsnr" v="337628" />
	</node>
	<node id="-6855" lat="62.5502555592" lon="6.62176945227">
		<tag k="name" v="Tunga" />
		<tag k="natural" v="cape" />
		<tag k="ssr:stedsnr" v="701617" />
	</node>
	<node id="-8901" lat="62.5499638886" lon="6.62706945174">
		<tag k="name" v="Litleholmen" />
		<tag k="place" v="islet" />
		<tag k="ssr:stedsnr" v="337582" />
	</node>
	<node id="-8890" lat="62.5512361147" lon="6.43227778382">
		<tag k="name" v="Kjerringa" />
		<tag k="natural" v="shoal" />
		<tag k="place" v="locality" />
		<tag k="ssr:stedsnr" v="337396" />
	</node>
	<node id="-4793" lat="62.5890333295" lon="6.49101388562">
		<tag k="name" v="Nyfonnelva" />
		<tag k="ssr:stedsnr" v="72336" />
		<tag k="waterway" v="stream" />
	</node>
	<node id="-8888" lat="62.6108333296" lon="6.56198055907">
		<tag k="name" v="Båselva" />
		<tag k="ssr:stedsnr" v="337391" />
		<tag k="waterway" v="stream" />
	</node>
	<node id="-4791" lat="62.5770972256" lon="6.36597222325">
		<tag k="name" v="Tredjevasselva" />
		<tag k="ssr:stedsnr" v="72324" />
		<tag k="waterway" v="stream" />
	</node>
	<node id="-6836" lat="62.8203444415" lon="6.58300554902">
		<tag k="name" v="Stortjørna" />
		<tag k="natural" v="water" />
		<tag k="ssr:stedsnr" v="699069" />
	</node>
	<node id="-4787" lat="62.5813805556" lon="6.57962499893">
		<tag k="name" v="Vågselva" />
		<tag k="ssr:stedsnr" v="72312" />
		<tag k="waterway" v="stream" />
	</node>
	<node id="-8882" lat="62.5969000018" lon="6.32897777195">
		<tag k="name" v="Grova" />
		<tag k="ssr:stedsnr" v="337270" />
		<tag k="waterway" v="stream" />
	</node>
	<node id="-8879" lat="62.7023222209" lon="6.42149443956">
		<tag k="name" v="Litlemalsgrova" />
		<tag k="ssr:stedsnr" v="336983" />
		<tag k="waterway" v="stream" />
	</node>
	<node id="-4774" lat="62.4984083303" lon="6.8723361178">
		<tag k="name" v="Tverrelva" />
		<tag k="ssr:stedsnr" v="71316" />
		<tag k="waterway" v="stream" />
	</node>
	<node id="-6815" lat="62.4966638927" lon="6.25074443539">
		<tag k="name" v="Grytebustelva" />
		<tag k="ssr:stedsnr" v="887537" />
		<tag k="waterway" v="stream" />
	</node>
	<node id="-6804" lat="62.4754138929" lon="6.85901945347">
		<tag k="name" v="Løken" />
		<tag k="ssr:stedsnr" v="885698" />
		<tag k="waterway" v="stream" />
	</node>
	<node id="-8835" lat="62.5692916681" lon="6.82028333116">
		<tag k="name" v="Mellivatnet" />
		<tag k="natural" v="water" />
		<tag k="ssr:stedsnr" v="315878" />
	</node>
	<node id="-6782" lat="62.5048972203" lon="6.81840834079">
		<tag k="name" v="Haugfossane" />
		<tag k="natural" v="waterfall" />
		<tag k="ssr:stedsnr" v="885521" />
	</node>
	<node id="-6779" lat="62.4877972197" lon="6.61548889006">
		<tag k="name" v="Raudegrova" />
		<tag k="ssr:stedsnr" v="885345" />
		<tag k="waterway" v="stream" />
	</node>
	<node id="-8822" lat="62.5806305551" lon="6.54120555834">
		<tag k="name" v="Fannelva" />
		<tag k="ssr:stedsnr" v="315293" />
		<tag k="waterway" v="stream" />
	</node>
	<node id="-6751" lat="62.5944638863" lon="6.68081111674">
		<tag k="name" v="Gåsdalselva" />
		<tag k="ssr:stedsnr" v="884443" />
		<tag k="waterway" v="stream" />
	</node>
	<node id="-8793" lat="62.4369463898" lon="6.94667674117">
		<tag k="alt_name" v="Geitaskardsvatnet;Geitaskarvatnet" />
		<tag k="name" v="Geitaskardvatnet" />
		<tag k="natural" v="water" />
		<tag k="ssr:stedsnr" v="314691" />
	</node>
	<node id="-8792" lat="62.4401027778" lon="7.05015833568">
		<tag k="alt_name" v="Voksåa" />
		<tag k="name" v="Grytagrova" />
		<tag k="ssr:stedsnr" v="314685" />
		<tag k="waterway" v="stream" />
	</node>
	<node id="-8791" lat="62.4355194437" lon="7.0902166706">
		<tag k="name" v="Grytavatnet" />
		<tag k="natural" v="water" />
		<tag k="ssr:stedsnr" v="314683" />
		<tag k="water" v="lake" />
	</node>
	<node id="-4692" lat="62.5629194444" lon="6.81076666506">
		<tag k="name" v="Svartevatnet" />
		<tag k="natural" v="water" />
		<tag k="ssr:stedsnr" v="12930" />
		<tag k="water" v="lake" />
	</node>
	<node id="-6736" lat="62.57818333" lon="6.64693054839">
		<tag k="name" v="Veslevatnet" />
		<tag k="natural" v="water" />
		<tag k="ssr:stedsnr" v="883926" />
		<tag k="water" v="lake" />
	</node>
	<node id="-6735" lat="62.6019277776" lon="6.55143054694">
		<tag k="name" v="Klungervatnet" />
		<tag k="natural" v="water" />
		<tag k="ssr:stedsnr" v="883914" />
		<tag k="water" v="lake" />
	</node>
	<node id="-4682" lat="62.5521666667" lon="6.62625555958">
		<tag k="name" v="Vatnevatnet" />
		<tag k="natural" v="water" />
		<tag k="ssr:stedsnr" v="12225" />
		<tag k="water" v="lake" />
	</node>
	<node id="-8777" lat="62.5677499968" lon="6.42926943546">
		<tag k="name" v="Gjersetelva" />
		<tag k="ssr:stedsnr" v="314340" />
		<tag k="waterway" v="stream" />
	</node>
	<node id="-4674" lat="62.6023444458" lon="6.47850833579">
		<tag k="name" v="Bakkeelva" />
		<tag k="ssr:stedsnr" v="11410" />
		<tag k="waterway" v="stream" />
	</node>
	<node id="-5543" lat="62.5858833373" lon="6.54663056085">
		<tag k="name" v="Nørste Stigsvora" />
		<tag k="ssr:stedsnr" v="459973" />
		<tag k="waterway" v="stream" />
	</node>
	<node id="-8747" lat="62.6070694411" lon="6.75336388511">
		<tag k="name" v="Småvatna" />
		<tag k="natural" v="water" />
		<tag k="ssr:stedsnr" v="216241" />
		<tag k="water" v="lake" />
	</node>
	<node id="-6692" lat="62.5530555552" lon="6.43349721766">
		<tag k="name" v="Gjersetvatnet" />
		<tag k="natural" v="water" />
		<tag k="ssr:stedsnr" v="679220" />
		<tag k="water" v="lake" />
	</node>
	<node id="-6686" lat="62.4287527797" lon="7.05399722783">
		<tag k="name" v="Litlebotnselva" />
		<tag k="old_name" v="Litlebottselva" />
		<tag k="ssr:stedsnr" v="678665" />
		<tag k="waterway" v="stream" />
	</node>
	<node id="-6684" lat="62.4658944421" lon="7.02879166133">
		<tag k="name" v="Kjersemvatnet" />
		<tag k="natural" v="water" />
		<tag k="ssr:stedsnr" v="678376" />
	</node>
	<node id="-6677" lat="62.5425832039" lon="6.29167009996">
		<tag k="name" v="Reiteelva" />
		<tag k="ssr:stedsnr" v="882583" />
		<tag k="waterway" v="river" />
	</node>
	<node id="-6915" lat="62.5983861153" lon="6.70415276858">
		<tag k="name" v="Skjerdingelva" />
		<tag k="ssr:stedsnr" v="739376" />
		<tag k="waterway" v="stream" />
	</node>
	<node id="-6913" lat="62.4465944459" lon="6.92634167585">
		<tag k="fixme" v="multiple name tags, choose one and add the other to alt_name" />
		<tag k="name" v="Hallvardsvatnet;Hallvardsætrevatnet" />
		<tag k="natural" v="water" />
		<tag k="ssr:stedsnr" v="739355" />
	</node>
	<node id="-6655" lat="62.6673861091" lon="6.27871389548">
		<tag k="name" v="Djupefora" />
		<tag k="ssr:stedsnr" v="882328" />
		<tag k="waterway" v="stream" />
	</node>
	<node id="-8699" lat="62.6785333313" lon="6.27813055665">
		<tag k="name" v="Flemsdemma" />
		<tag k="natural" v="water" />
		<tag k="ssr:stedsnr" v="194998" />
	</node>
	<node id="-8681" lat="62.5832833322" lon="6.69332223114">
		<tag k="name" v="Vestrevatna" />
		<tag k="natural" v="water" />
		<tag k="ssr:stedsnr" v="194295" />
	</node>
	<node id="-8676" lat="62.5621805586" lon="6.58895278708">
		<tag k="name" v="Svartegrova" />
		<tag k="ssr:stedsnr" v="194246" />
		<tag k="waterway" v="stream" />
	</node>
	<node id="-8674" lat="62.5494472253" lon="6.51316110504">
		<tag k="name" v="Geitgrova" />
		<tag k="ssr:stedsnr" v="194232" />
		<tag k="waterway" v="stream" />
	</node>
	<node id="-8667" lat="62.531586113" lon="6.63899444729">
		<tag k="name" v="Engsetdalsvatnet" />
		<tag k="natural" v="water" />
		<tag k="ssr:stedsnr" v="194168" />
		<tag k="water" v="lake" />
	</node>
	<node id="-6611" lat="62.6104472238" lon="6.74678888355">
		<tag k="name" v="Øvste Langdalsvatnet" />
		<tag k="natural" v="water" />
		<tag k="ssr:stedsnr" v="876271" />
		<tag k="water" v="lake" />
	</node>
	<node id="-6606" lat="62.5921111116" lon="6.66898611414">
		<tag k="name" v="Myrelva" />
		<tag k="ssr:stedsnr" v="640857" />
		<tag k="waterway" v="stream" />
	</node>
	<node id="-8650" lat="62.4945194409" lon="6.77648610948">
		<tag k="alt_name" v="Dekkavatnet" />
		<tag k="name" v="Dekkjavatnet" />
		<tag k="natural" v="water" />
		<tag k="ssr:stedsnr" v="193288" />
	</node>
	<node id="-8649" lat="62.5725555574" lon="6.66909722039">
		<tag k="name" v="Ulvestadvatnet" />
		<tag k="natural" v="water" />
		<tag k="ssr:stedsnr" v="193286" />
		<tag k="water" v="lake" />
	</node>
	<node id="-8644" lat="62.5616805598" lon="6.54578889289">
		<tag k="name" v="Litleholmen" />
		<tag k="place" v="islet" />
		<tag k="ssr:stedsnr" v="193264" />
	</node>
	<node id="-8643" lat="62.5587138894" lon="6.47595832579">
		<tag k="name" v="Reitevatnet" />
		<tag k="natural" v="water" />
		<tag k="ssr:stedsnr" v="193261" />
	</node>
	<node id="-8641" lat="62.463197221" lon="6.99268333643">
		<tag k="fixme" v="multiple name tags, choose one and add the other to alt_name" />
		<tag k="name" v="Grønliløken;Løken" />
		<tag k="ssr:stedsnr" v="193361" />
		<tag k="waterway" v="stream" />
	</node>
	<node id="-8627" lat="62.4860750028" lon="6.59144167392">
		<tag k="alt_name" v="Svartavatnet" />
		<tag k="name" v="Svortavatnet" />
		<tag k="natural" v="water" />
		<tag k="ssr:stedsnr" v="192238" />
	</node>
	<node id="-6574" lat="62.604275004" lon="6.40241110856">
		<tag k="name" v="Sotåna" />
		<tag k="ssr:stedsnr" v="618412" />
		<tag k="waterway" v="stream" />
	</node>
	<node id="-5873" lat="62.5320031408" lon="6.88363115891">
		<tag k="name" v="Svartløkelva" />
		<tag k="ssr:stedsnr" v="497836" />
		<tag k="waterway" v="stream" />
	</node>
	<node id="-6556" lat="62.5522583379" lon="6.51919167241">
		<tag k="name" v="Bergeelvan" />
		<tag k="ssr:stedsnr" v="618218" />
		<tag k="waterway" v="stream" />
	</node>
	<node id="-6554" lat="62.5537277772" lon="6.41390276821">
		<tag k="name" v="Urkedalsvatnet" />
		<tag k="natural" v="water" />
		<tag k="ssr:stedsnr" v="618212" />
		<tag k="water" v="lake" />
	</node>
	<node id="-8594" lat="62.4852055594" lon="6.80650832644">
		<tag k="name" v="Liaelva" />
		<tag k="ssr:stedsnr" v="163795" />
		<tag k="waterway" v="river" />
	</node>
	<node id="-8581" lat="62.4390583367" lon="6.36154999121">
		<tag k="name" v="Holmevatnet" />
		<tag k="natural" v="water" />
		<tag k="ssr:stedsnr" v="159684" />
	</node>
	<node id="-6512" lat="62.5215305526" lon="6.71284722399">
		<tag k="name" v="Langnesholmen" />
		<tag k="place" v="islet" />
		<tag k="ssr:stedsnr" v="581496" />
	</node>
	<node id="-6510" lat="62.4927944441" lon="6.59682777086">
		<tag k="name" v="Lilledemma" />
		<tag k="natural" v="water" />
		<tag k="ssr:stedsnr" v="581466" />
	</node>
	<node id="-8554" lat="62.503433331" lon="6.96258333016">
		<tag k="name" v="Tverrligrova" />
		<tag k="ssr:stedsnr" v="156575" />
		<tag k="waterway" v="stream" />
	</node>
	<node id="-6501" lat="62.4873769368" lon="6.58580507793">
		<tag k="name" v="Løken" />
		<tag k="ssr:stedsnr" v="581125" />
		<tag k="waterway" v="stream" />
	</node>
	<node id="-8548" lat="62.5124638925" lon="6.93285556469">
		<tag k="name" v="Storøyna" />
		<tag k="place" v="island" />
		<tag k="ssr:stedsnr" v="156544" />
	</node>
	<node id="-6499" lat="62.4986388911" lon="6.58571944646">
		<tag k="name" v="Vaulen" />
		<tag k="natural" v="strait" />
		<tag k="ssr:stedsnr" v="581069" />
	</node>
	<node id="-6496" lat="62.4976361094" lon="6.71403610845">
		<tag k="name" v="Øyra" />
		<tag k="natural" v="strait" />
		<tag k="ssr:stedsnr" v="581054" />
	</node>
	<node id="-8542" lat="62.4481055544" lon="6.98473888278">
		<tag k="name" v="Kvitlane" />
		<tag k="natural" v="cape" />
		<tag k="ssr:stedsnr" v="156506" />
	</node>
	<node id="-4837" lat="62.5488111119" lon="6.32544166669">
		<tag k="name" v="Midtlielva" />
		<tag k="ssr:stedsnr" v="254232" />
		<tag k="waterway" v="stream" />
	</node>
	<node id="-6492" lat="62.535313889" lon="6.4504722181">
		<tag k="name" v="Årsetelva" />
		<tag k="ssr:stedsnr" v="580410" />
		<tag k="waterway" v="stream" />
	</node>
	<node id="-8536" lat="62.5201722223" lon="6.69553888363">
		<tag k="name" v="Sandvika" />
		<tag k="natural" v="bay" />
		<tag k="ssr:stedsnr" v="156451" />
	</node>
	<node id="-8529" lat="62.4674472223" lon="6.61050555282">
		<tag k="name" v="Bakkeneset" />
		<tag k="natural" v="cape" />
		<tag k="ssr:stedsnr" v="156409" />
	</node>
	<node id="-8515" lat="62.5157305516" lon="6.73554443846">
		<tag k="name" v="Gryteelva" />
		<tag k="ssr:stedsnr" v="156289" />
		<tag k="waterway" v="stream" />
	</node>
	<node id="-8510" lat="62.4815916675" lon="6.66755276853">
		<tag k="name" v="Versla" />
		<tag k="natural" v="spring" />
		<tag k="ssr:stedsnr" v="156093" />
	</node>
	<node id="-8505" lat="62.4675361113" lon="6.61438889739">
		<tag k="name" v="Storelva" />
		<tag k="ssr:stedsnr" v="156064" />
		<tag k="waterway" v="river" />
	</node>
	<node id="-6456" lat="62.5121472185" lon="6.98943612009">
		<tag k="name" v="Fossåna" />
		<tag k="ssr:stedsnr" v="572116" />
		<tag k="waterway" v="river" />
	</node>
	<node id="-8503" lat="62.518377778" lon="6.71082222434">
		<tag k="name" v="Klubben" />
		<tag k="natural" v="cape" />
		<tag k="ssr:stedsnr" v="156061" />
	</node>
	<node id="-8499" lat="62.4971166665" lon="6.72922221634">
		<tag k="name" v="Vågselva" />
		<tag k="ssr:stedsnr" v="156042" />
		<tag k="waterway" v="river" />
	</node>
	<node id="-8497" lat="62.5181527738" lon="6.73130833287">
		<tag k="name" v="Timbreneset" />
		<tag k="natural" v="cape" />
		<tag k="ssr:stedsnr" v="156034" />
	</node>
	<node id="-6448" lat="62.495002778" lon="6.28836667295">
		<tag k="name" v="Myklebustelva" />
		<tag k="ssr:stedsnr" v="705738" />
		<tag k="waterway" v="stream" />
	</node>
	<node id="-8491" lat="62.5735277778" lon="6.46531389243">
		<tag k="name" v="Bergelva" />
		<tag k="ssr:stedsnr" v="155884" />
		<tag k="waterway" v="stream" />
	</node>
	<node id="-6439" lat="62.4590999964" lon="6.4534194534">
		<tag k="name" v="Auststølvatnet" />
		<tag k="natural" v="water" />
		<tag k="ssr:stedsnr" v="705631" />
		<tag k="water" v="lake" />
	</node>
	<node id="-6436" lat="62.4678194404" lon="6.30244999425">
		<tag k="alt_name" v="Leirstadvatnet" />
		<tag k="name" v="Lerstadvatnet" />
		<tag k="natural" v="water" />
		<tag k="ssr:stedsnr" v="705617" />
		<tag k="water" v="lake" />
	</node>
	<node id="-8923" lat="62.5780027794" lon="6.5498277853">
		<tag k="name" v="Fonna" />
		<tag k="ssr:stedsnr" v="337970" />
		<tag k="waterway" v="stream" />
	</node>
	<node id="-8479" lat="62.6077083376" lon="6.32681666559">
		<tag k="name" v="Marfallet" />
		<tag k="ssr:stedsnr" v="155625" />
		<tag k="waterway" v="stream" />
	</node>
	<node id="-8474" lat="62.5502527758" lon="6.53659722442">
		<tag k="name" v="Luka" />
		<tag k="natural" v="bay" />
		<tag k="ssr:stedsnr" v="155569" />
	</node>
	<node id="-6391" lat="62.5195250023" lon="6.81803332506">
		<tag k="name" v="Fremsteosen" />
		<tag k="natural" v="bay" />
		<tag k="ssr:stedsnr" v="703582" />
	</node>
	<node id="-6389" lat="62.452933335" lon="7.05062222437">
		<tag k="name" v="Tjønna" />
		<tag k="natural" v="water" />
		<tag k="ssr:stedsnr" v="703576" />
	</node>
	<node id="-8423" lat="62.6603777802" lon="6.34417223044">
		<tag k="name" v="Sessåna" />
		<tag k="ssr:stedsnr" v="153645" />
		<tag k="waterway" v="stream" />
	</node>
	<node id="-6374" lat="62.4816333345" lon="6.63170554647">
		<tag k="name" v="Haugelva" />
		<tag k="ssr:stedsnr" v="702301" />
		<tag k="waterway" v="stream" />
	</node>
	<node id="-6370" lat="62.4821499971" lon="6.5629305651">
		<tag k="name" v="Sætreneset" />
		<tag k="natural" v="cape" />
		<tag k="ssr:stedsnr" v="702285" />
	</node>
	<node id="-6356" lat="62.5799972229" lon="6.54431667526">
		<tag k="name" v="Fonnasvora" />
		<tag k="ssr:stedsnr" v="701973" />
		<tag k="waterway" v="stream" />
	</node>
	<node id="-7202" lat="62.5327138851" lon="6.44286387976">
		<tag k="name" v="Ekreelva" />
		<tag k="ssr:stedsnr" v="823454" />
		<tag k="waterway" v="stream" />
	</node>
	<node id="-6343" lat="62.5237138904" lon="6.76027778525">
		<tag k="name" v="Fyllingselva" />
		<tag k="ssr:stedsnr" v="557803" />
		<tag k="waterway" v="stream" />
	</node>
	<node id="-5151" lat="62.4624361118" lon="6.25041388339">
		<tag k="name" v="Ratvikholmen" />
		<tag k="place" v="islet" />
		<tag k="ssr:stedsnr" v="281682" />
	</node>
	<node id="-6328" lat="62.4499444482" lon="7.05339444582">
		<tag k="name" v="Heivatna" />
		<tag k="natural" v="water" />
		<tag k="ssr:stedsnr" v="557359" />
	</node>
	<node id="-6326" lat="62.5766388911" lon="6.47348333617">
		<tag k="name" v="Nyfonna" />
		<tag k="ssr:stedsnr" v="557313" />
		<tag k="waterway" v="stream" />
	</node>
	<node id="-6323" lat="62.5326333316" lon="6.69529722654">
		<tag k="name" v="Pelarsholmen" />
		<tag k="place" v="islet" />
		<tag k="ssr:stedsnr" v="557163" />
	</node>
	<node id="-6322" lat="62.5290916665" lon="6.63484166706">
		<tag k="name" v="Leitakjosen" />
		<tag k="natural" v="bay" />
		<tag k="ssr:stedsnr" v="557158" />
	</node>
	<node id="-6321" lat="62.5224361081" lon="6.52235278354">
		<tag k="name" v="Hådalstjørna" />
		<tag k="natural" v="water" />
		<tag k="ssr:stedsnr" v="557155" />
	</node>
	<node id="-6318" lat="62.5393972257" lon="6.63125833572">
		<tag k="name" v="Demma" />
		<tag k="natural" v="water" />
		<tag k="ssr:stedsnr" v="701742" />
	</node>
	<node id="-6317" lat="62.5700944435" lon="6.78454999526">
		<tag k="name" v="Brenthaugelva" />
		<tag k="ssr:stedsnr" v="701738" />
		<tag k="waterway" v="stream" />
	</node>
	<node id="-8353" lat="62.6611277772" lon="6.20829165707">
		<tag k="name" v="Fjellvatnet" />
		<tag k="natural" v="water" />
		<tag k="ssr:stedsnr" v="133683" />
	</node>
	<node id="-6298" lat="62.5423388864" lon="6.5787527801">
		<tag k="name" v="Krokelva" />
		<tag k="ssr:stedsnr" v="701650" />
		<tag k="waterway" v="stream" />
	</node>
	<node id="-6290" lat="62.4626525048" lon="6.58908924539">
		<tag k="name" v="Demmingsvatna" />
		<tag k="natural" v="water" />
		<tag k="ssr:stedsnr" v="556013" />
	</node>
	<node id="-8336" lat="62.5906305583" lon="6.40533055173">
		<tag k="name" v="Store Hestevatnet" />
		<tag k="natural" v="water" />
		<tag k="ssr:stedsnr" v="133336" />
		<tag k="water" v="lake" />
	</node>
	<node id="-6284" lat="62.5944916628" lon="6.40051110981">
		<tag k="name" v="Hestetjønnene" />
		<tag k="natural" v="water" />
		<tag k="ssr:stedsnr" v="701339" />
	</node>
	<node id="-6277" lat="62.6810250022" lon="6.28191111773">
		<tag k="name" v="Bergedalselva" />
		<tag k="ssr:stedsnr" v="700451" />
		<tag k="waterway" v="stream" />
	</node>
	<node id="-8319" lat="62.4194166646" lon="7.06575833993">
		<tag k="name" v="Litlebotnsvatnet" />
		<tag k="natural" v="water" />
		<tag k="old_name" v="Litlebottsvatnet" />
		<tag k="ssr:stedsnr" v="132655" />
	</node>
	<node id="-8309" lat="62.604305558" lon="6.68194444367">
		<tag k="name" v="Djupedalselva" />
		<tag k="ssr:stedsnr" v="132367" />
		<tag k="waterway" v="stream" />
	</node>
	<node id="-8296" lat="62.4927416707" lon="6.47761389582">
		<tag k="name" v="Tremannsvatna" />
		<tag k="natural" v="water" />
		<tag k="ssr:stedsnr" v="132223" />
	</node>
	<node id="-8293" lat="62.455499998" lon="6.43091389106">
		<tag k="alt_name" v="Blindheimsvatnet" />
		<tag k="loc_name" v="Strøkevatnet" />
		<tag k="name" v="Strokevatnet" />
		<tag k="natural" v="water" />
		<tag k="ssr:stedsnr" v="132043" />
	</node>
	<node id="-4794" lat="62.4496027743" lon="7.08131111344">
		<tag k="name" v="Lauparvatnet" />
		<tag k="natural" v="water" />
		<tag k="ssr:stedsnr" v="72337" />
	</node>
	<node id="-8282" lat="62.4640695558" lon="6.3738424411">
		<tag k="name" v="Lillevatnet" />
		<tag k="natural" v="water" />
		<tag k="ssr:stedsnr" v="132003" />
	</node>
	<node id="-6220" lat="62.5296999998" lon="6.70607776995">
		<tag k="name" v="Fyllingstranda" />
		<tag k="natural" v="beach" />
		<tag k="ssr:stedsnr" v="520410" />
	</node>
	<node id="-6202" lat="62.5060166632" lon="6.73823888325">
		<tag k="alt_name" v="Lilletjønna" />
		<tag k="name" v="Litletjørna" />
		<tag k="natural" v="water" />
		<tag k="ssr:stedsnr" v="497852" />
	</node>
	<node id="-8247" lat="62.4406444404" lon="6.51719721434">
		<tag k="name" v="Eiteråa" />
		<tag k="ssr:stedsnr" v="99942" />
		<tag k="waterway" v="stream" />
	</node>
	<node id="-8246" lat="62.4653972218" lon="6.26743610282">
		<tag k="name" v="Ratvikvatnet" />
		<tag k="natural" v="water" />
		<tag k="ssr:stedsnr" v="99689" />
		<tag k="water" v="lake" />
	</node>
	<node id="-8244" lat="62.4407722233" lon="6.39654165817">
		<tag k="name" v="Byteelva" />
		<tag k="ssr:stedsnr" v="98941" />
		<tag k="waterway" v="stream" />
	</node>
	<node id="-6186" lat="62.5694027819" lon="6.3422805647">
		<tag k="name" v="Søvikvatnet" />
		<tag k="natural" v="water" />
		<tag k="ssr:stedsnr" v="496316" />
		<tag k="water" v="lake" />
	</node>
	<node id="-6184" lat="62.5656527776" lon="6.48130554916">
		<tag k="name" v="Stornakkelva" />
		<tag k="ssr:stedsnr" v="496290" />
		<tag k="waterway" v="stream" />
	</node>
	<node id="-6176" lat="62.5043027815" lon="6.95231944884">
		<tag k="name" v="Kvanndalselva" />
		<tag k="ssr:stedsnr" v="679843" />
		<tag k="waterway" v="stream" />
	</node>
	<node id="-6173" lat="62.5031777745" lon="6.99607221798">
		<tag k="alt_name" v="Steingardsheivatnet" />
		<tag k="name" v="Steingardsvatnet" />
		<tag k="natural" v="water" />
		<tag k="ssr:stedsnr" v="679828" />
	</node>
	<node id="-8219" lat="62.4490249995" lon="6.95851666416">
		<tag k="name" v="Sæteråna" />
		<tag k="ssr:stedsnr" v="96636" />
		<tag k="waterway" v="stream" />
	</node>
	<node id="-8218" lat="62.4498388922" lon="6.97845834111">
		<tag k="name" v="Midtelvkvisla" />
		<tag k="ssr:stedsnr" v="96542" />
		<tag k="waterway" v="stream" />
	</node>
	<node id="-8213" lat="62.5345666688" lon="6.69414721286">
		<tag k="name" v="Lassehaugneset" />
		<tag k="natural" v="cape" />
		<tag k="ssr:stedsnr" v="96432" />
	</node>
	<node id="-6155" lat="62.5616972221" lon="6.47408889024">
		<tag k="name" v="Stølevatnet" />
		<tag k="natural" v="water" />
		<tag k="ssr:stedsnr" v="679244" />
	</node>
	<node id="-8198" lat="62.5854361131" lon="6.45207222058">
		<tag k="name" v="Ramsvikelva" />
		<tag k="ssr:stedsnr" v="95880" />
		<tag k="waterway" v="stream" />
	</node>
</osm>
