<?xml version="1.0" encoding="UTF-8"?>
<osm version="0.6" generator="osmapis">
	<node lat="62.68887778183467" lon="6.198600005111945" id="-699">
		<tag k="historic" v="shieling" />
		<tag k="name" v="Stølen" />
		<tag k="place" v="locality" />
		<tag k="ssr:stedsnr" v="32304" />
	</node>
	<node lat="62.60138055541965" lon="6.635025008201207" id="-719">
		<tag k="name" v="Orvikmyrane" />
		<tag k="natural" v="wetland" />
		<tag k="ssr:stedsnr" v="33864" />
	</node>
	<node lat="62.46717222288075" lon="6.869283329712595" id="-743">
		<tag k="name" v="Jarskarmyra" />
		<tag k="natural" v="wetland" />
		<tag k="ssr:stedsnr" v="35611" />
	</node>
	<node lat="62.56183189628872" lon="6.719295375791028" id="-800">
		<tag k="historic" v="shieling" />
		<tag k="name" v="Ivasætra" />
		<tag k="place" v="locality" />
		<tag k="ssr:stedsnr" v="72862" />
	</node>
	<node lat="62.859355553062876" lon="6.545463883603342" id="-824">
		<tag k="name" v="Myra" />
		<tag k="natural" v="wetland" />
		<tag k="ssr:stedsnr" v="93278" />
	</node>
	<node lat="62.6766499985284" lon="6.3123000029935294" id="-834">
		<tag k="name" v="Skulekløvet" />
		<tag k="natural" v="scree" />
		<tag k="ssr:stedsnr" v="93869" />
	</node>
	<node lat="62.4983861154101" lon="6.83677777327863" id="-865">
		<tag k="name" v="Heia" />
		<tag k="natural" v="wetland" />
		<tag k="ssr:stedsnr" v="96616" />
	</node>
	<node lat="62.49570832968477" lon="6.190580554126434" id="-879">
		<tag k="name" v="Fjellsmyra" />
		<tag k="natural" v="wetland" />
		<tag k="ssr:stedsnr" v="98569" />
	</node>
	<node lat="62.47656110953647" lon="6.641058326262222" id="-900">
		<tag k="name" v="Hjellmyra" />
		<tag k="natural" v="wetland" />
		<tag k="ssr:stedsnr" v="132021" />
	</node>
	<node lat="62.47957570261834" lon="6.936869221450088" id="-945">
		<tag k="fixme" v="multiple name tags, choose one and add the other to alt_name" />
		<tag k="historic" v="shieling" />
		<tag k="name" v="Skarbøsætra;Skarbøsæterstølen" />
		<tag k="place" v="locality" />
		<tag k="ssr:stedsnr" v="253378" />
	</node>
	<node lat="62.77361944760544" lon="6.444050007743517" id="-1005">
		<tag k="name" v="Vågsløkmyra" />
		<tag k="natural" v="wetland" />
		<tag k="ssr:stedsnr" v="153124" />
	</node>
	<node lat="62.72761388524679" lon="6.461183338211585" id="-1009">
		<tag k="name" v="Juvikvollen" />
		<tag k="place" v="locality" />
		<tag k="ssr:stedsnr" v="153509" />
	</node>
	<node lat="62.47926388939571" lon="6.565244449976117" id="-1037">
		<tag k="historic" v="shieling" />
		<tag k="name" v="Sætra" />
		<tag k="place" v="locality" />
		<tag k="ssr:stedsnr" v="156007" />
	</node>
	<node lat="62.487613892432186" lon="6.627063893060017" id="-1038">
		<tag k="name" v="Myra" />
		<tag k="natural" v="wetland" />
		<tag k="ssr:stedsnr" v="156020" />
	</node>
	<node lat="62.59396666428787" lon="6.315830556173087" id="-1110">
		<tag k="name" v="Dalssteinen" />
		<tag k="natural" v="stone" />
		<tag k="ssr:stedsnr" v="215309" />
	</node>
	<node lat="62.56044166536299" lon="6.684452776343912" id="-1121">
		<tag k="name" v="Gamlesætermyra" />
		<tag k="natural" v="wetland" />
		<tag k="ssr:stedsnr" v="216326" />
	</node>
	<node lat="62.60561667084888" lon="6.317374992622276" id="-1123">
		<tag k="name" v="Skarvesteinen" />
		<tag k="natural" v="stone" />
		<tag k="ssr:stedsnr" v="216611" />
	</node>
	<node lat="62.53545833106051" lon="6.573561112774833" id="-1129">
		<tag k="name" v="Skarvesteinane" />
		<tag k="natural" v="stone" />
		<tag k="ssr:stedsnr" v="216578" />
	</node>
	<node lat="62.55188055556925" lon="6.371763889827731" id="-1211">
		<tag k="name" v="Tverrbotsskogen" />
		<tag k="place" v="locality" />
		<tag k="ssr:stedsnr" v="254233" />
	</node>
	<node lat="62.66515277391127" lon="6.2723583259691" id="-1251">
		<tag k="name" v="Gråmyra" />
		<tag k="natural" v="wetland" />
		<tag k="ssr:stedsnr" v="457300" />
	</node>
	<node lat="62.62794166970551" lon="6.603447220701425" id="-1271">
		<tag k="name" v="Nylenda" />
		<tag k="place" v="locality" />
		<tag k="ssr:stedsnr" v="458437" />
	</node>
	<node lat="62.617941670133554" lon="6.71469444594253" id="-1272">
		<tag k="name" v="Urlirabben" />
		<tag k="natural" v="scree" />
		<tag k="ssr:stedsnr" v="458445" />
	</node>
	<node lat="62.62923610808324" lon="6.6757916572951945" id="-1273">
		<tag k="name" v="Akslaura" />
		<tag k="natural" v="scree" />
		<tag k="ssr:stedsnr" v="458450" />
	</node>
	<node lat="62.62143888549437" lon="6.667758336228988" id="-1275">
		<tag k="name" v="Gjerdet" />
		<tag k="place" v="locality" />
		<tag k="ssr:stedsnr" v="458544" />
	</node>
	<node lat="62.578533335082305" lon="6.626975008940493" id="-1286">
		<tag k="name" v="Rabben" />
		<tag k="natural" v="scree" />
		<tag k="ssr:stedsnr" v="458998" />
	</node>
	<node lat="62.526169443327575" lon="6.539047228454176" id="-1333">
		<tag k="name" v="Kallskarsteinen" />
		<tag k="natural" v="stone" />
		<tag k="ssr:stedsnr" v="277003" />
	</node>
	<node lat="62.61982777781386" lon="6.60175832608177" id="-1341">
		<tag k="name" v="Teistura" />
		<tag k="natural" v="scree" />
		<tag k="ssr:stedsnr" v="277344" />
	</node>
	<node lat="62.519375000768335" lon="6.516858334556386" id="-1348">
		<tag k="name" v="Hagen" />
		<tag k="place" v="locality" />
		<tag k="ssr:stedsnr" v="278109" />
	</node>
	<node lat="62.45212777561485" lon="6.945747218290166" id="-1414">
		<tag k="name" v="Raudgrovmyrane" />
		<tag k="natural" v="wetland" />
		<tag k="ssr:stedsnr" v="460596" />
	</node>
	<node lat="62.46872500269648" lon="6.7881000002225935" id="-1434">
		<tag k="name" v="Øtresteinen" />
		<tag k="natural" v="stone" />
		<tag k="ssr:stedsnr" v="460974" />
	</node>
	<node lat="62.47761111364345" lon="6.726819448251275" id="-1435">
		<tag k="name" v="Sauesteinen" />
		<tag k="natural" v="stone" />
		<tag k="ssr:stedsnr" v="460984" />
	</node>
	<node lat="62.51171666804763" lon="6.274849991996833" id="-1447">
		<tag k="name" v="Nakkemyra" />
		<tag k="natural" v="wetland" />
		<tag k="ssr:stedsnr" v="462519" />
	</node>
	<node lat="62.51526389285899" lon="6.6430499999648" id="-1474">
		<tag k="name" v="Ringemyra" />
		<tag k="natural" v="wetland" />
		<tag k="ssr:stedsnr" v="314173" />
	</node>
	<node lat="62.637786112945996" lon="6.241338897396847" id="-1530">
		<tag k="name" v="Myskjagjerda" />
		<tag k="place" v="locality" />
		<tag k="ssr:stedsnr" v="335597" />
	</node>
	<node lat="62.53970000004911" lon="6.642552782657025" id="-1546">
		<tag k="name" v="Skarsura" />
		<tag k="natural" v="scree" />
		<tag k="ssr:stedsnr" v="337703" />
	</node>
	<node lat="62.574400000231336" lon="6.594955557835934" id="-1559">
		<tag k="name" v="Løsteinen" />
		<tag k="natural" v="stone" />
		<tag k="ssr:stedsnr" v="337817" />
	</node>
	<node lat="62.52744999826848" lon="6.592261105250308" id="-1567">
		<tag k="name" v="Stormyra" />
		<tag k="natural" v="wetland" />
		<tag k="ssr:stedsnr" v="338006" />
	</node>
	<node lat="62.51188611354844" lon="6.6151583314650235" id="-1578">
		<tag k="name" v="Almurene" />
		<tag k="natural" v="scree" />
		<tag k="ssr:stedsnr" v="338406" />
	</node>
	<node lat="62.44887777965851" lon="6.917325000274833" id="-1588">
		<tag k="name" v="Løkjingsmyrane" />
		<tag k="natural" v="wetland" />
		<tag k="ssr:stedsnr" v="338627" />
	</node>
	<node lat="62.483555551773506" lon="6.376902783063037" id="-1590">
		<tag k="name" v="Hovdeland" />
		<tag k="natural" v="wetland" />
		<tag k="ssr:stedsnr" v="341603" />
	</node>
	<node lat="62.50776388598748" lon="6.39807222645586" id="-1630">
		<tag k="name" v="Årsetmyrane" />
		<tag k="natural" v="wetland" />
		<tag k="ssr:stedsnr" v="375116" />
	</node>
	<node lat="62.52557222591979" lon="6.632886117042874" id="-1631">
		<tag k="name" v="Leitamyrane" />
		<tag k="natural" v="wetland" />
		<tag k="ssr:stedsnr" v="375136" />
	</node>
	<node lat="62.527644441178815" lon="6.5968972162775446" id="-1634">
		<tag k="name" v="Stormyra" />
		<tag k="natural" v="wetland" />
		<tag k="ssr:stedsnr" v="375206" />
	</node>
	<node lat="62.749244443378714" lon="6.382155553626278" id="-1677">
		<tag k="alt_name" v="Øyarenden" />
		<tag k="name" v="Øyaenden" />
		<tag k="place" v="locality" />
		<tag k="ssr:stedsnr" v="395927" />
	</node>
	<node lat="62.62392221994044" lon="6.63636110329678" id="-1698">
		<tag k="name" v="Helleurda" />
		<tag k="natural" v="scree" />
		<tag k="ssr:stedsnr" v="397231" />
	</node>
	<node lat="62.590283329075874" lon="6.30316666104393" id="-1701">
		<tag k="historic" v="shieling" />
		<tag k="name" v="Storstølen" />
		<tag k="place" v="locality" />
		<tag k="ssr:stedsnr" v="397292" />
	</node>
	<node lat="62.58498333644746" lon="6.6230499992376695" id="-1704">
		<tag k="name" v="Hysesteinen" />
		<tag k="natural" v="stone" />
		<tag k="ssr:stedsnr" v="397981" />
	</node>
	<node lat="62.59003333253591" lon="6.701836116618713" id="-1714">
		<tag k="name" v="Kolurda" />
		<tag k="natural" v="scree" />
		<tag k="ssr:stedsnr" v="398707" />
	</node>
	<node lat="62.48532777527082" lon="6.873850002367078" id="-1744">
		<tag k="name" v="Kvennhusøyna" />
		<tag k="natural" v="wetland" />
		<tag k="ssr:stedsnr" v="399593" />
	</node>
	<node lat="62.576041668600794" lon="6.630663887038816" id="-1786">
		<tag k="name" v="Hovsetura" />
		<tag k="natural" v="scree" />
		<tag k="ssr:stedsnr" v="436273" />
	</node>
	<node lat="62.67673055585184" lon="6.269877779925189" id="-1837">
		<tag k="name" v="Svøra" />
		<tag k="natural" v="scree" />
		<tag k="ssr:stedsnr" v="457412" />
	</node>
	<node lat="62.633733335078816" lon="6.667252777461252" id="-1849">
		<tag k="name" v="Stabburet" />
		<tag k="natural" v="stone" />
		<tag k="ssr:stedsnr" v="458403" />
	</node>
	<node lat="62.59250833766152" lon="6.331702778857845" id="-1852">
		<tag k="name" v="Klombersteinane" />
		<tag k="natural" v="stone" />
		<tag k="ssr:stedsnr" v="458414" />
	</node>
	<node lat="62.60377777334908" lon="6.672380554988285" id="-1859">
		<tag k="name" v="Nausttufta" />
		<tag k="place" v="locality" />
		<tag k="ssr:stedsnr" v="458869" />
	</node>
	<node lat="62.6297138887201" lon="6.611488893420404" id="-1866">
		<tag k="landuse" v="peat_cutting" />
		<tag k="name" v="Torvhola" />
		<tag k="ssr:stedsnr" v="459372" />
	</node>
	<node lat="62.547794440267616" lon="6.525305561560946" id="-1874">
		<tag k="name" v="Brekka" />
		<tag k="place" v="locality" />
		<tag k="ssr:stedsnr" v="459576" />
	</node>
	<node lat="62.493455555632146" lon="6.816391658580418" id="-1890">
		<tag k="name" v="Løkjingsmyra" />
		<tag k="natural" v="wetland" />
		<tag k="ssr:stedsnr" v="460606" />
	</node>
	<node lat="62.43697221862539" lon="6.440211108726987" id="-1905">
		<tag k="name" v="Gullmyra" />
		<tag k="natural" v="wetland" />
		<tag k="ssr:stedsnr" v="462620" />
	</node>
	<node lat="62.59023610699165" lon="6.3672444364815455" id="-1972">
		<tag k="name" v="Hestemyrane" />
		<tag k="natural" v="wetland" />
		<tag k="ssr:stedsnr" v="679335" />
	</node>
	<node lat="62.673647222113146" lon="6.32474722484365" id="-2054">
		<tag k="name" v="Skulemyra" />
		<tag k="natural" v="wetland" />
		<tag k="ssr:stedsnr" v="497997" />
	</node>
	<node lat="62.54312222576064" lon="6.54563610466853" id="-2088">
		<tag k="name" v="Skinnbroka" />
		<tag k="place" v="locality" />
		<tag k="ssr:stedsnr" v="519014" />
	</node>
	<node lat="62.55225277788563" lon="6.528388883904382" id="-2094">
		<tag k="name" v="Stormyra" />
		<tag k="natural" v="wetland" />
		<tag k="ssr:stedsnr" v="519610" />
	</node>
	<node lat="62.52023333324458" lon="6.625849995862099" id="-2107">
		<tag k="name" v="Fløtane" />
		<tag k="place" v="locality" />
		<tag k="ssr:stedsnr" v="520013" />
	</node>
	<node lat="62.419344445516856" lon="6.3976972292877905" id="-2145">
		<tag k="name" v="Røysene" />
		<tag k="natural" v="scree" />
		<tag k="ssr:stedsnr" v="541011" />
	</node>
	<node lat="62.63101944802183" lon="6.16725554729612" id="-2213">
		<tag k="historic" v="shieling" />
		<tag k="name" v="Stølen" />
		<tag k="place" v="locality" />
		<tag k="ssr:stedsnr" v="578909" />
	</node>
	<node lat="62.544166666866325" lon="6.5259888906870245" id="-2226">
		<tag k="name" v="Vilamgjerde" />
		<tag k="place" v="locality" />
		<tag k="ssr:stedsnr" v="580009" />
	</node>
	<node lat="62.590138885655996" lon="6.6887194362650435" id="-2239">
		<tag k="name" v="Myrbærholtet" />
		<tag k="natural" v="wetland" />
		<tag k="ssr:stedsnr" v="580441" />
	</node>
	<node lat="62.49156944053914" lon="6.549633325049888" id="-2253">
		<tag k="name" v="Demmemyrane" />
		<tag k="natural" v="wetland" />
		<tag k="ssr:stedsnr" v="581346" />
	</node>
	<node lat="62.50845555862334" lon="6.904497220644572" id="-2258">
		<tag k="name" v="Dalemyrane" />
		<tag k="natural" v="wetland" />
		<tag k="ssr:stedsnr" v="581545" />
	</node>
	<node lat="62.50604166397912" lon="6.799022226910125" id="-2261">
		<tag k="name" v="Løkane" />
		<tag k="natural" v="wetland" />
		<tag k="ssr:stedsnr" v="581551" />
	</node>
	<node lat="62.448624999269484" lon="6.3884888887371085" id="-2285">
		<tag k="name" v="Holtane" />
		<tag k="place" v="locality" />
		<tag k="ssr:stedsnr" v="583998" />
	</node>
	<node lat="62.60541388860356" lon="6.248108326694276" id="-2322">
		<tag k="historic" v="shieling" />
		<tag k="name" v="Gjerdet" />
		<tag k="place" v="locality" />
		<tag k="ssr:stedsnr" v="700437" />
	</node>
	<node lat="62.69532500345335" lon="6.41710278327927" id="-2410">
		<tag k="name" v="Dysvikmyra" />
		<tag k="natural" v="wetland" />
		<tag k="ssr:stedsnr" v="618889" />
	</node>
	<node lat="62.49059722374127" lon="6.584550009296819" id="-2416">
		<tag k="name" v="Høgsætermyra" />
		<tag k="natural" v="wetland" />
		<tag k="ssr:stedsnr" v="702288" />
	</node>
	<node lat="62.54179722497077" lon="6.711083327937875" id="-2446">
		<tag k="name" v="Eikrolgjæra" />
		<tag k="place" v="locality" />
		<tag k="ssr:stedsnr" v="703447" />
	</node>
	<node lat="62.62859444001568" lon="6.648202768589967" id="-2497">
		<tag k="name" v="Torvsteinen" />
		<tag k="natural" v="stone" />
		<tag k="ssr:stedsnr" v="640022" />
	</node>
	<node lat="62.47691944468743" lon="6.659266674356709" id="-2514">
		<tag k="name" v="Stormyra" />
		<tag k="natural" v="wetland" />
		<tag k="ssr:stedsnr" v="641008" />
	</node>
	<node lat="62.53477222588613" lon="6.3937027713112515" id="-2519">
		<tag k="name" v="Holmesetgjerdet" />
		<tag k="place" v="locality" />
		<tag k="ssr:stedsnr" v="640775" />
	</node>
	<node lat="62.492922225326495" lon="6.562422219429728" id="-2527">
		<tag k="name" v="Depleskarmyra" />
		<tag k="natural" v="wetland" />
		<tag k="ssr:stedsnr" v="641253" />
	</node>
	<node lat="62.507277778212156" lon="6.726580548113869" id="-2553">
		<tag k="name" v="Beinmyra" />
		<tag k="natural" v="wetland" />
		<tag k="ssr:stedsnr" v="642441" />
	</node>
	<node lat="62.54176667024915" lon="6.7934000047909535" id="-2558">
		<tag k="historic" v="shieling" />
		<tag k="name" v="Engsetsætra" />
		<tag k="place" v="locality" />
		<tag k="ssr:stedsnr" v="642808" />
	</node>
	<node lat="62.74763055539544" lon="6.357933332750144" id="-2637">
		<tag k="name" v="Ekresøyla" />
		<tag k="natural" v="wetland" />
		<tag k="ssr:stedsnr" v="698770" />
	</node>
	<node lat="62.585719447523005" lon="6.469063879684072" id="-2663">
		<tag k="name" v="Ringstadmyrane" />
		<tag k="natural" v="wetland" />
		<tag k="ssr:stedsnr" v="701879" />
	</node>
	<node lat="62.46831388479795" lon="6.867674992392978" id="-2681">
		<tag k="name" v="Kvile" />
		<tag k="natural" v="stone" />
		<tag k="ssr:stedsnr" v="703530" />
	</node>
	<node lat="62.48065555873056" lon="6.723597217272209" id="-2689">
		<tag k="name" v="Barlindteigen" />
		<tag k="place" v="locality" />
		<tag k="ssr:stedsnr" v="703725" />
	</node>
	<node lat="62.466544440833125" lon="6.779113898348884" id="-2691">
		<tag k="name" v="Preikestolmyrane" />
		<tag k="natural" v="wetland" />
		<tag k="ssr:stedsnr" v="703666" />
	</node>
	<node lat="62.49680277511705" lon="6.797205549882853" id="-2692">
		<tag k="name" v="Hjellane" />
		<tag k="natural" v="wetland" />
		<tag k="ssr:stedsnr" v="703668" />
	</node>
	<node lat="62.44646666407612" lon="6.365336115021751" id="-2695">
		<tag k="name" v="Nesgjerdet" />
		<tag k="place" v="locality" />
		<tag k="ssr:stedsnr" v="705625" />
	</node>
	<node lat="62.51731944128647" lon="6.43350277479584" id="-2712">
		<tag k="name" v="Ura" />
		<tag k="natural" v="scree" />
		<tag k="ssr:stedsnr" v="900347" />
	</node>
	<node lat="62.630041666377295" lon="6.152438880892735" id="-2782">
		<tag k="name" v="Storhaugmyrane" />
		<tag k="natural" v="wetland" />
		<tag k="ssr:stedsnr" v="760912" />
	</node>
	<node lat="62.583752779425396" lon="6.280269453037899" id="-2787">
		<tag k="name" v="Merramyra" />
		<tag k="natural" v="wetland" />
		<tag k="ssr:stedsnr" v="760892" />
	</node>
	<node lat="62.66761111283641" lon="6.324338885665593" id="-2788">
		<tag k="name" v="Storura" />
		<tag k="natural" v="scree" />
		<tag k="ssr:stedsnr" v="760897" />
	</node>
	<node lat="62.59260833252858" lon="6.317533333688667" id="-2789">
		<tag k="name" v="Dalsskogen" />
		<tag k="place" v="locality" />
		<tag k="ssr:stedsnr" v="761308" />
	</node>
	<node lat="62.634466670662455" lon="6.670230550259404" id="-2790">
		<tag k="name" v="Stova" />
		<tag k="natural" v="stone" />
		<tag k="ssr:stedsnr" v="761408" />
	</node>
	<node lat="62.55285000176738" lon="6.660402782819213" id="-2792">
		<tag k="name" v="Myrane" />
		<tag k="natural" v="wetland" />
		<tag k="ssr:stedsnr" v="761554" />
	</node>
	<node lat="62.6029944432474" lon="6.436241660581551" id="-2805">
		<tag k="historic" v="shieling" />
		<tag k="name" v="Jonsokvollen" />
		<tag k="place" v="locality" />
		<tag k="ssr:stedsnr" v="762504" />
	</node>
	<node lat="62.51417500337117" lon="6.672350000195702" id="-2811">
		<tag k="name" v="Rognskarmyra" />
		<tag k="natural" v="wetland" />
		<tag k="ssr:stedsnr" v="763044" />
	</node>
	<node lat="62.49718610848732" lon="6.8833000005651845" id="-2828">
		<tag k="name" v="Grønevøtå" />
		<tag k="natural" v="wetland" />
		<tag k="ssr:stedsnr" v="763641" />
	</node>
	<node lat="62.637461109532154" lon="6.256619439437884" id="-2947">
		<tag k="name" v="Litlemyra" />
		<tag k="natural" v="wetland" />
		<tag k="ssr:stedsnr" v="821585" />
	</node>
	<node lat="62.539641668079206" lon="6.444083339170192" id="-2961">
		<tag k="name" v="Holemyra" />
		<tag k="natural" v="wetland" />
		<tag k="ssr:stedsnr" v="921253" />
	</node>
	<node lat="62.59371388985573" lon="6.651286104782176" id="-2963">
		<tag k="name" v="Heiasteinen" />
		<tag k="natural" v="stone" />
		<tag k="ssr:stedsnr" v="822886" />
	</node>
	<node lat="62.59137222604531" lon="6.636116669116955" id="-2964">
		<tag k="name" v="Trappesteinane" />
		<tag k="natural" v="stone" />
		<tag k="ssr:stedsnr" v="822889" />
	</node>
	<node lat="62.55805277642692" lon="6.733008326100371" id="-2969">
		<tag k="name" v="Langemyra" />
		<tag k="natural" v="wetland" />
		<tag k="ssr:stedsnr" v="823314" />
	</node>
	<node lat="62.513452779312765" lon="6.63888888513796" id="-2987">
		<tag k="name" v="Pehola" />
		<tag k="place" v="locality" />
		<tag k="ssr:stedsnr" v="824023" />
	</node>
	<node lat="62.505138890845124" lon="6.695505560118386" id="-3016">
		<tag k="name" v="Solskinsmyra" />
		<tag k="natural" v="wetland" />
		<tag k="ssr:stedsnr" v="824467" />
	</node>
	<node lat="62.4776694426799" lon="6.826861111593349" id="-3022">
		<tag k="name" v="Prestemarka" />
		<tag k="place" v="locality" />
		<tag k="ssr:stedsnr" v="824623" />
	</node>
	<node lat="62.46395555238198" lon="6.775941676149322" id="-3026">
		<tag k="name" v="Limura" />
		<tag k="natural" v="scree" />
		<tag k="ssr:stedsnr" v="824682" />
	</node>
	<node lat="62.46043889349569" lon="6.778525005602035" id="-3027">
		<tag k="name" v="Gullura" />
		<tag k="natural" v="scree" />
		<tag k="ssr:stedsnr" v="824684" />
	</node>
	<node lat="62.58302222524016" lon="6.448088883871388" id="-3142">
		<tag k="name" v="Håvikmyrane" />
		<tag k="natural" v="wetland" />
		<tag k="ssr:stedsnr" v="861306" />
	</node>
	<node lat="62.54105832992982" lon="6.5278027854660765" id="-3199">
		<tag k="name" v="Øyra" />
		<tag k="place" v="locality" />
		<tag k="ssr:stedsnr" v="884067" />
	</node>
	<node lat="62.57440555654621" lon="6.627266672198556" id="-3200">
		<tag k="name" v="Seljefonna" />
		<tag k="place" v="locality" />
		<tag k="ssr:stedsnr" v="883998" />
	</node>
	<node lat="62.54168610875233" lon="6.722466672035307" id="-3215">
		<tag k="name" v="Litle Engsetgjæra" />
		<tag k="place" v="locality" />
		<tag k="ssr:stedsnr" v="885422" />
	</node>
	<node lat="62.4671888933683" lon="6.858241671446702" id="-3236">
		<tag k="name" v="Båtmyra" />
		<tag k="natural" v="wetland" />
		<tag k="ssr:stedsnr" v="885611" />
	</node>
	<node lat="62.4571555553043" lon="6.373399993535857" id="-3248">
		<tag k="name" v="Bulegene" />
		<tag k="place" v="locality" />
		<tag k="ssr:stedsnr" v="887630" />
	</node>
	<node lat="62.51418333773047" lon="6.667627776049623" id="-3331">
		<tag k="name" v="Stormyra" />
		<tag k="natural" v="wetland" />
		<tag k="ssr:stedsnr" v="945003" />
	</node>
	<node lat="62.4907166653005" lon="6.808391662881012" id="-3342">
		<tag k="name" v="Småløene" />
		<tag k="place" v="locality" />
		<tag k="ssr:stedsnr" v="945438" />
	</node>
	<node lat="62.48436667108063" lon="6.813222225872885" id="-3345">
		<tag k="name" v="Åvollen" />
		<tag k="place" v="locality" />
		<tag k="ssr:stedsnr" v="945536" />
	</node>
	<node lat="62.51556666913014" lon="6.477513882743908" id="-3363">
		<tag k="name" v="Mauremyrane" />
		<tag k="natural" v="wetland" />
		<tag k="ssr:stedsnr" v="946337" />
	</node>
	<node lat="62.48130833163916" lon="6.7273083301716925" id="-3368">
		<tag k="name" v="Djupdalsmyra" />
		<tag k="natural" v="wetland" />
		<tag k="ssr:stedsnr" v="946410" />
	</node>
	<node lat="62.55024444339253" lon="6.551672229152906" id="-3436">
		<tag k="name" v="Stormyra" />
		<tag k="natural" v="wetland" />
		<tag k="ssr:stedsnr" v="12227" />
	</node>
	<node lat="62.53994444444029" lon="6.4546750038004586" id="-3443">
		<tag k="name" v="Langemyra" />
		<tag k="natural" v="wetland" />
		<tag k="ssr:stedsnr" v="11242" />
	</node>
	<node lat="62.50265833534034" lon="6.678452785190775" id="-3507">
		<tag k="name" v="Prestegardsskogen" />
		<tag k="place" v="locality" />
		<tag k="ssr:stedsnr" v="35529" />
	</node>
	<node lat="62.614508329419664" lon="6.214605562188599" id="-3526">
		<tag k="name" v="Myrane" />
		<tag k="natural" v="wetland" />
		<tag k="ssr:stedsnr" v="32693" />
	</node>
	<node lat="62.626277777725306" lon="6.604469437689769" id="-3530">
		<tag k="name" v="Tuftene" />
		<tag k="place" v="locality" />
		<tag k="ssr:stedsnr" v="33426" />
	</node>
	<node lat="62.58571111058787" lon="6.278941674637343" id="-3540">
		<tag k="name" v="Skjeltemyrane" />
		<tag k="natural" v="wetland" />
		<tag k="ssr:stedsnr" v="32900" />
	</node>
	<node lat="62.5946222210129" lon="6.309977779625022" id="-3542">
		<tag k="name" v="Risnesskogen" />
		<tag k="place" v="locality" />
		<tag k="ssr:stedsnr" v="33293" />
	</node>
	<node lat="62.479074997982146" lon="6.679583323966666" id="-3560">
		<tag k="name" v="Ospura" />
		<tag k="natural" v="scree" />
		<tag k="ssr:stedsnr" v="35074" />
	</node>
	<node lat="62.49673055681965" lon="6.531783337149998" id="-3562">
		<tag k="name" v="Fonna" />
		<tag k="place" v="locality" />
		<tag k="ssr:stedsnr" v="35129" />
	</node>
	<node lat="62.51668889256352" lon="6.621575006457308" id="-3585">
		<tag k="name" v="Gjerda" />
		<tag k="place" v="locality" />
		<tag k="ssr:stedsnr" v="35024" />
	</node>
	<node lat="62.541380558986226" lon="6.699830548778381" id="-3604">
		<tag k="name" v="Kalvegjæra" />
		<tag k="place" v="locality" />
		<tag k="ssr:stedsnr" v="35495" />
	</node>
	<node lat="62.46185833562942" lon="6.8370638808255295" id="-3614">
		<tag k="name" v="Myra" />
		<tag k="natural" v="wetland" />
		<tag k="ssr:stedsnr" v="35641" />
	</node>
	<node lat="62.463666666896096" lon="6.833824993128566" id="-3615">
		<tag k="name" v="Timbremyra" />
		<tag k="natural" v="wetland" />
		<tag k="ssr:stedsnr" v="35645" />
	</node>
	<node lat="62.50108333703233" lon="6.9067805494470695" id="-3616">
		<tag k="name" v="Fonnagjølet" />
		<tag k="place" v="locality" />
		<tag k="ssr:stedsnr" v="35651" />
	</node>
	<node lat="62.58175278004354" lon="6.269638895516545" id="-3705">
		<tag k="name" v="Gamlemsmyrane" />
		<tag k="natural" v="wetland" />
		<tag k="ssr:stedsnr" v="72350" />
	</node>
	<node lat="62.63733611005998" lon="6.24832778515432" id="-3718">
		<tag k="name" v="Myskjaurane" />
		<tag k="natural" v="scree" />
		<tag k="ssr:stedsnr" v="72449" />
	</node>
	<node lat="62.63071944871089" lon="6.179708327054691" id="-3782">
		<tag k="name" v="Demmemyra" />
		<tag k="natural" v="wetland" />
		<tag k="ssr:stedsnr" v="93559" />
	</node>
	<node lat="62.51315277577526" lon="6.644524994276713" id="-3828">
		<tag k="name" v="Urene" />
		<tag k="natural" v="scree" />
		<tag k="ssr:stedsnr" v="96039" />
	</node>
	<node lat="62.49334722320017" lon="6.55490000444047" id="-3830">
		<tag k="name" v="Demmene" />
		<tag k="natural" v="wetland" />
		<tag k="ssr:stedsnr" v="96044" />
	</node>
	<node lat="62.50620833553354" lon="6.701000000788164" id="-3832">
		<tag k="name" v="Olmanngjerda" />
		<tag k="place" v="locality" />
		<tag k="ssr:stedsnr" v="96057" />
	</node>
	<node lat="62.533458330176245" lon="6.797622219182423" id="-3844">
		<tag k="historic" v="shieling" />
		<tag k="name" v="Nevrevollen" />
		<tag k="place" v="locality" />
		<tag k="ssr:stedsnr" v="96412" />
	</node>
	<node lat="62.46412222446906" lon="6.411858325015028" id="-3879">
		<tag k="name" v="Storura" />
		<tag k="natural" v="scree" />
		<tag k="ssr:stedsnr" v="98937" />
	</node>
	<node lat="62.624844447121696" lon="6.6416305484097515" id="-3913">
		<tag k="name" v="Fonna" />
		<tag k="place" v="locality" />
		<tag k="ssr:stedsnr" v="133398" />
	</node>
	<node lat="62.509005554750225" lon="6.416127768510229" id="-3949">
		<tag k="name" v="Stokkemyrane" />
		<tag k="natural" v="wetland" />
		<tag k="ssr:stedsnr" v="133139" />
	</node>
	<node lat="62.52147778037111" lon="6.510477783852573" id="-3955">
		<tag k="name" v="Brunamyra" />
		<tag k="natural" v="wetland" />
		<tag k="ssr:stedsnr" v="133173" />
	</node>
	<node lat="62.772327782199824" lon="6.4372972199749245" id="-4019">
		<tag k="name" v="Grova" />
		<tag k="natural" v="wetland" />
		<tag k="ssr:stedsnr" v="153136" />
	</node>
	<node lat="62.67953333489056" lon="6.195244449760557" id="-4027">
		<tag k="name" v="Frøysteinen" />
		<tag k="natural" v="stone" />
		<tag k="ssr:stedsnr" v="153335" />
	</node>
	<node lat="62.68277221876542" lon="6.175883335725333" id="-4032">
		<tag k="name" v="Grjøtet" />
		<tag k="place" v="locality" />
		<tag k="ssr:stedsnr" v="153540" />
	</node>
	<node lat="62.615900003246885" lon="6.155316666733854" id="-4037">
		<tag k="historic" v="shieling" />
		<tag k="name" v="Stølen" />
		<tag k="place" v="locality" />
		<tag k="ssr:stedsnr" v="153935" />
	</node>
	<node lat="62.68005555562614" lon="6.314769437931687" id="-4038">
		<tag k="name" v="Gamleura" />
		<tag k="natural" v="scree" />
		<tag k="ssr:stedsnr" v="153938" />
	</node>
	<node lat="62.597408335723365" lon="6.36542499435367" id="-4050">
		<tag k="name" v="Rambjørsrøysa" />
		<tag k="natural" v="scree" />
		<tag k="ssr:stedsnr" v="155270" />
	</node>
	<node lat="62.569838886942996" lon="6.691400008570631" id="-4056">
		<tag k="name" v="Bjønnasteinen" />
		<tag k="natural" v="stone" />
		<tag k="ssr:stedsnr" v="155453" />
	</node>
	<node lat="62.56031389127104" lon="6.687152777359401" id="-4058">
		<tag k="name" v="Orøyane" />
		<tag k="place" v="locality" />
		<tag k="ssr:stedsnr" v="155344" />
	</node>
	<node lat="62.54998332934025" lon="6.564175001230843" id="-4072">
		<tag k="name" v="Skogademma" />
		<tag k="natural" v="wetland" />
		<tag k="ssr:stedsnr" v="155490" />
	</node>
	<node lat="62.49623611254732" lon="6.544486118036083" id="-4093">
		<tag k="name" v="Myrane" />
		<tag k="natural" v="wetland" />
		<tag k="ssr:stedsnr" v="156094" />
	</node>
	<node lat="62.50363333437784" lon="6.671730564029495" id="-4115">
		<tag k="name" v="Ljøsemyra" />
		<tag k="natural" v="wetland" />
		<tag k="ssr:stedsnr" v="156454" />
	</node>
	<node lat="62.48318333437325" lon="6.859133332829513" id="-4118">
		<tag k="name" v="Nylendet" />
		<tag k="place" v="locality" />
		<tag k="ssr:stedsnr" v="156556" />
	</node>
	<node lat="62.48825000391415" lon="6.814438889989173" id="-4122">
		<tag k="name" v="Risteigen" />
		<tag k="place" v="locality" />
		<tag k="ssr:stedsnr" v="156579" />
	</node>
	<node lat="62.494663892134746" lon="6.29504444196716" id="-4143">
		<tag k="name" v="Myklebustura" />
		<tag k="natural" v="scree" />
		<tag k="ssr:stedsnr" v="159575" />
	</node>
	<node lat="62.51065555759949" lon="6.287961118343966" id="-4147">
		<tag k="name" v="Mørkeskogen" />
		<tag k="place" v="locality" />
		<tag k="ssr:stedsnr" v="159617" />
	</node>
	<node lat="62.47045000006401" lon="6.275875008511662" id="-4180">
		<tag k="name" v="Leirstadurene" />
		<tag k="natural" v="scree" />
		<tag k="ssr:stedsnr" v="179161" />
	</node>
	<node lat="62.51398055557572" lon="6.673013898565214" id="-4199">
		<tag k="name" v="Rogneskarmyra" />
		<tag k="natural" v="wetland" />
		<tag k="ssr:stedsnr" v="193145" />
	</node>
	<node lat="62.57520314371472" lon="6.63708540000877" id="-4205">
		<tag k="historic" v="shieling" />
		<tag k="name" v="Hovsetsætra" />
		<tag k="place" v="locality" />
		<tag k="ssr:stedsnr" v="193299" />
	</node>
	<node lat="62.4423299217817" lon="6.917320508170701" id="-4228">
		<tag k="name" v="Dektene" />
		<tag k="natural" v="wetland" />
		<tag k="ssr:stedsnr" v="193390" />
	</node>
	<node lat="62.53805000345842" lon="6.286791660549673" id="-4263">
		<tag k="name" v="Langemyra" />
		<tag k="natural" v="wetland" />
		<tag k="ssr:stedsnr" v="194211" />
	</node>
	<node lat="62.701419448429654" lon="6.3902111037189435" id="-4300">
		<tag k="name" v="Bløtane" />
		<tag k="natural" v="wetland" />
		<tag k="ssr:stedsnr" v="194921" />
	</node>
	<node lat="62.73993332958361" lon="6.4353555632683" id="-4330">
		<tag k="name" v="Demma" />
		<tag k="natural" v="wetland" />
		<tag k="ssr:stedsnr" v="214300" />
	</node>
	<node lat="62.64096389234003" lon="6.2408111015028" id="-4335">
		<tag k="name" v="Grøneskreda" />
		<tag k="natural" v="scree" />
		<tag k="ssr:stedsnr" v="214594" />
	</node>
	<node lat="62.47486944114311" lon="6.86614999860973" id="-4349">
		<tag k="name" v="Giskemomyrane" />
		<tag k="natural" v="wetland" />
		<tag k="ssr:stedsnr" v="217479" />
	</node>
	<node lat="62.631719448445324" lon="6.663994438365653" id="-4359">
		<tag k="name" v="Eikenesmyrane" />
		<tag k="natural" v="wetland" />
		<tag k="ssr:stedsnr" v="216318" />
	</node>
	<node lat="62.54765000207312" lon="6.549344436490345" id="-4364">
		<tag k="name" v="Hagedemma" />
		<tag k="natural" v="wetland" />
		<tag k="ssr:stedsnr" v="216498" />
	</node>
	<node lat="62.58608333089498" lon="6.6263416584372745" id="-4377">
		<tag k="historic" v="shieling" />
		<tag k="name" v="Stølane" />
		<tag k="place" v="locality" />
		<tag k="ssr:stedsnr" v="216963" />
	</node>
	<node lat="62.58471110718405" lon="6.6263361021629015" id="-4385">
		<tag k="name" v="Bergåkerattelega" />
		<tag k="place" v="locality" />
		<tag k="ssr:stedsnr" v="216965" />
	</node>
	<node lat="62.49123889188514" lon="6.729925007499526" id="-4390">
		<tag k="name" v="Hølsbøen" />
		<tag k="place" v="locality" />
		<tag k="ssr:stedsnr" v="217054" />
	</node>
	<node lat="62.46741944178433" lon="6.552530557253643" id="-4399">
		<tag k="name" v="Sætremarka" />
		<tag k="place" v="locality" />
		<tag k="ssr:stedsnr" v="217348" />
	</node>
	<node lat="62.476997220913255" lon="6.522733323843077" id="-4403">
		<tag k="name" v="Myrbærmyrane" />
		<tag k="natural" v="wetland" />
		<tag k="ssr:stedsnr" v="217366" />
	</node>
	<node lat="62.52216944120209" lon="6.649091658050019" id="-4409">
		<tag k="name" v="Djupmyrane" />
		<tag k="natural" v="wetland" />
		<tag k="ssr:stedsnr" v="217466" />
	</node>
	<node lat="62.468663884870644" lon="6.883294448373869" id="-4419">
		<tag k="name" v="Demmingsmyra" />
		<tag k="natural" v="wetland" />
		<tag k="ssr:stedsnr" v="217652" />
	</node>
	<node lat="62.43929166899113" lon="6.347666667498571" id="-4442">
		<tag k="name" v="Rabbeura" />
		<tag k="natural" v="scree" />
		<tag k="ssr:stedsnr" v="220935" />
	</node>
	<node lat="62.637516667925986" lon="6.254397214513676" id="-4478">
		<tag k="name" v="Stormyra" />
		<tag k="natural" v="wetland" />
		<tag k="ssr:stedsnr" v="275558" />
	</node>
	<node lat="62.70186529240049" lon="6.36922179965052" id="-4486">
		<tag k="historic" v="shieling" />
		<tag k="name" v="Stølane" />
		<tag k="place" v="locality" />
		<tag k="ssr:stedsnr" v="275938" />
	</node>
	<node lat="62.616413888284164" lon="6.668044444396509" id="-4495">
		<tag k="name" v="Myra" />
		<tag k="natural" v="wetland" />
		<tag k="ssr:stedsnr" v="276565" />
	</node>
	<node lat="62.53195277863953" lon="6.584863883183236" id="-4497">
		<tag k="name" v="Øyrane" />
		<tag k="place" v="locality" />
		<tag k="ssr:stedsnr" v="276717" />
	</node>
	<node lat="62.61523611111567" lon="6.515869438953895" id="-4500">
		<tag k="name" v="Kryparsteinane" />
		<tag k="natural" v="stone" />
		<tag k="ssr:stedsnr" v="276886" />
	</node>
	<node lat="62.476041670398665" lon="6.890822219514589" id="-4520">
		<tag k="name" v="Stormyra" />
		<tag k="natural" v="wetland" />
		<tag k="ssr:stedsnr" v="278599" />
	</node>
	<node lat="62.589641663451076" lon="6.6992777762663405" id="-4527">
		<tag k="name" v="Storkvernhuset" />
		<tag k="natural" v="stone" />
		<tag k="ssr:stedsnr" v="277448" />
	</node>
	<node lat="62.575338891612134" lon="6.444174994529925" id="-4534">
		<tag k="name" v="Håvikdemma" />
		<tag k="natural" v="wetland" />
		<tag k="ssr:stedsnr" v="277900" />
	</node>
	<node lat="62.540591668152544" lon="6.6822194400530295" id="-4535">
		<tag k="name" v="Flatmark" />
		<tag k="natural" v="wetland" />
		<tag k="ssr:stedsnr" v="278009" />
	</node>
	<node lat="62.521569442674654" lon="6.639016673127557" id="-4537">
		<tag k="name" v="Stettemyra" />
		<tag k="natural" v="wetland" />
		<tag k="ssr:stedsnr" v="278052" />
	</node>
	<node lat="62.492136109159134" lon="6.53358056097926" id="-4544">
		<tag k="name" v="Mælemyra" />
		<tag k="natural" v="wetland" />
		<tag k="ssr:stedsnr" v="278101" />
	</node>
	<node lat="62.52120000230135" lon="6.843711120076672" id="-4552">
		<tag k="name" v="Lyrsteinen" />
		<tag k="natural" v="stone" />
		<tag k="ssr:stedsnr" v="278566" />
	</node>
	<node lat="62.483502775154314" lon="6.871233328862837" id="-4559">
		<tag k="name" v="Kalvegjæra" />
		<tag k="place" v="locality" />
		<tag k="ssr:stedsnr" v="278672" />
	</node>
	<node lat="62.480149997229816" lon="6.864511117351784" id="-4561">
		<tag k="name" v="Sirihagen" />
		<tag k="place" v="locality" />
		<tag k="ssr:stedsnr" v="278683" />
	</node>
	<node lat="62.45003055155262" lon="6.988894439778771" id="-4568">
		<tag k="name" v="Brenslemyrane" />
		<tag k="natural" v="wetland" />
		<tag k="ssr:stedsnr" v="278655" />
	</node>
	<node lat="62.647158336815" lon="6.350561116105077" id="-4673">
		<tag k="name" v="Langøyra" />
		<tag k="place" v="locality" />
		<tag k="ssr:stedsnr" v="315469" />
	</node>
	<node lat="62.54693611259601" lon="6.375877776887258" id="-4676">
		<tag k="name" v="Myra" />
		<tag k="natural" v="wetland" />
		<tag k="ssr:stedsnr" v="315234" />
	</node>
	<node lat="62.58551944118772" lon="6.33636111639061" id="-4682">
		<tag k="name" v="Uraskogen" />
		<tag k="place" v="locality" />
		<tag k="ssr:stedsnr" v="315344" />
	</node>
	<node lat="62.62667778084798" lon="6.163438882875742" id="-4726">
		<tag k="name" v="Kvitmyra" />
		<tag k="natural" v="wetland" />
		<tag k="ssr:stedsnr" v="335931" />
	</node>
	<node lat="62.70841111037664" lon="6.386180549062153" id="-4735">
		<tag k="name" v="Moldmyrane" />
		<tag k="natural" v="wetland" />
		<tag k="ssr:stedsnr" v="336950" />
	</node>
	<node lat="62.62689444882727" lon="6.602727784688644" id="-4741">
		<tag k="name" v="Storåkeren" />
		<tag k="place" v="locality" />
		<tag k="ssr:stedsnr" v="337379" />
	</node>
	<node lat="62.61906110891756" lon="6.547041670063965" id="-4761">
		<tag k="name" v="Skifta" />
		<tag k="natural" v="wetland" />
		<tag k="ssr:stedsnr" v="337758" />
	</node>
	<node lat="62.5921111114123" lon="6.670622219213554" id="-4876">
		<tag k="name" v="Vatnemyra" />
		<tag k="natural" v="wetland" />
		<tag k="ssr:stedsnr" v="375317" />
	</node>
	<node lat="62.60605817666276" lon="6.644687589158047" id="-4890">
		<tag k="historic" v="shieling" />
		<tag k="name" v="Orviksætra" />
		<tag k="place" v="locality" />
		<tag k="ssr:stedsnr" v="375374" />
	</node>
	<node lat="62.69856110731734" lon="6.377613891438085" id="-4942">
		<tag k="name" v="Vardemyrane" />
		<tag k="natural" v="wetland" />
		<tag k="ssr:stedsnr" v="396933" />
	</node>
	<node lat="62.59059166260311" lon="6.5840777807382125" id="-4961">
		<tag k="name" v="Tufta" />
		<tag k="place" v="locality" />
		<tag k="ssr:stedsnr" v="397760" />
	</node>
	<node lat="62.56904722261574" lon="6.600441670504822" id="-4963">
		<tag k="name" v="Bolturda" />
		<tag k="natural" v="scree" />
		<tag k="ssr:stedsnr" v="397839" />
	</node>
	<node lat="62.53290267218022" lon="6.793482801118869" id="-5169">
		<tag k="historic" v="shieling" />
		<tag k="name" v="Gamlesætra" />
		<tag k="place" v="locality" />
		<tag k="ssr:stedsnr" v="497839" />
	</node>
	<node lat="62.65155555807178" lon="6.324808325103494" id="-5180">
		<tag k="name" v="Storøyra" />
		<tag k="place" v="locality" />
		<tag k="ssr:stedsnr" v="497466" />
	</node>
	<node lat="62.566297220590315" lon="6.597569451914907" id="-5253">
		<tag k="name" v="Grøtura" />
		<tag k="natural" v="scree" />
		<tag k="ssr:stedsnr" v="519551" />
	</node>
	<node lat="62.594461115409864" lon="6.637772222505317" id="-5278">
		<tag k="name" v="Vedateigen" />
		<tag k="place" v="locality" />
		<tag k="ssr:stedsnr" v="519858" />
	</node>
	<node lat="62.571986114874626" lon="6.525588892286169" id="-5285">
		<tag k="name" v="Breiskarura" />
		<tag k="natural" v="scree" />
		<tag k="ssr:stedsnr" v="519993" />
	</node>
	<node lat="62.50311388889116" lon="6.6605583347478445" id="-5286">
		<tag k="name" v="Øyra" />
		<tag k="place" v="locality" />
		<tag k="ssr:stedsnr" v="520001" />
	</node>
	<node lat="62.487238886569465" lon="6.611602770268127" id="-5301">
		<tag k="name" v="Blokkebærmyra" />
		<tag k="natural" v="wetland" />
		<tag k="ssr:stedsnr" v="520324" />
	</node>
	<node lat="62.500397220092424" lon="6.899886116925904" id="-5328">
		<tag k="name" v="Fonna" />
		<tag k="place" v="locality" />
		<tag k="ssr:stedsnr" v="520612" />
	</node>
	<node lat="62.497633330780154" lon="6.789419436894469" id="-5331">
		<tag k="name" v="Bøane" />
		<tag k="place" v="locality" />
		<tag k="ssr:stedsnr" v="520653" />
	</node>
	<node lat="62.502183330887405" lon="6.2453722175998525" id="-5339">
		<tag k="name" v="Nøringsmyra" />
		<tag k="natural" v="wetland" />
		<tag k="ssr:stedsnr" v="523581" />
	</node>
	<node lat="62.646758333822916" lon="6.347922224181075" id="-5389">
		<tag k="name" v="Kråkøyra" />
		<tag k="place" v="locality" />
		<tag k="ssr:stedsnr" v="557459" />
	</node>
	<node lat="62.546741663935435" lon="6.413633327278583" id="-5419">
		<tag k="name" v="Gamletorvet" />
		<tag k="natural" v="wetland" />
		<tag k="ssr:stedsnr" v="557230" />
	</node>
	<node lat="62.70395000370079" lon="6.337986103535802" id="-5433">
		<tag k="name" v="Søgardsmyrane" />
		<tag k="natural" v="wetland" />
		<tag k="ssr:stedsnr" v="557913" />
	</node>
	<node lat="62.57507499746494" lon="6.275516662823852" id="-5484">
		<tag k="name" v="Djuviksøylå" />
		<tag k="natural" v="wetland" />
		<tag k="ssr:stedsnr" v="578877" />
	</node>
	<node lat="62.6044611145921" lon="6.389333326846535" id="-5490">
		<tag k="name" v="Lysholen" />
		<tag k="natural" v="wetland" />
		<tag k="ssr:stedsnr" v="579274" />
	</node>
	<node lat="62.63428888857859" lon="6.673891664525231" id="-5491">
		<tag k="name" v="Altaret" />
		<tag k="natural" v="stone" />
		<tag k="ssr:stedsnr" v="579384" />
	</node>
	<node lat="62.62901666821523" lon="6.681127780626809" id="-5496">
		<tag k="name" v="Dyrsteinen" />
		<tag k="natural" v="stone" />
		<tag k="ssr:stedsnr" v="579430" />
	</node>
	<node lat="62.58268611103078" lon="6.629544435633462" id="-5505">
		<tag k="name" v="Tverbytet" />
		<tag k="place" v="locality" />
		<tag k="ssr:stedsnr" v="579968" />
	</node>
	<node lat="62.56355000178202" lon="6.512352781930625" id="-5511">
		<tag k="name" v="Steingarden" />
		<tag k="natural" v="stone" />
		<tag k="ssr:stedsnr" v="580516" />
	</node>
	<node lat="62.64495555517098" lon="6.350991668765636" id="-5666">
		<tag k="name" v="Jaktøyra" />
		<tag k="place" v="locality" />
		<tag k="ssr:stedsnr" v="618475" />
	</node>
	<node lat="62.57956666445742" lon="6.277941674844272" id="-5704">
		<tag k="name" v="Svartedepilen" />
		<tag k="natural" v="wetland" />
		<tag k="ssr:stedsnr" v="638897" />
	</node>
	<node lat="62.54232777864104" lon="6.536822223415292" id="-5711">
		<tag k="name" v="Sildegarnsteinane" />
		<tag k="natural" v="stone" />
		<tag k="ssr:stedsnr" v="640051" />
	</node>
	<node lat="62.607172219124365" lon="6.46641943634599" id="-5732">
		<tag k="name" v="Verpesteinen" />
		<tag k="natural" v="stone" />
		<tag k="ssr:stedsnr" v="640560" />
	</node>
	<node lat="62.52153889298054" lon="6.556666669655396" id="-5736">
		<tag k="name" v="Myrane" />
		<tag k="natural" v="wetland" />
		<tag k="ssr:stedsnr" v="641020" />
	</node>
	<node lat="62.483911113776394" lon="6.534386116077895" id="-5749">
		<tag k="name" v="Bødemma" />
		<tag k="natural" v="wetland" />
		<tag k="ssr:stedsnr" v="641073" />
	</node>
	<node lat="62.48173610977967" lon="6.760908332748919" id="-5789">
		<tag k="historic" v="shieling" />
		<tag k="name" v="Løbøen" />
		<tag k="place" v="locality" />
		<tag k="ssr:stedsnr" v="641962" />
	</node>
	<node lat="62.50269999859976" lon="6.707969453006259" id="-5793">
		<tag k="name" v="Nymarka" />
		<tag k="place" v="locality" />
		<tag k="ssr:stedsnr" v="642060" />
	</node>
	<node lat="62.52553333586064" lon="6.570980546292999" id="-5878">
		<tag k="name" v="Auleskarmyrane" />
		<tag k="natural" v="wetland" />
		<tag k="ssr:stedsnr" v="739161" />
	</node>
	<node lat="62.55502222009318" lon="6.2764499937242535" id="-5885">
		<tag k="name" v="Hagane" />
		<tag k="place" v="locality" />
		<tag k="ssr:stedsnr" v="739270" />
	</node>
	<node lat="62.62855833450304" lon="6.190086112667897" id="-5947">
		<tag k="name" v="Gauken" />
		<tag k="place" v="locality" />
		<tag k="ssr:stedsnr" v="760682" />
	</node>
	<node lat="62.62183333684404" lon="6.661649990604652" id="-5982">
		<tag k="name" v="Notavollen" />
		<tag k="place" v="locality" />
		<tag k="ssr:stedsnr" v="761033" />
	</node>
	<node lat="62.621916664504035" lon="6.705372225312755" id="-5987">
		<tag k="name" v="Myrane" />
		<tag k="natural" v="wetland" />
		<tag k="ssr:stedsnr" v="761524" />
	</node>
	<node lat="62.52651111392599" lon="6.5538305502538465" id="-5993">
		<tag k="name" v="Sildegarnsteinen" />
		<tag k="natural" v="stone" />
		<tag k="ssr:stedsnr" v="761727" />
	</node>
	<node lat="62.53891667128795" lon="6.645316672680143" id="-5999">
		<tag k="name" v="Nymarka" />
		<tag k="place" v="locality" />
		<tag k="ssr:stedsnr" v="761764" />
	</node>
	<node lat="62.593125004333366" lon="6.6479861077640505" id="-6003">
		<tag k="name" v="Høgeskogane" />
		<tag k="place" v="locality" />
		<tag k="ssr:stedsnr" v="761884" />
	</node>
	<node lat="62.56740277416413" lon="6.537924996392694" id="-6019">
		<tag k="name" v="Vortesteinen" />
		<tag k="natural" v="stone" />
		<tag k="ssr:stedsnr" v="762531" />
	</node>
	<node lat="62.53381666926229" lon="6.861580557483862" id="-6054">
		<tag k="name" v="Løkmyrane" />
		<tag k="natural" v="wetland" />
		<tag k="ssr:stedsnr" v="763634" />
	</node>
	<node lat="62.683300000336516" lon="6.234363883464482" id="-6168">
		<tag k="name" v="Øyrane" />
		<tag k="place" v="locality" />
		<tag k="ssr:stedsnr" v="801860" />
	</node>
	<node lat="62.53914999978151" lon="6.4960666729674275" id="-6233">
		<tag k="name" v="Hagemyrane" />
		<tag k="natural" v="wetland" />
		<tag k="ssr:stedsnr" v="823155" />
	</node>
	<node lat="62.58240833792688" lon="6.564436115925288" id="-6234">
		<tag k="name" v="Fonnalaup" />
		<tag k="place" v="locality" />
		<tag k="ssr:stedsnr" v="823862" />
	</node>
	<node lat="62.582363891214825" lon="6.631836112935086" id="-6235">
		<tag k="name" v="Skitdepelsteinen" />
		<tag k="natural" v="stone" />
		<tag k="ssr:stedsnr" v="823934" />
	</node>
	<node lat="62.56056111384762" lon="6.531397212400904" id="-6239">
		<tag k="name" v="Borgstova" />
		<tag k="natural" v="stone" />
		<tag k="ssr:stedsnr" v="823559" />
	</node>
	<node lat="62.57798611378105" lon="6.469130561378861" id="-6243">
		<tag k="historic" v="shieling" />
		<tag k="name" v="Fagrevollen" />
		<tag k="place" v="locality" />
		<tag k="ssr:stedsnr" v="823873" />
	</node>
	<node lat="62.51401111099526" lon="6.698497231656658" id="-6266">
		<tag k="name" v="Smalebeitet" />
		<tag k="place" v="locality" />
		<tag k="ssr:stedsnr" v="824455" />
	</node>
	<node lat="62.45911388766958" lon="6.904872231291933" id="-6270">
		<tag k="name" v="Grimsmyra" />
		<tag k="natural" v="wetland" />
		<tag k="ssr:stedsnr" v="824497" />
	</node>
	<node lat="62.48904722594017" lon="6.8488222184492455" id="-6274">
		<tag k="name" v="Kriken" />
		<tag k="natural" v="wetland" />
		<tag k="ssr:stedsnr" v="824580" />
	</node>
	<node lat="62.46404166657422" lon="6.7891111069528405" id="-6277">
		<tag k="name" v="Demmene" />
		<tag k="natural" v="wetland" />
		<tag k="ssr:stedsnr" v="824648" />
	</node>
	<node lat="62.48706944123566" lon="6.431675000179829" id="-6303">
		<tag k="name" v="Høgemyra" />
		<tag k="natural" v="wetland" />
		<tag k="ssr:stedsnr" v="827988" />
	</node>
	<node lat="62.60183055541582" lon="6.337333334054763" id="-6364">
		<tag k="name" v="Hildremyrane" />
		<tag k="natural" v="wetland" />
		<tag k="ssr:stedsnr" v="861394" />
	</node>
	<node lat="62.62170277825057" lon="6.689255561007697" id="-6405">
		<tag k="name" v="Sollikroken" />
		<tag k="place" v="locality" />
		<tag k="ssr:stedsnr" v="883491" />
	</node>
	<node lat="62.58390555384978" lon="6.629724995037675" id="-6468">
		<tag k="name" v="Ingaren" />
		<tag k="natural" v="wetland" />
		<tag k="ssr:stedsnr" v="883976" />
	</node>
	<node lat="62.59740422098533" lon="6.479208400671578" id="-6474">
		<tag k="historic" v="shieling" />
		<tag k="name" v="Reitan" />
		<tag k="place" v="locality" />
		<tag k="ssr:stedsnr" v="884477" />
	</node>
	<node lat="62.62753888792709" lon="6.59595834119107" id="-6476">
		<tag k="landuse" v="peat_cutting" />
		<tag k="name" v="Torvhola" />
		<tag k="ssr:stedsnr" v="884340" />
	</node>
	<node lat="62.490822223553046" lon="6.578669453851888" id="-6482">
		<tag k="historic" v="shieling" />
		<tag k="name" v="Høgsætra" />
		<tag k="place" v="locality" />
		<tag k="ssr:stedsnr" v="885024" />
	</node>
	<node lat="62.529702779462376" lon="6.781347230477159" id="-6496">
		<tag k="name" v="Fyllingsgjæra" />
		<tag k="place" v="locality" />
		<tag k="ssr:stedsnr" v="885329" />
	</node>
	<node lat="62.48522500457696" lon="6.507958339405492" id="-6501">
		<tag k="name" v="Slettebakkmyrane" />
		<tag k="natural" v="wetland" />
		<tag k="ssr:stedsnr" v="885278" />
	</node>
	<node lat="62.48448610911717" lon="6.805116661936651" id="-6516">
		<tag k="name" v="Myrteigen" />
		<tag k="place" v="locality" />
		<tag k="ssr:stedsnr" v="885591" />
	</node>
	<node lat="62.53181388548414" lon="6.852086103627978" id="-6517">
		<tag k="name" v="Løkmyrane" />
		<tag k="natural" v="wetland" />
		<tag k="ssr:stedsnr" v="885592" />
	</node>
	<node lat="62.78494721997863" lon="6.46114443892277" id="-6568">
		<tag k="name" v="Måsvikmyra" />
		<tag k="natural" v="wetland" />
		<tag k="ssr:stedsnr" v="941031" />
	</node>
	<node lat="62.77175833359972" lon="6.447941659390749" id="-6588">
		<tag k="name" v="Blautremmyra" />
		<tag k="natural" v="wetland" />
		<tag k="ssr:stedsnr" v="942110" />
	</node>
	<node lat="62.57798333499811" lon="6.629902785907674" id="-6653">
		<tag k="name" v="Røstegroura" />
		<tag k="natural" v="scree" />
		<tag k="ssr:stedsnr" v="944990" />
	</node>
	<node lat="62.509605551514795" lon="6.2637916671432" id="-6727">
		<tag k="name" v="Legene" />
		<tag k="natural" v="wetland" />
		<tag k="ssr:stedsnr" v="948961" />
	</node>
</osm>
