<?xml version="1.0" encoding="UTF-8"?>
<<<<<<< HEAD
<<<<<<<< HEAD:data/1507/clean/1507-offentligAdministrasjon.osm
<osm version="0.6" generator="osmapis">
	<node lat="62.47771062159906" lon="6.592314423345164" id="-3420">
========
<osm generator="osmapis" version="0.6">
	<node id="-648864" lat="60.5418525541" lon="5.23761081143">
		<tag k="fixme" v="consider boundary=protected_area and relevant protect_class if not nature reserve" />
		<tag k="leisure" v="nature_reserve" />
		<tag k="name" v="Smineset friluftsområde" />
		<tag k="ssr:stedsnr" v="713263" />
	</node>
	<node id="-648183" lat="60.7209888862" lon="5.27828333205">
>>>>>>>> e1d4bc35ff8a6074a6f2e91616a996b547c36f15:data/4631/clean/4631-offentligAdministrasjon.osm
=======
<osm generator="osmapis" version="0.6">
	<node id="-58052" lat="62.4777106216" lon="6.59231442335">
>>>>>>> e1d4bc35ff8a6074a6f2e91616a996b547c36f15
		<tag k="fixme" v="consider boundary=protected_area and relevant protect_class if not nature reserve" />
		<tag k="leisure" v="nature_reserve" />
		<tag k="name" v="Ørnakken naturreservat" />
		<tag k="ssr:stedsnr" v="984222" />
	</node>
<<<<<<< HEAD
	<node id="-652347" lat="60.5457416666" lon="5.23701667432">
		<tag k="fixme" v="consider boundary=protected_area and relevant protect_class if not nature reserve" />
		<tag k="leisure" v="nature_reserve" />
		<tag k="name" v="Håøya friluftsområde" />
		<tag k="ssr:stedsnr" v="774273" />
	</node>
	<node id="-652978" lat="60.5704769973" lon="5.1131918438">
		<tag k="fixme" v="consider boundary=protected_area and relevant protect_class if not nature reserve" />
		<tag k="leisure" v="nature_reserve" />
		<tag k="name" v="Gripakletten naturreservat" />
		<tag k="ssr:stedsnr" v="1074736" />
	</node>
=======
>>>>>>> e1d4bc35ff8a6074a6f2e91616a996b547c36f15
</osm>
