<?xml version="1.0" encoding="UTF-8"?>
<osm generator="osmapis" version="0.6">
	<node id="-8192" lat="62.6077500007" lon="6.34611667063">
		<tag k="name" v="Steffågarden" />
		<tag k="place" v="farm" />
		<tag k="ssr:stedsnr" v="95590" />
	</node>
	<node id="-6144" lat="62.5779999977" lon="6.36941943906">
		<tag k="name" v="Ole-Eliassætra" />
		<tag k="place" v="isolated_dwelling" />
		<tag k="ssr:stedsnr" v="679290" />
	</node>
	<node id="-8187" lat="62.5493083355" lon="6.52117222122">
		<tag k="name" v="Holane" />
		<tag k="place" v="isolated_dwelling" />
		<tag k="ssr:stedsnr" v="95560" />
	</node>
	<node id="-8185" lat="62.6044639444" lon="6.36218715197">
		<tag k="fixme" v="consider place=hamlet" />
		<tag k="name" v="Myra" />
		<tag k="place" v="farm" />
		<tag k="ssr:stedsnr" v="95224" />
	</node>
	<node id="-6136" lat="62.5329556879" lon="6.32831507464">
		<tag k="fixme" v="consider place=hamlet" />
		<tag k="name" v="Engeset" />
		<tag k="place" v="farm" />
		<tag k="ssr:stedsnr" v="679181" />
	</node>
	<node id="-6135" lat="62.4918527803" lon="6.19203332917">
		<tag k="name" v="Hovset" />
		<tag k="place" v="farm" />
		<tag k="ssr:stedsnr" v="678978" />
	</node>
	<node id="-6134" lat="62.6022472219" lon="6.31728055261">
		<tag k="name" v="Ryssgarden" />
		<tag k="place" v="farm" />
		<tag k="ssr:stedsnr" v="678451" />
	</node>
	<node id="-6133" lat="62.6112833292" lon="6.66884721729">
		<tag k="name" v="Rimma" />
		<tag k="place" v="farm" />
		<tag k="ssr:stedsnr" v="678449" />
	</node>
	<node id="-6132" lat="62.6053777814" lon="6.67169443973">
		<tag k="name" v="Høgtun" />
		<tag k="place" v="farm" />
		<tag k="ssr:stedsnr" v="678448" />
	</node>
	<node id="-6129" lat="62.6176138864" lon="6.56708055577">
		<tag k="name" v="Haugen" />
		<tag k="place" v="farm" />
		<tag k="ssr:stedsnr" v="678470" />
	</node>
	<node id="-8176" lat="62.574002782" lon="6.59749722152">
		<tag k="historic" v="shieling" />
		<tag k="name" v="Reitestølen" />
		<tag k="place" v="locality" />
		<tag k="ssr:stedsnr" v="94863" />
	</node>
	<node id="-8173" lat="62.5534527783" lon="6.77040000956">
		<tag k="alt_name" v="Litle Engsetsætra" />
		<tag k="historic" v="shieling" />
		<tag k="name" v="Høgsætra" />
		<tag k="place" v="locality" />
		<tag k="ssr:stedsnr" v="94837" />
	</node>
	<node id="-6123" lat="62.4992666685" lon="6.74556667204">
		<tag k="name" v="Fremmerli" />
		<tag k="place" v="farm" />
		<tag k="ssr:stedsnr" v="678316" />
	</node>
	<node id="-6122" lat="62.4927361148" lon="6.62257778662">
		<tag k="alt_name" v="Svortevik" />
		<tag k="name" v="Svortavika" />
		<tag k="place" v="farm" />
		<tag k="ssr:stedsnr" v="678250" />
	</node>
	<node id="-6119" lat="62.4955496093" lon="6.32331020468">
		<tag k="name" v="Vik" />
		<tag k="place" v="farm" />
		<tag k="ssr:stedsnr" v="678201" />
	</node>
	<node id="-6118" lat="62.4384238196" lon="6.40404743491">
		<tag k="fixme" v="consider place=hamlet" />
		<tag k="name" v="Øygarden" />
		<tag k="place" v="farm" />
		<tag k="ssr:stedsnr" v="678046" />
	</node>
	<node id="-6117" lat="62.478861281" lon="6.67489422972">
		<tag k="fixme" v="consider place=hamlet" />
		<tag k="name" v="Håem" />
		<tag k="place" v="farm" />
		<tag k="ssr:stedsnr" v="678028" />
	</node>
	<node id="-6115" lat="62.4441777748" lon="6.9917305585">
		<tag k="name" v="Hjellesætra" />
		<tag k="place" v="neighbourhood" />
		<tag k="ssr:stedsnr" v="484723" />
	</node>
	<node id="-6114" lat="62.5321602334" lon="6.87688886656">
		<tag k="name" v="Svartløken" />
		<tag k="place" v="neighbourhood" />
		<tag k="ssr:stedsnr" v="484718" />
	</node>
	<node id="-6139" lat="62.5354988388" lon="6.66570249291">
		<tag k="fixme" v="consider place=hamlet" />
		<tag k="name" v="Stige" />
		<tag k="place" v="farm" />
		<tag k="ssr:stedsnr" v="679150" />
	</node>
	<node id="-8160" lat="62.5683416707" lon="6.73007221853">
		<tag k="name" v="Nilsgarden" />
		<tag k="place" v="farm" />
		<tag k="ssr:stedsnr" v="94518" />
	</node>
	<node id="-6110" lat="62.4714000032" lon="6.23928610353">
		<tag k="name" v="Store-Nørve" />
		<tag k="place" v="isolated_dwelling" />
		<tag k="ssr:stedsnr" v="481252" />
	</node>
	<node id="-6106" lat="62.4699694457" lon="6.66274722434">
		<tag k="name" v="Jovik" />
		<tag k="place" v="isolated_dwelling" />
		<tag k="ssr:stedsnr" v="476953" />
	</node>
	<node id="-8152" lat="62.6236499973" lon="6.65246943543">
		<tag k="name" v="Haugen" />
		<tag k="place" v="farm" />
		<tag k="ssr:stedsnr" v="94048" />
	</node>
	<node id="-6137" lat="62.4580556305" lon="6.1187795322">
		<tag k="fixme" v="consider place=hamlet" />
		<tag k="name" v="Hessa" />
		<tag k="place" v="farm" />
		<tag k="ssr:stedsnr" v="678931" />
	</node>
	<node id="-8148" lat="62.6920999993" lon="6.38959444019">
		<tag k="name" v="Øvregard" />
		<tag k="place" v="farm" />
		<tag k="ssr:stedsnr" v="93889" />
	</node>
	<node id="-8144" lat="62.6452972249" lon="6.22716944233">
		<tag k="name" v="Framgarden" />
		<tag k="place" v="farm" />
		<tag k="ssr:stedsnr" v="93729" />
	</node>
	<node id="-8143" lat="62.6517166628" lon="6.21449167416">
		<tag k="name" v="Sørentunet" />
		<tag k="place" v="farm" />
		<tag k="ssr:stedsnr" v="93716" />
	</node>
	<node id="-8142" lat="62.6172416683" lon="6.21060555217">
		<tag k="name" v="Klokkargarden" />
		<tag k="place" v="farm" />
		<tag k="ssr:stedsnr" v="93643" />
	</node>
	<node id="-8141" lat="62.6286694439" lon="6.19517222977">
		<tag k="name" v="Gjerdet" />
		<tag k="place" v="farm" />
		<tag k="ssr:stedsnr" v="93588" />
	</node>
	<node id="-6092" lat="62.491583337" lon="6.60711943764">
		<tag k="name" v="Digernes næringsområde" />
		<tag k="place" v="quarter" />
		<tag k="ssr:stedsnr" v="666902" />
	</node>
	<node id="-6091" lat="62.5185333326" lon="6.91518333537">
		<tag k="name" v="Nysætra" />
		<tag k="place" v="neighbourhood" />
		<tag k="ssr:stedsnr" v="666701" />
	</node>
	<node id="-8138" lat="62.6559833293" lon="6.33346111968">
		<tag k="name" v="Knutgarden" />
		<tag k="place" v="farm" />
		<tag k="ssr:stedsnr" v="93550" />
	</node>
	<node id="-8137" lat="62.684580554" lon="6.24138055272">
		<tag k="name" v="Knuttunet" />
		<tag k="place" v="farm" />
		<tag k="ssr:stedsnr" v="93548" />
	</node>
	<node id="-8136" lat="62.6797666689" lon="6.25288888601">
		<tag k="name" v="Instegjerdet" />
		<tag k="place" v="farm" />
		<tag k="ssr:stedsnr" v="93544" />
	</node>
	<node id="-8135" lat="62.6358861126" lon="6.27177499596">
		<tag k="name" v="Jonasgarden" />
		<tag k="place" v="farm" />
		<tag k="ssr:stedsnr" v="93523" />
	</node>
	<node id="-8132" lat="62.6555194422" lon="6.19100833178">
		<tag k="name" v="Arnfinngarden" />
		<tag k="place" v="farm" />
		<tag k="ssr:stedsnr" v="93418" />
	</node>
	<node id="-6080" lat="62.4811305536" lon="6.37381945029">
		<tag k="name" v="Jørgengården" />
		<tag k="place" v="farm" />
		<tag k="ssr:stedsnr" v="663495" />
	</node>
	<node id="-5792" lat="62.4707090694" lon="6.29038009046">
		<tag k="alt_name" v="Leirstad" />
		<tag k="fixme" v="consider place=hamlet" />
		<tag k="name" v="Lerstad" />
		<tag k="place" v="farm" />
		<tag k="ssr:stedsnr" v="496014" />
	</node>
	<node id="-6074" lat="62.536075003" lon="6.59131945024">
		<tag k="name" v="Langhaugane" />
		<tag k="place" v="quarter" />
		<tag k="ssr:stedsnr" v="445935" />
	</node>
	<node id="-5791" lat="62.467868037" lon="6.24920756391">
		<tag k="name" v="Gåseid" />
		<tag k="place" v="suburb" />
		<tag k="ssr:stedsnr" v="496013" />
	</node>
	<node id="-4635" lat="62.4779277771" lon="6.74970834238">
		<tag k="name" v="Apalsethaugen" />
		<tag k="place" v="farm" />
		<tag k="ssr:stedsnr" v="217672" />
	</node>
	<node id="-8107" lat="62.4366388866" lon="6.35076388823">
		<tag k="name" v="Lilleberget" />
		<tag k="place" v="farm" />
		<tag k="ssr:stedsnr" v="92187" />
	</node>
	<node id="-6049" lat="62.6033138903" lon="6.38441388646">
		<tag k="name" v="Hansgarden" />
		<tag k="place" v="farm" />
		<tag k="ssr:stedsnr" v="519267" />
	</node>
	<node id="-6048" lat="62.6034305519" lon="6.37643055286">
		<tag k="name" v="Pegarden" />
		<tag k="place" v="farm" />
		<tag k="ssr:stedsnr" v="519264" />
	</node>
	<node id="-6045" lat="62.6254611075" lon="6.6690888807">
		<tag k="name" v="Øvrebø" />
		<tag k="place" v="farm" />
		<tag k="ssr:stedsnr" v="519027" />
	</node>
	<node id="-6043" lat="62.5618055529" lon="6.71483332912">
		<tag k="name" v="Vatnesætra" />
		<tag k="place" v="isolated_dwelling" />
		<tag k="ssr:stedsnr" v="437252" />
	</node>
	<node id="-6038" lat="62.6915638928" lon="6.38454999063">
		<tag k="name" v="Olagarden" />
		<tag k="place" v="farm" />
		<tag k="ssr:stedsnr" v="518916" />
	</node>
	<node id="-6037" lat="62.6901638929" lon="6.39147499197">
		<tag k="name" v="Bømark" />
		<tag k="place" v="farm" />
		<tag k="ssr:stedsnr" v="436877" />
	</node>
	<node id="-6034" lat="62.7040583288" lon="6.36216666461">
		<tag k="name" v="Søre Fjørtofta" />
		<tag k="place" v="farm" />
		<tag k="ssr:stedsnr" v="436925" />
	</node>
	<node id="-8079" lat="62.7572666677" lon="6.44898610819">
		<tag k="name" v="Breivika" />
		<tag k="place" v="farm" />
		<tag k="ssr:stedsnr" v="73060" />
	</node>
	<node id="-8078" lat="62.6917777815" lon="6.39666110501">
		<tag k="name" v="Gjerdet" />
		<tag k="place" v="farm" />
		<tag k="ssr:stedsnr" v="72879" />
	</node>
	<node id="-6029" lat="62.7753055549" lon="6.46414722215">
		<tag k="name" v="Bergheim" />
		<tag k="place" v="farm" />
		<tag k="ssr:stedsnr" v="436413" />
	</node>
	<node id="-6025" lat="62.5971722241" lon="6.30893056104">
		<tag k="name" v="Risneset" />
		<tag k="place" v="farm" />
		<tag k="ssr:stedsnr" v="436373" />
	</node>
	<node id="-6024" lat="62.5971861102" lon="6.301763886">
		<tag k="name" v="Haugen" />
		<tag k="place" v="farm" />
		<tag k="ssr:stedsnr" v="436372" />
	</node>
	<node id="-8071" lat="62.6555527813" lon="6.3051555547">
		<tag k="name" v="Stranda" />
		<tag k="place" v="farm" />
		<tag k="ssr:stedsnr" v="72956" />
	</node>
	<node id="-8070" lat="62.7042861088" lon="6.35761110465">
		<tag k="name" v="Nygard" />
		<tag k="place" v="farm" />
		<tag k="ssr:stedsnr" v="72923" />
	</node>
	<node id="-6020" lat="62.5934027801" lon="6.47081110697">
		<tag k="name" v="Lundheim" />
		<tag k="place" v="farm" />
		<tag k="ssr:stedsnr" v="436360" />
	</node>
	<node id="-8065" lat="62.7076805523" lon="6.36855276982">
		<tag k="name" v="Bakken" />
		<tag k="place" v="farm" />
		<tag k="ssr:stedsnr" v="72788" />
	</node>
	<node id="-8064" lat="62.6125654266" lon="6.16828165532">
		<tag k="fixme" v="consider place=hamlet" />
		<tag k="name" v="Rønstad" />
		<tag k="place" v="farm" />
		<tag k="ssr:stedsnr" v="72780" />
	</node>
	<node id="-6013" lat="62.5345527797" lon="6.44076665786">
		<tag k="name" v="Heimlund" />
		<tag k="place" v="farm" />
		<tag k="ssr:stedsnr" v="436202" />
	</node>
	<node id="-6012" lat="62.4622150264" lon="6.25598281932">
		<tag k="alt_name" v="Ratvik, ytre" />
		<tag k="fixme" v="consider place=hamlet" />
		<tag k="name" v="Ratvika" />
		<tag k="place" v="farm" />
		<tag k="ssr:stedsnr" v="436026" />
	</node>
	<node id="-6011" lat="62.5243840467" lon="6.61673401909">
		<tag k="fixme" v="consider place=hamlet" />
		<tag k="name" v="Støråk" />
		<tag k="place" v="farm" />
		<tag k="ssr:stedsnr" v="436149" />
	</node>
	<node id="-6010" lat="62.6096277789" lon="6.21607778648">
		<tag k="name" v="Gabrielgarden" />
		<tag k="place" v="farm" />
		<tag k="ssr:stedsnr" v="518565" />
	</node>
	<node id="-8729" lat="62.6572333363" lon="6.29878888604">
		<tag k="name" v="Stranda" />
		<tag k="place" v="farm" />
		<tag k="ssr:stedsnr" v="214471" />
	</node>
	<node id="-8056" lat="62.5763963271" lon="6.60284885121">
		<tag k="fixme" v="consider place=hamlet" />
		<tag k="name" v="Grøt" />
		<tag k="place" v="farm" />
		<tag k="ssr:stedsnr" v="72296" />
	</node>
	<node id="-8055" lat="62.5685416668" lon="6.46815554696">
		<tag k="name" v="Bjørlykkhaugen" />
		<tag k="place" v="farm" />
		<tag k="ssr:stedsnr" v="72292" />
	</node>
	<node id="-8054" lat="62.5557489394" lon="6.26209928477">
		<tag k="fixme" v="consider place=hamlet" />
		<tag k="name" v="Terøya" />
		<tag k="place" v="farm" />
		<tag k="ssr:stedsnr" v="72287" />
	</node>
	<node id="-8053" lat="62.5633916629" lon="6.5250944385">
		<tag k="name" v="Stortua" />
		<tag k="place" v="locality" />
		<tag k="ssr:stedsnr" v="72276" />
	</node>
	<node id="-6004" lat="62.6630250028" lon="6.2852194435">
		<tag k="name" v="Jogarden" />
		<tag k="place" v="farm" />
		<tag k="ssr:stedsnr" v="518333" />
	</node>
	<node id="-8051" lat="62.5607972207" lon="6.42959723085">
		<tag k="name" v="Høgstølen" />
		<tag k="place" v="isolated_dwelling" />
		<tag k="ssr:stedsnr" v="72268" />
	</node>
	<node id="-5992" lat="62.6324944459" lon="6.27217778626">
		<tag k="name" v="Eliasgarden" />
		<tag k="place" v="farm" />
		<tag k="ssr:stedsnr" v="517561" />
	</node>
	<node id="-8039" lat="62.5379863014" lon="6.68246218665">
		<tag k="fixme" v="consider place=hamlet" />
		<tag k="name" v="Erstad" />
		<tag k="place" v="farm" />
		<tag k="ssr:stedsnr" v="72153" />
	</node>
	<node id="-8036" lat="62.5009305574" lon="6.23647777217">
		<tag k="name" v="Botnen" />
		<tag k="place" v="farm" />
		<tag k="ssr:stedsnr" v="72124" />
	</node>
	<node id="-8507" lat="62.4644998523" lon="6.64526854298">
		<tag k="fixme" v="consider place=hamlet" />
		<tag k="name" v="Indrevik" />
		<tag k="place" v="farm" />
		<tag k="ssr:stedsnr" v="156075" />
	</node>
	<node id="-8032" lat="62.5188499995" lon="6.62943610853">
		<tag k="name" v="Kleivahaugen" />
		<tag k="place" v="farm" />
		<tag k="ssr:stedsnr" v="72117" />
	</node>
	<node id="-8031" lat="62.5199704998" lon="6.62784442474">
		<tag k="fixme" v="consider place=hamlet" />
		<tag k="name" v="Stette" />
		<tag k="place" v="farm" />
		<tag k="ssr:stedsnr" v="72114" />
	</node>
	<node id="-9189" lat="62.586852775" lon="6.58593611805">
		<tag k="name" v="Nyland" />
		<tag k="place" v="farm" />
		<tag k="ssr:stedsnr" v="397911" />
	</node>
	<node id="-8025" lat="62.4521916682" lon="6.47259722353">
		<tag k="historic" v="shieling" />
		<tag k="name" v="Emblemssætra" />
		<tag k="place" v="locality" />
		<tag k="ssr:stedsnr" v="72056" />
	</node>
	<node id="-8024" lat="62.4361638928" lon="6.43598332402">
		<tag k="name" v="Emblem" />
		<tag k="place" v="hamlet" />
		<tag k="ssr:stedsnr" v="72041" />
	</node>
	<node id="-8023" lat="62.4561759719" lon="6.90864627487">
		<tag k="fixme" v="consider place=hamlet" />
		<tag k="name" v="Nedre Sollia" />
		<tag k="place" v="farm" />
		<tag k="ssr:stedsnr" v="71382" />
	</node>
	<node id="-5973" lat="62.7768164349" lon="6.46796145741">
		<tag k="fixme" v="consider place=hamlet" />
		<tag k="name" v="Harnes" />
		<tag k="place" v="farm" />
		<tag k="ssr:stedsnr" v="517205" />
	</node>
	<node id="-8020" lat="62.4791457364" lon="6.86255563531">
		<tag k="fixme" v="consider place=hamlet" />
		<tag k="name" v="Valgermo" />
		<tag k="place" v="farm" />
		<tag k="ssr:stedsnr" v="71353" />
	</node>
	<node id="-5971" lat="62.7616805559" lon="6.43880555792">
		<tag k="name" v="Solstrand" />
		<tag k="place" v="isolated_dwelling" />
		<tag k="ssr:stedsnr" v="517161" />
	</node>
	<node id="-8016" lat="62.483653401" lon="6.63936081916">
		<tag k="alt_name" v="Svortehaugen;Svartehaugen" />
		<tag k="fixme" v="consider place=hamlet" />
		<tag k="name" v="Svortahaugen" />
		<tag k="place" v="farm" />
		<tag k="ssr:stedsnr" v="71243" />
	</node>
	<node id="-8014" lat="62.5090666665" lon="6.83711667194">
		<tag k="name" v="Strandasætra" />
		<tag k="place" v="neighbourhood" />
		<tag k="ssr:stedsnr" v="60733" />
	</node>
	<node id="-8013" lat="62.4999694422" lon="6.38269166441">
		<tag k="name" v="Store Årset" />
		<tag k="place" v="farm" />
		<tag k="ssr:stedsnr" v="60298" />
	</node>
	<node id="-8012" lat="62.4748971663" lon="6.23793492625">
		<tag k="fixme" v="consider place=hamlet" />
		<tag k="name" v="Nørvegjerdet" />
		<tag k="place" v="farm" />
		<tag k="ssr:stedsnr" v="58197" />
	</node>
	<node id="-6113" lat="62.5162777772" lon="6.93506389023">
		<tag k="name" v="Haugsætra" />
		<tag k="place" v="neighbourhood" />
		<tag k="ssr:stedsnr" v="484709" />
	</node>
	<node id="-5956" lat="62.6069611095" lon="6.18301666148">
		<tag k="name" v="Hansgarden" />
		<tag k="place" v="farm" />
		<tag k="ssr:stedsnr" v="515650" />
	</node>
	<node id="-8003" lat="62.4423257185" lon="6.35400623964">
		<tag k="fixme" v="consider place=hamlet" />
		<tag k="loc_name" v="Blindheimsneset" />
		<tag k="name" v="Blindheimsnes" />
		<tag k="place" v="farm" />
		<tag k="ssr:stedsnr" v="50992" />
	</node>
	<node id="-5954" lat="62.4661083379" lon="6.61247500561">
		<tag k="name" v="Bakkeneset" />
		<tag k="place" v="quarter" />
		<tag k="ssr:stedsnr" v="423928" />
	</node>
	<node id="-5953" lat="62.5020111088" lon="6.5146277728">
		<tag k="name" v="Juvågen" />
		<tag k="place" v="quarter" />
		<tag k="ssr:stedsnr" v="423917" />
	</node>
	<node id="-7991" lat="62.5043972196" lon="6.69726388749">
		<tag k="name" v="Bøbakken" />
		<tag k="place" v="quarter" />
		<tag k="ssr:stedsnr" v="49941" />
	</node>
	<node id="-7990" lat="62.5051999986" lon="6.64790555342">
		<tag k="name" v="Bergslia" />
		<tag k="place" v="quarter" />
		<tag k="ssr:stedsnr" v="49939" />
	</node>
	<node id="-5940" lat="62.4769334784" lon="6.70855862724">
		<tag k="fixme" v="consider place=hamlet" />
		<tag k="name" v="Tyssa" />
		<tag k="place" v="farm" />
		<tag k="ssr:stedsnr" v="508764" />
	</node>
	<node id="-7987" lat="62.7944972263" lon="6.48866667608">
		<tag k="name" v="Steinbrotet" />
		<tag k="place" v="quarter" />
		<tag k="ssr:stedsnr" v="39378" />
	</node>
	<node id="-7985" lat="62.4464944464" lon="6.40284999519">
		<tag k="name" v="Blindheimsætra" />
		<tag k="place" v="isolated_dwelling" />
		<tag k="ssr:stedsnr" v="38639" />
	</node>
	<node id="-7984" lat="62.4319361124" lon="6.49333888801">
		<tag k="name" v="Magerholmvik" />
		<tag k="place" v="farm" />
		<tag k="ssr:stedsnr" v="38700" />
	</node>
	<node id="-5767" lat="62.4998367723" lon="6.71129102897">
		<tag k="name" v="Østgård" />
		<tag k="place" v="farm" />
		<tag k="ssr:stedsnr" v="338067" />
	</node>
	<node id="-7976" lat="62.4378305541" lon="6.35774999335">
		<tag k="amenity" v="school" />
		<tag k="name" v="Blindheim barneskole" />
		<tag k="old_name" v="Blindheim skole" />
		<tag k="ssr:stedsnr" v="36645" />
	</node>
	<node id="-5927" lat="62.6227777802" lon="6.20931111628">
		<tag k="name" v="Fillipgarden" />
		<tag k="place" v="farm" />
		<tag k="ssr:stedsnr" v="396632" />
	</node>
	<node id="-7972" lat="62.4798083317" lon="6.76886666711">
		<tag k="name" v="Hølhaugen" />
		<tag k="place" v="farm" />
		<tag k="ssr:stedsnr" v="35717" />
	</node>
	<node id="-5921" lat="62.6067222207" lon="6.18813888641">
		<tag k="name" v="Arnegarden" />
		<tag k="place" v="farm" />
		<tag k="ssr:stedsnr" v="394618" />
	</node>
	<node id="-5918" lat="62.5369972266" lon="6.58209722929">
		<tag k="name" v="Geitaberget" />
		<tag k="place" v="farm" />
		<tag k="ssr:stedsnr" v="519684" />
	</node>
	<node id="-5917" lat="62.4953222179" lon="6.19881667234">
		<tag k="fixme" v="consider place=suburb, village or hamlet" />
		<tag k="name" v="Hovland" />
		<tag k="place" v="quarter" />
		<tag k="ssr:stedsnr" v="384358" />
	</node>
	<node id="-8858" lat="62.8593462875" lon="6.53886561725">
		<tag k="name" v="Andersgarden" />
		<tag k="place" v="farm" />
		<tag k="ssr:stedsnr" v="335425" />
	</node>
	<node id="-5764" lat="62.5443277784" lon="6.54993055683">
		<tag k="name" v="Gullbekken" />
		<tag k="place" v="farm" />
		<tag k="ssr:stedsnr" v="337610" />
	</node>
	<node id="-7958" lat="62.4569083319" lon="6.93554444734">
		<tag k="name" v="Nyset" />
		<tag k="place" v="farm" />
		<tag k="ssr:stedsnr" v="35589" />
	</node>
	<node id="-9177" lat="62.5383805576" lon="6.57687778472">
		<tag k="name" v="Nordnes" />
		<tag k="place" v="farm" />
		<tag k="ssr:stedsnr" v="397644" />
	</node>
	<node id="-5904" lat="62.5932611121" lon="6.29095000882">
		<tag k="name" v="Østengarden" />
		<tag k="place" v="farm" />
		<tag k="ssr:stedsnr" v="375357" />
	</node>
	<node id="-8653" lat="62.4480209188" lon="6.92876410324">
		<tag k="fixme" v="consider place=hamlet" />
		<tag k="name" v="Hallvardsætra" />
		<tag k="place" v="farm" />
		<tag k="ssr:stedsnr" v="193383" />
	</node>
	<node id="-5900" lat="62.7680666685" lon="6.46259444267">
		<tag k="name" v="Tokla" />
		<tag k="place" v="farm" />
		<tag k="ssr:stedsnr" v="375413" />
	</node>
	<node id="-5899" lat="62.4805472257" lon="6.74474722918">
		<tag k="alt_name" v="Kleiven" />
		<tag k="name" v="Kleivane" />
		<tag k="place" v="farm" />
		<tag k="ssr:stedsnr" v="375265" />
	</node>
	<node id="-5898" lat="62.4875132913" lon="6.73025059179">
		<tag k="fixme" v="consider place=hamlet" />
		<tag k="name" v="Solnør" />
		<tag k="place" v="farm" />
		<tag k="ssr:stedsnr" v="375262" />
	</node>
	<node id="-5897" lat="62.5595555554" lon="6.2378277795">
		<tag k="name" v="Fagerheim" />
		<tag k="place" v="farm" />
		<tag k="ssr:stedsnr" v="375257" />
	</node>
	<node id="-5895" lat="62.5582555521" lon="6.61707778531">
		<tag k="name" v="Vatne" />
		<tag k="place" v="village" />
		<tag k="ssr:stedsnr" v="375216" />
	</node>
	<node id="-5893" lat="62.534857506" lon="6.41531516507">
		<tag k="fixme" v="consider place=hamlet" />
		<tag k="name" v="Urkedalen" />
		<tag k="place" v="farm" />
		<tag k="ssr:stedsnr" v="375166" />
	</node>
	<node id="-8632" lat="62.4722582067" lon="6.15489888405">
		<tag k="name" v="Ålesund" />
		<tag k="place" v="town" />
		<tag k="ssr:stedsnr" v="192945" />
	</node>
	<node id="-7932" lat="62.4827666705" lon="6.52358332888">
		<tag k="name" v="Gjæra" />
		<tag k="place" v="isolated_dwelling" />
		<tag k="ssr:stedsnr" v="35077" />
	</node>
	<node id="-7927" lat="62.507463889" lon="6.67690555048">
		<tag k="name" v="Ellinggjerdet" />
		<tag k="place" v="quarter" />
		<tag k="ssr:stedsnr" v="35055" />
	</node>
	<node id="-5875" lat="62.5314558362" lon="6.77194999135">
		<tag k="name" v="Nesjesætra" />
		<tag k="place" v="isolated_dwelling" />
		<tag k="ssr:stedsnr" v="497841" />
	</node>
	<node id="-8488" lat="62.6057305522" lon="6.67327777265">
		<tag k="name" v="Gjerdet" />
		<tag k="place" v="farm" />
		<tag k="ssr:stedsnr" v="155825" />
	</node>
	<node id="-5862" lat="62.7711555593" lon="6.43241945272">
		<tag k="name" v="Reset" />
		<tag k="place" v="farm" />
		<tag k="ssr:stedsnr" v="497427" />
	</node>
	<node id="-9169" lat="62.6037916655" lon="6.38028889442">
		<tag k="name" v="Berngarden" />
		<tag k="place" v="farm" />
		<tag k="ssr:stedsnr" v="397276" />
	</node>
	<node id="-7907" lat="62.6079888924" lon="6.33061666936">
		<tag k="name" v="Eljasgarden" />
		<tag k="place" v="farm" />
		<tag k="ssr:stedsnr" v="34616" />
	</node>
	<node id="-6096" lat="62.4958305598" lon="6.21165000711">
		<tag k="name" v="Haugen" />
		<tag k="place" v="farm" />
		<tag k="ssr:stedsnr" v="462960" />
	</node>
	<node id="-5413" lat="62.6307027802" lon="6.26471944236">
		<tag k="name" v="Olagarden" />
		<tag k="place" v="farm" />
		<tag k="ssr:stedsnr" v="457677" />
	</node>
	<node id="-7898" lat="62.5353500012" lon="6.45966389413">
		<tag k="name" v="Bjørkly" />
		<tag k="place" v="farm" />
		<tag k="ssr:stedsnr" v="34399" />
	</node>
	<node id="-5848" lat="62.5768666635" lon="6.26963889368">
		<tag k="name" v="Løvik" />
		<tag k="place" v="farm" />
		<tag k="ssr:stedsnr" v="497348" />
	</node>
	<node id="-7895" lat="62.4633224741" lon="6.6124536707">
		<tag k="fixme" v="consider place=hamlet" />
		<tag k="name" v="Honningdal" />
		<tag k="place" v="farm" />
		<tag k="ssr:stedsnr" v="34355" />
	</node>
	<node id="-5753" lat="62.8586388883" lon="6.54274167573">
		<tag k="name" v="Pegarden" />
		<tag k="place" v="isolated_dwelling" />
		<tag k="ssr:stedsnr" v="335959" />
	</node>
	<node id="-5844" lat="62.5812407299" lon="6.62638633746">
		<tag k="fixme" v="consider place=hamlet" />
		<tag k="name" v="Hovset" />
		<tag k="place" v="farm" />
		<tag k="ssr:stedsnr" v="497319" />
	</node>
	<node id="-5514" lat="62.547236113" lon="6.42826111537">
		<tag k="historic" v="shieling" />
		<tag k="name" v="Sætra" />
		<tag k="place" v="locality" />
		<tag k="ssr:stedsnr" v="459368" />
	</node>
	<node id="-5842" lat="62.6602500031" lon="6.34193055427">
		<tag k="name" v="Rogne" />
		<tag k="place" v="farm" />
		<tag k="ssr:stedsnr" v="497244" />
	</node>
	<node id="-5841" lat="62.5542824451" lon="6.47351857999">
		<tag k="fixme" v="consider place=hamlet" />
		<tag k="name" v="Reme" />
		<tag k="place" v="farm" />
		<tag k="ssr:stedsnr" v="497242" />
	</node>
	<node id="-5835" lat="62.5239030578" lon="6.62512537158">
		<tag k="fixme" v="consider place=hamlet" />
		<tag k="name" v="Leita" />
		<tag k="place" v="farm" />
		<tag k="ssr:stedsnr" v="497155" />
	</node>
	<node id="-7882" lat="62.6055027772" lon="6.63417222753">
		<tag k="name" v="Skogvoll" />
		<tag k="place" v="farm" />
		<tag k="ssr:stedsnr" v="33863" />
	</node>
	<node id="-7878" lat="62.5423885497" lon="6.75155390235">
		<tag k="alt_name" v="Storsæter" />
		<tag k="name" v="Storsætra" />
		<tag k="place" v="farm" />
		<tag k="ssr:stedsnr" v="33819" />
	</node>
	<node id="-7876" lat="62.6184444475" lon="6.53575277213">
		<tag k="name" v="Einargarden" />
		<tag k="place" v="isolated_dwelling" />
		<tag k="ssr:stedsnr" v="33791" />
	</node>
	<node id="-5826" lat="62.4654972215" lon="6.11406666276">
		<tag k="name" v="Skarbøvik" />
		<tag k="place" v="village" />
		<tag k="ssr:stedsnr" v="496948" />
	</node>
	<node id="-7873" lat="62.5349861134" lon="6.60578332361">
		<tag k="name" v="Vadset" />
		<tag k="place" v="farm" />
		<tag k="ssr:stedsnr" v="33706" />
	</node>
	<node id="-5823" lat="62.5935249984" lon="6.29301111018">
		<tag k="name" v="Jørggarden" />
		<tag k="place" v="farm" />
		<tag k="ssr:stedsnr" v="496430" />
	</node>
	<node id="-7870" lat="62.5434750021" lon="6.57511944258">
		<tag k="name" v="Larsgarden" />
		<tag k="place" v="farm" />
		<tag k="ssr:stedsnr" v="33674" />
	</node>
	<node id="-5821" lat="62.4535440238" lon="6.90266407397">
		<tag k="alt_name" v="Reite" />
		<tag k="fixme" v="consider place=hamlet" />
		<tag k="name" v="Reitane" />
		<tag k="place" v="farm" />
		<tag k="ssr:stedsnr" v="496381" />
	</node>
	<node id="-6090" lat="62.471405557" lon="6.66323610821">
		<tag k="name" v="Runnane" />
		<tag k="place" v="quarter" />
		<tag k="ssr:stedsnr" v="666524" />
	</node>
	<node id="-5817" lat="62.4776685914" lon="6.8906427013">
		<tag k="historic" v="shieling" />
		<tag k="name" v="Lisetsætra" />
		<tag k="place" v="locality" />
		<tag k="ssr:stedsnr" v="496334" />
	</node>
	<node id="-7862" lat="62.6032638915" lon="6.39111110901">
		<tag k="name" v="Mattinesgarden" />
		<tag k="place" v="farm" />
		<tag k="ssr:stedsnr" v="33288" />
	</node>
	<node id="-6089" lat="62.4724749967" lon="6.23542222374">
		<tag k="name" v="Store-Nørve" />
		<tag k="place" v="isolated_dwelling" />
		<tag k="ssr:stedsnr" v="665170" />
	</node>
	<node id="-7860" lat="62.592455556" lon="6.29682221999">
		<tag k="name" v="Myrane" />
		<tag k="place" v="farm" />
		<tag k="ssr:stedsnr" v="32944" />
	</node>
	<node id="-5810" lat="62.6184916667" lon="6.56634445171">
		<tag k="name" v="Flytningshaugen" />
		<tag k="place" v="farm" />
		<tag k="ssr:stedsnr" v="496469" />
	</node>
	<node id="-6088" lat="62.6031916628" lon="6.37876388258">
		<tag k="name" v="Arnegarden" />
		<tag k="place" v="farm" />
		<tag k="ssr:stedsnr" v="459235" />
	</node>
	<node id="-7854" lat="62.6491833359" lon="6.22495000031">
		<tag k="name" v="Sjurgarden" />
		<tag k="place" v="farm" />
		<tag k="ssr:stedsnr" v="32772" />
	</node>
	<node id="-7853" lat="62.6508166675" lon="6.22558333934">
		<tag k="name" v="Ellinggarden" />
		<tag k="place" v="farm" />
		<tag k="ssr:stedsnr" v="32764" />
	</node>
	<node id="-7852" lat="62.6328500032" lon="6.18593332624">
		<tag k="name" v="Sætgjerdet" />
		<tag k="place" v="farm" />
		<tag k="ssr:stedsnr" v="32729" />
	</node>
	<node id="-5802" lat="62.5331027742" lon="6.33443332886">
		<tag k="name" v="Skogtun" />
		<tag k="place" v="farm" />
		<tag k="ssr:stedsnr" v="496223" />
	</node>
	<node id="-6087" lat="62.5438250036" lon="6.51824722365">
		<tag k="name" v="Myrane" />
		<tag k="place" v="farm" />
		<tag k="ssr:stedsnr" v="459175" />
	</node>
	<node id="-5799" lat="62.4969777764" lon="6.34185556162">
		<tag k="fixme" v="consider place=hamlet" />
		<tag k="name" v="Hagen" />
		<tag k="place" v="farm" />
		<tag k="ssr:stedsnr" v="496204" />
	</node>
	<node id="-5796" lat="62.4287305592" lon="6.40004165682">
		<tag k="alt_name" v="Hamnevika" />
		<tag k="name" v="Hamnevik" />
		<tag k="place" v="farm" />
		<tag k="ssr:stedsnr" v="496089" />
	</node>
	<node id="-5794" lat="62.4365134488" lon="6.47393588553">
		<tag k="alt_name" v="Reiten" />
		<tag k="fixme" v="consider place=hamlet" />
		<tag k="name" v="Reitane" />
		<tag k="place" v="farm" />
		<tag k="ssr:stedsnr" v="496040" />
	</node>
	<node id="-7840" lat="62.6567333315" lon="6.18697499425">
		<tag k="name" v="Sjurgarden" />
		<tag k="place" v="farm" />
		<tag k="ssr:stedsnr" v="32460" />
	</node>
	<node id="-7839" lat="62.6545297457" lon="6.21052990719">
		<tag k="name" v="Toregarden" />
		<tag k="place" v="farm" />
		<tag k="ssr:stedsnr" v="32449" />
	</node>
	<node id="-5790" lat="62.4653491583" lon="6.63398985492">
		<tag k="alt_name" v="Ytrevik" />
		<tag k="fixme" v="consider place=hamlet" />
		<tag k="name" v="Ytrevika" />
		<tag k="place" v="farm" />
		<tag k="ssr:stedsnr" v="496009" />
	</node>
	<node id="-5786" lat="62.4444077687" lon="6.29815805146">
		<tag k="fixme" v="consider place=hamlet" />
		<tag k="name" v="Humla" />
		<tag k="place" v="farm" />
		<tag k="ssr:stedsnr" v="496057" />
	</node>
	<node id="-5783" lat="62.4739388869" lon="6.18869165875">
		<tag k="name" v="Fjelltun" />
		<tag k="place" v="isolated_dwelling" />
		<tag k="ssr:stedsnr" v="359209" />
	</node>
	<node id="-5782" lat="62.4614605347" lon="6.11112233977">
		<tag k="name" v="Åsen" />
		<tag k="place" v="locality" />
		<tag k="ssr:stedsnr" v="359012" />
	</node>
	<node id="-7829" lat="62.5610305562" lon="6.27858333143">
		<tag k="name" v="Låna" />
		<tag k="place" v="farm" />
		<tag k="ssr:stedsnr" v="32260" />
	</node>
	<node id="-7828" lat="62.7732749992" lon="6.45787221519">
		<tag k="leisure" v="pitch" />
		<tag k="name" v="Harøy" />
		<tag k="ssr:stedsnr" v="32183" />
	</node>
	<node id="-5774" lat="62.4912888932" lon="6.60244444364">
		<tag k="name" v="Digernes næringsområde" />
		<tag k="place" v="quarter" />
		<tag k="ssr:stedsnr" v="484909" />
	</node>
	<node id="-7816" lat="62.6070083364" lon="6.19016389061">
		<tag k="name" v="Henninggarden" />
		<tag k="place" v="farm" />
		<tag k="ssr:stedsnr" v="30625" />
	</node>
	<node id="-7815" lat="62.4328640381" lon="6.40181796008">
		<tag k="fixme" v="consider place=hamlet" />
		<tag k="name" v="Hatleholen" />
		<tag k="place" v="farm" />
		<tag k="ssr:stedsnr" v="28541" />
	</node>
	<node id="-7814" lat="62.4654611071" lon="6.3470472306">
		<tag k="fixme" v="consider place=suburb, village or hamlet" />
		<tag k="name" v="Moa" />
		<tag k="place" v="quarter" />
		<tag k="ssr:stedsnr" v="28538" />
	</node>
	<node id="-9054" lat="62.4489333352" lon="6.35537500467">
		<tag k="name" v="Breivika" />
		<tag k="place" v="quarter" />
		<tag k="ssr:stedsnr" v="375040" />
	</node>
	<node id="-7812" lat="62.4611361129" lon="6.28004166489">
		<tag k="name" v="Hatlane" />
		<tag k="place" v="suburb" />
		<tag k="ssr:stedsnr" v="27979" />
	</node>
	<node id="-7810" lat="62.5331343875" lon="6.26989209112">
		<tag k="fixme" v="consider place=hamlet" />
		<tag k="name" v="Hamnsund" />
		<tag k="place" v="farm" />
		<tag k="ssr:stedsnr" v="25893" />
	</node>
	<node id="-7809" lat="62.5139809668" lon="6.30895192754">
		<tag k="fixme" v="consider place=hamlet" />
		<tag k="loc_name" v="Lorga" />
		<tag k="name" v="Lorgja" />
		<tag k="place" v="farm" />
		<tag k="ssr:stedsnr" v="25886" />
	</node>
	<node id="-7808" lat="62.5006010245" lon="6.81461889771">
		<tag k="name" v="Braute" />
		<tag k="place" v="farm" />
		<tag k="ssr:stedsnr" v="25959" />
	</node>
	<node id="-5759" lat="62.6180527821" lon="6.70466389172">
		<tag k="historic" v="shieling" />
		<tag k="name" v="Eikesætra" />
		<tag k="place" v="locality" />
		<tag k="ssr:stedsnr" v="337466" />
	</node>
	<node id="-7806" lat="62.4945388849" lon="6.32888888515">
		<tag k="fixme" v="consider place=suburb, village or hamlet" />
		<tag k="name" v="Vik" />
		<tag k="place" v="quarter" />
		<tag k="ssr:stedsnr" v="25139" />
	</node>
	<node id="-5756" lat="62.6044944423" lon="6.20750278244">
		<tag k="name" v="Sjurgarden" />
		<tag k="place" v="farm" />
		<tag k="ssr:stedsnr" v="336591" />
	</node>
	<node id="-5754" lat="62.5604777762" lon="6.27661388273">
		<tag k="name" v="Svendsen-Gamlem" />
		<tag k="place" v="farm" />
		<tag k="ssr:stedsnr" v="336305" />
	</node>
	<node id="-7801" lat="62.5702138874" lon="6.75646944275">
		<tag k="historic" v="shieling" />
		<tag k="name" v="Øygardssetra" />
		<tag k="place" v="locality" />
		<tag k="ssr:stedsnr" v="12879" />
	</node>
	<node id="-8307" lat="62.6017888908" lon="6.67746388385">
		<tag k="name" v="Reiten" />
		<tag k="place" v="farm" />
		<tag k="ssr:stedsnr" v="132365" />
	</node>
	<node id="-5750" lat="62.6157249989" lon="6.21827221304">
		<tag k="name" v="Jordmorgarden" />
		<tag k="place" v="farm" />
		<tag k="ssr:stedsnr" v="335718" />
	</node>
	<node id="-8809" lat="62.5934590907" lon="6.46860861427">
		<tag k="fixme" v="consider place=hamlet" />
		<tag k="name" v="Ringstad" />
		<tag k="place" v="farm" />
		<tag k="ssr:stedsnr" v="315331" />
	</node>
	<node id="-5747" lat="62.6562833326" lon="6.33213610195">
		<tag k="name" v="Gunnargarden" />
		<tag k="place" v="farm" />
		<tag k="ssr:stedsnr" v="335629" />
	</node>
	<node id="-7793" lat="62.6716444452" lon="6.17635278428">
		<tag k="name" v="Hestevollane" />
		<tag k="place" v="locality" />
		<tag k="ssr:stedsnr" v="12698" />
	</node>
	<node id="-5743" lat="62.6912583375" lon="6.23248889208">
		<tag k="name" v="Eidet" />
		<tag k="place" v="farm" />
		<tag k="ssr:stedsnr" v="335306" />
	</node>
	<node id="-7789" lat="62.7643583336" lon="6.47061388294">
		<tag k="name" v="Stykket" />
		<tag k="place" v="farm" />
		<tag k="ssr:stedsnr" v="12452" />
	</node>
	<node id="-7788" lat="62.7727166683" lon="6.44952222194">
		<tag k="name" v="Karihaugen" />
		<tag k="place" v="farm" />
		<tag k="ssr:stedsnr" v="12447" />
	</node>
	<node id="-7787" lat="62.7692607076" lon="6.42418224267">
		<tag k="fixme" v="consider place=hamlet" />
		<tag k="name" v="Brunvoll" />
		<tag k="place" v="farm" />
		<tag k="ssr:stedsnr" v="12443" />
	</node>
	<node id="-7786" lat="62.7706166638" lon="6.42860278508">
		<tag k="name" v="Nordbø" />
		<tag k="place" v="farm" />
		<tag k="ssr:stedsnr" v="12440" />
	</node>
	<node id="-9193" lat="62.5858472201" lon="6.58089721841">
		<tag k="name" v="Olagarden" />
		<tag k="place" v="farm" />
		<tag k="ssr:stedsnr" v="397920" />
	</node>
	<node id="-5731" lat="62.6054166633" lon="6.20182222029">
		<tag k="name" v="Gjerdet" />
		<tag k="place" v="farm" />
		<tag k="ssr:stedsnr" v="333606" />
	</node>
	<node id="-7773" lat="62.5208333356" lon="6.54118641553">
		<tag k="fixme" v="consider place=hamlet" />
		<tag k="name" v="Stavset" />
		<tag k="place" v="farm" />
		<tag k="ssr:stedsnr" v="12191" />
	</node>
	<node id="-7771" lat="62.5298194421" lon="6.71528333018">
		<tag k="name" v="Stranda" />
		<tag k="place" v="farm" />
		<tag k="ssr:stedsnr" v="12175" />
	</node>
	<node id="-7768" lat="62.5035049105" lon="6.40223702713">
		<tag k="fixme" v="consider place=hamlet" />
		<tag k="name" v="Stokke" />
		<tag k="place" v="farm" />
		<tag k="ssr:stedsnr" v="12153" />
	</node>
	<node id="-5718" lat="62.5337944459" lon="6.59144445156">
		<tag k="name" v="Eliasgarden" />
		<tag k="place" v="farm" />
		<tag k="ssr:stedsnr" v="519664" />
	</node>
	<node id="-5717" lat="62.6071638872" lon="6.34906111407">
		<tag k="name" v="Indre Hildre" />
		<tag k="place" v="hamlet" />
		<tag k="ssr:stedsnr" v="519640" />
	</node>
	<node id="-5716" lat="62.5631361121" lon="6.62251945363">
		<tag k="name" v="Ulvestadbakken" />
		<tag k="place" v="farm" />
		<tag k="ssr:stedsnr" v="519626" />
	</node>
	<node id="-7763" lat="62.4976374237" lon="6.20760711086">
		<tag k="fixme" v="consider place=hamlet" />
		<tag k="name" v="Hov" />
		<tag k="place" v="farm" />
		<tag k="ssr:stedsnr" v="11985" />
	</node>
	<node id="-7762" lat="62.7022333289" lon="6.42111388119">
		<tag k="name" v="Otnes" />
		<tag k="place" v="farm" />
		<tag k="ssr:stedsnr" v="11938" />
	</node>
	<node id="-7757" lat="62.783891669" lon="6.47064721283">
		<tag k="name" v="Steinshamn" />
		<tag k="place" v="village" />
		<tag k="ssr:stedsnr" v="11498" />
	</node>
	<node id="-7755" lat="62.797805555" lon="6.50701945147">
		<tag k="name" v="Innigarden" />
		<tag k="place" v="farm" />
		<tag k="ssr:stedsnr" v="11490" />
	</node>
	<node id="-5704" lat="62.6980055179" lon="6.35620545785">
		<tag k="name" v="Stonga" />
		<tag k="place" v="farm" />
		<tag k="ssr:stedsnr" v="315925" />
	</node>
	<node id="-5703" lat="62.6982694448" lon="6.3681555519">
		<tag k="name" v="Haggarden" />
		<tag k="place" v="farm" />
		<tag k="ssr:stedsnr" v="315919" />
	</node>
	<node id="-8801" lat="62.5113310068" lon="6.44620585283">
		<tag k="fixme" v="consider place=hamlet" />
		<tag k="name" v="Rot" />
		<tag k="place" v="farm" />
		<tag k="ssr:stedsnr" v="315178" />
	</node>
	<node id="-7746" lat="62.6203167726" lon="6.65067507171">
		<tag k="fixme" v="consider place=hamlet" />
		<tag k="name" v="Langset" />
		<tag k="place" v="farm" />
		<tag k="ssr:stedsnr" v="11450" />
	</node>
	<node id="-5696" lat="62.7982638878" lon="6.50448888313">
		<tag k="name" v="Heimigarden" />
		<tag k="place" v="farm" />
		<tag k="ssr:stedsnr" v="315470" />
	</node>
	<node id="-5694" lat="62.6372916668" lon="6.2735055592">
		<tag k="fixme" v="consider place=hamlet" />
		<tag k="name" v="Austnes" />
		<tag k="place" v="village" />
		<tag k="ssr:stedsnr" v="315461" />
	</node>
	<node id="-7740" lat="62.5994666655" lon="6.67817222383">
		<tag k="name" v="Arnegarden" />
		<tag k="place" v="farm" />
		<tag k="ssr:stedsnr" v="11391" />
	</node>
	<node id="-7738" lat="62.44661752" lon="6.90204679108">
		<tag k="fixme" v="consider place=hamlet" />
		<tag k="name" v="Viset" />
		<tag k="place" v="farm" />
		<tag k="ssr:stedsnr" v="11367" />
	</node>
	<node id="-7737" lat="62.5012638851" lon="6.67462778428">
		<tag k="name" v="Vik" />
		<tag k="place" v="farm" />
		<tag k="ssr:stedsnr" v="11078" />
	</node>
	<node id="-7735" lat="62.5462194421" lon="6.59088611357">
		<tag k="name" v="Eidet" />
		<tag k="place" v="farm" />
		<tag k="ssr:stedsnr" v="11181" />
	</node>
	<node id="-7734" lat="62.4599581811" lon="6.60521542227">
		<tag k="fixme" v="consider place=hamlet" />
		<tag k="name" v="Rabben" />
		<tag k="place" v="farm" />
		<tag k="ssr:stedsnr" v="11053" />
	</node>
	<node id="-7733" lat="62.4408786081" lon="6.3156296099">
		<tag k="fixme" v="consider place=hamlet" />
		<tag k="name" v="Tørla" />
		<tag k="place" v="farm" />
		<tag k="ssr:stedsnr" v="11051" />
	</node>
	<node id="-7732" lat="62.4503805519" lon="6.44025278426">
		<tag k="historic" v="shieling" />
		<tag k="name" v="Eikenossætra" />
		<tag k="place" v="locality" />
		<tag k="ssr:stedsnr" v="11049" />
	</node>
	<node id="-7731" lat="62.4552866776" lon="6.59279619659">
		<tag k="fixme" v="consider place=hamlet" />
		<tag k="name" v="Gudmundset" />
		<tag k="place" v="farm" />
		<tag k="ssr:stedsnr" v="11047" />
	</node>
	<node id="-5681" lat="62.5568138884" lon="6.62954723035">
		<tag k="name" v="Reiten" />
		<tag k="place" v="farm" />
		<tag k="ssr:stedsnr" v="315202" />
	</node>
	<node id="-5679" lat="62.4705723262" lon="6.10968957238">
		<tag k="fixme" v="consider place=hamlet" />
		<tag k="name" v="Drevik" />
		<tag k="place" v="farm" />
		<tag k="ssr:stedsnr" v="314915" />
	</node>
	<node id="-5677" lat="62.5506166644" lon="6.72901944286">
		<tag k="name" v="Eikrolsætra" />
		<tag k="place" v="isolated_dwelling" />
		<tag k="ssr:stedsnr" v="314904" />
	</node>
	<node id="-5672" lat="62.6034166665" lon="6.31834444882">
		<tag k="name" v="Gjerdet" />
		<tag k="place" v="farm" />
		<tag k="ssr:stedsnr" v="314474" />
	</node>
	<node id="-5671" lat="62.6103222216" lon="6.66833888505">
		<tag k="name" v="Fonna" />
		<tag k="place" v="farm" />
		<tag k="ssr:stedsnr" v="314470" />
	</node>
	<node id="-5670" lat="62.6128111115" lon="6.66901943737">
		<tag k="name" v="Haggarden" />
		<tag k="place" v="farm" />
		<tag k="ssr:stedsnr" v="314457" />
	</node>
	<node id="-5668" lat="62.4473861119" lon="7.02043332818">
		<tag k="historic" v="shieling" />
		<tag k="name" v="Grytalisætra" />
		<tag k="place" v="locality" />
		<tag k="ssr:stedsnr" v="314411" />
	</node>
	<node id="-5667" lat="62.4729752805" lon="6.83848095603">
		<tag k="fixme" v="consider place=hamlet" />
		<tag k="name" v="Vallbøen" />
		<tag k="place" v="farm" />
		<tag k="ssr:stedsnr" v="314363" />
	</node>
	<node id="-5666" lat="62.57940556" lon="6.70261666608">
		<tag k="historic" v="shieling" />
		<tag k="name" v="Vestresætra" />
		<tag k="place" v="locality" />
		<tag k="ssr:stedsnr" v="314359" />
	</node>
	<node id="-5665" lat="62.4989023421" lon="6.53380767399">
		<tag k="fixme" v="consider place=hamlet" />
		<tag k="name" v="Utvika" />
		<tag k="place" v="farm" />
		<tag k="ssr:stedsnr" v="314276" />
	</node>
	<node id="-7712" lat="62.5422666637" lon="6.74528123035">
		<tag k="name" v="Storsætra" />
		<tag k="place" v="farm" />
		<tag k="ssr:stedsnr" v="988419" />
	</node>
	<node id="-7711" lat="62.462575813" lon="6.16473223661">
		<tag k="fixme" v="consider place=hamlet" />
		<tag k="name" v="Slinningen" />
		<tag k="place" v="farm" />
		<tag k="ssr:stedsnr" v="982276" />
	</node>
	<node id="-8304" lat="62.4622916664" lon="6.97346666144">
		<tag k="historic" v="shieling" />
		<tag k="name" v="Sollisætra" />
		<tag k="place" v="locality" />
		<tag k="ssr:stedsnr" v="132324" />
	</node>
	<node id="-7709" lat="62.4464720736" lon="6.26932483341">
		<tag k="fixme" v="consider place=hamlet" />
		<tag k="name" v="Kalven" />
		<tag k="place" v="farm" />
		<tag k="ssr:stedsnr" v="982273" />
	</node>
	<node id="-7708" lat="62.4611460403" lon="6.33910519072">
		<tag k="fixme" v="consider place=hamlet" />
		<tag k="name" v="Furmyr" />
		<tag k="place" v="farm" />
		<tag k="ssr:stedsnr" v="982271" />
	</node>
	<node id="-5659" lat="62.5024148056" lon="6.52517767412">
		<tag k="fixme" v="consider place=hamlet" />
		<tag k="name" v="Natvika" />
		<tag k="place" v="farm" />
		<tag k="ssr:stedsnr" v="314109" />
	</node>
	<node id="-7705" lat="62.4335759965" lon="6.50382135401">
		<tag k="fixme" v="consider place=hamlet" />
		<tag k="name" v="Magerholm" />
		<tag k="place" v="farm" />
		<tag k="ssr:stedsnr" v="982234" />
	</node>
	<node id="-7704" lat="62.537591598" lon="6.48242412715">
		<tag k="fixme" v="consider place=hamlet" />
		<tag k="name" v="Kroksethagen" />
		<tag k="place" v="farm" />
		<tag k="ssr:stedsnr" v="982038" />
	</node>
	<node id="-7703" lat="62.6011758009" lon="6.67245683332">
		<tag k="fixme" v="consider place=hamlet" />
		<tag k="name" v="Vestre" />
		<tag k="place" v="farm" />
		<tag k="ssr:stedsnr" v="982034" />
	</node>
	<node id="-7702" lat="62.6277166247" lon="6.60405822156">
		<tag k="fixme" v="consider place=hamlet" />
		<tag k="loc_name" v="Ternøya" />
		<tag k="name" v="Tennøya" />
		<tag k="place" v="farm" />
		<tag k="ssr:stedsnr" v="982033" />
	</node>
	<node id="-7701" lat="62.6147918543" lon="6.59766086584">
		<tag k="alt_name" v="Hannibalsøya" />
		<tag k="name" v="Løvøya" />
		<tag k="place" v="locality" />
		<tag k="ssr:stedsnr" v="982032" />
	</node>
	<node id="-7700" lat="62.4640065458" lon="6.19941978388">
		<tag k="name" v="Tyskholmen " />
		<tag k="place" v="locality" />
		<tag k="ssr:stedsnr" v="982362" />
	</node>
	<node id="-7695" lat="62.4695553778" lon="6.11369243015">
		<tag k="name" v="Skarbøvik" />
		<tag k="place" v="locality" />
		<tag k="ssr:stedsnr" v="982355" />
	</node>
	<node id="-7693" lat="62.6651340034" lon="6.27448858018">
		<tag k="fixme" v="consider place=hamlet" />
		<tag k="name" v="Longva" />
		<tag k="place" v="farm" />
		<tag k="ssr:stedsnr" v="981960" />
	</node>
	<node id="-7692" lat="62.653390221" lon="6.2147290079">
		<tag k="name" v="Kjellstad" />
		<tag k="place" v="farm" />
		<tag k="ssr:stedsnr" v="981576" />
	</node>
	<node id="-7691" lat="62.6550231692" lon="6.20508273072">
		<tag k="name" v="Negard" />
		<tag k="place" v="farm" />
		<tag k="ssr:stedsnr" v="981575" />
	</node>
	<node id="-7688" lat="62.8634688322" lon="6.54479802854">
		<tag k="fixme" v="consider place=hamlet" />
		<tag k="name" v="Ona" />
		<tag k="place" v="farm" />
		<tag k="ssr:stedsnr" v="981347" />
	</node>
	<node id="-5036" lat="62.6032055523" lon="6.36531110498">
		<tag k="name" v="Remma" />
		<tag k="place" v="farm" />
		<tag k="ssr:stedsnr" v="277240" />
	</node>
	<node id="-5635" lat="62.4715166635" lon="6.47326944423">
		<tag k="name" v="Vasstrand" />
		<tag k="place" v="farm" />
		<tag k="ssr:stedsnr" v="462604" />
	</node>
	<node id="-5634" lat="62.4603676133" lon="6.36917084412">
		<tag k="amenity" v="school" />
		<tag k="name" v="Spjelkavik barneskole" />
		<tag k="old_name" v="Spjelkavik skole" />
		<tag k="ssr:stedsnr" v="462569" />
	</node>
	<node id="-7681" lat="62.475180147" lon="6.22841043564">
		<tag k="fixme" v="consider place=hamlet" />
		<tag k="name" v="Nørve" />
		<tag k="place" v="farm" />
		<tag k="ssr:stedsnr" v="968163" />
	</node>
	<node id="-5631" lat="62.4683888894" lon="6.18459722039">
		<tag k="amenity" v="school" />
		<tag k="name" v="Ålesund videregående skole, avd. Volsdalsberga" />
		<tag k="old_name" v="Ålesund maritime skoler" />
		<tag k="ssr:stedsnr" v="462544" />
	</node>
	<node id="-5627" lat="62.4407083361" lon="6.35662223151">
		<tag k="fixme" v="consider place=hamlet" />
		<tag k="name" v="Skytterholm" />
		<tag k="place" v="farm" />
		<tag k="ssr:stedsnr" v="462005" />
	</node>
	<node id="-7673" lat="62.5052527806" lon="6.71866110231">
		<tag k="name" v="Ytreli" />
		<tag k="place" v="farm" />
		<tag k="ssr:stedsnr" v="962458" />
	</node>
	<node id="-5617" lat="62.500272224" lon="6.81866665899">
		<tag k="name" v="Geilhaugen" />
		<tag k="place" v="farm" />
		<tag k="ssr:stedsnr" v="460745" />
	</node>
	<node id="-5616" lat="62.4858083376" lon="6.83508055371">
		<tag k="name" v="Nakkane" />
		<tag k="place" v="farm" />
		<tag k="ssr:stedsnr" v="460743" />
	</node>
	<node id="-5615" lat="62.4655972265" lon="6.98213611475">
		<tag k="historic" v="shieling" />
		<tag k="name" v="Grønlistølen" />
		<tag k="place" v="locality" />
		<tag k="ssr:stedsnr" v="460740" />
	</node>
	<node id="-5610" lat="62.4785111118" lon="6.93664166131">
		<tag k="historic" v="shieling" />
		<tag k="name" v="Skarbøsæterstølen" />
		<tag k="place" v="locality" />
		<tag k="ssr:stedsnr" v="460692" />
	</node>
	<node id="-8785" lat="62.4442453417" lon="6.99030948928">
		<tag k="historic" v="shieling" />
		<tag k="name" v="Hjellesætra" />
		<tag k="place" v="locality" />
		<tag k="ssr:stedsnr" v="314399" />
	</node>
	<node id="-5602" lat="62.4867638895" lon="6.82800555745">
		<tag k="name" v="Hjellane" />
		<tag k="place" v="farm" />
		<tag k="ssr:stedsnr" v="460663" />
	</node>
	<node id="-7648" lat="62.862555552" lon="6.54630277941">
		<tag k="name" v="Stølen" />
		<tag k="place" v="isolated_dwelling" />
		<tag k="ssr:stedsnr" v="941303" />
	</node>
	<node id="-5029" lat="62.5521583328" lon="6.60613888503">
		<tag k="name" v="Solbu" />
		<tag k="place" v="farm" />
		<tag k="ssr:stedsnr" v="276968" />
	</node>
	<node id="-7640" lat="62.5674601594" lon="6.7252160735">
		<tag k="alt_name" v="Krogsætra;Krogsæter;Kroksæter" />
		<tag k="fixme" v="consider place=hamlet" />
		<tag k="name" v="Kroksætra" />
		<tag k="place" v="farm" />
		<tag k="ssr:stedsnr" v="922868" />
	</node>
	<node id="-7638" lat="62.6868549484" lon="6.28274069559">
		<tag k="fixme" v="consider place=hamlet" />
		<tag k="name" v="Ura" />
		<tag k="place" v="farm" />
		<tag k="ssr:stedsnr" v="922866" />
	</node>
	<node id="-7637" lat="62.6816027818" lon="6.25125276917">
		<tag k="name" v="Flem" />
		<tag k="place" v="farm" />
		<tag k="ssr:stedsnr" v="922862" />
	</node>
	<node id="-7631" lat="62.5510833348" lon="6.47068889749">
		<tag k="name" v="Remevollen" />
		<tag k="place" v="farm" />
		<tag k="ssr:stedsnr" v="922236" />
	</node>
	<node id="-7629" lat="62.5145833375" lon="6.45726944863">
		<tag k="fixme" v="consider place=hamlet" />
		<tag k="name" v="Taftasundet" />
		<tag k="place" v="village" />
		<tag k="ssr:stedsnr" v="922177" />
	</node>
	<node id="-7627" lat="62.527521787" lon="6.66703827337">
		<tag k="fixme" v="consider place=hamlet" />
		<tag k="name" v="Nes" />
		<tag k="place" v="farm" />
		<tag k="ssr:stedsnr" v="922162" />
	</node>
	<node id="-7626" lat="62.5041167837" lon="6.62260499607">
		<tag k="fixme" v="consider place=hamlet" />
		<tag k="name" v="Straumen" />
		<tag k="place" v="village" />
		<tag k="ssr:stedsnr" v="921095" />
	</node>
	<node id="-5025" lat="62.5880000044" lon="6.57850278335">
		<tag k="name" v="Pegarden" />
		<tag k="place" v="isolated_dwelling" />
		<tag k="ssr:stedsnr" v="276791" />
	</node>
	<node id="-7600" lat="62.49926667" lon="6.47625277427">
		<tag k="historic" v="shieling" />
		<tag k="name" v="Sætra" />
		<tag k="place" v="locality" />
		<tag k="ssr:stedsnr" v="217078" />
	</node>
	<node id="-5551" lat="62.5245305572" lon="6.74271666825">
		<tag k="name" v="Soltun" />
		<tag k="place" v="farm" />
		<tag k="ssr:stedsnr" v="460101" />
	</node>
	<node id="-5549" lat="62.5221583294" lon="6.7354888815">
		<tag k="name" v="Hjellen" />
		<tag k="place" v="farm" />
		<tag k="ssr:stedsnr" v="460087" />
	</node>
	<node id="-7589" lat="62.4311138928" lon="6.43228610565">
		<tag k="name" v="Osehaugen" />
		<tag k="place" v="farm" />
		<tag k="ssr:stedsnr" v="887609" />
	</node>
	<node id="-5537" lat="62.5335027755" lon="6.34702778089">
		<tag k="name" v="Hagarden" />
		<tag k="place" v="farm" />
		<tag k="ssr:stedsnr" v="459574" />
	</node>
	<node id="-7583" lat="62.4714222258" lon="6.36869165859">
		<tag k="name" v="Ytterholen" />
		<tag k="place" v="farm" />
		<tag k="ssr:stedsnr" v="887553" />
	</node>
	<node id="-7581" lat="62.4816388921" lon="6.82252777232">
		<tag k="name" v="Steinholt" />
		<tag k="place" v="farm" />
		<tag k="ssr:stedsnr" v="885711" />
	</node>
	<node id="-5531" lat="62.6025527751" lon="6.67568333262">
		<tag k="name" v="Steinteigen" />
		<tag k="place" v="farm" />
		<tag k="ssr:stedsnr" v="459464" />
	</node>
	<node id="-5529" lat="62.4810416634" lon="6.8307444467">
		<tag k="name" v="Myrane" />
		<tag k="place" v="farm" />
		<tag k="ssr:stedsnr" v="278650" />
	</node>
	<node id="-7573" lat="62.527691666" lon="6.88207777746">
		<tag k="leisure" v="pitch" />
		<tag k="name" v="Løklibakken" />
		<tag k="ssr:stedsnr" v="885575" />
	</node>
	<node id="-8771" lat="62.5046805601" lon="6.69322222978">
		<tag k="name" v="Skodje" />
		<tag k="place" v="village" />
		<tag k="ssr:stedsnr" v="314097" />
	</node>
	<node id="-7566" lat="62.4811333304" lon="6.85110833381">
		<tag k="name" v="Jogarden" />
		<tag k="place" v="farm" />
		<tag k="ssr:stedsnr" v="885514" />
	</node>
	<node id="-5357" lat="62.6925388891" lon="6.37867778399">
		<tag k="name" v="Kleiva" />
		<tag k="place" v="farm" />
		<tag k="ssr:stedsnr" v="254908" />
	</node>
	<node id="-5516" lat="62.538183331" lon="6.47883889292">
		<tag k="name" v="Kroksethagen" />
		<tag k="place" v="farm" />
		<tag k="ssr:stedsnr" v="459404" />
	</node>
	<node id="-7562" lat="62.5360861125" lon="6.67960832386">
		<tag k="name" v="Hauggjæra" />
		<tag k="place" v="farm" />
		<tag k="ssr:stedsnr" v="885425" />
	</node>
	<node id="-5507" lat="62.5693361137" lon="6.74318333058">
		<tag k="name" v="Bjørkelund" />
		<tag k="place" v="isolated_dwelling" />
		<tag k="ssr:stedsnr" v="277710" />
	</node>
	<node id="-8768" lat="62.4343138869" lon="6.35788888071">
		<tag k="fixme" v="consider place=hamlet" />
		<tag k="name" v="Vegsundet" />
		<tag k="place" v="village" />
		<tag k="ssr:stedsnr" v="314039" />
	</node>
	<node id="-5502" lat="62.5429861075" lon="6.52762222023">
		<tag k="name" v="Oppegarden" />
		<tag k="place" v="farm" />
		<tag k="ssr:stedsnr" v="277009" />
	</node>
	<node id="-7546" lat="62.5432333304" lon="6.51254443511">
		<tag k="name" v="Teigen" />
		<tag k="place" v="farm" />
		<tag k="ssr:stedsnr" v="884160" />
	</node>
	<node id="-8767" lat="62.4791222262" lon="6.67361666049">
		<tag k="name" v="Håem" />
		<tag k="place" v="farm" />
		<tag k="ssr:stedsnr" v="303151" />
	</node>
	<node id="-7544" lat="62.545544444" lon="6.58766944529">
		<tag k="name" v="Eidsvikeidet" />
		<tag k="place" v="hamlet" />
		<tag k="ssr:stedsnr" v="883968" />
	</node>
	<node id="-8425" lat="62.6189833326" lon="6.21659721358">
		<tag k="name" v="Henrikgarden" />
		<tag k="place" v="farm" />
		<tag k="ssr:stedsnr" v="153731" />
	</node>
	<node id="-5490" lat="62.5559555579" lon="6.63851944375">
		<tag k="name" v="Haug-Pehaugen" />
		<tag k="place" v="farm" />
		<tag k="ssr:stedsnr" v="276668" />
	</node>
	<node id="-5489" lat="62.5641111109" lon="6.61664444062">
		<tag k="name" v="Kleivane" />
		<tag k="place" v="farm" />
		<tag k="ssr:stedsnr" v="276662" />
	</node>
	<node id="-7536" lat="62.5619611087" lon="6.71320555641">
		<tag k="historic" v="shieling" />
		<tag k="name" v="Bruteigselet" />
		<tag k="place" v="locality" />
		<tag k="ssr:stedsnr" v="883455" />
	</node>
	<node id="-5486" lat="62.5677583344" lon="6.7244944488">
		<tag k="name" v="Jogarden" />
		<tag k="place" v="farm" />
		<tag k="ssr:stedsnr" v="276504" />
	</node>
	<node id="-7532" lat="62.4598900603" lon="6.79904144015">
		<tag k="fixme" v="consider place=hamlet" />
		<tag k="name" v="Lisetvik" />
		<tag k="old_name" v="Lindsætvik" />
		<tag k="place" v="farm" />
		<tag k="ssr:stedsnr" v="950275" />
	</node>
	<node id="-7531" lat="62.7829500011" lon="6.46327500761">
		<tag k="name" v="Måsvikremma" />
		<tag k="old_name" v="Masvikremma" />
		<tag k="place" v="quarter" />
		<tag k="ssr:stedsnr" v="870509" />
	</node>
	<node id="-5479" lat="62.6333339481" lon="6.2491041103">
		<tag k="name" v="Myskja" />
		<tag k="place" v="farm" />
		<tag k="ssr:stedsnr" v="275662" />
	</node>
	<node id="-5009" lat="62.6610083344" lon="6.28270555853">
		<tag k="name" v="Moldbaren" />
		<tag k="place" v="farm" />
		<tag k="ssr:stedsnr" v="153320" />
	</node>
	<node id="-7519" lat="62.4685222224" lon="6.37460278073">
		<tag k="amenity" v="school" />
		<tag k="name" v="Borgund videregående skole" />
		<tag k="old_name" v="Borgund Yrkesskole" />
		<tag k="ssr:stedsnr" v="948647" />
	</node>
	<node id="-5470" lat="62.65605" lon="6.18055556263">
		<tag k="name" v="Maristad" />
		<tag k="place" v="farm" />
		<tag k="ssr:stedsnr" v="275453" />
	</node>
	<node id="-5007" lat="62.6234722212" lon="6.66659166612">
		<tag k="name" v="Insteik" />
		<tag k="place" v="farm" />
		<tag k="ssr:stedsnr" v="276047" />
	</node>
	<node id="-7505" lat="62.4577499967" lon="6.92551943658">
		<tag k="name" v="Birkelund" />
		<tag k="place" v="farm" />
		<tag k="ssr:stedsnr" v="946490" />
	</node>
	<node id="-7504" lat="62.4548972249" lon="6.91917778621">
		<tag k="name" v="Gjerdet" />
		<tag k="place" v="farm" />
		<tag k="ssr:stedsnr" v="946481" />
	</node>
	<node id="-7498" lat="62.4856083349" lon="6.53818056497">
		<tag k="name" v="Solbakken" />
		<tag k="place" v="farm" />
		<tag k="ssr:stedsnr" v="946403" />
	</node>
	<node id="-5449" lat="62.5359111078" lon="6.61248334233">
		<tag k="name" v="Berntgarden" />
		<tag k="place" v="farm" />
		<tag k="ssr:stedsnr" v="458694" />
	</node>
	<node id="-5446" lat="62.554850004" lon="6.63925556485">
		<tag k="name" v="Torsteingarden" />
		<tag k="place" v="farm" />
		<tag k="ssr:stedsnr" v="458657" />
	</node>
	<node id="-9441" lat="62.4495916623" lon="6.56739999264">
		<tag k="historic" v="shieling" />
		<tag k="name" v="Nerstølen" />
		<tag k="place" v="locality" />
		<tag k="ssr:stedsnr" v="520057" />
	</node>
	<node id="-5686" lat="62.56724722" lon="6.61682222188">
		<tag k="name" v="Gardvika" />
		<tag k="place" v="farm" />
		<tag k="ssr:stedsnr" v="315254" />
	</node>
	<node id="-5685" lat="62.5610555517" lon="6.59194167657">
		<tag k="name" v="Ossætra" />
		<tag k="place" v="locality" />
		<tag k="ssr:stedsnr" v="315253" />
	</node>
	<node id="-9098" lat="62.7348250018" lon="6.46689722158">
		<tag k="name" v="Sandvika" />
		<tag k="place" v="farm" />
		<tag k="ssr:stedsnr" v="375822" />
	</node>
	<node id="-5684" lat="62.5363194408" lon="6.37533332995">
		<tag k="name" v="Øvre Gryta" />
		<tag k="place" v="farm" />
		<tag k="ssr:stedsnr" v="315224" />
	</node>
	<node id="-5429" lat="62.5612499998" lon="6.71351943557">
		<tag k="historic" v="shieling" />
		<tag k="name" v="Klokkeborga" />
		<tag k="place" v="locality" />
		<tag k="ssr:stedsnr" v="458407" />
	</node>
	<node id="-5426" lat="62.6022805593" lon="6.38921110402">
		<tag k="name" v="Raffelgarden" />
		<tag k="place" v="farm" />
		<tag k="ssr:stedsnr" v="458298" />
	</node>
	<node id="-5683" lat="62.5548105822" lon="6.63594755676">
		<tag k="fixme" v="consider place=hamlet" />
		<tag k="name" v="Vatne" />
		<tag k="place" v="farm" />
		<tag k="ssr:stedsnr" v="315214" />
	</node>
	<node id="-7472" lat="62.4765305565" lon="6.72071389457">
		<tag k="name" v="Sjølyst" />
		<tag k="place" v="isolated_dwelling" />
		<tag k="ssr:stedsnr" v="945988" />
	</node>
	<node id="-5423" lat="62.6097916683" lon="6.62533611347">
		<tag k="name" v="Riset" />
		<tag k="place" v="farm" />
		<tag k="ssr:stedsnr" v="458068" />
	</node>
	<node id="-7469" lat="62.5023194437" lon="6.80748333618">
		<tag k="name" v="Barlindbøen" />
		<tag k="place" v="farm" />
		<tag k="ssr:stedsnr" v="945682" />
	</node>
	<node id="-7468" lat="62.479424998" lon="6.76232221761">
		<tag k="name" v="Dyrberg" />
		<tag k="place" v="farm" />
		<tag k="ssr:stedsnr" v="945671" />
	</node>
	<node id="-5419" lat="62.6723944477" lon="6.33703055926">
		<tag k="name" v="Olagarden" />
		<tag k="place" v="farm" />
		<tag k="ssr:stedsnr" v="457896" />
	</node>
	<node id="-6023" lat="62.5913388853" lon="6.56862777658">
		<tag k="name" v="Hjellen" />
		<tag k="place" v="farm" />
		<tag k="ssr:stedsnr" v="436364" />
	</node>
	<node id="-5416" lat="62.6335555515" lon="6.18026389255">
		<tag k="name" v="Høgtun" />
		<tag k="place" v="isolated_dwelling" />
		<tag k="ssr:stedsnr" v="457732" />
	</node>
	<node id="-7461" lat="62.4817861105" lon="6.79274721398">
		<tag k="name" v="Strandabøen" />
		<tag k="place" v="farm" />
		<tag k="ssr:stedsnr" v="945608" />
	</node>
	<node id="-7460" lat="62.4898555558" lon="6.88775554848">
		<tag k="name" v="Høgsætra" />
		<tag k="place" v="locality" />
		<tag k="ssr:stedsnr" v="945600" />
	</node>
	<node id="-9094" lat="62.6603583289" lon="6.23964999827">
		<tag k="name" v="Oletun" />
		<tag k="place" v="farm" />
		<tag k="ssr:stedsnr" v="375979" />
	</node>
	<node id="-5410" lat="62.6105444411" lon="6.20455278772">
		<tag k="name" v="Olegarden" />
		<tag k="place" v="farm" />
		<tag k="ssr:stedsnr" v="457600" />
	</node>
	<node id="-5394" lat="62.6624527778" lon="6.28934999036">
		<tag k="name" v="Sjurgarden" />
		<tag k="place" v="farm" />
		<tag k="ssr:stedsnr" v="457287" />
	</node>
	<node id="-5391" lat="62.5597722189" lon="6.28452222451">
		<tag k="name" v="Bjørnøyvatnet" />
		<tag k="place" v="farm" />
		<tag k="ssr:stedsnr" v="457259" />
	</node>
	<node id="-7436" lat="62.474627778" lon="6.55880277461">
		<tag k="historic" v="shieling" />
		<tag k="name" v="Glomsetsætra" />
		<tag k="place" v="locality" />
		<tag k="ssr:stedsnr" v="945256" />
	</node>
	<node id="-5387" lat="62.763461112" lon="6.43448056518">
		<tag k="alt_name" v="Legene" />
		<tag k="name" v="Legen" />
		<tag k="place" v="farm" />
		<tag k="ssr:stedsnr" v="457132" />
	</node>
	<node id="-7430" lat="62.5223777751" lon="6.62235278671">
		<tag k="name" v="Stetteremma" />
		<tag k="place" v="farm" />
		<tag k="ssr:stedsnr" v="945077" />
	</node>
	<node id="-7429" lat="62.5057777792" lon="6.69879167497">
		<tag k="name" v="Olmannsgarden" />
		<tag k="place" v="farm" />
		<tag k="ssr:stedsnr" v="945068" />
	</node>
	<node id="-7428" lat="62.5052027752" lon="6.71608610879">
		<tag k="name" v="Øvrebøen" />
		<tag k="place" v="farm" />
		<tag k="ssr:stedsnr" v="945067" />
	</node>
	<node id="-7427" lat="62.5034194475" lon="6.47919999162">
		<tag k="name" v="Kransen" />
		<tag k="place" v="farm" />
		<tag k="ssr:stedsnr" v="945059" />
	</node>
	<node id="-7426" lat="62.5181166674" lon="6.54859721942">
		<tag k="name" v="Lundberg" />
		<tag k="place" v="farm" />
		<tag k="ssr:stedsnr" v="945053" />
	</node>
	<node id="-9429" lat="62.5459222189" lon="6.57780556538">
		<tag k="name" v="Steffengarden" />
		<tag k="place" v="farm" />
		<tag k="ssr:stedsnr" v="519950" />
	</node>
	<node id="-5367" lat="62.6070777803" lon="6.20017499225">
		<tag k="name" v="Johangarden" />
		<tag k="place" v="farm" />
		<tag k="ssr:stedsnr" v="455592" />
	</node>
	<node id="-7411" lat="62.5797757152" lon="6.57330396073">
		<tag k="fixme" v="consider place=hamlet" />
		<tag k="name" v="Bjørnebotten" />
		<tag k="place" v="farm" />
		<tag k="ssr:stedsnr" v="944887" />
	</node>
	<node id="-5362" lat="62.5110453088" lon="6.81899523594">
		<tag k="fixme" v="consider place=hamlet" />
		<tag k="name" v="Akslevollen" />
		<tag k="place" v="farm" />
		<tag k="ssr:stedsnr" v="254866" />
	</node>
	<node id="-5331" lat="62.540831344" lon="6.66144853914">
		<tag k="fixme" v="consider place=hamlet" />
		<tag k="name" v="Skar" />
		<tag k="place" v="farm" />
		<tag k="ssr:stedsnr" v="254134" />
	</node>
	<node id="-7405" lat="62.6078472261" lon="6.6293305539">
		<tag k="name" v="Oppigarden" />
		<tag k="place" v="farm" />
		<tag k="ssr:stedsnr" v="944839" />
	</node>
	<node id="-5354" lat="62.6421722249" lon="6.23663888457">
		<tag k="name" v="Bakken" />
		<tag k="place" v="farm" />
		<tag k="ssr:stedsnr" v="254460" />
	</node>
	<node id="-5353" lat="62.7970361086" lon="6.50474999576">
		<tag k="name" v="Remma" />
		<tag k="place" v="farm" />
		<tag k="ssr:stedsnr" v="254455" />
	</node>
	<node id="-5351" lat="62.8139527769" lon="6.59378334315">
		<tag k="name" v="Vollen" />
		<tag k="place" v="farm" />
		<tag k="ssr:stedsnr" v="254375" />
	</node>
	<node id="-5349" lat="62.600088888" lon="6.38845278752">
		<tag k="name" v="Stortua" />
		<tag k="place" v="isolated_dwelling" />
		<tag k="ssr:stedsnr" v="254370" />
	</node>
	<node id="-9443" lat="62.5433202151" lon="6.68007706257">
		<tag k="alt_name" v="Beite indre" />
		<tag k="fixme" v="consider place=hamlet" />
		<tag k="name" v="Indre Beite" />
		<tag k="place" v="farm" />
		<tag k="ssr:stedsnr" v="520069" />
	</node>
	<node id="-9442" lat="62.5374666702" lon="6.72193611424">
		<tag k="name" v="Solhaug" />
		<tag k="place" v="isolated_dwelling" />
		<tag k="ssr:stedsnr" v="520060" />
	</node>
	<node id="-5345" lat="62.59822222" lon="6.67413888057">
		<tag k="name" v="Myra" />
		<tag k="place" v="farm" />
		<tag k="ssr:stedsnr" v="254352" />
	</node>
	<node id="-5344" lat="62.5729916674" lon="6.27396667298">
		<tag k="name" v="Høgstøl" />
		<tag k="place" v="farm" />
		<tag k="ssr:stedsnr" v="254315" />
	</node>
	<node id="-5343" lat="62.5825999956" lon="6.3452888823">
		<tag k="name" v="Ryssgardsætra" />
		<tag k="place" v="isolated_dwelling" />
		<tag k="ssr:stedsnr" v="254312" />
	</node>
	<node id="-7386" lat="62.6784384654" lon="6.19072441375">
		<tag k="fixme" v="consider place=hamlet" />
		<tag k="name" v="Ulla" />
		<tag k="place" v="farm" />
		<tag k="ssr:stedsnr" v="861725" />
	</node>
	<node id="-5336" lat="62.5431416658" lon="6.57796944437">
		<tag k="fixme" v="consider place=hamlet" />
		<tag k="name" v="Eidsvik" />
		<tag k="place" v="village" />
		<tag k="ssr:stedsnr" v="254170" />
	</node>
	<node id="-9431" lat="62.582902774" lon="6.6251722229">
		<tag k="name" v="Heimigard" />
		<tag k="place" v="farm" />
		<tag k="ssr:stedsnr" v="519982" />
	</node>
	<node id="-7382" lat="62.5247944419" lon="6.58682500143">
		<tag k="name" v="Opskar" />
		<tag k="place" v="farm" />
		<tag k="ssr:stedsnr" v="944653" />
	</node>
	<node id="-7381" lat="62.5441194443" lon="6.57550000628">
		<tag k="name" v="Haugen" />
		<tag k="place" v="farm" />
		<tag k="ssr:stedsnr" v="944648" />
	</node>
	<node id="-7379" lat="62.6452056384" lon="6.22934201869">
		<tag k="fixme" v="consider place=hamlet" />
		<tag k="name" v="Åkre" />
		<tag k="place" v="farm" />
		<tag k="ssr:stedsnr" v="861468" />
	</node>
	<node id="-5329" lat="62.5067993673" lon="6.31920626038">
		<tag k="name" v="Volstad" />
		<tag k="place" v="hamlet" />
		<tag k="ssr:stedsnr" v="254107" />
	</node>
	<node id="-9423" lat="62.6062305536" lon="6.56931944848">
		<tag k="name" v="Skorbreivik" />
		<tag k="place" v="hamlet" />
		<tag k="ssr:stedsnr" v="519877" />
	</node>
	<node id="-7367" lat="62.5570222216" lon="6.56802777514">
		<tag k="historic" v="shieling" />
		<tag k="name" v="Larsgardssætra" />
		<tag k="place" v="locality" />
		<tag k="ssr:stedsnr" v="944574" />
	</node>
	<node id="-9414" lat="62.5997666707" lon="6.6724722176">
		<tag k="name" v="Bortaforgarden" />
		<tag k="old_name" v="Bortafjordgarden" />
		<tag k="place" v="farm" />
		<tag k="ssr:stedsnr" v="519837" />
	</node>
	<node id="-4641" lat="62.4397194478" lon="6.5272555501">
		<tag k="historic" v="shieling" />
		<tag k="name" v="Hessebergsætra" />
		<tag k="place" v="locality" />
		<tag k="ssr:stedsnr" v="219653" />
	</node>
	<node id="-9412" lat="62.6101833301" lon="6.43569166323">
		<tag k="name" v="Sjurgarden" />
		<tag k="place" v="farm" />
		<tag k="ssr:stedsnr" v="519830" />
	</node>
	<node id="-7363" lat="62.5260524066" lon="6.69999194777">
		<tag k="fixme" v="consider place=hamlet" />
		<tag k="name" v="Kassneset" />
		<tag k="place" v="farm" />
		<tag k="ssr:stedsnr" v="861155" />
	</node>
	<node id="-9408" lat="62.6304833303" lon="6.25005555792">
		<tag k="name" v="Lygaren" />
		<tag k="place" v="farm" />
		<tag k="ssr:stedsnr" v="437501" />
	</node>
	<node id="-5664" lat="62.4946861894" lon="6.4567311326">
		<tag k="alt_name" v="Høyvik" />
		<tag k="fixme" v="consider place=hamlet" />
		<tag k="name" v="Høyvika" />
		<tag k="place" v="farm" />
		<tag k="ssr:stedsnr" v="314270" />
	</node>
	<node id="-5308" lat="62.4605833294" lon="6.90301110302">
		<tag k="name" v="Massplassen" />
		<tag k="place" v="farm" />
		<tag k="ssr:stedsnr" v="217706" />
	</node>
	<node id="-5307" lat="62.4605999979" lon="6.8990166667">
		<tag k="name" v="Hatlebakken" />
		<tag k="place" v="farm" />
		<tag k="ssr:stedsnr" v="217705" />
	</node>
	<node id="-5306" lat="62.4557361144" lon="6.91193889055">
		<tag k="name" v="Lysholen" />
		<tag k="place" v="farm" />
		<tag k="ssr:stedsnr" v="217703" />
	</node>
	<node id="-5382" lat="62.7473111098" lon="6.36442499871">
		<tag k="name" v="Rasmusgarden" />
		<tag k="place" v="isolated_dwelling" />
		<tag k="ssr:stedsnr" v="456797" />
	</node>
	<node id="-9399" lat="62.7496194478" lon="6.44670833599">
		<tag k="name" v="Myrbakken" />
		<tag k="place" v="farm" />
		<tag k="ssr:stedsnr" v="437074" />
	</node>
	<node id="-9396" lat="62.5166694485" lon="6.93487777348">
		<tag k="alt_name" v="Byrkjelihaugsetra" />
		<tag k="historic" v="shieling" />
		<tag k="name" v="Haugsætra" />
		<tag k="place" v="locality" />
		<tag k="ssr:stedsnr" v="436850" />
	</node>
	<node id="-8734" lat="62.6104111096" lon="6.33872221602">
		<tag k="name" v="Ivergarden" />
		<tag k="place" v="farm" />
		<tag k="ssr:stedsnr" v="214593" />
	</node>
	<node id="-9394" lat="62.5001305526" lon="6.73188888855">
		<tag k="name" v="Hanslia" />
		<tag k="place" v="farm" />
		<tag k="ssr:stedsnr" v="436839" />
	</node>
	<node id="-7344" lat="62.4683833306" lon="6.92298888559">
		<tag k="historic" v="shieling" />
		<tag k="name" v="Vestresætra" />
		<tag k="place" v="locality" />
		<tag k="ssr:stedsnr" v="860407" />
	</node>
	<node id="-7343" lat="62.4844480149" lon="6.47826001658">
		<tag k="name" v="Reiakvam" />
		<tag k="place" v="hamlet" />
		<tag k="ssr:stedsnr" v="860259" />
	</node>
	<node id="-7342" lat="62.4822491367" lon="6.4704221073">
		<tag k="alt_name" v="Rumpen" />
		<tag k="fixme" v="consider place=hamlet" />
		<tag k="name" v="Rumpa" />
		<tag k="place" v="farm" />
		<tag k="ssr:stedsnr" v="860258" />
	</node>
	<node id="-9389" lat="62.7318222246" lon="6.46472777936">
		<tag k="name" v="Rimma" />
		<tag k="place" v="farm" />
		<tag k="ssr:stedsnr" v="436830" />
	</node>
	<node id="-7340" lat="62.5666805549" lon="6.46321665987">
		<tag k="name" v="Bjørlykkskard" />
		<tag k="place" v="farm" />
		<tag k="ssr:stedsnr" v="944448" />
	</node>
	<node id="-7335" lat="62.5960472226" lon="6.30105555063">
		<tag k="name" v="Nilsgarden" />
		<tag k="place" v="farm" />
		<tag k="ssr:stedsnr" v="944279" />
	</node>
	<node id="-7334" lat="62.5423067105" lon="6.51383913417">
		<tag k="name" v="Slyngstad" />
		<tag k="place" v="hamlet" />
		<tag k="ssr:stedsnr" v="944184" />
	</node>
	<node id="-7333" lat="62.5418888895" lon="6.5096305548">
		<tag k="name" v="Ivargarden" />
		<tag k="place" v="farm" />
		<tag k="ssr:stedsnr" v="944182" />
	</node>
	<node id="-9380" lat="62.452272967" lon="6.91245959305">
		<tag k="fixme" v="consider place=hamlet" />
		<tag k="name" v="Hjellereiten" />
		<tag k="place" v="farm" />
		<tag k="ssr:stedsnr" v="436338" />
	</node>
	<node id="-7330" lat="62.6203333311" lon="6.65178055125">
		<tag k="name" v="Oppigard" />
		<tag k="place" v="farm" />
		<tag k="ssr:stedsnr" v="944037" />
	</node>
	<node id="-7707" lat="62.4670466086" lon="6.32589083371">
		<tag k="fixme" v="consider place=hamlet" />
		<tag k="name" v="Åse" />
		<tag k="place" v="farm" />
		<tag k="ssr:stedsnr" v="982267" />
	</node>
	<node id="-9371" lat="62.4902689288" lon="6.82611275452">
		<tag k="fixme" v="consider place=hamlet" />
		<tag k="name" v="Egge" />
		<tag k="place" v="farm" />
		<tag k="ssr:stedsnr" v="436271" />
	</node>
	<node id="-7321" lat="62.6728222193" lon="6.26751388038">
		<tag k="name" v="Kristengarden" />
		<tag k="place" v="farm" />
		<tag k="ssr:stedsnr" v="943389" />
	</node>
	<node id="-7320" lat="62.6702166626" lon="6.27069721802">
		<tag k="name" v="Gjerdet" />
		<tag k="place" v="farm" />
		<tag k="ssr:stedsnr" v="943378" />
	</node>
	<node id="-9367" lat="62.4556194424" lon="6.51381111937">
		<tag k="historic" v="shieling" />
		<tag k="name" v="Østremssætra" />
		<tag k="place" v="locality" />
		<tag k="ssr:stedsnr" v="436044" />
	</node>
	<node id="-5657" lat="62.465749996" lon="6.32641665764">
		<tag k="fixme" v="consider place=suburb, village or hamlet" />
		<tag k="name" v="Åse" />
		<tag k="place" v="quarter" />
		<tag k="ssr:stedsnr" v="314016" />
	</node>
	<node id="-5267" lat="62.6174083326" lon="6.65581111282">
		<tag k="barrier" v="fence" />
		<tag k="name" v="Nesgarden" />
		<tag k="ssr:stedsnr" v="216031" />
	</node>
	<node id="-5263" lat="62.5976499955" lon="6.30754999541">
		<tag k="name" v="Steinane" />
		<tag k="place" v="farm" />
		<tag k="ssr:stedsnr" v="215417" />
	</node>
	<node id="-7310" lat="62.63434722" lon="6.16666389621">
		<tag k="name" v="Hellevik" />
		<tag k="place" v="hamlet" />
		<tag k="ssr:stedsnr" v="942901" />
	</node>
	<node id="-7309" lat="62.5881277778" lon="6.29310833395">
		<tag k="historic" v="shieling" />
		<tag k="name" v="Våskogstølen" />
		<tag k="place" v="locality" />
		<tag k="ssr:stedsnr" v="942897" />
	</node>
	<node id="-5259" lat="62.6820333331" lon="6.1918388809">
		<tag k="name" v="Ullanausta" />
		<tag k="place" v="locality" />
		<tag k="ssr:stedsnr" v="214317" />
	</node>
	<node id="-9353" lat="62.4674641216" lon="6.82703776428">
		<tag k="fixme" v="consider place=hamlet" />
		<tag k="name" v="Nedrevoll" />
		<tag k="place" v="farm" />
		<tag k="ssr:stedsnr" v="435374" />
	</node>
	<node id="-7304" lat="62.6330888855" lon="6.25275000016">
		<tag k="name" v="Hansgarden" />
		<tag k="place" v="farm" />
		<tag k="ssr:stedsnr" v="942590" />
	</node>
	<node id="-9350" lat="62.4982017687" lon="6.38243111185">
		<tag k="fixme" v="consider place=hamlet" />
		<tag k="name" v="Årset" />
		<tag k="place" v="farm" />
		<tag k="ssr:stedsnr" v="435269" />
	</node>
	<node id="-9349" lat="62.4983947104" lon="6.35023972009">
		<tag k="fixme" v="consider place=hamlet" />
		<tag k="name" v="Bjørge" />
		<tag k="place" v="farm" />
		<tag k="ssr:stedsnr" v="435228" />
	</node>
	<node id="-7300" lat="62.6574333337" lon="6.18204444437">
		<tag k="name" v="Petter-Framgarden" />
		<tag k="place" v="farm" />
		<tag k="ssr:stedsnr" v="942432" />
	</node>
	<node id="-5654" lat="62.462823446" lon="6.35465379763">
		<tag k="alt_name" v="Nedregården" />
		<tag k="fixme" v="consider place=hamlet" />
		<tag k="name" v="Nergarden" />
		<tag k="place" v="farm" />
		<tag k="ssr:stedsnr" v="314004" />
	</node>
	<node id="-5244" lat="62.4636083335" lon="6.35918056227">
		<tag k="name" v="Nybø" />
		<tag k="place" v="isolated_dwelling" />
		<tag k="ssr:stedsnr" v="294982" />
	</node>
	<node id="-5242" lat="62.5508777738" lon="6.27893054643">
		<tag k="name" v="Søvikhagen" />
		<tag k="place" v="isolated_dwelling" />
		<tag k="ssr:stedsnr" v="294836" />
	</node>
	<node id="-5240" lat="62.5082722254" lon="6.2365944349">
		<tag k="name" v="Bunes" />
		<tag k="place" v="farm" />
		<tag k="ssr:stedsnr" v="294678" />
	</node>
	<node id="-7280" lat="62.8008694484" lon="6.50715278037">
		<tag k="name" v="Sletta" />
		<tag k="place" v="farm" />
		<tag k="ssr:stedsnr" v="941079" />
	</node>
	<node id="-9319" lat="62.5582250019" lon="6.66273056305">
		<tag k="name" v="Ljosheim" />
		<tag k="place" v="isolated_dwelling" />
		<tag k="ssr:stedsnr" v="414993" />
	</node>
	<node id="-5220" lat="62.5042009937" lon="6.81154802773">
		<tag k="fixme" v="consider place=hamlet" />
		<tag k="name" v="Barlindhaugen" />
		<tag k="place" v="farm" />
		<tag k="ssr:stedsnr" v="194843" />
	</node>
	<node id="-9062" lat="62.5150138872" lon="6.29986666149">
		<tag k="alt_name" v="Myra" />
		<tag k="name" v="Lorgja" />
		<tag k="place" v="farm" />
		<tag k="ssr:stedsnr" v="375147" />
	</node>
	<node id="-5216" lat="62.763408981" lon="6.41785971868">
		<tag k="fixme" v="consider place=hamlet" />
		<tag k="name" v="Morsund" />
		<tag k="place" v="farm" />
		<tag k="ssr:stedsnr" v="194411" />
	</node>
	<node id="-9307" lat="62.4713055541" lon="6.38633889678">
		<tag k="name" v="Hatlebøen" />
		<tag k="place" v="farm" />
		<tag k="ssr:stedsnr" v="402610" />
	</node>
	<node id="-9039" lat="62.4769789681" lon="6.76327941087">
		<tag k="fixme" v="consider place=hamlet" />
		<tag k="name" v="Apalset" />
		<tag k="place" v="farm" />
		<tag k="ssr:stedsnr" v="362660" />
	</node>
	<node id="-7254" lat="62.5454055518" lon="6.57447221825">
		<tag k="name" v="Eidsvik" />
		<tag k="place" v="hamlet" />
		<tag k="ssr:stedsnr" v="216932" />
	</node>
	<node id="-5205" lat="62.5762250032" lon="6.27024444499">
		<tag k="name" v="Landstadgarden" />
		<tag k="place" v="farm" />
		<tag k="ssr:stedsnr" v="194313" />
	</node>
	<node id="-9297" lat="62.4931750029" lon="6.25838611804">
		<tag k="name" v="Finnvika" />
		<tag k="place" v="farm" />
		<tag k="ssr:stedsnr" v="401955" />
	</node>
	<node id="-5199" lat="62.7284249977" lon="6.45270832429">
		<tag k="name" v="Kalsvika" />
		<tag k="place" v="farm" />
		<tag k="ssr:stedsnr" v="193849" />
	</node>
	<node id="-9294" lat="62.4742666677" lon="6.16412777742">
		<tag k="fixme" v="consider tourism=alpine_hut or tourism=chalet" />
		<tag k="name" v="Fjellstua" />
		<tag k="ssr:stedsnr" v="400629" />
		<tag k="tourism" v="wilderness_hut" />
	</node>
	<node id="-5197" lat="62.5326451452" lon="6.87372612439">
		<tag k="historic" v="shieling" />
		<tag k="name" v="Svartløken" />
		<tag k="place" v="locality" />
		<tag k="ssr:stedsnr" v="193838" />
	</node>
	<node id="-7244" lat="62.4713111076" lon="6.19025832896">
		<tag k="amenity" v="school" />
		<tag k="name" v="Volsdalen skole" />
		<tag k="old_name" v="Volsdalens skole" />
		<tag k="ssr:stedsnr" v="827635" />
	</node>
	<node id="-9290" lat="62.4681250043" lon="6.82763610199">
		<tag k="name" v="Smebakken" />
		<tag k="place" v="farm" />
		<tag k="ssr:stedsnr" v="399723" />
	</node>
	<node id="-9289" lat="62.4790777814" lon="6.76783888798">
		<tag k="name" v="Nybø" />
		<tag k="place" v="farm" />
		<tag k="ssr:stedsnr" v="399722" />
	</node>
	<node id="-9288" lat="62.4852166645" lon="6.84868056125">
		<tag k="name" v="Ottaplassen" />
		<tag k="place" v="farm" />
		<tag k="ssr:stedsnr" v="399711" />
	</node>
	<node id="-9287" lat="62.5040638852" lon="6.81986666535">
		<tag k="name" v="Brautehaugen" />
		<tag k="place" v="farm" />
		<tag k="ssr:stedsnr" v="399707" />
	</node>
	<node id="-7238" lat="62.5087638878" lon="6.42718888241">
		<tag k="name" v="Brendehaug" />
		<tag k="place" v="farm" />
		<tag k="ssr:stedsnr" v="827604" />
	</node>
	<node id="-4961" lat="62.6839055542" lon="6.23407222474">
		<tag k="name" v="Haugen" />
		<tag k="place" v="farm" />
		<tag k="ssr:stedsnr" v="133904" />
	</node>
	<node id="-9283" lat="62.4480166669" lon="6.91004723174">
		<tag k="name" v="Øggarden" />
		<tag k="place" v="farm" />
		<tag k="ssr:stedsnr" v="399665" />
	</node>
	<node id="-7232" lat="62.4857166692" lon="6.81245834092">
		<tag k="name" v="Høgbakken" />
		<tag k="place" v="farm" />
		<tag k="ssr:stedsnr" v="824724" />
	</node>
	<node id="-7231" lat="62.4838419732" lon="6.85111009793">
		<tag k="alt_name" v="Lande" />
		<tag k="fixme" v="consider place=hamlet" />
		<tag k="name" v="Øvre Lande" />
		<tag k="place" v="farm" />
		<tag k="ssr:stedsnr" v="824723" />
	</node>
	<node id="-7230" lat="62.4846222251" lon="6.84011111539">
		<tag k="name" v="Hansbakken" />
		<tag k="place" v="farm" />
		<tag k="ssr:stedsnr" v="824719" />
	</node>
	<node id="-5181" lat="62.5923027765" lon="6.29663055759">
		<tag k="name" v="Hurlamyrane" />
		<tag k="place" v="farm" />
		<tag k="ssr:stedsnr" v="193424" />
	</node>
	<node id="-5174" lat="62.492463486" lon="6.29025786814">
		<tag k="alt_name" v="Myklebost" />
		<tag k="fixme" v="consider place=hamlet" />
		<tag k="name" v="Myklebust" />
		<tag k="place" v="farm" />
		<tag k="ssr:stedsnr" v="192216" />
	</node>
	<node id="-5173" lat="62.4826277797" lon="6.81376388036">
		<tag k="name" v="Sjøholt" />
		<tag k="place" v="village" />
		<tag k="ssr:stedsnr" v="192341" />
	</node>
	<node id="-5172" lat="62.4804030272" lon="6.77228676089">
		<tag k="fixme" v="consider place=hamlet" />
		<tag k="name" v="Storvik" />
		<tag k="place" v="farm" />
		<tag k="ssr:stedsnr" v="192339" />
	</node>
	<node id="-9267" lat="62.4854333304" lon="6.814875008">
		<tag k="name" v="Skjerva" />
		<tag k="place" v="farm" />
		<tag k="ssr:stedsnr" v="399541" />
	</node>
	<node id="-5170" lat="62.436425003" lon="6.46631388983">
		<tag k="name" v="Østrem" />
		<tag k="place" v="farm" />
		<tag k="ssr:stedsnr" v="181274" />
	</node>
	<node id="-5169" lat="62.4383583363" lon="6.47134444584">
		<tag k="name" v="Østrem" />
		<tag k="place" v="farm" />
		<tag k="ssr:stedsnr" v="181270" />
	</node>
	<node id="-9264" lat="62.5049138922" lon="6.66934722364">
		<tag k="name" v="Litlegjerdet" />
		<tag k="place" v="farm" />
		<tag k="ssr:stedsnr" v="399496" />
	</node>
	<node id="-5167" lat="62.4681833359" lon="6.62088610182">
		<tag k="name" v="Øvre Glomset" />
		<tag k="place" v="quarter" />
		<tag k="ssr:stedsnr" v="180912" />
	</node>
	<node id="-9053" lat="62.4519777823" lon="6.51405556239">
		<tag k="historic" v="shieling" />
		<tag k="name" v="Akslasætra" />
		<tag k="place" v="locality" />
		<tag k="ssr:stedsnr" v="375037" />
	</node>
	<node id="-7212" lat="62.5070916708" lon="6.6289888836">
		<tag k="name" v="Demmegjerdet" />
		<tag k="place" v="farm" />
		<tag k="ssr:stedsnr" v="824105" />
	</node>
	<node id="-5158" lat="62.4746805597" lon="6.15529721775">
		<tag k="name" v="Margit Johnsens plass" />
		<tag k="place" v="square" />
		<tag k="ssr:stedsnr" v="283074" />
	</node>
	<node id="-7200" lat="62.531477775" lon="6.30586388432">
		<tag k="fixme" v="consider place=hamlet" />
		<tag k="name" v="Uggedal" />
		<tag k="place" v="village" />
		<tag k="ssr:stedsnr" v="823558" />
	</node>
	<node id="-9392" lat="62.7364222205" lon="6.44062499113">
		<tag k="name" v="Hagen" />
		<tag k="place" v="farm" />
		<tag k="ssr:stedsnr" v="436836" />
	</node>
	<node id="-7198" lat="62.6276694469" lon="6.60180555351">
		<tag k="name" v="Heimigard" />
		<tag k="place" v="farm" />
		<tag k="ssr:stedsnr" v="823373" />
	</node>
	<node id="-9049" lat="62.4817694452" lon="6.37248334266">
		<tag k="name" v="Kolla" />
		<tag k="place" v="farm" />
		<tag k="ssr:stedsnr" v="374243" />
	</node>
	<node id="-5140" lat="62.4563555581" lon="6.41518055875">
		<tag k="name" v="Gamlesætra" />
		<tag k="place" v="isolated_dwelling" />
		<tag k="ssr:stedsnr" v="280630" />
	</node>
	<node id="-9390" lat="62.7334750039" lon="6.44688889776">
		<tag k="name" v="Haugen" />
		<tag k="place" v="farm" />
		<tag k="ssr:stedsnr" v="436832" />
	</node>
	<node id="-7186" lat="62.6201277771" lon="6.2119250029">
		<tag k="name" v="Ellinggarden" />
		<tag k="place" v="farm" />
		<tag k="ssr:stedsnr" v="821666" />
	</node>
	<node id="-9107" lat="62.6534750002" lon="6.21813055296">
		<tag k="name" v="Holda" />
		<tag k="place" v="farm" />
		<tag k="ssr:stedsnr" v="375948" />
	</node>
	<node id="-5135" lat="62.4386972225" lon="6.3497472262">
		<tag k="name" v="Vegsundrabben" />
		<tag k="place" v="farm" />
		<tag k="ssr:stedsnr" v="280565" />
	</node>
	<node id="-9230" lat="62.5143805578" lon="6.632427786">
		<tag k="historic" v="shieling" />
		<tag k="name" v="Gamlesætra" />
		<tag k="place" v="locality" />
		<tag k="ssr:stedsnr" v="399081" />
	</node>
	<node id="-5133" lat="62.4791888896" lon="6.18804166914">
		<tag k="name" v="Siem" />
		<tag k="place" v="isolated_dwelling" />
		<tag k="ssr:stedsnr" v="165222" />
	</node>
	<node id="-5132" lat="62.5038333369" lon="6.51601111328">
		<tag k="alt_name" v="Tyssebruvågen" />
		<tag k="name" v="Tøssebruvågen" />
		<tag k="place" v="quarter" />
		<tag k="ssr:stedsnr" v="162070" />
	</node>
	<node id="-7179" lat="62.6911888894" lon="6.23716666637">
		<tag k="name" v="Gudlauggarden" />
		<tag k="place" v="farm" />
		<tag k="ssr:stedsnr" v="821308" />
	</node>
	<node id="-7177" lat="62.6551861154" lon="6.20128612045">
		<tag k="name" v="Nystovgarden" />
		<tag k="place" v="farm" />
		<tag k="ssr:stedsnr" v="821471" />
	</node>
	<node id="-5127" lat="62.5145980235" lon="6.45453601805">
		<tag k="fixme" v="consider place=hamlet" />
		<tag k="name" v="Taftesund" />
		<tag k="place" v="farm" />
		<tag k="ssr:stedsnr" v="159624" />
	</node>
	<node id="-9219" lat="62.5354" lon="6.41498055803">
		<tag k="name" v="Midttun" />
		<tag k="place" v="farm" />
		<tag k="ssr:stedsnr" v="398757" />
	</node>
	<node id="-5121" lat="62.4582688814" lon="6.87709271071">
		<tag k="fixme" v="consider place=hamlet" />
		<tag k="name" v="Vestre" />
		<tag k="place" v="farm" />
		<tag k="ssr:stedsnr" v="278755" />
	</node>
	<node id="-5120" lat="62.4993638913" lon="6.80505833758">
		<tag k="name" v="Holen" />
		<tag k="place" v="farm" />
		<tag k="ssr:stedsnr" v="278751" />
	</node>
	<node id="-5119" lat="62.4855222246" lon="6.821927778">
		<tag k="name" v="Einagarden" />
		<tag k="place" v="farm" />
		<tag k="ssr:stedsnr" v="278749" />
	</node>
	<node id="-9214" lat="62.609019443" lon="6.33076389353">
		<tag k="name" v="Larsgarden" />
		<tag k="place" v="farm" />
		<tag k="ssr:stedsnr" v="398614" />
	</node>
	<node id="-9213" lat="62.6041194403" lon="6.3611333348">
		<tag k="name" v="Midtgarden" />
		<tag k="place" v="farm" />
		<tag k="ssr:stedsnr" v="398612" />
	</node>
	<node id="-9211" lat="62.589299996" lon="6.34815555141">
		<tag k="historic" v="shieling" />
		<tag k="name" v="Iversætra" />
		<tag k="place" v="locality" />
		<tag k="ssr:stedsnr" v="398597" />
	</node>
	<node id="-5114" lat="62.4782805547" lon="6.7520194477">
		<tag k="name" v="Hollen" />
		<tag k="place" v="farm" />
		<tag k="ssr:stedsnr" v="278691" />
	</node>
	<node id="-7156" lat="62.4349638876" lon="6.37610834077">
		<tag k="fixme" v="consider place=suburb, village or hamlet" />
		<tag k="name" v="Myrland" />
		<tag k="place" v="quarter" />
		<tag k="ssr:stedsnr" v="809346" />
	</node>
	<node id="-7154" lat="62.5087277733" lon="6.84419165743">
		<tag k="historic" v="shieling" />
		<tag k="name" v="Sjøholtsætra" />
		<tag k="place" v="locality" />
		<tag k="ssr:stedsnr" v="801834" />
	</node>
	<node id="-9201" lat="62.580327774" lon="6.62498611735">
		<tag k="name" v="Riset" />
		<tag k="place" v="farm" />
		<tag k="ssr:stedsnr" v="398000" />
	</node>
	<node id="-5104" lat="62.4985500036" lon="6.87923054967">
		<tag k="name" v="Gamlesætra" />
		<tag k="place" v="locality" />
		<tag k="ssr:stedsnr" v="278593" />
	</node>
	<node id="-9196" lat="62.5448805591" lon="6.58283889014">
		<tag k="name" v="Nygard" />
		<tag k="place" v="farm" />
		<tag k="ssr:stedsnr" v="397959" />
	</node>
	<node id="-7145" lat="62.5543963893" lon="6.60498991643">
		<tag k="fixme" v="consider place=hamlet" />
		<tag k="name" v="Osgota" />
		<tag k="place" v="farm" />
		<tag k="ssr:stedsnr" v="801210" />
	</node>
	<node id="-9191" lat="62.5875694411" lon="6.57653055095">
		<tag k="name" v="Båsen" />
		<tag k="place" v="farm" />
		<tag k="ssr:stedsnr" v="397917" />
	</node>
	<node id="-5094" lat="62.5075555515" lon="6.67864444641">
		<tag k="name" v="Indre Berget" />
		<tag k="place" v="quarter" />
		<tag k="ssr:stedsnr" v="278509" />
	</node>
	<node id="-7141" lat="62.732838888" lon="6.46487499312">
		<tag k="name" v="Stranda" />
		<tag k="place" v="farm" />
		<tag k="ssr:stedsnr" v="800819" />
	</node>
	<node id="-8358" lat="62.5090824003" lon="6.83610467658">
		<tag k="historic" v="shieling" />
		<tag k="name" v="Strandasætra" />
		<tag k="place" v="locality" />
		<tag k="ssr:stedsnr" v="133845" />
	</node>
	<node id="-7138" lat="62.5955261003" lon="6.29746370198">
		<tag k="fixme" v="consider place=hamlet" />
		<tag k="name" v="Hurla" />
		<tag k="place" v="farm" />
		<tag k="ssr:stedsnr" v="800384" />
	</node>
	<node id="-7137" lat="62.6012999987" lon="6.67828333403">
		<tag k="name" v="Bakken" />
		<tag k="place" v="farm" />
		<tag k="ssr:stedsnr" v="800375" />
	</node>
	<node id="-5086" lat="62.5028527795" lon="6.47491666474">
		<tag k="name" v="Myra" />
		<tag k="place" v="farm" />
		<tag k="ssr:stedsnr" v="278419" />
	</node>
	<node id="-9181" lat="62.5358388894" lon="6.61648333588">
		<tag k="name" v="Nerland" />
		<tag k="place" v="farm" />
		<tag k="ssr:stedsnr" v="397671" />
	</node>
	<node id="-7131" lat="62.6092690815" lon="6.43493909034">
		<tag k="fixme" v="consider place=hamlet" />
		<tag k="name" v="Synnaland" />
		<tag k="place" v="farm" />
		<tag k="ssr:stedsnr" v="800428" />
	</node>
	<node id="-7130" lat="62.6053777814" lon="6.67169443973">
		<tag k="name" v="Bukta" />
		<tag k="place" v="farm" />
		<tag k="ssr:stedsnr" v="800418" />
	</node>
	<node id="-7129" lat="62.6055138888" lon="6.67358888649">
		<tag k="name" v="Sjøgarden" />
		<tag k="place" v="farm" />
		<tag k="ssr:stedsnr" v="800416" />
	</node>
	<node id="-7124" lat="62.4698555557" lon="6.55657222426">
		<tag k="historic" v="shieling" />
		<tag k="name" v="Øvrestølen" />
		<tag k="place" v="locality" />
		<tag k="ssr:stedsnr" v="800036" />
	</node>
	<node id="-7123" lat="62.476068443" lon="6.71757091805">
		<tag k="loc_name" v="Tyssagardane" />
		<tag k="name" v="Tyssegardane" />
		<tag k="place" v="hamlet" />
		<tag k="ssr:stedsnr" v="800030" />
	</node>
	<node id="-7122" lat="62.4725541534" lon="6.3888672177">
		<tag k="fixme" v="consider place=hamlet" />
		<tag k="name" v="Hatlen" />
		<tag k="place" v="farm" />
		<tag k="ssr:stedsnr" v="800022" />
	</node>
	<node id="-7121" lat="62.4588444463" lon="6.47321943711">
		<tag k="historic" v="shieling" />
		<tag k="name" v="Gamle Emblemssætra" />
		<tag k="place" v="locality" />
		<tag k="ssr:stedsnr" v="800006" />
	</node>
	<node id="-7115" lat="62.4819049017" lon="6.64316945146">
		<tag k="alt_name" v="Flåte" />
		<tag k="fixme" v="consider place=hamlet" />
		<tag k="name" v="Flote" />
		<tag k="place" v="farm" />
		<tag k="ssr:stedsnr" v="799017" />
	</node>
	<node id="-5066" lat="62.5131888916" lon="6.65456943487">
		<tag k="historic" v="shieling" />
		<tag k="name" v="Grindviksætra" />
		<tag k="place" v="locality" />
		<tag k="ssr:stedsnr" v="278090" />
	</node>
	<node id="-5065" lat="62.5043999965" lon="6.45955554699">
		<tag k="fixme" v="consider place=hamlet" />
		<tag k="name" v="Dyrøy" />
		<tag k="place" v="farm" />
		<tag k="ssr:stedsnr" v="278072" />
	</node>
	<node id="-7329" lat="62.5435249968" lon="6.53524722593">
		<tag k="name" v="Nilsplassen" />
		<tag k="place" v="farm" />
		<tag k="ssr:stedsnr" v="944016" />
	</node>
	<node id="-7108" lat="62.5003371128" lon="6.8142151061">
		<tag k="fixme" v="consider place=hamlet" />
		<tag k="name" v="Brautene" />
		<tag k="place" v="farm" />
		<tag k="ssr:stedsnr" v="922838" />
	</node>
	<node id="-9155" lat="62.63345556" lon="6.171475001">
		<tag k="name" v="Erikgarden" />
		<tag k="place" v="farm" />
		<tag k="ssr:stedsnr" v="396900" />
	</node>
	<node id="-7106" lat="62.5325749955" lon="6.8088166587">
		<tag k="alt_name" v="hauststølen" />
		<tag k="historic" v="shieling" />
		<tag k="name" v="Barlindhaugsætra" />
		<tag k="place" v="locality" />
		<tag k="ssr:stedsnr" v="922819" />
	</node>
	<node id="-7105" lat="62.5306888871" lon="6.812630549">
		<tag k="historic" v="shieling" />
		<tag k="name" v="Brautesætra" />
		<tag k="place" v="locality" />
		<tag k="ssr:stedsnr" v="922817" />
	</node>
	<node id="-5055" lat="62.6090722253" lon="6.34456110258">
		<tag k="name" v="Synnaførgarden" />
		<tag k="place" v="farm" />
		<tag k="ssr:stedsnr" v="277637" />
	</node>
	<node id="-5054" lat="62.6025666635" lon="6.34916111451">
		<tag k="name" v="Fjellstad" />
		<tag k="place" v="farm" />
		<tag k="ssr:stedsnr" v="277635" />
	</node>
	<node id="-5053" lat="62.604658334" lon="6.3351055482">
		<tag k="name" v="Knut-Andersgarden" />
		<tag k="place" v="farm" />
		<tag k="ssr:stedsnr" v="277634" />
	</node>
	<node id="-9146" lat="62.6548883251" lon="6.20646638646">
		<tag k="alt_name" v="Framgarden" />
		<tag k="name" v="Knut-Framgarden" />
		<tag k="place" v="farm" />
		<tag k="ssr:stedsnr" v="396468" />
	</node>
	<node id="-8351" lat="62.6629782476" lon="6.16981441921">
		<tag k="name" v="Legarden" />
		<tag k="place" v="locality" />
		<tag k="ssr:stedsnr" v="133672" />
	</node>
	<node id="-7094" lat="62.6227972207" lon="6.56813889619">
		<tag k="name" v="Baraldsneset" />
		<tag k="place" v="farm" />
		<tag k="ssr:stedsnr" v="922435" />
	</node>
	<node id="-9141" lat="62.6688999963" lon="6.27441389433">
		<tag k="name" v="Knutgarden" />
		<tag k="place" v="farm" />
		<tag k="ssr:stedsnr" v="396335" />
	</node>
	<node id="-7092" lat="62.6127833311" lon="6.46378056481">
		<tag k="name" v="Mannaberghaugan" />
		<tag k="place" v="farm" />
		<tag k="ssr:stedsnr" v="922424" />
	</node>
	<node id="-5043" lat="62.5435083327" lon="6.53299167159">
		<tag k="name" v="Fredrikgjerdet" />
		<tag k="place" v="farm" />
		<tag k="ssr:stedsnr" v="155013" />
	</node>
	<node id="-5042" lat="62.5444546793" lon="6.53990469213">
		<tag k="fixme" v="consider place=hamlet" />
		<tag k="name" v="Slyngstadli" />
		<tag k="place" v="farm" />
		<tag k="ssr:stedsnr" v="155010" />
	</node>
	<node id="-7089" lat="62.7795249979" lon="6.47450833182">
		<tag k="name" v="Skjærvollen" />
		<tag k="place" v="farm" />
		<tag k="ssr:stedsnr" v="922408" />
	</node>
	<node id="-9136" lat="62.6872666676" lon="6.23726110991">
		<tag k="name" v="Torinagarden" />
		<tag k="place" v="farm" />
		<tag k="ssr:stedsnr" v="396286" />
	</node>
	<node id="-9135" lat="62.6631027773" lon="6.28016666374">
		<tag k="name" v="Pegarden" />
		<tag k="place" v="farm" />
		<tag k="ssr:stedsnr" v="396284" />
	</node>
	<node id="-9134" lat="62.6591249959" lon="6.29377221995">
		<tag k="name" v="Nedstestølen" />
		<tag k="place" v="farm" />
		<tag k="ssr:stedsnr" v="396274" />
	</node>
	<node id="-9133" lat="62.6606500023" lon="6.29337500007">
		<tag k="name" v="Øvstestølen" />
		<tag k="place" v="farm" />
		<tag k="ssr:stedsnr" v="396273" />
	</node>
	<node id="-7084" lat="62.5977499997" lon="6.46831667007">
		<tag k="name" v="Lunden" />
		<tag k="place" v="farm" />
		<tag k="ssr:stedsnr" v="922378" />
	</node>
	<node id="-7083" lat="62.8146194435" lon="6.59068610236">
		<tag k="name" v="Grønholen" />
		<tag k="place" v="farm" />
		<tag k="ssr:stedsnr" v="922376" />
	</node>
	<node id="-5034" lat="62.6061333321" lon="6.39848333909">
		<tag k="name" v="Engevika" />
		<tag k="place" v="farm" />
		<tag k="ssr:stedsnr" v="277232" />
	</node>
	<node id="-5033" lat="62.54173611" lon="6.52565832772">
		<tag k="name" v="Elvabakken" />
		<tag k="place" v="farm" />
		<tag k="ssr:stedsnr" v="277041" />
	</node>
	<node id="-7079" lat="62.5993438781" lon="6.67351556954">
		<tag k="fixme" v="consider place=hamlet" />
		<tag k="name" v="Vestre" />
		<tag k="place" v="village" />
		<tag k="ssr:stedsnr" v="922364" />
	</node>
	<node id="-7077" lat="62.597433331" lon="6.64787777545">
		<tag k="name" v="Nybøsætra" />
		<tag k="place" v="locality" />
		<tag k="ssr:stedsnr" v="922359" />
	</node>
	<node id="-7074" lat="62.594452779" lon="6.56913056143">
		<tag k="name" v="Borga" />
		<tag k="place" v="farm" />
		<tag k="ssr:stedsnr" v="922355" />
	</node>
	<node id="-7073" lat="62.6008416696" lon="6.46854166874">
		<tag k="name" v="Risvika" />
		<tag k="place" v="farm" />
		<tag k="ssr:stedsnr" v="922346" />
	</node>
	<node id="-7071" lat="62.58922778" lon="6.34865278458">
		<tag k="name" v="Ivarsætra" />
		<tag k="place" v="locality" />
		<tag k="ssr:stedsnr" v="922339" />
	</node>
	<node id="-5020" lat="62.5643999997" lon="6.55469722698">
		<tag k="historic" v="shieling" />
		<tag k="name" v="Vågssætra" />
		<tag k="place" v="locality" />
		<tag k="ssr:stedsnr" v="276619" />
	</node>
	<node id="-9110" lat="62.6264605558" lon="6.66764142646">
		<tag k="fixme" v="consider place=hamlet" />
		<tag k="name" v="Eik" />
		<tag k="place" v="farm" />
		<tag k="ssr:stedsnr" v="376471" />
	</node>
	<node id="-9109" lat="62.6179507963" lon="6.53548602446">
		<tag k="fixme" v="consider place=hamlet" />
		<tag k="name" v="Skor" />
		<tag k="place" v="farm" />
		<tag k="ssr:stedsnr" v="376458" />
	</node>
	<node id="-7060" lat="62.5629672289" lon="6.62293410538">
		<tag k="fixme" v="consider place=hamlet" />
		<tag k="name" v="Bakken" />
		<tag k="place" v="farm" />
		<tag k="ssr:stedsnr" v="922246" />
	</node>
	<node id="-7059" lat="62.557253563" lon="6.60697631368">
		<tag k="fixme" v="consider place=hamlet" />
		<tag k="name" v="Os" />
		<tag k="place" v="farm" />
		<tag k="ssr:stedsnr" v="922202" />
	</node>
	<node id="-9105" lat="62.6585888918" lon="6.33723610269">
		<tag k="name" v="Austerheim" />
		<tag k="place" v="farm" />
		<tag k="ssr:stedsnr" v="375927" />
	</node>
	<node id="-5008" lat="62.6650861128" lon="6.27992777239">
		<tag k="name" v="Gunnargarden" />
		<tag k="place" v="farm" />
		<tag k="ssr:stedsnr" v="153310" />
	</node>
	<node id="-7055" lat="62.5357447186" lon="6.46420225524">
		<tag k="fixme" v="consider place=hamlet" />
		<tag k="name" v="Kråkset" />
		<tag k="place" v="farm" />
		<tag k="ssr:stedsnr" v="922191" />
	</node>
	<node id="-7053" lat="62.5363388924" lon="6.57616665836">
		<tag k="name" v="Sætergarden" />
		<tag k="place" v="farm" />
		<tag k="ssr:stedsnr" v="922188" />
	</node>
	<node id="-7052" lat="62.5054053903" lon="6.51766016729">
		<tag k="fixme" v="consider place=hamlet" />
		<tag k="name" v="Tøssebru" />
		<tag k="place" v="farm" />
		<tag k="ssr:stedsnr" v="922144" />
	</node>
	<node id="-9099" lat="62.7306055532" lon="6.44964443639">
		<tag k="name" v="Gråteigen" />
		<tag k="place" v="farm" />
		<tag k="ssr:stedsnr" v="375825" />
	</node>
	<node id="-7050" lat="62.5016757282" lon="6.23057053127">
		<tag k="fixme" v="consider place=hamlet" />
		<tag k="name" v="Hovseidet" />
		<tag k="place" v="farm" />
		<tag k="ssr:stedsnr" v="922134" />
	</node>
	<node id="-7049" lat="62.7531472181" lon="6.45157500251">
		<tag k="name" v="Løken" />
		<tag k="place" v="farm" />
		<tag k="ssr:stedsnr" v="922059" />
	</node>
	<node id="-5000" lat="62.6701222252" lon="6.33868610878">
		<tag k="name" v="Jogarden" />
		<tag k="place" v="farm" />
		<tag k="ssr:stedsnr" v="275888" />
	</node>
	<node id="-4999" lat="62.5702500036" lon="6.27441111293">
		<tag k="name" v="Gjerdet" />
		<tag k="place" v="farm" />
		<tag k="ssr:stedsnr" v="275878" />
	</node>
	<node id="-4998" lat="62.6176194425" lon="6.21684166915">
		<tag k="name" v="Kristoffergarden" />
		<tag k="place" v="farm" />
		<tag k="ssr:stedsnr" v="275688" />
	</node>
	<node id="-9093" lat="62.6635555588" lon="6.2833555615">
		<tag k="name" v="Solbakken" />
		<tag k="place" v="farm" />
		<tag k="ssr:stedsnr" v="375972" />
	</node>
	<node id="-9092" lat="62.6802416644" lon="6.25516945087">
		<tag k="name" v="Indreflem" />
		<tag k="place" v="farm" />
		<tag k="ssr:stedsnr" v="375873" />
	</node>
	<node id="-4995" lat="62.6212388927" lon="6.21313889438">
		<tag k="name" v="Stølen" />
		<tag k="place" v="farm" />
		<tag k="ssr:stedsnr" v="275637" />
	</node>
	<node id="-4994" lat="62.6550388875" lon="6.1963111195">
		<tag k="name" v="Åmundgarden" />
		<tag k="place" v="farm" />
		<tag k="ssr:stedsnr" v="275448" />
	</node>
	<node id="-4993" lat="62.5919333314" lon="6.28726111381">
		<tag k="name" v="Lån-Hansgarden" />
		<tag k="place" v="farm" />
		<tag k="ssr:stedsnr" v="275432" />
	</node>
	<node id="-7038" lat="62.6525555513" lon="6.24623333207">
		<tag k="name" v="Fredtun" />
		<tag k="place" v="farm" />
		<tag k="ssr:stedsnr" v="922958" />
	</node>
	<node id="-7036" lat="62.655505552" lon="6.32384722326">
		<tag k="name" v="Klungrane" />
		<tag k="place" v="farm" />
		<tag k="ssr:stedsnr" v="922933" />
	</node>
	<node id="-7035" lat="62.6590611105" lon="6.34174444058">
		<tag k="name" v="Rognegjerdet" />
		<tag k="place" v="farm" />
		<tag k="ssr:stedsnr" v="922930" />
	</node>
	<node id="-9023" lat="62.4344250001" lon="6.42478055798">
		<tag k="building" v="industrial" />
		<tag k="industrial" v="factory" />
		<tag k="name" v="Spilka Industri AS" />
		<tag k="ssr:stedsnr" v="345993" />
	</node>
	<node id="-7032" lat="62.603767576" lon="6.37006184524">
		<tag k="fixme" v="consider place=hamlet" />
		<tag k="name" v="Alvestadreiten" />
		<tag k="place" v="farm" />
		<tag k="ssr:stedsnr" v="921465" />
	</node>
	<node id="-9079" lat="62.451883066" lon="6.89041794992">
		<tag k="fixme" v="consider place=hamlet" />
		<tag k="name" v="Vaksvika" />
		<tag k="place" v="village" />
		<tag k="ssr:stedsnr" v="375318" />
	</node>
	<node id="-7030" lat="62.5999083355" lon="6.44426388627">
		<tag k="name" v="Brattvåg" />
		<tag k="place" v="village" />
		<tag k="ssr:stedsnr" v="921444" />
	</node>
	<node id="-7029" lat="62.5965555558" lon="6.44322500653">
		<tag k="name" v="Åsen" />
		<tag k="place" v="isolated_dwelling" />
		<tag k="ssr:stedsnr" v="921443" />
	</node>
	<node id="-7028" lat="62.8182666643" lon="6.59499999583">
		<tag k="name" v="Sanden" />
		<tag k="place" v="farm" />
		<tag k="ssr:stedsnr" v="921441" />
	</node>
	<node id="-9075" lat="62.6057888845" lon="6.32175555253">
		<tag k="name" v="Gunnagarden" />
		<tag k="place" v="farm" />
		<tag k="ssr:stedsnr" v="375382" />
	</node>
	<node id="-7026" lat="62.5979972196" lon="6.31162222011">
		<tag k="name" v="Sandvika" />
		<tag k="place" v="farm" />
		<tag k="ssr:stedsnr" v="921426" />
	</node>
	<node id="-9069" lat="62.5474449156" lon="6.27901945358">
		<tag k="name" v="Søvik" />
		<tag k="old_name" v="Søvika" />
		<tag k="place" v="village" />
		<tag k="ssr:stedsnr" v="375191" />
	</node>
	<node id="-7014" lat="62.4756959058" lon="6.25349131995">
		<tag k="alt_name" v="Larsgarden" />
		<tag k="fixme" v="consider place=hamlet" />
		<tag k="name" v="Larsgården" />
		<tag k="place" v="farm" />
		<tag k="ssr:stedsnr" v="921241" />
	</node>
	<node id="-7011" lat="62.5437126511" lon="6.67855982844">
		<tag k="name" v="Beite" />
		<tag k="place" v="hamlet" />
		<tag k="ssr:stedsnr" v="921203" />
	</node>
	<node id="-9058" lat="62.442777087" lon="6.36764918063">
		<tag k="fixme" v="consider place=hamlet" />
		<tag k="name" v="Blindheim" />
		<tag k="place" v="farm" />
		<tag k="ssr:stedsnr" v="375047" />
	</node>
	<node id="-7009" lat="62.501972019" lon="6.478087001">
		<tag k="fixme" v="consider place=hamlet" />
		<tag k="name" v="Mørkeset" />
		<tag k="place" v="farm" />
		<tag k="ssr:stedsnr" v="921101" />
	</node>
	<node id="-9056" lat="62.4501777734" lon="6.45155000298">
		<tag k="historic" v="shieling" />
		<tag k="name" v="Røssevollssætra" />
		<tag k="place" v="locality" />
		<tag k="ssr:stedsnr" v="375043" />
	</node>
	<node id="-4958" lat="62.5781000017" lon="6.26876666285">
		<tag k="name" v="Jakobgarden" />
		<tag k="place" v="farm" />
		<tag k="ssr:stedsnr" v="133318" />
	</node>
	<node id="-7005" lat="62.4716762018" lon="6.47570027459">
		<tag k="fixme" v="consider place=hamlet" />
		<tag k="name" v="Vasstranda" />
		<tag k="place" v="farm" />
		<tag k="ssr:stedsnr" v="921034" />
	</node>
	<node id="-7004" lat="62.464794563" lon="6.40331658174">
		<tag k="fixme" v="consider place=hamlet" />
		<tag k="name" v="Lillestølen" />
		<tag k="place" v="farm" />
		<tag k="ssr:stedsnr" v="921033" />
	</node>
	<node id="-7003" lat="62.4822583294" lon="6.6857166626">
		<tag k="name" v="Håemsvik" />
		<tag k="place" v="farm" />
		<tag k="ssr:stedsnr" v="921020" />
	</node>
	<node id="-4954" lat="62.6337375052" lon="6.25095468671">
		<tag k="fixme" v="consider place=hamlet" />
		<tag k="name" v="Myskja" />
		<tag k="place" v="farm" />
		<tag k="ssr:stedsnr" v="133436" />
	</node>
	<node id="-7001" lat="62.4564222267" lon="6.42666111195">
		<tag k="name" v="Bigtonhytta" />
		<tag k="place" v="isolated_dwelling" />
		<tag k="ssr:stedsnr" v="921006" />
	</node>
	<node id="-9048" lat="62.4776457818" lon="6.37604031563">
		<tag k="alt_name" v="Olsvik" />
		<tag k="fixme" v="consider place=hamlet" />
		<tag k="name" v="Olsvika" />
		<tag k="place" v="farm" />
		<tag k="ssr:stedsnr" v="374241" />
	</node>
	<node id="-4951" lat="62.6074990946" lon="6.34339011473">
		<tag k="fixme" v="consider place=hamlet" />
		<tag k="name" v="Hildre" />
		<tag k="place" v="farm" />
		<tag k="ssr:stedsnr" v="133409" />
	</node>
	<node id="-9045" lat="62.6185666656" lon="6.53980555734">
		<tag k="name" v="Oppegarden" />
		<tag k="place" v="farm" />
		<tag k="ssr:stedsnr" v="519771" />
	</node>
	<node id="-4948" lat="62.557825788" lon="6.64422929186">
		<tag k="fixme" v="consider place=hamlet" />
		<tag k="name" v="Hatleholen" />
		<tag k="place" v="farm" />
		<tag k="ssr:stedsnr" v="133205" />
	</node>
	<node id="-8334" lat="62.5580659095" lon="6.63629725926">
		<tag k="fixme" v="consider place=hamlet" />
		<tag k="name" v="Øygarden" />
		<tag k="place" v="farm" />
		<tag k="ssr:stedsnr" v="133197" />
	</node>
	<node id="-9042" lat="62.5002444413" lon="6.81136666018">
		<tag k="name" v="Braute" />
		<tag k="place" v="farm" />
		<tag k="ssr:stedsnr" v="363553" />
	</node>
	<node id="-9041" lat="62.5059527788" lon="6.69244444769">
		<tag k="name" v="Nilsgarden" />
		<tag k="place" v="quarter" />
		<tag k="ssr:stedsnr" v="362918" />
	</node>
	<node id="-9040" lat="62.4987138915" lon="6.72036666627">
		<tag k="name" v="Britplassen" />
		<tag k="place" v="quarter" />
		<tag k="ssr:stedsnr" v="362913" />
	</node>
	<node id="-4943" lat="62.6061191614" lon="6.19443438545">
		<tag k="fixme" v="consider place=hamlet" />
		<tag k="name" v="Farstad" />
		<tag k="place" v="farm" />
		<tag k="ssr:stedsnr" v="132803" />
	</node>
	<node id="-4941" lat="62.5374750015" lon="6.72218333424">
		<tag k="name" v="Saghaugen" />
		<tag k="place" v="farm" />
		<tag k="ssr:stedsnr" v="132910" />
	</node>
	<node id="-4940" lat="62.6157888928" lon="6.56742500357">
		<tag k="fixme" v="consider place=hamlet" />
		<tag k="name" v="Skoravika" />
		<tag k="place" v="farm" />
		<tag k="ssr:stedsnr" v="132416" />
	</node>
	<node id="-4938" lat="62.6063194425" lon="6.35235000762">
		<tag k="name" v="Skansene" />
		<tag k="place" v="farm" />
		<tag k="ssr:stedsnr" v="132406" />
	</node>
	<node id="-4937" lat="62.6033666711" lon="6.32098055537">
		<tag k="name" v="Stranda" />
		<tag k="place" v="farm" />
		<tag k="ssr:stedsnr" v="132402" />
	</node>
	<node id="-6981" lat="62.5059999986" lon="6.62610278148">
		<tag k="name" v="Straumsheim" />
		<tag k="place" v="farm" />
		<tag k="ssr:stedsnr" v="763091" />
	</node>
	<node id="-6980" lat="62.4990333327" lon="6.72983889106">
		<tag k="name" v="Nymarka" />
		<tag k="place" v="farm" />
		<tag k="ssr:stedsnr" v="763081" />
	</node>
	<node id="-6979" lat="62.5072472742" lon="6.67051546469">
		<tag k="alt_name" v="Indreberg" />
		<tag k="fixme" v="consider place=hamlet" />
		<tag k="name" v="Indre Berget" />
		<tag k="place" v="farm" />
		<tag k="ssr:stedsnr" v="763074" />
	</node>
	<node id="-6978" lat="62.4996853099" lon="6.75112684467">
		<tag k="fixme" v="consider place=hamlet" />
		<tag k="name" v="Furlia" />
		<tag k="place" v="farm" />
		<tag k="ssr:stedsnr" v="763064" />
	</node>
	<node id="-9355" lat="62.4603944479" lon="6.1595833395">
		<tag k="name" v="Slinningen" />
		<tag k="place" v="suburb" />
		<tag k="ssr:stedsnr" v="435979" />
	</node>
	<node id="-6975" lat="62.6005833311" lon="6.6765388876">
		<tag k="name" v="Bergstad" />
		<tag k="place" v="farm" />
		<tag k="ssr:stedsnr" v="762474" />
	</node>
	<node id="-6973" lat="62.6091944458" lon="6.42303889186">
		<tag k="name" v="Synnaland" />
		<tag k="place" v="farm" />
		<tag k="ssr:stedsnr" v="762259" />
	</node>
	<node id="-4918" lat="62.4626333296" lon="6.30378333179">
		<tag k="fixme" v="consider place=suburb, village or hamlet" />
		<tag k="name" v="Åsestranda" />
		<tag k="place" v="quarter" />
		<tag k="ssr:stedsnr" v="98560" />
	</node>
	<node id="-6964" lat="62.6211166692" lon="6.66746111848">
		<tag k="name" v="Ner" />
		<tag k="place" v="farm" />
		<tag k="ssr:stedsnr" v="761528" />
	</node>
	<node id="-9011" lat="62.4610114261" lon="6.13973816784">
		<tag k="name" v="Lillevika" />
		<tag k="place" v="farm" />
		<tag k="ssr:stedsnr" v="341738" />
	</node>
	<node id="-9009" lat="62.466505557" lon="6.25972500618">
		<tag k="name" v="Indre Gåseid" />
		<tag k="place" v="village" />
		<tag k="ssr:stedsnr" v="341730" />
	</node>
	<node id="-6959" lat="62.6116000015" lon="6.6222527798">
		<tag k="name" v="Ner" />
		<tag k="place" v="farm" />
		<tag k="ssr:stedsnr" v="761062" />
	</node>
	<node id="-9004" lat="62.4641805572" lon="6.31310833777">
		<tag k="amenity" v="hospital" />
		<tag k="name" v="Ålesund sjukehus" />
		<tag k="old_name" v="Fylkessjukehuset" />
		<tag k="ssr:stedsnr" v="341670" />
	</node>
	<node id="-6955" lat="62.5332694415" lon="6.27322777401">
		<tag k="fixme" v="consider place=hamlet" />
		<tag k="name" v="Hamnsund" />
		<tag k="place" v="village" />
		<tag k="ssr:stedsnr" v="760657" />
	</node>
	<node id="-9021" lat="62.7271805551" lon="6.45093889323">
		<tag k="name" v="Haugane" />
		<tag k="place" v="quarter" />
		<tag k="ssr:stedsnr" v="343436" />
	</node>
	<node id="-4902" lat="62.4792583348" lon="6.7507250041">
		<tag k="name" v="Stigen" />
		<tag k="place" v="farm" />
		<tag k="ssr:stedsnr" v="96970" />
	</node>
	<node id="-5937" lat="62.4795777803" lon="6.18730555701">
		<tag k="name" v="Flatholmen havn" />
		<tag k="place" v="quarter" />
		<tag k="ssr:stedsnr" v="404677" />
	</node>
	<node id="-6948" lat="62.8184750003" lon="6.58832777559">
		<tag k="name" v="Linningen" />
		<tag k="place" v="farm" />
		<tag k="ssr:stedsnr" v="760067" />
	</node>
	<node id="-4894" lat="62.4606488321" lon="6.61574772915">
		<tag k="fixme" v="consider place=hamlet" />
		<tag k="name" v="Honningdalsnes" />
		<tag k="place" v="farm" />
		<tag k="ssr:stedsnr" v="96407" />
	</node>
	<node id="-8986" lat="62.4549333363" lon="6.91955555424">
		<tag k="name" v="Gjerdet" />
		<tag k="place" v="farm" />
		<tag k="ssr:stedsnr" v="338688" />
	</node>
	<node id="-6936" lat="62.4614361127" lon="6.97571666818">
		<tag k="name" v="Sollisætra" />
		<tag k="place" v="neighbourhood" />
		<tag k="ssr:stedsnr" v="909728" />
	</node>
	<node id="-8983" lat="62.4798027744" lon="6.74307500873">
		<tag k="name" v="Talleberg" />
		<tag k="place" v="farm" />
		<tag k="ssr:stedsnr" v="338669" />
	</node>
	<node id="-4884" lat="62.5052805543" lon="6.6250111094">
		<tag k="name" v="Malihaugen" />
		<tag k="place" v="farm" />
		<tag k="ssr:stedsnr" v="96104" />
	</node>
	<node id="-9347" lat="62.4680444409" lon="6.92491388397">
		<tag k="name" v="Vestresætra" />
		<tag k="place" v="neighbourhood" />
		<tag k="ssr:stedsnr" v="424713" />
	</node>
	<node id="-4878" lat="62.5654194423" lon="6.53550000696">
		<tag k="historic" v="shieling" />
		<tag k="name" v="Slyngstadsætra" />
		<tag k="place" v="locality" />
		<tag k="ssr:stedsnr" v="95505" />
	</node>
	<node id="-6922" lat="62.5255388929" lon="6.79326111032">
		<tag k="historic" v="shieling" />
		<tag k="name" v="Steinsetsætra" />
		<tag k="place" v="locality" />
		<tag k="ssr:stedsnr" v="739824" />
	</node>
	<node id="-4873" lat="62.6538916624" lon="6.32168889279">
		<tag k="name" v="Reitebø" />
		<tag k="place" v="farm" />
		<tag k="ssr:stedsnr" v="254925" />
	</node>
	<node id="-4870" lat="62.7331861156" lon="6.44294167556">
		<tag k="name" v="Rognane" />
		<tag k="place" v="farm" />
		<tag k="ssr:stedsnr" v="254829" />
	</node>
	<node id="-4869" lat="62.7336916704" lon="6.46687777505">
		<tag k="name" v="Myklebustrimma" />
		<tag k="place" v="farm" />
		<tag k="ssr:stedsnr" v="254824" />
	</node>
	<node id="-6916" lat="62.6319304103" lon="6.1940324296">
		<tag k="fixme" v="consider place=hamlet" />
		<tag k="name" v="Set" />
		<tag k="place" v="farm" />
		<tag k="ssr:stedsnr" v="739713" />
	</node>
	<node id="-6914" lat="62.6007055544" lon="6.67053333692">
		<tag k="name" v="Dysa" />
		<tag k="place" v="farm" />
		<tag k="ssr:stedsnr" v="739372" />
	</node>
	<node id="-4863" lat="62.7111611125" lon="6.4103583316">
		<tag k="name" v="Nytun" />
		<tag k="place" v="farm" />
		<tag k="ssr:stedsnr" v="254794" />
	</node>
	<node id="-4862" lat="62.6021118886" lon="6.21068519239">
		<tag k="fixme" v="consider place=hamlet" />
		<tag k="name" v="Lausund" />
		<tag k="place" v="farm" />
		<tag k="ssr:stedsnr" v="254787" />
	</node>
	<node id="-6909" lat="62.6039833318" lon="6.39401667459">
		<tag k="name" v="Filopgarden" />
		<tag k="place" v="farm" />
		<tag k="ssr:stedsnr" v="739423" />
	</node>
	<node id="-4860" lat="62.6169294322" lon="6.21436336498">
		<tag k="fixme" v="consider place=hamlet" />
		<tag k="name" v="Kjerstad" />
		<tag k="place" v="farm" />
		<tag k="ssr:stedsnr" v="254445" />
	</node>
	<node id="-6907" lat="62.5641277764" lon="6.27812776939">
		<tag k="name" v="Stølen" />
		<tag k="place" v="farm" />
		<tag k="ssr:stedsnr" v="739293" />
	</node>
	<node id="-6904" lat="62.5669551124" lon="6.44948023085">
		<tag k="name" v="Håvik" />
		<tag k="place" v="farm" />
		<tag k="ssr:stedsnr" v="739288" />
	</node>
	<node id="-8951" lat="62.5256472233" lon="6.7231166681">
		<tag k="name" v="Nedre Brune" />
		<tag k="place" v="farm" />
		<tag k="ssr:stedsnr" v="338350" />
	</node>
	<node id="-9368" lat="62.5046652058" lon="6.64818223777">
		<tag k="fixme" v="consider place=hamlet" />
		<tag k="name" v="Grindvika" />
		<tag k="place" v="farm" />
		<tag k="ssr:stedsnr" v="436095" />
	</node>
	<node id="-4845" lat="62.5831687437" lon="6.25973728017">
		<tag k="fixme" v="consider place=hamlet" />
		<tag k="name" v="Gamlemshaugen" />
		<tag k="place" v="farm" />
		<tag k="ssr:stedsnr" v="254338" />
	</node>
	<node id="-4841" lat="62.5643722233" lon="6.47397777747">
		<tag k="name" v="Bjørlykkestølen" />
		<tag k="place" v="farm" />
		<tag k="ssr:stedsnr" v="254250" />
	</node>
	<node id="-8936" lat="62.4862999999" lon="6.52815833474">
		<tag k="name" v="Eliasplassen" />
		<tag k="place" v="farm" />
		<tag k="ssr:stedsnr" v="338224" />
	</node>
	<node id="-4839" lat="62.565341663" lon="6.6517750097">
		<tag k="historic" v="shieling" />
		<tag k="name" v="Ulvestadsætra" />
		<tag k="place" v="locality" />
		<tag k="ssr:stedsnr" v="254244" />
	</node>
	<node id="-4835" lat="62.4437166686" lon="6.51718333249">
		<tag k="historic" v="shieling" />
		<tag k="name" v="Magerholmsætra" />
		<tag k="place" v="locality" />
		<tag k="ssr:stedsnr" v="254038" />
	</node>
	<node id="-4830" lat="62.4770777765" lon="6.90041944128">
		<tag k="alt_name" v="Lisetsætra, gamle" />
		<tag k="historic" v="shieling" />
		<tag k="name" v="Gamle Lisetsætra" />
		<tag k="place" v="locality" />
		<tag k="ssr:stedsnr" v="253377" />
	</node>
	<node id="-4901" lat="62.4770111067" lon="6.7146111035">
		<tag k="name" v="Magnusplassen" />
		<tag k="place" v="farm" />
		<tag k="ssr:stedsnr" v="96703" />
	</node>
	<node id="-5412" lat="62.6230638914" lon="6.21161110583">
		<tag k="name" v="Rasmusgarden" />
		<tag k="place" v="farm" />
		<tag k="ssr:stedsnr" v="457643" />
	</node>
	<node id="-4825" lat="62.4965849287" lon="6.5651383602">
		<tag k="fixme" v="consider place=hamlet" />
		<tag k="name" v="Innvika" />
		<tag k="place" v="farm" />
		<tag k="ssr:stedsnr" v="253268" />
	</node>
	<node id="-4824" lat="62.4898972184" lon="6.53099167057">
		<tag k="name" v="Brusdalshjellen" />
		<tag k="place" v="farm" />
		<tag k="ssr:stedsnr" v="253264" />
	</node>
	<node id="-4823" lat="62.472566668" lon="6.34567776911">
		<tag k="name" v="Breivika" />
		<tag k="place" v="quarter" />
		<tag k="ssr:stedsnr" v="253259" />
	</node>
	<node id="-7088" lat="62.7770250008" lon="6.46839166666">
		<tag k="name" v="Ingebrigtstua" />
		<tag k="place" v="farm" />
		<tag k="ssr:stedsnr" v="922407" />
	</node>
	<node id="-4821" lat="62.4959103064" lon="6.23853014243">
		<tag k="fixme" v="consider place=hamlet" />
		<tag k="name" v="Grimstad" />
		<tag k="place" v="farm" />
		<tag k="ssr:stedsnr" v="253223" />
	</node>
	<node id="-4819" lat="62.4516869761" lon="6.58507805923">
		<tag k="fixme" v="consider place=hamlet" />
		<tag k="name" v="Heggebakk" />
		<tag k="place" v="farm" />
		<tag k="ssr:stedsnr" v="253054" />
	</node>
	<node id="-4818" lat="62.4889187989" lon="6.63108364838">
		<tag k="alt_name" v="Svorte" />
		<tag k="fixme" v="consider place=hamlet" />
		<tag k="name" v="Svorta" />
		<tag k="place" v="farm" />
		<tag k="ssr:stedsnr" v="253020" />
	</node>
	<node id="-8312" lat="62.6044583296" lon="6.47382777874">
		<tag k="name" v="Vika" />
		<tag k="place" v="farm" />
		<tag k="ssr:stedsnr" v="132389" />
	</node>
	<node id="-8909" lat="62.5253805512" lon="6.62696944076">
		<tag k="name" v="Øvste Leitet" />
		<tag k="place" v="farm" />
		<tag k="ssr:stedsnr" v="337718" />
	</node>
	<node id="-8905" lat="62.6067055527" lon="6.32513333908">
		<tag k="name" v="Syvergarden" />
		<tag k="place" v="farm" />
		<tag k="ssr:stedsnr" v="337633" />
	</node>
	<node id="-6856" lat="62.5543805537" lon="6.63563054821">
		<tag k="name" v="Arnegarden" />
		<tag k="place" v="farm" />
		<tag k="ssr:stedsnr" v="701621" />
	</node>
	<node id="-8903" lat="62.5558527804" lon="6.63534723095">
		<tag k="name" v="Nedstejohaugen" />
		<tag k="place" v="farm" />
		<tag k="ssr:stedsnr" v="337594" />
	</node>
	<node id="-6853" lat="62.6159583324" lon="6.56679999587">
		<tag k="alt_name" v="Skårbreidvik" />
		<tag k="name" v="Skoravika" />
		<tag k="place" v="isolated_dwelling" />
		<tag k="ssr:stedsnr" v="701455" />
	</node>
	<node id="-6851" lat="62.5372944451" lon="6.47247221824">
		<tag k="name" v="Vang" />
		<tag k="place" v="farm" />
		<tag k="ssr:stedsnr" v="701513" />
	</node>
	<node id="-4802" lat="62.7639194473" lon="6.42566111366">
		<tag k="name" v="Remma" />
		<tag k="place" v="isolated_dwelling" />
		<tag k="ssr:stedsnr" v="72434" />
	</node>
	<node id="-6847" lat="62.5439638846" lon="6.51475278151">
		<tag k="name" v="Vonheim" />
		<tag k="place" v="farm" />
		<tag k="ssr:stedsnr" v="701211" />
	</node>
	<node id="-4798" lat="62.607511109" lon="6.47294166014">
		<tag k="name" v="Sandvika" />
		<tag k="place" v="farm" />
		<tag k="ssr:stedsnr" v="72407" />
	</node>
	<node id="-4797" lat="62.6030499964" lon="6.36523333151">
		<tag k="name" v="Myrerimma" />
		<tag k="place" v="farm" />
		<tag k="ssr:stedsnr" v="72403" />
	</node>
	<node id="-8887" lat="62.6228500009" lon="6.6753083261">
		<tag k="historic" v="shieling" />
		<tag k="name" v="Litlesæterstølen" />
		<tag k="place" v="locality" />
		<tag k="ssr:stedsnr" v="337389" />
	</node>
	<node id="-6833" lat="62.7976222188" lon="6.49508888328">
		<tag k="name" v="Storbollhaugen" />
		<tag k="place" v="quarter" />
		<tag k="ssr:stedsnr" v="889433" />
	</node>
	<node id="-6832" lat="62.7951361101" lon="6.49322222426">
		<tag k="name" v="Storhaugen" />
		<tag k="place" v="quarter" />
		<tag k="ssr:stedsnr" v="889432" />
	</node>
	<node id="-4783" lat="62.5334275204" lon="6.45063656449">
		<tag k="fixme" v="consider place=hamlet" />
		<tag k="name" v="Årset" />
		<tag k="place" v="farm" />
		<tag k="ssr:stedsnr" v="72216" />
	</node>
	<node id="-4782" lat="62.532374998" lon="6.31941111374">
		<tag k="name" v="Nybø" />
		<tag k="place" v="farm" />
		<tag k="ssr:stedsnr" v="72212" />
	</node>
	<node id="-4780" lat="62.5348454289" lon="6.40397042624">
		<tag k="fixme" v="consider place=hamlet" />
		<tag k="name" v="Holmeset" />
		<tag k="place" v="farm" />
		<tag k="ssr:stedsnr" v="72203" />
	</node>
	<node id="-8875" lat="62.6570861079" lon="6.18502500083">
		<tag k="name" v="Arnegarden" />
		<tag k="place" v="farm" />
		<tag k="ssr:stedsnr" v="336483" />
	</node>
	<node id="-4778" lat="62.4942146478" lon="6.2699865563">
		<tag k="fixme" v="consider place=hamlet" />
		<tag k="name" v="Slotsvik" />
		<tag k="place" v="farm" />
		<tag k="ssr:stedsnr" v="71220" />
	</node>
	<node id="-6824" lat="62.4741416684" lon="6.22790554695">
		<tag k="amenity" v="school" />
		<tag k="name" v="Fagerlia" />
		<tag k="ssr:stedsnr" v="887981" />
	</node>
	<node id="-4773" lat="62.4763805525" lon="6.66544721774">
		<tag k="fixme" v="consider place=hamlet" />
		<tag k="name" v="Valle" />
		<tag k="place" v="village" />
		<tag k="ssr:stedsnr" v="71023" />
	</node>
	<node id="-4771" lat="62.5173666644" lon="6.83255278213">
		<tag k="name" v="Liasætra" />
		<tag k="place" v="neighbourhood" />
		<tag k="ssr:stedsnr" v="242695" />
	</node>
	<node id="-4770" lat="62.5055912931" lon="6.51791937634">
		<tag k="name" v="Tøssebru" />
		<tag k="place" v="farm" />
		<tag k="ssr:stedsnr" v="242156" />
	</node>
	<node id="-4767" lat="62.4609694415" lon="6.32996666298">
		<tag k="name" v="Ura" />
		<tag k="place" v="isolated_dwelling" />
		<tag k="ssr:stedsnr" v="240218" />
	</node>
	<node id="-4762" lat="62.4656831264" lon="6.10684540101">
		<tag k="fixme" v="consider place=hamlet" />
		<tag k="name" v="Skarbø" />
		<tag k="place" v="farm" />
		<tag k="ssr:stedsnr" v="56020" />
	</node>
	<node id="-6809" lat="62.4743836518" lon="6.36411262635">
		<tag k="fixme" v="consider place=hamlet" />
		<tag k="name" v="Olsvikfeta" />
		<tag k="place" v="farm" />
		<tag k="ssr:stedsnr" v="887581" />
	</node>
	<node id="-6803" lat="62.4765749964" lon="6.72657777744">
		<tag k="name" v="Nerstranda" />
		<tag k="place" v="isolated_dwelling" />
		<tag k="ssr:stedsnr" v="885691" />
	</node>
	<node id="-5955" lat="62.607038892" lon="6.19318332342">
		<tag k="name" v="Nilsgarden" />
		<tag k="place" v="isolated_dwelling" />
		<tag k="ssr:stedsnr" v="515641" />
	</node>
	<node id="-8301" lat="62.5702250019" lon="6.27484443913">
		<tag k="name" v="Nyland" />
		<tag k="place" v="farm" />
		<tag k="ssr:stedsnr" v="132292" />
	</node>
	<node id="-4746" lat="62.4381232668" lon="6.44489691835">
		<tag k="fixme" v="consider place=hamlet" />
		<tag k="name" v="Emblem" />
		<tag k="place" v="farm" />
		<tag k="ssr:stedsnr" v="234801" />
	</node>
	<node id="-8838" lat="62.6707177866" lon="6.33809065872">
		<tag k="name" v="Nogva" />
		<tag k="place" v="hamlet" />
		<tag k="ssr:stedsnr" v="315988" />
	</node>
	<node id="-8833" lat="62.5231379867" lon="6.72863292413">
		<tag k="fixme" v="consider place=hamlet" />
		<tag k="name" v="Fylling" />
		<tag k="place" v="farm" />
		<tag k="ssr:stedsnr" v="315824" />
	</node>
	<node id="-8820" lat="62.7662999988" lon="6.46721389267">
		<tag k="name" v="Stølen" />
		<tag k="place" v="farm" />
		<tag k="ssr:stedsnr" v="315443" />
	</node>
	<node id="-4723" lat="62.6923333297" lon="6.38100277014">
		<tag k="name" v="Remman" />
		<tag k="place" v="farm" />
		<tag k="ssr:stedsnr" v="232913" />
	</node>
	<node id="-8818" lat="62.7714845498" lon="6.46576086301">
		<tag k="fixme" v="consider place=hamlet" />
		<tag k="name" v="Huse" />
		<tag k="place" v="farm" />
		<tag k="ssr:stedsnr" v="315439" />
	</node>
	<node id="-8817" lat="62.7701572643" lon="6.4245368988">
		<tag k="name" v="Jonshaugen" />
		<tag k="place" v="farm" />
		<tag k="ssr:stedsnr" v="315437" />
	</node>
	<node id="-8814" lat="62.7738333374" lon="6.43641944946">
		<tag k="name" v="Selvik" />
		<tag k="place" v="farm" />
		<tag k="ssr:stedsnr" v="315424" />
	</node>
	<node id="-6764" lat="62.5035805597" lon="6.45640554954">
		<tag k="name" v="Ingebrigtsplassen" />
		<tag k="place" v="farm" />
		<tag k="ssr:stedsnr" v="885030" />
	</node>
	<node id="-6762" lat="62.5076223948" lon="6.69344783276">
		<tag k="fixme" v="consider place=hamlet" />
		<tag k="name" v="Ytre Skodje" />
		<tag k="place" v="farm" />
		<tag k="ssr:stedsnr" v="885080" />
	</node>
	<node id="-6761" lat="62.5142750004" lon="6.47266944586">
		<tag k="name" v="Kjønnaplassen" />
		<tag k="place" v="farm" />
		<tag k="ssr:stedsnr" v="885076" />
	</node>
	<node id="-6760" lat="62.5092107603" lon="6.69728468604">
		<tag k="name" v="Skodjereitane" />
		<tag k="place" v="farm" />
		<tag k="ssr:stedsnr" v="885066" />
	</node>
	<node id="-6759" lat="62.5044305576" lon="6.69774444264">
		<tag k="name" v="Bøen" />
		<tag k="place" v="farm" />
		<tag k="ssr:stedsnr" v="885062" />
	</node>
	<node id="-6758" lat="62.5424361127" lon="6.687280554">
		<tag k="name" v="Brautne" />
		<tag k="place" v="farm" />
		<tag k="ssr:stedsnr" v="885061" />
	</node>
	<node id="-8803" lat="62.5355528663" lon="6.36921843503">
		<tag k="fixme" v="consider place=hamlet" />
		<tag k="name" v="Gryta" />
		<tag k="place" v="farm" />
		<tag k="ssr:stedsnr" v="315188" />
	</node>
	<node id="-4706" lat="62.5037583333" lon="6.69661666456">
		<tag k="name" v="Lundbøen" />
		<tag k="place" v="quarter" />
		<tag k="ssr:stedsnr" v="231933" />
	</node>
	<node id="-6753" lat="62.5346314183" lon="6.41510708996">
		<tag k="alt_name" v="Urkedal" />
		<tag k="fixme" v="consider place=hamlet" />
		<tag k="name" v="Urkedalen" />
		<tag k="place" v="village" />
		<tag k="ssr:stedsnr" v="884732" />
	</node>
	<node id="-8798" lat="62.5354941234" lon="6.61661539678">
		<tag k="fixme" v="consider place=hamlet" />
		<tag k="name" v="Vadset" />
		<tag k="place" v="farm" />
		<tag k="ssr:stedsnr" v="315146" />
	</node>
	<node id="-6745" lat="62.5817250037" lon="6.62538332462">
		<tag k="name" v="Haugen" />
		<tag k="place" v="farm" />
		<tag k="ssr:stedsnr" v="884000" />
	</node>
	<node id="-4694" lat="62.4707457008" lon="6.37844828744">
		<tag k="name" v="Fremmerholen" />
		<tag k="old_name" v="Fremmerholmen" />
		<tag k="place" v="farm" />
		<tag k="ssr:stedsnr" v="20319" />
	</node>
	<node id="-6741" lat="62.5804249984" lon="6.62066944704">
		<tag k="name" v="Hovsetnausta" />
		<tag k="place" v="locality" />
		<tag k="ssr:stedsnr" v="883987" />
	</node>
	<node id="-6737" lat="62.5903805545" lon="6.58284721722">
		<tag k="name" v="Pettergarden" />
		<tag k="place" v="farm" />
		<tag k="ssr:stedsnr" v="883801" />
	</node>
	<node id="-8783" lat="62.460857808" lon="6.83399230743">
		<tag k="fixme" v="consider place=hamlet" />
		<tag k="name" v="Amdam" />
		<tag k="place" v="farm" />
		<tag k="ssr:stedsnr" v="314381" />
	</node>
	<node id="-6734" lat="62.5354138909" lon="6.58308055031">
		<tag k="name" v="Steinane" />
		<tag k="place" v="farm" />
		<tag k="ssr:stedsnr" v="883735" />
	</node>
	<node id="-8780" lat="62.4826611097" lon="6.8536055584">
		<tag k="name" v="Lande" />
		<tag k="place" v="hamlet" />
		<tag k="ssr:stedsnr" v="314348" />
	</node>
	<node id="-8779" lat="62.4750694406" lon="6.8152666574">
		<tag k="name" v="Kråna" />
		<tag k="place" v="farm" />
		<tag k="ssr:stedsnr" v="314346" />
	</node>
	<node id="-6730" lat="62.5586472219" lon="6.64922500011">
		<tag k="name" v="Solheim" />
		<tag k="place" v="farm" />
		<tag k="ssr:stedsnr" v="883613" />
	</node>
	<node id="-6729" lat="62.6169250004" lon="6.70177500141">
		<tag k="historic" v="shieling" />
		<tag k="name" v="Gamlestølen" />
		<tag k="place" v="locality" />
		<tag k="ssr:stedsnr" v="883559" />
	</node>
	<node id="-4680" lat="62.5429203429" lon="6.7476837736">
		<tag k="fixme" v="consider place=hamlet" />
		<tag k="name" v="Storsætra" />
		<tag k="place" v="farm" />
		<tag k="ssr:stedsnr" v="11911" />
	</node>
	<node id="-8774" lat="62.4817959541" lon="6.7820628706">
		<tag k="name" v="Steinane" />
		<tag k="place" v="farm" />
		<tag k="ssr:stedsnr" v="314326" />
	</node>
	<node id="-4675" lat="62.5997805574" lon="6.31144167179">
		<tag k="name" v="Røvreiten" />
		<tag k="place" v="farm" />
		<tag k="ssr:stedsnr" v="11421" />
	</node>
	<node id="-8770" lat="62.4586104403" lon="6.6011167046">
		<tag k="alt_name" v="Nonsvik" />
		<tag k="fixme" v="consider place=hamlet" />
		<tag k="name" v="Nonsvika" />
		<tag k="place" v="farm" />
		<tag k="ssr:stedsnr" v="314063" />
	</node>
	<node id="-8769" lat="62.4578694466" lon="6.58214166267">
		<tag k="historic" v="shieling" />
		<tag k="name" v="Gudmundsetsætra" />
		<tag k="place" v="locality" />
		<tag k="ssr:stedsnr" v="314051" />
	</node>
	<node id="-6720" lat="62.693825003" lon="6.42449443573">
		<tag k="name" v="Nesbø" />
		<tag k="place" v="farm" />
		<tag k="ssr:stedsnr" v="882924" />
	</node>
	<node id="-9312" lat="62.4325812435" lon="6.43046886528">
		<tag k="fixme" v="consider place=hamlet" />
		<tag k="name" v="Emblemsvåg" />
		<tag k="place" v="farm" />
		<tag k="ssr:stedsnr" v="402642" />
	</node>
	<node id="-8765" lat="62.4468972186" lon="7.01944166958">
		<tag k="name" v="Grytalisætra" />
		<tag k="place" v="neighbourhood" />
		<tag k="ssr:stedsnr" v="302726" />
	</node>
	<node id="-6714" lat="62.5689354223" lon="6.27247875425">
		<tag k="fixme" v="consider place=hamlet" />
		<tag k="name" v="Gamlem" />
		<tag k="place" v="farm" />
		<tag k="ssr:stedsnr" v="882862" />
	</node>
	<node id="-4665" lat="62.4616694428" lon="6.54313888913">
		<tag k="historic" v="shieling" />
		<tag k="name" v="Vallesætra" />
		<tag k="place" v="locality" />
		<tag k="ssr:stedsnr" v="11003" />
	</node>
	<node id="-8628" lat="62.4958250454" lon="6.59771992263">
		<tag k="fixme" v="consider place=hamlet" />
		<tag k="name" v="Saltkjelsvik" />
		<tag k="place" v="farm" />
		<tag k="ssr:stedsnr" v="192240" />
	</node>
	<node id="-6710" lat="62.5179916688" lon="6.82960555817">
		<tag k="alt_name" v="Lisætra" />
		<tag k="historic" v="shieling" />
		<tag k="name" v="Liasætra" />
		<tag k="place" v="locality" />
		<tag k="ssr:stedsnr" v="679863" />
	</node>
	<node id="-4660" lat="62.4417611105" lon="6.4266888931">
		<tag k="name" v="Høgda" />
		<tag k="place" v="isolated_dwelling" />
		<tag k="ssr:stedsnr" v="220971" />
	</node>
	<node id="-6703" lat="62.6148944406" lon="6.21798055149">
		<tag k="name" v="Gurogarden" />
		<tag k="place" v="farm" />
		<tag k="ssr:stedsnr" v="679422" />
	</node>
	<node id="-6700" lat="62.6272722195" lon="6.60689722608">
		<tag k="name" v="Nordigarden" />
		<tag k="place" v="farm" />
		<tag k="ssr:stedsnr" v="679418" />
	</node>
	<node id="-6696" lat="62.5311027751" lon="6.26998332677">
		<tag k="name" v="Skutevika" />
		<tag k="place" v="farm" />
		<tag k="ssr:stedsnr" v="679177" />
	</node>
	<node id="-8269" lat="62.4596499976" lon="6.25507500074">
		<tag k="name" v="Bogneset" />
		<tag k="place" v="isolated_dwelling" />
		<tag k="ssr:stedsnr" v="117140" />
	</node>
	<node id="-8742" lat="62.567044448" lon="6.27615834258">
		<tag k="name" v="Jogarden" />
		<tag k="place" v="farm" />
		<tag k="ssr:stedsnr" v="215354" />
	</node>
	<node id="-8740" lat="62.6037444446" lon="6.39206944195">
		<tag k="name" v="Pettergarden" />
		<tag k="place" v="farm" />
		<tag k="ssr:stedsnr" v="215299" />
	</node>
	<node id="-6691" lat="62.5505999972" lon="6.64404723121">
		<tag k="name" v="Nigarden" />
		<tag k="place" v="farm" />
		<tag k="ssr:stedsnr" v="679207" />
	</node>
	<node id="-6689" lat="62.6321666636" lon="6.18918610378">
		<tag k="name" v="Fjelle" />
		<tag k="place" v="farm" />
		<tag k="ssr:stedsnr" v="882662" />
	</node>
	<node id="-6688" lat="62.7319277764" lon="6.44863055993">
		<tag k="fixme" v="consider place=hamlet" />
		<tag k="name" v="Myklebust" />
		<tag k="place" v="village" />
		<tag k="ssr:stedsnr" v="678822" />
	</node>
	<node id="-5552" lat="62.5044111132" lon="6.66003610472">
		<tag k="name" v="Sjurgjerdet" />
		<tag k="place" v="farm" />
		<tag k="ssr:stedsnr" v="460106" />
	</node>
	<node id="-4638" lat="62.4903861075" lon="6.82962499901">
		<tag k="name" v="Eggehjellen" />
		<tag k="place" v="farm" />
		<tag k="ssr:stedsnr" v="217697" />
	</node>
	<node id="-8733" lat="62.6103583311" lon="6.33940278598">
		<tag k="name" v="Ytre Hildre" />
		<tag k="place" v="hamlet" />
		<tag k="ssr:stedsnr" v="214584" />
	</node>
	<node id="-6683" lat="62.6312833348" lon="6.25936388127">
		<tag k="name" v="Gunnargarden" />
		<tag k="place" v="farm" />
		<tag k="ssr:stedsnr" v="882618" />
	</node>
	<node id="-6682" lat="62.6087722229" lon="6.42375277479">
		<tag k="name" v="Vika" />
		<tag k="place" v="farm" />
		<tag k="ssr:stedsnr" v="678462" />
	</node>
	<node id="-6681" lat="62.6072833316" lon="6.40824721723">
		<tag k="name" v="Kvithaugen" />
		<tag k="place" v="farm" />
		<tag k="ssr:stedsnr" v="678458" />
	</node>
	<node id="-4631" lat="62.494697225" lon="6.88100833221">
		<tag k="name" v="Gamlesætra" />
		<tag k="place" v="locality" />
		<tag k="ssr:stedsnr" v="217564" />
	</node>
	<node id="-6678" lat="62.4950753606" lon="6.30621537047">
		<tag k="fixme" v="consider place=hamlet" />
		<tag k="name" v="Sperre" />
		<tag k="place" v="farm" />
		<tag k="ssr:stedsnr" v="678207" />
	</node>
	<node id="-8723" lat="62.6721388925" lon="6.26932499449">
		<tag k="name" v="Øytun" />
		<tag k="place" v="farm" />
		<tag k="ssr:stedsnr" v="214349" />
	</node>
	<node id="-9156" lat="62.5782972181" lon="6.26966389389">
		<tag k="name" v="Grøtnesvika" />
		<tag k="place" v="farm" />
		<tag k="ssr:stedsnr" v="396902" />
	</node>
	<node id="-6672" lat="62.4592408084" lon="6.61145448382">
		<tag k="fixme" v="consider place=hamlet" />
		<tag k="name" v="Nesvika" />
		<tag k="place" v="farm" />
		<tag k="ssr:stedsnr" v="678071" />
	</node>
	<node id="-6670" lat="62.4702749983" lon="6.36801051019">
		<tag k="alt_name" v="Holen;Hol" />
		<tag k="name" v="Ytterholen" />
		<tag k="place" v="farm" />
		<tag k="ssr:stedsnr" v="678018" />
	</node>
	<node id="-6669" lat="62.4676781534" lon="6.62076032412">
		<tag k="name" v="Glomset" />
		<tag k="place" v="hamlet" />
		<tag k="ssr:stedsnr" v="678016" />
	</node>
	<node id="-6668" lat="62.4608354397" lon="6.26770321111">
		<tag k="alt_name" v="Ytre Hatlen" />
		<tag k="name" v="Ytre Hatlane" />
		<tag k="place" v="hamlet" />
		<tag k="ssr:stedsnr" v="678009" />
	</node>
	<node id="-6667" lat="62.4602750028" lon="6.36199723027">
		<tag k="name" v="Spjelkavik" />
		<tag k="place" v="village" />
		<tag k="ssr:stedsnr" v="678008" />
	</node>
	<node id="-6666" lat="62.4580916139" lon="6.36839807538">
		<tag k="fixme" v="consider place=hamlet" />
		<tag k="name" v="Gjerdet" />
		<tag k="place" v="farm" />
		<tag k="ssr:stedsnr" v="678007" />
	</node>
	<node id="-6665" lat="62.6032694456" lon="6.2123444362">
		<tag k="name" v="Knutgarden" />
		<tag k="place" v="farm" />
		<tag k="ssr:stedsnr" v="882545" />
	</node>
	<node id="-6664" lat="62.6033500023" lon="6.21380554894">
		<tag k="name" v="Sevringarden" />
		<tag k="place" v="farm" />
		<tag k="ssr:stedsnr" v="882544" />
	</node>
	<node id="-6663" lat="62.6828999988" lon="6.24454721729">
		<tag k="name" v="Dalen" />
		<tag k="place" v="farm" />
		<tag k="ssr:stedsnr" v="882539" />
	</node>
	<node id="-6660" lat="62.6333999991" lon="6.27286665902">
		<tag k="name" v="Larsgarden" />
		<tag k="place" v="farm" />
		<tag k="ssr:stedsnr" v="882501" />
	</node>
	<node id="-8707" lat="62.484122218" lon="6.86335832908">
		<tag k="name" v="Gjerde" />
		<tag k="place" v="farm" />
		<tag k="ssr:stedsnr" v="207893" />
	</node>
	<node id="-8703" lat="62.539977782" lon="6.58589165763">
		<tag k="name" v="Trolldalane" />
		<tag k="place" v="quarter" />
		<tag k="ssr:stedsnr" v="202944" />
	</node>
	<node id="-8702" lat="62.4377420349" lon="6.41672429313">
		<tag k="fixme" v="consider place=hamlet" />
		<tag k="name" v="Eikenosa" />
		<tag k="place" v="farm" />
		<tag k="ssr:stedsnr" v="202319" />
	</node>
	<node id="-8700" lat="62.4687666627" lon="6.24736944309">
		<tag k="name" v="Skuggen" />
		<tag k="place" v="hamlet" />
		<tag k="ssr:stedsnr" v="202315" />
	</node>
	<node id="-8959" lat="62.4795305528" lon="6.83855555344">
		<tag k="alt_name" v="Haukås" />
		<tag k="fixme" v="consider place=hamlet" />
		<tag k="name" v="Haukåsen" />
		<tag k="place" v="farm" />
		<tag k="ssr:stedsnr" v="338433" />
	</node>
	<node id="-6648" lat="62.564863886" lon="6.27641388222">
		<tag k="name" v="Bonde-Gamlem" />
		<tag k="place" v="farm" />
		<tag k="ssr:stedsnr" v="882262" />
	</node>
	<node id="-8693" lat="62.6592638909" lon="6.29320000921">
		<tag k="name" v="Stølen" />
		<tag k="place" v="farm" />
		<tag k="ssr:stedsnr" v="194955" />
	</node>
	<node id="-8692" lat="62.6895833368" lon="6.40131944558">
		<tag k="name" v="Fuglevika" />
		<tag k="place" v="farm" />
		<tag k="ssr:stedsnr" v="194869" />
	</node>
	<node id="-8684" lat="62.6557277614" lon="6.20801641016">
		<tag k="fixme" v="consider place=hamlet" />
		<tag k="name" v="Haram" />
		<tag k="place" v="farm" />
		<tag k="ssr:stedsnr" v="194666" />
	</node>
	<node id="-6635" lat="62.4811805535" lon="6.81716944421">
		<tag k="name" v="Vollen" />
		<tag k="place" v="farm" />
		<tag k="ssr:stedsnr" v="881309" />
	</node>
	<node id="-8675" lat="62.5475527815" lon="6.26969999119">
		<tag k="name" v="Nordvika" />
		<tag k="place" v="farm" />
		<tag k="ssr:stedsnr" v="194236" />
	</node>
	<node id="-8673" lat="62.4997194485" lon="6.38381666903">
		<tag k="name" v="Årset" />
		<tag k="place" v="farm" />
		<tag k="ssr:stedsnr" v="194226" />
	</node>
	<node id="-6624" lat="62.6049472237" lon="6.19601667568">
		<tag k="name" v="Geilane" />
		<tag k="place" v="farm" />
		<tag k="ssr:stedsnr" v="880668" />
	</node>
	<node id="-6623" lat="62.6046083373" lon="6.20292777754">
		<tag k="name" v="Hauggarden" />
		<tag k="place" v="farm" />
		<tag k="ssr:stedsnr" v="880643" />
	</node>
	<node id="-5541" lat="62.5704305582" lon="6.74678611292">
		<tag k="name" v="Fjelltun" />
		<tag k="place" v="isolated_dwelling" />
		<tag k="ssr:stedsnr" v="459642" />
	</node>
	<node id="-6100" lat="62.463477779" lon="6.3295305548">
		<tag k="amenity" v="school" />
		<tag k="name" v="Åse skole" />
		<tag k="old_name" v="Åse Ungdomsskole" />
		<tag k="ssr:stedsnr" v="463659" />
	</node>
	<node id="-9295" lat="62.4593722206" lon="6.2775388885">
		<tag k="name" v="Indre Hatlen" />
		<tag k="place" v="village" />
		<tag k="ssr:stedsnr" v="400688" />
	</node>
	<node id="-8660" lat="62.7761833333" lon="6.46707221919">
		<tag k="name" v="Nystua" />
		<tag k="place" v="farm" />
		<tag k="ssr:stedsnr" v="193464" />
	</node>
	<node id="-8659" lat="62.6132527793" lon="6.56942500275">
		<tag k="name" v="Skoravika" />
		<tag k="place" v="farm" />
		<tag k="ssr:stedsnr" v="193458" />
	</node>
	<node id="-8657" lat="62.6038111086" lon="6.33378610933">
		<tag k="fixme" v="consider place=hamlet" />
		<tag k="name" v="Hildre" />
		<tag k="place" v="village" />
		<tag k="ssr:stedsnr" v="193452" />
	</node>
	<node id="-8364" lat="62.7485083306" lon="6.43507222062">
		<tag k="name" v="Nordnesvika" />
		<tag k="place" v="farm" />
		<tag k="ssr:stedsnr" v="133864" />
	</node>
	<node id="-6605" lat="62.603286109" lon="6.63439999327">
		<tag k="name" v="Ortun" />
		<tag k="place" v="farm" />
		<tag k="ssr:stedsnr" v="640852" />
	</node>
	<node id="-8651" lat="62.5753717578" lon="6.63792657695">
		<tag k="name" v="Hovsetsætra" />
		<tag k="place" v="locality" />
		<tag k="ssr:stedsnr" v="193299" />
	</node>
	<node id="-6601" lat="62.5626777778" lon="6.28038333803">
		<tag k="name" v="Ottabakken" />
		<tag k="place" v="farm" />
		<tag k="ssr:stedsnr" v="639314" />
	</node>
	<node id="-6599" lat="62.632972226" lon="6.19076945243">
		<tag k="name" v="Fredheim" />
		<tag k="place" v="farm" />
		<tag k="ssr:stedsnr" v="638752" />
	</node>
	<node id="-5661" lat="62.5098472451" lon="6.69649102984">
		<tag k="fixme" v="consider place=hamlet" />
		<tag k="name" v="Skodjereitane" />
		<tag k="place" v="farm" />
		<tag k="ssr:stedsnr" v="314168" />
	</node>
	<node id="-8640" lat="62.4622509796" lon="6.78611392797">
		<tag k="fixme" v="consider place=hamlet" />
		<tag k="name" v="Gausneset" />
		<tag k="place" v="farm" />
		<tag k="ssr:stedsnr" v="193352" />
	</node>
	<node id="-6589" lat="62.4983972246" lon="6.73887777999">
		<tag k="name" v="Furlia næringsområde" />
		<tag k="place" v="quarter" />
		<tag k="ssr:stedsnr" v="727913" />
	</node>
	<node id="-8634" lat="62.544699999" lon="6.53820000187">
		<tag k="name" v="Ytsthagen" />
		<tag k="place" v="farm" />
		<tag k="ssr:stedsnr" v="193193" />
	</node>
	<node id="-6584" lat="62.4525888906" lon="6.35966944892">
		<tag k="name" v="Myrvoll" />
		<tag k="place" v="isolated_dwelling" />
		<tag k="ssr:stedsnr" v="726096" />
	</node>
	<node id="-6580" lat="62.730615923" lon="6.44705893095">
		<tag k="fixme" v="consider place=hamlet" />
		<tag k="name" v="Myklebust" />
		<tag k="place" v="farm" />
		<tag k="ssr:stedsnr" v="618811" />
	</node>
	<node id="-8626" lat="62.5061666688" lon="6.94232777383">
		<tag k="name" v="Kvanndalssætra" />
		<tag k="place" v="neighbourhood" />
		<tag k="ssr:stedsnr" v="181738" />
	</node>
	<node id="-6575" lat="62.6026925447" lon="6.38679988551">
		<tag k="fixme" v="consider place=hamlet" />
		<tag k="name" v="Alvestad" />
		<tag k="place" v="farm" />
		<tag k="ssr:stedsnr" v="618415" />
	</node>
	<node id="-8622" lat="62.469291667" lon="6.12297778507">
		<tag k="name" v="Vasshaug" />
		<tag k="place" v="quarter" />
		<tag k="ssr:stedsnr" v="178019" />
	</node>
	<node id="-6573" lat="62.6063111139" lon="6.36194166863">
		<tag k="name" v="Myra" />
		<tag k="place" v="farm" />
		<tag k="ssr:stedsnr" v="618409" />
	</node>
	<node id="-6571" lat="62.6040916686" lon="6.3226694471">
		<tag k="name" v="Kvithaug" />
		<tag k="place" v="farm" />
		<tag k="ssr:stedsnr" v="618403" />
	</node>
	<node id="-6570" lat="62.6105671921" lon="6.62462045451">
		<tag k="fixme" v="consider place=hamlet" />
		<tag k="name" v="Helle" />
		<tag k="place" v="farm" />
		<tag k="ssr:stedsnr" v="618394" />
	</node>
	<node id="-6565" lat="62.5941416683" lon="6.29609167376">
		<tag k="name" v="Per-Eliasgarden" />
		<tag k="place" v="farm" />
		<tag k="ssr:stedsnr" v="618372" />
	</node>
	<node id="-6563" lat="62.5988750045" lon="6.6787833398">
		<tag k="name" v="Sjurgarden" />
		<tag k="place" v="farm" />
		<tag k="ssr:stedsnr" v="618365" />
	</node>
	<node id="-6561" lat="62.5973972265" lon="6.56945554817">
		<tag k="fixme" v="consider place=hamlet" />
		<tag k="name" v="Ytrestrand" />
		<tag k="place" v="farm" />
		<tag k="ssr:stedsnr" v="618360" />
	</node>
	<node id="-8608" lat="62.5020749988" lon="6.72488610309">
		<tag k="name" v="Midtli" />
		<tag k="place" v="farm" />
		<tag k="ssr:stedsnr" v="173052" />
	</node>
	<node id="-6559" lat="62.5856249974" lon="6.27662778114">
		<tag k="name" v="Vika" />
		<tag k="place" v="farm" />
		<tag k="ssr:stedsnr" v="618354" />
	</node>
	<node id="-6557" lat="62.5624281625" lon="6.61843580247">
		<tag k="fixme" v="consider place=hamlet" />
		<tag k="name" v="Ulvestad" />
		<tag k="place" v="farm" />
		<tag k="ssr:stedsnr" v="618230" />
	</node>
	<node id="-6553" lat="62.5433802905" lon="6.52017441856">
		<tag k="fixme" v="consider place=hamlet" />
		<tag k="name" v="Slyngstad" />
		<tag k="place" v="village" />
		<tag k="ssr:stedsnr" v="618205" />
	</node>
	<node id="-6550" lat="62.456384632" lon="6.92384775147">
		<tag k="fixme" v="consider place=hamlet" />
		<tag k="name" v="Hatlen" />
		<tag k="place" v="farm" />
		<tag k="ssr:stedsnr" v="617368" />
	</node>
	<node id="-8597" lat="62.6991916633" lon="6.36846943913">
		<tag k="name" v="Markabø" />
		<tag k="place" v="farm" />
		<tag k="ssr:stedsnr" v="171927" />
	</node>
	<node id="-6548" lat="62.4730479706" lon="6.40144977903">
		<tag k="fixme" v="consider place=hamlet" />
		<tag k="name" v="Rødset" />
		<tag k="place" v="farm" />
		<tag k="ssr:stedsnr" v="617018" />
	</node>
	<node id="-6545" lat="62.503163893" lon="6.69372776835">
		<tag k="name" v="Korsveggarden" />
		<tag k="place" v="quarter" />
		<tag k="ssr:stedsnr" v="721590" />
	</node>
	<node id="-9377" lat="62.4613749975" lon="6.87313055375">
		<tag k="name" v="Vestre" />
		<tag k="place" v="hamlet" />
		<tag k="ssr:stedsnr" v="436325" />
	</node>
	<node id="-8590" lat="62.4726750031" lon="6.2336583347">
		<tag k="amenity" v="school" />
		<tag k="name" v="Fagskolen i Ålesund" />
		<tag k="ssr:stedsnr" v="161196" />
	</node>
	<node id="-5196" lat="62.5249111153" lon="6.75218054726">
		<tag k="name" v="Solli" />
		<tag k="place" v="farm" />
		<tag k="ssr:stedsnr" v="193830" />
	</node>
	<node id="-6530" lat="62.5358361124" lon="6.38442222519">
		<tag k="name" v="Skardså" />
		<tag k="place" v="isolated_dwelling" />
		<tag k="ssr:stedsnr" v="718683" />
	</node>
	<node id="-6529" lat="62.4801361112" lon="6.68110555122">
		<tag k="name" v="Håem" />
		<tag k="place" v="farm" />
		<tag k="ssr:stedsnr" v="606152" />
	</node>
	<node id="-6528" lat="62.5346500037" lon="6.60636667426">
		<tag k="name" v="Skogen" />
		<tag k="place" v="isolated_dwelling" />
		<tag k="ssr:stedsnr" v="718429" />
	</node>
	<node id="-6527" lat="62.6918472205" lon="6.41924444417">
		<tag k="name" v="Nes" />
		<tag k="place" v="farm" />
		<tag k="ssr:stedsnr" v="718596" />
	</node>
	<node id="-9151" lat="62.6446138865" lon="6.22632778588">
		<tag k="name" v="Åkrenausta" />
		<tag k="place" v="locality" />
		<tag k="ssr:stedsnr" v="396761" />
	</node>
	<node id="-8568" lat="62.48232778" lon="6.85713333883">
		<tag k="name" v="Bøen" />
		<tag k="place" v="farm" />
		<tag k="ssr:stedsnr" v="156702" />
	</node>
	<node id="-9014" lat="62.475947218" lon="6.19416388852">
		<tag k="leisure" v="pitch" />
		<tag k="name" v="Kråmyra" />
		<tag k="ssr:stedsnr" v="341966" />
	</node>
	<node id="-8252" lat="62.5040055578" lon="6.695741666">
		<tag k="name" v="Olivermarka" />
		<tag k="place" v="quarter" />
		<tag k="ssr:stedsnr" v="110942" />
	</node>
	<node id="-6500" lat="62.5075444411" lon="6.6256027779">
		<tag k="name" v="Reiten" />
		<tag k="place" v="farm" />
		<tag k="ssr:stedsnr" v="581084" />
	</node>
	<node id="-7377" lat="62.5564972243" lon="6.63347499957">
		<tag k="name" v="Ytsthaugen" />
		<tag k="place" v="farm" />
		<tag k="ssr:stedsnr" v="944630" />
	</node>
	<node id="-6493" lat="62.5341361104" lon="6.44196945202">
		<tag k="name" v="Fjelly" />
		<tag k="place" v="farm" />
		<tag k="ssr:stedsnr" v="580411" />
	</node>
	<node id="-9150" lat="62.6179583349" lon="6.21113610834">
		<tag k="name" v="Berntgarden" />
		<tag k="place" v="farm" />
		<tag k="ssr:stedsnr" v="396682" />
	</node>
	<node id="-4990" lat="62.5910583338" lon="6.28289165732">
		<tag k="alt_name" v="Hurlagjerdet" />
		<tag k="name" v="Gjerdet" />
		<tag k="place" v="hamlet" />
		<tag k="ssr:stedsnr" v="275384" />
	</node>
	<node id="-8531" lat="62.5038527802" lon="6.51560832951">
		<tag k="name" v="Tøssebruvåg" />
		<tag k="place" v="farm" />
		<tag k="ssr:stedsnr" v="156416" />
	</node>
	<node id="-6482" lat="62.5412694401" lon="6.50699722233">
		<tag k="name" v="Martingarden" />
		<tag k="place" v="farm" />
		<tag k="ssr:stedsnr" v="580144" />
	</node>
	<node id="-9286" lat="62.4585305512" lon="6.92883054942">
		<tag k="name" v="Øvrebø" />
		<tag k="place" v="farm" />
		<tag k="ssr:stedsnr" v="399700" />
	</node>
	<node id="-8526" lat="62.5264194469" lon="6.72054166815">
		<tag k="name" v="Øvre Brune" />
		<tag k="place" v="farm" />
		<tag k="ssr:stedsnr" v="156387" />
	</node>
	<node id="-8345" lat="62.627169446" lon="6.60196944065">
		<tag k="name" v="Sørigarden" />
		<tag k="place" v="farm" />
		<tag k="ssr:stedsnr" v="133401" />
	</node>
	<node id="-6471" lat="62.6558666667" lon="6.32953889612">
		<tag k="name" v="Larsgarden" />
		<tag k="place" v="farm" />
		<tag k="ssr:stedsnr" v="578609" />
	</node>
	<node id="-6470" lat="62.6020805595" lon="6.20782223031">
		<tag k="name" v="Nedste Sjurgarden" />
		<tag k="place" v="farm" />
		<tag k="ssr:stedsnr" v="578607" />
	</node>
	<node id="-6464" lat="62.7483194461" lon="6.36735276923">
		<tag k="name" v="Nordigarden" />
		<tag k="place" v="isolated_dwelling" />
		<tag k="ssr:stedsnr" v="577918" />
	</node>
	<node id="-5758" lat="62.6224611087" lon="6.66608610263">
		<tag k="name" v="Hola" />
		<tag k="place" v="farm" />
		<tag k="ssr:stedsnr" v="337024" />
	</node>
	<node id="-9149" lat="62.6193888871" lon="6.21449444683">
		<tag k="name" v="Guttormgarden" />
		<tag k="place" v="farm" />
		<tag k="ssr:stedsnr" v="396677" />
	</node>
	<node id="-8508" lat="62.4689148796" lon="6.61731068004">
		<tag k="fixme" v="consider place=hamlet" />
		<tag k="name" v="Øvre Glomset" />
		<tag k="place" v="farm" />
		<tag k="ssr:stedsnr" v="156076" />
	</node>
	<node id="-6459" lat="62.7854999956" lon="6.46270277481">
		<tag k="name" v="Kravika" />
		<tag k="place" v="quarter" />
		<tag k="ssr:stedsnr" v="707453" />
	</node>
	<node id="-8506" lat="62.4671888935" lon="6.65794445269">
		<tag k="name" v="Indrebø" />
		<tag k="place" v="farm" />
		<tag k="ssr:stedsnr" v="156070" />
	</node>
	<node id="-4716" lat="62.4747277747" lon="6.23907777949">
		<tag k="amenity" v="school" />
		<tag k="name" v="Larsgården skole" />
		<tag k="ssr:stedsnr" v="38676" />
	</node>
	<node id="-6453" lat="62.477833335" lon="6.44055278146">
		<tag k="name" v="Reiten" />
		<tag k="place" v="farm" />
		<tag k="ssr:stedsnr" v="705973" />
	</node>
	<node id="-6451" lat="62.4387916672" lon="6.51340834151">
		<tag k="name" v="Plassen" />
		<tag k="place" v="isolated_dwelling" />
		<tag k="ssr:stedsnr" v="705943" />
	</node>
	<node id="-6450" lat="62.5143361146" lon="6.29169999067">
		<tag k="name" v="Lunberg" />
		<tag k="place" v="farm" />
		<tag k="ssr:stedsnr" v="705938" />
	</node>
	<node id="-8492" lat="62.5453027798" lon="6.56127500119">
		<tag k="name" v="Svenngarden" />
		<tag k="place" v="farm" />
		<tag k="ssr:stedsnr" v="155947" />
	</node>
	<node id="-6443" lat="62.4382554634" lon="6.44310701438">
		<tag k="name" v="Skillingen" />
		<tag k="place" v="farm" />
		<tag k="ssr:stedsnr" v="705674" />
	</node>
	<node id="-6440" lat="62.475938889" lon="6.18400554738">
		<tag k="leisure" v="pitch" />
		<tag k="name" v="Aksla stadion" />
		<tag k="ssr:stedsnr" v="705656" />
	</node>
	<node id="-4828" lat="62.4841134118" lon="6.8607317236">
		<tag k="fixme" v="consider place=hamlet" />
		<tag k="name" v="Gjerde" />
		<tag k="place" v="farm" />
		<tag k="ssr:stedsnr" v="253346" />
	</node>
	<node id="-8486" lat="62.5352777797" lon="6.41064722001">
		<tag k="name" v="Myrvang" />
		<tag k="place" v="farm" />
		<tag k="ssr:stedsnr" v="155754" />
	</node>
	<node id="-5261" lat="62.6459277744" lon="6.23259444225">
		<tag k="name" v="Massgarden" />
		<tag k="place" v="farm" />
		<tag k="ssr:stedsnr" v="214813" />
	</node>
	<node id="-5168" lat="62.5372027815" lon="6.63028889766">
		<tag k="name" v="Klokset" />
		<tag k="place" v="farm" />
		<tag k="ssr:stedsnr" v="181115" />
	</node>
	<node id="-8478" lat="62.5354527767" lon="6.6149416712">
		<tag k="name" v="Vilamgarden" />
		<tag k="place" v="farm" />
		<tag k="ssr:stedsnr" v="155623" />
	</node>
	<node id="-6428" lat="62.4769027777" lon="6.74843888185">
		<tag k="name" v="Hammaren" />
		<tag k="place" v="farm" />
		<tag k="ssr:stedsnr" v="703977" />
	</node>
	<node id="-5850" lat="62.5881833345" lon="6.66927500314">
		<tag k="historic" v="shieling" />
		<tag k="name" v="Dysasætra" />
		<tag k="place" v="locality" />
		<tag k="ssr:stedsnr" v="497353" />
	</node>
	<node id="-8458" lat="62.5563388862" lon="6.63932222815">
		<tag k="name" v="Giskebakken" />
		<tag k="place" v="farm" />
		<tag k="ssr:stedsnr" v="155481" />
	</node>
	<node id="-8919" lat="62.5663737287" lon="6.44914539249">
		<tag k="fixme" v="consider place=hamlet" />
		<tag k="name" v="Håvika" />
		<tag k="place" v="farm" />
		<tag k="ssr:stedsnr" v="337881" />
	</node>
	<node id="-8452" lat="62.4743935268" lon="6.66693830699">
		<tag k="fixme" v="consider place=hamlet" />
		<tag k="name" v="Valle" />
		<tag k="place" v="farm" />
		<tag k="ssr:stedsnr" v="155447" />
	</node>
	<node id="-8450" lat="62.5681944459" lon="6.73236388492">
		<tag k="name" v="Øysteingarden" />
		<tag k="place" v="farm" />
		<tag k="ssr:stedsnr" v="155413" />
	</node>
	<node id="-9215" lat="62.6065722242" lon="6.35630832504">
		<tag k="name" v="Korsnesgarden" />
		<tag k="place" v="farm" />
		<tag k="ssr:stedsnr" v="398616" />
	</node>
	<node id="-8441" lat="62.6054583362" lon="6.21313610488">
		<tag k="name" v="Andersgarden" />
		<tag k="place" v="farm" />
		<tag k="ssr:stedsnr" v="154691" />
	</node>
	<node id="-8440" lat="62.6082611129" lon="6.20140555444">
		<tag k="name" v="Gryt-Olagarden" />
		<tag k="place" v="farm" />
		<tag k="ssr:stedsnr" v="154685" />
	</node>
	<node id="-6386" lat="62.5001555545" lon="6.71979444119">
		<tag k="name" v="Lars-Petterplassen" />
		<tag k="place" v="farm" />
		<tag k="ssr:stedsnr" v="703084" />
	</node>
	<node id="-6385" lat="62.5149305538" lon="6.47338612012">
		<tag k="name" v="Duåsen" />
		<tag k="place" v="farm" />
		<tag k="ssr:stedsnr" v="703073" />
	</node>
	<node id="-6384" lat="62.5045861116" lon="6.4541194512">
		<tag k="alt_name" v="Halvorplassen" />
		<tag k="name" v="Halvardsplassen" />
		<tag k="place" v="locality" />
		<tag k="ssr:stedsnr" v="703065" />
	</node>
	<node id="-8427" lat="62.6473305594" lon="6.2280777856">
		<tag k="name" v="Martingjerdet" />
		<tag k="place" v="farm" />
		<tag k="ssr:stedsnr" v="153818" />
	</node>
	<node id="-8737" lat="62.6434916652" lon="6.23560278139">
		<tag k="name" v="Toregarden" />
		<tag k="place" v="farm" />
		<tag k="ssr:stedsnr" v="214795" />
	</node>
	<node id="-6377" lat="62.551063886" lon="6.53241389537">
		<tag k="name" v="Bjønnadalsheia" />
		<tag k="place" v="isolated_dwelling" />
		<tag k="ssr:stedsnr" v="702557" />
	</node>
	<node id="-8424" lat="62.6300694401" lon="6.26208333726">
		<tag k="name" v="Sjur-Olagarden" />
		<tag k="place" v="farm" />
		<tag k="ssr:stedsnr" v="153714" />
	</node>
	<node id="-8421" lat="62.6359166643" lon="6.24463888618">
		<tag k="name" v="Markagarden" />
		<tag k="place" v="farm" />
		<tag k="ssr:stedsnr" v="153604" />
	</node>
	<node id="-8415" lat="62.6549472201" lon="6.1988444477">
		<tag k="name" v="Knutgarden" />
		<tag k="place" v="farm" />
		<tag k="ssr:stedsnr" v="153492" />
	</node>
	<node id="-8412" lat="62.6667638894" lon="6.27531667373">
		<tag k="name" v="Longvabakken" />
		<tag k="place" v="farm" />
		<tag k="ssr:stedsnr" v="153365" />
	</node>
	<node id="-8411" lat="62.6694750034" lon="6.2682916667">
		<tag k="name" v="Larsolagarden" />
		<tag k="place" v="farm" />
		<tag k="ssr:stedsnr" v="153355" />
	</node>
	<node id="-8409" lat="62.771566664" lon="6.46856112021">
		<tag k="name" v="Garden" />
		<tag k="place" v="farm" />
		<tag k="ssr:stedsnr" v="153219" />
	</node>
	<node id="-8408" lat="62.7808036445" lon="6.46498657512">
		<tag k="fixme" v="consider place=hamlet" />
		<tag k="name" v="Harneshaugen" />
		<tag k="place" v="farm" />
		<tag k="ssr:stedsnr" v="153212" />
	</node>
	<node id="-8406" lat="62.7789500011" lon="6.47216944946">
		<tag k="name" v="Skeidsvollen" />
		<tag k="place" v="farm" />
		<tag k="ssr:stedsnr" v="153203" />
	</node>
	<node id="-6357" lat="62.5857027743" lon="6.6296027872">
		<tag k="name" v="Fjøsmurane" />
		<tag k="place" v="locality" />
		<tag k="ssr:stedsnr" v="701978" />
	</node>
	<node id="-6350" lat="62.6543222204" lon="6.31694444075">
		<tag k="name" v="Rognegjerdet" />
		<tag k="place" v="farm" />
		<tag k="ssr:stedsnr" v="557953" />
	</node>
	<node id="-8388" lat="62.8130888857" lon="6.53195000675">
		<tag k="name" v="Myra" />
		<tag k="place" v="isolated_dwelling" />
		<tag k="ssr:stedsnr" v="152077" />
	</node>
	<node id="-8385" lat="62.4772249999" lon="6.37388055845">
		<tag k="fixme" v="consider place=suburb, village or hamlet" />
		<tag k="name" v="Olsvika" />
		<tag k="place" v="quarter" />
		<tag k="ssr:stedsnr" v="146125" />
	</node>
	<node id="-5152" lat="62.469158335" lon="6.26112777486">
		<tag k="fixme" v="consider place=hamlet" />
		<tag k="name" v="Gåseidneset" />
		<tag k="place" v="farm" />
		<tag k="ssr:stedsnr" v="281687" />
	</node>
	<node id="-8380" lat="62.5439805583" lon="6.5781916751">
		<tag k="fixme" v="consider place=hamlet" />
		<tag k="name" v="Eidsvika" />
		<tag k="place" v="farm" />
		<tag k="ssr:stedsnr" v="142866" />
	</node>
	<node id="-8379" lat="62.5152796908" lon="6.46674039028">
		<tag k="fixme" v="consider place=hamlet" />
		<tag k="name" v="Mauren" />
		<tag k="place" v="farm" />
		<tag k="ssr:stedsnr" v="141913" />
	</node>
	<node id="-8372" lat="62.6546083359" lon="6.21786666471">
		<tag k="name" v="Stølen" />
		<tag k="place" v="farm" />
		<tag k="ssr:stedsnr" v="133964" />
	</node>
	<node id="-8369" lat="62.6911944483" lon="6.41023054793">
		<tag k="name" v="Davika" />
		<tag k="place" v="farm" />
		<tag k="ssr:stedsnr" v="133879" />
	</node>
	<node id="-6320" lat="62.5392940381" lon="6.69326113532">
		<tag k="fixme" v="consider place=hamlet" />
		<tag k="name" v="Ytre Eikrol" />
		<tag k="place" v="farm" />
		<tag k="ssr:stedsnr" v="557153" />
	</node>
	<node id="-8365" lat="62.5148916681" lon="6.77531667362">
		<tag k="alt_name" v="Apalvikstølen" />
		<tag k="historic" v="shieling" />
		<tag k="name" v="Apalviksætra" />
		<tag k="place" v="locality" />
		<tag k="ssr:stedsnr" v="133867" />
	</node>
	<node id="-6316" lat="62.5350944467" lon="6.58684443859">
		<tag k="name" v="Andersgarden" />
		<tag k="place" v="farm" />
		<tag k="ssr:stedsnr" v="701699" />
	</node>
	<node id="-6315" lat="62.5344972228" lon="6.58846389747">
		<tag k="name" v="Pegarden" />
		<tag k="place" v="farm" />
		<tag k="ssr:stedsnr" v="701698" />
	</node>
	<node id="-6312" lat="62.5574722206" lon="6.65965554961">
		<tag k="name" v="Ivagjerdet" />
		<tag k="place" v="farm" />
		<tag k="ssr:stedsnr" v="557224" />
	</node>
	<node id="-6310" lat="62.5567749998" lon="6.56467777039">
		<tag k="name" v="Hagesætra" />
		<tag k="place" v="locality" />
		<tag k="ssr:stedsnr" v="557217" />
	</node>
	<node id="-6308" lat="62.5370527755" lon="6.48607500811">
		<tag k="name" v="Fredheim" />
		<tag k="place" v="farm" />
		<tag k="ssr:stedsnr" v="557208" />
	</node>
	<node id="-6307" lat="62.5443333333" lon="6.55822778688">
		<tag k="name" v="Skogane" />
		<tag k="place" v="farm" />
		<tag k="ssr:stedsnr" v="557206" />
	</node>
	<node id="-6305" lat="62.7543944415" lon="6.45001666725">
		<tag k="name" v="Stangvik" />
		<tag k="place" v="farm" />
		<tag k="ssr:stedsnr" v="557058" />
	</node>
	<node id="-6303" lat="62.6063000023" lon="6.35794166517">
		<tag k="name" v="Gustavgarden" />
		<tag k="place" v="farm" />
		<tag k="ssr:stedsnr" v="701667" />
	</node>
	<node id="-6302" lat="62.5367277745" lon="6.62079443548">
		<tag k="name" v="Pergjerdet" />
		<tag k="place" v="farm" />
		<tag k="ssr:stedsnr" v="701664" />
	</node>
	<node id="-4805" lat="62.7339249979" lon="6.44158611016">
		<tag k="name" v="Ytrebøen" />
		<tag k="place" v="farm" />
		<tag k="ssr:stedsnr" v="72828" />
	</node>
	<node id="-9280" lat="62.4816166694" lon="6.78982222354">
		<tag k="name" v="Martinusplassen" />
		<tag k="place" v="farm" />
		<tag k="ssr:stedsnr" v="399647" />
	</node>
	<node id="-6297" lat="62.4826521058" lon="6.80272144801">
		<tag k="fixme" v="consider place=hamlet" />
		<tag k="name" v="Sjøholtstranda" />
		<tag k="place" v="farm" />
		<tag k="ssr:stedsnr" v="556357" />
	</node>
	<node id="-6296" lat="62.4867934615" lon="6.80826268146">
		<tag k="fixme" v="consider place=hamlet" />
		<tag k="name" v="Li" />
		<tag k="place" v="farm" />
		<tag k="ssr:stedsnr" v="556355" />
	</node>
	<node id="-6295" lat="62.4564157722" lon="6.94548746614">
		<tag k="fixme" v="consider place=hamlet" />
		<tag k="name" v="Sæter" />
		<tag k="place" v="farm" />
		<tag k="ssr:stedsnr" v="556413" />
	</node>
	<node id="-6286" lat="62.5619305521" lon="6.71569166693">
		<tag k="historic" v="shieling" />
		<tag k="name" v="Hoveselet" />
		<tag k="place" v="locality" />
		<tag k="ssr:stedsnr" v="701423" />
	</node>
	<node id="-8332" lat="62.5483333291" lon="6.27980278504">
		<tag k="name" v="Ebbevika" />
		<tag k="place" v="farm" />
		<tag k="ssr:stedsnr" v="133239" />
	</node>
	<node id="-8329" lat="62.5490428039" lon="6.45914954568">
		<tag k="fixme" v="consider place=hamlet" />
		<tag k="name" v="Skulstad" />
		<tag k="place" v="farm" />
		<tag k="ssr:stedsnr" v="133232" />
	</node>
	<node id="-4710" lat="62.5018722243" lon="6.23509721877">
		<tag k="name" v="Straumsvika" />
		<tag k="place" v="farm" />
		<tag k="ssr:stedsnr" v="38560" />
	</node>
	<node id="-8321" lat="62.7543916705" lon="6.47879443591">
		<tag k="name" v="Nordheim" />
		<tag k="place" v="farm" />
		<tag k="ssr:stedsnr" v="133043" />
	</node>
	<node id="-6271" lat="62.5950361134" lon="6.29962500587">
		<tag k="name" v="Toregarden" />
		<tag k="place" v="farm" />
		<tag k="ssr:stedsnr" v="699948" />
	</node>
	<node id="-6270" lat="62.5926138859" lon="6.28891943868">
		<tag k="name" v="Åse-Karlgarden" />
		<tag k="place" v="farm" />
		<tag k="ssr:stedsnr" v="699946" />
	</node>
	<node id="-8313" lat="62.6065318034" lon="6.63088786722">
		<tag k="fixme" v="consider place=hamlet" />
		<tag k="name" v="Orvika" />
		<tag k="place" v="farm" />
		<tag k="ssr:stedsnr" v="132394" />
	</node>
	<node id="-6264" lat="62.6874166701" lon="6.23576111543">
		<tag k="name" v="Hildregarden" />
		<tag k="place" v="farm" />
		<tag k="ssr:stedsnr" v="699300" />
	</node>
	<node id="-8308" lat="62.6003027821" lon="6.67875000325">
		<tag k="name" v="Ura" />
		<tag k="place" v="farm" />
		<tag k="ssr:stedsnr" v="132366" />
	</node>
	<node id="-6846" lat="62.7063472243" lon="6.36288888879">
		<tag k="name" v="Bakken" />
		<tag k="place" v="farm" />
		<tag k="ssr:stedsnr" v="700958" />
	</node>
	<node id="-8305" lat="62.5960277775" lon="6.47046944615">
		<tag k="name" v="Midtbøen" />
		<tag k="place" v="farm" />
		<tag k="ssr:stedsnr" v="132357" />
	</node>
	<node id="-6256" lat="62.7779111088" lon="6.46469166944">
		<tag k="name" v="Madsstova" />
		<tag k="place" v="farm" />
		<tag k="ssr:stedsnr" v="699186" />
	</node>
	<node id="-7869" lat="62.5623452633" lon="6.61949673475">
		<tag k="alt_name" v="Heimigarden" />
		<tag k="name" v="Heimigard" />
		<tag k="place" v="farm" />
		<tag k="ssr:stedsnr" v="33648" />
	</node>
	<node id="-6250" lat="62.6066972201" lon="6.1861916693">
		<tag k="name" v="Mikkelgarden" />
		<tag k="place" v="farm" />
		<tag k="ssr:stedsnr" v="697617" />
	</node>
	<node id="-8295" lat="62.4952141707" lon="6.71090984604">
		<tag k="fixme" v="consider place=hamlet" />
		<tag k="name" v="Apalvika" />
		<tag k="place" v="farm" />
		<tag k="ssr:stedsnr" v="132216" />
	</node>
	<node id="-8294" lat="62.485497749" lon="6.50147394937">
		<tag k="fixme" v="consider place=hamlet" />
		<tag k="name" v="Slettebakken" />
		<tag k="place" v="farm" />
		<tag k="ssr:stedsnr" v="132211" />
	</node>
	<node id="-6244" lat="62.4523154842" lon="6.89366659241">
		<tag k="fixme" v="consider place=hamlet" />
		<tag k="name" v="Vaksvik" />
		<tag k="place" v="farm" />
		<tag k="ssr:stedsnr" v="693098" />
	</node>
	<node id="-9139" lat="62.6578055544" lon="6.24093610261">
		<tag k="fixme" v="consider place=hamlet" />
		<tag k="name" v="Haram" />
		<tag k="place" v="village" />
		<tag k="ssr:stedsnr" v="396308" />
	</node>
	<node id="-8287" lat="62.5338388871" lon="6.34858333804">
		<tag k="name" v="Solvang" />
		<tag k="place" v="farm" />
		<tag k="ssr:stedsnr" v="132193" />
	</node>
	<node id="-8283" lat="62.462816665" lon="6.33733055006">
		<tag k="fixme" v="consider place=suburb, village or hamlet" />
		<tag k="loc_name" v="Furumyra" />
		<tag k="name" v="Furmyra" />
		<tag k="place" v="quarter" />
		<tag k="ssr:stedsnr" v="132005" />
	</node>
	<node id="-6234" lat="62.4978944403" lon="6.25545277946">
		<tag k="name" v="Nausa" />
		<tag k="place" v="farm" />
		<tag k="ssr:stedsnr" v="523959" />
	</node>
	<node id="-6233" lat="62.4651327522" lon="6.24382030291">
		<tag k="fixme" v="consider place=hamlet" />
		<tag k="name" v="Klokkarsundet" />
		<tag k="place" v="farm" />
		<tag k="ssr:stedsnr" v="523954" />
	</node>
	<node id="-8280" lat="62.5211694411" lon="6.63634721482">
		<tag k="name" v="Stette næringsområde" />
		<tag k="place" v="quarter" />
		<tag k="ssr:stedsnr" v="120912" />
	</node>
	<node id="-6231" lat="62.5082783307" lon="6.3179836424">
		<tag k="fixme" v="consider place=hamlet" />
		<tag k="name" v="Nedre Volstad" />
		<tag k="place" v="farm" />
		<tag k="ssr:stedsnr" v="523614" />
	</node>
	<node id="-8278" lat="62.5241472221" lon="6.58835555714">
		<tag k="name" v="Opskar" />
		<tag k="place" v="quarter" />
		<tag k="ssr:stedsnr" v="120897" />
	</node>
	<node id="-8277" lat="62.4773777778" lon="6.89172499233">
		<tag k="name" v="Lisetsætra" />
		<tag k="place" v="neighbourhood" />
		<tag k="ssr:stedsnr" v="120722" />
	</node>
	<node id="-8276" lat="62.4462277772" lon="6.96713055496">
		<tag k="name" v="Visetsætra" />
		<tag k="place" v="neighbourhood" />
		<tag k="ssr:stedsnr" v="120715" />
	</node>
	<node id="-8274" lat="62.4782833288" lon="6.81846665921">
		<tag k="fixme" v="consider place=hamlet" />
		<tag k="name" v="Ørskog" />
		<tag k="place" v="farm" />
		<tag k="ssr:stedsnr" v="119267" />
	</node>
	<node id="-8270" lat="62.4713453409" lon="6.20558033243">
		<tag k="fixme" v="consider place=hamlet" />
		<tag k="loc_name" v="Lillenørve" />
		<tag k="name" v="Litle Nørve" />
		<tag k="place" v="farm" />
		<tag k="ssr:stedsnr" v="117280" />
	</node>
	<node id="-9229" lat="62.5033315676" lon="6.68860111198">
		<tag k="fixme" v="consider place=hamlet" />
		<tag k="name" v="Nedre Skodje" />
		<tag k="place" v="farm" />
		<tag k="ssr:stedsnr" v="399079" />
	</node>
	<node id="-8268" lat="62.463519448" lon="6.25361388176">
		<tag k="fixme" v="consider natural=beach + surface=sand" />
		<tag k="leisure" v="swimming_area" />
		<tag k="name" v="Prinsen friluftsbad" />
		<tag k="place" v="locality" />
		<tag k="ssr:stedsnr" v="117138" />
	</node>
	<node id="-6215" lat="62.6110833321" lon="6.20572500129">
		<tag k="name" v="Gunnargarden" />
		<tag k="place" v="farm" />
		<tag k="ssr:stedsnr" v="517732" />
	</node>
	<node id="-5814" lat="62.6210338998" lon="6.66887290496">
		<tag k="fixme" v="consider place=hamlet" />
		<tag k="name" v="Byrkjevollen" />
		<tag k="place" v="farm" />
		<tag k="ssr:stedsnr" v="496482" />
	</node>
	<node id="-6210" lat="62.4573999983" lon="6.91093333481">
		<tag k="name" v="Sollia" />
		<tag k="place" v="hamlet" />
		<tag k="ssr:stedsnr" v="510920" />
	</node>
	<node id="-9227" lat="62.4999967539" lon="6.59367851139">
		<tag k="fixme" v="consider place=hamlet" />
		<tag k="name" v="Digernes" />
		<tag k="place" v="farm" />
		<tag k="ssr:stedsnr" v="399066" />
	</node>
	<node id="-8256" lat="62.7001111072" lon="6.42476111421">
		<tag k="name" v="Malsnes" />
		<tag k="place" v="isolated_dwelling" />
		<tag k="ssr:stedsnr" v="111899" />
	</node>
	<node id="-6207" lat="62.6551727555" lon="6.33310775313">
		<tag k="fixme" v="consider place=hamlet" />
		<tag k="name" v="Rogne" />
		<tag k="place" v="farm" />
		<tag k="ssr:stedsnr" v="497940" />
	</node>
	<node id="-5813" lat="62.6189361129" lon="6.66797500664">
		<tag k="name" v="Gjerdet" />
		<tag k="place" v="farm" />
		<tag k="ssr:stedsnr" v="496481" />
	</node>
	<node id="-6204" lat="62.7067805595" lon="6.41780276923">
		<tag k="name" v="Kongsneset" />
		<tag k="place" v="farm" />
		<tag k="ssr:stedsnr" v="497913" />
	</node>
	<node id="-5471" lat="62.5682416666" lon="6.59814999511">
		<tag k="historic" v="shieling" />
		<tag k="name" v="Ranskålnesstølen" />
		<tag k="place" v="locality" />
		<tag k="ssr:stedsnr" v="458845" />
	</node>
	<node id="-6200" lat="62.6406444407" lon="6.23518055923">
		<tag k="name" v="Rimma" />
		<tag k="place" v="farm" />
		<tag k="ssr:stedsnr" v="497476" />
	</node>
	<node id="-5129" lat="62.4375965706" lon="6.34699327625">
		<tag k="alt_name" v="Vegsundrabben" />
		<tag k="fixme" v="consider place=hamlet" />
		<tag k="name" v="Rabben" />
		<tag k="place" v="farm" />
		<tag k="ssr:stedsnr" v="159956" />
	</node>
	<node id="-6195" lat="62.5022000026" lon="6.31676111618">
		<tag k="name" v="Kleiva" />
		<tag k="place" v="locality" />
		<tag k="ssr:stedsnr" v="497136" />
	</node>
	<node id="-6194" lat="62.5087277735" lon="6.30123332886">
		<tag k="name" v="Rimane" />
		<tag k="place" v="locality" />
		<tag k="ssr:stedsnr" v="497135" />
	</node>
	<node id="-6190" lat="62.7587250035" lon="6.44713610944">
		<tag k="name" v="Midttun" />
		<tag k="place" v="farm" />
		<tag k="ssr:stedsnr" v="497053" />
	</node>
	<node id="-8237" lat="62.4451555512" lon="6.40592499429">
		<tag k="historic" v="shieling" />
		<tag k="name" v="Rabbesætra" />
		<tag k="place" v="locality" />
		<tag k="ssr:stedsnr" v="98626" />
	</node>
	<node id="-6185" lat="62.5572861138" lon="6.2750750081">
		<tag k="name" v="Gamlemshagen" />
		<tag k="place" v="farm" />
		<tag k="ssr:stedsnr" v="496296" />
	</node>
	<node id="-8232" lat="62.4346815665" lon="6.30721247938">
		<tag k="alt_name" v="Ytste Hanken" />
		<tag k="fixme" v="consider place=hamlet" />
		<tag k="name" v="Hanken" />
		<tag k="place" v="farm" />
		<tag k="ssr:stedsnr" v="98032" />
	</node>
	<node id="-8230" lat="62.4345055529" lon="6.35030833011">
		<tag k="amenity" v="nursing_home" />
		<tag k="name" v="Vegsund psykiatriske senter" />
		<tag k="old_name" v="Vegsund Pleieheim" />
		<tag k="ssr:stedsnr" v="97638" />
	</node>
	<node id="-8228" lat="62.4779055569" lon="6.75934165846">
		<tag k="name" v="Ruddberg" />
		<tag k="place" v="farm" />
		<tag k="ssr:stedsnr" v="96698" />
	</node>
	<node id="-8223" lat="62.4837963772" lon="6.82259762559">
		<tag k="fixme" v="consider place=hamlet" />
		<tag k="name" v="Sjøholt" />
		<tag k="place" v="farm" />
		<tag k="ssr:stedsnr" v="96725" />
	</node>
	<node id="-8222" lat="62.4566305555" lon="6.9333166663">
		<tag k="name" v="Nygården" />
		<tag k="place" v="farm" />
		<tag k="ssr:stedsnr" v="96722" />
	</node>
	<node id="-6170" lat="62.5464777771" lon="6.74753888644">
		<tag k="name" v="Bruna" />
		<tag k="place" v="locality" />
		<tag k="ssr:stedsnr" v="679921" />
	</node>
	<node id="-8212" lat="62.5367922687" lon="6.70633223559">
		<tag k="fixme" v="consider place=hamlet" />
		<tag k="name" v="Litle Engset" />
		<tag k="place" v="farm" />
		<tag k="ssr:stedsnr" v="96428" />
	</node>
	<node id="-6162" lat="62.518308337" lon="6.76985554987">
		<tag k="historic" v="shieling" />
		<tag k="name" v="Skodjestølen" />
		<tag k="place" v="locality" />
		<tag k="ssr:stedsnr" v="679790" />
	</node>
	<node id="-8457" lat="62.555872225" lon="6.64363054983">
		<tag k="name" v="Framgarden" />
		<tag k="place" v="farm" />
		<tag k="ssr:stedsnr" v="155477" />
	</node>
	<node id="-8201" lat="62.5005593445" lon="6.73103823475">
		<tag k="fixme" v="consider place=hamlet" />
		<tag k="name" v="Sjurslia" />
		<tag k="place" v="farm" />
		<tag k="ssr:stedsnr" v="96100" />
	</node>
	<node id="-6152" lat="62.5473861148" lon="6.28561111966">
		<tag k="name" v="Vollane" />
		<tag k="place" v="farm" />
		<tag k="ssr:stedsnr" v="679229" />
	</node>
	<node id="-5804" lat="62.533538591" lon="6.58964142865">
		<tag k="fixme" v="consider place=hamlet" />
		<tag k="name" v="Tennfjord" />
		<tag k="place" v="village" />
		<tag k="ssr:stedsnr" v="496234" />
	</node>
	<node id="-6150" lat="62.5335379947" lon="6.43734673739">
		<tag k="fixme" v="consider place=hamlet" />
		<tag k="name" v="Gjerset" />
		<tag k="place" v="farm" />
		<tag k="ssr:stedsnr" v="679188" />
	</node>
</osm>
