<?xml version="1.0" encoding="UTF-8"?>
<osm generator="osmapis" version="0.6">
	<node id="-51200" lat="62.4848027774" lon="6.61974166474">
		<tag k="highway" v="path" />
		<tag k="name" v="Sandgota" />
		<tag k="ssr:stedsnr" v="338056" />
	</node>
	<node id="-52734" lat="62.6597083373" lon="6.17942500308">
		<tag k="name" v="Goteledet" />
		<tag k="place" v="locality" />
		<tag k="ssr:stedsnr" v="942435" />
	</node>
	<node id="-51195" lat="62.619436112" lon="6.66436666172">
		<tag k="fixme" v="verify maritime location" />
		<tag k="mooring" v="yes" />
		<tag k="name" v="Ottringsstøa" />
		<tag k="place" v="locality" />
		<tag k="ssr:stedsnr" v="337492" />
	</node>
	<node id="-51701" lat="62.574272219" lon="6.26181665811">
		<tag k="bridge" v="yes" />
		<tag k="layer" v="1" />
		<tag k="name" v="Bjørnøybrua" />
		<tag k="ssr:stedsnr" v="699917" />
	</node>
	<node id="-50161" lat="62.4334222191" lon="6.35726666064">
		<tag k="bridge" v="yes" />
		<tag k="layer" v="1" />
		<tag k="name" v="Vegsundbrua" />
		<tag k="ssr:stedsnr" v="42006" />
	</node>
	<node id="-51683" lat="62.5628611116" lon="6.69714444283">
		<tag k="bridge" v="yes" />
		<tag k="layer" v="1" />
		<tag k="name" v="Sagåbrua" />
		<tag k="ssr:stedsnr" v="697275" />
	</node>
	<node id="-52706" lat="62.5360416694" lon="6.685125005">
		<tag k="bridge" v="yes" />
		<tag k="layer" v="1" />
		<tag k="name" v="Erstadbrua" />
		<tag k="ssr:stedsnr" v="939878" />
	</node>
	<node id="-52705" lat="62.519280556" lon="6.62583888933">
		<tag k="bridge" v="yes" />
		<tag k="layer" v="1" />
		<tag k="name" v="Skodjevågbrua" />
		<tag k="ssr:stedsnr" v="939872" />
	</node>
	<node id="-51680" lat="62.5947666643" lon="6.47171943892">
		<tag k="bridge" v="yes" />
		<tag k="layer" v="1" />
		<tag k="name" v="Ringstadbrua" />
		<tag k="ssr:stedsnr" v="697031" />
	</node>
	<node id="-51164" lat="62.5993805518" lon="6.67483888054">
		<tag k="bridge" v="yes" />
		<tag k="layer" v="1" />
		<tag k="name" v="Vestrebrua" />
		<tag k="ssr:stedsnr" v="333014" />
	</node>
	<node id="-51163" lat="62.4420305596" lon="6.36281388019">
		<tag k="bridge" v="yes" />
		<tag k="layer" v="1" />
		<tag k="name" v="Urdalsbrua" />
		<tag k="ssr:stedsnr" v="330326" />
	</node>
	<node id="-51672" lat="62.470725" lon="6.18167777501">
		<tag k="bridge" v="yes" />
		<tag k="layer" v="1" />
		<tag k="name" v="Sjøbanebroa" />
		<tag k="ssr:stedsnr" v="526037" />
	</node>
	<node id="-50852" lat="62.5843694445" lon="6.28266665803">
		<tag k="highway" v="path" />
		<tag k="name" v="Remmevegen" />
		<tag k="ssr:stedsnr" v="457891" />
	</node>
	<node id="-52175" lat="62.5829638921" lon="6.62133888219">
		<tag k="fixme" v="verify maritime location" />
		<tag k="mooring" v="yes" />
		<tag k="name" v="Friarstøa" />
		<tag k="place" v="locality" />
		<tag k="ssr:stedsnr" v="883989" />
	</node>
	<node id="-52685" lat="62.5022361111" lon="6.61666945248">
		<tag k="bridge" v="yes" />
		<tag k="layer" v="1" />
		<tag k="name" v="Skodjebrua" />
		<tag k="ssr:stedsnr" v="934600" />
	</node>
	<node id="-50120" lat="62.4587222182" lon="6.35528611693">
		<tag k="bridge" v="yes" />
		<tag k="layer" v="1" />
		<tag k="name" v="Sandingbrua" />
		<tag k="ssr:stedsnr" v="223050" />
	</node>
	<node id="-52679" lat="62.44740278" lon="6.54163889378">
		<tag k="highway" v="path" />
		<tag k="name" v="Styggestigen" />
		<tag k="ssr:stedsnr" v="827652" />
	</node>
	<node id="-50872" lat="62.4910222262" lon="6.7264861113">
		<tag k="layer" v="-1" />
		<tag k="name" v="Hølsbøundergangen" />
		<tag k="ssr:stedsnr" v="271903" />
		<tag k="tunnel" v="yes" />
	</node>
	<node id="-51647" lat="62.6170111121" lon="6.53263055559">
		<tag k="bridge" v="yes" />
		<tag k="layer" v="1" />
		<tag k="name" v="Skorabrua" />
		<tag k="ssr:stedsnr" v="515011" />
	</node>
	<node id="-52670" lat="62.4708138888" lon="6.15171665723">
		<tag k="bridge" v="yes" />
		<tag k="layer" v="1" />
		<tag k="name" v="Hellebrua" />
		<tag k="ssr:stedsnr" v="825012" />
	</node>
	<node id="-52658" lat="62.5004722244" lon="6.89003055201">
		<tag k="name" v="Stortrøna" />
		<tag k="place" v="locality" />
		<tag k="ssr:stedsnr" v="824512" />
	</node>
	<node id="-52649" lat="62.4793583352" lon="6.66620000052">
		<tag k="junction" v="yes" />
		<tag k="name" v="Valleskiftet" />
		<tag k="place" v="locality" />
		<tag k="ssr:stedsnr" v="824404" />
	</node>
	<node id="-50598" lat="62.4703330404" lon="6.23031741517">
		<tag k="layer" v="-1" />
		<tag k="name" v="Sørnestunnelen" />
		<tag k="ssr:stedsnr" v="285002" />
		<tag k="tunnel" v="yes" />
	</node>
	<node id="-50593" lat="62.4589083326" lon="6.3557166613">
		<tag k="bridge" v="yes" />
		<tag k="layer" v="1" />
		<tag k="name" v="Kraftverksbrua" />
		<tag k="ssr:stedsnr" v="284040" />
	</node>
	<node id="-50586" lat="62.4678416685" lon="6.14237777726">
		<tag k="man_made" v="quay" />
		<tag k="name" v="Skutvikpiren" />
		<tag k="place" v="locality" />
		<tag k="ssr:stedsnr" v="281698" />
	</node>
	<node id="-50072" lat="62.4603388903" lon="6.35767221519">
		<tag k="bridge" v="yes" />
		<tag k="layer" v="1" />
		<tag k="name" v="Liljedahlbrua" />
		<tag k="ssr:stedsnr" v="218077" />
	</node>
	<node id="-50071" lat="62.4705194439" lon="6.32388888826">
		<tag k="bridge" v="yes" />
		<tag k="layer" v="1" />
		<tag k="name" v="Nakkevikgangbrua" />
		<tag k="ssr:stedsnr" v="218073" />
	</node>
	<node id="-50064" lat="62.5115777769" lon="6.93521110413">
		<tag k="fixme" v="consider highway=path" />
		<tag k="highway" v="track" />
		<tag k="name" v="Kvanndalsvegen" />
		<tag k="ssr:stedsnr" v="217565" />
	</node>
	<node id="-52120" lat="62.7263555512" lon="6.45592221891">
		<tag k="leisure" v="marina" />
		<tag k="name" v="Myklebusthamna" />
		<tag k="ssr:stedsnr" v="678810" />
	</node>
	<node id="-50056" lat="62.4524388851" lon="6.89790556186">
		<tag k="junction" v="yes" />
		<tag k="name" v="Kristianskiftet" />
		<tag k="place" v="locality" />
		<tag k="ssr:stedsnr" v="217489" />
	</node>
	<node id="-50055" lat="62.4743027781" lon="6.8755333386">
		<tag k="fixme" v="consider highway=path" />
		<tag k="highway" v="track" />
		<tag k="name" v="Kontrasvingen" />
		<tag k="ssr:stedsnr" v="217482" />
	</node>
	<node id="-50050" lat="62.5110749966" lon="6.6933194476">
		<tag k="highway" v="path" />
		<tag k="name" v="Reiteløypa" />
		<tag k="ssr:stedsnr" v="217442" />
	</node>
	<node id="-52095" lat="62.6017472191" lon="6.21852777255">
		<tag k="leisure" v="marina" />
		<tag k="name" v="Lausund" />
		<tag k="ssr:stedsnr" v="882524" />
	</node>
	<node id="-50556" lat="62.4754944433" lon="6.1508722208">
		<tag k="man_made" v="quay" />
		<tag k="name" v="Skansekaia" />
		<tag k="place" v="locality" />
		<tag k="ssr:stedsnr" v="279694" />
	</node>
	<node id="-52595" lat="62.4773583322" lon="6.86351667326">
		<tag k="bridge" v="yes" />
		<tag k="layer" v="1" />
		<tag k="name" v="Valgermobrua" />
		<tag k="ssr:stedsnr" v="819259" />
	</node>
	<node id="-52594" lat="62.4987055523" lon="6.79707223168">
		<tag k="bridge" v="yes" />
		<tag k="layer" v="1" />
		<tag k="name" v="Solnørdalsbrua" />
		<tag k="ssr:stedsnr" v="819258" />
	</node>
	<node id="-52593" lat="62.5909583334" lon="6.26196945385">
		<tag k="bridge" v="yes" />
		<tag k="layer" v="1" />
		<tag k="name" v="Lepsøyrevbrua" />
		<tag k="ssr:stedsnr" v="818221" />
	</node>
	<node id="-51056" lat="62.4702916655" lon="6.35664722859">
		<tag k="bridge" v="yes" />
		<tag k="layer" v="1" />
		<tag k="name" v="Holsbrua" />
		<tag k="ssr:stedsnr" v="461434" />
	</node>
	<node id="-51055" lat="62.4436250007" lon="6.31048055008">
		<tag k="bridge" v="yes" />
		<tag k="layer" v="1" />
		<tag k="name" v="Humlebrua" />
		<tag k="ssr:stedsnr" v="461099" />
	</node>
	<node id="-51054" lat="62.4372888677" lon="6.35623838069">
		<tag k="layer" v="-1" />
		<tag k="name" v="Søndre Blindheimsundergangen" />
		<tag k="ssr:stedsnr" v="461046" />
		<tag k="tunnel" v="yes" />
	</node>
	<node id="-53101" lat="62.4633111067" lon="6.35573333088">
		<tag k="bridge" v="yes" />
		<tag k="layer" v="1" />
		<tag k="name" v="Nedregårdsbrua" />
		<tag k="ssr:stedsnr" v="951045" />
	</node>
	<node id="-53100" lat="62.4609694435" lon="6.35929443644">
		<tag k="bridge" v="yes" />
		<tag k="layer" v="1" />
		<tag k="name" v="Mittetskogbrua" />
		<tag k="ssr:stedsnr" v="951039" />
	</node>
	<node id="-52070" lat="62.7481166657" lon="6.43203610408">
		<tag k="fixme" v="verify maritime location" />
		<tag k="mooring" v="yes" />
		<tag k="name" v="Jaktestøa" />
		<tag k="place" v="locality" />
		<tag k="ssr:stedsnr" v="881331" />
	</node>
	<node id="-50530" lat="62.4674694819" lon="6.27256586793">
		<tag k="layer" v="-1" />
		<tag k="name" v="Vandbergundergangen" />
		<tag k="ssr:stedsnr" v="278529" />
		<tag k="tunnel" v="yes" />
	</node>
	<node id="-53082" lat="62.5560416648" lon="6.61124443718">
		<tag k="bridge" v="yes" />
		<tag k="layer" v="1" />
		<tag k="name" v="Vatnebrua" />
		<tag k="ssr:stedsnr" v="940012" />
	</node>
	<node id="-52055" lat="62.4806527766" lon="6.8252277692">
		<tag k="bridge" v="yes" />
		<tag k="layer" v="1" />
		<tag k="name" v="Steinholtbrua" />
		<tag k="ssr:stedsnr" v="880225" />
	</node>
	<node id="-52054" lat="62.6831361118" lon="6.22726667603">
		<tag k="bridge" v="yes" />
		<tag k="layer" v="1" />
		<tag k="name" v="Flemsbrua" />
		<tag k="ssr:stedsnr" v="879247" />
	</node>
	<node id="-52053" lat="62.5434666637" lon="6.52201665872">
		<tag k="bridge" v="yes" />
		<tag k="layer" v="1" />
		<tag k="name" v="Geitgrovbrua" />
		<tag k="ssr:stedsnr" v="879228" />
	</node>
	<node id="-50516" lat="62.4641444439" lon="6.55704167607">
		<tag k="highway" v="path" />
		<tag k="name" v="Styggestigen" />
		<tag k="ssr:stedsnr" v="278388" />
	</node>
	<node id="-52050" lat="62.44598889" lon="6.35820554582">
		<tag k="bridge" v="yes" />
		<tag k="layer" v="1" />
		<tag k="name" v="Furutunbrua" />
		<tag k="ssr:stedsnr" v="877339" />
	</node>
	<node id="-52049" lat="62.4607944443" lon="6.35961388998">
		<tag k="bridge" v="yes" />
		<tag k="layer" v="1" />
		<tag k="name" v="Nedrevollbrua" />
		<tag k="ssr:stedsnr" v="877338" />
	</node>
	<node id="-51682" lat="62.588322226" lon="6.44730277449">
		<tag k="bridge" v="yes" />
		<tag k="layer" v="1" />
		<tag k="name" v="Instevågbrua" />
		<tag k="ssr:stedsnr" v="697233" />
	</node>
	<node id="-51681" lat="62.4856888901" lon="6.48844999345">
		<tag k="layer" v="-1" />
		<tag k="name" v="Reiakvamundergangen" />
		<tag k="ssr:stedsnr" v="696874" />
		<tag k="tunnel" v="yes" />
	</node>
	<node id="-51520" lat="62.544391668" lon="6.51504999371">
		<tag k="highway" v="path" />
		<tag k="name" v="Kvernhusledet" />
		<tag k="ssr:stedsnr" v="459174" />
	</node>
	<node id="-51509" lat="62.5448222225" lon="6.59119722936">
		<tag k="bridge" v="yes" />
		<tag k="layer" v="1" />
		<tag k="loc_name" v="Eidsvikeidbrua" />
		<tag k="name" v="Vatneeidbrua" />
		<tag k="ssr:stedsnr" v="454043" />
	</node>
	<node id="-52016" lat="62.4701083334" lon="6.16320277024">
		<tag k="man_made" v="quay" />
		<tag k="name" v="Meierikaia" />
		<tag k="place" v="locality" />
		<tag k="ssr:stedsnr" v="724033" />
	</node>
	<node id="-51502" lat="62.6161722227" lon="6.28211388447">
		<tag k="name" v="Leia" />
		<tag k="place" v="locality" />
		<tag k="ssr:stedsnr" v="658722" />
	</node>
	<node id="-51499" lat="62.6737194489" lon="5.99070833817">
		<tag k="name" v="Nørdre leia" />
		<tag k="place" v="locality" />
		<tag k="ssr:stedsnr" v="658343" />
	</node>
	<node id="-53031" lat="62.4382333342" lon="6.3434138973">
		<tag k="bridge" v="yes" />
		<tag k="layer" v="1" />
		<tag k="name" v="Tjørsundbrua" />
		<tag k="ssr:stedsnr" v="892004" />
	</node>
	<node id="-53024" lat="62.4523805512" lon="6.51081388222">
		<tag k="fixme" v="consider highway=path" />
		<tag k="highway" v="track" />
		<tag k="name" v="Sætrevegen" />
		<tag k="ssr:stedsnr" v="887612" />
	</node>
	<node id="-53016" lat="62.7259166647" lon="6.45832500989">
		<tag k="amenity" v="ferry_terminal" />
		<tag k="name" v="Harøya ferjekai" />
		<tag k="ssr:stedsnr" v="217134" />
	</node>
	<node id="-52998" lat="62.4793666691" lon="6.88887500036">
		<tag k="fixme" v="consider highway=path" />
		<tag k="highway" v="track" />
		<tag k="name" v="Høgsætervegen" />
		<tag k="ssr:stedsnr" v="885510" />
	</node>
	<node id="-52707" lat="62.5683305573" lon="6.73225000417">
		<tag k="bridge" v="yes" />
		<tag k="layer" v="1" />
		<tag k="name" v="Bergebrua" />
		<tag k="ssr:stedsnr" v="940247" />
	</node>
	<node id="-50938" lat="62.8640166658" lon="6.54471667334">
		<tag k="amenity" v="ferry_terminal" />
		<tag k="name" v="Ona ferjekai" />
		<tag k="ssr:stedsnr" v="277124" />
	</node>
	<node id="-51438" lat="62.6700249964" lon="6.26087777407">
		<tag k="man_made" v="quay" />
		<tag k="name" v="Gjerdekaia" />
		<tag k="place" v="locality" />
		<tag k="ssr:stedsnr" v="518369" />
	</node>
	<node id="-51434" lat="62.7351583353" lon="6.45260278379">
		<tag k="highway" v="path" />
		<tag k="name" v="Rekstien" />
		<tag k="ssr:stedsnr" v="517753" />
	</node>
	<node id="-51429" lat="62.6521194433" lon="6.25141389414">
		<tag k="fixme" v="verify maritime location" />
		<tag k="mooring" v="yes" />
		<tag k="name" v="Jaktestøa" />
		<tag k="place" v="locality" />
		<tag k="ssr:stedsnr" v="517580" />
	</node>
	<node id="-50404" lat="62.5560305565" lon="6.61112778653">
		<tag k="bridge" v="yes" />
		<tag k="layer" v="1" />
		<tag k="name" v="Vatnegangbrua" />
		<tag k="ssr:stedsnr" v="150014" />
	</node>
	<node id="-50403" lat="62.7428361079" lon="6.44354999842">
		<tag k="highway" v="path" />
		<tag k="name" v="Nautegotå" />
		<tag k="ssr:stedsnr" v="274446" />
	</node>
	<node id="-52956" lat="62.478008334" lon="6.24349166469">
		<tag k="landuse" v="industrial" />
		<tag k="name" v="Nørve sekundærstasjon" />
		<tag k="power" v="plant" />
		<tag k="ssr:stedsnr" v="948745" />
	</node>
	<node id="-50127" lat="62.4706999998" lon="6.12473888265">
		<tag k="bridge" v="yes" />
		<tag k="layer" v="1" />
		<tag k="name" v="Steinvågbrua" />
		<tag k="ssr:stedsnr" v="225009" />
	</node>
	<node id="-51919" lat="62.623372221" lon="6.60422222962">
		<tag k="fixme" v="verify maritime location" />
		<tag k="mooring" v="yes" />
		<tag k="name" v="Mjølkestøda" />
		<tag k="place" v="locality" />
		<tag k="ssr:stedsnr" v="580309" />
	</node>
	<node id="-52941" lat="62.4705277801" lon="6.32396667015">
		<tag k="bridge" v="yes" />
		<tag k="layer" v="1" />
		<tag k="name" v="Nakkevikbrua" />
		<tag k="ssr:stedsnr" v="947096" />
	</node>
	<node id="-52940" lat="62.4697749955" lon="6.30926665956">
		<tag k="bridge" v="yes" />
		<tag k="layer" v="1" />
		<tag k="name" v="Lerstadgangbrua" />
		<tag k="ssr:stedsnr" v="947089" />
	</node>
	<node id="-52426" lat="62.4648250013" lon="6.38316667419">
		<tag k="bridge" v="yes" />
		<tag k="layer" v="1" />
		<tag k="name" v="Fremmerholbrua" />
		<tag k="ssr:stedsnr" v="769040" />
	</node>
	<node id="-50365" lat="62.5018916703" lon="6.62432777603">
		<tag k="bridge" v="yes" />
		<tag k="layer" v="1" />
		<tag k="name" v="Straumsbrua" />
		<tag k="ssr:stedsnr" v="266638" />
	</node>
	<node id="-50875" lat="62.6043027735" lon="6.43988889169">
		<tag k="bridge" v="yes" />
		<tag k="layer" v="1" />
		<tag k="name" v="Synnalandsbrua" />
		<tag k="ssr:stedsnr" v="272212" />
	</node>
	<node id="-50874" lat="62.562572219" lon="6.45952777982">
		<tag k="bridge" v="yes" />
		<tag k="layer" v="1" />
		<tag k="name" v="Samfjordbrua" />
		<tag k="ssr:stedsnr" v="272206" />
	</node>
	<node id="-51385" lat="62.5357972235" lon="6.70744167323">
		<tag k="bridge" v="yes" />
		<tag k="layer" v="1" />
		<tag k="name" v="Engsetbrua" />
		<tag k="ssr:stedsnr" v="514845" />
	</node>
	<node id="-51384" lat="62.4695055535" lon="6.14779445349">
		<tag k="man_made" v="quay" />
		<tag k="name" v="Prestebrygga" />
		<tag k="place" v="locality" />
		<tag k="ssr:stedsnr" v="421036" />
	</node>
	<node id="-51895" lat="62.4604444467" lon="6.35955555233">
		<tag k="bridge" v="yes" />
		<tag k="layer" v="1" />
		<tag k="name" v="Solvangbrua" />
		<tag k="ssr:stedsnr" v="708060" />
	</node>
	<node id="-51894" lat="62.470183336" lon="6.15112500652">
		<tag k="bridge" v="yes" />
		<tag k="layer" v="1" />
		<tag k="name" v="Torghallbroa" />
		<tag k="ssr:stedsnr" v="708052" />
	</node>
	<node id="-51892" lat="62.4574333334" lon="6.35764166731">
		<tag k="bridge" v="yes" />
		<tag k="layer" v="1" />
		<tag k="name" v="Vikabrua" />
		<tag k="ssr:stedsnr" v="573303" />
	</node>
	<node id="-50355" lat="62.4759666704" lon="6.19858055542">
		<tag k="man_made" v="tower" />
		<tag k="name" v="Ålesund radio" />
		<tag k="ssr:stedsnr" v="99603" />
		<tag k="tower:type" v="communications" />
	</node>
	<node id="-51378" lat="62.4444138882" lon="6.3602222128">
		<tag k="bridge" v="yes" />
		<tag k="layer" v="1" />
		<tag k="name" v="Bjørngjerdebrua" />
		<tag k="ssr:stedsnr" v="512320" />
	</node>
	<node id="-51377" lat="62.4433249977" lon="6.36214722671">
		<tag k="bridge" v="yes" />
		<tag k="layer" v="1" />
		<tag k="name" v="Blindheimsbrua" />
		<tag k="ssr:stedsnr" v="512314" />
	</node>
	<node id="-51888" lat="62.4622305534" lon="6.1141833276">
		<tag k="aerialway" v="gondola" />
		<tag k="name" v="Osen" />
		<tag k="ssr:stedsnr" v="705980" />
	</node>
	<node id="-52399" lat="62.5339805566" lon="6.61240833108">
		<tag k="fixme" v="consider highway=path" />
		<tag k="highway" v="track" />
		<tag k="name" v="Kvernvegen" />
		<tag k="ssr:stedsnr" v="761678" />
	</node>
	<node id="-52908" lat="62.4703472201" lon="6.19424443625">
		<tag k="bridge" v="yes" />
		<tag k="layer" v="1" />
		<tag k="name" v="Bergabrua" />
		<tag k="ssr:stedsnr" v="946018" />
	</node>
	<node id="-52395" lat="62.5897277792" lon="6.2872833243">
		<tag k="highway" v="path" />
		<tag k="name" v="Remmevegen" />
		<tag k="ssr:stedsnr" v="761519" />
	</node>
	<node id="-50344" lat="62.4356107385" lon="6.45310145308">
		<tag k="layer" v="-1" />
		<tag k="name" v="Storebruundergangen" />
		<tag k="ssr:stedsnr" v="97054" />
		<tag k="tunnel" v="yes" />
	</node>
	<node id="-50343" lat="62.4411923591" lon="6.37815504211">
		<tag k="layer" v="-1" />
		<tag k="name" v="Syvermarkundergangen" />
		<tag k="ssr:stedsnr" v="97053" />
		<tag k="tunnel" v="yes" />
	</node>
	<node id="-51057" lat="62.4761882395" lon="6.40948733541">
		<tag k="layer" v="-1" />
		<tag k="name" v="Rødsetreitundergangen" />
		<tag k="ssr:stedsnr" v="461467" />
		<tag k="tunnel" v="yes" />
	</node>
	<node id="-51364" lat="62.4716010174" lon="6.23416091132">
		<tag k="layer" v="-1" />
		<tag k="name" v="Sørnesundergangen" />
		<tag k="ssr:stedsnr" v="400050" />
		<tag k="tunnel" v="yes" />
	</node>
	<node id="-50339" lat="62.5139833352" lon="6.91920000925">
		<tag k="fixme" v="consider highway=path" />
		<tag k="highway" v="track" />
		<tag k="name" v="Kvanndalsvegen" />
		<tag k="ssr:stedsnr" v="96613" />
	</node>
	<node id="-51864" lat="62.507883337" lon="6.26090555688">
		<tag k="highway" v="path" />
		<tag k="name" v="Storegjerdsstigen" />
		<tag k="ssr:stedsnr" v="705581" />
	</node>
	<node id="-52374" lat="62.4826083306" lon="6.81356388832">
		<tag k="layer" v="-1" />
		<tag k="name" v="Vollaundergangen" />
		<tag k="ssr:stedsnr" v="758289" />
		<tag k="tunnel" v="yes" />
	</node>
	<node id="-50314" lat="62.5025000004" lon="6.61640278591">
		<tag k="bridge" v="yes" />
		<tag k="layer" v="1" />
		<tag k="name" v="Straumsbrua" />
		<tag k="ssr:stedsnr" v="96052" />
	</node>
	<node id="-51848" lat="62.4702722225" lon="6.36473054637">
		<tag k="bridge" v="yes" />
		<tag k="layer" v="1" />
		<tag k="name" v="Breivikbrua" />
		<tag k="ssr:stedsnr" v="703459" />
	</node>
	<node id="-52866" lat="62.8192555586" lon="6.5737888853">
		<tag k="amenity" v="ferry_terminal" />
		<tag k="name" v="Sandøya ferjekai" />
		<tag k="ssr:stedsnr" v="945118" />
	</node>
	<node id="-51352" lat="62.7923166698" lon="6.48050556008">
		<tag k="bridge" v="yes" />
		<tag k="layer" v="1" />
		<tag k="name" v="Finnøybrua" />
		<tag k="ssr:stedsnr" v="391322" />
	</node>
	<node id="-50798" lat="62.4848222267" lon="6.50220833574">
		<tag k="bridge" v="yes" />
		<tag k="layer" v="1" />
		<tag k="name" v="Slettebakkbrua" />
		<tag k="ssr:stedsnr" v="453885" />
	</node>
	<node id="-51817" lat="62.4639575551" lon="6.30294044739">
		<tag k="layer" v="-1" />
		<tag k="name" v="Åsestrandundergangen" />
		<tag k="ssr:stedsnr" v="703046" />
		<tag k="tunnel" v="yes" />
	</node>
	<node id="-51813" lat="62.5145666676" lon="6.45820276801">
		<tag k="bridge" v="yes" />
		<tag k="layer" v="1" />
		<tag k="name" v="Taftasundbrua" />
		<tag k="ssr:stedsnr" v="703014" />
	</node>
	<node id="-51802" lat="62.4900105961" lon="6.60473108461">
		<tag k="junction" v="yes" />
		<tag k="name" v="Digernesskiftet" />
		<tag k="place" v="locality" />
		<tag k="ssr:stedsnr" v="702279" />
	</node>
	<node id="-52239" lat="62.4701472181" lon="6.24359722975">
		<tag k="bridge" v="yes" />
		<tag k="layer" v="1" />
		<tag k="name" v="Nørvasundbrua" />
		<tag k="ssr:stedsnr" v="886027" />
	</node>
	<node id="-50873" lat="62.6240333336" lon="6.66753888967">
		<tag k="bridge" v="yes" />
		<tag k="layer" v="1" />
		<tag k="name" v="Eikebrua" />
		<tag k="ssr:stedsnr" v="272019" />
	</node>
	<node id="-51896" lat="62.4614111076" lon="6.35262499545">
		<tag k="bridge" v="yes" />
		<tag k="layer" v="1" />
		<tag k="name" v="Langelandsbrua" />
		<tag k="ssr:stedsnr" v="708062" />
	</node>
	<node id="-50246" lat="62.5014583352" lon="6.62082777768">
		<tag k="bridge" v="yes" />
		<tag k="layer" v="1" />
		<tag k="name" v="Heggjestraumsbrua" />
		<tag k="ssr:stedsnr" v="84664" />
	</node>
	<node id="-52798" lat="62.555408331" lon="6.59649721716">
		<tag k="highway" v="path" />
		<tag k="name" v="Sandstigen" />
		<tag k="ssr:stedsnr" v="944567" />
	</node>
	<node id="-52283" lat="62.5436222215" lon="6.53600556523">
		<tag k="highway" v="path" />
		<tag k="name" v="Trippe" />
		<tag k="ssr:stedsnr" v="701018" />
	</node>
	<node id="-52278" lat="62.461572221" lon="6.36067776897">
		<tag k="bridge" v="yes" />
		<tag k="layer" v="1" />
		<tag k="name" v="Puntlærbrua" />
		<tag k="ssr:stedsnr" v="890046" />
	</node>
	<node id="-52277" lat="62.4663249995" lon="6.23969722692">
		<tag k="bridge" v="yes" />
		<tag k="layer" v="1" />
		<tag k="name" v="Katevågbrua" />
		<tag k="ssr:stedsnr" v="890044" />
	</node>
	<node id="-52276" lat="62.4364249964" lon="6.45538333069">
		<tag k="bridge" v="yes" />
		<tag k="layer" v="1" />
		<tag k="name" v="Hjellhaugbrua" />
		<tag k="ssr:stedsnr" v="890036" />
	</node>
	<node id="-52272" lat="62.7309638854" lon="6.44034444954">
		<tag k="fixme" v="verify maritime location" />
		<tag k="mooring" v="yes" />
		<tag k="name" v="Jaktestøa" />
		<tag k="place" v="locality" />
		<tag k="ssr:stedsnr" v="699718" />
	</node>
	<node id="-52263" lat="62.4649583322" lon="6.34315277895">
		<tag k="junction" v="yes" />
		<tag k="name" v="Vindgårdskiftet" />
		<tag k="place" v="locality" />
		<tag k="ssr:stedsnr" v="888726" />
	</node>
	<node id="-50198" lat="62.4739694477" lon="6.1565694365">
		<tag k="junction" v="yes" />
		<tag k="name" v="Korsen" />
		<tag k="place" v="locality" />
		<tag k="ssr:stedsnr" v="238184" />
	</node>
	<node id="-50196" lat="62.4694222202" lon="6.15294444161">
		<tag k="man_made" v="quay" />
		<tag k="name" v="Storneskaia" />
		<tag k="place" v="locality" />
		<tag k="ssr:stedsnr" v="238032" />
	</node>
	<node id="-52240" lat="62.4709083362" lon="6.23751388602">
		<tag k="layer" v="-1" />
		<tag k="name" v="Nørvasundundergangen" />
		<tag k="ssr:stedsnr" v="886043" />
		<tag k="tunnel" v="yes" />
	</node>
	<node id="-51727" lat="62.5925333344" lon="6.69318888279">
		<tag k="highway" v="path" />
		<tag k="name" v="Sætervegen" />
		<tag k="ssr:stedsnr" v="701549" />
	</node>
	<node id="-52238" lat="62.4778944405" lon="6.71758055717">
		<tag k="highway" v="path" />
		<tag k="name" v="Brautaløypa" />
		<tag k="ssr:stedsnr" v="885980" />
	</node>
	<node id="-51723" lat="62.5952944443" lon="6.48406944536">
		<tag k="highway" v="path" />
		<tag k="name" v="Slettstien" />
		<tag k="ssr:stedsnr" v="701578" />
	</node>
	<node id="-51207" lat="62.5435138917" lon="6.52349444203">
		<tag k="bridge" v="yes" />
		<tag k="layer" v="1" />
		<tag k="name" v="Slyngstadbrua" />
		<tag k="ssr:stedsnr" v="484826" />
	</node>
	<node id="-51203" lat="62.6168027753" lon="6.22086666927">
		<tag k="amenity" v="ferry_terminal" />
		<tag k="name" v="Lepsøya ferjekai" />
		<tag k="ssr:stedsnr" v="338108" />
	</node>
</osm>
