<?xml version="1.0" encoding="UTF-8"?>
<osm generator="osmapis" version="0.6">
	<node id="-114679" lat="61.7045194488" lon="8.2349583346">
		<tag k="name" v="Osen" />
		<tag k="natural" v="bay" />
		<tag k="ssr:stedsnr" v="538768" />
	</node>
	<node id="-114676" lat="61.6967500023" lon="8.18267221955">
		<tag k="name" v="Snipen" />
		<tag k="natural" v="cape" />
		<tag k="ssr:stedsnr" v="538531" />
	</node>
	<node id="-114666" lat="61.8400611105" lon="8.83165277701">
		<tag k="name" v="Byrvassvegen" />
		<tag k="ssr:stedsnr" v="514580" />
		<tag k="waterway" v="drain" />
	</node>
	<node id="-114665" lat="61.8513833289" lon="8.82359443713">
		<tag k="name" v="Naustervikje" />
		<tag k="natural" v="bay" />
		<tag k="ssr:stedsnr" v="514555" />
	</node>
	<node id="-114664" lat="61.8594472241" lon="8.8073694488">
		<tag k="name" v="Grønfjorden" />
		<tag k="natural" v="water" />
		<tag k="ssr:stedsnr" v="514543" />
	</node>
	<node id="-114648" lat="61.9185928563" lon="8.6132058334">
		<tag k="loc_name" v="Lokra" />
		<tag k="name" v="Låkkra" />
		<tag k="ssr:stedsnr" v="496879" />
		<tag k="waterway" v="stream" />
	</node>
	<node id="-114645" lat="61.7676138897" lon="8.6309444383">
		<tag k="name" v="Krokåi" />
		<tag k="ssr:stedsnr" v="496231" />
		<tag k="waterway" v="stream" />
	</node>
	<node id="-114639" lat="61.7029416652" lon="8.84629167078">
		<tag k="name" v="Rindtjønnen" />
		<tag k="natural" v="water" />
		<tag k="ssr:stedsnr" v="495994" />
	</node>
	<node id="-114632" lat="61.6437194436" lon="8.48357499331">
		<tag k="name" v="Steindalselve" />
		<tag k="ssr:stedsnr" v="495898" />
		<tag k="waterway" v="stream" />
	</node>
	<node id="-114630" lat="61.707197221" lon="8.30122777219">
		<tag k="name" v="Leira" />
		<tag k="ssr:stedsnr" v="495824" />
		<tag k="waterway" v="river" />
	</node>
	<node id="-114627" lat="61.623258329" lon="8.08620278201">
		<tag k="name" v="Brangsdalstjønnen" />
		<tag k="natural" v="water" />
		<tag k="ssr:stedsnr" v="495459" />
	</node>
	<node id="-114625" lat="61.6395264223" lon="7.91180048468">
		<tag k="name" v="Liabrevatnet" />
		<tag k="natural" v="water" />
		<tag k="ssr:stedsnr" v="495437" />
		<tag k="water" v="lake" />
	</node>
	<node id="-114624" lat="61.7817666637" lon="8.9326833303">
		<tag k="alt_name" v="Byrtnes, søre;Søndre Byrtnes" />
		<tag k="name" v="Søre Byrtnes" />
		<tag k="natural" v="cape" />
		<tag k="ssr:stedsnr" v="495414" />
	</node>
	<node id="-114622" lat="61.7652888856" lon="8.94026110621">
		<tag k="name" v="Kjeppen" />
		<tag k="natural" v="cape" />
		<tag k="ssr:stedsnr" v="495407" />
	</node>
	<node id="-114621" lat="61.5889999967" lon="7.95773332923">
		<tag k="name" v="Spile" />
		<tag k="natural" v="water" />
		<tag k="ssr:stedsnr" v="495292" />
	</node>
	<node id="-114620" lat="61.8537861086" lon="8.85081943613">
		<tag k="name" v="Veslodden" />
		<tag k="natural" v="cape" />
		<tag k="ssr:stedsnr" v="495289" />
	</node>
	<node id="-114619" lat="61.5997194467" lon="8.05604445147">
		<tag k="name" v="Nedre Nufstjønne" />
		<tag k="natural" v="water" />
		<tag k="ssr:stedsnr" v="495288" />
	</node>
	<node id="-114618" lat="61.7086527815" lon="8.32256666472">
		<tag k="name" v="Hortagrove" />
		<tag k="ssr:stedsnr" v="495255" />
		<tag k="waterway" v="stream" />
	</node>
	<node id="-114610" lat="61.6653638866" lon="8.14684721782">
		<tag k="name" v="Krokabekken" />
		<tag k="ssr:stedsnr" v="495219" />
		<tag k="waterway" v="stream" />
	</node>
	<node id="-114607" lat="61.7487861123" lon="8.24243889395">
		<tag k="name" v="Runningje" />
		<tag k="ssr:stedsnr" v="495188" />
		<tag k="waterway" v="stream" />
	</node>
	<node id="-114606" lat="61.722711113" lon="8.10883610911">
		<tag k="name" v="Geitåvatnet" />
		<tag k="natural" v="water" />
		<tag k="ssr:stedsnr" v="495183" />
	</node>
	<node id="-114604" lat="61.7343777749" lon="8.33852499702">
		<tag k="name" v="Mundgjelsgrove" />
		<tag k="ssr:stedsnr" v="495178" />
		<tag k="waterway" v="stream" />
	</node>
	<node id="-115698" lat="61.8203805574" lon="8.61000833481">
		<tag k="alt_name" v="Vassvegtjønne" />
		<tag k="name" v="Vassvegtjørni" />
		<tag k="natural" v="water" />
		<tag k="ssr:stedsnr" v="963253" />
	</node>
	<node id="-114600" lat="61.7428138915" lon="8.63867777968">
		<tag k="alt_name" v="Fegra, nedre" />
		<tag k="name" v="Nedre Fegra" />
		<tag k="ssr:stedsnr" v="495131" />
		<tag k="waterway" v="stream" />
	</node>
	<node id="-114599" lat="61.7404138845" lon="8.6145166583">
		<tag k="name" v="Olatjønnen" />
		<tag k="natural" v="water" />
		<tag k="ssr:stedsnr" v="495129" />
	</node>
	<node id="-114598" lat="61.886555557" lon="8.74503334094">
		<tag k="name" v="Vamba" />
		<tag k="ssr:stedsnr" v="495127" />
		<tag k="waterway" v="stream" />
	</node>
	<node id="-114597" lat="61.7237611144" lon="8.82342500728">
		<tag k="name" v="Kjellarkrokan" />
		<tag k="place" v="locality" />
		<tag k="ssr:stedsnr" v="495110" />
	</node>
	<node id="-114596" lat="61.7342138901" lon="8.65104999594">
		<tag k="loc_name" v="Børgja" />
		<tag k="name" v="Børja" />
		<tag k="ssr:stedsnr" v="495106" />
		<tag k="waterway" v="stream" />
	</node>
	<node id="-114594" lat="61.8543666658" lon="8.61280000855">
		<tag k="name" v="Høgsand" />
		<tag k="place" v="islet" />
		<tag k="ssr:stedsnr" v="495100" />
	</node>
	<node id="-114589" lat="61.621325004" lon="8.21446666356">
		<tag k="name" v="Nørdre Illåe" />
		<tag k="ssr:stedsnr" v="495081" />
		<tag k="waterway" v="stream" />
	</node>
	<node id="-114584" lat="61.6287833371" lon="8.15825277181">
		<tag k="name" v="Høgskridugrove" />
		<tag k="ssr:stedsnr" v="495061" />
		<tag k="waterway" v="stream" />
	</node>
	<node id="-114579" lat="61.8446666644" lon="8.51081944513">
		<tag k="alt_name" v="Knutstugugrovi" />
		<tag k="name" v="Knutstugugrove" />
		<tag k="ssr:stedsnr" v="495048" />
		<tag k="waterway" v="stream" />
	</node>
	<node id="-114572" lat="61.5901777789" lon="8.41809166353">
		<tag k="name" v="Hellstuguåe" />
		<tag k="ssr:stedsnr" v="495023" />
		<tag k="waterway" v="stream" />
	</node>
	<node id="-114566" lat="61.8451277788" lon="8.72869444909">
		<tag k="name" v="Prinsbekken" />
		<tag k="ssr:stedsnr" v="495003" />
		<tag k="waterway" v="stream" />
	</node>
	<node id="-114565" lat="61.489602777" lon="8.51810556192">
		<tag k="name" v="Hinnotebekken" />
		<tag k="ssr:stedsnr" v="493797" />
		<tag k="waterway" v="stream" />
	</node>
	<node id="-114564" lat="61.4811111095" lon="8.52496388383">
		<tag k="name" v="Lågtungetjønne" />
		<tag k="natural" v="water" />
		<tag k="ssr:stedsnr" v="493789" />
	</node>
	<node id="-114562" lat="61.4835059794" lon="8.37838662294">
		<tag k="name" v="Trondsholtjønne" />
		<tag k="natural" v="water" />
		<tag k="ssr:stedsnr" v="492853" />
		<tag k="water" v="lake" />
	</node>
	<node id="-114559" lat="61.7770749984" lon="8.93459443511">
		<tag k="name" v="Angrevsnebben" />
		<tag k="natural" v="cape" />
		<tag k="ssr:stedsnr" v="464359" />
	</node>
	<node id="-114558" lat="61.7546277761" lon="8.94184722387">
		<tag k="name" v="Bekken" />
		<tag k="ssr:stedsnr" v="464346" />
		<tag k="waterway" v="stream" />
	</node>
	<node id="-113641" lat="61.6137166629" lon="7.98956667115">
		<tag k="name" v="Svarttjønne" />
		<tag k="natural" v="water" />
		<tag k="ssr:stedsnr" v="374452" />
	</node>
	<node id="-114540" lat="61.8154666675" lon="8.51616666199">
		<tag k="name" v="Skiftesgrove" />
		<tag k="ssr:stedsnr" v="451187" />
		<tag k="waterway" v="stream" />
	</node>
	<node id="-114537" lat="61.8061138868" lon="8.42783055982">
		<tag k="alt_name" v="Veslåe" />
		<tag k="name" v="Vesleåi" />
		<tag k="ssr:stedsnr" v="436959" />
		<tag k="waterway" v="stream" />
	</node>
	<node id="-114536" lat="61.8021222186" lon="8.42733333358">
		<tag k="alt_name" v="Oksle" />
		<tag k="name" v="Okslegrovi" />
		<tag k="ssr:stedsnr" v="436929" />
		<tag k="waterway" v="stream" />
	</node>
	<node id="-114535" lat="61.9129638887" lon="8.61266944709">
		<tag k="name" v="Tronga" />
		<tag k="ssr:stedsnr" v="436913" />
		<tag k="waterway" v="stream" />
	</node>
	<node id="-114532" lat="61.95834167" lon="8.84802222237">
		<tag k="name" v="Stula" />
		<tag k="ssr:stedsnr" v="436174" />
		<tag k="waterway" v="river" />
	</node>
	<node id="-114530" lat="61.7831611112" lon="8.45325555808">
		<tag k="alt_name" v="Hansgrove" />
		<tag k="name" v="Hansgrovi" />
		<tag k="ssr:stedsnr" v="435993" />
		<tag k="waterway" v="stream" />
	</node>
	<node id="-114524" lat="61.8849111136" lon="8.61308055625">
		<tag k="alt_name" v="Storteppingi, nørdre" />
		<tag k="name" v="Nørdre Storteppingje" />
		<tag k="natural" v="water" />
		<tag k="ssr:stedsnr" v="435933" />
	</node>
	<node id="-114523" lat="61.8917972187" lon="8.60686944342">
		<tag k="alt_name" v="Glassteintjørni" />
		<tag k="name" v="Glassteintjønne" />
		<tag k="natural" v="water" />
		<tag k="ssr:stedsnr" v="435918" />
	</node>
	<node id="-114519" lat="61.6227111089" lon="8.48488610239">
		<tag k="name" v="Leirtjønne" />
		<tag k="natural" v="water" />
		<tag k="ssr:stedsnr" v="435910" />
	</node>
	<node id="-114515" lat="61.6641277775" lon="7.92925833387">
		<tag k="name" v="Geittjønne" />
		<tag k="natural" v="water" />
		<tag k="ssr:stedsnr" v="435522" />
	</node>
	<node id="-114510" lat="61.7168388923" lon="8.06280833576">
		<tag k="name" v="Anekset" />
		<tag k="natural" v="water" />
		<tag k="ssr:stedsnr" v="435448" />
	</node>
	<node id="-114509" lat="61.5715583298" lon="8.06640277514">
		<tag k="name" v="Leira" />
		<tag k="ssr:stedsnr" v="435345" />
		<tag k="waterway" v="stream" />
	</node>
	<node id="-114507" lat="61.5541527816" lon="7.97323054666">
		<tag k="name" v="Sleive" />
		<tag k="natural" v="water" />
		<tag k="ssr:stedsnr" v="435300" />
	</node>
	<node id="-114506" lat="61.5679138921" lon="7.99706389013">
		<tag k="name" v="Trøyse" />
		<tag k="natural" v="water" />
		<tag k="ssr:stedsnr" v="435281" />
	</node>
	<node id="-114504" lat="61.6895527759" lon="8.28442500617">
		<tag k="name" v="Juvfossen" />
		<tag k="natural" v="waterfall" />
		<tag k="ssr:stedsnr" v="435264" />
	</node>
	<node id="-114499" lat="61.7808805555" lon="8.74526389134">
		<tag k="name" v="Ilvetjørni" />
		<tag k="natural" v="water" />
		<tag k="ssr:stedsnr" v="435242" />
	</node>
	<node id="-114495" lat="61.7488916711" lon="8.36578054931">
		<tag k="name" v="Storgrovi" />
		<tag k="ssr:stedsnr" v="435220" />
		<tag k="waterway" v="stream" />
	</node>
	<node id="-114491" lat="61.7283222263" lon="8.31136110486">
		<tag k="name" v="Driva" />
		<tag k="ssr:stedsnr" v="435208" />
		<tag k="waterway" v="stream" />
	</node>
	<node id="-114486" lat="61.5424097574" lon="8.31122714119">
		<tag k="name" v="Kyrkjetjønne" />
		<tag k="natural" v="water" />
		<tag k="ssr:stedsnr" v="435149" />
		<tag k="water" v="lake" />
	</node>
	<node id="-114483" lat="61.5088055544" lon="8.37268611378">
		<tag k="name" v="Urdadøla" />
		<tag k="ssr:stedsnr" v="435128" />
		<tag k="waterway" v="stream" />
	</node>
	<node id="-114474" lat="61.8554138894" lon="8.80579444195">
		<tag k="name" v="Odde" />
		<tag k="natural" v="cape" />
		<tag k="ssr:stedsnr" v="435052" />
	</node>
	<node id="-114471" lat="61.8247500017" lon="8.67710276997">
		<tag k="name" v="Svarva" />
		<tag k="ssr:stedsnr" v="435026" />
		<tag k="waterway" v="river" />
	</node>
	<node id="-114468" lat="61.8363416682" lon="8.63258055574">
		<tag k="alt_name" v="Ausa" />
		<tag k="name" v="Ause" />
		<tag k="natural" v="water" />
		<tag k="ssr:stedsnr" v="435009" />
	</node>
	<node id="-114457" lat="61.6531888934" lon="8.1187361056">
		<tag k="name" v="Bøvertjønnen" />
		<tag k="natural" v="water" />
		<tag k="ssr:stedsnr" v="434175" />
		<tag k="water" v="lake" />
	</node>
	<node id="-114449" lat="61.4810749986" lon="8.56130555926">
		<tag k="name" v="Grunnevatnet" />
		<tag k="natural" v="water" />
		<tag k="ssr:stedsnr" v="433786" />
	</node>
	<node id="-114448" lat="61.4724944454" lon="8.51756944004">
		<tag k="name" v="Øvertjønne" />
		<tag k="natural" v="water" />
		<tag k="ssr:stedsnr" v="433781" />
	</node>
	<node id="-114445" lat="61.4365219606" lon="8.40556878172">
		<tag k="name" v="Grisletjønnen" />
		<tag k="natural" v="water" />
		<tag k="ssr:stedsnr" v="432846" />
		<tag k="water" v="lake" />
	</node>
	<node id="-114440" lat="61.6465694465" lon="8.10610555498">
		<tag k="name" v="Rustasæterfossen" />
		<tag k="natural" v="waterfall" />
		<tag k="ssr:stedsnr" v="418663" />
	</node>
	<node id="-114429" lat="61.8670805567" lon="8.85306110953">
		<tag k="name" v="Nyrnesbekken" />
		<tag k="ssr:stedsnr" v="418294" />
		<tag k="waterway" v="stream" />
	</node>
	<node id="-114422" lat="61.8690249979" lon="8.55977499806">
		<tag k="name" v="Øvre Bergetjønne" />
		<tag k="natural" v="water" />
		<tag k="ssr:stedsnr" v="418134" />
	</node>
	<node id="-114415" lat="61.677655555" lon="8.2542611038">
		<tag k="name" v="Mikkelsgrove" />
		<tag k="ssr:stedsnr" v="417763" />
		<tag k="waterway" v="stream" />
	</node>
	<node id="-114414" lat="61.6898416671" lon="8.2651472178">
		<tag k="name" v="Rausteinsanden" />
		<tag k="natural" v="beach" />
		<tag k="ssr:stedsnr" v="417390" />
	</node>
	<node id="-114412" lat="61.8205027759" lon="8.64287222456">
		<tag k="alt_name" v="Svarttjønne" />
		<tag k="name" v="Svarttjørni" />
		<tag k="natural" v="water" />
		<tag k="ssr:stedsnr" v="417237" />
	</node>
	<node id="-114409" lat="61.7458500038" lon="8.968088882">
		<tag k="alt_name" v="Sørånebben" />
		<tag k="name" v="Sørenebben" />
		<tag k="natural" v="cape" />
		<tag k="ssr:stedsnr" v="253948" />
	</node>
	<node id="-114408" lat="61.7381027802" lon="8.98732777891">
		<tag k="name" v="Kalven" />
		<tag k="natural" v="bay" />
		<tag k="ssr:stedsnr" v="253943" />
	</node>
	<node id="-114407" lat="61.5292000033" lon="8.53013889747">
		<tag k="name" v="Surtningssubekken" />
		<tag k="ssr:stedsnr" v="253932" />
		<tag k="waterway" v="stream" />
	</node>
	<node id="-114406" lat="61.891705552" lon="8.67157221367">
		<tag k="alt_name" v="Storrtjørni" />
		<tag k="name" v="Stortjønne" />
		<tag k="natural" v="water" />
		<tag k="ssr:stedsnr" v="253916" />
	</node>
	<node id="-114405" lat="61.8963777804" lon="8.63430555383">
		<tag k="alt_name" v="Lusa, vesle" />
		<tag k="name" v="Vesl-Lusa" />
		<tag k="natural" v="water" />
		<tag k="ssr:stedsnr" v="253914" />
	</node>
	<node id="-114404" lat="61.9759027821" lon="8.82612778295">
		<tag k="alt_name" v="Gjerdingåi" />
		<tag k="loc_name" v="Gjerdingåa" />
		<tag k="name" v="Gjerdingåe" />
		<tag k="ssr:stedsnr" v="253896" />
		<tag k="waterway" v="river" />
	</node>
	<node id="-114402" lat="61.68484722" lon="7.98089167047">
		<tag k="name" v="Nedre Steindalstjønne" />
		<tag k="natural" v="water" />
		<tag k="ssr:stedsnr" v="253513" />
	</node>
	<node id="-114401" lat="61.6799166669" lon="8.02391111695">
		<tag k="name" v="Høya" />
		<tag k="ssr:stedsnr" v="253511" />
		<tag k="waterway" v="river" />
	</node>
	<node id="-114398" lat="61.5921333365" lon="7.95327499197">
		<tag k="name" v="Kulpen" />
		<tag k="natural" v="water" />
		<tag k="ssr:stedsnr" v="253496" />
	</node>
	<node id="-114396" lat="61.5736055535" lon="7.98838611021">
		<tag k="name" v="Vakkertjønne" />
		<tag k="natural" v="water" />
		<tag k="ssr:stedsnr" v="253353" />
	</node>
	<node id="-114395" lat="61.5600277797" lon="8.01592777241">
		<tag k="name" v="Tussevatnet" />
		<tag k="natural" v="water" />
		<tag k="ssr:stedsnr" v="253319" />
	</node>
	<node id="-114394" lat="61.5573750024" lon="7.98866945322">
		<tag k="name" v="Sleivgrovi" />
		<tag k="ssr:stedsnr" v="253315" />
		<tag k="waterway" v="stream" />
	</node>
	<node id="-114393" lat="61.5675305542" lon="7.96870277409">
		<tag k="name" v="Lækja" />
		<tag k="natural" v="water" />
		<tag k="ssr:stedsnr" v="253293" />
	</node>
	<node id="-114390" lat="61.6793027802" lon="8.46186666916">
		<tag k="name" v="Grjota" />
		<tag k="ssr:stedsnr" v="253262" />
		<tag k="waterway" v="river" />
	</node>
	<node id="-114387" lat="61.6778249985" lon="8.11780556101">
		<tag k="name" v="Borgagrove" />
		<tag k="ssr:stedsnr" v="253258" />
		<tag k="waterway" v="stream" />
	</node>
	<node id="-114386" lat="61.6830416672" lon="8.25866944654">
		<tag k="name" v="Torgrove" />
		<tag k="ssr:stedsnr" v="253253" />
		<tag k="waterway" v="stream" />
	</node>
	<node id="-114385" lat="61.6763805576" lon="8.23273610529">
		<tag k="name" v="Tvillinggrove" />
		<tag k="ssr:stedsnr" v="253252" />
		<tag k="waterway" v="stream" />
	</node>
	<node id="-114371" lat="61.8808000028" lon="8.69548055703">
		<tag k="alt_name" v="Sagelvi, s" />
		<tag k="name" v="Søre Sagelve" />
		<tag k="ssr:stedsnr" v="253115" />
		<tag k="waterway" v="stream" />
	</node>
	<node id="-114369" lat="61.7190666647" lon="8.67177777122">
		<tag k="name" v="Steinvatni" />
		<tag k="natural" v="water" />
		<tag k="ssr:stedsnr" v="253083" />
	</node>
	<node id="-114368" lat="61.8680281459" lon="8.55423965793">
		<tag k="name" v="Bergetjørnin" />
		<tag k="natural" v="water" />
		<tag k="ssr:stedsnr" v="253067" />
		<tag k="water" v="lake" />
	</node>
	<node id="-114366" lat="61.6075916674" lon="8.35158056323">
		<tag k="name" v="Tverråe" />
		<tag k="ssr:stedsnr" v="253040" />
		<tag k="waterway" v="stream" />
	</node>
	<node id="-114362" lat="61.7208916673" lon="8.65295834183">
		<tag k="name" v="Smådøla" />
		<tag k="ssr:stedsnr" v="252780" />
		<tag k="waterway" v="river" />
	</node>
	<node id="-114359" lat="61.8123249976" lon="8.94290277634">
		<tag k="alt_name" v="Lonein" />
		<tag k="name" v="Lonin" />
		<tag k="natural" v="water" />
		<tag k="ssr:stedsnr" v="252434" />
		<tag k="water" v="lake" />
	</node>
	<node id="-114356" lat="61.5516305535" lon="8.03164166412">
		<tag k="name" v="Bøvervatnet" />
		<tag k="natural" v="water" />
		<tag k="ssr:stedsnr" v="252327" />
	</node>
	<node id="-114351" lat="61.8248527812" lon="8.77179167528">
		<tag k="name" v="Kyreggbekken" />
		<tag k="ssr:stedsnr" v="252207" />
		<tag k="waterway" v="stream" />
	</node>
	<node id="-114348" lat="61.6483722185" lon="8.12396944513">
		<tag k="name" v="Breigrove" />
		<tag k="ssr:stedsnr" v="252163" />
		<tag k="waterway" v="stream" />
	</node>
	<node id="-114339" lat="61.85119167" lon="8.85278332861">
		<tag k="name" v="Vågåvatnet" />
		<tag k="natural" v="water" />
		<tag k="ssr:stedsnr" v="252035" />
		<tag k="water" v="lake" />
	</node>
	<node id="-114336" lat="61.6004916638" lon="8.40312222576">
		<tag k="name" v="Leirgrove" />
		<tag k="ssr:stedsnr" v="252017" />
		<tag k="waterway" v="stream" />
	</node>
	<node id="-114334" lat="61.4741972218" lon="8.55112222174">
		<tag k="name" v="Langtjønne" />
		<tag k="natural" v="water" />
		<tag k="ssr:stedsnr" v="251802" />
	</node>
	<node id="-114332" lat="61.4422527758" lon="8.47738333279">
		<tag k="name" v="Veslåe" />
		<tag k="ssr:stedsnr" v="251784" />
		<tag k="waterway" v="river" />
	</node>
	<node id="-114330" lat="61.4967999999" lon="8.61711388884">
		<tag k="name" v="Hestbekken" />
		<tag k="ssr:stedsnr" v="250770" />
		<tag k="waterway" v="stream" />
	</node>
	<node id="-114319" lat="61.812950003" lon="8.45754445362">
		<tag k="name" v="Styggeskryugrove" />
		<tag k="ssr:stedsnr" v="236030" />
		<tag k="waterway" v="stream" />
	</node>
	<node id="-114315" lat="61.8043194479" lon="8.93189166054">
		<tag k="name" v="Storvikje" />
		<tag k="natural" v="bay" />
		<tag k="ssr:stedsnr" v="235471" />
	</node>
	<node id="-114310" lat="61.7180277779" lon="8.37338888265">
		<tag k="name" v="Bytesteingrove" />
		<tag k="ssr:stedsnr" v="235324" />
		<tag k="waterway" v="stream" />
	</node>
	<node id="-114304" lat="61.8321888873" lon="8.75702222792">
		<tag k="alt_name" v="Krosstjønne" />
		<tag k="name" v="Krosstjørni" />
		<tag k="natural" v="water" />
		<tag k="ssr:stedsnr" v="235033" />
	</node>
	<node id="-114288" lat="61.8437722205" lon="8.86732777713">
		<tag k="name" v="Kleivvegen" />
		<tag k="ssr:stedsnr" v="210534" />
		<tag k="waterway" v="drain" />
	</node>
	<node id="-114283" lat="61.8195333293" lon="8.59438889713">
		<tag k="name" v="Søre Fossbrekkgrove" />
		<tag k="ssr:stedsnr" v="210430" />
		<tag k="waterway" v="stream" />
	</node>
	<node id="-114279" lat="61.8266805558" lon="8.48561943537">
		<tag k="name" v="Aukrustgrøvein" />
		<tag k="ssr:stedsnr" v="208966" />
		<tag k="waterway" v="stream" />
	</node>
	<node id="-114273" lat="61.7785916669" lon="8.56628889507">
		<tag k="name" v="Hansgrovi" />
		<tag k="ssr:stedsnr" v="206935" />
		<tag k="waterway" v="stream" />
	</node>
	<node id="-114271" lat="61.9580555577" lon="8.70836388639">
		<tag k="alt_name" v="Brettingje" />
		<tag k="name" v="Brettingi" />
		<tag k="ssr:stedsnr" v="193895" />
		<tag k="waterway" v="river" />
	</node>
	<node id="-114259" lat="61.637813887" lon="8.68055278266">
		<tag k="name" v="Nørdre Åe" />
		<tag k="ssr:stedsnr" v="192916" />
		<tag k="waterway" v="stream" />
	</node>
	<node id="-114254" lat="61.6625083322" lon="8.70287500323">
		<tag k="name" v="Bergenussøyin" />
		<tag k="place" v="island" />
		<tag k="ssr:stedsnr" v="192903" />
	</node>
	<node id="-114251" lat="61.695452777" lon="7.94531666064">
		<tag k="name" v="Svartdalsvatnet" />
		<tag k="natural" v="water" />
		<tag k="ssr:stedsnr" v="192501" />
		<tag k="water" v="lake" />
	</node>
	<node id="-114250" lat="61.6954875682" lon="8.04696996754">
		<tag k="name" v="Høytjønnen" />
		<tag k="natural" v="water" />
		<tag k="ssr:stedsnr" v="192500" />
		<tag k="water" v="lake" />
	</node>
	<node id="-114249" lat="61.7516999987" lon="8.95083611234">
		<tag k="name" v="Volnebben" />
		<tag k="natural" v="cape" />
		<tag k="ssr:stedsnr" v="192428" />
	</node>
	<node id="-115638" lat="61.6556944401" lon="8.02637500883">
		<tag k="name" v="Tvillinggrøvan" />
		<tag k="ssr:stedsnr" v="920471" />
		<tag k="waterway" v="stream" />
	</node>
	<node id="-114241" lat="61.570072221" lon="7.98294722132">
		<tag k="name" v="Øskja" />
		<tag k="natural" v="water" />
		<tag k="ssr:stedsnr" v="192279" />
	</node>
	<node id="-114240" lat="61.7694694448" lon="8.44871943545">
		<tag k="alt_name" v="Storgrove" />
		<tag k="name" v="Storgrovi" />
		<tag k="ssr:stedsnr" v="192270" />
		<tag k="waterway" v="stream" />
	</node>
	<node id="-114238" lat="61.6955583361" lon="8.25313056345">
		<tag k="alt_name" v="Nibbetjørni" />
		<tag k="name" v="Nibbetjønne" />
		<tag k="natural" v="water" />
		<tag k="ssr:stedsnr" v="192256" />
	</node>
	<node id="-114232" lat="61.6494138925" lon="8.20150555305">
		<tag k="name" v="Dumfossen" />
		<tag k="natural" v="waterfall" />
		<tag k="ssr:stedsnr" v="192217" />
	</node>
	<node id="-114231" lat="61.6301361077" lon="8.095977773">
		<tag k="name" v="Brangsgrove" />
		<tag k="ssr:stedsnr" v="192213" />
		<tag k="waterway" v="stream" />
	</node>
	<node id="-114227" lat="61.7319222185" lon="8.28751389685">
		<tag k="name" v="Nyhusgrove" />
		<tag k="ssr:stedsnr" v="192197" />
		<tag k="waterway" v="stream" />
	</node>
	<node id="-114224" lat="61.7216361095" lon="8.21454167402">
		<tag k="name" v="Stula" />
		<tag k="ssr:stedsnr" v="192176" />
		<tag k="waterway" v="stream" />
	</node>
	<node id="-114220" lat="61.7140861148" lon="8.4586444444">
		<tag k="name" v="Gokra" />
		<tag k="ssr:stedsnr" v="192159" />
		<tag k="waterway" v="stream" />
	</node>
	<node id="-114207" lat="61.8673777758" lon="8.57056665965">
		<tag k="alt_name" v="Grjotheimstjørni, nedre" />
		<tag k="name" v="Nedre Grjotheimstjønne" />
		<tag k="natural" v="water" />
		<tag k="ssr:stedsnr" v="192084" />
	</node>
	<node id="-114206" lat="61.6997555584" lon="8.48057777783">
		<tag k="name" v="Smiugjela" />
		<tag k="ssr:stedsnr" v="192076" />
		<tag k="waterway" v="river" />
	</node>
	<node id="-114199" lat="61.8485638866" lon="8.57441667483">
		<tag k="alt_name" v="Ulvestuguodden" />
		<tag k="name" v="Tronoodden" />
		<tag k="natural" v="cape" />
		<tag k="ssr:stedsnr" v="192042" />
	</node>
	<node id="-114192" lat="61.8387499975" lon="8.58591667006">
		<tag k="name" v="Læsa" />
		<tag k="ssr:stedsnr" v="192010" />
		<tag k="waterway" v="stream" />
	</node>
	<node id="-114189" lat="61.7553805551" lon="8.45452499306">
		<tag k="alt_name" v="Teppingstjørni, s;Teppingstjørni, søre;Søre Teppingstjørni" />
		<tag k="name" v="Søre Teppingje" />
		<tag k="natural" v="water" />
		<tag k="old_name" v="s Teppinge" />
		<tag k="ssr:stedsnr" v="180979" />
	</node>
	<node id="-114177" lat="61.7670250041" lon="8.39524165755">
		<tag k="name" v="Tunga" />
		<tag k="natural" v="cape" />
		<tag k="ssr:stedsnr" v="175414" />
	</node>
	<node id="-114169" lat="61.7206999978" lon="8.31194443992">
		<tag k="name" v="Hynngrove" />
		<tag k="ssr:stedsnr" v="175319" />
		<tag k="waterway" v="stream" />
	</node>
	<node id="-114151" lat="61.7466166687" lon="8.96314721846">
		<tag k="name" v="Steinvikje" />
		<tag k="natural" v="bay" />
		<tag k="ssr:stedsnr" v="162369" />
	</node>
	<node id="-114150" lat="61.7686944467" lon="8.93897222179">
		<tag k="name" v="Vikje" />
		<tag k="natural" v="bay" />
		<tag k="ssr:stedsnr" v="160309" />
	</node>
	<node id="-114149" lat="61.7503555592" lon="8.95358333829">
		<tag k="name" v="Dågåtjønnvikje" />
		<tag k="natural" v="bay" />
		<tag k="ssr:stedsnr" v="160308" />
	</node>
	<node id="-114135" lat="61.8170333346" lon="8.58069445388">
		<tag k="name" v="Nørdre Fossbrekkgrove" />
		<tag k="ssr:stedsnr" v="148415" />
		<tag k="waterway" v="stream" />
	</node>
	<node id="-114129" lat="61.9798416686" lon="8.60978055392">
		<tag k="name" v="Skardåi" />
		<tag k="ssr:stedsnr" v="132976" />
		<tag k="waterway" v="river" />
	</node>
	<node id="-114124" lat="61.9150418587" lon="8.59609573891">
		<tag k="loc_name" v="Lokkertjønne" />
		<tag k="name" v="Låkkertjørni" />
		<tag k="natural" v="water" />
		<tag k="ssr:stedsnr" v="132882" />
	</node>
	<node id="-114122" lat="61.9157749969" lon="8.55976111103">
		<tag k="loc_name" v="Fjellokra" />
		<tag k="name" v="Fjellåkkra" />
		<tag k="ssr:stedsnr" v="132876" />
		<tag k="waterway" v="stream" />
	</node>
	<node id="-114118" lat="61.7919527737" lon="8.8358166665">
		<tag k="name" v="Ilva" />
		<tag k="ssr:stedsnr" v="132192" />
		<tag k="waterway" v="river" />
	</node>
	<node id="-114113" lat="61.6846277741" lon="8.86009722755">
		<tag k="name" v="Rindbekken" />
		<tag k="ssr:stedsnr" v="131993" />
		<tag k="waterway" v="stream" />
	</node>
	<node id="-114112" lat="61.733474998" lon="8.85942500057">
		<tag k="name" v="Veslloni" />
		<tag k="place" v="locality" />
		<tag k="ssr:stedsnr" v="131978" />
	</node>
	<node id="-114111" lat="61.8952083329" lon="8.52715833167">
		<tag k="alt_name" v="Tjørnin, s" />
		<tag k="name" v="Søre Tjørnin" />
		<tag k="natural" v="water" />
		<tag k="ssr:stedsnr" v="131950" />
	</node>
	<node id="-114109" lat="61.5057472203" lon="8.59155278611">
		<tag k="name" v="Hesttjønne" />
		<tag k="natural" v="water" />
		<tag k="ssr:stedsnr" v="131942" />
	</node>
	<node id="-114108" lat="61.6239291796" lon="8.60095301445">
		<tag k="alt_name" v="Steinbuvatnet, nedre;Steinbuvatnet" />
		<tag k="name" v="Nedre Steinbuvatnet" />
		<tag k="natural" v="water" />
		<tag k="ssr:stedsnr" v="131933" />
		<tag k="water" v="lake" />
	</node>
	<node id="-114106" lat="61.6731222208" lon="8.81973055923">
		<tag k="name" v="Veo" />
		<tag k="ssr:stedsnr" v="131922" />
		<tag k="waterway" v="river" />
	</node>
	<node id="-114104" lat="61.6802750013" lon="8.57787221575">
		<tag k="name" v="Trollsteintjønne" />
		<tag k="natural" v="water" />
		<tag k="ssr:stedsnr" v="131838" />
	</node>
	<node id="-114101" lat="61.6957833308" lon="7.98106111648">
		<tag k="name" v="Øvre Steindalstjønne" />
		<tag k="natural" v="water" />
		<tag k="ssr:stedsnr" v="131455" />
	</node>
	<node id="-114100" lat="61.6908138871" lon="7.99619443993">
		<tag k="name" v="Øvre Storgrovtjønne" />
		<tag k="natural" v="water" />
		<tag k="ssr:stedsnr" v="131453" />
	</node>
	<node id="-114099" lat="61.6027612462" lon="7.97241675719">
		<tag k="name" v="Einslegtjønne" />
		<tag k="natural" v="water" />
		<tag k="ssr:stedsnr" v="131431" />
	</node>
	<node id="-114098" lat="61.5781166626" lon="7.96467499184">
		<tag k="name" v="Aurpina" />
		<tag k="natural" v="water" />
		<tag k="ssr:stedsnr" v="131290" />
	</node>
	<node id="-114086" lat="61.6739999965" lon="8.22535000003">
		<tag k="name" v="Ståla" />
		<tag k="ssr:stedsnr" v="131202" />
		<tag k="waterway" v="stream" />
	</node>
	<node id="-114083" lat="61.6701527804" lon="8.36079166692">
		<tag k="name" v="Juvvatnet" />
		<tag k="natural" v="water" />
		<tag k="ssr:stedsnr" v="131193" />
		<tag k="water" v="lake" />
	</node>
	<node id="-114082" lat="61.6587319218" lon="8.14708221848">
		<tag k="name" v="Nedre Halsatjønnen" />
		<tag k="natural" v="water" />
		<tag k="ssr:stedsnr" v="131192" />
	</node>
	<node id="-114080" lat="61.7320833296" lon="8.28394999468">
		<tag k="name" v="Runningsgrove" />
		<tag k="ssr:stedsnr" v="131171" />
		<tag k="waterway" v="stream" />
	</node>
	<node id="-114077" lat="61.7268166633" lon="8.13059999692">
		<tag k="name" v="Geitåtjønne" />
		<tag k="natural" v="water" />
		<tag k="ssr:stedsnr" v="131162" />
	</node>
	<node id="-114076" lat="61.7415944449" lon="8.42152222126">
		<tag k="name" v="Sveagrove" />
		<tag k="ssr:stedsnr" v="131159" />
		<tag k="waterway" v="stream" />
	</node>
	<node id="-114073" lat="61.7033777789" lon="8.13504166186">
		<tag k="name" v="Søre Tverråe" />
		<tag k="ssr:stedsnr" v="131145" />
		<tag k="waterway" v="stream" />
	</node>
	<node id="-114067" lat="61.864680557" lon="8.51740277757">
		<tag k="alt_name" v="Staurustøye" />
		<tag k="name" v="Staurustøyi" />
		<tag k="place" v="islet" />
		<tag k="ssr:stedsnr" v="131122" />
	</node>
	<node id="-114243" lat="61.55498889" lon="8.00455000891">
		<tag k="name" v="Trollauga" />
		<tag k="natural" v="water" />
		<tag k="ssr:stedsnr" v="192296" />
	</node>
	<node id="-114062" lat="61.8571083315" lon="8.53186943873">
		<tag k="name" v="Skim" />
		<tag k="natural" v="water" />
		<tag k="ssr:stedsnr" v="131079" />
	</node>
	<node id="-114059" lat="61.8448833371" lon="8.71505833849">
		<tag k="alt_name" v="Smørgrovi" />
		<tag k="name" v="Smørgrove" />
		<tag k="ssr:stedsnr" v="131064" />
		<tag k="waterway" v="stream" />
	</node>
	<node id="-114053" lat="61.8260388925" lon="8.64371388415">
		<tag k="alt_name" v="Sålellsbekken" />
		<tag k="name" v="Meadalsbekken" />
		<tag k="ssr:stedsnr" v="131030" />
		<tag k="waterway" v="stream" />
	</node>
	<node id="-114042" lat="61.6860527792" lon="8.26338611643">
		<tag k="name" v="Arnegrove" />
		<tag k="ssr:stedsnr" v="114744" />
		<tag k="waterway" v="stream" />
	</node>
	<node id="-114018" lat="61.7419333368" lon="8.97788055702">
		<tag k="name" v="Storvikje" />
		<tag k="natural" v="bay" />
		<tag k="ssr:stedsnr" v="102343" />
	</node>
	<node id="-114009" lat="61.8387527788" lon="8.83136944576">
		<tag k="name" v="Kleppdalsbekken" />
		<tag k="ssr:stedsnr" v="89570" />
		<tag k="waterway" v="stream" />
	</node>
	<node id="-114008" lat="61.8370166669" lon="8.57969999724">
		<tag k="name" v="Vittingsvassvegen" />
		<tag k="ssr:stedsnr" v="89270" />
		<tag k="waterway" v="drain" />
	</node>
	<node id="-114000" lat="61.8326416685" lon="8.48843055374">
		<tag k="name" v="Vekkjegrove" />
		<tag k="ssr:stedsnr" v="86975" />
		<tag k="waterway" v="stream" />
	</node>
	<node id="-113997" lat="61.7671916691" lon="8.27907777709">
		<tag k="name" v="Langsula" />
		<tag k="ssr:stedsnr" v="71997" />
		<tag k="waterway" v="river" />
	</node>
	<node id="-113995" lat="61.7866388878" lon="8.3323361163">
		<tag k="name" v="Lenda" />
		<tag k="ssr:stedsnr" v="71992" />
		<tag k="waterway" v="stream" />
	</node>
	<node id="-113993" lat="61.7451722223" lon="8.97547778223">
		<tag k="name" v="Tesse" />
		<tag k="natural" v="water" />
		<tag k="ssr:stedsnr" v="71964" />
		<tag k="water" v="lake" />
	</node>
	<node id="-113992" lat="61.8981583362" lon="8.77848332902">
		<tag k="alt_name" v="Grøna, nordre" />
		<tag k="name" v="Nørdre Grøna" />
		<tag k="ssr:stedsnr" v="71937" />
		<tag k="waterway" v="stream" />
	</node>
	<node id="-113989" lat="61.9196500022" lon="8.83808334103">
		<tag k="alt_name" v="Gymmergrovi, nordre" />
		<tag k="name" v="Nørdre Gymmergrove" />
		<tag k="ssr:stedsnr" v="71907" />
		<tag k="waterway" v="stream" />
	</node>
	<node id="-113988" lat="61.9313722223" lon="8.76193888859">
		<tag k="name" v="Svarttjørni" />
		<tag k="natural" v="water" />
		<tag k="ssr:stedsnr" v="71903" />
	</node>
	<node id="-113983" lat="61.8133305541" lon="8.94026110404">
		<tag k="name" v="Tessosen" />
		<tag k="natural" v="bay" />
		<tag k="ssr:stedsnr" v="71505" />
	</node>
	<node id="-113982" lat="61.6044749966" lon="8.07776388739">
		<tag k="name" v="Klårtjønne" />
		<tag k="natural" v="water" />
		<tag k="ssr:stedsnr" v="71483" />
	</node>
	<node id="-113979" lat="61.5590916703" lon="7.94974444625">
		<tag k="name" v="Panna" />
		<tag k="natural" v="water" />
		<tag k="ssr:stedsnr" v="71288" />
	</node>
	<node id="-113972" lat="61.6919305538" lon="8.31427500065">
		<tag k="name" v="Nyskridugrove" />
		<tag k="ssr:stedsnr" v="71254" />
		<tag k="waterway" v="stream" />
	</node>
	<node id="-113967" lat="61.6651972201" lon="8.11768888637">
		<tag k="name" v="Holmen" />
		<tag k="place" v="islet" />
		<tag k="ssr:stedsnr" v="71229" />
	</node>
	<node id="-113966" lat="61.8049638848" lon="8.63598055966">
		<tag k="name" v="Syngjarbekken" />
		<tag k="ssr:stedsnr" v="71217" />
		<tag k="waterway" v="stream" />
	</node>
	<node id="-113962" lat="61.7174750007" lon="8.69599165854">
		<tag k="name" v="Storkroken" />
		<tag k="place" v="locality" />
		<tag k="ssr:stedsnr" v="71061" />
	</node>
	<node id="-113956" lat="61.6162083296" lon="8.18395555296">
		<tag k="name" v="Ytre Illåe" />
		<tag k="ssr:stedsnr" v="71030" />
		<tag k="waterway" v="stream" />
	</node>
	<node id="-113944" lat="61.6523249958" lon="7.98158612013">
		<tag k="name" v="Slampeløyftgrove" />
		<tag k="ssr:stedsnr" v="70471" />
		<tag k="waterway" v="stream" />
	</node>
	<node id="-113942" lat="61.5445222188" lon="8.03006388011">
		<tag k="name" v="Skåli" />
		<tag k="natural" v="water" />
		<tag k="ssr:stedsnr" v="70334" />
	</node>
	<node id="-113941" lat="61.5462444411" lon="8.02103611271">
		<tag k="name" v="Utledalstjønne" />
		<tag k="natural" v="water" />
		<tag k="ssr:stedsnr" v="70330" />
	</node>
	<node id="-113937" lat="61.7202777809" lon="8.39535833028">
		<tag k="name" v="Raudbergstultjønne" />
		<tag k="natural" v="water" />
		<tag k="ssr:stedsnr" v="70123" />
	</node>
	<node id="-113934" lat="61.8096666711" lon="8.52206110244">
		<tag k="name" v="Skiftesgrovi" />
		<tag k="ssr:stedsnr" v="70226" />
		<tag k="waterway" v="stream" />
	</node>
	<node id="-113926" lat="61.5678000017" lon="8.30995000738">
		<tag k="name" v="Tverrbytna" />
		<tag k="ssr:stedsnr" v="70023" />
		<tag k="waterway" v="stream" />
	</node>
	<node id="-115585" lat="61.5768222225" lon="8.21740277789">
		<tag k="name" v="Leirløyftgrove" />
		<tag k="ssr:stedsnr" v="920028" />
		<tag k="waterway" v="stream" />
	</node>
	<node id="-113924" lat="61.496838888" lon="8.3580749963">
		<tag k="name" v="Langvatnet" />
		<tag k="natural" v="water" />
		<tag k="ssr:stedsnr" v="68865" />
		<tag k="water" v="lake" />
	</node>
	<node id="-113923" lat="61.4906999972" lon="8.41850555776">
		<tag k="name" v="Semelåe" />
		<tag k="ssr:stedsnr" v="68864" />
		<tag k="waterway" v="stream" />
	</node>
	<node id="-113921" lat="61.4735027762" lon="8.46492499747">
		<tag k="name" v="Høgtungetjønne" />
		<tag k="natural" v="water" />
		<tag k="ssr:stedsnr" v="68845" />
	</node>
	<node id="-113918" lat="61.6680666704" lon="8.13251110505">
		<tag k="name" v="Høyfossen" />
		<tag k="natural" v="waterfall" />
		<tag k="ssr:stedsnr" v="54695" />
	</node>
	<node id="-113913" lat="61.7576166656" lon="8.41508333571">
		<tag k="name" v="Miltjesgrøvein" />
		<tag k="ssr:stedsnr" v="54416" />
		<tag k="waterway" v="stream" />
	</node>
	<node id="-113905" lat="61.6886833289" lon="8.16523055473">
		<tag k="name" v="Purkeøya" />
		<tag k="place" v="islet" />
		<tag k="ssr:stedsnr" v="53772" />
	</node>
	<node id="-113896" lat="61.8005944464" lon="8.91863056344">
		<tag k="name" v="Gamelilva" />
		<tag k="ssr:stedsnr" v="53459" />
		<tag k="waterway" v="stream" />
	</node>
	<node id="-113886" lat="61.7618944471" lon="8.94290554731">
		<tag k="name" v="Nørdre Spakroe" />
		<tag k="natural" v="bay" />
		<tag k="ssr:stedsnr" v="39293" />
	</node>
	<node id="-113885" lat="61.7581000036" lon="8.94421943907">
		<tag k="name" v="Tuva" />
		<tag k="natural" v="cape" />
		<tag k="ssr:stedsnr" v="39283" />
	</node>
	<node id="-113880" lat="61.8426722253" lon="8.67615000068">
		<tag k="name" v="Sørstrondvassvegen" />
		<tag k="ssr:stedsnr" v="28838" />
		<tag k="waterway" v="drain" />
	</node>
	<node id="-113877" lat="61.8517944449" lon="8.55365833176">
		<tag k="name" v="Tronoodden" />
		<tag k="natural" v="cape" />
		<tag k="ssr:stedsnr" v="28453" />
	</node>
	<node id="-113858" lat="61.8033777799" lon="8.42433889392">
		<tag k="alt_name" v="Storåe" />
		<tag k="name" v="Storåi" />
		<tag k="ssr:stedsnr" v="11940" />
		<tag k="waterway" v="stream" />
	</node>
	<node id="-113857" lat="61.9129194455" lon="8.59435556181">
		<tag k="name" v="Trongtjørni" />
		<tag k="natural" v="water" />
		<tag k="ssr:stedsnr" v="11924" />
	</node>
	<node id="-113853" lat="61.7790194462" lon="8.53252500586">
		<tag k="name" v="Klimpetjørnin" />
		<tag k="natural" v="water" />
		<tag k="ssr:stedsnr" v="11195" />
	</node>
	<node id="-113852" lat="61.7564416628" lon="8.83679999642">
		<tag k="alt_name" v="Grjotåi, nedre" />
		<tag k="name" v="Nedre Grjotåi" />
		<tag k="ssr:stedsnr" v="11150" />
		<tag k="waterway" v="stream" />
	</node>
	<node id="-113849" lat="61.9014499981" lon="8.54919444368">
		<tag k="name" v="Buodden" />
		<tag k="natural" v="cape" />
		<tag k="ssr:stedsnr" v="10930" />
	</node>
	<node id="-113848" lat="61.9035472228" lon="8.52438332914">
		<tag k="name" v="Honnsjogrovi" />
		<tag k="ssr:stedsnr" v="10929" />
		<tag k="waterway" v="stream" />
	</node>
	<node id="-113840" lat="61.9548190216" lon="8.55819965827">
		<tag k="name" v="Råkåvatnet" />
		<tag k="natural" v="water" />
		<tag k="ssr:stedsnr" v="10906" />
		<tag k="water" v="lake" />
	</node>
	<node id="-113838" lat="61.6761722252" lon="7.92304166827">
		<tag k="name" v="Merrahøtjønne" />
		<tag k="natural" v="water" />
		<tag k="ssr:stedsnr" v="10458" />
	</node>
	<node id="-113837" lat="61.5944944455" lon="7.98461388961">
		<tag k="name" v="Aurkvee" />
		<tag k="natural" v="water" />
		<tag k="ssr:stedsnr" v="10445" />
	</node>
	<node id="-113834" lat="61.6168410694" lon="7.96287529898">
		<tag k="name" v="Storevatnet" />
		<tag k="natural" v="water" />
		<tag k="ssr:stedsnr" v="10429" />
		<tag k="water" v="lake" />
	</node>
	<node id="-113833" lat="61.7576666644" lon="8.89634721855">
		<tag k="name" v="Sylva" />
		<tag k="ssr:stedsnr" v="10388" />
		<tag k="waterway" v="river" />
	</node>
	<node id="-113832" lat="61.5501333304" lon="8.04870000879">
		<tag k="name" v="Falkebergtjørni" />
		<tag k="natural" v="water" />
		<tag k="ssr:stedsnr" v="10333" />
	</node>
	<node id="-113831" lat="61.5753500028" lon="8.00470834182">
		<tag k="name" v="Skurva" />
		<tag k="natural" v="water" />
		<tag k="ssr:stedsnr" v="10286" />
	</node>
	<node id="-113830" lat="61.5931416637" lon="8.01759166036">
		<tag k="name" v="Nufsvatnet" />
		<tag k="natural" v="water" />
		<tag k="ssr:stedsnr" v="10275" />
	</node>
	<node id="-113828" lat="61.5594194485" lon="8.0215055561">
		<tag k="name" v="Skolven" />
		<tag k="natural" v="water" />
		<tag k="ssr:stedsnr" v="10267" />
	</node>
	<node id="-113827" lat="61.5687444402" lon="7.9831027784">
		<tag k="name" v="Kakken" />
		<tag k="natural" v="water" />
		<tag k="ssr:stedsnr" v="10253" />
	</node>
	<node id="-113825" lat="61.6937527751" lon="8.25922499613">
		<tag k="name" v="Nibbegrove" />
		<tag k="ssr:stedsnr" v="10239" />
		<tag k="waterway" v="stream" />
	</node>
	<node id="-113822" lat="61.6822611103" lon="8.40441666358">
		<tag k="alt_name" v="Løyfte" />
		<tag k="name" v="Gudda" />
		<tag k="ssr:stedsnr" v="10228" />
		<tag k="waterway" v="stream" />
	</node>
	<node id="-113819" lat="61.678516666" lon="8.19043611376">
		<tag k="name" v="Gomobrenngrove" />
		<tag k="ssr:stedsnr" v="10215" />
		<tag k="waterway" v="stream" />
	</node>
	<node id="-113816" lat="61.6615055552" lon="8.45963333757">
		<tag k="name" v="Glitra" />
		<tag k="ssr:stedsnr" v="10198" />
		<tag k="waterway" v="river" />
	</node>
	<node id="-113809" lat="61.8785388891" lon="8.68011943754">
		<tag k="name" v="Dyrmyrtjørni" />
		<tag k="natural" v="water" />
		<tag k="ssr:stedsnr" v="10133" />
	</node>
	<node id="-113804" lat="61.8732055576" lon="8.59090833311">
		<tag k="alt_name" v="Svarttjønne" />
		<tag k="name" v="Svarttjørnin" />
		<tag k="natural" v="water" />
		<tag k="ssr:stedsnr" v="10108" />
	</node>
	<node id="-113799" lat="61.7146138867" lon="8.73835277416">
		<tag k="name" v="Veslvatnet" />
		<tag k="natural" v="water" />
		<tag k="ssr:stedsnr" v="10080" />
	</node>
	<node id="-113796" lat="61.8691361148" lon="8.74751666937">
		<tag k="alt_name" v="Ytterviki" />
		<tag k="name" v="Yttervikje" />
		<tag k="natural" v="bay" />
		<tag k="ssr:stedsnr" v="10075" />
	</node>
	<node id="-113795" lat="61.6170777796" lon="8.16873332918">
		<tag k="name" v="Hurrøye" />
		<tag k="place" v="island" />
		<tag k="ssr:stedsnr" v="10062" />
	</node>
	<node id="-113785" lat="61.8367638882" lon="8.79876388067">
		<tag k="alt_name" v="Gjerdingi;Gjelingje" />
		<tag k="name" v="Gjerdingje" />
		<tag k="ssr:stedsnr" v="10028" />
		<tag k="waterway" v="river" />
	</node>
	<node id="-113780" lat="61.8397416646" lon="8.75390556007">
		<tag k="alt_name" v="Laingsåe" />
		<tag k="name" v="Laingsåi" />
		<tag k="ssr:stedsnr" v="10005" />
		<tag k="waterway" v="stream" />
	</node>
	<node id="-113777" lat="61.4925805572" lon="8.57816389653">
		<tag k="name" v="Muru" />
		<tag k="ssr:stedsnr" v="8798" />
		<tag k="waterway" v="river" />
	</node>
	<node id="-113772" lat="61.8335638909" lon="8.87317222597">
		<tag k="alt_name" v="Krosstjørni" />
		<tag k="name" v="Krosstjønne" />
		<tag k="natural" v="water" />
		<tag k="ssr:stedsnr" v="434450" />
	</node>
	<node id="-113726" lat="61.8647305538" lon="8.72292778366">
		<tag k="name" v="Stastjønne" />
		<tag k="natural" v="water" />
		<tag k="ssr:stedsnr" v="478951" />
	</node>
	<node id="-113706" lat="61.6912388881" lon="8.16978334262">
		<tag k="name" v="Snipen" />
		<tag k="natural" v="cape" />
		<tag k="ssr:stedsnr" v="477789" />
	</node>
	<node id="-113704" lat="61.7049083324" lon="8.22911667289">
		<tag k="name" v="Kvamsvikje" />
		<tag k="natural" v="bay" />
		<tag k="ssr:stedsnr" v="477779" />
	</node>
	<node id="-113697" lat="61.6757833321" lon="8.23287221321">
		<tag k="name" v="Bakkebergsgrove" />
		<tag k="ssr:stedsnr" v="477753" />
		<tag k="waterway" v="stream" />
	</node>
	<node id="-113696" lat="61.6762222179" lon="8.25885555325">
		<tag k="name" v="Nedre Storgrovfossen" />
		<tag k="natural" v="waterfall" />
		<tag k="ssr:stedsnr" v="477749" />
	</node>
	<node id="-115739" lat="61.8647472221" lon="8.72752500294">
		<tag k="name" v="Osen" />
		<tag k="natural" v="bay" />
		<tag k="ssr:stedsnr" v="964937" />
	</node>
	<node id="-113690" lat="61.7444388913" lon="8.97162500656">
		<tag k="name" v="Gryta" />
		<tag k="natural" v="bay" />
		<tag k="ssr:stedsnr" v="405368" />
	</node>
	<node id="-113689" lat="61.7533055535" lon="8.94954721421">
		<tag k="name" v="Naustervikje" />
		<tag k="natural" v="bay" />
		<tag k="ssr:stedsnr" v="403325" />
	</node>
	<node id="-113688" lat="61.7512333376" lon="8.95397778347">
		<tag k="name" v="Djupkastet" />
		<tag k="natural" v="bay" />
		<tag k="ssr:stedsnr" v="403323" />
	</node>
	<node id="-115733" lat="61.6511888874" lon="8.19827778693">
		<tag k="name" v="Dumfossen" />
		<tag k="natural" v="waterfall" />
		<tag k="ssr:stedsnr" v="964681" />
	</node>
	<node id="-113680" lat="61.8340027786" lon="8.63985278253">
		<tag k="name" v="Vannkanal" />
		<tag k="ssr:stedsnr" v="392863" />
		<tag k="waterway" v="drain" />
	</node>
	<node id="-115726" lat="61.8000527797" lon="8.40823610408">
		<tag k="name" v="Åvang" />
		<tag k="natural" v="water" />
		<tag k="ssr:stedsnr" v="964053" />
	</node>
	<node id="-115725" lat="61.8083805553" lon="8.49079999053">
		<tag k="name" v="Øygardsgrove" />
		<tag k="ssr:stedsnr" v="964036" />
		<tag k="waterway" v="stream" />
	</node>
	<node id="-115720" lat="61.6887555549" lon="8.20048332672">
		<tag k="name" v="Teppingstjønne" />
		<tag k="natural" v="water" />
		<tag k="ssr:stedsnr" v="963765" />
	</node>
	<node id="-115719" lat="61.6949888927" lon="8.22422222966">
		<tag k="name" v="Nedre Teppingstjønne" />
		<tag k="natural" v="water" />
		<tag k="ssr:stedsnr" v="963763" />
	</node>
	<node id="-115716" lat="61.6842333295" lon="8.24609166323">
		<tag k="name" v="Storgrovodden" />
		<tag k="natural" v="cape" />
		<tag k="ssr:stedsnr" v="963753" />
	</node>
	<node id="-113666" lat="61.8187361138" lon="8.6158972248">
		<tag k="name" v="Nordstrondvassvegen" />
		<tag k="ssr:stedsnr" v="391444" />
		<tag k="waterway" v="drain" />
	</node>
	<node id="-115713" lat="61.7094888905" lon="8.1743444384">
		<tag k="name" v="Håleinna" />
		<tag k="ssr:stedsnr" v="963635" />
		<tag k="waterway" v="stream" />
	</node>
	<node id="-115708" lat="61.7989583357" lon="8.92586389381">
		<tag k="name" v="Vassenden" />
		<tag k="natural" v="bay" />
		<tag k="ssr:stedsnr" v="963490" />
	</node>
	<node id="-113657" lat="61.7543111115" lon="8.24884722193">
		<tag k="name" v="Galdvassvegen" />
		<tag k="ssr:stedsnr" v="374981" />
		<tag k="waterway" v="stream" />
	</node>
	<node id="-113492" lat="61.5914902441" lon="8.05196713725">
		<tag k="name" v="Øvre Nufstjønne" />
		<tag k="natural" v="water" />
		<tag k="ssr:stedsnr" v="313282" />
		<tag k="water" v="lake" />
	</node>
	<node id="-113654" lat="61.9008203582" lon="8.56246207526">
		<tag k="alt_name" v="Honnsjon" />
		<tag k="loc_name" v="Honnsjøen" />
		<tag k="name" v="Honnsjoen" />
		<tag k="natural" v="water" />
		<tag k="ssr:stedsnr" v="374945" />
		<tag k="water" v="lake" />
	</node>
	<node id="-113653" lat="61.9021277811" lon="8.57938611877">
		<tag k="name" v="Liaholmen" />
		<tag k="place" v="islet" />
		<tag k="ssr:stedsnr" v="374944" />
	</node>
	<node id="-115699" lat="61.7440083336" lon="8.31807500701">
		<tag k="name" v="Søre Driva" />
		<tag k="ssr:stedsnr" v="963290" />
		<tag k="waterway" v="stream" />
	</node>
	<node id="-113650" lat="61.8897972265" lon="8.55762222316">
		<tag k="alt_name" v="Kverngrovtjørni, øvre" />
		<tag k="name" v="Øvre Kverngrovtjønne" />
		<tag k="natural" v="water" />
		<tag k="ssr:stedsnr" v="374911" />
	</node>
	<node id="-115691" lat="61.8660861134" lon="8.86368610469">
		<tag k="name" v="Sandvikteppingje" />
		<tag k="natural" v="water" />
		<tag k="ssr:stedsnr" v="963320" />
	</node>
	<node id="-115689" lat="61.7904194455" lon="8.93204444071">
		<tag k="name" v="Raustein" />
		<tag k="natural" v="bay" />
		<tag k="ssr:stedsnr" v="949315" />
	</node>
	<node id="-113640" lat="61.7973638863" lon="8.92464443996">
		<tag k="name" v="Vassenden" />
		<tag k="natural" v="cape" />
		<tag k="ssr:stedsnr" v="374441" />
	</node>
	<node id="-115687" lat="61.826519447" lon="8.6311166642">
		<tag k="name" v="Vannkanal" />
		<tag k="ssr:stedsnr" v="939824" />
		<tag k="waterway" v="drain" />
	</node>
	<node id="-113638" lat="61.721516669" lon="8.07937777239">
		<tag k="name" v="Høybreavatnet" />
		<tag k="natural" v="water" />
		<tag k="ssr:stedsnr" v="374396" />
		<tag k="water" v="lake" />
	</node>
	<node id="-113636" lat="61.5597249998" lon="7.9847527823">
		<tag k="name" v="Rosttjørn" />
		<tag k="natural" v="water" />
		<tag k="ssr:stedsnr" v="374292" />
	</node>
	<node id="-113635" lat="61.869955556" lon="8.79571110304">
		<tag k="name" v="Grøna" />
		<tag k="ssr:stedsnr" v="374271" />
		<tag k="waterway" v="river" />
	</node>
	<node id="-113628" lat="61.8036138858" lon="8.75222777396">
		<tag k="name" v="Gjerdingtjørni" />
		<tag k="natural" v="water" />
		<tag k="ssr:stedsnr" v="374214" />
	</node>
	<node id="-113624" lat="61.7257666633" lon="8.23300555369">
		<tag k="name" v="Kvanndalsgrove" />
		<tag k="ssr:stedsnr" v="374191" />
		<tag k="waterway" v="stream" />
	</node>
	<node id="-113621" lat="61.7165777757" lon="8.43754167203">
		<tag k="name" v="Sætergrove" />
		<tag k="ssr:stedsnr" v="374162" />
		<tag k="waterway" v="stream" />
	</node>
	<node id="-113618" lat="61.5223416627" lon="8.386950002">
		<tag k="name" v="Urdadalstjønnen" />
		<tag k="natural" v="water" />
		<tag k="ssr:stedsnr" v="374135" />
	</node>
	<node id="-113614" lat="61.7267416654" lon="8.70807500912">
		<tag k="name" v="Tavelflybekken" />
		<tag k="ssr:stedsnr" v="374097" />
		<tag k="waterway" v="stream" />
	</node>
	<node id="-113613" lat="61.728299999" lon="8.83624999408">
		<tag k="name" v="Langloni" />
		<tag k="place" v="locality" />
		<tag k="ssr:stedsnr" v="374090" />
	</node>
	<node id="-115655" lat="61.775805559" lon="8.43526389047">
		<tag k="alt_name" v="Svarttjørni" />
		<tag k="name" v="Svarttjønne" />
		<tag k="natural" v="water" />
		<tag k="ssr:stedsnr" v="920999" />
	</node>
	<node id="-115653" lat="61.7801999958" lon="8.36743334012">
		<tag k="name" v="Fjellgrovi" />
		<tag k="ssr:stedsnr" v="920991" />
		<tag k="waterway" v="stream" />
	</node>
	<node id="-115652" lat="61.7737471255" lon="8.23867785926">
		<tag k="name" v="Sultjørnin" />
		<tag k="natural" v="water" />
		<tag k="ssr:stedsnr" v="920987" />
		<tag k="water" v="lake" />
	</node>
	<node id="-115647" lat="61.878897226" lon="8.59189722886">
		<tag k="alt_name" v="Kampetjørni" />
		<tag k="name" v="Kampetjønne" />
		<tag k="natural" v="water" />
		<tag k="ssr:stedsnr" v="920930" />
	</node>
	<node id="-115645" lat="61.8946194465" lon="8.66263888816">
		<tag k="alt_name" v="Storteppingi, søre" />
		<tag k="name" v="Søre Storteppingje" />
		<tag k="natural" v="water" />
		<tag k="ssr:stedsnr" v="920917" />
	</node>
	<node id="-113595" lat="61.805991668" lon="8.82720277549">
		<tag k="name" v="Kopptjørnin" />
		<tag k="natural" v="water" />
		<tag k="ssr:stedsnr" v="373239" />
	</node>
	<node id="-115642" lat="61.6515499961" lon="8.64512500795">
		<tag k="name" v="Gråsubekken" />
		<tag k="ssr:stedsnr" v="920897" />
		<tag k="waterway" v="stream" />
	</node>
	<node id="-115641" lat="61.8650555512" lon="8.7326694392">
		<tag k="name" v="Otta" />
		<tag k="ssr:stedsnr" v="920504" />
		<tag k="waterway" v="river" />
	</node>
	<node id="-115640" lat="61.6658527814" lon="7.97417221376">
		<tag k="name" v="Høyøyen" />
		<tag k="natural" v="water" />
		<tag k="ssr:stedsnr" v="920483" />
	</node>
	<node id="-113590" lat="61.6524999998" lon="8.1901500041">
		<tag k="name" v="Dumma" />
		<tag k="ssr:stedsnr" v="373171" />
		<tag k="waterway" v="stream" />
	</node>
	<node id="-115635" lat="61.7038251853" lon="8.00999668025">
		<tag k="name" v="Høybreatjønnen" />
		<tag k="natural" v="water" />
		<tag k="ssr:stedsnr" v="920458" />
		<tag k="water" v="lake" />
	</node>
	<node id="-115634" lat="61.6851166688" lon="8.01902221605">
		<tag k="name" v="Vesltjønne" />
		<tag k="natural" v="water" />
		<tag k="ssr:stedsnr" v="920449" />
	</node>
	<node id="-115633" lat="61.6780915981" lon="7.93428914184">
		<tag k="name" v="Merrahøvatnet" />
		<tag k="natural" v="water" />
		<tag k="ssr:stedsnr" v="920446" />
		<tag k="water" v="lake" />
	</node>
	<node id="-115631" lat="61.7993305576" lon="8.87644443988">
		<tag k="alt_name" v="Torfinna, nordre" />
		<tag k="name" v="Nørdre Torfinna" />
		<tag k="ssr:stedsnr" v="920435" />
		<tag k="waterway" v="stream" />
	</node>
	<node id="-115629" lat="61.5559055566" lon="7.98513612036">
		<tag k="name" v="Gilkjeret" />
		<tag k="natural" v="water" />
		<tag k="ssr:stedsnr" v="920272" />
	</node>
	<node id="-113579" lat="61.4850083317" lon="8.40608611872">
		<tag k="name" v="Hellertjønne" />
		<tag k="natural" v="water" />
		<tag k="ssr:stedsnr" v="371858" />
	</node>
	<node id="-115623" lat="61.6866555601" lon="8.17353611305">
		<tag k="name" v="Råkågrove" />
		<tag k="ssr:stedsnr" v="920221" />
		<tag k="waterway" v="stream" />
	</node>
	<node id="-113572" lat="61.6601222242" lon="8.07015554805">
		<tag k="name" v="Vassberget" />
		<tag k="natural" v="cape" />
		<tag k="ssr:stedsnr" v="357684" />
	</node>
	<node id="-115616" lat="61.7478305598" lon="8.24376111629">
		<tag k="name" v="Rudningi" />
		<tag k="ssr:stedsnr" v="920174" />
		<tag k="waterway" v="stream" />
	</node>
	<node id="-115613" lat="61.7106666642" lon="8.23222222069">
		<tag k="alt_name" v="Kveinndalsgrove" />
		<tag k="name" v="Kverndalsgrovi" />
		<tag k="ssr:stedsnr" v="920151" />
		<tag k="waterway" v="stream" />
	</node>
	<node id="-113563" lat="61.8031138849" lon="8.91653054632">
		<tag k="name" v="Krokotbekken" />
		<tag k="ssr:stedsnr" v="357432" />
		<tag k="waterway" v="stream" />
	</node>
	<node id="-115610" lat="61.8697444421" lon="8.73104722475">
		<tag k="alt_name" v="Vamtjørni" />
		<tag k="name" v="Vamtjønne" />
		<tag k="natural" v="water" />
		<tag k="ssr:stedsnr" v="920129" />
	</node>
	<node id="-115609" lat="61.865758335" lon="8.50229167204">
		<tag k="alt_name" v="Bakkeøye" />
		<tag k="name" v="Bakkeøyi" />
		<tag k="place" v="islet" />
		<tag k="ssr:stedsnr" v="920126" />
	</node>
	<node id="-115608" lat="61.5422575572" lon="8.36823466857">
		<tag k="name" v="Semelholstjønne" />
		<tag k="natural" v="water" />
		<tag k="ssr:stedsnr" v="920125" />
	</node>
	<node id="-115607" lat="61.8760499997" lon="8.81490555812">
		<tag k="alt_name" v="Helga, s;Helga" />
		<tag k="name" v="Søre Helga" />
		<tag k="ssr:stedsnr" v="920122" />
		<tag k="waterway" v="stream" />
	</node>
	<node id="-115605" lat="61.8865138929" lon="8.62753611635">
		<tag k="alt_name" v="Veslteppingi, nordre" />
		<tag k="name" v="Nørdre Veslteppingje" />
		<tag k="natural" v="water" />
		<tag k="ssr:stedsnr" v="920116" />
	</node>
	<node id="-115602" lat="61.8685111071" lon="8.82287778012">
		<tag k="name" v="Veldra" />
		<tag k="ssr:stedsnr" v="920090" />
		<tag k="waterway" v="stream" />
	</node>
	<node id="-115599" lat="61.8541111099" lon="8.59815276998">
		<tag k="alt_name" v="Geitøyi" />
		<tag k="name" v="Geitøye" />
		<tag k="place" v="islet" />
		<tag k="ssr:stedsnr" v="920081" />
	</node>
	<node id="-113545" lat="61.7010388855" lon="8.22953334226">
		<tag k="name" v="Blomlivikje" />
		<tag k="natural" v="bay" />
		<tag k="ssr:stedsnr" v="356757" />
	</node>
	<node id="-115592" lat="61.6436888895" lon="8.39666666069">
		<tag k="name" v="Breagrove" />
		<tag k="ssr:stedsnr" v="920055" />
		<tag k="waterway" v="stream" />
	</node>
	<node id="-113542" lat="61.6792694475" lon="8.24609444499">
		<tag k="name" v="Liagrove" />
		<tag k="ssr:stedsnr" v="356735" />
		<tag k="waterway" v="stream" />
	</node>
	<node id="-113537" lat="61.7597888901" lon="8.94404166857">
		<tag k="name" v="Steinnebben" />
		<tag k="natural" v="cape" />
		<tag k="ssr:stedsnr" v="342324" />
	</node>
	<node id="-115584" lat="61.547613889" lon="8.30565833068">
		<tag k="name" v="Panna" />
		<tag k="natural" v="water" />
		<tag k="ssr:stedsnr" v="920010" />
	</node>
	<node id="-115579" lat="61.4790638857" lon="8.57571389132">
		<tag k="name" v="Ånde" />
		<tag k="natural" v="water" />
		<tag k="ssr:stedsnr" v="918825" />
	</node>
	<node id="-115569" lat="61.6575583371" lon="8.06831387941">
		<tag k="name" v="Felodden" />
		<tag k="natural" v="cape" />
		<tag k="ssr:stedsnr" v="904674" />
	</node>
	<node id="-115567" lat="61.8597527747" lon="8.71075278637">
		<tag k="name" v="Kollaneset" />
		<tag k="natural" v="cape" />
		<tag k="ssr:stedsnr" v="903954" />
	</node>
	<node id="-113500" lat="61.6379777801" lon="8.47457500556">
		<tag k="name" v="Skauta" />
		<tag k="ssr:stedsnr" v="313898" />
		<tag k="waterway" v="river" />
	</node>
	<node id="-115514" lat="61.7575611067" lon="8.44546666513">
		<tag k="name" v="Skardstula" />
		<tag k="natural" v="water" />
		<tag k="ssr:stedsnr" v="860984" />
	</node>
	<node id="-113498" lat="61.8000361134" lon="8.89521944204">
		<tag k="alt_name" v="Torfinna, s" />
		<tag k="name" v="Søre Torfinna" />
		<tag k="ssr:stedsnr" v="313443" />
		<tag k="waterway" v="stream" />
	</node>
	<node id="-113497" lat="61.591908333" lon="7.94374999179">
		<tag k="name" v="Attgløyma" />
		<tag k="natural" v="water" />
		<tag k="ssr:stedsnr" v="313442" />
	</node>
	<node id="-113496" lat="61.6399194427" lon="8.08582499762">
		<tag k="name" v="Brangsgrove" />
		<tag k="ssr:stedsnr" v="313435" />
		<tag k="waterway" v="stream" />
	</node>
	<node id="-113493" lat="61.5750111098" lon="7.98448055878">
		<tag k="name" v="Trivlegtjønne" />
		<tag k="natural" v="water" />
		<tag k="ssr:stedsnr" v="313306" />
	</node>
	<node id="-115540" lat="61.6946222228" lon="8.22850833462">
		<tag k="name" v="Øvre Teppingstjønne" />
		<tag k="natural" v="water" />
		<tag k="ssr:stedsnr" v="902767" />
	</node>
	<node id="-113491" lat="61.5633250015" lon="7.97094999945">
		<tag k="name" v="Rauskjølelvi" />
		<tag k="ssr:stedsnr" v="313255" />
		<tag k="waterway" v="stream" />
	</node>
	<node id="-113484" lat="61.6795333296" lon="8.2572805629">
		<tag k="name" v="Storgrove" />
		<tag k="ssr:stedsnr" v="313226" />
		<tag k="waterway" v="stream" />
	</node>
	<node id="-113477" lat="61.5264291787" lon="8.27460922701">
		<tag k="name" v="Øvre Høgvagltjønnen" />
		<tag k="natural" v="water" />
		<tag k="ssr:stedsnr" v="313138" />
	</node>
	<node id="-113475" lat="61.54569746" lon="8.39977256244">
		<tag k="name" v="Urdadalstjønne" />
		<tag k="natural" v="water" />
		<tag k="ssr:stedsnr" v="313131" />
		<tag k="water" v="lake" />
	</node>
	<node id="-113473" lat="61.8820138859" lon="8.81827500536">
		<tag k="alt_name" v="Helga, nordre" />
		<tag k="name" v="Nørdre Helga" />
		<tag k="ssr:stedsnr" v="313118" />
		<tag k="waterway" v="stream" />
	</node>
	<node id="-115517" lat="61.8322361145" lon="8.50771389162">
		<tag k="name" v="Marsteingrove" />
		<tag k="ssr:stedsnr" v="875164" />
		<tag k="waterway" v="stream" />
	</node>
	<node id="-113466" lat="61.729077781" lon="8.79502778477">
		<tag k="name" v="Øvre Grotåe" />
		<tag k="ssr:stedsnr" v="313089" />
		<tag k="waterway" v="river" />
	</node>
	<node id="-115512" lat="61.7388555519" lon="8.88552499939">
		<tag k="name" v="Storbekken" />
		<tag k="ssr:stedsnr" v="860955" />
		<tag k="waterway" v="stream" />
	</node>
	<node id="-113462" lat="61.681180558" lon="8.71979721398">
		<tag k="name" v="Grønbekken" />
		<tag k="ssr:stedsnr" v="313078" />
		<tag k="waterway" v="stream" />
	</node>
	<node id="-115509" lat="61.8961916632" lon="8.80163610686">
		<tag k="alt_name" v="Grøna, s" />
		<tag k="name" v="Søre Grøna" />
		<tag k="ssr:stedsnr" v="860924" />
		<tag k="waterway" v="stream" />
	</node>
	<node id="-115505" lat="61.922897224" lon="8.75109166058">
		<tag k="alt_name" v="Reinskinngrove" />
		<tag k="name" v="Reinskinngrovi" />
		<tag k="ssr:stedsnr" v="860900" />
		<tag k="waterway" v="stream" />
	</node>
	<node id="-115504" lat="61.7038722184" lon="8.08020554972">
		<tag k="name" v="Hite" />
		<tag k="natural" v="water" />
		<tag k="ssr:stedsnr" v="860516" />
	</node>
	<node id="-115501" lat="61.5562222236" lon="7.97741387944">
		<tag k="name" v="Kaggen" />
		<tag k="natural" v="water" />
		<tag k="ssr:stedsnr" v="860315" />
	</node>
	<node id="-115499" lat="61.5627361146" lon="7.95907222744">
		<tag k="name" v="Pytten" />
		<tag k="natural" v="water" />
		<tag k="ssr:stedsnr" v="860296" />
	</node>
	<node id="-115497" lat="61.6865277761" lon="8.27636943926">
		<tag k="name" v="Skjellhåmårgrove" />
		<tag k="ssr:stedsnr" v="860270" />
		<tag k="waterway" v="stream" />
	</node>
	<node id="-115494" lat="61.7653805532" lon="8.60539444824">
		<tag k="name" v="Ragnhildgrovi" />
		<tag k="ssr:stedsnr" v="860247" />
		<tag k="waterway" v="stream" />
	</node>
	<node id="-115491" lat="61.7822111083" lon="8.54942499539">
		<tag k="name" v="Hovdelangtjørni" />
		<tag k="natural" v="water" />
		<tag k="ssr:stedsnr" v="860233" />
	</node>
	<node id="-113442" lat="61.4856250018" lon="8.48272221935">
		<tag k="name" v="Sekketjønne" />
		<tag k="natural" v="water" />
		<tag k="ssr:stedsnr" v="311806" />
	</node>
	<node id="-113440" lat="61.5105888862" lon="8.49030833089">
		<tag k="name" v="Reinstindvatnet" />
		<tag k="natural" v="water" />
		<tag k="ssr:stedsnr" v="313942" />
		<tag k="water" v="lake" />
	</node>
	<node id="-115487" lat="61.7535194458" lon="8.63401111669">
		<tag k="alt_name" v="Fegra, øvre" />
		<tag k="name" v="Øvre Fegra" />
		<tag k="ssr:stedsnr" v="860196" />
		<tag k="waterway" v="stream" />
	</node>
	<node id="-115485" lat="61.8755277805" lon="8.64938610856">
		<tag k="alt_name" v="Sagelvi, nordre;Sagelve" />
		<tag k="name" v="Nordre Sagelvi" />
		<tag k="ssr:stedsnr" v="860139" />
		<tag k="waterway" v="stream" />
	</node>
	<node id="-113435" lat="61.66908056" lon="8.66773888213">
		<tag k="name" v="Bergenussa" />
		<tag k="ssr:stedsnr" v="313907" />
		<tag k="waterway" v="river" />
	</node>
	<node id="-115482" lat="61.8770500041" lon="8.63352778513">
		<tag k="alt_name" v="Åsteppingje" />
		<tag k="name" v="Åsteppingi" />
		<tag k="natural" v="water" />
		<tag k="ssr:stedsnr" v="860113" />
	</node>
	<node id="-115480" lat="61.7174749998" lon="8.68556666515">
		<tag k="name" v="Langloni" />
		<tag k="place" v="locality" />
		<tag k="ssr:stedsnr" v="860106" />
	</node>
	<node id="-115479" lat="61.866786111" lon="8.53194999292">
		<tag k="alt_name" v="Geitåe" />
		<tag k="name" v="Geitåi" />
		<tag k="ssr:stedsnr" v="860085" />
		<tag k="waterway" v="stream" />
	</node>
	<node id="-115476" lat="61.6170888927" lon="8.1610750033">
		<tag k="name" v="Hurra" />
		<tag k="ssr:stedsnr" v="860065" />
		<tag k="waterway" v="stream" />
	</node>
	<node id="-115475" lat="61.6337166693" lon="8.18564445047">
		<tag k="name" v="Ymmelsgrøvan" />
		<tag k="ssr:stedsnr" v="860059" />
		<tag k="waterway" v="stream" />
	</node>
	<node id="-115474" lat="61.6078722222" lon="8.21354444574">
		<tag k="name" v="Søre Illåe" />
		<tag k="ssr:stedsnr" v="860041" />
		<tag k="waterway" v="stream" />
	</node>
	<node id="-115466" lat="61.6136944484" lon="8.54467221845">
		<tag k="name" v="Veslgluptjønnen" />
		<tag k="natural" v="water" />
		<tag k="ssr:stedsnr" v="859868" />
	</node>
	<node id="-115465" lat="61.6672000037" lon="8.70177777032">
		<tag k="name" v="Bergenusstjønne" />
		<tag k="natural" v="water" />
		<tag k="ssr:stedsnr" v="859862" />
	</node>
	<node id="-115464" lat="61.658625002" lon="8.05755278175">
		<tag k="alt_name" v="Høyvatnet" />
		<tag k="name" v="Høydalsvatnet" />
		<tag k="natural" v="water" />
		<tag k="ssr:stedsnr" v="859444" />
		<tag k="water" v="lake" />
	</node>
	<node id="-115458" lat="61.6627444474" lon="8.21878055562">
		<tag k="name" v="Heimre Illåe" />
		<tag k="ssr:stedsnr" v="859180" />
		<tag k="waterway" v="stream" />
	</node>
	<node id="-115456" lat="61.722044441" lon="8.17796111104">
		<tag k="name" v="Geitåe" />
		<tag k="ssr:stedsnr" v="859140" />
		<tag k="waterway" v="stream" />
	</node>
	<node id="-113405" lat="61.6733472199" lon="8.26262499889">
		<tag k="name" v="Øver Storgrovfossen" />
		<tag k="natural" v="waterfall" />
		<tag k="ssr:stedsnr" v="295727" />
	</node>
	<node id="-115452" lat="61.863141667" lon="8.80241944577">
		<tag k="name" v="Sagodden" />
		<tag k="natural" v="cape" />
		<tag k="ssr:stedsnr" v="859079" />
	</node>
	<node id="-113401" lat="61.8708305516" lon="8.80003887978">
		<tag k="name" v="Jotbekken" />
		<tag k="ssr:stedsnr" v="272436" />
		<tag k="waterway" v="stream" />
	</node>
	<node id="-115447" lat="61.8438194479" lon="8.58589443948">
		<tag k="name" v="Årsjo" />
		<tag k="natural" v="water" />
		<tag k="ssr:stedsnr" v="859026" />
	</node>
	<node id="-113398" lat="61.8340638899" lon="8.78278332693">
		<tag k="name" v="Eklesætertjønne" />
		<tag k="natural" v="water" />
		<tag k="ssr:stedsnr" v="271669" />
	</node>
	<node id="-113397" lat="61.851319447" lon="8.82695555957">
		<tag k="name" v="Nebben" />
		<tag k="natural" v="cape" />
		<tag k="ssr:stedsnr" v="271588" />
	</node>
	<node id="-115443" lat="61.4964211742" lon="8.45183503004">
		<tag k="name" v="Hinnotetjønne" />
		<tag k="natural" v="water" />
		<tag k="ssr:stedsnr" v="857862" />
		<tag k="water" v="lake" />
	</node>
	<node id="-115442" lat="61.4679361123" lon="8.42157500066">
		<tag k="name" v="Storåe" />
		<tag k="ssr:stedsnr" v="857861" />
		<tag k="waterway" v="river" />
	</node>
	<node id="-113390" lat="61.8227638862" lon="8.62348055086">
		<tag k="name" v="Meadalsbekken" />
		<tag k="ssr:stedsnr" v="270396" />
		<tag k="waterway" v="stream" />
	</node>
	<node id="-115435" lat="61.6541944472" lon="8.12256666849">
		<tag k="name" v="Daudmannvikje" />
		<tag k="natural" v="bay" />
		<tag k="ssr:stedsnr" v="843717" />
	</node>
	<node id="-115432" lat="61.7340861087" lon="8.29592221791">
		<tag k="name" v="Brustugugrove" />
		<tag k="ssr:stedsnr" v="843474" />
		<tag k="waterway" v="stream" />
	</node>
	<node id="-115430" lat="61.7461666649" lon="8.4127833321">
		<tag k="name" v="Tandgrove" />
		<tag k="ssr:stedsnr" v="843443" />
		<tag k="waterway" v="stream" />
	</node>
	<node id="-115411" lat="61.6986111152" lon="8.2246694438">
		<tag k="name" v="Blomligrove" />
		<tag k="ssr:stedsnr" v="842738" />
		<tag k="waterway" v="stream" />
	</node>
	<node id="-115401" lat="61.7430277761" lon="8.96137777095">
		<tag k="name" v="Meløken" />
		<tag k="ssr:stedsnr" v="830342" />
		<tag k="waterway" v="stream" />
	</node>
	<node id="-115400" lat="61.7684611081" lon="8.97749722664">
		<tag k="name" v="Silungsvikje" />
		<tag k="natural" v="bay" />
		<tag k="ssr:stedsnr" v="828343" />
	</node>
	<node id="-115397" lat="61.867219447" lon="8.78590833468">
		<tag k="name" v="Svadalsøyre" />
		<tag k="natural" v="bay" />
		<tag k="ssr:stedsnr" v="818442" />
	</node>
	<node id="-115390" lat="61.8396055513" lon="8.61846389745">
		<tag k="name" v="Hansvegen" />
		<tag k="ssr:stedsnr" v="817048" />
		<tag k="waterway" v="drain" />
	</node>
	<node id="-115387" lat="61.8293666677" lon="8.60113611826">
		<tag k="name" v="Læsa" />
		<tag k="natural" v="water" />
		<tag k="ssr:stedsnr" v="816425" />
	</node>
	<node id="-115379" lat="61.9188862687" lon="8.53102319967">
		<tag k="loc_name" v="Fjellokkertjønne" />
		<tag k="name" v="Fjellåkkertjørni" />
		<tag k="natural" v="water" />
		<tag k="ssr:stedsnr" v="800869" />
	</node>
	<node id="-115374" lat="61.7860666685" lon="8.45930832633">
		<tag k="alt_name" v="Hestberggrove" />
		<tag k="name" v="Hestberggrovi" />
		<tag k="ssr:stedsnr" v="799991" />
		<tag k="waterway" v="stream" />
	</node>
	<node id="-115371" lat="61.5129611107" lon="8.59938889553">
		<tag k="name" v="Glopåe" />
		<tag k="ssr:stedsnr" v="799936" />
		<tag k="waterway" v="stream" />
	</node>
	<node id="-115364" lat="61.7983222257" lon="8.9640944457">
		<tag k="alt_name" v="Djupviki" />
		<tag k="name" v="Djupvikje" />
		<tag k="natural" v="bay" />
		<tag k="ssr:stedsnr" v="799459" />
	</node>
	<node id="-115363" lat="61.6256861072" lon="8.01450833725">
		<tag k="name" v="Dumtjønne" />
		<tag k="natural" v="water" />
		<tag k="ssr:stedsnr" v="799456" />
	</node>
	<node id="-115361" lat="61.7574500016" lon="8.91881388663">
		<tag k="name" v="Nåvårsæterbekken" />
		<tag k="ssr:stedsnr" v="799395" />
		<tag k="waterway" v="stream" />
	</node>
	<node id="-115360" lat="61.8953083328" lon="8.85643888965">
		<tag k="alt_name" v="Blakkstjørni" />
		<tag k="name" v="Blakkstjønne" />
		<tag k="natural" v="water" />
		<tag k="ssr:stedsnr" v="799374" />
	</node>
	<node id="-115359" lat="61.5495333316" lon="8.01362499288">
		<tag k="name" v="Djupholet" />
		<tag k="natural" v="water" />
		<tag k="ssr:stedsnr" v="799368" />
	</node>
	<node id="-115358" lat="61.5910976583" lon="7.99551223829">
		<tag k="name" v="Skuggevatnet" />
		<tag k="natural" v="water" />
		<tag k="ssr:stedsnr" v="799305" />
	</node>
	<node id="-115357" lat="61.5914888922" lon="8.03941110612">
		<tag k="name" v="Nufsgrøvan" />
		<tag k="ssr:stedsnr" v="799302" />
		<tag k="waterway" v="stream" />
	</node>
	<node id="-115356" lat="61.8521249996" lon="8.87348055653">
		<tag k="name" v="Nyrnesodden" />
		<tag k="natural" v="cape" />
		<tag k="ssr:stedsnr" v="799300" />
	</node>
	<node id="-115355" lat="61.5580388857" lon="7.9800666685">
		<tag k="name" v="Spongi" />
		<tag k="natural" v="water" />
		<tag k="ssr:stedsnr" v="799291" />
	</node>
	<node id="-115354" lat="61.5697111132" lon="7.97778055371">
		<tag k="name" v="Emnarn" />
		<tag k="natural" v="water" />
		<tag k="ssr:stedsnr" v="799273" />
	</node>
	<node id="-115353" lat="61.5700888909" lon="7.98290833945">
		<tag k="name" v="Silen" />
		<tag k="natural" v="water" />
		<tag k="ssr:stedsnr" v="799272" />
	</node>
	<node id="-115352" lat="61.5662638848" lon="7.97685833659">
		<tag k="name" v="Troget" />
		<tag k="natural" v="water" />
		<tag k="ssr:stedsnr" v="799266" />
	</node>
	<node id="-115350" lat="61.6769888909" lon="8.29735556119">
		<tag k="name" v="Storjuva" />
		<tag k="ssr:stedsnr" v="799237" />
		<tag k="waterway" v="stream" />
	</node>
	<node id="-115344" lat="61.801647226" lon="8.81576944831">
		<tag k="name" v="Erløken" />
		<tag k="ssr:stedsnr" v="799198" />
		<tag k="waterway" v="stream" />
	</node>
	<node id="-115339" lat="61.7003138909" lon="8.16951944361">
		<tag k="name" v="Hovdestulgrove" />
		<tag k="ssr:stedsnr" v="799142" />
		<tag k="waterway" v="stream" />
	</node>
	<node id="-115337" lat="61.7029305594" lon="8.23011111619">
		<tag k="name" v="Leiråstjønne" />
		<tag k="natural" v="water" />
		<tag k="ssr:stedsnr" v="799138" />
	</node>
	<node id="-115329" lat="61.8708500027" lon="8.53150555759">
		<tag k="alt_name" v="Storåe" />
		<tag k="name" v="Storåi" />
		<tag k="ssr:stedsnr" v="799107" />
		<tag k="waterway" v="stream" />
	</node>
	<node id="-115323" lat="61.7117777746" lon="8.75390556333">
		<tag k="name" v="Storodden" />
		<tag k="natural" v="cape" />
		<tag k="ssr:stedsnr" v="799067" />
	</node>
	<node id="-115313" lat="61.5486416658" lon="8.16851388222">
		<tag k="name" v="Tverrbyttjønne" />
		<tag k="natural" v="water" />
		<tag k="ssr:stedsnr" v="799008" />
	</node>
	<node id="-115311" lat="61.5641361073" lon="8.39112777903">
		<tag k="name" v="Urdadalsbekken" />
		<tag k="ssr:stedsnr" v="799003" />
		<tag k="waterway" v="stream" />
	</node>
	<node id="-115310" lat="61.668127776" lon="8.83853333743">
		<tag k="name" v="Veslnautgardselve" />
		<tag k="ssr:stedsnr" v="798870" />
		<tag k="waterway" v="stream" />
	</node>
	<node id="-115309" lat="61.6571833309" lon="7.96636666295">
		<tag k="alt_name" v="Tverrbytne" />
		<tag k="name" v="Tverrbytna" />
		<tag k="ssr:stedsnr" v="798450" />
		<tag k="waterway" v="stream" />
	</node>
	<node id="-115303" lat="61.5984222242" lon="8.16114999361">
		<tag k="name" v="Veslbreagrove" />
		<tag k="ssr:stedsnr" v="798044" />
		<tag k="waterway" v="stream" />
	</node>
	<node id="-115294" lat="61.6253305572" lon="8.41483888308">
		<tag k="name" v="Spitra" />
		<tag k="ssr:stedsnr" v="782466" />
		<tag k="waterway" v="stream" />
	</node>
	<node id="-115286" lat="61.813102782" lon="8.45924999172">
		<tag k="name" v="Engjegrove" />
		<tag k="ssr:stedsnr" v="782029" />
		<tag k="waterway" v="stream" />
	</node>
	<node id="-115285" lat="61.8103472236" lon="8.45575555026">
		<tag k="name" v="Nyskryugrove" />
		<tag k="ssr:stedsnr" v="782027" />
		<tag k="waterway" v="stream" />
	</node>
	<node id="-115281" lat="61.6707333353" lon="8.22630832489">
		<tag k="name" v="Nørdre Ståla" />
		<tag k="ssr:stedsnr" v="781738" />
		<tag k="waterway" v="stream" />
	</node>
	<node id="-115259" lat="61.8267027761" lon="8.83377778495">
		<tag k="name" v="Nørdre Kleppdalsbekken" />
		<tag k="ssr:stedsnr" v="756600" />
		<tag k="waterway" v="stream" />
	</node>
	<node id="-115250" lat="61.8446694425" lon="8.61582499741">
		<tag k="name" v="Nordstrondvassvegen" />
		<tag k="ssr:stedsnr" v="756036" />
		<tag k="waterway" v="drain" />
	</node>
	<node id="-115248" lat="61.8321166711" lon="8.50309167563">
		<tag k="name" v="Herabotta" />
		<tag k="ssr:stedsnr" v="754958" />
		<tag k="waterway" v="stream" />
	</node>
	<node id="-115246" lat="61.6293722218" lon="7.98668055881">
		<tag k="name" v="Dumdalsvikje" />
		<tag k="natural" v="water" />
		<tag k="ssr:stedsnr" v="754337" />
	</node>
	<node id="-115243" lat="61.7602138871" lon="8.45273333069">
		<tag k="name" v="Skoltjørni" />
		<tag k="natural" v="water" />
		<tag k="ssr:stedsnr" v="739965" />
	</node>
	<node id="-115241" lat="61.8237833334" lon="8.45517221688">
		<tag k="name" v="Bordvassvegen" />
		<tag k="ssr:stedsnr" v="739951" />
		<tag k="waterway" v="stream" />
	</node>
	<node id="-115238" lat="61.9195555566" lon="8.72699166276">
		<tag k="alt_name" v="Measætergrove" />
		<tag k="name" v="Measætergrovi" />
		<tag k="ssr:stedsnr" v="739866" />
		<tag k="waterway" v="stream" />
	</node>
	<node id="-115237" lat="61.9400499984" lon="8.78303888565">
		<tag k="name" v="Lauva" />
		<tag k="ssr:stedsnr" v="739859" />
		<tag k="waterway" v="river" />
	</node>
	<node id="-115235" lat="61.8715805532" lon="8.86168332656">
		<tag k="alt_name" v="Teppingen, nedre" />
		<tag k="name" v="Nedre Teppingje" />
		<tag k="natural" v="water" />
		<tag k="ssr:stedsnr" v="739329" />
	</node>
	<node id="-115230" lat="61.7957222241" lon="8.61780555945">
		<tag k="name" v="Sålellselvi" />
		<tag k="ssr:stedsnr" v="739192" />
		<tag k="waterway" v="stream" />
	</node>
	<node id="-115222" lat="61.900841664" lon="8.61780832572">
		<tag k="alt_name" v="Lusa, store" />
		<tag k="name" v="Stor-Lusa" />
		<tag k="natural" v="water" />
		<tag k="ssr:stedsnr" v="738939" />
		<tag k="water" v="lake" />
	</node>
	<node id="-115219" lat="61.888755555" lon="8.5625083265">
		<tag k="alt_name" v="Småtjønnen" />
		<tag k="name" v="Småtjørnin" />
		<tag k="natural" v="water" />
		<tag k="ssr:stedsnr" v="738921" />
	</node>
	<node id="-115218" lat="61.6304527766" lon="8.57075555361">
		<tag k="alt_name" v="Steinbuvatnet, øvre" />
		<tag k="name" v="Øvre Steinbuvatnet" />
		<tag k="natural" v="water" />
		<tag k="ssr:stedsnr" v="738918" />
	</node>
	<node id="-115216" lat="61.621533336" lon="8.62538611055">
		<tag k="name" v="Steinbuelve" />
		<tag k="ssr:stedsnr" v="738915" />
		<tag k="waterway" v="stream" />
	</node>
	<node id="-115215" lat="61.6069055553" lon="8.49606388123">
		<tag k="name" v="Skauttjønne" />
		<tag k="natural" v="water" />
		<tag k="ssr:stedsnr" v="738912" />
	</node>
	<node id="-115214" lat="61.6060805532" lon="8.64683056272">
		<tag k="name" v="Hestbekken" />
		<tag k="ssr:stedsnr" v="738910" />
		<tag k="waterway" v="stream" />
	</node>
	<node id="-115212" lat="61.799469447" lon="8.91955555879">
		<tag k="name" v="Erløken" />
		<tag k="ssr:stedsnr" v="738446" />
		<tag k="waterway" v="stream" />
	</node>
	<node id="-115211" lat="61.6279000034" lon="8.02049999128">
		<tag k="name" v="Dumma" />
		<tag k="ssr:stedsnr" v="738437" />
		<tag k="waterway" v="stream" />
	</node>
	<node id="-115210" lat="61.5531611093" lon="7.99187500277">
		<tag k="name" v="Huldertroe" />
		<tag k="natural" v="water" />
		<tag k="ssr:stedsnr" v="738361" />
	</node>
	<node id="-115209" lat="61.5573416629" lon="8.00137500537">
		<tag k="name" v="Stetta" />
		<tag k="natural" v="water" />
		<tag k="ssr:stedsnr" v="738286" />
	</node>
	<node id="-115208" lat="61.553613889" lon="7.98512222891">
		<tag k="name" v="Perstjørn" />
		<tag k="natural" v="water" />
		<tag k="ssr:stedsnr" v="738284" />
	</node>
	<node id="-115207" lat="61.5610083296" lon="7.99098055996">
		<tag k="name" v="Meiskekjeret" />
		<tag k="natural" v="water" />
		<tag k="ssr:stedsnr" v="738285" />
	</node>
	<node id="-115202" lat="61.8178472184" lon="8.70033889388">
		<tag k="name" v="Bredalsbekken" />
		<tag k="ssr:stedsnr" v="738241" />
		<tag k="waterway" v="stream" />
	</node>
	<node id="-115199" lat="61.6727333364" lon="8.13589722156">
		<tag k="name" v="Trongedalsbekken" />
		<tag k="ssr:stedsnr" v="738229" />
		<tag k="waterway" v="stream" />
	</node>
	<node id="-115194" lat="61.8033611154" lon="8.56089445255">
		<tag k="alt_name" v="Hågålangtjønne" />
		<tag k="name" v="Langtjørni" />
		<tag k="natural" v="water" />
		<tag k="ssr:stedsnr" v="738195" />
	</node>
	<node id="-115190" lat="61.7486348233" lon="8.45403714325">
		<tag k="fixme" v="multiple name tags, choose one and add the other to alt_name" />
		<tag k="name" v="Nørdre Teppingje;Teppingstjørni, nordre;Nordre Teppingstjørni;Nørdre Teppingstjørni" />
		<tag k="natural" v="water" />
		<tag k="ssr:stedsnr" v="738174" />
	</node>
	<node id="-115186" lat="61.7318638868" lon="8.43163611564">
		<tag k="name" v="Lauva" />
		<tag k="ssr:stedsnr" v="738166" />
		<tag k="waterway" v="stream" />
	</node>
	<node id="-115179" lat="61.7421277774" lon="8.62595000285">
		<tag k="name" v="Holbekken" />
		<tag k="ssr:stedsnr" v="738121" />
		<tag k="waterway" v="stream" />
	</node>
	<node id="-115177" lat="61.734225003" lon="8.71621667123">
		<tag k="name" v="Eilevstjønne" />
		<tag k="natural" v="water" />
		<tag k="ssr:stedsnr" v="738117" />
	</node>
	<node id="-115175" lat="61.8725472247" lon="8.52343888419">
		<tag k="alt_name" v="Kvenngrove;Kverngrove" />
		<tag k="name" v="Kverngrovi" />
		<tag k="ssr:stedsnr" v="738111" />
		<tag k="waterway" v="stream" />
	</node>
	<node id="-115449" lat="61.8482194441" lon="8.6396250035">
		<tag k="alt_name" v="Nordstrondvassvegen" />
		<tag k="name" v="Sålellvassvegen" />
		<tag k="ssr:stedsnr" v="859050" />
		<tag k="waterway" v="drain" />
	</node>
	<node id="-115155" lat="61.5836749968" lon="8.10324165877">
		<tag k="name" v="Leirvatnet" />
		<tag k="natural" v="water" />
		<tag k="ssr:stedsnr" v="738024" />
	</node>
	<node id="-115153" lat="61.5887916667" lon="8.37951110185">
		<tag k="name" v="Bukkeholsbekken" />
		<tag k="ssr:stedsnr" v="738020" />
		<tag k="waterway" v="stream" />
	</node>
	<node id="-115148" lat="61.7334833329" lon="8.67738610976">
		<tag k="name" v="Fintjønne" />
		<tag k="natural" v="water" />
		<tag k="ssr:stedsnr" v="738092" />
	</node>
	<node id="-115146" lat="61.4804416688" lon="8.41170833798">
		<tag k="name" v="Hellerfossen" />
		<tag k="natural" v="waterfall" />
		<tag k="ssr:stedsnr" v="735867" />
	</node>
	<node id="-115123" lat="61.8795944404" lon="8.78857777872">
		<tag k="name" v="Svarttjønne" />
		<tag k="natural" v="water" />
		<tag k="ssr:stedsnr" v="721278" />
	</node>
	<node id="-115122" lat="61.7421055578" lon="8.30204999718">
		<tag k="name" v="Nedre Driva" />
		<tag k="ssr:stedsnr" v="721242" />
		<tag k="waterway" v="stream" />
	</node>
	<node id="-115111" lat="61.6735666671" lon="8.23303611982">
		<tag k="name" v="Heimsætergrove" />
		<tag k="ssr:stedsnr" v="720743" />
		<tag k="waterway" v="stream" />
	</node>
	<node id="-115106" lat="61.8205944419" lon="8.62226666036">
		<tag k="alt_name" v="Labbetjønnen" />
		<tag k="name" v="Labbetjørnin" />
		<tag k="natural" v="water" />
		<tag k="ssr:stedsnr" v="720240" />
	</node>
	<node id="-115104" lat="61.7745805537" lon="8.93436110279">
		<tag k="name" v="Nykastet" />
		<tag k="natural" v="cape" />
		<tag k="ssr:stedsnr" v="707369" />
	</node>
	<node id="-115102" lat="61.7497138912" lon="8.94800555289">
		<tag k="name" v="Dågåtjønne" />
		<tag k="natural" v="water" />
		<tag k="ssr:stedsnr" v="707354" />
	</node>
	<node id="-115093" lat="61.825855555" lon="8.84573888197">
		<tag k="name" v="Søre Kleppdalsbekken" />
		<tag k="ssr:stedsnr" v="696578" />
		<tag k="waterway" v="stream" />
	</node>
	<node id="-115091" lat="61.859169444" lon="8.80145833493">
		<tag k="name" v="Skomakervikje" />
		<tag k="natural" v="bay" />
		<tag k="ssr:stedsnr" v="696498" />
	</node>
	<node id="-115073" lat="61.9279305591" lon="8.71728055175">
		<tag k="alt_name" v="Kvitgrove" />
		<tag k="name" v="Kvitgrovi" />
		<tag k="ssr:stedsnr" v="678857" />
		<tag k="waterway" v="stream" />
	</node>
	<node id="-115069" lat="61.558750002" lon="7.94958888824">
		<tag k="name" v="Søla" />
		<tag k="natural" v="water" />
		<tag k="ssr:stedsnr" v="678290" />
	</node>
	<node id="-115068" lat="61.9330194447" lon="8.78162221439">
		<tag k="name" v="Finna" />
		<tag k="ssr:stedsnr" v="678268" />
		<tag k="waterway" v="river" />
	</node>
	<node id="-115067" lat="61.7768749981" lon="8.38842778335">
		<tag k="name" v="Sætergrovi" />
		<tag k="ssr:stedsnr" v="678266" />
		<tag k="waterway" v="stream" />
	</node>
	<node id="-115060" lat="61.7347194446" lon="8.32375278659">
		<tag k="name" v="Kutjønne" />
		<tag k="natural" v="water" />
		<tag k="ssr:stedsnr" v="678163" />
	</node>
	<node id="-115059" lat="61.9259277743" lon="8.85705832526">
		<tag k="alt_name" v="Gymmergrovi, s" />
		<tag k="name" v="Søre Gymmergrove" />
		<tag k="ssr:stedsnr" v="678147" />
		<tag k="waterway" v="stream" />
	</node>
	<node id="-115054" lat="61.904816638" lon="8.76738651901">
		<tag k="loc_name" v="Vikateppingje" />
		<tag k="name" v="Vikateppingi" />
		<tag k="natural" v="water" />
		<tag k="ssr:stedsnr" v="677939" />
	</node>
	<node id="-115052" lat="61.8856277796" lon="8.55030277167">
		<tag k="alt_name" v="Kverngrovtjørni, nedre" />
		<tag k="name" v="Nedre Kverngrovtjønne" />
		<tag k="natural" v="water" />
		<tag k="ssr:stedsnr" v="677919" />
	</node>
	<node id="-115051" lat="61.893811107" lon="8.57503056045">
		<tag k="alt_name" v="Mefjellstjørni" />
		<tag k="name" v="Mefjellstjønne" />
		<tag k="natural" v="water" />
		<tag k="ssr:stedsnr" v="677918" />
	</node>
	<node id="-115049" lat="61.6261861107" lon="8.67222222847">
		<tag k="name" v="Søre Åe" />
		<tag k="ssr:stedsnr" v="677912" />
		<tag k="waterway" v="stream" />
	</node>
	<node id="-115048" lat="61.6141305566" lon="8.04316111042">
		<tag k="name" v="Bøvre" />
		<tag k="ssr:stedsnr" v="677763" />
		<tag k="waterway" v="river" />
	</node>
	<node id="-115046" lat="61.8089666666" lon="8.84477500209">
		<tag k="name" v="Kopptjørni" />
		<tag k="natural" v="water" />
		<tag k="ssr:stedsnr" v="677471" />
	</node>
	<node id="-115045" lat="61.6851388917" lon="7.99991389237">
		<tag k="name" v="Nedre Storgrovtjønne" />
		<tag k="natural" v="water" />
		<tag k="ssr:stedsnr" v="677470" />
	</node>
	<node id="-115044" lat="61.5995909912" lon="7.98010021381">
		<tag k="name" v="Turru" />
		<tag k="natural" v="water" />
		<tag k="ssr:stedsnr" v="677442" />
	</node>
	<node id="-115043" lat="61.6427444448" lon="8.07371944502">
		<tag k="alt_name" v="Bøvertonvatnet" />
		<tag k="name" v="Bøvertunvatnet" />
		<tag k="natural" v="water" />
		<tag k="ssr:stedsnr" v="677428" />
		<tag k="water" v="lake" />
	</node>
	<node id="-115041" lat="61.5893277806" lon="7.96831666163">
		<tag k="name" v="Bottjønne" />
		<tag k="natural" v="water" />
		<tag k="ssr:stedsnr" v="677263" />
	</node>
	<node id="-115039" lat="61.7021638889" lon="8.32684999178">
		<tag k="name" v="Svagrove" />
		<tag k="ssr:stedsnr" v="677234" />
		<tag k="waterway" v="stream" />
	</node>
	<node id="-115038" lat="61.6927638911" lon="8.17811111196">
		<tag k="name" v="Dalsvatnet" />
		<tag k="natural" v="water" />
		<tag k="ssr:stedsnr" v="677231" />
	</node>
	<node id="-115036" lat="61.813849999" lon="8.53451944614">
		<tag k="alt_name" v="Vittingi" />
		<tag k="name" v="Vittingje" />
		<tag k="ssr:stedsnr" v="677225" />
		<tag k="waterway" v="stream" />
	</node>
	<node id="-115035" lat="61.6825611074" lon="8.44048055534">
		<tag k="name" v="Visa" />
		<tag k="ssr:stedsnr" v="677211" />
		<tag k="waterway" v="river" />
	</node>
	<node id="-115032" lat="61.6577416658" lon="8.15606665752">
		<tag k="name" v="Øvre Halsatjønnen" />
		<tag k="natural" v="water" />
		<tag k="ssr:stedsnr" v="677186" />
	</node>
	<node id="-115027" lat="61.733227782" lon="8.61855556476">
		<tag k="name" v="Nonshøbekken" />
		<tag k="ssr:stedsnr" v="677106" />
		<tag k="waterway" v="stream" />
	</node>
	<node id="-115026" lat="61.7448388868" lon="8.58333332563">
		<tag k="name" v="Fossbottjønne" />
		<tag k="natural" v="water" />
		<tag k="ssr:stedsnr" v="677102" />
	</node>
	<node id="-115025" lat="61.5170416633" lon="8.42538055766">
		<tag k="name" v="Semelbreatjønne" />
		<tag k="natural" v="water" />
		<tag k="ssr:stedsnr" v="677100" />
	</node>
	<node id="-115024" lat="61.7198138896" lon="8.60955278564">
		<tag k="name" v="Finnshalsgrove" />
		<tag k="ssr:stedsnr" v="677098" />
		<tag k="waterway" v="river" />
	</node>
	<node id="-115023" lat="61.7307000038" lon="8.63177777116">
		<tag k="name" v="Langstilla" />
		<tag k="ssr:stedsnr" v="677093" />
		<tag k="waterway" v="river" />
	</node>
	<node id="-115020" lat="61.6756416648" lon="8.73949999674">
		<tag k="name" v="Grønbutjønne" />
		<tag k="natural" v="water" />
		<tag k="ssr:stedsnr" v="677079" />
	</node>
	<node id="-115017" lat="61.7142726726" lon="8.78552840686">
		<tag k="name" v="Smådalsvatni" />
		<tag k="natural" v="water" />
		<tag k="ssr:stedsnr" v="677070" />
		<tag k="water" v="lake" />
	</node>
	<node id="-115014" lat="61.8390055569" lon="8.7615277849">
		<tag k="alt_name" v="Krossgrovi" />
		<tag k="name" v="Krossgrove" />
		<tag k="ssr:stedsnr" v="677001" />
		<tag k="waterway" v="stream" />
	</node>
	<node id="-115011" lat="61.5448777812" lon="8.25802778635">
		<tag k="name" v="Leirvatnet" />
		<tag k="natural" v="water" />
		<tag k="ssr:stedsnr" v="677018" />
		<tag k="water" v="lake" />
	</node>
	<node id="-115009" lat="61.8398694452" lon="8.68185832404">
		<tag k="name" v="Nysæterbekken" />
		<tag k="ssr:stedsnr" v="677007" />
		<tag k="waterway" v="stream" />
	</node>
	<node id="-115007" lat="61.5615916685" lon="8.18689166831">
		<tag k="name" v="Tverrbyttbekken" />
		<tag k="ssr:stedsnr" v="677003" />
		<tag k="waterway" v="stream" />
	</node>
	<node id="-114986" lat="61.8670638857" lon="8.54785000936">
		<tag k="name" v="Nedre Bergetjønne" />
		<tag k="natural" v="water" />
		<tag k="ssr:stedsnr" v="660133" />
	</node>
	<node id="-114978" lat="61.7441333365" lon="8.95674167351">
		<tag k="name" v="Nørdre Elve" />
		<tag k="ssr:stedsnr" v="647374" />
		<tag k="waterway" v="stream" />
	</node>
	<node id="-114976" lat="61.7726444443" lon="8.93620277306">
		<tag k="name" v="Raustein" />
		<tag k="natural" v="bay" />
		<tag k="ssr:stedsnr" v="645328" />
	</node>
	<node id="-114975" lat="61.7644805513" lon="8.94257222921">
		<tag k="name" v="Kjeppvikje" />
		<tag k="natural" v="bay" />
		<tag k="ssr:stedsnr" v="645325" />
	</node>
	<node id="-114970" lat="61.8527083291" lon="8.69911110624">
		<tag k="name" v="Ulstjønne" />
		<tag k="natural" v="water" />
		<tag k="ssr:stedsnr" v="635743" />
	</node>
	<node id="-114958" lat="61.8427888849" lon="8.49615278164">
		<tag k="name" v="Knutstugugrove" />
		<tag k="ssr:stedsnr" v="633982" />
		<tag k="waterway" v="stream" />
	</node>
	<node id="-114951" lat="61.8240777755" lon="8.53720834227">
		<tag k="name" v="Hågåfossen" />
		<tag k="natural" v="waterfall" />
		<tag k="ssr:stedsnr" v="632177" />
	</node>
	<node id="-114947" lat="61.7791388933" lon="8.28004999983">
		<tag k="name" v="Stugujordselvi" />
		<tag k="ssr:stedsnr" v="617989" />
		<tag k="waterway" v="stream" />
	</node>
	<node id="-114943" lat="61.743041668" lon="8.85155833226">
		<tag k="alt_name" v="Grjotåi, nedre" />
		<tag k="name" v="Nedre Grjotåi" />
		<tag k="ssr:stedsnr" v="617932" />
		<tag k="waterway" v="river" />
	</node>
	<node id="-114939" lat="61.8954250028" lon="8.68757222746">
		<tag k="alt_name" v="Veslteppingi, s" />
		<tag k="name" v="Søre Veslteppingje" />
		<tag k="natural" v="water" />
		<tag k="ssr:stedsnr" v="617913" />
	</node>
	<node id="-114935" lat="61.6801669481" lon="7.9593232565">
		<tag k="name" v="Svartdalstjønne" />
		<tag k="natural" v="water" />
		<tag k="ssr:stedsnr" v="617496" />
		<tag k="water" v="lake" />
	</node>
	<node id="-114931" lat="61.7713277775" lon="8.45293332842">
		<tag k="name" v="Glåma" />
		<tag k="ssr:stedsnr" v="617288" />
		<tag k="waterway" v="river" />
	</node>
	<node id="-114930" lat="61.772424998" lon="8.36611389399">
		<tag k="name" v="Sula" />
		<tag k="ssr:stedsnr" v="617287" />
		<tag k="waterway" v="river" />
	</node>
	<node id="-114925" lat="61.7854833349" lon="8.62989722914">
		<tag k="name" v="Kvitingi" />
		<tag k="ssr:stedsnr" v="617239" />
		<tag k="waterway" v="river" />
	</node>
	<node id="-114920" lat="61.738050004" lon="8.40515833384">
		<tag k="name" v="Brattrokgrove" />
		<tag k="ssr:stedsnr" v="617197" />
		<tag k="waterway" v="stream" />
	</node>
	<node id="-114916" lat="61.7246888931" lon="8.68947222144">
		<tag k="name" v="Lønnsætergrove" />
		<tag k="ssr:stedsnr" v="617120" />
		<tag k="waterway" v="stream" />
	</node>
	<node id="-114913" lat="61.6912392216" lon="8.59859989987">
		<tag k="name" v="Trollsteintjønne" />
		<tag k="natural" v="water" />
		<tag k="ssr:stedsnr" v="617083" />
	</node>
	<node id="-114908" lat="61.6221999962" lon="8.37370000011">
		<tag k="name" v="Dyrskridubekken" />
		<tag k="ssr:stedsnr" v="617040" />
		<tag k="waterway" v="stream" />
	</node>
	<node id="-114903" lat="61.6327611132" lon="8.60430556218">
		<tag k="name" v="Glitterbekken" />
		<tag k="ssr:stedsnr" v="616922" />
		<tag k="waterway" v="stream" />
	</node>
	<node id="-114900" lat="61.6688277774" lon="8.76871944531">
		<tag k="name" v="Vesltjønne" />
		<tag k="natural" v="water" />
		<tag k="ssr:stedsnr" v="616908" />
	</node>
	<node id="-114899" lat="61.6675555581" lon="8.81131944942">
		<tag k="name" v="Båsåe" />
		<tag k="ssr:stedsnr" v="616904" />
		<tag k="waterway" v="stream" />
	</node>
	<node id="-114898" lat="61.6605277765" lon="8.71284999271">
		<tag k="name" v="Veslkjølbekken" />
		<tag k="ssr:stedsnr" v="616898" />
		<tag k="waterway" v="stream" />
	</node>
	<node id="-114897" lat="61.6546126901" lon="7.94961594884">
		<tag k="name" v="Tverrbytnet" />
		<tag k="natural" v="water" />
		<tag k="ssr:stedsnr" v="616477" />
		<tag k="water" v="lake" />
	</node>
	<node id="-114894" lat="61.7667472188" lon="8.89059444949">
		<tag k="loc_name" v="Sylvetjønne" />
		<tag k="name" v="Sylvetjørni" />
		<tag k="natural" v="water" />
		<tag k="ssr:stedsnr" v="616407" />
	</node>
	<node id="-114892" lat="61.5729722267" lon="7.98405555059">
		<tag k="name" v="Såi" />
		<tag k="natural" v="water" />
		<tag k="ssr:stedsnr" v="616292" />
	</node>
	<node id="-114891" lat="61.5778333357" lon="7.94875000525">
		<tag k="name" v="Gryta" />
		<tag k="natural" v="water" />
		<tag k="ssr:stedsnr" v="616288" />
	</node>
	<node id="-114890" lat="61.5733027805" lon="7.97423610338">
		<tag k="name" v="Kinna" />
		<tag k="natural" v="water" />
		<tag k="ssr:stedsnr" v="616289" />
	</node>
	<node id="-114881" lat="61.6965750023" lon="8.32022221922">
		<tag k="name" v="Mytingsgrove" />
		<tag k="ssr:stedsnr" v="616216" />
		<tag k="waterway" v="stream" />
	</node>
	<node id="-114878" lat="61.6792000032" lon="8.21365833661">
		<tag k="name" v="Brudalsgrove" />
		<tag k="ssr:stedsnr" v="616194" />
		<tag k="waterway" v="stream" />
	</node>
	<node id="-114877" lat="61.6662250031" lon="8.14121110804">
		<tag k="name" v="Høyfossen" />
		<tag k="natural" v="waterfall" />
		<tag k="ssr:stedsnr" v="616187" />
	</node>
	<node id="-114875" lat="61.6708972231" lon="8.42025277607">
		<tag k="name" v="Stula" />
		<tag k="ssr:stedsnr" v="616180" />
		<tag k="waterway" v="stream" />
	</node>
	<node id="-114871" lat="61.8000000004" lon="8.54091389836">
		<tag k="alt_name" v="Vittingstjønne" />
		<tag k="name" v="Vittingstjørni" />
		<tag k="natural" v="water" />
		<tag k="ssr:stedsnr" v="616165" />
	</node>
	<node id="-114869" lat="61.7210888881" lon="8.27444167471">
		<tag k="name" v="Bøvre" />
		<tag k="ssr:stedsnr" v="616146" />
		<tag k="waterway" v="river" />
	</node>
	<node id="-114868" lat="61.6905944415" lon="8.11810556408">
		<tag k="name" v="Nørdre Tverråe" />
		<tag k="ssr:stedsnr" v="616140" />
		<tag k="waterway" v="stream" />
	</node>
	<node id="-114866" lat="61.7088500016" lon="8.42407777431">
		<tag k="name" v="Orma" />
		<tag k="ssr:stedsnr" v="616130" />
		<tag k="waterway" v="stream" />
	</node>
	<node id="-114861" lat="61.5169014013" lon="8.29214525772">
		<tag k="name" v="Nedre Høgvagltjønnen" />
		<tag k="natural" v="water" />
		<tag k="ssr:stedsnr" v="616112" />
	</node>
	<node id="-114860" lat="61.8810694455" lon="8.74873055992">
		<tag k="name" v="Styggedalsbekken" />
		<tag k="ssr:stedsnr" v="616102" />
		<tag k="waterway" v="stream" />
	</node>
	<node id="-114855" lat="61.8756111137" lon="8.51163889172">
		<tag k="alt_name" v="Søregrove;Sørgrove" />
		<tag k="name" v="Søregrovi" />
		<tag k="ssr:stedsnr" v="616087" />
		<tag k="waterway" v="stream" />
	</node>
	<node id="-114847" lat="61.5847805575" lon="8.16782777561">
		<tag k="name" v="Storbreagrove" />
		<tag k="ssr:stedsnr" v="616020" />
		<tag k="waterway" v="stream" />
	</node>
	<node id="-114840" lat="61.4888944428" lon="8.50435833673">
		<tag k="name" v="Stongtjønne" />
		<tag k="natural" v="water" />
		<tag k="ssr:stedsnr" v="614804" />
	</node>
	<node id="-114837" lat="61.7992333341" lon="8.42476945206">
		<tag k="name" v="Stordalsgrove" />
		<tag k="ssr:stedsnr" v="599755" />
		<tag k="waterway" v="stream" />
	</node>
	<node id="-114833" lat="61.7069749958" lon="8.19814165943">
		<tag k="name" v="Grønkrok" />
		<tag k="natural" v="beach" />
		<tag k="ssr:stedsnr" v="599573" />
	</node>
	<node id="-114820" lat="61.8125416641" lon="8.46528332895">
		<tag k="name" v="Gardgrove" />
		<tag k="ssr:stedsnr" v="599021" />
		<tag k="waterway" v="stream" />
	</node>
	<node id="-114811" lat="61.7668027778" lon="8.94026665948">
		<tag k="name" v="Blakken" />
		<tag k="natural" v="cape" />
		<tag k="ssr:stedsnr" v="585307" />
	</node>
	<node id="-114810" lat="61.7605250035" lon="8.94401667129">
		<tag k="name" v="Søre Spakroe" />
		<tag k="natural" v="bay" />
		<tag k="ssr:stedsnr" v="585309" />
	</node>
	<node id="-114809" lat="61.7720027753" lon="8.96377222621">
		<tag k="name" v="Steindjupet" />
		<tag k="natural" v="bay" />
		<tag k="ssr:stedsnr" v="585310" />
	</node>
	<node id="-114801" lat="61.838288888" lon="8.56770833486">
		<tag k="name" v="Prestfossen" />
		<tag k="natural" v="waterfall" />
		<tag k="ssr:stedsnr" v="574287" />
	</node>
	<node id="-114795" lat="61.6361638901" lon="8.0067249946">
		<tag k="name" v="Høtjønnen" />
		<tag k="natural" v="water" />
		<tag k="ssr:stedsnr" v="572317" />
	</node>
	<node id="-114794" lat="61.8159499974" lon="8.55069444576">
		<tag k="name" v="Hågågrove" />
		<tag k="ssr:stedsnr" v="572193" />
		<tag k="waterway" v="stream" />
	</node>
	<node id="-114785" lat="61.7554250031" lon="8.35424999816">
		<tag k="name" v="Kutjørni" />
		<tag k="natural" v="water" />
		<tag k="ssr:stedsnr" v="556978" />
	</node>
	<node id="-114784" lat="61.757177775" lon="8.22229443523">
		<tag k="alt_name" v="Runningen, søre" />
		<tag k="name" v="Søre Runningen" />
		<tag k="ssr:stedsnr" v="556977" />
		<tag k="waterway" v="stream" />
	</node>
	<node id="-114783" lat="61.7431916708" lon="8.97592778691">
		<tag k="alt_name" v="Kojenebben" />
		<tag k="name" v="Kojenebba" />
		<tag k="natural" v="cape" />
		<tag k="ssr:stedsnr" v="556947" />
	</node>
	<node id="-114779" lat="61.9433888905" lon="8.62038333289">
		<tag k="alt_name" v="Råkååe" />
		<tag k="name" v="Råkååi" />
		<tag k="ssr:stedsnr" v="556894" />
		<tag k="waterway" v="river" />
	</node>
	<node id="-114776" lat="61.7874222238" lon="8.93248056433">
		<tag k="alt_name" v="Byrtnes, nordre;Byrtnes" />
		<tag k="name" v="Nørdre Byrtnes" />
		<tag k="natural" v="cape" />
		<tag k="ssr:stedsnr" v="556462" />
	</node>
	<node id="-114773" lat="61.5829000022" lon="7.96950555179">
		<tag k="name" v="Tvillingtjørnin" />
		<tag k="natural" v="water" />
		<tag k="ssr:stedsnr" v="556350" />
	</node>
	<node id="-114771" lat="61.563738888" lon="8.00517499145">
		<tag k="name" v="Fantesteinsvatnet" />
		<tag k="natural" v="water" />
		<tag k="ssr:stedsnr" v="556311" />
	</node>
	<node id="-114768" lat="61.6987305577" lon="8.35934722738">
		<tag k="name" v="Vesljuva" />
		<tag k="ssr:stedsnr" v="556279" />
		<tag k="waterway" v="stream" />
	</node>
	<node id="-113677" lat="61.853011107" lon="8.805116663">
		<tag k="name" v="Oddeåe" />
		<tag k="ssr:stedsnr" v="392708" />
		<tag k="waterway" v="river" />
	</node>
	<node id="-114763" lat="61.7614055593" lon="8.47258611232">
		<tag k="name" v="Ringlistjørni" />
		<tag k="natural" v="water" />
		<tag k="ssr:stedsnr" v="556247" />
	</node>
	<node id="-114756" lat="61.7373555601" lon="8.66531944713">
		<tag k="name" v="Børgjetjønne" />
		<tag k="natural" v="water" />
		<tag k="ssr:stedsnr" v="556127" />
	</node>
	<node id="-114754" lat="61.7244333308" lon="8.72181387988">
		<tag k="name" v="Eilevsåe" />
		<tag k="ssr:stedsnr" v="556104" />
		<tag k="waterway" v="stream" />
	</node>
	<node id="-114753" lat="61.7185500028" lon="8.80614166768">
		<tag k="name" v="Gamsen" />
		<tag k="place" v="locality" />
		<tag k="ssr:stedsnr" v="556102" />
	</node>
	<node id="-114749" lat="61.870494447" lon="8.57316667196">
		<tag k="alt_name" v="Grjotheimstjørni, øvre" />
		<tag k="name" v="Øvre Grjotheimstjønne" />
		<tag k="natural" v="water" />
		<tag k="ssr:stedsnr" v="556073" />
	</node>
	<node id="-114747" lat="61.7064361149" lon="8.80020832481">
		<tag k="name" v="Svartholgrove" />
		<tag k="ssr:stedsnr" v="556065" />
		<tag k="waterway" v="stream" />
	</node>
	<node id="-114743" lat="61.6248749967" lon="8.38731943582">
		<tag k="name" v="Piggrove" />
		<tag k="ssr:stedsnr" v="556033" />
		<tag k="waterway" v="stream" />
	</node>
	<node id="-114739" lat="61.8375305535" lon="8.67175555618">
		<tag k="name" v="Vulu" />
		<tag k="ssr:stedsnr" v="556005" />
		<tag k="waterway" v="river" />
	</node>
	<node id="-114732" lat="61.6569888858" lon="8.76454167399">
		<tag k="name" v="Nautgardselve" />
		<tag k="ssr:stedsnr" v="555852" />
		<tag k="waterway" v="river" />
	</node>
	<node id="-114730" lat="61.5515361138" lon="8.00048889179">
		<tag k="name" v="Torkjellgrovi" />
		<tag k="ssr:stedsnr" v="555303" />
		<tag k="waterway" v="stream" />
	</node>
	<node id="-114729" lat="61.5511138906" lon="7.98463888428">
		<tag k="name" v="Erlingtjørni" />
		<tag k="natural" v="water" />
		<tag k="ssr:stedsnr" v="555283" />
	</node>
	<node id="-114721" lat="61.8580755412" lon="8.51020783262">
		<tag k="name" v="Synstnes" />
		<tag k="natural" v="cape" />
		<tag k="ssr:stedsnr" v="555080" />
	</node>
	<node id="-114718" lat="61.8612499969" lon="8.52979165861">
		<tag k="name" v="Bergeodden" />
		<tag k="natural" v="cape" />
		<tag k="ssr:stedsnr" v="555071" />
	</node>
	<node id="-114709" lat="61.5493500022" lon="8.28862777464">
		<tag k="name" v="Troget" />
		<tag k="natural" v="water" />
		<tag k="ssr:stedsnr" v="555010" />
	</node>
	<node id="-114707" lat="61.4852361131" lon="8.5692694431">
		<tag k="name" v="Sjugurdtindtjønne" />
		<tag k="natural" v="water" />
		<tag k="ssr:stedsnr" v="554813" />
	</node>
	<node id="-114706" lat="61.4738916676" lon="8.34321667172">
		<tag k="name" v="Skarddalsvatnet" />
		<tag k="natural" v="water" />
		<tag k="old_name" v="Skardalsvatnet" />
		<tag k="ssr:stedsnr" v="553868" />
		<tag k="water" v="lake" />
	</node>
	<node id="-114699" lat="61.6816916689" lon="8.13908332588">
		<tag k="name" v="Hansstula" />
		<tag k="ssr:stedsnr" v="539683" />
		<tag k="waterway" v="stream" />
	</node>
</osm>
