<?xml version="1.0" encoding="UTF-8"?>
<osm generator="osmapis" version="0.6">
	<node id="-112219" lat="61.8237970147" lon="7.48231335644">
		<tag k="name" v="Mysubyttdalen" />
		<tag k="ssr:date" v="2019-05-30" />
		<tag k="ssr:gruppe" v="veg" />
		<tag k="ssr:hovedgruppe" v="infrastruktur" />
		<tag k="ssr:stedsnr" v="1013036" />
		<tag k="ssr:type" v="adressenavn" />
	</node>
	<node id="-112218" lat="61.9032965904" lon="7.6057698645">
		<tag k="name" v="Rauddalen" />
		<tag k="ssr:date" v="2019-05-30" />
		<tag k="ssr:gruppe" v="veg" />
		<tag k="ssr:hovedgruppe" v="infrastruktur" />
		<tag k="ssr:stedsnr" v="1013026" />
		<tag k="ssr:type" v="adressenavn" />
	</node>
	<node id="-112217" lat="62.123911616" lon="7.84910013902">
		<tag k="name" v="Torsvatn" />
		<tag k="ssr:date" v="2019-05-30" />
		<tag k="ssr:gruppe" v="veg" />
		<tag k="ssr:hovedgruppe" v="infrastruktur" />
		<tag k="ssr:stedsnr" v="1013022" />
		<tag k="ssr:type" v="adressenavn" />
	</node>
	<node id="-112216" lat="62.1593668211" lon="7.72069760756">
		<tag k="name" v="Veltdalen" />
		<tag k="ssr:date" v="2019-05-30" />
		<tag k="ssr:gruppe" v="veg" />
		<tag k="ssr:hovedgruppe" v="infrastruktur" />
		<tag k="ssr:stedsnr" v="1013019" />
		<tag k="ssr:type" v="adressenavn" />
	</node>
	<node id="-112215" lat="61.9562384448" lon="7.75333096306">
		<tag k="name" v="Glittervatn" />
		<tag k="ssr:date" v="2019-05-30" />
		<tag k="ssr:gruppe" v="veg" />
		<tag k="ssr:hovedgruppe" v="infrastruktur" />
		<tag k="ssr:stedsnr" v="1013015" />
		<tag k="ssr:type" v="adressenavn" />
	</node>
	<node id="-112214" lat="61.7383808295" lon="7.93906116509">
		<tag k="name" v="Lundadalen" />
		<tag k="ssr:date" v="2019-05-30" />
		<tag k="ssr:gruppe" v="veg" />
		<tag k="ssr:hovedgruppe" v="infrastruktur" />
		<tag k="ssr:stedsnr" v="1013007" />
		<tag k="ssr:type" v="adressenavn" />
	</node>
	<node id="-113387" lat="60.5908609473" lon="9.63819281559">
		<tag k="fixme" v="multiple name tags, choose one and add the other to alt_name" />
		<tag k="name" v="Austlandet;Østlandet" />
		<tag k="ssr:date" v="2018-01-09" />
		<tag k="ssr:gruppe" v="administrativeIndelinger" />
		<tag k="ssr:hovedgruppe" v="offentligAdministrasjon" />
		<tag k="ssr:stedsnr" v="974775" />
		<tag k="ssr:type" v="annenAdministrativInndeling" />
	</node>
	<node id="-113350" lat="61.8834944415" lon="8.26489722477">
		<tag k="name" v="Skjåk kommune" />
		<tag k="old_name" v="Skiaker" />
		<tag k="ssr:date" v="2016-05-11" />
		<tag k="ssr:gruppe" v="administrativeIndelinger" />
		<tag k="ssr:hovedgruppe" v="offentligAdministrasjon" />
		<tag k="ssr:stedsnr" v="935443" />
		<tag k="ssr:type" v="kommune" />
	</node>
</osm>
