<?xml version="1.0" encoding="UTF-8"?>
<osm version="0.6" generator="osmapis">
	<node lat="64.14250832929831" lon="11.151899998359093" id="-33286">
		<tag k="name" v="Tjurublakkmyra" />
		<tag k="natural" v="wetland" />
		<tag k="ssr:date" v="2019-12-27" />
		<tag k="ssr:gruppe" v="våtmark" />
		<tag k="ssr:hovedgruppe" v="markslag" />
		<tag k="ssr:stedsnr" v="229612" />
		<tag k="ssr:type" v="myr" />
	</node>
	<node lat="64.57271666300043" lon="11.442844452538115" id="-33287">
		<tag k="fixme" v="consider natural=peak for the most distinct mountains in the district" />
		<tag k="name" v="Reinskarvtuva" />
		<tag k="natural" v="hill" />
		<tag k="place" v="locality" />
		<tag k="ssr:date" v="2019-12-27" />
		<tag k="ssr:gruppe" v="høyder" />
		<tag k="ssr:hovedgruppe" v="terreng" />
		<tag k="ssr:stedsnr" v="230599" />
		<tag k="ssr:type" v="ås" />
	</node>
	<node lat="64.26227778058318" lon="11.430094442307787" id="-33288">
		<tag k="name" v="Måssåberget" />
		<tag k="natural" v="hill" />
		<tag k="place" v="locality" />
		<tag k="ssr:date" v="2019-12-27" />
		<tag k="ssr:gruppe" v="høyder" />
		<tag k="ssr:hovedgruppe" v="terreng" />
		<tag k="ssr:stedsnr" v="230600" />
		<tag k="ssr:type" v="berg" />
	</node>
	<node lat="64.25071388628905" lon="11.468197225332656" id="-33289">
		<tag k="name" v="Ristjønndalen" />
		<tag k="natural" v="valley" />
		<tag k="place" v="locality" />
		<tag k="ssr:date" v="2019-12-27" />
		<tag k="ssr:gruppe" v="senkninger" />
		<tag k="ssr:hovedgruppe" v="terreng" />
		<tag k="ssr:stedsnr" v="230603" />
		<tag k="ssr:type" v="dal" />
	</node>
	<node lat="64.24708888628277" lon="11.454077767244145" id="-33290">
		<tag k="name" v="Svartelvmoan" />
		<tag k="place" v="locality" />
		<tag k="ssr:date" v="2019-12-27" />
		<tag k="ssr:gruppe" v="flater" />
		<tag k="ssr:hovedgruppe" v="terreng" />
		<tag k="ssr:stedsnr" v="230608" />
		<tag k="ssr:type" v="mo" />
	</node>
	<node lat="64.55563526301573" lon="11.494195200808706" id="-33291">
		<tag k="name" v="Langsundet" />
		<tag k="natural" v="strait" />
		<tag k="ssr:date" v="2021-01-25" />
		<tag k="ssr:gruppe" v="kystkontur" />
		<tag k="ssr:hovedgruppe" v="sjø" />
		<tag k="ssr:stedsnr" v="230610" />
		<tag k="ssr:type" v="sundISjø" />
	</node>
	<node lat="64.55774166667538" lon="11.503591661320517" id="-33292">
		<tag k="name" v="Småholman" />
		<tag k="place" v="islet" />
		<tag k="ssr:date" v="2019-12-27" />
		<tag k="ssr:gruppe" v="kystkontur" />
		<tag k="ssr:hovedgruppe" v="sjø" />
		<tag k="ssr:stedsnr" v="230612" />
		<tag k="ssr:type" v="holmeISjø" />
	</node>
	<node lat="64.51472777392327" lon="11.354569436738386" id="-33293">
		<tag k="name" v="Klaven" />
		<tag k="natural" v="valley" />
		<tag k="place" v="locality" />
		<tag k="ssr:date" v="2019-12-27" />
		<tag k="ssr:gruppe" v="senkninger" />
		<tag k="ssr:hovedgruppe" v="terreng" />
		<tag k="ssr:stedsnr" v="230618" />
		<tag k="ssr:type" v="dal" />
	</node>
	<node lat="64.19718333128075" lon="11.352255562181224" id="-33294">
		<tag k="name" v="Åengan" />
		<tag k="natural" v="cape" />
		<tag k="ssr:date" v="2019-12-27" />
		<tag k="ssr:gruppe" v="ferskvannskontur" />
		<tag k="ssr:hovedgruppe" v="ferskvann" />
		<tag k="ssr:stedsnr" v="229726" />
		<tag k="ssr:type" v="nes" />
	</node>
	<node lat="64.66015833683643" lon="11.2907833325923" id="-33295">
		<tag k="name" v="Kløyva" />
		<tag k="natural" v="slope" />
		<tag k="place" v="locality" />
		<tag k="ssr:date" v="2019-12-27" />
		<tag k="ssr:gruppe" v="skråninger" />
		<tag k="ssr:hovedgruppe" v="terreng" />
		<tag k="ssr:stedsnr" v="229784" />
		<tag k="ssr:type" v="bakke" />
	</node>
	<node lat="64.66155555697468" lon="11.269772232030348" id="-33296">
		<tag k="name" v="Langgjøta" />
		<tag k="natural" v="valley" />
		<tag k="place" v="locality" />
		<tag k="ssr:date" v="2019-12-27" />
		<tag k="ssr:gruppe" v="senkninger" />
		<tag k="ssr:hovedgruppe" v="terreng" />
		<tag k="ssr:stedsnr" v="229801" />
		<tag k="ssr:type" v="skar" />
	</node>
	<node lat="64.65630277342348" lon="11.259161115482517" id="-33297">
		<tag k="name" v="Barden" />
		<tag k="place" v="locality" />
		<tag k="ssr:date" v="2019-12-27" />
		<tag k="ssr:gruppe" v="flater" />
		<tag k="ssr:hovedgruppe" v="terreng" />
		<tag k="ssr:stedsnr" v="229814" />
		<tag k="ssr:type" v="slette" />
	</node>
	<node lat="64.68117500276668" lon="11.281480551766856" id="-33298">
		<tag k="name" v="Høglia" />
		<tag k="natural" v="slope" />
		<tag k="place" v="locality" />
		<tag k="ssr:date" v="2019-12-27" />
		<tag k="ssr:gruppe" v="skråninger" />
		<tag k="ssr:hovedgruppe" v="terreng" />
		<tag k="ssr:stedsnr" v="229824" />
		<tag k="ssr:type" v="li" />
	</node>
	<node lat="64.67960277755154" lon="11.291399996768774" id="-33299">
		<tag k="name" v="Penesset" />
		<tag k="natural" v="cape" />
		<tag k="ssr:date" v="2019-12-27" />
		<tag k="ssr:gruppe" v="kystkontur" />
		<tag k="ssr:hovedgruppe" v="sjø" />
		<tag k="ssr:stedsnr" v="229825" />
		<tag k="ssr:type" v="nesISjø" />
	</node>
	<node lat="64.66390555226334" lon="11.322724993138097" id="-33300">
		<tag k="name" v="Øver Moldvikvatnet" />
		<tag k="natural" v="water" />
		<tag k="ssr:date" v="2019-12-27" />
		<tag k="ssr:gruppe" v="stilleståendeVann" />
		<tag k="ssr:hovedgruppe" v="ferskvann" />
		<tag k="ssr:stedsnr" v="229902" />
		<tag k="ssr:type" v="tjern" />
	</node>
	<node lat="64.68024722507678" lon="11.232611109556762" id="-33301">
		<tag k="name" v="Aunabakken" />
		<tag k="natural" v="slope" />
		<tag k="place" v="locality" />
		<tag k="ssr:date" v="2019-12-27" />
		<tag k="ssr:gruppe" v="skråninger" />
		<tag k="ssr:hovedgruppe" v="terreng" />
		<tag k="ssr:stedsnr" v="229843" />
		<tag k="ssr:type" v="bakke" />
	</node>
	<node lat="64.68096944088781" lon="11.266686105974326" id="-33302">
		<tag k="name" v="Leirvikskardet" />
		<tag k="natural" v="valley" />
		<tag k="place" v="locality" />
		<tag k="ssr:date" v="2019-12-27" />
		<tag k="ssr:gruppe" v="senkninger" />
		<tag k="ssr:hovedgruppe" v="terreng" />
		<tag k="ssr:stedsnr" v="229851" />
		<tag k="ssr:type" v="dal" />
	</node>
	<node lat="64.68192499816243" lon="11.23521944641946" id="-33303">
		<tag k="name" v="Valdskiftet" />
		<tag k="natural" v="slope" />
		<tag k="place" v="locality" />
		<tag k="ssr:date" v="2019-12-27" />
		<tag k="ssr:gruppe" v="skråninger" />
		<tag k="ssr:hovedgruppe" v="terreng" />
		<tag k="ssr:stedsnr" v="229860" />
		<tag k="ssr:type" v="li" />
	</node>
	<node lat="64.68956666862216" lon="11.250305565985641" id="-33304">
		<tag k="name" v="Nordøysundet" />
		<tag k="natural" v="strait" />
		<tag k="ssr:date" v="2019-12-27" />
		<tag k="ssr:gruppe" v="kystkontur" />
		<tag k="ssr:hovedgruppe" v="sjø" />
		<tag k="ssr:stedsnr" v="229862" />
		<tag k="ssr:type" v="sundISjø" />
	</node>
	<node lat="64.63936110949513" lon="11.270769435840027" id="-33305">
		<tag k="name" v="Kalskogen" />
		<tag k="place" v="locality" />
		<tag k="ssr:date" v="2019-12-27" />
		<tag k="ssr:gruppe" v="vegetasjon" />
		<tag k="ssr:hovedgruppe" v="markslag" />
		<tag k="ssr:stedsnr" v="229947" />
		<tag k="ssr:type" v="skog" />
	</node>
	<node lat="64.64867777897918" lon="11.109950006566768" id="-33306">
		<tag k="name" v="Karvevika" />
		<tag k="natural" v="bay" />
		<tag k="ssr:date" v="2019-12-27" />
		<tag k="ssr:gruppe" v="kystkontur" />
		<tag k="ssr:hovedgruppe" v="sjø" />
		<tag k="ssr:stedsnr" v="229963" />
		<tag k="ssr:type" v="vikISjø" />
	</node>
	<node lat="64.6540888849405" lon="11.340966656268392" id="-33307">
		<tag k="name" v="Brennhaugen" />
		<tag k="natural" v="hill" />
		<tag k="place" v="locality" />
		<tag k="ssr:date" v="2019-12-27" />
		<tag k="ssr:gruppe" v="høyder" />
		<tag k="ssr:hovedgruppe" v="terreng" />
		<tag k="ssr:stedsnr" v="229910" />
		<tag k="ssr:type" v="haug" />
	</node>
	<node lat="64.65251666705379" lon="11.354661102577891" id="-33308">
		<tag k="name" v="Jekthammarodden" />
		<tag k="natural" v="cape" />
		<tag k="ssr:date" v="2019-12-27" />
		<tag k="ssr:gruppe" v="kystkontur" />
		<tag k="ssr:hovedgruppe" v="sjø" />
		<tag k="ssr:stedsnr" v="229911" />
		<tag k="ssr:type" v="nesISjø" />
	</node>
	<node lat="64.29546666910589" lon="11.715800009788438" id="-33309">
		<tag k="name" v="Nikolaihaugen" />
		<tag k="natural" v="hill" />
		<tag k="place" v="locality" />
		<tag k="ssr:date" v="2019-12-27" />
		<tag k="ssr:gruppe" v="høyder" />
		<tag k="ssr:hovedgruppe" v="terreng" />
		<tag k="ssr:stedsnr" v="230101" />
		<tag k="ssr:type" v="haug" />
	</node>
	<node lat="64.443724996946" lon="11.13583054777036" id="-33310">
		<tag k="name" v="Heia" />
		<tag k="natural" v="hill" />
		<tag k="place" v="locality" />
		<tag k="ssr:date" v="2019-12-27" />
		<tag k="ssr:gruppe" v="høyder" />
		<tag k="ssr:hovedgruppe" v="terreng" />
		<tag k="ssr:stedsnr" v="230169" />
		<tag k="ssr:type" v="hei" />
	</node>
	<node lat="64.44571944105827" lon="11.196774998869984" id="-33311">
		<tag k="name" v="Morkaholmen" />
		<tag k="place" v="islet" />
		<tag k="ssr:date" v="2019-12-27" />
		<tag k="ssr:gruppe" v="kystkontur" />
		<tag k="ssr:hovedgruppe" v="sjø" />
		<tag k="ssr:stedsnr" v="230181" />
		<tag k="ssr:type" v="holmeISjø" />
	</node>
	<node lat="64.46101666596866" lon="11.15500000949408" id="-33312">
		<tag k="fixme" v="consider natural=peak for the most distinct mountains in the district" />
		<tag k="name" v="Larsfjellet" />
		<tag k="natural" v="hill" />
		<tag k="place" v="locality" />
		<tag k="ssr:date" v="2019-12-27" />
		<tag k="ssr:gruppe" v="høyder" />
		<tag k="ssr:hovedgruppe" v="terreng" />
		<tag k="ssr:stedsnr" v="230188" />
		<tag k="ssr:type" v="fjell" />
	</node>
	<node lat="64.44761944577523" lon="11.095488880127911" id="-33313">
		<tag k="fixme" v="consider natural=peak for the most distinct mountains in the district" />
		<tag k="name" v="Tuva" />
		<tag k="natural" v="hill" />
		<tag k="place" v="locality" />
		<tag k="ssr:date" v="2019-12-27" />
		<tag k="ssr:gruppe" v="høyder" />
		<tag k="ssr:hovedgruppe" v="terreng" />
		<tag k="ssr:stedsnr" v="230194" />
		<tag k="ssr:type" v="ås" />
	</node>
	<node lat="64.433049997269" lon="11.10666665893946" id="-33314">
		<tag k="fixme" v="consider natural=peak for the most distinct mountains in the district" />
		<tag k="name" v="Høgåsen" />
		<tag k="natural" v="hill" />
		<tag k="place" v="locality" />
		<tag k="ssr:date" v="2019-12-27" />
		<tag k="ssr:gruppe" v="høyder" />
		<tag k="ssr:hovedgruppe" v="terreng" />
		<tag k="ssr:stedsnr" v="230234" />
		<tag k="ssr:type" v="ås" />
	</node>
	<node lat="64.59754444085087" lon="11.69936665891646" id="-33315">
		<tag k="fixme" v="consider natural=peak for the most distinct mountains in the district" />
		<tag k="name" v="Kramarvikfjellet" />
		<tag k="natural" v="hill" />
		<tag k="place" v="locality" />
		<tag k="ssr:date" v="2019-12-27" />
		<tag k="ssr:gruppe" v="høyder" />
		<tag k="ssr:hovedgruppe" v="terreng" />
		<tag k="ssr:stedsnr" v="230255" />
		<tag k="ssr:type" v="ås" />
	</node>
	<node lat="64.59240000061236" lon="11.749861110081325" id="-33316">
		<tag k="name" v="Reiarmoen" />
		<tag k="place" v="locality" />
		<tag k="ssr:date" v="2019-12-27" />
		<tag k="ssr:gruppe" v="flater" />
		<tag k="ssr:hovedgruppe" v="terreng" />
		<tag k="ssr:stedsnr" v="230264" />
		<tag k="ssr:type" v="mo" />
	</node>
	<node lat="64.47241389325059" lon="11.105122222548184" id="-33317">
		<tag k="historic" v="shieling" />
		<tag k="name" v="Fjørstadfjellvollen" />
		<tag k="place" v="isolated_dwelling" />
		<tag k="ssr:date" v="2019-12-27" />
		<tag k="ssr:gruppe" v="gardsbebyggelse" />
		<tag k="ssr:hovedgruppe" v="bebyggelse" />
		<tag k="ssr:stedsnr" v="230365" />
		<tag k="ssr:type" v="seterStøl" />
	</node>
	<node lat="64.46555000419667" lon="11.095672223825272" id="-33318">
		<tag k="name" v="Statlandlangodden" />
		<tag k="natural" v="cape" />
		<tag k="ssr:date" v="2019-12-27" />
		<tag k="ssr:gruppe" v="ferskvannskontur" />
		<tag k="ssr:hovedgruppe" v="ferskvann" />
		<tag k="ssr:stedsnr" v="230368" />
		<tag k="ssr:type" v="nes" />
	</node>
	<node lat="64.48776944124157" lon="11.211688884017148" id="-33319">
		<tag k="name" v="Hoddøysanden" />
		<tag k="natural" v="beach" />
		<tag k="ssr:date" v="2019-12-27" />
		<tag k="ssr:gruppe" v="kystkontur" />
		<tag k="ssr:hovedgruppe" v="sjø" />
		<tag k="ssr:stedsnr" v="230390" />
		<tag k="ssr:type" v="strandISjø" />
	</node>
	<node lat="64.49004166419896" lon="11.234155555454747" id="-33320">
		<tag k="fixme" v="consider natural=peak for the most distinct mountains in the district" />
		<tag k="name" v="Skarflauget" />
		<tag k="natural" v="hill" />
		<tag k="place" v="locality" />
		<tag k="ssr:date" v="2019-12-27" />
		<tag k="ssr:gruppe" v="høyder" />
		<tag k="ssr:hovedgruppe" v="terreng" />
		<tag k="ssr:stedsnr" v="230392" />
		<tag k="ssr:type" v="ås" />
	</node>
	<node lat="64.48821944480592" lon="11.311377768238806" id="-33321">
		<tag k="name" v="Stormyra" />
		<tag k="natural" v="wetland" />
		<tag k="ssr:date" v="2019-12-27" />
		<tag k="ssr:gruppe" v="våtmark" />
		<tag k="ssr:hovedgruppe" v="markslag" />
		<tag k="ssr:stedsnr" v="230398" />
		<tag k="ssr:type" v="myr" />
	</node>
	<node lat="64.50289444479246" lon="11.044736110742269" id="-33322">
		<tag k="name" v="Stakktjønnin" />
		<tag k="natural" v="water" />
		<tag k="ssr:date" v="2019-12-27" />
		<tag k="ssr:gruppe" v="stilleståendeVann" />
		<tag k="ssr:hovedgruppe" v="ferskvann" />
		<tag k="ssr:stedsnr" v="230451" />
		<tag k="ssr:type" v="tjern" />
	</node>
	<node lat="64.48632499654296" lon="11.080502782728752" id="-33323">
		<tag k="name" v="Nova" />
		<tag k="natural" v="valley" />
		<tag k="place" v="locality" />
		<tag k="ssr:date" v="2019-12-27" />
		<tag k="ssr:gruppe" v="senkninger" />
		<tag k="ssr:hovedgruppe" v="terreng" />
		<tag k="ssr:stedsnr" v="230460" />
		<tag k="ssr:type" v="dal" />
	</node>
	<node lat="64.15606666273953" lon="10.980724996279543" id="-33324">
		<tag k="name" v="Furudalen" />
		<tag k="natural" v="valley" />
		<tag k="place" v="locality" />
		<tag k="ssr:date" v="2019-12-27" />
		<tag k="ssr:gruppe" v="senkninger" />
		<tag k="ssr:hovedgruppe" v="terreng" />
		<tag k="ssr:stedsnr" v="230557" />
		<tag k="ssr:type" v="dal" />
	</node>
	<node lat="64.58729504337045" lon="11.374639930677901" id="-33325">
		<tag k="name" v="Lyngholmskjæret" />
		<tag k="place" v="isolated_dwelling" />
		<tag k="ssr:date" v="2020-04-20" />
		<tag k="ssr:gruppe" v="bolighus" />
		<tag k="ssr:hovedgruppe" v="bebyggelse" />
		<tag k="ssr:stedsnr" v="230572" />
		<tag k="ssr:type" v="eneboligMindreBoligbygg" />
	</node>
	<node lat="64.58779444201762" lon="11.640411107224589" id="-33326">
		<tag k="name" v="Brannåsskaret" />
		<tag k="natural" v="valley" />
		<tag k="place" v="locality" />
		<tag k="ssr:date" v="2019-12-27" />
		<tag k="ssr:gruppe" v="senkninger" />
		<tag k="ssr:hovedgruppe" v="terreng" />
		<tag k="ssr:stedsnr" v="230651" />
		<tag k="ssr:type" v="skar" />
	</node>
	<node lat="64.22551944087344" lon="11.403027767921472" id="-33327">
		<tag k="name" v="Kvennabekken" />
		<tag k="ssr:date" v="2019-12-27" />
		<tag k="ssr:gruppe" v="rennendeVann" />
		<tag k="ssr:hovedgruppe" v="ferskvann" />
		<tag k="ssr:stedsnr" v="230666" />
		<tag k="ssr:type" v="bekk" />
		<tag k="waterway" v="stream" />
	</node>
	<node lat="64.2317194423847" lon="11.430858332044442" id="-33328">
		<tag k="name" v="Sagbakken" />
		<tag k="natural" v="slope" />
		<tag k="place" v="locality" />
		<tag k="ssr:date" v="2019-12-27" />
		<tag k="ssr:gruppe" v="skråninger" />
		<tag k="ssr:hovedgruppe" v="terreng" />
		<tag k="ssr:stedsnr" v="230667" />
		<tag k="ssr:type" v="bakke" />
	</node>
	<node lat="64.45087777713944" lon="11.293166675866397" id="-33329">
		<tag k="name" v="Høgdin" />
		<tag k="natural" v="slope" />
		<tag k="place" v="locality" />
		<tag k="ssr:date" v="2019-12-27" />
		<tag k="ssr:gruppe" v="skråninger" />
		<tag k="ssr:hovedgruppe" v="terreng" />
		<tag k="ssr:stedsnr" v="230727" />
		<tag k="ssr:type" v="li" />
	</node>
	<node lat="64.3394777780272" lon="11.457586115184288" id="-33330">
		<tag k="name" v="Navarhaugen" />
		<tag k="natural" v="hill" />
		<tag k="place" v="locality" />
		<tag k="ssr:date" v="2019-12-27" />
		<tag k="ssr:gruppe" v="høyder" />
		<tag k="ssr:hovedgruppe" v="terreng" />
		<tag k="ssr:stedsnr" v="230766" />
		<tag k="ssr:type" v="haug" />
	</node>
	<node lat="64.25340555983479" lon="11.16554443886897" id="-33331">
		<tag k="name" v="Jamtlia" />
		<tag k="place" v="locality" />
		<tag k="ssr:date" v="2019-12-27" />
		<tag k="ssr:gruppe" v="bolighus" />
		<tag k="ssr:hovedgruppe" v="bebyggelse" />
		<tag k="ssr:stedsnr" v="230864" />
		<tag k="ssr:type" v="gammelBosettingsplass" />
	</node>
	<node lat="64.59754722569373" lon="11.035749998184984" id="-33332">
		<tag k="name" v="Kvilarvika" />
		<tag k="natural" v="bay" />
		<tag k="ssr:date" v="2019-12-27" />
		<tag k="ssr:gruppe" v="kystkontur" />
		<tag k="ssr:hovedgruppe" v="sjø" />
		<tag k="ssr:stedsnr" v="230926" />
		<tag k="ssr:type" v="vikISjø" />
	</node>
	<node lat="64.25020277607543" lon="11.073891675392272" id="-33333">
		<tag k="name" v="Sivertdalen" />
		<tag k="natural" v="valley" />
		<tag k="place" v="locality" />
		<tag k="ssr:date" v="2019-12-27" />
		<tag k="ssr:gruppe" v="senkninger" />
		<tag k="ssr:hovedgruppe" v="terreng" />
		<tag k="ssr:stedsnr" v="230937" />
		<tag k="ssr:type" v="dal" />
	</node>
	<node lat="64.62608889339607" lon="11.044358325763904" id="-33334">
		<tag k="name" v="Bekkavika" />
		<tag k="natural" v="bay" />
		<tag k="ssr:date" v="2019-12-27" />
		<tag k="ssr:gruppe" v="kystkontur" />
		<tag k="ssr:hovedgruppe" v="sjø" />
		<tag k="ssr:stedsnr" v="230941" />
		<tag k="ssr:type" v="vikISjø" />
	</node>
	<node lat="64.63357499653655" lon="11.033133338990226" id="-33335">
		<tag k="name" v="Lunnfallet" />
		<tag k="natural" v="strait" />
		<tag k="ssr:date" v="2019-12-27" />
		<tag k="ssr:gruppe" v="kystkontur" />
		<tag k="ssr:hovedgruppe" v="sjø" />
		<tag k="ssr:stedsnr" v="230942" />
		<tag k="ssr:type" v="sundISjø" />
	</node>
	<node lat="64.62169166656244" lon="11.032391658073623" id="-33336">
		<tag k="name" v="Bokkskinnberga" />
		<tag k="natural" v="hill" />
		<tag k="place" v="locality" />
		<tag k="ssr:date" v="2019-12-27" />
		<tag k="ssr:gruppe" v="høyder" />
		<tag k="ssr:hovedgruppe" v="terreng" />
		<tag k="ssr:stedsnr" v="230945" />
		<tag k="ssr:type" v="berg" />
	</node>
	<node lat="64.23339722467404" lon="11.103683327724488" id="-33337">
		<tag k="name" v="Fautgårdsmyrin" />
		<tag k="natural" v="wetland" />
		<tag k="ssr:date" v="2019-12-27" />
		<tag k="ssr:gruppe" v="våtmark" />
		<tag k="ssr:hovedgruppe" v="markslag" />
		<tag k="ssr:stedsnr" v="230946" />
		<tag k="ssr:type" v="myr" />
	</node>
	<node lat="64.23004721795067" lon="11.119236105263884" id="-33338">
		<tag k="name" v="Oksarlia" />
		<tag k="natural" v="slope" />
		<tag k="place" v="locality" />
		<tag k="ssr:date" v="2019-12-27" />
		<tag k="ssr:gruppe" v="skråninger" />
		<tag k="ssr:hovedgruppe" v="terreng" />
		<tag k="ssr:stedsnr" v="230957" />
		<tag k="ssr:type" v="li" />
	</node>
	<node lat="64.20649166784321" lon="10.884391670598495" id="-33339">
		<tag k="name" v="Vestre - Bjørkvassheia" />
		<tag k="natural" v="valley" />
		<tag k="place" v="locality" />
		<tag k="ssr:date" v="2019-12-27" />
		<tag k="ssr:gruppe" v="senkninger" />
		<tag k="ssr:hovedgruppe" v="terreng" />
		<tag k="ssr:stedsnr" v="230974" />
		<tag k="ssr:type" v="dal" />
	</node>
	<node lat="64.5268388889941" lon="11.067433337580537" id="-33340">
		<tag k="name" v="Viskarhaugen" />
		<tag k="natural" v="hill" />
		<tag k="place" v="locality" />
		<tag k="ssr:date" v="2019-12-27" />
		<tag k="ssr:gruppe" v="høyder" />
		<tag k="ssr:hovedgruppe" v="terreng" />
		<tag k="ssr:stedsnr" v="231332" />
		<tag k="ssr:type" v="haug" />
	</node>
	<node lat="64.5322666630678" lon="11.066375000147277" id="-33341">
		<tag k="name" v="Brattkleiva" />
		<tag k="place" v="locality" />
		<tag k="ssr:date" v="2019-12-27" />
		<tag k="ssr:gruppe" v="høyder" />
		<tag k="ssr:hovedgruppe" v="terreng" />
		<tag k="ssr:stedsnr" v="231333" />
		<tag k="ssr:type" v="fjellkant" />
	</node>
	<node lat="64.67824444733274" lon="11.813316668530817" id="-33342">
		<tag k="name" v="Aunkroken" />
		<tag k="natural" v="hill" />
		<tag k="place" v="locality" />
		<tag k="ssr:date" v="2019-12-27" />
		<tag k="ssr:gruppe" v="høyder" />
		<tag k="ssr:hovedgruppe" v="terreng" />
		<tag k="ssr:stedsnr" v="232020" />
		<tag k="ssr:type" v="haug" />
	</node>
	<node lat="64.7914527780835" lon="12.107083342843314" id="-33343">
		<tag k="name" v="Kaldholet" />
		<tag k="natural" v="valley" />
		<tag k="place" v="locality" />
		<tag k="ssr:date" v="2019-12-27" />
		<tag k="ssr:gruppe" v="senkninger" />
		<tag k="ssr:hovedgruppe" v="terreng" />
		<tag k="ssr:stedsnr" v="232115" />
		<tag k="ssr:type" v="skar" />
	</node>
	<node lat="64.76303055941636" lon="12.057438899224186" id="-33344">
		<tag k="name" v="Hyllan" />
		<tag k="natural" v="slope" />
		<tag k="place" v="locality" />
		<tag k="ssr:date" v="2019-12-27" />
		<tag k="ssr:gruppe" v="skråninger" />
		<tag k="ssr:hovedgruppe" v="terreng" />
		<tag k="ssr:stedsnr" v="232117" />
		<tag k="ssr:type" v="li" />
	</node>
	<node lat="64.70681944373811" lon="11.82839167267489" id="-33345">
		<tag k="name" v="Gudmundlia" />
		<tag k="natural" v="slope" />
		<tag k="place" v="locality" />
		<tag k="ssr:date" v="2019-12-27" />
		<tag k="ssr:gruppe" v="skråninger" />
		<tag k="ssr:hovedgruppe" v="terreng" />
		<tag k="ssr:stedsnr" v="232043" />
		<tag k="ssr:type" v="li" />
	</node>
	<node lat="64.69490277488842" lon="11.878233324063894" id="-33346">
		<tag k="name" v="Salmarkskardet" />
		<tag k="natural" v="valley" />
		<tag k="place" v="locality" />
		<tag k="ssr:date" v="2019-12-27" />
		<tag k="ssr:gruppe" v="senkninger" />
		<tag k="ssr:hovedgruppe" v="terreng" />
		<tag k="ssr:stedsnr" v="232044" />
		<tag k="ssr:type" v="skar" />
	</node>
	<node lat="64.7621944400951" lon="12.029405551817627" id="-33347">
		<tag k="name" v="Ånelonet" />
		<tag k="natural" v="water" />
		<tag k="ssr:date" v="2019-12-27" />
		<tag k="ssr:gruppe" v="rennendeVann" />
		<tag k="ssr:hovedgruppe" v="ferskvann" />
		<tag k="ssr:stedsnr" v="232060" />
		<tag k="ssr:type" v="lon" />
		<tag k="water" v="lake" />
	</node>
	<node lat="64.78414444781853" lon="12.023338888975704" id="-33348">
		<tag k="name" v="Svanatjønndalen" />
		<tag k="natural" v="valley" />
		<tag k="place" v="locality" />
		<tag k="ssr:date" v="2019-12-27" />
		<tag k="ssr:gruppe" v="senkninger" />
		<tag k="ssr:hovedgruppe" v="terreng" />
		<tag k="ssr:stedsnr" v="232064" />
		<tag k="ssr:type" v="dal" />
	</node>
	<node lat="64.46830277777045" lon="11.270063887389913" id="-33349">
		<tag k="name" v="Finnkovstranda" />
		<tag k="natural" v="beach" />
		<tag k="ssr:date" v="2019-12-27" />
		<tag k="ssr:gruppe" v="kystkontur" />
		<tag k="ssr:hovedgruppe" v="sjø" />
		<tag k="ssr:stedsnr" v="13063" />
		<tag k="ssr:type" v="strandISjø" />
	</node>
	<node lat="64.46445555490223" lon="11.519561104419044" id="-33350">
		<tag k="alt_name" v="Tiendholmen" />
		<tag k="name" v="Tinholmen" />
		<tag k="natural" v="cape" />
		<tag k="ssr:date" v="2019-12-27" />
		<tag k="ssr:gruppe" v="kystkontur" />
		<tag k="ssr:hovedgruppe" v="sjø" />
		<tag k="ssr:stedsnr" v="13074" />
		<tag k="ssr:type" v="nesISjø" />
	</node>
	<node lat="64.48541111294078" lon="11.346383341423074" id="-33351">
		<tag k="name" v="Sandvika" />
		<tag k="place" v="farm" />
		<tag k="ssr:date" v="2021-06-08" />
		<tag k="ssr:gruppe" v="gardsbebyggelse" />
		<tag k="ssr:hovedgruppe" v="bebyggelse" />
		<tag k="ssr:stedsnr" v="13201" />
		<tag k="ssr:type" v="bruk" />
	</node>
	<node lat="64.48025833405987" lon="11.400744441640407" id="-33352">
		<tag k="alt_name" v="Ansneshaugan" />
		<tag k="fixme" v="consider natural=peak for the most distinct mountains in the district" />
		<tag k="name" v="Andsneset" />
		<tag k="natural" v="hill" />
		<tag k="place" v="locality" />
		<tag k="ssr:date" v="2019-12-27" />
		<tag k="ssr:gruppe" v="høyder" />
		<tag k="ssr:hovedgruppe" v="terreng" />
		<tag k="ssr:stedsnr" v="13202" />
		<tag k="ssr:type" v="ås" />
	</node>
	<node lat="64.58708611418048" lon="11.190158338873085" id="-33353">
		<tag k="alt_name" v="Mulen" />
		<tag k="name" v="Digermulen" />
		<tag k="natural" v="cape" />
		<tag k="ssr:date" v="2019-12-27" />
		<tag k="ssr:gruppe" v="kystkontur" />
		<tag k="ssr:hovedgruppe" v="sjø" />
		<tag k="ssr:stedsnr" v="13608" />
		<tag k="ssr:type" v="nesISjø" />
	</node>
	<node lat="64.15891389171526" lon="11.14672221332689" id="-33354">
		<tag k="name" v="Steintjønna" />
		<tag k="natural" v="water" />
		<tag k="ssr:date" v="2021-06-08" />
		<tag k="ssr:gruppe" v="stilleståendeVann" />
		<tag k="ssr:hovedgruppe" v="ferskvann" />
		<tag k="ssr:stedsnr" v="13614" />
		<tag k="ssr:type" v="tjern" />
	</node>
	<node lat="64.45099722104067" lon="11.18210555265352" id="-33355">
		<tag k="name" v="Saltneset" />
		<tag k="natural" v="cape" />
		<tag k="ssr:date" v="2021-06-08" />
		<tag k="ssr:gruppe" v="kystkontur" />
		<tag k="ssr:hovedgruppe" v="sjø" />
		<tag k="ssr:stedsnr" v="13502" />
		<tag k="ssr:type" v="nesISjø" />
	</node>
	<node lat="64.44908055200506" lon="11.173491674472645" id="-33356">
		<tag k="name" v="Sve" />
		<tag k="place" v="farm" />
		<tag k="ssr:date" v="2021-06-08" />
		<tag k="ssr:gruppe" v="gardsbebyggelse" />
		<tag k="ssr:hovedgruppe" v="bebyggelse" />
		<tag k="ssr:stedsnr" v="13503" />
		<tag k="ssr:type" v="bruk" />
	</node>
	<node lat="64.32548333197595" lon="11.295800004149148" id="-33357">
		<tag k="name" v="Brennpynten" />
		<tag k="natural" v="hill" />
		<tag k="place" v="locality" />
		<tag k="ssr:date" v="2019-12-27" />
		<tag k="ssr:gruppe" v="høyder" />
		<tag k="ssr:hovedgruppe" v="terreng" />
		<tag k="ssr:stedsnr" v="13882" />
		<tag k="ssr:type" v="haug" />
	</node>
	<node lat="64.44543333676023" lon="11.322155548834663" id="-33358">
		<tag k="name" v="Skjerpa" />
		<tag k="place" v="isolated_dwelling" />
		<tag k="ssr:date" v="2019-12-27" />
		<tag k="ssr:gruppe" v="bolighus" />
		<tag k="ssr:hovedgruppe" v="bebyggelse" />
		<tag k="ssr:stedsnr" v="14012" />
		<tag k="ssr:type" v="fritidsbolig" />
	</node>
	<node lat="64.44077500018956" lon="11.458850003401336" id="-33359">
		<tag k="name" v="Kvaholmen" />
		<tag k="place" v="islet" />
		<tag k="ssr:date" v="2019-12-27" />
		<tag k="ssr:gruppe" v="kystkontur" />
		<tag k="ssr:hovedgruppe" v="sjø" />
		<tag k="ssr:stedsnr" v="14016" />
		<tag k="ssr:type" v="holmeISjø" />
	</node>
	<node lat="64.22662603948523" lon="11.24133907847035" id="-33360">
		<tag k="fixme" v="consider place=hamlet" />
		<tag k="name" v="Hundset" />
		<tag k="place" v="farm" />
		<tag k="ssr:date" v="2019-12-27" />
		<tag k="ssr:gruppe" v="gardsbebyggelse" />
		<tag k="ssr:hovedgruppe" v="bebyggelse" />
		<tag k="ssr:stedsnr" v="13918" />
		<tag k="ssr:type" v="gard" />
	</node>
	<node lat="64.22951667051649" lon="11.269544444520939" id="-33361">
		<tag k="alt_name" v="Olderlitinden" />
		<tag k="fixme" v="consider natural=peak for the most distinct mountains in the district" />
		<tag k="name" v="Sørlitinden" />
		<tag k="natural" v="hill" />
		<tag k="place" v="locality" />
		<tag k="ssr:date" v="2021-06-08" />
		<tag k="ssr:gruppe" v="høyder" />
		<tag k="ssr:hovedgruppe" v="terreng" />
		<tag k="ssr:stedsnr" v="13920" />
		<tag k="ssr:type" v="ås" />
	</node>
	<node lat="64.3064999962733" lon="11.572138886557854" id="-33362">
		<tag k="name" v="Auntjønnin" />
		<tag k="natural" v="water" />
		<tag k="ssr:date" v="2021-06-08" />
		<tag k="ssr:gruppe" v="stilleståendeVann" />
		<tag k="ssr:hovedgruppe" v="ferskvann" />
		<tag k="ssr:stedsnr" v="13929" />
		<tag k="ssr:type" v="tjern" />
	</node>
	<node lat="64.30990277587361" lon="11.51140834294455" id="-33363">
		<tag k="name" v="Kristenmoen" />
		<tag k="place" v="locality" />
		<tag k="ssr:date" v="2019-12-27" />
		<tag k="ssr:gruppe" v="flater" />
		<tag k="ssr:hovedgruppe" v="terreng" />
		<tag k="ssr:stedsnr" v="13931" />
		<tag k="ssr:type" v="mo" />
	</node>
	<node lat="64.3168555573149" lon="11.421911105683126" id="-33364">
		<tag k="name" v="Ragnhildtjønna" />
		<tag k="natural" v="water" />
		<tag k="ssr:date" v="2021-06-08" />
		<tag k="ssr:gruppe" v="stilleståendeVann" />
		<tag k="ssr:hovedgruppe" v="ferskvann" />
		<tag k="ssr:stedsnr" v="13932" />
		<tag k="ssr:type" v="tjern" />
	</node>
	<node lat="64.69785555608989" lon="11.682227767353814" id="-33365">
		<tag k="name" v="Litl-Gagneta" />
		<tag k="natural" v="bay" />
		<tag k="ssr:date" v="2019-12-27" />
		<tag k="ssr:gruppe" v="ferskvannskontur" />
		<tag k="ssr:hovedgruppe" v="ferskvann" />
		<tag k="ssr:stedsnr" v="232344" />
		<tag k="ssr:type" v="vik" />
	</node>
	<node lat="64.42763889161233" lon="11.508825009921619" id="-33366">
		<tag k="name" v="Sevielva" />
		<tag k="ssr:date" v="2021-06-08" />
		<tag k="ssr:gruppe" v="rennendeVann" />
		<tag k="ssr:hovedgruppe" v="ferskvann" />
		<tag k="ssr:stedsnr" v="14092" />
		<tag k="ssr:type" v="elv" />
		<tag k="waterway" v="river" />
	</node>
	<node lat="64.49151944260348" lon="11.441549995859788" id="-33367">
		<tag k="alt_name" v="Festhammaren" />
		<tag k="name" v="Sveaodden" />
		<tag k="natural" v="cape" />
		<tag k="ssr:date" v="2019-12-27" />
		<tag k="ssr:gruppe" v="kystkontur" />
		<tag k="ssr:hovedgruppe" v="sjø" />
		<tag k="ssr:stedsnr" v="14201" />
		<tag k="ssr:type" v="nesISjø" />
	</node>
	<node lat="64.49031944722061" lon="11.385222213589255" id="-33368">
		<tag k="fixme" v="multiple name tags, choose one and add the other to alt_name" />
		<tag k="name" v="Seterelva;Skramstadelva" />
		<tag k="ssr:date" v="2021-06-08" />
		<tag k="ssr:gruppe" v="rennendeVann" />
		<tag k="ssr:hovedgruppe" v="ferskvann" />
		<tag k="ssr:stedsnr" v="14204" />
		<tag k="ssr:type" v="bekk" />
		<tag k="waterway" v="stream" />
	</node>
</osm>
