<?xml version="1.0" encoding="UTF-8"?>
<osm generator="osmapis" version="0.6">
	<node id="-635377" lat="64.4853583292" lon="11.4227194532">
		<tag k="name" v="Lokkaren" />
		<tag k="ssr:date" v="2019-12-27" />
		<tag k="ssr:gruppe" v="navigasjon" />
		<tag k="ssr:hovedgruppe" v="infrastruktur" />
		<tag k="ssr:stedsnr" v="802244" />
		<tag k="ssr:type" v="fyrlykt" />
	</node>
	<node id="-635702" lat="64.5583750165" lon="11.6449290582">
		<tag k="name" v="Bjørkavatnet" />
		<tag k="ssr:date" v="2019-12-27" />
		<tag k="ssr:gruppe" v="veg" />
		<tag k="ssr:hovedgruppe" v="infrastruktur" />
		<tag k="ssr:stedsnr" v="1022532" />
		<tag k="ssr:type" v="adressenavn" />
	</node>
	<node id="-636718" lat="64.4625970526" lon="11.5443139463">
		<tag k="name" v="Kjell Halvarssons plass" />
		<tag k="ssr:date" v="2019-12-27" />
		<tag k="ssr:gruppe" v="veg" />
		<tag k="ssr:hovedgruppe" v="infrastruktur" />
		<tag k="ssr:stedsnr" v="181199" />
		<tag k="ssr:type" v="adressenavn" />
	</node>
	<node id="-632801" lat="64.6387027802" lon="11.3584638923">
		<tag k="name" v="Ølhammaren" />
		<tag k="ssr:date" v="2019-12-27" />
		<tag k="ssr:gruppe" v="navigasjon" />
		<tag k="ssr:hovedgruppe" v="infrastruktur" />
		<tag k="ssr:stedsnr" v="226074" />
		<tag k="ssr:type" v="lanterne" />
	</node>
	<node id="-635728" lat="64.3874328333" lon="11.3091877107">
		<tag k="name" v="Korsneset" />
		<tag k="ssr:date" v="2019-12-27" />
		<tag k="ssr:gruppe" v="veg" />
		<tag k="ssr:hovedgruppe" v="infrastruktur" />
		<tag k="ssr:stedsnr" v="1036650" />
		<tag k="ssr:type" v="adressenavn" />
	</node>
	<node id="-635695" lat="64.5825058474" lon="11.4913615819">
		<tag k="name" v="Andvika" />
		<tag k="ssr:date" v="2019-12-27" />
		<tag k="ssr:gruppe" v="veg" />
		<tag k="ssr:hovedgruppe" v="infrastruktur" />
		<tag k="ssr:stedsnr" v="1022522" />
		<tag k="ssr:type" v="adressenavn" />
	</node>
	<node id="-635727" lat="64.3221498035" lon="11.0820442734">
		<tag k="name" v="Nordsandvatnet" />
		<tag k="ssr:date" v="2019-12-27" />
		<tag k="ssr:gruppe" v="veg" />
		<tag k="ssr:hovedgruppe" v="infrastruktur" />
		<tag k="ssr:stedsnr" v="1036649" />
		<tag k="ssr:type" v="adressenavn" />
	</node>
	<node id="-632787" lat="64.6310027806" lon="11.1446805655">
		<tag k="name" v="Jevika" />
		<tag k="ssr:date" v="2019-12-27" />
		<tag k="ssr:gruppe" v="navigasjon" />
		<tag k="ssr:hovedgruppe" v="infrastruktur" />
		<tag k="ssr:stedsnr" v="14433" />
		<tag k="ssr:type" v="fyrlykt" />
	</node>
	<node id="-635712" lat="64.4920932295" lon="11.090357918">
		<tag k="name" v="Sparlivatnet" />
		<tag k="ssr:date" v="2019-12-27" />
		<tag k="ssr:gruppe" v="veg" />
		<tag k="ssr:hovedgruppe" v="infrastruktur" />
		<tag k="ssr:stedsnr" v="1036633" />
		<tag k="ssr:type" v="adressenavn" />
	</node>
	<node id="-635701" lat="64.6333830365" lon="11.8270766791">
		<tag k="name" v="Stordalen" />
		<tag k="ssr:date" v="2019-12-27" />
		<tag k="ssr:gruppe" v="veg" />
		<tag k="ssr:hovedgruppe" v="infrastruktur" />
		<tag k="ssr:stedsnr" v="1022531" />
		<tag k="ssr:type" v="adressenavn" />
	</node>
	<node id="-635718" lat="64.456140154" lon="11.0585695741">
		<tag k="name" v="Svarttjønna" />
		<tag k="ssr:date" v="2019-12-27" />
		<tag k="ssr:gruppe" v="veg" />
		<tag k="ssr:hovedgruppe" v="infrastruktur" />
		<tag k="ssr:stedsnr" v="1036639" />
		<tag k="ssr:type" v="adressenavn" />
	</node>
	<node id="-635724" lat="64.3468815576" lon="11.2028486278">
		<tag k="name" v="Munkhammarvatnet" />
		<tag k="ssr:date" v="2019-12-27" />
		<tag k="ssr:gruppe" v="veg" />
		<tag k="ssr:hovedgruppe" v="infrastruktur" />
		<tag k="ssr:stedsnr" v="1036646" />
		<tag k="ssr:type" v="adressenavn" />
	</node>
	<node id="-635723" lat="64.3807081429" lon="11.1031442412">
		<tag k="name" v="Gravhaugvatnet" />
		<tag k="ssr:date" v="2019-12-27" />
		<tag k="ssr:gruppe" v="veg" />
		<tag k="ssr:hovedgruppe" v="infrastruktur" />
		<tag k="ssr:stedsnr" v="1036644" />
		<tag k="ssr:type" v="adressenavn" />
	</node>
	<node id="-635272" lat="64.142753164" lon="11.2202700616">
		<tag k="name" v="Eldkleiva" />
		<tag k="ssr:date" v="2019-12-27" />
		<tag k="ssr:gruppe" v="veg" />
		<tag k="ssr:hovedgruppe" v="infrastruktur" />
		<tag k="ssr:stedsnr" v="924746" />
		<tag k="ssr:type" v="adressetilleggsnavn" />
	</node>
	<node id="-635722" lat="64.445438698" lon="11.3226735969">
		<tag k="name" v="Skjerpøya" />
		<tag k="ssr:date" v="2019-12-27" />
		<tag k="ssr:gruppe" v="veg" />
		<tag k="ssr:hovedgruppe" v="infrastruktur" />
		<tag k="ssr:stedsnr" v="1036643" />
		<tag k="ssr:type" v="adressenavn" />
	</node>
	<node id="-635721" lat="64.4136383779" lon="11.2438514789">
		<tag k="name" v="Hemnafjellet" />
		<tag k="ssr:date" v="2019-12-27" />
		<tag k="ssr:gruppe" v="veg" />
		<tag k="ssr:hovedgruppe" v="infrastruktur" />
		<tag k="ssr:stedsnr" v="1036642" />
		<tag k="ssr:type" v="adressenavn" />
	</node>
	<node id="-635720" lat="64.4273589945" lon="11.0347026003">
		<tag k="name" v="Gårdsetervatnet" />
		<tag k="ssr:date" v="2019-12-27" />
		<tag k="ssr:gruppe" v="veg" />
		<tag k="ssr:hovedgruppe" v="infrastruktur" />
		<tag k="ssr:stedsnr" v="1036641" />
		<tag k="ssr:type" v="adressenavn" />
	</node>
	<node id="-635700" lat="64.6076676418" lon="11.7244464375">
		<tag k="name" v="Gravvatnet" />
		<tag k="ssr:date" v="2019-12-27" />
		<tag k="ssr:gruppe" v="veg" />
		<tag k="ssr:hovedgruppe" v="infrastruktur" />
		<tag k="ssr:stedsnr" v="1022529" />
		<tag k="ssr:type" v="adressenavn" />
	</node>
	<node id="-635717" lat="64.4354239096" lon="11.0743199821">
		<tag k="name" v="Tøttdalssetran" />
		<tag k="ssr:date" v="2019-12-27" />
		<tag k="ssr:gruppe" v="veg" />
		<tag k="ssr:hovedgruppe" v="infrastruktur" />
		<tag k="ssr:stedsnr" v="1036638" />
		<tag k="ssr:type" v="adressenavn" />
	</node>
	<node id="-635719" lat="64.4568107155" lon="11.2789944518">
		<tag k="name" v="Sundsøya" />
		<tag k="ssr:date" v="2019-12-27" />
		<tag k="ssr:gruppe" v="veg" />
		<tag k="ssr:hovedgruppe" v="infrastruktur" />
		<tag k="ssr:stedsnr" v="1036640" />
		<tag k="ssr:type" v="adressenavn" />
	</node>
	<node id="-635302" lat="64.6705361068" lon="11.0572722234">
		<tag k="name" v="Flotra" />
		<tag k="ssr:date" v="2019-12-27" />
		<tag k="ssr:gruppe" v="navigasjon" />
		<tag k="ssr:hovedgruppe" v="infrastruktur" />
		<tag k="ssr:stedsnr" v="924994" />
		<tag k="ssr:type" v="fyrlykt" />
	</node>
	<node id="-638371" lat="64.4808933153" lon="11.3106665584">
		<tag k="name" v="Broemsneset" />
		<tag k="ssr:date" v="2019-12-27" />
		<tag k="ssr:gruppe" v="navigasjon" />
		<tag k="ssr:hovedgruppe" v="infrastruktur" />
		<tag k="ssr:stedsnr" v="741047" />
		<tag k="ssr:type" v="fyrlykt" />
	</node>
	<node id="-639392" lat="69.6388889725" lon="30.5666644427">
		<tag k="fixme" v="multiple name tags, choose one and add the other to alt_name" />
		<tag k="loc_name:se" v="Norgga gonagasriika" />
		<tag k="loc_name:sma" v="Nöörjen gånkarïjhke" />
		<tag k="loc_name:smj" v="Vuona gånågisrijkka" />
		<tag k="name" v="Noreg;Norge" />
		<tag k="name:en" v="Norway" />
		<tag k="name:no" v="Noreg;Norge" />
		<tag k="ssr:date" v="2020-06-04" />
		<tag k="ssr:gruppe" v="administrativeIndelinger" />
		<tag k="ssr:hovedgruppe" v="offentligAdministrasjon" />
		<tag k="ssr:stedsnr" v="26330" />
		<tag k="ssr:type" v="nasjon" />
	</node>
	<node id="-639390" lat="64.7665230803" lon="11.6306205872">
		<tag k="name" v="Trolldalsvegen" />
		<tag k="ssr:date" v="2020-05-25" />
		<tag k="ssr:gruppe" v="veg" />
		<tag k="ssr:hovedgruppe" v="infrastruktur" />
		<tag k="ssr:stedsnr" v="1077027" />
		<tag k="ssr:type" v="adressenavn" />
	</node>
	<node id="-639389" lat="64.4763766341" lon="11.5737932751">
		<tag k="name" v="Hevlanbakkan" />
		<tag k="ssr:date" v="2020-03-02" />
		<tag k="ssr:gruppe" v="veg" />
		<tag k="ssr:hovedgruppe" v="infrastruktur" />
		<tag k="ssr:stedsnr" v="1075748" />
		<tag k="ssr:type" v="adressenavn" />
	</node>
	<node id="-639388" lat="64.4766232264" lon="11.5767378022">
		<tag k="name" v="Urdamovegen" />
		<tag k="ssr:date" v="2020-03-02" />
		<tag k="ssr:gruppe" v="veg" />
		<tag k="ssr:hovedgruppe" v="infrastruktur" />
		<tag k="ssr:stedsnr" v="1075747" />
		<tag k="ssr:type" v="adressenavn" />
	</node>
	<node id="-639383" lat="64.2624625929" lon="11.2377869293">
		<tag k="name" v="Kringen" />
		<tag k="ssr:date" v="2019-12-27" />
		<tag k="ssr:gruppe" v="veg" />
		<tag k="ssr:hovedgruppe" v="infrastruktur" />
		<tag k="ssr:stedsnr" v="1036713" />
		<tag k="ssr:type" v="adressenavn" />
	</node>
	<node id="-639382" lat="64.27793027" lon="11.2542457313">
		<tag k="name" v="Burstjønna" />
		<tag k="ssr:date" v="2019-12-27" />
		<tag k="ssr:gruppe" v="veg" />
		<tag k="ssr:hovedgruppe" v="infrastruktur" />
		<tag k="ssr:stedsnr" v="1036712" />
		<tag k="ssr:type" v="adressenavn" />
	</node>
	<node id="-639381" lat="64.2423582852" lon="10.9477131955">
		<tag k="name" v="Meungsetran" />
		<tag k="ssr:date" v="2019-12-27" />
		<tag k="ssr:gruppe" v="veg" />
		<tag k="ssr:hovedgruppe" v="infrastruktur" />
		<tag k="ssr:stedsnr" v="1036711" />
		<tag k="ssr:type" v="adressenavn" />
	</node>
	<node id="-639380" lat="64.1565006348" lon="11.0728395649">
		<tag k="name" v="Holvasslisetran" />
		<tag k="ssr:date" v="2019-12-27" />
		<tag k="ssr:gruppe" v="veg" />
		<tag k="ssr:hovedgruppe" v="infrastruktur" />
		<tag k="ssr:stedsnr" v="1036710" />
		<tag k="ssr:type" v="adressenavn" />
	</node>
	<node id="-639379" lat="64.1442716254" lon="11.1216193553">
		<tag k="name" v="Settersetran" />
		<tag k="ssr:date" v="2019-12-27" />
		<tag k="ssr:gruppe" v="veg" />
		<tag k="ssr:hovedgruppe" v="infrastruktur" />
		<tag k="ssr:stedsnr" v="1036709" />
		<tag k="ssr:type" v="adressenavn" />
	</node>
	<node id="-639378" lat="64.1690213662" lon="10.8685012111">
		<tag k="name" v="Finnvollen" />
		<tag k="ssr:date" v="2019-12-27" />
		<tag k="ssr:gruppe" v="veg" />
		<tag k="ssr:hovedgruppe" v="infrastruktur" />
		<tag k="ssr:stedsnr" v="1036708" />
		<tag k="ssr:type" v="adressenavn" />
	</node>
	<node id="-639377" lat="64.1322887651" lon="10.8265320284">
		<tag k="name" v="Stornesvatnet" />
		<tag k="ssr:date" v="2019-12-27" />
		<tag k="ssr:gruppe" v="veg" />
		<tag k="ssr:hovedgruppe" v="infrastruktur" />
		<tag k="ssr:stedsnr" v="1036707" />
		<tag k="ssr:type" v="adressenavn" />
	</node>
	<node id="-639376" lat="64.1955423891" lon="11.0049358074">
		<tag k="name" v="Trollbotn" />
		<tag k="ssr:date" v="2019-12-27" />
		<tag k="ssr:gruppe" v="veg" />
		<tag k="ssr:hovedgruppe" v="infrastruktur" />
		<tag k="ssr:stedsnr" v="1036706" />
		<tag k="ssr:type" v="adressenavn" />
	</node>
	<node id="-639375" lat="64.1895963207" lon="10.9954266761">
		<tag k="name" v="Finnvollvatnet" />
		<tag k="ssr:date" v="2019-12-27" />
		<tag k="ssr:gruppe" v="veg" />
		<tag k="ssr:hovedgruppe" v="infrastruktur" />
		<tag k="ssr:stedsnr" v="1036705" />
		<tag k="ssr:type" v="adressenavn" />
	</node>
	<node id="-639374" lat="64.2419154389" lon="11.0826277099">
		<tag k="name" v="Øyensholmen" />
		<tag k="ssr:date" v="2019-12-27" />
		<tag k="ssr:gruppe" v="veg" />
		<tag k="ssr:hovedgruppe" v="infrastruktur" />
		<tag k="ssr:stedsnr" v="1036704" />
		<tag k="ssr:type" v="adressenavn" />
	</node>
	<node id="-639373" lat="64.2061985174" lon="11.0811302964">
		<tag k="name" v="Heggdalslisetran" />
		<tag k="ssr:date" v="2019-12-27" />
		<tag k="ssr:gruppe" v="veg" />
		<tag k="ssr:hovedgruppe" v="infrastruktur" />
		<tag k="ssr:stedsnr" v="1036703" />
		<tag k="ssr:type" v="adressenavn" />
	</node>
	<node id="-639372" lat="64.2374752667" lon="11.0139030883">
		<tag k="name" v="Storblåvatnet" />
		<tag k="ssr:date" v="2019-12-27" />
		<tag k="ssr:gruppe" v="veg" />
		<tag k="ssr:hovedgruppe" v="infrastruktur" />
		<tag k="ssr:stedsnr" v="1036702" />
		<tag k="ssr:type" v="adressenavn" />
	</node>
	<node id="-639371" lat="64.2577823038" lon="11.0632300385">
		<tag k="name" v="Granmyrhaugen" />
		<tag k="ssr:date" v="2019-12-27" />
		<tag k="ssr:gruppe" v="veg" />
		<tag k="ssr:hovedgruppe" v="infrastruktur" />
		<tag k="ssr:stedsnr" v="1036701" />
		<tag k="ssr:type" v="adressenavn" />
	</node>
	<node id="-639370" lat="64.2378462971" lon="11.0530414387">
		<tag k="name" v="Øyungen" />
		<tag k="ssr:date" v="2019-12-27" />
		<tag k="ssr:gruppe" v="veg" />
		<tag k="ssr:hovedgruppe" v="infrastruktur" />
		<tag k="ssr:stedsnr" v="1036700" />
		<tag k="ssr:type" v="adressenavn" />
	</node>
	<node id="-639369" lat="64.2418299491" lon="11.045002241">
		<tag k="name" v="Lissblåvatnet" />
		<tag k="ssr:date" v="2019-12-27" />
		<tag k="ssr:gruppe" v="veg" />
		<tag k="ssr:hovedgruppe" v="infrastruktur" />
		<tag k="ssr:stedsnr" v="1036699" />
		<tag k="ssr:type" v="adressenavn" />
	</node>
	<node id="-639368" lat="64.2971667238" lon="11.0090889959">
		<tag k="name" v="Tverrlisetran" />
		<tag k="ssr:date" v="2019-12-27" />
		<tag k="ssr:gruppe" v="veg" />
		<tag k="ssr:hovedgruppe" v="infrastruktur" />
		<tag k="ssr:stedsnr" v="1036698" />
		<tag k="ssr:type" v="adressenavn" />
	</node>
	<node id="-639367" lat="64.2760810701" lon="10.9766096598">
		<tag k="name" v="Bjørfarvatnet" />
		<tag k="ssr:date" v="2019-12-27" />
		<tag k="ssr:gruppe" v="veg" />
		<tag k="ssr:hovedgruppe" v="infrastruktur" />
		<tag k="ssr:stedsnr" v="1036697" />
		<tag k="ssr:type" v="adressenavn" />
	</node>
	<node id="-639366" lat="64.3040278777" lon="11.1473158878">
		<tag k="name" v="Mølnåvatna" />
		<tag k="ssr:date" v="2019-12-27" />
		<tag k="ssr:gruppe" v="veg" />
		<tag k="ssr:hovedgruppe" v="infrastruktur" />
		<tag k="ssr:stedsnr" v="1036696" />
		<tag k="ssr:type" v="adressenavn" />
	</node>
	<node id="-639365" lat="64.2877739496" lon="11.0484990074">
		<tag k="name" v="Sørsandvatnet" />
		<tag k="ssr:date" v="2019-12-27" />
		<tag k="ssr:gruppe" v="veg" />
		<tag k="ssr:hovedgruppe" v="infrastruktur" />
		<tag k="ssr:stedsnr" v="1036695" />
		<tag k="ssr:type" v="adressenavn" />
	</node>
	<node id="-639364" lat="64.536417696" lon="11.324387352">
		<tag k="name" v="Gårdsvika" />
		<tag k="ssr:date" v="2019-12-27" />
		<tag k="ssr:gruppe" v="veg" />
		<tag k="ssr:hovedgruppe" v="infrastruktur" />
		<tag k="ssr:stedsnr" v="1023479" />
		<tag k="ssr:type" v="adressenavn" />
	</node>
	<node id="-639363" lat="64.5269295238" lon="11.4468004446">
		<tag k="name" v="Surviksundet" />
		<tag k="ssr:date" v="2019-12-27" />
		<tag k="ssr:gruppe" v="veg" />
		<tag k="ssr:hovedgruppe" v="infrastruktur" />
		<tag k="ssr:stedsnr" v="1023474" />
		<tag k="ssr:type" v="adressenavn" />
	</node>
	<node id="-639362" lat="64.6027287989" lon="11.5481463192">
		<tag k="name" v="Vestgøten" />
		<tag k="ssr:date" v="2019-12-27" />
		<tag k="ssr:gruppe" v="veg" />
		<tag k="ssr:hovedgruppe" v="infrastruktur" />
		<tag k="ssr:stedsnr" v="1023471" />
		<tag k="ssr:type" v="adressenavn" />
	</node>
	<node id="-639361" lat="64.3952010419" lon="11.3563605948">
		<tag k="name" v="Kjølsøya" />
		<tag k="ssr:date" v="2019-12-27" />
		<tag k="ssr:gruppe" v="veg" />
		<tag k="ssr:hovedgruppe" v="infrastruktur" />
		<tag k="ssr:stedsnr" v="1023467" />
		<tag k="ssr:type" v="adressenavn" />
	</node>
	<node id="-639360" lat="64.5428553389" lon="11.488742987">
		<tag k="name" v="Sauvika" />
		<tag k="ssr:date" v="2019-12-27" />
		<tag k="ssr:gruppe" v="veg" />
		<tag k="ssr:hovedgruppe" v="infrastruktur" />
		<tag k="ssr:stedsnr" v="1023464" />
		<tag k="ssr:type" v="adressenavn" />
	</node>
	<node id="-639359" lat="64.2932727942" lon="11.6670265855">
		<tag k="name" v="Høgvatnet" />
		<tag k="ssr:date" v="2019-12-27" />
		<tag k="ssr:gruppe" v="veg" />
		<tag k="ssr:hovedgruppe" v="infrastruktur" />
		<tag k="ssr:stedsnr" v="1023460" />
		<tag k="ssr:type" v="adressenavn" />
	</node>
	<node id="-639358" lat="64.4691177688" lon="11.5053842383">
		<tag k="name" v="Steinsbekkgata" />
		<tag k="ssr:date" v="2019-12-27" />
		<tag k="ssr:gruppe" v="veg" />
		<tag k="ssr:hovedgruppe" v="infrastruktur" />
		<tag k="ssr:stedsnr" v="1023437" />
		<tag k="ssr:type" v="adressenavn" />
	</node>
	<node id="-639357" lat="64.5635309995" lon="11.5211127741">
		<tag k="name" v="Kjettøya" />
		<tag k="ssr:date" v="2019-12-27" />
		<tag k="ssr:gruppe" v="veg" />
		<tag k="ssr:hovedgruppe" v="infrastruktur" />
		<tag k="ssr:stedsnr" v="1022513" />
		<tag k="ssr:type" v="adressenavn" />
	</node>
	<node id="-639356" lat="64.5580329162" lon="11.5349036877">
		<tag k="name" v="Kjerstivika" />
		<tag k="ssr:date" v="2019-12-27" />
		<tag k="ssr:gruppe" v="veg" />
		<tag k="ssr:hovedgruppe" v="infrastruktur" />
		<tag k="ssr:stedsnr" v="1022509" />
		<tag k="ssr:type" v="adressenavn" />
	</node>
	<node id="-639355" lat="64.5513691709" lon="11.5045246073">
		<tag k="name" v="Haukøya" />
		<tag k="ssr:date" v="2019-12-27" />
		<tag k="ssr:gruppe" v="veg" />
		<tag k="ssr:hovedgruppe" v="infrastruktur" />
		<tag k="ssr:stedsnr" v="1022506" />
		<tag k="ssr:type" v="adressenavn" />
	</node>
	<node id="-639354" lat="64.5740979803" lon="11.4140073653">
		<tag k="name" v="Svanavatnet" />
		<tag k="ssr:date" v="2019-12-27" />
		<tag k="ssr:gruppe" v="veg" />
		<tag k="ssr:hovedgruppe" v="infrastruktur" />
		<tag k="ssr:stedsnr" v="1022503" />
		<tag k="ssr:type" v="adressenavn" />
	</node>
	<node id="-639353" lat="64.4843768053" lon="11.5988311809">
		<tag k="name" v="Ålbergvatnet" />
		<tag k="ssr:date" v="2019-12-27" />
		<tag k="ssr:gruppe" v="veg" />
		<tag k="ssr:hovedgruppe" v="infrastruktur" />
		<tag k="ssr:stedsnr" v="1022501" />
		<tag k="ssr:type" v="adressenavn" />
	</node>
	<node id="-639352" lat="64.5567717187" lon="11.3629041774">
		<tag k="name" v="Langnesodden" />
		<tag k="ssr:date" v="2019-12-27" />
		<tag k="ssr:gruppe" v="veg" />
		<tag k="ssr:hovedgruppe" v="infrastruktur" />
		<tag k="ssr:stedsnr" v="1022500" />
		<tag k="ssr:type" v="adressenavn" />
	</node>
	<node id="-639351" lat="64.4374769997" lon="11.4136285408">
		<tag k="name" v="Selnes" />
		<tag k="ssr:date" v="2019-12-27" />
		<tag k="ssr:gruppe" v="veg" />
		<tag k="ssr:hovedgruppe" v="infrastruktur" />
		<tag k="ssr:stedsnr" v="1022498" />
		<tag k="ssr:type" v="adressenavn" />
	</node>
	<node id="-639350" lat="64.4968091545" lon="11.5510220219">
		<tag k="name" v="Fuglmyra" />
		<tag k="ssr:date" v="2019-12-27" />
		<tag k="ssr:gruppe" v="veg" />
		<tag k="ssr:hovedgruppe" v="infrastruktur" />
		<tag k="ssr:stedsnr" v="1022495" />
		<tag k="ssr:type" v="adressenavn" />
	</node>
	<node id="-639349" lat="64.4266588922" lon="11.3805611949">
		<tag k="name" v="Straumsneset" />
		<tag k="ssr:date" v="2019-12-27" />
		<tag k="ssr:gruppe" v="veg" />
		<tag k="ssr:hovedgruppe" v="infrastruktur" />
		<tag k="ssr:stedsnr" v="1022493" />
		<tag k="ssr:type" v="adressenavn" />
	</node>
	<node id="-639348" lat="64.4369530359" lon="11.4382915717">
		<tag k="name" v="Selnesvikan" />
		<tag k="ssr:date" v="2019-12-27" />
		<tag k="ssr:gruppe" v="veg" />
		<tag k="ssr:hovedgruppe" v="infrastruktur" />
		<tag k="ssr:stedsnr" v="1022491" />
		<tag k="ssr:type" v="adressenavn" />
	</node>
	<node id="-639347" lat="64.3695973634" lon="11.3151944871">
		<tag k="name" v="Løgnin" />
		<tag k="ssr:date" v="2019-12-27" />
		<tag k="ssr:gruppe" v="veg" />
		<tag k="ssr:hovedgruppe" v="infrastruktur" />
		<tag k="ssr:stedsnr" v="1022490" />
		<tag k="ssr:type" v="adressenavn" />
	</node>
	<node id="-639346" lat="64.3509543791" lon="11.406868836">
		<tag k="name" v="Flakktjønna" />
		<tag k="ssr:date" v="2019-12-27" />
		<tag k="ssr:gruppe" v="veg" />
		<tag k="ssr:hovedgruppe" v="infrastruktur" />
		<tag k="ssr:stedsnr" v="1022489" />
		<tag k="ssr:type" v="adressenavn" />
	</node>
	<node id="-639345" lat="64.322090373" lon="11.5859011917">
		<tag k="name" v="Gravdalssetran" />
		<tag k="ssr:date" v="2019-12-27" />
		<tag k="ssr:gruppe" v="veg" />
		<tag k="ssr:hovedgruppe" v="infrastruktur" />
		<tag k="ssr:stedsnr" v="1022487" />
		<tag k="ssr:type" v="adressenavn" />
	</node>
	<node id="-639344" lat="64.2795563758" lon="11.4752177723">
		<tag k="name" v="Åltjønna" />
		<tag k="ssr:date" v="2019-12-27" />
		<tag k="ssr:gruppe" v="veg" />
		<tag k="ssr:hovedgruppe" v="infrastruktur" />
		<tag k="ssr:stedsnr" v="1022486" />
		<tag k="ssr:type" v="adressenavn" />
	</node>
	<node id="-639343" lat="64.3458681611" lon="11.6176607936">
		<tag k="name" v="Ramstadsetran" />
		<tag k="ssr:date" v="2019-12-27" />
		<tag k="ssr:gruppe" v="veg" />
		<tag k="ssr:hovedgruppe" v="infrastruktur" />
		<tag k="ssr:stedsnr" v="1022485" />
		<tag k="ssr:type" v="adressenavn" />
	</node>
	<node id="-639342" lat="64.2566320685" lon="11.6677031501">
		<tag k="name" v="Spøtta" />
		<tag k="ssr:date" v="2019-12-27" />
		<tag k="ssr:gruppe" v="veg" />
		<tag k="ssr:hovedgruppe" v="infrastruktur" />
		<tag k="ssr:stedsnr" v="1022481" />
		<tag k="ssr:type" v="adressenavn" />
	</node>
	<node id="-639341" lat="64.3046213991" lon="11.3558036219">
		<tag k="name" v="Fjalseterdalen" />
		<tag k="ssr:date" v="2019-12-27" />
		<tag k="ssr:gruppe" v="veg" />
		<tag k="ssr:hovedgruppe" v="infrastruktur" />
		<tag k="ssr:stedsnr" v="1022478" />
		<tag k="ssr:type" v="adressenavn" />
	</node>
	<node id="-639340" lat="64.3002011328" lon="11.3886088168">
		<tag k="name" v="Vomma" />
		<tag k="ssr:date" v="2019-12-27" />
		<tag k="ssr:gruppe" v="veg" />
		<tag k="ssr:hovedgruppe" v="infrastruktur" />
		<tag k="ssr:stedsnr" v="1022474" />
		<tag k="ssr:type" v="adressenavn" />
	</node>
	<node id="-639339" lat="64.3260335357" lon="11.6426035452">
		<tag k="name" v="Solemsvatnet" />
		<tag k="ssr:date" v="2019-12-27" />
		<tag k="ssr:gruppe" v="veg" />
		<tag k="ssr:hovedgruppe" v="infrastruktur" />
		<tag k="ssr:stedsnr" v="1022471" />
		<tag k="ssr:type" v="adressenavn" />
	</node>
	<node id="-639338" lat="64.3628453216" lon="11.6107777341">
		<tag k="name" v="Spjøtvatnet" />
		<tag k="ssr:date" v="2019-12-27" />
		<tag k="ssr:gruppe" v="veg" />
		<tag k="ssr:hovedgruppe" v="infrastruktur" />
		<tag k="ssr:stedsnr" v="1022466" />
		<tag k="ssr:type" v="adressenavn" />
	</node>
	<node id="-639337" lat="64.3881707873" lon="11.5511426857">
		<tag k="name" v="Fjellsettjønnin" />
		<tag k="ssr:date" v="2019-12-27" />
		<tag k="ssr:gruppe" v="veg" />
		<tag k="ssr:hovedgruppe" v="infrastruktur" />
		<tag k="ssr:stedsnr" v="1022463" />
		<tag k="ssr:type" v="adressenavn" />
	</node>
	<node id="-639336" lat="64.4063304529" lon="11.559399558">
		<tag k="name" v="Barstadvatnet" />
		<tag k="ssr:date" v="2019-12-27" />
		<tag k="ssr:gruppe" v="veg" />
		<tag k="ssr:hovedgruppe" v="infrastruktur" />
		<tag k="ssr:stedsnr" v="1022460" />
		<tag k="ssr:type" v="adressenavn" />
	</node>
	<node id="-639335" lat="64.4067088152" lon="11.6159462866">
		<tag k="name" v="Krokvatnet" />
		<tag k="ssr:date" v="2019-12-27" />
		<tag k="ssr:gruppe" v="veg" />
		<tag k="ssr:hovedgruppe" v="infrastruktur" />
		<tag k="ssr:stedsnr" v="1022458" />
		<tag k="ssr:type" v="adressenavn" />
	</node>
	<node id="-639334" lat="64.4277544682" lon="11.562499238">
		<tag k="name" v="Spillumsvatnet" />
		<tag k="ssr:date" v="2019-12-27" />
		<tag k="ssr:gruppe" v="veg" />
		<tag k="ssr:hovedgruppe" v="infrastruktur" />
		<tag k="ssr:stedsnr" v="1022453" />
		<tag k="ssr:type" v="adressenavn" />
	</node>
	<node id="-635236" lat="64.6856750007" lon="11.4598944474">
		<tag k="name" v="Kolhusvegen" />
		<tag k="ssr:date" v="2019-12-27" />
		<tag k="ssr:gruppe" v="veg" />
		<tag k="ssr:hovedgruppe" v="infrastruktur" />
		<tag k="ssr:stedsnr" v="924309" />
		<tag k="ssr:type" v="vegstrekning" />
	</node>
	<node id="-635707" lat="64.2322417062" lon="11.006716414">
		<tag k="name" v="Lissøyungen" />
		<tag k="ssr:date" v="2019-12-27" />
		<tag k="ssr:gruppe" v="veg" />
		<tag k="ssr:hovedgruppe" v="infrastruktur" />
		<tag k="ssr:stedsnr" v="1036716" />
		<tag k="ssr:type" v="adressenavn" />
	</node>
	<node id="-639328" lat="64.4801363274" lon="11.1838887524">
		<tag k="name" v="Bekkavika" />
		<tag k="ssr:date" v="2019-12-27" />
		<tag k="ssr:gruppe" v="veg" />
		<tag k="ssr:hovedgruppe" v="infrastruktur" />
		<tag k="ssr:stedsnr" v="986902" />
		<tag k="ssr:type" v="adressenavn" />
	</node>
	<node id="-639327" lat="64.3738852419" lon="11.1961839506">
		<tag k="name" v="Altvatnet" />
		<tag k="ssr:date" v="2019-12-27" />
		<tag k="ssr:gruppe" v="veg" />
		<tag k="ssr:hovedgruppe" v="infrastruktur" />
		<tag k="ssr:stedsnr" v="986901" />
		<tag k="ssr:type" v="adressenavn" />
	</node>
	<node id="-639326" lat="64.316955074" lon="11.2712805983">
		<tag k="name" v="Rødhammarvatnet" />
		<tag k="ssr:date" v="2019-12-27" />
		<tag k="ssr:gruppe" v="veg" />
		<tag k="ssr:hovedgruppe" v="infrastruktur" />
		<tag k="ssr:stedsnr" v="986900" />
		<tag k="ssr:type" v="adressenavn" />
	</node>
	<node id="-639325" lat="64.1653964424" lon="11.2170067247">
		<tag k="name" v="Eldfjellet" />
		<tag k="ssr:date" v="2019-12-27" />
		<tag k="ssr:gruppe" v="veg" />
		<tag k="ssr:hovedgruppe" v="infrastruktur" />
		<tag k="ssr:stedsnr" v="986899" />
		<tag k="ssr:type" v="adressenavn" />
	</node>
	<node id="-639324" lat="64.1975226919" lon="11.2105668357">
		<tag k="name" v="Skjerpmovegen" />
		<tag k="ssr:date" v="2019-12-27" />
		<tag k="ssr:gruppe" v="veg" />
		<tag k="ssr:hovedgruppe" v="infrastruktur" />
		<tag k="ssr:stedsnr" v="986898" />
		<tag k="ssr:type" v="adressenavn" />
	</node>
	<node id="-639323" lat="64.2529829989" lon="11.1764469746">
		<tag k="name" v="Fosslivegen" />
		<tag k="ssr:date" v="2019-12-27" />
		<tag k="ssr:gruppe" v="veg" />
		<tag k="ssr:hovedgruppe" v="infrastruktur" />
		<tag k="ssr:stedsnr" v="986897" />
		<tag k="ssr:type" v="adressenavn" />
	</node>
	<node id="-639321" lat="64.6205698567" lon="11.1514887617">
		<tag k="name" v="Olavika hytteområde" />
		<tag k="ssr:date" v="2019-12-27" />
		<tag k="ssr:gruppe" v="veg" />
		<tag k="ssr:hovedgruppe" v="infrastruktur" />
		<tag k="ssr:stedsnr" v="984227" />
		<tag k="ssr:type" v="adressenavn" />
	</node>
	<node id="-639320" lat="64.5012096221" lon="11.290107463">
		<tag k="name" v="Nedre Sandvika hytteomr" />
		<tag k="ssr:date" v="2019-12-27" />
		<tag k="ssr:gruppe" v="veg" />
		<tag k="ssr:hovedgruppe" v="infrastruktur" />
		<tag k="ssr:stedsnr" v="984226" />
		<tag k="ssr:type" v="adressenavn" />
	</node>
	<node id="-639319" lat="64.6258992527" lon="11.1478703161">
		<tag k="name" v="Lyktodden hytteområde" />
		<tag k="ssr:date" v="2019-12-27" />
		<tag k="ssr:gruppe" v="veg" />
		<tag k="ssr:hovedgruppe" v="infrastruktur" />
		<tag k="ssr:stedsnr" v="984225" />
		<tag k="ssr:type" v="adressenavn" />
	</node>
	<node id="-639318" lat="64.4614125609" lon="11.2244200254">
		<tag k="name" v="Leirvika hytteområde" />
		<tag k="ssr:date" v="2019-12-27" />
		<tag k="ssr:gruppe" v="veg" />
		<tag k="ssr:hovedgruppe" v="infrastruktur" />
		<tag k="ssr:stedsnr" v="984224" />
		<tag k="ssr:type" v="adressenavn" />
	</node>
	<node id="-639317" lat="64.6218437571" lon="11.1519121127">
		<tag k="name" v="Vestre Finnanger hytteområde" />
		<tag k="ssr:date" v="2019-12-27" />
		<tag k="ssr:gruppe" v="veg" />
		<tag k="ssr:hovedgruppe" v="infrastruktur" />
		<tag k="ssr:stedsnr" v="984223" />
		<tag k="ssr:type" v="adressenavn" />
	</node>
	<node id="-639316" lat="64.5170070426" lon="11.4914320313">
		<tag k="name" v="Ramsvika hytteområde" />
		<tag k="ssr:date" v="2019-12-27" />
		<tag k="ssr:gruppe" v="veg" />
		<tag k="ssr:hovedgruppe" v="infrastruktur" />
		<tag k="ssr:stedsnr" v="984219" />
		<tag k="ssr:type" v="adressenavn" />
	</node>
	<node id="-639315" lat="64.3989204119" lon="11.356498863">
		<tag k="name" v="Strandli hytteområde" />
		<tag k="ssr:date" v="2019-12-27" />
		<tag k="ssr:gruppe" v="veg" />
		<tag k="ssr:hovedgruppe" v="infrastruktur" />
		<tag k="ssr:stedsnr" v="984218" />
		<tag k="ssr:type" v="adressenavn" />
	</node>
	<node id="-639314" lat="64.5912656765" lon="11.3807528445">
		<tag k="name" v="Plassen fritidsområde" />
		<tag k="ssr:date" v="2019-12-27" />
		<tag k="ssr:gruppe" v="veg" />
		<tag k="ssr:hovedgruppe" v="infrastruktur" />
		<tag k="ssr:stedsnr" v="984217" />
		<tag k="ssr:type" v="adressenavn" />
	</node>
	<node id="-639313" lat="64.5776727783" lon="11.6110645567">
		<tag k="name" v="Rypneset Hytteområde" />
		<tag k="ssr:date" v="2019-12-27" />
		<tag k="ssr:gruppe" v="veg" />
		<tag k="ssr:hovedgruppe" v="infrastruktur" />
		<tag k="ssr:stedsnr" v="984216" />
		<tag k="ssr:type" v="adressenavn" />
	</node>
	<node id="-639312" lat="64.4577671397" lon="11.3903707938">
		<tag k="name" v="Brannøya hytteområde" />
		<tag k="ssr:date" v="2019-12-27" />
		<tag k="ssr:gruppe" v="veg" />
		<tag k="ssr:hovedgruppe" v="infrastruktur" />
		<tag k="ssr:stedsnr" v="984215" />
		<tag k="ssr:type" v="adressenavn" />
	</node>
	<node id="-639311" lat="64.4237303355" lon="11.1889049785">
		<tag k="name" v="Aunvegen" />
		<tag k="ssr:date" v="2019-12-27" />
		<tag k="ssr:gruppe" v="veg" />
		<tag k="ssr:hovedgruppe" v="infrastruktur" />
		<tag k="ssr:stedsnr" v="984270" />
		<tag k="ssr:type" v="adressenavn" />
	</node>
	<node id="-635726" lat="64.3097892856" lon="11.0607725796">
		<tag k="name" v="Midtsandvatnet" />
		<tag k="ssr:date" v="2019-12-27" />
		<tag k="ssr:gruppe" v="veg" />
		<tag k="ssr:hovedgruppe" v="infrastruktur" />
		<tag k="ssr:stedsnr" v="1036648" />
		<tag k="ssr:type" v="adressenavn" />
	</node>
	<node id="-635725" lat="64.336224116" lon="11.1512927922">
		<tag k="name" v="Kallhammarvatna" />
		<tag k="ssr:date" v="2019-12-27" />
		<tag k="ssr:gruppe" v="veg" />
		<tag k="ssr:hovedgruppe" v="infrastruktur" />
		<tag k="ssr:stedsnr" v="1036647" />
		<tag k="ssr:type" v="adressenavn" />
	</node>
	<node id="-639308" lat="64.2421255215" lon="11.3490808459">
		<tag k="name" v="Trebostad" />
		<tag k="ssr:date" v="2019-12-27" />
		<tag k="ssr:gruppe" v="veg" />
		<tag k="ssr:hovedgruppe" v="infrastruktur" />
		<tag k="ssr:stedsnr" v="981295" />
		<tag k="ssr:type" v="adressetilleggsnavn" />
	</node>
	<node id="-639307" lat="64.2519937132" lon="11.3301772003">
		<tag k="name" v="Lingsbrenna" />
		<tag k="ssr:date" v="2019-12-27" />
		<tag k="ssr:gruppe" v="veg" />
		<tag k="ssr:hovedgruppe" v="infrastruktur" />
		<tag k="ssr:stedsnr" v="981294" />
		<tag k="ssr:type" v="adressetilleggsnavn" />
	</node>
	<node id="-639306" lat="64.2042505626" lon="11.2350353014">
		<tag k="name" v="Åsen" />
		<tag k="ssr:date" v="2019-12-27" />
		<tag k="ssr:gruppe" v="veg" />
		<tag k="ssr:hovedgruppe" v="infrastruktur" />
		<tag k="ssr:stedsnr" v="981292" />
		<tag k="ssr:type" v="adressetilleggsnavn" />
	</node>
	<node id="-639305" lat="64.1945867249" lon="11.2610411789">
		<tag k="name" v="Hallåsmoen" />
		<tag k="ssr:date" v="2019-12-27" />
		<tag k="ssr:gruppe" v="veg" />
		<tag k="ssr:hovedgruppe" v="infrastruktur" />
		<tag k="ssr:stedsnr" v="981291" />
		<tag k="ssr:type" v="adressetilleggsnavn" />
	</node>
	<node id="-639304" lat="64.1954756844" lon="11.2532352547">
		<tag k="name" v="Helbostad" />
		<tag k="ssr:date" v="2019-12-27" />
		<tag k="ssr:gruppe" v="veg" />
		<tag k="ssr:hovedgruppe" v="infrastruktur" />
		<tag k="ssr:stedsnr" v="981290" />
		<tag k="ssr:type" v="adressetilleggsnavn" />
	</node>
	<node id="-639303" lat="64.1970136292" lon="11.2455414491">
		<tag k="name" v="Helbostad" />
		<tag k="ssr:date" v="2019-12-27" />
		<tag k="ssr:gruppe" v="veg" />
		<tag k="ssr:hovedgruppe" v="infrastruktur" />
		<tag k="ssr:stedsnr" v="981289" />
		<tag k="ssr:type" v="adressetilleggsnavn" />
	</node>
	<node id="-639302" lat="64.1968568286" lon="11.2517472445">
		<tag k="name" v="Helbostad" />
		<tag k="ssr:date" v="2019-12-27" />
		<tag k="ssr:gruppe" v="veg" />
		<tag k="ssr:hovedgruppe" v="infrastruktur" />
		<tag k="ssr:stedsnr" v="981288" />
		<tag k="ssr:type" v="adressetilleggsnavn" />
	</node>
	<node id="-639301" lat="64.2270950004" lon="11.2418759127">
		<tag k="name" v="Hundset" />
		<tag k="ssr:date" v="2019-12-27" />
		<tag k="ssr:gruppe" v="veg" />
		<tag k="ssr:hovedgruppe" v="infrastruktur" />
		<tag k="ssr:stedsnr" v="981287" />
		<tag k="ssr:type" v="adressetilleggsnavn" />
	</node>
	<node id="-639300" lat="64.244186336" lon="11.2488932518">
		<tag k="name" v="Dalheim" />
		<tag k="ssr:date" v="2019-12-27" />
		<tag k="ssr:gruppe" v="veg" />
		<tag k="ssr:hovedgruppe" v="infrastruktur" />
		<tag k="ssr:stedsnr" v="981286" />
		<tag k="ssr:type" v="adressetilleggsnavn" />
	</node>
	<node id="-639299" lat="64.2454577236" lon="11.2372170063">
		<tag k="name" v="Brørsbakken" />
		<tag k="ssr:date" v="2019-12-27" />
		<tag k="ssr:gruppe" v="veg" />
		<tag k="ssr:hovedgruppe" v="infrastruktur" />
		<tag k="ssr:stedsnr" v="981285" />
		<tag k="ssr:type" v="adressetilleggsnavn" />
	</node>
	<node id="-639298" lat="64.2414867251" lon="11.2392340946">
		<tag k="name" v="Brørs" />
		<tag k="ssr:date" v="2019-12-27" />
		<tag k="ssr:gruppe" v="veg" />
		<tag k="ssr:hovedgruppe" v="infrastruktur" />
		<tag k="ssr:stedsnr" v="981284" />
		<tag k="ssr:type" v="adressetilleggsnavn" />
	</node>
	<node id="-639297" lat="64.2546394455" lon="11.3232472917">
		<tag k="name" v="Moen" />
		<tag k="ssr:date" v="2019-12-27" />
		<tag k="ssr:gruppe" v="veg" />
		<tag k="ssr:hovedgruppe" v="infrastruktur" />
		<tag k="ssr:stedsnr" v="981282" />
		<tag k="ssr:type" v="adressetilleggsnavn" />
	</node>
	<node id="-639296" lat="64.2508074097" lon="11.2513905024">
		<tag k="name" v="Limo" />
		<tag k="ssr:date" v="2019-12-27" />
		<tag k="ssr:gruppe" v="veg" />
		<tag k="ssr:hovedgruppe" v="infrastruktur" />
		<tag k="ssr:stedsnr" v="981280" />
		<tag k="ssr:type" v="adressetilleggsnavn" />
	</node>
	<node id="-635711" lat="64.5071721031" lon="11.0399941589">
		<tag k="name" v="Nordvatnet" />
		<tag k="ssr:date" v="2019-12-27" />
		<tag k="ssr:gruppe" v="veg" />
		<tag k="ssr:hovedgruppe" v="infrastruktur" />
		<tag k="ssr:stedsnr" v="1036632" />
		<tag k="ssr:type" v="adressenavn" />
	</node>
	<node id="-635710" lat="64.2232303981" lon="10.937269335">
		<tag k="name" v="Lissbjørkvatnet" />
		<tag k="ssr:date" v="2019-12-27" />
		<tag k="ssr:gruppe" v="veg" />
		<tag k="ssr:hovedgruppe" v="infrastruktur" />
		<tag k="ssr:stedsnr" v="1036719" />
		<tag k="ssr:type" v="adressenavn" />
	</node>
	<node id="-635709" lat="64.2565437137" lon="10.9282264075">
		<tag k="name" v="Lissolvatnet" />
		<tag k="ssr:date" v="2019-12-27" />
		<tag k="ssr:gruppe" v="veg" />
		<tag k="ssr:hovedgruppe" v="infrastruktur" />
		<tag k="ssr:stedsnr" v="1036718" />
		<tag k="ssr:type" v="adressenavn" />
	</node>
	<node id="-639292" lat="64.1782620236" lon="11.2388823377">
		<tag k="name" v="Grøtmo" />
		<tag k="ssr:date" v="2019-12-27" />
		<tag k="ssr:gruppe" v="veg" />
		<tag k="ssr:hovedgruppe" v="infrastruktur" />
		<tag k="ssr:stedsnr" v="980857" />
		<tag k="ssr:type" v="adressetilleggsnavn" />
	</node>
	<node id="-639291" lat="64.1681795004" lon="11.2695763292">
		<tag k="name" v="Mork" />
		<tag k="ssr:date" v="2019-12-27" />
		<tag k="ssr:gruppe" v="veg" />
		<tag k="ssr:hovedgruppe" v="infrastruktur" />
		<tag k="ssr:stedsnr" v="980856" />
		<tag k="ssr:type" v="adressetilleggsnavn" />
	</node>
	<node id="-639290" lat="64.1648452779" lon="11.2774251176">
		<tag k="name" v="Nordtrøa" />
		<tag k="ssr:date" v="2019-12-27" />
		<tag k="ssr:gruppe" v="veg" />
		<tag k="ssr:hovedgruppe" v="infrastruktur" />
		<tag k="ssr:stedsnr" v="980854" />
		<tag k="ssr:type" v="adressetilleggsnavn" />
	</node>
	<node id="-639289" lat="64.2533773479" lon="11.1194640216">
		<tag k="name" v="Myrmoen" />
		<tag k="ssr:date" v="2019-12-27" />
		<tag k="ssr:gruppe" v="veg" />
		<tag k="ssr:hovedgruppe" v="infrastruktur" />
		<tag k="ssr:stedsnr" v="980193" />
		<tag k="ssr:type" v="adressetilleggsnavn" />
	</node>
	<node id="-639288" lat="64.2836426067" lon="11.1872644819">
		<tag k="name" v="Mastermelen" />
		<tag k="ssr:date" v="2019-12-27" />
		<tag k="ssr:gruppe" v="veg" />
		<tag k="ssr:hovedgruppe" v="infrastruktur" />
		<tag k="ssr:stedsnr" v="980190" />
		<tag k="ssr:type" v="adressetilleggsnavn" />
	</node>
	<node id="-639287" lat="64.1912734303" lon="11.2572571795">
		<tag k="name" v="Hallåsen" />
		<tag k="ssr:date" v="2019-12-27" />
		<tag k="ssr:gruppe" v="veg" />
		<tag k="ssr:hovedgruppe" v="infrastruktur" />
		<tag k="ssr:stedsnr" v="980189" />
		<tag k="ssr:type" v="adressetilleggsnavn" />
	</node>
	<node id="-639286" lat="64.5159717658" lon="11.4696418235">
		<tag k="name" v="Gåsneset" />
		<tag k="ssr:date" v="2019-12-27" />
		<tag k="ssr:gruppe" v="veg" />
		<tag k="ssr:hovedgruppe" v="infrastruktur" />
		<tag k="ssr:stedsnr" v="979076" />
		<tag k="ssr:type" v="adressetilleggsnavn" />
	</node>
	<node id="-639285" lat="64.4297757292" lon="11.4936905385">
		<tag k="name" v="Sævik" />
		<tag k="ssr:date" v="2019-12-27" />
		<tag k="ssr:gruppe" v="veg" />
		<tag k="ssr:hovedgruppe" v="infrastruktur" />
		<tag k="ssr:stedsnr" v="979075" />
		<tag k="ssr:type" v="adressetilleggsnavn" />
	</node>
	<node id="-639284" lat="64.4134742144" lon="11.4794063999">
		<tag k="name" v="Fossheim" />
		<tag k="ssr:date" v="2019-12-27" />
		<tag k="ssr:gruppe" v="veg" />
		<tag k="ssr:hovedgruppe" v="infrastruktur" />
		<tag k="ssr:stedsnr" v="979073" />
		<tag k="ssr:type" v="adressetilleggsnavn" />
	</node>
	<node id="-635713" lat="64.4986392417" lon="11.0413131029">
		<tag k="name" v="Grønlitjønna" />
		<tag k="ssr:date" v="2019-12-27" />
		<tag k="ssr:gruppe" v="veg" />
		<tag k="ssr:hovedgruppe" v="infrastruktur" />
		<tag k="ssr:stedsnr" v="1036634" />
		<tag k="ssr:type" v="adressenavn" />
	</node>
	<node id="-635698" lat="64.5941821928" lon="11.602962759">
		<tag k="name" v="Jektvika" />
		<tag k="ssr:date" v="2019-12-27" />
		<tag k="ssr:gruppe" v="veg" />
		<tag k="ssr:hovedgruppe" v="infrastruktur" />
		<tag k="ssr:stedsnr" v="1022527" />
		<tag k="ssr:type" v="adressenavn" />
	</node>
	<node id="-639281" lat="64.8096330543" lon="12.081466691">
		<tag k="name" v="Mjøsundvatnet" />
		<tag k="ssr:date" v="2019-12-27" />
		<tag k="ssr:gruppe" v="veg" />
		<tag k="ssr:hovedgruppe" v="infrastruktur" />
		<tag k="ssr:stedsnr" v="975652" />
		<tag k="ssr:type" v="adressenavn" />
	</node>
	<node id="-639280" lat="64.7098572813" lon="11.4100577204">
		<tag k="name" v="Ryneset" />
		<tag k="ssr:date" v="2019-12-27" />
		<tag k="ssr:gruppe" v="veg" />
		<tag k="ssr:hovedgruppe" v="infrastruktur" />
		<tag k="ssr:stedsnr" v="975651" />
		<tag k="ssr:type" v="adressenavn" />
	</node>
	<node id="-639279" lat="64.6708787687" lon="11.6401055806">
		<tag k="name" v="Breivika" />
		<tag k="ssr:date" v="2019-12-27" />
		<tag k="ssr:gruppe" v="veg" />
		<tag k="ssr:hovedgruppe" v="infrastruktur" />
		<tag k="ssr:stedsnr" v="975154" />
		<tag k="ssr:type" v="adressenavn" />
	</node>
	<node id="-639278" lat="64.6761157058" lon="11.5462674281">
		<tag k="name" v="Råfjellvatna" />
		<tag k="ssr:date" v="2019-12-27" />
		<tag k="ssr:gruppe" v="veg" />
		<tag k="ssr:hovedgruppe" v="infrastruktur" />
		<tag k="ssr:stedsnr" v="975153" />
		<tag k="ssr:type" v="adressenavn" />
	</node>
	<node id="-639277" lat="64.7657394493" lon="11.8976164622">
		<tag k="name" v="Godfisktjønna" />
		<tag k="ssr:date" v="2019-12-27" />
		<tag k="ssr:gruppe" v="veg" />
		<tag k="ssr:hovedgruppe" v="infrastruktur" />
		<tag k="ssr:stedsnr" v="975152" />
		<tag k="ssr:type" v="adressenavn" />
	</node>
	<node id="-639276" lat="64.6507818222" lon="11.7811838057">
		<tag k="name" v="Storengan" />
		<tag k="ssr:date" v="2019-12-27" />
		<tag k="ssr:gruppe" v="veg" />
		<tag k="ssr:hovedgruppe" v="infrastruktur" />
		<tag k="ssr:stedsnr" v="975151" />
		<tag k="ssr:type" v="adressenavn" />
	</node>
	<node id="-639275" lat="64.656977766" lon="11.4938348753">
		<tag k="name" v="Seiertuva" />
		<tag k="ssr:date" v="2019-12-27" />
		<tag k="ssr:gruppe" v="veg" />
		<tag k="ssr:hovedgruppe" v="infrastruktur" />
		<tag k="ssr:stedsnr" v="975150" />
		<tag k="ssr:type" v="adressenavn" />
	</node>
	<node id="-639274" lat="64.6411346373" lon="11.4657684955">
		<tag k="name" v="Storvatnet" />
		<tag k="ssr:date" v="2019-12-27" />
		<tag k="ssr:gruppe" v="veg" />
		<tag k="ssr:hovedgruppe" v="infrastruktur" />
		<tag k="ssr:stedsnr" v="975149" />
		<tag k="ssr:type" v="adressenavn" />
	</node>
	<node id="-639273" lat="64.6481272484" lon="11.4075953321">
		<tag k="name" v="Kjelbotnet" />
		<tag k="ssr:date" v="2019-12-27" />
		<tag k="ssr:gruppe" v="veg" />
		<tag k="ssr:hovedgruppe" v="infrastruktur" />
		<tag k="ssr:stedsnr" v="975148" />
		<tag k="ssr:type" v="adressenavn" />
	</node>
	<node id="-639272" lat="64.62336124" lon="11.4805405105">
		<tag k="name" v="Mastervikvatnet" />
		<tag k="ssr:date" v="2019-12-27" />
		<tag k="ssr:gruppe" v="veg" />
		<tag k="ssr:hovedgruppe" v="infrastruktur" />
		<tag k="ssr:stedsnr" v="975147" />
		<tag k="ssr:type" v="adressenavn" />
	</node>
	<node id="-639271" lat="64.7192473635" lon="11.5589116088">
		<tag k="name" v="Gravvika" />
		<tag k="ssr:date" v="2019-12-27" />
		<tag k="ssr:gruppe" v="veg" />
		<tag k="ssr:hovedgruppe" v="infrastruktur" />
		<tag k="ssr:stedsnr" v="975146" />
		<tag k="ssr:type" v="adressenavn" />
	</node>
	<node id="-639270" lat="64.7143207269" lon="11.7404005301">
		<tag k="name" v="Eida" />
		<tag k="ssr:date" v="2019-12-27" />
		<tag k="ssr:gruppe" v="veg" />
		<tag k="ssr:hovedgruppe" v="infrastruktur" />
		<tag k="ssr:stedsnr" v="975145" />
		<tag k="ssr:type" v="adressenavn" />
	</node>
	<node id="-639269" lat="64.741294848" lon="11.8213021646">
		<tag k="name" v="Leisåk" />
		<tag k="ssr:date" v="2019-12-27" />
		<tag k="ssr:gruppe" v="veg" />
		<tag k="ssr:hovedgruppe" v="infrastruktur" />
		<tag k="ssr:stedsnr" v="975144" />
		<tag k="ssr:type" v="adressenavn" />
	</node>
	<node id="-639268" lat="64.7106840293" lon="11.4796128663">
		<tag k="name" v="Storvassvika" />
		<tag k="ssr:date" v="2019-12-27" />
		<tag k="ssr:gruppe" v="veg" />
		<tag k="ssr:hovedgruppe" v="infrastruktur" />
		<tag k="ssr:stedsnr" v="975143" />
		<tag k="ssr:type" v="adressenavn" />
	</node>
	<node id="-639267" lat="64.6534194456" lon="11.3913071229">
		<tag k="name" v="Tingstaden" />
		<tag k="ssr:date" v="2019-12-27" />
		<tag k="ssr:gruppe" v="veg" />
		<tag k="ssr:hovedgruppe" v="infrastruktur" />
		<tag k="ssr:stedsnr" v="975142" />
		<tag k="ssr:type" v="adressenavn" />
	</node>
	<node id="-639266" lat="64.6440313563" lon="11.4005317351">
		<tag k="name" v="Kjelneset" />
		<tag k="ssr:date" v="2019-12-27" />
		<tag k="ssr:gruppe" v="veg" />
		<tag k="ssr:hovedgruppe" v="infrastruktur" />
		<tag k="ssr:stedsnr" v="975141" />
		<tag k="ssr:type" v="adressenavn" />
	</node>
	<node id="-639265" lat="64.6354948885" lon="11.4125468713">
		<tag k="name" v="Innerbotnet" />
		<tag k="ssr:date" v="2019-12-27" />
		<tag k="ssr:gruppe" v="veg" />
		<tag k="ssr:hovedgruppe" v="infrastruktur" />
		<tag k="ssr:stedsnr" v="975140" />
		<tag k="ssr:type" v="adressenavn" />
	</node>
	<node id="-639264" lat="64.6213412833" lon="11.2683143361">
		<tag k="name" v="Olavika hyttefelt" />
		<tag k="ssr:date" v="2019-12-27" />
		<tag k="ssr:gruppe" v="veg" />
		<tag k="ssr:hovedgruppe" v="infrastruktur" />
		<tag k="ssr:stedsnr" v="975105" />
		<tag k="ssr:type" v="adressenavn" />
	</node>
	<node id="-639263" lat="64.6288060642" lon="11.2615918704">
		<tag k="name" v="Letvika hyttefelt" />
		<tag k="ssr:date" v="2019-12-27" />
		<tag k="ssr:gruppe" v="veg" />
		<tag k="ssr:hovedgruppe" v="infrastruktur" />
		<tag k="ssr:stedsnr" v="975104" />
		<tag k="ssr:type" v="adressenavn" />
	</node>
	<node id="-639262" lat="64.5888514014" lon="11.4186542311">
		<tag k="name" v="Årbuvatnet" />
		<tag k="ssr:date" v="2019-12-27" />
		<tag k="ssr:gruppe" v="veg" />
		<tag k="ssr:hovedgruppe" v="infrastruktur" />
		<tag k="ssr:stedsnr" v="975098" />
		<tag k="ssr:type" v="adressenavn" />
	</node>
	<node id="-639261" lat="64.4564171222" lon="11.4416289964">
		<tag k="name" v="Mærraneset" />
		<tag k="ssr:date" v="2019-12-27" />
		<tag k="ssr:gruppe" v="veg" />
		<tag k="ssr:hovedgruppe" v="infrastruktur" />
		<tag k="ssr:stedsnr" v="974625" />
		<tag k="ssr:type" v="adressenavn" />
	</node>
	<node id="-639260" lat="64.3379955053" lon="11.4455348751">
		<tag k="name" v="Flakkfjellet" />
		<tag k="ssr:date" v="2019-12-27" />
		<tag k="ssr:gruppe" v="veg" />
		<tag k="ssr:hovedgruppe" v="infrastruktur" />
		<tag k="ssr:stedsnr" v="974624" />
		<tag k="ssr:type" v="adressenavn" />
	</node>
	<node id="-639259" lat="64.3344321523" lon="11.3894212897">
		<tag k="name" v="Bruin" />
		<tag k="ssr:date" v="2019-12-27" />
		<tag k="ssr:gruppe" v="veg" />
		<tag k="ssr:hovedgruppe" v="infrastruktur" />
		<tag k="ssr:stedsnr" v="974623" />
		<tag k="ssr:type" v="adressenavn" />
	</node>
	<node id="-639258" lat="64.6482478621" lon="11.1081860478">
		<tag k="name" v="Lostranda" />
		<tag k="ssr:date" v="2019-12-27" />
		<tag k="ssr:gruppe" v="veg" />
		<tag k="ssr:hovedgruppe" v="infrastruktur" />
		<tag k="ssr:stedsnr" v="974622" />
		<tag k="ssr:type" v="adressenavn" />
	</node>
	<node id="-639257" lat="64.6246789543" lon="11.1166315927">
		<tag k="name" v="Aglvatnet" />
		<tag k="ssr:date" v="2019-12-27" />
		<tag k="ssr:gruppe" v="veg" />
		<tag k="ssr:hovedgruppe" v="infrastruktur" />
		<tag k="ssr:stedsnr" v="974621" />
		<tag k="ssr:type" v="adressenavn" />
	</node>
	<node id="-639256" lat="64.5923170551" lon="11.1033961549">
		<tag k="name" v="Myanvikvatnet" />
		<tag k="ssr:date" v="2019-12-27" />
		<tag k="ssr:gruppe" v="veg" />
		<tag k="ssr:hovedgruppe" v="infrastruktur" />
		<tag k="ssr:stedsnr" v="974620" />
		<tag k="ssr:type" v="adressenavn" />
	</node>
	<node id="-639255" lat="64.5966974073" lon="11.1309678162">
		<tag k="name" v="Setervatnet" />
		<tag k="ssr:date" v="2019-12-27" />
		<tag k="ssr:gruppe" v="veg" />
		<tag k="ssr:hovedgruppe" v="infrastruktur" />
		<tag k="ssr:stedsnr" v="974619" />
		<tag k="ssr:type" v="adressenavn" />
	</node>
	<node id="-639254" lat="64.5904409058" lon="11.1630133063">
		<tag k="name" v="Reindalen" />
		<tag k="ssr:date" v="2019-12-27" />
		<tag k="ssr:gruppe" v="veg" />
		<tag k="ssr:hovedgruppe" v="infrastruktur" />
		<tag k="ssr:stedsnr" v="974618" />
		<tag k="ssr:type" v="adressenavn" />
	</node>
	<node id="-639253" lat="64.5607616466" lon="11.1666917318">
		<tag k="name" v="Skorstadvatnet" />
		<tag k="ssr:date" v="2019-12-27" />
		<tag k="ssr:gruppe" v="veg" />
		<tag k="ssr:hovedgruppe" v="infrastruktur" />
		<tag k="ssr:stedsnr" v="974617" />
		<tag k="ssr:type" v="adressenavn" />
	</node>
	<node id="-639252" lat="64.537105637" lon="11.2209990723">
		<tag k="name" v="Skavdalen" />
		<tag k="ssr:date" v="2019-12-27" />
		<tag k="ssr:gruppe" v="veg" />
		<tag k="ssr:hovedgruppe" v="infrastruktur" />
		<tag k="ssr:stedsnr" v="974616" />
		<tag k="ssr:type" v="adressenavn" />
	</node>
	<node id="-639251" lat="64.5263828749" lon="11.3558696608">
		<tag k="name" v="Fuglvatnet" />
		<tag k="ssr:date" v="2019-12-27" />
		<tag k="ssr:gruppe" v="veg" />
		<tag k="ssr:hovedgruppe" v="infrastruktur" />
		<tag k="ssr:stedsnr" v="974615" />
		<tag k="ssr:type" v="adressenavn" />
	</node>
	<node id="-639250" lat="64.5371551989" lon="11.3542754662">
		<tag k="name" v="Vindsetvatnet" />
		<tag k="ssr:date" v="2019-12-27" />
		<tag k="ssr:gruppe" v="veg" />
		<tag k="ssr:hovedgruppe" v="infrastruktur" />
		<tag k="ssr:stedsnr" v="974614" />
		<tag k="ssr:type" v="adressenavn" />
	</node>
	<node id="-639249" lat="64.5081148795" lon="11.3545869373">
		<tag k="name" v="Vikalangvatnet" />
		<tag k="ssr:date" v="2019-12-27" />
		<tag k="ssr:gruppe" v="veg" />
		<tag k="ssr:hovedgruppe" v="infrastruktur" />
		<tag k="ssr:stedsnr" v="974613" />
		<tag k="ssr:type" v="adressenavn" />
	</node>
	<node id="-639248" lat="64.4838211911" lon="11.4350349112">
		<tag k="name" v="Lokkaren" />
		<tag k="ssr:date" v="2019-12-27" />
		<tag k="ssr:gruppe" v="veg" />
		<tag k="ssr:hovedgruppe" v="infrastruktur" />
		<tag k="ssr:stedsnr" v="974610" />
		<tag k="ssr:type" v="adressenavn" />
	</node>
	<node id="-635693" lat="64.5681548456" lon="11.5543973485">
		<tag k="name" v="Blikkenget" />
		<tag k="ssr:date" v="2019-12-27" />
		<tag k="ssr:gruppe" v="veg" />
		<tag k="ssr:hovedgruppe" v="infrastruktur" />
		<tag k="ssr:stedsnr" v="1022519" />
		<tag k="ssr:type" v="adressenavn" />
	</node>
	<node id="-635692" lat="64.5723344066" lon="11.5119228683">
		<tag k="name" v="Ånenget" />
		<tag k="ssr:date" v="2019-12-27" />
		<tag k="ssr:gruppe" v="veg" />
		<tag k="ssr:hovedgruppe" v="infrastruktur" />
		<tag k="ssr:stedsnr" v="1022517" />
		<tag k="ssr:type" v="adressenavn" />
	</node>
	<node id="-635697" lat="64.6269018059" lon="11.6916518541">
		<tag k="name" v="Auritjønna" />
		<tag k="ssr:date" v="2019-12-27" />
		<tag k="ssr:gruppe" v="veg" />
		<tag k="ssr:hovedgruppe" v="infrastruktur" />
		<tag k="ssr:stedsnr" v="1022524" />
		<tag k="ssr:type" v="adressenavn" />
	</node>
	<node id="-636715" lat="64.7117444407" lon="11.406005551">
		<tag k="name" v="Rypneset" />
		<tag k="ssr:date" v="2019-12-27" />
		<tag k="ssr:gruppe" v="navigasjon" />
		<tag k="ssr:hovedgruppe" v="infrastruktur" />
		<tag k="ssr:stedsnr" v="175576" />
		<tag k="ssr:type" v="fyrlykt" />
	</node>
	<node id="-633600" lat="64.5257472226" lon="11.4687111215">
		<tag k="name" v="Levra" />
		<tag k="ssr:date" v="2019-12-27" />
		<tag k="ssr:gruppe" v="navigasjon" />
		<tag k="ssr:hovedgruppe" v="infrastruktur" />
		<tag k="ssr:stedsnr" v="449335" />
		<tag k="ssr:type" v="fyrlykt" />
	</node>
	<node id="-637312" lat="64.6080138862" lon="11.0244194486">
		<tag k="name" v="Knappholman" />
		<tag k="ssr:date" v="2019-12-27" />
		<tag k="ssr:gruppe" v="navigasjon" />
		<tag k="ssr:hovedgruppe" v="infrastruktur" />
		<tag k="ssr:stedsnr" v="378595" />
		<tag k="ssr:type" v="fyrlykt" />
	</node>
	<node id="-635690" lat="64.4573271215" lon="11.4669104492">
		<tag k="name" v="Mærraneset hytteområde" />
		<tag k="ssr:date" v="2019-12-27" />
		<tag k="ssr:gruppe" v="veg" />
		<tag k="ssr:hovedgruppe" v="infrastruktur" />
		<tag k="ssr:stedsnr" v="984231" />
		<tag k="ssr:type" v="adressenavn" />
	</node>
	<node id="-637690" lat="64.6837972221" lon="11.2486222259">
		<tag k="name" v="Hundstien" />
		<tag k="ssr:date" v="2019-12-27" />
		<tag k="ssr:gruppe" v="veg" />
		<tag k="ssr:hovedgruppe" v="infrastruktur" />
		<tag k="ssr:stedsnr" v="532853" />
		<tag k="ssr:type" v="vegstrekning" />
	</node>
	<node id="-635694" lat="64.5872591872" lon="11.5160157689">
		<tag k="name" v="Kjettvatnet" />
		<tag k="ssr:date" v="2019-12-27" />
		<tag k="ssr:gruppe" v="veg" />
		<tag k="ssr:hovedgruppe" v="infrastruktur" />
		<tag k="ssr:stedsnr" v="1022520" />
		<tag k="ssr:type" v="adressenavn" />
	</node>
	<node id="-635689" lat="64.482781029" lon="11.3240376398">
		<tag k="name" v="Oldervika hytteområde" />
		<tag k="ssr:date" v="2019-12-27" />
		<tag k="ssr:gruppe" v="veg" />
		<tag k="ssr:hovedgruppe" v="infrastruktur" />
		<tag k="ssr:stedsnr" v="984230" />
		<tag k="ssr:type" v="adressenavn" />
	</node>
	<node id="-635688" lat="64.6182354952" lon="11.160664245">
		<tag k="name" v="Tangen hytteområde" />
		<tag k="ssr:date" v="2019-12-27" />
		<tag k="ssr:gruppe" v="veg" />
		<tag k="ssr:hovedgruppe" v="infrastruktur" />
		<tag k="ssr:stedsnr" v="984229" />
		<tag k="ssr:type" v="adressenavn" />
	</node>
	<node id="-635687" lat="64.6125009448" lon="11.2105070413">
		<tag k="name" v="Sandvollan hytteområde" />
		<tag k="ssr:date" v="2019-12-27" />
		<tag k="ssr:gruppe" v="veg" />
		<tag k="ssr:hovedgruppe" v="infrastruktur" />
		<tag k="ssr:stedsnr" v="984228" />
		<tag k="ssr:type" v="adressenavn" />
	</node>
	<node id="-638696" lat="64.670713891" lon="11.227038899">
		<tag k="alt_name" v="Nordveien" />
		<tag k="name" v="Nordvegen" />
		<tag k="ssr:date" v="2019-12-27" />
		<tag k="ssr:gruppe" v="veg" />
		<tag k="ssr:hovedgruppe" v="infrastruktur" />
		<tag k="ssr:stedsnr" v="803324" />
		<tag k="ssr:type" v="vegstrekning" />
	</node>
	<node id="-635110" lat="64.4167305568" lon="11.3467194413">
		<tag k="name" v="Bangsund" />
		<tag k="ssr:date" v="2019-12-27" />
		<tag k="ssr:gruppe" v="navigasjon" />
		<tag k="ssr:hovedgruppe" v="infrastruktur" />
		<tag k="ssr:stedsnr" v="742057" />
		<tag k="ssr:type" v="fyrlykt" />
	</node>
	<node id="-635685" lat="64.2545773368" lon="11.2689636926">
		<tag k="name" v="Kaldal" />
		<tag k="ssr:date" v="2019-12-27" />
		<tag k="ssr:gruppe" v="veg" />
		<tag k="ssr:hovedgruppe" v="infrastruktur" />
		<tag k="ssr:stedsnr" v="981279" />
		<tag k="ssr:type" v="adressetilleggsnavn" />
	</node>
	<node id="-635684" lat="64.2997671313" lon="11.2085919632">
		<tag k="name" v="Lonmoen" />
		<tag k="ssr:date" v="2019-12-27" />
		<tag k="ssr:gruppe" v="veg" />
		<tag k="ssr:hovedgruppe" v="infrastruktur" />
		<tag k="ssr:stedsnr" v="981278" />
		<tag k="ssr:type" v="adressetilleggsnavn" />
	</node>
	<node id="-635683" lat="64.3031279973" lon="11.2186337484">
		<tag k="name" v="Brattlia" />
		<tag k="ssr:date" v="2019-12-27" />
		<tag k="ssr:gruppe" v="veg" />
		<tag k="ssr:hovedgruppe" v="infrastruktur" />
		<tag k="ssr:stedsnr" v="981277" />
		<tag k="ssr:type" v="adressetilleggsnavn" />
	</node>
	<node id="-635682" lat="64.2548299975" lon="11.2309960764">
		<tag k="name" v="Bergheim" />
		<tag k="ssr:date" v="2019-12-27" />
		<tag k="ssr:gruppe" v="veg" />
		<tag k="ssr:hovedgruppe" v="infrastruktur" />
		<tag k="ssr:stedsnr" v="981276" />
		<tag k="ssr:type" v="adressetilleggsnavn" />
	</node>
	<node id="-635681" lat="64.2982561951" lon="11.2073051243">
		<tag k="name" v="Sand" />
		<tag k="ssr:date" v="2019-12-27" />
		<tag k="ssr:gruppe" v="veg" />
		<tag k="ssr:hovedgruppe" v="infrastruktur" />
		<tag k="ssr:stedsnr" v="981275" />
		<tag k="ssr:type" v="adressetilleggsnavn" />
	</node>
	<node id="-635680" lat="64.2518910547" lon="11.1076700122">
		<tag k="name" v="Stormoen" />
		<tag k="ssr:date" v="2019-12-27" />
		<tag k="ssr:gruppe" v="veg" />
		<tag k="ssr:hovedgruppe" v="infrastruktur" />
		<tag k="ssr:stedsnr" v="981274" />
		<tag k="ssr:type" v="adressetilleggsnavn" />
	</node>
	<node id="-636602" lat="64.6553999992" lon="11.3099166655">
		<tag k="name" v="Gammelvegen" />
		<tag k="old_name" v="Gammelveien" />
		<tag k="ssr:date" v="2019-12-27" />
		<tag k="ssr:gruppe" v="veg" />
		<tag k="ssr:hovedgruppe" v="infrastruktur" />
		<tag k="ssr:stedsnr" v="168779" />
		<tag k="ssr:type" v="vegstrekning" />
	</node>
	<node id="-635679" lat="64.2555964052" lon="11.1857957689">
		<tag k="name" v="Brumoen" />
		<tag k="ssr:date" v="2019-12-27" />
		<tag k="ssr:gruppe" v="veg" />
		<tag k="ssr:hovedgruppe" v="infrastruktur" />
		<tag k="ssr:stedsnr" v="981273" />
		<tag k="ssr:type" v="adressetilleggsnavn" />
	</node>
	<node id="-635714" lat="64.4859851345" lon="11.1778807155">
		<tag k="name" v="Hjartvika" />
		<tag k="ssr:date" v="2019-12-27" />
		<tag k="ssr:gruppe" v="veg" />
		<tag k="ssr:hovedgruppe" v="infrastruktur" />
		<tag k="ssr:stedsnr" v="1036635" />
		<tag k="ssr:type" v="adressenavn" />
	</node>
	<node id="-635678" lat="64.2303316605" lon="11.2037216028">
		<tag k="name" v="Bonhaug" />
		<tag k="ssr:date" v="2019-12-27" />
		<tag k="ssr:gruppe" v="veg" />
		<tag k="ssr:hovedgruppe" v="infrastruktur" />
		<tag k="ssr:stedsnr" v="981272" />
		<tag k="ssr:type" v="adressetilleggsnavn" />
	</node>
	<node id="-635676" lat="64.235426735" lon="11.2101203666">
		<tag k="name" v="Brekka" />
		<tag k="ssr:date" v="2019-12-27" />
		<tag k="ssr:gruppe" v="veg" />
		<tag k="ssr:hovedgruppe" v="infrastruktur" />
		<tag k="ssr:stedsnr" v="981270" />
		<tag k="ssr:type" v="adressetilleggsnavn" />
	</node>
	<node id="-635675" lat="64.231436268" lon="11.20062414">
		<tag k="name" v="Bjørg" />
		<tag k="ssr:date" v="2019-12-27" />
		<tag k="ssr:gruppe" v="veg" />
		<tag k="ssr:hovedgruppe" v="infrastruktur" />
		<tag k="ssr:stedsnr" v="981269" />
		<tag k="ssr:type" v="adressetilleggsnavn" />
	</node>
	<node id="-635691" lat="64.5546677563" lon="11.5196047969">
		<tag k="name" v="Saltkjeløya" />
		<tag k="ssr:date" v="2019-12-27" />
		<tag k="ssr:gruppe" v="veg" />
		<tag k="ssr:hovedgruppe" v="infrastruktur" />
		<tag k="ssr:stedsnr" v="1022515" />
		<tag k="ssr:type" v="adressenavn" />
	</node>
	<node id="-635708" lat="64.2342474269" lon="10.9158334604">
		<tag k="name" v="Meungan" />
		<tag k="ssr:date" v="2019-12-27" />
		<tag k="ssr:gruppe" v="veg" />
		<tag k="ssr:hovedgruppe" v="infrastruktur" />
		<tag k="ssr:stedsnr" v="1036717" />
		<tag k="ssr:type" v="adressenavn" />
	</node>
	<node id="-635674" lat="64.2253209672" lon="11.2273456222">
		<tag k="name" v="Holia" />
		<tag k="ssr:date" v="2019-12-27" />
		<tag k="ssr:gruppe" v="veg" />
		<tag k="ssr:hovedgruppe" v="infrastruktur" />
		<tag k="ssr:stedsnr" v="981268" />
		<tag k="ssr:type" v="adressetilleggsnavn" />
	</node>
	<node id="-635673" lat="64.1759979949" lon="11.2282206278">
		<tag k="name" v="Elda" />
		<tag k="ssr:date" v="2019-12-27" />
		<tag k="ssr:gruppe" v="veg" />
		<tag k="ssr:hovedgruppe" v="infrastruktur" />
		<tag k="ssr:stedsnr" v="981267" />
		<tag k="ssr:type" v="adressetilleggsnavn" />
	</node>
	<node id="-635270" lat="64.7502583368" lon="11.5233277784">
		<tag k="name" v="Kvalholmen" />
		<tag k="ssr:date" v="2019-12-27" />
		<tag k="ssr:gruppe" v="navigasjon" />
		<tag k="ssr:hovedgruppe" v="infrastruktur" />
		<tag k="ssr:stedsnr" v="924669" />
		<tag k="ssr:type" v="fyrlykt" />
	</node>
	<node id="-635703" lat="64.5295736879" lon="11.6072089252">
		<tag k="name" v="Løddingsvatnet" />
		<tag k="ssr:date" v="2019-12-27" />
		<tag k="ssr:gruppe" v="veg" />
		<tag k="ssr:hovedgruppe" v="infrastruktur" />
		<tag k="ssr:stedsnr" v="1022533" />
		<tag k="ssr:type" v="adressenavn" />
	</node>
	<node id="-635671" lat="64.1609845187" lon="11.2777130419">
		<tag k="name" v="Nordaunet" />
		<tag k="ssr:date" v="2019-12-27" />
		<tag k="ssr:gruppe" v="veg" />
		<tag k="ssr:hovedgruppe" v="infrastruktur" />
		<tag k="ssr:stedsnr" v="980931" />
		<tag k="ssr:type" v="adressetilleggsnavn" />
	</node>
	<node id="-635670" lat="64.1678001554" lon="11.2842397386">
		<tag k="name" v="Morkamoen" />
		<tag k="ssr:date" v="2019-12-27" />
		<tag k="ssr:gruppe" v="veg" />
		<tag k="ssr:hovedgruppe" v="infrastruktur" />
		<tag k="ssr:stedsnr" v="980930" />
		<tag k="ssr:type" v="adressetilleggsnavn" />
	</node>
	<node id="-635669" lat="64.164877807" lon="11.2755543273">
		<tag k="name" v="Søndre Mork" />
		<tag k="ssr:date" v="2019-12-27" />
		<tag k="ssr:gruppe" v="veg" />
		<tag k="ssr:hovedgruppe" v="infrastruktur" />
		<tag k="ssr:stedsnr" v="980929" />
		<tag k="ssr:type" v="adressetilleggsnavn" />
	</node>
	<node id="-635668" lat="64.0144468016" lon="11.4818866293">
		<tag k="name" v="Trøndelag fylke - Trööndelagen fylhke" />
		<tag k="name:no" v="Trøndelag fylke" />
		<tag k="name:sma" v="Trööndelagen fylhke" />
		<tag k="ssr:date" v="2020-01-13" />
		<tag k="ssr:gruppe" v="administrativeIndelinger" />
		<tag k="ssr:hovedgruppe" v="offentligAdministrasjon" />
		<tag k="ssr:stedsnr" v="980645" />
		<tag k="ssr:type" v="fylke" />
	</node>
	<node id="-635696" lat="64.6029932151" lon="11.4931237336">
		<tag k="name" v="Skjærivatnet" />
		<tag k="ssr:date" v="2019-12-27" />
		<tag k="ssr:gruppe" v="veg" />
		<tag k="ssr:hovedgruppe" v="infrastruktur" />
		<tag k="ssr:stedsnr" v="1022523" />
		<tag k="ssr:type" v="adressenavn" />
	</node>
	<node id="-634155" lat="64.4660331872" lon="11.497034729">
		<tag k="name" v="Namsos kommune - Nåavmesjenjaelmien tjïelte" />
		<tag k="name:no" v="Namsos kommune" />
		<tag k="name:sma" v="Nåavmesjenjaelmien tjïelte" />
		<tag k="ssr:date" v="2020-01-16" />
		<tag k="ssr:gruppe" v="administrativeIndelinger" />
		<tag k="ssr:hovedgruppe" v="offentligAdministrasjon" />
		<tag k="ssr:stedsnr" v="511340" />
		<tag k="ssr:type" v="kommune" />
	</node>
	<node id="-638054" lat="64.7519805575" lon="11.9926749937">
		<tag k="alt_name" v="Skavveien" />
		<tag k="name" v="Skavvegen" />
		<tag k="ssr:date" v="2019-12-27" />
		<tag k="ssr:gruppe" v="veg" />
		<tag k="ssr:hovedgruppe" v="infrastruktur" />
		<tag k="ssr:stedsnr" v="596099" />
		<tag k="ssr:type" v="vegstrekning" />
	</node>
	<node id="-635706" lat="64.2727275707" lon="11.2893832903">
		<tag k="name" v="Kaldalvatnet" />
		<tag k="ssr:date" v="2019-12-27" />
		<tag k="ssr:gruppe" v="veg" />
		<tag k="ssr:hovedgruppe" v="infrastruktur" />
		<tag k="ssr:stedsnr" v="1036715" />
		<tag k="ssr:type" v="adressenavn" />
	</node>
	<node id="-635705" lat="64.2310042663" lon="11.5221131908">
		<tag k="name" v="Svartesetran" />
		<tag k="ssr:date" v="2019-12-27" />
		<tag k="ssr:gruppe" v="veg" />
		<tag k="ssr:hovedgruppe" v="infrastruktur" />
		<tag k="ssr:stedsnr" v="1036714" />
		<tag k="ssr:type" v="adressenavn" />
	</node>
	<node id="-635699" lat="64.6126223691" lon="11.7832856409">
		<tag k="name" v="Utgangsdalen" />
		<tag k="ssr:date" v="2019-12-27" />
		<tag k="ssr:gruppe" v="veg" />
		<tag k="ssr:hovedgruppe" v="infrastruktur" />
		<tag k="ssr:stedsnr" v="1022528" />
		<tag k="ssr:type" v="adressenavn" />
	</node>
	<node id="-635716" lat="64.4630467864" lon="11.1767225345">
		<tag k="name" v="Storbakksetran" />
		<tag k="ssr:date" v="2019-12-27" />
		<tag k="ssr:gruppe" v="veg" />
		<tag k="ssr:hovedgruppe" v="infrastruktur" />
		<tag k="ssr:stedsnr" v="1036637" />
		<tag k="ssr:type" v="adressenavn" />
	</node>
	<node id="-635943" lat="64.6245027749" lon="11.4642638814">
		<tag k="name" v="Hestveien" />
		<tag k="ssr:date" v="2019-12-27" />
		<tag k="ssr:gruppe" v="veg" />
		<tag k="ssr:hovedgruppe" v="infrastruktur" />
		<tag k="ssr:stedsnr" v="47703" />
		<tag k="ssr:type" v="vegstrekning" />
	</node>
	<node id="-635704" lat="64.3873231718" lon="11.390236808">
		<tag k="name" v="Naustholmen" />
		<tag k="ssr:date" v="2019-12-27" />
		<tag k="ssr:gruppe" v="veg" />
		<tag k="ssr:hovedgruppe" v="infrastruktur" />
		<tag k="ssr:stedsnr" v="1022534" />
		<tag k="ssr:type" v="adressenavn" />
	</node>
	<node id="-635715" lat="64.4860476819" lon="11.0848754046">
		<tag k="name" v="Nordledangssetran" />
		<tag k="ssr:date" v="2019-12-27" />
		<tag k="ssr:gruppe" v="veg" />
		<tag k="ssr:hovedgruppe" v="infrastruktur" />
		<tag k="ssr:stedsnr" v="1036636" />
		<tag k="ssr:type" v="adressenavn" />
	</node>
</osm>
