<?xml version="1.0" encoding="UTF-8"?>
<osm generator="osmapis" version="0.6">
	<node id="-153600" lat="61.3747361071" lon="9.11150834045">
		<tag k="name" v="Berget" />
		<tag k="natural" v="hill" />
		<tag k="place" v="locality" />
		<tag k="ssr:stedsnr" v="190030" />
	</node>
	<node id="-153599" lat="61.3839722249" lon="8.98988889502">
		<tag k="fixme" v="consider natural=peak for the most distinct mountains in the district" />
		<tag k="name" v="Gråhøe" />
		<tag k="natural" v="hill" />
		<tag k="place" v="locality" />
		<tag k="ssr:stedsnr" v="190025" />
	</node>
	<node id="-153598" lat="61.2258138902" lon="9.39041389218">
		<tag k="name" v="Fetalie" />
		<tag k="natural" v="slope" />
		<tag k="place" v="locality" />
		<tag k="ssr:stedsnr" v="189991" />
	</node>
	<node id="-153596" lat="61.2031277774" lon="9.24963333983">
		<tag k="alt_name" v="Trøllåshøgde" />
		<tag k="name" v="Trollåshøgde" />
		<tag k="natural" v="hill" />
		<tag k="place" v="locality" />
		<tag k="ssr:stedsnr" v="189970" />
	</node>
	<node id="-153586" lat="61.2369611079" lon="9.23968889767">
		<tag k="name" v="Synhaugen" />
		<tag k="natural" v="hill" />
		<tag k="place" v="locality" />
		<tag k="ssr:stedsnr" v="189728" />
	</node>
	<node id="-153563" lat="61.1925555553" lon="8.92609166626">
		<tag k="name" v="Røyneslie" />
		<tag k="natural" v="slope" />
		<tag k="place" v="locality" />
		<tag k="ssr:stedsnr" v="188004" />
	</node>
	<node id="-153560" lat="61.3117138903" lon="9.03805555342">
		<tag k="name" v="Brune Høgde" />
		<tag k="natural" v="hill" />
		<tag k="place" v="locality" />
		<tag k="ssr:stedsnr" v="179643" />
	</node>
	<node id="-153555" lat="61.2953916669" lon="8.90179722591">
		<tag k="name" v="Sandhaugadn" />
		<tag k="natural" v="hill" />
		<tag k="place" v="locality" />
		<tag k="ssr:stedsnr" v="177845" />
	</node>
	<node id="-153549" lat="61.2189583314" lon="9.33051110685">
		<tag k="name" v="Veneliknuka" />
		<tag k="natural" v="hill" />
		<tag k="place" v="locality" />
		<tag k="ssr:stedsnr" v="176397" />
	</node>
	<node id="-153547" lat="61.2191083295" lon="9.27106944838">
		<tag k="name" v="Geiteskallin" />
		<tag k="natural" v="hill" />
		<tag k="place" v="locality" />
		<tag k="ssr:stedsnr" v="176393" />
	</node>
	<node id="-153541" lat="61.1676333349" lon="9.15673611985">
		<tag k="alt_name" v="Bjødnaskallin" />
		<tag k="name" v="Bjørnaskallen" />
		<tag k="natural" v="hill" />
		<tag k="place" v="locality" />
		<tag k="ssr:stedsnr" v="176040" />
	</node>
	<node id="-153536" lat="61.2241722206" lon="8.94589722989">
		<tag k="name" v="Høvda" />
		<tag k="natural" v="hill" />
		<tag k="place" v="locality" />
		<tag k="ssr:stedsnr" v="175935" />
	</node>
	<node id="-153534" lat="61.2811611106" lon="8.96232778479">
		<tag k="name" v="Oleskaret" />
		<tag k="natural" v="valley" />
		<tag k="place" v="locality" />
		<tag k="ssr:stedsnr" v="175614" />
	</node>
	<node id="-153532" lat="61.2497694428" lon="9.0189833382">
		<tag k="name" v="Jørenkampen" />
		<tag k="natural" v="hill" />
		<tag k="place" v="locality" />
		<tag k="ssr:stedsnr" v="175602" />
	</node>
	<node id="-153531" lat="61.2000833348" lon="8.93778888266">
		<tag k="name" v="Sletten" />
		<tag k="place" v="locality" />
		<tag k="ssr:stedsnr" v="175593" />
	</node>
	<node id="-153530" lat="61.2551805559" lon="9.02304166734">
		<tag k="name" v="Dalsstølshøgde" />
		<tag k="natural" v="hill" />
		<tag k="place" v="locality" />
		<tag k="ssr:stedsnr" v="175592" />
	</node>
	<node id="-153521" lat="61.1815972236" lon="9.35326389293">
		<tag k="name" v="Svaberghaugen" />
		<tag k="natural" v="hill" />
		<tag k="place" v="locality" />
		<tag k="ssr:stedsnr" v="175402" />
	</node>
	<node id="-153518" lat="61.2061888918" lon="9.00550000082">
		<tag k="name" v="Varpeholet" />
		<tag k="natural" v="valley" />
		<tag k="place" v="locality" />
		<tag k="ssr:stedsnr" v="175750" />
	</node>
	<node id="-153516" lat="61.1010861539" lon="9.26302280422">
		<tag k="alt_name" v="Vesle Kalvemellin" />
		<tag k="fixme" v="consider natural=peak for the most distinct mountains in the district" />
		<tag k="name" v="Vesle Kalvemellen" />
		<tag k="natural" v="hill" />
		<tag k="ssr:stedsnr" v="175174" />
	</node>
	<node id="-153514" lat="61.0937444442" lon="9.17859723101">
		<tag k="name" v="Snorobergtinden" />
		<tag k="natural" v="hill" />
		<tag k="place" v="locality" />
		<tag k="ssr:stedsnr" v="175224" />
	</node>
	<node id="-153512" lat="61.1626805579" lon="9.04921666664">
		<tag k="name" v="Kløpphøvd" />
		<tag k="natural" v="hill" />
		<tag k="place" v="locality" />
		<tag k="ssr:stedsnr" v="175218" />
	</node>
	<node id="-153511" lat="61.0973194488" lon="9.15936944375">
		<tag k="alt_name" v="Rognåsen" />
		<tag k="fixme" v="consider natural=peak for the most distinct mountains in the district" />
		<tag k="name" v="Rognsåsen" />
		<tag k="natural" v="hill" />
		<tag k="place" v="locality" />
		<tag k="ssr:stedsnr" v="175216" />
	</node>
	<node id="-153509" lat="61.0825388899" lon="9.19041943661">
		<tag k="name" v="Grohøld-dalen" />
		<tag k="natural" v="valley" />
		<tag k="place" v="locality" />
		<tag k="ssr:stedsnr" v="175207" />
	</node>
	<node id="-153505" lat="61.1286611072" lon="9.11726388656">
		<tag k="name" v="Klavabakkadn" />
		<tag k="natural" v="slope" />
		<tag k="place" v="locality" />
		<tag k="ssr:stedsnr" v="175080" />
	</node>
	<node id="-153491" lat="61.1977333294" lon="8.95474722754">
		<tag k="name" v="Kleivaberget" />
		<tag k="natural" v="hill" />
		<tag k="place" v="locality" />
		<tag k="ssr:stedsnr" v="155918" />
	</node>
	<node id="-153490" lat="61.176238886" lon="9.25368333987">
		<tag k="name" v="Langehøgde" />
		<tag k="natural" v="hill" />
		<tag k="place" v="locality" />
		<tag k="ssr:stedsnr" v="142459" />
	</node>
	<node id="-153485" lat="61.3353611093" lon="9.09980000747">
		<tag k="fixme" v="consider natural=peak for the most distinct mountains in the district" />
		<tag k="name" v="Keisaren" />
		<tag k="natural" v="hill" />
		<tag k="place" v="locality" />
		<tag k="ssr:stedsnr" v="129075" />
	</node>
	<node id="-153481" lat="61.2643888892" lon="9.11898333524">
		<tag k="name" v="Piggsteinhøgde" />
		<tag k="natural" v="hill" />
		<tag k="place" v="locality" />
		<tag k="ssr:stedsnr" v="129120" />
	</node>
	<node id="-153477" lat="61.2265916696" lon="9.45666388457">
		<tag k="name" v="Lauvlie" />
		<tag k="natural" v="slope" />
		<tag k="place" v="locality" />
		<tag k="ssr:stedsnr" v="128998" />
	</node>
	<node id="-153464" lat="61.2369000011" lon="9.06253056325">
		<tag k="name" v="Sverskuggberget" />
		<tag k="natural" v="hill" />
		<tag k="place" v="locality" />
		<tag k="ssr:stedsnr" v="128435" />
	</node>
	<node id="-153458" lat="61.119666663" lon="9.20354999323">
		<tag k="fixme" v="multiple name tags, choose one and add the other to alt_name" />
		<tag k="loc_name" v="Brendehovda" />
		<tag k="name" v="Brendehøvda;Djupedalshøgde" />
		<tag k="natural" v="hill" />
		<tag k="place" v="locality" />
		<tag k="ssr:stedsnr" v="128123" />
	</node>
	<node id="-153457" lat="61.2731999991" lon="8.75076389027">
		<tag k="name" v="Skorlie" />
		<tag k="natural" v="slope" />
		<tag k="place" v="locality" />
		<tag k="ssr:stedsnr" v="128184" />
	</node>
	<node id="-153452" lat="61.1398472193" lon="9.18273610208">
		<tag k="name" v="Hestekampen" />
		<tag k="natural" v="hill" />
		<tag k="place" v="locality" />
		<tag k="ssr:stedsnr" v="128075" />
	</node>
	<node id="-153450" lat="61.1663083316" lon="9.01906944207">
		<tag k="name" v="Hestekampen" />
		<tag k="natural" v="hill" />
		<tag k="place" v="locality" />
		<tag k="ssr:stedsnr" v="128039" />
	</node>
	<node id="-153447" lat="61.3023111103" lon="9.01905833149">
		<tag k="name" v="Skindrofjellet" />
		<tag k="natural" v="hill" />
		<tag k="place" v="locality" />
		<tag k="ssr:stedsnr" v="119678" />
	</node>
	<node id="-153442" lat="61.2273111119" lon="8.96378611732">
		<tag k="name" v="Glenna" />
		<tag k="natural" v="slope" />
		<tag k="place" v="locality" />
		<tag k="ssr:stedsnr" v="115939" />
	</node>
	<node id="-153441" lat="61.2435666683" lon="8.97099167167">
		<tag k="name" v="Sløahaugen" />
		<tag k="natural" v="hill" />
		<tag k="place" v="locality" />
		<tag k="ssr:stedsnr" v="115921" />
	</node>
	<node id="-153438" lat="61.079930554" lon="9.10678611464">
		<tag k="name" v="Haugahøvda" />
		<tag k="natural" v="hill" />
		<tag k="place" v="locality" />
		<tag k="ssr:stedsnr" v="115606" />
	</node>
	<node id="-153437" lat="61.0717749985" lon="9.0876333391">
		<tag k="name" v="Veslerøsbugen" />
		<tag k="natural" v="slope" />
		<tag k="place" v="locality" />
		<tag k="ssr:stedsnr" v="115604" />
	</node>
	<node id="-153436" lat="61.0622999961" lon="9.13742500821">
		<tag k="name" v="Kælkehøvda" />
		<tag k="natural" v="hill" />
		<tag k="place" v="locality" />
		<tag k="ssr:stedsnr" v="115529" />
	</node>
	<node id="-153434" lat="61.2216638855" lon="9.26976388246">
		<tag k="name" v="Gaukhøvd" />
		<tag k="natural" v="hill" />
		<tag k="place" v="locality" />
		<tag k="ssr:stedsnr" v="115476" />
	</node>
	<node id="-153430" lat="61.256252778" lon="9.36179444894">
		<tag k="name" v="Halldishaugen" />
		<tag k="natural" v="hill" />
		<tag k="place" v="locality" />
		<tag k="ssr:stedsnr" v="115375" />
	</node>
	<node id="-153428" lat="61.0784111142" lon="9.07812499157">
		<tag k="name" v="Langedalen" />
		<tag k="natural" v="valley" />
		<tag k="place" v="locality" />
		<tag k="ssr:stedsnr" v="115855" />
	</node>
	<node id="-153406" lat="61.2743027755" lon="8.77274999506">
		<tag k="name" v="Kleivaknuppen" />
		<tag k="natural" v="hill" />
		<tag k="place" v="locality" />
		<tag k="ssr:stedsnr" v="114782" />
	</node>
	<node id="-153404" lat="61.2001944466" lon="8.93247221562">
		<tag k="name" v="Kvednehaugadn" />
		<tag k="natural" v="hill" />
		<tag k="place" v="locality" />
		<tag k="ssr:stedsnr" v="114617" />
	</node>
	<node id="-153400" lat="61.1805027799" lon="9.03317777226">
		<tag k="name" v="Vangstjernberget" />
		<tag k="natural" v="hill" />
		<tag k="old_name" v="Vangstjednberget" />
		<tag k="place" v="locality" />
		<tag k="ssr:stedsnr" v="114126" />
	</node>
	<node id="-153398" lat="61.186094441" lon="9.03490833783">
		<tag k="name" v="Vangstjernmoen" />
		<tag k="old_name" v="Vangstjednmoen" />
		<tag k="place" v="locality" />
		<tag k="ssr:stedsnr" v="114123" />
	</node>
	<node id="-153386" lat="61.145400001" lon="9.19119444515">
		<tag k="name" v="Røyrsberget" />
		<tag k="natural" v="hill" />
		<tag k="place" v="locality" />
		<tag k="ssr:stedsnr" v="79189" />
	</node>
	<node id="-153384" lat="61.2792861112" lon="8.88690278042">
		<tag k="name" v="Oledalen" />
		<tag k="natural" v="valley" />
		<tag k="place" v="locality" />
		<tag k="ssr:stedsnr" v="69091" />
	</node>
	<node id="-153371" lat="61.3973999987" lon="8.83633055346">
		<tag k="fixme" v="consider natural=peak for the most distinct mountains in the district" />
		<tag k="name" v="Fisketjernnuten" />
		<tag k="natural" v="hill" />
		<tag k="place" v="locality" />
		<tag k="ssr:stedsnr" v="68159" />
	</node>
	<node id="-153354" lat="61.1935805574" lon="9.13855000583">
		<tag k="alt_name" v="Murkhøvd" />
		<tag k="name" v="Murkhovd" />
		<tag k="natural" v="hill" />
		<tag k="place" v="locality" />
		<tag k="ssr:stedsnr" v="67016" />
	</node>
	<node id="-153347" lat="61.2957527738" lon="8.96220833693">
		<tag k="name" v="Grålandet" />
		<tag k="natural" v="slope" />
		<tag k="place" v="locality" />
		<tag k="ssr:stedsnr" v="56850" />
	</node>
	<node id="-153342" lat="61.1649333358" lon="9.21313333091">
		<tag k="name" v="Gautehaugen" />
		<tag k="natural" v="hill" />
		<tag k="place" v="locality" />
		<tag k="ssr:stedsnr" v="55191" />
	</node>
	<node id="-153336" lat="61.2485638891" lon="8.85613055971">
		<tag k="name" v="Løenghøvda" />
		<tag k="natural" v="hill" />
		<tag k="place" v="locality" />
		<tag k="ssr:stedsnr" v="54824" />
	</node>
	<node id="-153334" lat="61.1958027742" lon="8.99992500827">
		<tag k="name" v="Kjøkberget" />
		<tag k="natural" v="slope" />
		<tag k="place" v="locality" />
		<tag k="ssr:stedsnr" v="54736" />
	</node>
	<node id="-153333" lat="61.1913499982" lon="9.07754166063">
		<tag k="name" v="Vindåskampen" />
		<tag k="natural" v="hill" />
		<tag k="place" v="locality" />
		<tag k="ssr:stedsnr" v="54675" />
	</node>
	<node id="-153331" lat="61.2562916678" lon="8.84230834061">
		<tag k="name" v="Heimstølshøgde" />
		<tag k="natural" v="hill" />
		<tag k="place" v="locality" />
		<tag k="ssr:stedsnr" v="54787" />
	</node>
	<node id="-153329" lat="61.074619442" lon="9.09447777588">
		<tag k="name" v="Hagaberg" />
		<tag k="natural" v="hill" />
		<tag k="place" v="locality" />
		<tag k="ssr:stedsnr" v="54637" />
	</node>
	<node id="-153327" lat="61.1958027762" lon="8.95292777699">
		<tag k="name" v="Nøbbaberget" />
		<tag k="natural" v="hill" />
		<tag k="place" v="locality" />
		<tag k="ssr:stedsnr" v="54614" />
	</node>
	<node id="-153326" lat="61.073624998" lon="9.14071389381">
		<tag k="name" v="Høvshaugen" />
		<tag k="natural" v="hill" />
		<tag k="place" v="locality" />
		<tag k="ssr:stedsnr" v="54565" />
	</node>
	<node id="-153322" lat="61.2010333303" lon="9.08089722185">
		<tag k="name" v="Skørvidn" />
		<tag k="natural" v="slope" />
		<tag k="place" v="locality" />
		<tag k="ssr:stedsnr" v="54669" />
	</node>
	<node id="-153321" lat="61.2313194415" lon="9.11231945209">
		<tag k="fixme" v="consider natural=peak for the most distinct mountains in the district" />
		<tag k="name" v="Heimre Kjølafjellet" />
		<tag k="natural" v="hill" />
		<tag k="ssr:stedsnr" v="54660" />
	</node>
	<node id="-153320" lat="61.1967694412" lon="9.0964805544">
		<tag k="name" v="Erstadslette" />
		<tag k="place" v="locality" />
		<tag k="ssr:stedsnr" v="54655" />
	</node>
	<node id="-153318" lat="61.1506666635" lon="9.38613889603">
		<tag k="alt_name" v="Saurshovd østre" />
		<tag k="name" v="Øystre Saurshovd" />
		<tag k="natural" v="hill" />
		<tag k="place" v="locality" />
		<tag k="ssr:stedsnr" v="54459" />
	</node>
	<node id="-153313" lat="61.152233332" lon="9.04989167256">
		<tag k="name" v="Veslehøvda" />
		<tag k="natural" v="hill" />
		<tag k="place" v="locality" />
		<tag k="ssr:stedsnr" v="54230" />
	</node>
	<node id="-153310" lat="61.1018000001" lon="9.25851110358">
		<tag k="alt_name" v="Store Kalvemellin" />
		<tag k="fixme" v="consider natural=peak for the most distinct mountains in the district" />
		<tag k="name" v="Store Kalvemellen" />
		<tag k="natural" v="hill" />
		<tag k="ssr:stedsnr" v="54200" />
	</node>
	<node id="-153304" lat="61.171080553" lon="9.08012776911">
		<tag k="name" v="Ørnshaugen" />
		<tag k="natural" v="hill" />
		<tag k="place" v="locality" />
		<tag k="ssr:stedsnr" v="54139" />
	</node>
	<node id="-153302" lat="61.127558332" lon="9.24693610197">
		<tag k="alt_name" v="Løyntjedntinden" />
		<tag k="fixme" v="consider natural=peak for the most distinct mountains in the district" />
		<tag k="name" v="Løyntjerntinden" />
		<tag k="natural" v="hill" />
		<tag k="ssr:stedsnr" v="54191" />
	</node>
	<node id="-153298" lat="61.1488777775" lon="9.13891667139">
		<tag k="name" v="Høvdaslette" />
		<tag k="place" v="locality" />
		<tag k="ssr:stedsnr" v="54103" />
	</node>
	<node id="-153296" lat="61.1249833304" lon="9.11994443973">
		<tag k="fixme" v="consider natural=peak for the most distinct mountains in the district" />
		<tag k="name" v="Øverliberge" />
		<tag k="natural" v="hill" />
		<tag k="place" v="locality" />
		<tag k="ssr:stedsnr" v="54089" />
	</node>
	<node id="-153295" lat="61.136025002" lon="9.15357499717">
		<tag k="name" v="Øydestlsberget" />
		<tag k="natural" v="hill" />
		<tag k="place" v="locality" />
		<tag k="ssr:stedsnr" v="54082" />
	</node>
	<node id="-153292" lat="61.3408416643" lon="9.22511111175">
		<tag k="name" v="Styggranden" />
		<tag k="natural" v="hill" />
		<tag k="place" v="locality" />
		<tag k="ssr:stedsnr" v="51628" />
	</node>
	<node id="-153282" lat="61.2650527785" lon="8.93363889313">
		<tag k="alt_name" v="Melbyfjellet" />
		<tag k="fixme" v="consider natural=peak for the most distinct mountains in the district" />
		<tag k="name" v="Melbysfjellet" />
		<tag k="natural" v="hill" />
		<tag k="place" v="locality" />
		<tag k="ssr:stedsnr" v="8106" />
	</node>
	<node id="-153279" lat="61.2815833369" lon="8.90795556416">
		<tag k="alt_name" v="Breiskar" />
		<tag k="name" v="Breidskard" />
		<tag k="natural" v="valley" />
		<tag k="place" v="locality" />
		<tag k="ssr:stedsnr" v="8093" />
	</node>
	<node id="-153278" lat="61.2815499998" lon="8.9197638913">
		<tag k="alt_name" v="Liamarksfjell" />
		<tag k="fixme" v="consider natural=peak for the most distinct mountains in the district" />
		<tag k="name" v="Liamarkfjellet" />
		<tag k="natural" v="hill" />
		<tag k="place" v="locality" />
		<tag k="ssr:stedsnr" v="8091" />
	</node>
	<node id="-153277" lat="61.2804138917" lon="8.93644166657">
		<tag k="alt_name" v="Dragarskar" />
		<tag k="name" v="Dragarskardet" />
		<tag k="natural" v="valley" />
		<tag k="place" v="locality" />
		<tag k="ssr:stedsnr" v="8089" />
	</node>
	<node id="-153276" lat="61.3145166674" lon="8.92108333399">
		<tag k="name" v="Vassklepphøgde" />
		<tag k="natural" v="hill" />
		<tag k="place" v="locality" />
		<tag k="ssr:stedsnr" v="8073" />
	</node>
	<node id="-153271" lat="61.213511107" lon="9.27928332781">
		<tag k="alt_name" v="Etnhøvda" />
		<tag k="name" v="Etnhovda" />
		<tag k="natural" v="hill" />
		<tag k="place" v="locality" />
		<tag k="ssr:stedsnr" v="8000" />
	</node>
	<node id="-153269" lat="61.1447111148" lon="9.29617221875">
		<tag k="name" v="Djupedalshøgde" />
		<tag k="natural" v="hill" />
		<tag k="place" v="locality" />
		<tag k="ssr:stedsnr" v="7957" />
	</node>
	<node id="-153265" lat="61.1068861147" lon="9.25018056266">
		<tag k="alt_name" v="Rundemellin" />
		<tag k="fixme" v="consider natural=peak for the most distinct mountains in the district" />
		<tag k="name" v="Rundemellen" />
		<tag k="natural" v="hill" />
		<tag k="place" v="locality" />
		<tag k="ssr:stedsnr" v="7912" />
	</node>
	<node id="-153264" lat="61.0874694482" lon="9.2481194401">
		<tag k="alt_name" v="Skarvemellin" />
		<tag k="fixme" v="consider natural=peak for the most distinct mountains in the district" />
		<tag k="name" v="Skarvemellen" />
		<tag k="natural" v="hill" />
		<tag k="place" v="locality" />
		<tag k="ssr:stedsnr" v="7899" />
	</node>
	<node id="-153262" lat="61.2093888845" lon="8.98123611865">
		<tag k="alt_name" v="Storberg" />
		<tag k="name" v="Storbergtinden" />
		<tag k="natural" v="hill" />
		<tag k="place" v="locality" />
		<tag k="ssr:stedsnr" v="7473" />
	</node>
	<node id="-153250" lat="61.1316138892" lon="9.14618888563">
		<tag k="alt_name" v="Brendehøvda" />
		<tag k="name" v="Brendehovda" />
		<tag k="natural" v="hill" />
		<tag k="place" v="locality" />
		<tag k="ssr:stedsnr" v="7129" />
	</node>
	<node id="-153248" lat="61.2743527799" lon="9.18457777879">
		<tag k="alt_name" v="Vesle-Skaghøgde" />
		<tag k="loc_name" v="Vesleskagshøgde" />
		<tag k="name" v="Vesleskaghøgde" />
		<tag k="natural" v="hill" />
		<tag k="place" v="locality" />
		<tag k="ssr:stedsnr" v="7098" />
	</node>
	<node id="-153247" lat="61.1605194481" lon="9.18783334116">
		<tag k="name" v="Rennsennberget" />
		<tag k="natural" v="hill" />
		<tag k="place" v="locality" />
		<tag k="ssr:stedsnr" v="7082" />
	</node>
	<node id="-153241" lat="61.1677972253" lon="9.02977777287">
		<tag k="name" v="Heggeberget" />
		<tag k="natural" v="hill" />
		<tag k="place" v="locality" />
		<tag k="ssr:stedsnr" v="7054" />
	</node>
	<node id="-153238" lat="61.1725500016" lon="9.04386944566">
		<tag k="alt_name" v="Engerhøvda" />
		<tag k="name" v="Engehovda" />
		<tag k="natural" v="hill" />
		<tag k="place" v="locality" />
		<tag k="ssr:stedsnr" v="7041" />
	</node>
	<node id="-153224" lat="61.1692555517" lon="9.29526667457">
		<tag k="name" v="Klukkarberget" />
		<tag k="natural" v="hill" />
		<tag k="place" v="locality" />
		<tag k="ssr:stedsnr" v="4463" />
	</node>
	<node id="-153179" lat="61.136033331" lon="9.16014445074">
		<tag k="name" v="Jødnmannbakken" />
		<tag k="natural" v="slope" />
		<tag k="place" v="locality" />
		<tag k="ssr:stedsnr" v="479223" />
	</node>
	<node id="-153176" lat="61.1747500005" lon="9.20301667014">
		<tag k="name" v="Heimre Kalvehaugen" />
		<tag k="natural" v="hill" />
		<tag k="place" v="locality" />
		<tag k="ssr:stedsnr" v="479178" />
	</node>
	<node id="-153173" lat="61.1816166638" lon="9.12082778028">
		<tag k="name" v="Svinetjernhøgde" />
		<tag k="natural" v="hill" />
		<tag k="old_name" v="Svinetjednhøgde" />
		<tag k="place" v="locality" />
		<tag k="ssr:stedsnr" v="479022" />
	</node>
	<node id="-153164" lat="61.2630250019" lon="8.76851388019">
		<tag k="name" v="Vektaholet" />
		<tag k="natural" v="valley" />
		<tag k="place" v="locality" />
		<tag k="ssr:stedsnr" v="478773" />
	</node>
	<node id="-153162" lat="61.2025916712" lon="9.03251111971">
		<tag k="name" v="Fivildmyrdalen" />
		<tag k="natural" v="valley" />
		<tag k="place" v="locality" />
		<tag k="ssr:stedsnr" v="478754" />
	</node>
	<node id="-153161" lat="61.2051722243" lon="9.03498332419">
		<tag k="name" v="Nordtorphøvda" />
		<tag k="natural" v="hill" />
		<tag k="place" v="locality" />
		<tag k="ssr:stedsnr" v="478753" />
	</node>
	<node id="-153153" lat="61.1333555585" lon="9.05062776876">
		<tag k="name" v="Bokhol" />
		<tag k="place" v="locality" />
		<tag k="ssr:stedsnr" v="478452" />
	</node>
	<node id="-153140" lat="61.1742750035" lon="9.02879444506">
		<tag k="name" v="Svartetjernberget" />
		<tag k="natural" v="hill" />
		<tag k="old_name" v="Svartetjednberget" />
		<tag k="place" v="locality" />
		<tag k="ssr:stedsnr" v="478143" />
	</node>
	<node id="-153134" lat="61.1308611093" lon="9.11338054764">
		<tag k="name" v="Købbesetkampen" />
		<tag k="natural" v="hill" />
		<tag k="place" v="locality" />
		<tag k="ssr:stedsnr" v="478077" />
	</node>
	<node id="-153131" lat="61.1336055599" lon="9.40505554917">
		<tag k="name" v="Blåberget" />
		<tag k="natural" v="hill" />
		<tag k="place" v="locality" />
		<tag k="ssr:stedsnr" v="478003" />
	</node>
	<node id="-153117" lat="61.1724027787" lon="9.13375278505">
		<tag k="alt_name" v="Bjødnabakkin" />
		<tag k="name" v="Bjørnabakken" />
		<tag k="natural" v="slope" />
		<tag k="place" v="locality" />
		<tag k="ssr:stedsnr" v="236831" />
	</node>
	<node id="-153116" lat="61.2445444453" lon="8.81746110474">
		<tag k="name" v="Eivindstølberget" />
		<tag k="natural" v="slope" />
		<tag k="place" v="locality" />
		<tag k="ssr:stedsnr" v="236814" />
	</node>
	<node id="-153114" lat="61.2427166653" lon="8.84174167526">
		<tag k="name" v="Grønolsgile" />
		<tag k="natural" v="valley" />
		<tag k="place" v="locality" />
		<tag k="ssr:stedsnr" v="236807" />
	</node>
	<node id="-153113" lat="61.1641972258" lon="8.94335278604">
		<tag k="alt_name" v="Bjelbølsberget" />
		<tag k="name" v="Bjellbølsberget" />
		<tag k="place" v="locality" />
		<tag k="ssr:stedsnr" v="236805" />
	</node>
	<node id="-153108" lat="61.2911222229" lon="9.19986667127">
		<tag k="fixme" v="consider natural=peak for the most distinct mountains in the district" />
		<tag k="loc_name" v="Skagstinden" />
		<tag k="name" v="Skaget" />
		<tag k="natural" v="hill" />
		<tag k="place" v="locality" />
		<tag k="ssr:stedsnr" v="372096" />
	</node>
	<node id="-153106" lat="61.2067888871" lon="9.3286499918">
		<tag k="name" v="Gråeberget" />
		<tag k="natural" v="hill" />
		<tag k="place" v="locality" />
		<tag k="ssr:stedsnr" v="371998" />
	</node>
	<node id="-153099" lat="61.2107361135" lon="8.99889999757">
		<tag k="name" v="Lihalle" />
		<tag k="natural" v="slope" />
		<tag k="place" v="locality" />
		<tag k="ssr:stedsnr" v="371461" />
	</node>
	<node id="-153091" lat="61.2903944473" lon="8.83106943557">
		<tag k="alt_name" v="Båtskardet, s;Søre Båtskaret" />
		<tag k="name" v="Søre Båtskardet" />
		<tag k="natural" v="valley" />
		<tag k="place" v="locality" />
		<tag k="ssr:stedsnr" v="371181" />
	</node>
	<node id="-153089" lat="61.3860277804" lon="8.81646389032">
		<tag k="name" v="Valdresflye" />
		<tag k="natural" v="plateau" />
		<tag k="old_name" v="Valdresflya" />
		<tag k="ssr:stedsnr" v="371156" />
	</node>
	<node id="-153088" lat="61.3969277753" lon="8.74754999392">
		<tag k="name" v="Steindalen" />
		<tag k="natural" v="valley" />
		<tag k="place" v="locality" />
		<tag k="ssr:stedsnr" v="371125" />
	</node>
	<node id="-153087" lat="61.2797750013" lon="9.11885555883">
		<tag k="name" v="Storhamaren" />
		<tag k="natural" v="hill" />
		<tag k="place" v="locality" />
		<tag k="ssr:stedsnr" v="371077" />
	</node>
	<node id="-153082" lat="61.3405888877" lon="8.91512777527">
		<tag k="fixme" v="consider natural=peak for the most distinct mountains in the district" />
		<tag k="name" v="Vesle Nuten" />
		<tag k="natural" v="hill" />
		<tag k="place" v="locality" />
		<tag k="ssr:stedsnr" v="371040" />
	</node>
	<node id="-153081" lat="61.3501138884" lon="9.13897777834">
		<tag k="name" v="Domshaugen" />
		<tag k="natural" v="hill" />
		<tag k="place" v="locality" />
		<tag k="ssr:stedsnr" v="371033" />
	</node>
	<node id="-153079" lat="61.3864027802" lon="9.03954445163">
		<tag k="name" v="Døradalen" />
		<tag k="natural" v="valley" />
		<tag k="place" v="locality" />
		<tag k="ssr:stedsnr" v="371017" />
	</node>
	<node id="-153075" lat="61.2020916674" lon="9.00302776895">
		<tag k="alt_name" v="Møsaberg" />
		<tag k="name" v="Mosaberg" />
		<tag k="natural" v="hill" />
		<tag k="place" v="locality" />
		<tag k="ssr:stedsnr" v="370519" />
	</node>
	<node id="-153069" lat="61.1645916634" lon="9.29607777795">
		<tag k="name" v="Flænadn" />
		<tag k="place" v="locality" />
		<tag k="ssr:stedsnr" v="368509" />
	</node>
	<node id="-153067" lat="61.2474638921" lon="9.07231666693">
		<tag k="fixme" v="multiple name tags, choose one and add the other to alt_name" />
		<tag k="name" v="Brummaknappen;Brummaknatten" />
		<tag k="natural" v="hill" />
		<tag k="old_name" v="Brummeknatten" />
		<tag k="place" v="locality" />
		<tag k="ssr:stedsnr" v="361519" />
	</node>
	<node id="-153061" lat="61.0749472248" lon="9.08316388988">
		<tag k="name" v="Storerøsbugen" />
		<tag k="natural" v="slope" />
		<tag k="place" v="locality" />
		<tag k="ssr:stedsnr" v="358657" />
	</node>
	<node id="-153060" lat="61.1998388892" lon="9.27942221318">
		<tag k="name" v="Høge berget" />
		<tag k="natural" v="hill" />
		<tag k="place" v="locality" />
		<tag k="ssr:stedsnr" v="358494" />
	</node>
	<node id="-153058" lat="61.1556222186" lon="9.39171944943">
		<tag k="name" v="Kampadn" />
		<tag k="natural" v="hill" />
		<tag k="place" v="locality" />
		<tag k="ssr:stedsnr" v="358439" />
	</node>
	<node id="-153057" lat="61.157997221" lon="9.38116944164">
		<tag k="name" v="Lokkarkampen" />
		<tag k="natural" v="hill" />
		<tag k="place" v="locality" />
		<tag k="ssr:stedsnr" v="358436" />
	</node>
	<node id="-153056" lat="61.2190249963" lon="9.31826666451">
		<tag k="name" v="Venelie" />
		<tag k="natural" v="slope" />
		<tag k="place" v="locality" />
		<tag k="ssr:stedsnr" v="358409" />
	</node>
	<node id="-153051" lat="61.1866694419" lon="9.10919444886">
		<tag k="name" v="Grøne Bakka" />
		<tag k="natural" v="slope" />
		<tag k="place" v="locality" />
		<tag k="ssr:stedsnr" v="358036" />
	</node>
	<node id="-153050" lat="61.1702111073" lon="9.15512500066">
		<tag k="name" v="Rolistølshøgde" />
		<tag k="natural" v="hill" />
		<tag k="place" v="locality" />
		<tag k="ssr:stedsnr" v="358022" />
	</node>
	<node id="-153048" lat="61.1726916648" lon="8.91302499823">
		<tag k="fixme" v="consider natural=peak for the most distinct mountains in the district" />
		<tag k="name" v="Røyneshøvda" />
		<tag k="natural" v="hill" />
		<tag k="place" v="locality" />
		<tag k="ssr:stedsnr" v="357950" />
	</node>
	<node id="-153044" lat="61.2783138924" lon="8.7662361043">
		<tag k="name" v="Skorberget" />
		<tag k="natural" v="hill" />
		<tag k="place" v="locality" />
		<tag k="ssr:stedsnr" v="357916" />
	</node>
	<node id="-153039" lat="61.1586472183" lon="8.96801667001">
		<tag k="name" v="Kristaførslette" />
		<tag k="place" v="locality" />
		<tag k="ssr:stedsnr" v="357809" />
	</node>
	<node id="-153038" lat="61.2461916697" lon="8.85941110189">
		<tag k="name" v="Beitokøllen" />
		<tag k="natural" v="hill" />
		<tag k="place" v="locality" />
		<tag k="ssr:stedsnr" v="357805" />
	</node>
	<node id="-153032" lat="61.2041611142" lon="8.92993610541">
		<tag k="fixme" v="consider natural=peak for the most distinct mountains in the district" />
		<tag k="name" v="Høgehaugen" />
		<tag k="natural" v="hill" />
		<tag k="place" v="locality" />
		<tag k="ssr:stedsnr" v="357578" />
	</node>
	<node id="-153031" lat="61.2610749969" lon="8.89571110693">
		<tag k="fixme" v="consider natural=peak for the most distinct mountains in the district" />
		<tag k="name" v="Nørdre Knausen" />
		<tag k="natural" v="hill" />
		<tag k="ssr:stedsnr" v="357566" />
	</node>
	<node id="-153030" lat="61.0722444477" lon="9.14662778404">
		<tag k="name" v="Høvshaugen" />
		<tag k="natural" v="hill" />
		<tag k="place" v="locality" />
		<tag k="ssr:stedsnr" v="357525" />
	</node>
	<node id="-153024" lat="61.1081250024" lon="9.13415000708">
		<tag k="name" v="Aurbakkin" />
		<tag k="natural" v="slope" />
		<tag k="place" v="locality" />
		<tag k="ssr:stedsnr" v="357411" />
	</node>
	<node id="-153022" lat="61.1074777749" lon="9.12740277009">
		<tag k="name" v="Synberg" />
		<tag k="natural" v="hill" />
		<tag k="place" v="locality" />
		<tag k="ssr:stedsnr" v="357398" />
	</node>
	<node id="-153014" lat="61.0838138928" lon="9.18887777808">
		<tag k="name" v="Torkjilsbakke" />
		<tag k="natural" v="slope" />
		<tag k="place" v="locality" />
		<tag k="ssr:stedsnr" v="357226" />
	</node>
	<node id="-153008" lat="61.1158055577" lon="9.1192861035">
		<tag k="name" v="Mandirsenbakkin" />
		<tag k="natural" v="slope" />
		<tag k="place" v="locality" />
		<tag k="ssr:stedsnr" v="357081" />
	</node>
	<node id="-152993" lat="61.1198611138" lon="9.28705555113">
		<tag k="fixme" v="consider natural=peak for the most distinct mountains in the district" />
		<tag k="name" v="Kjølafjellet" />
		<tag k="natural" v="hill" />
		<tag k="place" v="locality" />
		<tag k="ssr:stedsnr" v="311523" />
	</node>
	<node id="-152990" lat="61.2787000012" lon="8.83057499303">
		<tag k="alt_name" v="Smørkøllen" />
		<tag k="name" v="Smørkollen" />
		<tag k="natural" v="hill" />
		<tag k="place" v="locality" />
		<tag k="ssr:stedsnr" v="311241" />
	</node>
	<node id="-152980" lat="61.2891388883" lon="9.15804167476">
		<tag k="name" v="Skagstrøne" />
		<tag k="place" v="locality" />
		<tag k="ssr:stedsnr" v="311085" />
	</node>
	<node id="-152978" lat="61.3350027781" lon="9.12373610213">
		<tag k="name" v="Perstjernhøgde" />
		<tag k="natural" v="hill" />
		<tag k="place" v="locality" />
		<tag k="ssr:stedsnr" v="311070" />
	</node>
	<node id="-152975" lat="61.3408333345" lon="8.96003611043">
		<tag k="fixme" v="consider natural=peak for the most distinct mountains in the district" />
		<tag k="name" v="Urekkollen" />
		<tag k="natural" v="hill" />
		<tag k="place" v="locality" />
		<tag k="ssr:stedsnr" v="311062" />
	</node>
	<node id="-152973" lat="61.3689888916" lon="8.90914444599">
		<tag k="fixme" v="consider natural=peak for the most distinct mountains in the district" />
		<tag k="name" v="Nørdre Gluptinden" />
		<tag k="natural" v="hill" />
		<tag k="place" v="locality" />
		<tag k="ssr:stedsnr" v="311038" />
	</node>
	<node id="-152971" lat="61.4337499999" lon="8.87285000237">
		<tag k="name" v="Storkvolven" />
		<tag k="natural" v="slope" />
		<tag k="place" v="locality" />
		<tag k="ssr:stedsnr" v="311008" />
	</node>
	<node id="-152968" lat="61.2050916654" lon="9.40934443988">
		<tag k="name" v="Olægerhøgde" />
		<tag k="natural" v="hill" />
		<tag k="place" v="locality" />
		<tag k="ssr:stedsnr" v="310971" />
	</node>
	<node id="-152967" lat="61.211550002" lon="9.35729443604">
		<tag k="name" v="Myrebærhammaren" />
		<tag k="natural" v="hill" />
		<tag k="place" v="locality" />
		<tag k="ssr:stedsnr" v="310969" />
	</node>
	<node id="-152966" lat="61.1848888862" lon="9.2528277776">
		<tag k="name" v="Synhaughøgde" />
		<tag k="natural" v="hill" />
		<tag k="place" v="locality" />
		<tag k="ssr:stedsnr" v="310942" />
	</node>
	<node id="-152958" lat="61.2405861156" lon="9.02325000592">
		<tag k="name" v="Javnlie" />
		<tag k="natural" v="slope" />
		<tag k="place" v="locality" />
		<tag k="ssr:stedsnr" v="310473" />
	</node>
	<node id="-152938" lat="61.1773250009" lon="9.15104444509">
		<tag k="alt_name" v="Lomtjednhaugen" />
		<tag k="name" v="Lomtjernhaugen" />
		<tag k="natural" v="hill" />
		<tag k="place" v="locality" />
		<tag k="ssr:stedsnr" v="310046" />
	</node>
	<node id="-152933" lat="61.1896416688" lon="9.07947500188">
		<tag k="fixme" v="consider natural=peak for the most distinct mountains in the district" />
		<tag k="name" v="Vindåsen" />
		<tag k="natural" v="hill" />
		<tag k="place" v="locality" />
		<tag k="ssr:stedsnr" v="310009" />
	</node>
	<node id="-152931" lat="61.190072225" lon="9.23351666931">
		<tag k="name" v="Stordokke" />
		<tag k="place" v="locality" />
		<tag k="ssr:stedsnr" v="309511" />
	</node>
	<node id="-152927" lat="61.3258999979" lon="9.03330834033">
		<tag k="name" v="Skindrosynet" />
		<tag k="natural" v="hill" />
		<tag k="place" v="locality" />
		<tag k="ssr:stedsnr" v="301652" />
	</node>
	<node id="-152926" lat="61.1878305598" lon="8.94115000273">
		<tag k="alt_name" v="Melbyhøvda;Melbyshøvda" />
		<tag k="fixme" v="multiple name tags, choose one and add the other to alt_name" />
		<tag k="loc_name" v="Melbyhovda" />
		<tag k="name" v="Melbyhøgde;Melbyshovda" />
		<tag k="natural" v="hill" />
		<tag k="place" v="locality" />
		<tag k="ssr:stedsnr" v="301018" />
	</node>
	<node id="-152916" lat="61.261963888" lon="8.97362500058">
		<tag k="name" v="Myrebærreina" />
		<tag k="natural" v="slope" />
		<tag k="place" v="locality" />
		<tag k="ssr:stedsnr" v="297933" />
	</node>
	<node id="-152914" lat="61.200002775" lon="9.14939443858">
		<tag k="name" v="Flænadn" />
		<tag k="place" v="locality" />
		<tag k="ssr:stedsnr" v="297738" />
	</node>
	<node id="-152904" lat="61.0866111125" lon="9.16450277613">
		<tag k="name" v="Skreo" />
		<tag k="natural" v="slope" />
		<tag k="place" v="locality" />
		<tag k="ssr:stedsnr" v="297237" />
	</node>
	<node id="-152900" lat="61.1180805563" lon="9.21228334244">
		<tag k="name" v="Djupedalen" />
		<tag k="natural" v="valley" />
		<tag k="place" v="locality" />
		<tag k="ssr:stedsnr" v="297223" />
	</node>
	<node id="-152896" lat="61.1556388858" lon="9.2063888861">
		<tag k="fixme" v="consider natural=peak for the most distinct mountains in the district" />
		<tag k="name" v="Vangsjøberget" />
		<tag k="natural" v="hill" />
		<tag k="place" v="locality" />
		<tag k="ssr:stedsnr" v="297212" />
	</node>
	<node id="-152894" lat="61.1535222241" lon="9.13016944437">
		<tag k="name" v="Karusmoen" />
		<tag k="place" v="locality" />
		<tag k="ssr:stedsnr" v="297132" />
	</node>
	<node id="-152889" lat="61.1784000024" lon="9.11004722075">
		<tag k="name" v="Sandbakkadn" />
		<tag k="natural" v="slope" />
		<tag k="place" v="locality" />
		<tag k="ssr:stedsnr" v="297035" />
	</node>
	<node id="-152888" lat="61.2059722245" lon="8.95450555801">
		<tag k="name" v="Skateberget" />
		<tag k="natural" v="hill" />
		<tag k="place" v="locality" />
		<tag k="ssr:stedsnr" v="296921" />
	</node>
	<node id="-152879" lat="61.1690277753" lon="9.31432499218">
		<tag k="name" v="Blåe berget" />
		<tag k="natural" v="hill" />
		<tag k="place" v="locality" />
		<tag k="ssr:stedsnr" v="296437" />
	</node>
	<node id="-152878" lat="61.171605553" lon="9.30579444553">
		<tag k="name" v="Langeberg" />
		<tag k="natural" v="hill" />
		<tag k="place" v="locality" />
		<tag k="ssr:stedsnr" v="296438" />
	</node>
	<node id="-152875" lat="61.1362638878" lon="9.03723334081">
		<tag k="fixme" v="consider natural=peak for the most distinct mountains in the district" />
		<tag k="name" v="Sanneshøvda" />
		<tag k="natural" v="hill" />
		<tag k="place" v="locality" />
		<tag k="ssr:stedsnr" v="296418" />
	</node>
	<node id="-152866" lat="61.1501000004" lon="9.22281111453">
		<tag k="name" v="Flinteberg" />
		<tag k="natural" v="hill" />
		<tag k="place" v="locality" />
		<tag k="ssr:stedsnr" v="296147" />
	</node>
	<node id="-152864" lat="61.167780559" lon="9.03380832787">
		<tag k="name" v="Hagaberg" />
		<tag k="place" v="locality" />
		<tag k="ssr:stedsnr" v="296124" />
	</node>
	<node id="-152863" lat="61.1744083298" lon="9.07512777284">
		<tag k="name" v="Bustebakkmoen" />
		<tag k="place" v="locality" />
		<tag k="ssr:stedsnr" v="296107" />
	</node>
	<node id="-152862" lat="61.1272361097" lon="9.12968332725">
		<tag k="name" v="Søre Skrikketjernknatten" />
		<tag k="natural" v="hill" />
		<tag k="old_name" v="Søre Skrikketjednknatten" />
		<tag k="place" v="locality" />
		<tag k="ssr:stedsnr" v="296077" />
	</node>
	<node id="-154838" lat="61.341527774" lon="8.8613555564">
		<tag k="name" v="Svartehamarn" />
		<tag k="place" v="locality" />
		<tag k="ssr:stedsnr" v="966149" />
	</node>
	<node id="-154837" lat="61.3155555541" lon="8.93101665963">
		<tag k="name" v="Synet" />
		<tag k="natural" v="hill" />
		<tag k="place" v="locality" />
		<tag k="ssr:stedsnr" v="966125" />
	</node>
	<node id="-154836" lat="61.1746249988" lon="8.95856945056">
		<tag k="name" v="Hagahaugen" />
		<tag k="natural" v="hill" />
		<tag k="place" v="locality" />
		<tag k="ssr:stedsnr" v="964968" />
	</node>
	<node id="-154828" lat="61.2304666625" lon="8.96021388536">
		<tag k="name" v="Åsendin" />
		<tag k="natural" v="slope" />
		<tag k="place" v="locality" />
		<tag k="ssr:stedsnr" v="964916" />
	</node>
	<node id="-154827" lat="61.2099611072" lon="8.92004444932">
		<tag k="name" v="Okshovdkampen" />
		<tag k="natural" v="hill" />
		<tag k="place" v="locality" />
		<tag k="ssr:stedsnr" v="964915" />
	</node>
	<node id="-154822" lat="61.2333027787" lon="8.92518610877">
		<tag k="name" v="Bamselie" />
		<tag k="natural" v="slope" />
		<tag k="place" v="locality" />
		<tag k="ssr:stedsnr" v="964871" />
	</node>
	<node id="-154821" lat="61.1118083359" lon="9.01269444419">
		<tag k="name" v="Lurvehøvd" />
		<tag k="natural" v="hill" />
		<tag k="place" v="locality" />
		<tag k="ssr:stedsnr" v="964802" />
	</node>
	<node id="-154819" lat="61.2044527775" lon="9.14944722451">
		<tag k="name" v="Gravfjellstølhøgde" />
		<tag k="natural" v="hill" />
		<tag k="place" v="locality" />
		<tag k="ssr:stedsnr" v="964718" />
	</node>
	<node id="-154818" lat="61.1964416702" lon="8.98403334054">
		<tag k="name" v="Skulehusberget" />
		<tag k="natural" v="hill" />
		<tag k="place" v="locality" />
		<tag k="ssr:stedsnr" v="964714" />
	</node>
	<node id="-154817" lat="61.1951527778" lon="8.99745556132">
		<tag k="name" v="Perslettgile" />
		<tag k="natural" v="slope" />
		<tag k="place" v="locality" />
		<tag k="ssr:stedsnr" v="964711" />
	</node>
	<node id="-154816" lat="61.2176833356" lon="9.01184721678">
		<tag k="alt_name" v="Svartetjednhøgde" />
		<tag k="name" v="Svartetjernhøgde" />
		<tag k="natural" v="hill" />
		<tag k="place" v="locality" />
		<tag k="ssr:stedsnr" v="964669" />
	</node>
	<node id="-154814" lat="61.1986250011" lon="9.09536943776">
		<tag k="name" v="Lange Haugen" />
		<tag k="natural" v="hill" />
		<tag k="place" v="locality" />
		<tag k="ssr:stedsnr" v="964630" />
	</node>
	<node id="-154810" lat="61.1378166685" lon="9.0775833426">
		<tag k="fixme" v="consider natural=peak for the most distinct mountains in the district" />
		<tag k="name" v="Haughøvdhovda" />
		<tag k="natural" v="hill" />
		<tag k="place" v="locality" />
		<tag k="ssr:stedsnr" v="964470" />
	</node>
	<node id="-154808" lat="61.1143833355" lon="9.12669166134">
		<tag k="name" v="Bleikeberg" />
		<tag k="natural" v="hill" />
		<tag k="place" v="locality" />
		<tag k="ssr:stedsnr" v="964437" />
	</node>
	<node id="-154799" lat="61.0893194421" lon="9.06307223015">
		<tag k="name" v="Røssletta" />
		<tag k="place" v="locality" />
		<tag k="ssr:stedsnr" v="964332" />
	</node>
	<node id="-154798" lat="61.1216250042" lon="9.08663611677">
		<tag k="name" v="Svinelibrøtin" />
		<tag k="natural" v="slope" />
		<tag k="place" v="locality" />
		<tag k="ssr:stedsnr" v="964325" />
	</node>
	<node id="-154795" lat="61.0902861119" lon="9.17767777652">
		<tag k="name" v="Ørnehjellidn" />
		<tag k="natural" v="slope" />
		<tag k="place" v="locality" />
		<tag k="ssr:stedsnr" v="964265" />
	</node>
	<node id="-154786" lat="61.1509444401" lon="9.25865555915">
		<tag k="name" v="Lauvhøvd" />
		<tag k="natural" v="hill" />
		<tag k="place" v="locality" />
		<tag k="ssr:stedsnr" v="964223" />
	</node>
	<node id="-154785" lat="61.1453888913" lon="9.25867222363">
		<tag k="name" v="Dugardshaugen" />
		<tag k="natural" v="hill" />
		<tag k="place" v="locality" />
		<tag k="ssr:stedsnr" v="964221" />
	</node>
	<node id="-154782" lat="61.1773999998" lon="8.98776389433">
		<tag k="name" v="Langebakken" />
		<tag k="natural" v="slope" />
		<tag k="place" v="locality" />
		<tag k="ssr:stedsnr" v="964175" />
	</node>
	<node id="-154776" lat="61.0642638901" lon="9.21907222395">
		<tag k="name" v="Rosåsen" />
		<tag k="natural" v="hill" />
		<tag k="place" v="locality" />
		<tag k="ssr:stedsnr" v="964098" />
	</node>
	<node id="-154774" lat="61.1245083337" lon="9.11314167122">
		<tag k="name" v="Bekkjedalen" />
		<tag k="natural" v="valley" />
		<tag k="place" v="locality" />
		<tag k="ssr:stedsnr" v="964082" />
	</node>
	<node id="-154773" lat="61.1790694475" lon="9.13407778315">
		<tag k="name" v="Fleinskallen" />
		<tag k="natural" v="hill" />
		<tag k="place" v="locality" />
		<tag k="ssr:stedsnr" v="964031" />
	</node>
	<node id="-154772" lat="61.1714861075" lon="9.11050277583">
		<tag k="name" v="Grytebekkdalen" />
		<tag k="natural" v="valley" />
		<tag k="place" v="locality" />
		<tag k="ssr:stedsnr" v="964021" />
	</node>
	<node id="-154771" lat="61.1252722209" lon="9.4072166622">
		<tag k="name" v="Bleikefethaugen" />
		<tag k="natural" v="hill" />
		<tag k="place" v="locality" />
		<tag k="ssr:stedsnr" v="964007" />
	</node>
	<node id="-154753" lat="61.2890944489" lon="8.81290554778">
		<tag k="alt_name" v="Båtskardet, nordre;Båtskaret" />
		<tag k="name" v="Nørdre Båtskardet" />
		<tag k="natural" v="valley" />
		<tag k="place" v="locality" />
		<tag k="ssr:stedsnr" v="918223" />
	</node>
	<node id="-154751" lat="61.2625222265" lon="8.89300278485">
		<tag k="name" v="Knausehøgde" />
		<tag k="natural" v="hill" />
		<tag k="place" v="locality" />
		<tag k="ssr:stedsnr" v="918101" />
	</node>
	<node id="-154750" lat="61.2853027784" lon="8.9635833241">
		<tag k="fixme" v="consider natural=peak for the most distinct mountains in the district" />
		<tag k="name" v="Olefjellet" />
		<tag k="natural" v="hill" />
		<tag k="place" v="locality" />
		<tag k="ssr:stedsnr" v="918083" />
	</node>
	<node id="-154749" lat="61.2864749997" lon="8.84761945228">
		<tag k="alt_name" v="Oledalsbrynadn" />
		<tag k="name" v="Oledalsbrynane" />
		<tag k="natural" v="hill" />
		<tag k="place" v="locality" />
		<tag k="ssr:stedsnr" v="918078" />
	</node>
	<node id="-154748" lat="61.2906638912" lon="9.1398333325">
		<tag k="alt_name" v="Svarthamartinden" />
		<tag k="fixme" v="consider natural=peak for the most distinct mountains in the district" />
		<tag k="name" v="Svarthamaren" />
		<tag k="natural" v="hill" />
		<tag k="place" v="locality" />
		<tag k="ssr:stedsnr" v="918075" />
	</node>
	<node id="-154742" lat="61.3596000025" lon="8.97443056482">
		<tag k="fixme" v="consider natural=peak for the most distinct mountains in the district" />
		<tag k="name" v="Malmkollen" />
		<tag k="natural" v="hill" />
		<tag k="place" v="locality" />
		<tag k="ssr:stedsnr" v="918030" />
	</node>
	<node id="-154738" lat="61.2349972228" lon="9.25734999888">
		<tag k="name" v="Gamlestølberget" />
		<tag k="natural" v="hill" />
		<tag k="place" v="locality" />
		<tag k="ssr:stedsnr" v="917986" />
	</node>
	<node id="-154736" lat="61.213399996" lon="9.40020277607">
		<tag k="fixme" v="consider natural=peak for the most distinct mountains in the district" />
		<tag k="name" v="Sælifjellet" />
		<tag k="natural" v="hill" />
		<tag k="place" v="locality" />
		<tag k="ssr:stedsnr" v="917970" />
	</node>
	<node id="-154735" lat="61.2128833335" lon="9.38226944292">
		<tag k="name" v="Finnetjernhøgde" />
		<tag k="natural" v="hill" />
		<tag k="place" v="locality" />
		<tag k="ssr:stedsnr" v="917969" />
	</node>
	<node id="-154733" lat="61.1533111079" lon="9.39747778669">
		<tag k="name" v="Etnlikampen" />
		<tag k="natural" v="hill" />
		<tag k="place" v="locality" />
		<tag k="ssr:stedsnr" v="917943" />
	</node>
	<node id="-154721" lat="61.1004750013" lon="9.19165277878">
		<tag k="alt_name" v="Rognlifjellet;Røgnslifjellet" />
		<tag k="fixme" v="consider natural=peak for the most distinct mountains in the district" />
		<tag k="name" v="Rognslifjellet" />
		<tag k="natural" v="hill" />
		<tag k="place" v="locality" />
		<tag k="ssr:stedsnr" v="917160" />
	</node>
	<node id="-154714" lat="61.3870249969" lon="8.74023332646">
		<tag k="fixme" v="consider natural=peak for the most distinct mountains in the district" />
		<tag k="name" v="Raslet" />
		<tag k="natural" v="hill" />
		<tag k="place" v="locality" />
		<tag k="ssr:stedsnr" v="917117" />
	</node>
	<node id="-154692" lat="61.340316666" lon="8.8642972265">
		<tag k="name" v="Kvannegrøberget" />
		<tag k="natural" v="slope" />
		<tag k="place" v="locality" />
		<tag k="ssr:stedsnr" v="906139" />
	</node>
	<node id="-154691" lat="61.3234722201" lon="8.92890556285">
		<tag k="name" v="Grautebukkhaugen" />
		<tag k="natural" v="hill" />
		<tag k="place" v="locality" />
		<tag k="ssr:stedsnr" v="906111" />
	</node>
	<node id="-154688" lat="61.2648722248" lon="8.83656110918">
		<tag k="name" v="Brimbakke" />
		<tag k="natural" v="slope" />
		<tag k="place" v="locality" />
		<tag k="ssr:stedsnr" v="904784" />
	</node>
	<node id="-154686" lat="61.198358334" lon="9.20489166186">
		<tag k="name" v="Nørdre Synhaugen" />
		<tag k="natural" v="hill" />
		<tag k="place" v="locality" />
		<tag k="ssr:stedsnr" v="904726" />
	</node>
	<node id="-154684" lat="61.2295249988" lon="9.04542500875">
		<tag k="name" v="Synberg" />
		<tag k="natural" v="hill" />
		<tag k="place" v="locality" />
		<tag k="ssr:stedsnr" v="904638" />
	</node>
	<node id="-154677" lat="61.1153249969" lon="9.07420000711">
		<tag k="name" v="Onstadsletta" />
		<tag k="place" v="locality" />
		<tag k="ssr:stedsnr" v="904304" />
	</node>
	<node id="-154671" lat="61.1246166697" lon="9.19239445094">
		<tag k="name" v="Milehøvda" />
		<tag k="natural" v="hill" />
		<tag k="place" v="locality" />
		<tag k="ssr:stedsnr" v="904219" />
	</node>
	<node id="-154663" lat="61.1696499958" lon="8.96994444354">
		<tag k="name" v="Finshaug" />
		<tag k="natural" v="hill" />
		<tag k="place" v="locality" />
		<tag k="ssr:stedsnr" v="903980" />
	</node>
	<node id="-154658" lat="61.2150472253" lon="8.962686109">
		<tag k="name" v="Snoroberget" />
		<tag k="natural" v="hill" />
		<tag k="place" v="locality" />
		<tag k="ssr:stedsnr" v="903945" />
	</node>
	<node id="-154653" lat="61.1987444404" lon="9.00076111328">
		<tag k="name" v="Snoroberg" />
		<tag k="natural" v="hill" />
		<tag k="place" v="locality" />
		<tag k="ssr:stedsnr" v="903731" />
	</node>
	<node id="-154641" lat="61.1207750031" lon="9.01843610507">
		<tag k="fixme" v="consider natural=peak for the most distinct mountains in the district" />
		<tag k="name" v="Jørstadhøvda" />
		<tag k="natural" v="hill" />
		<tag k="place" v="locality" />
		<tag k="ssr:stedsnr" v="903365" />
	</node>
	<node id="-154633" lat="61.1176583303" lon="9.12545278254">
		<tag k="name" v="Skratarhølet" />
		<tag k="natural" v="valley" />
		<tag k="place" v="locality" />
		<tag k="ssr:stedsnr" v="903065" />
	</node>
	<node id="-154631" lat="61.2475361156" lon="9.25247500544">
		<tag k="name" v="Synhaugen" />
		<tag k="natural" v="hill" />
		<tag k="place" v="locality" />
		<tag k="ssr:stedsnr" v="874463" />
	</node>
	<node id="-154628" lat="61.2601416647" lon="9.08925555805">
		<tag k="alt_name" v="Skredalshøgde" />
		<tag k="loc_name" v="Skreddalshøgde" />
		<tag k="name" v="Skreddølshøgde" />
		<tag k="natural" v="hill" />
		<tag k="place" v="locality" />
		<tag k="ssr:stedsnr" v="858097" />
	</node>
	<node id="-154626" lat="61.3103083347" lon="9.14793054936">
		<tag k="name" v="Sandbrotet" />
		<tag k="natural" v="slope" />
		<tag k="place" v="locality" />
		<tag k="ssr:stedsnr" v="858077" />
	</node>
	<node id="-154621" lat="61.192580555" lon="9.25763332414">
		<tag k="name" v="Synhaugen" />
		<tag k="natural" v="hill" />
		<tag k="place" v="locality" />
		<tag k="ssr:stedsnr" v="857978" />
	</node>
	<node id="-154618" lat="61.1519638912" lon="9.35713889554">
		<tag k="name" v="Saurshøgde" />
		<tag k="natural" v="hill" />
		<tag k="place" v="locality" />
		<tag k="ssr:stedsnr" v="857934" />
	</node>
	<node id="-154615" lat="61.2380944452" lon="8.83049166375">
		<tag k="alt_name" v="Grønolhøvda" />
		<tag k="fixme" v="consider natural=peak for the most distinct mountains in the district" />
		<tag k="name" v="Grønolhovda" />
		<tag k="natural" v="hill" />
		<tag k="place" v="locality" />
		<tag k="ssr:stedsnr" v="857767" />
	</node>
	<node id="-154604" lat="61.3763749992" lon="8.80502499803">
		<tag k="fixme" v="consider natural=peak for the most distinct mountains in the district" />
		<tag k="name" v="Raudesteinen" />
		<tag k="natural" v="hill" />
		<tag k="place" v="locality" />
		<tag k="ssr:stedsnr" v="857158" />
	</node>
	<node id="-154596" lat="61.3770888851" lon="9.00560833467">
		<tag k="name" v="Steinflye" />
		<tag k="place" v="locality" />
		<tag k="ssr:stedsnr" v="857028" />
	</node>
	<node id="-154584" lat="61.1462527745" lon="9.16774443809">
		<tag k="fixme" v="consider natural=peak for the most distinct mountains in the district" />
		<tag k="name" v="Luskaråsen" />
		<tag k="natural" v="hill" />
		<tag k="place" v="locality" />
		<tag k="ssr:stedsnr" v="856085" />
	</node>
	<node id="-154573" lat="61.3098527748" lon="8.93089721813">
		<tag k="name" v="Dyrberg" />
		<tag k="natural" v="hill" />
		<tag k="place" v="locality" />
		<tag k="ssr:stedsnr" v="846117" />
	</node>
	<node id="-154568" lat="61.1747777787" lon="8.96502222114">
		<tag k="name" v="Dalaberget" />
		<tag k="natural" v="hill" />
		<tag k="place" v="locality" />
		<tag k="ssr:stedsnr" v="843964" />
	</node>
	<node id="-154567" lat="61.173758337" lon="8.97470555201">
		<tag k="name" v="Køllberget" />
		<tag k="natural" v="hill" />
		<tag k="place" v="locality" />
		<tag k="ssr:stedsnr" v="843962" />
	</node>
	<node id="-154562" lat="61.1618194413" lon="8.96933611986">
		<tag k="name" v="Brennudn" />
		<tag k="natural" v="hill" />
		<tag k="place" v="locality" />
		<tag k="ssr:stedsnr" v="843839" />
	</node>
	<node id="-154561" lat="61.2508944415" lon="8.85160277895">
		<tag k="name" v="Stakkestøhøgda" />
		<tag k="natural" v="hill" />
		<tag k="place" v="locality" />
		<tag k="ssr:stedsnr" v="843835" />
	</node>
	<node id="-154556" lat="61.1981777815" lon="9.10387777363">
		<tag k="name" v="Embertslette" />
		<tag k="place" v="locality" />
		<tag k="ssr:stedsnr" v="843756" />
	</node>
	<node id="-154552" lat="61.1940916625" lon="8.95228332596">
		<tag k="name" v="Nøbbagilet" />
		<tag k="natural" v="gorge" />
		<tag k="ssr:stedsnr" v="843626" />
	</node>
	<node id="-154547" lat="61.1275555543" lon="9.0847444401">
		<tag k="name" v="Geitryggen" />
		<tag k="place" v="locality" />
		<tag k="ssr:stedsnr" v="843462" />
	</node>
	<node id="-154546" lat="61.131597218" lon="9.07904443976">
		<tag k="name" v="Herangsbakkadn" />
		<tag k="natural" v="slope" />
		<tag k="place" v="locality" />
		<tag k="ssr:stedsnr" v="843458" />
	</node>
	<node id="-154544" lat="61.1044250036" lon="9.13267221797">
		<tag k="name" v="Hanakneet" />
		<tag k="place" v="locality" />
		<tag k="ssr:stedsnr" v="843415" />
	</node>
	<node id="-154541" lat="61.144972219" lon="9.18639444485">
		<tag k="name" v="Grønegile" />
		<tag k="natural" v="valley" />
		<tag k="place" v="locality" />
		<tag k="ssr:stedsnr" v="843356" />
	</node>
	<node id="-154540" lat="61.2525361123" lon="9.41900832724">
		<tag k="fixme" v="consider natural=peak for the most distinct mountains in the district" />
		<tag k="name" v="Fjelldokkfjellet" />
		<tag k="natural" v="hill" />
		<tag k="place" v="locality" />
		<tag k="ssr:stedsnr" v="843354" />
	</node>
	<node id="-154536" lat="61.1506527785" lon="9.05873332807">
		<tag k="name" v="Haugehøvda" />
		<tag k="natural" v="hill" />
		<tag k="place" v="locality" />
		<tag k="ssr:stedsnr" v="843236" />
	</node>
	<node id="-154534" lat="61.2829638882" lon="8.84476388316">
		<tag k="fixme" v="consider natural=peak for the most distinct mountains in the district" />
		<tag k="name" v="Heklefjellet" />
		<tag k="natural" v="hill" />
		<tag k="place" v="locality" />
		<tag k="ssr:stedsnr" v="843222" />
	</node>
	<node id="-154530" lat="61.1574361109" lon="9.20045555957">
		<tag k="name" v="Rennsennskaret" />
		<tag k="natural" v="valley" />
		<tag k="place" v="locality" />
		<tag k="ssr:stedsnr" v="843192" />
	</node>
	<node id="-154528" lat="61.1675111129" lon="9.23757777209">
		<tag k="name" v="Sinderhaugen" />
		<tag k="natural" v="hill" />
		<tag k="place" v="locality" />
		<tag k="ssr:stedsnr" v="843179" />
	</node>
	<node id="-154519" lat="61.1181861107" lon="9.12898888307">
		<tag k="name" v="Gaukeberg" />
		<tag k="natural" v="hill" />
		<tag k="place" v="locality" />
		<tag k="ssr:stedsnr" v="843074" />
	</node>
	<node id="-154518" lat="61.1762583338" lon="9.13430832787">
		<tag k="name" v="Veslestølshøvda" />
		<tag k="natural" v="hill" />
		<tag k="place" v="locality" />
		<tag k="ssr:stedsnr" v="843021" />
	</node>
	<node id="-154501" lat="61.1657999979" lon="9.25945555396">
		<tag k="name" v="Langeletthaugen" />
		<tag k="natural" v="hill" />
		<tag k="place" v="locality" />
		<tag k="ssr:stedsnr" v="810474" />
	</node>
	<node id="-154490" lat="61.2081055597" lon="9.44080000298">
		<tag k="name" v="Flylægerlie" />
		<tag k="natural" v="slope" />
		<tag k="place" v="locality" />
		<tag k="ssr:stedsnr" v="796972" />
	</node>
	<node id="-154487" lat="61.1354388909" lon="9.39436944905">
		<tag k="name" v="Tansberghøgde" />
		<tag k="natural" v="hill" />
		<tag k="place" v="locality" />
		<tag k="ssr:stedsnr" v="796929" />
	</node>
	<node id="-154470" lat="61.4286083299" lon="8.80790277538">
		<tag k="name" v="Heimdalsmunnen" />
		<tag k="natural" v="valley" />
		<tag k="place" v="locality" />
		<tag k="ssr:stedsnr" v="796132" />
	</node>
	<node id="-154465" lat="61.1282861109" lon="9.06738332737">
		<tag k="alt_name" v="Løkjeshøvda" />
		<tag k="name" v="Løkjeshovda" />
		<tag k="natural" v="hill" />
		<tag k="place" v="locality" />
		<tag k="ssr:stedsnr" v="796103" />
	</node>
	<node id="-154463" lat="61.1537249998" lon="9.11542778329">
		<tag k="alt_name" v="Mehøvd" />
		<tag k="name" v="Mehovd" />
		<tag k="natural" v="hill" />
		<tag k="place" v="locality" />
		<tag k="ssr:stedsnr" v="796064" />
	</node>
	<node id="-154462" lat="61.1703583371" lon="9.09961666024">
		<tag k="alt_name" v="Robølshøvda" />
		<tag k="name" v="Robølshovda" />
		<tag k="natural" v="hill" />
		<tag k="place" v="locality" />
		<tag k="ssr:stedsnr" v="796044" />
	</node>
	<node id="-154457" lat="61.3646055588" lon="8.87361388314">
		<tag k="fixme" v="consider natural=peak for the most distinct mountains in the district" />
		<tag k="name" v="Steinstogonuten" />
		<tag k="natural" v="hill" />
		<tag k="place" v="locality" />
		<tag k="ssr:stedsnr" v="796030" />
	</node>
	<node id="-154456" lat="61.3933916664" lon="8.94409445321">
		<tag k="fixme" v="consider natural=peak for the most distinct mountains in the district" />
		<tag k="name" v="Reinsryggen" />
		<tag k="natural" v="hill" />
		<tag k="place" v="locality" />
		<tag k="ssr:stedsnr" v="796019" />
	</node>
	<node id="-154455" lat="61.1817249978" lon="9.06775833907">
		<tag k="name" v="Raudsand" />
		<tag k="place" v="locality" />
		<tag k="ssr:stedsnr" v="796015" />
	</node>
	<node id="-154437" lat="61.1801694436" lon="8.96991667266">
		<tag k="name" v="Brendeberget" />
		<tag k="natural" v="hill" />
		<tag k="place" v="locality" />
		<tag k="ssr:stedsnr" v="782972" />
	</node>
	<node id="-154435" lat="61.2236916682" lon="8.93600556117">
		<tag k="name" v="Høvdaslette" />
		<tag k="place" v="locality" />
		<tag k="ssr:stedsnr" v="782937" />
	</node>
	<node id="-154433" lat="61.2684527734" lon="8.77545555661">
		<tag k="name" v="Synberg" />
		<tag k="natural" v="hill" />
		<tag k="place" v="locality" />
		<tag k="ssr:stedsnr" v="782924" />
	</node>
	<node id="-154432" lat="61.1995361085" lon="8.9694722238">
		<tag k="name" v="Brattehaugen" />
		<tag k="natural" v="hill" />
		<tag k="place" v="locality" />
		<tag k="ssr:stedsnr" v="782919" />
	</node>
	<node id="-154423" lat="61.2632416655" lon="8.81305833912">
		<tag k="name" v="Gamle Tjernhaugen" />
		<tag k="natural" v="hill" />
		<tag k="old_name" v="Gamle Tjednhaugen" />
		<tag k="place" v="locality" />
		<tag k="ssr:stedsnr" v="782739" />
	</node>
	<node id="-154422" lat="61.2541583353" lon="8.83313056467">
		<tag k="name" v="Stølshaugen" />
		<tag k="natural" v="hill" />
		<tag k="place" v="locality" />
		<tag k="ssr:stedsnr" v="782738" />
	</node>
	<node id="-154420" lat="61.1963249958" lon="9.20913610513">
		<tag k="name" v="Søre Synhaugen" />
		<tag k="natural" v="hill" />
		<tag k="place" v="locality" />
		<tag k="ssr:stedsnr" v="782708" />
	</node>
	<node id="-154419" lat="61.2041916652" lon="9.00287500701">
		<tag k="name" v="Varpet" />
		<tag k="place" v="locality" />
		<tag k="ssr:stedsnr" v="782705" />
	</node>
	<node id="-154410" lat="61.1631472227" lon="9.30800278646">
		<tag k="name" v="Bufarhaugen" />
		<tag k="natural" v="hill" />
		<tag k="place" v="locality" />
		<tag k="ssr:stedsnr" v="782432" />
	</node>
	<node id="-154409" lat="61.131961114" lon="9.02693610307">
		<tag k="fixme" v="consider natural=peak for the most distinct mountains in the district" />
		<tag k="name" v="Brøthøvdhøvda" />
		<tag k="natural" v="hill" />
		<tag k="place" v="locality" />
		<tag k="ssr:stedsnr" v="782424" />
	</node>
	<node id="-154408" lat="61.217111108" lon="9.42750833001">
		<tag k="name" v="Flagstadhøgde" />
		<tag k="natural" v="hill" />
		<tag k="place" v="locality" />
		<tag k="ssr:stedsnr" v="782399" />
	</node>
	<node id="-154407" lat="61.2416555567" lon="9.2975722137">
		<tag k="alt_name" v="Bjødnhaug" />
		<tag k="name" v="Bjørnhaug" />
		<tag k="natural" v="hill" />
		<tag k="place" v="locality" />
		<tag k="ssr:stedsnr" v="782338" />
	</node>
	<node id="-154406" lat="61.1222722199" lon="9.0068138809">
		<tag k="name" v="Kyrskardet" />
		<tag k="natural" v="valley" />
		<tag k="place" v="locality" />
		<tag k="ssr:stedsnr" v="782322" />
	</node>
	<node id="-154402" lat="61.125369446" lon="9.03709999676">
		<tag k="fixme" v="consider natural=peak for the most distinct mountains in the district" />
		<tag k="name" v="Vingshøvda" />
		<tag k="natural" v="hill" />
		<tag k="place" v="locality" />
		<tag k="ssr:stedsnr" v="782267" />
	</node>
	<node id="-154393" lat="61.166080555" lon="9.15994999558">
		<tag k="alt_name" v="Bjødnahølhøgde" />
		<tag k="name" v="Bjørnaholhøgde" />
		<tag k="natural" v="hill" />
		<tag k="place" v="locality" />
		<tag k="ssr:stedsnr" v="782179" />
	</node>
	<node id="-154391" lat="61.1173027764" lon="9.22059166709">
		<tag k="name" v="Djupedalen" />
		<tag k="natural" v="valley" />
		<tag k="place" v="locality" />
		<tag k="ssr:stedsnr" v="782166" />
	</node>
	<node id="-154383" lat="61.0829833296" lon="9.24637777399">
		<tag k="name" v="Klavadn" />
		<tag k="natural" v="hill" />
		<tag k="place" v="locality" />
		<tag k="ssr:stedsnr" v="782069" />
	</node>
	<node id="-154362" lat="61.1257805563" lon="9.33251111231">
		<tag k="fixme" v="consider natural=peak for the most distinct mountains in the district" />
		<tag k="name" v="Skogapruåsen" />
		<tag k="natural" v="hill" />
		<tag k="place" v="locality" />
		<tag k="ssr:stedsnr" v="735933" />
	</node>
	<node id="-154348" lat="61.1214500009" lon="9.13927499256">
		<tag k="fixme" v="consider natural=peak for the most distinct mountains in the district" />
		<tag k="name" v="Skattebuåsen" />
		<tag k="natural" v="hill" />
		<tag k="place" v="locality" />
		<tag k="ssr:stedsnr" v="735144" />
	</node>
	<node id="-154346" lat="61.2706166673" lon="9.0194638893">
		<tag k="name" v="Øysterliknappen" />
		<tag k="natural" v="hill" />
		<tag k="place" v="locality" />
		<tag k="ssr:stedsnr" v="735080" />
	</node>
	<node id="-154340" lat="61.1817888897" lon="9.20566110671">
		<tag k="name" v="Fathaugen" />
		<tag k="natural" v="hill" />
		<tag k="place" v="locality" />
		<tag k="ssr:stedsnr" v="735029" />
	</node>
	<node id="-154334" lat="61.3180722198" lon="9.07905555255">
		<tag k="name" v="Rjupehaugadn" />
		<tag k="natural" v="hill" />
		<tag k="place" v="locality" />
		<tag k="ssr:stedsnr" v="725601" />
	</node>
	<node id="-154328" lat="61.2360138871" lon="8.95968055933">
		<tag k="name" v="Helleforofeten" />
		<tag k="place" v="locality" />
		<tag k="ssr:stedsnr" v="722935" />
	</node>
	<node id="-154327" lat="61.2635555573" lon="8.8464944494">
		<tag k="name" v="Svøe" />
		<tag k="natural" v="hill" />
		<tag k="place" v="locality" />
		<tag k="ssr:stedsnr" v="722799" />
	</node>
	<node id="-154323" lat="61.2124777819" lon="9.29116666328">
		<tag k="name" v="Gaukeberget" />
		<tag k="natural" v="hill" />
		<tag k="place" v="locality" />
		<tag k="ssr:stedsnr" v="722495" />
	</node>
	<node id="-154320" lat="61.1615249973" lon="9.3874305612">
		<tag k="name" v="Gråeberget" />
		<tag k="natural" v="hill" />
		<tag k="place" v="locality" />
		<tag k="ssr:stedsnr" v="722451" />
	</node>
	<node id="-154317" lat="61.0933111116" lon="9.05774445257">
		<tag k="fixme" v="consider natural=peak for the most distinct mountains in the district" />
		<tag k="name" v="Svarthamar" />
		<tag k="natural" v="hill" />
		<tag k="place" v="locality" />
		<tag k="ssr:stedsnr" v="722323" />
	</node>
	<node id="-154314" lat="61.096705556" lon="9.17119999214">
		<tag k="name" v="Grøndalsskåladn" />
		<tag k="natural" v="valley" />
		<tag k="place" v="locality" />
		<tag k="ssr:stedsnr" v="722238" />
	</node>
	<node id="-154312" lat="61.1328972262" lon="9.21413611671">
		<tag k="name" v="Naustehøvda" />
		<tag k="natural" v="hill" />
		<tag k="place" v="locality" />
		<tag k="ssr:stedsnr" v="722229" />
	</node>
	<node id="-154306" lat="61.1418555569" lon="9.14157223146">
		<tag k="name" v="Maradalen" />
		<tag k="natural" v="valley" />
		<tag k="place" v="locality" />
		<tag k="ssr:stedsnr" v="722099" />
	</node>
	<node id="-154299" lat="61.2292666671" lon="8.93345833094">
		<tag k="name" v="Bamselie" />
		<tag k="natural" v="slope" />
		<tag k="place" v="locality" />
		<tag k="ssr:stedsnr" v="721936" />
	</node>
	<node id="-154297" lat="61.2445861147" lon="8.88686111464">
		<tag k="alt_name" v="Bjødnestølhøvda" />
		<tag k="name" v="Bjørnestølhovda" />
		<tag k="natural" v="hill" />
		<tag k="place" v="locality" />
		<tag k="ssr:stedsnr" v="721893" />
	</node>
	<node id="-154296" lat="61.2549694406" lon="8.82939722727">
		<tag k="name" v="Knutshammardalen" />
		<tag k="natural" v="valley" />
		<tag k="place" v="locality" />
		<tag k="ssr:stedsnr" v="722807" />
	</node>
	<node id="-154292" lat="61.0836583358" lon="9.09923610935">
		<tag k="name" v="Brennudn" />
		<tag k="natural" v="slope" />
		<tag k="place" v="locality" />
		<tag k="ssr:stedsnr" v="721528" />
	</node>
	<node id="-154279" lat="61.1797944472" lon="9.07301388052">
		<tag k="name" v="Anfinnslette" />
		<tag k="place" v="locality" />
		<tag k="ssr:stedsnr" v="721121" />
	</node>
	<node id="-154278" lat="61.1750388862" lon="9.06562500522">
		<tag k="name" v="Djupedalen" />
		<tag k="natural" v="valley" />
		<tag k="place" v="locality" />
		<tag k="ssr:stedsnr" v="721117" />
	</node>
	<node id="-154264" lat="61.2666527746" lon="8.80723610992">
		<tag k="name" v="Tjernhaugen" />
		<tag k="natural" v="hill" />
		<tag k="old_name" v="Tjednhaugen" />
		<tag k="place" v="locality" />
		<tag k="ssr:stedsnr" v="675237" />
	</node>
	<node id="-154263" lat="61.2623111129" lon="8.92421111441">
		<tag k="alt_name" v="Tutjednkampen" />
		<tag k="name" v="Tutjernkampen" />
		<tag k="natural" v="hill" />
		<tag k="place" v="locality" />
		<tag k="ssr:stedsnr" v="675113" />
	</node>
	<node id="-154259" lat="61.2758777735" lon="9.00893055867">
		<tag k="name" v="Ljøtebekkdalen" />
		<tag k="natural" v="valley" />
		<tag k="place" v="locality" />
		<tag k="ssr:stedsnr" v="675091" />
	</node>
	<node id="-154258" lat="61.2882138905" lon="9.00324165841">
		<tag k="name" v="Stryteberg" />
		<tag k="natural" v="hill" />
		<tag k="place" v="locality" />
		<tag k="ssr:stedsnr" v="675088" />
	</node>
	<node id="-154254" lat="61.3376027739" lon="8.88291667046">
		<tag k="fixme" v="consider natural=peak for the most distinct mountains in the district" />
		<tag k="name" v="Skredofjellet" />
		<tag k="natural" v="hill" />
		<tag k="place" v="locality" />
		<tag k="ssr:stedsnr" v="675063" />
	</node>
	<node id="-154252" lat="61.3733611092" lon="8.90914444842">
		<tag k="name" v="Glupen" />
		<tag k="natural" v="valley" />
		<tag k="place" v="locality" />
		<tag k="ssr:stedsnr" v="675039" />
	</node>
	<node id="-154251" lat="61.373936111" lon="8.93171945117">
		<tag k="fixme" v="consider natural=peak for the most distinct mountains in the district" />
		<tag k="name" v="Søre Gluptinden" />
		<tag k="natural" v="hill" />
		<tag k="place" v="locality" />
		<tag k="ssr:stedsnr" v="675038" />
	</node>
	<node id="-154250" lat="61.3775444462" lon="8.96726943978">
		<tag k="fixme" v="consider natural=peak for the most distinct mountains in the district" />
		<tag k="name" v="Kvernhøe" />
		<tag k="natural" v="hill" />
		<tag k="place" v="locality" />
		<tag k="ssr:stedsnr" v="675028" />
	</node>
	<node id="-154245" lat="61.196833332" lon="9.40183332814">
		<tag k="name" v="Kristensonhøgde" />
		<tag k="natural" v="hill" />
		<tag k="place" v="locality" />
		<tag k="ssr:stedsnr" v="674980" />
	</node>
	<node id="-154244" lat="61.1763388864" lon="9.26363610855">
		<tag k="alt_name" v="Møsaberget" />
		<tag k="name" v="Mosaberget" />
		<tag k="natural" v="hill" />
		<tag k="place" v="locality" />
		<tag k="ssr:stedsnr" v="674956" />
	</node>
	<node id="-154243" lat="61.1807027771" lon="9.38052500794">
		<tag k="alt_name" v="Skåltjednknatten" />
		<tag k="name" v="Skåltjernknatten" />
		<tag k="natural" v="hill" />
		<tag k="place" v="locality" />
		<tag k="ssr:stedsnr" v="674945" />
	</node>
	<node id="-154240" lat="61.1355989237" lon="9.23721700472">
		<tag k="alt_name" v="Rabbalsmellen;Rabalsmellin" />
		<tag k="fixme" v="consider natural=peak for the most distinct mountains in the district" />
		<tag k="name" v="Rabalsmellen" />
		<tag k="natural" v="hill" />
		<tag k="place" v="locality" />
		<tag k="ssr:stedsnr" v="674921" />
	</node>
	<node id="-154236" lat="61.2076777809" lon="9.01898332633">
		<tag k="alt_name" v="Heimstølberget" />
		<tag k="name" v="Stølsberget" />
		<tag k="natural" v="hill" />
		<tag k="place" v="locality" />
		<tag k="ssr:stedsnr" v="674484" />
	</node>
	<node id="-154234" lat="61.2092361149" lon="8.98413888677">
		<tag k="name" v="Stuvedalen" />
		<tag k="natural" v="valley" />
		<tag k="place" v="locality" />
		<tag k="ssr:stedsnr" v="674478" />
	</node>
	<node id="-154228" lat="61.2479388885" lon="9.01898333393">
		<tag k="name" v="Skjenhaugen" />
		<tag k="natural" v="hill" />
		<tag k="place" v="locality" />
		<tag k="ssr:stedsnr" v="674444" />
	</node>
	<node id="-154215" lat="61.1383333324" lon="9.16931666791">
		<tag k="name" v="Jødnmannskampen" />
		<tag k="natural" v="hill" />
		<tag k="place" v="locality" />
		<tag k="ssr:stedsnr" v="674107" />
	</node>
	<node id="-154213" lat="61.1598999987" lon="9.14689166116">
		<tag k="name" v="Ørnhovd" />
		<tag k="natural" v="hill" />
		<tag k="place" v="locality" />
		<tag k="ssr:stedsnr" v="674071" />
	</node>
	<node id="-154207" lat="61.1872555567" lon="8.96463889421">
		<tag k="alt_name" v="Skoltehøvda" />
		<tag k="name" v="Skoltehovda" />
		<tag k="natural" v="hill" />
		<tag k="place" v="locality" />
		<tag k="ssr:stedsnr" v="674002" />
	</node>
	<node id="-154205" lat="61.292327775" lon="8.92630832567">
		<tag k="name" v="Urde" />
		<tag k="natural" v="hill" />
		<tag k="place" v="locality" />
		<tag k="ssr:stedsnr" v="663860" />
	</node>
	<node id="-154187" lat="61.11037222" lon="9.20039722847">
		<tag k="name" v="Marsteinhøgda" />
		<tag k="natural" v="hill" />
		<tag k="place" v="locality" />
		<tag k="ssr:stedsnr" v="661215" />
	</node>
	<node id="-154185" lat="61.1297222231" lon="9.2004472227">
		<tag k="alt_name" v="Køltjednhaugadn" />
		<tag k="name" v="Koltjernhaugane" />
		<tag k="natural" v="hill" />
		<tag k="place" v="locality" />
		<tag k="ssr:stedsnr" v="661198" />
	</node>
	<node id="-154184" lat="61.1335166668" lon="9.16860277002">
		<tag k="name" v="Rolighøl" />
		<tag k="natural" v="valley" />
		<tag k="place" v="locality" />
		<tag k="ssr:stedsnr" v="661193" />
	</node>
	<node id="-154181" lat="61.1829305547" lon="9.1670722198">
		<tag k="name" v="Gamasamahaugen" />
		<tag k="natural" v="hill" />
		<tag k="place" v="locality" />
		<tag k="ssr:stedsnr" v="661161" />
	</node>
	<node id="-154166" lat="61.2452277822" lon="8.82821667285">
		<tag k="name" v="Lykkjedokka" />
		<tag k="natural" v="valley" />
		<tag k="place" v="locality" />
		<tag k="ssr:stedsnr" v="660810" />
	</node>
	<node id="-154162" lat="61.2058027803" lon="9.07828610663">
		<tag k="name" v="Tjernstølsåsen" />
		<tag k="natural" v="hill" />
		<tag k="old_name" v="Tjednstølsåsen" />
		<tag k="place" v="locality" />
		<tag k="ssr:stedsnr" v="660668" />
	</node>
	<node id="-154157" lat="61.1336555529" lon="9.04415834176">
		<tag k="name" v="Brøtin" />
		<tag k="natural" v="slope" />
		<tag k="place" v="locality" />
		<tag k="ssr:stedsnr" v="660453" />
	</node>
	<node id="-154156" lat="61.1667166658" lon="9.34699444628">
		<tag k="name" v="Etnberget" />
		<tag k="natural" v="ridge" />
		<tag k="place" v="locality" />
		<tag k="ssr:stedsnr" v="660410" />
	</node>
	<node id="-154148" lat="61.1296500011" lon="9.1266222205">
		<tag k="name" v="Nørdre Skrikketjernknatten" />
		<tag k="natural" v="hill" />
		<tag k="old_name" v="Nørdre Skrikketjednknatten" />
		<tag k="place" v="locality" />
		<tag k="ssr:stedsnr" v="660085" />
	</node>
	<node id="-154147" lat="61.1321500019" lon="9.12105554953">
		<tag k="name" v="Riskleive" />
		<tag k="natural" v="slope" />
		<tag k="place" v="locality" />
		<tag k="ssr:stedsnr" v="660081" />
	</node>
	<node id="-154136" lat="61.295736115" lon="9.22644999281">
		<tag k="fixme" v="consider natural=peak for the most distinct mountains in the district" />
		<tag k="name" v="Toreknatten" />
		<tag k="natural" v="hill" />
		<tag k="place" v="locality" />
		<tag k="ssr:stedsnr" v="615460" />
	</node>
	<node id="-154125" lat="61.3813777808" lon="9.02748611855">
		<tag k="fixme" v="consider natural=peak for the most distinct mountains in the district" />
		<tag k="name" v="Døraknappen" />
		<tag k="natural" v="hill" />
		<tag k="place" v="locality" />
		<tag k="ssr:stedsnr" v="614029" />
	</node>
	<node id="-154111" lat="61.2337888888" lon="9.12333889322">
		<tag k="fixme" v="consider natural=peak for the most distinct mountains in the district" />
		<tag k="name" v="Kjølafjellet" />
		<tag k="natural" v="hill" />
		<tag k="place" v="locality" />
		<tag k="ssr:stedsnr" v="613460" />
	</node>
	<node id="-154096" lat="61.1582638889" lon="9.03295556145">
		<tag k="alt_name" v="Erstadkampen" />
		<tag k="name" v="Kampen" />
		<tag k="natural" v="hill" />
		<tag k="place" v="locality" />
		<tag k="ssr:stedsnr" v="613073" />
	</node>
	<node id="-154086" lat="61.2977666682" lon="8.89607778248">
		<tag k="name" v="Sagabue" />
		<tag k="place" v="locality" />
		<tag k="ssr:stedsnr" v="602843" />
	</node>
	<node id="-154079" lat="61.2678444443" lon="8.97470277037">
		<tag k="name" v="Fløthaugadn" />
		<tag k="natural" v="hill" />
		<tag k="place" v="locality" />
		<tag k="ssr:stedsnr" v="600926" />
	</node>
	<node id="-154075" lat="61.260486114" lon="8.80778333493">
		<tag k="name" v="Hundeknappen" />
		<tag k="natural" v="hill" />
		<tag k="place" v="locality" />
		<tag k="ssr:stedsnr" v="600765" />
	</node>
	<node id="-154069" lat="61.0793805567" lon="9.11870833947">
		<tag k="name" v="Sagahøvda" />
		<tag k="natural" v="hill" />
		<tag k="place" v="locality" />
		<tag k="ssr:stedsnr" v="600625" />
	</node>
	<node id="-154068" lat="61.2747000038" lon="8.97514721594">
		<tag k="name" v="Jørenhaug" />
		<tag k="natural" v="hill" />
		<tag k="place" v="locality" />
		<tag k="ssr:stedsnr" v="600581" />
	</node>
	<node id="-154065" lat="61.1162694406" lon="9.04453889054">
		<tag k="name" v="Kviteberg" />
		<tag k="natural" v="slope" />
		<tag k="place" v="locality" />
		<tag k="ssr:stedsnr" v="600346" />
	</node>
	<node id="-154063" lat="61.1133194444" lon="9.15853332412">
		<tag k="name" v="Langehaugen" />
		<tag k="natural" v="hill" />
		<tag k="place" v="locality" />
		<tag k="ssr:stedsnr" v="600233" />
	</node>
	<node id="-154062" lat="61.1725666657" lon="9.18504721802">
		<tag k="name" v="Åbortjernhaugen" />
		<tag k="natural" v="hill" />
		<tag k="old_name" v="Øbbørtjednhaugen" />
		<tag k="place" v="locality" />
		<tag k="ssr:stedsnr" v="600202" />
	</node>
	<node id="-154061" lat="61.1342555555" lon="9.39046665932">
		<tag k="name" v="Kinnberg" />
		<tag k="natural" v="hill" />
		<tag k="place" v="locality" />
		<tag k="ssr:stedsnr" v="600192" />
	</node>
	<node id="-154058" lat="61.0828388845" lon="9.22811944861">
		<tag k="name" v="Kava-Skøre" />
		<tag k="natural" v="valley" />
		<tag k="place" v="locality" />
		<tag k="ssr:stedsnr" v="600089" />
	</node>
	<node id="-154053" lat="61.2273694484" lon="8.97115833695">
		<tag k="fixme" v="consider natural=peak for the most distinct mountains in the district" />
		<tag k="name" v="Skuteåsen" />
		<tag k="natural" v="hill" />
		<tag k="place" v="locality" />
		<tag k="ssr:stedsnr" v="599946" />
	</node>
	<node id="-154052" lat="61.0932111136" lon="9.14638611411">
		<tag k="name" v="Kvitehaugen" />
		<tag k="natural" v="hill" />
		<tag k="place" v="locality" />
		<tag k="ssr:stedsnr" v="599943" />
	</node>
	<node id="-154050" lat="61.2081583324" lon="8.96196666127">
		<tag k="name" v="Øvre Flaten" />
		<tag k="place" v="locality" />
		<tag k="ssr:stedsnr" v="599927" />
	</node>
	<node id="-154049" lat="61.244711114" lon="8.82429999398">
		<tag k="name" v="Nørdre Høvda" />
		<tag k="natural" v="hill" />
		<tag k="place" v="locality" />
		<tag k="ssr:stedsnr" v="599834" />
	</node>
	<node id="-154037" lat="61.1676166644" lon="9.3617944472">
		<tag k="name" v="Kvitehaugen" />
		<tag k="natural" v="hill" />
		<tag k="place" v="locality" />
		<tag k="ssr:stedsnr" v="599390" />
	</node>
	<node id="-154036" lat="61.2555750035" lon="9.36723333359">
		<tag k="name" v="Mogophaugen" />
		<tag k="natural" v="hill" />
		<tag k="place" v="locality" />
		<tag k="ssr:stedsnr" v="599352" />
	</node>
	<node id="-154031" lat="61.1796055538" lon="8.98165277798">
		<tag k="name" v="Sagahaughøvda" />
		<tag k="natural" v="hill" />
		<tag k="place" v="locality" />
		<tag k="ssr:stedsnr" v="599137" />
	</node>
	<node id="-154028" lat="61.1808722227" lon="9.07796389762">
		<tag k="name" v="Raudsandhaugen" />
		<tag k="natural" v="hill" />
		<tag k="place" v="locality" />
		<tag k="ssr:stedsnr" v="599125" />
	</node>
	<node id="-154016" lat="61.252308334" lon="8.89218332499">
		<tag k="alt_name" v="Bjørnebakkane;Bjødnabakkadn" />
		<tag k="name" v="Bjørnabakkane" />
		<tag k="natural" v="slope" />
		<tag k="place" v="locality" />
		<tag k="ssr:stedsnr" v="554109" />
	</node>
	<node id="-154015" lat="61.2960777819" lon="8.87008333722">
		<tag k="name" v="Gravolskampen" />
		<tag k="natural" v="hill" />
		<tag k="place" v="locality" />
		<tag k="ssr:stedsnr" v="554072" />
	</node>
	<node id="-154007" lat="61.0757000034" lon="9.22767777902">
		<tag k="fixme" v="consider natural=peak for the most distinct mountains in the district" />
		<tag k="name" v="Lagaråsen" />
		<tag k="natural" v="hill" />
		<tag k="place" v="locality" />
		<tag k="ssr:stedsnr" v="553912" />
	</node>
	<node id="-154004" lat="61.2156916626" lon="9.12099999317">
		<tag k="fixme" v="consider natural=peak for the most distinct mountains in the district" />
		<tag k="name" v="Gravfjellet" />
		<tag k="natural" v="hill" />
		<tag k="place" v="locality" />
		<tag k="ssr:stedsnr" v="553480" />
	</node>
	<node id="-154003" lat="61.2067833356" lon="9.10404444592">
		<tag k="name" v="Veslestølberget" />
		<tag k="natural" v="hill" />
		<tag k="place" v="locality" />
		<tag k="ssr:stedsnr" v="553477" />
	</node>
	<node id="-153966" lat="61.3432111134" lon="9.02906389341">
		<tag k="name" v="Roparhaugen" />
		<tag k="natural" v="hill" />
		<tag k="place" v="locality" />
		<tag k="ssr:stedsnr" v="543662" />
	</node>
	<node id="-153964" lat="61.332674997" lon="9.04742222868">
		<tag k="name" v="Titresynet" />
		<tag k="natural" v="hill" />
		<tag k="place" v="locality" />
		<tag k="ssr:stedsnr" v="543623" />
	</node>
	<node id="-153959" lat="61.2333888927" lon="9.12489721476">
		<tag k="fixme" v="consider natural=peak for the most distinct mountains in the district" />
		<tag k="name" v="Øystre Kjølafjellet" />
		<tag k="natural" v="hill" />
		<tag k="ssr:stedsnr" v="540722" />
	</node>
	<node id="-153958" lat="61.0753333357" lon="9.09664167187">
		<tag k="name" v="Røslend" />
		<tag k="natural" v="slope" />
		<tag k="place" v="locality" />
		<tag k="ssr:stedsnr" v="540645" />
	</node>
	<node id="-153951" lat="61.1362277748" lon="9.1747944492">
		<tag k="name" v="Rekeberget" />
		<tag k="natural" v="hill" />
		<tag k="place" v="locality" />
		<tag k="ssr:stedsnr" v="540215" />
	</node>
	<node id="-153949" lat="61.14521667" lon="9.16740555625">
		<tag k="name" v="Jødnmannberget" />
		<tag k="place" v="locality" />
		<tag k="ssr:stedsnr" v="540208" />
	</node>
	<node id="-153945" lat="61.1777861147" lon="9.2053277833">
		<tag k="name" v="Øystre Kalvehaugen" />
		<tag k="natural" v="hill" />
		<tag k="place" v="locality" />
		<tag k="ssr:stedsnr" v="540175" />
	</node>
	<node id="-153942" lat="61.1720194482" lon="9.10504999721">
		<tag k="name" v="Hagaberget" />
		<tag k="natural" v="hill" />
		<tag k="place" v="locality" />
		<tag k="ssr:stedsnr" v="540025" />
	</node>
	<node id="-153935" lat="61.1602583369" lon="8.94545556277">
		<tag k="name" v="Skalet" />
		<tag k="natural" v="valley" />
		<tag k="place" v="locality" />
		<tag k="ssr:stedsnr" v="539804" />
	</node>
	<node id="-153925" lat="61.2521138897" lon="9.41420556275">
		<tag k="name" v="Maradalen" />
		<tag k="natural" v="valley" />
		<tag k="place" v="locality" />
		<tag k="ssr:stedsnr" v="539320" />
	</node>
	<node id="-153923" lat="61.1190500003" lon="9.01671388051">
		<tag k="name" v="Jelle" />
		<tag k="natural" v="slope" />
		<tag k="place" v="locality" />
		<tag k="ssr:stedsnr" v="539299" />
	</node>
	<node id="-153917" lat="61.1824444445" lon="9.01490554688">
		<tag k="name" v="Ulvedalen" />
		<tag k="natural" v="valley" />
		<tag k="place" v="locality" />
		<tag k="ssr:stedsnr" v="539123" />
	</node>
	<node id="-153914" lat="61.1776138852" lon="9.28377777948">
		<tag k="name" v="Lurvehøgde" />
		<tag k="natural" v="hill" />
		<tag k="place" v="locality" />
		<tag k="ssr:stedsnr" v="539427" />
	</node>
	<node id="-153904" lat="61.3212833361" lon="9.23415555688">
		<tag k="fixme" v="consider natural=peak for the most distinct mountains in the district" />
		<tag k="name" v="Klanten" />
		<tag k="natural" v="hill" />
		<tag k="place" v="locality" />
		<tag k="ssr:stedsnr" v="494448" />
	</node>
	<node id="-153901" lat="61.2815583296" lon="8.94746388858">
		<tag k="name" v="Svoloberget" />
		<tag k="natural" v="hill" />
		<tag k="place" v="locality" />
		<tag k="ssr:stedsnr" v="493096" />
	</node>
	<node id="-153897" lat="61.32535556" lon="8.95465833245">
		<tag k="fixme" v="consider natural=peak for the most distinct mountains in the district" />
		<tag k="name" v="Melbyssynet" />
		<tag k="natural" v="hill" />
		<tag k="place" v="locality" />
		<tag k="ssr:stedsnr" v="493070" />
	</node>
	<node id="-153896" lat="61.3494833331" lon="8.90783333241">
		<tag k="alt_name" v="Nuten, store" />
		<tag k="fixme" v="consider natural=peak for the most distinct mountains in the district" />
		<tag k="name" v="Store Nuten" />
		<tag k="natural" v="hill" />
		<tag k="place" v="locality" />
		<tag k="ssr:stedsnr" v="493052" />
	</node>
	<node id="-153891" lat="61.1718805584" lon="9.31176389641">
		<tag k="name" v="Synberget" />
		<tag k="natural" v="hill" />
		<tag k="place" v="locality" />
		<tag k="ssr:stedsnr" v="492955" />
	</node>
	<node id="-153890" lat="61.1818583302" lon="9.27781388453">
		<tag k="loc_name" v="Snaue høgde" />
		<tag k="name" v="Snauehøgde" />
		<tag k="natural" v="hill" />
		<tag k="place" v="locality" />
		<tag k="ssr:stedsnr" v="492951" />
	</node>
	<node id="-153861" lat="61.3445277744" lon="9.03291665887">
		<tag k="name" v="Straumhaugadn" />
		<tag k="natural" v="hill" />
		<tag k="place" v="locality" />
		<tag k="ssr:stedsnr" v="483708" />
	</node>
	<node id="-153849" lat="61.311927782" lon="9.27222500784">
		<tag k="fixme" v="consider natural=peak for the most distinct mountains in the district" />
		<tag k="name" v="Buatinden" />
		<tag k="natural" v="hill" />
		<tag k="place" v="locality" />
		<tag k="ssr:stedsnr" v="433478" />
	</node>
	<node id="-153848" lat="61.285466671" lon="9.27643610358">
		<tag k="name" v="Skagsflye" />
		<tag k="natural" v="plateau" />
		<tag k="ssr:stedsnr" v="433256" />
	</node>
	<node id="-153847" lat="61.4381638911" lon="8.81776388939">
		<tag k="name" v="Langberget" />
		<tag k="natural" v="ridge" />
		<tag k="place" v="locality" />
		<tag k="ssr:stedsnr" v="433142" />
	</node>
	<node id="-153845" lat="61.2686694462" lon="8.9957250092">
		<tag k="alt_name" v="Rundehaug" />
		<tag k="name" v="Rundhaug" />
		<tag k="natural" v="hill" />
		<tag k="place" v="locality" />
		<tag k="ssr:stedsnr" v="433112" />
	</node>
	<node id="-153833" lat="61.2182999966" lon="9.13575000075">
		<tag k="name" v="Rauddalen" />
		<tag k="natural" v="valley" />
		<tag k="place" v="locality" />
		<tag k="ssr:stedsnr" v="432475" />
	</node>
	<node id="-153829" lat="61.2152472253" lon="8.98881111395">
		<tag k="alt_name" v="Javneberge;Javneberget" />
		<tag k="name" v="Javnberget" />
		<tag k="natural" v="hill" />
		<tag k="old_name" v="Javnebg" />
		<tag k="place" v="locality" />
		<tag k="ssr:stedsnr" v="432419" />
	</node>
	<node id="-153824" lat="61.2710277809" lon="8.77856665857">
		<tag k="fixme" v="consider natural=peak for the most distinct mountains in the district" />
		<tag k="name" v="Skorliegge" />
		<tag k="natural" v="hill" />
		<tag k="place" v="locality" />
		<tag k="ssr:stedsnr" v="432188" />
	</node>
	<node id="-153819" lat="61.1205305512" lon="9.12733333274">
		<tag k="alt_name" v="Ragnadalen" />
		<tag k="name" v="Raunedalen" />
		<tag k="natural" v="valley" />
		<tag k="place" v="locality" />
		<tag k="ssr:stedsnr" v="432116" />
	</node>
	<node id="-153799" lat="61.2229999991" lon="8.91531389257">
		<tag k="alt_name" v="Liahøvda" />
		<tag k="name" v="Liahovda" />
		<tag k="natural" v="hill" />
		<tag k="place" v="locality" />
		<tag k="ssr:stedsnr" v="431481" />
	</node>
	<node id="-153795" lat="61.1100888901" lon="9.14690277148">
		<tag k="name" v="Hanakneberget" />
		<tag k="natural" v="hill" />
		<tag k="place" v="locality" />
		<tag k="ssr:stedsnr" v="431196" />
	</node>
	<node id="-153794" lat="61.1425444423" lon="9.14582777377">
		<tag k="alt_name" v="Rundehøvda" />
		<tag k="name" v="Rundehovda" />
		<tag k="natural" v="hill" />
		<tag k="place" v="locality" />
		<tag k="ssr:stedsnr" v="431102" />
	</node>
	<node id="-153790" lat="61.1474916675" lon="9.19722778201">
		<tag k="name" v="Brimberget" />
		<tag k="natural" v="hill" />
		<tag k="place" v="locality" />
		<tag k="ssr:stedsnr" v="430187" />
	</node>
	<node id="-153782" lat="61.0724972184" lon="9.1169194413">
		<tag k="name" v="Bruhøvda" />
		<tag k="natural" v="hill" />
		<tag k="place" v="locality" />
		<tag k="ssr:stedsnr" v="419649" />
	</node>
	<node id="-153778" lat="61.2245305597" lon="9.26945277971">
		<tag k="name" v="Skåkluthøgde" />
		<tag k="natural" v="hill" />
		<tag k="place" v="locality" />
		<tag k="ssr:stedsnr" v="419420" />
	</node>
	<node id="-153777" lat="61.2150416645" lon="9.30391112008">
		<tag k="name" v="Venelifløtadn" />
		<tag k="place" v="locality" />
		<tag k="ssr:stedsnr" v="419419" />
	</node>
	<node id="-153772" lat="61.1604444439" lon="9.16471667201">
		<tag k="name" v="Vassbøtthøvda" />
		<tag k="natural" v="hill" />
		<tag k="place" v="locality" />
		<tag k="ssr:stedsnr" v="419203" />
	</node>
	<node id="-153771" lat="61.164227775" lon="9.17495277404">
		<tag k="name" v="Skiftishaugen" />
		<tag k="natural" v="hill" />
		<tag k="place" v="locality" />
		<tag k="ssr:stedsnr" v="419200" />
	</node>
	<node id="-153769" lat="61.185008336" lon="9.17424443784">
		<tag k="name" v="Gamasamaflåe" />
		<tag k="place" v="locality" />
		<tag k="ssr:stedsnr" v="419171" />
	</node>
	<node id="-153766" lat="61.0858222263" lon="9.27543888274">
		<tag k="name" v="Storåksle" />
		<tag k="natural" v="hill" />
		<tag k="place" v="locality" />
		<tag k="ssr:stedsnr" v="419105" />
	</node>
	<node id="-153763" lat="61.2098111122" lon="8.96666665934">
		<tag k="name" v="Grøndalsberget" />
		<tag k="natural" v="slope" />
		<tag k="place" v="locality" />
		<tag k="ssr:stedsnr" v="418936" />
	</node>
	<node id="-153760" lat="61.2356861131" lon="8.8961527778">
		<tag k="name" v="Jonstølsberget" />
		<tag k="natural" v="hill" />
		<tag k="place" v="locality" />
		<tag k="ssr:stedsnr" v="418878" />
	</node>
	<node id="-153756" lat="61.1964972225" lon="9.17984722807">
		<tag k="name" v="Rauånhaugen" />
		<tag k="natural" v="hill" />
		<tag k="place" v="locality" />
		<tag k="ssr:stedsnr" v="418717" />
	</node>
	<node id="-153748" lat="61.1029416666" lon="9.14951110587">
		<tag k="name" v="Reistebakkin" />
		<tag k="natural" v="slope" />
		<tag k="place" v="locality" />
		<tag k="ssr:stedsnr" v="418403" />
	</node>
	<node id="-153746" lat="61.1625777781" lon="9.37351111248">
		<tag k="name" v="Nonshøvda" />
		<tag k="natural" v="hill" />
		<tag k="place" v="locality" />
		<tag k="ssr:stedsnr" v="418387" />
	</node>
	<node id="-153741" lat="61.1686194489" lon="8.98185555727">
		<tag k="name" v="Bruberget" />
		<tag k="natural" v="hill" />
		<tag k="place" v="locality" />
		<tag k="ssr:stedsnr" v="418147" />
	</node>
	<node id="-153737" lat="61.1229249982" lon="9.11874721795">
		<tag k="name" v="Brattebakkslette" />
		<tag k="place" v="locality" />
		<tag k="ssr:stedsnr" v="418059" />
	</node>
	<node id="-153730" lat="61.2565083371" lon="8.82300834028">
		<tag k="name" v="Tåbakkhøgde" />
		<tag k="natural" v="hill" />
		<tag k="place" v="locality" />
		<tag k="ssr:stedsnr" v="479772" />
	</node>
	<node id="-153725" lat="61.2007888914" lon="8.95764721953">
		<tag k="name" v="Nausteberget" />
		<tag k="natural" v="hill" />
		<tag k="place" v="locality" />
		<tag k="ssr:stedsnr" v="251957" />
	</node>
	<node id="-153721" lat="61.2782444441" lon="9.30709443715">
		<tag k="name" v="Bøllhaugen" />
		<tag k="natural" v="hill" />
		<tag k="place" v="locality" />
		<tag k="ssr:stedsnr" v="251296" />
	</node>
	<node id="-153719" lat="61.2565944434" lon="8.92916389332">
		<tag k="name" v="Synberget" />
		<tag k="natural" v="hill" />
		<tag k="place" v="locality" />
		<tag k="ssr:stedsnr" v="251114" />
	</node>
	<node id="-153716" lat="61.2978611087" lon="9.09008889277">
		<tag k="fixme" v="consider natural=peak for the most distinct mountains in the district" />
		<tag k="name" v="Skreddalsfjellet" />
		<tag k="natural" v="hill" />
		<tag k="place" v="locality" />
		<tag k="ssr:stedsnr" v="251085" />
	</node>
	<node id="-153709" lat="61.2175583334" lon="8.97531110598">
		<tag k="name" v="Bleikfeten" />
		<tag k="place" v="locality" />
		<tag k="ssr:stedsnr" v="250436" />
	</node>
	<node id="-153707" lat="61.0820499968" lon="9.16661388491">
		<tag k="name" v="Haugarødningen" />
		<tag k="place" v="locality" />
		<tag k="ssr:stedsnr" v="250235" />
	</node>
	<node id="-153704" lat="61.2646305517" lon="8.79988332738">
		<tag k="alt_name" v="Trøllhøvd" />
		<tag k="name" v="Trollhovd" />
		<tag k="natural" v="hill" />
		<tag k="place" v="locality" />
		<tag k="ssr:stedsnr" v="250216" />
	</node>
	<node id="-153703" lat="61.2809888909" lon="8.76586389429">
		<tag k="name" v="Skorberget" />
		<tag k="natural" v="hill" />
		<tag k="place" v="locality" />
		<tag k="ssr:stedsnr" v="250194" />
	</node>
	<node id="-153699" lat="61.2794805531" lon="9.20460833652">
		<tag k="loc_name" v="Reinskredkampen" />
		<tag k="name" v="Kringlehøgde" />
		<tag k="natural" v="hill" />
		<tag k="old_name" v="Kringlehd" />
		<tag k="place" v="locality" />
		<tag k="ssr:stedsnr" v="250097" />
	</node>
	<node id="-153698" lat="61.2722361078" lon="8.87169166446">
		<tag k="fixme" v="consider natural=peak for the most distinct mountains in the district" />
		<tag k="name" v="Grønekinnkampen" />
		<tag k="natural" v="hill" />
		<tag k="place" v="locality" />
		<tag k="ssr:stedsnr" v="250093" />
	</node>
	<node id="-153691" lat="61.3928805529" lon="9.01635834074">
		<tag k="name" v="Gråbeinholet" />
		<tag k="natural" v="valley" />
		<tag k="place" v="locality" />
		<tag k="ssr:stedsnr" v="250020" />
	</node>
	<node id="-153687" lat="61.2436416698" lon="8.83159999974">
		<tag k="alt_name" v="Blåhøvd" />
		<tag k="fixme" v="consider natural=peak for the most distinct mountains in the district" />
		<tag k="name" v="Blåhovda" />
		<tag k="natural" v="hill" />
		<tag k="place" v="locality" />
		<tag k="ssr:stedsnr" v="249700" />
	</node>
	<node id="-153681" lat="61.1489527801" lon="9.20687777952">
		<tag k="name" v="Midthøgde" />
		<tag k="natural" v="hill" />
		<tag k="place" v="locality" />
		<tag k="ssr:stedsnr" v="249083" />
	</node>
	<node id="-153672" lat="61.2971694415" lon="8.89234723018">
		<tag k="name" v="Dyregravene" />
		<tag k="place" v="locality" />
		<tag k="ssr:stedsnr" v="239867" />
	</node>
	<node id="-153668" lat="61.1799194471" lon="8.95022776974">
		<tag k="name" v="Røsshaug" />
		<tag k="natural" v="hill" />
		<tag k="place" v="locality" />
		<tag k="ssr:stedsnr" v="236985" />
	</node>
	<node id="-153666" lat="61.1714472258" lon="8.9239305597">
		<tag k="name" v="Køllunberget" />
		<tag k="natural" v="hill" />
		<tag k="place" v="locality" />
		<tag k="ssr:stedsnr" v="236962" />
	</node>
	<node id="-153663" lat="61.2513361107" lon="8.97815834071">
		<tag k="name" v="Grønebakkin" />
		<tag k="natural" v="slope" />
		<tag k="place" v="locality" />
		<tag k="ssr:stedsnr" v="236943" />
	</node>
	<node id="-153659" lat="61.1619388906" lon="8.96207499214">
		<tag k="name" v="Rynjusbrøtin" />
		<tag k="place" v="locality" />
		<tag k="ssr:stedsnr" v="236801" />
	</node>
	<node id="-153658" lat="61.257619447" lon="8.8339805548">
		<tag k="name" v="Nørdre Synberg" />
		<tag k="natural" v="hill" />
		<tag k="place" v="locality" />
		<tag k="ssr:stedsnr" v="236762" />
	</node>
	<node id="-153657" lat="61.2556249969" lon="8.83786389721">
		<tag k="name" v="Søre Synberg" />
		<tag k="natural" v="hill" />
		<tag k="place" v="locality" />
		<tag k="ssr:stedsnr" v="236748" />
	</node>
	<node id="-153656" lat="61.2033888883" lon="9.0113611041">
		<tag k="name" v="Bekkjihaugen" />
		<tag k="natural" v="hill" />
		<tag k="place" v="locality" />
		<tag k="ssr:stedsnr" v="236717" />
	</node>
	<node id="-153653" lat="61.2594111135" lon="8.9105916602">
		<tag k="fixme" v="consider natural=peak for the most distinct mountains in the district" />
		<tag k="name" v="Søre Knausen" />
		<tag k="natural" v="hill" />
		<tag k="ssr:stedsnr" v="236553" />
	</node>
	<node id="-153651" lat="61.2026472233" lon="9.22418055153">
		<tag k="name" v="Øydestølshaugadn" />
		<tag k="natural" v="hill" />
		<tag k="place" v="locality" />
		<tag k="ssr:stedsnr" v="236462" />
	</node>
	<node id="-153650" lat="61.170308334" lon="9.31449166985">
		<tag k="name" v="Dugurdshaugen" />
		<tag k="natural" v="hill" />
		<tag k="place" v="locality" />
		<tag k="ssr:stedsnr" v="236445" />
	</node>
	<node id="-153649" lat="61.16350833" lon="9.38249444426">
		<tag k="name" v="Synhaugen" />
		<tag k="natural" v="hill" />
		<tag k="place" v="locality" />
		<tag k="ssr:stedsnr" v="236434" />
	</node>
	<node id="-153643" lat="61.155277778" lon="9.05810832923">
		<tag k="name" v="Pålsrudhøvda" />
		<tag k="natural" v="hill" />
		<tag k="place" v="locality" />
		<tag k="ssr:stedsnr" v="236243" />
	</node>
	<node id="-153633" lat="61.1555777736" lon="9.03723888618">
		<tag k="name" v="Kampen" />
		<tag k="natural" v="slope" />
		<tag k="place" v="locality" />
		<tag k="ssr:stedsnr" v="236171" />
	</node>
	<node id="-153630" lat="61.171455554" lon="9.01985555419">
		<tag k="name" v="Storemyrberget" />
		<tag k="natural" v="hill" />
		<tag k="place" v="locality" />
		<tag k="ssr:stedsnr" v="236159" />
	</node>
	<node id="-153627" lat="61.1759666677" lon="9.01100555496">
		<tag k="name" v="Storhøvd" />
		<tag k="natural" v="hill" />
		<tag k="place" v="locality" />
		<tag k="ssr:stedsnr" v="236145" />
	</node>
	<node id="-153625" lat="61.1990305592" lon="9.05992778258">
		<tag k="name" v="Storemyrmoen" />
		<tag k="place" v="locality" />
		<tag k="ssr:stedsnr" v="236633" />
	</node>
	<node id="-153624" lat="61.1400361109" lon="9.12968611438">
		<tag k="name" v="Letmyrbakkadn" />
		<tag k="natural" v="slope" />
		<tag k="place" v="locality" />
		<tag k="ssr:stedsnr" v="236080" />
	</node>
	<node id="-153623" lat="61.1211861118" lon="9.13351111017">
		<tag k="name" v="Ragneberg" />
		<tag k="natural" v="hill" />
		<tag k="place" v="locality" />
		<tag k="ssr:stedsnr" v="236073" />
	</node>
	<node id="-153622" lat="61.1234694464" lon="9.10968610543">
		<tag k="name" v="Ålenhøvda" />
		<tag k="natural" v="hill" />
		<tag k="place" v="locality" />
		<tag k="ssr:stedsnr" v="236064" />
	</node>
	<node id="-153620" lat="61.1346722233" lon="9.3981083301">
		<tag k="name" v="Ørnsberg" />
		<tag k="natural" v="hill" />
		<tag k="place" v="locality" />
		<tag k="ssr:stedsnr" v="236007" />
	</node>
	<node id="-153619" lat="61.1307694467" lon="9.02661388677">
		<tag k="name" v="Brøthøvdreset" />
		<tag k="natural" v="valley" />
		<tag k="place" v="locality" />
		<tag k="ssr:stedsnr" v="235499" />
	</node>
	<node id="-153615" lat="61.1778361094" lon="9.06260000115">
		<tag k="name" v="Rangin" />
		<tag k="place" v="locality" />
		<tag k="ssr:stedsnr" v="235150" />
	</node>
	<node id="-153607" lat="61.2873277753" lon="9.2199833317">
		<tag k="fixme" v="consider natural=peak for the most distinct mountains in the district" />
		<tag k="name" v="Nasen" />
		<tag k="natural" v="hill" />
		<tag k="place" v="locality" />
		<tag k="ssr:stedsnr" v="191233" />
	</node>
	<node id="-153604" lat="61.2845416646" lon="8.91277777218">
		<tag k="alt_name" v="Kampin" />
		<tag k="fixme" v="consider natural=peak for the most distinct mountains in the district" />
		<tag k="name" v="Kampen" />
		<tag k="natural" v="hill" />
		<tag k="place" v="locality" />
		<tag k="ssr:stedsnr" v="190092" />
	</node>
</osm>
