<?xml version="1.0" encoding="UTF-8"?>
<osm generator="osmapis" version="0.6">
	<node id="-153429" lat="61.2378194482" lon="8.95308332568">
		<tag k="name" v="Nøbbamyre" />
		<tag k="natural" v="wetland" />
		<tag k="ssr:stedsnr" v="115893" />
	</node>
	<node id="-154612" lat="61.2222472211" lon="8.95828889019">
		<tag k="name" v="Skutemyre" />
		<tag k="natural" v="wetland" />
		<tag k="ssr:stedsnr" v="857455" />
	</node>
	<node id="-153427" lat="61.0882944476" lon="9.17588611424">
		<tag k="name" v="Ørnehjellmyradn" />
		<tag k="natural" v="wetland" />
		<tag k="ssr:stedsnr" v="115245" />
	</node>
	<node id="-153070" lat="61.161688885" lon="9.29261389514">
		<tag k="name" v="Øddadn" />
		<tag k="natural" v="wetland" />
		<tag k="ssr:stedsnr" v="368508" />
	</node>
	<node id="-153170" lat="61.1687638904" lon="8.92392222566">
		<tag k="name" v="Gunnarslettmyre" />
		<tag k="natural" v="wetland" />
		<tag k="ssr:stedsnr" v="478948" />
	</node>
	<node id="-153767" lat="61.1656250021" lon="9.11588611684">
		<tag k="name" v="Veslehøymyr" />
		<tag k="natural" v="wetland" />
		<tag k="ssr:stedsnr" v="419118" />
	</node>
	<node id="-153063" lat="61.0774805548" lon="9.10178333099">
		<tag k="name" v="Vindforodokke" />
		<tag k="place" v="locality" />
		<tag k="ssr:stedsnr" v="358665" />
	</node>
	<node id="-153062" lat="61.0741583329" lon="9.10161666251">
		<tag k="name" v="Kviteberghagin" />
		<tag k="place" v="locality" />
		<tag k="ssr:stedsnr" v="358664" />
	</node>
	<node id="-153059" lat="61.1915999983" lon="9.31284721827">
		<tag k="name" v="Kalvemyre" />
		<tag k="natural" v="wetland" />
		<tag k="ssr:stedsnr" v="358489" />
	</node>
	<node id="-154081" lat="61.27345833" lon="8.97806944403">
		<tag k="historic" v="shieling" />
		<tag k="name" v="Fjøshaug" />
		<tag k="place" v="locality" />
		<tag k="ssr:stedsnr" v="600929" />
	</node>
	<node id="-153053" lat="61.0694583364" lon="9.22646944041">
		<tag k="name" v="Jyristakken" />
		<tag k="place" v="locality" />
		<tag k="ssr:stedsnr" v="358094" />
	</node>
	<node id="-153047" lat="61.1670361101" lon="8.94934722186">
		<tag k="name" v="Gamlemannsmyre" />
		<tag k="place" v="locality" />
		<tag k="ssr:stedsnr" v="357943" />
	</node>
	<node id="-153046" lat="61.1677972266" lon="8.95185000298">
		<tag k="name" v="Smiomyre" />
		<tag k="place" v="locality" />
		<tag k="ssr:stedsnr" v="357940" />
	</node>
	<node id="-154059" lat="61.1587416711" lon="9.1532305502">
		<tag k="name" v="Ørnshøvdmyre" />
		<tag k="natural" v="wetland" />
		<tag k="ssr:stedsnr" v="600114" />
	</node>
	<node id="-154057" lat="61.1561527757" lon="9.080766675">
		<tag k="name" v="Sygnemyradn" />
		<tag k="natural" v="wetland" />
		<tag k="ssr:stedsnr" v="600036" />
	</node>
	<node id="-154055" lat="61.1684916647" lon="9.11853610337">
		<tag k="name" v="Blautsæte" />
		<tag k="place" v="locality" />
		<tag k="ssr:stedsnr" v="600018" />
	</node>
	<node id="-153028" lat="61.1349027812" lon="9.05517222078">
		<tag k="name" v="Bokolmyre" />
		<tag k="natural" v="wetland" />
		<tag k="ssr:stedsnr" v="357438" />
	</node>
	<node id="-153025" lat="61.142213885" lon="9.08076110379">
		<tag k="alt_name" v="Raubrøtmyre" />
		<tag k="name" v="Raudbrotmyre" />
		<tag k="natural" v="wetland" />
		<tag k="ssr:stedsnr" v="357428" />
	</node>
	<node id="-153023" lat="61.1060888916" lon="9.14330000365">
		<tag k="name" v="Møsamyre" />
		<tag k="natural" v="wetland" />
		<tag k="ssr:stedsnr" v="357407" />
	</node>
	<node id="-154558" lat="61.203052782" lon="8.98261388606">
		<tag k="name" v="Rustejordet" />
		<tag k="place" v="locality" />
		<tag k="ssr:stedsnr" v="843763" />
	</node>
	<node id="-153017" lat="61.1206805512" lon="9.05635556452">
		<tag k="name" v="Klukkarkjeldjordet" />
		<tag k="place" v="locality" />
		<tag k="ssr:stedsnr" v="357288" />
	</node>
	<node id="-154040" lat="61.1781916686" lon="9.30215833922">
		<tag k="name" v="Lomtjernmyran" />
		<tag k="natural" v="wetland" />
		<tag k="old_name" v="Lomtjednmyradn" />
		<tag k="ssr:stedsnr" v="599463" />
	</node>
	<node id="-154038" lat="61.1592194471" lon="9.36991388721">
		<tag k="historic" v="shieling" />
		<tag k="name" v="Suggesetlie" />
		<tag k="place" v="locality" />
		<tag k="ssr:stedsnr" v="599395" />
	</node>
	<node id="-154549" lat="61.1980444403" lon="9.31807499895">
		<tag k="name" v="Lokkarstein" />
		<tag k="natural" v="stone" />
		<tag k="ssr:stedsnr" v="843491" />
	</node>
	<node id="-154548" lat="61.2072083341" lon="9.3005972177">
		<tag k="name" v="Grønebakkin" />
		<tag k="place" v="locality" />
		<tag k="ssr:stedsnr" v="843489" />
	</node>
	<node id="-153006" lat="61.1514222257" lon="9.0701527765">
		<tag k="name" v="Dalabrøtin" />
		<tag k="place" v="locality" />
		<tag k="ssr:stedsnr" v="357041" />
	</node>
	<node id="-154027" lat="61.123600004" lon="9.14624166577">
		<tag k="name" v="Raubekkmyre" />
		<tag k="natural" v="wetland" />
		<tag k="ssr:stedsnr" v="599072" />
	</node>
	<node id="-153513" lat="61.0867055529" lon="9.18702221766">
		<tag k="name" v="Bolstadmyradn" />
		<tag k="natural" v="wetland" />
		<tag k="ssr:stedsnr" v="175221" />
	</node>
	<node id="-153502" lat="61.122680555" lon="9.12905555109">
		<tag k="name" v="Tåbakkmyre" />
		<tag k="natural" v="wetland" />
		<tag k="ssr:stedsnr" v="175061" />
	</node>
	<node id="-153616" lat="61.1763944483" lon="9.05113888061">
		<tag k="name" v="Gørrtjernmyre" />
		<tag k="natural" v="wetland" />
		<tag k="old_name" v="Gørrtjednmyre" />
		<tag k="ssr:stedsnr" v="235151" />
	</node>
	<node id="-152988" lat="61.2571250001" lon="8.97352778466">
		<tag k="name" v="Blautmyre" />
		<tag k="natural" v="wetland" />
		<tag k="ssr:stedsnr" v="311128" />
	</node>
	<node id="-153754" lat="61.2042249968" lon="8.99344444563">
		<tag k="name" v="Nilsedokke" />
		<tag k="place" v="locality" />
		<tag k="ssr:stedsnr" v="418657" />
	</node>
	<node id="-152986" lat="61.2652333302" lon="8.88350277776">
		<tag k="alt_name" v="Gardlimyradn" />
		<tag k="name" v="Gardlimyrane" />
		<tag k="natural" v="wetland" />
		<tag k="ssr:stedsnr" v="311121" />
	</node>
	<node id="-154520" lat="61.1377611154" lon="9.14505832883">
		<tag k="name" v="Storemyre" />
		<tag k="natural" v="wetland" />
		<tag k="ssr:stedsnr" v="843081" />
	</node>
	<node id="-153924" lat="61.1046277787" lon="9.02645833786">
		<tag k="name" v="Sjåheimmyre" />
		<tag k="natural" v="wetland" />
		<tag k="ssr:stedsnr" v="539301" />
	</node>
	<node id="-153753" lat="61.195875002" lon="8.95906666227">
		<tag k="name" v="Hestehagen" />
		<tag k="place" v="locality" />
		<tag k="ssr:stedsnr" v="418598" />
	</node>
	<node id="-154516" lat="61.1983611081" lon="8.92176389524">
		<tag k="name" v="Brumyre" />
		<tag k="natural" v="wetland" />
		<tag k="ssr:stedsnr" v="843604" />
	</node>
	<node id="-154500" lat="61.4477611116" lon="8.7950027765">
		<tag k="name" v="Leirungsmyrin" />
		<tag k="natural" v="wetland" />
		<tag k="ssr:stedsnr" v="797764" />
	</node>
	<node id="-154492" lat="61.3328000042" lon="9.17735555133">
		<tag k="historic" v="shieling" />
		<tag k="name" v="Fuksin" />
		<tag k="place" v="locality" />
		<tag k="ssr:stedsnr" v="797060" />
	</node>
	<node id="-154687" lat="61.2661416659" lon="8.82942223022">
		<tag k="name" v="Flåmyradn" />
		<tag k="natural" v="wetland" />
		<tag k="ssr:stedsnr" v="904783" />
	</node>
	<node id="-153163" lat="61.204436112" lon="8.98658333927">
		<tag k="historic" v="shieling" />
		<tag k="name" v="Dalheimstøladn" />
		<tag k="place" v="locality" />
		<tag k="ssr:stedsnr" v="478757" />
	</node>
	<node id="-153972" lat="61.1271722243" lon="9.13966667542">
		<tag k="loc_name" v="Storrmyre" />
		<tag k="name" v="Størrmyre" />
		<tag k="natural" v="wetland" />
		<tag k="ssr:stedsnr" v="552123" />
	</node>
	<node id="-152944" lat="61.1410861094" lon="9.12366388646">
		<tag k="alt_name" v="Letmyre" />
		<tag k="name" v="Letmyrane" />
		<tag k="natural" v="wetland" />
		<tag k="ssr:stedsnr" v="310096" />
	</node>
	<node id="-153449" lat="61.1684361147" lon="9.02267776852">
		<tag k="loc_name" v="Storemyr" />
		<tag k="name" v="Storemyre" />
		<tag k="natural" v="wetland" />
		<tag k="ssr:stedsnr" v="128022" />
	</node>
	<node id="-153960" lat="61.2342250016" lon="8.95609167102">
		<tag k="name" v="Kaldemyre" />
		<tag k="natural" v="wetland" />
		<tag k="ssr:stedsnr" v="540898" />
	</node>
	<node id="-153952" lat="61.0763388919" lon="9.17181111129">
		<tag k="name" v="Nylomyre" />
		<tag k="natural" v="wetland" />
		<tag k="ssr:stedsnr" v="540216" />
	</node>
	<node id="-153435" lat="61.0607777795" lon="9.13988888808">
		<tag k="name" v="Kvednamyre" />
		<tag k="natural" v="wetland" />
		<tag k="ssr:stedsnr" v="115527" />
	</node>
	<node id="-153941" lat="61.1665722243" lon="9.1167805567">
		<tag k="name" v="Vesle Høymyr" />
		<tag k="natural" v="wetland" />
		<tag k="ssr:stedsnr" v="540021" />
	</node>
	<node id="-153940" lat="61.1697222233" lon="9.13491666857">
		<tag k="name" v="Rolistølsmyre" />
		<tag k="natural" v="wetland" />
		<tag k="ssr:stedsnr" v="540018" />
	</node>
	<node id="-153939" lat="61.1753500043" lon="8.96375000769">
		<tag k="name" v="Rundemyre" />
		<tag k="natural" v="wetland" />
		<tag k="ssr:stedsnr" v="539971" />
	</node>
	<node id="-153426" lat="61.1418749957" lon="9.16335000305">
		<tag k="name" v="Jødnmannmyradn" />
		<tag k="natural" v="wetland" />
		<tag k="ssr:stedsnr" v="115230" />
	</node>
	<node id="-152912" lat="61.241383335" lon="9.00808889746">
		<tag k="name" v="Blauthøl" />
		<tag k="natural" v="wetland" />
		<tag k="ssr:stedsnr" v="297584" />
	</node>
	<node id="-153421" lat="61.1627222193" lon="9.11994444549">
		<tag k="name" v="Storehøymyr" />
		<tag k="natural" v="wetland" />
		<tag k="ssr:stedsnr" v="115111" />
	</node>
	<node id="-153360" lat="61.2029805567" lon="8.99718611896">
		<tag k="name" v="Stormyr" />
		<tag k="natural" v="wetland" />
		<tag k="ssr:stedsnr" v="67497" />
	</node>
	<node id="-152902" lat="61.074852782" lon="9.16497500235">
		<tag k="name" v="Køjamyra" />
		<tag k="natural" v="wetland" />
		<tag k="ssr:stedsnr" v="297230" />
	</node>
	<node id="-154436" lat="61.1673416695" lon="8.94487499856">
		<tag k="name" v="Øyadn" />
		<tag k="place" v="locality" />
		<tag k="ssr:stedsnr" v="782945" />
	</node>
	<node id="-153411" lat="61.2112527742" lon="8.95383610326">
		<tag k="name" v="Kjeldemyre" />
		<tag k="place" v="locality" />
		<tag k="ssr:stedsnr" v="114938" />
	</node>
	<node id="-154434" lat="61.2304666657" lon="8.95345554725">
		<tag k="name" v="Kalde myre" />
		<tag k="natural" v="wetland" />
		<tag k="ssr:stedsnr" v="782935" />
	</node>
	<node id="-153405" lat="61.1983833361" lon="8.92487222483">
		<tag k="name" v="Sagejorde" />
		<tag k="place" v="locality" />
		<tag k="ssr:stedsnr" v="114622" />
	</node>
	<node id="-152890" lat="61.1737916674" lon="9.11401111939">
		<tag k="name" v="Høvdemyradn" />
		<tag k="natural" v="wetland" />
		<tag k="ssr:stedsnr" v="297038" />
	</node>
	<node id="-153913" lat="61.1307333338" lon="9.02479443933">
		<tag k="name" v="Brøthøvdmyre" />
		<tag k="natural" v="wetland" />
		<tag k="ssr:stedsnr" v="539424" />
	</node>
	<node id="-153911" lat="61.1411500019" lon="9.04613056096">
		<tag k="name" v="Brustein" />
		<tag k="natural" v="stone" />
		<tag k="ssr:stedsnr" v="539421" />
	</node>
	<node id="-152876" lat="61.128680556" lon="9.09468055337">
		<tag k="name" v="Tøsteinsonbrennudn" />
		<tag k="place" v="locality" />
		<tag k="ssr:stedsnr" v="296425" />
	</node>
	<node id="-154411" lat="61.16774167" lon="9.33011667447">
		<tag k="name" v="Strypadn" />
		<tag k="natural" v="wetland" />
		<tag k="ssr:stedsnr" v="782434" />
	</node>
	<node id="-152869" lat="61.1577083314" lon="9.05520556352">
		<tag k="name" v="Breimyr" />
		<tag k="natural" v="wetland" />
		<tag k="ssr:stedsnr" v="296187" />
	</node>
	<node id="-153376" lat="61.2075916622" lon="9.02858055578">
		<tag k="alt_name" v="Vamyre" />
		<tag k="name" v="Vadmyre" />
		<tag k="natural" v="wetland" />
		<tag k="ssr:stedsnr" v="68511" />
	</node>
	<node id="-154399" lat="61.0764527776" lon="9.20264166487">
		<tag k="name" v="Bumyr" />
		<tag k="natural" v="wetland" />
		<tag k="ssr:stedsnr" v="782206" />
	</node>
	<node id="-153886" lat="61.200294445" lon="9.01130833831">
		<tag k="alt_name" v="Størrmyr" />
		<tag k="name" v="Storrmyr" />
		<tag k="natural" v="wetland" />
		<tag k="ssr:stedsnr" v="492443" />
	</node>
	<node id="-154386" lat="61.1775583356" lon="9.09787221848">
		<tag k="name" v="Nonsbekkmyre" />
		<tag k="natural" v="wetland" />
		<tag k="ssr:stedsnr" v="782123" />
	</node>
	<node id="-154384" lat="61.1255861151" lon="9.13107222301">
		<tag k="name" v="Vermemyre" />
		<tag k="natural" v="wetland" />
		<tag k="ssr:stedsnr" v="782075" />
	</node>
	<node id="-154382" lat="61.1606583362" lon="9.06275555262">
		<tag k="name" v="Fiskebekkbrøtin" />
		<tag k="place" v="locality" />
		<tag k="ssr:stedsnr" v="782020" />
	</node>
	<node id="-153133" lat="61.1309888895" lon="9.09768055852">
		<tag k="name" v="Øvre Moajordet" />
		<tag k="place" v="locality" />
		<tag k="ssr:stedsnr" v="478075" />
	</node>
	<node id="-153339" lat="61.1992500002" lon="8.9463500083">
		<tag k="name" v="Møsmyrene" />
		<tag k="natural" v="wetland" />
		<tag k="ssr:stedsnr" v="54941" />
	</node>
	<node id="-153335" lat="61.1981999981" lon="9.02555832687">
		<tag k="name" v="Vindemyre" />
		<tag k="natural" v="wetland" />
		<tag k="ssr:stedsnr" v="54739" />
	</node>
	<node id="-154357" lat="61.2392833338" lon="8.97182777475">
		<tag k="alt_name" v="Åkrokadn" />
		<tag k="name" v="Åkrokane" />
		<tag k="natural" v="wetland" />
		<tag k="ssr:stedsnr" v="735442" />
	</node>
	<node id="-153639" lat="61.0848138864" lon="9.18041388144">
		<tag k="alt_name" v="Bjødneslettmyre" />
		<tag k="name" v="Bjørneslettmyre" />
		<tag k="natural" v="wetland" />
		<tag k="ssr:stedsnr" v="236233" />
	</node>
	<node id="-153468" lat="61.2100638865" lon="9.00803611891">
		<tag k="loc_name" v="Skammesteinmyre" />
		<tag k="name" v="Varpamyre" />
		<tag k="natural" v="wetland" />
		<tag k="ssr:stedsnr" v="128472" />
	</node>
	<node id="-153297" lat="61.1551583336" lon="9.12481944478">
		<tag k="name" v="Karusmyre" />
		<tag k="natural" v="wetland" />
		<tag k="ssr:stedsnr" v="54097" />
	</node>
	<node id="-154832" lat="61.1708138858" lon="8.95393055523">
		<tag k="name" v="Riddaråkeren" />
		<tag k="place" v="locality" />
		<tag k="ssr:stedsnr" v="964929" />
	</node>
	<node id="-153306" lat="61.1832138872" lon="9.03275000467">
		<tag k="historic" v="shieling" />
		<tag k="name" v="Vangstjernstølen" />
		<tag k="old_name" v="Vangstjednstølen" />
		<tag k="place" v="locality" />
		<tag k="ssr:stedsnr" v="54144" />
	</node>
	<node id="-154326" lat="61.1958194465" lon="9.13659166714">
		<tag k="name" v="Murkhøvdmyre" />
		<tag k="natural" v="wetland" />
		<tag k="ssr:stedsnr" v="722768" />
	</node>
	<node id="-153299" lat="61.1623472207" lon="9.0802166609">
		<tag k="name" v="Saksbakke" />
		<tag k="place" v="locality" />
		<tag k="ssr:stedsnr" v="54029" />
	</node>
	<node id="-154834" lat="61.1776500026" lon="8.92587499207">
		<tag k="name" v="Trømyre" />
		<tag k="natural" v="wetland" />
		<tag k="ssr:stedsnr" v="964944" />
	</node>
	<node id="-154321" lat="61.1753305553" lon="9.24823333473">
		<tag k="name" v="Storemyre" />
		<tag k="natural" v="wetland" />
		<tag k="ssr:stedsnr" v="722482" />
	</node>
	<node id="-153808" lat="61.1923972217" lon="9.09400833217">
		<tag k="name" v="Blestremyre" />
		<tag k="natural" v="wetland" />
		<tag k="ssr:stedsnr" v="432010" />
	</node>
	<node id="-154831" lat="61.2188777788" lon="8.9520944525">
		<tag k="alt_name" v="Bjødnamyre" />
		<tag k="name" v="Bjørnamyre" />
		<tag k="natural" v="wetland" />
		<tag k="ssr:stedsnr" v="964925" />
	</node>
	<node id="-153294" lat="61.1195777769" lon="9.14031943768">
		<tag k="name" v="Storemyre" />
		<tag k="natural" v="wetland" />
		<tag k="ssr:stedsnr" v="54066" />
	</node>
	<node id="-154829" lat="61.2262777788" lon="8.94667777677">
		<tag k="name" v="Høvdamyradn" />
		<tag k="natural" v="wetland" />
		<tag k="ssr:stedsnr" v="964921" />
	</node>
	<node id="-154316" lat="61.097605553" lon="9.03859167023">
		<tag k="name" v="Eikremyre" />
		<tag k="natural" v="wetland" />
		<tag k="ssr:stedsnr" v="722319" />
	</node>
	<node id="-154315" lat="61.109019442" lon="9.1727861084">
		<tag k="name" v="Rognslimyre" />
		<tag k="natural" v="wetland" />
		<tag k="ssr:stedsnr" v="722240" />
	</node>
	<node id="-154311" lat="61.1223416671" lon="9.19502777296">
		<tag k="name" v="Åborhella" />
		<tag k="natural" v="stone" />
		<tag k="old_name" v="Øbbørhella" />
		<tag k="ssr:stedsnr" v="722222" />
	</node>
	<node id="-154308" lat="61.1460388899" lon="9.20320554968">
		<tag k="name" v="Grisemyre" />
		<tag k="natural" v="wetland" />
		<tag k="ssr:stedsnr" v="722204" />
	</node>
	<node id="-154307" lat="61.0709944407" lon="9.229066666">
		<tag k="name" v="Åsmyradn" />
		<tag k="natural" v="wetland" />
		<tag k="ssr:stedsnr" v="722104" />
	</node>
	<node id="-153791" lat="61.1956888908" lon="9.00628333906">
		<tag k="loc_name" v="Åsmyre" />
		<tag k="name" v="Åsmyr" />
		<tag k="natural" v="wetland" />
		<tag k="ssr:stedsnr" v="431002" />
	</node>
	<node id="-154276" lat="61.1244888912" lon="9.10996943986">
		<tag k="name" v="Ålenhøvdamyre" />
		<tag k="natural" v="wetland" />
		<tag k="ssr:stedsnr" v="721052" />
	</node>
	<node id="-153786" lat="61.294533332" lon="8.96941388889">
		<tag k="name" v="Klyvstein" />
		<tag k="natural" v="stone" />
		<tag k="ssr:stedsnr" v="420859" />
	</node>
	<node id="-153785" lat="61.2963333303" lon="8.93313055917">
		<tag k="name" v="Oleskardmyradn" />
		<tag k="natural" v="wetland" />
		<tag k="ssr:stedsnr" v="420854" />
	</node>
	<node id="-152948" lat="61.1163888888" lon="9.13297500927">
		<tag k="historic" v="shieling" />
		<tag k="name" v="Rolandstølen" />
		<tag k="place" v="locality" />
		<tag k="ssr:stedsnr" v="310148" />
	</node>
	<node id="-154294" lat="61.2071527815" lon="8.98473889317">
		<tag k="name" v="Vikajordet" />
		<tag k="place" v="locality" />
		<tag k="ssr:stedsnr" v="721664" />
	</node>
	<node id="-153780" lat="61.2242638873" lon="9.25084999338">
		<tag k="name" v="Bersetmyradn" />
		<tag k="natural" v="wetland" />
		<tag k="ssr:stedsnr" v="419485" />
	</node>
	<node id="-154803" lat="61.2411027801" lon="9.42487223037">
		<tag k="historic" v="shieling" />
		<tag k="name" v="Fiskevølladn" />
		<tag k="place" v="locality" />
		<tag k="ssr:stedsnr" v="964383" />
	</node>
	<node id="-154290" lat="61.2044666628" lon="8.98154443693">
		<tag k="name" v="Sveinsjordet" />
		<tag k="place" v="locality" />
		<tag k="ssr:stedsnr" v="721719" />
	</node>
	<node id="-154284" lat="61.1506166701" lon="9.23653055167">
		<tag k="historic" v="shieling" />
		<tag k="name" v="Jomfrusletta" />
		<tag k="place" v="locality" />
		<tag k="ssr:stedsnr" v="721160" />
	</node>
	<node id="-153257" lat="61.0824027814" lon="9.1707916723">
		<tag k="alt_name" v="Valdres skiferbrudd" />
		<tag k="landuse" v="quarry" />
		<tag k="name" v="Valdres skiferbrot" />
		<tag k="ssr:stedsnr" v="7233" />
	</node>
	<node id="-154791" lat="61.0808555541" lon="9.18948888663">
		<tag k="name" v="Klypemyrene" />
		<tag k="natural" v="wetland" />
		<tag k="ssr:stedsnr" v="964253" />
	</node>
	<node id="-154788" lat="61.1577416698" lon="9.16186388827">
		<tag k="name" v="Spissebergmyre" />
		<tag k="natural" v="wetland" />
		<tag k="ssr:stedsnr" v="964233" />
	</node>
	<node id="-154787" lat="61.1337861151" lon="9.22434722833">
		<tag k="name" v="Svartedyssmyre" />
		<tag k="natural" v="wetland" />
		<tag k="ssr:stedsnr" v="964225" />
	</node>
	<node id="-154274" lat="61.1185472189" lon="9.0147916585">
		<tag k="landuse" v="meadow" />
		<tag k="name" v="Grasdokk" />
		<tag k="ssr:stedsnr" v="721352" />
	</node>
	<node id="-153761" lat="61.2372805564" lon="8.96393055603">
		<tag k="name" v="Dykjynmyre" />
		<tag k="natural" v="wetland" />
		<tag k="ssr:stedsnr" v="418891" />
	</node>
	<node id="-153758" lat="61.2048722266" lon="9.0089694383">
		<tag k="alt_name" v="Varpemyrene" />
		<tag k="name" v="Varpemyre" />
		<tag k="natural" v="wetland" />
		<tag k="ssr:stedsnr" v="418724" />
	</node>
	<node id="-152917" lat="61.2412833314" lon="8.96167500229">
		<tag k="name" v="Finntøppjordet" />
		<tag k="place" v="locality" />
		<tag k="ssr:stedsnr" v="297935" />
	</node>
	<node id="-154778" lat="61.073508329" lon="9.23921110752">
		<tag k="name" v="Storevassmyr" />
		<tag k="natural" v="wetland" />
		<tag k="ssr:stedsnr" v="964103" />
	</node>
	<node id="-154777" lat="61.0686888924" lon="9.23471110483">
		<tag k="name" v="Veitemyre" />
		<tag k="natural" v="wetland" />
		<tag k="ssr:stedsnr" v="964102" />
	</node>
	<node id="-154775" lat="61.1214416674" lon="9.12108610262">
		<tag k="name" v="Brattebakkmyre" />
		<tag k="natural" v="wetland" />
		<tag k="ssr:stedsnr" v="964089" />
	</node>
	<node id="-153750" lat="61.0864583302" lon="9.10274722012">
		<tag k="name" v="Åborsteinane" />
		<tag k="natural" v="stone" />
		<tag k="old_name" v="Øbbersteinadn" />
		<tag k="ssr:stedsnr" v="418512" />
	</node>
	<node id="-153747" lat="61.1606749996" lon="9.38088333657">
		<tag k="historic" v="shieling" />
		<tag k="name" v="Gamlestølen" />
		<tag k="place" v="locality" />
		<tag k="ssr:stedsnr" v="418393" />
	</node>
	<node id="-154768" lat="61.0633250042" lon="9.14478332692">
		<tag k="name" v="Kælkemyre" />
		<tag k="natural" v="wetland" />
		<tag k="ssr:stedsnr" v="964534" />
	</node>
	<node id="-154766" lat="61.0986277743" lon="9.10283611297">
		<tag k="name" v="Flyvolladn" />
		<tag k="place" v="locality" />
		<tag k="ssr:stedsnr" v="964516" />
	</node>
	<node id="-153130" lat="61.1072555527" lon="9.0436111125">
		<tag k="historic" v="shieling" />
		<tag k="name" v="Eikrestølen" />
		<tag k="place" v="locality" />
		<tag k="ssr:stedsnr" v="479352" />
	</node>
	<node id="-154739" lat="61.2401944426" lon="9.28723332847">
		<tag k="alt_name" v="Bjødnhaugmyradn" />
		<tag k="name" v="Bjørnhaugmyrane" />
		<tag k="natural" v="wetland" />
		<tag k="ssr:stedsnr" v="917990" />
	</node>
	<node id="-152915" lat="61.2415444426" lon="8.97017221553">
		<tag k="name" v="Sløamyradn" />
		<tag k="natural" v="wetland" />
		<tag k="ssr:stedsnr" v="297928" />
	</node>
	<node id="-153171" lat="61.1796388921" lon="8.92193332794">
		<tag k="historic" v="shieling" />
		<tag k="name" v="Heimstølen" />
		<tag k="place" v="locality" />
		<tag k="ssr:stedsnr" v="478953" />
	</node>
	<node id="-153682" lat="61.0984166662" lon="9.17326110285">
		<tag k="name" v="Gråemyre" />
		<tag k="natural" v="wetland" />
		<tag k="old_name" v="Gråe myre" />
		<tag k="ssr:stedsnr" v="249163" />
	</node>
	<node id="-154188" lat="61.0599138894" lon="9.20516388178">
		<tag k="historic" v="shieling" />
		<tag k="loc_name" v="Tvengestølen" />
		<tag k="name" v="Tvengeseteren" />
		<tag k="place" v="locality" />
		<tag k="ssr:stedsnr" v="661225" />
	</node>
	<node id="-154699" lat="61.2014833291" lon="9.18666389711">
		<tag k="name" v="Stormyre" />
		<tag k="natural" v="wetland" />
		<tag k="ssr:stedsnr" v="917003" />
	</node>
	<node id="-154183" lat="61.1630527735" lon="9.17462499735">
		<tag k="name" v="Rennsennmyradn" />
		<tag k="natural" v="wetland" />
		<tag k="ssr:stedsnr" v="661189" />
	</node>
	<node id="-154180" lat="61.1850444443" lon="9.21317499876">
		<tag k="name" v="Fathaugsanden" />
		<tag k="natural" v="beach" />
		<tag k="ssr:stedsnr" v="661158" />
		<tag k="surface" v="sand" />
	</node>
	<node id="-153155" lat="61.1356611095" lon="9.03408334233">
		<tag k="name" v="Stølsmyre" />
		<tag k="natural" v="wetland" />
		<tag k="ssr:stedsnr" v="478470" />
	</node>
	<node id="-153665" lat="61.2300916634" lon="8.93553888239">
		<tag k="name" v="Tørumyre" />
		<tag k="natural" v="wetland" />
		<tag k="ssr:stedsnr" v="236951" />
	</node>
	<node id="-154176" lat="61.1537388933" lon="9.06669444002">
		<tag k="name" v="Timanbrøtin" />
		<tag k="place" v="locality" />
		<tag k="ssr:stedsnr" v="661027" />
	</node>
	<node id="-154175" lat="61.1676999966" lon="9.12026388196">
		<tag k="name" v="Langedrag" />
		<tag k="natural" v="wetland" />
		<tag k="ssr:stedsnr" v="661021" />
	</node>
	<node id="-154174" lat="61.1809944426" lon="8.94452221673">
		<tag k="name" v="Storemyre" />
		<tag k="natural" v="wetland" />
		<tag k="ssr:stedsnr" v="660977" />
	</node>
	<node id="-154171" lat="61.1750388929" lon="8.93709445166">
		<tag k="name" v="Øspedøtten" />
		<tag k="place" v="locality" />
		<tag k="ssr:stedsnr" v="660938" />
	</node>
	<node id="-154168" lat="61.2039277761" lon="8.94559445374">
		<tag k="name" v="Sverigjordet" />
		<tag k="place" v="locality" />
		<tag k="ssr:stedsnr" v="660915" />
	</node>
	<node id="-154806" lat="61.104783332" lon="9.15365276938">
		<tag k="name" v="Myreløomyre" />
		<tag k="natural" v="wetland" />
		<tag k="ssr:stedsnr" v="964428" />
	</node>
	<node id="-154291" lat="61.1306972194" lon="9.09543056246">
		<tag k="name" v="Moajordet" />
		<tag k="place" v="locality" />
		<tag k="ssr:stedsnr" v="721443" />
	</node>
	<node id="-153645" lat="61.0971027798" lon="9.04438332885">
		<tag k="name" v="Strandemyre" />
		<tag k="natural" v="wetland" />
		<tag k="ssr:stedsnr" v="236306" />
	</node>
	<node id="-154666" lat="61.1412111129" lon="9.15060000298">
		<tag k="name" v="Maradalsmyre" />
		<tag k="natural" v="wetland" />
		<tag k="ssr:stedsnr" v="904113" />
	</node>
	<node id="-154152" lat="61.1738166663" lon="9.02354444963">
		<tag k="name" v="Brekken" />
		<tag k="place" v="locality" />
		<tag k="ssr:stedsnr" v="660158" />
	</node>
	<node id="-154151" lat="61.1681916623" lon="9.02309722422">
		<tag k="name" v="Maramyre" />
		<tag k="natural" v="wetland" />
		<tag k="ssr:stedsnr" v="660155" />
	</node>
	<node id="-154150" lat="61.1668638852" lon="8.99146667475">
		<tag k="name" v="Mittskogmyre" />
		<tag k="natural" v="wetland" />
		<tag k="ssr:stedsnr" v="660148" />
	</node>
	<node id="-154149" lat="61.125186108" lon="9.13701945241">
		<tag k="name" v="Kloppmyre" />
		<tag k="natural" v="wetland" />
		<tag k="ssr:stedsnr" v="660089" />
	</node>
	<node id="-154659" lat="61.1757555511" lon="8.95006111139">
		<tag k="name" v="Øvrejordet" />
		<tag k="place" v="locality" />
		<tag k="ssr:stedsnr" v="903950" />
	</node>
	<node id="-154657" lat="61.2201638855" lon="8.97271945092">
		<tag k="name" v="Kleivmyradn" />
		<tag k="natural" v="wetland" />
		<tag k="ssr:stedsnr" v="903940" />
	</node>
	<node id="-153115" lat="61.1586305564" lon="8.93524999386">
		<tag k="name" v="Måfåmyradn" />
		<tag k="natural" v="wetland" />
		<tag k="ssr:stedsnr" v="236810" />
	</node>
	<node id="-153626" lat="61.1943499997" lon="9.08043333865">
		<tag k="name" v="Vindåsmyre" />
		<tag k="natural" v="wetland" />
		<tag k="ssr:stedsnr" v="236637" />
	</node>
	<node id="-153111" lat="61.1636416649" lon="8.96045277982">
		<tag k="name" v="Kløppemyradn" />
		<tag k="natural" v="wetland" />
		<tag k="ssr:stedsnr" v="236802" />
	</node>
	<node id="-153617" lat="61.1798000015" lon="9.05005833882">
		<tag k="historic" v="shieling" />
		<tag k="name" v="Vindebuvøllen" />
		<tag k="place" v="locality" />
		<tag k="ssr:stedsnr" v="235157" />
	</node>
	<node id="-154640" lat="61.1483972213" lon="9.02440833441">
		<tag k="name" v="Bakkenge" />
		<tag k="place" v="locality" />
		<tag k="ssr:stedsnr" v="903157" />
	</node>
	<node id="-154634" lat="61.1238305537" lon="9.13411110977">
		<tag k="historic" v="shieling" />
		<tag k="name" v="Andrissonstølen" />
		<tag k="place" v="locality" />
		<tag k="ssr:stedsnr" v="903084" />
	</node>
	<node id="-153608" lat="61.1619194432" lon="9.28771667513">
		<tag k="name" v="Søkkja" />
		<tag k="natural" v="wetland" />
		<tag k="ssr:stedsnr" v="203505" />
	</node>
	<node id="-154630" lat="61.1625333356" lon="9.27887222538">
		<tag k="name" v="Finnkjellmyre" />
		<tag k="natural" v="wetland" />
		<tag k="ssr:stedsnr" v="870488" />
	</node>
</osm>
