<?xml version="1.0" encoding="UTF-8"?>
<osm generator="osmapis" version="0.6">
	<node id="-153597" lat="61.1105527787" lon="9.10631110698">
		<tag k="name" v="Solberg" />
		<tag k="place" v="farm" />
		<tag k="ssr:stedsnr" v="175397" />
	</node>
	<node id="-153594" lat="61.1952361103" lon="8.98239165932">
		<tag k="name" v="Skammestein" />
		<tag k="place" v="farm" />
		<tag k="ssr:stedsnr" v="175741" />
	</node>
	<node id="-153592" lat="61.1600138906" lon="9.04795556204">
		<tag k="name" v="Lunngård" />
		<tag k="place" v="farm" />
		<tag k="ssr:stedsnr" v="175222" />
	</node>
	<node id="-153587" lat="61.067183333" lon="9.17958610461">
		<tag k="name" v="Bråten" />
		<tag k="place" v="farm" />
		<tag k="ssr:stedsnr" v="175212" />
	</node>
	<node id="-153585" lat="61.1693805563" lon="9.08758055936">
		<tag k="name" v="Høgtun" />
		<tag k="place" v="farm" />
		<tag k="ssr:stedsnr" v="175114" />
	</node>
	<node id="-153584" lat="61.1672361071" lon="9.09098888627">
		<tag k="name" v="Haugen" />
		<tag k="place" v="isolated_dwelling" />
		<tag k="ssr:stedsnr" v="175111" />
	</node>
	<node id="-153583" lat="61.1528514629" lon="9.22104200841">
		<tag k="name" v="Vangsbu" />
		<tag k="place" v="isolated_dwelling" />
		<tag k="ssr:stedsnr" v="175165" />
	</node>
	<node id="-153578" lat="61.0760611077" lon="9.12593055087">
		<tag k="loc_name" v="Småbrøtin" />
		<tag k="name" v="Småbråten" />
		<tag k="place" v="farm" />
		<tag k="ssr:stedsnr" v="167434" />
	</node>
	<node id="-153577" lat="61.0739805564" lon="9.10796945267">
		<tag k="loc_name" v="Brubrøtin" />
		<tag k="name" v="Brubråten" />
		<tag k="place" v="farm" />
		<tag k="ssr:stedsnr" v="167410" />
	</node>
	<node id="-153575" lat="61.065944448" lon="9.16016943535">
		<tag k="name" v="Krøsshaugen" />
		<tag k="place" v="quarter" />
		<tag k="ssr:stedsnr" v="167174" />
	</node>
	<node id="-153574" lat="61.2417448036" lon="8.85447982464">
		<tag k="fixme" v="consider place=hamlet" />
		<tag k="name" v="Nørdre Beito" />
		<tag k="place" v="farm" />
		<tag k="ssr:stedsnr" v="165910" />
	</node>
	<node id="-153571" lat="61.1902027764" lon="9.00053889229">
		<tag k="loc_name" v="Øvre Mørstad" />
		<tag k="name" v="Mørstad" />
		<tag k="place" v="farm" />
		<tag k="ssr:stedsnr" v="165161" />
	</node>
	<node id="-153570" lat="61.2033472204" lon="8.96570554727">
		<tag k="loc_name" v="Søre Hedalen" />
		<tag k="name" v="Hedalen" />
		<tag k="place" v="farm" />
		<tag k="ssr:stedsnr" v="165145" />
	</node>
	<node id="-153569" lat="61.1460055552" lon="9.06421110548">
		<tag k="amenity" v="nursing_home" />
		<tag k="name" v="Moatunet" />
		<tag k="ssr:stedsnr" v="163204" />
	</node>
	<node id="-153564" lat="61.1055555587" lon="9.06453610191">
		<tag k="name" v="Strande" />
		<tag k="place" v="farm" />
		<tag k="ssr:stedsnr" v="129483" />
	</node>
	<node id="-153561" lat="61.3244944459" lon="8.88958334067">
		<tag k="historic" v="shieling" />
		<tag k="name" v="Sanddalen" />
		<tag k="place" v="locality" />
		<tag k="ssr:stedsnr" v="129076" />
	</node>
	<node id="-153550" lat="61.0705750036" lon="9.16424166971">
		<tag k="alt_name" v="Kollstadbakken" />
		<tag k="name" v="Bakken" />
		<tag k="place" v="farm" />
		<tag k="ssr:stedsnr" v="128857" />
	</node>
	<node id="-153549" lat="61.0656611136" lon="9.1452388874">
		<tag k="alt_name" v="Hovimarken" />
		<tag k="name" v="Hovsmarki" />
		<tag k="place" v="farm" />
		<tag k="ssr:stedsnr" v="128854" />
	</node>
	<node id="-153547" lat="61.2168000009" lon="9.04621945335">
		<tag k="name" v="Dælistølen" />
		<tag k="place" v="locality" />
		<tag k="ssr:stedsnr" v="128477" />
	</node>
	<node id="-153543" lat="61.2050573412" lon="8.96718499985">
		<tag k="fixme" v="consider place=hamlet" />
		<tag k="name" v="Berg" />
		<tag k="place" v="farm" />
		<tag k="ssr:stedsnr" v="128461" />
	</node>
	<node id="-153542" lat="61.2362194412" lon="9.14285000773">
		<tag k="historic" v="shieling" />
		<tag k="name" v="Kristianstølen" />
		<tag k="place" v="locality" />
		<tag k="ssr:stedsnr" v="128438" />
	</node>
	<node id="-153539" lat="61.0727499994" lon="9.09819445195">
		<tag k="alt_name" v="Vesle-Rudi;Vesle Røe" />
		<tag k="name" v="Rudi" />
		<tag k="place" v="farm" />
		<tag k="ssr:stedsnr" v="128205" />
	</node>
	<node id="-153537" lat="61.1165611071" lon="9.05668611997">
		<tag k="alt_name" v="Eikra" />
		<tag k="name" v="Ekren" />
		<tag k="place" v="farm" />
		<tag k="ssr:stedsnr" v="128136" />
	</node>
	<node id="-153536" lat="61.1125805585" lon="9.15090277493">
		<tag k="historic" v="shieling" />
		<tag k="name" v="Nystølen" />
		<tag k="place" v="locality" />
		<tag k="ssr:stedsnr" v="128132" />
	</node>
	<node id="-153533" lat="61.0941500005" lon="9.08034166278">
		<tag k="name" v="Renna" />
		<tag k="place" v="farm" />
		<tag k="ssr:stedsnr" v="128157" />
	</node>
	<node id="-153532" lat="61.0894249985" lon="9.08365832741">
		<tag k="alt_name" v="Vestlund" />
		<tag k="name" v="Vestland" />
		<tag k="place" v="isolated_dwelling" />
		<tag k="ssr:stedsnr" v="128156" />
	</node>
	<node id="-153530" lat="61.1165391121" lon="9.06681255588">
		<tag k="fixme" v="consider place=hamlet" />
		<tag k="name" v="Onstad" />
		<tag k="place" v="farm" />
		<tag k="ssr:stedsnr" v="128094" />
	</node>
	<node id="-153528" lat="61.1631638893" lon="8.98212500662">
		<tag k="name" v="Nordtorpbergene" />
		<tag k="place" v="farm" />
		<tag k="ssr:stedsnr" v="128045" />
	</node>
	<node id="-153499" lat="61.1584444424" lon="9.02702499146">
		<tag k="name" v="Jordet" />
		<tag k="place" v="farm" />
		<tag k="ssr:stedsnr" v="115188" />
	</node>
	<node id="-153497" lat="61.1451638931" lon="9.0654138803">
		<tag k="name" v="Mosveen" />
		<tag k="place" v="isolated_dwelling" />
		<tag k="ssr:stedsnr" v="115047" />
	</node>
	<node id="-153492" lat="61.1801277763" lon="8.95826111049">
		<tag k="name" v="Melbysbrøtin" />
		<tag k="place" v="locality" />
		<tag k="ssr:stedsnr" v="114981" />
	</node>
	<node id="-153491" lat="61.167930555" lon="8.9672750047">
		<tag k="name" v="Nedre Dale" />
		<tag k="place" v="farm" />
		<tag k="ssr:stedsnr" v="114974" />
	</node>
	<node id="-153487" lat="61.1986638919" lon="8.97406944899">
		<tag k="name" v="Nyrud" />
		<tag k="place" v="farm" />
		<tag k="ssr:stedsnr" v="114935" />
	</node>
	<node id="-153486" lat="61.2514722257" lon="8.88125000898">
		<tag k="name" v="Beitoli" />
		<tag k="place" v="isolated_dwelling" />
		<tag k="ssr:stedsnr" v="114916" />
	</node>
	<node id="-153485" lat="61.242575002" lon="8.84047222769">
		<tag k="name" v="Bjørklund" />
		<tag k="place" v="isolated_dwelling" />
		<tag k="ssr:stedsnr" v="114838" />
	</node>
	<node id="-153479" lat="61.1602888904" lon="9.00295000746">
		<tag k="building" v="industrial" />
		<tag k="name" v="Nordtorpsage" />
		<tag k="ssr:stedsnr" v="114147" />
	</node>
	<node id="-153478" lat="61.1701111122" lon="8.99190000908">
		<tag k="name" v="Lauvbrøtin" />
		<tag k="place" v="locality" />
		<tag k="ssr:stedsnr" v="114137" />
	</node>
	<node id="-153474" lat="61.1823666658" lon="8.99691112025">
		<tag k="name" v="Delskogen" />
		<tag k="place" v="farm" />
		<tag k="ssr:stedsnr" v="114119" />
	</node>
	<node id="-153469" lat="61.1890002658" lon="9.0000358789">
		<tag k="loc_name" v="Søre Mørstad" />
		<tag k="name" v="Mørstad" />
		<tag k="place" v="farm" />
		<tag k="ssr:stedsnr" v="105180" />
	</node>
	<node id="-153468" lat="61.2044055516" lon="8.96220556464">
		<tag k="loc_name" v="Nørdre Hedalen" />
		<tag k="name" v="Hedalen" />
		<tag k="place" v="farm" />
		<tag k="ssr:stedsnr" v="105122" />
	</node>
	<node id="-153467" lat="61.2536388912" lon="8.81112222588">
		<tag k="name" v="Søre Lykken" />
		<tag k="place" v="farm" />
		<tag k="ssr:stedsnr" v="104886" />
	</node>
	<node id="-153466" lat="61.1452277786" lon="9.06373889811">
		<tag k="loc_name" v="Moamarken" />
		<tag k="name" v="Marken" />
		<tag k="place" v="farm" />
		<tag k="ssr:stedsnr" v="104275" />
	</node>
	<node id="-153465" lat="61.1656611886" lon="9.09219415119">
		<tag k="name" v="Robøle" />
		<tag k="place" v="hamlet" />
		<tag k="ssr:stedsnr" v="104255" />
	</node>
	<node id="-153464" lat="61.2418916626" lon="8.9107750046">
		<tag k="name" v="Harakroken" />
		<tag k="place" v="locality" />
		<tag k="ssr:stedsnr" v="100961" />
	</node>
	<node id="-153455" lat="61.1794166678" lon="9.36814167023">
		<tag k="alt_name" v="Skåltjednstølen" />
		<tag k="historic" v="shieling" />
		<tag k="name" v="Skåltjernstølen" />
		<tag k="place" v="locality" />
		<tag k="ssr:stedsnr" v="68957" />
	</node>
	<node id="-153454" lat="61.214358334" lon="8.91310555451">
		<tag k="alt_name" v="Skalet" />
		<tag k="name" v="Skardet" />
		<tag k="place" v="farm" />
		<tag k="ssr:stedsnr" v="68513" />
	</node>
	<node id="-153452" lat="61.0795833312" lon="9.14098333815">
		<tag k="name" v="Grobakken" />
		<tag k="place" v="farm" />
		<tag k="ssr:stedsnr" v="68244" />
	</node>
	<node id="-153451" lat="61.2659861104" lon="8.80804166259">
		<tag k="name" v="Tjernhaug" />
		<tag k="old_name" v="Tjednhaugstølen" />
		<tag k="place" v="isolated_dwelling" />
		<tag k="ssr:stedsnr" v="68212" />
	</node>
	<node id="-153449" lat="61.1158277767" lon="9.14549999154">
		<tag k="historic" v="shieling" />
		<tag k="name" v="Strypen" />
		<tag k="place" v="locality" />
		<tag k="ssr:stedsnr" v="68164" />
	</node>
	<node id="-153446" lat="61.1696444429" lon="9.04693611243">
		<tag k="alt_name" v="Bergo" />
		<tag k="name" v="Bergene" />
		<tag k="place" v="farm" />
		<tag k="ssr:stedsnr" v="68041" />
	</node>
	<node id="-153444" lat="61.1717611132" lon="9.07035554918">
		<tag k="name" v="Nordstad" />
		<tag k="place" v="farm" />
		<tag k="ssr:stedsnr" v="68030" />
	</node>
	<node id="-153442" lat="61.1196166669" lon="9.05248056322">
		<tag k="name" v="Mattisgarden" />
		<tag k="place" v="farm" />
		<tag k="ssr:stedsnr" v="68135" />
	</node>
	<node id="-153441" lat="61.1248333373" lon="9.06593888485">
		<tag k="name" v="Tinden" />
		<tag k="place" v="farm" />
		<tag k="ssr:stedsnr" v="68129" />
	</node>
	<node id="-153440" lat="61.1171277738" lon="9.08754999541">
		<tag k="name" v="Roland" />
		<tag k="place" v="farm" />
		<tag k="ssr:stedsnr" v="68125" />
	</node>
	<node id="-153439" lat="61.0550666646" lon="9.17998610773">
		<tag k="alt_name" v="Lineikra" />
		<tag k="name" v="Lineikrehagen" />
		<tag k="place" v="farm" />
		<tag k="ssr:stedsnr" v="67827" />
	</node>
	<node id="-153438" lat="61.2036999974" lon="8.98927777806">
		<tag k="historic" v="shieling" />
		<tag k="name" v="Liastølane" />
		<tag k="place" v="locality" />
		<tag k="ssr:stedsnr" v="67501" />
	</node>
	<node id="-153434" lat="61.0989527814" lon="9.11854722044">
		<tag k="alt_name" v="Brønnstad" />
		<tag k="name" v="Brønstad" />
		<tag k="place" v="farm" />
		<tag k="ssr:stedsnr" v="67206" />
	</node>
	<node id="-153432" lat="61.170497218" lon="8.91408610722">
		<tag k="alt_name" v="Røyneshovda" />
		<tag k="name" v="Høvda" />
		<tag k="place" v="farm" />
		<tag k="ssr:stedsnr" v="67041" />
	</node>
	<node id="-153427" lat="61.3390111143" lon="9.01341944726">
		<tag k="name" v="Larsbue" />
		<tag k="place" v="locality" />
		<tag k="ssr:stedsnr" v="58651" />
	</node>
	<node id="-153426" lat="61.1967611122" lon="9.14167221891">
		<tag k="name" v="Yddin fjellstogo" />
		<tag k="old_name" v="Yddin fjellstove;Yddin fjellstue" />
		<tag k="ssr:stedsnr" v="58529" />
		<tag k="tourism" v="hotel" />
	</node>
	<node id="-153418" lat="61.1877527743" lon="8.97174721342">
		<tag k="name" v="Vikaplassen" />
		<tag k="place" v="isolated_dwelling" />
		<tag k="ssr:stedsnr" v="54982" />
	</node>
	<node id="-153407" lat="61.079369447" lon="9.12769443541">
		<tag k="name" v="Kloppebråten" />
		<tag k="place" v="locality" />
		<tag k="ssr:stedsnr" v="54650" />
	</node>
	<node id="-153401" lat="61.0974777808" lon="9.14420832836">
		<tag k="name" v="Steinsli" />
		<tag k="place" v="farm" />
		<tag k="ssr:stedsnr" v="54541" />
	</node>
	<node id="-153396" lat="61.1249083328" lon="9.07628056403">
		<tag k="name" v="Lauvrud" />
		<tag k="place" v="isolated_dwelling" />
		<tag k="ssr:stedsnr" v="54467" />
	</node>
	<node id="-153394" lat="61.0867527808" lon="9.07196945112">
		<tag k="historic" v="shieling" />
		<tag k="name" v="Dokkestølen" />
		<tag k="place" v="locality" />
		<tag k="ssr:stedsnr" v="54326" />
	</node>
	<node id="-153393" lat="61.0652277734" lon="9.16538610708">
		<tag k="name" v="Tvengejordet" />
		<tag k="place" v="farm" />
		<tag k="ssr:stedsnr" v="54261" />
	</node>
	<node id="-153392" lat="61.061230554" lon="9.1660861102">
		<tag k="name" v="Haugen" />
		<tag k="place" v="farm" />
		<tag k="ssr:stedsnr" v="54257" />
	</node>
	<node id="-153391" lat="61.1652750013" lon="9.04182223082">
		<tag k="name" v="Høgheim" />
		<tag k="place" v="isolated_dwelling" />
		<tag k="ssr:stedsnr" v="54240" />
	</node>
	<node id="-153386" lat="61.1028608917" lon="9.11489556798">
		<tag k="name" v="Rognerud" />
		<tag k="place" v="farm" />
		<tag k="ssr:stedsnr" v="54424" />
	</node>
	<node id="-153385" lat="61.1087750031" lon="9.10686667089">
		<tag k="name" v="Grindaplassen" />
		<tag k="place" v="farm" />
		<tag k="ssr:stedsnr" v="54377" />
	</node>
	<node id="-153382" lat="61.1844666663" lon="9.00267777379">
		<tag k="name" v="Markeng" />
		<tag k="place" v="isolated_dwelling" />
		<tag k="ssr:stedsnr" v="54141" />
	</node>
	<node id="-153380" lat="61.167058334" lon="9.07138333584">
		<tag k="name" v="Hauge" />
		<tag k="place" v="farm" />
		<tag k="ssr:stedsnr" v="54129" />
	</node>
	<node id="-153370" lat="61.1478999997" lon="9.05841666479">
		<tag k="name" v="Solstad" />
		<tag k="place" v="isolated_dwelling" />
		<tag k="ssr:stedsnr" v="54053" />
	</node>
	<node id="-153368" lat="61.173233336" lon="8.94836111651">
		<tag k="loc_name" v="Søre Melby" />
		<tag k="name" v="Melby" />
		<tag k="place" v="farm" />
		<tag k="ssr:stedsnr" v="44199" />
	</node>
	<node id="-153367" lat="61.1851222228" lon="8.9627305623">
		<tag k="loc_name" v="Skolteplassen" />
		<tag k="name" v="Plassen" />
		<tag k="place" v="farm" />
		<tag k="ssr:stedsnr" v="44163" />
	</node>
	<node id="-153366" lat="61.1169888848" lon="9.06585000365">
		<tag k="alt_name" v="Onstad mellom" />
		<tag k="name" v="Mellom-Onstad" />
		<tag k="place" v="farm" />
		<tag k="ssr:stedsnr" v="43783" />
	</node>
	<node id="-153365" lat="61.1181194428" lon="9.06065000409">
		<tag k="loc_name" v="Nørdre Jørstad" />
		<tag k="name" v="Jørstad" />
		<tag k="place" v="farm" />
		<tag k="ssr:stedsnr" v="43782" />
	</node>
	<node id="-153364" lat="61.16506111" lon="9.09586667383">
		<tag k="loc_name" v="Søre Robøle" />
		<tag k="name" v="Robøle" />
		<tag k="place" v="farm" />
		<tag k="ssr:stedsnr" v="43219" />
	</node>
	<node id="-153360" lat="61.2513253771" lon="8.92981187155">
		<tag k="historic" v="shieling" />
		<tag k="name" v="Åsestølen" />
		<tag k="place" v="locality" />
		<tag k="ssr:stedsnr" v="8111" />
	</node>
	<node id="-153357" lat="61.2656305531" lon="9.02777777418">
		<tag k="alt_name" v="Øysterlistølen" />
		<tag k="historic" v="shieling" />
		<tag k="name" v="Øysterlie" />
		<tag k="place" v="locality" />
		<tag k="ssr:stedsnr" v="8101" />
	</node>
	<node id="-153352" lat="61.3140416676" lon="9.01015556109">
		<tag k="name" v="Vollsbue" />
		<tag k="old_name" v="Vollsbuene" />
		<tag k="place" v="isolated_dwelling" />
		<tag k="ssr:stedsnr" v="8070" />
	</node>
	<node id="-153351" lat="61.3410666677" lon="8.97459999774">
		<tag k="historic" v="shieling" />
		<tag k="name" v="Urek" />
		<tag k="place" v="locality" />
		<tag k="ssr:stedsnr" v="8064" />
	</node>
	<node id="-153345" lat="61.1477972193" lon="9.40633888151">
		<tag k="historic" v="shieling" />
		<tag k="name" v="Etnlie" />
		<tag k="place" v="locality" />
		<tag k="ssr:stedsnr" v="7956" />
	</node>
	<node id="-153338" lat="61.2007944414" lon="8.93018889353">
		<tag k="alt_name" v="Bakkane" />
		<tag k="name" v="Bakkene" />
		<tag k="place" v="farm" />
		<tag k="ssr:stedsnr" v="7465" />
	</node>
	<node id="-153336" lat="61.0738999969" lon="9.09664721863">
		<tag k="name" v="Røsseng" />
		<tag k="place" v="farm" />
		<tag k="ssr:stedsnr" v="7249" />
	</node>
	<node id="-153335" lat="61.2576472214" lon="8.77225278695">
		<tag k="alt_name" v="Skrebergo" />
		<tag k="name" v="Skredbergi" />
		<tag k="place" v="farm" />
		<tag k="ssr:stedsnr" v="7241" />
	</node>
	<node id="-153333" lat="61.2755500028" lon="8.8337861066">
		<tag k="alt_name" v="Smørkøll" />
		<tag k="historic" v="shieling" />
		<tag k="name" v="Smørkoll" />
		<tag k="place" v="locality" />
		<tag k="ssr:stedsnr" v="7218" />
	</node>
	<node id="-153332" lat="61.1078194414" lon="9.11995278085">
		<tag k="name" v="Skreobråten" />
		<tag k="place" v="farm" />
		<tag k="ssr:stedsnr" v="7178" />
	</node>
	<node id="-153331" lat="61.113420081" lon="9.11186319736">
		<tag k="fixme" v="consider place=hamlet" />
		<tag k="name" v="Rolandsgarden" />
		<tag k="place" v="farm" />
		<tag k="ssr:stedsnr" v="7177" />
	</node>
	<node id="-153330" lat="61.1228083372" lon="9.20126944621">
		<tag k="alt_name" v="Brendehøvda" />
		<tag k="name" v="Brendehovda" />
		<tag k="place" v="isolated_dwelling" />
		<tag k="ssr:stedsnr" v="7166" />
	</node>
	<node id="-153329" lat="61.1205944455" lon="9.02442499405">
		<tag k="alt_name" v="Kinnebakkadn" />
		<tag k="historic" v="shieling" />
		<tag k="name" v="Kinnebakkane" />
		<tag k="place" v="locality" />
		<tag k="ssr:stedsnr" v="7149" />
	</node>
	<node id="-153328" lat="61.1238333325" lon="9.04737777803">
		<tag k="name" v="Vinger" />
		<tag k="place" v="farm" />
		<tag k="ssr:stedsnr" v="7146" />
	</node>
	<node id="-153326" lat="61.1307749963" lon="9.04395832521">
		<tag k="name" v="Moen" />
		<tag k="place" v="farm" />
		<tag k="ssr:stedsnr" v="7126" />
	</node>
	<node id="-153323" lat="61.161127781" lon="9.04348612005">
		<tag k="name" v="Heggelund" />
		<tag k="place" v="farm" />
		<tag k="ssr:stedsnr" v="7076" />
	</node>
	<node id="-153320" lat="61.1614222191" lon="9.21125556428">
		<tag k="historic" v="shieling" />
		<tag k="name" v="Bukono" />
		<tag k="place" v="locality" />
		<tag k="ssr:stedsnr" v="7064" />
	</node>
	<node id="-153319" lat="61.1660333332" lon="9.04320833579">
		<tag k="alt_name" v="Høgdi" />
		<tag k="name" v="Høgden" />
		<tag k="place" v="farm" />
		<tag k="ssr:stedsnr" v="7059" />
	</node>
	<node id="-153317" lat="61.175563892" lon="8.99460556223">
		<tag k="name" v="Skogheim" />
		<tag k="place" v="farm" />
		<tag k="ssr:stedsnr" v="7046" />
	</node>
	<node id="-153311" lat="61.1935249994" lon="9.20527500227">
		<tag k="historic" v="shieling" />
		<tag k="name" v="Glåmstølen" />
		<tag k="place" v="locality" />
		<tag k="ssr:stedsnr" v="7014" />
	</node>
	<node id="-153310" lat="61.0666326051" lon="9.14856631089">
		<tag k="alt_name" v="Hove" />
		<tag k="fixme" v="consider place=hamlet" />
		<tag k="name" v="Hovi" />
		<tag k="place" v="farm" />
		<tag k="ssr:stedsnr" v="6863" />
	</node>
	<node id="-153309" lat="61.2026083377" lon="8.95604722528">
		<tag k="alt_name" v="Hedalen" />
		<tag k="loc_name" v="Sandbuhaugen" />
		<tag k="name" v="Haugen" />
		<tag k="place" v="farm" />
		<tag k="ssr:stedsnr" v="6522" />
	</node>
	<node id="-153308" lat="61.1980194445" lon="9.07819166585">
		<tag k="historic" v="shieling" />
		<tag k="name" v="Nedrestølen" />
		<tag k="place" v="locality" />
		<tag k="ssr:stedsnr" v="6510" />
	</node>
	<node id="-153305" lat="61.2249527747" lon="9.03943611817">
		<tag k="name" v="Myrestølen" />
		<tag k="place" v="isolated_dwelling" />
		<tag k="ssr:stedsnr" v="6482" />
	</node>
	<node id="-153304" lat="61.2308249972" lon="8.93859165894">
		<tag k="name" v="Bjørnahaugen" />
		<tag k="place" v="isolated_dwelling" />
		<tag k="ssr:stedsnr" v="6480" />
	</node>
	<node id="-153303" lat="61.1000666678" lon="9.14882500305">
		<tag k="alt_name" v="Heimstølar" />
		<tag k="historic" v="shieling" />
		<tag k="name" v="Heimstølbakken" />
		<tag k="place" v="locality" />
		<tag k="ssr:stedsnr" v="6192" />
	</node>
	<node id="-153302" lat="61.1981444489" lon="8.98187778103">
		<tag k="fixme" v="consider place=hamlet" />
		<tag k="name" v="Skammestein" />
		<tag k="place" v="village" />
		<tag k="ssr:stedsnr" v="6001" />
	</node>
	<node id="-153292" lat="61.1526534661" lon="9.04602768469">
		<tag k="fixme" v="consider place=hamlet" />
		<tag k="name" v="Vøle" />
		<tag k="place" v="farm" />
		<tag k="ssr:stedsnr" v="986662" />
	</node>
	<node id="-153291" lat="61.1601713858" lon="9.01575300625">
		<tag k="name" v="Hegge" />
		<tag k="place" v="hamlet" />
		<tag k="ssr:stedsnr" v="986661" />
	</node>
	<node id="-153290" lat="61.168527181" lon="8.96058713082">
		<tag k="name" v="Dale" />
		<tag k="place" v="hamlet" />
		<tag k="ssr:stedsnr" v="986659" />
	</node>
	<node id="-153289" lat="61.1740804386" lon="8.9474868301">
		<tag k="fixme" v="consider place=hamlet" />
		<tag k="name" v="Melby" />
		<tag k="place" v="farm" />
		<tag k="ssr:stedsnr" v="986658" />
	</node>
	<node id="-153288" lat="61.2033035093" lon="8.9633431935">
		<tag k="fixme" v="consider place=hamlet" />
		<tag k="name" v="Hedalen" />
		<tag k="place" v="farm" />
		<tag k="ssr:stedsnr" v="986640" />
	</node>
	<node id="-153287" lat="61.2582899253" lon="8.79310790121">
		<tag k="fixme" v="consider place=hamlet" />
		<tag k="name" v="Lykkja" />
		<tag k="place" v="farm" />
		<tag k="ssr:stedsnr" v="986639" />
	</node>
	<node id="-153269" lat="61.2316373797" lon="8.93214848111">
		<tag k="name" v="Bamselie" />
		<tag k="place" v="quarter" />
		<tag k="ssr:stedsnr" v="981971" />
	</node>
	<node id="-153265" lat="61.0665305559" lon="9.18344722678">
		<tag k="loc_name" v="Øygardsbakken" />
		<tag k="name" v="Ødegårdsbakken" />
		<tag k="place" v="farm" />
		<tag k="ssr:stedsnr" v="896509" />
	</node>
	<node id="-153263" lat="61.1534611084" lon="9.0335722201">
		<tag k="loc_name" v="Søre Vollene" />
		<tag k="name" v="Vollene" />
		<tag k="place" v="farm" />
		<tag k="ssr:stedsnr" v="894198" />
	</node>
	<node id="-153262" lat="61.1956476437" lon="8.98548080956">
		<tag k="fixme" v="consider place=hamlet" />
		<tag k="name" v="Skammestein" />
		<tag k="place" v="farm" />
		<tag k="ssr:stedsnr" v="894175" />
	</node>
	<node id="-153261" lat="61.1435420942" lon="9.06712174923">
		<tag k="fixme" v="consider place=hamlet" />
		<tag k="loc_name" v="Nørdre Moen" />
		<tag k="name" v="Moen" />
		<tag k="place" v="farm" />
		<tag k="ssr:stedsnr" v="893798" />
	</node>
	<node id="-153258" lat="61.2147499987" lon="8.9435222174">
		<tag k="alt_name" v="Okshovd" />
		<tag k="fixme" v="multiple name tags, choose one and add the other to alt_name" />
		<tag k="loc_name" v="Ukshovdhaugen" />
		<tag k="name" v="Haugen;Okshovdhaugen" />
		<tag k="place" v="farm" />
		<tag k="ssr:stedsnr" v="888457" />
	</node>
	<node id="-153257" lat="61.0631666688" lon="9.16016943605">
		<tag k="name" v="Haug" />
		<tag k="place" v="farm" />
		<tag k="ssr:stedsnr" v="479240" />
	</node>
	<node id="-153256" lat="61.0834694459" lon="9.15668056279">
		<tag k="building" v="industrial" />
		<tag k="name" v="Hov Industrier" />
		<tag k="ssr:stedsnr" v="479232" />
	</node>
	<node id="-153250" lat="61.1479111081" lon="9.06890833536">
		<tag k="name" v="Solbu" />
		<tag k="place" v="isolated_dwelling" />
		<tag k="ssr:stedsnr" v="479043" />
	</node>
	<node id="-153248" lat="61.1766138871" lon="8.92255000674">
		<tag k="name" v="Nilserødningen" />
		<tag k="place" v="locality" />
		<tag k="ssr:stedsnr" v="478954" />
	</node>
	<node id="-153244" lat="61.2033166627" lon="8.95406666212">
		<tag k="name" v="Gjerdingen" />
		<tag k="place" v="farm" />
		<tag k="ssr:stedsnr" v="478932" />
	</node>
	<node id="-153243" lat="61.203511107" lon="8.97642776944">
		<tag k="name" v="Lie" />
		<tag k="place" v="farm" />
		<tag k="ssr:stedsnr" v="478921" />
	</node>
	<node id="-153242" lat="61.2403638918" lon="8.83671666171">
		<tag k="name" v="Grønolsøygarden" />
		<tag k="place" v="locality" />
		<tag k="ssr:stedsnr" v="478833" />
	</node>
	<node id="-153234" lat="61.2460527804" lon="8.98761666649">
		<tag k="historic" v="shieling" />
		<tag k="name" v="Bendikstølen" />
		<tag k="place" v="locality" />
		<tag k="ssr:stedsnr" v="478617" />
	</node>
	<node id="-153233" lat="61.0735499962" lon="9.13465277428">
		<tag k="name" v="Haugen" />
		<tag k="place" v="farm" />
		<tag k="ssr:stedsnr" v="478572" />
	</node>
	<node id="-153232" lat="61.0686999962" lon="9.14685555831">
		<tag k="name" v="Hovi" />
		<tag k="place" v="farm" />
		<tag k="ssr:stedsnr" v="478561" />
	</node>
	<node id="-153230" lat="61.1378333344" lon="9.07401943953">
		<tag k="name" v="Sørhaug" />
		<tag k="place" v="isolated_dwelling" />
		<tag k="ssr:stedsnr" v="478460" />
	</node>
	<node id="-153227" lat="61.1206249987" lon="9.09758055203">
		<tag k="name" v="Alvheim" />
		<tag k="place" v="isolated_dwelling" />
		<tag k="ssr:stedsnr" v="478400" />
	</node>
	<node id="-153226" lat="61.1117947195" lon="9.10229288915">
		<tag k="fixme" v="consider place=hamlet" />
		<tag k="name" v="Skattebu" />
		<tag k="place" v="farm" />
		<tag k="ssr:stedsnr" v="478390" />
	</node>
	<node id="-153224" lat="61.1162972237" lon="9.0178472256">
		<tag k="historic" v="shieling" />
		<tag k="name" v="Heberstølen" />
		<tag k="place" v="locality" />
		<tag k="ssr:stedsnr" v="478355" />
	</node>
	<node id="-153223" lat="61.1621333345" lon="9.05331111774">
		<tag k="name" v="Dalheim" />
		<tag k="place" v="farm" />
		<tag k="ssr:stedsnr" v="478219" />
	</node>
	<node id="-153222" lat="61.1606833363" lon="9.04709445332">
		<tag k="name" v="Nygård" />
		<tag k="place" v="farm" />
		<tag k="ssr:stedsnr" v="478217" />
	</node>
	<node id="-153221" lat="61.1638583323" lon="9.04143888104">
		<tag k="name" v="Stav" />
		<tag k="place" v="isolated_dwelling" />
		<tag k="ssr:stedsnr" v="478215" />
	</node>
	<node id="-153215" lat="61.1648694472" lon="9.03696388048">
		<tag k="name" v="Rødningen" />
		<tag k="place" v="farm" />
		<tag k="ssr:stedsnr" v="478137" />
	</node>
	<node id="-153214" lat="61.1670527745" lon="8.98528332773">
		<tag k="name" v="Nordtorpplassen" />
		<tag k="place" v="locality" />
		<tag k="ssr:stedsnr" v="478133" />
	</node>
	<node id="-153213" lat="61.1808055561" lon="8.99435277996">
		<tag k="name" v="Sørskog" />
		<tag k="place" v="farm" />
		<tag k="ssr:stedsnr" v="478129" />
	</node>
	<node id="-153212" lat="61.1810916688" lon="9.00257499144">
		<tag k="name" v="Håvland" />
		<tag k="place" v="isolated_dwelling" />
		<tag k="ssr:stedsnr" v="478128" />
	</node>
	<node id="-153211" lat="61.1685749984" lon="9.09060832998">
		<tag k="name" v="Nystogo" />
		<tag k="place" v="isolated_dwelling" />
		<tag k="ssr:stedsnr" v="478112" />
	</node>
	<node id="-153208" lat="61.1283527816" lon="9.10105556018">
		<tag k="historic" v="shieling" />
		<tag k="name" v="Kølbesæte" />
		<tag k="place" v="locality" />
		<tag k="ssr:stedsnr" v="478062" />
	</node>
	<node id="-153205" lat="61.080813889" lon="9.07295277439">
		<tag k="historic" v="shieling" />
		<tag k="name" v="Nerengstølen" />
		<tag k="place" v="locality" />
		<tag k="ssr:stedsnr" v="479308" />
	</node>
	<node id="-153204" lat="61.118669446" lon="9.09556945363">
		<tag k="name" v="Vangen" />
		<tag k="place" v="isolated_dwelling" />
		<tag k="ssr:stedsnr" v="479302" />
	</node>
	<node id="-153200" lat="61.1587972217" lon="9.02093888203">
		<tag k="loc_name" v="Sveinshegge" />
		<tag k="name" v="Søre Hegge" />
		<tag k="place" v="farm" />
		<tag k="ssr:stedsnr" v="408193" />
	</node>
	<node id="-153199" lat="61.1543194422" lon="9.03000554683">
		<tag k="loc_name" v="Nørdre Vollene" />
		<tag k="name" v="Vollene" />
		<tag k="place" v="farm" />
		<tag k="ssr:stedsnr" v="408190" />
	</node>
	<node id="-153198" lat="61.1842361096" lon="8.96959443642">
		<tag k="loc_name" v="Skoltebakken" />
		<tag k="name" v="Skoltebakke" />
		<tag k="place" v="farm" />
		<tag k="ssr:stedsnr" v="408158" />
	</node>
	<node id="-153197" lat="61.1294638881" lon="9.08941943886">
		<tag k="loc_name" v="Åbakkadn" />
		<tag k="name" v="Åbakkin" />
		<tag k="place" v="farm" />
		<tag k="ssr:stedsnr" v="407795" />
	</node>
	<node id="-153196" lat="61.1411194479" lon="9.07199445223">
		<tag k="alt_name" v="Raubrot" />
		<tag k="loc_name" v="Raubrøt" />
		<tag k="name" v="Raudbrot" />
		<tag k="place" v="farm" />
		<tag k="ssr:stedsnr" v="407791" />
	</node>
	<node id="-153195" lat="61.1403833325" lon="9.06763611442">
		<tag k="amenity" v="nursing_home" />
		<tag k="name" v="Furustrand friluftsbad" />
		<tag k="ssr:stedsnr" v="406224" />
	</node>
	<node id="-153194" lat="61.2479833356" lon="8.9213444428">
		<tag k="name" v="Liajordet" />
		<tag k="place" v="neighbourhood" />
		<tag k="ssr:stedsnr" v="406065" />
	</node>
	<node id="-153181" lat="61.1736694475" lon="9.22440555871">
		<tag k="historic" v="shieling" />
		<tag k="name" v="Skatrudstølen" />
		<tag k="place" v="locality" />
		<tag k="ssr:stedsnr" v="371957" />
	</node>
	<node id="-153180" lat="61.0806767128" lon="9.26374266876">
		<tag k="alt_name" v="Mellsennstøladn" />
		<tag k="historic" v="shieling" />
		<tag k="name" v="Mellsennstølan" />
		<tag k="place" v="locality" />
		<tag k="ssr:stedsnr" v="371905" />
	</node>
	<node id="-153177" lat="61.2082166654" lon="8.95015832699">
		<tag k="name" v="Grøndalen" />
		<tag k="place" v="farm" />
		<tag k="ssr:stedsnr" v="371478" />
	</node>
	<node id="-153176" lat="61.2104027806" lon="8.95728333457">
		<tag k="name" v="Bakke" />
		<tag k="place" v="farm" />
		<tag k="ssr:stedsnr" v="371466" />
	</node>
	<node id="-153174" lat="61.2443527783" lon="8.85176110972">
		<tag k="name" v="Tørto" />
		<tag k="place" v="farm" />
		<tag k="ssr:stedsnr" v="371387" />
	</node>
	<node id="-153173" lat="61.2427888875" lon="8.87595277707">
		<tag k="alt_name" v="Menken" />
		<tag k="name" v="Menka" />
		<tag k="place" v="farm" />
		<tag k="ssr:stedsnr" v="371385" />
	</node>
	<node id="-153172" lat="61.0787138882" lon="9.11951665852">
		<tag k="name" v="Sagahøvda" />
		<tag k="old_name" v="Hovda" />
		<tag k="place" v="locality" />
		<tag k="ssr:stedsnr" v="371225" />
	</node>
	<node id="-153171" lat="61.0836055522" lon="9.11609999207">
		<tag k="name" v="Hoviosen" />
		<tag k="place" v="farm" />
		<tag k="ssr:stedsnr" v="371220" />
	</node>
	<node id="-153170" lat="61.0820861087" lon="9.08256110821">
		<tag k="name" v="Røste" />
		<tag k="place" v="farm" />
		<tag k="ssr:stedsnr" v="371215" />
	</node>
	<node id="-153169" lat="61.084533336" lon="9.06083889359">
		<tag k="name" v="Dalastølen" />
		<tag k="place" v="locality" />
		<tag k="ssr:stedsnr" v="371211" />
	</node>
	<node id="-153166" lat="61.1179111074" lon="9.151241667">
		<tag k="name" v="Tjernstølen" />
		<tag k="old_name" v="Tjednstølen" />
		<tag k="place" v="isolated_dwelling" />
		<tag k="ssr:stedsnr" v="371162" />
	</node>
	<node id="-153161" lat="61.1597324098" lon="9.00686488239">
		<tag k="fixme" v="consider place=hamlet" />
		<tag k="name" v="Nordtorp" />
		<tag k="place" v="farm" />
		<tag k="ssr:stedsnr" v="371055" />
	</node>
	<node id="-153159" lat="61.1696133269" lon="8.95173780517">
		<tag k="alt_name" v="Bjelbøle" />
		<tag k="fixme" v="consider place=hamlet" />
		<tag k="name" v="Bjellbøle" />
		<tag k="place" v="farm" />
		<tag k="ssr:stedsnr" v="371044" />
	</node>
	<node id="-153152" lat="61.2028916667" lon="8.97791111723">
		<tag k="alt_name" v="Lie" />
		<tag k="name" v="Li" />
		<tag k="place" v="farm" />
		<tag k="ssr:stedsnr" v="370534" />
	</node>
	<node id="-153150" lat="61.2231444454" lon="8.89738611294">
		<tag k="name" v="Liahaugen" />
		<tag k="place" v="farm" />
		<tag k="ssr:stedsnr" v="370482" />
	</node>
	<node id="-153147" lat="61.1920999995" lon="9.05070278666">
		<tag k="historic" v="shieling" />
		<tag k="name" v="Vetravike" />
		<tag k="place" v="locality" />
		<tag k="ssr:stedsnr" v="370016" />
	</node>
	<node id="-153140" lat="61.2901722195" lon="8.92506389596">
		<tag k="name" v="Skirvebue" />
		<tag k="place" v="locality" />
		<tag k="ssr:stedsnr" v="359842" />
	</node>
	<node id="-153130" lat="61.147508332" lon="9.14789167363">
		<tag k="name" v="Luskøro" />
		<tag k="place" v="farm" />
		<tag k="ssr:stedsnr" v="358114" />
	</node>
	<node id="-153125" lat="61.1857777749" lon="8.97202778141">
		<tag k="name" v="Skolte" />
		<tag k="place" v="farm" />
		<tag k="ssr:stedsnr" v="357975" />
	</node>
	<node id="-153121" lat="61.100433914" lon="9.1193174494">
		<tag k="fixme" v="consider place=hamlet" />
		<tag k="name" v="Søre Rogne" />
		<tag k="place" v="farm" />
		<tag k="ssr:stedsnr" v="357918" />
	</node>
	<node id="-153119" lat="61.2087861138" lon="8.95576389239">
		<tag k="name" v="Kinnestølen" />
		<tag k="place" v="isolated_dwelling" />
		<tag k="ssr:stedsnr" v="357904" />
	</node>
	<node id="-153116" lat="61.238330553" lon="8.88164165859">
		<tag k="name" v="Hagen" />
		<tag k="place" v="isolated_dwelling" />
		<tag k="ssr:stedsnr" v="357868" />
	</node>
	<node id="-153113" lat="61.2542305553" lon="8.82327222501">
		<tag k="historic" v="shieling" />
		<tag k="name" v="Tåbakke" />
		<tag k="old_name" v="Tåbakken" />
		<tag k="place" v="locality" />
		<tag k="ssr:stedsnr" v="357753" />
	</node>
	<node id="-153103" lat="61.135952777" lon="9.042608327">
		<tag k="name" v="Grashølet" />
		<tag k="place" v="locality" />
		<tag k="ssr:stedsnr" v="357437" />
	</node>
	<node id="-153102" lat="61.1461055528" lon="9.0794611134">
		<tag k="alt_name" v="Raubrøtmoen" />
		<tag k="name" v="Raudbrotmoen" />
		<tag k="place" v="quarter" />
		<tag k="ssr:stedsnr" v="357429" />
	</node>
	<node id="-153097" lat="61.1099416698" lon="9.05768889379">
		<tag k="name" v="Strande" />
		<tag k="place" v="farm" />
		<tag k="ssr:stedsnr" v="357341" />
	</node>
	<node id="-153096" lat="61.0835916666" lon="9.07032499092">
		<tag k="historic" v="shieling" />
		<tag k="name" v="Myrheimstølen" />
		<tag k="place" v="locality" />
		<tag k="ssr:stedsnr" v="357297" />
	</node>
	<node id="-153095" lat="61.0841444413" lon="9.08362500015">
		<tag k="name" v="Bjørnerud" />
		<tag k="place" v="farm" />
		<tag k="ssr:stedsnr" v="357296" />
	</node>
	<node id="-153094" lat="61.08769444" lon="9.08618612005">
		<tag k="name" v="Jøtun" />
		<tag k="place" v="farm" />
		<tag k="ssr:stedsnr" v="357295" />
	</node>
	<node id="-153092" lat="61.0600138897" lon="9.16994444974">
		<tag k="name" v="Myrvoll" />
		<tag k="place" v="farm" />
		<tag k="ssr:stedsnr" v="357249" />
	</node>
	<node id="-153091" lat="61.0639749974" lon="9.17558055153">
		<tag k="name" v="Myren" />
		<tag k="place" v="farm" />
		<tag k="ssr:stedsnr" v="357244" />
	</node>
	<node id="-153086" lat="61.1592277796" lon="9.0283972149">
		<tag k="name" v="Solbakken" />
		<tag k="place" v="farm" />
		<tag k="ssr:stedsnr" v="357157" />
	</node>
	<node id="-153085" lat="61.1862722246" lon="8.99414166165">
		<tag k="name" v="Gamleolahaugen" />
		<tag k="place" v="isolated_dwelling" />
		<tag k="ssr:stedsnr" v="357133" />
	</node>
	<node id="-153078" lat="61.1150555558" lon="9.0424249948">
		<tag k="name" v="Dokken" />
		<tag k="place" v="farm" />
		<tag k="ssr:stedsnr" v="347982" />
	</node>
	<node id="-153077" lat="61.2426222186" lon="8.85344444568">
		<tag k="name" v="Nørdre Beito" />
		<tag k="place" v="farm" />
		<tag k="ssr:stedsnr" v="347935" />
	</node>
	<node id="-153076" lat="61.1466222235" lon="9.0593166684">
		<tag k="name" v="Bråten" />
		<tag k="place" v="farm" />
		<tag k="ssr:stedsnr" v="346280" />
	</node>
	<node id="-153075" lat="61.1647111097" lon="9.09733334247">
		<tag k="alt_name" v="Robøle" />
		<tag k="name" v="Søre Robøle" />
		<tag k="place" v="farm" />
		<tag k="ssr:stedsnr" v="346235" />
	</node>
	<node id="-153074" lat="61.0592722189" lon="9.16150832442">
		<tag k="building" v="industrial" />
		<tag k="name" v="Ygna renseanlegg" />
		<tag k="ssr:stedsnr" v="345214" />
	</node>
	<node id="-153073" lat="61.2130916701" lon="8.92843055138">
		<tag k="loc_name" v="Ukshovdmarke;Øystre Ukshovd" />
		<tag k="name" v="Øystre Okshovd" />
		<tag k="place" v="farm" />
		<tag k="ssr:stedsnr" v="342043" />
	</node>
	<node id="-153072" lat="61.0710416666" lon="9.10171111505">
		<tag k="alt_name" v="Vesle-Rudi" />
		<tag k="name" v="Rudi" />
		<tag k="place" v="farm" />
		<tag k="ssr:stedsnr" v="340517" />
	</node>
	<node id="-153068" lat="61.1609833297" lon="9.08964721371">
		<tag k="name" v="Bråten" />
		<tag k="place" v="farm" />
		<tag k="ssr:stedsnr" v="311497" />
	</node>
	<node id="-153067" lat="61.2581888919" lon="8.77538056025">
		<tag k="name" v="Myrlund" />
		<tag k="place" v="farm" />
		<tag k="ssr:stedsnr" v="311293" />
	</node>
	<node id="-153063" lat="61.2524422245" lon="8.92950276176">
		<tag k="historic" v="shieling" />
		<tag k="name" v="Valstadstølen" />
		<tag k="place" v="locality" />
		<tag k="ssr:stedsnr" v="311126" />
	</node>
	<node id="-153061" lat="61.2629388869" lon="8.87147777921">
		<tag k="alt_name" v="Garli" />
		<tag k="name" v="Gardli" />
		<tag k="place" v="isolated_dwelling" />
		<tag k="ssr:stedsnr" v="311120" />
	</node>
	<node id="-153053" lat="61.3363182486" lon="9.07875490462">
		<tag k="alt_name" v="Titra" />
		<tag k="fixme" v="consider tourism=alpine_hut or tourism=chalet" />
		<tag k="name" v="Titrebue" />
		<tag k="ssr:stedsnr" v="311063" />
		<tag k="tourism" v="wilderness_hut" />
	</node>
	<node id="-153050" lat="61.3425083303" lon="8.99008889253">
		<tag k="historic" v="shieling" />
		<tag k="name" v="Røsstølen" />
		<tag k="place" v="locality" />
		<tag k="ssr:stedsnr" v="311060" />
	</node>
	<node id="-153041" lat="61.159452782" lon="9.2279500029">
		<tag k="historic" v="shieling" />
		<tag k="name" v="Bukono" />
		<tag k="place" v="locality" />
		<tag k="ssr:stedsnr" v="310936" />
	</node>
	<node id="-153040" lat="61.1036972193" lon="9.27229722573">
		<tag k="historic" v="shieling" />
		<tag k="name" v="Turrsjøen" />
		<tag k="old_name" v="Tursjøen" />
		<tag k="place" v="locality" />
		<tag k="ssr:stedsnr" v="310899" />
	</node>
	<node id="-153036" lat="61.2052138912" lon="9.11198611888">
		<tag k="historic" v="shieling" />
		<tag k="name" v="Skreostølen" />
		<tag k="place" v="locality" />
		<tag k="ssr:stedsnr" v="310497" />
	</node>
	<node id="-153035" lat="61.2059055599" lon="9.01637500177">
		<tag k="alt_name" v="Mørstadstølane, heimre" />
		<tag k="historic" v="shieling" />
		<tag k="name" v="Heimre Mørstadstølen" />
		<tag k="place" v="locality" />
		<tag k="ssr:stedsnr" v="310485" />
	</node>
	<node id="-153033" lat="61.2253805531" lon="8.96356389429">
		<tag k="name" v="Skutestølen" />
		<tag k="place" v="isolated_dwelling" />
		<tag k="ssr:stedsnr" v="310467" />
	</node>
	<node id="-153031" lat="61.2168999983" lon="9.042644451">
		<tag k="historic" v="shieling" />
		<tag k="name" v="Sørbustølen" />
		<tag k="place" v="locality" />
		<tag k="ssr:stedsnr" v="310463" />
	</node>
	<node id="-153030" lat="61.2430961855" lon="8.85964430985">
		<tag k="fixme" v="consider place=hamlet" />
		<tag k="name" v="Beito" />
		<tag k="place" v="village" />
		<tag k="ssr:stedsnr" v="310416" />
	</node>
	<node id="-153029" lat="61.0856749983" lon="9.08271389283">
		<tag k="name" v="Bergli" />
		<tag k="place" v="farm" />
		<tag k="ssr:stedsnr" v="310214" />
	</node>
	<node id="-153028" lat="61.0839194424" lon="9.08063610746">
		<tag k="name" v="Espeli" />
		<tag k="place" v="farm" />
		<tag k="ssr:stedsnr" v="310213" />
	</node>
	<node id="-153027" lat="61.0987194466" lon="9.14216389722">
		<tag k="name" v="Ringli" />
		<tag k="place" v="farm" />
		<tag k="ssr:stedsnr" v="310159" />
	</node>
	<node id="-153026" lat="61.1080611141" lon="9.06108610327">
		<tag k="name" v="Strande" />
		<tag k="place" v="farm" />
		<tag k="ssr:stedsnr" v="310157" />
	</node>
	<node id="-153025" lat="61.1113388896" lon="9.08400833536">
		<tag k="name" v="Moen" />
		<tag k="place" v="farm" />
		<tag k="ssr:stedsnr" v="310154" />
	</node>
	<node id="-153023" lat="61.1250083295" lon="9.07351944707">
		<tag k="name" v="Hovda" />
		<tag k="place" v="farm" />
		<tag k="ssr:stedsnr" v="310123" />
	</node>
	<node id="-153019" lat="61.1393333377" lon="9.03996388798">
		<tag k="alt_name" v="Sandnes" />
		<tag k="name" v="Sannes" />
		<tag k="place" v="locality" />
		<tag k="ssr:stedsnr" v="310093" />
	</node>
	<node id="-153017" lat="61.1645500026" lon="9.07141944838">
		<tag k="name" v="Daleng" />
		<tag k="place" v="farm" />
		<tag k="ssr:stedsnr" v="310064" />
	</node>
	<node id="-153016" lat="61.1682388903" lon="8.9729111088">
		<tag k="name" v="Bakkebø" />
		<tag k="place" v="farm" />
		<tag k="ssr:stedsnr" v="310054" />
	</node>
	<node id="-153015" lat="61.1628944456" lon="9.04421111205">
		<tag k="alt_name" v="Dalen" />
		<tag k="name" v="Sunnli" />
		<tag k="place" v="farm" />
		<tag k="ssr:stedsnr" v="310051" />
	</node>
	<node id="-153013" lat="61.1690636468" lon="9.08665524298">
		<tag k="alt_name" v="Robøle" />
		<tag k="fixme" v="consider place=hamlet" />
		<tag k="name" v="Nørdre Robøle" />
		<tag k="place" v="farm" />
		<tag k="ssr:stedsnr" v="310043" />
	</node>
	<node id="-153012" lat="61.1723611155" lon="8.968080564">
		<tag k="name" v="Dalen" />
		<tag k="place" v="isolated_dwelling" />
		<tag k="ssr:stedsnr" v="310032" />
	</node>
	<node id="-153011" lat="61.1714944435" lon="9.05507222376">
		<tag k="name" v="Solhaug" />
		<tag k="place" v="farm" />
		<tag k="ssr:stedsnr" v="310029" />
	</node>
	<node id="-153010" lat="61.1855277779" lon="9.13507499198">
		<tag k="name" v="Storøyne" />
		<tag k="place" v="locality" />
		<tag k="ssr:stedsnr" v="310014" />
	</node>
	<node id="-153008" lat="61.1938805523" lon="8.99337778365">
		<tag k="name" v="Perslett" />
		<tag k="place" v="farm" />
		<tag k="ssr:stedsnr" v="310001" />
	</node>
	<node id="-153005" lat="61.1150583378" lon="9.0424000032">
		<tag k="name" v="Dokken" />
		<tag k="place" v="farm" />
		<tag k="ssr:stedsnr" v="301690" />
	</node>
	<node id="-152987" lat="61.2770555575" lon="8.9572916613">
		<tag k="name" v="Vike" />
		<tag k="place" v="locality" />
		<tag k="ssr:stedsnr" v="297557" />
	</node>
	<node id="-152986" lat="61.116927774" lon="9.05134167391">
		<tag k="name" v="Langset" />
		<tag k="place" v="locality" />
		<tag k="ssr:stedsnr" v="297364" />
	</node>
	<node id="-152985" lat="61.1213222196" lon="9.04100834203">
		<tag k="name" v="Molorhaugen" />
		<tag k="place" v="isolated_dwelling" />
		<tag k="ssr:stedsnr" v="297362" />
	</node>
	<node id="-152984" lat="61.1247166696" lon="9.04642221324">
		<tag k="name" v="Haugen" />
		<tag k="place" v="farm" />
		<tag k="ssr:stedsnr" v="297285" />
	</node>
	<node id="-152983" lat="61.125583332" lon="9.04348888946">
		<tag k="name" v="Solhall" />
		<tag k="place" v="isolated_dwelling" />
		<tag k="ssr:stedsnr" v="297282" />
	</node>
	<node id="-152982" lat="61.0621833356" lon="9.20696110932">
		<tag k="name" v="Melbysstølen" />
		<tag k="place" v="locality" />
		<tag k="ssr:stedsnr" v="297244" />
	</node>
	<node id="-152981" lat="61.0661944404" lon="9.16915277796">
		<tag k="name" v="Kollset" />
		<tag k="place" v="farm" />
		<tag k="ssr:stedsnr" v="297242" />
	</node>
	<node id="-152979" lat="61.0752527745" lon="9.15918610493">
		<tag k="name" v="Bolleng" />
		<tag k="place" v="farm" />
		<tag k="ssr:stedsnr" v="297231" />
	</node>
	<node id="-152968" lat="61.1458499988" lon="9.06273611535">
		<tag k="name" v="Marken" />
		<tag k="place" v="isolated_dwelling" />
		<tag k="ssr:stedsnr" v="297060" />
	</node>
	<node id="-152967" lat="61.1457361119" lon="9.06536389193">
		<tag k="amenity" v="nursing_home" />
		<tag k="name" v="Øystre Slidre sjukeheim" />
		<tag k="old_name" v="Kvileheimen" />
		<tag k="ssr:stedsnr" v="297053" />
	</node>
	<node id="-152963" lat="61.2435888859" lon="8.87451388108">
		<tag k="name" v="Kveto" />
		<tag k="place" v="farm" />
		<tag k="ssr:stedsnr" v="296903" />
	</node>
	<node id="-152961" lat="61.2432944476" lon="8.8591083386">
		<tag k="name" v="Vidsyn" />
		<tag k="place" v="isolated_dwelling" />
		<tag k="ssr:stedsnr" v="296816" />
	</node>
	<node id="-152957" lat="61.2018833375" lon="8.9251722132">
		<tag k="name" v="Dalan" />
		<tag k="place" v="isolated_dwelling" />
		<tag k="ssr:stedsnr" v="296576" />
	</node>
	<node id="-152956" lat="61.0737666629" lon="9.13784444837">
		<tag k="name" v="Rødningen" />
		<tag k="place" v="farm" />
		<tag k="ssr:stedsnr" v="296526" />
	</node>
	<node id="-152953" lat="61.1289361092" lon="9.08542499698">
		<tag k="building" v="industrial" />
		<tag k="name" v="Storefoss bruk" />
		<tag k="ssr:stedsnr" v="296428" />
	</node>
	<node id="-152950" lat="61.1099444489" lon="9.10290555339">
		<tag k="name" v="Nerstad" />
		<tag k="place" v="farm" />
		<tag k="ssr:stedsnr" v="296362" />
	</node>
	<node id="-152935" lat="61.2133805563" lon="8.92963888346">
		<tag k="alt_name" v="Okshovd østre;Okshovd, øystre;Okshovd" />
		<tag k="loc_name" v="Øystre Ukshovd" />
		<tag k="name" v="Øystre Okshovd" />
		<tag k="place" v="farm" />
		<tag k="ssr:stedsnr" v="287002" />
	</node>
	<node id="-152934" lat="61.1223611138" lon="9.05235556116">
		<tag k="name" v="Vindingstad" />
		<tag k="place" v="farm" />
		<tag k="ssr:stedsnr" v="286979" />
	</node>
	<node id="-152933" lat="61.2424581422" lon="8.86509784417">
		<tag k="fixme" v="consider place=hamlet" />
		<tag k="name" v="Søre Beito" />
		<tag k="place" v="farm" />
		<tag k="ssr:stedsnr" v="286916" />
	</node>
	<node id="-152931" lat="61.1552333362" lon="9.03823333955">
		<tag k="loc_name" v="Øvre Sælid" />
		<tag k="name" v="Sælid" />
		<tag k="place" v="farm" />
		<tag k="ssr:stedsnr" v="286181" />
	</node>
	<node id="-152930" lat="61.2185305576" lon="8.90845277339">
		<tag k="alt_name" v="Søre Lien" />
		<tag k="loc_name" v="Liamarke" />
		<tag k="name" v="Liamarki" />
		<tag k="old_name" v="Hellelien" />
		<tag k="place" v="farm" />
		<tag k="ssr:stedsnr" v="282406" />
	</node>
	<node id="-152929" lat="61.143075003" lon="9.07321389541">
		<tag k="amenity" v="nursing_home" />
		<tag k="name" v="Brennebakkin" />
		<tag k="ssr:stedsnr" v="284217" />
	</node>
	<node id="-154935" lat="61.0685848227" lon="9.14544175312">
		<tag k="fixme" v="consider place=hamlet" />
		<tag k="name" v="Hovi" />
		<tag k="place" v="farm" />
		<tag k="ssr:stedsnr" v="978195" />
	</node>
	<node id="-154934" lat="61.1888694099" lon="8.99539278832">
		<tag k="fixme" v="consider place=hamlet" />
		<tag k="name" v="Mørstad" />
		<tag k="place" v="farm" />
		<tag k="ssr:stedsnr" v="978192" />
	</node>
	<node id="-154932" lat="61.2216495063" lon="8.90455803697">
		<tag k="fixme" v="consider place=hamlet" />
		<tag k="name" v="Søndre Lien" />
		<tag k="place" v="farm" />
		<tag k="ssr:stedsnr" v="977309" />
	</node>
	<node id="-154931" lat="61.2137517223" lon="8.92962939951">
		<tag k="fixme" v="consider place=hamlet" />
		<tag k="name" v="Østre Okshovd" />
		<tag k="place" v="farm" />
		<tag k="ssr:stedsnr" v="977305" />
	</node>
	<node id="-154930" lat="61.210836426" lon="8.92412016424">
		<tag k="fixme" v="consider place=hamlet" />
		<tag k="name" v="Vestre Okshovd" />
		<tag k="place" v="farm" />
		<tag k="ssr:stedsnr" v="977304" />
	</node>
	<node id="-154929" lat="61.1548108483" lon="9.03882341895">
		<tag k="fixme" v="consider place=hamlet" />
		<tag k="name" v="Sæle" />
		<tag k="place" v="farm" />
		<tag k="ssr:stedsnr" v="977299" />
	</node>
	<node id="-154928" lat="61.0722381192" lon="9.09688999108">
		<tag k="fixme" v="consider place=hamlet" />
		<tag k="name" v="Lille-Rudi" />
		<tag k="place" v="farm" />
		<tag k="ssr:stedsnr" v="977297" />
	</node>
	<node id="-154927" lat="61.0816055644" lon="9.08987681675">
		<tag k="fixme" v="consider place=hamlet" />
		<tag k="name" v="Rudi" />
		<tag k="place" v="farm" />
		<tag k="ssr:stedsnr" v="977298" />
	</node>
	<node id="-154926" lat="61.1901741354" lon="8.9902123395">
		<tag k="fixme" v="consider place=hamlet" />
		<tag k="name" v="Rudi" />
		<tag k="place" v="farm" />
		<tag k="ssr:stedsnr" v="977296" />
	</node>
	<node id="-154910" lat="61.1762823942" lon="8.93280301948">
		<tag k="fixme" v="consider place=hamlet" />
		<tag k="name" v="Røyne" />
		<tag k="place" v="farm" />
		<tag k="ssr:stedsnr" v="964939" />
	</node>
	<node id="-154902" lat="61.2156722224" lon="8.94632221385">
		<tag k="name" v="Skoglund" />
		<tag k="place" v="farm" />
		<tag k="ssr:stedsnr" v="964894" />
	</node>
	<node id="-154901" lat="61.2030833319" lon="8.96953888742">
		<tag k="name" v="Eker" />
		<tag k="place" v="farm" />
		<tag k="ssr:stedsnr" v="964890" />
	</node>
	<node id="-154892" lat="61.1995972181" lon="9.07376111547">
		<tag k="historic" v="shieling" />
		<tag k="name" v="Prestheggestølen" />
		<tag k="place" v="locality" />
		<tag k="ssr:stedsnr" v="964642" />
	</node>
	<node id="-154890" lat="61.2079972223" lon="9.08465832471">
		<tag k="historic" v="shieling" />
		<tag k="name" v="Tjernstølen" />
		<tag k="old_name" v="Tjednstølen" />
		<tag k="place" v="locality" />
		<tag k="ssr:stedsnr" v="964625" />
	</node>
	<node id="-154889" lat="61.0733638878" lon="9.10600832727">
		<tag k="name" v="Hagalund" />
		<tag k="place" v="farm" />
		<tag k="ssr:stedsnr" v="964623" />
	</node>
	<node id="-154884" lat="61.1084055586" lon="9.12030278444">
		<tag k="name" v="Prestrud" />
		<tag k="place" v="farm" />
		<tag k="ssr:stedsnr" v="964432" />
	</node>
	<node id="-154882" lat="61.1040416631" lon="9.1157527734">
		<tag k="name" v="Kyrkjeberg" />
		<tag k="place" v="farm" />
		<tag k="ssr:stedsnr" v="964423" />
	</node>
	<node id="-154881" lat="61.1165750024" lon="9.11012223083">
		<tag k="name" v="Gårdsdelen" />
		<tag k="place" v="farm" />
		<tag k="ssr:stedsnr" v="964417" />
	</node>
	<node id="-154879" lat="61.1167861141" lon="9.04761111081">
		<tag k="name" v="Rostad" />
		<tag k="place" v="farm" />
		<tag k="ssr:stedsnr" v="964375" />
	</node>
	<node id="-154878" lat="61.1125749989" lon="9.05523888689">
		<tag k="name" v="Woll" />
		<tag k="place" v="isolated_dwelling" />
		<tag k="ssr:stedsnr" v="964373" />
	</node>
	<node id="-154877" lat="61.1135500028" lon="9.05414722917">
		<tag k="name" v="Flaten" />
		<tag k="place" v="isolated_dwelling" />
		<tag k="ssr:stedsnr" v="964371" />
	</node>
	<node id="-154874" lat="61.124352782" lon="9.04365000345">
		<tag k="name" v="Vingdal" />
		<tag k="place" v="farm" />
		<tag k="ssr:stedsnr" v="964295" />
	</node>
	<node id="-154869" lat="61.1536944439" lon="9.04609444987">
		<tag k="name" v="Valle" />
		<tag k="place" v="isolated_dwelling" />
		<tag k="ssr:stedsnr" v="964254" />
	</node>
	<node id="-154861" lat="61.1628805514" lon="9.03396945197">
		<tag k="name" v="Vøllerødningen" />
		<tag k="place" v="isolated_dwelling" />
		<tag k="ssr:stedsnr" v="964196" />
	</node>
	<node id="-154860" lat="61.1616555527" lon="9.03669444894">
		<tag k="name" v="Stavheim" />
		<tag k="place" v="farm" />
		<tag k="ssr:stedsnr" v="964182" />
	</node>
	<node id="-154857" lat="61.1707555566" lon="9.08723889512">
		<tag k="historic" v="shieling" />
		<tag k="name" v="Sollien" />
		<tag k="place" v="locality" />
		<tag k="ssr:stedsnr" v="964164" />
	</node>
	<node id="-154847" lat="61.235608336" lon="8.90446388939">
		<tag k="historic" v="shieling" />
		<tag k="name" v="Tjednbakke" />
		<tag k="place" v="locality" />
		<tag k="ssr:stedsnr" v="963933" />
	</node>
	<node id="-154846" lat="61.2432388921" lon="8.93563611598">
		<tag k="alt_name" v="Røestølen" />
		<tag k="historic" v="shieling" />
		<tag k="loc_name" v="Ukshovdstølane" />
		<tag k="name" v="Okshovdstøladn" />
		<tag k="place" v="locality" />
		<tag k="ssr:stedsnr" v="963928" />
	</node>
	<node id="-154841" lat="61.0679111126" lon="9.16837499794">
		<tag k="loc_name" v="Eikra" />
		<tag k="name" v="Ekren" />
		<tag k="place" v="farm" />
		<tag k="ssr:stedsnr" v="956514" />
	</node>
	<node id="-154840" lat="61.0701944408" lon="9.17254167339">
		<tag k="name" v="Kollstad" />
		<tag k="place" v="farm" />
		<tag k="ssr:stedsnr" v="955455" />
	</node>
	<node id="-154838" lat="61.1149111139" lon="9.10911943612">
		<tag k="loc_name" v="Rolandsgarden" />
		<tag k="name" v="Rolandsgården" />
		<tag k="place" v="farm" />
		<tag k="ssr:stedsnr" v="955045" />
	</node>
	<node id="-154837" lat="61.1534222256" lon="9.03178889213">
		<tag k="loc_name" v="Midtre Vollene" />
		<tag k="name" v="Vollene" />
		<tag k="place" v="farm" />
		<tag k="ssr:stedsnr" v="954167" />
	</node>
	<node id="-154836" lat="61.1900527787" lon="8.99778333889">
		<tag k="loc_name" v="Midtre Mørstad" />
		<tag k="name" v="Mørstad" />
		<tag k="place" v="farm" />
		<tag k="ssr:stedsnr" v="954161" />
	</node>
	<node id="-154832" lat="61.2669416705" lon="9.29573056453">
		<tag k="name" v="Bøllhaug" />
		<tag k="place" v="locality" />
		<tag k="ssr:stedsnr" v="919266" />
	</node>
	<node id="-154831" lat="61.1134409311" lon="9.10418124228">
		<tag k="name" v="Skattebu" />
		<tag k="place" v="hamlet" />
		<tag k="ssr:stedsnr" v="918545" />
	</node>
	<node id="-154829" lat="61.2562694431" lon="9.13162778402">
		<tag k="historic" v="shieling" />
		<tag k="name" v="Kjølastølen" />
		<tag k="place" v="locality" />
		<tag k="ssr:stedsnr" v="918117" />
	</node>
	<node id="-154823" lat="61.3304249976" lon="8.86909999661">
		<tag k="name" v="Haugastølen" />
		<tag k="place" v="isolated_dwelling" />
		<tag k="ssr:stedsnr" v="918062" />
	</node>
	<node id="-154822" lat="61.3490305586" lon="9.03211389126">
		<tag k="historic" v="shieling" />
		<tag k="name" v="Bergastølen" />
		<tag k="place" v="locality" />
		<tag k="ssr:stedsnr" v="918050" />
	</node>
	<node id="-154818" lat="61.4193972197" lon="8.89269444126">
		<tag k="name" v="Osbue" />
		<tag k="place" v="isolated_dwelling" />
		<tag k="ssr:stedsnr" v="918012" />
	</node>
	<node id="-154814" lat="61.1947083324" lon="9.32095555228">
		<tag k="historic" v="shieling" />
		<tag k="name" v="Etnstølen" />
		<tag k="place" v="locality" />
		<tag k="ssr:stedsnr" v="917982" />
	</node>
	<node id="-154811" lat="61.1679833377" lon="9.29871943751">
		<tag k="alt_name" v="Trollåsen, søre;Søre Trøllåsen" />
		<tag k="historic" v="shieling" />
		<tag k="name" v="Søre Trollåsen" />
		<tag k="place" v="locality" />
		<tag k="ssr:stedsnr" v="917963" />
	</node>
	<node id="-154807" lat="61.0718444481" lon="9.13672223094">
		<tag k="alt_name" v="Kleivabråten" />
		<tag k="name" v="Kleivebråten" />
		<tag k="place" v="farm" />
		<tag k="ssr:stedsnr" v="917858" />
	</node>
	<node id="-154806" lat="61.0660416712" lon="9.18758333052">
		<tag k="name" v="Ås" />
		<tag k="place" v="farm" />
		<tag k="ssr:stedsnr" v="917849" />
	</node>
	<node id="-154805" lat="61.1965749969" lon="8.99207499798">
		<tag k="name" v="Fjellgard" />
		<tag k="place" v="farm" />
		<tag k="ssr:stedsnr" v="917447" />
	</node>
	<node id="-154804" lat="61.2435111119" lon="8.94152777907">
		<tag k="alt_name" v="Hedalsstølen, heimre" />
		<tag k="historic" v="shieling" />
		<tag k="name" v="Heimre Hedalsstølen" />
		<tag k="place" v="locality" />
		<tag k="ssr:stedsnr" v="917440" />
	</node>
	<node id="-154802" lat="61.2288906243" lon="8.89607168461">
		<tag k="name" v="Berglund" />
		<tag k="place" v="farm" />
		<tag k="ssr:stedsnr" v="917421" />
	</node>
	<node id="-154800" lat="61.0753583362" lon="9.1340472304">
		<tag k="name" v="Velta" />
		<tag k="place" v="farm" />
		<tag k="ssr:stedsnr" v="917190" />
	</node>
	<node id="-154799" lat="61.086111108" lon="9.13213055115">
		<tag k="name" v="Granheim" />
		<tag k="place" v="farm" />
		<tag k="ssr:stedsnr" v="917182" />
	</node>
	<node id="-154797" lat="61.0940472204" lon="9.14341666694">
		<tag k="alt_name" v="Myri" />
		<tag k="name" v="Myre" />
		<tag k="place" v="farm" />
		<tag k="ssr:stedsnr" v="917152" />
	</node>
	<node id="-154796" lat="61.1016111074" lon="9.11605832451">
		<tag k="fixme" v="consider place=hamlet" />
		<tag k="name" v="Rogne" />
		<tag k="place" v="village" />
		<tag k="ssr:stedsnr" v="917143" />
	</node>
	<node id="-154795" lat="61.1049305552" lon="9.09903056337">
		<tag k="alt_name" v="Sæbu" />
		<tag k="name" v="Sebu" />
		<tag k="place" v="farm" />
		<tag k="ssr:stedsnr" v="917141" />
	</node>
	<node id="-154794" lat="61.1150833345" lon="9.05325833252">
		<tag k="name" v="Nygard" />
		<tag k="place" v="farm" />
		<tag k="ssr:stedsnr" v="917136" />
	</node>
	<node id="-154793" lat="61.3359249961" lon="8.83791667001">
		<tag k="historic" v="shieling" />
		<tag k="name" v="Lykkjestølane" />
		<tag k="place" v="locality" />
		<tag k="ssr:stedsnr" v="917121" />
	</node>
	<node id="-154790" lat="61.12525" lon="9.09548333557">
		<tag k="loc_name" v="Moadn" />
		<tag k="name" v="Moane" />
		<tag k="place" v="quarter" />
		<tag k="ssr:stedsnr" v="917107" />
	</node>
	<node id="-154789" lat="61.1596083333" lon="9.08511110856">
		<tag k="name" v="Nyland" />
		<tag k="place" v="farm" />
		<tag k="ssr:stedsnr" v="917065" />
	</node>
	<node id="-154788" lat="61.1610583311" lon="9.03288055608">
		<tag k="name" v="Rudi" />
		<tag k="place" v="farm" />
		<tag k="ssr:stedsnr" v="917057" />
	</node>
	<node id="-154787" lat="61.1659527775" lon="9.09840276978">
		<tag k="loc_name" v="Øvre Robøle" />
		<tag k="name" v="Robøle" />
		<tag k="place" v="farm" />
		<tag k="ssr:stedsnr" v="917053" />
	</node>
	<node id="-154786" lat="61.1639555518" lon="9.15113333239">
		<tag k="alt_name" v="Bjødnahølet;Bjødnaholet" />
		<tag k="name" v="Bjørnaholet" />
		<tag k="place" v="neighbourhood" />
		<tag k="ssr:stedsnr" v="917045" />
	</node>
	<node id="-154785" lat="61.1678166705" lon="8.99538611932">
		<tag k="name" v="Voll" />
		<tag k="place" v="isolated_dwelling" />
		<tag k="ssr:stedsnr" v="917042" />
	</node>
	<node id="-154784" lat="61.159630559" lon="9.01343611781">
		<tag k="fixme" v="consider place=hamlet" />
		<tag k="name" v="Hegge" />
		<tag k="place" v="village" />
		<tag k="ssr:stedsnr" v="917036" />
	</node>
	<node id="-154781" lat="61.1835111073" lon="9.19468333413">
		<tag k="historic" v="shieling" />
		<tag k="name" v="Yddestølen" />
		<tag k="place" v="locality" />
		<tag k="ssr:stedsnr" v="917017" />
	</node>
	<node id="-154780" lat="61.1843638909" lon="8.99787778345">
		<tag k="name" v="Brenna" />
		<tag k="place" v="farm" />
		<tag k="ssr:stedsnr" v="917009" />
	</node>
	<node id="-154779" lat="61.1882416689" lon="9.01128333743">
		<tag k="alt_name" v="Sjøgarden" />
		<tag k="name" v="Sørgård" />
		<tag k="place" v="farm" />
		<tag k="ssr:stedsnr" v="917007" />
	</node>
	<node id="-154777" lat="61.1912388923" lon="9.15471944163">
		<tag k="name" v="Yddebu" />
		<tag k="place" v="isolated_dwelling" />
		<tag k="ssr:stedsnr" v="917004" />
	</node>
	<node id="-154775" lat="61.1514777735" lon="9.16504443671">
		<tag k="name" v="Luskøråsen" />
		<tag k="place" v="neighbourhood" />
		<tag k="ssr:stedsnr" v="915178" />
	</node>
	<node id="-154766" lat="61.2406805573" lon="8.95745555372">
		<tag k="historic" v="shieling" />
		<tag k="name" v="Javninhaugen" />
		<tag k="place" v="locality" />
		<tag k="ssr:stedsnr" v="904946" />
	</node>
	<node id="-154758" lat="61.1202055574" lon="9.04892500091">
		<tag k="name" v="Molor" />
		<tag k="place" v="farm" />
		<tag k="ssr:stedsnr" v="904352" />
	</node>
	<node id="-154757" lat="61.1206944453" lon="9.09450278564">
		<tag k="name" v="Granli" />
		<tag k="place" v="farm" />
		<tag k="ssr:stedsnr" v="904313" />
	</node>
	<node id="-154756" lat="61.1157666695" lon="9.09472500748">
		<tag k="name" v="Marken" />
		<tag k="place" v="farm" />
		<tag k="ssr:stedsnr" v="904310" />
	</node>
	<node id="-154755" lat="61.1221388855" lon="9.09455277583">
		<tag k="name" v="Borg" />
		<tag k="place" v="isolated_dwelling" />
		<tag k="ssr:stedsnr" v="904308" />
	</node>
	<node id="-154753" lat="61.1206361102" lon="9.06720833785">
		<tag k="name" v="Vonheim" />
		<tag k="place" v="isolated_dwelling" />
		<tag k="ssr:stedsnr" v="904302" />
	</node>
	<node id="-154752" lat="61.1253055586" lon="9.04524722977">
		<tag k="name" v="Lyngstad" />
		<tag k="place" v="farm" />
		<tag k="ssr:stedsnr" v="904288" />
	</node>
	<node id="-154751" lat="61.0714499964" lon="9.16172223084">
		<tag k="name" v="Bakkene" />
		<tag k="place" v="farm" />
		<tag k="ssr:stedsnr" v="904238" />
	</node>
	<node id="-154747" lat="61.1568666677" lon="9.16585277017">
		<tag k="name" v="Spissebu" />
		<tag k="place" v="isolated_dwelling" />
		<tag k="ssr:stedsnr" v="904209" />
	</node>
	<node id="-154741" lat="61.1446138847" lon="9.07509443596">
		<tag k="name" v="Skogly" />
		<tag k="place" v="isolated_dwelling" />
		<tag k="ssr:stedsnr" v="904038" />
	</node>
	<node id="-154739" lat="61.1688138857" lon="8.96848055308">
		<tag k="name" v="Ersgarden" />
		<tag k="place" v="farm" />
		<tag k="ssr:stedsnr" v="903978" />
	</node>
	<node id="-154737" lat="61.1676268912" lon="8.96577557715">
		<tag k="fixme" v="consider place=hamlet" />
		<tag k="name" v="Nedre Dale" />
		<tag k="place" v="farm" />
		<tag k="ssr:stedsnr" v="903968" />
	</node>
	<node id="-154733" lat="61.2433416628" lon="8.84532500121">
		<tag k="name" v="Haugen" />
		<tag k="place" v="isolated_dwelling" />
		<tag k="ssr:stedsnr" v="903815" />
	</node>
	<node id="-154732" lat="61.1650472262" lon="8.97177499169">
		<tag k="name" v="Sløahaugen" />
		<tag k="place" v="locality" />
		<tag k="ssr:stedsnr" v="903808" />
	</node>
	<node id="-154731" lat="61.2521249983" lon="8.81501110248">
		<tag k="name" v="Haugo" />
		<tag k="place" v="isolated_dwelling" />
		<tag k="ssr:stedsnr" v="903801" />
	</node>
	<node id="-154728" lat="61.0721194428" lon="9.15323611475">
		<tag k="name" v="Havreberg" />
		<tag k="place" v="farm" />
		<tag k="ssr:stedsnr" v="903532" />
	</node>
	<node id="-154727" lat="61.0719722221" lon="9.14104443835">
		<tag k="name" v="Rødningen" />
		<tag k="place" v="farm" />
		<tag k="ssr:stedsnr" v="903531" />
	</node>
	<node id="-154726" lat="61.0860305539" lon="9.12551388596">
		<tag k="name" v="Haugstad" />
		<tag k="place" v="farm" />
		<tag k="ssr:stedsnr" v="903522" />
	</node>
	<node id="-154725" lat="61.090927776" lon="9.1226249964">
		<tag k="name" v="Hovrud" />
		<tag k="place" v="isolated_dwelling" />
		<tag k="ssr:stedsnr" v="903520" />
	</node>
	<node id="-154724" lat="61.09144722" lon="9.11450000416">
		<tag k="name" v="Ringvoll" />
		<tag k="place" v="farm" />
		<tag k="ssr:stedsnr" v="903518" />
	</node>
	<node id="-154723" lat="61.096497223" lon="9.13339444949">
		<tag k="name" v="Nerli" />
		<tag k="place" v="farm" />
		<tag k="ssr:stedsnr" v="903511" />
	</node>
	<node id="-154722" lat="61.1379055539" lon="9.02791111598">
		<tag k="historic" v="shieling" />
		<tag k="name" v="Sannesstølen" />
		<tag k="place" v="locality" />
		<tag k="ssr:stedsnr" v="903442" />
	</node>
	<node id="-154721" lat="61.1190666653" lon="9.09884443596">
		<tag k="name" v="Skogstad" />
		<tag k="place" v="farm" />
		<tag k="ssr:stedsnr" v="903401" />
	</node>
	<node id="-154720" lat="61.11593056" lon="9.09789999308">
		<tag k="name" v="Smedstad" />
		<tag k="place" v="farm" />
		<tag k="ssr:stedsnr" v="903398" />
	</node>
	<node id="-154716" lat="61.157092004" lon="9.02337161674">
		<tag k="fixme" v="consider place=hamlet" />
		<tag k="name" v="Presthegge" />
		<tag k="place" v="farm" />
		<tag k="ssr:stedsnr" v="903154" />
	</node>
	<node id="-154715" lat="61.1731583308" lon="8.99454166888">
		<tag k="name" v="Skogtun" />
		<tag k="place" v="isolated_dwelling" />
		<tag k="ssr:stedsnr" v="903144" />
	</node>
	<node id="-154714" lat="61.1864972193" lon="9.00189722794">
		<tag k="name" v="Marken" />
		<tag k="place" v="isolated_dwelling" />
		<tag k="ssr:stedsnr" v="903136" />
	</node>
	<node id="-154709" lat="61.4219457662" lon="8.93109156391">
		<tag k="alt_name" v="Nybua;Nybu" />
		<tag k="fixme" v="consider tourism=alpine_hut or tourism=chalet" />
		<tag k="name" v="Nybue" />
		<tag k="ssr:stedsnr" v="902659" />
		<tag k="tourism" v="wilderness_hut" />
	</node>
	<node id="-154706" lat="61.2014861103" lon="8.95234165761">
		<tag k="name" v="Haugene" />
		<tag k="place" v="farm" />
		<tag k="ssr:stedsnr" v="858931" />
	</node>
	<node id="-154699" lat="61.313011114" lon="8.92454167204">
		<tag k="historic" v="shieling" />
		<tag k="name" v="Vassklepp" />
		<tag k="place" v="locality" />
		<tag k="ssr:stedsnr" v="858059" />
	</node>
	<node id="-154697" lat="61.2060055589" lon="9.4507138841">
		<tag k="alt_name" v="Flylægervøllen" />
		<tag k="name" v="Flylægervollen" />
		<tag k="place" v="locality" />
		<tag k="ssr:stedsnr" v="857975" />
	</node>
	<node id="-154694" lat="61.1433833365" lon="9.25238334261">
		<tag k="alt_name" v="Rabbalen" />
		<tag k="historic" v="shieling" />
		<tag k="name" v="Rabalen" />
		<tag k="place" v="locality" />
		<tag k="ssr:stedsnr" v="857922" />
	</node>
	<node id="-154693" lat="61.0695138903" lon="9.1431749987">
		<tag k="alt_name" v="Hove" />
		<tag k="name" v="Hovi" />
		<tag k="place" v="farm" />
		<tag k="ssr:stedsnr" v="857853" />
	</node>
	<node id="-154691" lat="61.2092944455" lon="8.91332500008">
		<tag k="name" v="Kampen" />
		<tag k="place" v="farm" />
		<tag k="ssr:stedsnr" v="857506" />
	</node>
	<node id="-154687" lat="61.0765111125" lon="9.09136944759">
		<tag k="name" v="Tvenge" />
		<tag k="place" v="farm" />
		<tag k="ssr:stedsnr" v="857280" />
	</node>
	<node id="-154686" lat="61.0761861121" lon="9.15924444503">
		<tag k="name" v="Bråten" />
		<tag k="place" v="farm" />
		<tag k="ssr:stedsnr" v="857265" />
	</node>
	<node id="-154685" lat="61.077841671" lon="9.15196666568">
		<tag k="name" v="Rødningen" />
		<tag k="place" v="farm" />
		<tag k="ssr:stedsnr" v="857263" />
	</node>
	<node id="-154683" lat="61.2820361152" lon="8.79255834117">
		<tag k="alt_name" v="Hødnstølen" />
		<tag k="historic" v="shieling" />
		<tag k="name" v="Hornstølen" />
		<tag k="place" v="locality" />
		<tag k="ssr:stedsnr" v="857201" />
	</node>
	<node id="-154680" lat="61.1159499986" lon="9.03629166417">
		<tag k="fixme" v="consider place=hamlet" />
		<tag k="name" v="Skatrud" />
		<tag k="place" v="farm" />
		<tag k="ssr:stedsnr" v="857145" />
	</node>
	<node id="-154679" lat="61.1177834451" lon="9.06276729805">
		<tag k="name" v="Jørstad" />
		<tag k="place" v="hamlet" />
		<tag k="ssr:stedsnr" v="857143" />
	</node>
	<node id="-154672" lat="61.2337416677" lon="9.28935278092">
		<tag k="name" v="Bjørnhaug" />
		<tag k="place" v="isolated_dwelling" />
		<tag k="ssr:stedsnr" v="856991" />
	</node>
	<node id="-154671" lat="61.0634694412" lon="9.1641972146">
		<tag k="name" v="Melbybråten" />
		<tag k="place" v="hamlet" />
		<tag k="ssr:stedsnr" v="856838" />
	</node>
	<node id="-154670" lat="61.0605194427" lon="9.15723610574">
		<tag k="name" v="Bråten" />
		<tag k="place" v="farm" />
		<tag k="ssr:stedsnr" v="856836" />
	</node>
	<node id="-154669" lat="61.2022027771" lon="8.95269999793">
		<tag k="alt_name" v="Haugane" />
		<tag k="name" v="Haugene" />
		<tag k="place" v="farm" />
		<tag k="ssr:stedsnr" v="856539" />
	</node>
	<node id="-154668" lat="61.2014083352" lon="9.01927499637">
		<tag k="name" v="Nystølen" />
		<tag k="place" v="isolated_dwelling" />
		<tag k="ssr:stedsnr" v="856532" />
	</node>
	<node id="-154667" lat="61.2414333329" lon="8.95400554628">
		<tag k="alt_name" v="Fetstøladn" />
		<tag k="historic" v="shieling" />
		<tag k="name" v="Fetstølane" />
		<tag k="place" v="locality" />
		<tag k="ssr:stedsnr" v="856514" />
	</node>
	<node id="-154666" lat="61.0917111068" lon="9.14622500286">
		<tag k="name" v="Kvitehaugen" />
		<tag k="place" v="isolated_dwelling" />
		<tag k="ssr:stedsnr" v="856215" />
	</node>
	<node id="-154665" lat="61.0916999977" lon="9.11322221796">
		<tag k="name" v="Ringstad" />
		<tag k="place" v="farm" />
		<tag k="ssr:stedsnr" v="856200" />
	</node>
	<node id="-154664" lat="61.1045277753" lon="9.10216945177">
		<tag k="name" v="Solbu" />
		<tag k="place" v="farm" />
		<tag k="ssr:stedsnr" v="856186" />
	</node>
	<node id="-154663" lat="61.1261276374" lon="9.05251341352">
		<tag k="alt_name" v="Istad" />
		<tag k="fixme" v="consider place=hamlet" />
		<tag k="name" v="Idstad" />
		<tag k="place" v="farm" />
		<tag k="ssr:stedsnr" v="856109" />
	</node>
	<node id="-154662" lat="61.1336000024" lon="9.07923611832">
		<tag k="amenity" v="townhall" />
		<tag k="name" v="Tingvang" />
		<tag k="ssr:stedsnr" v="856093" />
	</node>
	<node id="-154660" lat="61.1504944488" lon="9.04942777059">
		<tag k="name" v="Haugen" />
		<tag k="place" v="farm" />
		<tag k="ssr:stedsnr" v="856083" />
	</node>
	<node id="-154659" lat="61.1474083293" lon="9.07248333343">
		<tag k="alt_name" v="Moahagen" />
		<tag k="name" v="Hagen" />
		<tag k="place" v="farm" />
		<tag k="ssr:stedsnr" v="856080" />
	</node>
	<node id="-154658" lat="61.1754555599" lon="8.92927777091">
		<tag k="name" v="Røyne" />
		<tag k="place" v="farm" />
		<tag k="ssr:stedsnr" v="856029" />
	</node>
	<node id="-154657" lat="61.1838694401" lon="9.15326944842">
		<tag k="alt_name" v="Gama Sama" />
		<tag k="historic" v="shieling" />
		<tag k="name" v="Gamasama" />
		<tag k="place" v="locality" />
		<tag k="ssr:stedsnr" v="856023" />
	</node>
	<node id="-154647" lat="61.1909583324" lon="8.99573611635">
		<tag k="name" v="Nygard" />
		<tag k="place" v="farm" />
		<tag k="ssr:stedsnr" v="844819" />
	</node>
	<node id="-154646" lat="61.2514166659" lon="8.92696388107">
		<tag k="historic" v="shieling" />
		<tag k="name" v="Grønåsen" />
		<tag k="place" v="locality" />
		<tag k="ssr:stedsnr" v="844708" />
	</node>
	<node id="-154640" lat="61.2056416637" lon="8.94964443629">
		<tag k="name" v="Harakvene" />
		<tag k="place" v="locality" />
		<tag k="ssr:stedsnr" v="843916" />
	</node>
	<node id="-154637" lat="61.2530666622" lon="8.84057500137">
		<tag k="historic" v="shieling" />
		<tag k="name" v="Beitoheimstøladn" />
		<tag k="place" v="locality" />
		<tag k="ssr:stedsnr" v="843802" />
	</node>
	<node id="-154636" lat="61.2703694417" lon="8.85076943514">
		<tag k="name" v="Gamle Fjellstølen" />
		<tag k="place" v="isolated_dwelling" />
		<tag k="ssr:stedsnr" v="843799" />
	</node>
	<node id="-154634" lat="61.2055388849" lon="9.02213610663">
		<tag k="name" v="Briskehallen" />
		<tag k="place" v="isolated_dwelling" />
		<tag k="ssr:stedsnr" v="843761" />
	</node>
	<node id="-154630" lat="61.0767611144" lon="9.10514166012">
		<tag k="name" v="Haugen" />
		<tag k="place" v="farm" />
		<tag k="ssr:stedsnr" v="843659" />
	</node>
	<node id="-154628" lat="61.0814944455" lon="9.12800276938">
		<tag k="amenity" v="school" />
		<tag k="name" v="Rogne skule" />
		<tag k="ssr:stedsnr" v="843545" />
	</node>
	<node id="-154619" lat="61.1046888854" lon="9.1090722144">
		<tag k="name" v="Nørdre Rogne" />
		<tag k="place" v="farm" />
		<tag k="ssr:stedsnr" v="843359" />
	</node>
	<node id="-154616" lat="61.0843916625" lon="9.0630222154">
		<tag k="historic" v="shieling" />
		<tag k="name" v="Smedrudstølen" />
		<tag k="place" v="locality" />
		<tag k="ssr:stedsnr" v="843309" />
	</node>
	<node id="-154614" lat="61.0646111124" lon="9.16815000169">
		<tag k="name" v="Tvenge" />
		<tag k="place" v="farm" />
		<tag k="ssr:stedsnr" v="843250" />
	</node>
	<node id="-154606" lat="61.1019138906" lon="9.31006388141">
		<tag k="historic" v="shieling" />
		<tag k="loc_name" v="Blidlie" />
		<tag k="name" v="Blilie" />
		<tag k="place" v="locality" />
		<tag k="ssr:stedsnr" v="843188" />
	</node>
	<node id="-154602" lat="61.1605527791" lon="9.00618888112">
		<tag k="name" v="Solberg" />
		<tag k="place" v="farm" />
		<tag k="ssr:stedsnr" v="843164" />
	</node>
	<node id="-154600" lat="61.1693416641" lon="9.07410833601">
		<tag k="name" v="Nordeng" />
		<tag k="place" v="farm" />
		<tag k="ssr:stedsnr" v="843131" />
	</node>
	<node id="-154598" lat="61.1677944428" lon="9.04034999817">
		<tag k="name" v="Bakkene" />
		<tag k="place" v="farm" />
		<tag k="ssr:stedsnr" v="843129" />
	</node>
	<node id="-154589" lat="61.2039138887" lon="8.9634722229">
		<tag k="loc_name" v="Hedalen, midtre" />
		<tag k="name" v="Hedalen" />
		<tag k="place" v="farm" />
		<tag k="ssr:stedsnr" v="833158" />
	</node>
	<node id="-154587" lat="61.2574416663" lon="8.78944166635">
		<tag k="alt_name" v="Nørdre Lykken" />
		<tag k="name" v="Lykkja" />
		<tag k="place" v="farm" />
		<tag k="ssr:stedsnr" v="832914" />
	</node>
	<node id="-154586" lat="61.2559555586" lon="8.80553610791">
		<tag k="name" v="Solvang" />
		<tag k="place" v="farm" />
		<tag k="ssr:stedsnr" v="832890" />
	</node>
	<node id="-154585" lat="61.1184249998" lon="9.09093334151">
		<tag k="loc_name" v="Seljordet" />
		<tag k="name" v="Myrvang" />
		<tag k="place" v="farm" />
		<tag k="ssr:stedsnr" v="832335" />
	</node>
	<node id="-154583" lat="61.1532638853" lon="9.04251944463">
		<tag k="loc_name" v="Nørdre Vøle" />
		<tag k="name" v="Vårum" />
		<tag k="place" v="farm" />
		<tag k="ssr:stedsnr" v="832233" />
	</node>
	<node id="-154582" lat="61.1976222214" lon="8.98091111375">
		<tag k="name" v="Kolleberg" />
		<tag k="place" v="quarter" />
		<tag k="ssr:stedsnr" v="830052" />
	</node>
	<node id="-154581" lat="61.1455222207" lon="9.07695278441">
		<tag k="alt_name" v="Raubrøtmoen industriområde" />
		<tag k="building" v="industrial" />
		<tag k="name" v="Raudbrotmoen industriområde" />
		<tag k="ssr:stedsnr" v="830036" />
	</node>
	<node id="-154580" lat="61.2287499965" lon="9.21202500323">
		<tag k="alt_name" v="Bergstølen" />
		<tag k="historic" v="shieling" />
		<tag k="name" v="Bergastølen" />
		<tag k="place" v="locality" />
		<tag k="ssr:stedsnr" v="828409" />
	</node>
	<node id="-154579" lat="61.2236508227" lon="8.90065785893">
		<tag k="loc_name" v="Liagardane;Lie" />
		<tag k="name" v="Lii" />
		<tag k="place" v="hamlet" />
		<tag k="ssr:stedsnr" v="828392" />
	</node>
	<node id="-154570" lat="61.3173027784" lon="9.0150527705">
		<tag k="historic" v="shieling" />
		<tag k="name" v="Skindro" />
		<tag k="place" v="locality" />
		<tag k="ssr:stedsnr" v="797069" />
	</node>
	<node id="-154566" lat="61.1447305516" lon="9.23008333946">
		<tag k="historic" v="shieling" />
		<tag k="name" v="Buahaugen" />
		<tag k="place" v="locality" />
		<tag k="ssr:stedsnr" v="796950" />
	</node>
	<node id="-154562" lat="61.0693035123" lon="9.09970405587">
		<tag k="alt_name" v="Røshaugen" />
		<tag k="name" v="Rudihaugen" />
		<tag k="place" v="farm" />
		<tag k="ssr:stedsnr" v="796869" />
	</node>
	<node id="-154560" lat="61.2232083372" lon="9.046825005">
		<tag k="name" v="Håvardstølen" />
		<tag k="place" v="isolated_dwelling" />
		<tag k="ssr:stedsnr" v="796489" />
	</node>
	<node id="-154555" lat="61.0862305557" lon="9.0922666658">
		<tag k="name" v="Bjørnstad" />
		<tag k="place" v="farm" />
		<tag k="ssr:stedsnr" v="796233" />
	</node>
	<node id="-154554" lat="61.2580166674" lon="8.78570556391">
		<tag k="fixme" v="multiple name tags, choose one and add the other to alt_name" />
		<tag k="name" v="Igdun;Lykkheim" />
		<tag k="place" v="farm" />
		<tag k="ssr:stedsnr" v="796231" />
	</node>
	<node id="-154551" lat="61.2788166697" lon="8.80001110474">
		<tag k="historic" v="shieling" />
		<tag k="name" v="Skjelstølen" />
		<tag k="place" v="locality" />
		<tag k="ssr:stedsnr" v="796189" />
	</node>
	<node id="-154550" lat="61.1150761703" lon="9.10493255006">
		<tag k="fixme" v="consider place=hamlet" />
		<tag k="name" v="Skattebu" />
		<tag k="place" v="farm" />
		<tag k="ssr:stedsnr" v="796170" />
	</node>
	<node id="-154549" lat="61.117038891" lon="9.19544443572">
		<tag k="historic" v="shieling" />
		<tag k="name" v="Øyangen" />
		<tag k="place" v="locality" />
		<tag k="ssr:stedsnr" v="796161" />
	</node>
	<node id="-154546" lat="61.1207138865" lon="9.03761389309">
		<tag k="name" v="Nyhagen" />
		<tag k="place" v="farm" />
		<tag k="ssr:stedsnr" v="796127" />
	</node>
	<node id="-154545" lat="61.1223443739" lon="9.06090371211">
		<tag k="alt_name" v="Løkje" />
		<tag k="fixme" v="consider place=hamlet" />
		<tag k="name" v="Løken" />
		<tag k="place" v="farm" />
		<tag k="ssr:stedsnr" v="796120" />
	</node>
	<node id="-154543" lat="61.1299166624" lon="9.10160278353">
		<tag k="historic" v="shieling" />
		<tag k="name" v="Kubbesæte" />
		<tag k="place" v="locality" />
		<tag k="ssr:stedsnr" v="796105" />
	</node>
	<node id="-154538" lat="61.1776027816" lon="9.1276194493">
		<tag k="historic" v="shieling" />
		<tag k="name" v="Veslestølen" />
		<tag k="place" v="locality" />
		<tag k="ssr:stedsnr" v="796041" />
	</node>
	<node id="-154531" lat="61.0703004945" lon="9.14936753791">
		<tag k="fixme" v="consider place=hamlet" />
		<tag k="name" v="Bollstad" />
		<tag k="place" v="farm" />
		<tag k="ssr:stedsnr" v="795855" />
	</node>
	<node id="-154530" lat="61.2049611107" lon="8.95347778113">
		<tag k="alt_name" v="Kleivi" />
		<tag k="name" v="Kleiven" />
		<tag k="place" v="farm" />
		<tag k="ssr:stedsnr" v="795537" />
	</node>
	<node id="-154529" lat="61.2032305584" lon="9.14020834134">
		<tag k="historic" v="shieling" />
		<tag k="name" v="Gravfjellstølen" />
		<tag k="place" v="locality" />
		<tag k="ssr:stedsnr" v="795532" />
	</node>
	<node id="-154523" lat="61.2122498263" lon="8.92518327728">
		<tag k="alt_name" v="Okshovd" />
		<tag k="name" v="Ukshovd" />
		<tag k="place" v="hamlet" />
		<tag k="ssr:stedsnr" v="786412" />
	</node>
	<node id="-154508" lat="61.2102083341" lon="8.95471110532">
		<tag k="name" v="Myre" />
		<tag k="place" v="farm" />
		<tag k="ssr:stedsnr" v="782904" />
	</node>
	<node id="-154507" lat="61.2077611088" lon="8.9560611117">
		<tag k="name" v="Smådalen" />
		<tag k="place" v="farm" />
		<tag k="ssr:stedsnr" v="782898" />
	</node>
	<node id="-154506" lat="61.0757222217" lon="9.15211945326">
		<tag k="name" v="Engli" />
		<tag k="place" v="isolated_dwelling" />
		<tag k="ssr:stedsnr" v="782820" />
	</node>
	<node id="-154505" lat="61.2422805574" lon="8.85069444431">
		<tag k="name" v="Bergli" />
		<tag k="place" v="isolated_dwelling" />
		<tag k="ssr:stedsnr" v="782799" />
	</node>
	<node id="-154504" lat="61.2425750042" lon="8.85174166138">
		<tag k="name" v="Oppegård" />
		<tag k="place" v="isolated_dwelling" />
		<tag k="ssr:stedsnr" v="782797" />
	</node>
	<node id="-154495" lat="61.0706249976" lon="9.14268054822">
		<tag k="name" v="Hovi" />
		<tag k="place" v="farm" />
		<tag k="ssr:stedsnr" v="782525" />
	</node>
	<node id="-154494" lat="61.084047222" lon="9.11875833066">
		<tag k="name" v="Myreng" />
		<tag k="place" v="farm" />
		<tag k="ssr:stedsnr" v="782512" />
	</node>
	<node id="-154493" lat="61.0911500033" lon="9.1265027749">
		<tag k="name" v="Skogen" />
		<tag k="place" v="farm" />
		<tag k="ssr:stedsnr" v="782505" />
	</node>
	<node id="-154492" lat="61.095736113" lon="9.12668333514">
		<tag k="name" v="Rognli" />
		<tag k="place" v="isolated_dwelling" />
		<tag k="ssr:stedsnr" v="782494" />
	</node>
	<node id="-154482" lat="61.1212472246" lon="9.09022778336">
		<tag k="name" v="Rud" />
		<tag k="place" v="farm" />
		<tag k="ssr:stedsnr" v="782290" />
	</node>
	<node id="-154481" lat="61.1213750021" lon="9.08427500868">
		<tag k="name" v="Elvheim" />
		<tag k="place" v="isolated_dwelling" />
		<tag k="ssr:stedsnr" v="782289" />
	</node>
	<node id="-154478" lat="61.0687222237" lon="9.16649165819">
		<tag k="name" v="Kolstad" />
		<tag k="place" v="farm" />
		<tag k="ssr:stedsnr" v="782227" />
	</node>
	<node id="-154477" lat="61.1546388882" lon="9.04247499416">
		<tag k="name" v="Heranger" />
		<tag k="place" v="isolated_dwelling" />
		<tag k="ssr:stedsnr" v="782209" />
	</node>
	<node id="-154475" lat="61.1552055586" lon="9.04380555309">
		<tag k="name" v="Sunnvoll" />
		<tag k="place" v="farm" />
		<tag k="ssr:stedsnr" v="782207" />
	</node>
	<node id="-154474" lat="61.2798527755" lon="8.80733333368">
		<tag k="historic" v="shieling" />
		<tag k="name" v="Bundestølen" />
		<tag k="place" v="locality" />
		<tag k="ssr:stedsnr" v="782203" />
	</node>
	<node id="-154465" lat="61.1594305523" lon="9.01773888435">
		<tag k="name" v="Jonsegge" />
		<tag k="place" v="farm" />
		<tag k="ssr:stedsnr" v="782139" />
	</node>
	<node id="-154462" lat="61.1707805583" lon="9.04821666925">
		<tag k="name" v="Lasserødningen" />
		<tag k="place" v="isolated_dwelling" />
		<tag k="ssr:stedsnr" v="782119" />
	</node>
	<node id="-154458" lat="61.2496833332" lon="8.88906388172">
		<tag k="historic" v="shieling" />
		<tag k="name" v="Møsasvae" />
		<tag k="place" v="locality" />
		<tag k="ssr:stedsnr" v="781933" />
	</node>
	<node id="-154454" lat="61.2032611123" lon="8.97584721443">
		<tag k="alt_name" v="Lie" />
		<tag k="name" v="Li" />
		<tag k="place" v="farm" />
		<tag k="ssr:stedsnr" v="772176" />
	</node>
	<node id="-154453" lat="61.1188416656" lon="9.07776111064">
		<tag k="building" v="industrial" />
		<tag k="name" v="Nedrefoss renseanlegg" />
		<tag k="ssr:stedsnr" v="770190" />
	</node>
	<node id="-154447" lat="61.2966972236" lon="8.94337500108">
		<tag k="name" v="Oleskardbuene" />
		<tag k="place" v="isolated_dwelling" />
		<tag k="ssr:stedsnr" v="736081" />
	</node>
	<node id="-154445" lat="61.329097219" lon="8.96392499686">
		<tag k="historic" v="shieling" />
		<tag k="loc_name" v="Langeråk" />
		<tag k="name" v="Melbysstølen" />
		<tag k="old_name" v="Melbysstøl" />
		<tag k="place" v="locality" />
		<tag k="ssr:stedsnr" v="736063" />
	</node>
	<node id="-154443" lat="61.2344583328" lon="9.341830559">
		<tag k="name" v="Kvitfeten" />
		<tag k="place" v="isolated_dwelling" />
		<tag k="ssr:stedsnr" v="735985" />
	</node>
	<node id="-154442" lat="61.1993999969" lon="9.42904999386">
		<tag k="alt_name" v="Olægret" />
		<tag k="historic" v="shieling" />
		<tag k="name" v="Olægeret" />
		<tag k="place" v="locality" />
		<tag k="ssr:stedsnr" v="735977" />
	</node>
	<node id="-154438" lat="61.0660328739" lon="9.15576699199">
		<tag k="fixme" v="consider place=hamlet" />
		<tag k="name" v="Melby" />
		<tag k="place" v="farm" />
		<tag k="ssr:stedsnr" v="735857" />
	</node>
	<node id="-154437" lat="61.2066499991" lon="8.93533055567">
		<tag k="alt_name" v="Dokki" />
		<tag k="name" v="Dokken" />
		<tag k="place" v="farm" />
		<tag k="ssr:stedsnr" v="735481" />
	</node>
	<node id="-154436" lat="61.2155166665" lon="9.15951111464">
		<tag k="alt_name" v="Rauangstølen" />
		<tag k="historic" v="shieling" />
		<tag k="name" v="Raudangstølen" />
		<tag k="place" v="locality" />
		<tag k="ssr:stedsnr" v="735475" />
	</node>
	<node id="-154435" lat="61.1965111152" lon="9.01624443627">
		<tag k="name" v="Vindejordet" />
		<tag k="place" v="isolated_dwelling" />
		<tag k="ssr:stedsnr" v="735460" />
	</node>
	<node id="-154432" lat="61.086977782" lon="9.08467500856">
		<tag k="alt_name" v="Dokki" />
		<tag k="name" v="Dokken" />
		<tag k="place" v="farm" />
		<tag k="ssr:stedsnr" v="735228" />
	</node>
	<node id="-154430" lat="61.0958027775" lon="9.12918334229">
		<tag k="name" v="Mo" />
		<tag k="place" v="farm" />
		<tag k="ssr:stedsnr" v="735195" />
	</node>
	<node id="-154429" lat="61.0930388849" lon="9.12238889347">
		<tag k="name" v="Skogen" />
		<tag k="place" v="farm" />
		<tag k="ssr:stedsnr" v="735194" />
	</node>
	<node id="-154428" lat="61.0958527796" lon="9.13871111007">
		<tag k="alt_name" v="Milun" />
		<tag k="name" v="Milo" />
		<tag k="place" v="farm" />
		<tag k="ssr:stedsnr" v="735192" />
	</node>
	<node id="-154427" lat="61.1102111115" lon="9.11576944372">
		<tag k="name" v="Prestrudbråten" />
		<tag k="place" v="farm" />
		<tag k="ssr:stedsnr" v="735161" />
	</node>
	<node id="-154426" lat="61.1155638871" lon="9.11267778037">
		<tag k="name" v="Brattrud" />
		<tag k="place" v="farm" />
		<tag k="ssr:stedsnr" v="735158" />
	</node>
	<node id="-154424" lat="61.2727749986" lon="8.86113333347">
		<tag k="historic" v="shieling" />
		<tag k="name" v="Fjellstølen" />
		<tag k="place" v="locality" />
		<tag k="ssr:stedsnr" v="735088" />
	</node>
	<node id="-154421" lat="61.1540055546" lon="9.03963889054">
		<tag k="alt_name" v="Sele" />
		<tag k="name" v="Sælid" />
		<tag k="place" v="farm" />
		<tag k="ssr:stedsnr" v="735064" />
	</node>
	<node id="-154420" lat="61.1617305593" lon="8.99952221335">
		<tag k="name" v="Dæle" />
		<tag k="old_name" v="Dæhli" />
		<tag k="place" v="farm" />
		<tag k="ssr:stedsnr" v="735059" />
	</node>
	<node id="-154419" lat="61.167855556" lon="8.96381944423">
		<tag k="name" v="Nedre Dale" />
		<tag k="place" v="farm" />
		<tag k="ssr:stedsnr" v="735048" />
	</node>
	<node id="-154418" lat="61.1655966766" lon="9.05961712173">
		<tag k="fixme" v="consider place=hamlet" />
		<tag k="name" v="Langedal" />
		<tag k="place" v="farm" />
		<tag k="ssr:stedsnr" v="735046" />
	</node>
	<node id="-154416" lat="61.1786861126" lon="8.9357833416">
		<tag k="name" v="Rødningen" />
		<tag k="place" v="farm" />
		<tag k="ssr:stedsnr" v="735025" />
	</node>
	<node id="-154415" lat="61.1864111118" lon="8.9798583348">
		<tag k="alt_name" v="Haugo" />
		<tag k="name" v="Haugane" />
		<tag k="place" v="farm" />
		<tag k="ssr:stedsnr" v="735020" />
	</node>
	<node id="-154413" lat="61.079469446" lon="9.1225999915">
		<tag k="name" v="Bratli" />
		<tag k="place" v="farm" />
		<tag k="ssr:stedsnr" v="734843" />
	</node>
	<node id="-154396" lat="61.1145027736" lon="9.05561388925">
		<tag k="building" v="industrial" />
		<tag k="name" v="Kveno" />
		<tag k="ssr:stedsnr" v="722374" />
	</node>
	<node id="-154382" lat="61.1473666655" lon="9.06445833866">
		<tag k="name" v="Solhall" />
		<tag k="place" v="isolated_dwelling" />
		<tag k="ssr:stedsnr" v="722060" />
	</node>
	<node id="-154380" lat="61.1742277786" lon="9.14132222778">
		<tag k="name" v="Flisebakke" />
		<tag k="place" v="isolated_dwelling" />
		<tag k="ssr:stedsnr" v="722034" />
	</node>
	<node id="-154378" lat="61.1698111701" lon="8.96284597661">
		<tag k="fixme" v="consider place=hamlet" />
		<tag k="name" v="Øvre Dale" />
		<tag k="place" v="farm" />
		<tag k="ssr:stedsnr" v="721970" />
	</node>
	<node id="-154375" lat="61.2109222219" lon="8.95098333845">
		<tag k="name" v="Myrheim" />
		<tag k="place" v="farm" />
		<tag k="ssr:stedsnr" v="721920" />
	</node>
	<node id="-154370" lat="61.069005559" lon="9.15127222593">
		<tag k="name" v="Berg" />
		<tag k="place" v="isolated_dwelling" />
		<tag k="ssr:stedsnr" v="721538" />
	</node>
	<node id="-154366" lat="61.1886611083" lon="8.98371944765">
		<tag k="name" v="Haugen" />
		<tag k="place" v="farm" />
		<tag k="ssr:stedsnr" v="721709" />
	</node>
	<node id="-154365" lat="61.1932861118" lon="8.99098333127">
		<tag k="name" v="Solbakken" />
		<tag k="place" v="farm" />
		<tag k="ssr:stedsnr" v="721707" />
	</node>
	<node id="-154364" lat="61.1181777794" lon="9.09895278643">
		<tag k="name" v="Haugli" />
		<tag k="place" v="farm" />
		<tag k="ssr:stedsnr" v="721392" />
	</node>
	<node id="-154362" lat="61.1626749997" lon="9.03970555604">
		<tag k="name" v="Linstad" />
		<tag k="place" v="farm" />
		<tag k="ssr:stedsnr" v="721212" />
	</node>
	<node id="-154360" lat="61.1615638848" lon="9.03570833421">
		<tag k="name" v="Engdal" />
		<tag k="place" v="isolated_dwelling" />
		<tag k="ssr:stedsnr" v="721145" />
	</node>
	<node id="-154359" lat="61.1699333332" lon="8.99351110266">
		<tag k="name" v="Skogaplassen" />
		<tag k="place" v="locality" />
		<tag k="ssr:stedsnr" v="721135" />
	</node>
	<node id="-154358" lat="61.1817305543" lon="8.99857222197">
		<tag k="name" v="Karskogen" />
		<tag k="old_name" v="Skogstad" />
		<tag k="place" v="farm" />
		<tag k="ssr:stedsnr" v="721132" />
	</node>
	<node id="-154357" lat="61.1774833342" lon="8.99479166593">
		<tag k="name" v="Nordtorprødningen" />
		<tag k="place" v="locality" />
		<tag k="ssr:stedsnr" v="721129" />
	</node>
	<node id="-154354" lat="61.1682666654" lon="9.09149444331">
		<tag k="name" v="Welen" />
		<tag k="place" v="isolated_dwelling" />
		<tag k="ssr:stedsnr" v="721111" />
	</node>
	<node id="-154352" lat="61.1084666711" lon="9.10888055537">
		<tag k="name" v="Løvstad" />
		<tag k="place" v="isolated_dwelling" />
		<tag k="ssr:stedsnr" v="721373" />
	</node>
	<node id="-154348" lat="61.1528944434" lon="9.0393750016">
		<tag k="loc_name" v="Nedre Sælid" />
		<tag k="name" v="Sælid" />
		<tag k="place" v="farm" />
		<tag k="ssr:stedsnr" v="710189" />
	</node>
	<node id="-154347" lat="61.1324944467" lon="9.08210000185">
		<tag k="amenity" v="school" />
		<tag k="name" v="Øystre Slidre ungdomsskule" />
		<tag k="ssr:stedsnr" v="709228" />
	</node>
	<node id="-154346" lat="61.2413583313" lon="8.92006110898">
		<tag k="name" v="Beitostølen Hytter&amp;Camping" />
		<tag k="ssr:stedsnr" v="692606" />
		<tag k="tourism" v="camp_site" />
	</node>
	<node id="-154345" lat="61.2766855526" lon="9.23261189486">
		<tag k="historic" v="shieling" />
		<tag k="name" v="Storeskag" />
		<tag k="place" v="locality" />
		<tag k="ssr:stedsnr" v="676268" />
	</node>
	<node id="-154344" lat="61.2841367209" lon="9.32726834896">
		<tag k="fixme" v="consider tourism=alpine_hut or tourism=chalet" />
		<tag k="name" v="Plankebue" />
		<tag k="old_name" v="Plankebua" />
		<tag k="ssr:stedsnr" v="676265" />
		<tag k="tourism" v="wilderness_hut" />
	</node>
	<node id="-154343" lat="61.255308337" lon="9.19326388652">
		<tag k="alt_name" v="Vesle-Skag" />
		<tag k="historic" v="shieling" />
		<tag k="name" v="Vesleskag" />
		<tag k="place" v="locality" />
		<tag k="ssr:stedsnr" v="676117" />
	</node>
	<node id="-154339" lat="61.2498944445" lon="8.90922222033">
		<tag k="historic" v="shieling" />
		<tag k="name" v="Røynisstølen" />
		<tag k="place" v="locality" />
		<tag k="ssr:stedsnr" v="675114" />
	</node>
	<node id="-154338" lat="61.2758499989" lon="8.97660832862">
		<tag k="alt_name" v="Olestølen" />
		<tag k="historic" v="shieling" />
		<tag k="name" v="Ole" />
		<tag k="place" v="locality" />
		<tag k="ssr:stedsnr" v="675097" />
	</node>
	<node id="-154333" lat="61.3123583312" lon="8.91698056051">
		<tag k="historic" v="shieling" />
		<tag k="name" v="Liabue" />
		<tag k="place" v="locality" />
		<tag k="ssr:stedsnr" v="675072" />
	</node>
	<node id="-154332" lat="61.3385916622" lon="9.18355833985">
		<tag k="name" v="Innbue" />
		<tag k="place" v="isolated_dwelling" />
		<tag k="ssr:stedsnr" v="675069" />
	</node>
	<node id="-154323" lat="61.2287888933" lon="9.35275833536">
		<tag k="name" v="Kvitfeten" />
		<tag k="place" v="isolated_dwelling" />
		<tag k="ssr:stedsnr" v="674994" />
	</node>
	<node id="-154316" lat="61.0959666694" lon="9.32622500767">
		<tag k="historic" v="shieling" />
		<tag k="name" v="Lislebufeten" />
		<tag k="place" v="locality" />
		<tag k="ssr:stedsnr" v="674903" />
	</node>
	<node id="-154315" lat="61.0630277756" lon="9.17767221843">
		<tag k="alt_name" v="Svartehaug" />
		<tag k="name" v="Svartehaugen" />
		<tag k="place" v="farm" />
		<tag k="ssr:stedsnr" v="674849" />
	</node>
	<node id="-154314" lat="61.2413694439" lon="8.84127500179">
		<tag k="name" v="Grønolen" />
		<tag k="place" v="farm" />
		<tag k="ssr:stedsnr" v="674749" />
	</node>
	<node id="-154312" lat="61.2064166635" lon="8.96248332849">
		<tag k="alt_name" v="Hedalen, øvre" />
		<tag k="name" v="Øvre Hedalen" />
		<tag k="place" v="farm" />
		<tag k="ssr:stedsnr" v="674479" />
	</node>
	<node id="-154310" lat="61.2119250004" lon="9.01302500388">
		<tag k="alt_name" v="Mørstadstølane, øystre;Øystre Mørstadstøladn" />
		<tag k="historic" v="shieling" />
		<tag k="name" v="Øystre Mørstadstølane" />
		<tag k="place" v="locality" />
		<tag k="ssr:stedsnr" v="674477" />
	</node>
	<node id="-154308" lat="61.2023388872" lon="9.02672221816">
		<tag k="name" v="Nordtorpstølen" />
		<tag k="place" v="isolated_dwelling" />
		<tag k="ssr:stedsnr" v="674466" />
	</node>
	<node id="-154306" lat="61.2480750007" lon="8.97564166661">
		<tag k="alt_name" v="Hedalsstølen, øystre" />
		<tag k="historic" v="shieling" />
		<tag k="name" v="Øystre Hedalsstølen" />
		<tag k="place" v="locality" />
		<tag k="ssr:stedsnr" v="674447" />
	</node>
	<node id="-154304" lat="61.2274194449" lon="8.90038889585">
		<tag k="alt_name" v="Nørdre Lien;Lii;Lien" />
		<tag k="loc_name" v="Nørdre Lie" />
		<tag k="name" v="Nørdre Lii" />
		<tag k="place" v="farm" />
		<tag k="ssr:stedsnr" v="674442" />
	</node>
	<node id="-154302" lat="61.0770138868" lon="9.07125832478">
		<tag k="historic" v="shieling" />
		<tag k="name" v="Rundtom" />
		<tag k="place" v="locality" />
		<tag k="ssr:stedsnr" v="674238" />
	</node>
	<node id="-154301" lat="61.0752194474" lon="9.1494222315">
		<tag k="name" v="Grøndalen" />
		<tag k="place" v="farm" />
		<tag k="ssr:stedsnr" v="674230" />
	</node>
	<node id="-154300" lat="61.1030416693" lon="9.06761666664">
		<tag k="alt_name" v="Lauvås" />
		<tag k="name" v="Løvås" />
		<tag k="place" v="farm" />
		<tag k="ssr:stedsnr" v="674183" />
	</node>
	<node id="-154298" lat="61.1048138925" lon="9.12407778222">
		<tag k="name" v="Lund" />
		<tag k="place" v="farm" />
		<tag k="ssr:stedsnr" v="674172" />
	</node>
	<node id="-154297" lat="61.1138583361" lon="9.13845832602">
		<tag k="historic" v="shieling" />
		<tag k="name" v="Grasdalstølen" />
		<tag k="place" v="locality" />
		<tag k="ssr:stedsnr" v="674163" />
	</node>
	<node id="-154296" lat="61.1103111137" lon="9.09550832508">
		<tag k="name" v="Skattholt" />
		<tag k="place" v="farm" />
		<tag k="ssr:stedsnr" v="674162" />
	</node>
	<node id="-154295" lat="61.1097444451" lon="9.16145833613">
		<tag k="alt_name" v="Fiskeløyse" />
		<tag k="historic" v="shieling" />
		<tag k="name" v="Fiskeløyset" />
		<tag k="old_name" v="Fiskeløyse Sr" />
		<tag k="place" v="locality" />
		<tag k="ssr:stedsnr" v="674157" />
	</node>
	<node id="-154293" lat="61.1237944466" lon="9.07421388675">
		<tag k="name" v="Haugane" />
		<tag k="place" v="farm" />
		<tag k="ssr:stedsnr" v="674129" />
	</node>
	<node id="-154291" lat="61.1411833349" lon="9.06682778701">
		<tag k="name" v="Heggenes" />
		<tag k="place" v="farm" />
		<tag k="ssr:stedsnr" v="674087" />
	</node>
	<node id="-154288" lat="61.1601333352" lon="9.05058055722">
		<tag k="amenity" v="kindergarten" />
		<tag k="name" v="Heggebø" />
		<tag k="ssr:stedsnr" v="674066" />
	</node>
	<node id="-154287" lat="61.1697055596" lon="8.99547778155">
		<tag k="name" v="Bråten" />
		<tag k="place" v="isolated_dwelling" />
		<tag k="ssr:stedsnr" v="674049" />
	</node>
	<node id="-154286" lat="61.1739777802" lon="8.94616388648">
		<tag k="loc_name" v="Nørdre Melby" />
		<tag k="name" v="Melby" />
		<tag k="place" v="farm" />
		<tag k="ssr:stedsnr" v="674019" />
	</node>
	<node id="-154285" lat="61.1852416663" lon="8.96678611492">
		<tag k="name" v="Skolte" />
		<tag k="place" v="farm" />
		<tag k="ssr:stedsnr" v="674017" />
	</node>
	<node id="-154276" lat="61.0785444427" lon="9.10564443955">
		<tag k="name" v="Vesleøygarden" />
		<tag k="place" v="locality" />
		<tag k="ssr:stedsnr" v="661618" />
	</node>
	<node id="-154271" lat="61.0905083293" lon="9.08348611436">
		<tag k="name" v="Juvberg" />
		<tag k="place" v="isolated_dwelling" />
		<tag k="ssr:stedsnr" v="661294" />
	</node>
	<node id="-154270" lat="61.1209583311" lon="9.09574999127">
		<tag k="name" v="Skogvang" />
		<tag k="place" v="isolated_dwelling" />
		<tag k="ssr:stedsnr" v="661287" />
	</node>
	<node id="-154268" lat="61.1260583318" lon="9.07960833225">
		<tag k="name" v="Hagali" />
		<tag k="place" v="farm" />
		<tag k="ssr:stedsnr" v="661263" />
	</node>
	<node id="-154267" lat="61.06308056" lon="9.16451944265">
		<tag k="name" v="Bråten" />
		<tag k="place" v="farm" />
		<tag k="ssr:stedsnr" v="661226" />
	</node>
	<node id="-154266" lat="61.0706444466" lon="9.1629444425">
		<tag k="name" v="Haugen" />
		<tag k="place" v="farm" />
		<tag k="ssr:stedsnr" v="661224" />
	</node>
	<node id="-154254" lat="61.1475472206" lon="9.05753611689">
		<tag k="name" v="Hovdly" />
		<tag k="place" v="farm" />
		<tag k="ssr:stedsnr" v="661047" />
	</node>
	<node id="-154250" lat="61.1696694435" lon="8.96100833058">
		<tag k="name" v="Karlshaug" />
		<tag k="place" v="farm" />
		<tag k="ssr:stedsnr" v="660966" />
	</node>
	<node id="-154247" lat="61.2292750016" lon="8.95360000091">
		<tag k="name" v="Buahølmin" />
		<tag k="place" v="locality" />
		<tag k="ssr:stedsnr" v="660925" />
	</node>
	<node id="-154246" lat="61.2021861091" lon="8.97538056084">
		<tag k="amenity" v="school" />
		<tag k="name" v="Lidar skule" />
		<tag k="old_name" v="Midtre Hegge skule" />
		<tag k="ssr:stedsnr" v="660917" />
	</node>
	<node id="-154244" lat="61.2438999973" lon="8.87301111081">
		<tag k="name" v="Bekkelund" />
		<tag k="place" v="isolated_dwelling" />
		<tag k="ssr:stedsnr" v="660879" />
	</node>
	<node id="-154240" lat="61.2497388863" lon="8.81801666959">
		<tag k="name" v="Haug" />
		<tag k="place" v="isolated_dwelling" />
		<tag k="ssr:stedsnr" v="660796" />
	</node>
	<node id="-154238" lat="61.2445833372" lon="8.98281945191">
		<tag k="historic" v="shieling" />
		<tag k="name" v="Ersgardstølen" />
		<tag k="place" v="locality" />
		<tag k="ssr:stedsnr" v="660609" />
	</node>
	<node id="-154237" lat="61.0843416627" lon="9.12599166078">
		<tag k="name" v="Tunstad" />
		<tag k="place" v="farm" />
		<tag k="ssr:stedsnr" v="660544" />
	</node>
	<node id="-154236" lat="61.0940666706" lon="9.12492222983">
		<tag k="name" v="Skogheim" />
		<tag k="place" v="farm" />
		<tag k="ssr:stedsnr" v="660539" />
	</node>
	<node id="-154235" lat="61.1426750012" lon="9.07122777363">
		<tag k="name" v="Moaplassen" />
		<tag k="place" v="isolated_dwelling" />
		<tag k="ssr:stedsnr" v="660466" />
	</node>
	<node id="-154232" lat="61.1094777801" lon="9.10608334019">
		<tag k="name" v="Eriksrud" />
		<tag k="place" v="farm" />
		<tag k="ssr:stedsnr" v="660403" />
	</node>
	<node id="-154222" lat="61.1944027788" lon="8.95499999957">
		<tag k="loc_name" v="Nørdre Nøbben" />
		<tag k="name" v="Nøbben" />
		<tag k="place" v="farm" />
		<tag k="ssr:stedsnr" v="651166" />
	</node>
	<node id="-154221" lat="61.1309361114" lon="9.08865555906">
		<tag k="name" v="Fossheim" />
		<tag k="old_name" v="Fossvang" />
		<tag k="place" v="farm" />
		<tag k="ssr:stedsnr" v="650776" />
	</node>
	<node id="-154220" lat="61.2574083364" lon="8.79195833823">
		<tag k="alt_name" v="Nørdre Lykken" />
		<tag k="name" v="Lykkja" />
		<tag k="place" v="farm" />
		<tag k="ssr:stedsnr" v="649919" />
	</node>
	<node id="-154219" lat="61.2566333333" lon="8.80124444054">
		<tag k="name" v="Søre Lykken" />
		<tag k="place" v="farm" />
		<tag k="ssr:stedsnr" v="649891" />
	</node>
	<node id="-154218" lat="61.1511888876" lon="9.0483472189">
		<tag k="name" v="Haugen" />
		<tag k="place" v="farm" />
		<tag k="ssr:stedsnr" v="649209" />
	</node>
	<node id="-154217" lat="61.2490333329" lon="8.91914167238">
		<tag k="name" v="Hagastølen" />
		<tag k="place" v="neighbourhood" />
		<tag k="ssr:stedsnr" v="648072" />
	</node>
	<node id="-154216" lat="61.1902444415" lon="8.98063610406">
		<tag k="name" v="Røsshaugen" />
		<tag k="place" v="quarter" />
		<tag k="ssr:stedsnr" v="647056" />
	</node>
	<node id="-154206" lat="61.3423611072" lon="8.98388054765">
		<tag k="fixme" v="consider tourism=alpine_hut or tourism=chalet" />
		<tag k="name" v="Haugseter Fjellstue" />
		<tag k="ssr:stedsnr" v="614060" />
		<tag k="tourism" v="wilderness_hut" />
	</node>
	<node id="-154201" lat="61.2402777751" lon="9.42263887962">
		<tag k="name" v="Fjelldokka" />
		<tag k="old_name" v="Fjellkokka" />
		<tag k="place" v="isolated_dwelling" />
		<tag k="ssr:stedsnr" v="613990" />
	</node>
	<node id="-154200" lat="61.2354916636" lon="9.24505556062">
		<tag k="alt_name" v="Berset" />
		<tag k="historic" v="shieling" />
		<tag k="name" v="Bergset" />
		<tag k="place" v="locality" />
		<tag k="ssr:stedsnr" v="613986" />
	</node>
	<node id="-154198" lat="61.1988767016" lon="9.23768028687">
		<tag k="alt_name" v="Trollåsen, nordre;Nørdre Trøllåsen" />
		<tag k="historic" v="shieling" />
		<tag k="name" v="Nørdre Trollåsen" />
		<tag k="place" v="locality" />
		<tag k="ssr:stedsnr" v="613971" />
	</node>
	<node id="-154196" lat="61.1319083335" lon="9.39928055149">
		<tag k="historic" v="shieling" />
		<tag k="name" v="Tansberg" />
		<tag k="place" v="locality" />
		<tag k="ssr:stedsnr" v="613929" />
	</node>
	<node id="-154193" lat="61.2024083289" lon="8.98061110924">
		<tag k="alt_name" v="Liartunet" />
		<tag k="loc_name" v="Lijordet" />
		<tag k="name" v="Libekk" />
		<tag k="place" v="farm" />
		<tag k="ssr:stedsnr" v="613486" />
	</node>
	<node id="-154191" lat="61.2410805577" lon="8.87819999299">
		<tag k="name" v="Stølen" />
		<tag k="place" v="farm" />
		<tag k="ssr:stedsnr" v="613478" />
	</node>
	<node id="-154189" lat="61.2445305556" lon="9.15347499449">
		<tag k="historic" v="shieling" />
		<tag k="name" v="Jordestølen" />
		<tag k="place" v="locality" />
		<tag k="ssr:stedsnr" v="613475" />
	</node>
	<node id="-154187" lat="61.2343527809" lon="9.18031943619">
		<tag k="alt_name" v="Røbølsstølen" />
		<tag k="historic" v="shieling" />
		<tag k="name" v="Robølstølen" />
		<tag k="place" v="locality" />
		<tag k="ssr:stedsnr" v="613459" />
	</node>
	<node id="-154184" lat="61.0787055529" lon="9.098594439">
		<tag k="name" v="Smedsrud" />
		<tag k="place" v="farm" />
		<tag k="ssr:stedsnr" v="613233" />
	</node>
	<node id="-154182" lat="61.096352781" lon="9.11962499154">
		<tag k="alt_name" v="Vallstad" />
		<tag k="name" v="Valstad" />
		<tag k="place" v="farm" />
		<tag k="ssr:stedsnr" v="613186" />
	</node>
	<node id="-154181" lat="61.098097222" lon="9.14356666118">
		<tag k="alt_name" v="Kleivi" />
		<tag k="name" v="Kleiven" />
		<tag k="place" v="farm" />
		<tag k="ssr:stedsnr" v="613183" />
	</node>
	<node id="-154180" lat="61.1072083318" lon="9.06111111713">
		<tag k="name" v="Strandheim" />
		<tag k="place" v="isolated_dwelling" />
		<tag k="ssr:stedsnr" v="613176" />
	</node>
	<node id="-154179" lat="61.114794446" lon="9.04958055856">
		<tag k="name" v="Jonsrud" />
		<tag k="place" v="farm" />
		<tag k="ssr:stedsnr" v="613158" />
	</node>
	<node id="-154178" lat="61.1181333344" lon="9.04144444588">
		<tag k="alt_name" v="Herstad" />
		<tag k="name" v="Skatrud" />
		<tag k="place" v="farm" />
		<tag k="ssr:stedsnr" v="613130" />
	</node>
	<node id="-154177" lat="61.1222632368" lon="9.05302810655">
		<tag k="fixme" v="consider place=hamlet" />
		<tag k="name" v="Vindingstad" />
		<tag k="place" v="farm" />
		<tag k="ssr:stedsnr" v="613128" />
	</node>
	<node id="-154174" lat="61.1602333358" lon="9.08340555116">
		<tag k="name" v="Nyvoll" />
		<tag k="place" v="farm" />
		<tag k="ssr:stedsnr" v="613079" />
	</node>
	<node id="-154172" lat="61.1646916665" lon="9.05221666364">
		<tag k="fixme" v="multiple name tags, choose one and add the other to alt_name" />
		<tag k="loc_name" v="Kløpphøvd" />
		<tag k="name" v="Nytun;Klophovd" />
		<tag k="old_name" v="Klöphg" />
		<tag k="place" v="farm" />
		<tag k="ssr:stedsnr" v="613055" />
	</node>
	<node id="-154171" lat="61.1785000041" lon="8.97381945216">
		<tag k="name" v="Sagahaugen" />
		<tag k="place" v="farm" />
		<tag k="ssr:stedsnr" v="613039" />
	</node>
	<node id="-154170" lat="61.1708083348" lon="9.04613055741">
		<tag k="name" v="Enger" />
		<tag k="place" v="farm" />
		<tag k="ssr:stedsnr" v="613034" />
	</node>
	<node id="-154169" lat="61.1952805517" lon="8.97883056297">
		<tag k="alt_name" v="Jotun" />
		<tag k="name" v="Gjøta" />
		<tag k="place" v="farm" />
		<tag k="ssr:stedsnr" v="613009" />
	</node>
	<node id="-154168" lat="61.1971194471" lon="8.97224166971">
		<tag k="alt_name" v="Viki" />
		<tag k="name" v="Viken" />
		<tag k="place" v="farm" />
		<tag k="ssr:stedsnr" v="613007" />
	</node>
	<node id="-154167" lat="61.1912055545" lon="8.9928583342">
		<tag k="name" v="Kjøk" />
		<tag k="place" v="farm" />
		<tag k="ssr:stedsnr" v="613001" />
	</node>
	<node id="-154155" lat="61.0775805557" lon="9.07175277898">
		<tag k="historic" v="shieling" />
		<tag k="name" v="Dalastølen" />
		<tag k="place" v="locality" />
		<tag k="ssr:stedsnr" v="600868" />
	</node>
	<node id="-154154" lat="61.0770666689" lon="9.08802778178">
		<tag k="name" v="Asphaug" />
		<tag k="place" v="locality" />
		<tag k="ssr:stedsnr" v="600863" />
	</node>
	<node id="-154148" lat="61.2043111147" lon="9.09934723035">
		<tag k="historic" v="shieling" />
		<tag k="name" v="Nørdre Veslestølen" />
		<tag k="place" v="locality" />
		<tag k="ssr:stedsnr" v="600716" />
	</node>
	<node id="-154144" lat="61.2751083315" lon="8.9106305557">
		<tag k="historic" v="shieling" />
		<tag k="name" v="Liamarkstølen" />
		<tag k="place" v="locality" />
		<tag k="ssr:stedsnr" v="600531" />
	</node>
	<node id="-154141" lat="61.0657583343" lon="9.16390000456">
		<tag k="name" v="Kolstad" />
		<tag k="place" v="farm" />
		<tag k="ssr:stedsnr" v="600247" />
	</node>
	<node id="-154133" lat="61.1684861132" lon="9.10439444396">
		<tag k="name" v="Hagen" />
		<tag k="place" v="farm" />
		<tag k="ssr:stedsnr" v="600020" />
	</node>
	<node id="-154128" lat="61.0966777812" lon="9.15103056333">
		<tag k="name" v="Tiliplassen" />
		<tag k="place" v="isolated_dwelling" />
		<tag k="ssr:stedsnr" v="599941" />
	</node>
	<node id="-154125" lat="61.243502774" lon="8.84201388764">
		<tag k="name" v="Fjelltun" />
		<tag k="place" v="isolated_dwelling" />
		<tag k="ssr:stedsnr" v="599825" />
	</node>
	<node id="-154123" lat="61.2006527798" lon="8.98353610587">
		<tag k="name" v="Libekk" />
		<tag k="place" v="isolated_dwelling" />
		<tag k="ssr:stedsnr" v="599742" />
	</node>
	<node id="-154122" lat="61.1972777785" lon="9.01920000792">
		<tag k="name" v="Søre Vindejordet" />
		<tag k="place" v="isolated_dwelling" />
		<tag k="ssr:stedsnr" v="599743" />
	</node>
	<node id="-154121" lat="61.0682361112" lon="9.14599444691">
		<tag k="name" v="Hovi" />
		<tag k="place" v="farm" />
		<tag k="ssr:stedsnr" v="599557" />
	</node>
	<node id="-154120" lat="61.0642027793" lon="9.15169444437">
		<tag k="name" v="Nerby" />
		<tag k="place" v="farm" />
		<tag k="ssr:stedsnr" v="599548" />
	</node>
	<node id="-154119" lat="61.0602999991" lon="9.14321111286">
		<tag k="name" v="Føsseplassen" />
		<tag k="place" v="locality" />
		<tag k="ssr:stedsnr" v="599542" />
	</node>
	<node id="-154116" lat="61.1247583351" lon="9.09121389443">
		<tag k="name" v="Solbjør" />
		<tag k="place" v="isolated_dwelling" />
		<tag k="ssr:stedsnr" v="599446" />
	</node>
	<node id="-154111" lat="61.1595861136" lon="9.02654722869">
		<tag k="name" v="Jordet" />
		<tag k="place" v="farm" />
		<tag k="ssr:stedsnr" v="599150" />
	</node>
	<node id="-154110" lat="61.1599083365" lon="9.00940834205">
		<tag k="name" v="Heggvin" />
		<tag k="place" v="isolated_dwelling" />
		<tag k="ssr:stedsnr" v="599145" />
	</node>
	<node id="-154107" lat="61.1801388917" lon="8.99926666921">
		<tag k="name" v="Birkelund" />
		<tag k="place" v="isolated_dwelling" />
		<tag k="ssr:stedsnr" v="599134" />
	</node>
	<node id="-154106" lat="61.184766668" lon="9.00396666296">
		<tag k="name" v="Marklund" />
		<tag k="place" v="isolated_dwelling" />
		<tag k="ssr:stedsnr" v="599130" />
	</node>
	<node id="-154102" lat="61.0665666651" lon="9.17633332783">
		<tag k="loc_name" v="Øygarden" />
		<tag k="name" v="Ødegården" />
		<tag k="place" v="farm" />
		<tag k="ssr:stedsnr" v="592522" />
	</node>
	<node id="-154101" lat="61.160452782" lon="9.01209167595">
		<tag k="name" v="Nørdre Hegge" />
		<tag k="place" v="farm" />
		<tag k="ssr:stedsnr" v="590191" />
	</node>
	<node id="-154100" lat="61.122155555" lon="9.07157221327">
		<tag k="name" v="Haugane" />
		<tag k="place" v="farm" />
		<tag k="ssr:stedsnr" v="589792" />
	</node>
	<node id="-154099" lat="61.1475222254" lon="9.06497778093">
		<tag k="name" v="Gullbakke" />
		<tag k="place" v="farm" />
		<tag k="ssr:stedsnr" v="589249" />
	</node>
	<node id="-154097" lat="61.1487222203" lon="9.05178610813">
		<tag k="name" v="Engen" />
		<tag k="place" v="farm" />
		<tag k="ssr:stedsnr" v="589239" />
	</node>
	<node id="-154096" lat="61.1957583377" lon="8.98022777302">
		<tag k="alt_name" v="Fjeldheimen" />
		<tag k="name" v="Fjellheimen" />
		<tag k="place" v="isolated_dwelling" />
		<tag k="ssr:stedsnr" v="570925" />
	</node>
	<node id="-154095" lat="61.0545078692" lon="9.16829066369">
		<tag k="fixme" v="consider place=hamlet" />
		<tag k="name" v="Lineikro" />
		<tag k="place" v="farm" />
		<tag k="ssr:stedsnr" v="554845" />
	</node>
	<node id="-154094" lat="61.2603916697" lon="9.37073334041">
		<tag k="fixme" v="consider tourism=alpine_hut or tourism=chalet" />
		<tag k="name" v="Haldorbu" />
		<tag k="old_name" v="Halldorbu" />
		<tag k="ssr:stedsnr" v="554304" />
		<tag k="tourism" v="wilderness_hut" />
	</node>
	<node id="-154083" lat="61.0685805552" lon="9.10381667171">
		<tag k="alt_name" v="Listrud" />
		<tag k="name" v="Listerud" />
		<tag k="place" v="farm" />
		<tag k="ssr:stedsnr" v="553857" />
	</node>
	<node id="-154082" lat="61.214549999" lon="8.93776944244">
		<tag k="alt_name" v="Okshovd" />
		<tag k="loc_name" v="Vesle-Ukshovd" />
		<tag k="name" v="Vesle Okshovd" />
		<tag k="old_name" v="Okshovd lille" />
		<tag k="place" v="farm" />
		<tag k="ssr:stedsnr" v="553482" />
	</node>
	<node id="-154079" lat="61.2108166706" lon="9.17058055407">
		<tag k="historic" v="shieling" />
		<tag k="name" v="Selstølen" />
		<tag k="place" v="locality" />
		<tag k="ssr:stedsnr" v="553443" />
	</node>
	<node id="-154078" lat="61.0731500014" lon="9.1576277743">
		<tag k="name" v="Granheim" />
		<tag k="old_name" v="Sandbakken" />
		<tag k="place" v="farm" />
		<tag k="ssr:stedsnr" v="553229" />
	</node>
	<node id="-154077" lat="61.0792944459" lon="9.15702222347">
		<tag k="name" v="Frikstad" />
		<tag k="place" v="farm" />
		<tag k="ssr:stedsnr" v="553225" />
	</node>
	<node id="-154076" lat="61.2552896086" lon="8.80538501571">
		<tag k="alt_name" v="Søre Lykken" />
		<tag k="name" v="Lykkja" />
		<tag k="place" v="farm" />
		<tag k="ssr:stedsnr" v="553216" />
	</node>
	<node id="-154074" lat="61.2790194425" lon="8.81313889529">
		<tag k="historic" v="shieling" />
		<tag k="name" v="Nystølen" />
		<tag k="place" v="locality" />
		<tag k="ssr:stedsnr" v="553169" />
	</node>
	<node id="-154072" lat="61.276711115" lon="8.89910833233">
		<tag k="name" v="Liamarkstølen" />
		<tag k="place" v="isolated_dwelling" />
		<tag k="ssr:stedsnr" v="553082" />
	</node>
	<node id="-154071" lat="61.1576499956" lon="9.04383889434">
		<tag k="name" v="Framstad" />
		<tag k="place" v="farm" />
		<tag k="ssr:stedsnr" v="553062" />
	</node>
	<node id="-154064" lat="61.1745194436" lon="8.99547778013">
		<tag k="alt_name" v="Granerud" />
		<tag k="name" v="Granrud" />
		<tag k="place" v="farm" />
		<tag k="ssr:stedsnr" v="553025" />
	</node>
	<node id="-154063" lat="61.0658472204" lon="9.18379444631">
		<tag k="name" v="Trondsplassen" />
		<tag k="place" v="farm" />
		<tag k="ssr:stedsnr" v="552883" />
	</node>
	<node id="-154062" lat="61.0591638866" lon="9.18189722077">
		<tag k="alt_name" v="Høgdi" />
		<tag k="name" v="Høgden" />
		<tag k="place" v="farm" />
		<tag k="ssr:stedsnr" v="552856" />
	</node>
	<node id="-154061" lat="61.0589722192" lon="9.17791943545">
		<tag k="name" v="Brenna" />
		<tag k="place" v="farm" />
		<tag k="ssr:stedsnr" v="552854" />
	</node>
	<node id="-154060" lat="61.2460156009" lon="9.42298188968">
		<tag k="fixme" v="consider tourism=alpine_hut or tourism=chalet" />
		<tag k="name" v="Fjelldokkbue" />
		<tag k="ssr:stedsnr" v="552768" />
		<tag k="tourism" v="wilderness_hut" />
	</node>
	<node id="-154059" lat="61.2038138856" lon="9.10187777774">
		<tag k="historic" v="shieling" />
		<tag k="name" v="Veslestølen" />
		<tag k="place" v="locality" />
		<tag k="ssr:stedsnr" v="552543" />
	</node>
	<node id="-154058" lat="61.251197221" lon="9.05983055973">
		<tag k="historic" v="shieling" />
		<tag k="name" v="Brummastølen" />
		<tag k="old_name" v="Brummestøl" />
		<tag k="place" v="locality" />
		<tag k="ssr:stedsnr" v="552527" />
	</node>
	<node id="-154055" lat="61.0954277787" lon="9.15013334076">
		<tag k="name" v="Bergo" />
		<tag k="place" v="farm" />
		<tag k="ssr:stedsnr" v="552209" />
	</node>
	<node id="-154054" lat="61.0981666632" lon="9.07404722222">
		<tag k="name" v="Nordli" />
		<tag k="place" v="farm" />
		<tag k="ssr:stedsnr" v="552206" />
	</node>
	<node id="-154053" lat="61.0961500005" lon="9.07658055225">
		<tag k="name" v="Sørli" />
		<tag k="place" v="farm" />
		<tag k="ssr:stedsnr" v="552202" />
	</node>
	<node id="-154052" lat="61.1068444439" lon="9.10809444268">
		<tag k="name" v="Haugen" />
		<tag k="place" v="farm" />
		<tag k="ssr:stedsnr" v="552195" />
	</node>
	<node id="-154051" lat="61.1059638849" lon="9.11639166365">
		<tag k="name" v="Prestrud" />
		<tag k="place" v="farm" />
		<tag k="ssr:stedsnr" v="552185" />
	</node>
	<node id="-154048" lat="61.1437861143" lon="9.0693888972">
		<tag k="fixme" v="consider place=hamlet" />
		<tag k="name" v="Heggenes" />
		<tag k="place" v="village" />
		<tag k="ssr:stedsnr" v="552107" />
	</node>
	<node id="-154046" lat="61.1731499962" lon="8.95952776915">
		<tag k="name" v="Hagali" />
		<tag k="place" v="farm" />
		<tag k="ssr:stedsnr" v="552055" />
	</node>
	<node id="-154044" lat="61.180425003" lon="9.0808833328">
		<tag k="alt_name" v="Bekkeslette" />
		<tag k="name" v="Bakkeslette" />
		<tag k="place" v="isolated_dwelling" />
		<tag k="ssr:stedsnr" v="552026" />
	</node>
	<node id="-154032" lat="61.1199805516" lon="9.05645277464">
		<tag k="name" v="Gjæro" />
		<tag k="place" v="farm" />
		<tag k="ssr:stedsnr" v="540354" />
	</node>
	<node id="-154031" lat="61.1218583332" lon="9.03971945015">
		<tag k="name" v="Myrvang" />
		<tag k="place" v="farm" />
		<tag k="ssr:stedsnr" v="540352" />
	</node>
	<node id="-154030" lat="61.0693972261" lon="9.16319166856">
		<tag k="name" v="Kolstad" />
		<tag k="place" v="isolated_dwelling" />
		<tag k="ssr:stedsnr" v="540240" />
	</node>
	<node id="-154023" lat="61.1525583345" lon="9.19784165866">
		<tag k="historic" v="shieling" />
		<tag k="name" v="Øynestølen" />
		<tag k="place" v="locality" />
		<tag k="ssr:stedsnr" v="540193" />
	</node>
	<node id="-154020" lat="61.1479555559" lon="9.06526943535">
		<tag k="name" v="Dalen" />
		<tag k="place" v="farm" />
		<tag k="ssr:stedsnr" v="540064" />
	</node>
	<node id="-154013" lat="61.240791668" lon="8.83988888986">
		<tag k="name" v="Grønolen Fjellgard" />
		<tag k="ssr:stedsnr" v="539818" />
		<tag k="tourism" v="hotel" />
	</node>
	<node id="-154006" lat="61.0799472241" lon="9.12830000868">
		<tag k="name" v="Skogen" />
		<tag k="place" v="farm" />
		<tag k="ssr:stedsnr" v="539513" />
	</node>
	<node id="-154005" lat="61.0908999993" lon="9.12440278557">
		<tag k="name" v="Fredheim" />
		<tag k="place" v="isolated_dwelling" />
		<tag k="ssr:stedsnr" v="539503" />
	</node>
	<node id="-153999" lat="61.0580666641" lon="9.16998888668">
		<tag k="name" v="Skogbu" />
		<tag k="place" v="farm" />
		<tag k="ssr:stedsnr" v="539206" />
	</node>
	<node id="-153997" lat="61.1637250021" lon="9.04710277833">
		<tag k="name" v="Myrvoll" />
		<tag k="place" v="locality" />
		<tag k="ssr:stedsnr" v="539191" />
	</node>
	<node id="-153995" lat="61.1596333294" lon="9.01855833584">
		<tag k="name" v="Høgtun" />
		<tag k="place" v="isolated_dwelling" />
		<tag k="ssr:stedsnr" v="539130" />
	</node>
	<node id="-153992" lat="61.1193388894" lon="9.08856667525">
		<tag k="name" v="Voll" />
		<tag k="old_name" v="Vold" />
		<tag k="place" v="farm" />
		<tag k="ssr:stedsnr" v="529338" />
	</node>
	<node id="-153987" lat="61.2430250032" lon="8.85173056238">
		<tag k="name" v="Tørto" />
		<tag k="place" v="farm" />
		<tag k="ssr:stedsnr" v="528904" />
	</node>
	<node id="-153985" lat="61.1194583324" lon="9.06588611567">
		<tag k="name" v="Onstad" />
		<tag k="place" v="farm" />
		<tag k="ssr:stedsnr" v="528750" />
	</node>
	<node id="-153984" lat="61.1506138846" lon="9.04851944145">
		<tag k="name" v="Haugen" />
		<tag k="place" v="farm" />
		<tag k="ssr:stedsnr" v="528239" />
	</node>
	<node id="-153983" lat="61.167938893" lon="9.10077222732">
		<tag k="name" v="Robøle" />
		<tag k="place" v="farm" />
		<tag k="ssr:stedsnr" v="528226" />
	</node>
	<node id="-153976" lat="61.2874833295" lon="9.07494445225">
		<tag k="historic" v="shieling" />
		<tag k="name" v="Skreddalen" />
		<tag k="place" v="locality" />
		<tag k="ssr:stedsnr" v="493087" />
	</node>
	<node id="-153969" lat="61.1890027789" lon="9.26067499097">
		<tag k="historic" v="shieling" />
		<tag k="name" v="Synshaug" />
		<tag k="place" v="locality" />
		<tag k="ssr:stedsnr" v="492975" />
	</node>
	<node id="-153965" lat="61.0900583327" lon="9.31064444142">
		<tag k="historic" v="shieling" />
		<tag k="name" v="Juvike" />
		<tag k="place" v="locality" />
		<tag k="ssr:stedsnr" v="492909" />
	</node>
	<node id="-153964" lat="61.2149305558" lon="9.06259165873">
		<tag k="historic" v="shieling" />
		<tag k="name" v="Taraldstølen" />
		<tag k="place" v="locality" />
		<tag k="ssr:stedsnr" v="492454" />
	</node>
	<node id="-153961" lat="61.077472218" lon="9.14769721956">
		<tag k="name" v="Olstad" />
		<tag k="place" v="farm" />
		<tag k="ssr:stedsnr" v="492199" />
	</node>
	<node id="-153960" lat="61.0854249995" lon="9.08629444593">
		<tag k="alt_name" v="Lunde" />
		<tag k="name" v="Lunne" />
		<tag k="place" v="farm" />
		<tag k="ssr:stedsnr" v="492191" />
	</node>
	<node id="-153959" lat="61.081861112" lon="9.0906111191">
		<tag k="alt_name" v="Store Røe;Røe" />
		<tag k="name" v="Rudi" />
		<tag k="place" v="farm" />
		<tag k="ssr:stedsnr" v="492189" />
	</node>
	<node id="-153958" lat="61.0878194416" lon="9.0897666754">
		<tag k="name" v="Nereng" />
		<tag k="place" v="farm" />
		<tag k="ssr:stedsnr" v="492184" />
	</node>
	<node id="-153957" lat="61.0885000014" lon="9.06668611811">
		<tag k="historic" v="shieling" />
		<tag k="name" v="Haugastølen" />
		<tag k="place" v="locality" />
		<tag k="ssr:stedsnr" v="492181" />
	</node>
	<node id="-153956" lat="61.083425001" lon="9.12912222041">
		<tag k="name" v="Skogen" />
		<tag k="place" v="farm" />
		<tag k="ssr:stedsnr" v="492177" />
	</node>
	<node id="-153955" lat="61.1075250027" lon="9.09086388059">
		<tag k="alt_name" v="Strønd" />
		<tag k="name" v="Strond" />
		<tag k="place" v="farm" />
		<tag k="ssr:stedsnr" v="492138" />
	</node>
	<node id="-153954" lat="61.1001972179" lon="9.07117777855">
		<tag k="name" v="Vestheim" />
		<tag k="place" v="farm" />
		<tag k="ssr:stedsnr" v="492136" />
	</node>
	<node id="-153953" lat="61.1003777756" lon="9.13420834155">
		<tag k="name" v="Engli" />
		<tag k="place" v="farm" />
		<tag k="ssr:stedsnr" v="492131" />
	</node>
	<node id="-153952" lat="61.1121444464" lon="9.11524444087">
		<tag k="alt_name" v="Rolandsmarki" />
		<tag k="name" v="Rolandsmarken" />
		<tag k="place" v="farm" />
		<tag k="ssr:stedsnr" v="492126" />
	</node>
	<node id="-153951" lat="61.274399998" lon="8.95702500697">
		<tag k="name" v="Majahytta" />
		<tag k="place" v="isolated_dwelling" />
		<tag k="ssr:stedsnr" v="492067" />
	</node>
	<node id="-153950" lat="61.1486472251" lon="9.0903916623">
		<tag k="alt_name" v="Mørken" />
		<tag k="name" v="Morki" />
		<tag k="place" v="locality" />
		<tag k="ssr:stedsnr" v="492066" />
	</node>
	<node id="-153949" lat="61.156099997" lon="9.19185833424">
		<tag k="alt_name" v="Rennsennstølen" />
		<tag k="historic" v="shieling" />
		<tag k="name" v="Rennsenn" />
		<tag k="place" v="locality" />
		<tag k="ssr:stedsnr" v="492056" />
	</node>
	<node id="-153948" lat="61.1534472184" lon="9.06280555516">
		<tag k="name" v="Paulsrud" />
		<tag k="place" v="farm" />
		<tag k="ssr:stedsnr" v="492051" />
	</node>
	<node id="-153947" lat="61.1640416695" lon="9.08791110725">
		<tag k="name" v="Bråten" />
		<tag k="place" v="farm" />
		<tag k="ssr:stedsnr" v="492049" />
	</node>
	<node id="-153946" lat="61.1686694455" lon="9.14633610448">
		<tag k="historic" v="shieling" />
		<tag k="name" v="Rolistølen" />
		<tag k="place" v="locality" />
		<tag k="ssr:stedsnr" v="492047" />
	</node>
	<node id="-153945" lat="61.1670944464" lon="9.07762499411">
		<tag k="name" v="Lyngås" />
		<tag k="place" v="farm" />
		<tag k="ssr:stedsnr" v="492045" />
	</node>
	<node id="-153943" lat="61.1743638914" lon="8.99417222223">
		<tag k="name" v="Djupedal" />
		<tag k="place" v="farm" />
		<tag k="ssr:stedsnr" v="492028" />
	</node>
	<node id="-153942" lat="61.1803333309" lon="8.99772777251">
		<tag k="alt_name" v="Høgdi" />
		<tag k="name" v="Høgden" />
		<tag k="place" v="farm" />
		<tag k="ssr:stedsnr" v="492014" />
	</node>
	<node id="-153941" lat="61.1890047372" lon="9.00582162744">
		<tag k="fixme" v="consider place=hamlet" />
		<tag k="name" v="Sørbu" />
		<tag k="place" v="farm" />
		<tag k="ssr:stedsnr" v="492013" />
	</node>
	<node id="-153940" lat="61.1942132358" lon="8.95626766131">
		<tag k="alt_name" v="Nøbbi;Nøbben" />
		<tag k="name" v="Nobbi" />
		<tag k="place" v="locality" />
		<tag k="ssr:stedsnr" v="492005" />
	</node>
	<node id="-153933" lat="61.069149999" lon="9.16049721334">
		<tag k="alt_name" v="Kolstad" />
		<tag k="fixme" v="consider place=hamlet" />
		<tag k="name" v="Kollstad" />
		<tag k="place" v="village" />
		<tag k="ssr:stedsnr" v="470151" />
	</node>
	<node id="-153932" lat="61.1024226629" lon="9.11130643508">
		<tag k="fixme" v="consider place=hamlet" />
		<tag k="name" v="Nørdre Rogne" />
		<tag k="place" v="farm" />
		<tag k="ssr:stedsnr" v="469662" />
	</node>
	<node id="-153931" lat="61.1402888932" lon="9.07311388432">
		<tag k="alt_name" v="Haukhøvd" />
		<tag k="name" v="Haughøvd" />
		<tag k="place" v="farm" />
		<tag k="ssr:stedsnr" v="468778" />
	</node>
	<node id="-153929" lat="61.2347944431" lon="8.89224444476">
		<tag k="loc_name" v="Jonstølbergo" />
		<tag k="name" v="Jonstølbergene" />
		<tag k="place" v="farm" />
		<tag k="ssr:stedsnr" v="468011" />
	</node>
	<node id="-153928" lat="61.2767522382" lon="9.2333806332">
		<tag k="fixme" v="consider tourism=alpine_hut or tourism=chalet" />
		<tag k="name" v="Storeskag" />
		<tag k="ssr:stedsnr" v="451964" />
		<tag k="tourism" v="wilderness_hut" />
	</node>
	<node id="-153927" lat="61.2342805523" lon="8.93093333381">
		<tag k="amenity" v="nursing_home" />
		<tag k="name" v="Beitostølen Helsesportsenter" />
		<tag k="ssr:stedsnr" v="451249" />
	</node>
	<node id="-153919" lat="61.1932499958" lon="9.42229722022">
		<tag k="alt_name" v="Nyvøllen" />
		<tag k="name" v="Nyvollen" />
		<tag k="place" v="isolated_dwelling" />
		<tag k="ssr:stedsnr" v="432982" />
	</node>
	<node id="-153915" lat="61.1775138921" lon="9.40582778703">
		<tag k="historic" v="shieling" />
		<tag k="name" v="Purkeskinnfeten" />
		<tag k="place" v="locality" />
		<tag k="ssr:stedsnr" v="432963" />
	</node>
	<node id="-153911" lat="61.1059722225" lon="9.34276388528">
		<tag k="historic" v="shieling" />
		<tag k="name" v="Lie" />
		<tag k="place" v="locality" />
		<tag k="ssr:stedsnr" v="432914" />
	</node>
	<node id="-153908" lat="61.2123416684" lon="8.95618332968">
		<tag k="name" v="Nordheim" />
		<tag k="place" v="farm" />
		<tag k="ssr:stedsnr" v="432467" />
	</node>
	<node id="-153907" lat="61.1751222246" lon="9.41226667126">
		<tag k="historic" v="shieling" />
		<tag k="name" v="Fullsennlie" />
		<tag k="place" v="locality" />
		<tag k="ssr:stedsnr" v="432463" />
	</node>
	<node id="-153905" lat="61.2440944479" lon="8.87093332819">
		<tag k="name" v="Bergo" />
		<tag k="place" v="farm" />
		<tag k="ssr:stedsnr" v="432386" />
	</node>
	<node id="-153904" lat="61.0764166637" lon="9.14244166843">
		<tag k="alt_name" v="Bråten" />
		<tag k="name" v="Bokkemyrsbråten" />
		<tag k="place" v="farm" />
		<tag k="ssr:stedsnr" v="432227" />
	</node>
	<node id="-153903" lat="61.0835555559" lon="9.08607778436">
		<tag k="name" v="Myrheim" />
		<tag k="place" v="farm" />
		<tag k="ssr:stedsnr" v="432216" />
	</node>
	<node id="-153899" lat="61.1203583356" lon="9.10558611053">
		<tag k="name" v="Haugen" />
		<tag k="place" v="farm" />
		<tag k="ssr:stedsnr" v="432120" />
	</node>
	<node id="-153898" lat="61.117616669" lon="9.10969722491">
		<tag k="alt_name" v="Skattebumarki" />
		<tag k="name" v="Skattebumarken" />
		<tag k="place" v="farm" />
		<tag k="ssr:stedsnr" v="432119" />
	</node>
	<node id="-153895" lat="61.1300638872" lon="9.03562777594">
		<tag k="alt_name" v="Brøthøvd" />
		<tag k="name" v="Brothovd" />
		<tag k="place" v="farm" />
		<tag k="ssr:stedsnr" v="432102" />
	</node>
	<node id="-153893" lat="61.1591972179" lon="9.09261944449">
		<tag k="name" v="Robølshaugen" />
		<tag k="place" v="farm" />
		<tag k="ssr:stedsnr" v="432063" />
	</node>
	<node id="-153891" lat="61.1630416654" lon="9.05395833038">
		<tag k="alt_name" v="Selebråten" />
		<tag k="name" v="Sælidbråten" />
		<tag k="place" v="farm" />
		<tag k="ssr:stedsnr" v="432053" />
	</node>
	<node id="-153890" lat="61.1697388923" lon="9.07148333927">
		<tag k="alt_name" v="Bustebakk" />
		<tag k="name" v="Bustebakke" />
		<tag k="place" v="farm" />
		<tag k="ssr:stedsnr" v="432052" />
	</node>
	<node id="-153889" lat="61.1726333344" lon="8.99371388651">
		<tag k="name" v="Granheim" />
		<tag k="place" v="farm" />
		<tag k="ssr:stedsnr" v="432028" />
	</node>
	<node id="-153888" lat="61.1710249971" lon="8.96127499172">
		<tag k="name" v="Vollane" />
		<tag k="place" v="farm" />
		<tag k="ssr:stedsnr" v="432026" />
	</node>
	<node id="-153887" lat="61.1791138865" lon="8.99984167278">
		<tag k="alt_name" v="Rødningen" />
		<tag k="name" v="Dælerødningen" />
		<tag k="place" v="isolated_dwelling" />
		<tag k="ssr:stedsnr" v="432023" />
	</node>
	<node id="-153883" lat="61.0680568522" lon="9.16163924645">
		<tag k="alt_name" v="Kolstad" />
		<tag k="fixme" v="consider place=hamlet" />
		<tag k="name" v="Kollstad" />
		<tag k="place" v="farm" />
		<tag k="ssr:stedsnr" v="431877" />
	</node>
	<node id="-153882" lat="61.056269444" lon="9.21323888479">
		<tag k="fixme" v="multiple name tags, choose one and add the other to alt_name" />
		<tag k="historic" v="shieling" />
		<tag k="name" v="Liekrenstøl;Meisdalsstølen" />
		<tag k="place" v="locality" />
		<tag k="ssr:stedsnr" v="431851" />
	</node>
	<node id="-153879" lat="61.2265055599" lon="8.89988888181">
		<tag k="name" v="Hagen" />
		<tag k="place" v="isolated_dwelling" />
		<tag k="ssr:stedsnr" v="431503" />
	</node>
	<node id="-153878" lat="61.2369111147" lon="9.03598610758">
		<tag k="name" v="Kjøkstølen" />
		<tag k="place" v="isolated_dwelling" />
		<tag k="ssr:stedsnr" v="431494" />
	</node>
	<node id="-153877" lat="61.2310361145" lon="9.00342499945">
		<tag k="alt_name" v="Javnestølen" />
		<tag k="historic" v="shieling" />
		<tag k="name" v="Javnestølane" />
		<tag k="place" v="locality" />
		<tag k="ssr:stedsnr" v="431485" />
	</node>
	<node id="-153875" lat="61.2213661309" lon="8.90560106669">
		<tag k="alt_name" v="Søndre Lien;Søre Lien;Lii;Lien" />
		<tag k="loc_name" v="Lie" />
		<tag k="name" v="Søre Lii" />
		<tag k="place" v="farm" />
		<tag k="ssr:stedsnr" v="431467" />
	</node>
	<node id="-153874" lat="61.2223500013" lon="8.90297499549">
		<tag k="alt_name" v="Linnestad;Linnstad" />
		<tag k="name" v="Lindstad" />
		<tag k="place" v="farm" />
		<tag k="ssr:stedsnr" v="431465" />
	</node>
	<node id="-153873" lat="61.1014916703" lon="9.06769721509">
		<tag k="name" v="Åsheim" />
		<tag k="place" v="farm" />
		<tag k="ssr:stedsnr" v="431204" />
	</node>
	<node id="-153869" lat="61.1488611137" lon="9.07313055009">
		<tag k="name" v="Engli" />
		<tag k="place" v="farm" />
		<tag k="ssr:stedsnr" v="431097" />
	</node>
	<node id="-153853" lat="61.1137722234" lon="9.03788332948">
		<tag k="name" v="Sjåheim" />
		<tag k="place" v="locality" />
		<tag k="ssr:stedsnr" v="419356" />
	</node>
	<node id="-153852" lat="61.0826638847" lon="9.07286388156">
		<tag k="historic" v="shieling" />
		<tag k="name" v="Jøtunstølen" />
		<tag k="place" v="locality" />
		<tag k="ssr:stedsnr" v="419320" />
	</node>
	<node id="-153851" lat="61.12055833" lon="9.08804166068">
		<tag k="name" v="Åby" />
		<tag k="place" v="farm" />
		<tag k="ssr:stedsnr" v="419314" />
	</node>
	<node id="-153841" lat="61.1717333312" lon="8.92846944665">
		<tag k="name" v="Brøtaplassen" />
		<tag k="place" v="locality" />
		<tag k="ssr:stedsnr" v="418940" />
	</node>
	<node id="-153839" lat="61.1003555566" lon="9.13487500016">
		<tag k="name" v="Engli" />
		<tag k="place" v="farm" />
		<tag k="ssr:stedsnr" v="418926" />
	</node>
	<node id="-153836" lat="61.2405138854" lon="8.87621944889">
		<tag k="name" v="Gjerdingen" />
		<tag k="place" v="farm" />
		<tag k="ssr:stedsnr" v="418859" />
	</node>
	<node id="-153829" lat="61.0681472184" lon="9.15225277534">
		<tag k="name" v="Melby" />
		<tag k="place" v="farm" />
		<tag k="ssr:stedsnr" v="418530" />
	</node>
	<node id="-153822" lat="61.0917583315" lon="9.15921666481">
		<tag k="historic" v="shieling" />
		<tag k="name" v="Veltestølen" />
		<tag k="place" v="locality" />
		<tag k="ssr:stedsnr" v="418223" />
	</node>
	<node id="-153820" lat="61.1572333375" lon="9.02677777554">
		<tag k="name" v="Bakkene" />
		<tag k="place" v="farm" />
		<tag k="ssr:stedsnr" v="418162" />
	</node>
	<node id="-153819" lat="61.1584416658" lon="9.01816388863">
		<tag k="name" v="Heggetun" />
		<tag k="place" v="farm" />
		<tag k="ssr:stedsnr" v="418160" />
	</node>
	<node id="-153817" lat="61.173772219" lon="8.99399443629">
		<tag k="name" v="Skogli" />
		<tag k="place" v="isolated_dwelling" />
		<tag k="ssr:stedsnr" v="418146" />
	</node>
	<node id="-153815" lat="61.1670555594" lon="9.04133889573">
		<tag k="name" v="Haugtun" />
		<tag k="place" v="isolated_dwelling" />
		<tag k="ssr:stedsnr" v="418124" />
	</node>
	<node id="-153809" lat="61.2141944438" lon="8.94765556254">
		<tag k="name" v="Fredstad" />
		<tag k="place" v="farm" />
		<tag k="ssr:stedsnr" v="479832" />
	</node>
	<node id="-153805" lat="61.1997611149" lon="8.98269721338">
		<tag k="name" v="Sørli" />
		<tag k="place" v="farm" />
		<tag k="ssr:stedsnr" v="479674" />
	</node>
	<node id="-153799" lat="61.3037166634" lon="9.27721388754">
		<tag k="name" v="Buatindbue" />
		<tag k="place" v="isolated_dwelling" />
		<tag k="ssr:stedsnr" v="251494" />
	</node>
	<node id="-153797" lat="61.259297221" lon="8.948455563">
		<tag k="alt_name" v="Melbystølen" />
		<tag k="historic" v="shieling" />
		<tag k="name" v="Melbysstølen" />
		<tag k="place" v="locality" />
		<tag k="ssr:stedsnr" v="251113" />
	</node>
	<node id="-153791" lat="61.0721444463" lon="9.16724166173">
		<tag k="alt_name" v="Trandokki" />
		<tag k="name" v="Trandokken" />
		<tag k="place" v="farm" />
		<tag k="ssr:stedsnr" v="250850" />
	</node>
	<node id="-153789" lat="61.2074861073" lon="9.19168610558">
		<tag k="alt_name" v="Signestølen" />
		<tag k="historic" v="shieling" />
		<tag k="name" v="Sygnestølen" />
		<tag k="old_name" v="Signestøl" />
		<tag k="place" v="locality" />
		<tag k="ssr:stedsnr" v="250473" />
	</node>
	<node id="-153788" lat="61.2138805586" lon="9.17041111563">
		<tag k="alt_name" v="Selsstølen" />
		<tag k="historic" v="shieling" />
		<tag k="name" v="Selstølen" />
		<tag k="place" v="locality" />
		<tag k="ssr:stedsnr" v="250474" />
	</node>
	<node id="-153787" lat="61.2027361143" lon="8.93489167505">
		<tag k="name" v="Heggom" />
		<tag k="place" v="farm" />
		<tag k="ssr:stedsnr" v="250470" />
	</node>
	<node id="-153785" lat="61.248655555" lon="8.90621111722">
		<tag k="alt_name" v="Beitestøl" />
		<tag k="name" v="Beitostølen" />
		<tag k="place" v="village" />
		<tag k="ssr:stedsnr" v="250399" />
	</node>
	<node id="-153782" lat="61.0817888896" lon="9.13277778653">
		<tag k="alt_name" v="Hansegard" />
		<tag k="name" v="Hansegård" />
		<tag k="place" v="farm" />
		<tag k="ssr:stedsnr" v="250229" />
	</node>
	<node id="-153777" lat="61.122458337" lon="9.03632221633">
		<tag k="name" v="Bakken" />
		<tag k="place" v="farm" />
		<tag k="ssr:stedsnr" v="250139" />
	</node>
	<node id="-153774" lat="61.1518500013" lon="9.04559166227">
		<tag k="alt_name" v="Vårum" />
		<tag k="loc_name" v="Søre Vøle" />
		<tag k="name" v="Vøle" />
		<tag k="place" v="farm" />
		<tag k="ssr:stedsnr" v="250069" />
	</node>
	<node id="-153771" lat="61.332869446" lon="8.8578638859">
		<tag k="historic" v="shieling" />
		<tag k="name" v="Røynisstølen" />
		<tag k="old_name" v="Røynesstøl" />
		<tag k="place" v="locality" />
		<tag k="ssr:stedsnr" v="250047" />
	</node>
	<node id="-153769" lat="61.3502361102" lon="9.01949443623">
		<tag k="alt_name" v="Mørstadstøladn" />
		<tag k="historic" v="shieling" />
		<tag k="name" v="Mørstadstølen" />
		<tag k="place" v="locality" />
		<tag k="ssr:stedsnr" v="250039" />
	</node>
	<node id="-153766" lat="61.0620027801" lon="9.18449999805">
		<tag k="alt_name" v="Myri" />
		<tag k="name" v="Myren" />
		<tag k="place" v="farm" />
		<tag k="ssr:stedsnr" v="249828" />
	</node>
	<node id="-153762" lat="61.2006666693" lon="8.97882499505">
		<tag k="alt_name" v="Nedreli" />
		<tag k="name" v="Nedrelid" />
		<tag k="place" v="farm" />
		<tag k="ssr:stedsnr" v="249494" />
	</node>
	<node id="-153760" lat="61.2301388911" lon="9.20241944029">
		<tag k="historic" v="shieling" />
		<tag k="name" v="Framstadstølen" />
		<tag k="place" v="locality" />
		<tag k="ssr:stedsnr" v="249468" />
	</node>
	<node id="-153757" lat="61.1514750004" lon="9.07986667331">
		<tag k="alt_name" v="Åni" />
		<tag k="name" v="Ånrud" />
		<tag k="place" v="farm" />
		<tag k="ssr:stedsnr" v="249076" />
	</node>
	<node id="-153756" lat="61.1774111079" lon="8.93800832794">
		<tag k="name" v="Hagen" />
		<tag k="place" v="farm" />
		<tag k="ssr:stedsnr" v="249027" />
	</node>
	<node id="-153755" lat="61.1750666691" lon="8.94114722231">
		<tag k="name" v="Melum" />
		<tag k="place" v="farm" />
		<tag k="ssr:stedsnr" v="249023" />
	</node>
	<node id="-153754" lat="61.1891694452" lon="8.98653888446">
		<tag k="name" v="Rudi" />
		<tag k="place" v="farm" />
		<tag k="ssr:stedsnr" v="249019" />
	</node>
	<node id="-153753" lat="61.1895527812" lon="8.99517222195">
		<tag k="loc_name" v="Nedre Mørstad" />
		<tag k="name" v="Mørstad" />
		<tag k="place" v="farm" />
		<tag k="ssr:stedsnr" v="249011" />
	</node>
	<node id="-153744" lat="61.1691611081" lon="8.96683334151">
		<tag k="name" v="Bakke" />
		<tag k="place" v="farm" />
		<tag k="ssr:stedsnr" v="236979" />
	</node>
	<node id="-153738" lat="61.2130305537" lon="8.92469167378">
		<tag k="name" v="Lihovd" />
		<tag k="place" v="farm" />
		<tag k="ssr:stedsnr" v="236930" />
	</node>
	<node id="-153737" lat="61.2026503289" lon="8.9711261781">
		<tag k="fixme" v="consider place=hamlet" />
		<tag k="name" v="Ekerbakke" />
		<tag k="place" v="farm" />
		<tag k="ssr:stedsnr" v="236924" />
	</node>
	<node id="-153732" lat="61.2005666679" lon="8.98840833501">
		<tag k="historic" v="shieling" />
		<tag k="name" v="Dalheimstøl" />
		<tag k="place" v="locality" />
		<tag k="ssr:stedsnr" v="236712" />
	</node>
	<node id="-153725" lat="61.1115111154" lon="9.11703610695">
		<tag k="name" v="Fjellhaug" />
		<tag k="place" v="farm" />
		<tag k="ssr:stedsnr" v="236391" />
	</node>
	<node id="-153724" lat="61.1077972189" lon="9.11505833131">
		<tag k="name" v="Lauvrud" />
		<tag k="place" v="farm" />
		<tag k="ssr:stedsnr" v="236382" />
	</node>
	<node id="-153723" lat="61.1152222213" lon="9.09925833912">
		<tag k="name" v="Engstad" />
		<tag k="place" v="farm" />
		<tag k="ssr:stedsnr" v="236371" />
	</node>
	<node id="-153721" lat="61.1055805566" lon="9.09136388403">
		<tag k="name" v="Rauarsteinen" />
		<tag k="place" v="isolated_dwelling" />
		<tag k="ssr:stedsnr" v="236300" />
	</node>
	<node id="-153718" lat="61.0714333336" lon="9.15707221341">
		<tag k="name" v="Bakken" />
		<tag k="place" v="farm" />
		<tag k="ssr:stedsnr" v="236235" />
	</node>
	<node id="-153717" lat="61.0714333295" lon="9.16926110464">
		<tag k="name" v="Hagen" />
		<tag k="place" v="farm" />
		<tag k="ssr:stedsnr" v="236236" />
	</node>
	<node id="-153714" lat="61.1558055555" lon="9.04615834175">
		<tag k="name" v="Vårtun" />
		<tag k="place" v="farm" />
		<tag k="ssr:stedsnr" v="236231" />
	</node>
	<node id="-153709" lat="61.1550777787" lon="9.02521110462">
		<tag k="name" v="Bergtun" />
		<tag k="place" v="isolated_dwelling" />
		<tag k="ssr:stedsnr" v="236169" />
	</node>
	<node id="-153708" lat="61.1601583322" lon="9.01377778193">
		<tag k="name" v="Torgersegge" />
		<tag k="place" v="farm" />
		<tag k="ssr:stedsnr" v="236165" />
	</node>
	<node id="-153705" lat="61.1682916701" lon="8.9951166606">
		<tag k="name" v="Nordli" />
		<tag k="place" v="isolated_dwelling" />
		<tag k="ssr:stedsnr" v="236152" />
	</node>
	<node id="-153698" lat="61.1650222208" lon="9.08014444514">
		<tag k="name" v="Kulbråten" />
		<tag k="place" v="farm" />
		<tag k="ssr:stedsnr" v="236021" />
	</node>
	<node id="-153695" lat="61.1390194436" lon="9.07036944596">
		<tag k="name" v="Haugtun" />
		<tag k="place" v="isolated_dwelling" />
		<tag k="ssr:stedsnr" v="235494" />
	</node>
	<node id="-153691" lat="61.1672083296" lon="9.08972500697">
		<tag k="name" v="Trøa" />
		<tag k="place" v="isolated_dwelling" />
		<tag k="ssr:stedsnr" v="235146" />
	</node>
	<node id="-153690" lat="61.1036555556" lon="9.11383889597">
		<tag k="name" v="Nørdre Rogne" />
		<tag k="place" v="farm" />
		<tag k="ssr:stedsnr" v="226678" />
	</node>
	<node id="-153689" lat="61.1691758874" lon="8.96516093867">
		<tag k="loc_name" v="Øvre Dalen" />
		<tag k="name" v="Dalen" />
		<tag k="place" v="farm" />
		<tag k="ssr:stedsnr" v="226195" />
	</node>
	<node id="-153688" lat="61.1852138875" lon="8.97070834117">
		<tag k="loc_name" v="Skolteenga" />
		<tag k="name" v="Skoltenga" />
		<tag k="place" v="farm" />
		<tag k="ssr:stedsnr" v="226188" />
	</node>
	<node id="-153687" lat="61.1635888855" lon="9.10121944172">
		<tag k="name" v="Bråten" />
		<tag k="place" v="farm" />
		<tag k="ssr:stedsnr" v="225249" />
	</node>
	<node id="-153686" lat="61.2317583351" lon="8.88050277057">
		<tag k="building" v="industrial" />
		<tag k="name" v="Beito renseanlegg" />
		<tag k="ssr:stedsnr" v="223055" />
	</node>
	<node id="-153679" lat="61.3462188855" lon="9.00251115187">
		<tag k="historic" v="shieling" />
		<tag k="name" v="Liastølen" />
		<tag k="place" v="locality" />
		<tag k="ssr:stedsnr" v="190057" />
	</node>
	<node id="-153674" lat="61.1929916698" lon="9.40805278457">
		<tag k="alt_name" v="Kristensonlægret" />
		<tag k="historic" v="shieling" />
		<tag k="name" v="Kristensonlægeret" />
		<tag k="place" v="locality" />
		<tag k="ssr:stedsnr" v="189980" />
	</node>
	<node id="-153672" lat="61.2135496005" lon="9.43017762592">
		<tag k="fixme" v="multiple name tags, choose one and add the other to alt_name" />
		<tag k="historic" v="shieling" />
		<tag k="name" v="Flagstad;Flakstadlægeret" />
		<tag k="place" v="locality" />
		<tag k="ssr:stedsnr" v="189967" />
	</node>
	<node id="-153670" lat="61.1639666626" lon="9.38714167233">
		<tag k="alt_name" v="Rognfeten" />
		<tag k="historic" v="shieling" />
		<tag k="name" v="Rognsfeten" />
		<tag k="place" v="locality" />
		<tag k="ssr:stedsnr" v="189935" />
	</node>
	<node id="-153666" lat="61.0656055526" lon="9.17928610735">
		<tag k="name" v="Stølen" />
		<tag k="place" v="farm" />
		<tag k="ssr:stedsnr" v="189845" />
	</node>
	<node id="-153665" lat="61.0682638851" lon="9.17729722603">
		<tag k="name" v="Kveno" />
		<tag k="place" v="isolated_dwelling" />
		<tag k="ssr:stedsnr" v="189843" />
	</node>
	<node id="-153664" lat="61.0622861091" lon="9.17274166358">
		<tag k="name" v="Tvenge" />
		<tag k="place" v="farm" />
		<tag k="ssr:stedsnr" v="189805" />
	</node>
	<node id="-153662" lat="61.2094972235" lon="8.95950000223">
		<tag k="alt_name" v="Bakkane" />
		<tag k="name" v="Bakkene" />
		<tag k="place" v="farm" />
		<tag k="ssr:stedsnr" v="189453" />
	</node>
	<node id="-153661" lat="61.2444583369" lon="8.92791110511">
		<tag k="alt_name" v="Skalstølen" />
		<tag k="name" v="Skardstølen" />
		<tag k="place" v="isolated_dwelling" />
		<tag k="ssr:stedsnr" v="189386" />
	</node>
	<node id="-153660" lat="61.0740194441" lon="9.09225834146">
		<tag k="name" v="Øygarden" />
		<tag k="place" v="farm" />
		<tag k="ssr:stedsnr" v="189223" />
	</node>
	<node id="-153659" lat="61.0746611094" lon="9.13287500144">
		<tag k="alt_name" v="Hovihaugen" />
		<tag k="name" v="Haugen" />
		<tag k="place" v="farm" />
		<tag k="ssr:stedsnr" v="189214" />
	</node>
	<node id="-153658" lat="61.0767444446" lon="9.12177778256">
		<tag k="name" v="Bakken" />
		<tag k="place" v="farm" />
		<tag k="ssr:stedsnr" v="189212" />
	</node>
	<node id="-153657" lat="61.0774833331" lon="9.09941389544">
		<tag k="name" v="Dalen" />
		<tag k="place" v="farm" />
		<tag k="ssr:stedsnr" v="189211" />
	</node>
	<node id="-153656" lat="61.0846944401" lon="9.09690555679">
		<tag k="name" v="Bråten" />
		<tag k="place" v="farm" />
		<tag k="ssr:stedsnr" v="189209" />
	</node>
	<node id="-153655" lat="61.0878527784" lon="9.12251945175">
		<tag k="name" v="Hovrud" />
		<tag k="place" v="farm" />
		<tag k="ssr:stedsnr" v="189207" />
	</node>
	<node id="-153654" lat="61.0884388846" lon="9.0604944508">
		<tag k="alt_name" v="Rennaheimstølen" />
		<tag k="historic" v="shieling" />
		<tag k="name" v="Rennestølen" />
		<tag k="place" v="locality" />
		<tag k="ssr:stedsnr" v="189205" />
	</node>
	<node id="-153653" lat="61.28681111" lon="8.82327222571">
		<tag k="fixme" v="multiple name tags, choose one and add the other to alt_name" />
		<tag k="historic" v="shieling" />
		<tag k="name" v="Båtskardstølane;Lykkjestøladn" />
		<tag k="place" v="locality" />
		<tag k="ssr:stedsnr" v="189169" />
	</node>
	<node id="-153652" lat="61.0919777745" lon="9.08704999552">
		<tag k="alt_name" v="Viki" />
		<tag k="name" v="Viken" />
		<tag k="place" v="farm" />
		<tag k="ssr:stedsnr" v="189167" />
	</node>
	<node id="-153651" lat="61.1193666695" lon="9.11190833852">
		<tag k="name" v="Fjellstad" />
		<tag k="place" v="farm" />
		<tag k="ssr:stedsnr" v="189113" />
	</node>
	<node id="-153650" lat="61.2852388932" lon="9.12480833146">
		<tag k="name" v="Svarthamar" />
		<tag k="place" v="isolated_dwelling" />
		<tag k="ssr:stedsnr" v="189085" />
	</node>
	<node id="-153647" lat="61.1560524182" lon="9.02768017026">
		<tag k="alt_name" v="Alfstad" />
		<tag k="fixme" v="consider place=hamlet" />
		<tag k="name" v="Alvstad" />
		<tag k="place" v="farm" />
		<tag k="ssr:stedsnr" v="189058" />
	</node>
	<node id="-153646" lat="61.1648611069" lon="8.99986111033">
		<tag k="alt_name" v="Skøren" />
		<tag k="name" v="Skori" />
		<tag k="place" v="farm" />
		<tag k="ssr:stedsnr" v="189050" />
	</node>
	<node id="-153645" lat="61.427218" lon="8.8558976139">
		<tag k="alt_name" v="Sandbakken" />
		<tag k="fixme" v="consider tourism=alpine_hut or tourism=chalet" />
		<tag k="name" v="Sandbakkbue" />
		<tag k="ssr:stedsnr" v="189006" />
		<tag k="tourism" v="wilderness_hut" />
	</node>
	<node id="-153644" lat="61.2000555511" lon="8.98074166409">
		<tag k="name" v="Liborg" />
		<tag k="place" v="farm" />
		<tag k="ssr:stedsnr" v="188534" />
	</node>
	<node id="-153642" lat="61.2307090925" lon="9.09148121875">
		<tag k="alt_name" v="Kjølastølen, heimre" />
		<tag k="historic" v="shieling" />
		<tag k="name" v="Heimre Kjølastølen" />
		<tag k="place" v="locality" />
		<tag k="ssr:stedsnr" v="188504" />
	</node>
	<node id="-153641" lat="61.136827776" lon="9.15952499705">
		<tag k="name" v="Jødnmannsstølen" />
		<tag k="place" v="isolated_dwelling" />
		<tag k="ssr:stedsnr" v="188119" />
	</node>
	<node id="-153638" lat="61.3443722209" lon="8.99971943567">
		<tag k="historic" v="shieling" />
		<tag k="name" v="Perslettstølen" />
		<tag k="place" v="locality" />
		<tag k="ssr:stedsnr" v="179681" />
	</node>
	<node id="-153630" lat="61.0774805593" lon="9.12998334143">
		<tag k="name" v="Breistad" />
		<tag k="place" v="farm" />
		<tag k="ssr:stedsnr" v="176632" />
	</node>
	<node id="-153627" lat="61.1805055569" lon="9.25063889264">
		<tag k="name" v="Synhauglie hyttegrend" />
		<tag k="place" v="neighbourhood" />
		<tag k="ssr:stedsnr" v="176438" />
	</node>
	<node id="-153623" lat="61.0819000017" lon="9.07329166252">
		<tag k="historic" v="shieling" />
		<tag k="name" v="Bjørnstadstølen" />
		<tag k="place" v="locality" />
		<tag k="ssr:stedsnr" v="176288" />
	</node>
	<node id="-153621" lat="61.1092111128" lon="9.05817221938">
		<tag k="name" v="Eng" />
		<tag k="place" v="isolated_dwelling" />
		<tag k="ssr:stedsnr" v="176278" />
	</node>
	<node id="-153620" lat="61.1226222193" lon="9.06862500824">
		<tag k="name" v="Jordet" />
		<tag k="place" v="farm" />
		<tag k="ssr:stedsnr" v="176276" />
	</node>
	<node id="-153619" lat="61.1651027759" lon="9.1754750087">
		<tag k="name" v="Øystre Slidre Prestegårdsskog" />
		<tag k="place" v="locality" />
		<tag k="ssr:stedsnr" v="176203" />
	</node>
	<node id="-153617" lat="61.1604250007" lon="9.06804444085">
		<tag k="name" v="Bryne" />
		<tag k="place" v="locality" />
		<tag k="ssr:stedsnr" v="176022" />
	</node>
	<node id="-153614" lat="61.3428722254" lon="8.98282222857">
		<tag k="historic" v="shieling" />
		<tag k="name" v="Haugastølen" />
		<tag k="place" v="locality" />
		<tag k="ssr:stedsnr" v="175938" />
	</node>
	<node id="-153606" lat="61.0711055572" lon="9.15443611297">
		<tag k="name" v="Olberg" />
		<tag k="place" v="farm" />
		<tag k="ssr:stedsnr" v="175545" />
	</node>
	<node id="-153605" lat="61.0842083329" lon="9.12079999516">
		<tag k="name" v="Lundstein" />
		<tag k="place" v="farm" />
		<tag k="ssr:stedsnr" v="175532" />
	</node>
	<node id="-153603" lat="61.0973027764" lon="9.12047221329">
		<tag k="name" v="Tunheim" />
		<tag k="place" v="farm" />
		<tag k="ssr:stedsnr" v="175523" />
	</node>
</osm>
