<?xml version="1.0" encoding="UTF-8"?>
<osm generator="osmapis" version="0.6">
	<node id="-691808" lat="68.1519585611" lon="16.1117447851">
		<tag k="name" v="Nevervikveien" />
		<tag k="ssr:date" v="2019-12-05" />
		<tag k="ssr:gruppe" v="veg" />
		<tag k="ssr:hovedgruppe" v="infrastruktur" />
		<tag k="ssr:stedsnr" v="1073724" />
		<tag k="ssr:type" v="adressenavn" />
	</node>
	<node id="-691807" lat="68.0445737835" lon="16.0775292945">
		<tag k="name" v="Hamnhågen" />
		<tag k="name:no" v="Hamnhågen" />
		<tag k="ssr:date" v="2019-12-05" />
		<tag k="ssr:gruppe" v="veg" />
		<tag k="ssr:hovedgruppe" v="infrastruktur" />
		<tag k="ssr:stedsnr" v="1073723" />
		<tag k="ssr:type" v="adressenavn" />
	</node>
	<node id="-693054" lat="68.0977138882" lon="16.375899998">
		<tag k="fixme" v="multiple name tags, choose one and add the other to alt_name" />
		<tag k="name" v="Divtasvuodna;Divtasvuona suohkan - Tysfjord kommune" />
		<tag k="name:no" v="Tysfjord kommune" />
		<tag k="name:smj" v="Divtasvuodna;Divtasvuona suohkan" />
		<tag k="ssr:date" v="2016-05-11" />
		<tag k="ssr:gruppe" v="administrativeIndelinger" />
		<tag k="ssr:hovedgruppe" v="offentligAdministrasjon" />
		<tag k="ssr:stedsnr" v="753748" />
		<tag k="ssr:type" v="kommune" />
	</node>
	<node id="-692602" lat="68.2277416702" lon="16.0742944367">
		<tag k="name" v="Bognes" />
		<tag k="name:no" v="Bognes" />
		<tag k="ssr:date" v="2016-05-10" />
		<tag k="ssr:gruppe" v="navigasjon" />
		<tag k="ssr:hovedgruppe" v="infrastruktur" />
		<tag k="ssr:stedsnr" v="528426" />
		<tag k="ssr:type" v="fyrlykt" />
	</node>
	<node id="-693396" lat="68.4849327361" lon="16.2297866207">
		<tag k="fixme" v="multiple name tags, choose one and add the other to alt_name" />
		<tag k="name" v="Nord-Noreg;Nord-Norge" />
		<tag k="ssr:date" v="2017-05-18" />
		<tag k="ssr:gruppe" v="administrativeIndelinger" />
		<tag k="ssr:hovedgruppe" v="offentligAdministrasjon" />
		<tag k="ssr:stedsnr" v="976106" />
		<tag k="ssr:type" v="annenAdministrativInndeling" />
	</node>
	<node id="-692878" lat="68.1451500011" lon="16.2264610994">
		<tag k="name" v="Hundholmen" />
		<tag k="name:no" v="Hundholmen" />
		<tag k="ssr:date" v="2016-05-11" />
		<tag k="ssr:gruppe" v="navigasjon" />
		<tag k="ssr:hovedgruppe" v="infrastruktur" />
		<tag k="ssr:stedsnr" v="684599" />
		<tag k="ssr:type" v="fyrlykt" />
	</node>
	<node id="-692973" lat="68.048116669" lon="16.083730567">
		<tag k="name" v="Drag" />
		<tag k="name:no" v="Drag" />
		<tag k="ssr:date" v="2016-05-11" />
		<tag k="ssr:gruppe" v="navigasjon" />
		<tag k="ssr:hovedgruppe" v="infrastruktur" />
		<tag k="ssr:stedsnr" v="745560" />
		<tag k="ssr:type" v="fyrlykt" />
	</node>
	<node id="-693093" lat="68.2538694449" lon="16.0653250099">
		<tag k="name" v="Korsnes" />
		<tag k="name:no" v="Korsnes" />
		<tag k="ssr:date" v="2016-05-11" />
		<tag k="ssr:gruppe" v="navigasjon" />
		<tag k="ssr:hovedgruppe" v="infrastruktur" />
		<tag k="ssr:stedsnr" v="806394" />
		<tag k="ssr:type" v="fyrlykt" />
	</node>
</osm>
