<?xml version="1.0" encoding="UTF-8"?>
<osm version="0.6" generator="osmapis">
	<node id="4502545863" lat="69.5428433" lon="20.5300382" version="3" timestamp="2020-12-11T14:32:22Z" changeset="95686942" uid="420980" user="NorNorth" />
	<node id="4502545864" lat="69.5429554" lon="20.5283175" version="3" timestamp="2020-12-11T14:32:22Z" changeset="95686942" uid="420980" user="NorNorth" />
	<node id="4502545866" lat="69.5429762" lon="20.5278722" version="4" timestamp="2020-12-11T14:32:22Z" changeset="95686942" uid="420980" user="NorNorth" />
	<node id="4502545867" lat="69.5429315" lon="20.5287494" version="3" timestamp="2020-12-11T14:32:22Z" changeset="95686942" uid="420980" user="NorNorth" />
	<node id="4502545868" lat="69.5428023" lon="20.5305356" version="3" timestamp="2020-12-11T14:32:22Z" changeset="95686942" uid="420980" user="NorNorth" />
	<node id="4502545871" lat="69.5428883" lon="20.5294253" version="3" timestamp="2020-12-11T14:32:22Z" changeset="95686942" uid="420980" user="NorNorth" />
	<way id="453532320" version="8" timestamp="2022-01-21T07:16:18Z" changeset="116415148" uid="3497659" user="NKA">
		<tag k="bridge" v="yes" />
		<tag k="bridge:structure" v="beam" />
		<tag k="highway" v="trunk" />
		<tag k="layer" v="1" />
		<tag k="maxspeed" v="70" />
		<tag k="name" v="Olmm치iv치kkirovvi - Manndalsbrua - Olmavankansilta" />
		<tag k="name:fkv" v="Olmavankansilta" />
		<tag k="name:no" v="Manndalsbrua" />
		<tag k="name:se" v="Olmm치iv치kkirovvi" />
		<tag k="ref" v="E 6" />
		<tag k="ssr:stedsnr" v="983612" />
		<tag k="start_date" v="2018-11-10" />
		<tag k="surface" v="paved" />
		<nd ref="4502545866" />
		<nd ref="4502545864" />
		<nd ref="4502545867" />
		<nd ref="4502545871" />
		<nd ref="4502545863" />
		<nd ref="4502545868" />
	</way>
</osm>
