<?xml version="1.0" encoding="UTF-8"?>
<osm generator="osmapis" version="0.6">
	<node changeset="58620907" id="2353325856" lat="70.329397" lon="25.075992" timestamp="2018-05-02T17:03:49Z" uid="3497659" user="NKA" version="2">
		<tag k="name" v="Tverrnes" />
		<tag k="name:no" v="Tverrnes" />
		<tag k="natural" v="cape" />
		<tag k="source" v="Kartverket" />
		<tag k="ssr:stedsnr" v="203723" />
	</node>
	<node changeset="61433683" id="5814778342" lat="69.3158958" lon="22.9573032" timestamp="2018-08-07T12:30:19Z" uid="3497659" user="NKA" version="1" />
	<node changeset="61433683" id="5814778343" lat="69.7223925" lon="23.8265936" timestamp="2018-08-07T12:30:19Z" uid="3497659" user="NKA" version="1" />
	<node changeset="61433683" id="5814778344" lat="69.7628088" lon="25.8933966" timestamp="2018-08-07T12:30:19Z" uid="3497659" user="NKA" version="1" />
	<node changeset="61433683" id="5814778348" lat="69.0558056" lon="22.0742743" timestamp="2018-08-07T12:30:20Z" uid="3497659" user="NKA" version="1" />
	<node changeset="61433683" id="5814778346" lat="68.6865261" lon="24.8840277" timestamp="2018-08-07T12:30:20Z" uid="3497659" user="NKA" version="1" />
	<node changeset="61433683" id="5814778347" lat="68.7662476" lon="22.549433" timestamp="2018-08-07T12:30:20Z" uid="3497659" user="NKA" version="1" />
	<node changeset="60087709" id="2350072652" lat="70.3064866" lon="25.0594623" timestamp="2018-06-22T21:01:15Z" uid="994025" user="lemos" version="5">
		<tag k="name" v="Skoger" />
		<tag k="name:no" v="Skoger" />
		<tag k="name:ru" v="Скогер" />
		<tag k="place" v="farm" />
		<tag k="source" v="Kartverket" />
		<tag k="ssr:stedsnr" v="384552" />
	</node>
	<node changeset="58620907" id="2353325397" lat="70.2647706" lon="25.0265178" timestamp="2018-05-02T17:03:48Z" uid="3497659" user="NKA" version="4">
		<tag k="name" v="Kuoratakka" />
		<tag k="name:fi" v="Kuoratakka" />
		<tag k="name:no" v="Gåradak" />
		<tag k="name:se" v="Goarahat" />
		<tag k="place" v="farm" />
		<tag k="source" v="Kartverket (but added :fi and :se names)" />
		<tag k="ssr:stedsnr" v="930441" />
	</node>
	<node changeset="61433683" id="5814778345" lat="69.0155153" lon="25.5487006" timestamp="2018-08-07T12:30:20Z" uid="3497659" user="NKA" version="1" />
	<way changeset="61433683" id="614791809" timestamp="2018-08-07T12:30:20Z" uid="3497659" user="NKA" version="1">
		<tag k="name" v="Finnmarksvidda" />
		<tag k="natural" v="mountain_range" />
		<tag k="note" v="Please refine boundary based on local knowledge" />
		<tag k="ssr:stedsnr" v="754051" />
		<tag k="ssr:type" v="fjellområde" />
		<nd ref="5814778348" />
		<nd ref="5814778347" />
		<nd ref="5814778346" />
		<nd ref="5814778345" />
		<nd ref="5814778344" />
		<nd ref="5814778343" />
		<nd ref="5814778342" />
		<nd ref="5814778348" />
	</way>
</osm>
