<?xml version="1.0" encoding="UTF-8"?>
<osm generator="osmapis" version="0.6">
	<node id="-134144" lat="60.2405545715" lon="10.4005245713">
		<tag k="fixme" v="consider place=hamlet" />
		<tag k="name" v="Torbjørnrud" />
		<tag k="place" v="farm" />
		<tag k="ssr:stedsnr" v="987964" />
	</node>
	<node id="-134143" lat="60.2793217837" lon="10.4331660772">
		<tag k="name" v="Skjennum" />
		<tag k="place" v="hamlet" />
		<tag k="ssr:stedsnr" v="987963" />
	</node>
	<node id="-134142" lat="60.2939199892" lon="10.4597834068">
		<tag k="fixme" v="consider place=hamlet" />
		<tag k="name" v="Hvaterud" />
		<tag k="place" v="farm" />
		<tag k="ssr:stedsnr" v="987962" />
	</node>
	<node id="-134653" lat="60.3847166684" lon="10.2359138964">
		<tag k="alt_name" v="Buvatnseter" />
		<tag k="historic" v="shieling" />
		<tag k="name" v="Buvatnsætra" />
		<tag k="place" v="locality" />
		<tag k="ssr:stedsnr" v="734563" />
	</node>
	<node id="-134140" lat="60.2916948279" lon="10.4200006544">
		<tag k="name" v="Nordengen" />
		<tag k="place" v="farm" />
		<tag k="ssr:stedsnr" v="987364" />
	</node>
	<node id="-134139" lat="60.3046152508" lon="10.4135628764">
		<tag k="name" v="Engeli" />
		<tag k="place" v="farm" />
		<tag k="ssr:stedsnr" v="987363" />
	</node>
	<node id="-134138" lat="60.3048744321" lon="10.4154458273">
		<tag k="name" v="Sognebu" />
		<tag k="place" v="farm" />
		<tag k="ssr:stedsnr" v="987362" />
	</node>
	<node id="-134137" lat="60.3043170863" lon="10.4177344619">
		<tag k="name" v="Sogn" />
		<tag k="place" v="farm" />
		<tag k="ssr:stedsnr" v="987361" />
	</node>
	<node id="-134648" lat="60.2238444405" lon="10.3870250069">
		<tag k="name" v="Kleggerud" />
		<tag k="place" v="farm" />
		<tag k="ssr:stedsnr" v="733440" />
	</node>
	<node id="-134135" lat="60.3047273142" lon="10.4215744755">
		<tag k="name" v="Sogn" />
		<tag k="place" v="farm" />
		<tag k="ssr:stedsnr" v="987355" />
	</node>
	<node id="-134134" lat="60.3015807967" lon="10.4416056293">
		<tag k="name" v="Eng" />
		<tag k="place" v="farm" />
		<tag k="ssr:stedsnr" v="987352" />
	</node>
	<node id="-134645" lat="60.2397916636" lon="10.387086119">
		<tag k="name" v="Jevnaker" />
		<tag k="place" v="village" />
		<tag k="ssr:stedsnr" v="733380" />
	</node>
	<node id="-134644" lat="60.244295404" lon="10.4336908129">
		<tag k="fixme" v="consider place=hamlet" />
		<tag k="name" v="Rønnerud" />
		<tag k="place" v="farm" />
		<tag k="ssr:stedsnr" v="733356" />
	</node>
	<node id="-134130" lat="60.3060651038" lon="10.4568608408">
		<tag k="name" v="Brenna" />
		<tag k="place" v="farm" />
		<tag k="ssr:stedsnr" v="987347" />
	</node>
	<node id="-134129" lat="60.305784655" lon="10.4410729278">
		<tag k="name" v="Granly" />
		<tag k="place" v="farm" />
		<tag k="ssr:stedsnr" v="987346" />
	</node>
	<node id="-134640" lat="60.2413694432" lon="10.4010972135">
		<tag k="name" v="Thorbjørnrud Hotell" />
		<tag k="old_name" v="Torbjørnrud hotell" />
		<tag k="ssr:stedsnr" v="725072" />
		<tag k="tourism" v="hotel" />
	</node>
	<node id="-134639" lat="60.269744444" lon="10.4857416584">
		<tag k="alt_name" v="Midtre Olimb" />
		<tag k="loc_name" v="Austgarden" />
		<tag k="name" v="Midtre Olum" />
		<tag k="old_name" v="Olum mellem" />
		<tag k="place" v="farm" />
		<tag k="ssr:stedsnr" v="722933" />
	</node>
	<node id="-134141" lat="60.3390006952" lon="10.3493787718">
		<tag k="fixme" v="consider place=hamlet" />
		<tag k="name" v="Halvorsbøle" />
		<tag k="place" v="farm" />
		<tag k="ssr:stedsnr" v="987865" />
	</node>
	<node id="-134124" lat="60.2737111133" lon="10.4501222272">
		<tag k="name" v="Kårstadstua" />
		<tag k="place" v="isolated_dwelling" />
		<tag k="ssr:stedsnr" v="889005" />
	</node>
	<node id="-134226" lat="60.2668083369" lon="10.4823555481">
		<tag k="alt_name" v="Olum vestre;Olum vestre og mellom;Vestre Olimb" />
		<tag k="loc_name" v="Vestgarden" />
		<tag k="name" v="Vestre Olum" />
		<tag k="old_name" v="Olum vestre og mellem" />
		<tag k="place" v="farm" />
		<tag k="ssr:stedsnr" v="55924" />
	</node>
	<node id="-134122" lat="60.2524694456" lon="10.3095888972">
		<tag k="name" v="Buttenheim" />
		<tag k="place" v="isolated_dwelling" />
		<tag k="ssr:stedsnr" v="884251" />
	</node>
	<node id="-134121" lat="60.2914138895" lon="10.2870944459">
		<tag k="name" v="Valhall" />
		<tag k="place" v="isolated_dwelling" />
		<tag k="ssr:stedsnr" v="884245" />
	</node>
	<node id="-134737" lat="60.2860361124" lon="10.3527777762">
		<tag k="alt_name" v="Nordåsen;Åsen, nordre" />
		<tag k="name" v="Nordre Åsen" />
		<tag k="place" v="farm" />
		<tag k="ssr:stedsnr" v="856876" />
	</node>
	<node id="-134628" lat="60.2902944437" lon="10.407927778">
		<tag k="name" v="Roen" />
		<tag k="place" v="farm" />
		<tag k="ssr:stedsnr" v="701489" />
	</node>
	<node id="-134627" lat="60.273350001" lon="10.3104833284">
		<tag k="name" v="Nyseter" />
		<tag k="place" v="locality" />
		<tag k="ssr:stedsnr" v="701342" />
	</node>
	<node id="-134625" lat="60.3086027764" lon="10.3931805579">
		<tag k="name" v="Grønndal" />
		<tag k="place" v="farm" />
		<tag k="ssr:stedsnr" v="697662" />
	</node>
	<node id="-134624" lat="60.3119664525" lon="10.3438783889">
		<tag k="fixme" v="consider place=hamlet" />
		<tag k="name" v="Myre" />
		<tag k="place" v="farm" />
		<tag k="ssr:stedsnr" v="674898" />
	</node>
	<node id="-134623" lat="60.2918213832" lon="10.4240652594">
		<tag k="alt_name" v="Nordenga;Nordengen" />
		<tag k="name" v="Kjellsrud" />
		<tag k="place" v="isolated_dwelling" />
		<tag k="ssr:stedsnr" v="674857" />
	</node>
	<node id="-134622" lat="60.2789272884" lon="10.4507888151">
		<tag k="fixme" v="consider place=hamlet" />
		<tag k="name" v="Enger" />
		<tag k="place" v="farm" />
		<tag k="ssr:stedsnr" v="674837" />
	</node>
	<node id="-134109" lat="60.2392972257" lon="10.3543555596">
		<tag k="name" v="Merredokka" />
		<tag k="place" v="locality" />
		<tag k="ssr:stedsnr" v="476764" />
	</node>
	<node id="-134620" lat="60.2810194475" lon="10.4898694521">
		<tag k="alt_name" v="Løvås" />
		<tag k="name" v="Lauvås" />
		<tag k="place" v="farm" />
		<tag k="ssr:stedsnr" v="674832" />
	</node>
	<node id="-134107" lat="60.2395277822" lon="10.3492861092">
		<tag k="name" v="Mikkelshytta" />
		<tag k="place" v="isolated_dwelling" />
		<tag k="ssr:stedsnr" v="476698" />
	</node>
	<node id="-134618" lat="60.282239943" lon="10.4959427304">
		<tag k="alt_name" v="Feldberg;Felberg" />
		<tag k="fixme" v="consider place=hamlet" />
		<tag k="name" v="Fellberg" />
		<tag k="place" v="farm" />
		<tag k="ssr:stedsnr" v="674811" />
	</node>
	<node id="-134151" lat="60.3058517082" lon="10.4467846104">
		<tag k="fixme" v="multiple name tags, choose one and add the other to alt_name" />
		<tag k="name" v="Rustad;Øvre Rustad" />
		<tag k="place" v="farm" />
		<tag k="ssr:stedsnr" v="989046" />
	</node>
	<node id="-134615" lat="60.3051091174" lon="10.4196465564">
		<tag k="fixme" v="consider place=hamlet" />
		<tag k="name" v="Sogn" />
		<tag k="place" v="farm" />
		<tag k="ssr:stedsnr" v="673898" />
	</node>
	<node id="-134614" lat="60.299811109" lon="10.4258416623">
		<tag k="alt_name" v="Løvstad" />
		<tag k="name" v="Lauvstad" />
		<tag k="place" v="isolated_dwelling" />
		<tag k="ssr:stedsnr" v="673861" />
	</node>
	<node id="-134613" lat="60.2639000001" lon="10.3788861064">
		<tag k="alt_name" v="Nordengen" />
		<tag k="name" v="Nordenga" />
		<tag k="place" v="farm" />
		<tag k="ssr:stedsnr" v="673797" />
	</node>
	<node id="-134612" lat="60.2613913191" lon="10.4601986853">
		<tag k="fixme" v="consider place=hamlet" />
		<tag k="name" v="Hensrud" />
		<tag k="place" v="farm" />
		<tag k="ssr:stedsnr" v="673753" />
	</node>
	<node id="-134611" lat="60.3458249992" lon="10.2717166695">
		<tag k="name" v="Tangnes" />
		<tag k="place" v="isolated_dwelling" />
		<tag k="ssr:stedsnr" v="673588" />
	</node>
	<node id="-134097" lat="60.2930555552" lon="10.280941669">
		<tag k="name" v="Brennfu" />
		<tag k="place" v="isolated_dwelling" />
		<tag k="ssr:stedsnr" v="398260" />
	</node>
	<node id="-134136" lat="60.3043944091" lon="10.4187969753">
		<tag k="name" v="Sogn" />
		<tag k="place" v="farm" />
		<tag k="ssr:stedsnr" v="987360" />
	</node>
	<node id="-134093" lat="60.2817972185" lon="10.5203749942">
		<tag k="name" v="Prestbråtan" />
		<tag k="place" v="farm" />
		<tag k="ssr:stedsnr" v="396968" />
	</node>
	<node id="-134092" lat="60.2720388901" lon="10.5217527724">
		<tag k="name" v="Hellerud" />
		<tag k="place" v="farm" />
		<tag k="ssr:stedsnr" v="396926" />
	</node>
	<node id="-134603" lat="60.3335805566" lon="10.270383329">
		<tag k="alt_name" v="Kolbotnhytta" />
		<tag k="name" v="Kolabotn" />
		<tag k="place" v="isolated_dwelling" />
		<tag k="ssr:stedsnr" v="673461" />
	</node>
	<node id="-134089" lat="60.3098206513" lon="10.4511988538">
		<tag k="name" v="Tjernstua" />
		<tag k="place" v="locality" />
		<tag k="ssr:stedsnr" v="370936" />
	</node>
	<node id="-134088" lat="60.3052861153" lon="10.4502166732">
		<tag k="fixme" v="multiple name tags, choose one and add the other to alt_name" />
		<tag k="name" v="Nedre Rustad;Rustad" />
		<tag k="place" v="farm" />
		<tag k="ssr:stedsnr" v="370895" />
	</node>
	<node id="-134087" lat="60.3007527815" lon="10.4391777731">
		<tag k="alt_name" v="Elvebråten" />
		<tag k="name" v="Elvebråtån" />
		<tag k="place" v="farm" />
		<tag k="ssr:stedsnr" v="370872" />
	</node>
	<node id="-134598" lat="60.233241665" lon="10.4610638978">
		<tag k="name" v="Søtbakken" />
		<tag k="place" v="farm" />
		<tag k="ssr:stedsnr" v="672375" />
	</node>
	<node id="-134597" lat="60.2297527819" lon="10.4024611026">
		<tag k="name" v="Gruer" />
		<tag k="place" v="locality" />
		<tag k="ssr:stedsnr" v="672373" />
	</node>
	<node id="-134596" lat="60.2339332887" lon="10.4066946403">
		<tag k="alt_name" v="Moe" />
		<tag k="fixme" v="consider place=hamlet" />
		<tag k="name" v="Mo" />
		<tag k="place" v="farm" />
		<tag k="ssr:stedsnr" v="672369" />
	</node>
	<node id="-134083" lat="60.2608749989" lon="10.4464638881">
		<tag k="name" v="Fossholm" />
		<tag k="place" v="farm" />
		<tag k="ssr:stedsnr" v="370780" />
	</node>
	<node id="-134594" lat="60.338961107" lon="10.3557666669">
		<tag k="name" v="Furulund" />
		<tag k="place" v="isolated_dwelling" />
		<tag k="ssr:stedsnr" v="665498" />
	</node>
	<node id="-134081" lat="60.3670416682" lon="10.36254444">
		<tag k="alt_name" v="Kammerudtangen" />
		<tag k="name" v="Tangen" />
		<tag k="place" v="farm" />
		<tag k="ssr:stedsnr" v="370118" />
	</node>
	<node id="-134078" lat="60.3480444448" lon="10.3052111033">
		<tag k="alt_name" v="Grymyrsetra" />
		<tag k="name" v="Grymyrsætra" />
		<tag k="place" v="isolated_dwelling" />
		<tag k="ssr:stedsnr" v="369531" />
	</node>
	<node id="-134075" lat="60.2420861066" lon="10.4240666748">
		<tag k="name" v="Lund" />
		<tag k="place" v="farm" />
		<tag k="ssr:stedsnr" v="369349" />
	</node>
	<node id="-134073" lat="60.2347083322" lon="10.4336249916">
		<tag k="name" v="Steinbråtan" />
		<tag k="place" v="isolated_dwelling" />
		<tag k="ssr:stedsnr" v="361251" />
	</node>
	<node id="-134071" lat="60.2536249967" lon="10.4474083383">
		<tag k="name" v="Bratvalsgrinda" />
		<tag k="place" v="quarter" />
		<tag k="ssr:stedsnr" v="361179" />
	</node>
	<node id="-134581" lat="60.2818166649" lon="10.4479472176">
		<tag k="name" v="Enerhaugen" />
		<tag k="place" v="farm" />
		<tag k="ssr:stedsnr" v="645113" />
	</node>
	<node id="-134068" lat="60.2333888861" lon="10.3742638824">
		<tag k="name" v="Vadhua" />
		<tag k="place" v="isolated_dwelling" />
		<tag k="ssr:stedsnr" v="361136" />
	</node>
	<node id="-134579" lat="60.2885805576" lon="10.3978277755">
		<tag k="name" v="Vestre Roen" />
		<tag k="place" v="farm" />
		<tag k="ssr:stedsnr" v="640435" />
	</node>
	<node id="-134065" lat="60.248455554" lon="10.372763894">
		<tag k="name" v="Frydenlund" />
		<tag k="place" v="quarter" />
		<tag k="ssr:stedsnr" v="361078" />
	</node>
	<node id="-134575" lat="60.2646888867" lon="10.5083583306">
		<tag k="name" v="Langdalen" />
		<tag k="place" v="farm" />
		<tag k="ssr:stedsnr" v="638970" />
	</node>
	<node id="-134574" lat="60.2784472249" lon="10.5319805614">
		<tag k="name" v="Prestlia" />
		<tag k="place" v="farm" />
		<tag k="ssr:stedsnr" v="638950" />
	</node>
	<node id="-134557" lat="60.3566888894" lon="10.2443194506">
		<tag k="name" v="Flåtjernshytta" />
		<tag k="place" v="isolated_dwelling" />
		<tag k="ssr:stedsnr" v="611597" />
	</node>
	<node id="-134571" lat="60.201874999" lon="10.5637805628">
		<tag k="name" v="Kalvedalshytta" />
		<tag k="place" v="isolated_dwelling" />
		<tag k="ssr:stedsnr" v="638273" />
	</node>
	<node id="-134568" lat="60.3106434283" lon="10.4165077311">
		<tag k="fixme" v="consider place=hamlet" />
		<tag k="name" v="Rud" />
		<tag k="place" v="farm" />
		<tag k="ssr:stedsnr" v="612877" />
	</node>
	<node id="-134567" lat="60.2788194467" lon="10.5109583304">
		<tag k="name" v="Finnerud" />
		<tag k="place" v="farm" />
		<tag k="ssr:stedsnr" v="612828" />
	</node>
	<node id="-134566" lat="60.2658222183" lon="10.5153416587">
		<tag k="alt_name" v="Olimbsbråtan;Olimbsbråten" />
		<tag k="name" v="Olumsbråtån" />
		<tag k="place" v="farm" />
		<tag k="ssr:stedsnr" v="612807" />
	</node>
	<node id="-134053" lat="60.3076696868" lon="10.4348772327">
		<tag k="name" v="Østre Velo" />
		<tag k="place" v="farm" />
		<tag k="ssr:stedsnr" v="333204" />
	</node>
	<node id="-134564" lat="60.2510166641" lon="10.4454444486">
		<tag k="name" v="Skogtun" />
		<tag k="place" v="isolated_dwelling" />
		<tag k="ssr:stedsnr" v="612776" />
	</node>
	<node id="-134563" lat="60.2555027765" lon="10.4806499974">
		<tag k="name" v="Sørum" />
		<tag k="place" v="farm" />
		<tag k="ssr:stedsnr" v="612774" />
	</node>
	<node id="-134050" lat="60.3224922147" lon="10.3447882493">
		<tag k="fixme" v="consider place=hamlet" />
		<tag k="name" v="Velsand" />
		<tag k="place" v="farm" />
		<tag k="ssr:stedsnr" v="309954" />
	</node>
	<node id="-134049" lat="60.2846916636" lon="10.3552055508">
		<tag k="alt_name" v="Søråsen;Åsen, s" />
		<tag k="name" v="Søndre Åsen" />
		<tag k="place" v="isolated_dwelling" />
		<tag k="ssr:stedsnr" v="309864" />
	</node>
	<node id="-134048" lat="60.2933611084" lon="10.4607972199">
		<tag k="alt_name" v="Hvaterud, s;Søndre Vaterud" />
		<tag k="name" v="Søndre Hvaterud" />
		<tag k="place" v="farm" />
		<tag k="ssr:stedsnr" v="309860" />
	</node>
	<node id="-134047" lat="60.2668638877" lon="10.5040972278">
		<tag k="name" v="Vangen" />
		<tag k="place" v="isolated_dwelling" />
		<tag k="ssr:stedsnr" v="309807" />
	</node>
	<node id="-134046" lat="60.255252782" lon="10.4238972137">
		<tag k="alt_name" v="Vang, nedre" />
		<tag k="fixme" v="consider place=hamlet" />
		<tag k="name" v="Nedre Vang" />
		<tag k="place" v="farm" />
		<tag k="ssr:stedsnr" v="309776" />
	</node>
	<node id="-134045" lat="60.2520944473" lon="10.5193277814">
		<tag k="alt_name" v="Olimbseter" />
		<tag k="historic" v="shieling" />
		<tag k="name" v="Olumsætra" />
		<tag k="place" v="locality" />
		<tag k="ssr:stedsnr" v="309769" />
	</node>
	<node id="-134556" lat="60.23123333" lon="10.4525583253">
		<tag k="name" v="Midtlia" />
		<tag k="place" v="isolated_dwelling" />
		<tag k="ssr:stedsnr" v="611473" />
	</node>
	<node id="-134555" lat="60.2265027768" lon="10.4743222186">
		<tag k="historic" v="shieling" />
		<tag k="name" v="Finnerudsætra" />
		<tag k="place" v="locality" />
		<tag k="ssr:stedsnr" v="611470" />
	</node>
	<node id="-134554" lat="60.2341555543" lon="10.5205222165">
		<tag k="alt_name" v="Sinnerseter" />
		<tag k="historic" v="shieling" />
		<tag k="name" v="Sindersætra" />
		<tag k="place" v="locality" />
		<tag k="ssr:stedsnr" v="611409" />
	</node>
	<node id="-134040" lat="60.2495500041" lon="10.3692055591">
		<tag k="alt_name" v="Barbrostuhaugen" />
		<tag k="name" v="Haug" />
		<tag k="place" v="isolated_dwelling" />
		<tag k="ssr:stedsnr" v="309741" />
	</node>
	<node id="-134551" lat="60.2404888922" lon="10.3833388939">
		<tag k="name" v="Nesbakken" />
		<tag k="place" v="quarter" />
		<tag k="ssr:stedsnr" v="603161" />
	</node>
	<node id="-134550" lat="60.2539833326" lon="10.4284138962">
		<tag k="name" v="Vangsmølla" />
		<tag k="place" v="locality" />
		<tag k="ssr:stedsnr" v="603060" />
	</node>
	<node id="-134549" lat="60.2680808972" lon="10.4894936587">
		<tag k="alt_name" v="Olom" />
		<tag k="name" v="Olum" />
		<tag k="place" v="hamlet" />
		<tag k="ssr:stedsnr" v="600930" />
	</node>
	<node id="-134548" lat="60.2452888875" lon="10.3681944484">
		<tag k="name" v="Nordhaugen" />
		<tag k="place" v="quarter" />
		<tag k="ssr:stedsnr" v="598000" />
	</node>
	<node id="-134035" lat="60.2825944464" lon="10.3399194515">
		<tag k="name" v="Åsbråtan" />
		<tag k="place" v="isolated_dwelling" />
		<tag k="ssr:stedsnr" v="309451" />
	</node>
	<node id="-134545" lat="60.2693055577" lon="10.33241388">
		<tag k="name" v="Nordbyseter" />
		<tag k="place" v="locality" />
		<tag k="ssr:stedsnr" v="597907" />
	</node>
	<node id="-134052" lat="60.2852499957" lon="10.4128666722">
		<tag k="fixme" v="consider place=hamlet" />
		<tag k="name" v="Sløvika" />
		<tag k="place" v="village" />
		<tag k="ssr:stedsnr" v="327477" />
	</node>
	<node id="-134069" lat="60.2387499984" lon="10.4068527786">
		<tag k="name" v="Nybygget" />
		<tag k="place" v="quarter" />
		<tag k="ssr:stedsnr" v="361150" />
	</node>
	<node id="-134086" lat="60.2978728074" lon="10.3884492992">
		<tag k="alt_name" v="Igelsrud" />
		<tag k="fixme" v="consider place=hamlet" />
		<tag k="name" v="Igulsrud" />
		<tag k="place" v="farm" />
		<tag k="ssr:stedsnr" v="370867" />
	</node>
	<node id="-134540" lat="60.2663666682" lon="10.4540277783">
		<tag k="name" v="Karlsrud" />
		<tag k="place" v="farm" />
		<tag k="ssr:stedsnr" v="585109" />
	</node>
	<node id="-134538" lat="60.3547166647" lon="10.3613222212">
		<tag k="name" v="Bjørklund" />
		<tag k="place" v="farm" />
		<tag k="ssr:stedsnr" v="583417" />
	</node>
	<node id="-134039" lat="60.2546777764" lon="10.3818750086">
		<tag k="alt_name" v="Brørby, nordre" />
		<tag k="name" v="Nordre Brørby" />
		<tag k="place" v="farm" />
		<tag k="ssr:stedsnr" v="309738" />
	</node>
	<node id="-134535" lat="60.2630000015" lon="10.4961916723">
		<tag k="name" v="Sagenga" />
		<tag k="place" v="farm" />
		<tag k="ssr:stedsnr" v="579000" />
	</node>
	<node id="-134020" lat="60.2806861147" lon="10.5164944391">
		<tag k="name" v="Østre Igelstad" />
		<tag k="place" v="farm" />
		<tag k="ssr:stedsnr" v="299857" />
	</node>
	<node id="-134530" lat="60.2884930916" lon="10.4023498676">
		<tag k="fixme" v="consider place=hamlet" />
		<tag k="name" v="Roen" />
		<tag k="place" v="farm" />
		<tag k="ssr:stedsnr" v="552888" />
	</node>
	<node id="-134529" lat="60.29679167" lon="10.4185499995">
		<tag k="name" v="Sognsbråtån" />
		<tag k="place" v="isolated_dwelling" />
		<tag k="ssr:stedsnr" v="552879" />
	</node>
	<node id="-134528" lat="60.2795888845" lon="10.4791166654">
		<tag k="name" v="Tømte" />
		<tag k="place" v="farm" />
		<tag k="ssr:stedsnr" v="552871" />
	</node>
	<node id="-134527" lat="60.2825388903" lon="10.5135555551">
		<tag k="alt_name" v="Stensrud" />
		<tag k="name" v="Steinsrud" />
		<tag k="place" v="farm" />
		<tag k="ssr:stedsnr" v="552847" />
	</node>
	<node id="-134526" lat="60.2721166695" lon="10.4069916675">
		<tag k="alt_name" v="Bjellum, søndre;Bjellum" />
		<tag k="name" v="Søndre Bjellum" />
		<tag k="place" v="farm" />
		<tag k="ssr:stedsnr" v="552812" />
	</node>
	<node id="-134037" lat="60.1973138859" lon="10.5549861156">
		<tag k="alt_name" v="Roenseter" />
		<tag k="historic" v="shieling" />
		<tag k="name" v="Roensætra" />
		<tag k="place" v="locality" />
		<tag k="ssr:stedsnr" v="309494" />
	</node>
	<node id="-134524" lat="60.2507694459" lon="10.5259472186">
		<tag k="name" v="Høgnes" />
		<tag k="place" v="farm" />
		<tag k="ssr:stedsnr" v="552795" />
	</node>
	<node id="-134523" lat="60.2628527797" lon="10.4567638877">
		<tag k="alt_name" v="Presthagen" />
		<tag k="name" v="Presthagan" />
		<tag k="place" v="farm" />
		<tag k="ssr:stedsnr" v="552779" />
	</node>
	<node id="-134522" lat="60.2599611139" lon="10.4787916753">
		<tag k="name" v="Nordli" />
		<tag k="place" v="farm" />
		<tag k="ssr:stedsnr" v="552777" />
	</node>
	<node id="-134008" lat="60.3541666637" lon="10.3377416655">
		<tag k="name" v="Bergebråtan" />
		<tag k="place" v="locality" />
		<tag k="ssr:stedsnr" v="280439" />
	</node>
	<node id="-134036" lat="60.3314083369" lon="10.3159805622">
		<tag k="alt_name" v="Skutseter" />
		<tag k="historic" v="shieling" />
		<tag k="name" v="Skutsætra" />
		<tag k="place" v="locality" />
		<tag k="ssr:stedsnr" v="309489" />
	</node>
	<node id="-134006" lat="60.2600805579" lon="10.4899638881">
		<tag k="leisure" v="pitch" />
		<tag k="name" v="Idrettsplass" />
		<tag k="ssr:stedsnr" v="275932" />
	</node>
	<node id="-134517" lat="60.2926416624" lon="10.3358777834">
		<tag k="alt_name" v="Nedre Rolfsbråtan" />
		<tag k="name" v="Rolvsbråtan" />
		<tag k="place" v="isolated_dwelling" />
		<tag k="ssr:stedsnr" v="552440" />
	</node>
	<node id="-134003" lat="60.2893611121" lon="10.5081055518">
		<tag k="name" v="Østre Vassjø" />
		<tag k="place" v="farm" />
		<tag k="ssr:stedsnr" v="275546" />
	</node>
	<node id="-134205" lat="60.3109861104" lon="10.4299000013">
		<tag k="alt_name" v="Velohagan" />
		<tag k="name" v="Hagan" />
		<tag k="place" v="isolated_dwelling" />
		<tag k="ssr:stedsnr" v="6941" />
	</node>
	<node id="-134503" lat="60.2477472219" lon="10.377702773">
		<tag k="alt_name" v="Nøkleby" />
		<tag k="name" v="Øvre Nøkleby" />
		<tag k="place" v="farm" />
		<tag k="ssr:stedsnr" v="551411" />
	</node>
	<node id="-134204" lat="60.283230555" lon="10.458391672">
		<tag k="name" v="Skårud" />
		<tag k="place" v="farm" />
		<tag k="ssr:stedsnr" v="6875" />
	</node>
	<node id="-134203" lat="60.2934916624" lon="10.4570222299">
		<tag k="alt_name" v="Hvaterud, vestre;Vestre Vaterud" />
		<tag k="name" v="Vestre Hvaterud" />
		<tag k="place" v="farm" />
		<tag k="ssr:stedsnr" v="6866" />
	</node>
	<node id="-134495" lat="60.2380083314" lon="10.3685694446">
		<tag k="name" v="Rundhaugen" />
		<tag k="place" v="quarter" />
		<tag k="ssr:stedsnr" v="537735" />
	</node>
	<node id="-134492" lat="60.2211777746" lon="10.3810444484">
		<tag k="alt_name" v="Frankrik" />
		<tag k="name" v="Frankrike" />
		<tag k="old_name" v="Frankrig" />
		<tag k="place" v="farm" />
		<tag k="ssr:stedsnr" v="539461" />
	</node>
	<node id="-134491" lat="60.2635833339" lon="10.4251638827">
		<tag k="name" v="Randsvangen" />
		<tag k="ssr:stedsnr" v="524911" />
		<tag k="tourism" v="hotel" />
	</node>
	<node id="-134486" lat="60.2672638863" lon="10.5383305588">
		<tag k="name" v="Høghaug" />
		<tag k="place" v="isolated_dwelling" />
		<tag k="ssr:stedsnr" v="517961" />
	</node>
	<node id="-134201" lat="60.2808091517" lon="10.4378199405">
		<tag k="fixme" v="consider place=hamlet" />
		<tag k="name" v="Falteinsrud" />
		<tag k="place" v="farm" />
		<tag k="ssr:stedsnr" v="6843" />
	</node>
	<node id="-134483" lat="60.30399167" lon="10.4048027846">
		<tag k="name" v="Dalsenga" />
		<tag k="place" v="farm" />
		<tag k="ssr:stedsnr" v="491878" />
	</node>
	<node id="-134482" lat="60.2898090658" lon="10.4119129948">
		<tag k="fixme" v="consider place=hamlet" />
		<tag k="name" v="Haga" />
		<tag k="place" v="farm" />
		<tag k="ssr:stedsnr" v="491860" />
	</node>
	<node id="-134481" lat="60.2778850672" lon="10.5022613057">
		<tag k="alt_name" v="Øvre Tronrud" />
		<tag k="fixme" v="consider place=hamlet" />
		<tag k="name" v="Trondrud" />
		<tag k="place" v="farm" />
		<tag k="ssr:stedsnr" v="491828" />
	</node>
	<node id="-134480" lat="60.2877555529" lon="10.4927500004">
		<tag k="name" v="Mellerud" />
		<tag k="place" v="farm" />
		<tag k="ssr:stedsnr" v="491811" />
	</node>
	<node id="-134479" lat="60.2523638863" lon="10.3785638817">
		<tag k="name" v="Solberg" />
		<tag k="place" v="farm" />
		<tag k="ssr:stedsnr" v="491738" />
	</node>
	<node id="-134478" lat="60.3468944415" lon="10.305136107">
		<tag k="alt_name" v="Halvorsbølesætra, østre;Halvorbøleseter" />
		<tag k="historic" v="shieling" />
		<tag k="name" v="Østre Halvorsbølesætra" />
		<tag k="place" v="locality" />
		<tag k="ssr:stedsnr" v="491596" />
	</node>
	<node id="-134476" lat="60.3323472266" lon="10.3222194508">
		<tag k="alt_name" v="Elnesseter" />
		<tag k="historic" v="shieling" />
		<tag k="name" v="Elnessætra" />
		<tag k="place" v="locality" />
		<tag k="ssr:stedsnr" v="491465" />
	</node>
	<node id="-134473" lat="60.2369472216" lon="10.3608666698">
		<tag k="alt_name" v="Stensrud" />
		<tag k="name" v="Steinerud" />
		<tag k="place" v="isolated_dwelling" />
		<tag k="ssr:stedsnr" v="490388" />
	</node>
	<node id="-134198" lat="60.2743747443" lon="10.4696909996">
		<tag k="alt_name" v="Greftegreff" />
		<tag k="name" v="Greftegrev" />
		<tag k="place" v="hamlet" />
		<tag k="ssr:stedsnr" v="6798" />
	</node>
	<node id="-134283" lat="60.336947221" lon="10.3444500033">
		<tag k="name" v="Gjerdingen" />
		<tag k="place" v="farm" />
		<tag k="ssr:stedsnr" v="119482" />
	</node>
	<node id="-134464" lat="60.247405559" lon="10.4297527769">
		<tag k="name" v="Rønnerudsenga" />
		<tag k="place" v="isolated_dwelling" />
		<tag k="ssr:stedsnr" v="482157" />
	</node>
	<node id="-134463" lat="60.255347225" lon="10.4294305496">
		<tag k="name" v="Solbakken" />
		<tag k="place" v="farm" />
		<tag k="ssr:stedsnr" v="482155" />
	</node>
	<node id="-134457" lat="60.2732833361" lon="10.4416944483">
		<tag k="name" v="Igelstad" />
		<tag k="place" v="isolated_dwelling" />
		<tag k="ssr:stedsnr" v="464002" />
	</node>
	<node id="-134455" lat="60.3001583311" lon="10.293144449">
		<tag k="name" v="Torvheim" />
		<tag k="place" v="isolated_dwelling" />
		<tag k="ssr:stedsnr" v="459270" />
	</node>
	<node id="-134281" lat="60.2383305563" lon="10.3549111082">
		<tag k="amenity" v="school" />
		<tag k="name" v="Bergerbakken skole" />
		<tag k="ssr:stedsnr" v="119153" />
	</node>
	<node id="-134206" lat="60.3355472246" lon="10.3487055494">
		<tag k="name" v="Engeli" />
		<tag k="place" v="locality" />
		<tag k="ssr:stedsnr" v="6999" />
	</node>
	<node id="-134449" lat="60.3349666664" lon="10.3521222191">
		<tag k="name" v="Solvik" />
		<tag k="place" v="farm" />
		<tag k="ssr:stedsnr" v="431997" />
	</node>
	<node id="-134448" lat="60.3370916624" lon="10.3559611131">
		<tag k="name" v="Solstad" />
		<tag k="place" v="isolated_dwelling" />
		<tag k="ssr:stedsnr" v="431996" />
	</node>
	<node id="-134447" lat="60.3021555529" lon="10.4391416698">
		<tag k="alt_name" v="Linjeløkka" />
		<tag k="name" v="Linlykkja" />
		<tag k="place" v="farm" />
		<tag k="ssr:stedsnr" v="431905" />
	</node>
	<node id="-134446" lat="60.2930277821" lon="10.4583777862">
		<tag k="alt_name" v="Hvaterud, midtre;Midtre Vaterud" />
		<tag k="name" v="Midtre Hvaterud" />
		<tag k="place" v="farm" />
		<tag k="ssr:stedsnr" v="431878" />
	</node>
	<node id="-134445" lat="60.2979499978" lon="10.4171166689">
		<tag k="name" v="Høybråtån" />
		<tag k="place" v="isolated_dwelling" />
		<tag k="ssr:stedsnr" v="431874" />
	</node>
	<node id="-134444" lat="60.2884046887" lon="10.4993454316">
		<tag k="alt_name" v="Vadsjø" />
		<tag k="fixme" v="consider place=hamlet" />
		<tag k="name" v="Vassjø" />
		<tag k="place" v="farm" />
		<tag k="ssr:stedsnr" v="431840" />
	</node>
	<node id="-134443" lat="60.2665666668" lon="10.4677027694">
		<tag k="alt_name" v="Lien" />
		<tag k="name" v="Lia" />
		<tag k="place" v="farm" />
		<tag k="ssr:stedsnr" v="431807" />
	</node>
	<node id="-134442" lat="60.2672509437" lon="10.414111119">
		<tag k="fixme" v="consider place=hamlet" />
		<tag k="name" v="Gulla" />
		<tag k="place" v="farm" />
		<tag k="ssr:stedsnr" v="431804" />
	</node>
	<node id="-134441" lat="60.2558861146" lon="10.4785888811">
		<tag k="name" v="Sørenga" />
		<tag k="place" v="farm" />
		<tag k="ssr:stedsnr" v="431799" />
	</node>
	<node id="-134202" lat="60.274399424" lon="10.4805230103">
		<tag k="fixme" v="consider place=hamlet" />
		<tag k="name" v="Gårdsrud" />
		<tag k="place" v="farm" />
		<tag k="ssr:stedsnr" v="6846" />
	</node>
	<node id="-134108" lat="60.2367166643" lon="10.3616527798">
		<tag k="name" v="Bergebakken" />
		<tag k="place" v="quarter" />
		<tag k="ssr:stedsnr" v="476756" />
	</node>
	<node id="-134438" lat="60.287816664" lon="10.3423027752">
		<tag k="alt_name" v="Djupdalen" />
		<tag k="name" v="Djupdal" />
		<tag k="place" v="isolated_dwelling" />
		<tag k="ssr:stedsnr" v="431434" />
	</node>
	<node id="-134437" lat="60.2957638893" lon="10.3378888834">
		<tag k="alt_name" v="Sør-Falla;Falla, s" />
		<tag k="name" v="Søndre Falla" />
		<tag k="place" v="farm" />
		<tag k="ssr:stedsnr" v="431410" />
	</node>
	<node id="-134436" lat="60.2101111153" lon="10.5098666719">
		<tag k="alt_name" v="Tverrsjøhytta" />
		<tag k="name" v="Tverrsjøstallen" />
		<tag k="place" v="isolated_dwelling" />
		<tag k="ssr:stedsnr" v="430462" />
	</node>
	<node id="-134435" lat="60.2247944449" lon="10.4201027854">
		<tag k="name" v="Haukerud" />
		<tag k="place" v="locality" />
		<tag k="ssr:stedsnr" v="430449" />
	</node>
	<node id="-134431" lat="60.2314611154" lon="10.4815333296">
		<tag k="historic" v="shieling" />
		<tag k="name" v="Vangsætra" />
		<tag k="place" v="locality" />
		<tag k="ssr:stedsnr" v="430381" />
	</node>
	<node id="-134427" lat="60.3416722182" lon="10.3470916735">
		<tag k="name" v="Øllebråtan" />
		<tag k="place" v="farm" />
		<tag k="ssr:stedsnr" v="422715" />
	</node>
	<node id="-134082" lat="60.3130333362" lon="10.3283555483">
		<tag k="alt_name" v="Myreseter" />
		<tag k="historic" v="shieling" />
		<tag k="name" v="Velsandsætra" />
		<tag k="place" v="locality" />
		<tag k="ssr:stedsnr" v="370528" />
	</node>
	<node id="-134420" lat="60.2305861099" lon="10.4779749972">
		<tag k="historic" v="shieling" />
		<tag k="name" v="Vang seter" />
		<tag k="place" v="locality" />
		<tag k="ssr:stedsnr" v="422135" />
	</node>
	<node id="-134190" lat="60.3388027782" lon="10.3528416681">
		<tag k="name" v="Halvorsbøle" />
		<tag k="ssr:stedsnr" v="6039" />
		<tag k="tourism" v="hotel" />
	</node>
	<node id="-134417" lat="60.2682666683" lon="10.4749000022">
		<tag k="name" v="Ragnhildrud" />
		<tag k="place" v="quarter" />
		<tag k="ssr:stedsnr" v="419911" />
	</node>
	<node id="-134416" lat="60.192973225" lon="10.5289599357">
		<tag k="historic" v="shieling" />
		<tag k="loc_name" v="Lortholoa" />
		<tag k="name" v="Holoa" />
		<tag k="old_name" v="Holoa Sr;Holosætra;Lorthul Sr" />
		<tag k="place" v="locality" />
		<tag k="ssr:stedsnr" v="418440" />
	</node>
	<node id="-134150" lat="60.3077849013" lon="10.4324640576">
		<tag k="name" v="Velo" />
		<tag k="place" v="hamlet" />
		<tag k="ssr:stedsnr" v="988013" />
	</node>
	<node id="-134414" lat="60.278961111" lon="10.3636388801">
		<tag k="name" v="Hansebråtan" />
		<tag k="place" v="locality" />
		<tag k="ssr:stedsnr" v="416550" />
	</node>
	<node id="-134413" lat="60.2928250008" lon="10.3336527745">
		<tag k="name" v="Øvre Rolfsbråtan" />
		<tag k="place" v="farm" />
		<tag k="ssr:stedsnr" v="416250" />
	</node>
	<node id="-134406" lat="60.2593083334" lon="10.4352250022">
		<tag k="name" v="Prestmoen" />
		<tag k="place" v="quarter" />
		<tag k="ssr:stedsnr" v="267813" />
	</node>
	<node id="-134404" lat="60.2912953462" lon="10.3535117265">
		<tag k="name" v="Sandvika" />
		<tag k="place" v="farm" />
		<tag k="ssr:stedsnr" v="249862" />
	</node>
	<node id="-134403" lat="60.2511472251" lon="10.4597111115">
		<tag k="alt_name" v="Bråtan" />
		<tag k="name" v="Bråtån" />
		<tag k="place" v="locality" />
		<tag k="ssr:stedsnr" v="249763" />
	</node>
	<node id="-134402" lat="60.265152779" lon="10.4803638848">
		<tag k="name" v="Farmen" />
		<tag k="place" v="farm" />
		<tag k="ssr:stedsnr" v="249746" />
	</node>
	<node id="-134401" lat="60.2742111083" lon="10.3253444461">
		<tag k="name" v="Fuglesang" />
		<tag k="place" v="isolated_dwelling" />
		<tag k="ssr:stedsnr" v="249435" />
	</node>
	<node id="-134400" lat="60.2881555533" lon="10.2921999982">
		<tag k="alt_name" v="Myrheim" />
		<tag k="name" v="Kistefosshytta" />
		<tag k="place" v="isolated_dwelling" />
		<tag k="ssr:stedsnr" v="249404" />
	</node>
	<node id="-134399" lat="60.3001166678" lon="10.3377972154">
		<tag k="alt_name" v="Nord-Falla;Falla, nordre" />
		<tag k="name" v="Nordre Falla" />
		<tag k="place" v="farm" />
		<tag k="ssr:stedsnr" v="249391" />
	</node>
	<node id="-134101" lat="60.2788944459" lon="10.4792305562">
		<tag k="name" v="Bakken" />
		<tag k="place" v="farm" />
		<tag k="ssr:stedsnr" v="403012" />
	</node>
	<node id="-134102" lat="60.2832806612" lon="10.4544966005">
		<tag k="fixme" v="consider place=hamlet" />
		<tag k="name" v="Skårud" />
		<tag k="old_name" v="Skålerud" />
		<tag k="place" v="farm" />
		<tag k="ssr:stedsnr" v="403119" />
	</node>
	<node id="-134391" lat="60.2332722213" lon="10.4268999934">
		<tag k="name" v="Haugen" />
		<tag k="place" v="farm" />
		<tag k="ssr:stedsnr" v="248383" />
	</node>
	<node id="-134390" lat="60.2358107896" lon="10.4223950896">
		<tag k="fixme" v="consider place=hamlet" />
		<tag k="name" v="Hauger" />
		<tag k="place" v="farm" />
		<tag k="ssr:stedsnr" v="248382" />
	</node>
	<node id="-134099" lat="60.2927861096" lon="10.414422222">
		<tag k="name" v="Løvli" />
		<tag k="place" v="farm" />
		<tag k="ssr:stedsnr" v="398365" />
	</node>
	<node id="-134032" lat="60.3685888921" lon="10.2077888854">
		<tag k="name" v="Klæstadhytta" />
		<tag k="place" v="isolated_dwelling" />
		<tag k="ssr:stedsnr" v="308587" />
	</node>
	<node id="-134111" lat="60.2478666667" lon="10.3658027719">
		<tag k="name" v="Pilkollen" />
		<tag k="place" v="quarter" />
		<tag k="ssr:stedsnr" v="476996" />
	</node>
	<node id="-134376" lat="60.2789083298" lon="10.4724138905">
		<tag k="name" v="Linlykja" />
		<tag k="place" v="farm" />
		<tag k="ssr:stedsnr" v="221042" />
	</node>
	<node id="-134375" lat="60.2682194486" lon="10.4652083308">
		<tag k="name" v="Haug" />
		<tag k="place" v="isolated_dwelling" />
		<tag k="ssr:stedsnr" v="221001" />
	</node>
	<node id="-134779" lat="60.3084805595" lon="10.3440861184">
		<tag k="name" v="Volla" />
		<tag k="place" v="farm" />
		<tag k="ssr:stedsnr" v="916887" />
	</node>
	<node id="-134145" lat="60.2422715161" lon="10.3717499819">
		<tag k="fixme" v="consider place=hamlet" />
		<tag k="name" v="Berger" />
		<tag k="place" v="farm" />
		<tag k="ssr:stedsnr" v="987986" />
	</node>
	<node id="-134583" lat="60.2969277754" lon="10.3404388868">
		<tag k="name" v="Gjerde" />
		<tag k="place" v="farm" />
		<tag k="ssr:stedsnr" v="658271" />
	</node>
	<node id="-134364" lat="60.3096444414" lon="10.3864416591">
		<tag k="alt_name" v="Bjertnes" />
		<tag k="name" v="Søndre Bjertnes" />
		<tag k="place" v="farm" />
		<tag k="ssr:stedsnr" v="212677" />
	</node>
	<node id="-134362" lat="60.3010888918" lon="10.3487111059">
		<tag k="name" v="Steinhus" />
		<tag k="place" v="isolated_dwelling" />
		<tag k="ssr:stedsnr" v="188911" />
	</node>
	<node id="-134361" lat="60.2923611106" lon="10.4093999956">
		<tag k="name" v="Roenhagan" />
		<tag k="place" v="farm" />
		<tag k="ssr:stedsnr" v="188876" />
	</node>
	<node id="-134359" lat="60.3011502825" lon="10.4119179194">
		<tag k="fixme" v="consider place=hamlet" />
		<tag k="name" v="Tømmerås" />
		<tag k="place" v="farm" />
		<tag k="ssr:stedsnr" v="188862" />
	</node>
	<node id="-134358" lat="60.2766305574" lon="10.4400694456">
		<tag k="alt_name" v="Skjennum østre" />
		<tag k="name" v="Skjennumstua" />
		<tag k="place" v="isolated_dwelling" />
		<tag k="ssr:stedsnr" v="188848" />
	</node>
	<node id="-134357" lat="60.275924999" lon="10.4079444425">
		<tag k="alt_name" v="Bjellum, nordre;Bjellum" />
		<tag k="name" v="Nordre Bjellum" />
		<tag k="place" v="farm" />
		<tag k="ssr:stedsnr" v="188814" />
	</node>
	<node id="-134356" lat="60.2528555538" lon="10.437611117">
		<tag k="name" v="Helleksrud" />
		<tag k="place" v="isolated_dwelling" />
		<tag k="ssr:stedsnr" v="188810" />
	</node>
	<node id="-134354" lat="60.2537999973" lon="10.4805194372">
		<tag k="name" v="Brattli" />
		<tag k="place" v="farm" />
		<tag k="ssr:stedsnr" v="188808" />
	</node>
	<node id="-134691" lat="60.2647305516" lon="10.5115555586">
		<tag k="alt_name" v="Langli" />
		<tag k="name" v="Langlia" />
		<tag k="place" v="farm" />
		<tag k="ssr:stedsnr" v="795808" />
	</node>
	<node id="-134352" lat="60.243113893" lon="10.3718000007">
		<tag k="alt_name" v="Berger" />
		<tag k="name" v="Øvre Berger" />
		<tag k="place" v="farm" />
		<tag k="ssr:stedsnr" v="188425" />
	</node>
	<node id="-134515" lat="60.3764777747" lon="10.2028138906">
		<tag k="name" v="Øvre Finneplassen" />
		<tag k="place" v="farm" />
		<tag k="ssr:stedsnr" v="551616" />
	</node>
	<node id="-134199" lat="60.2666250038" lon="10.5299166712">
		<tag k="name" v="Halvorsrudbekken" />
		<tag k="place" v="isolated_dwelling" />
		<tag k="ssr:stedsnr" v="6818" />
	</node>
	<node id="-134345" lat="60.2223722234" lon="10.4284833321">
		<tag k="alt_name" v="Dælen" />
		<tag k="name" v="Dalen" />
		<tag k="place" v="locality" />
		<tag k="ssr:stedsnr" v="187439" />
	</node>
	<node id="-134344" lat="60.2225777755" lon="10.4285083244">
		<tag k="alt_name" v="Sørås" />
		<tag k="name" v="Ås" />
		<tag k="place" v="locality" />
		<tag k="ssr:stedsnr" v="187438" />
	</node>
	<node id="-134342" lat="60.2365888906" lon="10.5278194477">
		<tag k="alt_name" v="Vestend" />
		<tag k="name" v="Vestenden" />
		<tag k="place" v="farm" />
		<tag k="ssr:stedsnr" v="187354" />
	</node>
	<node id="-134333" lat="60.2723722257" lon="10.3133666686">
		<tag k="name" v="Øvre Berger" />
		<tag k="place" v="locality" />
		<tag k="ssr:stedsnr" v="173891" />
	</node>
	<node id="-134332" lat="60.2883716588" lon="10.357112567">
		<tag k="fixme" v="consider place=hamlet" />
		<tag k="name" v="Næverbekken" />
		<tag k="place" v="farm" />
		<tag k="ssr:stedsnr" v="173245" />
	</node>
	<node id="-134326" lat="60.2716361095" lon="10.5176111156">
		<tag k="name" v="Bjerkås" />
		<tag k="old_name" v="Nordstuløkken;Bjerkaas" />
		<tag k="place" v="farm" />
		<tag k="ssr:stedsnr" v="163035" />
	</node>
	<node id="-134147" lat="60.2535847135" lon="10.3812706708">
		<tag k="fixme" v="consider place=hamlet" />
		<tag k="name" v="Brørby" />
		<tag k="place" v="farm" />
		<tag k="ssr:stedsnr" v="987988" />
	</node>
	<node id="-134247" lat="60.2592221913" lon="10.3790253705">
		<tag k="fixme" v="consider place=hamlet" />
		<tag k="name" v="Nordby" />
		<tag k="place" v="farm" />
		<tag k="ssr:stedsnr" v="67802" />
	</node>
	<node id="-134181" lat="60.2387435723" lon="10.4264856297">
		<tag k="fixme" v="consider place=hamlet" />
		<tag k="name" v="Torshov" />
		<tag k="place" v="farm" />
		<tag k="ssr:stedsnr" v="5371" />
	</node>
	<node id="-134321" lat="60.2992055524" lon="10.4197138873">
		<tag k="amenity" v="school" />
		<tag k="name" v="Sogn skole" />
		<tag k="ssr:stedsnr" v="155354" />
	</node>
	<node id="-134314" lat="60.3122944449" lon="10.4405611071">
		<tag k="name" v="Bekkestua" />
		<tag k="place" v="isolated_dwelling" />
		<tag k="ssr:stedsnr" v="128919" />
	</node>
	<node id="-134313" lat="60.3108810941" lon="10.4237967937">
		<tag k="alt_name" v="Velo" />
		<tag k="name" v="Nordre Velo" />
		<tag k="place" v="farm" />
		<tag k="ssr:stedsnr" v="128909" />
	</node>
	<node id="-134311" lat="60.2977222267" lon="10.4560694462">
		<tag k="name" v="Nordli" />
		<tag k="place" v="farm" />
		<tag k="ssr:stedsnr" v="127873" />
	</node>
	<node id="-134310" lat="60.2570833357" lon="10.489661104">
		<tag k="name" v="Myrvoll" />
		<tag k="place" v="farm" />
		<tag k="ssr:stedsnr" v="127789" />
	</node>
	<node id="-134309" lat="60.264377775" lon="10.4893361186">
		<tag k="name" v="Aslaksrud" />
		<tag k="place" v="farm" />
		<tag k="ssr:stedsnr" v="127788" />
	</node>
	<node id="-134308" lat="60.2541861133" lon="10.3750999978">
		<tag k="name" v="Tokerud" />
		<tag k="place" v="farm" />
		<tag k="ssr:stedsnr" v="127778" />
	</node>
	<node id="-134307" lat="60.3072583326" lon="10.4318500084">
		<tag k="alt_name" v="Velo" />
		<tag k="name" v="Vestre Velo" />
		<tag k="old_name" v="Velø" />
		<tag k="place" v="farm" />
		<tag k="ssr:stedsnr" v="127694" />
	</node>
	<node id="-134306" lat="60.3800555558" lon="10.2957749938">
		<tag k="name" v="Otermyrbakken" />
		<tag k="place" v="isolated_dwelling" />
		<tag k="ssr:stedsnr" v="127658" />
	</node>
	<node id="-134305" lat="60.2652577489" lon="10.4612226215">
		<tag k="fixme" v="consider place=hamlet" />
		<tag k="name" v="Klinkenberg" />
		<tag k="place" v="farm" />
		<tag k="ssr:stedsnr" v="127810" />
	</node>
	<node id="-134304" lat="60.2504583378" lon="10.3874805583">
		<tag k="name" v="Birkelund" />
		<tag k="place" v="isolated_dwelling" />
		<tag k="ssr:stedsnr" v="127804" />
	</node>
	<node id="-134720" lat="60.2072972241" lon="10.4848722165">
		<tag k="name" v="Myrheim" />
		<tag k="place" v="isolated_dwelling" />
		<tag k="ssr:stedsnr" v="855423" />
	</node>
	<node id="-134302" lat="60.3401027793" lon="10.26163888">
		<tag k="alt_name" v="Halvorsbølesætra, vestre;Vestre Halvorbøleseter" />
		<tag k="historic" v="shieling" />
		<tag k="name" v="Vestre Halvorsbølesætra" />
		<tag k="place" v="locality" />
		<tag k="ssr:stedsnr" v="127622" />
	</node>
	<node id="-134095" lat="60.2862527779" lon="10.4077055485">
		<tag k="name" v="Østre Roen" />
		<tag k="place" v="farm" />
		<tag k="ssr:stedsnr" v="398178" />
	</node>
	<node id="-134146" lat="60.2488402381" lon="10.3791232637">
		<tag k="fixme" v="consider place=hamlet" />
		<tag k="name" v="Nøkleby" />
		<tag k="place" v="farm" />
		<tag k="ssr:stedsnr" v="987987" />
	</node>
	<node id="-134112" lat="60.1986861081" lon="10.5547805562">
		<tag k="historic" v="shieling" />
		<tag k="name" v="Roensetra" />
		<tag k="place" v="locality" />
		<tag k="ssr:stedsnr" v="882258" />
	</node>
	<node id="-134296" lat="60.3336583308" lon="10.2802499952">
		<tag k="alt_name" v="Kimtjennseter" />
		<tag k="historic" v="shieling" />
		<tag k="name" v="Kimetjernsætra" />
		<tag k="place" v="locality" />
		<tag k="ssr:stedsnr" v="127493" />
	</node>
	<node id="-134084" lat="60.2677805555" lon="10.4948777731">
		<tag k="alt_name" v="Østre Olimb;Olum østre;Olum;Olom" />
		<tag k="loc_name" v="Austre-Olum" />
		<tag k="name" v="Østre Olum" />
		<tag k="place" v="farm" />
		<tag k="ssr:stedsnr" v="370823" />
	</node>
	<node id="-134294" lat="60.248477774" lon="10.4589972274">
		<tag k="alt_name" v="Åserud" />
		<tag k="name" v="Åsrud" />
		<tag k="place" v="locality" />
		<tag k="ssr:stedsnr" v="127454" />
	</node>
	<node id="-134293" lat="60.2485194433" lon="10.370649994">
		<tag k="name" v="Nordhagen" />
		<tag k="place" v="quarter" />
		<tag k="ssr:stedsnr" v="127453" />
	</node>
	<node id="-134291" lat="60.2128222254" lon="10.4994055495">
		<tag k="alt_name" v="Skjennumsetra" />
		<tag k="historic" v="shieling" />
		<tag k="name" v="Skjennumsætra" />
		<tag k="place" v="locality" />
		<tag k="ssr:stedsnr" v="126486" />
	</node>
	<node id="-134288" lat="60.206683334" lon="10.4433722222">
		<tag k="historic" v="shieling" />
		<tag k="name" v="Mosætra" />
		<tag k="place" v="locality" />
		<tag k="ssr:stedsnr" v="126438" />
	</node>
	<node id="-134286" lat="60.231769445" lon="10.5341638799">
		<tag k="name" v="Trantjern" />
		<tag k="place" v="farm" />
		<tag k="ssr:stedsnr" v="126388" />
	</node>
	<node id="-134265" lat="60.2151666697" lon="10.4070333405">
		<tag k="name" v="Skollerud" />
		<tag k="place" v="locality" />
		<tag k="ssr:stedsnr" v="95884" />
	</node>
	<node id="-134795" lat="60.2379194462" lon="10.4248805544">
		<tag k="amenity" v="school" />
		<tag k="name" v="Toso skole" />
		<tag k="ssr:stedsnr" v="968143" />
	</node>
	<node id="-134282" lat="60.3284388876" lon="10.3450055543">
		<tag k="name" v="Strandberg" />
		<tag k="place" v="isolated_dwelling" />
		<tag k="ssr:stedsnr" v="119480" />
	</node>
	<node id="-134793" lat="60.2489222217" lon="10.3821777691">
		<tag k="name" v="Nedre Nøkleby" />
		<tag k="place" v="farm" />
		<tag k="ssr:stedsnr" v="968080" />
	</node>
	<node id="-134280" lat="60.2570106413" lon="10.4376578281">
		<tag k="fixme" v="consider place=hamlet" />
		<tag k="name" v="Prestegården" />
		<tag k="place" v="farm" />
		<tag k="ssr:stedsnr" v="118146" />
	</node>
	<node id="-134252" lat="60.3040444406" lon="10.4084194412">
		<tag k="alt_name" v="Jørve" />
		<tag k="name" v="Gjørve" />
		<tag k="place" v="farm" />
		<tag k="ssr:stedsnr" v="67890" />
	</node>
	<node id="-134278" lat="60.2395888856" lon="10.3675722279">
		<tag k="amenity" v="school" />
		<tag k="name" v="Jevnaker skole" />
		<tag k="ssr:stedsnr" v="113746" />
	</node>
	<node id="-134277" lat="60.2404805531" lon="10.3579250027">
		<tag k="name" v="Grane" />
		<tag k="place" v="farm" />
		<tag k="ssr:stedsnr" v="113741" />
	</node>
	<node id="-134276" lat="60.2532638883" lon="10.3471416718">
		<tag k="name" v="Midtbråtan" />
		<tag k="place" v="locality" />
		<tag k="ssr:stedsnr" v="112994" />
	</node>
	<node id="-134043" lat="60.2590789574" lon="10.4810636698">
		<tag k="fixme" v="consider place=hamlet" />
		<tag k="name" v="Gullen" />
		<tag k="place" v="farm" />
		<tag k="ssr:stedsnr" v="309761" />
	</node>
	<node id="-134270" lat="60.2821888981" lon="10.5096836832">
		<tag k="alt_name" v="Endsrud;Ensrud" />
		<tag k="fixme" v="consider place=hamlet" />
		<tag k="name" v="Prest-Ensrud" />
		<tag k="old_name" v="Præst-Ensrud;Præstensrud" />
		<tag k="place" v="farm" />
		<tag k="ssr:stedsnr" v="102845" />
	</node>
	<node id="-134781" lat="60.3113833354" lon="10.4029777789">
		<tag k="alt_name" v="Rudsbråtan" />
		<tag k="name" v="Rudsbråtån" />
		<tag k="place" v="farm" />
		<tag k="ssr:stedsnr" v="917905" />
	</node>
	<node id="-134267" lat="60.2973904121" lon="10.3378842571">
		<tag k="name" v="Falla" />
		<tag k="place" v="farm" />
		<tag k="ssr:stedsnr" v="98806" />
	</node>
	<node id="-134778" lat="60.2843472201" lon="10.4398500071">
		<tag k="name" v="Engerstykket" />
		<tag k="place" v="isolated_dwelling" />
		<tag k="ssr:stedsnr" v="916878" />
	</node>
	<node id="-134777" lat="60.2755093361" lon="10.4884374539">
		<tag k="fixme" v="consider place=hamlet" />
		<tag k="name" v="Kinge" />
		<tag k="place" v="farm" />
		<tag k="ssr:stedsnr" v="916858" />
	</node>
	<node id="-134776" lat="60.2774666646" lon="10.530141662">
		<tag k="alt_name" v="Prestlia" />
		<tag k="name" v="Lia" />
		<tag k="place" v="farm" />
		<tag k="ssr:stedsnr" v="916843" />
	</node>
	<node id="-134774" lat="60.3386666704" lon="10.3131027726">
		<tag k="historic" v="shieling" />
		<tag k="name" v="Merramyrsætra" />
		<tag k="place" v="locality" />
		<tag k="ssr:stedsnr" v="916602" />
	</node>
	<node id="-134261" lat="60.2708888874" lon="10.5129777844">
		<tag k="name" v="Nordstrand" />
		<tag k="place" v="farm" />
		<tag k="ssr:stedsnr" v="93914" />
	</node>
	<node id="-134260" lat="60.2697055578" lon="10.5144666644">
		<tag k="name" v="Myre" />
		<tag k="place" v="farm" />
		<tag k="ssr:stedsnr" v="93913" />
	</node>
	<node id="-134770" lat="60.3074499958" lon="10.3231305495">
		<tag k="alt_name" v="Sørumseter" />
		<tag k="name" v="Sørumsætra" />
		<tag k="place" v="isolated_dwelling" />
		<tag k="ssr:stedsnr" v="916523" />
	</node>
	<node id="-134256" lat="60.3084861068" lon="10.4321666612">
		<tag k="name" v="Øvre Velo" />
		<tag k="place" v="farm" />
		<tag k="ssr:stedsnr" v="90148" />
	</node>
	<node id="-134255" lat="60.3078888863" lon="10.4542027866">
		<tag k="name" v="Midtlia" />
		<tag k="place" v="locality" />
		<tag k="ssr:stedsnr" v="90145" />
	</node>
	<node id="-134253" lat="60.3340552621" lon="10.3440352245">
		<tag k="fixme" v="consider place=hamlet" />
		<tag k="name" v="Elnes" />
		<tag k="place" v="farm" />
		<tag k="ssr:stedsnr" v="67993" />
	</node>
	<node id="-134764" lat="60.3709472198" lon="10.3528222296">
		<tag k="name" v="Vik" />
		<tag k="place" v="farm" />
		<tag k="ssr:stedsnr" v="916105" />
	</node>
	<node id="-134763" lat="60.3422078837" lon="10.3561725315">
		<tag k="fixme" v="consider place=hamlet" />
		<tag k="name" v="Onsaker" />
		<tag k="place" v="farm" />
		<tag k="ssr:stedsnr" v="916036" />
	</node>
	<node id="-134250" lat="60.3039944456" lon="10.394691673">
		<tag k="name" v="Dal" />
		<tag k="place" v="farm" />
		<tag k="ssr:stedsnr" v="67875" />
	</node>
	<node id="-134249" lat="60.280927776" lon="10.4296611105">
		<tag k="alt_name" v="Skjennum, nordre" />
		<tag k="name" v="Nordre Skjennum" />
		<tag k="place" v="farm" />
		<tag k="ssr:stedsnr" v="67846" />
	</node>
	<node id="-134248" lat="60.270686872" lon="10.5259096667">
		<tag k="fixme" v="consider place=hamlet" />
		<tag k="name" v="Halvorsrud" />
		<tag k="place" v="farm" />
		<tag k="ssr:stedsnr" v="67812" />
	</node>
	<node id="-134759" lat="60.2376722204" lon="10.396658327">
		<tag k="building" v="industrial" />
		<tag k="industrial" v="factory" />
		<tag k="name" v="Hadeland Glassverk" />
		<tag k="old_name" v="Hadelands glassverk" />
		<tag k="ssr:stedsnr" v="915379" />
	</node>
	<node id="-134757" lat="60.3334444436" lon="10.3444166623">
		<tag k="name" v="Båtflaten" />
		<tag k="place" v="isolated_dwelling" />
		<tag k="ssr:stedsnr" v="908489" />
	</node>
	<node id="-134756" lat="60.2330472237" lon="10.4311333336">
		<tag k="name" v="Hauerbakken" />
		<tag k="place" v="locality" />
		<tag k="ssr:stedsnr" v="907194" />
	</node>
	<node id="-134042" lat="60.3784805587" lon="10.2391611175">
		<tag k="alt_name" v="Tyrispikkhytta" />
		<tag k="name" v="Tyrispikhytta" />
		<tag k="place" v="isolated_dwelling" />
		<tag k="ssr:stedsnr" v="309638" />
	</node>
	<node id="-134242" lat="60.2541888898" lon="10.477772228">
		<tag k="alt_name" v="Gullenbråtan" />
		<tag k="name" v="Gullenbråtån" />
		<tag k="place" v="farm" />
		<tag k="ssr:stedsnr" v="67775" />
	</node>
	<node id="-134241" lat="60.2613583364" lon="10.4274694359">
		<tag k="name" v="Skogheim" />
		<tag k="place" v="isolated_dwelling" />
		<tag k="ssr:stedsnr" v="67764" />
	</node>
	<node id="-134240" lat="60.2585421339" lon="10.4656654093">
		<tag k="fixme" v="consider place=hamlet" />
		<tag k="name" v="Røste" />
		<tag k="place" v="farm" />
		<tag k="ssr:stedsnr" v="67762" />
	</node>
	<node id="-134239" lat="60.2511277754" lon="10.3506527859">
		<tag k="alt_name" v="Jørnsbråtan" />
		<tag k="name" v="Jørnsbråtåsætra" />
		<tag k="place" v="isolated_dwelling" />
		<tag k="ssr:stedsnr" v="67753" />
	</node>
	<node id="-134750" lat="60.3054138899" lon="10.454024993">
		<tag k="name" v="Stensli" />
		<tag k="place" v="isolated_dwelling" />
		<tag k="ssr:stedsnr" v="906873" />
	</node>
	<node id="-134749" lat="60.2725805559" lon="10.498583334">
		<tag k="alt_name" v="Olimbshagan;Olimbshagen;Olimhagen;Hagan" />
		<tag k="name" v="Olumshagan" />
		<tag k="place" v="farm" />
		<tag k="ssr:stedsnr" v="906839" />
	</node>
	<node id="-134235" lat="60.2260333351" lon="10.3488055476">
		<tag k="loc_name" v="Bergemoen" />
		<tag k="name" v="Bergermoen" />
		<tag k="place" v="quarter" />
		<tag k="ssr:stedsnr" v="66447" />
	</node>
	<node id="-134234" lat="60.2224194436" lon="10.3703388922">
		<tag k="name" v="Kistefoss" />
		<tag k="place" v="farm" />
		<tag k="ssr:stedsnr" v="66445" />
	</node>
	<node id="-134232" lat="60.2455194463" lon="10.4411249974">
		<tag k="name" v="Bekkestua" />
		<tag k="place" v="locality" />
		<tag k="ssr:stedsnr" v="66363" />
	</node>
	<node id="-134741" lat="60.3080777739" lon="10.3925055503">
		<tag k="name" v="Grøndal" />
		<tag k="place" v="isolated_dwelling" />
		<tag k="ssr:stedsnr" v="856893" />
	</node>
	<node id="-134228" lat="60.262886114" lon="10.4790694499">
		<tag k="name" v="Søberg" />
		<tag k="place" v="farm" />
		<tag k="ssr:stedsnr" v="58215" />
	</node>
	<node id="-134739" lat="60.2905416655" lon="10.4534000073">
		<tag k="name" v="Elsrud" />
		<tag k="place" v="farm" />
		<tag k="ssr:stedsnr" v="856882" />
	</node>
	<node id="-134738" lat="60.2886150455" lon="10.4197762474">
		<tag k="alt_name" v="Gunstad" />
		<tag k="fixme" v="consider place=hamlet" />
		<tag k="name" v="Gunnstad" />
		<tag k="place" v="farm" />
		<tag k="ssr:stedsnr" v="856880" />
	</node>
	<node id="-134243" lat="60.2558125028" lon="10.4467677039">
		<tag k="alt_name" v="Bratval" />
		<tag k="fixme" v="consider place=hamlet" />
		<tag k="name" v="Brattval" />
		<tag k="place" v="farm" />
		<tag k="ssr:stedsnr" v="67776" />
	</node>
	<node id="-134736" lat="60.2963499991" lon="10.4145500001">
		<tag k="alt_name" v="Roenbråten" />
		<tag k="name" v="Roenbråtån" />
		<tag k="place" v="isolated_dwelling" />
		<tag k="ssr:stedsnr" v="856868" />
	</node>
	<node id="-134735" lat="60.2733463332" lon="10.4619233041">
		<tag k="fixme" v="consider place=hamlet" />
		<tag k="name" v="Kårstad" />
		<tag k="place" v="farm" />
		<tag k="ssr:stedsnr" v="856856" />
	</node>
	<node id="-134733" lat="60.2901138897" lon="10.4904361185">
		<tag k="name" v="Olerud" />
		<tag k="old_name" v="Olarud" />
		<tag k="place" v="farm" />
		<tag k="ssr:stedsnr" v="856827" />
	</node>
	<node id="-134732" lat="60.2523692632" lon="10.3802537344">
		<tag k="alt_name" v="Brørby;Brørby, s" />
		<tag k="name" v="Søndre Brørby" />
		<tag k="place" v="farm" />
		<tag k="ssr:stedsnr" v="856763" />
	</node>
	<node id="-134729" lat="60.2913166671" lon="10.3408361031">
		<tag k="name" v="Persbråtan" />
		<tag k="place" v="farm" />
		<tag k="ssr:stedsnr" v="856448" />
	</node>
	<node id="-134728" lat="60.2970936874" lon="10.33654971">
		<tag k="alt_name" v="Midt-Falla;Falla, midtre" />
		<tag k="name" v="Midtre Falla" />
		<tag k="place" v="farm" />
		<tag k="ssr:stedsnr" v="856423" />
	</node>
	<node id="-134213" lat="60.1908916709" lon="10.4601472185">
		<tag k="name" v="Stormyrhytta" />
		<tag k="place" v="isolated_dwelling" />
		<tag k="ssr:stedsnr" v="34598" />
	</node>
	<node id="-134212" lat="60.276711114" lon="10.5001638932">
		<tag k="name" v="Tronrud" />
		<tag k="place" v="farm" />
		<tag k="ssr:stedsnr" v="32958" />
	</node>
	<node id="-134210" lat="60.2573722252" lon="10.49119166">
		<tag k="name" v="Østby" />
		<tag k="place" v="farm" />
		<tag k="ssr:stedsnr" v="32934" />
	</node>
	<node id="-134208" lat="60.2227861089" lon="10.5275583404">
		<tag k="name" v="Øljehytta" />
		<tag k="place" v="isolated_dwelling" />
		<tag k="ssr:stedsnr" v="32872" />
	</node>
	<node id="-134719" lat="60.2289361286" lon="10.4154011134">
		<tag k="fixme" v="consider place=hamlet" />
		<tag k="name" v="Opperud" />
		<tag k="place" v="farm" />
		<tag k="ssr:stedsnr" v="855394" />
	</node>
	<node id="-134718" lat="60.2348222249" lon="10.4307222228">
		<tag k="name" v="Bakken" />
		<tag k="place" v="isolated_dwelling" />
		<tag k="ssr:stedsnr" v="847257" />
	</node>
	<node id="-134717" lat="60.2561194476" lon="10.4850333381">
		<tag k="name" v="Høglund" />
		<tag k="place" v="farm" />
		<tag k="ssr:stedsnr" v="847192" />
	</node>
	<node id="-134716" lat="60.2470111127" lon="10.4405027826">
		<tag k="name" v="Rønnerudstuene" />
		<tag k="place" v="isolated_dwelling" />
		<tag k="ssr:stedsnr" v="847185" />
	</node>
	<node id="-134715" lat="60.2581333336" lon="10.4556499993">
		<tag k="name" v="Bratvalshagan" />
		<tag k="place" v="farm" />
		<tag k="ssr:stedsnr" v="847181" />
	</node>
	<node id="-134714" lat="60.2371722231" lon="10.4066611079">
		<tag k="name" v="Grønland" />
		<tag k="place" v="quarter" />
		<tag k="ssr:stedsnr" v="847150" />
	</node>
	<node id="-134751" lat="60.2553555524" lon="10.3749666582">
		<tag k="name" v="Dølerud" />
		<tag k="place" v="farm" />
		<tag k="ssr:stedsnr" v="907076" />
	</node>
	<node id="-134200" lat="60.2776250025" lon="10.4346722145">
		<tag k="alt_name" v="Skjennum, s" />
		<tag k="name" v="Søndre Skjennum" />
		<tag k="place" v="farm" />
		<tag k="ssr:stedsnr" v="6842" />
	</node>
	<node id="-134711" lat="60.3054894746" lon="10.4466208208">
		<tag k="fixme" v="consider place=hamlet" />
		<tag k="name" v="Rustad" />
		<tag k="place" v="farm" />
		<tag k="ssr:stedsnr" v="845889" />
	</node>
	<node id="-134710" lat="60.2999722222" lon="10.3533722285">
		<tag k="name" v="Hamar" />
		<tag k="place" v="farm" />
		<tag k="ssr:stedsnr" v="841261" />
	</node>
	<node id="-134197" lat="60.2694888873" lon="10.4739250054">
		<tag k="name" v="Ragnhildrud" />
		<tag k="place" v="isolated_dwelling" />
		<tag k="ssr:stedsnr" v="6797" />
	</node>
	<node id="-134245" lat="60.262205554" lon="10.3476361043">
		<tag k="alt_name" v="Nøklebysætra, nedre;Nedre Nøkleby seter" />
		<tag k="name" v="Nedre Nøklebysætra" />
		<tag k="place" v="isolated_dwelling" />
		<tag k="ssr:stedsnr" v="67799" />
	</node>
	<node id="-134195" lat="60.2546166669" lon="10.5077916578">
		<tag k="alt_name" v="Slåttbråtan" />
		<tag k="historic" v="shieling" />
		<tag k="name" v="Slåttbråtån" />
		<tag k="place" v="locality" />
		<tag k="ssr:stedsnr" v="6790" />
	</node>
	<node id="-134706" lat="60.2897666681" lon="10.4283000034">
		<tag k="alt_name" v="Øvre Gunstad" />
		<tag k="name" v="Øvre Gunnstad" />
		<tag k="place" v="farm" />
		<tag k="ssr:stedsnr" v="823900" />
	</node>
	<node id="-134067" lat="60.2440083305" lon="10.4215500006">
		<tag k="building" v="industrial" />
		<tag k="industrial" v="factory" />
		<tag k="name" v="Randsfjord glassverk" />
		<tag k="ssr:stedsnr" v="361085" />
	</node>
	<node id="-134704" lat="60.2053055528" lon="10.4490000018">
		<tag k="name" v="Moseterhytta" />
		<tag k="place" v="isolated_dwelling" />
		<tag k="ssr:stedsnr" v="823645" />
	</node>
	<node id="-134702" lat="60.2740138854" lon="10.5327472161">
		<tag k="name" v="Halvorsrud" />
		<tag k="place" v="farm" />
		<tag k="ssr:stedsnr" v="821949" />
	</node>
	<node id="-134189" lat="60.3617388402" lon="10.356704086">
		<tag k="fixme" v="consider place=hamlet" />
		<tag k="name" v="Kammerud" />
		<tag k="place" v="farm" />
		<tag k="ssr:stedsnr" v="6012" />
	</node>
	<node id="-134188" lat="60.3588750007" lon="10.2874194418">
		<tag k="name" v="Langtjernshytta" />
		<tag k="place" v="isolated_dwelling" />
		<tag k="ssr:stedsnr" v="5590" />
	</node>
	<node id="-134185" lat="60.2296888907" lon="10.3682944407">
		<tag k="name" v="Samsmoen" />
		<tag k="place" v="quarter" />
		<tag k="ssr:stedsnr" v="5463" />
	</node>
	<node id="-134695" lat="60.3161555561" lon="10.4020444404">
		<tag k="name" v="Nordmarka" />
		<tag k="place" v="isolated_dwelling" />
		<tag k="ssr:stedsnr" v="795913" />
	</node>
	<node id="-134694" lat="60.2853111139" lon="10.4280972225">
		<tag k="name" v="Dokka" />
		<tag k="place" v="isolated_dwelling" />
		<tag k="ssr:stedsnr" v="795874" />
	</node>
	<node id="-134693" lat="60.2952416652" lon="10.4678277791">
		<tag k="alt_name" v="Østre Vaterud" />
		<tag k="fixme" v="multiple name tags, choose one and add the other to alt_name" />
		<tag k="name" v="Løykebråtån;Østre Hvaterud" />
		<tag k="place" v="farm" />
		<tag k="ssr:stedsnr" v="795867" />
	</node>
	<node id="-134016" lat="60.2345222259" lon="10.3582749959">
		<tag k="loc_name" v="Bergegrinda" />
		<tag k="name" v="Bergergrinda" />
		<tag k="old_name" v="Bergergrina;Bergergrinden" />
		<tag k="place" v="quarter" />
		<tag k="ssr:stedsnr" v="294755" />
	</node>
	<node id="-134269" lat="60.2822361154" lon="10.4499916629">
		<tag k="name" v="Vestenga" />
		<tag k="place" v="farm" />
		<tag k="ssr:stedsnr" v="100122" />
	</node>
	<node id="-134690" lat="60.2496554166" lon="10.4317221257">
		<tag k="alt_name" v="Kveldsrud;Kvelsrud" />
		<tag k="fixme" v="consider place=hamlet" />
		<tag k="name" v="Kvellsrud" />
		<tag k="place" v="farm" />
		<tag k="ssr:stedsnr" v="795781" />
	</node>
	<node id="-134687" lat="60.3394250043" lon="10.3456500039">
		<tag k="name" v="Granli" />
		<tag k="place" v="farm" />
		<tag k="ssr:stedsnr" v="795055" />
	</node>
	<node id="-134237" lat="60.3291463923" lon="10.3416651058">
		<tag k="alt_name" v="Skutseter" />
		<tag k="fixme" v="consider place=hamlet" />
		<tag k="name" v="Skutsæter" />
		<tag k="place" v="farm" />
		<tag k="ssr:stedsnr" v="67475" />
	</node>
	<node id="-134684" lat="60.2050861143" lon="10.5333416627">
		<tag k="alt_name" v="Sognsetra" />
		<tag k="historic" v="shieling" />
		<tag k="name" v="Sognsætra" />
		<tag k="place" v="locality" />
		<tag k="ssr:stedsnr" v="794429" />
	</node>
	<node id="-134680" lat="60.2446583338" lon="10.3761444433">
		<tag k="name" v="Randsborg" />
		<tag k="place" v="quarter" />
		<tag k="ssr:stedsnr" v="786084" />
	</node>
	<node id="-134148" lat="60.2748894693" lon="10.4060054746">
		<tag k="fixme" v="consider place=hamlet" />
		<tag k="name" v="Bjellum" />
		<tag k="place" v="farm" />
		<tag k="ssr:stedsnr" v="987989" />
	</node>
	<node id="-134677" lat="60.2932694449" lon="10.3413861082">
		<tag k="name" v="Roensbråtan" />
		<tag k="place" v="locality" />
		<tag k="ssr:stedsnr" v="780250" />
	</node>
	<node id="-134674" lat="60.2258694459" lon="10.3639999987">
		<tag k="name" v="Furumoen" />
		<tag k="place" v="quarter" />
		<tag k="ssr:stedsnr" v="779582" />
	</node>
	<node id="-134295" lat="60.3324027817" lon="10.3118027788">
		<tag k="alt_name" v="Gladbakken" />
		<tag k="name" v="Gladbakk" />
		<tag k="place" v="isolated_dwelling" />
		<tag k="ssr:stedsnr" v="127489" />
	</node>
	<node id="-134740" lat="60.3107083293" lon="10.3855833263">
		<tag k="alt_name" v="Bjertnes, nordre" />
		<tag k="name" v="Nordre Bjertnes" />
		<tag k="place" v="farm" />
		<tag k="ssr:stedsnr" v="856890" />
	</node>
	<node id="-134670" lat="60.3513999998" lon="10.3596750012">
		<tag k="name" v="Jægersborg" />
		<tag k="place" v="isolated_dwelling" />
		<tag k="ssr:stedsnr" v="765401" />
	</node>
	<node id="-134194" lat="60.2586350889" lon="10.4290155955">
		<tag k="alt_name" v="Vang, øvre" />
		<tag k="fixme" v="consider place=hamlet" />
		<tag k="name" v="Øvre Vang" />
		<tag k="place" v="farm" />
		<tag k="ssr:stedsnr" v="6779" />
	</node>
	<node id="-134056" lat="60.3054500021" lon="10.385127771">
		<tag k="building" v="industrial" />
		<tag k="name" v="Bjertnes sag" />
		<tag k="ssr:stedsnr" v="337382" />
	</node>
	<node id="-134663" lat="60.2420722228" lon="10.4178166614">
		<tag k="name" v="Toso" />
		<tag k="place" v="quarter" />
		<tag k="ssr:stedsnr" v="752926" />
	</node>
	<node id="-134662" lat="60.23180145" lon="10.5341469388">
		<tag k="alt_name" v="Trantjernet" />
		<tag k="fixme" v="consider tourism=alpine_hut or tourism=chalet" />
		<tag k="name" v="Trantjern" />
		<tag k="ssr:stedsnr" v="752545" />
		<tag k="tourism" v="wilderness_hut" />
	</node>
	<node id="-134149" lat="60.3097535238" lon="10.3842041058">
		<tag k="fixme" v="consider place=hamlet" />
		<tag k="name" v="Bjertnes" />
		<tag k="place" v="farm" />
		<tag k="ssr:stedsnr" v="988012" />
	</node>
	<node id="-134660" lat="60.3134166678" lon="10.3467361177">
		<tag k="name" v="Myrevoll" />
		<tag k="place" v="farm" />
		<tag k="ssr:stedsnr" v="734913" />
	</node>
	<node id="-134659" lat="60.2817277781" lon="10.4404944464">
		<tag k="alt_name" v="Ødegård" />
		<tag k="name" v="Øgarden" />
		<tag k="place" v="farm" />
		<tag k="ssr:stedsnr" v="734835" />
	</node>
	<node id="-134658" lat="60.2774444415" lon="10.5218638826">
		<tag k="alt_name" v="Svenskeenga" />
		<tag k="name" v="Svenskenga" />
		<tag k="place" v="farm" />
		<tag k="ssr:stedsnr" v="734830" />
	</node>
	<node id="-134657" lat="60.2667055521" lon="10.4746305531">
		<tag k="name" v="Vangli" />
		<tag k="place" v="farm" />
		<tag k="ssr:stedsnr" v="734805" />
	</node>
</osm>
