<?xml version="1.0" encoding="UTF-8"?>
<osm generator="osmapis" version="0.6">
	<node id="-134798" lat="60.2007668025" lon="10.4623410712">
		<tag k="fixme" v="consider boundary=protected_area and relevant protect_class if not nature reserve" />
		<tag k="leisure" v="nature_reserve" />
		<tag k="name" v="Langvassbrenna naturreservat" />
		<tag k="ssr:stedsnr" v="971441" />
	</node>
	<node id="-134797" lat="60.2266555532" lon="10.4582444436">
		<tag k="historic" v="shieling" />
		<tag k="name" v="Gammelsæter" />
		<tag k="place" v="locality" />
		<tag k="ssr:stedsnr" v="968430" />
	</node>
	<node id="-134796" lat="60.2436722236" lon="10.4655388929">
		<tag k="name" v="Rundhaugen" />
		<tag k="natural" v="hill" />
		<tag k="place" v="locality" />
		<tag k="ssr:stedsnr" v="968176" />
	</node>
	<node id="-134795" lat="60.2379194462" lon="10.4248805544">
		<tag k="amenity" v="school" />
		<tag k="name" v="Toso skole" />
		<tag k="ssr:stedsnr" v="968143" />
	</node>
	<node id="-134794" lat="60.2293083339" lon="10.3960138959">
		<tag k="name" v="Jordbrudalen" />
		<tag k="natural" v="valley" />
		<tag k="place" v="locality" />
		<tag k="ssr:stedsnr" v="968137" />
	</node>
	<node id="-134793" lat="60.2489222217" lon="10.3821777691">
		<tag k="name" v="Nedre Nøkleby" />
		<tag k="place" v="farm" />
		<tag k="ssr:stedsnr" v="968080" />
	</node>
	<node id="-134792" lat="60.2135444426" lon="10.4527027818">
		<tag k="alt_name" v="Branntjenn;Branntjernet" />
		<tag k="name" v="Branntjern" />
		<tag k="natural" v="water" />
		<tag k="old_name" v="Brandtjern" />
		<tag k="ssr:stedsnr" v="963534" />
	</node>
	<node id="-134791" lat="60.2338888846" lon="10.3715916594">
		<tag k="loc_name" v="Bergetjernet" />
		<tag k="name" v="Bergertjernet" />
		<tag k="natural" v="water" />
		<tag k="ssr:stedsnr" v="963440" />
	</node>
	<node id="-134790" lat="60.2678861112" lon="10.3382833363">
		<tag k="name" v="Saumyra" />
		<tag k="natural" v="wetland" />
		<tag k="ssr:stedsnr" v="962897" />
	</node>
	<node id="-134789" lat="60.2989499962" lon="10.3320416677">
		<tag k="name" v="Lortsnaret" />
		<tag k="place" v="locality" />
		<tag k="ssr:stedsnr" v="962262" />
	</node>
	<node id="-134788" lat="60.2366722205" lon="10.3518638875">
		<tag k="name" v="Styggdalen" />
		<tag k="natural" v="valley" />
		<tag k="place" v="locality" />
		<tag k="ssr:stedsnr" v="961635" />
	</node>
	<node id="-134787" lat="60.2425444446" lon="10.3152750047">
		<tag k="name" v="Skilledalen" />
		<tag k="natural" v="valley" />
		<tag k="place" v="locality" />
		<tag k="ssr:stedsnr" v="944316" />
	</node>
	<node id="-134786" lat="60.2134472209" lon="10.5186833248">
		<tag k="name" v="Oljebekken" />
		<tag k="ssr:stedsnr" v="942977" />
		<tag k="waterway" v="stream" />
	</node>
	<node id="-134785" lat="60.2071833363" lon="10.4918333321">
		<tag k="name" v="Gulborgmyra" />
		<tag k="natural" v="wetland" />
		<tag k="ssr:stedsnr" v="942950" />
	</node>
	<node id="-134784" lat="60.2773638861" lon="10.5097916688">
		<tag k="name" v="Finnerudputten" />
		<tag k="natural" v="water" />
		<tag k="ssr:stedsnr" v="942942" />
		<tag k="water" v="pond" />
	</node>
	<node id="-134783" lat="60.1896888887" lon="10.4918138902">
		<tag k="name" v="Minkmyra" />
		<tag k="natural" v="wetland" />
		<tag k="ssr:stedsnr" v="942929" />
	</node>
	<node id="-134782" lat="60.2110222208" lon="10.5372055566">
		<tag k="name" v="Spinnermyra" />
		<tag k="natural" v="wetland" />
		<tag k="ssr:stedsnr" v="942882" />
	</node>
	<node id="-134781" lat="60.3113833354" lon="10.4029777789">
		<tag k="alt_name" v="Rudsbråtan" />
		<tag k="name" v="Rudsbråtån" />
		<tag k="place" v="farm" />
		<tag k="ssr:stedsnr" v="917905" />
	</node>
	<node id="-134780" lat="60.3919805571" lon="10.2547027855">
		<tag k="name" v="Sandungen" />
		<tag k="natural" v="water" />
		<tag k="ssr:stedsnr" v="917258" />
	</node>
	<node id="-134779" lat="60.3084805595" lon="10.3440861184">
		<tag k="name" v="Volla" />
		<tag k="place" v="farm" />
		<tag k="ssr:stedsnr" v="916887" />
	</node>
	<node id="-134778" lat="60.2843472201" lon="10.4398500071">
		<tag k="name" v="Engerstykket" />
		<tag k="place" v="isolated_dwelling" />
		<tag k="ssr:stedsnr" v="916878" />
	</node>
	<node id="-134777" lat="60.2755093361" lon="10.4884374539">
		<tag k="fixme" v="consider place=hamlet" />
		<tag k="name" v="Kinge" />
		<tag k="place" v="farm" />
		<tag k="ssr:stedsnr" v="916858" />
	</node>
	<node id="-134776" lat="60.2774666646" lon="10.530141662">
		<tag k="alt_name" v="Prestlia" />
		<tag k="name" v="Lia" />
		<tag k="place" v="farm" />
		<tag k="ssr:stedsnr" v="916843" />
	</node>
	<node id="-134775" lat="60.3453250011" lon="10.2937305501">
		<tag k="name" v="Raberget" />
		<tag k="natural" v="hill" />
		<tag k="place" v="locality" />
		<tag k="ssr:stedsnr" v="916606" />
	</node>
	<node id="-134774" lat="60.3386666704" lon="10.3131027726">
		<tag k="historic" v="shieling" />
		<tag k="name" v="Merramyrsætra" />
		<tag k="place" v="locality" />
		<tag k="ssr:stedsnr" v="916602" />
	</node>
	<node id="-134773" lat="60.3405833348" lon="10.3250166683">
		<tag k="name" v="Skålmyrbekken" />
		<tag k="ssr:stedsnr" v="916601" />
		<tag k="waterway" v="stream" />
	</node>
	<node id="-134772" lat="60.3896361135" lon="10.2010916644">
		<tag k="name" v="Hadelandsbekken" />
		<tag k="ssr:stedsnr" v="916534" />
		<tag k="waterway" v="stream" />
	</node>
	<node id="-134771" lat="60.3002805527" lon="10.2974833274">
		<tag k="alt_name" v="Flekkerøymyra" />
		<tag k="name" v="Flekkrøymyra" />
		<tag k="natural" v="wetland" />
		<tag k="ssr:stedsnr" v="916526" />
	</node>
	<node id="-134770" lat="60.3074499958" lon="10.3231305495">
		<tag k="alt_name" v="Sørumseter" />
		<tag k="name" v="Sørumsætra" />
		<tag k="place" v="isolated_dwelling" />
		<tag k="ssr:stedsnr" v="916523" />
	</node>
	<node id="-134769" lat="60.3017527788" lon="10.2731333302">
		<tag k="name" v="Søndre Moltemyrtangen" />
		<tag k="natural" v="cape" />
		<tag k="ssr:stedsnr" v="916505" />
	</node>
	<node id="-134768" lat="60.3161916699" lon="10.27986944">
		<tag k="alt_name" v="Borstuvannet" />
		<tag k="name" v="Borstuvatnet" />
		<tag k="natural" v="water" />
		<tag k="ssr:stedsnr" v="916488" />
	</node>
	<node id="-134767" lat="60.1853027805" lon="10.4843833323">
		<tag k="alt_name" v="Sinnerbrenna" />
		<tag k="fixme" v="consider natural=peak for the most distinct mountains in the district" />
		<tag k="name" v="Sinderbrenna" />
		<tag k="natural" v="hill" />
		<tag k="place" v="locality" />
		<tag k="ssr:stedsnr" v="916477" />
	</node>
	<node id="-134766" lat="60.2013250012" lon="10.5677138867">
		<tag k="alt_name" v="Gjerdingskalven" />
		<tag k="name" v="Kalven" />
		<tag k="natural" v="water" />
		<tag k="ssr:stedsnr" v="916469" />
	</node>
	<node id="-134765" lat="60.2064722194" lon="10.4971055482">
		<tag k="name" v="Abrahamshaugen" />
		<tag k="natural" v="hill" />
		<tag k="place" v="locality" />
		<tag k="ssr:stedsnr" v="916468" />
	</node>
	<node id="-134764" lat="60.3709472198" lon="10.3528222296">
		<tag k="name" v="Vik" />
		<tag k="place" v="farm" />
		<tag k="ssr:stedsnr" v="916105" />
	</node>
	<node id="-134763" lat="60.3422078837" lon="10.3561725315">
		<tag k="fixme" v="consider place=hamlet" />
		<tag k="name" v="Onsaker" />
		<tag k="place" v="farm" />
		<tag k="ssr:stedsnr" v="916036" />
	</node>
	<node id="-134762" lat="60.3701805521" lon="10.2373611106">
		<tag k="name" v="Hammarlangtjernet" />
		<tag k="natural" v="water" />
		<tag k="ssr:stedsnr" v="915594" />
	</node>
	<node id="-134761" lat="60.3490305571" lon="10.2531805472">
		<tag k="name" v="Rundtjern" />
		<tag k="natural" v="water" />
		<tag k="ssr:stedsnr" v="915562" />
	</node>
	<node id="-134760" lat="60.2196210858" lon="10.5236896498">
		<tag k="name" v="Ølja" />
		<tag k="natural" v="water" />
		<tag k="ssr:stedsnr" v="915458" />
		<tag k="water" v="lake" />
	</node>
	<node id="-134759" lat="60.2376722204" lon="10.396658327">
		<tag k="building" v="industrial" />
		<tag k="industrial" v="factory" />
		<tag k="name" v="Hadeland Glassverk" />
		<tag k="old_name" v="Hadelands glassverk" />
		<tag k="ssr:stedsnr" v="915379" />
	</node>
	<node id="-134758" lat="60.3753500022" lon="10.2269861028">
		<tag k="fixme" v="consider boundary=protected_area and relevant protect_class if not nature reserve" />
		<tag k="leisure" v="nature_reserve" />
		<tag k="name" v="Samsjøberga naturreservat" />
		<tag k="ssr:stedsnr" v="909485" />
	</node>
	<node id="-134757" lat="60.3334444436" lon="10.3444166623">
		<tag k="name" v="Båtflaten" />
		<tag k="place" v="isolated_dwelling" />
		<tag k="ssr:stedsnr" v="908489" />
	</node>
	<node id="-134756" lat="60.2330472237" lon="10.4311333336">
		<tag k="name" v="Hauerbakken" />
		<tag k="place" v="locality" />
		<tag k="ssr:stedsnr" v="907194" />
	</node>
	<node id="-134755" lat="60.2597583369" lon="10.46629444">
		<tag k="name" v="Brennaelva" />
		<tag k="ssr:stedsnr" v="907162" />
		<tag k="waterway" v="river" />
	</node>
	<node id="-134754" lat="60.246074997" lon="10.4821583337">
		<tag k="name" v="Kolhus" />
		<tag k="place" v="locality" />
		<tag k="ssr:stedsnr" v="907153" />
	</node>
	<node id="-134753" lat="60.2256472221" lon="10.4034388898">
		<tag k="name" v="Hesjebråtalia" />
		<tag k="natural" v="slope" />
		<tag k="place" v="locality" />
		<tag k="ssr:stedsnr" v="907150" />
	</node>
	<node id="-134752" lat="60.2381555544" lon="10.4087805543">
		<tag k="landuse" v="meadow" />
		<tag k="name" v="Stampeenga" />
		<tag k="ssr:stedsnr" v="907131" />
	</node>
	<node id="-134751" lat="60.2553555524" lon="10.3749666582">
		<tag k="name" v="Dølerud" />
		<tag k="place" v="farm" />
		<tag k="ssr:stedsnr" v="907076" />
	</node>
	<node id="-134750" lat="60.3054138899" lon="10.454024993">
		<tag k="name" v="Stensli" />
		<tag k="place" v="isolated_dwelling" />
		<tag k="ssr:stedsnr" v="906873" />
	</node>
	<node id="-134749" lat="60.2725805559" lon="10.498583334">
		<tag k="alt_name" v="Olimbshagan;Olimbshagen;Olimhagen;Hagan" />
		<tag k="name" v="Olumshagan" />
		<tag k="place" v="farm" />
		<tag k="ssr:stedsnr" v="906839" />
	</node>
	<node id="-134748" lat="60.3565333359" lon="10.2302111139">
		<tag k="name" v="Fosshøgget" />
		<tag k="natural" v="hill" />
		<tag k="place" v="locality" />
		<tag k="ssr:stedsnr" v="906242" />
	</node>
	<node id="-134747" lat="60.367513888" lon="10.3146055505">
		<tag k="name" v="Smaltarmen" />
		<tag k="natural" v="water" />
		<tag k="ssr:stedsnr" v="901441" />
	</node>
	<node id="-134746" lat="60.3722861115" lon="10.2099250086">
		<tag k="fixme" v="consider natural=peak for the most distinct mountains in the district" />
		<tag k="name" v="Søndre Klæstad" />
		<tag k="natural" v="hill" />
		<tag k="place" v="locality" />
		<tag k="ssr:stedsnr" v="901373" />
	</node>
	<node id="-134745" lat="60.3045305568" lon="10.3372027862">
		<tag k="name" v="Gransberget" />
		<tag k="natural" v="hill" />
		<tag k="place" v="locality" />
		<tag k="ssr:stedsnr" v="901263" />
	</node>
	<node id="-134744" lat="60.2893000016" lon="10.3502916668">
		<tag k="name" v="Larsbråtan" />
		<tag k="place" v="locality" />
		<tag k="ssr:stedsnr" v="901228" />
	</node>
	<node id="-134743" lat="60.2858194434" lon="10.4057916601">
		<tag k="name" v="Roenland" />
		<tag k="ssr:stedsnr" v="874231" />
		<tag k="tourism" v="museum" />
	</node>
	<node id="-134742" lat="60.3347444444" lon="10.3526388799">
		<tag k="name" v="Solviktangen" />
		<tag k="natural" v="cape" />
		<tag k="ssr:stedsnr" v="856996" />
	</node>
	<node id="-134741" lat="60.3080777739" lon="10.3925055503">
		<tag k="name" v="Grøndal" />
		<tag k="place" v="isolated_dwelling" />
		<tag k="ssr:stedsnr" v="856893" />
	</node>
	<node id="-134740" lat="60.3107083293" lon="10.3855833263">
		<tag k="alt_name" v="Bjertnes, nordre" />
		<tag k="name" v="Nordre Bjertnes" />
		<tag k="place" v="farm" />
		<tag k="ssr:stedsnr" v="856890" />
	</node>
	<node id="-134739" lat="60.2905416655" lon="10.4534000073">
		<tag k="name" v="Elsrud" />
		<tag k="place" v="farm" />
		<tag k="ssr:stedsnr" v="856882" />
	</node>
	<node id="-134738" lat="60.2886150455" lon="10.4197762474">
		<tag k="alt_name" v="Gunstad" />
		<tag k="fixme" v="consider place=hamlet" />
		<tag k="name" v="Gunnstad" />
		<tag k="place" v="farm" />
		<tag k="ssr:stedsnr" v="856880" />
	</node>
	<node id="-134737" lat="60.2860361124" lon="10.3527777762">
		<tag k="alt_name" v="Nordåsen;Åsen, nordre" />
		<tag k="name" v="Nordre Åsen" />
		<tag k="place" v="farm" />
		<tag k="ssr:stedsnr" v="856876" />
	</node>
	<node id="-134736" lat="60.2963499991" lon="10.4145500001">
		<tag k="alt_name" v="Roenbråten" />
		<tag k="name" v="Roenbråtån" />
		<tag k="place" v="isolated_dwelling" />
		<tag k="ssr:stedsnr" v="856868" />
	</node>
	<node id="-134735" lat="60.2733463332" lon="10.4619233041">
		<tag k="fixme" v="consider place=hamlet" />
		<tag k="name" v="Kårstad" />
		<tag k="place" v="farm" />
		<tag k="ssr:stedsnr" v="856856" />
	</node>
	<node id="-134734" lat="60.2753833299" lon="10.403249996">
		<tag k="name" v="Bjellumstangen" />
		<tag k="natural" v="cape" />
		<tag k="ssr:stedsnr" v="856849" />
	</node>
	<node id="-134733" lat="60.2901138897" lon="10.4904361185">
		<tag k="name" v="Olerud" />
		<tag k="old_name" v="Olarud" />
		<tag k="place" v="farm" />
		<tag k="ssr:stedsnr" v="856827" />
	</node>
	<node id="-134732" lat="60.2523692632" lon="10.3802537344">
		<tag k="alt_name" v="Brørby;Brørby, s" />
		<tag k="name" v="Søndre Brørby" />
		<tag k="place" v="farm" />
		<tag k="ssr:stedsnr" v="856763" />
	</node>
	<node id="-134731" lat="60.3119666684" lon="10.3985555606">
		<tag k="name" v="Svartbekken" />
		<tag k="ssr:stedsnr" v="856682" />
		<tag k="waterway" v="stream" />
	</node>
	<node id="-134730" lat="60.3382750008" lon="10.2735777772">
		<tag k="alt_name" v="Tangnesbekken" />
		<tag k="name" v="Midtskogbekken" />
		<tag k="ssr:stedsnr" v="856523" />
		<tag k="waterway" v="stream" />
	</node>
	<node id="-134729" lat="60.2913166671" lon="10.3408361031">
		<tag k="name" v="Persbråtan" />
		<tag k="place" v="farm" />
		<tag k="ssr:stedsnr" v="856448" />
	</node>
	<node id="-134728" lat="60.2970936874" lon="10.33654971">
		<tag k="alt_name" v="Midt-Falla;Falla, midtre" />
		<tag k="name" v="Midtre Falla" />
		<tag k="place" v="farm" />
		<tag k="ssr:stedsnr" v="856423" />
	</node>
	<node id="-134727" lat="60.3921500019" lon="10.2632333259">
		<tag k="name" v="Bergevatnet" />
		<tag k="natural" v="water" />
		<tag k="ssr:stedsnr" v="856314" />
	</node>
	<node id="-134726" lat="60.2474222237" lon="10.3202694367">
		<tag k="alt_name" v="Knipetjernet" />
		<tag k="name" v="Knipetjern" />
		<tag k="natural" v="water" />
		<tag k="ssr:stedsnr" v="855993" />
	</node>
	<node id="-134725" lat="60.3696972197" lon="10.2497305524">
		<tag k="name" v="Ormetjern" />
		<tag k="natural" v="water" />
		<tag k="ssr:stedsnr" v="855627" />
	</node>
	<node id="-134724" lat="60.3565111077" lon="10.3057916718">
		<tag k="name" v="Kjørsletjern" />
		<tag k="natural" v="water" />
		<tag k="ssr:stedsnr" v="855610" />
	</node>
	<node id="-134723" lat="60.3637055542" lon="10.3202027833">
		<tag k="name" v="Hutjern" />
		<tag k="natural" v="water" />
		<tag k="ssr:stedsnr" v="855609" />
	</node>
	<node id="-134722" lat="60.3547472202" lon="10.2796027715">
		<tag k="fixme" v="consider natural=peak for the most distinct mountains in the district" />
		<tag k="name" v="Kjerringåsen" />
		<tag k="natural" v="hill" />
		<tag k="place" v="locality" />
		<tag k="ssr:stedsnr" v="855594" />
	</node>
	<node id="-134721" lat="60.3909833296" lon="10.2267694391">
		<tag k="alt_name" v="Kubruputta" />
		<tag k="name" v="Kubruputtane" />
		<tag k="natural" v="water" />
		<tag k="ssr:stedsnr" v="855489" />
	</node>
	<node id="-134720" lat="60.2072972241" lon="10.4848722165">
		<tag k="name" v="Myrheim" />
		<tag k="place" v="isolated_dwelling" />
		<tag k="ssr:stedsnr" v="855423" />
	</node>
	<node id="-134719" lat="60.2289361286" lon="10.4154011134">
		<tag k="fixme" v="consider place=hamlet" />
		<tag k="name" v="Opperud" />
		<tag k="place" v="farm" />
		<tag k="ssr:stedsnr" v="855394" />
	</node>
	<node id="-134718" lat="60.2348222249" lon="10.4307222228">
		<tag k="name" v="Bakken" />
		<tag k="place" v="isolated_dwelling" />
		<tag k="ssr:stedsnr" v="847257" />
	</node>
	<node id="-134717" lat="60.2561194476" lon="10.4850333381">
		<tag k="name" v="Høglund" />
		<tag k="place" v="farm" />
		<tag k="ssr:stedsnr" v="847192" />
	</node>
	<node id="-134716" lat="60.2470111127" lon="10.4405027826">
		<tag k="name" v="Rønnerudstuene" />
		<tag k="place" v="isolated_dwelling" />
		<tag k="ssr:stedsnr" v="847185" />
	</node>
	<node id="-134715" lat="60.2581333336" lon="10.4556499993">
		<tag k="name" v="Bratvalshagan" />
		<tag k="place" v="farm" />
		<tag k="ssr:stedsnr" v="847181" />
	</node>
	<node id="-134714" lat="60.2371722231" lon="10.4066611079">
		<tag k="name" v="Grønland" />
		<tag k="place" v="quarter" />
		<tag k="ssr:stedsnr" v="847150" />
	</node>
	<node id="-134713" lat="60.2305861096" lon="10.3880694425">
		<tag k="name" v="Mosmoen" />
		<tag k="place" v="locality" />
		<tag k="ssr:stedsnr" v="847144" />
	</node>
	<node id="-134712" lat="60.2432472262" lon="10.4027666691">
		<tag k="name" v="Haugerlandet" />
		<tag k="natural" v="cape" />
		<tag k="ssr:stedsnr" v="847096" />
	</node>
	<node id="-134711" lat="60.3054894746" lon="10.4466208208">
		<tag k="fixme" v="consider place=hamlet" />
		<tag k="name" v="Rustad" />
		<tag k="place" v="farm" />
		<tag k="ssr:stedsnr" v="845889" />
	</node>
	<node id="-134710" lat="60.2999722222" lon="10.3533722285">
		<tag k="name" v="Hamar" />
		<tag k="place" v="farm" />
		<tag k="ssr:stedsnr" v="841261" />
	</node>
	<node id="-134709" lat="60.3725666671" lon="10.2727972278">
		<tag k="name" v="Østre Auremyrbekken" />
		<tag k="ssr:stedsnr" v="840457" />
		<tag k="waterway" v="stream" />
	</node>
	<node id="-134708" lat="60.3718388902" lon="10.2614444446">
		<tag k="name" v="Vestre Auremyrbekken" />
		<tag k="ssr:stedsnr" v="840453" />
		<tag k="waterway" v="stream" />
	</node>
	<node id="-134707" lat="60.2674388907" lon="10.499997219">
		<tag k="alt_name" v="Olimb" />
		<tag k="bridge" v="yes" />
		<tag k="layer" v="1" />
		<tag k="name" v="Olum" />
		<tag k="ssr:stedsnr" v="835058" />
	</node>
	<node id="-134706" lat="60.2897666681" lon="10.4283000034">
		<tag k="alt_name" v="Øvre Gunstad" />
		<tag k="name" v="Øvre Gunnstad" />
		<tag k="place" v="farm" />
		<tag k="ssr:stedsnr" v="823900" />
	</node>
	<node id="-134705" lat="60.2138861141" lon="10.4321722224">
		<tag k="name" v="Sagfossletta" />
		<tag k="place" v="locality" />
		<tag k="ssr:stedsnr" v="823649" />
	</node>
	<node id="-134704" lat="60.2053055528" lon="10.4490000018">
		<tag k="name" v="Moseterhytta" />
		<tag k="place" v="isolated_dwelling" />
		<tag k="ssr:stedsnr" v="823645" />
	</node>
	<node id="-134703" lat="60.2052500036" lon="10.4760499963">
		<tag k="name" v="Seksputtmyrene" />
		<tag k="natural" v="wetland" />
		<tag k="ssr:stedsnr" v="823611" />
	</node>
	<node id="-134702" lat="60.2740138854" lon="10.5327472161">
		<tag k="name" v="Halvorsrud" />
		<tag k="place" v="farm" />
		<tag k="ssr:stedsnr" v="821949" />
	</node>
	<node id="-134701" lat="60.2745388923" lon="10.5115805588">
		<tag k="name" v="Liesmarka" />
		<tag k="place" v="locality" />
		<tag k="ssr:stedsnr" v="821935" />
	</node>
	<node id="-134700" lat="60.2553500011" lon="10.4950527741">
		<tag k="name" v="Torvet" />
		<tag k="place" v="locality" />
		<tag k="ssr:stedsnr" v="821928" />
	</node>
	<node id="-134699" lat="60.1776749975" lon="10.5164361044">
		<tag k="name" v="Pershusøya" />
		<tag k="place" v="island" />
		<tag k="ssr:stedsnr" v="821920" />
	</node>
	<node id="-134698" lat="60.240869448" lon="10.5085861043">
		<tag k="name" v="Slettdalen" />
		<tag k="natural" v="valley" />
		<tag k="place" v="locality" />
		<tag k="ssr:stedsnr" v="821883" />
	</node>
	<node id="-134697" lat="60.1749888867" lon="10.5586666752">
		<tag k="fixme" v="consider natural=peak for the most distinct mountains in the district" />
		<tag k="name" v="Fyllingsmana" />
		<tag k="natural" v="hill" />
		<tag k="place" v="locality" />
		<tag k="ssr:stedsnr" v="821866" />
	</node>
	<node id="-134696" lat="60.3162722206" lon="10.3846722239">
		<tag k="name" v="Bjertnesbråtan" />
		<tag k="natural" v="slope" />
		<tag k="place" v="locality" />
		<tag k="ssr:stedsnr" v="818677" />
	</node>
	<node id="-134695" lat="60.3161555561" lon="10.4020444404">
		<tag k="name" v="Nordmarka" />
		<tag k="place" v="isolated_dwelling" />
		<tag k="ssr:stedsnr" v="795913" />
	</node>
	<node id="-134694" lat="60.2853111139" lon="10.4280972225">
		<tag k="name" v="Dokka" />
		<tag k="place" v="isolated_dwelling" />
		<tag k="ssr:stedsnr" v="795874" />
	</node>
	<node id="-134693" lat="60.2952416652" lon="10.4678277791">
		<tag k="alt_name" v="Østre Vaterud" />
		<tag k="fixme" v="multiple name tags, choose one and add the other to alt_name" />
		<tag k="name" v="Løykebråtån;Østre Hvaterud" />
		<tag k="place" v="farm" />
		<tag k="ssr:stedsnr" v="795867" />
	</node>
	<node id="-134692" lat="60.2879410053" lon="10.4725345918">
		<tag k="name" v="Galtedalstjerna" />
		<tag k="natural" v="water" />
		<tag k="ssr:stedsnr" v="795825" />
		<tag k="water" v="lake" />
	</node>
	<node id="-134691" lat="60.2647305516" lon="10.5115555586">
		<tag k="alt_name" v="Langli" />
		<tag k="name" v="Langlia" />
		<tag k="place" v="farm" />
		<tag k="ssr:stedsnr" v="795808" />
	</node>
	<node id="-134690" lat="60.2496554166" lon="10.4317221257">
		<tag k="alt_name" v="Kveldsrud;Kvelsrud" />
		<tag k="fixme" v="consider place=hamlet" />
		<tag k="name" v="Kvellsrud" />
		<tag k="place" v="farm" />
		<tag k="ssr:stedsnr" v="795781" />
	</node>
	<node id="-134689" lat="60.2946364466" lon="10.2896785443">
		<tag k="name" v="Kalven" />
		<tag k="natural" v="water" />
		<tag k="ssr:stedsnr" v="795436" />
		<tag k="water" v="lake" />
	</node>
	<node id="-134688" lat="60.2955361119" lon="10.3193527786">
		<tag k="name" v="Stormyra" />
		<tag k="natural" v="wetland" />
		<tag k="ssr:stedsnr" v="795435" />
	</node>
	<node id="-134687" lat="60.3394250043" lon="10.3456500039">
		<tag k="name" v="Granli" />
		<tag k="place" v="farm" />
		<tag k="ssr:stedsnr" v="795055" />
	</node>
	<node id="-134686" lat="60.3627694469" lon="10.2923388808">
		<tag k="fixme" v="consider natural=peak for the most distinct mountains in the district" />
		<tag k="name" v="Riggesteinhøgda" />
		<tag k="natural" v="hill" />
		<tag k="place" v="locality" />
		<tag k="ssr:stedsnr" v="794601" />
	</node>
	<node id="-134685" lat="60.21481111" lon="10.5444166585">
		<tag k="alt_name" v="Kolleren" />
		<tag k="fixme" v="consider natural=peak for the most distinct mountains in the district" />
		<tag k="name" v="Kollern" />
		<tag k="natural" v="hill" />
		<tag k="place" v="locality" />
		<tag k="ssr:stedsnr" v="794472" />
	</node>
	<node id="-134684" lat="60.2050861143" lon="10.5333416627">
		<tag k="alt_name" v="Sognsetra" />
		<tag k="historic" v="shieling" />
		<tag k="name" v="Sognsætra" />
		<tag k="place" v="locality" />
		<tag k="ssr:stedsnr" v="794429" />
	</node>
	<node id="-134683" lat="60.1824361076" lon="10.5503027771">
		<tag k="alt_name" v="Grasdalstjernet" />
		<tag k="name" v="Grasdalsputten" />
		<tag k="natural" v="water" />
		<tag k="ssr:stedsnr" v="794040" />
	</node>
	<node id="-134682" lat="60.225738885" lon="10.4639805564">
		<tag k="name" v="Tysklandshaugen" />
		<tag k="natural" v="hill" />
		<tag k="place" v="locality" />
		<tag k="ssr:stedsnr" v="786533" />
	</node>
	<node id="-134681" lat="60.2548305595" lon="10.4675749937">
		<tag k="name" v="Røstemarka" />
		<tag k="place" v="locality" />
		<tag k="ssr:stedsnr" v="786162" />
	</node>
	<node id="-134680" lat="60.2446583338" lon="10.3761444433">
		<tag k="name" v="Randsborg" />
		<tag k="place" v="quarter" />
		<tag k="ssr:stedsnr" v="786084" />
	</node>
	<node id="-134679" lat="60.2442750005" lon="10.3808805513">
		<tag k="name" v="Randsfjord stasjon" />
		<tag k="railway" v="station" />
		<tag k="ssr:stedsnr" v="786082" />
		<tag k="train" v="yes" />
	</node>
	<node id="-134678" lat="60.2296166665" lon="10.5100666698">
		<tag k="alt_name" v="Puttmyrane" />
		<tag k="name" v="Puttmyrene" />
		<tag k="natural" v="wetland" />
		<tag k="ssr:stedsnr" v="781473" />
	</node>
	<node id="-134677" lat="60.2932694449" lon="10.3413861082">
		<tag k="name" v="Roensbråtan" />
		<tag k="place" v="locality" />
		<tag k="ssr:stedsnr" v="780250" />
	</node>
	<node id="-134676" lat="60.2478722209" lon="10.3393333391">
		<tag k="name" v="Klebersteinsfjellet" />
		<tag k="place" v="locality" />
		<tag k="ssr:stedsnr" v="779996" />
	</node>
	<node id="-134675" lat="60.236474997" lon="10.3438166621">
		<tag k="name" v="Midtbråten" />
		<tag k="place" v="locality" />
		<tag k="ssr:stedsnr" v="779619" />
	</node>
	<node id="-134674" lat="60.2258694459" lon="10.3639999987">
		<tag k="name" v="Furumoen" />
		<tag k="place" v="quarter" />
		<tag k="ssr:stedsnr" v="779582" />
	</node>
	<node id="-134673" lat="60.2352861112" lon="10.3632555584">
		<tag k="bridge" v="yes" />
		<tag k="layer" v="1" />
		<tag k="name" v="Bergergrinda" />
		<tag k="ssr:stedsnr" v="774079" />
	</node>
	<node id="-134672" lat="60.2287805561" lon="10.3567249985">
		<tag k="bridge" v="yes" />
		<tag k="layer" v="1" />
		<tag k="name" v="Samsmoen" />
		<tag k="ssr:stedsnr" v="774074" />
	</node>
	<node id="-134671" lat="60.2368861075" lon="10.3797055503">
		<tag k="bridge" v="yes" />
		<tag k="layer" v="1" />
		<tag k="name" v="Moløkkavegen" />
		<tag k="ssr:stedsnr" v="774071" />
	</node>
	<node id="-134670" lat="60.3513999998" lon="10.3596750012">
		<tag k="name" v="Jægersborg" />
		<tag k="place" v="isolated_dwelling" />
		<tag k="ssr:stedsnr" v="765401" />
	</node>
	<node id="-134669" lat="60.2152722215" lon="10.5338611175">
		<tag k="name" v="Kastet" />
		<tag k="place" v="locality" />
		<tag k="ssr:stedsnr" v="760977" />
	</node>
	<node id="-134668" lat="60.2766111114" lon="10.5286472146">
		<tag k="name" v="Liaputten" />
		<tag k="natural" v="water" />
		<tag k="ssr:stedsnr" v="760957" />
		<tag k="water" v="pond" />
	</node>
	<node id="-134667" lat="60.2605583364" lon="10.4911333393">
		<tag k="name" v="Myrskogen" />
		<tag k="place" v="locality" />
		<tag k="ssr:stedsnr" v="760926" />
	</node>
	<node id="-134666" lat="60.2480472186" lon="10.5072388915">
		<tag k="name" v="Lushattdalen" />
		<tag k="natural" v="valley" />
		<tag k="place" v="locality" />
		<tag k="ssr:stedsnr" v="760915" />
	</node>
	<node id="-134665" lat="60.1747055538" lon="10.5005111121">
		<tag k="fixme" v="consider natural=peak for the most distinct mountains in the district" />
		<tag k="name" v="Finnstadbrenna" />
		<tag k="natural" v="hill" />
		<tag k="place" v="locality" />
		<tag k="ssr:stedsnr" v="760883" />
	</node>
	<node id="-134663" lat="60.2420722228" lon="10.4178166614">
		<tag k="name" v="Toso" />
		<tag k="place" v="quarter" />
		<tag k="ssr:stedsnr" v="752926" />
	</node>
	<node id="-134662" lat="60.23180145" lon="10.5341469388">
		<tag k="alt_name" v="Trantjernet" />
		<tag k="fixme" v="consider tourism=alpine_hut or tourism=chalet" />
		<tag k="name" v="Trantjern" />
		<tag k="ssr:stedsnr" v="752545" />
		<tag k="tourism" v="wilderness_hut" />
	</node>
	<node id="-134661" lat="60.31342222" lon="10.4319055526">
		<tag k="alt_name" v="Velotoppen" />
		<tag k="fixme" v="consider natural=peak for the most distinct mountains in the district" />
		<tag k="name" v="Velohøgda" />
		<tag k="natural" v="hill" />
		<tag k="place" v="locality" />
		<tag k="ssr:stedsnr" v="734927" />
	</node>
	<node id="-134660" lat="60.3134166678" lon="10.3467361177">
		<tag k="name" v="Myrevoll" />
		<tag k="place" v="farm" />
		<tag k="ssr:stedsnr" v="734913" />
	</node>
	<node id="-134659" lat="60.2817277781" lon="10.4404944464">
		<tag k="alt_name" v="Ødegård" />
		<tag k="name" v="Øgarden" />
		<tag k="place" v="farm" />
		<tag k="ssr:stedsnr" v="734835" />
	</node>
	<node id="-134658" lat="60.2774444415" lon="10.5218638826">
		<tag k="alt_name" v="Svenskeenga" />
		<tag k="name" v="Svenskenga" />
		<tag k="place" v="farm" />
		<tag k="ssr:stedsnr" v="734830" />
	</node>
	<node id="-134657" lat="60.2667055521" lon="10.4746305531">
		<tag k="name" v="Vangli" />
		<tag k="place" v="farm" />
		<tag k="ssr:stedsnr" v="734805" />
	</node>
	<node id="-134656" lat="60.2632166703" lon="10.3836055568">
		<tag k="name" v="Nordbytangen" />
		<tag k="natural" v="cape" />
		<tag k="ssr:stedsnr" v="734797" />
	</node>
	<node id="-134655" lat="60.3434083345" lon="10.3395694448">
		<tag k="name" v="Svartbekken" />
		<tag k="ssr:stedsnr" v="734619" />
		<tag k="waterway" v="stream" />
	</node>
	<node id="-134654" lat="60.3855833371" lon="10.2634138885">
		<tag k="alt_name" v="Auretjernsputten, østre" />
		<tag k="name" v="Østre Auretjernsputten" />
		<tag k="natural" v="water" />
		<tag k="ssr:stedsnr" v="734564" />
	</node>
	<node id="-134653" lat="60.3847166684" lon="10.2359138964">
		<tag k="alt_name" v="Buvatnseter" />
		<tag k="historic" v="shieling" />
		<tag k="name" v="Buvatnsætra" />
		<tag k="place" v="locality" />
		<tag k="ssr:stedsnr" v="734563" />
	</node>
	<node id="-134652" lat="60.3147000025" lon="10.2990861039">
		<tag k="alt_name" v="Kløyvtjennsbekken" />
		<tag k="name" v="Kløvtjernsbekken" />
		<tag k="ssr:stedsnr" v="734530" />
		<tag k="waterway" v="stream" />
	</node>
	<node id="-134651" lat="60.2005360982" lon="10.4668632823">
		<tag k="fixme" v="consider natural=peak for the most distinct mountains in the district" />
		<tag k="name" v="Langvassbrenna" />
		<tag k="natural" v="hill" />
		<tag k="place" v="locality" />
		<tag k="ssr:stedsnr" v="734489" />
	</node>
	<node id="-134650" lat="60.260755555" lon="10.3257777829">
		<tag k="alt_name" v="Jokumstjernt" />
		<tag k="name" v="Jokumstjern" />
		<tag k="natural" v="water" />
		<tag k="ssr:stedsnr" v="734364" />
	</node>
	<node id="-134649" lat="60.3583749995" lon="10.2328694477">
		<tag k="name" v="Lomtjern" />
		<tag k="natural" v="water" />
		<tag k="ssr:stedsnr" v="733569" />
	</node>
	<node id="-134648" lat="60.2238444405" lon="10.3870250069">
		<tag k="name" v="Kleggerud" />
		<tag k="place" v="farm" />
		<tag k="ssr:stedsnr" v="733440" />
	</node>
	<node id="-134647" lat="60.2191805572" lon="10.4238861109">
		<tag k="name" v="Moselva" />
		<tag k="ssr:stedsnr" v="733441" />
		<tag k="waterway" v="stream" />
	</node>
	<node id="-134646" lat="60.2224555536" lon="10.5296166589">
		<tag k="alt_name" v="Torvmyra" />
		<tag k="name" v="Stavangermyra" />
		<tag k="natural" v="wetland" />
		<tag k="ssr:stedsnr" v="733436" />
	</node>
	<node id="-134645" lat="60.2397916636" lon="10.387086119">
		<tag k="name" v="Jevnaker" />
		<tag k="place" v="village" />
		<tag k="ssr:stedsnr" v="733380" />
	</node>
	<node id="-134644" lat="60.244295404" lon="10.4336908129">
		<tag k="fixme" v="consider place=hamlet" />
		<tag k="name" v="Rønnerud" />
		<tag k="place" v="farm" />
		<tag k="ssr:stedsnr" v="733356" />
	</node>
	<node id="-134643" lat="60.1851361109" lon="10.5066222133">
		<tag k="fixme" v="consider natural=peak for the most distinct mountains in the district" />
		<tag k="name" v="Pershusfjellet" />
		<tag k="natural" v="hill" />
		<tag k="place" v="locality" />
		<tag k="ssr:stedsnr" v="733069" />
	</node>
	<node id="-134642" lat="60.1941361122" lon="10.4996222138">
		<tag k="alt_name" v="Sinnerdalen" />
		<tag k="name" v="Sinderdalen" />
		<tag k="natural" v="valley" />
		<tag k="place" v="locality" />
		<tag k="ssr:stedsnr" v="733067" />
	</node>
	<node id="-134641" lat="60.3436222203" lon="10.3609972206">
		<tag k="name" v="Onsaker teglverk" />
		<tag k="place" v="locality" />
		<tag k="ssr:stedsnr" v="725673" />
	</node>
	<node id="-134640" lat="60.2413694432" lon="10.4010972135">
		<tag k="name" v="Thorbjørnrud Hotell" />
		<tag k="old_name" v="Torbjørnrud hotell" />
		<tag k="ssr:stedsnr" v="725072" />
		<tag k="tourism" v="hotel" />
	</node>
	<node id="-134639" lat="60.269744444" lon="10.4857416584">
		<tag k="alt_name" v="Midtre Olimb" />
		<tag k="loc_name" v="Austgarden" />
		<tag k="name" v="Midtre Olum" />
		<tag k="old_name" v="Olum mellem" />
		<tag k="place" v="farm" />
		<tag k="ssr:stedsnr" v="722933" />
	</node>
	<node id="-134638" lat="60.2516888863" lon="10.3151527726">
		<tag k="alt_name" v="Buttentjennshaugen" />
		<tag k="name" v="Buttentjernshaugen" />
		<tag k="natural" v="hill" />
		<tag k="place" v="locality" />
		<tag k="ssr:stedsnr" v="719873" />
	</node>
	<node id="-134637" lat="60.233336111" lon="10.3427861078">
		<tag k="name" v="Håvardsbråtadalen" />
		<tag k="natural" v="valley" />
		<tag k="place" v="locality" />
		<tag k="ssr:stedsnr" v="719590" />
	</node>
	<node id="-134636" lat="60.2270777762" lon="10.3388527735">
		<tag k="name" v="Skarflågan" />
		<tag k="natural" v="water" />
		<tag k="ssr:stedsnr" v="719587" />
	</node>
	<node id="-134635" lat="60.2259861086" lon="10.3436472307">
		<tag k="name" v="Hansedokka" />
		<tag k="place" v="locality" />
		<tag k="ssr:stedsnr" v="719542" />
	</node>
	<node id="-134634" lat="60.299091668" lon="10.3138305567">
		<tag k="name" v="Gulberget" />
		<tag k="natural" v="hill" />
		<tag k="place" v="locality" />
		<tag k="ssr:stedsnr" v="719264" />
	</node>
	<node id="-134633" lat="60.2873166696" lon="10.3501694376">
		<tag k="name" v="Sandbakken" />
		<tag k="natural" v="slope" />
		<tag k="place" v="locality" />
		<tag k="ssr:stedsnr" v="719255" />
	</node>
	<node id="-134632" lat="60.2332027794" lon="10.3597166632">
		<tag k="bridge" v="yes" />
		<tag k="layer" v="1" />
		<tag k="name" v="Bergermoen" />
		<tag k="ssr:stedsnr" v="714066" />
	</node>
	<node id="-134631" lat="60.300716664" lon="10.4457777806">
		<tag k="bridge" v="yes" />
		<tag k="layer" v="1" />
		<tag k="name" v="Velofoss" />
		<tag k="ssr:stedsnr" v="714060" />
	</node>
	<node id="-134630" lat="60.3099472183" lon="10.3331972146">
		<tag k="fixme" v="consider natural=peak for the most distinct mountains in the district" />
		<tag k="name" v="Myremarka" />
		<tag k="natural" v="hill" />
		<tag k="place" v="locality" />
		<tag k="ssr:stedsnr" v="705855" />
	</node>
	<node id="-134629" lat="60.2188444402" lon="10.4646555465">
		<tag k="name" v="Fossen" />
		<tag k="natural" v="waterfall" />
		<tag k="ssr:stedsnr" v="701734" />
	</node>
	<node id="-134628" lat="60.2902944437" lon="10.407927778">
		<tag k="name" v="Roen" />
		<tag k="place" v="farm" />
		<tag k="ssr:stedsnr" v="701489" />
	</node>
	<node id="-134627" lat="60.273350001" lon="10.3104833284">
		<tag k="name" v="Nyseter" />
		<tag k="place" v="locality" />
		<tag k="ssr:stedsnr" v="701342" />
	</node>
	<node id="-134626" lat="60.213111115" lon="10.5051388828">
		<tag k="alt_name" v="Svarttjennsbekken" />
		<tag k="name" v="Svarttjernsbekken" />
		<tag k="ssr:stedsnr" v="699960" />
		<tag k="waterway" v="stream" />
	</node>
	<node id="-134625" lat="60.3086027764" lon="10.3931805579">
		<tag k="name" v="Grønndal" />
		<tag k="place" v="farm" />
		<tag k="ssr:stedsnr" v="697662" />
	</node>
	<node id="-134624" lat="60.3119664525" lon="10.3438783889">
		<tag k="fixme" v="consider place=hamlet" />
		<tag k="name" v="Myre" />
		<tag k="place" v="farm" />
		<tag k="ssr:stedsnr" v="674898" />
	</node>
	<node id="-134623" lat="60.2918213832" lon="10.4240652594">
		<tag k="alt_name" v="Nordenga;Nordengen" />
		<tag k="name" v="Kjellsrud" />
		<tag k="place" v="isolated_dwelling" />
		<tag k="ssr:stedsnr" v="674857" />
	</node>
	<node id="-134622" lat="60.2789272884" lon="10.4507888151">
		<tag k="fixme" v="consider place=hamlet" />
		<tag k="name" v="Enger" />
		<tag k="place" v="farm" />
		<tag k="ssr:stedsnr" v="674837" />
	</node>
	<node id="-134621" lat="60.2776472256" lon="10.451436111">
		<tag k="name" v="Engerputten" />
		<tag k="natural" v="water" />
		<tag k="ssr:stedsnr" v="674836" />
	</node>
	<node id="-134620" lat="60.2810194475" lon="10.4898694521">
		<tag k="alt_name" v="Løvås" />
		<tag k="name" v="Lauvås" />
		<tag k="place" v="farm" />
		<tag k="ssr:stedsnr" v="674832" />
	</node>
	<node id="-134619" lat="60.2825249989" lon="10.410408328">
		<tag k="name" v="Sløvika" />
		<tag k="natural" v="bay" />
		<tag k="ssr:stedsnr" v="674828" />
	</node>
	<node id="-134618" lat="60.282239943" lon="10.4959427304">
		<tag k="alt_name" v="Feldberg;Felberg" />
		<tag k="fixme" v="consider place=hamlet" />
		<tag k="name" v="Fellberg" />
		<tag k="place" v="farm" />
		<tag k="ssr:stedsnr" v="674811" />
	</node>
	<node id="-134617" lat="60.2727111147" lon="10.3395666593">
		<tag k="name" v="Saumyrdalen" />
		<tag k="natural" v="valley" />
		<tag k="place" v="locality" />
		<tag k="ssr:stedsnr" v="674407" />
	</node>
	<node id="-134616" lat="60.2687722198" lon="10.3190861132">
		<tag k="name" v="Puttmyrene" />
		<tag k="natural" v="wetland" />
		<tag k="ssr:stedsnr" v="674401" />
	</node>
	<node id="-134615" lat="60.3051091174" lon="10.4196465564">
		<tag k="fixme" v="consider place=hamlet" />
		<tag k="name" v="Sogn" />
		<tag k="place" v="farm" />
		<tag k="ssr:stedsnr" v="673898" />
	</node>
	<node id="-134614" lat="60.299811109" lon="10.4258416623">
		<tag k="alt_name" v="Løvstad" />
		<tag k="name" v="Lauvstad" />
		<tag k="place" v="isolated_dwelling" />
		<tag k="ssr:stedsnr" v="673861" />
	</node>
	<node id="-134613" lat="60.2639000001" lon="10.3788861064">
		<tag k="alt_name" v="Nordengen" />
		<tag k="name" v="Nordenga" />
		<tag k="place" v="farm" />
		<tag k="ssr:stedsnr" v="673797" />
	</node>
	<node id="-134612" lat="60.2613913191" lon="10.4601986853">
		<tag k="fixme" v="consider place=hamlet" />
		<tag k="name" v="Hensrud" />
		<tag k="place" v="farm" />
		<tag k="ssr:stedsnr" v="673753" />
	</node>
	<node id="-134611" lat="60.3458249992" lon="10.2717166695">
		<tag k="name" v="Tangnes" />
		<tag k="place" v="isolated_dwelling" />
		<tag k="ssr:stedsnr" v="673588" />
	</node>
	<node id="-134610" lat="60.3043643606" lon="10.2712601467">
		<tag k="alt_name" v="Vælsvatnet, nordre;Nordre Vælsvann" />
		<tag k="name" v="Nordre Vælsvatnet" />
		<tag k="natural" v="water" />
		<tag k="ssr:stedsnr" v="673518" />
		<tag k="water" v="lake" />
	</node>
	<node id="-134609" lat="60.2177666686" lon="10.4927166577">
		<tag k="alt_name" v="Skjennumseterflakene" />
		<tag k="fixme" v="consider natural=peak for the most distinct mountains in the district" />
		<tag k="name" v="Skjennumsflaka" />
		<tag k="natural" v="hill" />
		<tag k="place" v="locality" />
		<tag k="ssr:stedsnr" v="673502" />
	</node>
	<node id="-134608" lat="60.2120638848" lon="10.4200861179">
		<tag k="fixme" v="multiple name tags, choose one and add the other to alt_name; consider natural=peak for the most distinct mountains in the district" />
		<tag k="name" v="Kavlebruhaugen;Kavlebruhøgda" />
		<tag k="natural" v="hill" />
		<tag k="place" v="locality" />
		<tag k="ssr:stedsnr" v="673500" />
	</node>
	<node id="-134607" lat="60.3110083365" lon="10.3202305597">
		<tag k="name" v="Butjern" />
		<tag k="natural" v="water" />
		<tag k="ssr:stedsnr" v="673499" />
	</node>
	<node id="-134606" lat="60.1996472195" lon="10.45620556">
		<tag k="fixme" v="consider natural=peak for the most distinct mountains in the district" />
		<tag k="name" v="Mosjøbrenna" />
		<tag k="natural" v="hill" />
		<tag k="place" v="locality" />
		<tag k="ssr:stedsnr" v="673481" />
	</node>
	<node id="-134605" lat="60.3249083345" lon="10.3185277773">
		<tag k="alt_name" v="Skarvetjennet" />
		<tag k="name" v="Skarvetjern" />
		<tag k="natural" v="water" />
		<tag k="ssr:stedsnr" v="673480" />
	</node>
	<node id="-134604" lat="60.3258416648" lon="10.2499499978">
		<tag k="name" v="Toputtane" />
		<tag k="natural" v="water" />
		<tag k="ssr:stedsnr" v="673478" />
	</node>
	<node id="-134603" lat="60.3335805566" lon="10.270383329">
		<tag k="alt_name" v="Kolbotnhytta" />
		<tag k="name" v="Kolabotn" />
		<tag k="place" v="isolated_dwelling" />
		<tag k="ssr:stedsnr" v="673461" />
	</node>
	<node id="-134602" lat="60.3336194467" lon="10.3371222169">
		<tag k="name" v="Sagbekken" />
		<tag k="ssr:stedsnr" v="673457" />
		<tag k="waterway" v="stream" />
	</node>
	<node id="-134601" lat="60.3709944446" lon="10.257336109">
		<tag k="name" v="Hemvegsputten" />
		<tag k="natural" v="water" />
		<tag k="ssr:stedsnr" v="672591" />
	</node>
	<node id="-134600" lat="60.3606055598" lon="10.2845083358">
		<tag k="alt_name" v="Kjerringåslangtjenn" />
		<tag k="name" v="Langtjern" />
		<tag k="natural" v="water" />
		<tag k="ssr:stedsnr" v="672575" />
	</node>
	<node id="-134599" lat="60.3514499963" lon="10.3171333274">
		<tag k="alt_name" v="Damtjern, s" />
		<tag k="name" v="Søndre Damtjern" />
		<tag k="natural" v="water" />
		<tag k="ssr:stedsnr" v="672552" />
	</node>
	<node id="-134598" lat="60.233241665" lon="10.4610638978">
		<tag k="name" v="Søtbakken" />
		<tag k="place" v="farm" />
		<tag k="ssr:stedsnr" v="672375" />
	</node>
	<node id="-134597" lat="60.2297527819" lon="10.4024611026">
		<tag k="name" v="Gruer" />
		<tag k="place" v="locality" />
		<tag k="ssr:stedsnr" v="672373" />
	</node>
	<node id="-134596" lat="60.2339332887" lon="10.4066946403">
		<tag k="alt_name" v="Moe" />
		<tag k="fixme" v="consider place=hamlet" />
		<tag k="name" v="Mo" />
		<tag k="place" v="farm" />
		<tag k="ssr:stedsnr" v="672369" />
	</node>
	<node id="-134595" lat="60.1938944414" lon="10.4577194398">
		<tag k="alt_name" v="Stormyr" />
		<tag k="name" v="Nedre Stormyra" />
		<tag k="natural" v="wetland" />
		<tag k="ssr:stedsnr" v="672061" />
	</node>
	<node id="-134594" lat="60.338961107" lon="10.3557666669">
		<tag k="name" v="Furulund" />
		<tag k="place" v="isolated_dwelling" />
		<tag k="ssr:stedsnr" v="665498" />
	</node>
	<node id="-134593" lat="60.2248583313" lon="10.4328888938">
		<tag k="name" v="Åssnaret" />
		<tag k="natural" v="wetland" />
		<tag k="ssr:stedsnr" v="664486" />
	</node>
	<node id="-134592" lat="60.2357805542" lon="10.4678055596">
		<tag k="name" v="Øvre Søtbakken" />
		<tag k="place" v="locality" />
		<tag k="ssr:stedsnr" v="664202" />
	</node>
	<node id="-134591" lat="60.2386972188" lon="10.4502166659">
		<tag k="name" v="Rønnerudmarka" />
		<tag k="place" v="locality" />
		<tag k="ssr:stedsnr" v="664200" />
	</node>
	<node id="-134590" lat="60.2296666687" lon="10.3816361117">
		<tag k="name" v="Stordalen" />
		<tag k="natural" v="valley" />
		<tag k="place" v="locality" />
		<tag k="ssr:stedsnr" v="664113" />
	</node>
	<node id="-134589" lat="60.2580499963" lon="10.3575277759">
		<tag k="name" v="Kvennhusbekken" />
		<tag k="ssr:stedsnr" v="658991" />
		<tag k="waterway" v="stream" />
	</node>
	<node id="-134588" lat="60.3412361113" lon="10.2524944445">
		<tag k="name" v="Putten" />
		<tag k="natural" v="water" />
		<tag k="ssr:stedsnr" v="658956" />
		<tag k="water" v="pond" />
	</node>
	<node id="-134587" lat="60.3096111137" lon="10.2995138967">
		<tag k="name" v="Svarttjernsputten" />
		<tag k="natural" v="water" />
		<tag k="ssr:stedsnr" v="658923" />
		<tag k="water" v="pond" />
	</node>
	<node id="-134586" lat="60.276608334" lon="10.3160444466">
		<tag k="name" v="Trollmyra" />
		<tag k="natural" v="wetland" />
		<tag k="ssr:stedsnr" v="658878" />
	</node>
	<node id="-134585" lat="60.2223138866" lon="10.3690944471">
		<tag k="landuse" v="industrial" />
		<tag k="name" v="Kistefoss" />
		<tag k="power" v="plant" />
		<tag k="ssr:stedsnr" v="658582" />
	</node>
	<node id="-134584" lat="60.2274916677" lon="10.3550527742">
		<tag k="name" v="Firsprangsletta" />
		<tag k="place" v="locality" />
		<tag k="ssr:stedsnr" v="658580" />
	</node>
	<node id="-134583" lat="60.2969277754" lon="10.3404388868">
		<tag k="name" v="Gjerde" />
		<tag k="place" v="farm" />
		<tag k="ssr:stedsnr" v="658271" />
	</node>
	<node id="-134582" lat="60.3565888927" lon="10.2565861051">
		<tag k="name" v="Børklidalen" />
		<tag k="natural" v="valley" />
		<tag k="place" v="locality" />
		<tag k="ssr:stedsnr" v="644479" />
	</node>
	<node id="-134581" lat="60.2818166649" lon="10.4479472176">
		<tag k="name" v="Enerhaugen" />
		<tag k="place" v="farm" />
		<tag k="ssr:stedsnr" v="645113" />
	</node>
	<node id="-134580" lat="60.2183777803" lon="10.3990472166">
		<tag k="name" v="Brandalen" />
		<tag k="natural" v="valley" />
		<tag k="place" v="locality" />
		<tag k="ssr:stedsnr" v="640877" />
	</node>
	<node id="-134579" lat="60.2885805576" lon="10.3978277755">
		<tag k="name" v="Vestre Roen" />
		<tag k="place" v="farm" />
		<tag k="ssr:stedsnr" v="640435" />
	</node>
	<node id="-134578" lat="60.2952500044" lon="10.2822333349">
		<tag k="name" v="Serkoppvika" />
		<tag k="natural" v="bay" />
		<tag k="ssr:stedsnr" v="640300" />
	</node>
	<node id="-134577" lat="60.2851111068" lon="10.3024888886">
		<tag k="fixme" v="consider natural=peak for the most distinct mountains in the district" />
		<tag k="name" v="Toputthaugene" />
		<tag k="natural" v="hill" />
		<tag k="place" v="locality" />
		<tag k="ssr:stedsnr" v="640301" />
	</node>
	<node id="-134576" lat="60.2024027788" lon="10.5220333345">
		<tag k="name" v="Holovika" />
		<tag k="natural" v="bay" />
		<tag k="ssr:stedsnr" v="638993" />
	</node>
	<node id="-134575" lat="60.2646888867" lon="10.5083583306">
		<tag k="name" v="Langdalen" />
		<tag k="place" v="farm" />
		<tag k="ssr:stedsnr" v="638970" />
	</node>
	<node id="-134574" lat="60.2784472249" lon="10.5319805614">
		<tag k="name" v="Prestlia" />
		<tag k="place" v="farm" />
		<tag k="ssr:stedsnr" v="638950" />
	</node>
	<node id="-134573" lat="60.1760749997" lon="10.5527166678">
		<tag k="name" v="Målvikdalen" />
		<tag k="natural" v="valley" />
		<tag k="place" v="locality" />
		<tag k="ssr:stedsnr" v="638857" />
	</node>
	<node id="-134572" lat="60.1795527754" lon="10.549255559">
		<tag k="name" v="Målvikdalen" />
		<tag k="natural" v="valley" />
		<tag k="place" v="locality" />
		<tag k="ssr:stedsnr" v="638423" />
	</node>
	<node id="-134571" lat="60.201874999" lon="10.5637805628">
		<tag k="name" v="Kalvedalshytta" />
		<tag k="place" v="isolated_dwelling" />
		<tag k="ssr:stedsnr" v="638273" />
	</node>
	<node id="-134570" lat="60.3539527815" lon="10.3451722218">
		<tag k="fixme" v="consider natural=peak for the most distinct mountains in the district" />
		<tag k="name" v="Onsberget" />
		<tag k="natural" v="hill" />
		<tag k="place" v="locality" />
		<tag k="ssr:stedsnr" v="613068" />
	</node>
	<node id="-134569" lat="60.3322888885" lon="10.3444166606">
		<tag k="name" v="Elnesvika" />
		<tag k="natural" v="bay" />
		<tag k="ssr:stedsnr" v="612993" />
	</node>
	<node id="-134568" lat="60.3106434283" lon="10.4165077311">
		<tag k="fixme" v="consider place=hamlet" />
		<tag k="name" v="Rud" />
		<tag k="place" v="farm" />
		<tag k="ssr:stedsnr" v="612877" />
	</node>
	<node id="-134567" lat="60.2788194467" lon="10.5109583304">
		<tag k="name" v="Finnerud" />
		<tag k="place" v="farm" />
		<tag k="ssr:stedsnr" v="612828" />
	</node>
	<node id="-134566" lat="60.2658222183" lon="10.5153416587">
		<tag k="alt_name" v="Olimbsbråtan;Olimbsbråten" />
		<tag k="name" v="Olumsbråtån" />
		<tag k="place" v="farm" />
		<tag k="ssr:stedsnr" v="612807" />
	</node>
	<node id="-134565" lat="60.2686138918" lon="10.4134083319">
		<tag k="name" v="Gullavika" />
		<tag k="natural" v="bay" />
		<tag k="ssr:stedsnr" v="612781" />
	</node>
	<node id="-134564" lat="60.2510166641" lon="10.4454444486">
		<tag k="name" v="Skogtun" />
		<tag k="place" v="isolated_dwelling" />
		<tag k="ssr:stedsnr" v="612776" />
	</node>
	<node id="-134563" lat="60.2555027765" lon="10.4806499974">
		<tag k="name" v="Sørum" />
		<tag k="place" v="farm" />
		<tag k="ssr:stedsnr" v="612774" />
	</node>
	<node id="-134562" lat="60.3819805585" lon="10.2822500027">
		<tag k="name" v="Bikkjetjern" />
		<tag k="natural" v="water" />
		<tag k="ssr:stedsnr" v="612628" />
	</node>
	<node id="-134561" lat="60.3870944421" lon="10.2276416752">
		<tag k="name" v="Kjerringtjern" />
		<tag k="natural" v="water" />
		<tag k="ssr:stedsnr" v="612537" />
	</node>
	<node id="-134560" lat="60.3283944405" lon="10.2610416728">
		<tag k="fixme" v="consider natural=peak for the most distinct mountains in the district" />
		<tag k="name" v="Midtskoghøgda" />
		<tag k="natural" v="hill" />
		<tag k="place" v="locality" />
		<tag k="ssr:stedsnr" v="612493" />
	</node>
	<node id="-134559" lat="60.2032888891" lon="10.5533333306">
		<tag k="name" v="Kalvedalen" />
		<tag k="natural" v="valley" />
		<tag k="place" v="locality" />
		<tag k="ssr:stedsnr" v="612470" />
	</node>
	<node id="-134558" lat="60.3589611111" lon="10.261113883">
		<tag k="alt_name" v="Samsjøputten, s;Søndre Samsjøputt" />
		<tag k="name" v="Søndre Samsjøputten" />
		<tag k="natural" v="water" />
		<tag k="ssr:stedsnr" v="611611" />
	</node>
	<node id="-134557" lat="60.3566888894" lon="10.2443194506">
		<tag k="name" v="Flåtjernshytta" />
		<tag k="place" v="isolated_dwelling" />
		<tag k="ssr:stedsnr" v="611597" />
	</node>
	<node id="-134556" lat="60.23123333" lon="10.4525583253">
		<tag k="name" v="Midtlia" />
		<tag k="place" v="isolated_dwelling" />
		<tag k="ssr:stedsnr" v="611473" />
	</node>
	<node id="-134555" lat="60.2265027768" lon="10.4743222186">
		<tag k="historic" v="shieling" />
		<tag k="name" v="Finnerudsætra" />
		<tag k="place" v="locality" />
		<tag k="ssr:stedsnr" v="611470" />
	</node>
	<node id="-134554" lat="60.2341555543" lon="10.5205222165">
		<tag k="alt_name" v="Sinnerseter" />
		<tag k="historic" v="shieling" />
		<tag k="name" v="Sindersætra" />
		<tag k="place" v="locality" />
		<tag k="ssr:stedsnr" v="611409" />
	</node>
	<node id="-134553" lat="60.3302888862" lon="10.3405000016">
		<tag k="name" v="Elnesenga" />
		<tag k="place" v="locality" />
		<tag k="ssr:stedsnr" v="604460" />
	</node>
	<node id="-134552" lat="60.2337638913" lon="10.4553999947">
		<tag k="name" v="Rønnerudbråtåsletta" />
		<tag k="place" v="locality" />
		<tag k="ssr:stedsnr" v="603198" />
	</node>
	<node id="-134551" lat="60.2404888922" lon="10.3833388939">
		<tag k="name" v="Nesbakken" />
		<tag k="place" v="quarter" />
		<tag k="ssr:stedsnr" v="603161" />
	</node>
	<node id="-134550" lat="60.2539833326" lon="10.4284138962">
		<tag k="name" v="Vangsmølla" />
		<tag k="place" v="locality" />
		<tag k="ssr:stedsnr" v="603060" />
	</node>
	<node id="-134549" lat="60.2680808972" lon="10.4894936587">
		<tag k="alt_name" v="Olom" />
		<tag k="name" v="Olum" />
		<tag k="place" v="hamlet" />
		<tag k="ssr:stedsnr" v="600930" />
	</node>
	<node id="-134548" lat="60.2452888875" lon="10.3681944484">
		<tag k="name" v="Nordhaugen" />
		<tag k="place" v="quarter" />
		<tag k="ssr:stedsnr" v="598000" />
	</node>
	<node id="-134547" lat="60.2548833325" lon="10.3418499993">
		<tag k="name" v="Brubekkdalen" />
		<tag k="natural" v="valley" />
		<tag k="place" v="locality" />
		<tag k="ssr:stedsnr" v="597991" />
	</node>
	<node id="-134546" lat="60.3445805548" lon="10.2460722247">
		<tag k="name" v="Kjørketjernputta" />
		<tag k="natural" v="water" />
		<tag k="ssr:stedsnr" v="597975" />
		<tag k="water" v="pond" />
	</node>
	<node id="-134545" lat="60.2693055577" lon="10.33241388">
		<tag k="name" v="Nordbyseter" />
		<tag k="place" v="locality" />
		<tag k="ssr:stedsnr" v="597907" />
	</node>
	<node id="-134544" lat="60.2378111148" lon="10.3544861118">
		<tag k="name" v="Trangdalen" />
		<tag k="natural" v="valley" />
		<tag k="place" v="locality" />
		<tag k="ssr:stedsnr" v="597628" />
	</node>
	<node id="-134543" lat="60.3902638912" lon="10.2387861039">
		<tag k="name" v="Sponga" />
		<tag k="natural" v="bay" />
		<tag k="ssr:stedsnr" v="597382" />
	</node>
	<node id="-134542" lat="60.2855583334" lon="10.4122416601">
		<tag k="bridge" v="yes" />
		<tag k="layer" v="1" />
		<tag k="name" v="Sløvika" />
		<tag k="ssr:stedsnr" v="592065" />
	</node>
	<node id="-134541" lat="60.2742416626" lon="10.5167527768">
		<tag k="alt_name" v="Storetjernet" />
		<tag k="name" v="Stortjernet" />
		<tag k="natural" v="water" />
		<tag k="ssr:stedsnr" v="587847" />
	</node>
	<node id="-134540" lat="60.2663666682" lon="10.4540277783">
		<tag k="name" v="Karlsrud" />
		<tag k="place" v="farm" />
		<tag k="ssr:stedsnr" v="585109" />
	</node>
	<node id="-134539" lat="60.3136888915" lon="10.3475166631">
		<tag k="name" v="Myretangen" />
		<tag k="natural" v="cape" />
		<tag k="ssr:stedsnr" v="583831" />
	</node>
	<node id="-134538" lat="60.3547166647" lon="10.3613222212">
		<tag k="name" v="Bjørklund" />
		<tag k="place" v="farm" />
		<tag k="ssr:stedsnr" v="583417" />
	</node>
	<node id="-134537" lat="60.2126222201" lon="10.4130638893">
		<tag k="name" v="Skollerudhaugen" />
		<tag k="natural" v="hill" />
		<tag k="place" v="locality" />
		<tag k="ssr:stedsnr" v="580842" />
	</node>
	<node id="-134536" lat="60.2030194476" lon="10.4420777726">
		<tag k="name" v="Sauetangen" />
		<tag k="place" v="locality" />
		<tag k="ssr:stedsnr" v="580648" />
	</node>
	<node id="-134535" lat="60.2630000015" lon="10.4961916723">
		<tag k="name" v="Sagenga" />
		<tag k="place" v="farm" />
		<tag k="ssr:stedsnr" v="579000" />
	</node>
	<node id="-134534" lat="60.1870583349" lon="10.5428000012">
		<tag k="name" v="Karidalen" />
		<tag k="natural" v="valley" />
		<tag k="place" v="locality" />
		<tag k="ssr:stedsnr" v="578916" />
	</node>
	<node id="-134533" lat="60.2280805599" lon="10.5334277837">
		<tag k="name" v="Rampestokk" />
		<tag k="place" v="locality" />
		<tag k="ssr:stedsnr" v="578854" />
	</node>
	<node id="-134532" lat="60.2360305558" lon="10.4879666601">
		<tag k="name" v="Vinterlunnmyra" />
		<tag k="natural" v="wetland" />
		<tag k="ssr:stedsnr" v="578847" />
	</node>
	<node id="-134531" lat="60.2287583302" lon="10.5010111139">
		<tag k="name" v="Stormyr" />
		<tag k="natural" v="wetland" />
		<tag k="ssr:stedsnr" v="578846" />
	</node>
	<node id="-134530" lat="60.2884930916" lon="10.4023498676">
		<tag k="fixme" v="consider place=hamlet" />
		<tag k="name" v="Roen" />
		<tag k="place" v="farm" />
		<tag k="ssr:stedsnr" v="552888" />
	</node>
	<node id="-134529" lat="60.29679167" lon="10.4185499995">
		<tag k="name" v="Sognsbråtån" />
		<tag k="place" v="isolated_dwelling" />
		<tag k="ssr:stedsnr" v="552879" />
	</node>
	<node id="-134528" lat="60.2795888845" lon="10.4791166654">
		<tag k="name" v="Tømte" />
		<tag k="place" v="farm" />
		<tag k="ssr:stedsnr" v="552871" />
	</node>
	<node id="-134527" lat="60.2825388903" lon="10.5135555551">
		<tag k="alt_name" v="Stensrud" />
		<tag k="name" v="Steinsrud" />
		<tag k="place" v="farm" />
		<tag k="ssr:stedsnr" v="552847" />
	</node>
	<node id="-134526" lat="60.2721166695" lon="10.4069916675">
		<tag k="alt_name" v="Bjellum, søndre;Bjellum" />
		<tag k="name" v="Søndre Bjellum" />
		<tag k="place" v="farm" />
		<tag k="ssr:stedsnr" v="552812" />
	</node>
	<node id="-134525" lat="60.2653333301" lon="10.4320666669">
		<tag k="fixme" v="consider natural=peak for the most distinct mountains in the district" />
		<tag k="name" v="Vangsåsen" />
		<tag k="natural" v="hill" />
		<tag k="place" v="locality" />
		<tag k="ssr:stedsnr" v="552806" />
	</node>
	<node id="-134524" lat="60.2507694459" lon="10.5259472186">
		<tag k="name" v="Høgnes" />
		<tag k="place" v="farm" />
		<tag k="ssr:stedsnr" v="552795" />
	</node>
	<node id="-134523" lat="60.2628527797" lon="10.4567638877">
		<tag k="alt_name" v="Presthagen" />
		<tag k="name" v="Presthagan" />
		<tag k="place" v="farm" />
		<tag k="ssr:stedsnr" v="552779" />
	</node>
	<node id="-134522" lat="60.2599611139" lon="10.4787916753">
		<tag k="name" v="Nordli" />
		<tag k="place" v="farm" />
		<tag k="ssr:stedsnr" v="552777" />
	</node>
	<node id="-134521" lat="60.3430833368" lon="10.2508083314">
		<tag k="name" v="Kjørketjern" />
		<tag k="natural" v="water" />
		<tag k="ssr:stedsnr" v="552631" />
	</node>
	<node id="-134520" lat="60.3090138874" lon="10.2912611058">
		<tag k="name" v="Svarttjern" />
		<tag k="natural" v="water" />
		<tag k="ssr:stedsnr" v="552577" />
	</node>
	<node id="-134519" lat="60.318175004" lon="10.2723527792">
		<tag k="alt_name" v="Røyberget" />
		<tag k="fixme" v="consider natural=peak for the most distinct mountains in the district" />
		<tag k="name" v="Røyberga" />
		<tag k="natural" v="hill" />
		<tag k="place" v="locality" />
		<tag k="ssr:stedsnr" v="552541" />
	</node>
	<node id="-134518" lat="60.3241888932" lon="10.3012944526">
		<tag k="alt_name" v="Kløyvtjennsmyrene" />
		<tag k="name" v="Kløvtjernsmyra" />
		<tag k="natural" v="wetland" />
		<tag k="ssr:stedsnr" v="552535" />
	</node>
	<node id="-134517" lat="60.2926416624" lon="10.3358777834">
		<tag k="alt_name" v="Nedre Rolfsbråtan" />
		<tag k="name" v="Rolvsbråtan" />
		<tag k="place" v="isolated_dwelling" />
		<tag k="ssr:stedsnr" v="552440" />
	</node>
	<node id="-134516" lat="60.2886916625" lon="10.3094361198">
		<tag k="name" v="Toputt" />
		<tag k="natural" v="water" />
		<tag k="ssr:stedsnr" v="552437" />
	</node>
	<node id="-134515" lat="60.3764777747" lon="10.2028138906">
		<tag k="name" v="Øvre Finneplassen" />
		<tag k="place" v="farm" />
		<tag k="ssr:stedsnr" v="551616" />
	</node>
	<node id="-134514" lat="60.3728166706" lon="10.2293472155">
		<tag k="alt_name" v="Samsjøbergene" />
		<tag k="fixme" v="consider natural=peak for the most distinct mountains in the district" />
		<tag k="name" v="Samsjøberga" />
		<tag k="natural" v="hill" />
		<tag k="place" v="locality" />
		<tag k="ssr:stedsnr" v="551614" />
	</node>
	<node id="-134513" lat="60.3811222209" lon="10.2550027852">
		<tag k="alt_name" v="Auretjernsputten, vestre" />
		<tag k="name" v="Vestre Auretjernsputten" />
		<tag k="natural" v="water" />
		<tag k="ssr:stedsnr" v="551608" />
	</node>
	<node id="-134512" lat="60.3497194465" lon="10.2262027811">
		<tag k="alt_name" v="Flåtjernhøgda" />
		<tag k="fixme" v="consider natural=peak for the most distinct mountains in the district" />
		<tag k="name" v="Flåtjernshøgda" />
		<tag k="natural" v="hill" />
		<tag k="place" v="locality" />
		<tag k="ssr:stedsnr" v="551582" />
	</node>
	<node id="-134511" lat="60.3629194431" lon="10.3262055517">
		<tag k="fixme" v="consider natural=peak for the most distinct mountains in the district" />
		<tag k="name" v="Skavdalshøgda" />
		<tag k="natural" v="hill" />
		<tag k="place" v="locality" />
		<tag k="ssr:stedsnr" v="551575" />
	</node>
	<node id="-134510" lat="60.3852888862" lon="10.274399993">
		<tag k="name" v="Kimetjern" />
		<tag k="natural" v="water" />
		<tag k="ssr:stedsnr" v="551497" />
	</node>
	<node id="-134509" lat="60.2177333314" lon="10.5350027807">
		<tag k="alt_name" v="Gunnersjøen" />
		<tag k="name" v="Gunnertjernet" />
		<tag k="natural" v="water" />
		<tag k="ssr:stedsnr" v="551476" />
	</node>
	<node id="-134508" lat="60.2258527807" lon="10.4451888808">
		<tag k="name" v="Svenåa" />
		<tag k="ssr:stedsnr" v="551451" />
		<tag k="waterway" v="stream" />
	</node>
	<node id="-134507" lat="60.2202222238" lon="10.4957833254">
		<tag k="name" v="Svarttjernet" />
		<tag k="natural" v="water" />
		<tag k="ssr:stedsnr" v="551449" />
	</node>
	<node id="-134506" lat="60.1965000027" lon="10.5428555549">
		<tag k="alt_name" v="Roenseterbrenna" />
		<tag k="fixme" v="consider natural=peak for the most distinct mountains in the district" />
		<tag k="name" v="Roensæterhøgda" />
		<tag k="natural" v="hill" />
		<tag k="place" v="locality" />
		<tag k="ssr:stedsnr" v="551439" />
	</node>
	<node id="-134505" lat="60.1956833328" lon="10.5180722195">
		<tag k="alt_name" v="Skarvevann" />
		<tag k="name" v="Skarvvatnet" />
		<tag k="natural" v="water" />
		<tag k="ssr:stedsnr" v="551436" />
		<tag k="water" v="lake" />
	</node>
	<node id="-134504" lat="60.2092944472" lon="10.4592666741">
		<tag k="alt_name" v="Århanaputten" />
		<tag k="name" v="Orrhanaputten" />
		<tag k="natural" v="water" />
		<tag k="ssr:stedsnr" v="551420" />
		<tag k="water" v="pond" />
	</node>
	<node id="-134503" lat="60.2477472219" lon="10.377702773">
		<tag k="alt_name" v="Nøkleby" />
		<tag k="name" v="Øvre Nøkleby" />
		<tag k="place" v="farm" />
		<tag k="ssr:stedsnr" v="551411" />
	</node>
	<node id="-134502" lat="60.2380166705" lon="10.3817527691">
		<tag k="amenity" v="place_of_worship" />
		<tag k="denomination" v="lutheran" />
		<tag k="name" v="Randsfjord kirke" />
		<tag k="religion" v="christian" />
		<tag k="ssr:stedsnr" v="551386" />
	</node>
	<node id="-134501" lat="60.2402638861" lon="10.4899583355">
		<tag k="fixme" v="consider natural=peak for the most distinct mountains in the district" />
		<tag k="name" v="Lamannshaugen" />
		<tag k="natural" v="hill" />
		<tag k="place" v="locality" />
		<tag k="ssr:stedsnr" v="551370" />
	</node>
	<node id="-134500" lat="60.18751389" lon="10.5173500039">
		<tag k="alt_name" v="Buvann" />
		<tag k="name" v="Buvatn" />
		<tag k="natural" v="water" />
		<tag k="ssr:stedsnr" v="551055" />
	</node>
	<node id="-134499" lat="60.338961107" lon="10.3557666669">
		<tag k="name" v="Hvitberget" />
		<tag k="natural" v="slope" />
		<tag k="place" v="locality" />
		<tag k="ssr:stedsnr" v="544477" />
	</node>
	<node id="-134498" lat="60.3300777792" lon="10.3302583355">
		<tag k="name" v="Elnesmarka" />
		<tag k="place" v="locality" />
		<tag k="ssr:stedsnr" v="544454" />
	</node>
	<node id="-134497" lat="60.2280916648" lon="10.4015416658">
		<tag k="name" v="Follum-Minne" />
		<tag k="place" v="locality" />
		<tag k="ssr:stedsnr" v="543194" />
	</node>
	<node id="-134496" lat="60.2219555536" lon="10.4078500006">
		<tag k="name" v="Mosmarka" />
		<tag k="place" v="locality" />
		<tag k="ssr:stedsnr" v="543190" />
	</node>
	<node id="-134495" lat="60.2380083314" lon="10.3685694446">
		<tag k="name" v="Rundhaugen" />
		<tag k="place" v="quarter" />
		<tag k="ssr:stedsnr" v="537735" />
	</node>
	<node id="-134494" lat="60.2526361074" lon="10.3201138936">
		<tag k="name" v="Setermyrdalen" />
		<tag k="natural" v="wetland" />
		<tag k="ssr:stedsnr" v="536984" />
	</node>
	<node id="-134493" lat="60.2540694457" lon="10.4290888894">
		<tag k="bridge" v="yes" />
		<tag k="layer" v="1" />
		<tag k="name" v="Vang" />
		<tag k="ssr:stedsnr" v="532056" />
	</node>
	<node id="-134492" lat="60.2211777746" lon="10.3810444484">
		<tag k="alt_name" v="Frankrik" />
		<tag k="name" v="Frankrike" />
		<tag k="old_name" v="Frankrig" />
		<tag k="place" v="farm" />
		<tag k="ssr:stedsnr" v="539461" />
	</node>
	<node id="-134491" lat="60.2635833339" lon="10.4251638827">
		<tag k="name" v="Randsvangen" />
		<tag k="ssr:stedsnr" v="524911" />
		<tag k="tourism" v="hotel" />
	</node>
	<node id="-134490" lat="60.2153694449" lon="10.4771472304">
		<tag k="name" v="Fiskedammen" />
		<tag k="ssr:stedsnr" v="519707" />
		<tag k="waterway" v="dam" />
	</node>
	<node id="-134489" lat="60.2163999993" lon="10.476383333">
		<tag k="name" v="Luserudsletta" />
		<tag k="place" v="locality" />
		<tag k="ssr:stedsnr" v="519708" />
	</node>
	<node id="-134488" lat="60.273350001" lon="10.3104833284">
		<tag k="name" v="Nyseterdalen" />
		<tag k="natural" v="valley" />
		<tag k="place" v="locality" />
		<tag k="ssr:stedsnr" v="519290" />
	</node>
	<node id="-134487" lat="60.2075305545" lon="10.5230138802">
		<tag k="name" v="Tostenputten" />
		<tag k="natural" v="water" />
		<tag k="ssr:stedsnr" v="517993" />
		<tag k="water" v="pond" />
	</node>
	<node id="-134486" lat="60.2672638863" lon="10.5383305588">
		<tag k="name" v="Høghaug" />
		<tag k="place" v="isolated_dwelling" />
		<tag k="ssr:stedsnr" v="517961" />
	</node>
	<node id="-134485" lat="60.1821388894" lon="10.4907833412">
		<tag k="name" v="Elgemyra" />
		<tag k="natural" v="wetland" />
		<tag k="ssr:stedsnr" v="517936" />
	</node>
	<node id="-134484" lat="60.245694441" lon="10.4955000029">
		<tag k="name" v="Klokkermarka" />
		<tag k="place" v="locality" />
		<tag k="ssr:stedsnr" v="517926" />
	</node>
	<node id="-134483" lat="60.30399167" lon="10.4048027846">
		<tag k="name" v="Dalsenga" />
		<tag k="place" v="farm" />
		<tag k="ssr:stedsnr" v="491878" />
	</node>
	<node id="-134482" lat="60.2898090658" lon="10.4119129948">
		<tag k="fixme" v="consider place=hamlet" />
		<tag k="name" v="Haga" />
		<tag k="place" v="farm" />
		<tag k="ssr:stedsnr" v="491860" />
	</node>
	<node id="-134481" lat="60.2778850672" lon="10.5022613057">
		<tag k="alt_name" v="Øvre Tronrud" />
		<tag k="fixme" v="consider place=hamlet" />
		<tag k="name" v="Trondrud" />
		<tag k="place" v="farm" />
		<tag k="ssr:stedsnr" v="491828" />
	</node>
	<node id="-134480" lat="60.2877555529" lon="10.4927500004">
		<tag k="name" v="Mellerud" />
		<tag k="place" v="farm" />
		<tag k="ssr:stedsnr" v="491811" />
	</node>
	<node id="-134479" lat="60.2523638863" lon="10.3785638817">
		<tag k="name" v="Solberg" />
		<tag k="place" v="farm" />
		<tag k="ssr:stedsnr" v="491738" />
	</node>
	<node id="-134478" lat="60.3468944415" lon="10.305136107">
		<tag k="alt_name" v="Halvorsbølesætra, østre;Halvorbøleseter" />
		<tag k="historic" v="shieling" />
		<tag k="name" v="Østre Halvorsbølesætra" />
		<tag k="place" v="locality" />
		<tag k="ssr:stedsnr" v="491596" />
	</node>
	<node id="-134477" lat="60.305225" lon="10.3152194415">
		<tag k="name" v="Hølbekken" />
		<tag k="ssr:stedsnr" v="491528" />
		<tag k="waterway" v="stream" />
	</node>
	<node id="-134476" lat="60.3323472266" lon="10.3222194508">
		<tag k="alt_name" v="Elnesseter" />
		<tag k="historic" v="shieling" />
		<tag k="name" v="Elnessætra" />
		<tag k="place" v="locality" />
		<tag k="ssr:stedsnr" v="491465" />
	</node>
	<node id="-134475" lat="60.2814500037" lon="10.3263055559">
		<tag k="name" v="Djupdalsbekken" />
		<tag k="ssr:stedsnr" v="491431" />
		<tag k="waterway" v="stream" />
	</node>
	<node id="-134474" lat="60.2396583313" lon="10.3346250036">
		<tag k="fixme" v="consider natural=peak for the most distinct mountains in the district" />
		<tag k="name" v="Brenteberga" />
		<tag k="natural" v="hill" />
		<tag k="place" v="locality" />
		<tag k="ssr:stedsnr" v="490988" />
	</node>
	<node id="-134473" lat="60.2369472216" lon="10.3608666698">
		<tag k="alt_name" v="Stensrud" />
		<tag k="name" v="Steinerud" />
		<tag k="place" v="isolated_dwelling" />
		<tag k="ssr:stedsnr" v="490388" />
	</node>
	<node id="-134472" lat="60.2304416661" lon="10.5044666684">
		<tag k="alt_name" v="Juthaugene" />
		<tag k="fixme" v="consider natural=peak for the most distinct mountains in the district" />
		<tag k="name" v="Juthaugen" />
		<tag k="natural" v="hill" />
		<tag k="place" v="locality" />
		<tag k="ssr:stedsnr" v="490380" />
	</node>
	<node id="-134471" lat="60.2414111126" lon="10.4423694529">
		<tag k="name" v="Furumyrbekken" />
		<tag k="ssr:stedsnr" v="490365" />
		<tag k="waterway" v="stream" />
	</node>
	<node id="-134470" lat="60.1842638894" lon="10.4951861182">
		<tag k="alt_name" v="Nedre Sinnerputten" />
		<tag k="name" v="Nedre Sinderputten" />
		<tag k="natural" v="water" />
		<tag k="ssr:stedsnr" v="490066" />
	</node>
	<node id="-134469" lat="60.180461109" lon="10.5175194482">
		<tag k="alt_name" v="Pershusvann" />
		<tag k="name" v="Pershusvatnet" />
		<tag k="natural" v="water" />
		<tag k="ssr:stedsnr" v="490053" />
		<tag k="water" v="lake" />
	</node>
	<node id="-134468" lat="60.2215638907" lon="10.3972166607">
		<tag k="name" v="Branndalsbekken" />
		<tag k="ssr:stedsnr" v="490480" />
		<tag k="waterway" v="stream" />
	</node>
	<node id="-134467" lat="60.2169916658" lon="10.4409361165">
		<tag k="name" v="Flisemyra" />
		<tag k="natural" v="wetland" />
		<tag k="ssr:stedsnr" v="490469" />
	</node>
	<node id="-134466" lat="60.2242916661" lon="10.4501416644">
		<tag k="name" v="Kølabonn" />
		<tag k="place" v="locality" />
		<tag k="ssr:stedsnr" v="482512" />
	</node>
	<node id="-134465" lat="60.2210555584" lon="10.4238777787">
		<tag k="name" v="Dælen" />
		<tag k="natural" v="slope" />
		<tag k="place" v="locality" />
		<tag k="ssr:stedsnr" v="482394" />
	</node>
	<node id="-134464" lat="60.247405559" lon="10.4297527769">
		<tag k="name" v="Rønnerudsenga" />
		<tag k="place" v="isolated_dwelling" />
		<tag k="ssr:stedsnr" v="482157" />
	</node>
	<node id="-134463" lat="60.255347225" lon="10.4294305496">
		<tag k="name" v="Solbakken" />
		<tag k="place" v="farm" />
		<tag k="ssr:stedsnr" v="482155" />
	</node>
	<node id="-134462" lat="60.245744444" lon="10.4471138826">
		<tag k="name" v="Rønnerudmarka" />
		<tag k="place" v="locality" />
		<tag k="ssr:stedsnr" v="482152" />
	</node>
	<node id="-134461" lat="60.2207611112" lon="10.3975638896">
		<tag k="name" v="Brandalen" />
		<tag k="natural" v="valley" />
		<tag k="place" v="locality" />
		<tag k="ssr:stedsnr" v="482147" />
	</node>
	<node id="-134460" lat="60.2373527815" lon="10.3851749981">
		<tag k="name" v="Hermanstjernet" />
		<tag k="natural" v="water" />
		<tag k="ssr:stedsnr" v="482129" />
	</node>
	<node id="-134459" lat="60.2326111111" lon="10.3919999982">
		<tag k="name" v="Eksersisplassen" />
		<tag k="place" v="locality" />
		<tag k="ssr:stedsnr" v="482116" />
	</node>
	<node id="-134458" lat="60.3078992705" lon="10.4052366601">
		<tag k="fixme" v="multiple name tags, choose one and add the other to alt_name" />
		<tag k="loc_name" v="Kjørkehaugen" />
		<tag k="name" v="Kjerkehøgda;Kjørkhaugen" />
		<tag k="natural" v="hill" />
		<tag k="place" v="locality" />
		<tag k="ssr:stedsnr" v="465890" />
	</node>
	<node id="-134457" lat="60.2732833361" lon="10.4416944483">
		<tag k="name" v="Igelstad" />
		<tag k="place" v="isolated_dwelling" />
		<tag k="ssr:stedsnr" v="464002" />
	</node>
	<node id="-134456" lat="60.2036861069" lon="10.4698222309">
		<tag k="name" v="Styggdalen" />
		<tag k="natural" v="valley" />
		<tag k="place" v="locality" />
		<tag k="ssr:stedsnr" v="459635" />
	</node>
	<node id="-134455" lat="60.3001583311" lon="10.293144449">
		<tag k="name" v="Torvheim" />
		<tag k="place" v="isolated_dwelling" />
		<tag k="ssr:stedsnr" v="459270" />
	</node>
	<node id="-134454" lat="60.2064388863" lon="10.5085194408">
		<tag k="name" v="Abrahamsvika" />
		<tag k="natural" v="bay" />
		<tag k="ssr:stedsnr" v="457955" />
	</node>
	<node id="-134453" lat="60.1880916703" lon="10.5029638971">
		<tag k="name" v="Ellingsmyra" />
		<tag k="natural" v="wetland" />
		<tag k="ssr:stedsnr" v="457939" />
	</node>
	<node id="-134452" lat="60.1819333334" lon="10.4967333329">
		<tag k="name" v="Kingevelta" />
		<tag k="place" v="locality" />
		<tag k="ssr:stedsnr" v="457935" />
	</node>
	<node id="-134451" lat="60.2264722258" lon="10.5256222146">
		<tag k="name" v="Stavangerleite" />
		<tag k="place" v="locality" />
		<tag k="ssr:stedsnr" v="457869" />
	</node>
	<node id="-134450" lat="60.1887444475" lon="10.5714861051">
		<tag k="name" v="Vangshøgda" />
		<tag k="natural" v="hill" />
		<tag k="place" v="locality" />
		<tag k="ssr:stedsnr" v="457478" />
	</node>
	<node id="-134449" lat="60.3349666664" lon="10.3521222191">
		<tag k="name" v="Solvik" />
		<tag k="place" v="farm" />
		<tag k="ssr:stedsnr" v="431997" />
	</node>
	<node id="-134448" lat="60.3370916624" lon="10.3559611131">
		<tag k="name" v="Solstad" />
		<tag k="place" v="isolated_dwelling" />
		<tag k="ssr:stedsnr" v="431996" />
	</node>
	<node id="-134447" lat="60.3021555529" lon="10.4391416698">
		<tag k="alt_name" v="Linjeløkka" />
		<tag k="name" v="Linlykkja" />
		<tag k="place" v="farm" />
		<tag k="ssr:stedsnr" v="431905" />
	</node>
	<node id="-134446" lat="60.2930277821" lon="10.4583777862">
		<tag k="alt_name" v="Hvaterud, midtre;Midtre Vaterud" />
		<tag k="name" v="Midtre Hvaterud" />
		<tag k="place" v="farm" />
		<tag k="ssr:stedsnr" v="431878" />
	</node>
	<node id="-134445" lat="60.2979499978" lon="10.4171166689">
		<tag k="name" v="Høybråtån" />
		<tag k="place" v="isolated_dwelling" />
		<tag k="ssr:stedsnr" v="431874" />
	</node>
	<node id="-134444" lat="60.2884046887" lon="10.4993454316">
		<tag k="alt_name" v="Vadsjø" />
		<tag k="fixme" v="consider place=hamlet" />
		<tag k="name" v="Vassjø" />
		<tag k="place" v="farm" />
		<tag k="ssr:stedsnr" v="431840" />
	</node>
	<node id="-134443" lat="60.2665666668" lon="10.4677027694">
		<tag k="alt_name" v="Lien" />
		<tag k="name" v="Lia" />
		<tag k="place" v="farm" />
		<tag k="ssr:stedsnr" v="431807" />
	</node>
	<node id="-134442" lat="60.2672509437" lon="10.414111119">
		<tag k="fixme" v="consider place=hamlet" />
		<tag k="name" v="Gulla" />
		<tag k="place" v="farm" />
		<tag k="ssr:stedsnr" v="431804" />
	</node>
	<node id="-134441" lat="60.2558861146" lon="10.4785888811">
		<tag k="name" v="Sørenga" />
		<tag k="place" v="farm" />
		<tag k="ssr:stedsnr" v="431799" />
	</node>
	<node id="-134440" lat="60.306999996" lon="10.2694444482">
		<tag k="name" v="Nordre Moltemyrtangen" />
		<tag k="natural" v="cape" />
		<tag k="ssr:stedsnr" v="431543" />
	</node>
	<node id="-134439" lat="60.3082805575" lon="10.2787083404">
		<tag k="fixme" v="consider natural=peak for the most distinct mountains in the district" />
		<tag k="name" v="Kalveholen" />
		<tag k="natural" v="hill" />
		<tag k="place" v="locality" />
		<tag k="ssr:stedsnr" v="431542" />
	</node>
	<node id="-134438" lat="60.287816664" lon="10.3423027752">
		<tag k="alt_name" v="Djupdalen" />
		<tag k="name" v="Djupdal" />
		<tag k="place" v="isolated_dwelling" />
		<tag k="ssr:stedsnr" v="431434" />
	</node>
	<node id="-134437" lat="60.2957638893" lon="10.3378888834">
		<tag k="alt_name" v="Sør-Falla;Falla, s" />
		<tag k="name" v="Søndre Falla" />
		<tag k="place" v="farm" />
		<tag k="ssr:stedsnr" v="431410" />
	</node>
	<node id="-134436" lat="60.2101111153" lon="10.5098666719">
		<tag k="alt_name" v="Tverrsjøhytta" />
		<tag k="name" v="Tverrsjøstallen" />
		<tag k="place" v="isolated_dwelling" />
		<tag k="ssr:stedsnr" v="430462" />
	</node>
	<node id="-134435" lat="60.2247944449" lon="10.4201027854">
		<tag k="name" v="Haukerud" />
		<tag k="place" v="locality" />
		<tag k="ssr:stedsnr" v="430449" />
	</node>
	<node id="-134434" lat="60.1991948308" lon="10.473874388">
		<tag k="alt_name" v="Langvann" />
		<tag k="name" v="Langvatn" />
		<tag k="natural" v="water" />
		<tag k="ssr:stedsnr" v="430436" />
	</node>
	<node id="-134433" lat="60.2054416686" lon="10.4371888942">
		<tag k="alt_name" v="Seterhaugen" />
		<tag k="fixme" v="consider natural=peak for the most distinct mountains in the district" />
		<tag k="name" v="Sæterhaugen" />
		<tag k="natural" v="hill" />
		<tag k="place" v="locality" />
		<tag k="ssr:stedsnr" v="430433" />
	</node>
	<node id="-134432" lat="60.2090972202" lon="10.4832527707">
		<tag k="name" v="Svenåputten" />
		<tag k="natural" v="water" />
		<tag k="ssr:stedsnr" v="430419" />
	</node>
	<node id="-134431" lat="60.2314611154" lon="10.4815333296">
		<tag k="historic" v="shieling" />
		<tag k="name" v="Vangsætra" />
		<tag k="place" v="locality" />
		<tag k="ssr:stedsnr" v="430381" />
	</node>
	<node id="-134430" lat="60.1789527744" lon="10.5356361079">
		<tag k="fixme" v="consider natural=peak for the most distinct mountains in the district" />
		<tag k="name" v="Aklangsbrenna" />
		<tag k="natural" v="hill" />
		<tag k="place" v="locality" />
		<tag k="ssr:stedsnr" v="430043" />
	</node>
	<node id="-134429" lat="60.1709277734" lon="10.5565083272">
		<tag k="name" v="Målvika" />
		<tag k="natural" v="bay" />
		<tag k="ssr:stedsnr" v="430018" />
	</node>
	<node id="-134428" lat="60.3280777819" lon="10.3282027756">
		<tag k="name" v="Vælsandmarka" />
		<tag k="place" v="locality" />
		<tag k="ssr:stedsnr" v="423481" />
	</node>
	<node id="-134427" lat="60.3416722182" lon="10.3470916735">
		<tag k="name" v="Øllebråtan" />
		<tag k="place" v="farm" />
		<tag k="ssr:stedsnr" v="422715" />
	</node>
	<node id="-134426" lat="60.3459277777" lon="10.3400916605">
		<tag k="name" v="Onsakermarka" />
		<tag k="place" v="locality" />
		<tag k="ssr:stedsnr" v="422714" />
	</node>
	<node id="-134425" lat="60.3485277792" lon="10.3188500061">
		<tag k="name" v="Skålmyrputten" />
		<tag k="natural" v="water" />
		<tag k="ssr:stedsnr" v="422713" />
	</node>
	<node id="-134424" lat="60.2238944473" lon="10.4462416746">
		<tag k="name" v="Karisnaret" />
		<tag k="natural" v="hill" />
		<tag k="place" v="locality" />
		<tag k="ssr:stedsnr" v="422519" />
	</node>
	<node id="-134423" lat="60.2399111099" lon="10.4300777707">
		<tag k="name" v="Kongehaugen" />
		<tag k="natural" v="hill" />
		<tag k="place" v="locality" />
		<tag k="ssr:stedsnr" v="422182" />
	</node>
	<node id="-134422" lat="60.2429777741" lon="10.4262361111">
		<tag k="name" v="Tosobekken" />
		<tag k="ssr:stedsnr" v="422180" />
		<tag k="waterway" v="stream" />
	</node>
	<node id="-134421" lat="60.2551166669" lon="10.4366500064">
		<tag k="name" v="Prestegårdselva" />
		<tag k="ssr:stedsnr" v="422158" />
		<tag k="waterway" v="river" />
	</node>
	<node id="-134420" lat="60.2305861099" lon="10.4779749972">
		<tag k="historic" v="shieling" />
		<tag k="name" v="Vang seter" />
		<tag k="place" v="locality" />
		<tag k="ssr:stedsnr" v="422135" />
	</node>
	<node id="-134419" lat="60.2340472199" lon="10.4217666619">
		<tag k="name" v="Svenåa" />
		<tag k="ssr:stedsnr" v="422121" />
		<tag k="waterway" v="stream" />
	</node>
	<node id="-134418" lat="60.2531611094" lon="10.4212777769">
		<tag k="name" v="Ulverud" />
		<tag k="natural" v="cape" />
		<tag k="ssr:stedsnr" v="422086" />
	</node>
	<node id="-134417" lat="60.2682666683" lon="10.4749000022">
		<tag k="name" v="Ragnhildrud" />
		<tag k="place" v="quarter" />
		<tag k="ssr:stedsnr" v="419911" />
	</node>
	<node id="-134416" lat="60.192973225" lon="10.5289599357">
		<tag k="historic" v="shieling" />
		<tag k="loc_name" v="Lortholoa" />
		<tag k="name" v="Holoa" />
		<tag k="old_name" v="Holoa Sr;Holosætra;Lorthul Sr" />
		<tag k="place" v="locality" />
		<tag k="ssr:stedsnr" v="418440" />
	</node>
	<node id="-134415" lat="60.3340111097" lon="10.2471861027">
		<tag k="name" v="Midtskauhøgda" />
		<tag k="natural" v="hill" />
		<tag k="place" v="locality" />
		<tag k="ssr:stedsnr" v="416952" />
	</node>
	<node id="-134414" lat="60.278961111" lon="10.3636388801">
		<tag k="name" v="Hansebråtan" />
		<tag k="place" v="locality" />
		<tag k="ssr:stedsnr" v="416550" />
	</node>
	<node id="-134413" lat="60.2928250008" lon="10.3336527745">
		<tag k="name" v="Øvre Rolfsbråtan" />
		<tag k="place" v="farm" />
		<tag k="ssr:stedsnr" v="416250" />
	</node>
	<node id="-134412" lat="60.2963138851" lon="10.3521111179">
		<tag k="name" v="Auendal" />
		<tag k="natural" v="valley" />
		<tag k="place" v="locality" />
		<tag k="ssr:stedsnr" v="416243" />
	</node>
	<node id="-134411" lat="60.2467083344" lon="10.3589361064">
		<tag k="name" v="Grønsletta" />
		<tag k="place" v="locality" />
		<tag k="ssr:stedsnr" v="415998" />
	</node>
	<node id="-134410" lat="60.2468527817" lon="10.3274999939">
		<tag k="name" v="Sauehaugen" />
		<tag k="natural" v="hill" />
		<tag k="place" v="locality" />
		<tag k="ssr:stedsnr" v="415995" />
	</node>
	<node id="-134409" lat="60.2366444479" lon="10.3477305488">
		<tag k="name" v="Offerdalen" />
		<tag k="natural" v="valley" />
		<tag k="place" v="locality" />
		<tag k="ssr:stedsnr" v="415667" />
	</node>
	<node id="-134408" lat="60.2226499995" lon="10.3477277785">
		<tag k="name" v="Eggestein" />
		<tag k="natural" v="stone" />
		<tag k="ssr:stedsnr" v="415631" />
	</node>
	<node id="-134407" lat="60.3875638926" lon="10.2592999948">
		<tag k="name" v="Lortemyrene" />
		<tag k="natural" v="wetland" />
		<tag k="ssr:stedsnr" v="415496" />
	</node>
	<node id="-134406" lat="60.2593083334" lon="10.4352250022">
		<tag k="name" v="Prestmoen" />
		<tag k="place" v="quarter" />
		<tag k="ssr:stedsnr" v="267813" />
	</node>
	<node id="-134405" lat="60.3215305584" lon="10.3472333381">
		<tag k="name" v="Velsandtangen" />
		<tag k="natural" v="cape" />
		<tag k="ssr:stedsnr" v="249961" />
	</node>
	<node id="-134404" lat="60.2912953462" lon="10.3535117265">
		<tag k="name" v="Sandvika" />
		<tag k="place" v="farm" />
		<tag k="ssr:stedsnr" v="249862" />
	</node>
	<node id="-134403" lat="60.2511472251" lon="10.4597111115">
		<tag k="alt_name" v="Bråtan" />
		<tag k="name" v="Bråtån" />
		<tag k="place" v="locality" />
		<tag k="ssr:stedsnr" v="249763" />
	</node>
	<node id="-134402" lat="60.265152779" lon="10.4803638848">
		<tag k="name" v="Farmen" />
		<tag k="place" v="farm" />
		<tag k="ssr:stedsnr" v="249746" />
	</node>
	<node id="-134401" lat="60.2742111083" lon="10.3253444461">
		<tag k="name" v="Fuglesang" />
		<tag k="place" v="isolated_dwelling" />
		<tag k="ssr:stedsnr" v="249435" />
	</node>
	<node id="-134400" lat="60.2881555533" lon="10.2921999982">
		<tag k="alt_name" v="Myrheim" />
		<tag k="name" v="Kistefosshytta" />
		<tag k="place" v="isolated_dwelling" />
		<tag k="ssr:stedsnr" v="249404" />
	</node>
	<node id="-134399" lat="60.3001166678" lon="10.3377972154">
		<tag k="alt_name" v="Nord-Falla;Falla, nordre" />
		<tag k="name" v="Nordre Falla" />
		<tag k="place" v="farm" />
		<tag k="ssr:stedsnr" v="249391" />
	</node>
	<node id="-134398" lat="60.2571611122" lon="10.3332777779">
		<tag k="alt_name" v="Kølamyrhøgda" />
		<tag k="fixme" v="consider natural=peak for the most distinct mountains in the district" />
		<tag k="name" v="Kolamyrhøgda" />
		<tag k="natural" v="hill" />
		<tag k="place" v="locality" />
		<tag k="ssr:stedsnr" v="249329" />
	</node>
	<node id="-134397" lat="60.253999996" lon="10.3107055471">
		<tag k="alt_name" v="Buttentjernet" />
		<tag k="name" v="Østre Buttentjern" />
		<tag k="natural" v="water" />
		<tag k="ssr:stedsnr" v="249310" />
	</node>
	<node id="-134396" lat="60.3105833356" lon="10.3481138973">
		<tag k="name" v="Strandtangen" />
		<tag k="natural" v="cape" />
		<tag k="ssr:stedsnr" v="248884" />
	</node>
	<node id="-134395" lat="60.2773888918" lon="10.5355250064">
		<tag k="name" v="Holteputt" />
		<tag k="natural" v="water" />
		<tag k="ssr:stedsnr" v="248843" />
	</node>
	<node id="-134394" lat="60.3439416691" lon="10.298077779">
		<tag k="name" v="Svarttjernsbekken" />
		<tag k="ssr:stedsnr" v="248590" />
		<tag k="waterway" v="stream" />
	</node>
	<node id="-134393" lat="60.3259027753" lon="10.2829833409">
		<tag k="alt_name" v="Malinemyrene" />
		<tag k="name" v="Malenemyra" />
		<tag k="natural" v="wetland" />
		<tag k="ssr:stedsnr" v="248453" />
	</node>
	<node id="-134392" lat="60.2328944429" lon="10.4575805515">
		<tag k="name" v="Søtbakkdalen" />
		<tag k="natural" v="valley" />
		<tag k="place" v="locality" />
		<tag k="ssr:stedsnr" v="248384" />
	</node>
	<node id="-134391" lat="60.2332722213" lon="10.4268999934">
		<tag k="name" v="Haugen" />
		<tag k="place" v="farm" />
		<tag k="ssr:stedsnr" v="248383" />
	</node>
	<node id="-134390" lat="60.2358107896" lon="10.4223950896">
		<tag k="fixme" v="consider place=hamlet" />
		<tag k="name" v="Hauger" />
		<tag k="place" v="farm" />
		<tag k="ssr:stedsnr" v="248382" />
	</node>
	<node id="-134389" lat="60.2454333368" lon="10.3954694408">
		<tag k="name" v="Randsfjorden" />
		<tag k="natural" v="water" />
		<tag k="ssr:stedsnr" v="248364" />
		<tag k="water" v="lake" />
	</node>
	<node id="-134388" lat="60.2416944458" lon="10.4681222135">
		<tag k="fixme" v="multiple name tags, choose one and add the other to alt_name" />
		<tag k="name" v="Furumyra;Rundhaugmyra" />
		<tag k="natural" v="wetland" />
		<tag k="ssr:stedsnr" v="248359" />
	</node>
	<node id="-134387" lat="60.3255305555" lon="10.3152416698">
		<tag k="alt_name" v="Skarvtjennsbrenna;Skarvetjennsbrenna" />
		<tag k="fixme" v="consider natural=peak for the most distinct mountains in the district" />
		<tag k="name" v="Skarvetjernsbrenna" />
		<tag k="natural" v="hill" />
		<tag k="place" v="locality" />
		<tag k="ssr:stedsnr" v="240469" />
	</node>
	<node id="-134386" lat="60.2546805562" lon="10.482908336">
		<tag k="name" v="Hestehagen" />
		<tag k="place" v="locality" />
		<tag k="ssr:stedsnr" v="240186" />
	</node>
	<node id="-134385" lat="60.2437861107" lon="10.4764361182">
		<tag k="name" v="Bratvalsmyra" />
		<tag k="natural" v="wetland" />
		<tag k="ssr:stedsnr" v="240174" />
	</node>
	<node id="-134384" lat="60.2385666657" lon="10.3928138924">
		<tag k="name" v="Løkhaugen" />
		<tag k="natural" v="hill" />
		<tag k="place" v="locality" />
		<tag k="ssr:stedsnr" v="240150" />
	</node>
	<node id="-134383" lat="60.2299027755" lon="10.4395722211">
		<tag k="name" v="Korpeberget" />
		<tag k="natural" v="hill" />
		<tag k="place" v="locality" />
		<tag k="ssr:stedsnr" v="240250" />
	</node>
	<node id="-134382" lat="60.2361222205" lon="10.4341916685">
		<tag k="name" v="Tosobråtan" />
		<tag k="place" v="locality" />
		<tag k="ssr:stedsnr" v="240248" />
	</node>
	<node id="-134381" lat="60.2382750001" lon="10.374991665">
		<tag k="name" v="Piperbekkhaugen" />
		<tag k="natural" v="hill" />
		<tag k="place" v="locality" />
		<tag k="ssr:stedsnr" v="240205" />
	</node>
	<node id="-134380" lat="60.3635972227" lon="10.2434944492">
		<tag k="name" v="Hammeren" />
		<tag k="natural" v="hill" />
		<tag k="place" v="locality" />
		<tag k="ssr:stedsnr" v="234988" />
	</node>
	<node id="-134379" lat="60.2347472256" lon="10.3668472265">
		<tag k="name" v="Bergevika" />
		<tag k="natural" v="bay" />
		<tag k="ssr:stedsnr" v="234776" />
	</node>
	<node id="-134378" lat="60.2403611076" lon="10.4089888902">
		<tag k="bridge" v="yes" />
		<tag k="layer" v="1" />
		<tag k="name" v="Mo" />
		<tag k="ssr:stedsnr" v="228073" />
	</node>
	<node id="-134377" lat="60.2739194456" lon="10.4199527707">
		<tag k="name" v="Rundhaugen" />
		<tag k="natural" v="hill" />
		<tag k="place" v="locality" />
		<tag k="ssr:stedsnr" v="221104" />
	</node>
	<node id="-134376" lat="60.2789083298" lon="10.4724138905">
		<tag k="name" v="Linlykja" />
		<tag k="place" v="farm" />
		<tag k="ssr:stedsnr" v="221042" />
	</node>
	<node id="-134375" lat="60.2682194486" lon="10.4652083308">
		<tag k="name" v="Haug" />
		<tag k="place" v="isolated_dwelling" />
		<tag k="ssr:stedsnr" v="221001" />
	</node>
	<node id="-134374" lat="60.2177638853" lon="10.4205750015">
		<tag k="name" v="Elvelia" />
		<tag k="natural" v="slope" />
		<tag k="place" v="locality" />
		<tag k="ssr:stedsnr" v="216870" />
	</node>
	<node id="-134373" lat="60.2189694466" lon="10.467847217">
		<tag k="name" v="Sandbekken" />
		<tag k="ssr:stedsnr" v="216673" />
		<tag k="waterway" v="stream" />
	</node>
	<node id="-134372" lat="60.2162361135" lon="10.4711527866">
		<tag k="name" v="Svenåa" />
		<tag k="ssr:stedsnr" v="216669" />
		<tag k="waterway" v="river" />
	</node>
	<node id="-134371" lat="60.3005749966" lon="10.4029194498">
		<tag k="alt_name" v="Igelsrudhaugen" />
		<tag k="name" v="Igulsrudhaugen" />
		<tag k="natural" v="hill" />
		<tag k="old_name" v="Ingelsrudhaugen" />
		<tag k="place" v="locality" />
		<tag k="ssr:stedsnr" v="216335" />
	</node>
	<node id="-134370" lat="60.2805333347" lon="10.3054583332">
		<tag k="name" v="Bjønnbergdalen" />
		<tag k="natural" v="valley" />
		<tag k="place" v="locality" />
		<tag k="ssr:stedsnr" v="216244" />
	</node>
	<node id="-134369" lat="60.3025333341" lon="10.2729638972">
		<tag k="name" v="Moltetangen" />
		<tag k="natural" v="cape" />
		<tag k="ssr:stedsnr" v="216224" />
	</node>
	<node id="-134368" lat="60.2196083315" lon="10.5107083344">
		<tag k="alt_name" v="Øljeberga" />
		<tag k="name" v="Oljeberga" />
		<tag k="natural" v="slope" />
		<tag k="place" v="locality" />
		<tag k="ssr:stedsnr" v="214979" />
	</node>
	<node id="-134367" lat="60.2141777772" lon="10.5211861147">
		<tag k="alt_name" v="Johannstjennsbrenna" />
		<tag k="fixme" v="consider natural=peak for the most distinct mountains in the district" />
		<tag k="name" v="Johannestjernsbrenna" />
		<tag k="natural" v="hill" />
		<tag k="place" v="locality" />
		<tag k="ssr:stedsnr" v="214972" />
	</node>
	<node id="-134366" lat="60.2120944487" lon="10.4928111026">
		<tag k="name" v="Kjippmyra" />
		<tag k="natural" v="wetland" />
		<tag k="ssr:stedsnr" v="214964" />
	</node>
	<node id="-134365" lat="60.1966944416" lon="10.5612638947">
		<tag k="name" v="Roensetermyra" />
		<tag k="natural" v="wetland" />
		<tag k="ssr:stedsnr" v="213508" />
	</node>
	<node id="-134364" lat="60.3096444414" lon="10.3864416591">
		<tag k="alt_name" v="Bjertnes" />
		<tag k="name" v="Søndre Bjertnes" />
		<tag k="place" v="farm" />
		<tag k="ssr:stedsnr" v="212677" />
	</node>
	<node id="-134363" lat="60.3103722227" lon="10.4623972301">
		<tag k="name" v="Velotjernet" />
		<tag k="natural" v="water" />
		<tag k="ssr:stedsnr" v="188941" />
	</node>
	<node id="-134362" lat="60.3010888918" lon="10.3487111059">
		<tag k="name" v="Steinhus" />
		<tag k="place" v="isolated_dwelling" />
		<tag k="ssr:stedsnr" v="188911" />
	</node>
	<node id="-134361" lat="60.2923611106" lon="10.4093999956">
		<tag k="name" v="Roenhagan" />
		<tag k="place" v="farm" />
		<tag k="ssr:stedsnr" v="188876" />
	</node>
	<node id="-134360" lat="60.2955777765" lon="10.4280138827">
		<tag k="name" v="Sløvikelva" />
		<tag k="ssr:stedsnr" v="188864" />
		<tag k="waterway" v="river" />
	</node>
	<node id="-134359" lat="60.3011502825" lon="10.4119179194">
		<tag k="fixme" v="consider place=hamlet" />
		<tag k="name" v="Tømmerås" />
		<tag k="place" v="farm" />
		<tag k="ssr:stedsnr" v="188862" />
	</node>
	<node id="-134358" lat="60.2766305574" lon="10.4400694456">
		<tag k="alt_name" v="Skjennum østre" />
		<tag k="name" v="Skjennumstua" />
		<tag k="place" v="isolated_dwelling" />
		<tag k="ssr:stedsnr" v="188848" />
	</node>
	<node id="-134357" lat="60.275924999" lon="10.4079444425">
		<tag k="alt_name" v="Bjellum, nordre;Bjellum" />
		<tag k="name" v="Nordre Bjellum" />
		<tag k="place" v="farm" />
		<tag k="ssr:stedsnr" v="188814" />
	</node>
	<node id="-134356" lat="60.2528555538" lon="10.437611117">
		<tag k="name" v="Helleksrud" />
		<tag k="place" v="isolated_dwelling" />
		<tag k="ssr:stedsnr" v="188810" />
	</node>
	<node id="-134355" lat="60.2503666628" lon="10.5278277737">
		<tag k="name" v="Grasbergtjerna" />
		<tag k="natural" v="water" />
		<tag k="ssr:stedsnr" v="188807" />
	</node>
	<node id="-134354" lat="60.2537999973" lon="10.4805194372">
		<tag k="name" v="Brattli" />
		<tag k="place" v="farm" />
		<tag k="ssr:stedsnr" v="188808" />
	</node>
	<node id="-134353" lat="60.3329166694" lon="10.2820999951">
		<tag k="alt_name" v="Kimtjenn" />
		<tag k="name" v="Kimetjern" />
		<tag k="natural" v="water" />
		<tag k="ssr:stedsnr" v="188500" />
	</node>
	<node id="-134352" lat="60.243113893" lon="10.3718000007">
		<tag k="alt_name" v="Berger" />
		<tag k="name" v="Øvre Berger" />
		<tag k="place" v="farm" />
		<tag k="ssr:stedsnr" v="188425" />
	</node>
	<node id="-134351" lat="60.3541166684" lon="10.3135083341">
		<tag k="alt_name" v="Damtjern, nordre" />
		<tag k="name" v="Nordre Damtjern" />
		<tag k="natural" v="water" />
		<tag k="ssr:stedsnr" v="187551" />
	</node>
	<node id="-134350" lat="60.3711694483" lon="10.3043999912">
		<tag k="name" v="Putten" />
		<tag k="natural" v="water" />
		<tag k="ssr:stedsnr" v="187572" />
	</node>
	<node id="-134349" lat="60.3751333329" lon="10.3067194391">
		<tag k="name" v="Amundskoietjern" />
		<tag k="natural" v="water" />
		<tag k="ssr:stedsnr" v="187569" />
	</node>
	<node id="-134348" lat="60.3624805525" lon="10.2295055513">
		<tag k="alt_name" v="Rompeputta" />
		<tag k="name" v="Rompeputtane" />
		<tag k="natural" v="water" />
		<tag k="ssr:stedsnr" v="187566" />
	</node>
	<node id="-134347" lat="60.2088861098" lon="10.5292638894">
		<tag k="alt_name" v="Johannestjennet;Johanstjern" />
		<tag k="name" v="Johannestjernet" />
		<tag k="natural" v="water" />
		<tag k="ssr:stedsnr" v="187447" />
	</node>
	<node id="-134346" lat="60.2314055591" lon="10.3564111176">
		<tag k="alt_name" v="Grønntjernet" />
		<tag k="name" v="Grøntjernet" />
		<tag k="natural" v="water" />
		<tag k="ssr:stedsnr" v="187446" />
	</node>
	<node id="-134345" lat="60.2223722234" lon="10.4284833321">
		<tag k="alt_name" v="Dælen" />
		<tag k="name" v="Dalen" />
		<tag k="place" v="locality" />
		<tag k="ssr:stedsnr" v="187439" />
	</node>
	<node id="-134344" lat="60.2225777755" lon="10.4285083244">
		<tag k="alt_name" v="Sørås" />
		<tag k="name" v="Ås" />
		<tag k="place" v="locality" />
		<tag k="ssr:stedsnr" v="187438" />
	</node>
	<node id="-134343" lat="60.2429611071" lon="10.5096555531">
		<tag k="alt_name" v="Kråkmyra" />
		<tag k="name" v="Kråkemyrene" />
		<tag k="natural" v="wetland" />
		<tag k="ssr:stedsnr" v="187355" />
	</node>
	<node id="-134342" lat="60.2365888906" lon="10.5278194477">
		<tag k="alt_name" v="Vestend" />
		<tag k="name" v="Vestenden" />
		<tag k="place" v="farm" />
		<tag k="ssr:stedsnr" v="187354" />
	</node>
	<node id="-134341" lat="60.2403583345" lon="10.5208277741">
		<tag k="alt_name" v="Elgkollen" />
		<tag k="fixme" v="consider natural=peak for the most distinct mountains in the district" />
		<tag k="name" v="Helgehaugen" />
		<tag k="natural" v="hill" />
		<tag k="place" v="locality" />
		<tag k="ssr:stedsnr" v="187353" />
	</node>
	<node id="-134340" lat="60.188972219" lon="10.5589027832">
		<tag k="alt_name" v="Grasdalkollen" />
		<tag k="fixme" v="consider natural=peak for the most distinct mountains in the district" />
		<tag k="name" v="Grasdalskollen" />
		<tag k="natural" v="hill" />
		<tag k="place" v="locality" />
		<tag k="ssr:stedsnr" v="187044" />
	</node>
	<node id="-134339" lat="60.2219333342" lon="10.4685388963">
		<tag k="fixme" v="consider highway=path" />
		<tag k="highway" v="track" />
		<tag k="name" v="Finnerudvegen" />
		<tag k="ssr:stedsnr" v="179505" />
	</node>
	<node id="-134338" lat="60.2284527787" lon="10.431636117">
		<tag k="highway" v="path" />
		<tag k="name" v="Delebakken" />
		<tag k="ssr:stedsnr" v="179393" />
	</node>
	<node id="-134337" lat="60.2489444455" lon="10.4792361085">
		<tag k="name" v="Klokkermarka" />
		<tag k="place" v="locality" />
		<tag k="ssr:stedsnr" v="179163" />
	</node>
	<node id="-134336" lat="60.2375333367" lon="10.4140444506">
		<tag k="landuse" v="meadow" />
		<tag k="name" v="Støm" />
		<tag k="ssr:stedsnr" v="179140" />
	</node>
	<node id="-134335" lat="60.2365388899" lon="10.4171444444">
		<tag k="landuse" v="meadow" />
		<tag k="name" v="Haugerenga" />
		<tag k="ssr:stedsnr" v="179137" />
	</node>
	<node id="-134334" lat="60.2275999981" lon="10.3756833252">
		<tag k="name" v="Bergerfoss" />
		<tag k="natural" v="waterfall" />
		<tag k="old_name" v="Bergefoss" />
		<tag k="ssr:stedsnr" v="175483" />
	</node>
	<node id="-134333" lat="60.2723722257" lon="10.3133666686">
		<tag k="name" v="Øvre Berger" />
		<tag k="place" v="locality" />
		<tag k="ssr:stedsnr" v="173891" />
	</node>
	<node id="-134332" lat="60.2883716588" lon="10.357112567">
		<tag k="fixme" v="consider place=hamlet" />
		<tag k="name" v="Næverbekken" />
		<tag k="place" v="farm" />
		<tag k="ssr:stedsnr" v="173245" />
	</node>
	<node id="-134331" lat="60.3666527749" lon="10.3510944506">
		<tag k="name" v="Kringelhaugen" />
		<tag k="natural" v="hill" />
		<tag k="place" v="locality" />
		<tag k="ssr:stedsnr" v="173399" />
	</node>
	<node id="-134330" lat="60.2233583345" lon="10.3443444355">
		<tag k="name" v="Bjønnputten" />
		<tag k="natural" v="valley" />
		<tag k="place" v="locality" />
		<tag k="ssr:stedsnr" v="172603" />
	</node>
	<node id="-134329" lat="60.3791027819" lon="10.2020027754">
		<tag k="fixme" v="consider natural=peak for the most distinct mountains in the district" />
		<tag k="name" v="Nordre Klæstad" />
		<tag k="natural" v="hill" />
		<tag k="place" v="locality" />
		<tag k="ssr:stedsnr" v="172375" />
	</node>
	<node id="-134328" lat="60.2372861115" lon="10.3710388812">
		<tag k="bridge" v="yes" />
		<tag k="layer" v="1" />
		<tag k="name" v="Bergertjern" />
		<tag k="ssr:stedsnr" v="168086" />
	</node>
	<node id="-134327" lat="60.2817305595" lon="10.5281833312">
		<tag k="bridge" v="yes" />
		<tag k="layer" v="1" />
		<tag k="name" v="Bekkehallum" />
		<tag k="ssr:stedsnr" v="168083" />
	</node>
	<node id="-134326" lat="60.2716361095" lon="10.5176111156">
		<tag k="name" v="Bjerkås" />
		<tag k="old_name" v="Nordstuløkken;Bjerkaas" />
		<tag k="place" v="farm" />
		<tag k="ssr:stedsnr" v="163035" />
	</node>
	<node id="-134325" lat="60.313544447" lon="10.3384194374">
		<tag k="name" v="Ormeberga" />
		<tag k="natural" v="hill" />
		<tag k="place" v="locality" />
		<tag k="ssr:stedsnr" v="159853" />
	</node>
	<node id="-134324" lat="60.2151833291" lon="10.4554666625">
		<tag k="alt_name" v="Branntjennsdalen" />
		<tag k="name" v="Branntjernsdalen" />
		<tag k="natural" v="valley" />
		<tag k="place" v="locality" />
		<tag k="ssr:stedsnr" v="155688" />
	</node>
	<node id="-134323" lat="60.2053861071" lon="10.4445472175">
		<tag k="historic" v="shieling" />
		<tag k="name" v="Mosetervollen" />
		<tag k="place" v="locality" />
		<tag k="ssr:stedsnr" v="155654" />
	</node>
	<node id="-134322" lat="60.303191671" lon="10.3861444486">
		<tag k="name" v="Dalsvika" />
		<tag k="natural" v="bay" />
		<tag k="ssr:stedsnr" v="155454" />
	</node>
	<node id="-134321" lat="60.2992055524" lon="10.4197138873">
		<tag k="amenity" v="school" />
		<tag k="name" v="Sogn skole" />
		<tag k="ssr:stedsnr" v="155354" />
	</node>
	<node id="-134320" lat="60.2524944459" lon="10.493808335">
		<tag k="name" v="Gullenmarka" />
		<tag k="natural" v="slope" />
		<tag k="place" v="locality" />
		<tag k="ssr:stedsnr" v="153954" />
	</node>
	<node id="-134319" lat="60.2585749959" lon="10.5015166712">
		<tag k="name" v="Kastbekken" />
		<tag k="ssr:stedsnr" v="153951" />
		<tag k="waterway" v="stream" />
	</node>
	<node id="-134318" lat="60.2470222185" lon="10.4954166656">
		<tag k="name" v="Høgsetberget" />
		<tag k="natural" v="hill" />
		<tag k="place" v="locality" />
		<tag k="ssr:stedsnr" v="153941" />
	</node>
	<node id="-134317" lat="60.202530554" lon="10.5428972297">
		<tag k="name" v="Gryta" />
		<tag k="natural" v="valley" />
		<tag k="place" v="locality" />
		<tag k="ssr:stedsnr" v="153909" />
	</node>
	<node id="-134316" lat="60.2365222231" lon="10.5025305542">
		<tag k="name" v="Blautholet" />
		<tag k="natural" v="valley" />
		<tag k="place" v="locality" />
		<tag k="ssr:stedsnr" v="153897" />
	</node>
	<node id="-134315" lat="60.1959250029" lon="10.5489888862">
		<tag k="fixme" v="consider natural=peak for the most distinct mountains in the district" />
		<tag k="name" v="Roenseterbrenna" />
		<tag k="natural" v="hill" />
		<tag k="place" v="locality" />
		<tag k="ssr:stedsnr" v="152510" />
	</node>
	<node id="-134314" lat="60.3122944449" lon="10.4405611071">
		<tag k="name" v="Bekkestua" />
		<tag k="place" v="isolated_dwelling" />
		<tag k="ssr:stedsnr" v="128919" />
	</node>
	<node id="-134313" lat="60.3108810941" lon="10.4237967937">
		<tag k="alt_name" v="Velo" />
		<tag k="name" v="Nordre Velo" />
		<tag k="place" v="farm" />
		<tag k="ssr:stedsnr" v="128909" />
	</node>
	<node id="-134312" lat="60.2977111107" lon="10.3569222253">
		<tag k="alt_name" v="Vinnæs" />
		<tag k="name" v="Vindnes" />
		<tag k="natural" v="cape" />
		<tag k="ssr:stedsnr" v="127905" />
	</node>
	<node id="-134311" lat="60.2977222267" lon="10.4560694462">
		<tag k="name" v="Nordli" />
		<tag k="place" v="farm" />
		<tag k="ssr:stedsnr" v="127873" />
	</node>
	<node id="-134310" lat="60.2570833357" lon="10.489661104">
		<tag k="name" v="Myrvoll" />
		<tag k="place" v="farm" />
		<tag k="ssr:stedsnr" v="127789" />
	</node>
	<node id="-134309" lat="60.264377775" lon="10.4893361186">
		<tag k="name" v="Aslaksrud" />
		<tag k="place" v="farm" />
		<tag k="ssr:stedsnr" v="127788" />
	</node>
	<node id="-134308" lat="60.2541861133" lon="10.3750999978">
		<tag k="name" v="Tokerud" />
		<tag k="place" v="farm" />
		<tag k="ssr:stedsnr" v="127778" />
	</node>
	<node id="-134307" lat="60.3072583326" lon="10.4318500084">
		<tag k="alt_name" v="Velo" />
		<tag k="name" v="Vestre Velo" />
		<tag k="old_name" v="Velø" />
		<tag k="place" v="farm" />
		<tag k="ssr:stedsnr" v="127694" />
	</node>
	<node id="-134306" lat="60.3800555558" lon="10.2957749938">
		<tag k="name" v="Otermyrbakken" />
		<tag k="place" v="isolated_dwelling" />
		<tag k="ssr:stedsnr" v="127658" />
	</node>
	<node id="-134305" lat="60.2652577489" lon="10.4612226215">
		<tag k="fixme" v="consider place=hamlet" />
		<tag k="name" v="Klinkenberg" />
		<tag k="place" v="farm" />
		<tag k="ssr:stedsnr" v="127810" />
	</node>
	<node id="-134304" lat="60.2504583378" lon="10.3874805583">
		<tag k="name" v="Birkelund" />
		<tag k="place" v="isolated_dwelling" />
		<tag k="ssr:stedsnr" v="127804" />
	</node>
	<node id="-134303" lat="60.3594250033" lon="10.3155888913">
		<tag k="name" v="Langtjern" />
		<tag k="natural" v="water" />
		<tag k="ssr:stedsnr" v="127623" />
	</node>
	<node id="-134302" lat="60.3401027793" lon="10.26163888">
		<tag k="alt_name" v="Halvorsbølesætra, vestre;Vestre Halvorbøleseter" />
		<tag k="historic" v="shieling" />
		<tag k="name" v="Vestre Halvorsbølesætra" />
		<tag k="place" v="locality" />
		<tag k="ssr:stedsnr" v="127622" />
	</node>
	<node id="-134301" lat="60.3029500041" lon="10.3268361047">
		<tag k="fixme" v="consider natural=peak for the most distinct mountains in the district" />
		<tag k="name" v="Kilehaugen" />
		<tag k="natural" v="hill" />
		<tag k="place" v="locality" />
		<tag k="ssr:stedsnr" v="127541" />
	</node>
	<node id="-134300" lat="60.3147833305" lon="10.3057444481">
		<tag k="fixme" v="consider natural=peak for the most distinct mountains in the district" />
		<tag k="name" v="Mjørbråtahaugane" />
		<tag k="natural" v="hill" />
		<tag k="place" v="locality" />
		<tag k="ssr:stedsnr" v="127530" />
	</node>
	<node id="-134299" lat="60.3133638905" lon="10.2879583339">
		<tag k="name" v="Svarttjernsmyra" />
		<tag k="natural" v="wetland" />
		<tag k="ssr:stedsnr" v="127528" />
	</node>
	<node id="-134298" lat="60.3312055525" lon="10.3039111126">
		<tag k="alt_name" v="Kløyvtjenn" />
		<tag k="name" v="Kløvtjern" />
		<tag k="natural" v="water" />
		<tag k="ssr:stedsnr" v="127497" />
	</node>
	<node id="-134297" lat="60.3363500006" lon="10.2844805577">
		<tag k="name" v="Kalstadfløyta" />
		<tag k="natural" v="water" />
		<tag k="ssr:stedsnr" v="127496" />
	</node>
	<node id="-134296" lat="60.3336583308" lon="10.2802499952">
		<tag k="alt_name" v="Kimtjennseter" />
		<tag k="historic" v="shieling" />
		<tag k="name" v="Kimetjernsætra" />
		<tag k="place" v="locality" />
		<tag k="ssr:stedsnr" v="127493" />
	</node>
	<node id="-134295" lat="60.3324027817" lon="10.3118027788">
		<tag k="alt_name" v="Gladbakken" />
		<tag k="name" v="Gladbakk" />
		<tag k="place" v="isolated_dwelling" />
		<tag k="ssr:stedsnr" v="127489" />
	</node>
	<node id="-134294" lat="60.248477774" lon="10.4589972274">
		<tag k="alt_name" v="Åserud" />
		<tag k="name" v="Åsrud" />
		<tag k="place" v="locality" />
		<tag k="ssr:stedsnr" v="127454" />
	</node>
	<node id="-134293" lat="60.2485194433" lon="10.370649994">
		<tag k="name" v="Nordhagen" />
		<tag k="place" v="quarter" />
		<tag k="ssr:stedsnr" v="127453" />
	</node>
	<node id="-134292" lat="60.2477388881" lon="10.3513055525">
		<tag k="alt_name" v="Loftberga" />
		<tag k="fixme" v="consider natural=peak for the most distinct mountains in the district" />
		<tag k="name" v="Loftberget" />
		<tag k="natural" v="hill" />
		<tag k="place" v="locality" />
		<tag k="ssr:stedsnr" v="127405" />
	</node>
	<node id="-134291" lat="60.2128222254" lon="10.4994055495">
		<tag k="alt_name" v="Skjennumsetra" />
		<tag k="historic" v="shieling" />
		<tag k="name" v="Skjennumsætra" />
		<tag k="place" v="locality" />
		<tag k="ssr:stedsnr" v="126486" />
	</node>
	<node id="-134290" lat="60.3593083375" lon="10.2923083298">
		<tag k="name" v="Blekketjern" />
		<tag k="natural" v="water" />
		<tag k="ssr:stedsnr" v="126591" />
	</node>
	<node id="-134289" lat="60.2043467361" lon="10.5218900049">
		<tag k="name" v="Tverrsjøen" />
		<tag k="natural" v="water" />
		<tag k="ssr:stedsnr" v="126439" />
		<tag k="water" v="lake" />
	</node>
	<node id="-134288" lat="60.206683334" lon="10.4433722222">
		<tag k="historic" v="shieling" />
		<tag k="name" v="Mosætra" />
		<tag k="place" v="locality" />
		<tag k="ssr:stedsnr" v="126438" />
	</node>
	<node id="-134287" lat="60.2058305527" lon="10.4702194427">
		<tag k="fixme" v="consider natural=peak for the most distinct mountains in the district" />
		<tag k="name" v="Seksputthøgda" />
		<tag k="natural" v="hill" />
		<tag k="place" v="locality" />
		<tag k="ssr:stedsnr" v="126437" />
	</node>
	<node id="-134286" lat="60.231769445" lon="10.5341638799">
		<tag k="name" v="Trantjern" />
		<tag k="place" v="farm" />
		<tag k="ssr:stedsnr" v="126388" />
	</node>
	<node id="-134285" lat="60.1863055546" lon="10.5378111164">
		<tag k="alt_name" v="Hesteskotjernet" />
		<tag k="name" v="Hesteskovatnet" />
		<tag k="natural" v="water" />
		<tag k="ssr:stedsnr" v="126061" />
	</node>
	<node id="-134284" lat="60.1906111069" lon="10.5632583327">
		<tag k="fixme" v="consider natural=peak for the most distinct mountains in the district" />
		<tag k="name" v="Vangshaugen" />
		<tag k="natural" v="hill" />
		<tag k="place" v="locality" />
		<tag k="ssr:stedsnr" v="126052" />
	</node>
	<node id="-134283" lat="60.336947221" lon="10.3444500033">
		<tag k="name" v="Gjerdingen" />
		<tag k="place" v="farm" />
		<tag k="ssr:stedsnr" v="119482" />
	</node>
	<node id="-134282" lat="60.3284388876" lon="10.3450055543">
		<tag k="name" v="Strandberg" />
		<tag k="place" v="isolated_dwelling" />
		<tag k="ssr:stedsnr" v="119480" />
	</node>
	<node id="-134281" lat="60.2383305563" lon="10.3549111082">
		<tag k="amenity" v="school" />
		<tag k="name" v="Bergerbakken skole" />
		<tag k="ssr:stedsnr" v="119153" />
	</node>
	<node id="-134280" lat="60.2570106413" lon="10.4376578281">
		<tag k="fixme" v="consider place=hamlet" />
		<tag k="name" v="Prestegården" />
		<tag k="place" v="farm" />
		<tag k="ssr:stedsnr" v="118146" />
	</node>
	<node id="-134279" lat="60.2266638915" lon="10.3903944401">
		<tag k="name" v="Midtmoen" />
		<tag k="place" v="locality" />
		<tag k="ssr:stedsnr" v="118139" />
	</node>
	<node id="-134278" lat="60.2395888856" lon="10.3675722279">
		<tag k="amenity" v="school" />
		<tag k="name" v="Jevnaker skole" />
		<tag k="ssr:stedsnr" v="113746" />
	</node>
	<node id="-134277" lat="60.2404805531" lon="10.3579250027">
		<tag k="name" v="Grane" />
		<tag k="place" v="farm" />
		<tag k="ssr:stedsnr" v="113741" />
	</node>
	<node id="-134276" lat="60.2532638883" lon="10.3471416718">
		<tag k="name" v="Midtbråtan" />
		<tag k="place" v="locality" />
		<tag k="ssr:stedsnr" v="112994" />
	</node>
	<node id="-134275" lat="60.326044444" lon="10.2611472259">
		<tag k="name" v="Midtskauhøgda" />
		<tag k="natural" v="hill" />
		<tag k="place" v="locality" />
		<tag k="ssr:stedsnr" v="112834" />
	</node>
	<node id="-134274" lat="60.2754611153" lon="10.3673083418">
		<tag k="name" v="Trengslebergvollen" />
		<tag k="place" v="locality" />
		<tag k="ssr:stedsnr" v="112598" />
	</node>
	<node id="-134273" lat="60.2307361141" lon="10.3634444394">
		<tag k="name" v="Puttemyra" />
		<tag k="natural" v="wetland" />
		<tag k="ssr:stedsnr" v="112583" />
	</node>
	<node id="-134272" lat="60.2388888898" lon="10.3703777694">
		<tag k="bridge" v="yes" />
		<tag k="layer" v="1" />
		<tag k="name" v="Sulland" />
		<tag k="ssr:stedsnr" v="107061" />
	</node>
	<node id="-134271" lat="60.2712166627" lon="10.5049805546">
		<tag k="layer" v="-1" />
		<tag k="name" v="Olumshagatunnelen" />
		<tag k="old_name" v="Olimshagen" />
		<tag k="ssr:stedsnr" v="105384" />
		<tag k="tunnel" v="yes" />
	</node>
	<node id="-134270" lat="60.2821888981" lon="10.5096836832">
		<tag k="alt_name" v="Endsrud;Ensrud" />
		<tag k="fixme" v="consider place=hamlet" />
		<tag k="name" v="Prest-Ensrud" />
		<tag k="old_name" v="Præst-Ensrud;Præstensrud" />
		<tag k="place" v="farm" />
		<tag k="ssr:stedsnr" v="102845" />
	</node>
	<node id="-134269" lat="60.2822361154" lon="10.4499916629">
		<tag k="name" v="Vestenga" />
		<tag k="place" v="farm" />
		<tag k="ssr:stedsnr" v="100122" />
	</node>
	<node id="-134268" lat="60.3122916662" lon="10.3150388963">
		<tag k="alt_name" v="Butjennsmyrene" />
		<tag k="name" v="Butjernsmyrene" />
		<tag k="natural" v="wetland" />
		<tag k="ssr:stedsnr" v="98823" />
	</node>
	<node id="-134267" lat="60.2973904121" lon="10.3378842571">
		<tag k="name" v="Falla" />
		<tag k="place" v="farm" />
		<tag k="ssr:stedsnr" v="98806" />
	</node>
	<node id="-134266" lat="60.3685388852" lon="10.2653861096">
		<tag k="name" v="Hemvegsputten" />
		<tag k="natural" v="water" />
		<tag k="ssr:stedsnr" v="98472" />
		<tag k="water" v="pond" />
	</node>
	<node id="-134265" lat="60.2151666697" lon="10.4070333405">
		<tag k="name" v="Skollerud" />
		<tag k="place" v="locality" />
		<tag k="ssr:stedsnr" v="95884" />
	</node>
	<node id="-134264" lat="60.2895972255" lon="10.3081083313">
		<tag k="name" v="Toputtmyrene" />
		<tag k="natural" v="wetland" />
		<tag k="ssr:stedsnr" v="95230" />
	</node>
	<node id="-134263" lat="60.2781333318" lon="10.3017277827">
		<tag k="name" v="Trettestykkene" />
		<tag k="place" v="locality" />
		<tag k="ssr:stedsnr" v="95226" />
	</node>
	<node id="-134262" lat="60.206752776" lon="10.5028555563">
		<tag k="name" v="Abrahamsløkka" />
		<tag k="place" v="locality" />
		<tag k="ssr:stedsnr" v="93929" />
	</node>
	<node id="-134261" lat="60.2708888874" lon="10.5129777844">
		<tag k="name" v="Nordstrand" />
		<tag k="place" v="farm" />
		<tag k="ssr:stedsnr" v="93914" />
	</node>
	<node id="-134260" lat="60.2697055578" lon="10.5144666644">
		<tag k="name" v="Myre" />
		<tag k="place" v="farm" />
		<tag k="ssr:stedsnr" v="93913" />
	</node>
	<node id="-134259" lat="60.251369446" lon="10.5079916698">
		<tag k="name" v="Vanntroa" />
		<tag k="natural" v="spring" />
		<tag k="ssr:stedsnr" v="93904" />
	</node>
	<node id="-134258" lat="60.1902722182" lon="10.5242527731">
		<tag k="name" v="Mariputten" />
		<tag k="natural" v="water" />
		<tag k="ssr:stedsnr" v="93888" />
		<tag k="water" v="pond" />
	</node>
	<node id="-134257" lat="60.1859666661" lon="10.5337944381">
		<tag k="name" v="Kloppmyrene" />
		<tag k="natural" v="wetland" />
		<tag k="ssr:stedsnr" v="93887" />
	</node>
	<node id="-134256" lat="60.3084861068" lon="10.4321666612">
		<tag k="name" v="Øvre Velo" />
		<tag k="place" v="farm" />
		<tag k="ssr:stedsnr" v="90148" />
	</node>
	<node id="-134255" lat="60.3078888863" lon="10.4542027866">
		<tag k="name" v="Midtlia" />
		<tag k="place" v="locality" />
		<tag k="ssr:stedsnr" v="90145" />
	</node>
	<node id="-134254" lat="60.2506749975" lon="10.3092500024">
		<tag k="name" v="Skillebekken" />
		<tag k="ssr:stedsnr" v="87790" />
		<tag k="waterway" v="stream" />
	</node>
	<node id="-134253" lat="60.3340552621" lon="10.3440352245">
		<tag k="fixme" v="consider place=hamlet" />
		<tag k="name" v="Elnes" />
		<tag k="place" v="farm" />
		<tag k="ssr:stedsnr" v="67993" />
	</node>
	<node id="-134252" lat="60.3040444406" lon="10.4084194412">
		<tag k="alt_name" v="Jørve" />
		<tag k="name" v="Gjørve" />
		<tag k="place" v="farm" />
		<tag k="ssr:stedsnr" v="67890" />
	</node>
	<node id="-134251" lat="60.3051583348" lon="10.4668916757">
		<tag k="alt_name" v="Bråtatjernet" />
		<tag k="name" v="Bråtåtjernet" />
		<tag k="natural" v="water" />
		<tag k="ssr:stedsnr" v="67886" />
	</node>
	<node id="-134250" lat="60.3039944456" lon="10.394691673">
		<tag k="name" v="Dal" />
		<tag k="place" v="farm" />
		<tag k="ssr:stedsnr" v="67875" />
	</node>
	<node id="-134249" lat="60.280927776" lon="10.4296611105">
		<tag k="alt_name" v="Skjennum, nordre" />
		<tag k="name" v="Nordre Skjennum" />
		<tag k="place" v="farm" />
		<tag k="ssr:stedsnr" v="67846" />
	</node>
	<node id="-134248" lat="60.270686872" lon="10.5259096667">
		<tag k="fixme" v="consider place=hamlet" />
		<tag k="name" v="Halvorsrud" />
		<tag k="place" v="farm" />
		<tag k="ssr:stedsnr" v="67812" />
	</node>
	<node id="-134247" lat="60.2592221913" lon="10.3790253705">
		<tag k="fixme" v="consider place=hamlet" />
		<tag k="name" v="Nordby" />
		<tag k="place" v="farm" />
		<tag k="ssr:stedsnr" v="67802" />
	</node>
	<node id="-134246" lat="60.2638833295" lon="10.3542277703">
		<tag k="alt_name" v="Stormyr" />
		<tag k="name" v="Stormyra" />
		<tag k="natural" v="wetland" />
		<tag k="ssr:stedsnr" v="67800" />
	</node>
	<node id="-134245" lat="60.262205554" lon="10.3476361043">
		<tag k="alt_name" v="Nøklebysætra, nedre;Nedre Nøkleby seter" />
		<tag k="name" v="Nedre Nøklebysætra" />
		<tag k="place" v="isolated_dwelling" />
		<tag k="ssr:stedsnr" v="67799" />
	</node>
	<node id="-134244" lat="60.2674805541" lon="10.3409277712">
		<tag k="alt_name" v="Gammalseteråsen" />
		<tag k="fixme" v="consider natural=peak for the most distinct mountains in the district" />
		<tag k="name" v="Gammalsæteråsen" />
		<tag k="natural" v="hill" />
		<tag k="place" v="locality" />
		<tag k="ssr:stedsnr" v="67798" />
	</node>
	<node id="-134243" lat="60.2558125028" lon="10.4467677039">
		<tag k="alt_name" v="Bratval" />
		<tag k="fixme" v="consider place=hamlet" />
		<tag k="name" v="Brattval" />
		<tag k="place" v="farm" />
		<tag k="ssr:stedsnr" v="67776" />
	</node>
	<node id="-134242" lat="60.2541888898" lon="10.477772228">
		<tag k="alt_name" v="Gullenbråtan" />
		<tag k="name" v="Gullenbråtån" />
		<tag k="place" v="farm" />
		<tag k="ssr:stedsnr" v="67775" />
	</node>
	<node id="-134241" lat="60.2613583364" lon="10.4274694359">
		<tag k="name" v="Skogheim" />
		<tag k="place" v="isolated_dwelling" />
		<tag k="ssr:stedsnr" v="67764" />
	</node>
	<node id="-134240" lat="60.2585421339" lon="10.4656654093">
		<tag k="fixme" v="consider place=hamlet" />
		<tag k="name" v="Røste" />
		<tag k="place" v="farm" />
		<tag k="ssr:stedsnr" v="67762" />
	</node>
	<node id="-134239" lat="60.2511277754" lon="10.3506527859">
		<tag k="alt_name" v="Jørnsbråtan" />
		<tag k="name" v="Jørnsbråtåsætra" />
		<tag k="place" v="isolated_dwelling" />
		<tag k="ssr:stedsnr" v="67753" />
	</node>
	<node id="-134238" lat="60.307224999" lon="10.2848750051">
		<tag k="name" v="Smalkalven" />
		<tag k="natural" v="bay" />
		<tag k="ssr:stedsnr" v="67534" />
	</node>
	<node id="-134237" lat="60.3291463923" lon="10.3416651058">
		<tag k="alt_name" v="Skutseter" />
		<tag k="fixme" v="consider place=hamlet" />
		<tag k="name" v="Skutsæter" />
		<tag k="place" v="farm" />
		<tag k="ssr:stedsnr" v="67475" />
	</node>
	<node id="-134236" lat="60.3375916705" lon="10.3081333315">
		<tag k="name" v="Kroktjern" />
		<tag k="natural" v="water" />
		<tag k="ssr:stedsnr" v="67469" />
	</node>
	<node id="-134235" lat="60.2260333351" lon="10.3488055476">
		<tag k="loc_name" v="Bergemoen" />
		<tag k="name" v="Bergermoen" />
		<tag k="place" v="quarter" />
		<tag k="ssr:stedsnr" v="66447" />
	</node>
	<node id="-134234" lat="60.2224194436" lon="10.3703388922">
		<tag k="name" v="Kistefoss" />
		<tag k="place" v="farm" />
		<tag k="ssr:stedsnr" v="66445" />
	</node>
	<node id="-134233" lat="60.2034361111" lon="10.5054388844">
		<tag k="name" v="Villingmyra" />
		<tag k="natural" v="wetland" />
		<tag k="ssr:stedsnr" v="66409" />
	</node>
	<node id="-134232" lat="60.2455194463" lon="10.4411249974">
		<tag k="name" v="Bekkestua" />
		<tag k="place" v="locality" />
		<tag k="ssr:stedsnr" v="66363" />
	</node>
	<node id="-134231" lat="60.1903083357" lon="10.4969277859">
		<tag k="alt_name" v="Øvre Sinnerputten" />
		<tag k="name" v="Øvre Sinderputten" />
		<tag k="natural" v="water" />
		<tag k="ssr:stedsnr" v="66058" />
	</node>
	<node id="-134230" lat="60.1763000011" lon="10.4924999974">
		<tag k="alt_name" v="Store Sinnera;Sinnera" />
		<tag k="name" v="Store Sindera" />
		<tag k="natural" v="water" />
		<tag k="ssr:stedsnr" v="66036" />
	</node>
	<node id="-134229" lat="60.2263611138" lon="10.4441111161">
		<tag k="name" v="Masseløkka" />
		<tag k="place" v="locality" />
		<tag k="ssr:stedsnr" v="58436" />
	</node>
	<node id="-134228" lat="60.262886114" lon="10.4790694499">
		<tag k="name" v="Søberg" />
		<tag k="place" v="farm" />
		<tag k="ssr:stedsnr" v="58215" />
	</node>
	<node id="-134227" lat="60.2944620906" lon="10.4222404564">
		<tag k="alt_name" v="Lunndal" />
		<tag k="name" v="Lurendal" />
		<tag k="natural" v="valley" />
		<tag k="place" v="locality" />
		<tag k="ssr:stedsnr" v="56852" />
	</node>
	<node id="-134226" lat="60.2668083369" lon="10.4823555481">
		<tag k="alt_name" v="Olum vestre;Olum vestre og mellom;Vestre Olimb" />
		<tag k="loc_name" v="Vestgarden" />
		<tag k="name" v="Vestre Olum" />
		<tag k="old_name" v="Olum vestre og mellem" />
		<tag k="place" v="farm" />
		<tag k="ssr:stedsnr" v="55924" />
	</node>
	<node id="-134225" lat="60.2767416681" lon="10.3462583278">
		<tag k="name" v="Godbakka" />
		<tag k="natural" v="slope" />
		<tag k="place" v="locality" />
		<tag k="ssr:stedsnr" v="52911" />
	</node>
	<node id="-134224" lat="60.2720944478" lon="10.3140944386">
		<tag k="name" v="Trettestykke" />
		<tag k="natural" v="wetland" />
		<tag k="ssr:stedsnr" v="52896" />
	</node>
	<node id="-134223" lat="60.2331638926" lon="10.3358222271">
		<tag k="name" v="Snøplogdalen" />
		<tag k="natural" v="valley" />
		<tag k="place" v="locality" />
		<tag k="ssr:stedsnr" v="51652" />
	</node>
	<node id="-134222" lat="60.2286750011" lon="10.342405551">
		<tag k="name" v="Musemyra" />
		<tag k="natural" v="wetland" />
		<tag k="ssr:stedsnr" v="51623" />
	</node>
	<node id="-134221" lat="60.3789166661" lon="10.226011103">
		<tag k="name" v="Sjursholen" />
		<tag k="natural" v="hill" />
		<tag k="place" v="locality" />
		<tag k="ssr:stedsnr" v="51427" />
	</node>
	<node id="-134220" lat="60.3737027763" lon="10.2334861154">
		<tag k="name" v="Langtj.putten" />
		<tag k="natural" v="water" />
		<tag k="ssr:stedsnr" v="51412" />
	</node>
	<node id="-134219" lat="60.3680194413" lon="10.2276972211">
		<tag k="name" v="Kaffehyttdalen" />
		<tag k="natural" v="valley" />
		<tag k="place" v="locality" />
		<tag k="ssr:stedsnr" v="51407" />
	</node>
	<node id="-134218" lat="60.2534861152" lon="10.5370916728">
		<tag k="name" v="Snålen" />
		<tag k="place" v="locality" />
		<tag k="ssr:stedsnr" v="40422" />
	</node>
	<node id="-134217" lat="60.2784111156" lon="10.4165305473">
		<tag k="name" v="Dølerudbekken" />
		<tag k="ssr:stedsnr" v="39102" />
		<tag k="waterway" v="stream" />
	</node>
	<node id="-134216" lat="60.3589416655" lon="10.3109972207">
		<tag k="name" v="Utgravningstjernet" />
		<tag k="natural" v="water" />
		<tag k="ssr:stedsnr" v="38460" />
		<tag k="water" v="lake" />
	</node>
	<node id="-134215" lat="60.3679388897" lon="10.2820138854">
		<tag k="name" v="Rundøyputten" />
		<tag k="natural" v="water" />
		<tag k="ssr:stedsnr" v="38454" />
		<tag k="water" v="pond" />
	</node>
	<node id="-134214" lat="60.2154638862" lon="10.4274499997">
		<tag k="name" v="Sagfoss-sletta" />
		<tag k="place" v="locality" />
		<tag k="ssr:stedsnr" v="34852" />
	</node>
	<node id="-134213" lat="60.1908916709" lon="10.4601472185">
		<tag k="name" v="Stormyrhytta" />
		<tag k="place" v="isolated_dwelling" />
		<tag k="ssr:stedsnr" v="34598" />
	</node>
	<node id="-134212" lat="60.276711114" lon="10.5001638932">
		<tag k="name" v="Tronrud" />
		<tag k="place" v="farm" />
		<tag k="ssr:stedsnr" v="32958" />
	</node>
	<node id="-134211" lat="60.2589416647" lon="10.4958222281">
		<tag k="name" v="Orhagen" />
		<tag k="place" v="locality" />
		<tag k="ssr:stedsnr" v="32938" />
	</node>
	<node id="-134210" lat="60.2573722252" lon="10.49119166">
		<tag k="name" v="Østby" />
		<tag k="place" v="farm" />
		<tag k="ssr:stedsnr" v="32934" />
	</node>
	<node id="-134209" lat="60.2064388853" lon="10.5380249973">
		<tag k="name" v="Velomyra" />
		<tag k="natural" v="wetland" />
		<tag k="ssr:stedsnr" v="32881" />
	</node>
	<node id="-134208" lat="60.2227861089" lon="10.5275583404">
		<tag k="name" v="Øljehytta" />
		<tag k="place" v="isolated_dwelling" />
		<tag k="ssr:stedsnr" v="32872" />
	</node>
	<node id="-134207" lat="60.3068611138" lon="10.4194805531">
		<tag k="junction" v="yes" />
		<tag k="name" v="Sognstoppen" />
		<tag k="place" v="locality" />
		<tag k="ssr:stedsnr" v="29678" />
	</node>
	<node id="-134206" lat="60.3355472246" lon="10.3487055494">
		<tag k="name" v="Engeli" />
		<tag k="place" v="locality" />
		<tag k="ssr:stedsnr" v="6999" />
	</node>
	<node id="-134205" lat="60.3109861104" lon="10.4299000013">
		<tag k="alt_name" v="Velohagan" />
		<tag k="name" v="Hagan" />
		<tag k="place" v="isolated_dwelling" />
		<tag k="ssr:stedsnr" v="6941" />
	</node>
	<node id="-134204" lat="60.283230555" lon="10.458391672">
		<tag k="name" v="Skårud" />
		<tag k="place" v="farm" />
		<tag k="ssr:stedsnr" v="6875" />
	</node>
	<node id="-134203" lat="60.2934916624" lon="10.4570222299">
		<tag k="alt_name" v="Hvaterud, vestre;Vestre Vaterud" />
		<tag k="name" v="Vestre Hvaterud" />
		<tag k="place" v="farm" />
		<tag k="ssr:stedsnr" v="6866" />
	</node>
	<node id="-134202" lat="60.274399424" lon="10.4805230103">
		<tag k="fixme" v="consider place=hamlet" />
		<tag k="name" v="Gårdsrud" />
		<tag k="place" v="farm" />
		<tag k="ssr:stedsnr" v="6846" />
	</node>
	<node id="-134201" lat="60.2808091517" lon="10.4378199405">
		<tag k="fixme" v="consider place=hamlet" />
		<tag k="name" v="Falteinsrud" />
		<tag k="place" v="farm" />
		<tag k="ssr:stedsnr" v="6843" />
	</node>
	<node id="-134200" lat="60.2776250025" lon="10.4346722145">
		<tag k="alt_name" v="Skjennum, s" />
		<tag k="name" v="Søndre Skjennum" />
		<tag k="place" v="farm" />
		<tag k="ssr:stedsnr" v="6842" />
	</node>
	<node id="-134199" lat="60.2666250038" lon="10.5299166712">
		<tag k="name" v="Halvorsrudbekken" />
		<tag k="place" v="isolated_dwelling" />
		<tag k="ssr:stedsnr" v="6818" />
	</node>
	<node id="-134198" lat="60.2743747443" lon="10.4696909996">
		<tag k="alt_name" v="Greftegreff" />
		<tag k="name" v="Greftegrev" />
		<tag k="place" v="hamlet" />
		<tag k="ssr:stedsnr" v="6798" />
	</node>
	<node id="-134197" lat="60.2694888873" lon="10.4739250054">
		<tag k="name" v="Ragnhildrud" />
		<tag k="place" v="isolated_dwelling" />
		<tag k="ssr:stedsnr" v="6797" />
	</node>
	<node id="-134196" lat="60.2717000027" lon="10.4578249934">
		<tag k="name" v="Kårstadtjernet" />
		<tag k="natural" v="water" />
		<tag k="ssr:stedsnr" v="6795" />
	</node>
	<node id="-134195" lat="60.2546166669" lon="10.5077916578">
		<tag k="alt_name" v="Slåttbråtan" />
		<tag k="historic" v="shieling" />
		<tag k="name" v="Slåttbråtån" />
		<tag k="place" v="locality" />
		<tag k="ssr:stedsnr" v="6790" />
	</node>
	<node id="-134194" lat="60.2586350889" lon="10.4290155955">
		<tag k="alt_name" v="Vang, øvre" />
		<tag k="fixme" v="consider place=hamlet" />
		<tag k="name" v="Øvre Vang" />
		<tag k="place" v="farm" />
		<tag k="ssr:stedsnr" v="6779" />
	</node>
	<node id="-134193" lat="60.3445611106" lon="10.2703249934">
		<tag k="name" v="Tangnesputten" />
		<tag k="natural" v="water" />
		<tag k="ssr:stedsnr" v="6600" />
	</node>
	<node id="-134192" lat="60.3299611083" lon="10.2904416603">
		<tag k="alt_name" v="Kimtjennshaugen" />
		<tag k="fixme" v="consider natural=peak for the most distinct mountains in the district" />
		<tag k="name" v="Kimetjernshøgda" />
		<tag k="natural" v="hill" />
		<tag k="place" v="locality" />
		<tag k="ssr:stedsnr" v="6488" />
	</node>
	<node id="-134191" lat="60.2646388931" lon="10.3173138831">
		<tag k="name" v="Ruggetjern" />
		<tag k="natural" v="water" />
		<tag k="ssr:stedsnr" v="6347" />
	</node>
	<node id="-134190" lat="60.3388027782" lon="10.3528416681">
		<tag k="name" v="Halvorsbøle" />
		<tag k="ssr:stedsnr" v="6039" />
		<tag k="tourism" v="hotel" />
	</node>
	<node id="-134189" lat="60.3617388402" lon="10.356704086">
		<tag k="fixme" v="consider place=hamlet" />
		<tag k="name" v="Kammerud" />
		<tag k="place" v="farm" />
		<tag k="ssr:stedsnr" v="6012" />
	</node>
	<node id="-134188" lat="60.3588750007" lon="10.2874194418">
		<tag k="name" v="Langtjernshytta" />
		<tag k="place" v="isolated_dwelling" />
		<tag k="ssr:stedsnr" v="5590" />
	</node>
	<node id="-134187" lat="60.3660916669" lon="10.2591999977">
		<tag k="alt_name" v="Samsjøputten, nordre;Nordre Samsjøputt" />
		<tag k="name" v="Nordre Samsjøputten" />
		<tag k="natural" v="water" />
		<tag k="ssr:stedsnr" v="5589" />
	</node>
	<node id="-134186" lat="60.3528583347" lon="10.2473944533">
		<tag k="alt_name" v="Bånntjern" />
		<tag k="name" v="Bonntjern" />
		<tag k="natural" v="water" />
		<tag k="ssr:stedsnr" v="5581" />
	</node>
	<node id="-134185" lat="60.2296888907" lon="10.3682944407">
		<tag k="name" v="Samsmoen" />
		<tag k="place" v="quarter" />
		<tag k="ssr:stedsnr" v="5463" />
	</node>
	<node id="-134184" lat="60.1991611092" lon="10.5272111071">
		<tag k="name" v="Bikkjeputten" />
		<tag k="natural" v="water" />
		<tag k="ssr:stedsnr" v="5442" />
	</node>
	<node id="-134183" lat="60.1978861067" lon="10.4545666746">
		<tag k="name" v="Øvre Stormyra" />
		<tag k="natural" v="wetland" />
		<tag k="ssr:stedsnr" v="5438" />
	</node>
	<node id="-134182" lat="60.2299277822" lon="10.5320277793">
		<tag k="name" v="Trantjernet" />
		<tag k="natural" v="water" />
		<tag k="ssr:stedsnr" v="5378" />
	</node>
	<node id="-134181" lat="60.2387435723" lon="10.4264856297">
		<tag k="fixme" v="consider place=hamlet" />
		<tag k="name" v="Torshov" />
		<tag k="place" v="farm" />
		<tag k="ssr:stedsnr" v="5371" />
	</node>
	<node id="-134156" lat="60.2386272208" lon="10.5797387237">
		<tag k="name" v="Myllslia" />
		<tag k="natural" v="slope" />
		<tag k="place" v="locality" />
		<tag k="ssr:stedsnr" v="39128" />
	</node>
	<node id="-134155" lat="60.2426869854" lon="10.5667751562">
		<tag k="name" v="Mylla" />
		<tag k="natural" v="water" />
		<tag k="ssr:stedsnr" v="915355" />
		<tag k="water" v="lake" />
	</node>
	<node id="-134154" lat="60.1347222237" lon="10.5716611029">
		<tag k="name" v="Nordmarka" />
		<tag k="natural" v="wood" />
		<tag k="ssr:stedsnr" v="874528" />
	</node>
	<node id="-134153" lat="60.1651603531" lon="10.5439028045">
		<tag k="name" v="Aklangen" />
		<tag k="natural" v="water" />
		<tag k="ssr:stedsnr" v="308022" />
		<tag k="water" v="lake" />
	</node>
	<node id="-134152" lat="60.1566285471" lon="10.5682137114">
		<tag k="loc_name" v="Kattnosa" />
		<tag k="name" v="Katnosa" />
		<tag k="natural" v="water" />
		<tag k="ssr:stedsnr" v="490002" />
		<tag k="water" v="lake" />
	</node>
	<node id="-134151" lat="60.3058517082" lon="10.4467846104">
		<tag k="fixme" v="multiple name tags, choose one and add the other to alt_name" />
		<tag k="name" v="Rustad;Øvre Rustad" />
		<tag k="place" v="farm" />
		<tag k="ssr:stedsnr" v="989046" />
	</node>
	<node id="-134150" lat="60.3077849013" lon="10.4324640576">
		<tag k="name" v="Velo" />
		<tag k="place" v="hamlet" />
		<tag k="ssr:stedsnr" v="988013" />
	</node>
	<node id="-134149" lat="60.3097535238" lon="10.3842041058">
		<tag k="fixme" v="consider place=hamlet" />
		<tag k="name" v="Bjertnes" />
		<tag k="place" v="farm" />
		<tag k="ssr:stedsnr" v="988012" />
	</node>
	<node id="-134148" lat="60.2748894693" lon="10.4060054746">
		<tag k="fixme" v="consider place=hamlet" />
		<tag k="name" v="Bjellum" />
		<tag k="place" v="farm" />
		<tag k="ssr:stedsnr" v="987989" />
	</node>
	<node id="-134147" lat="60.2535847135" lon="10.3812706708">
		<tag k="fixme" v="consider place=hamlet" />
		<tag k="name" v="Brørby" />
		<tag k="place" v="farm" />
		<tag k="ssr:stedsnr" v="987988" />
	</node>
	<node id="-134146" lat="60.2488402381" lon="10.3791232637">
		<tag k="fixme" v="consider place=hamlet" />
		<tag k="name" v="Nøkleby" />
		<tag k="place" v="farm" />
		<tag k="ssr:stedsnr" v="987987" />
	</node>
	<node id="-134145" lat="60.2422715161" lon="10.3717499819">
		<tag k="fixme" v="consider place=hamlet" />
		<tag k="name" v="Berger" />
		<tag k="place" v="farm" />
		<tag k="ssr:stedsnr" v="987986" />
	</node>
	<node id="-134144" lat="60.2405545715" lon="10.4005245713">
		<tag k="fixme" v="consider place=hamlet" />
		<tag k="name" v="Torbjørnrud" />
		<tag k="place" v="farm" />
		<tag k="ssr:stedsnr" v="987964" />
	</node>
	<node id="-134143" lat="60.2793217837" lon="10.4331660772">
		<tag k="name" v="Skjennum" />
		<tag k="place" v="hamlet" />
		<tag k="ssr:stedsnr" v="987963" />
	</node>
	<node id="-134142" lat="60.2939199892" lon="10.4597834068">
		<tag k="fixme" v="consider place=hamlet" />
		<tag k="name" v="Hvaterud" />
		<tag k="place" v="farm" />
		<tag k="ssr:stedsnr" v="987962" />
	</node>
	<node id="-134141" lat="60.3390006952" lon="10.3493787718">
		<tag k="fixme" v="consider place=hamlet" />
		<tag k="name" v="Halvorsbøle" />
		<tag k="place" v="farm" />
		<tag k="ssr:stedsnr" v="987865" />
	</node>
	<node id="-134140" lat="60.2916948279" lon="10.4200006544">
		<tag k="name" v="Nordengen" />
		<tag k="place" v="farm" />
		<tag k="ssr:stedsnr" v="987364" />
	</node>
	<node id="-134139" lat="60.3046152508" lon="10.4135628764">
		<tag k="name" v="Engeli" />
		<tag k="place" v="farm" />
		<tag k="ssr:stedsnr" v="987363" />
	</node>
	<node id="-134138" lat="60.3048744321" lon="10.4154458273">
		<tag k="name" v="Sognebu" />
		<tag k="place" v="farm" />
		<tag k="ssr:stedsnr" v="987362" />
	</node>
	<node id="-134137" lat="60.3043170863" lon="10.4177344619">
		<tag k="name" v="Sogn" />
		<tag k="place" v="farm" />
		<tag k="ssr:stedsnr" v="987361" />
	</node>
	<node id="-134136" lat="60.3043944091" lon="10.4187969753">
		<tag k="name" v="Sogn" />
		<tag k="place" v="farm" />
		<tag k="ssr:stedsnr" v="987360" />
	</node>
	<node id="-134135" lat="60.3047273142" lon="10.4215744755">
		<tag k="name" v="Sogn" />
		<tag k="place" v="farm" />
		<tag k="ssr:stedsnr" v="987355" />
	</node>
	<node id="-134134" lat="60.3015807967" lon="10.4416056293">
		<tag k="name" v="Eng" />
		<tag k="place" v="farm" />
		<tag k="ssr:stedsnr" v="987352" />
	</node>
	<node id="-134133" lat="60.3040193039" lon="10.4623734386">
		<tag k="name" v="Rustadelva​" />
		<tag k="ssr:stedsnr" v="987350" />
		<tag k="waterway" v="river" />
	</node>
	<node id="-134132" lat="60.3087390057" lon="10.4671444937">
		<tag k="name" v="Veloelva​" />
		<tag k="ssr:stedsnr" v="987349" />
		<tag k="waterway" v="river" />
	</node>
	<node id="-134131" lat="60.3150114025" lon="10.4603864038">
		<tag k="name" v="Rostedbekken" />
		<tag k="ssr:stedsnr" v="987348" />
		<tag k="waterway" v="stream" />
	</node>
	<node id="-134130" lat="60.3060651038" lon="10.4568608408">
		<tag k="name" v="Brenna" />
		<tag k="place" v="farm" />
		<tag k="ssr:stedsnr" v="987347" />
	</node>
	<node id="-134129" lat="60.305784655" lon="10.4410729278">
		<tag k="name" v="Granly" />
		<tag k="place" v="farm" />
		<tag k="ssr:stedsnr" v="987346" />
	</node>
	<node id="-134128" lat="60.171545434" lon="10.517527396">
		<tag k="alt_name" v="Finntjernet" />
		<tag k="name" v="Finntjern" />
		<tag k="natural" v="water" />
		<tag k="ssr:stedsnr" v="733043" />
	</node>
	<node id="-134126" lat="60.2367722207" lon="10.367655554">
		<tag k="bridge" v="yes" />
		<tag k="layer" v="1" />
		<tag k="name" v="Bergerbakken" />
		<tag k="ssr:stedsnr" v="896066" />
	</node>
	<node id="-134125" lat="60.2676166698" lon="10.4332916706">
		<tag k="name" v="Vangsmoen" />
		<tag k="natural" v="slope" />
		<tag k="place" v="locality" />
		<tag k="ssr:stedsnr" v="889920" />
	</node>
	<node id="-134124" lat="60.2737111133" lon="10.4501222272">
		<tag k="name" v="Kårstadstua" />
		<tag k="place" v="isolated_dwelling" />
		<tag k="ssr:stedsnr" v="889005" />
	</node>
	<node id="-134123" lat="60.3537833344" lon="10.3033805491">
		<tag k="name" v="Peismyra" />
		<tag k="natural" v="wetland" />
		<tag k="ssr:stedsnr" v="887471" />
	</node>
	<node id="-134122" lat="60.2524694456" lon="10.3095888972">
		<tag k="name" v="Buttenheim" />
		<tag k="place" v="isolated_dwelling" />
		<tag k="ssr:stedsnr" v="884251" />
	</node>
	<node id="-134121" lat="60.2914138895" lon="10.2870944459">
		<tag k="name" v="Valhall" />
		<tag k="place" v="isolated_dwelling" />
		<tag k="ssr:stedsnr" v="884245" />
	</node>
	<node id="-134120" lat="60.291302778" lon="10.2969138914">
		<tag k="name" v="Enputten" />
		<tag k="natural" v="water" />
		<tag k="ssr:stedsnr" v="884237" />
		<tag k="water" v="pond" />
	</node>
	<node id="-134119" lat="60.2133499989" lon="10.477469442">
		<tag k="name" v="Myrheimdalen" />
		<tag k="natural" v="valley" />
		<tag k="place" v="locality" />
		<tag k="ssr:stedsnr" v="883750" />
	</node>
	<node id="-134118" lat="60.1990722208" lon="10.4641611195">
		<tag k="fixme" v="consider natural=peak for the most distinct mountains in the district" />
		<tag k="name" v="Brannen" />
		<tag k="natural" v="hill" />
		<tag k="place" v="locality" />
		<tag k="ssr:stedsnr" v="883705" />
	</node>
	<node id="-134117" lat="60.217369449" lon="10.5024972196">
		<tag k="alt_name" v="Svarttjennslia" />
		<tag k="name" v="Svarttjernslia" />
		<tag k="natural" v="slope" />
		<tag k="place" v="locality" />
		<tag k="ssr:stedsnr" v="882951" />
	</node>
	<node id="-134116" lat="60.2013222204" lon="10.5026583389">
		<tag k="name" v="Port Arthur" />
		<tag k="natural" v="valley" />
		<tag k="place" v="locality" />
		<tag k="ssr:stedsnr" v="882944" />
	</node>
	<node id="-134115" lat="60.2103555589" lon="10.5003055524">
		<tag k="name" v="Tverrsjølia" />
		<tag k="natural" v="slope" />
		<tag k="place" v="locality" />
		<tag k="ssr:stedsnr" v="882942" />
	</node>
	<node id="-134114" lat="60.1926972241" lon="10.5105583265">
		<tag k="name" v="Skarvannsoppganga" />
		<tag k="place" v="locality" />
		<tag k="ssr:stedsnr" v="882913" />
	</node>
	<node id="-134113" lat="60.1883166657" lon="10.5322861036">
		<tag k="name" v="Holoputten" />
		<tag k="natural" v="water" />
		<tag k="ssr:stedsnr" v="882906" />
		<tag k="water" v="pond" />
	</node>
	<node id="-134112" lat="60.1986861081" lon="10.5547805562">
		<tag k="historic" v="shieling" />
		<tag k="name" v="Roensetra" />
		<tag k="place" v="locality" />
		<tag k="ssr:stedsnr" v="882258" />
	</node>
	<node id="-134111" lat="60.2478666667" lon="10.3658027719">
		<tag k="name" v="Pilkollen" />
		<tag k="place" v="quarter" />
		<tag k="ssr:stedsnr" v="476996" />
	</node>
	<node id="-134110" lat="60.2648722255" lon="10.3177055559">
		<tag k="name" v="Ruggetjern" />
		<tag k="natural" v="water" />
		<tag k="ssr:stedsnr" v="476900" />
	</node>
	<node id="-134109" lat="60.2392972257" lon="10.3543555596">
		<tag k="name" v="Merredokka" />
		<tag k="place" v="locality" />
		<tag k="ssr:stedsnr" v="476764" />
	</node>
	<node id="-134108" lat="60.2367166643" lon="10.3616527798">
		<tag k="name" v="Bergebakken" />
		<tag k="place" v="quarter" />
		<tag k="ssr:stedsnr" v="476756" />
	</node>
	<node id="-134107" lat="60.2395277822" lon="10.3492861092">
		<tag k="name" v="Mikkelshytta" />
		<tag k="place" v="isolated_dwelling" />
		<tag k="ssr:stedsnr" v="476698" />
	</node>
	<node id="-134106" lat="60.3860888876" lon="10.2306166706">
		<tag k="name" v="Grymyrsdalen" />
		<tag k="natural" v="valley" />
		<tag k="place" v="locality" />
		<tag k="ssr:stedsnr" v="476368" />
	</node>
	<node id="-134105" lat="60.3004083339" lon="10.340055555">
		<tag k="name" v="Skarvehaugen" />
		<tag k="natural" v="hill" />
		<tag k="place" v="locality" />
		<tag k="ssr:stedsnr" v="476265" />
	</node>
	<node id="-134104" lat="60.2844861141" lon="10.3454666581">
		<tag k="name" v="Fikerud" />
		<tag k="natural" v="hill" />
		<tag k="place" v="locality" />
		<tag k="ssr:stedsnr" v="476252" />
	</node>
	<node id="-134103" lat="60.2791472222" lon="10.5222166631">
		<tag k="bridge" v="yes" />
		<tag k="layer" v="1" />
		<tag k="name" v="Svenskeenga" />
		<tag k="ssr:stedsnr" v="410061" />
	</node>
	<node id="-134102" lat="60.2832806612" lon="10.4544966005">
		<tag k="fixme" v="consider place=hamlet" />
		<tag k="name" v="Skårud" />
		<tag k="old_name" v="Skålerud" />
		<tag k="place" v="farm" />
		<tag k="ssr:stedsnr" v="403119" />
	</node>
	<node id="-134101" lat="60.2788944459" lon="10.4792305562">
		<tag k="name" v="Bakken" />
		<tag k="place" v="farm" />
		<tag k="ssr:stedsnr" v="403012" />
	</node>
	<node id="-134100" lat="60.3495166703" lon="10.2771194411">
		<tag k="name" v="Godmyrene" />
		<tag k="natural" v="wetland" />
		<tag k="ssr:stedsnr" v="402481" />
	</node>
	<node id="-134099" lat="60.2927861096" lon="10.414422222">
		<tag k="name" v="Løvli" />
		<tag k="place" v="farm" />
		<tag k="ssr:stedsnr" v="398365" />
	</node>
	<node id="-134098" lat="60.2883666625" lon="10.2884722136">
		<tag k="name" v="Kalvehue" />
		<tag k="natural" v="water" />
		<tag k="ssr:stedsnr" v="398261" />
		<tag k="water" v="lake" />
	</node>
	<node id="-134097" lat="60.2930555552" lon="10.280941669">
		<tag k="name" v="Brennfu" />
		<tag k="place" v="isolated_dwelling" />
		<tag k="ssr:stedsnr" v="398260" />
	</node>
	<node id="-134096" lat="60.301230559" lon="10.2830194376">
		<tag k="name" v="Kalveholen" />
		<tag k="natural" v="wetland" />
		<tag k="ssr:stedsnr" v="398258" />
	</node>
	<node id="-134095" lat="60.2862527779" lon="10.4077055485">
		<tag k="name" v="Østre Roen" />
		<tag k="place" v="farm" />
		<tag k="ssr:stedsnr" v="398178" />
	</node>
	<node id="-134094" lat="60.2633638882" lon="10.5054027715">
		<tag k="alt_name" v="Olimbsvaet" />
		<tag k="name" v="Olumsvaet" />
		<tag k="place" v="locality" />
		<tag k="ssr:stedsnr" v="396974" />
	</node>
	<node id="-134093" lat="60.2817972185" lon="10.5203749942">
		<tag k="name" v="Prestbråtan" />
		<tag k="place" v="farm" />
		<tag k="ssr:stedsnr" v="396968" />
	</node>
	<node id="-134092" lat="60.2720388901" lon="10.5217527724">
		<tag k="name" v="Hellerud" />
		<tag k="place" v="farm" />
		<tag k="ssr:stedsnr" v="396926" />
	</node>
	<node id="-134091" lat="60.2366916688" lon="10.5177277817">
		<tag k="name" v="Sinnerputten" />
		<tag k="natural" v="water" />
		<tag k="ssr:stedsnr" v="396903" />
		<tag k="water" v="pond" />
	</node>
	<node id="-134090" lat="60.191600002" lon="10.5498777706">
		<tag k="name" v="Karidalen" />
		<tag k="natural" v="valley" />
		<tag k="place" v="locality" />
		<tag k="ssr:stedsnr" v="395485" />
	</node>
	<node id="-134089" lat="60.3098206513" lon="10.4511988538">
		<tag k="name" v="Tjernstua" />
		<tag k="place" v="locality" />
		<tag k="ssr:stedsnr" v="370936" />
	</node>
	<node id="-134088" lat="60.3052861153" lon="10.4502166732">
		<tag k="fixme" v="multiple name tags, choose one and add the other to alt_name" />
		<tag k="name" v="Nedre Rustad;Rustad" />
		<tag k="place" v="farm" />
		<tag k="ssr:stedsnr" v="370895" />
	</node>
	<node id="-134087" lat="60.3007527815" lon="10.4391777731">
		<tag k="alt_name" v="Elvebråten" />
		<tag k="name" v="Elvebråtån" />
		<tag k="place" v="farm" />
		<tag k="ssr:stedsnr" v="370872" />
	</node>
	<node id="-134086" lat="60.2978728074" lon="10.3884492992">
		<tag k="alt_name" v="Igelsrud" />
		<tag k="fixme" v="consider place=hamlet" />
		<tag k="name" v="Igulsrud" />
		<tag k="place" v="farm" />
		<tag k="ssr:stedsnr" v="370867" />
	</node>
	<node id="-134085" lat="60.2718000032" lon="10.5103694373">
		<tag k="name" v="Vesletjernet" />
		<tag k="natural" v="water" />
		<tag k="ssr:stedsnr" v="370825" />
	</node>
	<node id="-134084" lat="60.2677805555" lon="10.4948777731">
		<tag k="alt_name" v="Østre Olimb;Olum østre;Olum;Olom" />
		<tag k="loc_name" v="Austre-Olum" />
		<tag k="name" v="Østre Olum" />
		<tag k="place" v="farm" />
		<tag k="ssr:stedsnr" v="370823" />
	</node>
	<node id="-134083" lat="60.2608749989" lon="10.4464638881">
		<tag k="name" v="Fossholm" />
		<tag k="place" v="farm" />
		<tag k="ssr:stedsnr" v="370780" />
	</node>
	<node id="-134082" lat="60.3130333362" lon="10.3283555483">
		<tag k="alt_name" v="Myreseter" />
		<tag k="historic" v="shieling" />
		<tag k="name" v="Velsandsætra" />
		<tag k="place" v="locality" />
		<tag k="ssr:stedsnr" v="370528" />
	</node>
	<node id="-134081" lat="60.3670416682" lon="10.36254444">
		<tag k="alt_name" v="Kammerudtangen" />
		<tag k="name" v="Tangen" />
		<tag k="place" v="farm" />
		<tag k="ssr:stedsnr" v="370118" />
	</node>
	<node id="-134080" lat="60.3544388919" lon="10.2387194461">
		<tag k="name" v="Flåtjern" />
		<tag k="natural" v="water" />
		<tag k="ssr:stedsnr" v="369537" />
	</node>
	<node id="-134079" lat="60.3488027815" lon="10.2952222211">
		<tag k="name" v="Svarttjern" />
		<tag k="natural" v="water" />
		<tag k="ssr:stedsnr" v="369533" />
	</node>
	<node id="-134078" lat="60.3480444448" lon="10.3052111033">
		<tag k="alt_name" v="Grymyrsetra" />
		<tag k="name" v="Grymyrsætra" />
		<tag k="place" v="isolated_dwelling" />
		<tag k="ssr:stedsnr" v="369531" />
	</node>
	<node id="-134077" lat="60.383938893" lon="10.2596499966">
		<tag k="name" v="Auretjern" />
		<tag k="natural" v="water" />
		<tag k="ssr:stedsnr" v="369442" />
	</node>
	<node id="-134076" lat="60.1999694489" lon="10.4933638889">
		<tag k="alt_name" v="Fagervann" />
		<tag k="name" v="Fagervatnet" />
		<tag k="natural" v="water" />
		<tag k="ssr:stedsnr" v="369407" />
	</node>
	<node id="-134075" lat="60.2420861066" lon="10.4240666748">
		<tag k="name" v="Lund" />
		<tag k="place" v="farm" />
		<tag k="ssr:stedsnr" v="369349" />
	</node>
	<node id="-134074" lat="60.1804861147" lon="10.5231222278">
		<tag k="name" v="Svartvika" />
		<tag k="natural" v="bay" />
		<tag k="ssr:stedsnr" v="369031" />
	</node>
	<node id="-134073" lat="60.2347083322" lon="10.4336249916">
		<tag k="name" v="Steinbråtan" />
		<tag k="place" v="isolated_dwelling" />
		<tag k="ssr:stedsnr" v="361251" />
	</node>
	<node id="-134072" lat="60.2354777797" lon="10.4742388804">
		<tag k="historic" v="shieling" />
		<tag k="name" v="Svarstadvollen" />
		<tag k="place" v="locality" />
		<tag k="ssr:stedsnr" v="361248" />
	</node>
	<node id="-134071" lat="60.2536249967" lon="10.4474083383">
		<tag k="name" v="Bratvalsgrinda" />
		<tag k="place" v="quarter" />
		<tag k="ssr:stedsnr" v="361179" />
	</node>
	<node id="-134070" lat="60.2256972192" lon="10.4291333385">
		<tag k="name" v="Nordås" />
		<tag k="natural" v="hill" />
		<tag k="place" v="locality" />
		<tag k="ssr:stedsnr" v="361167" />
	</node>
	<node id="-134069" lat="60.2387499984" lon="10.4068527786">
		<tag k="name" v="Nybygget" />
		<tag k="place" v="quarter" />
		<tag k="ssr:stedsnr" v="361150" />
	</node>
	<node id="-134068" lat="60.2333888861" lon="10.3742638824">
		<tag k="name" v="Vadhua" />
		<tag k="place" v="isolated_dwelling" />
		<tag k="ssr:stedsnr" v="361136" />
	</node>
	<node id="-134067" lat="60.2440083305" lon="10.4215500006">
		<tag k="building" v="industrial" />
		<tag k="industrial" v="factory" />
		<tag k="name" v="Randsfjord glassverk" />
		<tag k="ssr:stedsnr" v="361085" />
	</node>
	<node id="-134066" lat="60.2441222261" lon="10.3757083368">
		<tag k="name" v="Kryteruddalen" />
		<tag k="natural" v="valley" />
		<tag k="place" v="locality" />
		<tag k="ssr:stedsnr" v="361079" />
	</node>
	<node id="-134065" lat="60.248455554" lon="10.372763894">
		<tag k="name" v="Frydenlund" />
		<tag k="place" v="quarter" />
		<tag k="ssr:stedsnr" v="361078" />
	</node>
	<node id="-134064" lat="60.3007027776" lon="10.4445666741">
		<tag k="name" v="Velofoss" />
		<tag k="natural" v="waterfall" />
		<tag k="ssr:stedsnr" v="359864" />
	</node>
	<node id="-134063" lat="60.3222305526" lon="10.2773083395">
		<tag k="name" v="Midtskavbekken" />
		<tag k="ssr:stedsnr" v="355810" />
		<tag k="waterway" v="stream" />
	</node>
	<node id="-134062" lat="60.3177750011" lon="10.2787999949">
		<tag k="name" v="Fufresa" />
		<tag k="natural" v="bay" />
		<tag k="ssr:stedsnr" v="355809" />
	</node>
	<node id="-134061" lat="60.2963388922" lon="10.328836111">
		<tag k="name" v="Merramyra" />
		<tag k="natural" v="wetland" />
		<tag k="ssr:stedsnr" v="355274" />
	</node>
	<node id="-134060" lat="60.2563694476" lon="10.3228388883">
		<tag k="alt_name" v="Buttentjennshøgda" />
		<tag k="name" v="Buttentjernshøgda" />
		<tag k="natural" v="hill" />
		<tag k="place" v="locality" />
		<tag k="ssr:stedsnr" v="354986" />
	</node>
	<node id="-134059" lat="60.2752083375" lon="10.4238972257">
		<tag k="name" v="Gulabråtabekken" />
		<tag k="ssr:stedsnr" v="342887" />
		<tag k="waterway" v="stream" />
	</node>
	<node id="-134058" lat="60.3205666647" lon="10.3216500018">
		<tag k="alt_name" v="Skarvetjennsdalen" />
		<tag k="name" v="Skarvetjernsdalen" />
		<tag k="natural" v="valley" />
		<tag k="place" v="locality" />
		<tag k="ssr:stedsnr" v="341855" />
	</node>
	<node id="-134057" lat="60.3200194454" lon="10.3330583341">
		<tag k="fixme" v="consider natural=peak for the most distinct mountains in the district" />
		<tag k="name" v="Velsandmarka" />
		<tag k="natural" v="hill" />
		<tag k="place" v="locality" />
		<tag k="ssr:stedsnr" v="341853" />
	</node>
	<node id="-134056" lat="60.3054500021" lon="10.385127771">
		<tag k="building" v="industrial" />
		<tag k="name" v="Bjertnes sag" />
		<tag k="ssr:stedsnr" v="337382" />
	</node>
	<node id="-134054" lat="60.2420027817" lon="10.5170083419">
		<tag k="name" v="Snålstykkene" />
		<tag k="place" v="locality" />
		<tag k="ssr:stedsnr" v="335933" />
	</node>
	<node id="-134053" lat="60.3076696868" lon="10.4348772327">
		<tag k="name" v="Østre Velo" />
		<tag k="place" v="farm" />
		<tag k="ssr:stedsnr" v="333204" />
	</node>
	<node id="-134052" lat="60.2852499957" lon="10.4128666722">
		<tag k="fixme" v="consider place=hamlet" />
		<tag k="name" v="Sløvika" />
		<tag k="place" v="village" />
		<tag k="ssr:stedsnr" v="327477" />
	</node>
	<node id="-134051" lat="60.3125527809" lon="10.3761694377">
		<tag k="name" v="Bjertnestangen" />
		<tag k="natural" v="cape" />
		<tag k="ssr:stedsnr" v="310904" />
	</node>
	<node id="-134050" lat="60.3224922147" lon="10.3447882493">
		<tag k="fixme" v="consider place=hamlet" />
		<tag k="name" v="Velsand" />
		<tag k="place" v="farm" />
		<tag k="ssr:stedsnr" v="309954" />
	</node>
	<node id="-134049" lat="60.2846916636" lon="10.3552055508">
		<tag k="alt_name" v="Søråsen;Åsen, s" />
		<tag k="name" v="Søndre Åsen" />
		<tag k="place" v="isolated_dwelling" />
		<tag k="ssr:stedsnr" v="309864" />
	</node>
	<node id="-134048" lat="60.2933611084" lon="10.4607972199">
		<tag k="alt_name" v="Hvaterud, s;Søndre Vaterud" />
		<tag k="name" v="Søndre Hvaterud" />
		<tag k="place" v="farm" />
		<tag k="ssr:stedsnr" v="309860" />
	</node>
	<node id="-134047" lat="60.2668638877" lon="10.5040972278">
		<tag k="name" v="Vangen" />
		<tag k="place" v="isolated_dwelling" />
		<tag k="ssr:stedsnr" v="309807" />
	</node>
	<node id="-134046" lat="60.255252782" lon="10.4238972137">
		<tag k="alt_name" v="Vang, nedre" />
		<tag k="fixme" v="consider place=hamlet" />
		<tag k="name" v="Nedre Vang" />
		<tag k="place" v="farm" />
		<tag k="ssr:stedsnr" v="309776" />
	</node>
	<node id="-134045" lat="60.2520944473" lon="10.5193277814">
		<tag k="alt_name" v="Olimbseter" />
		<tag k="historic" v="shieling" />
		<tag k="name" v="Olumsætra" />
		<tag k="place" v="locality" />
		<tag k="ssr:stedsnr" v="309769" />
	</node>
	<node id="-134044" lat="60.2576999956" lon="10.4343777717">
		<tag k="amenity" v="place_of_worship" />
		<tag k="denomination" v="lutheran" />
		<tag k="name" v="Jevnaker kirke" />
		<tag k="religion" v="christian" />
		<tag k="ssr:stedsnr" v="309763" />
	</node>
	<node id="-134043" lat="60.2590789574" lon="10.4810636698">
		<tag k="fixme" v="consider place=hamlet" />
		<tag k="name" v="Gullen" />
		<tag k="place" v="farm" />
		<tag k="ssr:stedsnr" v="309761" />
	</node>
	<node id="-134042" lat="60.3784805587" lon="10.2391611175">
		<tag k="alt_name" v="Tyrispikkhytta" />
		<tag k="name" v="Tyrispikhytta" />
		<tag k="place" v="isolated_dwelling" />
		<tag k="ssr:stedsnr" v="309638" />
	</node>
	<node id="-134041" lat="60.3405277758" lon="10.2918555492">
		<tag k="fixme" v="consider natural=peak for the most distinct mountains in the district" />
		<tag k="name" v="Bikjebråtabrenna" />
		<tag k="natural" v="hill" />
		<tag k="place" v="locality" />
		<tag k="ssr:stedsnr" v="309612" />
	</node>
	<node id="-134040" lat="60.2495500041" lon="10.3692055591">
		<tag k="alt_name" v="Barbrostuhaugen" />
		<tag k="name" v="Haug" />
		<tag k="place" v="isolated_dwelling" />
		<tag k="ssr:stedsnr" v="309741" />
	</node>
	<node id="-134039" lat="60.2546777764" lon="10.3818750086">
		<tag k="alt_name" v="Brørby, nordre" />
		<tag k="name" v="Nordre Brørby" />
		<tag k="place" v="farm" />
		<tag k="ssr:stedsnr" v="309738" />
	</node>
	<node id="-134038" lat="60.3220999984" lon="10.2874333297">
		<tag k="name" v="Borstudalen" />
		<tag k="natural" v="valley" />
		<tag k="place" v="locality" />
		<tag k="ssr:stedsnr" v="309501" />
	</node>
	<node id="-134037" lat="60.1973138859" lon="10.5549861156">
		<tag k="alt_name" v="Roenseter" />
		<tag k="historic" v="shieling" />
		<tag k="name" v="Roensætra" />
		<tag k="place" v="locality" />
		<tag k="ssr:stedsnr" v="309494" />
	</node>
	<node id="-134036" lat="60.3314083369" lon="10.3159805622">
		<tag k="alt_name" v="Skutseter" />
		<tag k="historic" v="shieling" />
		<tag k="name" v="Skutsætra" />
		<tag k="place" v="locality" />
		<tag k="ssr:stedsnr" v="309489" />
	</node>
	<node id="-134035" lat="60.2825944464" lon="10.3399194515">
		<tag k="name" v="Åsbråtan" />
		<tag k="place" v="isolated_dwelling" />
		<tag k="ssr:stedsnr" v="309451" />
	</node>
	<node id="-134034" lat="60.2843166668" lon="10.3018111137">
		<tag k="alt_name" v="Bjønnberget" />
		<tag k="fixme" v="consider natural=peak for the most distinct mountains in the district" />
		<tag k="name" v="Bjørnberget" />
		<tag k="natural" v="hill" />
		<tag k="place" v="locality" />
		<tag k="ssr:stedsnr" v="309440" />
	</node>
	<node id="-134033" lat="60.2935277786" lon="10.3052555501">
		<tag k="alt_name" v="Gråmerrmyrene" />
		<tag k="name" v="Gråmerra" />
		<tag k="natural" v="wetland" />
		<tag k="ssr:stedsnr" v="309439" />
	</node>
	<node id="-134032" lat="60.3685888921" lon="10.2077888854">
		<tag k="name" v="Klæstadhytta" />
		<tag k="place" v="isolated_dwelling" />
		<tag k="ssr:stedsnr" v="308587" />
	</node>
	<node id="-134031" lat="60.3666777822" lon="10.3166055516">
		<tag k="name" v="Vomma" />
		<tag k="natural" v="water" />
		<tag k="ssr:stedsnr" v="308572" />
	</node>
	<node id="-134030" lat="60.3474916654" lon="10.3224499939">
		<tag k="fixme" v="consider natural=peak for the most distinct mountains in the district" />
		<tag k="name" v="Halvorshaugen" />
		<tag k="natural" v="hill" />
		<tag k="place" v="locality" />
		<tag k="ssr:stedsnr" v="308564" />
	</node>
	<node id="-134029" lat="60.3549388896" lon="10.333008337">
		<tag k="name" v="Skavdalen" />
		<tag k="natural" v="valley" />
		<tag k="place" v="locality" />
		<tag k="ssr:stedsnr" v="308563" />
	</node>
	<node id="-134028" lat="60.2212638922" lon="10.5022527822">
		<tag k="alt_name" v="Svarttjennshøgda" />
		<tag k="fixme" v="consider natural=peak for the most distinct mountains in the district" />
		<tag k="name" v="Svarttjernshøgda" />
		<tag k="natural" v="hill" />
		<tag k="place" v="locality" />
		<tag k="ssr:stedsnr" v="308435" />
	</node>
	<node id="-134027" lat="60.2286333317" lon="10.4374055561">
		<tag k="name" v="Svenådalen" />
		<tag k="natural" v="valley" />
		<tag k="place" v="locality" />
		<tag k="ssr:stedsnr" v="308431" />
	</node>
	<node id="-134026" lat="60.3401333333" lon="10.3169722273">
		<tag k="name" v="Lauvlimyra" />
		<tag k="natural" v="wetland" />
		<tag k="ssr:stedsnr" v="301720" />
	</node>
	<node id="-134025" lat="60.2364472185" lon="10.4422611066">
		<tag k="name" v="Gråmetra" />
		<tag k="place" v="locality" />
		<tag k="ssr:stedsnr" v="300226" />
	</node>
	<node id="-134024" lat="60.2391666644" lon="10.4307861035">
		<tag k="name" v="Brenna" />
		<tag k="place" v="locality" />
		<tag k="ssr:stedsnr" v="300203" />
	</node>
	<node id="-134023" lat="60.2217916682" lon="10.4189972258">
		<tag k="name" v="Elvelia" />
		<tag k="natural" v="slope" />
		<tag k="place" v="locality" />
		<tag k="ssr:stedsnr" v="300166" />
	</node>
	<node id="-134022" lat="60.2394305529" lon="10.3967333397">
		<tag k="name" v="Verkevika" />
		<tag k="natural" v="bay" />
		<tag k="ssr:stedsnr" v="300154" />
	</node>
	<node id="-134020" lat="60.2806861147" lon="10.5164944391">
		<tag k="name" v="Østre Igelstad" />
		<tag k="place" v="farm" />
		<tag k="ssr:stedsnr" v="299857" />
	</node>
	<node id="-134019" lat="60.2443444414" lon="10.3479499984">
		<tag k="name" v="Furumoen" />
		<tag k="place" v="locality" />
		<tag k="ssr:stedsnr" v="295000" />
	</node>
	<node id="-134018" lat="60.2664972237" lon="10.3235944463">
		<tag k="fixme" v="consider natural=peak for the most distinct mountains in the district" />
		<tag k="name" v="Sameia" />
		<tag k="natural" v="hill" />
		<tag k="place" v="locality" />
		<tag k="ssr:stedsnr" v="294905" />
	</node>
	<node id="-134017" lat="60.2632194484" lon="10.320074995">
		<tag k="name" v="Ruggesteinene" />
		<tag k="place" v="locality" />
		<tag k="ssr:stedsnr" v="294897" />
	</node>
	<node id="-134016" lat="60.2345222259" lon="10.3582749959">
		<tag k="loc_name" v="Bergegrinda" />
		<tag k="name" v="Bergergrinda" />
		<tag k="old_name" v="Bergergrina;Bergergrinden" />
		<tag k="place" v="quarter" />
		<tag k="ssr:stedsnr" v="294755" />
	</node>
	<node id="-134015" lat="60.2392638911" lon="10.3540888972">
		<tag k="name" v="Merradokka" />
		<tag k="place" v="locality" />
		<tag k="ssr:stedsnr" v="294750" />
	</node>
	<node id="-134014" lat="60.2391666706" lon="10.3909055522">
		<tag k="bridge" v="yes" />
		<tag k="layer" v="1" />
		<tag k="name" v="Hermannstjern" />
		<tag k="ssr:stedsnr" v="289059" />
	</node>
	<node id="-134013" lat="60.2676111105" lon="10.4430555646">
		<tag k="name" v="Prestmoen" />
		<tag k="place" v="locality" />
		<tag k="ssr:stedsnr" v="282107" />
	</node>
	<node id="-134012" lat="60.2722833356" lon="10.436027777">
		<tag k="name" v="Igelstadputten" />
		<tag k="natural" v="water" />
		<tag k="ssr:stedsnr" v="282002" />
		<tag k="water" v="pond" />
	</node>
	<node id="-134011" lat="60.3525361125" lon="10.2762972142">
		<tag k="name" v="Tangnesbekken" />
		<tag k="ssr:stedsnr" v="281444" />
		<tag k="waterway" v="stream" />
	</node>
	<node id="-134010" lat="60.3598750029" lon="10.2564666705">
		<tag k="name" v="Samsjøputthøgda" />
		<tag k="natural" v="hill" />
		<tag k="place" v="locality" />
		<tag k="ssr:stedsnr" v="280469" />
	</node>
	<node id="-134009" lat="60.365425001" lon="10.2983388869">
		<tag k="name" v="Dalamyrene" />
		<tag k="natural" v="wetland" />
		<tag k="ssr:stedsnr" v="280459" />
	</node>
	<node id="-134008" lat="60.3541666637" lon="10.3377416655">
		<tag k="name" v="Bergebråtan" />
		<tag k="place" v="locality" />
		<tag k="ssr:stedsnr" v="280439" />
	</node>
	<node id="-134007" lat="60.2148416699" lon="10.4884972281">
		<tag k="name" v="Rykinhaugen" />
		<tag k="natural" v="hill" />
		<tag k="place" v="locality" />
		<tag k="ssr:stedsnr" v="275957" />
	</node>
	<node id="-134006" lat="60.2600805579" lon="10.4899638881">
		<tag k="leisure" v="pitch" />
		<tag k="name" v="Idrettsplass" />
		<tag k="ssr:stedsnr" v="275932" />
	</node>
	<node id="-134005" lat="60.2245138903" lon="10.5384277758">
		<tag k="name" v="Kollerlia" />
		<tag k="natural" v="slope" />
		<tag k="place" v="locality" />
		<tag k="ssr:stedsnr" v="275857" />
	</node>
	<node id="-134004" lat="60.236191667" lon="10.4917916746">
		<tag k="name" v="Tvelessingsmyra" />
		<tag k="natural" v="wetland" />
		<tag k="ssr:stedsnr" v="275849" />
	</node>
	<node id="-134003" lat="60.2893611121" lon="10.5081055518">
		<tag k="name" v="Østre Vassjø" />
		<tag k="place" v="farm" />
		<tag k="ssr:stedsnr" v="275546" />
	</node>
</osm>
