<?xml version="1.0" encoding="UTF-8"?>
<osm version="0.6" generator="osmapis">
	<node id="568847227" lat="65.7151921" lon="12.4635236" version="3" timestamp="2022-07-17T19:23:40Z" changeset="123732825" uid="3497659" user="NKA">
		<tag k="alt_name" v="Forvika" />
		<tag k="name" v="Forvik" />
		<tag k="place" v="hamlet" />
		<tag k="ssr:stedsnr" v="865285" />
	</node>
	<node id="4250162888" lat="65.6312482" lon="12.7442707" version="2" timestamp="2022-07-17T19:23:40Z" changeset="123732825" uid="3497659" user="NKA">
		<tag k="name" v="Aursletta" />
		<tag k="place" v="hamlet" />
		<tag k="ssr:stedsnr" v="804841" />
	</node>
	<node id="5555033829" lat="65.7000987" lon="12.5905041" version="3" timestamp="2022-07-17T19:23:40Z" changeset="123732825" uid="3497659" user="NKA">
		<tag k="alt_name" v="Kilvika" />
		<tag k="name" v="Kilvågen" />
		<tag k="place" v="hamlet" />
		<tag k="ssr:stedsnr" v="440029" />
	</node>
	<node id="6205774446" lat="65.7009982" lon="12.4415126" version="2" timestamp="2022-07-17T19:23:40Z" changeset="123732825" uid="3497659" user="NKA">
		<tag k="name" v="Vevelstad" />
		<tag k="place" v="village" />
		<tag k="ssr:stedsnr" v="147499" />
	</node>
	<node id="6205774469" lat="65.725342" lon="12.5981819" version="2" timestamp="2022-07-17T19:23:40Z" changeset="123732825" uid="3497659" user="NKA">
		<tag k="name" v="Visthus" />
		<tag k="place" v="village" />
		<tag k="ssr:stedsnr" v="76249" />
	</node>
	<node id="9893816206" lat="65.7218805" lon="12.4882583" version="1" timestamp="2022-07-17T19:23:40Z" changeset="123732825" uid="3497659" user="NKA">
		<tag k="name" v="Lyngmo" />
		<tag k="place" v="farm" />
		<tag k="ssr:stedsnr" v="379228" />
	</node>
	<node id="9893816207" lat="65.7049452" lon="12.4500237" version="1" timestamp="2022-07-17T19:23:40Z" changeset="123732825" uid="3497659" user="NKA">
		<tag k="name" v="Elvbakken" />
		<tag k="place" v="farm" />
		<tag k="ssr:stedsnr" v="76020" />
	</node>
	<node id="9893816208" lat="65.6839018" lon="12.4170384" version="1" timestamp="2022-07-17T19:23:40Z" changeset="123732825" uid="3497659" user="NKA">
		<tag k="name" v="Amundviken" />
		<tag k="place" v="farm" />
		<tag k="ssr:stedsnr" v="714648" />
	</node>
	<node id="9893816209" lat="65.6356703" lon="12.3661773" version="1" timestamp="2022-07-17T19:23:40Z" changeset="123732825" uid="3497659" user="NKA">
		<tag k="name" v="Gården" />
		<tag k="place" v="farm" />
		<tag k="ssr:stedsnr" v="957803" />
	</node>
	<node id="9893816210" lat="65.6387202" lon="12.3666949" version="1" timestamp="2022-07-17T19:23:40Z" changeset="123732825" uid="3497659" user="NKA">
		<tag k="name" v="Midt-Høyholmen" />
		<tag k="place" v="farm" />
		<tag k="ssr:stedsnr" v="989800" />
	</node>
	<node id="9893816211" lat="65.6977278" lon="12.587961" version="1" timestamp="2022-07-17T19:23:40Z" changeset="123732825" uid="3497659" user="NKA">
		<tag k="name" v="Brauta" />
		<tag k="place" v="farm" />
		<tag k="ssr:stedsnr" v="622020" />
	</node>
	<node id="9893816212" lat="65.7284697" lon="12.5967271" version="1" timestamp="2022-07-17T19:23:40Z" changeset="123732825" uid="3497659" user="NKA">
		<tag k="name" v="Sørgården" />
		<tag k="place" v="farm" />
		<tag k="ssr:stedsnr" v="956621" />
	</node>
	<node id="9893816213" lat="65.6977" lon="12.4181056" version="1" timestamp="2022-07-17T19:23:40Z" changeset="123732825" uid="3497659" user="NKA">
		<tag k="alt_name" v="Vågsvika" />
		<tag k="name" v="Vågsvikja" />
		<tag k="place" v="farm" />
		<tag k="ssr:stedsnr" v="197033" />
	</node>
	<node id="9893816214" lat="65.6971639" lon="12.430661" version="1" timestamp="2022-07-17T19:23:40Z" changeset="123732825" uid="3497659" user="NKA">
		<tag k="name" v="Osodden" />
		<tag k="place" v="farm" />
		<tag k="ssr:stedsnr" v="865030" />
	</node>
	<node id="9893816215" lat="65.6764173" lon="12.5745714" version="1" timestamp="2022-07-17T19:23:40Z" changeset="123732825" uid="3497659" user="NKA">
		<tag k="alt_name" v="Langkila" />
		<tag k="name" v="Langkilen" />
		<tag k="place" v="locality" />
		<tag k="ssr:stedsnr" v="76067" />
	</node>
	<node id="9893816216" lat="65.7577838" lon="12.5644536" version="1" timestamp="2022-07-17T19:23:40Z" changeset="123732825" uid="3497659" user="NKA">
		<tag k="name" v="Stokka" />
		<tag k="place" v="hamlet" />
		<tag k="ssr:stedsnr" v="258095" />
	</node>
	<node id="9893830417" lat="65.7578523" lon="12.5572331" version="1" timestamp="2022-07-17T19:23:40Z" changeset="123732825" uid="3497659" user="NKA">
		<tag k="name" v="Fredheim" />
		<tag k="place" v="farm" />
		<tag k="ssr:stedsnr" v="289423" />
	</node>
	<node id="9893830418" lat="65.7222868" lon="12.4453603" version="1" timestamp="2022-07-17T19:23:40Z" changeset="123732825" uid="3497659" user="NKA">
		<tag k="name" v="Vågsodden" />
		<tag k="place" v="hamlet" />
		<tag k="ssr:stedsnr" v="16200" />
	</node>
	<node id="9893830419" lat="65.7654655" lon="12.5830912" version="1" timestamp="2022-07-17T19:23:40Z" changeset="123732825" uid="3497659" user="NKA">
		<tag k="name" v="Øver-Bren" />
		<tag k="place" v="farm" />
		<tag k="ssr:stedsnr" v="289329" />
	</node>
	<node id="9893830420" lat="65.6372237" lon="12.3686299" version="1" timestamp="2022-07-17T19:23:40Z" changeset="123732825" uid="3497659" user="NKA">
		<tag k="name" v="Bakken" />
		<tag k="place" v="farm" />
		<tag k="ssr:stedsnr" v="532785" />
	</node>
	<node id="9893830421" lat="65.7658587" lon="12.5813449" version="1" timestamp="2022-07-17T19:23:40Z" changeset="123732825" uid="3497659" user="NKA">
		<tag k="name" v="Ner-Bren" />
		<tag k="place" v="farm" />
		<tag k="ssr:stedsnr" v="896339" />
	</node>
	<node id="9893830422" lat="65.7298084" lon="12.5965029" version="1" timestamp="2022-07-17T19:23:40Z" changeset="123732825" uid="3497659" user="NKA">
		<tag k="name" v="Nordgården" />
		<tag k="place" v="farm" />
		<tag k="ssr:stedsnr" v="349618" />
	</node>
	<node id="9893830423" lat="65.6927667" lon="12.4322612" version="1" timestamp="2022-07-17T19:23:40Z" changeset="123732825" uid="3497659" user="NKA">
		<tag k="name" v="Risåsen" />
		<tag k="place" v="neighbourhood" />
		<tag k="ssr:stedsnr" v="228688" />
	</node>
	<node id="9893830424" lat="65.7338834" lon="12.4978735" version="1" timestamp="2022-07-17T19:23:40Z" changeset="123732825" uid="3497659" user="NKA">
		<tag k="name" v="Vistnes" />
		<tag k="place" v="hamlet" />
		<tag k="ssr:stedsnr" v="136250" />
	</node>
	<node id="9893830425" lat="65.6378077" lon="12.3699975" version="1" timestamp="2022-07-17T19:23:40Z" changeset="123732825" uid="3497659" user="NKA">
		<tag k="name" v="Haugen" />
		<tag k="place" v="farm" />
		<tag k="ssr:stedsnr" v="714778" />
	</node>
	<node id="9893830426" lat="65.6653056" lon="12.4014333" version="1" timestamp="2022-07-17T19:23:40Z" changeset="123732825" uid="3497659" user="NKA">
		<tag k="alt_name" v="Olderlund" />
		<tag k="name" v="Olderlunden" />
		<tag k="place" v="hamlet" />
		<tag k="ssr:stedsnr" v="198047" />
	</node>
	<node id="9893830427" lat="65.7179882" lon="12.4730972" version="1" timestamp="2022-07-17T19:23:40Z" changeset="123732825" uid="3497659" user="NKA">
		<tag k="alt_name" v="Korsvik" />
		<tag k="name" v="Korsvika" />
		<tag k="place" v="farm" />
		<tag k="ssr:stedsnr" v="926242" />
	</node>
	<node id="9893830428" lat="65.6363652" lon="12.3652608" version="1" timestamp="2022-07-17T19:23:40Z" changeset="123732825" uid="3497659" user="NKA">
		<tag k="name" v="Nerstua" />
		<tag k="place" v="farm" />
		<tag k="ssr:stedsnr" v="653813" />
	</node>
	<node id="9893830429" lat="65.5660389" lon="12.7465111" version="1" timestamp="2022-07-17T19:23:40Z" changeset="123732825" uid="3497659" user="NKA">
		<tag k="name" v="Laksmarka" />
		<tag k="place" v="farm" />
		<tag k="ssr:stedsnr" v="319665" />
	</node>
	<node id="9893830430" lat="65.6324761" lon="12.3676455" version="1" timestamp="2022-07-17T19:23:40Z" changeset="123732825" uid="3497659" user="NKA">
		<tag k="name" v="Vangen" />
		<tag k="place" v="farm" />
		<tag k="ssr:stedsnr" v="653816" />
	</node>
	<node id="9893830431" lat="65.6527695" lon="12.3806001" version="1" timestamp="2022-07-17T19:23:40Z" changeset="123732825" uid="3497659" user="NKA">
		<tag k="alt_name" v="Kongshaugen" />
		<tag k="name" v="Kongshågjen" />
		<tag k="place" v="farm" />
		<tag k="ssr:stedsnr" v="925117" />
	</node>
	<node id="9893830432" lat="65.6752083" lon="12.4084556" version="1" timestamp="2022-07-17T19:23:40Z" changeset="123732825" uid="3497659" user="NKA">
		<tag k="name" v="Sandosen" />
		<tag k="place" v="farm" />
		<tag k="ssr:stedsnr" v="816175" />
	</node>
	<node id="9893830433" lat="65.6903667" lon="12.406875" version="1" timestamp="2022-07-17T19:23:40Z" changeset="123732825" uid="3497659" user="NKA">
		<tag k="name" v="Roparneset" />
		<tag k="place" v="farm" />
		<tag k="ssr:stedsnr" v="258031" />
	</node>
	<node id="9893830434" lat="65.5866143" lon="12.4164207" version="1" timestamp="2022-07-17T19:23:40Z" changeset="123732825" uid="3497659" user="NKA">
		<tag k="alt_name" v="Anddalen" />
		<tag k="name" v="Andalen" />
		<tag k="place" v="hamlet" />
		<tag k="ssr:stedsnr" v="865884" />
	</node>
	<node id="9893830435" lat="65.7094083" lon="12.4291527" version="1" timestamp="2022-07-17T19:23:40Z" changeset="123732825" uid="3497659" user="NKA">
		<tag k="alt_name" v="Høyvika" />
		<tag k="name" v="Høyvik" />
		<tag k="place" v="farm" />
		<tag k="ssr:stedsnr" v="501222" />
	</node>
	<node id="9893830436" lat="65.6998548" lon="12.6421181" version="1" timestamp="2022-07-17T19:23:40Z" changeset="123732825" uid="3497659" user="NKA">
		<tag k="name" v="Almosen" />
		<tag k="place" v="farm" />
		<tag k="ssr:stedsnr" v="622042" />
	</node>
	<node id="9893830437" lat="65.6342821" lon="12.3684013" version="1" timestamp="2022-07-17T19:23:40Z" changeset="123732825" uid="3497659" user="NKA">
		<tag k="name" v="Øvergård" />
		<tag k="place" v="farm" />
		<tag k="ssr:stedsnr" v="471808" />
	</node>
	<node id="9893830438" lat="65.6962287" lon="12.5916215" version="1" timestamp="2022-07-17T19:23:40Z" changeset="123732825" uid="3497659" user="NKA">
		<tag k="name" v="Ytrekila" />
		<tag k="place" v="farm" />
		<tag k="ssr:stedsnr" v="804024" />
	</node>
	<node id="9893830439" lat="65.6667111" lon="12.567175" version="1" timestamp="2022-07-17T19:23:40Z" changeset="123732825" uid="3497659" user="NKA">
		<tag k="name" v="Staulan" />
		<tag k="place" v="isolated_dwelling" />
		<tag k="ssr:stedsnr" v="683060" />
	</node>
	<node id="9893830440" lat="65.6821769" lon="12.4132337" version="1" timestamp="2022-07-17T19:23:40Z" changeset="123732825" uid="3497659" user="NKA">
		<tag k="alt_name" v="Brølos" />
		<tag k="name" v="Brødløs" />
		<tag k="place" v="hamlet" />
		<tag k="ssr:stedsnr" v="804052" />
	</node>
	<node id="9893830441" lat="65.6268156" lon="12.7410122" version="1" timestamp="2022-07-17T19:23:40Z" changeset="123732825" uid="3497659" user="NKA">
		<tag k="name" v="Fagermoen" />
		<tag k="place" v="isolated_dwelling" />
		<tag k="ssr:stedsnr" v="258838" />
	</node>
	<node id="9893830442" lat="65.6523" lon="12.6831166" version="1" timestamp="2022-07-17T19:23:40Z" changeset="123732825" uid="3497659" user="NKA">
		<tag k="name" v="Arnvika" />
		<tag k="place" v="farm" />
		<tag k="ssr:stedsnr" v="258103" />
	</node>
	<node id="9893830443" lat="65.7657389" lon="12.5830944" version="1" timestamp="2022-07-17T19:23:40Z" changeset="123732825" uid="3497659" user="NKA">
		<tag k="name" v="Brennåa" />
		<tag k="place" v="farm" />
		<tag k="ssr:stedsnr" v="258046" />
	</node>
	<node id="9893830444" lat="65.717803" lon="12.4419951" version="1" timestamp="2022-07-17T19:23:40Z" changeset="123732825" uid="3497659" user="NKA">
		<tag k="name" v="Gjerdet" />
		<tag k="place" v="farm" />
		<tag k="ssr:stedsnr" v="592469" />
	</node>
	<node id="9893830445" lat="65.7029278" lon="12.4176899" version="1" timestamp="2022-07-17T19:23:40Z" changeset="123732825" uid="3497659" user="NKA">
		<tag k="alt_name" v="Lislgjerdet" />
		<tag k="name" v="Lissgjerdet" />
		<tag k="place" v="farm" />
		<tag k="ssr:stedsnr" v="743012" />
	</node>
	<node id="9893830446" lat="65.6867028" lon="12.4231027" version="1" timestamp="2022-07-17T19:23:40Z" changeset="123732825" uid="3497659" user="NKA">
		<tag k="name" v="Svalvika" />
		<tag k="place" v="farm" />
		<tag k="ssr:stedsnr" v="136053" />
	</node>
	<node id="9893830447" lat="65.729678" lon="12.4889764" version="1" timestamp="2022-07-17T19:23:40Z" changeset="123732825" uid="3497659" user="NKA">
		<tag k="name" v="Vistnesstranda" />
		<tag k="place" v="farm" />
		<tag k="ssr:stedsnr" v="197247" />
	</node>
	<node id="9893830448" lat="65.7265528" lon="12.4852795" version="1" timestamp="2022-07-17T19:23:40Z" changeset="123732825" uid="3497659" user="NKA">
		<tag k="name" v="Nermoen" />
		<tag k="place" v="farm" />
		<tag k="ssr:stedsnr" v="835501" />
	</node>
	<node id="9893830449" lat="65.6783083" lon="12.4061778" version="1" timestamp="2022-07-17T19:23:40Z" changeset="123732825" uid="3497659" user="NKA">
		<tag k="alt_name" v="Ytterhågjen" />
		<tag k="name" v="Ytrehaugen" />
		<tag k="place" v="farm" />
		<tag k="ssr:stedsnr" v="15069" />
	</node>
	<node id="9893830450" lat="65.7034283" lon="12.4103888" version="1" timestamp="2022-07-17T19:23:40Z" changeset="123732825" uid="3497659" user="NKA">
		<tag k="name" v="Våg" />
		<tag k="place" v="hamlet" />
		<tag k="ssr:stedsnr" v="989785" />
	</node>
	<node id="9893830451" lat="65.7560583" lon="12.5689917" version="1" timestamp="2022-07-17T19:23:40Z" changeset="123732825" uid="3497659" user="NKA">
		<tag k="name" v="Øverstokka" />
		<tag k="place" v="neighbourhood" />
		<tag k="ssr:stedsnr" v="713408" />
	</node>
	<node id="9893830452" lat="65.6397603" lon="12.3722185" version="1" timestamp="2022-07-17T19:23:40Z" changeset="123732825" uid="3497659" user="NKA">
		<tag k="name" v="Høyholm" />
		<tag k="place" v="hamlet" />
		<tag k="ssr:stedsnr" v="379108" />
	</node>
	<node id="9893830453" lat="65.6891706" lon="12.3875267" version="1" timestamp="2022-07-17T19:23:40Z" changeset="123732825" uid="3497659" user="NKA">
		<tag k="name" v="Hestun" />
		<tag k="place" v="hamlet" />
		<tag k="ssr:stedsnr" v="440050" />
	</node>
	<node id="9893830454" lat="65.6477101" lon="12.3795058" version="1" timestamp="2022-07-17T19:23:40Z" changeset="123732825" uid="3497659" user="NKA">
		<tag k="name" v="Nordgården" />
		<tag k="place" v="farm" />
		<tag k="ssr:stedsnr" v="350774" />
	</node>
	<node id="9893830455" lat="65.6929972" lon="12.4291972" version="1" timestamp="2022-07-17T19:23:40Z" changeset="123732825" uid="3497659" user="NKA">
		<tag k="name" v="Slåttvikåsen" />
		<tag k="place" v="neighbourhood" />
		<tag k="ssr:stedsnr" v="774678" />
	</node>
	<node id="9893830456" lat="65.7008583" lon="12.4148862" version="1" timestamp="2022-07-17T19:23:40Z" changeset="123732825" uid="3497659" user="NKA">
		<tag k="name" v="Langgjerdet" />
		<tag k="place" v="farm" />
		<tag k="ssr:stedsnr" v="743015" />
	</node>
	<node id="9893830457" lat="65.6929111" lon="12.4271278" version="1" timestamp="2022-07-17T19:23:40Z" changeset="123732825" uid="3497659" user="NKA">
		<tag k="name" v="Kjørsvika" />
		<tag k="place" v="farm" />
		<tag k="ssr:stedsnr" v="743592" />
	</node>
	<node id="9893830458" lat="65.6222522" lon="12.2988536" version="1" timestamp="2022-07-17T19:23:40Z" changeset="123732825" uid="3497659" user="NKA">
		<tag k="name" v="Fjordholmen" />
		<tag k="place" v="locality" />
		<tag k="ssr:stedsnr" v="989796" />
	</node>
	<node id="9893830459" lat="65.6523056" lon="12.7367334" version="1" timestamp="2022-07-17T19:23:40Z" changeset="123732825" uid="3497659" user="NKA">
		<tag k="historic" v="shieling" />
		<tag k="name" v="Bønnåsætra" />
		<tag k="place" v="isolated_dwelling" />
		<tag k="ssr:stedsnr" v="804856" />
	</node>
	<node id="9893830460" lat="65.600317" lon="12.7996585" version="1" timestamp="2022-07-17T19:23:40Z" changeset="123732825" uid="3497659" user="NKA">
		<tag k="name" v="Sandan" />
		<tag k="place" v="farm" />
		<tag k="ssr:stedsnr" v="804816" />
	</node>
	<node id="9893830461" lat="65.6950861" lon="12.4278723" version="1" timestamp="2022-07-17T19:23:40Z" changeset="123732825" uid="3497659" user="NKA">
		<tag k="name" v="Slåttvika" />
		<tag k="place" v="farm" />
		<tag k="ssr:stedsnr" v="379017" />
	</node>
	<node id="9893830462" lat="65.6680334" lon="12.6399445" version="1" timestamp="2022-07-17T19:23:40Z" changeset="123732825" uid="3497659" user="NKA">
		<tag k="name" v="Kvalvågen" />
		<tag k="place" v="farm" />
		<tag k="ssr:stedsnr" v="683082" />
	</node>
	<node id="9893830463" lat="65.6832667" lon="12.3888417" version="1" timestamp="2022-07-17T19:23:40Z" changeset="123732825" uid="3497659" user="NKA">
		<tag k="name" v="Makjenvika" />
		<tag k="place" v="locality" />
		<tag k="ssr:stedsnr" v="379033" />
	</node>
	<node id="9893830464" lat="65.6664142" lon="12.4038255" version="1" timestamp="2022-07-17T19:23:40Z" changeset="123732825" uid="3497659" user="NKA">
		<tag k="name" v="Fjelltun" />
		<tag k="place" v="farm" />
		<tag k="ssr:stedsnr" v="169680" />
	</node>
	<node id="9893830465" lat="65.703175" lon="12.4187667" version="1" timestamp="2022-07-17T19:23:40Z" changeset="123732825" uid="3497659" user="NKA">
		<tag k="name" v="Storgjerdet" />
		<tag k="place" v="farm" />
		<tag k="ssr:stedsnr" v="258020" />
	</node>
	<node id="9893830466" lat="65.6856285" lon="12.4185068" version="1" timestamp="2022-07-17T19:23:40Z" changeset="123732825" uid="3497659" user="NKA">
		<tag k="name" v="Nyheim" />
		<tag k="place" v="farm" />
		<tag k="ssr:stedsnr" v="592713" />
	</node>
	<node id="9893830467" lat="65.6587304" lon="12.5943022" version="1" timestamp="2022-07-17T19:23:40Z" changeset="123732825" uid="3497659" user="NKA">
		<tag k="name" v="Vasseng" />
		<tag k="place" v="farm" />
		<tag k="ssr:stedsnr" v="501083" />
	</node>
	<node id="9893830468" lat="65.7257326" lon="12.4988683" version="1" timestamp="2022-07-17T19:23:40Z" changeset="123732825" uid="3497659" user="NKA">
		<tag k="name" v="Vistnesdalen" />
		<tag k="place" v="farm" />
		<tag k="ssr:stedsnr" v="501211" />
	</node>
	<node id="9893830469" lat="65.6074556" lon="12.8380417" version="1" timestamp="2022-07-17T19:23:40Z" changeset="123732825" uid="3497659" user="NKA">
		<tag k="name" v="Sætra" />
		<tag k="place" v="farm" />
		<tag k="ssr:stedsnr" v="743818" />
	</node>
	<node id="9893830470" lat="65.7040058" lon="12.410675" version="1" timestamp="2022-07-17T19:23:40Z" changeset="123732825" uid="3497659" user="NKA">
		<tag k="name" v="Vågsgarden" />
		<tag k="place" v="farm" />
		<tag k="ssr:stedsnr" v="743008" />
	</node>
	<node id="9893830471" lat="65.6722" lon="12.6133916" version="1" timestamp="2022-07-17T19:23:40Z" changeset="123732825" uid="3497659" user="NKA">
		<tag k="name" v="Ytterstranda" />
		<tag k="old_name" v="Ytrestranda;Stranda" />
		<tag k="place" v="farm" />
		<tag k="ssr:stedsnr" v="440103" />
	</node>
	<node id="9893830472" lat="65.662425" lon="12.3993251" version="1" timestamp="2022-07-17T19:23:40Z" changeset="123732825" uid="3497659" user="NKA">
		<tag k="alt_name" v="Volden" />
		<tag k="name" v="Vollen" />
		<tag k="place" v="farm" />
		<tag k="ssr:stedsnr" v="865090" />
	</node>
	<node id="9893830473" lat="65.6631099" lon="12.538626" version="1" timestamp="2022-07-17T19:23:40Z" changeset="123732825" uid="3497659" user="NKA">
		<tag k="name" v="Kilmarka" />
		<tag k="place" v="locality" />
		<tag k="ssr:stedsnr" v="379091" />
	</node>
	<node id="9893830474" lat="65.6327389" lon="12.7814389" version="1" timestamp="2022-07-17T19:23:40Z" changeset="123732825" uid="3497659" user="NKA">
		<tag k="name" v="Ytterskogen" />
		<tag k="place" v="isolated_dwelling" />
		<tag k="ssr:stedsnr" v="683808" />
	</node>
	<node id="9893830475" lat="65.6692301" lon="12.3187172" version="1" timestamp="2022-07-17T19:23:40Z" changeset="123732825" uid="3497659" user="NKA">
		<tag k="alt_name" v="Havn" />
		<tag k="name" v="Hamn" />
		<tag k="place" v="hamlet" />
		<tag k="ssr:stedsnr" v="15081" />
	</node>
	<node id="9893830476" lat="65.6256966" lon="12.7482388" version="1" timestamp="2022-07-17T19:23:40Z" changeset="123732825" uid="3497659" user="NKA">
		<tag k="name" v="Straumsneset" />
		<tag k="place" v="farm" />
		<tag k="ssr:stedsnr" v="379820" />
	</node>
	<node id="9893830477" lat="65.6385709" lon="12.3710202" version="1" timestamp="2022-07-17T19:23:40Z" changeset="123732825" uid="3497659" user="NKA">
		<tag k="name" v="Solheim" />
		<tag k="place" v="farm" />
		<tag k="ssr:stedsnr" v="410788" />
	</node>
	<node id="9893830478" lat="65.6320982" lon="12.7444747" version="1" timestamp="2022-07-17T19:23:40Z" changeset="123732825" uid="3497659" user="NKA">
		<tag k="name" v="Volden" />
		<tag k="place" v="farm" />
		<tag k="ssr:stedsnr" v="1073608" />
	</node>
	<node id="9893830479" lat="65.7151668" lon="12.4680476" version="1" timestamp="2022-07-17T19:23:40Z" changeset="123732825" uid="3497659" user="NKA">
		<tag k="name" v="Remma" />
		<tag k="place" v="farm" />
		<tag k="ssr:stedsnr" v="816202" />
	</node>
	<node id="9893830480" lat="65.6374664" lon="12.792294" version="1" timestamp="2022-07-17T19:23:40Z" changeset="123732825" uid="3497659" user="NKA">
		<tag k="name" v="Austerfjorden" />
		<tag k="place" v="farm" />
		<tag k="ssr:stedsnr" v="379829" />
	</node>
	<node id="9893830481" lat="65.6362055" lon="12.3632471" version="1" timestamp="2022-07-17T19:23:40Z" changeset="123732825" uid="3497659" user="NKA">
		<tag k="name" v="Ner-Høyholm" />
		<tag k="old_name" v="Høyholm søndre" />
		<tag k="place" v="farm" />
		<tag k="ssr:stedsnr" v="804130" />
	</node>
	<node id="9893830482" lat="65.6827568" lon="12.4152055" version="1" timestamp="2022-07-17T19:23:40Z" changeset="123732825" uid="3497659" user="NKA">
		<tag k="name" v="Smibakken" />
		<tag k="place" v="farm" />
		<tag k="ssr:stedsnr" v="229669" />
	</node>
	<node id="9893830483" lat="65.6979416" lon="12.4385168" version="1" timestamp="2022-07-17T19:23:40Z" changeset="123732825" uid="3497659" user="NKA">
		<tag k="alt_name" v="Vollan" />
		<tag k="name" v="Sør-Vollan" />
		<tag k="place" v="farm" />
		<tag k="ssr:stedsnr" v="440008" />
	</node>
	<node id="9893830484" lat="65.6011574" lon="12.7755965" version="1" timestamp="2022-07-17T19:23:40Z" changeset="123732825" uid="3497659" user="NKA">
		<tag k="name" v="Lakselva" />
		<tag k="place" v="farm" />
		<tag k="ssr:stedsnr" v="622796" />
	</node>
	<node id="9893830485" lat="65.7290833" lon="12.5892194" version="1" timestamp="2022-07-17T19:23:40Z" changeset="123732825" uid="3497659" user="NKA">
		<tag k="name" v="Syvika" />
		<tag k="place" v="farm" />
		<tag k="ssr:stedsnr" v="961276" />
	</node>
	<node id="9893830486" lat="65.7167917" lon="12.6088861" version="1" timestamp="2022-07-17T19:23:40Z" changeset="123732825" uid="3497659" user="NKA">
		<tag k="name" v="Bjørnvika" />
		<tag k="place" v="farm" />
		<tag k="ssr:stedsnr" v="925283" />
	</node>
	<node id="9893830487" lat="65.6461889" lon="12.7550223" version="1" timestamp="2022-07-17T19:23:40Z" changeset="123732825" uid="3497659" user="NKA">
		<tag k="name" v="Bønnåa" />
		<tag k="place" v="farm" />
		<tag k="ssr:stedsnr" v="622830" />
	</node>
	<node id="9893830488" lat="65.771033" lon="12.5858301" version="1" timestamp="2022-07-17T19:23:40Z" changeset="123732825" uid="3497659" user="NKA">
		<tag k="alt_name" v="Giskå" />
		<tag k="name" v="Giskåa" />
		<tag k="place" v="farm" />
		<tag k="ssr:stedsnr" v="804057" />
	</node>
	<node id="9893830489" lat="65.676896" lon="12.6660049" version="1" timestamp="2022-07-17T19:23:40Z" changeset="123732825" uid="3497659" user="NKA">
		<tag k="name" v="Tverrlandet" />
		<tag k="place" v="farm" />
		<tag k="ssr:stedsnr" v="804102" />
	</node>
	<node id="9893830490" lat="65.579306" lon="12.4049893" version="1" timestamp="2022-07-17T19:23:40Z" changeset="123732825" uid="3497659" user="NKA">
		<tag k="name" v="Slettberget" />
		<tag k="place" v="locality" />
		<tag k="ssr:stedsnr" v="592878" />
	</node>
	<node id="9893830491" lat="65.667775" lon="12.6380555" version="1" timestamp="2022-07-17T19:23:40Z" changeset="123732825" uid="3497659" user="NKA">
		<tag k="name" v="Mortenhaugen" />
		<tag k="place" v="farm" />
		<tag k="ssr:stedsnr" v="744058" />
	</node>
	<node id="9893830492" lat="65.6959747" lon="12.4338131" version="1" timestamp="2022-07-17T19:23:40Z" changeset="123732825" uid="3497659" user="NKA">
		<tag k="alt_name" v="Åsen" />
		<tag k="name" v="Åsan" />
		<tag k="place" v="farm" />
		<tag k="ssr:stedsnr" v="926020" />
	</node>
	<node id="9893830493" lat="65.6310647" lon="12.5587976" version="1" timestamp="2022-07-17T19:23:40Z" changeset="123732825" uid="3497659" user="NKA">
		<tag k="name" v="Stormarka" />
		<tag k="place" v="locality" />
		<tag k="ssr:stedsnr" v="379126" />
	</node>
	<node id="9893830494" lat="65.7236484" lon="12.6038975" version="1" timestamp="2022-07-17T19:23:40Z" changeset="123732825" uid="3497659" user="NKA">
		<tag k="name" v="Granmoen" />
		<tag k="place" v="farm" />
		<tag k="ssr:stedsnr" v="805188" />
	</node>
	<node id="9893830495" lat="65.719324" lon="12.6081" version="1" timestamp="2022-07-17T19:23:40Z" changeset="123732825" uid="3497659" user="NKA">
		<tag k="name" v="Moen" />
		<tag k="place" v="farm" />
		<tag k="ssr:stedsnr" v="925284" />
	</node>
	<node id="9893830496" lat="65.6794577" lon="12.408769" version="1" timestamp="2022-07-17T19:23:40Z" changeset="123732825" uid="3497659" user="NKA">
		<tag k="alt_name" v="Ramntuva" />
		<tag k="name" v="Ravntuva" />
		<tag k="place" v="farm" />
		<tag k="ssr:stedsnr" v="804073" />
	</node>
	<node id="9893830497" lat="65.6347035" lon="12.7444236" version="1" timestamp="2022-07-17T19:23:40Z" changeset="123732825" uid="3497659" user="NKA">
		<tag k="name" v="Buvika" />
		<tag k="place" v="farm" />
		<tag k="ssr:stedsnr" v="197858" />
	</node>
	<node id="9893830498" lat="65.696305" lon="12.4332864" version="1" timestamp="2022-07-17T19:23:40Z" changeset="123732825" uid="3497659" user="NKA">
		<tag k="name" v="Åsmyra" />
		<tag k="place" v="hamlet" />
		<tag k="ssr:stedsnr" v="804032" />
	</node>
	<node id="9893830499" lat="65.6464396" lon="12.3751052" version="1" timestamp="2022-07-17T19:23:40Z" changeset="123732825" uid="3497659" user="NKA">
		<tag k="name" v="Øver-Høyholm" />
		<tag k="place" v="farm" />
		<tag k="ssr:stedsnr" v="510802" />
	</node>
	<node id="9893830500" lat="65.57925" lon="12.4050139" version="1" timestamp="2022-07-17T19:23:40Z" changeset="123732825" uid="3497659" user="NKA">
		<tag k="historic" v="shieling" />
		<tag k="name" v="Staulen" />
		<tag k="place" v="isolated_dwelling" />
		<tag k="ssr:stedsnr" v="561886" />
	</node>
	<node id="9893830501" lat="65.6526072" lon="12.6294563" version="1" timestamp="2022-07-17T19:23:40Z" changeset="123732825" uid="3497659" user="NKA">
		<tag k="name" v="Ausen" />
		<tag k="place" v="hamlet" />
		<tag k="ssr:stedsnr" v="440136" />
	</node>
	<node id="9893830502" lat="65.6928056" lon="12.6630278" version="1" timestamp="2022-07-17T19:23:40Z" changeset="123732825" uid="3497659" user="NKA">
		<tag k="name" v="Skardbakken" />
		<tag k="place" v="farm" />
		<tag k="ssr:stedsnr" v="379062" />
	</node>
	<node id="9893830503" lat="65.6988057" lon="12.4351164" version="1" timestamp="2022-07-17T19:23:40Z" changeset="123732825" uid="3497659" user="NKA">
		<tag k="name" v="Neset" />
		<tag k="place" v="farm" />
		<tag k="ssr:stedsnr" v="774639" />
	</node>
	<node id="9893830504" lat="65.5809389" lon="12.3845501" version="1" timestamp="2022-07-17T19:23:40Z" changeset="123732825" uid="3497659" user="NKA">
		<tag k="name" v="Høyvika" />
		<tag k="place" v="farm" />
		<tag k="ssr:stedsnr" v="865885" />
	</node>
	<node id="9893830505" lat="65.605039" lon="12.3673533" version="1" timestamp="2022-07-17T19:23:40Z" changeset="123732825" uid="3497659" user="NKA">
		<tag k="name" v="Lauknes" />
		<tag k="place" v="hamlet" />
		<tag k="ssr:stedsnr" v="379896" />
	</node>
	<node id="9893830506" lat="65.6670745" lon="12.6370158" version="1" timestamp="2022-07-17T19:23:40Z" changeset="123732825" uid="3497659" user="NKA">
		<tag k="name" v="Nygård" />
		<tag k="place" v="farm" />
		<tag k="ssr:stedsnr" v="1073607" />
	</node>
	<node id="9893830507" lat="65.6886694" lon="12.42385" version="1" timestamp="2022-07-17T19:23:40Z" changeset="123732825" uid="3497659" user="NKA">
		<tag k="name" v="Skreddarvika" />
		<tag k="place" v="farm" />
		<tag k="ssr:stedsnr" v="683027" />
	</node>
	<node id="9893830508" lat="65.6375012" lon="12.5978958" version="1" timestamp="2022-07-17T19:23:40Z" changeset="123732825" uid="3497659" user="NKA">
		<tag k="alt_name" v="Ausli" />
		<tag k="name" v="Auslia" />
		<tag k="place" v="farm" />
		<tag k="ssr:stedsnr" v="197135" />
	</node>
	<node id="9893830509" lat="65.667741" lon="12.6402118" version="1" timestamp="2022-07-17T19:23:40Z" changeset="123732825" uid="3497659" user="NKA">
		<tag k="name" v="Nyheim" />
		<tag k="place" v="farm" />
		<tag k="ssr:stedsnr" v="1073606" />
	</node>
	<node id="9893830510" lat="65.6752055" lon="12.4084528" version="1" timestamp="2022-07-17T19:23:40Z" changeset="123732825" uid="3497659" user="NKA">
		<tag k="name" v="Torvhaugen" />
		<tag k="place" v="farm" />
		<tag k="ssr:stedsnr" v="440076" />
	</node>
	<node id="9893830511" lat="65.6423232" lon="12.5812128" version="1" timestamp="2022-07-17T19:23:40Z" changeset="123732825" uid="3497659" user="NKA">
		<tag k="name" v="Åsen" />
		<tag k="place" v="farm" />
		<tag k="ssr:stedsnr" v="743137" />
	</node>
	<node id="9893830512" lat="65.7255305" lon="12.4840973" version="1" timestamp="2022-07-17T19:23:40Z" changeset="123732825" uid="3497659" user="NKA">
		<tag k="alt_name" v="Dalsjøen" />
		<tag k="name" v="Dalsyen" />
		<tag k="place" v="farm" />
		<tag k="ssr:stedsnr" v="865248" />
	</node>
	<node id="9893830513" lat="65.7534575" lon="12.550325" version="1" timestamp="2022-07-17T19:23:40Z" changeset="123732825" uid="3497659" user="NKA">
		<tag k="alt_name" v="Steinsrud" />
		<tag k="name" v="Stensrud" />
		<tag k="place" v="farm" />
		<tag k="ssr:stedsnr" v="865119" />
	</node>
	<node id="9893830514" lat="65.7359139" lon="12.6722862" version="1" timestamp="2022-07-17T19:23:40Z" changeset="123732825" uid="3497659" user="NKA">
		<tag k="name" v="Kvannlia" />
		<tag k="place" v="locality" />
		<tag k="ssr:stedsnr" v="318214" />
	</node>
	<node id="9893830515" lat="65.6666883" lon="12.6038641" version="1" timestamp="2022-07-17T19:23:40Z" changeset="123732825" uid="3497659" user="NKA">
		<tag k="alt_name" v="Indrestranda" />
		<tag k="name" v="Innerstranda" />
		<tag k="place" v="farm" />
		<tag k="ssr:stedsnr" v="865094" />
	</node>
	<node id="9893830516" lat="65.7289455" lon="12.5913769" version="1" timestamp="2022-07-17T19:23:40Z" changeset="123732825" uid="3497659" user="NKA">
		<tag k="name" v="Solbu" />
		<tag k="place" v="farm" />
		<tag k="ssr:stedsnr" v="714505" />
	</node>
	<node id="9893830517" lat="65.7042917" lon="12.4510611" version="1" timestamp="2022-07-17T19:23:40Z" changeset="123732825" uid="3497659" user="NKA">
		<tag k="name" v="Fagerbakken" />
		<tag k="place" v="farm" />
		<tag k="ssr:stedsnr" v="268166" />
	</node>
	<node id="9893830518" lat="65.6997583" lon="12.4426916" version="1" timestamp="2022-07-17T19:23:40Z" changeset="123732825" uid="3497659" user="NKA">
		<tag k="name" v="Nordvollan" />
		<tag k="place" v="farm" />
		<tag k="ssr:stedsnr" v="500028" />
	</node>
	<node id="9893830519" lat="65.72625" lon="12.599625" version="1" timestamp="2022-07-17T19:23:40Z" changeset="123732825" uid="3497659" user="NKA">
		<tag k="name" v="Syskogen" />
		<tag k="place" v="neighbourhood" />
		<tag k="ssr:stedsnr" v="653559" />
	</node>
	<node id="9893830520" lat="65.6907361" lon="12.4254218" version="1" timestamp="2022-07-17T19:23:40Z" changeset="123732825" uid="3497659" user="NKA">
		<tag k="name" v="Nybakken" />
		<tag k="place" v="farm" />
		<tag k="ssr:stedsnr" v="167659" />
	</node>
	<node id="9893830521" lat="65.6450222" lon="12.5862501" version="1" timestamp="2022-07-17T19:23:40Z" changeset="123732825" uid="3497659" user="NKA">
		<tag k="name" v="Åsheim" />
		<tag k="place" v="farm" />
		<tag k="ssr:stedsnr" v="440155" />
	</node>
	<node id="9893830522" lat="65.7386889" lon="12.5147193" version="1" timestamp="2022-07-17T19:23:40Z" changeset="123732825" uid="3497659" user="NKA">
		<tag k="name" v="Vistnesodden" />
		<tag k="place" v="farm" />
		<tag k="ssr:stedsnr" v="136245" />
	</node>
	<node id="9893830523" lat="65.6461611" lon="12.6759999" version="1" timestamp="2022-07-17T19:23:40Z" changeset="123732825" uid="3497659" user="NKA">
		<tag k="name" v="Tangvika" />
		<tag k="place" v="locality" />
		<tag k="ssr:stedsnr" v="136141" />
	</node>
	<node id="9893830524" lat="65.7044661" lon="12.5892437" version="1" timestamp="2022-07-17T19:23:40Z" changeset="123732825" uid="3497659" user="NKA">
		<tag k="name" v="Ytteråkran" />
		<tag k="place" v="farm" />
		<tag k="ssr:stedsnr" v="450180" />
	</node>
	<node id="9893830525" lat="65.671725" lon="12.7753028" version="1" timestamp="2022-07-17T19:23:40Z" changeset="123732825" uid="3497659" user="NKA">
		<tag k="name" v="Klemmetjorda" />
		<tag k="place" v="isolated_dwelling" />
		<tag k="ssr:stedsnr" v="865859" />
	</node>
	<node id="9893830526" lat="65.6452334" lon="12.3771277" version="1" timestamp="2022-07-17T19:23:40Z" changeset="123732825" uid="3497659" user="NKA">
		<tag k="name" v="Sørgården" />
		<tag k="place" v="farm" />
		<tag k="ssr:stedsnr" v="46762" />
	</node>
</osm>
