<?xml version="1.0" encoding="UTF-8"?>
<<<<<<< HEAD
<osm version="0.6" generator="osmapis">
	<node lat="59.362055556835934" lon="5.439822225816613" id="-3248">
		<tag k="name" v="Ådnavatnet" />
		<tag k="natural" v="water" />
		<tag k="ssr:stedsnr" v="1509" />
		<tag k="water" v="lake" />
	</node>
	<node lat="59.35680000355312" lon="5.413788882072108" id="-3249">
		<tag k="alt_name" v="Hallsteinsvatnet" />
		<tag k="name" v="Hallsteinvatnet" />
		<tag k="natural" v="water" />
		<tag k="ssr:stedsnr" v="1511" />
	</node>
	<node lat="59.41849249244736" lon="5.561093411289933" id="-3250">
		<tag k="alt_name" v="Ramslitjørna" />
		<tag k="name" v="Romslitjørna" />
=======
<osm generator="osmapis" version="0.6">
	<node id="-38906" lat="59.3727000034" lon="5.82317500662">
		<tag k="alt_name" v="Badnavatnet, l" />
		<tag k="name" v="Litla Badnavatnet" />
		<tag k="natural" v="water" />
		<tag k="ssr:stedsnr" v="586089" />
	</node>
	<node id="-38895" lat="59.3505055523" lon="5.43151111888">
		<tag k="name" v="Stemmen" />
		<tag k="natural" v="water" />
		<tag k="ssr:stedsnr" v="572025" />
	</node>
	<node id="-38881" lat="59.4723828892" lon="5.48485094963">
		<tag k="alt_name" v="Tveitestemmen" />
		<tag k="name" v="Tveitstemmen" />
		<tag k="natural" v="water" />
		<tag k="ssr:stedsnr" v="548847" />
	</node>
	<node id="-36827" lat="59.3743305523" lon="5.70644443622">
		<tag k="name" v="Grøna Tjødnå" />
		<tag k="natural" v="water" />
		<tag k="ssr:stedsnr" v="234573" />
	</node>
	<node id="-36824" lat="59.4387305581" lon="5.3942361023">
		<tag k="name" v="Bakkatjørnane" />
		<tag k="natural" v="water" />
		<tag k="ssr:stedsnr" v="27808" />
		<tag k="water" v="lake" />
	</node>
	<node id="-36823" lat="59.3719833296" lon="5.40639722129">
		<tag k="name" v="Vågaholmen" />
		<tag k="place" v="islet" />
		<tag k="ssr:stedsnr" v="27030" />
	</node>
	<node id="-38870" lat="59.3191000013" lon="5.54031388479">
		<tag k="name" v="Åsatjørna" />
		<tag k="natural" v="water" />
		<tag k="ssr:stedsnr" v="548225" />
	</node>
	<node id="-36821" lat="59.3497111156" lon="5.39954166496">
		<tag k="name" v="Litlesåttjørna" />
		<tag k="natural" v="water" />
		<tag k="ssr:stedsnr" v="27016" />
	</node>
	<node id="-38868" lat="59.3137083338" lon="5.53456666309">
		<tag k="name" v="Knutstjørna" />
		<tag k="natural" v="water" />
		<tag k="ssr:stedsnr" v="548213" />
	</node>
	<node id="-38864" lat="59.3287750042" lon="5.47392778238">
		<tag k="name" v="Tinndalsvatnet" />
		<tag k="natural" v="water" />
		<tag k="ssr:stedsnr" v="548184" />
		<tag k="water" v="lake" />
	</node>
	<node id="-38860" lat="59.3252085872" lon="5.50352188482">
		<tag k="name" v="Salttjørna" />
		<tag k="natural" v="water" />
		<tag k="ssr:stedsnr" v="548161" />
	</node>
	<node id="-38857" lat="59.3456805587" lon="5.58884167332">
		<tag k="alt_name" v="Holpytt" />
		<tag k="name" v="Holpytten" />
		<tag k="natural" v="water" />
		<tag k="ssr:stedsnr" v="548125" />
	</node>
	<node id="-38854" lat="59.3800333338" lon="5.73801667092">
		<tag k="alt_name" v="Gåsevatnet;Gåsvatnet" />
		<tag k="name" v="Gåsavatnet" />
		<tag k="natural" v="water" />
		<tag k="ssr:stedsnr" v="548108" />
	</node>
	<node id="-38853" lat="59.3740333333" lon="5.557083326">
		<tag k="alt_name" v="Løningsholmen" />
		<tag k="name" v="Løyningsholmen" />
		<tag k="place" v="islet" />
		<tag k="ssr:stedsnr" v="548105" />
	</node>
	<node id="-38848" lat="59.395508332" lon="5.83343888222">
		<tag k="alt_name" v="Longavatnet" />
		<tag k="name" v="Langvatnet" />
		<tag k="natural" v="water" />
		<tag k="ssr:stedsnr" v="548069" />
		<tag k="water" v="lake" />
	</node>
	<node id="-38847" lat="59.4190712484" lon="5.68861525898">
		<tag k="name" v="Måvatnet" />
		<tag k="natural" v="water" />
		<tag k="ssr:stedsnr" v="548058" />
		<tag k="water" v="lake" />
	</node>
	<node id="-38843" lat="59.4172341947" lon="5.52081507879">
		<tag k="alt_name" v="Søvikvatnet" />
		<tag k="name" v="Nøkkjatjørna" />
		<tag k="natural" v="water" />
		<tag k="ssr:stedsnr" v="548012" />
	</node>
	<node id="-38842" lat="59.4247400887" lon="5.552694696">
		<tag k="name" v="Neståtjørna" />
		<tag k="natural" v="water" />
		<tag k="ssr:stedsnr" v="548010" />
	</node>
	<node id="-38838" lat="59.3849222194" lon="5.43843888994">
		<tag k="name" v="Guritjørna" />
		<tag k="natural" v="water" />
		<tag k="ssr:stedsnr" v="547637" />
	</node>
	<node id="-38836" lat="59.3451388905" lon="5.40476944996">
		<tag k="name" v="Steinsvatnet" />
		<tag k="natural" v="water" />
		<tag k="ssr:stedsnr" v="547557" />
	</node>
	<node id="-38827" lat="59.3182444403" lon="5.49185833618">
		<tag k="name" v="Djupdalstjørna" />
		<tag k="natural" v="water" />
		<tag k="ssr:stedsnr" v="539639" />
	</node>
	<node id="-38822" lat="59.4388444465" lon="5.57114722873">
		<tag k="name" v="Indre Vatlandsvatnet" />
		<tag k="natural" v="bay" />
		<tag k="ssr:stedsnr" v="539458" />
	</node>
	<node id="-36847" lat="59.3914888908" lon="5.82201666695">
		<tag k="name" v="Pipentjørna" />
		<tag k="natural" v="water" />
		<tag k="ssr:stedsnr" v="235500" />
	</node>
	<node id="-38804" lat="59.3301361074" lon="5.52141388483">
		<tag k="name" v="Sandvika" />
		<tag k="natural" v="bay" />
		<tag k="ssr:stedsnr" v="538654" />
	</node>
	<node id="-38791" lat="59.3897194467" lon="5.77628888293">
		<tag k="name" v="Ramsvika" />
		<tag k="natural" v="bay" />
		<tag k="ssr:stedsnr" v="538099" />
	</node>
	<node id="-38788" lat="59.3627555521" lon="5.58767223134">
		<tag k="name" v="Rundatjørna" />
>>>>>>> e1d4bc35ff8a6074a6f2e91616a996b547c36f15
		<tag k="natural" v="water" />
		<tag k="ssr:stedsnr" v="2003" />
	</node>
<<<<<<< HEAD
	<node lat="59.36986389224577" lon="5.708083334701514" id="-3251">
		<tag k="alt_name" v="Lindelitjørn" />
		<tag k="name" v="Lindelistemmen" />
=======
	<node id="-38773" lat="59.3767265745" lon="5.55530846044">
		<tag k="name" v="Storavatnet" />
>>>>>>> e1d4bc35ff8a6074a6f2e91616a996b547c36f15
		<tag k="natural" v="water" />
		<tag k="ssr:stedsnr" v="2103" />
	</node>
<<<<<<< HEAD
	<node lat="59.36385000190597" lon="5.5143138911557" id="-3252">
		<tag k="alt_name" v="Skrubbursdtjørna" />
		<tag k="name" v="Skrubburdtjørna" />
		<tag k="natural" v="water" />
		<tag k="ssr:stedsnr" v="2104" />
	</node>
	<node lat="59.472594443464644" lon="5.396266668845403" id="-3269">
		<tag k="name" v="Pineneset" />
=======
	<node id="-39230" lat="59.3856638859" lon="5.84000278428">
		<tag k="name" v="Grunnvatnet" />
		<tag k="natural" v="water" />
		<tag k="ssr:stedsnr" v="842693" />
	</node>
	<node id="-38758" lat="59.3125361087" lon="5.52029722943">
		<tag k="alt_name" v="Kolneset" />
		<tag k="name" v="Kalnes" />
>>>>>>> e1d4bc35ff8a6074a6f2e91616a996b547c36f15
		<tag k="natural" v="cape" />
		<tag k="ssr:stedsnr" v="26320" />
	</node>
<<<<<<< HEAD
	<node lat="59.349711115570784" lon="5.399541664958579" id="-3276">
		<tag k="name" v="Litlesåttjørna" />
=======
	<node id="-38757" lat="59.3506472669" lon="5.50890408332">
		<tag k="alt_name" v="Løningsvatnet" />
		<tag k="name" v="Løyningsvatnet" />
>>>>>>> e1d4bc35ff8a6074a6f2e91616a996b547c36f15
		<tag k="natural" v="water" />
		<tag k="ssr:stedsnr" v="27016" />
	</node>
<<<<<<< HEAD
	<node lat="59.371983329637864" lon="5.406397221285597" id="-3278">
		<tag k="name" v="Vågaholmen" />
		<tag k="place" v="islet" />
		<tag k="ssr:stedsnr" v="27030" />
	</node>
	<node lat="59.37433055230359" lon="5.706444436224395" id="-3279">
		<tag k="name" v="Grøna Tjødnå" />
=======
	<node id="-38755" lat="59.3723666689" lon="5.72717777372">
		<tag k="alt_name" v="Bjødlandstemmen" />
		<tag k="name" v="Bjøllandstemmen" />
		<tag k="natural" v="water" />
		<tag k="ssr:stedsnr" v="427127" />
	</node>
	<node id="-38754" lat="59.3637888912" lon="5.48522777795">
		<tag k="name" v="Høyvikvatnet" />
>>>>>>> e1d4bc35ff8a6074a6f2e91616a996b547c36f15
		<tag k="natural" v="water" />
		<tag k="ssr:stedsnr" v="234573" />
	</node>
<<<<<<< HEAD
	<node lat="59.35193333329808" lon="5.587000001876755" id="-3289">
		<tag k="name" v="Rotatjørna" />
=======
	<node id="-38750" lat="59.3818948808" lon="5.52814277089">
		<tag k="alt_name" v="Baståstjørna, nordre;Nordra Baståstjørna" />
		<tag k="name" v="Nordre Baståstjørna" />
>>>>>>> e1d4bc35ff8a6074a6f2e91616a996b547c36f15
		<tag k="natural" v="water" />
		<tag k="ssr:stedsnr" v="235944" />
	</node>
<<<<<<< HEAD
	<node lat="59.37786666956094" lon="5.651586108272803" id="-3320">
		<tag k="name" v="Bortjørna" />
=======
	<node id="-38743" lat="59.4243626039" lon="5.81499169852">
		<tag k="alt_name" v="Dokkskarvatnet" />
		<tag k="name" v="Dokkskardvatnet" />
>>>>>>> e1d4bc35ff8a6074a6f2e91616a996b547c36f15
		<tag k="natural" v="water" />
		<tag k="ssr:stedsnr" v="53079" />
	</node>
<<<<<<< HEAD
	<node lat="59.36035000176131" lon="5.5121749949242265" id="-3323">
		<tag k="name" v="Hedletjørna" />
=======
	<node id="-38740" lat="59.3742194491" lon="5.42048056366">
		<tag k="name" v="Katteidtjørna" />
>>>>>>> e1d4bc35ff8a6074a6f2e91616a996b547c36f15
		<tag k="natural" v="water" />
		<tag k="ssr:stedsnr" v="53216" />
	</node>
<<<<<<< HEAD
	<node lat="59.37841666291973" lon="5.555061110925468" id="-3324">
		<tag k="name" v="Indra Fotatåna" />
		<tag k="natural" v="cape" />
		<tag k="ssr:stedsnr" v="53174" />
	</node>
	<node lat="59.39010277513449" lon="5.585219439993585" id="-3326">
		<tag k="name" v="Vaudl" />
=======
	<node id="-38725" lat="59.4027722248" lon="5.58470278527">
		<tag k="name" v="Pøylå" />
>>>>>>> e1d4bc35ff8a6074a6f2e91616a996b547c36f15
		<tag k="natural" v="water" />
		<tag k="ssr:stedsnr" v="53475" />
	</node>
<<<<<<< HEAD
	<node lat="59.39907777934776" lon="5.563483329319832" id="-3328">
		<tag k="name" v="Dyråneset" />
		<tag k="natural" v="cape" />
		<tag k="ssr:stedsnr" v="53478" />
	</node>
	<node lat="59.38728889088564" lon="5.541508327905989" id="-3330">
		<tag k="name" v="Vasshovdet" />
		<tag k="natural" v="cape" />
		<tag k="ssr:stedsnr" v="53601" />
	</node>
	<node lat="59.43364882759964" lon="5.698729602535965" id="-3331">
		<tag k="name" v="Trolltjørna" />
=======
	<node id="-38723" lat="59.3840277786" lon="5.66121389047">
		<tag k="name" v="Paradisholmen" />
		<tag k="place" v="islet" />
		<tag k="ssr:stedsnr" v="417812" />
	</node>
	<node id="-38716" lat="59.3943722213" lon="5.58004999523">
		<tag k="name" v="Sandvika" />
		<tag k="natural" v="bay" />
		<tag k="ssr:stedsnr" v="417499" />
	</node>
	<node id="-38713" lat="59.3828083338" lon="5.79995000517">
		<tag k="name" v="Stølestemmen" />
>>>>>>> e1d4bc35ff8a6074a6f2e91616a996b547c36f15
		<tag k="natural" v="water" />
		<tag k="ssr:stedsnr" v="53607" />
	</node>
<<<<<<< HEAD
	<node lat="59.408555553923485" lon="5.534119438038392" id="-3333">
		<tag k="name" v="Nesaholmen" />
		<tag k="place" v="islet" />
		<tag k="ssr:stedsnr" v="53775" />
	</node>
	<node lat="59.326855560233845" lon="5.532480562851473" id="-3335">
		<tag k="name" v="Longanessundet" />
		<tag k="natural" v="strait" />
		<tag k="ssr:stedsnr" v="53672" />
	</node>
	<node lat="59.421739354975" lon="5.4377300874048835" id="-3348">
		<tag k="alt_name" v="Bogsatjørna" />
		<tag k="name" v="Bongsatjørna" />
=======
	<node id="-38708" lat="59.3588694461" lon="5.5578194442">
		<tag k="name" v="Skjenbekken" />
		<tag k="ssr:stedsnr" v="417175" />
		<tag k="waterway" v="stream" />
	</node>
	<node id="-38672" lat="59.4694666669" lon="5.43638611285">
		<tag k="name" v="Badnatjørna" />
>>>>>>> e1d4bc35ff8a6074a6f2e91616a996b547c36f15
		<tag k="natural" v="water" />
		<tag k="ssr:stedsnr" v="62605" />
	</node>
<<<<<<< HEAD
	<node lat="59.458900000166274" lon="5.378711115117804" id="-3365">
		<tag k="name" v="Stakkastadvatnet" />
=======
	<node id="-38669" lat="59.4039364542" lon="5.4003163969">
		<tag k="name" v="Storetjørna" />
>>>>>>> e1d4bc35ff8a6074a6f2e91616a996b547c36f15
		<tag k="natural" v="water" />
		<tag k="ssr:stedsnr" v="63670" />
		<tag k="water" v="lake" />
	</node>
<<<<<<< HEAD
	<node lat="59.45306338253661" lon="5.588442635242531" id="-3369">
		<tag k="alt_name" v="Voråvatnet" />
		<tag k="name" v="Våråvatnet" />
=======
	<node id="-38660" lat="59.3872910147" lon="5.56413036071">
		<tag k="name" v="Storavatnet" />
>>>>>>> e1d4bc35ff8a6074a6f2e91616a996b547c36f15
		<tag k="natural" v="water" />
		<tag k="ssr:stedsnr" v="63783" />
		<tag k="water" v="lake" />
	</node>
<<<<<<< HEAD
	<node lat="59.392291662270985" lon="5.65328332801314" id="-3370">
		<tag k="name" v="Nordre Vassenden" />
		<tag k="natural" v="bay" />
		<tag k="ssr:stedsnr" v="66308" />
	</node>
	<node lat="59.390050000113156" lon="5.445736113630231" id="-3373">
		<tag k="alt_name" v="Ronviktjørna" />
		<tag k="name" v="Ronnviktjørna" />
=======
	<node id="-38654" lat="59.4862770659" lon="5.46957893773">
		<tag k="name" v="Glettetjørna" />
		<tag k="natural" v="water" />
		<tag k="ssr:stedsnr" v="366843" />
	</node>
	<node id="-38651" lat="59.4513086454" lon="5.65376572351">
		<tag k="name" v="Grasdalsvatnet" />
>>>>>>> e1d4bc35ff8a6074a6f2e91616a996b547c36f15
		<tag k="natural" v="water" />
		<tag k="ssr:stedsnr" v="244621" />
	</node>
<<<<<<< HEAD
	<node lat="59.409847221204615" lon="5.4336749959331545" id="-3375">
		<tag k="alt_name" v="Eikjeskogneset" />
		<tag k="name" v="Neset" />
=======
	<node id="-38648" lat="59.4615888862" lon="5.38245555277">
		<tag k="name" v="Dyrneset" />
>>>>>>> e1d4bc35ff8a6074a6f2e91616a996b547c36f15
		<tag k="natural" v="cape" />
		<tag k="ssr:stedsnr" v="244654" />
	</node>
<<<<<<< HEAD
	<node lat="59.41394999755371" lon="5.791825004228138" id="-3381">
		<tag k="name" v="Elfarvikelva" />
		<tag k="ssr:stedsnr" v="245041" />
		<tag k="waterway" v="stream" />
	</node>
	<node lat="59.347889243767504" lon="5.600460485027702" id="-3388">
		<tag k="alt_name" v="Narraviksvatnet" />
		<tag k="name" v="Narravikvatnet" />
=======
	<node id="-38641" lat="59.2836555531" lon="5.49300833266">
		<tag k="name" v="Sandvikvatnet" />
>>>>>>> e1d4bc35ff8a6074a6f2e91616a996b547c36f15
		<tag k="natural" v="water" />
		<tag k="ssr:stedsnr" v="245138" />
		<tag k="water" v="lake" />
	</node>
<<<<<<< HEAD
	<node lat="59.490283333006786" lon="5.4531444460035186" id="-3412">
		<tag k="name" v="Skjenåsvatnet" />
=======
	<node id="-38636" lat="59.3019249985" lon="5.54019721621">
		<tag k="name" v="Litlavatnet" />
>>>>>>> e1d4bc35ff8a6074a6f2e91616a996b547c36f15
		<tag k="natural" v="water" />
		<tag k="ssr:stedsnr" v="245672" />
	</node>
<<<<<<< HEAD
	<node lat="59.39418888872888" lon="5.4447305497830785" id="-3413">
		<tag k="name" v="Iglatjørna" />
=======
	<node id="-38631" lat="59.3469277735" lon="5.47718611722">
		<tag k="name" v="Gjerdesvatnet" />
>>>>>>> e1d4bc35ff8a6074a6f2e91616a996b547c36f15
		<tag k="natural" v="water" />
		<tag k="ssr:stedsnr" v="87717" />
	</node>
<<<<<<< HEAD
	<node lat="59.36979722369147" lon="5.658580563727803" id="-3424">
		<tag k="name" v="Bergatjørna" />
=======
	<node id="-38628" lat="59.3555009428" lon="5.5900928346">
		<tag k="alt_name" v="Kodnetjørna" />
		<tag k="name" v="Konetjørna" />
>>>>>>> e1d4bc35ff8a6074a6f2e91616a996b547c36f15
		<tag k="natural" v="water" />
		<tag k="ssr:stedsnr" v="113568" />
	</node>
<<<<<<< HEAD
	<node lat="59.383644447737744" lon="5.764691672922971" id="-3425">
		<tag k="name" v="Grautåna" />
		<tag k="ssr:stedsnr" v="114005" />
		<tag k="waterway" v="stream" />
	</node>
	<node lat="59.402994446904714" lon="5.539977771660865" id="-3433">
		<tag k="name" v="Forehovdet" />
		<tag k="natural" v="cape" />
		<tag k="ssr:stedsnr" v="114767" />
	</node>
	<node lat="59.38786388634579" lon="5.69277499909518" id="-3441">
		<tag k="name" v="Seltjørna" />
=======
	<node id="-38626" lat="59.3791437935" lon="5.5767594257">
		<tag k="alt_name" v="Gåsvatnet" />
		<tag k="name" v="Gåsavatnet" />
>>>>>>> e1d4bc35ff8a6074a6f2e91616a996b547c36f15
		<tag k="natural" v="water" />
		<tag k="ssr:stedsnr" v="123081" />
	</node>
<<<<<<< HEAD
	<node lat="59.325938660401704" lon="5.57343147489058" id="-3451">
		<tag k="alt_name" v="Håvåstjørna" />
		<tag k="name" v="Hovåstjørna" />
=======
	<node id="-38624" lat="59.3765361154" lon="5.60224444727">
		<tag k="name" v="Husavatnet" />
>>>>>>> e1d4bc35ff8a6074a6f2e91616a996b547c36f15
		<tag k="natural" v="water" />
		<tag k="ssr:stedsnr" v="123172" />
	</node>
<<<<<<< HEAD
	<node lat="59.471430551652254" lon="5.396977780762547" id="-3467">
		<tag k="name" v="Markavika" />
		<tag k="natural" v="bay" />
		<tag k="ssr:stedsnr" v="147322" />
	</node>
	<node lat="59.38975277794594" lon="5.820877770358626" id="-3498">
		<tag k="name" v="Kvassteinbekken" />
		<tag k="ssr:stedsnr" v="174509" />
		<tag k="waterway" v="stream" />
	</node>
	<node lat="59.32787222321894" lon="5.527486111306205" id="-3504">
		<tag k="name" v="Sauatongjen" />
		<tag k="natural" v="cape" />
		<tag k="ssr:stedsnr" v="174676" />
	</node>
	<node lat="59.40411110923028" lon="5.6407638945608225" id="-3505">
		<tag k="name" v="Lindongtjørna" />
=======
	<node id="-38623" lat="59.3631638903" lon="5.5908805488">
		<tag k="alt_name" v="Kallakotvatnet" />
		<tag k="name" v="Kaldakotvatnet" />
>>>>>>> e1d4bc35ff8a6074a6f2e91616a996b547c36f15
		<tag k="natural" v="water" />
		<tag k="ssr:stedsnr" v="174764" />
	</node>
<<<<<<< HEAD
	<node lat="59.29809972135211" lon="5.479454810814399" id="-3542">
		<tag k="name" v="Eikjetjørna" />
=======
	<node id="-38620" lat="59.3962111099" lon="5.65785833566">
		<tag k="name" v="Oksatjørna" />
>>>>>>> e1d4bc35ff8a6074a6f2e91616a996b547c36f15
		<tag k="natural" v="water" />
		<tag k="ssr:stedsnr" v="184197" />
	</node>
<<<<<<< HEAD
	<node lat="59.37225555125748" lon="5.407627774663855" id="-3563">
		<tag k="name" v="Rasmusneset" />
		<tag k="natural" v="cape" />
		<tag k="ssr:stedsnr" v="269036" />
	</node>
	<node lat="59.35626110782508" lon="5.429630555865961" id="-3571">
		<tag k="name" v="Rundahola" />
=======
	<node id="-38615" lat="59.4336230538" lon="5.67870368924">
		<tag k="alt_name" v="Rossavatnet" />
		<tag k="name" v="Rossvatnet" />
>>>>>>> e1d4bc35ff8a6074a6f2e91616a996b547c36f15
		<tag k="natural" v="water" />
		<tag k="ssr:stedsnr" v="269016" />
	</node>
<<<<<<< HEAD
	<node lat="59.37891389292121" lon="5.416730553993433" id="-3572">
		<tag k="name" v="Såttjørn" />
=======
	<node id="-38611" lat="59.4450583334" lon="5.44272087991">
		<tag k="name" v="Løkjen" />
>>>>>>> e1d4bc35ff8a6074a6f2e91616a996b547c36f15
		<tag k="natural" v="water" />
		<tag k="ssr:stedsnr" v="209002" />
	</node>
<<<<<<< HEAD
	<node lat="59.351094082893525" lon="5.436852448053033" id="-3579">
		<tag k="name" v="Iglatjørna" />
=======
	<node id="-38610" lat="59.4094944418" lon="5.42130278543">
		<tag k="name" v="Aksdalsvatnet" />
>>>>>>> e1d4bc35ff8a6074a6f2e91616a996b547c36f15
		<tag k="natural" v="water" />
		<tag k="ssr:stedsnr" v="269720" />
	</node>
	<node lat="59.33131666767076" lon="5.694008337165144" id="-3594">
		<tag k="name" v="Ringstveitvatnet" />
		<tag k="natural" v="water" />
		<tag k="ssr:stedsnr" v="234504" />
		<tag k="water" v="lake" />
	</node>
<<<<<<< HEAD
	<node lat="59.391488890830644" lon="5.822016666950902" id="-3607">
		<tag k="name" v="Pipentjørna" />
=======
	<node id="-38609" lat="59.4216972231" lon="5.39202778194">
		<tag k="name" v="Førrestjørna" />
>>>>>>> e1d4bc35ff8a6074a6f2e91616a996b547c36f15
		<tag k="natural" v="water" />
		<tag k="ssr:stedsnr" v="235500" />
	</node>
<<<<<<< HEAD
	<node lat="59.43395278135442" lon="5.626599998415222" id="-3623">
		<tag k="name" v="Dalselva" />
		<tag k="ssr:stedsnr" v="236906" />
		<tag k="waterway" v="river" />
	</node>
	<node lat="59.37298611409918" lon="5.410733332096689" id="-3641">
		<tag k="name" v="Vågavatnet" />
=======
	<node id="-38606" lat="59.3774073152" lon="5.41961805674">
		<tag k="alt_name" v="Longavatnet" />
		<tag k="name" v="Langavatnet" />
>>>>>>> e1d4bc35ff8a6074a6f2e91616a996b547c36f15
		<tag k="natural" v="water" />
		<tag k="ssr:stedsnr" v="244580" />
		<tag k="water" v="lake" />
	</node>
<<<<<<< HEAD
	<node lat="59.430766520945014" lon="5.693541994803954" id="-3645">
		<tag k="alt_name" v="Rongalivatnet" />
		<tag k="name" v="Rognvalivatnet" />
=======
	<node id="-38595" lat="59.3562768632" lon="5.5617235417">
		<tag k="name" v="Løypetjørna" />
>>>>>>> e1d4bc35ff8a6074a6f2e91616a996b547c36f15
		<tag k="natural" v="water" />
		<tag k="ssr:stedsnr" v="245011" />
	</node>
<<<<<<< HEAD
	<node lat="59.38255278188972" lon="5.504705555181469" id="-3648">
		<tag k="name" v="Leitetjørna" />
=======
	<node id="-38594" lat="59.3434065401" lon="5.57968896338">
		<tag k="name" v="Småtjørnene" />
>>>>>>> e1d4bc35ff8a6074a6f2e91616a996b547c36f15
		<tag k="natural" v="water" />
		<tag k="ssr:stedsnr" v="245079" />
	</node>
	<node lat="59.38558889151906" lon="5.515125000577894" id="-3649">
		<tag k="name" v="Holmavatnet" />
		<tag k="natural" v="water" />
		<tag k="ssr:stedsnr" v="245083" />
		<tag k="water" v="lake" />
	</node>
<<<<<<< HEAD
	<node lat="59.38297777577213" lon="5.78414166117024" id="-3653">
		<tag k="name" v="Amdalselva" />
		<tag k="ssr:stedsnr" v="245114" />
		<tag k="waterway" v="stream" />
	</node>
	<node lat="59.41702222087544" lon="5.450277777413365" id="-3669">
		<tag k="name" v="Aksdalselva" />
		<tag k="ssr:stedsnr" v="269726" />
		<tag k="waterway" v="river" />
	</node>
	<node lat="59.444533645218485" lon="5.5567333506659455" id="-3670">
		<tag k="name" v="Steinbruvatnet" />
		<tag k="natural" v="water" />
		<tag k="ssr:stedsnr" v="460447" />
		<tag k="water" v="lake" />
	</node>
	<node lat="59.46201944871946" lon="5.567950007201864" id="-3671">
		<tag k="name" v="Neseimstjørna" />
		<tag k="natural" v="water" />
		<tag k="ssr:stedsnr" v="460451" />
	</node>
	<node lat="59.39119444250613" lon="5.57231666941862" id="-3688">
		<tag k="name" v="Svartevågen" />
		<tag k="natural" v="bay" />
		<tag k="ssr:stedsnr" v="296426" />
	</node>
	<node lat="59.412916670217726" lon="5.556277778616855" id="-3691">
		<tag k="name" v="Gamlestemmen" />
=======
	<node id="-38580" lat="59.3271583328" lon="5.53098888067">
		<tag k="name" v="Longaneset" />
		<tag k="natural" v="cape" />
		<tag k="ssr:stedsnr" v="356651" />
	</node>
	<node id="-38579" lat="59.3276472178" lon="5.53829166184">
		<tag k="name" v="Åkerneset" />
		<tag k="natural" v="cape" />
		<tag k="ssr:stedsnr" v="356650" />
	</node>
	<node id="-38576" lat="59.3324166709" lon="5.60331110937">
		<tag k="name" v="Skarpaneset" />
		<tag k="natural" v="cape" />
		<tag k="ssr:stedsnr" v="356603" />
	</node>
	<node id="-38539" lat="59.3930388907" lon="5.77563888544">
		<tag k="name" v="Kuneset" />
		<tag k="natural" v="cape" />
		<tag k="ssr:stedsnr" v="356084" />
	</node>
	<node id="-38531" lat="59.4474111106" lon="5.58939444095">
		<tag k="name" v="Hanaskjerbekken" />
		<tag k="ssr:stedsnr" v="339396" />
		<tag k="waterway" v="stream" />
	</node>
	<node id="-38525" lat="59.3684180354" lon="5.41529698627">
		<tag k="name" v="Bårstjørna" />
>>>>>>> e1d4bc35ff8a6074a6f2e91616a996b547c36f15
		<tag k="natural" v="water" />
		<tag k="ssr:stedsnr" v="296724" />
	</node>
<<<<<<< HEAD
	<node lat="59.33867500081982" lon="5.714852774287468" id="-3693">
		<tag k="name" v="Silgjerdsvatnet" />
		<tag k="natural" v="water" />
		<tag k="ssr:stedsnr" v="305165" />
	</node>
	<node lat="59.328594085050604" lon="5.550076820115313" id="-3695">
		<tag k="name" v="Rabbavatnet" />
		<tag k="natural" v="water" />
		<tag k="ssr:stedsnr" v="305168" />
		<tag k="water" v="lake" />
	</node>
	<node lat="59.31861666921178" lon="5.523449996396759" id="-3702">
		<tag k="name" v="Åsen" />
		<tag k="natural" v="cape" />
		<tag k="ssr:stedsnr" v="306208" />
	</node>
	<node lat="59.46110555443764" lon="5.41623611592415" id="-3704">
		<tag k="name" v="Markavatnet" />
		<tag k="natural" v="water" />
		<tag k="ssr:stedsnr" v="306617" />
		<tag k="water" v="lake" />
	</node>
	<node lat="59.31097500344514" lon="5.437894439494607" id="-3708">
=======
	<node id="-38521" lat="59.3366999964" lon="5.41883055225">
		<tag k="name" v="Vassbotnen" />
		<tag k="natural" v="bay" />
		<tag k="ssr:stedsnr" v="330032" />
	</node>
	<node id="-38506" lat="59.3109750034" lon="5.43789443949">
>>>>>>> e1d4bc35ff8a6074a6f2e91616a996b547c36f15
		<tag k="alt_name" v="Vadvatnet, s;Vadvatnet;søra Vavatnet" />
		<tag k="name" v="Søre Vadvatnet" />
		<tag k="natural" v="water" />
		<tag k="ssr:stedsnr" v="306960" />
		<tag k="water" v="lake" />
	</node>
<<<<<<< HEAD
	<node lat="59.468072220012516" lon="5.39244999464582" id="-3714">
		<tag k="name" v="Raugavika" />
=======
	<node id="-38500" lat="59.4813083294" lon="5.40811110809">
		<tag k="name" v="Sandbotnen" />
>>>>>>> e1d4bc35ff8a6074a6f2e91616a996b547c36f15
		<tag k="natural" v="bay" />
		<tag k="ssr:stedsnr" v="329305" />
	</node>
<<<<<<< HEAD
	<node lat="59.44170555429215" lon="5.448744446251961" id="-3720">
		<tag k="name" v="Småtjørna" />
=======
	<node id="-38498" lat="59.4611055544" lon="5.41623611592">
		<tag k="name" v="Markavatnet" />
>>>>>>> e1d4bc35ff8a6074a6f2e91616a996b547c36f15
		<tag k="natural" v="water" />
		<tag k="ssr:stedsnr" v="329704" />
	</node>
<<<<<<< HEAD
	<node lat="59.36841803539009" lon="5.415296986269615" id="-3725">
		<tag k="name" v="Bårstjørna" />
		<tag k="natural" v="water" />
		<tag k="ssr:stedsnr" v="330072" />
	</node>
	<node lat="59.447411110590046" lon="5.589394440949144" id="-3727">
		<tag k="name" v="Hanaskjerbekken" />
		<tag k="ssr:stedsnr" v="339396" />
		<tag k="waterway" v="stream" />
	</node>
	<node lat="59.327647217800816" lon="5.538291661844912" id="-3745">
		<tag k="name" v="Åkerneset" />
		<tag k="natural" v="cape" />
		<tag k="ssr:stedsnr" v="356650" />
	</node>
	<node lat="59.32715833281176" lon="5.530988880671883" id="-3746">
		<tag k="name" v="Longaneset" />
		<tag k="natural" v="cape" />
		<tag k="ssr:stedsnr" v="356651" />
	</node>
	<node lat="59.3756396415088" lon="5.742657584308653" id="-3766">
		<tag k="name" v="Seldalskrokavatnet" />
=======
	<node id="-38493" lat="59.3186166692" lon="5.5234499964">
		<tag k="name" v="Åsen" />
		<tag k="natural" v="cape" />
		<tag k="ssr:stedsnr" v="306208" />
	</node>
	<node id="-38486" lat="59.4045499973" lon="5.73433056322">
		<tag k="name" v="Sagelva" />
		<tag k="ssr:stedsnr" v="306091" />
		<tag k="waterway" v="stream" />
	</node>
	<node id="-38485" lat="59.3991138926" lon="5.57129999198">
		<tag k="name" v="Svinaliholmen" />
		<tag k="place" v="islet" />
		<tag k="ssr:stedsnr" v="306086" />
	</node>
	<node id="-38484" lat="59.4084777773" lon="5.50319721916">
		<tag k="name" v="Amdalsvatnet" />
>>>>>>> e1d4bc35ff8a6074a6f2e91616a996b547c36f15
		<tag k="natural" v="water" />
		<tag k="ssr:stedsnr" v="477510" />
		<tag k="water" v="lake" />
	</node>
<<<<<<< HEAD
	<node lat="59.36403333498037" lon="5.558702775409633" id="-3769">
		<tag k="name" v="Buktå" />
		<tag k="natural" v="bay" />
		<tag k="ssr:stedsnr" v="478154" />
	</node>
	<node lat="59.377407315198155" lon="5.419618056740623" id="-3779">
		<tag k="alt_name" v="Longavatnet" />
		<tag k="name" v="Langavatnet" />
=======
	<node id="-38479" lat="59.3558777806" lon="5.40142221589">
		<tag k="name" v="Lindevatnet" />
>>>>>>> e1d4bc35ff8a6074a6f2e91616a996b547c36f15
		<tag k="natural" v="water" />
		<tag k="ssr:stedsnr" v="365544" />
		<tag k="water" v="lake" />
	</node>
<<<<<<< HEAD
	<node lat="59.44505833339086" lon="5.4427208799139475" id="-3781">
		<tag k="name" v="Løkjen" />
=======
	<node id="-38471" lat="59.3285940851" lon="5.55007682012">
		<tag k="name" v="Rabbavatnet" />
>>>>>>> e1d4bc35ff8a6074a6f2e91616a996b547c36f15
		<tag k="natural" v="water" />
		<tag k="ssr:stedsnr" v="365652" />
	</node>
<<<<<<< HEAD
	<node lat="59.39208333146051" lon="5.54401667028878" id="-3785">
		<tag k="name" v="Longenesvika" />
		<tag k="natural" v="bay" />
		<tag k="ssr:stedsnr" v="478583" />
	</node>
	<node lat="59.30192499847342" lon="5.540197216213653" id="-3792">
		<tag k="name" v="Litlavatnet" />
=======
	<node id="-38469" lat="59.3386750008" lon="5.71485277429">
		<tag k="name" v="Silgjerdsvatnet" />
>>>>>>> e1d4bc35ff8a6074a6f2e91616a996b547c36f15
		<tag k="natural" v="water" />
		<tag k="ssr:stedsnr" v="366201" />
		<tag k="water" v="lake" />
	</node>
<<<<<<< HEAD
	<node lat="59.48627706589567" lon="5.469578937733043" id="-3798">
		<tag k="name" v="Glettetjørna" />
		<tag k="natural" v="water" />
		<tag k="ssr:stedsnr" v="366843" />
	</node>
	<node lat="59.387291014662026" lon="5.564130360707192" id="-3803">
		<tag k="name" v="Storavatnet" />
=======
	<node id="-38467" lat="59.3241999999" lon="5.52094167545">
		<tag k="alt_name" v="Hålandsøya" />
		<tag k="name" v="Hålandsøyna" />
		<tag k="place" v="island" />
		<tag k="ssr:stedsnr" v="305156" />
	</node>
	<node id="-38466" lat="59.347413893" lon="5.5740416588">
		<tag k="name" v="Mjåvatnet" />
>>>>>>> e1d4bc35ff8a6074a6f2e91616a996b547c36f15
		<tag k="natural" v="water" />
		<tag k="ssr:stedsnr" v="367611" />
		<tag k="water" v="lake" />
	</node>
<<<<<<< HEAD
	<node lat="59.411169441035454" lon="5.465816663490849" id="-3838">
		<tag k="name" v="Fuglavatnet" />
=======
	<node id="-38464" lat="59.3888674802" lon="5.61691936562">
		<tag k="name" v="Slogvikvatnet" />
>>>>>>> e1d4bc35ff8a6074a6f2e91616a996b547c36f15
		<tag k="natural" v="water" />
		<tag k="ssr:stedsnr" v="487663" />
		<tag k="water" v="lake" />
	</node>
<<<<<<< HEAD
	<node lat="59.3324861086783" lon="5.402416661257042" id="-3840">
		<tag k="alt_name" v="Longavatn" />
		<tag k="name" v="Langavatnet" />
=======
	<node id="-38461" lat="59.4202087883" lon="5.55111410862">
		<tag k="alt_name" v="Trodlatjørna" />
		<tag k="name" v="Trollatjørna" />
>>>>>>> e1d4bc35ff8a6074a6f2e91616a996b547c36f15
		<tag k="natural" v="water" />
		<tag k="ssr:stedsnr" v="487984" />
		<tag k="water" v="lake" />
	</node>
<<<<<<< HEAD
	<node lat="59.39296060088008" lon="5.572038806579683" id="-3841">
		<tag k="alt_name" v="Foråsøya" />
		<tag k="name" v="Foråsøyna" />
		<tag k="place" v="island" />
		<tag k="ssr:stedsnr" v="488078" />
	</node>
	<node lat="59.34870277533522" lon="5.553058338592831" id="-3845">
		<tag k="alt_name" v="Fleskaflåtjørna" />
		<tag k="name" v="Svartatjørna" />
=======
	<node id="-38454" lat="59.4479138857" lon="5.41563334027">
		<tag k="name" v="Litlestemmen" />
>>>>>>> e1d4bc35ff8a6074a6f2e91616a996b547c36f15
		<tag k="natural" v="water" />
		<tag k="ssr:stedsnr" v="488131" />
	</node>
<<<<<<< HEAD
	<node lat="59.3943722212622" lon="5.580049995227121" id="-3861">
		<tag k="name" v="Sandvika" />
		<tag k="natural" v="bay" />
		<tag k="ssr:stedsnr" v="417499" />
	</node>
	<node lat="59.40277222484193" lon="5.584702785269516" id="-3864">
		<tag k="name" v="Pøylå" />
=======
	<node id="-38418" lat="59.4792055537" lon="5.39665833816">
		<tag k="name" v="Forneset" />
		<tag k="natural" v="cape" />
		<tag k="ssr:stedsnr" v="184712" />
	</node>
	<node id="-38410" lat="59.276972219" lon="5.64071666339">
		<tag k="alt_name" v="Bakkevikvatnet" />
		<tag k="name" v="Bakkavikvatnet" />
>>>>>>> e1d4bc35ff8a6074a6f2e91616a996b547c36f15
		<tag k="natural" v="water" />
		<tag k="ssr:stedsnr" v="417845" />
	</node>
<<<<<<< HEAD
	<node lat="59.4955750027448" lon="5.442700006398518" id="-3871">
		<tag k="name" v="Rotatjørna" />
=======
	<node id="-38399" lat="59.2980997214" lon="5.47945481081">
		<tag k="name" v="Eikjetjørna" />
>>>>>>> e1d4bc35ff8a6074a6f2e91616a996b547c36f15
		<tag k="natural" v="water" />
		<tag k="ssr:stedsnr" v="488667" />
	</node>
<<<<<<< HEAD
	<node lat="59.49425000081056" lon="5.43148334168867" id="-3872">
		<tag k="name" v="Husavatnet" />
=======
	<node id="-38396" lat="59.3212181272" lon="5.49580737274">
		<tag k="name" v="Ospeskardtjørna" />
>>>>>>> e1d4bc35ff8a6074a6f2e91616a996b547c36f15
		<tag k="natural" v="water" />
		<tag k="ssr:stedsnr" v="488668" />
		<tag k="water" v="lake" />
	</node>
<<<<<<< HEAD
	<node lat="59.32115833278126" lon="5.419297214902537" id="-3875">
		<tag k="name" v="Storavatnet" />
=======
	<node id="-38374" lat="59.4410500025" lon="5.59426944377">
		<tag k="name" v="Erlandstjørna" />
>>>>>>> e1d4bc35ff8a6074a6f2e91616a996b547c36f15
		<tag k="natural" v="water" />
		<tag k="ssr:stedsnr" v="488970" />
		<tag k="water" v="lake" />
	</node>
<<<<<<< HEAD
	<node lat="59.38189488080681" lon="5.528142770891411" id="-3885">
		<tag k="alt_name" v="Baståstjørna, nordre;Nordra Baståstjørna" />
		<tag k="name" v="Nordre Baståstjørna" />
=======
	<node id="-38348" lat="59.4041111092" lon="5.64076389456">
		<tag k="name" v="Lindongtjørna" />
>>>>>>> e1d4bc35ff8a6074a6f2e91616a996b547c36f15
		<tag k="natural" v="water" />
		<tag k="ssr:stedsnr" v="427086" />
	</node>
<<<<<<< HEAD
	<node lat="59.31253610869036" lon="5.520297229434618" id="-3887">
		<tag k="alt_name" v="Kolneset" />
		<tag k="name" v="Kalnes" />
=======
	<node id="-38347" lat="59.3278722232" lon="5.52748611131">
		<tag k="name" v="Sauatongjen" />
>>>>>>> e1d4bc35ff8a6074a6f2e91616a996b547c36f15
		<tag k="natural" v="cape" />
		<tag k="ssr:stedsnr" v="427232" />
	</node>
<<<<<<< HEAD
	<node lat="59.43225000381689" lon="5.536080554570921" id="-3895">
		<tag k="name" v="Fiskåbekken" />
		<tag k="ssr:stedsnr" v="427723" />
		<tag k="waterway" v="stream" />
	</node>
	<node lat="59.40286389031428" lon="5.415916669886635" id="-3908">
		<tag k="name" v="Eikjeskogholmen" />
=======
	<node id="-38329" lat="59.3758249988" lon="5.55121944158">
		<tag k="name" v="Klakkholmane" />
>>>>>>> e1d4bc35ff8a6074a6f2e91616a996b547c36f15
		<tag k="place" v="islet" />
		<tag k="ssr:stedsnr" v="451003" />
	</node>
<<<<<<< HEAD
	<node lat="59.40213888493538" lon="5.406727785980485" id="-3909">
		<tag k="name" v="Skarpaneset" />
		<tag k="natural" v="cape" />
		<tag k="ssr:stedsnr" v="451005" />
	</node>
	<node lat="59.33947777767336" lon="5.437141658551147" id="-3915">
		<tag k="name" v="Molltjørna" />
=======
	<node id="-38321" lat="59.3837777747" lon="5.77373334148">
		<tag k="name" v="Skiftesvika" />
		<tag k="natural" v="bay" />
		<tag k="ssr:stedsnr" v="174091" />
	</node>
	<node id="-38303" lat="59.4366833366" lon="5.35163888649">
		<tag k="name" v="Lusatjørn" />
>>>>>>> e1d4bc35ff8a6074a6f2e91616a996b547c36f15
		<tag k="natural" v="water" />
		<tag k="ssr:stedsnr" v="451705" />
	</node>
<<<<<<< HEAD
	<node lat="59.37523055630404" lon="5.873219444761303" id="-3926">
		<tag k="name" v="Steinsneset" />
		<tag k="natural" v="cape" />
		<tag k="ssr:stedsnr" v="477107" />
	</node>
	<node lat="59.39275347186864" lon="5.610649163318225" id="-3953">
		<tag k="name" v="Løndalsvatnet" />
=======
	<node id="-38285" lat="59.3550138856" lon="5.52263333535">
		<tag k="alt_name" v="Heggelivatnet" />
		<tag k="name" v="Heggelitjørna" />
>>>>>>> e1d4bc35ff8a6074a6f2e91616a996b547c36f15
		<tag k="natural" v="water" />
		<tag k="ssr:stedsnr" v="487055" />
		<tag k="water" v="lake" />
	</node>
<<<<<<< HEAD
	<node lat="59.362858333592506" lon="5.41296110259745" id="-3960">
		<tag k="alt_name" v="nordra Tveitatjørna" />
		<tag k="name" v="Tveitatjørna" />
=======
	<node id="-38284" lat="59.3526666642" lon="5.57625834106">
		<tag k="name" v="Rossatjørna" />
>>>>>>> e1d4bc35ff8a6074a6f2e91616a996b547c36f15
		<tag k="natural" v="water" />
		<tag k="ssr:stedsnr" v="487608" />
	</node>
<<<<<<< HEAD
	<node lat="59.291441667147524" lon="5.529033335567883" id="-3968">
		<tag k="name" v="Årvikelva" />
		<tag k="ssr:stedsnr" v="488199" />
		<tag k="waterway" v="stream" />
	</node>
	<node lat="59.31601389316219" lon="5.442644437598366" id="-3969">
		<tag k="alt_name" v="Vadvatnet, nordre;Vadvatnet;nordra Vavatnet" />
		<tag k="name" v="Nordre Vadvatnet" />
=======
	<node id="-38280" lat="59.3970460375" lon="5.55234161642">
		<tag k="name" v="Dyråstjørna" />
>>>>>>> e1d4bc35ff8a6074a6f2e91616a996b547c36f15
		<tag k="natural" v="water" />
		<tag k="ssr:stedsnr" v="488956" />
		<tag k="water" v="lake" />
	</node>
<<<<<<< HEAD
	<node lat="59.440500003815416" lon="5.441886103476285" id="-3979">
		<tag k="name" v="Kvednahusbekken" />
		<tag k="ssr:stedsnr" v="511710" />
		<tag k="waterway" v="stream" />
	</node>
	<node lat="59.37403333328907" lon="5.557083325999918" id="-4021">
		<tag k="alt_name" v="Løningsholmen" />
		<tag k="name" v="Løyningsholmen" />
		<tag k="place" v="islet" />
		<tag k="ssr:stedsnr" v="548105" />
	</node>
	<node lat="59.38003333379345" lon="5.7380166709188405" id="-4022">
		<tag k="alt_name" v="Gåsevatnet;Gåsvatnet" />
		<tag k="name" v="Gåsavatnet" />
=======
	<node id="-38270" lat="59.3529916677" lon="5.39922221566">
		<tag k="alt_name" v="Molltjørna" />
		<tag k="name" v="Moldtjørna" />
>>>>>>> e1d4bc35ff8a6074a6f2e91616a996b547c36f15
		<tag k="natural" v="water" />
		<tag k="ssr:stedsnr" v="548108" />
	</node>
<<<<<<< HEAD
	<node lat="59.34568055871275" lon="5.588841673318811" id="-4025">
		<tag k="alt_name" v="Holpytt" />
		<tag k="name" v="Holpytten" />
=======
	<node id="-38268" lat="59.3739999967" lon="5.87370000741">
		<tag k="name" v="Kvamsvatnet" />
>>>>>>> e1d4bc35ff8a6074a6f2e91616a996b547c36f15
		<tag k="natural" v="water" />
		<tag k="ssr:stedsnr" v="548125" />
	</node>
<<<<<<< HEAD
	<node lat="59.42474008865784" lon="5.552694696004933" id="-4026">
		<tag k="name" v="Neståtjørna" />
=======
	<node id="-38252" lat="59.3259386604" lon="5.57343147489">
		<tag k="alt_name" v="Håvåstjørna" />
		<tag k="name" v="Hovåstjørna" />
>>>>>>> e1d4bc35ff8a6074a6f2e91616a996b547c36f15
		<tag k="natural" v="water" />
		<tag k="ssr:stedsnr" v="548010" />
	</node>
<<<<<<< HEAD
	<node lat="59.41723419467883" lon="5.520815078789375" id="-4027">
		<tag k="alt_name" v="Søvikvatnet" />
		<tag k="name" v="Nøkkjatjørna" />
=======
	<node id="-38247" lat="59.3749118407" lon="5.48542081438">
		<tag k="alt_name" v="Klovningvatnet, s;Søre Klovningvatnet" />
		<tag k="name" v="Klovningvatnet" />
>>>>>>> e1d4bc35ff8a6074a6f2e91616a996b547c36f15
		<tag k="natural" v="water" />
		<tag k="ssr:stedsnr" v="548012" />
	</node>
<<<<<<< HEAD
	<node lat="59.395508331990946" lon="5.83343888222263" id="-4028">
		<tag k="alt_name" v="Longavatnet" />
		<tag k="name" v="Langvatnet" />
=======
	<node id="-38245" lat="59.3878638863" lon="5.6927749991">
		<tag k="name" v="Seltjørna" />
>>>>>>> e1d4bc35ff8a6074a6f2e91616a996b547c36f15
		<tag k="natural" v="water" />
		<tag k="ssr:stedsnr" v="548069" />
		<tag k="water" v="lake" />
	</node>
<<<<<<< HEAD
	<node lat="59.31370833375894" lon="5.534566663093434" id="-4032">
		<tag k="name" v="Knutstjørna" />
=======
	<node id="-38242" lat="59.4112833322" lon="5.4820361029">
		<tag k="alt_name" v="Heretjørna" />
		<tag k="name" v="Hæretjørna" />
>>>>>>> e1d4bc35ff8a6074a6f2e91616a996b547c36f15
		<tag k="natural" v="water" />
		<tag k="ssr:stedsnr" v="548213" />
	</node>
<<<<<<< HEAD
	<node lat="59.441519850284315" lon="5.582821056420954" id="-4038">
		<tag k="name" v="Erlandsvatnet" />
=======
	<node id="-38219" lat="59.4009416635" lon="5.66293332752">
		<tag k="name" v="Løkjen" />
>>>>>>> e1d4bc35ff8a6074a6f2e91616a996b547c36f15
		<tag k="natural" v="water" />
		<tag k="ssr:stedsnr" v="691760" />
		<tag k="water" v="lake" />
	</node>
<<<<<<< HEAD
	<node lat="59.34786388813403" lon="5.474949992898923" id="-4050">
		<tag k="name" v="Lammaneset" />
=======
	<node id="-38218" lat="59.3277861083" lon="5.51178888266">
		<tag k="name" v="Symjingane" />
		<tag k="natural" v="strait" />
		<tag k="ssr:stedsnr" v="114655" />
	</node>
	<node id="-38215" lat="59.4029944469" lon="5.53997777166">
		<tag k="name" v="Forehovdet" />
>>>>>>> e1d4bc35ff8a6074a6f2e91616a996b547c36f15
		<tag k="natural" v="cape" />
		<tag k="ssr:stedsnr" v="572705" />
	</node>
<<<<<<< HEAD
	<node lat="59.31165000093574" lon="5.41523054827966" id="-4062">
		<tag k="alt_name" v="Litlavatn" />
		<tag k="name" v="Litlavatnet" />
		<tag k="natural" v="water" />
		<tag k="ssr:stedsnr" v="694661" />
		<tag k="water" v="lake" />
	</node>
	<node lat="59.34523332953021" lon="5.478030555246419" id="-4065">
		<tag k="name" v="Vassnes" />
=======
	<node id="-38210" lat="59.3663611075" lon="5.55739167245">
		<tag k="name" v="Klubben" />
		<tag k="natural" v="cape" />
		<tag k="ssr:stedsnr" v="114153" />
	</node>
	<node id="-38209" lat="59.3780694443" lon="5.55148333209">
		<tag k="name" v="Ytra Fotatåna" />
>>>>>>> e1d4bc35ff8a6074a6f2e91616a996b547c36f15
		<tag k="natural" v="cape" />
		<tag k="ssr:stedsnr" v="694698" />
	</node>
<<<<<<< HEAD
	<node lat="59.37270000343212" lon="5.823175006617788" id="-4068">
		<tag k="alt_name" v="Badnavatnet, l" />
		<tag k="name" v="Litla Badnavatnet" />
=======
	<node id="-38206" lat="59.3697972237" lon="5.65858056373">
		<tag k="name" v="Bergatjørna" />
>>>>>>> e1d4bc35ff8a6074a6f2e91616a996b547c36f15
		<tag k="natural" v="water" />
		<tag k="ssr:stedsnr" v="586089" />
	</node>
<<<<<<< HEAD
	<node lat="59.36915555678668" lon="5.505538880852715" id="-4095">
		<tag k="name" v="Kalvatjørna" />
=======
	<node id="-38185" lat="59.3338333325" lon="5.44169722216">
		<tag k="name" v="Skumpatjørna" />
>>>>>>> e1d4bc35ff8a6074a6f2e91616a996b547c36f15
		<tag k="natural" v="water" />
		<tag k="ssr:stedsnr" v="608115" />
	</node>
<<<<<<< HEAD
	<node lat="59.37435742742627" lon="5.83429506027944" id="-4101">
		<tag k="name" v="Svartafjelltjørna" />
=======
	<node id="-39132" lat="59.4427666659" lon="5.64181666767">
		<tag k="name" v="Tverrelva" />
		<tag k="ssr:stedsnr" v="782886" />
		<tag k="waterway" v="stream" />
	</node>
	<node id="-38176" lat="59.3612885185" lon="5.41197119995">
		<tag k="name" v="Søra Tveitatjørna" />
>>>>>>> e1d4bc35ff8a6074a6f2e91616a996b547c36f15
		<tag k="natural" v="water" />
		<tag k="ssr:stedsnr" v="608095" />
	</node>
<<<<<<< HEAD
	<node lat="59.352586109389904" lon="5.421452773781791" id="-4103">
		<tag k="name" v="Ulvavatnet" />
=======
	<node id="-38161" lat="59.4530633825" lon="5.58844263524">
		<tag k="alt_name" v="Voråvatnet" />
		<tag k="name" v="Våråvatnet" />
>>>>>>> e1d4bc35ff8a6074a6f2e91616a996b547c36f15
		<tag k="natural" v="water" />
		<tag k="ssr:stedsnr" v="608543" />
	</node>
<<<<<<< HEAD
	<node lat="59.36030555942465" lon="5.402030546897477" id="-4104">
		<tag k="alt_name" v="Vodlavatnet" />
		<tag k="name" v="Vollavatnet" />
=======
	<node id="-38154" lat="59.3849500005" lon="5.85364999943">
		<tag k="name" v="Skoråstjørna" />
>>>>>>> e1d4bc35ff8a6074a6f2e91616a996b547c36f15
		<tag k="natural" v="water" />
		<tag k="ssr:stedsnr" v="608549" />
		<tag k="water" v="lake" />
	</node>
<<<<<<< HEAD
	<node lat="59.3926235226681" lon="5.598903057053899" id="-4110">
		<tag k="name" v="Holmavatnet" />
=======
	<node id="-38132" lat="59.3870242083" lon="5.65622928042">
		<tag k="alt_name" v="Yrkjesvatnet" />
		<tag k="name" v="Yrkesvatnet" />
>>>>>>> e1d4bc35ff8a6074a6f2e91616a996b547c36f15
		<tag k="natural" v="water" />
		<tag k="ssr:stedsnr" v="609084" />
		<tag k="water" v="lake" />
	</node>
<<<<<<< HEAD
	<node lat="59.395838888679954" lon="5.663625001768838" id="-4111">
		<tag k="alt_name" v="Gjerdestjørna" />
		<tag k="name" v="Gjerdetjørna" />
=======
	<node id="-38131" lat="59.384069153" lon="5.58983656346">
		<tag k="alt_name" v="Romskarsvatnet" />
		<tag k="name" v="Ramsskardvatnet" />
>>>>>>> e1d4bc35ff8a6074a6f2e91616a996b547c36f15
		<tag k="natural" v="water" />
		<tag k="ssr:stedsnr" v="609087" />
	</node>
<<<<<<< HEAD
	<node lat="59.40425833744928" lon="5.8278111091746245" id="-4112">
		<tag k="name" v="Vesterlivatnet" />
		<tag k="natural" v="water" />
		<tag k="ssr:stedsnr" v="609091" />
		<tag k="water" v="lake" />
	</node>
	<node lat="59.38430277499953" lon="5.868324995766594" id="-4117">
		<tag k="alt_name" v="Straumastølstjørna, yt" />
		<tag k="name" v="Ytra Straumastølstjørna" />
		<tag k="natural" v="water" />
		<tag k="ssr:stedsnr" v="609402" />
	</node>
	<node lat="59.38649722077193" lon="5.870930553347843" id="-4118">
		<tag k="alt_name" v="Straumastølstjørna, in" />
		<tag k="name" v="Indra Straumastølstjørna" />
=======
	<node id="-38129" lat="59.4157000017" lon="5.63546389223">
		<tag k="name" v="Haflebekken" />
		<tag k="ssr:stedsnr" v="63063" />
		<tag k="waterway" v="stream" />
	</node>
	<node id="-38120" lat="59.4455361152" lon="5.36949166192">
		<tag k="name" v="Kjosen" />
		<tag k="natural" v="bay" />
		<tag k="ssr:stedsnr" v="62652" />
	</node>
	<node id="-38117" lat="59.421739355" lon="5.4377300874">
		<tag k="alt_name" v="Bogsatjørna" />
		<tag k="name" v="Bongsatjørna" />
>>>>>>> e1d4bc35ff8a6074a6f2e91616a996b547c36f15
		<tag k="natural" v="water" />
		<tag k="ssr:stedsnr" v="609409" />
	</node>
<<<<<<< HEAD
	<node lat="59.43093737439499" lon="5.472936777015539" id="-4128">
		<tag k="name" v="Nordavatnet" />
=======
	<node id="-38112" lat="59.4589000002" lon="5.37871111512">
		<tag k="name" v="Stakkastadvatnet" />
>>>>>>> e1d4bc35ff8a6074a6f2e91616a996b547c36f15
		<tag k="natural" v="water" />
		<tag k="ssr:stedsnr" v="632691" />
		<tag k="water" v="lake" />
	</node>
<<<<<<< HEAD
	<node lat="59.430519443516665" lon="5.439052774545603" id="-4129">
		<tag k="name" v="Nutatjørna" />
		<tag k="natural" v="water" />
		<tag k="ssr:stedsnr" v="632695" />
	</node>
	<node lat="59.46143888972183" lon="5.4102749920565465" id="-4131">
		<tag k="name" v="Migan" />
		<tag k="ssr:stedsnr" v="632705" />
		<tag k="waterway" v="stream" />
	</node>
	<node lat="59.429697221941986" lon="5.4747694492651755" id="-4132">
		<tag k="name" v="Kvednaneset" />
		<tag k="natural" v="cape" />
		<tag k="ssr:stedsnr" v="632717" />
	</node>
	<node lat="59.410455557957505" lon="5.413536107338545" id="-4134">
		<tag k="name" v="Nåneset" />
		<tag k="natural" v="cape" />
		<tag k="ssr:stedsnr" v="633005" />
	</node>
	<node lat="59.38537222475834" lon="5.662824995169877" id="-4146">
		<tag k="name" v="Yrkjesneset" />
		<tag k="natural" v="cape" />
		<tag k="ssr:stedsnr" v="659807" />
	</node>
	<node lat="59.39499166745596" lon="5.552072214919061" id="-4152">
		<tag k="name" v="Fot" />
		<tag k="natural" v="cape" />
		<tag k="ssr:stedsnr" v="660400" />
	</node>
	<node lat="59.37461944471805" lon="5.529588890308281" id="-4161">
		<tag k="alt_name" v="Baståstjørna, søre;Baståstjørna" />
		<tag k="name" v="Søre Baståstjørna" />
=======
	<node id="-38098" lat="59.4085555539" lon="5.53411943804">
		<tag k="name" v="Nesaholmen" />
		<tag k="place" v="islet" />
		<tag k="ssr:stedsnr" v="53775" />
	</node>
	<node id="-38094" lat="59.3855027781" lon="5.54128610676">
		<tag k="name" v="Skogasundet" />
		<tag k="natural" v="strait" />
		<tag k="ssr:stedsnr" v="53598" />
	</node>
	<node id="-38092" lat="59.3974361149" lon="5.53377500337">
		<tag k="name" v="Røytevika" />
		<tag k="natural" v="bay" />
		<tag k="ssr:stedsnr" v="53590" />
	</node>
	<node id="-38088" lat="59.3990777793" lon="5.56348332932">
		<tag k="name" v="Dyråneset" />
		<tag k="natural" v="cape" />
		<tag k="ssr:stedsnr" v="53478" />
	</node>
	<node id="-38082" lat="59.3603500018" lon="5.51217499492">
		<tag k="name" v="Hedletjørna" />
		<tag k="natural" v="water" />
		<tag k="ssr:stedsnr" v="53216" />
	</node>
	<node id="-38081" lat="59.3784166629" lon="5.55506111093">
		<tag k="name" v="Indra Fotatåna" />
		<tag k="natural" v="cape" />
		<tag k="ssr:stedsnr" v="53174" />
	</node>
	<node id="-38077" lat="59.3778666696" lon="5.65158610827">
		<tag k="name" v="Bortjørna" />
		<tag k="natural" v="water" />
		<tag k="ssr:stedsnr" v="53079" />
	</node>
	<node id="-38050" lat="59.4725944435" lon="5.39626666885">
		<tag k="name" v="Pineneset" />
		<tag k="natural" v="cape" />
		<tag k="ssr:stedsnr" v="26320" />
	</node>
	<node id="-38027" lat="59.3638500019" lon="5.51431389116">
		<tag k="alt_name" v="Skrubbursdtjørna" />
		<tag k="name" v="Skrubburdtjørna" />
		<tag k="natural" v="water" />
		<tag k="ssr:stedsnr" v="2104" />
	</node>
	<node id="-38026" lat="59.3698638922" lon="5.7080833347">
		<tag k="alt_name" v="Lindelitjørn" />
		<tag k="name" v="Lindelistemmen" />
		<tag k="natural" v="water" />
		<tag k="ssr:stedsnr" v="2103" />
	</node>
	<node id="-38023" lat="59.3903333368" lon="5.64622499272">
		<tag k="alt_name" v="Søra Kreppetjørna" />
		<tag k="name" v="Kreppetjørna" />
		<tag k="natural" v="water" />
		<tag k="ssr:stedsnr" v="2065" />
	</node>
	<node id="-38021" lat="59.4184924924" lon="5.56109341129">
		<tag k="alt_name" v="Ramslitjørna" />
		<tag k="name" v="Romslitjørna" />
>>>>>>> e1d4bc35ff8a6074a6f2e91616a996b547c36f15
		<tag k="natural" v="water" />
		<tag k="ssr:stedsnr" v="669098" />
	</node>
<<<<<<< HEAD
	<node lat="59.41068979455638" lon="5.396000156782273" id="-4167">
		<tag k="alt_name" v="Svarteløkjen" />
		<tag k="name" v="Svarteløk" />
=======
	<node id="-38018" lat="59.3568000036" lon="5.41378888207">
		<tag k="alt_name" v="Hallsteinsvatnet" />
		<tag k="name" v="Hallsteinvatnet" />
>>>>>>> e1d4bc35ff8a6074a6f2e91616a996b547c36f15
		<tag k="natural" v="water" />
		<tag k="ssr:stedsnr" v="669626" />
	</node>
<<<<<<< HEAD
	<node lat="59.341622226065134" lon="5.420394445700045" id="-4170">
		<tag k="name" v="Mosvatnet" />
=======
	<node id="-38017" lat="59.3620555568" lon="5.43982222582">
		<tag k="name" v="Ådnavatnet" />
>>>>>>> e1d4bc35ff8a6074a6f2e91616a996b547c36f15
		<tag k="natural" v="water" />
		<tag k="ssr:stedsnr" v="669995" />
		<tag k="water" v="lake" />
	</node>
<<<<<<< HEAD
	<node lat="59.30304166800259" lon="5.490975004879416" id="-4173">
		<tag k="name" v="Mosvatnet" />
=======
	<node id="-38008" lat="59.3363848829" lon="5.75485336613">
		<tag k="name" v="Leirgro" />
		<tag k="natural" v="beach" />
		<tag k="ssr:stedsnr" v="979611" />
	</node>
	<node id="-38003" lat="59.3539416673" lon="5.58468611615">
		<tag k="name" v="Tordalsvatnet" />
>>>>>>> e1d4bc35ff8a6074a6f2e91616a996b547c36f15
		<tag k="natural" v="water" />
		<tag k="ssr:stedsnr" v="670204" />
		<tag k="water" v="lake" />
	</node>
<<<<<<< HEAD
	<node lat="59.30844444081296" lon="5.526655548235397" id="-4176">
		<tag k="alt_name" v="Vassholmane" />
		<tag k="name" v="Hesthammarholmane" />
		<tag k="place" v="islet" />
		<tag k="ssr:stedsnr" v="670215" />
	</node>
	<node lat="59.38154178632395" lon="5.85054563114611" id="-4179">
		<tag k="name" v="Svortevatnet" />
=======
	<node id="-38000" lat="59.3016999992" lon="5.52586944169">
		<tag k="name" v="Hedleneset" />
		<tag k="natural" v="cape" />
		<tag k="ssr:stedsnr" v="963667" />
	</node>
	<node id="-37992" lat="59.4483277775" lon="5.44408333434">
		<tag k="name" v="Hestatjørna" />
		<tag k="natural" v="water" />
		<tag k="ssr:stedsnr" v="937816" />
	</node>
	<node id="-37976" lat="59.3921611084" lon="5.53343332595">
		<tag k="name" v="Lindeneset" />
		<tag k="natural" v="cape" />
		<tag k="ssr:stedsnr" v="903561" />
	</node>
	<node id="-37961" lat="59.3739277775" lon="5.72007777584">
		<tag k="name" v="Spådalsøye" />
		<tag k="natural" v="water" />
		<tag k="ssr:stedsnr" v="902524" />
	</node>
	<node id="-37960" lat="59.3698888928" lon="5.71986943906">
		<tag k="name" v="Spådalsvatnet" />
>>>>>>> e1d4bc35ff8a6074a6f2e91616a996b547c36f15
		<tag k="natural" v="water" />
		<tag k="ssr:stedsnr" v="670405" />
		<tag k="water" v="lake" />
	</node>
<<<<<<< HEAD
	<node lat="59.44917499732015" lon="5.626524995160852" id="-4181">
		<tag k="name" v="Igletjørna" />
=======
	<node id="-37953" lat="59.3748305579" lon="5.44587500552">
		<tag k="name" v="Lyngtjørna" />
		<tag k="natural" v="water" />
		<tag k="ssr:stedsnr" v="876030" />
	</node>
	<node id="-37948" lat="59.3934209415" lon="5.64683702204">
		<tag k="name" v="Nordra Kreppetjørna" />
>>>>>>> e1d4bc35ff8a6074a6f2e91616a996b547c36f15
		<tag k="natural" v="water" />
		<tag k="ssr:stedsnr" v="670771" />
	</node>
<<<<<<< HEAD
	<node lat="59.408747221260555" lon="5.3867861055241555" id="-4190">
		<tag k="name" v="Kvednamyrstjørna" />
=======
	<node id="-37947" lat="59.4283739288" lon="5.47634280482">
		<tag k="alt_name" v="Grindevatnet" />
		<tag k="name" v="Grindavatnet" />
>>>>>>> e1d4bc35ff8a6074a6f2e91616a996b547c36f15
		<tag k="natural" v="water" />
		<tag k="ssr:stedsnr" v="694008" />
	</node>
<<<<<<< HEAD
	<node lat="59.40617470348843" lon="5.4008701471049685" id="-4192">
		<tag k="name" v="Sløsnatjørna" />
=======
	<node id="-37946" lat="59.4419166704" lon="5.56501110502">
		<tag k="alt_name" v="Vatlandsvatnet" />
		<tag k="name" v="Storavatnet" />
>>>>>>> e1d4bc35ff8a6074a6f2e91616a996b547c36f15
		<tag k="natural" v="water" />
		<tag k="ssr:stedsnr" v="694020" />
	</node>
<<<<<<< HEAD
	<node lat="59.3873227351034" lon="5.488647608763513" id="-4198">
		<tag k="alt_name" v="Sønderhåvatnet" />
		<tag k="name" v="Stemmevatnet" />
=======
	<node id="-37945" lat="59.3780500012" lon="5.84394999321">
		<tag k="alt_name" v="Djupadalsvatnet" />
		<tag k="name" v="Djupedalsvatnet" />
>>>>>>> e1d4bc35ff8a6074a6f2e91616a996b547c36f15
		<tag k="natural" v="water" />
		<tag k="ssr:stedsnr" v="694717" />
		<tag k="water" v="lake" />
	</node>
<<<<<<< HEAD
	<node lat="59.42706666705133" lon="5.39854167187357" id="-4199">
		<tag k="name" v="Migan" />
		<tag k="natural" v="waterfall" />
		<tag k="ssr:stedsnr" v="694776" />
	</node>
	<node lat="59.44140277793547" lon="5.573816668249716" id="-4225">
		<tag k="name" v="Vaulen" />
		<tag k="place" v="locality" />
		<tag k="ssr:stedsnr" v="721484" />
	</node>
	<node lat="59.407844445272474" lon="5.535391671625434" id="-4231">
		<tag k="name" v="Brekkeneset" />
		<tag k="natural" v="cape" />
		<tag k="ssr:stedsnr" v="721724" />
	</node>
	<node lat="59.34819999931575" lon="5.832350005373725" id="-4242">
		<tag k="name" v="Kaggestadvatnet" />
=======
	<node id="-37940" lat="59.385899999" lon="5.80292778311">
		<tag k="name" v="Lomavatnet" />
		<tag k="natural" v="water" />
		<tag k="ssr:stedsnr" v="852117" />
		<tag k="water" v="lake" />
	</node>
	<node id="-37933" lat="59.3617832212" lon="5.42393683422">
		<tag k="name" v="Hestvatnet" />
>>>>>>> e1d4bc35ff8a6074a6f2e91616a996b547c36f15
		<tag k="natural" v="water" />
		<tag k="ssr:stedsnr" v="730182" />
		<tag k="water" v="lake" />
	</node>
<<<<<<< HEAD
	<node lat="59.40340000286692" lon="5.403930556270124" id="-4243">
		<tag k="name" v="Sandvika" />
		<tag k="natural" v="bay" />
		<tag k="ssr:stedsnr" v="730608" />
	</node>
	<node lat="59.3597161701537" lon="5.702354728838271" id="-4252">
		<tag k="name" v="Sandvikstemmen" />
=======
	<node id="-37929" lat="59.404344442" lon="5.66633611517">
		<tag k="name" v="Austerlivatnet" />
>>>>>>> e1d4bc35ff8a6074a6f2e91616a996b547c36f15
		<tag k="natural" v="water" />
		<tag k="ssr:stedsnr" v="731113" />
	</node>
<<<<<<< HEAD
	<node lat="59.3983999987362" lon="5.6644805635772935" id="-4254">
		<tag k="name" v="Svartatjørna" />
=======
	<node id="-37927" lat="59.4020944474" lon="5.74728055197">
		<tag k="name" v="Ebnetjørna" />
>>>>>>> e1d4bc35ff8a6074a6f2e91616a996b547c36f15
		<tag k="natural" v="water" />
		<tag k="ssr:stedsnr" v="731073" />
	</node>
<<<<<<< HEAD
	<node lat="59.46095000001962" lon="5.390122225790355" id="-4256">
		<tag k="alt_name" v="Uravika" />
		<tag k="name" v="Urdavika" />
		<tag k="natural" v="bay" />
		<tag k="ssr:stedsnr" v="731623" />
	</node>
	<node lat="59.45592005316406" lon="5.658329011528364" id="-4257">
		<tag k="alt_name" v="Navarsvatnet" />
		<tag k="name" v="Navaren" />
=======
	<node id="-37909" lat="59.3968027756" lon="5.72223611753">
		<tag k="name" v="Dyrsnuttjørna" />
>>>>>>> e1d4bc35ff8a6074a6f2e91616a996b547c36f15
		<tag k="natural" v="water" />
		<tag k="ssr:stedsnr" v="731753" />
		<tag k="water" v="lake" />
	</node>
<<<<<<< HEAD
	<node lat="59.31827222236679" lon="5.529169448637722" id="-4274">
		<tag k="name" v="Digraneset" />
=======
	<node id="-37895" lat="59.3431416645" lon="5.41804166622">
		<tag k="name" v="Mosvasstongjen" />
>>>>>>> e1d4bc35ff8a6074a6f2e91616a996b547c36f15
		<tag k="natural" v="cape" />
		<tag k="ssr:stedsnr" v="902660" />
	</node>
<<<<<<< HEAD
	<node lat="59.369641670592614" lon="5.5536277773124985" id="-4287">
		<tag k="name" v="Hålandsneset" />
		<tag k="natural" v="cape" />
		<tag k="ssr:stedsnr" v="903137" />
	</node>
	<node lat="59.41754166582518" lon="5.5513638818771405" id="-4298">
		<tag k="name" v="Mjølhovdtjørna" />
		<tag k="natural" v="water" />
		<tag k="ssr:stedsnr" v="903729" />
	</node>
	<node lat="59.35116388493545" lon="5.514122217872304" id="-4302">
		<tag k="name" v="Fagerlipøyla" />
		<tag k="natural" v="water" />
		<tag k="ssr:stedsnr" v="903876" />
	</node>
	<node lat="59.379755557608036" lon="5.4439111089486545" id="-4308">
		<tag k="name" v="Litlastakktjørna" />
=======
	<node id="-37893" lat="59.4135666692" lon="5.45855278384">
		<tag k="name" v="Vasshovdet" />
		<tag k="natural" v="cape" />
		<tag k="ssr:stedsnr" v="936689" />
	</node>
	<node id="-37878" lat="59.3270527777" lon="5.43176944216">
		<tag k="name" v="Lomtjørna" />
		<tag k="natural" v="water" />
		<tag k="ssr:stedsnr" v="816719" />
	</node>
	<node id="-37877" lat="59.329420949" lon="5.4179275264">
		<tag k="name" v="Vatneimsløkjen" />
		<tag k="natural" v="water" />
		<tag k="ssr:stedsnr" v="816712" />
	</node>
	<node id="-37875" lat="59.4020361075" lon="5.42006666">
		<tag k="name" v="Eikjeskogøyna" />
		<tag k="place" v="island" />
		<tag k="ssr:stedsnr" v="816008" />
	</node>
	<node id="-37852" lat="59.3115963958" lon="5.57765651851">
		<tag k="alt_name" v="Gudbrandsvatnet" />
		<tag k="name" v="Gudbrandstjørna" />
>>>>>>> e1d4bc35ff8a6074a6f2e91616a996b547c36f15
		<tag k="natural" v="water" />
		<tag k="ssr:stedsnr" v="754710" />
	</node>
<<<<<<< HEAD
	<node lat="59.4162166625378" lon="5.461433336456605" id="-4309">
		<tag k="name" v="Uraklubben" />
		<tag k="natural" v="cape" />
		<tag k="ssr:stedsnr" v="754715" />
	</node>
	<node lat="59.357611109751836" lon="5.435794448932252" id="-4314">
		<tag k="name" v="Øspetjørna" />
=======
	<node id="-37849" lat="59.404074999" lon="5.55833333891">
		<tag k="name" v="Rongavatnet" />
		<tag k="natural" v="water" />
		<tag k="ssr:stedsnr" v="791030" />
		<tag k="water" v="lake" />
	</node>
	<node id="-37845" lat="59.3773341933" lon="5.44754572547">
		<tag k="alt_name" v="Ronvikstemmen" />
		<tag k="name" v="Ronnviksstemmen" />
>>>>>>> e1d4bc35ff8a6074a6f2e91616a996b547c36f15
		<tag k="natural" v="water" />
		<tag k="ssr:stedsnr" v="755022" />
	</node>
<<<<<<< HEAD
	<node lat="59.3313722186357" lon="5.40632777784884" id="-4316">
		<tag k="name" v="Steinsvatnet" />
=======
	<node id="-37829" lat="59.3607709034" lon="5.72821798996">
		<tag k="name" v="Lauvskardvatnet" />
>>>>>>> e1d4bc35ff8a6074a6f2e91616a996b547c36f15
		<tag k="natural" v="water" />
		<tag k="ssr:stedsnr" v="755658" />
		<tag k="water" v="lake" />
	</node>
<<<<<<< HEAD
	<node lat="59.367705557134" lon="5.560936113399763" id="-4324">
		<tag k="name" v="Gauteneset" />
		<tag k="natural" v="cape" />
		<tag k="ssr:stedsnr" v="781171" />
	</node>
	<node lat="59.30579444289726" lon="5.525697227468859" id="-4332">
		<tag k="name" v="Lammaneset" />
		<tag k="natural" v="cape" />
		<tag k="ssr:stedsnr" v="781621" />
	</node>
	<node lat="59.34283394093553" lon="5.518828283122243" id="-4335">
		<tag k="name" v="Bringedalsvatnet" />
=======
	<node id="-37822" lat="59.3338111151" lon="5.42749165748">
		<tag k="name" v="Hetlandsvatnet" />
		<tag k="natural" v="water" />
		<tag k="ssr:stedsnr" v="912990" />
		<tag k="water" v="lake" />
	</node>
	<node id="-37821" lat="59.4487555596" lon="5.67034443607">
		<tag k="name" v="Fiskevatnet" />
>>>>>>> e1d4bc35ff8a6074a6f2e91616a996b547c36f15
		<tag k="natural" v="water" />
		<tag k="ssr:stedsnr" v="781920" />
		<tag k="water" v="lake" />
	</node>
<<<<<<< HEAD
	<node lat="59.37733419334082" lon="5.447545725472269" id="-4345">
		<tag k="alt_name" v="Ronvikstemmen" />
		<tag k="name" v="Ronnviksstemmen" />
=======
	<node id="-37814" lat="59.3689999996" lon="5.44487500073">
		<tag k="name" v="Stemmavatnet" />
>>>>>>> e1d4bc35ff8a6074a6f2e91616a996b547c36f15
		<tag k="natural" v="water" />
		<tag k="ssr:stedsnr" v="790564" />
	</node>
<<<<<<< HEAD
	<node lat="59.40460278186386" lon="5.793761102415244" id="-4349">
		<tag k="name" v="Svartavatnet" />
=======
	<node id="-37812" lat="59.3772166692" lon="5.44071388478">
		<tag k="name" v="Hesttjørna" />
>>>>>>> e1d4bc35ff8a6074a6f2e91616a996b547c36f15
		<tag k="natural" v="water" />
		<tag k="ssr:stedsnr" v="791091" />
	</node>
<<<<<<< HEAD
	<node lat="59.377626701844946" lon="5.779466015474291" id="-4352">
		<tag k="name" v="Lysevatnet" />
=======
	<node id="-37811" lat="59.3577950598" lon="5.39605872929">
		<tag k="alt_name" v="Høyevatnet" />
		<tag k="name" v="Haugevatnet" />
>>>>>>> e1d4bc35ff8a6074a6f2e91616a996b547c36f15
		<tag k="natural" v="water" />
		<tag k="ssr:stedsnr" v="791100" />
		<tag k="water" v="lake" />
	</node>
<<<<<<< HEAD
	<node lat="59.311596395802795" lon="5.577656518511791" id="-4353">
		<tag k="alt_name" v="Gudbrandsvatnet" />
		<tag k="name" v="Gudbrandstjørna" />
=======
	<node id="-37805" lat="59.3355250031" lon="5.6031527801">
		<tag k="name" v="Botnavatnet" />
>>>>>>> e1d4bc35ff8a6074a6f2e91616a996b547c36f15
		<tag k="natural" v="water" />
		<tag k="ssr:stedsnr" v="791204" />
		<tag k="water" v="lake" />
	</node>
<<<<<<< HEAD
	<node lat="59.3157676977062" lon="5.520713030354388" id="-4356">
		<tag k="alt_name" v="Storevatnet" />
		<tag k="name" v="Storavatnet" />
=======
	<node id="-37799" lat="59.3732916667" lon="5.81903055797">
		<tag k="alt_name" v="Badnavatnet, store;Badnavatnet" />
		<tag k="name" v="Stora Badnavatnet" />
>>>>>>> e1d4bc35ff8a6074a6f2e91616a996b547c36f15
		<tag k="natural" v="water" />
		<tag k="ssr:stedsnr" v="791212" />
		<tag k="water" v="lake" />
	</node>
<<<<<<< HEAD
	<node lat="59.387900002983116" lon="5.731686111322763" id="-4367">
		<tag k="name" v="Selstjørna" />
=======
	<node id="-37798" lat="59.3538289614" lon="5.48533635512">
		<tag k="alt_name" v="Såtevatnet" />
		<tag k="name" v="Gjerdestjørna" />
>>>>>>> e1d4bc35ff8a6074a6f2e91616a996b547c36f15
		<tag k="natural" v="water" />
		<tag k="ssr:stedsnr" v="912070" />
	</node>
<<<<<<< HEAD
	<node lat="59.379530558392474" lon="5.481658330208541" id="-4368">
=======
	<node id="-37797" lat="59.3795305584" lon="5.48165833021">
>>>>>>> e1d4bc35ff8a6074a6f2e91616a996b547c36f15
		<tag k="alt_name" v="Klovningvatnet, nordre;Nordre Klovningvatnet" />
		<tag k="loc_name" v="Padlatjørna" />
		<tag k="name" v="Padletjørna" />
		<tag k="natural" v="water" />
		<tag k="ssr:stedsnr" v="912073" />
	</node>
<<<<<<< HEAD
	<node lat="59.335525003118256" lon="5.6031527800954" id="-4372">
		<tag k="name" v="Botnavatnet" />
=======
	<node id="-37796" lat="59.387900003" lon="5.73168611132">
		<tag k="name" v="Selstjørna" />
		<tag k="natural" v="water" />
		<tag k="ssr:stedsnr" v="912070" />
	</node>
	<node id="-37787" lat="59.3999750012" lon="5.41196667219">
		<tag k="name" v="Longetongjen" />
		<tag k="natural" v="cape" />
		<tag k="ssr:stedsnr" v="755027" />
	</node>
	<node id="-37786" lat="59.3576111098" lon="5.43579444893">
		<tag k="name" v="Øspetjørna" />
		<tag k="natural" v="water" />
		<tag k="ssr:stedsnr" v="755022" />
	</node>
	<node id="-37781" lat="59.3511638849" lon="5.51412221787">
		<tag k="name" v="Fagerlipøyla" />
>>>>>>> e1d4bc35ff8a6074a6f2e91616a996b547c36f15
		<tag k="natural" v="water" />
		<tag k="ssr:stedsnr" v="912173" />
		<tag k="water" v="lake" />
	</node>
<<<<<<< HEAD
	<node lat="59.357795059804914" lon="5.3960587292936015" id="-4376">
		<tag k="alt_name" v="Høyevatnet" />
		<tag k="name" v="Haugevatnet" />
		<tag k="natural" v="water" />
		<tag k="ssr:stedsnr" v="912532" />
		<tag k="water" v="lake" />
	</node>
	<node lat="59.377216669214526" lon="5.440713884776359" id="-4377">
		<tag k="name" v="Hesttjørna" />
		<tag k="natural" v="water" />
		<tag k="ssr:stedsnr" v="912572" />
	</node>
	<node lat="59.448755559552254" lon="5.670344436070967" id="-4380">
		<tag k="name" v="Fiskevatnet" />
=======
	<node id="-37775" lat="59.4175416658" lon="5.55136388188">
		<tag k="name" v="Mjølhovdtjørna" />
		<tag k="natural" v="water" />
		<tag k="ssr:stedsnr" v="903729" />
	</node>
	<node id="-37765" lat="59.3696416706" lon="5.55362777731">
		<tag k="name" v="Hålandsneset" />
		<tag k="natural" v="cape" />
		<tag k="ssr:stedsnr" v="903137" />
	</node>
	<node id="-37754" lat="59.3182722224" lon="5.52916944864">
		<tag k="name" v="Digraneset" />
		<tag k="natural" v="cape" />
		<tag k="ssr:stedsnr" v="902660" />
	</node>
	<node id="-37740" lat="59.46095" lon="5.39012222579">
		<tag k="alt_name" v="Uravika" />
		<tag k="name" v="Urdavika" />
		<tag k="natural" v="bay" />
		<tag k="ssr:stedsnr" v="731623" />
	</node>
	<node id="-37738" lat="59.3597161702" lon="5.70235472884">
		<tag k="name" v="Sandvikstemmen" />
		<tag k="natural" v="water" />
		<tag k="ssr:stedsnr" v="731113" />
	</node>
	<node id="-37731" lat="59.4034000029" lon="5.40393055627">
		<tag k="name" v="Sandvika" />
		<tag k="natural" v="bay" />
		<tag k="ssr:stedsnr" v="730608" />
	</node>
	<node id="-37704" lat="59.3651499996" lon="5.68817777192">
		<tag k="name" v="Tverrelva" />
		<tag k="ssr:stedsnr" v="719560" />
		<tag k="waterway" v="river" />
	</node>
	<node id="-37701" lat="59.3116500009" lon="5.41523054828">
		<tag k="alt_name" v="Litlavatn" />
		<tag k="name" v="Litlavatnet" />
>>>>>>> e1d4bc35ff8a6074a6f2e91616a996b547c36f15
		<tag k="natural" v="water" />
		<tag k="ssr:stedsnr" v="912754" />
		<tag k="water" v="lake" />
	</node>
<<<<<<< HEAD
	<node lat="59.40203610748041" lon="5.420066660003053" id="-4409">
		<tag k="name" v="Eikjeskogøyna" />
		<tag k="place" v="island" />
		<tag k="ssr:stedsnr" v="816008" />
	</node>
	<node lat="59.32942094899595" lon="5.417927526399305" id="-4411">
		<tag k="name" v="Vatneimsløkjen" />
=======
	<node id="-37699" lat="59.4270666671" lon="5.39854167187">
		<tag k="name" v="Migan" />
		<tag k="natural" v="waterfall" />
		<tag k="ssr:stedsnr" v="694776" />
	</node>
	<node id="-37698" lat="59.3873227351" lon="5.48864760876">
		<tag k="alt_name" v="Sønderhåvatnet" />
		<tag k="name" v="Stemmevatnet" />
		<tag k="natural" v="water" />
		<tag k="ssr:stedsnr" v="694717" />
		<tag k="water" v="lake" />
	</node>
	<node id="-37693" lat="59.4061747035" lon="5.4008701471">
		<tag k="name" v="Sløsnatjørna" />
>>>>>>> e1d4bc35ff8a6074a6f2e91616a996b547c36f15
		<tag k="natural" v="water" />
		<tag k="ssr:stedsnr" v="816712" />
	</node>
<<<<<<< HEAD
	<node lat="59.327052777730856" lon="5.431769442161267" id="-4412">
		<tag k="name" v="Lomtjørna" />
=======
	<node id="-37691" lat="59.4087472213" lon="5.38678610552">
		<tag k="name" v="Kvednamyrstjørna" />
>>>>>>> e1d4bc35ff8a6074a6f2e91616a996b547c36f15
		<tag k="natural" v="water" />
		<tag k="ssr:stedsnr" v="816719" />
	</node>
<<<<<<< HEAD
	<node lat="59.362419440789324" lon="5.668866659070761" id="-4416">
		<tag k="name" v="Storaelva" />
		<tag k="ssr:stedsnr" v="841629" />
		<tag k="waterway" v="river" />
	</node>
	<node lat="59.39680277562154" lon="5.722236117527102" id="-4417">
		<tag k="name" v="Dyrsnuttjørna" />
		<tag k="natural" v="water" />
		<tag k="ssr:stedsnr" v="842015" />
	</node>
	<node lat="59.39436388664627" lon="5.607225004821823" id="-4425">
		<tag k="name" v="Slettebakktjørna" />
=======
	<node id="-37685" lat="59.3891194406" lon="5.78770833123">
		<tag k="name" v="Tverrelva" />
		<tag k="ssr:stedsnr" v="660068" />
		<tag k="waterway" v="river" />
	</node>
	<node id="-37678" lat="59.3519861143" lon="5.71739167425">
		<tag k="loc_name" v="Vassbotnen" />
		<tag k="name" v="Hustopttjørna" />
		<tag k="natural" v="water" />
		<tag k="ssr:stedsnr" v="659268" />
	</node>
	<node id="-37672" lat="59.4065833367" lon="5.44731667093">
		<tag k="name" v="Vassendbekken" />
		<tag k="ssr:stedsnr" v="876746" />
		<tag k="waterway" v="stream" />
	</node>
	<node id="-37652" lat="59.4559200532" lon="5.65832901153">
		<tag k="alt_name" v="Navarsvatnet" />
		<tag k="name" v="Navaren" />
		<tag k="natural" v="water" />
		<tag k="ssr:stedsnr" v="731753" />
		<tag k="water" v="lake" />
	</node>
	<node id="-37650" lat="59.3724694425" lon="5.44726944745">
		<tag k="alt_name" v="Longavatnet" />
		<tag k="name" v="Langavatnet" />
>>>>>>> e1d4bc35ff8a6074a6f2e91616a996b547c36f15
		<tag k="natural" v="water" />
		<tag k="ssr:stedsnr" v="842381" />
	</node>
<<<<<<< HEAD
	<node lat="59.391633335171015" lon="5.530141664897139" id="-4426">
		<tag k="name" v="Djupavika" />
		<tag k="natural" v="bay" />
		<tag k="ssr:stedsnr" v="842583" />
	</node>
	<node lat="59.38566388585844" lon="5.840002784284411" id="-4428">
		<tag k="name" v="Grunnvatnet" />
=======
	<node id="-37646" lat="59.3983999987" lon="5.66448056358">
		<tag k="name" v="Svartatjørna" />
>>>>>>> e1d4bc35ff8a6074a6f2e91616a996b547c36f15
		<tag k="natural" v="water" />
		<tag k="ssr:stedsnr" v="842693" />
	</node>
<<<<<<< HEAD
	<node lat="59.40209444743864" lon="5.747280551967049" id="-4430">
		<tag k="name" v="Ebnetjørna" />
=======
	<node id="-37642" lat="59.352736109" lon="5.43830556376">
		<tag k="name" v="Ramslitjørn" />
>>>>>>> e1d4bc35ff8a6074a6f2e91616a996b547c36f15
		<tag k="natural" v="water" />
		<tag k="ssr:stedsnr" v="842775" />
	</node>
<<<<<<< HEAD
	<node lat="59.38589999900987" lon="5.802927783107116" id="-4438">
		<tag k="name" v="Lomavatnet" />
=======
	<node id="-37641" lat="59.3897666623" lon="5.42090555072">
		<tag k="alt_name" v="Heretjørn" />
		<tag k="name" v="Hæretjørna" />
>>>>>>> e1d4bc35ff8a6074a6f2e91616a996b547c36f15
		<tag k="natural" v="water" />
		<tag k="ssr:stedsnr" v="852117" />
		<tag k="water" v="lake" />
	</node>
<<<<<<< HEAD
	<node lat="59.39342094145264" lon="5.646837022039877" id="-4447">
		<tag k="name" v="Nordra Kreppetjørna" />
=======
	<node id="-37635" lat="59.4175915725" lon="5.83256212871">
		<tag k="alt_name" v="Soleimstjørna" />
		<tag k="name" v="Solheimstjørna" />
>>>>>>> e1d4bc35ff8a6074a6f2e91616a996b547c36f15
		<tag k="natural" v="water" />
		<tag k="ssr:stedsnr" v="855307" />
	</node>
<<<<<<< HEAD
	<node lat="59.37483055790864" lon="5.445875005519019" id="-4450">
		<tag k="name" v="Lyngtjørna" />
=======
	<node id="-37629" lat="59.3481999993" lon="5.83235000537">
		<tag k="name" v="Kaggestadvatnet" />
>>>>>>> e1d4bc35ff8a6074a6f2e91616a996b547c36f15
		<tag k="natural" v="water" />
		<tag k="ssr:stedsnr" v="876030" />
	</node>
<<<<<<< HEAD
	<node lat="59.36988889280227" lon="5.719869439061993" id="-4467">
		<tag k="name" v="Spådalsvatnet" />
=======
	<node id="-37628" lat="59.4475472216" lon="5.43576666012">
		<tag k="name" v="Storestemmen" />
>>>>>>> e1d4bc35ff8a6074a6f2e91616a996b547c36f15
		<tag k="natural" v="water" />
		<tag k="ssr:stedsnr" v="902522" />
		<tag k="water" v="lake" />
	</node>
<<<<<<< HEAD
	<node lat="59.37392777751733" lon="5.720077775836041" id="-4468">
		<tag k="name" v="Spådalsøye" />
		<tag k="natural" v="water" />
		<tag k="ssr:stedsnr" v="902524" />
	</node>
	<node lat="59.39216110843855" lon="5.533433325948413" id="-4484">
		<tag k="name" v="Lindeneset" />
=======
	<node id="-37621" lat="59.3695138847" lon="5.44430832695">
		<tag k="name" v="Krokatjørna" />
		<tag k="natural" v="water" />
		<tag k="ssr:stedsnr" v="633025" />
	</node>
	<node id="-37619" lat="59.410455558" lon="5.41353610734">
		<tag k="name" v="Nåneset" />
		<tag k="natural" v="cape" />
		<tag k="ssr:stedsnr" v="633005" />
	</node>
	<node id="-37617" lat="59.4296972219" lon="5.47476944927">
		<tag k="name" v="Kvednaneset" />
>>>>>>> e1d4bc35ff8a6074a6f2e91616a996b547c36f15
		<tag k="natural" v="cape" />
		<tag k="ssr:stedsnr" v="903561" />
	</node>
<<<<<<< HEAD
	<node lat="59.353828961442005" lon="5.485336355119245" id="-4490">
		<tag k="alt_name" v="Såtevatnet" />
		<tag k="name" v="Gjerdestjørna" />
		<tag k="natural" v="water" />
		<tag k="ssr:stedsnr" v="912103" />
	</node>
	<node lat="59.37329166673607" lon="5.819030557971876" id="-4491">
		<tag k="alt_name" v="Badnavatnet, store;Badnavatnet" />
		<tag k="name" v="Stora Badnavatnet" />
		<tag k="natural" v="water" />
		<tag k="ssr:stedsnr" v="912104" />
		<tag k="water" v="lake" />
	</node>
	<node lat="59.36899999960122" lon="5.444875000725707" id="-4501">
		<tag k="name" v="Stemmavatnet" />
=======
	<node id="-37616" lat="59.4614388897" lon="5.41027499206">
		<tag k="name" v="Migan" />
		<tag k="ssr:stedsnr" v="632705" />
		<tag k="waterway" v="stream" />
	</node>
	<node id="-37615" lat="59.3543611118" lon="5.4865194417">
		<tag k="name" v="Klubben" />
		<tag k="natural" v="cape" />
		<tag k="ssr:stedsnr" v="632668" />
	</node>
	<node id="-37607" lat="59.3413388857" lon="5.59082500858">
		<tag k="name" v="Vodlavatnet" />
>>>>>>> e1d4bc35ff8a6074a6f2e91616a996b547c36f15
		<tag k="natural" v="water" />
		<tag k="ssr:stedsnr" v="912592" />
		<tag k="water" v="lake" />
	</node>
<<<<<<< HEAD
	<node lat="59.333811115124064" lon="5.427491657479213" id="-4502">
		<tag k="name" v="Hetlandsvatnet" />
		<tag k="natural" v="water" />
		<tag k="ssr:stedsnr" v="912990" />
		<tag k="water" v="lake" />
	</node>
	<node lat="59.36077090337179" lon="5.7282179899627605" id="-4505">
		<tag k="name" v="Lauvskardvatnet" />
		<tag k="natural" v="water" />
		<tag k="ssr:stedsnr" v="913153" />
		<tag k="water" v="lake" />
	</node>
	<node lat="59.41356666917915" lon="5.458552783836576" id="-4513">
		<tag k="name" v="Vasshovdet" />
=======
	<node id="-37602" lat="59.4078444453" lon="5.53539167163">
		<tag k="name" v="Brekkeneset" />
		<tag k="natural" v="cape" />
		<tag k="ssr:stedsnr" v="721724" />
	</node>
	<node id="-37601" lat="59.4072638893" lon="5.56790832885">
		<tag k="name" v="Berganeset" />
		<tag k="natural" v="cape" />
		<tag k="ssr:stedsnr" v="721717" />
	</node>
	<node id="-37599" lat="59.4091166701" lon="5.57094722255">
		<tag k="name" v="Litleklubben" />
>>>>>>> e1d4bc35ff8a6074a6f2e91616a996b547c36f15
		<tag k="natural" v="cape" />
		<tag k="ssr:stedsnr" v="936689" />
	</node>
<<<<<<< HEAD
	<node lat="59.38303610803473" lon="5.565936107842784" id="-4530">
		<tag k="name" v="Skolpeidvågen" />
		<tag k="natural" v="bay" />
		<tag k="ssr:stedsnr" v="963501" />
	</node>
	<node lat="59.3557388910885" lon="5.516169437938895" id="-4533">
		<tag k="name" v="Nøkkatjørna" />
=======
	<node id="-37592" lat="59.4414027779" lon="5.57381666825">
		<tag k="name" v="Vaulen" />
		<tag k="place" v="locality" />
		<tag k="ssr:stedsnr" v="721484" />
	</node>
	<node id="-37583" lat="59.3737790207" lon="5.65668964086">
		<tag k="name" v="Svartatjørna" />
>>>>>>> e1d4bc35ff8a6074a6f2e91616a996b547c36f15
		<tag k="natural" v="water" />
		<tag k="ssr:stedsnr" v="963934" />
	</node>
<<<<<<< HEAD
	<node lat="59.33638488287866" lon="5.754853366131444" id="-4537">
		<tag k="name" v="Leirgro" />
		<tag k="natural" v="beach" />
		<tag k="ssr:stedsnr" v="979611" />
	</node>
	<node lat="59.39033333681074" lon="5.646224992723261" id="-4545">
		<tag k="alt_name" v="Søra Kreppetjørna" />
		<tag k="name" v="Kreppetjørna" />
=======
	<node id="-37562" lat="59.3144238543" lon="5.43048132159">
		<tag k="name" v="Skiftestjørna" />
		<tag k="natural" v="water" />
		<tag k="ssr:stedsnr" v="609963" />
	</node>
	<node id="-37560" lat="59.3864972208" lon="5.87093055335">
		<tag k="alt_name" v="Straumastølstjørna, in" />
		<tag k="name" v="Indra Straumastølstjørna" />
>>>>>>> e1d4bc35ff8a6074a6f2e91616a996b547c36f15
		<tag k="natural" v="water" />
		<tag k="ssr:stedsnr" v="2065" />
	</node>
<<<<<<< HEAD
	<node lat="59.43873055810924" lon="5.3942361022959044" id="-4580">
		<tag k="name" v="Bakkatjørnane" />
		<tag k="natural" v="water" />
		<tag k="ssr:stedsnr" v="27808" />
		<tag k="water" v="lake" />
	</node>
	<node lat="59.365133330846035" lon="5.705575004527832" id="-4586">
		<tag k="name" v="Gula Tjødnå" />
		<tag k="natural" v="water" />
		<tag k="ssr:stedsnr" v="52552" />
	</node>
	<node lat="59.397436114873436" lon="5.53377500336768" id="-4595">
		<tag k="name" v="Røytevika" />
		<tag k="natural" v="bay" />
		<tag k="ssr:stedsnr" v="53590" />
	</node>
	<node lat="59.38550277813135" lon="5.541286106757657" id="-4597">
		<tag k="name" v="Skogasundet" />
=======
	<node id="-37559" lat="59.384302775" lon="5.86832499577">
		<tag k="alt_name" v="Straumastølstjørna, yt" />
		<tag k="name" v="Ytra Straumastølstjørna" />
		<tag k="natural" v="water" />
		<tag k="ssr:stedsnr" v="609402" />
	</node>
	<node id="-37538" lat="59.328763891" lon="5.53838889181">
		<tag k="name" v="Kalvaneset" />
		<tag k="natural" v="cape" />
		<tag k="ssr:stedsnr" v="598632" />
	</node>
	<node id="-37534" lat="59.3478638881" lon="5.4749499929">
		<tag k="name" v="Lammaneset" />
		<tag k="natural" v="cape" />
		<tag k="ssr:stedsnr" v="572705" />
	</node>
	<node id="-37520" lat="59.3452333295" lon="5.47803055525">
		<tag k="name" v="Vassnes" />
		<tag k="natural" v="cape" />
		<tag k="ssr:stedsnr" v="694698" />
	</node>
	<node id="-37499" lat="59.3845444484" lon="5.56758056292">
		<tag k="name" v="Skolpeid" />
>>>>>>> e1d4bc35ff8a6074a6f2e91616a996b547c36f15
		<tag k="natural" v="strait" />
		<tag k="ssr:stedsnr" v="53598" />
	</node>
<<<<<<< HEAD
	<node lat="59.384069152962766" lon="5.5898365634559015" id="-4620">
		<tag k="alt_name" v="Romskarsvatnet" />
		<tag k="name" v="Ramsskardvatnet" />
=======
	<node id="-37483" lat="59.4415198503" lon="5.58282105642">
		<tag k="name" v="Erlandsvatnet" />
>>>>>>> e1d4bc35ff8a6074a6f2e91616a996b547c36f15
		<tag k="natural" v="water" />
		<tag k="ssr:stedsnr" v="63081" />
		<tag k="water" v="lake" />
	</node>
<<<<<<< HEAD
	<node lat="59.38702420827202" lon="5.656229280420427" id="-4621">
		<tag k="alt_name" v="Yrkjesvatnet" />
		<tag k="name" v="Yrkesvatnet" />
		<tag k="natural" v="water" />
		<tag k="ssr:stedsnr" v="63083" />
		<tag k="water" v="lake" />
	</node>
	<node lat="59.44553611515974" lon="5.369491661918344" id="-4628">
		<tag k="name" v="Kjosen" />
=======
	<node id="-37476" lat="59.3503055512" lon="5.41911666766">
		<tag k="name" v="Revurstjørna" />
		<tag k="natural" v="water" />
		<tag k="ssr:stedsnr" v="512030" />
	</node>
	<node id="-37475" lat="59.4077444489" lon="5.40900833872">
		<tag k="name" v="Skjenet" />
		<tag k="natural" v="cape" />
		<tag k="ssr:stedsnr" v="512025" />
	</node>
	<node id="-37453" lat="59.364033335" lon="5.55870277541">
		<tag k="name" v="Buktå" />
>>>>>>> e1d4bc35ff8a6074a6f2e91616a996b547c36f15
		<tag k="natural" v="bay" />
		<tag k="ssr:stedsnr" v="62652" />
	</node>
<<<<<<< HEAD
	<node lat="59.415700001734905" lon="5.635463892233921" id="-4635">
		<tag k="name" v="Haflebekken" />
		<tag k="ssr:stedsnr" v="63063" />
		<tag k="waterway" v="stream" />
	</node>
	<node lat="59.38495000052053" lon="5.8536499994320845" id="-4644">
		<tag k="name" v="Skoråstjørna" />
		<tag k="natural" v="water" />
		<tag k="ssr:stedsnr" v="63437" />
	</node>
	<node lat="59.385100002996296" lon="5.410044446313155" id="-4658">
		<tag k="name" v="Sørvågstjørna" />
=======
	<node id="-37441" lat="59.3756396415" lon="5.74265758431">
		<tag k="name" v="Seldalskrokavatnet" />
		<tag k="natural" v="water" />
		<tag k="ssr:stedsnr" v="477510" />
		<tag k="water" v="lake" />
	</node>
	<node id="-37436" lat="59.3752305563" lon="5.87321944476">
		<tag k="name" v="Steinsneset" />
		<tag k="natural" v="cape" />
		<tag k="ssr:stedsnr" v="477107" />
	</node>
	<node id="-37426" lat="59.4491749973" lon="5.62652499516">
		<tag k="name" v="Igletjørna" />
>>>>>>> e1d4bc35ff8a6074a6f2e91616a996b547c36f15
		<tag k="natural" v="water" />
		<tag k="ssr:stedsnr" v="87019" />
	</node>
<<<<<<< HEAD
	<node lat="59.361288518463006" lon="5.411971199951202" id="-4660">
		<tag k="name" v="Søra Tveitatjørna" />
=======
	<node id="-37424" lat="59.4485916667" lon="5.64769167307">
		<tag k="name" v="Salttjørna" />
>>>>>>> e1d4bc35ff8a6074a6f2e91616a996b547c36f15
		<tag k="natural" v="water" />
		<tag k="ssr:stedsnr" v="87066" />
	</node>
<<<<<<< HEAD
	<node lat="59.33383333247169" lon="5.441697222157407" id="-4668">
		<tag k="name" v="Skumpatjørna" />
=======
	<node id="-37418" lat="59.3815417863" lon="5.85054563115">
		<tag k="name" v="Svortevatnet" />
>>>>>>> e1d4bc35ff8a6074a6f2e91616a996b547c36f15
		<tag k="natural" v="water" />
		<tag k="ssr:stedsnr" v="87643" />
	</node>
<<<<<<< HEAD
	<node lat="59.42627778068564" lon="5.447158339836821" id="-4673">
		<tag k="name" v="Migan" />
		<tag k="ssr:stedsnr" v="87735" />
		<tag k="waterway" v="stream" />
	</node>
	<node lat="59.37806944431346" lon="5.551483332086051" id="-4686">
		<tag k="name" v="Ytra Fotatåna" />
		<tag k="natural" v="cape" />
		<tag k="ssr:stedsnr" v="114134" />
	</node>
	<node lat="59.366361107487606" lon="5.5573916724528205" id="-4687">
		<tag k="name" v="Klubben" />
		<tag k="natural" v="cape" />
		<tag k="ssr:stedsnr" v="114153" />
	</node>
	<node lat="59.32778610829221" lon="5.511788882663623" id="-4689">
		<tag k="name" v="Symjingane" />
		<tag k="natural" v="strait" />
		<tag k="ssr:stedsnr" v="114655" />
	</node>
	<node lat="59.400941663490855" lon="5.662933327524232" id="-4703">
		<tag k="name" v="Løkjen" />
=======
	<node id="-37415" lat="59.362508334" lon="5.67045278489">
		<tag k="name" v="Bordalsbekken" />
		<tag k="ssr:stedsnr" v="670157" />
		<tag k="waterway" v="stream" />
	</node>
	<node id="-37402" lat="59.3416222261" lon="5.4203944457">
		<tag k="name" v="Mosvatnet" />
>>>>>>> e1d4bc35ff8a6074a6f2e91616a996b547c36f15
		<tag k="natural" v="water" />
		<tag k="ssr:stedsnr" v="114853" />
		<tag k="water" v="lake" />
	</node>
<<<<<<< HEAD
	<node lat="59.37491184071413" lon="5.48542081437577" id="-4713">
		<tag k="alt_name" v="Klovningvatnet, s;Søre Klovningvatnet" />
		<tag k="name" v="Klovningvatnet" />
=======
	<node id="-37397" lat="59.4106897946" lon="5.39600015678">
		<tag k="alt_name" v="Svarteløkjen" />
		<tag k="name" v="Svarteløk" />
>>>>>>> e1d4bc35ff8a6074a6f2e91616a996b547c36f15
		<tag k="natural" v="water" />
		<tag k="ssr:stedsnr" v="123091" />
		<tag k="water" v="lake" />
	</node>
<<<<<<< HEAD
	<node lat="59.41128333220773" lon="5.482036102898196" id="-4722">
		<tag k="alt_name" v="Heretjørna" />
		<tag k="name" v="Hæretjørna" />
=======
	<node id="-37386" lat="59.3828583318" lon="5.79347500851">
		<tag k="name" v="Rongavatnet" />
>>>>>>> e1d4bc35ff8a6074a6f2e91616a996b547c36f15
		<tag k="natural" v="water" />
		<tag k="ssr:stedsnr" v="123063" />
	</node>
<<<<<<< HEAD
	<node lat="59.37399999671697" lon="5.873700007412097" id="-4727">
		<tag k="name" v="Kvamsvatnet" />
=======
	<node id="-37384" lat="59.3746194447" lon="5.52958889031">
		<tag k="alt_name" v="Baståstjørna, søre;Baståstjørna" />
		<tag k="name" v="Søre Baståstjørna" />
>>>>>>> e1d4bc35ff8a6074a6f2e91616a996b547c36f15
		<tag k="natural" v="water" />
		<tag k="ssr:stedsnr" v="123470" />
		<tag k="water" v="lake" />
	</node>
<<<<<<< HEAD
	<node lat="59.352991667738515" lon="5.399222215661791" id="-4729">
		<tag k="alt_name" v="Molltjørna" />
		<tag k="name" v="Moldtjørna" />
		<tag k="natural" v="water" />
		<tag k="ssr:stedsnr" v="123552" />
	</node>
	<node lat="59.39704603752578" lon="5.552341616418599" id="-4732">
		<tag k="name" v="Dyråstjørna" />
=======
	<node id="-37373" lat="59.3084444408" lon="5.52665554824">
		<tag k="alt_name" v="Vassholmane" />
		<tag k="name" v="Hesthammarholmane" />
		<tag k="place" v="islet" />
		<tag k="ssr:stedsnr" v="670215" />
	</node>
	<node id="-37370" lat="59.303041668" lon="5.49097500488">
		<tag k="name" v="Mosvatnet" />
>>>>>>> e1d4bc35ff8a6074a6f2e91616a996b547c36f15
		<tag k="natural" v="water" />
		<tag k="ssr:stedsnr" v="124042" />
	</node>
<<<<<<< HEAD
	<node lat="59.35266666424109" lon="5.57625834105717" id="-4738">
		<tag k="name" v="Rossatjørna" />
=======
	<node id="-37362" lat="59.3394777777" lon="5.43714165855">
		<tag k="name" v="Molltjørna" />
>>>>>>> e1d4bc35ff8a6074a6f2e91616a996b547c36f15
		<tag k="natural" v="water" />
		<tag k="ssr:stedsnr" v="124125" />
	</node>
<<<<<<< HEAD
	<node lat="59.35501388559232" lon="5.522633335345446" id="-4739">
		<tag k="alt_name" v="Heggelivatnet" />
		<tag k="name" v="Heggelitjørna" />
		<tag k="natural" v="water" />
		<tag k="ssr:stedsnr" v="124128" />
		<tag k="water" v="lake" />
	</node>
	<node lat="59.43668333656078" lon="5.351638886489506" id="-4754">
		<tag k="name" v="Lusatjørn" />
		<tag k="natural" v="water" />
		<tag k="ssr:stedsnr" v="148642" />
	</node>
	<node lat="59.383777774720485" lon="5.773733341484755" id="-4765">
		<tag k="name" v="Skiftesvika" />
		<tag k="natural" v="bay" />
		<tag k="ssr:stedsnr" v="174091" />
	</node>
	<node lat="59.375824998771776" lon="5.5512194415802885" id="-4774">
		<tag k="name" v="Klakkholmane" />
		<tag k="place" v="islet" />
		<tag k="ssr:stedsnr" v="174178" />
	</node>
	<node lat="59.44105000249657" lon="5.594269443768095" id="-4793">
		<tag k="name" v="Erlandstjørna" />
		<tag k="natural" v="water" />
		<tag k="ssr:stedsnr" v="175946" />
	</node>
	<node lat="59.40600343277684" lon="5.540220866656954" id="-4799">
		<tag k="name" v="Husavatnet" />
=======
	<node id="-37354" lat="59.4021388849" lon="5.40672778598">
		<tag k="name" v="Skarpaneset" />
		<tag k="natural" v="cape" />
		<tag k="ssr:stedsnr" v="451005" />
	</node>
	<node id="-37353" lat="59.4028638903" lon="5.41591666989">
		<tag k="name" v="Eikjeskogholmen" />
		<tag k="place" v="islet" />
		<tag k="ssr:stedsnr" v="451003" />
	</node>
	<node id="-38993" lat="59.4177611093" lon="5.8117888924">
		<tag k="name" v="Kråkvasselva" />
		<tag k="ssr:stedsnr" v="609060" />
		<tag k="waterway" v="stream" />
	</node>
	<node id="-37336" lat="59.3949916675" lon="5.55207221492">
		<tag k="name" v="Fot" />
		<tag k="natural" v="cape" />
		<tag k="ssr:stedsnr" v="660400" />
	</node>
	<node id="-37335" lat="59.4124194403" lon="5.85281111418">
		<tag k="name" v="Haukalibekken" />
		<tag k="ssr:stedsnr" v="660362" />
		<tag k="waterway" v="stream" />
	</node>
	<node id="-37327" lat="59.3853722248" lon="5.66282499517">
		<tag k="name" v="Yrkjesneset" />
		<tag k="natural" v="cape" />
		<tag k="ssr:stedsnr" v="659807" />
	</node>
	<node id="-37318" lat="59.3441277766" lon="5.82160833723">
		<tag k="name" v="Baustavatnet" />
>>>>>>> e1d4bc35ff8a6074a6f2e91616a996b547c36f15
		<tag k="natural" v="water" />
		<tag k="ssr:stedsnr" v="184024" />
		<tag k="water" v="lake" />
	</node>
<<<<<<< HEAD
	<node lat="59.32121812718105" lon="5.495807372739953" id="-4800">
		<tag k="name" v="Ospeskardtjørna" />
		<tag k="natural" v="water" />
		<tag k="ssr:stedsnr" v="184165" />
	</node>
	<node lat="59.276972219027655" lon="5.6407166633899015" id="-4806">
		<tag k="alt_name" v="Bakkevikvatnet" />
		<tag k="name" v="Bakkavikvatnet" />
=======
	<node id="-37305" lat="59.4322500038" lon="5.53608055457">
		<tag k="name" v="Fiskåbekken" />
		<tag k="ssr:stedsnr" v="427723" />
		<tag k="waterway" v="stream" />
	</node>
	<node id="-37302" lat="59.3996694429" lon="5.86287777027">
		<tag k="alt_name" v="Raubekken" />
		<tag k="name" v="Raudbekken" />
		<tag k="ssr:stedsnr" v="427418" />
		<tag k="waterway" v="stream" />
	</node>
	<node id="-37297" lat="59.4009250012" lon="5.49750833695">
		<tag k="alt_name" v="Longatjørna" />
		<tag k="name" v="Langavatnet" />
>>>>>>> e1d4bc35ff8a6074a6f2e91616a996b547c36f15
		<tag k="natural" v="water" />
		<tag k="ssr:stedsnr" v="184250" />
		<tag k="water" v="lake" />
	</node>
<<<<<<< HEAD
	<node lat="59.479205553667335" lon="5.396658338160332" id="-4810">
		<tag k="name" v="Forneset" />
		<tag k="natural" v="cape" />
		<tag k="ssr:stedsnr" v="184712" />
	</node>
	<node lat="59.352169445123245" lon="5.41058610865102" id="-4822">
		<tag k="name" v="Såttjørna" />
		<tag k="natural" v="water" />
		<tag k="ssr:stedsnr" v="209025" />
	</node>
	<node lat="59.44791388570641" lon="5.415633340266639" id="-4834">
		<tag k="name" v="Litlestemmen" />
=======
	<node id="-37291" lat="59.4069499965" lon="5.565875001">
		<tag k="name" v="Kvednavika" />
		<tag k="natural" v="bay" />
		<tag k="ssr:stedsnr" v="418722" />
	</node>
	<node id="-39334" lat="59.8279125227" lon="9.70560369472">
		<tag k="name" v="Grølla" />
		<tag k="natural" v="water" />
		<tag k="ssr:stedsnr" v="489738" />
		<tag k="water" v="lake" />
	</node>
	<node id="-39317" lat="59.3557388911" lon="5.51616943794">
		<tag k="name" v="Nøkkatjørna" />
>>>>>>> e1d4bc35ff8a6074a6f2e91616a996b547c36f15
		<tag k="natural" v="water" />
		<tag k="ssr:stedsnr" v="208742" />
	</node>
<<<<<<< HEAD
	<node lat="59.40553262387971" lon="5.391212451415797" id="-4836">
		<tag k="name" v="Krossnestjørna" />
		<tag k="natural" v="water" />
		<tag k="ssr:stedsnr" v="209018" />
	</node>
	<node lat="59.32191944238073" lon="5.530449996273749" id="-4843">
		<tag k="name" v="Sandneset" />
=======
	<node id="-37267" lat="59.4353777797" lon="5.62195833469">
		<tag k="name" v="Elvosen" />
		<tag k="natural" v="bay" />
		<tag k="ssr:stedsnr" v="511836" />
	</node>
	<node id="-39310" lat="59.4044777781" lon="5.54065555709">
		<tag k="name" v="Røyraneset" />
>>>>>>> e1d4bc35ff8a6074a6f2e91616a996b547c36f15
		<tag k="natural" v="cape" />
		<tag k="ssr:stedsnr" v="295648" />
	</node>
<<<<<<< HEAD
	<node lat="59.36145278017667" lon="5.664719439199805" id="-4844">
		<tag k="name" v="Litlaelva" />
		<tag k="ssr:stedsnr" v="295664" />
		<tag k="waterway" v="stream" />
	</node>
	<node lat="59.38943888903623" lon="5.814175000921928" id="-4857">
		<tag k="name" v="Fossane" />
		<tag k="ssr:stedsnr" v="296394" />
		<tag k="waterway" v="stream" />
	</node>
	<node lat="59.33496388758034" lon="5.508361107261435" id="-4858">
		<tag k="name" v="Bakkatjørna" />
		<tag k="natural" v="water" />
		<tag k="ssr:stedsnr" v="296641" />
	</node>
	<node lat="59.33126388669822" lon="5.511113893411813" id="-4859">
		<tag k="name" v="Bakkavika" />
		<tag k="natural" v="bay" />
		<tag k="ssr:stedsnr" v="296644" />
	</node>
	<node lat="59.35523611155307" lon="5.533999995336246" id="-4869">
		<tag k="name" v="Stemmevatnet" />
=======
	<node id="-37259" lat="59.4405000038" lon="5.44188610348">
		<tag k="name" v="Kvednahusbekken" />
		<tag k="ssr:stedsnr" v="511710" />
		<tag k="waterway" v="stream" />
	</node>
	<node id="-39303" lat="59.383036108" lon="5.56593610784">
		<tag k="name" v="Skolpeidvågen" />
		<tag k="natural" v="bay" />
		<tag k="ssr:stedsnr" v="963501" />
	</node>
	<node id="-39300" lat="59.391058335" lon="5.54133611851">
		<tag k="name" v="Longaneset" />
		<tag k="natural" v="cape" />
		<tag k="ssr:stedsnr" v="963625" />
	</node>
	<node id="-39288" lat="59.3664055597" lon="5.55870833282">
		<tag k="name" v="Sundet" />
		<tag k="natural" v="strait" />
		<tag k="ssr:stedsnr" v="963175" />
	</node>
	<node id="-37237" lat="59.4089496999" lon="5.40158852767">
		<tag k="name" v="Lomtjørna" />
>>>>>>> e1d4bc35ff8a6074a6f2e91616a996b547c36f15
		<tag k="natural" v="water" />
		<tag k="ssr:stedsnr" v="296899" />
		<tag k="water" v="lake" />
	</node>
<<<<<<< HEAD
	<node lat="59.420208788304464" lon="5.551114108617588" id="-4874">
		<tag k="alt_name" v="Trodlatjørna" />
		<tag k="name" v="Trollatjørna" />
		<tag k="natural" v="water" />
		<tag k="ssr:stedsnr" v="305005" />
	</node>
	<node lat="59.388867480151795" lon="5.616919365624663" id="-4879">
		<tag k="name" v="Slogvikvatnet" />
=======
	<node id="-37228" lat="59.3211583328" lon="5.4192972149">
		<tag k="name" v="Storavatnet" />
>>>>>>> e1d4bc35ff8a6074a6f2e91616a996b547c36f15
		<tag k="natural" v="water" />
		<tag k="ssr:stedsnr" v="305057" />
		<tag k="water" v="lake" />
	</node>
<<<<<<< HEAD
	<node lat="59.347413893044816" lon="5.574041658796953" id="-4881">
		<tag k="name" v="Mjåvatnet" />
=======
	<node id="-37227" lat="59.3160138932" lon="5.4426444376">
		<tag k="alt_name" v="Vadvatnet, nordre;Vadvatnet;nordra Vavatnet" />
		<tag k="name" v="Nordre Vadvatnet" />
>>>>>>> e1d4bc35ff8a6074a6f2e91616a996b547c36f15
		<tag k="natural" v="water" />
		<tag k="ssr:stedsnr" v="305133" />
		<tag k="water" v="lake" />
	</node>
<<<<<<< HEAD
	<node lat="59.324199999854244" lon="5.520941675453984" id="-4882">
		<tag k="alt_name" v="Hålandsøya" />
		<tag k="name" v="Hålandsøyna" />
		<tag k="place" v="island" />
		<tag k="ssr:stedsnr" v="305156" />
	</node>
	<node lat="59.35587778060694" lon="5.401422215893939" id="-4888">
		<tag k="name" v="Lindevatnet" />
=======
	<node id="-37225" lat="59.4942500008" lon="5.43148334169">
		<tag k="name" v="Husavatnet" />
>>>>>>> e1d4bc35ff8a6074a6f2e91616a996b547c36f15
		<tag k="natural" v="water" />
		<tag k="ssr:stedsnr" v="305553" />
		<tag k="water" v="lake" />
	</node>
<<<<<<< HEAD
	<node lat="59.40847777731349" lon="5.503197219161604" id="-4892">
		<tag k="name" v="Amdalsvatnet" />
=======
	<node id="-37224" lat="59.4955750027" lon="5.4427000064">
		<tag k="name" v="Rotatjørna" />
>>>>>>> e1d4bc35ff8a6074a6f2e91616a996b547c36f15
		<tag k="natural" v="water" />
		<tag k="ssr:stedsnr" v="306045" />
		<tag k="water" v="lake" />
	</node>
<<<<<<< HEAD
	<node lat="59.39911389261329" lon="5.571299991983175" id="-4893">
		<tag k="name" v="Svinaliholmen" />
		<tag k="place" v="islet" />
		<tag k="ssr:stedsnr" v="306086" />
	</node>
	<node lat="59.40454999729216" lon="5.734330563218039" id="-4894">
		<tag k="name" v="Sagelva" />
		<tag k="ssr:stedsnr" v="306091" />
		<tag k="waterway" v="stream" />
	</node>
	<node lat="59.48130832940289" lon="5.40811110808551" id="-4905">
		<tag k="name" v="Sandbotnen" />
		<tag k="natural" v="bay" />
		<tag k="ssr:stedsnr" v="306696" />
	</node>
	<node lat="59.413994441445375" lon="5.391363893882511" id="-4921">
		<tag k="name" v="Napatjørna" />
=======
	<node id="-37218" lat="59.2914416671" lon="5.52903333557">
		<tag k="name" v="Årvikelva" />
		<tag k="ssr:stedsnr" v="488199" />
		<tag k="waterway" v="stream" />
	</node>
	<node id="-37216" lat="59.3487027753" lon="5.55305833859">
		<tag k="alt_name" v="Fleskaflåtjørna" />
		<tag k="name" v="Svartatjørna" />
		<tag k="natural" v="water" />
		<tag k="ssr:stedsnr" v="488131" />
	</node>
	<node id="-39262" lat="59.3079641543" lon="5.41823137229">
		<tag k="alt_name" v="Gismarvikstemmen" />
		<tag k="name" v="Gismarviktjørna" />
>>>>>>> e1d4bc35ff8a6074a6f2e91616a996b547c36f15
		<tag k="natural" v="water" />
		<tag k="ssr:stedsnr" v="330011" />
	</node>
<<<<<<< HEAD
	<node lat="59.33669999644059" lon="5.418830552250461" id="-4925">
		<tag k="name" v="Vassbotnen" />
		<tag k="natural" v="bay" />
		<tag k="ssr:stedsnr" v="330032" />
	</node>
	<node lat="59.393038890677595" lon="5.775638885436866" id="-4949">
		<tag k="name" v="Kuneset" />
		<tag k="natural" v="cape" />
		<tag k="ssr:stedsnr" v="356084" />
	</node>
	<node lat="59.332416670898645" lon="5.603311109368205" id="-4957">
		<tag k="name" v="Skarpaneset" />
		<tag k="natural" v="cape" />
		<tag k="ssr:stedsnr" v="356603" />
	</node>
	<node lat="59.34340654008418" lon="5.5796889633817655" id="-4971">
		<tag k="name" v="Småtjørnene" />
=======
	<node id="-39261" lat="59.3034805547" lon="5.4327166712">
		<tag k="name" v="Foretjørna" />
		<tag k="natural" v="water" />
		<tag k="ssr:stedsnr" v="852929" />
	</node>
	<node id="-39260" lat="59.2996952675" lon="5.44445179537">
		<tag k="name" v="Labbavatnet" />
		<tag k="natural" v="water" />
		<tag k="ssr:stedsnr" v="852928" />
		<tag k="water" v="lake" />
	</node>
	<node id="-37209" lat="59.3324861087" lon="5.40241666126">
		<tag k="alt_name" v="Longavatn" />
		<tag k="name" v="Langavatnet" />
		<tag k="natural" v="water" />
		<tag k="ssr:stedsnr" v="487984" />
		<tag k="water" v="lake" />
	</node>
	<node id="-37206" lat="59.411169441" lon="5.46581666349">
		<tag k="name" v="Fuglavatnet" />
>>>>>>> e1d4bc35ff8a6074a6f2e91616a996b547c36f15
		<tag k="natural" v="water" />
		<tag k="ssr:stedsnr" v="356966" />
		<tag k="water" v="lake" />
	</node>
<<<<<<< HEAD
	<node lat="59.3562768631693" lon="5.561723541703498" id="-4972">
		<tag k="name" v="Løypetjørna" />
=======
	<node id="-37203" lat="59.3628583336" lon="5.4129611026">
		<tag k="alt_name" v="nordra Tveitatjørna" />
		<tag k="name" v="Tveitatjørna" />
>>>>>>> e1d4bc35ff8a6074a6f2e91616a996b547c36f15
		<tag k="natural" v="water" />
		<tag k="ssr:stedsnr" v="356969" />
	</node>
<<<<<<< HEAD
	<node lat="59.42169722313819" lon="5.392027781943933" id="-4981">
		<tag k="name" v="Førrestjørna" />
=======
	<node id="-39248" lat="59.4028055543" lon="5.79888889562">
		<tag k="alt_name" v="Håvaltjørna" />
		<tag k="name" v="Faralitjørna" />
>>>>>>> e1d4bc35ff8a6074a6f2e91616a996b547c36f15
		<tag k="natural" v="water" />
		<tag k="ssr:stedsnr" v="365618" />
	</node>
<<<<<<< HEAD
	<node lat="59.40949444180043" lon="5.421302785428068" id="-4982">
		<tag k="name" v="Aksdalsvatnet" />
=======
	<node id="-39245" lat="59.4130635238" lon="5.82506187526">
		<tag k="alt_name" v="Kråkvatnet" />
		<tag k="name" v="Kråkevatnet" />
>>>>>>> e1d4bc35ff8a6074a6f2e91616a996b547c36f15
		<tag k="natural" v="water" />
		<tag k="ssr:stedsnr" v="365634" />
		<tag k="water" v="lake" />
	</node>
<<<<<<< HEAD
	<node lat="59.43362305383974" lon="5.678703689243257" id="-4987">
		<tag k="alt_name" v="Rossavatnet" />
		<tag k="name" v="Rossvatnet" />
=======
	<node id="-39244" lat="59.4099249978" lon="5.59123611993">
		<tag k="name" v="Romsalandsvågen" />
		<tag k="natural" v="bay" />
		<tag k="ssr:stedsnr" v="852039" />
	</node>
	<node id="-37188" lat="59.3927534719" lon="5.61064916332">
		<tag k="name" v="Løndalsvatnet" />
>>>>>>> e1d4bc35ff8a6074a6f2e91616a996b547c36f15
		<tag k="natural" v="water" />
		<tag k="ssr:stedsnr" v="366014" />
		<tag k="water" v="lake" />
	</node>
<<<<<<< HEAD
	<node lat="59.363163890270016" lon="5.590880548797253" id="-4991">
		<tag k="alt_name" v="Kallakotvatnet" />
		<tag k="name" v="Kaldakotvatnet" />
=======
	<node id="-37185" lat="59.4139944414" lon="5.39136389388">
		<tag k="name" v="Napatjørna" />
>>>>>>> e1d4bc35ff8a6074a6f2e91616a996b547c36f15
		<tag k="natural" v="water" />
		<tag k="ssr:stedsnr" v="366093" />
		<tag k="water" v="lake" />
	</node>
<<<<<<< HEAD
	<node lat="59.37653611538115" lon="5.602244447274334" id="-4992">
		<tag k="name" v="Husavatnet" />
=======
	<node id="-37182" lat="59.4417055543" lon="5.44874444625">
		<tag k="name" v="Småtjørna" />
>>>>>>> e1d4bc35ff8a6074a6f2e91616a996b547c36f15
		<tag k="natural" v="water" />
		<tag k="ssr:stedsnr" v="366098" />
		<tag k="water" v="lake" />
	</node>
<<<<<<< HEAD
	<node lat="59.379143793470256" lon="5.576759425704665" id="-4994">
		<tag k="alt_name" v="Gåsvatnet" />
		<tag k="name" v="Gåsavatnet" />
		<tag k="natural" v="water" />
		<tag k="ssr:stedsnr" v="366104" />
		<tag k="water" v="lake" />
	</node>
	<node lat="59.28365555307028" lon="5.493008332659693" id="-4996">
		<tag k="name" v="Sandvikvatnet" />
		<tag k="natural" v="water" />
		<tag k="ssr:stedsnr" v="366224" />
		<tag k="water" v="lake" />
	</node>
	<node lat="59.39621110993197" lon="5.6578583356641605" id="-4997">
		<tag k="name" v="Oksatjørna" />
		<tag k="natural" v="water" />
		<tag k="ssr:stedsnr" v="366075" />
	</node>
	<node lat="59.355500942836024" lon="5.590092834603004" id="-4998">
		<tag k="alt_name" v="Kodnetjørna" />
		<tag k="name" v="Konetjørna" />
		<tag k="natural" v="water" />
		<tag k="ssr:stedsnr" v="366132" />
	</node>
	<node lat="59.346927773503275" lon="5.477186117215604" id="-5001">
		<tag k="name" v="Gjerdesvatnet" />
=======
	<node id="-39227" lat="59.3861138868" lon="5.5982888848">
		<tag k="name" v="Hesthammartjørna" />
		<tag k="natural" v="water" />
		<tag k="ssr:stedsnr" v="842467" />
	</node>
	<node id="-39226" lat="59.3916333352" lon="5.5301416649">
		<tag k="name" v="Djupavika" />
		<tag k="natural" v="bay" />
		<tag k="ssr:stedsnr" v="842583" />
	</node>
	<node id="-39224" lat="59.3943638866" lon="5.60722500482">
		<tag k="name" v="Slettebakktjørna" />
		<tag k="natural" v="water" />
		<tag k="ssr:stedsnr" v="842381" />
	</node>
	<node id="-37174" lat="59.46807222" lon="5.39244999465">
		<tag k="name" v="Raugavika" />
		<tag k="natural" v="bay" />
		<tag k="ssr:stedsnr" v="329305" />
	</node>
	<node id="-39221" lat="59.3781472244" lon="5.56114721766">
		<tag k="name" v="Lektavika" />
		<tag k="natural" v="bay" />
		<tag k="ssr:stedsnr" v="842141" />
	</node>
	<node id="-39212" lat="59.3624194408" lon="5.66886665907">
		<tag k="name" v="Storaelva" />
		<tag k="ssr:stedsnr" v="841629" />
		<tag k="waterway" v="river" />
	</node>
	<node id="-37255" lat="59.4177555516" lon="5.43599445112">
		<tag k="name" v="Butongjen" />
		<tag k="natural" v="cape" />
		<tag k="ssr:stedsnr" v="511674" />
	</node>
	<node id="-37160" lat="59.3920833315" lon="5.54401667029">
		<tag k="name" v="Longenesvika" />
		<tag k="natural" v="bay" />
		<tag k="ssr:stedsnr" v="478583" />
	</node>
	<node id="-37138" lat="59.3911944425" lon="5.57231666942">
		<tag k="name" v="Svartevågen" />
		<tag k="natural" v="bay" />
		<tag k="ssr:stedsnr" v="296426" />
	</node>
	<node id="-37136" lat="59.4620194487" lon="5.5679500072">
		<tag k="name" v="Neseimstjørna" />
>>>>>>> e1d4bc35ff8a6074a6f2e91616a996b547c36f15
		<tag k="natural" v="water" />
		<tag k="ssr:stedsnr" v="366147" />
		<tag k="water" v="lake" />
	</node>
<<<<<<< HEAD
	<node lat="59.46158888619753" lon="5.382455552769283" id="-5008">
		<tag k="name" v="Dyrneset" />
		<tag k="natural" v="cape" />
		<tag k="ssr:stedsnr" v="366664" />
	</node>
	<node lat="59.451308645387236" lon="5.653765723505054" id="-5011">
		<tag k="name" v="Grasdalsvatnet" />
=======
	<node id="-37135" lat="59.4445336452" lon="5.55673335067">
		<tag k="name" v="Steinbruvatnet" />
>>>>>>> e1d4bc35ff8a6074a6f2e91616a996b547c36f15
		<tag k="natural" v="water" />
		<tag k="ssr:stedsnr" v="366762" />
		<tag k="water" v="lake" />
	</node>
<<<<<<< HEAD
	<node lat="59.40894969990621" lon="5.401588527672747" id="-5022">
		<tag k="name" v="Lomtjørna" />
		<tag k="natural" v="water" />
		<tag k="ssr:stedsnr" v="390023" />
	</node>
	<node lat="59.40393645420061" lon="5.400316396896978" id="-5023">
		<tag k="name" v="Storetjørna" />
=======
	<node id="-37131" lat="59.4170222209" lon="5.45027777741">
		<tag k="name" v="Aksdalselva" />
		<tag k="ssr:stedsnr" v="269726" />
		<tag k="waterway" v="river" />
	</node>
	<node id="-37130" lat="59.3510940829" lon="5.43685244805">
		<tag k="name" v="Iglatjørna" />
>>>>>>> e1d4bc35ff8a6074a6f2e91616a996b547c36f15
		<tag k="natural" v="water" />
		<tag k="ssr:stedsnr" v="390025" />
	</node>
<<<<<<< HEAD
	<node lat="59.469466666926586" lon="5.436386112845934" id="-5025">
		<tag k="name" v="Badnatjørna" />
=======
	<node id="-39174" lat="59.3238722236" lon="5.43656111692">
		<tag k="alt_name" v="Storavatnet" />
		<tag k="name" v="Stemmavatnet" />
>>>>>>> e1d4bc35ff8a6074a6f2e91616a996b547c36f15
		<tag k="natural" v="water" />
		<tag k="ssr:stedsnr" v="390280" />
	</node>
<<<<<<< HEAD
	<node lat="59.35886944606289" lon="5.557819444198066" id="-5055">
		<tag k="name" v="Skjenbekken" />
		<tag k="ssr:stedsnr" v="417175" />
		<tag k="waterway" v="stream" />
	</node>
	<node lat="59.382808333836266" lon="5.799950005172889" id="-5060">
		<tag k="name" v="Stølestemmen" />
=======
	<node id="-39161" lat="59.3538442096" lon="5.76504193653">
		<tag k="name" v="Skorpevatnet" />
>>>>>>> e1d4bc35ff8a6074a6f2e91616a996b547c36f15
		<tag k="natural" v="water" />
		<tag k="ssr:stedsnr" v="417475" />
	</node>
<<<<<<< HEAD
	<node lat="59.38402777855379" lon="5.661213890466781" id="-5065">
		<tag k="name" v="Paradisholmen" />
		<tag k="place" v="islet" />
		<tag k="ssr:stedsnr" v="417812" />
	</node>
	<node lat="59.406949996497325" lon="5.565875001003517" id="-5079">
		<tag k="name" v="Kvednavika" />
		<tag k="natural" v="bay" />
		<tag k="ssr:stedsnr" v="418722" />
	</node>
	<node lat="59.37421944907338" lon="5.4204805636613145" id="-5083">
		<tag k="name" v="Katteidtjørna" />
=======
	<node id="-39159" lat="59.3586249989" lon="5.51706388022">
		<tag k="alt_name" v="Kroktjørna" />
		<tag k="name" v="Krokatjørna" />
>>>>>>> e1d4bc35ff8a6074a6f2e91616a996b547c36f15
		<tag k="natural" v="water" />
		<tag k="ssr:stedsnr" v="426525" />
	</node>
<<<<<<< HEAD
	<node lat="59.39966944292126" lon="5.862877770273568" id="-5094">
		<tag k="alt_name" v="Raubekken" />
		<tag k="name" v="Raudbekken" />
		<tag k="ssr:stedsnr" v="427418" />
		<tag k="waterway" v="stream" />
	</node>
	<node lat="59.400925001192455" lon="5.497508336950354" id="-5096">
		<tag k="alt_name" v="Longatjørna" />
		<tag k="name" v="Langavatnet" />
=======
	<node id="-39158" lat="59.3599883993" lon="5.50165919894">
		<tag k="name" v="Ådnavatnet" />
>>>>>>> e1d4bc35ff8a6074a6f2e91616a996b547c36f15
		<tag k="natural" v="water" />
		<tag k="ssr:stedsnr" v="427037" />
		<tag k="water" v="lake" />
	</node>
<<<<<<< HEAD
	<node lat="59.424362603937695" lon="5.81499169852267" id="-5100">
		<tag k="alt_name" v="Dokkskarvatnet" />
		<tag k="name" v="Dokkskardvatnet" />
=======
	<node id="-39157" lat="59.3776267018" lon="5.77946601547">
		<tag k="name" v="Lysevatnet" />
>>>>>>> e1d4bc35ff8a6074a6f2e91616a996b547c36f15
		<tag k="natural" v="water" />
		<tag k="ssr:stedsnr" v="427061" />
		<tag k="water" v="lake" />
	</node>
<<<<<<< HEAD
	<node lat="59.36378889122227" lon="5.4852277779487695" id="-5103">
		<tag k="name" v="Høyvikvatnet" />
=======
	<node id="-39154" lat="59.4046027819" lon="5.79376110242">
		<tag k="name" v="Svartavatnet" />
>>>>>>> e1d4bc35ff8a6074a6f2e91616a996b547c36f15
		<tag k="natural" v="water" />
		<tag k="ssr:stedsnr" v="427126" />
		<tag k="water" v="lake" />
	</node>
<<<<<<< HEAD
	<node lat="59.37236666891472" lon="5.7271777737174405" id="-5104">
		<tag k="alt_name" v="Bjødlandstemmen" />
		<tag k="name" v="Bjøllandstemmen" />
=======
	<node id="-39152" lat="59.3860606157" lon="5.55210406696">
		<tag k="alt_name" v="Fotatånstjørna" />
		<tag k="name" v="Iglatjørna" />
>>>>>>> e1d4bc35ff8a6074a6f2e91616a996b547c36f15
		<tag k="natural" v="water" />
		<tag k="ssr:stedsnr" v="427127" />
	</node>
<<<<<<< HEAD
	<node lat="59.35064726693384" lon="5.508904083315761" id="-5106">
		<tag k="alt_name" v="Løningsvatnet" />
		<tag k="name" v="Løyningsvatnet" />
=======
	<node id="-37099" lat="59.490283333" lon="5.453144446">
		<tag k="name" v="Skjenåsvatnet" />
>>>>>>> e1d4bc35ff8a6074a6f2e91616a996b547c36f15
		<tag k="natural" v="water" />
		<tag k="ssr:stedsnr" v="427150" />
		<tag k="water" v="lake" />
	</node>
<<<<<<< HEAD
	<node lat="59.37672657445399" lon="5.5553084604404726" id="-5114">
=======
	<node id="-36903" lat="59.3268555602" lon="5.53248056285">
		<tag k="name" v="Longanessundet" />
		<tag k="natural" v="strait" />
		<tag k="ssr:stedsnr" v="53672" />
	</node>
	<node id="-39142" lat="59.3157676977" lon="5.52071303035">
		<tag k="alt_name" v="Storevatnet" />
>>>>>>> e1d4bc35ff8a6074a6f2e91616a996b547c36f15
		<tag k="name" v="Storavatnet" />
		<tag k="natural" v="water" />
		<tag k="ssr:stedsnr" v="428600" />
		<tag k="water" v="lake" />
	</node>
<<<<<<< HEAD
	<node lat="59.417755551632474" lon="5.435994451121775" id="-5131">
		<tag k="name" v="Butongjen" />
		<tag k="natural" v="cape" />
		<tag k="ssr:stedsnr" v="511674" />
	</node>
	<node lat="59.435377779668215" lon="5.621958334690143" id="-5133">
		<tag k="name" v="Elvosen" />
		<tag k="natural" v="bay" />
		<tag k="ssr:stedsnr" v="511836" />
	</node>
	<node lat="59.40774444888059" lon="5.409008338718316" id="-5135">
		<tag k="name" v="Skjenet" />
=======
	<node id="-39140" lat="59.3501555593" lon="5.7449611077">
		<tag k="name" v="Muslandtjørna" />
		<tag k="natural" v="water" />
		<tag k="ssr:stedsnr" v="791185" />
	</node>
	<node id="-37088" lat="59.3829777758" lon="5.78414166117">
		<tag k="name" v="Amdalselva" />
		<tag k="ssr:stedsnr" v="245114" />
		<tag k="waterway" v="stream" />
	</node>
	<node id="-37084" lat="59.4307665209" lon="5.6935419948">
		<tag k="alt_name" v="Rongalivatnet" />
		<tag k="name" v="Rognvalivatnet" />
		<tag k="natural" v="water" />
		<tag k="ssr:stedsnr" v="245011" />
	</node>
	<node id="-37083" lat="59.4098472212" lon="5.43367499593">
		<tag k="alt_name" v="Eikjeskogneset" />
		<tag k="name" v="Neset" />
>>>>>>> e1d4bc35ff8a6074a6f2e91616a996b547c36f15
		<tag k="natural" v="cape" />
		<tag k="ssr:stedsnr" v="512025" />
	</node>
<<<<<<< HEAD
	<node lat="59.35030555122919" lon="5.419116667657127" id="-5136">
		<tag k="name" v="Revurstjørna" />
=======
	<node id="-37079" lat="59.3900500001" lon="5.44573611363">
		<tag k="alt_name" v="Ronviktjørna" />
		<tag k="name" v="Ronnviktjørna" />
>>>>>>> e1d4bc35ff8a6074a6f2e91616a996b547c36f15
		<tag k="natural" v="water" />
		<tag k="ssr:stedsnr" v="512030" />
	</node>
<<<<<<< HEAD
	<node lat="59.38971944665928" lon="5.776288882930679" id="-5155">
		<tag k="name" v="Ramsvika" />
		<tag k="natural" v="bay" />
		<tag k="ssr:stedsnr" v="538099" />
	</node>
	<node lat="59.36275555214207" lon="5.587672231342603" id="-5157">
		<tag k="name" v="Rundatjørna" />
=======
	<node id="-37076" lat="59.4339527814" lon="5.62659999842">
		<tag k="name" v="Dalselva" />
		<tag k="ssr:stedsnr" v="236906" />
		<tag k="waterway" v="river" />
	</node>
	<node id="-37073" lat="59.3313166677" lon="5.69400833717">
		<tag k="name" v="Ringstveitvatnet" />
>>>>>>> e1d4bc35ff8a6074a6f2e91616a996b547c36f15
		<tag k="natural" v="water" />
		<tag k="ssr:stedsnr" v="538176" />
	</node>
<<<<<<< HEAD
	<node lat="59.33013610739317" lon="5.521413884827965" id="-5170">
		<tag k="name" v="Sandvika" />
		<tag k="natural" v="bay" />
		<tag k="ssr:stedsnr" v="538654" />
	</node>
	<node lat="59.38454444844387" lon="5.567580562916219" id="-5181">
		<tag k="name" v="Skolpeid" />
		<tag k="place" v="locality" />
		<tag k="ssr:stedsnr" v="539413" />
	</node>
	<node lat="59.438844446509485" lon="5.57114722872751" id="-5184">
		<tag k="name" v="Indre Vatlandsvatnet" />
		<tag k="natural" v="bay" />
		<tag k="ssr:stedsnr" v="539458" />
	</node>
	<node lat="59.31824444029634" lon="5.4918583361758" id="-5188">
		<tag k="name" v="Djupdalstjørna" />
=======
	<node id="-39119" lat="59.3719111086" lon="5.64261111016">
		<tag k="name" v="Sandviksundet" />
		<tag k="natural" v="strait" />
		<tag k="ssr:stedsnr" v="781969" />
	</node>
	<node id="-39116" lat="59.3428339409" lon="5.51882828312">
		<tag k="name" v="Bringedalsvatnet" />
		<tag k="natural" v="water" />
		<tag k="ssr:stedsnr" v="781920" />
		<tag k="water" v="lake" />
	</node>
	<node id="-37067" lat="59.3521694451" lon="5.41058610865">
		<tag k="name" v="Såttjørna" />
>>>>>>> e1d4bc35ff8a6074a6f2e91616a996b547c36f15
		<tag k="natural" v="water" />
		<tag k="ssr:stedsnr" v="539639" />
	</node>
<<<<<<< HEAD
	<node lat="59.34513889045784" lon="5.4047694499568255" id="-5195">
		<tag k="name" v="Steinsvatnet" />
=======
	<node id="-37066" lat="59.4055326239" lon="5.39121245142">
		<tag k="name" v="Krossnestjørna" />
>>>>>>> e1d4bc35ff8a6074a6f2e91616a996b547c36f15
		<tag k="natural" v="water" />
		<tag k="ssr:stedsnr" v="547557" />
	</node>
<<<<<<< HEAD
	<node lat="59.384922219361336" lon="5.438438889939311" id="-5196">
		<tag k="name" v="Guritjørna" />
=======
	<node id="-37063" lat="59.3789138929" lon="5.41673055399">
		<tag k="name" v="Såttjørn" />
>>>>>>> e1d4bc35ff8a6074a6f2e91616a996b547c36f15
		<tag k="natural" v="water" />
		<tag k="ssr:stedsnr" v="547637" />
	</node>
<<<<<<< HEAD
	<node lat="59.419071248441256" lon="5.68861525898037" id="-5203">
		<tag k="name" v="Måvatnet" />
=======
	<node id="-37060" lat="59.3552361116" lon="5.53399999534">
		<tag k="name" v="Stemmevatnet" />
>>>>>>> e1d4bc35ff8a6074a6f2e91616a996b547c36f15
		<tag k="natural" v="water" />
		<tag k="ssr:stedsnr" v="548058" />
		<tag k="water" v="lake" />
	</node>
<<<<<<< HEAD
	<node lat="59.325208587246145" lon="5.503521884816432" id="-5204">
		<tag k="name" v="Salttjørna" />
=======
	<node id="-37053" lat="59.4129166702" lon="5.55627777862">
		<tag k="name" v="Gamlestemmen" />
>>>>>>> e1d4bc35ff8a6074a6f2e91616a996b547c36f15
		<tag k="natural" v="water" />
		<tag k="ssr:stedsnr" v="548161" />
	</node>
<<<<<<< HEAD
	<node lat="59.3287750041627" lon="5.473927782377137" id="-5208">
		<tag k="name" v="Tinndalsvatnet" />
		<tag k="natural" v="water" />
		<tag k="ssr:stedsnr" v="548184" />
		<tag k="water" v="lake" />
	</node>
	<node lat="59.31910000127028" lon="5.540313884788072" id="-5211">
		<tag k="name" v="Åsatjørna" />
=======
	<node id="-39098" lat="59.3322361137" lon="5.57546666749">
		<tag k="name" v="Sandspøyla" />
		<tag k="natural" v="water" />
		<tag k="ssr:stedsnr" v="781726" />
	</node>
	<node id="-37047" lat="59.3312638867" lon="5.51111389341">
		<tag k="name" v="Bakkavika" />
		<tag k="natural" v="bay" />
		<tag k="ssr:stedsnr" v="296644" />
	</node>
	<node id="-37046" lat="59.3349638876" lon="5.50836110726">
		<tag k="name" v="Bakkatjørna" />
>>>>>>> e1d4bc35ff8a6074a6f2e91616a996b547c36f15
		<tag k="natural" v="water" />
		<tag k="ssr:stedsnr" v="548225" />
	</node>
<<<<<<< HEAD
	<node lat="59.47238288924462" lon="5.484850949633544" id="-5216">
		<tag k="alt_name" v="Tveitestemmen" />
		<tag k="name" v="Tveitstemmen" />
		<tag k="natural" v="water" />
		<tag k="ssr:stedsnr" v="548847" />
	</node>
	<node lat="59.35050555233898" lon="5.431511118875217" id="-5236">
		<tag k="name" v="Stemmen" />
		<tag k="natural" v="water" />
		<tag k="ssr:stedsnr" v="572025" />
	</node>
	<node lat="59.364913885043954" lon="5.733325002595191" id="-5253">
		<tag k="name" v="Bjødlandselva" />
		<tag k="ssr:stedsnr" v="598369" />
		<tag k="waterway" v="river" />
	</node>
	<node lat="59.32876389102415" lon="5.538388891812079" id="-5257">
		<tag k="name" v="Kalvaneset" />
=======
	<node id="-39093" lat="59.3057944429" lon="5.52569722747">
		<tag k="name" v="Lammaneset" />
		<tag k="natural" v="cape" />
		<tag k="ssr:stedsnr" v="781621" />
	</node>
	<node id="-37042" lat="59.389438889" lon="5.81417500092">
		<tag k="name" v="Fossane" />
		<tag k="ssr:stedsnr" v="296394" />
		<tag k="waterway" v="stream" />
	</node>
	<node id="-39078" lat="59.3617138875" lon="5.55728334203">
		<tag k="name" v="Skjenet" />
		<tag k="natural" v="cape" />
		<tag k="ssr:stedsnr" v="781175" />
	</node>
	<node id="-39077" lat="59.3677055571" lon="5.5609361134">
		<tag k="name" v="Gauteneset" />
>>>>>>> e1d4bc35ff8a6074a6f2e91616a996b547c36f15
		<tag k="natural" v="cape" />
		<tag k="ssr:stedsnr" v="598632" />
	</node>
<<<<<<< HEAD
	<node lat="59.43641944280651" lon="5.573950005688709" id="-5274">
		<tag k="name" v="Sandåna" />
		<tag k="ssr:stedsnr" v="599494" />
		<tag k="waterway" v="stream" />
	</node>
	<node lat="59.40765555163849" lon="5.572205557070583" id="-5282">
		<tag k="name" v="Storeklubben" />
		<tag k="natural" v="cape" />
		<tag k="ssr:stedsnr" v="599739" />
	</node>
	<node lat="59.43883333476348" lon="5.440733332602349" id="-5303">
		<tag k="name" v="Fiskevatnet" />
=======
	<node id="-37026" lat="59.3614527802" lon="5.6647194392">
		<tag k="name" v="Litlaelva" />
		<tag k="ssr:stedsnr" v="295664" />
		<tag k="waterway" v="stream" />
	</node>
	<node id="-37025" lat="59.3219194424" lon="5.53044999627">
		<tag k="name" v="Sandneset" />
		<tag k="natural" v="cape" />
		<tag k="ssr:stedsnr" v="295648" />
	</node>
	<node id="-39066" lat="59.3642138918" lon="5.66064444369">
		<tag k="name" v="Sandviktjørna" />
		<tag k="natural" v="water" />
		<tag k="ssr:stedsnr" v="780534" />
	</node>
	<node id="-37010" lat="59.4060034328" lon="5.54022086666">
		<tag k="name" v="Husavatnet" />
		<tag k="natural" v="water" />
		<tag k="ssr:stedsnr" v="184024" />
		<tag k="water" v="lake" />
	</node>
	<node id="-39055" lat="59.3313722186" lon="5.40632777785">
		<tag k="name" v="Steinsvatnet" />
>>>>>>> e1d4bc35ff8a6074a6f2e91616a996b547c36f15
		<tag k="natural" v="water" />
		<tag k="ssr:stedsnr" v="608663" />
		<tag k="water" v="lake" />
	</node>
<<<<<<< HEAD
	<node lat="59.41776110931026" lon="5.8117888924021734" id="-5311">
		<tag k="name" v="Kråkvasselva" />
		<tag k="ssr:stedsnr" v="609060" />
		<tag k="waterway" v="stream" />
	</node>
	<node lat="59.314423854310924" lon="5.430481321589834" id="-5314">
		<tag k="name" v="Skiftestjørna" />
=======
	<node id="-37005" lat="59.3897527779" lon="5.82087777036">
		<tag k="name" v="Kvassteinbekken" />
		<tag k="ssr:stedsnr" v="174509" />
		<tag k="waterway" v="stream" />
	</node>
	<node id="-39046" lat="59.4162166625" lon="5.46143333646">
		<tag k="name" v="Uraklubben" />
		<tag k="natural" v="cape" />
		<tag k="ssr:stedsnr" v="754715" />
	</node>
	<node id="-39045" lat="59.3797555576" lon="5.44391110895">
		<tag k="name" v="Litlastakktjørna" />
>>>>>>> e1d4bc35ff8a6074a6f2e91616a996b547c36f15
		<tag k="natural" v="water" />
		<tag k="ssr:stedsnr" v="609963" />
	</node>
<<<<<<< HEAD
	<node lat="59.38250277743787" lon="5.656450004996882" id="-5317">
		<tag k="name" v="Søre Vassenden" />
=======
	<node id="-36991" lat="59.4714305517" lon="5.39697778076">
		<tag k="name" v="Markavika" />
>>>>>>> e1d4bc35ff8a6074a6f2e91616a996b547c36f15
		<tag k="natural" v="bay" />
		<tag k="ssr:stedsnr" v="611301" />
	</node>
<<<<<<< HEAD
	<node lat="59.35436111184847" lon="5.486519441695146" id="-5334">
		<tag k="name" v="Klubben" />
		<tag k="natural" v="cape" />
		<tag k="ssr:stedsnr" v="632668" />
	</node>
	<node lat="59.369513884717634" lon="5.444308326953991" id="-5336">
		<tag k="name" v="Krokatjørna" />
=======
	<node id="-36977" lat="59.3722555513" lon="5.40762777466">
		<tag k="name" v="Rasmusneset" />
		<tag k="natural" v="cape" />
		<tag k="ssr:stedsnr" v="269036" />
	</node>
	<node id="-36976" lat="59.3562611078" lon="5.42963055587">
		<tag k="name" v="Rundahola" />
		<tag k="natural" v="water" />
		<tag k="ssr:stedsnr" v="269016" />
	</node>
	<node id="-39016" lat="59.4305194435" lon="5.43905277455">
		<tag k="name" v="Nutatjørna" />
>>>>>>> e1d4bc35ff8a6074a6f2e91616a996b547c36f15
		<tag k="natural" v="water" />
		<tag k="ssr:stedsnr" v="633025" />
	</node>
<<<<<<< HEAD
	<node lat="59.344127776579086" lon="5.821608337230375" id="-5356">
		<tag k="name" v="Baustavatnet" />
=======
	<node id="-39015" lat="59.4309373744" lon="5.47293677702">
		<tag k="name" v="Nordavatnet" />
>>>>>>> e1d4bc35ff8a6074a6f2e91616a996b547c36f15
		<tag k="natural" v="water" />
		<tag k="ssr:stedsnr" v="659156" />
		<tag k="water" v="lake" />
	</node>
<<<<<<< HEAD
	<node lat="59.35198611433588" lon="5.717391674252002" id="-5357">
		<tag k="loc_name" v="Vassbotnen" />
		<tag k="name" v="Hustopttjørna" />
		<tag k="natural" v="water" />
		<tag k="ssr:stedsnr" v="659268" />
	</node>
	<node lat="59.38911944059044" lon="5.7877083312342466" id="-5371">
		<tag k="name" v="Tverrelva" />
		<tag k="ssr:stedsnr" v="660068" />
		<tag k="waterway" v="river" />
	</node>
	<node lat="59.41241944033415" lon="5.8528111141849095" id="-5374">
		<tag k="name" v="Haukalibekken" />
		<tag k="ssr:stedsnr" v="660362" />
		<tag k="waterway" v="stream" />
	</node>
	<node lat="59.38285833175004" lon="5.793475008505017" id="-5382">
		<tag k="name" v="Rongavatnet" />
=======
	<node id="-39005" lat="59.3825027774" lon="5.656450005">
		<tag k="name" v="Søre Vassenden" />
		<tag k="natural" v="bay" />
		<tag k="ssr:stedsnr" v="611301" />
	</node>
	<node id="-36954" lat="59.3836444477" lon="5.76469167292">
		<tag k="name" v="Grautåna" />
		<tag k="ssr:stedsnr" v="114005" />
		<tag k="waterway" v="stream" />
	</node>
	<node id="-36949" lat="59.4262777807" lon="5.44715833984">
		<tag k="name" v="Migan" />
		<tag k="ssr:stedsnr" v="87735" />
		<tag k="waterway" v="stream" />
	</node>
	<node id="-38996" lat="59.4042583374" lon="5.82781110917">
		<tag k="name" v="Vesterlivatnet" />
>>>>>>> e1d4bc35ff8a6074a6f2e91616a996b547c36f15
		<tag k="natural" v="water" />
		<tag k="ssr:stedsnr" v="669103" />
		<tag k="water" v="lake" />
	</node>
<<<<<<< HEAD
	<node lat="59.44859166667055" lon="5.647691673066361" id="-5395">
		<tag k="name" v="Salttjørna" />
=======
	<node id="-38995" lat="59.3958388887" lon="5.66362500177">
		<tag k="alt_name" v="Gjerdestjørna" />
		<tag k="name" v="Gjerdetjørna" />
		<tag k="natural" v="water" />
		<tag k="ssr:stedsnr" v="609087" />
	</node>
	<node id="-38994" lat="59.3926235227" lon="5.59890305705">
		<tag k="name" v="Holmavatnet" />
>>>>>>> e1d4bc35ff8a6074a6f2e91616a996b547c36f15
		<tag k="natural" v="water" />
		<tag k="ssr:stedsnr" v="670751" />
	</node>
<<<<<<< HEAD
	<node lat="59.36250833396902" lon="5.67045278489278" id="-5407">
		<tag k="name" v="Bordalsbekken" />
		<tag k="ssr:stedsnr" v="670157" />
		<tag k="waterway" v="stream" />
	</node>
	<node lat="59.365149999634866" lon="5.688177771916252" id="-5412">
		<tag k="name" v="Tverrelva" />
		<tag k="ssr:stedsnr" v="719560" />
		<tag k="waterway" v="river" />
	</node>
	<node lat="59.37377902074657" lon="5.656689640855084" id="-5431">
		<tag k="name" v="Svartatjørna" />
=======
	<node id="-36945" lat="59.3941888887" lon="5.44473054978">
		<tag k="name" v="Iglatjørna" />
		<tag k="natural" v="water" />
		<tag k="ssr:stedsnr" v="87717" />
	</node>
	<node id="-36944" lat="59.385100003" lon="5.41004444631">
		<tag k="name" v="Sørvågstjørna" />
		<tag k="natural" v="water" />
		<tag k="ssr:stedsnr" v="87019" />
	</node>
	<node id="-38989" lat="59.3603055594" lon="5.4020305469">
		<tag k="alt_name" v="Vodlavatnet" />
		<tag k="name" v="Vollavatnet" />
>>>>>>> e1d4bc35ff8a6074a6f2e91616a996b547c36f15
		<tag k="natural" v="water" />
		<tag k="ssr:stedsnr" v="721062" />
	</node>
<<<<<<< HEAD
	<node lat="59.40911667010753" lon="5.570947222554851" id="-5439">
		<tag k="name" v="Litleklubben" />
		<tag k="natural" v="cape" />
		<tag k="ssr:stedsnr" v="721706" />
	</node>
	<node lat="59.407263889348265" lon="5.567908328850821" id="-5441">
		<tag k="name" v="Berganeset" />
		<tag k="natural" v="cape" />
		<tag k="ssr:stedsnr" v="721717" />
	</node>
	<node lat="59.341338885731844" lon="5.590825008583214" id="-5446">
		<tag k="name" v="Vodlavatnet" />
=======
	<node id="-38988" lat="59.3525861094" lon="5.42145277378">
		<tag k="name" v="Ulvavatnet" />
		<tag k="natural" v="water" />
		<tag k="ssr:stedsnr" v="608543" />
	</node>
	<node id="-38978" lat="59.4388333348" lon="5.4407333326">
		<tag k="name" v="Fiskevatnet" />
		<tag k="natural" v="water" />
		<tag k="ssr:stedsnr" v="608663" />
		<tag k="water" v="lake" />
	</node>
	<node id="-36927" lat="59.3855888915" lon="5.51512500058">
		<tag k="name" v="Holmavatnet" />
>>>>>>> e1d4bc35ff8a6074a6f2e91616a996b547c36f15
		<tag k="natural" v="water" />
		<tag k="ssr:stedsnr" v="721933" />
		<tag k="water" v="lake" />
	</node>
<<<<<<< HEAD
	<node lat="59.447547221642104" lon="5.435766660116108" id="-5448">
		<tag k="name" v="Storestemmen" />
=======
	<node id="-36926" lat="59.3825527819" lon="5.50470555518">
		<tag k="name" v="Leitetjørna" />
		<tag k="natural" v="water" />
		<tag k="ssr:stedsnr" v="245079" />
	</node>
	<node id="-36921" lat="59.3478892438" lon="5.60046048503">
		<tag k="alt_name" v="Narraviksvatnet" />
		<tag k="name" v="Narravikvatnet" />
>>>>>>> e1d4bc35ff8a6074a6f2e91616a996b547c36f15
		<tag k="natural" v="water" />
		<tag k="ssr:stedsnr" v="729653" />
		<tag k="water" v="lake" />
	</node>
<<<<<<< HEAD
	<node lat="59.41759157252235" lon="5.832562128705267" id="-5453">
		<tag k="alt_name" v="Soleimstjørna" />
		<tag k="name" v="Solheimstjørna" />
=======
	<node id="-38968" lat="59.3691555568" lon="5.50553888085">
		<tag k="name" v="Kalvatjørna" />
>>>>>>> e1d4bc35ff8a6074a6f2e91616a996b547c36f15
		<tag k="natural" v="water" />
		<tag k="ssr:stedsnr" v="730030" />
	</node>
<<<<<<< HEAD
	<node lat="59.35273610897469" lon="5.438305563755798" id="-5455">
		<tag k="name" v="Ramslitjørn" />
		<tag k="natural" v="water" />
		<tag k="ssr:stedsnr" v="730551" />
	</node>
	<node lat="59.38976666227896" lon="5.420905550723376" id="-5456">
		<tag k="alt_name" v="Heretjørn" />
		<tag k="name" v="Hæretjørna" />
=======
	<node id="-36919" lat="59.4139499976" lon="5.79182500423">
		<tag k="name" v="Elfarvikelva" />
		<tag k="ssr:stedsnr" v="245041" />
		<tag k="waterway" v="stream" />
	</node>
	<node id="-38965" lat="59.3743574274" lon="5.83429506028">
		<tag k="name" v="Svartafjelltjørna" />
>>>>>>> e1d4bc35ff8a6074a6f2e91616a996b547c36f15
		<tag k="natural" v="water" />
		<tag k="ssr:stedsnr" v="730634" />
	</node>
<<<<<<< HEAD
	<node lat="59.37246944245541" lon="5.447269447448102" id="-5462">
		<tag k="alt_name" v="Longavatnet" />
		<tag k="name" v="Langavatnet" />
=======
	<node id="-36912" lat="59.3729861141" lon="5.4107333321">
		<tag k="name" v="Vågavatnet" />
>>>>>>> e1d4bc35ff8a6074a6f2e91616a996b547c36f15
		<tag k="natural" v="water" />
		<tag k="ssr:stedsnr" v="731588" />
		<tag k="water" v="lake" />
	</node>
<<<<<<< HEAD
	<node lat="59.39997500117357" lon="5.41196667218526" id="-5478">
		<tag k="name" v="Longetongjen" />
		<tag k="natural" v="cape" />
		<tag k="ssr:stedsnr" v="755027" />
	</node>
	<node lat="59.364213891759356" lon="5.6606444436920675" id="-5491">
		<tag k="name" v="Sandviktjørna" />
=======
	<node id="-36911" lat="59.3922916623" lon="5.65328332801">
		<tag k="name" v="Nordre Vassenden" />
		<tag k="natural" v="bay" />
		<tag k="ssr:stedsnr" v="66308" />
	</node>
	<node id="-38954" lat="59.4076555516" lon="5.57220555707">
		<tag k="name" v="Storeklubben" />
		<tag k="natural" v="cape" />
		<tag k="ssr:stedsnr" v="599739" />
	</node>
	<node id="-37212" lat="59.3929606009" lon="5.57203880658">
		<tag k="alt_name" v="Foråsøya" />
		<tag k="name" v="Foråsøyna" />
		<tag k="place" v="island" />
		<tag k="ssr:stedsnr" v="488078" />
	</node>
	<node id="-36901" lat="59.4336488276" lon="5.69872960254">
		<tag k="name" v="Trolltjørna" />
>>>>>>> e1d4bc35ff8a6074a6f2e91616a996b547c36f15
		<tag k="natural" v="water" />
		<tag k="ssr:stedsnr" v="780534" />
	</node>
<<<<<<< HEAD
	<node lat="59.36171388748721" lon="5.557283342028511" id="-5497">
		<tag k="name" v="Skjenet" />
		<tag k="natural" v="cape" />
		<tag k="ssr:stedsnr" v="781175" />
	</node>
	<node lat="59.33223611370733" lon="5.5754666674924325" id="-5513">
		<tag k="name" v="Sandspøyla" />
=======
	<node id="-36900" lat="59.3872888909" lon="5.54150832791">
		<tag k="name" v="Vasshovdet" />
		<tag k="natural" v="cape" />
		<tag k="ssr:stedsnr" v="53601" />
	</node>
	<node id="-38946" lat="59.4364194428" lon="5.57395000569">
		<tag k="name" v="Sandåna" />
		<tag k="ssr:stedsnr" v="599494" />
		<tag k="waterway" v="stream" />
	</node>
	<node id="-36891" lat="59.3901027751" lon="5.58521943999">
		<tag k="name" v="Vaudl" />
>>>>>>> e1d4bc35ff8a6074a6f2e91616a996b547c36f15
		<tag k="natural" v="water" />
		<tag k="ssr:stedsnr" v="781726" />
	</node>
<<<<<<< HEAD
	<node lat="59.37191110856755" lon="5.642611110164493" id="-5529">
		<tag k="name" v="Sandviksundet" />
		<tag k="natural" v="strait" />
		<tag k="ssr:stedsnr" v="781969" />
	</node>
	<node lat="59.44276666588514" lon="5.641816667666087" id="-5538">
		<tag k="name" v="Tverrelva" />
		<tag k="ssr:stedsnr" v="782886" />
		<tag k="waterway" v="stream" />
	</node>
	<node lat="59.35998839929868" lon="5.501659198936381" id="-5541">
		<tag k="name" v="Ådnavatnet" />
=======
	<node id="-36885" lat="59.3651333308" lon="5.70557500453">
		<tag k="name" v="Gula Tjødnå" />
		<tag k="natural" v="water" />
		<tag k="ssr:stedsnr" v="52552" />
	</node>
	<node id="-38923" lat="59.364913885" lon="5.7333250026">
		<tag k="name" v="Bjødlandselva" />
		<tag k="ssr:stedsnr" v="598369" />
		<tag k="waterway" v="river" />
	</node>
	<node id="-36874" lat="59.3519333333" lon="5.58700000188">
		<tag k="name" v="Rotatjørna" />
>>>>>>> e1d4bc35ff8a6074a6f2e91616a996b547c36f15
		<tag k="natural" v="water" />
		<tag k="ssr:stedsnr" v="791106" />
		<tag k="water" v="lake" />
	</node>
<<<<<<< HEAD
	<node lat="59.35862499888945" lon="5.517063880222953" id="-5542">
		<tag k="alt_name" v="Kroktjørna" />
		<tag k="name" v="Krokatjørna" />
		<tag k="natural" v="water" />
		<tag k="ssr:stedsnr" v="791114" />
	</node>
	<node lat="59.35384420961435" lon="5.765041936529398" id="-5544">
		<tag k="name" v="Skorpevatnet" />
		<tag k="natural" v="water" />
		<tag k="ssr:stedsnr" v="791134" />
		<tag k="water" v="lake" />
	</node>
	<node lat="59.40407499904811" lon="5.558333338914399" id="-5552">
		<tag k="name" v="Rongavatnet" />
		<tag k="natural" v="water" />
		<tag k="ssr:stedsnr" v="791030" />
		<tag k="water" v="lake" />
	</node>
	<node lat="59.386060615743325" lon="5.552104066962427" id="-5559">
		<tag k="alt_name" v="Fotatånstjørna" />
		<tag k="name" v="Iglatjørna" />
		<tag k="natural" v="water" />
		<tag k="ssr:stedsnr" v="791069" />
	</node>
	<node lat="59.35015555930345" lon="5.744961107702704" id="-5565">
		<tag k="name" v="Muslandtjørna" />
		<tag k="natural" v="water" />
		<tag k="ssr:stedsnr" v="791185" />
	</node>
	<node lat="59.32387222360092" lon="5.43656111692464" id="-5575">
		<tag k="alt_name" v="Storavatnet" />
		<tag k="name" v="Stemmavatnet" />
		<tag k="natural" v="water" />
		<tag k="ssr:stedsnr" v="791964" />
		<tag k="water" v="lake" />
	</node>
	<node lat="59.37814722435378" lon="5.5611472176639465" id="-5620">
		<tag k="name" v="Lektavika" />
		<tag k="natural" v="bay" />
		<tag k="ssr:stedsnr" v="842141" />
	</node>
	<node lat="59.40434444199734" lon="5.6663361151709815" id="-5624">
		<tag k="name" v="Austerlivatnet" />
		<tag k="natural" v="water" />
		<tag k="ssr:stedsnr" v="842866" />
		<tag k="water" v="lake" />
	</node>
	<node lat="59.38611388677679" lon="5.598288884802769" id="-5628">
		<tag k="name" v="Hesthammartjørna" />
		<tag k="natural" v="water" />
		<tag k="ssr:stedsnr" v="842467" />
	</node>
	<node lat="59.36178322117937" lon="5.423936834216412" id="-5648">
		<tag k="name" v="Hestvatnet" />
		<tag k="natural" v="water" />
		<tag k="ssr:stedsnr" v="851538" />
		<tag k="water" v="lake" />
	</node>
	<node lat="59.40280555428341" lon="5.798888895620701" id="-5650">
		<tag k="alt_name" v="Håvaltjørna" />
		<tag k="name" v="Faralitjørna" />
		<tag k="natural" v="water" />
		<tag k="ssr:stedsnr" v="852088" />
	</node>
	<node lat="59.40992499783764" lon="5.591236119927599" id="-5653">
		<tag k="name" v="Romsalandsvågen" />
		<tag k="natural" v="bay" />
		<tag k="ssr:stedsnr" v="852039" />
	</node>
	<node lat="59.41306352381463" lon="5.825061875262608" id="-5654">
		<tag k="alt_name" v="Kråkvatnet" />
		<tag k="name" v="Kråkevatnet" />
		<tag k="natural" v="water" />
		<tag k="ssr:stedsnr" v="852050" />
		<tag k="water" v="lake" />
	</node>
	<node lat="59.378050001242435" lon="5.8439499932077945" id="-5661">
		<tag k="alt_name" v="Djupadalsvatnet" />
		<tag k="name" v="Djupedalsvatnet" />
		<tag k="natural" v="water" />
		<tag k="ssr:stedsnr" v="852427" />
		<tag k="water" v="lake" />
	</node>
	<node lat="59.44191667037234" lon="5.565011105022994" id="-5666">
		<tag k="alt_name" v="Vatlandsvatnet" />
		<tag k="name" v="Storavatnet" />
		<tag k="natural" v="water" />
		<tag k="ssr:stedsnr" v="852719" />
		<tag k="water" v="lake" />
	</node>
	<node lat="59.42837392882211" lon="5.476342804819507" id="-5667">
		<tag k="alt_name" v="Grindevatnet" />
		<tag k="name" v="Grindavatnet" />
		<tag k="natural" v="water" />
		<tag k="ssr:stedsnr" v="852724" />
		<tag k="water" v="lake" />
	</node>
	<node lat="59.29969526752217" lon="5.444451795368348" id="-5669">
		<tag k="name" v="Labbavatnet" />
		<tag k="natural" v="water" />
		<tag k="ssr:stedsnr" v="852928" />
		<tag k="water" v="lake" />
	</node>
	<node lat="59.30348055468947" lon="5.4327166711965775" id="-5670">
		<tag k="name" v="Foretjørna" />
		<tag k="natural" v="water" />
		<tag k="ssr:stedsnr" v="852929" />
	</node>
	<node lat="59.3079641543061" lon="5.4182313722940565" id="-5671">
		<tag k="alt_name" v="Gismarvikstemmen" />
		<tag k="name" v="Gismarviktjørna" />
		<tag k="natural" v="water" />
		<tag k="ssr:stedsnr" v="852951" />
	</node>
	<node lat="59.4065833367243" lon="5.447316670931508" id="-5695">
		<tag k="name" v="Vassendbekken" />
		<tag k="ssr:stedsnr" v="876746" />
		<tag k="waterway" v="stream" />
	</node>
	<node lat="59.343141664523834" lon="5.418041666222073" id="-5710">
		<tag k="name" v="Mosvasstongjen" />
		<tag k="natural" v="cape" />
		<tag k="ssr:stedsnr" v="937024" />
	</node>
	<node lat="59.44832777747145" lon="5.444083334342277" id="-5717">
		<tag k="name" v="Hestatjørna" />
		<tag k="natural" v="water" />
		<tag k="ssr:stedsnr" v="937816" />
	</node>
	<node lat="59.39105833502303" lon="5.541336118508668" id="-5737">
		<tag k="name" v="Longaneset" />
		<tag k="natural" v="cape" />
		<tag k="ssr:stedsnr" v="963625" />
	</node>
	<node lat="59.36640555969907" lon="5.558708332819797" id="-5738">
		<tag k="name" v="Sundet" />
		<tag k="natural" v="strait" />
		<tag k="ssr:stedsnr" v="963175" />
	</node>
	<node lat="59.3016999992009" lon="5.525869441689274" id="-5744">
		<tag k="name" v="Hedleneset" />
		<tag k="natural" v="cape" />
		<tag k="ssr:stedsnr" v="963667" />
	</node>
	<node lat="59.40447777811429" lon="5.540655557090156" id="-5750">
		<tag k="name" v="Røyraneset" />
		<tag k="natural" v="cape" />
		<tag k="ssr:stedsnr" v="963780" />
	</node>
	<node lat="59.3539416672744" lon="5.5846861161514125" id="-5751">
		<tag k="name" v="Tordalsvatnet" />
		<tag k="natural" v="water" />
		<tag k="ssr:stedsnr" v="963963" />
		<tag k="water" v="lake" />
	</node>
=======
>>>>>>> e1d4bc35ff8a6074a6f2e91616a996b547c36f15
</osm>
