<?xml version="1.0" encoding="UTF-8"?>
<osm version="0.6" generator="osmapis">
	<node lat="59.3473722254304" lon="5.595447228650568" id="-3290">
		<tag k="name" v="Storemyra" />
		<tag k="natural" v="wetland" />
		<tag k="ssr:stedsnr" v="235947" />
	</node>
	<node lat="59.395644447841754" lon="5.605052783374993" id="-3325">
		<tag k="name" v="Slettebakka" />
		<tag k="place" v="locality" />
		<tag k="ssr:stedsnr" v="53408" />
	</node>
	<node lat="59.30072222437438" lon="5.480369439631756" id="-3409">
		<tag k="name" v="Øvre Løkjen" />
		<tag k="natural" v="wetland" />
		<tag k="ssr:stedsnr" v="87686" />
	</node>
	<node lat="59.304641668661034" lon="5.443611105789798" id="-3410">
		<tag k="name" v="Kjistimyra" />
		<tag k="natural" v="wetland" />
		<tag k="ssr:stedsnr" v="87693" />
	</node>
	<node lat="59.48018333068984" lon="5.424561108090088" id="-3417">
		<tag k="name" v="Dismarmyra" />
		<tag k="natural" v="wetland" />
		<tag k="ssr:stedsnr" v="245686" />
	</node>
	<node lat="59.29938611244943" lon="5.5061749936636275" id="-3444">
		<tag k="name" v="Stølsmyrane" />
		<tag k="natural" v="wetland" />
		<tag k="ssr:stedsnr" v="123210" />
	</node>
	<node lat="59.47340833634225" lon="5.404280562419644" id="-3463">
		<tag k="alt_name" v="Markjå" />
		<tag k="name" v="Marka" />
		<tag k="place" v="locality" />
		<tag k="ssr:stedsnr" v="124607" />
	</node>
	<node lat="59.338344443468074" lon="5.797908337517851" id="-3484">
		<tag k="name" v="Knutane" />
		<tag k="place" v="locality" />
		<tag k="ssr:stedsnr" v="173226" />
	</node>
	<node lat="59.36699721775054" lon="5.8299611046741475" id="-3494">
		<tag k="name" v="Gurigjerdheia" />
		<tag k="place" v="locality" />
		<tag k="ssr:stedsnr" v="174135" />
	</node>
	<node lat="59.319622219916866" lon="5.720180558169981" id="-3507">
		<tag k="name" v="Sørtveitskogen" />
		<tag k="place" v="locality" />
		<tag k="ssr:stedsnr" v="174912" />
	</node>
	<node lat="59.467905558234484" lon="5.399675007670204" id="-3562">
		<tag k="name" v="Markamyra" />
		<tag k="natural" v="wetland" />
		<tag k="ssr:stedsnr" v="208312" />
	</node>
	<node lat="59.35334166881266" lon="5.428797218201003" id="-3573">
		<tag k="name" v="Sjyndreimyra" />
		<tag k="natural" v="wetland" />
		<tag k="ssr:stedsnr" v="209013" />
	</node>
	<node lat="59.300725002677" lon="5.700036113886197" id="-3593">
		<tag k="name" v="Ørnaviksmyra" />
		<tag k="natural" v="wetland" />
		<tag k="ssr:stedsnr" v="234089" />
	</node>
	<node lat="59.36144166289077" lon="5.676286103845868" id="-3595">
		<tag k="name" v="Kjorkjelia" />
		<tag k="place" v="locality" />
		<tag k="ssr:stedsnr" v="234582" />
	</node>
	<node lat="59.46340277695915" lon="5.48883888341133" id="-3606">
		<tag k="landuse" v="quarry" />
		<tag k="name" v="Kragen" />
		<tag k="ssr:stedsnr" v="235480" />
	</node>
	<node lat="59.43370555324278" lon="5.616355563838736" id="-3626">
		<tag k="name" v="Skarvasteinen" />
		<tag k="natural" v="stone" />
		<tag k="ssr:stedsnr" v="450837" />
	</node>
	<node lat="59.35919444339786" lon="5.4496638927783545" id="-3627">
		<tag k="name" v="Longemyra" />
		<tag k="natural" v="wetland" />
		<tag k="ssr:stedsnr" v="451031" />
	</node>
	<node lat="59.427133333558245" lon="5.345877779800503" id="-3666">
		<tag k="name" v="Såtamyr" />
		<tag k="natural" v="wetland" />
		<tag k="ssr:stedsnr" v="269613" />
	</node>
	<node lat="59.3382666655937" lon="5.782347224598349" id="-3673">
		<tag k="name" v="Stovetona" />
		<tag k="place" v="locality" />
		<tag k="ssr:stedsnr" v="295212" />
	</node>
	<node lat="59.367147220263554" lon="5.689269442646699" id="-3678">
		<tag k="name" v="Gula Myrå" />
		<tag k="natural" v="wetland" />
		<tag k="ssr:stedsnr" v="295610" />
	</node>
	<node lat="59.360899997985776" lon="5.668805564443263" id="-3731">
		<tag k="name" v="Slettene" />
		<tag k="place" v="locality" />
		<tag k="ssr:stedsnr" v="355559" />
	</node>
	<node lat="59.39040832954316" lon="5.7580583402713215" id="-3734">
		<tag k="name" v="Dyrsøylene" />
		<tag k="natural" v="wetland" />
		<tag k="ssr:stedsnr" v="356001" />
	</node>
	<node lat="59.31233610768768" lon="5.592958338907868" id="-3740">
		<tag k="name" v="Presturene" />
		<tag k="natural" v="scree" />
		<tag k="ssr:stedsnr" v="356412" />
	</node>
	<node lat="59.3108694434765" lon="5.6868888842056835" id="-3758">
		<tag k="name" v="Forelunden" />
		<tag k="place" v="locality" />
		<tag k="ssr:stedsnr" v="477085" />
	</node>
	<node lat="59.3991194409891" lon="5.753822218922684" id="-3773">
		<tag k="name" v="Oldemyr" />
		<tag k="natural" v="wetland" />
		<tag k="ssr:stedsnr" v="478187" />
	</node>
	<node lat="59.45209722302285" lon="5.411133335613927" id="-3782">
		<tag k="alt_name" v="Eikjekraksmyra" />
		<tag k="name" v="Eikekraksmyra" />
		<tag k="natural" v="wetland" />
		<tag k="ssr:stedsnr" v="365687" />
	</node>
	<node lat="59.293852778115415" lon="5.55146111466788" id="-3819">
		<tag k="name" v="Bårasteinen" />
		<tag k="natural" v="stone" />
		<tag k="ssr:stedsnr" v="390391" />
	</node>
	<node lat="59.40120277650092" lon="5.861308330816223" id="-3822">
		<tag k="name" v="Møllesteinen" />
		<tag k="natural" v="stone" />
		<tag k="ssr:stedsnr" v="403933" />
	</node>
	<node lat="59.38907500431744" lon="5.494588886684166" id="-3843">
		<tag k="name" v="Raudmyr" />
		<tag k="natural" v="wetland" />
		<tag k="ssr:stedsnr" v="488085" />
	</node>
	<node lat="59.391086111080455" lon="5.677488886804742" id="-3881">
		<tag k="name" v="Stemmemyra" />
		<tag k="natural" v="wetland" />
		<tag k="ssr:stedsnr" v="427074" />
	</node>
	<node lat="59.37660555853342" lon="5.6876250019822745" id="-3932">
		<tag k="name" v="Gofarsteinen" />
		<tag k="natural" v="stone" />
		<tag k="ssr:stedsnr" v="477609" />
	</node>
	<node lat="59.28024166968701" lon="5.51832777603128" id="-3941">
		<tag k="name" v="Valborgmyra" />
		<tag k="natural" v="wetland" />
		<tag k="ssr:stedsnr" v="478363" />
	</node>
	<node lat="59.46490833511024" lon="5.478430547430103" id="-3972">
		<tag k="name" v="Gullur" />
		<tag k="natural" v="scree" />
		<tag k="ssr:stedsnr" v="511302" />
	</node>
	<node lat="59.32795833408316" lon="5.470469448631147" id="-3976">
		<tag k="name" v="Vassmyra" />
		<tag k="natural" v="wetland" />
		<tag k="ssr:stedsnr" v="511615" />
	</node>
	<node lat="59.34610277614537" lon="5.733622213891521" id="-4071">
		<tag k="name" v="Busteinen" />
		<tag k="natural" v="stone" />
		<tag k="ssr:stedsnr" v="598257" />
	</node>
	<node lat="59.37300555243109" lon="5.511174993279901" id="-4080">
		<tag k="name" v="Storemyra" />
		<tag k="natural" v="wetland" />
		<tag k="ssr:stedsnr" v="599211" />
	</node>
	<node lat="59.37146388781288" lon="5.68166389453885" id="-4140">
		<tag k="name" v="Vaulaflåta" />
		<tag k="place" v="locality" />
		<tag k="ssr:stedsnr" v="658597" />
	</node>
	<node lat="59.397727781030916" lon="5.7456027812460055" id="-4147">
		<tag k="name" v="Angletasteinen" />
		<tag k="natural" v="stone" />
		<tag k="ssr:stedsnr" v="660010" />
	</node>
	<node lat="59.3936833293033" lon="5.555941669892619" id="-4151">
		<tag k="name" v="Orrleiksmyra" />
		<tag k="natural" v="wetland" />
		<tag k="ssr:stedsnr" v="660406" />
	</node>
	<node lat="59.32890277455267" lon="5.461844447578547" id="-4169">
		<tag k="alt_name" v="nordre Fyllingsmyra" />
		<tag k="name" v="Fyllingsmyra" />
		<tag k="natural" v="wetland" />
		<tag k="ssr:stedsnr" v="669974" />
	</node>
	<node lat="59.421116663592855" lon="5.361100006674251" id="-4197">
		<tag k="name" v="Kyrkjemyr" />
		<tag k="natural" v="wetland" />
		<tag k="ssr:stedsnr" v="694587" />
	</node>
	<node lat="59.3549583322585" lon="5.527972221536615" id="-4234">
		<tag k="name" v="Småforene" />
		<tag k="place" v="locality" />
		<tag k="ssr:stedsnr" v="721890" />
	</node>
	<node lat="59.4071222190636" lon="5.675527772130834" id="-4279">
		<tag k="name" v="Karislåtta" />
		<tag k="place" v="locality" />
		<tag k="ssr:stedsnr" v="902882" />
	</node>
	<node lat="59.37184444399154" lon="5.487413888015721" id="-4315">
		<tag k="name" v="Storemyra" />
		<tag k="natural" v="wetland" />
		<tag k="ssr:stedsnr" v="755053" />
	</node>
	<node lat="59.40195277911234" lon="5.4797166663629255" id="-4405">
		<tag k="name" v="Lykkjebergmyra" />
		<tag k="natural" v="wetland" />
		<tag k="ssr:stedsnr" v="815708" />
	</node>
	<node lat="59.29708055507311" lon="5.478983325876469" id="-4455">
		<tag k="name" v="Nedre Løkjen" />
		<tag k="natural" v="wetland" />
		<tag k="ssr:stedsnr" v="876705" />
	</node>
	<node lat="59.32998055527697" lon="5.445891669033634" id="-4512">
		<tag k="name" v="Leirvollsløkjen" />
		<tag k="natural" v="wetland" />
		<tag k="ssr:stedsnr" v="936633" />
	</node>
	<node lat="59.36807499836205" lon="5.535577779977851" id="-4522">
		<tag k="name" v="Holpytten" />
		<tag k="natural" v="wetland" />
		<tag k="ssr:stedsnr" v="963238" />
	</node>
	<node lat="59.39789999726364" lon="5.7508305618302655" id="-4546">
		<tag k="name" v="Stemmyra" />
		<tag k="natural" v="wetland" />
		<tag k="ssr:stedsnr" v="2085" />
	</node>
	<node lat="59.35889166862417" lon="5.787452772220742" id="-4600">
		<tag k="name" v="Prestaneset" />
		<tag k="place" v="locality" />
		<tag k="ssr:stedsnr" v="53343" />
	</node>
	<node lat="59.40800833742986" lon="5.5808083346734225" id="-4611">
		<tag k="name" v="Klovsteinen" />
		<tag k="natural" v="stone" />
		<tag k="ssr:stedsnr" v="53838" />
	</node>
	<node lat="59.316380559352474" lon="5.434047218328839" id="-4670">
		<tag k="name" v="Vamyra" />
		<tag k="natural" v="wetland" />
		<tag k="ssr:stedsnr" v="87652" />
	</node>
	<node lat="59.36673888751984" lon="5.777747221579506" id="-4685">
		<tag k="name" v="Sandgåtene" />
		<tag k="place" v="locality" />
		<tag k="ssr:stedsnr" v="113326" />
	</node>
	<node lat="59.35753611090586" lon="5.484127774111562" id="-4749">
		<tag k="name" v="Øykjadoven" />
		<tag k="natural" v="wetland" />
		<tag k="ssr:stedsnr" v="148031" />
	</node>
	<node lat="59.45256111044828" lon="5.576375005447064" id="-4757">
		<tag k="name" v="Tjødnamyra" />
		<tag k="natural" v="wetland" />
		<tag k="ssr:stedsnr" v="157362" />
	</node>
	<node lat="59.39366111006355" lon="5.796933332584631" id="-4772">
		<tag k="name" v="Nessaneset" />
		<tag k="place" v="locality" />
		<tag k="ssr:stedsnr" v="174464" />
	</node>
	<node lat="59.306008335250226" lon="5.54079167145196" id="-4778">
		<tag k="name" v="Skipperløkjen" />
		<tag k="natural" v="wetland" />
		<tag k="ssr:stedsnr" v="174643" />
	</node>
	<node lat="59.39513610670131" lon="5.5045083274728706" id="-4779">
		<tag k="name" v="Grønåsløkjen" />
		<tag k="natural" v="wetland" />
		<tag k="ssr:stedsnr" v="174653" />
	</node>
	<node lat="59.35376666707664" lon="5.508274993899155" id="-4792">
		<tag k="name" v="Fagerli" />
		<tag k="place" v="locality" />
		<tag k="ssr:stedsnr" v="175896" />
	</node>
	<node lat="59.315897218308834" lon="5.7239527812937565" id="-4849">
		<tag k="name" v="Knutsurene" />
		<tag k="natural" v="scree" />
		<tag k="ssr:stedsnr" v="295894" />
	</node>
	<node lat="59.40040000405529" lon="5.828830558527865" id="-4856">
		<tag k="name" v="Revshidlermyrane" />
		<tag k="natural" v="wetland" />
		<tag k="ssr:stedsnr" v="296309" />
	</node>
	<node lat="59.392297224029846" lon="5.873655556820158" id="-4862">
		<tag k="name" v="Seiasteinen" />
		<tag k="natural" v="stone" />
		<tag k="ssr:stedsnr" v="296667" />
	</node>
	<node lat="59.29421666517638" lon="5.509141662551639" id="-4896">
		<tag k="alt_name" v="Språkjemyra" />
		<tag k="name" v="Spakemyra" />
		<tag k="natural" v="wetland" />
		<tag k="ssr:stedsnr" v="306184" />
	</node>
	<node lat="59.32641388690711" lon="5.462727769704808" id="-4911">
		<tag k="name" v="Søra Fyllingsmyra" />
		<tag k="natural" v="wetland" />
		<tag k="ssr:stedsnr" v="329608" />
	</node>
	<node lat="59.37016944853275" lon="5.573313889378713" id="-4936">
		<tag k="name" v="Rabnabjørmyra" />
		<tag k="natural" v="wetland" />
		<tag k="ssr:stedsnr" v="356162" />
	</node>
	<node lat="59.485649997069224" lon="5.449922221910517" id="-5026">
		<tag k="name" v="Longamyra" />
		<tag k="natural" v="wetland" />
		<tag k="ssr:stedsnr" v="390283" />
	</node>
	<node lat="59.32934444018732" lon="5.787202779559832" id="-5069">
		<tag k="name" v="Ramsvikmyra" />
		<tag k="natural" v="wetland" />
		<tag k="ssr:stedsnr" v="417771" />
	</node>
	<node lat="59.37336944157372" lon="5.517019444153245" id="-5158">
		<tag k="name" v="Tjukkalia" />
		<tag k="place" v="locality" />
		<tag k="ssr:stedsnr" v="538226" />
	</node>
	<node lat="59.298247223353066" lon="5.5328111073827655" id="-5168">
		<tag k="name" v="Stølsmyra" />
		<tag k="natural" v="wetland" />
		<tag k="ssr:stedsnr" v="538631" />
	</node>
	<node lat="59.38674166220479" lon="5.889755549503662" id="-5186">
		<tag k="name" v="Skomakaren" />
		<tag k="natural" v="stone" />
		<tag k="ssr:stedsnr" v="539698" />
	</node>
	<node lat="59.3289055518153" lon="5.498288897477423" id="-5187">
		<tag k="name" v="Brunnamyra" />
		<tag k="natural" v="wetland" />
		<tag k="ssr:stedsnr" v="539636" />
	</node>
	<node lat="59.405747218170006" lon="5.797491659437759" id="-5246">
		<tag k="name" v="Geitakyrkja" />
		<tag k="natural" v="stone" />
		<tag k="ssr:stedsnr" v="593839" />
	</node>
	<node lat="59.34658889107712" lon="5.690866671073994" id="-5255">
		<tag k="name" v="Fuglasteinen" />
		<tag k="natural" v="stone" />
		<tag k="ssr:stedsnr" v="598535" />
	</node>
	<node lat="59.39722500436087" lon="5.494283334066739" id="-5279">
		<tag k="name" v="Såtløkjen" />
		<tag k="natural" v="wetland" />
		<tag k="ssr:stedsnr" v="599639" />
	</node>
	<node lat="59.36084722195226" lon="5.8748416580107286" id="-5414">
		<tag k="name" v="Iglemyra" />
		<tag k="natural" v="wetland" />
		<tag k="ssr:stedsnr" v="720128" />
	</node>
	<node lat="59.387816664742516" lon="5.659697214150471" id="-5422">
		<tag k="name" v="Gardsenden" />
		<tag k="place" v="locality" />
		<tag k="ssr:stedsnr" v="720821" />
	</node>
	<node lat="59.44742778085755" lon="5.389694435284654" id="-5477">
		<tag k="name" v="Vassmyra" />
		<tag k="natural" v="wetland" />
		<tag k="ssr:stedsnr" v="754732" />
	</node>
	<node lat="59.362844448175544" lon="5.487886114467812" id="-5479">
		<tag k="name" v="Kjorkjå" />
		<tag k="natural" v="stone" />
		<tag k="ssr:stedsnr" v="755037" />
	</node>
	<node lat="59.36764444057" lon="5.683391674679117" id="-5489">
		<tag k="name" v="Svarteskogen" />
		<tag k="place" v="locality" />
		<tag k="ssr:stedsnr" v="780528" />
	</node>
	<node lat="59.38659722644272" lon="5.505494451321221" id="-5495">
		<tag k="name" v="Trodlakyrkja" />
		<tag k="natural" v="stone" />
		<tag k="ssr:stedsnr" v="781624" />
	</node>
	<node lat="59.36820555911893" lon="5.838636103736844" id="-5498">
		<tag k="name" v="Storesteinsur" />
		<tag k="natural" v="scree" />
		<tag k="ssr:stedsnr" v="781129" />
	</node>
	<node lat="59.40769722359402" lon="5.490591671237802" id="-5522">
		<tag k="name" v="Grymyra" />
		<tag k="natural" v="wetland" />
		<tag k="ssr:stedsnr" v="781777" />
	</node>
	<node lat="59.394097222651006" lon="5.623288886853024" id="-5582">
		<tag k="name" v="Gullurene" />
		<tag k="natural" v="scree" />
		<tag k="ssr:stedsnr" v="794362" />
	</node>
	<node lat="59.482963888779786" lon="5.467205555955796" id="-5586">
		<tag k="name" v="Kjorkjemyra" />
		<tag k="natural" v="wetland" />
		<tag k="ssr:stedsnr" v="815276" />
	</node>
	<node lat="59.449963884697404" lon="5.356236119786541" id="-5603">
		<tag k="name" v="Kjerthammarmyr" />
		<tag k="natural" v="wetland" />
		<tag k="ssr:stedsnr" v="816601" />
	</node>
	<node lat="59.35626666835659" lon="5.686580554020801" id="-5630">
		<tag k="name" v="Hustoptmyrane" />
		<tag k="natural" v="wetland" />
		<tag k="ssr:stedsnr" v="842549" />
	</node>
	<node lat="59.32327778192956" lon="5.664524996676295" id="-5637">
		<tag k="name" v="Seiasteinen" />
		<tag k="natural" v="stone" />
		<tag k="ssr:stedsnr" v="842737" />
	</node>
	<node lat="59.359727782227196" lon="5.4797694457140045" id="-5688">
		<tag k="name" v="Skitnemyra" />
		<tag k="natural" v="wetland" />
		<tag k="ssr:stedsnr" v="876045" />
	</node>
	<node lat="59.483297218205195" lon="5.44614723108017" id="-5689">
		<tag k="name" v="Heiå" />
		<tag k="place" v="locality" />
		<tag k="ssr:stedsnr" v="876286" />
	</node>
	<node lat="59.330688886146234" lon="5.469363890288864" id="-5698">
		<tag k="name" v="Bleikamyra" />
		<tag k="natural" v="wetland" />
		<tag k="ssr:stedsnr" v="936635" />
	</node>
	<node lat="59.327513893006476" lon="5.561344438787755" id="-5725">
		<tag k="name" v="Storemyra" />
		<tag k="natural" v="wetland" />
		<tag k="ssr:stedsnr" v="963728" />
	</node>
	<node lat="59.329519440849836" lon="5.579855554411192" id="-5726">
		<tag k="name" v="Sandsmyra" />
		<tag k="natural" v="wetland" />
		<tag k="ssr:stedsnr" v="963732" />
	</node>
</osm>
