<?xml version="1.0" encoding="UTF-8"?>
<<<<<<< HEAD
<osm version="0.6" generator="osmapis">
	<node lat="59.42429444297702" lon="5.384480564105034" id="-3246">
		<tag k="name" v="Førre" />
		<tag k="place" v="village" />
		<tag k="ssr:stedsnr" v="1608" />
	</node>
	<node lat="59.34131111104776" lon="5.635763886271743" id="-3255">
		<tag k="name" v="Sjølyst" />
=======
<osm generator="osmapis" version="0.6">
	<node id="-38909" lat="59.4161944425" lon="5.76140832795">
		<tag k="name" v="Slåttet" />
		<tag k="place" v="farm" />
		<tag k="ssr:stedsnr" v="598767" />
	</node>
	<node id="-38903" lat="59.2911194408" lon="5.47181666058">
		<tag k="name" v="Massaneset" />
		<tag k="place" v="farm" />
		<tag k="ssr:stedsnr" v="572643" />
	</node>
	<node id="-38902" lat="59.4557666624" lon="5.46426944937">
		<tag k="alt_name" v="Sirdal" />
		<tag k="name" v="Serdal" />
		<tag k="place" v="farm" />
		<tag k="ssr:stedsnr" v="572793" />
	</node>
	<node id="-36851" lat="59.3030694423" lon="5.64661110952">
		<tag k="name" v="Skiftesvik" />
		<tag k="place" v="farm" />
		<tag k="ssr:stedsnr" v="235514" />
	</node>
	<node id="-36850" lat="59.3648833361" lon="5.75870000408">
		<tag k="name" v="Løype" />
		<tag k="place" v="farm" />
		<tag k="ssr:stedsnr" v="235511" />
	</node>
	<node id="-37202" lat="59.3651111134" lon="5.39906111049">
		<tag k="fixme" v="consider place=hamlet" />
		<tag k="name" v="Nordtveit" />
		<tag k="place" v="farm" />
		<tag k="ssr:stedsnr" v="487607" />
	</node>
	<node id="-38886" lat="59.2761277822" lon="5.53391945029">
		<tag k="name" v="Snekkjavik" />
		<tag k="place" v="farm" />
		<tag k="ssr:stedsnr" v="569870" />
	</node>
	<node id="-38883" lat="59.3318861123" lon="5.42205554762">
		<tag k="alt_name" v="Vatneim" />
		<tag k="fixme" v="consider place=hamlet" />
		<tag k="name" v="Vatnheim" />
		<tag k="place" v="farm" />
		<tag k="ssr:stedsnr" v="548973" />
	</node>
	<node id="-38879" lat="59.4559499977" lon="5.48993888977">
		<tag k="alt_name" v="Eikjevik" />
		<tag k="name" v="Eikevik" />
		<tag k="place" v="farm" />
		<tag k="ssr:stedsnr" v="548796" />
	</node>
	<node id="-38872" lat="59.2849000039" lon="5.54234999173">
		<tag k="name" v="Storehaugen" />
		<tag k="place" v="farm" />
		<tag k="ssr:stedsnr" v="548239" />
	</node>
	<node id="-38871" lat="59.2809805591" lon="5.50497222421">
		<tag k="fixme" v="consider place=hamlet" />
		<tag k="name" v="Sandvik" />
		<tag k="place" v="farm" />
		<tag k="ssr:stedsnr" v="548236" />
	</node>
	<node id="-36818" lat="59.2954166711" lon="5.42399445098">
		<tag k="name" v="Halsen" />
		<tag k="place" v="farm" />
		<tag k="ssr:stedsnr" v="26648" />
	</node>
	<node id="-38865" lat="59.3524500005" lon="5.77297777975">
		<tag k="fixme" v="consider place=hamlet" />
		<tag k="name" v="Skorpe" />
		<tag k="place" v="farm" />
		<tag k="ssr:stedsnr" v="548189" />
	</node>
	<node id="-38863" lat="59.3331611072" lon="5.5047027868">
		<tag k="fixme" v="consider place=hamlet" />
		<tag k="name" v="Håland" />
		<tag k="place" v="farm" />
		<tag k="ssr:stedsnr" v="548183" />
	</node>
	<node id="-38862" lat="59.3358388893" lon="5.54450278097">
		<tag k="fixme" v="consider place=hamlet" />
		<tag k="name" v="Evje" />
		<tag k="place" v="farm" />
		<tag k="ssr:stedsnr" v="548178" />
	</node>
	<node id="-38861" lat="59.340841669" lon="5.72725833022">
		<tag k="fixme" v="consider place=hamlet" />
		<tag k="name" v="Silgjerd" />
		<tag k="place" v="farm" />
		<tag k="ssr:stedsnr" v="548167" />
	</node>
	<node id="-38859" lat="59.3674194474" lon="5.76238333417">
		<tag k="fixme" v="consider place=hamlet" />
		<tag k="name" v="Seldal" />
		<tag k="place" v="farm" />
		<tag k="ssr:stedsnr" v="548150" />
	</node>
	<node id="-36809" lat="59.277402779" lon="5.53845554793">
		<tag k="fixme" v="consider place=hamlet" />
		<tag k="name" v="Årvik" />
		<tag k="place" v="farm" />
		<tag k="ssr:stedsnr" v="2238" />
	</node>
	<node id="-38856" lat="59.3691833315" lon="5.54708054894">
		<tag k="alt_name" v="Pøylå" />
		<tag k="name" v="Pøyla" />
		<tag k="place" v="farm" />
		<tag k="ssr:stedsnr" v="548123" />
	</node>
	<node id="-38855" lat="59.3679499967" lon="5.56631111168">
		<tag k="name" v="Sandbekken" />
		<tag k="place" v="farm" />
		<tag k="ssr:stedsnr" v="548118" />
	</node>
	<node id="-38852" lat="59.3761944432" lon="5.60564165967">
		<tag k="fixme" v="consider place=hamlet" />
		<tag k="name" v="Hundsnes" />
		<tag k="place" v="farm" />
		<tag k="ssr:stedsnr" v="548101" />
	</node>
	<node id="-38850" lat="59.3928138895" lon="5.52150832892">
		<tag k="name" v="Sagbakken" />
		<tag k="place" v="farm" />
		<tag k="ssr:stedsnr" v="548081" />
	</node>
	<node id="-36799" lat="59.424294443" lon="5.38448056411">
		<tag k="name" v="Førre" />
		<tag k="place" v="village" />
		<tag k="ssr:stedsnr" v="1608" />
	</node>
	<node id="-38845" lat="59.3955666681" lon="5.53836665978">
		<tag k="name" v="Haugen" />
		<tag k="place" v="farm" />
		<tag k="ssr:stedsnr" v="548044" />
	</node>
	<node id="-38844" lat="59.403330557" lon="5.52494166085">
		<tag k="alt_name" v="Grasvoll" />
		<tag k="name" v="Grasvollen" />
		<tag k="place" v="farm" />
		<tag k="ssr:stedsnr" v="548040" />
	</node>
	<node id="-38841" lat="59.4593138848" lon="5.46092222297">
		<tag k="fixme" v="consider place=hamlet" />
		<tag k="name" v="Aursland" />
		<tag k="place" v="farm" />
		<tag k="ssr:stedsnr" v="547710" />
	</node>
	<node id="-38840" lat="59.4562277775" lon="5.45882499242">
		<tag k="fixme" v="consider place=hamlet" />
		<tag k="name" v="Årek" />
		<tag k="place" v="farm" />
		<tag k="ssr:stedsnr" v="547709" />
	</node>
	<node id="-38839" lat="59.3768055588" lon="5.40617222703">
		<tag k="fixme" v="consider place=hamlet" />
		<tag k="name" v="Stegaberg" />
		<tag k="place" v="farm" />
		<tag k="ssr:stedsnr" v="547639" />
	</node>
	<node id="-38834" lat="59.3832388878" lon="5.64416945192">
		<tag k="name" v="Kreppene" />
		<tag k="place" v="hamlet" />
		<tag k="ssr:stedsnr" v="545751" />
	</node>
	<node id="-38833" lat="59.4504972251" lon="5.60329166621">
		<tag k="name" v="Klaken" />
		<tag k="place" v="farm" />
		<tag k="ssr:stedsnr" v="539998" />
	</node>
	<node id="-37192" lat="59.3423527792" lon="5.70180000559">
		<tag k="alt_name" v="Klungstveit" />
		<tag k="fixme" v="consider place=hamlet" />
		<tag k="name" v="Klungtveit" />
		<tag k="place" v="farm" />
		<tag k="ssr:stedsnr" v="487180" />
	</node>
	<node id="-38825" lat="59.4359722177" lon="5.56180277024">
		<tag k="name" v="Stølen" />
		<tag k="place" v="farm" />
		<tag k="ssr:stedsnr" v="539466" />
	</node>
	<node id="-38816" lat="59.4030416686" lon="5.67656388682">
		<tag k="name" v="Vikane" />
		<tag k="place" v="farm" />
		<tag k="ssr:stedsnr" v="538866" />
	</node>
	<node id="-38802" lat="59.3045944409" lon="5.515783332">
		<tag k="name" v="Bakkjen" />
		<tag k="place" v="farm" />
		<tag k="ssr:stedsnr" v="538596" />
	</node>
	<node id="-38772" lat="59.4635416671" lon="5.46831945209">
		<tag k="fixme" v="consider place=hamlet" />
		<tag k="name" v="Våg" />
>>>>>>> e1d4bc35ff8a6074a6f2e91616a996b547c36f15
		<tag k="place" v="farm" />
		<tag k="ssr:stedsnr" v="2130" />
	</node>
<<<<<<< HEAD
	<node lat="59.39666666424683" lon="5.617930551245301" id="-3257">
		<tag k="name" v="Kvalsvik" />
=======
	<node id="-38770" lat="59.2944611083" lon="5.45147777906">
		<tag k="name" v="Surnevik" />
>>>>>>> e1d4bc35ff8a6074a6f2e91616a996b547c36f15
		<tag k="place" v="farm" />
		<tag k="ssr:stedsnr" v="2077" />
	</node>
<<<<<<< HEAD
	<node lat="59.41318611017052" lon="5.609730560198475" id="-3262">
		<tag k="alt_name" v="Apadlevika" />
		<tag k="fixme" v="consider place=hamlet" />
		<tag k="name" v="Apalvik" />
=======
	<node id="-38769" lat="59.3445999982" lon="5.85144999797">
		<tag k="alt_name" v="Stuvika" />
		<tag k="fixme" v="consider place=hamlet" />
		<tag k="name" v="Stuvvika" />
		<tag k="place" v="farm" />
		<tag k="ssr:stedsnr" v="427498" />
	</node>
	<node id="-38766" lat="59.3385000014" lon="5.60535278298">
		<tag k="name" v="Vassbotn" />
>>>>>>> e1d4bc35ff8a6074a6f2e91616a996b547c36f15
		<tag k="place" v="farm" />
		<tag k="ssr:stedsnr" v="24101" />
	</node>
<<<<<<< HEAD
	<node lat="59.38880000242685" lon="5.46453056379672" id="-3264">
		<tag k="name" v="Bakkene" />
=======
	<node id="-38765" lat="59.3364888877" lon="5.70188889307">
		<tag k="name" v="Stølen" />
>>>>>>> e1d4bc35ff8a6074a6f2e91616a996b547c36f15
		<tag k="place" v="farm" />
		<tag k="ssr:stedsnr" v="25274" />
	</node>
<<<<<<< HEAD
	<node lat="59.39961666480415" lon="5.764772227421969" id="-3288">
		<tag k="name" v="Nordåker" />
=======
	<node id="-38763" lat="59.2799638864" lon="5.5438138837">
		<tag k="name" v="Stølen" />
>>>>>>> e1d4bc35ff8a6074a6f2e91616a996b547c36f15
		<tag k="place" v="farm" />
		<tag k="ssr:stedsnr" v="235217" />
	</node>
<<<<<<< HEAD
	<node lat="59.36488333608961" lon="5.758700004079054" id="-3295">
		<tag k="name" v="Løype" />
=======
	<node id="-38761" lat="59.2838250035" lon="5.5345361171">
		<tag k="name" v="Sørhaug" />
>>>>>>> e1d4bc35ff8a6074a6f2e91616a996b547c36f15
		<tag k="place" v="farm" />
		<tag k="ssr:stedsnr" v="235511" />
	</node>
<<<<<<< HEAD
	<node lat="59.30306944230833" lon="5.646611109515408" id="-3296">
		<tag k="name" v="Skiftesvik" />
=======
	<node id="-38760" lat="59.2754750012" lon="5.52409167017">
		<tag k="name" v="Kårstø" />
>>>>>>> e1d4bc35ff8a6074a6f2e91616a996b547c36f15
		<tag k="place" v="farm" />
		<tag k="ssr:stedsnr" v="235514" />
	</node>
<<<<<<< HEAD
	<node lat="59.426533332869624" lon="5.81555555654698" id="-3307">
=======
	<node id="-38753" lat="59.3842305514" lon="5.61977499255">
		<tag k="alt_name" v="Slogvik" />
>>>>>>> e1d4bc35ff8a6074a6f2e91616a996b547c36f15
		<tag k="fixme" v="consider place=hamlet" />
		<tag k="name" v="Dokkskar" />
		<tag k="place" v="farm" />
		<tag k="ssr:stedsnr" v="235955" />
	</node>
<<<<<<< HEAD
	<node lat="59.37689444533789" lon="5.645166671319692" id="-3319">
=======
	<node id="-38752" lat="59.3604277778" lon="5.56918334163">
>>>>>>> e1d4bc35ff8a6074a6f2e91616a996b547c36f15
		<tag k="fixme" v="consider place=hamlet" />
		<tag k="name" v="Søre Kreppene" />
		<tag k="place" v="farm" />
		<tag k="ssr:stedsnr" v="53078" />
	</node>
<<<<<<< HEAD
	<node lat="59.3231449648359" lon="5.5898526562247755" id="-3345">
=======
	<node id="-38751" lat="59.3998166695" lon="5.77280556269">
		<tag k="alt_name" v="Vassendvåg" />
>>>>>>> e1d4bc35ff8a6074a6f2e91616a996b547c36f15
		<tag k="fixme" v="consider place=hamlet" />
		<tag k="name" v="Hervik" />
		<tag k="place" v="farm" />
		<tag k="ssr:stedsnr" v="60822" />
	</node>
<<<<<<< HEAD
	<node lat="59.42652500234759" lon="5.633424999451847" id="-3350">
		<tag k="alt_name" v="Østenstad" />
		<tag k="fixme" v="consider place=hamlet" />
		<tag k="name" v="Østeinstad" />
=======
	<node id="-38745" lat="59.3816388874" lon="5.54268333919">
		<tag k="fixme" v="consider place=hamlet" />
		<tag k="name" v="Skogen" />
		<tag k="place" v="farm" />
		<tag k="ssr:stedsnr" v="427071" />
	</node>
	<node id="-38742" lat="59.4164027763" lon="5.46853055615">
		<tag k="alt_name" v="Kvithaug" />
		<tag k="name" v="Kvithaugen" />
>>>>>>> e1d4bc35ff8a6074a6f2e91616a996b547c36f15
		<tag k="place" v="farm" />
		<tag k="ssr:stedsnr" v="63002" />
	</node>
<<<<<<< HEAD
	<node lat="59.43452222492337" lon="5.634358341148833" id="-3353">
=======
	<node id="-38738" lat="59.4463611086" lon="5.39320834104">
>>>>>>> e1d4bc35ff8a6074a6f2e91616a996b547c36f15
		<tag k="fixme" v="consider place=hamlet" />
		<tag k="name" v="Dalsbygda" />
		<tag k="place" v="village" />
		<tag k="ssr:stedsnr" v="63019" />
	</node>
<<<<<<< HEAD
	<node lat="59.37009444377007" lon="5.653358326764804" id="-3356">
		<tag k="fixme" v="consider place=hamlet" />
		<tag k="name" v="Stølsvik" />
=======
	<node id="-38736" lat="59.3456916656" lon="5.79295833082">
		<tag k="fixme" v="consider place=hamlet" />
		<tag k="name" v="Tveit" />
		<tag k="place" v="farm" />
		<tag k="ssr:stedsnr" v="424733" />
	</node>
	<node id="-38704" lat="59.3588277799" lon="5.65772500221">
		<tag k="name" v="Grove" />
>>>>>>> e1d4bc35ff8a6074a6f2e91616a996b547c36f15
		<tag k="place" v="farm" />
		<tag k="ssr:stedsnr" v="63109" />
	</node>
<<<<<<< HEAD
	<node lat="59.329630555212894" lon="5.5987277767863155" id="-3363">
		<tag k="name" v="Vasstun" />
=======
	<node id="-38697" lat="59.3597666692" lon="5.66039721335">
		<tag k="name" v="Nygård" />
>>>>>>> e1d4bc35ff8a6074a6f2e91616a996b547c36f15
		<tag k="place" v="farm" />
		<tag k="ssr:stedsnr" v="63180" />
	</node>
<<<<<<< HEAD
	<node lat="59.49991388462055" lon="5.454247217059765" id="-3367">
		<tag k="alt_name" v="Grunnavåg" />
		<tag k="name" v="Grunnavågen" />
=======
	<node id="-38694" lat="59.3436027776" lon="5.83543333206">
		<tag k="name" v="Holmen" />
>>>>>>> e1d4bc35ff8a6074a6f2e91616a996b547c36f15
		<tag k="place" v="farm" />
		<tag k="ssr:stedsnr" v="63685" />
	</node>
<<<<<<< HEAD
	<node lat="59.46520833354235" lon="5.573683330588115" id="-3368">
=======
	<node id="-38678" lat="59.307919449" lon="5.47732778267">
>>>>>>> e1d4bc35ff8a6074a6f2e91616a996b547c36f15
		<tag k="fixme" v="consider place=hamlet" />
		<tag k="name" v="Nesheim" />
		<tag k="place" v="farm" />
		<tag k="ssr:stedsnr" v="63812" />
	</node>
<<<<<<< HEAD
	<node lat="59.355038889376516" lon="5.747291674117096" id="-3371">
=======
	<node id="-38674" lat="59.3465472233" lon="5.48654444928">
>>>>>>> e1d4bc35ff8a6074a6f2e91616a996b547c36f15
		<tag k="fixme" v="consider place=hamlet" />
		<tag k="name" v="Musland" />
		<tag k="place" v="farm" />
		<tag k="ssr:stedsnr" v="245132" />
	</node>
<<<<<<< HEAD
	<node lat="59.439331701925205" lon="5.390099007741883" id="-3376">
		<tag k="name" v="Bakken" />
=======
	<node id="-38667" lat="59.3910166699" lon="5.46572500055">
		<tag k="name" v="Sørbø" />
>>>>>>> e1d4bc35ff8a6074a6f2e91616a996b547c36f15
		<tag k="place" v="farm" />
		<tag k="ssr:stedsnr" v="244667" />
	</node>
<<<<<<< HEAD
	<node lat="59.428204074957144" lon="5.613573926515968" id="-3378">
		<tag k="name" v="Straum" />
=======
	<node id="-38664" lat="59.3609694425" lon="5.39391944154">
		<tag k="name" v="Høye" />
>>>>>>> e1d4bc35ff8a6074a6f2e91616a996b547c36f15
		<tag k="place" v="farm" />
		<tag k="ssr:stedsnr" v="245001" />
	</node>
<<<<<<< HEAD
	<node lat="59.392661109612824" lon="5.634013896718159" id="-3384">
		<tag k="alt_name" v="Vikjå" />
		<tag k="name" v="Vik" />
=======
	<node id="-38659" lat="59.3310777786" lon="5.3964527809">
		<tag k="alt_name" v="Breidvik" />
		<tag k="name" v="Breivik" />
>>>>>>> e1d4bc35ff8a6074a6f2e91616a996b547c36f15
		<tag k="place" v="farm" />
		<tag k="ssr:stedsnr" v="245065" />
	</node>
<<<<<<< HEAD
	<node lat="59.34959999705275" lon="5.735750006320287" id="-3385">
		<tag k="fixme" v="consider place=hamlet" />
		<tag k="name" v="Landråk" />
=======
	<node id="-38657" lat="59.2959250036" lon="5.42526944678">
		<tag k="name" v="Gismarvik" />
>>>>>>> e1d4bc35ff8a6074a6f2e91616a996b547c36f15
		<tag k="place" v="farm" />
		<tag k="ssr:stedsnr" v="245175" />
	</node>
<<<<<<< HEAD
	<node lat="59.29949444013611" lon="5.526374999812232" id="-3386">
		<tag k="fixme" v="consider place=hamlet" />
		<tag k="name" v="Hesthammar" />
=======
	<node id="-38652" lat="59.442136109" lon="5.54330000705">
		<tag k="alt_name" v="Notten" />
		<tag k="name" v="Notet" />
>>>>>>> e1d4bc35ff8a6074a6f2e91616a996b547c36f15
		<tag k="place" v="farm" />
		<tag k="ssr:stedsnr" v="245182" />
	</node>
<<<<<<< HEAD
	<node lat="59.326074998989995" lon="5.539216662222032" id="-3391">
=======
	<node id="-38645" lat="59.354925004" lon="5.84692499114">
>>>>>>> e1d4bc35ff8a6074a6f2e91616a996b547c36f15
		<tag k="fixme" v="consider place=hamlet" />
		<tag k="name" v="Åsen" />
		<tag k="place" v="farm" />
		<tag k="ssr:stedsnr" v="245147" />
	</node>
<<<<<<< HEAD
	<node lat="59.305886114910294" lon="5.6546999937091975" id="-3399">
		<tag k="alt_name" v="Ytre Amdal" />
=======
	<node id="-38642" lat="59.2946250045" lon="5.66309723018">
		<tag k="alt_name" v="Ytre Li" />
>>>>>>> e1d4bc35ff8a6074a6f2e91616a996b547c36f15
		<tag k="fixme" v="consider place=hamlet" />
		<tag k="name" v="Amdal" />
		<tag k="place" v="farm" />
		<tag k="ssr:stedsnr" v="245227" />
	</node>
<<<<<<< HEAD
	<node lat="59.398988887151546" lon="5.616808337587427" id="-3401">
		<tag k="name" v="Løndal" />
=======
	<node id="-38637" lat="59.3040638859" lon="5.55487499647">
		<tag k="alt_name" v="Askeland" />
		<tag k="fixme" v="consider place=hamlet" />
		<tag k="name" v="Oskeland" />
>>>>>>> e1d4bc35ff8a6074a6f2e91616a996b547c36f15
		<tag k="place" v="farm" />
		<tag k="ssr:stedsnr" v="85093" />
	</node>
<<<<<<< HEAD
	<node lat="59.39862500440603" lon="5.487424997109801" id="-3402">
=======
	<node id="-38634" lat="59.3361166646" lon="5.50373889458">
		<tag k="alt_name" v="Løning" />
>>>>>>> e1d4bc35ff8a6074a6f2e91616a996b547c36f15
		<tag k="fixme" v="consider place=hamlet" />
		<tag k="name" v="Øvre Førland" />
		<tag k="place" v="farm" />
		<tag k="ssr:stedsnr" v="85431" />
	</node>
<<<<<<< HEAD
	<node lat="59.34469999737138" lon="5.84650000358475" id="-3403">
=======
	<node id="-38630" lat="59.3481567417" lon="5.61296847958">
>>>>>>> e1d4bc35ff8a6074a6f2e91616a996b547c36f15
		<tag k="fixme" v="consider place=hamlet" />
		<tag k="name" v="Sandsgård" />
		<tag k="place" v="farm" />
		<tag k="ssr:stedsnr" v="245468" />
	</node>
<<<<<<< HEAD
	<node lat="59.41571944258925" lon="5.358941659020873" id="-3416">
=======
	<node id="-38622" lat="59.3589444444" lon="5.47429444906">
>>>>>>> e1d4bc35ff8a6074a6f2e91616a996b547c36f15
		<tag k="fixme" v="consider place=hamlet" />
		<tag k="name" v="Bratthammar" />
		<tag k="place" v="farm" />
		<tag k="ssr:stedsnr" v="87926" />
	</node>
<<<<<<< HEAD
	<node lat="59.4468722259242" lon="5.552099998875405" id="-3418">
=======
	<node id="-38617" lat="59.4225416663" lon="5.78369445003">
>>>>>>> e1d4bc35ff8a6074a6f2e91616a996b547c36f15
		<tag k="fixme" v="consider place=hamlet" />
		<tag k="name" v="Steinbru" />
		<tag k="place" v="farm" />
		<tag k="ssr:stedsnr" v="245777" />
	</node>
<<<<<<< HEAD
	<node lat="59.37105000106938" lon="5.614575000107387" id="-3427">
		<tag k="name" v="Skogøy" />
=======
	<node id="-38614" lat="59.4255222191" lon="5.51617222534">
		<tag k="fixme" v="consider place=hamlet" />
		<tag k="name" v="Søvik" />
>>>>>>> e1d4bc35ff8a6074a6f2e91616a996b547c36f15
		<tag k="place" v="farm" />
		<tag k="ssr:stedsnr" v="114032" />
	</node>
<<<<<<< HEAD
	<node lat="59.43148055806319" lon="5.635966662783668" id="-3438">
		<tag k="alt_name" v="Ikdal" />
=======
	<node id="-38613" lat="59.4525916705" lon="5.38286944712">
		<tag k="alt_name" v="Neseim" />
>>>>>>> e1d4bc35ff8a6074a6f2e91616a996b547c36f15
		<tag k="fixme" v="consider place=hamlet" />
		<tag k="name" v="Ikedal" />
		<tag k="place" v="farm" />
		<tag k="ssr:stedsnr" v="123021" />
	</node>
<<<<<<< HEAD
	<node lat="59.412252779825565" lon="5.627766672707738" id="-3439">
		<tag k="alt_name" v="Hatten" />
		<tag k="name" v="Bergstrand" />
=======
	<node id="-38608" lat="59.4160021515" lon="5.38373565365">
		<tag k="alt_name" v="Nap" />
		<tag k="name" v="Napp" />
>>>>>>> e1d4bc35ff8a6074a6f2e91616a996b547c36f15
		<tag k="place" v="farm" />
		<tag k="ssr:stedsnr" v="123072" />
	</node>
<<<<<<< HEAD
	<node lat="59.307769446327256" lon="5.47346111672408" id="-3445">
		<tag k="name" v="Kvinnesland" />
		<tag k="place" v="hamlet" />
		<tag k="ssr:stedsnr" v="123220" />
	</node>
	<node lat="59.29754444293558" lon="5.470525000313618" id="-3446">
=======
	<node id="-36813" lat="59.4131861102" lon="5.6097305602">
		<tag k="alt_name" v="Apadlevika" />
		<tag k="fixme" v="consider place=hamlet" />
		<tag k="name" v="Apalvik" />
		<tag k="place" v="farm" />
		<tag k="ssr:stedsnr" v="24101" />
	</node>
	<node id="-38599" lat="59.2974861142" lon="5.66817777629">
		<tag k="name" v="Årvågen" />
		<tag k="place" v="farm" />
		<tag k="ssr:stedsnr" v="356993" />
	</node>
	<node id="-36811" lat="59.2900530966" lon="5.5449328994">
		<tag k="name" v="Nydal" />
		<tag k="place" v="farm" />
		<tag k="ssr:stedsnr" v="2241" />
	</node>
	<node id="-38589" lat="59.3338972225" lon="5.75475832697">
>>>>>>> e1d4bc35ff8a6074a6f2e91616a996b547c36f15
		<tag k="fixme" v="consider place=hamlet" />
		<tag k="name" v="Eikje" />
		<tag k="place" v="farm" />
		<tag k="ssr:stedsnr" v="123222" />
	</node>
<<<<<<< HEAD
	<node lat="59.324127778463804" lon="5.593588888221668" id="-3450">
=======
	<node id="-38587" lat="59.4333472217" lon="5.8337722143">
>>>>>>> e1d4bc35ff8a6074a6f2e91616a996b547c36f15
		<tag k="fixme" v="consider place=hamlet" />
		<tag k="name" v="Hervik" />
		<tag k="place" v="village" />
		<tag k="ssr:stedsnr" v="123168" />
	</node>
	<node lat="59.31903055718292" lon="5.473641660958883" id="-3452">
		<tag k="name" v="Gunnarseie" />
		<tag k="place" v="farm" />
		<tag k="ssr:stedsnr" v="123176" />
	</node>
<<<<<<< HEAD
	<node lat="59.41187499662555" lon="5.85087499172727" id="-3454">
		<tag k="fixme" v="consider place=hamlet" />
		<tag k="name" v="Haukali" />
=======
	<node id="-38562" lat="59.3519111099" lon="5.75780834055">
		<tag k="name" v="Eikåsen" />
>>>>>>> e1d4bc35ff8a6074a6f2e91616a996b547c36f15
		<tag k="place" v="farm" />
		<tag k="ssr:stedsnr" v="123394" />
	</node>
<<<<<<< HEAD
	<node lat="59.41474721942666" lon="5.843091670749931" id="-3455">
		<tag k="alt_name" v="Soleim" />
=======
	<node id="-38555" lat="59.3495154379" lon="5.80012368536">
		<tag k="alt_name" v="Hindarå (Prestagarden);Prestagarden" />
>>>>>>> e1d4bc35ff8a6074a6f2e91616a996b547c36f15
		<tag k="fixme" v="consider place=hamlet" />
		<tag k="name" v="Solheim" />
		<tag k="place" v="farm" />
		<tag k="ssr:stedsnr" v="123397" />
	</node>
<<<<<<< HEAD
	<node lat="59.42814900404119" lon="5.4843739532530975" id="-3460">
		<tag k="name" v="Litlaskog" />
=======
	<node id="-38553" lat="59.3512749957" lon="5.79202776957">
		<tag k="name" v="Lasshidler" />
>>>>>>> e1d4bc35ff8a6074a6f2e91616a996b547c36f15
		<tag k="place" v="farm" />
		<tag k="ssr:stedsnr" v="123776" />
	</node>
<<<<<<< HEAD
	<node lat="59.43102500417683" lon="5.493375004439954" id="-3461">
		<tag k="alt_name" v="Bakkje" />
		<tag k="name" v="Bakke" />
=======
	<node id="-36804" lat="59.3317833335" lon="5.53218056039">
		<tag k="name" v="Fagerland" />
		<tag k="place" v="farm" />
		<tag k="ssr:stedsnr" v="2180" />
	</node>
	<node id="-36802" lat="59.3413166697" lon="5.82679722721">
		<tag k="fixme" v="consider place=hamlet" />
		<tag k="name" v="Bausta" />
		<tag k="place" v="farm" />
		<tag k="ssr:stedsnr" v="2164" />
	</node>
	<node id="-38528" lat="59.2766083338" lon="5.48328889229">
		<tag k="name" v="Bustø" />
>>>>>>> e1d4bc35ff8a6074a6f2e91616a996b547c36f15
		<tag k="place" v="farm" />
		<tag k="ssr:stedsnr" v="123777" />
	</node>
<<<<<<< HEAD
	<node lat="59.29354444555147" lon="5.44646943810051" id="-3465">
		<tag k="name" v="Gjesdal" />
=======
	<node id="-38527" lat="59.2840416628" lon="5.47118888553">
		<tag k="name" v="Urå" />
>>>>>>> e1d4bc35ff8a6074a6f2e91616a996b547c36f15
		<tag k="place" v="farm" />
		<tag k="ssr:stedsnr" v="147120" />
	</node>
<<<<<<< HEAD
	<node lat="59.31240833031585" lon="5.465052783291107" id="-3470">
		<tag k="name" v="Kjorkjeleitet" />
=======
	<node id="-38510" lat="59.3630112827" lon="5.74982192163">
		<tag k="name" v="Litle Bjelland" />
>>>>>>> e1d4bc35ff8a6074a6f2e91616a996b547c36f15
		<tag k="place" v="farm" />
		<tag k="ssr:stedsnr" v="147658" />
	</node>
<<<<<<< HEAD
	<node lat="59.300969444876515" lon="5.467494443077817" id="-3472">
		<tag k="name" v="Hidleren" />
=======
	<node id="-38509" lat="59.3612609079" lon="5.74924608269">
		<tag k="name" v="Store Bjelland" />
>>>>>>> e1d4bc35ff8a6074a6f2e91616a996b547c36f15
		<tag k="place" v="farm" />
		<tag k="ssr:stedsnr" v="147665" />
	</node>
<<<<<<< HEAD
	<node lat="59.34555555630517" lon="5.746958334780736" id="-3479">
		<tag k="name" v="Saga" />
=======
	<node id="-38505" lat="59.3080416688" lon="5.44943888894">
		<tag k="alt_name" v="Odland" />
		<tag k="fixme" v="consider place=hamlet" />
		<tag k="name" v="Ådland" />
>>>>>>> e1d4bc35ff8a6074a6f2e91616a996b547c36f15
		<tag k="place" v="farm" />
		<tag k="ssr:stedsnr" v="162475" />
	</node>
	<node lat="59.30313611030905" lon="5.690277785078812" id="-3490">
		<tag k="name" v="Bekkjavik" />
		<tag k="place" v="farm" />
		<tag k="ssr:stedsnr" v="174107" />
	</node>
<<<<<<< HEAD
	<node lat="59.432458336503146" lon="5.560783325433085" id="-3510">
		<tag k="alt_name" v="Stakkland" />
=======
	<node id="-38501" lat="59.4392111075" lon="5.55509999629">
>>>>>>> e1d4bc35ff8a6074a6f2e91616a996b547c36f15
		<tag k="fixme" v="consider place=hamlet" />
		<tag k="name" v="Stakland" />
		<tag k="place" v="farm" />
		<tag k="ssr:stedsnr" v="175013" />
	</node>
<<<<<<< HEAD
	<node lat="59.30155000157068" lon="5.6795194462868315" id="-3511">
		<tag k="name" v="Lund" />
=======
	<node id="-38494" lat="59.2846999985" lon="5.52206110721">
		<tag k="name" v="Fagerheim" />
>>>>>>> e1d4bc35ff8a6074a6f2e91616a996b547c36f15
		<tag k="place" v="farm" />
		<tag k="ssr:stedsnr" v="174957" />
	</node>
<<<<<<< HEAD
	<node lat="59.4245444474912" lon="5.4170527750435" id="-3517">
=======
	<node id="-38487" lat="59.3696749974" lon="5.80717500415">
>>>>>>> e1d4bc35ff8a6074a6f2e91616a996b547c36f15
		<tag k="fixme" v="consider place=hamlet" />
		<tag k="name" v="Helgaland" />
		<tag k="place" v="farm" />
		<tag k="ssr:stedsnr" v="183638" />
	</node>
<<<<<<< HEAD
	<node lat="59.37246111403942" lon="5.477538896750076" id="-3520">
=======
	<node id="-38483" lat="59.4408111103" lon="5.5996222272">
>>>>>>> e1d4bc35ff8a6074a6f2e91616a996b547c36f15
		<tag k="fixme" v="consider place=hamlet" />
		<tag k="name" v="Klovning" />
		<tag k="place" v="farm" />
		<tag k="ssr:stedsnr" v="184053" />
	</node>
<<<<<<< HEAD
	<node lat="59.32088889322349" lon="5.653383340423141" id="-3523">
		<tag k="alt_name" v="Skiljavik" />
		<tag k="name" v="Skjeljavika" />
=======
	<node id="-38477" lat="59.3471083358" lon="5.87228889121">
		<tag k="name" v="Nymark" />
>>>>>>> e1d4bc35ff8a6074a6f2e91616a996b547c36f15
		<tag k="place" v="farm" />
		<tag k="ssr:stedsnr" v="184207" />
	</node>
<<<<<<< HEAD
	<node lat="59.27669829583409" lon="5.5245502977933185" id="-3525">
		<tag k="name" v="Slettabø" />
		<tag k="place" v="locality" />
		<tag k="ssr:stedsnr" v="184223" />
	</node>
	<node lat="59.3004305513263" lon="5.673225004293156" id="-3529">
		<tag k="fixme" v="consider place=hamlet" />
		<tag k="name" v="Topnes" />
=======
	<node id="-38476" lat="59.3506444437" lon="5.87519999444">
		<tag k="alt_name" v="Øverland" />
		<tag k="fixme" v="consider place=hamlet" />
		<tag k="name" v="Øvreland" />
		<tag k="place" v="farm" />
		<tag k="ssr:stedsnr" v="305533" />
	</node>
	<node id="-38473" lat="59.3450055527" lon="5.75329166116">
		<tag k="alt_name" v="Tednaland" />
		<tag k="fixme" v="consider place=hamlet" />
		<tag k="name" v="Ternaland" />
		<tag k="place" v="farm" />
		<tag k="ssr:stedsnr" v="305179" />
	</node>
	<node id="-38470" lat="59.3321916634" lon="5.54081944951">
		<tag k="name" v="Sørbø" />
		<tag k="place" v="farm" />
		<tag k="ssr:stedsnr" v="305167" />
	</node>
	<node id="-38468" lat="59.3444916695" lon="5.79532500821">
		<tag k="amenity" v="school" />
		<tag k="name" v="Tveit Vidaregåande Skole" />
		<tag k="old_name" v="Tveit;Tveit Jordbruksskole" />
		<tag k="ssr:stedsnr" v="305161" />
	</node>
	<node id="-36879" lat="59.2839666673" lon="5.51982499567">
		<tag k="name" v="Skaret" />
		<tag k="place" v="farm" />
		<tag k="ssr:stedsnr" v="236337" />
	</node>
	<node id="-38452" lat="59.3931444402" lon="5.46653055194">
		<tag k="name" v="Hadlaland" />
>>>>>>> e1d4bc35ff8a6074a6f2e91616a996b547c36f15
		<tag k="place" v="farm" />
		<tag k="ssr:stedsnr" v="184236" />
	</node>
<<<<<<< HEAD
	<node lat="59.29735000132384" lon="5.668358325908793" id="-3530">
		<tag k="name" v="Voll" />
=======
	<node id="-38445" lat="59.3192277761" lon="5.4729083322">
		<tag k="name" v="Troppene" />
>>>>>>> e1d4bc35ff8a6074a6f2e91616a996b547c36f15
		<tag k="place" v="farm" />
		<tag k="ssr:stedsnr" v="184237" />
	</node>
<<<<<<< HEAD
	<node lat="59.380295839958976" lon="5.646291170505053" id="-3531">
		<tag k="name" v="Kreppene" />
		<tag k="place" v="hamlet" />
		<tag k="ssr:stedsnr" v="184102" />
	</node>
	<node lat="59.370461108455984" lon="5.602861109288333" id="-3532">
		<tag k="name" v="Vågane" />
=======
	<node id="-38444" lat="59.3038250013" lon="5.40509722755">
		<tag k="name" v="Vestgarden" />
		<tag k="place" v="farm" />
		<tag k="ssr:stedsnr" v="208658" />
	</node>
	<node id="-38436" lat="59.366244446" lon="5.38444999575">
		<tag k="name" v="Solstrand" />
>>>>>>> e1d4bc35ff8a6074a6f2e91616a996b547c36f15
		<tag k="place" v="farm" />
		<tag k="ssr:stedsnr" v="184116" />
	</node>
<<<<<<< HEAD
	<node lat="59.34482499673098" lon="5.625486109851933" id="-3534">
		<tag k="name" v="Hattarvik" />
=======
	<node id="-38435" lat="59.2939138932" lon="5.44813610906">
		<tag k="name" v="Gjøstol" />
>>>>>>> e1d4bc35ff8a6074a6f2e91616a996b547c36f15
		<tag k="place" v="farm" />
		<tag k="ssr:stedsnr" v="184121" />
	</node>
<<<<<<< HEAD
	<node lat="59.35396666279836" lon="5.6507916714794355" id="-3535">
		<tag k="alt_name" v="Borgøy" />
		<tag k="fixme" v="consider place=hamlet" />
		<tag k="name" v="Borgøyna" />
=======
	<node id="-38432" lat="59.4485166711" lon="5.62333055351">
		<tag k="name" v="Øvrabø" />
>>>>>>> e1d4bc35ff8a6074a6f2e91616a996b547c36f15
		<tag k="place" v="farm" />
		<tag k="ssr:stedsnr" v="184133" />
	</node>
<<<<<<< HEAD
	<node lat="59.35558610861462" lon="5.66340555179393" id="-3537">
=======
	<node id="-38424" lat="59.3564750024" lon="5.88074999595">
		<tag k="alt_name" v="Nessa, store" />
>>>>>>> e1d4bc35ff8a6074a6f2e91616a996b547c36f15
		<tag k="fixme" v="consider place=hamlet" />
		<tag k="name" v="Sandvik" />
		<tag k="place" v="farm" />
		<tag k="ssr:stedsnr" v="184135" />
	</node>
<<<<<<< HEAD
	<node lat="59.35090833261348" lon="5.479913891006849" id="-3540">
=======
	<node id="-38421" lat="59.4507638851" lon="5.62088056258">
		<tag k="alt_name" v="Sponavik" />
>>>>>>> e1d4bc35ff8a6074a6f2e91616a996b547c36f15
		<tag k="fixme" v="consider place=hamlet" />
		<tag k="name" v="Gjerde" />
		<tag k="place" v="farm" />
		<tag k="ssr:stedsnr" v="184147" />
	</node>
<<<<<<< HEAD
	<node lat="59.347594175978195" lon="5.705575060634192" id="-3541">
		<tag k="name" v="Hustopt" />
=======
	<node id="-38420" lat="59.4352916692" lon="5.54719167185">
		<tag k="fixme" v="consider place=hamlet" />
		<tag k="name" v="Aukland" />
>>>>>>> e1d4bc35ff8a6074a6f2e91616a996b547c36f15
		<tag k="place" v="farm" />
		<tag k="ssr:stedsnr" v="184190" />
	</node>
<<<<<<< HEAD
	<node lat="59.44732499591772" lon="5.606533331545758" id="-3546">
=======
	<node id="-38419" lat="59.4473249959" lon="5.60653333155">
>>>>>>> e1d4bc35ff8a6074a6f2e91616a996b547c36f15
		<tag k="fixme" v="consider place=hamlet" />
		<tag k="name" v="Bjoland" />
		<tag k="place" v="farm" />
		<tag k="ssr:stedsnr" v="184743" />
	</node>
<<<<<<< HEAD
	<node lat="59.27194444033152" lon="5.512499994642118" id="-3554">
		<tag k="building" v="industrial" />
		<tag k="industrial" v="factory" />
		<tag k="name" v="Equinor Kårstø" />
		<tag k="old_name" v="Statoil Kårstø;Kårstø" />
		<tag k="ssr:stedsnr" v="267965" />
	</node>
	<node lat="59.2939138932309" lon="5.448136109061333" id="-3559">
		<tag k="name" v="Gjøstol" />
=======
	<node id="-38416" lat="59.3635138867" lon="5.40308333386">
		<tag k="alt_name" v="Vodl" />
		<tag k="name" v="Voll" />
		<tag k="place" v="farm" />
		<tag k="ssr:stedsnr" v="184573" />
	</node>
	<node id="-38415" lat="59.3644833376" lon="5.46107500439">
		<tag k="alt_name" v="Apelan" />
		<tag k="fixme" v="consider place=hamlet" />
		<tag k="name" v="Apeland" />
>>>>>>> e1d4bc35ff8a6074a6f2e91616a996b547c36f15
		<tag k="place" v="farm" />
		<tag k="ssr:stedsnr" v="207122" />
	</node>
<<<<<<< HEAD
	<node lat="59.43330000398616" lon="5.627477770907504" id="-3560">
		<tag k="name" v="Steinstø" />
		<tag k="place" v="isolated_dwelling" />
		<tag k="ssr:stedsnr" v="268841" />
	</node>
	<node lat="59.339447221222756" lon="5.4475194402609" id="-3578">
		<tag k="name" v="Træet" />
=======
	<node id="-38409" lat="59.2660055579" lon="5.6536388912">
		<tag k="name" v="Stong" />
		<tag k="place" v="farm" />
		<tag k="ssr:stedsnr" v="184243" />
	</node>
	<node id="-38408" lat="59.2973500013" lon="5.66835832591">
		<tag k="name" v="Voll" />
>>>>>>> e1d4bc35ff8a6074a6f2e91616a996b547c36f15
		<tag k="place" v="farm" />
		<tag k="ssr:stedsnr" v="269719" />
	</node>
<<<<<<< HEAD
	<node lat="59.397393710156585" lon="5.6691386812495415" id="-3590">
=======
	<node id="-38407" lat="59.3004305513" lon="5.67322500429">
>>>>>>> e1d4bc35ff8a6074a6f2e91616a996b547c36f15
		<tag k="fixme" v="consider place=hamlet" />
		<tag k="name" v="Yrke" />
		<tag k="place" v="village" />
		<tag k="ssr:stedsnr" v="449681" />
	</node>
<<<<<<< HEAD
	<node lat="59.283966667263414" lon="5.5198249956701035" id="-3621">
		<tag k="name" v="Skaret" />
		<tag k="place" v="farm" />
		<tag k="ssr:stedsnr" v="236337" />
	</node>
	<node lat="59.3324638896049" lon="5.395413890605593" id="-3632">
		<tag k="name" v="Midtbø" />
=======
	<node id="-38403" lat="59.2766982958" lon="5.52455029779">
		<tag k="name" v="Slettabø" />
		<tag k="place" v="locality" />
		<tag k="ssr:stedsnr" v="184223" />
	</node>
	<node id="-38401" lat="59.3208888932" lon="5.65338334042">
		<tag k="alt_name" v="Skiljavik" />
		<tag k="name" v="Skjeljavika" />
>>>>>>> e1d4bc35ff8a6074a6f2e91616a996b547c36f15
		<tag k="place" v="farm" />
		<tag k="ssr:stedsnr" v="451094" />
	</node>
<<<<<<< HEAD
	<node lat="59.29968889305543" lon="5.580516663547969" id="-3633">
		<tag k="name" v="Strondå" />
=======
	<node id="-38398" lat="59.347594176" lon="5.70557506063">
		<tag k="name" v="Hustopt" />
>>>>>>> e1d4bc35ff8a6074a6f2e91616a996b547c36f15
		<tag k="place" v="farm" />
		<tag k="ssr:stedsnr" v="451434" />
	</node>
<<<<<<< HEAD
	<node lat="59.289547217754134" lon="5.470199993667904" id="-3634">
		<tag k="name" v="Leirviktræet" />
=======
	<node id="-38395" lat="59.3509083326" lon="5.47991389101">
		<tag k="fixme" v="consider place=hamlet" />
		<tag k="name" v="Gjerde" />
>>>>>>> e1d4bc35ff8a6074a6f2e91616a996b547c36f15
		<tag k="place" v="farm" />
		<tag k="ssr:stedsnr" v="451630" />
	</node>
<<<<<<< HEAD
	<node lat="59.42450555590307" lon="5.463341665837773" id="-3639">
		<tag k="name" v="Grovå" />
=======
	<node id="-38392" lat="59.3555861086" lon="5.66340555179">
		<tag k="fixme" v="consider place=hamlet" />
		<tag k="name" v="Sandvik" />
>>>>>>> e1d4bc35ff8a6074a6f2e91616a996b547c36f15
		<tag k="place" v="farm" />
		<tag k="ssr:stedsnr" v="451755" />
	</node>
<<<<<<< HEAD
	<node lat="59.38844167056726" lon="5.4062888876827495" id="-3640">
		<tag k="name" v="Grønvik" />
=======
	<node id="-38390" lat="59.3539666628" lon="5.65079167148">
		<tag k="alt_name" v="Borgøy" />
		<tag k="fixme" v="consider place=hamlet" />
		<tag k="name" v="Borgøyna" />
>>>>>>> e1d4bc35ff8a6074a6f2e91616a996b547c36f15
		<tag k="place" v="farm" />
		<tag k="ssr:stedsnr" v="244612" />
	</node>
<<<<<<< HEAD
	<node lat="59.37462777830361" lon="5.401369452355452" id="-3642">
		<tag k="name" v="Våga" />
=======
	<node id="-38389" lat="59.3586305516" lon="5.83216944527">
		<tag k="fixme" v="consider place=hamlet" />
		<tag k="name" v="Aksland" />
>>>>>>> e1d4bc35ff8a6074a6f2e91616a996b547c36f15
		<tag k="place" v="farm" />
		<tag k="ssr:stedsnr" v="244583" />
	</node>
<<<<<<< HEAD
	<node lat="59.44760833693918" lon="5.368375005598616" id="-3643">
		<tag k="name" v="Håvåshytta" />
		<tag k="place" v="isolated_dwelling" />
		<tag k="ssr:stedsnr" v="244703" />
	</node>
	<node lat="59.37452777855388" lon="5.607561106958124" id="-3650">
		<tag k="name" v="Fredheim" />
=======
	<node id="-38388" lat="59.3448249967" lon="5.62548610985">
		<tag k="name" v="Hattarvik" />
>>>>>>> e1d4bc35ff8a6074a6f2e91616a996b547c36f15
		<tag k="place" v="farm" />
		<tag k="ssr:stedsnr" v="245086" />
	</node>
<<<<<<< HEAD
	<node lat="59.32266944549236" lon="5.677350003649726" id="-3651">
		<tag k="alt_name" v="Borenvik" />
		<tag k="fixme" v="consider place=hamlet" />
		<tag k="name" v="Bornevik" />
=======
	<node id="-38386" lat="59.3704611085" lon="5.60286110929">
		<tag k="name" v="Vågane" />
>>>>>>> e1d4bc35ff8a6074a6f2e91616a996b547c36f15
		<tag k="place" v="farm" />
		<tag k="ssr:stedsnr" v="245202" />
	</node>
<<<<<<< HEAD
	<node lat="59.463269443229066" lon="5.467908336971943" id="-3656">
		<tag k="name" v="Våg" />
		<tag k="place" v="hamlet" />
		<tag k="ssr:stedsnr" v="245637" />
	</node>
	<node lat="59.28361944108239" lon="5.474644447333537" id="-3660">
		<tag k="name" v="Myrå" />
=======
	<node id="-38385" lat="59.3833555561" lon="5.64309166508">
		<tag k="name" v="Kreppene" />
		<tag k="place" v="locality" />
		<tag k="ssr:stedsnr" v="184102" />
	</node>
	<node id="-38382" lat="59.4027027748" lon="5.66845000058">
		<tag k="name" v="Stølane" />
>>>>>>> e1d4bc35ff8a6074a6f2e91616a996b547c36f15
		<tag k="place" v="farm" />
		<tag k="ssr:stedsnr" v="452652" />
	</node>
<<<<<<< HEAD
	<node lat="59.29677147220075" lon="5.42958738753357" id="-3661">
		<tag k="name" v="Grønestøl" />
=======
	<node id="-38380" lat="59.372461114" lon="5.47753889675">
		<tag k="fixme" v="consider place=hamlet" />
		<tag k="name" v="Klovning" />
>>>>>>> e1d4bc35ff8a6074a6f2e91616a996b547c36f15
		<tag k="place" v="farm" />
		<tag k="ssr:stedsnr" v="267088" />
	</node>
<<<<<<< HEAD
	<node lat="59.31181388852008" lon="5.394333339069242" id="-3665">
		<tag k="name" v="Ramskår" />
		<tag k="place" v="farm" />
		<tag k="ssr:stedsnr" v="269076" />
	</node>
	<node lat="59.29524721993048" lon="5.430580550412445" id="-3668">
		<tag k="alt_name" v="Østersund" />
		<tag k="name" v="Austresund" />
=======
	<node id="-38378" lat="59.4245444475" lon="5.41705277504">
		<tag k="fixme" v="consider place=hamlet" />
		<tag k="name" v="Helgaland" />
		<tag k="place" v="farm" />
		<tag k="ssr:stedsnr" v="183638" />
	</node>
	<node id="-38376" lat="59.326074999" lon="5.53921666222">
		<tag k="name" v="Åsen" />
		<tag k="place" v="hamlet" />
		<tag k="ssr:stedsnr" v="182790" />
	</node>
	<node id="-38361" lat="59.4324583365" lon="5.56078332543">
		<tag k="alt_name" v="Stakkland" />
		<tag k="fixme" v="consider place=hamlet" />
		<tag k="name" v="Stakland" />
>>>>>>> e1d4bc35ff8a6074a6f2e91616a996b547c36f15
		<tag k="place" v="farm" />
		<tag k="ssr:stedsnr" v="269690" />
	</node>
<<<<<<< HEAD
	<node lat="59.403541665977976" lon="5.681377784632229" id="-3681">
		<tag k="name" v="Eide" />
=======
	<node id="-38359" lat="59.3478777777" lon="5.56702778002">
		<tag k="name" v="Sandsmark" />
>>>>>>> e1d4bc35ff8a6074a6f2e91616a996b547c36f15
		<tag k="place" v="farm" />
		<tag k="ssr:stedsnr" v="295911" />
	</node>
<<<<<<< HEAD
	<node lat="59.33219166335871" lon="5.5408194495059115" id="-3694">
		<tag k="name" v="Sørbø" />
=======
	<node id="-38357" lat="59.3015500016" lon="5.67951944629">
		<tag k="name" v="Lund" />
>>>>>>> e1d4bc35ff8a6074a6f2e91616a996b547c36f15
		<tag k="place" v="farm" />
		<tag k="ssr:stedsnr" v="305167" />
	</node>
<<<<<<< HEAD
	<node lat="59.35064444369406" lon="5.875199994438029" id="-3696">
		<tag k="alt_name" v="Øverland" />
=======
	<node id="-38350" lat="59.3290666657" lon="5.72085277659">
>>>>>>> e1d4bc35ff8a6074a6f2e91616a996b547c36f15
		<tag k="fixme" v="consider place=hamlet" />
		<tag k="name" v="Øvreland" />
		<tag k="place" v="farm" />
		<tag k="ssr:stedsnr" v="305533" />
	</node>
<<<<<<< HEAD
	<node lat="59.284699998479006" lon="5.522061107206767" id="-3703">
		<tag k="name" v="Fagerheim" />
=======
	<node id="-38324" lat="59.3031361103" lon="5.69027778508">
		<tag k="name" v="Bekkjavik" />
>>>>>>> e1d4bc35ff8a6074a6f2e91616a996b547c36f15
		<tag k="place" v="farm" />
		<tag k="ssr:stedsnr" v="306226" />
	</node>
<<<<<<< HEAD
	<node lat="59.30804166879665" lon="5.44943888893709" id="-3707">
		<tag k="alt_name" v="Odland" />
		<tag k="fixme" v="consider place=hamlet" />
		<tag k="name" v="Ådland" />
=======
	<node id="-38307" lat="59.3455555563" lon="5.74695833478">
		<tag k="name" v="Saga" />
>>>>>>> e1d4bc35ff8a6074a6f2e91616a996b547c36f15
		<tag k="place" v="farm" />
		<tag k="ssr:stedsnr" v="306959" />
	</node>
<<<<<<< HEAD
	<node lat="59.36126090791987" lon="5.749246082690262" id="-3712">
		<tag k="name" v="Store Bjelland" />
=======
	<node id="-38294" lat="59.4124694431" lon="5.38451388277">
		<tag k="alt_name" v="Utnarvik" />
		<tag k="name" v="Udnavik" />
>>>>>>> e1d4bc35ff8a6074a6f2e91616a996b547c36f15
		<tag k="place" v="farm" />
		<tag k="ssr:stedsnr" v="328455" />
	</node>
<<<<<<< HEAD
	<node lat="59.363011282749476" lon="5.749821921631513" id="-3713">
		<tag k="name" v="Litle Bjelland" />
=======
	<node id="-38290" lat="59.4626554194" lon="5.58981971222">
		<tag k="name" v="Nylund" />
>>>>>>> e1d4bc35ff8a6074a6f2e91616a996b547c36f15
		<tag k="place" v="farm" />
		<tag k="ssr:stedsnr" v="328457" />
	</node>
<<<<<<< HEAD
	<node lat="59.38323333579256" lon="5.6432194441143055" id="-3735">
		<tag k="fixme" v="consider place=hamlet" />
		<tag k="name" v="Nordre Kreppene" />
=======
	<node id="-38288" lat="59.2834499984" lon="5.51175554798">
		<tag k="alt_name" v="Kleivå" />
		<tag k="name" v="Kleiva" />
>>>>>>> e1d4bc35ff8a6074a6f2e91616a996b547c36f15
		<tag k="place" v="farm" />
		<tag k="ssr:stedsnr" v="356110" />
	</node>
<<<<<<< HEAD
	<node lat="59.34951543794102" lon="5.800123685355791" id="-3736">
		<tag k="alt_name" v="Hindarå (Prestagarden);Prestagarden" />
=======
	<node id="-38287" lat="59.3605495352" lon="5.74864495744">
>>>>>>> e1d4bc35ff8a6074a6f2e91616a996b547c36f15
		<tag k="fixme" v="consider place=hamlet" />
		<tag k="name" v="Hindarå" />
		<tag k="place" v="farm" />
		<tag k="ssr:stedsnr" v="356181" />
	</node>
<<<<<<< HEAD
	<node lat="59.43334722170508" lon="5.833772214302503" id="-3747">
=======
	<node id="-38286" lat="59.3465583359" lon="5.53389999188">
>>>>>>> e1d4bc35ff8a6074a6f2e91616a996b547c36f15
		<tag k="fixme" v="consider place=hamlet" />
		<tag k="name" v="Hapnes" />
		<tag k="place" v="farm" />
		<tag k="ssr:stedsnr" v="356806" />
	</node>
<<<<<<< HEAD
	<node lat="59.452591670507864" lon="5.382869447115859" id="-3783">
		<tag k="alt_name" v="Neseim" />
=======
	<node id="-37101" lat="59.3973937102" lon="5.66913868125">
		<tag k="fixme" v="consider place=hamlet" />
		<tag k="name" v="Yrke" />
		<tag k="place" v="village" />
		<tag k="ssr:stedsnr" v="449681" />
	</node>
	<node id="-38283" lat="59.3537444428" lon="5.61020834039">
>>>>>>> e1d4bc35ff8a6074a6f2e91616a996b547c36f15
		<tag k="fixme" v="consider place=hamlet" />
		<tag k="name" v="Nesheim" />
		<tag k="place" v="farm" />
		<tag k="ssr:stedsnr" v="365688" />
	</node>
<<<<<<< HEAD
	<node lat="59.30406388590978" lon="5.554874996470769" id="-3786">
		<tag k="alt_name" v="Askeland" />
		<tag k="fixme" v="consider place=hamlet" />
		<tag k="name" v="Oskeland" />
=======
	<node id="-38277" lat="59.4310250042" lon="5.49337500444">
		<tag k="alt_name" v="Bakkje" />
		<tag k="name" v="Bakke" />
>>>>>>> e1d4bc35ff8a6074a6f2e91616a996b547c36f15
		<tag k="place" v="farm" />
		<tag k="ssr:stedsnr" v="366203" />
	</node>
<<<<<<< HEAD
	<node lat="59.30278333413681" lon="5.514930548718288" id="-3793">
		<tag k="name" v="Rossmyr" />
=======
	<node id="-38276" lat="59.428149004" lon="5.48437395325">
		<tag k="name" v="Litlaskog" />
>>>>>>> e1d4bc35ff8a6074a6f2e91616a996b547c36f15
		<tag k="place" v="farm" />
		<tag k="ssr:stedsnr" v="478587" />
	</node>
<<<<<<< HEAD
	<node lat="59.29462500445814" lon="5.663097230177117" id="-3794">
		<tag k="alt_name" v="Ytre Li" />
		<tag k="fixme" v="consider place=hamlet" />
		<tag k="name" v="Li" />
		<tag k="place" v="farm" />
		<tag k="ssr:stedsnr" v="366231" />
	</node>
	<node lat="59.33107777861851" lon="5.396452780895024" id="-3801">
		<tag k="alt_name" v="Breidvik" />
		<tag k="name" v="Breivik" />
		<tag k="place" v="farm" />
		<tag k="ssr:stedsnr" v="366984" />
	</node>
	<node lat="59.41750555187985" lon="5.384277781029602" id="-3812">
		<tag k="alt_name" v="Smoget" />
		<tag k="name" v="Smågjet" />
		<tag k="place" v="farm" />
		<tag k="ssr:stedsnr" v="390006" />
	</node>
	<node lat="59.34654722329889" lon="5.4865444492802995" id="-3815">
=======
	<node id="-38266" lat="59.3976000004" lon="5.86210000075">
>>>>>>> e1d4bc35ff8a6074a6f2e91616a996b547c36f15
		<tag k="fixme" v="consider place=hamlet" />
		<tag k="name" v="Gombadalen" />
		<tag k="place" v="farm" />
		<tag k="ssr:stedsnr" v="390287" />
	</node>
<<<<<<< HEAD
	<node lat="59.307919449028056" lon="5.477327782669483" id="-3818">
=======
	<node id="-38265" lat="59.4147472194" lon="5.84309167075">
		<tag k="alt_name" v="Soleim" />
>>>>>>> e1d4bc35ff8a6074a6f2e91616a996b547c36f15
		<tag k="fixme" v="consider place=hamlet" />
		<tag k="name" v="Øvre Kvinnesland" />
		<tag k="place" v="farm" />
		<tag k="ssr:stedsnr" v="390643" />
	</node>
<<<<<<< HEAD
	<node lat="59.43046689514988" lon="5.486699997214272" id="-3823">
=======
	<node id="-38264" lat="59.4118749966" lon="5.85087499173">
>>>>>>> e1d4bc35ff8a6074a6f2e91616a996b547c36f15
		<tag k="fixme" v="consider place=hamlet" />
		<tag k="name" v="Litlaskog" />
		<tag k="place" v="farm" />
		<tag k="ssr:stedsnr" v="485756" />
	</node>
<<<<<<< HEAD
	<node lat="59.45417222364861" lon="5.380811104113394" id="-3824">
		<tag k="alt_name" v="Neseim" />
		<tag k="name" v="Nesheim" />
=======
	<node id="-38261" lat="59.3166472214" lon="5.49434444354">
		<tag k="alt_name" v="Djupdal" />
		<tag k="name" v="Djupedal" />
>>>>>>> e1d4bc35ff8a6074a6f2e91616a996b547c36f15
		<tag k="place" v="farm" />
		<tag k="ssr:stedsnr" v="485762" />
	</node>
<<<<<<< HEAD
	<node lat="59.36530277481101" lon="5.391680553236698" id="-3825">
		<tag k="alt_name" v="Høye" />
=======
	<node id="-38260" lat="59.33171944" lon="5.72812499999">
		<tag k="alt_name" v="Leirong" />
>>>>>>> e1d4bc35ff8a6074a6f2e91616a996b547c36f15
		<tag k="fixme" v="consider place=hamlet" />
		<tag k="name" v="Hauge" />
		<tag k="place" v="farm" />
		<tag k="ssr:stedsnr" v="485766" />
	</node>
<<<<<<< HEAD
	<node lat="59.34055277428822" lon="5.6408194469005855" id="-3828">
		<tag k="name" v="Østabøvik" />
=======
	<node id="-38259" lat="59.318786114" lon="5.56234999664">
		<tag k="alt_name" v="Rossadalen" />
		<tag k="fixme" v="consider place=hamlet" />
		<tag k="name" v="Rossadal" />
>>>>>>> e1d4bc35ff8a6074a6f2e91616a996b547c36f15
		<tag k="place" v="farm" />
		<tag k="ssr:stedsnr" v="487121" />
	</node>
<<<<<<< HEAD
	<node lat="59.342352779188076" lon="5.701800005585419" id="-3829">
		<tag k="alt_name" v="Klungstveit" />
=======
	<node id="-38258" lat="59.2975444429" lon="5.47052500031">
>>>>>>> e1d4bc35ff8a6074a6f2e91616a996b547c36f15
		<tag k="fixme" v="consider place=hamlet" />
		<tag k="name" v="Klungtveit" />
		<tag k="place" v="farm" />
		<tag k="ssr:stedsnr" v="487180" />
	</node>
<<<<<<< HEAD
	<node lat="59.27579166354541" lon="5.552211118896216" id="-3831">
		<tag k="name" v="Haugsnes" />
		<tag k="place" v="farm" />
		<tag k="ssr:stedsnr" v="487237" />
	</node>
	<node lat="59.40951666865768" lon="5.406124995918571" id="-3837">
		<tag k="name" v="Asparhaug" />
=======
	<node id="-38257" lat="59.3077694463" lon="5.47346111672">
		<tag k="name" v="Kvinnesland" />
		<tag k="place" v="hamlet" />
		<tag k="ssr:stedsnr" v="123220" />
	</node>
	<node id="-39259" lat="59.2851222209" lon="5.4665083365">
		<tag k="name" v="Steinsvika" />
		<tag k="place" v="isolated_dwelling" />
		<tag k="ssr:stedsnr" v="852902" />
	</node>
	<node id="-38253" lat="59.3190305572" lon="5.47364166096">
		<tag k="name" v="Gunnarseie" />
>>>>>>> e1d4bc35ff8a6074a6f2e91616a996b547c36f15
		<tag k="place" v="farm" />
		<tag k="ssr:stedsnr" v="487661" />
	</node>
<<<<<<< HEAD
	<node lat="59.306083333465075" lon="5.4065777725964" id="-3839">
=======
	<node id="-38251" lat="59.3241277785" lon="5.59358888822">
>>>>>>> e1d4bc35ff8a6074a6f2e91616a996b547c36f15
		<tag k="fixme" v="consider place=hamlet" />
		<tag k="name" v="Gismarvik" />
		<tag k="place" v="farm" />
		<tag k="ssr:stedsnr" v="487939" />
	</node>
<<<<<<< HEAD
	<node lat="59.3436027776343" lon="5.835433332064064" id="-3847">
		<tag k="name" v="Holmen" />
=======
	<node id="-38243" lat="59.4122527798" lon="5.62776667271">
		<tag k="alt_name" v="Hatten" />
		<tag k="name" v="Bergstrand" />
>>>>>>> e1d4bc35ff8a6074a6f2e91616a996b547c36f15
		<tag k="place" v="farm" />
		<tag k="ssr:stedsnr" v="416186" />
	</node>
<<<<<<< HEAD
	<node lat="59.35882777990355" lon="5.6577250022068535" id="-3854">
		<tag k="name" v="Grove" />
=======
	<node id="-38240" lat="59.4136166649" lon="5.50020555714">
		<tag k="fixme" v="consider place=hamlet" />
		<tag k="name" v="Amdal" />
>>>>>>> e1d4bc35ff8a6074a6f2e91616a996b547c36f15
		<tag k="place" v="farm" />
		<tag k="ssr:stedsnr" v="417086" />
	</node>
<<<<<<< HEAD
	<node lat="59.36042777777011" lon="5.569183341633853" id="-3879">
=======
	<node id="-38235" lat="59.4314805581" lon="5.63596666278">
		<tag k="alt_name" v="Ikdal" />
>>>>>>> e1d4bc35ff8a6074a6f2e91616a996b547c36f15
		<tag k="fixme" v="consider place=hamlet" />
		<tag k="name" v="Tordal" />
		<tag k="place" v="farm" />
		<tag k="ssr:stedsnr" v="427113" />
	</node>
<<<<<<< HEAD
	<node lat="59.38423055143141" lon="5.619774992546362" id="-3880">
		<tag k="alt_name" v="Slogvik" />
		<tag k="fixme" v="consider place=hamlet" />
		<tag k="name" v="Slogvika" />
=======
	<node id="-38234" lat="59.4545638867" lon="5.3924972195">
		<tag k="name" v="Prestvarden" />
>>>>>>> e1d4bc35ff8a6074a6f2e91616a996b547c36f15
		<tag k="place" v="farm" />
		<tag k="ssr:stedsnr" v="427115" />
	</node>
<<<<<<< HEAD
	<node lat="59.39981666946748" lon="5.772805562687658" id="-3886">
		<tag k="alt_name" v="Vassendvåg" />
=======
	<node id="-38232" lat="59.3531583346" lon="5.78711388295">
>>>>>>> e1d4bc35ff8a6074a6f2e91616a996b547c36f15
		<tag k="fixme" v="consider place=hamlet" />
		<tag k="name" v="Vassvåg" />
		<tag k="place" v="farm" />
		<tag k="ssr:stedsnr" v="427096" />
	</node>
<<<<<<< HEAD
	<node lat="59.3364888876961" lon="5.701888893065443" id="-3888">
		<tag k="name" v="Stølen" />
=======
	<node id="-38221" lat="59.4096222217" lon="5.73638611828">
		<tag k="fixme" v="consider place=hamlet" />
		<tag k="name" v="Breidalen" />
>>>>>>> e1d4bc35ff8a6074a6f2e91616a996b547c36f15
		<tag k="place" v="farm" />
		<tag k="ssr:stedsnr" v="427185" />
	</node>
<<<<<<< HEAD
	<node lat="59.33850000140308" lon="5.605352782982098" id="-3889">
		<tag k="name" v="Vassbotn" />
=======
	<node id="-38217" lat="59.2803166669" lon="5.52645000654">
		<tag k="name" v="Smittet" />
>>>>>>> e1d4bc35ff8a6074a6f2e91616a996b547c36f15
		<tag k="place" v="farm" />
		<tag k="ssr:stedsnr" v="427192" />
	</node>
<<<<<<< HEAD
	<node lat="59.39484167079412" lon="5.6315500055869725" id="-3891">
		<tag k="name" v="Pinskår" />
=======
	<node id="-38214" lat="59.4111527807" lon="5.53343055458">
		<tag k="name" v="Brotet" />
>>>>>>> e1d4bc35ff8a6074a6f2e91616a996b547c36f15
		<tag k="place" v="locality" />
		<tag k="ssr:stedsnr" v="490294" />
	</node>
<<<<<<< HEAD
	<node lat="59.46354166713653" lon="5.468319452091409" id="-3896">
=======
	<node id="-38197" lat="59.4157194426" lon="5.35894165902">
>>>>>>> e1d4bc35ff8a6074a6f2e91616a996b547c36f15
		<tag k="fixme" v="consider place=hamlet" />
		<tag k="name" v="Våg" />
		<tag k="place" v="farm" />
		<tag k="ssr:stedsnr" v="427775" />
	</node>
<<<<<<< HEAD
	<node lat="59.27242222304967" lon="5.523708338190263" id="-3904">
		<tag k="name" v="Groe" />
		<tag k="place" v="locality" />
		<tag k="ssr:stedsnr" v="448910" />
	</node>
	<node lat="59.41394167078422" lon="5.384897222685312" id="-3910">
		<tag k="name" v="Leitet" />
=======
	<node id="-38179" lat="59.4745861105" lon="5.39939999157">
		<tag k="name" v="Markaplassen" />
		<tag k="place" v="farm" />
		<tag k="ssr:stedsnr" v="87295" />
	</node>
	<node id="-38178" lat="59.3306305518" lon="5.49452222998">
		<tag k="fixme" v="consider place=hamlet" />
		<tag k="name" v="Tysvær" />
>>>>>>> e1d4bc35ff8a6074a6f2e91616a996b547c36f15
		<tag k="place" v="farm" />
		<tag k="ssr:stedsnr" v="451009" />
	</node>
<<<<<<< HEAD
	<node lat="59.47570000173992" lon="5.456461116404169" id="-3913">
		<tag k="name" v="Storaleitet" />
		<tag k="place" v="farm" />
		<tag k="ssr:stedsnr" v="451312" />
	</node>
	<node lat="59.347936110487396" lon="5.453686117777841" id="-3919">
		<tag k="alt_name" v="Norheim" />
		<tag k="name" v="Noreim" />
=======
	<node id="-38169" lat="59.2783638889" lon="5.54863889591">
		<tag k="alt_name" v="Midtbø" />
		<tag k="name" v="Midbø" />
		<tag k="place" v="farm" />
		<tag k="ssr:stedsnr" v="86136" />
	</node>
	<node id="-38167" lat="59.4320869725" lon="5.61327473196">
		<tag k="fixme" v="consider place=hamlet" />
		<tag k="name" v="Skjoldastraumen" />
		<tag k="place" v="village" />
		<tag k="ssr:stedsnr" v="85848" />
	</node>
	<node id="-38166" lat="59.3986250044" lon="5.48742499711">
		<tag k="fixme" v="consider place=hamlet" />
		<tag k="name" v="Øvre Førland" />
>>>>>>> e1d4bc35ff8a6074a6f2e91616a996b547c36f15
		<tag k="place" v="farm" />
		<tag k="ssr:stedsnr" v="451726" />
	</node>
<<<<<<< HEAD
	<node lat="59.36061388948994" lon="5.543291671639661" id="-3938">
		<tag k="name" v="Lindebrekka" />
		<tag k="place" v="locality" />
		<tag k="ssr:stedsnr" v="478202" />
	</node>
	<node lat="59.347988889448246" lon="5.799780562925482" id="-3952">
		<tag k="fixme" v="consider place=suburb, village or hamlet" />
		<tag k="name" v="Hindaråvåg" />
		<tag k="place" v="quarter" />
		<tag k="ssr:stedsnr" v="487178" />
	</node>
	<node lat="59.365111113402556" lon="5.399061110491463" id="-3959">
=======
	<node id="-38165" lat="59.3989888872" lon="5.61680833759">
		<tag k="name" v="Løndal" />
		<tag k="place" v="farm" />
		<tag k="ssr:stedsnr" v="85093" />
	</node>
	<node id="-38158" lat="59.4999138846" lon="5.45424721706">
		<tag k="alt_name" v="Grunnavåg" />
		<tag k="name" v="Grunnavågen" />
		<tag k="place" v="farm" />
		<tag k="ssr:stedsnr" v="63685" />
	</node>
	<node id="-38156" lat="59.3632472221" lon="5.88805278295">
		<tag k="alt_name" v="Kvam, yt" />
>>>>>>> e1d4bc35ff8a6074a6f2e91616a996b547c36f15
		<tag k="fixme" v="consider place=hamlet" />
		<tag k="name" v="Nordtveit" />
		<tag k="place" v="farm" />
		<tag k="ssr:stedsnr" v="487607" />
	</node>
<<<<<<< HEAD
	<node lat="59.40460000343001" lon="5.674780550896281" id="-3965">
		<tag k="name" v="Eid" />
=======
	<node id="-38155" lat="59.367255555" lon="5.88849721976">
		<tag k="alt_name" v="Kvam, in" />
		<tag k="fixme" v="consider place=hamlet" />
		<tag k="name" v="Indre Kvam" />
>>>>>>> e1d4bc35ff8a6074a6f2e91616a996b547c36f15
		<tag k="place" v="farm" />
		<tag k="ssr:stedsnr" v="488048" />
	</node>
<<<<<<< HEAD
	<node lat="59.36562500201919" lon="5.879000004444768" id="-3966">
=======
	<node id="-38150" lat="59.2921527794" lon="5.64736111951">
		<tag k="alt_name" v="Bakkevik" />
>>>>>>> e1d4bc35ff8a6074a6f2e91616a996b547c36f15
		<tag k="fixme" v="consider place=hamlet" />
		<tag k="name" v="Øvrabø" />
		<tag k="place" v="farm" />
		<tag k="ssr:stedsnr" v="488417" />
	</node>
<<<<<<< HEAD
	<node lat="59.360324997080745" lon="5.870500006047412" id="-3967">
		<tag k="fixme" v="consider place=hamlet" />
		<tag k="name" v="Dalva" />
=======
	<node id="-38148" lat="59.2885027778" lon="5.53978611881">
		<tag k="alt_name" v="Novå" />
		<tag k="name" v="Oppheim" />
>>>>>>> e1d4bc35ff8a6074a6f2e91616a996b547c36f15
		<tag k="place" v="farm" />
		<tag k="ssr:stedsnr" v="488430" />
	</node>
<<<<<<< HEAD
	<node lat="59.426047226561835" lon="5.381558340877569" id="-3970">
		<tag k="name" v="Førre" />
=======
	<node id="-38147" lat="59.2776305565" lon="5.52109722776">
		<tag k="name" v="Rindheim" />
>>>>>>> e1d4bc35ff8a6074a6f2e91616a996b547c36f15
		<tag k="place" v="farm" />
		<tag k="ssr:stedsnr" v="506278" />
	</node>
<<<<<<< HEAD
	<node lat="59.46528610788733" lon="5.471961102843494" id="-3973">
		<tag k="name" v="Goabakka" />
=======
	<node id="-38142" lat="59.3507222261" lon="5.8310944458">
		<tag k="fixme" v="consider place=hamlet" />
		<tag k="name" v="Kaggestad" />
>>>>>>> e1d4bc35ff8a6074a6f2e91616a996b547c36f15
		<tag k="place" v="farm" />
		<tag k="ssr:stedsnr" v="511304" />
	</node>
<<<<<<< HEAD
	<node lat="59.481202779895526" lon="5.4654666612103275" id="-3974">
		<tag k="name" v="Glette" />
=======
	<node id="-38141" lat="59.3296305552" lon="5.59872777679">
		<tag k="name" v="Vasstun" />
>>>>>>> e1d4bc35ff8a6074a6f2e91616a996b547c36f15
		<tag k="place" v="farm" />
		<tag k="ssr:stedsnr" v="511307" />
	</node>
<<<<<<< HEAD
	<node lat="59.38761944456478" lon="5.411474993349648" id="-3983">
		<tag k="name" v="Tjødnamyra" />
=======
	<node id="-38140" lat="59.3306333308" lon="5.61181110418">
		<tag k="name" v="Fora" />
>>>>>>> e1d4bc35ff8a6074a6f2e91616a996b547c36f15
		<tag k="place" v="farm" />
		<tag k="ssr:stedsnr" v="512017" />
	</node>
<<<<<<< HEAD
	<node lat="59.33203611327957" lon="5.489813881418719" id="-3985">
=======
	<node id="-38136" lat="59.3700944438" lon="5.65335832676">
>>>>>>> e1d4bc35ff8a6074a6f2e91616a996b547c36f15
		<tag k="fixme" v="consider place=hamlet" />
		<tag k="name" v="Tysvær" />
		<tag k="place" v="village" />
		<tag k="ssr:stedsnr" v="516866" />
	</node>
<<<<<<< HEAD
	<node lat="59.43597221765346" lon="5.561802770236129" id="-4013">
		<tag k="name" v="Stølen" />
=======
	<node id="-38128" lat="59.4212166677" lon="5.61788611791">
		<tag k="fixme" v="consider place=hamlet" />
		<tag k="name" v="Straum" />
>>>>>>> e1d4bc35ff8a6074a6f2e91616a996b547c36f15
		<tag k="place" v="farm" />
		<tag k="ssr:stedsnr" v="539466" />
	</node>
<<<<<<< HEAD
	<node lat="59.41643611533256" lon="5.570380560578754" id="-4017">
		<tag k="alt_name" v="Nedre Svinali" />
=======
	<node id="-38127" lat="59.4065000002" lon="5.66594722403">
>>>>>>> e1d4bc35ff8a6074a6f2e91616a996b547c36f15
		<tag k="fixme" v="consider place=hamlet" />
		<tag k="name" v="Nedra Svinali" />
		<tag k="place" v="farm" />
		<tag k="ssr:stedsnr" v="539784" />
	</node>
<<<<<<< HEAD
	<node lat="59.45622777751596" lon="5.458824992418882" id="-4018">
=======
	<node id="-38125" lat="59.4050166651" lon="5.64345833327">
		<tag k="alt_name" v="Lindong" />
>>>>>>> e1d4bc35ff8a6074a6f2e91616a996b547c36f15
		<tag k="fixme" v="consider place=hamlet" />
		<tag k="name" v="Årek" />
		<tag k="place" v="farm" />
		<tag k="ssr:stedsnr" v="547709" />
	</node>
<<<<<<< HEAD
	<node lat="59.45931388481014" lon="5.460922222965822" id="-4019">
=======
	<node id="-38124" lat="59.4345222249" lon="5.63435834115">
>>>>>>> e1d4bc35ff8a6074a6f2e91616a996b547c36f15
		<tag k="fixme" v="consider place=hamlet" />
		<tag k="name" v="Aursland" />
		<tag k="place" v="farm" />
		<tag k="ssr:stedsnr" v="547710" />
	</node>
<<<<<<< HEAD
	<node lat="59.367949996740194" lon="5.566311111684947" id="-4023">
		<tag k="name" v="Sandbekken" />
=======
	<node id="-38121" lat="59.4265250023" lon="5.63342499945">
		<tag k="alt_name" v="Østenstad" />
		<tag k="fixme" v="consider place=hamlet" />
		<tag k="name" v="Østeinstad" />
>>>>>>> e1d4bc35ff8a6074a6f2e91616a996b547c36f15
		<tag k="place" v="farm" />
		<tag k="ssr:stedsnr" v="548118" />
	</node>
<<<<<<< HEAD
	<node lat="59.36918333150614" lon="5.547080548939313" id="-4024">
		<tag k="alt_name" v="Pøylå" />
		<tag k="name" v="Pøyla" />
=======
	<node id="-38119" lat="59.4368638887" lon="5.38262777479">
		<tag k="fixme" v="consider place=hamlet" />
		<tag k="name" v="Nodland" />
>>>>>>> e1d4bc35ff8a6074a6f2e91616a996b547c36f15
		<tag k="place" v="farm" />
		<tag k="ssr:stedsnr" v="548123" />
	</node>
<<<<<<< HEAD
	<node lat="59.39281388951687" lon="5.521508328920449" id="-4030">
		<tag k="name" v="Sagbakken" />
=======
	<node id="-38115" lat="59.4046305599" lon="5.46655556319">
		<tag k="name" v="Apalvik" />
>>>>>>> e1d4bc35ff8a6074a6f2e91616a996b547c36f15
		<tag k="place" v="farm" />
		<tag k="ssr:stedsnr" v="548081" />
	</node>
<<<<<<< HEAD
	<node lat="59.331886112251944" lon="5.42205554761642" id="-4037">
		<tag k="alt_name" v="Vatneim" />
=======
	<node id="-38114" lat="59.3731416712" lon="5.39005555518">
		<tag k="alt_name" v="Kallevik;Kaldavik;Kadlavik" />
>>>>>>> e1d4bc35ff8a6074a6f2e91616a996b547c36f15
		<tag k="fixme" v="consider place=hamlet" />
		<tag k="name" v="Vatnheim" />
		<tag k="place" v="farm" />
		<tag k="ssr:stedsnr" v="548973" />
	</node>
<<<<<<< HEAD
	<node lat="59.43968055988411" lon="5.618688891510866" id="-4048">
		<tag k="name" v="Båtasmeden" />
=======
	<node id="-38109" lat="59.4316472253" lon="5.50617499521">
		<tag k="alt_name" v="Odnaneset" />
		<tag k="fixme" v="consider place=hamlet" />
		<tag k="name" v="Ådnaneset" />
>>>>>>> e1d4bc35ff8a6074a6f2e91616a996b547c36f15
		<tag k="place" v="farm" />
		<tag k="ssr:stedsnr" v="693840" />
	</node>
<<<<<<< HEAD
	<node lat="59.402102775628066" lon="5.488322214104196" id="-4049">
		<tag k="name" v="Øvre Førland" />
=======
	<node id="-38093" lat="59.305583329" lon="5.51775555565">
		<tag k="name" v="Kuphaug" />
>>>>>>> e1d4bc35ff8a6074a6f2e91616a996b547c36f15
		<tag k="place" v="farm" />
		<tag k="ssr:stedsnr" v="572703" />
	</node>
	<node lat="59.33405000361844" lon="5.6869166737004715" id="-4075">
		<tag k="name" v="Årvågen" />
		<tag k="place" v="farm" />
		<tag k="ssr:stedsnr" v="598518" />
	</node>
<<<<<<< HEAD
	<node lat="59.41619444248436" lon="5.761408327953497" id="-4077">
		<tag k="name" v="Slåttet" />
=======
	<node id="-38091" lat="59.3001722237" lon="5.51609444343">
		<tag k="name" v="Løkjene" />
>>>>>>> e1d4bc35ff8a6074a6f2e91616a996b547c36f15
		<tag k="place" v="farm" />
		<tag k="ssr:stedsnr" v="598767" />
	</node>
<<<<<<< HEAD
	<node lat="59.361760451376085" lon="5.7504756265367805" id="-4090">
		<tag k="name" v="Bjelland" />
		<tag k="place" v="hamlet" />
		<tag k="ssr:stedsnr" v="606743" />
	</node>
	<node lat="59.26709999580697" lon="5.668899997582533" id="-4091">
		<tag k="fixme" v="consider place=hamlet" />
		<tag k="name" v="Toftøy" />
=======
	<node id="-38083" lat="59.3667416685" lon="5.8033999921">
		<tag k="name" v="Søre Li" />
>>>>>>> e1d4bc35ff8a6074a6f2e91616a996b547c36f15
		<tag k="place" v="farm" />
		<tag k="ssr:stedsnr" v="606766" />
	</node>
<<<<<<< HEAD
	<node lat="59.42302500044455" lon="5.627224997603501" id="-4092">
		<tag k="alt_name" v="Båsvika" />
		<tag k="fixme" v="consider place=hamlet" />
		<tag k="name" v="Båtsvik" />
		<tag k="place" v="farm" />
		<tag k="ssr:stedsnr" v="608003" />
	</node>
	<node lat="59.34206110742516" lon="5.516269442370537" id="-4096">
=======
	<node id="-38076" lat="59.3768944453" lon="5.64516667132">
>>>>>>> e1d4bc35ff8a6074a6f2e91616a996b547c36f15
		<tag k="fixme" v="consider place=hamlet" />
		<tag k="name" v="Bringedal" />
		<tag k="place" v="farm" />
		<tag k="ssr:stedsnr" v="608119" />
	</node>
<<<<<<< HEAD
	<node lat="59.34446110783531" lon="5.528008337942575" id="-4097">
=======
	<node id="-38073" lat="59.2700027735" lon="5.65806388972">
>>>>>>> e1d4bc35ff8a6074a6f2e91616a996b547c36f15
		<tag k="fixme" v="consider place=hamlet" />
		<tag k="name" v="Bjørk" />
		<tag k="place" v="farm" />
		<tag k="ssr:stedsnr" v="608120" />
	</node>
<<<<<<< HEAD
	<node lat="59.35027500418498" lon="5.853200001928933" id="-4102">
=======
	<node id="-38056" lat="59.3074638853" lon="5.46911943701">
>>>>>>> e1d4bc35ff8a6074a6f2e91616a996b547c36f15
		<tag k="fixme" v="consider place=hamlet" />
		<tag k="name" v="Kleiberg" />
		<tag k="place" v="farm" />
		<tag k="ssr:stedsnr" v="608502" />
	</node>
<<<<<<< HEAD
	<node lat="59.43242500026145" lon="5.821274995751617" id="-4107">
		<tag k="name" v="Aplaflota" />
=======
	<node id="-38055" lat="59.2955055551" lon="5.44159722828">
		<tag k="name" v="Avløypet" />
>>>>>>> e1d4bc35ff8a6074a6f2e91616a996b547c36f15
		<tag k="place" v="farm" />
		<tag k="ssr:stedsnr" v="609004" />
	</node>
<<<<<<< HEAD
	<node lat="59.409363886053164" lon="5.629358335928173" id="-4108">
		<tag k="name" v="Valvik" />
=======
	<node id="-38054" lat="59.3015138899" lon="5.45392499496">
		<tag k="name" v="Risvika" />
>>>>>>> e1d4bc35ff8a6074a6f2e91616a996b547c36f15
		<tag k="place" v="farm" />
		<tag k="ssr:stedsnr" v="609027" />
	</node>
<<<<<<< HEAD
	<node lat="59.35609444381087" lon="5.761599998183652" id="-4113">
		<tag k="name" v="Vatland" />
=======
	<node id="-38045" lat="59.3888000024" lon="5.4645305638">
		<tag k="name" v="Bakkene" />
>>>>>>> e1d4bc35ff8a6074a6f2e91616a996b547c36f15
		<tag k="place" v="farm" />
		<tag k="ssr:stedsnr" v="609138" />
	</node>
<<<<<<< HEAD
	<node lat="59.35315555783464" lon="5.566072223245605" id="-4115">
		<tag k="alt_name" v="Løype" />
		<tag k="name" v="Løypet" />
=======
	<node id="-38040" lat="59.3123722232" lon="5.3976305551">
		<tag k="fixme" v="consider place=hamlet" />
		<tag k="name" v="Håstø" />
>>>>>>> e1d4bc35ff8a6074a6f2e91616a996b547c36f15
		<tag k="place" v="farm" />
		<tag k="ssr:stedsnr" v="609148" />
	</node>
<<<<<<< HEAD
	<node lat="59.39451944698889" lon="5.502299993353858" id="-4127">
		<tag k="name" v="Nedre Førland" />
=======
	<node id="-38038" lat="59.3537500036" lon="5.86784999513">
		<tag k="name" v="Falkehytta" />
>>>>>>> e1d4bc35ff8a6074a6f2e91616a996b547c36f15
		<tag k="place" v="farm" />
		<tag k="ssr:stedsnr" v="632689" />
	</node>
<<<<<<< HEAD
	<node lat="59.3548166666233" lon="5.557524991911245" id="-4157">
		<tag k="name" v="Solberg" />
=======
	<node id="-38036" lat="59.3766805578" lon="5.87976111416">
		<tag k="name" v="Brakahaugen" />
>>>>>>> e1d4bc35ff8a6074a6f2e91616a996b547c36f15
		<tag k="place" v="farm" />
		<tag k="ssr:stedsnr" v="660948" />
	</node>
<<<<<<< HEAD
	<node lat="59.33012792839742" lon="5.71706981877402" id="-4158">
		<tag k="alt_name" v="Nordtveit" />
		<tag k="name" v="Tveit" />
		<tag k="place" v="farm" />
		<tag k="ssr:stedsnr" v="667702" />
	</node>
	<node lat="59.429916669645095" lon="5.63794999431578" id="-4159">
=======
	<node id="-38035" lat="59.3946388865" lon="5.85107777354">
		<tag k="historic" v="shieling" />
		<tag k="name" v="Ringjastølen" />
		<tag k="place" v="locality" />
		<tag k="ssr:stedsnr" v="2417" />
	</node>
	<node id="-38033" lat="59.3406027774" lon="5.48203889116">
>>>>>>> e1d4bc35ff8a6074a6f2e91616a996b547c36f15
		<tag k="fixme" v="consider place=hamlet" />
		<tag k="name" v="Mehus" />
		<tag k="place" v="farm" />
		<tag k="ssr:stedsnr" v="669007" />
	</node>
<<<<<<< HEAD
	<node lat="59.37415555527053" lon="5.780319451704344" id="-4160">
		<tag k="name" v="Roaldsvik" />
=======
	<node id="-38031" lat="59.341311111" lon="5.63576388627">
		<tag k="name" v="Sjølyst" />
>>>>>>> e1d4bc35ff8a6074a6f2e91616a996b547c36f15
		<tag k="place" v="farm" />
		<tag k="ssr:stedsnr" v="669079" />
	</node>
<<<<<<< HEAD
	<node lat="59.330465560400775" lon="5.719014985892565" id="-4164">
		<tag k="fixme" v="consider place=hamlet" />
		<tag k="name" v="Nordtveit" />
=======
	<node id="-38024" lat="59.3966666642" lon="5.61793055125">
		<tag k="name" v="Kvalsvik" />
>>>>>>> e1d4bc35ff8a6074a6f2e91616a996b547c36f15
		<tag k="place" v="farm" />
		<tag k="ssr:stedsnr" v="669190" />
	</node>
<<<<<<< HEAD
	<node lat="59.4223027786813" lon="5.46007777061938" id="-4166">
		<tag k="alt_name" v="Urå" />
		<tag k="name" v="Urda" />
=======
	<node id="-38019" lat="59.3441888859" lon="5.44323889336">
		<tag k="alt_name" v="Fjelleim" />
		<tag k="name" v="Fjellheim" />
>>>>>>> e1d4bc35ff8a6074a6f2e91616a996b547c36f15
		<tag k="place" v="farm" />
		<tag k="ssr:stedsnr" v="669612" />
	</node>
<<<<<<< HEAD
	<node lat="59.27892778089646" lon="5.527277770281271" id="-4177">
		<tag k="alt_name" v="Løvland" />
		<tag k="name" v="Lauvland" />
=======
	<node id="-37205" lat="59.4095166687" lon="5.40612499592">
		<tag k="name" v="Asparhaug" />
		<tag k="place" v="farm" />
		<tag k="ssr:stedsnr" v="487661" />
	</node>
	<node id="-38005" lat="59.3478472211" lon="5.63027777785">
		<tag k="fixme" v="consider place=hamlet" />
		<tag k="name" v="Hattarvågen" />
>>>>>>> e1d4bc35ff8a6074a6f2e91616a996b547c36f15
		<tag k="place" v="farm" />
		<tag k="ssr:stedsnr" v="670220" />
	</node>
<<<<<<< HEAD
	<node lat="59.281725004397416" lon="5.4761249982005085" id="-4178">
		<tag k="fixme" v="consider place=hamlet" />
		<tag k="name" v="Susort" />
		<tag k="place" v="farm" />
		<tag k="ssr:stedsnr" v="670221" />
	</node>
	<node lat="59.32168611328976" lon="5.4483861099519535" id="-4182">
		<tag k="name" v="Lushamn" />
=======
	<node id="-37984" lat="59.2838222227" lon="5.56238333407">
		<tag k="name" v="Brattabø" />
>>>>>>> e1d4bc35ff8a6074a6f2e91616a996b547c36f15
		<tag k="place" v="farm" />
		<tag k="ssr:stedsnr" v="670983" />
	</node>
<<<<<<< HEAD
	<node lat="59.43278055751123" lon="5.490866665676349" id="-4222">
		<tag k="alt_name" v="Vaggeli (Bakkjen);Bakken;Bakkjen" />
=======
	<node id="-37979" lat="59.3507055571" lon="5.77763334149">
>>>>>>> e1d4bc35ff8a6074a6f2e91616a996b547c36f15
		<tag k="fixme" v="consider place=hamlet" />
		<tag k="name" v="Vaggeli" />
		<tag k="place" v="farm" />
		<tag k="ssr:stedsnr" v="721469" />
	</node>
<<<<<<< HEAD
	<node lat="59.42702222566217" lon="5.630358341178568" id="-4232">
		<tag k="name" v="Bjørkebakken" />
=======
	<node id="-37943" lat="59.286016669" lon="5.56431666868">
		<tag k="alt_name" v="Bjørklund" />
		<tag k="name" v="Bjørkelund" />
>>>>>>> e1d4bc35ff8a6074a6f2e91616a996b547c36f15
		<tag k="place" v="farm" />
		<tag k="ssr:stedsnr" v="721873" />
	</node>
<<<<<<< HEAD
	<node lat="59.42323888813144" lon="5.372333338008597" id="-4235">
=======
	<node id="-37942" lat="59.3369861086" lon="5.67930556216">
>>>>>>> e1d4bc35ff8a6074a6f2e91616a996b547c36f15
		<tag k="fixme" v="consider place=hamlet" />
		<tag k="name" v="Førre" />
		<tag k="place" v="farm" />
		<tag k="ssr:stedsnr" v="728772" />
	</node>
<<<<<<< HEAD
	<node lat="59.39619444596055" lon="5.478077780013378" id="-4236">
=======
	<node id="-37939" lat="59.3771833359" lon="5.78855000766">
		<tag k="alt_name" v="Øvre Amdal" />
>>>>>>> e1d4bc35ff8a6074a6f2e91616a996b547c36f15
		<tag k="fixme" v="consider place=hamlet" />
		<tag k="name" v="Nedre Førland" />
		<tag k="place" v="farm" />
		<tag k="ssr:stedsnr" v="728790" />
	</node>
<<<<<<< HEAD
	<node lat="59.4311305520339" lon="5.597183335216194" id="-4237">
		<tag k="alt_name" v="Dualand" />
		<tag k="fixme" v="consider place=hamlet" />
		<tag k="name" v="Dueland" />
=======
	<node id="-37938" lat="59.3159500029" lon="5.65041388556">
		<tag k="name" v="Narravik" />
>>>>>>> e1d4bc35ff8a6074a6f2e91616a996b547c36f15
		<tag k="place" v="farm" />
		<tag k="ssr:stedsnr" v="730020" />
	</node>
<<<<<<< HEAD
	<node lat="59.32588888966295" lon="5.691824997492481" id="-4240">
		<tag k="name" v="Ringstveit" />
=======
	<node id="-37936" lat="59.3046694477" lon="5.47261388571">
		<tag k="alt_name" v="Leitet" />
		<tag k="name" v="Leite" />
>>>>>>> e1d4bc35ff8a6074a6f2e91616a996b547c36f15
		<tag k="place" v="farm" />
		<tag k="ssr:stedsnr" v="730163" />
	</node>
<<<<<<< HEAD
	<node lat="59.39788055706592" lon="5.402475006272725" id="-4244">
=======
	<node id="-37934" lat="59.3980888879" lon="5.4666277693">
>>>>>>> e1d4bc35ff8a6074a6f2e91616a996b547c36f15
		<tag k="fixme" v="consider place=hamlet" />
		<tag k="name" v="Skeiseid" />
		<tag k="place" v="farm" />
		<tag k="ssr:stedsnr" v="730622" />
	</node>
<<<<<<< HEAD
	<node lat="59.39315000082035" lon="5.393988883283257" id="-4245">
		<tag k="alt_name" v="Stava" />
=======
	<node id="-37915" lat="59.3699583334" lon="5.79746388044">
>>>>>>> e1d4bc35ff8a6074a6f2e91616a996b547c36f15
		<tag k="fixme" v="consider place=hamlet" />
		<tag k="name" v="Staua" />
		<tag k="place" v="farm" />
		<tag k="ssr:stedsnr" v="730623" />
	</node>
<<<<<<< HEAD
	<node lat="59.37856976505076" lon="5.460681488736702" id="-4247">
		<tag k="alt_name" v="Ronvik" />
		<tag k="fixme" v="consider place=hamlet" />
		<tag k="name" v="Ronnvik" />
=======
	<node id="-37913" lat="59.3057166676" lon="5.58896388622">
		<tag k="name" v="Lindehola" />
>>>>>>> e1d4bc35ff8a6074a6f2e91616a996b547c36f15
		<tag k="place" v="farm" />
		<tag k="ssr:stedsnr" v="730581" />
	</node>
<<<<<<< HEAD
	<node lat="59.49012777464198" lon="5.438111117953058" id="-4248">
		<tag k="fixme" v="consider place=hamlet" />
		<tag k="name" v="Lilland" />
		<tag k="place" v="farm" />
		<tag k="ssr:stedsnr" v="730728" />
	</node>
	<node lat="59.345341669415006" lon="5.821213880161187" id="-4259">
		<tag k="name" v="Vasstølen" />
=======
	<node id="-37872" lat="59.3101504893" lon="5.46781129904">
		<tag k="name" v="Melkevik" />
>>>>>>> e1d4bc35ff8a6074a6f2e91616a996b547c36f15
		<tag k="place" v="farm" />
		<tag k="ssr:stedsnr" v="902134" />
	</node>
<<<<<<< HEAD
	<node lat="59.34912777365795" lon="5.751069449881251" id="-4266">
		<tag k="name" v="Midtbø" />
=======
	<node id="-37858" lat="59.4596472211" lon="5.56345833868">
		<tag k="alt_name" v="Kalvhagen" />
		<tag k="name" v="Kalvhaugen" />
>>>>>>> e1d4bc35ff8a6074a6f2e91616a996b547c36f15
		<tag k="place" v="farm" />
		<tag k="ssr:stedsnr" v="902298" />
	</node>
<<<<<<< HEAD
	<node lat="59.3652722266317" lon="5.810141667920867" id="-4268">
		<tag k="historic" v="shieling" />
		<tag k="name" v="Høgestølen" />
		<tag k="place" v="isolated_dwelling" />
		<tag k="ssr:stedsnr" v="902339" />
	</node>
	<node lat="59.33886944884969" lon="5.687713893172093" id="-4272">
		<tag k="name" v="Oskedalen" />
=======
	<node id="-37856" lat="59.4556250022" lon="5.56848611343">
		<tag k="alt_name" v="Fisktveit" />
		<tag k="fixme" v="consider place=hamlet" />
		<tag k="name" v="Fikstveit" />
		<tag k="place" v="farm" />
		<tag k="ssr:stedsnr" v="791814" />
	</node>
	<node id="-37855" lat="59.3740361069" lon="5.88901944232">
		<tag k="fixme" v="consider place=hamlet" />
		<tag k="name" v="Amdal" />
>>>>>>> e1d4bc35ff8a6074a6f2e91616a996b547c36f15
		<tag k="place" v="farm" />
		<tag k="ssr:stedsnr" v="902584" />
	</node>
<<<<<<< HEAD
	<node lat="59.410233332296755" lon="5.617166673424735" id="-4297">
=======
	<node id="-37851" lat="59.3890888933" lon="5.47685278377">
>>>>>>> e1d4bc35ff8a6074a6f2e91616a996b547c36f15
		<tag k="fixme" v="consider place=hamlet" />
		<tag k="name" v="Klubben" />
		<tag k="place" v="farm" />
		<tag k="ssr:stedsnr" v="903646" />
	</node>
<<<<<<< HEAD
	<node lat="59.393124996034956" lon="5.480855552240423" id="-4310">
=======
	<node id="-37850" lat="59.4024470976" lon="5.53165009477">
>>>>>>> e1d4bc35ff8a6074a6f2e91616a996b547c36f15
		<tag k="fixme" v="consider place=hamlet" />
		<tag k="name" v="Sønnarå" />
		<tag k="place" v="farm" />
		<tag k="ssr:stedsnr" v="754719" />
	</node>
<<<<<<< HEAD
	<node lat="59.38129167013469" lon="5.645277770479507" id="-4322">
=======
	<node id="-37848" lat="59.4363611095" lon="5.62549444765">
		<tag k="alt_name" v="Sagjå" />
>>>>>>> e1d4bc35ff8a6074a6f2e91616a996b547c36f15
		<tag k="fixme" v="consider place=hamlet" />
		<tag k="name" v="Midtre Kreppene" />
		<tag k="place" v="farm" />
		<tag k="ssr:stedsnr" v="781109" />
	</node>
<<<<<<< HEAD
	<node lat="59.381419442426846" lon="5.6058250061402015" id="-4323">
		<tag k="name" v="Hundsnes" />
=======
	<node id="-37844" lat="59.3840666661" lon="5.40908334148">
		<tag k="fixme" v="consider place=hamlet" />
		<tag k="name" v="Sørvåg" />
>>>>>>> e1d4bc35ff8a6074a6f2e91616a996b547c36f15
		<tag k="place" v="farm" />
		<tag k="ssr:stedsnr" v="781153" />
	</node>
<<<<<<< HEAD
	<node lat="59.32448333647272" lon="5.729752785293133" id="-4334">
		<tag k="name" v="Varaleitet" />
=======
	<node id="-37837" lat="59.4692916687" lon="5.46088332671">
		<tag k="alt_name" v="Indre Tveit" />
		<tag k="fixme" v="consider place=hamlet" />
		<tag k="name" v="Tveit" />
>>>>>>> e1d4bc35ff8a6074a6f2e91616a996b547c36f15
		<tag k="place" v="farm" />
		<tag k="ssr:stedsnr" v="781916" />
	</node>
<<<<<<< HEAD
	<node lat="59.34597907250447" lon="5.857440792603014" id="-4340">
=======
	<node id="-37835" lat="59.2901555581" lon="5.47455000712">
		<tag k="alt_name" v="Lervik" />
>>>>>>> e1d4bc35ff8a6074a6f2e91616a996b547c36f15
		<tag k="fixme" v="consider place=hamlet" />
		<tag k="name" v="Nedstrand" />
		<tag k="place" v="farm" />
		<tag k="ssr:stedsnr" v="910738" />
	</node>
<<<<<<< HEAD
	<node lat="59.430947223212115" lon="5.462527780935081" id="-4341">
=======
	<node id="-37831" lat="59.308680552" lon="5.51392221606">
		<tag k="alt_name" v="Ståhogg" />
>>>>>>> e1d4bc35ff8a6074a6f2e91616a996b547c36f15
		<tag k="fixme" v="consider place=hamlet" />
		<tag k="name" v="Grinde" />
		<tag k="place" v="farm" />
		<tag k="ssr:stedsnr" v="910788" />
	</node>
<<<<<<< HEAD
	<node lat="59.401180559460066" lon="5.429641674783314" id="-4342">
		<tag k="alt_name" v="Eikjeskog" />
		<tag k="fixme" v="consider place=hamlet" />
		<tag k="name" v="Eikeskog" />
=======
	<node id="-37828" lat="59.3675944418" lon="5.7894277813">
		<tag k="name" v="Lyse" />
>>>>>>> e1d4bc35ff8a6074a6f2e91616a996b547c36f15
		<tag k="place" v="farm" />
		<tag k="ssr:stedsnr" v="912595" />
	</node>
<<<<<<< HEAD
	<node lat="59.41896944253939" lon="5.414644448823453" id="-4343">
		<tag k="fixme" v="consider place=hamlet" />
		<tag k="name" v="Frakkagjerd" />
=======
	<node id="-37825" lat="59.4156249994" lon="5.76437777939">
		<tag k="name" v="Haugen" />
>>>>>>> e1d4bc35ff8a6074a6f2e91616a996b547c36f15
		<tag k="place" v="farm" />
		<tag k="ssr:stedsnr" v="912627" />
	</node>
<<<<<<< HEAD
	<node lat="59.38406666611731" lon="5.409083341477703" id="-4344">
		<tag k="fixme" v="consider place=hamlet" />
		<tag k="name" v="Sørvåg" />
=======
	<node id="-37824" lat="59.4123583341" lon="5.75699166776">
		<tag k="name" v="Vassendvik" />
>>>>>>> e1d4bc35ff8a6074a6f2e91616a996b547c36f15
		<tag k="place" v="farm" />
		<tag k="ssr:stedsnr" v="790624" />
	</node>
<<<<<<< HEAD
	<node lat="59.4363611095195" lon="5.625494447647159" id="-4347">
		<tag k="alt_name" v="Sagjå" />
=======
	<node id="-37819" lat="59.4243833337" lon="5.42682499346">
>>>>>>> e1d4bc35ff8a6074a6f2e91616a996b547c36f15
		<tag k="fixme" v="consider place=hamlet" />
		<tag k="name" v="Saga" />
		<tag k="place" v="farm" />
		<tag k="ssr:stedsnr" v="791016" />
	</node>
<<<<<<< HEAD
	<node lat="59.38908889328702" lon="5.476852783766827" id="-4348">
=======
	<node id="-37818" lat="59.4303916674" lon="5.46526944908">
>>>>>>> e1d4bc35ff8a6074a6f2e91616a996b547c36f15
		<tag k="fixme" v="consider place=hamlet" />
		<tag k="name" v="Nes" />
		<tag k="place" v="farm" />
		<tag k="ssr:stedsnr" v="791040" />
	</node>
<<<<<<< HEAD
	<node lat="59.435419443570815" lon="5.636458340686975" id="-4365">
=======
	<node id="-37816" lat="59.4189694425" lon="5.41464444882">
>>>>>>> e1d4bc35ff8a6074a6f2e91616a996b547c36f15
		<tag k="fixme" v="consider place=hamlet" />
		<tag k="name" v="Munkhus" />
		<tag k="place" v="farm" />
		<tag k="ssr:stedsnr" v="912025" />
	</node>
<<<<<<< HEAD
	<node lat="59.32680000310841" lon="5.552686114987171" id="-4369">
=======
	<node id="-37815" lat="59.4011805595" lon="5.42964167478">
		<tag k="alt_name" v="Eikjeskog" />
>>>>>>> e1d4bc35ff8a6074a6f2e91616a996b547c36f15
		<tag k="fixme" v="consider place=hamlet" />
		<tag k="name" v="Rabben" />
		<tag k="place" v="farm" />
		<tag k="ssr:stedsnr" v="912164" />
	</node>
<<<<<<< HEAD
	<node lat="59.343058332142476" lon="5.772125000525788" id="-4370">
		<tag k="fixme" v="consider place=hamlet" />
		<tag k="name" v="Alstveit" />
=======
	<node id="-37813" lat="59.3652500031" lon="5.39264167362">
		<tag k="alt_name" v="Høye" />
		<tag k="name" v="Hauge" />
>>>>>>> e1d4bc35ff8a6074a6f2e91616a996b547c36f15
		<tag k="place" v="farm" />
		<tag k="ssr:stedsnr" v="912167" />
	</node>
<<<<<<< HEAD
	<node lat="59.337516664343156" lon="5.778805558670793" id="-4371">
		<tag k="alt_name" v="Vargavika" />
		<tag k="loc_name" v="Vargarvika" />
		<tag k="name" v="Vargavik" />
		<tag k="place" v="farm" />
		<tag k="ssr:stedsnr" v="912170" />
	</node>
	<node lat="59.33623055144473" lon="5.569099991892601" id="-4373">
		<tag k="fixme" v="consider place=hamlet" />
		<tag k="name" v="Sand" />
=======
	<node id="-37810" lat="59.3458803718" lon="5.85550755989">
		<tag k="fixme" v="consider place=suburb, village or hamlet" />
		<tag k="name" v="Nedstrand" />
		<tag k="place" v="quarter" />
		<tag k="ssr:stedsnr" v="912521" />
	</node>
	<node id="-37809" lat="59.3465750009" lon="5.875250007">
		<tag k="name" v="Stølen" />
>>>>>>> e1d4bc35ff8a6074a6f2e91616a996b547c36f15
		<tag k="place" v="farm" />
		<tag k="ssr:stedsnr" v="912176" />
	</node>
<<<<<<< HEAD
	<node lat="59.33832777634279" lon="5.596944437703955" id="-4374">
=======
	<node id="-37807" lat="59.3383277763" lon="5.5969444377">
>>>>>>> e1d4bc35ff8a6074a6f2e91616a996b547c36f15
		<tag k="alt_name" v="Vodl" />
		<tag k="fixme" v="consider place=hamlet" />
		<tag k="name" v="Voll" />
		<tag k="place" v="farm" />
		<tag k="ssr:stedsnr" v="912177" />
	</node>
<<<<<<< HEAD
	<node lat="59.43039166738969" lon="5.465269449078732" id="-4379">
=======
	<node id="-37806" lat="59.3362305514" lon="5.56909999189">
>>>>>>> e1d4bc35ff8a6074a6f2e91616a996b547c36f15
		<tag k="fixme" v="consider place=hamlet" />
		<tag k="name" v="Grinde" />
		<tag k="place" v="village" />
		<tag k="ssr:stedsnr" v="912655" />
	</node>
	<node lat="59.42438333373471" lon="5.426824993462839" id="-4381">
		<tag k="fixme" v="consider place=hamlet" />
		<tag k="name" v="Aksdal" />
		<tag k="place" v="farm" />
		<tag k="ssr:stedsnr" v="912657" />
	</node>
<<<<<<< HEAD
	<node lat="59.412358334094186" lon="5.7569916677604045" id="-4383">
		<tag k="name" v="Vassendvik" />
=======
	<node id="-37804" lat="59.3375166643" lon="5.77880555867">
		<tag k="alt_name" v="Vargavika" />
		<tag k="loc_name" v="Vargarvika" />
		<tag k="name" v="Vargavik" />
>>>>>>> e1d4bc35ff8a6074a6f2e91616a996b547c36f15
		<tag k="place" v="farm" />
		<tag k="ssr:stedsnr" v="913043" />
	</node>
<<<<<<< HEAD
	<node lat="59.41562499935852" lon="5.764377779387003" id="-4384">
		<tag k="name" v="Haugen" />
=======
	<node id="-37803" lat="59.3430583321" lon="5.77212500053">
		<tag k="fixme" v="consider place=hamlet" />
		<tag k="name" v="Alstveit" />
>>>>>>> e1d4bc35ff8a6074a6f2e91616a996b547c36f15
		<tag k="place" v="farm" />
		<tag k="ssr:stedsnr" v="913055" />
	</node>
<<<<<<< HEAD
	<node lat="59.42277778208116" lon="5.384888894269216" id="-4398">
		<tag k="name" v="Førresvåg" />
=======
	<node id="-37802" lat="59.3268000031" lon="5.55268611499">
		<tag k="fixme" v="consider place=hamlet" />
		<tag k="name" v="Rabben" />
>>>>>>> e1d4bc35ff8a6074a6f2e91616a996b547c36f15
		<tag k="place" v="farm" />
		<tag k="ssr:stedsnr" v="814314" />
	</node>
<<<<<<< HEAD
	<node lat="59.31015048927771" lon="5.467811299038592" id="-4407">
		<tag k="name" v="Melkevik" />
=======
	<node id="-37800" lat="59.3796777806" lon="5.54458332887">
		<tag k="name" v="Bakken" />
>>>>>>> e1d4bc35ff8a6074a6f2e91616a996b547c36f15
		<tag k="place" v="farm" />
		<tag k="ssr:stedsnr" v="815673" />
	</node>
<<<<<<< HEAD
	<node lat="59.369958333435136" lon="5.79746388043824" id="-4420">
=======
	<node id="-37794" lat="59.4354194436" lon="5.63645834069">
>>>>>>> e1d4bc35ff8a6074a6f2e91616a996b547c36f15
		<tag k="fixme" v="consider place=hamlet" />
		<tag k="name" v="Øvre Li" />
		<tag k="place" v="farm" />
		<tag k="ssr:stedsnr" v="842306" />
	</node>
<<<<<<< HEAD
	<node lat="59.40270594809154" lon="5.531896923214829" id="-4435">
		<tag k="name" v="Oskeland" />
=======
	<node id="-37793" lat="59.4247388928" lon="5.64397500187">
		<tag k="fixme" v="consider place=hamlet" />
		<tag k="name" v="Håland" />
>>>>>>> e1d4bc35ff8a6074a6f2e91616a996b547c36f15
		<tag k="place" v="farm" />
		<tag k="ssr:stedsnr" v="849813" />
	</node>
<<<<<<< HEAD
	<node lat="59.37718333588351" lon="5.78855000766308" id="-4437">
		<tag k="alt_name" v="Øvre Amdal" />
=======
	<node id="-37791" lat="59.4243749975" lon="5.5949166654">
>>>>>>> e1d4bc35ff8a6074a6f2e91616a996b547c36f15
		<tag k="fixme" v="consider place=hamlet" />
		<tag k="name" v="Amdal" />
		<tag k="place" v="farm" />
		<tag k="ssr:stedsnr" v="852103" />
	</node>
<<<<<<< HEAD
	<node lat="59.34156111175898" lon="5.608513887974071" id="-4440">
		<tag k="name" v="Søllesvika" />
=======
	<node id="-37790" lat="59.4113972229" lon="5.5209944455">
		<tag k="alt_name" v="Liå" />
		<tag k="fixme" v="consider place=hamlet" />
		<tag k="name" v="Lia" />
>>>>>>> e1d4bc35ff8a6074a6f2e91616a996b547c36f15
		<tag k="place" v="farm" />
		<tag k="ssr:stedsnr" v="852124" />
	</node>
<<<<<<< HEAD
	<node lat="59.33698610855666" lon="5.6793055621620345" id="-4441">
=======
	<node id="-37789" lat="59.4309472232" lon="5.46252778094">
>>>>>>> e1d4bc35ff8a6074a6f2e91616a996b547c36f15
		<tag k="fixme" v="consider place=hamlet" />
		<tag k="name" v="Espevik" />
		<tag k="place" v="farm" />
		<tag k="ssr:stedsnr" v="852174" />
	</node>
<<<<<<< HEAD
	<node lat="59.336311107305434" lon="5.486247221107039" id="-4442">
=======
	<node id="-37788" lat="59.3459790725" lon="5.8574407926">
>>>>>>> e1d4bc35ff8a6074a6f2e91616a996b547c36f15
		<tag k="fixme" v="consider place=hamlet" />
		<tag k="name" v="Lundarvoll" />
		<tag k="place" v="farm" />
		<tag k="ssr:stedsnr" v="852184" />
	</node>
<<<<<<< HEAD
	<node lat="59.39229804686426" lon="5.665601491691192" id="-4443">
=======
	<node id="-37780" lat="59.4102333323" lon="5.61716667342">
>>>>>>> e1d4bc35ff8a6074a6f2e91616a996b547c36f15
		<tag k="fixme" v="consider place=hamlet" />
		<tag k="name" v="Yrke" />
		<tag k="place" v="farm" />
		<tag k="ssr:stedsnr" v="852083" />
	</node>
<<<<<<< HEAD
	<node lat="59.30466944773353" lon="5.47261388570886" id="-4444">
		<tag k="alt_name" v="Leitet" />
		<tag k="name" v="Leite" />
		<tag k="place" v="farm" />
		<tag k="ssr:stedsnr" v="852204" />
	</node>
	<node lat="59.31595000287642" lon="5.650413885559093" id="-4446">
		<tag k="name" v="Narravik" />
=======
	<node id="-37769" lat="59.3632444486" lon="5.54420555348">
		<tag k="name" v="Hatlehola" />
		<tag k="place" v="locality" />
		<tag k="ssr:stedsnr" v="903200" />
	</node>
	<node id="-37014" lat="59.3469638924" lon="5.8173666729">
		<tag k="name" v="Flatå" />
		<tag k="place" v="farm" />
		<tag k="ssr:stedsnr" v="295138" />
	</node>
	<node id="-37752" lat="59.3388694488" lon="5.68771389317">
		<tag k="name" v="Oskedalen" />
>>>>>>> e1d4bc35ff8a6074a6f2e91616a996b547c36f15
		<tag k="place" v="farm" />
		<tag k="ssr:stedsnr" v="852212" />
	</node>
<<<<<<< HEAD
	<node lat="59.283822222680215" lon="5.562383334072865" id="-4461">
		<tag k="name" v="Brattabø" />
		<tag k="place" v="farm" />
		<tag k="ssr:stedsnr" v="935119" />
	</node>
	<node lat="59.36324444856402" lon="5.544205553478176" id="-4475">
		<tag k="name" v="Hatlehola" />
=======
	<node id="-37750" lat="59.3652722266" lon="5.81014166792">
		<tag k="historic" v="shieling" />
		<tag k="name" v="Høgestølen" />
>>>>>>> e1d4bc35ff8a6074a6f2e91616a996b547c36f15
		<tag k="place" v="locality" />
		<tag k="ssr:stedsnr" v="903200" />
	</node>
<<<<<<< HEAD
	<node lat="59.350705557068096" lon="5.777633341493449" id="-4487">
		<tag k="fixme" v="consider place=hamlet" />
		<tag k="name" v="Øvre Hedla" />
=======
	<node id="-37748" lat="59.3491277737" lon="5.75106944988">
		<tag k="name" v="Midtbø" />
>>>>>>> e1d4bc35ff8a6074a6f2e91616a996b547c36f15
		<tag k="place" v="farm" />
		<tag k="ssr:stedsnr" v="903755" />
	</node>
<<<<<<< HEAD
	<node lat="59.37967778059112" lon="5.5445833288657225" id="-4492">
		<tag k="name" v="Bakken" />
=======
	<node id="-37746" lat="59.3453416694" lon="5.82121388016">
		<tag k="name" v="Vasstølen" />
>>>>>>> e1d4bc35ff8a6074a6f2e91616a996b547c36f15
		<tag k="place" v="farm" />
		<tag k="ssr:stedsnr" v="912114" />
	</node>
<<<<<<< HEAD
	<node lat="59.424374997456425" lon="5.594916665396169" id="-4494">
		<tag k="fixme" v="consider place=hamlet" />
		<tag k="name" v="Romsaland" />
		<tag k="place" v="farm" />
		<tag k="ssr:stedsnr" v="912003" />
	</node>
	<node lat="59.424738892777285" lon="5.643975001865748" id="-4496">
=======
	<node id="-37734" lat="59.3785697651" lon="5.46068148874">
		<tag k="alt_name" v="Ronvik" />
>>>>>>> e1d4bc35ff8a6074a6f2e91616a996b547c36f15
		<tag k="fixme" v="consider place=hamlet" />
		<tag k="name" v="Håland" />
		<tag k="place" v="farm" />
		<tag k="ssr:stedsnr" v="912015" />
	</node>
<<<<<<< HEAD
	<node lat="59.34657500093903" lon="5.875250007001087" id="-4498">
		<tag k="name" v="Stølen" />
=======
	<node id="-37732" lat="59.4715555529" lon="5.58715278027">
		<tag k="fixme" v="consider place=hamlet" />
		<tag k="name" v="Nes" />
>>>>>>> e1d4bc35ff8a6074a6f2e91616a996b547c36f15
		<tag k="place" v="farm" />
		<tag k="ssr:stedsnr" v="912519" />
	</node>
<<<<<<< HEAD
	<node lat="59.345880371821835" lon="5.855507559888483" id="-4499">
		<tag k="fixme" v="consider place=suburb, village or hamlet" />
		<tag k="name" v="Nedstrand" />
		<tag k="place" v="quarter" />
		<tag k="ssr:stedsnr" v="912521" />
	</node>
	<node lat="59.36525000308627" lon="5.39264167362171" id="-4500">
		<tag k="alt_name" v="Høye" />
		<tag k="name" v="Hauge" />
=======
	<node id="-37729" lat="59.3258888897" lon="5.69182499749">
		<tag k="name" v="Ringstveit" />
>>>>>>> e1d4bc35ff8a6074a6f2e91616a996b547c36f15
		<tag k="place" v="farm" />
		<tag k="ssr:stedsnr" v="912591" />
	</node>
	<node lat="59.36759444183595" lon="5.789427781303698" id="-4504">
		<tag k="name" v="Lyse" />
		<tag k="place" v="farm" />
		<tag k="ssr:stedsnr" v="913149" />
	</node>
<<<<<<< HEAD
	<node lat="59.30868055196167" lon="5.513922216059215" id="-4506">
		<tag k="alt_name" v="Ståhogg" />
=======
	<node id="-37728" lat="59.4232388881" lon="5.37233333801">
>>>>>>> e1d4bc35ff8a6074a6f2e91616a996b547c36f15
		<tag k="fixme" v="consider place=hamlet" />
		<tag k="name" v="Stårhogg" />
		<tag k="place" v="farm" />
		<tag k="ssr:stedsnr" v="913185" />
	</node>
<<<<<<< HEAD
	<node lat="59.29015555814857" lon="5.474550007124137" id="-4509">
		<tag k="alt_name" v="Lervik" />
		<tag k="fixme" v="consider place=hamlet" />
		<tag k="name" v="Leirvik" />
		<tag k="place" v="farm" />
		<tag k="ssr:stedsnr" v="913237" />
	</node>
	<node lat="59.469291668698595" lon="5.460883326707346" id="-4510">
		<tag k="alt_name" v="Indre Tveit" />
		<tag k="fixme" v="consider place=hamlet" />
		<tag k="name" v="Tveit" />
=======
	<node id="-37679" lat="59.3459944415" lon="5.74906388431">
		<tag k="name" v="Kleivå" />
>>>>>>> e1d4bc35ff8a6074a6f2e91616a996b547c36f15
		<tag k="place" v="farm" />
		<tag k="ssr:stedsnr" v="913626" />
	</node>
<<<<<<< HEAD
	<node lat="59.371469446723644" lon="5.607841667298637" id="-4521">
		<tag k="name" v="Hundsnes" />
		<tag k="place" v="farm" />
		<tag k="ssr:stedsnr" v="963192" />
	</node>
	<node lat="59.34418888589527" lon="5.443238893363591" id="-4538">
		<tag k="alt_name" v="Fjelleim" />
		<tag k="name" v="Fjellheim" />
=======
	<node id="-37654" lat="59.3182138922" lon="5.40123333823">
		<tag k="alt_name" v="Holå" />
		<tag k="fixme" v="consider place=hamlet" />
		<tag k="name" v="Hola" />
>>>>>>> e1d4bc35ff8a6074a6f2e91616a996b547c36f15
		<tag k="place" v="farm" />
		<tag k="ssr:stedsnr" v="1529" />
	</node>
<<<<<<< HEAD
	<node lat="59.33178333352832" lon="5.5321805603896586" id="-4541">
		<tag k="name" v="Fagerland" />
=======
	<node id="-37648" lat="59.3601694429" lon="5.6046916628">
		<tag k="alt_name" v="Kallakot" />
		<tag k="fixme" v="consider place=hamlet" />
		<tag k="name" v="Kaldakot" />
>>>>>>> e1d4bc35ff8a6074a6f2e91616a996b547c36f15
		<tag k="place" v="farm" />
		<tag k="ssr:stedsnr" v="2180" />
	</node>
<<<<<<< HEAD
	<node lat="59.34060277740807" lon="5.482038891155994" id="-4548">
=======
	<node id="-37643" lat="59.4901277746" lon="5.43811111795">
>>>>>>> e1d4bc35ff8a6074a6f2e91616a996b547c36f15
		<tag k="fixme" v="consider place=hamlet" />
		<tag k="name" v="Erland" />
		<tag k="place" v="farm" />
		<tag k="ssr:stedsnr" v="2139" />
	</node>
<<<<<<< HEAD
	<node lat="59.341316669651754" lon="5.826797227205334" id="-4551">
=======
	<node id="-37640" lat="59.3931500008" lon="5.39398888328">
		<tag k="alt_name" v="Stava" />
>>>>>>> e1d4bc35ff8a6074a6f2e91616a996b547c36f15
		<tag k="fixme" v="consider place=hamlet" />
		<tag k="name" v="Bausta" />
		<tag k="place" v="farm" />
		<tag k="ssr:stedsnr" v="2164" />
	</node>
<<<<<<< HEAD
	<node lat="59.277402779041296" lon="5.5384555479344675" id="-4552">
=======
	<node id="-37639" lat="59.3978805571" lon="5.40247500627">
>>>>>>> e1d4bc35ff8a6074a6f2e91616a996b547c36f15
		<tag k="fixme" v="consider place=hamlet" />
		<tag k="name" v="Årvik" />
		<tag k="place" v="farm" />
		<tag k="ssr:stedsnr" v="2238" />
	</node>
<<<<<<< HEAD
	<node lat="59.290053096637806" lon="5.544932899397037" id="-4554">
		<tag k="name" v="Nydal" />
=======
	<node id="-37633" lat="59.431130552" lon="5.59718333522">
		<tag k="alt_name" v="Dualand" />
		<tag k="fixme" v="consider place=hamlet" />
		<tag k="name" v="Dueland" />
>>>>>>> e1d4bc35ff8a6074a6f2e91616a996b547c36f15
		<tag k="place" v="farm" />
		<tag k="ssr:stedsnr" v="2241" />
	</node>
<<<<<<< HEAD
	<node lat="59.39463888645689" lon="5.851077773544444" id="-4558">
		<tag k="historic" v="shieling" />
		<tag k="name" v="Ringjastølen" />
		<tag k="place" v="isolated_dwelling" />
		<tag k="ssr:stedsnr" v="2417" />
	</node>
	<node lat="59.37668055783079" lon="5.879761114164418" id="-4559">
		<tag k="name" v="Brakahaugen" />
=======
	<node id="-37632" lat="59.2935750038" lon="5.47020000174">
		<tag k="alt_name" v="Kjorkjeneset" />
		<tag k="name" v="Kyrkjenes" />
>>>>>>> e1d4bc35ff8a6074a6f2e91616a996b547c36f15
		<tag k="place" v="farm" />
		<tag k="ssr:stedsnr" v="2449" />
	</node>
<<<<<<< HEAD
	<node lat="59.353750003596026" lon="5.867849995125542" id="-4562">
		<tag k="name" v="Falkehytta" />
=======
	<node id="-37630" lat="59.3442083336" lon="5.74047221608">
		<tag k="fixme" v="consider place=hamlet" />
		<tag k="name" v="Jursvoll" />
>>>>>>> e1d4bc35ff8a6074a6f2e91616a996b547c36f15
		<tag k="place" v="farm" />
		<tag k="ssr:stedsnr" v="2517" />
	</node>
<<<<<<< HEAD
	<node lat="59.312372223245326" lon="5.39763055510197" id="-4563">
=======
	<node id="-37627" lat="59.396194446" lon="5.47807778001">
>>>>>>> e1d4bc35ff8a6074a6f2e91616a996b547c36f15
		<tag k="fixme" v="consider place=hamlet" />
		<tag k="name" v="Håstø" />
		<tag k="place" v="farm" />
		<tag k="ssr:stedsnr" v="2946" />
	</node>
<<<<<<< HEAD
	<node lat="59.2954166710847" lon="5.423994450984606" id="-4571">
		<tag k="name" v="Halsen" />
=======
	<node id="-37624" lat="59.4304138851" lon="5.41258055101">
		<tag k="name" v="Uratreet" />
>>>>>>> e1d4bc35ff8a6074a6f2e91616a996b547c36f15
		<tag k="place" v="farm" />
		<tag k="ssr:stedsnr" v="26648" />
	</node>
<<<<<<< HEAD
	<node lat="59.30151388986681" lon="5.4539249949570525" id="-4576">
		<tag k="name" v="Risvika" />
=======
	<node id="-37614" lat="59.3048444428" lon="5.48170833233">
		<tag k="name" v="Kvednane" />
>>>>>>> e1d4bc35ff8a6074a6f2e91616a996b547c36f15
		<tag k="place" v="farm" />
		<tag k="ssr:stedsnr" v="26666" />
	</node>
<<<<<<< HEAD
	<node lat="59.29550555508852" lon="5.441597228275321" id="-4577">
		<tag k="name" v="Avløypet" />
=======
	<node id="-37604" lat="59.4270222257" lon="5.63035834118">
		<tag k="name" v="Bjørkebakken" />
>>>>>>> e1d4bc35ff8a6074a6f2e91616a996b547c36f15
		<tag k="place" v="farm" />
		<tag k="ssr:stedsnr" v="26667" />
	</node>
<<<<<<< HEAD
	<node lat="59.30746388532375" lon="5.469119437010886" id="-4578">
=======
	<node id="-37589" lat="59.4327805575" lon="5.49086666568">
		<tag k="alt_name" v="Vaggeli (Bakkjen);Bakken;Bakkjen" />
>>>>>>> e1d4bc35ff8a6074a6f2e91616a996b547c36f15
		<tag k="fixme" v="consider place=hamlet" />
		<tag k="name" v="Nedre Kvinnesland" />
		<tag k="old_name" v="Kvinnesland" />
		<tag k="place" v="farm" />
		<tag k="ssr:stedsnr" v="26668" />
	</node>
<<<<<<< HEAD
	<node lat="59.43164722527335" lon="5.506174995205081" id="-4587">
		<tag k="alt_name" v="Odnaneset" />
		<tag k="fixme" v="consider place=hamlet" />
		<tag k="name" v="Ådnaneset" />
=======
	<node id="-37571" lat="59.3473611078" lon="5.75298055741">
		<tag k="name" v="Heiå" />
>>>>>>> e1d4bc35ff8a6074a6f2e91616a996b547c36f15
		<tag k="place" v="farm" />
		<tag k="ssr:stedsnr" v="54498" />
	</node>
<<<<<<< HEAD
	<node lat="59.27000277348049" lon="5.658063889718987" id="-4588">
		<tag k="fixme" v="consider place=hamlet" />
		<tag k="name" v="Toftøysundet" />
=======
	<node id="-37564" lat="59.3188694424" lon="5.39598610365">
		<tag k="name" v="Holmen" />
>>>>>>> e1d4bc35ff8a6074a6f2e91616a996b547c36f15
		<tag k="place" v="farm" />
		<tag k="ssr:stedsnr" v="53028" />
	</node>
<<<<<<< HEAD
	<node lat="59.30017222365487" lon="5.516094443425922" id="-4594">
		<tag k="name" v="Løkjene" />
		<tag k="place" v="farm" />
		<tag k="ssr:stedsnr" v="53589" />
	</node>
	<node lat="59.305583328962676" lon="5.5177555556496225" id="-4596">
		<tag k="name" v="Kuphaug" />
		<tag k="place" v="farm" />
		<tag k="ssr:stedsnr" v="53596" />
	</node>
	<node lat="59.36674166851189" lon="5.803399992098628" id="-4599">
		<tag k="name" v="Søre Li" />
		<tag k="place" v="farm" />
		<tag k="ssr:stedsnr" v="53338" />
	</node>
	<node lat="59.35072222605682" lon="5.831094445795493" id="-4623">
=======
	<node id="-37563" lat="59.313702782" lon="5.46416110934">
		<tag k="name" v="Slåttevik" />
		<tag k="old_name" v="Slottevik" />
		<tag k="place" v="hamlet" />
		<tag k="ssr:stedsnr" v="609965" />
	</node>
	<node id="-37557" lat="59.3338333292" lon="5.43474722036">
>>>>>>> e1d4bc35ff8a6074a6f2e91616a996b547c36f15
		<tag k="fixme" v="consider place=hamlet" />
		<tag k="name" v="Kaggestad" />
		<tag k="place" v="farm" />
		<tag k="ssr:stedsnr" v="63185" />
	</node>
<<<<<<< HEAD
	<node lat="59.373141671159665" lon="5.390055555177028" id="-4625">
		<tag k="alt_name" v="Kallevik;Kaldavik;Kadlavik" />
		<tag k="fixme" v="consider place=hamlet" />
		<tag k="name" v="Kallavik" />
=======
	<node id="-37554" lat="59.4093638861" lon="5.62935833593">
		<tag k="name" v="Valvik" />
>>>>>>> e1d4bc35ff8a6074a6f2e91616a996b547c36f15
		<tag k="place" v="farm" />
		<tag k="ssr:stedsnr" v="62537" />
	</node>
<<<<<<< HEAD
	<node lat="59.4046305599073" lon="5.466555563192212" id="-4626">
		<tag k="name" v="Apalvik" />
=======
	<node id="-37553" lat="59.4324250003" lon="5.82127499575">
		<tag k="name" v="Aplaflota" />
>>>>>>> e1d4bc35ff8a6074a6f2e91616a996b547c36f15
		<tag k="place" v="farm" />
		<tag k="ssr:stedsnr" v="62562" />
	</node>
<<<<<<< HEAD
	<node lat="59.43686388866773" lon="5.382627774794535" id="-4627">
=======
	<node id="-37550" lat="59.3330527741" lon="5.70723332899">
		<tag k="alt_name" v="Smørsdal" />
>>>>>>> e1d4bc35ff8a6074a6f2e91616a996b547c36f15
		<tag k="fixme" v="consider place=hamlet" />
		<tag k="name" v="Nodland" />
		<tag k="place" v="farm" />
		<tag k="ssr:stedsnr" v="62637" />
	</node>
<<<<<<< HEAD
	<node lat="59.36725555503283" lon="5.888497219756125" id="-4629">
		<tag k="alt_name" v="Kvam, in" />
=======
	<node id="-37548" lat="59.4230250004" lon="5.6272249976">
		<tag k="alt_name" v="Båsvika" />
>>>>>>> e1d4bc35ff8a6074a6f2e91616a996b547c36f15
		<tag k="fixme" v="consider place=hamlet" />
		<tag k="name" v="Indre Kvam" />
		<tag k="place" v="farm" />
		<tag k="ssr:stedsnr" v="63465" />
	</node>
<<<<<<< HEAD
	<node lat="59.363247222147635" lon="5.8880527829465406" id="-4630">
		<tag k="alt_name" v="Kvam, yt" />
=======
	<node id="-37547" lat="59.2670999958" lon="5.66889999758">
>>>>>>> e1d4bc35ff8a6074a6f2e91616a996b547c36f15
		<tag k="fixme" v="consider place=hamlet" />
		<tag k="name" v="Ytre Kvam" />
		<tag k="place" v="farm" />
		<tag k="ssr:stedsnr" v="63481" />
	</node>
<<<<<<< HEAD
	<node lat="59.405016665063975" lon="5.643458333265408" id="-4631">
		<tag k="alt_name" v="Lindong" />
		<tag k="fixme" v="consider place=hamlet" />
		<tag k="name" v="Lindanger" />
=======
	<node id="-37533" lat="59.4021027756" lon="5.4883222141">
		<tag k="name" v="Øvre Førland" />
>>>>>>> e1d4bc35ff8a6074a6f2e91616a996b547c36f15
		<tag k="place" v="farm" />
		<tag k="ssr:stedsnr" v="63043" />
	</node>
<<<<<<< HEAD
	<node lat="59.40650000018307" lon="5.665947224033335" id="-4633">
		<tag k="fixme" v="consider place=hamlet" />
		<tag k="name" v="Austerli" />
=======
	<node id="-37527" lat="59.3610777784" lon="5.74550833208">
		<tag k="name" v="Store Bjelland" />
>>>>>>> e1d4bc35ff8a6074a6f2e91616a996b547c36f15
		<tag k="place" v="farm" />
		<tag k="ssr:stedsnr" v="63059" />
	</node>
<<<<<<< HEAD
	<node lat="59.421216667733326" lon="5.617886117913909" id="-4634">
		<tag k="fixme" v="consider place=hamlet" />
		<tag k="name" v="Straum" />
=======
	<node id="-37511" lat="59.4396805599" lon="5.61868889151">
		<tag k="name" v="Båtasmeden" />
>>>>>>> e1d4bc35ff8a6074a6f2e91616a996b547c36f15
		<tag k="place" v="farm" />
		<tag k="ssr:stedsnr" v="63060" />
	</node>
<<<<<<< HEAD
	<node lat="59.33063333083209" lon="5.611811104175663" id="-4637">
		<tag k="name" v="Fora" />
=======
	<node id="-37504" lat="59.4164361153" lon="5.57038056058">
		<tag k="alt_name" v="Nedre Svinali" />
		<tag k="fixme" v="consider place=hamlet" />
		<tag k="name" v="Nedra Svinali" />
>>>>>>> e1d4bc35ff8a6074a6f2e91616a996b547c36f15
		<tag k="place" v="farm" />
		<tag k="ssr:stedsnr" v="63163" />
	</node>
<<<<<<< HEAD
	<node lat="59.277630556469475" lon="5.521097227757825" id="-4640">
		<tag k="name" v="Rindheim" />
=======
	<node id="-37501" lat="59.4356111155" lon="5.54331389657">
		<tag k="name" v="Smågjet" />
>>>>>>> e1d4bc35ff8a6074a6f2e91616a996b547c36f15
		<tag k="place" v="farm" />
		<tag k="ssr:stedsnr" v="63238" />
	</node>
<<<<<<< HEAD
	<node lat="59.28850277780539" lon="5.53978611881216" id="-4641">
		<tag k="alt_name" v="Novå" />
		<tag k="name" v="Oppheim" />
=======
	<node id="-37482" lat="59.4157194451" lon="5.77922222301">
		<tag k="name" v="Ryggen" />
>>>>>>> e1d4bc35ff8a6074a6f2e91616a996b547c36f15
		<tag k="place" v="farm" />
		<tag k="ssr:stedsnr" v="63249" />
	</node>
<<<<<<< HEAD
	<node lat="59.29215277941042" lon="5.64736111951388" id="-4643">
		<tag k="alt_name" v="Bakkevik" />
=======
	<node id="-37478" lat="59.3757111065" lon="5.40122776973">
>>>>>>> e1d4bc35ff8a6074a6f2e91616a996b547c36f15
		<tag k="fixme" v="consider place=hamlet" />
		<tag k="name" v="Bakkavik" />
		<tag k="place" v="farm" />
		<tag k="ssr:stedsnr" v="63257" />
	</node>
<<<<<<< HEAD
	<node lat="59.43208697249972" lon="5.6132747319637035" id="-4651">
		<tag k="fixme" v="consider place=hamlet" />
		<tag k="name" v="Skjoldastraumen" />
		<tag k="place" v="village" />
		<tag k="ssr:stedsnr" v="85848" />
	</node>
	<node lat="59.278363888920076" lon="5.548638895914486" id="-4655">
		<tag k="alt_name" v="Midtbø" />
		<tag k="name" v="Midbø" />
=======
	<node id="-36966" lat="59.3895499981" lon="5.86832499645">
		<tag k="historic" v="shieling" />
		<tag k="name" v="Straumastølen" />
		<tag k="place" v="locality" />
		<tag k="ssr:stedsnr" v="124358" />
	</node>
	<node id="-37474" lat="59.3876194446" lon="5.41147499335">
		<tag k="name" v="Tjødnamyra" />
		<tag k="place" v="farm" />
		<tag k="ssr:stedsnr" v="512017" />
	</node>
	<node id="-37468" lat="59.3405527743" lon="5.6408194469">
		<tag k="name" v="Østabøvik" />
>>>>>>> e1d4bc35ff8a6074a6f2e91616a996b547c36f15
		<tag k="place" v="farm" />
		<tag k="ssr:stedsnr" v="86136" />
	</node>
<<<<<<< HEAD
	<node lat="59.33063055184633" lon="5.494522229983136" id="-4662">
=======
	<node id="-37464" lat="59.3653027748" lon="5.39168055324">
		<tag k="alt_name" v="Høye" />
>>>>>>> e1d4bc35ff8a6074a6f2e91616a996b547c36f15
		<tag k="fixme" v="consider place=hamlet" />
		<tag k="name" v="Tysvær" />
		<tag k="place" v="farm" />
		<tag k="ssr:stedsnr" v="87278" />
	</node>
<<<<<<< HEAD
	<node lat="59.47458611051178" lon="5.399399991569187" id="-4663">
		<tag k="name" v="Markaplassen" />
=======
	<node id="-37463" lat="59.4541722236" lon="5.38081110411">
		<tag k="alt_name" v="Neseim" />
		<tag k="name" v="Nesheim" />
>>>>>>> e1d4bc35ff8a6074a6f2e91616a996b547c36f15
		<tag k="place" v="farm" />
		<tag k="ssr:stedsnr" v="87295" />
	</node>
<<<<<<< HEAD
	<node lat="59.409622221668734" lon="5.736386118284431" id="-4690">
=======
	<node id="-37462" lat="59.4304668951" lon="5.48669999721">
>>>>>>> e1d4bc35ff8a6074a6f2e91616a996b547c36f15
		<tag k="fixme" v="consider place=hamlet" />
		<tag k="name" v="Breidalen" />
		<tag k="place" v="farm" />
<<<<<<< HEAD
		<tag k="ssr:stedsnr" v="114786" />
	</node>
	<node lat="59.28031666690998" lon="5.526450006540202" id="-4694">
		<tag k="name" v="Smittet" />
=======
		<tag k="ssr:stedsnr" v="485756" />
	</node>
	<node id="-37449" lat="59.3606138895" lon="5.54329167164">
		<tag k="name" v="Lindebrekka" />
		<tag k="place" v="locality" />
		<tag k="ssr:stedsnr" v="478202" />
	</node>
	<node id="-37430" lat="59.3216861133" lon="5.44838610995">
		<tag k="name" v="Lushamn" />
>>>>>>> e1d4bc35ff8a6074a6f2e91616a996b547c36f15
		<tag k="place" v="farm" />
		<tag k="ssr:stedsnr" v="114380" />
	</node>
<<<<<<< HEAD
	<node lat="59.41115278069192" lon="5.533430554581922" id="-4701">
		<tag k="name" v="Brotet" />
		<tag k="place" v="locality" />
		<tag k="ssr:stedsnr" v="114764" />
	</node>
	<node lat="59.353158334631836" lon="5.787113882946279" id="-4710">
=======
	<node id="-37427" lat="59.4592450594" lon="5.58564160475">
>>>>>>> e1d4bc35ff8a6074a6f2e91616a996b547c36f15
		<tag k="fixme" v="consider place=hamlet" />
		<tag k="name" v="Nedre Hedla" />
		<tag k="place" v="farm" />
		<tag k="ssr:stedsnr" v="121752" />
	</node>
<<<<<<< HEAD
	<node lat="59.45456388670666" lon="5.392497219499033" id="-4712">
		<tag k="name" v="Prestvarden" />
=======
	<node id="-37425" lat="59.4383166653" lon="5.5416444459">
		<tag k="fixme" v="consider place=hamlet" />
		<tag k="name" v="Brattestø" />
>>>>>>> e1d4bc35ff8a6074a6f2e91616a996b547c36f15
		<tag k="place" v="farm" />
		<tag k="ssr:stedsnr" v="122664" />
	</node>
<<<<<<< HEAD
	<node lat="59.413616664896715" lon="5.500205557139028" id="-4720">
=======
	<node id="-37423" lat="59.480291666" lon="5.45492778296">
		<tag k="alt_name" v="Sundfør;Sønnfør" />
>>>>>>> e1d4bc35ff8a6074a6f2e91616a996b547c36f15
		<tag k="fixme" v="consider place=hamlet" />
		<tag k="name" v="Amdal" />
		<tag k="place" v="farm" />
		<tag k="ssr:stedsnr" v="123057" />
	</node>
<<<<<<< HEAD
	<node lat="59.31878611403036" lon="5.562349996636336" id="-4723">
		<tag k="alt_name" v="Rossadalen" />
		<tag k="fixme" v="consider place=hamlet" />
		<tag k="name" v="Rossadal" />
=======
	<node id="-37422" lat="59.4776277749" lon="5.46350278027">
		<tag k="name" v="Inngjerda" />
>>>>>>> e1d4bc35ff8a6074a6f2e91616a996b547c36f15
		<tag k="place" v="farm" />
		<tag k="ssr:stedsnr" v="123229" />
	</node>
<<<<<<< HEAD
	<node lat="59.33171944001378" lon="5.7281249999863375" id="-4724">
		<tag k="alt_name" v="Leirong" />
		<tag k="fixme" v="consider place=hamlet" />
		<tag k="name" v="Leiranger" />
=======
	<node id="-37421" lat="59.467527774" lon="5.45386944659">
		<tag k="alt_name" v="Tårhaugen" />
		<tag k="name" v="Torhaugen" />
>>>>>>> e1d4bc35ff8a6074a6f2e91616a996b547c36f15
		<tag k="place" v="farm" />
		<tag k="ssr:stedsnr" v="123238" />
	</node>
<<<<<<< HEAD
	<node lat="59.31664722142909" lon="5.494344443541816" id="-4725">
		<tag k="alt_name" v="Djupdal" />
		<tag k="name" v="Djupedal" />
=======
	<node id="-37417" lat="59.2967861117" lon="5.52218055172">
		<tag k="name" v="Falkeid" />
>>>>>>> e1d4bc35ff8a6074a6f2e91616a996b547c36f15
		<tag k="place" v="farm" />
		<tag k="ssr:stedsnr" v="123244" />
	</node>
<<<<<<< HEAD
	<node lat="59.397600000389566" lon="5.862100000750813" id="-4730">
=======
	<node id="-37416" lat="59.3053972181" lon="5.68517222641">
>>>>>>> e1d4bc35ff8a6074a6f2e91616a996b547c36f15
		<tag k="fixme" v="consider place=hamlet" />
		<tag k="name" v="Ringja" />
		<tag k="place" v="farm" />
		<tag k="ssr:stedsnr" v="123451" />
	</node>
<<<<<<< HEAD
	<node lat="59.28344999841548" lon="5.511755547976487" id="-4736">
		<tag k="alt_name" v="Kleivå" />
		<tag k="name" v="Kleiva" />
		<tag k="place" v="farm" />
		<tag k="ssr:stedsnr" v="124195" />
	</node>
	<node lat="59.35374444279655" lon="5.6102083403861975" id="-4737">
		<tag k="fixme" v="consider place=hamlet" />
		<tag k="name" v="Steinsvik" />
=======
	<node id="-37408" lat="59.4074944476" lon="5.77912777296">
		<tag k="fixme" v="consider place=hamlet" />
		<tag k="name" v="Helgaland" />
		<tag k="place" v="farm" />
		<tag k="ssr:stedsnr" v="670047" />
	</node>
	<node id="-37407" lat="59.3960166643" lon="5.4938083388">
		<tag k="name" v="Førland" />
		<tag k="place" v="hamlet" />
		<tag k="ssr:stedsnr" v="670044" />
	</node>
	<node id="-37405" lat="59.4054027778" lon="5.47424999348">
		<tag k="alt_name" v="Vassmyrane" />
		<tag k="name" v="Vassmyr" />
>>>>>>> e1d4bc35ff8a6074a6f2e91616a996b547c36f15
		<tag k="place" v="farm" />
		<tag k="ssr:stedsnr" v="124124" />
	</node>
<<<<<<< HEAD
	<node lat="59.34655833585665" lon="5.533899991880283" id="-4740">
=======
	<node id="-37404" lat="59.4038472216" lon="5.60488333275">
		<tag k="alt_name" v="Vågjen" />
>>>>>>> e1d4bc35ff8a6074a6f2e91616a996b547c36f15
		<tag k="fixme" v="consider place=hamlet" />
		<tag k="name" v="Hesja" />
		<tag k="place" v="farm" />
		<tag k="ssr:stedsnr" v="124134" />
	</node>
<<<<<<< HEAD
	<node lat="59.360812658063715" lon="5.747311490562347" id="-4741">
=======
	<node id="-37403" lat="59.3417444403" lon="5.44811389138">
>>>>>>> e1d4bc35ff8a6074a6f2e91616a996b547c36f15
		<tag k="fixme" v="consider place=hamlet" />
		<tag k="name" v="Store Bjelland" />
		<tag k="place" v="farm" />
		<tag k="ssr:stedsnr" v="124140" />
	</node>
<<<<<<< HEAD
	<node lat="59.389549998092946" lon="5.868324996447078" id="-4742">
		<tag k="historic" v="shieling" />
		<tag k="name" v="Straumastølen" />
		<tag k="place" v="isolated_dwelling" />
		<tag k="ssr:stedsnr" v="124358" />
	</node>
	<node lat="59.46265541943035" lon="5.589819712224193" id="-4743">
		<tag k="name" v="Nylund" />
=======
	<node id="-37398" lat="59.4333277769" lon="5.45723333701">
		<tag k="fixme" v="consider place=hamlet" />
		<tag k="name" v="Kringeland" />
>>>>>>> e1d4bc35ff8a6074a6f2e91616a996b547c36f15
		<tag k="place" v="farm" />
		<tag k="ssr:stedsnr" v="144785" />
	</node>
<<<<<<< HEAD
	<node lat="59.412469443147266" lon="5.384513882767832" id="-4747">
		<tag k="alt_name" v="Utnarvik" />
		<tag k="name" v="Udnavik" />
=======
	<node id="-37396" lat="59.4223027787" lon="5.46007777062">
		<tag k="alt_name" v="Urå" />
		<tag k="name" v="Urda" />
>>>>>>> e1d4bc35ff8a6074a6f2e91616a996b547c36f15
		<tag k="place" v="farm" />
		<tag k="ssr:stedsnr" v="147280" />
	</node>
<<<<<<< HEAD
	<node lat="59.34787777772217" lon="5.567027780016927" id="-4775">
		<tag k="name" v="Sandsmark" />
=======
	<node id="-37391" lat="59.3304655604" lon="5.71901498589">
		<tag k="fixme" v="consider place=hamlet" />
		<tag k="name" v="Nordtveit" />
>>>>>>> e1d4bc35ff8a6074a6f2e91616a996b547c36f15
		<tag k="place" v="farm" />
		<tag k="ssr:stedsnr" v="174975" />
	</node>
<<<<<<< HEAD
	<node lat="59.32906666569494" lon="5.720852776593677" id="-4784">
		<tag k="fixme" v="consider place=hamlet" />
		<tag k="name" v="Sørtveit" />
		<tag k="place" v="farm" />
		<tag k="ssr:stedsnr" v="174783" />
	</node>
	<node lat="59.326074998989995" lon="5.539216662222032" id="-4795">
		<tag k="name" v="Åsen" />
=======
	<node id="-37388" lat="59.3531583346" lon="5.78711388295">
		<tag k="name" v="Hella" />
>>>>>>> e1d4bc35ff8a6074a6f2e91616a996b547c36f15
		<tag k="place" v="hamlet" />
		<tag k="ssr:stedsnr" v="182790" />
	</node>
<<<<<<< HEAD
	<node lat="59.3586305515528" lon="5.832169445270161" id="-4796">
		<tag k="fixme" v="consider place=hamlet" />
		<tag k="name" v="Aksland" />
=======
	<node id="-37383" lat="59.3741555553" lon="5.7803194517">
		<tag k="name" v="Roaldsvik" />
>>>>>>> e1d4bc35ff8a6074a6f2e91616a996b547c36f15
		<tag k="place" v="farm" />
		<tag k="ssr:stedsnr" v="184128" />
	</node>
<<<<<<< HEAD
	<node lat="59.402702774783606" lon="5.668450000581921" id="-4802">
		<tag k="name" v="Stølane" />
=======
	<node id="-37381" lat="59.3963416679" lon="5.76820556337">
		<tag k="fixme" v="consider place=hamlet" />
		<tag k="name" v="Vassenden" />
>>>>>>> e1d4bc35ff8a6074a6f2e91616a996b547c36f15
		<tag k="place" v="farm" />
		<tag k="ssr:stedsnr" v="184061" />
	</node>
<<<<<<< HEAD
	<node lat="59.26600555789301" lon="5.6536388911958255" id="-4805">
		<tag k="name" v="Stong" />
		<tag k="place" v="farm" />
		<tag k="ssr:stedsnr" v="184243" />
	</node>
	<node lat="59.36448333759388" lon="5.461075004392004" id="-4808">
		<tag k="alt_name" v="Apelan" />
=======
	<node id="-37380" lat="59.4299166696" lon="5.63794999432">
>>>>>>> e1d4bc35ff8a6074a6f2e91616a996b547c36f15
		<tag k="fixme" v="consider place=hamlet" />
		<tag k="name" v="Apeland" />
		<tag k="place" v="farm" />
		<tag k="ssr:stedsnr" v="184564" />
	</node>
<<<<<<< HEAD
	<node lat="59.36351388665911" lon="5.403083333855774" id="-4809">
		<tag k="alt_name" v="Vodl" />
		<tag k="name" v="Voll" />
=======
	<node id="-37379" lat="59.3301279284" lon="5.71706981877">
		<tag k="alt_name" v="Nordtveit" />
		<tag k="name" v="Tveit" />
>>>>>>> e1d4bc35ff8a6074a6f2e91616a996b547c36f15
		<tag k="place" v="farm" />
		<tag k="ssr:stedsnr" v="184573" />
	</node>
<<<<<<< HEAD
	<node lat="59.435291669185474" lon="5.54719167184827" id="-4811">
=======
	<node id="-37376" lat="59.2921999981" lon="5.52177499534">
>>>>>>> e1d4bc35ff8a6074a6f2e91616a996b547c36f15
		<tag k="fixme" v="consider place=hamlet" />
		<tag k="name" v="Aukland" />
		<tag k="place" v="farm" />
		<tag k="ssr:stedsnr" v="184747" />
	</node>
<<<<<<< HEAD
	<node lat="59.450763885092215" lon="5.620880562582607" id="-4812">
		<tag k="alt_name" v="Sponavik" />
=======
	<node id="-37375" lat="59.2817250044" lon="5.4761249982">
>>>>>>> e1d4bc35ff8a6074a6f2e91616a996b547c36f15
		<tag k="fixme" v="consider place=hamlet" />
		<tag k="name" v="Sponavika" />
		<tag k="place" v="farm" />
		<tag k="ssr:stedsnr" v="184775" />
	</node>
<<<<<<< HEAD
	<node lat="59.35647500244524" lon="5.880749995951497" id="-4815">
		<tag k="alt_name" v="Nessa, store" />
		<tag k="fixme" v="consider place=hamlet" />
		<tag k="name" v="Store Nessa" />
=======
	<node id="-37374" lat="59.2789277809" lon="5.52727777028">
		<tag k="alt_name" v="Løvland" />
		<tag k="name" v="Lauvland" />
>>>>>>> e1d4bc35ff8a6074a6f2e91616a996b547c36f15
		<tag k="place" v="farm" />
		<tag k="ssr:stedsnr" v="185416" />
	</node>
<<<<<<< HEAD
	<node lat="59.44851667109985" lon="5.6233305535139175" id="-4817">
		<tag k="name" v="Øvrabø" />
		<tag k="place" v="farm" />
		<tag k="ssr:stedsnr" v="206132" />
	</node>
	<node lat="59.36624444597469" lon="5.384449995750289" id="-4820">
		<tag k="name" v="Solstrand" />
=======
	<node id="-37366" lat="59.3479361105" lon="5.45368611778">
		<tag k="alt_name" v="Norheim" />
		<tag k="name" v="Noreim" />
>>>>>>> e1d4bc35ff8a6074a6f2e91616a996b547c36f15
		<tag k="place" v="farm" />
		<tag k="ssr:stedsnr" v="207258" />
	</node>
<<<<<<< HEAD
	<node lat="59.30382500132531" lon="5.405097227546262" id="-4829">
		<tag k="name" v="Vestgarden" />
=======
	<node id="-37361" lat="59.2996888931" lon="5.58051666355">
		<tag k="name" v="Strondå" />
>>>>>>> e1d4bc35ff8a6074a6f2e91616a996b547c36f15
		<tag k="place" v="farm" />
		<tag k="ssr:stedsnr" v="208658" />
	</node>
<<<<<<< HEAD
	<node lat="59.319227776141126" lon="5.472908332200565" id="-4830">
		<tag k="name" v="Troppene" />
=======
	<node id="-37359" lat="59.4757000017" lon="5.4564611164">
		<tag k="name" v="Storaleitet" />
>>>>>>> e1d4bc35ff8a6074a6f2e91616a996b547c36f15
		<tag k="place" v="farm" />
		<tag k="ssr:stedsnr" v="208667" />
	</node>
<<<<<<< HEAD
	<node lat="59.393144440236476" lon="5.466530551937355" id="-4832">
		<tag k="name" v="Hadlaland" />
=======
	<node id="-37355" lat="59.4139416708" lon="5.38489722269">
		<tag k="name" v="Leitet" />
>>>>>>> e1d4bc35ff8a6074a6f2e91616a996b547c36f15
		<tag k="place" v="farm" />
		<tag k="ssr:stedsnr" v="208718" />
	</node>
<<<<<<< HEAD
	<node lat="59.346963892424206" lon="5.81736667290174" id="-4841">
		<tag k="name" v="Flatå" />
		<tag k="place" v="farm" />
		<tag k="ssr:stedsnr" v="295138" />
	</node>
	<node lat="59.32683889013127" lon="5.688955559539027" id="-4845">
		<tag k="fixme" v="consider place=hamlet" />
		<tag k="name" v="Ringstveit" />
=======
	<node id="-37352" lat="59.3548166666" lon="5.55752499191">
		<tag k="name" v="Solberg" />
>>>>>>> e1d4bc35ff8a6074a6f2e91616a996b547c36f15
		<tag k="place" v="farm" />
		<tag k="ssr:stedsnr" v="295553" />
	</node>
<<<<<<< HEAD
	<node lat="59.411397222870875" lon="5.520994445500794" id="-4866">
		<tag k="name" v="Liå" />
=======
	<node id="-37340" lat="59.272422223" lon="5.52370833819">
		<tag k="name" v="Groe" />
>>>>>>> e1d4bc35ff8a6074a6f2e91616a996b547c36f15
		<tag k="place" v="locality" />
		<tag k="ssr:stedsnr" v="296747" />
	</node>
<<<<<<< HEAD
	<node lat="59.344491669491156" lon="5.795325008206721" id="-4883">
		<tag k="amenity" v="school" />
		<tag k="name" v="Tveit Vidaregåande Skole" />
		<tag k="old_name" v="Tveit;Tveit Jordbruksskole" />
		<tag k="ssr:stedsnr" v="305161" />
	</node>
	<node lat="59.345005552657426" lon="5.753291661162952" id="-4885">
		<tag k="alt_name" v="Tednaland" />
=======
	<node id="-37322" lat="59.3424924637" lon="5.70798795419">
		<tag k="fixme" v="consider place=hamlet" />
		<tag k="name" v="Hustopt" />
		<tag k="place" v="farm" />
		<tag k="ssr:stedsnr" v="659574" />
	</node>
	<node id="-37320" lat="59.3560361133" lon="5.84089443666">
>>>>>>> e1d4bc35ff8a6074a6f2e91616a996b547c36f15
		<tag k="fixme" v="consider place=hamlet" />
		<tag k="name" v="Ternaland" />
		<tag k="place" v="farm" />
		<tag k="ssr:stedsnr" v="305179" />
	</node>
<<<<<<< HEAD
	<node lat="59.34710833575831" lon="5.872288891210727" id="-4886">
		<tag k="name" v="Nymark" />
=======
	<node id="-37317" lat="59.3500611099" lon="5.8220055513">
		<tag k="name" v="Plasset" />
>>>>>>> e1d4bc35ff8a6074a6f2e91616a996b547c36f15
		<tag k="place" v="farm" />
		<tag k="ssr:stedsnr" v="305534" />
	</node>
<<<<<<< HEAD
	<node lat="59.44081111034937" lon="5.599622227197542" id="-4891">
		<tag k="fixme" v="consider place=hamlet" />
		<tag k="name" v="Erland" />
		<tag k="place" v="farm" />
		<tag k="ssr:stedsnr" v="305753" />
	</node>
	<node lat="59.369674997373444" lon="5.807175004154584" id="-4895">
=======
	<node id="-37309" lat="59.3320361133" lon="5.48981388142">
		<tag k="fixme" v="consider place=hamlet" />
		<tag k="name" v="Tysvær" />
		<tag k="place" v="village" />
		<tag k="ssr:stedsnr" v="516866" />
	</node>
	<node id="-36937" lat="59.4468722259" lon="5.55209999888">
		<tag k="fixme" v="consider place=hamlet" />
		<tag k="name" v="Steinbru" />
		<tag k="place" v="farm" />
		<tag k="ssr:stedsnr" v="245777" />
	</node>
	<node id="-37299" lat="59.4165499958" lon="5.59974167111">
		<tag k="name" v="Røyrvik" />
		<tag k="place" v="isolated_dwelling" />
		<tag k="ssr:stedsnr" v="427049" />
	</node>
	<node id="-37296" lat="59.4364805529" lon="5.61113055622">
>>>>>>> e1d4bc35ff8a6074a6f2e91616a996b547c36f15
		<tag k="fixme" v="consider place=hamlet" />
		<tag k="name" v="Støla" />
		<tag k="place" v="farm" />
		<tag k="ssr:stedsnr" v="306144" />
	</node>
<<<<<<< HEAD
	<node lat="59.35803055762464" lon="5.889300002489815" id="-4901">
		<tag k="alt_name" v="Nessa, in" />
=======
	<node id="-37295" lat="59.4340277785" lon="5.64443889751">
		<tag k="alt_name" v="Finshus" />
>>>>>>> e1d4bc35ff8a6074a6f2e91616a996b547c36f15
		<tag k="fixme" v="consider place=hamlet" />
		<tag k="name" v="Indre Nessa" />
		<tag k="place" v="farm" />
		<tag k="ssr:stedsnr" v="306435" />
	</node>
<<<<<<< HEAD
	<node lat="59.43921110749974" lon="5.55509999628687" id="-4906">
		<tag k="fixme" v="consider place=hamlet" />
		<tag k="name" v="Vatland" />
		<tag k="place" v="farm" />
		<tag k="ssr:stedsnr" v="306733" />
	</node>
	<node lat="59.33472222601894" lon="5.460761105829262" id="-4908">
		<tag k="name" v="Vestbø" />
=======
	<node id="-37293" lat="59.4229277799" lon="5.59966389023">
		<tag k="name" v="Skåtahaugen" />
		<tag k="place" v="farm" />
		<tag k="ssr:stedsnr" v="427004" />
	</node>
	<node id="-37269" lat="59.3340555533" lon="5.4466944506">
		<tag k="name" v="Leirvoll" />
>>>>>>> e1d4bc35ff8a6074a6f2e91616a996b547c36f15
		<tag k="place" v="farm" />
		<tag k="ssr:stedsnr" v="328112" />
	</node>
<<<<<<< HEAD
	<node lat="59.29908888934536" lon="5.409844439252406" id="-4913">
		<tag k="name" v="Krossnes" />
=======
	<node id="-39309" lat="59.3217638903" lon="5.66087500268">
		<tag k="name" v="Bøvika" />
>>>>>>> e1d4bc35ff8a6074a6f2e91616a996b547c36f15
		<tag k="place" v="farm" />
		<tag k="ssr:stedsnr" v="329628" />
	</node>
<<<<<<< HEAD
	<node lat="59.284041662777646" lon="5.471188885529327" id="-4926">
		<tag k="name" v="Urå" />
=======
	<node id="-37251" lat="59.4812027799" lon="5.46546666121">
		<tag k="name" v="Glette" />
>>>>>>> e1d4bc35ff8a6074a6f2e91616a996b547c36f15
		<tag k="place" v="farm" />
		<tag k="ssr:stedsnr" v="330677" />
	</node>
<<<<<<< HEAD
	<node lat="59.2766083338383" lon="5.483288892293738" id="-4927">
		<tag k="name" v="Bustø" />
=======
	<node id="-37250" lat="59.4652861079" lon="5.47196110284">
		<tag k="name" v="Goabakka" />
>>>>>>> e1d4bc35ff8a6074a6f2e91616a996b547c36f15
		<tag k="place" v="farm" />
		<tag k="ssr:stedsnr" v="330678" />
	</node>
<<<<<<< HEAD
	<node lat="59.351274995702894" lon="5.792027769574594" id="-4937">
		<tag k="name" v="Lasshidler" />
=======
	<node id="-39291" lat="59.3714694467" lon="5.6078416673">
		<tag k="name" v="Hundsnes" />
>>>>>>> e1d4bc35ff8a6074a6f2e91616a996b547c36f15
		<tag k="place" v="farm" />
		<tag k="ssr:stedsnr" v="356166" />
	</node>
<<<<<<< HEAD
	<node lat="59.35191110989705" lon="5.7578083405530425" id="-4953">
		<tag k="name" v="Eikåsen" />
=======
	<node id="-37240" lat="59.4260472266" lon="5.38155834088">
		<tag k="name" v="Førre" />
>>>>>>> e1d4bc35ff8a6074a6f2e91616a996b547c36f15
		<tag k="place" v="farm" />
		<tag k="ssr:stedsnr" v="356289" />
	</node>
<<<<<<< HEAD
	<node lat="59.333897222480516" lon="5.754758326971288" id="-4969">
		<tag k="fixme" v="consider place=hamlet" />
		<tag k="name" v="Selvika" />
=======
	<node id="-37235" lat="59.4175055519" lon="5.38427778103">
		<tag k="alt_name" v="Smoget" />
		<tag k="name" v="Smågjet" />
>>>>>>> e1d4bc35ff8a6074a6f2e91616a996b547c36f15
		<tag k="place" v="farm" />
		<tag k="ssr:stedsnr" v="356848" />
	</node>
	<node lat="59.29748611424197" lon="5.668177776287528" id="-4976">
		<tag k="name" v="Årvågen" />
		<tag k="place" v="farm" />
		<tag k="ssr:stedsnr" v="356993" />
	</node>
<<<<<<< HEAD
	<node lat="59.4195500037869" lon="5.574061118734704" id="-4979">
=======
	<node id="-37233" lat="59.4195500038" lon="5.57406111873">
>>>>>>> e1d4bc35ff8a6074a6f2e91616a996b547c36f15
		<tag k="alt_name" v="Øvre Svinali" />
		<tag k="fixme" v="consider place=hamlet" />
		<tag k="name" v="Øvra Svinali" />
		<tag k="place" v="farm" />
		<tag k="ssr:stedsnr" v="363747" />
	</node>
<<<<<<< HEAD
	<node lat="59.41600215154649" lon="5.383735653654219" id="-4980">
		<tag k="alt_name" v="Nap" />
		<tag k="name" v="Napp" />
		<tag k="place" v="farm" />
		<tag k="ssr:stedsnr" v="365614" />
	</node>
	<node lat="59.42254166627605" lon="5.783694450028173" id="-4983">
		<tag k="fixme" v="consider place=hamlet" />
		<tag k="name" v="Elfarvik" />
=======
	<node id="-37232" lat="59.3832333358" lon="5.64321944411">
		<tag k="fixme" v="consider place=hamlet" />
		<tag k="name" v="Nordre Kreppene" />
		<tag k="place" v="farm" />
		<tag k="ssr:stedsnr" v="356110" />
	</node>
	<node id="-37230" lat="59.3948416708" lon="5.63155000559">
		<tag k="name" v="Pinskår" />
		<tag k="place" v="locality" />
		<tag k="ssr:stedsnr" v="490294" />
	</node>
	<node id="-36925" lat="59.3058861149" lon="5.65469999371">
		<tag k="alt_name" v="Ytre Amdal" />
		<tag k="fixme" v="consider place=hamlet" />
		<tag k="name" v="Amdal" />
		<tag k="place" v="farm" />
		<tag k="ssr:stedsnr" v="245227" />
	</node>
	<node id="-39269" lat="59.2742416693" lon="5.54740555625">
		<tag k="name" v="Vik" />
>>>>>>> e1d4bc35ff8a6074a6f2e91616a996b547c36f15
		<tag k="place" v="farm" />
		<tag k="ssr:stedsnr" v="366051" />
	</node>
<<<<<<< HEAD
	<node lat="59.42552221908596" lon="5.516172225335608" id="-4986">
=======
	<node id="-37220" lat="59.3603249971" lon="5.87050000605">
>>>>>>> e1d4bc35ff8a6074a6f2e91616a996b547c36f15
		<tag k="fixme" v="consider place=hamlet" />
		<tag k="name" v="Søvik" />
		<tag k="place" v="farm" />
		<tag k="ssr:stedsnr" v="366001" />
	</node>
<<<<<<< HEAD
	<node lat="59.35894444439845" lon="5.4742944490626435" id="-4990">
=======
	<node id="-37219" lat="59.365625002" lon="5.87900000444">
>>>>>>> e1d4bc35ff8a6074a6f2e91616a996b547c36f15
		<tag k="fixme" v="consider place=hamlet" />
		<tag k="name" v="Høyvik" />
		<tag k="place" v="farm" />
		<tag k="ssr:stedsnr" v="366089" />
	</node>
<<<<<<< HEAD
	<node lat="59.3481567417028" lon="5.612968479584996" id="-5000">
		<tag k="fixme" v="consider place=hamlet" />
		<tag k="name" v="Narravik" />
		<tag k="place" v="farm" />
		<tag k="ssr:stedsnr" v="366138" />
	</node>
	<node lat="59.33611666461013" lon="5.503738894582996" id="-5004">
		<tag k="alt_name" v="Løning" />
		<tag k="fixme" v="consider place=hamlet" />
		<tag k="name" v="Løyning" />
		<tag k="place" v="farm" />
		<tag k="ssr:stedsnr" v="366174" />
	</node>
	<node lat="59.35492500397935" lon="5.846924991136608" id="-5006">
		<tag k="fixme" v="consider place=hamlet" />
		<tag k="name" v="Maurland" />
=======
	<node id="-39265" lat="59.4215194423" lon="5.61955000799">
		<tag k="alt_name" v="Skjeljavika" />
		<tag k="name" v="Skjeljevik" />
		<tag k="place" v="farm" />
		<tag k="ssr:stedsnr" v="874129" />
	</node>
	<node id="-37211" lat="59.4046000034" lon="5.6747805509">
		<tag k="name" v="Eid" />
		<tag k="place" v="farm" />
		<tag k="ssr:stedsnr" v="488048" />
	</node>
	<node id="-37208" lat="59.3060833335" lon="5.4065777726">
		<tag k="fixme" v="consider place=hamlet" />
		<tag k="name" v="Gismarvik" />
		<tag k="place" v="farm" />
		<tag k="ssr:stedsnr" v="487939" />
	</node>
	<node id="-39255" lat="59.3444444435" lon="5.87297222291">
		<tag k="name" v="Fredheim" />
>>>>>>> e1d4bc35ff8a6074a6f2e91616a996b547c36f15
		<tag k="place" v="farm" />
		<tag k="ssr:stedsnr" v="366473" />
	</node>
<<<<<<< HEAD
	<node lat="59.44213610899275" lon="5.5433000070523395" id="-5012">
		<tag k="alt_name" v="Notten" />
		<tag k="name" v="Notet" />
=======
	<node id="-39254" lat="59.2878611101" lon="5.53524723059">
		<tag k="alt_name" v="Teigen" />
		<tag k="name" v="Austbø" />
>>>>>>> e1d4bc35ff8a6074a6f2e91616a996b547c36f15
		<tag k="place" v="farm" />
		<tag k="ssr:stedsnr" v="366765" />
	</node>
<<<<<<< HEAD
	<node lat="59.29592500359261" lon="5.425269446778039" id="-5015">
		<tag k="name" v="Gismarvik" />
=======
	<node id="-39253" lat="59.2787361072" lon="5.55145556064">
		<tag k="name" v="Sørtun" />
>>>>>>> e1d4bc35ff8a6074a6f2e91616a996b547c36f15
		<tag k="place" v="farm" />
		<tag k="ssr:stedsnr" v="366923" />
	</node>
<<<<<<< HEAD
	<node lat="59.36096944245909" lon="5.393919441535977" id="-5017">
		<tag k="name" v="Høye" />
=======
	<node id="-39251" lat="59.3603833371" lon="5.79035556262">
		<tag k="name" v="Bjørk" />
>>>>>>> e1d4bc35ff8a6074a6f2e91616a996b547c36f15
		<tag k="place" v="farm" />
		<tag k="ssr:stedsnr" v="388224" />
	</node>
<<<<<<< HEAD
	<node lat="59.39101666992996" lon="5.465725000545249" id="-5020">
		<tag k="name" v="Sørbø" />
=======
	<node id="-39250" lat="59.3415611118" lon="5.60851388797">
		<tag k="name" v="Søllesvika" />
>>>>>>> e1d4bc35ff8a6074a6f2e91616a996b547c36f15
		<tag k="place" v="farm" />
		<tag k="ssr:stedsnr" v="389284" />
	</node>
<<<<<<< HEAD
	<node lat="59.35976666924403" lon="5.660397213352683" id="-5045">
		<tag k="name" v="Nygård" />
=======
	<node id="-39249" lat="59.3834666692" lon="5.47359999982">
		<tag k="name" v="Saltvik" />
>>>>>>> e1d4bc35ff8a6074a6f2e91616a996b547c36f15
		<tag k="place" v="farm" />
		<tag k="ssr:stedsnr" v="416940" />
	</node>
<<<<<<< HEAD
	<node lat="59.34569166556465" lon="5.7929583308238435" id="-5082">
=======
	<node id="-39247" lat="59.3922980469" lon="5.66560149169">
>>>>>>> e1d4bc35ff8a6074a6f2e91616a996b547c36f15
		<tag k="fixme" v="consider place=hamlet" />
		<tag k="name" v="Tveit" />
		<tag k="place" v="farm" />
		<tag k="ssr:stedsnr" v="424733" />
	</node>
<<<<<<< HEAD
	<node lat="59.29446110830787" lon="5.451477779058898" id="-5084">
		<tag k="name" v="Surnevik" />
=======
	<node id="-39246" lat="59.3363111073" lon="5.48624722111">
		<tag k="fixme" v="consider place=hamlet" />
		<tag k="name" v="Lundarvoll" />
>>>>>>> e1d4bc35ff8a6074a6f2e91616a996b547c36f15
		<tag k="place" v="farm" />
		<tag k="ssr:stedsnr" v="427921" />
	</node>
<<<<<<< HEAD
	<node lat="59.44636110858507" lon="5.393208341037131" id="-5087">
		<tag k="fixme" v="consider place=hamlet" />
		<tag k="name" v="Stakkastad" />
=======
	<node id="-37197" lat="59.2757916635" lon="5.5522111189">
		<tag k="name" v="Haugsnes" />
>>>>>>> e1d4bc35ff8a6074a6f2e91616a996b547c36f15
		<tag k="place" v="farm" />
		<tag k="ssr:stedsnr" v="426644" />
	</node>
<<<<<<< HEAD
	<node lat="59.4229277798557" lon="5.599663890231124" id="-5088">
		<tag k="name" v="Skåtahaugen" />
=======
	<node id="-39242" lat="59.4027059481" lon="5.53189692321">
		<tag k="name" v="Oskeland" />
>>>>>>> e1d4bc35ff8a6074a6f2e91616a996b547c36f15
		<tag k="place" v="farm" />
		<tag k="ssr:stedsnr" v="427004" />
	</node>
<<<<<<< HEAD
	<node lat="59.434027778482815" lon="5.644438897507987" id="-5090">
		<tag k="alt_name" v="Finshus" />
=======
	<node id="-39240" lat="59.4105222187" lon="5.52833055253">
>>>>>>> e1d4bc35ff8a6074a6f2e91616a996b547c36f15
		<tag k="fixme" v="consider place=hamlet" />
		<tag k="name" v="Finnshus" />
		<tag k="place" v="farm" />
		<tag k="ssr:stedsnr" v="427016" />
	</node>
<<<<<<< HEAD
	<node lat="59.43648055287572" lon="5.611130556222927" id="-5091">
		<tag k="fixme" v="consider place=hamlet" />
		<tag k="name" v="Gaupås" />
		<tag k="place" v="farm" />
		<tag k="ssr:stedsnr" v="427022" />
	</node>
	<node lat="59.34459999824357" lon="5.85144999797266" id="-5095">
		<tag k="alt_name" v="Stuvika" />
		<tag k="fixme" v="consider place=hamlet" />
		<tag k="name" v="Stuvvika" />
=======
	<node id="-37191" lat="59.3479888894" lon="5.79978056293">
		<tag k="fixme" v="consider place=suburb, village or hamlet" />
		<tag k="name" v="Hindaråvåg" />
		<tag k="place" v="quarter" />
		<tag k="ssr:stedsnr" v="487178" />
	</node>
	<node id="-37178" lat="59.2990888893" lon="5.40984443925">
		<tag k="name" v="Krossnes" />
>>>>>>> e1d4bc35ff8a6074a6f2e91616a996b547c36f15
		<tag k="place" v="farm" />
		<tag k="ssr:stedsnr" v="427498" />
	</node>
<<<<<<< HEAD
	<node lat="59.41654999577443" lon="5.599741671114376" id="-5098">
		<tag k="name" v="Røyrvik" />
		<tag k="place" v="isolated_dwelling" />
		<tag k="ssr:stedsnr" v="427049" />
	</node>
	<node lat="59.41640277625231" lon="5.468530556147742" id="-5099">
		<tag k="alt_name" v="Kvithaug" />
		<tag k="name" v="Kvithaugen" />
=======
	<node id="-36916" lat="59.428204075" lon="5.61357392652">
		<tag k="name" v="Straum" />
		<tag k="place" v="farm" />
		<tag k="ssr:stedsnr" v="245001" />
	</node>
	<node id="-37173" lat="59.334722226" lon="5.46076110583">
		<tag k="name" v="Vestbø" />
>>>>>>> e1d4bc35ff8a6074a6f2e91616a996b547c36f15
		<tag k="place" v="farm" />
		<tag k="ssr:stedsnr" v="427059" />
	</node>
<<<<<<< HEAD
	<node lat="59.381638887423364" lon="5.542683339189655" id="-5102">
		<tag k="fixme" v="consider place=hamlet" />
		<tag k="name" v="Skogen" />
=======
	<node id="-36914" lat="59.4393317019" lon="5.39009900774">
		<tag k="name" v="Bakken" />
		<tag k="place" v="farm" />
		<tag k="ssr:stedsnr" v="244667" />
	</node>
	<node id="-37161" lat="59.3027833341" lon="5.51493054872">
		<tag k="name" v="Rossmyr" />
>>>>>>> e1d4bc35ff8a6074a6f2e91616a996b547c36f15
		<tag k="place" v="farm" />
		<tag k="ssr:stedsnr" v="427071" />
	</node>
<<<<<<< HEAD
	<node lat="59.27547500121858" lon="5.5240916701718445" id="-5109">
		<tag k="name" v="Kårstø" />
=======
	<node id="-39201" lat="59.4885805564" lon="5.43873888789">
		<tag k="name" v="Lillandstræet" />
>>>>>>> e1d4bc35ff8a6074a6f2e91616a996b547c36f15
		<tag k="place" v="farm" />
		<tag k="ssr:stedsnr" v="427241" />
	</node>
<<<<<<< HEAD
	<node lat="59.28382500347483" lon="5.534536117096354" id="-5110">
		<tag k="name" v="Sørhaug" />
=======
	<node id="-39200" lat="59.4964777789" lon="5.45569166206">
		<tag k="name" v="Svebakken" />
>>>>>>> e1d4bc35ff8a6074a6f2e91616a996b547c36f15
		<tag k="place" v="farm" />
		<tag k="ssr:stedsnr" v="427243" />
	</node>
<<<<<<< HEAD
	<node lat="59.27996388639433" lon="5.543813883698365" id="-5112">
		<tag k="name" v="Stølen" />
=======
	<node id="-39198" lat="59.4224861096" lon="5.45549445192">
		<tag k="fixme" v="consider place=hamlet" />
		<tag k="name" v="Hadlaland" />
>>>>>>> e1d4bc35ff8a6074a6f2e91616a996b547c36f15
		<tag k="place" v="farm" />
		<tag k="ssr:stedsnr" v="427251" />
	</node>
<<<<<<< HEAD
	<node lat="59.467527774006015" lon="5.453869446588375" id="-5115">
		<tag k="alt_name" v="Tårhaugen" />
		<tag k="name" v="Torhaugen" />
=======
	<node id="-39191" lat="59.3619386276" lon="5.75003844987">
		<tag k="fixme" v="consider place=hamlet" />
		<tag k="name" v="Litle Bjelland" />
>>>>>>> e1d4bc35ff8a6074a6f2e91616a996b547c36f15
		<tag k="place" v="farm" />
		<tag k="ssr:stedsnr" v="670641" />
	</node>
<<<<<<< HEAD
	<node lat="59.47762777485786" lon="5.463502780266694" id="-5116">
		<tag k="name" v="Inngjerda" />
=======
	<node id="-39190" lat="59.4227777821" lon="5.38488889427">
		<tag k="name" v="Førresvåg" />
>>>>>>> e1d4bc35ff8a6074a6f2e91616a996b547c36f15
		<tag k="place" v="farm" />
		<tag k="ssr:stedsnr" v="670659" />
	</node>
<<<<<<< HEAD
	<node lat="59.45924505939253" lon="5.585641604748245" id="-5117">
=======
	<node id="-37140" lat="59.3580305576" lon="5.88930000249">
		<tag k="alt_name" v="Nessa, in" />
>>>>>>> e1d4bc35ff8a6074a6f2e91616a996b547c36f15
		<tag k="fixme" v="consider place=hamlet" />
		<tag k="name" v="Vårå" />
		<tag k="place" v="farm" />
		<tag k="ssr:stedsnr" v="670793" />
	</node>
<<<<<<< HEAD
	<node lat="59.480291666048934" lon="5.454927782964285" id="-5118">
		<tag k="alt_name" v="Sundfør;Sønnfør" />
		<tag k="fixme" v="consider place=hamlet" />
		<tag k="name" v="Sunnfør" />
=======
	<node id="-37129" lat="59.3394472212" lon="5.44751944026">
		<tag k="name" v="Træet" />
>>>>>>> e1d4bc35ff8a6074a6f2e91616a996b547c36f15
		<tag k="place" v="farm" />
		<tag k="ssr:stedsnr" v="670701" />
	</node>
<<<<<<< HEAD
	<node lat="59.375711106545396" lon="5.401227769727584" id="-5138">
		<tag k="fixme" v="consider place=hamlet" />
		<tag k="name" v="Vågabøen" />
=======
	<node id="-39176" lat="59.3018388912" lon="5.40937778593">
		<tag k="name" v="Austigard" />
>>>>>>> e1d4bc35ff8a6074a6f2e91616a996b547c36f15
		<tag k="place" v="farm" />
		<tag k="ssr:stedsnr" v="512038" />
	</node>
<<<<<<< HEAD
	<node lat="59.33405555327792" lon="5.446694450603256" id="-5142">
		<tag k="name" v="Leirvoll" />
=======
	<node id="-39175" lat="59.3220527734" lon="5.3995750014">
		<tag k="alt_name" v="Vikjå;Vik" />
		<tag k="name" v="Vika" />
>>>>>>> e1d4bc35ff8a6074a6f2e91616a996b547c36f15
		<tag k="place" v="farm" />
		<tag k="ssr:stedsnr" v="512694" />
	</node>
<<<<<<< HEAD
	<node lat="59.41571944505494" lon="5.779222223010698" id="-5145">
		<tag k="name" v="Ryggen" />
		<tag k="place" v="farm" />
		<tag k="ssr:stedsnr" v="533415" />
	</node>
	<node lat="59.304594440864264" lon="5.51578333199741" id="-5151">
		<tag k="name" v="Bakkjen" />
=======
	<node id="-37126" lat="59.3118138885" lon="5.39433333907">
		<tag k="name" v="Ramskår" />
		<tag k="place" v="farm" />
		<tag k="ssr:stedsnr" v="269076" />
	</node>
	<node id="-37124" lat="59.2719444403" lon="5.51249999464">
		<tag k="building" v="industrial" />
		<tag k="industrial" v="factory" />
		<tag k="name" v="Equinor Kårstø" />
		<tag k="old_name" v="Statoil Kårstø;Kårstø" />
		<tag k="ssr:stedsnr" v="267965" />
	</node>
	<node id="-37122" lat="59.2836194411" lon="5.47464444733">
		<tag k="name" v="Myrå" />
>>>>>>> e1d4bc35ff8a6074a6f2e91616a996b547c36f15
		<tag k="place" v="farm" />
		<tag k="ssr:stedsnr" v="538596" />
	</node>
<<<<<<< HEAD
	<node lat="59.40304166856247" lon="5.676563886820489" id="-5176">
		<tag k="name" v="Vikane" />
=======
	<node id="-37112" lat="59.2895472178" lon="5.47019999367">
		<tag k="name" v="Leirviktræet" />
>>>>>>> e1d4bc35ff8a6074a6f2e91616a996b547c36f15
		<tag k="place" v="farm" />
		<tag k="ssr:stedsnr" v="538866" />
	</node>
<<<<<<< HEAD
	<node lat="59.43561111548867" lon="5.543313896574961" id="-5183">
		<tag k="name" v="Smågjet" />
=======
	<node id="-37111" lat="59.4245055559" lon="5.46334166584">
		<tag k="name" v="Grovå" />
>>>>>>> e1d4bc35ff8a6074a6f2e91616a996b547c36f15
		<tag k="place" v="farm" />
		<tag k="ssr:stedsnr" v="539440" />
	</node>
<<<<<<< HEAD
	<node lat="59.45049722508276" lon="5.603291666209819" id="-5191">
		<tag k="name" v="Klaken" />
=======
	<node id="-37110" lat="59.3324638896" lon="5.39541389061">
		<tag k="name" v="Midtbø" />
>>>>>>> e1d4bc35ff8a6074a6f2e91616a996b547c36f15
		<tag k="place" v="farm" />
		<tag k="ssr:stedsnr" v="539998" />
	</node>
<<<<<<< HEAD
	<node lat="59.367419447399044" lon="5.76238333416886" id="-5193">
=======
	<node id="-39153" lat="59.3978583298" lon="5.70070277764">
>>>>>>> e1d4bc35ff8a6074a6f2e91616a996b547c36f15
		<tag k="fixme" v="consider place=hamlet" />
		<tag k="name" v="Seldal" />
		<tag k="place" v="farm" />
		<tag k="ssr:stedsnr" v="548150" />
	</node>
<<<<<<< HEAD
	<node lat="59.37680555875187" lon="5.4061722270283905" id="-5197">
=======
	<node id="-39149" lat="59.409369448" lon="5.5359583332">
>>>>>>> e1d4bc35ff8a6074a6f2e91616a996b547c36f15
		<tag k="fixme" v="consider place=hamlet" />
		<tag k="name" v="Stegaberg" />
		<tag k="place" v="farm" />
<<<<<<< HEAD
		<tag k="ssr:stedsnr" v="547639" />
	</node>
	<node lat="59.37619444321626" lon="5.60564165966544" id="-5199">
=======
		<tag k="ssr:stedsnr" v="791055" />
	</node>
	<node id="-39147" lat="59.4195500038" lon="5.57406111873">
		<tag k="name" v="Svinali" />
		<tag k="place" v="hamlet" />
		<tag k="ssr:stedsnr" v="791049" />
	</node>
	<node id="-37098" lat="59.3446999974" lon="5.84650000358">
>>>>>>> e1d4bc35ff8a6074a6f2e91616a996b547c36f15
		<tag k="fixme" v="consider place=hamlet" />
		<tag k="name" v="Hundsnes" />
		<tag k="place" v="farm" />
		<tag k="ssr:stedsnr" v="548101" />
	</node>
<<<<<<< HEAD
	<node lat="59.403330557025576" lon="5.5249416608508914" id="-5200">
		<tag k="alt_name" v="Grasvoll" />
		<tag k="name" v="Grasvollen" />
=======
	<node id="-37095" lat="59.3226694455" lon="5.67735000365">
		<tag k="alt_name" v="Borenvik" />
		<tag k="fixme" v="consider place=hamlet" />
		<tag k="name" v="Bornevik" />
>>>>>>> e1d4bc35ff8a6074a6f2e91616a996b547c36f15
		<tag k="place" v="farm" />
		<tag k="ssr:stedsnr" v="548040" />
	</node>
	<node lat="59.39556666809494" lon="5.53836665978074" id="-5201">
		<tag k="name" v="Haugen" />
		<tag k="place" v="farm" />
		<tag k="ssr:stedsnr" v="548044" />
	</node>
<<<<<<< HEAD
	<node lat="59.34084166896355" lon="5.727258330217671" id="-5205">
=======
	<node id="-39141" lat="59.3075055535" lon="5.56642500031">
>>>>>>> e1d4bc35ff8a6074a6f2e91616a996b547c36f15
		<tag k="fixme" v="consider place=hamlet" />
		<tag k="name" v="Silgjerd" />
		<tag k="place" v="farm" />
		<tag k="ssr:stedsnr" v="548167" />
	</node>
<<<<<<< HEAD
	<node lat="59.33583888934604" lon="5.54450278097299" id="-5206">
=======
	<node id="-37092" lat="59.3495999971" lon="5.73575000632">
>>>>>>> e1d4bc35ff8a6074a6f2e91616a996b547c36f15
		<tag k="fixme" v="consider place=hamlet" />
		<tag k="name" v="Evje" />
		<tag k="place" v="farm" />
		<tag k="ssr:stedsnr" v="548178" />
	</node>
<<<<<<< HEAD
	<node lat="59.3331611072077" lon="5.504702786801093" id="-5207">
=======
	<node id="-39139" lat="59.3528138932" lon="5.81660832439">
>>>>>>> e1d4bc35ff8a6074a6f2e91616a996b547c36f15
		<tag k="fixme" v="consider place=hamlet" />
		<tag k="name" v="Håland" />
		<tag k="place" v="farm" />
		<tag k="ssr:stedsnr" v="548183" />
	</node>
<<<<<<< HEAD
	<node lat="59.35245000054165" lon="5.772977779753133" id="-5209">
		<tag k="fixme" v="consider place=hamlet" />
		<tag k="name" v="Skorpe" />
=======
	<node id="-39137" lat="59.4187999994" lon="5.35925832986">
		<tag k="name" v="Krosshaug" />
>>>>>>> e1d4bc35ff8a6074a6f2e91616a996b547c36f15
		<tag k="place" v="farm" />
		<tag k="ssr:stedsnr" v="548189" />
	</node>
<<<<<<< HEAD
	<node lat="59.280980559054385" lon="5.504972224212609" id="-5212">
=======
	<node id="-39134" lat="59.3194" lon="5.5322888834">
>>>>>>> e1d4bc35ff8a6074a6f2e91616a996b547c36f15
		<tag k="fixme" v="consider place=hamlet" />
		<tag k="name" v="Sandvik" />
		<tag k="place" v="farm" />
		<tag k="ssr:stedsnr" v="548236" />
	</node>
<<<<<<< HEAD
	<node lat="59.284900003895366" lon="5.542349991731372" id="-5213">
		<tag k="name" v="Storehaugen" />
		<tag k="place" v="farm" />
		<tag k="ssr:stedsnr" v="548239" />
	</node>
	<node lat="59.45594999769085" lon="5.489938889769512" id="-5219">
		<tag k="alt_name" v="Eikjevik" />
		<tag k="name" v="Eikevik" />
=======
	<node id="-37081" lat="59.4476083369" lon="5.3683750056">
		<tag k="name" v="Håvåshytta" />
		<tag k="place" v="isolated_dwelling" />
		<tag k="ssr:stedsnr" v="244703" />
	</node>
	<node id="-39127" lat="59.2992472223" lon="5.66888333677">
		<tag k="name" v="Øyelaupen" />
>>>>>>> e1d4bc35ff8a6074a6f2e91616a996b547c36f15
		<tag k="place" v="farm" />
		<tag k="ssr:stedsnr" v="548796" />
	</node>
<<<<<<< HEAD
	<node lat="59.27612778220363" lon="5.533919450291297" id="-5223">
		<tag k="name" v="Snekkjavik" />
=======
	<node id="-37078" lat="59.3884416706" lon="5.40628888768">
		<tag k="name" v="Grønvik" />
>>>>>>> e1d4bc35ff8a6074a6f2e91616a996b547c36f15
		<tag k="place" v="farm" />
		<tag k="ssr:stedsnr" v="569870" />
	</node>
<<<<<<< HEAD
	<node lat="59.36107777835922" lon="5.745508332082803" id="-5230">
		<tag k="name" v="Store Bjelland" />
=======
	<node id="-37075" lat="59.3996166648" lon="5.76477222742">
		<tag k="name" v="Nordåker" />
>>>>>>> e1d4bc35ff8a6074a6f2e91616a996b547c36f15
		<tag k="place" v="farm" />
		<tag k="ssr:stedsnr" v="571499" />
	</node>
<<<<<<< HEAD
	<node lat="59.29111944079686" lon="5.471816660576123" id="-5231">
		<tag k="name" v="Massaneset" />
=======
	<node id="-39115" lat="59.3244833365" lon="5.72975278529">
		<tag k="name" v="Varaleitet" />
>>>>>>> e1d4bc35ff8a6074a6f2e91616a996b547c36f15
		<tag k="place" v="farm" />
		<tag k="ssr:stedsnr" v="572643" />
	</node>
<<<<<<< HEAD
	<node lat="59.455766662387376" lon="5.464269449370352" id="-5241">
		<tag k="alt_name" v="Sirdal" />
		<tag k="name" v="Serdal" />
		<tag k="place" v="farm" />
		<tag k="ssr:stedsnr" v="572793" />
	</node>
	<node lat="59.42782777593659" lon="5.508897230669932" id="-5273">
		<tag k="name" v="Krekene" />
		<tag k="place" v="farm" />
		<tag k="ssr:stedsnr" v="599492" />
	</node>
	<node lat="59.300786109276586" lon="5.518544452487215" id="-5275">
		<tag k="name" v="Nygard" />
=======
	<node id="-37056" lat="59.4113972229" lon="5.5209944455">
		<tag k="name" v="Liå" />
		<tag k="place" v="locality" />
		<tag k="ssr:stedsnr" v="296747" />
	</node>
	<node id="-39092" lat="59.395180559" lon="5.51960833221">
		<tag k="name" v="Neiken" />
>>>>>>> e1d4bc35ff8a6074a6f2e91616a996b547c36f15
		<tag k="place" v="farm" />
		<tag k="ssr:stedsnr" v="599582" />
	</node>
<<<<<<< HEAD
	<node lat="59.411049997881776" lon="5.644958326206102" id="-5276">
		<tag k="name" v="Litle Håland" />
		<tag k="place" v="locality" />
		<tag k="ssr:stedsnr" v="599659" />
	</node>
	<node lat="59.435249997602675" lon="5.642086109339205" id="-5288">
		<tag k="alt_name" v="Litlaskog (Øygarden);Øygarden" />
		<tag k="fixme" v="consider place=hamlet" />
		<tag k="name" v="Litlaskog" />
=======
	<node id="-37030" lat="59.403541666" lon="5.68137778463">
		<tag k="name" v="Eide" />
>>>>>>> e1d4bc35ff8a6074a6f2e91616a996b547c36f15
		<tag k="place" v="farm" />
		<tag k="ssr:stedsnr" v="608023" />
	</node>
<<<<<<< HEAD
	<node lat="59.348400000346395" lon="5.562961106173866" id="-5289">
		<tag k="name" v="Skogland" />
=======
	<node id="-39076" lat="59.3814194424" lon="5.60582500614">
		<tag k="name" v="Hundsnes" />
>>>>>>> e1d4bc35ff8a6074a6f2e91616a996b547c36f15
		<tag k="place" v="farm" />
		<tag k="ssr:stedsnr" v="608122" />
	</node>
<<<<<<< HEAD
	<node lat="59.360097220392944" lon="5.837436118009537" id="-5291">
		<tag k="alt_name" v="Gurigjerd" />
=======
	<node id="-39071" lat="59.3812916701" lon="5.64527777048">
>>>>>>> e1d4bc35ff8a6074a6f2e91616a996b547c36f15
		<tag k="fixme" v="consider place=hamlet" />
		<tag k="name" v="Gurigjerde" />
		<tag k="place" v="farm" />
		<tag k="ssr:stedsnr" v="608129" />
	</node>
<<<<<<< HEAD
	<node lat="59.359319441070646" lon="5.842841659231917" id="-5292">
=======
	<node id="-37022" lat="59.3268388901" lon="5.68895555954">
>>>>>>> e1d4bc35ff8a6074a6f2e91616a996b547c36f15
		<tag k="fixme" v="consider place=hamlet" />
		<tag k="name" v="Frøland" />
		<tag k="place" v="farm" />
<<<<<<< HEAD
		<tag k="ssr:stedsnr" v="608132" />
	</node>
	<node lat="59.33305277412802" lon="5.707233328994768" id="-5293">
		<tag k="alt_name" v="Smørsdal" />
		<tag k="fixme" v="consider place=hamlet" />
		<tag k="name" v="Smørdal" />
		<tag k="place" v="farm" />
		<tag k="ssr:stedsnr" v="608161" />
	</node>
	<node lat="59.333833329169615" lon="5.434747220358264" id="-5295">
		<tag k="fixme" v="consider place=hamlet" />
		<tag k="name" v="Hetland" />
		<tag k="place" v="farm" />
		<tag k="ssr:stedsnr" v="608993" />
	</node>
	<node lat="59.357758333627466" lon="5.5416833299332415" id="-5296">
		<tag k="alt_name" v="Sætrå" />
=======
		<tag k="ssr:stedsnr" v="295553" />
	</node>
	<node id="-39062" lat="59.3374166669" lon="5.67972777494">
		<tag k="name" v="Espevik" />
		<tag k="place" v="hamlet" />
		<tag k="ssr:stedsnr" v="780474" />
	</node>
	<node id="-39047" lat="59.393124996" lon="5.48085555224">
>>>>>>> e1d4bc35ff8a6074a6f2e91616a996b547c36f15
		<tag k="fixme" v="consider place=hamlet" />
		<tag k="name" v="Sætra" />
		<tag k="place" v="farm" />
		<tag k="ssr:stedsnr" v="609112" />
	</node>
<<<<<<< HEAD
	<node lat="59.35290000440848" lon="5.863000007635546" id="-5301">
		<tag k="alt_name" v="Kallseim;Kalseim" />
		<tag k="fixme" v="consider place=hamlet" />
		<tag k="name" v="Kalsheim" />
=======
	<node id="-36994" lat="59.3009694449" lon="5.46749444308">
		<tag k="name" v="Hidleren" />
>>>>>>> e1d4bc35ff8a6074a6f2e91616a996b547c36f15
		<tag k="place" v="farm" />
		<tag k="ssr:stedsnr" v="608528" />
	</node>
<<<<<<< HEAD
	<node lat="59.43717500288646" lon="5.460149998717395" id="-5304">
		<tag k="fixme" v="consider place=hamlet" />
		<tag k="name" v="Kvitanes" />
=======
	<node id="-36992" lat="59.3124083303" lon="5.46505278329">
		<tag k="name" v="Kjorkjeleitet" />
>>>>>>> e1d4bc35ff8a6074a6f2e91616a996b547c36f15
		<tag k="place" v="farm" />
		<tag k="ssr:stedsnr" v="608664" />
	</node>
<<<<<<< HEAD
	<node lat="59.42985278154486" lon="5.420088881449393" id="-5306">
		<tag k="alt_name" v="Fjedlet" />
		<tag k="fixme" v="consider place=hamlet" />
		<tag k="name" v="Fjellet" />
=======
	<node id="-39038" lat="59.3147583357" lon="5.45707222578">
		<tag k="name" v="Nordal" />
>>>>>>> e1d4bc35ff8a6074a6f2e91616a996b547c36f15
		<tag k="place" v="farm" />
		<tag k="ssr:stedsnr" v="608679" />
	</node>
<<<<<<< HEAD
	<node lat="59.42967222463228" lon="5.384877771518412" id="-5307">
		<tag k="fixme" v="consider place=hamlet" />
		<tag k="name" v="Veim" />
=======
	<node id="-36989" lat="59.2935444456" lon="5.4464694381">
		<tag k="name" v="Gjesdal" />
>>>>>>> e1d4bc35ff8a6074a6f2e91616a996b547c36f15
		<tag k="place" v="farm" />
		<tag k="ssr:stedsnr" v="608680" />
	</node>
<<<<<<< HEAD
	<node lat="59.31886944241931" lon="5.395986103654803" id="-5308">
		<tag k="name" v="Holmen" />
=======
	<node id="-39031" lat="59.3654111111" lon="5.65473611495">
		<tag k="name" v="Tøkje" />
>>>>>>> e1d4bc35ff8a6074a6f2e91616a996b547c36f15
		<tag k="place" v="farm" />
		<tag k="ssr:stedsnr" v="609979" />
	</node>
<<<<<<< HEAD
	<node lat="59.41896388808375" lon="5.627369436424348" id="-5309">
		<tag k="fixme" v="consider place=hamlet" />
		<tag k="name" v="Hesthammar" />
		<tag k="place" v="farm" />
		<tag k="ssr:stedsnr" v="609047" />
	</node>
	<node lat="59.420558331690735" lon="5.599452784155494" id="-5310">
		<tag k="name" v="Ertveit" />
=======
	<node id="-36981" lat="59.2952472199" lon="5.43058055041">
		<tag k="alt_name" v="Østersund" />
		<tag k="name" v="Austresund" />
		<tag k="place" v="farm" />
		<tag k="ssr:stedsnr" v="269690" />
	</node>
	<node id="-39028" lat="59.3443333324" lon="5.82963055051">
		<tag k="name" v="Baustalandet" />
		<tag k="place" v="isolated_dwelling" />
		<tag k="ssr:stedsnr" v="645444" />
	</node>
	<node id="-36974" lat="59.433300004" lon="5.62747777091">
		<tag k="name" v="Steinstø" />
		<tag k="place" v="isolated_dwelling" />
		<tag k="ssr:stedsnr" v="268841" />
	</node>
	<node id="-36969" lat="59.2967714722" lon="5.42958738753">
		<tag k="name" v="Grønestøl" />
>>>>>>> e1d4bc35ff8a6074a6f2e91616a996b547c36f15
		<tag k="place" v="farm" />
		<tag k="ssr:stedsnr" v="609051" />
	</node>
<<<<<<< HEAD
	<node lat="59.31370278202941" lon="5.464161109339631" id="-5315">
		<tag k="name" v="Slåttevik" />
		<tag k="old_name" v="Slottevik" />
		<tag k="place" v="hamlet" />
		<tag k="ssr:stedsnr" v="609965" />
	</node>
	<node lat="59.424016668176215" lon="5.445649993977545" id="-5328">
=======
	<node id="-39014" lat="59.394519447" lon="5.50229999335">
		<tag k="name" v="Nedre Førland" />
		<tag k="place" v="farm" />
		<tag k="ssr:stedsnr" v="632689" />
	</node>
	<node id="-39011" lat="59.4240166682" lon="5.44564999398">
>>>>>>> e1d4bc35ff8a6074a6f2e91616a996b547c36f15
		<tag k="name" v="Aksdal" />
		<tag k="place" v="village" />
		<tag k="ssr:stedsnr" v="631938" />
	</node>
<<<<<<< HEAD
	<node lat="59.304844442801794" lon="5.481708332327061" id="-5333">
		<tag k="name" v="Kvednane" />
=======
	<node id="-36956" lat="59.3710500011" lon="5.61457500011">
		<tag k="name" v="Skogøy" />
>>>>>>> e1d4bc35ff8a6074a6f2e91616a996b547c36f15
		<tag k="place" v="farm" />
		<tag k="ssr:stedsnr" v="632662" />
	</node>
<<<<<<< HEAD
	<node lat="59.430413885079716" lon="5.412580551014637" id="-5339">
		<tag k="name" v="Uratreet" />
=======
	<node id="-39001" lat="59.3531555578" lon="5.56607222325">
		<tag k="alt_name" v="Løype" />
		<tag k="name" v="Løypet" />
>>>>>>> e1d4bc35ff8a6074a6f2e91616a996b547c36f15
		<tag k="place" v="farm" />
		<tag k="ssr:stedsnr" v="633807" />
	</node>
<<<<<<< HEAD
	<node lat="59.34433333242166" lon="5.829630550512996" id="-5343">
		<tag k="name" v="Baustalandet" />
		<tag k="place" v="isolated_dwelling" />
		<tag k="ssr:stedsnr" v="645444" />
	</node>
	<node lat="59.35603611331946" lon="5.84089443665698" id="-5352">
		<tag k="fixme" v="consider place=hamlet" />
		<tag k="name" v="Øygarden" />
=======
	<node id="-38999" lat="59.3560944438" lon="5.76159999818">
		<tag k="name" v="Vatland" />
		<tag k="place" v="farm" />
		<tag k="ssr:stedsnr" v="609138" />
	</node>
	<node id="-38998" lat="59.3577583336" lon="5.54168332993">
		<tag k="alt_name" v="Sætrå" />
		<tag k="fixme" v="consider place=hamlet" />
		<tag k="name" v="Sætra" />
		<tag k="place" v="farm" />
		<tag k="ssr:stedsnr" v="609112" />
	</node>
	<node id="-38992" lat="59.4205583317" lon="5.59945278416">
		<tag k="name" v="Ertveit" />
>>>>>>> e1d4bc35ff8a6074a6f2e91616a996b547c36f15
		<tag k="place" v="farm" />
		<tag k="ssr:stedsnr" v="659224" />
	</node>
<<<<<<< HEAD
	<node lat="59.3459944415154" lon="5.749063884305353" id="-5353">
		<tag k="name" v="Kleivå" />
=======
	<node id="-38991" lat="59.4189638881" lon="5.62736943642">
		<tag k="fixme" v="consider place=hamlet" />
		<tag k="name" v="Hesthammar" />
>>>>>>> e1d4bc35ff8a6074a6f2e91616a996b547c36f15
		<tag k="place" v="farm" />
		<tag k="ssr:stedsnr" v="659283" />
	</node>
<<<<<<< HEAD
	<node lat="59.350061109909404" lon="5.82200555130179" id="-5355">
		<tag k="name" v="Plasset" />
=======
	<node id="-38987" lat="59.3529000044" lon="5.86300000764">
		<tag k="alt_name" v="Kallseim;Kalseim" />
		<tag k="fixme" v="consider place=hamlet" />
		<tag k="name" v="Kalsheim" />
>>>>>>> e1d4bc35ff8a6074a6f2e91616a996b547c36f15
		<tag k="place" v="farm" />
		<tag k="ssr:stedsnr" v="659151" />
	</node>
<<<<<<< HEAD
	<node lat="59.34249246373953" lon="5.707987954193057" id="-5361">
=======
	<node id="-38985" lat="59.3502750042" lon="5.85320000193">
>>>>>>> e1d4bc35ff8a6074a6f2e91616a996b547c36f15
		<tag k="fixme" v="consider place=hamlet" />
		<tag k="name" v="Hustopt" />
		<tag k="place" v="farm" />
		<tag k="ssr:stedsnr" v="659574" />
	</node>
<<<<<<< HEAD
	<node lat="59.35171393272948" lon="5.783279892602666" id="-5384">
		<tag k="name" v="Hella" />
=======
	<node id="-36935" lat="59.4632694432" lon="5.46790833697">
		<tag k="name" v="Våg" />
>>>>>>> e1d4bc35ff8a6074a6f2e91616a996b547c36f15
		<tag k="place" v="hamlet" />
		<tag k="ssr:stedsnr" v="669120" />
	</node>
<<<<<<< HEAD
	<node lat="59.43332777693536" lon="5.457233337014207" id="-5385">
=======
	<node id="-38982" lat="59.4296722246" lon="5.38487777152">
>>>>>>> e1d4bc35ff8a6074a6f2e91616a996b547c36f15
		<tag k="fixme" v="consider place=hamlet" />
		<tag k="name" v="Kringeland" />
		<tag k="place" v="farm" />
		<tag k="ssr:stedsnr" v="669642" />
	</node>
<<<<<<< HEAD
	<node lat="59.396341667911656" lon="5.76820556336818" id="-5386">
=======
	<node id="-38981" lat="59.4298527815" lon="5.42008888145">
		<tag k="alt_name" v="Fjedlet" />
>>>>>>> e1d4bc35ff8a6074a6f2e91616a996b547c36f15
		<tag k="fixme" v="consider place=hamlet" />
		<tag k="name" v="Vassenden" />
		<tag k="place" v="farm" />
		<tag k="ssr:stedsnr" v="669055" />
	</node>
<<<<<<< HEAD
	<node lat="59.34174444026591" lon="5.448113891380006" id="-5391">
=======
	<node id="-38979" lat="59.4371750029" lon="5.46014999872">
>>>>>>> e1d4bc35ff8a6074a6f2e91616a996b547c36f15
		<tag k="fixme" v="consider place=hamlet" />
		<tag k="name" v="Haukås" />
		<tag k="place" v="farm" />
		<tag k="ssr:stedsnr" v="669997" />
	</node>
<<<<<<< HEAD
	<node lat="59.305397218075235" lon="5.685172226405315" id="-5393">
		<tag k="fixme" v="consider place=hamlet" />
		<tag k="name" v="Vik" />
		<tag k="place" v="farm" />
		<tag k="ssr:stedsnr" v="670196" />
	</node>
	<node lat="59.29678611167687" lon="5.522180551719102" id="-5394">
		<tag k="name" v="Falkeid" />
=======
	<node id="-36930" lat="59.2994944401" lon="5.52637499981">
		<tag k="fixme" v="consider place=hamlet" />
		<tag k="name" v="Hesthammar" />
		<tag k="place" v="farm" />
		<tag k="ssr:stedsnr" v="245182" />
	</node>
	<node id="-36928" lat="59.3745277786" lon="5.60756110696">
		<tag k="name" v="Fredheim" />
		<tag k="place" v="farm" />
		<tag k="ssr:stedsnr" v="245086" />
	</node>
	<node id="-38974" lat="59.3593194411" lon="5.84284165923">
		<tag k="fixme" v="consider place=hamlet" />
		<tag k="name" v="Frøland" />
>>>>>>> e1d4bc35ff8a6074a6f2e91616a996b547c36f15
		<tag k="place" v="farm" />
		<tag k="ssr:stedsnr" v="670197" />
	</node>
<<<<<<< HEAD
	<node lat="59.438316665313025" lon="5.541644445900883" id="-5396">
=======
	<node id="-38973" lat="59.3600972204" lon="5.83743611801">
		<tag k="alt_name" v="Gurigjerd" />
>>>>>>> e1d4bc35ff8a6074a6f2e91616a996b547c36f15
		<tag k="fixme" v="consider place=hamlet" />
		<tag k="name" v="Brattestø" />
		<tag k="place" v="farm" />
		<tag k="ssr:stedsnr" v="670753" />
	</node>
<<<<<<< HEAD
	<node lat="59.4038472215817" lon="5.6048833327542615" id="-5399">
		<tag k="alt_name" v="Vågjen" />
=======
	<node id="-36924" lat="59.326074999" lon="5.53921666222">
>>>>>>> e1d4bc35ff8a6074a6f2e91616a996b547c36f15
		<tag k="fixme" v="consider place=hamlet" />
		<tag k="name" v="Vågen" />
		<tag k="place" v="farm" />
		<tag k="ssr:stedsnr" v="670031" />
	</node>
<<<<<<< HEAD
	<node lat="59.40540277776566" lon="5.474249993476178" id="-5400">
		<tag k="alt_name" v="Vassmyrane" />
		<tag k="name" v="Vassmyr" />
=======
	<node id="-38971" lat="59.3484000003" lon="5.56296110617">
		<tag k="name" v="Skogland" />
>>>>>>> e1d4bc35ff8a6074a6f2e91616a996b547c36f15
		<tag k="place" v="farm" />
		<tag k="ssr:stedsnr" v="670040" />
	</node>
<<<<<<< HEAD
	<node lat="59.39601666428614" lon="5.4938083387973995" id="-5402">
		<tag k="name" v="Førland" />
		<tag k="place" v="hamlet" />
		<tag k="ssr:stedsnr" v="670044" />
	</node>
	<node lat="59.40749444759124" lon="5.779127772957618" id="-5403">
=======
	<node id="-38970" lat="59.3444611078" lon="5.52800833794">
		<tag k="fixme" v="consider place=hamlet" />
		<tag k="name" v="Bjørk" />
		<tag k="place" v="farm" />
		<tag k="ssr:stedsnr" v="608120" />
	</node>
	<node id="-38969" lat="59.3420611074" lon="5.51626944237">
>>>>>>> e1d4bc35ff8a6074a6f2e91616a996b547c36f15
		<tag k="fixme" v="consider place=hamlet" />
		<tag k="name" v="Helgaland" />
		<tag k="place" v="farm" />
		<tag k="ssr:stedsnr" v="670047" />
	</node>
<<<<<<< HEAD
	<node lat="59.29219999807036" lon="5.521774995342206" id="-5408">
=======
	<node id="-36920" lat="59.3550388894" lon="5.74729167412">
>>>>>>> e1d4bc35ff8a6074a6f2e91616a996b547c36f15
		<tag k="fixme" v="consider place=hamlet" />
		<tag k="name" v="Falkeid" />
		<tag k="place" v="farm" />
		<tag k="ssr:stedsnr" v="670228" />
	</node>
<<<<<<< HEAD
	<node lat="59.34736110776406" lon="5.7529805574064765" id="-5413">
		<tag k="name" v="Heiå" />
=======
	<node id="-36917" lat="59.3926611096" lon="5.63401389672">
		<tag k="alt_name" v="Vikjå" />
		<tag k="name" v="Vik" />
>>>>>>> e1d4bc35ff8a6074a6f2e91616a996b547c36f15
		<tag k="place" v="farm" />
		<tag k="ssr:stedsnr" v="720288" />
	</node>
<<<<<<< HEAD
	<node lat="59.344208333608734" lon="5.740472216079344" id="-5450">
=======
	<node id="-38964" lat="59.4352499976" lon="5.64208610934">
		<tag k="alt_name" v="Litlaskog (Øygarden);Øygarden" />
>>>>>>> e1d4bc35ff8a6074a6f2e91616a996b547c36f15
		<tag k="fixme" v="consider place=hamlet" />
		<tag k="name" v="Jursvoll" />
		<tag k="place" v="farm" />
<<<<<<< HEAD
		<tag k="ssr:stedsnr" v="730188" />
	</node>
	<node lat="59.2935750038352" lon="5.470200001743678" id="-5452">
		<tag k="alt_name" v="Kjorkjeneset" />
		<tag k="name" v="Kyrkjenes" />
=======
		<tag k="ssr:stedsnr" v="608023" />
	</node>
	<node id="-38963" lat="59.3596779452" lon="5.75080252585">
		<tag k="name" v="Bjelland" />
		<tag k="place" v="hamlet" />
		<tag k="ssr:stedsnr" v="606743" />
	</node>
	<node id="-38962" lat="59.3516638894" lon="5.78049722164">
		<tag k="name" v="Hella" />
		<tag k="place" v="hamlet" />
		<tag k="ssr:stedsnr" v="606735" />
	</node>
	<node id="-36913" lat="59.3746277783" lon="5.40136945236">
		<tag k="name" v="Våga" />
>>>>>>> e1d4bc35ff8a6074a6f2e91616a996b547c36f15
		<tag k="place" v="farm" />
		<tag k="ssr:stedsnr" v="730191" />
	</node>
<<<<<<< HEAD
	<node lat="59.471555552941766" lon="5.587152780265918" id="-5458">
=======
	<node id="-36908" lat="59.4652083335" lon="5.57368333059">
>>>>>>> e1d4bc35ff8a6074a6f2e91616a996b547c36f15
		<tag k="fixme" v="consider place=hamlet" />
		<tag k="name" v="Nes" />
		<tag k="place" v="farm" />
		<tag k="ssr:stedsnr" v="730838" />
	</node>
<<<<<<< HEAD
	<node lat="59.360169442874366" lon="5.604691662797764" id="-5459">
		<tag k="alt_name" v="Kallakot" />
=======
	<node id="-36907" lat="59.3231449648" lon="5.58985265622">
>>>>>>> e1d4bc35ff8a6074a6f2e91616a996b547c36f15
		<tag k="fixme" v="consider place=hamlet" />
		<tag k="name" v="Kaldakot" />
		<tag k="place" v="farm" />
		<tag k="ssr:stedsnr" v="731087" />
	</node>
<<<<<<< HEAD
	<node lat="59.318213892218914" lon="5.401233338234822" id="-5464">
		<tag k="alt_name" v="Holå" />
		<tag k="fixme" v="consider place=hamlet" />
		<tag k="name" v="Hola" />
		<tag k="place" v="farm" />
		<tag k="ssr:stedsnr" v="731978" />
	</node>
	<node lat="59.36541111108887" lon="5.654736114951193" id="-5466">
		<tag k="name" v="Tøkje" />
=======
	<node id="-38950" lat="59.4110499979" lon="5.64495832621">
		<tag k="name" v="Litle Håland" />
		<tag k="place" v="locality" />
		<tag k="ssr:stedsnr" v="599659" />
	</node>
	<node id="-38945" lat="59.4278277759" lon="5.50889723067">
		<tag k="name" v="Krekene" />
>>>>>>> e1d4bc35ff8a6074a6f2e91616a996b547c36f15
		<tag k="place" v="farm" />
		<tag k="ssr:stedsnr" v="752625" />
	</node>
<<<<<<< HEAD
	<node lat="59.31475833568851" lon="5.45707222577815" id="-5470">
		<tag k="name" v="Nordal" />
=======
	<node id="-38940" lat="59.3007861093" lon="5.51854445249">
		<tag k="name" v="Nygard" />
>>>>>>> e1d4bc35ff8a6074a6f2e91616a996b547c36f15
		<tag k="place" v="farm" />
		<tag k="ssr:stedsnr" v="754085" />
	</node>
<<<<<<< HEAD
	<node lat="59.33741666686089" lon="5.679727774935932" id="-5486">
		<tag k="name" v="Espevik" />
		<tag k="place" v="hamlet" />
		<tag k="ssr:stedsnr" v="780474" />
	</node>
	<node lat="59.39518055896288" lon="5.519608332210266" id="-5510">
		<tag k="name" v="Neiken" />
=======
	<node id="-38928" lat="59.3340500036" lon="5.6869166737">
		<tag k="name" v="Årvågen" />
>>>>>>> e1d4bc35ff8a6074a6f2e91616a996b547c36f15
		<tag k="place" v="farm" />
		<tag k="ssr:stedsnr" v="781572" />
	</node>
<<<<<<< HEAD
	<node lat="59.29924722234502" lon="5.668883336768267" id="-5537">
		<tag k="name" v="Øyelaupen" />
		<tag k="place" v="farm" />
		<tag k="ssr:stedsnr" v="781994" />
	</node>
	<node lat="59.31939999998797" lon="5.532288883396929" id="-5540">
=======
	<node id="-39256" lat="59.4660583302" lon="5.45562500592">
		<tag k="alt_name" v="Torrdal" />
		<tag k="name" v="Tordalen" />
		<tag k="place" v="farm" />
		<tag k="ssr:stedsnr" v="852636" />
	</node>
	<node id="-36876" lat="59.4265333329" lon="5.81555555655">
>>>>>>> e1d4bc35ff8a6074a6f2e91616a996b547c36f15
		<tag k="fixme" v="consider place=hamlet" />
		<tag k="name" v="Søre Åsen" />
		<tag k="place" v="farm" />
		<tag k="ssr:stedsnr" v="788797" />
	</node>
<<<<<<< HEAD
	<node lat="59.418799999366094" lon="5.359258329860139" id="-5547">
		<tag k="name" v="Krosshaug" />
		<tag k="place" v="farm" />
		<tag k="ssr:stedsnr" v="790638" />
	</node>
	<node lat="59.37403610690371" lon="5.889019442316765" id="-5549">
		<tag k="fixme" v="consider place=hamlet" />
		<tag k="name" v="Amdal" />
		<tag k="place" v="farm" />
		<tag k="ssr:stedsnr" v="791425" />
	</node>
	<node lat="59.40244709761755" lon="5.531650094770322" id="-5553">
		<tag k="fixme" v="consider place=hamlet" />
		<tag k="name" v="Oskeland" />
		<tag k="place" v="farm" />
		<tag k="ssr:stedsnr" v="791031" />
	</node>
	<node lat="59.418179243711904" lon="5.572724808595195" id="-5554">
		<tag k="name" v="Svinali" />
		<tag k="place" v="hamlet" />
		<tag k="ssr:stedsnr" v="791049" />
	</node>
	<node lat="59.40936944801" lon="5.535958333200707" id="-5556">
		<tag k="fixme" v="consider place=hamlet" />
		<tag k="name" v="Brekke" />
		<tag k="place" v="farm" />
		<tag k="ssr:stedsnr" v="791055" />
	</node>
	<node lat="59.397858329787425" lon="5.7007027776435555" id="-5560">
		<tag k="fixme" v="consider place=hamlet" />
		<tag k="name" v="Stølsvik" />
		<tag k="place" v="farm" />
		<tag k="ssr:stedsnr" v="791087" />
	</node>
	<node lat="59.35281389315818" lon="5.816608324394381" id="-5564">
		<tag k="fixme" v="consider place=hamlet" />
		<tag k="name" v="Hetland" />
		<tag k="place" v="farm" />
		<tag k="ssr:stedsnr" v="791181" />
	</node>
	<node lat="59.30750555349703" lon="5.566425000313025" id="-5566">
		<tag k="fixme" v="consider place=hamlet" />
		<tag k="name" v="Hersdal" />
		<tag k="place" v="farm" />
		<tag k="ssr:stedsnr" v="791197" />
	</node>
	<node lat="59.45562500224613" lon="5.568486113425278" id="-5572">
		<tag k="alt_name" v="Fisktveit" />
		<tag k="fixme" v="consider place=hamlet" />
		<tag k="name" v="Fikstveit" />
		<tag k="place" v="farm" />
		<tag k="ssr:stedsnr" v="791814" />
	</node>
	<node lat="59.45964722112548" lon="5.563458338683325" id="-5574">
		<tag k="alt_name" v="Kalvhagen" />
		<tag k="name" v="Kalvhaugen" />
		<tag k="place" v="farm" />
		<tag k="ssr:stedsnr" v="791819" />
	</node>
	<node lat="59.30183889116911" lon="5.409377785925818" id="-5577">
		<tag k="name" v="Austigard" />
		<tag k="place" v="farm" />
		<tag k="ssr:stedsnr" v="791928" />
	</node>
	<node lat="59.32205277336007" lon="5.399575001400642" id="-5578">
		<tag k="alt_name" v="Vikjå;Vik" />
		<tag k="name" v="Vika" />
		<tag k="place" v="farm" />
		<tag k="ssr:stedsnr" v="791966" />
	</node>
	<node lat="59.36329259982934" lon="5.749637571471423" id="-5584">
		<tag k="fixme" v="consider place=hamlet" />
		<tag k="name" v="Litle Bjelland" />
		<tag k="place" v="farm" />
		<tag k="ssr:stedsnr" v="814522" />
	</node>
	<node lat="59.4224861095736" lon="5.455494451916037" id="-5594">
		<tag k="fixme" v="consider place=hamlet" />
		<tag k="name" v="Hadlaland" />
		<tag k="place" v="farm" />
		<tag k="ssr:stedsnr" v="815732" />
	</node>
	<node lat="59.496477778874436" lon="5.455691662057855" id="-5596">
		<tag k="name" v="Svebakken" />
		<tag k="place" v="farm" />
		<tag k="ssr:stedsnr" v="815736" />
	</node>
	<node lat="59.48858055641248" lon="5.438738887887812" id="-5597">
		<tag k="name" v="Lillandstræet" />
		<tag k="place" v="farm" />
		<tag k="ssr:stedsnr" v="815738" />
	</node>
	<node lat="59.30571666758337" lon="5.58896388622462" id="-5622">
		<tag k="name" v="Lindehola" />
		<tag k="place" v="farm" />
		<tag k="ssr:stedsnr" v="842413" />
	</node>
	<node lat="59.4105222186828" lon="5.528330552530397" id="-5639">
		<tag k="fixme" v="consider place=hamlet" />
		<tag k="name" v="Dal" />
		<tag k="place" v="farm" />
		<tag k="ssr:stedsnr" v="842751" />
	</node>
	<node lat="59.39808888793711" lon="5.466627769296189" id="-5649">
		<tag k="fixme" v="consider place=hamlet" />
		<tag k="name" v="Krabbatveit" />
		<tag k="place" v="farm" />
		<tag k="ssr:stedsnr" v="851559" />
	</node>
	<node lat="59.38346666915285" lon="5.473599999818024" id="-5651">
		<tag k="name" v="Saltvik" />
		<tag k="place" v="farm" />
		<tag k="ssr:stedsnr" v="852091" />
	</node>
	<node lat="59.36038333711468" lon="5.790355562616896" id="-5655">
		<tag k="name" v="Bjørk" />
		<tag k="place" v="farm" />
		<tag k="ssr:stedsnr" v="852133" />
	</node>
	<node lat="59.27873610716247" lon="5.551455560637895" id="-5656">
		<tag k="name" v="Sørtun" />
		<tag k="place" v="farm" />
		<tag k="ssr:stedsnr" v="852245" />
	</node>
	<node lat="59.28786111008487" lon="5.535247230589217" id="-5657">
		<tag k="alt_name" v="Teigen" />
		<tag k="name" v="Austbø" />
		<tag k="place" v="farm" />
		<tag k="ssr:stedsnr" v="852249" />
	</node>
	<node lat="59.28601666898341" lon="5.564316668680982" id="-5658">
		<tag k="alt_name" v="Bjørklund" />
		<tag k="name" v="Bjørkelund" />
		<tag k="place" v="farm" />
		<tag k="ssr:stedsnr" v="852253" />
	</node>
	<node lat="59.344444443518285" lon="5.872972222908828" id="-5662">
		<tag k="name" v="Fredheim" />
		<tag k="place" v="farm" />
		<tag k="ssr:stedsnr" v="852538" />
	</node>
	<node lat="59.46605833019907" lon="5.45562500591509" id="-5663">
		<tag k="alt_name" v="Torrdal" />
		<tag k="name" v="Tordalen" />
		<tag k="place" v="farm" />
		<tag k="ssr:stedsnr" v="852636" />
	</node>
	<node lat="59.28512222092816" lon="5.466508336497427" id="-5668">
		<tag k="name" v="Steinsvika" />
		<tag k="place" v="isolated_dwelling" />
		<tag k="ssr:stedsnr" v="852902" />
	</node>
	<node lat="59.42151944229928" lon="5.619550007985084" id="-5673">
		<tag k="alt_name" v="Skjeljavika" />
		<tag k="name" v="Skjeljevik" />
		<tag k="place" v="farm" />
		<tag k="ssr:stedsnr" v="874129" />
	</node>
	<node lat="59.27424166932808" lon="5.547405556251062" id="-5675">
		<tag k="name" v="Vik" />
		<tag k="place" v="farm" />
		<tag k="ssr:stedsnr" v="874142" />
	</node>
	<node lat="59.32176389033641" lon="5.660875002676531" id="-5749">
		<tag k="name" v="Bøvika" />
		<tag k="place" v="farm" />
		<tag k="ssr:stedsnr" v="963769" />
	</node>
	<node lat="59.34784722106796" lon="5.630277777846746" id="-5753">
		<tag k="fixme" v="consider place=hamlet" />
		<tag k="name" v="Hattarvågen" />
		<tag k="place" v="farm" />
		<tag k="ssr:stedsnr" v="963979" />
	</node>
=======
>>>>>>> e1d4bc35ff8a6074a6f2e91616a996b547c36f15
</osm>
