<?xml version="1.0" encoding="UTF-8"?>
<osm generator="osmapis" version="0.6">
	<node id="-37502" lat="59.3241653332" lon="5.70413556359">
		<tag k="fixme" v="consider boundary=protected_area and relevant protect_class if not nature reserve" />
		<tag k="leisure" v="nature_reserve" />
		<tag k="name" v="Hellebrekkene naturreservat" />
		<tag k="ssr:stedsnr" v="989183" />
	</node>
	<node id="-36409" lat="59.3270055557" lon="5.78995555341">
		<tag k="fixme" v="consider boundary=protected_area and relevant protect_class if not nature reserve" />
		<tag k="leisure" v="nature_reserve" />
		<tag k="name" v="Tveitaneset naturreservat" />
		<tag k="ssr:stedsnr" v="120475" />
	</node>
	<node id="-36889" lat="59.3912083347" lon="5.79221388191">
		<tag k="historic" v="boundary_stone" />
		<tag k="man_made" v="cairn" />
		<tag k="name" v="Femstokkane" />
		<tag k="place" v="locality" />
		<tag k="ssr:stedsnr" v="417462" />
	</node>
	<node id="-37400" lat="59.4064166633" lon="5.80690555027">
		<tag k="historic" v="boundary_stone" />
		<tag k="man_made" v="cairn" />
		<tag k="name" v="Hedlå" />
		<tag k="place" v="locality" />
		<tag k="ssr:stedsnr" v="842151" />
	</node>
	<node id="-36885" lat="59.4127749972" lon="5.82033888928">
		<tag k="historic" v="boundary_stone" />
		<tag k="man_made" v="cairn" />
		<tag k="name" v="Kråkevassteinen" />
		<tag k="place" v="locality" />
		<tag k="ssr:stedsnr" v="417158" />
	</node>
	<node id="-35950" lat="59.3997361114" lon="5.79473888715">
		<tag k="historic" v="boundary_stone" />
		<tag k="man_made" v="cairn" />
		<tag k="name" v="Kvitesteinen" />
		<tag k="place" v="locality" />
		<tag k="ssr:stedsnr" v="903379" />
	</node>
	<node id="-36985" lat="59.3799111114" lon="5.81672499716">
		<tag k="historic" v="boundary_stone" />
		<tag k="man_made" v="cairn" />
		<tag k="name" v="Liksteinen" />
		<tag k="place" v="locality" />
		<tag k="ssr:stedsnr" v="538467" />
	</node>
</osm>
