<?xml version="1.0" encoding="UTF-8"?>
<<<<<<< HEAD
<osm version="0.6" generator="osmapis">
	<node lat="59.39696110942648" lon="5.691152777408414" id="-3400">
=======
<osm generator="osmapis" version="0.6">
	<node id="-37055" lat="59.3350944465" lon="5.80208334066">
		<tag k="name" v="Laberget" />
		<tag k="place" v="locality" />
		<tag k="ssr:stedsnr" v="296735" />
	</node>
	<node id="-38397" lat="59.3315138922" lon="5.49165000105">
		<tag k="alt_name" v="Tysvær" />
		<tag k="amenity" v="place_of_worship" />
		<tag k="denomination" v="lutheran" />
		<tag k="name" v="Tysvær kyrkje" />
		<tag k="religion" v="christian" />
		<tag k="ssr:stedsnr" v="184180" />
	</node>
	<node id="-37276" lat="59.3635333374" lon="5.84431666849">
		<tag k="name" v="Bratteteig" />
		<tag k="place" v="locality" />
		<tag k="ssr:stedsnr" v="417110" />
	</node>
	<node id="-37207" lat="59.4242995424" lon="5.38088999418">
		<tag k="amenity" v="place_of_worship" />
		<tag k="denomination" v="lutheran" />
		<tag k="name" v="Førre kyrkje" />
		<tag k="religion" v="christian" />
		<tag k="ssr:stedsnr" v="487687" />
	</node>
	<node id="-38164" lat="59.3969611094" lon="5.69115277741">
>>>>>>> e1d4bc35ff8a6074a6f2e91616a996b547c36f15
		<tag k="name" v="Skogen" />
		<tag k="place" v="locality" />
		<tag k="ssr:stedsnr" v="85090" />
	</node>
<<<<<<< HEAD
	<node lat="59.375600002152794" lon="5.894200003394099" id="-3657">
=======
	<node id="-36933" lat="59.3756000022" lon="5.89420000339">
>>>>>>> e1d4bc35ff8a6074a6f2e91616a996b547c36f15
		<tag k="alt_name" v="Trødet" />
		<tag k="name" v="Træet" />
		<tag k="place" v="locality" />
		<tag k="ssr:stedsnr" v="245411" />
<<<<<<< HEAD
	</node>
	<node lat="59.27761110793067" lon="5.639002771583026" id="-3777">
=======
	</node>
	<node id="-37390" lat="59.3496195137" lon="5.80037170483">
		<tag k="alt_name" v="Nedstrand" />
		<tag k="amenity" v="place_of_worship" />
		<tag k="denomination" v="lutheran" />
		<tag k="name" v="Nedstrand kyrkje" />
		<tag k="religion" v="christian" />
		<tag k="ssr:stedsnr" v="669157" />
	</node>
	<node id="-39325" lat="59.4230754979" lon="5.44615456276">
		<tag k="amenity" v="place_of_worship" />
		<tag k="denomination" v="lutheran" />
		<tag k="name" v="Aksdal kyrkje" />
		<tag k="religion" v="christian" />
		<tag k="ssr:stedsnr" v="991178" />
	</node>
	<node id="-37159" lat="59.2776111079" lon="5.63900277158">
>>>>>>> e1d4bc35ff8a6074a6f2e91616a996b547c36f15
		<tag k="name" v="Kvednå" />
		<tag k="place" v="locality" />
		<tag k="ssr:stedsnr" v="478239" />
	</node>
<<<<<<< HEAD
	<node lat="59.36353333742899" lon="5.844316668485015" id="-3852">
		<tag k="name" v="Bratteteig" />
		<tag k="place" v="locality" />
		<tag k="ssr:stedsnr" v="417110" />
	</node>
	<node lat="59.42429954238081" lon="5.380889994175825" id="-3962">
		<tag k="amenity" v="place_of_worship" />
		<tag k="denomination" v="lutheran" />
		<tag k="name" v="Førre kyrkje" />
		<tag k="religion" v="christian" />
		<tag k="ssr:stedsnr" v="487687" />
	</node>
	<node lat="59.362249996677164" lon="5.655505561827535" id="-4042">
=======
	<node id="-37509" lat="59.3622499967" lon="5.65550556183">
>>>>>>> e1d4bc35ff8a6074a6f2e91616a996b547c36f15
		<tag k="alt_name" v="Grove" />
		<tag k="name" v="Grova" />
		<tag k="place" v="locality" />
		<tag k="ssr:stedsnr" v="692645" />
	</node>
<<<<<<< HEAD
	<node lat="59.43211655758069" lon="5.614391774306206" id="-4238">
=======
	<node id="-37634" lat="59.4321165576" lon="5.61439177431">
>>>>>>> e1d4bc35ff8a6074a6f2e91616a996b547c36f15
		<tag k="alt_name" v="Skjoldastraumen;Vordeneset kapell" />
		<tag k="amenity" v="place_of_worship" />
		<tag k="denomination" v="lutheran" />
		<tag k="name" v="Skjoldastraumen kyrkje" />
		<tag k="religion" v="christian" />
		<tag k="ssr:stedsnr" v="730021" />
	</node>
<<<<<<< HEAD
	<node lat="59.3315138921925" lon="5.491650001045883" id="-4801">
		<tag k="alt_name" v="Tysvær" />
		<tag k="amenity" v="place_of_worship" />
		<tag k="denomination" v="lutheran" />
		<tag k="name" v="Tysvær kyrkje" />
		<tag k="religion" v="christian" />
		<tag k="ssr:stedsnr" v="184180" />
	</node>
	<node lat="59.33509444646785" lon="5.802083340663964" id="-4865">
		<tag k="name" v="Laberget" />
		<tag k="place" v="locality" />
		<tag k="ssr:stedsnr" v="296735" />
	</node>
	<node lat="59.3496195137095" lon="5.800371704827411" id="-5389">
		<tag k="alt_name" v="Nedstrand" />
		<tag k="amenity" v="place_of_worship" />
		<tag k="denomination" v="lutheran" />
		<tag k="name" v="Nedstrand kyrkje" />
		<tag k="religion" v="christian" />
		<tag k="ssr:stedsnr" v="669157" />
	</node>
	<node lat="59.42307549789355" lon="5.446154562756401" id="-5767">
		<tag k="amenity" v="place_of_worship" />
		<tag k="denomination" v="lutheran" />
		<tag k="name" v="Aksdal kyrkje" />
		<tag k="religion" v="christian" />
		<tag k="ssr:stedsnr" v="991178" />
	</node>
=======
>>>>>>> e1d4bc35ff8a6074a6f2e91616a996b547c36f15
</osm>
