<?xml version="1.0" encoding="UTF-8"?>
<osm generator="osmapis" version="0.6">
	<node id="-38908" lat="59.4168777745" lon="5.75092221553">
		<tag k="name" v="Narravika" />
		<tag k="natural" v="bay" />
		<tag k="ssr:stedsnr" v="598760" />
	</node>
	<node id="-36859" lat="59.4132500041" lon="5.60318333688">
		<tag k="name" v="Bekkjanes" />
		<tag k="natural" v="cape" />
		<tag k="ssr:stedsnr" v="235697" />
	</node>
	<node id="-36858" lat="59.4148111151" lon="5.61662221964">
		<tag k="name" v="Øspevika" />
		<tag k="natural" v="bay" />
		<tag k="ssr:stedsnr" v="235696" />
	</node>
	<node id="-38905" lat="59.3256111075" lon="5.77288888237">
		<tag k="name" v="Kjeløygrunnen" />
		<tag k="natural" v="shoal" />
		<tag k="place" v="locality" />
		<tag k="ssr:stedsnr" v="584496" />
	</node>
	<node id="-38904" lat="59.349986115" lon="5.89606111601">
		<tag k="name" v="Smeaholmsgrunnen" />
		<tag k="natural" v="shoal" />
		<tag k="place" v="locality" />
		<tag k="ssr:stedsnr" v="584484" />
	</node>
	<node id="-36854" lat="59.3284583359" lon="5.61148055285">
		<tag k="name" v="Kvednavika" />
		<tag k="natural" v="bay" />
		<tag k="ssr:stedsnr" v="235632" />
	</node>
	<node id="-38901" lat="59.4901666657" lon="5.46406943941">
		<tag k="name" v="Notavika" />
		<tag k="natural" v="bay" />
		<tag k="ssr:stedsnr" v="572779" />
	</node>
	<node id="-38896" lat="59.3238194408" lon="5.47525833386">
		<tag k="name" v="Lauholmen" />
		<tag k="place" v="islet" />
		<tag k="ssr:stedsnr" v="572682" />
	</node>
	<node id="-38894" lat="59.3863722238" lon="5.39867222202">
		<tag k="name" v="Mekervika" />
		<tag k="natural" v="bay" />
		<tag k="ssr:stedsnr" v="572021" />
	</node>
	<node id="-38893" lat="59.3858916657" lon="5.39461945041">
		<tag k="fixme" v="consider seamark:type=rock or natural=shoal" />
		<tag k="name" v="Måmeskjer" />
		<tag k="place" v="islet" />
		<tag k="ssr:stedsnr" v="572018" />
	</node>
	<node id="-38891" lat="59.3452000013" lon="5.61788888595">
		<tag k="name" v="Narraviksundet" />
		<tag k="natural" v="strait" />
		<tag k="ssr:stedsnr" v="570691" />
	</node>
	<node id="-38890" lat="59.3502549651" lon="5.61414282909">
		<tag k="name" v="Narravika" />
		<tag k="natural" v="bay" />
		<tag k="ssr:stedsnr" v="570690" />
	</node>
	<node id="-38889" lat="59.4068861088" lon="5.69593055876">
		<tag k="alt_name" v="Kvidaneset" />
		<tag k="name" v="Kvitaneset" />
		<tag k="natural" v="cape" />
		<tag k="ssr:stedsnr" v="570643" />
	</node>
	<node id="-38888" lat="59.4067916673" lon="5.71776111473">
		<tag k="name" v="Olaneset" />
		<tag k="natural" v="cape" />
		<tag k="ssr:stedsnr" v="570623" />
	</node>
	<node id="-38887" lat="59.2709666701" lon="5.54803610219">
		<tag k="name" v="Haugsneset" />
		<tag k="natural" v="cape" />
		<tag k="ssr:stedsnr" v="570557" />
	</node>
	<node id="-38885" lat="59.3941749963" lon="5.62352778235">
		<tag k="name" v="Torvå" />
		<tag k="natural" v="cape" />
		<tag k="ssr:stedsnr" v="551377" />
	</node>
	<node id="-38884" lat="59.3744749972" lon="5.89684999272">
		<tag k="name" v="Vikaneset" />
		<tag k="natural" v="cape" />
		<tag k="ssr:stedsnr" v="549622" />
	</node>
	<node id="-36835" lat="59.2752666701" lon="5.62653610666">
		<tag k="name" v="Notholmen" />
		<tag k="place" v="islet" />
		<tag k="ssr:stedsnr" v="235142" />
	</node>
	<node id="-38882" lat="59.2884055513" lon="5.45254165869">
		<tag k="name" v="Krossholmen" />
		<tag k="place" v="islet" />
		<tag k="ssr:stedsnr" v="548902" />
	</node>
	<node id="-38880" lat="59.4611111153" lon="5.46843611148">
		<tag k="alt_name" v="Vågsvika" />
		<tag k="name" v="Vågsbotn" />
		<tag k="natural" v="bay" />
		<tag k="ssr:stedsnr" v="548798" />
	</node>
	<node id="-38878" lat="59.4474388875" lon="5.48867500746">
		<tag k="alt_name" v="Tvillingøya;Jakobsholmen" />
		<tag k="name" v="Tvillingøyna" />
		<tag k="place" v="islet" />
		<tag k="ssr:stedsnr" v="548784" />
	</node>
	<node id="-36829" lat="59.3273444453" lon="5.68656667466">
		<tag k="name" v="Ringstveitvika" />
		<tag k="natural" v="bay" />
		<tag k="ssr:stedsnr" v="234748" />
	</node>
	<node id="-38875" lat="59.3845250022" lon="5.89190000296">
		<tag k="name" v="Oskevikneset" />
		<tag k="natural" v="cape" />
		<tag k="ssr:stedsnr" v="548430" />
	</node>
	<node id="-38873" lat="59.2746000026" lon="5.65941388484">
		<tag k="name" v="Svartevågen" />
		<tag k="natural" v="bay" />
		<tag k="ssr:stedsnr" v="548262" />
	</node>
	<node id="-38869" lat="59.3266583342" lon="5.73155833756">
		<tag k="alt_name" v="Leirongsøyla" />
		<tag k="name" v="Leirangssøyla" />
		<tag k="natural" v="bay" />
		<tag k="ssr:stedsnr" v="548221" />
	</node>
	<node id="-38866" lat="59.3101500002" lon="5.71597500388">
		<tag k="alt_name" v="Lindevika" />
		<tag k="name" v="Lindvika" />
		<tag k="natural" v="bay" />
		<tag k="ssr:stedsnr" v="548195" />
	</node>
	<node id="-36817" lat="59.3326472221" lon="5.4485944476">
		<tag k="name" v="Tingvika" />
		<tag k="natural" v="bay" />
		<tag k="ssr:stedsnr" v="26627" />
	</node>
	<node id="-36812" lat="59.472238892" lon="5.57443611218">
		<tag k="name" v="Ørevika" />
		<tag k="natural" v="bay" />
		<tag k="ssr:stedsnr" v="23816" />
	</node>
	<node id="-36808" lat="59.2722222257" lon="5.48138889318">
		<tag k="name" v="Frekasundet" />
		<tag k="natural" v="strait" />
		<tag k="ssr:stedsnr" v="2230" />
	</node>
	<node id="-36807" lat="59.2832277812" lon="5.67362777752">
		<tag k="alt_name" v="Tongjane" />
		<tag k="name" v="Tangane" />
		<tag k="natural" v="cape" />
		<tag k="ssr:stedsnr" v="2221" />
	</node>
	<node id="-36806" lat="59.3271472226" lon="5.7525722285">
		<tag k="name" v="Lamholmen" />
		<tag k="place" v="islet" />
		<tag k="ssr:stedsnr" v="2209" />
	</node>
	<node id="-36805" lat="59.3350888891" lon="5.75392222129">
		<tag k="name" v="Selvik" />
		<tag k="natural" v="bay" />
		<tag k="ssr:stedsnr" v="2208" />
	</node>
	<node id="-36803" lat="59.3398500022" lon="5.62330555348">
		<tag k="alt_name" v="Sandaneset" />
		<tag k="name" v="Hamnaneset" />
		<tag k="natural" v="cape" />
		<tag k="ssr:stedsnr" v="2175" />
	</node>
	<node id="-36801" lat="59.3274916654" lon="5.61392777493">
		<tag k="name" v="Foreholmen" />
		<tag k="place" v="islet" />
		<tag k="ssr:stedsnr" v="2162" />
	</node>
	<node id="-36800" lat="59.4074361107" lon="5.37705832836">
		<tag k="name" v="Sandholmen" />
		<tag k="place" v="islet" />
		<tag k="ssr:stedsnr" v="1626" />
	</node>
	<node id="-38837" lat="59.387090974" lon="5.39130896861">
		<tag k="alt_name" v="Kadlaviksøyna" />
		<tag k="name" v="Kallavikøya" />
		<tag k="natural" v="cape" />
		<tag k="ssr:stedsnr" v="547622" />
	</node>
	<node id="-38835" lat="59.3561161492" lon="5.3822004926">
		<tag k="fixme" v="multiple name tags, choose one and add the other to alt_name" />
		<tag k="name" v="Haugeholmane;Høyeholmane" />
		<tag k="place" v="islet" />
		<tag k="ssr:stedsnr" v="547544" />
	</node>
	<node id="-38824" lat="59.3808694425" lon="5.61364721473">
		<tag k="name" v="Sledavika" />
		<tag k="natural" v="bay" />
		<tag k="ssr:stedsnr" v="539319" />
	</node>
	<node id="-38820" lat="59.4291972217" lon="5.79847777646">
		<tag k="name" v="Teigavika" />
		<tag k="natural" v="bay" />
		<tag k="ssr:stedsnr" v="538920" />
	</node>
	<node id="-38818" lat="59.3697194417" lon="5.64266944682">
		<tag k="name" v="Nordra Sjursvika" />
		<tag k="natural" v="bay" />
		<tag k="ssr:stedsnr" v="539081" />
	</node>
	<node id="-38817" lat="59.3674833346" lon="5.6518194454">
		<tag k="name" v="Søravika" />
		<tag k="natural" v="bay" />
		<tag k="ssr:stedsnr" v="539077" />
	</node>
	<node id="-38813" lat="59.4125472221" lon="5.73830833825">
		<tag k="name" v="Buskavika" />
		<tag k="natural" v="bay" />
		<tag k="ssr:stedsnr" v="538800" />
	</node>
	<node id="-38811" lat="59.3045972225" lon="5.64408888516">
		<tag k="name" v="Hånestongjen" />
		<tag k="natural" v="cape" />
		<tag k="ssr:stedsnr" v="538500" />
	</node>
	<node id="-38810" lat="59.3039611132" lon="5.64346388884">
		<tag k="name" v="Skiftesvika" />
		<tag k="natural" v="bay" />
		<tag k="ssr:stedsnr" v="538499" />
	</node>
	<node id="-38808" lat="59.3111527753" lon="5.64741388507">
		<tag k="name" v="Grudevika" />
		<tag k="natural" v="bay" />
		<tag k="ssr:stedsnr" v="538493" />
	</node>
	<node id="-38806" lat="59.3047138879" lon="5.58987222458">
		<tag k="name" v="Lindeholsvika" />
		<tag k="natural" v="bay" />
		<tag k="ssr:stedsnr" v="538436" />
	</node>
	<node id="-38801" lat="59.3256777787" lon="5.60581389572">
		<tag k="name" v="Jotrevika" />
		<tag k="natural" v="bay" />
		<tag k="ssr:stedsnr" v="538593" />
	</node>
	<node id="-38800" lat="59.3367499958" lon="5.67295000257">
		<tag k="name" v="Varnes" />
		<tag k="natural" v="cape" />
		<tag k="ssr:stedsnr" v="538574" />
	</node>
	<node id="-38799" lat="59.3625333361" lon="5.8036722168">
		<tag k="name" v="Furteskjeret" />
		<tag k="natural" v="cape" />
		<tag k="ssr:stedsnr" v="538345" />
	</node>
	<node id="-36845" lat="59.379091663" lon="5.78184166623">
		<tag k="name" v="Øyraklubben" />
		<tag k="natural" v="cape" />
		<tag k="ssr:stedsnr" v="235442" />
	</node>
	<node id="-37186" lat="59.389491662" lon="5.39455554752">
		<tag k="name" v="Geitabergvika" />
		<tag k="natural" v="bay" />
		<tag k="ssr:stedsnr" v="330016" />
	</node>
	<node id="-38793" lat="59.3400249977" lon="5.74856111504">
		<tag k="name" v="Nåså" />
		<tag k="natural" v="cape" />
		<tag k="ssr:stedsnr" v="538249" />
	</node>
	<node id="-38789" lat="59.372363887" lon="5.61909167117">
		<tag k="name" v="Søre Odden" />
		<tag k="natural" v="cape" />
		<tag k="ssr:stedsnr" v="538086" />
	</node>
	<node id="-37193" lat="59.3425712242" lon="5.65508067498">
		<tag k="alt_name" v="Kvitaskjeret" />
		<tag k="name" v="Kvitholmen" />
		<tag k="place" v="islet" />
		<tag k="ssr:stedsnr" v="487182" />
	</node>
	<node id="-38786" lat="59.2688750003" lon="5.66377499891">
		<tag k="name" v="Longholmen" />
		<tag k="place" v="island" />
		<tag k="ssr:stedsnr" v="538027" />
	</node>
	<node id="-38785" lat="59.264655557" lon="5.6423499959">
		<tag k="name" v="Tobakksholet" />
		<tag k="natural" v="bay" />
		<tag k="ssr:stedsnr" v="538025" />
	</node>
	<node id="-38784" lat="59.2632888911" lon="5.65347499795">
		<tag k="name" v="Hedlevika" />
		<tag k="natural" v="bay" />
		<tag k="ssr:stedsnr" v="538024" />
	</node>
	<node id="-38783" lat="59.3296194447" lon="5.68061110497">
		<tag k="name" v="Ringstveitholmane" />
		<tag k="place" v="islet" />
		<tag k="ssr:stedsnr" v="537719" />
	</node>
	<node id="-38776" lat="59.4027111121" lon="5.86009166705">
		<tag k="name" v="Revavika" />
		<tag k="natural" v="bay" />
		<tag k="ssr:stedsnr" v="524922" />
	</node>
	<node id="-38775" lat="59.4504111077" lon="5.54826389051">
		<tag k="name" v="Steinbruholmane" />
		<tag k="place" v="islet" />
		<tag k="ssr:stedsnr" v="521402" />
	</node>
	<node id="-38771" lat="59.2911611087" lon="5.41972499328">
		<tag k="name" v="Halsaneset" />
		<tag k="natural" v="cape" />
		<tag k="ssr:stedsnr" v="427922" />
	</node>
	<node id="-38767" lat="59.3716749973" lon="5.89464999933">
		<tag k="name" v="Amdalsvika" />
		<tag k="natural" v="bay" />
		<tag k="ssr:stedsnr" v="427477" />
	</node>
	<node id="-38764" lat="59.3635833327" lon="5.62531111269">
		<tag k="alt_name" v="Haltarvikneset" />
		<tag k="name" v="Hattarvikneset" />
		<tag k="natural" v="cape" />
		<tag k="ssr:stedsnr" v="427162" />
	</node>
	<node id="-38759" lat="59.2693047096" lon="5.54717764316">
		<tag k="name" v="Haugen" />
		<tag k="place" v="islet" />
		<tag k="ssr:stedsnr" v="427239" />
	</node>
	<node id="-36836" lat="59.2779388888" lon="5.62911667153">
		<tag k="name" v="Asalholmen" />
		<tag k="place" v="islet" />
		<tag k="ssr:stedsnr" v="235144" />
	</node>
	<node id="-38735" lat="59.4550500023" lon="5.60075278094">
		<tag k="name" v="Skjenet" />
		<tag k="natural" v="cape" />
		<tag k="ssr:stedsnr" v="418997" />
	</node>
	<node id="-38730" lat="59.3399527824" lon="5.63567222953">
		<tag k="name" v="Storsteinsvika" />
		<tag k="natural" v="bay" />
		<tag k="ssr:stedsnr" v="417981" />
	</node>
	<node id="-38728" lat="59.3511916696" lon="5.63408332889">
		<tag k="name" v="Damavika" />
		<tag k="natural" v="bay" />
		<tag k="ssr:stedsnr" v="417968" />
	</node>
	<node id="-38727" lat="59.3241777743" lon="5.74592499753">
		<tag k="name" v="Skarvaskjer" />
		<tag k="place" v="islet" />
		<tag k="ssr:stedsnr" v="417901" />
	</node>
	<node id="-38720" lat="59.3334472185" lon="5.80341944213">
		<tag k="name" v="Otringen" />
		<tag k="natural" v="cape" />
		<tag k="ssr:stedsnr" v="417770" />
	</node>
	<node id="-38712" lat="59.3656944458" lon="5.79404444469">
		<tag k="name" v="Naustvika" />
		<tag k="natural" v="bay" />
		<tag k="ssr:stedsnr" v="417470" />
	</node>
	<node id="-39274" lat="59.3633250004" lon="5.46662500069">
		<tag k="name" v="Hammaren" />
		<tag k="natural" v="cape" />
		<tag k="ssr:stedsnr" v="876058" />
	</node>
	<node id="-38705" lat="59.3662333297" lon="5.65211944508">
		<tag k="name" v="Tøkjeholet" />
		<tag k="natural" v="bay" />
		<tag k="ssr:stedsnr" v="417088" />
	</node>
	<node id="-38703" lat="59.3026777735" lon="5.68498056075">
		<tag k="name" v="Vikesanden" />
		<tag k="natural" v="bay" />
		<tag k="ssr:stedsnr" v="417085" />
	</node>
	<node id="-38702" lat="59.3087583376" lon="5.71354721678">
		<tag k="name" v="Laberget" />
		<tag k="natural" v="cape" />
		<tag k="ssr:stedsnr" v="417079" />
	</node>
	<node id="-38701" lat="59.3721777766" lon="5.62545000054">
		<tag k="name" v="Brendåøyna" />
		<tag k="place" v="island" />
		<tag k="ssr:stedsnr" v="417075" />
	</node>
	<node id="-38700" lat="59.371411108" lon="5.61013611576">
		<tag k="name" v="Pøylå" />
		<tag k="natural" v="bay" />
		<tag k="ssr:stedsnr" v="417070" />
	</node>
	<node id="-38699" lat="59.3437611098" lon="5.74412221949">
		<tag k="name" v="Ørenes" />
		<tag k="natural" v="cape" />
		<tag k="ssr:stedsnr" v="417264" />
	</node>
	<node id="-38696" lat="59.2699984316" lon="5.66649952751">
		<tag k="alt_name" v="Taftøyvågen" />
		<tag k="name" v="Toftøyvågen" />
		<tag k="natural" v="bay" />
		<tag k="ssr:stedsnr" v="417029" />
	</node>
	<node id="-37169" lat="59.4075611139" lon="5.59529166522">
		<tag k="name" v="Fantholmen" />
		<tag k="place" v="islet" />
		<tag k="ssr:stedsnr" v="478796" />
	</node>
	<node id="-36865" lat="59.3310555542" lon="5.78369722865">
		<tag k="name" v="Ramsvika" />
		<tag k="natural" v="bay" />
		<tag k="ssr:stedsnr" v="235765" />
	</node>
	<node id="-37168" lat="59.4104444416" lon="5.59073333214">
		<tag k="name" v="Makrellholmen" />
		<tag k="place" v="islet" />
		<tag k="ssr:stedsnr" v="478795" />
	</node>
	<node id="-38684" lat="59.3930305591" lon="5.47717222169">
		<tag k="name" v="Sønnaråholmen" />
		<tag k="place" v="islet" />
		<tag k="ssr:stedsnr" v="390696" />
	</node>
	<node id="-38683" lat="59.3812916664" lon="5.46456943929">
		<tag k="name" v="Nordre Ronnviksholmen" />
		<tag k="place" v="islet" />
		<tag k="ssr:stedsnr" v="390693" />
	</node>
	<node id="-38682" lat="59.3419694437" lon="5.45174722643">
		<tag k="name" v="Kalvatrævika" />
		<tag k="natural" v="bay" />
		<tag k="ssr:stedsnr" v="390690" />
	</node>
	<node id="-38677" lat="59.2778027778" lon="5.4733333278">
		<tag k="name" v="Tørstreodden" />
		<tag k="natural" v="cape" />
		<tag k="ssr:stedsnr" v="390622" />
	</node>
	<node id="-37166" lat="59.4028499962" lon="5.63406666673">
		<tag k="name" v="Lindongvika" />
		<tag k="natural" v="bay" />
		<tag k="ssr:stedsnr" v="478735" />
	</node>
	<node id="-38671" lat="59.4832555517" lon="5.46203889105">
		<tag k="name" v="Holmen" />
		<tag k="natural" v="cape" />
		<tag k="ssr:stedsnr" v="390275" />
	</node>
	<node id="-38666" lat="59.3097472196" lon="5.64198055891">
		<tag k="name" v="Amdalsbåen" />
		<tag k="place" v="locality" />
		<tag k="seamark:type" v="rock" />
		<tag k="ssr:stedsnr" v="388549" />
	</node>
	<node id="-38665" lat="59.4072194424" lon="5.72190000307">
		<tag k="alt_name" v="Toskavik" />
		<tag k="name" v="Torskavika" />
		<tag k="natural" v="bay" />
		<tag k="ssr:stedsnr" v="388638" />
	</node>
	<node id="-38663" lat="59.377750003" lon="5.38801388853">
		<tag k="name" v="Kjennarvik" />
		<tag k="natural" v="bay" />
		<tag k="ssr:stedsnr" v="388222" />
	</node>
	<node id="-38662" lat="59.2727277783" lon="5.5452749985">
		<tag k="name" v="Morthammarvika" />
		<tag k="natural" v="bay" />
		<tag k="ssr:stedsnr" v="387896" />
	</node>
	<node id="-38661" lat="59.2731944414" lon="5.54527778409">
		<tag k="name" v="Morthammaren" />
		<tag k="natural" v="cape" />
		<tag k="ssr:stedsnr" v="387890" />
	</node>
	<node id="-38658" lat="59.3245972201" lon="5.39683611628">
		<tag k="alt_name" v="Dyrnesvågen, s" />
		<tag k="name" v="Søre Dyrnesvågen" />
		<tag k="natural" v="bay" />
		<tag k="ssr:stedsnr" v="366982" />
	</node>
	<node id="-38656" lat="59.29445278" lon="5.41967777019">
		<tag k="name" v="Navarsvågen" />
		<tag k="natural" v="bay" />
		<tag k="ssr:stedsnr" v="366922" />
	</node>
	<node id="-38655" lat="59.2838833359" lon="5.44125554762">
		<tag k="alt_name" v="Austerøya" />
		<tag k="name" v="Austerøyna" />
		<tag k="place" v="island" />
		<tag k="ssr:stedsnr" v="366904" />
	</node>
	<node id="-38650" lat="59.4296972197" lon="5.51429722883">
		<tag k="name" v="Søvika" />
		<tag k="natural" v="bay" />
		<tag k="ssr:stedsnr" v="366751" />
	</node>
	<node id="-38649" lat="59.4329583308" lon="5.50852778544">
		<tag k="alt_name" v="Ådnanes;Odnanesklubben" />
		<tag k="name" v="Ådnaneset" />
		<tag k="natural" v="cape" />
		<tag k="ssr:stedsnr" v="366750" />
	</node>
	<node id="-38647" lat="59.3350527774" lon="5.86574722374">
		<tag k="alt_name" v="Færøyna, l;Litla Færøy" />
		<tag k="name" v="Litla Færøyna" />
		<tag k="place" v="islet" />
		<tag k="ssr:stedsnr" v="366576" />
	</node>
	<node id="-38646" lat="59.3410000013" lon="5.8517250046">
		<tag k="alt_name" v="Stuvikneset" />
		<tag k="name" v="Stuvvikneset" />
		<tag k="natural" v="cape" />
		<tag k="ssr:stedsnr" v="366505" />
	</node>
	<node id="-38640" lat="59.2730499998" lon="5.53795000532">
		<tag k="name" v="Sandholmen" />
		<tag k="place" v="islet" />
		<tag k="ssr:stedsnr" v="366218" />
	</node>
	<node id="-38639" lat="59.3296138914" lon="5.82628332705">
		<tag k="name" v="Baustaneset" />
		<tag k="natural" v="cape" />
		<tag k="ssr:stedsnr" v="366211" />
	</node>
	<node id="-38638" lat="59.3155166642" lon="5.59807221668">
		<tag k="fixme" v="consider seamark:type=rock or natural=shoal" />
		<tag k="name" v="Klovskjeret" />
		<tag k="place" v="islet" />
		<tag k="ssr:stedsnr" v="366205" />
	</node>
	<node id="-38632" lat="59.3258055542" lon="5.64916388101">
		<tag k="name" v="Bøvikneset" />
		<tag k="natural" v="cape" />
		<tag k="ssr:stedsnr" v="366150" />
	</node>
	<node id="-38629" lat="59.3435444418" lon="5.6389944522">
		<tag k="alt_name" v="Borgøya;Borgøy" />
		<tag k="name" v="Borgøyna" />
		<tag k="place" v="island" />
		<tag k="ssr:stedsnr" v="366135" />
	</node>
	<node id="-37158" lat="59.2905916631" lon="5.64262222338">
		<tag k="name" v="Kråkeneset" />
		<tag k="natural" v="cape" />
		<tag k="ssr:stedsnr" v="478201" />
	</node>
	<node id="-38625" lat="59.3829888849" lon="5.62818055984">
		<tag k="alt_name" v="Slogvikøya" />
		<tag k="name" v="Slogvikøyna" />
		<tag k="place" v="islet" />
		<tag k="ssr:stedsnr" v="366101" />
	</node>
	<node id="-38605" lat="59.3880638846" lon="5.38100000007">
		<tag k="bay" v="fjord" />
		<tag k="name" v="Førresfjorden" />
		<tag k="natural" v="bay" />
		<tag k="ssr:stedsnr" v="365508" />
	</node>
	<node id="-37154" lat="59.3453777814" lon="5.8848694419">
		<tag k="name" v="Litla Sandvika" />
		<tag k="natural" v="bay" />
		<tag k="ssr:stedsnr" v="477981" />
	</node>
	<node id="-38602" lat="59.4370805555" lon="5.52858889567">
		<tag k="name" v="Brattestøholmen" />
		<tag k="place" v="islet" />
		<tag k="ssr:stedsnr" v="357463" />
	</node>
	<node id="-38601" lat="59.4752555537" lon="5.59114167541">
		<tag k="name" v="Taravika" />
		<tag k="natural" v="bay" />
		<tag k="ssr:stedsnr" v="357366" />
	</node>
	<node id="-38597" lat="59.3483500026" lon="5.65083611502">
		<tag k="name" v="Øynavågen" />
		<tag k="natural" v="bay" />
		<tag k="ssr:stedsnr" v="356985" />
	</node>
	<node id="-38593" lat="59.3559722263" lon="5.62718333433">
		<tag k="name" v="Hattholmane" />
		<tag k="place" v="islet" />
		<tag k="ssr:stedsnr" v="356962" />
	</node>
	<node id="-38591" lat="59.4283583339" lon="5.79651111701">
		<tag k="name" v="Frenhidlerskjeret" />
		<tag k="natural" v="cape" />
		<tag k="ssr:stedsnr" v="356911" />
	</node>
	<node id="-38590" lat="59.3219777819" lon="5.73699443714">
		<tag k="name" v="Klubbaneset" />
		<tag k="natural" v="cape" />
		<tag k="ssr:stedsnr" v="356854" />
	</node>
	<node id="-38588" lat="59.4098583299" lon="5.59306667386">
		<tag k="name" v="Brattholmen" />
		<tag k="place" v="islet" />
		<tag k="ssr:stedsnr" v="356810" />
	</node>
	<node id="-38584" lat="59.4151388852" lon="5.74421389599">
		<tag k="name" v="Humravika" />
		<tag k="natural" v="bay" />
		<tag k="ssr:stedsnr" v="356782" />
	</node>
	<node id="-38583" lat="59.3358666635" lon="5.81673611417">
		<tag k="name" v="Svinatrævika" />
		<tag k="natural" v="bay" />
		<tag k="ssr:stedsnr" v="356761" />
	</node>
	<node id="-38582" lat="59.3318999995" lon="5.77679445136">
		<tag k="name" v="Tjeldøy" />
		<tag k="place" v="islet" />
		<tag k="ssr:stedsnr" v="356753" />
	</node>
	<node id="-38574" lat="59.3387416676" lon="5.67037777883">
		<tag k="name" v="Krabbevika" />
		<tag k="natural" v="bay" />
		<tag k="ssr:stedsnr" v="356559" />
	</node>
	<node id="-38572" lat="59.2962166687" lon="5.64779444393">
		<tag k="name" v="Raunevika" />
		<tag k="natural" v="bay" />
		<tag k="ssr:stedsnr" v="356477" />
	</node>
	<node id="-38567" lat="59.3996972181" lon="5.62091389675">
		<tag k="fixme" v="consider seamark:type=rock or natural=shoal" />
		<tag k="name" v="Kvalen" />
		<tag k="place" v="islet" />
		<tag k="ssr:stedsnr" v="356409" />
	</node>
	<node id="-38566" lat="59.2934777792" lon="5.64574722251">
		<tag k="fixme" v="consider seamark:type=rock or natural=shoal" />
		<tag k="name" v="Notanesskjeret" />
		<tag k="place" v="islet" />
		<tag k="ssr:stedsnr" v="356386" />
	</node>
	<node id="-38561" lat="59.2802777759" lon="5.6399666744">
		<tag k="name" v="Søllesvika" />
		<tag k="natural" v="bay" />
		<tag k="ssr:stedsnr" v="356248" />
	</node>
	<node id="-38560" lat="59.2816416633" lon="5.63958611563">
		<tag k="name" v="Søllesneset" />
		<tag k="natural" v="cape" />
		<tag k="ssr:stedsnr" v="356241" />
	</node>
	<node id="-38559" lat="59.2878361113" lon="5.64166389201">
		<tag k="name" v="Munkaneset" />
		<tag k="natural" v="cape" />
		<tag k="ssr:stedsnr" v="356222" />
	</node>
	<node id="-38558" lat="59.2767583327" lon="5.67689444798">
		<tag k="name" v="Selvåg" />
		<tag k="natural" v="bay" />
		<tag k="ssr:stedsnr" v="356213" />
	</node>
	<node id="-37146" lat="59.3453305544" lon="5.79909721404">
		<tag k="name" v="Ringodden" />
		<tag k="natural" v="cape" />
		<tag k="ssr:stedsnr" v="477151" />
	</node>
	<node id="-38549" lat="59.2744861109" lon="5.63604443946">
		<tag k="name" v="Ingeborgstøa" />
		<tag k="natural" v="bay" />
		<tag k="ssr:stedsnr" v="356140" />
	</node>
	<node id="-38548" lat="59.3741416681" lon="5.61664443555">
		<tag k="name" v="Båtavika" />
		<tag k="natural" v="bay" />
		<tag k="ssr:stedsnr" v="356038" />
	</node>
	<node id="-38547" lat="59.2630972208" lon="5.64468056103">
		<tag k="name" v="Brennå" />
		<tag k="natural" v="beach" />
		<tag k="place" v="locality" />
		<tag k="ssr:stedsnr" v="356024" />
	</node>
	<node id="-38542" lat="59.3694249965" lon="5.64970834135">
		<tag k="name" v="Stølsvika" />
		<tag k="natural" v="bay" />
		<tag k="ssr:stedsnr" v="356092" />
	</node>
	<node id="-38540" lat="59.3018194471" lon="5.68724166177">
		<tag k="name" v="Bekkjaviksholet" />
		<tag k="natural" v="bay" />
		<tag k="ssr:stedsnr" v="356086" />
	</node>
	<node id="-38535" lat="59.3432861118" lon="5.86362499474">
		<tag k="name" v="Amdalsholmen" />
		<tag k="place" v="islet" />
		<tag k="ssr:stedsnr" v="350848" />
	</node>
	<node id="-38534" lat="59.4318527786" lon="5.81186388469">
		<tag k="name" v="Sagneset" />
		<tag k="natural" v="cape" />
		<tag k="ssr:stedsnr" v="342923" />
	</node>
	<node id="-38532" lat="59.4502777794" lon="5.54527500103">
		<tag k="name" v="Steinbruklubben" />
		<tag k="natural" v="cape" />
		<tag k="ssr:stedsnr" v="339399" />
	</node>
	<node id="-38530" lat="59.2817944445" lon="5.46929721852">
		<tag k="name" v="Nordre Susortvika" />
		<tag k="natural" v="bay" />
		<tag k="ssr:stedsnr" v="330698" />
	</node>
	<node id="-38529" lat="59.2914055526" lon="5.43574167381">
		<tag k="name" v="Peraholmen" />
		<tag k="place" v="islet" />
		<tag k="ssr:stedsnr" v="330691" />
	</node>
	<node id="-38526" lat="59.3800499973" lon="5.39753610432">
		<tag k="name" v="Svinaneset" />
		<tag k="natural" v="cape" />
		<tag k="ssr:stedsnr" v="330001" />
	</node>
	<node id="-38524" lat="59.3661972193" lon="5.38233332885">
		<tag k="name" v="Grønholmen" />
		<tag k="place" v="islet" />
		<tag k="ssr:stedsnr" v="330071" />
	</node>
	<node id="-38522" lat="59.3770166666" lon="5.46195000835">
		<tag k="name" v="Litleklubben" />
		<tag k="natural" v="cape" />
		<tag k="ssr:stedsnr" v="330054" />
	</node>
	<node id="-38518" lat="59.4233388857" lon="5.62596389487">
		<tag k="name" v="Båtsvika" />
		<tag k="natural" v="bay" />
		<tag k="ssr:stedsnr" v="329821" />
	</node>
	<node id="-38514" lat="59.3397833352" lon="5.45285278482">
		<tag k="name" v="Haukåsholmane" />
		<tag k="place" v="island" />
		<tag k="ssr:stedsnr" v="329657" />
	</node>
	<node id="-38508" lat="59.2749444401" lon="5.5305805544">
		<tag k="name" v="Snekkjavikklubben" />
		<tag k="natural" v="cape" />
		<tag k="ssr:stedsnr" v="327863" />
	</node>
	<node id="-38507" lat="59.4043361126" lon="5.71273056023">
		<tag k="name" v="Laukavika" />
		<tag k="natural" v="bay" />
		<tag k="ssr:stedsnr" v="327624" />
	</node>
	<node id="-38504" lat="59.2783888865" lon="5.42892499733">
		<tag k="alt_name" v="Kjigjaren" />
		<tag k="name" v="Kissarholmen" />
		<tag k="place" v="islet" />
		<tag k="ssr:stedsnr" v="306907" />
	</node>
	<node id="-38503" lat="59.4525722196" lon="5.46970278394">
		<tag k="alt_name" v="Ikonnholmen" />
		<tag k="name" v="Ikornholmen" />
		<tag k="place" v="islet" />
		<tag k="ssr:stedsnr" v="306780" />
	</node>
	<node id="-38502" lat="59.4384805592" lon="5.47335555256">
		<tag k="alt_name" v="Grindeneset" />
		<tag k="name" v="Grindaneset" />
		<tag k="natural" v="cape" />
		<tag k="ssr:stedsnr" v="306753" />
	</node>
	<node id="-37137" lat="59.3584055594" lon="5.89270277665">
		<tag k="name" v="Nessavika" />
		<tag k="natural" v="bay" />
		<tag k="ssr:stedsnr" v="463446" />
	</node>
	<node id="-38495" lat="59.3953499993" lon="5.86792500472">
		<tag k="name" v="Ringjavika" />
		<tag k="natural" v="bay" />
		<tag k="ssr:stedsnr" v="306385" />
	</node>
	<node id="-38481" lat="59.4013666631" lon="5.38712221795">
		<tag k="alt_name" v="Dragvik" />
		<tag k="name" v="Dragavika" />
		<tag k="natural" v="bay" />
		<tag k="ssr:stedsnr" v="305618" />
	</node>
	<node id="-38480" lat="59.3463944477" lon="5.45786389461">
		<tag k="bay" v="fjord" />
		<tag k="name" v="Førlandsfjorden" />
		<tag k="natural" v="bay" />
		<tag k="ssr:stedsnr" v="305569" />
	</node>
	<node id="-37133" lat="59.2915805549" lon="5.43750278625">
		<tag k="name" v="Kvernaholmen" />
		<tag k="place" v="islet" />
		<tag k="ssr:stedsnr" v="269663" />
	</node>
	<node id="-38475" lat="59.2470166631" lon="5.56900277879">
		<tag k="alt_name" v="Brattholmskjeret" />
		<tag k="fixme" v="consider seamark:type=rock or natural=shoal" />
		<tag k="name" v="Brattholmskjera" />
		<tag k="place" v="islet" />
		<tag k="ssr:stedsnr" v="305475" />
	</node>
	<node id="-38459" lat="59.2780749994" lon="5.56062500595">
		<tag k="name" v="Moldvika" />
		<tag k="natural" v="bay" />
		<tag k="ssr:stedsnr" v="305235" />
	</node>
	<node id="-38458" lat="59.2663277801" lon="5.54114167308">
		<tag k="name" v="Årviksundet" />
		<tag k="natural" v="strait" />
		<tag k="ssr:stedsnr" v="305224" />
	</node>
	<node id="-38457" lat="59.3180583318" lon="5.39766667329">
		<tag k="name" v="Søylå" />
		<tag k="natural" v="bay" />
		<tag k="ssr:stedsnr" v="209684" />
	</node>
	<node id="-38456" lat="59.2861222223" lon="5.44405278079">
		<tag k="name" v="Kobbarvågen" />
		<tag k="natural" v="bay" />
		<tag k="ssr:stedsnr" v="209666" />
	</node>
	<node id="-38451" lat="59.3533666707" lon="5.46802777983">
		<tag k="name" v="Isåna" />
		<tag k="natural" v="cape" />
		<tag k="ssr:stedsnr" v="208711" />
	</node>
	<node id="-38450" lat="59.3534083363" lon="5.45623889136">
		<tag k="name" v="Dillardalsvika" />
		<tag k="natural" v="bay" />
		<tag k="ssr:stedsnr" v="208709" />
	</node>
	<node id="-38447" lat="59.2951805541" lon="5.46761388659">
		<tag k="fixme" v="consider seamark:type=rock or natural=shoal" />
		<tag k="name" v="Suggå" />
		<tag k="place" v="islet" />
		<tag k="ssr:stedsnr" v="208678" />
	</node>
	<node id="-38443" lat="59.3314222181" lon="5.48466110781">
		<tag k="name" v="Prestavika" />
		<tag k="natural" v="bay" />
		<tag k="ssr:stedsnr" v="208636" />
	</node>
	<node id="-38441" lat="59.2930277791" lon="5.46509722421">
		<tag k="name" v="Leirvikflua" />
		<tag k="natural" v="shoal" />
		<tag k="place" v="locality" />
		<tag k="ssr:stedsnr" v="208619" />
	</node>
	<node id="-38434" lat="59.3492916655" lon="5.45943611999">
		<tag k="name" v="Sæbøholmen" />
		<tag k="place" v="islet" />
		<tag k="ssr:stedsnr" v="206747" />
	</node>
	<node id="-38433" lat="59.3291999966" lon="5.68514444877">
		<tag k="name" v="Ringstveitflæet" />
		<tag k="natural" v="bay" />
		<tag k="ssr:stedsnr" v="206631" />
	</node>
	<node id="-38431" lat="59.4481899966" lon="5.47516078473">
		<tag k="name" v="Mortensgrunnen" />
		<tag k="natural" v="shoal" />
		<tag k="place" v="locality" />
		<tag k="ssr:stedsnr" v="205844" />
	</node>
	<node id="-38430" lat="59.4557388854" lon="5.59130832993">
		<tag k="alt_name" v="Kvednavika" />
		<tag k="name" v="Kvernavika" />
		<tag k="natural" v="bay" />
		<tag k="ssr:stedsnr" v="205807" />
	</node>
	<node id="-38429" lat="59.4648583319" lon="5.56001389782">
		<tag k="alt_name" v="Litla Kråkå" />
		<tag k="name" v="Litla Kråke" />
		<tag k="place" v="islet" />
		<tag k="ssr:stedsnr" v="205806" />
	</node>
	<node id="-38427" lat="59.442533331" lon="5.4728055538">
		<tag k="name" v="Holsundholmen" />
		<tag k="place" v="islet" />
		<tag k="ssr:stedsnr" v="185758" />
	</node>
	<node id="-38422" lat="59.2973358115" lon="5.39692511346">
		<tag k="name" v="Flogholmane" />
		<tag k="place" v="islet" />
		<tag k="ssr:stedsnr" v="184916" />
	</node>
	<node id="-37123" lat="59.4027500022" lon="5.68381944982">
		<tag k="alt_name" v="Eianeset" />
		<tag k="name" v="Eidaneset" />
		<tag k="natural" v="cape" />
		<tag k="ssr:stedsnr" v="267672" />
	</node>
	<node id="-38414" lat="59.3468666642" lon="5.39425277865">
		<tag k="alt_name" v="Narravik" />
		<tag k="name" v="Narravika" />
		<tag k="natural" v="bay" />
		<tag k="ssr:stedsnr" v="184523" />
	</node>
	<node id="-38412" lat="59.3904027771" lon="5.88048889186">
		<tag k="name" v="Halsavika" />
		<tag k="natural" v="bay" />
		<tag k="ssr:stedsnr" v="184420" />
	</node>
	<node id="-38411" lat="59.4287749977" lon="5.84602500379">
		<tag k="name" v="Bakkatona" />
		<tag k="natural" v="cape" />
		<tag k="ssr:stedsnr" v="184344" />
	</node>
	<node id="-38406" lat="59.2950166642" lon="5.6493111038">
		<tag k="name" v="Øygardsvika" />
		<tag k="natural" v="bay" />
		<tag k="ssr:stedsnr" v="184235" />
	</node>
	<node id="-38405" lat="59.2872500035" lon="5.65796388908">
		<tag k="alt_name" v="Liavågen" />
		<tag k="name" v="Liarvåg" />
		<tag k="natural" v="bay" />
		<tag k="ssr:stedsnr" v="184232" />
	</node>
	<node id="-38402" lat="59.2848166694" lon="5.69679167048">
		<tag k="alt_name" v="Lindøy" />
		<tag k="name" v="Lindøya" />
		<tag k="place" v="island" />
		<tag k="ssr:stedsnr" v="184217" />
	</node>
	<node id="-38400" lat="59.321727776" lon="5.74644166154">
		<tag k="alt_name" v="Håskjer" />
		<tag k="fixme" v="consider seamark:type=rock or natural=shoal" />
		<tag k="name" v="Håskjeret" />
		<tag k="place" v="islet" />
		<tag k="ssr:stedsnr" v="184202" />
	</node>
	<node id="-37118" lat="59.3101166709" lon="5.45901943645">
		<tag k="name" v="Døsene" />
		<tag k="place" v="islet" />
		<tag k="ssr:stedsnr" v="451687" />
	</node>
	<node id="-38384" lat="59.3744250025" lon="5.63386666235">
		<tag k="fixme" v="consider seamark:type=rock or natural=shoal" />
		<tag k="name" v="Rauden" />
		<tag k="place" v="islet" />
		<tag k="ssr:stedsnr" v="184076" />
	</node>
	<node id="-37117" lat="59.3264027776" lon="5.4834638912">
		<tag k="name" v="Svarttongjen" />
		<tag k="natural" v="cape" />
		<tag k="ssr:stedsnr" v="451678" />
	</node>
	<node id="-37114" lat="59.2755972181" lon="5.4764861049">
		<tag k="name" v="Bustøflua" />
		<tag k="natural" v="shoal" />
		<tag k="place" v="locality" />
		<tag k="ssr:stedsnr" v="451648" />
	</node>
	<node id="-38362" lat="59.2841277791" lon="5.6729444454">
		<tag k="name" v="Stegavika" />
		<tag k="natural" v="bay" />
		<tag k="ssr:stedsnr" v="175197" />
	</node>
	<node id="-38353" lat="59.4054277754" lon="5.68554721366">
		<tag k="name" v="Svinavika" />
		<tag k="natural" v="bay" />
		<tag k="ssr:stedsnr" v="174880" />
	</node>
	<node id="-38352" lat="59.3957454458" lon="5.67374759373">
		<tag k="alt_name" v="Yrkjesvågen;Vågen" />
		<tag k="name" v="Yrkevågen" />
		<tag k="natural" v="bay" />
		<tag k="ssr:stedsnr" v="174862" />
	</node>
	<node id="-37148" lat="59.338434165" lon="5.75054730575">
		<tag k="name" v="Klungervika" />
		<tag k="natural" v="bay" />
		<tag k="ssr:stedsnr" v="477291" />
	</node>
	<node id="-38343" lat="59.3321888924" lon="5.61387222788">
		<tag k="name" v="Forehamna" />
		<tag k="natural" v="bay" />
		<tag k="ssr:stedsnr" v="174624" />
	</node>
	<node id="-38342" lat="59.3236749989" lon="5.62488332915">
		<tag k="name" v="Sauhidleren" />
		<tag k="natural" v="cape" />
		<tag k="ssr:stedsnr" v="174615" />
	</node>
	<node id="-38341" lat="59.3200361155" lon="5.63217222413">
		<tag k="fixme" v="consider seamark:type=rock or natural=shoal" />
		<tag k="name" v="Galten" />
		<tag k="place" v="islet" />
		<tag k="ssr:stedsnr" v="174582" />
	</node>
	<node id="-38340" lat="59.4539194436" lon="5.49111111737">
		<tag k="name" v="Eikjevika" />
		<tag k="natural" v="bay" />
		<tag k="ssr:stedsnr" v="174486" />
	</node>
	<node id="-38333" lat="59.3598166701" lon="5.79540832797">
		<tag k="name" v="Karivika" />
		<tag k="natural" v="bay" />
		<tag k="ssr:stedsnr" v="174367" />
	</node>
	<node id="-38331" lat="59.3369694486" lon="5.74139444856">
		<tag k="name" v="Godtholsvika" />
		<tag k="natural" v="bay" />
		<tag k="ssr:stedsnr" v="174283" />
	</node>
	<node id="-38327" lat="59.3608333296" lon="5.89274443926">
		<tag k="name" v="Haganibba" />
		<tag k="natural" v="cape" />
		<tag k="ssr:stedsnr" v="174127" />
	</node>
	<node id="-38320" lat="59.3709305595" lon="5.62513333784">
		<tag k="name" v="Foreholmen" />
		<tag k="place" v="islet" />
		<tag k="ssr:stedsnr" v="174090" />
	</node>
	<node id="-38319" lat="59.367800004" lon="5.61326111126">
		<tag k="name" v="Kallakotholmane" />
		<tag k="place" v="islet" />
		<tag k="ssr:stedsnr" v="174084" />
	</node>
	<node id="-38317" lat="59.3751083324" lon="5.611244451">
		<tag k="name" v="Notaholmen" />
		<tag k="natural" v="cape" />
		<tag k="ssr:stedsnr" v="174043" />
	</node>
	<node id="-38316" lat="59.2695916648" lon="5.62851943758">
		<tag k="name" v="Søre Holmen" />
		<tag k="place" v="islet" />
		<tag k="ssr:stedsnr" v="174026" />
	</node>
	<node id="-38315" lat="59.2685472202" lon="5.63673610257">
		<tag k="name" v="Flagavika" />
		<tag k="natural" v="bay" />
		<tag k="ssr:stedsnr" v="174025" />
	</node>
	<node id="-38313" lat="59.3258055567" lon="5.67767778245">
		<tag k="name" v="Naustholmen" />
		<tag k="place" v="islet" />
		<tag k="ssr:stedsnr" v="173715" />
	</node>
	<node id="-38312" lat="59.3275555522" lon="5.6786499996">
		<tag k="name" v="Foreholmen" />
		<tag k="place" v="islet" />
		<tag k="ssr:stedsnr" v="173712" />
	</node>
	<node id="-38310" lat="59.3375250029" lon="5.85313333392">
		<tag k="name" v="Grunnasundet" />
		<tag k="natural" v="strait" />
		<tag k="ssr:stedsnr" v="173211" />
	</node>
	<node id="-38309" lat="59.3384249974" lon="5.83727221686">
		<tag k="name" v="Risholmen" />
		<tag k="place" v="islet" />
		<tag k="ssr:stedsnr" v="173198" />
	</node>
	<node id="-38302" lat="59.3688500001" lon="5.47001666824">
		<tag k="name" v="Høyviksholmen" />
		<tag k="place" v="islet" />
		<tag k="ssr:stedsnr" v="148038" />
	</node>
	<node id="-38295" lat="59.3914250002" lon="5.47136111522">
		<tag k="name" v="Seianeset" />
		<tag k="natural" v="cape" />
		<tag k="ssr:stedsnr" v="147687" />
	</node>
	<node id="-38293" lat="59.3184222247" lon="5.39503889336">
		<tag k="name" v="Vadholmen" />
		<tag k="place" v="islet" />
		<tag k="ssr:stedsnr" v="147074" />
	</node>
	<node id="-38291" lat="59.3876499964" lon="5.63328611386">
		<tag k="name" v="Ommundsvika" />
		<tag k="natural" v="bay" />
		<tag k="ssr:stedsnr" v="145680" />
	</node>
	<node id="-38279" lat="59.333399996" lon="5.4566083375">
		<tag k="alt_name" v="Nakkøya" />
		<tag k="name" v="Nakkøyna" />
		<tag k="place" v="islet" />
		<tag k="ssr:stedsnr" v="123982" />
	</node>
	<node id="-38274" lat="59.3376500018" lon="5.87512499274">
		<tag k="alt_name" v="Tonganeset" />
		<tag k="name" v="Tunganes" />
		<tag k="natural" v="cape" />
		<tag k="ssr:stedsnr" v="123608" />
	</node>
	<node id="-38273" lat="59.3354833292" lon="5.86166111444">
		<tag k="alt_name" v="Færøyna, store;Store Færøyna" />
		<tag k="name" v="Stora Færøyna" />
		<tag k="place" v="islet" />
		<tag k="ssr:stedsnr" v="123607" />
	</node>
	<node id="-38272" lat="59.3450222194" lon="5.88469167449">
		<tag k="name" v="Sandvika" />
		<tag k="natural" v="bay" />
		<tag k="ssr:stedsnr" v="123591" />
	</node>
	<node id="-38263" lat="59.2546921425" lon="5.53017961031">
		<tag k="name" v="Gåsholmane" />
		<tag k="place" v="islet" />
		<tag k="ssr:stedsnr" v="123283" />
	</node>
	<node id="-38262" lat="59.2737499956" lon="5.62639999808">
		<tag k="name" v="Bakkavikholmane" />
		<tag k="place" v="islet" />
		<tag k="ssr:stedsnr" v="123277" />
	</node>
	<node id="-37097" lat="59.2808055592" lon="5.70409999224">
		<tag k="alt_name" v="Tednholmen" />
		<tag k="name" v="Ternholmen" />
		<tag k="place" v="islet" />
		<tag k="ssr:stedsnr" v="245212" />
	</node>
	<node id="-38254" lat="59.338038885" lon="5.80817499959">
		<tag k="alt_name" v="Hinderåvågen" />
		<tag k="name" v="Hindaråvågen" />
		<tag k="natural" v="bay" />
		<tag k="ssr:stedsnr" v="123181" />
	</node>
	<node id="-38248" lat="59.37226111" lon="5.61402500861">
		<tag k="name" v="Skogøya" />
		<tag k="natural" v="cape" />
		<tag k="ssr:stedsnr" v="123108" />
	</node>
	<node id="-38241" lat="59.4369138921" lon="5.84263054847">
		<tag k="name" v="Metteneset" />
		<tag k="natural" v="cape" />
		<tag k="ssr:stedsnr" v="123062" />
	</node>
	<node id="-38236" lat="59.4073861117" lon="5.59406666303">
		<tag k="alt_name" v="Longholmen" />
		<tag k="name" v="Langholmen" />
		<tag k="place" v="islet" />
		<tag k="ssr:stedsnr" v="123032" />
	</node>
	<node id="-38230" lat="59.2528844598" lon="5.52649614759">
		<tag k="name" v="Gåsaholmen" />
		<tag k="place" v="islet" />
		<tag k="ssr:stedsnr" v="120389" />
	</node>
	<node id="-38227" lat="59.4713861116" lon="5.57001944854">
		<tag k="name" v="Breivika" />
		<tag k="natural" v="bay" />
		<tag k="ssr:stedsnr" v="115380" />
	</node>
	<node id="-38225" lat="59.2962666622" lon="5.67253054983">
		<tag k="name" v="Mellevik" />
		<tag k="natural" v="bay" />
		<tag k="ssr:stedsnr" v="114968" />
	</node>
	<node id="-38222" lat="59.3360833345" lon="5.75198055283">
		<tag k="name" v="Selvikholmen" />
		<tag k="place" v="islet" />
		<tag k="ssr:stedsnr" v="114798" />
	</node>
	<node id="-38216" lat="59.2753916685" lon="5.52783054862">
		<tag k="name" v="Klubben" />
		<tag k="natural" v="cape" />
		<tag k="ssr:stedsnr" v="114379" />
	</node>
	<node id="-38211" lat="59.2917861145" lon="5.66458888458">
		<tag k="name" v="Liavika" />
		<tag k="natural" v="bay" />
		<tag k="ssr:stedsnr" v="114186" />
	</node>
	<node id="-37108" lat="59.36238889" lon="5.46567499766">
		<tag k="name" v="Apelandsvika" />
		<tag k="natural" v="bay" />
		<tag k="ssr:stedsnr" v="451055" />
	</node>
	<node id="-38202" lat="59.3736611107" lon="5.89511110342">
		<tag k="name" v="Amdalsneset" />
		<tag k="natural" v="cape" />
		<tag k="ssr:stedsnr" v="113090" />
	</node>
	<node id="-38201" lat="59.2999944458" lon="5.70632777442">
		<tag k="name" v="Ørnavika" />
		<tag k="natural" v="bay" />
		<tag k="ssr:stedsnr" v="113087" />
	</node>
	<node id="-38196" lat="59.4872611103" lon="5.45544721627">
		<tag k="name" v="Breiavika" />
		<tag k="natural" v="bay" />
		<tag k="ssr:stedsnr" v="87768" />
	</node>
	<node id="-38195" lat="59.4893416686" lon="5.47125277155">
		<tag k="name" v="Fjelleimsvågpøyla" />
		<tag k="natural" v="bay" />
		<tag k="ssr:stedsnr" v="87766" />
	</node>
	<node id="-38194" lat="59.2925972256" lon="5.47019166213">
		<tag k="name" v="Leirvikvika" />
		<tag k="natural" v="bay" />
		<tag k="ssr:stedsnr" v="87695" />
	</node>
	<node id="-38191" lat="59.2932416637" lon="5.43906388814">
		<tag k="name" v="Olaholmen" />
		<tag k="place" v="islet" />
		<tag k="ssr:stedsnr" v="87685" />
	</node>
	<node id="-38190" lat="59.3099777793" lon="5.4567527858">
		<tag k="name" v="Kupholmen" />
		<tag k="place" v="islet" />
		<tag k="ssr:stedsnr" v="87680" />
	</node>
	<node id="-36938" lat="59.4398000026" lon="5.53296111363">
		<tag k="alt_name" v="Auklandsøya" />
		<tag k="name" v="Auklandsøyna" />
		<tag k="place" v="island" />
		<tag k="ssr:stedsnr" v="245749" />
	</node>
	<node id="-38183" lat="59.2779861089" lon="5.44308055558">
		<tag k="name" v="Teineskjeret" />
		<tag k="place" v="islet" />
		<tag k="ssr:stedsnr" v="87636" />
	</node>
	<node id="-38182" lat="59.2873527793" lon="5.43650555173">
		<tag k="alt_name" v="Urdholmen" />
		<tag k="name" v="Uraholmen" />
		<tag k="place" v="islet" />
		<tag k="ssr:stedsnr" v="87632" />
	</node>
	<node id="-38181" lat="59.2882861146" lon="5.43222222829">
		<tag k="name" v="Austrevika" />
		<tag k="natural" v="bay" />
		<tag k="ssr:stedsnr" v="87616" />
	</node>
	<node id="-38175" lat="59.3772833287" lon="5.46438332591">
		<tag k="name" v="Storeklubben" />
		<tag k="natural" v="cape" />
		<tag k="ssr:stedsnr" v="87045" />
	</node>
	<node id="-38174" lat="59.3571222243" lon="5.47119444307">
		<tag k="name" v="Myssingneset" />
		<tag k="natural" v="cape" />
		<tag k="ssr:stedsnr" v="87038" />
	</node>
	<node id="-38172" lat="59.4027305543" lon="5.38478333136">
		<tag k="alt_name" v="Krossneet" />
		<tag k="name" v="Krossnes" />
		<tag k="natural" v="cape" />
		<tag k="ssr:stedsnr" v="87028" />
	</node>
	<node id="-38168" lat="59.287433333" lon="5.42260000847">
		<tag k="fixme" v="consider seamark:type=rock or natural=shoal" />
		<tag k="name" v="Skjegg" />
		<tag k="place" v="islet" />
		<tag k="ssr:stedsnr" v="86099" />
	</node>
	<node id="-38162" lat="59.4076111135" lon="5.61886666768">
		<tag k="alt_name" v="Klubbanosa" />
		<tag k="name" v="Neset" />
		<tag k="natural" v="cape" />
		<tag k="ssr:stedsnr" v="64625" />
	</node>
	<node id="-36869" lat="59.3984805535" lon="5.6845361041">
		<tag k="name" v="Sildastøneset" />
		<tag k="natural" v="cape" />
		<tag k="ssr:stedsnr" v="235815" />
	</node>
	<node id="-38160" lat="59.4347833344" lon="5.52631111122">
		<tag k="name" v="Berganeset" />
		<tag k="natural" v="cape" />
		<tag k="ssr:stedsnr" v="63747" />
	</node>
	<node id="-38157" lat="59.4864749972" lon="5.45770555386">
		<tag k="alt_name" v="Sønnførvågen" />
		<tag k="name" v="Sundførvågen" />
		<tag k="natural" v="bay" />
		<tag k="ssr:stedsnr" v="63684" />
	</node>
	<node id="-38153" lat="59.2523750043" lon="5.57423333798">
		<tag k="alt_name" v="Følgje" />
		<tag k="name" v="Følje" />
		<tag k="place" v="islet" />
		<tag k="ssr:stedsnr" v="63281" />
	</node>
	<node id="-38152" lat="59.261641022" lon="5.54002337368">
		<tag k="name" v="Årvikholmen" />
		<tag k="place" v="islet" />
		<tag k="ssr:stedsnr" v="63271" />
	</node>
	<node id="-38151" lat="59.3055111154" lon="5.70841389049">
		<tag k="alt_name" v="Longøysundet" />
		<tag k="name" v="Langøysundet" />
		<tag k="natural" v="strait" />
		<tag k="ssr:stedsnr" v="63265" />
	</node>
	<node id="-38149" lat="59.2975638861" lon="5.67934444856">
		<tag k="alt_name" v="Skipholmen" />
		<tag k="name" v="Skipsholmen" />
		<tag k="place" v="islet" />
		<tag k="ssr:stedsnr" v="63255" />
	</node>
	<node id="-38146" lat="59.2687027754" lon="5.51501111816">
		<tag k="alt_name" v="Kråke, ytra" />
		<tag k="fixme" v="consider seamark:type=rock or natural=shoal" />
		<tag k="name" v="Ytra Kråka" />
		<tag k="place" v="islet" />
		<tag k="ssr:stedsnr" v="63234" />
	</node>
	<node id="-38145" lat="59.2693916633" lon="5.52391388483">
		<tag k="alt_name" v="Kråka, indra" />
		<tag k="fixme" v="consider seamark:type=rock or natural=shoal" />
		<tag k="name" v="Indra Kråka" />
		<tag k="place" v="islet" />
		<tag k="ssr:stedsnr" v="63233" />
	</node>
	<node id="-37077" lat="59.2408000004" lon="5.55150556005">
		<tag k="name" v="Bukkholmen" />
		<tag k="place" v="islet" />
		<tag k="ssr:stedsnr" v="244456" />
	</node>
	<node id="-38137" lat="59.3714328578" lon="5.63005897318">
		<tag k="alt_name" v="Skutlebergøya" />
		<tag k="name" v="Skutlabergøyna" />
		<tag k="place" v="island" />
		<tag k="ssr:stedsnr" v="63112" />
	</node>
	<node id="-38123" lat="59.4254666647" lon="5.77690833892">
		<tag k="name" v="Håneset" />
		<tag k="natural" v="cape" />
		<tag k="ssr:stedsnr" v="63012" />
	</node>
	<node id="-38118" lat="59.4118305532" lon="5.38349999394">
		<tag k="name" v="Udnarvika" />
		<tag k="natural" v="bay" />
		<tag k="ssr:stedsnr" v="62618" />
	</node>
	<node id="-38113" lat="59.3492194458" lon="5.39054999777">
		<tag k="name" v="Leirvågen" />
		<tag k="natural" v="bay" />
		<tag k="ssr:stedsnr" v="62515" />
	</node>
	<node id="-38110" lat="59.4509166658" lon="5.60593333193">
		<tag k="name" v="Revsnes" />
		<tag k="natural" v="cape" />
		<tag k="ssr:stedsnr" v="54998" />
	</node>
	<node id="-38105" lat="59.4108083375" lon="5.58546111252">
		<tag k="name" v="Staklandstongjane" />
		<tag k="natural" v="cape" />
		<tag k="ssr:stedsnr" v="53839" />
	</node>
	<node id="-38103" lat="59.4363305523" lon="5.8396694425">
		<tag k="name" v="Mettenesvika" />
		<tag k="natural" v="bay" />
		<tag k="ssr:stedsnr" v="53836" />
	</node>
	<node id="-38102" lat="59.4109083298" lon="5.59511389187">
		<tag k="name" v="Sjuraholmen" />
		<tag k="place" v="islet" />
		<tag k="ssr:stedsnr" v="53830" />
	</node>
	<node id="-38101" lat="59.3491027743" lon="5.6339722266">
		<tag k="name" v="Litlevågen" />
		<tag k="natural" v="bay" />
		<tag k="ssr:stedsnr" v="53968" />
	</node>
	<node id="-38099" lat="59.4173472234" lon="5.75316945069">
		<tag k="name" v="Vikaneset" />
		<tag k="natural" v="cape" />
		<tag k="ssr:stedsnr" v="53800" />
	</node>
	<node id="-38096" lat="59.3316361128" lon="5.60096389209">
		<tag k="name" v="Båtavika" />
		<tag k="natural" v="bay" />
		<tag k="ssr:stedsnr" v="53732" />
	</node>
	<node id="-38087" lat="59.3752083293" lon="5.78368888861">
		<tag k="name" v="Sølvberget" />
		<tag k="natural" v="cape" />
		<tag k="ssr:stedsnr" v="53435" />
	</node>
	<node id="-38080" lat="59.3032527797" lon="5.70942221338">
		<tag k="name" v="Bukkavika" />
		<tag k="natural" v="bay" />
		<tag k="ssr:stedsnr" v="53093" />
	</node>
	<node id="-38079" lat="59.2995944451" lon="5.68849444229">
		<tag k="name" v="Gjarsnes" />
		<tag k="natural" v="cape" />
		<tag k="ssr:stedsnr" v="53090" />
	</node>
	<node id="-38075" lat="59.3467972248" lon="5.80179166951">
		<tag k="name" v="Tamberneset" />
		<tag k="natural" v="cape" />
		<tag k="ssr:stedsnr" v="53141" />
	</node>
	<node id="-38071" lat="59.3314611099" lon="5.67877778121">
		<tag k="name" v="Espevikholmen" />
		<tag k="place" v="islet" />
		<tag k="ssr:stedsnr" v="52702" />
	</node>
	<node id="-38069" lat="59.3422611122" lon="5.83863889439">
		<tag k="name" v="Holmasøyla" />
		<tag k="natural" v="bay" />
		<tag k="ssr:stedsnr" v="52200" />
	</node>
	<node id="-38062" lat="59.279191667" lon="5.44066110332">
		<tag k="name" v="Marafuvika" />
		<tag k="natural" v="bay" />
		<tag k="ssr:stedsnr" v="27680" />
	</node>
	<node id="-38061" lat="59.2747388866" lon="5.44530556203">
		<tag k="name" v="Teistholmen" />
		<tag k="place" v="islet" />
		<tag k="ssr:stedsnr" v="27672" />
	</node>
	<node id="-38058" lat="59.3923083364" lon="5.47527777681">
		<tag k="name" v="Krutleneset" />
		<tag k="natural" v="cape" />
		<tag k="ssr:stedsnr" v="26688" />
	</node>
	<node id="-38053" lat="59.2973500042" lon="5.45577500618">
		<tag k="name" v="Sledavika" />
		<tag k="natural" v="bay" />
		<tag k="ssr:stedsnr" v="26663" />
	</node>
	<node id="-38052" lat="59.3031888917" lon="5.45714444515">
		<tag k="fixme" v="consider seamark:type=rock or natural=shoal" />
		<tag k="name" v="Ringaskjeret" />
		<tag k="place" v="islet" />
		<tag k="ssr:stedsnr" v="26657" />
	</node>
	<node id="-38049" lat="59.4245194478" lon="5.6191250025">
		<tag k="name" v="Straumsvika" />
		<tag k="natural" v="bay" />
		<tag k="ssr:stedsnr" v="25844" />
	</node>
	<node id="-38048" lat="59.2688583339" lon="5.62074444851">
		<tag k="fixme" v="consider seamark:type=rock or natural=shoal" />
		<tag k="name" v="Sveinane" />
		<tag k="place" v="islet" />
		<tag k="ssr:stedsnr" v="25540" />
	</node>
	<node id="-38046" lat="59.4054805588" lon="5.68794166357">
		<tag k="fixme" v="consider seamark:type=rock or natural=shoal" />
		<tag k="name" v="Slogvikskjeret" />
		<tag k="place" v="islet" />
		<tag k="ssr:stedsnr" v="25486" />
	</node>
	<node id="-38044" lat="59.3244916686" lon="5.61994999758">
		<tag k="alt_name" v="Rauholmane" />
		<tag k="name" v="Raudholmen" />
		<tag k="place" v="islet" />
		<tag k="ssr:stedsnr" v="24728" />
	</node>
	<node id="-38043" lat="59.3441333309" lon="5.61320833229">
		<tag k="name" v="Søllesvika" />
		<tag k="natural" v="bay" />
		<tag k="ssr:stedsnr" v="24723" />
	</node>
	<node id="-38042" lat="59.3905999982" lon="5.62601388486">
		<tag k="name" v="Høneholmen" />
		<tag k="place" v="islet" />
		<tag k="ssr:stedsnr" v="24716" />
	</node>
	<node id="-38041" lat="59.3822527755" lon="5.63796111306">
		<tag k="name" v="Vognaneset" />
		<tag k="natural" v="cape" />
		<tag k="ssr:stedsnr" v="24695" />
	</node>
	<node id="-38039" lat="59.3406499968" lon="5.87947500532">
		<tag k="name" v="Kjeringvika" />
		<tag k="natural" v="bay" />
		<tag k="ssr:stedsnr" v="2569" />
	</node>
	<node id="-38028" lat="59.3777747537" lon="5.63602961223">
		<tag k="alt_name" v="Tingvikholmane" />
		<tag k="name" v="Tingvikholmen" />
		<tag k="place" v="islet" />
		<tag k="ssr:stedsnr" v="2120" />
	</node>
	<node id="-38020" lat="59.4404749957" lon="5.47999443738">
		<tag k="alt_name" v="Grindefjorden" />
		<tag k="bay" v="fjord" />
		<tag k="name" v="Grindafjorden" />
		<tag k="natural" v="bay" />
		<tag k="ssr:stedsnr" v="1641" />
	</node>
	<node id="-38016" lat="59.250016667" lon="5.52368610231">
		<tag k="fixme" v="consider seamark:type=rock or natural=shoal" />
		<tag k="name" v="Billingen" />
		<tag k="place" v="islet" />
		<tag k="ssr:stedsnr" v="2271" />
	</node>
	<node id="-38015" lat="59.2718000032" lon="5.64501110856">
		<tag k="name" v="Stong" />
		<tag k="natural" v="cape" />
		<tag k="ssr:stedsnr" v="2267" />
	</node>
	<node id="-38013" lat="59.3244583356" lon="5.79051110547">
		<tag k="alt_name" v="Tveiteneset" />
		<tag k="name" v="Tveitaneset" />
		<tag k="natural" v="cape" />
		<tag k="ssr:stedsnr" v="2192" />
	</node>
	<node id="-38011" lat="59.3401437596" lon="5.86128927412">
		<tag k="name" v="Kjetlet" />
		<tag k="place" v="locality" />
		<tag k="ssr:stedsnr" v="979834" />
	</node>
	<node id="-38010" lat="59.3415527235" lon="5.85735187785">
		<tag k="name" v="Djupakastet" />
		<tag k="place" v="locality" />
		<tag k="ssr:stedsnr" v="979833" />
	</node>
	<node id="-38009" lat="59.3436967894" lon="5.85300481571">
		<tag k="name" v="Stuvvika" />
		<tag k="natural" v="bay" />
		<tag k="ssr:stedsnr" v="979831" />
	</node>
	<node id="-38007" lat="59.3289011203" lon="5.74694291744">
		<tag k="name" v="Skarpaneset" />
		<tag k="natural" v="cape" />
		<tag k="ssr:stedsnr" v="979600" />
	</node>
	<node id="-38006" lat="59.3343681603" lon="5.74019675902">
		<tag k="name" v="Notaberget" />
		<tag k="natural" v="cape" />
		<tag k="ssr:stedsnr" v="979566" />
	</node>
	<node id="-37054" lat="59.3303444404" lon="5.82428611075">
		<tag k="name" v="Nilsavika" />
		<tag k="natural" v="bay" />
		<tag k="ssr:stedsnr" v="296730" />
	</node>
	<node id="-38001" lat="59.4030138879" lon="5.61575277269">
		<tag k="name" v="Risholmen" />
		<tag k="place" v="islet" />
		<tag k="ssr:stedsnr" v="963680" />
	</node>
	<node id="-37996" lat="59.3728111128" lon="5.61695277633">
		<tag k="name" v="Skyljavika" />
		<tag k="natural" v="bay" />
		<tag k="ssr:stedsnr" v="963074" />
	</node>
	<node id="-37995" lat="59.2742361111" lon="5.62633889345">
		<tag k="name" v="Nordre Lamholmen" />
		<tag k="place" v="islet" />
		<tag k="ssr:stedsnr" v="963121" />
	</node>
	<node id="-37993" lat="59.4608499977" lon="5.47072777142">
		<tag k="name" v="Vågsneset" />
		<tag k="natural" v="cape" />
		<tag k="ssr:stedsnr" v="937817" />
	</node>
	<node id="-37991" lat="59.3950194431" lon="5.39203055569">
		<tag k="alt_name" v="Stavevik" />
		<tag k="name" v="Stauavika" />
		<tag k="natural" v="bay" />
		<tag k="ssr:stedsnr" v="937017" />
	</node>
	<node id="-37985" lat="59.4094056272" lon="5.73142990381">
		<tag k="name" v="Sagneset" />
		<tag k="natural" v="cape" />
		<tag k="ssr:stedsnr" v="935509" />
	</node>
	<node id="-37983" lat="59.284703189" lon="5.66126872385">
		<tag k="alt_name" v="Håøya, store;Stora Håøya;Store Håøyna" />
		<tag k="name" v="Stora Håøyna" />
		<tag k="place" v="island" />
		<tag k="ssr:stedsnr" v="912227" />
	</node>
	<node id="-37982" lat="59.3513888864" lon="5.62023054903">
		<tag k="name" v="Djupahola" />
		<tag k="natural" v="bay" />
		<tag k="ssr:stedsnr" v="903953" />
	</node>
	<node id="-37977" lat="59.3188388875" lon="5.6269111152">
		<tag k="name" v="Spissøyvikane" />
		<tag k="natural" v="bay" />
		<tag k="ssr:stedsnr" v="903574" />
	</node>
	<node id="-37972" lat="59.2888777809" lon="5.64057777958">
		<tag k="name" v="Laksavika" />
		<tag k="natural" v="bay" />
		<tag k="ssr:stedsnr" v="903203" />
	</node>
	<node id="-37971" lat="59.3827083306" lon="5.6193833332">
		<tag k="name" v="Slogvika" />
		<tag k="natural" v="bay" />
		<tag k="ssr:stedsnr" v="903371" />
	</node>
	<node id="-37959" lat="59.3753472216" lon="5.78237221366">
		<tag k="name" v="Roaldsvika" />
		<tag k="natural" v="bay" />
		<tag k="ssr:stedsnr" v="902454" />
	</node>
	<node id="-37958" lat="59.3485138918" lon="5.80363610316">
		<tag k="name" v="Osmundvika" />
		<tag k="natural" v="bay" />
		<tag k="ssr:stedsnr" v="902122" />
	</node>
	<node id="-37957" lat="59.3386666658" lon="5.74167221653">
		<tag k="name" v="Gardsendneset" />
		<tag k="natural" v="cape" />
		<tag k="ssr:stedsnr" v="902266" />
	</node>
	<node id="-37952" lat="59.3927972247" lon="5.39109999608">
		<tag k="name" v="Klubben" />
		<tag k="natural" v="cape" />
		<tag k="ssr:stedsnr" v="876013" />
	</node>
	<node id="-37951" lat="59.355191666" lon="5.46612776963">
		<tag k="name" v="Høyvikholmen" />
		<tag k="place" v="islet" />
		<tag k="ssr:stedsnr" v="874763" />
	</node>
	<node id="-37950" lat="59.3591249997" lon="5.62361389187">
		<tag k="name" v="Noraneset" />
		<tag k="natural" v="cape" />
		<tag k="ssr:stedsnr" v="874720" />
	</node>
	<node id="-37949" lat="59.4364527824" lon="5.4976694511">
		<tag k="fixme" v="consider seamark:type=rock or natural=shoal" />
		<tag k="name" v="Bolleskjeret" />
		<tag k="place" v="islet" />
		<tag k="ssr:stedsnr" v="873753" />
	</node>
	<node id="-37944" lat="59.3009340639" lon="5.64187022971">
		<tag k="name" v="Varden" />
		<tag k="natural" v="cape" />
		<tag k="ssr:stedsnr" v="852254" />
	</node>
	<node id="-37932" lat="59.3493111113" lon="5.88857221463">
		<tag k="name" v="Kuholmen" />
		<tag k="place" v="islet" />
		<tag k="ssr:stedsnr" v="842973" />
	</node>
	<node id="-37928" lat="59.3398055545" lon="5.61506666894">
		<tag k="fixme" v="consider seamark:type=rock or natural=shoal" />
		<tag k="name" v="Biskjer" />
		<tag k="place" v="islet" />
		<tag k="ssr:stedsnr" v="842777" />
	</node>
	<node id="-37925" lat="59.4146361072" lon="5.74207499898">
		<tag k="name" v="Litla Humravika" />
		<tag k="natural" v="bay" />
		<tag k="ssr:stedsnr" v="842770" />
	</node>
	<node id="-37923" lat="59.4137555569" lon="5.59955277878">
		<tag k="name" v="Røyrvika" />
		<tag k="natural" v="bay" />
		<tag k="ssr:stedsnr" v="842719" />
	</node>
	<node id="-37922" lat="59.3892999964" lon="5.88428888369">
		<tag k="name" v="Håneset" />
		<tag k="natural" v="cape" />
		<tag k="ssr:stedsnr" v="842716" />
	</node>
	<node id="-37919" lat="59.4000722187" lon="5.7012111055">
		<tag k="name" v="Stølsvika" />
		<tag k="natural" v="bay" />
		<tag k="ssr:stedsnr" v="842810" />
	</node>
	<node id="-37916" lat="59.3843388848" lon="5.62440000067">
		<tag k="name" v="Ormasundet" />
		<tag k="natural" v="strait" />
		<tag k="ssr:stedsnr" v="842366" />
	</node>
	<node id="-37914" lat="59.3708861069" lon="5.79241110588">
		<tag k="name" v="Bjødnanes" />
		<tag k="natural" v="cape" />
		<tag k="ssr:stedsnr" v="842423" />
	</node>
	<node id="-39087" lat="59.3070638912" lon="5.64711388805">
		<tag k="fixme" v="consider seamark:type=rock or natural=shoal" />
		<tag k="name" v="Kvednaskjera" />
		<tag k="place" v="islet" />
		<tag k="ssr:stedsnr" v="781472" />
	</node>
	<node id="-37912" lat="59.4543055575" lon="5.59877777746">
		<tag k="name" v="Valsodden" />
		<tag k="natural" v="cape" />
		<tag k="ssr:stedsnr" v="842406" />
	</node>
	<node id="-37910" lat="59.2646027782" lon="5.63928332871">
		<tag k="name" v="Ørnaneset" />
		<tag k="natural" v="cape" />
		<tag k="ssr:stedsnr" v="842020" />
	</node>
	<node id="-37908" lat="59.3281972231" lon="5.67591388906">
		<tag k="name" v="Lamholmen" />
		<tag k="place" v="islet" />
		<tag k="ssr:stedsnr" v="841723" />
	</node>
	<node id="-37903" lat="59.288736107" lon="5.42678889131">
		<tag k="name" v="Vestrevika" />
		<tag k="natural" v="bay" />
		<tag k="ssr:stedsnr" v="937662" />
	</node>
	<node id="-37901" lat="59.3584416654" lon="5.39002778201">
		<tag k="alt_name" v="Høyevik" />
		<tag k="name" v="Høyevika" />
		<tag k="natural" v="bay" />
		<tag k="ssr:stedsnr" v="937085" />
	</node>
	<node id="-37900" lat="59.3759416634" lon="5.38491944575">
		<tag k="alt_name" v="Kallevikvik" />
		<tag k="name" v="Kadlavika" />
		<tag k="natural" v="bay" />
		<tag k="ssr:stedsnr" v="937077" />
	</node>
	<node id="-37891" lat="59.2934305519" lon="5.43123611012">
		<tag k="alt_name" v="Østersundholmen" />
		<tag k="name" v="Austresundholmen" />
		<tag k="place" v="islet" />
		<tag k="ssr:stedsnr" v="936653" />
	</node>
	<node id="-37890" lat="59.2967194789" lon="5.39722986498">
		<tag k="name" v="Litle Flohlomen" />
		<tag k="place" v="islet" />
		<tag k="ssr:stedsnr" v="936650" />
	</node>
	<node id="-37889" lat="59.3002694468" lon="5.40412777959">
		<tag k="name" v="Solåkerneset" />
		<tag k="natural" v="cape" />
		<tag k="ssr:stedsnr" v="936648" />
	</node>
	<node id="-37885" lat="59.4011611144" lon="5.67854444198">
		<tag k="loc_name" v="Skotaholmen" />
		<tag k="name" v="Skåtaholmen" />
		<tag k="place" v="islet" />
		<tag k="ssr:stedsnr" v="935493" />
	</node>
	<node id="-37883" lat="59.2743138851" lon="5.54200832941">
		<tag k="fixme" v="consider seamark:type=rock or natural=shoal" />
		<tag k="name" v="Terneskjeret" />
		<tag k="place" v="islet" />
		<tag k="ssr:stedsnr" v="934870" />
	</node>
	<node id="-37882" lat="59.4757500005" lon="5.59663888586">
		<tag k="name" v="Nesgrunnen" />
		<tag k="natural" v="shoal" />
		<tag k="place" v="locality" />
		<tag k="ssr:stedsnr" v="934769" />
	</node>
	<node id="-37881" lat="59.3984861127" lon="5.63455277115">
		<tag k="name" v="Neddvika" />
		<tag k="natural" v="bay" />
		<tag k="ssr:stedsnr" v="934659" />
	</node>
	<node id="-37871" lat="59.3016861088" lon="5.46663333939">
		<tag k="name" v="Hidlervika" />
		<tag k="natural" v="bay" />
		<tag k="ssr:stedsnr" v="815668" />
	</node>
	<node id="-37870" lat="59.3115388878" lon="5.46152499355">
		<tag k="name" v="Urnes" />
		<tag k="natural" v="cape" />
		<tag k="ssr:stedsnr" v="815666" />
	</node>
	<node id="-37869" lat="59.2951805545" lon="5.45714722254">
		<tag k="alt_name" v="Odlandsklubben;Klubben" />
		<tag k="name" v="Ådlandsklubben" />
		<tag k="natural" v="cape" />
		<tag k="ssr:stedsnr" v="815664" />
	</node>
	<node id="-37868" lat="59.3000055563" lon="5.46500554799">
		<tag k="alt_name" v="Gule Tongjen" />
		<tag k="name" v="Guletangen" />
		<tag k="natural" v="cape" />
		<tag k="ssr:stedsnr" v="815661" />
	</node>
	<node id="-37867" lat="59.4338055558" lon="5.46545832929">
		<tag k="name" v="Lyngneset" />
		<tag k="natural" v="cape" />
		<tag k="ssr:stedsnr" v="815717" />
	</node>
	<node id="-39314" lat="59.3566138853" lon="5.61374167411">
		<tag k="name" v="Låvavika" />
		<tag k="natural" v="bay" />
		<tag k="ssr:stedsnr" v="963837" />
	</node>
	<node id="-37853" lat="59.3232111142" lon="5.74251943856">
		<tag k="name" v="Brattholmen" />
		<tag k="place" v="islet" />
		<tag k="ssr:stedsnr" v="791208" />
	</node>
	<node id="-36995" lat="59.40835556" lon="5.62937778204">
		<tag k="name" v="Valvika" />
		<tag k="natural" v="bay" />
		<tag k="ssr:stedsnr" v="147708" />
	</node>
	<node id="-37843" lat="59.3564111081" lon="5.65886111383">
		<tag k="name" v="Skrubbevika" />
		<tag k="natural" v="bay" />
		<tag k="ssr:stedsnr" v="781538" />
	</node>
	<node id="-37836" lat="59.4611777815" lon="6.02476666099">
		<tag k="bay" v="fjord" />
		<tag k="name" v="Vindafjorden" />
		<tag k="natural" v="bay" />
		<tag k="ssr:stedsnr" v="913312" />
	</node>
	<node id="-37834" lat="59.2998749996" lon="5.58580000045">
		<tag k="alt_name" v="Saltkjervika" />
		<tag k="name" v="Saltkjelvika" />
		<tag k="natural" v="bay" />
		<tag k="ssr:stedsnr" v="913228" />
	</node>
	<node id="-37833" lat="59.3216027743" lon="5.73201111678">
		<tag k="alt_name" v="Grødvika" />
		<tag k="name" v="Grøtavika" />
		<tag k="natural" v="bay" />
		<tag k="ssr:stedsnr" v="913197" />
	</node>
	<node id="-37830" lat="59.32478889" lon="5.75244445278">
		<tag k="alt_name" v="Gullholmen" />
		<tag k="name" v="Gulholmen" />
		<tag k="place" v="islet" />
		<tag k="ssr:stedsnr" v="913181" />
	</node>
	<node id="-37823" lat="59.3395472179" lon="5.39501943667">
		<tag k="alt_name" v="Kvitaneset" />
		<tag k="name" v="Kvitanes" />
		<tag k="natural" v="cape" />
		<tag k="ssr:stedsnr" v="912995" />
	</node>
	<node id="-37808" lat="59.4180750011" lon="5.84972500828">
		<tag k="name" v="Haukalineset" />
		<tag k="natural" v="cape" />
		<tag k="ssr:stedsnr" v="912365" />
	</node>
	<node id="-37021" lat="59.308122218" lon="5.64695556273">
		<tag k="name" v="Kvednaklubben" />
		<tag k="natural" v="cape" />
		<tag k="ssr:stedsnr" v="295477" />
	</node>
	<node id="-37795" lat="59.4351027761" lon="5.83527777582">
		<tag k="name" v="Hapnes" />
		<tag k="natural" v="cape" />
		<tag k="ssr:stedsnr" v="912050" />
	</node>
	<node id="-37785" lat="59.2787611118" lon="5.69944165927">
		<tag k="name" v="Lindøygrunnen" />
		<tag k="natural" v="shoal" />
		<tag k="place" v="locality" />
		<tag k="ssr:stedsnr" v="753107" />
	</node>
	<node id="-37779" lat="59.4099305534" lon="5.60415000618">
		<tag k="name" v="Kråketinget" />
		<tag k="place" v="islet" />
		<tag k="ssr:stedsnr" v="903644" />
	</node>
	<node id="-37778" lat="59.3321749984" lon="5.61473610501">
		<tag k="name" v="Vodleholmen" />
		<tag k="place" v="islet" />
		<tag k="ssr:stedsnr" v="903589" />
	</node>
	<node id="-37777" lat="59.3199361073" lon="5.63012500637">
		<tag k="name" v="Galtavika" />
		<tag k="natural" v="bay" />
		<tag k="ssr:stedsnr" v="903575" />
	</node>
	<node id="-37770" lat="59.4339416651" lon="5.53019721514">
		<tag k="name" v="Bergavika" />
		<tag k="natural" v="bay" />
		<tag k="ssr:stedsnr" v="903468" />
	</node>
	<node id="-37766" lat="59.2703111099" lon="5.67569722215">
		<tag k="name" v="Kamaskjeret" />
		<tag k="place" v="islet" />
		<tag k="ssr:stedsnr" v="903034" />
	</node>
	<node id="-37764" lat="59.3646833299" lon="5.6526055566">
		<tag k="name" v="Tøkjeholmen" />
		<tag k="place" v="islet" />
		<tag k="ssr:stedsnr" v="903080" />
	</node>
	<node id="-37762" lat="59.3739055522" lon="5.64463333741">
		<tag k="name" v="Sørkreppene" />
		<tag k="natural" v="bay" />
		<tag k="ssr:stedsnr" v="903075" />
	</node>
	<node id="-37761" lat="59.3742194466" lon="5.6244555471">
		<tag k="name" v="Vestre Raunen" />
		<tag k="place" v="islet" />
		<tag k="ssr:stedsnr" v="903066" />
	</node>
	<node id="-37759" lat="59.3688361093" lon="5.60857777617">
		<tag k="name" v="Vågavika" />
		<tag k="natural" v="bay" />
		<tag k="ssr:stedsnr" v="903062" />
	</node>
	<node id="-37736" lat="59.3387555556" lon="5.4587805561">
		<tag k="name" v="Prestneset" />
		<tag k="natural" v="cape" />
		<tag k="ssr:stedsnr" v="730987" />
	</node>
	<node id="-37735" lat="59.3247305534" lon="5.39303055563">
		<tag k="alt_name" v="Dyrnesvågen, nordre" />
		<tag k="name" v="Nordre Dyrnesvågen" />
		<tag k="natural" v="bay" />
		<tag k="ssr:stedsnr" v="730983" />
	</node>
	<node id="-37009" lat="59.4239472264" lon="5.7736138916">
		<tag k="name" v="Ramsvika" />
		<tag k="natural" v="bay" />
		<tag k="ssr:stedsnr" v="184013" />
	</node>
	<node id="-37730" lat="59.3346470971" lon="5.74758693137">
		<tag k="name" v="Muslandsvågen" />
		<tag k="natural" v="bay" />
		<tag k="ssr:stedsnr" v="730172" />
	</node>
	<node id="-37717" lat="59.352048053" lon="5.62571114745">
		<tag k="name" v="Geitavika" />
		<tag k="natural" v="bay" />
		<tag k="ssr:stedsnr" v="720971" />
	</node>
	<node id="-37714" lat="59.3335555597" lon="5.76525554808">
		<tag k="name" v="Skomakarvika" />
		<tag k="natural" v="bay" />
		<tag k="ssr:stedsnr" v="720819" />
	</node>
	<node id="-37713" lat="59.3428444409" lon="5.61448055667">
		<tag k="name" v="Seiavika" />
		<tag k="natural" v="bay" />
		<tag k="ssr:stedsnr" v="720817" />
	</node>
	<node id="-37712" lat="59.4097584613" lon="5.73206861282">
		<tag k="name" v="Dalaholet" />
		<tag k="natural" v="bay" />
		<tag k="ssr:stedsnr" v="720810" />
	</node>
	<node id="-37711" lat="59.3234027739" lon="5.66238612027">
		<tag k="name" v="Skarvattongjen" />
		<tag k="natural" v="cape" />
		<tag k="ssr:stedsnr" v="720779" />
	</node>
	<node id="-37710" lat="59.328469442" lon="5.79945554709">
		<tag k="name" v="Breivikneset" />
		<tag k="natural" v="cape" />
		<tag k="ssr:stedsnr" v="720756" />
	</node>
	<node id="-37708" lat="59.3637750022" lon="5.79276389253">
		<tag k="name" v="Breivika" />
		<tag k="natural" v="bay" />
		<tag k="ssr:stedsnr" v="720442" />
	</node>
	<node id="-37703" lat="59.3045111067" lon="5.40021110622">
		<tag k="name" v="Vesterstø" />
		<tag k="natural" v="bay" />
		<tag k="ssr:stedsnr" v="694663" />
	</node>
	<node id="-37697" lat="59.289577781" lon="5.42358055056">
		<tag k="name" v="Skjeggjaholmen" />
		<tag k="place" v="islet" />
		<tag k="ssr:stedsnr" v="694614" />
	</node>
	<node id="-37690" lat="59.3099527785" lon="5.46484999669">
		<tag k="name" v="Melkevik" />
		<tag k="natural" v="bay" />
		<tag k="ssr:stedsnr" v="692604" />
	</node>
	<node id="-37689" lat="59.2683750036" lon="5.67374443552">
		<tag k="name" v="Klevika" />
		<tag k="natural" v="bay" />
		<tag k="ssr:stedsnr" v="692504" />
	</node>
	<node id="-37688" lat="59.4234166644" lon="5.77138889144">
		<tag k="name" v="Ramsvikneset" />
		<tag k="natural" v="cape" />
		<tag k="ssr:stedsnr" v="888953" />
	</node>
	<node id="-37687" lat="59.4077166627" lon="5.61438611864">
		<tag k="name" v="Klubbholmen" />
		<tag k="place" v="islet" />
		<tag k="ssr:stedsnr" v="660665" />
	</node>
	<node id="-37682" lat="59.3913027801" lon="5.66941388336">
		<tag k="name" v="Notaberget" />
		<tag k="natural" v="cape" />
		<tag k="ssr:stedsnr" v="659856" />
	</node>
	<node id="-37681" lat="59.4338666674" lon="5.82592778161">
		<tag k="alt_name" v="Kreavika" />
		<tag k="name" v="Krekavika" />
		<tag k="natural" v="bay" />
		<tag k="ssr:stedsnr" v="659926" />
	</node>
	<node id="-37677" lat="59.3690972196" lon="5.79717499733">
		<tag k="name" v="Sauaskjeret" />
		<tag k="natural" v="cape" />
		<tag k="ssr:stedsnr" v="659435" />
	</node>
	<node id="-37674" lat="59.4911833365" lon="5.46473611591">
		<tag k="name" v="Skarpaneset" />
		<tag k="natural" v="cape" />
		<tag k="ssr:stedsnr" v="876787" />
	</node>
	<node id="-37669" lat="59.3052833347" lon="5.46697500693">
		<tag k="name" v="Britavika" />
		<tag k="natural" v="bay" />
		<tag k="ssr:stedsnr" v="876706" />
	</node>
	<node id="-37667" lat="59.2948222217" lon="5.41461388062">
		<tag k="name" v="Bekkjarvika" />
		<tag k="natural" v="bay" />
		<tag k="ssr:stedsnr" v="876685" />
	</node>
	<node id="-37665" lat="59.2856333321" lon="5.44922777484">
		<tag k="alt_name" v="Kjerringholmen" />
		<tag k="name" v="Koneholmen" />
		<tag k="place" v="islet" />
		<tag k="ssr:stedsnr" v="876663" />
	</node>
	<node id="-37656" lat="59.4146499968" lon="5.85512499235">
		<tag k="name" v="Haukaligrunnen" />
		<tag k="natural" v="shoal" />
		<tag k="place" v="locality" />
		<tag k="ssr:stedsnr" v="645928" />
	</node>
	<node id="-37655" lat="59.392619445" lon="5.87283332773">
		<tag k="name" v="Torvaldskroken" />
		<tag k="natural" v="bay" />
		<tag k="ssr:stedsnr" v="645926" />
	</node>
	<node id="-37653" lat="59.4449749995" lon="5.48365555411">
		<tag k="alt_name" v="Stora Grindøya;Grindaøyna" />
		<tag k="name" v="Stora Grindøyna" />
		<tag k="place" v="island" />
		<tag k="ssr:stedsnr" v="731754" />
	</node>
	<node id="-37651" lat="59.3403833302" lon="5.83905832625">
		<tag k="name" v="Kuneset" />
		<tag k="natural" v="cape" />
		<tag k="ssr:stedsnr" v="731599" />
	</node>
	<node id="-37649" lat="59.2884305517" lon="5.57001110928">
		<tag k="name" v="Sutadalsvika" />
		<tag k="natural" v="bay" />
		<tag k="ssr:stedsnr" v="731189" />
	</node>
	<node id="-37645" lat="59.3956638849" lon="5.63128332783">
		<tag k="alt_name" v="Lindangsneset" />
		<tag k="name" v="Lindangerneset" />
		<tag k="natural" v="cape" />
		<tag k="ssr:stedsnr" v="731072" />
	</node>
	<node id="-37638" lat="59.2871305524" lon="5.70333055522">
		<tag k="name" v="Slåttholmen" />
		<tag k="place" v="islet" />
		<tag k="ssr:stedsnr" v="730219" />
	</node>
	<node id="-36993" lat="59.3070305595" lon="5.46678610419">
		<tag k="name" v="Kvinneslandsvika" />
		<tag k="natural" v="bay" />
		<tag k="ssr:stedsnr" v="147661" />
	</node>
	<node id="-37622" lat="59.2901416689" lon="5.46721944081">
		<tag k="name" v="Trestangen" />
		<tag k="natural" v="cape" />
		<tag k="ssr:stedsnr" v="633672" />
	</node>
	<node id="-37620" lat="59.3855194469" lon="5.3996555553">
		<tag k="fixme" v="consider seamark:type=rock or natural=shoal" />
		<tag k="name" v="Naustaskjer" />
		<tag k="place" v="islet" />
		<tag k="ssr:stedsnr" v="633017" />
	</node>
	<node id="-37610" lat="59.3268916631" lon="5.60827777331">
		<tag k="name" v="Tømmervika" />
		<tag k="natural" v="bay" />
		<tag k="ssr:stedsnr" v="630672" />
	</node>
	<node id="-37609" lat="59.3638968818" lon="5.62940095173">
		<tag k="name" v="Svartevågen" />
		<tag k="natural" v="bay" />
		<tag k="ssr:stedsnr" v="630663" />
	</node>
	<node id="-37608" lat="59.256727776" lon="5.53613888094">
		<tag k="name" v="Sandholmen" />
		<tag k="place" v="islet" />
		<tag k="ssr:stedsnr" v="629905" />
	</node>
	<node id="-36988" lat="59.3975111153" lon="5.6799611034">
		<tag k="name" v="Duvikneset" />
		<tag k="natural" v="cape" />
		<tag k="ssr:stedsnr" v="146453" />
	</node>
	<node id="-37603" lat="59.4061583378" lon="5.60008611778">
		<tag k="name" v="Kariholmen" />
		<tag k="place" v="islet" />
		<tag k="ssr:stedsnr" v="721760" />
	</node>
	<node id="-37600" lat="59.3117944489" lon="5.7208666641">
		<tag k="name" v="Rabbaneset" />
		<tag k="natural" v="cape" />
		<tag k="ssr:stedsnr" v="721715" />
	</node>
	<node id="-37590" lat="59.4340138907" lon="5.52378610233">
		<tag k="name" v="Fiskåvika" />
		<tag k="natural" v="bay" />
		<tag k="ssr:stedsnr" v="721475" />
	</node>
	<node id="-37584" lat="59.3634583318" lon="5.65461110807">
		<tag k="name" v="Sagvika" />
		<tag k="natural" v="bay" />
		<tag k="ssr:stedsnr" v="721087" />
	</node>
	<node id="-37582" lat="59.3720694454" lon="5.64729999838">
		<tag k="name" v="Vikane" />
		<tag k="natural" v="bay" />
		<tag k="ssr:stedsnr" v="721061" />
	</node>
	<node id="-37580" lat="59.4298972221" lon="5.8009861054">
		<tag k="name" v="Lågadalsvika" />
		<tag k="natural" v="bay" />
		<tag k="ssr:stedsnr" v="720928" />
	</node>
	<node id="-37579" lat="59.4251027775" lon="5.78290277202">
		<tag k="name" v="Elfarvika" />
		<tag k="natural" v="bay" />
		<tag k="ssr:stedsnr" v="720915" />
	</node>
	<node id="-37578" lat="59.323741667" lon="5.73534721936">
		<tag k="name" v="Straumen" />
		<tag k="natural" v="strait" />
		<tag k="ssr:stedsnr" v="720891" />
	</node>
	<node id="-36982" lat="59.2928805562" lon="5.45123333909">
		<tag k="fixme" v="consider seamark:type=rock or natural=shoal" />
		<tag k="name" v="Gjøstølskjera" />
		<tag k="place" v="islet" />
		<tag k="ssr:stedsnr" v="269697" />
	</node>
	<node id="-37570" lat="59.3397777754" lon="5.85158889453">
		<tag k="name" v="Sandsundet" />
		<tag k="natural" v="strait" />
		<tag k="ssr:stedsnr" v="720227" />
	</node>
	<node id="-37567" lat="59.3031694454" lon="5.69825277856">
		<tag k="name" v="Svartatona" />
		<tag k="natural" v="cape" />
		<tag k="ssr:stedsnr" v="720110" />
	</node>
	<node id="-37561" lat="59.4536305574" lon="5.60106388584">
		<tag k="alt_name" v="Valen" />
		<tag k="name" v="Kvalen" />
		<tag k="natural" v="cape" />
		<tag k="ssr:stedsnr" v="609757" />
	</node>
	<node id="-37558" lat="59.2949805555" lon="5.57741667397">
		<tag k="name" v="Indrevika" />
		<tag k="natural" v="bay" />
		<tag k="ssr:stedsnr" v="609231" />
	</node>
	<node id="-37555" lat="59.4111388894" lon="5.59494167262">
		<tag k="name" v="Notholmen" />
		<tag k="place" v="islet" />
		<tag k="ssr:stedsnr" v="609031" />
	</node>
	<node id="-37552" lat="59.3410499987" lon="5.87637499873">
		<tag k="name" v="Kjøphammar" />
		<tag k="natural" v="cape" />
		<tag k="ssr:stedsnr" v="608586" />
	</node>
	<node id="-37551" lat="59.3386805563" lon="5.64415000819">
		<tag k="name" v="Svartaberget" />
		<tag k="natural" v="cape" />
		<tag k="ssr:stedsnr" v="608162" />
	</node>
	<node id="-36978" lat="59.2785805592" lon="5.43466666438">
		<tag k="name" v="Vindvall" />
		<tag k="place" v="islet" />
		<tag k="ssr:stedsnr" v="269645" />
	</node>
	<node id="-37546" lat="59.4693361124" lon="5.56217223057">
		<tag k="name" v="Neseimsklubben" />
		<tag k="natural" v="cape" />
		<tag k="ssr:stedsnr" v="600361" />
	</node>
	<node id="-37540" lat="59.2639361112" lon="5.67314166241">
		<tag k="name" v="Taravika" />
		<tag k="natural" v="bay" />
		<tag k="ssr:stedsnr" v="599018" />
	</node>
	<node id="-37536" lat="59.3930250016" lon="5.47201666157">
		<tag k="fixme" v="consider seamark:type=rock or natural=shoal" />
		<tag k="name" v="Sveltet" />
		<tag k="place" v="islet" />
		<tag k="ssr:stedsnr" v="572724" />
	</node>
	<node id="-37532" lat="59.3079250014" lon="5.39743889434">
		<tag k="alt_name" v="Skiftesvik" />
		<tag k="name" v="Skiftesvika" />
		<tag k="natural" v="bay" />
		<tag k="ssr:stedsnr" v="572669" />
	</node>
	<node id="-37531" lat="59.2804305587" lon="5.44381945127">
		<tag k="name" v="Grasskjeret" />
		<tag k="place" v="islet" />
		<tag k="ssr:stedsnr" v="572659" />
	</node>
	<node id="-37530" lat="59.4296666668" lon="5.79966944433">
		<tag k="name" v="Teiganeset" />
		<tag k="natural" v="cape" />
		<tag k="ssr:stedsnr" v="706950" />
	</node>
	<node id="-37526" lat="59.2731833291" lon="5.67552221732">
		<tag k="name" v="Ørevika" />
		<tag k="natural" v="bay" />
		<tag k="ssr:stedsnr" v="570514" />
	</node>
	<node id="-37525" lat="59.2673416636" lon="5.68223610296">
		<tag k="name" v="Nordflua" />
		<tag k="natural" v="shoal" />
		<tag k="place" v="locality" />
		<tag k="ssr:stedsnr" v="570512" />
	</node>
	<node id="-37524" lat="59.2890861127" lon="5.70922778341">
		<tag k="alt_name" v="Austrafluna" />
		<tag k="name" v="Austraflua" />
		<tag k="natural" v="shoal" />
		<tag k="place" v="locality" />
		<tag k="ssr:stedsnr" v="570508" />
	</node>
	<node id="-37523" lat="59.3271472242" lon="5.8239527724">
		<tag k="name" v="Nesflua" />
		<tag k="natural" v="shoal" />
		<tag k="place" v="locality" />
		<tag k="ssr:stedsnr" v="706457" />
	</node>
	<node id="-37522" lat="59.3493722236" lon="5.8868972223">
		<tag k="name" v="Kuvika" />
		<tag k="natural" v="bay" />
		<tag k="ssr:stedsnr" v="706436" />
	</node>
	<node id="-37519" lat="59.3051194487" lon="5.45682777445">
		<tag k="name" v="Notholmen" />
		<tag k="place" v="islet" />
		<tag k="ssr:stedsnr" v="694683" />
	</node>
	<node id="-37518" lat="59.3309777778" lon="5.3939361119">
		<tag k="alt_name" v="Breidvik" />
		<tag k="name" v="Breivika" />
		<tag k="natural" v="bay" />
		<tag k="ssr:stedsnr" v="694651" />
	</node>
	<node id="-37517" lat="59.3173555546" lon="5.45187222427">
		<tag k="name" v="Trulsavika" />
		<tag k="natural" v="bay" />
		<tag k="ssr:stedsnr" v="694647" />
	</node>
	<node id="-37052" lat="59.3881638871" lon="5.8875833273">
		<tag k="name" v="Dyrasloen" />
		<tag k="natural" v="cape" />
		<tag k="ssr:stedsnr" v="296716" />
	</node>
	<node id="-36972" lat="59.3829921945" lon="5.47165986261">
		<tag k="name" v="Saltvika" />
		<tag k="natural" v="bay" />
		<tag k="ssr:stedsnr" v="267748" />
	</node>
	<node id="-37510" lat="59.3265638875" lon="5.38948055244">
		<tag k="name" v="Dyrnesodden" />
		<tag k="natural" v="cape" />
		<tag k="ssr:stedsnr" v="693084" />
	</node>
	<node id="-37508" lat="59.3309111113" lon="5.65761944549">
		<tag k="name" v="Storflua" />
		<tag k="natural" v="shoal" />
		<tag k="place" v="locality" />
		<tag k="ssr:stedsnr" v="692643" />
	</node>
	<node id="-37507" lat="59.4023805576" lon="5.63633332688">
		<tag k="name" v="Lindangsvågen" />
		<tag k="natural" v="bay" />
		<tag k="ssr:stedsnr" v="692680" />
	</node>
	<node id="-37506" lat="59.3879666633" lon="5.39178888098">
		<tag k="name" v="Øyodden" />
		<tag k="natural" v="cape" />
		<tag k="ssr:stedsnr" v="692236" />
	</node>
	<node id="-37505" lat="59.4129805543" lon="5.37974445318">
		<tag k="fixme" v="consider seamark:type=rock or natural=shoal" />
		<tag k="name" v="Napskjeret" />
		<tag k="place" v="islet" />
		<tag k="ssr:stedsnr" v="692234" />
	</node>
	<node id="-37503" lat="59.4072166692" lon="5.591463885">
		<tag k="name" v="Leirholmen" />
		<tag k="place" v="islet" />
		<tag k="ssr:stedsnr" v="539775" />
	</node>
	<node id="-37502" lat="59.4059472247" lon="5.59887222448">
		<tag k="name" v="Hansaholmen" />
		<tag k="place" v="islet" />
		<tag k="ssr:stedsnr" v="539772" />
	</node>
	<node id="-36970" lat="59.3519861126" lon="5.38503333863">
		<tag k="name" v="Leirvågflua" />
		<tag k="natural" v="shoal" />
		<tag k="place" v="locality" />
		<tag k="ssr:stedsnr" v="267219" />
	</node>
	<node id="-37498" lat="59.2750027741" lon="5.66442222577">
		<tag k="name" v="Synningsneset" />
		<tag k="natural" v="cape" />
		<tag k="ssr:stedsnr" v="539174" />
	</node>
	<node id="-37491" lat="59.3217527812" lon="5.65486388571">
		<tag k="name" v="Skiljavika" />
		<tag k="natural" v="bay" />
		<tag k="ssr:stedsnr" v="538565" />
	</node>
	<node id="-37490" lat="59.2593861139" lon="5.53530555132">
		<tag k="name" v="Klypeosen" />
		<tag k="natural" v="bay" />
		<tag k="ssr:stedsnr" v="691877" />
	</node>
	<node id="-37489" lat="59.2691472188" lon="5.54620000476">
		<tag k="fixme" v="consider seamark:type=rock or natural=shoal" />
		<tag k="name" v="Haugskjeret" />
		<tag k="place" v="islet" />
		<tag k="ssr:stedsnr" v="691875" />
	</node>
	<node id="-37488" lat="59.322622224" lon="5.67267778491">
		<tag k="name" v="Mollvika" />
		<tag k="natural" v="bay" />
		<tag k="ssr:stedsnr" v="538642" />
	</node>
	<node id="-37486" lat="59.3301027748" lon="5.61353333152">
		<tag k="name" v="Mellastø" />
		<tag k="natural" v="bay" />
		<tag k="ssr:stedsnr" v="538613" />
	</node>
	<node id="-37481" lat="59.2843666708" lon="5.42701667137">
		<tag k="name" v="Uravika" />
		<tag k="natural" v="bay" />
		<tag k="ssr:stedsnr" v="512666" />
	</node>
	<node id="-37480" lat="59.3619055559" lon="5.38420277596">
		<tag k="fixme" v="consider seamark:type=rock or natural=shoal" />
		<tag k="name" v="Kremmarskjeret" />
		<tag k="place" v="islet" />
		<tag k="ssr:stedsnr" v="512059" />
	</node>
	<node id="-37479" lat="59.3590027771" lon="5.38351388261">
		<tag k="fixme" v="consider seamark:type=rock or natural=shoal" />
		<tag k="name" v="Åsmundskjeret" />
		<tag k="place" v="islet" />
		<tag k="ssr:stedsnr" v="512057" />
	</node>
	<node id="-37473" lat="59.3804583296" lon="5.38876111072">
		<tag k="name" v="Lindeholmen" />
		<tag k="place" v="islet" />
		<tag k="ssr:stedsnr" v="512015" />
	</node>
	<node id="-37472" lat="59.4146166636" lon="5.37891111284">
		<tag k="name" v="Storholmen" />
		<tag k="place" v="islet" />
		<tag k="ssr:stedsnr" v="512006" />
	</node>
	<node id="-37471" lat="59.377124996" lon="5.6096888809">
		<tag k="name" v="Hundsnesvika" />
		<tag k="natural" v="bay" />
		<tag k="ssr:stedsnr" v="509683" />
	</node>
	<node id="-37469" lat="59.2766305535" lon="5.44574999896">
		<tag k="alt_name" v="Rauholmane" />
		<tag k="name" v="Raudholmane" />
		<tag k="place" v="islet" />
		<tag k="ssr:stedsnr" v="487918" />
	</node>
	<node id="-37459" lat="59.411905556" lon="5.6109861173">
		<tag k="name" v="Skogavika" />
		<tag k="natural" v="bay" />
		<tag k="ssr:stedsnr" v="478665" />
	</node>
	<node id="-37457" lat="59.3258138899" lon="5.60722500134">
		<tag k="name" v="Jotreneset" />
		<tag k="natural" v="cape" />
		<tag k="ssr:stedsnr" v="478604" />
	</node>
	<node id="-37451" lat="59.2855305573" lon="5.65053333933">
		<tag k="name" v="Ligvika" />
		<tag k="natural" v="bay" />
		<tag k="ssr:stedsnr" v="478209" />
	</node>
	<node id="-37448" lat="59.3646250035" lon="5.61350832977">
		<tag k="fixme" v="consider seamark:type=rock or natural=shoal" />
		<tag k="name" v="Spøtevikskjeret" />
		<tag k="place" v="islet" />
		<tag k="ssr:stedsnr" v="478056" />
	</node>
	<node id="-37447" lat="59.3245444407" lon="5.67648333372">
		<tag k="name" v="Naustneset" />
		<tag k="natural" v="cape" />
		<tag k="ssr:stedsnr" v="477777" />
	</node>
	<node id="-37446" lat="59.3280472197" lon="5.79504443994">
		<tag k="name" v="Breivika" />
		<tag k="natural" v="bay" />
		<tag k="ssr:stedsnr" v="477767" />
	</node>
	<node id="-37445" lat="59.4062833356" lon="5.71686110448">
		<tag k="name" v="Tjuaholet" />
		<tag k="natural" v="bay" />
		<tag k="ssr:stedsnr" v="477815" />
	</node>
	<node id="-37444" lat="59.4090611156" lon="5.73009444869">
		<tag k="name" v="Sagholet" />
		<tag k="natural" v="bay" />
		<tag k="ssr:stedsnr" v="477812" />
	</node>
	<node id="-37438" lat="59.3090472203" lon="5.59293610498">
		<tag k="fixme" v="consider seamark:type=rock or natural=shoal" />
		<tag k="name" v="Ulvaskjeret" />
		<tag k="place" v="islet" />
		<tag k="ssr:stedsnr" v="477418" />
	</node>
	<node id="-37437" lat="59.3599999994" lon="5.89283889497">
		<tag k="name" v="Slåttevika" />
		<tag k="natural" v="bay" />
		<tag k="ssr:stedsnr" v="477110" />
	</node>
	<node id="-37435" lat="59.3378111149" lon="5.87623889518">
		<tag k="name" v="Dalshamna" />
		<tag k="natural" v="bay" />
		<tag k="ssr:stedsnr" v="477220" />
	</node>
	<node id="-36959" lat="59.2879472251" lon="5.64745000463">
		<tag k="name" v="Notaneset" />
		<tag k="natural" v="cape" />
		<tag k="ssr:stedsnr" v="114215" />
	</node>
	<node id="-37432" lat="59.3990694407" lon="5.63280278604">
		<tag k="name" v="Nedvikholmen" />
		<tag k="place" v="islet" />
		<tag k="ssr:stedsnr" v="672275" />
	</node>
	<node id="-37431" lat="59.3902694443" lon="5.63373055759">
		<tag k="name" v="Søravika" />
		<tag k="natural" v="bay" />
		<tag k="ssr:stedsnr" v="672255" />
	</node>
	<node id="-37429" lat="59.3108777787" lon="5.45756388305">
		<tag k="name" v="Lamholmen" />
		<tag k="place" v="islet" />
		<tag k="ssr:stedsnr" v="670964" />
	</node>
	<node id="-37428" lat="59.2791972207" lon="5.44604444206">
		<tag k="alt_name" v="Bjødneholmen" />
		<tag k="name" v="Bjørnsholmen" />
		<tag k="place" v="islet" />
		<tag k="ssr:stedsnr" v="670905" />
	</node>
	<node id="-37419" lat="59.3685000041" lon="5.89505555251">
		<tag k="name" v="Krokaneset" />
		<tag k="natural" v="cape" />
		<tag k="ssr:stedsnr" v="670441" />
	</node>
	<node id="-37414" lat="59.3650833346" lon="5.63571665986">
		<tag k="alt_name" v="Øynarevågen;Øynaevågen" />
		<tag k="name" v="Øynarvågen" />
		<tag k="natural" v="bay" />
		<tag k="ssr:stedsnr" v="670151" />
	</node>
	<node id="-37412" lat="59.351441784" lon="5.62983297279">
		<tag k="name" v="Hattarvågen" />
		<tag k="natural" v="bay" />
		<tag k="ssr:stedsnr" v="670143" />
	</node>
	<node id="-37410" lat="59.4020583328" lon="5.67878334164">
		<tag k="alt_name" v="Skåtavika" />
		<tag k="name" v="Skotavika" />
		<tag k="natural" v="bay" />
		<tag k="ssr:stedsnr" v="670094" />
	</node>
	<node id="-37409" lat="59.4015400984" lon="5.62654158829">
		<tag k="bay" v="fjord" />
		<tag k="name" v="Lindangssjøen" />
		<tag k="natural" v="bay" />
		<tag k="ssr:stedsnr" v="670093" />
	</node>
	<node id="-37400" lat="59.2983194469" lon="5.45912500659">
		<tag k="alt_name" v="Hamnaren" />
		<tag k="name" v="Hamnarholmen" />
		<tag k="place" v="islet" />
		<tag k="ssr:stedsnr" v="669943" />
	</node>
	<node id="-37399" lat="59.299558332" lon="5.40673888606">
		<tag k="name" v="Gismarvika" />
		<tag k="natural" v="bay" />
		<tag k="ssr:stedsnr" v="669940" />
	</node>
	<node id="-37393" lat="59.2393555586" lon="5.55400277679">
		<tag k="alt_name" v="Longholmen" />
		<tag k="name" v="Langholmen" />
		<tag k="place" v="islet" />
		<tag k="ssr:stedsnr" v="669464" />
	</node>
	<node id="-37392" lat="59.2731749992" lon="5.67233611355">
		<tag k="name" v="Toftøy" />
		<tag k="place" v="island" />
		<tag k="ssr:stedsnr" v="669235" />
	</node>
	<node id="-37184" lat="59.3843999972" lon="5.40577222101">
		<tag k="name" v="Lambaklubben" />
		<tag k="natural" v="cape" />
		<tag k="ssr:stedsnr" v="330002" />
	</node>
	<node id="-37378" lat="59.2502694428" lon="5.69969722468">
		<tag k="alt_name" v="Nedstrandfjorden" />
		<tag k="bay" v="fjord" />
		<tag k="name" v="Nedstrandsfjorden" />
		<tag k="natural" v="bay" />
		<tag k="ssr:stedsnr" v="670238" />
	</node>
	<node id="-37371" lat="59.3128277818" lon="5.6453416577">
		<tag k="name" v="Narravika" />
		<tag k="natural" v="bay" />
		<tag k="ssr:stedsnr" v="670207" />
	</node>
	<node id="-37369" lat="59.4752972243" lon="5.58350555192">
		<tag k="name" v="Melkevika" />
		<tag k="natural" v="bay" />
		<tag k="ssr:stedsnr" v="661353" />
	</node>
	<node id="-37367" lat="59.3381833332" lon="5.44837777979">
		<tag k="name" v="Klubben" />
		<tag k="natural" v="cape" />
		<tag k="ssr:stedsnr" v="451730" />
	</node>
	<node id="-37363" lat="59.3353361107" lon="5.44381110739">
		<tag k="name" v="Fløytet" />
		<tag k="natural" v="bay" />
		<tag k="ssr:stedsnr" v="451708" />
	</node>
	<node id="-37357" lat="59.3834944472" lon="5.39379166701">
		<tag k="name" v="Mortavika" />
		<tag k="natural" v="bay" />
		<tag k="ssr:stedsnr" v="451022" />
	</node>
	<node id="-37356" lat="59.4543611154" lon="5.48540278144">
		<tag k="fixme" v="consider seamark:type=rock or natural=shoal" />
		<tag k="name" v="Tjuasteinen" />
		<tag k="place" v="islet" />
		<tag k="ssr:stedsnr" v="451013" />
	</node>
	<node id="-37348" lat="59.4056722182" lon="5.58738888318">
		<tag k="name" v="Elvavika" />
		<tag k="natural" v="bay" />
		<tag k="ssr:stedsnr" v="660778" />
	</node>
	<node id="-37347" lat="59.3689750037" lon="5.46957223026">
		<tag k="name" v="Klovningholmen" />
		<tag k="place" v="islet" />
		<tag k="ssr:stedsnr" v="449726" />
	</node>
	<node id="-37345" lat="59.3095111134" lon="5.71521389467">
		<tag k="name" v="Lindevikskjeret" />
		<tag k="place" v="islet" />
		<tag k="ssr:stedsnr" v="660728" />
	</node>
	<node id="-37342" lat="59.3306472182" lon="5.61400832711">
		<tag k="name" v="Kilavika" />
		<tag k="natural" v="bay" />
		<tag k="ssr:stedsnr" v="660601" />
	</node>
	<node id="-37341" lat="59.3216277801" lon="5.622872214">
		<tag k="name" v="Osmanstøa" />
		<tag k="natural" v="bay" />
		<tag k="ssr:stedsnr" v="660586" />
	</node>
	<node id="-37339" lat="59.2610055573" lon="5.53508888392">
		<tag k="fixme" v="consider seamark:type=rock or natural=shoal" />
		<tag k="name" v="Håskjeret" />
		<tag k="place" v="islet" />
		<tag k="ssr:stedsnr" v="448906" />
	</node>
	<node id="-37338" lat="59.4701638893" lon="5.56318333188">
		<tag k="alt_name" v="Neseimvika" />
		<tag k="name" v="Nesheimvika" />
		<tag k="natural" v="bay" />
		<tag k="ssr:stedsnr" v="448813" />
	</node>
	<node id="-37332" lat="59.2724416696" lon="5.62746666641">
		<tag k="name" v="Søre Lamholmen" />
		<tag k="place" v="islet" />
		<tag k="ssr:stedsnr" v="660131" />
	</node>
	<node id="-37331" lat="59.2760083364" lon="5.62537500459">
		<tag k="name" v="Hersdalsholmen" />
		<tag k="place" v="islet" />
		<tag k="ssr:stedsnr" v="660123" />
	</node>
	<node id="-37328" lat="59.3318833315" lon="5.74578611476">
		<tag k="name" v="Laksaklubben" />
		<tag k="natural" v="cape" />
		<tag k="ssr:stedsnr" v="659822" />
	</node>
	<node id="-37326" lat="59.3311666699" lon="5.75516111815">
		<tag k="name" v="Kobbarvika" />
		<tag k="natural" v="bay" />
		<tag k="ssr:stedsnr" v="659803" />
	</node>
	<node id="-37324" lat="59.4137444413" lon="5.73983333442">
		<tag k="name" v="Svartaholet" />
		<tag k="natural" v="bay" />
		<tag k="ssr:stedsnr" v="659789" />
	</node>
	<node id="-37323" lat="59.3445416681" lon="5.88336110757">
		<tag k="name" v="Stora Sandvika" />
		<tag k="natural" v="bay" />
		<tag k="ssr:stedsnr" v="659977" />
	</node>
	<node id="-37321" lat="59.3526611092" lon="5.66218611939">
		<tag k="name" v="Sandvika" />
		<tag k="natural" v="bay" />
		<tag k="ssr:stedsnr" v="659554" />
	</node>
	<node id="-37319" lat="59.354708337" lon="5.80295000181">
		<tag k="name" v="Eplevikneset" />
		<tag k="natural" v="cape" />
		<tag k="ssr:stedsnr" v="659203" />
	</node>
	<node id="-37314" lat="59.2932250031" lon="5.64292499588">
		<tag k="name" v="Rypeneset" />
		<tag k="natural" v="cape" />
		<tag k="ssr:stedsnr" v="659376" />
	</node>
	<node id="-37313" lat="59.3688083358" lon="5.89437499273">
		<tag k="name" v="Kroken" />
		<tag k="natural" v="bay" />
		<tag k="ssr:stedsnr" v="659127" />
	</node>
	<node id="-37312" lat="59.3659527737" lon="5.89032222931">
		<tag k="name" v="Åkerneset" />
		<tag k="natural" v="cape" />
		<tag k="ssr:stedsnr" v="659125" />
	</node>
	<node id="-37310" lat="59.3339083354" lon="5.6775027823">
		<tag k="name" v="Nibba" />
		<tag k="natural" v="cape" />
		<tag k="ssr:stedsnr" v="658729" />
	</node>
	<node id="-37308" lat="59.3504999965" lon="5.89107500441">
		<tag k="name" v="Kuneset" />
		<tag k="natural" v="cape" />
		<tag k="ssr:stedsnr" v="428616" />
	</node>
	<node id="-37307" lat="59.5201222193" lon="5.50273055357">
		<tag k="alt_name" v="Ålvikfjorden;Ålfjord" />
		<tag k="bay" v="fjord" />
		<tag k="name" v="Ålfjorden" />
		<tag k="natural" v="bay" />
		<tag k="ssr:stedsnr" v="428005" />
	</node>
	<node id="-37306" lat="59.4942722189" lon="5.57783610523">
		<tag k="bay" v="fjord" />
		<tag k="name" v="Skjoldafjorden" />
		<tag k="natural" v="bay" />
		<tag k="ssr:stedsnr" v="427809" />
	</node>
	<node id="-37303" lat="59.3529611144" lon="5.89346667303">
		<tag k="alt_name" v="Smeaholmane" />
		<tag k="name" v="Smedaholmen" />
		<tag k="place" v="islet" />
		<tag k="ssr:stedsnr" v="427503" />
	</node>
	<node id="-37301" lat="59.3993000037" lon="5.86417500769">
		<tag k="name" v="Revaneset" />
		<tag k="natural" v="cape" />
		<tag k="ssr:stedsnr" v="427417" />
	</node>
	<node id="-37298" lat="59.4047250016" lon="5.68682500345">
		<tag k="name" v="Slogavika" />
		<tag k="natural" v="bay" />
		<tag k="ssr:stedsnr" v="427045" />
	</node>
	<node id="-37292" lat="59.4292666637" lon="5.6233805488">
		<tag k="name" v="Skjoldastraumen" />
		<tag k="natural" v="strait" />
		<tag k="ssr:stedsnr" v="418906" />
	</node>
	<node id="-37290" lat="59.2762194484" lon="5.52892222004">
		<tag k="name" v="Skjenet" />
		<tag k="natural" v="bay" />
		<tag k="ssr:stedsnr" v="418332" />
	</node>
	<node id="-37289" lat="59.3522333295" lon="5.61426666968">
		<tag k="name" v="Steinsvika" />
		<tag k="natural" v="bay" />
		<tag k="ssr:stedsnr" v="417809" />
	</node>
	<node id="-37287" lat="59.427024999" lon="5.78942221597">
		<tag k="name" v="Neset" />
		<tag k="natural" v="cape" />
		<tag k="ssr:stedsnr" v="417914" />
	</node>
	<node id="-37286" lat="59.3153027773" lon="5.72743610244">
		<tag k="name" v="Knutsneset" />
		<tag k="natural" v="cape" />
		<tag k="ssr:stedsnr" v="417911" />
	</node>
	<node id="-37283" lat="59.3055666699" lon="5.64715555079">
		<tag k="name" v="Amdalsvika" />
		<tag k="natural" v="bay" />
		<tag k="ssr:stedsnr" v="417509" />
	</node>
	<node id="-37281" lat="59.2873499985" lon="5.64973889001">
		<tag k="name" v="Fabnavågen" />
		<tag k="natural" v="bay" />
		<tag k="ssr:stedsnr" v="417223" />
	</node>
	<node id="-37280" lat="59.2884305554" lon="5.69859166938">
		<tag k="name" v="Varholmen" />
		<tag k="place" v="islet" />
		<tag k="ssr:stedsnr" v="417210" />
	</node>
	<node id="-37277" lat="59.3463583292" lon="5.81316667238">
		<tag k="name" v="Vika" />
		<tag k="natural" v="bay" />
		<tag k="ssr:stedsnr" v="417139" />
	</node>
	<node id="-39322" lat="59.3453397424" lon="5.86535278705">
		<tag k="name" v="Solstrand" />
		<tag k="natural" v="beach" />
		<tag k="place" v="locality" />
		<tag k="ssr:stedsnr" v="979618" />
	</node>
	<node id="-37273" lat="59.3412055539" lon="5.80205555217">
		<tag k="name" v="Skodaberget" />
		<tag k="natural" v="cape" />
		<tag k="ssr:stedsnr" v="416227" />
	</node>
	<node id="-39320" lat="59.445393" lon="5.48558244949">
		<tag k="alt_name" v="Grindeøyane" />
		<tag k="name" v="Grindøyane" />
		<tag k="place" v="island" />
		<tag k="ssr:stedsnr" v="974460" />
	</node>
	<node id="-39318" lat="59.4312250038" lon="5.51022222034">
		<tag k="name" v="Austvika" />
		<tag k="natural" v="bay" />
		<tag k="ssr:stedsnr" v="964487" />
	</node>
	<node id="-37268" lat="59.3605583372" lon="5.46504723018">
		<tag k="name" v="Troppeneset" />
		<tag k="natural" v="cape" />
		<tag k="ssr:stedsnr" v="512047" />
	</node>
	<node id="-37266" lat="59.296674998" lon="5.46794444034">
		<tag k="name" v="Eikjesvika" />
		<tag k="natural" v="bay" />
		<tag k="ssr:stedsnr" v="511649" />
	</node>
	<node id="-39313" lat="59.3282555575" lon="5.74873610457">
		<tag k="name" v="Indra Skarpaneset" />
		<tag k="natural" v="cape" />
		<tag k="ssr:stedsnr" v="963823" />
	</node>
	<node id="-37264" lat="59.3024277788" lon="5.45858888162">
		<tag k="fixme" v="consider seamark:type=rock or natural=shoal" />
		<tag k="name" v="Flataskjeret" />
		<tag k="place" v="islet" />
		<tag k="ssr:stedsnr" v="511638" />
	</node>
	<node id="-37272" lat="59.3395249996" lon="5.87504443758">
		<tag k="name" v="Kjøphammarvika" />
		<tag k="natural" v="bay" />
		<tag k="ssr:stedsnr" v="416202" />
	</node>
	<node id="-37262" lat="59.29488611" lon="5.42707777948">
		<tag k="name" v="Grønevika" />
		<tag k="natural" v="bay" />
		<tag k="ssr:stedsnr" v="511629" />
	</node>
	<node id="-37261" lat="59.3266331294" lon="5.48634182613">
		<tag k="alt_name" v="Bjørnsvika" />
		<tag k="name" v="Bjønnsvika" />
		<tag k="natural" v="bay" />
		<tag k="ssr:stedsnr" v="511620" />
	</node>
	<node id="-39308" lat="59.3337388861" lon="5.83225555716">
		<tag k="name" v="Store Tedholmen" />
		<tag k="place" v="islet" />
		<tag k="ssr:stedsnr" v="963767" />
	</node>
	<node id="-39307" lat="59.3232722264" lon="5.60007500576">
		<tag k="name" v="Gongstøvika" />
		<tag k="natural" v="bay" />
		<tag k="ssr:stedsnr" v="963733" />
	</node>
	<node id="-37258" lat="59.4909694477" lon="5.46769444753">
		<tag k="alt_name" v="Fjellheimsvågen" />
		<tag k="name" v="Fjelleimsvågen" />
		<tag k="natural" v="bay" />
		<tag k="ssr:stedsnr" v="511708" />
	</node>
	<node id="-39304" lat="59.2984722228" lon="5.64328610844">
		<tag k="name" v="Stutavika" />
		<tag k="natural" v="bay" />
		<tag k="ssr:stedsnr" v="963527" />
	</node>
	<node id="-37254" lat="59.3428916623" lon="5.45506666585">
		<tag k="name" v="Sandnesodden" />
		<tag k="natural" v="cape" />
		<tag k="ssr:stedsnr" v="511667" />
	</node>
	<node id="-37253" lat="59.3081305528" lon="5.45491667235">
		<tag k="fixme" v="consider seamark:type=rock or natural=shoal" />
		<tag k="name" v="Skjeret" />
		<tag k="place" v="islet" />
		<tag k="ssr:stedsnr" v="511662" />
	</node>
	<node id="-37252" lat="59.294508332" lon="5.4001194388">
		<tag k="fixme" v="consider seamark:type=rock or natural=shoal" />
		<tag k="name" v="Skarveskjeret" />
		<tag k="place" v="islet" />
		<tag k="ssr:stedsnr" v="511163" />
	</node>
	<node id="-39298" lat="59.3226972214" lon="5.62948333103">
		<tag k="name" v="Terlehammaren" />
		<tag k="natural" v="cape" />
		<tag k="ssr:stedsnr" v="963596" />
	</node>
	<node id="-39294" lat="59.2902500027" lon="5.64674999978">
		<tag k="name" v="Søyla" />
		<tag k="natural" v="bay" />
		<tag k="ssr:stedsnr" v="963242" />
	</node>
	<node id="-37245" lat="59.3333735273" lon="5.74071287192">
		<tag k="alt_name" v="Leirongvika" />
		<tag k="name" v="Leirangsvika" />
		<tag k="natural" v="bay" />
		<tag k="ssr:stedsnr" v="510489" />
	</node>
	<node id="-37244" lat="59.4077638881" lon="5.72611111818">
		<tag k="alt_name" v="Badnavika" />
		<tag k="name" v="Barnavika" />
		<tag k="natural" v="bay" />
		<tag k="ssr:stedsnr" v="509619" />
	</node>
	<node id="-37243" lat="59.4602305597" lon="5.59051943546">
		<tag k="name" v="Hammaren" />
		<tag k="natural" v="cape" />
		<tag k="ssr:stedsnr" v="509747" />
	</node>
	<node id="-37242" lat="59.4427800514" lon="5.49404734087">
		<tag k="fixme" v="consider seamark:type=rock or natural=shoal" />
		<tag k="name" v="Svartskjeret" />
		<tag k="place" v="islet" />
		<tag k="ssr:stedsnr" v="508851" />
	</node>
	<node id="-37241" lat="59.3333555576" lon="5.81361111847">
		<tag k="name" v="Hestflua" />
		<tag k="place" v="locality" />
		<tag k="seamark:type" v="rock" />
		<tag k="ssr:stedsnr" v="403473" />
	</node>
	<node id="-37239" lat="59.3059444407" lon="5.45789443664">
		<tag k="fixme" v="consider seamark:type=rock or natural=shoal" />
		<tag k="name" v="Krabbaskjeret" />
		<tag k="place" v="islet" />
		<tag k="ssr:stedsnr" v="390659" />
	</node>
	<node id="-37238" lat="59.2804861104" lon="5.47021667087">
		<tag k="name" v="Søre Susortvika" />
		<tag k="natural" v="bay" />
		<tag k="ssr:stedsnr" v="390616" />
	</node>
	<node id="-37236" lat="59.4201972241" lon="5.38335277292">
		<tag k="name" v="Nesodden" />
		<tag k="natural" v="cape" />
		<tag k="ssr:stedsnr" v="390009" />
	</node>
	<node id="-39283" lat="59.2770444418" lon="5.63064444738">
		<tag k="name" v="Myrholmen" />
		<tag k="place" v="islet" />
		<tag k="ssr:stedsnr" v="963130" />
	</node>
	<node id="-37234" lat="59.3359972249" lon="5.45179721621">
		<tag k="name" v="Leiregrunnen" />
		<tag k="natural" v="shoal" />
		<tag k="place" v="locality" />
		<tag k="ssr:stedsnr" v="388723" />
	</node>
	<node id="-39280" lat="59.3607333319" lon="5.61349167383">
		<tag k="name" v="Skrapavikneset" />
		<tag k="natural" v="cape" />
		<tag k="ssr:stedsnr" v="963079" />
	</node>
	<node id="-37231" lat="59.3984444448" lon="5.63469721374">
		<tag k="name" v="Stora Nedvika" />
		<tag k="natural" v="bay" />
		<tag k="ssr:stedsnr" v="490296" />
	</node>
	<node id="-37229" lat="59.3230793088" lon="5.44865425789">
		<tag k="name" v="Baståsvika" />
		<tag k="natural" v="bay" />
		<tag k="ssr:stedsnr" v="488979" />
	</node>
	<node id="-39275" lat="59.2763888868" lon="5.43320833579">
		<tag k="fixme" v="consider seamark:type=rock or natural=shoal" />
		<tag k="name" v="Vindballskjer" />
		<tag k="place" v="islet" />
		<tag k="ssr:stedsnr" v="876117" />
	</node>
	<node id="-37226" lat="59.4507472249" lon="5.48241944881">
		<tag k="alt_name" v="Aurlandsøya;Aurslandsøya" />
		<tag k="name" v="Aurslandsøyna" />
		<tag k="place" v="islet" />
		<tag k="ssr:stedsnr" v="488792" />
	</node>
	<node id="-39272" lat="59.3809583309" lon="5.40289167315">
		<tag k="name" v="Søylå" />
		<tag k="natural" v="bay" />
		<tag k="ssr:stedsnr" v="876002" />
	</node>
	<node id="-39271" lat="59.3083388935" lon="5.46060555992">
		<tag k="name" v="Lamholmflua" />
		<tag k="natural" v="shoal" />
		<tag k="place" v="locality" />
		<tag k="ssr:stedsnr" v="874635" />
	</node>
	<node id="-39270" lat="59.291219441" lon="5.69695277345">
		<tag k="name" v="Heimraflua" />
		<tag k="natural" v="shoal" />
		<tag k="place" v="locality" />
		<tag k="ssr:stedsnr" v="874572" />
	</node>
	<node id="-37221" lat="59.2583750041" lon="5.52782500425">
		<tag k="alt_name" v="Følgje" />
		<tag k="name" v="Brattholmen" />
		<tag k="place" v="islet" />
		<tag k="ssr:stedsnr" v="488615" />
	</node>
	<node id="-39268" lat="59.2542361142" lon="5.52422777049">
		<tag k="fixme" v="consider seamark:type=rock or natural=shoal" />
		<tag k="name" v="Håskjeret" />
		<tag k="place" v="islet" />
		<tag k="ssr:stedsnr" v="873885" />
	</node>
	<node id="-39267" lat="59.2715972252" lon="5.52591666151">
		<tag k="fixme" v="consider seamark:type=rock or natural=shoal" />
		<tag k="name" v="Nautaskjera" />
		<tag k="place" v="islet" />
		<tag k="ssr:stedsnr" v="873884" />
	</node>
	<node id="-39264" lat="59.2558555525" lon="5.53304999156">
		<tag k="name" v="Grasskjeret" />
		<tag k="place" v="islet" />
		<tag k="ssr:stedsnr" v="873881" />
	</node>
	<node id="-39312" lat="59.3314472246" lon="5.76427778077">
		<tag k="name" v="Kveitevika" />
		<tag k="natural" v="bay" />
		<tag k="ssr:stedsnr" v="963817" />
	</node>
	<node id="-39292" lat="59.2911527807" lon="5.64385000543">
		<tag k="name" v="Nordra Ropavika" />
		<tag k="natural" v="bay" />
		<tag k="ssr:stedsnr" v="963232" />
	</node>
	<node id="-37263" lat="59.3294083377" lon="5.48154999769">
		<tag k="name" v="Prestaneset" />
		<tag k="natural" v="cape" />
		<tag k="ssr:stedsnr" v="511632" />
	</node>
	<node id="-39252" lat="59.3015060851" lon="5.70363575507">
		<tag k="alt_name" v="Longøyna" />
		<tag k="loc_name" v="Langøyna" />
		<tag k="name" v="Langøya" />
		<tag k="place" v="island" />
		<tag k="ssr:stedsnr" v="852260" />
	</node>
	<node id="-37201" lat="59.3396527777" lon="5.4025138804">
		<tag k="alt_name" v="Hetlandvågen" />
		<tag k="name" v="Hetlandsvågen" />
		<tag k="natural" v="bay" />
		<tag k="ssr:stedsnr" v="487562" />
	</node>
	<node id="-37200" lat="59.2601916636" lon="5.64690833515">
		<tag k="name" v="Stongshælen" />
		<tag k="natural" v="cape" />
		<tag k="ssr:stedsnr" v="487259" />
	</node>
	<node id="-37198" lat="59.2633944402" lon="5.66209999941">
		<tag k="alt_name" v="Børøya" />
		<tag k="name" v="Børe" />
		<tag k="place" v="islet" />
		<tag k="ssr:stedsnr" v="487250" />
	</node>
	<node id="-39243" lat="59.4120055583" lon="5.71533610691">
		<tag k="alt_name" v="Yrkjefjorden;Yrkjesfjorden" />
		<tag k="bay" v="fjord" />
		<tag k="name" v="Yrkefjorden" />
		<tag k="natural" v="bay" />
		<tag k="ssr:stedsnr" v="852029" />
	</node>
	<node id="-37194" lat="59.3186111112" lon="5.59944999409">
		<tag k="alt_name" v="Hervikholmen" />
		<tag k="name" v="Holmen" />
		<tag k="place" v="islet" />
		<tag k="ssr:stedsnr" v="487207" />
	</node>
	<node id="-39241" lat="59.4773666663" lon="5.58045277718">
		<tag k="name" v="Nessundet" />
		<tag k="natural" v="strait" />
		<tag k="ssr:stedsnr" v="843393" />
	</node>
	<node id="-39237" lat="59.3268722234" lon="5.78565832524">
		<tag k="name" v="Tjeldvika" />
		<tag k="natural" v="bay" />
		<tag k="ssr:stedsnr" v="842736" />
	</node>
	<node id="-36973" lat="59.404747221" lon="5.68425833468">
		<tag k="name" v="Grønaneset" />
		<tag k="natural" v="cape" />
		<tag k="ssr:stedsnr" v="268501" />
	</node>
	<node id="-39235" lat="59.3305888884" lon="5.74638611486">
		<tag k="name" v="Humravika" />
		<tag k="natural" v="bay" />
		<tag k="ssr:stedsnr" v="842799" />
	</node>
	<node id="-39234" lat="59.3280166637" lon="5.74707221698">
		<tag k="name" v="Askvika" />
		<tag k="natural" v="bay" />
		<tag k="ssr:stedsnr" v="842797" />
	</node>
	<node id="-39233" lat="59.3511777792" lon="5.61453055475">
		<tag k="name" v="Guleholmen" />
		<tag k="place" v="islet" />
		<tag k="ssr:stedsnr" v="842786" />
	</node>
	<node id="-39232" lat="59.4065444427" lon="5.60912499431">
		<tag k="name" v="Rindaholmen" />
		<tag k="place" v="islet" />
		<tag k="ssr:stedsnr" v="842647" />
	</node>
	<node id="-37183" lat="59.4291750026" lon="5.62183611806">
		<tag k="name" v="Holmen" />
		<tag k="place" v="islet" />
		<tag k="ssr:stedsnr" v="329820" />
	</node>
	<node id="-37181" lat="59.2957944433" lon="5.43754443981">
		<tag k="alt_name" v="Labbavik" />
		<tag k="name" v="Labbavika" />
		<tag k="natural" v="bay" />
		<tag k="ssr:stedsnr" v="329639" />
	</node>
	<node id="-37180" lat="59.3142527797" lon="5.45550833905">
		<tag k="name" v="Neset" />
		<tag k="natural" v="cape" />
		<tag k="ssr:stedsnr" v="329631" />
	</node>
	<node id="-37179" lat="59.2949750027" lon="5.4126694404">
		<tag k="name" v="Bekkjarvikodden" />
		<tag k="natural" v="cape" />
		<tag k="ssr:stedsnr" v="329629" />
	</node>
	<node id="-37172" lat="59.3329138904" lon="5.67904167239">
		<tag k="name" v="Nibbesundet" />
		<tag k="natural" v="strait" />
		<tag k="ssr:stedsnr" v="327620" />
	</node>
	<node id="-39219" lat="59.3048777754" lon="5.70580277128">
		<tag k="name" v="Giljavika" />
		<tag k="natural" v="bay" />
		<tag k="ssr:stedsnr" v="842093" />
	</node>
	<node id="-39218" lat="59.2968527777" lon="5.69977777788">
		<tag k="name" v="Kvitanesvika" />
		<tag k="natural" v="bay" />
		<tag k="ssr:stedsnr" v="842087" />
	</node>
	<node id="-39217" lat="59.3577470799" lon="5.62552577943">
		<tag k="name" v="Hattavika" />
		<tag k="natural" v="bay" />
		<tag k="ssr:stedsnr" v="842073" />
	</node>
	<node id="-39216" lat="59.3622277764" lon="5.61497778638">
		<tag k="name" v="Skrapavikholmen" />
		<tag k="place" v="islet" />
		<tag k="ssr:stedsnr" v="842062" />
	</node>
	<node id="-39215" lat="59.2795083303" lon="5.67787222594">
		<tag k="name" v="Skoganeset" />
		<tag k="natural" v="cape" />
		<tag k="ssr:stedsnr" v="842190" />
	</node>
	<node id="-39214" lat="59.2719722263" lon="5.66192778535">
		<tag k="name" v="Sørensholmen" />
		<tag k="place" v="islet" />
		<tag k="ssr:stedsnr" v="842188" />
	</node>
	<node id="-37164" lat="59.3240611125" lon="5.64717776945">
		<tag k="name" v="Habn" />
		<tag k="natural" v="bay" />
		<tag k="ssr:stedsnr" v="478547" />
	</node>
	<node id="-39211" lat="59.3443138889" lon="5.85477500192">
		<tag k="name" v="Roseberget" />
		<tag k="natural" v="cape" />
		<tag k="ssr:stedsnr" v="841234" />
	</node>
	<node id="-39207" lat="59.3174083336" lon="5.77333334068">
		<tag k="name" v="Vargavikgrunnen" />
		<tag k="natural" v="shoal" />
		<tag k="place" v="locality" />
		<tag k="ssr:stedsnr" v="828454" />
	</node>
	<node id="-39206" lat="59.2762499998" lon="5.4783333294">
		<tag k="alt_name" v="Sanden" />
		<tag k="name" v="Bustøsanden" />
		<tag k="natural" v="bay" />
		<tag k="ssr:stedsnr" v="816701" />
	</node>
	<node id="-39203" lat="59.3873138874" lon="5.40472222289">
		<tag k="name" v="Grønvika" />
		<tag k="natural" v="bay" />
		<tag k="ssr:stedsnr" v="816002" />
	</node>
	<node id="-39202" lat="59.4889166651" lon="5.45635832759">
		<tag k="name" v="Lillandsvika" />
		<tag k="natural" v="bay" />
		<tag k="ssr:stedsnr" v="815748" />
	</node>
	<node id="-37152" lat="59.32720833" lon="5.74565278351">
		<tag k="name" v="Ytra Skarpaneset" />
		<tag k="natural" v="cape" />
		<tag k="ssr:stedsnr" v="477846" />
	</node>
	<node id="-39197" lat="59.3947805531" lon="5.47403054838">
		<tag k="name" v="Hadleholmen" />
		<tag k="place" v="islet" />
		<tag k="ssr:stedsnr" v="815699" />
	</node>
	<node id="-39196" lat="59.3218166687" lon="5.45975277339">
		<tag k="name" v="Straumsneset" />
		<tag k="natural" v="cape" />
		<tag k="ssr:stedsnr" v="815650" />
	</node>
	<node id="-39194" lat="59.3239333342" lon="5.4606611107">
		<tag k="name" v="Straumane" />
		<tag k="natural" v="strait" />
		<tag k="ssr:stedsnr" v="815629" />
	</node>
	<node id="-39192" lat="59.283425" lon="5.45444722532">
		<tag k="name" v="Asalgrunnen" />
		<tag k="natural" v="shoal" />
		<tag k="place" v="locality" />
		<tag k="ssr:stedsnr" v="814650" />
	</node>
	<node id="-39189" lat="59.3535916692" lon="5.6603000027">
		<tag k="name" v="Naustneset" />
		<tag k="natural" v="cape" />
		<tag k="ssr:stedsnr" v="813647" />
	</node>
	<node id="-39188" lat="59.264588893" lon="5.6799583275">
		<tag k="name" v="Søreflua" />
		<tag k="natural" v="shoal" />
		<tag k="place" v="locality" />
		<tag k="ssr:stedsnr" v="813546" />
	</node>
	<node id="-39187" lat="59.2775583344" lon="5.69799444365">
		<tag k="name" v="Søraflua" />
		<tag k="natural" v="shoal" />
		<tag k="place" v="locality" />
		<tag k="ssr:stedsnr" v="813540" />
	</node>
	<node id="-39186" lat="59.2860694416" lon="5.70294999757">
		<tag k="name" v="Gåsavika" />
		<tag k="natural" v="bay" />
		<tag k="ssr:stedsnr" v="813538" />
	</node>
	<node id="-39185" lat="59.3292555591" lon="5.7448611119">
		<tag k="alt_name" v="Kodlevåg" />
		<tag k="loc_name" v="Kollevågen" />
		<tag k="name" v="Kollevåg" />
		<tag k="natural" v="bay" />
		<tag k="ssr:stedsnr" v="813100" />
	</node>
	<node id="-39183" lat="59.2728611082" lon="5.52744444752">
		<tag k="fixme" v="consider seamark:type=rock or natural=shoal" />
		<tag k="name" v="Kårstøskjeret" />
		<tag k="place" v="islet" />
		<tag k="ssr:stedsnr" v="812908" />
	</node>
	<node id="-39182" lat="59.2707250027" lon="5.54665555456">
		<tag k="fixme" v="consider seamark:type=rock or natural=shoal" />
		<tag k="name" v="Kisteskjeret" />
		<tag k="place" v="islet" />
		<tag k="ssr:stedsnr" v="812906" />
	</node>
	<node id="-39181" lat="59.4632305529" lon="5.55008054921">
		<tag k="alt_name" v="Stora Kråkå" />
		<tag k="name" v="Stora Kråke" />
		<tag k="place" v="islet" />
		<tag k="ssr:stedsnr" v="812794" />
	</node>
	<node id="-39180" lat="59.381380555" lon="5.64001943823">
		<tag k="name" v="Tingvika" />
		<tag k="natural" v="bay" />
		<tag k="ssr:stedsnr" v="794281" />
	</node>
	<node id="-39179" lat="59.3158499964" lon="5.45382221772">
		<tag k="name" v="Mjåsundet" />
		<tag k="natural" v="strait" />
		<tag k="ssr:stedsnr" v="791975" />
	</node>
	<node id="-39178" lat="59.3226583347" lon="5.393366674">
		<tag k="alt_name" v="Dyrneset" />
		<tag k="name" v="Dyrnes" />
		<tag k="natural" v="cape" />
		<tag k="ssr:stedsnr" v="791970" />
	</node>
	<node id="-37125" lat="59.4038972193" lon="5.68259443857">
		<tag k="alt_name" v="Søllesvika" />
		<tag k="name" v="Sølevika" />
		<tag k="natural" v="bay" />
		<tag k="ssr:stedsnr" v="268502" />
	</node>
	<node id="-39171" lat="59.2818638934" lon="5.42915555822">
		<tag k="name" v="Klungerholmen" />
		<tag k="place" v="islet" />
		<tag k="ssr:stedsnr" v="791911" />
	</node>
	<node id="-39170" lat="59.483772224" lon="5.57968055555">
		<tag k="alt_name" v="Nesøya" />
		<tag k="name" v="Nesøyna" />
		<tag k="place" v="island" />
		<tag k="ssr:stedsnr" v="791873" />
	</node>
	<node id="-37121" lat="59.2847749961" lon="5.43393054718">
		<tag k="fixme" v="consider seamark:type=rock or natural=shoal" />
		<tag k="name" v="Karivarpet" />
		<tag k="place" v="islet" />
		<tag k="ssr:stedsnr" v="452651" />
	</node>
	<node id="-39168" lat="59.2735999983" lon="5.66512222588">
		<tag k="name" v="Toftøysundet" />
		<tag k="natural" v="strait" />
		<tag k="ssr:stedsnr" v="791251" />
	</node>
	<node id="-39166" lat="59.2980250016" lon="5.58160833698">
		<tag k="alt_name" v="Strandi" />
		<tag k="name" v="Stranda" />
		<tag k="natural" v="beach" />
		<tag k="place" v="locality" />
		<tag k="ssr:stedsnr" v="791244" />
	</node>
	<node id="-39165" lat="59.2870333354" lon="5.60631111047">
		<tag k="bay" v="fjord" />
		<tag k="name" v="Hervikfjorden" />
		<tag k="natural" v="bay" />
		<tag k="ssr:stedsnr" v="791242" />
	</node>
	<node id="-37116" lat="59.2972361141" lon="5.39262222595">
		<tag k="name" v="Store Floholmen" />
		<tag k="place" v="islet" />
		<tag k="ssr:stedsnr" v="451673" />
	</node>
	<node id="-37115" lat="59.2971611148" lon="5.40897221825">
		<tag k="name" v="Gulnakken" />
		<tag k="natural" v="cape" />
		<tag k="ssr:stedsnr" v="451667" />
	</node>
	<node id="-39162" lat="59.3570888904" lon="5.61465555852">
		<tag k="name" v="Låvavikholmen" />
		<tag k="place" v="islet" />
		<tag k="ssr:stedsnr" v="791147" />
	</node>
	<node id="-37113" lat="59.2962222215" lon="5.46332500113">
		<tag k="name" v="Eikjesflua" />
		<tag k="natural" v="shoal" />
		<tag k="place" v="locality" />
		<tag k="ssr:stedsnr" v="451645" />
	</node>
	<node id="-37109" lat="59.2712341182" lon="5.49588879196">
		<tag k="alt_name" v="Tunganeset" />
		<tag k="name" v="Tungeneset" />
		<tag k="natural" v="cape" />
		<tag k="ssr:stedsnr" v="451089" />
	</node>
	<node id="-39156" lat="59.3717583364" lon="5.63912222002">
		<tag k="alt_name" v="Øynatongjen" />
		<tag k="name" v="Øynareneset" />
		<tag k="natural" v="cape" />
		<tag k="ssr:stedsnr" v="791097" />
	</node>
	<node id="-37106" lat="59.3059277737" lon="5.64722499307">
		<tag k="name" v="Amdalsvika" />
		<tag k="natural" v="bay" />
		<tag k="ssr:stedsnr" v="450593" />
	</node>
	<node id="-37105" lat="59.3592222207" lon="5.46292778034">
		<tag k="name" v="Dukken" />
		<tag k="natural" v="cape" />
		<tag k="ssr:stedsnr" v="450254" />
	</node>
	<node id="-37103" lat="59.3522666656" lon="5.65531945006">
		<tag k="name" v="Skåtavika" />
		<tag k="natural" v="bay" />
		<tag k="ssr:stedsnr" v="449698" />
	</node>
	<node id="-37102" lat="59.3966377872" lon="5.678601157">
		<tag k="name" v="Duvika" />
		<tag k="natural" v="bay" />
		<tag k="ssr:stedsnr" v="449682" />
	</node>
	<node id="-37100" lat="59.4379050175" lon="5.46687048668">
		<tag k="name" v="Grindavågen" />
		<tag k="natural" v="bay" />
		<tag k="ssr:stedsnr" v="448798" />
	</node>
	<node id="-39146" lat="59.3384388885" lon="5.44440278031">
		<tag k="name" v="Haukåsvågen" />
		<tag k="natural" v="bay" />
		<tag k="ssr:stedsnr" v="790990" />
	</node>
	<node id="-39145" lat="59.2859249974" lon="5.64534722645">
		<tag k="alt_name" v="Bakkeviksvågen" />
		<tag k="name" v="Svinavika" />
		<tag k="natural" v="bay" />
		<tag k="ssr:stedsnr" v="791232" />
	</node>
	<node id="-39144" lat="59.2860277748" lon="5.63533610813">
		<tag k="name" v="Munkholmen" />
		<tag k="place" v="islet" />
		<tag k="ssr:stedsnr" v="791230" />
	</node>
	<node id="-39143" lat="59.2810296031" lon="5.66110149871">
		<tag k="alt_name" v="Håøya, l;Litla Håøya" />
		<tag k="name" v="Litla Håøyna" />
		<tag k="place" v="islet" />
		<tag k="ssr:stedsnr" v="791217" />
	</node>
	<node id="-37093" lat="59.4168999969" lon="5.75699722841">
		<tag k="name" v="Vassendvika" />
		<tag k="natural" v="bay" />
		<tag k="ssr:stedsnr" v="245052" />
	</node>
	<node id="-37090" lat="59.325910595" lon="5.47783302526">
		<tag k="alt_name" v="Vågen" />
		<tag k="name" v="Tysværvågen" />
		<tag k="natural" v="bay" />
		<tag k="ssr:stedsnr" v="245153" />
	</node>
	<node id="-37089" lat="59.3495250037" lon="5.65316666218">
		<tag k="name" v="Karivika" />
		<tag k="natural" v="bay" />
		<tag k="ssr:stedsnr" v="245122" />
	</node>
	<node id="-39136" lat="59.3847583315" lon="5.40033888666">
		<tag k="alt_name" v="Sørvågvågen" />
		<tag k="name" v="Sørvågen" />
		<tag k="natural" v="bay" />
		<tag k="ssr:stedsnr" v="790631" />
	</node>
	<node id="-39133" lat="59.4458583356" lon="5.61300555162">
		<tag k="name" v="Laberget" />
		<tag k="natural" v="cape" />
		<tag k="ssr:stedsnr" v="783000" />
	</node>
	<node id="-39128" lat="59.4323166634" lon="5.51914444148">
		<tag k="name" v="Forekamsvika" />
		<tag k="natural" v="bay" />
		<tag k="ssr:stedsnr" v="782452" />
	</node>
	<node id="-39126" lat="59.338633332" lon="5.6259861173">
		<tag k="fixme" v="consider seamark:type=rock or natural=shoal" />
		<tag k="name" v="Kobben" />
		<tag k="place" v="islet" />
		<tag k="ssr:stedsnr" v="781986" />
	</node>
	<node id="-39125" lat="59.3550805519" lon="5.65279445155">
		<tag k="name" v="Breivika" />
		<tag k="natural" v="bay" />
		<tag k="ssr:stedsnr" v="781982" />
	</node>
	<node id="-39124" lat="59.3004666661" lon="5.6814166614">
		<tag k="name" v="Ausvår" />
		<tag k="natural" v="bay" />
		<tag k="ssr:stedsnr" v="781977" />
	</node>
	<node id="-37069" lat="59.3611138923" lon="5.47188333626">
		<tag k="name" v="Hestaneset" />
		<tag k="natural" v="cape" />
		<tag k="ssr:stedsnr" v="209035" />
	</node>
	<node id="-39113" lat="59.409611109" lon="5.58334167301">
		<tag k="name" v="Svinalivika" />
		<tag k="natural" v="bay" />
		<tag k="ssr:stedsnr" v="781824" />
	</node>
	<node id="-39112" lat="59.4128333374" lon="5.59211666373">
		<tag k="name" v="Brunnadalsvika" />
		<tag k="natural" v="bay" />
		<tag k="ssr:stedsnr" v="781814" />
	</node>
	<node id="-39111" lat="59.4074055595" lon="5.59379166632">
		<tag k="name" v="Longholmen" />
		<tag k="place" v="islet" />
		<tag k="ssr:stedsnr" v="781808" />
	</node>
	<node id="-39110" lat="59.4179555539" lon="5.76208611894">
		<tag k="alt_name" v="Hola" />
		<tag k="name" v="Holet" />
		<tag k="natural" v="bay" />
		<tag k="ssr:stedsnr" v="781788" />
	</node>
	<node id="-39109" lat="59.3376750022" lon="5.61434444124">
		<tag k="name" v="Vodlevika" />
		<tag k="natural" v="bay" />
		<tag k="ssr:stedsnr" v="781787" />
	</node>
	<node id="-37058" lat="59.4091305546" lon="5.5982722233">
		<tag k="name" v="Flatholmen" />
		<tag k="place" v="islet" />
		<tag k="ssr:stedsnr" v="296793" />
	</node>
	<node id="-37057" lat="59.3457166705" lon="5.61361388194">
		<tag k="name" v="Sandvika" />
		<tag k="natural" v="bay" />
		<tag k="ssr:stedsnr" v="296761" />
	</node>
	<node id="-39102" lat="59.3833861111" lon="5.89219444923">
		<tag k="name" v="Oskevika" />
		<tag k="natural" v="bay" />
		<tag k="ssr:stedsnr" v="781763" />
	</node>
	<node id="-39101" lat="59.3316972254" lon="5.80129721848">
		<tag k="name" v="Steinvika" />
		<tag k="natural" v="bay" />
		<tag k="ssr:stedsnr" v="781756" />
	</node>
	<node id="-39100" lat="59.3200638867" lon="5.59974444974">
		<tag k="name" v="Sundet" />
		<tag k="natural" v="strait" />
		<tag k="ssr:stedsnr" v="781735" />
	</node>
	<node id="-37051" lat="59.3210589882" lon="5.5956395259">
		<tag k="name" v="Hervikvågen" />
		<tag k="natural" v="bay" />
		<tag k="ssr:stedsnr" v="296692" />
	</node>
	<node id="-39097" lat="59.3216805517" lon="5.59903888842">
		<tag k="name" v="Neset" />
		<tag k="natural" v="cape" />
		<tag k="ssr:stedsnr" v="781724" />
	</node>
	<node id="-37045" lat="59.4175416704" lon="5.62594166591">
		<tag k="name" v="Hesthammarvika" />
		<tag k="natural" v="bay" />
		<tag k="ssr:stedsnr" v="296638" />
	</node>
	<node id="-36894" lat="59.3339638912" lon="5.82971944965">
		<tag k="name" v="Litla Tedholmen" />
		<tag k="place" v="islet" />
		<tag k="ssr:stedsnr" v="53765" />
	</node>
	<node id="-39090" lat="59.3131861156" lon="5.64818055968">
		<tag k="name" v="Søra Narravika" />
		<tag k="natural" v="bay" />
		<tag k="ssr:stedsnr" v="781495" />
	</node>
	<node id="-37195" lat="59.3212444428" lon="5.62612778419">
		<tag k="alt_name" v="Spissøya" />
		<tag k="name" v="Spissøyna" />
		<tag k="place" v="island" />
		<tag k="ssr:stedsnr" v="487209" />
	</node>
	<node id="-39086" lat="59.3049000038" lon="5.64781945028">
		<tag k="name" v="Tjøreberget" />
		<tag k="natural" v="cape" />
		<tag k="ssr:stedsnr" v="781470" />
	</node>
	<node id="-37037" lat="59.2898500029" lon="5.64206388163">
		<tag k="name" v="Søra Ropavika" />
		<tag k="natural" v="bay" />
		<tag k="ssr:stedsnr" v="296188" />
	</node>
	<node id="-37036" lat="59.2856972208" lon="5.69861111147">
		<tag k="name" v="Duevika" />
		<tag k="natural" v="bay" />
		<tag k="ssr:stedsnr" v="296179" />
	</node>
	<node id="-39083" lat="59.2727640738" lon="5.52580108517">
		<tag k="name" v="Grovahamna" />
		<tag k="natural" v="bay" />
		<tag k="ssr:stedsnr" v="781249" />
	</node>
	<node id="-37034" lat="59.37568056" lon="5.62778055455">
		<tag k="fixme" v="consider seamark:type=rock or natural=shoal" />
		<tag k="name" v="Austre Raunen" />
		<tag k="place" v="islet" />
		<tag k="ssr:stedsnr" v="296065" />
	</node>
	<node id="-39081" lat="59.2843444442" lon="5.64506388863">
		<tag k="name" v="Krabbavika" />
		<tag k="natural" v="bay" />
		<tag k="ssr:stedsnr" v="781225" />
	</node>
	<node id="-37028" lat="59.3938675413" lon="5.67412253229">
		<tag k="name" v="Bekkjavika" />
		<tag k="natural" v="bay" />
		<tag k="ssr:stedsnr" v="295862" />
	</node>
	<node id="-39074" lat="59.2716499986" lon="5.63165277222">
		<tag k="name" v="Drevsundholmen" />
		<tag k="place" v="islet" />
		<tag k="ssr:stedsnr" v="781147" />
	</node>
	<node id="-39070" lat="59.3687333334" lon="5.64452777675">
		<tag k="name" v="Søra Sjursvika" />
		<tag k="natural" v="bay" />
		<tag k="ssr:stedsnr" v="781096" />
	</node>
	<node id="-39069" lat="59.3753444489" lon="5.61721111215">
		<tag k="name" v="Nordra Odden" />
		<tag k="natural" v="cape" />
		<tag k="ssr:stedsnr" v="781029" />
	</node>
	<node id="-39068" lat="59.2707499986" lon="5.66476944719">
		<tag k="name" v="Grunnasundet" />
		<tag k="natural" v="strait" />
		<tag k="ssr:stedsnr" v="781024" />
	</node>
	<node id="-39067" lat="59.325611115" lon="5.68444999255">
		<tag k="name" v="Smidjevika" />
		<tag k="natural" v="bay" />
		<tag k="ssr:stedsnr" v="780691" />
	</node>
	<node id="-37012" lat="59.3728027809" lon="5.89346389591">
		<tag k="name" v="Sjoarberget" />
		<tag k="natural" v="cape" />
		<tag k="ssr:stedsnr" v="295113" />
	</node>
	<node id="-39057" lat="59.4285583311" lon="5.79693334122">
		<tag k="name" v="Frenhidlervika" />
		<tag k="natural" v="bay" />
		<tag k="ssr:stedsnr" v="767962" />
	</node>
	<node id="-37006" lat="59.3097694457" lon="5.64218888231">
		<tag k="fixme" v="consider seamark:type=rock or natural=shoal" />
		<tag k="name" v="Amdalsbåen" />
		<tag k="place" v="islet" />
		<tag k="ssr:stedsnr" v="174510" />
	</node>
	<node id="-36887" lat="59.2826749971" lon="5.65798055229">
		<tag k="name" v="Topnesvågen" />
		<tag k="natural" v="strait" />
		<tag k="ssr:stedsnr" v="53153" />
	</node>
	<node id="-39048" lat="59.441988893" lon="5.47311110196">
		<tag k="name" v="Holsundet" />
		<tag k="natural" v="strait" />
		<tag k="ssr:stedsnr" v="754725" />
	</node>
	<node id="-39043" lat="59.3372249989" lon="5.4420527807">
		<tag k="name" v="Jiljavika" />
		<tag k="natural" v="bay" />
		<tag k="ssr:stedsnr" v="754687" />
	</node>
	<node id="-39042" lat="59.2949361087" lon="5.46839444697">
		<tag k="name" v="Straumsnes" />
		<tag k="natural" v="cape" />
		<tag k="ssr:stedsnr" v="754673" />
	</node>
	<node id="-39041" lat="59.2930138891" lon="5.42723611928">
		<tag k="name" v="Glipaskjeret" />
		<tag k="place" v="islet" />
		<tag k="ssr:stedsnr" v="754670" />
	</node>
	<node id="-39037" lat="59.4358333328" lon="5.6159666648">
		<tag k="name" v="Jøtulneset" />
		<tag k="natural" v="cape" />
		<tag k="ssr:stedsnr" v="753823" />
	</node>
	<node id="-39036" lat="59.2966749976" lon="5.70164166556">
		<tag k="alt_name" v="Kvitanes" />
		<tag k="name" v="Kvitaneset" />
		<tag k="natural" v="cape" />
		<tag k="ssr:stedsnr" v="753532" />
	</node>
	<node id="-39035" lat="59.2702888872" lon="5.63189166296">
		<tag k="name" v="Bakkavik" />
		<tag k="natural" v="bay" />
		<tag k="ssr:stedsnr" v="753494" />
	</node>
	<node id="-39034" lat="59.4203027777" lon="5.38515277538">
		<tag k="name" v="Nesvågen" />
		<tag k="natural" v="bay" />
		<tag k="ssr:stedsnr" v="753219" />
	</node>
	<node id="-39033" lat="59.321027776" lon="5.46686389396">
		<tag k="name" v="Straumane" />
		<tag k="natural" v="strait" />
		<tag k="ssr:stedsnr" v="752716" />
	</node>
	<node id="-39032" lat="59.3610694458" lon="5.61192500042">
		<tag k="name" v="Skrapavika" />
		<tag k="natural" v="bay" />
		<tag k="ssr:stedsnr" v="752688" />
	</node>
	<node id="-36884" lat="59.3423972207" lon="5.86668611988">
		<tag k="name" v="Kalseimholmen" />
		<tag k="place" v="islet" />
		<tag k="ssr:stedsnr" v="52206" />
	</node>
	<node id="-39030" lat="59.4520027782" lon="5.59835833889">
		<tag k="name" v="Valsbukta" />
		<tag k="natural" v="bay" />
		<tag k="ssr:stedsnr" v="751820" />
	</node>
	<node id="-39029" lat="59.4651777739" lon="5.56091944979">
		<tag k="name" v="Kvernavika" />
		<tag k="natural" v="bay" />
		<tag k="ssr:stedsnr" v="751811" />
	</node>
	<node id="-39027" lat="59.3366194447" lon="5.82948888382">
		<tag k="name" v="Baustavika" />
		<tag k="natural" v="bay" />
		<tag k="ssr:stedsnr" v="645442" />
	</node>
	<node id="-39026" lat="59.3707972229" lon="5.38320554817">
		<tag k="name" v="Dalaholet" />
		<tag k="natural" v="bay" />
		<tag k="ssr:stedsnr" v="633070" />
	</node>
	<node id="-39025" lat="59.3656638879" lon="5.47160555711">
		<tag k="fixme" v="consider seamark:type=rock or natural=shoal" />
		<tag k="name" v="Skarvaskjeret" />
		<tag k="place" v="islet" />
		<tag k="ssr:stedsnr" v="633062" />
	</node>
	<node id="-39024" lat="59.3746722211" lon="5.46426944788">
		<tag k="alt_name" v="Ronvikholmen" />
		<tag k="name" v="Ronnviksholmen" />
		<tag k="place" v="islet" />
		<tag k="ssr:stedsnr" v="633051" />
	</node>
	<node id="-36975" lat="59.3797027771" lon="5.38847221734">
		<tag k="name" v="Kadlaviksklubben" />
		<tag k="natural" v="cape" />
		<tag k="ssr:stedsnr" v="269008" />
	</node>
	<node id="-39021" lat="59.3534333335" lon="5.38953611288">
		<tag k="alt_name" v="Tarevik" />
		<tag k="name" v="Taravika" />
		<tag k="natural" v="bay" />
		<tag k="ssr:stedsnr" v="633029" />
	</node>
	<node id="-39020" lat="59.3651944427" lon="5.4764222178">
		<tag k="name" v="Breivika" />
		<tag k="natural" v="bay" />
		<tag k="ssr:stedsnr" v="633057" />
	</node>
	<node id="-36971" lat="59.3349792303" lon="5.68608384599">
		<tag k="name" v="Årvågen" />
		<tag k="natural" v="bay" />
		<tag k="ssr:stedsnr" v="267635" />
	</node>
	<node id="-39018" lat="59.3024916676" lon="5.4630861189">
		<tag k="alt_name" v="Urdholmen" />
		<tag k="name" v="Urholmen" />
		<tag k="place" v="islet" />
		<tag k="ssr:stedsnr" v="632624" />
	</node>
	<node id="-39017" lat="59.3285349756" lon="5.47859399225">
		<tag k="name" v="Tinndalsvika" />
		<tag k="natural" v="bay" />
		<tag k="ssr:stedsnr" v="632614" />
	</node>
	<node id="-36968" lat="59.2753333304" lon="5.5455388951">
		<tag k="alt_name" v="Austervika" />
		<tag k="name" v="Austrevika" />
		<tag k="natural" v="bay" />
		<tag k="ssr:stedsnr" v="266891" />
	</node>
	<node id="-36967" lat="59.4760416654" lon="5.58996666276">
		<tag k="fixme" v="consider seamark:type=rock or natural=shoal" />
		<tag k="name" v="Taraskjeret" />
		<tag k="place" v="islet" />
		<tag k="ssr:stedsnr" v="266793" />
	</node>
	<node id="-39012" lat="59.4449999957" lon="5.48931666994">
		<tag k="alt_name" v="Litla Grindøya;Rauneholmen" />
		<tag k="name" v="Litla Grindøyna" />
		<tag k="place" v="islet" />
		<tag k="ssr:stedsnr" v="632096" />
	</node>
	<node id="-36963" lat="59.3803611106" lon="5.89645278363">
		<tag k="name" v="Frøvika" />
		<tag k="natural" v="bay" />
		<tag k="ssr:stedsnr" v="114754" />
	</node>
	<node id="-39010" lat="59.2556749999" lon="5.55841110902">
		<tag k="name" v="Nautøygrunnen" />
		<tag k="natural" v="shoal" />
		<tag k="place" v="locality" />
		<tag k="ssr:stedsnr" v="631543" />
	</node>
	<node id="-36961" lat="59.3779472255" lon="5.78281388032">
		<tag k="name" v="Øyrå" />
		<tag k="natural" v="cape" />
		<tag k="ssr:stedsnr" v="114429" />
	</node>
	<node id="-39008" lat="59.4043055588" lon="5.6838777831">
		<tag k="name" v="Grønavika" />
		<tag k="natural" v="bay" />
		<tag k="ssr:stedsnr" v="630632" />
	</node>
	<node id="-39007" lat="59.3932027806" lon="5.63218610297">
		<tag k="name" v="Nordavika" />
		<tag k="natural" v="bay" />
		<tag k="ssr:stedsnr" v="612304" />
	</node>
	<node id="-39006" lat="59.4002944461" lon="5.63491944266">
		<tag k="name" v="Litla Nedvika" />
		<tag k="natural" v="bay" />
		<tag k="ssr:stedsnr" v="611302" />
	</node>
	<node id="-39004" lat="59.3982999956" lon="5.6881749977">
		<tag k="name" v="Ramsvika" />
		<tag k="natural" v="bay" />
		<tag k="ssr:stedsnr" v="609596" />
	</node>
	<node id="-39002" lat="59.3649749986" lon="5.89217500634">
		<tag k="name" v="Kvamsvika" />
		<tag k="natural" v="bay" />
		<tag k="ssr:stedsnr" v="609437" />
	</node>
	<node id="-36952" lat="59.3429000022" lon="5.87598333376">
		<tag k="name" v="Leirå" />
		<tag k="natural" v="beach" />
		<tag k="place" v="locality" />
		<tag k="ssr:stedsnr" v="113213" />
	</node>
	<node id="-36951" lat="59.3421999974" lon="5.84585833476">
		<tag k="name" v="Sandsgårdsvika" />
		<tag k="natural" v="bay" />
		<tag k="ssr:stedsnr" v="113209" />
	</node>
	<node id="-36943" lat="59.2640861129" lon="5.53935833154">
		<tag k="fixme" v="consider seamark:type=rock or natural=shoal" />
		<tag k="name" v="Årvikskjeret" />
		<tag k="place" v="islet" />
		<tag k="ssr:stedsnr" v="84915" />
	</node>
	<node id="-36942" lat="59.4648638859" lon="5.59446666837">
		<tag k="alt_name" v="Rasneset" />
		<tag k="name" v="Rassneset" />
		<tag k="natural" v="cape" />
		<tag k="ssr:stedsnr" v="84804" />
	</node>
	<node id="-36941" lat="59.273219448" lon="5.50009721997">
		<tag k="name" v="Sandvika" />
		<tag k="natural" v="bay" />
		<tag k="ssr:stedsnr" v="246609" />
	</node>
	<node id="-38986" lat="59.3390972234" lon="5.85128333101">
		<tag k="alt_name" v="Gannholmane" />
		<tag k="name" v="Garnholmane" />
		<tag k="place" v="islet" />
		<tag k="ssr:stedsnr" v="608522" />
	</node>
	<node id="-38984" lat="59.2403333336" lon="5.55876667234">
		<tag k="alt_name" v="Skjøljafluskjera" />
		<tag k="fixme" v="consider seamark:type=rock or natural=shoal" />
		<tag k="name" v="Skjeljafluskjera" />
		<tag k="place" v="islet" />
		<tag k="ssr:stedsnr" v="608468" />
	</node>
	<node id="-38983" lat="59.2464000013" lon="5.56197776977">
		<tag k="name" v="Brattholmen" />
		<tag k="place" v="islet" />
		<tag k="ssr:stedsnr" v="608467" />
	</node>
	<node id="-36932" lat="59.3054166634" lon="5.59014999295">
		<tag k="alt_name" v="Lindehola" />
		<tag k="name" v="Lindhola" />
		<tag k="natural" v="cape" />
		<tag k="ssr:stedsnr" v="245192" />
	</node>
	<node id="-38976" lat="59.3309749972" lon="5.6783499982">
		<tag k="name" v="Espevikholmane" />
		<tag k="place" v="islet" />
		<tag k="ssr:stedsnr" v="608151" />
	</node>
	<node id="-38975" lat="59.3225805556" lon="5.65981111755">
		<tag k="name" v="Bøvika" />
		<tag k="natural" v="bay" />
		<tag k="ssr:stedsnr" v="608150" />
	</node>
	<node id="-36922" lat="59.363708331" lon="5.60965000388">
		<tag k="alt_name" v="Bekkjavika" />
		<tag k="name" v="Bekkjarvika" />
		<tag k="natural" v="bay" />
		<tag k="ssr:stedsnr" v="245142" />
	</node>
	<node id="-39263" lat="59.4501805574" lon="5.61601666298">
		<tag k="name" v="Sponavika" />
		<tag k="natural" v="bay" />
		<tag k="ssr:stedsnr" v="873773" />
	</node>
	<node id="-36910" lat="59.2913672878" lon="5.4378624028">
		<tag k="name" v="Jonasholmen" />
		<tag k="place" v="islet" />
		<tag k="ssr:stedsnr" v="63923" />
	</node>
	<node id="-36909" lat="59.2864194406" lon="5.4299138971">
		<tag k="alt_name" v="Vesterøya;Vesterøy" />
		<tag k="name" v="Vesterøyna" />
		<tag k="place" v="island" />
		<tag k="ssr:stedsnr" v="63910" />
	</node>
	<node id="-38955" lat="59.3809388887" lon="5.89659444496">
		<tag k="name" v="Frøvikneset" />
		<tag k="natural" v="cape" />
		<tag k="ssr:stedsnr" v="599744" />
	</node>
	<node id="-36906" lat="59.4300583326" lon="5.51369444167">
		<tag k="name" v="Søvikholmen" />
		<tag k="place" v="islet" />
		<tag k="ssr:stedsnr" v="54503" />
	</node>
	<node id="-38953" lat="59.3354500042" lon="5.85063332757">
		<tag k="name" v="Håskjeret" />
		<tag k="place" v="islet" />
		<tag k="ssr:stedsnr" v="599727" />
	</node>
	<node id="-36904" lat="59.4269638904" lon="5.79129999457">
		<tag k="name" v="Smørdalsvika" />
		<tag k="natural" v="bay" />
		<tag k="ssr:stedsnr" v="53917" />
	</node>
	<node id="-38949" lat="59.4058305571" lon="5.61200000019">
		<tag k="name" v="Neset" />
		<tag k="natural" v="cape" />
		<tag k="ssr:stedsnr" v="599648" />
	</node>
	<node id="-38948" lat="59.4061194428" lon="5.60446110512">
		<tag k="name" v="Naustvika" />
		<tag k="natural" v="bay" />
		<tag k="ssr:stedsnr" v="599647" />
	</node>
	<node id="-36899" lat="59.3945138923" lon="5.67026111419">
		<tag k="name" v="Yrkjeskjeret" />
		<tag k="natural" v="cape" />
		<tag k="ssr:stedsnr" v="53856" />
	</node>
	<node id="-36898" lat="59.4046638867" lon="5.59383610319">
		<tag k="name" v="Sagvika" />
		<tag k="natural" v="bay" />
		<tag k="ssr:stedsnr" v="53826" />
	</node>
	<node id="-36897" lat="59.4059666694" lon="5.5897027822">
		<tag k="name" v="Elvaneset" />
		<tag k="natural" v="cape" />
		<tag k="ssr:stedsnr" v="53825" />
	</node>
	<node id="-38944" lat="59.4315138918" lon="5.50354166852">
		<tag k="name" v="Vestvika" />
		<tag k="natural" v="bay" />
		<tag k="ssr:stedsnr" v="599484" />
	</node>
	<node id="-36895" lat="59.3295444436" lon="5.75751388582">
		<tag k="name" v="Selvikneset" />
		<tag k="natural" v="cape" />
		<tag k="ssr:stedsnr" v="53811" />
	</node>
	<node id="-38942" lat="59.4409361109" lon="5.54116389176">
		<tag k="name" v="Auklandsvika" />
		<tag k="natural" v="bay" />
		<tag k="ssr:stedsnr" v="599471" />
	</node>
	<node id="-38941" lat="59.4365694461" lon="5.53476388906">
		<tag k="name" v="Apaltangen" />
		<tag k="natural" v="cape" />
		<tag k="ssr:stedsnr" v="599469" />
	</node>
	<node id="-39009" lat="59.4747690338" lon="5.59204142392">
		<tag k="alt_name" v="Neset" />
		<tag k="name" v="Nesneset" />
		<tag k="natural" v="cape" />
		<tag k="ssr:stedsnr" v="630743" />
	</node>
	<node id="-38937" lat="59.2840027754" lon="5.67655556112">
		<tag k="name" v="Melavika" />
		<tag k="natural" v="bay" />
		<tag k="ssr:stedsnr" v="599189" />
	</node>
	<node id="-38936" lat="59.2785972247" lon="5.63195000446">
		<tag k="name" v="Risholmen" />
		<tag k="place" v="islet" />
		<tag k="ssr:stedsnr" v="599117" />
	</node>
	<node id="-38935" lat="59.4321027754" lon="5.81616110359">
		<tag k="name" v="Sagvika" />
		<tag k="natural" v="bay" />
		<tag k="ssr:stedsnr" v="598896" />
	</node>
	<node id="-38933" lat="59.3691750031" lon="5.61157500292">
		<tag k="name" v="Geitaneset" />
		<tag k="natural" v="cape" />
		<tag k="ssr:stedsnr" v="599058" />
	</node>
	<node id="-38932" lat="59.334880559" lon="5.77269444731">
		<tag k="loc_name" v="Vargarvika" />
		<tag k="name" v="Vargavika" />
		<tag k="natural" v="bay" />
		<tag k="ssr:stedsnr" v="598726" />
	</node>
	<node id="-38931" lat="59.3326111129" lon="5.67527221714">
		<tag k="name" v="Tenholmen" />
		<tag k="place" v="islet" />
		<tag k="ssr:stedsnr" v="598709" />
	</node>
	<node id="-36881" lat="59.4339833333" lon="5.52001389447">
		<tag k="name" v="Kvitaneset" />
		<tag k="natural" v="cape" />
		<tag k="ssr:stedsnr" v="236456" />
	</node>
	<node id="-36880" lat="59.4719638891" lon="5.57455277093">
		<tag k="name" v="Skogavika" />
		<tag k="natural" v="bay" />
		<tag k="ssr:stedsnr" v="236356" />
	</node>
	<node id="-36877" lat="59.3531305513" lon="5.62363056323">
		<tag k="name" v="Søreneset" />
		<tag k="natural" v="cape" />
		<tag k="ssr:stedsnr" v="235968" />
	</node>
	<node id="-36873" lat="59.4304222232" lon="5.80367222352">
		<tag k="name" v="Smalhusvika" />
		<tag k="natural" v="bay" />
		<tag k="ssr:stedsnr" v="235911" />
	</node>
	<node id="-36871" lat="59.3928611154" lon="5.66885554861">
		<tag k="name" v="Naustvika" />
		<tag k="natural" v="bay" />
		<tag k="ssr:stedsnr" v="235862" />
	</node>
	<node id="-38918" lat="59.3433222263" lon="5.86927499597">
		<tag k="name" v="Gongholmen" />
		<tag k="natural" v="cape" />
		<tag k="ssr:stedsnr" v="598221" />
	</node>
	<node id="-38917" lat="59.3405749993" lon="5.83481943882">
		<tag k="name" v="Søylå" />
		<tag k="natural" v="bay" />
		<tag k="ssr:stedsnr" v="598214" />
	</node>
	<node id="-38916" lat="59.3474611128" lon="5.81095000262">
		<tag k="name" v="Koparvika" />
		<tag k="natural" v="bay" />
		<tag k="ssr:stedsnr" v="598146" />
	</node>
	<node id="-38915" lat="59.3740361111" lon="5.89657499355">
		<tag k="name" v="Kallavika" />
		<tag k="natural" v="bay" />
		<tag k="ssr:stedsnr" v="598104" />
	</node>
	<node id="-38914" lat="59.3044222265" lon="5.7112416686">
		<tag k="name" v="Kråkedalsvika" />
		<tag k="natural" v="bay" />
		<tag k="ssr:stedsnr" v="598102" />
	</node>
	<node id="-38913" lat="59.2974972239" lon="5.6922500014">
		<tag k="name" v="Klauanesvika" />
		<tag k="natural" v="bay" />
		<tag k="ssr:stedsnr" v="598098" />
	</node>
</osm>
