<?xml version="1.0" encoding="UTF-8"?>
<osm generator="osmapis" version="0.6">
	<node id="-4992" lat="59.3921833349" lon="5.46561944648">
		<tag k="bridge" v="yes" />
		<tag k="layer" v="1" />
		<tag k="name" v="Krabbatveit" />
		<tag k="ssr:stedsnr" v="654522" />
	</node>
	<node id="-4476" lat="59.393466664" lon="5.5183638822">
		<tag k="bridge" v="yes" />
		<tag k="layer" v="1" />
		<tag k="name" v="Sagbakken" />
		<tag k="ssr:stedsnr" v="472501" />
	</node>
	<node id="-4475" lat="59.4284249962" lon="5.46090556356">
		<tag k="bridge" v="yes" />
		<tag k="layer" v="1" />
		<tag k="name" v="Grinde" />
		<tag k="ssr:stedsnr" v="472493" />
	</node>
	<node id="-6392" lat="59.3573277761" lon="5.54174444471">
		<tag k="bridge" v="yes" />
		<tag k="layer" v="1" />
		<tag k="name" v="Sætre" />
		<tag k="ssr:stedsnr" v="775500" />
	</node>
	<node id="-5239" lat="59.4205833333" lon="5.41670278485">
		<tag k="bridge" v="yes" />
		<tag k="layer" v="1" />
		<tag k="name" v="Dalen" />
		<tag k="ssr:stedsnr" v="836470" />
	</node>
	<node id="-4338" lat="59.4277138886" lon="5.51629166636">
		<tag k="bridge" v="yes" />
		<tag k="layer" v="1" />
		<tag k="name" v="Søvik" />
		<tag k="ssr:stedsnr" v="168517" />
	</node>
	<node id="-4337" lat="59.462683338" lon="5.47404722633">
		<tag k="bridge" v="yes" />
		<tag k="layer" v="1" />
		<tag k="name" v="Vågsbotn" />
		<tag k="ssr:stedsnr" v="168514" />
	</node>
	<node id="-4336" lat="59.3452722228" lon="5.85758888742">
		<tag k="amenity" v="ferry_terminal" />
		<tag k="name" v="Nedstrand ferjekai" />
		<tag k="ssr:stedsnr" v="168506" />
	</node>
	<node id="-5871" lat="59.4184833302" lon="5.4025222274">
		<tag k="bridge" v="yes" />
		<tag k="layer" v="1" />
		<tag k="name" v="Høgahaug" />
		<tag k="ssr:stedsnr" v="350490" />
	</node>
	<node id="-5870" lat="59.3493499985" lon="5.80295832836">
		<tag k="bridge" v="yes" />
		<tag k="layer" v="1" />
		<tag k="name" v="Prest" />
		<tag k="ssr:stedsnr" v="350487" />
	</node>
	<node id="-6116" lat="59.3338333344" lon="5.67919722158">
		<tag k="man_made" v="quay" />
		<tag k="name" v="Nibbesundet" />
		<tag k="place" v="locality" />
		<tag k="ssr:stedsnr" v="537518" />
	</node>
	<node id="-6113" lat="59.3362666652" lon="5.5390527726">
		<tag k="bridge" v="yes" />
		<tag k="layer" v="1" />
		<tag k="name" v="Evje" />
		<tag k="ssr:stedsnr" v="533508" />
	</node>
	<node id="-6112" lat="59.419655552" lon="5.39542778347">
		<tag k="bridge" v="yes" />
		<tag k="layer" v="1" />
		<tag k="name" v="Førde" />
		<tag k="ssr:stedsnr" v="533506" />
	</node>
	<node id="-6111" lat="59.316322226" lon="5.4475527817">
		<tag k="bridge" v="yes" />
		<tag k="layer" v="1" />
		<tag k="name" v="Odland" />
		<tag k="ssr:stedsnr" v="532505" />
	</node>
	<node id="-5338" lat="59.3495222242" lon="5.62031111879">
		<tag k="fixme" v="verify maritime location" />
		<tag k="mooring" v="yes" />
		<tag k="name" v="Vintrastø" />
		<tag k="place" v="locality" />
		<tag k="ssr:stedsnr" v="963978" />
	</node>
	<node id="-4580" lat="59.2854555556" lon="5.52259444601">
		<tag k="bridge" v="yes" />
		<tag k="layer" v="1" />
		<tag k="name" v="Kårstø" />
		<tag k="ssr:stedsnr" v="411502" />
	</node>
	<node id="-6612" lat="59.4469527813" lon="5.3932111109">
		<tag k="bridge" v="yes" />
		<tag k="layer" v="1" />
		<tag k="name" v="Stakkestad" />
		<tag k="ssr:stedsnr" v="957519" />
	</node>
	<node id="-6611" lat="59.3949499968" lon="5.48144444879">
		<tag k="bridge" v="yes" />
		<tag k="layer" v="1" />
		<tag k="name" v="Førland" />
		<tag k="ssr:stedsnr" v="957516" />
	</node>
	<node id="-6610" lat="59.3948416631" lon="5.76703334006">
		<tag k="bridge" v="yes" />
		<tag k="layer" v="1" />
		<tag k="name" v="Ospedalen" />
		<tag k="ssr:stedsnr" v="957511" />
	</node>
	<node id="-5059" lat="59.4308138926" lon="5.50459167045">
		<tag k="bridge" v="yes" />
		<tag k="layer" v="1" />
		<tag k="name" v="Oddernes" />
		<tag k="ssr:stedsnr" v="897480" />
	</node>
	<node id="-4405" lat="59.4207138934" lon="5.44696944394">
		<tag k="bridge" v="yes" />
		<tag k="layer" v="1" />
		<tag k="name" v="Aksdalkrysset" />
		<tag k="ssr:stedsnr" v="229503" />
	</node>
	<node id="-5642" lat="59.4289583324" lon="5.62032221627">
		<tag k="alt_name" v="Sluså" />
		<tag k="name" v="Skjoldastraumen sluse" />
		<tag k="ssr:stedsnr" v="172346" />
		<tag k="waterway" v="lock_gate" />
	</node>
	<node id="-5175" lat="59.3205722185" lon="5.59115000441">
		<tag k="bridge" v="yes" />
		<tag k="layer" v="1" />
		<tag k="name" v="Hervik" />
		<tag k="ssr:stedsnr" v="775496" />
	</node>
	<node id="-4406" lat="59.3480083316" lon="5.74654165929">
		<tag k="bridge" v="yes" />
		<tag k="layer" v="1" />
		<tag k="name" v="Vågsåna" />
		<tag k="ssr:stedsnr" v="229515" />
	</node>
	<node id="-5173" lat="59.423786108" lon="5.39149722203">
		<tag k="bridge" v="yes" />
		<tag k="layer" v="1" />
		<tag k="name" v="Førdestjørn" />
		<tag k="ssr:stedsnr" v="775478" />
	</node>
	<node id="-5174" lat="59.464605552" lon="5.47278888689">
		<tag k="bridge" v="yes" />
		<tag k="layer" v="1" />
		<tag k="name" v="Hodnefjell" />
		<tag k="ssr:stedsnr" v="775492" />
	</node>
	<node id="-6440" lat="59.4233944471" lon="5.51254721863">
		<tag k="highway" v="path" />
		<tag k="name" v="Prestavegen" />
		<tag k="ssr:stedsnr" v="781774" />
	</node>
	<node id="-4366" lat="59.3783888908" lon="5.60853889301">
		<tag k="man_made" v="quay" />
		<tag k="name" v="Hundsnes kai" />
		<tag k="place" v="locality" />
		<tag k="ssr:stedsnr" v="296021" />
	</node>
	<node id="-6438" lat="59.327263885" lon="5.74144443845">
		<tag k="man_made" v="cairn" />
		<tag k="name" v="Varen" />
		<tag k="place" v="locality" />
		<tag k="ssr:stedsnr" v="781768" />
	</node>
	<node id="-5919" lat="59.347911109" lon="5.61712777042">
		<tag k="man_made" v="cairn" />
		<tag k="name" v="Kjeringå" />
		<tag k="place" v="locality" />
		<tag k="ssr:stedsnr" v="356784" />
	</node>
	<node id="-5532" lat="59.4629833378" lon="5.46744167383">
		<tag k="bridge" v="yes" />
		<tag k="layer" v="1" />
		<tag k="name" v="Nyheim" />
		<tag k="ssr:stedsnr" v="108535" />
	</node>
	<node id="-5615" lat="59.4066833354" lon="5.82698332676">
		<tag k="man_made" v="cairn" />
		<tag k="name" v="Vesterlivarden" />
		<tag k="place" v="locality" />
		<tag k="ssr:stedsnr" v="124086" />
	</node>
	<node id="-5400" lat="59.4228305544" lon="5.38023611222">
		<tag k="bridge" v="yes" />
		<tag k="layer" v="1" />
		<tag k="name" v="Førdesfjord" />
		<tag k="ssr:stedsnr" v="47494" />
	</node>
	<node id="-6290" lat="59.3323583341" lon="5.82244444001">
		<tag k="man_made" v="cairn" />
		<tag k="name" v="Varen" />
		<tag k="place" v="locality" />
		<tag k="ssr:stedsnr" v="599750" />
	</node>
	<node id="-6543" lat="59.4475138932" lon="5.55329167307">
		<tag k="bridge" v="yes" />
		<tag k="layer" v="1" />
		<tag k="name" v="Storavann" />
		<tag k="ssr:stedsnr" v="836489" />
	</node>
	<node id="-6542" lat="59.3345722207" lon="5.7270361135">
		<tag k="bridge" v="yes" />
		<tag k="layer" v="1" />
		<tag k="name" v="Leiranger" />
		<tag k="ssr:stedsnr" v="836479" />
	</node>
	<node id="-6027" lat="59.2791527764" lon="5.47836110549">
		<tag k="bridge" v="yes" />
		<tag k="layer" v="1" />
		<tag k="name" v="Susort" />
		<tag k="ssr:stedsnr" v="411518" />
	</node>
	<node id="-6026" lat="59.3629277808" lon="5.66103888419">
		<tag k="bridge" v="yes" />
		<tag k="layer" v="1" />
		<tag k="name" v="Sandvik" />
		<tag k="ssr:stedsnr" v="411512" />
	</node>
	<node id="-6025" lat="59.4582777795" lon="5.46517221325">
		<tag k="bridge" v="yes" />
		<tag k="layer" v="1" />
		<tag k="name" v="Våg (Nedre)" />
		<tag k="ssr:stedsnr" v="411509" />
	</node>
	<node id="-6024" lat="59.3656833371" lon="5.46008888952">
		<tag k="bridge" v="yes" />
		<tag k="layer" v="1" />
		<tag k="name" v="Apeland" />
		<tag k="ssr:stedsnr" v="411489" />
	</node>
	<node id="-6023" lat="59.423288886" lon="5.38138333068">
		<tag k="bridge" v="yes" />
		<tag k="layer" v="1" />
		<tag k="name" v="Førdesbotn" />
		<tag k="ssr:stedsnr" v="411487" />
	</node>
	<node id="-4993" lat="59.4343777791" lon="5.62539166">
		<tag k="bridge" v="yes" />
		<tag k="layer" v="1" />
		<tag k="name" v="Ikdal" />
		<tag k="ssr:stedsnr" v="654523" />
	</node>
	<node id="-4996" lat="59.3469999973" lon="5.84622221592">
		<tag k="bridge" v="yes" />
		<tag k="layer" v="1" />
		<tag k="name" v="Sandsgård" />
		<tag k="ssr:stedsnr" v="654529" />
	</node>
	<node id="-4995" lat="59.3149194458" lon="5.46625555254">
		<tag k="bridge" v="yes" />
		<tag k="layer" v="1" />
		<tag k="name" v="Slåttevik" />
		<tag k="ssr:stedsnr" v="654527" />
	</node>
	<node id="-4994" lat="59.428144447" lon="5.45917777611">
		<tag k="bridge" v="yes" />
		<tag k="layer" v="1" />
		<tag k="name" v="Grinde" />
		<tag k="ssr:stedsnr" v="654524" />
	</node>
	<node id="-6657" lat="59.345539467" lon="5.85908833602">
		<tag k="man_made" v="quay" />
		<tag k="name" v="Stranda" />
		<tag k="place" v="locality" />
		<tag k="ssr:stedsnr" v="979620" />
	</node>
</osm>
