<?xml version="1.0" encoding="UTF-8"?>
<osm generator="osmapis" version="0.6">
	<node id="-841982" lat="63.7187250012" lon="9.63436110923">
		<tag k="name" v="Ryggamyra" />
		<tag k="natural" v="wetland" />
		<tag k="ssr:stedsnr" v="763978" />
	</node>
	<node id="-841469" lat="63.7142166681" lon="9.54679722139">
		<tag k="name" v="Rundøra" />
		<tag k="place" v="locality" />
		<tag k="ssr:stedsnr" v="278792" />
	</node>
	<node id="-841781" lat="63.6691972225" lon="9.38891945124">
		<tag k="name" v="Vestermyran" />
		<tag k="natural" v="wetland" />
		<tag k="ssr:stedsnr" v="278804" />
	</node>
	<node id="-841839" lat="63.6617444417" lon="9.54598334091">
		<tag k="name" v="Nordbakken" />
		<tag k="place" v="locality" />
		<tag k="ssr:stedsnr" v="338730" />
	</node>
	<node id="-841580" lat="63.6658027797" lon="9.40888888887">
		<tag k="name" v="Pilen" />
		<tag k="place" v="locality" />
		<tag k="ssr:stedsnr" v="338822" />
	</node>
	<node id="-842091" lat="63.7260194451" lon="9.63695555423">
		<tag k="name" v="Revrabben" />
		<tag k="place" v="locality" />
		<tag k="ssr:stedsnr" v="35980" />
	</node>
	<node id="-841834" lat="63.6661111069" lon="9.39250833063">
		<tag k="name" v="Svarttuvan" />
		<tag k="place" v="locality" />
		<tag k="ssr:stedsnr" v="884792" />
	</node>
	<node id="-841961" lat="63.7048416641" lon="9.72325277804">
		<tag k="alt_name" v="Austråttlunden" />
		<tag k="name" v="Austråttskogen" />
		<tag k="place" v="locality" />
		<tag k="ssr:stedsnr" v="316844" />
	</node>
	<node id="-842087" lat="63.6792249998" lon="9.40251110296">
		<tag k="name" v="Dalahamna" />
		<tag k="place" v="locality" />
		<tag k="ssr:stedsnr" v="923037" />
	</node>
	<node id="-842211" lat="63.7285888876" lon="9.62006666631">
		<tag k="name" v="Rundøra" />
		<tag k="place" v="locality" />
		<tag k="ssr:stedsnr" v="338738" />
	</node>
	<node id="-841569" lat="63.6821194462" lon="9.40762500458">
		<tag k="name" v="Grønnmyra" />
		<tag k="natural" v="wetland" />
		<tag k="ssr:stedsnr" v="945811" />
	</node>
	<node id="-842079" lat="63.7298222259" lon="9.71347221463">
		<tag k="name" v="Vassmyra" />
		<tag k="natural" v="wetland" />
		<tag k="ssr:stedsnr" v="641871" />
	</node>
	<node id="-841693" lat="63.7383138851" lon="9.65462500766">
		<tag k="name" v="Langøra" />
		<tag k="place" v="locality" />
		<tag k="ssr:stedsnr" v="702991" />
	</node>
	<node id="-841948" lat="63.6686555574" lon="9.40761943735">
		<tag k="name" v="Grandmyra" />
		<tag k="place" v="locality" />
		<tag k="ssr:stedsnr" v="823796" />
	</node>
	<node id="-841435" lat="63.7376027791" lon="9.65177500758">
		<tag k="name" v="Rundøra" />
		<tag k="place" v="locality" />
		<tag k="ssr:stedsnr" v="338854" />
	</node>
	<node id="-842074" lat="63.7227638896" lon="9.6028277681">
		<tag k="name" v="Kalvrabben" />
		<tag k="place" v="locality" />
		<tag k="ssr:stedsnr" v="823825" />
	</node>
	<node id="-842070" lat="63.737372224" lon="9.65433611856">
		<tag k="name" v="Litløra" />
		<tag k="place" v="locality" />
		<tag k="ssr:stedsnr" v="885852" />
	</node>
	<node id="-841813" lat="63.6635333319" lon="9.38200276867">
		<tag k="landuse" v="meadow" />
		<tag k="name" v="Gullgresset" />
		<tag k="ssr:stedsnr" v="95839" />
	</node>
	<node id="-841552" lat="63.7269444465" lon="9.62778055392">
		<tag k="name" v="Fjøsrabban" />
		<tag k="place" v="locality" />
		<tag k="ssr:stedsnr" v="96879" />
	</node>
	<node id="-841415" lat="63.7006555565" lon="9.72478054813">
		<tag k="name" v="Fitjan hamnelag" />
		<tag k="place" v="locality" />
		<tag k="ssr:stedsnr" v="824788" />
	</node>
	<node id="-841925" lat="63.6797750012" lon="9.41444444062">
		<tag k="name" v="Grønnrabben" />
		<tag k="natural" v="wetland" />
		<tag k="ssr:stedsnr" v="885785" />
	</node>
	<node id="-842052" lat="63.7344027794" lon="9.63563610272">
		<tag k="name" v="Sagsteinøra" />
		<tag k="place" v="locality" />
		<tag k="ssr:stedsnr" v="945709" />
	</node>
	<node id="-841825" lat="63.713602776" lon="9.67017500638">
		<tag k="name" v="Mordskogen" />
		<tag k="place" v="locality" />
		<tag k="ssr:stedsnr" v="399777" />
	</node>
	<node id="-841662" lat="63.6643027764" lon="9.40609999282">
		<tag k="name" v="Trøvollen" />
		<tag k="place" v="locality" />
		<tag k="ssr:stedsnr" v="581804" />
	</node>
	<node id="-841661" lat="63.7203444474" lon="9.62859166257">
		<tag k="name" v="Litlmyra" />
		<tag k="natural" v="wetland" />
		<tag k="ssr:stedsnr" v="337860" />
	</node>
	<node id="-841909" lat="63.6677555514" lon="9.42203332984">
		<tag k="name" v="Permyra" />
		<tag k="place" v="locality" />
		<tag k="ssr:stedsnr" v="398815" />
	</node>
	<node id="-842163" lat="63.6661416629" lon="9.38061389328">
		<tag k="landuse" v="meadow" />
		<tag k="name" v="Skogselskapet" />
		<tag k="ssr:stedsnr" v="459853" />
	</node>
	<node id="-842160" lat="63.7055749968" lon="9.58834723126">
		<tag k="name" v="Djupdalen" />
		<tag k="place" v="locality" />
		<tag k="ssr:stedsnr" v="216849" />
	</node>
	<node id="-842205" lat="63.6412111131" lon="9.50816666081">
		<tag k="name" v="Rabben" />
		<tag k="place" v="locality" />
		<tag k="ssr:stedsnr" v="399760" />
	</node>
	<node id="-841769" lat="63.735902781" lon="9.64178333946">
		<tag k="name" v="Båtøra" />
		<tag k="place" v="locality" />
		<tag k="ssr:stedsnr" v="885990" />
	</node>
	<node id="-842012" lat="63.6767194475" lon="9.4247111127">
		<tag k="name" v="Albertsmyra" />
		<tag k="natural" v="wetland" />
		<tag k="ssr:stedsnr" v="762838" />
	</node>
	<node id="-841627" lat="63.7405555555" lon="9.66640000563">
		<tag k="name" v="Hollnesøra" />
		<tag k="place" v="locality" />
		<tag k="ssr:stedsnr" v="581885" />
	</node>
	<node id="-841494" lat="63.681530559" lon="9.64118610826">
		<tag k="name" v="Ulsetmyran" />
		<tag k="natural" v="wetland" />
		<tag k="ssr:stedsnr" v="680037" />
	</node>
	<node id="-841875" lat="63.7281805558" lon="9.71981667357">
		<tag k="name" v="Hammarmyra" />
		<tag k="natural" v="wetland" />
		<tag k="ssr:stedsnr" v="217877" />
	</node>
	<node id="-841731" lat="63.6600999992" lon="9.54606388322">
		<tag k="name" v="Nerbakken" />
		<tag k="place" v="locality" />
		<tag k="ssr:stedsnr" v="641718" />
	</node>
	<node id="-841773" lat="63.6757333332" lon="9.41203332386">
		<tag k="name" v="Gårdsmyra" />
		<tag k="natural" v="wetland" />
		<tag k="ssr:stedsnr" v="95820" />
	</node>
	<node id="-841738" lat="63.6680944449" lon="9.41104165951">
		<tag k="name" v="Damskardekra" />
		<tag k="place" v="locality" />
		<tag k="ssr:stedsnr" v="824802" />
	</node>
	<node id="-841864" lat="63.6703472188" lon="9.38770000881">
		<tag k="name" v="Grønntuva" />
		<tag k="natural" v="wetland" />
		<tag k="ssr:stedsnr" v="580847" />
	</node>
	<node id="-841859" lat="63.6626166667" lon="9.42003610638">
		<tag k="name" v="Myra" />
		<tag k="natural" v="wetland" />
		<tag k="ssr:stedsnr" v="763793" />
	</node>
	<node id="-842114" lat="63.7162277798" lon="9.619672221">
		<tag k="name" v="Stormyra" />
		<tag k="natural" v="wetland" />
		<tag k="ssr:stedsnr" v="35981" />
	</node>
</osm>
