<?xml version="1.0" encoding="UTF-8"?>
<osm generator="osmapis" version="0.6">
	<node id="-840191" lat="63.6639499988" lon="9.41214721608">
		<tag k="name" v="Damskardhaugan" />
		<tag k="natural" v="hill" />
		<tag k="place" v="locality" />
		<tag k="ssr:stedsnr" v="945756" />
	</node>
	<node id="-840190" lat="63.7321888926" lon="9.76992221266">
		<tag k="name" v="Pelkushatten" />
		<tag k="natural" v="hill" />
		<tag k="place" v="locality" />
		<tag k="ssr:stedsnr" v="316254" />
	</node>
	<node id="-840700" lat="63.6448444443" lon="9.31555278308">
		<tag k="fixme" v="consider natural=peak for the most distinct mountains in the district" />
		<tag k="name" v="Høgfjellet" />
		<tag k="natural" v="hill" />
		<tag k="place" v="locality" />
		<tag k="ssr:stedsnr" v="619058" />
	</node>
	<node id="-840186" lat="63.7201472189" lon="9.65973054911">
		<tag k="name" v="Ryggaunberget" />
		<tag k="natural" v="hill" />
		<tag k="place" v="locality" />
		<tag k="ssr:stedsnr" v="581798" />
	</node>
	<node id="-840695" lat="63.7291222228" lon="9.73509166114">
		<tag k="fixme" v="consider natural=peak for the most distinct mountains in the district" />
		<tag k="name" v="Rusasetfjellet" />
		<tag k="natural" v="hill" />
		<tag k="place" v="locality" />
		<tag k="ssr:stedsnr" v="338950" />
	</node>
	<node id="-840694" lat="63.6451305573" lon="9.50979166051">
		<tag k="name" v="Nesvikhaugen" />
		<tag k="natural" v="hill" />
		<tag k="place" v="locality" />
		<tag k="ssr:stedsnr" v="217737" />
	</node>
	<node id="-840692" lat="63.7054166705" lon="9.75631110473">
		<tag k="name" v="Sandberghaugen" />
		<tag k="natural" v="hill" />
		<tag k="place" v="locality" />
		<tag k="ssr:stedsnr" v="702745" />
	</node>
	<node id="-840177" lat="63.6522222213" lon="9.55107777346">
		<tag k="name" v="Rønsholmhaugen" />
		<tag k="natural" v="hill" />
		<tag k="place" v="locality" />
		<tag k="ssr:stedsnr" v="824782" />
	</node>
	<node id="-840688" lat="63.7111222206" lon="9.54228610766">
		<tag k="name" v="Storhaugen" />
		<tag k="natural" v="hill" />
		<tag k="place" v="locality" />
		<tag k="ssr:stedsnr" v="35774" />
	</node>
	<node id="-840174" lat="63.6507555549" lon="9.56534445353">
		<tag k="name" v="Buktenhaugen" />
		<tag k="natural" v="hill" />
		<tag k="place" v="locality" />
		<tag k="ssr:stedsnr" v="641928" />
	</node>
	<node id="-840685" lat="63.7247194484" lon="9.75799166825">
		<tag k="fixme" v="consider natural=peak for the most distinct mountains in the district" />
		<tag k="name" v="Ørnliklumpen" />
		<tag k="natural" v="hill" />
		<tag k="ssr:stedsnr" v="581778" />
	</node>
	<node id="-840680" lat="63.6514222251" lon="9.56993887929">
		<tag k="name" v="Beihaugen" />
		<tag k="natural" v="hill" />
		<tag k="place" v="locality" />
		<tag k="ssr:stedsnr" v="399762" />
	</node>
	<node id="-840672" lat="63.6396861126" lon="9.51018054676">
		<tag k="name" v="Moltberget" />
		<tag k="natural" v="hill" />
		<tag k="place" v="locality" />
		<tag k="ssr:stedsnr" v="35769" />
	</node>
	<node id="-840158" lat="63.6518749991" lon="9.43933610685">
		<tag k="name" v="Kleiva" />
		<tag k="natural" v="valley" />
		<tag k="place" v="locality" />
		<tag k="ssr:stedsnr" v="520819" />
	</node>
	<node id="-840669" lat="63.7354666664" lon="9.72617221282">
		<tag k="fixme" v="consider natural=peak for the most distinct mountains in the district" />
		<tag k="name" v="Torshammaren" />
		<tag k="natural" v="hill" />
		<tag k="ssr:stedsnr" v="338722" />
	</node>
	<node id="-840668" lat="63.6768388852" lon="9.65231110572">
		<tag k="name" v="Sankthanshaugen" />
		<tag k="natural" v="hill" />
		<tag k="place" v="locality" />
		<tag k="ssr:stedsnr" v="581783" />
	</node>
	<node id="-840151" lat="63.7163777751" lon="9.67015832479">
		<tag k="name" v="Storskardet" />
		<tag k="natural" v="valley" />
		<tag k="place" v="locality" />
		<tag k="ssr:stedsnr" v="460976" />
	</node>
	<node id="-840149" lat="63.6459194464" lon="9.42543888584">
		<tag k="fixme" v="multiple name tags, choose one and add the other to alt_name; consider natural=peak for the most distinct mountains in the district" />
		<tag k="name" v="Fosenheia;Vettaheia" />
		<tag k="natural" v="hill" />
		<tag k="ssr:stedsnr" v="667775" />
	</node>
	<node id="-840148" lat="63.7228361102" lon="9.66403054701">
		<tag k="name" v="Kleivan" />
		<tag k="natural" v="slope" />
		<tag k="place" v="locality" />
		<tag k="ssr:stedsnr" v="449478" />
	</node>
	<node id="-840657" lat="63.6418944456" lon="9.50537499651">
		<tag k="name" v="Tjuvneshaugen" />
		<tag k="natural" v="hill" />
		<tag k="place" v="locality" />
		<tag k="ssr:stedsnr" v="338941" />
	</node>
	<node id="-840652" lat="63.6406527789" lon="9.44237500143">
		<tag k="name" v="Hagan" />
		<tag k="natural" v="hill" />
		<tag k="place" v="locality" />
		<tag k="ssr:stedsnr" v="459831" />
	</node>
	<node id="-840649" lat="63.6448055554" lon="9.53867221338">
		<tag k="fixme" v="consider natural=peak for the most distinct mountains in the district" />
		<tag k="name" v="Mefjellet" />
		<tag k="natural" v="hill" />
		<tag k="place" v="locality" />
		<tag k="ssr:stedsnr" v="702703" />
	</node>
	<node id="-840135" lat="63.6585444485" lon="9.43531388301">
		<tag k="name" v="Svartberget" />
		<tag k="natural" v="hill" />
		<tag k="place" v="locality" />
		<tag k="ssr:stedsnr" v="95823" />
	</node>
	<node id="-840182" lat="63.7341638845" lon="9.70874999797">
		<tag k="name" v="Reithaugen" />
		<tag k="natural" v="hill" />
		<tag k="place" v="locality" />
		<tag k="ssr:stedsnr" v="824778" />
	</node>
	<node id="-840642" lat="63.7185277797" lon="9.57037500397">
		<tag k="name" v="Skrubbrabben" />
		<tag k="natural" v="hill" />
		<tag k="place" v="locality" />
		<tag k="ssr:stedsnr" v="884997" />
	</node>
	<node id="-840641" lat="63.6747944412" lon="9.65634445071">
		<tag k="name" v="Sandbergshaugen" />
		<tag k="natural" v="hill" />
		<tag k="place" v="locality" />
		<tag k="ssr:stedsnr" v="763760" />
	</node>
	<node id="-840122" lat="63.7155638896" lon="9.67414166993">
		<tag k="name" v="Lerberen" />
		<tag k="natural" v="hill" />
		<tag k="place" v="locality" />
		<tag k="ssr:stedsnr" v="255020" />
	</node>
	<node id="-840112" lat="63.7103666678" lon="9.53613610797">
		<tag k="name" v="Sørhaugen" />
		<tag k="natural" v="hill" />
		<tag k="place" v="locality" />
		<tag k="ssr:stedsnr" v="217840" />
	</node>
	<node id="-840623" lat="63.7283194424" lon="9.57974999951">
		<tag k="name" v="Uthaugrogna" />
		<tag k="place" v="locality" />
		<tag k="ssr:stedsnr" v="763985" />
	</node>
	<node id="-840104" lat="63.6390416629" lon="9.51376667243">
		<tag k="name" v="Hamnaberget" />
		<tag k="natural" v="hill" />
		<tag k="place" v="locality" />
		<tag k="ssr:stedsnr" v="680071" />
	</node>
	<node id="-840608" lat="63.72443889" lon="9.6360027852">
		<tag k="name" v="Ryggasletta" />
		<tag k="place" v="locality" />
		<tag k="ssr:stedsnr" v="762860" />
	</node>
	<node id="-840094" lat="63.6662833347" lon="9.41129444735">
		<tag k="name" v="Damskardet" />
		<tag k="natural" v="valley" />
		<tag k="place" v="locality" />
		<tag k="ssr:stedsnr" v="95813" />
	</node>
	<node id="-840093" lat="63.7246749962" lon="9.78085278331">
		<tag k="name" v="Langdalen" />
		<tag k="natural" v="valley" />
		<tag k="place" v="locality" />
		<tag k="ssr:stedsnr" v="216940" />
	</node>
	<node id="-840604" lat="63.7104833295" lon="9.64799999396">
		<tag k="name" v="Skimmelsberget" />
		<tag k="natural" v="hill" />
		<tag k="place" v="locality" />
		<tag k="ssr:stedsnr" v="278880" />
	</node>
	<node id="-840603" lat="63.7420944412" lon="9.69015276862">
		<tag k="name" v="Branthaugen" />
		<tag k="natural" v="hill" />
		<tag k="place" v="locality" />
		<tag k="ssr:stedsnr" v="641844" />
	</node>
	<node id="-840593" lat="63.7331555564" lon="9.70346387931">
		<tag k="name" v="Langberget" />
		<tag k="natural" v="hill" />
		<tag k="place" v="locality" />
		<tag k="ssr:stedsnr" v="945714" />
	</node>
	<node id="-840588" lat="63.6756361077" lon="9.39326389528">
		<tag k="name" v="Holmhaugen" />
		<tag k="natural" v="hill" />
		<tag k="place" v="locality" />
		<tag k="ssr:stedsnr" v="156787" />
	</node>
	<node id="-840075" lat="63.721883332" lon="9.70618332994">
		<tag k="name" v="Rønsberget" />
		<tag k="natural" v="hill" />
		<tag k="place" v="locality" />
		<tag k="ssr:stedsnr" v="641969" />
	</node>
	<node id="-840066" lat="63.7255333353" lon="9.74338055809">
		<tag k="name" v="Vardheia" />
		<tag k="natural" v="hill" />
		<tag k="place" v="locality" />
		<tag k="ssr:stedsnr" v="195278" />
	</node>
	<node id="-840576" lat="63.7238388928" lon="9.77376389068">
		<tag k="name" v="Sankthansholet" />
		<tag k="natural" v="valley" />
		<tag k="place" v="locality" />
		<tag k="ssr:stedsnr" v="945718" />
	</node>
	<node id="-840571" lat="63.7362666707" lon="9.70377776928">
		<tag k="name" v="Stokksletthaugen" />
		<tag k="natural" v="hill" />
		<tag k="place" v="locality" />
		<tag k="ssr:stedsnr" v="702714" />
	</node>
	<node id="-840569" lat="63.7249833377" lon="9.70436388628">
		<tag k="name" v="Søtberget" />
		<tag k="natural" v="hill" />
		<tag k="place" v="locality" />
		<tag k="ssr:stedsnr" v="156781" />
	</node>
	<node id="-840047" lat="63.7203944404" lon="9.79100554721">
		<tag k="name" v="Småmyrhaugen" />
		<tag k="natural" v="hill" />
		<tag k="place" v="locality" />
		<tag k="ssr:stedsnr" v="823935" />
	</node>
	<node id="-840558" lat="63.6556444453" lon="9.5723472142">
		<tag k="name" v="Nauthaugen" />
		<tag k="natural" v="hill" />
		<tag k="place" v="locality" />
		<tag k="ssr:stedsnr" v="520760" />
	</node>
	<node id="-840042" lat="63.6567527735" lon="9.37121667469">
		<tag k="name" v="Nordhaugen" />
		<tag k="natural" v="hill" />
		<tag k="place" v="locality" />
		<tag k="ssr:stedsnr" v="702837" />
	</node>
	<node id="-840553" lat="63.6700944418" lon="9.5662833363">
		<tag k="name" v="Grandfjæra" />
		<tag k="place" v="locality" />
		<tag k="ssr:stedsnr" v="702945" />
	</node>
	<node id="-840550" lat="63.7287833341" lon="9.70748055264">
		<tag k="name" v="Esvikhaugen" />
		<tag k="natural" v="hill" />
		<tag k="place" v="locality" />
		<tag k="ssr:stedsnr" v="96755" />
	</node>
	<node id="-840037" lat="63.6482055544" lon="9.40397221957">
		<tag k="alt_name" v="Kalven" />
		<tag k="name" v="Vågakalven" />
		<tag k="natural" v="hill" />
		<tag k="place" v="locality" />
		<tag k="ssr:stedsnr" v="134070" />
	</node>
	<node id="-840546" lat="63.6683166693" lon="9.39488056544">
		<tag k="name" v="Singshaugan" />
		<tag k="natural" v="hill" />
		<tag k="place" v="locality" />
		<tag k="ssr:stedsnr" v="762840" />
	</node>
	<node id="-840029" lat="63.7344888865" lon="9.72618889558">
		<tag k="name" v="Juldagsskardet" />
		<tag k="natural" v="valley" />
		<tag k="place" v="locality" />
		<tag k="ssr:stedsnr" v="763885" />
	</node>
	<node id="-840027" lat="63.6553194463" lon="9.39006110854">
		<tag k="name" v="Heia" />
		<tag k="natural" v="hill" />
		<tag k="place" v="locality" />
		<tag k="ssr:stedsnr" v="945827" />
	</node>
	<node id="-840538" lat="63.7423444422" lon="9.69309999948">
		<tag k="name" v="Asperhaugen" />
		<tag k="natural" v="hill" />
		<tag k="place" v="locality" />
		<tag k="ssr:stedsnr" v="155869" />
	</node>
	<node id="-840021" lat="63.6392888864" lon="9.51491666728">
		<tag k="fixme" v="consider natural=peak for the most distinct mountains in the district" />
		<tag k="name" v="Svartfjellet" />
		<tag k="natural" v="hill" />
		<tag k="place" v="locality" />
		<tag k="ssr:stedsnr" v="155782" />
	</node>
	<node id="-840531" lat="63.7262749987" lon="9.7832666584">
		<tag k="name" v="Kalvåhaugan" />
		<tag k="natural" v="hill" />
		<tag k="place" v="locality" />
		<tag k="ssr:stedsnr" v="620235" />
	</node>
	<node id="-840005" lat="63.7240333372" lon="9.74631388886">
		<tag k="fixme" v="consider natural=peak for the most distinct mountains in the district" />
		<tag k="name" v="Nypen" />
		<tag k="natural" v="hill" />
		<tag k="ssr:stedsnr" v="641946" />
	</node>
	<node id="-840002" lat="63.6777999996" lon="9.65739443782">
		<tag k="name" v="Trøhaugen" />
		<tag k="natural" v="hill" />
		<tag k="place" v="locality" />
		<tag k="ssr:stedsnr" v="885923" />
	</node>
	<node id="-840001" lat="63.7285388898" lon="9.58720276898">
		<tag k="name" v="Holmhaugen" />
		<tag k="natural" v="hill" />
		<tag k="place" v="locality" />
		<tag k="ssr:stedsnr" v="581000" />
	</node>
	<node id="-839997" lat="63.6388527736" lon="9.52531111195">
		<tag k="name" v="Hamnaberget" />
		<tag k="natural" v="hill" />
		<tag k="place" v="locality" />
		<tag k="ssr:stedsnr" v="96861" />
	</node>
	<node id="-840506" lat="63.6877388855" lon="9.65177499699">
		<tag k="name" v="Fjøshaugen" />
		<tag k="natural" v="hill" />
		<tag k="place" v="locality" />
		<tag k="ssr:stedsnr" v="763958" />
	</node>
	<node id="-840494" lat="63.7279388934" lon="9.76266111831">
		<tag k="fixme" v="consider natural=peak for the most distinct mountains in the district" />
		<tag k="name" v="Osplikammen" />
		<tag k="natural" v="hill" />
		<tag k="place" v="locality" />
		<tag k="ssr:stedsnr" v="923263" />
	</node>
	<node id="-839981" lat="63.6480499975" lon="9.40176111518">
		<tag k="fixme" v="consider natural=peak for the most distinct mountains in the district" />
		<tag k="name" v="Kalven" />
		<tag k="natural" v="hill" />
		<tag k="place" v="locality" />
		<tag k="ssr:stedsnr" v="580831" />
	</node>
	<node id="-839971" lat="63.7388694447" lon="9.68561944353">
		<tag k="name" v="Storhaugen" />
		<tag k="natural" v="hill" />
		<tag k="place" v="locality" />
		<tag k="ssr:stedsnr" v="885756" />
	</node>
	<node id="-839963" lat="63.7081416657" lon="9.72168054805">
		<tag k="name" v="Lundahaugen" />
		<tag k="natural" v="hill" />
		<tag k="place" v="locality" />
		<tag k="ssr:stedsnr" v="278788" />
	</node>
	<node id="-840473" lat="63.7209305534" lon="9.56775833154">
		<tag k="name" v="Nøkkelhaugen" />
		<tag k="natural" v="hill" />
		<tag k="place" v="locality" />
		<tag k="ssr:stedsnr" v="762854" />
	</node>
	<node id="-839960" lat="63.6726138913" lon="9.43346944172">
		<tag k="name" v="Jakobsberget" />
		<tag k="natural" v="hill" />
		<tag k="place" v="locality" />
		<tag k="ssr:stedsnr" v="702847" />
	</node>
	<node id="-840471" lat="63.6756611143" lon="9.66498889794">
		<tag k="name" v="Holmhaugen" />
		<tag k="natural" v="hill" />
		<tag k="place" v="locality" />
		<tag k="ssr:stedsnr" v="399937" />
	</node>
	<node id="-840469" lat="63.6437472222" lon="9.53217222725">
		<tag k="name" v="Steinskardet" />
		<tag k="natural" v="valley" />
		<tag k="place" v="locality" />
		<tag k="ssr:stedsnr" v="96947" />
	</node>
	<node id="-839950" lat="63.663561108" lon="9.38449999341">
		<tag k="name" v="Brandhaugen" />
		<tag k="natural" v="hill" />
		<tag k="place" v="locality" />
		<tag k="ssr:stedsnr" v="945844" />
	</node>
	<node id="-839941" lat="63.6436472217" lon="9.33582221425">
		<tag k="name" v="Ovehaugen" />
		<tag k="natural" v="hill" />
		<tag k="place" v="locality" />
		<tag k="ssr:stedsnr" v="702842" />
	</node>
	<node id="-840448" lat="63.6396527785" lon="9.44343055121">
		<tag k="name" v="Bukkhallaren" />
		<tag k="natural" v="hill" />
		<tag k="place" v="locality" />
		<tag k="ssr:stedsnr" v="316068" />
	</node>
	<node id="-840440" lat="63.6619861111" lon="9.39587500022">
		<tag k="name" v="Klungerhaugen" />
		<tag k="natural" v="hill" />
		<tag k="place" v="locality" />
		<tag k="ssr:stedsnr" v="641800" />
	</node>
	<node id="-839926" lat="63.6691055564" lon="9.42555278474">
		<tag k="name" v="Skolhaugen" />
		<tag k="natural" v="hill" />
		<tag k="place" v="locality" />
		<tag k="ssr:stedsnr" v="702782" />
	</node>
	<node id="-840432" lat="63.7129666657" lon="9.53483054552">
		<tag k="name" v="Litlhaugen" />
		<tag k="natural" v="hill" />
		<tag k="place" v="locality" />
		<tag k="ssr:stedsnr" v="702878" />
	</node>
	<node id="-840421" lat="63.722330558" lon="9.5682555651">
		<tag k="name" v="Vorphaugen" />
		<tag k="natural" v="hill" />
		<tag k="place" v="locality" />
		<tag k="ssr:stedsnr" v="216999" />
	</node>
	<node id="-840420" lat="63.7251916675" lon="9.59363611498">
		<tag k="name" v="Uthaugshaugen" />
		<tag k="natural" v="hill" />
		<tag k="place" v="locality" />
		<tag k="ssr:stedsnr" v="337992" />
	</node>
	<node id="-840413" lat="63.6627361121" lon="9.42642223185">
		<tag k="name" v="Tinnheia" />
		<tag k="natural" v="hill" />
		<tag k="place" v="locality" />
		<tag k="ssr:stedsnr" v="155839" />
	</node>
	<node id="-840400" lat="63.6660916629" lon="9.40431110226">
		<tag k="name" v="Valberget" />
		<tag k="natural" v="hill" />
		<tag k="place" v="locality" />
		<tag k="ssr:stedsnr" v="398814" />
	</node>
	<node id="-840396" lat="63.7326694435" lon="9.72920834211">
		<tag k="name" v="Torshammaren" />
		<tag k="natural" v="hill" />
		<tag k="place" v="locality" />
		<tag k="ssr:stedsnr" v="134235" />
	</node>
	<node id="-840395" lat="63.6628250006" lon="9.37291666443">
		<tag k="name" v="Tinnhaugen" />
		<tag k="natural" v="hill" />
		<tag k="place" v="locality" />
		<tag k="ssr:stedsnr" v="641814" />
	</node>
	<node id="-840388" lat="63.6827694442" lon="9.39492500277">
		<tag k="name" v="Dalahamnhaugen" />
		<tag k="natural" v="hill" />
		<tag k="place" v="locality" />
		<tag k="ssr:stedsnr" v="95845" />
	</node>
	<node id="-840377" lat="63.6463611102" lon="9.43636944011">
		<tag k="fixme" v="consider natural=peak for the most distinct mountains in the district" />
		<tag k="name" v="Fosenfjellet" />
		<tag k="natural" v="hill" />
		<tag k="place" v="locality" />
		<tag k="ssr:stedsnr" v="437072" />
	</node>
	<node id="-840371" lat="63.6907694465" lon="9.64643889623">
		<tag k="name" v="Kjerkhaugen" />
		<tag k="natural" v="hill" />
		<tag k="place" v="locality" />
		<tag k="ssr:stedsnr" v="702737" />
	</node>
	<node id="-840370" lat="63.6436944463" lon="9.3275833243">
		<tag k="name" v="Gjelhaugen" />
		<tag k="natural" v="hill" />
		<tag k="place" v="locality" />
		<tag k="ssr:stedsnr" v="399773" />
	</node>
	<node id="-840369" lat="63.7458500007" lon="9.68559722462">
		<tag k="name" v="Marithaugen" />
		<tag k="natural" v="hill" />
		<tag k="place" v="locality" />
		<tag k="ssr:stedsnr" v="702739" />
	</node>
	<node id="-840367" lat="63.6941694483" lon="9.6453888982">
		<tag k="name" v="Kleivhaugen" />
		<tag k="natural" v="hill" />
		<tag k="place" v="locality" />
		<tag k="ssr:stedsnr" v="824963" />
	</node>
	<node id="-840362" lat="63.6663138915" lon="9.38517221321">
		<tag k="name" v="Hesthaugen" />
		<tag k="natural" v="hill" />
		<tag k="place" v="locality" />
		<tag k="ssr:stedsnr" v="96801" />
	</node>
	<node id="-840356" lat="63.7140527741" lon="9.53789999776">
		<tag k="name" v="Heimhaugen" />
		<tag k="natural" v="hill" />
		<tag k="place" v="locality" />
		<tag k="ssr:stedsnr" v="460957" />
	</node>
	<node id="-840346" lat="63.6908111135" lon="9.4170499907">
		<tag k="name" v="Villsauklova" />
		<tag k="natural" v="slope" />
		<tag k="place" v="locality" />
		<tag k="ssr:stedsnr" v="884805" />
	</node>
	<node id="-840131" lat="63.7230166644" lon="9.57941111047">
		<tag k="name" v="Bukthaugen" />
		<tag k="natural" v="hill" />
		<tag k="place" v="locality" />
		<tag k="ssr:stedsnr" v="702866" />
	</node>
	<node id="-840336" lat="63.6969861103" lon="9.73511666162">
		<tag k="name" v="Skjegghaugan" />
		<tag k="natural" v="hill" />
		<tag k="place" v="locality" />
		<tag k="ssr:stedsnr" v="581792" />
	</node>
	<node id="-840324" lat="63.7049472253" lon="9.74784167208">
		<tag k="name" v="Merrahaugen" />
		<tag k="natural" v="hill" />
		<tag k="place" v="locality" />
		<tag k="ssr:stedsnr" v="884940" />
	</node>
	<node id="-840323" lat="63.7430416674" lon="9.67875277576">
		<tag k="name" v="Nausthaugen" />
		<tag k="natural" v="hill" />
		<tag k="place" v="locality" />
		<tag k="ssr:stedsnr" v="824886" />
	</node>
	<node id="-840320" lat="63.7251083362" lon="9.7827694543">
		<tag k="name" v="Langdalsheia" />
		<tag k="natural" v="hill" />
		<tag k="place" v="locality" />
		<tag k="ssr:stedsnr" v="884943" />
	</node>
	<node id="-840314" lat="63.7321166685" lon="9.70819445322">
		<tag k="name" v="Esvikhaugan" />
		<tag k="natural" v="hill" />
		<tag k="place" v="locality" />
		<tag k="ssr:stedsnr" v="945890" />
	</node>
	<node id="-840041" lat="63.64338889" lon="9.52981388763">
		<tag k="name" v="Gartkviga" />
		<tag k="natural" v="hill" />
		<tag k="place" v="locality" />
		<tag k="ssr:stedsnr" v="802090" />
	</node>
	<node id="-840300" lat="63.6472277821" lon="9.54735276787">
		<tag k="fixme" v="consider natural=peak for the most distinct mountains in the district" />
		<tag k="name" v="Synnørsfjellet" />
		<tag k="natural" v="hill" />
		<tag k="place" v="locality" />
		<tag k="ssr:stedsnr" v="680068" />
	</node>
	<node id="-840280" lat="63.6497333365" lon="9.39022221965">
		<tag k="name" v="Klumpen" />
		<tag k="natural" v="hill" />
		<tag k="place" v="locality" />
		<tag k="ssr:stedsnr" v="95818" />
	</node>
	<node id="-840266" lat="63.666800003" lon="9.38075556433">
		<tag k="name" v="Storhaugen" />
		<tag k="natural" v="hill" />
		<tag k="place" v="locality" />
		<tag k="ssr:stedsnr" v="680043" />
	</node>
	<node id="-840264" lat="63.7463194448" lon="9.68158610699">
		<tag k="name" v="Nervikhaugen" />
		<tag k="natural" v="hill" />
		<tag k="place" v="locality" />
		<tag k="ssr:stedsnr" v="884867" />
	</node>
	<node id="-840263" lat="63.6683499998" lon="9.40280277639">
		<tag k="name" v="Geitklovskardet" />
		<tag k="natural" v="valley" />
		<tag k="place" v="locality" />
		<tag k="ssr:stedsnr" v="576472" />
	</node>
	<node id="-840261" lat="63.712658335" lon="9.52976944996">
		<tag k="name" v="Berithaugen" />
		<tag k="natural" v="hill" />
		<tag k="place" v="locality" />
		<tag k="ssr:stedsnr" v="885939" />
	</node>
	<node id="-840260" lat="63.6504666622" lon="9.38246110848">
		<tag k="name" v="Halsaslettan" />
		<tag k="place" v="locality" />
		<tag k="ssr:stedsnr" v="824807" />
	</node>
	<node id="-840255" lat="63.7303222219" lon="9.74966110233">
		<tag k="name" v="Stinnsvarden" />
		<tag k="natural" v="hill" />
		<tag k="place" v="locality" />
		<tag k="ssr:stedsnr" v="438224" />
	</node>
	<node id="-840252" lat="63.7243250035" lon="9.59076110417">
		<tag k="name" v="Stakkfjærhaugen" />
		<tag k="natural" v="hill" />
		<tag k="place" v="locality" />
		<tag k="ssr:stedsnr" v="277864" />
	</node>
	<node id="-840251" lat="63.7317833301" lon="9.77943887995">
		<tag k="name" v="Tortlia" />
		<tag k="natural" v="slope" />
		<tag k="place" v="locality" />
		<tag k="ssr:stedsnr" v="885940" />
	</node>
	<node id="-840244" lat="63.6664722193" lon="9.40023055838">
		<tag k="name" v="Reksterhaugen" />
		<tag k="natural" v="hill" />
		<tag k="place" v="locality" />
		<tag k="ssr:stedsnr" v="640831" />
	</node>
	<node id="-840224" lat="63.6618750024" lon="9.37988055623">
		<tag k="name" v="Valtuva" />
		<tag k="natural" v="hill" />
		<tag k="place" v="locality" />
		<tag k="ssr:stedsnr" v="945759" />
	</node>
	<node id="-840223" lat="63.7115388887" lon="9.79265555204">
		<tag k="alt_name" v="Borgklinten" />
		<tag k="name" v="Borgklintan" />
		<tag k="natural" v="hill" />
		<tag k="place" v="locality" />
		<tag k="ssr:stedsnr" v="924791" />
	</node>
	<node id="-840728" lat="63.7461666623" lon="9.68919444955">
		<tag k="name" v="Middagshaugen" />
		<tag k="natural" v="hill" />
		<tag k="place" v="locality" />
		<tag k="ssr:stedsnr" v="30661" />
	</node>
	<node id="-840725" lat="63.676391667" lon="9.65151944477">
		<tag k="name" v="Ysthaugen" />
		<tag k="natural" v="hill" />
		<tag k="place" v="locality" />
		<tag k="ssr:stedsnr" v="702728" />
	</node>
	<node id="-840211" lat="63.7140277815" lon="9.77470555016">
		<tag k="name" v="Skalbakken" />
		<tag k="natural" v="slope" />
		<tag k="place" v="locality" />
		<tag k="ssr:stedsnr" v="824767" />
	</node>
	<node id="-840201" lat="63.6692138846" lon="9.43086943702">
		<tag k="name" v="Nausthaugen" />
		<tag k="natural" v="hill" />
		<tag k="place" v="locality" />
		<tag k="ssr:stedsnr" v="520829" />
	</node>
	<node id="-840199" lat="63.7209169146" lon="9.7975976015">
		<tag k="name" v="Reksterhaugen" />
		<tag k="natural" v="hill" />
		<tag k="place" v="locality" />
		<tag k="ssr:stedsnr" v="217768" />
	</node>
	<node id="-840198" lat="63.7234583356" lon="9.67072221989">
		<tag k="fixme" v="consider natural=peak for the most distinct mountains in the district" />
		<tag k="name" v="Kleivan" />
		<tag k="natural" v="hill" />
		<tag k="place" v="locality" />
		<tag k="ssr:stedsnr" v="945754" />
	</node>
	<node id="-840706" lat="63.7143055595" lon="9.65917222419">
		<tag k="name" v="Følsberget" />
		<tag k="natural" v="hill" />
		<tag k="place" v="locality" />
		<tag k="ssr:stedsnr" v="945746" />
	</node>
</osm>
