<?xml version="1.0" encoding="UTF-8"?>
<osm generator="osmapis" version="0.6">
	<node id="-842148" lat="63.6536361116" lon="9.36692777941">
		<tag k="name" v="Flatholmen" />
		<tag k="place" v="islet" />
		<tag k="ssr:stedsnr" v="820375" />
	</node>
	<node id="-841727" lat="63.6785194417" lon="9.36169166093">
		<tag k="name" v="Frohavet" />
		<tag k="place" v="sea" />
		<tag k="ssr:stedsnr" v="945802" />
	</node>
	<node id="-841720" lat="63.6362305556" lon="9.34270556023">
		<tag k="name" v="Kalvholmstøtta" />
		<tag k="natural" v="shoal" />
		<tag k="place" v="locality" />
		<tag k="ssr:stedsnr" v="637386" />
	</node>
	<node id="-841719" lat="63.656216667" lon="9.37654999604">
		<tag k="name" v="Holmvalen" />
		<tag k="place" v="locality" />
		<tag k="ssr:stedsnr" v="824803" />
	</node>
	<node id="-841716" lat="63.7315944429" lon="9.50206110975">
		<tag k="name" v="Daudmannsflua" />
		<tag k="natural" v="shoal" />
		<tag k="place" v="locality" />
		<tag k="ssr:stedsnr" v="516088" />
	</node>
	<node id="-841712" lat="63.6557194416" lon="9.40668055335">
		<tag k="name" v="Vågen" />
		<tag k="natural" v="bay" />
		<tag k="ssr:stedsnr" v="923064" />
	</node>
	<node id="-841711" lat="63.6596555564" lon="9.39687222274">
		<tag k="name" v="Stabbursholmen" />
		<tag k="natural" v="cape" />
		<tag k="ssr:stedsnr" v="945761" />
	</node>
	<node id="-841709" lat="63.6549861086" lon="9.32806388026">
		<tag k="fixme" v="consider seamark:type=rock or natural=shoal" />
		<tag k="name" v="Sandskjeret" />
		<tag k="place" v="islet" />
		<tag k="ssr:stedsnr" v="945762" />
	</node>
	<node id="-841706" lat="63.6308277749" lon="9.45525833448">
		<tag k="name" v="Våggrunnen" />
		<tag k="natural" v="shoal" />
		<tag k="place" v="locality" />
		<tag k="ssr:stedsnr" v="31278" />
	</node>
	<node id="-842216" lat="63.7041444485" lon="9.77113610149">
		<tag k="fixme" v="consider seamark:type=rock or natural=shoal" />
		<tag k="name" v="Rosenlundskjæret" />
		<tag k="place" v="islet" />
		<tag k="ssr:stedsnr" v="581796" />
	</node>
	<node id="-841703" lat="63.6423277804" lon="9.51570555545">
		<tag k="name" v="Garten" />
		<tag k="place" v="island" />
		<tag k="ssr:stedsnr" v="558068" />
	</node>
	<node id="-842212" lat="63.6259361073" lon="9.48903887975">
		<tag k="name" v="Smellingsflua" />
		<tag k="natural" v="shoal" />
		<tag k="place" v="locality" />
		<tag k="ssr:stedsnr" v="92272" />
	</node>
	<node id="-841697" lat="63.6936361129" lon="9.42180556392">
		<tag k="name" v="Fitholmen" />
		<tag k="place" v="islet" />
		<tag k="ssr:stedsnr" v="820430" />
	</node>
	<node id="-841695" lat="63.6967277822" lon="9.50144166293">
		<tag k="name" v="Håflua" />
		<tag k="natural" v="shoal" />
		<tag k="place" v="locality" />
		<tag k="ssr:stedsnr" v="699062" />
	</node>
	<node id="-842204" lat="63.6904138917" lon="9.41636110188">
		<tag k="name" v="Lyngholmen" />
		<tag k="place" v="islet" />
		<tag k="ssr:stedsnr" v="152465" />
	</node>
	<node id="-842201" lat="63.6543361072" lon="9.35849166373">
		<tag k="name" v="Svaet" />
		<tag k="natural" v="strait" />
		<tag k="ssr:stedsnr" v="96787" />
	</node>
	<node id="-841687" lat="63.7070583297" lon="9.77973611289">
		<tag k="alt_name" v="Ottersbogen" />
		<tag k="name" v="Ottarsbubukta" />
		<tag k="natural" v="bay" />
		<tag k="ssr:stedsnr" v="702754" />
	</node>
	<node id="-841686" lat="63.6787416661" lon="9.3886555528">
		<tag k="name" v="Slottholmen" />
		<tag k="place" v="islet" />
		<tag k="ssr:stedsnr" v="691533" />
	</node>
	<node id="-841685" lat="63.6450416635" lon="9.54690556257">
		<tag k="name" v="Røvika" />
		<tag k="natural" v="bay" />
		<tag k="ssr:stedsnr" v="824761" />
	</node>
	<node id="-842194" lat="63.6574111111" lon="9.43289444056">
		<tag k="name" v="Årsanden" />
		<tag k="natural" v="shoal" />
		<tag k="place" v="locality" />
		<tag k="ssr:stedsnr" v="277808" />
	</node>
	<node id="-842193" lat="63.6910861069" lon="9.44330277956">
		<tag k="name" v="Fluin" />
		<tag k="natural" v="shoal" />
		<tag k="place" v="locality" />
		<tag k="ssr:stedsnr" v="941413" />
	</node>
	<node id="-842191" lat="63.6609416691" lon="9.44087500386">
		<tag k="name" v="Kilflua" />
		<tag k="natural" v="shoal" />
		<tag k="place" v="locality" />
		<tag k="ssr:stedsnr" v="92485" />
	</node>
	<node id="-841678" lat="63.6590777791" lon="9.36875555274">
		<tag k="fixme" v="consider seamark:type=rock or natural=shoal" />
		<tag k="name" v="Slottet" />
		<tag k="place" v="islet" />
		<tag k="ssr:stedsnr" v="945758" />
	</node>
	<node id="-842187" lat="63.6425416678" lon="9.36688334214">
		<tag k="alt_name" v="Pallsskjæret" />
		<tag k="fixme" v="consider seamark:type=rock or natural=shoal" />
		<tag k="name" v="Palsaren" />
		<tag k="place" v="islet" />
		<tag k="ssr:stedsnr" v="619057" />
	</node>
	<node id="-842186" lat="63.6479138901" lon="9.32686388127">
		<tag k="name" v="Perholmen" />
		<tag k="place" v="islet" />
		<tag k="ssr:stedsnr" v="702749" />
	</node>
	<node id="-841669" lat="63.7298166671" lon="9.62483334289">
		<tag k="name" v="Leirosen" />
		<tag k="natural" v="bay" />
		<tag k="ssr:stedsnr" v="824776" />
	</node>
	<node id="-841667" lat="63.6491583335" lon="9.45941110337">
		<tag k="name" v="Oteroltaren" />
		<tag k="natural" v="shoal" />
		<tag k="place" v="locality" />
		<tag k="ssr:stedsnr" v="698445" />
	</node>
	<node id="-841663" lat="63.6523944416" lon="9.55624444204">
		<tag k="fixme" v="consider seamark:type=rock or natural=shoal" />
		<tag k="name" v="Rønsholmskjæret" />
		<tag k="place" v="islet" />
		<tag k="ssr:stedsnr" v="641927" />
	</node>
	<node id="-841660" lat="63.6451055566" lon="9.46499999813">
		<tag k="name" v="Sjøpungtaren" />
		<tag k="natural" v="shoal" />
		<tag k="place" v="locality" />
		<tag k="ssr:stedsnr" v="698443" />
	</node>
	<node id="-841659" lat="63.6440444444" lon="9.359252782">
		<tag k="name" v="Nidarostaren" />
		<tag k="natural" v="shoal" />
		<tag k="place" v="locality" />
		<tag k="ssr:stedsnr" v="213407" />
	</node>
	<node id="-841658" lat="63.7029861128" lon="9.75784167042">
		<tag k="fixme" v="consider seamark:type=rock or natural=shoal" />
		<tag k="name" v="Sandskjæret" />
		<tag k="place" v="islet" />
		<tag k="ssr:stedsnr" v="576657" />
	</node>
	<node id="-842168" lat="63.6781111119" lon="9.55681389732">
		<tag k="name" v="Rausigrunnen" />
		<tag k="natural" v="shoal" />
		<tag k="place" v="locality" />
		<tag k="ssr:stedsnr" v="460951" />
	</node>
	<node id="-842167" lat="63.6949861153" lon="9.43001944874">
		<tag k="fixme" v="consider seamark:type=rock or natural=shoal" />
		<tag k="name" v="Båvikskjæret" />
		<tag k="place" v="islet" />
		<tag k="ssr:stedsnr" v="152461" />
	</node>
	<node id="-842164" lat="63.7329083341" lon="9.62408610715">
		<tag k="name" v="Storkråka" />
		<tag k="natural" v="cape" />
		<tag k="ssr:stedsnr" v="35770" />
	</node>
	<node id="-842161" lat="63.7269273894" lon="9.53068538299">
		<tag k="fixme" v="consider seamark:type=rock or natural=shoal" />
		<tag k="name" v="Kjeungskjæret" />
		<tag k="place" v="islet" />
		<tag k="ssr:stedsnr" v="455327" />
	</node>
	<node id="-841647" lat="63.6975166672" lon="9.67996110322">
		<tag k="alt_name" v="Store Bruholmen" />
		<tag k="name" v="Bruholmen" />
		<tag k="natural" v="cape" />
		<tag k="ssr:stedsnr" v="802050" />
	</node>
	<node id="-841646" lat="63.6422388911" lon="9.39383333219">
		<tag k="name" v="Litlesundtaren" />
		<tag k="natural" v="shoal" />
		<tag k="place" v="locality" />
		<tag k="ssr:stedsnr" v="881373" />
	</node>
	<node id="-841644" lat="63.6501055546" lon="9.40823333823">
		<tag k="name" v="Oksbåsneset" />
		<tag k="natural" v="cape" />
		<tag k="ssr:stedsnr" v="581811" />
	</node>
	<node id="-842154" lat="63.6547333375" lon="9.43412223107">
		<tag k="name" v="Munken" />
		<tag k="natural" v="bay" />
		<tag k="ssr:stedsnr" v="156803" />
	</node>
	<node id="-841641" lat="63.6857361072" lon="9.40532777381">
		<tag k="name" v="Grønnmyrfjæra" />
		<tag k="natural" v="shoal" />
		<tag k="place" v="locality" />
		<tag k="ssr:stedsnr" v="399792" />
	</node>
	<node id="-842128" lat="63.7262166624" lon="9.57844166326">
		<tag k="fixme" v="consider seamark:type=rock or natural=shoal" />
		<tag k="name" v="Rognskjæret" />
		<tag k="place" v="islet" />
		<tag k="ssr:stedsnr" v="823814" />
	</node>
	<node id="-841636" lat="63.6979444412" lon="9.48689999341">
		<tag k="name" v="Espelandstaren" />
		<tag k="natural" v="shoal" />
		<tag k="place" v="locality" />
		<tag k="ssr:stedsnr" v="213084" />
	</node>
	<node id="-841634" lat="63.6747388918" lon="9.66597499478">
		<tag k="name" v="Hovdtåa" />
		<tag k="natural" v="cape" />
		<tag k="ssr:stedsnr" v="437055" />
	</node>
	<node id="-842145" lat="63.7326888931" lon="9.46987777636">
		<tag k="name" v="Nordflua" />
		<tag k="natural" v="shoal" />
		<tag k="place" v="locality" />
		<tag k="ssr:stedsnr" v="637102" />
	</node>
	<node id="-842143" lat="63.709841668" lon="9.37010000952">
		<tag k="name" v="Stortaren" />
		<tag k="natural" v="shoal" />
		<tag k="place" v="locality" />
		<tag k="ssr:stedsnr" v="152456" />
	</node>
	<node id="-841629" lat="63.687441666" lon="9.40459722349">
		<tag k="name" v="Smålyngholman" />
		<tag k="place" v="islet" />
		<tag k="ssr:stedsnr" v="34798" />
	</node>
	<node id="-841628" lat="63.6909333297" lon="9.47717222397">
		<tag k="name" v="Urdseggtaren" />
		<tag k="natural" v="shoal" />
		<tag k="place" v="locality" />
		<tag k="ssr:stedsnr" v="213085" />
	</node>
	<node id="-842137" lat="63.7051166623" lon="9.36876387892">
		<tag k="name" v="Litletaren" />
		<tag k="natural" v="shoal" />
		<tag k="place" v="locality" />
		<tag k="ssr:stedsnr" v="152457" />
	</node>
	<node id="-841633" lat="63.6404694465" lon="9.49908056115">
		<tag k="name" v="Tjuvneset" />
		<tag k="natural" v="cape" />
		<tag k="ssr:stedsnr" v="581884" />
	</node>
	<node id="-841618" lat="63.6867750041" lon="9.4171833269">
		<tag k="name" v="Sandøra" />
		<tag k="natural" v="beach" />
		<tag k="place" v="locality" />
		<tag k="ssr:stedsnr" v="460831" />
	</node>
	<node id="-841616" lat="63.7281166638" lon="9.59191110765">
		<tag k="name" v="Klettsundet" />
		<tag k="natural" v="strait" />
		<tag k="ssr:stedsnr" v="945856" />
	</node>
	<node id="-841615" lat="63.6383833345" lon="9.46169722473">
		<tag k="fixme" v="consider seamark:type=rock or natural=shoal" />
		<tag k="name" v="Eliasskjæret" />
		<tag k="place" v="islet" />
		<tag k="ssr:stedsnr" v="274256" />
	</node>
	<node id="-842120" lat="63.6684722221" lon="9.43089722055">
		<tag k="fixme" v="multiple name tags, choose one and add the other to alt_name" />
		<tag k="name" v="Kåret;Tennvika" />
		<tag k="natural" v="bay" />
		<tag k="ssr:stedsnr" v="823809" />
	</node>
	<node id="-841607" lat="63.6776694462" lon="9.47959999011">
		<tag k="name" v="Grandstorflua" />
		<tag k="natural" v="shoal" />
		<tag k="place" v="locality" />
		<tag k="ssr:stedsnr" v="456283" />
	</node>
	<node id="-841605" lat="63.6975944454" lon="9.36963888171">
		<tag k="name" v="Nilsetaren" />
		<tag k="natural" v="shoal" />
		<tag k="place" v="locality" />
		<tag k="ssr:stedsnr" v="92365" />
	</node>
	<node id="-842134" lat="63.6627194429" lon="9.43374167279">
		<tag k="name" v="Kilaneset" />
		<tag k="natural" v="cape" />
		<tag k="ssr:stedsnr" v="156805" />
	</node>
	<node id="-841602" lat="63.6973555541" lon="9.73970554854">
		<tag k="name" v="Jektvika" />
		<tag k="natural" v="bay" />
		<tag k="ssr:stedsnr" v="885760" />
	</node>
	<node id="-841597" lat="63.6389916707" lon="9.49400277437">
		<tag k="name" v="Nebbtaren" />
		<tag k="natural" v="shoal" />
		<tag k="place" v="locality" />
		<tag k="ssr:stedsnr" v="274253" />
	</node>
	<node id="-841596" lat="63.7129555523" lon="9.54834445069">
		<tag k="name" v="Øra" />
		<tag k="natural" v="beach" />
		<tag k="place" v="locality" />
		<tag k="ssr:stedsnr" v="885761" />
	</node>
	<node id="-841593" lat="63.636900001" lon="9.33665832849">
		<tag k="name" v="Kalvholmen" />
		<tag k="place" v="islet" />
		<tag k="ssr:stedsnr" v="73069" />
	</node>
	<node id="-841592" lat="63.7292194412" lon="9.50841666879">
		<tag k="fixme" v="consider seamark:type=rock or natural=shoal" />
		<tag k="name" v="Soldaterskjæret" />
		<tag k="place" v="islet" />
		<tag k="ssr:stedsnr" v="395099" />
	</node>
	<node id="-842103" lat="63.6873333325" lon="9.4532555504">
		<tag k="name" v="Bertegrunnen" />
		<tag k="natural" v="shoal" />
		<tag k="place" v="locality" />
		<tag k="ssr:stedsnr" v="334392" />
	</node>
	<node id="-842101" lat="63.7118277793" lon="9.53582777195">
		<tag k="name" v="Nordbukta" />
		<tag k="natural" v="bay" />
		<tag k="ssr:stedsnr" v="278881" />
	</node>
	<node id="-841587" lat="63.6873444429" lon="9.38456944999">
		<tag k="name" v="Hausen" />
		<tag k="natural" v="shoal" />
		<tag k="place" v="locality" />
		<tag k="ssr:stedsnr" v="92367" />
	</node>
	<node id="-841581" lat="63.6717777815" lon="9.43362778039">
		<tag k="name" v="Bertelsvika" />
		<tag k="natural" v="bay" />
		<tag k="ssr:stedsnr" v="941475" />
	</node>
	<node id="-841959" lat="63.6692277757" lon="9.33182778664">
		<tag k="name" v="Skjåholmen" />
		<tag k="place" v="islet" />
		<tag k="ssr:stedsnr" v="255048" />
	</node>
	<node id="-842088" lat="63.6936361068" lon="9.68411665648">
		<tag k="fixme" v="multiple name tags, choose one and add the other to alt_name" />
		<tag k="name" v="Brekstadbukta;Ørlandsbukta" />
		<tag k="natural" v="bay" />
		<tag k="ssr:stedsnr" v="558025" />
	</node>
	<node id="-841573" lat="63.6722388872" lon="9.29241388559">
		<tag k="name" v="Litleflua" />
		<tag k="natural" v="shoal" />
		<tag k="place" v="locality" />
		<tag k="ssr:stedsnr" v="92362" />
	</node>
	<node id="-842084" lat="63.7142416643" lon="9.53295277965">
		<tag k="name" v="Gjesebukta" />
		<tag k="natural" v="bay" />
		<tag k="ssr:stedsnr" v="702954" />
	</node>
	<node id="-841571" lat="63.6522166674" lon="9.54921389172">
		<tag k="name" v="Rønsholmen" />
		<tag k="place" v="islet" />
		<tag k="ssr:stedsnr" v="885731" />
	</node>
	<node id="-841570" lat="63.718636111" lon="9.47812778581">
		<tag k="name" v="Juldagan" />
		<tag k="place" v="islet" />
		<tag k="ssr:stedsnr" v="195019" />
	</node>
	<node id="-841567" lat="63.6644666684" lon="9.60821388168">
		<tag k="name" v="Flustøtta" />
		<tag k="natural" v="shoal" />
		<tag k="place" v="locality" />
		<tag k="ssr:stedsnr" v="880353" />
	</node>
	<node id="-841562" lat="63.7224527786" lon="9.49606389855">
		<tag k="alt_name" v="Flatøya" />
		<tag k="name" v="Store Flatøya" />
		<tag k="place" v="islet" />
		<tag k="ssr:stedsnr" v="255013" />
	</node>
	<node id="-841561" lat="63.6768416697" lon="9.36059722816">
		<tag k="fixme" v="consider seamark:type=rock or natural=shoal" />
		<tag k="name" v="Maltsekken" />
		<tag k="place" v="islet" />
		<tag k="ssr:stedsnr" v="316033" />
	</node>
	<node id="-842072" lat="63.6439252004" lon="9.32706261697">
		<tag k="name" v="Kråkvåg" />
		<tag k="place" v="island" />
		<tag k="ssr:stedsnr" v="376062" />
	</node>
	<node id="-841559" lat="63.7058388846" lon="9.35014165754">
		<tag k="name" v="Langtaren" />
		<tag k="natural" v="shoal" />
		<tag k="place" v="locality" />
		<tag k="ssr:stedsnr" v="213461" />
	</node>
	<node id="-841558" lat="63.6442777798" lon="9.22557499353">
		<tag k="alt_name" v="Flessa" />
		<tag k="name" v="Flesa" />
		<tag k="place" v="islet" />
		<tag k="ssr:stedsnr" v="638018" />
	</node>
	<node id="-842069" lat="63.6777055529" lon="9.27915276974">
		<tag k="fixme" v="consider seamark:type=rock or natural=shoal" />
		<tag k="name" v="Uggsteinskjæra" />
		<tag k="place" v="islet" />
		<tag k="ssr:stedsnr" v="923040" />
	</node>
	<node id="-841554" lat="63.7357916641" lon="9.62009445418">
		<tag k="fixme" v="consider seamark:type=rock or natural=shoal" />
		<tag k="name" v="Kråkungen" />
		<tag k="place" v="islet" />
		<tag k="ssr:stedsnr" v="516346" />
	</node>
	<node id="-842065" lat="63.6770138906" lon="9.31320000814">
		<tag k="name" v="Fillgrunnen" />
		<tag k="natural" v="shoal" />
		<tag k="place" v="locality" />
		<tag k="ssr:stedsnr" v="456360" />
	</node>
	<node id="-842059" lat="63.6622750022" lon="9.33538054837">
		<tag k="fixme" v="consider seamark:type=rock or natural=shoal" />
		<tag k="name" v="Sandskjæret" />
		<tag k="place" v="islet" />
		<tag k="ssr:stedsnr" v="456364" />
	</node>
	<node id="-841546" lat="63.7003333307" lon="9.44878610235">
		<tag k="name" v="Sandholman" />
		<tag k="place" v="islet" />
		<tag k="ssr:stedsnr" v="396998" />
	</node>
	<node id="-841544" lat="63.7342694449" lon="9.54826388089">
		<tag k="name" v="Nygrunnen" />
		<tag k="natural" v="shoal" />
		<tag k="place" v="locality" />
		<tag k="ssr:stedsnr" v="273352" />
	</node>
	<node id="-842055" lat="63.6397833324" lon="9.32377500345">
		<tag k="name" v="Hestneset" />
		<tag k="natural" v="cape" />
		<tag k="ssr:stedsnr" v="216819" />
	</node>
	<node id="-842054" lat="63.7238833308" lon="9.57684165673">
		<tag k="fixme" v="consider seamark:type=rock or natural=shoal" />
		<tag k="name" v="Leksaskjæret" />
		<tag k="place" v="islet" />
		<tag k="ssr:stedsnr" v="398860" />
	</node>
	<node id="-842209" lat="63.6692472234" lon="9.2982027794">
		<tag k="name" v="Uggsteinen" />
		<tag k="place" v="islet" />
		<tag k="ssr:stedsnr" v="923045" />
	</node>
	<node id="-841540" lat="63.7282194442" lon="9.60266944423">
		<tag k="name" v="Likskjæret" />
		<tag k="natural" v="cape" />
		<tag k="ssr:stedsnr" v="641987" />
	</node>
	<node id="-842050" lat="63.6426055551" lon="9.474166665">
		<tag k="name" v="Tjuvholmen" />
		<tag k="place" v="islet" />
		<tag k="ssr:stedsnr" v="92014" />
	</node>
	<node id="-841534" lat="63.6735749963" lon="9.51097500347">
		<tag k="name" v="Raudsidgrunnen" />
		<tag k="natural" v="shoal" />
		<tag k="place" v="locality" />
		<tag k="ssr:stedsnr" v="334270" />
	</node>
	<node id="-842045" lat="63.6569194409" lon="9.36898334096">
		<tag k="name" v="Nordvika" />
		<tag k="natural" v="bay" />
		<tag k="ssr:stedsnr" v="216823" />
	</node>
	<node id="-841530" lat="63.7357916672" lon="9.5054750072">
		<tag k="name" v="Kisteinen" />
		<tag k="place" v="islet" />
		<tag k="ssr:stedsnr" v="195011" />
	</node>
	<node id="-841529" lat="63.6418055532" lon="9.45870833558">
		<tag k="fixme" v="consider seamark:type=rock or natural=shoal" />
		<tag k="name" v="Vågskjæret" />
		<tag k="place" v="islet" />
		<tag k="ssr:stedsnr" v="151495" />
	</node>
	<node id="-841525" lat="63.68135" lon="9.32194167496">
		<tag k="name" v="Skjåholmflua" />
		<tag k="natural" v="shoal" />
		<tag k="place" v="locality" />
		<tag k="ssr:stedsnr" v="759347" />
	</node>
	<node id="-841521" lat="63.6913583307" lon="9.55220832728">
		<tag k="name" v="Grandvika" />
		<tag k="natural" v="bay" />
		<tag k="ssr:stedsnr" v="316027" />
	</node>
	<node id="-841517" lat="63.6526305588" lon="9.3298972194">
		<tag k="name" v="Litlslåttøya" />
		<tag k="place" v="islet" />
		<tag k="ssr:stedsnr" v="134064" />
	</node>
	<node id="-841516" lat="63.6491527774" lon="9.34267777846">
		<tag k="alt_name" v="Kråkvågneset" />
		<tag k="name" v="Neset" />
		<tag k="natural" v="cape" />
		<tag k="ssr:stedsnr" v="134200" />
	</node>
	<node id="-842026" lat="63.6643333318" lon="9.6042722136">
		<tag k="name" v="Flatnesflua" />
		<tag k="natural" v="shoal" />
		<tag k="place" v="locality" />
		<tag k="ssr:stedsnr" v="941351" />
	</node>
	<node id="-842119" lat="63.7060305518" lon="9.34697778228">
		<tag k="alt_name" v="Tårnet" />
		<tag k="name" v="Store Tårnet" />
		<tag k="place" v="islet" />
		<tag k="ssr:stedsnr" v="923027" />
	</node>
	<node id="-842024" lat="63.6455583289" lon="9.45995555962">
		<tag k="name" v="Ramsbolet" />
		<tag k="natural" v="cape" />
		<tag k="ssr:stedsnr" v="216814" />
	</node>
	<node id="-842021" lat="63.6714944467" lon="9.28123332488">
		<tag k="name" v="Vesterflua" />
		<tag k="natural" v="shoal" />
		<tag k="place" v="locality" />
		<tag k="ssr:stedsnr" v="334359" />
	</node>
	<node id="-841506" lat="63.6420999981" lon="9.33855555444">
		<tag k="name" v="Båtvika" />
		<tag k="natural" v="bay" />
		<tag k="ssr:stedsnr" v="945832" />
	</node>
	<node id="-842014" lat="63.7102249975" lon="9.45056666014">
		<tag k="fixme" v="consider seamark:type=rock or natural=shoal" />
		<tag k="name" v="Kobbskjæra" />
		<tag k="place" v="islet" />
		<tag k="ssr:stedsnr" v="923018" />
	</node>
	<node id="-842117" lat="63.6556027822" lon="9.42933888346">
		<tag k="name" v="Valen" />
		<tag k="natural" v="bay" />
		<tag k="ssr:stedsnr" v="459834" />
	</node>
	<node id="-841500" lat="63.7173277754" lon="9.46589999716">
		<tag k="fixme" v="consider seamark:type=rock or natural=shoal" />
		<tag k="name" v="Juldagsskjæra" />
		<tag k="place" v="islet" />
		<tag k="ssr:stedsnr" v="437025" />
	</node>
	<node id="-842011" lat="63.7476638909" lon="9.68315000349">
		<tag k="name" v="Maritbukta" />
		<tag k="natural" v="bay" />
		<tag k="ssr:stedsnr" v="96749" />
	</node>
	<node id="-841497" lat="63.6976472257" lon="9.7385638879">
		<tag k="name" v="Jektvikan" />
		<tag k="natural" v="cape" />
		<tag k="ssr:stedsnr" v="438764" />
	</node>
	<node id="-842008" lat="63.6999111086" lon="9.25366111083">
		<tag k="name" v="Svissaflua" />
		<tag k="natural" v="shoal" />
		<tag k="place" v="locality" />
		<tag k="ssr:stedsnr" v="395380" />
	</node>
	<node id="-842007" lat="63.6770749972" lon="9.29771944433">
		<tag k="name" v="Øysterflua" />
		<tag k="natural" v="shoal" />
		<tag k="place" v="locality" />
		<tag k="ssr:stedsnr" v="395381" />
	</node>
	<node id="-842006" lat="63.6713416688" lon="9.36937499525">
		<tag k="name" v="Bergholman" />
		<tag k="place" v="islet" />
		<tag k="ssr:stedsnr" v="823792" />
	</node>
	<node id="-842005" lat="63.6402527761" lon="9.50591944283">
		<tag k="name" v="Rabbsjøen" />
		<tag k="natural" v="bay" />
		<tag k="ssr:stedsnr" v="520967" />
	</node>
	<node id="-841491" lat="63.704000003" lon="9.34275556353">
		<tag k="fixme" v="consider seamark:type=rock or natural=shoal" />
		<tag k="name" v="Litle Tårnet" />
		<tag k="place" v="islet" />
		<tag k="ssr:stedsnr" v="518000" />
	</node>
	<node id="-842000" lat="63.7024083291" lon="9.39118612042">
		<tag k="fixme" v="consider seamark:type=rock or natural=shoal" />
		<tag k="name" v="Midtre Tørrskjæret" />
		<tag k="place" v="islet" />
		<tag k="ssr:stedsnr" v="820118" />
	</node>
	<node id="-841486" lat="63.6541027735" lon="9.37771944907">
		<tag k="name" v="Skålvika" />
		<tag k="natural" v="bay" />
		<tag k="ssr:stedsnr" v="941452" />
	</node>
	<node id="-842104" lat="63.654455559" lon="9.58311666675">
		<tag k="name" v="Vorpholmflua" />
		<tag k="natural" v="shoal" />
		<tag k="place" v="locality" />
		<tag k="ssr:stedsnr" v="151396" />
	</node>
	<node id="-841996" lat="63.6747361106" lon="9.39394721337">
		<tag k="name" v="Sørosen" />
		<tag k="natural" v="bay" />
		<tag k="ssr:stedsnr" v="823788" />
	</node>
	<node id="-841483" lat="63.7099166663" lon="9.53172221532">
		<tag k="fixme" v="consider seamark:type=rock or natural=shoal" />
		<tag k="name" v="Olaskjæret" />
		<tag k="place" v="islet" />
		<tag k="ssr:stedsnr" v="96860" />
	</node>
	<node id="-841994" lat="63.677502777" lon="9.33473611186">
		<tag k="name" v="Larsgrunnen" />
		<tag k="natural" v="shoal" />
		<tag k="place" v="locality" />
		<tag k="ssr:stedsnr" v="334366" />
	</node>
	<node id="-842199" lat="63.7079527804" lon="9.39864722499">
		<tag k="name" v="Tørrskjærtaren" />
		<tag k="natural" v="shoal" />
		<tag k="place" v="locality" />
		<tag k="ssr:stedsnr" v="334401" />
	</node>
	<node id="-841480" lat="63.6412222217" lon="9.53867500612">
		<tag k="name" v="Værneset" />
		<tag k="natural" v="cape" />
		<tag k="ssr:stedsnr" v="460788" />
	</node>
	<node id="-842028" lat="63.6460444424" lon="9.50123334071">
		<tag k="name" v="Valholman" />
		<tag k="place" v="islet" />
		<tag k="ssr:stedsnr" v="399945" />
	</node>
	<node id="-841989" lat="63.6894055554" lon="9.4120583418">
		<tag k="name" v="Osen" />
		<tag k="natural" v="bay" />
		<tag k="ssr:stedsnr" v="216809" />
	</node>
	<node id="-841473" lat="63.7101166632" lon="9.8002055595">
		<tag k="alt_name" v="Tømmerliskjeret" />
		<tag k="fixme" v="consider seamark:type=rock or natural=shoal" />
		<tag k="name" v="Tømmerliskjæret" />
		<tag k="place" v="islet" />
		<tag k="ssr:stedsnr" v="438795" />
	</node>
	<node id="-841984" lat="63.7112416655" lon="9.35994166548">
		<tag k="name" v="Vettabåen" />
		<tag k="natural" v="shoal" />
		<tag k="place" v="locality" />
		<tag k="ssr:stedsnr" v="92428" />
	</node>
	<node id="-841470" lat="63.7284361103" lon="9.59279722699">
		<tag k="fixme" v="consider seamark:type=rock or natural=shoal" />
		<tag k="name" v="Kletten" />
		<tag k="place" v="islet" />
		<tag k="ssr:stedsnr" v="945851" />
	</node>
	<node id="-842197" lat="63.7288444462" lon="9.6036138987">
		<tag k="fixme" v="consider seamark:type=rock or natural=shoal" />
		<tag k="name" v="Likskjærstøtta" />
		<tag k="place" v="islet" />
		<tag k="ssr:stedsnr" v="216852" />
	</node>
	<node id="-841980" lat="63.7068611105" lon="9.80946111763">
		<tag k="name" v="Kalvåflua" />
		<tag k="natural" v="shoal" />
		<tag k="place" v="locality" />
		<tag k="ssr:stedsnr" v="619835" />
	</node>
	<node id="-841464" lat="63.6517250038" lon="9.3729138938">
		<tag k="name" v="Purkholmen" />
		<tag k="place" v="islet" />
		<tag k="ssr:stedsnr" v="34810" />
	</node>
	<node id="-841975" lat="63.6450305595" lon="9.5442916586">
		<tag k="name" v="Korsvika" />
		<tag k="natural" v="bay" />
		<tag k="ssr:stedsnr" v="763749" />
	</node>
	<node id="-841456" lat="63.6777638918" lon="9.28863054819">
		<tag k="name" v="Nordtaren" />
		<tag k="natural" v="shoal" />
		<tag k="place" v="locality" />
		<tag k="ssr:stedsnr" v="699361" />
	</node>
	<node id="-841455" lat="63.7028583323" lon="9.51564444385">
		<tag k="name" v="Ribeflua" />
		<tag k="natural" v="shoal" />
		<tag k="place" v="locality" />
		<tag k="ssr:stedsnr" v="821996" />
	</node>
	<node id="-841966" lat="63.6837638871" lon="9.54999721448">
		<tag k="name" v="Kløholmen" />
		<tag k="place" v="islet" />
		<tag k="ssr:stedsnr" v="862039" />
	</node>
	<node id="-842109" lat="63.7333749976" lon="9.63118888251">
		<tag k="name" v="Bjellkuøya" />
		<tag k="natural" v="cape" />
		<tag k="ssr:stedsnr" v="763987" />
	</node>
	<node id="-841963" lat="63.6860611142" lon="9.40090276846">
		<tag k="fixme" v="consider seamark:type=rock or natural=shoal" />
		<tag k="name" v="Grønnmyrskjæra" />
		<tag k="place" v="islet" />
		<tag k="ssr:stedsnr" v="398821" />
	</node>
	<node id="-841448" lat="63.6627111155" lon="9.43051944756">
		<tag k="name" v="Kilen" />
		<tag k="natural" v="bay" />
		<tag k="ssr:stedsnr" v="437063" />
	</node>
	<node id="-842108" lat="63.7289555547" lon="9.59102223207">
		<tag k="fixme" v="consider seamark:type=rock or natural=shoal" />
		<tag k="name" v="Klettskjæra" />
		<tag k="place" v="islet" />
		<tag k="ssr:stedsnr" v="763986" />
	</node>
	<node id="-841445" lat="63.6584388923" lon="9.32038888032">
		<tag k="name" v="Bukkholmen" />
		<tag k="place" v="islet" />
		<tag k="ssr:stedsnr" v="699355" />
	</node>
	<node id="-841956" lat="63.722441664" lon="9.57423611893">
		<tag k="name" v="Skarbukta" />
		<tag k="natural" v="bay" />
		<tag k="ssr:stedsnr" v="34839" />
	</node>
	<node id="-841955" lat="63.6350472231" lon="9.33084444291">
		<tag k="alt_name" v="Kommerøya" />
		<tag k="name" v="Kommersøya" />
		<tag k="place" v="island" />
		<tag k="ssr:stedsnr" v="316073" />
	</node>
	<node id="-841442" lat="63.6847777741" lon="9.39949721849">
		<tag k="fixme" v="consider seamark:type=rock or natural=shoal" />
		<tag k="name" v="Nubban" />
		<tag k="place" v="islet" />
		<tag k="ssr:stedsnr" v="702849" />
	</node>
	<node id="-841953" lat="63.6560944431" lon="9.34845834167">
		<tag k="name" v="Kråkvågsvaet" />
		<tag k="natural" v="strait" />
		<tag k="ssr:stedsnr" v="255049" />
	</node>
	<node id="-841950" lat="63.6907222227" lon="9.38896110717">
		<tag k="name" v="Jekttaren" />
		<tag k="natural" v="shoal" />
		<tag k="place" v="locality" />
		<tag k="ssr:stedsnr" v="152406" />
	</node>
	<node id="-841946" lat="63.6488777801" lon="9.32544444408">
		<tag k="name" v="Midtholmen" />
		<tag k="place" v="islet" />
		<tag k="ssr:stedsnr" v="823801" />
	</node>
	<node id="-841431" lat="63.6623219257" lon="9.36897771003">
		<tag k="name" v="Neset" />
		<tag k="natural" v="cape" />
		<tag k="ssr:stedsnr" v="580839" />
	</node>
	<node id="-841430" lat="63.6589944421" lon="9.58834166403">
		<tag k="fixme" v="consider seamark:type=rock or natural=shoal" />
		<tag k="name" v="Kvitsandskjæra" />
		<tag k="place" v="islet" />
		<tag k="ssr:stedsnr" v="316047" />
	</node>
	<node id="-842105" lat="63.6801611105" lon="9.43249999005">
		<tag k="name" v="Markneset" />
		<tag k="natural" v="cape" />
		<tag k="ssr:stedsnr" v="216833" />
	</node>
	<node id="-841427" lat="63.6504861095" lon="9.32336667252">
		<tag k="name" v="Valholmen" />
		<tag k="place" v="islet" />
		<tag k="ssr:stedsnr" v="95829" />
	</node>
	<node id="-841424" lat="63.7267083294" lon="9.51331388915">
		<tag k="fixme" v="consider seamark:type=rock or natural=shoal" />
		<tag k="name" v="Nordre Flatøyskjæret" />
		<tag k="place" v="islet" />
		<tag k="ssr:stedsnr" v="759100" />
	</node>
	<node id="-841423" lat="63.6982055576" lon="9.4310583349">
		<tag k="bay" v="fjord" />
		<tag k="name" v="Lyngholmråsa" />
		<tag k="natural" v="bay" />
		<tag k="ssr:stedsnr" v="316018" />
	</node>
	<node id="-841421" lat="63.6695370824" lon="9.39867419044">
		<tag k="name" v="Storfosna" />
		<tag k="place" v="island" />
		<tag k="ssr:stedsnr" v="802059" />
	</node>
	<node id="-841420" lat="63.7128444426" lon="9.53983611316">
		<tag k="alt_name" v="Hoøya" />
		<tag k="name" v="Øya" />
		<tag k="natural" v="cape" />
		<tag k="ssr:stedsnr" v="316017" />
	</node>
	<node id="-841928" lat="63.6905722218" lon="9.7320916589">
		<tag k="name" v="Skjegghaugflua" />
		<tag k="natural" v="shoal" />
		<tag k="place" v="locality" />
		<tag k="ssr:stedsnr" v="819668" />
	</node>
	<node id="-841414" lat="63.6671499995" lon="9.46721943894">
		<tag k="name" v="Grandvika" />
		<tag k="place" v="locality" />
		<tag k="ssr:stedsnr" v="895094" />
	</node>
	<node id="-841967" lat="63.6300250008" lon="9.3282000084">
		<tag k="name" v="Kommersøyflua" />
		<tag k="natural" v="shoal" />
		<tag k="place" v="locality" />
		<tag k="ssr:stedsnr" v="941368" />
	</node>
	<node id="-841921" lat="63.7236527756" lon="9.58318610515">
		<tag k="name" v="Rundøra" />
		<tag k="natural" v="beach" />
		<tag k="place" v="locality" />
		<tag k="ssr:stedsnr" v="216997" />
	</node>
	<node id="-841915" lat="63.66059167" lon="9.5414416593">
		<tag k="name" v="Rauskjærøra" />
		<tag k="natural" v="beach" />
		<tag k="place" v="locality" />
		<tag k="ssr:stedsnr" v="278818" />
	</node>
	<node id="-841914" lat="63.6384777783" lon="9.31362499297">
		<tag k="name" v="Kråkøya" />
		<tag k="natural" v="cape" />
		<tag k="ssr:stedsnr" v="316057" />
	</node>
	<node id="-841401" lat="63.6863250034" lon="9.40367778277">
		<tag k="name" v="Grønnmyrskjæra" />
		<tag k="place" v="islet" />
		<tag k="ssr:stedsnr" v="751574" />
	</node>
	<node id="-841910" lat="63.7324722188" lon="9.62159722731">
		<tag k="name" v="Litlkråka" />
		<tag k="natural" v="cape" />
		<tag k="ssr:stedsnr" v="156738" />
	</node>
	<node id="-841907" lat="63.6605500041" lon="9.32455555445">
		<tag k="name" v="Storslåttøya" />
		<tag k="place" v="island" />
		<tag k="ssr:stedsnr" v="498049" />
	</node>
	<node id="-841906" lat="63.7188511229" lon="9.5379702914">
		<tag k="name" v="Tørresholmen" />
		<tag k="place" v="islet" />
		<tag k="ssr:stedsnr" v="702877" />
	</node>
	<node id="-841903" lat="63.6525638914" lon="9.57605000195">
		<tag k="name" v="Vorpholmen" />
		<tag k="place" v="islet" />
		<tag k="ssr:stedsnr" v="195049" />
	</node>
	<node id="-841501" lat="63.6406361076" lon="9.31616111109">
		<tag k="name" v="Kråkøyplatten" />
		<tag k="place" v="locality" />
		<tag k="ssr:stedsnr" v="824794" />
	</node>
	<node id="-841900" lat="63.6551444442" lon="9.39594166106">
		<tag k="name" v="Vika" />
		<tag k="natural" v="bay" />
		<tag k="ssr:stedsnr" v="885777" />
	</node>
	<node id="-841899" lat="63.6975666631" lon="9.67900277757">
		<tag k="alt_name" v="Bruholmen" />
		<tag k="name" v="Litle Bruholmen" />
		<tag k="place" v="islet" />
		<tag k="ssr:stedsnr" v="638074" />
	</node>
	<node id="-842181" lat="63.6700750014" lon="9.63114722334">
		<tag k="fixme" v="consider seamark:type=rock or natural=shoal" />
		<tag k="name" v="Kannaskjæret" />
		<tag k="place" v="islet" />
		<tag k="ssr:stedsnr" v="923051" />
	</node>
	<node id="-841893" lat="63.6412111088" lon="9.38200832636">
		<tag k="fixme" v="consider seamark:type=rock or natural=shoal" />
		<tag k="name" v="Likskjæret" />
		<tag k="place" v="islet" />
		<tag k="ssr:stedsnr" v="741074" />
	</node>
	<node id="-841888" lat="63.7245222257" lon="9.52281111431">
		<tag k="fixme" v="consider seamark:type=rock or natural=shoal" />
		<tag k="name" v="Kjeungan" />
		<tag k="place" v="islet" />
		<tag k="ssr:stedsnr" v="558010" />
	</node>
	<node id="-841885" lat="63.6391083328" lon="9.34037778507">
		<tag k="name" v="Spissholmen" />
		<tag k="place" v="islet" />
		<tag k="ssr:stedsnr" v="437069" />
	</node>
	<node id="-841883" lat="63.7229194441" lon="9.49599445175">
		<tag k="name" v="Bjørnholmen" />
		<tag k="place" v="islet" />
		<tag k="ssr:stedsnr" v="619008" />
	</node>
	<node id="-841882" lat="63.6760611074" lon="9.38370555023">
		<tag k="name" v="Småholman" />
		<tag k="place" v="islet" />
		<tag k="ssr:stedsnr" v="580844" />
	</node>
	<node id="-841881" lat="63.6384250042" lon="9.35905832491">
		<tag k="name" v="Spissflua" />
		<tag k="natural" v="shoal" />
		<tag k="place" v="locality" />
		<tag k="ssr:stedsnr" v="516376" />
	</node>
	<node id="-842009" lat="63.7106500027" lon="9.49255277484">
		<tag k="name" v="Svartskjærtaren" />
		<tag k="natural" v="shoal" />
		<tag k="place" v="locality" />
		<tag k="ssr:stedsnr" v="862030" />
	</node>
	<node id="-841876" lat="63.6465638881" lon="9.3556472243">
		<tag k="name" v="Svataren" />
		<tag k="natural" v="shoal" />
		<tag k="place" v="locality" />
		<tag k="ssr:stedsnr" v="516374" />
	</node>
	<node id="-841874" lat="63.7204111111" lon="9.54913055601">
		<tag k="name" v="Neset" />
		<tag k="natural" v="cape" />
		<tag k="ssr:stedsnr" v="862018" />
	</node>
	<node id="-842179" lat="63.6509944416" lon="9.55045276975">
		<tag k="name" v="Beisundet" />
		<tag k="natural" v="strait" />
		<tag k="ssr:stedsnr" v="619056" />
	</node>
	<node id="-841871" lat="63.6731264209" lon="9.37397965092">
		<tag k="name" v="Kuholman" />
		<tag k="place" v="islet" />
		<tag k="ssr:stedsnr" v="448582" />
	</node>
	<node id="-841867" lat="63.7383805527" lon="9.65936943477">
		<tag k="name" v="Ørsleie" />
		<tag k="natural" v="cape" />
		<tag k="ssr:stedsnr" v="438006" />
	</node>
	<node id="-841865" lat="63.6499500027" lon="9.22613333643">
		<tag k="name" v="Framflua" />
		<tag k="natural" v="shoal" />
		<tag k="place" v="locality" />
		<tag k="ssr:stedsnr" v="213110" />
	</node>
	<node id="-841850" lat="63.7379722213" lon="9.63462499869">
		<tag k="fixme" v="consider seamark:type=rock or natural=shoal" />
		<tag k="name" v="Bymannen" />
		<tag k="place" v="islet" />
		<tag k="ssr:stedsnr" v="455335" />
	</node>
	<node id="-841843" lat="63.6585361112" lon="9.48686944537">
		<tag k="name" v="Kjellgrunnen" />
		<tag k="natural" v="shoal" />
		<tag k="place" v="locality" />
		<tag k="ssr:stedsnr" v="92280" />
	</node>
	<node id="-841842" lat="63.6547833369" lon="9.37088056548">
		<tag k="name" v="Holmen" />
		<tag k="place" v="islet" />
		<tag k="ssr:stedsnr" v="558054" />
	</node>
	<node id="-842003" lat="63.6384722254" lon="9.34301389404">
		<tag k="name" v="Stabbursholmen" />
		<tag k="place" v="islet" />
		<tag k="ssr:stedsnr" v="156776" />
	</node>
	<node id="-841828" lat="63.7076333346" lon="9.56925833348">
		<tag k="alt_name" v="Lakskløholmen" />
		<tag k="name" v="Lakskloholmen" />
		<tag k="natural" v="cape" />
		<tag k="ssr:stedsnr" v="213386" />
	</node>
	<node id="-841826" lat="63.6490555547" lon="9.54385277047">
		<tag k="name" v="Korsholman" />
		<tag k="place" v="islet" />
		<tag k="ssr:stedsnr" v="862061" />
	</node>
	<node id="-842171" lat="63.64803333" lon="9.33609166562">
		<tag k="fixme" v="consider seamark:type=rock or natural=shoal" />
		<tag k="name" v="Martinskjeret" />
		<tag k="place" v="islet" />
		<tag k="ssr:stedsnr" v="337841" />
	</node>
	<node id="-841823" lat="63.6755027814" lon="9.39573333367">
		<tag k="name" v="Nordosen" />
		<tag k="natural" v="bay" />
		<tag k="ssr:stedsnr" v="277830" />
	</node>
	<node id="-841822" lat="63.6882222228" lon="9.40782499356">
		<tag k="name" v="Kuppelvika" />
		<tag k="natural" v="bay" />
		<tag k="ssr:stedsnr" v="520804" />
	</node>
	<node id="-842085" lat="63.6553388909" lon="9.51923333614">
		<tag k="fixme" v="consider seamark:type=rock or natural=shoal" />
		<tag k="name" v="Gartskjæra" />
		<tag k="place" v="islet" />
		<tag k="ssr:stedsnr" v="13067" />
	</node>
	<node id="-841820" lat="63.6586888847" lon="9.4070666725">
		<tag k="name" v="Vebergodden" />
		<tag k="natural" v="cape" />
		<tag k="ssr:stedsnr" v="619044" />
	</node>
	<node id="-841819" lat="63.6486083354" lon="9.55243334241">
		<tag k="name" v="Sundøra" />
		<tag k="natural" v="beach" />
		<tag k="place" v="locality" />
		<tag k="ssr:stedsnr" v="945726" />
	</node>
	<node id="-841812" lat="63.6393361106" lon="9.43428889219">
		<tag k="name" v="Daumannsvika" />
		<tag k="natural" v="bay" />
		<tag k="ssr:stedsnr" v="641805" />
	</node>
	<node id="-841808" lat="63.6469444401" lon="9.49646388713">
		<tag k="alt_name" v="Kanaskjæret" />
		<tag k="fixme" v="consider seamark:type=rock or natural=shoal" />
		<tag k="name" v="Kanvasskjæret" />
		<tag k="place" v="islet" />
		<tag k="ssr:stedsnr" v="213301" />
	</node>
	<node id="-841741" lat="63.67580556" lon="9.5222722193">
		<tag k="fixme" v="consider seamark:type=rock or natural=shoal" />
		<tag k="name" v="Raudsidskjæret" />
		<tag k="place" v="islet" />
		<tag k="ssr:stedsnr" v="819388" />
	</node>
	<node id="-841802" lat="63.715652782" lon="9.50440832368">
		<tag k="name" v="Styrmannsflua" />
		<tag k="natural" v="shoal" />
		<tag k="place" v="locality" />
		<tag k="ssr:stedsnr" v="213106" />
	</node>
	<node id="-841796" lat="63.632080558" lon="9.50500554763">
		<tag k="name" v="Smellingen" />
		<tag k="place" v="islet" />
		<tag k="ssr:stedsnr" v="377067" />
	</node>
	<node id="-841794" lat="63.7058722198" lon="9.4678750002">
		<tag k="name" v="Grandholman" />
		<tag k="place" v="islet" />
		<tag k="ssr:stedsnr" v="255032" />
	</node>
	<node id="-841995" lat="63.6860055562" lon="9.41787222207">
		<tag k="name" v="Grønnøra" />
		<tag k="natural" v="beach" />
		<tag k="place" v="locality" />
		<tag k="ssr:stedsnr" v="216806" />
	</node>
	<node id="-841792" lat="63.6593027789" lon="9.43666944345">
		<tag k="alt_name" v="Neset" />
		<tag k="name" v="Kuppelvikneset" />
		<tag k="natural" v="cape" />
		<tag k="ssr:stedsnr" v="316045" />
	</node>
	<node id="-841787" lat="63.6436138882" lon="9.537041667">
		<tag k="name" v="Breivika" />
		<tag k="natural" v="bay" />
		<tag k="ssr:stedsnr" v="931479" />
	</node>
	<node id="-841786" lat="63.6522000034" lon="9.45325556157">
		<tag k="name" v="Eaneset" />
		<tag k="natural" v="cape" />
		<tag k="ssr:stedsnr" v="762785" />
	</node>
	<node id="-841785" lat="63.6702805571" lon="9.3811027843">
		<tag k="name" v="Vadosen" />
		<tag k="natural" v="bay" />
		<tag k="ssr:stedsnr" v="580848" />
	</node>
	<node id="-841993" lat="63.6614944477" lon="9.53811944782">
		<tag k="name" v="Rauholmøra" />
		<tag k="natural" v="beach" />
		<tag k="place" v="locality" />
		<tag k="ssr:stedsnr" v="399948" />
	</node>
	<node id="-841777" lat="63.6345694489" lon="9.32371666609">
		<tag k="fixme" v="consider seamark:type=rock or natural=shoal" />
		<tag k="name" v="Tennskjeret" />
		<tag k="place" v="islet" />
		<tag k="ssr:stedsnr" v="95828" />
	</node>
	<node id="-841991" lat="63.6485742539" lon="9.26989742932">
		<tag k="alt_name" v="Krågvågfjorden" />
		<tag k="bay" v="fjord" />
		<tag k="name" v="Kråkvågfjorden" />
		<tag k="natural" v="bay" />
		<tag k="ssr:stedsnr" v="498704" />
	</node>
	<node id="-841767" lat="63.7239694485" lon="9.50623611864">
		<tag k="alt_name" v="Flatøya" />
		<tag k="name" v="Litle Flatøya" />
		<tag k="place" v="islet" />
		<tag k="ssr:stedsnr" v="741210" />
	</node>
	<node id="-841764" lat="63.663594445" lon="9.54819166207">
		<tag k="fixme" v="consider seamark:type=rock or natural=shoal" />
		<tag k="name" v="Grunnskjæret" />
		<tag k="place" v="islet" />
		<tag k="ssr:stedsnr" v="278963" />
	</node>
	<node id="-841761" lat="63.6519777746" lon="9.52826111061">
		<tag k="fixme" v="consider seamark:type=rock or natural=shoal" />
		<tag k="name" v="Brudeskjæret" />
		<tag k="place" v="islet" />
		<tag k="ssr:stedsnr" v="819387" />
	</node>
	<node id="-841758" lat="63.6808055553" lon="9.38973333136">
		<tag k="name" v="Litldalhamna" />
		<tag k="place" v="islet" />
		<tag k="ssr:stedsnr" v="824809" />
	</node>
	<node id="-841756" lat="63.651305558" lon="9.31645277767">
		<tag k="name" v="Lyngøya" />
		<tag k="place" v="island" />
		<tag k="ssr:stedsnr" v="802070" />
	</node>
	<node id="-841753" lat="63.7189027765" lon="9.52053888124">
		<tag k="name" v="Lysbotnflua" />
		<tag k="natural" v="shoal" />
		<tag k="place" v="locality" />
		<tag k="ssr:stedsnr" v="880348" />
	</node>
	<node id="-841748" lat="63.7334249977" lon="9.63549723057">
		<tag k="name" v="Sagsteinosen" />
		<tag k="natural" v="bay" />
		<tag k="ssr:stedsnr" v="460775" />
	</node>
	<node id="-841745" lat="63.6953944465" lon="9.36951110381">
		<tag k="name" v="Kjerkflua" />
		<tag k="natural" v="shoal" />
		<tag k="place" v="locality" />
		<tag k="ssr:stedsnr" v="637392" />
	</node>
	<node id="-841744" lat="63.6999416708" lon="9.37466388085">
		<tag k="fixme" v="consider seamark:type=rock or natural=shoal" />
		<tag k="name" v="Søre Tørrskjæret" />
		<tag k="place" v="islet" />
		<tag k="ssr:stedsnr" v="577106" />
	</node>
	<node id="-841901" lat="63.7094666625" lon="9.53011666582">
		<tag k="fixme" v="consider seamark:type=rock or natural=shoal" />
		<tag k="name" v="Hoøyskjæret" />
		<tag k="place" v="islet" />
		<tag k="ssr:stedsnr" v="698324" />
	</node>
	<node id="-841740" lat="63.6896722257" lon="9.55668611557">
		<tag k="fixme" v="consider seamark:type=rock or natural=shoal" />
		<tag k="name" v="Kunnaren" />
		<tag k="place" v="islet" />
		<tag k="ssr:stedsnr" v="814579" />
	</node>
	<node id="-841736" lat="63.6651944404" lon="9.33022499774">
		<tag k="name" v="Rundholmen" />
		<tag k="place" v="islet" />
		<tag k="ssr:stedsnr" v="802066" />
	</node>
	<node id="-842156" lat="63.6413861089" lon="9.40946111864">
		<tag k="name" v="Storsundtaren" />
		<tag k="natural" v="shoal" />
		<tag k="place" v="locality" />
		<tag k="ssr:stedsnr" v="274353" />
	</node>
	<node id="-841733" lat="63.6698824128" lon="9.36357090621">
		<tag k="name" v="Stongdraget" />
		<tag k="place" v="islet" />
		<tag k="ssr:stedsnr" v="266536" />
	</node>
	<node id="-841729" lat="63.7456777754" lon="9.67813888124">
		<tag k="name" v="Tjuvholet" />
		<tag k="natural" v="bay" />
		<tag k="ssr:stedsnr" v="156868" />
	</node>
</osm>
