<?xml version="1.0" encoding="UTF-8"?>
<osm generator="osmapis" version="0.6">
	<node id="-840406" lat="63.7083833376" lon="9.7222111164">
		<tag k="name" v="Austrått fort" />
		<tag k="ssr:stedsnr" v="476979" />
		<tag k="tourism" v="attraction" />
	</node>
	<node id="-839976" lat="63.7039777795" lon="9.74338332651">
		<tag k="alt_name" v="Austråttborgen" />
		<tag k="name" v="Austråttborga" />
		<tag k="place" v="locality" />
		<tag k="ssr:stedsnr" v="680837" />
	</node>
	<node id="-840590" lat="63.6628611128" lon="9.39763334104">
		<tag k="alt_name" v="Storfosna kapell" />
		<tag k="amenity" v="place_of_worship" />
		<tag k="denomination" v="lutheran" />
		<tag k="name" v="Storfosna kirke" />
		<tag k="religion" v="christian" />
		<tag k="ssr:stedsnr" v="862054" />
	</node>
	<node id="-840205" lat="63.6916036411" lon="9.65111069801">
		<tag k="alt_name" v="Ørland" />
		<tag k="amenity" v="place_of_worship" />
		<tag k="denomination" v="lutheran" />
		<tag k="name" v="Ørland kirke" />
		<tag k="religion" v="christian" />
		<tag k="ssr:stedsnr" v="73035" />
	</node>
	<node id="-840107" lat="63.7264749998" lon="9.60575554615">
		<tag k="name" v="Kjerkbakken" />
		<tag k="ssr:stedsnr" v="885985" />
		<tag k="tourism" v="attraction" />
	</node>
	<node id="-840552" lat="63.6626861153" lon="9.39258055067">
		<tag k="name" v="Slottet" />
		<tag k="place" v="locality" />
		<tag k="ssr:stedsnr" v="577455" />
	</node>
</osm>
