<?xml version="1.0" encoding="UTF-8"?>
<osm generator="osmapis" version="0.6">
	<node id="-840056" lat="63.7161111156" lon="9.76517500086">
		<tag k="name" v="Karlsengbekken" />
		<tag k="ssr:stedsnr" v="885741" />
		<tag k="waterway" v="stream" />
	</node>
	<node id="-839975" lat="63.7054694454" lon="9.75519167517">
		<tag k="name" v="Sandbergbekken" />
		<tag k="ssr:stedsnr" v="944948" />
		<tag k="waterway" v="stream" />
	</node>
	<node id="-840422" lat="63.7145194442" lon="9.58651944236">
		<tag k="name" v="Dalatjørna" />
		<tag k="natural" v="water" />
		<tag k="ssr:stedsnr" v="34830" />
	</node>
	<node id="-840365" lat="63.6794305536" lon="9.63406945345">
		<tag k="name" v="Åa" />
		<tag k="ssr:stedsnr" v="460953" />
		<tag k="waterway" v="stream" />
	</node>
	<node id="-840147" lat="63.7101027769" lon="9.78446944914">
		<tag k="name" v="Sjølibekken" />
		<tag k="ssr:stedsnr" v="35799" />
		<tag k="waterway" v="stream" />
	</node>
	<node id="-840146" lat="63.7347277766" lon="9.68764999102">
		<tag k="name" v="Storhaugbekken" />
		<tag k="ssr:stedsnr" v="217849" />
		<tag k="waterway" v="stream" />
	</node>
	<node id="-840526" lat="63.7289083313" lon="9.71645833202">
		<tag k="name" v="Litlvatnet" />
		<tag k="natural" v="water" />
		<tag k="ssr:stedsnr" v="277764" />
		<tag k="water" v="lake" />
	</node>
	<node id="-840012" lat="63.7041222219" lon="9.67299445101">
		<tag k="name" v="Biskopbekken" />
		<tag k="ssr:stedsnr" v="399850" />
		<tag k="waterway" v="stream" />
	</node>
	<node id="-840133" lat="63.7160888914" lon="9.73693888772">
		<tag k="alt_name" v="Dalaelva;Dalelva" />
		<tag k="name" v="Dalabekken" />
		<tag k="ssr:stedsnr" v="317746" />
		<tag k="waterway" v="stream" />
	</node>
	<node id="-840632" lat="63.7196277769" lon="9.77324721826">
		<tag k="name" v="Osplibekken" />
		<tag k="ssr:stedsnr" v="338947" />
		<tag k="waterway" v="stream" />
	</node>
	<node id="-840119" lat="63.7131194487" lon="9.57155555847">
		<tag k="name" v="Leirbekken" />
		<tag k="ssr:stedsnr" v="702861" />
		<tag k="waterway" v="stream" />
	</node>
	<node id="-840109" lat="63.7306777739" lon="9.78723611244">
		<tag k="name" v="Kalvåtjørna" />
		<tag k="natural" v="water" />
		<tag k="ssr:stedsnr" v="619260" />
	</node>
	<node id="-840616" lat="63.7242249994" lon="9.75510834005">
		<tag k="name" v="Ørnlibekken" />
		<tag k="ssr:stedsnr" v="559231" />
		<tag k="waterway" v="stream" />
	</node>
	<node id="-840487" lat="63.7240277739" lon="9.72372221706">
		<tag k="name" v="Rusasetvatnet" />
		<tag k="natural" v="water" />
		<tag k="ssr:stedsnr" v="377230" />
	</node>
	<node id="-840353" lat="63.7025527819" lon="9.71046111552">
		<tag k="name" v="Fuggelbekken" />
		<tag k="ssr:stedsnr" v="399770" />
		<tag k="waterway" v="stream" />
	</node>
	<node id="-840478" lat="63.704136115" lon="9.69055556171">
		<tag k="alt_name" v="Balsneselva" />
		<tag k="name" v="Ballsneselva" />
		<tag k="ssr:stedsnr" v="156763" />
		<tag k="waterway" v="river" />
	</node>
	<node id="-840477" lat="63.7122166674" lon="9.56318888017">
		<tag k="name" v="Leirbekkosen" />
		<tag k="natural" v="bay" />
		<tag k="ssr:stedsnr" v="337996" />
	</node>
	<node id="-839962" lat="63.7308722226" lon="9.75931667654">
		<tag k="name" v="Ole Olsavatnet" />
		<tag k="natural" v="water" />
		<tag k="ssr:stedsnr" v="923235" />
	</node>
	<node id="-840600" lat="63.7283000023" lon="9.78879165742">
		<tag k="name" v="Kalvåbekken" />
		<tag k="ssr:stedsnr" v="134278" />
		<tag k="waterway" v="stream" />
	</node>
	<node id="-840718" lat="63.7306416649" lon="9.75837778501">
		<tag k="name" v="Ol Olsavatnet" />
		<tag k="natural" v="water" />
		<tag k="ssr:stedsnr" v="702959" />
		<tag k="water" v="lake" />
	</node>
	<node id="-840077" lat="63.7005111098" lon="9.71311666581">
		<tag k="name" v="Fuggelbekken" />
		<tag k="ssr:stedsnr" v="459722" />
		<tag k="waterway" v="stream" />
	</node>
	<node id="-840203" lat="63.7185666648" lon="9.71517221286">
		<tag k="name" v="Stamselva" />
		<tag k="ssr:stedsnr" v="945751" />
		<tag k="waterway" v="river" />
	</node>
	<node id="-840581" lat="63.7318666675" lon="9.62433332501">
		<tag k="name" v="Kråktjørna" />
		<tag k="natural" v="water" />
		<tag k="ssr:stedsnr" v="945717" />
	</node>
	<node id="-840022" lat="63.7039250035" lon="9.6851000055">
		<tag k="name" v="Leirdalsbekken" />
		<tag k="ssr:stedsnr" v="460806" />
		<tag k="waterway" v="stream" />
	</node>
</osm>
