<?xml version="1.0" encoding="UTF-8"?>
<osm generator="osmapis" version="0.6">
	<node id="-841723" lat="63.6990083371" lon="9.60401666147">
		<tag k="aeroway" v="aerodrome" />
		<tag k="name" v="Ørland lufthavn" />
		<tag k="old_name" v="Ørland hovedflystasjon" />
		<tag k="ssr:stedsnr" v="328167" />
	</node>
	<node id="-842073" lat="63.658880553" lon="9.43663610786">
		<tag k="amenity" v="ferry_terminal" />
		<tag k="name" v="Munken ferjekai" />
		<tag k="ssr:stedsnr" v="279863" />
	</node>
	<node id="-842039" lat="63.7088249973" lon="9.67347500714">
		<tag k="alt_name" v="Skiftkroken" />
		<tag k="junction" v="yes" />
		<tag k="name" v="Skiftkrokan" />
		<tag k="place" v="locality" />
		<tag k="ssr:stedsnr" v="558018" />
	</node>
	<node id="-842038" lat="63.6455388883" lon="9.51695555036">
		<tag k="leisure" v="marina" />
		<tag k="name" v="Garthamna" />
		<tag k="ssr:stedsnr" v="96747" />
	</node>
	<node id="-841941" lat="63.7267333353" lon="9.58476945255">
		<tag k="landuse" v="harbour" />
		<tag k="name" v="Uthaug havn" />
		<tag k="seamark:type" v="harbour" />
		<tag k="ssr:stedsnr" v="641831" />
	</node>
	<node id="-841747" lat="63.6864749979" lon="9.66775833927">
		<tag k="amenity" v="ferry_terminal" />
		<tag k="name" v="Brekstad ferjekai" />
		<tag k="ssr:stedsnr" v="704849" />
	</node>
	<node id="-841905" lat="63.6999333289" lon="9.74620833495">
		<tag k="man_made" v="quay" />
		<tag k="name" v="Austrått kai" />
		<tag k="place" v="locality" />
		<tag k="ssr:stedsnr" v="277970" />
	</node>
	<node id="-841523" lat="63.7437777789" lon="9.67624722614">
		<tag k="landuse" v="harbour" />
		<tag k="name" v="Døsvik havn" />
		<tag k="seamark:type" v="harbour" />
		<tag k="ssr:stedsnr" v="399851" />
	</node>
	<node id="-841578" lat="63.6861777808" lon="9.67105556503">
		<tag k="landuse" v="harbour" />
		<tag k="name" v="Brekstad havn" />
		<tag k="seamark:type" v="harbour" />
		<tag k="ssr:stedsnr" v="885953" />
	</node>
	<node id="-841704" lat="63.6779777798" lon="9.40680832735">
		<tag k="highway" v="path" />
		<tag k="name" v="Russivegen" />
		<tag k="ssr:stedsnr" v="217779" />
	</node>
	<node id="-842118" lat="63.6505916625" lon="9.56150276769">
		<tag k="man_made" v="quay" />
		<tag k="name" v="Beian kai" />
		<tag k="place" v="locality" />
		<tag k="ssr:stedsnr" v="96768" />
	</node>
	<node id="-841457" lat="63.7269638858" lon="9.59515277424">
		<tag k="man_made" v="quay" />
		<tag k="name" v="Sjøgata" />
		<tag k="place" v="locality" />
		<tag k="ssr:stedsnr" v="702853" />
	</node>
	<node id="-841902" lat="63.716561112" lon="9.71081110745">
		<tag k="bridge" v="yes" />
		<tag k="layer" v="1" />
		<tag k="name" v="Dalabrua" />
		<tag k="ssr:stedsnr" v="107825" />
	</node>
	<node id="-841806" lat="63.6451222228" lon="9.52124721726">
		<tag k="amenity" v="ferry_terminal" />
		<tag k="name" v="Garten ferjekai" />
		<tag k="ssr:stedsnr" v="461867" />
	</node>
</osm>
