<?xml version="1.0" encoding="UTF-8"?>
<osm generator="osmapis" version="0.6">
	<node id="-840728" lat="63.7461666623" lon="9.68919444955">
		<tag k="name" v="Middagshaugen" />
		<tag k="natural" v="hill" />
		<tag k="place" v="locality" />
		<tag k="ssr:stedsnr" v="30661" />
	</node>
	<node id="-840726" lat="63.7041444485" lon="9.77113610149">
		<tag k="fixme" v="consider seamark:type=rock or natural=shoal" />
		<tag k="name" v="Rosenlundskjæret" />
		<tag k="place" v="islet" />
		<tag k="ssr:stedsnr" v="581796" />
	</node>
	<node id="-840725" lat="63.676391667" lon="9.65151944477">
		<tag k="name" v="Ysthaugen" />
		<tag k="natural" v="hill" />
		<tag k="place" v="locality" />
		<tag k="ssr:stedsnr" v="702728" />
	</node>
	<node id="-840724" lat="63.7222000016" lon="9.61640832461">
		<tag k="name" v="Solset" />
		<tag k="place" v="farm" />
		<tag k="ssr:stedsnr" v="641640" />
	</node>
	<node id="-840723" lat="63.6749333313" lon="9.40159444565">
		<tag k="name" v="Solheim" />
		<tag k="place" v="farm" />
		<tag k="ssr:stedsnr" v="96797" />
	</node>
	<node id="-840722" lat="63.6259361073" lon="9.48903887975">
		<tag k="name" v="Smellingsflua" />
		<tag k="natural" v="shoal" />
		<tag k="place" v="locality" />
		<tag k="ssr:stedsnr" v="92272" />
	</node>
	<node id="-840721" lat="63.7285888876" lon="9.62006666631">
		<tag k="name" v="Rundøra" />
		<tag k="place" v="locality" />
		<tag k="ssr:stedsnr" v="338738" />
	</node>
	<node id="-840720" lat="63.7054638893" lon="9.63505555583">
		<tag k="name" v="Vik" />
		<tag k="place" v="farm" />
		<tag k="ssr:stedsnr" v="338973" />
	</node>
	<node id="-840719" lat="63.6692472234" lon="9.2982027794">
		<tag k="name" v="Uggsteinen" />
		<tag k="place" v="islet" />
		<tag k="ssr:stedsnr" v="923045" />
	</node>
	<node id="-840718" lat="63.7306416649" lon="9.75837778501">
		<tag k="name" v="Ol Olsavatnet" />
		<tag k="natural" v="water" />
		<tag k="ssr:stedsnr" v="702959" />
		<tag k="water" v="lake" />
	</node>
	<node id="-840717" lat="63.7272694413" lon="9.68879722954">
		<tag k="fixme" v="consider place=suburb, village or hamlet" />
		<tag k="name" v="Opphaug" />
		<tag k="place" v="quarter" />
		<tag k="ssr:stedsnr" v="802025" />
	</node>
	<node id="-840716" lat="63.7387194475" lon="9.6711000096">
		<tag k="name" v="Døsvika" />
		<tag k="place" v="farm" />
		<tag k="ssr:stedsnr" v="702985" />
	</node>
	<node id="-840715" lat="63.6412111131" lon="9.50816666081">
		<tag k="name" v="Rabben" />
		<tag k="place" v="locality" />
		<tag k="ssr:stedsnr" v="399760" />
	</node>
	<node id="-840714" lat="63.6904138917" lon="9.41636110188">
		<tag k="name" v="Lyngholmen" />
		<tag k="place" v="islet" />
		<tag k="ssr:stedsnr" v="152465" />
	</node>
	<node id="-840713" lat="63.7102222206" lon="9.53930833116">
		<tag k="name" v="Sauvika" />
		<tag k="place" v="farm" />
		<tag k="ssr:stedsnr" v="34690" />
	</node>
	<node id="-840712" lat="63.6781749997" lon="9.62912778661">
		<tag k="name" v="Sørheim" />
		<tag k="place" v="farm" />
		<tag k="ssr:stedsnr" v="884591" />
	</node>
	<node id="-840711" lat="63.6543361072" lon="9.35849166373">
		<tag k="name" v="Svaet" />
		<tag k="natural" v="strait" />
		<tag k="ssr:stedsnr" v="96787" />
	</node>
	<node id="-840710" lat="63.6598666641" lon="9.38395554935">
		<tag k="name" v="Skålvika" />
		<tag k="place" v="farm" />
		<tag k="ssr:stedsnr" v="20041" />
	</node>
	<node id="-840709" lat="63.7079527804" lon="9.39864722499">
		<tag k="name" v="Tørrskjærtaren" />
		<tag k="natural" v="shoal" />
		<tag k="place" v="locality" />
		<tag k="ssr:stedsnr" v="334401" />
	</node>
	<node id="-840708" lat="63.6999888918" lon="9.66471389485">
		<tag k="name" v="Solem" />
		<tag k="place" v="farm" />
		<tag k="ssr:stedsnr" v="338954" />
	</node>
	<node id="-840707" lat="63.7288444462" lon="9.6036138987">
		<tag k="fixme" v="consider seamark:type=rock or natural=shoal" />
		<tag k="name" v="Likskjærstøtta" />
		<tag k="place" v="islet" />
		<tag k="ssr:stedsnr" v="216852" />
	</node>
	<node id="-840706" lat="63.7143055595" lon="9.65917222419">
		<tag k="name" v="Følsberget" />
		<tag k="natural" v="hill" />
		<tag k="place" v="locality" />
		<tag k="ssr:stedsnr" v="945746" />
	</node>
	<node id="-840705" lat="63.6428638912" lon="9.52154999109">
		<tag k="fixme" v="consider place=hamlet" />
		<tag k="name" v="Garten" />
		<tag k="place" v="village" />
		<tag k="ssr:stedsnr" v="86238" />
	</node>
	<node id="-840704" lat="63.6574111111" lon="9.43289444056">
		<tag k="name" v="Årsanden" />
		<tag k="natural" v="shoal" />
		<tag k="place" v="locality" />
		<tag k="ssr:stedsnr" v="277808" />
	</node>
	<node id="-840703" lat="63.6910861069" lon="9.44330277956">
		<tag k="name" v="Fluin" />
		<tag k="natural" v="shoal" />
		<tag k="place" v="locality" />
		<tag k="ssr:stedsnr" v="941413" />
	</node>
	<node id="-840702" lat="63.7133583373" lon="9.66039166393">
		<tag k="name" v="Fredtun" />
		<tag k="place" v="farm" />
		<tag k="ssr:stedsnr" v="945978" />
	</node>
	<node id="-840701" lat="63.6609416691" lon="9.44087500386">
		<tag k="name" v="Kilflua" />
		<tag k="natural" v="shoal" />
		<tag k="place" v="locality" />
		<tag k="ssr:stedsnr" v="92485" />
	</node>
	<node id="-840700" lat="63.6448444443" lon="9.31555278308">
		<tag k="fixme" v="consider natural=peak for the most distinct mountains in the district" />
		<tag k="name" v="Høgfjellet" />
		<tag k="natural" v="hill" />
		<tag k="place" v="locality" />
		<tag k="ssr:stedsnr" v="619058" />
	</node>
	<node id="-840698" lat="63.7011749962" lon="9.63939444967">
		<tag k="name" v="Vik" />
		<tag k="place" v="farm" />
		<tag k="ssr:stedsnr" v="337627" />
	</node>
	<node id="-840697" lat="63.6425416678" lon="9.36688334214">
		<tag k="alt_name" v="Pallsskjæret" />
		<tag k="fixme" v="consider seamark:type=rock or natural=shoal" />
		<tag k="name" v="Palsaren" />
		<tag k="place" v="islet" />
		<tag k="ssr:stedsnr" v="619057" />
	</node>
	<node id="-840696" lat="63.6479138901" lon="9.32686388127">
		<tag k="name" v="Perholmen" />
		<tag k="place" v="islet" />
		<tag k="ssr:stedsnr" v="702749" />
	</node>
	<node id="-840695" lat="63.7291222228" lon="9.73509166114">
		<tag k="fixme" v="consider natural=peak for the most distinct mountains in the district" />
		<tag k="name" v="Rusasetfjellet" />
		<tag k="natural" v="hill" />
		<tag k="place" v="locality" />
		<tag k="ssr:stedsnr" v="338950" />
	</node>
	<node id="-840694" lat="63.6451305573" lon="9.50979166051">
		<tag k="name" v="Nesvikhaugen" />
		<tag k="natural" v="hill" />
		<tag k="place" v="locality" />
		<tag k="ssr:stedsnr" v="217737" />
	</node>
	<node id="-840693" lat="63.7143222267" lon="9.66636665753">
		<tag k="name" v="Lerbergen" />
		<tag k="place" v="isolated_dwelling" />
		<tag k="ssr:stedsnr" v="945981" />
	</node>
	<node id="-840692" lat="63.7054166705" lon="9.75631110473">
		<tag k="name" v="Sandberghaugen" />
		<tag k="natural" v="hill" />
		<tag k="place" v="locality" />
		<tag k="ssr:stedsnr" v="702745" />
	</node>
	<node id="-840691" lat="63.6700750014" lon="9.63114722334">
		<tag k="fixme" v="consider seamark:type=rock or natural=shoal" />
		<tag k="name" v="Kannaskjæret" />
		<tag k="place" v="islet" />
		<tag k="ssr:stedsnr" v="923051" />
	</node>
	<node id="-840690" lat="63.7261499984" lon="9.6865611124">
		<tag k="name" v="Hov" />
		<tag k="place" v="farm" />
		<tag k="ssr:stedsnr" v="544894" />
	</node>
	<node id="-840689" lat="63.6509944416" lon="9.55045276975">
		<tag k="name" v="Beisundet" />
		<tag k="natural" v="strait" />
		<tag k="ssr:stedsnr" v="619056" />
	</node>
	<node id="-840688" lat="63.7111222206" lon="9.54228610766">
		<tag k="name" v="Storhaugen" />
		<tag k="natural" v="hill" />
		<tag k="place" v="locality" />
		<tag k="ssr:stedsnr" v="35774" />
	</node>
	<node id="-840687" lat="63.7179333317" lon="9.62318333195">
		<tag k="name" v="Fagervoll" />
		<tag k="place" v="farm" />
		<tag k="ssr:stedsnr" v="519688" />
	</node>
	<node id="-840686" lat="63.6738694461" lon="9.39405555605">
		<tag k="name" v="Stranda" />
		<tag k="place" v="isolated_dwelling" />
		<tag k="ssr:stedsnr" v="155701" />
	</node>
	<node id="-840685" lat="63.7247194484" lon="9.75799166825">
		<tag k="fixme" v="consider natural=peak for the most distinct mountains in the district" />
		<tag k="name" v="Ørnliklumpen" />
		<tag k="natural" v="hill" />
		<tag k="ssr:stedsnr" v="581778" />
	</node>
	<node id="-840684" lat="63.7152111094" lon="9.62840556363">
		<tag k="name" v="Fagertun" />
		<tag k="place" v="farm" />
		<tag k="ssr:stedsnr" v="277599" />
	</node>
	<node id="-840683" lat="63.6523027783" lon="9.44487499622">
		<tag k="name" v="Munken" />
		<tag k="place" v="farm" />
		<tag k="ssr:stedsnr" v="558049" />
	</node>
	<node id="-840682" lat="63.7136944428" lon="9.65068888238">
		<tag k="name" v="Neraune" />
		<tag k="place" v="farm" />
		<tag k="ssr:stedsnr" v="702976" />
	</node>
	<node id="-840681" lat="63.64803333" lon="9.33609166562">
		<tag k="fixme" v="consider seamark:type=rock or natural=shoal" />
		<tag k="name" v="Martinskjeret" />
		<tag k="place" v="islet" />
		<tag k="ssr:stedsnr" v="337841" />
	</node>
	<node id="-840680" lat="63.6514222251" lon="9.56993887929">
		<tag k="name" v="Beihaugen" />
		<tag k="natural" v="hill" />
		<tag k="place" v="locality" />
		<tag k="ssr:stedsnr" v="399762" />
	</node>
	<node id="-840679" lat="63.7399638906" lon="9.6782666625">
		<tag k="name" v="Døsvika" />
		<tag k="place" v="hamlet" />
		<tag k="ssr:stedsnr" v="134011" />
	</node>
	<node id="-840678" lat="63.6781111119" lon="9.55681389732">
		<tag k="name" v="Rausigrunnen" />
		<tag k="natural" v="shoal" />
		<tag k="place" v="locality" />
		<tag k="ssr:stedsnr" v="460951" />
	</node>
	<node id="-840677" lat="63.6949861153" lon="9.43001944874">
		<tag k="fixme" v="consider seamark:type=rock or natural=shoal" />
		<tag k="name" v="Båvikskjæret" />
		<tag k="place" v="islet" />
		<tag k="ssr:stedsnr" v="152461" />
	</node>
	<node id="-840676" lat="63.716222219" lon="9.63290276774">
		<tag k="name" v="Skogan" />
		<tag k="place" v="farm" />
		<tag k="ssr:stedsnr" v="702973" />
	</node>
	<node id="-840675" lat="63.7332861071" lon="9.72274444551">
		<tag k="name" v="Reitan" />
		<tag k="place" v="farm" />
		<tag k="ssr:stedsnr" v="438196" />
	</node>
	<node id="-840674" lat="63.7329083341" lon="9.62408610715">
		<tag k="name" v="Storkråka" />
		<tag k="natural" v="cape" />
		<tag k="ssr:stedsnr" v="35770" />
	</node>
	<node id="-840673" lat="63.6661416629" lon="9.38061389328">
		<tag k="landuse" v="meadow" />
		<tag k="name" v="Skogselskapet" />
		<tag k="ssr:stedsnr" v="459853" />
	</node>
	<node id="-840672" lat="63.6396861126" lon="9.51018054676">
		<tag k="name" v="Moltberget" />
		<tag k="natural" v="hill" />
		<tag k="place" v="locality" />
		<tag k="ssr:stedsnr" v="35769" />
	</node>
	<node id="-840671" lat="63.7269273894" lon="9.53068538299">
		<tag k="fixme" v="consider seamark:type=rock or natural=shoal" />
		<tag k="name" v="Kjeungskjæret" />
		<tag k="place" v="islet" />
		<tag k="ssr:stedsnr" v="455327" />
	</node>
	<node id="-840670" lat="63.7055749968" lon="9.58834723126">
		<tag k="name" v="Djupdalen" />
		<tag k="place" v="locality" />
		<tag k="ssr:stedsnr" v="216849" />
	</node>
	<node id="-840669" lat="63.7354666664" lon="9.72617221282">
		<tag k="fixme" v="consider natural=peak for the most distinct mountains in the district" />
		<tag k="name" v="Torshammaren" />
		<tag k="natural" v="hill" />
		<tag k="ssr:stedsnr" v="338722" />
	</node>
	<node id="-840668" lat="63.6768388852" lon="9.65231110572">
		<tag k="name" v="Sankthanshaugen" />
		<tag k="natural" v="hill" />
		<tag k="place" v="locality" />
		<tag k="ssr:stedsnr" v="581783" />
	</node>
	<node id="-840667" lat="63.7177805538" lon="9.64066945179">
		<tag k="name" v="Nytun" />
		<tag k="place" v="farm" />
		<tag k="ssr:stedsnr" v="824973" />
	</node>
	<node id="-840666" lat="63.6413861089" lon="9.40946111864">
		<tag k="name" v="Storsundtaren" />
		<tag k="natural" v="shoal" />
		<tag k="place" v="locality" />
		<tag k="ssr:stedsnr" v="274353" />
	</node>
	<node id="-840665" lat="63.6800739833" lon="9.60633686828">
		<tag k="name" v="Leirbakken" />
		<tag k="place" v="farm" />
		<tag k="ssr:stedsnr" v="84565" />
	</node>
	<node id="-840664" lat="63.6547333375" lon="9.43412223107">
		<tag k="name" v="Munken" />
		<tag k="natural" v="bay" />
		<tag k="ssr:stedsnr" v="156803" />
	</node>
	<node id="-840663" lat="63.7352861136" lon="9.65013055939">
		<tag k="name" v="Graven" />
		<tag k="place" v="farm" />
		<tag k="ssr:stedsnr" v="35989" />
	</node>
	<node id="-840662" lat="63.6519305524" lon="9.56884166464">
		<tag k="fixme" v="consider place=hamlet" />
		<tag k="name" v="Beian" />
		<tag k="place" v="farm" />
		<tag k="ssr:stedsnr" v="155693" />
	</node>
	<node id="-840661" lat="63.7247305537" lon="9.6526722298">
		<tag k="name" v="Solstad" />
		<tag k="place" v="farm" />
		<tag k="ssr:stedsnr" v="337617" />
	</node>
	<node id="-840660" lat="63.7335055555" lon="9.66425833907">
		<tag k="name" v="Rabban" />
		<tag k="place" v="hamlet" />
		<tag k="ssr:stedsnr" v="520995" />
	</node>
	<node id="-840659" lat="63.7284999976" lon="9.63984165876">
		<tag k="name" v="Solvang" />
		<tag k="old_name" v="Solstad" />
		<tag k="place" v="farm" />
		<tag k="ssr:stedsnr" v="216626" />
	</node>
	<node id="-840658" lat="63.6536361116" lon="9.36692777941">
		<tag k="name" v="Flatholmen" />
		<tag k="place" v="islet" />
		<tag k="ssr:stedsnr" v="820375" />
	</node>
	<node id="-840657" lat="63.6418944456" lon="9.50537499651">
		<tag k="name" v="Tjuvneshaugen" />
		<tag k="natural" v="hill" />
		<tag k="place" v="locality" />
		<tag k="ssr:stedsnr" v="338941" />
	</node>
	<node id="-840656" lat="63.7165666632" lon="9.798888882">
		<tag k="name" v="Kalvåbakken" />
		<tag k="place" v="farm" />
		<tag k="ssr:stedsnr" v="377780" />
	</node>
	<node id="-840655" lat="63.7326888931" lon="9.46987777636">
		<tag k="name" v="Nordflua" />
		<tag k="natural" v="shoal" />
		<tag k="place" v="locality" />
		<tag k="ssr:stedsnr" v="637102" />
	</node>
	<node id="-840654" lat="63.6608638896" lon="9.42550832385">
		<tag k="name" v="Kilen" />
		<tag k="place" v="farm" />
		<tag k="ssr:stedsnr" v="156807" />
	</node>
	<node id="-840653" lat="63.709841668" lon="9.37010000952">
		<tag k="name" v="Stortaren" />
		<tag k="natural" v="shoal" />
		<tag k="place" v="locality" />
		<tag k="ssr:stedsnr" v="152456" />
	</node>
	<node id="-840652" lat="63.6406527789" lon="9.44237500143">
		<tag k="name" v="Hagan" />
		<tag k="natural" v="hill" />
		<tag k="place" v="locality" />
		<tag k="ssr:stedsnr" v="459831" />
	</node>
	<node id="-840651" lat="63.7021583377" lon="9.71526389338">
		<tag k="name" v="Fagerlund" />
		<tag k="place" v="farm" />
		<tag k="ssr:stedsnr" v="337821" />
	</node>
	<node id="-840650" lat="63.7225777775" lon="9.58175277621">
		<tag k="name" v="Bukta" />
		<tag k="place" v="farm" />
		<tag k="ssr:stedsnr" v="216629" />
	</node>
	<node id="-840649" lat="63.6448055554" lon="9.53867221338">
		<tag k="fixme" v="consider natural=peak for the most distinct mountains in the district" />
		<tag k="name" v="Mefjellet" />
		<tag k="natural" v="hill" />
		<tag k="place" v="locality" />
		<tag k="ssr:stedsnr" v="702703" />
	</node>
	<node id="-840648" lat="63.7205833363" lon="9.56197778183">
		<tag k="name" v="Brynhildsbukta" />
		<tag k="place" v="farm" />
		<tag k="ssr:stedsnr" v="762648" />
	</node>
	<node id="-840647" lat="63.7051166623" lon="9.36876387892">
		<tag k="name" v="Litletaren" />
		<tag k="natural" v="shoal" />
		<tag k="place" v="locality" />
		<tag k="ssr:stedsnr" v="152457" />
	</node>
	<node id="-840646" lat="63.6424166667" lon="9.32622500471">
		<tag k="name" v="Kjerkvika" />
		<tag k="place" v="farm" />
		<tag k="ssr:stedsnr" v="13073" />
	</node>
	<node id="-840645" lat="63.6777999998" lon="9.61211666934">
		<tag k="name" v="Flatneset" />
		<tag k="place" v="farm" />
		<tag k="ssr:stedsnr" v="338935" />
	</node>
	<node id="-840644" lat="63.6627194429" lon="9.43374167279">
		<tag k="name" v="Kilaneset" />
		<tag k="natural" v="cape" />
		<tag k="ssr:stedsnr" v="156805" />
	</node>
	<node id="-840643" lat="63.7335111138" lon="9.67433611661">
		<tag k="name" v="Breidablikk" />
		<tag k="place" v="farm" />
		<tag k="ssr:stedsnr" v="884776" />
	</node>
	<node id="-840642" lat="63.7185277797" lon="9.57037500397">
		<tag k="name" v="Skrubbrabben" />
		<tag k="natural" v="hill" />
		<tag k="place" v="locality" />
		<tag k="ssr:stedsnr" v="884997" />
	</node>
	<node id="-840641" lat="63.6747944412" lon="9.65634445071">
		<tag k="name" v="Sandbergshaugen" />
		<tag k="natural" v="hill" />
		<tag k="place" v="locality" />
		<tag k="ssr:stedsnr" v="763760" />
	</node>
	<node id="-840640" lat="63.7174333313" lon="9.7686722146">
		<tag k="name" v="Karlsenget" />
		<tag k="place" v="farm" />
		<tag k="ssr:stedsnr" v="620782" />
	</node>
	<node id="-840639" lat="63.7094138927" lon="9.68352500462">
		<tag k="name" v="Hovland" />
		<tag k="place" v="farm" />
		<tag k="ssr:stedsnr" v="459602" />
	</node>
	<node id="-840638" lat="63.7262166624" lon="9.57844166326">
		<tag k="fixme" v="consider seamark:type=rock or natural=shoal" />
		<tag k="name" v="Rognskjæret" />
		<tag k="place" v="islet" />
		<tag k="ssr:stedsnr" v="823814" />
	</node>
	<node id="-840637" lat="63.6895055515" lon="9.64944445356">
		<tag k="name" v="Slættet" />
		<tag k="place" v="farm" />
		<tag k="ssr:stedsnr" v="823602" />
	</node>
	<node id="-840636" lat="63.6730916684" lon="9.40114444052">
		<tag k="name" v="Haugland" />
		<tag k="place" v="farm" />
		<tag k="ssr:stedsnr" v="338702" />
	</node>
	<node id="-840635" lat="63.6884361132" lon="9.593522232">
		<tag k="name" v="Gjertsgarden" />
		<tag k="old_name" v="Meldal;Meldalen" />
		<tag k="place" v="farm" />
		<tag k="ssr:stedsnr" v="923034" />
	</node>
	<node id="-840634" lat="63.7376138924" lon="9.6913138986">
		<tag k="name" v="Nygård" />
		<tag k="place" v="farm" />
		<tag k="ssr:stedsnr" v="519671" />
	</node>
	<node id="-840633" lat="63.7139055571" lon="9.71453889667">
		<tag k="name" v="Vestrått" />
		<tag k="place" v="farm" />
		<tag k="ssr:stedsnr" v="389226" />
	</node>
	<node id="-840632" lat="63.7196277769" lon="9.77324721826">
		<tag k="name" v="Osplibekken" />
		<tag k="ssr:stedsnr" v="338947" />
		<tag k="waterway" v="stream" />
	</node>
	<node id="-840631" lat="63.7097249985" lon="9.70766389063">
		<tag k="name" v="Bjørkmo" />
		<tag k="place" v="farm" />
		<tag k="ssr:stedsnr" v="459608" />
	</node>
	<node id="-840630" lat="63.6684722221" lon="9.43089722055">
		<tag k="fixme" v="multiple name tags, choose one and add the other to alt_name" />
		<tag k="name" v="Kåret;Tennvika" />
		<tag k="natural" v="bay" />
		<tag k="ssr:stedsnr" v="823809" />
	</node>
	<node id="-840629" lat="63.7060305518" lon="9.34697778228">
		<tag k="alt_name" v="Tårnet" />
		<tag k="name" v="Store Tårnet" />
		<tag k="place" v="islet" />
		<tag k="ssr:stedsnr" v="923027" />
	</node>
	<node id="-840628" lat="63.6505916625" lon="9.56150276769">
		<tag k="man_made" v="quay" />
		<tag k="name" v="Beian kai" />
		<tag k="place" v="locality" />
		<tag k="ssr:stedsnr" v="96768" />
	</node>
	<node id="-840627" lat="63.6556027822" lon="9.42933888346">
		<tag k="name" v="Valen" />
		<tag k="natural" v="bay" />
		<tag k="ssr:stedsnr" v="459834" />
	</node>
	<node id="-840626" lat="63.7083305577" lon="9.73815276997">
		<tag k="name" v="Heimstad" />
		<tag k="place" v="farm" />
		<tag k="ssr:stedsnr" v="437791" />
	</node>
	<node id="-840625" lat="63.684047218" lon="9.59468888178">
		<tag k="building" v="commercial" />
		<tag k="name" v="Ørland radio" />
		<tag k="ssr:stedsnr" v="762863" />
	</node>
	<node id="-840624" lat="63.7162277798" lon="9.619672221">
		<tag k="name" v="Stormyra" />
		<tag k="natural" v="wetland" />
		<tag k="ssr:stedsnr" v="35981" />
	</node>
	<node id="-840623" lat="63.7283194424" lon="9.57974999951">
		<tag k="name" v="Uthaugrogna" />
		<tag k="place" v="locality" />
		<tag k="ssr:stedsnr" v="763985" />
	</node>
	<node id="-840622" lat="63.7167611076" lon="9.73296667129">
		<tag k="name" v="Lunddal" />
		<tag k="place" v="farm" />
		<tag k="ssr:stedsnr" v="459606" />
	</node>
	<node id="-840621" lat="63.7272472243" lon="9.62358333161">
		<tag k="name" v="Sandan" />
		<tag k="place" v="farm" />
		<tag k="ssr:stedsnr" v="519673" />
	</node>
	<node id="-840620" lat="63.7249166667" lon="9.69531110269">
		<tag k="name" v="Heim" />
		<tag k="place" v="farm" />
		<tag k="ssr:stedsnr" v="399979" />
	</node>
	<node id="-840619" lat="63.7333749976" lon="9.63118888251">
		<tag k="name" v="Bjellkuøya" />
		<tag k="natural" v="cape" />
		<tag k="ssr:stedsnr" v="763987" />
	</node>
	<node id="-840618" lat="63.7289555547" lon="9.59102223207">
		<tag k="fixme" v="consider seamark:type=rock or natural=shoal" />
		<tag k="name" v="Klettskjæra" />
		<tag k="place" v="islet" />
		<tag k="ssr:stedsnr" v="763986" />
	</node>
	<node id="-840617" lat="63.7265250022" lon="9.61255278772">
		<tag k="name" v="Utstrand" />
		<tag k="place" v="farm" />
		<tag k="ssr:stedsnr" v="762641" />
	</node>
	<node id="-840616" lat="63.7242249994" lon="9.75510834005">
		<tag k="name" v="Ørnlibekken" />
		<tag k="ssr:stedsnr" v="559231" />
		<tag k="waterway" v="stream" />
	</node>
	<node id="-840615" lat="63.6801611105" lon="9.43249999005">
		<tag k="name" v="Markneset" />
		<tag k="natural" v="cape" />
		<tag k="ssr:stedsnr" v="216833" />
	</node>
	<node id="-840614" lat="63.654455559" lon="9.58311666675">
		<tag k="name" v="Vorpholmflua" />
		<tag k="natural" v="shoal" />
		<tag k="place" v="locality" />
		<tag k="ssr:stedsnr" v="151396" />
	</node>
	<node id="-840613" lat="63.6873333325" lon="9.4532555504">
		<tag k="name" v="Bertegrunnen" />
		<tag k="natural" v="shoal" />
		<tag k="place" v="locality" />
		<tag k="ssr:stedsnr" v="334392" />
	</node>
	<node id="-840612" lat="63.6752277766" lon="9.43485277719">
		<tag k="name" v="Lavahaugen" />
		<tag k="place" v="isolated_dwelling" />
		<tag k="ssr:stedsnr" v="540256" />
	</node>
	<node id="-840611" lat="63.7118277793" lon="9.53582777195">
		<tag k="name" v="Nordbukta" />
		<tag k="natural" v="bay" />
		<tag k="ssr:stedsnr" v="278881" />
	</node>
	<node id="-840610" lat="63.6829222258" lon="9.66016111107">
		<tag k="amenity" v="school" />
		<tag k="name" v="Hovde husmorskole" />
		<tag k="ssr:stedsnr" v="520775" />
	</node>
	<node id="-840609" lat="63.7248694406" lon="9.6912583409">
		<tag k="name" v="Opphaug" />
		<tag k="place" v="farm" />
		<tag k="ssr:stedsnr" v="581990" />
	</node>
	<node id="-840608" lat="63.72443889" lon="9.6360027852">
		<tag k="name" v="Ryggasletta" />
		<tag k="place" v="locality" />
		<tag k="ssr:stedsnr" v="762860" />
	</node>
	<node id="-840607" lat="63.7080111139" lon="9.74061388415">
		<tag k="name" v="Austheim" />
		<tag k="place" v="farm" />
		<tag k="ssr:stedsnr" v="802817" />
	</node>
	<node id="-840606" lat="63.7054551775" lon="9.74596638912">
		<tag k="alt_name" v="Austrått gård" />
		<tag k="name" v="Austrått" />
		<tag k="place" v="farm" />
		<tag k="ssr:stedsnr" v="437793" />
	</node>
	<node id="-840605" lat="63.7267611144" lon="9.69330833924">
		<tag k="amenity" v="school" />
		<tag k="name" v="Opphaug skole" />
		<tag k="ssr:stedsnr" v="399749" />
	</node>
	<node id="-840604" lat="63.7104833295" lon="9.64799999396">
		<tag k="name" v="Skimmelsberget" />
		<tag k="natural" v="hill" />
		<tag k="place" v="locality" />
		<tag k="ssr:stedsnr" v="278880" />
	</node>
	<node id="-840603" lat="63.7420944412" lon="9.69015276862">
		<tag k="name" v="Branthaugen" />
		<tag k="natural" v="hill" />
		<tag k="place" v="locality" />
		<tag k="ssr:stedsnr" v="641844" />
	</node>
	<node id="-840601" lat="63.7260194451" lon="9.63695555423">
		<tag k="name" v="Revrabben" />
		<tag k="place" v="locality" />
		<tag k="ssr:stedsnr" v="35980" />
	</node>
	<node id="-840600" lat="63.7283000023" lon="9.78879165742">
		<tag k="name" v="Kalvåbekken" />
		<tag k="ssr:stedsnr" v="134278" />
		<tag k="waterway" v="stream" />
	</node>
	<node id="-840599" lat="63.6552666696" lon="9.37256943511">
		<tag k="name" v="Holmen" />
		<tag k="place" v="farm" />
		<tag k="ssr:stedsnr" v="95684" />
	</node>
	<node id="-840598" lat="63.6936361068" lon="9.68411665648">
		<tag k="fixme" v="multiple name tags, choose one and add the other to alt_name" />
		<tag k="name" v="Brekstadbukta;Ørlandsbukta" />
		<tag k="natural" v="bay" />
		<tag k="ssr:stedsnr" v="558025" />
	</node>
	<node id="-840597" lat="63.6792249998" lon="9.40251110296">
		<tag k="name" v="Dalahamna" />
		<tag k="place" v="locality" />
		<tag k="ssr:stedsnr" v="923037" />
	</node>
	<node id="-840596" lat="63.7151861087" lon="9.7545000043">
		<tag k="name" v="Solhaug" />
		<tag k="place" v="farm" />
		<tag k="ssr:stedsnr" v="581964" />
	</node>
	<node id="-840595" lat="63.6553388909" lon="9.51923333614">
		<tag k="fixme" v="consider seamark:type=rock or natural=shoal" />
		<tag k="name" v="Gartskjæra" />
		<tag k="place" v="islet" />
		<tag k="ssr:stedsnr" v="13067" />
	</node>
	<node id="-840594" lat="63.7142416643" lon="9.53295277965">
		<tag k="name" v="Gjesebukta" />
		<tag k="natural" v="bay" />
		<tag k="ssr:stedsnr" v="702954" />
	</node>
	<node id="-840593" lat="63.7331555564" lon="9.70346387931">
		<tag k="name" v="Langberget" />
		<tag k="natural" v="hill" />
		<tag k="place" v="locality" />
		<tag k="ssr:stedsnr" v="945714" />
	</node>
	<node id="-840592" lat="63.7099166647" lon="9.72803610593">
		<tag k="alt_name" v="Skogheim" />
		<tag k="name" v="Skoglund" />
		<tag k="place" v="farm" />
		<tag k="ssr:stedsnr" v="377771" />
	</node>
	<node id="-840591" lat="63.7106277761" lon="9.69948610644">
		<tag k="name" v="Balsnessletta" />
		<tag k="place" v="farm" />
		<tag k="ssr:stedsnr" v="581965" />
	</node>
	<node id="-840590" lat="63.6628611128" lon="9.39763334104">
		<tag k="alt_name" v="Storfosna kapell" />
		<tag k="amenity" v="place_of_worship" />
		<tag k="denomination" v="lutheran" />
		<tag k="name" v="Storfosna kirke" />
		<tag k="religion" v="christian" />
		<tag k="ssr:stedsnr" v="862054" />
	</node>
	<node id="-840589" lat="63.7298222259" lon="9.71347221463">
		<tag k="name" v="Vassmyra" />
		<tag k="natural" v="wetland" />
		<tag k="ssr:stedsnr" v="641871" />
	</node>
	<node id="-840588" lat="63.6756361077" lon="9.39326389528">
		<tag k="name" v="Holmhaugen" />
		<tag k="natural" v="hill" />
		<tag k="place" v="locality" />
		<tag k="ssr:stedsnr" v="156787" />
	</node>
	<node id="-840587" lat="63.7137194467" lon="9.74756388288">
		<tag k="name" v="Vangen" />
		<tag k="place" v="farm" />
		<tag k="ssr:stedsnr" v="498839" />
	</node>
	<node id="-840586" lat="63.6813750014" lon="9.40026944604">
		<tag k="name" v="Berg" />
		<tag k="place" v="isolated_dwelling" />
		<tag k="ssr:stedsnr" v="216614" />
	</node>
	<node id="-840585" lat="63.6895166644" lon="9.60348888039">
		<tag k="name" v="Norset" />
		<tag k="place" v="farm" />
		<tag k="ssr:stedsnr" v="641637" />
	</node>
	<node id="-840584" lat="63.7227638896" lon="9.6028277681">
		<tag k="name" v="Kalvrabben" />
		<tag k="place" v="locality" />
		<tag k="ssr:stedsnr" v="823825" />
	</node>
	<node id="-840583" lat="63.658880553" lon="9.43663610786">
		<tag k="amenity" v="ferry_terminal" />
		<tag k="name" v="Munken ferjekai" />
		<tag k="ssr:stedsnr" v="279863" />
	</node>
	<node id="-840582" lat="63.6439252004" lon="9.32706261697">
		<tag k="name" v="Kråkvåg" />
		<tag k="place" v="island" />
		<tag k="ssr:stedsnr" v="376062" />
	</node>
	<node id="-840581" lat="63.7318666675" lon="9.62433332501">
		<tag k="name" v="Kråktjørna" />
		<tag k="natural" v="water" />
		<tag k="ssr:stedsnr" v="945717" />
	</node>
	<node id="-840580" lat="63.737372224" lon="9.65433611856">
		<tag k="name" v="Litløra" />
		<tag k="place" v="locality" />
		<tag k="ssr:stedsnr" v="885852" />
	</node>
	<node id="-840579" lat="63.6777055529" lon="9.27915276974">
		<tag k="fixme" v="consider seamark:type=rock or natural=shoal" />
		<tag k="name" v="Uggsteinskjæra" />
		<tag k="place" v="islet" />
		<tag k="ssr:stedsnr" v="923040" />
	</node>
	<node id="-840578" lat="63.6522944464" lon="9.42985555336">
		<tag k="name" v="Litlvika" />
		<tag k="place" v="farm" />
		<tag k="ssr:stedsnr" v="862056" />
	</node>
	<node id="-840577" lat="63.718044701" lon="9.70636056875">
		<tag k="fixme" v="consider place=hamlet" />
		<tag k="name" v="Røstad" />
		<tag k="place" v="farm" />
		<tag k="ssr:stedsnr" v="96981" />
	</node>
	<node id="-840576" lat="63.7238388928" lon="9.77376389068">
		<tag k="name" v="Sankthansholet" />
		<tag k="natural" v="valley" />
		<tag k="place" v="locality" />
		<tag k="ssr:stedsnr" v="945718" />
	</node>
	<node id="-840575" lat="63.6770138906" lon="9.31320000814">
		<tag k="name" v="Fillgrunnen" />
		<tag k="natural" v="shoal" />
		<tag k="place" v="locality" />
		<tag k="ssr:stedsnr" v="456360" />
	</node>
	<node id="-840574" lat="63.7206500001" lon="9.58233610215">
		<tag k="fixme" v="multiple name tags, choose one and add the other to alt_name" />
		<tag k="name" v="Gardan;Ytre Uthaug" />
		<tag k="place" v="farm" />
		<tag k="ssr:stedsnr" v="266872" />
	</node>
	<node id="-840573" lat="63.7159194466" lon="9.64231110302">
		<tag k="name" v="Røyne" />
		<tag k="place" v="farm" />
		<tag k="ssr:stedsnr" v="398625" />
	</node>
	<node id="-840572" lat="63.7186647736" lon="9.53808099913">
		<tag k="name" v="Tørresholmen" />
		<tag k="place" v="islet" />
		<tag k="ssr:stedsnr" v="394345" />
	</node>
	<node id="-840571" lat="63.7362666707" lon="9.70377776928">
		<tag k="name" v="Stokksletthaugen" />
		<tag k="natural" v="hill" />
		<tag k="place" v="locality" />
		<tag k="ssr:stedsnr" v="702714" />
	</node>
	<node id="-840570" lat="63.7072194447" lon="9.63280555959">
		<tag k="name" v="Nøysomheten" />
		<tag k="place" v="farm" />
		<tag k="ssr:stedsnr" v="459594" />
	</node>
	<node id="-840569" lat="63.7249833377" lon="9.70436388628">
		<tag k="name" v="Søtberget" />
		<tag k="natural" v="hill" />
		<tag k="place" v="locality" />
		<tag k="ssr:stedsnr" v="156781" />
	</node>
	<node id="-840568" lat="63.6622750022" lon="9.33538054837">
		<tag k="fixme" v="consider seamark:type=rock or natural=shoal" />
		<tag k="name" v="Sandskjæret" />
		<tag k="place" v="islet" />
		<tag k="ssr:stedsnr" v="456364" />
	</node>
	<node id="-840567" lat="63.7217972198" lon="9.65869722914">
		<tag k="name" v="Ryggaune" />
		<tag k="place" v="farm" />
		<tag k="ssr:stedsnr" v="459819" />
	</node>
	<node id="-840566" lat="63.7183833369" lon="9.65248889669">
		<tag k="name" v="Aune" />
		<tag k="place" v="farm" />
		<tag k="ssr:stedsnr" v="337611" />
	</node>
	<node id="-840565" lat="63.6721305596" lon="9.40188611793">
		<tag k="name" v="Melskardet" />
		<tag k="place" v="hamlet" />
		<tag k="ssr:stedsnr" v="619037" />
	</node>
	<node id="-840564" lat="63.6397833324" lon="9.32377500345">
		<tag k="name" v="Hestneset" />
		<tag k="natural" v="cape" />
		<tag k="ssr:stedsnr" v="216819" />
	</node>
	<node id="-840563" lat="63.7238833308" lon="9.57684165673">
		<tag k="fixme" v="consider seamark:type=rock or natural=shoal" />
		<tag k="name" v="Leksaskjæret" />
		<tag k="place" v="islet" />
		<tag k="ssr:stedsnr" v="398860" />
	</node>
	<node id="-840562" lat="63.7228277816" lon="9.67499167339">
		<tag k="name" v="Berg" />
		<tag k="place" v="farm" />
		<tag k="ssr:stedsnr" v="459598" />
	</node>
	<node id="-840561" lat="63.7344027794" lon="9.63563610272">
		<tag k="name" v="Sagsteinøra" />
		<tag k="place" v="locality" />
		<tag k="ssr:stedsnr" v="945709" />
	</node>
	<node id="-840560" lat="63.7037694427" lon="9.70936667553">
		<tag k="name" v="Solstrand" />
		<tag k="place" v="farm" />
		<tag k="ssr:stedsnr" v="884781" />
	</node>
	<node id="-840559" lat="63.6426055551" lon="9.474166665">
		<tag k="name" v="Tjuvholmen" />
		<tag k="place" v="islet" />
		<tag k="ssr:stedsnr" v="92014" />
	</node>
	<node id="-840558" lat="63.6556444453" lon="9.5723472142">
		<tag k="name" v="Nauthaugen" />
		<tag k="natural" v="hill" />
		<tag k="place" v="locality" />
		<tag k="ssr:stedsnr" v="520760" />
	</node>
	<node id="-840557" lat="63.69380833" lon="9.65713889488">
		<tag k="name" v="Prestbakken" />
		<tag k="place" v="farm" />
		<tag k="ssr:stedsnr" v="35963" />
	</node>
	<node id="-840556" lat="63.6759861075" lon="9.6578361169">
		<tag k="name" v="Bergland" />
		<tag k="place" v="farm" />
		<tag k="ssr:stedsnr" v="216610" />
	</node>
	<node id="-840555" lat="63.673997219" lon="9.43295556515">
		<tag k="name" v="Nordlandet" />
		<tag k="place" v="farm" />
		<tag k="ssr:stedsnr" v="273456" />
	</node>
	<node id="-840554" lat="63.6569194409" lon="9.36898334096">
		<tag k="name" v="Nordvika" />
		<tag k="natural" v="bay" />
		<tag k="ssr:stedsnr" v="216823" />
	</node>
	<node id="-840553" lat="63.6700944418" lon="9.5662833363">
		<tag k="name" v="Grandfjæra" />
		<tag k="place" v="locality" />
		<tag k="ssr:stedsnr" v="702945" />
	</node>
	<node id="-840552" lat="63.6626861153" lon="9.39258055067">
		<tag k="name" v="Slottet" />
		<tag k="place" v="locality" />
		<tag k="ssr:stedsnr" v="577455" />
	</node>
	<node id="-840551" lat="63.7248999966" lon="9.68526110898">
		<tag k="name" v="Hov" />
		<tag k="place" v="farm" />
		<tag k="ssr:stedsnr" v="520989" />
	</node>
	<node id="-840550" lat="63.7287833341" lon="9.70748055264">
		<tag k="name" v="Esvikhaugen" />
		<tag k="natural" v="hill" />
		<tag k="place" v="locality" />
		<tag k="ssr:stedsnr" v="96755" />
	</node>
	<node id="-840549" lat="63.7149972249" lon="9.63121666342">
		<tag k="name" v="Sørteigen" />
		<tag k="place" v="farm" />
		<tag k="ssr:stedsnr" v="823575" />
	</node>
	<node id="-840548" lat="63.7088249973" lon="9.67347500714">
		<tag k="alt_name" v="Skiftkroken" />
		<tag k="junction" v="yes" />
		<tag k="name" v="Skiftkrokan" />
		<tag k="place" v="locality" />
		<tag k="ssr:stedsnr" v="558018" />
	</node>
	<node id="-840547" lat="63.6455388883" lon="9.51695555036">
		<tag k="leisure" v="marina" />
		<tag k="name" v="Garthamna" />
		<tag k="ssr:stedsnr" v="96747" />
	</node>
	<node id="-840546" lat="63.6683166693" lon="9.39488056544">
		<tag k="name" v="Singshaugan" />
		<tag k="natural" v="hill" />
		<tag k="place" v="locality" />
		<tag k="ssr:stedsnr" v="762840" />
	</node>
	<node id="-840545" lat="63.6798002782" lon="9.59298458618">
		<tag k="fixme" v="consider place=hamlet" />
		<tag k="name" v="Grande" />
		<tag k="place" v="farm" />
		<tag k="ssr:stedsnr" v="581950" />
	</node>
	<node id="-840544" lat="63.6691861152" lon="9.41410277665">
		<tag k="name" v="Klauva" />
		<tag k="place" v="farm" />
		<tag k="ssr:stedsnr" v="520734" />
	</node>
	<node id="-840543" lat="63.7170194441" lon="9.76546388602">
		<tag k="name" v="Karlsenget" />
		<tag k="place" v="farm" />
		<tag k="ssr:stedsnr" v="35960" />
	</node>
	<node id="-840542" lat="63.6734138917" lon="9.58733334179">
		<tag k="name" v="Grande" />
		<tag k="place" v="farm" />
		<tag k="ssr:stedsnr" v="581951" />
	</node>
	<node id="-840541" lat="63.7002805583" lon="9.74457777502">
		<tag k="name" v="Austrått" />
		<tag k="place" v="isolated_dwelling" />
		<tag k="ssr:stedsnr" v="802803" />
	</node>
	<node id="-840540" lat="63.7251194426" lon="9.67461112028">
		<tag k="name" v="Berg" />
		<tag k="place" v="farm" />
		<tag k="ssr:stedsnr" v="923015" />
	</node>
	<node id="-840539" lat="63.7425055559" lon="9.688844449">
		<tag k="name" v="Østvik" />
		<tag k="place" v="farm" />
		<tag k="ssr:stedsnr" v="155872" />
	</node>
	<node id="-840538" lat="63.7423444422" lon="9.69309999948">
		<tag k="name" v="Asperhaugen" />
		<tag k="natural" v="hill" />
		<tag k="place" v="locality" />
		<tag k="ssr:stedsnr" v="155869" />
	</node>
	<node id="-840537" lat="63.6460444424" lon="9.50123334071">
		<tag k="name" v="Valholman" />
		<tag k="place" v="islet" />
		<tag k="ssr:stedsnr" v="399945" />
	</node>
	<node id="-840536" lat="63.7188666696" lon="9.77741666549">
		<tag k="name" v="Solheim" />
		<tag k="place" v="farm" />
		<tag k="ssr:stedsnr" v="620236" />
	</node>
	<node id="-840535" lat="63.6643333318" lon="9.6042722136">
		<tag k="name" v="Flatnesflua" />
		<tag k="natural" v="shoal" />
		<tag k="place" v="locality" />
		<tag k="ssr:stedsnr" v="941351" />
	</node>
	<node id="-840534" lat="63.7199745543" lon="9.68512991616">
		<tag k="fixme" v="consider place=hamlet" />
		<tag k="name" v="Hov" />
		<tag k="place" v="farm" />
		<tag k="ssr:stedsnr" v="923017" />
	</node>
	<node id="-840533" lat="63.6455583289" lon="9.45995555962">
		<tag k="name" v="Ramsbolet" />
		<tag k="natural" v="cape" />
		<tag k="ssr:stedsnr" v="216814" />
	</node>
	<node id="-840532" lat="63.7388777734" lon="9.69173055973">
		<tag k="name" v="Østmarka" />
		<tag k="place" v="farm" />
		<tag k="ssr:stedsnr" v="155870" />
	</node>
	<node id="-840531" lat="63.7262749987" lon="9.7832666584">
		<tag k="name" v="Kalvåhaugan" />
		<tag k="natural" v="hill" />
		<tag k="place" v="locality" />
		<tag k="ssr:stedsnr" v="620235" />
	</node>
	<node id="-840530" lat="63.6714944467" lon="9.28123332488">
		<tag k="name" v="Vesterflua" />
		<tag k="natural" v="shoal" />
		<tag k="place" v="locality" />
		<tag k="ssr:stedsnr" v="334359" />
	</node>
	<node id="-840529" lat="63.669644442" lon="9.43001667121">
		<tag k="name" v="Lauvset" />
		<tag k="place" v="isolated_dwelling" />
		<tag k="ssr:stedsnr" v="702675" />
	</node>
	<node id="-840528" lat="63.6971527756" lon="9.64235832881">
		<tag k="name" v="Hårberg" />
		<tag k="place" v="farm" />
		<tag k="ssr:stedsnr" v="398610" />
	</node>
	<node id="-840527" lat="63.7017694443" lon="9.6659138864">
		<tag k="name" v="Breiosen" />
		<tag k="place" v="farm" />
		<tag k="ssr:stedsnr" v="459801" />
	</node>
	<node id="-840526" lat="63.7289083313" lon="9.71645833202">
		<tag k="name" v="Litlvatnet" />
		<tag k="natural" v="water" />
		<tag k="ssr:stedsnr" v="277764" />
		<tag k="water" v="lake" />
	</node>
	<node id="-840525" lat="63.6847527782" lon="9.60005276977">
		<tag k="name" v="Vamman" />
		<tag k="place" v="farm" />
		<tag k="ssr:stedsnr" v="34645" />
	</node>
	<node id="-840523" lat="63.7102249975" lon="9.45056666014">
		<tag k="fixme" v="consider seamark:type=rock or natural=shoal" />
		<tag k="name" v="Kobbskjæra" />
		<tag k="place" v="islet" />
		<tag k="ssr:stedsnr" v="923018" />
	</node>
	<node id="-840522" lat="63.709169449" lon="9.66828610261">
		<tag k="name" v="Utheim" />
		<tag k="place" v="farm" />
		<tag k="ssr:stedsnr" v="763960" />
	</node>
	<node id="-840521" lat="63.6767194475" lon="9.4247111127">
		<tag k="name" v="Albertsmyra" />
		<tag k="natural" v="wetland" />
		<tag k="ssr:stedsnr" v="762838" />
	</node>
	<node id="-840520" lat="63.7476638909" lon="9.68315000349">
		<tag k="name" v="Maritbukta" />
		<tag k="natural" v="bay" />
		<tag k="ssr:stedsnr" v="96749" />
	</node>
	<node id="-840519" lat="63.6432555516" lon="9.51721666673">
		<tag k="name" v="Nordsjøstykket" />
		<tag k="place" v="farm" />
		<tag k="ssr:stedsnr" v="520966" />
	</node>
	<node id="-840518" lat="63.7106500027" lon="9.49255277484">
		<tag k="name" v="Svartskjærtaren" />
		<tag k="natural" v="shoal" />
		<tag k="place" v="locality" />
		<tag k="ssr:stedsnr" v="862030" />
	</node>
	<node id="-840517" lat="63.6999111086" lon="9.25366111083">
		<tag k="name" v="Svissaflua" />
		<tag k="natural" v="shoal" />
		<tag k="place" v="locality" />
		<tag k="ssr:stedsnr" v="395380" />
	</node>
	<node id="-840516" lat="63.6770749972" lon="9.29771944433">
		<tag k="name" v="Øysterflua" />
		<tag k="natural" v="shoal" />
		<tag k="place" v="locality" />
		<tag k="ssr:stedsnr" v="395381" />
	</node>
	<node id="-840515" lat="63.6713416688" lon="9.36937499525">
		<tag k="name" v="Bergholman" />
		<tag k="place" v="islet" />
		<tag k="ssr:stedsnr" v="823792" />
	</node>
	<node id="-840514" lat="63.6402527761" lon="9.50591944283">
		<tag k="name" v="Rabbsjøen" />
		<tag k="natural" v="bay" />
		<tag k="ssr:stedsnr" v="520967" />
	</node>
	<node id="-840513" lat="63.7198388871" lon="9.55109444692">
		<tag k="name" v="Neset" />
		<tag k="place" v="farm" />
		<tag k="ssr:stedsnr" v="34643" />
	</node>
	<node id="-840512" lat="63.6384722254" lon="9.34301389404">
		<tag k="name" v="Stabbursholmen" />
		<tag k="place" v="islet" />
		<tag k="ssr:stedsnr" v="156776" />
	</node>
	<node id="-840511" lat="63.7235027741" lon="9.59134721465">
		<tag k="amenity" v="school" />
		<tag k="name" v="Uthaug skole" />
		<tag k="ssr:stedsnr" v="398845" />
	</node>
	<node id="-840510" lat="63.730980557" lon="9.67709445169">
		<tag k="name" v="Falkhytta" />
		<tag k="place" v="isolated_dwelling" />
		<tag k="ssr:stedsnr" v="823783" />
	</node>
	<node id="-840509" lat="63.7024083291" lon="9.39118612042">
		<tag k="fixme" v="consider seamark:type=rock or natural=shoal" />
		<tag k="name" v="Midtre Tørrskjæret" />
		<tag k="place" v="islet" />
		<tag k="ssr:stedsnr" v="820118" />
	</node>
	<node id="-840508" lat="63.7222916638" lon="9.61453056542">
		<tag k="name" v="Kotte" />
		<tag k="place" v="farm" />
		<tag k="ssr:stedsnr" v="944991" />
	</node>
	<node id="-840507" lat="63.6440194483" lon="9.52206388357">
		<tag k="name" v="Kleiva" />
		<tag k="place" v="farm" />
		<tag k="ssr:stedsnr" v="459804" />
	</node>
	<node id="-840506" lat="63.6877388855" lon="9.65177499699">
		<tag k="name" v="Fjøshaugen" />
		<tag k="natural" v="hill" />
		<tag k="place" v="locality" />
		<tag k="ssr:stedsnr" v="763958" />
	</node>
	<node id="-840505" lat="63.6747361106" lon="9.39394721337">
		<tag k="name" v="Sørosen" />
		<tag k="natural" v="bay" />
		<tag k="ssr:stedsnr" v="823788" />
	</node>
	<node id="-840504" lat="63.6860055562" lon="9.41787222207">
		<tag k="name" v="Grønnøra" />
		<tag k="natural" v="beach" />
		<tag k="place" v="locality" />
		<tag k="ssr:stedsnr" v="216806" />
	</node>
	<node id="-840503" lat="63.677502777" lon="9.33473611186">
		<tag k="name" v="Larsgrunnen" />
		<tag k="natural" v="shoal" />
		<tag k="place" v="locality" />
		<tag k="ssr:stedsnr" v="334366" />
	</node>
	<node id="-840502" lat="63.6614944477" lon="9.53811944782">
		<tag k="name" v="Rauholmøra" />
		<tag k="natural" v="beach" />
		<tag k="place" v="locality" />
		<tag k="ssr:stedsnr" v="399948" />
	</node>
	<node id="-840501" lat="63.7275138853" lon="9.69484722834">
		<tag k="name" v="Geilvollen" />
		<tag k="place" v="farm" />
		<tag k="ssr:stedsnr" v="95882" />
	</node>
	<node id="-840500" lat="63.6485742539" lon="9.26989742932">
		<tag k="alt_name" v="Krågvågfjorden" />
		<tag k="bay" v="fjord" />
		<tag k="name" v="Kråkvågfjorden" />
		<tag k="natural" v="bay" />
		<tag k="ssr:stedsnr" v="498704" />
	</node>
	<node id="-840499" lat="63.7158194411" lon="9.77115555233">
		<tag k="name" v="Ottarsbu" />
		<tag k="place" v="farm" />
		<tag k="ssr:stedsnr" v="216596" />
	</node>
	<node id="-840498" lat="63.6894055554" lon="9.4120583418">
		<tag k="name" v="Osen" />
		<tag k="natural" v="bay" />
		<tag k="ssr:stedsnr" v="216809" />
	</node>
	<node id="-840497" lat="63.6603888889" lon="9.41128888324">
		<tag k="alt_name" v="Djupmyr" />
		<tag k="name" v="Djupmyra" />
		<tag k="place" v="farm" />
		<tag k="ssr:stedsnr" v="520746" />
	</node>
	<node id="-840496" lat="63.7043902899" lon="9.74360083807">
		<tag k="fixme" v="consider place=hamlet" />
		<tag k="name" v="Austrått" />
		<tag k="place" v="farm" />
		<tag k="ssr:stedsnr" v="216597" />
	</node>
	<node id="-840495" lat="63.7185249994" lon="9.70649167043">
		<tag k="name" v="Vesterset" />
		<tag k="place" v="farm" />
		<tag k="ssr:stedsnr" v="823785" />
	</node>
	<node id="-840494" lat="63.7279388934" lon="9.76266111831">
		<tag k="fixme" v="consider natural=peak for the most distinct mountains in the district" />
		<tag k="name" v="Osplikammen" />
		<tag k="natural" v="hill" />
		<tag k="place" v="locality" />
		<tag k="ssr:stedsnr" v="923263" />
	</node>
	<node id="-840493" lat="63.7112416655" lon="9.35994166548">
		<tag k="name" v="Vettabåen" />
		<tag k="natural" v="shoal" />
		<tag k="place" v="locality" />
		<tag k="ssr:stedsnr" v="92428" />
	</node>
	<node id="-840492" lat="63.7186305526" lon="9.7973083339">
		<tag k="name" v="Vindset" />
		<tag k="place" v="farm" />
		<tag k="ssr:stedsnr" v="923274" />
	</node>
	<node id="-840491" lat="63.7187250012" lon="9.63436110923">
		<tag k="name" v="Ryggamyra" />
		<tag k="natural" v="wetland" />
		<tag k="ssr:stedsnr" v="763978" />
	</node>
	<node id="-840490" lat="63.6877805535" lon="9.65615278024">
		<tag k="amenity" v="school" />
		<tag k="name" v="Ørland ungdomsskole" />
		<tag k="ssr:stedsnr" v="952851" />
	</node>
	<node id="-840489" lat="63.7068611105" lon="9.80946111763">
		<tag k="name" v="Kalvåflua" />
		<tag k="natural" v="shoal" />
		<tag k="place" v="locality" />
		<tag k="ssr:stedsnr" v="619835" />
	</node>
	<node id="-840488" lat="63.7194416681" lon="9.71031111239">
		<tag k="name" v="Røstad" />
		<tag k="place" v="farm" />
		<tag k="ssr:stedsnr" v="216587" />
	</node>
	<node id="-840487" lat="63.7240277739" lon="9.72372221706">
		<tag k="name" v="Rusasetvatnet" />
		<tag k="natural" v="water" />
		<tag k="ssr:stedsnr" v="377230" />
	</node>
	<node id="-840486" lat="63.6708722226" lon="9.42005277733">
		<tag k="name" v="Solheim" />
		<tag k="place" v="farm" />
		<tag k="ssr:stedsnr" v="520720" />
	</node>
	<node id="-840485" lat="63.6811277757" lon="9.60426666123">
		<tag k="name" v="Rabben" />
		<tag k="place" v="farm" />
		<tag k="ssr:stedsnr" v="35947" />
	</node>
	<node id="-840484" lat="63.6450305595" lon="9.5442916586">
		<tag k="name" v="Korsvika" />
		<tag k="natural" v="bay" />
		<tag k="ssr:stedsnr" v="763749" />
	</node>
	<node id="-840483" lat="63.7109305575" lon="9.68326387975">
		<tag k="name" v="Vårtun" />
		<tag k="place" v="farm" />
		<tag k="ssr:stedsnr" v="763980" />
	</node>
	<node id="-840482" lat="63.6390749967" lon="9.33878333048">
		<tag k="name" v="Hylla" />
		<tag k="place" v="isolated_dwelling" />
		<tag k="ssr:stedsnr" v="316066" />
	</node>
	<node id="-840481" lat="63.7184333327" lon="9.71109722408">
		<tag k="name" v="Bakketun" />
		<tag k="place" v="farm" />
		<tag k="ssr:stedsnr" v="216588" />
	</node>
	<node id="-840480" lat="63.6932138882" lon="9.66051111598">
		<tag k="amenity" v="sports_centre" />
		<tag k="name" v="Yrjarshall" />
		<tag k="ssr:stedsnr" v="156759" />
	</node>
	<node id="-840479" lat="63.7384222184" lon="9.67812776905">
		<tag k="fixme" v="consider place=hamlet" />
		<tag k="loc_name" v="Døsvik" />
		<tag k="name" v="Døsvika" />
		<tag k="place" v="farm" />
		<tag k="ssr:stedsnr" v="25188" />
	</node>
	<node id="-840478" lat="63.704136115" lon="9.69055556171">
		<tag k="alt_name" v="Balsneselva" />
		<tag k="name" v="Ballsneselva" />
		<tag k="ssr:stedsnr" v="156763" />
		<tag k="waterway" v="river" />
	</node>
	<node id="-840477" lat="63.7122166674" lon="9.56318888017">
		<tag k="name" v="Leirbekkosen" />
		<tag k="natural" v="bay" />
		<tag k="ssr:stedsnr" v="337996" />
	</node>
	<node id="-840476" lat="63.6300250008" lon="9.3282000084">
		<tag k="name" v="Kommersøyflua" />
		<tag k="natural" v="shoal" />
		<tag k="place" v="locality" />
		<tag k="ssr:stedsnr" v="941368" />
	</node>
	<node id="-840475" lat="63.6837638871" lon="9.54999721448">
		<tag k="name" v="Kløholmen" />
		<tag k="place" v="islet" />
		<tag k="ssr:stedsnr" v="862039" />
	</node>
	<node id="-840474" lat="63.6951350438" lon="9.64188384501">
		<tag k="fixme" v="consider place=hamlet" />
		<tag k="name" v="Hårberg" />
		<tag k="place" v="farm" />
		<tag k="ssr:stedsnr" v="571194" />
	</node>
	<node id="-840473" lat="63.7209305534" lon="9.56775833154">
		<tag k="name" v="Nøkkelhaugen" />
		<tag k="natural" v="hill" />
		<tag k="place" v="locality" />
		<tag k="ssr:stedsnr" v="762854" />
	</node>
	<node id="-840472" lat="63.6860611142" lon="9.40090276846">
		<tag k="fixme" v="consider seamark:type=rock or natural=shoal" />
		<tag k="name" v="Grønnmyrskjæra" />
		<tag k="place" v="islet" />
		<tag k="ssr:stedsnr" v="398821" />
	</node>
	<node id="-840471" lat="63.6756611143" lon="9.66498889794">
		<tag k="name" v="Holmhaugen" />
		<tag k="natural" v="hill" />
		<tag k="place" v="locality" />
		<tag k="ssr:stedsnr" v="399937" />
	</node>
	<node id="-840470" lat="63.7048416641" lon="9.72325277804">
		<tag k="alt_name" v="Austråttlunden" />
		<tag k="name" v="Austråttskogen" />
		<tag k="place" v="locality" />
		<tag k="ssr:stedsnr" v="316844" />
	</node>
	<node id="-840469" lat="63.6437472222" lon="9.53217222725">
		<tag k="name" v="Steinskardet" />
		<tag k="natural" v="valley" />
		<tag k="place" v="locality" />
		<tag k="ssr:stedsnr" v="96947" />
	</node>
	<node id="-840468" lat="63.6692277757" lon="9.33182778664">
		<tag k="name" v="Skjåholmen" />
		<tag k="place" v="islet" />
		<tag k="ssr:stedsnr" v="255048" />
	</node>
	<node id="-840467" lat="63.7250388908" lon="9.60702499834">
		<tag k="name" v="Uthaug" />
		<tag k="place" v="farm" />
		<tag k="ssr:stedsnr" v="641604" />
	</node>
	<node id="-840466" lat="63.6596666648" lon="9.40922499461">
		<tag k="name" v="Brinken" />
		<tag k="place" v="farm" />
		<tag k="ssr:stedsnr" v="520728" />
	</node>
	<node id="-840465" lat="63.722441664" lon="9.57423611893">
		<tag k="name" v="Skarbukta" />
		<tag k="natural" v="bay" />
		<tag k="ssr:stedsnr" v="34839" />
	</node>
	<node id="-840464" lat="63.6350472231" lon="9.33084444291">
		<tag k="alt_name" v="Kommerøya" />
		<tag k="name" v="Kommersøya" />
		<tag k="place" v="island" />
		<tag k="ssr:stedsnr" v="316073" />
	</node>
	<node id="-840463" lat="63.7257027794" lon="9.62010277046">
		<tag k="name" v="Haugløkkan" />
		<tag k="place" v="farm" />
		<tag k="ssr:stedsnr" v="155649" />
	</node>
	<node id="-840462" lat="63.6560944431" lon="9.34845834167">
		<tag k="name" v="Kråkvågsvaet" />
		<tag k="natural" v="strait" />
		<tag k="ssr:stedsnr" v="255049" />
	</node>
	<node id="-840461" lat="63.6917083292" lon="9.59114722302">
		<tag k="name" v="Langrabben" />
		<tag k="place" v="farm" />
		<tag k="ssr:stedsnr" v="155647" />
	</node>
	<node id="-840460" lat="63.7148367764" lon="9.55345577778">
		<tag k="fixme" v="consider place=hamlet" />
		<tag k="name" v="Hoøya" />
		<tag k="place" v="farm" />
		<tag k="ssr:stedsnr" v="619019" />
	</node>
	<node id="-840459" lat="63.6907222227" lon="9.38896110717">
		<tag k="name" v="Jekttaren" />
		<tag k="natural" v="shoal" />
		<tag k="place" v="locality" />
		<tag k="ssr:stedsnr" v="152406" />
	</node>
	<node id="-840458" lat="63.7206194488" lon="9.6413666768">
		<tag k="name" v="Helgebu" />
		<tag k="place" v="farm" />
		<tag k="ssr:stedsnr" v="216581" />
	</node>
	<node id="-840457" lat="63.6686555574" lon="9.40761943735">
		<tag k="name" v="Grandmyra" />
		<tag k="place" v="locality" />
		<tag k="ssr:stedsnr" v="823796" />
	</node>
	<node id="-840456" lat="63.6581194436" lon="9.56909721218">
		<tag k="name" v="Nordbakken" />
		<tag k="place" v="farm" />
		<tag k="ssr:stedsnr" v="581947" />
	</node>
	<node id="-840455" lat="63.6488777801" lon="9.32544444408">
		<tag k="name" v="Midtholmen" />
		<tag k="place" v="islet" />
		<tag k="ssr:stedsnr" v="823801" />
	</node>
	<node id="-840454" lat="63.6734888872" lon="9.42644723119">
		<tag k="name" v="Strandheim" />
		<tag k="place" v="farm" />
		<tag k="ssr:stedsnr" v="945679" />
	</node>
	<node id="-840453" lat="63.6500805595" lon="9.41372500761">
		<tag k="name" v="Oksbåsen" />
		<tag k="place" v="isolated_dwelling" />
		<tag k="ssr:stedsnr" v="498059" />
	</node>
	<node id="-840452" lat="63.6523972231" lon="9.43543055415">
		<tag k="name" v="Ola" />
		<tag k="place" v="isolated_dwelling" />
		<tag k="ssr:stedsnr" v="945680" />
	</node>
	<node id="-840451" lat="63.6812361115" lon="9.59471111495">
		<tag k="name" v="Grandgården" />
		<tag k="place" v="farm" />
		<tag k="ssr:stedsnr" v="702682" />
	</node>
	<node id="-840450" lat="63.7267333353" lon="9.58476945255">
		<tag k="landuse" v="harbour" />
		<tag k="name" v="Uthaug havn" />
		<tag k="seamark:type" v="harbour" />
		<tag k="ssr:stedsnr" v="641831" />
	</node>
	<node id="-840449" lat="63.6707148152" lon="9.58127160923">
		<tag k="name" v="Markagården" />
		<tag k="place" v="farm" />
		<tag k="ssr:stedsnr" v="509487" />
	</node>
	<node id="-840448" lat="63.6396527785" lon="9.44343055121">
		<tag k="name" v="Bukkhallaren" />
		<tag k="natural" v="hill" />
		<tag k="place" v="locality" />
		<tag k="ssr:stedsnr" v="316068" />
	</node>
	<node id="-840447" lat="63.7187611091" lon="9.7253694437">
		<tag k="alt_name" v="Nydalen" />
		<tag k="name" v="Nydal" />
		<tag k="place" v="farm" />
		<tag k="ssr:stedsnr" v="377232" />
	</node>
	<node id="-840446" lat="63.7069555563" lon="9.69850277457">
		<tag k="name" v="Skardet" />
		<tag k="place" v="farm" />
		<tag k="ssr:stedsnr" v="398605" />
	</node>
	<node id="-840445" lat="63.7008250016" lon="9.66384721675">
		<tag k="name" v="Fjæra" />
		<tag k="place" v="farm" />
		<tag k="ssr:stedsnr" v="558017" />
	</node>
	<node id="-840444" lat="63.6723833375" lon="9.42205556482">
		<tag k="name" v="Nordlandshøgda" />
		<tag k="place" v="farm" />
		<tag k="ssr:stedsnr" v="762629" />
	</node>
	<node id="-840443" lat="63.6944777735" lon="9.59395555955">
		<tag k="name" v="Nordheim" />
		<tag k="place" v="farm" />
		<tag k="ssr:stedsnr" v="944970" />
	</node>
	<node id="-840442" lat="63.6791486118" lon="9.65430366155">
		<tag k="fixme" v="consider place=hamlet" />
		<tag k="name" v="Hovde" />
		<tag k="place" v="farm" />
		<tag k="ssr:stedsnr" v="13045" />
	</node>
	<node id="-840441" lat="63.7287277736" lon="9.61201389093">
		<tag k="name" v="Utstrand" />
		<tag k="place" v="farm" />
		<tag k="ssr:stedsnr" v="34624" />
	</node>
	<node id="-840440" lat="63.6619861111" lon="9.39587500022">
		<tag k="name" v="Klungerhaugen" />
		<tag k="natural" v="hill" />
		<tag k="place" v="locality" />
		<tag k="ssr:stedsnr" v="641800" />
	</node>
	<node id="-840439" lat="63.6725583318" lon="9.42709166174">
		<tag k="name" v="Slettbakken" />
		<tag k="place" v="farm" />
		<tag k="ssr:stedsnr" v="278823" />
	</node>
	<node id="-840438" lat="63.700833329" lon="9.66435555994">
		<tag k="name" v="Røsvik" />
		<tag k="place" v="farm" />
		<tag k="ssr:stedsnr" v="762598" />
	</node>
	<node id="-840437" lat="63.6905722218" lon="9.7320916589">
		<tag k="name" v="Skjegghaugflua" />
		<tag k="natural" v="shoal" />
		<tag k="place" v="locality" />
		<tag k="ssr:stedsnr" v="819668" />
	</node>
	<node id="-840436" lat="63.6568777753" lon="9.42247222308">
		<tag k="name" v="Halsen" />
		<tag k="place" v="farm" />
		<tag k="ssr:stedsnr" v="881470" />
	</node>
	<node id="-840435" lat="63.716561112" lon="9.71081110745">
		<tag k="name" v="Dalabrua" />
		<tag k="place" v="farm" />
		<tag k="ssr:stedsnr" v="762809" />
	</node>
	<node id="-840434" lat="63.6797750012" lon="9.41444444062">
		<tag k="name" v="Grønnrabben" />
		<tag k="natural" v="wetland" />
		<tag k="ssr:stedsnr" v="885785" />
	</node>
	<node id="-840433" lat="63.7200916709" lon="9.59792222311">
		<tag k="name" v="Trøa" />
		<tag k="place" v="farm" />
		<tag k="ssr:stedsnr" v="580640" />
	</node>
	<node id="-840432" lat="63.7129666657" lon="9.53483054552">
		<tag k="name" v="Litlhaugen" />
		<tag k="natural" v="hill" />
		<tag k="place" v="locality" />
		<tag k="ssr:stedsnr" v="702878" />
	</node>
	<node id="-840431" lat="63.7069805579" lon="9.77090278438">
		<tag k="name" v="Nøysomhet" />
		<tag k="place" v="farm" />
		<tag k="ssr:stedsnr" v="762595" />
	</node>
	<node id="-840430" lat="63.7236527756" lon="9.58318610515">
		<tag k="name" v="Rundøra" />
		<tag k="natural" v="beach" />
		<tag k="place" v="locality" />
		<tag k="ssr:stedsnr" v="216997" />
	</node>
	<node id="-840429" lat="63.7158138932" lon="9.56763333527">
		<tag k="name" v="Tinnveden" />
		<tag k="place" v="farm" />
		<tag k="ssr:stedsnr" v="702647" />
	</node>
	<node id="-840428" lat="63.6964750034" lon="9.59841110744">
		<tag k="name" v="Meldalen" />
		<tag k="place" v="farm" />
		<tag k="ssr:stedsnr" v="95636" />
	</node>
	<node id="-840426" lat="63.7065583347" lon="9.69091943445">
		<tag k="name" v="Sandan" />
		<tag k="place" v="farm" />
		<tag k="ssr:stedsnr" v="216790" />
	</node>
	<node id="-840425" lat="63.7262777805" lon="9.68907221242">
		<tag k="name" v="Opphaug" />
		<tag k="place" v="farm" />
		<tag k="ssr:stedsnr" v="398806" />
	</node>
	<node id="-840424" lat="63.66059167" lon="9.5414416593">
		<tag k="name" v="Rauskjærøra" />
		<tag k="natural" v="beach" />
		<tag k="place" v="locality" />
		<tag k="ssr:stedsnr" v="278818" />
	</node>
	<node id="-840423" lat="63.6384777783" lon="9.31362499297">
		<tag k="name" v="Kråkøya" />
		<tag k="natural" v="cape" />
		<tag k="ssr:stedsnr" v="316057" />
	</node>
	<node id="-840422" lat="63.7145194442" lon="9.58651944236">
		<tag k="name" v="Dalatjørna" />
		<tag k="natural" v="water" />
		<tag k="ssr:stedsnr" v="34830" />
	</node>
	<node id="-840421" lat="63.722330558" lon="9.5682555651">
		<tag k="name" v="Vorphaugen" />
		<tag k="natural" v="hill" />
		<tag k="place" v="locality" />
		<tag k="ssr:stedsnr" v="216999" />
	</node>
	<node id="-840420" lat="63.7251916675" lon="9.59363611498">
		<tag k="name" v="Uthaugshaugen" />
		<tag k="natural" v="hill" />
		<tag k="place" v="locality" />
		<tag k="ssr:stedsnr" v="337992" />
	</node>
	<node id="-840419" lat="63.7324722188" lon="9.62159722731">
		<tag k="name" v="Litlkråka" />
		<tag k="natural" v="cape" />
		<tag k="ssr:stedsnr" v="156738" />
	</node>
	<node id="-840418" lat="63.6677555514" lon="9.42203332984">
		<tag k="name" v="Permyra" />
		<tag k="place" v="locality" />
		<tag k="ssr:stedsnr" v="398815" />
	</node>
	<node id="-840417" lat="63.6831555522" lon="9.5926888804">
		<tag k="name" v="Grindvollen" />
		<tag k="place" v="farm" />
		<tag k="ssr:stedsnr" v="580642" />
	</node>
	<node id="-840416" lat="63.6605500041" lon="9.32455555445">
		<tag k="name" v="Storslåttøya" />
		<tag k="place" v="island" />
		<tag k="ssr:stedsnr" v="498049" />
	</node>
	<node id="-840415" lat="63.718816666" lon="9.53611666702">
		<tag k="name" v="Tørresholmen" />
		<tag k="place" v="islet" />
		<tag k="ssr:stedsnr" v="702877" />
	</node>
	<node id="-840414" lat="63.6999333289" lon="9.74620833495">
		<tag k="man_made" v="quay" />
		<tag k="name" v="Austrått kai" />
		<tag k="place" v="locality" />
		<tag k="ssr:stedsnr" v="277970" />
	</node>
	<node id="-840413" lat="63.6627361121" lon="9.42642223185">
		<tag k="name" v="Tinnheia" />
		<tag k="natural" v="hill" />
		<tag k="place" v="locality" />
		<tag k="ssr:stedsnr" v="155839" />
	</node>
	<node id="-840412" lat="63.6525638914" lon="9.57605000195">
		<tag k="name" v="Vorpholmen" />
		<tag k="place" v="islet" />
		<tag k="ssr:stedsnr" v="195049" />
	</node>
	<node id="-840411" lat="63.716561112" lon="9.71081110745">
		<tag k="bridge" v="yes" />
		<tag k="layer" v="1" />
		<tag k="name" v="Dalabrua" />
		<tag k="ssr:stedsnr" v="107825" />
	</node>
	<node id="-840410" lat="63.7094666625" lon="9.53011666582">
		<tag k="fixme" v="consider seamark:type=rock or natural=shoal" />
		<tag k="name" v="Hoøyskjæret" />
		<tag k="place" v="islet" />
		<tag k="ssr:stedsnr" v="698324" />
	</node>
	<node id="-840409" lat="63.6551444442" lon="9.39594166106">
		<tag k="name" v="Vika" />
		<tag k="natural" v="bay" />
		<tag k="ssr:stedsnr" v="885777" />
	</node>
	<node id="-840408" lat="63.6975666631" lon="9.67900277757">
		<tag k="alt_name" v="Bruholmen" />
		<tag k="name" v="Litle Bruholmen" />
		<tag k="place" v="islet" />
		<tag k="ssr:stedsnr" v="638074" />
	</node>
	<node id="-840407" lat="63.6929555574" lon="9.5942361201">
		<tag k="name" v="Nystykket" />
		<tag k="place" v="farm" />
		<tag k="ssr:stedsnr" v="216990" />
	</node>
	<node id="-840406" lat="63.7083833376" lon="9.7222111164">
		<tag k="name" v="Austrått fort" />
		<tag k="ssr:stedsnr" v="476979" />
		<tag k="tourism" v="attraction" />
	</node>
	<node id="-840405" lat="63.7064944429" lon="9.73391666572">
		<tag k="alt_name" v="Bogen" />
		<tag k="name" v="Borga" />
		<tag k="place" v="farm" />
		<tag k="ssr:stedsnr" v="316840" />
	</node>
	<node id="-840404" lat="63.6936472231" lon="9.58598611894">
		<tag k="name" v="Vesterheim" />
		<tag k="place" v="farm" />
		<tag k="ssr:stedsnr" v="216991" />
	</node>
	<node id="-840403" lat="63.6779722179" lon="9.62731111284">
		<tag k="name" v="Hovdeland" />
		<tag k="place" v="farm" />
		<tag k="ssr:stedsnr" v="216782" />
	</node>
	<node id="-840402" lat="63.6412111088" lon="9.38200832636">
		<tag k="fixme" v="consider seamark:type=rock or natural=shoal" />
		<tag k="name" v="Likskjæret" />
		<tag k="place" v="islet" />
		<tag k="ssr:stedsnr" v="741074" />
	</node>
	<node id="-840401" lat="63.7026138869" lon="9.69362778177">
		<tag k="name" v="Nausthaugen" />
		<tag k="place" v="farm" />
		<tag k="ssr:stedsnr" v="762804" />
	</node>
	<node id="-840400" lat="63.6660916629" lon="9.40431110226">
		<tag k="name" v="Valberget" />
		<tag k="natural" v="hill" />
		<tag k="place" v="locality" />
		<tag k="ssr:stedsnr" v="398814" />
	</node>
	<node id="-840399" lat="63.720075" lon="9.59346111717">
		<tag k="name" v="Trøa" />
		<tag k="place" v="farm" />
		<tag k="ssr:stedsnr" v="945640" />
	</node>
	<node id="-840398" lat="63.6788861068" lon="9.65970832378">
		<tag k="name" v="Kranshaugen" />
		<tag k="place" v="farm" />
		<tag k="ssr:stedsnr" v="216783" />
	</node>
	<node id="-840397" lat="63.7245222257" lon="9.52281111431">
		<tag k="fixme" v="consider seamark:type=rock or natural=shoal" />
		<tag k="name" v="Kjeungan" />
		<tag k="place" v="islet" />
		<tag k="ssr:stedsnr" v="558010" />
	</node>
	<node id="-840396" lat="63.7326694435" lon="9.72920834211">
		<tag k="name" v="Torshammaren" />
		<tag k="natural" v="hill" />
		<tag k="place" v="locality" />
		<tag k="ssr:stedsnr" v="134235" />
	</node>
	<node id="-840395" lat="63.6628250006" lon="9.37291666443">
		<tag k="name" v="Tinnhaugen" />
		<tag k="natural" v="hill" />
		<tag k="place" v="locality" />
		<tag k="ssr:stedsnr" v="641814" />
	</node>
	<node id="-840394" lat="63.6391083328" lon="9.34037778507">
		<tag k="name" v="Spissholmen" />
		<tag k="place" v="islet" />
		<tag k="ssr:stedsnr" v="437069" />
	</node>
	<node id="-840393" lat="63.6770888873" lon="9.61998333521">
		<tag k="name" v="Ørteigen" />
		<tag k="place" v="farm" />
		<tag k="ssr:stedsnr" v="34611" />
	</node>
	<node id="-840392" lat="63.7229194441" lon="9.49599445175">
		<tag k="name" v="Bjørnholmen" />
		<tag k="place" v="islet" />
		<tag k="ssr:stedsnr" v="619008" />
	</node>
	<node id="-840391" lat="63.6760611074" lon="9.38370555023">
		<tag k="name" v="Småholman" />
		<tag k="place" v="islet" />
		<tag k="ssr:stedsnr" v="580844" />
	</node>
	<node id="-840390" lat="63.6384250042" lon="9.35905832491">
		<tag k="name" v="Spissflua" />
		<tag k="natural" v="shoal" />
		<tag k="place" v="locality" />
		<tag k="ssr:stedsnr" v="516376" />
	</node>
	<node id="-840389" lat="63.6618694405" lon="9.41072777609">
		<tag k="name" v="Overdjupmyra" />
		<tag k="place" v="farm" />
		<tag k="ssr:stedsnr" v="278809" />
	</node>
	<node id="-840388" lat="63.6827694442" lon="9.39492500277">
		<tag k="name" v="Dalahamnhaugen" />
		<tag k="natural" v="hill" />
		<tag k="place" v="locality" />
		<tag k="ssr:stedsnr" v="95845" />
	</node>
	<node id="-840387" lat="63.68261667" lon="9.61221944055">
		<tag k="name" v="Solheim (Utsikten)" />
		<tag k="place" v="farm" />
		<tag k="ssr:stedsnr" v="762613" />
	</node>
	<node id="-840386" lat="63.6755025746" lon="9.60701082567">
		<tag k="fixme" v="consider place=hamlet" />
		<tag k="name" v="Flatneset" />
		<tag k="place" v="farm" />
		<tag k="ssr:stedsnr" v="13037" />
	</node>
	<node id="-840385" lat="63.6465638881" lon="9.3556472243">
		<tag k="name" v="Svataren" />
		<tag k="natural" v="shoal" />
		<tag k="place" v="locality" />
		<tag k="ssr:stedsnr" v="516374" />
	</node>
	<node id="-840384" lat="63.7281805558" lon="9.71981667357">
		<tag k="name" v="Hammarmyra" />
		<tag k="natural" v="wetland" />
		<tag k="ssr:stedsnr" v="217877" />
	</node>
	<node id="-840383" lat="63.7204111111" lon="9.54913055601">
		<tag k="name" v="Neset" />
		<tag k="natural" v="cape" />
		<tag k="ssr:stedsnr" v="862018" />
	</node>
	<node id="-840381" lat="63.6986361129" lon="9.64774721968">
		<tag k="name" v="Tunga" />
		<tag k="place" v="farm" />
		<tag k="ssr:stedsnr" v="156962" />
	</node>
	<node id="-840380" lat="63.6731264209" lon="9.37397965092">
		<tag k="name" v="Kuholman" />
		<tag k="place" v="islet" />
		<tag k="ssr:stedsnr" v="448582" />
	</node>
	<node id="-840379" lat="63.6773555524" lon="9.65488332495">
		<tag k="name" v="Hovde" />
		<tag k="place" v="farm" />
		<tag k="ssr:stedsnr" v="34613" />
	</node>
	<node id="-840378" lat="63.7366305545" lon="9.67391111374">
		<tag k="name" v="Kløften" />
		<tag k="place" v="farm" />
		<tag k="ssr:stedsnr" v="95618" />
	</node>
	<node id="-840377" lat="63.6463611102" lon="9.43636944011">
		<tag k="fixme" v="consider natural=peak for the most distinct mountains in the district" />
		<tag k="name" v="Fosenfjellet" />
		<tag k="natural" v="hill" />
		<tag k="place" v="locality" />
		<tag k="ssr:stedsnr" v="437072" />
	</node>
	<node id="-840376" lat="63.7383805527" lon="9.65936943477">
		<tag k="name" v="Ørsleie" />
		<tag k="natural" v="cape" />
		<tag k="ssr:stedsnr" v="438006" />
	</node>
	<node id="-840375" lat="63.7272416658" lon="9.65583334254">
		<tag k="name" v="Skogly" />
		<tag k="place" v="farm" />
		<tag k="ssr:stedsnr" v="824898" />
	</node>
	<node id="-840374" lat="63.6499500027" lon="9.22613333643">
		<tag k="name" v="Framflua" />
		<tag k="natural" v="shoal" />
		<tag k="place" v="locality" />
		<tag k="ssr:stedsnr" v="213110" />
	</node>
	<node id="-840373" lat="63.6703472188" lon="9.38770000881">
		<tag k="name" v="Grønntuva" />
		<tag k="natural" v="wetland" />
		<tag k="ssr:stedsnr" v="580847" />
	</node>
	<node id="-840372" lat="63.7204766368" lon="9.60274925563">
		<tag k="name" v="Hagen" />
		<tag k="place" v="farm" />
		<tag k="ssr:stedsnr" v="387575" />
	</node>
	<node id="-840371" lat="63.6907694465" lon="9.64643889623">
		<tag k="name" v="Kjerkhaugen" />
		<tag k="natural" v="hill" />
		<tag k="place" v="locality" />
		<tag k="ssr:stedsnr" v="702737" />
	</node>
	<node id="-840370" lat="63.6436944463" lon="9.3275833243">
		<tag k="name" v="Gjelhaugen" />
		<tag k="natural" v="hill" />
		<tag k="place" v="locality" />
		<tag k="ssr:stedsnr" v="399773" />
	</node>
	<node id="-840369" lat="63.7458500007" lon="9.68559722462">
		<tag k="name" v="Marithaugen" />
		<tag k="natural" v="hill" />
		<tag k="place" v="locality" />
		<tag k="ssr:stedsnr" v="702739" />
	</node>
	<node id="-840368" lat="63.6626166667" lon="9.42003610638">
		<tag k="name" v="Myra" />
		<tag k="natural" v="wetland" />
		<tag k="ssr:stedsnr" v="763793" />
	</node>
	<node id="-840367" lat="63.6941694483" lon="9.6453888982">
		<tag k="name" v="Kleivhaugen" />
		<tag k="natural" v="hill" />
		<tag k="place" v="locality" />
		<tag k="ssr:stedsnr" v="824963" />
	</node>
	<node id="-840366" lat="63.7080083375" lon="9.66423611575">
		<tag k="name" v="Haug" />
		<tag k="place" v="farm" />
		<tag k="ssr:stedsnr" v="338968" />
	</node>
	<node id="-840365" lat="63.6794305536" lon="9.63406945345">
		<tag k="name" v="Åa" />
		<tag k="ssr:stedsnr" v="460953" />
		<tag k="waterway" v="stream" />
	</node>
	<node id="-840364" lat="63.7159777741" lon="9.667155563">
		<tag k="name" v="Furuly" />
		<tag k="place" v="farm" />
		<tag k="ssr:stedsnr" v="702972" />
	</node>
	<node id="-840363" lat="63.7181277782" lon="9.61876111479">
		<tag k="name" v="Jarlheim" />
		<tag k="place" v="farm" />
		<tag k="ssr:stedsnr" v="640976" />
	</node>
	<node id="-840362" lat="63.6663138915" lon="9.38517221321">
		<tag k="name" v="Hesthaugen" />
		<tag k="natural" v="hill" />
		<tag k="place" v="locality" />
		<tag k="ssr:stedsnr" v="96801" />
	</node>
	<node id="-840361" lat="63.6827999969" lon="9.6334277806">
		<tag k="name" v="Ytrebø" />
		<tag k="place" v="farm" />
		<tag k="ssr:stedsnr" v="459627" />
	</node>
	<node id="-840360" lat="63.722286107" lon="9.6898555619">
		<tag k="name" v="Øyateigen" />
		<tag k="place" v="farm" />
		<tag k="ssr:stedsnr" v="217985" />
	</node>
	<node id="-840359" lat="63.7379722213" lon="9.63462499869">
		<tag k="fixme" v="consider seamark:type=rock or natural=shoal" />
		<tag k="name" v="Bymannen" />
		<tag k="place" v="islet" />
		<tag k="ssr:stedsnr" v="455335" />
	</node>
	<node id="-840358" lat="63.7100583366" lon="9.73329167636">
		<tag k="name" v="Lundabakken" />
		<tag k="place" v="isolated_dwelling" />
		<tag k="ssr:stedsnr" v="277823" />
	</node>
	<node id="-840357" lat="63.7038972224" lon="9.67058334131">
		<tag k="name" v="Biskopvoll" />
		<tag k="place" v="farm" />
		<tag k="ssr:stedsnr" v="702965" />
	</node>
	<node id="-840356" lat="63.7140527741" lon="9.53789999776">
		<tag k="name" v="Heimhaugen" />
		<tag k="natural" v="hill" />
		<tag k="place" v="locality" />
		<tag k="ssr:stedsnr" v="460957" />
	</node>
	<node id="-840355" lat="63.7249764294" lon="9.67860540543">
		<tag k="fixme" v="consider place=hamlet" />
		<tag k="name" v="Berg" />
		<tag k="place" v="farm" />
		<tag k="ssr:stedsnr" v="824968" />
	</node>
	<node id="-840354" lat="63.6846138866" lon="9.59165276845">
		<tag k="name" v="Brekken" />
		<tag k="place" v="farm" />
		<tag k="ssr:stedsnr" v="823630" />
	</node>
	<node id="-840353" lat="63.7025527819" lon="9.71046111552">
		<tag k="name" v="Fuggelbekken" />
		<tag k="ssr:stedsnr" v="399770" />
		<tag k="waterway" v="stream" />
	</node>
	<node id="-840352" lat="63.6585361112" lon="9.48686944537">
		<tag k="name" v="Kjellgrunnen" />
		<tag k="natural" v="shoal" />
		<tag k="place" v="locality" />
		<tag k="ssr:stedsnr" v="92280" />
	</node>
	<node id="-840351" lat="63.6547833369" lon="9.37088056548">
		<tag k="name" v="Holmen" />
		<tag k="place" v="islet" />
		<tag k="ssr:stedsnr" v="558054" />
	</node>
	<node id="-840350" lat="63.7289972222" lon="9.67482777307">
		<tag k="name" v="Ner Revelrabben" />
		<tag k="place" v="isolated_dwelling" />
		<tag k="ssr:stedsnr" v="217987" />
	</node>
	<node id="-840349" lat="63.7033861125" lon="9.63826666957">
		<tag k="name" v="Vik" />
		<tag k="place" v="farm" />
		<tag k="ssr:stedsnr" v="945972" />
	</node>
	<node id="-840348" lat="63.6617444417" lon="9.54598334091">
		<tag k="name" v="Nordbakken" />
		<tag k="place" v="locality" />
		<tag k="ssr:stedsnr" v="338730" />
	</node>
	<node id="-840347" lat="63.7119083338" lon="9.71650833814">
		<tag k="leisure" v="pitch" />
		<tag k="name" v="Skoglund travbane" />
		<tag k="ssr:stedsnr" v="399771" />
	</node>
	<node id="-840346" lat="63.6908111135" lon="9.4170499907">
		<tag k="name" v="Villsauklova" />
		<tag k="natural" v="slope" />
		<tag k="place" v="locality" />
		<tag k="ssr:stedsnr" v="884805" />
	</node>
	<node id="-840345" lat="63.6804862699" lon="9.59148122167">
		<tag k="name" v="Viken" />
		<tag k="place" v="farm" />
		<tag k="ssr:stedsnr" v="387573" />
	</node>
	<node id="-840344" lat="63.6973333332" lon="9.63789443896">
		<tag k="amenity" v="school" />
		<tag k="name" v="Hårberg skole" />
		<tag k="ssr:stedsnr" v="399772" />
	</node>
	<node id="-840343" lat="63.6661111069" lon="9.39250833063">
		<tag k="name" v="Svarttuvan" />
		<tag k="place" v="locality" />
		<tag k="ssr:stedsnr" v="884792" />
	</node>
	<node id="-840342" lat="63.737469442" lon="9.67991944274">
		<tag k="name" v="Vollan" />
		<tag k="place" v="farm" />
		<tag k="ssr:stedsnr" v="337650" />
	</node>
	<node id="-840341" lat="63.7081250042" lon="9.67564444807">
		<tag k="name" v="Hovsvangen" />
		<tag k="place" v="farm" />
		<tag k="ssr:stedsnr" v="155714" />
	</node>
	<node id="-840339" lat="63.7068861146" lon="9.75834999893">
		<tag k="alt_name" v="Skjærset" />
		<tag k="name" v="Skjerset" />
		<tag k="place" v="farm" />
		<tag k="ssr:stedsnr" v="923823" />
	</node>
	<node id="-840338" lat="63.7330972239" lon="9.67692778056">
		<tag k="name" v="Grøtan" />
		<tag k="place" v="farm" />
		<tag k="ssr:stedsnr" v="134017" />
	</node>
	<node id="-840337" lat="63.7076333346" lon="9.56925833348">
		<tag k="alt_name" v="Lakskløholmen" />
		<tag k="name" v="Lakskloholmen" />
		<tag k="natural" v="cape" />
		<tag k="ssr:stedsnr" v="213386" />
	</node>
	<node id="-840336" lat="63.6969861103" lon="9.73511666162">
		<tag k="name" v="Skjegghaugan" />
		<tag k="natural" v="hill" />
		<tag k="place" v="locality" />
		<tag k="ssr:stedsnr" v="581792" />
	</node>
	<node id="-840335" lat="63.6490555547" lon="9.54385277047">
		<tag k="name" v="Korsholman" />
		<tag k="place" v="islet" />
		<tag k="ssr:stedsnr" v="862061" />
	</node>
	<node id="-840334" lat="63.713602776" lon="9.67017500638">
		<tag k="name" v="Mordskogen" />
		<tag k="place" v="locality" />
		<tag k="ssr:stedsnr" v="399777" />
	</node>
	<node id="-840333" lat="63.6898472251" lon="9.66189166334">
		<tag k="building" v="commercial" />
		<tag k="name" v="Brekstad p.å." />
		<tag k="ssr:stedsnr" v="338739" />
	</node>
	<node id="-840332" lat="63.6755027814" lon="9.39573333367">
		<tag k="name" v="Nordosen" />
		<tag k="natural" v="bay" />
		<tag k="ssr:stedsnr" v="277830" />
	</node>
	<node id="-840331" lat="63.6882222228" lon="9.40782499356">
		<tag k="name" v="Kuppelvika" />
		<tag k="natural" v="bay" />
		<tag k="ssr:stedsnr" v="520804" />
	</node>
	<node id="-840330" lat="63.7100972194" lon="9.76072222182">
		<tag k="name" v="Rønningen" />
		<tag k="place" v="farm" />
		<tag k="ssr:stedsnr" v="802834" />
	</node>
	<node id="-840329" lat="63.6586888847" lon="9.4070666725">
		<tag k="name" v="Vebergodden" />
		<tag k="natural" v="cape" />
		<tag k="ssr:stedsnr" v="619044" />
	</node>
	<node id="-840328" lat="63.6486083354" lon="9.55243334241">
		<tag k="name" v="Sundøra" />
		<tag k="natural" v="beach" />
		<tag k="place" v="locality" />
		<tag k="ssr:stedsnr" v="945726" />
	</node>
	<node id="-840327" lat="63.7233898334" lon="9.59732930836">
		<tag k="fixme" v="consider place=hamlet" />
		<tag k="name" v="Uthaug" />
		<tag k="place" v="farm" />
		<tag k="ssr:stedsnr" v="944988" />
	</node>
	<node id="-840326" lat="63.7117666676" lon="9.76904444186">
		<tag k="name" v="Moen" />
		<tag k="place" v="farm" />
		<tag k="ssr:stedsnr" v="256765" />
	</node>
	<node id="-840325" lat="63.6769166653" lon="9.62375554848">
		<tag k="name" v="Strand" />
		<tag k="place" v="farm" />
		<tag k="ssr:stedsnr" v="156958" />
	</node>
	<node id="-840324" lat="63.7049472253" lon="9.74784167208">
		<tag k="name" v="Merrahaugen" />
		<tag k="natural" v="hill" />
		<tag k="place" v="locality" />
		<tag k="ssr:stedsnr" v="884940" />
	</node>
	<node id="-840323" lat="63.7430416674" lon="9.67875277576">
		<tag k="name" v="Nausthaugen" />
		<tag k="natural" v="hill" />
		<tag k="place" v="locality" />
		<tag k="ssr:stedsnr" v="824886" />
	</node>
	<node id="-840322" lat="63.6635333319" lon="9.38200276867">
		<tag k="landuse" v="meadow" />
		<tag k="name" v="Gullgresset" />
		<tag k="ssr:stedsnr" v="95839" />
	</node>
	<node id="-840321" lat="63.6393361106" lon="9.43428889219">
		<tag k="name" v="Daumannsvika" />
		<tag k="natural" v="bay" />
		<tag k="ssr:stedsnr" v="641805" />
	</node>
	<node id="-840320" lat="63.7251083362" lon="9.7827694543">
		<tag k="name" v="Langdalsheia" />
		<tag k="natural" v="hill" />
		<tag k="place" v="locality" />
		<tag k="ssr:stedsnr" v="884943" />
	</node>
	<node id="-840319" lat="63.7263499958" lon="9.59283888499">
		<tag k="fixme" v="consider place=suburb, village or hamlet" />
		<tag k="name" v="Uthaug" />
		<tag k="place" v="quarter" />
		<tag k="ssr:stedsnr" v="74016" />
	</node>
	<node id="-840318" lat="63.7050111118" lon="9.77046111654">
		<tag k="name" v="Vika" />
		<tag k="place" v="isolated_dwelling" />
		<tag k="ssr:stedsnr" v="884942" />
	</node>
	<node id="-840317" lat="63.6469444401" lon="9.49646388713">
		<tag k="alt_name" v="Kanaskjæret" />
		<tag k="fixme" v="consider seamark:type=rock or natural=shoal" />
		<tag k="name" v="Kanvasskjæret" />
		<tag k="place" v="islet" />
		<tag k="ssr:stedsnr" v="213301" />
	</node>
	<node id="-840316" lat="63.7073111157" lon="9.76327777064">
		<tag k="name" v="Aunet" />
		<tag k="place" v="farm" />
		<tag k="ssr:stedsnr" v="862817" />
	</node>
	<node id="-840315" lat="63.6451222228" lon="9.52124721726">
		<tag k="amenity" v="ferry_terminal" />
		<tag k="name" v="Garten ferjekai" />
		<tag k="ssr:stedsnr" v="461867" />
	</node>
	<node id="-840314" lat="63.7321166685" lon="9.70819445322">
		<tag k="name" v="Esvikhaugan" />
		<tag k="natural" v="hill" />
		<tag k="place" v="locality" />
		<tag k="ssr:stedsnr" v="945890" />
	</node>
	<node id="-840313" lat="63.7054388861" lon="9.67080000594">
		<tag k="name" v="Solheim" />
		<tag k="place" v="farm" />
		<tag k="ssr:stedsnr" v="641568" />
	</node>
	<node id="-840312" lat="63.6986166646" lon="9.67525000228">
		<tag k="name" v="Bruholmen" />
		<tag k="place" v="farm" />
		<tag k="ssr:stedsnr" v="762602" />
	</node>
	<node id="-840311" lat="63.715652782" lon="9.50440832368">
		<tag k="name" v="Styrmannsflua" />
		<tag k="natural" v="shoal" />
		<tag k="place" v="locality" />
		<tag k="ssr:stedsnr" v="213106" />
	</node>
	<node id="-840310" lat="63.6704833376" lon="9.42788889493">
		<tag k="name" v="Bertelsvika" />
		<tag k="place" v="farm" />
		<tag k="ssr:stedsnr" v="195041" />
	</node>
	<node id="-840309" lat="63.73913333" lon="9.66723888901">
		<tag k="name" v="Ørsleie" />
		<tag k="place" v="farm" />
		<tag k="ssr:stedsnr" v="580635" />
	</node>
	<node id="-840308" lat="63.7090472222" lon="9.78017500754">
		<tag k="name" v="Ottarsbu" />
		<tag k="place" v="farm" />
		<tag k="ssr:stedsnr" v="34602" />
	</node>
	<node id="-840307" lat="63.6855972207" lon="9.65086389179">
		<tag k="alt_name" v="Brekstad vestre" />
		<tag k="name" v="Vestre Brekstad" />
		<tag k="place" v="farm" />
		<tag k="ssr:stedsnr" v="156960" />
	</node>
	<node id="-840306" lat="63.7137249981" lon="9.80508332632">
		<tag k="alt_name" v="Kalvåa" />
		<tag k="name" v="Kalvå" />
		<tag k="place" v="farm" />
		<tag k="ssr:stedsnr" v="438796" />
	</node>
	<node id="-840305" lat="63.632080558" lon="9.50500554763">
		<tag k="name" v="Smellingen" />
		<tag k="place" v="islet" />
		<tag k="ssr:stedsnr" v="377067" />
	</node>
	<node id="-840304" lat="63.6419888864" lon="9.51156665947">
		<tag k="name" v="Garten" />
		<tag k="place" v="farm" />
		<tag k="ssr:stedsnr" v="277714" />
	</node>
	<node id="-840303" lat="63.7058722198" lon="9.4678750002">
		<tag k="name" v="Grandholman" />
		<tag k="place" v="islet" />
		<tag k="ssr:stedsnr" v="255032" />
	</node>
	<node id="-840302" lat="63.6907749977" lon="9.59855833416">
		<tag k="name" v="Solem" />
		<tag k="place" v="farm" />
		<tag k="ssr:stedsnr" v="520677" />
	</node>
	<node id="-840301" lat="63.6593027789" lon="9.43666944345">
		<tag k="alt_name" v="Neset" />
		<tag k="name" v="Kuppelvikneset" />
		<tag k="natural" v="cape" />
		<tag k="ssr:stedsnr" v="316045" />
	</node>
	<node id="-840300" lat="63.6472277821" lon="9.54735276787">
		<tag k="fixme" v="consider natural=peak for the most distinct mountains in the district" />
		<tag k="name" v="Synnørsfjellet" />
		<tag k="natural" v="hill" />
		<tag k="place" v="locality" />
		<tag k="ssr:stedsnr" v="680068" />
	</node>
	<node id="-840299" lat="63.7027555599" lon="9.59056387891">
		<tag k="name" v="Djupdalen" />
		<tag k="place" v="farm" />
		<tag k="ssr:stedsnr" v="13025" />
	</node>
	<node id="-840298" lat="63.7079444473" lon="9.63202500732">
		<tag k="name" v="Øveraune" />
		<tag k="place" v="farm" />
		<tag k="ssr:stedsnr" v="762571" />
	</node>
	<node id="-840297" lat="63.7054527787" lon="9.70645833686">
		<tag k="name" v="Vangenlund" />
		<tag k="place" v="farm" />
		<tag k="ssr:stedsnr" v="34597" />
	</node>
	<node id="-840296" lat="63.6436138882" lon="9.537041667">
		<tag k="name" v="Breivika" />
		<tag k="natural" v="bay" />
		<tag k="ssr:stedsnr" v="931479" />
	</node>
	<node id="-840295" lat="63.6522000034" lon="9.45325556157">
		<tag k="name" v="Eaneset" />
		<tag k="natural" v="cape" />
		<tag k="ssr:stedsnr" v="762785" />
	</node>
	<node id="-840294" lat="63.6702805571" lon="9.3811027843">
		<tag k="name" v="Vadosen" />
		<tag k="natural" v="bay" />
		<tag k="ssr:stedsnr" v="580848" />
	</node>
	<node id="-840293" lat="63.6740805575" lon="9.39968611321">
		<tag k="name" v="Nordskardet" />
		<tag k="place" v="farm" />
		<tag k="ssr:stedsnr" v="155630" />
	</node>
	<node id="-840292" lat="63.7146500003" lon="9.71496387898">
		<tag k="name" v="Vestrått" />
		<tag k="place" v="hamlet" />
		<tag k="ssr:stedsnr" v="376030" />
	</node>
	<node id="-840291" lat="63.7048833308" lon="9.75947222697">
		<tag k="name" v="Postmyra" />
		<tag k="place" v="isolated_dwelling" />
		<tag k="ssr:stedsnr" v="34609" />
	</node>
	<node id="-840290" lat="63.6691972225" lon="9.38891945124">
		<tag k="name" v="Vestermyran" />
		<tag k="natural" v="wetland" />
		<tag k="ssr:stedsnr" v="278804" />
	</node>
	<node id="-840289" lat="63.6556194469" lon="9.55904721324">
		<tag k="name" v="Storteigen" />
		<tag k="place" v="farm" />
		<tag k="ssr:stedsnr" v="216776" />
	</node>
	<node id="-840288" lat="63.6755749981" lon="9.39821387894">
		<tag k="alt_name" v="Tinnen" />
		<tag k="name" v="Tinden" />
		<tag k="place" v="farm" />
		<tag k="ssr:stedsnr" v="213507" />
	</node>
	<node id="-840287" lat="63.7333472202" lon="9.63909167301">
		<tag k="name" v="Strandheim" />
		<tag k="place" v="farm" />
		<tag k="ssr:stedsnr" v="580621" />
	</node>
	<node id="-840286" lat="63.6345694489" lon="9.32371666609">
		<tag k="fixme" v="consider seamark:type=rock or natural=shoal" />
		<tag k="name" v="Tennskjeret" />
		<tag k="place" v="islet" />
		<tag k="ssr:stedsnr" v="95828" />
	</node>
	<node id="-840285" lat="63.7357138854" lon="9.70614443556">
		<tag k="name" v="Vonheim" />
		<tag k="place" v="farm" />
		<tag k="ssr:stedsnr" v="35895" />
	</node>
	<node id="-840284" lat="63.7176999976" lon="9.70140277834">
		<tag k="name" v="Røstad" />
		<tag k="place" v="farm" />
		<tag k="ssr:stedsnr" v="580814" />
	</node>
	<node id="-840283" lat="63.7354388851" lon="9.66920276859">
		<tag k="name" v="Kløften" />
		<tag k="place" v="farm" />
		<tag k="ssr:stedsnr" v="945625" />
	</node>
	<node id="-840282" lat="63.6757333332" lon="9.41203332386">
		<tag k="name" v="Gårdsmyra" />
		<tag k="natural" v="wetland" />
		<tag k="ssr:stedsnr" v="95820" />
	</node>
	<node id="-840281" lat="63.6626555551" lon="9.3771444498">
		<tag k="name" v="Skaget" />
		<tag k="place" v="farm" />
		<tag k="ssr:stedsnr" v="316039" />
	</node>
	<node id="-840280" lat="63.6497333365" lon="9.39022221965">
		<tag k="name" v="Klumpen" />
		<tag k="natural" v="hill" />
		<tag k="place" v="locality" />
		<tag k="ssr:stedsnr" v="95818" />
	</node>
	<node id="-840279" lat="63.7259305555" lon="9.6998805585">
		<tag k="name" v="Geilvollen" />
		<tag k="place" v="farm" />
		<tag k="ssr:stedsnr" v="762585" />
	</node>
	<node id="-840278" lat="63.735902781" lon="9.64178333946">
		<tag k="name" v="Båtøra" />
		<tag k="place" v="locality" />
		<tag k="ssr:stedsnr" v="885990" />
	</node>
	<node id="-840277" lat="63.7290111109" lon="9.6430055605">
		<tag k="name" v="Myrvang" />
		<tag k="place" v="farm" />
		<tag k="ssr:stedsnr" v="399875" />
	</node>
	<node id="-840276" lat="63.7239694485" lon="9.50623611864">
		<tag k="alt_name" v="Flatøya" />
		<tag k="name" v="Litle Flatøya" />
		<tag k="place" v="islet" />
		<tag k="ssr:stedsnr" v="741210" />
	</node>
	<node id="-840275" lat="63.7108188365" lon="9.69382901812">
		<tag k="name" v="Balsnes" />
		<tag k="place" v="farm" />
		<tag k="ssr:stedsnr" v="437031" />
	</node>
	<node id="-840274" lat="63.7404666677" lon="9.69938611129">
		<tag k="name" v="Seljevollhaugen" />
		<tag k="place" v="farm" />
		<tag k="ssr:stedsnr" v="156887" />
	</node>
	<node id="-840273" lat="63.663594445" lon="9.54819166207">
		<tag k="fixme" v="consider seamark:type=rock or natural=shoal" />
		<tag k="name" v="Grunnskjæret" />
		<tag k="place" v="islet" />
		<tag k="ssr:stedsnr" v="278963" />
	</node>
	<node id="-840272" lat="63.6750055547" lon="9.43399999566">
		<tag k="name" v="Reitan" />
		<tag k="place" v="locality" />
		<tag k="ssr:stedsnr" v="338797" />
	</node>
	<node id="-840271" lat="63.711819449" lon="9.62982221373">
		<tag k="name" v="Røyne" />
		<tag k="place" v="farm" />
		<tag k="ssr:stedsnr" v="277648" />
	</node>
	<node id="-840270" lat="63.6519777746" lon="9.52826111061">
		<tag k="fixme" v="consider seamark:type=rock or natural=shoal" />
		<tag k="name" v="Brudeskjæret" />
		<tag k="place" v="islet" />
		<tag k="ssr:stedsnr" v="819387" />
	</node>
	<node id="-840269" lat="63.7271472237" lon="9.69062223033">
		<tag k="building" v="commercial" />
		<tag k="name" v="Televerket" />
		<tag k="ssr:stedsnr" v="763863" />
	</node>
	<node id="-840268" lat="63.6637250019" lon="9.4036916727">
		<tag k="name" v="Storfosen gods" />
		<tag k="place" v="farm" />
		<tag k="ssr:stedsnr" v="581826" />
	</node>
	<node id="-840267" lat="63.6808055553" lon="9.38973333136">
		<tag k="name" v="Litldalhamna" />
		<tag k="place" v="islet" />
		<tag k="ssr:stedsnr" v="824809" />
	</node>
	<node id="-840266" lat="63.666800003" lon="9.38075556433">
		<tag k="name" v="Storhaugen" />
		<tag k="natural" v="hill" />
		<tag k="place" v="locality" />
		<tag k="ssr:stedsnr" v="680043" />
	</node>
	<node id="-840265" lat="63.651305558" lon="9.31645277767">
		<tag k="name" v="Lyngøya" />
		<tag k="place" v="island" />
		<tag k="ssr:stedsnr" v="802070" />
	</node>
	<node id="-840264" lat="63.7463194448" lon="9.68158610699">
		<tag k="name" v="Nervikhaugen" />
		<tag k="natural" v="hill" />
		<tag k="place" v="locality" />
		<tag k="ssr:stedsnr" v="884867" />
	</node>
	<node id="-840263" lat="63.6683499998" lon="9.40280277639">
		<tag k="name" v="Geitklovskardet" />
		<tag k="natural" v="valley" />
		<tag k="place" v="locality" />
		<tag k="ssr:stedsnr" v="576472" />
	</node>
	<node id="-840262" lat="63.7189027765" lon="9.52053888124">
		<tag k="name" v="Lysbotnflua" />
		<tag k="natural" v="shoal" />
		<tag k="place" v="locality" />
		<tag k="ssr:stedsnr" v="880348" />
	</node>
	<node id="-840261" lat="63.712658335" lon="9.52976944996">
		<tag k="name" v="Berithaugen" />
		<tag k="natural" v="hill" />
		<tag k="place" v="locality" />
		<tag k="ssr:stedsnr" v="885939" />
	</node>
	<node id="-840260" lat="63.6504666622" lon="9.38246110848">
		<tag k="name" v="Halsaslettan" />
		<tag k="place" v="locality" />
		<tag k="ssr:stedsnr" v="824807" />
	</node>
	<node id="-840259" lat="63.6799027767" lon="9.59342499951">
		<tag k="fixme" v="consider place=hamlet" />
		<tag k="name" v="Grande" />
		<tag k="place" v="village" />
		<tag k="ssr:stedsnr" v="73041" />
	</node>
	<node id="-840258" lat="63.6639527791" lon="9.41584167196">
		<tag k="name" v="Myra" />
		<tag k="place" v="farm" />
		<tag k="ssr:stedsnr" v="216691" />
	</node>
	<node id="-840257" lat="63.7334249977" lon="9.63549723057">
		<tag k="name" v="Sagsteinosen" />
		<tag k="natural" v="bay" />
		<tag k="ssr:stedsnr" v="460775" />
	</node>
	<node id="-840256" lat="63.6864749979" lon="9.66775833927">
		<tag k="amenity" v="ferry_terminal" />
		<tag k="name" v="Brekstad ferjekai" />
		<tag k="ssr:stedsnr" v="704849" />
	</node>
	<node id="-840255" lat="63.7303222219" lon="9.74966110233">
		<tag k="name" v="Stinnsvarden" />
		<tag k="natural" v="hill" />
		<tag k="place" v="locality" />
		<tag k="ssr:stedsnr" v="438224" />
	</node>
	<node id="-840254" lat="63.6953944465" lon="9.36951110381">
		<tag k="name" v="Kjerkflua" />
		<tag k="natural" v="shoal" />
		<tag k="place" v="locality" />
		<tag k="ssr:stedsnr" v="637392" />
	</node>
	<node id="-840253" lat="63.6999416708" lon="9.37466388085">
		<tag k="fixme" v="consider seamark:type=rock or natural=shoal" />
		<tag k="name" v="Søre Tørrskjæret" />
		<tag k="place" v="islet" />
		<tag k="ssr:stedsnr" v="577106" />
	</node>
	<node id="-840252" lat="63.7243250035" lon="9.59076110417">
		<tag k="name" v="Stakkfjærhaugen" />
		<tag k="natural" v="hill" />
		<tag k="place" v="locality" />
		<tag k="ssr:stedsnr" v="277864" />
	</node>
	<node id="-840251" lat="63.7317833301" lon="9.77943887995">
		<tag k="name" v="Tortlia" />
		<tag k="natural" v="slope" />
		<tag k="place" v="locality" />
		<tag k="ssr:stedsnr" v="885940" />
	</node>
	<node id="-840250" lat="63.67580556" lon="9.5222722193">
		<tag k="fixme" v="consider seamark:type=rock or natural=shoal" />
		<tag k="name" v="Raudsidskjæret" />
		<tag k="place" v="islet" />
		<tag k="ssr:stedsnr" v="819388" />
	</node>
	<node id="-840249" lat="63.6896722257" lon="9.55668611557">
		<tag k="fixme" v="consider seamark:type=rock or natural=shoal" />
		<tag k="name" v="Kunnaren" />
		<tag k="place" v="islet" />
		<tag k="ssr:stedsnr" v="814579" />
	</node>
	<node id="-840248" lat="63.7127999964" lon="9.74314722777">
		<tag k="alt_name" v="Skjærstad" />
		<tag k="name" v="Skjerstad" />
		<tag k="place" v="farm" />
		<tag k="ssr:stedsnr" v="559803" />
	</node>
	<node id="-840247" lat="63.6680944449" lon="9.41104165951">
		<tag k="name" v="Damskardekra" />
		<tag k="place" v="locality" />
		<tag k="ssr:stedsnr" v="824802" />
	</node>
	<node id="-840246" lat="63.7098249979" lon="9.76621943649">
		<tag k="name" v="Borg" />
		<tag k="place" v="farm" />
		<tag k="ssr:stedsnr" v="559802" />
	</node>
	<node id="-840245" lat="63.6651944404" lon="9.33022499774">
		<tag k="name" v="Rundholmen" />
		<tag k="place" v="islet" />
		<tag k="ssr:stedsnr" v="802066" />
	</node>
	<node id="-840244" lat="63.6664722193" lon="9.40023055838">
		<tag k="name" v="Reksterhaugen" />
		<tag k="natural" v="hill" />
		<tag k="place" v="locality" />
		<tag k="ssr:stedsnr" v="640831" />
	</node>
	<node id="-840243" lat="63.7267421757" lon="9.62284386863">
		<tag k="fixme" v="consider place=hamlet" />
		<tag k="name" v="Utstrand" />
		<tag k="place" v="farm" />
		<tag k="ssr:stedsnr" v="277652" />
	</node>
	<node id="-840242" lat="63.6698824128" lon="9.36357090621">
		<tag k="name" v="Stongdraget" />
		<tag k="place" v="islet" />
		<tag k="ssr:stedsnr" v="266536" />
	</node>
	<node id="-840241" lat="63.7097777809" lon="9.62905832468">
		<tag k="name" v="Mikkelhaug" />
		<tag k="place" v="farm" />
		<tag k="ssr:stedsnr" v="945563" />
	</node>
	<node id="-840240" lat="63.6600999992" lon="9.54606388322">
		<tag k="name" v="Nerbakken" />
		<tag k="place" v="locality" />
		<tag k="ssr:stedsnr" v="641718" />
	</node>
	<node id="-840239" lat="63.7086638893" lon="9.69303889006">
		<tag k="name" v="Brubakken" />
		<tag k="place" v="farm" />
		<tag k="ssr:stedsnr" v="702798" />
	</node>
	<node id="-840238" lat="63.7456777754" lon="9.67813888124">
		<tag k="name" v="Tjuvholet" />
		<tag k="natural" v="bay" />
		<tag k="ssr:stedsnr" v="156868" />
	</node>
	<node id="-840237" lat="63.6656055567" lon="9.42638056384">
		<tag k="alt_name" v="Langtinnen" />
		<tag k="name" v="Langtinden" />
		<tag k="place" v="farm" />
		<tag k="ssr:stedsnr" v="802069" />
	</node>
	<node id="-840236" lat="63.6785194417" lon="9.36169166093">
		<tag k="name" v="Frohavet" />
		<tag k="place" v="sea" />
		<tag k="ssr:stedsnr" v="945802" />
	</node>
	<node id="-840235" lat="63.6869833319" lon="9.66539444142">
		<tag k="name" v="Brekstad" />
		<tag k="place" v="town" />
		<tag k="ssr:stedsnr" v="680040" />
	</node>
	<node id="-840234" lat="63.6575972206" lon="9.4295694347">
		<tag k="name" v="Moa" />
		<tag k="place" v="farm" />
		<tag k="ssr:stedsnr" v="823691" />
	</node>
	<node id="-840233" lat="63.7242444473" lon="9.69510833298">
		<tag k="name" v="Trøen" />
		<tag k="place" v="farm" />
		<tag k="ssr:stedsnr" v="640827" />
	</node>
	<node id="-840232" lat="63.6990083371" lon="9.60401666147">
		<tag k="aeroway" v="aerodrome" />
		<tag k="name" v="Ørland lufthavn" />
		<tag k="old_name" v="Ørland hovedflystasjon" />
		<tag k="ssr:stedsnr" v="328167" />
	</node>
	<node id="-840231" lat="63.705313885" lon="9.66848888474">
		<tag k="name" v="Prestland" />
		<tag k="place" v="farm" />
		<tag k="ssr:stedsnr" v="945567" />
	</node>
	<node id="-840230" lat="63.6793999974" lon="9.42295000976">
		<tag k="name" v="Mønsterplassen" />
		<tag k="place" v="farm" />
		<tag k="ssr:stedsnr" v="134048" />
	</node>
	<node id="-840229" lat="63.6362305556" lon="9.34270556023">
		<tag k="name" v="Kalvholmstøtta" />
		<tag k="natural" v="shoal" />
		<tag k="place" v="locality" />
		<tag k="ssr:stedsnr" v="637386" />
	</node>
	<node id="-840228" lat="63.656216667" lon="9.37654999604">
		<tag k="name" v="Holmvalen" />
		<tag k="place" v="locality" />
		<tag k="ssr:stedsnr" v="824803" />
	</node>
	<node id="-840227" lat="63.650997218" lon="9.39308055461">
		<tag k="name" v="Vintervoll" />
		<tag k="place" v="farm" />
		<tag k="ssr:stedsnr" v="216687" />
	</node>
	<node id="-840226" lat="63.7177444423" lon="9.71397500143">
		<tag k="building" v="industrial" />
		<tag k="industrial" v="factory" />
		<tag k="name" v="Dalabakken mølle" />
		<tag k="ssr:stedsnr" v="460982" />
	</node>
	<node id="-840225" lat="63.7315944429" lon="9.50206110975">
		<tag k="name" v="Daudmannsflua" />
		<tag k="natural" v="shoal" />
		<tag k="place" v="locality" />
		<tag k="ssr:stedsnr" v="516088" />
	</node>
	<node id="-840224" lat="63.6618750024" lon="9.37988055623">
		<tag k="name" v="Valtuva" />
		<tag k="natural" v="hill" />
		<tag k="place" v="locality" />
		<tag k="ssr:stedsnr" v="945759" />
	</node>
	<node id="-840223" lat="63.7115388887" lon="9.79265555204">
		<tag k="alt_name" v="Borgklinten" />
		<tag k="name" v="Borgklintan" />
		<tag k="natural" v="hill" />
		<tag k="place" v="locality" />
		<tag k="ssr:stedsnr" v="924791" />
	</node>
	<node id="-840222" lat="63.7208333309" lon="9.57603889181">
		<tag k="name" v="Skånberget" />
		<tag k="place" v="farm" />
		<tag k="ssr:stedsnr" v="703000" />
	</node>
	<node id="-840221" lat="63.6557194416" lon="9.40668055335">
		<tag k="name" v="Vågen" />
		<tag k="natural" v="bay" />
		<tag k="ssr:stedsnr" v="923064" />
	</node>
	<node id="-840220" lat="63.6596555564" lon="9.39687222274">
		<tag k="name" v="Stabbursholmen" />
		<tag k="natural" v="cape" />
		<tag k="ssr:stedsnr" v="945761" />
	</node>
	<node id="-840219" lat="63.7288333327" lon="9.68342777163">
		<tag k="name" v="Opphaug" />
		<tag k="place" v="farm" />
		<tag k="ssr:stedsnr" v="459885" />
	</node>
	<node id="-840218" lat="63.6549861086" lon="9.32806388026">
		<tag k="fixme" v="consider seamark:type=rock or natural=shoal" />
		<tag k="name" v="Sandskjeret" />
		<tag k="place" v="islet" />
		<tag k="ssr:stedsnr" v="945762" />
	</node>
	<node id="-840217" lat="63.6638500031" lon="9.38810278078">
		<tag k="name" v="Fagerhaug" />
		<tag k="place" v="farm" />
		<tag k="ssr:stedsnr" v="884608" />
	</node>
	<node id="-840216" lat="63.7224138875" lon="9.61926389113">
		<tag k="name" v="Husa" />
		<tag k="place" v="farm" />
		<tag k="ssr:stedsnr" v="337666" />
	</node>
	<node id="-840215" lat="63.6308277749" lon="9.45525833448">
		<tag k="name" v="Våggrunnen" />
		<tag k="natural" v="shoal" />
		<tag k="place" v="locality" />
		<tag k="ssr:stedsnr" v="31278" />
	</node>
	<node id="-840214" lat="63.6953277775" lon="9.59740555613">
		<tag k="name" v="Grønbakken" />
		<tag k="place" v="farm" />
		<tag k="ssr:stedsnr" v="337667" />
	</node>
	<node id="-840213" lat="63.6779777798" lon="9.40680832735">
		<tag k="highway" v="path" />
		<tag k="name" v="Russivegen" />
		<tag k="ssr:stedsnr" v="217779" />
	</node>
	<node id="-840212" lat="63.6423277804" lon="9.51570555545">
		<tag k="name" v="Garten" />
		<tag k="place" v="island" />
		<tag k="ssr:stedsnr" v="558068" />
	</node>
	<node id="-840211" lat="63.7140277815" lon="9.77470555016">
		<tag k="name" v="Skalbakken" />
		<tag k="natural" v="slope" />
		<tag k="place" v="locality" />
		<tag k="ssr:stedsnr" v="824767" />
	</node>
	<node id="-840210" lat="63.714883334" lon="9.76022222597">
		<tag k="alt_name" v="Trellskogen" />
		<tag k="name" v="Trælskogan" />
		<tag k="place" v="farm" />
		<tag k="ssr:stedsnr" v="924792" />
	</node>
	<node id="-840209" lat="63.6646222236" lon="9.57482223076">
		<tag k="name" v="Rædergården" />
		<tag k="place" v="farm" />
		<tag k="ssr:stedsnr" v="691535" />
	</node>
	<node id="-840208" lat="63.6727555568" lon="9.40266667062">
		<tag k="name" v="Aune" />
		<tag k="place" v="farm" />
		<tag k="ssr:stedsnr" v="581817" />
	</node>
	<node id="-840207" lat="63.7135055565" lon="9.5396999959">
		<tag k="name" v="Hoøya" />
		<tag k="place" v="farm" />
		<tag k="ssr:stedsnr" v="762704" />
	</node>
	<node id="-840206" lat="63.6936361129" lon="9.42180556392">
		<tag k="name" v="Fitholmen" />
		<tag k="place" v="islet" />
		<tag k="ssr:stedsnr" v="820430" />
	</node>
	<node id="-840205" lat="63.6916036411" lon="9.65111069801">
		<tag k="alt_name" v="Ørland" />
		<tag k="amenity" v="place_of_worship" />
		<tag k="denomination" v="lutheran" />
		<tag k="name" v="Ørland kirke" />
		<tag k="religion" v="christian" />
		<tag k="ssr:stedsnr" v="73035" />
	</node>
	<node id="-840204" lat="63.6967277822" lon="9.50144166293">
		<tag k="name" v="Håflua" />
		<tag k="natural" v="shoal" />
		<tag k="place" v="locality" />
		<tag k="ssr:stedsnr" v="699062" />
	</node>
	<node id="-840203" lat="63.7185666648" lon="9.71517221286">
		<tag k="name" v="Stamselva" />
		<tag k="ssr:stedsnr" v="945751" />
		<tag k="waterway" v="river" />
	</node>
	<node id="-840202" lat="63.7383138851" lon="9.65462500766">
		<tag k="name" v="Langøra" />
		<tag k="place" v="locality" />
		<tag k="ssr:stedsnr" v="702991" />
	</node>
	<node id="-840201" lat="63.6692138846" lon="9.43086943702">
		<tag k="name" v="Nausthaugen" />
		<tag k="natural" v="hill" />
		<tag k="place" v="locality" />
		<tag k="ssr:stedsnr" v="520829" />
	</node>
	<node id="-840200" lat="63.6521638912" lon="9.39148610681">
		<tag k="name" v="Steinan" />
		<tag k="place" v="farm" />
		<tag k="ssr:stedsnr" v="274401" />
	</node>
	<node id="-840199" lat="63.7209169146" lon="9.7975976015">
		<tag k="name" v="Reksterhaugen" />
		<tag k="natural" v="hill" />
		<tag k="place" v="locality" />
		<tag k="ssr:stedsnr" v="217768" />
	</node>
	<node id="-840198" lat="63.7234583356" lon="9.67072221989">
		<tag k="fixme" v="consider natural=peak for the most distinct mountains in the district" />
		<tag k="name" v="Kleivan" />
		<tag k="natural" v="hill" />
		<tag k="place" v="locality" />
		<tag k="ssr:stedsnr" v="945754" />
	</node>
	<node id="-840197" lat="63.6630583356" lon="9.40723334045">
		<tag k="fixme" v="consider place=hamlet" />
		<tag k="name" v="Storfosna" />
		<tag k="place" v="village" />
		<tag k="ssr:stedsnr" v="923060" />
	</node>
	<node id="-840196" lat="63.7070583297" lon="9.77973611289">
		<tag k="alt_name" v="Ottersbogen" />
		<tag k="name" v="Ottarsbubukta" />
		<tag k="natural" v="bay" />
		<tag k="ssr:stedsnr" v="702754" />
	</node>
	<node id="-840195" lat="63.6787416661" lon="9.3886555528">
		<tag k="name" v="Slottholmen" />
		<tag k="place" v="islet" />
		<tag k="ssr:stedsnr" v="691533" />
	</node>
	<node id="-840194" lat="63.6450416635" lon="9.54690556257">
		<tag k="name" v="Røvika" />
		<tag k="natural" v="bay" />
		<tag k="ssr:stedsnr" v="824761" />
	</node>
	<node id="-840193" lat="63.7133194403" lon="9.72059444823">
		<tag k="name" v="Lundset" />
		<tag k="place" v="farm" />
		<tag k="ssr:stedsnr" v="559795" />
	</node>
	<node id="-840192" lat="63.7245111116" lon="9.60268889285">
		<tag k="name" v="Ulriksborg" />
		<tag k="place" v="farm" />
		<tag k="ssr:stedsnr" v="640994" />
	</node>
	<node id="-840191" lat="63.6639499988" lon="9.41214721608">
		<tag k="name" v="Damskardhaugan" />
		<tag k="natural" v="hill" />
		<tag k="place" v="locality" />
		<tag k="ssr:stedsnr" v="945756" />
	</node>
	<node id="-840190" lat="63.7321888926" lon="9.76992221266">
		<tag k="name" v="Pelkushatten" />
		<tag k="natural" v="hill" />
		<tag k="place" v="locality" />
		<tag k="ssr:stedsnr" v="316254" />
	</node>
	<node id="-840189" lat="63.7047590661" lon="9.63486663772">
		<tag k="fixme" v="consider place=hamlet" />
		<tag k="name" v="Vik" />
		<tag k="place" v="farm" />
		<tag k="ssr:stedsnr" v="73031" />
	</node>
	<node id="-840188" lat="63.7360722232" lon="9.65651110759">
		<tag k="name" v="Litlbakken" />
		<tag k="place" v="farm" />
		<tag k="ssr:stedsnr" v="824987" />
	</node>
	<node id="-840187" lat="63.6590777791" lon="9.36875555274">
		<tag k="fixme" v="consider seamark:type=rock or natural=shoal" />
		<tag k="name" v="Slottet" />
		<tag k="place" v="islet" />
		<tag k="ssr:stedsnr" v="945758" />
	</node>
	<node id="-840186" lat="63.7201472189" lon="9.65973054911">
		<tag k="name" v="Ryggaunberget" />
		<tag k="natural" v="hill" />
		<tag k="place" v="locality" />
		<tag k="ssr:stedsnr" v="581798" />
	</node>
	<node id="-840185" lat="63.7276936038" lon="9.68895364208">
		<tag k="fixme" v="consider place=hamlet" />
		<tag k="name" v="Opphaug" />
		<tag k="place" v="farm" />
		<tag k="ssr:stedsnr" v="459643" />
	</node>
	<node id="-840184" lat="63.6420273626" lon="9.52067485907">
		<tag k="fixme" v="consider place=hamlet" />
		<tag k="name" v="Garten" />
		<tag k="place" v="farm" />
		<tag k="ssr:stedsnr" v="971018" />
	</node>
	<node id="-840183" lat="63.6634464277" lon="9.40014516802">
		<tag k="fixme" v="consider place=hamlet" />
		<tag k="name" v="Storfosna" />
		<tag k="place" v="farm" />
		<tag k="ssr:stedsnr" v="971017" />
	</node>
	<node id="-840182" lat="63.7341638845" lon="9.70874999797">
		<tag k="name" v="Reithaugen" />
		<tag k="natural" v="hill" />
		<tag k="place" v="locality" />
		<tag k="ssr:stedsnr" v="824778" />
	</node>
	<node id="-840181" lat="63.6617972209" lon="9.3870138799">
		<tag k="name" v="Lunde" />
		<tag k="place" v="farm" />
		<tag k="ssr:stedsnr" v="35810" />
	</node>
	<node id="-840180" lat="63.6797111112" lon="9.42363333439">
		<tag k="name" v="Nordheim" />
		<tag k="place" v="farm" />
		<tag k="ssr:stedsnr" v="399790" />
	</node>
	<node id="-840179" lat="63.6439145305" lon="9.33346465007">
		<tag k="fixme" v="consider place=hamlet" />
		<tag k="name" v="Kråkvåg" />
		<tag k="place" v="farm" />
		<tag k="ssr:stedsnr" v="971016" />
	</node>
	<node id="-840178" lat="63.7298166671" lon="9.62483334289">
		<tag k="name" v="Leirosen" />
		<tag k="natural" v="bay" />
		<tag k="ssr:stedsnr" v="824776" />
	</node>
	<node id="-840177" lat="63.6522222213" lon="9.55107777346">
		<tag k="name" v="Rønsholmhaugen" />
		<tag k="natural" v="hill" />
		<tag k="place" v="locality" />
		<tag k="ssr:stedsnr" v="824782" />
	</node>
	<node id="-840176" lat="63.6491583335" lon="9.45941110337">
		<tag k="name" v="Oteroltaren" />
		<tag k="natural" v="shoal" />
		<tag k="place" v="locality" />
		<tag k="ssr:stedsnr" v="698445" />
	</node>
	<node id="-840175" lat="63.7370694453" lon="9.705252771">
		<tag k="name" v="Stokksletta" />
		<tag k="place" v="farm" />
		<tag k="ssr:stedsnr" v="459646" />
	</node>
	<node id="-840174" lat="63.6507555549" lon="9.56534445353">
		<tag k="name" v="Buktenhaugen" />
		<tag k="natural" v="hill" />
		<tag k="place" v="locality" />
		<tag k="ssr:stedsnr" v="641928" />
	</node>
	<node id="-840173" lat="63.6751277821" lon="9.43674999349">
		<tag k="name" v="Nordlandsneset" />
		<tag k="place" v="farm" />
		<tag k="ssr:stedsnr" v="641693" />
	</node>
	<node id="-840172" lat="63.6523944416" lon="9.55624444204">
		<tag k="fixme" v="consider seamark:type=rock or natural=shoal" />
		<tag k="name" v="Rønsholmskjæret" />
		<tag k="place" v="islet" />
		<tag k="ssr:stedsnr" v="641927" />
	</node>
	<node id="-840171" lat="63.6643027764" lon="9.40609999282">
		<tag k="name" v="Trøvollen" />
		<tag k="place" v="locality" />
		<tag k="ssr:stedsnr" v="581804" />
	</node>
	<node id="-840170" lat="63.7203444474" lon="9.62859166257">
		<tag k="name" v="Litlmyra" />
		<tag k="natural" v="wetland" />
		<tag k="ssr:stedsnr" v="337860" />
	</node>
	<node id="-840169" lat="63.6451055566" lon="9.46499999813">
		<tag k="name" v="Sjøpungtaren" />
		<tag k="natural" v="shoal" />
		<tag k="place" v="locality" />
		<tag k="ssr:stedsnr" v="698443" />
	</node>
	<node id="-840168" lat="63.6440444444" lon="9.359252782">
		<tag k="name" v="Nidarostaren" />
		<tag k="natural" v="shoal" />
		<tag k="place" v="locality" />
		<tag k="ssr:stedsnr" v="213407" />
	</node>
	<node id="-840167" lat="63.7029861128" lon="9.75784167042">
		<tag k="fixme" v="consider seamark:type=rock or natural=shoal" />
		<tag k="name" v="Sandskjæret" />
		<tag k="place" v="islet" />
		<tag k="ssr:stedsnr" v="576657" />
	</node>
	<node id="-840166" lat="63.6750138915" lon="9.39482499937">
		<tag k="name" v="Holmen" />
		<tag k="place" v="farm" />
		<tag k="ssr:stedsnr" v="641688" />
	</node>
	<node id="-840165" lat="63.6892916667" lon="9.65381944563">
		<tag k="name" v="Kringsjå" />
		<tag k="place" v="farm" />
		<tag k="ssr:stedsnr" v="277627" />
	</node>
	<node id="-840164" lat="63.6613527765" lon="9.38235277453">
		<tag k="name" v="Skålvika" />
		<tag k="place" v="farm" />
		<tag k="ssr:stedsnr" v="762711" />
	</node>
	<node id="-840163" lat="63.7319111069" lon="9.6954444456">
		<tag k="name" v="Elvteigen" />
		<tag k="place" v="farm" />
		<tag k="ssr:stedsnr" v="884613" />
	</node>
	<node id="-840162" lat="63.6744972264" lon="9.42271666901">
		<tag k="name" v="Sletta" />
		<tag k="place" v="farm" />
		<tag k="ssr:stedsnr" v="459647" />
	</node>
	<node id="-840161" lat="63.7119111071" lon="9.67814721531">
		<tag k="name" v="Bergly" />
		<tag k="place" v="farm" />
		<tag k="ssr:stedsnr" v="460972" />
	</node>
	<node id="-840160" lat="63.7382611148" lon="9.67660277432">
		<tag k="name" v="Døsvika" />
		<tag k="place" v="farm" />
		<tag k="ssr:stedsnr" v="338988" />
	</node>
	<node id="-840159" lat="63.6588277765" lon="9.41510833095">
		<tag k="name" v="Larsvika" />
		<tag k="place" v="isolated_dwelling" />
		<tag k="ssr:stedsnr" v="641686" />
	</node>
	<node id="-840158" lat="63.6518749991" lon="9.43933610685">
		<tag k="name" v="Kleiva" />
		<tag k="natural" v="valley" />
		<tag k="place" v="locality" />
		<tag k="ssr:stedsnr" v="520819" />
	</node>
	<node id="-840157" lat="63.7372472198" lon="9.70808889524">
		<tag k="name" v="Stokksletta" />
		<tag k="place" v="farm" />
		<tag k="ssr:stedsnr" v="630487" />
	</node>
	<node id="-840156" lat="63.6975166672" lon="9.67996110322">
		<tag k="alt_name" v="Store Bruholmen" />
		<tag k="name" v="Bruholmen" />
		<tag k="natural" v="cape" />
		<tag k="ssr:stedsnr" v="802050" />
	</node>
	<node id="-840155" lat="63.6422388911" lon="9.39383333219">
		<tag k="name" v="Litlesundtaren" />
		<tag k="natural" v="shoal" />
		<tag k="place" v="locality" />
		<tag k="ssr:stedsnr" v="881373" />
	</node>
	<node id="-840154" lat="63.7300222206" lon="9.64797222032">
		<tag k="name" v="Grinden" />
		<tag k="place" v="farm" />
		<tag k="ssr:stedsnr" v="884617" />
	</node>
	<node id="-840153" lat="63.6501055546" lon="9.40823333823">
		<tag k="name" v="Oksbåsneset" />
		<tag k="natural" v="cape" />
		<tag k="ssr:stedsnr" v="581811" />
	</node>
	<node id="-840152" lat="63.7226472238" lon="9.69991944423">
		<tag k="name" v="Røstad" />
		<tag k="place" v="farm" />
		<tag k="ssr:stedsnr" v="134028" />
	</node>
	<node id="-840151" lat="63.7163777751" lon="9.67015832479">
		<tag k="name" v="Storskardet" />
		<tag k="natural" v="valley" />
		<tag k="place" v="locality" />
		<tag k="ssr:stedsnr" v="460976" />
	</node>
	<node id="-840150" lat="63.6857361072" lon="9.40532777381">
		<tag k="name" v="Grønnmyrfjæra" />
		<tag k="natural" v="shoal" />
		<tag k="place" v="locality" />
		<tag k="ssr:stedsnr" v="399792" />
	</node>
	<node id="-840149" lat="63.6459194464" lon="9.42543888584">
		<tag k="fixme" v="multiple name tags, choose one and add the other to alt_name; consider natural=peak for the most distinct mountains in the district" />
		<tag k="name" v="Fosenheia;Vettaheia" />
		<tag k="natural" v="hill" />
		<tag k="ssr:stedsnr" v="667775" />
	</node>
	<node id="-840148" lat="63.7228361102" lon="9.66403054701">
		<tag k="name" v="Kleivan" />
		<tag k="natural" v="slope" />
		<tag k="place" v="locality" />
		<tag k="ssr:stedsnr" v="449478" />
	</node>
	<node id="-840147" lat="63.7101027769" lon="9.78446944914">
		<tag k="name" v="Sjølibekken" />
		<tag k="ssr:stedsnr" v="35799" />
		<tag k="waterway" v="stream" />
	</node>
	<node id="-840146" lat="63.7347277766" lon="9.68764999102">
		<tag k="name" v="Storhaugbekken" />
		<tag k="ssr:stedsnr" v="217849" />
		<tag k="waterway" v="stream" />
	</node>
	<node id="-840145" lat="63.6979444412" lon="9.48689999341">
		<tag k="name" v="Espelandstaren" />
		<tag k="natural" v="shoal" />
		<tag k="place" v="locality" />
		<tag k="ssr:stedsnr" v="213084" />
	</node>
	<node id="-840144" lat="63.6438499957" lon="9.51712777121">
		<tag k="name" v="Litlnesvika" />
		<tag k="place" v="farm" />
		<tag k="ssr:stedsnr" v="762794" />
	</node>
	<node id="-840143" lat="63.6747388918" lon="9.66597499478">
		<tag k="name" v="Hovdtåa" />
		<tag k="natural" v="cape" />
		<tag k="ssr:stedsnr" v="437055" />
	</node>
	<node id="-840142" lat="63.6404694465" lon="9.49908056115">
		<tag k="name" v="Tjuvneset" />
		<tag k="natural" v="cape" />
		<tag k="ssr:stedsnr" v="581884" />
	</node>
	<node id="-840141" lat="63.7245111086" lon="9.68303611492">
		<tag k="name" v="Hov" />
		<tag k="place" v="farm" />
		<tag k="ssr:stedsnr" v="762580" />
	</node>
	<node id="-840140" lat="63.6727083374" lon="9.39688054958">
		<tag k="name" v="Sørskardet" />
		<tag k="place" v="farm" />
		<tag k="ssr:stedsnr" v="213482" />
	</node>
	<node id="-840139" lat="63.7092194486" lon="9.65906388596">
		<tag k="name" v="Rønneberg" />
		<tag k="place" v="farm" />
		<tag k="ssr:stedsnr" v="34581" />
	</node>
	<node id="-840138" lat="63.687441666" lon="9.40459722349">
		<tag k="name" v="Smålyngholman" />
		<tag k="place" v="islet" />
		<tag k="ssr:stedsnr" v="34798" />
	</node>
	<node id="-840137" lat="63.6909333297" lon="9.47717222397">
		<tag k="name" v="Urdseggtaren" />
		<tag k="natural" v="shoal" />
		<tag k="place" v="locality" />
		<tag k="ssr:stedsnr" v="213085" />
	</node>
	<node id="-840136" lat="63.7405555555" lon="9.66640000563">
		<tag k="name" v="Hollnesøra" />
		<tag k="place" v="locality" />
		<tag k="ssr:stedsnr" v="581885" />
	</node>
	<node id="-840135" lat="63.6585444485" lon="9.43531388301">
		<tag k="name" v="Svartberget" />
		<tag k="natural" v="hill" />
		<tag k="place" v="locality" />
		<tag k="ssr:stedsnr" v="95823" />
	</node>
	<node id="-840134" lat="63.7311833335" lon="9.69252499133">
		<tag k="name" v="Elvenden" />
		<tag k="place" v="farm" />
		<tag k="ssr:stedsnr" v="399871" />
	</node>
	<node id="-840133" lat="63.7160888914" lon="9.73693888772">
		<tag k="alt_name" v="Dalaelva;Dalelva" />
		<tag k="name" v="Dalabekken" />
		<tag k="ssr:stedsnr" v="317746" />
		<tag k="waterway" v="stream" />
	</node>
	<node id="-840132" lat="63.7128694459" lon="9.69049445152">
		<tag k="name" v="Korsvad" />
		<tag k="place" v="farm" />
		<tag k="ssr:stedsnr" v="762582" />
	</node>
	<node id="-840131" lat="63.7230166644" lon="9.57941111047">
		<tag k="name" v="Bukthaugen" />
		<tag k="natural" v="hill" />
		<tag k="place" v="locality" />
		<tag k="ssr:stedsnr" v="702866" />
	</node>
	<node id="-840130" lat="63.7286972259" lon="9.69059444373">
		<tag k="name" v="Opphaug" />
		<tag k="place" v="farm" />
		<tag k="ssr:stedsnr" v="762796" />
	</node>
	<node id="-840129" lat="63.7206861133" lon="9.57146388063">
		<tag k="name" v="Skardet" />
		<tag k="place" v="farm" />
		<tag k="ssr:stedsnr" v="580601" />
	</node>
	<node id="-840128" lat="63.6726777739" lon="9.4299888956">
		<tag k="name" v="Grønnvoll" />
		<tag k="place" v="farm" />
		<tag k="ssr:stedsnr" v="702631" />
	</node>
	<node id="-840127" lat="63.6867750041" lon="9.4171833269">
		<tag k="name" v="Sandøra" />
		<tag k="natural" v="beach" />
		<tag k="place" v="locality" />
		<tag k="ssr:stedsnr" v="460831" />
	</node>
	<node id="-840126" lat="63.7069333358" lon="9.64930000498">
		<tag k="name" v="Austbø" />
		<tag k="place" v="farm" />
		<tag k="ssr:stedsnr" v="702626" />
	</node>
	<node id="-840125" lat="63.7281166638" lon="9.59191110765">
		<tag k="name" v="Klettsundet" />
		<tag k="natural" v="strait" />
		<tag k="ssr:stedsnr" v="945856" />
	</node>
	<node id="-840124" lat="63.6383833345" lon="9.46169722473">
		<tag k="fixme" v="consider seamark:type=rock or natural=shoal" />
		<tag k="name" v="Eliasskjæret" />
		<tag k="place" v="islet" />
		<tag k="ssr:stedsnr" v="274256" />
	</node>
	<node id="-840123" lat="63.731219447" lon="9.65373333122">
		<tag k="fixme" v="consider place=hamlet" />
		<tag k="name" v="Innstrand" />
		<tag k="place" v="farm" />
		<tag k="ssr:stedsnr" v="762791" />
	</node>
	<node id="-840122" lat="63.7155638896" lon="9.67414166993">
		<tag k="name" v="Lerberen" />
		<tag k="natural" v="hill" />
		<tag k="place" v="locality" />
		<tag k="ssr:stedsnr" v="255020" />
	</node>
	<node id="-840121" lat="63.7020444411" lon="9.72043055496">
		<tag k="name" v="Østlund" />
		<tag k="place" v="farm" />
		<tag k="ssr:stedsnr" v="823954" />
	</node>
	<node id="-840120" lat="63.73444722" lon="9.64890555655">
		<tag k="name" v="Rabben" />
		<tag k="place" v="farm" />
		<tag k="ssr:stedsnr" v="945619" />
	</node>
	<node id="-840119" lat="63.7131194487" lon="9.57155555847">
		<tag k="name" v="Leirbekken" />
		<tag k="ssr:stedsnr" v="702861" />
		<tag k="waterway" v="stream" />
	</node>
	<node id="-840118" lat="63.6910138923" lon="9.66498332367">
		<tag k="building" v="industrial" />
		<tag k="industrial" v="factory" />
		<tag k="name" v="Ørland meieri" />
		<tag k="ssr:stedsnr" v="278787" />
	</node>
	<node id="-840117" lat="63.6708305578" lon="9.41391110495">
		<tag k="name" v="Torbuvoll" />
		<tag k="place" v="farm" />
		<tag k="ssr:stedsnr" v="394475" />
	</node>
	<node id="-840116" lat="63.6776694462" lon="9.47959999011">
		<tag k="name" v="Grandstorflua" />
		<tag k="natural" v="shoal" />
		<tag k="place" v="locality" />
		<tag k="ssr:stedsnr" v="456283" />
	</node>
	<node id="-840115" lat="63.720205558" lon="9.70356111742">
		<tag k="name" v="Skalandet s." />
		<tag k="place" v="farm" />
		<tag k="ssr:stedsnr" v="155803" />
	</node>
	<node id="-840114" lat="63.6975944454" lon="9.36963888171">
		<tag k="name" v="Nilsetaren" />
		<tag k="natural" v="shoal" />
		<tag k="place" v="locality" />
		<tag k="ssr:stedsnr" v="92365" />
	</node>
	<node id="-840113" lat="63.7120194483" lon="9.65513055974">
		<tag k="name" v="Solheim" />
		<tag k="place" v="farm" />
		<tag k="ssr:stedsnr" v="34578" />
	</node>
	<node id="-840112" lat="63.7103666678" lon="9.53613610797">
		<tag k="name" v="Sørhaugen" />
		<tag k="natural" v="hill" />
		<tag k="place" v="locality" />
		<tag k="ssr:stedsnr" v="217840" />
	</node>
	<node id="-840111" lat="63.6973555541" lon="9.73970554854">
		<tag k="name" v="Jektvika" />
		<tag k="natural" v="bay" />
		<tag k="ssr:stedsnr" v="885760" />
	</node>
	<node id="-840110" lat="63.7274249962" lon="9.63618611412">
		<tag k="name" v="Haggan" />
		<tag k="place" v="farm" />
		<tag k="ssr:stedsnr" v="945622" />
	</node>
	<node id="-840109" lat="63.7306777739" lon="9.78723611244">
		<tag k="name" v="Kalvåtjørna" />
		<tag k="natural" v="water" />
		<tag k="ssr:stedsnr" v="619260" />
	</node>
	<node id="-840108" lat="63.6791666692" lon="9.65877500773">
		<tag k="name" v="Flåten" />
		<tag k="place" v="farm" />
		<tag k="ssr:stedsnr" v="702621" />
	</node>
	<node id="-840107" lat="63.7264749998" lon="9.60575554615">
		<tag k="name" v="Kjerkbakken" />
		<tag k="ssr:stedsnr" v="885985" />
		<tag k="tourism" v="attraction" />
	</node>
	<node id="-840106" lat="63.6389916707" lon="9.49400277437">
		<tag k="name" v="Nebbtaren" />
		<tag k="natural" v="shoal" />
		<tag k="place" v="locality" />
		<tag k="ssr:stedsnr" v="274253" />
	</node>
	<node id="-840105" lat="63.7129555523" lon="9.54834445069">
		<tag k="name" v="Øra" />
		<tag k="natural" v="beach" />
		<tag k="place" v="locality" />
		<tag k="ssr:stedsnr" v="885761" />
	</node>
	<node id="-840104" lat="63.6390416629" lon="9.51376667243">
		<tag k="name" v="Hamnaberget" />
		<tag k="natural" v="hill" />
		<tag k="place" v="locality" />
		<tag k="ssr:stedsnr" v="680071" />
	</node>
	<node id="-840103" lat="63.6849138921" lon="9.66073611968">
		<tag k="fixme" v="consider place=hamlet" />
		<tag k="name" v="Brekstad" />
		<tag k="place" v="farm" />
		<tag k="ssr:stedsnr" v="95589" />
	</node>
	<node id="-840102" lat="63.636900001" lon="9.33665832849">
		<tag k="name" v="Kalvholmen" />
		<tag k="place" v="islet" />
		<tag k="ssr:stedsnr" v="73069" />
	</node>
	<node id="-840101" lat="63.7292194412" lon="9.50841666879">
		<tag k="fixme" v="consider seamark:type=rock or natural=shoal" />
		<tag k="name" v="Soldaterskjæret" />
		<tag k="place" v="islet" />
		<tag k="ssr:stedsnr" v="395099" />
	</node>
	<node id="-840100" lat="63.6977499988" lon="9.59809445326">
		<tag k="name" v="Melbu" />
		<tag k="place" v="farm" />
		<tag k="ssr:stedsnr" v="519995" />
	</node>
	<node id="-840099" lat="63.7279555572" lon="9.68416945071">
		<tag k="building" v="commercial" />
		<tag k="name" v="Opphaug postkontor" />
		<tag k="ssr:stedsnr" v="885764" />
	</node>
	<node id="-840098" lat="63.7299500026" lon="9.65335278017">
		<tag k="name" v="Myråkran" />
		<tag k="place" v="farm" />
		<tag k="ssr:stedsnr" v="885987" />
	</node>
	<node id="-840097" lat="63.6711027741" lon="9.40312500592">
		<tag k="name" v="Bergheim" />
		<tag k="place" v="farm" />
		<tag k="ssr:stedsnr" v="580608" />
	</node>
	<node id="-840096" lat="63.6873444429" lon="9.38456944999">
		<tag k="name" v="Hausen" />
		<tag k="natural" v="shoal" />
		<tag k="place" v="locality" />
		<tag k="ssr:stedsnr" v="92367" />
	</node>
	<node id="-840095" lat="63.7245166646" lon="9.61607221798">
		<tag k="name" v="Utstrand" />
		<tag k="place" v="farm" />
		<tag k="ssr:stedsnr" v="823710" />
	</node>
	<node id="-840094" lat="63.6662833347" lon="9.41129444735">
		<tag k="name" v="Damskardet" />
		<tag k="natural" v="valley" />
		<tag k="place" v="locality" />
		<tag k="ssr:stedsnr" v="95813" />
	</node>
	<node id="-840093" lat="63.7246749962" lon="9.78085278331">
		<tag k="name" v="Langdalen" />
		<tag k="natural" v="valley" />
		<tag k="place" v="locality" />
		<tag k="ssr:stedsnr" v="216940" />
	</node>
	<node id="-840092" lat="63.7314944451" lon="9.67555555134">
		<tag k="name" v="Grøtan" />
		<tag k="place" v="farm" />
		<tag k="ssr:stedsnr" v="278990" />
	</node>
	<node id="-840091" lat="63.7100638862" lon="9.63968889757">
		<tag k="name" v="Vårtun" />
		<tag k="place" v="farm" />
		<tag k="ssr:stedsnr" v="702590" />
	</node>
	<node id="-840090" lat="63.6717777815" lon="9.43362778039">
		<tag k="name" v="Bertelsvika" />
		<tag k="natural" v="bay" />
		<tag k="ssr:stedsnr" v="941475" />
	</node>
	<node id="-840089" lat="63.6658027797" lon="9.40888888887">
		<tag k="name" v="Pilen" />
		<tag k="place" v="locality" />
		<tag k="ssr:stedsnr" v="338822" />
	</node>
	<node id="-840088" lat="63.7103722237" lon="9.68795000156">
		<tag k="name" v="Utne" />
		<tag k="place" v="farm" />
		<tag k="ssr:stedsnr" v="580584" />
	</node>
	<node id="-840087" lat="63.6861777808" lon="9.67105556503">
		<tag k="landuse" v="harbour" />
		<tag k="name" v="Brekstad havn" />
		<tag k="seamark:type" v="harbour" />
		<tag k="ssr:stedsnr" v="885953" />
	</node>
	<node id="-840086" lat="63.7220361111" lon="9.65829999455">
		<tag k="name" v="Kleiva" />
		<tag k="place" v="farm" />
		<tag k="ssr:stedsnr" v="498019" />
	</node>
	<node id="-840085" lat="63.7068166663" lon="9.70221111701">
		<tag k="name" v="Vangenstein" />
		<tag k="place" v="farm" />
		<tag k="ssr:stedsnr" v="95582" />
	</node>
	<node id="-840084" lat="63.7222416686" lon="9.58650277902">
		<tag k="name" v="Austheim" />
		<tag k="place" v="farm" />
		<tag k="ssr:stedsnr" v="34999" />
	</node>
	<node id="-840083" lat="63.7101527759" lon="9.68553333202">
		<tag k="name" v="Hovin" />
		<tag k="place" v="farm" />
		<tag k="ssr:stedsnr" v="278986" />
	</node>
	<node id="-840082" lat="63.6722388872" lon="9.29241388559">
		<tag k="name" v="Litleflua" />
		<tag k="natural" v="shoal" />
		<tag k="place" v="locality" />
		<tag k="ssr:stedsnr" v="92362" />
	</node>
	<node id="-840081" lat="63.7181361136" lon="9.71269443716">
		<tag k="name" v="Dalabakken" />
		<tag k="place" v="farm" />
		<tag k="ssr:stedsnr" v="641971" />
	</node>
	<node id="-840080" lat="63.6522166674" lon="9.54921389172">
		<tag k="name" v="Rønsholmen" />
		<tag k="place" v="islet" />
		<tag k="ssr:stedsnr" v="885731" />
	</node>
	<node id="-840079" lat="63.718636111" lon="9.47812778581">
		<tag k="name" v="Juldagan" />
		<tag k="place" v="islet" />
		<tag k="ssr:stedsnr" v="195019" />
	</node>
	<node id="-840078" lat="63.6821194462" lon="9.40762500458">
		<tag k="name" v="Grønnmyra" />
		<tag k="natural" v="wetland" />
		<tag k="ssr:stedsnr" v="945811" />
	</node>
	<node id="-840077" lat="63.7005111098" lon="9.71311666581">
		<tag k="name" v="Fuggelbekken" />
		<tag k="ssr:stedsnr" v="459722" />
		<tag k="waterway" v="stream" />
	</node>
	<node id="-840076" lat="63.6644666684" lon="9.60821388168">
		<tag k="name" v="Flustøtta" />
		<tag k="natural" v="shoal" />
		<tag k="place" v="locality" />
		<tag k="ssr:stedsnr" v="880353" />
	</node>
	<node id="-840075" lat="63.721883332" lon="9.70618332994">
		<tag k="name" v="Rønsberget" />
		<tag k="natural" v="hill" />
		<tag k="place" v="locality" />
		<tag k="ssr:stedsnr" v="641969" />
	</node>
	<node id="-840074" lat="63.6631944466" lon="9.37700556388">
		<tag k="name" v="Nordskaget" />
		<tag k="place" v="farm" />
		<tag k="ssr:stedsnr" v="824815" />
	</node>
	<node id="-840073" lat="63.6686666662" lon="9.40476110677">
		<tag k="name" v="Haugan" />
		<tag k="place" v="farm" />
		<tag k="ssr:stedsnr" v="824816" />
	</node>
	<node id="-840072" lat="63.685269446" lon="9.59597222438">
		<tag k="name" v="Revlan" />
		<tag k="place" v="farm" />
		<tag k="ssr:stedsnr" v="338595" />
	</node>
	<node id="-840071" lat="63.7224527786" lon="9.49606389855">
		<tag k="alt_name" v="Flatøya" />
		<tag k="name" v="Store Flatøya" />
		<tag k="place" v="islet" />
		<tag k="ssr:stedsnr" v="255013" />
	</node>
	<node id="-840070" lat="63.6768416697" lon="9.36059722816">
		<tag k="fixme" v="consider seamark:type=rock or natural=shoal" />
		<tag k="name" v="Maltsekken" />
		<tag k="place" v="islet" />
		<tag k="ssr:stedsnr" v="316033" />
	</node>
	<node id="-840069" lat="63.709875003" lon="9.63506944477">
		<tag k="name" v="Røyne" />
		<tag k="place" v="farm" />
		<tag k="ssr:stedsnr" v="519983" />
	</node>
	<node id="-840068" lat="63.7058388846" lon="9.35014165754">
		<tag k="name" v="Langtaren" />
		<tag k="natural" v="shoal" />
		<tag k="place" v="locality" />
		<tag k="ssr:stedsnr" v="213461" />
	</node>
	<node id="-840067" lat="63.6442777798" lon="9.22557499353">
		<tag k="alt_name" v="Flessa" />
		<tag k="name" v="Flesa" />
		<tag k="place" v="islet" />
		<tag k="ssr:stedsnr" v="638018" />
	</node>
	<node id="-840066" lat="63.7255333353" lon="9.74338055809">
		<tag k="name" v="Vardheia" />
		<tag k="natural" v="hill" />
		<tag k="place" v="locality" />
		<tag k="ssr:stedsnr" v="195278" />
	</node>
	<node id="-840065" lat="63.7270055599" lon="9.73112778399">
		<tag k="name" v="Rusaset" />
		<tag k="place" v="farm" />
		<tag k="ssr:stedsnr" v="256205" />
	</node>
	<node id="-840064" lat="63.7213000002" lon="9.70078055092">
		<tag k="name" v="Skalandet n." />
		<tag k="place" v="farm" />
		<tag k="ssr:stedsnr" v="641964" />
	</node>
	<node id="-840063" lat="63.7357916641" lon="9.62009445418">
		<tag k="fixme" v="consider seamark:type=rock or natural=shoal" />
		<tag k="name" v="Kråkungen" />
		<tag k="place" v="islet" />
		<tag k="ssr:stedsnr" v="516346" />
	</node>
	<node id="-840062" lat="63.7087611117" lon="9.68676389469">
		<tag k="name" v="Størset" />
		<tag k="place" v="farm" />
		<tag k="ssr:stedsnr" v="885947" />
	</node>
	<node id="-840061" lat="63.7269444465" lon="9.62778055392">
		<tag k="name" v="Fjøsrabban" />
		<tag k="place" v="locality" />
		<tag k="ssr:stedsnr" v="96879" />
	</node>
	<node id="-840060" lat="63.7171222216" lon="9.68521111016">
		<tag k="name" v="Hov" />
		<tag k="place" v="farm" />
		<tag k="ssr:stedsnr" v="95572" />
	</node>
	<node id="-840059" lat="63.7090500015" lon="9.69968888065">
		<tag k="name" v="Sandan n." />
		<tag k="place" v="farm" />
		<tag k="ssr:stedsnr" v="945581" />
	</node>
	<node id="-840058" lat="63.7115722255" lon="9.70271111572">
		<tag k="name" v="Vesterheim" />
		<tag k="place" v="farm" />
		<tag k="ssr:stedsnr" v="702604" />
	</node>
	<node id="-840057" lat="63.7090111078" lon="9.72973333926">
		<tag k="name" v="Lundasletta" />
		<tag k="place" v="farm" />
		<tag k="ssr:stedsnr" v="317732" />
	</node>
	<node id="-840056" lat="63.7161111156" lon="9.76517500086">
		<tag k="name" v="Karlsengbekken" />
		<tag k="ssr:stedsnr" v="885741" />
		<tag k="waterway" v="stream" />
	</node>
	<node id="-840055" lat="63.7003333307" lon="9.44878610235">
		<tag k="name" v="Sandholman" />
		<tag k="place" v="islet" />
		<tag k="ssr:stedsnr" v="396998" />
	</node>
	<node id="-840054" lat="63.6817388906" lon="9.60173611297">
		<tag k="name" v="Grande" />
		<tag k="place" v="farm" />
		<tag k="ssr:stedsnr" v="34776" />
	</node>
	<node id="-840053" lat="63.7342694449" lon="9.54826388089">
		<tag k="name" v="Nygrunnen" />
		<tag k="natural" v="shoal" />
		<tag k="place" v="locality" />
		<tag k="ssr:stedsnr" v="273352" />
	</node>
	<node id="-840052" lat="63.6996999971" lon="9.73740276781">
		<tag k="name" v="Skjegghaugen" />
		<tag k="place" v="farm" />
		<tag k="ssr:stedsnr" v="195794" />
	</node>
	<node id="-840051" lat="63.6532583371" lon="9.42770554587">
		<tag k="name" v="Sanden" />
		<tag k="place" v="farm" />
		<tag k="ssr:stedsnr" v="459696" />
	</node>
	<node id="-840050" lat="63.6855722252" lon="9.60515000565">
		<tag k="name" v="Falkhyttmyra" />
		<tag k="place" v="farm" />
		<tag k="ssr:stedsnr" v="155996" />
	</node>
	<node id="-840049" lat="63.7282194442" lon="9.60266944423">
		<tag k="name" v="Likskjæret" />
		<tag k="natural" v="cape" />
		<tag k="ssr:stedsnr" v="641987" />
	</node>
	<node id="-840048" lat="63.6511611151" lon="9.39292500786">
		<tag k="name" v="Aunet" />
		<tag k="place" v="farm" />
		<tag k="ssr:stedsnr" v="680056" />
	</node>
	<node id="-840047" lat="63.7203944404" lon="9.79100554721">
		<tag k="name" v="Småmyrhaugen" />
		<tag k="natural" v="hill" />
		<tag k="place" v="locality" />
		<tag k="ssr:stedsnr" v="823935" />
	</node>
	<node id="-840046" lat="63.6818111101" lon="9.65977778069">
		<tag k="name" v="Hovde" />
		<tag k="place" v="farm" />
		<tag k="ssr:stedsnr" v="338806" />
	</node>
	<node id="-840045" lat="63.699033329" lon="9.63591110886">
		<tag k="name" v="Nygården" />
		<tag k="place" v="farm" />
		<tag k="ssr:stedsnr" v="520635" />
	</node>
	<node id="-840044" lat="63.7211305545" lon="9.65735555531">
		<tag k="name" v="Aks" />
		<tag k="place" v="farm" />
		<tag k="ssr:stedsnr" v="95567" />
	</node>
	<node id="-840043" lat="63.6735749963" lon="9.51097500347">
		<tag k="name" v="Raudsidgrunnen" />
		<tag k="natural" v="shoal" />
		<tag k="place" v="locality" />
		<tag k="ssr:stedsnr" v="334270" />
	</node>
	<node id="-840042" lat="63.6567527735" lon="9.37121667469">
		<tag k="name" v="Nordhaugen" />
		<tag k="natural" v="hill" />
		<tag k="place" v="locality" />
		<tag k="ssr:stedsnr" v="702837" />
	</node>
	<node id="-840041" lat="63.64338889" lon="9.52981388763">
		<tag k="name" v="Gartkviga" />
		<tag k="natural" v="hill" />
		<tag k="place" v="locality" />
		<tag k="ssr:stedsnr" v="802090" />
	</node>
	<node id="-840040" lat="63.7339749955" lon="9.65596667362">
		<tag k="name" v="Innstrand" />
		<tag k="place" v="hamlet" />
		<tag k="ssr:stedsnr" v="498011" />
	</node>
	<node id="-840039" lat="63.7357916672" lon="9.5054750072">
		<tag k="name" v="Kisteinen" />
		<tag k="place" v="islet" />
		<tag k="ssr:stedsnr" v="195011" />
	</node>
	<node id="-840038" lat="63.6418055532" lon="9.45870833558">
		<tag k="fixme" v="consider seamark:type=rock or natural=shoal" />
		<tag k="name" v="Vågskjæret" />
		<tag k="place" v="islet" />
		<tag k="ssr:stedsnr" v="151495" />
	</node>
	<node id="-840037" lat="63.6482055544" lon="9.40397221957">
		<tag k="alt_name" v="Kalven" />
		<tag k="name" v="Vågakalven" />
		<tag k="natural" v="hill" />
		<tag k="place" v="locality" />
		<tag k="ssr:stedsnr" v="134070" />
	</node>
	<node id="-840036" lat="63.7048211962" lon="9.63975648439">
		<tag k="name" v="Vik" />
		<tag k="place" v="farm" />
		<tag k="ssr:stedsnr" v="34771" />
	</node>
	<node id="-840034" lat="63.68135" lon="9.32194167496">
		<tag k="name" v="Skjåholmflua" />
		<tag k="natural" v="shoal" />
		<tag k="place" v="locality" />
		<tag k="ssr:stedsnr" v="759347" />
	</node>
	<node id="-840033" lat="63.7330166625" lon="9.67338889008">
		<tag k="name" v="Rabban" />
		<tag k="place" v="farm" />
		<tag k="ssr:stedsnr" v="641983" />
	</node>
	<node id="-840032" lat="63.7437777789" lon="9.67624722614">
		<tag k="landuse" v="harbour" />
		<tag k="name" v="Døsvik havn" />
		<tag k="seamark:type" v="harbour" />
		<tag k="ssr:stedsnr" v="399851" />
	</node>
	<node id="-840031" lat="63.7121583317" lon="9.73517776936">
		<tag k="name" v="Borgestad" />
		<tag k="place" v="farm" />
		<tag k="ssr:stedsnr" v="13796" />
	</node>
	<node id="-840030" lat="63.6913583307" lon="9.55220832728">
		<tag k="name" v="Grandvika" />
		<tag k="natural" v="bay" />
		<tag k="ssr:stedsnr" v="316027" />
	</node>
	<node id="-840029" lat="63.7344888865" lon="9.72618889558">
		<tag k="name" v="Juldagsskardet" />
		<tag k="natural" v="valley" />
		<tag k="place" v="locality" />
		<tag k="ssr:stedsnr" v="763885" />
	</node>
	<node id="-840027" lat="63.6553194463" lon="9.39006110854">
		<tag k="name" v="Heia" />
		<tag k="natural" v="hill" />
		<tag k="place" v="locality" />
		<tag k="ssr:stedsnr" v="945827" />
	</node>
	<node id="-840026" lat="63.6526305588" lon="9.3298972194">
		<tag k="name" v="Litlslåttøya" />
		<tag k="place" v="islet" />
		<tag k="ssr:stedsnr" v="134064" />
	</node>
	<node id="-840025" lat="63.6491527774" lon="9.34267777846">
		<tag k="alt_name" v="Kråkvågneset" />
		<tag k="name" v="Neset" />
		<tag k="natural" v="cape" />
		<tag k="ssr:stedsnr" v="134200" />
	</node>
	<node id="-840024" lat="63.6952888863" lon="9.6409916757">
		<tag k="name" v="Hårberg" />
		<tag k="place" v="farm" />
		<tag k="ssr:stedsnr" v="885958" />
	</node>
	<node id="-840023" lat="63.6823861096" lon="9.39623334069">
		<tag k="name" v="Dalahamna" />
		<tag k="place" v="isolated_dwelling" />
		<tag k="ssr:stedsnr" v="459710" />
	</node>
	<node id="-840022" lat="63.7039250035" lon="9.6851000055">
		<tag k="name" v="Leirdalsbekken" />
		<tag k="ssr:stedsnr" v="460806" />
		<tag k="waterway" v="stream" />
	</node>
	<node id="-840021" lat="63.6392888864" lon="9.51491666728">
		<tag k="fixme" v="consider natural=peak for the most distinct mountains in the district" />
		<tag k="name" v="Svartfjellet" />
		<tag k="natural" v="hill" />
		<tag k="place" v="locality" />
		<tag k="ssr:stedsnr" v="155782" />
	</node>
	<node id="-840020" lat="63.7152055529" lon="9.68571666202">
		<tag k="name" v="Hov" />
		<tag k="place" v="farm" />
		<tag k="ssr:stedsnr" v="580578" />
	</node>
	<node id="-840019" lat="63.7020888872" lon="9.71432222463">
		<tag k="name" v="Fitjan" />
		<tag k="place" v="hamlet" />
		<tag k="ssr:stedsnr" v="316025" />
	</node>
	<node id="-840017" lat="63.6555333367" lon="9.56952500831">
		<tag k="fixme" v="consider place=hamlet" />
		<tag k="name" v="Beian" />
		<tag k="place" v="village" />
		<tag k="ssr:stedsnr" v="802086" />
	</node>
	<node id="-840016" lat="63.6553019299" lon="9.56709218658">
		<tag k="fixme" v="consider place=hamlet" />
		<tag k="name" v="Bakken" />
		<tag k="place" v="farm" />
		<tag k="ssr:stedsnr" v="337711" />
	</node>
	<node id="-840015" lat="63.6420999981" lon="9.33855555444">
		<tag k="name" v="Båtvika" />
		<tag k="natural" v="bay" />
		<tag k="ssr:stedsnr" v="945832" />
	</node>
	<node id="-840014" lat="63.6737777758" lon="9.42476667446">
		<tag k="name" v="Nordlandet" />
		<tag k="place" v="hamlet" />
		<tag k="ssr:stedsnr" v="741048" />
	</node>
	<node id="-840013" lat="63.6768944425" lon="9.64746943871">
		<tag k="alt_name" v="Hovde vestre" />
		<tag k="name" v="Vestre Hovde" />
		<tag k="place" v="farm" />
		<tag k="ssr:stedsnr" v="520641" />
	</node>
	<node id="-840012" lat="63.7041222219" lon="9.67299445101">
		<tag k="name" v="Biskopbekken" />
		<tag k="ssr:stedsnr" v="399850" />
		<tag k="waterway" v="stream" />
	</node>
	<node id="-840011" lat="63.6664972252" lon="9.42776944728">
		<tag k="name" v="Tinnvika" />
		<tag k="place" v="farm" />
		<tag k="ssr:stedsnr" v="884672" />
	</node>
	<node id="-840010" lat="63.6406361076" lon="9.31616111109">
		<tag k="name" v="Kråkøyplatten" />
		<tag k="place" v="locality" />
		<tag k="ssr:stedsnr" v="824794" />
	</node>
	<node id="-840009" lat="63.7173277754" lon="9.46589999716">
		<tag k="fixme" v="consider seamark:type=rock or natural=shoal" />
		<tag k="name" v="Juldagsskjæra" />
		<tag k="place" v="islet" />
		<tag k="ssr:stedsnr" v="437025" />
	</node>
	<node id="-840008" lat="63.6830861123" lon="9.64555000715">
		<tag k="name" v="Reksterberget" />
		<tag k="place" v="farm" />
		<tag k="ssr:stedsnr" v="885921" />
	</node>
	<node id="-840007" lat="63.7109444425" lon="9.66075834322">
		<tag k="name" v="Ødegård" />
		<tag k="place" v="farm" />
		<tag k="ssr:stedsnr" v="520613" />
	</node>
	<node id="-840006" lat="63.6976472257" lon="9.7385638879">
		<tag k="name" v="Jektvikan" />
		<tag k="natural" v="cape" />
		<tag k="ssr:stedsnr" v="438764" />
	</node>
	<node id="-840005" lat="63.7240333372" lon="9.74631388886">
		<tag k="fixme" v="consider natural=peak for the most distinct mountains in the district" />
		<tag k="name" v="Nypen" />
		<tag k="natural" v="hill" />
		<tag k="ssr:stedsnr" v="641946" />
	</node>
	<node id="-840004" lat="63.7238972192" lon="9.68925554959">
		<tag k="name" v="Breiteigen" />
		<tag k="place" v="farm" />
		<tag k="ssr:stedsnr" v="945792" />
	</node>
	<node id="-840003" lat="63.681530559" lon="9.64118610826">
		<tag k="name" v="Ulsetmyran" />
		<tag k="natural" v="wetland" />
		<tag k="ssr:stedsnr" v="680037" />
	</node>
	<node id="-840002" lat="63.6777999996" lon="9.65739443782">
		<tag k="name" v="Trøhaugen" />
		<tag k="natural" v="hill" />
		<tag k="place" v="locality" />
		<tag k="ssr:stedsnr" v="885923" />
	</node>
	<node id="-840001" lat="63.7285388898" lon="9.58720276898">
		<tag k="name" v="Holmhaugen" />
		<tag k="natural" v="hill" />
		<tag k="place" v="locality" />
		<tag k="ssr:stedsnr" v="581000" />
	</node>
	<node id="-840000" lat="63.704000003" lon="9.34275556353">
		<tag k="fixme" v="consider seamark:type=rock or natural=shoal" />
		<tag k="name" v="Litle Tårnet" />
		<tag k="place" v="islet" />
		<tag k="ssr:stedsnr" v="518000" />
	</node>
	<node id="-839999" lat="63.7214367078" lon="9.69953638957">
		<tag k="fixme" v="consider place=hamlet" />
		<tag k="name" v="Røstad" />
		<tag k="place" v="village" />
		<tag k="ssr:stedsnr" v="641945" />
	</node>
	<node id="-839997" lat="63.6388527736" lon="9.52531111195">
		<tag k="name" v="Hamnaberget" />
		<tag k="natural" v="hill" />
		<tag k="place" v="locality" />
		<tag k="ssr:stedsnr" v="96861" />
	</node>
	<node id="-839996" lat="63.652422225" lon="9.42085278177">
		<tag k="name" v="Våa" />
		<tag k="place" v="farm" />
		<tag k="ssr:stedsnr" v="73049" />
	</node>
	<node id="-839995" lat="63.6541027735" lon="9.37771944907">
		<tag k="name" v="Skålvika" />
		<tag k="natural" v="bay" />
		<tag k="ssr:stedsnr" v="941452" />
	</node>
	<node id="-839994" lat="63.7258750008" lon="9.62253333602">
		<tag k="name" v="Utstrand" />
		<tag k="place" v="hamlet" />
		<tag k="ssr:stedsnr" v="316012" />
	</node>
	<node id="-839993" lat="63.7202249984" lon="9.64208889837">
		<tag k="name" v="Ryggen" />
		<tag k="place" v="farm" />
		<tag k="ssr:stedsnr" v="520617" />
	</node>
	<node id="-839992" lat="63.7099166663" lon="9.53172221532">
		<tag k="fixme" v="consider seamark:type=rock or natural=shoal" />
		<tag k="name" v="Olaskjæret" />
		<tag k="place" v="islet" />
		<tag k="ssr:stedsnr" v="96860" />
	</node>
	<node id="-839991" lat="63.6798666696" lon="9.65891943855">
		<tag k="name" v="Hovde" />
		<tag k="place" v="farm" />
		<tag k="ssr:stedsnr" v="885927" />
	</node>
	<node id="-839990" lat="63.7315611101" lon="9.69642222676">
		<tag k="name" v="Opphaug" />
		<tag k="place" v="farm" />
		<tag k="ssr:stedsnr" v="277654" />
	</node>
	<node id="-839989" lat="63.6412222217" lon="9.53867500612">
		<tag k="name" v="Værneset" />
		<tag k="natural" v="cape" />
		<tag k="ssr:stedsnr" v="460788" />
	</node>
	<node id="-839988" lat="63.6732472206" lon="9.59656110571">
		<tag k="name" v="Grande" />
		<tag k="place" v="farm" />
		<tag k="ssr:stedsnr" v="338802" />
	</node>
	<node id="-839987" lat="63.7187138874" lon="9.75710833686">
		<tag k="name" v="Myrenget" />
		<tag k="place" v="farm" />
		<tag k="ssr:stedsnr" v="316272" />
	</node>
	<node id="-839986" lat="63.7151111077" lon="9.63821944424">
		<tag k="name" v="Røyne" />
		<tag k="place" v="farm" />
		<tag k="ssr:stedsnr" v="155973" />
	</node>
	<node id="-839985" lat="63.7139355395" lon="9.62991112134">
		<tag k="fixme" v="consider place=hamlet" />
		<tag k="name" v="Røyne" />
		<tag k="place" v="farm" />
		<tag k="ssr:stedsnr" v="437029" />
	</node>
	<node id="-839984" lat="63.7050638879" lon="9.76178056127">
		<tag k="alt_name" v="Skjæret" />
		<tag k="name" v="Skjeret" />
		<tag k="place" v="farm" />
		<tag k="ssr:stedsnr" v="680838" />
	</node>
	<node id="-839983" lat="63.7208250033" lon="9.55745556476">
		<tag k="name" v="Rundbukta" />
		<tag k="place" v="farm" />
		<tag k="ssr:stedsnr" v="520675" />
	</node>
	<node id="-839982" lat="63.7101166632" lon="9.8002055595">
		<tag k="alt_name" v="Tømmerliskjeret" />
		<tag k="fixme" v="consider seamark:type=rock or natural=shoal" />
		<tag k="name" v="Tømmerliskjæret" />
		<tag k="place" v="islet" />
		<tag k="ssr:stedsnr" v="438795" />
	</node>
	<node id="-839981" lat="63.6480499975" lon="9.40176111518">
		<tag k="fixme" v="consider natural=peak for the most distinct mountains in the district" />
		<tag k="name" v="Kalven" />
		<tag k="natural" v="hill" />
		<tag k="place" v="locality" />
		<tag k="ssr:stedsnr" v="580831" />
	</node>
	<node id="-839980" lat="63.6968916642" lon="9.63993889549">
		<tag k="fixme" v="consider place=hamlet" />
		<tag k="name" v="Hårberg" />
		<tag k="place" v="village" />
		<tag k="ssr:stedsnr" v="498032" />
	</node>
	<node id="-839979" lat="63.7284361103" lon="9.59279722699">
		<tag k="fixme" v="consider seamark:type=rock or natural=shoal" />
		<tag k="name" v="Kletten" />
		<tag k="place" v="islet" />
		<tag k="ssr:stedsnr" v="945851" />
	</node>
	<node id="-839978" lat="63.7142166681" lon="9.54679722139">
		<tag k="name" v="Rundøra" />
		<tag k="place" v="locality" />
		<tag k="ssr:stedsnr" v="278792" />
	</node>
	<node id="-839977" lat="63.6913277768" lon="9.65748889542">
		<tag k="leisure" v="pitch" />
		<tag k="name" v="Ørland stadion" />
		<tag k="ssr:stedsnr" v="278791" />
	</node>
	<node id="-839976" lat="63.7039777795" lon="9.74338332651">
		<tag k="alt_name" v="Austråttborgen" />
		<tag k="name" v="Austråttborga" />
		<tag k="place" v="locality" />
		<tag k="ssr:stedsnr" v="680837" />
	</node>
	<node id="-839975" lat="63.7054694454" lon="9.75519167517">
		<tag k="name" v="Sandbergbekken" />
		<tag k="ssr:stedsnr" v="944948" />
		<tag k="waterway" v="stream" />
	</node>
	<node id="-839974" lat="63.7372916646" lon="9.66308887987">
		<tag k="name" v="Ørsleie" />
		<tag k="place" v="farm" />
		<tag k="ssr:stedsnr" v="95610" />
	</node>
	<node id="-839973" lat="63.6517250038" lon="9.3729138938">
		<tag k="name" v="Purkholmen" />
		<tag k="place" v="islet" />
		<tag k="ssr:stedsnr" v="34810" />
	</node>
	<node id="-839972" lat="63.7208169364" lon="9.64520954485">
		<tag k="fixme" v="consider place=hamlet" />
		<tag k="name" v="Ryggen" />
		<tag k="place" v="farm" />
		<tag k="ssr:stedsnr" v="376021" />
	</node>
	<node id="-839971" lat="63.7388694447" lon="9.68561944353">
		<tag k="name" v="Storhaugen" />
		<tag k="natural" v="hill" />
		<tag k="place" v="locality" />
		<tag k="ssr:stedsnr" v="885756" />
	</node>
	<node id="-839970" lat="63.7029749996" lon="9.69685554942">
		<tag k="name" v="Fjæra" />
		<tag k="place" v="farm" />
		<tag k="ssr:stedsnr" v="823949" />
	</node>
	<node id="-839969" lat="63.7315361115" lon="9.64967500443">
		<tag k="name" v="Håbakken" />
		<tag k="place" v="farm" />
		<tag k="ssr:stedsnr" v="945616" />
	</node>
	<node id="-839968" lat="63.7277361151" lon="9.67933610358">
		<tag k="name" v="Hov" />
		<tag k="place" v="isolated_dwelling" />
		<tag k="ssr:stedsnr" v="338618" />
	</node>
	<node id="-839967" lat="63.7164333357" lon="9.62762778032">
		<tag k="name" v="Gullteigan" />
		<tag k="place" v="farm" />
		<tag k="ssr:stedsnr" v="520678" />
	</node>
	<node id="-839966" lat="63.7269638858" lon="9.59515277424">
		<tag k="man_made" v="quay" />
		<tag k="name" v="Sjøgata" />
		<tag k="place" v="locality" />
		<tag k="ssr:stedsnr" v="702853" />
	</node>
	<node id="-839965" lat="63.6777638918" lon="9.28863054819">
		<tag k="name" v="Nordtaren" />
		<tag k="natural" v="shoal" />
		<tag k="place" v="locality" />
		<tag k="ssr:stedsnr" v="699361" />
	</node>
	<node id="-839964" lat="63.7028583323" lon="9.51564444385">
		<tag k="name" v="Ribeflua" />
		<tag k="natural" v="shoal" />
		<tag k="place" v="locality" />
		<tag k="ssr:stedsnr" v="821996" />
	</node>
	<node id="-839963" lat="63.7081416657" lon="9.72168054805">
		<tag k="name" v="Lundahaugen" />
		<tag k="natural" v="hill" />
		<tag k="place" v="locality" />
		<tag k="ssr:stedsnr" v="278788" />
	</node>
	<node id="-839962" lat="63.7308722226" lon="9.75931667654">
		<tag k="name" v="Ole Olsavatnet" />
		<tag k="natural" v="water" />
		<tag k="ssr:stedsnr" v="923235" />
	</node>
	<node id="-839961" lat="63.7168999965" lon="9.64445833968">
		<tag k="name" v="Aune" />
		<tag k="place" v="farm" />
		<tag k="ssr:stedsnr" v="376028" />
	</node>
	<node id="-839960" lat="63.6726138913" lon="9.43346944172">
		<tag k="name" v="Jakobsberget" />
		<tag k="natural" v="hill" />
		<tag k="place" v="locality" />
		<tag k="ssr:stedsnr" v="702847" />
	</node>
	<node id="-839959" lat="63.6605166655" lon="9.38979721347">
		<tag k="name" v="Knutenga" />
		<tag k="place" v="farm" />
		<tag k="ssr:stedsnr" v="884682" />
	</node>
	<node id="-839958" lat="63.7036361116" lon="9.71149445109">
		<tag k="name" v="Sørstrand" />
		<tag k="place" v="farm" />
		<tag k="ssr:stedsnr" v="569544" />
	</node>
	<node id="-839957" lat="63.6627111155" lon="9.43051944756">
		<tag k="name" v="Kilen" />
		<tag k="natural" v="bay" />
		<tag k="ssr:stedsnr" v="437063" />
	</node>
	<node id="-839956" lat="63.7244916711" lon="9.61902777313">
		<tag k="name" v="Haugløkkan" />
		<tag k="place" v="farm" />
		<tag k="ssr:stedsnr" v="945605" />
	</node>
	<node id="-839955" lat="63.7263027772" lon="9.69542778545">
		<tag k="name" v="Røstad" />
		<tag k="place" v="farm" />
		<tag k="ssr:stedsnr" v="34590" />
	</node>
	<node id="-839954" lat="63.6584388923" lon="9.32038888032">
		<tag k="name" v="Bukkholmen" />
		<tag k="place" v="islet" />
		<tag k="ssr:stedsnr" v="699355" />
	</node>
	<node id="-839953" lat="63.7176861079" lon="9.56360278101">
		<tag k="name" v="Hoøya" />
		<tag k="place" v="farm" />
		<tag k="ssr:stedsnr" v="338626" />
	</node>
	<node id="-839952" lat="63.6949416698" lon="9.6516638851">
		<tag k="name" v="Trettenget" />
		<tag k="place" v="farm" />
		<tag k="ssr:stedsnr" v="702613" />
	</node>
	<node id="-839951" lat="63.6847777741" lon="9.39949721849">
		<tag k="fixme" v="consider seamark:type=rock or natural=shoal" />
		<tag k="name" v="Nubban" />
		<tag k="place" v="islet" />
		<tag k="ssr:stedsnr" v="702849" />
	</node>
	<node id="-839950" lat="63.663561108" lon="9.38449999341">
		<tag k="name" v="Brandhaugen" />
		<tag k="natural" v="hill" />
		<tag k="place" v="locality" />
		<tag k="ssr:stedsnr" v="945844" />
	</node>
	<node id="-839949" lat="63.6920770576" lon="9.6499289337">
		<tag k="alt_name" v="Viklem" />
		<tag k="fixme" v="consider place=hamlet" />
		<tag k="name" v="Veklem" />
		<tag k="place" v="farm" />
		<tag k="ssr:stedsnr" v="498035" />
	</node>
	<node id="-839948" lat="63.6436749996" lon="9.52457499898">
		<tag k="name" v="Garten" />
		<tag k="place" v="farm" />
		<tag k="ssr:stedsnr" v="156943" />
	</node>
	<node id="-839947" lat="63.659277779" lon="9.42106110567">
		<tag k="alt_name" v="Breivik" />
		<tag k="name" v="Breivika" />
		<tag k="place" v="farm" />
		<tag k="ssr:stedsnr" v="580618" />
	</node>
	<node id="-839946" lat="63.6598166651" lon="9.57139721505">
		<tag k="name" v="Kvitsanden" />
		<tag k="place" v="farm" />
		<tag k="ssr:stedsnr" v="277717" />
	</node>
	<node id="-839945" lat="63.7047833368" lon="9.66548332466">
		<tag k="name" v="Sommerset" />
		<tag k="place" v="farm" />
		<tag k="ssr:stedsnr" v="155611" />
	</node>
	<node id="-839944" lat="63.7376027791" lon="9.65177500758">
		<tag k="name" v="Rundøra" />
		<tag k="place" v="locality" />
		<tag k="ssr:stedsnr" v="338854" />
	</node>
	<node id="-839943" lat="63.6846666679" lon="9.41409166453">
		<tag k="fixme" v="multiple name tags, choose one and add the other to alt_name" />
		<tag k="name" v="Berge;Lyngholmen" />
		<tag k="place" v="farm" />
		<tag k="ssr:stedsnr" v="498037" />
	</node>
	<node id="-839941" lat="63.6436472217" lon="9.33582221425">
		<tag k="name" v="Ovehaugen" />
		<tag k="natural" v="hill" />
		<tag k="place" v="locality" />
		<tag k="ssr:stedsnr" v="702842" />
	</node>
	<node id="-839940" lat="63.6623219257" lon="9.36897771003">
		<tag k="name" v="Neset" />
		<tag k="natural" v="cape" />
		<tag k="ssr:stedsnr" v="580839" />
	</node>
	<node id="-839939" lat="63.6589944421" lon="9.58834166403">
		<tag k="fixme" v="consider seamark:type=rock or natural=shoal" />
		<tag k="name" v="Kvitsandskjæra" />
		<tag k="place" v="islet" />
		<tag k="ssr:stedsnr" v="316047" />
	</node>
	<node id="-839938" lat="63.6617437274" lon="9.36936390011">
		<tag k="name" v="Neset" />
		<tag k="place" v="farm" />
		<tag k="ssr:stedsnr" v="91521" />
	</node>
	<node id="-839937" lat="63.7130194455" lon="9.57578889531">
		<tag k="name" v="Frigård" />
		<tag k="place" v="farm" />
		<tag k="ssr:stedsnr" v="448580" />
	</node>
	<node id="-839936" lat="63.6504861095" lon="9.32336667252">
		<tag k="name" v="Valholmen" />
		<tag k="place" v="islet" />
		<tag k="ssr:stedsnr" v="95829" />
	</node>
	<node id="-839935" lat="63.7136638887" lon="9.62866667595">
		<tag k="name" v="Røyne" />
		<tag k="place" v="farm" />
		<tag k="ssr:stedsnr" v="580563" />
	</node>
	<node id="-839934" lat="63.7280916681" lon="9.63574166068">
		<tag k="name" v="Vollan" />
		<tag k="place" v="farm" />
		<tag k="ssr:stedsnr" v="338800" />
	</node>
	<node id="-839933" lat="63.7267083294" lon="9.51331388915">
		<tag k="fixme" v="consider seamark:type=rock or natural=shoal" />
		<tag k="name" v="Nordre Flatøyskjæret" />
		<tag k="place" v="islet" />
		<tag k="ssr:stedsnr" v="759100" />
	</node>
	<node id="-839932" lat="63.6982055576" lon="9.4310583349">
		<tag k="bay" v="fjord" />
		<tag k="name" v="Lyngholmråsa" />
		<tag k="natural" v="bay" />
		<tag k="ssr:stedsnr" v="316018" />
	</node>
	<node id="-839931" lat="63.7130000032" lon="9.57394721644">
		<tag k="name" v="Frigård" />
		<tag k="place" v="farm" />
		<tag k="ssr:stedsnr" v="277664" />
	</node>
	<node id="-839930" lat="63.6695370824" lon="9.39867419044">
		<tag k="name" v="Storfosna" />
		<tag k="place" v="island" />
		<tag k="ssr:stedsnr" v="802059" />
	</node>
	<node id="-839929" lat="63.7128444426" lon="9.53983611316">
		<tag k="alt_name" v="Hoøya" />
		<tag k="name" v="Øya" />
		<tag k="natural" v="cape" />
		<tag k="ssr:stedsnr" v="316017" />
	</node>
	<node id="-839928" lat="63.7346833368" lon="9.6784861021">
		<tag k="name" v="Småhaugan" />
		<tag k="place" v="farm" />
		<tag k="ssr:stedsnr" v="277663" />
	</node>
	<node id="-839927" lat="63.7180388865" lon="9.77267777631">
		<tag k="name" v="Fjellstad" />
		<tag k="place" v="farm" />
		<tag k="ssr:stedsnr" v="438236" />
	</node>
	<node id="-839926" lat="63.6691055564" lon="9.42555278474">
		<tag k="name" v="Skolhaugen" />
		<tag k="natural" v="hill" />
		<tag k="place" v="locality" />
		<tag k="ssr:stedsnr" v="702782" />
	</node>
	<node id="-839925" lat="63.703530552" lon="9.7118555472">
		<tag k="name" v="Sørstrand" />
		<tag k="place" v="farm" />
		<tag k="ssr:stedsnr" v="34966" />
	</node>
	<node id="-839924" lat="63.7006555565" lon="9.72478054813">
		<tag k="name" v="Fitjan hamnelag" />
		<tag k="place" v="locality" />
		<tag k="ssr:stedsnr" v="824788" />
	</node>
	<node id="-839923" lat="63.6671499995" lon="9.46721943894">
		<tag k="name" v="Grandvika" />
		<tag k="place" v="locality" />
		<tag k="ssr:stedsnr" v="895094" />
	</node>
	<node id="-839922" lat="63.6844333292" lon="9.6537638971">
		<tag k="amenity" v="school" />
		<tag k="name" v="Fosen yrkesskole" />
		<tag k="ssr:stedsnr" v="460795" />
	</node>
	<node id="-839921" lat="63.6863250034" lon="9.40367778277">
		<tag k="name" v="Grønnmyrskjæra" />
		<tag k="place" v="islet" />
		<tag k="ssr:stedsnr" v="751574" />
	</node>
</osm>
