<?xml version="1.0" encoding="UTF-8"?>
<osm generator="osmapis" version="0.6">
	<node id="-840724" lat="63.7222000016" lon="9.61640832461">
		<tag k="name" v="Solset" />
		<tag k="place" v="farm" />
		<tag k="ssr:stedsnr" v="641640" />
	</node>
	<node id="-840723" lat="63.6749333313" lon="9.40159444565">
		<tag k="name" v="Solheim" />
		<tag k="place" v="farm" />
		<tag k="ssr:stedsnr" v="96797" />
	</node>
	<node id="-840720" lat="63.7054638893" lon="9.63505555583">
		<tag k="name" v="Vik" />
		<tag k="place" v="farm" />
		<tag k="ssr:stedsnr" v="338973" />
	</node>
	<node id="-840717" lat="63.7272694413" lon="9.68879722954">
		<tag k="fixme" v="consider place=suburb, village or hamlet" />
		<tag k="name" v="Opphaug" />
		<tag k="place" v="quarter" />
		<tag k="ssr:stedsnr" v="802025" />
	</node>
	<node id="-840716" lat="63.7387194475" lon="9.6711000096">
		<tag k="name" v="Døsvika" />
		<tag k="place" v="farm" />
		<tag k="ssr:stedsnr" v="702985" />
	</node>
	<node id="-840713" lat="63.7102222206" lon="9.53930833116">
		<tag k="name" v="Sauvika" />
		<tag k="place" v="farm" />
		<tag k="ssr:stedsnr" v="34690" />
	</node>
	<node id="-840712" lat="63.6781749997" lon="9.62912778661">
		<tag k="name" v="Sørheim" />
		<tag k="place" v="farm" />
		<tag k="ssr:stedsnr" v="884591" />
	</node>
	<node id="-840710" lat="63.6598666641" lon="9.38395554935">
		<tag k="name" v="Skålvika" />
		<tag k="place" v="farm" />
		<tag k="ssr:stedsnr" v="20041" />
	</node>
	<node id="-840708" lat="63.6999888918" lon="9.66471389485">
		<tag k="name" v="Solem" />
		<tag k="place" v="farm" />
		<tag k="ssr:stedsnr" v="338954" />
	</node>
	<node id="-840705" lat="63.6428638912" lon="9.52154999109">
		<tag k="fixme" v="consider place=hamlet" />
		<tag k="name" v="Garten" />
		<tag k="place" v="village" />
		<tag k="ssr:stedsnr" v="86238" />
	</node>
	<node id="-840702" lat="63.7133583373" lon="9.66039166393">
		<tag k="name" v="Fredtun" />
		<tag k="place" v="farm" />
		<tag k="ssr:stedsnr" v="945978" />
	</node>
	<node id="-840698" lat="63.7011749962" lon="9.63939444967">
		<tag k="name" v="Vik" />
		<tag k="place" v="farm" />
		<tag k="ssr:stedsnr" v="337627" />
	</node>
	<node id="-840693" lat="63.7143222267" lon="9.66636665753">
		<tag k="name" v="Lerbergen" />
		<tag k="place" v="isolated_dwelling" />
		<tag k="ssr:stedsnr" v="945981" />
	</node>
	<node id="-840690" lat="63.7261499984" lon="9.6865611124">
		<tag k="name" v="Hov" />
		<tag k="place" v="farm" />
		<tag k="ssr:stedsnr" v="544894" />
	</node>
	<node id="-840687" lat="63.7179333317" lon="9.62318333195">
		<tag k="name" v="Fagervoll" />
		<tag k="place" v="farm" />
		<tag k="ssr:stedsnr" v="519688" />
	</node>
	<node id="-840686" lat="63.6738694461" lon="9.39405555605">
		<tag k="name" v="Stranda" />
		<tag k="place" v="isolated_dwelling" />
		<tag k="ssr:stedsnr" v="155701" />
	</node>
	<node id="-840684" lat="63.7152111094" lon="9.62840556363">
		<tag k="name" v="Fagertun" />
		<tag k="place" v="farm" />
		<tag k="ssr:stedsnr" v="277599" />
	</node>
	<node id="-840683" lat="63.6523027783" lon="9.44487499622">
		<tag k="name" v="Munken" />
		<tag k="place" v="farm" />
		<tag k="ssr:stedsnr" v="558049" />
	</node>
	<node id="-840682" lat="63.7136944428" lon="9.65068888238">
		<tag k="name" v="Neraune" />
		<tag k="place" v="farm" />
		<tag k="ssr:stedsnr" v="702976" />
	</node>
	<node id="-840679" lat="63.7399638906" lon="9.6782666625">
		<tag k="name" v="Døsvika" />
		<tag k="place" v="hamlet" />
		<tag k="ssr:stedsnr" v="134011" />
	</node>
	<node id="-840676" lat="63.716222219" lon="9.63290276774">
		<tag k="name" v="Skogan" />
		<tag k="place" v="farm" />
		<tag k="ssr:stedsnr" v="702973" />
	</node>
	<node id="-840675" lat="63.7332861071" lon="9.72274444551">
		<tag k="name" v="Reitan" />
		<tag k="place" v="farm" />
		<tag k="ssr:stedsnr" v="438196" />
	</node>
	<node id="-840667" lat="63.7177805538" lon="9.64066945179">
		<tag k="name" v="Nytun" />
		<tag k="place" v="farm" />
		<tag k="ssr:stedsnr" v="824973" />
	</node>
	<node id="-840665" lat="63.6800739833" lon="9.60633686828">
		<tag k="name" v="Leirbakken" />
		<tag k="place" v="farm" />
		<tag k="ssr:stedsnr" v="84565" />
	</node>
	<node id="-840663" lat="63.7352861136" lon="9.65013055939">
		<tag k="name" v="Graven" />
		<tag k="place" v="farm" />
		<tag k="ssr:stedsnr" v="35989" />
	</node>
	<node id="-840662" lat="63.6519305524" lon="9.56884166464">
		<tag k="fixme" v="consider place=hamlet" />
		<tag k="name" v="Beian" />
		<tag k="place" v="farm" />
		<tag k="ssr:stedsnr" v="155693" />
	</node>
	<node id="-840661" lat="63.7247305537" lon="9.6526722298">
		<tag k="name" v="Solstad" />
		<tag k="place" v="farm" />
		<tag k="ssr:stedsnr" v="337617" />
	</node>
	<node id="-840660" lat="63.7335055555" lon="9.66425833907">
		<tag k="name" v="Rabban" />
		<tag k="place" v="hamlet" />
		<tag k="ssr:stedsnr" v="520995" />
	</node>
	<node id="-840659" lat="63.7284999976" lon="9.63984165876">
		<tag k="name" v="Solvang" />
		<tag k="old_name" v="Solstad" />
		<tag k="place" v="farm" />
		<tag k="ssr:stedsnr" v="216626" />
	</node>
	<node id="-840656" lat="63.7165666632" lon="9.798888882">
		<tag k="name" v="Kalvåbakken" />
		<tag k="place" v="farm" />
		<tag k="ssr:stedsnr" v="377780" />
	</node>
	<node id="-840654" lat="63.6608638896" lon="9.42550832385">
		<tag k="name" v="Kilen" />
		<tag k="place" v="farm" />
		<tag k="ssr:stedsnr" v="156807" />
	</node>
	<node id="-840651" lat="63.7021583377" lon="9.71526389338">
		<tag k="name" v="Fagerlund" />
		<tag k="place" v="farm" />
		<tag k="ssr:stedsnr" v="337821" />
	</node>
	<node id="-840650" lat="63.7225777775" lon="9.58175277621">
		<tag k="name" v="Bukta" />
		<tag k="place" v="farm" />
		<tag k="ssr:stedsnr" v="216629" />
	</node>
	<node id="-840648" lat="63.7205833363" lon="9.56197778183">
		<tag k="name" v="Brynhildsbukta" />
		<tag k="place" v="farm" />
		<tag k="ssr:stedsnr" v="762648" />
	</node>
	<node id="-840646" lat="63.6424166667" lon="9.32622500471">
		<tag k="name" v="Kjerkvika" />
		<tag k="place" v="farm" />
		<tag k="ssr:stedsnr" v="13073" />
	</node>
	<node id="-840645" lat="63.6777999998" lon="9.61211666934">
		<tag k="name" v="Flatneset" />
		<tag k="place" v="farm" />
		<tag k="ssr:stedsnr" v="338935" />
	</node>
	<node id="-840643" lat="63.7335111138" lon="9.67433611661">
		<tag k="name" v="Breidablikk" />
		<tag k="place" v="farm" />
		<tag k="ssr:stedsnr" v="884776" />
	</node>
	<node id="-840640" lat="63.7174333313" lon="9.7686722146">
		<tag k="name" v="Karlsenget" />
		<tag k="place" v="farm" />
		<tag k="ssr:stedsnr" v="620782" />
	</node>
	<node id="-840639" lat="63.7094138927" lon="9.68352500462">
		<tag k="name" v="Hovland" />
		<tag k="place" v="farm" />
		<tag k="ssr:stedsnr" v="459602" />
	</node>
	<node id="-840637" lat="63.6895055515" lon="9.64944445356">
		<tag k="name" v="Slættet" />
		<tag k="place" v="farm" />
		<tag k="ssr:stedsnr" v="823602" />
	</node>
	<node id="-840636" lat="63.6730916684" lon="9.40114444052">
		<tag k="name" v="Haugland" />
		<tag k="place" v="farm" />
		<tag k="ssr:stedsnr" v="338702" />
	</node>
	<node id="-840635" lat="63.6884361132" lon="9.593522232">
		<tag k="name" v="Gjertsgarden" />
		<tag k="old_name" v="Meldal;Meldalen" />
		<tag k="place" v="farm" />
		<tag k="ssr:stedsnr" v="923034" />
	</node>
	<node id="-840634" lat="63.7376138924" lon="9.6913138986">
		<tag k="name" v="Nygård" />
		<tag k="place" v="farm" />
		<tag k="ssr:stedsnr" v="519671" />
	</node>
	<node id="-840633" lat="63.7139055571" lon="9.71453889667">
		<tag k="name" v="Vestrått" />
		<tag k="place" v="farm" />
		<tag k="ssr:stedsnr" v="389226" />
	</node>
	<node id="-840631" lat="63.7097249985" lon="9.70766389063">
		<tag k="name" v="Bjørkmo" />
		<tag k="place" v="farm" />
		<tag k="ssr:stedsnr" v="459608" />
	</node>
	<node id="-840626" lat="63.7083305577" lon="9.73815276997">
		<tag k="name" v="Heimstad" />
		<tag k="place" v="farm" />
		<tag k="ssr:stedsnr" v="437791" />
	</node>
	<node id="-840625" lat="63.684047218" lon="9.59468888178">
		<tag k="building" v="commercial" />
		<tag k="name" v="Ørland radio" />
		<tag k="ssr:stedsnr" v="762863" />
	</node>
	<node id="-840622" lat="63.7167611076" lon="9.73296667129">
		<tag k="name" v="Lunddal" />
		<tag k="place" v="farm" />
		<tag k="ssr:stedsnr" v="459606" />
	</node>
	<node id="-840621" lat="63.7272472243" lon="9.62358333161">
		<tag k="name" v="Sandan" />
		<tag k="place" v="farm" />
		<tag k="ssr:stedsnr" v="519673" />
	</node>
	<node id="-840620" lat="63.7249166667" lon="9.69531110269">
		<tag k="name" v="Heim" />
		<tag k="place" v="farm" />
		<tag k="ssr:stedsnr" v="399979" />
	</node>
	<node id="-840617" lat="63.7265250022" lon="9.61255278772">
		<tag k="name" v="Utstrand" />
		<tag k="place" v="farm" />
		<tag k="ssr:stedsnr" v="762641" />
	</node>
	<node id="-840612" lat="63.6752277766" lon="9.43485277719">
		<tag k="name" v="Lavahaugen" />
		<tag k="place" v="isolated_dwelling" />
		<tag k="ssr:stedsnr" v="540256" />
	</node>
	<node id="-840610" lat="63.6829222258" lon="9.66016111107">
		<tag k="amenity" v="school" />
		<tag k="name" v="Hovde husmorskole" />
		<tag k="ssr:stedsnr" v="520775" />
	</node>
	<node id="-840609" lat="63.7248694406" lon="9.6912583409">
		<tag k="name" v="Opphaug" />
		<tag k="place" v="farm" />
		<tag k="ssr:stedsnr" v="581990" />
	</node>
	<node id="-840607" lat="63.7080111139" lon="9.74061388415">
		<tag k="name" v="Austheim" />
		<tag k="place" v="farm" />
		<tag k="ssr:stedsnr" v="802817" />
	</node>
	<node id="-840606" lat="63.7054551775" lon="9.74596638912">
		<tag k="alt_name" v="Austrått gård" />
		<tag k="name" v="Austrått" />
		<tag k="place" v="farm" />
		<tag k="ssr:stedsnr" v="437793" />
	</node>
	<node id="-840605" lat="63.7267611144" lon="9.69330833924">
		<tag k="amenity" v="school" />
		<tag k="name" v="Opphaug skole" />
		<tag k="ssr:stedsnr" v="399749" />
	</node>
	<node id="-840599" lat="63.6552666696" lon="9.37256943511">
		<tag k="name" v="Holmen" />
		<tag k="place" v="farm" />
		<tag k="ssr:stedsnr" v="95684" />
	</node>
	<node id="-840596" lat="63.7151861087" lon="9.7545000043">
		<tag k="name" v="Solhaug" />
		<tag k="place" v="farm" />
		<tag k="ssr:stedsnr" v="581964" />
	</node>
	<node id="-840592" lat="63.7099166647" lon="9.72803610593">
		<tag k="alt_name" v="Skogheim" />
		<tag k="name" v="Skoglund" />
		<tag k="place" v="farm" />
		<tag k="ssr:stedsnr" v="377771" />
	</node>
	<node id="-840591" lat="63.7106277761" lon="9.69948610644">
		<tag k="name" v="Balsnessletta" />
		<tag k="place" v="farm" />
		<tag k="ssr:stedsnr" v="581965" />
	</node>
	<node id="-840587" lat="63.7137194467" lon="9.74756388288">
		<tag k="name" v="Vangen" />
		<tag k="place" v="farm" />
		<tag k="ssr:stedsnr" v="498839" />
	</node>
	<node id="-840586" lat="63.6813750014" lon="9.40026944604">
		<tag k="name" v="Berg" />
		<tag k="place" v="isolated_dwelling" />
		<tag k="ssr:stedsnr" v="216614" />
	</node>
	<node id="-840585" lat="63.6895166644" lon="9.60348888039">
		<tag k="name" v="Norset" />
		<tag k="place" v="farm" />
		<tag k="ssr:stedsnr" v="641637" />
	</node>
	<node id="-840578" lat="63.6522944464" lon="9.42985555336">
		<tag k="name" v="Litlvika" />
		<tag k="place" v="farm" />
		<tag k="ssr:stedsnr" v="862056" />
	</node>
	<node id="-840577" lat="63.718044701" lon="9.70636056875">
		<tag k="fixme" v="consider place=hamlet" />
		<tag k="name" v="Røstad" />
		<tag k="place" v="farm" />
		<tag k="ssr:stedsnr" v="96981" />
	</node>
	<node id="-840574" lat="63.7206500001" lon="9.58233610215">
		<tag k="fixme" v="multiple name tags, choose one and add the other to alt_name" />
		<tag k="name" v="Gardan;Ytre Uthaug" />
		<tag k="place" v="farm" />
		<tag k="ssr:stedsnr" v="266872" />
	</node>
	<node id="-840573" lat="63.7159194466" lon="9.64231110302">
		<tag k="name" v="Røyne" />
		<tag k="place" v="farm" />
		<tag k="ssr:stedsnr" v="398625" />
	</node>
	<node id="-840570" lat="63.7072194447" lon="9.63280555959">
		<tag k="name" v="Nøysomheten" />
		<tag k="place" v="farm" />
		<tag k="ssr:stedsnr" v="459594" />
	</node>
	<node id="-840567" lat="63.7217972198" lon="9.65869722914">
		<tag k="name" v="Ryggaune" />
		<tag k="place" v="farm" />
		<tag k="ssr:stedsnr" v="459819" />
	</node>
	<node id="-840566" lat="63.7183833369" lon="9.65248889669">
		<tag k="name" v="Aune" />
		<tag k="place" v="farm" />
		<tag k="ssr:stedsnr" v="337611" />
	</node>
	<node id="-840565" lat="63.6721305596" lon="9.40188611793">
		<tag k="name" v="Melskardet" />
		<tag k="place" v="hamlet" />
		<tag k="ssr:stedsnr" v="619037" />
	</node>
	<node id="-840562" lat="63.7228277816" lon="9.67499167339">
		<tag k="name" v="Berg" />
		<tag k="place" v="farm" />
		<tag k="ssr:stedsnr" v="459598" />
	</node>
	<node id="-840560" lat="63.7037694427" lon="9.70936667553">
		<tag k="name" v="Solstrand" />
		<tag k="place" v="farm" />
		<tag k="ssr:stedsnr" v="884781" />
	</node>
	<node id="-840557" lat="63.69380833" lon="9.65713889488">
		<tag k="name" v="Prestbakken" />
		<tag k="place" v="farm" />
		<tag k="ssr:stedsnr" v="35963" />
	</node>
	<node id="-840556" lat="63.6759861075" lon="9.6578361169">
		<tag k="name" v="Bergland" />
		<tag k="place" v="farm" />
		<tag k="ssr:stedsnr" v="216610" />
	</node>
	<node id="-840555" lat="63.673997219" lon="9.43295556515">
		<tag k="name" v="Nordlandet" />
		<tag k="place" v="farm" />
		<tag k="ssr:stedsnr" v="273456" />
	</node>
	<node id="-840551" lat="63.7248999966" lon="9.68526110898">
		<tag k="name" v="Hov" />
		<tag k="place" v="farm" />
		<tag k="ssr:stedsnr" v="520989" />
	</node>
	<node id="-840549" lat="63.7149972249" lon="9.63121666342">
		<tag k="name" v="Sørteigen" />
		<tag k="place" v="farm" />
		<tag k="ssr:stedsnr" v="823575" />
	</node>
	<node id="-840545" lat="63.6798002782" lon="9.59298458618">
		<tag k="fixme" v="consider place=hamlet" />
		<tag k="name" v="Grande" />
		<tag k="place" v="farm" />
		<tag k="ssr:stedsnr" v="581950" />
	</node>
	<node id="-840544" lat="63.6691861152" lon="9.41410277665">
		<tag k="name" v="Klauva" />
		<tag k="place" v="farm" />
		<tag k="ssr:stedsnr" v="520734" />
	</node>
	<node id="-840543" lat="63.7170194441" lon="9.76546388602">
		<tag k="name" v="Karlsenget" />
		<tag k="place" v="farm" />
		<tag k="ssr:stedsnr" v="35960" />
	</node>
	<node id="-840542" lat="63.6734138917" lon="9.58733334179">
		<tag k="name" v="Grande" />
		<tag k="place" v="farm" />
		<tag k="ssr:stedsnr" v="581951" />
	</node>
	<node id="-840541" lat="63.7002805583" lon="9.74457777502">
		<tag k="name" v="Austrått" />
		<tag k="place" v="isolated_dwelling" />
		<tag k="ssr:stedsnr" v="802803" />
	</node>
	<node id="-840540" lat="63.7251194426" lon="9.67461112028">
		<tag k="name" v="Berg" />
		<tag k="place" v="farm" />
		<tag k="ssr:stedsnr" v="923015" />
	</node>
	<node id="-840539" lat="63.7425055559" lon="9.688844449">
		<tag k="name" v="Østvik" />
		<tag k="place" v="farm" />
		<tag k="ssr:stedsnr" v="155872" />
	</node>
	<node id="-840536" lat="63.7188666696" lon="9.77741666549">
		<tag k="name" v="Solheim" />
		<tag k="place" v="farm" />
		<tag k="ssr:stedsnr" v="620236" />
	</node>
	<node id="-840534" lat="63.7199745543" lon="9.68512991616">
		<tag k="fixme" v="consider place=hamlet" />
		<tag k="name" v="Hov" />
		<tag k="place" v="farm" />
		<tag k="ssr:stedsnr" v="923017" />
	</node>
	<node id="-840532" lat="63.7388777734" lon="9.69173055973">
		<tag k="name" v="Østmarka" />
		<tag k="place" v="farm" />
		<tag k="ssr:stedsnr" v="155870" />
	</node>
	<node id="-840529" lat="63.669644442" lon="9.43001667121">
		<tag k="name" v="Lauvset" />
		<tag k="place" v="isolated_dwelling" />
		<tag k="ssr:stedsnr" v="702675" />
	</node>
	<node id="-840528" lat="63.6971527756" lon="9.64235832881">
		<tag k="name" v="Hårberg" />
		<tag k="place" v="farm" />
		<tag k="ssr:stedsnr" v="398610" />
	</node>
	<node id="-840527" lat="63.7017694443" lon="9.6659138864">
		<tag k="name" v="Breiosen" />
		<tag k="place" v="farm" />
		<tag k="ssr:stedsnr" v="459801" />
	</node>
	<node id="-840525" lat="63.6847527782" lon="9.60005276977">
		<tag k="name" v="Vamman" />
		<tag k="place" v="farm" />
		<tag k="ssr:stedsnr" v="34645" />
	</node>
	<node id="-840522" lat="63.709169449" lon="9.66828610261">
		<tag k="name" v="Utheim" />
		<tag k="place" v="farm" />
		<tag k="ssr:stedsnr" v="763960" />
	</node>
	<node id="-840519" lat="63.6432555516" lon="9.51721666673">
		<tag k="name" v="Nordsjøstykket" />
		<tag k="place" v="farm" />
		<tag k="ssr:stedsnr" v="520966" />
	</node>
	<node id="-840513" lat="63.7198388871" lon="9.55109444692">
		<tag k="name" v="Neset" />
		<tag k="place" v="farm" />
		<tag k="ssr:stedsnr" v="34643" />
	</node>
	<node id="-840511" lat="63.7235027741" lon="9.59134721465">
		<tag k="amenity" v="school" />
		<tag k="name" v="Uthaug skole" />
		<tag k="ssr:stedsnr" v="398845" />
	</node>
	<node id="-840510" lat="63.730980557" lon="9.67709445169">
		<tag k="name" v="Falkhytta" />
		<tag k="place" v="isolated_dwelling" />
		<tag k="ssr:stedsnr" v="823783" />
	</node>
	<node id="-840508" lat="63.7222916638" lon="9.61453056542">
		<tag k="name" v="Kotte" />
		<tag k="place" v="farm" />
		<tag k="ssr:stedsnr" v="944991" />
	</node>
	<node id="-840507" lat="63.6440194483" lon="9.52206388357">
		<tag k="name" v="Kleiva" />
		<tag k="place" v="farm" />
		<tag k="ssr:stedsnr" v="459804" />
	</node>
	<node id="-840501" lat="63.7275138853" lon="9.69484722834">
		<tag k="name" v="Geilvollen" />
		<tag k="place" v="farm" />
		<tag k="ssr:stedsnr" v="95882" />
	</node>
	<node id="-840499" lat="63.7158194411" lon="9.77115555233">
		<tag k="name" v="Ottarsbu" />
		<tag k="place" v="farm" />
		<tag k="ssr:stedsnr" v="216596" />
	</node>
	<node id="-840497" lat="63.6603888889" lon="9.41128888324">
		<tag k="alt_name" v="Djupmyr" />
		<tag k="name" v="Djupmyra" />
		<tag k="place" v="farm" />
		<tag k="ssr:stedsnr" v="520746" />
	</node>
	<node id="-840496" lat="63.7043902899" lon="9.74360083807">
		<tag k="fixme" v="consider place=hamlet" />
		<tag k="name" v="Austrått" />
		<tag k="place" v="farm" />
		<tag k="ssr:stedsnr" v="216597" />
	</node>
	<node id="-840495" lat="63.7185249994" lon="9.70649167043">
		<tag k="name" v="Vesterset" />
		<tag k="place" v="farm" />
		<tag k="ssr:stedsnr" v="823785" />
	</node>
	<node id="-840492" lat="63.7186305526" lon="9.7973083339">
		<tag k="name" v="Vindset" />
		<tag k="place" v="farm" />
		<tag k="ssr:stedsnr" v="923274" />
	</node>
	<node id="-840490" lat="63.6877805535" lon="9.65615278024">
		<tag k="amenity" v="school" />
		<tag k="name" v="Ørland ungdomsskole" />
		<tag k="ssr:stedsnr" v="952851" />
	</node>
	<node id="-840488" lat="63.7194416681" lon="9.71031111239">
		<tag k="name" v="Røstad" />
		<tag k="place" v="farm" />
		<tag k="ssr:stedsnr" v="216587" />
	</node>
	<node id="-840486" lat="63.6708722226" lon="9.42005277733">
		<tag k="name" v="Solheim" />
		<tag k="place" v="farm" />
		<tag k="ssr:stedsnr" v="520720" />
	</node>
	<node id="-840485" lat="63.6811277757" lon="9.60426666123">
		<tag k="name" v="Rabben" />
		<tag k="place" v="farm" />
		<tag k="ssr:stedsnr" v="35947" />
	</node>
	<node id="-840483" lat="63.7109305575" lon="9.68326387975">
		<tag k="name" v="Vårtun" />
		<tag k="place" v="farm" />
		<tag k="ssr:stedsnr" v="763980" />
	</node>
	<node id="-840482" lat="63.6390749967" lon="9.33878333048">
		<tag k="name" v="Hylla" />
		<tag k="place" v="isolated_dwelling" />
		<tag k="ssr:stedsnr" v="316066" />
	</node>
	<node id="-840481" lat="63.7184333327" lon="9.71109722408">
		<tag k="name" v="Bakketun" />
		<tag k="place" v="farm" />
		<tag k="ssr:stedsnr" v="216588" />
	</node>
	<node id="-840480" lat="63.6932138882" lon="9.66051111598">
		<tag k="amenity" v="sports_centre" />
		<tag k="name" v="Yrjarshall" />
		<tag k="ssr:stedsnr" v="156759" />
	</node>
	<node id="-840479" lat="63.7384222184" lon="9.67812776905">
		<tag k="fixme" v="consider place=hamlet" />
		<tag k="loc_name" v="Døsvik" />
		<tag k="name" v="Døsvika" />
		<tag k="place" v="farm" />
		<tag k="ssr:stedsnr" v="25188" />
	</node>
	<node id="-840474" lat="63.6951350438" lon="9.64188384501">
		<tag k="fixme" v="consider place=hamlet" />
		<tag k="name" v="Hårberg" />
		<tag k="place" v="farm" />
		<tag k="ssr:stedsnr" v="571194" />
	</node>
	<node id="-840467" lat="63.7250388908" lon="9.60702499834">
		<tag k="name" v="Uthaug" />
		<tag k="place" v="farm" />
		<tag k="ssr:stedsnr" v="641604" />
	</node>
	<node id="-840466" lat="63.6596666648" lon="9.40922499461">
		<tag k="name" v="Brinken" />
		<tag k="place" v="farm" />
		<tag k="ssr:stedsnr" v="520728" />
	</node>
	<node id="-840463" lat="63.7257027794" lon="9.62010277046">
		<tag k="name" v="Haugløkkan" />
		<tag k="place" v="farm" />
		<tag k="ssr:stedsnr" v="155649" />
	</node>
	<node id="-840461" lat="63.6917083292" lon="9.59114722302">
		<tag k="name" v="Langrabben" />
		<tag k="place" v="farm" />
		<tag k="ssr:stedsnr" v="155647" />
	</node>
	<node id="-840460" lat="63.7148367764" lon="9.55345577778">
		<tag k="fixme" v="consider place=hamlet" />
		<tag k="name" v="Hoøya" />
		<tag k="place" v="farm" />
		<tag k="ssr:stedsnr" v="619019" />
	</node>
	<node id="-840458" lat="63.7206194488" lon="9.6413666768">
		<tag k="name" v="Helgebu" />
		<tag k="place" v="farm" />
		<tag k="ssr:stedsnr" v="216581" />
	</node>
	<node id="-840456" lat="63.6581194436" lon="9.56909721218">
		<tag k="name" v="Nordbakken" />
		<tag k="place" v="farm" />
		<tag k="ssr:stedsnr" v="581947" />
	</node>
	<node id="-840454" lat="63.6734888872" lon="9.42644723119">
		<tag k="name" v="Strandheim" />
		<tag k="place" v="farm" />
		<tag k="ssr:stedsnr" v="945679" />
	</node>
	<node id="-840453" lat="63.6500805595" lon="9.41372500761">
		<tag k="name" v="Oksbåsen" />
		<tag k="place" v="isolated_dwelling" />
		<tag k="ssr:stedsnr" v="498059" />
	</node>
	<node id="-840452" lat="63.6523972231" lon="9.43543055415">
		<tag k="name" v="Ola" />
		<tag k="place" v="isolated_dwelling" />
		<tag k="ssr:stedsnr" v="945680" />
	</node>
	<node id="-840451" lat="63.6812361115" lon="9.59471111495">
		<tag k="name" v="Grandgården" />
		<tag k="place" v="farm" />
		<tag k="ssr:stedsnr" v="702682" />
	</node>
	<node id="-840449" lat="63.6707148152" lon="9.58127160923">
		<tag k="name" v="Markagården" />
		<tag k="place" v="farm" />
		<tag k="ssr:stedsnr" v="509487" />
	</node>
	<node id="-840447" lat="63.7187611091" lon="9.7253694437">
		<tag k="alt_name" v="Nydalen" />
		<tag k="name" v="Nydal" />
		<tag k="place" v="farm" />
		<tag k="ssr:stedsnr" v="377232" />
	</node>
	<node id="-840446" lat="63.7069555563" lon="9.69850277457">
		<tag k="name" v="Skardet" />
		<tag k="place" v="farm" />
		<tag k="ssr:stedsnr" v="398605" />
	</node>
	<node id="-840445" lat="63.7008250016" lon="9.66384721675">
		<tag k="name" v="Fjæra" />
		<tag k="place" v="farm" />
		<tag k="ssr:stedsnr" v="558017" />
	</node>
	<node id="-840444" lat="63.6723833375" lon="9.42205556482">
		<tag k="name" v="Nordlandshøgda" />
		<tag k="place" v="farm" />
		<tag k="ssr:stedsnr" v="762629" />
	</node>
	<node id="-840443" lat="63.6944777735" lon="9.59395555955">
		<tag k="name" v="Nordheim" />
		<tag k="place" v="farm" />
		<tag k="ssr:stedsnr" v="944970" />
	</node>
	<node id="-840442" lat="63.6791486118" lon="9.65430366155">
		<tag k="fixme" v="consider place=hamlet" />
		<tag k="name" v="Hovde" />
		<tag k="place" v="farm" />
		<tag k="ssr:stedsnr" v="13045" />
	</node>
	<node id="-840441" lat="63.7287277736" lon="9.61201389093">
		<tag k="name" v="Utstrand" />
		<tag k="place" v="farm" />
		<tag k="ssr:stedsnr" v="34624" />
	</node>
	<node id="-840439" lat="63.6725583318" lon="9.42709166174">
		<tag k="name" v="Slettbakken" />
		<tag k="place" v="farm" />
		<tag k="ssr:stedsnr" v="278823" />
	</node>
	<node id="-840438" lat="63.700833329" lon="9.66435555994">
		<tag k="name" v="Røsvik" />
		<tag k="place" v="farm" />
		<tag k="ssr:stedsnr" v="762598" />
	</node>
	<node id="-840436" lat="63.6568777753" lon="9.42247222308">
		<tag k="name" v="Halsen" />
		<tag k="place" v="farm" />
		<tag k="ssr:stedsnr" v="881470" />
	</node>
	<node id="-840435" lat="63.716561112" lon="9.71081110745">
		<tag k="name" v="Dalabrua" />
		<tag k="place" v="farm" />
		<tag k="ssr:stedsnr" v="762809" />
	</node>
	<node id="-840433" lat="63.7200916709" lon="9.59792222311">
		<tag k="name" v="Trøa" />
		<tag k="place" v="farm" />
		<tag k="ssr:stedsnr" v="580640" />
	</node>
	<node id="-840431" lat="63.7069805579" lon="9.77090278438">
		<tag k="name" v="Nøysomhet" />
		<tag k="place" v="farm" />
		<tag k="ssr:stedsnr" v="762595" />
	</node>
	<node id="-840429" lat="63.7158138932" lon="9.56763333527">
		<tag k="name" v="Tinnveden" />
		<tag k="place" v="farm" />
		<tag k="ssr:stedsnr" v="702647" />
	</node>
	<node id="-840428" lat="63.6964750034" lon="9.59841110744">
		<tag k="name" v="Meldalen" />
		<tag k="place" v="farm" />
		<tag k="ssr:stedsnr" v="95636" />
	</node>
	<node id="-840426" lat="63.7065583347" lon="9.69091943445">
		<tag k="name" v="Sandan" />
		<tag k="place" v="farm" />
		<tag k="ssr:stedsnr" v="216790" />
	</node>
	<node id="-840425" lat="63.7262777805" lon="9.68907221242">
		<tag k="name" v="Opphaug" />
		<tag k="place" v="farm" />
		<tag k="ssr:stedsnr" v="398806" />
	</node>
	<node id="-840417" lat="63.6831555522" lon="9.5926888804">
		<tag k="name" v="Grindvollen" />
		<tag k="place" v="farm" />
		<tag k="ssr:stedsnr" v="580642" />
	</node>
	<node id="-840407" lat="63.6929555574" lon="9.5942361201">
		<tag k="name" v="Nystykket" />
		<tag k="place" v="farm" />
		<tag k="ssr:stedsnr" v="216990" />
	</node>
	<node id="-840405" lat="63.7064944429" lon="9.73391666572">
		<tag k="alt_name" v="Bogen" />
		<tag k="name" v="Borga" />
		<tag k="place" v="farm" />
		<tag k="ssr:stedsnr" v="316840" />
	</node>
	<node id="-840404" lat="63.6936472231" lon="9.58598611894">
		<tag k="name" v="Vesterheim" />
		<tag k="place" v="farm" />
		<tag k="ssr:stedsnr" v="216991" />
	</node>
	<node id="-840403" lat="63.6779722179" lon="9.62731111284">
		<tag k="name" v="Hovdeland" />
		<tag k="place" v="farm" />
		<tag k="ssr:stedsnr" v="216782" />
	</node>
	<node id="-840401" lat="63.7026138869" lon="9.69362778177">
		<tag k="name" v="Nausthaugen" />
		<tag k="place" v="farm" />
		<tag k="ssr:stedsnr" v="762804" />
	</node>
	<node id="-840399" lat="63.720075" lon="9.59346111717">
		<tag k="name" v="Trøa" />
		<tag k="place" v="farm" />
		<tag k="ssr:stedsnr" v="945640" />
	</node>
	<node id="-840398" lat="63.6788861068" lon="9.65970832378">
		<tag k="name" v="Kranshaugen" />
		<tag k="place" v="farm" />
		<tag k="ssr:stedsnr" v="216783" />
	</node>
	<node id="-840393" lat="63.6770888873" lon="9.61998333521">
		<tag k="name" v="Ørteigen" />
		<tag k="place" v="farm" />
		<tag k="ssr:stedsnr" v="34611" />
	</node>
	<node id="-840389" lat="63.6618694405" lon="9.41072777609">
		<tag k="name" v="Overdjupmyra" />
		<tag k="place" v="farm" />
		<tag k="ssr:stedsnr" v="278809" />
	</node>
	<node id="-840387" lat="63.68261667" lon="9.61221944055">
		<tag k="name" v="Solheim (Utsikten)" />
		<tag k="place" v="farm" />
		<tag k="ssr:stedsnr" v="762613" />
	</node>
	<node id="-840386" lat="63.6755025746" lon="9.60701082567">
		<tag k="fixme" v="consider place=hamlet" />
		<tag k="name" v="Flatneset" />
		<tag k="place" v="farm" />
		<tag k="ssr:stedsnr" v="13037" />
	</node>
	<node id="-840381" lat="63.6986361129" lon="9.64774721968">
		<tag k="name" v="Tunga" />
		<tag k="place" v="farm" />
		<tag k="ssr:stedsnr" v="156962" />
	</node>
	<node id="-840379" lat="63.6773555524" lon="9.65488332495">
		<tag k="name" v="Hovde" />
		<tag k="place" v="farm" />
		<tag k="ssr:stedsnr" v="34613" />
	</node>
	<node id="-840378" lat="63.7366305545" lon="9.67391111374">
		<tag k="name" v="Kløften" />
		<tag k="place" v="farm" />
		<tag k="ssr:stedsnr" v="95618" />
	</node>
	<node id="-840375" lat="63.7272416658" lon="9.65583334254">
		<tag k="name" v="Skogly" />
		<tag k="place" v="farm" />
		<tag k="ssr:stedsnr" v="824898" />
	</node>
	<node id="-840372" lat="63.7204766368" lon="9.60274925563">
		<tag k="name" v="Hagen" />
		<tag k="place" v="farm" />
		<tag k="ssr:stedsnr" v="387575" />
	</node>
	<node id="-840366" lat="63.7080083375" lon="9.66423611575">
		<tag k="name" v="Haug" />
		<tag k="place" v="farm" />
		<tag k="ssr:stedsnr" v="338968" />
	</node>
	<node id="-840364" lat="63.7159777741" lon="9.667155563">
		<tag k="name" v="Furuly" />
		<tag k="place" v="farm" />
		<tag k="ssr:stedsnr" v="702972" />
	</node>
	<node id="-840363" lat="63.7181277782" lon="9.61876111479">
		<tag k="name" v="Jarlheim" />
		<tag k="place" v="farm" />
		<tag k="ssr:stedsnr" v="640976" />
	</node>
	<node id="-840361" lat="63.6827999969" lon="9.6334277806">
		<tag k="name" v="Ytrebø" />
		<tag k="place" v="farm" />
		<tag k="ssr:stedsnr" v="459627" />
	</node>
	<node id="-840360" lat="63.722286107" lon="9.6898555619">
		<tag k="name" v="Øyateigen" />
		<tag k="place" v="farm" />
		<tag k="ssr:stedsnr" v="217985" />
	</node>
	<node id="-840358" lat="63.7100583366" lon="9.73329167636">
		<tag k="name" v="Lundabakken" />
		<tag k="place" v="isolated_dwelling" />
		<tag k="ssr:stedsnr" v="277823" />
	</node>
	<node id="-840357" lat="63.7038972224" lon="9.67058334131">
		<tag k="name" v="Biskopvoll" />
		<tag k="place" v="farm" />
		<tag k="ssr:stedsnr" v="702965" />
	</node>
	<node id="-840355" lat="63.7249764294" lon="9.67860540543">
		<tag k="fixme" v="consider place=hamlet" />
		<tag k="name" v="Berg" />
		<tag k="place" v="farm" />
		<tag k="ssr:stedsnr" v="824968" />
	</node>
	<node id="-840354" lat="63.6846138866" lon="9.59165276845">
		<tag k="name" v="Brekken" />
		<tag k="place" v="farm" />
		<tag k="ssr:stedsnr" v="823630" />
	</node>
	<node id="-840350" lat="63.7289972222" lon="9.67482777307">
		<tag k="name" v="Ner Revelrabben" />
		<tag k="place" v="isolated_dwelling" />
		<tag k="ssr:stedsnr" v="217987" />
	</node>
	<node id="-840349" lat="63.7033861125" lon="9.63826666957">
		<tag k="name" v="Vik" />
		<tag k="place" v="farm" />
		<tag k="ssr:stedsnr" v="945972" />
	</node>
	<node id="-840347" lat="63.7119083338" lon="9.71650833814">
		<tag k="leisure" v="pitch" />
		<tag k="name" v="Skoglund travbane" />
		<tag k="ssr:stedsnr" v="399771" />
	</node>
	<node id="-840345" lat="63.6804862699" lon="9.59148122167">
		<tag k="name" v="Viken" />
		<tag k="place" v="farm" />
		<tag k="ssr:stedsnr" v="387573" />
	</node>
	<node id="-840344" lat="63.6973333332" lon="9.63789443896">
		<tag k="amenity" v="school" />
		<tag k="name" v="Hårberg skole" />
		<tag k="ssr:stedsnr" v="399772" />
	</node>
	<node id="-840342" lat="63.737469442" lon="9.67991944274">
		<tag k="name" v="Vollan" />
		<tag k="place" v="farm" />
		<tag k="ssr:stedsnr" v="337650" />
	</node>
	<node id="-840341" lat="63.7081250042" lon="9.67564444807">
		<tag k="name" v="Hovsvangen" />
		<tag k="place" v="farm" />
		<tag k="ssr:stedsnr" v="155714" />
	</node>
	<node id="-840339" lat="63.7068861146" lon="9.75834999893">
		<tag k="alt_name" v="Skjærset" />
		<tag k="name" v="Skjerset" />
		<tag k="place" v="farm" />
		<tag k="ssr:stedsnr" v="923823" />
	</node>
	<node id="-840338" lat="63.7330972239" lon="9.67692778056">
		<tag k="name" v="Grøtan" />
		<tag k="place" v="farm" />
		<tag k="ssr:stedsnr" v="134017" />
	</node>
	<node id="-840333" lat="63.6898472251" lon="9.66189166334">
		<tag k="building" v="commercial" />
		<tag k="name" v="Brekstad p.å." />
		<tag k="ssr:stedsnr" v="338739" />
	</node>
	<node id="-840330" lat="63.7100972194" lon="9.76072222182">
		<tag k="name" v="Rønningen" />
		<tag k="place" v="farm" />
		<tag k="ssr:stedsnr" v="802834" />
	</node>
	<node id="-840327" lat="63.7233898334" lon="9.59732930836">
		<tag k="fixme" v="consider place=hamlet" />
		<tag k="name" v="Uthaug" />
		<tag k="place" v="farm" />
		<tag k="ssr:stedsnr" v="944988" />
	</node>
	<node id="-840326" lat="63.7117666676" lon="9.76904444186">
		<tag k="name" v="Moen" />
		<tag k="place" v="farm" />
		<tag k="ssr:stedsnr" v="256765" />
	</node>
	<node id="-840325" lat="63.6769166653" lon="9.62375554848">
		<tag k="name" v="Strand" />
		<tag k="place" v="farm" />
		<tag k="ssr:stedsnr" v="156958" />
	</node>
	<node id="-840319" lat="63.7263499958" lon="9.59283888499">
		<tag k="fixme" v="consider place=suburb, village or hamlet" />
		<tag k="name" v="Uthaug" />
		<tag k="place" v="quarter" />
		<tag k="ssr:stedsnr" v="74016" />
	</node>
	<node id="-840318" lat="63.7050111118" lon="9.77046111654">
		<tag k="name" v="Vika" />
		<tag k="place" v="isolated_dwelling" />
		<tag k="ssr:stedsnr" v="884942" />
	</node>
	<node id="-840316" lat="63.7073111157" lon="9.76327777064">
		<tag k="name" v="Aunet" />
		<tag k="place" v="farm" />
		<tag k="ssr:stedsnr" v="862817" />
	</node>
	<node id="-840313" lat="63.7054388861" lon="9.67080000594">
		<tag k="name" v="Solheim" />
		<tag k="place" v="farm" />
		<tag k="ssr:stedsnr" v="641568" />
	</node>
	<node id="-840312" lat="63.6986166646" lon="9.67525000228">
		<tag k="name" v="Bruholmen" />
		<tag k="place" v="farm" />
		<tag k="ssr:stedsnr" v="762602" />
	</node>
	<node id="-840310" lat="63.6704833376" lon="9.42788889493">
		<tag k="name" v="Bertelsvika" />
		<tag k="place" v="farm" />
		<tag k="ssr:stedsnr" v="195041" />
	</node>
	<node id="-840309" lat="63.73913333" lon="9.66723888901">
		<tag k="name" v="Ørsleie" />
		<tag k="place" v="farm" />
		<tag k="ssr:stedsnr" v="580635" />
	</node>
	<node id="-840308" lat="63.7090472222" lon="9.78017500754">
		<tag k="name" v="Ottarsbu" />
		<tag k="place" v="farm" />
		<tag k="ssr:stedsnr" v="34602" />
	</node>
	<node id="-840307" lat="63.6855972207" lon="9.65086389179">
		<tag k="alt_name" v="Brekstad vestre" />
		<tag k="name" v="Vestre Brekstad" />
		<tag k="place" v="farm" />
		<tag k="ssr:stedsnr" v="156960" />
	</node>
	<node id="-840306" lat="63.7137249981" lon="9.80508332632">
		<tag k="alt_name" v="Kalvåa" />
		<tag k="name" v="Kalvå" />
		<tag k="place" v="farm" />
		<tag k="ssr:stedsnr" v="438796" />
	</node>
	<node id="-840304" lat="63.6419888864" lon="9.51156665947">
		<tag k="name" v="Garten" />
		<tag k="place" v="farm" />
		<tag k="ssr:stedsnr" v="277714" />
	</node>
	<node id="-840302" lat="63.6907749977" lon="9.59855833416">
		<tag k="name" v="Solem" />
		<tag k="place" v="farm" />
		<tag k="ssr:stedsnr" v="520677" />
	</node>
	<node id="-840299" lat="63.7027555599" lon="9.59056387891">
		<tag k="name" v="Djupdalen" />
		<tag k="place" v="farm" />
		<tag k="ssr:stedsnr" v="13025" />
	</node>
	<node id="-840298" lat="63.7079444473" lon="9.63202500732">
		<tag k="name" v="Øveraune" />
		<tag k="place" v="farm" />
		<tag k="ssr:stedsnr" v="762571" />
	</node>
	<node id="-840297" lat="63.7054527787" lon="9.70645833686">
		<tag k="name" v="Vangenlund" />
		<tag k="place" v="farm" />
		<tag k="ssr:stedsnr" v="34597" />
	</node>
	<node id="-840293" lat="63.6740805575" lon="9.39968611321">
		<tag k="name" v="Nordskardet" />
		<tag k="place" v="farm" />
		<tag k="ssr:stedsnr" v="155630" />
	</node>
	<node id="-840292" lat="63.7146500003" lon="9.71496387898">
		<tag k="name" v="Vestrått" />
		<tag k="place" v="hamlet" />
		<tag k="ssr:stedsnr" v="376030" />
	</node>
	<node id="-840291" lat="63.7048833308" lon="9.75947222697">
		<tag k="name" v="Postmyra" />
		<tag k="place" v="isolated_dwelling" />
		<tag k="ssr:stedsnr" v="34609" />
	</node>
	<node id="-840289" lat="63.6556194469" lon="9.55904721324">
		<tag k="name" v="Storteigen" />
		<tag k="place" v="farm" />
		<tag k="ssr:stedsnr" v="216776" />
	</node>
	<node id="-840288" lat="63.6755749981" lon="9.39821387894">
		<tag k="alt_name" v="Tinnen" />
		<tag k="name" v="Tinden" />
		<tag k="place" v="farm" />
		<tag k="ssr:stedsnr" v="213507" />
	</node>
	<node id="-840287" lat="63.7333472202" lon="9.63909167301">
		<tag k="name" v="Strandheim" />
		<tag k="place" v="farm" />
		<tag k="ssr:stedsnr" v="580621" />
	</node>
	<node id="-840285" lat="63.7357138854" lon="9.70614443556">
		<tag k="name" v="Vonheim" />
		<tag k="place" v="farm" />
		<tag k="ssr:stedsnr" v="35895" />
	</node>
	<node id="-840284" lat="63.7176999976" lon="9.70140277834">
		<tag k="name" v="Røstad" />
		<tag k="place" v="farm" />
		<tag k="ssr:stedsnr" v="580814" />
	</node>
	<node id="-840283" lat="63.7354388851" lon="9.66920276859">
		<tag k="name" v="Kløften" />
		<tag k="place" v="farm" />
		<tag k="ssr:stedsnr" v="945625" />
	</node>
	<node id="-840281" lat="63.6626555551" lon="9.3771444498">
		<tag k="name" v="Skaget" />
		<tag k="place" v="farm" />
		<tag k="ssr:stedsnr" v="316039" />
	</node>
	<node id="-840279" lat="63.7259305555" lon="9.6998805585">
		<tag k="name" v="Geilvollen" />
		<tag k="place" v="farm" />
		<tag k="ssr:stedsnr" v="762585" />
	</node>
	<node id="-840277" lat="63.7290111109" lon="9.6430055605">
		<tag k="name" v="Myrvang" />
		<tag k="place" v="farm" />
		<tag k="ssr:stedsnr" v="399875" />
	</node>
	<node id="-840275" lat="63.7108188365" lon="9.69382901812">
		<tag k="name" v="Balsnes" />
		<tag k="place" v="farm" />
		<tag k="ssr:stedsnr" v="437031" />
	</node>
	<node id="-840274" lat="63.7404666677" lon="9.69938611129">
		<tag k="name" v="Seljevollhaugen" />
		<tag k="place" v="farm" />
		<tag k="ssr:stedsnr" v="156887" />
	</node>
	<node id="-840272" lat="63.6750055547" lon="9.43399999566">
		<tag k="name" v="Reitan" />
		<tag k="place" v="locality" />
		<tag k="ssr:stedsnr" v="338797" />
	</node>
	<node id="-840271" lat="63.711819449" lon="9.62982221373">
		<tag k="name" v="Røyne" />
		<tag k="place" v="farm" />
		<tag k="ssr:stedsnr" v="277648" />
	</node>
	<node id="-840269" lat="63.7271472237" lon="9.69062223033">
		<tag k="building" v="commercial" />
		<tag k="name" v="Televerket" />
		<tag k="ssr:stedsnr" v="763863" />
	</node>
	<node id="-840268" lat="63.6637250019" lon="9.4036916727">
		<tag k="name" v="Storfosen gods" />
		<tag k="place" v="farm" />
		<tag k="ssr:stedsnr" v="581826" />
	</node>
	<node id="-840259" lat="63.6799027767" lon="9.59342499951">
		<tag k="fixme" v="consider place=hamlet" />
		<tag k="name" v="Grande" />
		<tag k="place" v="village" />
		<tag k="ssr:stedsnr" v="73041" />
	</node>
	<node id="-840258" lat="63.6639527791" lon="9.41584167196">
		<tag k="name" v="Myra" />
		<tag k="place" v="farm" />
		<tag k="ssr:stedsnr" v="216691" />
	</node>
	<node id="-840248" lat="63.7127999964" lon="9.74314722777">
		<tag k="alt_name" v="Skjærstad" />
		<tag k="name" v="Skjerstad" />
		<tag k="place" v="farm" />
		<tag k="ssr:stedsnr" v="559803" />
	</node>
	<node id="-840246" lat="63.7098249979" lon="9.76621943649">
		<tag k="name" v="Borg" />
		<tag k="place" v="farm" />
		<tag k="ssr:stedsnr" v="559802" />
	</node>
	<node id="-840243" lat="63.7267421757" lon="9.62284386863">
		<tag k="fixme" v="consider place=hamlet" />
		<tag k="name" v="Utstrand" />
		<tag k="place" v="farm" />
		<tag k="ssr:stedsnr" v="277652" />
	</node>
	<node id="-840241" lat="63.7097777809" lon="9.62905832468">
		<tag k="name" v="Mikkelhaug" />
		<tag k="place" v="farm" />
		<tag k="ssr:stedsnr" v="945563" />
	</node>
	<node id="-840239" lat="63.7086638893" lon="9.69303889006">
		<tag k="name" v="Brubakken" />
		<tag k="place" v="farm" />
		<tag k="ssr:stedsnr" v="702798" />
	</node>
	<node id="-840237" lat="63.6656055567" lon="9.42638056384">
		<tag k="alt_name" v="Langtinnen" />
		<tag k="name" v="Langtinden" />
		<tag k="place" v="farm" />
		<tag k="ssr:stedsnr" v="802069" />
	</node>
	<node id="-840235" lat="63.6869833319" lon="9.66539444142">
		<tag k="name" v="Brekstad" />
		<tag k="place" v="town" />
		<tag k="ssr:stedsnr" v="680040" />
	</node>
	<node id="-840234" lat="63.6575972206" lon="9.4295694347">
		<tag k="name" v="Moa" />
		<tag k="place" v="farm" />
		<tag k="ssr:stedsnr" v="823691" />
	</node>
	<node id="-840233" lat="63.7242444473" lon="9.69510833298">
		<tag k="name" v="Trøen" />
		<tag k="place" v="farm" />
		<tag k="ssr:stedsnr" v="640827" />
	</node>
	<node id="-840231" lat="63.705313885" lon="9.66848888474">
		<tag k="name" v="Prestland" />
		<tag k="place" v="farm" />
		<tag k="ssr:stedsnr" v="945567" />
	</node>
	<node id="-840230" lat="63.6793999974" lon="9.42295000976">
		<tag k="name" v="Mønsterplassen" />
		<tag k="place" v="farm" />
		<tag k="ssr:stedsnr" v="134048" />
	</node>
	<node id="-840227" lat="63.650997218" lon="9.39308055461">
		<tag k="name" v="Vintervoll" />
		<tag k="place" v="farm" />
		<tag k="ssr:stedsnr" v="216687" />
	</node>
	<node id="-840226" lat="63.7177444423" lon="9.71397500143">
		<tag k="building" v="industrial" />
		<tag k="industrial" v="factory" />
		<tag k="name" v="Dalabakken mølle" />
		<tag k="ssr:stedsnr" v="460982" />
	</node>
	<node id="-840222" lat="63.7208333309" lon="9.57603889181">
		<tag k="name" v="Skånberget" />
		<tag k="place" v="farm" />
		<tag k="ssr:stedsnr" v="703000" />
	</node>
	<node id="-840219" lat="63.7288333327" lon="9.68342777163">
		<tag k="name" v="Opphaug" />
		<tag k="place" v="farm" />
		<tag k="ssr:stedsnr" v="459885" />
	</node>
	<node id="-840217" lat="63.6638500031" lon="9.38810278078">
		<tag k="name" v="Fagerhaug" />
		<tag k="place" v="farm" />
		<tag k="ssr:stedsnr" v="884608" />
	</node>
	<node id="-840216" lat="63.7224138875" lon="9.61926389113">
		<tag k="name" v="Husa" />
		<tag k="place" v="farm" />
		<tag k="ssr:stedsnr" v="337666" />
	</node>
	<node id="-840214" lat="63.6953277775" lon="9.59740555613">
		<tag k="name" v="Grønbakken" />
		<tag k="place" v="farm" />
		<tag k="ssr:stedsnr" v="337667" />
	</node>
	<node id="-840210" lat="63.714883334" lon="9.76022222597">
		<tag k="alt_name" v="Trellskogen" />
		<tag k="name" v="Trælskogan" />
		<tag k="place" v="farm" />
		<tag k="ssr:stedsnr" v="924792" />
	</node>
	<node id="-840209" lat="63.6646222236" lon="9.57482223076">
		<tag k="name" v="Rædergården" />
		<tag k="place" v="farm" />
		<tag k="ssr:stedsnr" v="691535" />
	</node>
	<node id="-840208" lat="63.6727555568" lon="9.40266667062">
		<tag k="name" v="Aune" />
		<tag k="place" v="farm" />
		<tag k="ssr:stedsnr" v="581817" />
	</node>
	<node id="-840207" lat="63.7135055565" lon="9.5396999959">
		<tag k="name" v="Hoøya" />
		<tag k="place" v="farm" />
		<tag k="ssr:stedsnr" v="762704" />
	</node>
	<node id="-840200" lat="63.6521638912" lon="9.39148610681">
		<tag k="name" v="Steinan" />
		<tag k="place" v="farm" />
		<tag k="ssr:stedsnr" v="274401" />
	</node>
	<node id="-840197" lat="63.6630583356" lon="9.40723334045">
		<tag k="fixme" v="consider place=hamlet" />
		<tag k="name" v="Storfosna" />
		<tag k="place" v="village" />
		<tag k="ssr:stedsnr" v="923060" />
	</node>
	<node id="-840193" lat="63.7133194403" lon="9.72059444823">
		<tag k="name" v="Lundset" />
		<tag k="place" v="farm" />
		<tag k="ssr:stedsnr" v="559795" />
	</node>
	<node id="-840192" lat="63.7245111116" lon="9.60268889285">
		<tag k="name" v="Ulriksborg" />
		<tag k="place" v="farm" />
		<tag k="ssr:stedsnr" v="640994" />
	</node>
	<node id="-840189" lat="63.7047590661" lon="9.63486663772">
		<tag k="fixme" v="consider place=hamlet" />
		<tag k="name" v="Vik" />
		<tag k="place" v="farm" />
		<tag k="ssr:stedsnr" v="73031" />
	</node>
	<node id="-840188" lat="63.7360722232" lon="9.65651110759">
		<tag k="name" v="Litlbakken" />
		<tag k="place" v="farm" />
		<tag k="ssr:stedsnr" v="824987" />
	</node>
	<node id="-840185" lat="63.7276936038" lon="9.68895364208">
		<tag k="fixme" v="consider place=hamlet" />
		<tag k="name" v="Opphaug" />
		<tag k="place" v="farm" />
		<tag k="ssr:stedsnr" v="459643" />
	</node>
	<node id="-840184" lat="63.6420273626" lon="9.52067485907">
		<tag k="fixme" v="consider place=hamlet" />
		<tag k="name" v="Garten" />
		<tag k="place" v="farm" />
		<tag k="ssr:stedsnr" v="971018" />
	</node>
	<node id="-840183" lat="63.6634464277" lon="9.40014516802">
		<tag k="fixme" v="consider place=hamlet" />
		<tag k="name" v="Storfosna" />
		<tag k="place" v="farm" />
		<tag k="ssr:stedsnr" v="971017" />
	</node>
	<node id="-840181" lat="63.6617972209" lon="9.3870138799">
		<tag k="name" v="Lunde" />
		<tag k="place" v="farm" />
		<tag k="ssr:stedsnr" v="35810" />
	</node>
	<node id="-840180" lat="63.6797111112" lon="9.42363333439">
		<tag k="name" v="Nordheim" />
		<tag k="place" v="farm" />
		<tag k="ssr:stedsnr" v="399790" />
	</node>
	<node id="-840179" lat="63.6439145305" lon="9.33346465007">
		<tag k="fixme" v="consider place=hamlet" />
		<tag k="name" v="Kråkvåg" />
		<tag k="place" v="farm" />
		<tag k="ssr:stedsnr" v="971016" />
	</node>
	<node id="-840175" lat="63.7370694453" lon="9.705252771">
		<tag k="name" v="Stokksletta" />
		<tag k="place" v="farm" />
		<tag k="ssr:stedsnr" v="459646" />
	</node>
	<node id="-840173" lat="63.6751277821" lon="9.43674999349">
		<tag k="name" v="Nordlandsneset" />
		<tag k="place" v="farm" />
		<tag k="ssr:stedsnr" v="641693" />
	</node>
	<node id="-840166" lat="63.6750138915" lon="9.39482499937">
		<tag k="name" v="Holmen" />
		<tag k="place" v="farm" />
		<tag k="ssr:stedsnr" v="641688" />
	</node>
	<node id="-840165" lat="63.6892916667" lon="9.65381944563">
		<tag k="name" v="Kringsjå" />
		<tag k="place" v="farm" />
		<tag k="ssr:stedsnr" v="277627" />
	</node>
	<node id="-840164" lat="63.6613527765" lon="9.38235277453">
		<tag k="name" v="Skålvika" />
		<tag k="place" v="farm" />
		<tag k="ssr:stedsnr" v="762711" />
	</node>
	<node id="-840163" lat="63.7319111069" lon="9.6954444456">
		<tag k="name" v="Elvteigen" />
		<tag k="place" v="farm" />
		<tag k="ssr:stedsnr" v="884613" />
	</node>
	<node id="-840162" lat="63.6744972264" lon="9.42271666901">
		<tag k="name" v="Sletta" />
		<tag k="place" v="farm" />
		<tag k="ssr:stedsnr" v="459647" />
	</node>
	<node id="-840161" lat="63.7119111071" lon="9.67814721531">
		<tag k="name" v="Bergly" />
		<tag k="place" v="farm" />
		<tag k="ssr:stedsnr" v="460972" />
	</node>
	<node id="-840160" lat="63.7382611148" lon="9.67660277432">
		<tag k="name" v="Døsvika" />
		<tag k="place" v="farm" />
		<tag k="ssr:stedsnr" v="338988" />
	</node>
	<node id="-840159" lat="63.6588277765" lon="9.41510833095">
		<tag k="name" v="Larsvika" />
		<tag k="place" v="isolated_dwelling" />
		<tag k="ssr:stedsnr" v="641686" />
	</node>
	<node id="-840157" lat="63.7372472198" lon="9.70808889524">
		<tag k="name" v="Stokksletta" />
		<tag k="place" v="farm" />
		<tag k="ssr:stedsnr" v="630487" />
	</node>
	<node id="-840154" lat="63.7300222206" lon="9.64797222032">
		<tag k="name" v="Grinden" />
		<tag k="place" v="farm" />
		<tag k="ssr:stedsnr" v="884617" />
	</node>
	<node id="-840152" lat="63.7226472238" lon="9.69991944423">
		<tag k="name" v="Røstad" />
		<tag k="place" v="farm" />
		<tag k="ssr:stedsnr" v="134028" />
	</node>
	<node id="-840144" lat="63.6438499957" lon="9.51712777121">
		<tag k="name" v="Litlnesvika" />
		<tag k="place" v="farm" />
		<tag k="ssr:stedsnr" v="762794" />
	</node>
	<node id="-840141" lat="63.7245111086" lon="9.68303611492">
		<tag k="name" v="Hov" />
		<tag k="place" v="farm" />
		<tag k="ssr:stedsnr" v="762580" />
	</node>
	<node id="-840140" lat="63.6727083374" lon="9.39688054958">
		<tag k="name" v="Sørskardet" />
		<tag k="place" v="farm" />
		<tag k="ssr:stedsnr" v="213482" />
	</node>
	<node id="-840139" lat="63.7092194486" lon="9.65906388596">
		<tag k="name" v="Rønneberg" />
		<tag k="place" v="farm" />
		<tag k="ssr:stedsnr" v="34581" />
	</node>
	<node id="-840134" lat="63.7311833335" lon="9.69252499133">
		<tag k="name" v="Elvenden" />
		<tag k="place" v="farm" />
		<tag k="ssr:stedsnr" v="399871" />
	</node>
	<node id="-840132" lat="63.7128694459" lon="9.69049445152">
		<tag k="name" v="Korsvad" />
		<tag k="place" v="farm" />
		<tag k="ssr:stedsnr" v="762582" />
	</node>
	<node id="-840130" lat="63.7286972259" lon="9.69059444373">
		<tag k="name" v="Opphaug" />
		<tag k="place" v="farm" />
		<tag k="ssr:stedsnr" v="762796" />
	</node>
	<node id="-840129" lat="63.7206861133" lon="9.57146388063">
		<tag k="name" v="Skardet" />
		<tag k="place" v="farm" />
		<tag k="ssr:stedsnr" v="580601" />
	</node>
	<node id="-840128" lat="63.6726777739" lon="9.4299888956">
		<tag k="name" v="Grønnvoll" />
		<tag k="place" v="farm" />
		<tag k="ssr:stedsnr" v="702631" />
	</node>
	<node id="-840126" lat="63.7069333358" lon="9.64930000498">
		<tag k="name" v="Austbø" />
		<tag k="place" v="farm" />
		<tag k="ssr:stedsnr" v="702626" />
	</node>
	<node id="-840123" lat="63.731219447" lon="9.65373333122">
		<tag k="fixme" v="consider place=hamlet" />
		<tag k="name" v="Innstrand" />
		<tag k="place" v="farm" />
		<tag k="ssr:stedsnr" v="762791" />
	</node>
	<node id="-840121" lat="63.7020444411" lon="9.72043055496">
		<tag k="name" v="Østlund" />
		<tag k="place" v="farm" />
		<tag k="ssr:stedsnr" v="823954" />
	</node>
	<node id="-840120" lat="63.73444722" lon="9.64890555655">
		<tag k="name" v="Rabben" />
		<tag k="place" v="farm" />
		<tag k="ssr:stedsnr" v="945619" />
	</node>
	<node id="-840118" lat="63.6910138923" lon="9.66498332367">
		<tag k="building" v="industrial" />
		<tag k="industrial" v="factory" />
		<tag k="name" v="Ørland meieri" />
		<tag k="ssr:stedsnr" v="278787" />
	</node>
	<node id="-840117" lat="63.6708305578" lon="9.41391110495">
		<tag k="name" v="Torbuvoll" />
		<tag k="place" v="farm" />
		<tag k="ssr:stedsnr" v="394475" />
	</node>
	<node id="-840115" lat="63.720205558" lon="9.70356111742">
		<tag k="name" v="Skalandet s." />
		<tag k="place" v="farm" />
		<tag k="ssr:stedsnr" v="155803" />
	</node>
	<node id="-840113" lat="63.7120194483" lon="9.65513055974">
		<tag k="name" v="Solheim" />
		<tag k="place" v="farm" />
		<tag k="ssr:stedsnr" v="34578" />
	</node>
	<node id="-840110" lat="63.7274249962" lon="9.63618611412">
		<tag k="name" v="Haggan" />
		<tag k="place" v="farm" />
		<tag k="ssr:stedsnr" v="945622" />
	</node>
	<node id="-840108" lat="63.6791666692" lon="9.65877500773">
		<tag k="name" v="Flåten" />
		<tag k="place" v="farm" />
		<tag k="ssr:stedsnr" v="702621" />
	</node>
	<node id="-840103" lat="63.6849138921" lon="9.66073611968">
		<tag k="fixme" v="consider place=hamlet" />
		<tag k="name" v="Brekstad" />
		<tag k="place" v="farm" />
		<tag k="ssr:stedsnr" v="95589" />
	</node>
	<node id="-840100" lat="63.6977499988" lon="9.59809445326">
		<tag k="name" v="Melbu" />
		<tag k="place" v="farm" />
		<tag k="ssr:stedsnr" v="519995" />
	</node>
	<node id="-840099" lat="63.7279555572" lon="9.68416945071">
		<tag k="building" v="commercial" />
		<tag k="name" v="Opphaug postkontor" />
		<tag k="ssr:stedsnr" v="885764" />
	</node>
	<node id="-840098" lat="63.7299500026" lon="9.65335278017">
		<tag k="name" v="Myråkran" />
		<tag k="place" v="farm" />
		<tag k="ssr:stedsnr" v="885987" />
	</node>
	<node id="-840097" lat="63.6711027741" lon="9.40312500592">
		<tag k="name" v="Bergheim" />
		<tag k="place" v="farm" />
		<tag k="ssr:stedsnr" v="580608" />
	</node>
	<node id="-840095" lat="63.7245166646" lon="9.61607221798">
		<tag k="name" v="Utstrand" />
		<tag k="place" v="farm" />
		<tag k="ssr:stedsnr" v="823710" />
	</node>
	<node id="-840092" lat="63.7314944451" lon="9.67555555134">
		<tag k="name" v="Grøtan" />
		<tag k="place" v="farm" />
		<tag k="ssr:stedsnr" v="278990" />
	</node>
	<node id="-840091" lat="63.7100638862" lon="9.63968889757">
		<tag k="name" v="Vårtun" />
		<tag k="place" v="farm" />
		<tag k="ssr:stedsnr" v="702590" />
	</node>
	<node id="-840088" lat="63.7103722237" lon="9.68795000156">
		<tag k="name" v="Utne" />
		<tag k="place" v="farm" />
		<tag k="ssr:stedsnr" v="580584" />
	</node>
	<node id="-840086" lat="63.7220361111" lon="9.65829999455">
		<tag k="name" v="Kleiva" />
		<tag k="place" v="farm" />
		<tag k="ssr:stedsnr" v="498019" />
	</node>
	<node id="-840085" lat="63.7068166663" lon="9.70221111701">
		<tag k="name" v="Vangenstein" />
		<tag k="place" v="farm" />
		<tag k="ssr:stedsnr" v="95582" />
	</node>
	<node id="-840084" lat="63.7222416686" lon="9.58650277902">
		<tag k="name" v="Austheim" />
		<tag k="place" v="farm" />
		<tag k="ssr:stedsnr" v="34999" />
	</node>
	<node id="-840083" lat="63.7101527759" lon="9.68553333202">
		<tag k="name" v="Hovin" />
		<tag k="place" v="farm" />
		<tag k="ssr:stedsnr" v="278986" />
	</node>
	<node id="-840081" lat="63.7181361136" lon="9.71269443716">
		<tag k="name" v="Dalabakken" />
		<tag k="place" v="farm" />
		<tag k="ssr:stedsnr" v="641971" />
	</node>
	<node id="-840074" lat="63.6631944466" lon="9.37700556388">
		<tag k="name" v="Nordskaget" />
		<tag k="place" v="farm" />
		<tag k="ssr:stedsnr" v="824815" />
	</node>
	<node id="-840073" lat="63.6686666662" lon="9.40476110677">
		<tag k="name" v="Haugan" />
		<tag k="place" v="farm" />
		<tag k="ssr:stedsnr" v="824816" />
	</node>
	<node id="-840072" lat="63.685269446" lon="9.59597222438">
		<tag k="name" v="Revlan" />
		<tag k="place" v="farm" />
		<tag k="ssr:stedsnr" v="338595" />
	</node>
	<node id="-840069" lat="63.709875003" lon="9.63506944477">
		<tag k="name" v="Røyne" />
		<tag k="place" v="farm" />
		<tag k="ssr:stedsnr" v="519983" />
	</node>
	<node id="-840065" lat="63.7270055599" lon="9.73112778399">
		<tag k="name" v="Rusaset" />
		<tag k="place" v="farm" />
		<tag k="ssr:stedsnr" v="256205" />
	</node>
	<node id="-840064" lat="63.7213000002" lon="9.70078055092">
		<tag k="name" v="Skalandet n." />
		<tag k="place" v="farm" />
		<tag k="ssr:stedsnr" v="641964" />
	</node>
	<node id="-840062" lat="63.7087611117" lon="9.68676389469">
		<tag k="name" v="Størset" />
		<tag k="place" v="farm" />
		<tag k="ssr:stedsnr" v="885947" />
	</node>
	<node id="-840060" lat="63.7171222216" lon="9.68521111016">
		<tag k="name" v="Hov" />
		<tag k="place" v="farm" />
		<tag k="ssr:stedsnr" v="95572" />
	</node>
	<node id="-840059" lat="63.7090500015" lon="9.69968888065">
		<tag k="name" v="Sandan n." />
		<tag k="place" v="farm" />
		<tag k="ssr:stedsnr" v="945581" />
	</node>
	<node id="-840058" lat="63.7115722255" lon="9.70271111572">
		<tag k="name" v="Vesterheim" />
		<tag k="place" v="farm" />
		<tag k="ssr:stedsnr" v="702604" />
	</node>
	<node id="-840057" lat="63.7090111078" lon="9.72973333926">
		<tag k="name" v="Lundasletta" />
		<tag k="place" v="farm" />
		<tag k="ssr:stedsnr" v="317732" />
	</node>
	<node id="-840054" lat="63.6817388906" lon="9.60173611297">
		<tag k="name" v="Grande" />
		<tag k="place" v="farm" />
		<tag k="ssr:stedsnr" v="34776" />
	</node>
	<node id="-840052" lat="63.6996999971" lon="9.73740276781">
		<tag k="name" v="Skjegghaugen" />
		<tag k="place" v="farm" />
		<tag k="ssr:stedsnr" v="195794" />
	</node>
	<node id="-840051" lat="63.6532583371" lon="9.42770554587">
		<tag k="name" v="Sanden" />
		<tag k="place" v="farm" />
		<tag k="ssr:stedsnr" v="459696" />
	</node>
	<node id="-840050" lat="63.6855722252" lon="9.60515000565">
		<tag k="name" v="Falkhyttmyra" />
		<tag k="place" v="farm" />
		<tag k="ssr:stedsnr" v="155996" />
	</node>
	<node id="-840048" lat="63.6511611151" lon="9.39292500786">
		<tag k="name" v="Aunet" />
		<tag k="place" v="farm" />
		<tag k="ssr:stedsnr" v="680056" />
	</node>
	<node id="-840046" lat="63.6818111101" lon="9.65977778069">
		<tag k="name" v="Hovde" />
		<tag k="place" v="farm" />
		<tag k="ssr:stedsnr" v="338806" />
	</node>
	<node id="-840045" lat="63.699033329" lon="9.63591110886">
		<tag k="name" v="Nygården" />
		<tag k="place" v="farm" />
		<tag k="ssr:stedsnr" v="520635" />
	</node>
	<node id="-840044" lat="63.7211305545" lon="9.65735555531">
		<tag k="name" v="Aks" />
		<tag k="place" v="farm" />
		<tag k="ssr:stedsnr" v="95567" />
	</node>
	<node id="-840040" lat="63.7339749955" lon="9.65596667362">
		<tag k="name" v="Innstrand" />
		<tag k="place" v="hamlet" />
		<tag k="ssr:stedsnr" v="498011" />
	</node>
	<node id="-840036" lat="63.7048211962" lon="9.63975648439">
		<tag k="name" v="Vik" />
		<tag k="place" v="farm" />
		<tag k="ssr:stedsnr" v="34771" />
	</node>
	<node id="-840033" lat="63.7330166625" lon="9.67338889008">
		<tag k="name" v="Rabban" />
		<tag k="place" v="farm" />
		<tag k="ssr:stedsnr" v="641983" />
	</node>
	<node id="-840031" lat="63.7121583317" lon="9.73517776936">
		<tag k="name" v="Borgestad" />
		<tag k="place" v="farm" />
		<tag k="ssr:stedsnr" v="13796" />
	</node>
	<node id="-840024" lat="63.6952888863" lon="9.6409916757">
		<tag k="name" v="Hårberg" />
		<tag k="place" v="farm" />
		<tag k="ssr:stedsnr" v="885958" />
	</node>
	<node id="-840023" lat="63.6823861096" lon="9.39623334069">
		<tag k="name" v="Dalahamna" />
		<tag k="place" v="isolated_dwelling" />
		<tag k="ssr:stedsnr" v="459710" />
	</node>
	<node id="-840020" lat="63.7152055529" lon="9.68571666202">
		<tag k="name" v="Hov" />
		<tag k="place" v="farm" />
		<tag k="ssr:stedsnr" v="580578" />
	</node>
	<node id="-840019" lat="63.7020888872" lon="9.71432222463">
		<tag k="name" v="Fitjan" />
		<tag k="place" v="hamlet" />
		<tag k="ssr:stedsnr" v="316025" />
	</node>
	<node id="-840017" lat="63.6555333367" lon="9.56952500831">
		<tag k="fixme" v="consider place=hamlet" />
		<tag k="name" v="Beian" />
		<tag k="place" v="village" />
		<tag k="ssr:stedsnr" v="802086" />
	</node>
	<node id="-840016" lat="63.6553019299" lon="9.56709218658">
		<tag k="fixme" v="consider place=hamlet" />
		<tag k="name" v="Bakken" />
		<tag k="place" v="farm" />
		<tag k="ssr:stedsnr" v="337711" />
	</node>
	<node id="-840014" lat="63.6737777758" lon="9.42476667446">
		<tag k="name" v="Nordlandet" />
		<tag k="place" v="hamlet" />
		<tag k="ssr:stedsnr" v="741048" />
	</node>
	<node id="-840013" lat="63.6768944425" lon="9.64746943871">
		<tag k="alt_name" v="Hovde vestre" />
		<tag k="name" v="Vestre Hovde" />
		<tag k="place" v="farm" />
		<tag k="ssr:stedsnr" v="520641" />
	</node>
	<node id="-840011" lat="63.6664972252" lon="9.42776944728">
		<tag k="name" v="Tinnvika" />
		<tag k="place" v="farm" />
		<tag k="ssr:stedsnr" v="884672" />
	</node>
	<node id="-840008" lat="63.6830861123" lon="9.64555000715">
		<tag k="name" v="Reksterberget" />
		<tag k="place" v="farm" />
		<tag k="ssr:stedsnr" v="885921" />
	</node>
	<node id="-840007" lat="63.7109444425" lon="9.66075834322">
		<tag k="name" v="Ødegård" />
		<tag k="place" v="farm" />
		<tag k="ssr:stedsnr" v="520613" />
	</node>
	<node id="-840004" lat="63.7238972192" lon="9.68925554959">
		<tag k="name" v="Breiteigen" />
		<tag k="place" v="farm" />
		<tag k="ssr:stedsnr" v="945792" />
	</node>
	<node id="-839999" lat="63.7214367078" lon="9.69953638957">
		<tag k="fixme" v="consider place=hamlet" />
		<tag k="name" v="Røstad" />
		<tag k="place" v="village" />
		<tag k="ssr:stedsnr" v="641945" />
	</node>
	<node id="-839996" lat="63.652422225" lon="9.42085278177">
		<tag k="name" v="Våa" />
		<tag k="place" v="farm" />
		<tag k="ssr:stedsnr" v="73049" />
	</node>
	<node id="-839994" lat="63.7258750008" lon="9.62253333602">
		<tag k="name" v="Utstrand" />
		<tag k="place" v="hamlet" />
		<tag k="ssr:stedsnr" v="316012" />
	</node>
	<node id="-839993" lat="63.7202249984" lon="9.64208889837">
		<tag k="name" v="Ryggen" />
		<tag k="place" v="farm" />
		<tag k="ssr:stedsnr" v="520617" />
	</node>
	<node id="-839991" lat="63.6798666696" lon="9.65891943855">
		<tag k="name" v="Hovde" />
		<tag k="place" v="farm" />
		<tag k="ssr:stedsnr" v="885927" />
	</node>
	<node id="-839990" lat="63.7315611101" lon="9.69642222676">
		<tag k="name" v="Opphaug" />
		<tag k="place" v="farm" />
		<tag k="ssr:stedsnr" v="277654" />
	</node>
	<node id="-839988" lat="63.6732472206" lon="9.59656110571">
		<tag k="name" v="Grande" />
		<tag k="place" v="farm" />
		<tag k="ssr:stedsnr" v="338802" />
	</node>
	<node id="-839987" lat="63.7187138874" lon="9.75710833686">
		<tag k="name" v="Myrenget" />
		<tag k="place" v="farm" />
		<tag k="ssr:stedsnr" v="316272" />
	</node>
	<node id="-839986" lat="63.7151111077" lon="9.63821944424">
		<tag k="name" v="Røyne" />
		<tag k="place" v="farm" />
		<tag k="ssr:stedsnr" v="155973" />
	</node>
	<node id="-839985" lat="63.7139355395" lon="9.62991112134">
		<tag k="fixme" v="consider place=hamlet" />
		<tag k="name" v="Røyne" />
		<tag k="place" v="farm" />
		<tag k="ssr:stedsnr" v="437029" />
	</node>
	<node id="-839984" lat="63.7050638879" lon="9.76178056127">
		<tag k="alt_name" v="Skjæret" />
		<tag k="name" v="Skjeret" />
		<tag k="place" v="farm" />
		<tag k="ssr:stedsnr" v="680838" />
	</node>
	<node id="-839983" lat="63.7208250033" lon="9.55745556476">
		<tag k="name" v="Rundbukta" />
		<tag k="place" v="farm" />
		<tag k="ssr:stedsnr" v="520675" />
	</node>
	<node id="-839980" lat="63.6968916642" lon="9.63993889549">
		<tag k="fixme" v="consider place=hamlet" />
		<tag k="name" v="Hårberg" />
		<tag k="place" v="village" />
		<tag k="ssr:stedsnr" v="498032" />
	</node>
	<node id="-839977" lat="63.6913277768" lon="9.65748889542">
		<tag k="leisure" v="pitch" />
		<tag k="name" v="Ørland stadion" />
		<tag k="ssr:stedsnr" v="278791" />
	</node>
	<node id="-839974" lat="63.7372916646" lon="9.66308887987">
		<tag k="name" v="Ørsleie" />
		<tag k="place" v="farm" />
		<tag k="ssr:stedsnr" v="95610" />
	</node>
	<node id="-839972" lat="63.7208169364" lon="9.64520954485">
		<tag k="fixme" v="consider place=hamlet" />
		<tag k="name" v="Ryggen" />
		<tag k="place" v="farm" />
		<tag k="ssr:stedsnr" v="376021" />
	</node>
	<node id="-839970" lat="63.7029749996" lon="9.69685554942">
		<tag k="name" v="Fjæra" />
		<tag k="place" v="farm" />
		<tag k="ssr:stedsnr" v="823949" />
	</node>
	<node id="-839969" lat="63.7315361115" lon="9.64967500443">
		<tag k="name" v="Håbakken" />
		<tag k="place" v="farm" />
		<tag k="ssr:stedsnr" v="945616" />
	</node>
	<node id="-839968" lat="63.7277361151" lon="9.67933610358">
		<tag k="name" v="Hov" />
		<tag k="place" v="isolated_dwelling" />
		<tag k="ssr:stedsnr" v="338618" />
	</node>
	<node id="-839967" lat="63.7164333357" lon="9.62762778032">
		<tag k="name" v="Gullteigan" />
		<tag k="place" v="farm" />
		<tag k="ssr:stedsnr" v="520678" />
	</node>
	<node id="-839961" lat="63.7168999965" lon="9.64445833968">
		<tag k="name" v="Aune" />
		<tag k="place" v="farm" />
		<tag k="ssr:stedsnr" v="376028" />
	</node>
	<node id="-839959" lat="63.6605166655" lon="9.38979721347">
		<tag k="name" v="Knutenga" />
		<tag k="place" v="farm" />
		<tag k="ssr:stedsnr" v="884682" />
	</node>
	<node id="-839958" lat="63.7036361116" lon="9.71149445109">
		<tag k="name" v="Sørstrand" />
		<tag k="place" v="farm" />
		<tag k="ssr:stedsnr" v="569544" />
	</node>
	<node id="-839956" lat="63.7244916711" lon="9.61902777313">
		<tag k="name" v="Haugløkkan" />
		<tag k="place" v="farm" />
		<tag k="ssr:stedsnr" v="945605" />
	</node>
	<node id="-839955" lat="63.7263027772" lon="9.69542778545">
		<tag k="name" v="Røstad" />
		<tag k="place" v="farm" />
		<tag k="ssr:stedsnr" v="34590" />
	</node>
	<node id="-839953" lat="63.7176861079" lon="9.56360278101">
		<tag k="name" v="Hoøya" />
		<tag k="place" v="farm" />
		<tag k="ssr:stedsnr" v="338626" />
	</node>
	<node id="-839952" lat="63.6949416698" lon="9.6516638851">
		<tag k="name" v="Trettenget" />
		<tag k="place" v="farm" />
		<tag k="ssr:stedsnr" v="702613" />
	</node>
	<node id="-839949" lat="63.6920770576" lon="9.6499289337">
		<tag k="alt_name" v="Viklem" />
		<tag k="fixme" v="consider place=hamlet" />
		<tag k="name" v="Veklem" />
		<tag k="place" v="farm" />
		<tag k="ssr:stedsnr" v="498035" />
	</node>
	<node id="-839948" lat="63.6436749996" lon="9.52457499898">
		<tag k="name" v="Garten" />
		<tag k="place" v="farm" />
		<tag k="ssr:stedsnr" v="156943" />
	</node>
	<node id="-839947" lat="63.659277779" lon="9.42106110567">
		<tag k="alt_name" v="Breivik" />
		<tag k="name" v="Breivika" />
		<tag k="place" v="farm" />
		<tag k="ssr:stedsnr" v="580618" />
	</node>
	<node id="-839946" lat="63.6598166651" lon="9.57139721505">
		<tag k="name" v="Kvitsanden" />
		<tag k="place" v="farm" />
		<tag k="ssr:stedsnr" v="277717" />
	</node>
	<node id="-839945" lat="63.7047833368" lon="9.66548332466">
		<tag k="name" v="Sommerset" />
		<tag k="place" v="farm" />
		<tag k="ssr:stedsnr" v="155611" />
	</node>
	<node id="-839943" lat="63.6846666679" lon="9.41409166453">
		<tag k="fixme" v="multiple name tags, choose one and add the other to alt_name" />
		<tag k="name" v="Berge;Lyngholmen" />
		<tag k="place" v="farm" />
		<tag k="ssr:stedsnr" v="498037" />
	</node>
	<node id="-839938" lat="63.6617437274" lon="9.36936390011">
		<tag k="name" v="Neset" />
		<tag k="place" v="farm" />
		<tag k="ssr:stedsnr" v="91521" />
	</node>
	<node id="-839937" lat="63.7130194455" lon="9.57578889531">
		<tag k="name" v="Frigård" />
		<tag k="place" v="farm" />
		<tag k="ssr:stedsnr" v="448580" />
	</node>
	<node id="-839935" lat="63.7136638887" lon="9.62866667595">
		<tag k="name" v="Røyne" />
		<tag k="place" v="farm" />
		<tag k="ssr:stedsnr" v="580563" />
	</node>
	<node id="-839934" lat="63.7280916681" lon="9.63574166068">
		<tag k="name" v="Vollan" />
		<tag k="place" v="farm" />
		<tag k="ssr:stedsnr" v="338800" />
	</node>
	<node id="-839931" lat="63.7130000032" lon="9.57394721644">
		<tag k="name" v="Frigård" />
		<tag k="place" v="farm" />
		<tag k="ssr:stedsnr" v="277664" />
	</node>
	<node id="-839928" lat="63.7346833368" lon="9.6784861021">
		<tag k="name" v="Småhaugan" />
		<tag k="place" v="farm" />
		<tag k="ssr:stedsnr" v="277663" />
	</node>
	<node id="-839927" lat="63.7180388865" lon="9.77267777631">
		<tag k="name" v="Fjellstad" />
		<tag k="place" v="farm" />
		<tag k="ssr:stedsnr" v="438236" />
	</node>
	<node id="-839925" lat="63.703530552" lon="9.7118555472">
		<tag k="name" v="Sørstrand" />
		<tag k="place" v="farm" />
		<tag k="ssr:stedsnr" v="34966" />
	</node>
	<node id="-839922" lat="63.6844333292" lon="9.6537638971">
		<tag k="amenity" v="school" />
		<tag k="name" v="Fosen yrkesskole" />
		<tag k="ssr:stedsnr" v="460795" />
	</node>
</osm>
