<?xml version="1.0" encoding="UTF-8"?>
<<<<<<< HEAD
<osm version="0.6" generator="osmapis">
	<node lat="61.17688332986964" lon="8.675577773180654" id="-17056">
=======
<osm generator="osmapis" version="0.6">
	<node id="-405152" lat="61.1703833314" lon="8.69516110948">
		<tag k="amenity" v="place_of_worship" />
		<tag k="denomination" v="lutheran" />
		<tag k="name" v="Heensåsen kyrkje" />
		<tag k="old_name" v="Hænsåsen" />
		<tag k="religion" v="christian" />
		<tag k="ssr:stedsnr" v="735697" />
	</node>
	<node id="-405853" lat="61.1531694427" lon="8.80486944245">
		<tag k="amenity" v="place_of_worship" />
		<tag k="denomination" v="lutheran" />
		<tag k="name" v="Høre stavkyrkje" />
		<tag k="religion" v="christian" />
		<tag k="ssr:stedsnr" v="310243" />
	</node>
	<node id="-405147" lat="61.1671250014" lon="8.3994333264">
		<tag k="amenity" v="place_of_worship" />
		<tag k="denomination" v="lutheran" />
		<tag k="name" v="Øye kyrkje" />
		<tag k="religion" v="christian" />
		<tag k="ssr:stedsnr" v="735653" />
	</node>
	<node id="-404373" lat="61.1768833299" lon="8.67557777318">
>>>>>>> e1d4bc35ff8a6074a6f2e91616a996b547c36f15
		<tag k="name" v="Fiveligrinde" />
		<tag k="place" v="locality" />
		<tag k="ssr:stedsnr" v="39965" />
	</node>
<<<<<<< HEAD
	<node lat="61.1679361110375" lon="8.40001388892489" id="-17137">
=======
	<node id="-404979" lat="61.1415611078" lon="8.61934999745">
		<tag k="name" v="Hellekvene" />
		<tag k="place" v="locality" />
		<tag k="ssr:stedsnr" v="707185" />
	</node>
	<node id="-405650" lat="61.167936111" lon="8.40001388892">
>>>>>>> e1d4bc35ff8a6074a6f2e91616a996b547c36f15
		<tag k="amenity" v="place_of_worship" />
		<tag k="denomination" v="lutheran" />
		<tag k="name" v="Øye stavkyrkje" />
		<tag k="religion" v="christian" />
		<tag k="ssr:stedsnr" v="101609" />
	</node>
<<<<<<< HEAD
	<node lat="61.12592777584843" lon="8.575322229287096" id="-17574">
=======
	<node id="-405489" lat="61.1800277789" lon="8.11901388033">
		<tag k="amenity" v="place_of_worship" />
		<tag k="denomination" v="lutheran" />
		<tag k="loc_name" v="St. Thomas kyrkje" />
		<tag k="name" v="St. Thomaskyrkja" />
		<tag k="old_name" v="St. Tomaskyrkja" />
		<tag k="religion" v="christian" />
		<tag k="ssr:stedsnr" v="7577" />
	</node>
	<node id="-404904" lat="61.1259277758" lon="8.57532222929">
>>>>>>> e1d4bc35ff8a6074a6f2e91616a996b547c36f15
		<tag k="amenity" v="place_of_worship" />
		<tag k="denomination" v="lutheran" />
		<tag k="name" v="Vang kyrkje" />
		<tag k="old_name" v="Vangskyrkja" />
		<tag k="religion" v="christian" />
		<tag k="ssr:stedsnr" v="674282" />
	</node>
<<<<<<< HEAD
	<node lat="60.94913888497919" lon="8.63571666440332" id="-17610">
		<tag k="name" v="Lusterlægret" />
=======
	<node id="-405453" lat="61.2064944486" lon="8.3561888945">
		<tag k="amenity" v="community_centre" />
		<tag k="name" v="Skogheim" />
		<tag k="ssr:stedsnr" v="968360" />
	</node>
	<node id="-406377" lat="61.1738194446" lon="8.67366665901">
		<tag k="name" v="Kvenadn" />
>>>>>>> e1d4bc35ff8a6074a6f2e91616a996b547c36f15
		<tag k="place" v="locality" />
		<tag k="ssr:stedsnr" v="767977" />
	</node>
<<<<<<< HEAD
	<node lat="61.1263305547376" lon="8.580830547712159" id="-17807">
		<tag k="amenity" v="community_centre" />
		<tag k="name" v="Torsheim" />
		<tag k="ssr:stedsnr" v="648404" />
	</node>
	<node lat="61.1415611078383" lon="8.619349997454606" id="-17810">
		<tag k="name" v="Hellekvene" />
		<tag k="place" v="locality" />
		<tag k="ssr:stedsnr" v="707185" />
	</node>
	<node lat="61.18002777885183" lon="8.119013880325406" id="-18212">
		<tag k="amenity" v="place_of_worship" />
		<tag k="denomination" v="lutheran" />
		<tag k="loc_name" v="St. Thomas kyrkje" />
		<tag k="name" v="St. Thomaskyrkja" />
		<tag k="old_name" v="St. Tomaskyrkja" />
		<tag k="religion" v="christian" />
		<tag k="ssr:stedsnr" v="7577" />
	</node>
	<node lat="61.15316944266445" lon="8.804869442450503" id="-18546">
		<tag k="amenity" v="place_of_worship" />
		<tag k="denomination" v="lutheran" />
		<tag k="name" v="Høre stavkyrkje" />
		<tag k="religion" v="christian" />
		<tag k="ssr:stedsnr" v="310243" />
	</node>
	<node lat="61.13637500399267" lon="8.742488887913739" id="-18798">
		<tag k="name" v="Hesterei" />
		<tag k="ssr:stedsnr" v="543024" />
		<tag k="tourism" v="viewpoint" />
	</node>
	<node lat="61.18558889059296" lon="8.38452499355084" id="-18815">
		<tag k="amenity" v="community_centre" />
		<tag k="name" v="Dalheim" />
		<tag k="ssr:stedsnr" v="544396" />
	</node>
	<node lat="61.16712500143847" lon="8.399433326403976" id="-19062">
		<tag k="amenity" v="place_of_worship" />
		<tag k="denomination" v="lutheran" />
		<tag k="name" v="Øye kyrkje" />
		<tag k="religion" v="christian" />
		<tag k="ssr:stedsnr" v="735653" />
=======
	<node id="-406344" lat="61.1263305547" lon="8.58083054771">
		<tag k="amenity" v="community_centre" />
		<tag k="name" v="Torsheim" />
		<tag k="ssr:stedsnr" v="648404" />
	</node>
	<node id="-404934" lat="60.949138885" lon="8.6357166644">
		<tag k="name" v="Lusterlægret" />
		<tag k="place" v="locality" />
		<tag k="ssr:stedsnr" v="676748" />
	</node>
	<node id="-406149" lat="61.1855888906" lon="8.38452499355">
		<tag k="amenity" v="community_centre" />
		<tag k="name" v="Dalheim" />
		<tag k="ssr:stedsnr" v="544396" />
	</node>
	<node id="-404955" lat="61.136375004" lon="8.74248888791">
		<tag k="name" v="Hesterei" />
		<tag k="ssr:stedsnr" v="543024" />
		<tag k="tourism" v="viewpoint" />
>>>>>>> e1d4bc35ff8a6074a6f2e91616a996b547c36f15
	</node>
	<node lat="61.170383331374424" lon="8.69516110947868" id="-19066">
		<tag k="amenity" v="place_of_worship" />
		<tag k="denomination" v="lutheran" />
		<tag k="name" v="Heensåsen kyrkje" />
		<tag k="old_name" v="Hænsåsen" />
		<tag k="religion" v="christian" />
		<tag k="ssr:stedsnr" v="735697" />
	</node>
	<node lat="61.17381944456573" lon="8.673666659006882" id="-19100">
		<tag k="name" v="Kvenadn" />
		<tag k="place" v="locality" />
		<tag k="ssr:stedsnr" v="767977" />
	</node>
	<node lat="61.206494448624404" lon="8.356188894497969" id="-19303">
		<tag k="amenity" v="community_centre" />
		<tag k="name" v="Skogheim" />
		<tag k="ssr:stedsnr" v="968360" />
	</node>
</osm>
