<?xml version="1.0" encoding="UTF-8"?>
<<<<<<< HEAD
<osm version="0.6" generator="osmapis">
	<node lat="61.21009166225046" lon="8.64757500331981" id="-17036">
		<tag k="name" v="Søre Svøe" />
		<tag k="place" v="locality" />
		<tag k="ssr:stedsnr" v="39108" />
	</node>
	<node lat="61.16680555734243" lon="8.389486105472256" id="-17039">
		<tag k="name" v="Føssekvene" />
		<tag k="place" v="locality" />
		<tag k="ssr:stedsnr" v="39322" />
	</node>
	<node lat="61.15433611468622" lon="8.616772228783269" id="-17047">
		<tag k="name" v="Mehagin" />
		<tag k="place" v="locality" />
		<tag k="ssr:stedsnr" v="39667" />
	</node>
	<node lat="61.15949166411511" lon="8.586958332010457" id="-17048">
		<tag k="historic" v="shieling" />
		<tag k="name" v="Torsstølen" />
		<tag k="place" v="locality" />
		<tag k="ssr:stedsnr" v="39672" />
	</node>
	<node lat="60.97294999988653" lon="8.658777773870298" id="-17053">
		<tag k="name" v="Hulebakksteinen" />
		<tag k="natural" v="stone" />
		<tag k="ssr:stedsnr" v="39780" />
	</node>
	<node lat="61.16983055194488" lon="8.372133329199231" id="-17071">
		<tag k="name" v="Versstein" />
		<tag k="natural" v="stone" />
		<tag k="ssr:stedsnr" v="58305" />
	</node>
	<node lat="61.156983332261206" lon="8.80568610725519" id="-17074">
		<tag k="name" v="Steinsjorde" />
		<tag k="place" v="locality" />
		<tag k="ssr:stedsnr" v="58404" />
	</node>
	<node lat="61.08700000114523" lon="8.526144436283603" id="-17089">
=======
<osm generator="osmapis" version="0.6">
	<node id="-406528" lat="61.2000472249" lon="8.38359167333">
		<tag k="name" v="Klepp" />
		<tag k="place" v="locality" />
		<tag k="ssr:stedsnr" v="847474" />
	</node>
	<node id="-404480" lat="61.1682361154" lon="8.81757777043">
		<tag k="name" v="Tørvemyre" />
		<tag k="natural" v="wetland" />
		<tag k="ssr:stedsnr" v="99269" />
	</node>
	<node id="-404990" lat="61.1303388871" lon="8.53271666999">
		<tag k="name" v="Hagen" />
		<tag k="place" v="locality" />
		<tag k="ssr:stedsnr" v="707701" />
	</node>
	<node id="-406010" lat="61.1699305516" lon="8.82321111902">
		<tag k="landuse" v="meadow" />
		<tag k="name" v="Bleikfet" />
		<tag k="ssr:stedsnr" v="403240" />
	</node>
	<node id="-406516" lat="61.1323944445" lon="8.74181388514">
		<tag k="name" v="Hølojordet" />
		<tag k="place" v="locality" />
		<tag k="ssr:stedsnr" v="847042" />
	</node>
	<node id="-406514" lat="61.1375722249" lon="8.74280000477">
		<tag k="name" v="Stakkstø" />
		<tag k="place" v="locality" />
		<tag k="ssr:stedsnr" v="847022" />
	</node>
	<node id="-404819" lat="61.2254916669" lon="8.23554999337">
		<tag k="historic" v="shieling" />
		<tag k="name" v="Gamle Skogstadstølen" />
		<tag k="place" v="locality" />
		<tag k="ssr:stedsnr" v="423227" />
	</node>
	<node id="-404972" lat="61.0179944406" lon="8.67970556019">
		<tag k="name" v="Ure" />
		<tag k="natural" v="scree" />
		<tag k="ssr:stedsnr" v="706406" />
	</node>
	<node id="-404969" lat="61.1904888887" lon="8.68084444414">
		<tag k="name" v="Sindermyre" />
		<tag k="natural" v="wetland" />
		<tag k="ssr:stedsnr" v="706082" />
	</node>
	<node id="-405001" lat="61.1946777822" lon="8.52259722719">
		<tag k="historic" v="shieling" />
		<tag k="name" v="Grøvstølen" />
		<tag k="place" v="locality" />
		<tag k="ssr:stedsnr" v="707817" />
	</node>
	<node id="-406500" lat="61.1717722199" lon="8.69949721949">
		<tag k="name" v="Fåkjeldmyre" />
		<tag k="natural" v="wetland" />
		<tag k="ssr:stedsnr" v="828974" />
	</node>
	<node id="-406498" lat="61.149697226" lon="8.57719443526">
		<tag k="historic" v="shieling" />
		<tag k="name" v="Rysseflat" />
		<tag k="place" v="locality" />
		<tag k="ssr:stedsnr" v="828719" />
	</node>
	<node id="-404314" lat="61.1066027746" lon="8.44849443705">
		<tag k="historic" v="shieling" />
		<tag k="name" v="Gravutstølen" />
		<tag k="place" v="locality" />
		<tag k="ssr:stedsnr" v="221372" />
	</node>
	<node id="-404956" lat="61.1520305534" lon="8.81416389562">
		<tag k="name" v="Skjøssjorde" />
		<tag k="place" v="locality" />
		<tag k="ssr:stedsnr" v="543356" />
	</node>
	<node id="-404950" lat="61.1775777751" lon="8.67851388189">
>>>>>>> e1d4bc35ff8a6074a6f2e91616a996b547c36f15
		<tag k="historic" v="shieling" />
		<tag k="name" v="Grindestølen" />
		<tag k="place" v="locality" />
		<tag k="ssr:stedsnr" v="240617" />
	</node>
	<node lat="61.130899999101125" lon="8.658100003080206" id="-17095">
		<tag k="name" v="Stormyr" />
		<tag k="natural" v="wetland" />
		<tag k="ssr:stedsnr" v="240942" />
	</node>
<<<<<<< HEAD
	<node lat="61.13139721834334" lon="8.637855549453366" id="-17096">
=======
	<node id="-405969" lat="61.1581888874" lon="8.35880278536">
>>>>>>> e1d4bc35ff8a6074a6f2e91616a996b547c36f15
		<tag k="historic" v="shieling" />
		<tag k="name" v="Trondsonstølen" />
		<tag k="place" v="locality" />
		<tag k="ssr:stedsnr" v="240944" />
	</node>
<<<<<<< HEAD
	<node lat="61.16823611535486" lon="8.817577770430562" id="-17120">
		<tag k="name" v="Tørvemyre" />
		<tag k="natural" v="wetland" />
		<tag k="ssr:stedsnr" v="99269" />
	</node>
	<node lat="61.17130277711973" lon="8.534872220594998" id="-17132">
		<tag k="landuse" v="meadow" />
		<tag k="name" v="Tynneskrejordet" />
		<tag k="ssr:stedsnr" v="100727" />
	</node>
	<node lat="61.121886115355096" lon="8.701697215221756" id="-17190">
		<tag k="name" v="Alaskogen" />
		<tag k="place" v="locality" />
		<tag k="ssr:stedsnr" v="118876" />
	</node>
	<node lat="61.18449166446369" lon="8.368872228701695" id="-17193">
		<tag k="historic" v="shieling" />
		<tag k="name" v="Øvre Stølen" />
		<tag k="place" v="locality" />
		<tag k="ssr:stedsnr" v="119412" />
	</node>
	<node lat="61.179072221830566" lon="8.378652780806778" id="-17194">
		<tag k="historic" v="shieling" />
		<tag k="name" v="Sjåheim" />
		<tag k="place" v="locality" />
		<tag k="ssr:stedsnr" v="119416" />
	</node>
	<node lat="61.12938025475399" lon="8.549675941555739" id="-17242">
		<tag k="name" v="Bøaflata" />
		<tag k="place" v="locality" />
		<tag k="ssr:stedsnr" v="310294" />
	</node>
	<node lat="61.14462777926194" lon="8.852236120183017" id="-17251">
		<tag k="name" v="Kubakkgøta" />
		<tag k="place" v="locality" />
		<tag k="ssr:stedsnr" v="179207" />
	</node>
	<node lat="61.2058611153107" lon="8.396630563304141" id="-17293">
=======
	<node id="-406480" lat="61.1541194408" lon="8.42793055815">
		<tag k="historic" v="shieling" />
		<tag k="name" v="Prestedøkke" />
		<tag k="place" v="locality" />
		<tag k="ssr:stedsnr" v="828378" />
	</node>
	<node id="-406478" lat="61.1600388868" lon="8.40722777573">
		<tag k="historic" v="shieling" />
		<tag k="name" v="Endrestøl" />
		<tag k="place" v="locality" />
		<tag k="ssr:stedsnr" v="828376" />
	</node>
	<node id="-404557" lat="61.1596027762" lon="8.82550277518">
		<tag k="name" v="Prestengjordet" />
		<tag k="place" v="locality" />
		<tag k="ssr:stedsnr" v="281315" />
	</node>
	<node id="-406476" lat="61.161911113" lon="8.42017500403">
		<tag k="name" v="Steindejordet" />
		<tag k="place" v="locality" />
		<tag k="ssr:stedsnr" v="828369" />
	</node>
	<node id="-405962" lat="61.1801055524" lon="8.13705555777">
		<tag k="historic" v="shieling" />
		<tag k="name" v="Øyestølen" />
		<tag k="place" v="locality" />
		<tag k="ssr:stedsnr" v="361146" />
	</node>
	<node id="-405958" lat="61.1680694426" lon="8.33358056073">
>>>>>>> e1d4bc35ff8a6074a6f2e91616a996b547c36f15
		<tag k="historic" v="shieling" />
		<tag k="name" v="Søre stølen" />
		<tag k="place" v="locality" />
		<tag k="ssr:stedsnr" v="221471" />
	</node>
<<<<<<< HEAD
	<node lat="61.12407777791568" lon="8.610302776623701" id="-17294">
		<tag k="name" v="Teigen" />
		<tag k="place" v="locality" />
		<tag k="ssr:stedsnr" v="221626" />
	</node>
	<node lat="61.12358055741061" lon="8.61286667542733" id="-17295">
		<tag k="name" v="Kvisten" />
=======
	<node id="-405441" lat="61.1885027776" lon="8.53103055412">
		<tag k="name" v="Løkenstein" />
>>>>>>> e1d4bc35ff8a6074a6f2e91616a996b547c36f15
		<tag k="natural" v="stone" />
		<tag k="ssr:stedsnr" v="221627" />
	</node>
<<<<<<< HEAD
	<node lat="61.10791944313949" lon="8.45452221878949" id="-17296">
		<tag k="historic" v="shieling" />
		<tag k="name" v="Preststølen" />
		<tag k="place" v="locality" />
		<tag k="ssr:stedsnr" v="221371" />
	</node>
	<node lat="61.10660277463676" lon="8.448494437054503" id="-17297">
		<tag k="historic" v="shieling" />
		<tag k="name" v="Gravutstølen" />
		<tag k="place" v="locality" />
		<tag k="ssr:stedsnr" v="221372" />
	</node>
	<node lat="61.09400555557287" lon="8.401608333966939" id="-17300">
		<tag k="landuse" v="meadow" />
		<tag k="name" v="Syne" />
		<tag k="ssr:stedsnr" v="221378" />
	</node>
	<node lat="61.10414722661311" lon="8.645561117604489" id="-17328">
=======
	<node id="-404414" lat="61.1041472266" lon="8.6455611176">
>>>>>>> e1d4bc35ff8a6074a6f2e91616a996b547c36f15
		<tag k="name" v="Langetjernmyre" />
		<tag k="natural" v="wetland" />
		<tag k="old_name" v="Langetjednmyre" />
		<tag k="ssr:stedsnr" v="240879" />
	</node>
<<<<<<< HEAD
	<node lat="61.161161107556865" lon="8.830038888544534" id="-17343">
		<tag k="name" v="Bakkejordet" />
		<tag k="place" v="locality" />
		<tag k="ssr:stedsnr" v="281314" />
	</node>
	<node lat="61.15960277616585" lon="8.82550277517586" id="-17344">
		<tag k="name" v="Prestengjordet" />
		<tag k="place" v="locality" />
		<tag k="ssr:stedsnr" v="281315" />
	</node>
	<node lat="61.14562778079807" lon="8.851080548795782" id="-17355">
		<tag k="name" v="Teigen" />
		<tag k="place" v="locality" />
		<tag k="ssr:stedsnr" v="282269" />
	</node>
	<node lat="61.12825555523981" lon="8.533858328429307" id="-17366">
		<tag k="name" v="Storåkern" />
		<tag k="place" v="locality" />
		<tag k="ssr:stedsnr" v="282670" />
	</node>
	<node lat="61.177255559475924" lon="8.707263880140207" id="-17371">
		<tag k="name" v="Liahagin" />
		<tag k="place" v="locality" />
		<tag k="ssr:stedsnr" v="282980" />
	</node>
	<node lat="61.17317499845169" lon="8.314280551139543" id="-17381">
		<tag k="name" v="Storurde" />
		<tag k="natural" v="scree" />
		<tag k="ssr:stedsnr" v="300396" />
	</node>
	<node lat="61.1643833318417" lon="8.676444441731753" id="-17386">
		<tag k="name" v="Hensure" />
		<tag k="natural" v="scree" />
		<tag k="ssr:stedsnr" v="300917" />
	</node>
	<node lat="61.10797221795066" lon="8.559338880240352" id="-17387">
		<tag k="name" v="Tørvemyre" />
		<tag k="natural" v="wetland" />
		<tag k="ssr:stedsnr" v="300684" />
	</node>
	<node lat="61.10609722001436" lon="8.525355556433235" id="-17388">
		<tag k="name" v="Ryttaren" />
=======
	<node id="-405436" lat="61.1739500023" lon="8.3946916579">
		<tag k="name" v="Trettemyre" />
		<tag k="natural" v="wetland" />
		<tag k="ssr:stedsnr" v="949363" />
	</node>
	<node id="-405435" lat="61.2102277822" lon="8.3544194391">
		<tag k="name" v="Bulegudn" />
		<tag k="place" v="locality" />
		<tag k="ssr:stedsnr" v="949360" />
	</node>
	<node id="-406062" lat="61.1705916656" lon="8.31473333938">
		<tag k="name" v="Bulegudn" />
		<tag k="place" v="locality" />
		<tag k="ssr:stedsnr" v="423434" />
	</node>
	<node id="-404405" lat="61.0870000011" lon="8.52614443628">
		<tag k="historic" v="shieling" />
		<tag k="name" v="Grindestølen" />
		<tag k="place" v="locality" />
		<tag k="ssr:stedsnr" v="240617" />
	</node>
	<node id="-405940" lat="61.1723833369" lon="8.71721110274">
		<tag k="name" v="Løkreimsøynadn" />
>>>>>>> e1d4bc35ff8a6074a6f2e91616a996b547c36f15
		<tag k="place" v="locality" />
		<tag k="ssr:stedsnr" v="300686" />
	</node>
<<<<<<< HEAD
	<node lat="61.09822499755936" lon="8.708322228625452" id="-17389">
		<tag k="name" v="Kyrsteinadn" />
		<tag k="natural" v="stone" />
		<tag k="ssr:stedsnr" v="300876" />
	</node>
	<node lat="61.22284722006049" lon="8.238208340698527" id="-17393">
		<tag k="name" v="Myradn" />
		<tag k="natural" v="wetland" />
		<tag k="ssr:stedsnr" v="301194" />
	</node>
	<node lat="61.174008331024126" lon="8.72516388731935" id="-17398">
		<tag k="name" v="Laglimsmyre" />
		<tag k="natural" v="wetland" />
		<tag k="ssr:stedsnr" v="463984" />
	</node>
	<node lat="61.17467222603413" lon="8.665386111819126" id="-17449">
=======
	<node id="-405939" lat="61.174672226" lon="8.66538611182">
>>>>>>> e1d4bc35ff8a6074a6f2e91616a996b547c36f15
		<tag k="name" v="Haugastølsslette" />
		<tag k="place" v="locality" />
		<tag k="ssr:stedsnr" v="342958" />
	</node>
<<<<<<< HEAD
	<node lat="61.172383336927574" lon="8.717211102736771" id="-17450">
		<tag k="name" v="Løkreimsøynadn" />
		<tag k="place" v="locality" />
		<tag k="ssr:stedsnr" v="342962" />
	</node>
	<node lat="61.16642778013783" lon="8.379586112954007" id="-17475">
		<tag k="name" v="Rødalsuksin" />
=======
	<node id="-404910" lat="61.2252499979" lon="8.84702499979">
		<tag k="name" v="Beitemyre" />
		<tag k="natural" v="wetland" />
		<tag k="ssr:stedsnr" v="674439" />
	</node>
	<node id="-405929" lat="61.1357250024" lon="8.61738055947">
		<tag k="name" v="Trøadn" />
>>>>>>> e1d4bc35ff8a6074a6f2e91616a996b547c36f15
		<tag k="place" v="locality" />
		<tag k="ssr:stedsnr" v="482278" />
	</node>
<<<<<<< HEAD
	<node lat="61.15988611240595" lon="8.370799992628367" id="-17476">
		<tag k="name" v="Dekkatn" />
=======
	<node id="-404994" lat="61.1577277774" lon="8.54820277532">
		<tag k="name" v="Nordlandskvenan" />
		<tag k="place" v="locality" />
		<tag k="ssr:stedsnr" v="707714" />
	</node>
	<node id="-405745" lat="61.2022861077" lon="8.51320000217">
		<tag k="landuse" v="meadow" />
		<tag k="name" v="Vølladn" />
		<tag k="ssr:stedsnr" v="160777" />
	</node>
	<node id="-405410" lat="61.1195249958" lon="8.62325554841">
		<tag k="name" v="Kvilarstein" />
		<tag k="natural" v="stone" />
		<tag k="ssr:stedsnr" v="907854" />
	</node>
	<node id="-405921" lat="61.1872916626" lon="8.77472221657">
		<tag k="name" v="Sjødaladn" />
>>>>>>> e1d4bc35ff8a6074a6f2e91616a996b547c36f15
		<tag k="place" v="locality" />
		<tag k="ssr:stedsnr" v="482256" />
	</node>
<<<<<<< HEAD
	<node lat="61.21107500364839" lon="8.336722217471646" id="-17483">
		<tag k="name" v="Gamlekve" />
		<tag k="place" v="locality" />
		<tag k="ssr:stedsnr" v="482432" />
	</node>
	<node lat="61.106263886683095" lon="8.521166658385608" id="-17487">
		<tag k="name" v="Røven" />
		<tag k="place" v="locality" />
		<tag k="ssr:stedsnr" v="482670" />
	</node>
	<node lat="61.15443333309585" lon="8.806041658161098" id="-17496">
=======
	<node id="-404893" lat="61.1544333331" lon="8.80604165816">
>>>>>>> e1d4bc35ff8a6074a6f2e91616a996b547c36f15
		<tag k="name" v="Smijorde" />
		<tag k="place" v="locality" />
		<tag k="ssr:stedsnr" v="483419" />
	</node>
<<<<<<< HEAD
	<node lat="61.16993055156789" lon="8.823211119016706" id="-17502">
		<tag k="landuse" v="meadow" />
		<tag k="name" v="Bleikfet" />
		<tag k="ssr:stedsnr" v="403240" />
	</node>
	<node lat="61.17782500269258" lon="8.398075006239107" id="-17505">
		<tag k="name" v="Bulegudn" />
=======
	<node id="-405403" lat="61.174538889" lon="8.79924722804">
		<tag k="name" v="Geitøstbakkaden" />
>>>>>>> e1d4bc35ff8a6074a6f2e91616a996b547c36f15
		<tag k="place" v="locality" />
		<tag k="ssr:stedsnr" v="403409" />
	</node>
<<<<<<< HEAD
	<node lat="61.16578889277236" lon="8.539288885985576" id="-17508">
		<tag k="historic" v="shieling" />
		<tag k="name" v="Lisete" />
		<tag k="place" v="locality" />
		<tag k="ssr:stedsnr" v="403704" />
	</node>
	<node lat="61.17193055194879" lon="8.6655888806492" id="-17509">
		<tag k="historic" v="shieling" />
		<tag k="name" v="Kvenadn" />
		<tag k="place" v="locality" />
		<tag k="ssr:stedsnr" v="404023" />
	</node>
	<node lat="61.17301944338275" lon="8.834291669654656" id="-17579">
		<tag k="landuse" v="meadow" />
		<tag k="name" v="Marken" />
		<tag k="ssr:stedsnr" v="463254" />
	</node>
	<node lat="61.109375002452204" lon="8.480544443554798" id="-17591">
=======
	<node id="-405743" lat="61.1189722205" lon="8.54463055793">
		<tag k="name" v="Kalsjordet" />
		<tag k="place" v="locality" />
		<tag k="ssr:stedsnr" v="160648" />
	</node>
	<node id="-405400" lat="61.1929694437" lon="8.52463611514">
		<tag k="name" v="Trøkastein" />
		<tag k="natural" v="stone" />
		<tag k="ssr:stedsnr" v="949785" />
	</node>
	<node id="-406423" lat="61.150008333" lon="8.65375000867">
		<tag k="landuse" v="meadow" />
		<tag k="name" v="Grønolen" />
		<tag k="ssr:stedsnr" v="786933" />
	</node>
	<node id="-406417" lat="61.2373444452" lon="8.25230833056">
		<tag k="historic" v="shieling" />
		<tag k="name" v="Bryggjestølen" />
		<tag k="place" v="locality" />
		<tag k="ssr:stedsnr" v="786632" />
	</node>
	<node id="-404880" lat="61.1093750025" lon="8.48054444355">
>>>>>>> e1d4bc35ff8a6074a6f2e91616a996b547c36f15
		<tag k="name" v="Gamlestølsmyre" />
		<tag k="natural" v="wetland" />
		<tag k="ssr:stedsnr" v="464406" />
	</node>
<<<<<<< HEAD
	<node lat="61.225249997887445" lon="8.847024999791095" id="-17595">
		<tag k="name" v="Beitemyre" />
		<tag k="natural" v="wetland" />
		<tag k="ssr:stedsnr" v="674439" />
	</node>
	<node lat="61.15677222548793" lon="8.716011116501628" id="-17659">
		<tag k="name" v="Belsheimøynadn" />
		<tag k="place" v="locality" />
		<tag k="ssr:stedsnr" v="524980" />
	</node>
	<node lat="61.17757777505606" lon="8.67851388189083" id="-17666">
		<tag k="historic" v="shieling" />
		<tag k="name" v="Katthamar" />
		<tag k="place" v="locality" />
		<tag k="ssr:stedsnr" v="525967" />
	</node>
	<node lat="61.16866666901412" lon="8.327502773289263" id="-17671">
		<tag k="historic" v="shieling" />
		<tag k="name" v="Nørdre Kjersteinsstøl" />
=======
	<node id="-404877" lat="61.1730194434" lon="8.83429166965">
		<tag k="landuse" v="meadow" />
		<tag k="name" v="Marken" />
		<tag k="ssr:stedsnr" v="463254" />
	</node>
	<node id="-404364" lat="61.1543361147" lon="8.61677222878">
		<tag k="name" v="Mehagin" />
>>>>>>> e1d4bc35ff8a6074a6f2e91616a996b547c36f15
		<tag k="place" v="locality" />
		<tag k="ssr:stedsnr" v="543274" />
	</node>
<<<<<<< HEAD
	<node lat="61.21256944139853" lon="8.236822227579024" id="-17678">
		<tag k="name" v="Tørvetaket" />
		<tag k="natural" v="wetland" />
		<tag k="ssr:stedsnr" v="544210" />
	</node>
	<node lat="61.17141389106513" lon="8.350649993585213" id="-17679">
		<tag k="landuse" v="meadow" />
		<tag k="name" v="Biren" />
		<tag k="ssr:stedsnr" v="544278" />
	</node>
	<node lat="61.17331944831828" lon="8.365513892249881" id="-17680">
		<tag k="name" v="Trøllstein" />
=======
	<node id="-405399" lat="61.1990583308" lon="8.38887499942">
		<tag k="historic" v="shieling" />
		<tag k="name" v="Øystølen" />
		<tag k="place" v="locality" />
		<tag k="ssr:stedsnr" v="949436" />
	</node>
	<node id="-404871" lat="61.2078777815" lon="8.29881388823">
		<tag k="landuse" v="quarry" />
		<tag k="name" v="Varpahøla" />
		<tag k="ssr:stedsnr" v="665384" />
	</node>
	<node id="-404870" lat="61.173111113" lon="8.18230555001">
		<tag k="name" v="Bukkestein" />
>>>>>>> e1d4bc35ff8a6074a6f2e91616a996b547c36f15
		<tag k="natural" v="stone" />
		<tag k="ssr:stedsnr" v="544280" />
	</node>
<<<<<<< HEAD
	<node lat="61.1599277759112" lon="8.836430546338805" id="-17721">
		<tag k="name" v="Grådinjordet" />
=======
	<node id="-406403" lat="61.1669833335" lon="8.33462221451">
		<tag k="name" v="Bleiklimyradn" />
		<tag k="natural" v="wetland" />
		<tag k="ssr:stedsnr" v="786277" />
	</node>
	<node id="-404354" lat="61.1668055573" lon="8.38948610547">
		<tag k="name" v="Føssekvene" />
>>>>>>> e1d4bc35ff8a6074a6f2e91616a996b547c36f15
		<tag k="place" v="locality" />
		<tag k="ssr:stedsnr" v="584305" />
	</node>
<<<<<<< HEAD
	<node lat="61.21423888451961" lon="8.63212778163069" id="-17722">
		<tag k="name" v="Svøe" />
		<tag k="place" v="locality" />
		<tag k="ssr:stedsnr" v="585010" />
	</node>
	<node lat="61.152958335922136" lon="8.613658338550515" id="-17730">
		<tag k="name" v="Kelvesteinadn" />
		<tag k="natural" v="stone" />
		<tag k="ssr:stedsnr" v="585702" />
	</node>
	<node lat="61.15978888675289" lon="8.56556110701921" id="-17733">
		<tag k="historic" v="shieling" />
		<tag k="name" v="Øldrestølen" />
		<tag k="place" v="locality" />
		<tag k="ssr:stedsnr" v="585709" />
	</node>
	<node lat="61.17935555342714" lon="8.542661119721485" id="-17735">
		<tag k="historic" v="shieling" />
		<tag k="name" v="Hurrbakkstølen" />
=======
	<node id="-406401" lat="61.1584500042" lon="8.3639472212">
		<tag k="historic" v="shieling" />
		<tag k="name" v="Nysete" />
		<tag k="place" v="locality" />
		<tag k="ssr:stedsnr" v="786268" />
	</node>
	<node id="-406400" lat="61.1699555585" lon="8.37453055129">
		<tag k="name" v="Langemyr" />
		<tag k="natural" v="wetland" />
		<tag k="ssr:stedsnr" v="786259" />
	</node>
	<node id="-404349" lat="61.2100916623" lon="8.64757500332">
		<tag k="name" v="Søre Svøe" />
>>>>>>> e1d4bc35ff8a6074a6f2e91616a996b547c36f15
		<tag k="place" v="locality" />
		<tag k="ssr:stedsnr" v="585739" />
	</node>
<<<<<<< HEAD
	<node lat="61.18005000164701" lon="8.861772223576322" id="-17741">
		<tag k="name" v="Høgsten" />
=======
	<node id="-406396" lat="61.1952833331" lon="8.22771943698">
		<tag k="historic" v="shieling" />
		<tag k="name" v="Gamle Tørtidn" />
		<tag k="place" v="locality" />
		<tag k="ssr:stedsnr" v="786191" />
	</node>
	<node id="-404858" lat="61.1024805516" lon="8.61384165983">
		<tag k="historic" v="shieling" />
		<tag k="name" v="Haugastølen" />
>>>>>>> e1d4bc35ff8a6074a6f2e91616a996b547c36f15
		<tag k="place" v="locality" />
		<tag k="ssr:stedsnr" v="599969" />
	</node>
<<<<<<< HEAD
	<node lat="61.173558332349614" lon="8.181800008545173" id="-17747">
		<tag k="name" v="Storsteinmyre" />
		<tag k="natural" v="wetland" />
		<tag k="ssr:stedsnr" v="604214" />
	</node>
	<node lat="61.21439999841735" lon="8.25268611190507" id="-17748">
		<tag k="name" v="Svøe" />
		<tag k="place" v="locality" />
		<tag k="ssr:stedsnr" v="604222" />
	</node>
	<node lat="61.16916666761743" lon="8.302324991356341" id="-17749">
		<tag k="name" v="Kisebrekkudn" />
		<tag k="place" v="locality" />
		<tag k="ssr:stedsnr" v="604410" />
	</node>
	<node lat="61.221613893232025" lon="8.427680558272906" id="-17777">
		<tag k="name" v="Fagersetmyrane" />
		<tag k="natural" v="wetland" />
		<tag k="ssr:stedsnr" v="617615" />
	</node>
	<node lat="61.19048888868097" lon="8.680844444137707" id="-17783">
		<tag k="name" v="Sindermyre" />
=======
	<node id="-405878" lat="61.0344027753" lon="8.42550276912">
		<tag k="name" v="Storebottfonne" />
		<tag k="natural" v="glacier" />
		<tag k="ssr:stedsnr" v="310644" />
	</node>
	<node id="-404333" lat="61.1703888868" lon="8.53353055079">
		<tag k="landuse" v="meadow" />
		<tag k="name" v="Ilaget" />
		<tag k="ssr:stedsnr" v="221729" />
	</node>
	<node id="-405868" lat="61.1000305579" lon="8.59263611132">
		<tag k="name" v="Tunemyrane" />
		<tag k="natural" v="wetland" />
		<tag k="ssr:stedsnr" v="310373" />
	</node>
	<node id="-406379" lat="61.138180557" lon="8.61045832912">
		<tag k="name" v="Bråkenhus" />
		<tag k="place" v="locality" />
		<tag k="ssr:stedsnr" v="768164" />
	</node>
	<node id="-406378" lat="61.1727666641" lon="8.68045278642">
		<tag k="name" v="Fyglissvaet" />
		<tag k="place" v="locality" />
		<tag k="ssr:stedsnr" v="767979" />
	</node>
	<node id="-406376" lat="61.1801305529" lon="8.68567500875">
		<tag k="name" v="Gråe Svaet" />
		<tag k="place" v="locality" />
		<tag k="ssr:stedsnr" v="767975" />
	</node>
	<node id="-404327" lat="61.1134250024" lon="8.5686805574">
		<tag k="name" v="Tøffilmyre" />
>>>>>>> e1d4bc35ff8a6074a6f2e91616a996b547c36f15
		<tag k="natural" v="wetland" />
		<tag k="ssr:stedsnr" v="706082" />
	</node>
<<<<<<< HEAD
	<node lat="61.21978610678098" lon="8.628738892169023" id="-17787">
		<tag k="name" v="Stupulen" />
		<tag k="natural" v="stone" />
		<tag k="ssr:stedsnr" v="645019" />
	</node>
	<node lat="61.13033888710764" lon="8.532716669987607" id="-17819">
		<tag k="name" v="Hagen" />
=======
	<node id="-406374" lat="61.1117055579" lon="8.51916666725">
		<tag k="name" v="Ure" />
		<tag k="natural" v="scree" />
		<tag k="ssr:stedsnr" v="767649" />
	</node>
	<node id="-404325" lat="61.1240777779" lon="8.61030277662">
		<tag k="name" v="Teigen" />
>>>>>>> e1d4bc35ff8a6074a6f2e91616a996b547c36f15
		<tag k="place" v="locality" />
		<tag k="ssr:stedsnr" v="707701" />
	</node>
<<<<<<< HEAD
	<node lat="61.20787778149739" lon="8.29881388823419" id="-17834">
		<tag k="landuse" v="quarry" />
		<tag k="name" v="Varpahøla" />
		<tag k="ssr:stedsnr" v="665384" />
	</node>
	<node lat="61.129336113161244" lon="8.52606111493353" id="-17837">
		<tag k="name" v="Hagfelludn" />
=======
	<node id="-404324" lat="61.2058611153" lon="8.3966305633">
		<tag k="historic" v="shieling" />
		<tag k="name" v="Søre stølen" />
>>>>>>> e1d4bc35ff8a6074a6f2e91616a996b547c36f15
		<tag k="place" v="locality" />
		<tag k="ssr:stedsnr" v="666712" />
	</node>
<<<<<<< HEAD
	<node lat="61.01799444064961" lon="8.679705560191085" id="-17868">
		<tag k="name" v="Ure" />
		<tag k="natural" v="scree" />
		<tag k="ssr:stedsnr" v="706406" />
	</node>
	<node lat="61.13478889099218" lon="8.611094442481225" id="-17876">
		<tag k="name" v="Bøkkadn" />
=======
	<node id="-405345" lat="61.0836944473" lon="8.57968611984">
		<tag k="name" v="Røvsmyre" />
		<tag k="natural" v="wetland" />
		<tag k="ssr:stedsnr" v="786607" />
	</node>
	<node id="-404320" lat="61.1520805525" lon="8.48425276994">
		<tag k="name" v="Urateigidn" />
>>>>>>> e1d4bc35ff8a6074a6f2e91616a996b547c36f15
		<tag k="place" v="locality" />
		<tag k="ssr:stedsnr" v="707709" />
	</node>
<<<<<<< HEAD
	<node lat="61.157727777380764" lon="8.548202775320824" id="-17877">
		<tag k="name" v="Nordlandskvenan" />
		<tag k="place" v="locality" />
		<tag k="ssr:stedsnr" v="707714" />
	</node>
	<node lat="61.194677782235175" lon="8.52259722719045" id="-17881">
		<tag k="historic" v="shieling" />
		<tag k="name" v="Grøvstølen" />
		<tag k="place" v="locality" />
		<tag k="ssr:stedsnr" v="707817" />
	</node>
	<node lat="61.18011389096293" lon="8.680563893021672" id="-17883">
		<tag k="historic" v="shieling" />
		<tag k="name" v="Igdestølen" />
		<tag k="place" v="locality" />
		<tag k="ssr:stedsnr" v="707968" />
	</node>
	<node lat="61.21558888964071" lon="8.371569449993842" id="-17892">
		<tag k="historic" v="shieling" />
		<tag k="name" v="Breisete" />
		<tag k="place" v="locality" />
		<tag k="ssr:stedsnr" v="725404" />
	</node>
	<node lat="61.212858329617916" lon="8.300122227935027" id="-17894">
		<tag k="name" v="Øvre Slain" />
		<tag k="place" v="locality" />
		<tag k="ssr:stedsnr" v="725399" />
	</node>
	<node lat="61.211797218017445" lon="8.311605553012546" id="-17895">
		<tag k="name" v="Nedre Slain" />
		<tag k="place" v="locality" />
		<tag k="ssr:stedsnr" v="725400" />
	</node>
	<node lat="61.11405277364067" lon="8.694238895554092" id="-17901">
		<tag k="name" v="Lagoformyre" />
		<tag k="natural" v="wetland" />
		<tag k="ssr:stedsnr" v="725884" />
	</node>
	<node lat="61.17305000415492" lon="8.358713896746565" id="-17903">
		<tag k="name" v="Teigabøttadn" />
=======
	<node id="-406367" lat="61.1798472209" lon="8.83494721382">
		<tag k="name" v="Bergsengjorde" />
		<tag k="place" v="locality" />
		<tag k="ssr:stedsnr" v="767225" />
	</node>
	<node id="-404317" lat="61.0940055556" lon="8.40160833397">
		<tag k="landuse" v="meadow" />
		<tag k="name" v="Syne" />
		<tag k="ssr:stedsnr" v="221378" />
	</node>
	<node id="-405338" lat="61.1708972256" lon="8.31891389242">
		<tag k="name" v="Budeikyrkja" />
		<tag k="natural" v="stone" />
		<tag k="ssr:stedsnr" v="786403" />
	</node>
	<node id="-404313" lat="61.1079194431" lon="8.45452221879">
		<tag k="historic" v="shieling" />
		<tag k="name" v="Preststølen" />
		<tag k="place" v="locality" />
		<tag k="ssr:stedsnr" v="221371" />
	</node>
	<node id="-406120" lat="61.168666669" lon="8.32750277329">
		<tag k="historic" v="shieling" />
		<tag k="name" v="Nørdre Kjersteinsstøl" />
		<tag k="place" v="locality" />
		<tag k="ssr:stedsnr" v="543274" />
	</node>
	<node id="-405305" lat="61.0256194478" lon="8.6318416707">
		<tag k="name" v="Hallingsteinen" />
		<tag k="natural" v="stone" />
		<tag k="ssr:stedsnr" v="917384" />
	</node>
	<node id="-404308" lat="61.1854527768" lon="8.65982777405">
		<tag k="name" v="Stormyr" />
		<tag k="natural" v="wetland" />
		<tag k="ssr:stedsnr" v="221097" />
	</node>
	<node id="-405843" lat="61.1684972237" lon="8.21304721859">
		<tag k="name" v="Svarte Svøe" />
		<tag k="place" v="locality" />
		<tag k="ssr:stedsnr" v="301242" />
	</node>
	<node id="-405839" lat="61.2228472201" lon="8.2382083407">
		<tag k="name" v="Myradn" />
		<tag k="natural" v="wetland" />
		<tag k="ssr:stedsnr" v="301194" />
	</node>
	<node id="-404365" lat="61.1594916641" lon="8.58695833201">
		<tag k="historic" v="shieling" />
		<tag k="name" v="Torsstølen" />
		<tag k="place" v="locality" />
		<tag k="ssr:stedsnr" v="39672" />
	</node>
	<node id="-405836" lat="61.10609722" lon="8.52535555643">
		<tag k="name" v="Ryttaren" />
>>>>>>> e1d4bc35ff8a6074a6f2e91616a996b547c36f15
		<tag k="place" v="locality" />
		<tag k="ssr:stedsnr" v="726309" />
	</node>
<<<<<<< HEAD
	<node lat="61.20822222615171" lon="8.318775001947287" id="-17906">
		<tag k="name" v="Nedre Myre" />
=======
	<node id="-405835" lat="61.107972218" lon="8.55933888024">
		<tag k="name" v="Tørvemyre" />
>>>>>>> e1d4bc35ff8a6074a6f2e91616a996b547c36f15
		<tag k="natural" v="wetland" />
		<tag k="ssr:stedsnr" v="726369" />
	</node>
<<<<<<< HEAD
	<node lat="61.17984722092519" lon="8.834947213822522" id="-17935">
		<tag k="name" v="Bergsengjorde" />
=======
	<node id="-406342" lat="61.1785777814" lon="8.66893334092">
		<tag k="historic" v="shieling" />
		<tag k="name" v="Rotestølen" />
		<tag k="place" v="locality" />
		<tag k="ssr:stedsnr" v="646957" />
	</node>
	<node id="-406339" lat="61.1615666711" lon="8.68765555131">
		<tag k="name" v="Grønolsmyre" />
		<tag k="natural" v="wetland" />
		<tag k="ssr:stedsnr" v="645962" />
	</node>
	<node id="-404802" lat="61.1719305519" lon="8.66558888065">
		<tag k="historic" v="shieling" />
		<tag k="name" v="Kvenadn" />
>>>>>>> e1d4bc35ff8a6074a6f2e91616a996b547c36f15
		<tag k="place" v="locality" />
		<tag k="ssr:stedsnr" v="767225" />
	</node>
<<<<<<< HEAD
	<node lat="61.111705557857" lon="8.519166667246571" id="-17938">
		<tag k="name" v="Ure" />
		<tag k="natural" v="scree" />
		<tag k="ssr:stedsnr" v="767649" />
	</node>
	<node lat="61.16920555205049" lon="8.149516670920327" id="-17943">
		<tag k="name" v="Skavlemyre" />
		<tag k="natural" v="wetland" />
		<tag k="ssr:stedsnr" v="907180" />
	</node>
	<node lat="61.16836388751578" lon="8.172172231185941" id="-17945">
		<tag k="name" v="Brendemyre" />
		<tag k="natural" v="wetland" />
		<tag k="ssr:stedsnr" v="907181" />
	</node>
	<node lat="61.2121277755318" lon="8.326524992053757" id="-17950">
=======
	<node id="-404796" lat="61.1657888928" lon="8.53928888599">
		<tag k="historic" v="shieling" />
		<tag k="name" v="Lisete" />
		<tag k="place" v="locality" />
		<tag k="ssr:stedsnr" v="403704" />
	</node>
	<node id="-406331" lat="61.1548583356" lon="8.42286111726">
		<tag k="historic" v="shieling" />
		<tag k="name" v="Laramstøladn" />
		<tag k="place" v="locality" />
		<tag k="ssr:stedsnr" v="645369" />
	</node>
	<node id="-406329" lat="61.1555055572" lon="8.41703056156">
>>>>>>> e1d4bc35ff8a6074a6f2e91616a996b547c36f15
		<tag k="historic" v="shieling" />
		<tag k="name" v="Elbertstøljordet" />
		<tag k="place" v="locality" />
		<tag k="ssr:stedsnr" v="907395" />
	</node>
<<<<<<< HEAD
	<node lat="61.07417778083911" lon="8.618066665359368" id="-17951">
		<tag k="name" v="Bleikefeten" />
		<tag k="place" v="locality" />
		<tag k="ssr:stedsnr" v="907545" />
	</node>
	<node lat="61.073513888068334" lon="8.695033326776821" id="-17953">
		<tag k="name" v="Vergesteinmyra" />
=======
	<node id="-404792" lat="61.1650333303" lon="8.82513333313">
		<tag k="name" v="Stormyr" />
>>>>>>> e1d4bc35ff8a6074a6f2e91616a996b547c36f15
		<tag k="natural" v="wetland" />
		<tag k="ssr:stedsnr" v="907785" />
	</node>
<<<<<<< HEAD
	<node lat="61.185100004291826" lon="8.188749991531848" id="-17959">
		<tag k="name" v="Jutulstein" />
		<tag k="natural" v="stone" />
		<tag k="ssr:stedsnr" v="908271" />
	</node>
	<node lat="61.17089722560992" lon="8.318913892424511" id="-17975">
		<tag k="name" v="Budeikyrkja" />
		<tag k="natural" v="stone" />
		<tag k="ssr:stedsnr" v="786403" />
	</node>
	<node lat="61.08369444726852" lon="8.579686119839574" id="-17977">
		<tag k="name" v="Røvsmyre" />
		<tag k="natural" v="wetland" />
		<tag k="ssr:stedsnr" v="786607" />
	</node>
	<node lat="61.02561944777906" lon="8.631841670701892" id="-18028">
		<tag k="name" v="Hallingsteinen" />
=======
	<node id="-404789" lat="61.2171472243" lon="8.63231943948">
		<tag k="name" v="Buhaugmyre" />
		<tag k="natural" v="wetland" />
		<tag k="ssr:stedsnr" v="403013" />
	</node>
	<node id="-406324" lat="61.1931527817" lon="8.66857776931">
		<tag k="landuse" v="meadow" />
		<tag k="name" v="Synisløeenge" />
		<tag k="ssr:stedsnr" v="645092" />
	</node>
	<node id="-406319" lat="61.2197861068" lon="8.62873889217">
		<tag k="name" v="Stupulen" />
>>>>>>> e1d4bc35ff8a6074a6f2e91616a996b547c36f15
		<tag k="natural" v="stone" />
		<tag k="ssr:stedsnr" v="917384" />
	</node>
<<<<<<< HEAD
	<node lat="61.161911113034115" lon="8.420175004030265" id="-18054">
		<tag k="name" v="Steindejordet" />
		<tag k="place" v="locality" />
		<tag k="ssr:stedsnr" v="828369" />
	</node>
	<node lat="61.16003888684071" lon="8.407227775728511" id="-18056">
		<tag k="historic" v="shieling" />
		<tag k="name" v="Endrestøl" />
		<tag k="place" v="locality" />
		<tag k="ssr:stedsnr" v="828376" />
	</node>
	<node lat="61.154119440791156" lon="8.427930558151335" id="-18058">
		<tag k="historic" v="shieling" />
		<tag k="name" v="Prestedøkke" />
		<tag k="place" v="locality" />
		<tag k="ssr:stedsnr" v="828378" />
	</node>
	<node lat="61.13757222492289" lon="8.742800004768522" id="-18070">
		<tag k="name" v="Stakkstø" />
=======
	<node id="-405800" lat="61.1384143968" lon="8.72932428643">
		<tag k="name" v="Ørnemyre" />
		<tag k="natural" v="wetland" />
		<tag k="ssr:stedsnr" v="189251" />
	</node>
	<node id="-405724" lat="61.2084444475" lon="8.36258611758">
		<tag k="name" v="Leinehaugen" />
		<tag k="place" v="locality" />
		<tag k="ssr:stedsnr" v="160368" />
	</node>
	<node id="-406309" lat="61.2216138932" lon="8.42768055827">
		<tag k="name" v="Fagersetmyrane" />
		<tag k="natural" v="wetland" />
		<tag k="ssr:stedsnr" v="617615" />
	</node>
	<node id="-405280" lat="61.1851000043" lon="8.18874999153">
		<tag k="name" v="Jutulstein" />
		<tag k="natural" v="stone" />
		<tag k="ssr:stedsnr" v="908271" />
	</node>
	<node id="-405273" lat="61.1361527754" lon="8.68743611233">
		<tag k="historic" v="shieling" />
		<tag k="name" v="Gamlestølen" />
>>>>>>> e1d4bc35ff8a6074a6f2e91616a996b547c36f15
		<tag k="place" v="locality" />
		<tag k="ssr:stedsnr" v="847022" />
	</node>
<<<<<<< HEAD
	<node lat="61.20004722488887" lon="8.383591673327716" id="-18074">
		<tag k="name" v="Klepp" />
=======
	<node id="-405209" lat="61.1168722239" lon="8.52931667037">
		<tag k="historic" v="shieling" />
		<tag k="name" v="Krøssfønnstølen" />
		<tag k="place" v="locality" />
		<tag k="ssr:stedsnr" v="889662" />
	</node>
	<node id="-404756" lat="61.1557222261" lon="8.81594166415">
		<tag k="name" v="Dokken" />
>>>>>>> e1d4bc35ff8a6074a6f2e91616a996b547c36f15
		<tag k="place" v="locality" />
		<tag k="ssr:stedsnr" v="847474" />
	</node>
<<<<<<< HEAD
	<node lat="61.12112499638951" lon="8.575552786190945" id="-18078">
		<tag k="name" v="Teigen" />
=======
	<node id="-404755" lat="61.1083305548" lon="8.51720555914">
		<tag k="name" v="Krøssfønn" />
>>>>>>> e1d4bc35ff8a6074a6f2e91616a996b547c36f15
		<tag k="place" v="locality" />
		<tag k="ssr:stedsnr" v="848796" />
	</node>
<<<<<<< HEAD
	<node lat="61.12474999972453" lon="8.6525138851769" id="-18093">
		<tag k="name" v="Tverrbrumyre" />
		<tag k="natural" v="wetland" />
		<tag k="ssr:stedsnr" v="857350" />
	</node>
	<node lat="61.174538888955404" lon="8.799247228040302" id="-18109">
		<tag k="name" v="Geitøstbakkaden" />
=======
	<node id="-405778" lat="61.1731749985" lon="8.31428055114">
		<tag k="name" v="Storurde" />
		<tag k="natural" v="scree" />
		<tag k="ssr:stedsnr" v="300396" />
	</node>
	<node id="-405777" lat="61.2095111121" lon="8.31594444388">
		<tag k="landuse" v="meadow" />
		<tag k="name" v="Flatajordet" />
		<tag k="ssr:stedsnr" v="180335" />
	</node>
	<node id="-405776" lat="61.2086916645" lon="8.30776110634">
		<tag k="name" v="Just" />
>>>>>>> e1d4bc35ff8a6074a6f2e91616a996b547c36f15
		<tag k="place" v="locality" />
		<tag k="ssr:stedsnr" v="888221" />
	</node>
<<<<<<< HEAD
	<node lat="61.15613888897535" lon="8.822947226113637" id="-18110">
		<tag k="name" v="Gjertrudstølsjordet" />
		<tag k="place" v="locality" />
		<tag k="ssr:stedsnr" v="888250" />
	</node>
	<node lat="61.157477773972055" lon="8.450613890055946" id="-18117">
		<tag k="name" v="Langeleite" />
=======
	<node id="-406287" lat="61.161536108" lon="8.51078055922">
		<tag k="name" v="Kviture" />
		<tag k="natural" v="scree" />
		<tag k="ssr:stedsnr" v="613693" />
	</node>
	<node id="-405774" lat="61.1563055582" lon="8.80725555612">
		<tag k="name" v="Sandbakken" />
>>>>>>> e1d4bc35ff8a6074a6f2e91616a996b547c36f15
		<tag k="place" v="locality" />
		<tag k="ssr:stedsnr" v="889455" />
	</node>
<<<<<<< HEAD
	<node lat="61.11816879275417" lon="8.52048240581236" id="-18120">
		<tag k="name" v="Storstein" />
		<tag k="natural" v="stone" />
		<tag k="ssr:stedsnr" v="889652" />
	</node>
	<node lat="61.11330555611624" lon="8.541727769899225" id="-18121">
		<tag k="historic" v="shieling" />
		<tag k="name" v="Jonsstølen" />
=======
	<node id="-405037" lat="61.2143999984" lon="8.25268611191">
		<tag k="name" v="Svøe" />
		<tag k="place" v="locality" />
		<tag k="ssr:stedsnr" v="604222" />
	</node>
	<node id="-405260" lat="61.0741777808" lon="8.61806666536">
		<tag k="name" v="Bleikefeten" />
>>>>>>> e1d4bc35ff8a6074a6f2e91616a996b547c36f15
		<tag k="place" v="locality" />
		<tag k="ssr:stedsnr" v="889654" />
	</node>
<<<<<<< HEAD
	<node lat="61.13615277536965" lon="8.68743611232587" id="-18139">
=======
	<node id="-405258" lat="61.2121277755" lon="8.32652499205">
>>>>>>> e1d4bc35ff8a6074a6f2e91616a996b547c36f15
		<tag k="historic" v="shieling" />
		<tag k="name" v="Gamlestølen" />
		<tag k="place" v="locality" />
		<tag k="ssr:stedsnr" v="907925" />
	</node>
<<<<<<< HEAD
	<node lat="61.119524995819845" lon="8.623255548410178" id="-18141">
		<tag k="name" v="Kvilarstein" />
		<tag k="natural" v="stone" />
		<tag k="ssr:stedsnr" v="907854" />
	</node>
	<node lat="61.19905833075207" lon="8.388874999415755" id="-18166">
		<tag k="historic" v="shieling" />
		<tag k="name" v="Øystølen" />
=======
	<node id="-404695" lat="61.1062638867" lon="8.52116665839">
		<tag k="name" v="Røven" />
		<tag k="place" v="locality" />
		<tag k="ssr:stedsnr" v="482670" />
	</node>
	<node id="-405256" lat="61.0735138881" lon="8.69503332678">
		<tag k="name" v="Vergesteinmyra" />
		<tag k="natural" v="wetland" />
		<tag k="ssr:stedsnr" v="907785" />
	</node>
	<node id="-405765" lat="61.083947219" lon="8.58550554762">
		<tag k="name" v="Bleikefeten" />
>>>>>>> e1d4bc35ff8a6074a6f2e91616a996b547c36f15
		<tag k="place" v="locality" />
		<tag k="ssr:stedsnr" v="949436" />
	</node>
	<node lat="61.19296944368004" lon="8.524636115144853" id="-18169">
		<tag k="name" v="Trøkastein" />
		<tag k="natural" v="stone" />
		<tag k="ssr:stedsnr" v="949785" />
	</node>
<<<<<<< HEAD
	<node lat="61.168419442106" lon="8.33099722882237" id="-18179">
		<tag k="historic" v="shieling" />
		<tag k="name" v="Nye Brekkudn" />
		<tag k="place" v="locality" />
		<tag k="ssr:stedsnr" v="968285" />
	</node>
	<node lat="61.16958610839982" lon="8.374363893555795" id="-18180">
		<tag k="name" v="Sotstein" />
=======
	<node id="-404739" lat="61.2079361116" lon="8.30525000729">
		<tag k="name" v="Kyrkja" />
>>>>>>> e1d4bc35ff8a6074a6f2e91616a996b547c36f15
		<tag k="natural" v="stone" />
		<tag k="ssr:stedsnr" v="968287" />
	</node>
<<<<<<< HEAD
	<node lat="61.167983333023884" lon="8.348463894058602" id="-18181">
		<tag k="landuse" v="meadow" />
		<tag k="name" v="Varpet" />
		<tag k="ssr:stedsnr" v="968292" />
	</node>
	<node lat="61.14532499674905" lon="8.809133339774007" id="-18257">
		<tag k="name" v="Kråkemyr" />
=======
	<node id="-405250" lat="61.1683638875" lon="8.17217223119">
		<tag k="name" v="Brendemyre" />
		<tag k="natural" v="wetland" />
		<tag k="ssr:stedsnr" v="907181" />
	</node>
	<node id="-405249" lat="61.1692055521" lon="8.14951667092">
		<tag k="name" v="Skavlemyre" />
>>>>>>> e1d4bc35ff8a6074a6f2e91616a996b547c36f15
		<tag k="natural" v="wetland" />
		<tag k="ssr:stedsnr" v="58229" />
	</node>
<<<<<<< HEAD
	<node lat="61.173563886222304" lon="8.319986105201782" id="-18267">
		<tag k="name" v="Følastakkstøe" />
		<tag k="place" v="locality" />
		<tag k="ssr:stedsnr" v="58427" />
	</node>
	<node lat="61.21146388584877" lon="8.322452779425927" id="-18271">
		<tag k="name" v="Kåldekkadn" />
=======
	<node id="-404735" lat="61.1517166683" lon="8.74884721637">
		<tag k="name" v="Dekko" />
>>>>>>> e1d4bc35ff8a6074a6f2e91616a996b547c36f15
		<tag k="place" v="locality" />
		<tag k="ssr:stedsnr" v="58481" />
	</node>
<<<<<<< HEAD
	<node lat="61.422047223139764" lon="8.163094442639753" id="-18300">
		<tag k="name" v="Uranosbreen" />
		<tag k="natural" v="glacier" />
		<tag k="ssr:stedsnr" v="68836" />
	</node>
	<node lat="61.18384166909635" lon="8.534874997687929" id="-18314">
=======
	<node id="-405241" lat="61.2155888896" lon="8.37156944999">
>>>>>>> e1d4bc35ff8a6074a6f2e91616a996b547c36f15
		<tag k="historic" v="shieling" />
		<tag k="name" v="Skeisstølen" />
		<tag k="place" v="locality" />
		<tag k="ssr:stedsnr" v="100729" />
	</node>
<<<<<<< HEAD
	<node lat="61.189925000633025" lon="8.718863890579145" id="-18319">
		<tag k="historic" v="shieling" />
		<tag k="name" v="Belsheimstølen" />
		<tag k="place" v="locality" />
		<tag k="ssr:stedsnr" v="100044" />
	</node>
	<node lat="61.18968610987644" lon="8.728511110572216" id="-18320">
		<tag k="historic" v="shieling" />
		<tag k="name" v="Løkreimstølen" />
		<tag k="place" v="locality" />
		<tag k="ssr:stedsnr" v="100045" />
	</node>
	<node lat="61.16608889230389" lon="8.487994442090011" id="-18324">
		<tag k="name" v="Juvike" />
		<tag k="place" v="locality" />
		<tag k="ssr:stedsnr" v="100446" />
	</node>
	<node lat="61.15118889034332" lon="8.463100000008565" id="-18325">
		<tag k="historic" v="shieling" />
		<tag k="name" v="Fjellstøladn" />
=======
	<node id="-405749" lat="61.1332777736" lon="8.59860000265">
		<tag k="name" v="Sæleikre" />
>>>>>>> e1d4bc35ff8a6074a6f2e91616a996b547c36f15
		<tag k="place" v="locality" />
		<tag k="ssr:stedsnr" v="100454" />
	</node>
<<<<<<< HEAD
	<node lat="61.152897218224325" lon="8.743344443633681" id="-18349">
		<tag k="name" v="Midtre-Myre" />
=======
	<node id="-405236" lat="61.1594444486" lon="8.76232776878">
		<tag k="name" v="Alltingsvaet" />
>>>>>>> e1d4bc35ff8a6074a6f2e91616a996b547c36f15
		<tag k="place" v="locality" />
		<tag k="ssr:stedsnr" v="118159" />
	</node>
<<<<<<< HEAD
	<node lat="61.179566669821696" lon="8.382349991578218" id="-18365">
=======
	<node id="-406257" lat="61.1421277814" lon="8.67078333588">
>>>>>>> e1d4bc35ff8a6074a6f2e91616a996b547c36f15
		<tag k="historic" v="shieling" />
		<tag k="name" v="Stordøkk" />
		<tag k="place" v="locality" />
<<<<<<< HEAD
		<tag k="ssr:stedsnr" v="119418" />
	</node>
	<node lat="61.209558336272124" lon="8.31786111038518" id="-18366">
		<tag k="name" v="Øvre Myre" />
=======
		<tag k="ssr:stedsnr" v="603935" />
	</node>
	<node id="-405744" lat="61.0776833376" lon="8.67524999133">
		<tag k="name" v="Vea Syndinfjellet" />
		<tag k="place" v="locality" />
		<tag k="ssr:stedsnr" v="160764" />
	</node>
	<node id="-406255" lat="61.1254916625" lon="8.70273610564">
		<tag k="name" v="Sandemyre" />
>>>>>>> e1d4bc35ff8a6074a6f2e91616a996b547c36f15
		<tag k="natural" v="wetland" />
		<tag k="ssr:stedsnr" v="119356" />
	</node>
<<<<<<< HEAD
	<node lat="61.18954722650697" lon="8.733380547707066" id="-18390">
		<tag k="historic" v="shieling" />
		<tag k="name" v="Haugastølen" />
		<tag k="place" v="locality" />
		<tag k="ssr:stedsnr" v="160039" />
	</node>
	<node lat="61.16439166748634" lon="8.402530550137335" id="-18396">
		<tag k="name" v="Markateigen" />
=======
	<node id="-405862" lat="61.1293802548" lon="8.54967594156">
		<tag k="name" v="Bøaflata" />
		<tag k="place" v="locality" />
		<tag k="ssr:stedsnr" v="310294" />
	</node>
	<node id="-406253" lat="61.1162666679" lon="8.63758888169">
		<tag k="historic" v="shieling" />
		<tag k="name" v="Øvrebølyrja" />
>>>>>>> e1d4bc35ff8a6074a6f2e91616a996b547c36f15
		<tag k="place" v="locality" />
		<tag k="ssr:stedsnr" v="160337" />
	</node>
	<node lat="61.19300278188261" lon="8.394508339158502" id="-18400">
		<tag k="name" v="Skjervemarka" />
		<tag k="place" v="locality" />
		<tag k="ssr:stedsnr" v="160436" />
	</node>
<<<<<<< HEAD
	<node lat="61.20417499745392" lon="8.399236104035431" id="-18401">
		<tag k="name" v="Bulegudn" />
		<tag k="place" v="locality" />
		<tag k="ssr:stedsnr" v="160441" />
	</node>
	<node lat="61.20505277532366" lon="8.39103334016737" id="-18402">
=======
	<node id="-405738" lat="61.2050527753" lon="8.39103334017">
>>>>>>> e1d4bc35ff8a6074a6f2e91616a996b547c36f15
		<tag k="name" v="Sauemyradn" />
		<tag k="natural" v="wetland" />
		<tag k="ssr:stedsnr" v="160442" />
	</node>
<<<<<<< HEAD
	<node lat="61.20844444750655" lon="8.36258611758214" id="-18405">
		<tag k="name" v="Leinehaugen" />
=======
	<node id="-405737" lat="61.2041749975" lon="8.39923610404">
		<tag k="name" v="Bulegudn" />
>>>>>>> e1d4bc35ff8a6074a6f2e91616a996b547c36f15
		<tag k="place" v="locality" />
		<tag k="ssr:stedsnr" v="160368" />
	</node>
<<<<<<< HEAD
	<node lat="61.18527499858272" lon="8.39735278133875" id="-18406">
		<tag k="name" v="Mjølin" />
=======
	<node id="-405736" lat="61.1930027819" lon="8.39450833916">
		<tag k="name" v="Skjervemarka" />
>>>>>>> e1d4bc35ff8a6074a6f2e91616a996b547c36f15
		<tag k="place" v="locality" />
		<tag k="ssr:stedsnr" v="160371" />
	</node>
<<<<<<< HEAD
	<node lat="61.11435833092573" lon="8.539638894804508" id="-18407">
		<tag k="historic" v="shieling" />
		<tag k="name" v="Lislestølen" />
		<tag k="place" v="locality" />
		<tag k="ssr:stedsnr" v="160618" />
	</node>
	<node lat="61.118972220532115" lon="8.544630557925345" id="-18414">
		<tag k="name" v="Kalsjordet" />
		<tag k="place" v="locality" />
		<tag k="ssr:stedsnr" v="160648" />
	</node>
	<node lat="61.16959166942777" lon="8.534327768474917" id="-18418">
=======
	<node id="-406246" lat="61.1679555561" lon="8.33993333624">
		<tag k="historic" v="shieling" />
		<tag k="name" v="Einesete" />
		<tag k="place" v="locality" />
		<tag k="ssr:stedsnr" v="603237" />
	</node>
	<node id="-405733" lat="61.1695916694" lon="8.53432776847">
>>>>>>> e1d4bc35ff8a6074a6f2e91616a996b547c36f15
		<tag k="landuse" v="meadow" />
		<tag k="name" v="Snørodøkke" />
		<tag k="ssr:stedsnr" v="160690" />
	</node>
<<<<<<< HEAD
	<node lat="61.07768333764082" lon="8.675249991327735" id="-18420">
		<tag k="name" v="Vea Syndinfjellet" />
=======
	<node id="-405727" lat="61.1643916675" lon="8.40253055014">
		<tag k="name" v="Markateigen" />
>>>>>>> e1d4bc35ff8a6074a6f2e91616a996b547c36f15
		<tag k="place" v="locality" />
		<tag k="ssr:stedsnr" v="160764" />
	</node>
<<<<<<< HEAD
	<node lat="61.20228610767538" lon="8.51320000216828" id="-18421">
		<tag k="landuse" v="meadow" />
		<tag k="name" v="Vølladn" />
		<tag k="ssr:stedsnr" v="160777" />
	</node>
	<node lat="61.13327777362789" lon="8.598600002647633" id="-18426">
		<tag k="name" v="Sæleikre" />
=======
	<node id="-405725" lat="61.1852749986" lon="8.39735278134">
		<tag k="name" v="Mjølin" />
		<tag k="place" v="locality" />
		<tag k="ssr:stedsnr" v="160371" />
	</node>
	<node id="-406236" lat="61.1793555534" lon="8.54266111972">
		<tag k="historic" v="shieling" />
		<tag k="name" v="Hurrbakkstølen" />
>>>>>>> e1d4bc35ff8a6074a6f2e91616a996b547c36f15
		<tag k="place" v="locality" />
		<tag k="ssr:stedsnr" v="161212" />
	</node>
<<<<<<< HEAD
	<node lat="61.15630555815678" lon="8.80725555612391" id="-18427">
		<tag k="name" v="Sandbakken" />
		<tag k="place" v="locality" />
		<tag k="ssr:stedsnr" v="180393" />
	</node>
	<node lat="61.08394721898072" lon="8.585505547621676" id="-18439">
		<tag k="name" v="Bleikefeten" />
=======
	<node id="-404602" lat="61.1446277793" lon="8.85223612018">
		<tag k="name" v="Kubakkgøta" />
		<tag k="place" v="locality" />
		<tag k="ssr:stedsnr" v="179207" />
	</node>
	<node id="-406234" lat="61.1188583361" lon="8.55889722668">
		<tag k="landuse" v="meadow" />
		<tag k="name" v="Vangsløoenge" />
		<tag k="ssr:stedsnr" v="585648" />
	</node>
	<node id="-405721" lat="61.1895472265" lon="8.73338054771">
		<tag k="historic" v="shieling" />
		<tag k="name" v="Haugastølen" />
>>>>>>> e1d4bc35ff8a6074a6f2e91616a996b547c36f15
		<tag k="place" v="locality" />
		<tag k="ssr:stedsnr" v="179587" />
	</node>
<<<<<<< HEAD
	<node lat="61.2086916644597" lon="8.307761106342126" id="-18445">
		<tag k="name" v="Just" />
=======
	<node id="-405208" lat="61.1133055561" lon="8.5417277699">
		<tag k="historic" v="shieling" />
		<tag k="name" v="Jonsstølen" />
>>>>>>> e1d4bc35ff8a6074a6f2e91616a996b547c36f15
		<tag k="place" v="locality" />
		<tag k="ssr:stedsnr" v="180333" />
	</node>
<<<<<<< HEAD
	<node lat="61.20951111206015" lon="8.315944443882842" id="-18446">
		<tag k="landuse" v="meadow" />
		<tag k="name" v="Flatajordet" />
		<tag k="ssr:stedsnr" v="180335" />
	</node>
	<node lat="61.13841439677907" lon="8.729324286427545" id="-18468">
		<tag k="name" v="Ørnemyre" />
		<tag k="natural" v="wetland" />
		<tag k="ssr:stedsnr" v="189251" />
	</node>
	<node lat="61.18545277678966" lon="8.659827774048205" id="-18484">
		<tag k="name" v="Stormyr" />
		<tag k="natural" v="wetland" />
		<tag k="ssr:stedsnr" v="221097" />
	</node>
	<node lat="61.15393333000022" lon="8.611363894604242" id="-18486">
		<tag k="name" v="Skiftisure" />
		<tag k="natural" v="scree" />
		<tag k="ssr:stedsnr" v="221688" />
	</node>
	<node lat="61.15208055249122" lon="8.484252769941634" id="-18491">
		<tag k="name" v="Urateigidn" />
=======
	<node id="-405207" lat="61.1181687928" lon="8.52048240581">
		<tag k="name" v="Storstein" />
		<tag k="natural" v="stone" />
		<tag k="ssr:stedsnr" v="889652" />
	</node>
	<node id="-404692" lat="61.2110750036" lon="8.33672221747">
		<tag k="name" v="Gamlekve" />
		<tag k="place" v="locality" />
		<tag k="ssr:stedsnr" v="482432" />
	</node>
	<node id="-405199" lat="61.157477774" lon="8.45061389006">
		<tag k="name" v="Langeleite" />
		<tag k="place" v="locality" />
		<tag k="ssr:stedsnr" v="889455" />
	</node>
	<node id="-404684" lat="61.1664277801" lon="8.37958611295">
		<tag k="name" v="Rødalsuksin" />
		<tag k="place" v="locality" />
		<tag k="ssr:stedsnr" v="482278" />
	</node>
	<node id="-406218" lat="61.2142388845" lon="8.63212778163">
		<tag k="name" v="Svøe" />
>>>>>>> e1d4bc35ff8a6074a6f2e91616a996b547c36f15
		<tag k="place" v="locality" />
		<tag k="ssr:stedsnr" v="221438" />
	</node>
<<<<<<< HEAD
	<node lat="61.113425002375664" lon="8.568680557403894" id="-18495">
		<tag k="name" v="Tøffilmyre" />
		<tag k="natural" v="wetland" />
		<tag k="ssr:stedsnr" v="221633" />
	</node>
	<node lat="61.170388886819886" lon="8.533530550793785" id="-18499">
		<tag k="landuse" v="meadow" />
		<tag k="name" v="Ilaget" />
		<tag k="ssr:stedsnr" v="221729" />
	</node>
	<node lat="61.174797223341386" lon="8.533255555001483" id="-18514">
		<tag k="name" v="Ilagsmyradn" />
		<tag k="natural" v="wetland" />
		<tag k="ssr:stedsnr" v="282740" />
	</node>
	<node lat="61.02824166609213" lon="8.64492777830475" id="-18520">
		<tag k="name" v="Baggetunsteinen" />
		<tag k="natural" v="stone" />
		<tag k="ssr:stedsnr" v="282762" />
	</node>
	<node lat="61.17367222019569" lon="8.128372228722188" id="-18527">
		<tag k="name" v="Kyrkjistølmyradn" />
		<tag k="natural" v="wetland" />
		<tag k="ssr:stedsnr" v="300149" />
	</node>
	<node lat="61.15359444769939" lon="8.821891665530737" id="-18536">
		<tag k="name" v="Kleivajordet" />
=======
	<node id="-405190" lat="61.1504722208" lon="8.73711389805">
		<tag k="name" v="Bleikfetadn" />
		<tag k="place" v="locality" />
		<tag k="ssr:stedsnr" v="888986" />
	</node>
	<node id="-404491" lat="61.1838416691" lon="8.53487499769">
		<tag k="historic" v="shieling" />
		<tag k="name" v="Skeisstølen" />
		<tag k="place" v="locality" />
		<tag k="ssr:stedsnr" v="100729" />
	</node>
	<node id="-405184" lat="61.156138889" lon="8.82294722611">
		<tag k="name" v="Gjertrudstølsjordet" />
>>>>>>> e1d4bc35ff8a6074a6f2e91616a996b547c36f15
		<tag k="place" v="locality" />
		<tag k="ssr:stedsnr" v="301366" />
	</node>
<<<<<<< HEAD
	<node lat="61.168497223744815" lon="8.21304721859102" id="-18540">
		<tag k="name" v="Svarte Svøe" />
=======
	<node id="-405450" lat="61.1710555545" lon="8.33123332778">
		<tag k="historic" v="shieling" />
		<tag k="name" v="Øvre Eltunsbøttadn" />
>>>>>>> e1d4bc35ff8a6074a6f2e91616a996b547c36f15
		<tag k="place" v="locality" />
		<tag k="ssr:stedsnr" v="968276" />
	</node>
<<<<<<< HEAD
	<node lat="61.10003055787711" lon="8.592636111319235" id="-18553">
		<tag k="name" v="Tunemyrane" />
		<tag k="natural" v="wetland" />
		<tag k="ssr:stedsnr" v="310373" />
	</node>
	<node lat="61.034402775324395" lon="8.425502769122515" id="-18564">
		<tag k="name" v="Storebottfonne" />
		<tag k="natural" v="glacier" />
		<tag k="ssr:stedsnr" v="310644" />
	</node>
	<node lat="61.18729166263135" lon="8.77472221656752" id="-18589">
		<tag k="name" v="Sjødaladn" />
=======
	<node id="-404665" lat="61.1535944477" lon="8.82189166553">
		<tag k="name" v="Kleivajordet" />
>>>>>>> e1d4bc35ff8a6074a6f2e91616a996b547c36f15
		<tag k="place" v="locality" />
		<tag k="ssr:stedsnr" v="342228" />
	</node>
<<<<<<< HEAD
	<node lat="61.135725002365994" lon="8.617380559474123" id="-18592">
		<tag k="name" v="Trøadn" />
		<tag k="place" v="locality" />
		<tag k="ssr:stedsnr" v="342650" />
	</node>
	<node lat="61.18010555236673" lon="8.137055557771472" id="-18611">
		<tag k="historic" v="shieling" />
		<tag k="name" v="Øyestølen" />
		<tag k="place" v="locality" />
		<tag k="ssr:stedsnr" v="361146" />
	</node>
	<node lat="61.15171666834313" lon="8.74884721637342" id="-18616">
		<tag k="name" v="Dekko" />
		<tag k="place" v="locality" />
		<tag k="ssr:stedsnr" v="361173" />
	</node>
	<node lat="61.16806944258358" lon="8.333580560729859" id="-18624">
=======
	<node id="-404662" lat="61.0982249976" lon="8.70832222863">
		<tag k="name" v="Kyrsteinadn" />
		<tag k="natural" v="stone" />
		<tag k="ssr:stedsnr" v="300876" />
	</node>
	<node id="-404661" lat="61.1643833318" lon="8.67644444173">
		<tag k="name" v="Hensure" />
		<tag k="natural" v="scree" />
		<tag k="ssr:stedsnr" v="300917" />
	</node>
	<node id="-405683" lat="61.1795666698" lon="8.38234999158">
>>>>>>> e1d4bc35ff8a6074a6f2e91616a996b547c36f15
		<tag k="historic" v="shieling" />
		<tag k="name" v="Sjegla" />
		<tag k="place" v="locality" />
		<tag k="ssr:stedsnr" v="361279" />
	</node>
<<<<<<< HEAD
	<node lat="61.158188887353695" lon="8.358802785355673" id="-18630">
=======
	<node id="-405682" lat="61.1790722218" lon="8.37865278081">
>>>>>>> e1d4bc35ff8a6074a6f2e91616a996b547c36f15
		<tag k="historic" v="shieling" />
		<tag k="name" v="Gamle Nigardsen" />
		<tag k="place" v="locality" />
		<tag k="ssr:stedsnr" v="361309" />
	</node>
<<<<<<< HEAD
	<node lat="61.207936111575044" lon="8.305250007290928" id="-18636">
		<tag k="name" v="Kyrkja" />
		<tag k="natural" v="stone" />
		<tag k="ssr:stedsnr" v="361375" />
	</node>
	<node lat="61.108330554779094" lon="8.517205559140637" id="-18645">
		<tag k="name" v="Krøssfønn" />
=======
	<node id="-405681" lat="61.1844916645" lon="8.3688722287">
		<tag k="historic" v="shieling" />
		<tag k="name" v="Øvre Stølen" />
>>>>>>> e1d4bc35ff8a6074a6f2e91616a996b547c36f15
		<tag k="place" v="locality" />
		<tag k="ssr:stedsnr" v="361712" />
	</node>
<<<<<<< HEAD
	<node lat="61.155722226062956" lon="8.81594166415336" id="-18652">
		<tag k="name" v="Dokken" />
=======
	<node id="-405166" lat="61.1293361132" lon="8.52606111493">
		<tag k="name" v="Hagfelludn" />
>>>>>>> e1d4bc35ff8a6074a6f2e91616a996b547c36f15
		<tag k="place" v="locality" />
		<tag k="ssr:stedsnr" v="362403" />
	</node>
<<<<<<< HEAD
	<node lat="61.21714722429413" lon="8.632319439482174" id="-18687">
		<tag k="name" v="Buhaugmyre" />
=======
	<node id="-404646" lat="61.174008331" lon="8.72516388732">
		<tag k="name" v="Laglimsmyre" />
>>>>>>> e1d4bc35ff8a6074a6f2e91616a996b547c36f15
		<tag k="natural" v="wetland" />
		<tag k="ssr:stedsnr" v="403013" />
	</node>
<<<<<<< HEAD
	<node lat="61.16503333031526" lon="8.825133333133312" id="-18690">
		<tag k="name" v="Stormyr" />
		<tag k="natural" v="wetland" />
		<tag k="ssr:stedsnr" v="403267" />
	</node>
	<node lat="61.172497226731984" lon="8.863924991935592" id="-18713">
		<tag k="name" v="Hålimyradn" />
		<tag k="natural" v="wetland" />
		<tag k="ssr:stedsnr" v="418953" />
	</node>
	<node lat="61.22549166685727" lon="8.235549993365495" id="-18718">
		<tag k="historic" v="shieling" />
		<tag k="name" v="Gamle Skogstadstølen" />
		<tag k="place" v="locality" />
		<tag k="ssr:stedsnr" v="423227" />
	</node>
	<node lat="61.162652780779446" lon="8.342655557717995" id="-18726">
		<tag k="historic" v="shieling" />
		<tag k="name" v="Hølisstølen" />
		<tag k="place" v="locality" />
		<tag k="ssr:stedsnr" v="422262" />
	</node>
	<node lat="61.158099996484324" lon="8.816122216565278" id="-18742">
		<tag k="name" v="Stallsmyr" />
		<tag k="natural" v="wetland" />
		<tag k="ssr:stedsnr" v="423429" />
	</node>
	<node lat="61.17059166559414" lon="8.314733339382641" id="-18743">
		<tag k="name" v="Bulegudn" />
=======
	<node id="-405157" lat="61.4309027758" lon="8.18387222581">
		<tag k="name" v="Mjølkedalsbreen" />
		<tag k="natural" v="glacier" />
		<tag k="ssr:stedsnr" v="735851" />
	</node>
	<node id="-406588" lat="61.167983333" lon="8.34846389406">
		<tag k="landuse" v="meadow" />
		<tag k="name" v="Varpet" />
		<tag k="ssr:stedsnr" v="968292" />
	</node>
	<node id="-405019" lat="61.1597888868" lon="8.56556110702">
		<tag k="historic" v="shieling" />
		<tag k="name" v="Øldrestølen" />
		<tag k="place" v="locality" />
		<tag k="ssr:stedsnr" v="585709" />
	</node>
	<node id="-405661" lat="61.1528972182" lon="8.74334444363">
		<tag k="name" v="Midtre-Myre" />
		<tag k="place" v="locality" />
		<tag k="ssr:stedsnr" v="118159" />
	</node>
	<node id="-404332" lat="61.15393333" lon="8.6113638946">
		<tag k="name" v="Skiftisure" />
		<tag k="natural" v="scree" />
		<tag k="ssr:stedsnr" v="221688" />
	</node>
	<node id="-405638" lat="61.1660888923" lon="8.48799444209">
		<tag k="name" v="Juvike" />
>>>>>>> e1d4bc35ff8a6074a6f2e91616a996b547c36f15
		<tag k="place" v="locality" />
		<tag k="ssr:stedsnr" v="423434" />
	</node>
<<<<<<< HEAD
	<node lat="61.15746388768783" lon="8.83778889502475" id="-18780">
		<tag k="name" v="Hesjane" />
		<tag k="place" v="locality" />
		<tag k="ssr:stedsnr" v="524258" />
	</node>
	<node lat="61.18623888483524" lon="8.533844452846159" id="-18783">
		<tag k="name" v="Sandadn" />
		<tag k="natural" v="beach" />
		<tag k="ssr:stedsnr" v="524739" />
		<tag k="surface" v="sand" />
	</node>
	<node lat="61.191091667778714" lon="8.696433325007481" id="-18785">
=======
	<node id="-404865" lat="61.1619972219" lon="8.64424721344">
		<tag k="name" v="Kyrkjebøno" />
		<tag k="place" v="locality" />
		<tag k="ssr:stedsnr" v="664921" />
	</node>
	<node id="-405564" lat="61.1569833323" lon="8.80568610726">
		<tag k="name" v="Steinsjorde" />
		<tag k="place" v="locality" />
		<tag k="ssr:stedsnr" v="58404" />
	</node>
	<node id="-406146" lat="61.1733194483" lon="8.36551389225">
		<tag k="name" v="Trøllstein" />
		<tag k="natural" v="stone" />
		<tag k="ssr:stedsnr" v="544280" />
	</node>
	<node id="-406145" lat="61.1714138911" lon="8.35064999359">
		<tag k="landuse" v="meadow" />
		<tag k="name" v="Biren" />
		<tag k="ssr:stedsnr" v="544278" />
	</node>
	<node id="-405632" lat="61.1896861099" lon="8.72851111057">
>>>>>>> e1d4bc35ff8a6074a6f2e91616a996b547c36f15
		<tag k="historic" v="shieling" />
		<tag k="name" v="Nørsvinsstølen" />
		<tag k="place" v="locality" />
		<tag k="ssr:stedsnr" v="525052" />
	</node>
	<node lat="61.181950002324314" lon="8.67428055701691" id="-18786">
		<tag k="historic" v="shieling" />
		<tag k="name" v="Torisstølen" />
		<tag k="place" v="locality" />
		<tag k="ssr:stedsnr" v="525123" />
	</node>
	<node lat="61.17006110895253" lon="8.864800006160785" id="-18793">
		<tag k="name" v="Baklijorde" />
		<tag k="place" v="locality" />
		<tag k="ssr:stedsnr" v="539952" />
	</node>
<<<<<<< HEAD
	<node lat="61.15203055342703" lon="8.814163895620446" id="-18802">
		<tag k="name" v="Skjøssjorde" />
=======
	<node id="-405631" lat="61.1899250006" lon="8.71886389058">
		<tag k="historic" v="shieling" />
		<tag k="name" v="Belsheimstølen" />
>>>>>>> e1d4bc35ff8a6074a6f2e91616a996b547c36f15
		<tag k="place" v="locality" />
		<tag k="ssr:stedsnr" v="543356" />
	</node>
<<<<<<< HEAD
	<node lat="61.20034166286404" lon="8.366313895702636" id="-18805">
		<tag k="name" v="Øygardsjorudn" />
=======
	<node id="-406142" lat="61.2125694414" lon="8.23682222758">
		<tag k="name" v="Tørvetaket" />
		<tag k="natural" v="wetland" />
		<tag k="ssr:stedsnr" v="544210" />
	</node>
	<node id="-406140" lat="61.1381611082" lon="8.71945555802">
		<tag k="historic" v="shieling" />
		<tag k="name" v="Nye Stølen" />
>>>>>>> e1d4bc35ff8a6074a6f2e91616a996b547c36f15
		<tag k="place" v="locality" />
		<tag k="ssr:stedsnr" v="543443" />
	</node>
<<<<<<< HEAD
	<node lat="61.16343610943503" lon="8.67385278302334" id="-18809">
=======
	<node id="-406139" lat="61.1634361094" lon="8.67385278302">
>>>>>>> e1d4bc35ff8a6074a6f2e91616a996b547c36f15
		<tag k="name" v="Brekkehølmadn" />
		<tag k="place" v="locality" />
		<tag k="ssr:stedsnr" v="543899" />
	</node>
<<<<<<< HEAD
	<node lat="61.117127779782905" lon="8.669947217847538" id="-18810">
=======
	<node id="-405114" lat="61.3782833317" lon="8.63778333667">
		<tag k="name" v="Kalvehøgdbreene" />
		<tag k="natural" v="glacier" />
		<tag k="ssr:stedsnr" v="735147" />
	</node>
	<node id="-404795" lat="61.1778250027" lon="8.39807500624">
		<tag k="name" v="Bulegudn" />
		<tag k="place" v="locality" />
		<tag k="ssr:stedsnr" v="403409" />
	</node>
	<node id="-406136" lat="61.1171277798" lon="8.66994721785">
>>>>>>> e1d4bc35ff8a6074a6f2e91616a996b547c36f15
		<tag k="name" v="Trøllermyre" />
		<tag k="natural" v="wetland" />
		<tag k="ssr:stedsnr" v="543856" />
	</node>
<<<<<<< HEAD
	<node lat="61.1381611081917" lon="8.719455558015854" id="-18813">
		<tag k="historic" v="shieling" />
		<tag k="name" v="Nye Stølen" />
		<tag k="place" v="locality" />
		<tag k="ssr:stedsnr" v="543933" />
	</node>
	<node lat="61.15274355294702" lon="8.854282944124806" id="-18832">
		<tag k="historic" v="shieling" />
		<tag k="name" v="Hellestølen" />
=======
	<node id="-405622" lat="61.1736722202" lon="8.12837222872">
		<tag k="name" v="Kyrkjistølmyradn" />
		<tag k="natural" v="wetland" />
		<tag k="ssr:stedsnr" v="300149" />
	</node>
	<node id="-405097" lat="61.1730500042" lon="8.35871389675">
		<tag k="name" v="Teigabøttadn" />
		<tag k="place" v="locality" />
		<tag k="ssr:stedsnr" v="726309" />
	</node>
	<node id="-404594" lat="61.1772555595" lon="8.70726388014">
		<tag k="name" v="Liahagin" />
		<tag k="place" v="locality" />
		<tag k="ssr:stedsnr" v="282980" />
	</node>
	<node id="-404592" lat="61.0282416661" lon="8.6449277783">
		<tag k="name" v="Baggetunsteinen" />
		<tag k="natural" v="stone" />
		<tag k="ssr:stedsnr" v="282762" />
	</node>
	<node id="-404591" lat="61.1747972233" lon="8.533255555">
		<tag k="name" v="Ilagsmyradn" />
		<tag k="natural" v="wetland" />
		<tag k="ssr:stedsnr" v="282740" />
	</node>
	<node id="-406126" lat="61.2003416629" lon="8.3663138957">
		<tag k="name" v="Øygardsjorudn" />
		<tag k="place" v="locality" />
		<tag k="ssr:stedsnr" v="543443" />
	</node>
	<node id="-404588" lat="61.1282555552" lon="8.53385832843">
		<tag k="name" v="Storåkern" />
>>>>>>> e1d4bc35ff8a6074a6f2e91616a996b547c36f15
		<tag k="place" v="locality" />
		<tag k="ssr:stedsnr" v="553068" />
	</node>
<<<<<<< HEAD
	<node lat="61.19243889040551" lon="8.698919438892318" id="-18864">
		<tag k="name" v="Åsejordet" />
		<tag k="place" v="locality" />
		<tag k="ssr:stedsnr" v="585066" />
	</node>
	<node lat="61.11885833610008" lon="8.558897226676606" id="-18874">
		<tag k="landuse" v="meadow" />
		<tag k="name" v="Vangsløoenge" />
		<tag k="ssr:stedsnr" v="585648" />
	</node>
	<node lat="61.12043610811771" lon="8.558533331155443" id="-18877">
		<tag k="name" v="Plantefeltet" />
		<tag k="place" v="locality" />
		<tag k="ssr:stedsnr" v="585662" />
	</node>
	<node lat="61.174488885646426" lon="8.157466674384768" id="-18889">
		<tag k="name" v="Kiladn" />
		<tag k="natural" v="wetland" />
		<tag k="ssr:stedsnr" v="603173" />
	</node>
	<node lat="61.170919442336974" lon="8.175447215427328" id="-18891">
		<tag k="name" v="Tjernmyre" />
=======
	<node id="-405609" lat="61.4220472231" lon="8.16309444264">
		<tag k="name" v="Uranosbreen" />
		<tag k="natural" v="glacier" />
		<tag k="ssr:stedsnr" v="68836" />
	</node>
	<node id="-406245" lat="61.1800500016" lon="8.86177222358">
		<tag k="name" v="Høgsten" />
		<tag k="place" v="locality" />
		<tag k="ssr:stedsnr" v="599969" />
	</node>
	<node id="-404412" lat="61.1313972183" lon="8.63785554945">
		<tag k="historic" v="shieling" />
		<tag k="name" v="Trondsonstølen" />
		<tag k="place" v="locality" />
		<tag k="ssr:stedsnr" v="240944" />
	</node>
	<node id="-404864" lat="61.1390194473" lon="8.73425832842">
		<tag k="historic" v="shieling" />
		<tag k="name" v="Døkkestølen" />
		<tag k="place" v="locality" />
		<tag k="ssr:stedsnr" v="664898" />
	</node>
	<node id="-405093" lat="61.16847778" lon="8.30552222351">
		<tag k="name" v="Grøne Kiladn" />
		<tag k="natural" v="wetland" />
		<tag k="ssr:stedsnr" v="726428" />
	</node>
	<node id="-404326" lat="61.1235805574" lon="8.61286667543">
		<tag k="name" v="Kvisten" />
		<tag k="natural" v="stone" />
		<tag k="ssr:stedsnr" v="221627" />
	</node>
	<node id="-404411" lat="61.1308999991" lon="8.65810000308">
		<tag k="name" v="Stormyr" />
		<tag k="natural" v="wetland" />
		<tag k="ssr:stedsnr" v="240942" />
	</node>
	<node id="-405087" lat="61.2082222262" lon="8.31877500195">
		<tag k="name" v="Nedre Myre" />
>>>>>>> e1d4bc35ff8a6074a6f2e91616a996b547c36f15
		<tag k="natural" v="wetland" />
		<tag k="ssr:stedsnr" v="603182" />
	</node>
<<<<<<< HEAD
	<node lat="61.16795555613443" lon="8.339933336239836" id="-18892">
=======
	<node id="-406107" lat="61.1819500023" lon="8.67428055702">
>>>>>>> e1d4bc35ff8a6074a6f2e91616a996b547c36f15
		<tag k="historic" v="shieling" />
		<tag k="name" v="Einesete" />
		<tag k="place" v="locality" />
		<tag k="ssr:stedsnr" v="603237" />
	</node>
<<<<<<< HEAD
	<node lat="61.11626666794308" lon="8.637588881686312" id="-18896">
		<tag k="historic" v="shieling" />
		<tag k="name" v="Øvrebølyrja" />
		<tag k="place" v="locality" />
		<tag k="ssr:stedsnr" v="603872" />
	</node>
	<node lat="61.12549166253783" lon="8.702736105643627" id="-18898">
		<tag k="name" v="Sandemyre" />
=======
	<node id="-405082" lat="61.1140527736" lon="8.69423889555">
		<tag k="name" v="Lagoformyre" />
>>>>>>> e1d4bc35ff8a6074a6f2e91616a996b547c36f15
		<tag k="natural" v="wetland" />
		<tag k="ssr:stedsnr" v="603879" />
	</node>
<<<<<<< HEAD
	<node lat="61.14212778137215" lon="8.670783335877234" id="-18900">
		<tag k="historic" v="shieling" />
		<tag k="name" v="Smalastølen" />
=======
	<node id="-406104" lat="61.1567722255" lon="8.7160111165">
		<tag k="name" v="Belsheimøynadn" />
>>>>>>> e1d4bc35ff8a6074a6f2e91616a996b547c36f15
		<tag k="place" v="locality" />
		<tag k="ssr:stedsnr" v="603935" />
	</node>
<<<<<<< HEAD
	<node lat="61.16153610795788" lon="8.510780559222587" id="-18930">
		<tag k="name" v="Kviture" />
		<tag k="natural" v="scree" />
		<tag k="ssr:stedsnr" v="613693" />
	</node>
	<node lat="61.19315278170348" lon="8.668577769305537" id="-18953">
		<tag k="landuse" v="meadow" />
		<tag k="name" v="Synisløeenge" />
		<tag k="ssr:stedsnr" v="645092" />
	</node>
	<node lat="61.15550555715447" lon="8.417030561558994" id="-18957">
		<tag k="historic" v="shieling" />
		<tag k="name" v="Dumbadøkke" />
		<tag k="place" v="locality" />
		<tag k="ssr:stedsnr" v="645364" />
	</node>
	<node lat="61.15485833555835" lon="8.422861117264619" id="-18959">
		<tag k="historic" v="shieling" />
		<tag k="name" v="Laramstøladn" />
=======
	<node id="-406100" lat="61.1574638877" lon="8.83778889502">
		<tag k="name" v="Hesjane" />
		<tag k="place" v="locality" />
		<tag k="ssr:stedsnr" v="524258" />
	</node>
	<node id="-406115" lat="61.170061109" lon="8.86480000616">
		<tag k="name" v="Baklijorde" />
		<tag k="place" v="locality" />
		<tag k="ssr:stedsnr" v="539952" />
	</node>
	<node id="-405072" lat="61.1562749984" lon="8.3543083275">
		<tag k="historic" v="shieling" />
		<tag k="name" v="Galdreinsøyne" />
		<tag k="place" v="locality" />
		<tag k="ssr:stedsnr" v="725258" />
	</node>
	<node id="-406095" lat="61.1862388848" lon="8.53384445285">
		<tag k="name" v="Sandadn" />
		<tag k="natural" v="beach" />
		<tag k="ssr:stedsnr" v="524739" />
		<tag k="surface" v="sand" />
	</node>
	<node id="-405070" lat="61.211797218" lon="8.31160555301">
		<tag k="name" v="Nedre Slain" />
		<tag k="place" v="locality" />
		<tag k="ssr:stedsnr" v="725400" />
	</node>
	<node id="-405069" lat="61.2128583296" lon="8.30012222794">
		<tag k="name" v="Øvre Slain" />
		<tag k="place" v="locality" />
		<tag k="ssr:stedsnr" v="725399" />
	</node>
	<node id="-404556" lat="61.1611611076" lon="8.83003888854">
		<tag k="name" v="Bakkejordet" />
>>>>>>> e1d4bc35ff8a6074a6f2e91616a996b547c36f15
		<tag k="place" v="locality" />
		<tag k="ssr:stedsnr" v="645369" />
	</node>
<<<<<<< HEAD
	<node lat="61.16156667111917" lon="8.687655551312496" id="-18968">
		<tag k="name" v="Grønolsmyre" />
		<tag k="natural" v="wetland" />
		<tag k="ssr:stedsnr" v="645962" />
	</node>
	<node lat="61.17857778140512" lon="8.668933340923314" id="-18970">
		<tag k="historic" v="shieling" />
		<tag k="name" v="Rotestølen" />
=======
	<node id="-406601" lat="61.080613887" lon="8.56982778525">
		<tag k="name" v="Skreddarmyradn" />
		<tag k="natural" v="wetland" />
		<tag k="ssr:stedsnr" v="968622" />
	</node>
	<node id="-406597" lat="61.1463805556" lon="8.80708889354">
		<tag k="name" v="Kråkemyre" />
		<tag k="natural" v="wetland" />
		<tag k="ssr:stedsnr" v="968338" />
	</node>
	<node id="-405571" lat="61.2114638858" lon="8.32245277943">
		<tag k="name" v="Kåldekkadn" />
>>>>>>> e1d4bc35ff8a6074a6f2e91616a996b547c36f15
		<tag k="place" v="locality" />
		<tag k="ssr:stedsnr" v="646957" />
	</node>
<<<<<<< HEAD
	<node lat="61.139019447331876" lon="8.734258328422355" id="-18981">
=======
	<node id="-404546" lat="61.1143583309" lon="8.5396388948">
>>>>>>> e1d4bc35ff8a6074a6f2e91616a996b547c36f15
		<tag k="historic" v="shieling" />
		<tag k="name" v="Døkkestølen" />
		<tag k="place" v="locality" />
		<tag k="ssr:stedsnr" v="664898" />
	</node>
<<<<<<< HEAD
	<node lat="61.16199722186843" lon="8.644247213437442" id="-18982">
		<tag k="name" v="Kyrkjebøno" />
=======
	<node id="-405569" lat="61.1735638862" lon="8.3199861052">
		<tag k="name" v="Følastakkstøe" />
>>>>>>> e1d4bc35ff8a6074a6f2e91616a996b547c36f15
		<tag k="place" v="locality" />
		<tag k="ssr:stedsnr" v="664921" />
	</node>
<<<<<<< HEAD
	<node lat="61.102480551594766" lon="8.6138416598343" id="-18989">
		<tag k="historic" v="shieling" />
		<tag k="name" v="Haugastølen" />
		<tag k="place" v="locality" />
		<tag k="ssr:stedsnr" v="664579" />
	</node>
	<node lat="61.17311111303239" lon="8.18230555001043" id="-18993">
		<tag k="name" v="Bukkestein" />
=======
	<node id="-406397" lat="61.1920305559" lon="8.23872500792">
		<tag k="name" v="Stormyr" />
		<tag k="natural" v="wetland" />
		<tag k="ssr:stedsnr" v="786192" />
	</node>
	<node id="-406587" lat="61.1695861084" lon="8.37436389356">
		<tag k="name" v="Sotstein" />
		<tag k="natural" v="stone" />
		<tag k="ssr:stedsnr" v="968287" />
	</node>
	<node id="-406586" lat="61.1684194421" lon="8.33099722882">
		<tag k="historic" v="shieling" />
		<tag k="name" v="Nye Brekkudn" />
		<tag k="place" v="locality" />
		<tag k="ssr:stedsnr" v="968285" />
	</node>
	<node id="-405557" lat="61.1698305519" lon="8.3721333292">
		<tag k="name" v="Versstein" />
>>>>>>> e1d4bc35ff8a6074a6f2e91616a996b547c36f15
		<tag k="natural" v="stone" />
		<tag k="ssr:stedsnr" v="665223" />
	</node>
<<<<<<< HEAD
	<node lat="61.11687222385368" lon="8.529316670370015" id="-19010">
		<tag k="historic" v="shieling" />
		<tag k="name" v="Krøssfønnstølen" />
		<tag k="place" v="locality" />
		<tag k="ssr:stedsnr" v="889662" />
	</node>
	<node lat="61.156274998423825" lon="8.354308327501352" id="-19020">
		<tag k="historic" v="shieling" />
		<tag k="name" v="Galdreinsøyne" />
		<tag k="place" v="locality" />
		<tag k="ssr:stedsnr" v="725258" />
	</node>
	<node lat="61.15944444855093" lon="8.762327768783297" id="-19021">
		<tag k="name" v="Alltingsvaet" />
		<tag k="place" v="locality" />
		<tag k="ssr:stedsnr" v="725169" />
	</node>
	<node lat="61.13140267170619" lon="8.719007135026267" id="-19028">
		<tag k="name" v="Ålestein" />
		<tag k="natural" v="stone" />
		<tag k="ssr:stedsnr" v="725890" />
	</node>
	<node lat="61.168477780010384" lon="8.305522223513803" id="-19034">
		<tag k="name" v="Grøne Kiladn" />
=======
	<node id="-405039" lat="61.1691666676" lon="8.30232499136">
		<tag k="name" v="Kisebrekkudn" />
		<tag k="place" v="locality" />
		<tag k="ssr:stedsnr" v="604410" />
	</node>
	<node id="-405550" lat="61.1453249967" lon="8.80913333977">
		<tag k="name" v="Kråkemyr" />
		<tag k="natural" v="wetland" />
		<tag k="ssr:stedsnr" v="58229" />
	</node>
	<node id="-406061" lat="61.1580999965" lon="8.81612221657">
		<tag k="name" v="Stallsmyr" />
		<tag k="natural" v="wetland" />
		<tag k="ssr:stedsnr" v="423429" />
	</node>
	<node id="-405036" lat="61.1735583323" lon="8.18180000855">
		<tag k="name" v="Storsteinmyre" />
		<tag k="natural" v="wetland" />
		<tag k="ssr:stedsnr" v="604214" />
	</node>
	<node id="-405027" lat="61.1709194423" lon="8.17544721543">
		<tag k="name" v="Tjernmyre" />
		<tag k="natural" v="wetland" />
		<tag k="ssr:stedsnr" v="603182" />
	</node>
	<node id="-404514" lat="61.2095583363" lon="8.31786111039">
		<tag k="name" v="Øvre Myre" />
>>>>>>> e1d4bc35ff8a6074a6f2e91616a996b547c36f15
		<tag k="natural" v="wetland" />
		<tag k="ssr:stedsnr" v="726428" />
	</node>
<<<<<<< HEAD
	<node lat="61.378283331689516" lon="8.637783336672394" id="-19048">
		<tag k="name" v="Kalvehøgdbreene" />
		<tag k="natural" v="glacier" />
		<tag k="ssr:stedsnr" v="735147" />
	</node>
	<node lat="61.43090277579386" lon="8.183872225810413" id="-19068">
		<tag k="name" v="Mjølkedalsbreen" />
		<tag k="natural" v="glacier" />
		<tag k="ssr:stedsnr" v="735851" />
	</node>
	<node lat="61.180130552924375" lon="8.685675008749161" id="-19099">
		<tag k="name" v="Gråe Svaet" />
=======
	<node id="-405025" lat="61.1744888856" lon="8.15746667438">
		<tag k="name" v="Kiladn" />
		<tag k="natural" v="wetland" />
		<tag k="ssr:stedsnr" v="603173" />
	</node>
	<node id="-404512" lat="61.1218861154" lon="8.70169721522">
		<tag k="name" v="Alaskogen" />
>>>>>>> e1d4bc35ff8a6074a6f2e91616a996b547c36f15
		<tag k="place" v="locality" />
		<tag k="ssr:stedsnr" v="767975" />
	</node>
<<<<<<< HEAD
	<node lat="61.172766664145215" lon="8.680452786415009" id="-19101">
		<tag k="name" v="Fyglissvaet" />
=======
	<node id="-405532" lat="60.9729499999" lon="8.65877777387">
		<tag k="name" v="Hulebakksteinen" />
		<tag k="natural" v="stone" />
		<tag k="ssr:stedsnr" v="39780" />
	</node>
	<node id="-406043" lat="61.1626527808" lon="8.34265555772">
		<tag k="historic" v="shieling" />
		<tag k="name" v="Hølisstølen" />
>>>>>>> e1d4bc35ff8a6074a6f2e91616a996b547c36f15
		<tag k="place" v="locality" />
		<tag k="ssr:stedsnr" v="767979" />
	</node>
	<node lat="61.1381805570009" lon="8.610458329121958" id="-19102">
		<tag k="name" v="Bråkenhus" />
		<tag k="place" v="locality" />
		<tag k="ssr:stedsnr" v="768164" />
	</node>
<<<<<<< HEAD
	<node lat="61.19528333306636" lon="8.227719436979635" id="-19117">
		<tag k="historic" v="shieling" />
		<tag k="name" v="Gamle Tørtidn" />
		<tag k="place" v="locality" />
		<tag k="ssr:stedsnr" v="786191" />
	</node>
	<node lat="61.19203055588098" lon="8.238725007923378" id="-19118">
		<tag k="name" v="Stormyr" />
		<tag k="natural" v="wetland" />
		<tag k="ssr:stedsnr" v="786192" />
	</node>
	<node lat="61.16995555845678" lon="8.374530551287087" id="-19120">
		<tag k="name" v="Langemyr" />
		<tag k="natural" v="wetland" />
		<tag k="ssr:stedsnr" v="786259" />
	</node>
	<node lat="61.15845000417827" lon="8.363947221204015" id="-19121">
		<tag k="historic" v="shieling" />
		<tag k="name" v="Nysete" />
		<tag k="place" v="locality" />
		<tag k="ssr:stedsnr" v="786268" />
	</node>
	<node lat="61.166983333507865" lon="8.334622214512281" id="-19123">
		<tag k="name" v="Bleiklimyradn" />
=======
	<node id="-406554" lat="61.1247499997" lon="8.65251388518">
		<tag k="name" v="Tverrbrumyre" />
		<tag k="natural" v="wetland" />
		<tag k="ssr:stedsnr" v="857350" />
	</node>
	<node id="-406106" lat="61.1910916678" lon="8.69643332501">
		<tag k="historic" v="shieling" />
		<tag k="name" v="Nørsvinsstølen" />
		<tag k="place" v="locality" />
		<tag k="ssr:stedsnr" v="525052" />
	</node>
	<node id="-405016" lat="61.1529583359" lon="8.61365833855">
		<tag k="name" v="Kelvesteinadn" />
		<tag k="natural" v="stone" />
		<tag k="ssr:stedsnr" v="585702" />
	</node>
	<node id="-405083" lat="61.1314026717" lon="8.71900713503">
		<tag k="name" v="Ålestein" />
		<tag k="natural" v="stone" />
		<tag k="ssr:stedsnr" v="725890" />
	</node>
	<node id="-405014" lat="61.1204361081" lon="8.55853333116">
		<tag k="name" v="Plantefeltet" />
		<tag k="place" v="locality" />
		<tag k="ssr:stedsnr" v="585662" />
	</node>
	<node id="-405009" lat="61.1924388904" lon="8.69891943889">
		<tag k="name" v="Åsejordet" />
		<tag k="place" v="locality" />
		<tag k="ssr:stedsnr" v="585066" />
	</node>
	<node id="-404568" lat="61.1456277808" lon="8.8510805488">
		<tag k="name" v="Teigen" />
		<tag k="place" v="locality" />
		<tag k="ssr:stedsnr" v="282269" />
	</node>
	<node id="-405005" lat="61.1599277759" lon="8.83643054634">
		<tag k="name" v="Grådinjordet" />
		<tag k="place" v="locality" />
		<tag k="ssr:stedsnr" v="584305" />
	</node>
	<node id="-406028" lat="61.1724972267" lon="8.86392499194">
		<tag k="name" v="Hålimyradn" />
>>>>>>> e1d4bc35ff8a6074a6f2e91616a996b547c36f15
		<tag k="natural" v="wetland" />
		<tag k="ssr:stedsnr" v="786277" />
	</node>
<<<<<<< HEAD
	<node lat="61.23734444517998" lon="8.25230833056338" id="-19133">
		<tag k="historic" v="shieling" />
		<tag k="name" v="Bryggjestølen" />
		<tag k="place" v="locality" />
		<tag k="ssr:stedsnr" v="786632" />
	</node>
	<node lat="61.15000833302421" lon="8.65375000866978" id="-19138">
=======
	<node id="-405003" lat="61.180113891" lon="8.68056389302">
		<tag k="historic" v="shieling" />
		<tag k="name" v="Igdestølen" />
		<tag k="place" v="locality" />
		<tag k="ssr:stedsnr" v="707968" />
	</node>
	<node id="-404490" lat="61.1713027771" lon="8.53487222059">
>>>>>>> e1d4bc35ff8a6074a6f2e91616a996b547c36f15
		<tag k="landuse" v="meadow" />
		<tag k="name" v="Grønolen" />
		<tag k="ssr:stedsnr" v="786933" />
	</node>
	<node lat="61.171772219934155" lon="8.699497219485037" id="-19190">
		<tag k="name" v="Fåkjeldmyre" />
		<tag k="natural" v="wetland" />
		<tag k="ssr:stedsnr" v="828974" />
	</node>
<<<<<<< HEAD
	<node lat="61.14969722597184" lon="8.577194435259791" id="-19193">
		<tag k="historic" v="shieling" />
		<tag k="name" v="Rysseflat" />
		<tag k="place" v="locality" />
		<tag k="ssr:stedsnr" v="828719" />
	</node>
	<node lat="61.13239444448827" lon="8.741813885140003" id="-19212">
		<tag k="name" v="Hølojordet" />
		<tag k="place" v="locality" />
		<tag k="ssr:stedsnr" v="847042" />
	</node>
	<node lat="61.082302782100975" lon="8.567836104466437" id="-19218">
		<tag k="name" v="Rundemyre" />
		<tag k="natural" v="wetland" />
		<tag k="ssr:stedsnr" v="847594" />
	</node>
	<node lat="61.133100196141775" lon="8.7344793887587" id="-19221">
		<tag k="name" v="Gunnhildmyre" />
		<tag k="natural" v="wetland" />
		<tag k="ssr:stedsnr" v="847895" />
	</node>
	<node lat="61.15047222077821" lon="8.737113898051044" id="-19250">
		<tag k="name" v="Bleikfetadn" />
		<tag k="place" v="locality" />
		<tag k="ssr:stedsnr" v="888986" />
	</node>
	<node lat="61.21022778223753" lon="8.354419439100871" id="-19263">
		<tag k="name" v="Bulegudn" />
		<tag k="place" v="locality" />
		<tag k="ssr:stedsnr" v="949360" />
	</node>
	<node lat="61.17395000226157" lon="8.394691657901562" id="-19264">
		<tag k="name" v="Trettemyre" />
		<tag k="natural" v="wetland" />
		<tag k="ssr:stedsnr" v="949363" />
	</node>
	<node lat="61.18850277759523" lon="8.531030554120896" id="-19269">
		<tag k="name" v="Løkenstein" />
		<tag k="natural" v="stone" />
		<tag k="ssr:stedsnr" v="949754" />
	</node>
	<node lat="61.14638055555242" lon="8.80708889354076" id="-19285">
		<tag k="name" v="Kråkemyre" />
		<tag k="natural" v="wetland" />
		<tag k="ssr:stedsnr" v="968338" />
	</node>
	<node lat="61.17105555453616" lon="8.331233327784851" id="-19297">
		<tag k="historic" v="shieling" />
		<tag k="name" v="Øvre Eltunsbøttadn" />
		<tag k="place" v="locality" />
		<tag k="ssr:stedsnr" v="968276" />
	</node>
	<node lat="61.08061388698608" lon="8.569827785245973" id="-19301">
		<tag k="name" v="Skreddarmyradn" />
		<tag k="natural" v="wetland" />
		<tag k="ssr:stedsnr" v="968622" />
=======
	<node id="-406537" lat="61.1211249964" lon="8.57555278619">
		<tag k="name" v="Teigen" />
		<tag k="place" v="locality" />
		<tag k="ssr:stedsnr" v="848796" />
	</node>
	<node id="-404682" lat="61.1598861124" lon="8.37079999263">
		<tag k="name" v="Dekkatn" />
		<tag k="place" v="locality" />
		<tag k="ssr:stedsnr" v="482256" />
	</node>
	<node id="-406535" lat="61.1331001961" lon="8.73447938876">
		<tag k="name" v="Gunnhildmyre" />
		<tag k="natural" v="wetland" />
		<tag k="ssr:stedsnr" v="847895" />
	</node>
	<node id="-404489" lat="61.1511888903" lon="8.46310000001">
		<tag k="historic" v="shieling" />
		<tag k="name" v="Fjellstøladn" />
		<tag k="place" v="locality" />
		<tag k="ssr:stedsnr" v="100454" />
	</node>
	<node id="-406530" lat="61.0823027821" lon="8.56783610447">
		<tag k="name" v="Rundemyre" />
		<tag k="natural" v="wetland" />
		<tag k="ssr:stedsnr" v="847594" />
	</node>
	<node id="-404993" lat="61.134788891" lon="8.61109444248">
		<tag k="name" v="Bøkkadn" />
		<tag k="place" v="locality" />
		<tag k="ssr:stedsnr" v="707709" />
>>>>>>> e1d4bc35ff8a6074a6f2e91616a996b547c36f15
	</node>
</osm>
