<?xml version="1.0" encoding="UTF-8"?>
<osm version="0.6" generator="osmapis">
	<node lat="61.17048888447845" lon="8.328874994972905" id="-54973">
		<tag k="name" v="Rødalen" />
		<tag k="natural" v="valley" />
		<tag k="place" v="locality" />
		<tag k="ssr:stedsnr" v="6615" />
	</node>
	<node lat="61.29324999881459" lon="8.821588881787882" id="-54974">
		<tag k="alt_name" v="Båtskardbergi" />
		<tag k="name" v="Båtskardberge" />
		<tag k="natural" v="hill" />
		<tag k="place" v="locality" />
		<tag k="ssr:stedsnr" v="7203" />
	</node>
	<node lat="61.10787778106078" lon="8.729005554701867" id="-54979">
		<tag k="fixme" v="consider natural=peak for the most distinct mountains in the district" />
		<tag k="name" v="Storehovda" />
		<tag k="natural" v="hill" />
		<tag k="place" v="locality" />
		<tag k="ssr:stedsnr" v="7360" />
	</node>
	<node lat="61.23049143288984" lon="8.685534951034068" id="-54984">
		<tag k="fixme" v="consider natural=peak for the most distinct mountains in the district" />
		<tag k="name" v="Mathamarskarven" />
		<tag k="natural" v="hill" />
		<tag k="place" v="locality" />
		<tag k="ssr:stedsnr" v="7725" />
	</node>
	<node lat="61.23011944729095" lon="8.489730561799805" id="-54985">
		<tag k="fixme" v="consider natural=peak for the most distinct mountains in the district" />
		<tag k="name" v="Hundesteinsegge" />
		<tag k="natural" v="hill" />
		<tag k="place" v="locality" />
		<tag k="ssr:stedsnr" v="7729" />
	</node>
	<node lat="61.224905557500364" lon="8.559552774434287" id="-54986">
		<tag k="fixme" v="consider natural=peak for the most distinct mountains in the district" />
		<tag k="name" v="Høgegge" />
		<tag k="natural" v="hill" />
		<tag k="place" v="locality" />
		<tag k="ssr:stedsnr" v="7732" />
	</node>
	<node lat="61.35212777569851" lon="8.366066672418997" id="-54987">
		<tag k="fixme" v="consider natural=peak for the most distinct mountains in the district" />
		<tag k="name" v="Hundeknappen" />
		<tag k="natural" v="hill" />
		<tag k="place" v="locality" />
		<tag k="ssr:stedsnr" v="8839" />
	</node>
	<node lat="61.21774999873541" lon="8.221174992308441" id="-54990">
		<tag k="fixme" v="consider natural=peak for the most distinct mountains in the district" />
		<tag k="name" v="Stølsnøse" />
		<tag k="natural" v="hill" />
		<tag k="place" v="locality" />
		<tag k="ssr:stedsnr" v="10630" />
	</node>
	<node lat="61.15220277534364" lon="8.127247224904673" id="-54992">
		<tag k="fixme" v="consider natural=peak for the most distinct mountains in the district" />
		<tag k="name" v="Sulefjellet" />
		<tag k="natural" v="hill" />
		<tag k="place" v="locality" />
		<tag k="ssr:stedsnr" v="232170" />
	</node>
	<node lat="61.163736109407544" lon="8.391102785501127" id="-55000">
		<tag k="name" v="Syljibakkin" />
		<tag k="natural" v="slope" />
		<tag k="place" v="locality" />
		<tag k="ssr:stedsnr" v="39324" />
	</node>
	<node lat="61.12241944888317" lon="8.53637222509671" id="-55002">
		<tag k="name" v="Grønkrullen" />
		<tag k="natural" v="hill" />
		<tag k="place" v="locality" />
		<tag k="ssr:stedsnr" v="39609" />
	</node>
	<node lat="61.11309722080846" lon="8.526852773387217" id="-55003">
		<tag k="name" v="Uraløa" />
		<tag k="place" v="locality" />
		<tag k="ssr:stedsnr" v="39618" />
	</node>
	<node lat="61.164597223571654" lon="8.521019449742898" id="-55005">
		<tag k="name" v="Ørnehjelskøre" />
		<tag k="natural" v="hill" />
		<tag k="place" v="locality" />
		<tag k="ssr:stedsnr" v="39658" />
	</node>
	<node lat="61.140216670748096" lon="8.52062221412102" id="-55006">
		<tag k="name" v="Raude Nibba" />
		<tag k="natural" v="hill" />
		<tag k="place" v="locality" />
		<tag k="ssr:stedsnr" v="39659" />
	</node>
	<node lat="61.19073611509068" lon="8.61774167017568" id="-55012">
		<tag k="name" v="Søre Glupen" />
		<tag k="natural" v="valley" />
		<tag k="place" v="locality" />
		<tag k="ssr:stedsnr" v="39774" />
	</node>
	<node lat="61.14357500041116" lon="8.763383325386046" id="-55026">
		<tag k="name" v="Gardalen" />
		<tag k="natural" v="valley" />
		<tag k="place" v="locality" />
		<tag k="ssr:stedsnr" v="240020" />
	</node>
	<node lat="61.1554388910978" lon="8.344875004139451" id="-55032">
		<tag k="name" v="Fagral" />
		<tag k="natural" v="slope" />
		<tag k="place" v="locality" />
		<tag k="ssr:stedsnr" v="58311" />
	</node>
	<node lat="61.154600003017364" lon="8.821738886360025" id="-55033">
		<tag k="name" v="Rauberget" />
		<tag k="natural" v="hill" />
		<tag k="place" v="locality" />
		<tag k="ssr:stedsnr" v="240398" />
	</node>
	<node lat="61.16976667095717" lon="8.315311105300307" id="-55036">
		<tag k="name" v="Snikhaug" />
		<tag k="natural" v="hill" />
		<tag k="place" v="locality" />
		<tag k="ssr:stedsnr" v="58416" />
	</node>
	<node lat="61.0977833334855" lon="8.60542777417901" id="-55037">
		<tag k="name" v="Nørdre Kølånhaugadn" />
		<tag k="natural" v="hill" />
		<tag k="place" v="locality" />
		<tag k="ssr:stedsnr" v="58622" />
	</node>
	<node lat="61.02815277767173" lon="8.536916658145085" id="-55040">
		<tag k="name" v="Tanaslette" />
		<tag k="place" v="locality" />
		<tag k="ssr:stedsnr" v="58592" />
	</node>
	<node lat="61.106311108235225" lon="8.675525003146417" id="-55041">
		<tag k="name" v="Glitterberg" />
		<tag k="natural" v="hill" />
		<tag k="place" v="locality" />
		<tag k="ssr:stedsnr" v="58879" />
	</node>
	<node lat="61.17485555251975" lon="8.337655547895258" id="-55052">
		<tag k="name" v="Ivar i Bøtte" />
		<tag k="natural" v="hill" />
		<tag k="place" v="locality" />
		<tag k="ssr:stedsnr" v="240686" />
	</node>
	<node lat="61.19702499883897" lon="8.51648889243822" id="-55054">
		<tag k="name" v="Raude Haugadn" />
		<tag k="natural" v="hill" />
		<tag k="place" v="locality" />
		<tag k="ssr:stedsnr" v="240812" />
	</node>
	<node lat="61.13404166491254" lon="8.683738890116166" id="-55057">
		<tag k="fixme" v="consider natural=peak for the most distinct mountains in the district" />
		<tag k="name" v="Kinnehøgda" />
		<tag k="natural" v="hill" />
		<tag k="place" v="locality" />
		<tag k="ssr:stedsnr" v="240947" />
	</node>
	<node lat="61.14605099949145" lon="8.682222073211792" id="-55059">
		<tag k="fixme" v="consider natural=peak for the most distinct mountains in the district" />
		<tag k="name" v="Veslehuga" />
		<tag k="natural" v="hill" />
		<tag k="place" v="locality" />
		<tag k="ssr:stedsnr" v="67318" />
	</node>
	<node lat="61.0946361082167" lon="8.49701389315515" id="-55060">
		<tag k="name" v="Heimstølbotten" />
		<tag k="natural" v="valley" />
		<tag k="place" v="locality" />
		<tag k="ssr:stedsnr" v="67395" />
	</node>
	<node lat="61.18333055214939" lon="8.351902784750543" id="-55064">
		<tag k="fixme" v="consider natural=peak for the most distinct mountains in the district" />
		<tag k="name" v="Kvamsnøse" />
		<tag k="natural" v="hill" />
		<tag k="place" v="locality" />
		<tag k="ssr:stedsnr" v="67597" />
	</node>
	<node lat="61.026327780765286" lon="8.706344445047527" id="-55070">
		<tag k="name" v="Mehankberget" />
		<tag k="natural" v="hill" />
		<tag k="place" v="locality" />
		<tag k="ssr:stedsnr" v="68450" />
	</node>
	<node lat="61.04665000266849" lon="8.698794438605363" id="-55071">
		<tag k="fixme" v="consider natural=peak for the most distinct mountains in the district" />
		<tag k="name" v="Tangefjellet" />
		<tag k="natural" v="hill" />
		<tag k="place" v="locality" />
		<tag k="ssr:stedsnr" v="68457" />
	</node>
	<node lat="61.30718055437123" lon="8.466055549814488" id="-55073">
		<tag k="fixme" v="consider natural=peak for the most distinct mountains in the district" />
		<tag k="name" v="Stølsskardknappen" />
		<tag k="natural" v="hill" />
		<tag k="place" v="locality" />
		<tag k="ssr:stedsnr" v="68797" />
	</node>
	<node lat="61.323438885474204" lon="8.386727770746116" id="-55076">
		<tag k="fixme" v="consider natural=peak for the most distinct mountains in the district" />
		<tag k="name" v="Drylleberget" />
		<tag k="natural" v="hill" />
		<tag k="place" v="locality" />
		<tag k="ssr:stedsnr" v="68801" />
	</node>
	<node lat="60.97965555655712" lon="8.694763891504182" id="-55078">
		<tag k="fixme" v="consider natural=peak for the most distinct mountains in the district" />
		<tag k="name" v="Blåkampen" />
		<tag k="natural" v="hill" />
		<tag k="place" v="locality" />
		<tag k="ssr:stedsnr" v="69795" />
	</node>
	<node lat="61.21704166436842" lon="8.735002782860724" id="-55083">
		<tag k="name" v="Langehaugen" />
		<tag k="natural" v="hill" />
		<tag k="place" v="locality" />
		<tag k="ssr:stedsnr" v="100012" />
	</node>
	<node lat="61.16991388590819" lon="8.728780554632836" id="-55084">
		<tag k="name" v="Klybbersteinsberget" />
		<tag k="natural" v="hill" />
		<tag k="place" v="locality" />
		<tag k="ssr:stedsnr" v="99979" />
	</node>
	<node lat="61.2050083313201" lon="8.66310277174419" id="-55085">
		<tag k="name" v="Øvre Klantadn" />
		<tag k="natural" v="hill" />
		<tag k="place" v="locality" />
		<tag k="ssr:stedsnr" v="100124" />
	</node>
	<node lat="61.17311666763188" lon="8.496563893764407" id="-55087">
		<tag k="name" v="Føroberget" />
		<tag k="natural" v="hill" />
		<tag k="place" v="locality" />
		<tag k="ssr:stedsnr" v="100416" />
	</node>
	<node lat="61.108552775427796" lon="8.477408338233214" id="-55088">
		<tag k="name" v="Nigardsslettudn" />
		<tag k="place" v="locality" />
		<tag k="ssr:stedsnr" v="100370" />
	</node>
	<node lat="61.09104444155798" lon="8.409336110506633" id="-55089">
		<tag k="name" v="Hesturklanten" />
		<tag k="natural" v="hill" />
		<tag k="place" v="locality" />
		<tag k="ssr:stedsnr" v="100379" />
	</node>
	<node lat="60.97069721928419" lon="8.654955554873" id="-55093">
		<tag k="name" v="Synsberg" />
		<tag k="natural" v="hill" />
		<tag k="place" v="locality" />
		<tag k="ssr:stedsnr" v="100777" />
	</node>
	<node lat="60.966972222710055" lon="8.659336109962988" id="-55094">
		<tag k="name" v="Øynelie" />
		<tag k="natural" v="slope" />
		<tag k="place" v="locality" />
		<tag k="ssr:stedsnr" v="100779" />
	</node>
	<node lat="61.03464167075271" lon="8.511013880470923" id="-55105">
		<tag k="alt_name" v="Gravasker" />
		<tag k="name" v="Gravarskardet" />
		<tag k="natural" v="valley" />
		<tag k="place" v="locality" />
		<tag k="ssr:stedsnr" v="249383" />
	</node>
	<node lat="61.03874722638522" lon="8.541555551315483" id="-55106">
		<tag k="fixme" v="consider natural=peak for the most distinct mountains in the district" />
		<tag k="name" v="Klanten" />
		<tag k="natural" v="hill" />
		<tag k="place" v="locality" />
		<tag k="ssr:stedsnr" v="249452" />
	</node>
	<node lat="61.05223611071737" lon="8.399049997624282" id="-55110">
		<tag k="fixme" v="consider natural=peak for the most distinct mountains in the district" />
		<tag k="name" v="Bjørnanøse" />
		<tag k="natural" v="hill" />
		<tag k="place" v="locality" />
		<tag k="ssr:stedsnr" v="249644" />
	</node>
	<node lat="61.06725000163885" lon="8.385480546620242" id="-55111">
		<tag k="fixme" v="consider natural=peak for the most distinct mountains in the district" />
		<tag k="name" v="Ørnenøse" />
		<tag k="natural" v="hill" />
		<tag k="place" v="locality" />
		<tag k="ssr:stedsnr" v="249610" />
	</node>
	<node lat="61.236052773649924" lon="8.676191657395615" id="-55113">
		<tag k="name" v="Mugnebottane" />
		<tag k="natural" v="valley" />
		<tag k="place" v="locality" />
		<tag k="ssr:stedsnr" v="249698" />
	</node>
	<node lat="61.20439999627246" lon="8.645236120292344" id="-55115">
		<tag k="name" v="Rysndalen" />
		<tag k="natural" v="valley" />
		<tag k="place" v="locality" />
		<tag k="ssr:stedsnr" v="249681" />
	</node>
	<node lat="61.29434444102122" lon="8.799419443836163" id="-55125">
		<tag k="alt_name" v="Bitihodn;Bitihødn" />
		<tag k="fixme" v="consider natural=peak for the most distinct mountains in the district" />
		<tag k="name" v="Bitihorn" />
		<tag k="natural" v="hill" />
		<tag k="place" v="locality" />
		<tag k="ssr:stedsnr" v="250205" />
	</node>
	<node lat="61.26447778132936" lon="8.557074991892891" id="-55126">
		<tag k="fixme" v="consider natural=peak for the most distinct mountains in the district" />
		<tag k="name" v="Hølgjenøse" />
		<tag k="natural" v="hill" />
		<tag k="place" v="locality" />
		<tag k="ssr:stedsnr" v="250220" />
	</node>
	<node lat="61.1121749990088" lon="8.570216673396095" id="-55127">
		<tag k="name" v="Langebakke" />
		<tag k="natural" v="slope" />
		<tag k="place" v="locality" />
		<tag k="ssr:stedsnr" v="250329" />
	</node>
	<node lat="61.088936111563946" lon="8.438275004262454" id="-55130">
		<tag k="fixme" v="consider natural=peak for the most distinct mountains in the district" />
		<tag k="name" v="Sauehaugen" />
		<tag k="natural" v="hill" />
		<tag k="place" v="locality" />
		<tag k="ssr:stedsnr" v="250634" />
	</node>
	<node lat="61.20341666570374" lon="8.754313881650875" id="-55131">
		<tag k="name" v="Tjernhaug" />
		<tag k="natural" v="hill" />
		<tag k="old_name" v="Tjednhaug" />
		<tag k="place" v="locality" />
		<tag k="ssr:stedsnr" v="250693" />
	</node>
	<node lat="61.13777499601485" lon="8.351369453382528" id="-55132">
		<tag k="name" v="Muneflænane" />
		<tag k="place" v="locality" />
		<tag k="ssr:stedsnr" v="250655" />
	</node>
	<node lat="61.18298333129955" lon="8.140805558986006" id="-55138">
		<tag k="name" v="Vesleskaret" />
		<tag k="natural" v="valley" />
		<tag k="place" v="locality" />
		<tag k="ssr:stedsnr" v="118114" />
	</node>
	<node lat="61.179299996261335" lon="8.132933327360204" id="-55139">
		<tag k="name" v="Sandbakkadn" />
		<tag k="natural" v="slope" />
		<tag k="place" v="locality" />
		<tag k="ssr:stedsnr" v="118117" />
	</node>
	<node lat="61.18868055517915" lon="8.207097220427292" id="-55142">
		<tag k="name" v="Otrøhaugen" />
		<tag k="natural" v="hill" />
		<tag k="place" v="locality" />
		<tag k="ssr:stedsnr" v="118212" />
	</node>
	<node lat="61.17284166573002" lon="8.195891666632953" id="-55144">
		<tag k="name" v="Store haugen" />
		<tag k="natural" v="hill" />
		<tag k="place" v="locality" />
		<tag k="ssr:stedsnr" v="118217" />
	</node>
	<node lat="61.14010278006804" lon="8.852633325354276" id="-55145">
		<tag k="name" v="Skjefteberget" />
		<tag k="natural" v="hill" />
		<tag k="place" v="locality" />
		<tag k="ssr:stedsnr" v="118220" />
	</node>
	<node lat="61.13289166519719" lon="8.856258326700702" id="-55147">
		<tag k="name" v="Hålimoen" />
		<tag k="place" v="locality" />
		<tag k="ssr:stedsnr" v="118172" />
	</node>
	<node lat="61.106419441818204" lon="8.558105550192503" id="-55149">
		<tag k="name" v="Stakkstøslette" />
		<tag k="place" v="locality" />
		<tag k="ssr:stedsnr" v="118670" />
	</node>
	<node lat="61.18820277855643" lon="8.089299991235194" id="-55152">
		<tag k="name" v="Grønneskaret" />
		<tag k="natural" v="valley" />
		<tag k="place" v="locality" />
		<tag k="ssr:stedsnr" v="119135" />
	</node>
	<node lat="61.19199166248945" lon="8.845399991424143" id="-55162">
		<tag k="fixme" v="consider natural=peak for the most distinct mountains in the district" />
		<tag k="name" v="Fjellsenden" />
		<tag k="natural" v="hill" />
		<tag k="place" v="locality" />
		<tag k="ssr:stedsnr" v="128004" />
	</node>
	<node lat="61.1138527750858" lon="8.719044448121684" id="-55166">
		<tag k="name" v="Tørpelie" />
		<tag k="natural" v="slope" />
		<tag k="place" v="locality" />
		<tag k="ssr:stedsnr" v="128336" />
	</node>
	<node lat="61.102344441099255" lon="8.580324997592214" id="-55167">
		<tag k="loc_name" v="Stakkstøbakken" />
		<tag k="name" v="Stakstøbakken" />
		<tag k="natural" v="slope" />
		<tag k="place" v="locality" />
		<tag k="ssr:stedsnr" v="128339" />
	</node>
	<node lat="61.10072499642687" lon="8.734630553106674" id="-55168">
		<tag k="fixme" v="consider natural=peak for the most distinct mountains in the district" />
		<tag k="name" v="Langefonnkampen" />
		<tag k="natural" v="hill" />
		<tag k="place" v="locality" />
		<tag k="ssr:stedsnr" v="128348" />
	</node>
	<node lat="61.01839444583843" lon="8.519533338285616" id="-55173">
		<tag k="name" v="Geitebotten" />
		<tag k="natural" v="valley" />
		<tag k="place" v="locality" />
		<tag k="ssr:stedsnr" v="128407" />
	</node>
	<node lat="61.22197499994497" lon="8.63712500210556" id="-55178">
		<tag k="name" v="Blåe berge" />
		<tag k="natural" v="hill" />
		<tag k="place" v="locality" />
		<tag k="ssr:stedsnr" v="128743" />
	</node>
	<node lat="61.077749998993866" lon="8.414711116104709" id="-55179">
		<tag k="fixme" v="consider natural=peak for the most distinct mountains in the district" />
		<tag k="name" v="Øyre" />
		<tag k="natural" v="hill" />
		<tag k="place" v="locality" />
		<tag k="ssr:stedsnr" v="128606" />
	</node>
	<node lat="61.176083337129796" lon="8.589336106770848" id="-55181">
		<tag k="name" v="Øldrebotten" />
		<tag k="natural" v="valley" />
		<tag k="place" v="locality" />
		<tag k="ssr:stedsnr" v="128690" />
	</node>
	<node lat="61.18395555212863" lon="8.617477780945519" id="-55182">
		<tag k="fixme" v="consider natural=peak for the most distinct mountains in the district" />
		<tag k="name" v="Hensfjellet" />
		<tag k="natural" v="hill" />
		<tag k="place" v="locality" />
		<tag k="ssr:stedsnr" v="128691" />
	</node>
	<node lat="61.3878722225724" lon="8.404505552817325" id="-55189">
		<tag k="fixme" v="consider natural=peak for the most distinct mountains in the district" />
		<tag k="name" v="Uksedalshøe" />
		<tag k="natural" v="hill" />
		<tag k="place" v="locality" />
		<tag k="ssr:stedsnr" v="129827" />
	</node>
	<node lat="61.38843332975068" lon="8.310449996980916" id="-55190">
		<tag k="alt_name" v="Gravarfjellet" />
		<tag k="fixme" v="consider natural=peak for the most distinct mountains in the district" />
		<tag k="name" v="Gravafjellet" />
		<tag k="natural" v="hill" />
		<tag k="place" v="locality" />
		<tag k="ssr:stedsnr" v="129836" />
	</node>
	<node lat="61.40456944320905" lon="8.32561945195149" id="-55191">
		<tag k="fixme" v="consider natural=peak for the most distinct mountains in the district" />
		<tag k="name" v="Høgbrøtet" />
		<tag k="natural" v="hill" />
		<tag k="place" v="locality" />
		<tag k="ssr:stedsnr" v="129840" />
	</node>
	<node lat="61.26709444393678" lon="8.406788882218944" id="-55195">
		<tag k="fixme" v="consider natural=peak for the most distinct mountains in the district" />
		<tag k="name" v="Haldorshovda" />
		<tag k="natural" v="hill" />
		<tag k="place" v="locality" />
		<tag k="ssr:stedsnr" v="129785" />
	</node>
	<node lat="61.14628333630952" lon="8.072844442835313" id="-55199">
		<tag k="name" v="Filefjell" />
		<tag k="natural" v="mountain_range" />
		<tag k="ssr:stedsnr" v="252996" />
	</node>
	<node lat="61.1392845675958" lon="8.68552427101857" id="-55200">
		<tag k="fixme" v="consider natural=peak for the most distinct mountains in the district" />
		<tag k="name" v="Hugakøllen" />
		<tag k="natural" v="hill" />
		<tag k="place" v="locality" />
		<tag k="ssr:stedsnr" v="310289" />
	</node>
	<node lat="61.3915083367431" lon="8.646580551855546" id="-55201">
		<tag k="fixme" v="multiple name tags, choose one and add the other to alt_name; consider natural=peak for the most distinct mountains in the district" />
		<tag k="name" v="Austre Kalvehøgde;Øystre Kalvehøgde" />
		<tag k="natural" v="hill" />
		<tag k="place" v="locality" />
		<tag k="ssr:stedsnr" v="147255" />
	</node>
	<node lat="61.165525004201605" lon="8.565755558413011" id="-55204">
		<tag k="name" v="Dalsmunin" />
		<tag k="place" v="locality" />
		<tag k="ssr:stedsnr" v="163762" />
	</node>
	<node lat="61.16889444107561" lon="8.565836103412446" id="-55207">
		<tag k="name" v="Øvreskør" />
		<tag k="natural" v="hill" />
		<tag k="place" v="locality" />
		<tag k="ssr:stedsnr" v="167972" />
	</node>
	<node lat="61.31149167080941" lon="8.69455000236317" id="-55209">
		<tag k="name" v="Marabotn" />
		<tag k="natural" v="valley" />
		<tag k="place" v="locality" />
		<tag k="ssr:stedsnr" v="175110" />
	</node>
	<node lat="61.21188611538052" lon="8.22009999682033" id="-55212">
		<tag k="name" v="Sårbubøtten" />
		<tag k="natural" v="valley" />
		<tag k="place" v="locality" />
		<tag k="ssr:stedsnr" v="179211" />
	</node>
	<node lat="61.16928610996023" lon="8.180936105046749" id="-55213">
		<tag k="name" v="Tyrihammarn" />
		<tag k="natural" v="hill" />
		<tag k="place" v="locality" />
		<tag k="ssr:stedsnr" v="179215" />
	</node>
	<node lat="61.14950833280612" lon="8.810936109873255" id="-55215">
		<tag k="name" v="Skjorohaugen" />
		<tag k="natural" v="hill" />
		<tag k="place" v="locality" />
		<tag k="ssr:stedsnr" v="179339" />
	</node>
	<node lat="61.089902778914556" lon="8.627022229070809" id="-55219">
		<tag k="name" v="Søvelkinnadn" />
		<tag k="natural" v="slope" />
		<tag k="place" v="locality" />
		<tag k="ssr:stedsnr" v="179882" />
	</node>
	<node lat="61.13974999565193" lon="8.695747222467133" id="-55220">
		<tag k="name" v="Baklie" />
		<tag k="natural" v="slope" />
		<tag k="place" v="locality" />
		<tag k="ssr:stedsnr" v="179956" />
	</node>
	<node lat="61.14194444412423" lon="8.689419435191711" id="-55221">
		<tag k="name" v="Bjødnastigen" />
		<tag k="natural" v="hill" />
		<tag k="place" v="locality" />
		<tag k="ssr:stedsnr" v="179958" />
	</node>
	<node lat="61.16822778165977" lon="8.17678055196912" id="-55222">
		<tag k="name" v="Nørdre Bøtten" />
		<tag k="natural" v="valley" />
		<tag k="place" v="locality" />
		<tag k="ssr:stedsnr" v="180205" />
	</node>
	<node lat="61.161102776685084" lon="8.200458329525203" id="-55223">
		<tag k="name" v="Skaret" />
		<tag k="natural" v="valley" />
		<tag k="place" v="locality" />
		<tag k="ssr:stedsnr" v="180258" />
	</node>
	<node lat="61.091086112221596" lon="8.574986110663986" id="-55225">
		<tag k="alt_name" v="Skavelen" />
		<tag k="name" v="Skavlen" />
		<tag k="natural" v="hill" />
		<tag k="place" v="locality" />
		<tag k="ssr:stedsnr" v="188383" />
	</node>
	<node lat="61.07133610875995" lon="8.458938892320315" id="-55226">
		<tag k="alt_name" v="Bælgen" />
		<tag k="name" v="Belgen" />
		<tag k="natural" v="valley" />
		<tag k="place" v="locality" />
		<tag k="ssr:stedsnr" v="188673" />
	</node>
	<node lat="61.36829999773679" lon="8.765741673672357" id="-55229">
		<tag k="fixme" v="consider natural=peak for the most distinct mountains in the district" />
		<tag k="name" v="Øystre Fagerdalshøe" />
		<tag k="natural" v="hill" />
		<tag k="place" v="locality" />
		<tag k="ssr:stedsnr" v="189127" />
	</node>
	<node lat="61.00480555201817" lon="8.642230560777426" id="-55232">
		<tag k="name" v="Storligile" />
		<tag k="natural" v="valley" />
		<tag k="place" v="locality" />
		<tag k="ssr:stedsnr" v="189391" />
	</node>
	<node lat="61.02966389212724" lon="8.74280277147967" id="-55235">
		<tag k="name" v="Nøsakampen" />
		<tag k="place" v="locality" />
		<tag k="ssr:stedsnr" v="189408" />
	</node>
	<node lat="61.02769444487917" lon="8.670044450550822" id="-55236">
		<tag k="name" v="Hagaslettene" />
		<tag k="place" v="locality" />
		<tag k="ssr:stedsnr" v="189409" />
	</node>
	<node lat="61.12358333034621" lon="8.328274992630403" id="-55238">
		<tag k="fixme" v="consider natural=peak for the most distinct mountains in the district" />
		<tag k="name" v="Mardalsegge" />
		<tag k="natural" v="hill" />
		<tag k="place" v="locality" />
		<tag k="ssr:stedsnr" v="189614" />
	</node>
	<node lat="61.235875000024194" lon="8.742880554378068" id="-55242">
		<tag k="fixme" v="consider natural=peak for the most distinct mountains in the district" />
		<tag k="name" v="Raftehovda" />
		<tag k="natural" v="hill" />
		<tag k="place" v="locality" />
		<tag k="ssr:stedsnr" v="189689" />
	</node>
	<node lat="61.21114166811077" lon="8.531919438615418" id="-55244">
		<tag k="fixme" v="consider natural=peak for the most distinct mountains in the district" />
		<tag k="loc_name" v="Vardefjell" />
		<tag k="name" v="Høgegge" />
		<tag k="natural" v="hill" />
		<tag k="place" v="locality" />
		<tag k="ssr:stedsnr" v="189710" />
	</node>
	<node lat="60.996974995606976" lon="8.702361118499812" id="-55245">
		<tag k="fixme" v="consider natural=peak for the most distinct mountains in the district" />
		<tag k="name" v="Okslefjellet" />
		<tag k="natural" v="hill" />
		<tag k="place" v="locality" />
		<tag k="ssr:stedsnr" v="190803" />
	</node>
	<node lat="61.26402499965565" lon="8.130324998001843" id="-55246">
		<tag k="fixme" v="consider natural=peak for the most distinct mountains in the district" />
		<tag k="name" v="Langleiskardnøse" />
		<tag k="natural" v="hill" />
		<tag k="place" v="locality" />
		<tag k="ssr:stedsnr" v="190806" />
	</node>
	<node lat="61.21114999998304" lon="8.638561109102053" id="-55250">
		<tag k="name" v="Geitekyrkja" />
		<tag k="place" v="locality" />
		<tag k="ssr:stedsnr" v="221004" />
	</node>
	<node lat="61.109191671152786" lon="8.459033336666746" id="-55258">
		<tag k="name" v="Skålelie" />
		<tag k="natural" v="slope" />
		<tag k="place" v="locality" />
		<tag k="ssr:stedsnr" v="221374" />
	</node>
	<node lat="61.10828610698594" lon="8.385683326975721" id="-55259">
		<tag k="name" v="Kristenskøridn" />
		<tag k="natural" v="hill" />
		<tag k="place" v="locality" />
		<tag k="ssr:stedsnr" v="221376" />
	</node>
	<node lat="60.966705558300575" lon="8.671741674036285" id="-55262">
		<tag k="name" v="Grunkeberget" />
		<tag k="natural" v="hill" />
		<tag k="place" v="locality" />
		<tag k="ssr:stedsnr" v="221782" />
	</node>
	<node lat="61.17812221946722" lon="8.579027777190852" id="-55263">
		<tag k="fixme" v="consider natural=peak for the most distinct mountains in the district" />
		<tag k="name" v="Nedre Vennisfjell" />
		<tag k="natural" v="hill" />
		<tag k="place" v="locality" />
		<tag k="ssr:stedsnr" v="221680" />
	</node>
	<node lat="61.24935833425402" lon="8.697208335456239" id="-55271">
		<tag k="name" v="Øddestølsberget" />
		<tag k="natural" v="hill" />
		<tag k="place" v="locality" />
		<tag k="ssr:stedsnr" v="235256" />
	</node>
	<node lat="61.172961113749345" lon="8.17799444546366" id="-55275">
		<tag k="name" v="Sandbakkin" />
		<tag k="natural" v="slope" />
		<tag k="place" v="locality" />
		<tag k="ssr:stedsnr" v="240225" />
	</node>
	<node lat="61.16938888992937" lon="8.367561104245626" id="-55276">
		<tag k="name" v="Vegastølsberget" />
		<tag k="natural" v="hill" />
		<tag k="place" v="locality" />
		<tag k="ssr:stedsnr" v="240288" />
	</node>
	<node lat="61.15005000299815" lon="8.764555551476885" id="-55277">
		<tag k="name" v="Svenskemoen" />
		<tag k="place" v="locality" />
		<tag k="ssr:stedsnr" v="240182" />
	</node>
	<node lat="61.16487777721646" lon="8.383727782938397" id="-55283">
		<tag k="name" v="Reset" />
		<tag k="natural" v="slope" />
		<tag k="place" v="locality" />
		<tag k="ssr:stedsnr" v="240303" />
	</node>
	<node lat="61.23172499721312" lon="8.342572229133916" id="-55284">
		<tag k="name" v="Nakkadn" />
		<tag k="natural" v="slope" />
		<tag k="place" v="locality" />
		<tag k="ssr:stedsnr" v="240480" />
	</node>
	<node lat="61.2159472180291" lon="8.336361112711575" id="-55285">
		<tag k="name" v="Søre Kamben" />
		<tag k="natural" v="hill" />
		<tag k="place" v="locality" />
		<tag k="ssr:stedsnr" v="240485" />
	</node>
	<node lat="61.06267777853385" lon="8.509466664632491" id="-55287">
		<tag k="name" v="Kvannebakke" />
		<tag k="natural" v="slope" />
		<tag k="place" v="locality" />
		<tag k="ssr:stedsnr" v="240603" />
	</node>
	<node lat="61.063574997365706" lon="8.553377781759322" id="-55288">
		<tag k="name" v="Slettadn" />
		<tag k="place" v="locality" />
		<tag k="ssr:stedsnr" v="240604" />
	</node>
	<node lat="61.08421666800126" lon="8.6295000031895" id="-55292">
		<tag k="name" v="Kjeringberg" />
		<tag k="natural" v="hill" />
		<tag k="place" v="locality" />
		<tag k="ssr:stedsnr" v="240881" />
	</node>
	<node lat="61.11824444042301" lon="8.676505552370562" id="-55293">
		<tag k="name" v="Rafthøvdadn" />
		<tag k="natural" v="hill" />
		<tag k="place" v="locality" />
		<tag k="ssr:stedsnr" v="240882" />
	</node>
	<node lat="61.122838890065154" lon="8.646213890009207" id="-55294">
		<tag k="name" v="Tørget" />
		<tag k="place" v="locality" />
		<tag k="ssr:stedsnr" v="240889" />
	</node>
	<node lat="61.126647222277185" lon="8.704083335000906" id="-55295">
		<tag k="name" v="Sandadn" />
		<tag k="place" v="locality" />
		<tag k="ssr:stedsnr" v="240893" />
	</node>
	<node lat="61.16536666550056" lon="8.664727779527887" id="-55299">
		<tag k="name" v="Nefstadbakkadn" />
		<tag k="natural" v="slope" />
		<tag k="place" v="locality" />
		<tag k="ssr:stedsnr" v="240928" />
	</node>
	<node lat="61.14978888829815" lon="8.650647217131507" id="-55301">
		<tag k="fixme" v="consider natural=peak for the most distinct mountains in the district" />
		<tag k="name" v="Søre Sløtaberget" />
		<tag k="natural" v="hill" />
		<tag k="old_name" v="Søre Støtaberget" />
		<tag k="place" v="locality" />
		<tag k="ssr:stedsnr" v="240936" />
	</node>
	<node lat="61.16244167113531" lon="8.627419452188024" id="-55302">
		<tag k="name" v="Møsåkerberget" />
		<tag k="natural" v="hill" />
		<tag k="place" v="locality" />
		<tag k="ssr:stedsnr" v="240938" />
	</node>
	<node lat="61.167641663789226" lon="8.626449999763121" id="-55303">
		<tag k="name" v="Haus" />
		<tag k="natural" v="hill" />
		<tag k="place" v="locality" />
		<tag k="ssr:stedsnr" v="249263" />
	</node>
	<node lat="61.22803610827808" lon="8.764963886946676" id="-55309">
		<tag k="fixme" v="consider natural=peak for the most distinct mountains in the district" />
		<tag k="name" v="Gipestølshøvda" />
		<tag k="natural" v="hill" />
		<tag k="place" v="locality" />
		<tag k="ssr:stedsnr" v="281505" />
	</node>
	<node lat="61.2264055575299" lon="8.71481388544017" id="-55311">
		<tag k="name" v="Mugnebrynadn" />
		<tag k="natural" v="hill" />
		<tag k="place" v="locality" />
		<tag k="ssr:stedsnr" v="282004" />
	</node>
	<node lat="61.20404722212407" lon="8.689377777851243" id="-55312">
		<tag k="name" v="Sandhødnflænadn" />
		<tag k="natural" v="slope" />
		<tag k="place" v="locality" />
		<tag k="ssr:stedsnr" v="282008" />
	</node>
	<node lat="61.17609444513448" lon="8.662480550841245" id="-55316">
		<tag k="name" v="Sisselberg" />
		<tag k="natural" v="hill" />
		<tag k="place" v="locality" />
		<tag k="ssr:stedsnr" v="282114" />
	</node>
	<node lat="61.1489222225579" lon="8.847749997457363" id="-55317">
		<tag k="name" v="Bakkane" />
		<tag k="natural" v="slope" />
		<tag k="place" v="locality" />
		<tag k="ssr:stedsnr" v="282268" />
	</node>
	<node lat="61.17181111081978" lon="8.445830557557755" id="-55321">
		<tag k="alt_name" v="Staksteberg" />
		<tag k="name" v="Stakkstøberg" />
		<tag k="natural" v="hill" />
		<tag k="place" v="locality" />
		<tag k="ssr:stedsnr" v="282414" />
	</node>
	<node lat="61.17261666879275" lon="8.450830555701323" id="-55322">
		<tag k="name" v="Losgile" />
		<tag k="natural" v="gorge" />
		<tag k="ssr:stedsnr" v="282415" />
	</node>
	<node lat="61.11172777892271" lon="8.465066675454683" id="-55323">
		<tag k="name" v="Heimstølbakkadn" />
		<tag k="natural" v="slope" />
		<tag k="place" v="locality" />
		<tag k="ssr:stedsnr" v="282372" />
	</node>
	<node lat="61.103944446073854" lon="8.431763883279503" id="-55324">
		<tag k="name" v="Lange Randin" />
		<tag k="natural" v="hill" />
		<tag k="place" v="locality" />
		<tag k="ssr:stedsnr" v="282383" />
	</node>
	<node lat="61.17097778156804" lon="8.385900001135893" id="-55325">
		<tag k="name" v="Varpedalen" />
		<tag k="natural" v="valley" />
		<tag k="place" v="locality" />
		<tag k="ssr:stedsnr" v="282476" />
	</node>
	<node lat="61.12259167081121" lon="8.510624993801061" id="-55327">
		<tag k="name" v="Skrealøa" />
		<tag k="place" v="locality" />
		<tag k="ssr:stedsnr" v="282631" />
	</node>
	<node lat="61.12012500130236" lon="8.533824994225153" id="-55328">
		<tag k="name" v="Ørresvaet" />
		<tag k="natural" v="hill" />
		<tag k="place" v="locality" />
		<tag k="ssr:stedsnr" v="282634" />
	</node>
	<node lat="61.20440555354691" lon="8.621952773751188" id="-55331">
		<tag k="name" v="Øvre Hellestølsbøtten" />
		<tag k="natural" v="valley" />
		<tag k="place" v="locality" />
		<tag k="ssr:stedsnr" v="282790" />
	</node>
	<node lat="61.16438611215907" lon="8.710663895002064" id="-55335">
		<tag k="fixme" v="consider natural=peak for the most distinct mountains in the district" />
		<tag k="name" v="Belsheimberget" />
		<tag k="natural" v="hill" />
		<tag k="place" v="locality" />
		<tag k="ssr:stedsnr" v="282983" />
	</node>
	<node lat="61.19221389192696" lon="8.800544436583596" id="-55336">
		<tag k="loc_name" v="Sjødalshøvda" />
		<tag k="name" v="Kjøsahøgda" />
		<tag k="natural" v="hill" />
		<tag k="place" v="locality" />
		<tag k="ssr:stedsnr" v="287789" />
	</node>
	<node lat="61.205586111198286" lon="8.219669449871958" id="-55343">
		<tag k="name" v="Steinhaug" />
		<tag k="natural" v="hill" />
		<tag k="place" v="locality" />
		<tag k="ssr:stedsnr" v="300213" />
	</node>
	<node lat="61.09402777508873" lon="8.584658325190201" id="-55347">
		<tag k="name" v="Baggetunbakkadn" />
		<tag k="natural" v="slope" />
		<tag k="place" v="locality" />
		<tag k="ssr:stedsnr" v="300605" />
	</node>
	<node lat="61.17410277351563" lon="8.180605553299971" id="-55355">
		<tag k="name" v="Storsteinbakkin" />
		<tag k="natural" v="slope" />
		<tag k="place" v="locality" />
		<tag k="ssr:stedsnr" v="301188" />
	</node>
	<node lat="61.159358330302325" lon="8.821358330347506" id="-55357">
		<tag k="name" v="Midtbakkadn" />
		<tag k="natural" v="slope" />
		<tag k="place" v="locality" />
		<tag k="ssr:stedsnr" v="301378" />
	</node>
	<node lat="61.20183333560482" lon="8.657811107111073" id="-55363">
		<tag k="name" v="Klantadn" />
		<tag k="natural" v="hill" />
		<tag k="place" v="locality" />
		<tag k="ssr:stedsnr" v="464112" />
	</node>
	<node lat="61.206280558203574" lon="8.651302784471577" id="-55365">
		<tag k="name" v="Grisesvemjungen" />
		<tag k="place" v="locality" />
		<tag k="ssr:stedsnr" v="464139" />
	</node>
	<node lat="61.18253333224339" lon="8.481780563858331" id="-55368">
		<tag k="name" v="Tasabøtten" />
		<tag k="natural" v="valley" />
		<tag k="place" v="locality" />
		<tag k="ssr:stedsnr" v="464442" />
	</node>
	<node lat="61.168977776614035" lon="8.48837499997427" id="-55369">
		<tag k="name" v="Døttegile" />
		<tag k="natural" v="gorge" />
		<tag k="ssr:stedsnr" v="464444" />
	</node>
	<node lat="61.17053055911929" lon="8.535872221279874" id="-55370">
		<tag k="name" v="Tynneskrehaugen" />
		<tag k="natural" v="hill" />
		<tag k="place" v="locality" />
		<tag k="ssr:stedsnr" v="464783" />
	</node>
	<node lat="61.11939721872145" lon="8.57231111172999" id="-55371">
		<tag k="name" v="Rødningstræet" />
		<tag k="place" v="locality" />
		<tag k="ssr:stedsnr" v="464697" />
	</node>
	<node lat="61.159530552811034" lon="8.549902776322666" id="-55373">
		<tag k="name" v="Melberg" />
		<tag k="natural" v="hill" />
		<tag k="place" v="locality" />
		<tag k="ssr:stedsnr" v="464725" />
	</node>
	<node lat="61.12661110908904" lon="8.47953889744401" id="-55381">
		<tag k="name" v="Bergsbotten" />
		<tag k="natural" v="valley" />
		<tag k="place" v="locality" />
		<tag k="ssr:stedsnr" v="310279" />
	</node>
	<node lat="61.02551666445142" lon="8.673586106826374" id="-55382">
		<tag k="name" v="Nystøllie" />
		<tag k="natural" v="slope" />
		<tag k="place" v="locality" />
		<tag k="ssr:stedsnr" v="310437" />
	</node>
	<node lat="61.069355556274424" lon="8.615727778287734" id="-55384">
		<tag k="name" v="Vassendlie" />
		<tag k="natural" v="slope" />
		<tag k="place" v="locality" />
		<tag k="ssr:stedsnr" v="310393" />
	</node>
	<node lat="61.32412500406031" lon="8.579849999286063" id="-55387">
		<tag k="name" v="Systerbotten" />
		<tag k="natural" v="valley" />
		<tag k="place" v="locality" />
		<tag k="ssr:stedsnr" v="311202" />
	</node>
	<node lat="61.29539444417465" lon="8.313761112319774" id="-55392">
		<tag k="fixme" v="consider natural=peak for the most distinct mountains in the district" />
		<tag k="name" v="Møsaryggene" />
		<tag k="natural" v="hill" />
		<tag k="place" v="locality" />
		<tag k="ssr:stedsnr" v="311825" />
	</node>
	<node lat="61.30128888934382" lon="8.448766672123948" id="-55393">
		<tag k="fixme" v="consider natural=peak for the most distinct mountains in the district" />
		<tag k="name" v="Vardeggene" />
		<tag k="natural" v="hill" />
		<tag k="place" v="locality" />
		<tag k="ssr:stedsnr" v="311826" />
	</node>
	<node lat="61.41575833467" lon="8.381077775319802" id="-55394">
		<tag k="fixme" v="consider natural=peak for the most distinct mountains in the district" />
		<tag k="name" v="Grøneberget" />
		<tag k="natural" v="hill" />
		<tag k="place" v="locality" />
		<tag k="ssr:stedsnr" v="311876" />
	</node>
	<node lat="61.430200003548975" lon="8.240305549507315" id="-55395">
		<tag k="fixme" v="consider natural=peak for the most distinct mountains in the district" />
		<tag k="name" v="Storegut" />
		<tag k="natural" v="hill" />
		<tag k="place" v="locality" />
		<tag k="ssr:stedsnr" v="311877" />
	</node>
	<node lat="60.99878339487224" lon="8.603666327731132" id="-55396">
		<tag k="name" v="Smådalen" />
		<tag k="natural" v="valley" />
		<tag k="place" v="locality" />
		<tag k="ssr:stedsnr" v="312751" />
	</node>
	<node lat="61.39372500023494" lon="8.52714999117692" id="-55399">
		<tag k="fixme" v="consider natural=peak for the most distinct mountains in the district" />
		<tag k="name" v="Søre Langedalstinden" />
		<tag k="natural" v="hill" />
		<tag k="place" v="locality" />
		<tag k="ssr:stedsnr" v="329364" />
	</node>
	<node lat="61.213800003943035" lon="8.637091675868788" id="-55402">
		<tag k="name" v="Kleive" />
		<tag k="natural" v="slope" />
		<tag k="place" v="locality" />
		<tag k="ssr:stedsnr" v="342006" />
	</node>
	<node lat="61.21741944220775" lon="8.636227784529925" id="-55403">
		<tag k="name" v="Buhaugen" />
		<tag k="natural" v="hill" />
		<tag k="place" v="locality" />
		<tag k="ssr:stedsnr" v="342001" />
	</node>
	<node lat="61.15490555239887" lon="8.44234443562576" id="-55405">
		<tag k="name" v="Grodalen" />
		<tag k="natural" v="valley" />
		<tag k="place" v="locality" />
		<tag k="ssr:stedsnr" v="342354" />
	</node>
	<node lat="61.12193611557049" lon="8.484311102811445" id="-55406">
		<tag k="name" v="Farliskør" />
		<tag k="natural" v="hill" />
		<tag k="place" v="locality" />
		<tag k="ssr:stedsnr" v="342355" />
	</node>
	<node lat="61.11717500366888" lon="8.478305561803934" id="-55407">
		<tag k="name" v="Drysjanskør" />
		<tag k="natural" v="hill" />
		<tag k="place" v="locality" />
		<tag k="ssr:stedsnr" v="342358" />
	</node>
	<node lat="61.03136110938698" lon="8.690558333932012" id="-55408">
		<tag k="name" v="Håkonslette" />
		<tag k="place" v="locality" />
		<tag k="ssr:stedsnr" v="342741" />
	</node>
	<node lat="61.029925000409186" lon="8.721475001725656" id="-55409">
		<tag k="name" v="Kyrkjeslette" />
		<tag k="place" v="locality" />
		<tag k="ssr:stedsnr" v="342742" />
	</node>
	<node lat="61.24225555790094" lon="8.729319451110053" id="-55417">
		<tag k="name" v="Mugnelie" />
		<tag k="natural" v="slope" />
		<tag k="place" v="locality" />
		<tag k="ssr:stedsnr" v="478240" />
	</node>
	<node lat="61.17421666716216" lon="8.508361107067536" id="-55432">
		<tag k="fixme" v="consider natural=peak for the most distinct mountains in the district" />
		<tag k="name" v="Skutshorn" />
		<tag k="natural" v="hill" />
		<tag k="place" v="locality" />
		<tag k="ssr:stedsnr" v="371722" />
	</node>
	<node lat="61.110286109691465" lon="8.297922224882724" id="-55433">
		<tag k="fixme" v="consider natural=peak for the most distinct mountains in the district" />
		<tag k="name" v="Ljøtebottegge" />
		<tag k="natural" v="hill" />
		<tag k="place" v="locality" />
		<tag k="ssr:stedsnr" v="371664" />
	</node>
	<node lat="61.208213890720664" lon="8.163002784888858" id="-55434">
		<tag k="fixme" v="consider natural=peak for the most distinct mountains in the district" />
		<tag k="name" v="Bjørdalsnøse" />
		<tag k="natural" v="hill" />
		<tag k="place" v="locality" />
		<tag k="ssr:stedsnr" v="373644" />
	</node>
	<node lat="61.16278610768769" lon="8.381294450093357" id="-55437">
		<tag k="name" v="Bøtølvstaddaladn" />
		<tag k="natural" v="valley" />
		<tag k="place" v="locality" />
		<tag k="ssr:stedsnr" v="482275" />
	</node>
	<node lat="61.15079722181915" lon="8.304213891456092" id="-55440">
		<tag k="name" v="Vardhovdskaret" />
		<tag k="natural" v="valley" />
		<tag k="place" v="locality" />
		<tag k="ssr:stedsnr" v="482290" />
	</node>
	<node lat="61.17333610945049" lon="8.311977782363249" id="-55442">
		<tag k="name" v="Knausen" />
		<tag k="natural" v="hill" />
		<tag k="place" v="locality" />
		<tag k="ssr:stedsnr" v="482385" />
	</node>
	<node lat="61.16795000226985" lon="8.3111527779202" id="-55443">
		<tag k="name" v="Vardin" />
		<tag k="natural" v="hill" />
		<tag k="place" v="locality" />
		<tag k="ssr:stedsnr" v="482386" />
	</node>
	<node lat="61.22873611097076" lon="8.382694449075313" id="-55444">
		<tag k="name" v="Reinsdalen" />
		<tag k="natural" v="valley" />
		<tag k="place" v="locality" />
		<tag k="ssr:stedsnr" v="482429" />
	</node>
	<node lat="61.211877776543595" lon="8.350563893424535" id="-55445">
		<tag k="name" v="Søre Hunsilhaug" />
		<tag k="natural" v="hill" />
		<tag k="place" v="locality" />
		<tag k="ssr:stedsnr" v="482430" />
	</node>
	<node lat="61.20648888596815" lon="8.367536103605113" id="-55447">
		<tag k="name" v="Briskihaugen" />
		<tag k="natural" v="hill" />
		<tag k="place" v="locality" />
		<tag k="ssr:stedsnr" v="482439" />
	</node>
	<node lat="61.202244439990224" lon="8.367838886528316" id="-55449">
		<tag k="name" v="Kælvedalen" />
		<tag k="natural" v="valley" />
		<tag k="place" v="locality" />
		<tag k="ssr:stedsnr" v="482441" />
	</node>
	<node lat="61.15261388666808" lon="8.659994444973323" id="-55451">
		<tag k="name" v="Raude Skrea" />
		<tag k="natural" v="slope" />
		<tag k="place" v="locality" />
		<tag k="ssr:stedsnr" v="482911" />
	</node>
	<node lat="61.13085833396221" lon="8.643419448578374" id="-55452">
		<tag k="name" v="Klanten" />
		<tag k="natural" v="hill" />
		<tag k="place" v="locality" />
		<tag k="ssr:stedsnr" v="482917" />
	</node>
	<node lat="61.12078055294962" lon="8.656419448323549" id="-55453">
		<tag k="name" v="Fagrølen" />
		<tag k="place" v="locality" />
		<tag k="ssr:stedsnr" v="482871" />
	</node>
	<node lat="61.136361114758955" lon="8.728736102758313" id="-55454">
		<tag k="name" v="Stølsbakkadn" />
		<tag k="natural" v="slope" />
		<tag k="place" v="locality" />
		<tag k="ssr:stedsnr" v="482877" />
	</node>
	<node lat="61.13616111361865" lon="8.692055559960531" id="-55455">
		<tag k="name" v="Hestesvingen" />
		<tag k="natural" v="hill" />
		<tag k="place" v="locality" />
		<tag k="ssr:stedsnr" v="482923" />
	</node>
	<node lat="61.172694444298365" lon="8.34297500653149" id="-55456">
		<tag k="name" v="Kjersteinsbøttadn" />
		<tag k="natural" v="valley" />
		<tag k="place" v="locality" />
		<tag k="ssr:stedsnr" v="483292" />
	</node>
	<node lat="61.20323055796499" lon="8.289266666056395" id="-55458">
		<tag k="name" v="Varpaknuppadn" />
		<tag k="natural" v="hill" />
		<tag k="place" v="locality" />
		<tag k="ssr:stedsnr" v="483388" />
	</node>
	<node lat="61.176900002324466" lon="8.796322222009213" id="-55464">
		<tag k="name" v="Høvda" />
		<tag k="natural" v="hill" />
		<tag k="place" v="locality" />
		<tag k="ssr:stedsnr" v="403234" />
	</node>
	<node lat="61.11133333092648" lon="8.423055553081142" id="-55466">
		<tag k="name" v="Sykjestølsbøttadn" />
		<tag k="natural" v="valley" />
		<tag k="place" v="locality" />
		<tag k="ssr:stedsnr" v="403380" />
	</node>
	<node lat="61.172808332835466" lon="8.162088885696267" id="-55478">
		<tag k="name" v="Grøne Glenna" />
		<tag k="natural" v="slope" />
		<tag k="place" v="locality" />
		<tag k="ssr:stedsnr" v="422195" />
	</node>
	<node lat="61.14685277372739" lon="8.314213882578638" id="-55480">
		<tag k="name" v="Jeissegile" />
		<tag k="natural" v="gorge" />
		<tag k="ssr:stedsnr" v="422297" />
	</node>
	<node lat="61.085333334219634" lon="8.548766658308857" id="-55481">
		<tag k="name" v="Sandhaugadn" />
		<tag k="natural" v="hill" />
		<tag k="place" v="locality" />
		<tag k="ssr:stedsnr" v="422604" />
	</node>
	<node lat="61.26482222470015" lon="8.204813885369424" id="-55482">
		<tag k="name" v="Melvikhaugen" />
		<tag k="natural" v="hill" />
		<tag k="old_name" v="Mellvikhaugen" />
		<tag k="place" v="locality" />
		<tag k="ssr:stedsnr" v="422606" />
	</node>
	<node lat="61.06079722486752" lon="8.576972220661917" id="-55483">
		<tag k="name" v="Raudeskørdalen" />
		<tag k="natural" v="valley" />
		<tag k="place" v="locality" />
		<tag k="ssr:stedsnr" v="422588" />
	</node>
	<node lat="61.13225277664914" lon="8.672883342584786" id="-55487">
		<tag k="name" v="Eldrevadn" />
		<tag k="natural" v="hill" />
		<tag k="place" v="locality" />
		<tag k="ssr:stedsnr" v="422941" />
	</node>
	<node lat="61.14154999981807" lon="8.677480559971428" id="-55488">
		<tag k="name" v="Hugalie" />
		<tag k="natural" v="slope" />
		<tag k="place" v="locality" />
		<tag k="ssr:stedsnr" v="422942" />
	</node>
	<node lat="61.17101944381348" lon="8.357266660409861" id="-55491">
		<tag k="name" v="Oleslettbakkadn" />
		<tag k="natural" v="slope" />
		<tag k="place" v="locality" />
		<tag k="ssr:stedsnr" v="423292" />
	</node>
	<node lat="61.104247219882346" lon="8.605719441826565" id="-55492">
		<tag k="name" v="Gaukelie" />
		<tag k="natural" v="slope" />
		<tag k="place" v="locality" />
		<tag k="ssr:stedsnr" v="423818" />
	</node>
	<node lat="61.12106666920918" lon="8.571711111549536" id="-55493">
		<tag k="name" v="Sikte" />
		<tag k="place" v="locality" />
		<tag k="ssr:stedsnr" v="423822" />
	</node>
	<node lat="61.10002222275861" lon="8.513033339538868" id="-55496">
		<tag k="fixme" v="consider natural=peak for the most distinct mountains in the district" />
		<tag k="name" v="Storenibb" />
		<tag k="natural" v="hill" />
		<tag k="place" v="locality" />
		<tag k="ssr:stedsnr" v="431394" />
	</node>
	<node lat="61.069144445713015" lon="8.370400002660196" id="-55498">
		<tag k="fixme" v="consider natural=peak for the most distinct mountains in the district" />
		<tag k="name" v="Skarven" />
		<tag k="natural" v="hill" />
		<tag k="place" v="locality" />
		<tag k="ssr:stedsnr" v="431647" />
	</node>
	<node lat="61.14652636473322" lon="8.414057395513892" id="-55499">
		<tag k="fixme" v="consider natural=peak for the most distinct mountains in the district" />
		<tag k="name" v="Skjøld" />
		<tag k="natural" v="hill" />
		<tag k="place" v="locality" />
		<tag k="ssr:stedsnr" v="431689" />
	</node>
	<node lat="61.404566667167515" lon="8.214633337168994" id="-55506">
		<tag k="fixme" v="consider natural=peak for the most distinct mountains in the district" />
		<tag k="name" v="Langeskavlen" />
		<tag k="natural" v="hill" />
		<tag k="place" v="locality" />
		<tag k="ssr:stedsnr" v="432838" />
	</node>
	<node lat="61.31902777946585" lon="8.273125007451583" id="-55511">
		<tag k="name" v="Tvindehovda" />
		<tag k="natural" v="hill" />
		<tag k="place" v="locality" />
		<tag k="ssr:stedsnr" v="433823" />
	</node>
	<node lat="61.22621666281439" lon="8.01662221430308" id="-55517">
		<tag k="fixme" v="consider natural=peak for the most distinct mountains in the district" />
		<tag k="loc_name" v="Frøstdalseggene" />
		<tag k="name" v="Frostdalseggene" />
		<tag k="natural" v="hill" />
		<tag k="place" v="locality" />
		<tag k="ssr:stedsnr" v="434905" />
	</node>
	<node lat="61.24500555141774" lon="8.078727785904087" id="-55518">
		<tag k="fixme" v="consider natural=peak for the most distinct mountains in the district" />
		<tag k="name" v="Skivardegge" />
		<tag k="natural" v="hill" />
		<tag k="place" v="locality" />
		<tag k="ssr:stedsnr" v="434912" />
	</node>
	<node lat="61.229766667720945" lon="8.402891675730013" id="-55524">
		<tag k="name" v="Gravdalen" />
		<tag k="natural" v="valley" />
		<tag k="place" v="locality" />
		<tag k="ssr:stedsnr" v="435618" />
	</node>
	<node lat="61.09232499607488" lon="8.516869438413112" id="-55525">
		<tag k="fixme" v="consider natural=peak for the most distinct mountains in the district" />
		<tag k="name" v="Grindane" />
		<tag k="natural" v="hill" />
		<tag k="old_name" v="Grinddadn;Grindadn" />
		<tag k="place" v="locality" />
		<tag k="ssr:stedsnr" v="492358" />
	</node>
	<node lat="61.09167221922364" lon="8.308852774703745" id="-55526">
		<tag k="fixme" v="consider natural=peak for the most distinct mountains in the district" />
		<tag k="name" v="Skoddetinden" />
		<tag k="natural" v="hill" />
		<tag k="place" v="locality" />
		<tag k="ssr:stedsnr" v="492599" />
	</node>
	<node lat="61.09246110846282" lon="8.372213896630656" id="-55527">
		<tag k="name" v="Ursdalen" />
		<tag k="natural" v="valley" />
		<tag k="place" v="locality" />
		<tag k="ssr:stedsnr" v="492600" />
	</node>
	<node lat="61.17961666665926" lon="8.214805560187509" id="-55530">
		<tag k="name" v="Børrelie" />
		<tag k="natural" v="slope" />
		<tag k="place" v="locality" />
		<tag k="ssr:stedsnr" v="492549" />
	</node>
	<node lat="61.132202774324405" lon="8.381044440451353" id="-55532">
		<tag k="name" v="Munin" />
		<tag k="natural" v="valley" />
		<tag k="place" v="locality" />
		<tag k="ssr:stedsnr" v="492658" />
	</node>
	<node lat="61.10925278212914" lon="8.15493333644087" id="-55533">
		<tag k="fixme" v="consider natural=peak for the most distinct mountains in the district" />
		<tag k="name" v="Sulefjellet" />
		<tag k="natural" v="hill" />
		<tag k="place" v="locality" />
		<tag k="ssr:stedsnr" v="492664" />
	</node>
	<node lat="61.19461388492946" lon="8.061438880065184" id="-55535">
		<tag k="fixme" v="consider natural=peak for the most distinct mountains in the district" />
		<tag k="name" v="Skjeltrene" />
		<tag k="natural" v="hill" />
		<tag k="place" v="locality" />
		<tag k="ssr:stedsnr" v="494899" />
	</node>
	<node lat="60.99578888976882" lon="8.671525000900886" id="-55536">
		<tag k="fixme" v="consider natural=peak for the most distinct mountains in the district" />
		<tag k="name" v="Gråskarvet" />
		<tag k="natural" v="hill" />
		<tag k="place" v="locality" />
		<tag k="ssr:stedsnr" v="494757" />
	</node>
	<node lat="61.14523055728079" lon="8.726775003171133" id="-55538">
		<tag k="name" v="Hugali" />
		<tag k="natural" v="slope" />
		<tag k="place" v="locality" />
		<tag k="ssr:stedsnr" v="674289" />
	</node>
	<node lat="61.15211110670355" lon="8.588624994353822" id="-55549">
		<tag k="fixme" v="consider natural=peak for the most distinct mountains in the district" />
		<tag k="name" v="Knappen" />
		<tag k="natural" v="hill" />
		<tag k="place" v="locality" />
		<tag k="ssr:stedsnr" v="674245" />
	</node>
	<node lat="61.06059999952204" lon="8.585458325910366" id="-55553">
		<tag k="name" v="Kvite møsin" />
		<tag k="natural" v="slope" />
		<tag k="place" v="locality" />
		<tag k="ssr:stedsnr" v="674371" />
	</node>
	<node lat="61.20454722304313" lon="8.355391659211271" id="-55556">
		<tag k="name" v="Svinhusbakkin" />
		<tag k="natural" v="slope" />
		<tag k="place" v="locality" />
		<tag k="ssr:stedsnr" v="464426" />
	</node>
	<node lat="61.21842778103185" lon="8.686669437662463" id="-55561">
		<tag k="fixme" v="consider natural=peak for the most distinct mountains in the district" />
		<tag k="name" v="Belgjinøse" />
		<tag k="natural" v="hill" />
		<tag k="place" v="locality" />
		<tag k="ssr:stedsnr" v="674744" />
	</node>
	<node lat="61.392827779765184" lon="8.620636118864121" id="-55563">
		<tag k="fixme" v="consider natural=peak for the most distinct mountains in the district" />
		<tag k="name" v="Vestre Kalvehøgde" />
		<tag k="natural" v="hill" />
		<tag k="place" v="locality" />
		<tag k="ssr:stedsnr" v="675177" />
	</node>
	<node lat="61.3738250002943" lon="8.606774998797238" id="-55564">
		<tag k="name" v="Torfinnsdalen" />
		<tag k="natural" v="valley" />
		<tag k="place" v="locality" />
		<tag k="ssr:stedsnr" v="675182" />
	</node>
	<node lat="61.32650277442462" lon="8.502025007025882" id="-55565">
		<tag k="fixme" v="consider natural=peak for the most distinct mountains in the district" />
		<tag k="name" v="Vølohornet" />
		<tag k="natural" v="hill" />
		<tag k="place" v="locality" />
		<tag k="ssr:stedsnr" v="675187" />
	</node>
	<node lat="61.28969999848897" lon="8.731824992915344" id="-55566">
		<tag k="fixme" v="consider natural=peak for the most distinct mountains in the district" />
		<tag k="name" v="Svarteknippa" />
		<tag k="natural" v="hill" />
		<tag k="place" v="locality" />
		<tag k="ssr:stedsnr" v="675224" />
	</node>
	<node lat="61.28780277803555" lon="8.77762499425861" id="-55567">
		<tag k="alt_name" v="Velumskaret" />
		<tag k="name" v="Velumskardet" />
		<tag k="natural" v="valley" />
		<tag k="place" v="locality" />
		<tag k="ssr:stedsnr" v="675225" />
	</node>
	<node lat="61.29155277475215" lon="8.624674999117167" id="-55568">
		<tag k="name" v="Sendehøgde" />
		<tag k="natural" v="hill" />
		<tag k="place" v="locality" />
		<tag k="ssr:stedsnr" v="675228" />
	</node>
	<node lat="61.250077778547684" lon="8.663733333641256" id="-55569">
		<tag k="alt_name" v="Mugnetind" />
		<tag k="fixme" v="consider natural=peak for the most distinct mountains in the district" />
		<tag k="name" v="Mugnetinden" />
		<tag k="natural" v="hill" />
		<tag k="place" v="locality" />
		<tag k="ssr:stedsnr" v="675233" />
	</node>
	<node lat="61.39908611207017" lon="8.445127773809393" id="-55571">
		<tag k="fixme" v="consider natural=peak for the most distinct mountains in the district" />
		<tag k="name" v="Slettmarkkampen" />
		<tag k="natural" v="hill" />
		<tag k="place" v="locality" />
		<tag k="ssr:stedsnr" v="675852" />
	</node>
	<node lat="60.971438885509954" lon="8.625424998476618" id="-55576">
		<tag k="fixme" v="consider natural=peak for the most distinct mountains in the district" />
		<tag k="name" v="Hydalsrova" />
		<tag k="natural" v="hill" />
		<tag k="place" v="locality" />
		<tag k="ssr:stedsnr" v="676760" />
	</node>
	<node lat="61.18110278006384" lon="8.09804999564772" id="-55580">
		<tag k="name" v="Timrebakkin" />
		<tag k="natural" v="slope" />
		<tag k="place" v="locality" />
		<tag k="ssr:stedsnr" v="482119" />
	</node>
	<node lat="61.21460833222232" lon="8.276000000328875" id="-55583">
		<tag k="name" v="Yljegile" />
		<tag k="natural" v="valley" />
		<tag k="place" v="locality" />
		<tag k="ssr:stedsnr" v="482422" />
	</node>
	<node lat="61.17493610732804" lon="8.382183340159083" id="-55584">
		<tag k="name" v="Kvamsberget" />
		<tag k="natural" v="hill" />
		<tag k="place" v="locality" />
		<tag k="ssr:stedsnr" v="483302" />
	</node>
	<node lat="61.197486112893046" lon="8.333324995160984" id="-55586">
		<tag k="name" v="Jukulhammaren" />
		<tag k="natural" v="hill" />
		<tag k="place" v="locality" />
		<tag k="ssr:stedsnr" v="490311" />
	</node>
	<node lat="61.31866388683907" lon="8.624675001633335" id="-55589">
		<tag k="fixme" v="consider natural=peak for the most distinct mountains in the district" />
		<tag k="name" v="Skjeldrehornet" />
		<tag k="natural" v="hill" />
		<tag k="place" v="locality" />
		<tag k="ssr:stedsnr" v="492124" />
	</node>
	<node lat="61.11019999974899" lon="8.652250005005754" id="-55593">
		<tag k="name" v="Fagerlihovda" />
		<tag k="natural" v="hill" />
		<tag k="place" v="locality" />
		<tag k="ssr:stedsnr" v="492302" />
	</node>
	<node lat="61.063827774096936" lon="8.565977780335" id="-55598">
		<tag k="name" v="Smådalsfjellet" />
		<tag k="natural" v="hill" />
		<tag k="place" v="locality" />
		<tag k="ssr:stedsnr" v="492381" />
	</node>
	<node lat="61.12268388842103" lon="8.126715214623287" id="-55600">
		<tag k="fixme" v="consider natural=peak for the most distinct mountains in the district" />
		<tag k="name" v="Suletinden" />
		<tag k="natural" v="hill" />
		<tag k="place" v="locality" />
		<tag k="ssr:stedsnr" v="735669" />
	</node>
	<node lat="61.12623888881478" lon="8.368555546379948" id="-55601">
		<tag k="fixme" v="consider natural=peak for the most distinct mountains in the district" />
		<tag k="name" v="Rundebottnosi" />
		<tag k="natural" v="hill" />
		<tag k="place" v="locality" />
		<tag k="ssr:stedsnr" v="492631" />
	</node>
	<node lat="61.19760889949373" lon="8.615789397497048" id="-55603">
		<tag k="alt_name" v="Mjelknapp" />
		<tag k="fixme" v="consider natural=peak for the most distinct mountains in the district" />
		<tag k="name" v="Mjellknapp" />
		<tag k="natural" v="hill" />
		<tag k="place" v="locality" />
		<tag k="ssr:stedsnr" v="492680" />
	</node>
	<node lat="61.17657500076913" lon="8.648674998460253" id="-55605">
		<tag k="name" v="Haukeberg" />
		<tag k="natural" v="hill" />
		<tag k="place" v="locality" />
		<tag k="ssr:stedsnr" v="492688" />
	</node>
	<node lat="61.24193055300109" lon="8.62588333742334" id="-55607">
		<tag k="fixme" v="consider natural=peak for the most distinct mountains in the district" />
		<tag k="name" v="Skræmetindane" />
		<tag k="natural" v="hill" />
		<tag k="place" v="locality" />
		<tag k="ssr:stedsnr" v="492705" />
	</node>
	<node lat="61.243788888213736" lon="8.476524995541569" id="-55608">
		<tag k="fixme" v="consider natural=peak for the most distinct mountains in the district" />
		<tag k="name" v="Svarteknippa" />
		<tag k="natural" v="hill" />
		<tag k="place" v="locality" />
		<tag k="ssr:stedsnr" v="492715" />
	</node>
	<node lat="61.256116669707446" lon="8.605172226757833" id="-55609">
		<tag k="fixme" v="consider natural=peak for the most distinct mountains in the district" />
		<tag k="name" v="Trollfonnegge" />
		<tag k="natural" v="hill" />
		<tag k="place" v="locality" />
		<tag k="ssr:stedsnr" v="493212" />
	</node>
	<node lat="61.25976388451072" lon="8.420591660749727" id="-55612">
		<tag k="name" v="Bandet" />
		<tag k="natural" v="valley" />
		<tag k="place" v="locality" />
		<tag k="ssr:stedsnr" v="493802" />
	</node>
	<node lat="61.20037499865167" lon="8.660794440568147" id="-55617">
		<tag k="name" v="Systervabakkin" />
		<tag k="natural" v="slope" />
		<tag k="place" v="locality" />
		<tag k="ssr:stedsnr" v="524073" />
	</node>
	<node lat="61.22928333459163" lon="8.83315277087291" id="-55619">
		<tag k="name" v="Rudimoen" />
		<tag k="place" v="locality" />
		<tag k="ssr:stedsnr" v="524415" />
	</node>
	<node lat="61.16296111379875" lon="8.731252770209377" id="-55621">
		<tag k="name" v="Tørisberget" />
		<tag k="natural" v="hill" />
		<tag k="place" v="locality" />
		<tag k="ssr:stedsnr" v="524973" />
	</node>
	<node lat="61.11354166329252" lon="8.491019447651869" id="-55624">
		<tag k="name" v="Jørnsbakkin" />
		<tag k="natural" v="slope" />
		<tag k="place" v="locality" />
		<tag k="ssr:stedsnr" v="525414" />
	</node>
	<node lat="61.137447222143955" lon="8.51416944881114" id="-55625">
		<tag k="name" v="Skår Engeland" />
		<tag k="natural" v="slope" />
		<tag k="place" v="locality" />
		<tag k="ssr:stedsnr" v="525718" />
	</node>
	<node lat="61.181144448070214" lon="8.668658328899987" id="-55628">
		<tag k="name" v="Røvshaugadn" />
		<tag k="natural" v="hill" />
		<tag k="place" v="locality" />
		<tag k="ssr:stedsnr" v="525966" />
	</node>
	<node lat="61.06912777727122" lon="8.581449995816994" id="-55635">
		<tag k="name" v="Turthamar" />
		<tag k="natural" v="hill" />
		<tag k="place" v="locality" />
		<tag k="ssr:stedsnr" v="543570" />
	</node>
	<node lat="61.06705000199871" lon="8.55782221933353" id="-55637">
		<tag k="name" v="Sletteskaret" />
		<tag k="natural" v="valley" />
		<tag k="place" v="locality" />
		<tag k="ssr:stedsnr" v="543575" />
	</node>
	<node lat="61.07551944718946" lon="8.608627770205146" id="-55638">
		<tag k="name" v="Glassberget" />
		<tag k="natural" v="hill" />
		<tag k="place" v="locality" />
		<tag k="ssr:stedsnr" v="543590" />
	</node>
	<node lat="61.34157222215644" lon="8.285427772984411" id="-55639">
		<tag k="name" v="Myrkjeknatten" />
		<tag k="natural" v="hill" />
		<tag k="place" v="locality" />
		<tag k="ssr:stedsnr" v="543592" />
	</node>
	<node lat="61.0952361121098" lon="8.552824996837758" id="-55647">
		<tag k="fixme" v="consider natural=peak for the most distinct mountains in the district" />
		<tag k="name" v="Farli" />
		<tag k="natural" v="hill" />
		<tag k="place" v="locality" />
		<tag k="ssr:stedsnr" v="552411" />
	</node>
	<node lat="61.06540278104666" lon="8.584205547017026" id="-55648">
		<tag k="name" v="Svarteskred" />
		<tag k="natural" v="slope" />
		<tag k="place" v="locality" />
		<tag k="ssr:stedsnr" v="552435" />
	</node>
	<node lat="61.37113889324687" lon="8.630980548656856" id="-55657">
		<tag k="fixme" v="consider natural=peak for the most distinct mountains in the district" />
		<tag k="name" v="Nørdre Kalvehølotinden" />
		<tag k="natural" v="hill" />
		<tag k="place" v="locality" />
		<tag k="ssr:stedsnr" v="553137" />
	</node>
	<node lat="61.37616110679023" lon="8.678652785920615" id="-55658">
		<tag k="fixme" v="consider natural=peak for the most distinct mountains in the district" />
		<tag k="name" v="Søre Kalvehølotinden" />
		<tag k="natural" v="hill" />
		<tag k="place" v="locality" />
		<tag k="ssr:stedsnr" v="553138" />
	</node>
	<node lat="61.32269999909417" lon="8.741755562534818" id="-55659">
		<tag k="fixme" v="consider natural=peak for the most distinct mountains in the district" />
		<tag k="name" v="Seksishornet" />
		<tag k="natural" v="hill" />
		<tag k="place" v="locality" />
		<tag k="ssr:stedsnr" v="553140" />
	</node>
	<node lat="61.27513498405096" lon="8.620384349656591" id="-55661">
		<tag k="fixme" v="consider natural=peak for the most distinct mountains in the district" />
		<tag k="name" v="Store Sendehornet" />
		<tag k="natural" v="hill" />
		<tag k="place" v="locality" />
		<tag k="ssr:stedsnr" v="553201" />
	</node>
	<node lat="61.01843333304281" lon="8.509463885618203" id="-55663">
		<tag k="fixme" v="consider natural=peak for the most distinct mountains in the district" />
		<tag k="name" v="Ranastongi" />
		<tag k="natural" v="hill" />
		<tag k="place" v="locality" />
		<tag k="ssr:stedsnr" v="553410" />
	</node>
	<node lat="61.16563333717449" lon="8.555075007879898" id="-55666">
		<tag k="name" v="Dalsmunin" />
		<tag k="natural" v="hill" />
		<tag k="place" v="locality" />
		<tag k="ssr:stedsnr" v="553710" />
	</node>
	<node lat="61.20046667016955" lon="8.492183326723458" id="-55667">
		<tag k="fixme" v="consider natural=peak for the most distinct mountains in the district" />
		<tag k="name" v="Geiteklanten" />
		<tag k="natural" v="hill" />
		<tag k="place" v="locality" />
		<tag k="ssr:stedsnr" v="553711" />
	</node>
	<node lat="61.10586110707729" lon="8.440386104243995" id="-55670">
		<tag k="name" v="Skakadalen" />
		<tag k="natural" v="valley" />
		<tag k="place" v="locality" />
		<tag k="ssr:stedsnr" v="553688" />
	</node>
	<node lat="61.233444441524895" lon="8.360894441822609" id="-55675">
		<tag k="fixme" v="consider natural=peak for the most distinct mountains in the district" />
		<tag k="name" v="Veslenakken" />
		<tag k="natural" v="hill" />
		<tag k="place" v="locality" />
		<tag k="ssr:stedsnr" v="556628" />
	</node>
	<node lat="61.23564166422429" lon="8.437283336765498" id="-55676">
		<tag k="fixme" v="consider natural=peak for the most distinct mountains in the district" />
		<tag k="name" v="Hundesteinsegge" />
		<tag k="natural" v="hill" />
		<tag k="place" v="locality" />
		<tag k="ssr:stedsnr" v="556631" />
	</node>
	<node lat="61.24212499690275" lon="8.268830564400922" id="-55677">
		<tag k="fixme" v="consider natural=peak for the most distinct mountains in the district" />
		<tag k="name" v="Målegge" />
		<tag k="natural" v="hill" />
		<tag k="place" v="locality" />
		<tag k="ssr:stedsnr" v="556635" />
	</node>
	<node lat="61.21908333458919" lon="8.298236117871767" id="-55678">
		<tag k="fixme" v="consider natural=peak for the most distinct mountains in the district" />
		<tag k="name" v="Munkeskøregge" />
		<tag k="natural" v="hill" />
		<tag k="place" v="locality" />
		<tag k="ssr:stedsnr" v="556636" />
	</node>
	<node lat="61.17431944286147" lon="8.634663889349817" id="-55680">
		<tag k="name" v="Nørdre Haukeberg" />
		<tag k="natural" v="hill" />
		<tag k="place" v="locality" />
		<tag k="ssr:stedsnr" v="584104" />
	</node>
	<node lat="61.19380833020648" lon="8.663433326599128" id="-55681">
		<tag k="name" v="Høgebakk" />
		<tag k="natural" v="hill" />
		<tag k="place" v="locality" />
		<tag k="ssr:stedsnr" v="584095" />
	</node>
	<node lat="61.19812777521253" lon="8.657855558724227" id="-55683">
		<tag k="name" v="Brimbakkin" />
		<tag k="natural" v="slope" />
		<tag k="place" v="locality" />
		<tag k="ssr:stedsnr" v="584098" />
	</node>
	<node lat="61.19739722141543" lon="8.693650008201445" id="-55686">
		<tag k="name" v="Armodsbakke" />
		<tag k="natural" v="slope" />
		<tag k="place" v="locality" />
		<tag k="ssr:stedsnr" v="585013" />
	</node>
	<node lat="61.201702774859754" lon="8.721274999230205" id="-55688">
		<tag k="name" v="Skarvefønne" />
		<tag k="natural" v="slope" />
		<tag k="place" v="locality" />
		<tag k="ssr:stedsnr" v="585016" />
	</node>
	<node lat="61.16456666412988" lon="8.495419436130474" id="-55689">
		<tag k="name" v="Slurpadn" />
		<tag k="place" v="locality" />
		<tag k="ssr:stedsnr" v="585409" />
	</node>
	<node lat="61.19152777687289" lon="8.409458332831994" id="-55691">
		<tag k="name" v="Skjervenibba" />
		<tag k="natural" v="hill" />
		<tag k="place" v="locality" />
		<tag k="ssr:stedsnr" v="585454" />
	</node>
	<node lat="61.164858336871205" lon="8.39383611645778" id="-55692">
		<tag k="name" v="Djupedalen" />
		<tag k="natural" v="valley" />
		<tag k="place" v="locality" />
		<tag k="ssr:stedsnr" v="585338" />
	</node>
	<node lat="61.169369445417026" lon="8.539622226059164" id="-55697">
		<tag k="name" v="Svinekleive" />
		<tag k="natural" v="slope" />
		<tag k="place" v="locality" />
		<tag k="ssr:stedsnr" v="585699" />
	</node>
	<node lat="61.17452499727763" lon="8.54339999926871" id="-55699">
		<tag k="name" v="Tynneskrea" />
		<tag k="natural" v="valley" />
		<tag k="place" v="locality" />
		<tag k="ssr:stedsnr" v="585741" />
	</node>
	<node lat="61.24843610796757" lon="8.779849996652882" id="-55703">
		<tag k="name" v="Jøvneraudalen" />
		<tag k="natural" v="valley" />
		<tag k="place" v="locality" />
		<tag k="ssr:stedsnr" v="599816" />
	</node>
	<node lat="61.15375833694524" lon="8.3783638886688" id="-55705">
		<tag k="name" v="Storeskar" />
		<tag k="natural" v="valley" />
		<tag k="place" v="locality" />
		<tag k="ssr:stedsnr" v="603252" />
	</node>
	<node lat="61.10749166595341" lon="8.674072213696846" id="-55707">
		<tag k="name" v="Veslehuga" />
		<tag k="natural" v="hill" />
		<tag k="place" v="locality" />
		<tag k="ssr:stedsnr" v="603860" />
	</node>
	<node lat="61.14259999790371" lon="8.75054999742354" id="-55713">
		<tag k="name" v="Garddalsberget" />
		<tag k="natural" v="hill" />
		<tag k="place" v="locality" />
		<tag k="ssr:stedsnr" v="613302" />
	</node>
	<node lat="61.060774998017564" lon="8.49799723076115" id="-55720">
		<tag k="fixme" v="consider natural=peak for the most distinct mountains in the district" />
		<tag k="name" v="Kvannebakknøse" />
		<tag k="natural" v="hill" />
		<tag k="place" v="locality" />
		<tag k="ssr:stedsnr" v="613403" />
	</node>
	<node lat="61.079716666953374" lon="8.588188889165458" id="-55723">
		<tag k="alt_name" v="Kinn" />
		<tag k="name" v="Kinne" />
		<tag k="natural" v="hill" />
		<tag k="place" v="locality" />
		<tag k="ssr:stedsnr" v="613362" />
	</node>
	<node lat="61.335661112645305" lon="8.591388885482285" id="-55728">
		<tag k="fixme" v="consider natural=peak for the most distinct mountains in the district" />
		<tag k="name" v="Grøneberget" />
		<tag k="natural" v="hill" />
		<tag k="place" v="locality" />
		<tag k="ssr:stedsnr" v="614168" />
	</node>
	<node lat="61.30467777537782" lon="8.709458340371045" id="-55730">
		<tag k="fixme" v="consider natural=peak for the most distinct mountains in the district" />
		<tag k="name" v="Seksisegge" />
		<tag k="natural" v="hill" />
		<tag k="place" v="locality" />
		<tag k="ssr:stedsnr" v="614175" />
	</node>
	<node lat="61.28388555156524" lon="8.634044012688987" id="-55731">
		<tag k="fixme" v="consider natural=peak for the most distinct mountains in the district" />
		<tag k="name" v="Vesle Sendehornet" />
		<tag k="natural" v="hill" />
		<tag k="place" v="locality" />
		<tag k="ssr:stedsnr" v="614200" />
	</node>
	<node lat="61.26104999936344" lon="8.18451111095749" id="-55733">
		<tag k="fixme" v="consider natural=peak for the most distinct mountains in the district" />
		<tag k="name" v="Tyinstølnøse" />
		<tag k="natural" v="hill" />
		<tag k="place" v="locality" />
		<tag k="ssr:stedsnr" v="614809" />
	</node>
	<node lat="61.29109444242618" lon="8.293083326497902" id="-55734">
		<tag k="name" v="Geissmussdalen" />
		<tag k="natural" v="valley" />
		<tag k="place" v="locality" />
		<tag k="ssr:stedsnr" v="614814" />
	</node>
	<node lat="61.39426944469188" lon="8.28645000568622" id="-55736">
		<tag k="name" v="Mjølkedalen" />
		<tag k="natural" v="valley" />
		<tag k="place" v="locality" />
		<tag k="ssr:stedsnr" v="614847" />
	</node>
	<node lat="61.22480277602046" lon="8.413563896496555" id="-55741">
		<tag k="fixme" v="consider natural=peak for the most distinct mountains in the district" />
		<tag k="name" v="Fagersetnøse" />
		<tag k="natural" v="hill" />
		<tag k="place" v="locality" />
		<tag k="ssr:stedsnr" v="617617" />
	</node>
	<node lat="61.24798611391851" lon="8.104419445241115" id="-55742">
		<tag k="fixme" v="consider natural=peak for the most distinct mountains in the district" />
		<tag k="name" v="Svarteknippa" />
		<tag k="natural" v="hill" />
		<tag k="place" v="locality" />
		<tag k="ssr:stedsnr" v="617599" />
	</node>
	<node lat="61.21846944360826" lon="8.344069453125975" id="-55743">
		<tag k="name" v="Flænane" />
		<tag k="natural" v="slope" />
		<tag k="place" v="locality" />
		<tag k="ssr:stedsnr" v="617632" />
	</node>
	<node lat="61.12495555179026" lon="8.660202773764938" id="-55745">
		<tag k="name" v="Krøsskinnadn" />
		<tag k="place" v="locality" />
		<tag k="ssr:stedsnr" v="628901" />
	</node>
	<node lat="61.17749166894512" lon="8.833352774561577" id="-55748">
		<tag k="name" v="Øystre Hyggjandshaugen" />
		<tag k="natural" v="hill" />
		<tag k="place" v="locality" />
		<tag k="ssr:stedsnr" v="706251" />
	</node>
	<node lat="61.2266166660004" lon="8.723974997260731" id="-55751">
		<tag k="name" v="Mugnekinnadn" />
		<tag k="natural" v="slope" />
		<tag k="place" v="locality" />
		<tag k="ssr:stedsnr" v="645001" />
	</node>
	<node lat="61.199272223687224" lon="8.66050555058688" id="-55753">
		<tag k="name" v="Brekkehaugadn" />
		<tag k="natural" v="hill" />
		<tag k="place" v="locality" />
		<tag k="ssr:stedsnr" v="645085" />
	</node>
	<node lat="61.18248610938228" lon="8.85033889188886" id="-55754">
		<tag k="name" v="Lia" />
		<tag k="natural" v="slope" />
		<tag k="place" v="locality" />
		<tag k="ssr:stedsnr" v="645224" />
	</node>
	<node lat="61.180186108715034" lon="8.386422218390901" id="-55756">
		<tag k="name" v="Hagaberget" />
		<tag k="natural" v="hill" />
		<tag k="place" v="locality" />
		<tag k="ssr:stedsnr" v="645403" />
	</node>
	<node lat="61.2005000037821" lon="8.356791673568344" id="-55757">
		<tag k="name" v="Nasin" />
		<tag k="place" v="locality" />
		<tag k="ssr:stedsnr" v="645393" />
	</node>
	<node lat="61.197111113206056" lon="8.387777769091326" id="-55758">
		<tag k="name" v="Geiteberget" />
		<tag k="natural" v="hill" />
		<tag k="place" v="locality" />
		<tag k="ssr:stedsnr" v="645482" />
	</node>
	<node lat="61.164697218457235" lon="8.545377773879528" id="-55760">
		<tag k="fixme" v="consider natural=peak for the most distinct mountains in the district" />
		<tag k="name" v="Tonoberget" />
		<tag k="natural" v="hill" />
		<tag k="place" v="locality" />
		<tag k="ssr:stedsnr" v="645704" />
	</node>
	<node lat="61.15275833322183" lon="8.59764444561865" id="-55761">
		<tag k="name" v="Leirholsberget" />
		<tag k="natural" v="slope" />
		<tag k="place" v="locality" />
		<tag k="ssr:stedsnr" v="645725" />
	</node>
	<node lat="61.10967777574128" lon="8.578766673747289" id="-55765">
		<tag k="name" v="Brennebakke" />
		<tag k="natural" v="hill" />
		<tag k="place" v="locality" />
		<tag k="ssr:stedsnr" v="646686" />
	</node>
	<node lat="61.155177777764536" lon="8.607863882594268" id="-55767">
		<tag k="name" v="Langeskør" />
		<tag k="natural" v="slope" />
		<tag k="place" v="locality" />
		<tag k="ssr:stedsnr" v="646712" />
	</node>
	<node lat="61.15864166347998" lon="8.707763885441283" id="-55768">
		<tag k="name" v="Trøllhus" />
		<tag k="natural" v="ridge" />
		<tag k="place" v="locality" />
		<tag k="ssr:stedsnr" v="706985" />
	</node>
	<node lat="61.194977775270964" lon="8.759977787071485" id="-55771">
		<tag k="alt_name" v="Kjinno" />
		<tag k="name" v="Kinnadn" />
		<tag k="natural" v="slope" />
		<tag k="place" v="locality" />
		<tag k="ssr:stedsnr" v="707055" />
	</node>
	<node lat="61.17702221798726" lon="8.556013894702337" id="-55774">
		<tag k="name" v="Tynneskrelie" />
		<tag k="natural" v="valley" />
		<tag k="place" v="locality" />
		<tag k="ssr:stedsnr" v="707770" />
	</node>
	<node lat="61.03460833035696" lon="8.70648055011039" id="-55775">
		<tag k="name" v="Soleislette" />
		<tag k="place" v="locality" />
		<tag k="ssr:stedsnr" v="707795" />
	</node>
	<node lat="61.169686112894276" lon="8.390527771540564" id="-55779">
		<tag k="name" v="Kamben" />
		<tag k="natural" v="hill" />
		<tag k="place" v="locality" />
		<tag k="ssr:stedsnr" v="707493" />
	</node>
	<node lat="61.17025277466902" lon="8.386161111335165" id="-55781">
		<tag k="name" v="Tjernsteinbakkin" />
		<tag k="natural" v="slope" />
		<tag k="old_name" v="Tjednsteinbakkin" />
		<tag k="place" v="locality" />
		<tag k="ssr:stedsnr" v="707499" />
	</node>
	<node lat="61.18333888972436" lon="8.089738883357695" id="-55788">
		<tag k="name" v="Grønnelie" />
		<tag k="natural" v="slope" />
		<tag k="place" v="locality" />
		<tag k="ssr:stedsnr" v="664110" />
	</node>
	<node lat="61.143413886491324" lon="8.796447214320354" id="-55789">
		<tag k="name" v="Kilebakken" />
		<tag k="natural" v="slope" />
		<tag k="place" v="locality" />
		<tag k="ssr:stedsnr" v="664204" />
	</node>
	<node lat="61.114791665953334" lon="8.704538893181656" id="-55794">
		<tag k="name" v="Synberg" />
		<tag k="natural" v="hill" />
		<tag k="place" v="locality" />
		<tag k="ssr:stedsnr" v="664895" />
	</node>
	<node lat="61.209286108550074" lon="8.311461106739104" id="-55798">
		<tag k="name" v="Gøpledalen" />
		<tag k="natural" v="valley" />
		<tag k="place" v="locality" />
		<tag k="ssr:stedsnr" v="665389" />
	</node>
	<node lat="61.02704166296151" lon="8.55648611749153" id="-55808">
		<tag k="name" v="Munin" />
		<tag k="natural" v="valley" />
		<tag k="place" v="locality" />
		<tag k="ssr:stedsnr" v="674408" />
	</node>
	<node lat="61.12773611447084" lon="8.430199999195676" id="-55810">
		<tag k="fixme" v="consider natural=peak for the most distinct mountains in the district" />
		<tag k="name" v="Bergsfjellet" />
		<tag k="natural" v="hill" />
		<tag k="place" v="locality" />
		<tag k="ssr:stedsnr" v="674670" />
	</node>
	<node lat="61.19935555719452" lon="8.579388896057278" id="-55812">
		<tag k="fixme" v="consider natural=peak for the most distinct mountains in the district" />
		<tag k="name" v="Vennisfjellet" />
		<tag k="natural" v="hill" />
		<tag k="place" v="locality" />
		<tag k="ssr:stedsnr" v="674709" />
	</node>
	<node lat="61.23652322403702" lon="8.55194869207827" id="-55815">
		<tag k="fixme" v="consider natural=peak for the most distinct mountains in the district" />
		<tag k="name" v="Tomashelleren" />
		<tag k="natural" v="hill" />
		<tag k="place" v="locality" />
		<tag k="ssr:stedsnr" v="674727" />
	</node>
	<node lat="61.27428055887002" lon="8.511000006544702" id="-55817">
		<tag k="name" v="Dingledalen" />
		<tag k="natural" v="valley" />
		<tag k="place" v="locality" />
		<tag k="ssr:stedsnr" v="675249" />
	</node>
	<node lat="61.275408329333054" lon="8.583555562440507" id="-55818">
		<tag k="fixme" v="consider natural=peak for the most distinct mountains in the district" />
		<tag k="name" v="Nøse" />
		<tag k="natural" v="hill" />
		<tag k="place" v="locality" />
		<tag k="ssr:stedsnr" v="675251" />
	</node>
	<node lat="61.31264167012706" lon="8.759300000218747" id="-55819">
		<tag k="fixme" v="consider natural=peak for the most distinct mountains in the district" />
		<tag k="name" v="Gyriklanten" />
		<tag k="natural" v="hill" />
		<tag k="place" v="locality" />
		<tag k="ssr:stedsnr" v="675196" />
	</node>
	<node lat="61.25136461382416" lon="8.356411997969449" id="-55821">
		<tag k="fixme" v="consider natural=peak for the most distinct mountains in the district" />
		<tag k="name" v="Stornakken" />
		<tag k="natural" v="hill" />
		<tag k="place" v="locality" />
		<tag k="ssr:stedsnr" v="675814" />
	</node>
	<node lat="61.16871666886826" lon="8.70474444078208" id="-55833">
		<tag k="name" v="Åsehaugadn" />
		<tag k="natural" v="hill" />
		<tag k="place" v="locality" />
		<tag k="ssr:stedsnr" v="706980" />
	</node>
	<node lat="61.159686115112855" lon="8.42238333305997" id="-55835">
		<tag k="name" v="Dømmadn" />
		<tag k="place" v="locality" />
		<tag k="ssr:stedsnr" v="707404" />
	</node>
	<node lat="61.10910000141811" lon="8.501150003408428" id="-55836">
		<tag k="name" v="Grisekapsbøtten" />
		<tag k="natural" v="valley" />
		<tag k="place" v="locality" />
		<tag k="ssr:stedsnr" v="707414" />
	</node>
	<node lat="61.1078333334128" lon="8.447291675209206" id="-55837">
		<tag k="name" v="Hammerstad" />
		<tag k="natural" v="hill" />
		<tag k="place" v="locality" />
		<tag k="ssr:stedsnr" v="707415" />
	</node>
	<node lat="61.166897221417784" lon="8.52686389079256" id="-55842">
		<tag k="name" v="Øvre Kupa" />
		<tag k="natural" v="hill" />
		<tag k="place" v="locality" />
		<tag k="ssr:stedsnr" v="707725" />
	</node>
	<node lat="61.24147777457846" lon="8.715477772964256" id="-55847">
		<tag k="name" v="Høgehaugen" />
		<tag k="natural" v="hill" />
		<tag k="place" v="locality" />
		<tag k="ssr:stedsnr" v="712784" />
	</node>
	<node lat="61.13411111341634" lon="8.771549992923253" id="-55853">
		<tag k="name" v="Furuhaugen" />
		<tag k="natural" v="hill" />
		<tag k="place" v="locality" />
		<tag k="ssr:stedsnr" v="725014" />
	</node>
	<node lat="61.14525833368801" lon="8.780261110620556" id="-55855">
		<tag k="name" v="Prestekonemyr" />
		<tag k="place" v="locality" />
		<tag k="ssr:stedsnr" v="725209" />
	</node>
	<node lat="61.21706944650022" lon="8.341086117490557" id="-55857">
		<tag k="name" v="Klubbeberget" />
		<tag k="natural" v="hill" />
		<tag k="place" v="locality" />
		<tag k="ssr:stedsnr" v="725409" />
	</node>
	<node lat="61.15612499605213" lon="8.654563885485373" id="-55863">
		<tag k="name" v="Ringetøska" />
		<tag k="natural" v="hill" />
		<tag k="place" v="locality" />
		<tag k="ssr:stedsnr" v="725912" />
	</node>
	<node lat="61.11857500282696" lon="8.668902780054768" id="-55864">
		<tag k="name" v="Karibakke" />
		<tag k="natural" v="slope" />
		<tag k="place" v="locality" />
		<tag k="ssr:stedsnr" v="725871" />
	</node>
	<node lat="61.12962499750514" lon="8.648283329492848" id="-55883">
		<tag k="name" v="Fosshovda" />
		<tag k="natural" v="hill" />
		<tag k="place" v="locality" />
		<tag k="ssr:stedsnr" v="735336" />
	</node>
	<node lat="61.218608333480894" lon="8.462794449659746" id="-55892">
		<tag k="name" v="Sanddalen" />
		<tag k="natural" v="valley" />
		<tag k="place" v="locality" />
		<tag k="ssr:stedsnr" v="738628" />
	</node>
	<node lat="61.23895278072842" lon="8.753288879600992" id="-55893">
		<tag k="name" v="Høvda" />
		<tag k="natural" v="hill" />
		<tag k="place" v="locality" />
		<tag k="ssr:stedsnr" v="903794" />
	</node>
	<node lat="61.17387499942174" lon="8.828097217709928" id="-55897">
		<tag k="name" v="Høla" />
		<tag k="place" v="locality" />
		<tag k="ssr:stedsnr" v="767219" />
	</node>
	<node lat="61.175536109007396" lon="8.830463880263517" id="-55898">
		<tag k="name" v="Heimre Hyggjandshaugen" />
		<tag k="natural" v="hill" />
		<tag k="place" v="locality" />
		<tag k="ssr:stedsnr" v="767222" />
	</node>
	<node lat="61.11801667017771" lon="8.494408340316406" id="-55903">
		<tag k="name" v="Jonsgil" />
		<tag k="natural" v="valley" />
		<tag k="place" v="locality" />
		<tag k="ssr:stedsnr" v="767387" />
	</node>
	<node lat="61.12140555595608" lon="8.4861277724632" id="-55904">
		<tag k="name" v="Bukkegile" />
		<tag k="natural" v="valley" />
		<tag k="place" v="locality" />
		<tag k="ssr:stedsnr" v="767388" />
	</node>
	<node lat="61.119141668656496" lon="8.491574997372005" id="-55905">
		<tag k="name" v="Gamleeirikslettudn" />
		<tag k="place" v="locality" />
		<tag k="ssr:stedsnr" v="767389" />
	</node>
	<node lat="61.099166669715835" lon="8.461550006620275" id="-55906">
		<tag k="name" v="Snevegen" />
		<tag k="natural" v="slope" />
		<tag k="place" v="locality" />
		<tag k="ssr:stedsnr" v="767399" />
	</node>
	<node lat="61.15272500186716" lon="8.371658339973862" id="-55910">
		<tag k="name" v="Reinshaug" />
		<tag k="natural" v="hill" />
		<tag k="place" v="locality" />
		<tag k="ssr:stedsnr" v="907240" />
	</node>
	<node lat="61.15880555602853" lon="8.352894442278052" id="-55911">
		<tag k="name" v="Gilshaug" />
		<tag k="natural" v="hill" />
		<tag k="place" v="locality" />
		<tag k="ssr:stedsnr" v="907245" />
	</node>
	<node lat="61.21510555583462" lon="8.292169446862303" id="-55913">
		<tag k="name" v="Varpagile" />
		<tag k="natural" v="valley" />
		<tag k="place" v="locality" />
		<tag k="ssr:stedsnr" v="907387" />
	</node>
	<node lat="61.11001388461742" lon="8.689913896413831" id="-55919">
		<tag k="name" v="Myrehøgde" />
		<tag k="natural" v="hill" />
		<tag k="place" v="locality" />
		<tag k="ssr:stedsnr" v="907865" />
	</node>
	<node lat="61.09828333083408" lon="8.677475001488855" id="-55921">
		<tag k="name" v="Flænadn" />
		<tag k="place" v="locality" />
		<tag k="ssr:stedsnr" v="907845" />
	</node>
	<node lat="61.160808337478635" lon="8.673827779752855" id="-55922">
		<tag k="name" v="Smørhaugen" />
		<tag k="natural" v="hill" />
		<tag k="place" v="locality" />
		<tag k="ssr:stedsnr" v="907892" />
	</node>
	<node lat="61.193319447063274" lon="8.235744435944873" id="-55926">
		<tag k="name" v="Synberg" />
		<tag k="natural" v="hill" />
		<tag k="place" v="locality" />
		<tag k="ssr:stedsnr" v="908231" />
	</node>
	<node lat="61.16831388775339" lon="8.861372218734846" id="-55930">
		<tag k="name" v="Bakli" />
		<tag k="natural" v="slope" />
		<tag k="place" v="locality" />
		<tag k="ssr:stedsnr" v="782951" />
	</node>
	<node lat="61.183272218473014" lon="8.131358330735189" id="-55932">
		<tag k="fixme" v="consider natural=peak for the most distinct mountains in the district" />
		<tag k="name" v="Søre Kyrkjistølsnøse" />
		<tag k="natural" v="hill" />
		<tag k="place" v="locality" />
		<tag k="ssr:stedsnr" v="786124" />
	</node>
	<node lat="61.16020278085465" lon="8.757358336903174" id="-55935">
		<tag k="name" v="Høgebrekken" />
		<tag k="place" v="locality" />
		<tag k="ssr:stedsnr" v="786169" />
	</node>
	<node lat="61.17180000350977" lon="8.164716658716104" id="-55937">
		<tag k="name" v="Runde Hovdadn" />
		<tag k="natural" v="hill" />
		<tag k="place" v="locality" />
		<tag k="ssr:stedsnr" v="786198" />
	</node>
	<node lat="61.080238885832166" lon="8.610458325772921" id="-55942">
		<tag k="name" v="Fosshøvda" />
		<tag k="natural" v="hill" />
		<tag k="place" v="locality" />
		<tag k="ssr:stedsnr" v="786614" />
	</node>
	<node lat="61.13911212790882" lon="8.731051574793415" id="-55944">
		<tag k="name" v="Peengberget" />
		<tag k="natural" v="hill" />
		<tag k="place" v="locality" />
		<tag k="ssr:stedsnr" v="786899" />
	</node>
	<node lat="61.10655000019235" lon="8.592941670566702" id="-55958">
		<tag k="name" v="Solsteinlie" />
		<tag k="natural" v="slope" />
		<tag k="place" v="locality" />
		<tag k="ssr:stedsnr" v="796328" />
	</node>
	<node lat="61.117166671119534" lon="8.27091944723403" id="-55959">
		<tag k="fixme" v="consider natural=peak for the most distinct mountains in the district" />
		<tag k="name" v="Steinurde" />
		<tag k="natural" v="hill" />
		<tag k="place" v="locality" />
		<tag k="ssr:stedsnr" v="796657" />
	</node>
	<node lat="61.322541666661216" lon="8.441102778484357" id="-55961">
		<tag k="name" v="Vølodalen" />
		<tag k="natural" v="valley" />
		<tag k="place" v="locality" />
		<tag k="ssr:stedsnr" v="796819" />
	</node>
	<node lat="61.41437777579598" lon="8.422133334917113" id="-55967">
		<tag k="fixme" v="consider natural=peak for the most distinct mountains in the district" />
		<tag k="name" v="Rundtom" />
		<tag k="natural" v="hill" />
		<tag k="place" v="locality" />
		<tag k="ssr:stedsnr" v="796852" />
	</node>
	<node lat="61.227208334605905" lon="8.228297225034979" id="-55969">
		<tag k="alt_name" v="Galden, Vesle;Galden" />
		<tag k="name" v="Vesle Galden" />
		<tag k="natural" v="hill" />
		<tag k="place" v="locality" />
		<tag k="ssr:stedsnr" v="799634" />
	</node>
	<node lat="61.33609999670875" lon="8.768450007621565" id="-55971">
		<tag k="fixme" v="consider natural=peak for the most distinct mountains in the district" />
		<tag k="name" v="Mefjellet" />
		<tag k="natural" v="hill" />
		<tag k="place" v="locality" />
		<tag k="ssr:stedsnr" v="917133" />
	</node>
	<node lat="61.10337222086151" lon="8.357816668198717" id="-55976">
		<tag k="fixme" v="consider natural=peak for the most distinct mountains in the district" />
		<tag k="name" v="Tverrfjellet" />
		<tag k="natural" v="hill" />
		<tag k="place" v="locality" />
		<tag k="ssr:stedsnr" v="917652" />
	</node>
	<node lat="61.098927777896144" lon="8.310266665899332" id="-55977">
		<tag k="name" v="Grensehøgde" />
		<tag k="natural" v="hill" />
		<tag k="place" v="locality" />
		<tag k="ssr:stedsnr" v="917661" />
	</node>
	<node lat="61.118644441994604" lon="8.19473333885199" id="-55978">
		<tag k="name" v="Groven" />
		<tag k="natural" v="valley" />
		<tag k="place" v="locality" />
		<tag k="ssr:stedsnr" v="917662" />
	</node>
	<node lat="61.116372222425596" lon="8.595638890160131" id="-55990">
		<tag k="name" v="Marabakken" />
		<tag k="natural" v="slope" />
		<tag k="place" v="locality" />
		<tag k="ssr:stedsnr" v="917296" />
	</node>
	<node lat="61.05950832904465" lon="8.679091662437381" id="-55991">
		<tag k="fixme" v="consider natural=peak for the most distinct mountains in the district" />
		<tag k="name" v="Nonskampen" />
		<tag k="natural" v="hill" />
		<tag k="place" v="locality" />
		<tag k="ssr:stedsnr" v="917362" />
	</node>
	<node lat="61.01963611324895" lon="8.662952773001889" id="-55993">
		<tag k="name" v="Jørundgile" />
		<tag k="natural" v="valley" />
		<tag k="place" v="locality" />
		<tag k="ssr:stedsnr" v="917383" />
	</node>
	<node lat="61.03111388782902" lon="8.477549999441113" id="-55995">
		<tag k="name" v="Hestebotten" />
		<tag k="natural" v="valley" />
		<tag k="place" v="locality" />
		<tag k="ssr:stedsnr" v="917392" />
	</node>
	<node lat="61.08322499635937" lon="8.487705547611048" id="-55999">
		<tag k="fixme" v="consider natural=peak for the most distinct mountains in the district" />
		<tag k="name" v="Belgjinøse" />
		<tag k="natural" v="hill" />
		<tag k="place" v="locality" />
		<tag k="ssr:stedsnr" v="917336" />
	</node>
	<node lat="61.10120000027148" lon="8.60831389720365" id="-56000">
		<tag k="name" v="Gaukelie" />
		<tag k="natural" v="slope" />
		<tag k="place" v="locality" />
		<tag k="ssr:stedsnr" v="917350" />
	</node>
	<node lat="61.08491666998989" lon="8.447391669308653" id="-56003">
		<tag k="name" v="Belgjiflænane" />
		<tag k="place" v="locality" />
		<tag k="ssr:stedsnr" v="917606" />
	</node>
	<node lat="61.43214166877652" lon="8.47873332983114" id="-56004">
		<tag k="name" v="Langedalen" />
		<tag k="natural" v="valley" />
		<tag k="place" v="locality" />
		<tag k="ssr:stedsnr" v="918138" />
	</node>
	<node lat="61.30238610799946" lon="8.76330000160029" id="-56005">
		<tag k="fixme" v="consider natural=peak for the most distinct mountains in the district" />
		<tag k="name" v="Sandhaugen" />
		<tag k="natural" v="hill" />
		<tag k="place" v="locality" />
		<tag k="ssr:stedsnr" v="918189" />
	</node>
	<node lat="61.28987777992903" lon="8.526002775381512" id="-56006">
		<tag k="fixme" v="consider natural=peak for the most distinct mountains in the district" />
		<tag k="name" v="Yksnnøse" />
		<tag k="natural" v="hill" />
		<tag k="place" v="locality" />
		<tag k="ssr:stedsnr" v="918191" />
	</node>
	<node lat="61.29957778093934" lon="8.47447500030833" id="-56009">
		<tag k="name" v="Yksndalen" />
		<tag k="natural" v="valley" />
		<tag k="place" v="locality" />
		<tag k="ssr:stedsnr" v="918845" />
	</node>
	<node lat="61.39755833609887" lon="8.466086106433732" id="-56010">
		<tag k="fixme" v="consider natural=peak for the most distinct mountains in the district" />
		<tag k="name" v="Slettmarkpiggen" />
		<tag k="natural" v="hill" />
		<tag k="place" v="locality" />
		<tag k="ssr:stedsnr" v="918872" />
	</node>
	<node lat="61.187083335423694" lon="8.112580547009191" id="-56013">
		<tag k="fixme" v="consider natural=peak for the most distinct mountains in the district" />
		<tag k="name" v="Kyrkjenøse" />
		<tag k="natural" v="hill" />
		<tag k="place" v="locality" />
		<tag k="ssr:stedsnr" v="920567" />
	</node>
	<node lat="61.18606389134077" lon="8.833008334011053" id="-56015">
		<tag k="fixme" v="consider natural=peak for the most distinct mountains in the district" />
		<tag k="name" v="Skutadn" />
		<tag k="natural" v="hill" />
		<tag k="place" v="locality" />
		<tag k="ssr:stedsnr" v="828214" />
	</node>
	<node lat="61.18110832943968" lon="8.79907222346017" id="-56016">
		<tag k="name" v="Fjellstølhøvda" />
		<tag k="natural" v="hill" />
		<tag k="place" v="locality" />
		<tag k="ssr:stedsnr" v="828216" />
	</node>
	<node lat="61.14716111541729" lon="8.853666660170715" id="-56019">
		<tag k="name" v="Brenneberget" />
		<tag k="natural" v="hill" />
		<tag k="place" v="locality" />
		<tag k="ssr:stedsnr" v="828271" />
	</node>
	<node lat="61.156858337718695" lon="8.425333332640022" id="-56021">
		<tag k="name" v="Hundehus" />
		<tag k="natural" v="hill" />
		<tag k="place" v="locality" />
		<tag k="ssr:stedsnr" v="828375" />
	</node>
	<node lat="61.1312027764732" lon="8.501541665856278" id="-56023">
		<tag k="name" v="Svalegge" />
		<tag k="natural" v="ridge" />
		<tag k="place" v="locality" />
		<tag k="ssr:stedsnr" v="828377" />
	</node>
	<node lat="61.16859166985101" lon="8.520386109211374" id="-56028">
		<tag k="name" v="Møsaryggen" />
		<tag k="natural" v="ridge" />
		<tag k="place" v="locality" />
		<tag k="ssr:stedsnr" v="828703" />
	</node>
	<node lat="61.18332222065709" lon="8.612147220104632" id="-56029">
		<tag k="name" v="Nørdre Glupen" />
		<tag k="natural" v="valley" />
		<tag k="place" v="locality" />
		<tag k="ssr:stedsnr" v="828705" />
	</node>
	<node lat="61.158491662866744" lon="8.616411107963852" id="-56030">
		<tag k="name" v="Høverstadberget" />
		<tag k="natural" v="slope" />
		<tag k="place" v="locality" />
		<tag k="ssr:stedsnr" v="828708" />
	</node>
	<node lat="61.17661389123835" lon="8.36506666993825" id="-56040">
		<tag k="name" v="Nøsakamben" />
		<tag k="place" v="locality" />
		<tag k="ssr:stedsnr" v="847412" />
	</node>
	<node lat="61.09095833046255" lon="8.570424991634658" id="-56042">
		<tag k="name" v="Høvdadn" />
		<tag k="natural" v="hill" />
		<tag k="place" v="locality" />
		<tag k="ssr:stedsnr" v="847603" />
	</node>
	<node lat="61.14146110935434" lon="8.62564721781628" id="-56045">
		<tag k="name" v="Sigriddalen" />
		<tag k="natural" v="valley" />
		<tag k="place" v="locality" />
		<tag k="ssr:stedsnr" v="847929" />
	</node>
	<node lat="61.34772778139873" lon="8.74516110211405" id="-56056">
		<tag k="alt_name" v="Fagerdalen, heimre" />
		<tag k="name" v="Heimre Fagerdalen" />
		<tag k="natural" v="valley" />
		<tag k="place" v="locality" />
		<tag k="ssr:stedsnr" v="857178" />
	</node>
	<node lat="61.17190833630624" lon="8.6482027863298" id="-56065">
		<tag k="name" v="Måneberg" />
		<tag k="natural" v="hill" />
		<tag k="place" v="locality" />
		<tag k="ssr:stedsnr" v="857719" />
	</node>
	<node lat="61.1721611135302" lon="8.60882778242685" id="-56067">
		<tag k="fixme" v="consider natural=peak for the most distinct mountains in the district" />
		<tag k="name" v="Purkeryggen" />
		<tag k="natural" v="hill" />
		<tag k="place" v="locality" />
		<tag k="ssr:stedsnr" v="857725" />
	</node>
	<node lat="61.18537777512174" lon="8.597188879761374" id="-56068">
		<tag k="fixme" v="consider natural=peak for the most distinct mountains in the district" />
		<tag k="name" v="Møsåkerkampen" />
		<tag k="natural" v="hill" />
		<tag k="place" v="locality" />
		<tag k="ssr:stedsnr" v="857732" />
	</node>
	<node lat="61.12181666377701" lon="8.375288894461248" id="-56070">
		<tag k="name" v="Rundebotnen" />
		<tag k="natural" v="valley" />
		<tag k="place" v="locality" />
		<tag k="ssr:stedsnr" v="857680" />
	</node>
	<node lat="61.331805557811066" lon="8.34189167059891" id="-56071">
		<tag k="fixme" v="consider natural=peak for the most distinct mountains in the district" />
		<tag k="name" v="Skjenegge" />
		<tag k="natural" v="hill" />
		<tag k="place" v="locality" />
		<tag k="ssr:stedsnr" v="857813" />
	</node>
	<node lat="61.37438888915513" lon="8.257019435515744" id="-56073">
		<tag k="fixme" v="consider natural=peak for the most distinct mountains in the district" />
		<tag k="name" v="Sløtafjellet" />
		<tag k="natural" v="hill" />
		<tag k="place" v="locality" />
		<tag k="ssr:stedsnr" v="857826" />
	</node>
	<node lat="61.27320000129289" lon="8.448661104292825" id="-56074">
		<tag k="fixme" v="consider natural=peak for the most distinct mountains in the district" />
		<tag k="name" v="Djupebottegge" />
		<tag k="natural" v="hill" />
		<tag k="place" v="locality" />
		<tag k="ssr:stedsnr" v="858817" />
	</node>
	<node lat="61.22008611083067" lon="8.260511114952218" id="-56075">
		<tag k="fixme" v="consider natural=peak for the most distinct mountains in the district" />
		<tag k="name" v="Raudbergkampen" />
		<tag k="natural" v="hill" />
		<tag k="place" v="locality" />
		<tag k="ssr:stedsnr" v="860657" />
	</node>
	<node lat="61.22894444794129" lon="8.273544441340968" id="-56076">
		<tag k="alt_name" v="Kvannegrøtberget" />
		<tag k="name" v="Kvannegrøberget" />
		<tag k="natural" v="hill" />
		<tag k="place" v="locality" />
		<tag k="ssr:stedsnr" v="860660" />
	</node>
	<node lat="61.181305556289786" lon="8.755652780979272" id="-56082">
		<tag k="name" v="Øygardsliaden" />
		<tag k="natural" v="slope" />
		<tag k="place" v="locality" />
		<tag k="ssr:stedsnr" v="888447" />
	</node>
	<node lat="61.231029257643456" lon="8.631243122794144" id="-56084">
		<tag k="alt_name" v="Skræmebøtten" />
		<tag k="name" v="Skræmebotnen" />
		<tag k="natural" v="valley" />
		<tag k="place" v="locality" />
		<tag k="ssr:stedsnr" v="889003" />
	</node>
	<node lat="61.121747220421334" lon="8.51948611240893" id="-56086">
		<tag k="name" v="Øspedøtten" />
		<tag k="place" v="locality" />
		<tag k="ssr:stedsnr" v="889650" />
	</node>
	<node lat="61.122224996821274" lon="8.517375006128699" id="-56087">
		<tag k="name" v="Øydgardssletta" />
		<tag k="place" v="locality" />
		<tag k="ssr:stedsnr" v="889651" />
	</node>
	<node lat="61.14909166868481" lon="8.80705000321602" id="-56095">
		<tag k="name" v="Mjølhaugen" />
		<tag k="natural" v="hill" />
		<tag k="place" v="locality" />
		<tag k="ssr:stedsnr" v="907304" />
	</node>
	<node lat="61.135997218713854" lon="8.856622215490484" id="-56096">
		<tag k="name" v="Kløvningsdokki" />
		<tag k="natural" v="valley" />
		<tag k="place" v="locality" />
		<tag k="ssr:stedsnr" v="907205" />
	</node>
	<node lat="61.16608888462826" lon="8.38231666882525" id="-56098">
		<tag k="name" v="Brønin" />
		<tag k="natural" v="slope" />
		<tag k="place" v="locality" />
		<tag k="ssr:stedsnr" v="907253" />
	</node>
	<node lat="61.193827778741436" lon="8.375875003762468" id="-56099">
		<tag k="name" v="Rupe sæte" />
		<tag k="place" v="locality" />
		<tag k="ssr:stedsnr" v="907400" />
	</node>
	<node lat="61.16266666249979" lon="8.36879166998741" id="-56100">
		<tag k="name" v="Høvda" />
		<tag k="natural" v="hill" />
		<tag k="place" v="locality" />
		<tag k="ssr:stedsnr" v="907614" />
	</node>
	<node lat="61.12614722389005" lon="8.557199999260051" id="-56101">
		<tag k="name" v="Nausthaugen" />
		<tag k="natural" v="hill" />
		<tag k="place" v="locality" />
		<tag k="ssr:stedsnr" v="907671" />
	</node>
	<node lat="61.13823610766619" lon="8.6383749989444" id="-56103">
		<tag k="name" v="Luddedalen" />
		<tag k="natural" v="valley" />
		<tag k="place" v="locality" />
		<tag k="ssr:stedsnr" v="907903" />
	</node>
	<node lat="61.15162777630299" lon="8.655436107842538" id="-56104">
		<tag k="name" v="Galden" />
		<tag k="natural" v="hill" />
		<tag k="place" v="locality" />
		<tag k="ssr:stedsnr" v="907906" />
	</node>
	<node lat="61.134701728738015" lon="8.716150547563466" id="-56105">
		<tag k="name" v="Finntoppsletta" />
		<tag k="place" v="locality" />
		<tag k="ssr:stedsnr" v="907922" />
	</node>
	<node lat="61.137544442642714" lon="8.698455554856764" id="-56108">
		<tag k="name" v="Haugahelleradn" />
		<tag k="place" v="locality" />
		<tag k="ssr:stedsnr" v="907928" />
	</node>
	<node lat="61.44153974258086" lon="8.31036881830669" id="-56119">
		<tag k="fixme" v="consider natural=peak for the most distinct mountains in the district" />
		<tag k="name" v="Snøholstinden" />
		<tag k="natural" v="hill" />
		<tag k="old_name" v="Snøhølstinden" />
		<tag k="place" v="locality" />
		<tag k="ssr:stedsnr" v="917857" />
	</node>
	<node lat="61.25407777347761" lon="8.675911117167127" id="-56124">
		<tag k="name" v="Mugnebotten" />
		<tag k="natural" v="valley" />
		<tag k="place" v="locality" />
		<tag k="ssr:stedsnr" v="918231" />
	</node>
	<node lat="61.345788892136184" lon="8.29129165759402" id="-56127">
		<tag k="name" v="Myrjebotten" />
		<tag k="natural" v="valley" />
		<tag k="place" v="locality" />
		<tag k="ssr:stedsnr" v="918863" />
	</node>
	<node lat="61.21270000344048" lon="8.653811104858857" id="-56130">
		<tag k="name" v="Danemarkhødnet" />
		<tag k="natural" v="hill" />
		<tag k="place" v="locality" />
		<tag k="ssr:stedsnr" v="949003" />
	</node>
	<node lat="61.213000000263335" lon="8.643188884265394" id="-56131">
		<tag k="name" v="Dalen" />
		<tag k="natural" v="valley" />
		<tag k="place" v="locality" />
		<tag k="ssr:stedsnr" v="949004" />
	</node>
	<node lat="61.19886111277363" lon="8.70802221702028" id="-56132">
		<tag k="name" v="Grøne Kinn" />
		<tag k="natural" v="slope" />
		<tag k="place" v="locality" />
		<tag k="ssr:stedsnr" v="949008" />
	</node>
	<node lat="61.17088888991714" lon="8.81571944917769" id="-56133">
		<tag k="name" v="Suljihøvda" />
		<tag k="natural" v="hill" />
		<tag k="place" v="locality" />
		<tag k="ssr:stedsnr" v="949236" />
	</node>
	<node lat="61.19939166423687" lon="8.40306388459467" id="-56134">
		<tag k="name" v="Søre Bjødnaskøre" />
		<tag k="natural" v="hill" />
		<tag k="place" v="locality" />
		<tag k="ssr:stedsnr" v="949434" />
	</node>
	<node lat="61.15371389003352" lon="8.484388892581048" id="-56136">
		<tag k="name" v="Brekken" />
		<tag k="natural" v="slope" />
		<tag k="place" v="locality" />
		<tag k="ssr:stedsnr" v="949387" />
	</node>
	<node lat="61.168008333853905" lon="8.317952777607657" id="-56151">
		<tag k="name" v="Spranghaugadn" />
		<tag k="natural" v="hill" />
		<tag k="place" v="locality" />
		<tag k="ssr:stedsnr" v="968409" />
	</node>
	<node lat="61.16109166982439" lon="8.756624993138919" id="-56152">
		<tag k="name" v="Høgebrekken" />
		<tag k="natural" v="valley" />
		<tag k="place" v="locality" />
		<tag k="ssr:stedsnr" v="968411" />
	</node>
	<node lat="61.37384367137748" lon="8.573996168561544" id="-56159">
		<tag k="fixme" v="consider natural=peak for the most distinct mountains in the district" />
		<tag k="name" v="Torfinnstindane" />
		<tag k="natural" v="hill" />
		<tag k="place" v="locality" />
		<tag k="ssr:stedsnr" v="990831" />
	</node>
	<node lat="61.35876944203436" lon="8.769158339636297" id="-56162">
		<tag k="alt_name" v="Fagerdalen, øystre" />
		<tag k="name" v="Øystre Fagerdalen" />
		<tag k="natural" v="valley" />
		<tag k="place" v="locality" />
		<tag k="ssr:stedsnr" v="7158" />
	</node>
	<node lat="61.39018611480238" lon="8.567788897297596" id="-56163">
		<tag k="fixme" v="consider natural=peak for the most distinct mountains in the district" />
		<tag k="name" v="Torfinnsegge" />
		<tag k="natural" v="hill" />
		<tag k="place" v="locality" />
		<tag k="ssr:stedsnr" v="7163" />
	</node>
	<node lat="61.31492500192604" lon="8.652780552431036" id="-56164">
		<tag k="name" v="Oleberge" />
		<tag k="natural" v="hill" />
		<tag k="place" v="locality" />
		<tag k="ssr:stedsnr" v="7172" />
	</node>
	<node lat="61.34432777438985" lon="8.740163881825366" id="-56165">
		<tag k="fixme" v="consider natural=peak for the most distinct mountains in the district" />
		<tag k="name" v="Synsbekknuppane" />
		<tag k="natural" v="hill" />
		<tag k="place" v="locality" />
		<tag k="ssr:stedsnr" v="7176" />
	</node>
	<node lat="61.24567777577044" lon="8.613302782691775" id="-56167">
		<tag k="fixme" v="consider natural=peak for the most distinct mountains in the district" />
		<tag k="name" v="Skravlet" />
		<tag k="natural" v="hill" />
		<tag k="place" v="locality" />
		<tag k="ssr:stedsnr" v="7700" />
	</node>
	<node lat="61.23814534734063" lon="8.787564104630379" id="-56168">
		<tag k="fixme" v="consider natural=peak for the most distinct mountains in the district" />
		<tag k="name" v="Raudhorn" />
		<tag k="natural" v="hill" />
		<tag k="place" v="locality" />
		<tag k="ssr:stedsnr" v="7733" />
	</node>
	<node lat="61.23613888948129" lon="8.811444437710785" id="-56169">
		<tag k="name" v="Kjøsarauddalen" />
		<tag k="natural" v="valley" />
		<tag k="place" v="locality" />
		<tag k="ssr:stedsnr" v="7735" />
	</node>
	<node lat="61.41814166317766" lon="8.409877785175556" id="-56170">
		<tag k="fixme" v="consider natural=peak for the most distinct mountains in the district" />
		<tag k="loc_name" v="Geithøa" />
		<tag k="name" v="Geithøe" />
		<tag k="natural" v="hill" />
		<tag k="place" v="locality" />
		<tag k="ssr:stedsnr" v="7831" />
	</node>
	<node lat="61.26901388918726" lon="8.623099994022915" id="-56172">
		<tag k="name" v="Sendebotten" />
		<tag k="natural" v="valley" />
		<tag k="place" v="locality" />
		<tag k="ssr:stedsnr" v="7225" />
	</node>
	<node lat="61.12594166628932" lon="8.75862499624502" id="-56175">
		<tag k="name" v="Kviteberg" />
		<tag k="natural" v="hill" />
		<tag k="place" v="locality" />
		<tag k="ssr:stedsnr" v="7335" />
	</node>
	<node lat="61.40077499803468" lon="8.523450002763909" id="-56176">
		<tag k="fixme" v="consider natural=peak for the most distinct mountains in the district" />
		<tag k="name" v="Langedalstinden" />
		<tag k="natural" v="hill" />
		<tag k="place" v="locality" />
		<tag k="ssr:stedsnr" v="7144" />
	</node>
	<node lat="61.13147222099813" lon="8.505586114572571" id="-56177">
		<tag k="alt_name" v="Haugesete" />
		<tag k="fixme" v="consider natural=peak for the most distinct mountains in the district" />
		<tag k="name" v="Haugasete" />
		<tag k="natural" v="hill" />
		<tag k="place" v="locality" />
		<tag k="ssr:stedsnr" v="7284" />
	</node>
	<node lat="61.058713892933135" lon="8.595647224696986" id="-56180">
		<tag k="name" v="Brattsete" />
		<tag k="natural" v="slope" />
		<tag k="place" v="locality" />
		<tag k="ssr:stedsnr" v="7386" />
	</node>
	<node lat="61.19795278189781" lon="8.640805560737991" id="-56182">
		<tag k="fixme" v="consider natural=peak for the most distinct mountains in the district" />
		<tag k="name" v="Kleivane" />
		<tag k="natural" v="hill" />
		<tag k="place" v="locality" />
		<tag k="ssr:stedsnr" v="7671" />
	</node>
	<node lat="61.312136114122666" lon="8.363252780070832" id="-56184">
		<tag k="fixme" v="consider natural=peak for the most distinct mountains in the district" />
		<tag k="name" v="Stordalsnøse" />
		<tag k="natural" v="hill" />
		<tag k="place" v="locality" />
		<tag k="ssr:stedsnr" v="8827" />
	</node>
	<node lat="61.33955000254786" lon="8.437230548810161" id="-56185">
		<tag k="fixme" v="consider natural=peak for the most distinct mountains in the district" />
		<tag k="name" v="Dryllenøse" />
		<tag k="natural" v="hill" />
		<tag k="place" v="locality" />
		<tag k="ssr:stedsnr" v="8830" />
	</node>
	<node lat="60.991746189046694" lon="8.585045388936958" id="-56186">
		<tag k="fixme" v="consider natural=peak for the most distinct mountains in the district" />
		<tag k="name" v="Ranastongeggi" />
		<tag k="natural" v="hill" />
		<tag k="place" v="locality" />
		<tag k="ssr:stedsnr" v="9770" />
	</node>
	<node lat="61.19270277631507" lon="8.435683332718053" id="-56187">
		<tag k="fixme" v="consider natural=peak for the most distinct mountains in the district" />
		<tag k="name" v="Skyrifjellet" />
		<tag k="natural" v="hill" />
		<tag k="place" v="locality" />
		<tag k="ssr:stedsnr" v="10566" />
	</node>
	<node lat="61.204877774544585" lon="8.43401389032448" id="-56188">
		<tag k="alt_name" v="Langehølgji" />
		<tag k="name" v="Langehølje" />
		<tag k="natural" v="hill" />
		<tag k="place" v="locality" />
		<tag k="ssr:stedsnr" v="10572" />
	</node>
	<node lat="61.28622500395263" lon="8.736441660439755" id="-56190">
		<tag k="fixme" v="consider natural=peak for the most distinct mountains in the district" />
		<tag k="name" v="Skyrifjellet" />
		<tag k="natural" v="hill" />
		<tag k="place" v="locality" />
		<tag k="ssr:stedsnr" v="10791" />
	</node>
	<node lat="61.387675003730784" lon="8.635394453639293" id="-56191">
		<tag k="fixme" v="consider natural=peak for the most distinct mountains in the district" />
		<tag k="name" v="Midtre Kalvehøgde" />
		<tag k="natural" v="hill" />
		<tag k="place" v="locality" />
		<tag k="ssr:stedsnr" v="26395" />
	</node>
	<node lat="61.18159444267656" lon="8.398447229242048" id="-56192">
		<tag k="name" v="Hestegardsberget" />
		<tag k="natural" v="hill" />
		<tag k="place" v="locality" />
		<tag k="ssr:stedsnr" v="39363" />
	</node>
	<node lat="61.19766110741411" lon="8.639663889699612" id="-56198">
		<tag k="name" v="Bøgaskardet" />
		<tag k="natural" v="valley" />
		<tag k="place" v="locality" />
		<tag k="ssr:stedsnr" v="39081" />
	</node>
	<node lat="61.1998777822401" lon="8.643994448087986" id="-56199">
		<tag k="name" v="Kleivaberget" />
		<tag k="natural" v="hill" />
		<tag k="place" v="locality" />
		<tag k="ssr:stedsnr" v="39085" />
	</node>
	<node lat="61.19092222311008" lon="8.671013897698392" id="-56200">
		<tag k="name" v="Henshaugen" />
		<tag k="natural" v="hill" />
		<tag k="place" v="locality" />
		<tag k="ssr:stedsnr" v="39092" />
	</node>
	<node lat="61.15423055431068" lon="8.41132778476804" id="-56201">
		<tag k="name" v="Øksle" />
		<tag k="natural" v="hill" />
		<tag k="place" v="locality" />
		<tag k="ssr:stedsnr" v="39331" />
	</node>
	<node lat="61.10825833294279" lon="8.39629166764556" id="-56202">
		<tag k="name" v="Spjøthaugadn" />
		<tag k="natural" v="hill" />
		<tag k="place" v="locality" />
		<tag k="ssr:stedsnr" v="39339" />
	</node>
	<node lat="61.17437222563136" lon="8.398908338018169" id="-56207">
		<tag k="name" v="Midtbrekka" />
		<tag k="natural" v="slope" />
		<tag k="place" v="locality" />
		<tag k="ssr:stedsnr" v="39445" />
	</node>
	<node lat="61.1295472198875" lon="8.543050003846215" id="-56208">
		<tag k="name" v="Flaten" />
		<tag k="place" v="locality" />
		<tag k="ssr:stedsnr" v="39633" />
	</node>
	<node lat="61.16149444616438" lon="8.54242499602214" id="-56211">
		<tag k="name" v="Breidalsbakkin" />
		<tag k="natural" v="slope" />
		<tag k="place" v="locality" />
		<tag k="ssr:stedsnr" v="39649" />
	</node>
	<node lat="60.975038892979285" lon="8.64197221999661" id="-56212">
		<tag k="name" v="Storlie" />
		<tag k="natural" v="slope" />
		<tag k="place" v="locality" />
		<tag k="ssr:stedsnr" v="39739" />
	</node>
	<node lat="60.97610555947704" lon="8.627074998050814" id="-56213">
		<tag k="name" v="Bendiksetlie" />
		<tag k="natural" v="slope" />
		<tag k="place" v="locality" />
		<tag k="ssr:stedsnr" v="39742" />
	</node>
	<node lat="61.03640277376586" lon="8.629211119304545" id="-56215">
		<tag k="name" v="Ellevstøllie" />
		<tag k="natural" v="slope" />
		<tag k="place" v="locality" />
		<tag k="ssr:stedsnr" v="39747" />
	</node>
	<node lat="61.24287222595776" lon="8.804122219917389" id="-56221">
		<tag k="name" v="Skjenhaugen" />
		<tag k="natural" v="hill" />
		<tag k="place" v="locality" />
		<tag k="ssr:stedsnr" v="54805" />
	</node>
	<node lat="61.140952778661436" lon="8.743155550560777" id="-56224">
		<tag k="name" v="Kjeldarane" />
		<tag k="natural" v="hill" />
		<tag k="place" v="locality" />
		<tag k="ssr:stedsnr" v="58032" />
	</node>
	<node lat="61.17133610981605" lon="8.15120834258492" id="-56227">
		<tag k="name" v="Skavlgile" />
		<tag k="natural" v="gorge" />
		<tag k="ssr:stedsnr" v="58231" />
	</node>
	<node lat="61.17109166838972" lon="8.187694448625233" id="-56232">
		<tag k="name" v="Hammarn åt guto" />
		<tag k="natural" v="hill" />
		<tag k="place" v="locality" />
		<tag k="ssr:stedsnr" v="58281" />
	</node>
	<node lat="61.14127778181231" lon="8.857961103907908" id="-56233">
		<tag k="name" v="Ursdalen" />
		<tag k="natural" v="valley" />
		<tag k="place" v="locality" />
		<tag k="ssr:stedsnr" v="58282" />
	</node>
	<node lat="61.15756111217002" lon="8.745216673723858" id="-56235">
		<tag k="name" v="Tveithagan" />
		<tag k="natural" v="slope" />
		<tag k="place" v="locality" />
		<tag k="ssr:stedsnr" v="58422" />
	</node>
	<node lat="61.15380277517105" lon="8.807205549774245" id="-56238">
		<tag k="name" v="Kyrkjehaugen" />
		<tag k="natural" v="hill" />
		<tag k="place" v="locality" />
		<tag k="ssr:stedsnr" v="58399" />
	</node>
	<node lat="61.16339999896639" lon="8.799863895655607" id="-56239">
		<tag k="name" v="Krokoberget" />
		<tag k="natural" v="hill" />
		<tag k="place" v="locality" />
		<tag k="ssr:stedsnr" v="58418" />
	</node>
	<node lat="61.15091944461405" lon="8.650508340142903" id="-56242">
		<tag k="name" v="Kvamskleive" />
		<tag k="natural" v="slope" />
		<tag k="place" v="locality" />
		<tag k="ssr:stedsnr" v="58931" />
	</node>
	<node lat="61.14871110999315" lon="8.340302785127896" id="-56251">
		<tag k="name" v="Fagerdalen" />
		<tag k="natural" v="valley" />
		<tag k="place" v="locality" />
		<tag k="ssr:stedsnr" v="67683" />
	</node>
	<node lat="61.15692500176101" lon="8.85322499308211" id="-56253">
		<tag k="fixme" v="consider natural=peak for the most distinct mountains in the district" />
		<tag k="name" v="Håliåsen" />
		<tag k="natural" v="hill" />
		<tag k="place" v="locality" />
		<tag k="ssr:stedsnr" v="68051" />
	</node>
	<node lat="61.39514444477311" lon="8.69943333186647" id="-56254">
		<tag k="fixme" v="consider natural=peak for the most distinct mountains in the district" />
		<tag k="name" v="Rasletinden" />
		<tag k="natural" v="hill" />
		<tag k="place" v="locality" />
		<tag k="ssr:stedsnr" v="68132" />
	</node>
	<node lat="61.37349159590189" lon="8.576903321473171" id="-56259">
		<tag k="fixme" v="consider natural=peak for the most distinct mountains in the district" />
		<tag k="name" v="Øystre Torfinnstinden" />
		<tag k="natural" v="hill" />
		<tag k="place" v="locality" />
		<tag k="ssr:stedsnr" v="68160" />
	</node>
	<node lat="61.29313055828609" lon="8.51141666299226" id="-56262">
		<tag k="name" v="Djupebotten" />
		<tag k="natural" v="valley" />
		<tag k="place" v="locality" />
		<tag k="ssr:stedsnr" v="68177" />
	</node>
	<node lat="61.27795000168964" lon="8.54882778653463" id="-56264">
		<tag k="name" v="Nedre Bandet" />
		<tag k="natural" v="slope" />
		<tag k="place" v="locality" />
		<tag k="ssr:stedsnr" v="68199" />
	</node>
	<node lat="61.42788889056646" lon="8.178719451877514" id="-56270">
		<tag k="fixme" v="consider natural=peak for the most distinct mountains in the district" />
		<tag k="name" v="Langeskavltinden" />
		<tag k="natural" v="hill" />
		<tag k="place" v="locality" />
		<tag k="ssr:stedsnr" v="68844" />
	</node>
	<node lat="61.18633055294868" lon="8.17377499674083" id="-56276">
		<tag k="fixme" v="consider natural=peak for the most distinct mountains in the district" />
		<tag k="name" v="Støgonøse" />
		<tag k="natural" v="hill" />
		<tag k="place" v="locality" />
		<tag k="ssr:stedsnr" v="70556" />
	</node>
	<node lat="61.23350000208303" lon="8.38309999637914" id="-56278">
		<tag k="fixme" v="consider natural=peak for the most distinct mountains in the district" />
		<tag k="name" v="Tverrnakken" />
		<tag k="natural" v="hill" />
		<tag k="place" v="locality" />
		<tag k="ssr:stedsnr" v="71654" />
	</node>
	<node lat="61.2416527797709" lon="8.193041658238723" id="-56279">
		<tag k="alt_name" v="Store Galden" />
		<tag k="fixme" v="consider natural=peak for the most distinct mountains in the district" />
		<tag k="name" v="Galden" />
		<tag k="natural" v="hill" />
		<tag k="place" v="locality" />
		<tag k="ssr:stedsnr" v="71662" />
	</node>
	<node lat="61.173383332557506" lon="8.630863893317073" id="-56281">
		<tag k="name" v="Buskar" />
		<tag k="natural" v="valley" />
		<tag k="place" v="locality" />
		<tag k="ssr:stedsnr" v="99095" />
	</node>
	<node lat="61.18530000040785" lon="8.676727782541743" id="-56282">
		<tag k="name" v="Synadn" />
		<tag k="natural" v="hill" />
		<tag k="place" v="locality" />
		<tag k="ssr:stedsnr" v="99097" />
	</node>
	<node lat="61.18248055486011" lon="8.539088890898702" id="-56284">
		<tag k="name" v="Storskrea" />
		<tag k="natural" v="slope" />
		<tag k="place" v="locality" />
		<tag k="ssr:stedsnr" v="100731" />
	</node>
	<node lat="61.17964444105552" lon="8.53197499509756" id="-56285">
		<tag k="name" v="Tvørrberget" />
		<tag k="natural" v="hill" />
		<tag k="place" v="locality" />
		<tag k="ssr:stedsnr" v="100732" />
	</node>
	<node lat="61.19497499775411" lon="8.692769436729016" id="-56286">
		<tag k="name" v="Svarthamradn" />
		<tag k="natural" v="hill" />
		<tag k="place" v="locality" />
		<tag k="ssr:stedsnr" v="100041" />
	</node>
	<node lat="61.166769444195374" lon="8.386161103613478" id="-56291">
		<tag k="name" v="Gauskehelleren" />
		<tag k="natural" v="hill" />
		<tag k="place" v="locality" />
		<tag k="ssr:stedsnr" v="100352" />
	</node>
	<node lat="61.20684722423167" lon="8.395219440570818" id="-56295">
		<tag k="name" v="Brenda" />
		<tag k="place" v="locality" />
		<tag k="ssr:stedsnr" v="100482" />
	</node>
	<node lat="61.172308331099714" lon="8.51713056488002" id="-56297">
		<tag k="name" v="Øksle" />
		<tag k="place" v="locality" />
		<tag k="ssr:stedsnr" v="100689" />
	</node>
	<node lat="61.15243610979295" lon="8.616536113459444" id="-56298">
		<tag k="name" v="Store Runde Haugen" />
		<tag k="natural" v="hill" />
		<tag k="place" v="locality" />
		<tag k="ssr:stedsnr" v="100693" />
	</node>
	<node lat="61.11957777444231" lon="8.592016666913663" id="-56301">
		<tag k="name" v="Krøsvølhaugadn" />
		<tag k="natural" v="hill" />
		<tag k="place" v="locality" />
		<tag k="ssr:stedsnr" v="100651" />
	</node>
	<node lat="61.12618611002008" lon="8.53451667459905" id="-56302">
		<tag k="name" v="Skrubbehaugen" />
		<tag k="natural" v="hill" />
		<tag k="place" v="locality" />
		<tag k="ssr:stedsnr" v="100658" />
	</node>
	<node lat="61.42674457216087" lon="8.150372404305967" id="-56309">
		<tag k="fixme" v="consider natural=peak for the most distinct mountains in the district" />
		<tag k="name" v="Uranostinden" />
		<tag k="natural" v="hill" />
		<tag k="place" v="locality" />
		<tag k="ssr:stedsnr" v="107979" />
	</node>
	<node lat="61.162374998028476" lon="8.346836114977249" id="-56315">
		<tag k="name" v="Gråhamar" />
		<tag k="natural" v="hill" />
		<tag k="place" v="locality" />
		<tag k="ssr:stedsnr" v="118263" />
	</node>
	<node lat="61.16884722333" lon="8.1301194449683" id="-56317">
		<tag k="name" v="Hammerstadlie" />
		<tag k="natural" v="slope" />
		<tag k="place" v="locality" />
		<tag k="ssr:stedsnr" v="118124" />
	</node>
	<node lat="61.14451666951934" lon="8.811330556935244" id="-56320">
		<tag k="name" v="Vesleåndalane" />
		<tag k="natural" v="valley" />
		<tag k="place" v="locality" />
		<tag k="ssr:stedsnr" v="118165" />
	</node>
	<node lat="61.17126944026228" lon="8.378999995097839" id="-56322">
		<tag k="name" v="Kvinehære" />
		<tag k="place" v="locality" />
		<tag k="ssr:stedsnr" v="119272" />
	</node>
	<node lat="61.06556111329703" lon="8.578502773240562" id="-56323">
		<tag k="name" v="Svarteskre" />
		<tag k="natural" v="hill" />
		<tag k="place" v="locality" />
		<tag k="ssr:stedsnr" v="118535" />
	</node>
	<node lat="61.09844444151569" lon="8.61145833635129" id="-56326">
		<tag k="name" v="Søre Kølånhaugadn" />
		<tag k="natural" v="hill" />
		<tag k="place" v="locality" />
		<tag k="ssr:stedsnr" v="118553" />
	</node>
	<node lat="61.152002776870226" lon="8.717222231056478" id="-56334">
		<tag k="name" v="Torpehaugen" />
		<tag k="natural" v="hill" />
		<tag k="place" v="locality" />
		<tag k="ssr:stedsnr" v="118960" />
	</node>
	<node lat="61.08550833059525" lon="8.600683337895537" id="-56340">
		<tag k="alt_name" v="Kinnehøgde" />
		<tag k="fixme" v="consider natural=peak for the most distinct mountains in the district" />
		<tag k="name" v="Kinnehovda" />
		<tag k="natural" v="hill" />
		<tag k="place" v="locality" />
		<tag k="ssr:stedsnr" v="128323" />
	</node>
	<node lat="61.00435277986887" lon="8.67920278564292" id="-56341">
		<tag k="fixme" v="consider natural=peak for the most distinct mountains in the district" />
		<tag k="name" v="Jørundgilknappen" />
		<tag k="natural" v="hill" />
		<tag k="place" v="locality" />
		<tag k="ssr:stedsnr" v="128395" />
	</node>
	<node lat="61.053058332401946" lon="8.661300005301488" id="-56345">
		<tag k="name" v="Svørsbotten" />
		<tag k="natural" v="valley" />
		<tag k="place" v="locality" />
		<tag k="ssr:stedsnr" v="128357" />
	</node>
	<node lat="61.06171944181922" lon="8.660541662173634" id="-56346">
		<tag k="fixme" v="consider natural=peak for the most distinct mountains in the district" />
		<tag k="loc_name" v="Brimstadhovda" />
		<tag k="name" v="Geiteknappen" />
		<tag k="natural" v="hill" />
		<tag k="place" v="locality" />
		<tag k="ssr:stedsnr" v="128366" />
	</node>
	<node lat="61.12610278150659" lon="8.283555564365944" id="-56348">
		<tag k="name" v="Ljøtebottane" />
		<tag k="natural" v="valley" />
		<tag k="place" v="locality" />
		<tag k="ssr:stedsnr" v="128633" />
	</node>
	<node lat="61.19927777334981" lon="8.746341671297605" id="-56350">
		<tag k="fixme" v="consider natural=peak for the most distinct mountains in the district" />
		<tag k="name" v="Slettefjellet" />
		<tag k="natural" v="hill" />
		<tag k="place" v="locality" />
		<tag k="ssr:stedsnr" v="128668" />
	</node>
	<node lat="61.3742742044434" lon="8.568999095895059" id="-56357">
		<tag k="fixme" v="consider natural=peak for the most distinct mountains in the district" />
		<tag k="name" v="Vestre Torfinnstinden" />
		<tag k="natural" v="hill" />
		<tag k="place" v="locality" />
		<tag k="ssr:stedsnr" v="147371" />
	</node>
	<node lat="61.21290277923331" lon="8.637625001429567" id="-56358">
		<tag k="name" v="Kileberget" />
		<tag k="natural" v="hill" />
		<tag k="place" v="locality" />
		<tag k="ssr:stedsnr" v="160002" />
	</node>
	<node lat="61.21812222209982" lon="8.72647221793955" id="-56359">
		<tag k="name" v="Mathamar" />
		<tag k="natural" v="hill" />
		<tag k="place" v="locality" />
		<tag k="ssr:stedsnr" v="160007" />
	</node>
	<node lat="61.212052780840864" lon="8.62537499525962" id="-56360">
		<tag k="name" v="Svafønne" />
		<tag k="natural" v="hill" />
		<tag k="place" v="locality" />
		<tag k="ssr:stedsnr" v="160023" />
	</node>
	<node lat="61.14803055957082" lon="8.840847224854034" id="-56362">
		<tag k="name" v="Lykkjeberget" />
		<tag k="natural" v="hill" />
		<tag k="place" v="locality" />
		<tag k="ssr:stedsnr" v="160252" />
	</node>
	<node lat="61.17885000019366" lon="8.859002780849464" id="-56363">
		<tag k="name" v="Flenane" />
		<tag k="natural" v="slope" />
		<tag k="place" v="locality" />
		<tag k="ssr:stedsnr" v="160199" />
	</node>
	<node lat="61.16897778222431" lon="8.82371944262486" id="-56365">
		<tag k="name" v="Stormyrhaugen" />
		<tag k="natural" v="hill" />
		<tag k="place" v="locality" />
		<tag k="ssr:stedsnr" v="160210" />
	</node>
	<node lat="61.15952500375157" lon="8.411480546513662" id="-56368">
		<tag k="name" v="Drøplehammarn" />
		<tag k="natural" v="hill" />
		<tag k="place" v="locality" />
		<tag k="ssr:stedsnr" v="160340" />
	</node>
	<node lat="61.10335277556817" lon="8.494563890883262" id="-56369">
		<tag k="name" v="Heimstølbøtten" />
		<tag k="natural" v="valley" />
		<tag k="place" v="locality" />
		<tag k="ssr:stedsnr" v="160347" />
	</node>
	<node lat="61.210938884479866" lon="8.857377769550594" id="-56370">
		<tag k="name" v="Grauteberg" />
		<tag k="natural" v="hill" />
		<tag k="place" v="locality" />
		<tag k="ssr:stedsnr" v="160431" />
	</node>
	<node lat="61.112600001958654" lon="8.560550008798883" id="-56380">
		<tag k="name" v="Liaberg" />
		<tag k="natural" v="hill" />
		<tag k="place" v="locality" />
		<tag k="ssr:stedsnr" v="160633" />
	</node>
	<node lat="61.10660555547624" lon="8.610811110867488" id="-56381">
		<tag k="name" v="Gaukeligile" />
		<tag k="natural" v="valley" />
		<tag k="place" v="locality" />
		<tag k="ssr:stedsnr" v="160636" />
	</node>
	<node lat="61.1606194431086" lon="8.587283330193564" id="-56383">
		<tag k="name" v="Hyllebrøte" />
		<tag k="natural" v="slope" />
		<tag k="place" v="locality" />
		<tag k="ssr:stedsnr" v="160706" />
	</node>
	<node lat="61.16598333232409" lon="8.535033325740637" id="-56387">
		<tag k="name" v="Høgde" />
		<tag k="natural" v="hill" />
		<tag k="place" v="locality" />
		<tag k="ssr:stedsnr" v="160684" />
	</node>
	<node lat="61.166891669224206" lon="8.611847225062158" id="-56390">
		<tag k="name" v="Pigghaus" />
		<tag k="natural" v="hill" />
		<tag k="place" v="locality" />
		<tag k="ssr:stedsnr" v="160695" />
	</node>
	<node lat="61.15908333545852" lon="8.682841660817228" id="-56396">
		<tag k="name" v="Gullringberget" />
		<tag k="natural" v="hill" />
		<tag k="place" v="locality" />
		<tag k="ssr:stedsnr" v="160977" />
	</node>
	<node lat="61.23174722272245" lon="8.349219437016867" id="-56400">
		<tag k="name" v="Øyangsberget" />
		<tag k="natural" v="hill" />
		<tag k="place" v="locality" />
		<tag k="ssr:stedsnr" v="179436" />
	</node>
	<node lat="61.15448055458638" lon="8.78721111223834" id="-56403">
		<tag k="name" v="Timberberget" />
		<tag k="natural" v="hill" />
		<tag k="place" v="locality" />
		<tag k="ssr:stedsnr" v="179171" />
	</node>
	<node lat="61.214613887601395" lon="8.34542499937131" id="-56407">
		<tag k="name" v="Skogstadberget" />
		<tag k="natural" v="hill" />
		<tag k="place" v="locality" />
		<tag k="ssr:stedsnr" v="179444" />
	</node>
	<node lat="61.211580556693896" lon="8.346100008102107" id="-56408">
		<tag k="name" v="Nørdre Hunsilhaug" />
		<tag k="natural" v="hill" />
		<tag k="place" v="locality" />
		<tag k="ssr:stedsnr" v="179445" />
	</node>
	<node lat="61.07237222417544" lon="8.691800004631931" id="-56409">
		<tag k="name" v="Vergesteinberget" />
		<tag k="natural" v="hill" />
		<tag k="place" v="locality" />
		<tag k="ssr:stedsnr" v="179837" />
	</node>
	<node lat="61.35733888466117" lon="8.262872214561954" id="-56411">
		<tag k="name" v="Hellebøen" />
		<tag k="place" v="locality" />
		<tag k="ssr:stedsnr" v="179592" />
	</node>
	<node lat="61.08943889231941" lon="8.598697226084315" id="-56413">
		<tag k="name" v="Purkesøludn" />
		<tag k="place" v="locality" />
		<tag k="ssr:stedsnr" v="179597" />
	</node>
	<node lat="61.16117499707053" lon="8.655366663217867" id="-56419">
		<tag k="alt_name" v="Hemstigberget" />
		<tag k="name" v="Hemsingberget" />
		<tag k="natural" v="hill" />
		<tag k="place" v="locality" />
		<tag k="ssr:stedsnr" v="188275" />
	</node>
	<node lat="61.1205333350454" lon="8.345099993664403" id="-56423">
		<tag k="name" v="Sauebotten" />
		<tag k="natural" v="valley" />
		<tag k="place" v="locality" />
		<tag k="ssr:stedsnr" v="189652" />
	</node>
	<node lat="61.181275003883584" lon="8.532919445693457" id="-56424">
		<tag k="name" v="Sanddalen" />
		<tag k="natural" v="valley" />
		<tag k="place" v="locality" />
		<tag k="ssr:stedsnr" v="189655" />
	</node>
	<node lat="61.19635555214288" lon="8.5510222177037" id="-56425">
		<tag k="alt_name" v="Gælnehus" />
		<tag k="fixme" v="consider natural=peak for the most distinct mountains in the district" />
		<tag k="name" v="Galnehusfjellet" />
		<tag k="natural" v="hill" />
		<tag k="place" v="locality" />
		<tag k="ssr:stedsnr" v="189659" />
	</node>
	<node lat="61.27091082139296" lon="8.726971666371794" id="-56433">
		<tag k="fixme" v="consider natural=peak for the most distinct mountains in the district" />
		<tag k="name" v="Fleinsendberge" />
		<tag k="natural" v="hill" />
		<tag k="place" v="locality" />
		<tag k="ssr:stedsnr" v="189190" />
	</node>
	<node lat="61.26883611498833" lon="8.695283338409444" id="-56434">
		<tag k="fixme" v="consider natural=peak for the most distinct mountains in the district" />
		<tag k="name" v="Åtjernfjellet" />
		<tag k="natural" v="hill" />
		<tag k="place" v="locality" />
		<tag k="ssr:stedsnr" v="189193" />
	</node>
	<node lat="61.18028055960179" lon="8.240188879964386" id="-56435">
		<tag k="fixme" v="consider natural=peak for the most distinct mountains in the district" />
		<tag k="name" v="Børrenøse" />
		<tag k="natural" v="hill" />
		<tag k="place" v="locality" />
		<tag k="ssr:stedsnr" v="189550" />
	</node>
	<node lat="61.05151389067772" lon="8.569647222086914" id="-56442">
		<tag k="name" v="Nørdre Smådalen" />
		<tag k="natural" v="valley" />
		<tag k="place" v="locality" />
		<tag k="ssr:stedsnr" v="189348" />
	</node>
	<node lat="61.31303889153266" lon="8.300133342251463" id="-56446">
		<tag k="fixme" v="consider natural=peak for the most distinct mountains in the district" />
		<tag k="name" v="Skølten" />
		<tag k="natural" v="hill" />
		<tag k="place" v="locality" />
		<tag k="ssr:stedsnr" v="190842" />
	</node>
	<node lat="60.9875027780386" lon="8.690549993984359" id="-56447">
		<tag k="alt_name" v="Storlifjellet" />
		<tag k="fixme" v="consider natural=peak for the most distinct mountains in the district" />
		<tag k="name" v="Storlifjell" />
		<tag k="natural" v="hill" />
		<tag k="place" v="locality" />
		<tag k="ssr:stedsnr" v="190798" />
	</node>
	<node lat="60.948408335705665" lon="8.658550003433069" id="-56448">
		<tag k="name" v="Øyneberge" />
		<tag k="natural" v="hill" />
		<tag k="place" v="locality" />
		<tag k="ssr:stedsnr" v="191827" />
	</node>
	<node lat="61.16290277707148" lon="8.40306666838104" id="-56458">
		<tag k="name" v="Pussehølet" />
		<tag k="natural" v="valley" />
		<tag k="place" v="locality" />
		<tag k="ssr:stedsnr" v="221358" />
	</node>
	<node lat="61.115991662946115" lon="8.501266674473463" id="-56459">
		<tag k="name" v="Fjørungstøllie" />
		<tag k="natural" v="slope" />
		<tag k="place" v="locality" />
		<tag k="ssr:stedsnr" v="221366" />
	</node>
	<node lat="61.114902775316075" lon="8.46648332518273" id="-56460">
		<tag k="name" v="Heimstølberget" />
		<tag k="natural" v="hill" />
		<tag k="place" v="locality" />
		<tag k="ssr:stedsnr" v="221369" />
	</node>
	<node lat="61.2139277792098" lon="8.835613897250646" id="-56463">
		<tag k="name" v="Høvdeberget" />
		<tag k="natural" v="hill" />
		<tag k="place" v="locality" />
		<tag k="ssr:stedsnr" v="221441" />
	</node>
	<node lat="61.202683333669455" lon="8.390605557377553" id="-56465">
		<tag k="name" v="Kasaberget" />
		<tag k="natural" v="hill" />
		<tag k="place" v="locality" />
		<tag k="ssr:stedsnr" v="221462" />
	</node>
	<node lat="61.068169446215386" lon="8.632350005632864" id="-56471">
		<tag k="name" v="Raude Skøre" />
		<tag k="natural" v="valley" />
		<tag k="place" v="locality" />
		<tag k="ssr:stedsnr" v="221754" />
	</node>
	<node lat="61.306297224108526" lon="8.45740277175668" id="-56474">
		<tag k="name" v="Stølsskaret" />
		<tag k="natural" v="valley" />
		<tag k="place" v="locality" />
		<tag k="ssr:stedsnr" v="228124" />
	</node>
	<node lat="61.185141662726096" lon="8.744169443129206" id="-56477">
		<tag k="name" v="Jøvneliaden" />
		<tag k="natural" v="slope" />
		<tag k="place" v="locality" />
		<tag k="ssr:stedsnr" v="281497" />
	</node>
	<node lat="61.185752781639145" lon="8.76635554761193" id="-56478">
		<tag k="name" v="Ørmeberget" />
		<tag k="natural" v="hill" />
		<tag k="place" v="locality" />
		<tag k="ssr:stedsnr" v="281501" />
	</node>
	<node lat="61.20489444394972" lon="8.649149994712714" id="-56479">
		<tag k="name" v="Svemjungen" />
		<tag k="place" v="locality" />
		<tag k="ssr:stedsnr" v="282124" />
	</node>
	<node lat="61.14644444860964" lon="8.85059166020559" id="-56480">
		<tag k="name" v="Robakken" />
		<tag k="natural" v="slope" />
		<tag k="place" v="locality" />
		<tag k="ssr:stedsnr" v="282261" />
	</node>
	<node lat="61.225213887837064" lon="8.811744451617084" id="-56484">
		<tag k="name" v="Gipagile" />
		<tag k="natural" v="valley" />
		<tag k="place" v="locality" />
		<tag k="ssr:stedsnr" v="282465" />
	</node>
	<node lat="61.114858334296834" lon="8.583694436697776" id="-56487">
		<tag k="name" v="Tøbakkslette" />
		<tag k="place" v="locality" />
		<tag k="ssr:stedsnr" v="282649" />
	</node>
	<node lat="61.12167777906821" lon="8.602269448157418" id="-56488">
		<tag k="name" v="Pipru" />
		<tag k="place" v="locality" />
		<tag k="ssr:stedsnr" v="282651" />
	</node>
	<node lat="61.11163889211041" lon="8.593002772901775" id="-56489">
		<tag k="name" v="Lutasletto" />
		<tag k="place" v="locality" />
		<tag k="ssr:stedsnr" v="282661" />
	</node>
	<node lat="61.18047499820111" lon="8.143444437115997" id="-56497">
		<tag k="name" v="Skjeldrudn" />
		<tag k="place" v="locality" />
		<tag k="ssr:stedsnr" v="300142" />
	</node>
	<node lat="61.208827778423675" lon="8.502788885728327" id="-56502">
		<tag k="name" v="Langehaugen" />
		<tag k="natural" v="hill" />
		<tag k="place" v="locality" />
		<tag k="ssr:stedsnr" v="300545" />
	</node>
	<node lat="61.07894999808247" lon="8.618397217850738" id="-56503">
		<tag k="name" v="Skjelhaughøvda" />
		<tag k="natural" v="hill" />
		<tag k="place" v="locality" />
		<tag k="ssr:stedsnr" v="300594" />
	</node>
	<node lat="61.08433333165924" lon="8.552169453232326" id="-56504">
		<tag k="name" v="Helevønddalen" />
		<tag k="natural" v="valley" />
		<tag k="place" v="locality" />
		<tag k="ssr:stedsnr" v="300600" />
	</node>
	<node lat="61.20579444685388" lon="8.284216662640794" id="-56506">
		<tag k="name" v="Hølabakkadn" />
		<tag k="natural" v="slope" />
		<tag k="place" v="locality" />
		<tag k="ssr:stedsnr" v="301346" />
	</node>
	<node lat="61.14024166865031" lon="8.700283336097549" id="-56508">
		<tag k="name" v="Klanten" />
		<tag k="natural" v="hill" />
		<tag k="place" v="locality" />
		<tag k="ssr:stedsnr" v="300939" />
	</node>
	<node lat="61.21064444526105" lon="8.301336109545785" id="-56509">
		<tag k="name" v="Fugleskøre" />
		<tag k="natural" v="valley" />
		<tag k="place" v="locality" />
		<tag k="ssr:stedsnr" v="301318" />
	</node>
	<node lat="61.17361666849499" lon="8.379155555848572" id="-56512">
		<tag k="name" v="Liaberget" />
		<tag k="natural" v="hill" />
		<tag k="place" v="locality" />
		<tag k="ssr:stedsnr" v="301254" />
	</node>
	<node lat="61.253125003380966" lon="8.75543332977131" id="-56516">
		<tag k="name" v="Hensrauddalen" />
		<tag k="natural" v="valley" />
		<tag k="place" v="locality" />
		<tag k="ssr:stedsnr" v="311292" />
	</node>
	<node lat="61.102377774875585" lon="8.71840555604715" id="-56523">
		<tag k="name" v="Syndislie" />
		<tag k="natural" v="slope" />
		<tag k="place" v="locality" />
		<tag k="ssr:stedsnr" v="310371" />
	</node>
	<node lat="61.09509166695087" lon="8.53549166679363" id="-56525">
		<tag k="name" v="Grindeskøre" />
		<tag k="place" v="locality" />
		<tag k="ssr:stedsnr" v="310376" />
	</node>
	<node lat="61.004052773496575" lon="8.629650002082794" id="-56529">
		<tag k="fixme" v="consider natural=peak for the most distinct mountains in the district" />
		<tag k="name" v="Smådalsknippa" />
		<tag k="natural" v="hill" />
		<tag k="place" v="locality" />
		<tag k="ssr:stedsnr" v="310418" />
	</node>
	<node lat="61.12851110725196" lon="8.402705550337116" id="-56531">
		<tag k="fixme" v="consider natural=peak for the most distinct mountains in the district" />
		<tag k="name" v="Soleiklanten" />
		<tag k="natural" v="hill" />
		<tag k="place" v="locality" />
		<tag k="ssr:stedsnr" v="310684" />
	</node>
	<node lat="61.24888611272312" lon="8.779127774106895" id="-56534">
		<tag k="name" v="Rauddalen" />
		<tag k="natural" v="valley" />
		<tag k="place" v="locality" />
		<tag k="ssr:stedsnr" v="310720" />
	</node>
	<node lat="61.026513893044516" lon="8.437808328544694" id="-56536">
		<tag k="fixme" v="consider natural=peak for the most distinct mountains in the district" />
		<tag k="name" v="Storebottegge" />
		<tag k="natural" v="hill" />
		<tag k="place" v="locality" />
		<tag k="ssr:stedsnr" v="310648" />
	</node>
	<node lat="61.13791389210688" lon="8.208913892952681" id="-56537">
		<tag k="name" v="Svarteknippa" />
		<tag k="natural" v="hill" />
		<tag k="place" v="locality" />
		<tag k="ssr:stedsnr" v="310657" />
	</node>
	<node lat="61.1472499985169" lon="8.251499995455308" id="-56538">
		<tag k="name" v="Vardhovdflænane" />
		<tag k="natural" v="slope" />
		<tag k="place" v="locality" />
		<tag k="ssr:stedsnr" v="310660" />
	</node>
	<node lat="61.318774998164535" lon="8.690463883836964" id="-56540">
		<tag k="fixme" v="consider natural=peak for the most distinct mountains in the district" />
		<tag k="name" v="Marabotthornet" />
		<tag k="natural" v="hill" />
		<tag k="place" v="locality" />
		<tag k="ssr:stedsnr" v="311229" />
	</node>
	<node lat="61.28883055449098" lon="8.381077782221013" id="-56545">
		<tag k="fixme" v="consider natural=peak for the most distinct mountains in the district" />
		<tag k="name" v="Steinbuberget" />
		<tag k="natural" v="hill" />
		<tag k="place" v="locality" />
		<tag k="ssr:stedsnr" v="311811" />
	</node>
	<node lat="61.275091666124965" lon="8.288694448153258" id="-56546">
		<tag k="fixme" v="consider natural=peak for the most distinct mountains in the district" />
		<tag k="name" v="Loppebolegge" />
		<tag k="natural" v="hill" />
		<tag k="place" v="locality" />
		<tag k="ssr:stedsnr" v="311813" />
	</node>
	<node lat="61.308344440804795" lon="8.32531389043318" id="-56549">
		<tag k="name" v="Stordalen" />
		<tag k="natural" v="valley" />
		<tag k="place" v="locality" />
		<tag k="ssr:stedsnr" v="311838" />
	</node>
	<node lat="61.34902778172248" lon="8.295774991130818" id="-56550">
		<tag k="name" v="Utsikten" />
		<tag k="natural" v="hill" />
		<tag k="place" v="locality" />
		<tag k="ssr:stedsnr" v="311848" />
	</node>
	<node lat="61.37534444739347" lon="8.168024996058863" id="-56551">
		<tag k="loc_name" v="Køldedalen" />
		<tag k="name" v="Koldedalen" />
		<tag k="natural" v="valley" />
		<tag k="place" v="locality" />
		<tag k="ssr:stedsnr" v="311854" />
	</node>
	<node lat="61.19240000325958" lon="8.29319444922369" id="-56552">
		<tag k="alt_name" v="Finndalshødn" />
		<tag k="fixme" v="consider natural=peak for the most distinct mountains in the district" />
		<tag k="name" v="Finndalshornet" />
		<tag k="natural" v="hill" />
		<tag k="place" v="locality" />
		<tag k="ssr:stedsnr" v="313567" />
	</node>
	<node lat="61.221230551467634" lon="8.30944444731135" id="-56553">
		<tag k="name" v="Horndalen" />
		<tag k="natural" v="valley" />
		<tag k="place" v="locality" />
		<tag k="ssr:stedsnr" v="314628" />
	</node>
	<node lat="61.12001111015148" lon="8.759041668252786" id="-56555">
		<tag k="name" v="Høvdehøgda" />
		<tag k="natural" v="hill" />
		<tag k="place" v="locality" />
		<tag k="ssr:stedsnr" v="342026" />
	</node>
	<node lat="61.18975277855943" lon="8.672694446249459" id="-56557">
		<tag k="name" v="Heimre Hensdalen" />
		<tag k="natural" v="valley" />
		<tag k="place" v="locality" />
		<tag k="ssr:stedsnr" v="342088" />
	</node>
	<node lat="61.18612222218389" lon="8.665525005657335" id="-56558">
		<tag k="name" v="Sandhaugadn" />
		<tag k="natural" v="hill" />
		<tag k="place" v="locality" />
		<tag k="ssr:stedsnr" v="342089" />
	</node>
	<node lat="61.20228889032463" lon="8.398249993325221" id="-56561">
		<tag k="name" v="Stigen" />
		<tag k="natural" v="hill" />
		<tag k="place" v="locality" />
		<tag k="ssr:stedsnr" v="342435" />
	</node>
	<node lat="61.19821666599103" lon="8.39590555406591" id="-56562">
		<tag k="name" v="Brøtadn" />
		<tag k="natural" v="slope" />
		<tag k="place" v="locality" />
		<tag k="ssr:stedsnr" v="342440" />
	</node>
	<node lat="61.14876666517671" lon="8.567525001216694" id="-56565">
		<tag k="name" v="Ryberg" />
		<tag k="natural" v="slope" />
		<tag k="place" v="locality" />
		<tag k="ssr:stedsnr" v="342654" />
	</node>
	<node lat="61.14903055248606" lon="8.619202775019726" id="-56567">
		<tag k="name" v="Naustberget" />
		<tag k="natural" v="hill" />
		<tag k="place" v="locality" />
		<tag k="ssr:stedsnr" v="342679" />
	</node>
	<node lat="61.17423333734482" lon="8.548563894234784" id="-56568">
		<tag k="name" v="Tynneskrelie" />
		<tag k="natural" v="slope" />
		<tag k="place" v="locality" />
		<tag k="ssr:stedsnr" v="342715" />
	</node>
	<node lat="61.208163887944394" lon="8.616994440817827" id="-56569">
		<tag k="fixme" v="consider natural=peak for the most distinct mountains in the district" />
		<tag k="name" v="Herredalsbrynadn" />
		<tag k="natural" v="hill" />
		<tag k="place" v="locality" />
		<tag k="ssr:stedsnr" v="342773" />
	</node>
	<node lat="61.16127221901086" lon="8.699152785081582" id="-56572">
		<tag k="fixme" v="consider natural=peak for the most distinct mountains in the district" />
		<tag k="name" v="Høvdaberget" />
		<tag k="natural" v="hill" />
		<tag k="place" v="locality" />
		<tag k="ssr:stedsnr" v="342970" />
	</node>
	<node lat="61.13928055659559" lon="8.754366659034027" id="-56579">
		<tag k="name" v="Kvannegrøvdalen" />
		<tag k="natural" v="valley" />
		<tag k="place" v="locality" />
		<tag k="ssr:stedsnr" v="361022" />
	</node>
	<node lat="61.18060277470543" lon="8.149336112438002" id="-56585">
		<tag k="name" v="Sæludn" />
		<tag k="place" v="locality" />
		<tag k="ssr:stedsnr" v="361217" />
	</node>
	<node lat="61.18551111211465" lon="8.119888892331272" id="-56586">
		<tag k="name" v="Kyrkjiskaret" />
		<tag k="natural" v="valley" />
		<tag k="place" v="locality" />
		<tag k="ssr:stedsnr" v="361168" />
	</node>
	<node lat="61.15183611191645" lon="8.786250004783115" id="-56589">
		<tag k="name" v="Bukkeberget" />
		<tag k="natural" v="hill" />
		<tag k="place" v="locality" />
		<tag k="ssr:stedsnr" v="361182" />
	</node>
	<node lat="61.13339722362794" lon="8.850122229201524" id="-56593">
		<tag k="name" v="Tjørobrenna" />
		<tag k="natural" v="hill" />
		<tag k="place" v="locality" />
		<tag k="ssr:stedsnr" v="361264" />
	</node>
	<node lat="61.140680551148186" lon="8.857061107258025" id="-56594">
		<tag k="name" v="Blokkeberg" />
		<tag k="natural" v="hill" />
		<tag k="place" v="locality" />
		<tag k="ssr:stedsnr" v="361267" />
	</node>
	<node lat="61.17147499880492" lon="8.326288885214444" id="-56596">
		<tag k="name" v="Gile" />
		<tag k="natural" v="gorge" />
		<tag k="ssr:stedsnr" v="361285" />
	</node>
	<node lat="61.21997222579246" lon="8.236788891410747" id="-56598">
		<tag k="name" v="Klemma" />
		<tag k="natural" v="valley" />
		<tag k="place" v="locality" />
		<tag k="ssr:stedsnr" v="361228" />
	</node>
	<node lat="61.156933337002094" lon="8.371972220440886" id="-56602">
		<tag k="name" v="Langehammaren" />
		<tag k="natural" v="hill" />
		<tag k="place" v="locality" />
		<tag k="ssr:stedsnr" v="361311" />
	</node>
	<node lat="61.15520000121828" lon="8.313580552480198" id="-56603">
		<tag k="fixme" v="consider natural=peak for the most distinct mountains in the district" />
		<tag k="name" v="Langefønnegge" />
		<tag k="natural" v="hill" />
		<tag k="place" v="locality" />
		<tag k="ssr:stedsnr" v="361339" />
	</node>
	<node lat="61.1770888928851" lon="8.337391661410212" id="-56604">
		<tag k="name" v="Bøttedalen" />
		<tag k="natural" v="valley" />
		<tag k="place" v="locality" />
		<tag k="ssr:stedsnr" v="361415" />
	</node>
	<node lat="61.208116664022405" lon="8.30820833099766" id="-56606">
		<tag k="name" v="Føssehøla" />
		<tag k="natural" v="valley" />
		<tag k="place" v="locality" />
		<tag k="ssr:stedsnr" v="361374" />
	</node>
	<node lat="61.214150000515254" lon="8.333144438880394" id="-56608">
		<tag k="name" v="Nørdre Kamben" />
		<tag k="natural" v="hill" />
		<tag k="place" v="locality" />
		<tag k="ssr:stedsnr" v="361482" />
	</node>
	<node lat="61.06325555774715" lon="8.584172218008092" id="-56609">
		<tag k="name" v="Skuleskøre" />
		<tag k="natural" v="hill" />
		<tag k="place" v="locality" />
		<tag k="ssr:stedsnr" v="361602" />
	</node>
	<node lat="61.067422218896375" lon="8.540247228490356" id="-56610">
		<tag k="name" v="Syne" />
		<tag k="natural" v="hill" />
		<tag k="place" v="locality" />
		<tag k="ssr:stedsnr" v="361606" />
	</node>
	<node lat="61.07841944148459" lon="8.559236116365934" id="-56611">
		<tag k="name" v="Nørdre Egge" />
		<tag k="natural" v="hill" />
		<tag k="place" v="locality" />
		<tag k="ssr:stedsnr" v="361608" />
	</node>
	<node lat="61.063533334888525" lon="8.571544440584711" id="-56612">
		<tag k="name" v="Krokskreskaret" />
		<tag k="natural" v="valley" />
		<tag k="place" v="locality" />
		<tag k="ssr:stedsnr" v="361611" />
	</node>
	<node lat="61.13004722539014" lon="8.716216663757535" id="-56618">
		<tag k="name" v="Lyberg" />
		<tag k="natural" v="hill" />
		<tag k="place" v="locality" />
		<tag k="ssr:stedsnr" v="361896" />
	</node>
	<node lat="61.13301764689487" lon="8.724330172091587" id="-56619">
		<tag k="name" v="Løkkarbakkin" />
		<tag k="natural" v="hill" />
		<tag k="place" v="locality" />
		<tag k="ssr:stedsnr" v="361899" />
	</node>
	<node lat="61.146786106882274" lon="8.643883324668623" id="-56621">
		<tag k="fixme" v="consider natural=peak for the most distinct mountains in the district" />
		<tag k="name" v="Nørdre Sløtaberget" />
		<tag k="natural" v="hill" />
		<tag k="old_name" v="Nørdre Støtaberget" />
		<tag k="place" v="locality" />
		<tag k="ssr:stedsnr" v="361941" />
	</node>
	<node lat="61.14006944890879" lon="8.72749444652828" id="-56622">
		<tag k="name" v="Brimkleive" />
		<tag k="natural" v="slope" />
		<tag k="place" v="locality" />
		<tag k="ssr:stedsnr" v="361942" />
	</node>
	<node lat="61.08858055637537" lon="8.332641662188172" id="-56628">
		<tag k="fixme" v="consider natural=peak for the most distinct mountains in the district" />
		<tag k="name" v="Kljåkinnknippene" />
		<tag k="natural" v="hill" />
		<tag k="place" v="locality" />
		<tag k="ssr:stedsnr" v="370649" />
	</node>
	<node lat="61.12711944455742" lon="8.231513881932345" id="-56631">
		<tag k="name" v="Steinurdalen" />
		<tag k="natural" v="valley" />
		<tag k="place" v="locality" />
		<tag k="ssr:stedsnr" v="371677" />
	</node>
	<node lat="61.28158611180422" lon="8.521427773958974" id="-56632">
		<tag k="fixme" v="consider natural=peak for the most distinct mountains in the district" />
		<tag k="name" v="Dinglenøse" />
		<tag k="natural" v="hill" />
		<tag k="place" v="locality" />
		<tag k="ssr:stedsnr" v="371179" />
	</node>
	<node lat="61.25560555850854" lon="8.741919452740555" id="-56633">
		<tag k="fixme" v="consider natural=peak for the most distinct mountains in the district" />
		<tag k="name" v="Hensknappen" />
		<tag k="natural" v="hill" />
		<tag k="place" v="locality" />
		<tag k="ssr:stedsnr" v="371186" />
	</node>
	<node lat="61.14111389022438" lon="8.796575008230544" id="-56636">
		<tag k="name" v="Kvismoen" />
		<tag k="place" v="locality" />
		<tag k="ssr:stedsnr" v="371263" />
	</node>
	<node lat="61.12433889328904" lon="8.315708326397434" id="-56644">
		<tag k="name" v="Maradalen" />
		<tag k="natural" v="valley" />
		<tag k="place" v="locality" />
		<tag k="ssr:stedsnr" v="371649" />
	</node>
	<node lat="61.21751666488681" lon="8.609063884100419" id="-56649">
		<tag k="name" v="Nørdre Herredalen" />
		<tag k="natural" v="valley" />
		<tag k="place" v="locality" />
		<tag k="ssr:stedsnr" v="371749" />
	</node>
	<node lat="61.23799444003409" lon="8.75788889645409" id="-56650">
		<tag k="fixme" v="consider natural=peak for the most distinct mountains in the district" />
		<tag k="name" v="Gipehovda" />
		<tag k="natural" v="hill" />
		<tag k="place" v="locality" />
		<tag k="ssr:stedsnr" v="371755" />
	</node>
	<node lat="61.41697777662469" lon="8.281455547437625" id="-56653">
		<tag k="fixme" v="consider natural=peak for the most distinct mountains in the district" />
		<tag k="name" v="Høgbrøthøgde" />
		<tag k="natural" v="hill" />
		<tag k="place" v="locality" />
		<tag k="ssr:stedsnr" v="371840" />
	</node>
	<node lat="61.19356389039752" lon="8.20046667433794" id="-56654">
		<tag k="fixme" v="consider natural=peak for the most distinct mountains in the district" />
		<tag k="name" v="Skørsnøse" />
		<tag k="natural" v="hill" />
		<tag k="place" v="locality" />
		<tag k="ssr:stedsnr" v="373584" />
	</node>
	<node lat="61.374149996712994" lon="8.571975002497075" id="-56656">
		<tag k="fixme" v="consider natural=peak for the most distinct mountains in the district" />
		<tag k="name" v="Midtre Torfinnstinden" />
		<tag k="natural" v="hill" />
		<tag k="place" v="locality" />
		<tag k="ssr:stedsnr" v="390360" />
	</node>
	<node lat="61.11369722168108" lon="8.49971944679702" id="-56663">
		<tag k="name" v="Tvørrgardlie" />
		<tag k="natural" v="slope" />
		<tag k="place" v="locality" />
		<tag k="ssr:stedsnr" v="403366" />
	</node>
	<node lat="61.114208329838085" lon="8.518602775455447" id="-56664">
		<tag k="name" v="Skrealie" />
		<tag k="natural" v="slope" />
		<tag k="place" v="locality" />
		<tag k="ssr:stedsnr" v="403638" />
	</node>
	<node lat="61.12123333138674" lon="8.520413890405486" id="-56666">
		<tag k="name" v="Nørdre Sandbakkin" />
		<tag k="natural" v="slope" />
		<tag k="place" v="locality" />
		<tag k="ssr:stedsnr" v="403644" />
	</node>
	<node lat="61.1156888848389" lon="8.558472213744226" id="-56667">
		<tag k="name" v="Øspedøtten" />
		<tag k="place" v="locality" />
		<tag k="ssr:stedsnr" v="403654" />
	</node>
	<node lat="61.12052221903393" lon="8.58775555548483" id="-56668">
		<tag k="name" v="Krøsshaug" />
		<tag k="natural" v="hill" />
		<tag k="place" v="locality" />
		<tag k="ssr:stedsnr" v="403663" />
	</node>
	<node lat="61.20524166301849" lon="8.509080559039898" id="-56673">
		<tag k="name" v="Rundehaugen" />
		<tag k="natural" v="hill" />
		<tag k="place" v="locality" />
		<tag k="ssr:stedsnr" v="403804" />
	</node>
	<node lat="61.29353610922602" lon="8.693630555064972" id="-56682">
		<tag k="name" v="Synadn" />
		<tag k="natural" v="slope" />
		<tag k="place" v="locality" />
		<tag k="ssr:stedsnr" v="418116" />
	</node>
	<node lat="61.28161666785362" lon="8.628211106085336" id="-56683">
		<tag k="name" v="Vesle Sendeskaret" />
		<tag k="natural" v="valley" />
		<tag k="place" v="locality" />
		<tag k="ssr:stedsnr" v="418120" />
	</node>
	<node lat="61.17863055747695" lon="8.145188884146773" id="-56687">
		<tag k="name" v="Sildebakkin" />
		<tag k="natural" v="slope" />
		<tag k="place" v="locality" />
		<tag k="ssr:stedsnr" v="422125" />
	</node>
	<node lat="61.17051666325365" lon="8.111619442476773" id="-56688">
		<tag k="name" v="Sulelie" />
		<tag k="natural" v="slope" />
		<tag k="place" v="locality" />
		<tag k="ssr:stedsnr" v="422130" />
	</node>
	<node lat="61.15654721863731" lon="8.365250008484242" id="-56697">
		<tag k="name" v="Vardin" />
		<tag k="natural" v="hill" />
		<tag k="place" v="locality" />
		<tag k="ssr:stedsnr" v="422254" />
	</node>
	<node lat="61.16283610975071" lon="8.33046943993354" id="-56699">
		<tag k="name" v="Søre Klantadn" />
		<tag k="natural" v="hill" />
		<tag k="place" v="locality" />
		<tag k="ssr:stedsnr" v="422270" />
	</node>
	<node lat="61.15464444479078" lon="8.741802769380541" id="-56703">
		<tag k="name" v="Føssaberge" />
		<tag k="natural" v="hill" />
		<tag k="place" v="locality" />
		<tag k="ssr:stedsnr" v="422375" />
	</node>
	<node lat="61.113336110912485" lon="8.664127771006777" id="-56708">
		<tag k="name" v="Fagrølhøvda" />
		<tag k="natural" v="hill" />
		<tag k="place" v="locality" />
		<tag k="ssr:stedsnr" v="422870" />
	</node>
	<node lat="61.183319442218156" lon="8.183175002202123" id="-56710">
		<tag k="name" v="Synet" />
		<tag k="place" v="locality" />
		<tag k="ssr:stedsnr" v="423270" />
	</node>
	<node lat="61.37359722355326" lon="8.190061106746265" id="-56722">
		<tag k="fixme" v="consider natural=peak for the most distinct mountains in the district" />
		<tag k="loc_name" v="Koldedalsnose;Køldedalsnøse" />
		<tag k="name" v="Koldedalsnosi" />
		<tag k="natural" v="hill" />
		<tag k="place" v="locality" />
		<tag k="ssr:stedsnr" v="432818" />
	</node>
	<node lat="61.377486370440586" lon="8.427209001990558" id="-56723">
		<tag k="fixme" v="consider natural=peak for the most distinct mountains in the district" />
		<tag k="name" v="Galdeberget" />
		<tag k="natural" v="hill" />
		<tag k="place" v="locality" />
		<tag k="ssr:stedsnr" v="432820" />
	</node>
	<node lat="61.301255554482324" lon="8.583827785920716" id="-56724">
		<tag k="name" v="Buarberget" />
		<tag k="natural" v="hill" />
		<tag k="place" v="locality" />
		<tag k="ssr:stedsnr" v="432163" />
	</node>
	<node lat="61.120625001374044" lon="8.727949990769357" id="-56728">
		<tag k="name" v="Røgnshovda" />
		<tag k="natural" v="hill" />
		<tag k="place" v="locality" />
		<tag k="ssr:stedsnr" v="432300" />
	</node>
	<node lat="61.0503583364365" lon="8.675366667572428" id="-56731">
		<tag k="fixme" v="consider natural=peak for the most distinct mountains in the district" />
		<tag k="name" v="Kruk" />
		<tag k="natural" v="hill" />
		<tag k="place" v="locality" />
		<tag k="ssr:stedsnr" v="432353" />
	</node>
	<node lat="61.09223888834832" lon="8.223850001004402" id="-56733">
		<tag k="name" v="Sulemarki" />
		<tag k="natural" v="slope" />
		<tag k="place" v="locality" />
		<tag k="ssr:stedsnr" v="432651" />
	</node>
	<node lat="60.9975249964405" lon="8.566377782425121" id="-56736">
		<tag k="fixme" v="consider natural=peak for the most distinct mountains in the district" />
		<tag k="name" v="Ranastongnøse" />
		<tag k="natural" v="hill" />
		<tag k="place" v="locality" />
		<tag k="ssr:stedsnr" v="433800" />
	</node>
	<node lat="61.231791663081154" lon="8.10944444852671" id="-56739">
		<tag k="fixme" v="consider natural=peak for the most distinct mountains in the district" />
		<tag k="name" v="Slettningsegge" />
		<tag k="natural" v="hill" />
		<tag k="place" v="locality" />
		<tag k="ssr:stedsnr" v="435628" />
	</node>
	<node lat="61.22592777611031" lon="8.374100008333526" id="-56741">
		<tag k="name" v="Svindalen" />
		<tag k="natural" v="valley" />
		<tag k="place" v="locality" />
		<tag k="ssr:stedsnr" v="435638" />
	</node>
	<node lat="61.225913885486584" lon="8.304713891793957" id="-56742">
		<tag k="fixme" v="consider natural=peak for the most distinct mountains in the district" />
		<tag k="name" v="Horntind" />
		<tag k="natural" v="hill" />
		<tag k="place" v="locality" />
		<tag k="ssr:stedsnr" v="435639" />
	</node>
	<node lat="61.20810555231883" lon="8.2721499912643" id="-56745">
		<tag k="name" v="Trollhovd" />
		<tag k="natural" v="hill" />
		<tag k="place" v="locality" />
		<tag k="ssr:stedsnr" v="495625" />
	</node>
	<node lat="61.146633331784095" lon="8.43852500605316" id="-56750">
		<tag k="name" v="Bukønokyrkjudn" />
		<tag k="natural" v="hill" />
		<tag k="place" v="locality" />
		<tag k="ssr:stedsnr" v="524333" />
	</node>
	<node lat="61.17994166770295" lon="8.86998611963653" id="-56766">
		<tag k="name" v="Fleno" />
		<tag k="place" v="locality" />
		<tag k="ssr:stedsnr" v="539958" />
	</node>
	<node lat="61.15174721809426" lon="8.383025002224459" id="-56767">
		<tag k="name" v="Steinbil" />
		<tag k="natural" v="hill" />
		<tag k="place" v="locality" />
		<tag k="ssr:stedsnr" v="543296" />
	</node>
	<node lat="61.165338884778684" lon="8.297877771616728" id="-56768">
		<tag k="name" v="Nørdre Syne" />
		<tag k="natural" v="hill" />
		<tag k="place" v="locality" />
		<tag k="ssr:stedsnr" v="543297" />
	</node>
	<node lat="61.21907222013468" lon="8.322677770287303" id="-56775">
		<tag k="name" v="Grønebakkadn" />
		<tag k="natural" v="slope" />
		<tag k="place" v="locality" />
		<tag k="ssr:stedsnr" v="543434" />
	</node>
	<node lat="61.162308337706136" lon="8.410477769427779" id="-56780">
		<tag k="name" v="Bjørkedalen" />
		<tag k="natural" v="valley" />
		<tag k="place" v="locality" />
		<tag k="ssr:stedsnr" v="543677" />
	</node>
	<node lat="61.13642222158268" lon="8.702733324578457" id="-56783">
		<tag k="name" v="Haugadn" />
		<tag k="natural" v="hill" />
		<tag k="place" v="locality" />
		<tag k="ssr:stedsnr" v="543862" />
	</node>
	<node lat="61.135630553598276" lon="8.729694447249404" id="-56784">
		<tag k="name" v="Djupedalen" />
		<tag k="natural" v="valley" />
		<tag k="place" v="locality" />
		<tag k="ssr:stedsnr" v="543863" />
	</node>
	<node lat="61.1449555523719" lon="8.736049990913692" id="-56786">
		<tag k="name" v="Knappen" />
		<tag k="natural" v="hill" />
		<tag k="place" v="locality" />
		<tag k="ssr:stedsnr" v="543942" />
	</node>
	<node lat="61.18723888474616" lon="8.184572223753008" id="-56789">
		<tag k="name" v="Sveinskøridn" />
		<tag k="natural" v="hill" />
		<tag k="place" v="locality" />
		<tag k="ssr:stedsnr" v="544257" />
	</node>
	<node lat="61.058577775549075" lon="8.649683328171268" id="-56794">
		<tag k="name" v="Skølten" />
		<tag k="natural" v="hill" />
		<tag k="place" v="locality" />
		<tag k="ssr:stedsnr" v="552429" />
	</node>
	<node lat="61.06876110894184" lon="8.575638880623655" id="-56797">
		<tag k="fixme" v="consider natural=peak for the most distinct mountains in the district" />
		<tag k="name" v="Krokskred" />
		<tag k="natural" v="hill" />
		<tag k="place" v="locality" />
		<tag k="ssr:stedsnr" v="552431" />
	</node>
	<node lat="61.341449998615296" lon="8.807838886800184" id="-56806">
		<tag k="fixme" v="consider natural=peak for the most distinct mountains in the district" />
		<tag k="name" v="Lykkjenuten" />
		<tag k="natural" v="hill" />
		<tag k="place" v="locality" />
		<tag k="ssr:stedsnr" v="553151" />
	</node>
	<node lat="61.33985832985767" lon="8.797386108168128" id="-56808">
		<tag k="fixme" v="consider natural=peak for the most distinct mountains in the district" />
		<tag k="name" v="Synshorn" />
		<tag k="natural" v="hill" />
		<tag k="place" v="locality" />
		<tag k="ssr:stedsnr" v="553155" />
	</node>
	<node lat="61.16213611558961" lon="8.582911102821438" id="-56811">
		<tag k="name" v="Torsstølberget" />
		<tag k="natural" v="hill" />
		<tag k="place" v="locality" />
		<tag k="ssr:stedsnr" v="553258" />
	</node>
	<node lat="61.21002500176672" lon="8.69337777154449" id="-56812">
		<tag k="name" v="Belgen" />
		<tag k="natural" v="valley" />
		<tag k="place" v="locality" />
		<tag k="ssr:stedsnr" v="553718" />
	</node>
	<node lat="61.3538694422158" lon="8.316369441440306" id="-56814">
		<tag k="alt_name" v="Vennisstordalen" />
		<tag k="name" v="Vennisstøldalen" />
		<tag k="natural" v="valley" />
		<tag k="place" v="locality" />
		<tag k="ssr:stedsnr" v="553820" />
	</node>
	<node lat="61.2169833322761" lon="8.815300001856526" id="-56815">
		<tag k="name" v="Gyriklanten" />
		<tag k="natural" v="hill" />
		<tag k="place" v="locality" />
		<tag k="ssr:stedsnr" v="553754" />
	</node>
	<node lat="61.3763777753849" lon="8.382361112942506" id="-56817">
		<tag k="fixme" v="consider natural=peak for the most distinct mountains in the district" />
		<tag k="name" v="Høystakkane" />
		<tag k="natural" v="hill" />
		<tag k="place" v="locality" />
		<tag k="ssr:stedsnr" v="553831" />
	</node>
	<node lat="61.38539722573868" lon="8.210849993625827" id="-56819">
		<tag k="name" v="Rustegge" />
		<tag k="natural" v="ridge" />
		<tag k="place" v="locality" />
		<tag k="ssr:stedsnr" v="553843" />
	</node>
	<node lat="61.2741250024042" lon="8.18624166960132" id="-56823">
		<tag k="name" v="Melviknøse" />
		<tag k="natural" v="hill" />
		<tag k="place" v="locality" />
		<tag k="ssr:stedsnr" v="554833" />
	</node>
	<node lat="61.39076110780123" lon="8.548424994023048" id="-56830">
		<tag k="fixme" v="consider natural=peak for the most distinct mountains in the district" />
		<tag k="name" v="Kvitskardoksle" />
		<tag k="natural" v="hill" />
		<tag k="place" v="locality" />
		<tag k="ssr:stedsnr" v="572381" />
	</node>
	<node lat="61.381492537023064" lon="8.442029723014407" id="-56831">
		<tag k="fixme" v="consider natural=peak for the most distinct mountains in the district" />
		<tag k="name" v="Galdebergtinden" />
		<tag k="natural" v="hill" />
		<tag k="place" v="locality" />
		<tag k="ssr:stedsnr" v="572685" />
	</node>
	<node lat="61.147069441842596" lon="8.838161105317578" id="-56832">
		<tag k="name" v="Vossebakken" />
		<tag k="natural" v="slope" />
		<tag k="place" v="locality" />
		<tag k="ssr:stedsnr" v="584319" />
	</node>
	<node lat="61.21416110682375" lon="8.838744442384602" id="-56833">
		<tag k="name" v="Rundehaugen" />
		<tag k="natural" v="hill" />
		<tag k="place" v="locality" />
		<tag k="ssr:stedsnr" v="584499" />
	</node>
	<node lat="61.19472499565547" lon="8.684233325868748" id="-56835">
		<tag k="name" v="Jahasbakke" />
		<tag k="natural" v="slope" />
		<tag k="place" v="locality" />
		<tag k="ssr:stedsnr" v="585063" />
	</node>
	<node lat="61.08883889175778" lon="8.456355549028586" id="-56838">
		<tag k="name" v="Egge" />
		<tag k="natural" v="hill" />
		<tag k="place" v="locality" />
		<tag k="ssr:stedsnr" v="585367" />
	</node>
	<node lat="61.17903611509843" lon="8.409022230684464" id="-56840">
		<tag k="name" v="Høludn" />
		<tag k="natural" v="valley" />
		<tag k="place" v="locality" />
		<tag k="ssr:stedsnr" v="585385" />
	</node>
	<node lat="61.20857222511527" lon="8.397450005458802" id="-56841">
		<tag k="name" v="Haugen" />
		<tag k="natural" v="hill" />
		<tag k="place" v="locality" />
		<tag k="ssr:stedsnr" v="585462" />
	</node>
	<node lat="61.17849722623116" lon="8.418016658870531" id="-56845">
		<tag k="name" v="Løftskør" />
		<tag k="natural" v="valley" />
		<tag k="place" v="locality" />
		<tag k="ssr:stedsnr" v="585394" />
	</node>
	<node lat="61.127161110506755" lon="8.543469436053948" id="-56850">
		<tag k="name" v="Muradn" />
		<tag k="place" v="locality" />
		<tag k="ssr:stedsnr" v="585672" />
	</node>
	<node lat="61.172419448193736" lon="8.309025006370984" id="-56855">
		<tag k="name" v="Geiteskardet" />
		<tag k="natural" v="valley" />
		<tag k="place" v="locality" />
		<tag k="ssr:stedsnr" v="603364" />
	</node>
	<node lat="61.172638890213676" lon="8.30352222588052" id="-56856">
		<tag k="name" v="Geiteskardsberget" />
		<tag k="natural" v="hill" />
		<tag k="place" v="locality" />
		<tag k="ssr:stedsnr" v="603365" />
	</node>
	<node lat="61.159205553971994" lon="8.743655546851917" id="-56857">
		<tag k="name" v="Ljøsneberget" />
		<tag k="natural" v="hill" />
		<tag k="place" v="locality" />
		<tag k="ssr:stedsnr" v="603366" />
	</node>
	<node lat="61.18984166565019" lon="8.377791670341264" id="-56859">
		<tag k="name" v="Snøyudn" />
		<tag k="natural" v="slope" />
		<tag k="place" v="locality" />
		<tag k="ssr:stedsnr" v="603436" />
	</node>
	<node lat="61.14212221778511" lon="8.857269452681225" id="-56862">
		<tag k="name" v="Bruberget" />
		<tag k="natural" v="hill" />
		<tag k="place" v="locality" />
		<tag k="ssr:stedsnr" v="603176" />
	</node>
	<node lat="61.1203277775737" lon="8.66329722440828" id="-56867">
		<tag k="name" v="Spurtekjeldbakkadn" />
		<tag k="natural" v="slope" />
		<tag k="place" v="locality" />
		<tag k="ssr:stedsnr" v="603869" />
	</node>
	<node lat="61.12920277486162" lon="8.688780558258095" id="-56869">
		<tag k="name" v="Hugakinnadn" />
		<tag k="natural" v="hill" />
		<tag k="place" v="locality" />
		<tag k="ssr:stedsnr" v="603878" />
	</node>
	<node lat="61.130205551567464" lon="8.664608329325771" id="-56871">
		<tag k="name" v="Ivarstølreset" />
		<tag k="natural" v="hill" />
		<tag k="place" v="locality" />
		<tag k="ssr:stedsnr" v="603933" />
	</node>
	<node lat="61.13825277606805" lon="8.691388883489566" id="-56873">
		<tag k="name" v="Hammaren" />
		<tag k="natural" v="hill" />
		<tag k="place" v="locality" />
		<tag k="ssr:stedsnr" v="603942" />
	</node>
	<node lat="61.204822219291465" lon="8.25114722175971" id="-56875">
		<tag k="name" v="Kølabrunhaugadn" />
		<tag k="natural" v="hill" />
		<tag k="place" v="locality" />
		<tag k="ssr:stedsnr" v="604233" />
	</node>
	<node lat="61.20990277753073" lon="8.260872224189697" id="-56876">
		<tag k="name" v="Øysterlie" />
		<tag k="natural" v="slope" />
		<tag k="place" v="locality" />
		<tag k="ssr:stedsnr" v="604237" />
	</node>
	<node lat="61.176138892800246" lon="8.381180546599378" id="-56881">
		<tag k="name" v="Skøre" />
		<tag k="natural" v="valley" />
		<tag k="place" v="locality" />
		<tag k="ssr:stedsnr" v="604398" />
	</node>
	<node lat="61.37150555903666" lon="8.66031388224379" id="-56888">
		<tag k="name" v="Kalvehølene" />
		<tag k="natural" v="valley" />
		<tag k="place" v="locality" />
		<tag k="ssr:stedsnr" v="614149" />
	</node>
	<node lat="61.05575277414097" lon="8.495300007737097" id="-56891">
		<tag k="name" v="Trongebytti" />
		<tag k="natural" v="valley" />
		<tag k="place" v="locality" />
		<tag k="ssr:stedsnr" v="613396" />
	</node>
	<node lat="61.09234166378976" lon="8.582758325585347" id="-56895">
		<tag k="name" v="Søvellbakkane" />
		<tag k="natural" v="slope" />
		<tag k="place" v="locality" />
		<tag k="ssr:stedsnr" v="613352" />
	</node>
	<node lat="61.14982500055116" lon="8.299216672812129" id="-56896">
		<tag k="fixme" v="consider natural=peak for the most distinct mountains in the district" />
		<tag k="name" v="Vardhovdtinden" />
		<tag k="natural" v="hill" />
		<tag k="place" v="locality" />
		<tag k="ssr:stedsnr" v="613660" />
	</node>
	<node lat="61.15218333297431" lon="8.188997231119098" id="-56897">
		<tag k="fixme" v="consider natural=peak for the most distinct mountains in the district" />
		<tag k="name" v="Gamlestøgofjellet" />
		<tag k="natural" v="hill" />
		<tag k="place" v="locality" />
		<tag k="ssr:stedsnr" v="613663" />
	</node>
	<node lat="61.11369999741649" lon="8.320577782890885" id="-56899">
		<tag k="name" v="Svanedalen" />
		<tag k="natural" v="valley" />
		<tag k="place" v="locality" />
		<tag k="ssr:stedsnr" v="613670" />
	</node>
	<node lat="61.20753055796102" lon="8.47233054764008" id="-56904">
		<tag k="name" v="Kyrklanten" />
		<tag k="natural" v="hill" />
		<tag k="place" v="locality" />
		<tag k="ssr:stedsnr" v="613723" />
	</node>
	<node lat="61.21766666608898" lon="8.489208331365393" id="-56905">
		<tag k="name" v="Røgnshovda" />
		<tag k="natural" v="hill" />
		<tag k="place" v="locality" />
		<tag k="ssr:stedsnr" v="613726" />
	</node>
	<node lat="61.31318055474372" lon="8.579563880057755" id="-56909">
		<tag k="name" v="Skamdalen" />
		<tag k="natural" v="valley" />
		<tag k="place" v="locality" />
		<tag k="ssr:stedsnr" v="614183" />
	</node>
	<node lat="61.366950003608935" lon="8.255494444986292" id="-56914">
		<tag k="fixme" v="consider natural=peak for the most distinct mountains in the district" />
		<tag k="name" v="Torshamaren" />
		<tag k="natural" v="hill" />
		<tag k="place" v="locality" />
		<tag k="ssr:stedsnr" v="614837" />
	</node>
	<node lat="61.36744444521848" lon="8.194986102876424" id="-56915">
		<tag k="fixme" v="consider natural=peak for the most distinct mountains in the district" />
		<tag k="name" v="Ørneberget" />
		<tag k="natural" v="hill" />
		<tag k="place" v="locality" />
		<tag k="ssr:stedsnr" v="614838" />
	</node>
	<node lat="61.22242500418121" lon="8.368025004882638" id="-56920">
		<tag k="fixme" v="consider natural=peak for the most distinct mountains in the district" />
		<tag k="name" v="Ryggen" />
		<tag k="natural" v="hill" />
		<tag k="place" v="locality" />
		<tag k="ssr:stedsnr" v="617619" />
	</node>
	<node lat="61.40242777863028" lon="8.510044442160815" id="-56922">
		<tag k="fixme" v="consider natural=peak for the most distinct mountains in the district" />
		<tag k="name" v="Søre Svartdalspiggen" />
		<tag k="natural" v="hill" />
		<tag k="place" v="locality" />
		<tag k="ssr:stedsnr" v="639728" />
	</node>
	<node lat="61.169941665943846" lon="8.653211110219985" id="-56924">
		<tag k="name" v="Dansarberg" />
		<tag k="natural" v="hill" />
		<tag k="place" v="locality" />
		<tag k="ssr:stedsnr" v="645091" />
	</node>
	<node lat="61.12388333765028" lon="8.613511108524591" id="-56928">
		<tag k="name" v="Randin" />
		<tag k="natural" v="slope" />
		<tag k="place" v="locality" />
		<tag k="ssr:stedsnr" v="645665" />
	</node>
	<node lat="61.12815833008573" lon="8.480080552062736" id="-56930">
		<tag k="name" v="Uksebøtten" />
		<tag k="natural" v="valley" />
		<tag k="place" v="locality" />
		<tag k="ssr:stedsnr" v="645368" />
	</node>
	<node lat="61.11152221981153" lon="8.489733327545006" id="-56932">
		<tag k="name" v="Djupedaladn" />
		<tag k="natural" v="valley" />
		<tag k="place" v="locality" />
		<tag k="ssr:stedsnr" v="645371" />
	</node>
	<node lat="61.17203055495565" lon="8.743075005137841" id="-56933">
		<tag k="name" v="Jøvnehaugaden" />
		<tag k="natural" v="hill" />
		<tag k="place" v="locality" />
		<tag k="ssr:stedsnr" v="645438" />
	</node>
	<node lat="61.2089055540958" lon="8.679622227888194" id="-56938">
		<tag k="name" v="Sandhødnflænadn" />
		<tag k="natural" v="slope" />
		<tag k="place" v="locality" />
		<tag k="ssr:stedsnr" v="646117" />
	</node>
	<node lat="61.07262222140615" lon="8.624983330235303" id="-56939">
		<tag k="name" v="Skølten" />
		<tag k="natural" v="hill" />
		<tag k="place" v="locality" />
		<tag k="ssr:stedsnr" v="645768" />
	</node>
	<node lat="61.176722223031675" lon="8.671358333929865" id="-56943">
		<tag k="name" v="Øskehødnet" />
		<tag k="natural" v="hill" />
		<tag k="place" v="locality" />
		<tag k="ssr:stedsnr" v="646961" />
	</node>
	<node lat="61.143504814208285" lon="8.812104087501828" id="-56949">
		<tag k="name" v="Riddarberget" />
		<tag k="natural" v="hill" />
		<tag k="place" v="locality" />
		<tag k="ssr:stedsnr" v="664169" />
	</node>
	<node lat="61.15718611321156" lon="8.645286101875303" id="-56955">
		<tag k="name" v="Synhaug" />
		<tag k="natural" v="hill" />
		<tag k="place" v="locality" />
		<tag k="ssr:stedsnr" v="664923" />
	</node>
	<node lat="61.077286110268545" lon="8.587038886599709" id="-56957">
		<tag k="name" v="Gravstølhaugen" />
		<tag k="natural" v="hill" />
		<tag k="place" v="locality" />
		<tag k="ssr:stedsnr" v="664566" />
	</node>
	<node lat="61.078080554411784" lon="8.563866664066484" id="-56958">
		<tag k="name" v="Nørdre Egge" />
		<tag k="natural" v="hill" />
		<tag k="place" v="locality" />
		<tag k="ssr:stedsnr" v="664569" />
	</node>
	<node lat="61.0983333299438" lon="8.559436107371555" id="-56959">
		<tag k="name" v="Sleabakkin" />
		<tag k="natural" v="slope" />
		<tag k="place" v="locality" />
		<tag k="ssr:stedsnr" v="664573" />
	</node>
	<node lat="61.329886109459814" lon="8.281247213860762" id="-56960">
		<tag k="name" v="Tvindehaugen" />
		<tag k="natural" v="hill" />
		<tag k="place" v="locality" />
		<tag k="ssr:stedsnr" v="664574" />
	</node>
	<node lat="61.10384167042445" lon="8.561002779335679" id="-56962">
		<tag k="name" v="Prestestølhaugen" />
		<tag k="natural" v="hill" />
		<tag k="place" v="locality" />
		<tag k="ssr:stedsnr" v="664679" />
	</node>
	<node lat="61.145491662606034" lon="8.639786102680308" id="-56966">
		<tag k="name" v="Bjødndalen" />
		<tag k="natural" v="valley" />
		<tag k="place" v="locality" />
		<tag k="ssr:stedsnr" v="664932" />
	</node>
	<node lat="61.17061944520353" lon="8.369158326002786" id="-56968">
		<tag k="name" v="Finntøpp" />
		<tag k="natural" v="hill" />
		<tag k="place" v="locality" />
		<tag k="ssr:stedsnr" v="665322" />
	</node>
	<node lat="61.198505553671225" lon="8.292927775562276" id="-56969">
		<tag k="name" v="Prekestolen" />
		<tag k="natural" v="hill" />
		<tag k="place" v="locality" />
		<tag k="ssr:stedsnr" v="665417" />
	</node>
	<node lat="61.16053889008969" lon="8.819422216731736" id="-56971">
		<tag k="name" v="Bakkebrøte" />
		<tag k="natural" v="slope" />
		<tag k="place" v="locality" />
		<tag k="ssr:stedsnr" v="665450" />
	</node>
	<node lat="61.12666110745039" lon="8.616855556101696" id="-56972">
		<tag k="name" v="Brudgomshaugen" />
		<tag k="natural" v="hill" />
		<tag k="place" v="locality" />
		<tag k="ssr:stedsnr" v="889703" />
	</node>
	<node lat="61.133649998382424" lon="8.514283339917188" id="-56974">
		<tag k="name" v="Elskovsskardøkke" />
		<tag k="natural" v="hill" />
		<tag k="place" v="locality" />
		<tag k="ssr:stedsnr" v="889715" />
	</node>
	<node lat="61.17028610908534" lon="8.611030557870416" id="-56975">
		<tag k="name" v="Amfinskøre" />
		<tag k="natural" v="valley" />
		<tag k="place" v="locality" />
		<tag k="ssr:stedsnr" v="889718" />
	</node>
	<node lat="61.15635277532981" lon="8.607891667897345" id="-56976">
		<tag k="name" v="Storeskør" />
		<tag k="natural" v="slope" />
		<tag k="place" v="locality" />
		<tag k="ssr:stedsnr" v="889721" />
	</node>
	<node lat="61.125127774258175" lon="8.539391667049117" id="-56983">
		<tag k="name" v="Urshaugen" />
		<tag k="natural" v="hill" />
		<tag k="place" v="locality" />
		<tag k="ssr:stedsnr" v="889677" />
	</node>
	<node lat="61.137841662319495" lon="8.857594445179402" id="-56991">
		<tag k="name" v="Kløvningsberget" />
		<tag k="natural" v="hill" />
		<tag k="place" v="locality" />
		<tag k="ssr:stedsnr" v="725231" />
	</node>
	<node lat="61.17124721895574" lon="8.178080564803667" id="-56994">
		<tag k="name" v="Nonsvardin" />
		<tag k="natural" v="hill" />
		<tag k="place" v="locality" />
		<tag k="ssr:stedsnr" v="725197" />
	</node>
	<node lat="61.16729721781363" lon="8.357083340946462" id="-56995">
		<tag k="name" v="Kælvedalen" />
		<tag k="natural" v="valley" />
		<tag k="place" v="locality" />
		<tag k="ssr:stedsnr" v="725274" />
	</node>
	<node lat="61.16345833483725" lon="8.801405559876374" id="-56997">
		<tag k="name" v="Dokkoberget" />
		<tag k="natural" v="hill" />
		<tag k="place" v="locality" />
		<tag k="ssr:stedsnr" v="725349" />
	</node>
	<node lat="61.131036113426646" lon="8.65375834106547" id="-56999">
		<tag k="name" v="Fuggelhøvda" />
		<tag k="natural" v="hill" />
		<tag k="place" v="locality" />
		<tag k="ssr:stedsnr" v="725936" />
	</node>
	<node lat="61.22689166398532" lon="8.237052780414269" id="-57002">
		<tag k="name" v="Knuppen" />
		<tag k="natural" v="hill" />
		<tag k="place" v="locality" />
		<tag k="ssr:stedsnr" v="726225" />
	</node>
	<node lat="61.186586109427694" lon="8.380694448463343" id="-57005">
		<tag k="name" v="Snøyudn" />
		<tag k="natural" v="slope" />
		<tag k="place" v="locality" />
		<tag k="ssr:stedsnr" v="726421" />
	</node>
	<node lat="61.32227500360246" lon="8.82715556404086" id="-57007">
		<tag k="alt_name" v="Bruberg" />
		<tag k="loc_name" v="Bruberge" />
		<tag k="name" v="Brubergi" />
		<tag k="natural" v="hill" />
		<tag k="place" v="locality" />
		<tag k="ssr:stedsnr" v="735180" />
	</node>
	<node lat="61.30641111215492" lon="8.475588888062653" id="-57008">
		<tag k="name" v="Bandet" />
		<tag k="natural" v="valley" />
		<tag k="place" v="locality" />
		<tag k="ssr:stedsnr" v="735183" />
	</node>
	<node lat="61.26476805769454" lon="8.754965092103278" id="-57010">
		<tag k="name" v="Kalvedalen" />
		<tag k="natural" v="valley" />
		<tag k="place" v="locality" />
		<tag k="ssr:stedsnr" v="735217" />
	</node>
	<node lat="61.0744944481862" lon="8.49275834199573" id="-57015">
		<tag k="name" v="Belgjislettene" />
		<tag k="place" v="locality" />
		<tag k="ssr:stedsnr" v="735358" />
	</node>
	<node lat="61.08623332895605" lon="8.669844449053421" id="-57016">
		<tag k="name" v="Gamlestølshovda" />
		<tag k="natural" v="hill" />
		<tag k="place" v="locality" />
		<tag k="ssr:stedsnr" v="735359" />
	</node>
	<node lat="61.105230553196535" lon="8.624811116094332" id="-57017">
		<tag k="fixme" v="consider natural=peak for the most distinct mountains in the district" />
		<tag k="name" v="Hesthovdane" />
		<tag k="natural" v="hill" />
		<tag k="place" v="locality" />
		<tag k="ssr:stedsnr" v="735369" />
	</node>
	<node lat="61.33016389004081" lon="8.771241662812024" id="-57022">
		<tag k="fixme" v="consider natural=peak for the most distinct mountains in the district" />
		<tag k="loc_name" v="Kungsliknuppen" />
		<tag k="name" v="Kongsliknuppen" />
		<tag k="natural" v="hill" />
		<tag k="place" v="locality" />
		<tag k="ssr:stedsnr" v="735168" />
	</node>
	<node lat="61.13112500337417" lon="8.59037777447296" id="-57025">
		<tag k="alt_name" v="Seleikre" />
		<tag k="name" v="Seleikrone" />
		<tag k="natural" v="hill" />
		<tag k="place" v="locality" />
		<tag k="ssr:stedsnr" v="735288" />
	</node>
	<node lat="61.0324694449392" lon="8.714819448592744" id="-57027">
		<tag k="loc_name" v="Krigshamrane" />
		<tag k="name" v="Gisshamrane" />
		<tag k="natural" v="cliff" />
		<tag k="ssr:stedsnr" v="735416" />
	</node>
	<node lat="61.03514166962377" lon="8.684444446047555" id="-57028">
		<tag k="name" v="Tangelie" />
		<tag k="natural" v="slope" />
		<tag k="place" v="locality" />
		<tag k="ssr:stedsnr" v="735418" />
	</node>
	<node lat="61.04314722437888" lon="8.511836106963397" id="-57031">
		<tag k="fixme" v="consider natural=peak for the most distinct mountains in the district" />
		<tag k="name" v="Rankonøse" />
		<tag k="natural" v="hill" />
		<tag k="place" v="locality" />
		<tag k="ssr:stedsnr" v="735638" />
	</node>
	<node lat="61.20652499761712" lon="8.706849992496517" id="-57036">
		<tag k="fixme" v="consider natural=peak for the most distinct mountains in the district" />
		<tag k="name" v="Skarvesandhorn" />
		<tag k="natural" v="hill" />
		<tag k="place" v="locality" />
		<tag k="ssr:stedsnr" v="735691" />
	</node>
	<node lat="61.39881666987222" lon="8.413263892421396" id="-57045">
		<tag k="name" v="Uksedalen" />
		<tag k="natural" v="valley" />
		<tag k="place" v="locality" />
		<tag k="ssr:stedsnr" v="736853" />
	</node>
	<node lat="61.1779888865359" lon="8.535797218353185" id="-57049">
		<tag k="name" v="Illesteget" />
		<tag k="natural" v="hill" />
		<tag k="place" v="locality" />
		<tag k="ssr:stedsnr" v="889767" />
	</node>
	<node lat="61.22383055793434" lon="8.739750007582073" id="-57050">
		<tag k="name" v="Totenbakkin" />
		<tag k="natural" v="slope" />
		<tag k="place" v="locality" />
		<tag k="ssr:stedsnr" v="767008" />
	</node>
	<node lat="61.21665833769948" lon="8.726474996702857" id="-57051">
		<tag k="name" v="Mathamarfennadn" />
		<tag k="natural" v="valley" />
		<tag k="place" v="locality" />
		<tag k="ssr:stedsnr" v="767012" />
	</node>
	<node lat="61.16674166941487" lon="8.397011120259476" id="-57056">
		<tag k="name" v="Hødnadn" />
		<tag k="natural" v="hill" />
		<tag k="place" v="locality" />
		<tag k="ssr:stedsnr" v="767377" />
	</node>
	<node lat="61.16574722055008" lon="8.385622215012395" id="-57057">
		<tag k="name" v="Fausøyne" />
		<tag k="natural" v="slope" />
		<tag k="place" v="locality" />
		<tag k="ssr:stedsnr" v="767381" />
	</node>
	<node lat="61.16178055680592" lon="8.398402777411368" id="-57058">
		<tag k="name" v="Ørrekamben" />
		<tag k="natural" v="hill" />
		<tag k="place" v="locality" />
		<tag k="ssr:stedsnr" v="767384" />
	</node>
	<node lat="61.17772222087045" lon="8.765666668702861" id="-57060">
		<tag k="name" v="Kjørlihøvda" />
		<tag k="natural" v="hill" />
		<tag k="place" v="locality" />
		<tag k="ssr:stedsnr" v="767478" />
	</node>
	<node lat="61.16716666465274" lon="8.518225008032635" id="-57064">
		<tag k="name" v="Øksle" />
		<tag k="place" v="locality" />
		<tag k="ssr:stedsnr" v="767709" />
	</node>
	<node lat="61.113013893150374" lon="8.58017777135455" id="-57067">
		<tag k="name" v="Kjøvegrøne" />
		<tag k="place" v="locality" />
		<tag k="ssr:stedsnr" v="767669" />
	</node>
	<node lat="61.12326111272128" lon="8.56132500017824" id="-57068">
		<tag k="name" v="Haugaberget" />
		<tag k="natural" v="hill" />
		<tag k="place" v="locality" />
		<tag k="ssr:stedsnr" v="767676" />
	</node>
	<node lat="61.179061114712745" lon="8.53145277669063" id="-57069">
		<tag k="name" v="Tvørrbergklantadn" />
		<tag k="natural" v="hill" />
		<tag k="place" v="locality" />
		<tag k="ssr:stedsnr" v="767754" />
	</node>
	<node lat="61.28188611255195" lon="8.637313886032333" id="-57080">
		<tag k="name" v="Buhaug" />
		<tag k="natural" v="hill" />
		<tag k="place" v="locality" />
		<tag k="ssr:stedsnr" v="782925" />
	</node>
	<node lat="61.13783610683877" lon="8.83283333719948" id="-57085">
		<tag k="name" v="Skeiesmoen" />
		<tag k="place" v="locality" />
		<tag k="ssr:stedsnr" v="786231" />
	</node>
	<node lat="61.15255833245451" lon="8.82044722231589" id="-57087">
		<tag k="name" v="Kleivaberget" />
		<tag k="natural" v="hill" />
		<tag k="place" v="locality" />
		<tag k="ssr:stedsnr" v="786320" />
	</node>
	<node lat="61.156933333970144" lon="8.383116670482023" id="-57094">
		<tag k="name" v="Djupegile" />
		<tag k="natural" v="gorge" />
		<tag k="ssr:stedsnr" v="786271" />
	</node>
	<node lat="61.16627777890483" lon="8.34621666001435" id="-57096">
		<tag k="name" v="Steinhaug" />
		<tag k="natural" v="hill" />
		<tag k="place" v="locality" />
		<tag k="ssr:stedsnr" v="786280" />
	</node>
	<node lat="61.16031388681482" lon="8.314125000062697" id="-57097">
		<tag k="name" v="Langefønne" />
		<tag k="natural" v="slope" />
		<tag k="place" v="locality" />
		<tag k="ssr:stedsnr" v="786296" />
	</node>
	<node lat="61.14963333485129" lon="8.81966388866574" id="-57100">
		<tag k="name" v="Røvshaug" />
		<tag k="natural" v="hill" />
		<tag k="place" v="locality" />
		<tag k="ssr:stedsnr" v="786330" />
	</node>
	<node lat="61.03620277819456" lon="8.604008334192159" id="-57102">
		<tag k="name" v="Pigghaug" />
		<tag k="natural" v="hill" />
		<tag k="place" v="locality" />
		<tag k="ssr:stedsnr" v="786578" />
	</node>
	<node lat="61.03725000027407" lon="8.617247217503964" id="-57103">
		<tag k="name" v="Brattsetegge" />
		<tag k="natural" v="slope" />
		<tag k="place" v="locality" />
		<tag k="ssr:stedsnr" v="786585" />
	</node>
	<node lat="61.07977777928292" lon="8.606213884300384" id="-57104">
		<tag k="name" v="Tunehøvda" />
		<tag k="natural" v="hill" />
		<tag k="place" v="locality" />
		<tag k="ssr:stedsnr" v="786617" />
	</node>
	<node lat="61.16003055624645" lon="8.676311117822472" id="-57107">
		<tag k="name" v="Stakkstødalen" />
		<tag k="natural" v="valley" />
		<tag k="place" v="locality" />
		<tag k="ssr:stedsnr" v="786927" />
	</node>
	<node lat="61.16456111066311" lon="8.658980557639497" id="-57108">
		<tag k="name" v="Remmisåsen" />
		<tag k="natural" v="hill" />
		<tag k="place" v="locality" />
		<tag k="ssr:stedsnr" v="786930" />
	</node>
	<node lat="61.130394442622155" lon="8.636661106911411" id="-57109">
		<tag k="name" v="Ølmanberg" />
		<tag k="natural" v="hill" />
		<tag k="place" v="locality" />
		<tag k="ssr:stedsnr" v="786931" />
	</node>
	<node lat="61.13671111088433" lon="8.651319441834241" id="-57111">
		<tag k="name" v="Skykja" />
		<tag k="place" v="locality" />
		<tag k="ssr:stedsnr" v="786945" />
	</node>
	<node lat="61.13630277392326" lon="8.707725000552815" id="-57114">
		<tag k="name" v="Alagile" />
		<tag k="natural" v="gorge" />
		<tag k="ssr:stedsnr" v="786953" />
	</node>
	<node lat="61.13492499729388" lon="8.856113893840217" id="-57118">
		<tag k="name" v="Hamaren" />
		<tag k="natural" v="hill" />
		<tag k="place" v="locality" />
		<tag k="ssr:stedsnr" v="795125" />
	</node>
	<node lat="61.09568333187367" lon="8.646416673871903" id="-57123">
		<tag k="fixme" v="consider natural=peak for the most distinct mountains in the district" />
		<tag k="name" v="Langehovda" />
		<tag k="natural" v="hill" />
		<tag k="place" v="locality" />
		<tag k="ssr:stedsnr" v="795396" />
	</node>
	<node lat="61.2908010364249" lon="8.660106137148631" id="-57132">
		<tag k="fixme" v="consider natural=peak for the most distinct mountains in the district" />
		<tag k="name" v="Sendenøse" />
		<tag k="natural" v="hill" />
		<tag k="place" v="locality" />
		<tag k="ssr:stedsnr" v="796201" />
	</node>
	<node lat="61.04735832969207" lon="8.710325002081637" id="-57134">
		<tag k="fixme" v="consider natural=peak for the most distinct mountains in the district" />
		<tag k="name" v="Gilafjellet" />
		<tag k="natural" v="hill" />
		<tag k="place" v="locality" />
		<tag k="ssr:stedsnr" v="796389" />
	</node>
	<node lat="61.10271388624517" lon="8.252252779141745" id="-57138">
		<tag k="fixme" v="consider natural=peak for the most distinct mountains in the district" />
		<tag k="name" v="Storeknippa" />
		<tag k="natural" v="hill" />
		<tag k="place" v="locality" />
		<tag k="ssr:stedsnr" v="796683" />
	</node>
	<node lat="61.13148888487237" lon="8.435233326241704" id="-57139">
		<tag k="name" v="Skålelibotten" />
		<tag k="natural" v="valley" />
		<tag k="place" v="locality" />
		<tag k="ssr:stedsnr" v="796689" />
	</node>
	<node lat="61.20307500226508" lon="8.688608338535122" id="-57141">
		<tag k="name" v="Sandhorn" />
		<tag k="natural" v="hill" />
		<tag k="place" v="locality" />
		<tag k="ssr:stedsnr" v="796700" />
	</node>
	<node lat="61.235408330514126" lon="8.27166388908739" id="-57145">
		<tag k="name" v="Såteskard" />
		<tag k="natural" v="valley" />
		<tag k="place" v="locality" />
		<tag k="ssr:stedsnr" v="799619" />
	</node>
	<node lat="61.39629166442318" lon="8.525075003921145" id="-57148">
		<tag k="fixme" v="consider natural=peak for the most distinct mountains in the district" />
		<tag k="name" v="Midtre Langedalstinden" />
		<tag k="natural" v="hill" />
		<tag k="place" v="locality" />
		<tag k="ssr:stedsnr" v="815360" />
	</node>
	<node lat="61.21504166964217" lon="8.644844449828009" id="-57151">
		<tag k="name" v="Buskarhødnet" />
		<tag k="natural" v="hill" />
		<tag k="place" v="locality" />
		<tag k="ssr:stedsnr" v="828002" />
	</node>
	<node lat="61.17795277665255" lon="8.653780557228572" id="-57152">
		<tag k="name" v="Sekstalet" />
		<tag k="place" v="locality" />
		<tag k="ssr:stedsnr" v="828096" />
	</node>
	<node lat="61.15129444285697" lon="8.839391660861805" id="-57154">
		<tag k="name" v="Rødningsberga" />
		<tag k="natural" v="hill" />
		<tag k="place" v="locality" />
		<tag k="ssr:stedsnr" v="828258" />
	</node>
	<node lat="61.11072777929122" lon="8.558741666015084" id="-57155">
		<tag k="name" v="Grønkrullen" />
		<tag k="natural" v="hill" />
		<tag k="place" v="locality" />
		<tag k="ssr:stedsnr" v="828645" />
	</node>
	<node lat="61.16368611126844" lon="8.53387221869083" id="-57157">
		<tag k="fixme" v="consider natural=peak for the most distinct mountains in the district" />
		<tag k="name" v="Høgberget" />
		<tag k="natural" v="hill" />
		<tag k="place" v="locality" />
		<tag k="ssr:stedsnr" v="828697" />
	</node>
	<node lat="61.16377222085945" lon="8.499133325073721" id="-57158">
		<tag k="name" v="Våtefø" />
		<tag k="place" v="locality" />
		<tag k="ssr:stedsnr" v="828426" />
	</node>
	<node lat="61.165138886645565" lon="8.497502773291378" id="-57159">
		<tag k="name" v="Brandbue" />
		<tag k="natural" v="slope" />
		<tag k="place" v="locality" />
		<tag k="ssr:stedsnr" v="828432" />
	</node>
	<node lat="61.158063892990455" lon="8.604411106720534" id="-57165">
		<tag k="name" v="Storehaugen" />
		<tag k="natural" v="hill" />
		<tag k="place" v="locality" />
		<tag k="ssr:stedsnr" v="828715" />
	</node>
	<node lat="61.164958334384956" lon="8.573358332086958" id="-57169">
		<tag k="name" v="Køllhaug" />
		<tag k="natural" v="hill" />
		<tag k="place" v="locality" />
		<tag k="ssr:stedsnr" v="889731" />
	</node>
	<node lat="61.302602778552334" lon="8.70017500574965" id="-57177">
		<tag k="alt_name" v="Gjeiteberg" />
		<tag k="name" v="Geiteberg" />
		<tag k="natural" v="hill" />
		<tag k="place" v="locality" />
		<tag k="ssr:stedsnr" v="843126" />
	</node>
	<node lat="61.19296944659337" lon="8.253430550276878" id="-57182">
		<tag k="name" v="Steinhaug" />
		<tag k="natural" v="hill" />
		<tag k="place" v="locality" />
		<tag k="ssr:stedsnr" v="847231" />
	</node>
	<node lat="61.168338885679475" lon="8.196511104715789" id="-57184">
		<tag k="name" v="Søre Bøtten" />
		<tag k="natural" v="valley" />
		<tag k="place" v="locality" />
		<tag k="ssr:stedsnr" v="847269" />
	</node>
	<node lat="61.20929722669456" lon="8.277286117903852" id="-57187">
		<tag k="alt_name" v="Kvælven" />
		<tag k="name" v="Kvelven" />
		<tag k="natural" v="slope" />
		<tag k="place" v="locality" />
		<tag k="ssr:stedsnr" v="847350" />
	</node>
	<node lat="61.21468055798969" lon="8.301494442222266" id="-57189">
		<tag k="name" v="Hesteøyro" />
		<tag k="natural" v="hill" />
		<tag k="place" v="locality" />
		<tag k="ssr:stedsnr" v="847466" />
	</node>
	<node lat="61.10266111254904" lon="8.549538892520738" id="-57192">
		<tag k="name" v="Gren" />
		<tag k="place" v="locality" />
		<tag k="ssr:stedsnr" v="847600" />
	</node>
	<node lat="61.169883329385044" lon="8.33792499935998" id="-57193">
		<tag k="name" v="Måneskinet" />
		<tag k="natural" v="hill" />
		<tag k="place" v="locality" />
		<tag k="ssr:stedsnr" v="847676" />
	</node>
	<node lat="61.102086109468495" lon="8.627536115490917" id="-57200">
		<tag k="alt_name" v="Gaukeliskaret" />
		<tag k="name" v="Gaukeliskardet" />
		<tag k="natural" v="valley" />
		<tag k="place" v="locality" />
		<tag k="ssr:stedsnr" v="856410" />
	</node>
	<node lat="61.09794721996804" lon="8.525769440743911" id="-57201">
		<tag k="fixme" v="consider natural=peak for the most distinct mountains in the district" />
		<tag k="name" v="Veslenibb" />
		<tag k="natural" v="hill" />
		<tag k="place" v="locality" />
		<tag k="ssr:stedsnr" v="856413" />
	</node>
	<node lat="61.32450555496931" lon="8.555594444254053" id="-57205">
		<tag k="fixme" v="consider natural=peak for the most distinct mountains in the district" />
		<tag k="name" v="Skjeldrane" />
		<tag k="natural" v="hill" />
		<tag k="place" v="locality" />
		<tag k="ssr:stedsnr" v="857170" />
	</node>
	<node lat="61.346672219652426" lon="8.770577785488873" id="-57206">
		<tag k="fixme" v="consider natural=peak for the most distinct mountains in the district" />
		<tag k="name" v="Heimre Fagerdalshøe" />
		<tag k="natural" v="hill" />
		<tag k="place" v="locality" />
		<tag k="ssr:stedsnr" v="857176" />
	</node>
	<node lat="61.29732499587771" lon="8.640625003383992" id="-57209">
		<tag k="name" v="Sendane" />
		<tag k="natural" v="valley" />
		<tag k="place" v="locality" />
		<tag k="ssr:stedsnr" v="857188" />
	</node>
	<node lat="61.22009722435067" lon="8.82916945337239" id="-57222">
		<tag k="name" v="Klybbersteinsberget" />
		<tag k="natural" v="hill" />
		<tag k="place" v="locality" />
		<tag k="ssr:stedsnr" v="888456" />
	</node>
	<node lat="61.22669166493394" lon="8.740002786966551" id="-57223">
		<tag k="name" v="Sandhaugadn" />
		<tag k="natural" v="hill" />
		<tag k="place" v="locality" />
		<tag k="ssr:stedsnr" v="889015" />
	</node>
	<node lat="61.16875833508319" lon="8.479955559843097" id="-57225">
		<tag k="name" v="Tøsogile" />
		<tag k="natural" v="gorge" />
		<tag k="ssr:stedsnr" v="889427" />
	</node>
	<node lat="61.13230833197045" lon="8.411255562076686" id="-57227">
		<tag k="name" v="Storstølbøtten" />
		<tag k="natural" v="valley" />
		<tag k="place" v="locality" />
		<tag k="ssr:stedsnr" v="889380" />
	</node>
	<node lat="61.10627499944178" lon="8.460508328148324" id="-57229">
		<tag k="name" v="Vassetlie" />
		<tag k="natural" v="slope" />
		<tag k="place" v="locality" />
		<tag k="ssr:stedsnr" v="889388" />
	</node>
	<node lat="61.11541667060775" lon="8.418738895486289" id="-57230">
		<tag k="name" v="Øyestølsbøtten" />
		<tag k="natural" v="valley" />
		<tag k="place" v="locality" />
		<tag k="ssr:stedsnr" v="889391" />
	</node>
	<node lat="61.19361111124251" lon="8.406149998696257" id="-57232">
		<tag k="name" v="Jutuldøre" />
		<tag k="natural" v="valley" />
		<tag k="place" v="locality" />
		<tag k="ssr:stedsnr" v="889488" />
	</node>
	<node lat="61.197541665690906" lon="8.407436102702649" id="-57233">
		<tag k="name" v="Løypesbøtten" />
		<tag k="natural" v="valley" />
		<tag k="place" v="locality" />
		<tag k="ssr:stedsnr" v="889494" />
	</node>
	<node lat="61.20129444510987" lon="8.39511665935517" id="-57234">
		<tag k="name" v="Tippen" />
		<tag k="place" v="locality" />
		<tag k="ssr:stedsnr" v="889497" />
	</node>
	<node lat="61.2061027766951" lon="8.400761110014695" id="-57235">
		<tag k="name" v="Nøsa" />
		<tag k="place" v="locality" />
		<tag k="ssr:stedsnr" v="889498" />
	</node>
	<node lat="61.16249721789828" lon="8.395636107464581" id="-57236">
		<tag k="name" v="Drøsjainberget" />
		<tag k="natural" v="hill" />
		<tag k="place" v="locality" />
		<tag k="ssr:stedsnr" v="949333" />
	</node>
	<node lat="61.12373055470694" lon="8.536100003074342" id="-57241">
		<tag k="name" v="Øvrehaug" />
		<tag k="natural" v="hill" />
		<tag k="place" v="locality" />
		<tag k="ssr:stedsnr" v="949621" />
	</node>
	<node lat="61.12383333383931" lon="8.52441388457705" id="-57242">
		<tag k="name" v="Gile" />
		<tag k="natural" v="gorge" />
		<tag k="ssr:stedsnr" v="949622" />
	</node>
	<node lat="61.16893333762278" lon="8.675872222091517" id="-57245">
		<tag k="name" v="Laurishaugen" />
		<tag k="natural" v="hill" />
		<tag k="place" v="locality" />
		<tag k="ssr:stedsnr" v="949959" />
	</node>
	<node lat="61.16276667041477" lon="8.719547229172354" id="-57246">
		<tag k="name" v="Belsheimgile" />
		<tag k="natural" v="gorge" />
		<tag k="ssr:stedsnr" v="949970" />
	</node>
	<node lat="61.196102779780105" lon="8.776180560102407" id="-57252">
		<tag k="name" v="Gryteskør" />
		<tag k="natural" v="valley" />
		<tag k="place" v="locality" />
		<tag k="ssr:stedsnr" v="955795" />
	</node>
	<node lat="61.26661388504783" lon="8.68114167395431" id="-57255">
		<tag k="name" v="Vegabøtn" />
		<tag k="natural" v="valley" />
		<tag k="place" v="locality" />
		<tag k="ssr:stedsnr" v="963131" />
	</node>
	<node lat="61.13267499670469" lon="8.78645278181413" id="-57259">
		<tag k="name" v="Brekkebakken" />
		<tag k="natural" v="slope" />
		<tag k="place" v="locality" />
		<tag k="ssr:stedsnr" v="968024" />
	</node>
	<node lat="61.1587333361832" lon="8.762688888184705" id="-57263">
		<tag k="name" v="Tveitholene" />
		<tag k="natural" v="valley" />
		<tag k="place" v="locality" />
		<tag k="ssr:stedsnr" v="968185" />
	</node>
	<node lat="61.19015555941527" lon="8.224752785939971" id="-57265">
		<tag k="fixme" v="consider natural=peak for the most distinct mountains in the district" />
		<tag k="name" v="Skaftneverhamarn" />
		<tag k="natural" v="hill" />
		<tag k="place" v="locality" />
		<tag k="ssr:stedsnr" v="968220" />
	</node>
	<node lat="61.16814721988583" lon="8.187669438575655" id="-57266">
		<tag k="name" v="Skaret" />
		<tag k="natural" v="valley" />
		<tag k="place" v="locality" />
		<tag k="ssr:stedsnr" v="968229" />
	</node>
	<node lat="61.14026111113385" lon="8.798097216616494" id="-57270">
		<tag k="name" v="Karidalsmyra" />
		<tag k="place" v="locality" />
		<tag k="ssr:stedsnr" v="968251" />
	</node>
	<node lat="61.14071944813319" lon="8.825986111047042" id="-57271">
		<tag k="name" v="Svinebakken" />
		<tag k="natural" v="slope" />
		<tag k="place" v="locality" />
		<tag k="ssr:stedsnr" v="968257" />
	</node>
	<node lat="61.1742472237102" lon="8.192444442857623" id="-57272">
		<tag k="name" v="Tenlehaugen" />
		<tag k="natural" v="hill" />
		<tag k="place" v="locality" />
		<tag k="ssr:stedsnr" v="968267" />
	</node>
	<node lat="61.212588889874446" lon="8.329761111672292" id="-57275">
		<tag k="name" v="Elbertstølbakkin" />
		<tag k="natural" v="slope" />
		<tag k="place" v="locality" />
		<tag k="ssr:stedsnr" v="968478" />
	</node>
	<node lat="61.08781111333277" lon="8.611716664707387" id="-57276">
		<tag k="name" v="Snaddn" />
		<tag k="natural" v="hill" />
		<tag k="place" v="locality" />
		<tag k="ssr:stedsnr" v="968619" />
	</node>
	<node lat="61.0986277810371" lon="8.615424991669995" id="-57278">
		<tag k="name" v="Brattelibakkadn" />
		<tag k="natural" v="slope" />
		<tag k="place" v="locality" />
		<tag k="ssr:stedsnr" v="968628" />
	</node>
	<node lat="61.12993333106217" lon="8.628138879796246" id="-57280">
		<tag k="name" v="Gråtarhaugadn" />
		<tag k="natural" v="hill" />
		<tag k="place" v="locality" />
		<tag k="ssr:stedsnr" v="968930" />
	</node>
	<node lat="61.14664166504219" lon="8.638980553497753" id="-57284">
		<tag k="name" v="Søre Bjødndalen" />
		<tag k="natural" v="valley" />
		<tag k="place" v="locality" />
		<tag k="ssr:stedsnr" v="968935" />
	</node>
</osm>
