<?xml version="1.0" encoding="UTF-8"?>
<osm version="0.6" generator="osmapis">
	<node lat="61.10884722321458" lon="8.562219440870914" id="-46186">
		<tag k="fixme" v="consider highway=path" />
		<tag k="highway" v="track" />
		<tag k="name" v="Prestestølvegen" />
		<tag k="ssr:stedsnr" v="221634" />
	</node>
	<node lat="61.20113333208819" lon="8.534749996920889" id="-46207">
		<tag k="highway" v="path" />
		<tag k="name" v="Gælnehusvegen" />
		<tag k="ssr:stedsnr" v="39773" />
	</node>
	<node lat="61.177538889746515" lon="8.672305559724307" id="-46210">
		<tag k="highway" v="path" />
		<tag k="name" v="Rødningsvegen" />
		<tag k="ssr:stedsnr" v="39960" />
	</node>
	<node lat="61.17671388452254" lon="8.66733611932676" id="-46211">
		<tag k="highway" v="path" />
		<tag k="name" v="Kleivavegen" />
		<tag k="ssr:stedsnr" v="39961" />
	</node>
	<node lat="61.15259166509661" lon="8.725536106675092" id="-46219">
		<tag k="bridge" v="yes" />
		<tag k="layer" v="1" />
		<tag k="name" v="Torpe" />
		<tag k="ssr:stedsnr" v="46211" />
	</node>
	<node lat="61.163730551722374" lon="8.722608336416265" id="-46225">
		<tag k="bridge" v="yes" />
		<tag k="layer" v="1" />
		<tag k="name" v="Jevnebekk midtre" />
		<tag k="ssr:stedsnr" v="228187" />
	</node>
	<node lat="61.15125013298938" lon="8.65222691222432" id="-46282">
		<tag k="layer" v="-1" />
		<tag k="name" v="Kvamskleivtunnelen" />
		<tag k="old_name" v="Kvamskleiva" />
		<tag k="ssr:stedsnr" v="105320" />
		<tag k="tunnel" v="yes" />
	</node>
	<node lat="61.13715555520765" lon="8.824416669469672" id="-46283">
		<tag k="bridge" v="yes" />
		<tag k="layer" v="1" />
		<tag k="name" v="Ryfoss" />
		<tag k="ssr:stedsnr" v="107171" />
	</node>
	<node lat="61.145661113361925" lon="8.709811105569715" id="-46284">
		<tag k="bridge" v="yes" />
		<tag k="layer" v="1" />
		<tag k="name" v="Ala" />
		<tag k="ssr:stedsnr" v="107224" />
	</node>
	<node lat="61.171700000406275" lon="8.192758334846522" id="-46294">
		<tag k="highway" v="path" />
		<tag k="name" v="Liavegen" />
		<tag k="ssr:stedsnr" v="118211" />
	</node>
	<node lat="61.1978388915899" lon="8.380002777834916" id="-46299">
		<tag k="landuse" v="industrial" />
		<tag k="name" v="Ylja kraftverk" />
		<tag k="power" v="plant" />
		<tag k="ssr:stedsnr" v="118615" />
	</node>
	<node lat="61.201089962438026" lon="8.242054137330861" id="-46305">
		<tag k="bridge" v="yes" />
		<tag k="layer" v="1" />
		<tag k="name" v="Tørisbrune" />
		<tag k="ssr:stedsnr" v="119212" />
	</node>
	<node lat="61.004233331653005" lon="8.600225004909065" id="-46315">
		<tag k="ford" v="yes" />
		<tag k="name" v="Kattevølsvadet" />
		<tag k="place" v="locality" />
		<tag k="ssr:stedsnr" v="128396" />
	</node>
	<node lat="61.13201532002408" lon="8.851904007953884" id="-46343">
		<tag k="bridge" v="yes" />
		<tag k="layer" v="1" />
		<tag k="name" v="Riste bru" />
		<tag k="ssr:stedsnr" v="240224" />
	</node>
	<node lat="61.18788055658085" lon="8.347211115168493" id="-46349">
		<tag k="man_made" v="cairn" />
		<tag k="name" v="Nonsvardin" />
		<tag k="place" v="locality" />
		<tag k="ssr:stedsnr" v="240415" />
	</node>
	<node lat="61.16893611481766" lon="8.678211113843874" id="-46388">
		<tag k="bridge" v="yes" />
		<tag k="layer" v="1" />
		<tag k="name" v="Heensbrua" />
		<tag k="ssr:stedsnr" v="167202" />
	</node>
	<node lat="61.17930832909545" lon="8.386030548504827" id="-46478">
		<tag k="fixme" v="consider highway=path" />
		<tag k="highway" v="track" />
		<tag k="name" v="Eidsbakkin" />
		<tag k="ssr:stedsnr" v="221392" />
	</node>
	<node lat="61.329644443294995" lon="8.798824992276064" id="-46482">
		<tag k="alt_name" v="Søndre Vinstra" />
		<tag k="bridge" v="yes" />
		<tag k="layer" v="1" />
		<tag k="name" v="Søre Vinstra" />
		<tag k="ssr:stedsnr" v="228205" />
	</node>
	<node lat="61.16854444143164" lon="8.397305551664358" id="-46483">
		<tag k="bridge" v="yes" />
		<tag k="layer" v="1" />
		<tag k="name" v="Øye" />
		<tag k="ssr:stedsnr" v="228199" />
	</node>
	<node lat="61.16158332981599" lon="8.750686113250863" id="-46487">
		<tag k="highway" v="path" />
		<tag k="name" v="Gamlevegen" />
		<tag k="ssr:stedsnr" v="240196" />
	</node>
	<node lat="61.152824451547005" lon="8.754010458831678" id="-46488">
		<tag k="bridge" v="yes" />
		<tag k="layer" v="1" />
		<tag k="name" v="Tveitabru" />
		<tag k="ssr:stedsnr" v="240197" />
	</node>
	<node lat="61.17264584354236" lon="8.104898782723344" id="-46489">
		<tag k="bridge" v="yes" />
		<tag k="layer" v="1" />
		<tag k="name" v="Sulebrune" />
		<tag k="ssr:stedsnr" v="240200" />
	</node>
	<node lat="61.21072778141603" lon="8.842511116411035" id="-46528">
		<tag k="highway" v="path" />
		<tag k="name" v="Vøvlevegen" />
		<tag k="ssr:stedsnr" v="281510" />
	</node>
	<node lat="61.15514444754132" lon="8.569063883363405" id="-46535">
		<tag k="highway" v="path" />
		<tag k="name" v="Gamle Stølsvegen" />
		<tag k="ssr:stedsnr" v="282712" />
	</node>
	<node lat="61.20997221902943" lon="8.341055555450819" id="-46543">
		<tag k="bridge" v="yes" />
		<tag k="layer" v="1" />
		<tag k="name" v="Oppdal" />
		<tag k="ssr:stedsnr" v="289190" />
	</node>
	<node lat="61.17282222055891" lon="8.695613891805515" id="-46544">
		<tag k="bridge" v="yes" />
		<tag k="layer" v="1" />
		<tag k="name" v="Åsvang" />
		<tag k="ssr:stedsnr" v="289191" />
	</node>
	<node lat="61.174236107490124" lon="8.317252772750438" id="-46551">
		<tag k="highway" v="path" />
		<tag k="name" v="Bøttavegen" />
		<tag k="ssr:stedsnr" v="300404" />
	</node>
	<node lat="61.14720277333421" lon="8.414497214202068" id="-46620">
		<tag k="man_made" v="cairn" />
		<tag k="name" v="Middagsvarin" />
		<tag k="place" v="locality" />
		<tag k="ssr:stedsnr" v="464401" />
	</node>
	<node lat="61.180366663957614" lon="8.390416663959796" id="-46683">
		<tag k="bridge" v="yes" />
		<tag k="layer" v="1" />
		<tag k="name" v="Eidsbrune" />
		<tag k="ssr:stedsnr" v="403407" />
	</node>
	<node lat="61.113158337300355" lon="8.630349994334575" id="-46772">
		<tag k="ford" v="yes" />
		<tag k="name" v="Gilavaet" />
		<tag k="place" v="locality" />
		<tag k="ssr:stedsnr" v="664886" />
	</node>
	<node lat="61.11669721870099" lon="8.656458329918081" id="-46773">
		<tag k="highway" v="path" />
		<tag k="name" v="Eirikvegen" />
		<tag k="ssr:stedsnr" v="664887" />
	</node>
	<node lat="61.15124444511434" lon="8.652333332171834" id="-46780">
		<tag k="bridge" v="yes" />
		<tag k="layer" v="1" />
		<tag k="name" v="Grønald" />
		<tag k="ssr:stedsnr" v="470171" />
	</node>
	<node lat="61.20891944105105" lon="8.348713892652235" id="-46781">
		<tag k="bridge" v="yes" />
		<tag k="layer" v="1" />
		<tag k="name" v="Skogstad" />
		<tag k="ssr:stedsnr" v="470175" />
	</node>
	<node lat="61.13965278057585" lon="8.841972227434479" id="-46788">
		<tag k="highway" v="path" />
		<tag k="name" v="Puttevegen" />
		<tag k="ssr:stedsnr" v="482213" />
	</node>
	<node lat="61.327719440100324" lon="8.277097213243369" id="-46869">
		<tag k="bridge" v="yes" />
		<tag k="layer" v="1" />
		<tag k="name" v="Tvindehaugen" />
		<tag k="ssr:stedsnr" v="531204" />
	</node>
	<node lat="61.12857778091462" lon="8.594000004986489" id="-46870">
		<tag k="bridge" v="yes" />
		<tag k="layer" v="1" />
		<tag k="name" v="Skulebrua" />
		<tag k="ssr:stedsnr" v="531191" />
	</node>
	<node lat="61.128872221099115" lon="8.5958388967751" id="-46960">
		<tag k="bridge" v="yes" />
		<tag k="layer" v="1" />
		<tag k="name" v="Kvåle" />
		<tag k="ssr:stedsnr" v="591169" />
	</node>
	<node lat="61.15622222204072" lon="8.475463885972129" id="-46961">
		<tag k="bridge" v="yes" />
		<tag k="layer" v="1" />
		<tag k="name" v="Haggsten" />
		<tag k="ssr:stedsnr" v="591177" />
	</node>
	<node lat="61.11378888964199" lon="8.679488891035986" id="-46968">
		<tag k="junction" v="yes" />
		<tag k="name" v="Dele" />
		<tag k="place" v="locality" />
		<tag k="ssr:stedsnr" v="603863" />
	</node>
	<node lat="61.15513055727213" lon="8.168827776136284" id="-46975">
		<tag k="highway" v="path" />
		<tag k="name" v="Reinsbuvegen" />
		<tag k="ssr:stedsnr" v="604271" />
	</node>
	<node lat="61.20411369694617" lon="8.235230234405735" id="-47039">
		<tag k="bridge" v="yes" />
		<tag k="layer" v="1" />
		<tag k="name" v="Nedre Bjørdalsbrune" />
		<tag k="ssr:stedsnr" v="666708" />
	</node>
	<node lat="61.216127775920896" lon="8.630997216828668" id="-47066">
		<tag k="ford" v="yes" />
		<tag k="name" v="Pålshøppet" />
		<tag k="place" v="locality" />
		<tag k="ssr:stedsnr" v="707007" />
	</node>
	<node lat="61.15117222166164" lon="8.646569439130808" id="-47076">
		<tag k="bridge" v="yes" />
		<tag k="layer" v="1" />
		<tag k="name" v="Kvamskleiva halvbru" />
		<tag k="ssr:stedsnr" v="713182" />
	</node>
	<node lat="61.163022219943336" lon="8.722058337657604" id="-47077">
		<tag k="bridge" v="yes" />
		<tag k="layer" v="1" />
		<tag k="name" v="Nedre Jevnebekk" />
		<tag k="ssr:stedsnr" v="713191" />
	</node>
	<node lat="61.11383055599151" lon="8.489349999791692" id="-47085">
		<tag k="highway" v="path" />
		<tag k="name" v="Gamle vegen" />
		<tag k="ssr:stedsnr" v="889384" />
	</node>
	<node lat="61.16990000019015" lon="8.715613895271597" id="-47137">
		<tag k="bridge" v="yes" />
		<tag k="layer" v="1" />
		<tag k="name" v="Ryssna" />
		<tag k="ssr:stedsnr" v="895185" />
	</node>
	<node lat="61.16425555777323" lon="8.648216671455032" id="-47138">
		<tag k="bridge" v="yes" />
		<tag k="layer" v="1" />
		<tag k="name" v="Remnesbrua" />
		<tag k="ssr:stedsnr" v="895194" />
	</node>
	<node lat="61.19757777935519" lon="8.38119722086174" id="-47139">
		<tag k="bridge" v="yes" />
		<tag k="layer" v="1" />
		<tag k="name" v="Ylja kraftverk" />
		<tag k="ssr:stedsnr" v="895201" />
	</node>
	<node lat="61.180327782124394" lon="8.39042500150984" id="-47140">
		<tag k="alt_name" v="Eidsbrua" />
		<tag k="bridge" v="yes" />
		<tag k="layer" v="1" />
		<tag k="name" v="Eidsbru" />
		<tag k="ssr:stedsnr" v="755504" />
	</node>
	<node lat="61.20542777357486" lon="8.734800007926655" id="-47141">
		<tag k="man_made" v="cairn" />
		<tag k="name" v="Tvivardadn" />
		<tag k="place" v="locality" />
		<tag k="ssr:stedsnr" v="767003" />
	</node>
	<node lat="61.17731944729467" lon="8.852716664089982" id="-47144">
		<tag k="alt_name" v="Garstadsvingen" />
		<tag k="junction" v="yes" />
		<tag k="name" v="Gardstadsvingen" />
		<tag k="place" v="locality" />
		<tag k="ssr:stedsnr" v="767243" />
	</node>
	<node lat="61.13719999763653" lon="8.823438896534775" id="-47149">
		<tag k="bridge" v="yes" />
		<tag k="layer" v="1" />
		<tag k="name" v="Ryfoss" />
		<tag k="ssr:stedsnr" v="774206" />
	</node>
	<node lat="61.12655277468684" lon="8.554011103928506" id="-47150">
		<tag k="bridge" v="yes" />
		<tag k="layer" v="1" />
		<tag k="name" v="Åstad" />
		<tag k="ssr:stedsnr" v="774210" />
	</node>
	<node lat="61.11458333181103" lon="8.667661107096507" id="-47168">
		<tag k="highway" v="path" />
		<tag k="name" v="Nørdre Stølsvegen" />
		<tag k="ssr:stedsnr" v="786872" />
	</node>
	<node lat="61.165487391231856" lon="8.395081866271706" id="-47169">
		<tag k="layer" v="-1" />
		<tag k="name" v="Rødølstunnelen" />
		<tag k="ssr:stedsnr" v="787063" />
		<tag k="tunnel" v="yes" />
	</node>
	<node lat="61.33001944397573" lon="8.798172220991649" id="-47234">
		<tag k="bridge" v="yes" />
		<tag k="layer" v="1" />
		<tag k="name" v="Nørdre Vinstra" />
		<tag k="ssr:stedsnr" v="835215" />
	</node>
	<node lat="61.177255557186726" lon="8.696274994776923" id="-47235">
		<tag k="bridge" v="yes" />
		<tag k="layer" v="1" />
		<tag k="name" v="Dal" />
		<tag k="ssr:stedsnr" v="835241" />
	</node>
	<node lat="61.14451944647729" lon="8.636900004288703" id="-47236">
		<tag k="bridge" v="yes" />
		<tag k="layer" v="1" />
		<tag k="name" v="Kvam" />
		<tag k="ssr:stedsnr" v="835190" />
	</node>
	<node lat="61.2627750026923" lon="8.202491664762231" id="-47237">
		<tag k="bridge" v="yes" />
		<tag k="layer" v="1" />
		<tag k="name" v="Melvik" />
		<tag k="ssr:stedsnr" v="835193" />
	</node>
	<node lat="61.13293611197361" lon="8.607402779552238" id="-47238">
		<tag k="bridge" v="yes" />
		<tag k="layer" v="1" />
		<tag k="name" v="Myre" />
		<tag k="ssr:stedsnr" v="835201" />
	</node>
	<node lat="61.17927991153571" lon="8.139366014828816" id="-47254">
		<tag k="layer" v="-1" />
		<tag k="name" v="Filefjelltunnelen" />
		<tag k="ssr:stedsnr" v="848736" />
		<tag k="tunnel" v="yes" />
	</node>
	<node lat="61.158630922002516" lon="8.670026369637158" id="-47278">
		<tag k="bridge" v="yes" />
		<tag k="layer" v="1" />
		<tag k="name" v="Hemsingbrune" />
		<tag k="ssr:stedsnr" v="917207" />
	</node>
	<node lat="61.16298888632686" lon="8.531991672862649" id="-47314">
		<tag k="highway" v="path" />
		<tag k="name" v="Snevegen" />
		<tag k="ssr:stedsnr" v="889710" />
	</node>
	<node lat="61.13443055363784" lon="8.702341674389231" id="-47338">
		<tag k="alt_name" v="Vaet" />
		<tag k="ford" v="yes" />
		<tag k="name" v="Vadet" />
		<tag k="place" v="locality" />
		<tag k="ssr:stedsnr" v="907924" />
	</node>
	<node lat="61.15288055644659" lon="8.65819167581127" id="-47380">
		<tag k="bridge" v="yes" />
		<tag k="layer" v="1" />
		<tag k="name" v="Saubekk" />
		<tag k="ssr:stedsnr" v="956207" />
	</node>
	<node lat="61.14908333060118" lon="8.738441675198509" id="-47381">
		<tag k="bridge" v="yes" />
		<tag k="layer" v="1" />
		<tag k="name" v="Tomleødegård" />
		<tag k="ssr:stedsnr" v="956214" />
	</node>
	<node lat="61.164552773555535" lon="8.723580552855378" id="-47382">
		<tag k="bridge" v="yes" />
		<tag k="layer" v="1" />
		<tag k="name" v="Øvre Jevnebekk" />
		<tag k="ssr:stedsnr" v="956198" />
	</node>
	<node lat="61.16963888570951" lon="8.425972214529862" id="-47383">
		<tag k="bridge" v="yes" />
		<tag k="layer" v="1" />
		<tag k="name" v="Mosaker" />
		<tag k="ssr:stedsnr" v="956200" />
	</node>
	<node lat="61.06096111362015" lon="8.529494447900156" id="-47393">
		<tag k="alt_name" v="Vaet" />
		<tag k="ford" v="yes" />
		<tag k="name" v="Vadet" />
		<tag k="place" v="locality" />
		<tag k="ssr:stedsnr" v="968609" />
	</node>
	<node lat="61.17707436211763" lon="8.695876080080929" id="-47396">
		<tag k="junction" v="yes" />
		<tag k="name" v="Dalsbrukrysset" />
		<tag k="place" v="locality" />
		<tag k="ssr:stedsnr" v="982617" />
	</node>
	<node lat="61.234883329088575" lon="8.221138893457677" id="-47509">
		<tag k="bridge" v="yes" />
		<tag k="layer" v="1" />
		<tag k="name" v="Galdsbekk" />
		<tag k="ssr:stedsnr" v="46191" />
	</node>
	<node lat="61.192372220341234" lon="8.386605552694368" id="-47510">
		<tag k="bridge" v="yes" />
		<tag k="layer" v="1" />
		<tag k="name" v="Strand" />
		<tag k="ssr:stedsnr" v="46197" />
	</node>
	<node lat="61.02437499952073" lon="8.580513885767447" id="-47547">
		<tag k="ford" v="yes" />
		<tag k="name" v="Tverrvadet" />
		<tag k="place" v="locality" />
		<tag k="ssr:stedsnr" v="68448" />
	</node>
	<node lat="61.13200000093614" lon="8.523352784289555" id="-47585">
		<tag k="highway" v="path" />
		<tag k="name" v="Førovegen" />
		<tag k="ssr:stedsnr" v="100687" />
	</node>
	<node lat="61.14776944017907" lon="8.596111112788691" id="-47588">
		<tag k="man_made" v="cairn" />
		<tag k="name" v="Kjeringe i Ura" />
		<tag k="place" v="locality" />
		<tag k="ssr:stedsnr" v="100694" />
	</node>
	<node lat="61.15694722066149" lon="8.534047222425311" id="-47602">
		<tag k="bridge" v="yes" />
		<tag k="layer" v="1" />
		<tag k="name" v="Leine" />
		<tag k="ssr:stedsnr" v="107153" />
	</node>
	<node lat="61.302716671144445" lon="8.268422226433191" id="-47603">
		<tag k="bridge" v="yes" />
		<tag k="layer" v="1" />
		<tag k="name" v="Geitrenna" />
		<tag k="ssr:stedsnr" v="107156" />
	</node>
	<node lat="61.157752775571076" lon="8.456127774351966" id="-47604">
		<tag k="bridge" v="yes" />
		<tag k="layer" v="1" />
		<tag k="name" v="Salsten" />
		<tag k="ssr:stedsnr" v="107162" />
	</node>
	<node lat="61.10236111047814" lon="8.59234999466768" id="-47620">
		<tag k="alt_name" v="Øvre Vaet" />
		<tag k="ford" v="yes" />
		<tag k="name" v="Øvre Vadet" />
		<tag k="place" v="locality" />
		<tag k="ssr:stedsnr" v="118555" />
	</node>
	<node lat="61.01195833251917" lon="8.72073332760709" id="-47651">
		<tag k="fixme" v="verify maritime location" />
		<tag k="mooring" v="yes" />
		<tag k="name" v="Båtdraget" />
		<tag k="place" v="locality" />
		<tag k="ssr:stedsnr" v="130744" />
	</node>
	<node lat="61.199655558272376" lon="8.71401666934956" id="-47734">
		<tag k="highway" v="path" />
		<tag k="name" v="Nordøsingsvegen" />
		<tag k="ssr:stedsnr" v="282012" />
	</node>
	<node lat="61.20412500152043" lon="8.734230553918891" id="-47736">
		<tag k="man_made" v="cairn" />
		<tag k="name" v="Kongen" />
		<tag k="place" v="locality" />
		<tag k="ssr:stedsnr" v="282018" />
	</node>
	<node lat="61.12650000353275" lon="8.580211111792027" id="-47761">
		<tag k="bridge" v="yes" />
		<tag k="layer" v="1" />
		<tag k="name" v="Baggetun" />
		<tag k="ssr:stedsnr" v="289223" />
	</node>
	<node lat="61.34296111556533" lon="8.268469438893854" id="-47762">
		<tag k="bridge" v="yes" />
		<tag k="layer" v="1" />
		<tag k="name" v="Myrja" />
		<tag k="ssr:stedsnr" v="289188" />
	</node>
	<node lat="61.205169441380065" lon="8.255802786129216" id="-47776">
		<tag k="bridge" v="yes" />
		<tag k="layer" v="1" />
		<tag k="name" v="Fløgstrøndbrune" />
		<tag k="ssr:stedsnr" v="302732" />
	</node>
	<node lat="61.1619888866824" lon="8.534569446300694" id="-47828">
		<tag k="highway" v="path" />
		<tag k="name" v="Beinstigen" />
		<tag k="ssr:stedsnr" v="342667" />
	</node>
	<node lat="61.20318056001914" lon="8.729791669461296" id="-47879">
		<tag k="man_made" v="cairn" />
		<tag k="name" v="Ivar i Urn" />
		<tag k="place" v="locality" />
		<tag k="ssr:stedsnr" v="403020" />
	</node>
	<node lat="61.14752222057799" lon="8.850441660591622" id="-47883">
		<tag k="highway" v="path" />
		<tag k="name" v="Bustigen" />
		<tag k="ssr:stedsnr" v="403273" />
	</node>
	<node lat="61.20322200940021" lon="8.231742398025972" id="-47897">
		<tag k="alt_name" v="Bjørdøla" />
		<tag k="bridge" v="yes" />
		<tag k="layer" v="1" />
		<tag k="name" v="Bjørdalsbrune" />
		<tag k="ssr:stedsnr" v="410238" />
	</node>
	<node lat="61.20041944309266" lon="8.377441670868848" id="-47898">
		<tag k="bridge" v="yes" />
		<tag k="layer" v="1" />
		<tag k="name" v="Bø" />
		<tag k="ssr:stedsnr" v="410239" />
	</node>
	<node lat="61.12973333510306" lon="8.545163897872555" id="-47899">
		<tag k="bridge" v="yes" />
		<tag k="layer" v="1" />
		<tag k="name" v="Berge" />
		<tag k="ssr:stedsnr" v="410240" />
	</node>
	<node lat="61.157391664444425" lon="8.462561115784364" id="-47900">
		<tag k="bridge" v="yes" />
		<tag k="layer" v="1" />
		<tag k="name" v="Sletten" />
		<tag k="ssr:stedsnr" v="410185" />
	</node>
	<node lat="61.15283055425481" lon="8.753949993901768" id="-47901">
		<tag k="bridge" v="yes" />
		<tag k="layer" v="1" />
		<tag k="name" v="Tveit" />
		<tag k="ssr:stedsnr" v="410197" />
	</node>
	<node lat="61.206563888632765" lon="8.279844438865698" id="-47976">
		<tag k="alt_name" v="Vaet" />
		<tag k="ford" v="yes" />
		<tag k="name" v="Vadet" />
		<tag k="place" v="locality" />
		<tag k="ssr:stedsnr" v="483354" />
	</node>
	<node lat="61.110097221128434" lon="8.586836102440023" id="-48018">
		<tag k="ford" v="yes" />
		<tag k="name" v="Nedre Vadet" />
		<tag k="place" v="locality" />
		<tag k="ssr:stedsnr" v="525695" />
	</node>
	<node lat="61.15329999695174" lon="8.614805556247287" id="-48022">
		<tag k="bridge" v="yes" />
		<tag k="layer" v="1" />
		<tag k="name" v="Drysja" />
		<tag k="ssr:stedsnr" v="531239" />
	</node>
	<node lat="61.140108333925845" lon="8.85604999471076" id="-48032">
		<tag k="highway" v="path" />
		<tag k="name" v="Ursdalsvegen" />
		<tag k="ssr:stedsnr" v="543260" />
	</node>
	<node lat="61.20462222516402" lon="8.244483329650132" id="-48041">
		<tag k="bridge" v="yes" />
		<tag k="layer" v="1" />
		<tag k="name" v="Tyinkryssbrune" />
		<tag k="ssr:stedsnr" v="544742" />
	</node>
	<node lat="61.18953333785817" lon="8.682994451805776" id="-48081">
		<tag k="ford" v="yes" />
		<tag k="name" v="Krokvaet" />
		<tag k="place" v="locality" />
		<tag k="ssr:stedsnr" v="585061" />
	</node>
	<node lat="61.128316668991836" lon="8.590588895776868" id="-48098">
		<tag k="bridge" v="yes" />
		<tag k="layer" v="1" />
		<tag k="name" v="Tune" />
		<tag k="ssr:stedsnr" v="591193" />
	</node>
	<node lat="61.20581110989128" lon="8.28161389405139" id="-48120">
		<tag k="highway" v="path" />
		<tag k="name" v="Vatninge" />
		<tag k="ssr:stedsnr" v="604336" />
	</node>
	<node lat="61.182436107403056" lon="8.390086117212888" id="-48123">
		<tag k="bridge" v="yes" />
		<tag k="layer" v="1" />
		<tag k="name" v="Strondafjordbrune" />
		<tag k="ssr:stedsnr" v="606437" />
	</node>
	<node lat="61.27336388938789" lon="8.232466671298418" id="-48184">
		<tag k="bridge" v="yes" />
		<tag k="layer" v="1" />
		<tag k="name" v="Målnes" />
		<tag k="ssr:stedsnr" v="652171" />
	</node>
	<node lat="61.20231388566928" lon="8.651344437776489" id="-48191">
		<tag k="ford" v="yes" />
		<tag k="name" v="Systervaet" />
		<tag k="place" v="locality" />
		<tag k="ssr:stedsnr" v="707135" />
	</node>
	<node lat="61.17984221629247" lon="8.09251017679688" id="-48221">
		<tag k="alt_name" v="Grøna" />
		<tag k="bridge" v="yes" />
		<tag k="layer" v="1" />
		<tag k="name" v="Grønnebrune" />
		<tag k="ssr:stedsnr" v="725117" />
	</node>
	<node lat="61.17329166729924" lon="8.675638891798547" id="-48318">
		<tag k="bridge" v="yes" />
		<tag k="layer" v="1" />
		<tag k="name" v="Austreim" />
		<tag k="old_name" v="Austrheim" />
		<tag k="ssr:stedsnr" v="774250" />
	</node>
	<node lat="61.20512222082886" lon="8.250369435785343" id="-48354">
		<tag k="bridge" v="yes" />
		<tag k="layer" v="1" />
		<tag k="name" v="Kolabrunløypa" />
		<tag k="ssr:stedsnr" v="787732" />
	</node>
	<node lat="61.20741087937344" lon="8.29615672328185" id="-48413">
		<tag k="alt_name" v="Varpefoss" />
		<tag k="bridge" v="yes" />
		<tag k="layer" v="1" />
		<tag k="name" v="Varpebrune" />
		<tag k="ssr:stedsnr" v="835216" />
	</node>
	<node lat="61.1275309890815" lon="8.551380641429208" id="-48427">
		<tag k="bridge" v="yes" />
		<tag k="layer" v="1" />
		<tag k="name" v="Kølabrune" />
		<tag k="ssr:stedsnr" v="847722" />
	</node>
	<node lat="61.24949444054116" lon="8.71231666269477" id="-48489">
		<tag k="junction" v="yes" />
		<tag k="name" v="Raudalskrysset" />
		<tag k="place" v="locality" />
		<tag k="ssr:stedsnr" v="963127" />
	</node>
	<node lat="61.20527784564921" lon="8.254248641365125" id="-48493">
		<tag k="alt_name" v="Kølabrune;Kola" />
		<tag k="bridge" v="yes" />
		<tag k="layer" v="1" />
		<tag k="name" v="Kolabrune" />
		<tag k="ssr:stedsnr" v="967168" />
	</node>
	<node lat="61.14011723555882" lon="8.792086277348966" id="-48496">
		<tag k="bridge" v="yes" />
		<tag k="layer" v="1" />
		<tag k="name" v="Kvismo bru" />
		<tag k="ssr:stedsnr" v="968026" />
	</node>
	<node lat="61.18488611057756" lon="8.092008336943183" id="-48500">
		<tag k="highway" v="path" />
		<tag k="name" v="Grønnevegen" />
		<tag k="ssr:stedsnr" v="968135" />
	</node>
	<node lat="61.1177583290653" lon="8.673811106458185" id="-48516">
		<tag k="ford" v="yes" />
		<tag k="name" v="Kølvesvaet" />
		<tag k="place" v="locality" />
		<tag k="ssr:stedsnr" v="968880" />
	</node>
	<node lat="61.18389166682923" lon="8.390633339422624" id="-48521">
		<tag k="bridge" v="yes" />
		<tag k="layer" v="1" />
		<tag k="name" v="Evangsbrune" />
		<tag k="ssr:stedsnr" v="970684" />
	</node>
	<node lat="61.089166840868444" lon="8.62446610423772" id="-48600">
		<tag k="highway" v="path" />
		<tag k="name" v="Fevegen" />
		<tag k="ssr:stedsnr" v="1073260" />
	</node>
	<node lat="61.101575212914696" lon="8.556539696771061" id="-48601">
		<tag k="highway" v="path" />
		<tag k="name" v="Haugavegen" />
		<tag k="ssr:stedsnr" v="1073527" />
	</node>
</osm>
