<?xml version="1.0" encoding="UTF-8"?>
<osm generator="osmapis" version="0.6">
	<node id="-405491" lat="61.114388893" lon="8.3968666615">
		<tag k="historic" v="shieling" />
		<tag k="name" v="Storstølen" />
		<tag k="place" v="locality" />
		<tag k="ssr:stedsnr" v="7651" />
	</node>
	<node id="-405490" lat="61.108925" lon="8.46567499541">
		<tag k="historic" v="shieling" />
		<tag k="name" v="Heimstølane" />
		<tag k="place" v="locality" />
		<tag k="ssr:stedsnr" v="7649" />
	</node>
	<node id="-405481" lat="61.1195083308" lon="8.63538610588">
		<tag k="name" v="Lyrja" />
		<tag k="place" v="isolated_dwelling" />
		<tag k="ssr:stedsnr" v="7314" />
	</node>
	<node id="-405480" lat="61.1293916655" lon="8.53946389401">
		<tag k="alt_name" v="Berge" />
		<tag k="name" v="Nørdre Bergji" />
		<tag k="place" v="farm" />
		<tag k="ssr:stedsnr" v="7293" />
	</node>
	<node id="-405479" lat="61.1333656763" lon="8.60255076249">
		<tag k="fixme" v="consider place=hamlet" />
		<tag k="name" v="Bøland" />
		<tag k="place" v="farm" />
		<tag k="ssr:stedsnr" v="7287" />
	</node>
	<node id="-405469" lat="61.3492777803" lon="8.66679999638">
		<tag k="name" v="Hestevollen" />
		<tag k="place" v="isolated_dwelling" />
		<tag k="ssr:stedsnr" v="7156" />
	</node>
	<node id="-405465" lat="61.1663166665" lon="8.83821944002">
		<tag k="historic" v="shieling" />
		<tag k="name" v="Bergestølen" />
		<tag k="place" v="locality" />
		<tag k="ssr:stedsnr" v="6289" />
	</node>
	<node id="-405464" lat="61.1327814203" lon="8.60506630774">
		<tag k="fixme" v="consider place=hamlet" />
		<tag k="name" v="Myre" />
		<tag k="place" v="farm" />
		<tag k="ssr:stedsnr" v="986567" />
	</node>
	<node id="-405463" lat="61.1252937083" lon="8.5900527159">
		<tag k="alt_name" v="Tunegaradn" />
		<tag k="name" v="Tune" />
		<tag k="place" v="hamlet" />
		<tag k="ssr:stedsnr" v="986565" />
	</node>
	<node id="-405462" lat="61.1261253281" lon="8.57653187494">
		<tag k="name" v="Vang prestegard" />
		<tag k="place" v="locality" />
		<tag k="ssr:stedsnr" v="986564" />
	</node>
	<node id="-405461" lat="61.1254227418" lon="8.55037805561">
		<tag k="fixme" v="consider place=hamlet" />
		<tag k="name" v="Flaten" />
		<tag k="place" v="farm" />
		<tag k="ssr:stedsnr" v="986558" />
	</node>
	<node id="-405460" lat="61.126209631" lon="8.54628400661">
		<tag k="name" v="Nørdre Bø" />
		<tag k="place" v="farm" />
		<tag k="ssr:stedsnr" v="986557" />
	</node>
	<node id="-405459" lat="61.129609555" lon="8.53829848896">
		<tag k="alt_name" v="Bergji" />
		<tag k="fixme" v="consider place=hamlet" />
		<tag k="name" v="Berge" />
		<tag k="place" v="farm" />
		<tag k="ssr:stedsnr" v="986554" />
	</node>
	<node id="-405458" lat="61.1278070755" lon="8.53153005534">
		<tag k="fixme" v="consider place=hamlet" />
		<tag k="name" v="Stele" />
		<tag k="place" v="farm" />
		<tag k="ssr:stedsnr" v="986553" />
	</node>
	<node id="-405457" lat="61.1673807883" lon="8.39813636785">
		<tag k="fixme" v="consider place=hamlet" />
		<tag k="name" v="Øye" />
		<tag k="place" v="farm" />
		<tag k="ssr:stedsnr" v="986551" />
	</node>
	<node id="-405456" lat="61.1702219846" lon="8.39451134896">
		<tag k="fixme" v="consider place=hamlet" />
		<tag k="name" v="Eltun" />
		<tag k="place" v="farm" />
		<tag k="ssr:stedsnr" v="986550" />
	</node>
	<node id="-405455" lat="61.1709036621" lon="8.38863867586">
		<tag k="fixme" v="consider place=hamlet" />
		<tag k="name" v="Kjerrstein" />
		<tag k="place" v="farm" />
		<tag k="ssr:stedsnr" v="986549" />
	</node>
	<node id="-405446" lat="61.1263833318" lon="8.76795000471">
		<tag k="historic" v="shieling" />
		<tag k="name" v="Kviestøler" />
		<tag k="place" v="locality" />
		<tag k="ssr:stedsnr" v="968020" />
	</node>
	<node id="-405444" lat="61.1706638919" lon="8.67255554809">
		<tag k="name" v="Nørdre Austreim" />
		<tag k="place" v="farm" />
		<tag k="ssr:stedsnr" v="950118" />
	</node>
	<node id="-405440" lat="61.1628999966" lon="8.6210694357">
		<tag k="historic" v="shieling" />
		<tag k="name" v="Havrostølen" />
		<tag k="place" v="locality" />
		<tag k="ssr:stedsnr" v="949704" />
	</node>
	<node id="-405439" lat="61.12316111" lon="8.55570278566">
		<tag k="name" v="Steinsrud" />
		<tag k="place" v="locality" />
		<tag k="ssr:stedsnr" v="949657" />
	</node>
	<node id="-404469" lat="61.337405552" lon="8.2733750019">
		<tag k="historic" v="shieling" />
		<tag k="name" v="Skogstadstølen" />
		<tag k="place" v="locality" />
		<tag k="ssr:stedsnr" v="250792" />
	</node>
	<node id="-405434" lat="61.1864527735" lon="8.7601555612">
		<tag k="historic" v="shieling" />
		<tag k="name" v="Bakkestøl" />
		<tag k="place" v="locality" />
		<tag k="ssr:stedsnr" v="949410" />
	</node>
	<node id="-405428" lat="61.1939583364" lon="8.69976666053">
		<tag k="historic" v="shieling" />
		<tag k="name" v="Bøkkestølen" />
		<tag k="place" v="locality" />
		<tag k="ssr:stedsnr" v="917670" />
	</node>
	<node id="-405424" lat="61.1979944409" lon="8.8767361106">
		<tag k="historic" v="shieling" />
		<tag k="name" v="Lykkjestølen" />
		<tag k="place" v="locality" />
		<tag k="ssr:stedsnr" v="917453" />
	</node>
	<node id="-405423" lat="61.2262527734" lon="8.81810000363">
		<tag k="historic" v="shieling" />
		<tag k="name" v="Rudistølen" />
		<tag k="place" v="locality" />
		<tag k="ssr:stedsnr" v="917727" />
	</node>
	<node id="-405422" lat="61.2478388885" lon="8.77289999404">
		<tag k="alt_name" v="Jøvnestølen" />
		<tag k="historic" v="shieling" />
		<tag k="name" v="Jøvnestøl" />
		<tag k="place" v="locality" />
		<tag k="ssr:stedsnr" v="917706" />
	</node>
	<node id="-405421" lat="61.152055556" lon="8.82569722495">
		<tag k="name" v="Berge" />
		<tag k="place" v="farm" />
		<tag k="ssr:stedsnr" v="917279" />
	</node>
	<node id="-405420" lat="61.1366527754" lon="8.60696665883">
		<tag k="alt_name" v="Nedre Syndrol;Søndrol Klettene" />
		<tag k="name" v="Syndrol" />
		<tag k="place" v="farm" />
		<tag k="ssr:stedsnr" v="917273" />
	</node>
	<node id="-405419" lat="61.1442638883" lon="8.71166111237">
		<tag k="name" v="Ala" />
		<tag k="place" v="farm" />
		<tag k="ssr:stedsnr" v="917268" />
	</node>
	<node id="-405418" lat="61.1454305515" lon="8.71921111398">
		<tag k="name" v="Vestheim" />
		<tag k="place" v="farm" />
		<tag k="ssr:stedsnr" v="917267" />
	</node>
	<node id="-405417" lat="61.1379861109" lon="8.70182500699">
		<tag k="name" v="Hugastølane" />
		<tag k="place" v="locality" />
		<tag k="ssr:stedsnr" v="917255" />
	</node>
	<node id="-405416" lat="61.1346111141" lon="8.71072777605">
		<tag k="historic" v="shieling" />
		<tag k="name" v="Brustøgostølen" />
		<tag k="place" v="locality" />
		<tag k="ssr:stedsnr" v="917253" />
	</node>
	<node id="-405415" lat="61.1573363544" lon="8.7259837551">
		<tag k="fixme" v="consider place=hamlet" />
		<tag k="name" v="Øygarden" />
		<tag k="place" v="farm" />
		<tag k="ssr:stedsnr" v="917223" />
	</node>
	<node id="-405413" lat="61.093461111" lon="8.71965555955">
		<tag k="alt_name" v="Kviisyndin" />
		<tag k="historic" v="shieling" />
		<tag k="loc_name" v="Kviesyndin" />
		<tag k="name" v="Kviessyndin" />
		<tag k="place" v="locality" />
		<tag k="ssr:stedsnr" v="917326" />
	</node>
	<node id="-405412" lat="61.1273138928" lon="8.77268611253">
		<tag k="historic" v="shieling" />
		<tag k="name" v="Høvdestølane" />
		<tag k="place" v="locality" />
		<tag k="ssr:stedsnr" v="917308" />
	</node>
	<node id="-405411" lat="61.1750666626" lon="8.86756944978">
		<tag k="historic" v="shieling" />
		<tag k="name" v="Hålistølen" />
		<tag k="place" v="locality" />
		<tag k="ssr:stedsnr" v="917015" />
	</node>
	<node id="-405405" lat="61.1998861155" lon="8.5174472261">
		<tag k="historic" v="shieling" />
		<tag k="name" v="Sparstadstøl" />
		<tag k="place" v="locality" />
		<tag k="ssr:stedsnr" v="889804" />
	</node>
	<node id="-405404" lat="61.1462888852" lon="8.84080556165">
		<tag k="name" v="Helle" />
		<tag k="place" v="farm" />
		<tag k="ssr:stedsnr" v="888257" />
	</node>
	<node id="-405402" lat="61.1696250035" lon="8.68124721742">
		<tag k="name" v="Høgvoll" />
		<tag k="place" v="farm" />
		<tag k="ssr:stedsnr" v="950029" />
	</node>
	<node id="-405391" lat="61.2275916692" lon="8.82451666912">
		<tag k="historic" v="shieling" />
		<tag k="name" v="Haugen" />
		<tag k="place" v="locality" />
		<tag k="ssr:stedsnr" v="857763" />
	</node>
	<node id="-405390" lat="61.219105552" lon="8.62470278597">
		<tag k="historic" v="shieling" />
		<tag k="name" v="Herredalen" />
		<tag k="place" v="locality" />
		<tag k="ssr:stedsnr" v="857760" />
	</node>
	<node id="-405384" lat="61.1348444459" lon="8.53013610657">
		<tag k="alt_name" v="Søre Kvam" />
		<tag k="name" v="Kvam" />
		<tag k="place" v="farm" />
		<tag k="ssr:stedsnr" v="857467" />
	</node>
	<node id="-405383" lat="61.0438056351" lon="8.65700216442">
		<tag k="historic" v="shieling" />
		<tag k="name" v="Helestrønd" />
		<tag k="place" v="locality" />
		<tag k="ssr:stedsnr" v="857408" />
	</node>
	<node id="-405382" lat="61.1255096102" lon="8.55338600489">
		<tag k="alt_name" v="Øygarn" />
		<tag k="fixme" v="consider place=hamlet" />
		<tag k="name" v="Øygarden" />
		<tag k="place" v="farm" />
		<tag k="ssr:stedsnr" v="857312" />
	</node>
	<node id="-405381" lat="61.1253527735" lon="8.58245278289">
		<tag k="alt_name" v="Skori" />
		<tag k="name" v="Skøre" />
		<tag k="place" v="farm" />
		<tag k="ssr:stedsnr" v="857309" />
	</node>
	<node id="-405375" lat="61.1465019258" lon="8.70084606674">
		<tag k="fixme" v="consider place=hamlet" />
		<tag k="name" v="Øylo" />
		<tag k="place" v="farm" />
		<tag k="ssr:stedsnr" v="856329" />
	</node>
	<node id="-405374" lat="61.187933332" lon="8.86848889208">
		<tag k="historic" v="shieling" />
		<tag k="name" v="Kubakkstølen" />
		<tag k="place" v="locality" />
		<tag k="ssr:stedsnr" v="856008" />
	</node>
	<node id="-405373" lat="61.1239212791" lon="8.60197515188">
		<tag k="alt_name" v="Netrøst" />
		<tag k="fixme" v="consider place=hamlet" />
		<tag k="name" v="Nertrost" />
		<tag k="place" v="farm" />
		<tag k="ssr:stedsnr" v="841323" />
	</node>
	<node id="-405371" lat="61.1242056336" lon="8.56034414363">
		<tag k="fixme" v="consider place=hamlet" />
		<tag k="name" v="Haugen" />
		<tag k="place" v="farm" />
		<tag k="ssr:stedsnr" v="829429" />
	</node>
	<node id="-405370" lat="61.1696027785" lon="8.44571388104">
		<tag k="historic" v="shieling" />
		<tag k="name" v="Grøvsloenge" />
		<tag k="place" v="locality" />
		<tag k="ssr:stedsnr" v="828406" />
	</node>
	<node id="-405366" lat="61.2007972246" lon="8.36320833908">
		<tag k="alt_name" v="Gravsøydgarden" />
		<tag k="name" v="Øygarden" />
		<tag k="place" v="farm" />
		<tag k="ssr:stedsnr" v="799578" />
	</node>
	<node id="-405365" lat="61.2056388882" lon="8.35989999604">
		<tag k="alt_name" v="Dalen, øvre" />
		<tag k="name" v="Øvre Dalen" />
		<tag k="place" v="hamlet" />
		<tag k="ssr:stedsnr" v="799636" />
	</node>
	<node id="-405352" lat="61.3276666636" lon="8.79880000859">
		<tag k="alt_name" v="Bygdin Hotell" />
		<tag k="name" v="Bygdin" />
		<tag k="ssr:stedsnr" v="796163" />
		<tag k="tourism" v="hotel" />
	</node>
	<node id="-405349" lat="61.148374997" lon="8.83116110519">
		<tag k="alt_name" v="Leithe" />
		<tag k="name" v="Leite" />
		<tag k="place" v="farm" />
		<tag k="ssr:stedsnr" v="795354" />
	</node>
	<node id="-405347" lat="61.1269555523" lon="8.6101333262">
		<tag k="name" v="Øvre Bø" />
		<tag k="place" v="farm" />
		<tag k="ssr:stedsnr" v="787227" />
	</node>
	<node id="-405344" lat="61.0769916708" lon="8.60871389104">
		<tag k="historic" v="shieling" />
		<tag k="name" v="Øvre Vassendin" />
		<tag k="place" v="locality" />
		<tag k="ssr:stedsnr" v="786605" />
	</node>
	<node id="-405341" lat="61.1886472254" lon="8.2173805497">
		<tag k="landuse" v="winter_sports" />
		<tag k="name" v="Filefjell alpinsenter" />
		<tag k="piste:type" v="downhill" />
		<tag k="ssr:stedsnr" v="786236" />
	</node>
	<node id="-405339" lat="61.2305250022" lon="8.235136107">
		<tag k="name" v="Framnes" />
		<tag k="place" v="isolated_dwelling" />
		<tag k="ssr:stedsnr" v="786207" />
	</node>
	<node id="-405336" lat="61.1546638897" lon="8.75744166005">
		<tag k="name" v="Nørdre Tveitmoen" />
		<tag k="place" v="farm" />
		<tag k="ssr:stedsnr" v="786168" />
	</node>
	<node id="-405335" lat="61.1514027807" lon="8.76574167546">
		<tag k="name" v="Granlund" />
		<tag k="place" v="isolated_dwelling" />
		<tag k="ssr:stedsnr" v="786159" />
	</node>
	<node id="-405332" lat="61.2003485583" lon="8.37554623258">
		<tag k="fixme" v="consider place=hamlet" />
		<tag k="name" v="Bø" />
		<tag k="place" v="farm" />
		<tag k="ssr:stedsnr" v="920551" />
	</node>
	<node id="-405331" lat="61.2046130346" lon="8.36058100846">
		<tag k="fixme" v="consider place=hamlet" />
		<tag k="name" v="Hermundstad" />
		<tag k="place" v="farm" />
		<tag k="ssr:stedsnr" v="920550" />
	</node>
	<node id="-405330" lat="60.981083329" lon="8.64330554693">
		<tag k="historic" v="shieling" />
		<tag k="name" v="Nørdre Storlistølen" />
		<tag k="place" v="locality" />
		<tag k="ssr:stedsnr" v="919746" />
	</node>
	<node id="-405328" lat="61.2805611068" lon="8.39286110421">
		<tag k="name" v="Steinbue" />
		<tag k="place" v="isolated_dwelling" />
		<tag k="ssr:stedsnr" v="918847" />
	</node>
	<node id="-405325" lat="61.2528500035" lon="8.2064916628">
		<tag k="alt_name" v="Tyisstølen" />
		<tag k="historic" v="shieling" />
		<tag k="name" v="Tyinstølen" />
		<tag k="place" v="locality" />
		<tag k="ssr:stedsnr" v="918841" />
	</node>
	<node id="-405319" lat="61.28371667" lon="8.69345833394">
		<tag k="historic" v="shieling" />
		<tag k="name" v="Åtjernstølen" />
		<tag k="old_name" v="Åtjednstøl" />
		<tag k="place" v="locality" />
		<tag k="ssr:stedsnr" v="918219" />
	</node>
	<node id="-405313" lat="61.1567083303" lon="8.46394722276">
		<tag k="alt_name" v="Slette" />
		<tag k="name" v="Sletti" />
		<tag k="place" v="farm" />
		<tag k="ssr:stedsnr" v="917641" />
	</node>
	<node id="-405307" lat="61.2208083299" lon="8.84972500164">
		<tag k="historic" v="shieling" />
		<tag k="name" v="Fuglestølane" />
		<tag k="place" v="locality" />
		<tag k="ssr:stedsnr" v="917402" />
	</node>
	<node id="-405303" lat="61.0226638864" lon="8.72007778244">
		<tag k="historic" v="shieling" />
		<tag k="name" v="Tangane" />
		<tag k="place" v="locality" />
		<tag k="ssr:stedsnr" v="917382" />
	</node>
	<node id="-405300" lat="61.1285388915" lon="8.52399167534">
		<tag k="historic" v="shieling" />
		<tag k="name" v="Vårstølane" />
		<tag k="place" v="locality" />
		<tag k="ssr:stedsnr" v="917248" />
	</node>
	<node id="-405299" lat="61.163161115" lon="8.7895694507">
		<tag k="alt_name" v="Øvre Kjos" />
		<tag k="name" v="Kjøs" />
		<tag k="place" v="farm" />
		<tag k="ssr:stedsnr" v="917246" />
	</node>
	<node id="-405296" lat="61.3314305567" lon="8.79261667011">
		<tag k="historic" v="shieling" />
		<tag k="name" v="Fagerstrand" />
		<tag k="place" v="locality" />
		<tag k="ssr:stedsnr" v="917125" />
	</node>
	<node id="-405295" lat="61.1459416708" lon="8.84854167154">
		<tag k="name" v="Helle" />
		<tag k="place" v="farm" />
		<tag k="ssr:stedsnr" v="917067" />
	</node>
	<node id="-405289" lat="61.130827777" lon="8.59227221392">
		<tag k="amenity" v="school" />
		<tag k="name" v="Vang barne- og ungdomsskule" />
		<tag k="ssr:stedsnr" v="767664" />
	</node>
	<node id="-405287" lat="61.169072218" lon="8.74239165976">
		<tag k="name" v="Bakken" />
		<tag k="place" v="farm" />
		<tag k="ssr:stedsnr" v="767471" />
	</node>
	<node id="-405286" lat="61.1235611074" lon="8.54376111065">
		<tag k="name" v="Rødningen" />
		<tag k="place" v="farm" />
		<tag k="ssr:stedsnr" v="767329" />
	</node>
	<node id="-405285" lat="61.1477777789" lon="8.84388888349">
		<tag k="name" v="Reine" />
		<tag k="place" v="farm" />
		<tag k="ssr:stedsnr" v="767281" />
	</node>
	<node id="-405284" lat="61.1462777809" lon="8.84459166853">
		<tag k="name" v="Helle" />
		<tag k="place" v="hamlet" />
		<tag k="ssr:stedsnr" v="767279" />
	</node>
	<node id="-405282" lat="61.045258334" lon="8.65322221946">
		<tag k="name" v="Nørdre Helestrønd" />
		<tag k="place" v="locality" />
		<tag k="ssr:stedsnr" v="909448" />
	</node>
	<node id="-405278" lat="61.2085305559" lon="8.2291583344">
		<tag k="historic" v="shieling" />
		<tag k="name" v="Svingen" />
		<tag k="place" v="locality" />
		<tag k="ssr:stedsnr" v="908224" />
	</node>
	<node id="-405276" lat="61.2005472188" lon="8.25685556246">
		<tag k="name" v="Tubba" />
		<tag k="place" v="isolated_dwelling" />
		<tag k="ssr:stedsnr" v="908216" />
	</node>
	<node id="-405267" lat="61.1585861099" lon="8.66704723146">
		<tag k="building" v="industrial" />
		<tag k="name" v="Ysteriet" />
		<tag k="ssr:stedsnr" v="907888" />
	</node>
	<node id="-404440" lat="61.1552846695" lon="8.80569491561">
		<tag k="alt_name" v="Kvien" />
		<tag k="fixme" v="consider place=hamlet" />
		<tag k="name" v="Kvie" />
		<tag k="place" v="farm" />
		<tag k="ssr:stedsnr" v="249243" />
	</node>
	<node id="-405261" lat="61.0768055545" lon="8.60198611135">
		<tag k="historic" v="shieling" />
		<tag k="name" v="Lutajordo" />
		<tag k="place" v="locality" />
		<tag k="ssr:stedsnr" v="907546" />
	</node>
	<node id="-404439" lat="61.0650611076" lon="8.5969805502">
		<tag k="historic" v="shieling" />
		<tag k="name" v="Strønde" />
		<tag k="place" v="locality" />
		<tag k="ssr:stedsnr" v="249401" />
	</node>
	<node id="-405252" lat="61.1680527803" lon="8.33579166673">
		<tag k="name" v="Lialøa" />
		<tag k="place" v="locality" />
		<tag k="ssr:stedsnr" v="907215" />
	</node>
	<node id="-405247" lat="61.152033329" lon="8.76465278639">
		<tag k="name" v="Heggelund" />
		<tag k="place" v="isolated_dwelling" />
		<tag k="ssr:stedsnr" v="907159" />
	</node>
	<node id="-405242" lat="61.1209833327" lon="8.58490832636">
		<tag k="name" v="Grøv" />
		<tag k="place" v="farm" />
		<tag k="ssr:stedsnr" v="726821" />
	</node>
	<node id="-405235" lat="61.1564000036" lon="8.76284723139">
		<tag k="name" v="Bøkko" />
		<tag k="place" v="isolated_dwelling" />
		<tag k="ssr:stedsnr" v="725166" />
	</node>
	<node id="-404434" lat="61.2007976873" lon="8.37024231977">
		<tag k="alt_name" v="Grov" />
		<tag k="name" v="Søre Grøv" />
		<tag k="place" v="farm" />
		<tag k="ssr:stedsnr" v="70543" />
	</node>
	<node id="-405225" lat="61.1714138857" lon="8.41147221848">
		<tag k="alt_name" v="Sjøre" />
		<tag k="name" v="Skjøre" />
		<tag k="place" v="farm" />
		<tag k="ssr:stedsnr" v="702122" />
	</node>
	<node id="-405224" lat="61.1331833322" lon="8.62188332556">
		<tag k="name" v="Øvre Lajord" />
		<tag k="place" v="farm" />
		<tag k="ssr:stedsnr" v="890216" />
	</node>
	<node id="-405223" lat="61.1415611078" lon="8.61934999745">
		<tag k="building" v="industrial" />
		<tag k="name" v="Synshagin lagerplass" />
		<tag k="ssr:stedsnr" v="890186" />
	</node>
	<node id="-405222" lat="61.1678055591" lon="8.67511111467">
		<tag k="name" v="Ro" />
		<tag k="place" v="isolated_dwelling" />
		<tag k="ssr:stedsnr" v="890032" />
	</node>
	<node id="-405221" lat="61.1790249986" lon="8.72670556364">
		<tag k="name" v="Løkreimshaugen" />
		<tag k="place" v="farm" />
		<tag k="ssr:stedsnr" v="889968" />
	</node>
	<node id="-405216" lat="61.1461027795" lon="8.61948054835">
		<tag k="name" v="Hella" />
		<tag k="place" v="isolated_dwelling" />
		<tag k="ssr:stedsnr" v="889725" />
	</node>
	<node id="-404322" lat="61.1863694479" lon="8.76099166626">
		<tag k="historic" v="shieling" />
		<tag k="name" v="Bakkestøl" />
		<tag k="place" v="locality" />
		<tag k="ssr:stedsnr" v="221445" />
	</node>
	<node id="-405200" lat="61.1544694451" lon="8.4826083252">
		<tag k="name" v="Raunestølen" />
		<tag k="place" v="farm" />
		<tag k="ssr:stedsnr" v="889466" />
	</node>
	<node id="-405188" lat="61.2264333307" lon="8.81762499725">
		<tag k="historic" v="shieling" />
		<tag k="name" v="Kjøsastøl" />
		<tag k="place" v="locality" />
		<tag k="ssr:stedsnr" v="888452" />
	</node>
	<node id="-405186" lat="61.1536444435" lon="8.80272500248">
		<tag k="name" v="Kvien" />
		<tag k="place" v="farm" />
		<tag k="ssr:stedsnr" v="888400" />
	</node>
	<node id="-405183" lat="61.1807666688" lon="8.7523749926">
		<tag k="name" v="Massaøygarden" />
		<tag k="place" v="locality" />
		<tag k="ssr:stedsnr" v="888442" />
	</node>
	<node id="-405182" lat="61.1863777769" lon="8.68072500623">
		<tag k="name" v="Tørvehuset" />
		<tag k="place" v="locality" />
		<tag k="ssr:stedsnr" v="888072" />
	</node>
	<node id="-405181" lat="61.195099998" lon="8.67274444484">
		<tag k="historic" v="shieling" />
		<tag k="name" v="Herstadstølen" />
		<tag k="place" v="locality" />
		<tag k="ssr:stedsnr" v="888065" />
	</node>
	<node id="-405179" lat="61.1822500021" lon="8.08937777233">
		<tag k="alt_name" v="Grønnelistølen" />
		<tag k="historic" v="shieling" />
		<tag k="name" v="Grønlistølen" />
		<tag k="place" v="locality" />
		<tag k="ssr:stedsnr" v="676873" />
	</node>
	<node id="-405177" lat="60.9648527772" lon="8.65726388513">
		<tag k="alt_name" v="Øynadn" />
		<tag k="historic" v="shieling" />
		<tag k="name" v="Øynannstølen" />
		<tag k="place" v="locality" />
		<tag k="ssr:stedsnr" v="676758" />
	</node>
	<node id="-405171" lat="61.1256861069" lon="8.59656110341">
		<tag k="name" v="Kvåle" />
		<tag k="place" v="farm" />
		<tag k="ssr:stedsnr" v="674277" />
	</node>
	<node id="-405170" lat="61.1339583333" lon="8.69657500196">
		<tag k="historic" v="shieling" />
		<tag k="name" v="Hugastølen" />
		<tag k="old_name" v="Haugastølen" />
		<tag k="place" v="locality" />
		<tag k="ssr:stedsnr" v="674275" />
	</node>
	<node id="-405168" lat="61.132666668" lon="8.85985555946">
		<tag k="name" v="Hålimo" />
		<tag k="place" v="isolated_dwelling" />
		<tag k="ssr:stedsnr" v="674109" />
	</node>
	<node id="-405167" lat="61.194208334" lon="8.87098333264">
		<tag k="historic" v="shieling" />
		<tag k="name" v="Hellestølen" />
		<tag k="place" v="locality" />
		<tag k="ssr:stedsnr" v="674007" />
	</node>
	<node id="-405161" lat="61.1656916708" lon="8.8071027809">
		<tag k="alt_name" v="Krokostølen" />
		<tag k="historic" v="shieling" />
		<tag k="name" v="Krokostøladen" />
		<tag k="place" v="locality" />
		<tag k="ssr:stedsnr" v="664350" />
	</node>
	<node id="-405158" lat="61.1620416696" lon="8.68266112032">
		<tag k="loc_name" v="Nørsvin" />
		<tag k="name" v="Norsvin" />
		<tag k="place" v="farm" />
		<tag k="ssr:stedsnr" v="658266" />
	</node>
	<node id="-405156" lat="61.2412277779" lon="8.74002500048">
		<tag k="historic" v="shieling" />
		<tag k="name" v="Raften" />
		<tag k="place" v="locality" />
		<tag k="ssr:stedsnr" v="735739" />
	</node>
	<node id="-405151" lat="61.1753801937" lon="8.68369170631">
		<tag k="fixme" v="consider place=hamlet" />
		<tag k="name" v="Fygle" />
		<tag k="place" v="farm" />
		<tag k="ssr:stedsnr" v="735696" />
	</node>
	<node id="-405149" lat="61.1196250009" lon="8.38876944359">
		<tag k="historic" v="shieling" />
		<tag k="name" v="Soleistølen" />
		<tag k="place" v="locality" />
		<tag k="ssr:stedsnr" v="735676" />
	</node>
	<node id="-405148" lat="61.1616083326" lon="8.36437499254">
		<tag k="historic" v="shieling" />
		<tag k="name" v="Listølane" />
		<tag k="place" v="locality" />
		<tag k="ssr:stedsnr" v="735654" />
	</node>
	<node id="-405143" lat="61.180705559" lon="8.390583337">
		<tag k="alt_name" v="Dalen, nedre" />
		<tag k="name" v="Nedre Dalen" />
		<tag k="place" v="hamlet" />
		<tag k="ssr:stedsnr" v="735559" />
	</node>
	<node id="-405142" lat="61.1810555515" lon="8.38977499813">
		<tag k="name" v="Hagen" />
		<tag k="place" v="isolated_dwelling" />
		<tag k="ssr:stedsnr" v="735557" />
	</node>
	<node id="-405141" lat="61.2096361093" lon="8.85558611997">
		<tag k="historic" v="shieling" />
		<tag k="name" v="Kvålestølane" />
		<tag k="place" v="locality" />
		<tag k="ssr:stedsnr" v="735474" />
	</node>
	<node id="-405132" lat="61.1332861124" lon="8.6197472225">
		<tag k="alt_name" v="Lajord" />
		<tag k="name" v="Nedre Lajord" />
		<tag k="place" v="farm" />
		<tag k="ssr:stedsnr" v="735335" />
	</node>
	<node id="-405131" lat="61.1480897829" lon="8.823290593">
		<tag k="fixme" v="consider place=hamlet" />
		<tag k="name" v="Framstad" />
		<tag k="place" v="farm" />
		<tag k="ssr:stedsnr" v="735319" />
	</node>
	<node id="-405128" lat="61.1481611097" lon="8.60667500876">
		<tag k="alt_name" v="Finset" />
		<tag k="name" v="Finnset" />
		<tag k="place" v="farm" />
		<tag k="ssr:stedsnr" v="735300" />
	</node>
	<node id="-405123" lat="61.1619403992" lon="8.71732190798">
		<tag k="fixme" v="consider place=hamlet" />
		<tag k="name" v="Belsheim" />
		<tag k="place" v="farm" />
		<tag k="ssr:stedsnr" v="735269" />
	</node>
	<node id="-405122" lat="61.1663216371" lon="8.67040202718">
		<tag k="fixme" v="consider place=hamlet" />
		<tag k="name" v="Nefstad" />
		<tag k="place" v="farm" />
		<tag k="ssr:stedsnr" v="735257" />
	</node>
	<node id="-405111" lat="61.1916888899" lon="8.87315278463">
		<tag k="historic" v="shieling" />
		<tag k="name" v="Sonstølen" />
		<tag k="place" v="locality" />
		<tag k="ssr:stedsnr" v="735008" />
	</node>
	<node id="-405110" lat="61.1288833369" lon="8.53494166913">
		<tag k="name" v="Leite" />
		<tag k="place" v="isolated_dwelling" />
		<tag k="ssr:stedsnr" v="646693" />
	</node>
	<node id="-405108" lat="61.1812499971" lon="8.72125833794">
		<tag k="name" v="Løkreim" />
		<tag k="place" v="farm" />
		<tag k="ssr:stedsnr" v="646718" />
	</node>
	<node id="-405103" lat="61.1535166678" lon="8.55005832972">
		<tag k="amenity" v="school" />
		<tag k="name" v="Vennis skule" />
		<tag k="ssr:stedsnr" v="645701" />
	</node>
	<node id="-405101" lat="61.1695972187" lon="8.39420833685">
		<tag k="name" v="Nedre Eltun" />
		<tag k="place" v="farm" />
		<tag k="ssr:stedsnr" v="645466" />
	</node>
	<node id="-405100" lat="61.170161109" lon="8.39151389103">
		<tag k="name" v="Søre Kjerrstein" />
		<tag k="place" v="farm" />
		<tag k="ssr:stedsnr" v="645464" />
	</node>
	<node id="-405099" lat="61.1268416653" lon="8.53172222393">
		<tag k="name" v="Nedre Stele" />
		<tag k="place" v="farm" />
		<tag k="ssr:stedsnr" v="727743" />
	</node>
	<node id="-405098" lat="61.1291222206" lon="8.53915000419">
		<tag k="name" v="Søre Bergji" />
		<tag k="place" v="farm" />
		<tag k="ssr:stedsnr" v="727739" />
	</node>
	<node id="-405096" lat="61.1690361081" lon="8.35821666998">
		<tag k="historic" v="shieling" />
		<tag k="name" v="Laukestølen" />
		<tag k="place" v="locality" />
		<tag k="ssr:stedsnr" v="726307" />
	</node>
	<node id="-405095" lat="61.1702416643" lon="8.37938055536">
		<tag k="name" v="Laramsbu" />
		<tag k="place" v="locality" />
		<tag k="ssr:stedsnr" v="726302" />
	</node>
	<node id="-405094" lat="61.1873472218" lon="8.20433610755">
		<tag k="historic" v="shieling" />
		<tag k="name" v="Grinde" />
		<tag k="place" v="locality" />
		<tag k="ssr:stedsnr" v="726284" />
	</node>
	<node id="-405091" lat="61.1544138913" lon="8.80400000799">
		<tag k="name" v="Kvien" />
		<tag k="place" v="farm" />
		<tag k="ssr:stedsnr" v="726406" />
	</node>
	<node id="-405088" lat="61.2066333348" lon="8.33769722707">
		<tag k="name" v="Poststøga" />
		<tag k="place" v="locality" />
		<tag k="ssr:stedsnr" v="726371" />
	</node>
	<node id="-405080" lat="61.2068194426" lon="8.23002500473">
		<tag k="amenity" v="school" />
		<tag k="name" v="Høgeset Leirskule" />
		<tag k="ssr:stedsnr" v="726235" />
	</node>
	<node id="-405076" lat="61.0726972245" lon="8.54218055269">
		<tag k="name" v="Reinsbue" />
		<tag k="place" v="isolated_dwelling" />
		<tag k="ssr:stedsnr" v="725535" />
	</node>
	<node id="-405074" lat="61.1487460811" lon="8.82240504273">
		<tag k="name" v="Nygard" />
		<tag k="place" v="farm" />
		<tag k="ssr:stedsnr" v="725301" />
	</node>
	<node id="-405068" lat="61.2091944439" lon="8.86602222362">
		<tag k="historic" v="shieling" />
		<tag k="name" v="Kvålstøl" />
		<tag k="place" v="locality" />
		<tag k="ssr:stedsnr" v="722942" />
	</node>
	<node id="-405067" lat="61.209636115" lon="8.86506110637">
		<tag k="historic" v="shieling" />
		<tag k="name" v="Leitestøl" />
		<tag k="place" v="locality" />
		<tag k="ssr:stedsnr" v="722941" />
	</node>
	<node id="-405066" lat="61.1960972238" lon="8.3837388896">
		<tag k="alt_name" v="Nørdre Strønd;Strond, nordre" />
		<tag k="name" v="Nørdre Strond" />
		<tag k="place" v="farm" />
		<tag k="ssr:stedsnr" v="722592" />
	</node>
	<node id="-405065" lat="61.2756277819" lon="8.70440000798">
		<tag k="name" v="Buidn" />
		<tag k="place" v="locality" />
		<tag k="ssr:stedsnr" v="722151" />
	</node>
	<node id="-405064" lat="61.2364277758" lon="8.75391111726">
		<tag k="historic" v="shieling" />
		<tag k="name" v="Holøstøl" />
		<tag k="place" v="locality" />
		<tag k="ssr:stedsnr" v="721764" />
	</node>
	<node id="-405063" lat="61.2086250751" lon="8.33902497818">
		<tag k="alt_name" v="Opdalsgardadn" />
		<tag k="fixme" v="consider place=hamlet" />
		<tag k="name" v="Uppdal" />
		<tag k="place" v="farm" />
		<tag k="ssr:stedsnr" v="616621" />
	</node>
	<node id="-405062" lat="61.2065599338" lon="8.36020604089">
		<tag k="alt_name" v="Grehamar" />
		<tag k="fixme" v="consider place=hamlet" />
		<tag k="name" v="Grihamar" />
		<tag k="place" v="farm" />
		<tag k="ssr:stedsnr" v="616620" />
	</node>
	<node id="-405053" lat="61.3272916693" lon="8.75414166455">
		<tag k="name" v="Bygdisheim" />
		<tag k="place" v="isolated_dwelling" />
		<tag k="ssr:stedsnr" v="614160" />
	</node>
	<node id="-405052" lat="61.2892416648" lon="8.70290277204">
		<tag k="historic" v="shieling" />
		<tag k="name" v="Seksin" />
		<tag k="place" v="locality" />
		<tag k="ssr:stedsnr" v="614207" />
	</node>
	<node id="-405049" lat="61.2362027795" lon="8.75120556218">
		<tag k="historic" v="shieling" />
		<tag k="name" v="Høla" />
		<tag k="place" v="locality" />
		<tag k="ssr:stedsnr" v="613737" />
	</node>
	<node id="-404404" lat="61.2532333334" lon="8.20298056118">
		<tag k="fixme" v="consider tourism=alpine_hut or tourism=chalet" />
		<tag k="name" v="Tyinstølen" />
		<tag k="ssr:stedsnr" v="240614" />
		<tag k="tourism" v="wilderness_hut" />
	</node>
	<node id="-405043" lat="61.0799250041" lon="8.60266666503">
		<tag k="historic" v="shieling" />
		<tag k="name" v="Tunestølane" />
		<tag k="place" v="locality" />
		<tag k="ssr:stedsnr" v="613415" />
	</node>
	<node id="-405038" lat="61.2052638903" lon="8.2361527869">
		<tag k="historic" v="shieling" />
		<tag k="name" v="Slette" />
		<tag k="place" v="locality" />
		<tag k="ssr:stedsnr" v="604228" />
	</node>
	<node id="-405034" lat="61.0907388904" lon="8.73054443763">
		<tag k="historic" v="shieling" />
		<tag k="name" v="Brekkestølen" />
		<tag k="place" v="locality" />
		<tag k="ssr:stedsnr" v="603805" />
	</node>
	<node id="-405033" lat="61.0869750004" lon="8.52331111006">
		<tag k="name" v="Gamle Grindebue" />
		<tag k="place" v="locality" />
		<tag k="ssr:stedsnr" v="603584" />
	</node>
	<node id="-405032" lat="61.0918333332" lon="8.59856666062">
		<tag k="name" v="Fossumløa" />
		<tag k="place" v="locality" />
		<tag k="ssr:stedsnr" v="603580" />
	</node>
	<node id="-405031" lat="61.1447277766" lon="8.51212222689">
		<tag k="name" v="Syta" />
		<tag k="place" v="locality" />
		<tag k="ssr:stedsnr" v="603410" />
	</node>
	<node id="-405024" lat="61.142302782" lon="8.79058610264">
		<tag k="name" v="Fredbo" />
		<tag k="place" v="isolated_dwelling" />
		<tag k="ssr:stedsnr" v="603011" />
	</node>
	<node id="-404400" lat="61.2032222203" lon="8.36582778326">
		<tag k="name" v="Suand" />
		<tag k="place" v="isolated_dwelling" />
		<tag k="ssr:stedsnr" v="240486" />
	</node>
	<node id="-405018" lat="61.1764527743" lon="8.73342222722">
		<tag k="name" v="Søre Kungslie" />
		<tag k="place" v="farm" />
		<tag k="ssr:stedsnr" v="585706" />
	</node>
	<node id="-405013" lat="61.1253138888" lon="8.59816111382">
		<tag k="name" v="Kvålsgrende" />
		<tag k="place" v="hamlet" />
		<tag k="ssr:stedsnr" v="585656" />
	</node>
	<node id="-405002" lat="61.2010166695" lon="8.51689443617">
		<tag k="historic" v="shieling" />
		<tag k="name" v="Nørdre Nordlandsstøl" />
		<tag k="place" v="locality" />
		<tag k="ssr:stedsnr" v="707820" />
	</node>
	<node id="-404991" lat="61.127891663" lon="8.54453333143">
		<tag k="name" v="Kjørradn" />
		<tag k="place" v="locality" />
		<tag k="ssr:stedsnr" v="707702" />
	</node>
	<node id="-404989" lat="61.1798416644" lon="8.70459165927">
		<tag k="name" v="Kjølabu" />
		<tag k="place" v="isolated_dwelling" />
		<tag k="ssr:stedsnr" v="707644" />
	</node>
	<node id="-404987" lat="61.1715972206" lon="8.39028610525">
		<tag k="name" v="Rosendal" />
		<tag k="place" v="farm" />
		<tag k="ssr:stedsnr" v="707496" />
	</node>
	<node id="-404984" lat="61.1680750007" lon="8.44959444058">
		<tag k="name" v="Lo" />
		<tag k="place" v="farm" />
		<tag k="ssr:stedsnr" v="707447" />
	</node>
	<node id="-404393" lat="61.1510196321" lon="8.81333376065">
		<tag k="alt_name" v="Vevle" />
		<tag k="name" v="Veflen" />
		<tag k="place" v="hamlet" />
		<tag k="ssr:stedsnr" v="240351" />
	</node>
	<node id="-404976" lat="61.1488416647" lon="8.73964167328">
		<tag k="name" v="Tumleøygarden" />
		<tag k="place" v="locality" />
		<tag k="ssr:stedsnr" v="706993" />
	</node>
	<node id="-404973" lat="61.1884083353" lon="8.75666388121">
		<tag k="historic" v="shieling" />
		<tag k="name" v="Tune støl" />
		<tag k="place" v="locality" />
		<tag k="ssr:stedsnr" v="706450" />
	</node>
	<node id="-404971" lat="61.1475611123" lon="8.83629166798">
		<tag k="name" v="Vossen" />
		<tag k="place" v="farm" />
		<tag k="ssr:stedsnr" v="706287" />
	</node>
	<node id="-404968" lat="61.1673333337" lon="8.40144443968">
		<tag k="alt_name" v="Øye" />
		<tag k="name" v="Søre Øye" />
		<tag k="place" v="farm" />
		<tag k="ssr:stedsnr" v="702085" />
	</node>
	<node id="-404966" lat="61.1939444437" lon="8.2262833249">
		<tag k="alt_name" v="Grehamarstølen" />
		<tag k="name" v="Grihamarstølen" />
		<tag k="place" v="isolated_dwelling" />
		<tag k="ssr:stedsnr" v="555533" />
	</node>
	<node id="-404964" lat="61.1914416642" lon="8.38920000111">
		<tag k="alt_name" v="Skogstadøydgard" />
		<tag k="name" v="Øygarden" />
		<tag k="place" v="farm" />
		<tag k="ssr:stedsnr" v="555525" />
	</node>
	<node id="-404962" lat="61.2016111094" lon="8.23439444718">
		<tag k="name" v="Tyinkrysset" />
		<tag k="place" v="hamlet" />
		<tag k="ssr:stedsnr" v="555516" />
	</node>
	<node id="-404959" lat="61.1668916709" lon="8.72014443963">
		<tag k="name" v="Tune" />
		<tag k="place" v="farm" />
		<tag k="ssr:stedsnr" v="552301" />
	</node>
	<node id="-404958" lat="61.1533844724" lon="8.81251443985">
		<tag k="alt_name" v="Bunde" />
		<tag k="name" v="Søre Bunde" />
		<tag k="place" v="farm" />
		<tag k="ssr:stedsnr" v="552282" />
	</node>
	<node id="-404957" lat="61.2358666624" lon="8.53243611585">
		<tag k="fixme" v="consider tourism=alpine_hut or tourism=chalet" />
		<tag k="name" v="Tomashelleren" />
		<tag k="ssr:stedsnr" v="697885" />
		<tag k="tourism" v="wilderness_hut" />
	</node>
	<node id="-404954" lat="61.2527027737" lon="8.75244166304">
		<tag k="historic" v="shieling" />
		<tag k="name" v="Heenstøl" />
		<tag k="place" v="locality" />
		<tag k="ssr:stedsnr" v="539774" />
	</node>
	<node id="-404948" lat="61.2007138903" lon="8.51561111479">
		<tag k="historic" v="shieling" />
		<tag k="name" v="Leinestøladn" />
		<tag k="place" v="locality" />
		<tag k="ssr:stedsnr" v="525789" />
	</node>
	<node id="-404947" lat="61.0413027758" lon="8.62456666057">
		<tag k="name" v="Møsasete" />
		<tag k="place" v="isolated_dwelling" />
		<tag k="ssr:stedsnr" v="525762" />
	</node>
	<node id="-404943" lat="61.1986166657" lon="8.36451110673">
		<tag k="name" v="Solbakken" />
		<tag k="place" v="farm" />
		<tag k="ssr:stedsnr" v="524366" />
	</node>
	<node id="-404940" lat="61.2094305545" lon="8.85975555119">
		<tag k="historic" v="shieling" />
		<tag k="name" v="Lykkjestøl" />
		<tag k="place" v="locality" />
		<tag k="ssr:stedsnr" v="524409" />
	</node>
	<node id="-404939" lat="61.2786305563" lon="8.1950083308">
		<tag k="name" v="Sætheren" />
		<tag k="place" v="isolated_dwelling" />
		<tag k="ssr:stedsnr" v="499690" />
	</node>
	<node id="-404938" lat="61.1117027813" lon="8.69692222423">
		<tag k="historic" v="shieling" />
		<tag k="name" v="Lajordstølen" />
		<tag k="place" v="locality" />
		<tag k="ssr:stedsnr" v="495905" />
	</node>
	<node id="-404385" lat="61.15703889" lon="8.79316944287">
		<tag k="name" v="Haugen" />
		<tag k="place" v="farm" />
		<tag k="ssr:stedsnr" v="240184" />
	</node>
	<node id="-404919" lat="61.2339250015" lon="8.7671666628">
		<tag k="alt_name" v="Gipestøl" />
		<tag k="historic" v="shieling" />
		<tag k="name" v="Gipestølen" />
		<tag k="place" v="locality" />
		<tag k="ssr:stedsnr" v="674752" />
	</node>
	<node id="-404916" lat="61.1808888846" lon="8.8234361067">
		<tag k="alt_name" v="Bundestølane" />
		<tag k="historic" v="shieling" />
		<tag k="name" v="Bundestølen" />
		<tag k="place" v="locality" />
		<tag k="ssr:stedsnr" v="674720" />
	</node>
	<node id="-404382" lat="61.1274749996" lon="8.77248888595">
		<tag k="historic" v="shieling" />
		<tag k="name" v="Kvishaugen" />
		<tag k="place" v="locality" />
		<tag k="ssr:stedsnr" v="240018" />
	</node>
	<node id="-404913" lat="61.1955583366" lon="8.67052500512">
		<tag k="historic" v="shieling" />
		<tag k="name" v="Nefstadstølen" />
		<tag k="place" v="locality" />
		<tag k="ssr:stedsnr" v="674701" />
	</node>
	<node id="-404906" lat="61.1499629731" lon="8.82163782024">
		<tag k="fixme" v="consider place=hamlet" />
		<tag k="name" v="Berge" />
		<tag k="place" v="farm" />
		<tag k="ssr:stedsnr" v="674293" />
	</node>
	<node id="-404903" lat="61.1422042929" lon="8.84898132897">
		<tag k="alt_name" v="Skjefte, øvre;Skjefte" />
		<tag k="name" v="Øvre Skjefte" />
		<tag k="place" v="farm" />
		<tag k="ssr:stedsnr" v="674090" />
	</node>
	<node id="-404902" lat="61.1507749987" lon="8.885708325">
		<tag k="alt_name" v="Rødvangstøl" />
		<tag k="historic" v="shieling" />
		<tag k="name" v="Rødvangstølen" />
		<tag k="place" v="locality" />
		<tag k="ssr:stedsnr" v="674085" />
	</node>
	<node id="-404901" lat="61.1607250019" lon="8.82419999492">
		<tag k="historic" v="shieling" />
		<tag k="name" v="Vøvlisstølen" />
		<tag k="place" v="locality" />
		<tag k="ssr:stedsnr" v="674248" />
	</node>
	<node id="-404900" lat="61.1572872863" lon="8.63113398819">
		<tag k="fixme" v="consider place=hamlet" />
		<tag k="name" v="Høverstad" />
		<tag k="place" v="farm" />
		<tag k="ssr:stedsnr" v="674247" />
	</node>
	<node id="-404899" lat="61.1523416599" lon="8.55532475538">
		<tag k="fixme" v="consider place=hamlet" />
		<tag k="name" v="Oldre" />
		<tag k="place" v="farm" />
		<tag k="ssr:stedsnr" v="674246" />
	</node>
	<node id="-404897" lat="61.1595510227" lon="8.64189588263">
		<tag k="fixme" v="consider place=hamlet" />
		<tag k="name" v="Remme" />
		<tag k="place" v="farm" />
		<tag k="ssr:stedsnr" v="674240" />
	</node>
	<node id="-404896" lat="61.1577739528" lon="8.66833075966">
		<tag k="fixme" v="multiple name tags, choose one and add the other to alt_name" />
		<tag k="loc_name" v="Odden" />
		<tag k="name" v="Neset;Øddin" />
		<tag k="place" v="hamlet" />
		<tag k="ssr:stedsnr" v="674239" />
	</node>
	<node id="-404895" lat="61.1612344194" lon="8.72253149663">
		<tag k="name" v="Nørdre Jøvne" />
		<tag k="place" v="farm" />
		<tag k="ssr:stedsnr" v="485258" />
	</node>
	<node id="-404878" lat="61.1474000029" lon="8.84146943954">
		<tag k="name" v="Lykkja" />
		<tag k="place" v="farm" />
		<tag k="ssr:stedsnr" v="463274" />
	</node>
	<node id="-404873" lat="61.2072138904" lon="8.35890555554">
		<tag k="name" v="Elvheim" />
		<tag k="place" v="farm" />
		<tag k="ssr:stedsnr" v="665399" />
	</node>
	<node id="-404862" lat="61.1150888874" lon="8.70001666175">
		<tag k="historic" v="shieling" />
		<tag k="name" v="Haugastølen" />
		<tag k="place" v="locality" />
		<tag k="ssr:stedsnr" v="664894" />
	</node>
	<node id="-404852" lat="61.1267027791" lon="8.54646388786">
		<tag k="alt_name" v="Søre Nordigarn" />
		<tag k="name" v="Søre Nordigarden" />
		<tag k="place" v="farm" />
		<tag k="ssr:stedsnr" v="664777" />
	</node>
	<node id="-404850" lat="61.1436083333" lon="8.84570555842">
		<tag k="name" v="Kubakke" />
		<tag k="place" v="farm" />
		<tag k="ssr:stedsnr" v="664174" />
	</node>
	<node id="-404847" lat="61.1945871372" lon="8.38664727256">
		<tag k="alt_name" v="Strond, midtre;Midtre Strønd" />
		<tag k="name" v="Midtre Strond" />
		<tag k="place" v="farm" />
		<tag k="ssr:stedsnr" v="661538" />
	</node>
	<node id="-404846" lat="61.1860861075" lon="8.87080555483">
		<tag k="historic" v="shieling" />
		<tag k="name" v="Skjeftestøl" />
		<tag k="place" v="locality" />
		<tag k="ssr:stedsnr" v="660952" />
	</node>
	<node id="-404842" lat="61.1801305564" lon="8.11770555734">
		<tag k="historic" v="shieling" />
		<tag k="name" v="Kyrkjestølane" />
		<tag k="place" v="locality" />
		<tag k="ssr:stedsnr" v="435607" />
	</node>
	<node id="-404830" lat="61.1127305528" lon="8.69827499547">
		<tag k="historic" v="shieling" />
		<tag k="name" v="Langehage" />
		<tag k="place" v="locality" />
		<tag k="ssr:stedsnr" v="432333" />
	</node>
	<node id="-404829" lat="61.1096194411" lon="8.55223611133">
		<tag k="alt_name" v="Steinsvollstølen" />
		<tag k="historic" v="shieling" />
		<tag k="name" v="Galgesete" />
		<tag k="place" v="locality" />
		<tag k="ssr:stedsnr" v="432307" />
	</node>
	<node id="-404827" lat="61.1460471763" lon="8.56454008676">
		<tag k="fixme" v="consider place=hamlet" />
		<tag k="name" v="Sparstad" />
		<tag k="place" v="farm" />
		<tag k="ssr:stedsnr" v="432244" />
	</node>
	<node id="-404826" lat="61.141457432" lon="8.84773649851">
		<tag k="alt_name" v="Skjefte, nedre;Skjefte" />
		<tag k="name" v="Nedre Skjefte" />
		<tag k="place" v="farm" />
		<tag k="ssr:stedsnr" v="431108" />
	</node>
	<node id="-404821" lat="61.1553777813" lon="8.80846945347">
		<tag k="name" v="Nørdre Bunde" />
		<tag k="place" v="farm" />
		<tag k="ssr:stedsnr" v="423425" />
	</node>
	<node id="-404820" lat="61.1317083311" lon="8.62069444427">
		<tag k="name" v="Klettadn" />
		<tag k="place" v="farm" />
		<tag k="ssr:stedsnr" v="423237" />
	</node>
	<node id="-404817" lat="61.0951694485" lon="8.72406666921">
		<tag k="historic" v="shieling" />
		<tag k="name" v="Haugenstøl" />
		<tag k="place" v="locality" />
		<tag k="ssr:stedsnr" v="422834" />
	</node>
	<node id="-404811" lat="61.1489042657" lon="8.81996313034">
		<tag k="fixme" v="consider place=hamlet" />
		<tag k="name" v="Kvål" />
		<tag k="place" v="farm" />
		<tag k="ssr:stedsnr" v="422313" />
	</node>
	<node id="-404810" lat="61.1350583294" lon="8.79138334171">
		<tag k="name" v="Gjerdingen" />
		<tag k="place" v="farm" />
		<tag k="ssr:stedsnr" v="422023" />
	</node>
	<node id="-404805" lat="61.1262115048" lon="8.54828729474">
		<tag k="alt_name" v="Nigarn" />
		<tag k="name" v="Nigarden" />
		<tag k="place" v="farm" />
		<tag k="ssr:stedsnr" v="406754" />
	</node>
	<node id="-404804" lat="61.1258583291" lon="8.57920278644">
		<tag k="amenity" v="kindergarten" />
		<tag k="name" v="Fredheim" />
		<tag k="ssr:stedsnr" v="406416" />
	</node>
	<node id="-404803" lat="61.1773583323" lon="8.69407222008">
		<tag k="name" v="Midt-Givre" />
		<tag k="place" v="farm" />
		<tag k="ssr:stedsnr" v="404632" />
	</node>
	<node id="-404790" lat="61.1892666706" lon="8.74103888432">
		<tag k="historic" v="shieling" />
		<tag k="name" v="Kongslistølen" />
		<tag k="place" v="locality" />
		<tag k="ssr:stedsnr" v="403015" />
	</node>
	<node id="-404361" lat="61.1253844604" lon="8.56676812539">
		<tag k="name" v="Grann hotell" />
		<tag k="old_name" v="Grindaheim Turisthotell;Summarhotellet" />
		<tag k="ssr:stedsnr" v="39623" />
		<tag k="tourism" v="hotel" />
	</node>
	<node id="-404785" lat="61.3756388868" lon="8.29964167434">
		<tag k="name" v="Eidsbugarden" />
		<tag k="ssr:stedsnr" v="371827" />
		<tag k="tourism" v="hotel" />
	</node>
	<node id="-404783" lat="61.1048111105" lon="8.42344999699">
		<tag k="historic" v="shieling" />
		<tag k="name" v="Bergsstølane" />
		<tag k="place" v="locality" />
		<tag k="ssr:stedsnr" v="371668" />
	</node>
	<node id="-404779" lat="61.1703888903" lon="8.83400000001">
		<tag k="historic" v="shieling" />
		<tag k="name" v="Kvålstølen" />
		<tag k="place" v="locality" />
		<tag k="ssr:stedsnr" v="371715" />
	</node>
	<node id="-404778" lat="61.1777666636" lon="8.7881916676">
		<tag k="alt_name" v="Kviestølane" />
		<tag k="historic" v="shieling" />
		<tag k="name" v="Kviestølen" />
		<tag k="place" v="locality" />
		<tag k="ssr:stedsnr" v="371711" />
	</node>
	<node id="-404777" lat="61.1758126899" lon="8.77068135804">
		<tag k="alt_name" v="Kjørlien" />
		<tag k="fixme" v="consider place=hamlet" />
		<tag k="name" v="Kjørlii" />
		<tag k="place" v="farm" />
		<tag k="ssr:stedsnr" v="371710" />
	</node>
	<node id="-404776" lat="61.1784219309" lon="8.70233452751">
		<tag k="fixme" v="consider place=hamlet" />
		<tag k="name" v="Dal" />
		<tag k="place" v="farm" />
		<tag k="ssr:stedsnr" v="371708" />
	</node>
	<node id="-404775" lat="61.1235555564" lon="8.56365833854">
		<tag k="name" v="Lund" />
		<tag k="place" v="farm" />
		<tag k="ssr:stedsnr" v="371307" />
	</node>
	<node id="-404774" lat="61.1242861144" lon="8.59036110751">
		<tag k="alt_name" v="Tune" />
		<tag k="name" v="Søre Tune" />
		<tag k="place" v="farm" />
		<tag k="ssr:stedsnr" v="371303" />
	</node>
	<node id="-404773" lat="61.0225305555" lon="8.59832778199">
		<tag k="historic" v="shieling" />
		<tag k="name" v="Midtre Smådalen" />
		<tag k="place" v="locality" />
		<tag k="ssr:stedsnr" v="371410" />
	</node>
	<node id="-404772" lat="61.128804893" lon="8.60328748027">
		<tag k="alt_name" v="Kattevolsgaradn" />
		<tag k="name" v="Kattevål" />
		<tag k="place" v="hamlet" />
		<tag k="ssr:stedsnr" v="371272" />
	</node>
	<node id="-404771" lat="61.1365861071" lon="8.6399999985">
		<tag k="alt_name" v="Smørhola" />
		<tag k="historic" v="shieling" />
		<tag k="name" v="Smørhøla" />
		<tag k="place" v="locality" />
		<tag k="ssr:stedsnr" v="371271" />
	</node>
	<node id="-404770" lat="61.1342749981" lon="8.72443333194">
		<tag k="historic" v="shieling" />
		<tag k="name" v="Røgnstølen" />
		<tag k="place" v="locality" />
		<tag k="ssr:stedsnr" v="371265" />
	</node>
	<node id="-404764" lat="61.1988510286" lon="8.37775087635">
		<tag k="fixme" v="consider place=hamlet" />
		<tag k="name" v="Kasa" />
		<tag k="place" v="farm" />
		<tag k="ssr:stedsnr" v="495562" />
	</node>
	<node id="-404749" lat="61.1709867499" lon="8.67364145946">
		<tag k="fixme" v="consider place=hamlet" />
		<tag k="name" v="Austreim" />
		<tag k="place" v="farm" />
		<tag k="ssr:stedsnr" v="492690" />
	</node>
	<node id="-404747" lat="61.1656805573" lon="8.4922444479">
		<tag k="name" v="Døtten" />
		<tag k="place" v="locality" />
		<tag k="ssr:stedsnr" v="492687" />
	</node>
	<node id="-404741" lat="61.1885666672" lon="8.75051944256">
		<tag k="historic" v="shieling" />
		<tag k="name" v="Tørpegardstølane" />
		<tag k="place" v="locality" />
		<tag k="ssr:stedsnr" v="492667" />
	</node>
	<node id="-404737" lat="61.1655861077" lon="8.3756277799">
		<tag k="historic" v="shieling" />
		<tag k="name" v="Teigaøydgarden" />
		<tag k="place" v="locality" />
		<tag k="ssr:stedsnr" v="361306" />
	</node>
	<node id="-404726" lat="61.0726916652" lon="8.61040555723">
		<tag k="name" v="Vassenden" />
		<tag k="place" v="locality" />
		<tag k="ssr:stedsnr" v="492386" />
	</node>
	<node id="-404722" lat="61.1244827038" lon="8.55617453072">
		<tag k="fixme" v="consider place=hamlet" />
		<tag k="name" v="Steinsvoll" />
		<tag k="place" v="farm" />
		<tag k="ssr:stedsnr" v="492319" />
	</node>
	<node id="-404721" lat="61.1298527781" lon="8.74671389544">
		<tag k="historic" v="shieling" />
		<tag k="name" v="Verpilstølen" />
		<tag k="place" v="locality" />
		<tag k="ssr:stedsnr" v="492310" />
	</node>
	<node id="-404720" lat="61.1333310304" lon="8.72304010861">
		<tag k="historic" v="shieling" />
		<tag k="name" v="Tørpestølen" />
		<tag k="place" v="locality" />
		<tag k="ssr:stedsnr" v="492308" />
	</node>
	<node id="-404719" lat="61.1311500039" lon="8.62424166266">
		<tag k="name" v="Søyne" />
		<tag k="place" v="farm" />
		<tag k="ssr:stedsnr" v="492305" />
	</node>
	<node id="-404717" lat="61.1085000002" lon="8.68111666587">
		<tag k="historic" v="shieling" />
		<tag k="name" v="Syndisstølane" />
		<tag k="place" v="locality" />
		<tag k="ssr:stedsnr" v="492301" />
	</node>
	<node id="-404716" lat="61.1320861094" lon="8.60511111816">
		<tag k="alt_name" v="Myre" />
		<tag k="name" v="Nørdre Myre" />
		<tag k="place" v="farm" />
		<tag k="ssr:stedsnr" v="492263" />
	</node>
	<node id="-404715" lat="61.1645694462" lon="8.63319445032">
		<tag k="historic" v="shieling" />
		<tag k="name" v="Møsåkerstølen" />
		<tag k="place" v="locality" />
		<tag k="ssr:stedsnr" v="492242" />
	</node>
	<node id="-404714" lat="61.1678611081" lon="8.6642194439">
		<tag k="name" v="Hugasyn hyttegrend" />
		<tag k="ssr:stedsnr" v="492230" />
		<tag k="tourism" v="camp_site" />
	</node>
	<node id="-404713" lat="61.1587249968" lon="8.76538334164">
		<tag k="name" v="Hola" />
		<tag k="place" v="isolated_dwelling" />
		<tag k="ssr:stedsnr" v="492229" />
	</node>
	<node id="-404712" lat="61.1591006716" lon="8.61205356469">
		<tag k="alt_name" v="Finsetstølen" />
		<tag k="historic" v="shieling" />
		<tag k="name" v="Finnsetstølen" />
		<tag k="old_name" v="Knappen" />
		<tag k="place" v="locality" />
		<tag k="ssr:stedsnr" v="492215" />
	</node>
	<node id="-404704" lat="61.1458138877" lon="8.50952222933">
		<tag k="name" v="Nordlandseidet" />
		<tag k="place" v="locality" />
		<tag k="ssr:stedsnr" v="345055" />
	</node>
	<node id="-404702" lat="61.1227517623" lon="8.58147173503">
		<tag k="fixme" v="consider place=hamlet" />
		<tag k="name" v="Baggetun" />
		<tag k="place" v="farm" />
		<tag k="ssr:stedsnr" v="483839" />
	</node>
	<node id="-404305" lat="61.1941055556" lon="8.69995833919">
		<tag k="historic" v="shieling" />
		<tag k="name" v="Springarstølen" />
		<tag k="place" v="locality" />
		<tag k="ssr:stedsnr" v="221047" />
	</node>
	<node id="-404689" lat="61.1274055554" lon="8.5858444392">
		<tag k="name" v="Søvelheim" />
		<tag k="place" v="isolated_dwelling" />
		<tag k="ssr:stedsnr" v="482399" />
	</node>
	<node id="-406428" lat="61.1328250015" lon="8.53317500078">
		<tag k="name" v="Nedre Hagen" />
		<tag k="place" v="farm" />
		<tag k="ssr:stedsnr" v="787725" />
	</node>
	<node id="-404679" lat="61.2099305597" lon="8.86315000148">
		<tag k="historic" v="shieling" />
		<tag k="name" v="Nygardstøl" />
		<tag k="place" v="locality" />
		<tag k="ssr:stedsnr" v="479946" />
	</node>
	<node id="-404676" lat="61.2523166633" lon="8.75608889382">
		<tag k="historic" v="shieling" />
		<tag k="name" v="Heenstøl" />
		<tag k="place" v="locality" />
		<tag k="ssr:stedsnr" v="478793" />
	</node>
	<node id="-404672" lat="61.1953916349" lon="8.38552078425">
		<tag k="alt_name" v="Strand" />
		<tag k="fixme" v="consider place=hamlet" />
		<tag k="loc_name" v="Strønd" />
		<tag k="name" v="Strond" />
		<tag k="place" v="farm" />
		<tag k="ssr:stedsnr" v="471842" />
	</node>
	<node id="-404668" lat="61.1270750042" lon="8.60159166684">
		<tag k="name" v="Håverstad" />
		<tag k="place" v="farm" />
		<tag k="ssr:stedsnr" v="302302" />
	</node>
	<node id="-404667" lat="61.124580516" lon="8.56697483217">
		<tag k="fixme" v="consider place=hamlet" />
		<tag k="name" v="Haugadn" />
		<tag k="place" v="farm" />
		<tag k="ssr:stedsnr" v="301805" />
	</node>
	<node id="-404666" lat="61.1234145061" lon="8.59442772916">
		<tag k="alt_name" v="Uppågardn" />
		<tag k="name" v="Oppågarden" />
		<tag k="place" v="locality" />
		<tag k="ssr:stedsnr" v="301803" />
	</node>
	<node id="-404340" lat="61.1784027823" lon="8.70032778538">
		<tag k="name" v="Vårlund" />
		<tag k="place" v="isolated_dwelling" />
		<tag k="ssr:stedsnr" v="222600" />
	</node>
	<node id="-404658" lat="61.1984027797" lon="8.36540278615">
		<tag k="name" v="Kasaøydgarden" />
		<tag k="place" v="isolated_dwelling" />
		<tag k="ssr:stedsnr" v="300452" />
	</node>
	<node id="-404339" lat="61.1343277789" lon="8.61356944527">
		<tag k="name" v="Sy Hauge" />
		<tag k="place" v="farm" />
		<tag k="ssr:stedsnr" v="222179" />
	</node>
	<node id="-404655" lat="61.1730277749" lon="8.6969388803">
		<tag k="amenity" v="kindergarten" />
		<tag k="name" v="Åsvang barnehage" />
		<tag k="ssr:stedsnr" v="465632" />
	</node>
	<node id="-404654" lat="61.1707055548" lon="8.6901388836">
		<tag k="name" v="Gjerdinge" />
		<tag k="place" v="farm" />
		<tag k="ssr:stedsnr" v="465630" />
	</node>
	<node id="-404648" lat="61.1788666686" lon="8.39060278285">
		<tag k="building" v="industrial" />
		<tag k="name" v="Mølla" />
		<tag k="ssr:stedsnr" v="464436" />
	</node>
	<node id="-404644" lat="61.1594611123" lon="8.77843054911">
		<tag k="name" v="Kjøs" />
		<tag k="place" v="farm" />
		<tag k="ssr:stedsnr" v="463422" />
	</node>
	<node id="-404643" lat="61.0925472191" lon="8.72113056182">
		<tag k="historic" v="shieling" />
		<tag k="name" v="Kviisstøladn" />
		<tag k="place" v="locality" />
		<tag k="ssr:stedsnr" v="463418" />
	</node>
	<node id="-404642" lat="61.172913892" lon="8.80544999542">
		<tag k="historic" v="shieling" />
		<tag k="name" v="Kjøsamarkstøl" />
		<tag k="place" v="locality" />
		<tag k="ssr:stedsnr" v="463246" />
	</node>
	<node id="-404636" lat="61.1980972215" lon="8.66858611199">
		<tag k="historic" v="shieling" />
		<tag k="name" v="Torstadstølen" />
		<tag k="place" v="locality" />
		<tag k="ssr:stedsnr" v="463065" />
	</node>
	<node id="-404634" lat="61.1057277735" lon="8.68162499335">
		<tag k="historic" v="shieling" />
		<tag k="name" v="Nørdre Syndin" />
		<tag k="place" v="locality" />
		<tag k="ssr:stedsnr" v="249369" />
	</node>
	<node id="-404631" lat="61.1264500022" lon="8.59933610556">
		<tag k="name" v="Valstad" />
		<tag k="place" v="farm" />
		<tag k="ssr:stedsnr" v="241260" />
	</node>
	<node id="-404628" lat="61.1144527813" lon="8.69932499949">
		<tag k="historic" v="shieling" />
		<tag k="name" v="Gilastølen" />
		<tag k="place" v="locality" />
		<tag k="ssr:stedsnr" v="240905" />
	</node>
	<node id="-404615" lat="61.1735138924" lon="8.85024999342">
		<tag k="historic" v="shieling" />
		<tag k="name" v="Tørstadstølen" />
		<tag k="place" v="locality" />
		<tag k="ssr:stedsnr" v="189022" />
	</node>
	<node id="-404611" lat="61.1538749955" lon="8.57546388415">
		<tag k="historic" v="shieling" />
		<tag k="name" v="Hamrisstølen" />
		<tag k="place" v="locality" />
		<tag k="ssr:stedsnr" v="287949" />
	</node>
	<node id="-404609" lat="61.170397218" lon="8.32114444509">
		<tag k="name" v="Stakkstøbu" />
		<tag k="place" v="isolated_dwelling" />
		<tag k="ssr:stedsnr" v="180407" />
	</node>
	<node id="-404600" lat="61.1264916683" lon="8.77431389281">
		<tag k="historic" v="shieling" />
		<tag k="name" v="Brekkestøl" />
		<tag k="place" v="locality" />
		<tag k="ssr:stedsnr" v="179021" />
	</node>
	<node id="-404599" lat="61.1758472246" lon="8.74101388274">
		<tag k="historic" v="shieling" />
		<tag k="name" v="Lyberg" />
		<tag k="place" v="locality" />
		<tag k="ssr:stedsnr" v="283859" />
	</node>
	<node id="-404598" lat="61.1814749999" lon="8.69648611203">
		<tag k="name" v="Søre-Givre" />
		<tag k="place" v="farm" />
		<tag k="ssr:stedsnr" v="283634" />
	</node>
	<node id="-404597" lat="61.1690611087" lon="8.65978333445">
		<tag k="name" v="Haukli" />
		<tag k="place" v="farm" />
		<tag k="ssr:stedsnr" v="283021" />
	</node>
	<node id="-404596" lat="61.1684861139" lon="8.6703472305">
		<tag k="name" v="Brattli" />
		<tag k="place" v="farm" />
		<tag k="ssr:stedsnr" v="283015" />
	</node>
	<node id="-404584" lat="61.125644449" lon="8.57175555746">
		<tag k="amenity" v="nursing_home" />
		<tag k="name" v="Vangsheimen" />
		<tag k="ssr:stedsnr" v="282647" />
	</node>
	<node id="-404573" lat="61.2049944415" lon="8.35358611443">
		<tag k="name" v="Skogstadstølen" />
		<tag k="place" v="farm" />
		<tag k="ssr:stedsnr" v="282400" />
	</node>
	<node id="-406619" lat="61.1420675328" lon="8.84731498144">
		<tag k="fixme" v="consider place=hamlet" />
		<tag k="name" v="Skjefte" />
		<tag k="place" v="farm" />
		<tag k="ssr:stedsnr" v="986630" />
	</node>
	<node id="-406618" lat="61.1649658653" lon="8.67420274007">
		<tag k="fixme" v="consider place=hamlet" />
		<tag k="name" v="Brekka" />
		<tag k="place" v="farm" />
		<tag k="ssr:stedsnr" v="986601" />
	</node>
	<node id="-406617" lat="61.1501866378" lon="8.55833083936">
		<tag k="name" v="Hamre" />
		<tag k="place" v="hamlet" />
		<tag k="ssr:stedsnr" v="986594" />
	</node>
	<node id="-406616" lat="61.1336927496" lon="8.62062506754">
		<tag k="fixme" v="consider place=hamlet" />
		<tag k="name" v="Lajord" />
		<tag k="place" v="farm" />
		<tag k="ssr:stedsnr" v="986568" />
	</node>
	<node id="-406614" lat="61.2011981321" lon="8.37076266779">
		<tag k="fixme" v="consider place=hamlet" />
		<tag k="name" v="Grøv" />
		<tag k="place" v="farm" />
		<tag k="ssr:stedsnr" v="977447" />
	</node>
	<node id="-406613" lat="61.1612363528" lon="8.68241885049">
		<tag k="fixme" v="consider place=hamlet" />
		<tag k="name" v="Nordsveen" />
		<tag k="place" v="farm" />
		<tag k="ssr:stedsnr" v="977424" />
	</node>
	<node id="-406611" lat="61.1307128927" lon="8.61225932416">
		<tag k="alt_name" v="Dalåker" />
		<tag k="fixme" v="consider place=hamlet" />
		<tag k="name" v="Dålåker" />
		<tag k="place" v="farm" />
		<tag k="ssr:stedsnr" v="969243" />
	</node>
	<node id="-404561" lat="61.2311888928" lon="8.80964722121">
		<tag k="historic" v="shieling" />
		<tag k="name" v="Kjørlistøl" />
		<tag k="place" v="locality" />
		<tag k="ssr:stedsnr" v="281504" />
	</node>
	<node id="-404558" lat="61.18793611" lon="8.75567222248">
		<tag k="historic" v="shieling" />
		<tag k="name" v="Jøvnestøl" />
		<tag k="place" v="locality" />
		<tag k="ssr:stedsnr" v="281496" />
	</node>
	<node id="-406605" lat="61.0904986958" lon="8.67087155944">
		<tag k="historic" v="shieling" />
		<tag k="name" v="Høvdestølen" />
		<tag k="place" v="locality" />
		<tag k="ssr:stedsnr" v="968881" />
	</node>
	<node id="-406603" lat="61.1061416655" lon="8.679919445">
		<tag k="historic" v="shieling" />
		<tag k="name" v="Søynisstøl" />
		<tag k="place" v="locality" />
		<tag k="ssr:stedsnr" v="968878" />
	</node>
	<node id="-404552" lat="60.9953944428" lon="8.60792778005">
		<tag k="name" v="Dalheim" />
		<tag k="place" v="farm" />
		<tag k="ssr:stedsnr" v="166761" />
	</node>
	<node id="-406598" lat="61.1500444416" lon="8.8173861186">
		<tag k="name" v="Veflen" />
		<tag k="place" v="farm" />
		<tag k="ssr:stedsnr" v="968346" />
	</node>
	<node id="-404548" lat="61.1235555598" lon="8.56688888404">
		<tag k="name" v="Lundsmarke" />
		<tag k="place" v="quarter" />
		<tag k="ssr:stedsnr" v="160654" />
	</node>
	<node id="-406595" lat="61.2081111131" lon="8.23850000055">
		<tag k="historic" v="shieling" />
		<tag k="name" v="Søre stølen" />
		<tag k="place" v="locality" />
		<tag k="ssr:stedsnr" v="968246" />
	</node>
	<node id="-406594" lat="61.2033611084" lon="8.23582499186">
		<tag k="name" v="Tyinkrysset Fjellstue" />
		<tag k="ssr:stedsnr" v="968241" />
		<tag k="tourism" v="hotel" />
	</node>
	<node id="-404542" lat="61.1787083343" lon="8.76945000496">
		<tag k="name" v="Lie" />
		<tag k="place" v="farm" />
		<tag k="ssr:stedsnr" v="160202" />
	</node>
	<node id="-406583" lat="61.1719222257" lon="8.86898889017">
		<tag k="building" v="industrial" />
		<tag k="name" v="Valdres Sølvsmie" />
		<tag k="ssr:stedsnr" v="964950" />
	</node>
	<node id="-404533" lat="61.1647536222" lon="8.40568219203">
		<tag k="name" v="Synsteikra" />
		<tag k="place" v="isolated_dwelling" />
		<tag k="ssr:stedsnr" v="128637" />
	</node>
	<node id="-404529" lat="61.2308999979" lon="8.80926111079">
		<tag k="historic" v="shieling" />
		<tag k="name" v="Kjøsastølen" />
		<tag k="place" v="locality" />
		<tag k="ssr:stedsnr" v="128741" />
	</node>
	<node id="-404528" lat="61.2307499977" lon="8.83552500102">
		<tag k="name" v="Tunestølen" />
		<tag k="place" v="locality" />
		<tag k="ssr:stedsnr" v="128734" />
	</node>
	<node id="-406574" lat="61.3546027758" lon="8.25835554953">
		<tag k="name" v="Tyinholmen Høyfjellsstuer" />
		<tag k="ssr:stedsnr" v="950770" />
		<tag k="tourism" v="hotel" />
	</node>
	<node id="-406573" lat="61.1235305532" lon="8.54830833627">
		<tag k="name" v="Hime" />
		<tag k="place" v="isolated_dwelling" />
		<tag k="ssr:stedsnr" v="950765" />
	</node>
	<node id="-406572" lat="61.1803888925" lon="8.713697228">
		<tag k="name" v="Søre Lie" />
		<tag k="place" v="farm" />
		<tag k="ssr:stedsnr" v="950642" />
	</node>
	<node id="-406571" lat="61.1791805557" lon="8.68986944141">
		<tag k="name" v="Nørdre-Givre" />
		<tag k="place" v="farm" />
		<tag k="ssr:stedsnr" v="950627" />
	</node>
	<node id="-406570" lat="61.1764055578" lon="8.69739167147">
		<tag k="name" v="Elvestad" />
		<tag k="place" v="isolated_dwelling" />
		<tag k="ssr:stedsnr" v="950613" />
	</node>
	<node id="-404521" lat="61.1608412179" lon="8.72250369225">
		<tag k="fixme" v="consider place=hamlet" />
		<tag k="name" v="Jøvne" />
		<tag k="place" v="farm" />
		<tag k="ssr:stedsnr" v="128227" />
	</node>
	<node id="-406568" lat="61.207780554" lon="8.39951111635">
		<tag k="alt_name" v="Jonskørstøladn" />
		<tag k="historic" v="shieling" />
		<tag k="name" v="Jonsgardstølen" />
		<tag k="place" v="locality" />
		<tag k="ssr:stedsnr" v="859598" />
	</node>
	<node id="-404519" lat="61.1840666622" lon="8.87298055836">
		<tag k="historic" v="shieling" />
		<tag k="name" v="Rødvangstølen" />
		<tag k="place" v="locality" />
		<tag k="ssr:stedsnr" v="128006" />
	</node>
	<node id="-406566" lat="61.1822842225" lon="8.70190598034">
		<tag k="fixme" v="consider place=hamlet" />
		<tag k="name" v="Øygarden" />
		<tag k="place" v="farm" />
		<tag k="ssr:stedsnr" v="857735" />
	</node>
	<node id="-404516" lat="61.123791665" lon="8.56180000875">
		<tag k="name" v="Nørdre Lund" />
		<tag k="place" v="farm" />
		<tag k="ssr:stedsnr" v="119829" />
	</node>
	<node id="-404515" lat="61.1220861136" lon="8.54594443749">
		<tag k="name" v="Solli" />
		<tag k="place" v="farm" />
		<tag k="ssr:stedsnr" v="119828" />
	</node>
	<node id="-406562" lat="61.0345999998" lon="8.6477250032">
		<tag k="historic" v="shieling" />
		<tag k="name" v="Ellevstølane" />
		<tag k="place" v="locality" />
		<tag k="ssr:stedsnr" v="857441" />
	</node>
	<node id="-406560" lat="61.1253181427" lon="8.5456333979">
		<tag k="name" v="Bø" />
		<tag k="place" v="hamlet" />
		<tag k="ssr:stedsnr" v="857362" />
	</node>
	<node id="-404511" lat="61.0939944413" lon="8.73104444317">
		<tag k="historic" v="shieling" />
		<tag k="name" v="Klaustadstølen" />
		<tag k="place" v="locality" />
		<tag k="ssr:stedsnr" v="118818" />
	</node>
	<node id="-406553" lat="61.1282920654" lon="8.60780025943">
		<tag k="alt_name" v="Søre Bø;Bø" />
		<tag k="name" v="Sørebø" />
		<tag k="place" v="hamlet" />
		<tag k="ssr:stedsnr" v="857349" />
	</node>
	<node id="-406551" lat="61.140136111" lon="8.17537500387">
		<tag k="fixme" v="consider tourism=alpine_hut or tourism=chalet" />
		<tag k="name" v="Sulebu" />
		<tag k="ssr:stedsnr" v="856676" />
		<tag k="tourism" v="wilderness_hut" />
	</node>
	<node id="-406548" lat="61.0648361135" lon="8.53404166248">
		<tag k="historic" v="shieling" />
		<tag k="name" v="Njukestølen" />
		<tag k="place" v="locality" />
		<tag k="ssr:stedsnr" v="856434" />
	</node>
	<node id="-406543" lat="61.1622305526" lon="8.69607499458">
		<tag k="name" v="Hovda" />
		<tag k="place" v="farm" />
		<tag k="ssr:stedsnr" v="856301" />
	</node>
	<node id="-406542" lat="61.1542785665" lon="8.54755946891">
		<tag k="fixme" v="consider place=hamlet" />
		<tag k="name" v="Nordland" />
		<tag k="place" v="farm" />
		<tag k="ssr:stedsnr" v="856298" />
	</node>
	<node id="-406541" lat="61.1675888907" lon="8.7206833342">
		<tag k="alt_name" v="Sæte" />
		<tag k="name" v="Sete" />
		<tag k="place" v="farm" />
		<tag k="ssr:stedsnr" v="856291" />
	</node>
	<node id="-406540" lat="61.156016068" lon="8.75146516552">
		<tag k="fixme" v="consider place=hamlet" />
		<tag k="name" v="Tveit" />
		<tag k="place" v="farm" />
		<tag k="ssr:stedsnr" v="856283" />
	</node>
	<node id="-406539" lat="61.157497223" lon="8.60622500302">
		<tag k="alt_name" v="Leirholsstøladn" />
		<tag k="historic" v="shieling" />
		<tag k="name" v="Leirholstølen" />
		<tag k="place" v="locality" />
		<tag k="ssr:stedsnr" v="856274" />
	</node>
	<node id="-406538" lat="61.2091388886" lon="8.32504165909">
		<tag k="name" v="Nyheim" />
		<tag k="place" v="isolated_dwelling" />
		<tag k="ssr:stedsnr" v="854294" />
	</node>
	<node id="-404487" lat="61.1688250037" lon="8.43974721643">
		<tag k="name" v="Steinde" />
		<tag k="place" v="isolated_dwelling" />
		<tag k="ssr:stedsnr" v="100402" />
	</node>
	<node id="-406534" lat="61.1250944413" lon="8.54808333041">
		<tag k="alt_name" v="Oppigarn" />
		<tag k="name" v="Oppigarden" />
		<tag k="place" v="farm" />
		<tag k="ssr:stedsnr" v="847784" />
	</node>
	<node id="-404485" lat="61.1164527783" lon="8.49666667426">
		<tag k="name" v="Rosenvøllsløa" />
		<tag k="place" v="locality" />
		<tag k="ssr:stedsnr" v="100368" />
	</node>
	<node id="-406529" lat="61.1804804509" lon="8.1664348978">
		<tag k="alt_name" v="Nystuen Hotel" />
		<tag k="building" v="apartments" />
		<tag k="name" v="Nystuen Panorama" />
		<tag k="old_name" v="Nystova;Nystuen Høyfjellshotell" />
		<tag k="ssr:stedsnr" v="847587" />
	</node>
	<node id="-404478" lat="61.2458583297" lon="8.12956387995">
		<tag k="fixme" v="consider tourism=alpine_hut or tourism=chalet" />
		<tag k="name" v="Slettningsbu" />
		<tag k="old_name" v="Sletningsbui" />
		<tag k="ssr:stedsnr" v="253621" />
		<tag k="tourism" v="wilderness_hut" />
	</node>
	<node id="-406523" lat="61.1490730329" lon="8.8303494758">
		<tag k="name" v="Berge" />
		<tag k="place" v="farm" />
		<tag k="ssr:stedsnr" v="847335" />
	</node>
	<node id="-406522" lat="61.1475833294" lon="8.82639722763">
		<tag k="alt_name" v="Myhre" />
		<tag k="name" v="Myre" />
		<tag k="place" v="farm" />
		<tag k="ssr:stedsnr" v="847333" />
	</node>
	<node id="-404473" lat="60.9722194427" lon="8.65527778616">
		<tag k="historic" v="shieling" />
		<tag k="name" v="Søre Storlistølen" />
		<tag k="place" v="locality" />
		<tag k="ssr:stedsnr" v="251797" />
	</node>
	<node id="-406517" lat="61.1579805543" lon="8.78731111359">
		<tag k="name" v="Solhaug" />
		<tag k="place" v="farm" />
		<tag k="ssr:stedsnr" v="847194" />
	</node>
	<node id="-404467" lat="61.1800572319" lon="8.83137260314">
		<tag k="alt_name" v="Vøvlisstølen" />
		<tag k="historic" v="shieling" />
		<tag k="name" v="Veflenstøl" />
		<tag k="place" v="locality" />
		<tag k="ssr:stedsnr" v="250711" />
	</node>
	<node id="-404466" lat="61.1768091358" lon="8.68759809394">
		<tag k="alt_name" v="Igdun" />
		<tag k="fixme" v="consider place=hamlet" />
		<tag k="name" v="Igda" />
		<tag k="place" v="farm" />
		<tag k="ssr:stedsnr" v="250707" />
	</node>
	<node id="-406513" lat="61.2487444422" lon="8.76614166414">
		<tag k="historic" v="shieling" />
		<tag k="name" v="Jøvnestøl" />
		<tag k="place" v="locality" />
		<tag k="ssr:stedsnr" v="843826" />
	</node>
	<node id="-404463" lat="61.0995055517" lon="8.4346555561">
		<tag k="historic" v="shieling" />
		<tag k="name" v="Bøastølane" />
		<tag k="place" v="locality" />
		<tag k="ssr:stedsnr" v="250673" />
	</node>
	<node id="-404459" lat="61.2089555592" lon="8.86614166371">
		<tag k="historic" v="shieling" />
		<tag k="name" v="Stølsbakke" />
		<tag k="place" v="locality" />
		<tag k="ssr:stedsnr" v="250488" />
	</node>
	<node id="-406503" lat="61.181305557" lon="8.70902222996">
		<tag k="name" v="Nørdre Lie" />
		<tag k="place" v="farm" />
		<tag k="ssr:stedsnr" v="829665" />
	</node>
	<node id="-406502" lat="61.1715083351" lon="8.67312221625">
		<tag k="name" v="Torstad" />
		<tag k="place" v="farm" />
		<tag k="ssr:stedsnr" v="829110" />
	</node>
	<node id="-406501" lat="61.1582448795" lon="8.72153729094">
		<tag k="name" v="Jøvnemarka" />
		<tag k="place" v="farm" />
		<tag k="ssr:stedsnr" v="828986" />
	</node>
	<node id="-404448" lat="61.164927778" lon="8.37938054831">
		<tag k="alt_name" v="Eltunsøydgarden" />
		<tag k="historic" v="shieling" />
		<tag k="name" v="Øygardstølen" />
		<tag k="place" v="locality" />
		<tag k="ssr:stedsnr" v="249659" />
	</node>
	<node id="-406492" lat="61.1358222192" lon="8.60121388497">
		<tag k="name" v="Naustland" />
		<tag k="place" v="locality" />
		<tag k="ssr:stedsnr" v="828684" />
	</node>
	<node id="-406491" lat="61.1222999988" lon="8.59327500221">
		<tag k="name" v="Fossum" />
		<tag k="place" v="locality" />
		<tag k="ssr:stedsnr" v="828655" />
	</node>
	<node id="-404442" lat="61.1384972198" lon="8.79339443844">
		<tag k="name" v="Klauvstad" />
		<tag k="place" v="farm" />
		<tag k="ssr:stedsnr" v="249279" />
	</node>
	<node id="-406488" lat="61.2293722266" lon="8.8247583393">
		<tag k="historic" v="shieling" />
		<tag k="name" v="Krokostøl" />
		<tag k="place" v="locality" />
		<tag k="ssr:stedsnr" v="828456" />
	</node>
	<node id="-406487" lat="61.2265416697" lon="8.81993332407">
		<tag k="historic" v="shieling" />
		<tag k="name" v="Haugastøl" />
		<tag k="place" v="locality" />
		<tag k="ssr:stedsnr" v="828453" />
	</node>
	<node id="-406485" lat="61.1662388859" lon="8.50103610219">
		<tag k="name" v="Midtløa" />
		<tag k="place" v="locality" />
		<tag k="ssr:stedsnr" v="828427" />
	</node>
	<node id="-404435" lat="61.1979777817" lon="8.25808888993">
		<tag k="alt_name" v="Bøastøl" />
		<tag k="historic" v="shieling" />
		<tag k="name" v="Bøastølen" />
		<tag k="place" v="locality" />
		<tag k="ssr:stedsnr" v="70547" />
	</node>
	<node id="-406482" lat="61.1024472192" lon="8.42412222143">
		<tag k="historic" v="shieling" />
		<tag k="name" v="Veslestølen" />
		<tag k="place" v="locality" />
		<tag k="ssr:stedsnr" v="828386" />
	</node>
	<node id="-404430" lat="61.2123499988" lon="8.6390027755">
		<tag k="historic" v="shieling" />
		<tag k="name" v="Kleivaslette" />
		<tag k="place" v="locality" />
		<tag k="ssr:stedsnr" v="68718" />
	</node>
	<node id="-404428" lat="61.1902900215" lon="8.7153964401">
		<tag k="historic" v="shieling" />
		<tag k="name" v="Liastølane" />
		<tag k="place" v="locality" />
		<tag k="ssr:stedsnr" v="68708" />
	</node>
	<node id="-406473" lat="61.1767388916" lon="8.85125833178">
		<tag k="historic" v="shieling" />
		<tag k="name" v="Tørstadstøl" />
		<tag k="place" v="locality" />
		<tag k="ssr:stedsnr" v="828227" />
	</node>
	<node id="-406472" lat="61.1733111119" lon="8.77442223009">
		<tag k="name" v="Tippestad" />
		<tag k="place" v="isolated_dwelling" />
		<tag k="ssr:stedsnr" v="828217" />
	</node>
	<node id="-404423" lat="61.1721888885" lon="8.38937223041">
		<tag k="alt_name" v="Nørdre Kjørstein" />
		<tag k="name" v="Kjerrstein" />
		<tag k="place" v="farm" />
		<tag k="ssr:stedsnr" v="67609" />
	</node>
	<node id="-404422" lat="61.172686009" lon="8.39779530084">
		<tag k="fixme" v="consider place=hamlet" />
		<tag k="name" v="Lunde" />
		<tag k="place" v="farm" />
		<tag k="ssr:stedsnr" v="67607" />
	</node>
	<node id="-404421" lat="61.1684527755" lon="8.35934721943">
		<tag k="historic" v="shieling" />
		<tag k="name" v="Gamlestølen" />
		<tag k="place" v="locality" />
		<tag k="ssr:stedsnr" v="67602" />
	</node>
	<node id="-406468" lat="61.1891472237" lon="8.71039444795">
		<tag k="historic" v="shieling" />
		<tag k="name" v="Øyestølen" />
		<tag k="place" v="locality" />
		<tag k="ssr:stedsnr" v="828041" />
	</node>
	<node id="-406467" lat="61.1929138878" lon="8.6880638948">
		<tag k="historic" v="shieling" />
		<tag k="name" v="Åsestølen" />
		<tag k="place" v="locality" />
		<tag k="ssr:stedsnr" v="828035" />
	</node>
	<node id="-404418" lat="61.1181027774" lon="8.62476665852">
		<tag k="name" v="Dekkeløa" />
		<tag k="place" v="locality" />
		<tag k="ssr:stedsnr" v="240891" />
	</node>
	<node id="-406459" lat="61.1797750042" lon="8.82889167143">
		<tag k="historic" v="shieling" />
		<tag k="name" v="Bergsengstølen" />
		<tag k="place" v="locality" />
		<tag k="ssr:stedsnr" v="796715" />
	</node>
	<node id="-406458" lat="61.200511107" lon="8.66863054706">
		<tag k="historic" v="shieling" />
		<tag k="name" v="Grønstølane" />
		<tag k="place" v="locality" />
		<tag k="ssr:stedsnr" v="796705" />
	</node>
	<node id="-406456" lat="61.1967666696" lon="8.67351944876">
		<tag k="historic" v="shieling" />
		<tag k="name" v="Brubakken" />
		<tag k="place" v="locality" />
		<tag k="ssr:stedsnr" v="796695" />
	</node>
	<node id="-406452" lat="61.200141666" lon="8.51622778086">
		<tag k="historic" v="shieling" />
		<tag k="name" v="Sanddalen" />
		<tag k="place" v="locality" />
		<tag k="ssr:stedsnr" v="796458" />
	</node>
	<node id="-404403" lat="61.0766444467" lon="8.59029444712">
		<tag k="historic" v="shieling" />
		<tag k="name" v="Ostrøe" />
		<tag k="place" v="locality" />
		<tag k="ssr:stedsnr" v="240613" />
	</node>
	<node id="-406448" lat="61.1270083348" lon="8.53066111098">
		<tag k="alt_name" v="Stele" />
		<tag k="name" v="Øvre Stele" />
		<tag k="place" v="farm" />
		<tag k="ssr:stedsnr" v="796299" />
	</node>
	<node id="-406447" lat="61.1644944427" lon="8.53279444321">
		<tag k="name" v="Tørte" />
		<tag k="place" v="locality" />
		<tag k="ssr:stedsnr" v="796268" />
	</node>
	<node id="-404397" lat="61.1698583363" lon="8.2932361123">
		<tag k="name" v="Fiskebue" />
		<tag k="place" v="isolated_dwelling" />
		<tag k="ssr:stedsnr" v="240419" />
	</node>
	<node id="-406444" lat="61.1458594736" lon="8.86256732843">
		<tag k="fixme" v="consider place=hamlet" />
		<tag k="name" v="Hålii" />
		<tag k="place" v="farm" />
		<tag k="ssr:stedsnr" v="796066" />
	</node>
	<node id="-406443" lat="61.3094126722" lon="8.5162896321">
		<tag k="fixme" v="consider tourism=alpine_hut or tourism=chalet" />
		<tag k="name" v="Yksendalsbu" />
		<tag k="old_name" v="Yksendalsbui" />
		<tag k="ssr:stedsnr" v="796183" />
		<tag k="tourism" v="wilderness_hut" />
	</node>
	<node id="-404394" lat="61.1519250037" lon="8.80747778158">
		<tag k="name" v="Kvien" />
		<tag k="place" v="farm" />
		<tag k="ssr:stedsnr" v="240356" />
	</node>
	<node id="-406441" lat="61.1575749975" lon="8.44449166438">
		<tag k="name" v="Vierdokke" />
		<tag k="place" v="isolated_dwelling" />
		<tag k="ssr:stedsnr" v="795690" />
	</node>
	<node id="-406440" lat="61.1667569059" lon="8.40287620329">
		<tag k="fixme" v="consider place=hamlet" />
		<tag k="name" v="Teigen" />
		<tag k="place" v="farm" />
		<tag k="ssr:stedsnr" v="795685" />
	</node>
	<node id="-406438" lat="61.1483644568" lon="8.83299892847">
		<tag k="fixme" v="consider place=hamlet" />
		<tag k="name" v="Tørstad" />
		<tag k="place" v="farm" />
		<tag k="ssr:stedsnr" v="795351" />
	</node>
	<node id="-404388" lat="61.1780055578" lon="8.15666111973">
		<tag k="historic" v="shieling" />
		<tag k="name" v="Vardejordet" />
		<tag k="place" v="locality" />
		<tag k="ssr:stedsnr" v="240222" />
	</node>
	<node id="-406434" lat="61.1556416645" lon="8.47581111083">
		<tag k="historic" v="shieling" />
		<tag k="name" v="Hagasteinen" />
		<tag k="place" v="locality" />
		<tag k="ssr:stedsnr" v="795313" />
	</node>
	<node id="-406433" lat="61.1662305541" lon="8.83420555819">
		<tag k="historic" v="shieling" />
		<tag k="name" v="Leitestølen" />
		<tag k="place" v="locality" />
		<tag k="ssr:stedsnr" v="795311" />
	</node>
	<node id="-406432" lat="61.1688611102" lon="8.66220000286">
		<tag k="fixme" v="consider tourism=alpine_hut or tourism=chalet" />
		<tag k="name" v="Haukåsen" />
		<tag k="ssr:stedsnr" v="795308" />
		<tag k="tourism" v="wilderness_hut" />
	</node>
	<node id="-406431" lat="61.1679083304" lon="8.67676666704">
		<tag k="alt_name" v="Hænsgardane" />
		<tag k="name" v="Hensgardane" />
		<tag k="place" v="hamlet" />
		<tag k="ssr:stedsnr" v="795304" />
	</node>
	<node id="-406430" lat="61.1539059297" lon="8.72308604399">
		<tag k="fixme" v="consider place=hamlet" />
		<tag k="name" v="Torpe" />
		<tag k="place" v="farm" />
		<tag k="ssr:stedsnr" v="795300" />
	</node>
	<node id="-404381" lat="61.1259055575" lon="8.54636388055">
		<tag k="alt_name" v="Nørdre Nordigarn" />
		<tag k="name" v="Nørdre Nordigarden" />
		<tag k="place" v="farm" />
		<tag k="ssr:stedsnr" v="239804" />
	</node>
	<node id="-404380" lat="61.097088888" lon="8.7215472233">
		<tag k="historic" v="shieling" />
		<tag k="name" v="Haugenstøl" />
		<tag k="place" v="locality" />
		<tag k="ssr:stedsnr" v="58884" />
	</node>
	<node id="-406427" lat="61.1234222213" lon="8.58374444225">
		<tag k="name" v="Sæterhaugen" />
		<tag k="place" v="farm" />
		<tag k="ssr:stedsnr" v="787781" />
	</node>
	<node id="-404378" lat="61.1133944461" lon="8.69877499118">
		<tag k="historic" v="shieling" />
		<tag k="name" v="Syndrolstølen" />
		<tag k="place" v="locality" />
		<tag k="ssr:stedsnr" v="58904" />
	</node>
	<node id="-406425" lat="61.1320527759" lon="8.64216667556">
		<tag k="name" v="Sveo" />
		<tag k="place" v="isolated_dwelling" />
		<tag k="ssr:stedsnr" v="786949" />
	</node>
	<node id="-404374" lat="61.1228629811" lon="8.55317871805">
		<tag k="fixme" v="consider place=hamlet" />
		<tag k="name" v="Åstad" />
		<tag k="place" v="farm" />
		<tag k="ssr:stedsnr" v="40820" />
	</node>
	<node id="-404368" lat="61.1996527802" lon="8.51832222483">
		<tag k="historic" v="shieling" />
		<tag k="name" v="Søre Nordlandsstøl" />
		<tag k="place" v="locality" />
		<tag k="ssr:stedsnr" v="39772" />
	</node>
	<node id="-404367" lat="61.0405555548" lon="8.66688334028">
		<tag k="name" v="Søre Helestrønd" />
		<tag k="place" v="isolated_dwelling" />
		<tag k="ssr:stedsnr" v="39753" />
	</node>
	<node id="-404366" lat="61.1533999988" lon="8.57884165755">
		<tag k="historic" v="shieling" />
		<tag k="name" v="Sparstadstølen" />
		<tag k="place" v="locality" />
		<tag k="ssr:stedsnr" v="39675" />
	</node>
	<node id="-406410" lat="61.1664249959" lon="8.81123610548">
		<tag k="historic" v="shieling" />
		<tag k="name" v="Kviestøl" />
		<tag k="place" v="locality" />
		<tag k="ssr:stedsnr" v="786398" />
	</node>
	<node id="-406409" lat="61.1533157951" lon="8.81040830908">
		<tag k="fixme" v="consider place=hamlet" />
		<tag k="name" v="Bunde" />
		<tag k="place" v="farm" />
		<tag k="ssr:stedsnr" v="786392" />
	</node>
	<node id="-406408" lat="61.2101499984" lon="8.33808332821">
		<tag k="name" v="Galtebrekka" />
		<tag k="place" v="isolated_dwelling" />
		<tag k="ssr:stedsnr" v="786339" />
	</node>
	<node id="-404358" lat="61.0977055514" lon="8.72188889624">
		<tag k="name" v="Wangensteen" />
		<tag k="place" v="locality" />
		<tag k="ssr:stedsnr" v="39375" />
	</node>
	<node id="-404352" lat="61.1658722219" lon="8.40095000519">
		<tag k="name" v="Haugen" />
		<tag k="place" v="farm" />
		<tag k="ssr:stedsnr" v="39315" />
	</node>
	<node id="-404350" lat="61.1740833332" lon="8.85404444736">
		<tag k="name" v="Kristenøygarden" />
		<tag k="place" v="locality" />
		<tag k="ssr:stedsnr" v="39204" />
	</node>
	<node id="-406395" lat="61.1783888926" lon="8.16121110468">
		<tag k="historic" v="shieling" />
		<tag k="name" v="Nedre Jordet" />
		<tag k="place" v="locality" />
		<tag k="ssr:stedsnr" v="786187" />
	</node>
	<node id="-404346" lat="61.1566527759" lon="8.77537777603">
		<tag k="name" v="Dalheim" />
		<tag k="place" v="farm" />
		<tag k="ssr:stedsnr" v="231439" />
	</node>
	<node id="-406393" lat="61.1486666638" lon="8.55816666422">
		<tag k="name" v="Ølgøgn" />
		<tag k="place" v="farm" />
		<tag k="ssr:stedsnr" v="784517" />
	</node>
	<node id="-406392" lat="61.1758999957" lon="8.86295555329">
		<tag k="historic" v="shieling" />
		<tag k="name" v="Skjeftestølen" />
		<tag k="place" v="locality" />
		<tag k="ssr:stedsnr" v="782953" />
	</node>
	<node id="-404341" lat="61.169324999" lon="8.69494999217">
		<tag k="name" v="Åsheim" />
		<tag k="place" v="farm" />
		<tag k="ssr:stedsnr" v="222611" />
	</node>
	<node id="-406388" lat="61.2082972206" lon="8.86589722751">
		<tag k="historic" v="shieling" />
		<tag k="name" v="Leitestøl" />
		<tag k="place" v="locality" />
		<tag k="ssr:stedsnr" v="782923" />
	</node>
	<node id="-406387" lat="61.1465166676" lon="8.86069443776">
		<tag k="name" v="Hålien" />
		<tag k="place" v="farm" />
		<tag k="ssr:stedsnr" v="782776" />
	</node>
	<node id="-404338" lat="61.1331222241" lon="8.6061583299">
		<tag k="name" v="Søre Myre" />
		<tag k="place" v="farm" />
		<tag k="ssr:stedsnr" v="222177" />
	</node>
	<node id="-404336" lat="61.3274749996" lon="8.27616111244">
		<tag k="name" v="Tvindehaugen" />
		<tag k="place" v="isolated_dwelling" />
		<tag k="ssr:stedsnr" v="8819" />
	</node>
	<node id="-406382" lat="61.1890444407" lon="8.747244452">
		<tag k="historic" v="shieling" />
		<tag k="name" v="Jøvnestøl" />
		<tag k="place" v="locality" />
		<tag k="ssr:stedsnr" v="773792" />
	</node>
	<node id="-406381" lat="61.1288916673" lon="8.59339999641">
		<tag k="name" v="Hammerstad" />
		<tag k="place" v="farm" />
		<tag k="ssr:stedsnr" v="769405" />
	</node>
	<node id="-406380" lat="61.1697611093" lon="8.6978805598">
		<tag k="alt_name" v="Heensåsen" />
		<tag k="name" v="Hensåsen" />
		<tag k="place" v="farm" />
		<tag k="ssr:stedsnr" v="768644" />
	</node>
	<node id="-404329" lat="61.1241083341" lon="8.54220833245">
		<tag k="name" v="Rosenvøll" />
		<tag k="place" v="locality" />
		<tag k="ssr:stedsnr" v="221637" />
	</node>
	<node id="-406370" lat="61.226738888" lon="8.82574444037">
		<tag k="historic" v="shieling" />
		<tag k="name" v="Kjøsamarkstøl" />
		<tag k="place" v="locality" />
		<tag k="ssr:stedsnr" v="767484" />
	</node>
	<node id="-404319" lat="61.1559916669" lon="8.47568334184">
		<tag k="name" v="Turtnes" />
		<tag k="place" v="isolated_dwelling" />
		<tag k="ssr:stedsnr" v="221437" />
	</node>
	<node id="-406356" lat="61.1233583339" lon="8.5500388847">
		<tag k="fixme" v="multiple name tags, choose one and add the other to alt_name" />
		<tag k="name" v="Barnas fjellskole;Fjellheim Leirskole" />
		<tag k="old_name" v="Eikrudn Fjellheim leirskole" />
		<tag k="ssr:stedsnr" v="766812" />
		<tag k="tourism" v="camp_site" />
	</node>
	<node id="-404307" lat="61.2042555593" lon="8.66717222494">
		<tag k="name" v="Klanteløa" />
		<tag k="place" v="locality" />
		<tag k="ssr:stedsnr" v="221088" />
	</node>
	<node id="-406353" lat="61.2084388926" lon="8.34493332691">
		<tag k="name" v="Sårbu" />
		<tag k="place" v="farm" />
		<tag k="ssr:stedsnr" v="738622" />
	</node>
	<node id="-404303" lat="61.1780277804" lon="8.1518694468">
		<tag k="name" v="Vardin" />
		<tag k="place" v="isolated_dwelling" />
		<tag k="ssr:stedsnr" v="218691" />
	</node>
	<node id="-406348" lat="61.3537638897" lon="8.25914167187">
		<tag k="name" v="Tyinholmen" />
		<tag k="place" v="hamlet" />
		<tag k="ssr:stedsnr" v="736837" />
	</node>
	<node id="-406345" lat="61.1667333327" lon="8.75267778078">
		<tag k="name" v="Arnehaugen" />
		<tag k="place" v="farm" />
		<tag k="ssr:stedsnr" v="651766" />
	</node>
	<node id="-406341" lat="61.177100001" lon="8.69888888244">
		<tag k="name" v="Solhaug" />
		<tag k="place" v="isolated_dwelling" />
		<tag k="ssr:stedsnr" v="646626" />
	</node>
	<node id="-406340" lat="61.1713694481" lon="8.69438888351">
		<tag k="name" v="Aspås" />
		<tag k="place" v="isolated_dwelling" />
		<tag k="ssr:stedsnr" v="646625" />
	</node>
	<node id="-406337" lat="61.1690138928" lon="8.39680832965">
		<tag k="name" v="Nørdre Øye" />
		<tag k="place" v="farm" />
		<tag k="ssr:stedsnr" v="645471" />
	</node>
	<node id="-406328" lat="61.1461972257" lon="8.82810277989">
		<tag k="alt_name" v="Myhre" />
		<tag k="name" v="Myre" />
		<tag k="place" v="farm" />
		<tag k="ssr:stedsnr" v="645276" />
	</node>
	<node id="-406326" lat="61.1829805589" lon="8.83383888003">
		<tag k="historic" v="shieling" />
		<tag k="name" v="Veflenstøl" />
		<tag k="place" v="locality" />
		<tag k="ssr:stedsnr" v="645220" />
	</node>
	<node id="-406325" lat="61.1909222245" lon="8.67947500663">
		<tag k="historic" v="shieling" />
		<tag k="name" v="Fyglisstølen" />
		<tag k="place" v="locality" />
		<tag k="ssr:stedsnr" v="645094" />
	</node>
	<node id="-406316" lat="61.1793624425" lon="8.1548812279">
		<tag k="historic" v="shieling" />
		<tag k="name" v="Nystøgo" />
		<tag k="place" v="locality" />
		<tag k="ssr:stedsnr" v="639302" />
	</node>
	<node id="-406296" lat="61.3561111097" lon="8.59562778393">
		<tag k="fixme" v="consider tourism=alpine_hut or tourism=chalet" />
		<tag k="name" v="Torfinnsbu" />
		<tag k="ssr:stedsnr" v="614139" />
		<tag k="tourism" v="wilderness_hut" />
	</node>
	<node id="-406295" lat="61.3422749975" lon="8.47615000101">
		<tag k="name" v="Vølodalshytta" />
		<tag k="place" v="isolated_dwelling" />
		<tag k="ssr:stedsnr" v="614137" />
	</node>
	<node id="-406292" lat="61.3145999969" lon="8.79048888649">
		<tag k="alt_name" v="Raufjordsanden" />
		<tag k="name" v="Raudfjordsanden" />
		<tag k="place" v="isolated_dwelling" />
		<tag k="ssr:stedsnr" v="614178" />
	</node>
	<node id="-406290" lat="61.3007111148" lon="8.68989999951">
		<tag k="historic" v="shieling" />
		<tag k="name" v="Ole" />
		<tag k="place" v="locality" />
		<tag k="ssr:stedsnr" v="614174" />
	</node>
	<node id="-406283" lat="61.1079055598" lon="8.40836389367">
		<tag k="historic" v="shieling" />
		<tag k="name" v="Øyestølen" />
		<tag k="place" v="locality" />
		<tag k="ssr:stedsnr" v="613664" />
	</node>
	<node id="-406278" lat="61.1319666636" lon="8.73871388845">
		<tag k="historic" v="shieling" />
		<tag k="name" v="Tveitastølane" />
		<tag k="place" v="locality" />
		<tag k="ssr:stedsnr" v="613331" />
	</node>
	<node id="-406277" lat="61.1240127475" lon="8.59620793335">
		<tag k="name" v="Haugen" />
		<tag k="place" v="farm" />
		<tag k="ssr:stedsnr" v="613318" />
	</node>
	<node id="-406276" lat="61.2037944466" lon="8.8664055513">
		<tag k="historic" v="shieling" />
		<tag k="name" v="Tørstadstølen" />
		<tag k="place" v="locality" />
		<tag k="ssr:stedsnr" v="613491" />
	</node>
	<node id="-406274" lat="61.1418944481" lon="8.62452500474">
		<tag k="name" v="Synshagen" />
		<tag k="place" v="isolated_dwelling" />
		<tag k="ssr:stedsnr" v="613310" />
	</node>
	<node id="-406273" lat="61.1508444536" lon="8.61677771959">
		<tag k="alt_name" v="Nørdre Leirhol" />
		<tag k="fixme" v="consider place=hamlet" />
		<tag k="name" v="Leirhol" />
		<tag k="place" v="farm" />
		<tag k="ssr:stedsnr" v="613307" />
	</node>
	<node id="-406271" lat="61.1338147278" lon="8.7914108529">
		<tag k="alt_name" v="Brekkun" />
		<tag k="fixme" v="consider place=hamlet" />
		<tag k="name" v="Brekken" />
		<tag k="place" v="farm" />
		<tag k="ssr:stedsnr" v="613286" />
	</node>
	<node id="-406270" lat="61.1700999998" lon="8.74781110697">
		<tag k="name" v="Bakken" />
		<tag k="place" v="farm" />
		<tag k="ssr:stedsnr" v="613284" />
	</node>
	<node id="-406269" lat="61.1650972221" lon="8.81686666555">
		<tag k="historic" v="shieling" />
		<tag k="name" v="Haugen" />
		<tag k="place" v="locality" />
		<tag k="ssr:stedsnr" v="613274" />
	</node>
	<node id="-406268" lat="61.1620249965" lon="8.62211110403">
		<tag k="historic" v="shieling" />
		<tag k="name" v="Høverstadstølen" />
		<tag k="place" v="locality" />
		<tag k="ssr:stedsnr" v="613270" />
	</node>
	<node id="-406267" lat="61.1598833367" lon="8.52349999686">
		<tag k="historic" v="shieling" />
		<tag k="name" v="Bjørnhamar" />
		<tag k="place" v="locality" />
		<tag k="ssr:stedsnr" v="613267" />
	</node>
	<node id="-406266" lat="61.1630666644" lon="8.66866837888">
		<tag k="fixme" v="consider place=hamlet" />
		<tag k="name" v="Hemsing" />
		<tag k="place" v="farm" />
		<tag k="ssr:stedsnr" v="613262" />
	</node>
	<node id="-406265" lat="61.1265317598" lon="8.5951071768">
		<tag k="name" v="Kvåle" />
		<tag k="place" v="hamlet" />
		<tag k="ssr:stedsnr" v="605292" />
	</node>
	<node id="-406261" lat="61.2105944429" lon="8.23664722725">
		<tag k="historic" v="shieling" />
		<tag k="name" v="Øvre stølen" />
		<tag k="place" v="locality" />
		<tag k="ssr:stedsnr" v="604240" />
	</node>
	<node id="-406248" lat="61.2013027752" lon="8.3742166619">
		<tag k="name" v="Haugen" />
		<tag k="place" v="farm" />
		<tag k="ssr:stedsnr" v="603434" />
	</node>
	<node id="-406239" lat="61.1680861073" lon="8.73105277481">
		<tag k="name" v="Viken" />
		<tag k="place" v="farm" />
		<tag k="ssr:stedsnr" v="590758" />
	</node>
	<node id="-406235" lat="61.1032777768" lon="8.61149999467">
		<tag k="name" v="Haugastølen" />
		<tag k="place" v="neighbourhood" />
		<tag k="ssr:stedsnr" v="585651" />
	</node>
	<node id="-406232" lat="61.1327777771" lon="8.6024305567">
		<tag k="name" v="Kringelberg" />
		<tag k="place" v="isolated_dwelling" />
		<tag k="ssr:stedsnr" v="585680" />
	</node>
	<node id="-406231" lat="61.1731861101" lon="8.39885277544">
		<tag k="name" v="Lunde" />
		<tag k="place" v="farm" />
		<tag k="ssr:stedsnr" v="585450" />
	</node>
	<node id="-406228" lat="61.177952774" lon="8.38716388895">
		<tag k="name" v="Eidslund" />
		<tag k="place" v="isolated_dwelling" />
		<tag k="ssr:stedsnr" v="585391" />
	</node>
	<node id="-406224" lat="61.1177138913" lon="8.502644453">
		<tag k="historic" v="shieling" />
		<tag k="name" v="Fjørungstølen" />
		<tag k="place" v="locality" />
		<tag k="ssr:stedsnr" v="585346" />
	</node>
	<node id="-406222" lat="61.1625777802" lon="8.41482500221">
		<tag k="name" v="Bjørkheim" />
		<tag k="place" v="isolated_dwelling" />
		<tag k="ssr:stedsnr" v="585334" />
	</node>
	<node id="-406215" lat="61.1954833352" lon="8.67860555356">
		<tag k="historic" v="shieling" />
		<tag k="name" v="Hemsingstølen" />
		<tag k="place" v="locality" />
		<tag k="ssr:stedsnr" v="584096" />
	</node>
	<node id="-406211" lat="61.2244750016" lon="8.2370749945">
		<tag k="historic" v="shieling" />
		<tag k="name" v="Skogstadstølen" />
		<tag k="place" v="locality" />
		<tag k="ssr:stedsnr" v="556640" />
	</node>
	<node id="-406206" lat="61.2076876724" lon="8.35093992502">
		<tag k="fixme" v="consider place=hamlet" />
		<tag k="name" v="Skogstad" />
		<tag k="place" v="farm" />
		<tag k="ssr:stedsnr" v="555580" />
	</node>
	<node id="-406194" lat="61.2116222809" lon="8.63454970694">
		<tag k="historic" v="shieling" />
		<tag k="name" v="Hellestølen" />
		<tag k="place" v="locality" />
		<tag k="ssr:stedsnr" v="553716" />
	</node>
	<node id="-406183" lat="61.1117944445" lon="8.47614999853">
		<tag k="historic" v="shieling" />
		<tag k="name" v="Lutastølen" />
		<tag k="place" v="locality" />
		<tag k="ssr:stedsnr" v="553308" />
	</node>
	<node id="-406168" lat="61.3319999967" lon="8.79160554892">
		<tag k="historic" v="shieling" />
		<tag k="name" v="Hålisstølen" />
		<tag k="place" v="locality" />
		<tag k="ssr:stedsnr" v="553152" />
	</node>
	<node id="-406166" lat="61.3566999971" lon="8.57333611484">
		<tag k="name" v="Nybue" />
		<tag k="place" v="isolated_dwelling" />
		<tag k="ssr:stedsnr" v="553131" />
	</node>
	<node id="-406165" lat="61.1517666694" lon="8.85319443728">
		<tag k="name" v="Hellestølen" />
		<tag k="place" v="locality" />
		<tag k="ssr:stedsnr" v="553068" />
	</node>
	<node id="-406162" lat="61.1705888848" lon="8.3169194448">
		<tag k="alt_name" v="Gamle Brekkudn" />
		<tag k="historic" v="shieling" />
		<tag k="name" v="Brekkastølen" />
		<tag k="place" v="locality" />
		<tag k="ssr:stedsnr" v="552648" />
	</node>
	<node id="-406161" lat="61.1740032814" lon="8.40133533567">
		<tag k="fixme" v="consider place=hamlet" />
		<tag k="name" v="Høle" />
		<tag k="place" v="farm" />
		<tag k="ssr:stedsnr" v="552645" />
	</node>
	<node id="-406159" lat="61.1721499994" lon="8.18368332621">
		<tag k="alt_name" v="Gamlestoga" />
		<tag k="historic" v="shieling" />
		<tag k="name" v="Gamlestøga" />
		<tag k="place" v="locality" />
		<tag k="ssr:stedsnr" v="552638" />
	</node>
	<node id="-406157" lat="61.1680583349" lon="8.45828056039">
		<tag k="name" v="Tøso" />
		<tag k="place" v="locality" />
		<tag k="ssr:stedsnr" v="552709" />
	</node>
	<node id="-406153" lat="61.0811333322" lon="8.70354166609">
		<tag k="historic" v="shieling" />
		<tag k="name" v="Bøastølen" />
		<tag k="place" v="locality" />
		<tag k="ssr:stedsnr" v="552399" />
	</node>
	<node id="-406151" lat="61.1202583367" lon="8.57680832856">
		<tag k="name" v="Ellingbøhaugen" />
		<tag k="place" v="farm" />
		<tag k="ssr:stedsnr" v="544796" />
	</node>
	<node id="-406150" lat="61.1254999992" lon="8.5255972158">
		<tag k="name" v="Kjelvo" />
		<tag k="place" v="isolated_dwelling" />
		<tag k="ssr:stedsnr" v="544751" />
	</node>
	<node id="-406148" lat="61.1641972188" lon="8.81512500444">
		<tag k="historic" v="shieling" />
		<tag k="name" v="Kviestøl" />
		<tag k="place" v="locality" />
		<tag k="ssr:stedsnr" v="544388" />
	</node>
	<node id="-406143" lat="61.1304013246" lon="8.61990600472">
		<tag k="fixme" v="consider place=hamlet" />
		<tag k="name" v="Søyne" />
		<tag k="place" v="farm" />
		<tag k="ssr:stedsnr" v="544228" />
	</node>
	<node id="-406129" lat="61.0738722187" lon="8.58977777417">
		<tag k="historic" v="shieling" />
		<tag k="name" v="Skåldungadn" />
		<tag k="place" v="locality" />
		<tag k="ssr:stedsnr" v="543572" />
	</node>
	<node id="-405806" lat="61.067327776" lon="8.59427777822">
		<tag k="alt_name" v="Syrpesæte" />
		<tag k="name" v="Syrpesete" />
		<tag k="place" v="isolated_dwelling" />
		<tag k="ssr:stedsnr" v="189375" />
	</node>
	<node id="-406125" lat="61.1969027822" lon="8.36763610623">
		<tag k="name" v="Solheim" />
		<tag k="place" v="isolated_dwelling" />
		<tag k="ssr:stedsnr" v="543442" />
	</node>
	<node id="-406118" lat="61.1374416689" lon="8.80752499889">
		<tag k="name" v="Bergsmyri" />
		<tag k="place" v="isolated_dwelling" />
		<tag k="ssr:stedsnr" v="543258" />
	</node>
	<node id="-406117" lat="61.1376111149" lon="8.8274472185">
		<tag k="building" v="industrial" />
		<tag k="name" v="Sagstøga" />
		<tag k="ssr:stedsnr" v="543253" />
	</node>
	<node id="-406112" lat="61.1251055542" lon="8.56272777696">
		<tag k="name" v="Nedre Lund" />
		<tag k="place" v="farm" />
		<tag k="ssr:stedsnr" v="527040" />
	</node>
	<node id="-406109" lat="61.231160127" lon="8.23530822824">
		<tag k="building" v="apartments" />
		<tag k="name" v="Tyin Panorama" />
		<tag k="ssr:stedsnr" v="525814" />
	</node>
	<node id="-406105" lat="61.1925222223" lon="8.68997500725">
		<tag k="historic" v="shieling" />
		<tag k="name" v="Heenstølen" />
		<tag k="place" v="locality" />
		<tag k="ssr:stedsnr" v="525048" />
	</node>
	<node id="-406101" lat="61.146649997" lon="8.8587638858">
		<tag k="name" v="Solheim" />
		<tag k="place" v="isolated_dwelling" />
		<tag k="ssr:stedsnr" v="524263" />
	</node>
	<node id="-406099" lat="61.1516916627" lon="8.8276611063">
		<tag k="name" v="Ly" />
		<tag k="place" v="farm" />
		<tag k="ssr:stedsnr" v="524250" />
	</node>
	<node id="-406098" lat="61.1802333319" lon="8.82619722536">
		<tag k="historic" v="shieling" />
		<tag k="name" v="Bundestølane" />
		<tag k="place" v="locality" />
		<tag k="ssr:stedsnr" v="524218" />
	</node>
	<node id="-404420" lat="61.1085222221" lon="8.69101388567">
		<tag k="historic" v="shieling" />
		<tag k="name" v="Myrestølen" />
		<tag k="place" v="locality" />
		<tag k="ssr:stedsnr" v="240900" />
	</node>
	<node id="-406093" lat="61.2299166647" lon="8.23553333496">
		<tag k="alt_name" v="Svegjistølen" />
		<tag k="historic" v="shieling" />
		<tag k="name" v="Svejistølen" />
		<tag k="old_name" v="Svejistøl" />
		<tag k="place" v="locality" />
		<tag k="ssr:stedsnr" v="435642" />
	</node>
	<node id="-406085" lat="61.1954777742" lon="8.23889721912">
		<tag k="historic" v="shieling" />
		<tag k="loc_name" v="Grøvsstølen" />
		<tag k="name" v="Grovstølen" />
		<tag k="place" v="locality" />
		<tag k="ssr:stedsnr" v="434550" />
	</node>
	<node id="-406080" lat="61.2047111145" lon="8.85908889469">
		<tag k="historic" v="shieling" />
		<tag k="name" v="Bergestølen" />
		<tag k="place" v="locality" />
		<tag k="ssr:stedsnr" v="432459" />
	</node>
	<node id="-406079" lat="61.1992083311" lon="8.67789721683">
		<tag k="alt_name" v="Hænsstølen;Heenstølen" />
		<tag k="historic" v="shieling" />
		<tag k="name" v="Hensstølen" />
		<tag k="place" v="locality" />
		<tag k="ssr:stedsnr" v="432674" />
	</node>
	<node id="-406077" lat="61.0036666651" lon="8.61356388281">
		<tag k="historic" v="shieling" />
		<tag k="name" v="Søre Smådalen" />
		<tag k="place" v="locality" />
		<tag k="ssr:stedsnr" v="432393" />
	</node>
	<node id="-406076" lat="61.2553777767" lon="8.71336388249">
		<tag k="historic" v="shieling" />
		<tag k="name" v="Øddestølen" />
		<tag k="place" v="locality" />
		<tag k="ssr:stedsnr" v="432184" />
	</node>
	<node id="-406075" lat="61.2910249979" lon="8.59702778496">
		<tag k="name" v="Kvithaug" />
		<tag k="place" v="isolated_dwelling" />
		<tag k="ssr:stedsnr" v="432167" />
	</node>
	<node id="-406069" lat="61.1384056921" lon="8.8222056526">
		<tag k="fixme" v="consider place=hamlet" />
		<tag k="name" v="Ryfoss" />
		<tag k="place" v="village" />
		<tag k="ssr:stedsnr" v="432260" />
	</node>
	<node id="-406063" lat="61.16686667" lon="8.67999166361">
		<tag k="alt_name" v="Hæn" />
		<tag k="name" v="Hen" />
		<tag k="place" v="hamlet" />
		<tag k="ssr:stedsnr" v="431299" />
	</node>
	<node id="-406060" lat="61.2087722182" lon="8.32312777088">
		<tag k="name" v="Sedal" />
		<tag k="place" v="isolated_dwelling" />
		<tag k="ssr:stedsnr" v="423372" />
	</node>
	<node id="-406056" lat="61.1278388894" lon="8.63998056474">
		<tag k="historic" v="shieling" />
		<tag k="name" v="Nye Stølen" />
		<tag k="place" v="locality" />
		<tag k="ssr:stedsnr" v="422943" />
	</node>
	<node id="-406053" lat="61.1077722218" lon="8.68527500476">
		<tag k="historic" v="shieling" />
		<tag k="name" v="Bygnadstølen" />
		<tag k="place" v="locality" />
		<tag k="ssr:stedsnr" v="422898" />
	</node>
	<node id="-406051" lat="61.1727388852" lon="8.38796388956">
		<tag k="name" v="Liberg" />
		<tag k="place" v="isolated_dwelling" />
		<tag k="ssr:stedsnr" v="422688" />
	</node>
	<node id="-406048" lat="61.1602916646" lon="8.75030000455">
		<tag k="name" v="Jonsødegård" />
		<tag k="place" v="locality" />
		<tag k="ssr:stedsnr" v="422373" />
	</node>
	<node id="-406047" lat="61.1620305535" lon="8.79297222708">
		<tag k="name" v="Kjøs" />
		<tag k="place" v="farm" />
		<tag k="ssr:stedsnr" v="422370" />
	</node>
	<node id="-406045" lat="61.1658250019" lon="8.36689444875">
		<tag k="historic" v="shieling" />
		<tag k="name" v="Synsteikrestølen" />
		<tag k="place" v="locality" />
		<tag k="ssr:stedsnr" v="422274" />
	</node>
	<node id="-406040" lat="61.1387555514" lon="8.83429166313">
		<tag k="name" v="Putten" />
		<tag k="place" v="isolated_dwelling" />
		<tag k="ssr:stedsnr" v="422221" />
	</node>
	<node id="-406039" lat="61.2015218836" lon="8.3687355407">
		<tag k="name" v="Nørdre Grøv" />
		<tag k="place" v="farm" />
		<tag k="ssr:stedsnr" v="422444" />
	</node>
	<node id="-406038" lat="61.2297416622" lon="8.3420527752">
		<tag k="name" v="Øyangsbue" />
		<tag k="place" v="isolated_dwelling" />
		<tag k="ssr:stedsnr" v="422434" />
	</node>
	<node id="-406036" lat="61.1446416674" lon="8.83738333249">
		<tag k="name" v="Skeie" />
		<tag k="place" v="farm" />
		<tag k="ssr:stedsnr" v="422188" />
	</node>
	<node id="-406035" lat="61.1453388882" lon="8.85898611176">
		<tag k="name" v="Hålien" />
		<tag k="place" v="farm" />
		<tag k="ssr:stedsnr" v="422187" />
	</node>
	<node id="-406033" lat="61.1509944419" lon="8.76659166642">
		<tag k="name" v="Furulund" />
		<tag k="place" v="isolated_dwelling" />
		<tag k="ssr:stedsnr" v="422159" />
	</node>
	<node id="-406029" lat="61.1782916659" lon="8.86700555788">
		<tag k="name" v="Håliøygaradn" />
		<tag k="place" v="locality" />
		<tag k="ssr:stedsnr" v="418956" />
	</node>
	<node id="-406021" lat="61.1712083345" lon="8.67466945166">
		<tag k="name" v="Søre Austreim" />
		<tag k="place" v="farm" />
		<tag k="ssr:stedsnr" v="404093" />
	</node>
	<node id="-406014" lat="61.1683138928" lon="8.39738333635">
		<tag k="name" v="Fossum" />
		<tag k="place" v="farm" />
		<tag k="ssr:stedsnr" v="403479" />
	</node>
	<node id="-406002" lat="61.2428805529" lon="8.72339166688">
		<tag k="historic" v="shieling" />
		<tag k="name" v="Mugnestølen" />
		<tag k="place" v="locality" />
		<tag k="ssr:stedsnr" v="371733" />
	</node>
	<node id="-405996" lat="61.1493416679" lon="8.81843610687">
		<tag k="name" v="Kvål" />
		<tag k="place" v="farm" />
		<tag k="ssr:stedsnr" v="371299" />
	</node>
	<node id="-405995" lat="61.1460927637" lon="8.83329404032">
		<tag k="alt_name" v="Garstad" />
		<tag k="fixme" v="consider place=hamlet" />
		<tag k="name" v="Gardstad" />
		<tag k="place" v="farm" />
		<tag k="ssr:stedsnr" v="371296" />
	</node>
	<node id="-405987" lat="61.1629055515" lon="8.34827221402">
		<tag k="historic" v="shieling" />
		<tag k="name" v="Steindestølen" />
		<tag k="place" v="locality" />
		<tag k="ssr:stedsnr" v="370609" />
	</node>
	<node id="-405986" lat="61.1673416632" lon="8.36700832933">
		<tag k="historic" v="shieling" />
		<tag k="name" v="Øynan" />
		<tag k="place" v="locality" />
		<tag k="ssr:stedsnr" v="370607" />
	</node>
	<node id="-405985" lat="61.1078861124" lon="8.47771389779">
		<tag k="historic" v="shieling" />
		<tag k="name" v="Heimstølane" />
		<tag k="place" v="locality" />
		<tag k="ssr:stedsnr" v="370415" />
	</node>
	<node id="-405984" lat="61.1554253702" lon="8.48145022414">
		<tag k="alt_name" v="Tursnes" />
		<tag k="fixme" v="consider place=hamlet" />
		<tag k="name" v="Turtnes" />
		<tag k="place" v="farm" />
		<tag k="ssr:stedsnr" v="370323" />
	</node>
	<node id="-405983" lat="61.1541583313" lon="8.75838333118">
		<tag k="alt_name" v="Søndre Tveitmoen" />
		<tag k="name" v="Tveitamoen" />
		<tag k="place" v="farm" />
		<tag k="ssr:stedsnr" v="370312" />
	</node>
	<node id="-405980" lat="61.105011107" lon="8.67933333875">
		<tag k="historic" v="shieling" />
		<tag k="name" v="Nedre Syndrolstøl" />
		<tag k="place" v="locality" />
		<tag k="ssr:stedsnr" v="361879" />
	</node>
	<node id="-405975" lat="61.1022027799" lon="8.56423889249">
		<tag k="name" v="Bakkeløa" />
		<tag k="place" v="locality" />
		<tag k="ssr:stedsnr" v="361627" />
	</node>
	<node id="-405964" lat="61.14213333" lon="8.84412499855">
		<tag k="name" v="Eikra" />
		<tag k="place" v="farm" />
		<tag k="ssr:stedsnr" v="361215" />
	</node>
	<node id="-405963" lat="61.1453138903" lon="8.85592222602">
		<tag k="name" v="Hålien" />
		<tag k="place" v="farm" />
		<tag k="ssr:stedsnr" v="361212" />
	</node>
	<node id="-405961" lat="61.1797083335" lon="8.11696388759">
		<tag k="name" v="Kyrkjistøga" />
		<tag k="place" v="isolated_dwelling" />
		<tag k="ssr:stedsnr" v="361129" />
	</node>
	<node id="-405960" lat="61.1715888855" lon="8.37194721889">
		<tag k="name" v="Nøsaløudn" />
		<tag k="place" v="locality" />
		<tag k="ssr:stedsnr" v="361294" />
	</node>
	<node id="-405957" lat="61.1533166634" lon="8.75129722111">
		<tag k="name" v="Tveitvollane" />
		<tag k="place" v="isolated_dwelling" />
		<tag k="ssr:stedsnr" v="361199" />
	</node>
	<node id="-405956" lat="61.1618972232" lon="8.7636944499">
		<tag k="name" v="Vegatunga" />
		<tag k="place" v="isolated_dwelling" />
		<tag k="ssr:stedsnr" v="361191" />
	</node>
	<node id="-405953" lat="61.1527138851" lon="8.76183889584">
		<tag k="building" v="industrial" />
		<tag k="name" v="Tveitabru Sag" />
		<tag k="ssr:stedsnr" v="361181" />
	</node>
	<node id="-405952" lat="61.1399694425" lon="8.79604999572">
		<tag k="name" v="Solvang" />
		<tag k="place" v="isolated_dwelling" />
		<tag k="ssr:stedsnr" v="361025" />
	</node>
	<node id="-405945" lat="61.1350836994" lon="8.60739913163">
		<tag k="fixme" v="consider place=hamlet" />
		<tag k="name" v="Syndrol" />
		<tag k="place" v="farm" />
		<tag k="ssr:stedsnr" v="343192" />
	</node>
	<node id="-405944" lat="61.1732444436" lon="8.6784583285">
		<tag k="name" v="Fjellbu" />
		<tag k="place" v="farm" />
		<tag k="ssr:stedsnr" v="343022" />
	</node>
	<node id="-405943" lat="61.1701111072" lon="8.66365555844">
		<tag k="name" v="Herstad" />
		<tag k="place" v="farm" />
		<tag k="ssr:stedsnr" v="343017" />
	</node>
	<node id="-405942" lat="61.1563305562" lon="8.72369444199">
		<tag k="amenity" v="school" />
		<tag k="name" v="Tørpe skule" />
		<tag k="ssr:stedsnr" v="342975" />
	</node>
	<node id="-405938" lat="61.1891944449" lon="8.72535278679">
		<tag k="historic" v="shieling" />
		<tag k="name" v="Løkreimstølen" />
		<tag k="place" v="locality" />
		<tag k="ssr:stedsnr" v="342952" />
	</node>
	<node id="-405918" lat="61.1927722262" lon="8.68259722157">
		<tag k="historic" v="shieling" />
		<tag k="name" v="Nørdre Givrisstølen" />
		<tag k="place" v="locality" />
		<tag k="ssr:stedsnr" v="342039" />
	</node>
	<node id="-405913" lat="61.3752333321" lon="8.2974666648">
		<tag k="alt_name" v="Den Glade Vandrer" />
		<tag k="fixme" v="consider tourism=alpine_hut or tourism=chalet" />
		<tag k="name" v="Fondsbu" />
		<tag k="ssr:stedsnr" v="333999" />
		<tag k="tourism" v="wilderness_hut" />
	</node>
	<node id="-404547" lat="61.1230694476" lon="8.53938888245">
		<tag k="historic" v="shieling" />
		<tag k="name" v="Kvednadn" />
		<tag k="place" v="locality" />
		<tag k="ssr:stedsnr" v="160620" />
	</node>
	<node id="-405884" lat="61.1867194466" lon="8.68931389421">
		<tag k="historic" v="shieling" />
		<tag k="name" v="Gile" />
		<tag k="place" v="locality" />
		<tag k="ssr:stedsnr" v="310713" />
	</node>
	<node id="-405883" lat="61.2125861126" lon="8.83526388129">
		<tag k="historic" v="shieling" />
		<tag k="name" v="Høvdastølen" />
		<tag k="place" v="locality" />
		<tag k="ssr:stedsnr" v="310701" />
	</node>
	<node id="-405876" lat="61.1737654843" lon="8.38720497">
		<tag k="fixme" v="consider place=hamlet" />
		<tag k="name" v="Kvame" />
		<tag k="place" v="farm" />
		<tag k="ssr:stedsnr" v="310593" />
	</node>
	<node id="-405875" lat="61.1801611134" lon="8.37664444413">
		<tag k="historic" v="shieling" />
		<tag k="name" v="Kvamstølen" />
		<tag k="place" v="locality" />
		<tag k="ssr:stedsnr" v="310582" />
	</node>
	<node id="-405871" lat="61.0705250025" lon="8.59366388059">
		<tag k="historic" v="shieling" />
		<tag k="name" v="Hødnstad" />
		<tag k="place" v="locality" />
		<tag k="ssr:stedsnr" v="310398" />
	</node>
	<node id="-405865" lat="61.1401172968" lon="8.63490270216">
		<tag k="fixme" v="consider place=hamlet" />
		<tag k="name" v="Gili" />
		<tag k="place" v="farm" />
		<tag k="ssr:stedsnr" v="310305" />
	</node>
	<node id="-405864" lat="61.1487888848" lon="8.55972500008">
		<tag k="alt_name" v="Søre Hamre" />
		<tag k="name" v="Hamre" />
		<tag k="place" v="farm" />
		<tag k="ssr:stedsnr" v="310302" />
	</node>
	<node id="-405863" lat="61.1446037211" lon="8.64021121296">
		<tag k="fixme" v="consider place=hamlet" />
		<tag k="name" v="Kvam" />
		<tag k="place" v="farm" />
		<tag k="ssr:stedsnr" v="310301" />
	</node>
	<node id="-405859" lat="61.1615353448" lon="8.78824281308">
		<tag k="alt_name" v="Kjos" />
		<tag k="name" v="Kjøs" />
		<tag k="place" v="hamlet" />
		<tag k="ssr:stedsnr" v="310277" />
	</node>
	<node id="-405857" lat="61.1675833325" lon="8.7256583346">
		<tag k="alt_name" v="Hagen, øvre;Hagin" />
		<tag k="name" v="Øvre Hagen" />
		<tag k="place" v="farm" />
		<tag k="ssr:stedsnr" v="310270" />
	</node>
	<node id="-405856" lat="61.1657305526" lon="8.72112778504">
		<tag k="alt_name" v="Hagen, nedre;Hagin" />
		<tag k="name" v="Nedre Hagen" />
		<tag k="place" v="farm" />
		<tag k="ssr:stedsnr" v="310269" />
	</node>
	<node id="-405855" lat="61.1662305596" lon="8.81162499793">
		<tag k="historic" v="shieling" />
		<tag k="name" v="Kråka" />
		<tag k="place" v="locality" />
		<tag k="ssr:stedsnr" v="310264" />
	</node>
	<node id="-405854" lat="61.1596546104" lon="8.79877937336">
		<tag k="fixme" v="consider place=hamlet" />
		<tag k="name" v="Rudi" />
		<tag k="place" v="farm" />
		<tag k="ssr:stedsnr" v="310247" />
	</node>
	<node id="-405852" lat="61.1580342166" lon="8.63495793533">
		<tag k="fixme" v="consider place=hamlet" />
		<tag k="name" v="Møsåker" />
		<tag k="place" v="farm" />
		<tag k="ssr:stedsnr" v="310238" />
	</node>
	<node id="-405851" lat="61.1765750007" lon="8.85768889573">
		<tag k="historic" v="shieling" />
		<tag k="name" v="Skjeftestølen" />
		<tag k="place" v="locality" />
		<tag k="ssr:stedsnr" v="310025" />
	</node>
	<node id="-405849" lat="61.1597861153" lon="8.72638889177">
		<tag k="name" v="Søre Jøvne" />
		<tag k="place" v="farm" />
		<tag k="ssr:stedsnr" v="303311" />
	</node>
	<node id="-405847" lat="61.1278527797" lon="8.60648333342">
		<tag k="name" v="Bø" />
		<tag k="place" v="farm" />
		<tag k="ssr:stedsnr" v="302233" />
	</node>
	<node id="-405841" lat="61.1802666685" lon="8.37590000301">
		<tag k="historic" v="shieling" />
		<tag k="name" v="Midtstølen" />
		<tag k="place" v="locality" />
		<tag k="ssr:stedsnr" v="301382" />
	</node>
	<node id="-405832" lat="61.1251305515" lon="8.57082222999">
		<tag k="alt_name" v="Vangssokni" />
		<tag k="fixme" v="consider place=hamlet" />
		<tag k="name" v="Vang" />
		<tag k="place" v="village" />
		<tag k="ssr:stedsnr" v="213176" />
	</node>
	<node id="-405831" lat="61.2075916661" lon="8.23746943855">
		<tag k="historic" v="shieling" />
		<tag k="name" v="Updalsstølen" />
		<tag k="place" v="locality" />
		<tag k="ssr:stedsnr" v="192653" />
	</node>
	<node id="-405829" lat="61.1930388886" lon="8.386552784">
		<tag k="alt_name" v="Strond, s;Søre Strønd" />
		<tag k="name" v="Søre Strond" />
		<tag k="place" v="farm" />
		<tag k="ssr:stedsnr" v="192597" />
	</node>
	<node id="-405822" lat="61.3773611117" lon="8.30081666635">
		<tag k="name" v="Vinjebue" />
		<tag k="old_name" v="Vinjestugu;Vinjestøga" />
		<tag k="place" v="isolated_dwelling" />
		<tag k="ssr:stedsnr" v="189806" />
	</node>
	<node id="-405819" lat="61.1815172821" lon="8.71109147836">
		<tag k="name" v="Lii" />
		<tag k="place" v="hamlet" />
		<tag k="ssr:stedsnr" v="189686" />
	</node>
	<node id="-405817" lat="61.188863885" lon="8.7240888882">
		<tag k="historic" v="shieling" />
		<tag k="name" v="Liagardstølane" />
		<tag k="place" v="locality" />
		<tag k="ssr:stedsnr" v="189675" />
	</node>
	<node id="-404386" lat="61.1607138874" lon="8.7503777837">
		<tag k="name" v="Jonsødegård" />
		<tag k="place" v="locality" />
		<tag k="ssr:stedsnr" v="240194" />
	</node>
	<node id="-405802" lat="61.1254222193" lon="8.5750694526">
		<tag k="fixme" v="consider place=suburb, village or hamlet" />
		<tag k="name" v="Grindaheim" />
		<tag k="place" v="quarter" />
		<tag k="ssr:stedsnr" v="189282" />
	</node>
	<node id="-405798" lat="61.1592472181" lon="8.7927500069">
		<tag k="name" v="Lalim" />
		<tag k="place" v="farm" />
		<tag k="ssr:stedsnr" v="189235" />
	</node>
	<node id="-405797" lat="61.1510358392" lon="8.55583281403">
		<tag k="name" v="Vennis" />
		<tag k="place" v="hamlet" />
		<tag k="ssr:stedsnr" v="189231" />
	</node>
	<node id="-405792" lat="61.2802138904" lon="8.7096666628">
		<tag k="historic" v="shieling" />
		<tag k="name" v="Sleipestølen" />
		<tag k="place" v="locality" />
		<tag k="ssr:stedsnr" v="189175" />
	</node>
	<node id="-405789" lat="61.1681499997" lon="8.85415833148">
		<tag k="historic" v="shieling" />
		<tag k="name" v="Baklie" />
		<tag k="place" v="locality" />
		<tag k="ssr:stedsnr" v="189034" />
	</node>
	<node id="-405788" lat="61.168633329" lon="8.44676389526">
		<tag k="name" v="Lo" />
		<tag k="place" v="farm" />
		<tag k="ssr:stedsnr" v="188701" />
	</node>
	<node id="-405786" lat="61.1693677714" lon="8.39358300666">
		<tag k="alt_name" v="Eltun" />
		<tag k="name" v="Øvre Eltun" />
		<tag k="place" v="farm" />
		<tag k="ssr:stedsnr" v="188634" />
	</node>
	<node id="-405785" lat="61.1688916634" lon="8.42913888771">
		<tag k="alt_name" v="Hømradn" />
		<tag k="name" v="Homro" />
		<tag k="place" v="farm" />
		<tag k="ssr:stedsnr" v="188630" />
	</node>
	<node id="-405783" lat="61.1560463071" lon="8.5304138982">
		<tag k="name" v="Leine" />
		<tag k="place" v="hamlet" />
		<tag k="ssr:stedsnr" v="188301" />
	</node>
	<node id="-405772" lat="61.1069888904" lon="8.68191110912">
		<tag k="historic" v="shieling" />
		<tag k="name" v="Dalåkerstølen" />
		<tag k="place" v="locality" />
		<tag k="ssr:stedsnr" v="179899" />
	</node>
	<node id="-405762" lat="61.1623611067" lon="8.79936666055">
		<tag k="name" v="Kroko" />
		<tag k="place" v="farm" />
		<tag k="ssr:stedsnr" v="179382" />
	</node>
	<node id="-405756" lat="61.151416666" lon="8.80966111698">
		<tag k="name" v="Veflen" />
		<tag k="place" v="farm" />
		<tag k="ssr:stedsnr" v="179328" />
	</node>
	<node id="-404522" lat="61.1547115464" lon="8.72682306934">
		<tag k="name" v="Rogn" />
		<tag k="place" v="hamlet" />
		<tag k="ssr:stedsnr" v="128240" />
	</node>
	<node id="-404520" lat="61.1869138928" lon="8.87220555668">
		<tag k="historic" v="shieling" />
		<tag k="name" v="Eikrestølen" />
		<tag k="place" v="locality" />
		<tag k="ssr:stedsnr" v="128008" />
	</node>
	<node id="-405742" lat="61.1219861104" lon="8.57275833259">
		<tag k="name" v="Ellingbøgrende" />
		<tag k="place" v="hamlet" />
		<tag k="ssr:stedsnr" v="160641" />
	</node>
	<node id="-405723" lat="61.2070861072" lon="8.35538888072">
		<tag k="name" v="Bjørklund" />
		<tag k="place" v="isolated_dwelling" />
		<tag k="ssr:stedsnr" v="160367" />
	</node>
	<node id="-405719" lat="61.1343916677" lon="8.84267777116">
		<tag k="name" v="Storøyni" />
		<tag k="place" v="farm" />
		<tag k="ssr:stedsnr" v="300257" />
	</node>
	<node id="-405718" lat="61.1535194432" lon="8.74931111446">
		<tag k="name" v="Nyvoll" />
		<tag k="place" v="isolated_dwelling" />
		<tag k="ssr:stedsnr" v="300187" />
	</node>
	<node id="-405717" lat="61.1531194456" lon="8.70514444987">
		<tag k="alt_name" v="Øyadn" />
		<tag k="name" v="Øyo" />
		<tag k="place" v="farm" />
		<tag k="ssr:stedsnr" v="141567" />
	</node>
	<node id="-405704" lat="61.1789420795" lon="8.69415685517">
		<tag k="fixme" v="consider place=hamlet" />
		<tag k="name" v="Givre" />
		<tag k="place" v="farm" />
		<tag k="ssr:stedsnr" v="128694" />
	</node>
	<node id="-405701" lat="61.1755385905" lon="8.70134481928">
		<tag k="alt_name" v="Bakkin" />
		<tag k="fixme" v="consider place=hamlet" />
		<tag k="name" v="Bakken" />
		<tag k="place" v="farm" />
		<tag k="ssr:stedsnr" v="128682" />
	</node>
	<node id="-405698" lat="61.1751328672" lon="8.39591086481">
		<tag k="fixme" v="consider place=hamlet" />
		<tag k="name" v="Brekke" />
		<tag k="place" v="farm" />
		<tag k="ssr:stedsnr" v="128577" />
	</node>
	<node id="-405697" lat="61.2182611136" lon="8.85271667113">
		<tag k="historic" v="shieling" />
		<tag k="name" v="Vøvlisstølen" />
		<tag k="place" v="locality" />
		<tag k="ssr:stedsnr" v="128420" />
	</node>
	<node id="-405694" lat="61.1322666689" lon="8.62933610533">
		<tag k="name" v="Espeli" />
		<tag k="place" v="farm" />
		<tag k="ssr:stedsnr" v="128301" />
	</node>
	<node id="-405689" lat="61.1466554911" lon="8.82564392863">
		<tag k="alt_name" v="Myhre" />
		<tag k="fixme" v="consider place=hamlet" />
		<tag k="name" v="Myre" />
		<tag k="place" v="farm" />
		<tag k="ssr:stedsnr" v="128285" />
	</node>
	<node id="-405688" lat="61.1501666708" lon="8.7271555634">
		<tag k="name" v="Vangsnes" />
		<tag k="place" v="farm" />
		<tag k="ssr:stedsnr" v="128270" />
	</node>
	<node id="-405687" lat="61.1269722267" lon="8.52247500149">
		<tag k="name" v="Vårheim" />
		<tag k="place" v="isolated_dwelling" />
		<tag k="ssr:stedsnr" v="128268" />
	</node>
	<node id="-405686" lat="61.1661694415" lon="8.68321111588">
		<tag k="name" v="Bøkkane" />
		<tag k="place" v="farm" />
		<tag k="ssr:stedsnr" v="128244" />
	</node>
	<node id="-405684" lat="61.1274833322" lon="8.61209443774">
		<tag k="name" v="Klukkargarden" />
		<tag k="place" v="farm" />
		<tag k="ssr:stedsnr" v="120222" />
	</node>
	<node id="-405670" lat="61.0773305581" lon="8.6100861131">
		<tag k="historic" v="shieling" />
		<tag k="name" v="Øyre" />
		<tag k="place" v="locality" />
		<tag k="ssr:stedsnr" v="118547" />
	</node>
	<node id="-405667" lat="61.1492027761" lon="8.82860834103">
		<tag k="name" v="Tørtasgarden" />
		<tag k="place" v="farm" />
		<tag k="ssr:stedsnr" v="118299" />
	</node>
	<node id="-405660" lat="61.1500249973" lon="8.76717500495">
		<tag k="name" v="Østmo" />
		<tag k="place" v="farm" />
		<tag k="ssr:stedsnr" v="118147" />
	</node>
	<node id="-405658" lat="61.0763872307" lon="8.59047862438">
		<tag k="alt_name" v="Gravstølen" />
		<tag k="historic" v="shieling" />
		<tag k="loc_name" v="Grøvsstølen" />
		<tag k="name" v="Grovstølen" />
		<tag k="place" v="locality" />
		<tag k="ssr:stedsnr" v="113383" />
	</node>
	<node id="-405652" lat="61.1938666691" lon="8.68098611492">
		<tag k="historic" v="shieling" />
		<tag k="name" v="Igdestølen" />
		<tag k="place" v="locality" />
		<tag k="ssr:stedsnr" v="105796" />
	</node>
	<node id="-405651" lat="61.1799055574" lon="8.7051472235">
		<tag k="name" v="Fagerlie" />
		<tag k="place" v="isolated_dwelling" />
		<tag k="ssr:stedsnr" v="101647" />
	</node>
	<node id="-405649" lat="61.1336555538" lon="8.60798888124">
		<tag k="name" v="Myresyndrol" />
		<tag k="place" v="farm" />
		<tag k="ssr:stedsnr" v="101184" />
	</node>
	<node id="-405645" lat="61.1803222229" lon="8.72409166586">
		<tag k="name" v="Løkreim" />
		<tag k="place" v="farm" />
		<tag k="ssr:stedsnr" v="100698" />
	</node>
	<node id="-405639" lat="61.1261583364" lon="8.59870833968">
		<tag k="name" v="Smiohaugen" />
		<tag k="place" v="isolated_dwelling" />
		<tag k="ssr:stedsnr" v="100673" />
	</node>
	<node id="-405637" lat="61.1661305584" lon="8.47863055888">
		<tag k="name" v="Tøsadn" />
		<tag k="place" v="isolated_dwelling" />
		<tag k="ssr:stedsnr" v="100443" />
	</node>
	<node id="-405630" lat="61.1890999983" lon="8.69561388439">
		<tag k="historic" v="shieling" />
		<tag k="name" v="Bakkestølen" />
		<tag k="place" v="locality" />
		<tag k="ssr:stedsnr" v="100042" />
	</node>
	<node id="-405628" lat="61.1854805579" lon="8.76397221473">
		<tag k="historic" v="shieling" />
		<tag k="name" v="Bakkestøl" />
		<tag k="place" v="locality" />
		<tag k="ssr:stedsnr" v="99492" />
	</node>
	<node id="-405627" lat="61.1883472233" lon="8.75286945088">
		<tag k="historic" v="shieling" />
		<tag k="name" v="Sæte støl" />
		<tag k="place" v="locality" />
		<tag k="ssr:stedsnr" v="99483" />
	</node>
	<node id="-405624" lat="61.1328777771" lon="8.85508888758">
		<tag k="name" v="Svingen" />
		<tag k="place" v="isolated_dwelling" />
		<tag k="ssr:stedsnr" v="300245" />
	</node>
	<node id="-404500" lat="61.2011222233" lon="8.87709721843">
		<tag k="historic" v="shieling" />
		<tag k="name" v="Lykjestøl" />
		<tag k="place" v="locality" />
		<tag k="ssr:stedsnr" v="115931" />
	</node>
	<node id="-405613" lat="61.2264777751" lon="8.8255500004">
		<tag k="historic" v="shieling" />
		<tag k="name" v="Bundestølen" />
		<tag k="place" v="locality" />
		<tag k="ssr:stedsnr" v="68759" />
	</node>
	<node id="-405611" lat="61.1803817264" lon="8.72306186893">
		<tag k="alt_name" v="Lokreim" />
		<tag k="fixme" v="consider place=hamlet" />
		<tag k="name" v="Løkreim" />
		<tag k="place" v="farm" />
		<tag k="ssr:stedsnr" v="68725" />
	</node>
	<node id="-405601" lat="61.1278000022" lon="8.5383916684">
		<tag k="alt_name" v="Slettadn" />
		<tag k="loc_name" v="Slettun" />
		<tag k="name" v="Slettene" />
		<tag k="place" v="farm" />
		<tag k="ssr:stedsnr" v="68295" />
	</node>
	<node id="-405600" lat="61.1225645243" lon="8.57833078375">
		<tag k="name" v="Ellingbø" />
		<tag k="place" v="hamlet" />
		<tag k="ssr:stedsnr" v="68325" />
	</node>
	<node id="-405599" lat="61.1228583375" lon="8.60112500203">
		<tag k="alt_name" v="Skjælhaugen" />
		<tag k="name" v="Skjelhaugen" />
		<tag k="place" v="farm" />
		<tag k="ssr:stedsnr" v="68322" />
	</node>
	<node id="-404495" lat="61.1695583314" lon="8.66450000728">
		<tag k="name" v="Gamle Haugen" />
		<tag k="place" v="locality" />
		<tag k="ssr:stedsnr" v="101012" />
	</node>
	<node id="-405587" lat="61.1704435826" lon="8.41943476528">
		<tag k="fixme" v="consider place=hamlet" />
		<tag k="name" v="Steinde" />
		<tag k="place" v="farm" />
		<tag k="ssr:stedsnr" v="67600" />
	</node>
	<node id="-405583" lat="61.1397777792" lon="8.60713333045">
		<tag k="name" v="Villand" />
		<tag k="place" v="farm" />
		<tag k="ssr:stedsnr" v="67332" />
	</node>
	<node id="-405582" lat="61.1375722236" lon="8.52727222773">
		<tag k="alt_name" v="Nørdre Kvam" />
		<tag k="name" v="Kvam" />
		<tag k="place" v="farm" />
		<tag k="ssr:stedsnr" v="67330" />
	</node>
	<node id="-405580" lat="61.178922225" lon="8.72912500134">
		<tag k="name" v="Nørdre Kungslie" />
		<tag k="place" v="farm" />
		<tag k="ssr:stedsnr" v="60314" />
	</node>
	<node id="-405579" lat="61.1286500043" lon="8.61579165735">
		<tag k="name" v="Njukadn" />
		<tag k="place" v="farm" />
		<tag k="ssr:stedsnr" v="59233" />
	</node>
	<node id="-405578" lat="61.1294694435" lon="8.60707499789">
		<tag k="name" v="Nedre Bø" />
		<tag k="place" v="farm" />
		<tag k="ssr:stedsnr" v="59193" />
	</node>
	<node id="-405575" lat="61.0979249962" lon="8.58807500338">
		<tag k="name" v="Tuneløa" />
		<tag k="place" v="locality" />
		<tag k="ssr:stedsnr" v="58626" />
	</node>
	<node id="-405572" lat="61.2048555565" lon="8.36422778201">
		<tag k="name" v="Tangelo" />
		<tag k="place" v="farm" />
		<tag k="ssr:stedsnr" v="58486" />
	</node>
	<node id="-405570" lat="61.1769277755" lon="8.31570277496">
		<tag k="name" v="Fiskebue" />
		<tag k="place" v="isolated_dwelling" />
		<tag k="ssr:stedsnr" v="58429" />
	</node>
	<node id="-405560" lat="61.1505916693" lon="8.81522222573">
		<tag k="amenity" v="school" />
		<tag k="name" v="Høre skule" />
		<tag k="ssr:stedsnr" v="58355" />
	</node>
	<node id="-405559" lat="61.1621472223" lon="8.36678610783">
		<tag k="historic" v="shieling" />
		<tag k="name" v="Høvdestølen" />
		<tag k="place" v="locality" />
		<tag k="ssr:stedsnr" v="58320" />
	</node>
	<node id="-405556" lat="61.1677111137" lon="8.36964444742">
		<tag k="historic" v="shieling" />
		<tag k="name" v="Vegastølen" />
		<tag k="place" v="locality" />
		<tag k="ssr:stedsnr" v="58304" />
	</node>
	<node id="-405552" lat="61.2090250024" lon="8.23579721974">
		<tag k="historic" v="shieling" />
		<tag k="name" v="Høgesyn" />
		<tag k="place" v="locality" />
		<tag k="ssr:stedsnr" v="58257" />
	</node>
	<node id="-405549" lat="61.180505557" lon="8.16011943615">
		<tag k="historic" v="shieling" />
		<tag k="name" v="Øvre Jordet" />
		<tag k="place" v="locality" />
		<tag k="ssr:stedsnr" v="58228" />
	</node>
	<node id="-405548" lat="61.1553305516" lon="8.79704722958">
		<tag k="name" v="Kvien" />
		<tag k="place" v="farm" />
		<tag k="ssr:stedsnr" v="58202" />
	</node>
	<node id="-405547" lat="61.157683333" lon="8.79648333814">
		<tag k="name" v="Rudi" />
		<tag k="place" v="farm" />
		<tag k="ssr:stedsnr" v="58201" />
	</node>
	<node id="-405546" lat="61.1503444436" lon="8.76834722509">
		<tag k="name" v="Østby" />
		<tag k="place" v="isolated_dwelling" />
		<tag k="ssr:stedsnr" v="58193" />
	</node>
	<node id="-405543" lat="61.1418888926" lon="8.79041389431">
		<tag k="building" v="industrial" />
		<tag k="industrial" v="factory" />
		<tag k="name" v="Kvismo sag" />
		<tag k="ssr:stedsnr" v="58020" />
	</node>
	<node id="-405542" lat="61.141233334" lon="8.79098055312">
		<tag k="building" v="industrial" />
		<tag k="industrial" v="factory" />
		<tag k="name" v="Ryfoss betong" />
		<tag k="ssr:stedsnr" v="58014" />
	</node>
	<node id="-405540" lat="61.1783340375" lon="8.73202540065">
		<tag k="fixme" v="consider place=hamlet" />
		<tag k="name" v="Kongslii" />
		<tag k="place" v="farm" />
		<tag k="ssr:stedsnr" v="52676" />
	</node>
	<node id="-405535" lat="61.1844305535" lon="8.76466388208">
		<tag k="historic" v="shieling" />
		<tag k="name" v="Øygardstøl" />
		<tag k="place" v="locality" />
		<tag k="ssr:stedsnr" v="44819" />
	</node>
	<node id="-405534" lat="61.1449166633" lon="8.51444165872">
		<tag k="name" v="Flatrud" />
		<tag k="place" v="locality" />
		<tag k="ssr:stedsnr" v="42035" />
	</node>
	<node id="-405533" lat="61.1693861069" lon="8.67844167232">
		<tag k="name" v="Heensvoll" />
		<tag k="place" v="farm" />
		<tag k="ssr:stedsnr" v="40028" />
	</node>
	<node id="-405525" lat="61.1299999969" lon="8.61017499295">
		<tag k="name" v="Bakstallen" />
		<tag k="place" v="isolated_dwelling" />
		<tag k="ssr:stedsnr" v="39643" />
	</node>
	<node id="-405522" lat="61.1870861073" lon="8.75798612014">
		<tag k="historic" v="shieling" />
		<tag k="name" v="Hagen" />
		<tag k="place" v="locality" />
		<tag k="ssr:stedsnr" v="39433" />
	</node>
	<node id="-405521" lat="61.1541750029" lon="8.80256666535">
		<tag k="name" v="Kvien" />
		<tag k="place" v="farm" />
		<tag k="ssr:stedsnr" v="39377" />
	</node>
	<node id="-405518" lat="61.1499666664" lon="8.7239861035">
		<tag k="alt_name" v="Vestli" />
		<tag k="name" v="Børhus" />
		<tag k="place" v="farm" />
		<tag k="ssr:stedsnr" v="39341" />
	</node>
	<node id="-405514" lat="61.189666668" lon="8.70664444383">
		<tag k="historic" v="shieling" />
		<tag k="name" v="Dalsstølen" />
		<tag k="place" v="locality" />
		<tag k="ssr:stedsnr" v="39041" />
	</node>
	<node id="-404481" lat="61.2271249999" lon="8.82610277689">
		<tag k="historic" v="shieling" />
		<tag k="name" v="Haugastøl" />
		<tag k="place" v="locality" />
		<tag k="ssr:stedsnr" v="99503" />
	</node>
	<node id="-405508" lat="61.2046744379" lon="8.36973278234">
		<tag k="alt_name" v="Svejisgaradn" />
		<tag k="fixme" v="consider place=hamlet" />
		<tag k="name" v="Sveji" />
		<tag k="place" v="farm" />
		<tag k="ssr:stedsnr" v="10573" />
	</node>
</osm>
