<?xml version="1.0" encoding="UTF-8"?>
<osm version="0.6" generator="osmapis">
	<node lat="61.016049996877086" lon="8.717674991806378" id="-47024">
		<tag k="name" v="Tangeglupen" />
		<tag k="natural" v="strait" />
		<tag k="ssr:stedsnr" v="7416" />
	</node>
	<node lat="61.085704178128275" lon="8.651473017978788" id="-47026">
		<tag k="name" v="Høljesyndin" />
		<tag k="natural" v="water" />
		<tag k="ssr:stedsnr" v="7356" />
		<tag k="water" v="lake" />
	</node>
	<node lat="61.35799527499929" lon="8.179014850700508" id="-47041">
		<tag k="loc_name" v="Køldedøla" />
		<tag k="name" v="Koldedøla" />
		<tag k="ssr:stedsnr" v="33318" />
		<tag k="waterway" v="river" />
	</node>
	<node lat="61.284069442305125" lon="8.663419453110041" id="-47043">
		<tag k="name" v="Ryggibakkvike" />
		<tag k="natural" v="bay" />
		<tag k="ssr:stedsnr" v="236125" />
	</node>
	<node lat="61.15878333616916" lon="8.396266674853388" id="-47046">
		<tag k="name" v="Drøsjainbekken" />
		<tag k="ssr:stedsnr" v="39320" />
		<tag k="waterway" v="stream" />
	</node>
	<node lat="61.08370833723753" lon="8.5586805481485" id="-47068">
		<tag k="alt_name" v="Grøvsdøla" />
		<tag k="name" v="Grovsdøla" />
		<tag k="ssr:stedsnr" v="52315" />
		<tag k="waterway" v="stream" />
	</node>
	<node lat="61.14801111126514" lon="8.76514444613258" id="-47075">
		<tag k="name" v="Gardalsøyene" />
		<tag k="place" v="island" />
		<tag k="ssr:stedsnr" v="58192" />
	</node>
	<node lat="61.16316110811735" lon="8.818494448732178" id="-47083">
		<tag k="name" v="Stormyrbekken" />
		<tag k="ssr:stedsnr" v="58411" />
		<tag k="waterway" v="stream" />
	</node>
	<node lat="61.18528611176003" lon="8.192300004651484" id="-47086">
		<tag k="name" v="Myrevike" />
		<tag k="natural" v="bay" />
		<tag k="ssr:stedsnr" v="240266" />
	</node>
	<node lat="61.20147500254548" lon="8.293588894636992" id="-47087">
		<tag k="name" v="Varpabekken" />
		<tag k="ssr:stedsnr" v="58384" />
		<tag k="waterway" v="stream" />
	</node>
	<node lat="61.26176944173031" lon="8.203638887679414" id="-47098">
		<tag k="name" v="Melvike" />
		<tag k="natural" v="bay" />
		<tag k="old_name" v="Mellvike" />
		<tag k="ssr:stedsnr" v="240631" />
	</node>
	<node lat="61.109486108064836" lon="8.476577771394124" id="-47101">
		<tag k="name" v="Gamlestølsåne" />
		<tag k="ssr:stedsnr" v="240713" />
		<tag k="waterway" v="stream" />
	</node>
	<node lat="61.37395555531603" lon="8.263505563959551" id="-47125">
		<tag k="name" v="Sløtabekken" />
		<tag k="ssr:stedsnr" v="68821" />
		<tag k="waterway" v="stream" />
	</node>
	<node lat="61.146311111149274" lon="8.558524995901681" id="-47139">
		<tag k="name" v="Lundehamarn" />
		<tag k="natural" v="cape" />
		<tag k="ssr:stedsnr" v="100678" />
	</node>
	<node lat="61.080966665235614" lon="8.600294442542715" id="-47147">
		<tag k="name" v="Kinnebekken" />
		<tag k="ssr:stedsnr" v="249352" />
		<tag k="waterway" v="stream" />
	</node>
	<node lat="61.05681666928537" lon="8.626233327708677" id="-47151">
		<tag k="alt_name" v="Midstrandbekken;Midtstrøndsbekken" />
		<tag k="name" v="Midtstrondbekken" />
		<tag k="ssr:stedsnr" v="249395" />
		<tag k="waterway" v="stream" />
	</node>
	<node lat="61.166991671043235" lon="8.346327777948973" id="-47157">
		<tag k="name" v="Rødøla" />
		<tag k="ssr:stedsnr" v="249580" />
		<tag k="waterway" v="river" />
	</node>
	<node lat="61.279557704139066" lon="8.560123940132677" id="-47172">
		<tag k="name" v="Dingla" />
		<tag k="ssr:stedsnr" v="250200" />
		<tag k="waterway" v="river" />
	</node>
	<node lat="61.26590119603218" lon="8.351800185833927" id="-47188">
		<tag k="name" v="Steinbusjøen" />
		<tag k="natural" v="water" />
		<tag k="ssr:stedsnr" v="250774" />
		<tag k="water" v="lake" />
	</node>
	<node lat="61.17335555831364" lon="8.2031916596372" id="-47191">
		<tag k="name" v="Store hølen" />
		<tag k="place" v="locality" />
		<tag k="ssr:stedsnr" v="118215" />
	</node>
	<node lat="61.20344166754861" lon="8.164677777975239" id="-47194">
		<tag k="name" v="Sporen" />
		<tag k="natural" v="bay" />
		<tag k="ssr:stedsnr" v="118171" />
	</node>
	<node lat="61.10587778102422" lon="8.734749997266356" id="-47196">
		<tag k="name" v="Brekkåne" />
		<tag k="ssr:stedsnr" v="250881" />
		<tag k="waterway" v="stream" />
	</node>
	<node lat="61.107891667856734" lon="8.687336102681828" id="-47199">
		<tag k="name" v="Pålssanden" />
		<tag k="natural" v="beach" />
		<tag k="ssr:stedsnr" v="118880" />
	</node>
	<node lat="61.1191333324506" lon="8.512330551048105" id="-47205">
		<tag k="name" v="Halvarsbekken" />
		<tag k="ssr:stedsnr" v="119830" />
		<tag k="waterway" v="stream" />
	</node>
	<node lat="61.08199999599936" lon="8.615816669821385" id="-47213">
		<tag k="name" v="Lutabekken" />
		<tag k="ssr:stedsnr" v="128318" />
		<tag k="waterway" v="stream" />
	</node>
	<node lat="61.24122499631823" lon="8.69497500339336" id="-47232">
		<tag k="name" v="Mugna" />
		<tag k="ssr:stedsnr" v="128698" />
		<tag k="waterway" v="river" />
	</node>
	<node lat="61.334826245307454" lon="8.414065142515101" id="-47234">
		<tag k="name" v="Dryllin" />
		<tag k="natural" v="water" />
		<tag k="ssr:stedsnr" v="129815" />
		<tag k="water" v="lake" />
	</node>
	<node lat="61.36229999567109" lon="8.381499991692104" id="-47235">
		<tag k="name" v="Bygdin" />
		<tag k="natural" v="water" />
		<tag k="ssr:stedsnr" v="129821" />
		<tag k="water" v="lake" />
	</node>
	<node lat="61.37407499583588" lon="8.390116671368725" id="-47236">
		<tag k="name" v="Tolorma" />
		<tag k="old_name" v="Tolorina" />
		<tag k="ssr:stedsnr" v="129824" />
		<tag k="waterway" v="stream" />
	</node>
	<node lat="61.40062500271594" lon="8.37901944945309" id="-47240">
		<tag k="name" v="Høystakka" />
		<tag k="ssr:stedsnr" v="129842" />
		<tag k="waterway" v="river" />
	</node>
	<node lat="61.061424995579785" lon="8.528955561018511" id="-47244">
		<tag k="name" v="Smådøla" />
		<tag k="ssr:stedsnr" v="130621" />
		<tag k="waterway" v="river" />
	</node>
	<node lat="61.21159634525483" lon="8.143297823484906" id="-47245">
		<tag k="name" v="Austrefjorden" />
		<tag k="natural" v="water" />
		<tag k="ssr:stedsnr" v="131619" />
	</node>
	<node lat="61.107986555300144" lon="8.702114879077314" id="-47251">
		<tag k="name" v="Tørpen" />
		<tag k="natural" v="cape" />
		<tag k="ssr:stedsnr" v="154901" />
	</node>
	<node lat="61.290377778057675" lon="8.640905559434618" id="-47256">
		<tag k="name" v="Sendeåne" />
		<tag k="ssr:stedsnr" v="175105" />
		<tag k="waterway" v="stream" />
	</node>
	<node lat="61.310791662759186" lon="8.655888896084809" id="-47258">
		<tag k="name" v="Olevikje" />
		<tag k="natural" v="bay" />
		<tag k="ssr:stedsnr" v="175122" />
	</node>
	<node lat="61.06124721991919" lon="8.600661108587465" id="-47264">
		<tag k="name" v="Skålesanden" />
		<tag k="natural" v="beach" />
		<tag k="ssr:stedsnr" v="179572" />
	</node>
	<node lat="61.07467222337817" lon="8.581686113919357" id="-47265">
		<tag k="name" v="Skåldungbekken" />
		<tag k="ssr:stedsnr" v="179574" />
		<tag k="waterway" v="stream" />
	</node>
	<node lat="61.095741668514854" lon="8.706722226742956" id="-47266">
		<tag k="name" v="Kviestølsøddin" />
		<tag k="natural" v="cape" />
		<tag k="ssr:stedsnr" v="179823" />
	</node>
	<node lat="61.167061112684465" lon="8.26329444173176" id="-47272">
		<tag k="name" v="Vesle Tenla" />
		<tag k="natural" v="water" />
		<tag k="ssr:stedsnr" v="180259" />
	</node>
	<node lat="61.32091825475913" lon="8.755068403182369" id="-47278">
		<tag k="name" v="Kjelda" />
		<tag k="natural" v="water" />
		<tag k="ssr:stedsnr" v="189161" />
	</node>
	<node lat="61.41572500210507" lon="8.229886109350435" id="-47291">
		<tag k="name" v="Mjølkedøla" />
		<tag k="ssr:stedsnr" v="189828" />
		<tag k="waterway" v="river" />
	</node>
	<node lat="61.20667499843956" lon="8.660161116731457" id="-47299">
		<tag k="name" v="Svarte Føssen" />
		<tag k="natural" v="waterfall" />
		<tag k="ssr:stedsnr" v="221086" />
	</node>
	<node lat="61.20996666460937" lon="8.652802769672125" id="-47300">
		<tag k="name" v="Øyestølsbekken" />
		<tag k="ssr:stedsnr" v="221107" />
		<tag k="waterway" v="stream" />
	</node>
	<node lat="61.15422222175049" lon="8.680641660232801" id="-47346">
		<tag k="name" v="Lange Skjæret" />
		<tag k="place" v="islet" />
		<tag k="ssr:stedsnr" v="240927" />
	</node>
	<node lat="61.1658055541541" lon="8.632777779569023" id="-47348">
		<tag k="name" v="Møsåkerbekken" />
		<tag k="ssr:stedsnr" v="240932" />
		<tag k="waterway" v="stream" />
	</node>
	<node lat="61.215858332407876" lon="8.737483329497868" id="-47362">
		<tag k="name" v="Tverrbekken" />
		<tag k="old_name" v="Tvørrbekken" />
		<tag k="ssr:stedsnr" v="282016" />
		<tag k="waterway" v="stream" />
	</node>
	<node lat="61.171247218108896" lon="8.402494451738905" id="-47367">
		<tag k="name" v="Brandsøynadn" />
		<tag k="place" v="islet" />
		<tag k="ssr:stedsnr" v="282404" />
	</node>
	<node lat="61.17312222010743" lon="8.391838642633102" id="-47368">
		<tag k="name" v="Kvamsfjorden" />
		<tag k="natural" v="water" />
		<tag k="ssr:stedsnr" v="282410" />
	</node>
	<node lat="61.19468055991556" lon="8.396349996311836" id="-47374">
		<tag k="name" v="Skjerva" />
		<tag k="ssr:stedsnr" v="282481" />
		<tag k="waterway" v="stream" />
	</node>
	<node lat="61.13535277788001" lon="8.59633054907913" id="-47378">
		<tag k="name" v="Katteskjær" />
		<tag k="place" v="islet" />
		<tag k="ssr:stedsnr" v="282688" />
	</node>
	<node lat="61.38063055189091" lon="8.338930563291642" id="-47396">
		<tag k="name" v="Brandbustrønde" />
		<tag k="natural" v="beach" />
		<tag k="ssr:stedsnr" v="300607" />
	</node>
	<node lat="61.10864166468354" lon="8.693797216079842" id="-47401">
		<tag k="name" v="Myreøddin" />
		<tag k="natural" v="cape" />
		<tag k="ssr:stedsnr" v="300887" />
	</node>
	<node lat="61.20613055237927" lon="8.233172224570874" id="-47402">
		<tag k="name" v="Bjordalsbekken" />
		<tag k="ssr:stedsnr" v="301213" />
		<tag k="waterway" v="stream" />
	</node>
	<node lat="61.15036389250435" lon="8.560569435434186" id="-47420">
		<tag k="name" v="Hamrisbekken" />
		<tag k="ssr:stedsnr" v="464718" />
		<tag k="waterway" v="stream" />
	</node>
	<node lat="60.61495833306978" lon="9.93317776970039" id="-47424">
		<tag k="name" v="Begna" />
		<tag k="old_name" v="Bægna;Bejna;Bejnaelven" />
		<tag k="ssr:stedsnr" v="309000" />
		<tag k="waterway" v="river" />
	</node>
	<node lat="61.164349998936984" lon="8.493783329175505" id="-47452">
		<tag k="name" v="Maureøddin" />
		<tag k="natural" v="cape" />
		<tag k="ssr:stedsnr" v="342403" />
	</node>
	<node lat="61.043316670063895" lon="8.655302777124124" id="-47458">
		<tag k="name" v="Haugaøddin" />
		<tag k="natural" v="cape" />
		<tag k="ssr:stedsnr" v="342744" />
	</node>
	<node lat="61.21995833322984" lon="8.865030549440755" id="-47466">
		<tag k="name" v="Bjørånvike" />
		<tag k="natural" v="bay" />
		<tag k="ssr:stedsnr" v="478936" />
	</node>
	<node lat="61.30778333649643" lon="8.643341666107462" id="-47470">
		<tag k="name" v="Oleøddin" />
		<tag k="natural" v="cape" />
		<tag k="ssr:stedsnr" v="479146" />
	</node>
	<node lat="61.12745833056838" lon="8.749311108188492" id="-47484">
		<tag k="name" v="Sandbekken" />
		<tag k="ssr:stedsnr" v="482028" />
		<tag k="waterway" v="stream" />
	</node>
	<node lat="61.16318610921513" lon="8.745094449875522" id="-47489">
		<tag k="name" v="Ljøsneosen" />
		<tag k="natural" v="bay" />
		<tag k="ssr:stedsnr" v="482382" />
	</node>
	<node lat="61.21019166807446" lon="8.28070833994965" id="-47509">
		<tag k="name" v="Ylja" />
		<tag k="ssr:stedsnr" v="393915" />
		<tag k="waterway" v="river" />
	</node>
	<node lat="61.19767222603296" lon="8.66153333661079" id="-47511">
		<tag k="name" v="Brekkehølen" />
		<tag k="place" v="locality" />
		<tag k="ssr:stedsnr" v="403099" />
	</node>
	<node lat="61.171419447662664" lon="8.399074995904254" id="-47518">
		<tag k="name" v="Lundsfjorden" />
		<tag k="natural" v="water" />
		<tag k="ssr:stedsnr" v="403482" />
	</node>
	<node lat="61.1507833311095" lon="8.759216665766877" id="-47525">
		<tag k="name" v="Kringlingane" />
		<tag k="natural" v="cape" />
		<tag k="ssr:stedsnr" v="422156" />
	</node>
	<node lat="61.078402781716676" lon="8.699083329753662" id="-47533">
		<tag k="name" v="Bøastølsåne" />
		<tag k="ssr:stedsnr" v="422833" />
		<tag k="waterway" v="stream" />
	</node>
	<node lat="61.17387222010323" lon="8.187466663331593" id="-47538">
		<tag k="name" v="Søre Øddin" />
		<tag k="natural" v="cape" />
		<tag k="ssr:stedsnr" v="423217" />
	</node>
	<node lat="61.273800004222004" lon="8.234500002895722" id="-47557">
		<tag k="name" v="Målnesbekken" />
		<tag k="ssr:stedsnr" v="433813" />
		<tag k="waterway" v="stream" />
	</node>
	<node lat="61.31914999904635" lon="8.723313893502082" id="-47561">
		<tag k="name" v="Vegabekken" />
		<tag k="ssr:stedsnr" v="492143" />
		<tag k="waterway" v="stream" />
	</node>
	<node lat="61.18882500217544" lon="8.081841673126435" id="-47564">
		<tag k="name" v="Grøna" />
		<tag k="ssr:stedsnr" v="434875" />
		<tag k="waterway" v="river" />
	</node>
	<node lat="61.11120970636616" lon="8.699301432064912" id="-47570">
		<tag k="name" v="Alaosen" />
		<tag k="natural" v="bay" />
		<tag k="ssr:stedsnr" v="492345" />
	</node>
	<node lat="61.17230277756769" lon="8.208033329495471" id="-47576">
		<tag k="name" v="Tenla" />
		<tag k="ssr:stedsnr" v="492542" />
		<tag k="waterway" v="river" />
	</node>
	<node lat="61.163607588859804" lon="8.248224839835622" id="-47579">
		<tag k="name" v="Tenlefjorden" />
		<tag k="natural" v="water" />
		<tag k="ssr:stedsnr" v="492550" />
		<tag k="water" v="lake" />
	</node>
	<node lat="61.11437222247005" lon="8.45511111694405" id="-47603">
		<tag k="name" v="Skåleliåne" />
		<tag k="ssr:stedsnr" v="464408" />
		<tag k="waterway" v="stream" />
	</node>
	<node lat="61.152813885982795" lon="8.476288887397795" id="-47605">
		<tag k="name" v="Hagasteinbekken" />
		<tag k="ssr:stedsnr" v="464477" />
		<tag k="waterway" v="stream" />
	</node>
	<node lat="61.179065593960935" lon="8.186559784095111" id="-47607">
		<tag k="alt_name" v="Støgofjorden" />
		<tag k="name" v="Otrøvatnet" />
		<tag k="natural" v="water" />
		<tag k="old_name" v="Otrøyvatnet" />
		<tag k="ssr:stedsnr" v="674578" />
		<tag k="water" v="lake" />
	</node>
	<node lat="61.26603260863815" lon="8.717273932296521" id="-47618">
		<tag k="name" v="Fleinsendin" />
		<tag k="natural" v="water" />
		<tag k="ssr:stedsnr" v="675239" />
		<tag k="water" v="lake" />
	</node>
	<node lat="61.148936113712885" lon="8.60005833367881" id="-47620">
		<tag k="name" v="Sandvike" />
		<tag k="natural" v="bay" />
		<tag k="ssr:stedsnr" v="471403" />
	</node>
	<node lat="61.15492873362694" lon="8.684915930207966" id="-47626">
		<tag k="alt_name" v="Nørsvinsfjorden;Nørsvinfjorden" />
		<tag k="name" v="Norsvinsfjorden" />
		<tag k="natural" v="water" />
		<tag k="ssr:stedsnr" v="476253" />
	</node>
	<node lat="61.138266669513875" lon="8.82179444120799" id="-47629">
		<tag k="name" v="Vesleåni" />
		<tag k="ssr:stedsnr" v="482211" />
		<tag k="waterway" v="stream" />
	</node>
	<node lat="61.16098333162286" lon="8.218719449713653" id="-47633">
		<tag k="name" v="Grøne Kiladn" />
		<tag k="ssr:stedsnr" v="483282" />
		<tag k="waterway" v="stream" />
	</node>
	<node lat="61.276386114875706" lon="8.595330558076164" id="-47658">
		<tag k="name" v="Skjetnisbekken" />
		<tag k="ssr:stedsnr" v="493218" />
		<tag k="waterway" v="stream" />
	</node>
	<node lat="61.294709012685956" lon="8.591844744681122" id="-47659">
		<tag k="name" v="Skjetnin" />
		<tag k="natural" v="water" />
		<tag k="ssr:stedsnr" v="493187" />
	</node>
	<node lat="61.228438886986616" lon="8.813911104870503" id="-47668">
		<tag k="name" v="Hundetjern" />
		<tag k="natural" v="water" />
		<tag k="ssr:stedsnr" v="524417" />
		<tag k="water" v="pond" />
	</node>
	<node lat="61.211547220853156" lon="8.63675833081015" id="-47671">
		<tag k="name" v="Øynadn" />
		<tag k="place" v="islet" />
		<tag k="ssr:stedsnr" v="525009" />
	</node>
	<node lat="61.26033888752338" lon="8.717458341111925" id="-47680">
		<tag k="name" v="Øddestølsodden" />
		<tag k="natural" v="cape" />
		<tag k="ssr:stedsnr" v="539111" />
	</node>
	<node lat="61.092616662548615" lon="8.708174994653529" id="-47688">
		<tag k="name" v="Vesleøyne" />
		<tag k="place" v="islet" />
		<tag k="ssr:stedsnr" v="543810" />
	</node>
	<node lat="61.18080555971705" lon="8.370305546197265" id="-47692">
		<tag k="name" v="Hagabekken" />
		<tag k="ssr:stedsnr" v="544385" />
		<tag k="waterway" v="stream" />
	</node>
	<node lat="61.01064999940467" lon="8.722380555497871" id="-47712">
		<tag k="name" v="Flåsanden" />
		<tag k="natural" v="beach" />
		<tag k="ssr:stedsnr" v="553414" />
	</node>
	<node lat="61.198869446614914" lon="8.692938891774494" id="-47735">
		<tag k="name" v="Sandhødnbekkidn" />
		<tag k="ssr:stedsnr" v="585014" />
		<tag k="waterway" v="stream" />
	</node>
	<node lat="61.146811113946335" lon="8.615491668019898" id="-47742">
		<tag k="name" v="Killingnes" />
		<tag k="place" v="island" />
		<tag k="ssr:stedsnr" v="585703" />
	</node>
	<node lat="61.17539167087373" lon="8.178591665144587" id="-47757">
		<tag k="name" v="Nørdre Øddin" />
		<tag k="natural" v="cape" />
		<tag k="ssr:stedsnr" v="604212" />
	</node>
	<node lat="61.27476369976026" lon="8.141980831838506" id="-47783">
		<tag k="name" v="Tyinosen" />
		<tag k="natural" v="bay" />
		<tag k="ssr:stedsnr" v="614816" />
	</node>
	<node lat="60.97539999955247" lon="8.650555556813101" id="-47786">
		<tag k="name" v="Bøabekken" />
		<tag k="ssr:stedsnr" v="615752" />
		<tag k="waterway" v="stream" />
	</node>
	<node lat="61.23938611240932" lon="8.290258331628914" id="-47787">
		<tag k="name" v="Yljeosen" />
		<tag k="natural" v="water" />
		<tag k="ssr:stedsnr" v="617606" />
	</node>
	<node lat="61.20292222271031" lon="8.674097217603755" id="-47800">
		<tag k="name" v="Grønstølbekken" />
		<tag k="ssr:stedsnr" v="645080" />
		<tag k="waterway" v="stream" />
	</node>
	<node lat="61.17178888538371" lon="8.428713883962654" id="-47824">
		<tag k="name" v="Øndersurbekken" />
		<tag k="ssr:stedsnr" v="707437" />
		<tag k="waterway" v="stream" />
	</node>
	<node lat="61.166738886844314" lon="8.492175003439023" id="-47826">
		<tag k="name" v="Døttebekken" />
		<tag k="ssr:stedsnr" v="707464" />
		<tag k="waterway" v="stream" />
	</node>
	<node lat="61.16063333380573" lon="8.61416112011182" id="-47832">
		<tag k="name" v="Skiftisbekken" />
		<tag k="ssr:stedsnr" v="707731" />
		<tag k="waterway" v="stream" />
	</node>
	<node lat="61.234483333078614" lon="8.251800001402632" id="-47838">
		<tag k="name" v="Bryggjestølssanden" />
		<tag k="natural" v="beach" />
		<tag k="ssr:stedsnr" v="664586" />
	</node>
	<node lat="61.165402780266675" lon="8.150697223227661" id="-47843">
		<tag k="name" v="Skavlegilåne" />
		<tag k="ssr:stedsnr" v="665304" />
		<tag k="waterway" v="stream" />
	</node>
	<node lat="61.1661999997962" lon="8.235616665414367" id="-47844">
		<tag k="name" v="Tenleosen" />
		<tag k="natural" v="bay" />
		<tag k="ssr:stedsnr" v="665305" />
	</node>
	<node lat="61.30314034712653" lon="8.635970622628381" id="-47868">
		<tag k="alt_name" v="Olevatn" />
		<tag k="name" v="Olefjorden" />
		<tag k="natural" v="water" />
		<tag k="ssr:stedsnr" v="675201" />
		<tag k="water" v="lake" />
	</node>
	<node lat="61.20392902063556" lon="8.12033857258653" id="-47874">
		<tag k="alt_name" v="Slettingen" />
		<tag k="name" v="Slettningen" />
		<tag k="natural" v="water" />
		<tag k="old_name" v="Sletningen" />
		<tag k="ssr:stedsnr" v="678623" />
		<tag k="water" v="lake" />
	</node>
	<node lat="61.14473611031108" lon="8.586608326884857" id="-47887">
		<tag k="name" v="Krokaøddin" />
		<tag k="natural" v="cape" />
		<tag k="ssr:stedsnr" v="707703" />
	</node>
	<node lat="61.159158336272505" lon="8.510799996125614" id="-47891">
		<tag k="name" v="Kløvningadn" />
		<tag k="natural" v="beach" />
		<tag k="ssr:stedsnr" v="707727" />
	</node>
	<node lat="61.25424444281579" lon="8.721791660960369" id="-47900">
		<tag k="name" v="Storøyne" />
		<tag k="place" v="islet" />
		<tag k="ssr:stedsnr" v="721114" />
	</node>
	<node lat="61.38816944546821" lon="8.321836103624385" id="-47909">
		<tag k="name" v="Gravabekken" />
		<tag k="ssr:stedsnr" v="725543" />
		<tag k="waterway" v="stream" />
	</node>
	<node lat="61.20851944876634" lon="8.341919446409737" id="-47920">
		<tag k="name" v="Bandåne" />
		<tag k="ssr:stedsnr" v="726372" />
		<tag k="waterway" v="stream" />
	</node>
	<node lat="61.20391388958768" lon="8.26776110586247" id="-47921">
		<tag k="loc_name" v="Fløgstrønde;Flogstronde" />
		<tag k="name" v="Fløkstrønde" />
		<tag k="natural" v="beach" />
		<tag k="ssr:stedsnr" v="726386" />
	</node>
	<node lat="61.15036110973736" lon="8.661930563761421" id="-47926">
		<tag k="loc_name" v="Saubekken" />
		<tag k="name" v="Sauebekken" />
		<tag k="ssr:stedsnr" v="735297" />
		<tag k="waterway" v="stream" />
	</node>
	<node lat="61.14450278089064" lon="8.610072212978274" id="-47927">
		<tag k="name" v="Leirholssundet" />
		<tag k="natural" v="strait" />
		<tag k="ssr:stedsnr" v="735306" />
	</node>
	<node lat="61.2227055582562" lon="8.823072230711157" id="-47937">
		<tag k="name" v="Sauebekken" />
		<tag k="ssr:stedsnr" v="735725" />
		<tag k="waterway" v="stream" />
	</node>
	<node lat="61.20748900736118" lon="8.072643467029046" id="-47938">
		<tag k="name" v="Grønevatnet" />
		<tag k="natural" v="water" />
		<tag k="ssr:stedsnr" v="737904" />
		<tag k="water" v="lake" />
	</node>
	<node lat="61.17616389282468" lon="8.778061105936352" id="-47948">
		<tag k="name" v="Tippestadbekken" />
		<tag k="ssr:stedsnr" v="767237" />
		<tag k="waterway" v="stream" />
	</node>
	<node lat="61.08719722270394" lon="8.719036105969789" id="-47966">
		<tag k="name" v="Brekkevike" />
		<tag k="natural" v="bay" />
		<tag k="ssr:stedsnr" v="907791" />
	</node>
	<node lat="61.231972226254946" lon="8.221872218574218" id="-47972">
		<tag k="name" v="Galdsbekken" />
		<tag k="ssr:stedsnr" v="908219" />
		<tag k="waterway" v="stream" />
	</node>
	<node lat="61.10604683249233" lon="8.70380272630437" id="-47991">
		<tag k="name" v="Uraøddin" />
		<tag k="natural" v="cape" />
		<tag k="ssr:stedsnr" v="786907" />
	</node>
	<node lat="61.27133055332672" lon="8.347591661553807" id="-48016">
		<tag k="name" v="Langenes" />
		<tag k="natural" v="cape" />
		<tag k="ssr:stedsnr" v="797794" />
	</node>
	<node lat="61.28663055217238" lon="8.239336107921313" id="-48056">
		<tag k="name" v="Hittenes" />
		<tag k="natural" v="cape" />
		<tag k="ssr:stedsnr" v="918843" />
	</node>
	<node lat="61.12348611072494" lon="8.405999995518362" id="-48073">
		<tag k="name" v="Storstølåne" />
		<tag k="ssr:stedsnr" v="828383" />
		<tag k="waterway" v="stream" />
	</node>
	<node lat="61.17331111109048" lon="8.693547217291709" id="-48079">
		<tag k="name" v="Fåkjeldbekken" />
		<tag k="ssr:stedsnr" v="828963" />
		<tag k="waterway" v="stream" />
	</node>
	<node lat="61.13968333568489" lon="8.793113885006353" id="-48086">
		<tag k="name" v="Kvismohølen" />
		<tag k="place" v="locality" />
		<tag k="ssr:stedsnr" v="847026" />
	</node>
	<node lat="61.01780000024359" lon="8.723558341458503" id="-48111">
		<tag k="name" v="Tangefjorden" />
		<tag k="natural" v="bay" />
		<tag k="ssr:stedsnr" v="857439" />
	</node>
	<node lat="61.17599166785062" lon="8.4801388870258" id="-48114">
		<tag k="alt_name" v="Tøsobekken" />
		<tag k="name" v="Tasabekken" />
		<tag k="ssr:stedsnr" v="857724" />
		<tag k="waterway" v="stream" />
	</node>
	<node lat="61.110003052732324" lon="8.700775608311051" id="-48128">
		<tag k="name" v="Buarøddin" />
		<tag k="natural" v="cape" />
		<tag k="ssr:stedsnr" v="888398" />
	</node>
	<node lat="61.18204444231646" lon="8.152577785621316" id="-48142">
		<tag k="name" v="Kvednabekken" />
		<tag k="ssr:stedsnr" v="907170" />
		<tag k="waterway" v="stream" />
	</node>
	<node lat="61.130913886083704" lon="8.548233338834347" id="-48150">
		<tag k="name" v="Osen" />
		<tag k="natural" v="bay" />
		<tag k="ssr:stedsnr" v="907674" />
	</node>
	<node lat="61.170844444941615" lon="8.17966110805849" id="-48159">
		<tag k="name" v="Store bekken" />
		<tag k="ssr:stedsnr" v="908201" />
		<tag k="waterway" v="stream" />
	</node>
	<node lat="61.20771389181354" lon="8.283652773665953" id="-48160">
		<tag k="name" v="Yljeøyne" />
		<tag k="natural" v="bay" />
		<tag k="ssr:stedsnr" v="908354" />
	</node>
	<node lat="61.30755833114731" lon="8.498888883290018" id="-48168">
		<tag k="name" v="Yksna" />
		<tag k="ssr:stedsnr" v="918201" />
		<tag k="waterway" v="river" />
	</node>
	<node lat="61.31112494061346" lon="8.733759988629913" id="-48169">
		<tag k="name" v="Seksin" />
		<tag k="natural" v="water" />
		<tag k="ssr:stedsnr" v="918206" />
		<tag k="water" v="lake" />
	</node>
	<node lat="61.31048906421008" lon="8.600472108650731" id="-48170">
		<tag k="name" v="Skamdalsfjorden" />
		<tag k="natural" v="water" />
		<tag k="ssr:stedsnr" v="918208" />
	</node>
	<node lat="61.241824017870336" lon="8.128401555794255" id="-48177">
		<tag k="alt_name" v="Årdalsvatnet, øvre" />
		<tag k="name" v="Øvre Årdalsvatnet" />
		<tag k="natural" v="water" />
		<tag k="ssr:stedsnr" v="920597" />
		<tag k="water" v="lake" />
	</node>
	<node lat="61.097194444047076" lon="8.707422222894152" id="-48202">
		<tag k="name" v="Søvelsteinsanden" />
		<tag k="natural" v="beach" />
		<tag k="ssr:stedsnr" v="968834" />
	</node>
	<node lat="61.08944444184537" lon="8.681675001084738" id="-48203">
		<tag k="name" v="Klukkargardsøddin" />
		<tag k="natural" v="cape" />
		<tag k="ssr:stedsnr" v="968835" />
	</node>
	<node lat="61.106358331789174" lon="8.643186116354753" id="-48204">
		<tag k="name" v="Hølmin" />
		<tag k="place" v="islet" />
		<tag k="ssr:stedsnr" v="968884" />
	</node>
	<node lat="61.167902777291204" lon="8.456822229712028" id="-48241">
		<tag k="name" v="Stavnøyne" />
		<tag k="natural" v="beach" />
		<tag k="ssr:stedsnr" v="39374" />
	</node>
	<node lat="61.08984444813776" lon="8.45468888009892" id="-48251">
		<tag k="name" v="Haugesetåne" />
		<tag k="ssr:stedsnr" v="39340" />
		<tag k="waterway" v="stream" />
	</node>
	<node lat="61.15580833144118" lon="8.482538896277896" id="-48253">
		<tag k="name" v="Turtnesøddin" />
		<tag k="natural" v="cape" />
		<tag k="ssr:stedsnr" v="39415" />
	</node>
	<node lat="61.155283333303075" lon="8.55156944648371" id="-48258">
		<tag k="name" v="Røykjedalsbekken" />
		<tag k="ssr:stedsnr" v="39648" />
		<tag k="waterway" v="stream" />
	</node>
	<node lat="61.03499722056422" lon="8.67691945039188" id="-48262">
		<tag k="name" v="Låvesanden" />
		<tag k="natural" v="beach" />
		<tag k="ssr:stedsnr" v="39745" />
	</node>
	<node lat="61.221797223576395" lon="8.86785000728717" id="-48270">
		<tag k="name" v="Stussnes" />
		<tag k="natural" v="cape" />
		<tag k="ssr:stedsnr" v="54948" />
	</node>
	<node lat="61.1367015673214" lon="8.82502563549271" id="-48277">
		<tag k="name" v="Ryfossen" />
		<tag k="natural" v="waterfall" />
		<tag k="ssr:stedsnr" v="58264" />
	</node>
	<node lat="61.20767777583214" lon="8.347872225498602" id="-48279">
		<tag k="name" v="Monsebekken" />
		<tag k="ssr:stedsnr" v="58360" />
		<tag k="waterway" v="stream" />
	</node>
	<node lat="61.18042499695808" lon="8.208855551347488" id="-48282">
		<tag k="name" v="Raude Sandadn" />
		<tag k="natural" v="beach" />
		<tag k="ssr:stedsnr" v="58290" />
	</node>
	<node lat="61.15280486202579" lon="8.689747265255786" id="-48291">
		<tag k="name" v="Øyloøddin" />
		<tag k="natural" v="cape" />
		<tag k="ssr:stedsnr" v="58963" />
	</node>
	<node lat="61.00381388878678" lon="8.742725001964956" id="-48293">
		<tag k="alt_name" v="Strøssosen" />
		<tag k="name" v="Strøsosen" />
		<tag k="natural" v="bay" />
		<tag k="ssr:stedsnr" v="68423" />
	</node>
	<node lat="61.00809999557853" lon="8.729355563788515" id="-48294">
		<tag k="name" v="Strøsfjorden" />
		<tag k="natural" v="water" />
		<tag k="old_name" v="Strøssfjorden" />
		<tag k="ssr:stedsnr" v="68426" />
	</node>
	<node lat="61.10442500013209" lon="8.588794438823438" id="-48298">
		<tag k="alt_name" v="Søvela" />
		<tag k="name" v="Søvella" />
		<tag k="ssr:stedsnr" v="67387" />
		<tag k="waterway" v="stream" />
	</node>
	<node lat="61.15080277443353" lon="8.333452775172878" id="-48300">
		<tag k="alt_name" v="Listølåne" />
		<tag k="name" v="Jeisseåne" />
		<tag k="ssr:stedsnr" v="67685" />
		<tag k="waterway" v="river" />
	</node>
	<node lat="61.37745277369009" lon="8.5974111133632" id="-48308">
		<tag k="name" v="Torfinnsdøla" />
		<tag k="ssr:stedsnr" v="68163" />
		<tag k="waterway" v="stream" />
	</node>
	<node lat="61.29656622221023" lon="8.541428468428595" id="-48309">
		<tag k="name" v="Yksnin" />
		<tag k="natural" v="water" />
		<tag k="ssr:stedsnr" v="68171" />
		<tag k="water" v="lake" />
	</node>
	<node lat="61.128307689076905" lon="8.158884396694946" id="-48313">
		<tag k="alt_name" v="Sulevatnet, øvre" />
		<tag k="name" v="Øvre Sulevatnet" />
		<tag k="natural" v="water" />
		<tag k="ssr:stedsnr" v="68672" />
		<tag k="water" v="lake" />
	</node>
	<node lat="61.291441663580464" lon="8.441733341022186" id="-48319">
		<tag k="name" v="Yksna" />
		<tag k="ssr:stedsnr" v="69817" />
		<tag k="waterway" v="stream" />
	</node>
	<node lat="60.95935833715053" lon="8.668680563477444" id="-48320">
		<tag k="name" v="Grunka" />
		<tag k="ssr:stedsnr" v="69776" />
		<tag k="waterway" v="river" />
	</node>
	<node lat="61.22961388589817" lon="8.631447230319388" id="-48338">
		<tag k="name" v="Tverråntjernet" />
		<tag k="natural" v="water" />
		<tag k="old_name" v="Tvørråntjednet" />
		<tag k="ssr:stedsnr" v="100001" />
	</node>
	<node lat="61.30644444550764" lon="8.688288887732721" id="-48360">
		<tag k="name" v="Buarbekken" />
		<tag k="ssr:stedsnr" v="115154" />
		<tag k="waterway" v="stream" />
	</node>
	<node lat="61.1537250018036" lon="8.34968889250315" id="-48362">
		<tag k="name" v="Galdreinsbekken" />
		<tag k="ssr:stedsnr" v="118255" />
		<tag k="waterway" v="stream" />
	</node>
	<node lat="61.07766944361482" lon="8.594897220477932" id="-48372">
		<tag k="name" v="Sanden" />
		<tag k="natural" v="beach" />
		<tag k="ssr:stedsnr" v="118537" />
	</node>
	<node lat="61.19559444378397" lon="8.51125833147979" id="-48376">
		<tag k="name" v="Søre Tverråne" />
		<tag k="old_name" v="Søre Tvørråne" />
		<tag k="ssr:stedsnr" v="118794" />
		<tag k="waterway" v="stream" />
	</node>
	<node lat="61.157294446342036" lon="8.671233332779883" id="-48378">
		<tag k="name" v="Mauretubbøddin" />
		<tag k="natural" v="cape" />
		<tag k="ssr:stedsnr" v="118920" />
	</node>
	<node lat="61.141277778102" lon="8.725558326431486" id="-48379">
		<tag k="name" v="Vasstrone" />
		<tag k="natural" v="spring" />
		<tag k="ssr:stedsnr" v="118934" />
	</node>
	<node lat="61.131636110727854" lon="8.70060555663692" id="-48381">
		<tag k="name" v="Gurohølen" />
		<tag k="place" v="locality" />
		<tag k="ssr:stedsnr" v="118947" />
	</node>
	<node lat="61.328924999771495" lon="8.750975000287841" id="-48386">
		<tag k="name" v="Bygdissundet" />
		<tag k="natural" v="strait" />
		<tag k="ssr:stedsnr" v="128128" />
	</node>
	<node lat="61.104544441704206" lon="8.472075008652027" id="-48400">
		<tag k="name" v="Tvørrgardsbekken" />
		<tag k="ssr:stedsnr" v="160348" />
		<tag k="waterway" v="stream" />
	</node>
	<node lat="61.18900939948535" lon="8.214533607035051" id="-48403">
		<tag k="alt_name" v="Otrøtjernet" />
		<tag k="name" v="Otrøi" />
		<tag k="place" v="locality" />
		<tag k="ssr:stedsnr" v="131562" />
	</node>
	<node lat="61.16515277373334" lon="8.406691666217954" id="-48414">
		<tag k="name" v="Tangin" />
		<tag k="natural" v="cape" />
		<tag k="ssr:stedsnr" v="160336" />
	</node>
	<node lat="61.20839166557018" lon="8.388111107066186" id="-48422">
		<tag k="name" v="Bøaåne" />
		<tag k="ssr:stedsnr" v="160443" />
		<tag k="waterway" v="stream" />
	</node>
	<node lat="61.184758336165494" lon="8.532797216318833" id="-48432">
		<tag k="name" v="Øynadn" />
		<tag k="place" v="island" />
		<tag k="ssr:stedsnr" v="160743" />
	</node>
	<node lat="61.154286114100316" lon="8.537711117506692" id="-48436">
		<tag k="name" v="Røssvike" />
		<tag k="natural" v="bay" />
		<tag k="ssr:stedsnr" v="160687" />
	</node>
	<node lat="61.20956110934109" lon="8.603049999519891" id="-48441">
		<tag k="name" v="Trølla" />
		<tag k="natural" v="waterfall" />
		<tag k="ssr:stedsnr" v="160783" />
	</node>
	<node lat="60.97242777454319" lon="8.665144443419576" id="-48442">
		<tag k="name" v="Jørundgilbekken" />
		<tag k="ssr:stedsnr" v="160786" />
		<tag k="waterway" v="stream" />
	</node>
	<node lat="61.171875001132015" lon="8.73828055875186" id="-48443">
		<tag k="name" v="Jobekken" />
		<tag k="ssr:stedsnr" v="160973" />
		<tag k="waterway" v="stream" />
	</node>
	<node lat="61.14303610793148" lon="8.77915834167731" id="-48450">
		<tag k="name" v="Røykjednbekken" />
		<tag k="ssr:stedsnr" v="179023" />
		<tag k="waterway" v="stream" />
	</node>
	<node lat="61.16261388573372" lon="8.377747216832534" id="-48454">
		<tag k="name" v="Kviteføssbekken" />
		<tag k="ssr:stedsnr" v="179292" />
		<tag k="waterway" v="stream" />
	</node>
	<node lat="61.35021111144995" lon="8.226158334784477" id="-48460">
		<tag k="name" v="Koldedalsvike" />
		<tag k="natural" v="bay" />
		<tag k="ssr:stedsnr" v="179593" />
	</node>
	<node lat="61.20714722566668" lon="8.30841665744568" id="-48463">
		<tag k="name" v="Føssen" />
		<tag k="natural" v="waterfall" />
		<tag k="ssr:stedsnr" v="180332" />
	</node>
	<node lat="61.166836107211225" lon="8.59011944815817" id="-48486">
		<tag k="name" v="Drøsja" />
		<tag k="ssr:stedsnr" v="189243" />
		<tag k="waterway" v="stream" />
	</node>
	<node lat="61.14100555330879" lon="8.707958330351557" id="-48488">
		<tag k="name" v="Ala" />
		<tag k="ssr:stedsnr" v="189252" />
		<tag k="waterway" v="stream" />
	</node>
	<node lat="61.277536108385895" lon="8.14285834254795" id="-48493">
		<tag k="name" v="Årdalsfjorden" />
		<tag k="natural" v="bay" />
		<tag k="ssr:stedsnr" v="190832" />
	</node>
	<node lat="61.14338333516142" lon="8.566622218116889" id="-48517">
		<tag k="name" v="Sparstadsanden" />
		<tag k="natural" v="beach" />
		<tag k="ssr:stedsnr" v="221655" />
	</node>
	<node lat="61.19846666982722" lon="8.498566671372508" id="-48523">
		<tag k="name" v="Nørdre Tverråne" />
		<tag k="old_name" v="Nørdre Tvørråne" />
		<tag k="ssr:stedsnr" v="282531" />
		<tag k="waterway" v="stream" />
	</node>
	<node lat="61.20930555705593" lon="8.358772222778919" id="-48529">
		<tag k="name" v="Rabbesteinsbekken" />
		<tag k="ssr:stedsnr" v="282399" />
		<tag k="waterway" v="stream" />
	</node>
	<node lat="61.13975277893751" lon="8.82858889308099" id="-48547">
		<tag k="name" v="Oksedalen" />
		<tag k="ssr:stedsnr" v="300232" />
		<tag k="waterway" v="stream" />
	</node>
	<node lat="61.202233329066026" lon="8.312447223539476" id="-48553">
		<tag k="name" v="Grønebekken" />
		<tag k="ssr:stedsnr" v="301342" />
		<tag k="waterway" v="stream" />
	</node>
	<node lat="61.17483055514824" lon="8.180119441702699" id="-48558">
		<tag k="name" v="Snauevike" />
		<tag k="natural" v="bay" />
		<tag k="ssr:stedsnr" v="301234" />
	</node>
	<node lat="61.16572114591303" lon="8.741544061356848" id="-48570">
		<tag k="name" v="Laglim" />
		<tag k="natural" v="water" />
		<tag k="ssr:stedsnr" v="310276" />
		<tag k="water" v="lake" />
	</node>
	<node lat="61.32168458140394" lon="8.769305433580183" id="-48589">
		<tag k="name" v="Hålissundet" />
		<tag k="natural" v="strait" />
		<tag k="ssr:stedsnr" v="311236" />
	</node>
	<node lat="61.314702705055154" lon="8.776553749370343" id="-48590">
		<tag k="alt_name" v="Raufjorden" />
		<tag k="name" v="Raudfjorden" />
		<tag k="natural" v="water" />
		<tag k="ssr:stedsnr" v="311237" />
	</node>
	<node lat="61.196955558280045" lon="8.352813890632873" id="-48607">
		<tag k="name" v="Jorisåne" />
		<tag k="ssr:stedsnr" v="342372" />
		<tag k="waterway" v="stream" />
	</node>
	<node lat="61.14949166373539" lon="8.562216669634271" id="-48612">
		<tag k="name" v="Svintebekken" />
		<tag k="ssr:stedsnr" v="342653" />
		<tag k="waterway" v="stream" />
	</node>
	<node lat="61.31259722035106" lon="8.672797229746038" id="-48625">
		<tag k="name" v="Bergaåne" />
		<tag k="ssr:stedsnr" v="357130" />
		<tag k="waterway" v="stream" />
	</node>
	<node lat="61.2356611080672" lon="8.728522218755698" id="-48626">
		<tag k="name" v="Veslemugna" />
		<tag k="ssr:stedsnr" v="357243" />
		<tag k="waterway" v="stream" />
	</node>
	<node lat="61.15681944473564" lon="8.785755551799602" id="-48638">
		<tag k="name" v="Varpebekken" />
		<tag k="ssr:stedsnr" v="361190" />
		<tag k="waterway" v="stream" />
	</node>
	<node lat="61.22374444707324" lon="8.238983338944664" id="-48645">
		<tag k="name" v="Tyisbekken" />
		<tag k="ssr:stedsnr" v="361227" />
		<tag k="waterway" v="stream" />
	</node>
	<node lat="61.20161111165095" lon="8.260627779600435" id="-48647">
		<tag k="loc_name" v="Fløgstrøndbekken;Flogstrondbekken" />
		<tag k="name" v="Fløkstrøndbekken" />
		<tag k="ssr:stedsnr" v="361243" />
		<tag k="waterway" v="stream" />
	</node>
	<node lat="61.158280551601685" lon="8.747155547333767" id="-48653">
		<tag k="alt_name" v="Laglimsbekken" />
		<tag k="name" v="Ljøsno" />
		<tag k="ssr:stedsnr" v="361425" />
		<tag k="waterway" v="stream" />
	</node>
	<node lat="61.37983888728889" lon="8.335041659094651" id="-48661">
		<tag k="name" v="Brandbuødden" />
		<tag k="natural" v="cape" />
		<tag k="ssr:stedsnr" v="361622" />
	</node>
	<node lat="61.26790000243216" lon="8.19290277315514" id="-48662">
		<tag k="name" v="Melvikbekken" />
		<tag k="old_name" v="Mellvikbekken" />
		<tag k="ssr:stedsnr" v="361625" />
		<tag k="waterway" v="stream" />
	</node>
	<node lat="61.19520833551982" lon="8.67400832640054" id="-48695">
		<tag k="alt_name" v="Ryssna" />
		<tag k="name" v="Rysna" />
		<tag k="ssr:stedsnr" v="371698" />
		<tag k="waterway" v="river" />
	</node>
	<node lat="61.37642942248906" lon="8.150215965113484" id="-48700">
		<tag k="name" v="Koldedalsvatnet" />
		<tag k="natural" v="water" />
		<tag k="old_name" v="Køldedalsvatnet" />
		<tag k="ssr:stedsnr" v="371830" />
		<tag k="water" v="lake" />
	</node>
	<node lat="61.2269277800747" lon="8.632600008457771" id="-48705">
		<tag k="name" v="Tvørra" />
		<tag k="ssr:stedsnr" v="403002" />
		<tag k="waterway" v="stream" />
	</node>
	<node lat="61.121361112830215" lon="8.530300002344008" id="-48713">
		<tag k="name" v="Krøssfønnbekken" />
		<tag k="ssr:stedsnr" v="403641" />
		<tag k="waterway" v="stream" />
	</node>
	<node lat="61.15636944293355" lon="8.558577777642055" id="-48717">
		<tag k="name" v="Djupedalsbekken" />
		<tag k="ssr:stedsnr" v="403696" />
		<tag k="waterway" v="stream" />
	</node>
	<node lat="61.15462221843381" lon="8.556972229259866" id="-48718">
		<tag k="name" v="Øldrebekken" />
		<tag k="ssr:stedsnr" v="403700" />
		<tag k="waterway" v="stream" />
	</node>
	<node lat="61.15675555544784" lon="8.603713880051487" id="-48719">
		<tag k="name" v="Langåne" />
		<tag k="ssr:stedsnr" v="403720" />
		<tag k="waterway" v="stream" />
	</node>
	<node lat="61.209202780921814" lon="8.50524445142203" id="-48720">
		<tag k="name" v="Jeissåne" />
		<tag k="ssr:stedsnr" v="403802" />
		<tag k="waterway" v="stream" />
	</node>
	<node lat="61.25289166760101" lon="8.713450000399519" id="-48732">
		<tag k="name" v="Lortevike" />
		<tag k="natural" v="bay" />
		<tag k="ssr:stedsnr" v="418123" />
	</node>
	<node lat="61.21023888598318" lon="8.501452769457126" id="-48737">
		<tag k="name" v="Sauebekken" />
		<tag k="ssr:stedsnr" v="422557" />
		<tag k="waterway" v="stream" />
	</node>
	<node lat="61.15745833178975" lon="8.785169441869831" id="-48741">
		<tag k="name" v="Kløppermyrbekken" />
		<tag k="ssr:stedsnr" v="422166" />
		<tag k="waterway" v="stream" />
	</node>
	<node lat="61.160188884613774" lon="8.359841674680457" id="-48744">
		<tag k="name" v="Laugarhølen" />
		<tag k="place" v="locality" />
		<tag k="ssr:stedsnr" v="422251" />
	</node>
	<node lat="61.15061944070963" lon="8.80606667503654" id="-48753">
		<tag k="name" v="Kviesbekken" />
		<tag k="ssr:stedsnr" v="422330" />
		<tag k="waterway" v="stream" />
	</node>
	<node lat="61.20702222586072" lon="8.281813883259543" id="-48759">
		<tag k="name" v="Breivahølen" />
		<tag k="place" v="locality" />
		<tag k="ssr:stedsnr" v="423359" />
	</node>
	<node lat="61.111147226454" lon="8.58075278507246" id="-48764">
		<tag k="name" v="Baggetunåne" />
		<tag k="ssr:stedsnr" v="423823" />
		<tag k="waterway" v="stream" />
	</node>
	<node lat="61.162516665077746" lon="8.912408341746632" id="-48768">
		<tag k="name" v="Hyggjande" />
		<tag k="ssr:stedsnr" v="432033" />
		<tag k="waterway" v="river" />
	</node>
	<node lat="61.410461110824215" lon="8.261430553955494" id="-48783">
		<tag k="alt_name" v="Mjølkedalsvatnet, store;Mjølkedalsvatnet" />
		<tag k="name" v="Store Mjølkedalsvatnet" />
		<tag k="natural" v="water" />
		<tag k="ssr:stedsnr" v="432844" />
		<tag k="water" v="lake" />
	</node>
	<node lat="61.24174444792167" lon="8.23146110698279" id="-48788">
		<tag k="name" v="Tyin" />
		<tag k="natural" v="water" />
		<tag k="ssr:stedsnr" v="435631" />
		<tag k="water" v="lake" />
	</node>
	<node lat="61.24049575542327" lon="8.317710749564618" id="-48794">
		<tag k="name" v="Øyangen" />
		<tag k="natural" v="water" />
		<tag k="ssr:stedsnr" v="509815" />
		<tag k="water" v="lake" />
	</node>
	<node lat="61.19632499970251" lon="8.647536115473011" id="-48796">
		<tag k="name" v="Tjørobyttbekken" />
		<tag k="ssr:stedsnr" v="524080" />
		<tag k="waterway" v="stream" />
	</node>
	<node lat="61.181819445633394" lon="8.388669442748" id="-48802">
		<tag k="name" v="Øyne" />
		<tag k="place" v="island" />
		<tag k="ssr:stedsnr" v="524373" />
	</node>
	<node lat="61.210125001791575" lon="8.629230546799715" id="-48807">
		<tag k="name" v="Hellestølsbekken" />
		<tag k="ssr:stedsnr" v="525146" />
		<tag k="waterway" v="stream" />
	</node>
	<node lat="61.14681666288881" lon="8.816711116513025" id="-48817">
		<tag k="name" v="Kvålstjern" />
		<tag k="natural" v="water" />
		<tag k="ssr:stedsnr" v="543341" />
		<tag k="water" v="pond" />
	</node>
	<node lat="61.059472226690986" lon="8.509936106781723" id="-48826">
		<tag k="name" v="Trøngebøttåne" />
		<tag k="ssr:stedsnr" v="543564" />
		<tag k="waterway" v="stream" />
	</node>
	<node lat="61.246297218340494" lon="8.741941675855076" id="-48846">
		<tag k="alt_name" v="Raudøla" />
		<tag k="name" v="Rauddøla" />
		<tag k="ssr:stedsnr" v="552750" />
		<tag k="waterway" v="river" />
	</node>
	<node lat="61.275819448804775" lon="8.744580561824819" id="-48851">
		<tag k="name" v="Kalvedalsbekken" />
		<tag k="ssr:stedsnr" v="553198" />
		<tag k="waterway" v="stream" />
	</node>
	<node lat="61.33880000209044" lon="8.747286115680811" id="-48853">
		<tag k="name" v="Synsbekk" />
		<tag k="ssr:stedsnr" v="553149" />
		<tag k="waterway" v="stream" />
	</node>
	<node lat="61.30293611022196" lon="8.775483330271035" id="-48857">
		<tag k="name" v="Skjerva" />
		<tag k="ssr:stedsnr" v="553164" />
		<tag k="waterway" v="stream" />
	</node>
	<node lat="61.0497861129387" lon="8.622316669940222" id="-48858">
		<tag k="name" v="Helin" />
		<tag k="natural" v="water" />
		<tag k="ssr:stedsnr" v="553365" />
		<tag k="water" v="lake" />
	</node>
	<node lat="61.225536108208836" lon="8.793316670490777" id="-48864">
		<tag k="name" v="Gipa" />
		<tag k="ssr:stedsnr" v="553759" />
		<tag k="waterway" v="stream" />
	</node>
	<node lat="61.38203055256543" lon="8.220719450613291" id="-48866">
		<tag k="name" v="Rusteggvatnet" />
		<tag k="natural" v="water" />
		<tag k="ssr:stedsnr" v="553833" />
	</node>
	<node lat="60.99610000109777" lon="8.635038886692348" id="-48869">
		<tag k="name" v="Storliåni" />
		<tag k="ssr:stedsnr" v="554816" />
		<tag k="waterway" v="stream" />
	</node>
	<node lat="61.17557221812972" lon="8.0524249937974" id="-48876">
		<tag k="name" v="Sula" />
		<tag k="ssr:stedsnr" v="555857" />
		<tag k="waterway" v="river" />
	</node>
	<node lat="61.196633337201824" lon="8.36083054797004" id="-48887">
		<tag k="name" v="Øydgardsbekken" />
		<tag k="ssr:stedsnr" v="585383" />
		<tag k="waterway" v="stream" />
	</node>
	<node lat="61.207144444842356" lon="8.403869451867342" id="-48890">
		<tag k="name" v="Jonskørbekken" />
		<tag k="ssr:stedsnr" v="585465" />
		<tag k="waterway" v="stream" />
	</node>
	<node lat="61.17664444744786" lon="8.740208328841817" id="-48900">
		<tag k="name" v="Heimstølbekken" />
		<tag k="ssr:stedsnr" v="585969" />
		<tag k="waterway" v="stream" />
	</node>
	<node lat="61.207027780411494" lon="8.301569440116118" id="-48928">
		<tag k="name" v="Hømmestadøyadn" />
		<tag k="place" v="island" />
		<tag k="ssr:stedsnr" v="604338" />
	</node>
	<node lat="61.090305109153256" lon="8.6806379086033" id="-48942">
		<tag k="alt_name" v="Hellviki" />
		<tag k="name" v="Hellvike" />
		<tag k="natural" v="bay" />
		<tag k="ssr:stedsnr" v="613344" />
	</node>
	<node lat="61.26362499760142" lon="8.692650005263197" id="-48967">
		<tag k="name" v="Vegabekken" />
		<tag k="ssr:stedsnr" v="616786" />
		<tag k="waterway" v="stream" />
	</node>
	<node lat="61.17385278127925" lon="8.648858341493186" id="-48971">
		<tag k="name" v="Nefstadbekken" />
		<tag k="ssr:stedsnr" v="645090" />
		<tag k="waterway" v="stream" />
	</node>
	<node lat="61.22529722224879" lon="8.85707222725193" id="-48982">
		<tag k="name" v="Mørovike" />
		<tag k="natural" v="bay" />
		<tag k="ssr:stedsnr" v="645452" />
	</node>
	<node lat="61.22175278162502" lon="8.862733331155564" id="-48996">
		<tag k="name" v="Kjøovike" />
		<tag k="natural" v="bay" />
		<tag k="ssr:stedsnr" v="660921" />
	</node>
	<node lat="61.17810000238299" lon="8.283769452765974" id="-49000">
		<tag k="name" v="Puttadn" />
		<tag k="natural" v="water" />
		<tag k="ssr:stedsnr" v="664362" />
		<tag k="water" v="lake" />
	</node>
	<node lat="61.16066111560745" lon="8.670836118353074" id="-49004">
		<tag k="name" v="Hemsingbekken" />
		<tag k="ssr:stedsnr" v="664924" />
		<tag k="waterway" v="stream" />
	</node>
	<node lat="61.095702778166284" lon="8.688702770732334" id="-49012">
		<tag k="name" v="Skjæret" />
		<tag k="place" v="islet" />
		<tag k="ssr:stedsnr" v="664829" />
	</node>
	<node lat="61.15374167019481" lon="8.675249997489663" id="-49015">
		<tag k="name" v="Hugavike" />
		<tag k="natural" v="bay" />
		<tag k="ssr:stedsnr" v="664936" />
	</node>
	<node lat="61.112125001345895" lon="8.555097223072325" id="-49018">
		<tag k="name" v="Galgesetbekken" />
		<tag k="ssr:stedsnr" v="665825" />
		<tag k="waterway" v="stream" />
	</node>
	<node lat="61.15804722406289" lon="8.798419444267969" id="-49036">
		<tag k="name" v="Røssbekken" />
		<tag k="ssr:stedsnr" v="725162" />
		<tag k="waterway" v="stream" />
	</node>
	<node lat="61.17448333777378" lon="8.194375003302609" id="-49038">
		<tag k="name" v="Tenleosen" />
		<tag k="natural" v="bay" />
		<tag k="ssr:stedsnr" v="725228" />
	</node>
	<node lat="61.14764722589347" lon="8.644930558364546" id="-49046">
		<tag k="name" v="Sløtabekken" />
		<tag k="old_name" v="Støtabekken" />
		<tag k="ssr:stedsnr" v="725933" />
		<tag k="waterway" v="stream" />
	</node>
	<node lat="61.2258583301066" lon="8.244055563636865" id="-49051">
		<tag k="name" v="Otvea" />
		<tag k="natural" v="water" />
		<tag k="ssr:stedsnr" v="726229" />
	</node>
	<node lat="61.28179999845062" lon="8.70472221947607" id="-49057">
		<tag k="name" v="Sleipa" />
		<tag k="place" v="locality" />
		<tag k="ssr:stedsnr" v="735193" />
	</node>
	<node lat="61.35314999567764" lon="8.72582500487868" id="-49066">
		<tag k="name" v="Breidløypa" />
		<tag k="ssr:stedsnr" v="735138" />
		<tag k="waterway" v="river" />
	</node>
	<node lat="61.140620967885866" lon="8.286836284982046" id="-49080">
		<tag k="alt_name" v="Geitskinn, øvre;Geitskinn" />
		<tag k="name" v="Øvre Geitskinn" />
		<tag k="natural" v="water" />
		<tag k="ssr:stedsnr" v="735648" />
		<tag k="water" v="lake" />
	</node>
	<node lat="61.14139230807955" lon="8.304123859127586" id="-49081">
		<tag k="alt_name" v="Geitskinn, nedre" />
		<tag k="name" v="Nedre Geitskinn" />
		<tag k="natural" v="water" />
		<tag k="ssr:stedsnr" v="735649" />
		<tag k="water" v="lake" />
	</node>
	<node lat="61.361149997561526" lon="8.278900006032774" id="-49091">
		<tag k="name" v="Eidet" />
		<tag k="place" v="locality" />
		<tag k="ssr:stedsnr" v="736840" />
	</node>
	<node lat="60.953500004390854" lon="8.622877780391688" id="-49094">
		<tag k="name" v="Søre Kaldåne" />
		<tag k="ssr:stedsnr" v="737742" />
		<tag k="waterway" v="stream" />
	</node>
	<node lat="60.96453611530569" lon="8.678830559889702" id="-49095">
		<tag k="name" v="Larsgardsbekken" />
		<tag k="ssr:stedsnr" v="737754" />
		<tag k="waterway" v="stream" />
	</node>
	<node lat="61.17934444494739" lon="8.535505550825446" id="-49096">
		<tag k="name" v="Syrehølken" />
		<tag k="place" v="locality" />
		<tag k="ssr:stedsnr" v="889765" />
	</node>
	<node lat="61.20613333575825" lon="8.485588888632181" id="-49110">
		<tag k="name" v="Nordlandsåne" />
		<tag k="ssr:stedsnr" v="767531" />
		<tag k="waterway" v="stream" />
	</node>
	<node lat="61.14422222317913" lon="8.577208339629887" id="-49111">
		<tag k="name" v="Strønde" />
		<tag k="natural" v="beach" />
		<tag k="ssr:stedsnr" v="767689" />
	</node>
	<node lat="61.12218333748731" lon="8.604927780432774" id="-49114">
		<tag k="name" v="Netrøstbekken" />
		<tag k="ssr:stedsnr" v="767667" />
		<tag k="waterway" v="stream" />
	</node>
	<node lat="61.077938884852216" lon="8.646775004932694" id="-49118">
		<tag k="name" v="Halvardåne" />
		<tag k="ssr:stedsnr" v="767780" />
		<tag k="waterway" v="stream" />
	</node>
	<node lat="61.18994509067365" lon="8.38466321466909" id="-49125">
		<tag k="alt_name" v="Strøndafjorden" />
		<tag k="name" v="Strondafjorden" />
		<tag k="natural" v="water" />
		<tag k="ssr:stedsnr" v="782539" />
		<tag k="water" v="lake" />
	</node>
	<node lat="61.21650277711091" lon="8.86745555627096" id="-49129">
		<tag k="name" v="Vetravike" />
		<tag k="natural" v="bay" />
		<tag k="ssr:stedsnr" v="782927" />
	</node>
	<node lat="61.19253333637805" lon="8.23065276908825" id="-49139">
		<tag k="name" v="Kiladn" />
		<tag k="place" v="locality" />
		<tag k="ssr:stedsnr" v="786194" />
	</node>
	<node lat="61.192230554686574" lon="8.37881388112495" id="-49147">
		<tag k="name" v="Fløgones" />
		<tag k="natural" v="cape" />
		<tag k="ssr:stedsnr" v="786489" />
	</node>
	<node lat="61.243050000838174" lon="8.217716675652493" id="-49154">
		<tag k="name" v="Langødden" />
		<tag k="natural" v="cape" />
		<tag k="ssr:stedsnr" v="786639" />
	</node>
	<node lat="61.1297472190696" lon="8.633166660060299" id="-49161">
		<tag k="name" v="Skårstølsbekken" />
		<tag k="ssr:stedsnr" v="786951" />
		<tag k="waterway" v="stream" />
	</node>
	<node lat="61.18292500404709" lon="8.389933328170345" id="-49201">
		<tag k="name" v="Evangen" />
		<tag k="natural" v="cape" />
		<tag k="ssr:stedsnr" v="828398" />
	</node>
	<node lat="61.22212221915417" lon="8.859741665066258" id="-49210">
		<tag k="name" v="Naustevike" />
		<tag k="natural" v="bay" />
		<tag k="ssr:stedsnr" v="828459" />
	</node>
	<node lat="61.15054444611221" lon="8.567088893528807" id="-49218">
		<tag k="name" v="Sparstadbekken" />
		<tag k="ssr:stedsnr" v="889733" />
		<tag k="waterway" v="stream" />
	</node>
	<node lat="61.25203333553308" lon="8.723874999295886" id="-49226">
		<tag k="name" v="Veavike" />
		<tag k="natural" v="bay" />
		<tag k="ssr:stedsnr" v="843127" />
	</node>
	<node lat="61.30754722614951" lon="8.680722225696218" id="-49227">
		<tag k="name" v="Maravike" />
		<tag k="natural" v="bay" />
		<tag k="ssr:stedsnr" v="843139" />
	</node>
	<node lat="61.17687777871557" lon="8.169102771970694" id="-49229">
		<tag k="name" v="Øddin" />
		<tag k="natural" v="cape" />
		<tag k="ssr:stedsnr" v="847220" />
	</node>
	<node lat="61.19489999795882" lon="8.246336104509671" id="-49231">
		<tag k="name" v="Vesleåne" />
		<tag k="ssr:stedsnr" v="847243" />
		<tag k="waterway" v="stream" />
	</node>
	<node lat="61.210088890414376" lon="8.344147222316789" id="-49236">
		<tag k="name" v="Sårbubekken" />
		<tag k="ssr:stedsnr" v="847363" />
		<tag k="waterway" v="stream" />
	</node>
	<node lat="61.07138333277572" lon="8.684619449880444" id="-49246">
		<tag k="name" v="Sauebekken" />
		<tag k="ssr:stedsnr" v="856451" />
		<tag k="waterway" v="stream" />
	</node>
	<node lat="61.164025002702274" lon="8.399222225263038" id="-49274">
		<tag k="name" v="Såbekken" />
		<tag k="ssr:stedsnr" v="889373" />
		<tag k="waterway" v="stream" />
	</node>
	<node lat="61.175088890147094" lon="8.671783326640554" id="-49292">
		<tag k="name" v="Austreimsføssen" />
		<tag k="natural" v="waterfall" />
		<tag k="ssr:stedsnr" v="949954" />
	</node>
	<node lat="61.29290555513623" lon="8.686797222307314" id="-49304">
		<tag k="name" v="Augunshølen" />
		<tag k="place" v="locality" />
		<tag k="ssr:stedsnr" v="964154" />
	</node>
	<node lat="61.154924998171" lon="8.75398888986141" id="-49312">
		<tag k="name" v="Tveitahølen" />
		<tag k="place" v="locality" />
		<tag k="ssr:stedsnr" v="968190" />
	</node>
	<node lat="61.2241444477495" lon="8.18126389533246" id="-49315">
		<tag k="name" v="Gullringen" />
		<tag k="ssr:stedsnr" v="968236" />
		<tag k="waterway" v="stream" />
	</node>
	<node lat="61.17003889289798" lon="8.348944445208351" id="-49322">
		<tag k="name" v="Enggjibekken" />
		<tag k="ssr:stedsnr" v="968282" />
		<tag k="waterway" v="stream" />
	</node>
</osm>
