<?xml version="1.0" encoding="UTF-8"?>
<osm version="0.6" generator="osmapis">
	<node lat="60.21706666298143" lon="11.012002781947169" id="-16904">
		<tag k="name" v="Nannestad kommune" />
		<tag k="ssr:date" v="2019-12-27" />
		<tag k="ssr:gruppe" v="administrativeIndelinger" />
		<tag k="ssr:hovedgruppe" v="offentligAdministrasjon" />
		<tag k="ssr:stedsnr" v="84871" />
		<tag k="ssr:type" v="kommune" />
	</node>
	<node lat="60.26961488146328" lon="11.042346334771416" id="-17462">
		<tag k="name" v="Kløvberget terrasse" />
		<tag k="ssr:date" v="2019-12-27" />
		<tag k="ssr:gruppe" v="veg" />
		<tag k="ssr:hovedgruppe" v="infrastruktur" />
		<tag k="ssr:stedsnr" v="1069745" />
		<tag k="ssr:type" v="adressenavn" />
	</node>
	<node lat="60.20996464900945" lon="11.078884162213559" id="-17463">
		<tag k="name" v="Heggvegen" />
		<tag k="ssr:date" v="2019-12-27" />
		<tag k="ssr:gruppe" v="veg" />
		<tag k="ssr:hovedgruppe" v="infrastruktur" />
		<tag k="ssr:stedsnr" v="1069817" />
		<tag k="ssr:type" v="adressenavn" />
	</node>
	<node lat="60.210107513636935" lon="10.945593564427483" id="-17464">
		<tag k="name" v="Fåmyrsrøet" />
		<tag k="ssr:date" v="2021-06-21" />
		<tag k="ssr:gruppe" v="veg" />
		<tag k="ssr:hovedgruppe" v="infrastruktur" />
		<tag k="ssr:stedsnr" v="1070277" />
		<tag k="ssr:type" v="adressenavn" />
	</node>
	<node lat="60.25382741425324" lon="11.057302876943808" id="-17465">
		<tag k="name" v="Furumoen" />
		<tag k="ssr:date" v="2019-12-27" />
		<tag k="ssr:gruppe" v="veg" />
		<tag k="ssr:hovedgruppe" v="infrastruktur" />
		<tag k="ssr:stedsnr" v="1070278" />
		<tag k="ssr:type" v="adressenavn" />
	</node>
	<node lat="60.136304203671784" lon="11.013252290328774" id="-17466">
		<tag k="name" v="Harstadbekken" />
		<tag k="ssr:date" v="2019-12-27" />
		<tag k="ssr:gruppe" v="veg" />
		<tag k="ssr:hovedgruppe" v="infrastruktur" />
		<tag k="ssr:stedsnr" v="1069835" />
		<tag k="ssr:type" v="adressenavn" />
	</node>
	<node lat="60.132479641206366" lon="11.021333717571686" id="-17467">
		<tag k="name" v="Elise Kolstads veg" />
		<tag k="ssr:date" v="2019-12-27" />
		<tag k="ssr:gruppe" v="veg" />
		<tag k="ssr:hovedgruppe" v="infrastruktur" />
		<tag k="ssr:stedsnr" v="1070298" />
		<tag k="ssr:type" v="adressenavn" />
	</node>
	<node lat="60.22725220209942" lon="11.087065263649555" id="-17468">
		<tag k="name" v="Ulvedalsvegen" />
		<tag k="ssr:date" v="2019-12-27" />
		<tag k="ssr:gruppe" v="veg" />
		<tag k="ssr:hovedgruppe" v="infrastruktur" />
		<tag k="ssr:stedsnr" v="1070609" />
		<tag k="ssr:type" v="adressenavn" />
	</node>
	<node lat="60.22768950799584" lon="11.020058535560853" id="-17469">
		<tag k="name" v="Pinnsvinvegen" />
		<tag k="ssr:date" v="2019-12-27" />
		<tag k="ssr:gruppe" v="veg" />
		<tag k="ssr:hovedgruppe" v="infrastruktur" />
		<tag k="ssr:stedsnr" v="1070776" />
		<tag k="ssr:type" v="adressenavn" />
	</node>
	<node lat="60.13586099055249" lon="11.011979063465855" id="-17470">
		<tag k="name" v="Tjernsbekksvingen" />
		<tag k="ssr:date" v="2019-12-27" />
		<tag k="ssr:gruppe" v="veg" />
		<tag k="ssr:hovedgruppe" v="infrastruktur" />
		<tag k="ssr:stedsnr" v="1070949" />
		<tag k="ssr:type" v="adressenavn" />
	</node>
	<node lat="60.2992880731245" lon="11.04251501023467" id="-17471">
		<tag k="name" v="Sollia" />
		<tag k="ssr:date" v="2019-12-27" />
		<tag k="ssr:gruppe" v="veg" />
		<tag k="ssr:hovedgruppe" v="infrastruktur" />
		<tag k="ssr:stedsnr" v="1071005" />
		<tag k="ssr:type" v="adressenavn" />
	</node>
	<node lat="60.23006421106759" lon="11.021891478418999" id="-17472">
		<tag k="name" v="Trallegangen" />
		<tag k="ssr:date" v="2019-12-27" />
		<tag k="ssr:gruppe" v="veg" />
		<tag k="ssr:hovedgruppe" v="infrastruktur" />
		<tag k="ssr:stedsnr" v="1071285" />
		<tag k="ssr:type" v="adressenavn" />
	</node>
	<node lat="60.292395305154685" lon="11.046843598263962" id="-17473">
		<tag k="name" v="Viksvangen" />
		<tag k="ssr:date" v="2019-12-27" />
		<tag k="ssr:gruppe" v="veg" />
		<tag k="ssr:hovedgruppe" v="infrastruktur" />
		<tag k="ssr:stedsnr" v="1071345" />
		<tag k="ssr:type" v="adressenavn" />
	</node>
	<node lat="60.13073971639239" lon="11.020047641118774" id="-17474">
		<tag k="name" v="Pesamostubben" />
		<tag k="ssr:date" v="2019-12-27" />
		<tag k="ssr:gruppe" v="veg" />
		<tag k="ssr:hovedgruppe" v="infrastruktur" />
		<tag k="ssr:stedsnr" v="1071289" />
		<tag k="ssr:type" v="adressenavn" />
	</node>
	<node lat="60.21948727675517" lon="11.025363482586172" id="-17475">
		<tag k="name" v="Havrevegen" />
		<tag k="ssr:date" v="2019-12-27" />
		<tag k="ssr:gruppe" v="veg" />
		<tag k="ssr:hovedgruppe" v="infrastruktur" />
		<tag k="ssr:stedsnr" v="1071292" />
		<tag k="ssr:type" v="adressenavn" />
	</node>
	<node lat="60.162689979890736" lon="10.992233937845377" id="-17476">
		<tag k="name" v="Kreklinglia" />
		<tag k="ssr:date" v="2019-12-27" />
		<tag k="ssr:gruppe" v="veg" />
		<tag k="ssr:hovedgruppe" v="infrastruktur" />
		<tag k="ssr:stedsnr" v="1071293" />
		<tag k="ssr:type" v="adressenavn" />
	</node>
	<node lat="60.16540475399582" lon="10.989930858613125" id="-17477">
		<tag k="name" v="Blåbærsvingen" />
		<tag k="ssr:date" v="2019-12-27" />
		<tag k="ssr:gruppe" v="veg" />
		<tag k="ssr:hovedgruppe" v="infrastruktur" />
		<tag k="ssr:stedsnr" v="1071430" />
		<tag k="ssr:type" v="adressenavn" />
	</node>
	<node lat="60.16526143501645" lon="10.990801749356086" id="-17478">
		<tag k="name" v="Feviksvingen" />
		<tag k="ssr:date" v="2019-12-27" />
		<tag k="ssr:gruppe" v="veg" />
		<tag k="ssr:hovedgruppe" v="infrastruktur" />
		<tag k="ssr:stedsnr" v="1071431" />
		<tag k="ssr:type" v="adressenavn" />
	</node>
	<node lat="60.16399051374051" lon="10.989546143988493" id="-17479">
		<tag k="name" v="Kantarellringen" />
		<tag k="ssr:date" v="2019-12-27" />
		<tag k="ssr:gruppe" v="veg" />
		<tag k="ssr:hovedgruppe" v="infrastruktur" />
		<tag k="ssr:stedsnr" v="1071438" />
		<tag k="ssr:type" v="adressenavn" />
	</node>
	<node lat="60.19664866646536" lon="10.965477815835813" id="-17481">
		<tag k="name" v="Åsvegen" />
		<tag k="ssr:date" v="2019-12-27" />
		<tag k="ssr:gruppe" v="veg" />
		<tag k="ssr:hovedgruppe" v="infrastruktur" />
		<tag k="ssr:stedsnr" v="1073521" />
		<tag k="ssr:type" v="vegstrekning" />
	</node>
	<node lat="59.91168968762522" lon="10.758188226721538" id="-17483">
		<tag k="name" v="Viken fylke" />
		<tag k="ssr:date" v="2021-06-08" />
		<tag k="ssr:gruppe" v="administrativeIndelinger" />
		<tag k="ssr:hovedgruppe" v="offentligAdministrasjon" />
		<tag k="ssr:stedsnr" v="1074403" />
		<tag k="ssr:type" v="fylke" />
	</node>
	<node lat="60.218526471164616" lon="11.026446288281134" id="-17509">
		<tag k="name" v="Byggvegen" />
		<tag k="ssr:date" v="2021-03-17" />
		<tag k="ssr:gruppe" v="veg" />
		<tag k="ssr:hovedgruppe" v="infrastruktur" />
		<tag k="ssr:stedsnr" v="1079606" />
		<tag k="ssr:type" v="adressenavn" />
	</node>
	<node lat="60.248687735690446" lon="11.029182767819874" id="-17510">
		<tag k="name" v="Holakervegen" />
		<tag k="ssr:date" v="2021-03-17" />
		<tag k="ssr:gruppe" v="veg" />
		<tag k="ssr:hovedgruppe" v="infrastruktur" />
		<tag k="ssr:stedsnr" v="1079605" />
		<tag k="ssr:type" v="adressenavn" />
	</node>
	<node lat="60.21963598910228" lon="11.032462246280476" id="-17511">
		<tag k="name" v="Sølvbunkevegen" />
		<tag k="ssr:date" v="2021-03-17" />
		<tag k="ssr:gruppe" v="veg" />
		<tag k="ssr:hovedgruppe" v="infrastruktur" />
		<tag k="ssr:stedsnr" v="1079608" />
		<tag k="ssr:type" v="adressenavn" />
	</node>
	<node lat="60.21941144862262" lon="11.027974782452283" id="-17512">
		<tag k="name" v="Hvetevegen" />
		<tag k="ssr:date" v="2021-01-13" />
		<tag k="ssr:gruppe" v="veg" />
		<tag k="ssr:hovedgruppe" v="infrastruktur" />
		<tag k="ssr:stedsnr" v="1079607" />
		<tag k="ssr:type" v="adressenavn" />
	</node>
	<node lat="60.21824742236658" lon="11.030087297428132" id="-17513">
		<tag k="name" v="Engkveinvegen" />
		<tag k="ssr:date" v="2021-01-13" />
		<tag k="ssr:gruppe" v="veg" />
		<tag k="ssr:hovedgruppe" v="infrastruktur" />
		<tag k="ssr:stedsnr" v="1079609" />
		<tag k="ssr:type" v="adressenavn" />
	</node>
	<node lat="60.21812934749175" lon="11.033690596832821" id="-17514">
		<tag k="name" v="Tunrappvegen" />
		<tag k="ssr:date" v="2021-01-13" />
		<tag k="ssr:gruppe" v="veg" />
		<tag k="ssr:hovedgruppe" v="infrastruktur" />
		<tag k="ssr:stedsnr" v="1079610" />
		<tag k="ssr:type" v="adressenavn" />
	</node>
	<node lat="60.23329404391661" lon="11.019946635240307" id="-17515">
		<tag k="name" v="Torvstikkervegen" />
		<tag k="ssr:date" v="2021-03-29" />
		<tag k="ssr:gruppe" v="veg" />
		<tag k="ssr:hovedgruppe" v="infrastruktur" />
		<tag k="ssr:stedsnr" v="1080672" />
		<tag k="ssr:type" v="adressenavn" />
	</node>
	<node lat="60.230357834604185" lon="11.024605881143621" id="-17516">
		<tag k="name" v="Torvstrøvegen" />
		<tag k="ssr:date" v="2021-03-29" />
		<tag k="ssr:gruppe" v="veg" />
		<tag k="ssr:hovedgruppe" v="infrastruktur" />
		<tag k="ssr:stedsnr" v="1080667" />
		<tag k="ssr:type" v="adressenavn" />
	</node>
	<node lat="60.23224620214045" lon="11.023873545721111" id="-17517">
		<tag k="name" v="Bjørnemosevegen" />
		<tag k="ssr:date" v="2021-03-29" />
		<tag k="ssr:gruppe" v="veg" />
		<tag k="ssr:hovedgruppe" v="infrastruktur" />
		<tag k="ssr:stedsnr" v="1080669" />
		<tag k="ssr:type" v="adressenavn" />
	</node>
	<node lat="60.23007149591031" lon="11.018050670153402" id="-17518">
		<tag k="name" v="Hvitmosevegen" />
		<tag k="ssr:date" v="2021-03-29" />
		<tag k="ssr:gruppe" v="veg" />
		<tag k="ssr:hovedgruppe" v="infrastruktur" />
		<tag k="ssr:stedsnr" v="1080670" />
		<tag k="ssr:type" v="adressenavn" />
	</node>
	<node lat="60.231963968563164" lon="11.01881724199583" id="-17519">
		<tag k="name" v="Torvmosevegen" />
		<tag k="ssr:date" v="2021-03-29" />
		<tag k="ssr:gruppe" v="veg" />
		<tag k="ssr:hovedgruppe" v="infrastruktur" />
		<tag k="ssr:stedsnr" v="1080671" />
		<tag k="ssr:type" v="adressenavn" />
	</node>
	<node lat="60.21954565231894" lon="11.035678605784682" id="-17520">
		<tag k="name" v="Rødsvingelvegen" />
		<tag k="ssr:date" v="2021-03-29" />
		<tag k="ssr:gruppe" v="veg" />
		<tag k="ssr:hovedgruppe" v="infrastruktur" />
		<tag k="ssr:stedsnr" v="1080673" />
		<tag k="ssr:type" v="adressenavn" />
	</node>
	<node lat="60.130543153732766" lon="11.023978668085318" id="-17521">
		<tag k="name" v="Gangfløtthagan" />
		<tag k="old_name" v="Gangfløthagan" />
		<tag k="ssr:date" v="2021-03-29" />
		<tag k="ssr:gruppe" v="veg" />
		<tag k="ssr:hovedgruppe" v="infrastruktur" />
		<tag k="ssr:stedsnr" v="1080677" />
		<tag k="ssr:type" v="adressenavn" />
	</node>
	<node lat="60.20902278337517" lon="10.949649034118108" id="-17522">
		<tag k="name" v="Rustadsletta" />
		<tag k="ssr:date" v="2021-07-02" />
		<tag k="ssr:gruppe" v="veg" />
		<tag k="ssr:hovedgruppe" v="infrastruktur" />
		<tag k="ssr:stedsnr" v="1081542" />
		<tag k="ssr:type" v="adressenavn" />
	</node>
</osm>
