<?xml version="1.0" encoding="UTF-8"?>
<osm generator="osmapis" version="0.6">
	<node id="-108639" lat="62.1215500007" lon="9.55925833645">
		<tag k="fixme" v="consider boundary=protected_area and relevant protect_class if not nature reserve" />
		<tag k="leisure" v="nature_reserve" />
		<tag k="name" v="Dovre nasjonalpark" />
		<tag k="ssr:stedsnr" v="344685" />
	</node>
	<node id="-108631" lat="61.8540055535" lon="9.8085611063">
		<tag k="fixme" v="consider boundary=protected_area and relevant protect_class if not nature reserve" />
		<tag k="leisure" v="nature_reserve" />
		<tag k="name" v="Rondane nasjonalpark" />
		<tag k="ssr:stedsnr" v="328184" />
	</node>
	<node id="-109012" lat="62.3190138905" lon="9.38895278057">
		<tag k="fixme" v="consider boundary=protected_area and relevant protect_class if not nature reserve" />
		<tag k="leisure" v="nature_reserve" />
		<tag k="name" v="Dovrefjell-Sunndalsfjella nasjonalpark" />
		<tag k="ssr:stedsnr" v="146973" />
	</node>
	<node id="-109490" lat="61.894000004" lon="9.37580000743">
		<tag k="name" v="Dovreskogen bygdeallmenning" />
		<tag k="place" v="locality" />
		<tag k="ssr:stedsnr" v="656983" />
	</node>
	<node id="-108559" lat="62.0697527747" lon="9.07271110501">
		<tag k="name" v="Joramo bygdeallmenning" />
		<tag k="place" v="locality" />
		<tag k="ssr:stedsnr" v="292805" />
	</node>
	<node id="-108781" lat="62.1505327571" lon="9.24402097051">
		<tag k="fixme" v="consider boundary=protected_area and relevant protect_class if not nature reserve" />
		<tag k="leisure" v="nature_reserve" />
		<tag k="name" v="Fokstugu landskapsvernområde" />
		<tag k="ssr:stedsnr" v="985187" />
	</node>
	<node id="-108780" lat="62.2148386125" lon="9.49289400421">
		<tag k="fixme" v="consider boundary=protected_area and relevant protect_class if not nature reserve" />
		<tag k="leisure" v="nature_reserve" />
		<tag k="name" v="Hjerkinn landskapsvernområde" />
		<tag k="ssr:stedsnr" v="985184" />
	</node>
	<node id="-108747" lat="62.1461666632" lon="9.35976389619">
		<tag k="name" v="Dovrefjell statsallmenning" />
		<tag k="place" v="locality" />
		<tag k="ssr:stedsnr" v="475461" />
	</node>
	<node id="-108581" lat="62.0851555567" lon="9.55610833919">
		<tag k="name" v="Grimsdalen statsallmenning" />
		<tag k="place" v="locality" />
		<tag k="ssr:stedsnr" v="294253" />
	</node>
</osm>
