<?xml version="1.0" encoding="UTF-8"?>
<osm generator="osmapis" version="0.6">
	<node id="-110060" lat="62.1413491995" lon="9.15480543075">
		<tag k="alt_name" v="Grønseterhøe" />
		<tag k="fixme" v="multiple name tags, choose one and add the other to alt_name; consider natural=peak for the most distinct mountains in the district" />
		<tag k="loc_name" v="Grønhøe" />
		<tag k="name" v="Grønhøi;Grønsæterhøe" />
		<tag k="natural" v="hill" />
		<tag k="place" v="locality" />
		<tag k="ssr:stedsnr" v="617918" />
	</node>
	<node id="-110056" lat="61.9241333356" lon="9.3658638935">
		<tag k="name" v="Krosshaugen" />
		<tag k="natural" v="hill" />
		<tag k="place" v="locality" />
		<tag k="ssr:stedsnr" v="961820" />
	</node>
	<node id="-110055" lat="61.9733972189" lon="9.20325278336">
		<tag k="name" v="Veslehaug" />
		<tag k="natural" v="hill" />
		<tag k="place" v="locality" />
		<tag k="ssr:stedsnr" v="961757" />
	</node>
	<node id="-110052" lat="62.0124111109" lon="9.73175000871">
		<tag k="name" v="Stygghøe" />
		<tag k="natural" v="hill" />
		<tag k="place" v="locality" />
		<tag k="ssr:stedsnr" v="961540" />
	</node>
	<node id="-110049" lat="62.2506472237" lon="9.55366666058">
		<tag k="name" v="Hjerskavllie" />
		<tag k="natural" v="slope" />
		<tag k="place" v="locality" />
		<tag k="ssr:stedsnr" v="961516" />
	</node>
	<node id="-110048" lat="62.0191222186" lon="9.24960277169">
		<tag k="name" v="Myrahovda" />
		<tag k="natural" v="hill" />
		<tag k="place" v="locality" />
		<tag k="ssr:stedsnr" v="961513" />
	</node>
	<node id="-110047" lat="62.0643472233" lon="9.1871166671">
		<tag k="name" v="Storbrennlia" />
		<tag k="natural" v="slope" />
		<tag k="place" v="locality" />
		<tag k="ssr:stedsnr" v="961511" />
	</node>
	<node id="-110044" lat="62.1572444469" lon="9.33893055608">
		<tag k="name" v="Brennranden" />
		<tag k="natural" v="hill" />
		<tag k="place" v="locality" />
		<tag k="ssr:stedsnr" v="961490" />
	</node>
	<node id="-110043" lat="62.1440416644" lon="9.30302776835">
		<tag k="name" v="Sjugurdsmyrrandin" />
		<tag k="natural" v="hill" />
		<tag k="place" v="locality" />
		<tag k="ssr:stedsnr" v="961470" />
	</node>
	<node id="-110034" lat="62.1220250045" lon="9.19095277027">
		<tag k="name" v="Villmannshaugene" />
		<tag k="natural" v="hill" />
		<tag k="place" v="locality" />
		<tag k="ssr:stedsnr" v="961066" />
	</node>
	<node id="-110033" lat="62.1182833374" lon="9.10026666953">
		<tag k="name" v="Sandmælan" />
		<tag k="place" v="locality" />
		<tag k="ssr:stedsnr" v="960930" />
	</node>
	<node id="-110032" lat="62.0971583292" lon="9.11319167138">
		<tag k="name" v="Slettmoen" />
		<tag k="place" v="locality" />
		<tag k="ssr:stedsnr" v="960846" />
	</node>
	<node id="-110031" lat="62.1052305553" lon="9.11353888025">
		<tag k="name" v="Kubåsranden" />
		<tag k="natural" v="hill" />
		<tag k="place" v="locality" />
		<tag k="ssr:stedsnr" v="960832" />
	</node>
	<node id="-110029" lat="61.9160972233" lon="9.44058055308">
		<tag k="name" v="Dørålsranden" />
		<tag k="natural" v="hill" />
		<tag k="place" v="locality" />
		<tag k="ssr:stedsnr" v="960734" />
	</node>
	<node id="-110025" lat="61.91711667" lon="9.35031667034">
		<tag k="name" v="Leiramoen" />
		<tag k="place" v="locality" />
		<tag k="ssr:stedsnr" v="947670" />
	</node>
	<node id="-110024" lat="61.9057666666" lon="9.34482221467">
		<tag k="name" v="Kjyruskjellhaugen" />
		<tag k="natural" v="hill" />
		<tag k="place" v="locality" />
		<tag k="ssr:stedsnr" v="947665" />
	</node>
	<node id="-110021" lat="62.1080611136" lon="9.67157221312">
		<tag k="fixme" v="consider natural=peak for the most distinct mountains in the district" />
		<tag k="name" v="Nysæterhøe" />
		<tag k="natural" v="hill" />
		<tag k="place" v="locality" />
		<tag k="ssr:stedsnr" v="932812" />
	</node>
	<node id="-110015" lat="61.8897249956" lon="9.36475000521">
		<tag k="alt_name" v="Kjempedalen" />
		<tag k="name" v="Kampedalen" />
		<tag k="natural" v="hill" />
		<tag k="place" v="locality" />
		<tag k="ssr:stedsnr" v="921968" />
	</node>
	<node id="-110013" lat="62.2085638914" lon="9.46387777888">
		<tag k="alt_name" v="Breiskardet" />
		<tag k="name" v="Breidskardet" />
		<tag k="natural" v="valley" />
		<tag k="place" v="locality" />
		<tag k="ssr:stedsnr" v="921758" />
	</node>
	<node id="-110011" lat="61.909490884" lon="9.73940860474">
		<tag k="fixme" v="consider natural=peak for the most distinct mountains in the district" />
		<tag k="name" v="Storsmeden" />
		<tag k="natural" v="hill" />
		<tag k="place" v="locality" />
		<tag k="ssr:stedsnr" v="921729" />
	</node>
	<node id="-110006" lat="61.9309138933" lon="9.66018612058">
		<tag k="name" v="Slettløyftet" />
		<tag k="natural" v="valley" />
		<tag k="place" v="locality" />
		<tag k="ssr:stedsnr" v="921670" />
	</node>
	<node id="-110005" lat="61.9165833293" lon="9.7569666727">
		<tag k="fixme" v="consider natural=peak for the most distinct mountains in the district" />
		<tag k="name" v="Veslesmeden" />
		<tag k="natural" v="hill" />
		<tag k="place" v="locality" />
		<tag k="ssr:stedsnr" v="921668" />
	</node>
	<node id="-110004" lat="62.0457249977" lon="9.43585555571">
		<tag k="fixme" v="consider natural=peak for the most distinct mountains in the district" />
		<tag k="name" v="Gråsida" />
		<tag k="natural" v="hill" />
		<tag k="place" v="locality" />
		<tag k="ssr:stedsnr" v="921667" />
	</node>
	<node id="-110000" lat="61.9482972207" lon="9.62421944213">
		<tag k="fixme" v="consider natural=peak for the most distinct mountains in the district" />
		<tag k="name" v="Gråhøe" />
		<tag k="natural" v="hill" />
		<tag k="place" v="locality" />
		<tag k="ssr:stedsnr" v="921653" />
	</node>
	<node id="-109997" lat="62.0242555583" lon="9.44679167382">
		<tag k="fixme" v="consider natural=peak for the most distinct mountains in the district" />
		<tag k="name" v="Einsethøe" />
		<tag k="natural" v="hill" />
		<tag k="place" v="locality" />
		<tag k="ssr:stedsnr" v="921645" />
	</node>
	<node id="-109990" lat="62.309186107" lon="9.39190832616">
		<tag k="fixme" v="consider natural=peak for the most distinct mountains in the district" />
		<tag k="name" v="Tvillingkollan" />
		<tag k="natural" v="hill" />
		<tag k="place" v="locality" />
		<tag k="ssr:stedsnr" v="921573" />
	</node>
	<node id="-109989" lat="62.0220833308" lon="9.08750000087">
		<tag k="alt_name" v="Møkjalasset, indre" />
		<tag k="fixme" v="consider natural=peak for the most distinct mountains in the district" />
		<tag k="name" v="Indre Møkjalasset" />
		<tag k="natural" v="hill" />
		<tag k="place" v="locality" />
		<tag k="ssr:stedsnr" v="921564" />
	</node>
	<node id="-109986" lat="62.0024000018" lon="9.03363888804">
		<tag k="fixme" v="consider natural=peak for the most distinct mountains in the district" />
		<tag k="name" v="Ståkåhøi" />
		<tag k="natural" v="hill" />
		<tag k="place" v="locality" />
		<tag k="ssr:stedsnr" v="921538" />
	</node>
	<node id="-109985" lat="62.2427972182" lon="9.57811667063">
		<tag k="fixme" v="consider natural=peak for the most distinct mountains in the district" />
		<tag k="name" v="Hjerkinnshøe" />
		<tag k="natural" v="hill" />
		<tag k="place" v="locality" />
		<tag k="ssr:stedsnr" v="921531" />
	</node>
	<node id="-109981" lat="62.3359777776" lon="9.21584999549">
		<tag k="fixme" v="consider natural=peak for the most distinct mountains in the district" />
		<tag k="name" v="Larseggen" />
		<tag k="natural" v="hill" />
		<tag k="place" v="locality" />
		<tag k="ssr:stedsnr" v="921436" />
	</node>
	<node id="-109978" lat="61.9810472248" lon="9.60205000449">
		<tag k="name" v="Kluftin" />
		<tag k="natural" v="valley" />
		<tag k="place" v="locality" />
		<tag k="ssr:stedsnr" v="920631" />
	</node>
	<node id="-109976" lat="62.0925083372" lon="9.81395000007">
		<tag k="alt_name" v="Kyrkja" />
		<tag k="name" v="Tollevshaugkyrkja" />
		<tag k="natural" v="hill" />
		<tag k="place" v="locality" />
		<tag k="ssr:stedsnr" v="920479" />
	</node>
	<node id="-109970" lat="61.9515083342" lon="9.22618333902">
		<tag k="name" v="Jøndalsberget" />
		<tag k="natural" v="hill" />
		<tag k="place" v="locality" />
		<tag k="ssr:stedsnr" v="901748" />
	</node>
	<node id="-109969" lat="61.9733138858" lon="9.21112500938">
		<tag k="name" v="Seterbakken" />
		<tag k="natural" v="slope" />
		<tag k="place" v="locality" />
		<tag k="ssr:stedsnr" v="901743" />
	</node>
	<node id="-109965" lat="62.1802166702" lon="9.55734444234">
		<tag k="name" v="Gautådalen" />
		<tag k="natural" v="valley" />
		<tag k="place" v="locality" />
		<tag k="ssr:stedsnr" v="901509" />
	</node>
	<node id="-109963" lat="62.0149722253" lon="9.80388610285">
		<tag k="name" v="Stygghøe" />
		<tag k="natural" v="hill" />
		<tag k="place" v="locality" />
		<tag k="ssr:stedsnr" v="901307" />
	</node>
	<node id="-109959" lat="62.1940916688" lon="9.54399445134">
		<tag k="name" v="Hytthaug" />
		<tag k="natural" v="hill" />
		<tag k="place" v="locality" />
		<tag k="ssr:stedsnr" v="901239" />
	</node>
	<node id="-109955" lat="62.012347223" lon="9.3239333425">
		<tag k="name" v="Ljosrandin" />
		<tag k="natural" v="slope" />
		<tag k="place" v="locality" />
		<tag k="ssr:stedsnr" v="900967" />
	</node>
	<node id="-109947" lat="62.0614500003" lon="9.23383611831">
		<tag k="name" v="Sauhansstugu" />
		<tag k="place" v="locality" />
		<tag k="ssr:stedsnr" v="900288" />
	</node>
	<node id="-109943" lat="61.9297027785" lon="9.27659999601">
		<tag k="name" v="Svartberget" />
		<tag k="natural" v="hill" />
		<tag k="place" v="locality" />
		<tag k="ssr:stedsnr" v="861902" />
	</node>
	<node id="-109940" lat="62.167511109" lon="9.40213055686">
		<tag k="name" v="Vålåsjøberget" />
		<tag k="natural" v="hill" />
		<tag k="place" v="locality" />
		<tag k="ssr:stedsnr" v="861696" />
	</node>
	<node id="-109936" lat="62.153019445" lon="9.23841666094">
		<tag k="name" v="Storlie" />
		<tag k="natural" v="slope" />
		<tag k="place" v="locality" />
		<tag k="ssr:stedsnr" v="861655" />
	</node>
	<node id="-109934" lat="62.0114361116" lon="9.0901638805">
		<tag k="name" v="Hellflyi" />
		<tag k="natural" v="hill" />
		<tag k="place" v="locality" />
		<tag k="ssr:stedsnr" v="861503" />
	</node>
	<node id="-109933" lat="62.0078694433" lon="9.06515554631">
		<tag k="name" v="Vardhøi" />
		<tag k="natural" v="hill" />
		<tag k="place" v="locality" />
		<tag k="ssr:stedsnr" v="861501" />
	</node>
	<node id="-109932" lat="62.0118194451" lon="9.04090832837">
		<tag k="name" v="Ukleivsbreidjordet" />
		<tag k="place" v="locality" />
		<tag k="ssr:stedsnr" v="861500" />
	</node>
	<node id="-109930" lat="62.238425003" lon="9.56608889277">
		<tag k="alt_name" v="Hjerkinkollan" />
		<tag k="fixme" v="consider natural=peak for the most distinct mountains in the district" />
		<tag k="name" v="Hjerkinnskollan" />
		<tag k="natural" v="hill" />
		<tag k="place" v="locality" />
		<tag k="ssr:stedsnr" v="861486" />
	</node>
	<node id="-109929" lat="61.9491833365" lon="9.16248887969">
		<tag k="fixme" v="consider natural=peak for the most distinct mountains in the district" />
		<tag k="name" v="Vakkerdalshøin" />
		<tag k="natural" v="hill" />
		<tag k="place" v="locality" />
		<tag k="ssr:stedsnr" v="861122" />
	</node>
	<node id="-109926" lat="61.9591999956" lon="9.53095555681">
		<tag k="fixme" v="consider natural=peak for the most distinct mountains in the district" />
		<tag k="name" v="Sletthøe" />
		<tag k="natural" v="hill" />
		<tag k="place" v="locality" />
		<tag k="ssr:stedsnr" v="860933" />
	</node>
	<node id="-109925" lat="61.9426666685" lon="9.35516943748">
		<tag k="name" v="Ryddølsdalen" />
		<tag k="natural" v="valley" />
		<tag k="place" v="locality" />
		<tag k="ssr:stedsnr" v="860929" />
	</node>
	<node id="-109924" lat="61.9451250017" lon="9.40316388184">
		<tag k="name" v="Kuvmillom" />
		<tag k="natural" v="valley" />
		<tag k="place" v="locality" />
		<tag k="ssr:stedsnr" v="860927" />
	</node>
	<node id="-109921" lat="62.2126472182" lon="9.53943333896">
		<tag k="name" v="Geitberget" />
		<tag k="natural" v="hill" />
		<tag k="place" v="locality" />
		<tag k="ssr:stedsnr" v="860766" />
	</node>
	<node id="-109919" lat="62.2046944459" lon="9.31594167197">
		<tag k="fixme" v="consider natural=peak for the most distinct mountains in the district" />
		<tag k="name" v="Knarthøe" />
		<tag k="natural" v="hill" />
		<tag k="place" v="locality" />
		<tag k="ssr:stedsnr" v="860760" />
	</node>
	<node id="-109918" lat="62.1966111116" lon="9.57685555075">
		<tag k="name" v="Veslhjerkinnshovda" />
		<tag k="natural" v="hill" />
		<tag k="place" v="locality" />
		<tag k="ssr:stedsnr" v="860749" />
	</node>
	<node id="-109914" lat="62.0386222217" lon="9.2567277795">
		<tag k="alt_name" v="Nyseterkollen" />
		<tag k="fixme" v="consider natural=peak for the most distinct mountains in the district" />
		<tag k="name" v="Nysæterkollen" />
		<tag k="natural" v="hill" />
		<tag k="place" v="locality" />
		<tag k="ssr:stedsnr" v="860695" />
	</node>
	<node id="-109908" lat="62.0166583294" lon="9.06438888283">
		<tag k="alt_name" v="Langhøi, fremre" />
		<tag k="fixme" v="consider natural=peak for the most distinct mountains in the district" />
		<tag k="name" v="Fremre Langhøi" />
		<tag k="natural" v="hill" />
		<tag k="place" v="locality" />
		<tag k="ssr:stedsnr" v="860573" />
	</node>
	<node id="-109906" lat="62.0443777753" lon="9.90549999092">
		<tag k="fixme" v="consider natural=peak for the most distinct mountains in the district" />
		<tag k="name" v="Kalven" />
		<tag k="natural" v="hill" />
		<tag k="place" v="locality" />
		<tag k="ssr:stedsnr" v="860462" />
	</node>
	<node id="-109905" lat="62.0449472243" lon="9.80330833249">
		<tag k="alt_name" v="Haverdalsmunnin" />
		<tag k="name" v="Haverdalsmunnen" />
		<tag k="natural" v="valley" />
		<tag k="place" v="locality" />
		<tag k="ssr:stedsnr" v="860452" />
	</node>
	<node id="-109903" lat="61.9856416672" lon="9.56383889532">
		<tag k="name" v="Haverdalen" />
		<tag k="natural" v="valley" />
		<tag k="place" v="locality" />
		<tag k="ssr:stedsnr" v="860449" />
	</node>
	<node id="-109901" lat="62.0590472259" lon="9.76739721939">
		<tag k="fixme" v="consider natural=peak for the most distinct mountains in the district" />
		<tag k="name" v="Gravhøtangen" />
		<tag k="natural" v="hill" />
		<tag k="place" v="locality" />
		<tag k="ssr:stedsnr" v="860443" />
	</node>
	<node id="-109899" lat="61.9309611145" lon="9.23641944924">
		<tag k="name" v="Veslhøe" />
		<tag k="natural" v="hill" />
		<tag k="place" v="locality" />
		<tag k="ssr:stedsnr" v="861909" />
	</node>
	<node id="-109897" lat="62.0399555529" lon="9.25601943916">
		<tag k="name" v="Nyseterholet" />
		<tag k="natural" v="valley" />
		<tag k="place" v="locality" />
		<tag k="ssr:stedsnr" v="840988" />
	</node>
	<node id="-109894" lat="62.0124611124" lon="9.20716111871">
		<tag k="name" v="Furumo" />
		<tag k="place" v="locality" />
		<tag k="ssr:stedsnr" v="840753" />
	</node>
	<node id="-109893" lat="61.9518277783" lon="9.24545833752">
		<tag k="fixme" v="consider natural=peak for the most distinct mountains in the district" />
		<tag k="name" v="Kollen" />
		<tag k="natural" v="hill" />
		<tag k="place" v="locality" />
		<tag k="ssr:stedsnr" v="840680" />
	</node>
	<node id="-109892" lat="61.9488472238" lon="9.24304999251">
		<tag k="name" v="Brysjubakkan" />
		<tag k="natural" v="slope" />
		<tag k="place" v="locality" />
		<tag k="ssr:stedsnr" v="840678" />
	</node>
	<node id="-109884" lat="62.1462166704" lon="9.33040277494">
		<tag k="name" v="Hytthaugen" />
		<tag k="natural" v="hill" />
		<tag k="place" v="locality" />
		<tag k="ssr:stedsnr" v="840458" />
	</node>
	<node id="-109883" lat="62.0182250035" lon="9.1899555646">
		<tag k="name" v="Killisandom" />
		<tag k="place" v="locality" />
		<tag k="ssr:stedsnr" v="840360" />
	</node>
	<node id="-109865" lat="61.9360333299" lon="9.25703332673">
		<tag k="name" v="Ymjørberget" />
		<tag k="natural" v="hill" />
		<tag k="place" v="locality" />
		<tag k="ssr:stedsnr" v="826656" />
	</node>
	<node id="-109864" lat="61.9825777755" lon="9.34671389573">
		<tag k="name" v="Steinhovda" />
		<tag k="natural" v="hill" />
		<tag k="place" v="locality" />
		<tag k="ssr:stedsnr" v="826604" />
	</node>
	<node id="-109862" lat="61.9237916623" lon="9.73652500546">
		<tag k="fixme" v="consider natural=peak for the most distinct mountains in the district" />
		<tag k="loc_name" v="Søre Smedhåmåren" />
		<tag k="name" v="Søre Smedhamran" />
		<tag k="natural" v="hill" />
		<tag k="place" v="locality" />
		<tag k="ssr:stedsnr" v="808415" />
	</node>
	<node id="-109861" lat="61.9665027757" lon="9.35596667207">
		<tag k="name" v="Vardfjellet" />
		<tag k="natural" v="hill" />
		<tag k="place" v="locality" />
		<tag k="ssr:stedsnr" v="800930" />
	</node>
	<node id="-109859" lat="61.979500004" lon="9.39942222752">
		<tag k="name" v="Rundhaugen" />
		<tag k="natural" v="hill" />
		<tag k="place" v="locality" />
		<tag k="ssr:stedsnr" v="800925" />
	</node>
	<node id="-109854" lat="61.9494277734" lon="9.42397778634">
		<tag k="fixme" v="consider natural=peak for the most distinct mountains in the district" />
		<tag k="name" v="Veslkuva" />
		<tag k="natural" v="hill" />
		<tag k="place" v="locality" />
		<tag k="ssr:stedsnr" v="800889" />
	</node>
	<node id="-109850" lat="62.141025" lon="9.43724722737">
		<tag k="fixme" v="consider natural=peak for the most distinct mountains in the district" />
		<tag k="name" v="Blåberget" />
		<tag k="natural" v="hill" />
		<tag k="place" v="locality" />
		<tag k="ssr:stedsnr" v="800676" />
	</node>
	<node id="-109848" lat="62.0952472197" lon="9.5747777743">
		<tag k="fixme" v="consider natural=peak for the most distinct mountains in the district" />
		<tag k="name" v="Kattuglehøe" />
		<tag k="natural" v="hill" />
		<tag k="place" v="locality" />
		<tag k="ssr:stedsnr" v="800654" />
	</node>
	<node id="-109842" lat="62.0063000029" lon="9.10976111141">
		<tag k="name" v="Mjølrakkhaugan" />
		<tag k="natural" v="hill" />
		<tag k="place" v="locality" />
		<tag k="ssr:stedsnr" v="800518" />
	</node>
	<node id="-109840" lat="62.2723888891" lon="9.37767499073">
		<tag k="name" v="Svånådalen" />
		<tag k="natural" v="valley" />
		<tag k="place" v="locality" />
		<tag k="ssr:stedsnr" v="800487" />
	</node>
	<node id="-109839" lat="62.1103777807" lon="9.73313333772">
		<tag k="fixme" v="consider natural=peak for the most distinct mountains in the district" />
		<tag k="name" v="Mesæterhøe" />
		<tag k="natural" v="hill" />
		<tag k="place" v="locality" />
		<tag k="ssr:stedsnr" v="800471" />
	</node>
	<node id="-109838" lat="62.017683333" lon="9.75304721733">
		<tag k="alt_name" v="Breiglupen" />
		<tag k="name" v="Breidglupen" />
		<tag k="natural" v="valley" />
		<tag k="place" v="locality" />
		<tag k="ssr:stedsnr" v="800404" />
	</node>
	<node id="-109833" lat="61.9551916695" lon="9.14402776899">
		<tag k="fixme" v="consider natural=peak for the most distinct mountains in the district" />
		<tag k="name" v="Veslhøin" />
		<tag k="natural" v="hill" />
		<tag k="place" v="locality" />
		<tag k="ssr:stedsnr" v="800183" />
	</node>
	<node id="-109832" lat="62.1469027779" lon="9.17259999151">
		<tag k="name" v="Bekkeslågån" />
		<tag k="natural" v="hill" />
		<tag k="place" v="locality" />
		<tag k="ssr:stedsnr" v="799932" />
	</node>
	<node id="-109831" lat="62.2198750003" lon="9.43630833767">
		<tag k="alt_name" v="Vesleknatten" />
		<tag k="name" v="Veslknatten" />
		<tag k="natural" v="hill" />
		<tag k="place" v="locality" />
		<tag k="ssr:stedsnr" v="799766" />
	</node>
	<node id="-109828" lat="62.1490361151" lon="9.63222500067">
		<tag k="fixme" v="consider natural=peak for the most distinct mountains in the district" />
		<tag k="name" v="Mehøe" />
		<tag k="natural" v="hill" />
		<tag k="place" v="locality" />
		<tag k="ssr:stedsnr" v="799729" />
	</node>
	<node id="-109827" lat="61.9194527822" lon="9.81283611504">
		<tag k="name" v="Rondvassdalen" />
		<tag k="natural" v="valley" />
		<tag k="place" v="locality" />
		<tag k="ssr:stedsnr" v="799687" />
	</node>
	<node id="-109825" lat="61.9204055579" lon="9.71688054995">
		<tag k="name" v="Langholet" />
		<tag k="natural" v="valley" />
		<tag k="place" v="locality" />
		<tag k="ssr:stedsnr" v="799682" />
	</node>
	<node id="-109823" lat="62.0661138853" lon="9.67052777361">
		<tag k="alt_name" v="Vesltunga" />
		<tag k="name" v="Vesletunga" />
		<tag k="natural" v="ridge" />
		<tag k="place" v="locality" />
		<tag k="ssr:stedsnr" v="799669" />
	</node>
	<node id="-109821" lat="61.9346972185" lon="9.64548888029">
		<tag k="fixme" v="consider natural=peak for the most distinct mountains in the district" />
		<tag k="name" v="Simletinden" />
		<tag k="natural" v="hill" />
		<tag k="place" v="locality" />
		<tag k="ssr:stedsnr" v="799664" />
	</node>
	<node id="-109817" lat="61.9802249969" lon="9.65669166815">
		<tag k="fixme" v="consider natural=peak for the most distinct mountains in the district" />
		<tag k="name" v="Vesleåta" />
		<tag k="natural" v="hill" />
		<tag k="place" v="locality" />
		<tag k="ssr:stedsnr" v="799650" />
	</node>
	<node id="-109816" lat="62.0289999978" lon="9.63670277858">
		<tag k="alt_name" v="Seterberget" />
		<tag k="fixme" v="consider natural=peak for the most distinct mountains in the district" />
		<tag k="name" v="Sæterberget" />
		<tag k="natural" v="hill" />
		<tag k="place" v="locality" />
		<tag k="ssr:stedsnr" v="799649" />
	</node>
	<node id="-109815" lat="61.9690361115" lon="9.81619444638">
		<tag k="name" v="Vidjedalsflye" />
		<tag k="place" v="locality" />
		<tag k="ssr:stedsnr" v="799648" />
	</node>
	<node id="-109814" lat="62.082174998" lon="9.14350278645">
		<tag k="name" v="Kjørrhovda" />
		<tag k="natural" v="hill" />
		<tag k="place" v="locality" />
		<tag k="ssr:stedsnr" v="799608" />
	</node>
	<node id="-109812" lat="62.0644916652" lon="9.14043055948">
		<tag k="name" v="Hovda" />
		<tag k="natural" v="hill" />
		<tag k="place" v="locality" />
		<tag k="ssr:stedsnr" v="799588" />
	</node>
	<node id="-109808" lat="62.0507305535" lon="9.30355000251">
		<tag k="name" v="Breiskardet" />
		<tag k="natural" v="valley" />
		<tag k="place" v="locality" />
		<tag k="ssr:stedsnr" v="779989" />
	</node>
	<node id="-109799" lat="62.0374055531" lon="9.68696666864">
		<tag k="name" v="Hullaren" />
		<tag k="natural" v="hill" />
		<tag k="place" v="locality" />
		<tag k="ssr:stedsnr" v="779554" />
	</node>
	<node id="-109794" lat="62.034719446" lon="9.13864722274">
		<tag k="name" v="Ulekleivshaugen" />
		<tag k="natural" v="hill" />
		<tag k="place" v="locality" />
		<tag k="ssr:stedsnr" v="779307" />
	</node>
	<node id="-109793" lat="62.0784972226" lon="9.64921111592">
		<tag k="name" v="Åkseldalen" />
		<tag k="natural" v="valley" />
		<tag k="place" v="locality" />
		<tag k="ssr:stedsnr" v="779280" />
	</node>
	<node id="-109776" lat="61.9192012513" lon="9.70772223191">
		<tag k="fixme" v="consider natural=peak for the most distinct mountains in the district" />
		<tag k="name" v="Trolltinden" />
		<tag k="natural" v="hill" />
		<tag k="old_name" v="Sagtinden;Sagtindann" />
		<tag k="place" v="locality" />
		<tag k="ssr:stedsnr" v="753678" />
	</node>
	<node id="-109775" lat="62.0852285872" lon="9.34701808183">
		<tag k="fixme" v="consider natural=peak for the most distinct mountains in the district" />
		<tag k="name" v="Fokstuguhøin" />
		<tag k="natural" v="hill" />
		<tag k="place" v="locality" />
		<tag k="ssr:stedsnr" v="750813" />
	</node>
	<node id="-109765" lat="62.1612444488" lon="9.42230278619">
		<tag k="fixme" v="consider natural=peak for the most distinct mountains in the district" />
		<tag k="name" v="Mehøe" />
		<tag k="natural" v="hill" />
		<tag k="place" v="locality" />
		<tag k="ssr:stedsnr" v="739688" />
	</node>
	<node id="-109761" lat="62.3193653682" lon="9.25496356683">
		<tag k="name" v="Gryta" />
		<tag k="natural" v="valley" />
		<tag k="place" v="locality" />
		<tag k="ssr:stedsnr" v="739555" />
	</node>
	<node id="-109759" lat="62.3204027817" lon="9.22181666563">
		<tag k="fixme" v="consider natural=peak for the most distinct mountains in the district" />
		<tag k="name" v="Larstinden" />
		<tag k="natural" v="hill" />
		<tag k="old_name" v="Larstind" />
		<tag k="place" v="locality" />
		<tag k="ssr:stedsnr" v="739542" />
	</node>
	<node id="-109755" lat="61.989255559" lon="9.36462223067">
		<tag k="fixme" v="consider natural=peak for the most distinct mountains in the district" />
		<tag k="name" v="Åsaranden" />
		<tag k="natural" v="hill" />
		<tag k="place" v="locality" />
		<tag k="ssr:stedsnr" v="739373" />
	</node>
	<node id="-109753" lat="61.9104638848" lon="9.21626110547">
		<tag k="fixme" v="consider natural=peak for the most distinct mountains in the district" />
		<tag k="name" v="Storhøi" />
		<tag k="natural" v="hill" />
		<tag k="place" v="locality" />
		<tag k="ssr:stedsnr" v="739229" />
	</node>
	<node id="-109752" lat="61.9943888881" lon="9.19032221317">
		<tag k="name" v="Sjøberget" />
		<tag k="natural" v="hill" />
		<tag k="place" v="locality" />
		<tag k="ssr:stedsnr" v="739165" />
	</node>
	<node id="-109750" lat="61.9868777742" lon="9.11746111677">
		<tag k="name" v="Muslidalen" />
		<tag k="natural" v="valley" />
		<tag k="place" v="locality" />
		<tag k="ssr:stedsnr" v="739151" />
	</node>
	<node id="-109742" lat="61.9917861149" lon="9.68939721577">
		<tag k="name" v="Storåtdalen" />
		<tag k="natural" v="valley" />
		<tag k="place" v="locality" />
		<tag k="ssr:stedsnr" v="738697" />
	</node>
	<node id="-109741" lat="61.9903777803" lon="9.80422500002">
		<tag k="name" v="Eggen" />
		<tag k="natural" v="ridge" />
		<tag k="place" v="locality" />
		<tag k="ssr:stedsnr" v="738694" />
	</node>
	<node id="-109738" lat="61.9443416701" lon="9.85794165944">
		<tag k="fixme" v="consider natural=peak for the most distinct mountains in the district" />
		<tag k="name" v="Midtronden" />
		<tag k="natural" v="hill" />
		<tag k="place" v="locality" />
		<tag k="ssr:stedsnr" v="738651" />
	</node>
	<node id="-109736" lat="62.0234666709" lon="9.59686943877">
		<tag k="alt_name" v="Storvassberget" />
		<tag k="fixme" v="consider natural=peak for the most distinct mountains in the district" />
		<tag k="name" v="Storrvassberget" />
		<tag k="natural" v="hill" />
		<tag k="place" v="locality" />
		<tag k="ssr:stedsnr" v="738636" />
	</node>
	<node id="-109735" lat="61.9541055518" lon="9.80346111602">
		<tag k="fixme" v="consider natural=peak for the most distinct mountains in the district" />
		<tag k="name" v="Salen" />
		<tag k="natural" v="hill" />
		<tag k="place" v="locality" />
		<tag k="ssr:stedsnr" v="738634" />
	</node>
	<node id="-109729" lat="62.0229944435" lon="9.37235555135">
		<tag k="name" v="Gråsida" />
		<tag k="natural" v="slope" />
		<tag k="place" v="locality" />
		<tag k="ssr:stedsnr" v="718994" />
	</node>
	<node id="-109727" lat="62.0121638921" lon="9.35606388489">
		<tag k="name" v="Flye" />
		<tag k="natural" v="slope" />
		<tag k="place" v="locality" />
		<tag k="ssr:stedsnr" v="718975" />
	</node>
	<node id="-109724" lat="61.9282583377" lon="9.38004722888">
		<tag k="alt_name" v="Nordre Slådalen" />
		<tag k="name" v="Nørdre Slådalen" />
		<tag k="natural" v="valley" />
		<tag k="place" v="locality" />
		<tag k="ssr:stedsnr" v="718824" />
	</node>
	<node id="-109720" lat="61.9208527804" lon="9.37889445055">
		<tag k="name" v="Bjørkerusta" />
		<tag k="natural" v="slope" />
		<tag k="place" v="locality" />
		<tag k="ssr:stedsnr" v="718779" />
	</node>
	<node id="-109712" lat="62.0637361095" lon="9.15548611334">
		<tag k="name" v="Kroksbakkene" />
		<tag k="natural" v="slope" />
		<tag k="place" v="locality" />
		<tag k="ssr:stedsnr" v="718525" />
	</node>
	<node id="-109710" lat="62.1185222251" lon="9.25673332911">
		<tag k="name" v="Bonhalhaugen" />
		<tag k="natural" v="hill" />
		<tag k="place" v="locality" />
		<tag k="ssr:stedsnr" v="718483" />
	</node>
	<node id="-109709" lat="62.1438722216" lon="9.34248888543">
		<tag k="name" v="Storhuset" />
		<tag k="natural" v="hill" />
		<tag k="place" v="locality" />
		<tag k="ssr:stedsnr" v="718481" />
	</node>
	<node id="-109706" lat="62.2002138859" lon="9.48418054865">
		<tag k="name" v="Storslågån" />
		<tag k="natural" v="slope" />
		<tag k="place" v="locality" />
		<tag k="ssr:stedsnr" v="718448" />
	</node>
	<node id="-109704" lat="62.0150888882" lon="9.13976943849">
		<tag k="name" v="Storrauberget" />
		<tag k="natural" v="hill" />
		<tag k="place" v="locality" />
		<tag k="ssr:stedsnr" v="718340" />
	</node>
	<node id="-109703" lat="62.0178638878" lon="9.11923056376">
		<tag k="name" v="Manningrandin" />
		<tag k="natural" v="hill" />
		<tag k="place" v="locality" />
		<tag k="ssr:stedsnr" v="718337" />
	</node>
	<node id="-109697" lat="62.0728194489" lon="9.20987499232">
		<tag k="name" v="Veslehø" />
		<tag k="natural" v="hill" />
		<tag k="place" v="locality" />
		<tag k="ssr:stedsnr" v="718118" />
	</node>
	<node id="-109693" lat="62.0955777781" lon="9.10469166664">
		<tag k="name" v="Trollkyrkja" />
		<tag k="natural" v="hill" />
		<tag k="place" v="locality" />
		<tag k="ssr:stedsnr" v="717855" />
	</node>
	<node id="-109682" lat="62.2732611101" lon="9.6864333286">
		<tag k="alt_name" v="Armodshøin" />
		<tag k="fixme" v="consider natural=peak for the most distinct mountains in the district" />
		<tag k="loc_name" v="Armodshøe" />
		<tag k="name" v="Armodshøi" />
		<tag k="natural" v="hill" />
		<tag k="place" v="locality" />
		<tag k="ssr:stedsnr" v="679457" />
	</node>
	<node id="-109680" lat="61.9110583373" lon="9.40357499862">
		<tag k="name" v="Snauhaugen" />
		<tag k="natural" v="hill" />
		<tag k="place" v="locality" />
		<tag k="ssr:stedsnr" v="678981" />
	</node>
	<node id="-109675" lat="61.9327583312" lon="9.41436388029">
		<tag k="name" v="Grasflye" />
		<tag k="natural" v="slope" />
		<tag k="place" v="locality" />
		<tag k="ssr:stedsnr" v="678894" />
	</node>
	<node id="-109674" lat="61.9332250039" lon="9.50731110482">
		<tag k="fixme" v="consider natural=peak for the most distinct mountains in the district" />
		<tag k="name" v="Gråknarten" />
		<tag k="natural" v="hill" />
		<tag k="place" v="locality" />
		<tag k="ssr:stedsnr" v="678893" />
	</node>
	<node id="-109671" lat="62.1146277762" lon="9.13658056422">
		<tag k="name" v="Turrhaugen" />
		<tag k="natural" v="hill" />
		<tag k="place" v="locality" />
		<tag k="ssr:stedsnr" v="678872" />
	</node>
	<node id="-109670" lat="61.9104499976" lon="9.24348610623">
		<tag k="fixme" v="consider natural=peak for the most distinct mountains in the district" />
		<tag k="name" v="Jetta" />
		<tag k="natural" v="hill" />
		<tag k="place" v="locality" />
		<tag k="ssr:stedsnr" v="678867" />
	</node>
	<node id="-109662" lat="62.1153750042" lon="9.40182222893">
		<tag k="name" v="Hyttdalen" />
		<tag k="natural" v="valley" />
		<tag k="place" v="locality" />
		<tag k="ssr:stedsnr" v="678685" />
	</node>
	<node id="-109661" lat="62.1175611073" lon="9.31100555382">
		<tag k="alt_name" v="Smørbollen, ytre;Ytre Smørbollin" />
		<tag k="name" v="Ytre Smørbollen" />
		<tag k="natural" v="hill" />
		<tag k="place" v="locality" />
		<tag k="ssr:stedsnr" v="678680" />
	</node>
	<node id="-109660" lat="62.1293527773" lon="9.4488111119">
		<tag k="fixme" v="consider natural=peak for the most distinct mountains in the district" />
		<tag k="name" v="Falketind" />
		<tag k="natural" v="hill" />
		<tag k="place" v="locality" />
		<tag k="ssr:stedsnr" v="678674" />
	</node>
	<node id="-109659" lat="62.0703805564" lon="9.62861666877">
		<tag k="name" v="Grimsdalen" />
		<tag k="natural" v="valley" />
		<tag k="place" v="locality" />
		<tag k="ssr:stedsnr" v="678673" />
	</node>
	<node id="-109658" lat="62.0673166701" lon="9.60162499786">
		<tag k="fixme" v="consider natural=peak for the most distinct mountains in the district" />
		<tag k="name" v="Storberget" />
		<tag k="natural" v="hill" />
		<tag k="place" v="locality" />
		<tag k="ssr:stedsnr" v="678672" />
	</node>
	<node id="-109657" lat="62.1015527789" lon="9.47314165903">
		<tag k="fixme" v="consider natural=peak for the most distinct mountains in the district" />
		<tag k="name" v="Halvfarhøe" />
		<tag k="natural" v="hill" />
		<tag k="place" v="locality" />
		<tag k="ssr:stedsnr" v="678666" />
	</node>
	<node id="-109655" lat="62.0682138881" lon="9.69904722455">
		<tag k="alt_name" v="Veslekollen" />
		<tag k="fixme" v="consider natural=peak for the most distinct mountains in the district" />
		<tag k="name" v="Veslkollen" />
		<tag k="natural" v="hill" />
		<tag k="place" v="locality" />
		<tag k="ssr:stedsnr" v="678650" />
	</node>
	<node id="-109650" lat="62.0218361127" lon="9.3459138962">
		<tag k="alt_name" v="Hemmare Skardet" />
		<tag k="name" v="Heimare Skardet" />
		<tag k="natural" v="valley" />
		<tag k="old_name" v="Skardet, heimre" />
		<tag k="place" v="locality" />
		<tag k="ssr:stedsnr" v="678639" />
	</node>
	<node id="-109649" lat="62.0158249997" lon="9.31758056497">
		<tag k="alt_name" v="Vardhøe" />
		<tag k="fixme" v="consider natural=peak for the most distinct mountains in the district" />
		<tag k="name" v="Vardhøi" />
		<tag k="natural" v="hill" />
		<tag k="place" v="locality" />
		<tag k="ssr:stedsnr" v="678638" />
	</node>
	<node id="-109646" lat="62.0255083341" lon="9.30035555366">
		<tag k="name" v="Einbuggdalen" />
		<tag k="natural" v="valley" />
		<tag k="place" v="locality" />
		<tag k="ssr:stedsnr" v="678625" />
	</node>
	<node id="-109642" lat="62.0510361089" lon="9.21540832517">
		<tag k="alt_name" v="Arnekleivshøin" />
		<tag k="name" v="Arnkleivshøi" />
		<tag k="natural" v="hill" />
		<tag k="place" v="locality" />
		<tag k="ssr:stedsnr" v="678563" />
	</node>
	<node id="-109641" lat="62.054900004" lon="9.17510000735">
		<tag k="name" v="Ormehaugen" />
		<tag k="natural" v="hill" />
		<tag k="place" v="locality" />
		<tag k="ssr:stedsnr" v="678561" />
	</node>
	<node id="-109637" lat="62.2260611071" lon="9.49212499112">
		<tag k="fixme" v="consider natural=peak for the most distinct mountains in the district" />
		<tag k="name" v="Tverrfjellet" />
		<tag k="natural" v="hill" />
		<tag k="place" v="locality" />
		<tag k="ssr:stedsnr" v="678510" />
	</node>
	<node id="-109636" lat="61.9593444455" lon="9.10732500706">
		<tag k="fixme" v="consider natural=peak for the most distinct mountains in the district" />
		<tag k="name" v="Raudnebb" />
		<tag k="natural" v="hill" />
		<tag k="place" v="locality" />
		<tag k="ssr:stedsnr" v="678183" />
	</node>
	<node id="-109635" lat="61.9914611135" lon="9.56781111036">
		<tag k="name" v="Raudhamran" />
		<tag k="natural" v="hill" />
		<tag k="place" v="locality" />
		<tag k="ssr:stedsnr" v="678418" />
	</node>
	<node id="-109631" lat="62.0201944466" lon="9.57455832965">
		<tag k="name" v="Slettflye" />
		<tag k="place" v="locality" />
		<tag k="ssr:stedsnr" v="658558" />
	</node>
	<node id="-109629" lat="62.0352749962" lon="9.69141388768">
		<tag k="name" v="Langleite" />
		<tag k="place" v="locality" />
		<tag k="ssr:stedsnr" v="658552" />
	</node>
	<node id="-109627" lat="62.0166194438" lon="9.24498610238">
		<tag k="name" v="Silisberget" />
		<tag k="natural" v="hill" />
		<tag k="place" v="locality" />
		<tag k="ssr:stedsnr" v="658484" />
	</node>
	<node id="-109625" lat="61.9222222234" lon="9.41391111409">
		<tag k="name" v="Rotbakken" />
		<tag k="natural" v="slope" />
		<tag k="place" v="locality" />
		<tag k="ssr:stedsnr" v="657752" />
	</node>
	<node id="-109624" lat="61.9045194404" lon="9.37288610565">
		<tag k="name" v="Vesleøyin" />
		<tag k="place" v="locality" />
		<tag k="ssr:stedsnr" v="657738" />
	</node>
	<node id="-109617" lat="62.1272194403" lon="9.28316389282">
		<tag k="name" v="Lyuhaug" />
		<tag k="natural" v="hill" />
		<tag k="place" v="locality" />
		<tag k="ssr:stedsnr" v="657478" />
	</node>
	<node id="-109613" lat="62.0335416703" lon="9.14051110476">
		<tag k="name" v="Møllerhaugen" />
		<tag k="natural" v="hill" />
		<tag k="place" v="locality" />
		<tag k="ssr:stedsnr" v="657310" />
	</node>
	<node id="-109612" lat="62.0360888847" lon="9.14403055097">
		<tag k="name" v="Bjørnlia" />
		<tag k="natural" v="slope" />
		<tag k="place" v="locality" />
		<tag k="ssr:stedsnr" v="657309" />
	</node>
	<node id="-109610" lat="62.0851666625" lon="9.83879999105">
		<tag k="name" v="Nedre Paradis" />
		<tag k="natural" v="hill" />
		<tag k="place" v="locality" />
		<tag k="ssr:stedsnr" v="657279" />
	</node>
	<node id="-109606" lat="62.1120277821" lon="9.14816110188">
		<tag k="name" v="Gardsendturrhaugen" />
		<tag k="natural" v="hill" />
		<tag k="place" v="locality" />
		<tag k="ssr:stedsnr" v="657120" />
	</node>
	<node id="-109605" lat="62.1053583373" lon="9.16607500407">
		<tag k="name" v="Snauhaugen" />
		<tag k="natural" v="hill" />
		<tag k="place" v="locality" />
		<tag k="ssr:stedsnr" v="657119" />
	</node>
	<node id="-109600" lat="61.9084027745" lon="9.34918612048">
		<tag k="name" v="Småheggene" />
		<tag k="natural" v="hill" />
		<tag k="place" v="locality" />
		<tag k="ssr:stedsnr" v="643678" />
	</node>
	<node id="-109595" lat="62.1189361089" lon="9.3951944419">
		<tag k="fixme" v="consider natural=peak for the most distinct mountains in the district" />
		<tag k="name" v="Piggen" />
		<tag k="natural" v="hill" />
		<tag k="place" v="locality" />
		<tag k="ssr:stedsnr" v="628804" />
	</node>
	<node id="-109594" lat="61.9026027795" lon="9.3053888924">
		<tag k="name" v="Veslhøe" />
		<tag k="natural" v="hill" />
		<tag k="place" v="locality" />
		<tag k="ssr:stedsnr" v="617996" />
	</node>
	<node id="-109593" lat="61.9836222236" lon="9.42896389155">
		<tag k="name" v="Grønbakkekollen" />
		<tag k="natural" v="hill" />
		<tag k="place" v="locality" />
		<tag k="ssr:stedsnr" v="617923" />
	</node>
	<node id="-109592" lat="61.9504222202" lon="9.34171943965">
		<tag k="fixme" v="consider natural=peak for the most distinct mountains in the district" />
		<tag k="name" v="Heimare Veslfjellet" />
		<tag k="natural" v="hill" />
		<tag k="place" v="locality" />
		<tag k="ssr:stedsnr" v="617909" />
	</node>
	<node id="-109583" lat="61.9947249957" lon="9.59815555343">
		<tag k="name" v="Haverdalen" />
		<tag k="natural" v="valley" />
		<tag k="place" v="locality" />
		<tag k="ssr:stedsnr" v="617699" />
	</node>
	<node id="-109582" lat="61.9955663253" lon="9.74541689778">
		<tag k="name" v="Småhaugan" />
		<tag k="natural" v="hill" />
		<tag k="place" v="locality" />
		<tag k="ssr:stedsnr" v="617698" />
	</node>
	<node id="-109578" lat="62.1256361069" lon="9.36110278723">
		<tag k="name" v="Klevaholet" />
		<tag k="natural" v="valley" />
		<tag k="place" v="locality" />
		<tag k="ssr:stedsnr" v="617690" />
	</node>
	<node id="-109577" lat="61.9888305568" lon="9.81092500447">
		<tag k="name" v="Vidjedalen" />
		<tag k="natural" v="valley" />
		<tag k="place" v="locality" />
		<tag k="ssr:stedsnr" v="617689" />
	</node>
	<node id="-109575" lat="62.1357083374" lon="9.35257500167">
		<tag k="fixme" v="consider natural=peak for the most distinct mountains in the district" />
		<tag k="name" v="Langranden" />
		<tag k="natural" v="hill" />
		<tag k="place" v="locality" />
		<tag k="ssr:stedsnr" v="617683" />
	</node>
	<node id="-109572" lat="62.0770332962" lon="9.43580917534">
		<tag k="alt_name" v="Veslberget, Fremste" />
		<tag k="name" v="Fremste Veslberget" />
		<tag k="natural" v="hill" />
		<tag k="place" v="locality" />
		<tag k="ssr:stedsnr" v="617675" />
	</node>
	<node id="-109569" lat="61.9694527768" lon="9.76572223115">
		<tag k="name" v="Storflye" />
		<tag k="place" v="locality" />
		<tag k="ssr:stedsnr" v="617636" />
	</node>
	<node id="-109563" lat="62.0171194479" lon="9.05450277019">
		<tag k="alt_name" v="Langhøi, indre" />
		<tag k="fixme" v="consider natural=peak for the most distinct mountains in the district" />
		<tag k="loc_name" v="Langhøe" />
		<tag k="name" v="Indre Langhøi" />
		<tag k="natural" v="hill" />
		<tag k="place" v="locality" />
		<tag k="ssr:stedsnr" v="617548" />
	</node>
	<node id="-109554" lat="61.9700472201" lon="9.09248610462">
		<tag k="fixme" v="consider natural=peak for the most distinct mountains in the district" />
		<tag k="loc_name" v="Skardshøe" />
		<tag k="name" v="Skardshøi" />
		<tag k="natural" v="hill" />
		<tag k="place" v="locality" />
		<tag k="ssr:stedsnr" v="617215" />
	</node>
	<node id="-109553" lat="61.9905999984" lon="9.18591943613">
		<tag k="alt_name" v="Skarkollen" />
		<tag k="name" v="Skardkollan" />
		<tag k="natural" v="hill" />
		<tag k="place" v="locality" />
		<tag k="ssr:stedsnr" v="617205" />
	</node>
	<node id="-109552" lat="61.929113885" lon="9.2019833309">
		<tag k="fixme" v="consider natural=peak for the most distinct mountains in the district" />
		<tag k="name" v="Briskarhøi" />
		<tag k="natural" v="hill" />
		<tag k="place" v="locality" />
		<tag k="ssr:stedsnr" v="617179" />
	</node>
	<node id="-109551" lat="62.0501944448" lon="9.18752777603">
		<tag k="name" v="Veslehaug" />
		<tag k="natural" v="hill" />
		<tag k="place" v="locality" />
		<tag k="ssr:stedsnr" v="597912" />
	</node>
	<node id="-109550" lat="61.9714722254" lon="9.1901583369">
		<tag k="name" v="Flye" />
		<tag k="natural" v="slope" />
		<tag k="place" v="locality" />
		<tag k="ssr:stedsnr" v="597745" />
	</node>
	<node id="-109549" lat="61.9455250019" lon="9.22720000124">
		<tag k="name" v="Geitryggen" />
		<tag k="place" v="locality" />
		<tag k="ssr:stedsnr" v="597726" />
	</node>
	<node id="-109548" lat="61.9520388865" lon="9.24334999823">
		<tag k="name" v="Bråtan" />
		<tag k="natural" v="slope" />
		<tag k="place" v="locality" />
		<tag k="ssr:stedsnr" v="597671" />
	</node>
	<node id="-109546" lat="62.0044333354" lon="9.2777833334">
		<tag k="name" v="Storhovda" />
		<tag k="natural" v="hill" />
		<tag k="place" v="locality" />
		<tag k="ssr:stedsnr" v="597500" />
	</node>
	<node id="-109542" lat="62.012033329" lon="9.13224722194">
		<tag k="name" v="Blåberget" />
		<tag k="natural" v="hill" />
		<tag k="place" v="locality" />
		<tag k="ssr:stedsnr" v="597338" />
	</node>
	<node id="-109534" lat="62.1238666709" lon="9.17783610368">
		<tag k="name" v="Tatterlie" />
		<tag k="natural" v="slope" />
		<tag k="place" v="locality" />
		<tag k="ssr:stedsnr" v="597073" />
	</node>
	<node id="-109525" lat="61.9663527744" lon="9.19234999351">
		<tag k="name" v="Øvre Veslefjellet" />
		<tag k="natural" v="hill" />
		<tag k="place" v="locality" />
		<tag k="ssr:stedsnr" v="596689" />
	</node>
	<node id="-109522" lat="62.1335638856" lon="9.27769444374">
		<tag k="name" v="Ellanholet" />
		<tag k="natural" v="valley" />
		<tag k="place" v="locality" />
		<tag k="ssr:stedsnr" v="596438" />
	</node>
	<node id="-109518" lat="62.0641861097" lon="9.12558333362">
		<tag k="fixme" v="consider natural=peak for the most distinct mountains in the district" />
		<tag k="name" v="Holaberget" />
		<tag k="natural" v="hill" />
		<tag k="place" v="locality" />
		<tag k="ssr:stedsnr" v="596407" />
	</node>
	<node id="-109509" lat="61.9017194467" lon="9.3397499989">
		<tag k="name" v="Lokkarsletta" />
		<tag k="place" v="locality" />
		<tag k="ssr:stedsnr" v="582708" />
	</node>
	<node id="-109503" lat="62.1675861119" lon="9.50509166223">
		<tag k="fixme" v="consider natural=peak for the most distinct mountains in the district" />
		<tag k="name" v="Kringla" />
		<tag k="natural" v="hill" />
		<tag k="place" v="locality" />
		<tag k="ssr:stedsnr" v="557676" />
	</node>
	<node id="-109500" lat="62.1144055569" lon="9.37695277704">
		<tag k="name" v="Øykjesvedalen" />
		<tag k="natural" v="valley" />
		<tag k="place" v="locality" />
		<tag k="ssr:stedsnr" v="557650" />
	</node>
	<node id="-109498" lat="62.1310999985" lon="9.38905554994">
		<tag k="fixme" v="consider natural=peak for the most distinct mountains in the district" />
		<tag k="name" v="Blåhøe" />
		<tag k="natural" v="hill" />
		<tag k="place" v="locality" />
		<tag k="ssr:stedsnr" v="557636" />
	</node>
	<node id="-109497" lat="62.0926388922" lon="9.69512500277">
		<tag k="name" v="Benkin" />
		<tag k="place" v="locality" />
		<tag k="ssr:stedsnr" v="557628" />
	</node>
	<node id="-109496" lat="62.2878555526" lon="9.33920277463">
		<tag k="fixme" v="consider natural=peak for the most distinct mountains in the district" />
		<tag k="name" v="Kjølen" />
		<tag k="natural" v="hill" />
		<tag k="place" v="locality" />
		<tag k="ssr:stedsnr" v="557531" />
	</node>
	<node id="-109493" lat="62.2515666684" lon="9.46760832892">
		<tag k="name" v="Haukberget" />
		<tag k="natural" v="hill" />
		<tag k="place" v="locality" />
		<tag k="ssr:stedsnr" v="557487" />
	</node>
	<node id="-109489" lat="61.9468166659" lon="9.20103332748">
		<tag k="name" v="Jønndalen" />
		<tag k="natural" v="valley" />
		<tag k="place" v="locality" />
		<tag k="ssr:stedsnr" v="557118" />
	</node>
	<node id="-109485" lat="61.9147305527" lon="9.31217499526">
		<tag k="fixme" v="consider natural=peak for the most distinct mountains in the district" />
		<tag k="name" v="Vardfjellet" />
		<tag k="natural" v="hill" />
		<tag k="place" v="locality" />
		<tag k="ssr:stedsnr" v="556883" />
	</node>
	<node id="-109484" lat="62.2069500023" lon="9.32995278279">
		<tag k="fixme" v="consider natural=peak for the most distinct mountains in the district" />
		<tag k="name" v="Grisungknatten" />
		<tag k="natural" v="hill" />
		<tag k="place" v="locality" />
		<tag k="ssr:stedsnr" v="556762" />
	</node>
	<node id="-109483" lat="62.1798777734" lon="9.22394166674">
		<tag k="fixme" v="consider natural=peak for the most distinct mountains in the district" />
		<tag k="name" v="Grisunghøe" />
		<tag k="natural" v="hill" />
		<tag k="place" v="locality" />
		<tag k="ssr:stedsnr" v="556738" />
	</node>
	<node id="-109482" lat="62.1966972209" lon="9.28710833708">
		<tag k="fixme" v="consider natural=peak for the most distinct mountains in the district" />
		<tag k="name" v="Rundhøe" />
		<tag k="natural" v="hill" />
		<tag k="place" v="locality" />
		<tag k="ssr:stedsnr" v="556735" />
	</node>
	<node id="-109480" lat="62.059199999" lon="9.28665000933">
		<tag k="alt_name" v="Breijordet;Innere Breijordet" />
		<tag k="name" v="Breidjordet" />
		<tag k="natural" v="valley" />
		<tag k="place" v="locality" />
		<tag k="ssr:stedsnr" v="556671" />
	</node>
	<node id="-109477" lat="61.9659111092" lon="9.61988611082">
		<tag k="name" v="Dørålflye" />
		<tag k="place" v="locality" />
		<tag k="ssr:stedsnr" v="556658" />
	</node>
	<node id="-109476" lat="61.9717916666" lon="9.73972500517">
		<tag k="name" v="Dørålen" />
		<tag k="natural" v="valley" />
		<tag k="place" v="locality" />
		<tag k="ssr:stedsnr" v="556650" />
	</node>
	<node id="-109475" lat="62.0704027778" lon="9.18219444934">
		<tag k="alt_name" v="Hjellhø" />
		<tag k="fixme" v="consider natural=peak for the most distinct mountains in the district" />
		<tag k="name" v="Hjellhøi" />
		<tag k="natural" v="hill" />
		<tag k="place" v="locality" />
		<tag k="ssr:stedsnr" v="556617" />
	</node>
	<node id="-109474" lat="62.050100002" lon="9.05466944913">
		<tag k="fixme" v="consider natural=peak for the most distinct mountains in the district" />
		<tag k="name" v="Hardeggkampen" />
		<tag k="natural" v="hill" />
		<tag k="place" v="locality" />
		<tag k="ssr:stedsnr" v="556606" />
	</node>
	<node id="-109472" lat="62.0471722206" lon="9.01066389306">
		<tag k="name" v="Kjøremsnonshøe" />
		<tag k="natural" v="hill" />
		<tag k="place" v="locality" />
		<tag k="ssr:stedsnr" v="556595" />
	</node>
	<node id="-109470" lat="62.2232666663" lon="9.33661388009">
		<tag k="name" v="Svartberget" />
		<tag k="natural" v="hill" />
		<tag k="place" v="locality" />
		<tag k="ssr:stedsnr" v="556538" />
	</node>
	<node id="-109469" lat="62.2348694461" lon="9.68387499157">
		<tag k="name" v="Elgslie" />
		<tag k="natural" v="slope" />
		<tag k="place" v="locality" />
		<tag k="ssr:stedsnr" v="556536" />
	</node>
	<node id="-109462" lat="61.9914111092" lon="9.1366416759">
		<tag k="fixme" v="consider natural=peak for the most distinct mountains in the district" />
		<tag k="name" v="Mereftashøi" />
		<tag k="natural" v="hill" />
		<tag k="place" v="locality" />
		<tag k="ssr:stedsnr" v="556205" />
	</node>
	<node id="-109458" lat="61.9514083295" lon="9.39154723132">
		<tag k="name" v="Tverrgjelet" />
		<tag k="natural" v="valley" />
		<tag k="place" v="locality" />
		<tag k="ssr:stedsnr" v="536842" />
	</node>
	<node id="-109457" lat="62.0030944416" lon="9.42103889669">
		<tag k="name" v="Einsethø" />
		<tag k="natural" v="hill" />
		<tag k="place" v="locality" />
		<tag k="ssr:stedsnr" v="536836" />
	</node>
	<node id="-109456" lat="62.0161222225" lon="9.192230549">
		<tag k="name" v="Sagslette" />
		<tag k="place" v="locality" />
		<tag k="ssr:stedsnr" v="536758" />
	</node>
	<node id="-109454" lat="62.038827778" lon="9.6933777863">
		<tag k="name" v="Øvre Benkjin" />
		<tag k="natural" v="slope" />
		<tag k="place" v="locality" />
		<tag k="ssr:stedsnr" v="536548" />
	</node>
	<node id="-109436" lat="62.1955861115" lon="9.53339166996">
		<tag k="name" v="Saltsletta" />
		<tag k="place" v="locality" />
		<tag k="ssr:stedsnr" v="536248" />
	</node>
	<node id="-109435" lat="62.1344611149" lon="9.12815555997">
		<tag k="name" v="Skardet" />
		<tag k="natural" v="valley" />
		<tag k="place" v="locality" />
		<tag k="ssr:stedsnr" v="536124" />
	</node>
	<node id="-109431" lat="62.1153888869" lon="9.09086667457">
		<tag k="name" v="Tunneltaket" />
		<tag k="natural" v="slope" />
		<tag k="place" v="locality" />
		<tag k="ssr:stedsnr" v="535967" />
	</node>
	<node id="-109422" lat="61.9292305598" lon="9.2558499991">
		<tag k="name" v="Djupdalen" />
		<tag k="natural" v="valley" />
		<tag k="place" v="locality" />
		<tag k="ssr:stedsnr" v="522646" />
	</node>
	<node id="-109414" lat="61.9574611112" lon="9.57738055751">
		<tag k="fixme" v="consider natural=peak for the most distinct mountains in the district" />
		<tag k="name" v="Falketinden" />
		<tag k="natural" v="hill" />
		<tag k="place" v="locality" />
		<tag k="ssr:stedsnr" v="496911" />
	</node>
	<node id="-109413" lat="62.1520388924" lon="9.18661666146">
		<tag k="alt_name" v="Kringluthø" />
		<tag k="fixme" v="consider natural=peak for the most distinct mountains in the district" />
		<tag k="name" v="Kringluthøi" />
		<tag k="natural" v="hill" />
		<tag k="place" v="locality" />
		<tag k="ssr:stedsnr" v="496908" />
	</node>
	<node id="-109409" lat="61.9542638887" lon="9.21841666061">
		<tag k="name" v="Nonshaugen" />
		<tag k="natural" v="hill" />
		<tag k="place" v="locality" />
		<tag k="ssr:stedsnr" v="496899" />
	</node>
	<node id="-109408" lat="61.9571638884" lon="9.36481111501">
		<tag k="name" v="Skardet" />
		<tag k="natural" v="valley" />
		<tag k="place" v="locality" />
		<tag k="ssr:stedsnr" v="496897" />
	</node>
	<node id="-109407" lat="62.1897583359" lon="9.26965556369">
		<tag k="fixme" v="consider natural=peak for the most distinct mountains in the district" />
		<tag k="name" v="Langhøe" />
		<tag k="natural" v="hill" />
		<tag k="place" v="locality" />
		<tag k="ssr:stedsnr" v="496734" />
	</node>
	<node id="-109406" lat="62.1626694478" lon="9.25947221687">
		<tag k="loc_name" v="Storliranden" />
		<tag k="name" v="Falkeranden" />
		<tag k="natural" v="hill" />
		<tag k="old_name" v="Falkranden" />
		<tag k="place" v="locality" />
		<tag k="ssr:stedsnr" v="496713" />
	</node>
	<node id="-109403" lat="62.1231111097" lon="9.55758611517">
		<tag k="fixme" v="consider natural=peak for the most distinct mountains in the district" />
		<tag k="name" v="Gråhøe" />
		<tag k="natural" v="hill" />
		<tag k="place" v="locality" />
		<tag k="ssr:stedsnr" v="496700" />
	</node>
	<node id="-109401" lat="62.1125611139" lon="9.70671944161">
		<tag k="fixme" v="consider natural=peak for the most distinct mountains in the district" />
		<tag k="name" v="Tverrbekkhøe" />
		<tag k="natural" v="hill" />
		<tag k="place" v="locality" />
		<tag k="ssr:stedsnr" v="496692" />
	</node>
	<node id="-109400" lat="62.1033861115" lon="9.28976667027">
		<tag k="name" v="Veslberget" />
		<tag k="natural" v="hill" />
		<tag k="place" v="locality" />
		<tag k="ssr:stedsnr" v="496691" />
	</node>
	<node id="-109399" lat="62.1206999984" lon="9.39740833286">
		<tag k="name" v="Knatten" />
		<tag k="natural" v="hill" />
		<tag k="place" v="locality" />
		<tag k="ssr:stedsnr" v="496687" />
	</node>
	<node id="-109398" lat="62.085847225" lon="9.22754722706">
		<tag k="alt_name" v="Gammalsæterranden;Gamelseterranden" />
		<tag k="name" v="Gamlsæterranden" />
		<tag k="natural" v="hill" />
		<tag k="place" v="locality" />
		<tag k="ssr:stedsnr" v="496675" />
	</node>
	<node id="-109396" lat="62.1060777756" lon="9.34784444795">
		<tag k="name" v="Foksådalen" />
		<tag k="natural" v="valley" />
		<tag k="place" v="locality" />
		<tag k="ssr:stedsnr" v="496670" />
	</node>
	<node id="-109389" lat="62.3149250026" lon="9.24887499874">
		<tag k="fixme" v="consider natural=peak for the most distinct mountains in the district" />
		<tag k="name" v="Vesttoppen" />
		<tag k="natural" v="hill" />
		<tag k="place" v="locality" />
		<tag k="ssr:stedsnr" v="496575" />
	</node>
	<node id="-109387" lat="62.3198416657" lon="9.2676888869">
		<tag k="fixme" v="consider natural=peak for the most distinct mountains in the district" />
		<tag k="name" v="Snøhetta" />
		<tag k="natural" v="hill" />
		<tag k="place" v="locality" />
		<tag k="ssr:stedsnr" v="496561" />
	</node>
	<node id="-109383" lat="62.003466666" lon="9.1520055638">
		<tag k="name" v="Brennranden" />
		<tag k="natural" v="hill" />
		<tag k="place" v="locality" />
		<tag k="ssr:stedsnr" v="496534" />
	</node>
	<node id="-109381" lat="61.9976527801" lon="9.53874443933">
		<tag k="fixme" v="consider natural=peak for the most distinct mountains in the district" />
		<tag k="name" v="Hornsjøhøe" />
		<tag k="natural" v="hill" />
		<tag k="place" v="locality" />
		<tag k="ssr:stedsnr" v="496417" />
	</node>
	<node id="-109377" lat="62.0356055512" lon="9.52153888735">
		<tag k="fixme" v="consider natural=peak for the most distinct mountains in the district" />
		<tag k="name" v="Bottkollen" />
		<tag k="natural" v="hill" />
		<tag k="place" v="locality" />
		<tag k="ssr:stedsnr" v="495658" />
	</node>
	<node id="-109374" lat="62.2208000001" lon="9.66411110157">
		<tag k="fixme" v="consider natural=peak for the most distinct mountains in the district" />
		<tag k="name" v="Nonshøe" />
		<tag k="natural" v="hill" />
		<tag k="place" v="locality" />
		<tag k="ssr:stedsnr" v="495497" />
	</node>
	<node id="-109369" lat="61.9108638892" lon="9.34241389748">
		<tag k="name" v="Restflaten" />
		<tag k="place" v="locality" />
		<tag k="ssr:stedsnr" v="461709" />
	</node>
	<node id="-109367" lat="62.1786888865" lon="9.35799722504">
		<tag k="name" v="Dovrefjell" />
		<tag k="natural" v="mountain_range" />
		<tag k="ssr:stedsnr" v="450696" />
	</node>
	<node id="-109366" lat="62.1027888923" lon="9.42557221958">
		<tag k="name" v="Vasskillet" />
		<tag k="place" v="locality" />
		<tag k="ssr:stedsnr" v="447808" />
	</node>
	<node id="-109361" lat="61.929488892" lon="9.44139999382">
		<tag k="fixme" v="consider natural=peak for the most distinct mountains in the district" />
		<tag k="name" v="Storskrabbet" />
		<tag k="natural" v="hill" />
		<tag k="place" v="locality" />
		<tag k="ssr:stedsnr" v="436870" />
	</node>
	<node id="-109358" lat="62.159158329" lon="9.50516110154">
		<tag k="fixme" v="consider natural=peak for the most distinct mountains in the district" />
		<tag k="name" v="Veslkringla" />
		<tag k="natural" v="hill" />
		<tag k="place" v="locality" />
		<tag k="ssr:stedsnr" v="436683" />
	</node>
	<node id="-109356" lat="62.1517305565" lon="9.36164999837">
		<tag k="name" v="Furuhauglie" />
		<tag k="natural" v="slope" />
		<tag k="place" v="locality" />
		<tag k="ssr:stedsnr" v="436671" />
	</node>
	<node id="-109354" lat="62.1214111124" lon="9.33554445234">
		<tag k="fixme" v="consider natural=peak for the most distinct mountains in the district" />
		<tag k="name" v="Veslhøe" />
		<tag k="natural" v="hill" />
		<tag k="place" v="locality" />
		<tag k="ssr:stedsnr" v="436661" />
	</node>
	<node id="-109352" lat="62.1289472178" lon="9.40321110966">
		<tag k="fixme" v="consider natural=peak for the most distinct mountains in the district" />
		<tag k="name" v="Blåhøin" />
		<tag k="natural" v="hill" />
		<tag k="place" v="locality" />
		<tag k="ssr:stedsnr" v="436644" />
	</node>
	<node id="-109351" lat="62.0881055585" lon="9.27669721724">
		<tag k="fixme" v="consider natural=peak for the most distinct mountains in the district" />
		<tag k="name" v="Gråhøranden" />
		<tag k="natural" v="hill" />
		<tag k="place" v="locality" />
		<tag k="ssr:stedsnr" v="436631" />
	</node>
	<node id="-109345" lat="62.2320888845" lon="9.34356666279">
		<tag k="fixme" v="consider natural=peak for the most distinct mountains in the district" />
		<tag k="name" v="Einøvlingshøe" />
		<tag k="natural" v="hill" />
		<tag k="place" v="locality" />
		<tag k="ssr:stedsnr" v="436492" />
	</node>
	<node id="-109344" lat="62.2653999996" lon="9.67743332796">
		<tag k="alt_name" v="Armodskollen" />
		<tag k="fixme" v="consider natural=peak for the most distinct mountains in the district" />
		<tag k="name" v="Armodshøkollen" />
		<tag k="natural" v="hill" />
		<tag k="place" v="locality" />
		<tag k="ssr:stedsnr" v="436487" />
	</node>
	<node id="-109339" lat="62.2055194465" lon="9.62773333816">
		<tag k="name" v="Hjerkinnsholen" />
		<tag k="natural" v="hill" />
		<tag k="old_name" v="Hjerkinnholen" />
		<tag k="place" v="locality" />
		<tag k="ssr:stedsnr" v="435756" />
	</node>
	<node id="-109335" lat="61.9304555581" lon="9.72652778147">
		<tag k="name" v="Rondane" />
		<tag k="natural" v="mountain_range" />
		<tag k="ssr:stedsnr" v="435681" />
	</node>
	<node id="-109333" lat="62.0073805547" lon="9.31020278404">
		<tag k="alt_name" v="Rauberget" />
		<tag k="fixme" v="consider natural=peak for the most distinct mountains in the district" />
		<tag k="name" v="Raudberget" />
		<tag k="natural" v="hill" />
		<tag k="place" v="locality" />
		<tag k="ssr:stedsnr" v="435670" />
	</node>
	<node id="-109330" lat="62.0540888901" lon="9.06531110621">
		<tag k="name" v="Hardeggen" />
		<tag k="natural" v="slope" />
		<tag k="place" v="locality" />
		<tag k="ssr:stedsnr" v="435596" />
	</node>
	<node id="-109328" lat="61.9974388861" lon="9.73974444294">
		<tag k="fixme" v="consider natural=peak for the most distinct mountains in the district" />
		<tag k="name" v="Stygghøin" />
		<tag k="natural" v="hill" />
		<tag k="place" v="locality" />
		<tag k="ssr:stedsnr" v="435460" />
	</node>
	<node id="-109327" lat="61.9933000038" lon="9.3001138964">
		<tag k="name" v="Tunga" />
		<tag k="natural" v="ridge" />
		<tag k="place" v="locality" />
		<tag k="ssr:stedsnr" v="435439" />
	</node>
	<node id="-109325" lat="62.0067805522" lon="9.41525000539">
		<tag k="alt_name" v="Einsetkollen" />
		<tag k="fixme" v="consider natural=peak for the most distinct mountains in the district" />
		<tag k="name" v="Einsetkollan" />
		<tag k="natural" v="hill" />
		<tag k="place" v="locality" />
		<tag k="ssr:stedsnr" v="435364" />
	</node>
	<node id="-109323" lat="62.0286250036" lon="9.41254166997">
		<tag k="name" v="Knarten" />
		<tag k="natural" v="hill" />
		<tag k="place" v="locality" />
		<tag k="ssr:stedsnr" v="415891" />
	</node>
	<node id="-109322" lat="61.9514805583" lon="9.36652777954">
		<tag k="name" v="Elggrave" />
		<tag k="natural" v="slope" />
		<tag k="place" v="locality" />
		<tag k="ssr:stedsnr" v="415864" />
	</node>
	<node id="-109321" lat="61.9577083377" lon="9.36769999834">
		<tag k="name" v="Sjugurdslie" />
		<tag k="natural" v="slope" />
		<tag k="place" v="locality" />
		<tag k="ssr:stedsnr" v="415862" />
	</node>
	<node id="-109320" lat="61.9799611098" lon="9.19961388436">
		<tag k="name" v="Breidal" />
		<tag k="natural" v="valley" />
		<tag k="place" v="locality" />
		<tag k="ssr:stedsnr" v="415767" />
	</node>
	<node id="-109319" lat="61.963552777" lon="9.19999721332">
		<tag k="name" v="Nedre Veslefjellet" />
		<tag k="natural" v="hill" />
		<tag k="place" v="locality" />
		<tag k="ssr:stedsnr" v="415766" />
	</node>
	<node id="-109317" lat="62.0369805576" lon="9.72556111098">
		<tag k="name" v="Storøye" />
		<tag k="place" v="locality" />
		<tag k="ssr:stedsnr" v="415579" />
	</node>
	<node id="-109314" lat="62.0692888864" lon="9.19382778303">
		<tag k="name" v="Skredbekkhaugen" />
		<tag k="natural" v="hill" />
		<tag k="old_name" v="Skedbekkhaugen" />
		<tag k="place" v="locality" />
		<tag k="ssr:stedsnr" v="415540" />
	</node>
	<node id="-109313" lat="62.0611444439" lon="9.15021944611">
		<tag k="name" v="Skaret" />
		<tag k="natural" v="valley" />
		<tag k="place" v="locality" />
		<tag k="ssr:stedsnr" v="415538" />
	</node>
	<node id="-109312" lat="62.1559861156" lon="9.28366665794">
		<tag k="name" v="Rophusrandin" />
		<tag k="natural" v="hill" />
		<tag k="place" v="locality" />
		<tag k="ssr:stedsnr" v="415520" />
	</node>
	<node id="-109311" lat="62.1664000026" lon="9.47611389743">
		<tag k="name" v="Avsjølia" />
		<tag k="natural" v="slope" />
		<tag k="place" v="locality" />
		<tag k="ssr:stedsnr" v="415517" />
	</node>
	<node id="-109308" lat="62.2389499985" lon="9.43892499215">
		<tag k="name" v="Rundhaug" />
		<tag k="natural" v="hill" />
		<tag k="place" v="locality" />
		<tag k="ssr:stedsnr" v="415351" />
	</node>
	<node id="-109298" lat="62.1267388854" lon="9.16202222763">
		<tag k="name" v="Vetlliranden" />
		<tag k="natural" v="hill" />
		<tag k="place" v="locality" />
		<tag k="ssr:stedsnr" v="415116" />
	</node>
	<node id="-109295" lat="61.8960750026" lon="9.31341944059">
		<tag k="name" v="Søre Djupdalen" />
		<tag k="natural" v="valley" />
		<tag k="place" v="locality" />
		<tag k="ssr:stedsnr" v="414975" />
	</node>
	<node id="-109292" lat="61.9879361142" lon="9.20142778599">
		<tag k="name" v="Ragnhildsgjelet" />
		<tag k="natural" v="valley" />
		<tag k="place" v="locality" />
		<tag k="ssr:stedsnr" v="414703" />
	</node>
	<node id="-109285" lat="62.1133361071" lon="9.30283889391">
		<tag k="alt_name" v="Smørbollen, indre;Hemare Smørbollin" />
		<tag k="name" v="Indre Smørbollen" />
		<tag k="natural" v="hill" />
		<tag k="place" v="locality" />
		<tag k="ssr:stedsnr" v="254657" />
	</node>
	<node id="-109284" lat="62.1267972191" lon="9.51952222389">
		<tag k="name" v="Gautdalen" />
		<tag k="natural" v="valley" />
		<tag k="place" v="locality" />
		<tag k="ssr:stedsnr" v="254649" />
	</node>
	<node id="-109281" lat="62.3198250043" lon="9.26770834237">
		<tag k="fixme" v="consider natural=peak for the most distinct mountains in the district" />
		<tag k="name" v="Stortoppen" />
		<tag k="natural" v="hill" />
		<tag k="place" v="locality" />
		<tag k="ssr:stedsnr" v="254513" />
	</node>
	<node id="-109275" lat="61.9542500011" lon="9.38343887954">
		<tag k="name" v="Svartdalen" />
		<tag k="natural" v="valley" />
		<tag k="place" v="locality" />
		<tag k="ssr:stedsnr" v="253911" />
	</node>
	<node id="-109274" lat="62.2353333317" lon="9.3049805562">
		<tag k="fixme" v="consider natural=peak for the most distinct mountains in the district" />
		<tag k="name" v="Einøvlingseggen" />
		<tag k="natural" v="hill" />
		<tag k="place" v="locality" />
		<tag k="ssr:stedsnr" v="254478" />
	</node>
	<node id="-109270" lat="62.0372111137" lon="9.73265277678">
		<tag k="name" v="Haverdalen" />
		<tag k="natural" v="valley" />
		<tag k="place" v="locality" />
		<tag k="ssr:stedsnr" v="253711" />
	</node>
	<node id="-109268" lat="61.9406083343" lon="9.83142499073">
		<tag k="name" v="Galenbotn" />
		<tag k="natural" v="valley" />
		<tag k="place" v="locality" />
		<tag k="ssr:stedsnr" v="253670" />
	</node>
	<node id="-109257" lat="61.9893250013" lon="9.15718611944">
		<tag k="fixme" v="consider natural=peak for the most distinct mountains in the district" />
		<tag k="name" v="Nonshøi" />
		<tag k="natural" v="hill" />
		<tag k="place" v="locality" />
		<tag k="ssr:stedsnr" v="253198" />
	</node>
	<node id="-109255" lat="61.9819027783" lon="9.1701444352">
		<tag k="name" v="Kilikollen" />
		<tag k="natural" v="hill" />
		<tag k="place" v="locality" />
		<tag k="ssr:stedsnr" v="253194" />
	</node>
	<node id="-109253" lat="61.9722222252" lon="9.18310554609">
		<tag k="name" v="Halvvolahaug" />
		<tag k="natural" v="hill" />
		<tag k="place" v="locality" />
		<tag k="ssr:stedsnr" v="233764" />
	</node>
	<node id="-109252" lat="61.9413694402" lon="9.22301111651">
		<tag k="name" v="Vindberget" />
		<tag k="natural" v="hill" />
		<tag k="place" v="locality" />
		<tag k="ssr:stedsnr" v="233755" />
	</node>
	<node id="-109248" lat="62.0123999989" lon="9.24851666494">
		<tag k="fixme" v="consider natural=peak for the most distinct mountains in the district" />
		<tag k="name" v="Hønkollen" />
		<tag k="natural" v="hill" />
		<tag k="place" v="locality" />
		<tag k="ssr:stedsnr" v="233547" />
	</node>
	<node id="-109242" lat="62.0573388854" lon="9.61549722086">
		<tag k="name" v="Fålådalsfonne" />
		<tag k="natural" v="valley" />
		<tag k="place" v="locality" />
		<tag k="ssr:stedsnr" v="233299" />
	</node>
	<node id="-109241" lat="62.0782138894" lon="9.570649998">
		<tag k="name" v="Kattugla" />
		<tag k="natural" v="hill" />
		<tag k="place" v="locality" />
		<tag k="ssr:stedsnr" v="233289" />
	</node>
	<node id="-109237" lat="62.1197500018" lon="9.23222221555">
		<tag k="name" v="Vahusranden" />
		<tag k="natural" v="hill" />
		<tag k="place" v="locality" />
		<tag k="ssr:stedsnr" v="233067" />
	</node>
	<node id="-109234" lat="61.9259138921" lon="9.39769721347">
		<tag k="name" v="Berget" />
		<tag k="natural" v="hill" />
		<tag k="place" v="locality" />
		<tag k="ssr:stedsnr" v="232829" />
	</node>
	<node id="-109233" lat="61.9383777781" lon="9.36302221965">
		<tag k="name" v="Grønranden" />
		<tag k="natural" v="slope" />
		<tag k="place" v="locality" />
		<tag k="ssr:stedsnr" v="232826" />
	</node>
	<node id="-109228" lat="61.97067778" lon="9.21055833663">
		<tag k="name" v="Mjogdal" />
		<tag k="natural" v="valley" />
		<tag k="place" v="locality" />
		<tag k="ssr:stedsnr" v="232675" />
	</node>
	<node id="-109222" lat="61.9132138909" lon="9.33226666147">
		<tag k="name" v="Heggeruste" />
		<tag k="natural" v="slope" />
		<tag k="place" v="locality" />
		<tag k="ssr:stedsnr" v="219710" />
	</node>
	<node id="-109217" lat="62.1171138898" lon="9.65547777204">
		<tag k="fixme" v="consider natural=peak for the most distinct mountains in the district" />
		<tag k="name" v="Fallfosshøe" />
		<tag k="natural" v="hill" />
		<tag k="place" v="locality" />
		<tag k="ssr:stedsnr" v="204814" />
	</node>
	<node id="-109216" lat="61.9420111151" lon="9.73717500884">
		<tag k="fixme" v="consider natural=peak for the most distinct mountains in the district" />
		<tag k="loc_name" v="Nørdre Smedhåmåren" />
		<tag k="name" v="Nørdre Smedhamran" />
		<tag k="natural" v="hill" />
		<tag k="place" v="locality" />
		<tag k="ssr:stedsnr" v="202448" />
	</node>
	<node id="-109215" lat="61.9681222222" lon="9.32969166162">
		<tag k="fixme" v="consider natural=peak for the most distinct mountains in the district" />
		<tag k="name" v="Sjugurdshovda" />
		<tag k="natural" v="hill" />
		<tag k="place" v="locality" />
		<tag k="ssr:stedsnr" v="193926" />
	</node>
	<node id="-109211" lat="61.9797055583" lon="9.34000833245">
		<tag k="fixme" v="consider natural=peak for the most distinct mountains in the district" />
		<tag k="name" v="Storhovda" />
		<tag k="natural" v="hill" />
		<tag k="place" v="locality" />
		<tag k="ssr:stedsnr" v="193918" />
	</node>
	<node id="-109210" lat="61.9665805568" lon="9.43320554666">
		<tag k="fixme" v="consider natural=peak for the most distinct mountains in the district" />
		<tag k="name" v="Svartdalsknarten" />
		<tag k="natural" v="hill" />
		<tag k="place" v="locality" />
		<tag k="ssr:stedsnr" v="193904" />
	</node>
	<node id="-109205" lat="61.9260750009" lon="9.46348055211">
		<tag k="name" v="Mjølrakkhaugen" />
		<tag k="natural" v="hill" />
		<tag k="place" v="locality" />
		<tag k="ssr:stedsnr" v="193878" />
	</node>
	<node id="-109203" lat="62.1166333338" lon="9.65489444019">
		<tag k="fixme" v="consider natural=peak for the most distinct mountains in the district" />
		<tag k="name" v="Nysæterhøe" />
		<tag k="natural" v="hill" />
		<tag k="place" v="locality" />
		<tag k="ssr:stedsnr" v="193662" />
	</node>
	<node id="-109202" lat="62.1352027766" lon="9.58287777316">
		<tag k="fixme" v="consider natural=peak for the most distinct mountains in the district" />
		<tag k="name" v="Steinbuhøe" />
		<tag k="natural" v="hill" />
		<tag k="place" v="locality" />
		<tag k="ssr:stedsnr" v="193657" />
	</node>
	<node id="-109201" lat="62.0896638859" lon="9.67773334042">
		<tag k="name" v="Nose" />
		<tag k="natural" v="hill" />
		<tag k="place" v="locality" />
		<tag k="ssr:stedsnr" v="193651" />
	</node>
	<node id="-109200" lat="62.0710178243" lon="9.31442040936">
		<tag k="alt_name" v="Høgstgråhøin" />
		<tag k="fixme" v="consider natural=peak for the most distinct mountains in the district" />
		<tag k="name" v="Haustgravhøin" />
		<tag k="natural" v="hill" />
		<tag k="place" v="locality" />
		<tag k="ssr:stedsnr" v="193648" />
	</node>
	<node id="-109197" lat="62.0541555546" lon="9.1596999934">
		<tag k="name" v="Hjellådalen" />
		<tag k="natural" v="valley" />
		<tag k="place" v="locality" />
		<tag k="ssr:stedsnr" v="193580" />
	</node>
	<node id="-109195" lat="62.3198342597" lon="9.25465434349">
		<tag k="fixme" v="consider natural=peak for the most distinct mountains in the district" />
		<tag k="name" v="Midttoppen" />
		<tag k="natural" v="hill" />
		<tag k="ssr:stedsnr" v="193561" />
	</node>
	<node id="-109192" lat="62.0177138928" lon="9.01529999699">
		<tag k="fixme" v="consider natural=peak for the most distinct mountains in the district" />
		<tag k="name" v="Verkjeshøi" />
		<tag k="natural" v="hill" />
		<tag k="place" v="locality" />
		<tag k="ssr:stedsnr" v="193542" />
	</node>
	<node id="-109190" lat="62.2291750017" lon="9.34391111521">
		<tag k="name" v="Revgrenranden" />
		<tag k="natural" v="hill" />
		<tag k="place" v="locality" />
		<tag k="ssr:stedsnr" v="193522" />
	</node>
	<node id="-109185" lat="62.2056222193" lon="9.440316673">
		<tag k="fixme" v="consider natural=peak for the most distinct mountains in the district" />
		<tag k="name" v="Vålåsjøhøe" />
		<tag k="natural" v="hill" />
		<tag k="place" v="locality" />
		<tag k="ssr:stedsnr" v="192773" />
	</node>
	<node id="-109184" lat="62.2166694412" lon="9.29937499553">
		<tag k="name" v="Bekkjeslågån" />
		<tag k="natural" v="valley" />
		<tag k="old_name" v="Bekkeslågån" />
		<tag k="place" v="locality" />
		<tag k="ssr:stedsnr" v="192764" />
	</node>
	<node id="-109183" lat="62.1988722231" lon="9.44717221567">
		<tag k="fixme" v="consider natural=peak for the most distinct mountains in the district" />
		<tag k="name" v="Langranden" />
		<tag k="natural" v="hill" />
		<tag k="place" v="locality" />
		<tag k="ssr:stedsnr" v="192751" />
	</node>
	<node id="-109181" lat="62.0528555598" lon="9.30939166745">
		<tag k="fixme" v="consider natural=peak for the most distinct mountains in the district" />
		<tag k="name" v="Nysæterhøe" />
		<tag k="natural" v="hill" />
		<tag k="place" v="locality" />
		<tag k="ssr:stedsnr" v="192734" />
	</node>
	<node id="-109180" lat="61.9272416706" lon="9.74334721834">
		<tag k="name" v="Smedbotn" />
		<tag k="natural" v="valley" />
		<tag k="place" v="locality" />
		<tag k="ssr:stedsnr" v="192695" />
	</node>
	<node id="-109179" lat="61.921455557" lon="9.76503610265">
		<tag k="name" v="Tjønnbotn" />
		<tag k="natural" v="valley" />
		<tag k="place" v="locality" />
		<tag k="ssr:stedsnr" v="192694" />
	</node>
	<node id="-109178" lat="62.0347277734" lon="9.49355832791">
		<tag k="name" v="Tverrgjelet" />
		<tag k="natural" v="valley" />
		<tag k="place" v="locality" />
		<tag k="ssr:stedsnr" v="192688" />
	</node>
	<node id="-109177" lat="62.0644916675" lon="9.23123055297">
		<tag k="fixme" v="consider natural=peak for the most distinct mountains in the district" />
		<tag k="name" v="Hardbakken" />
		<tag k="natural" v="hill" />
		<tag k="place" v="locality" />
		<tag k="ssr:stedsnr" v="192682" />
	</node>
	<node id="-109169" lat="62.2361222254" lon="9.63063611768">
		<tag k="fixme" v="consider natural=peak for the most distinct mountains in the district" />
		<tag k="name" v="Brendhøin" />
		<tag k="natural" v="hill" />
		<tag k="place" v="locality" />
		<tag k="ssr:stedsnr" v="192546" />
	</node>
	<node id="-109168" lat="62.2351777797" lon="9.40274721278">
		<tag k="fixme" v="consider natural=peak for the most distinct mountains in the district" />
		<tag k="name" v="Bratthøe" />
		<tag k="natural" v="hill" />
		<tag k="place" v="locality" />
		<tag k="ssr:stedsnr" v="192542" />
	</node>
	<node id="-109164" lat="62.2166805545" lon="9.67231944243">
		<tag k="name" v="Heimskaret" />
		<tag k="natural" v="valley" />
		<tag k="place" v="locality" />
		<tag k="ssr:stedsnr" v="177981" />
	</node>
	<node id="-109153" lat="62.023063893" lon="9.28738054942">
		<tag k="name" v="Jønnmyrdalen" />
		<tag k="natural" v="valley" />
		<tag k="place" v="locality" />
		<tag k="ssr:stedsnr" v="172546" />
	</node>
	<node id="-109151" lat="62.0676027736" lon="9.18735555301">
		<tag k="name" v="Storbrennkollane" />
		<tag k="natural" v="hill" />
		<tag k="place" v="locality" />
		<tag k="ssr:stedsnr" v="172544" />
	</node>
	<node id="-109149" lat="62.0605083325" lon="9.14513612008">
		<tag k="name" v="Flathaugen" />
		<tag k="natural" v="hill" />
		<tag k="place" v="locality" />
		<tag k="ssr:stedsnr" v="172538" />
	</node>
	<node id="-109143" lat="62.0083472222" lon="9.15951389621">
		<tag k="name" v="Høgrandin" />
		<tag k="natural" v="hill" />
		<tag k="place" v="locality" />
		<tag k="ssr:stedsnr" v="172332" />
	</node>
	<node id="-109141" lat="62.0665638925" lon="9.85290278073">
		<tag k="name" v="Stakstobakken" />
		<tag k="natural" v="slope" />
		<tag k="place" v="locality" />
		<tag k="ssr:stedsnr" v="172294" />
	</node>
	<node id="-109140" lat="62.0638999981" lon="9.14730277526">
		<tag k="name" v="Båten" />
		<tag k="natural" v="valley" />
		<tag k="place" v="locality" />
		<tag k="ssr:stedsnr" v="172278" />
	</node>
	<node id="-109138" lat="62.0953305576" lon="9.14923888683">
		<tag k="name" v="Krosshovda" />
		<tag k="natural" v="hill" />
		<tag k="place" v="locality" />
		<tag k="ssr:stedsnr" v="172115" />
	</node>
	<node id="-109136" lat="62.1199638887" lon="9.24127221655">
		<tag k="name" v="Nordre Visarranden" />
		<tag k="natural" v="hill" />
		<tag k="place" v="locality" />
		<tag k="ssr:stedsnr" v="172065" />
	</node>
	<node id="-109135" lat="62.1295388913" lon="9.20236388522">
		<tag k="name" v="Nedre Gardsendlia" />
		<tag k="natural" v="slope" />
		<tag k="place" v="locality" />
		<tag k="ssr:stedsnr" v="172060" />
	</node>
	<node id="-109134" lat="62.064674999" lon="9.07060832663">
		<tag k="name" v="Tiurhaugen" />
		<tag k="natural" v="hill" />
		<tag k="place" v="locality" />
		<tag k="ssr:stedsnr" v="171808" />
	</node>
	<node id="-109131" lat="62.0471027751" lon="9.07845278648">
		<tag k="name" v="Småkampene" />
		<tag k="natural" v="hill" />
		<tag k="place" v="locality" />
		<tag k="ssr:stedsnr" v="171758" />
	</node>
	<node id="-109125" lat="61.5973055582" lon="9.84600832435">
		<tag k="name" v="Gudbrandsdalen" />
		<tag k="natural" v="valley" />
		<tag k="place" v="locality" />
		<tag k="ssr:stedsnr" v="146259" />
	</node>
	<node id="-109124" lat="62.1534138925" lon="9.58438610782">
		<tag k="fixme" v="consider natural=peak for the most distinct mountains in the district" />
		<tag k="name" v="Tjørnhøi" />
		<tag k="natural" v="hill" />
		<tag k="place" v="locality" />
		<tag k="ssr:stedsnr" v="143812" />
	</node>
	<node id="-109123" lat="61.8941491082" lon="9.35391548169">
		<tag k="alt_name" v="Måsåhaugen" />
		<tag k="name" v="Sæterhaugen" />
		<tag k="natural" v="hill" />
		<tag k="place" v="locality" />
		<tag k="ssr:stedsnr" v="132970" />
	</node>
	<node id="-109118" lat="61.9568361125" lon="9.44511943777">
		<tag k="name" v="Brennhøe" />
		<tag k="natural" v="hill" />
		<tag k="place" v="locality" />
		<tag k="ssr:stedsnr" v="132904" />
	</node>
	<node id="-109115" lat="61.9190833325" lon="9.25769165776">
		<tag k="name" v="Skarvet" />
		<tag k="natural" v="hill" />
		<tag k="place" v="locality" />
		<tag k="ssr:stedsnr" v="132867" />
	</node>
	<node id="-109114" lat="62.1827000041" lon="9.24988056315">
		<tag k="fixme" v="consider natural=peak for the most distinct mountains in the district" />
		<tag k="name" v="Knausan" />
		<tag k="natural" v="hill" />
		<tag k="place" v="locality" />
		<tag k="ssr:stedsnr" v="132706" />
	</node>
	<node id="-109113" lat="62.1565083311" lon="9.6142249963">
		<tag k="name" v="Veslskardet" />
		<tag k="natural" v="valley" />
		<tag k="place" v="locality" />
		<tag k="ssr:stedsnr" v="132702" />
	</node>
	<node id="-109109" lat="61.9286250038" lon="9.68476666475">
		<tag k="name" v="Verkilsdalen" />
		<tag k="natural" v="valley" />
		<tag k="place" v="locality" />
		<tag k="ssr:stedsnr" v="132667" />
	</node>
	<node id="-109107" lat="61.9424277748" lon="9.65734723136">
		<tag k="fixme" v="consider natural=peak for the most distinct mountains in the district" />
		<tag k="name" v="Vasshuskollen" />
		<tag k="natural" v="hill" />
		<tag k="place" v="locality" />
		<tag k="ssr:stedsnr" v="132656" />
	</node>
	<node id="-109103" lat="62.0332999974" lon="9.21460000223">
		<tag k="alt_name" v="Arnekleivhovda" />
		<tag k="name" v="Hovda" />
		<tag k="natural" v="hill" />
		<tag k="place" v="locality" />
		<tag k="ssr:stedsnr" v="132547" />
	</node>
	<node id="-109099" lat="62.255436107" lon="9.41710555034">
		<tag k="fixme" v="consider natural=peak for the most distinct mountains in the district" />
		<tag k="name" v="Tjørnhøkollen" />
		<tag k="natural" v="hill" />
		<tag k="place" v="locality" />
		<tag k="ssr:stedsnr" v="132498" />
	</node>
	<node id="-109098" lat="62.2497333325" lon="9.39677500642">
		<tag k="fixme" v="consider natural=peak for the most distinct mountains in the district" />
		<tag k="name" v="Tjørnhøi" />
		<tag k="natural" v="hill" />
		<tag k="place" v="locality" />
		<tag k="ssr:stedsnr" v="132494" />
	</node>
	<node id="-109097" lat="61.9048138852" lon="9.24563889261">
		<tag k="fixme" v="consider natural=peak for the most distinct mountains in the district" />
		<tag k="name" v="Rundhøe" />
		<tag k="natural" v="hill" />
		<tag k="place" v="locality" />
		<tag k="ssr:stedsnr" v="132226" />
	</node>
	<node id="-109094" lat="62.0860027788" lon="9.38236943832">
		<tag k="fixme" v="consider natural=peak for the most distinct mountains in the district" />
		<tag k="name" v="Storhøe" />
		<tag k="natural" v="hill" />
		<tag k="place" v="locality" />
		<tag k="ssr:stedsnr" v="131708" />
	</node>
	<node id="-109093" lat="61.9919111156" lon="9.84288610783">
		<tag k="fixme" v="consider natural=peak for the most distinct mountains in the district" />
		<tag k="name" v="Neverbuhøe" />
		<tag k="natural" v="hill" />
		<tag k="place" v="locality" />
		<tag k="ssr:stedsnr" v="131695" />
	</node>
	<node id="-109091" lat="62.051638888" lon="9.39069166289">
		<tag k="fixme" v="consider natural=peak for the most distinct mountains in the district" />
		<tag k="name" v="Fleskutranden" />
		<tag k="natural" v="hill" />
		<tag k="place" v="locality" />
		<tag k="ssr:stedsnr" v="131660" />
	</node>
	<node id="-109087" lat="61.9554638928" lon="9.7918472203">
		<tag k="name" v="Bergedalen" />
		<tag k="natural" v="valley" />
		<tag k="place" v="locality" />
		<tag k="ssr:stedsnr" v="131640" />
	</node>
	<node id="-109085" lat="62.0272916627" lon="9.34788056339">
		<tag k="alt_name" v="Steinutrandin" />
		<tag k="name" v="Steinutranden" />
		<tag k="natural" v="hill" />
		<tag k="place" v="locality" />
		<tag k="ssr:stedsnr" v="131628" />
	</node>
	<node id="-109079" lat="61.9418638898" lon="9.23009167318">
		<tag k="name" v="Varpelie" />
		<tag k="natural" v="slope" />
		<tag k="place" v="locality" />
		<tag k="ssr:stedsnr" v="112729" />
	</node>
	<node id="-109077" lat="62.0207222178" lon="9.58726110191">
		<tag k="name" v="Sissknarten" />
		<tag k="natural" v="hill" />
		<tag k="place" v="locality" />
		<tag k="ssr:stedsnr" v="112564" />
	</node>
	<node id="-109076" lat="62.0062611069" lon="9.56851666838">
		<tag k="name" v="Løype" />
		<tag k="natural" v="valley" />
		<tag k="place" v="locality" />
		<tag k="ssr:stedsnr" v="112563" />
	</node>
	<node id="-109075" lat="62.0110833367" lon="9.62049721442">
		<tag k="name" v="Vakkernose" />
		<tag k="natural" v="hill" />
		<tag k="place" v="locality" />
		<tag k="ssr:stedsnr" v="112561" />
	</node>
	<node id="-109072" lat="62.2414611114" lon="9.65312222204">
		<tag k="name" v="Elgslinosen" />
		<tag k="natural" v="hill" />
		<tag k="place" v="locality" />
		<tag k="ssr:stedsnr" v="112528" />
	</node>
	<node id="-109071" lat="62.2306888887" lon="9.60705833439">
		<tag k="name" v="Brennhøin" />
		<tag k="natural" v="hill" />
		<tag k="place" v="locality" />
		<tag k="ssr:stedsnr" v="112515" />
	</node>
	<node id="-109062" lat="62.0538583336" lon="9.25524999895">
		<tag k="name" v="Heimare Breijordet" />
		<tag k="natural" v="slope" />
		<tag k="place" v="locality" />
		<tag k="ssr:stedsnr" v="111996" />
	</node>
	<node id="-109061" lat="62.0099305579" lon="9.34549166185">
		<tag k="name" v="Hondøyra" />
		<tag k="place" v="locality" />
		<tag k="ssr:stedsnr" v="111980" />
	</node>
	<node id="-109049" lat="62.1288555517" lon="9.3129194502">
		<tag k="name" v="Hesthove" />
		<tag k="natural" v="hill" />
		<tag k="place" v="locality" />
		<tag k="ssr:stedsnr" v="111446" />
	</node>
	<node id="-109044" lat="62.0088277796" lon="9.12092500031">
		<tag k="name" v="Manningtunga" />
		<tag k="natural" v="slope" />
		<tag k="place" v="locality" />
		<tag k="ssr:stedsnr" v="112346" />
	</node>
	<node id="-109031" lat="61.9432777744" lon="9.63720277756">
		<tag k="fixme" v="consider natural=peak for the most distinct mountains in the district" />
		<tag k="name" v="Snjofonnkroken" />
		<tag k="natural" v="hill" />
		<tag k="place" v="locality" />
		<tag k="ssr:stedsnr" v="80442" />
	</node>
	<node id="-109030" lat="61.9430777805" lon="9.33761943831">
		<tag k="name" v="Turrtjønnbotten" />
		<tag k="natural" v="valley" />
		<tag k="place" v="locality" />
		<tag k="ssr:stedsnr" v="72906" />
	</node>
	<node id="-109028" lat="61.939558333" lon="9.24014167403">
		<tag k="name" v="Snauranden" />
		<tag k="natural" v="hill" />
		<tag k="place" v="locality" />
		<tag k="ssr:stedsnr" v="72886" />
	</node>
	<node id="-109019" lat="62.143561114" lon="9.49286111862">
		<tag k="fixme" v="consider natural=peak for the most distinct mountains in the district" />
		<tag k="name" v="Avsjøhøe" />
		<tag k="natural" v="hill" />
		<tag k="place" v="locality" />
		<tag k="ssr:stedsnr" v="72673" />
	</node>
	<node id="-109018" lat="62.0849513219" lon="9.34760315158">
		<tag k="fixme" v="consider natural=peak for the most distinct mountains in the district" />
		<tag k="name" v="Fokstuguhøe" />
		<tag k="natural" v="hill" />
		<tag k="place" v="locality" />
		<tag k="ssr:stedsnr" v="72642" />
	</node>
	<node id="-109016" lat="62.1008472254" lon="9.25717777683">
		<tag k="alt_name" v="Hovda;Nordseterhøvda" />
		<tag k="fixme" v="multiple name tags, choose one and add the other to alt_name" />
		<tag k="name" v="Hovdaet;Nordseterhovda" />
		<tag k="natural" v="hill" />
		<tag k="place" v="locality" />
		<tag k="ssr:stedsnr" v="72635" />
	</node>
	<node id="-109014" lat="62.0221972216" lon="9.10305278209">
		<tag k="alt_name" v="Møkjalasset, fremre" />
		<tag k="fixme" v="consider natural=peak for the most distinct mountains in the district" />
		<tag k="name" v="Fremre Møkjalasset" />
		<tag k="natural" v="hill" />
		<tag k="place" v="locality" />
		<tag k="ssr:stedsnr" v="72519" />
	</node>
	<node id="-109011" lat="62.2490972205" lon="9.57338610269">
		<tag k="fixme" v="consider natural=peak for the most distinct mountains in the district" />
		<tag k="name" v="Hjerskavlen" />
		<tag k="natural" v="hill" />
		<tag k="place" v="locality" />
		<tag k="ssr:stedsnr" v="72498" />
	</node>
	<node id="-109010" lat="62.2547916655" lon="9.60243333683">
		<tag k="name" v="Porten" />
		<tag k="place" v="locality" />
		<tag k="ssr:stedsnr" v="72495" />
	</node>
	<node id="-109005" lat="62.1150361095" lon="9.09043332387">
		<tag k="name" v="Grønbogen" />
		<tag k="natural" v="slope" />
		<tag k="place" v="locality" />
		<tag k="ssr:stedsnr" v="71911" />
	</node>
	<node id="-109004" lat="62.1788555515" lon="9.35664999645">
		<tag k="fixme" v="consider natural=peak for the most distinct mountains in the district" />
		<tag k="name" v="Buaranden" />
		<tag k="natural" v="hill" />
		<tag k="place" v="locality" />
		<tag k="ssr:stedsnr" v="71738" />
	</node>
	<node id="-109003" lat="62.0712888847" lon="9.53030832551">
		<tag k="fixme" v="consider natural=peak for the most distinct mountains in the district" />
		<tag k="name" v="Gygerhøe" />
		<tag k="natural" v="hill" />
		<tag k="place" v="locality" />
		<tag k="ssr:stedsnr" v="71715" />
	</node>
	<node id="-109002" lat="62.0779750037" lon="9.48877222893">
		<tag k="name" v="Innare Veslberget" />
		<tag k="natural" v="hill" />
		<tag k="place" v="locality" />
		<tag k="ssr:stedsnr" v="71712" />
	</node>
	<node id="-109000" lat="62.0707055595" lon="9.21923332547">
		<tag k="name" v="Varpet" />
		<tag k="place" v="locality" />
		<tag k="ssr:stedsnr" v="71637" />
	</node>
	<node id="-108998" lat="62.0503333334" lon="9.17421389568">
		<tag k="alt_name" v="Engjekollen" />
		<tag k="name" v="Engjekollan" />
		<tag k="natural" v="hill" />
		<tag k="place" v="locality" />
		<tag k="ssr:stedsnr" v="71615" />
	</node>
	<node id="-108997" lat="62.0643527758" lon="9.71504999394">
		<tag k="fixme" v="consider natural=peak for the most distinct mountains in the district" />
		<tag k="name" v="Storkollen" />
		<tag k="natural" v="hill" />
		<tag k="place" v="locality" />
		<tag k="ssr:stedsnr" v="71693" />
	</node>
	<node id="-108996" lat="62.0709055524" lon="9.68324167182">
		<tag k="name" v="Stortunga" />
		<tag k="natural" v="ridge" />
		<tag k="place" v="locality" />
		<tag k="ssr:stedsnr" v="71690" />
	</node>
	<node id="-108992" lat="62.218416666" lon="9.62480277947">
		<tag k="fixme" v="consider natural=peak for the most distinct mountains in the district" />
		<tag k="name" v="Hovdun" />
		<tag k="natural" v="hill" />
		<tag k="place" v="locality" />
		<tag k="ssr:stedsnr" v="71541" />
	</node>
	<node id="-108988" lat="62.0318111074" lon="9.31068056396">
		<tag k="name" v="Grønbakkrandin" />
		<tag k="natural" v="slope" />
		<tag k="place" v="locality" />
		<tag k="ssr:stedsnr" v="51999" />
	</node>
	<node id="-108987" lat="62.047077774" lon="9.337063884">
		<tag k="name" v="Grytholet" />
		<tag k="natural" v="valley" />
		<tag k="place" v="locality" />
		<tag k="ssr:stedsnr" v="51987" />
	</node>
	<node id="-108986" lat="62.0434749968" lon="9.25988612015">
		<tag k="name" v="Nyseterhøe" />
		<tag k="natural" v="hill" />
		<tag k="place" v="locality" />
		<tag k="ssr:stedsnr" v="51985" />
	</node>
	<node id="-108985" lat="62.0088000011" lon="9.33363889466">
		<tag k="name" v="Eftansåtunga" />
		<tag k="natural" v="ridge" />
		<tag k="place" v="locality" />
		<tag k="ssr:stedsnr" v="51972" />
	</node>
	<node id="-108984" lat="61.9265055587" lon="9.38027777295">
		<tag k="alt_name" v="Søndre Slådalen" />
		<tag k="name" v="Søre Slådalen" />
		<tag k="natural" v="valley" />
		<tag k="place" v="locality" />
		<tag k="ssr:stedsnr" v="51863" />
	</node>
	<node id="-108983" lat="61.9619583318" lon="9.41981943533">
		<tag k="name" v="Toredalen" />
		<tag k="natural" v="valley" />
		<tag k="place" v="locality" />
		<tag k="ssr:stedsnr" v="51860" />
	</node>
	<node id="-108979" lat="62.0381388854" lon="9.69382222968">
		<tag k="name" v="Nedre Benkjin" />
		<tag k="natural" v="slope" />
		<tag k="place" v="locality" />
		<tag k="ssr:stedsnr" v="51586" />
	</node>
	<node id="-108978" lat="62.0337500027" lon="9.67358056185">
		<tag k="name" v="Saltslette" />
		<tag k="place" v="locality" />
		<tag k="ssr:stedsnr" v="51583" />
	</node>
	<node id="-108973" lat="62.1166583324" lon="9.36150000165">
		<tag k="name" v="Vesleblåhø" />
		<tag k="natural" v="hill" />
		<tag k="place" v="locality" />
		<tag k="ssr:stedsnr" v="51515" />
	</node>
	<node id="-108972" lat="62.1135972187" lon="9.32214166331">
		<tag k="name" v="Øykjesvea" />
		<tag k="natural" v="slope" />
		<tag k="place" v="locality" />
		<tag k="ssr:stedsnr" v="51514" />
	</node>
	<node id="-108971" lat="62.1488638848" lon="9.33292222918">
		<tag k="name" v="Killihaugen" />
		<tag k="natural" v="hill" />
		<tag k="place" v="locality" />
		<tag k="ssr:stedsnr" v="51507" />
	</node>
	<node id="-108967" lat="62.0865583344" lon="9.84163055671">
		<tag k="name" v="Øvre Paradis" />
		<tag k="natural" v="hill" />
		<tag k="place" v="locality" />
		<tag k="ssr:stedsnr" v="51323" />
	</node>
	<node id="-108966" lat="62.086133334" lon="9.65969721636">
		<tag k="name" v="Langhaug" />
		<tag k="natural" v="hill" />
		<tag k="place" v="locality" />
		<tag k="ssr:stedsnr" v="51313" />
	</node>
	<node id="-108964" lat="62.0743388871" lon="9.58367222579">
		<tag k="name" v="Gunhildholet" />
		<tag k="natural" v="valley" />
		<tag k="place" v="locality" />
		<tag k="ssr:stedsnr" v="51299" />
	</node>
	<node id="-108962" lat="62.1325805595" lon="9.15214721694">
		<tag k="name" v="Lurven" />
		<tag k="natural" v="hill" />
		<tag k="place" v="locality" />
		<tag k="ssr:stedsnr" v="51123" />
	</node>
	<node id="-108961" lat="62.093747223" lon="9.17735832474">
		<tag k="name" v="Hindådalen" />
		<tag k="natural" v="valley" />
		<tag k="place" v="locality" />
		<tag k="ssr:stedsnr" v="51113" />
	</node>
	<node id="-108957" lat="62.1286666657" lon="9.11256388769">
		<tag k="name" v="Finntoppslette" />
		<tag k="place" v="locality" />
		<tag k="ssr:stedsnr" v="50945" />
	</node>
	<node id="-108954" lat="62.0501000006" lon="9.0712944518">
		<tag k="name" v="Nygardskollen" />
		<tag k="natural" v="hill" />
		<tag k="place" v="locality" />
		<tag k="ssr:stedsnr" v="50739" />
	</node>
	<node id="-108947" lat="62.1069499963" lon="9.81156388101">
		<tag k="name" v="Åkerhaugen" />
		<tag k="natural" v="hill" />
		<tag k="place" v="locality" />
		<tag k="ssr:stedsnr" v="50272" />
	</node>
	<node id="-108942" lat="61.9303055554" lon="9.26309722849">
		<tag k="name" v="Måsåbakken" />
		<tag k="natural" v="slope" />
		<tag k="place" v="locality" />
		<tag k="ssr:stedsnr" v="37667" />
	</node>
	<node id="-108941" lat="61.9038999983" lon="9.3565416618">
		<tag k="name" v="Toftedrogje" />
		<tag k="natural" v="slope" />
		<tag k="place" v="locality" />
		<tag k="ssr:stedsnr" v="36647" />
	</node>
	<node id="-108939" lat="61.9457722204" lon="9.3369666612">
		<tag k="fixme" v="consider natural=peak for the most distinct mountains in the district" />
		<tag k="name" v="Søre Veslfjellet" />
		<tag k="natural" v="hill" />
		<tag k="place" v="locality" />
		<tag k="ssr:stedsnr" v="22857" />
	</node>
	<node id="-108934" lat="62.1124138844" lon="9.16004444155">
		<tag k="alt_name" v="Stakkstoi" />
		<tag k="name" v="Stakstoe" />
		<tag k="natural" v="slope" />
		<tag k="place" v="locality" />
		<tag k="ssr:stedsnr" v="11900" />
	</node>
	<node id="-108933" lat="61.9391555571" lon="9.39153888856">
		<tag k="fixme" v="consider natural=peak for the most distinct mountains in the district" />
		<tag k="name" v="Storkuva" />
		<tag k="natural" v="hill" />
		<tag k="place" v="locality" />
		<tag k="ssr:stedsnr" v="11898" />
	</node>
	<node id="-108931" lat="62.1417972178" lon="9.38918611756">
		<tag k="name" v="Hauklii" />
		<tag k="natural" v="slope" />
		<tag k="place" v="locality" />
		<tag k="ssr:stedsnr" v="11698" />
	</node>
	<node id="-108912" lat="62.0366027802" lon="9.55139444102">
		<tag k="fixme" v="consider natural=peak for the most distinct mountains in the district" />
		<tag k="name" v="Hornsjøkollen" />
		<tag k="natural" v="hill" />
		<tag k="place" v="locality" />
		<tag k="ssr:stedsnr" v="10674" />
	</node>
	<node id="-108911" lat="62.0530861143" lon="9.67328333396">
		<tag k="fixme" v="consider natural=peak for the most distinct mountains in the district" />
		<tag k="name" v="Gravhøe" />
		<tag k="natural" v="hill" />
		<tag k="place" v="locality" />
		<tag k="ssr:stedsnr" v="10669" />
	</node>
	<node id="-108910" lat="62.0110527769" lon="9.50207500953">
		<tag k="fixme" v="consider natural=peak for the most distinct mountains in the district" />
		<tag k="name" v="Svartknattan" />
		<tag k="natural" v="hill" />
		<tag k="place" v="locality" />
		<tag k="ssr:stedsnr" v="10659" />
	</node>
	<node id="-108902" lat="62.2198472192" lon="9.6797250091">
		<tag k="name" v="Heimskardet" />
		<tag k="natural" v="valley" />
		<tag k="place" v="locality" />
		<tag k="ssr:stedsnr" v="10488" />
	</node>
	<node id="-108897" lat="61.9038110913" lon="9.84823763922">
		<tag k="fixme" v="consider natural=peak for the most distinct mountains in the district" />
		<tag k="name" v="Vinjeronden" />
		<tag k="natural" v="hill" />
		<tag k="place" v="locality" />
		<tag k="ssr:stedsnr" v="253739" />
	</node>
	<node id="-108896" lat="61.9149163556" lon="9.85099878826">
		<tag k="fixme" v="consider natural=peak for the most distinct mountains in the district" />
		<tag k="loc_name" v="Rondeslottet" />
		<tag k="name" v="Rondslottet" />
		<tag k="natural" v="hill" />
		<tag k="place" v="locality" />
		<tag k="ssr:stedsnr" v="617663" />
	</node>
	<node id="-108883" lat="62.1935361006" lon="9.18403159037">
		<tag k="name" v="Grøndalen" />
		<tag k="natural" v="valley" />
		<tag k="place" v="locality" />
		<tag k="ssr:stedsnr" v="131704" />
	</node>
	<node id="-108874" lat="61.904813889" lon="9.32150555025">
		<tag k="name" v="Falkeranden" />
		<tag k="natural" v="slope" />
		<tag k="place" v="locality" />
		<tag k="ssr:stedsnr" v="886699" />
	</node>
	<node id="-108869" lat="62.0049611152" lon="9.65217777853">
		<tag k="name" v="Skriudalen" />
		<tag k="natural" v="valley" />
		<tag k="place" v="locality" />
		<tag k="ssr:stedsnr" v="476538" />
	</node>
	<node id="-108867" lat="62.0369083379" lon="9.35293332533">
		<tag k="name" v="Svartbekkrandin" />
		<tag k="natural" v="slope" />
		<tag k="place" v="locality" />
		<tag k="ssr:stedsnr" v="475992" />
	</node>
	<node id="-108865" lat="62.0070749985" lon="9.19535277009">
		<tag k="name" v="Nonshaugen" />
		<tag k="natural" v="hill" />
		<tag k="place" v="locality" />
		<tag k="ssr:stedsnr" v="475735" />
	</node>
	<node id="-108860" lat="62.1400916681" lon="9.29207500911">
		<tag k="name" v="Ulveranden" />
		<tag k="natural" v="hill" />
		<tag k="place" v="locality" />
		<tag k="ssr:stedsnr" v="475464" />
	</node>
	<node id="-108857" lat="62.2592250022" lon="9.51187778333">
		<tag k="name" v="Storflye" />
		<tag k="natural" v="hill" />
		<tag k="place" v="locality" />
		<tag k="ssr:stedsnr" v="475392" />
	</node>
	<node id="-108853" lat="62.0893083332" lon="9.65148888677">
		<tag k="name" v="Tverrådalen" />
		<tag k="natural" v="valley" />
		<tag k="place" v="locality" />
		<tag k="ssr:stedsnr" v="475276" />
	</node>
	<node id="-108851" lat="62.1320777762" lon="9.12901666649">
		<tag k="name" v="Sjafsranden" />
		<tag k="natural" v="hill" />
		<tag k="place" v="locality" />
		<tag k="ssr:stedsnr" v="475118" />
	</node>
	<node id="-108847" lat="62.0722777822" lon="9.20274444494">
		<tag k="name" v="Skrebekkehaugene" />
		<tag k="natural" v="hill" />
		<tag k="place" v="locality" />
		<tag k="ssr:stedsnr" v="475105" />
	</node>
	<node id="-108841" lat="62.0544638913" lon="9.10229167461">
		<tag k="name" v="Monshaugen" />
		<tag k="natural" v="hill" />
		<tag k="place" v="locality" />
		<tag k="ssr:stedsnr" v="474795" />
	</node>
	<node id="-108838" lat="61.9526027804" lon="9.72280832585">
		<tag k="name" v="Smedkinnin" />
		<tag k="place" v="locality" />
		<tag k="ssr:stedsnr" v="406057" />
	</node>
	<node id="-108832" lat="61.9292895614" lon="9.76462038953">
		<tag k="fixme" v="consider natural=peak for the most distinct mountains in the district" />
		<tag k="loc_name" v="Austre Smedhåmåren" />
		<tag k="name" v="Austre Smedhamran" />
		<tag k="natural" v="hill" />
		<tag k="place" v="locality" />
		<tag k="ssr:stedsnr" v="383461" />
	</node>
	<node id="-108825" lat="62.1668416677" lon="9.59230000137">
		<tag k="fixme" v="consider natural=peak for the most distinct mountains in the district" />
		<tag k="name" v="Storhøe" />
		<tag k="natural" v="hill" />
		<tag k="place" v="locality" />
		<tag k="ssr:stedsnr" v="375691" />
	</node>
	<node id="-108820" lat="62.0950861141" lon="9.23989166409">
		<tag k="alt_name" v="Nordseterranden;Nordseterrandene" />
		<tag k="name" v="Nordsæterranden" />
		<tag k="natural" v="hill" />
		<tag k="place" v="locality" />
		<tag k="ssr:stedsnr" v="375630" />
	</node>
	<node id="-108819" lat="62.099683332" lon="9.16045555848">
		<tag k="name" v="Steinhovda" />
		<tag k="natural" v="hill" />
		<tag k="place" v="locality" />
		<tag k="ssr:stedsnr" v="375579" />
	</node>
	<node id="-108818" lat="62.2958777741" lon="9.31889999433">
		<tag k="fixme" v="consider natural=peak for the most distinct mountains in the district" />
		<tag k="name" v="Veslhetta" />
		<tag k="natural" v="hill" />
		<tag k="old_name" v="Veslehetta" />
		<tag k="place" v="locality" />
		<tag k="ssr:stedsnr" v="375519" />
	</node>
	<node id="-108813" lat="62.2669277737" lon="9.51543888214">
		<tag k="name" v="Storranden" />
		<tag k="natural" v="hill" />
		<tag k="place" v="locality" />
		<tag k="ssr:stedsnr" v="375454" />
	</node>
	<node id="-108811" lat="61.9058555521" lon="9.26566944171">
		<tag k="fixme" v="consider natural=peak for the most distinct mountains in the district" />
		<tag k="name" v="Veslrundhøe" />
		<tag k="natural" v="hill" />
		<tag k="place" v="locality" />
		<tag k="ssr:stedsnr" v="374993" />
	</node>
	<node id="-108810" lat="61.9696416709" lon="9.38303055598">
		<tag k="fixme" v="consider natural=peak for the most distinct mountains in the district" />
		<tag k="name" v="Innare Veslfjellet" />
		<tag k="natural" v="hill" />
		<tag k="place" v="locality" />
		<tag k="ssr:stedsnr" v="374954" />
	</node>
	<node id="-108808" lat="61.9741111116" lon="9.30607500441">
		<tag k="name" v="Gammelsæterhovda" />
		<tag k="natural" v="hill" />
		<tag k="place" v="locality" />
		<tag k="ssr:stedsnr" v="374933" />
	</node>
	<node id="-108803" lat="62.211866667" lon="9.3818249924">
		<tag k="name" v="Grisungdalen" />
		<tag k="natural" v="valley" />
		<tag k="place" v="locality" />
		<tag k="ssr:stedsnr" v="374745" />
	</node>
	<node id="-108802" lat="62.187127778" lon="9.4252138952">
		<tag k="name" v="Lispynten" />
		<tag k="natural" v="hill" />
		<tag k="place" v="locality" />
		<tag k="ssr:stedsnr" v="374735" />
	</node>
	<node id="-108800" lat="62.0940583365" lon="9.30243056269">
		<tag k="alt_name" v="Gråhø" />
		<tag k="fixme" v="consider natural=peak for the most distinct mountains in the district" />
		<tag k="name" v="Gråhøi" />
		<tag k="natural" v="hill" />
		<tag k="place" v="locality" />
		<tag k="ssr:stedsnr" v="374692" />
	</node>
	<node id="-108797" lat="61.9132438135" lon="9.6659411249">
		<tag k="fixme" v="consider natural=peak for the most distinct mountains in the district" />
		<tag k="loc_name" v="Sagtinden" />
		<tag k="name" v="Sagtindan" />
		<tag k="natural" v="hill" />
		<tag k="place" v="locality" />
		<tag k="ssr:stedsnr" v="374650" />
	</node>
	<node id="-108794" lat="61.9294388921" lon="9.76447222313">
		<tag k="alt_name" v="Hammaren, austre" />
		<tag k="fixme" v="consider natural=peak for the most distinct mountains in the district" />
		<tag k="name" v="Austre Hammaren" />
		<tag k="natural" v="hill" />
		<tag k="place" v="locality" />
		<tag k="ssr:stedsnr" v="374643" />
	</node>
	<node id="-108793" lat="62.0713611104" lon="9.6559999916">
		<tag k="fixme" v="consider natural=peak for the most distinct mountains in the district" />
		<tag k="name" v="Sjøberget" />
		<tag k="natural" v="hill" />
		<tag k="place" v="locality" />
		<tag k="ssr:stedsnr" v="374635" />
	</node>
	<node id="-108791" lat="61.9515805528" lon="9.83115000895">
		<tag k="fixme" v="consider natural=peak for the most distinct mountains in the district" />
		<tag k="name" v="Digerronden" />
		<tag k="natural" v="hill" />
		<tag k="place" v="locality" />
		<tag k="ssr:stedsnr" v="374622" />
	</node>
	<node id="-108790" lat="61.9493111107" lon="9.67972499581">
		<tag k="fixme" v="consider natural=peak for the most distinct mountains in the district" />
		<tag k="name" v="Vassberget" />
		<tag k="natural" v="hill" />
		<tag k="place" v="locality" />
		<tag k="ssr:stedsnr" v="374621" />
	</node>
	<node id="-108789" lat="61.9794611066" lon="9.79332778099">
		<tag k="name" v="Skranglehaugan" />
		<tag k="natural" v="hill" />
		<tag k="place" v="locality" />
		<tag k="ssr:stedsnr" v="374618" />
	</node>
	<node id="-108788" lat="62.0677916696" lon="9.16688888077">
		<tag k="alt_name" v="Skoghø" />
		<tag k="name" v="Skoghøi" />
		<tag k="natural" v="hill" />
		<tag k="place" v="locality" />
		<tag k="ssr:stedsnr" v="374557" />
	</node>
	<node id="-108776" lat="61.9601722227" lon="9.41518333254">
		<tag k="name" v="Brennhøe" />
		<tag k="natural" v="slope" />
		<tag k="place" v="locality" />
		<tag k="ssr:stedsnr" v="354841" />
	</node>
	<node id="-108770" lat="62.0343888915" lon="9.65939999919">
		<tag k="name" v="Høghaug" />
		<tag k="natural" v="hill" />
		<tag k="place" v="locality" />
		<tag k="ssr:stedsnr" v="354561" />
	</node>
	<node id="-108765" lat="62.0617194471" lon="9.83160277337">
		<tag k="name" v="Gravhøsletten" />
		<tag k="place" v="locality" />
		<tag k="ssr:stedsnr" v="354298" />
	</node>
	<node id="-108764" lat="62.0844333341" lon="9.63169721319">
		<tag k="name" v="Storbergsalen" />
		<tag k="natural" v="slope" />
		<tag k="place" v="locality" />
		<tag k="ssr:stedsnr" v="354292" />
	</node>
	<node id="-108756" lat="62.0717666686" lon="9.07017500437">
		<tag k="name" v="Svarthol" />
		<tag k="natural" v="valley" />
		<tag k="place" v="locality" />
		<tag k="ssr:stedsnr" v="353780" />
	</node>
	<node id="-108748" lat="61.9095333314" lon="9.33890833043">
		<tag k="name" v="Legan" />
		<tag k="natural" v="slope" />
		<tag k="place" v="locality" />
		<tag k="ssr:stedsnr" v="340679" />
	</node>
	<node id="-108739" lat="61.9002638919" lon="9.32149999328">
		<tag k="name" v="Tunga" />
		<tag k="natural" v="ridge" />
		<tag k="place" v="locality" />
		<tag k="ssr:stedsnr" v="314993" />
	</node>
	<node id="-108736" lat="61.975094447" lon="9.35637222588">
		<tag k="name" v="Stigaflye" />
		<tag k="natural" v="hill" />
		<tag k="place" v="locality" />
		<tag k="ssr:stedsnr" v="314910" />
	</node>
	<node id="-108734" lat="62.1361138915" lon="9.15773333692">
		<tag k="fixme" v="consider natural=peak for the most distinct mountains in the district" />
		<tag k="name" v="Ryggen" />
		<tag k="natural" v="hill" />
		<tag k="place" v="locality" />
		<tag k="ssr:stedsnr" v="314901" />
	</node>
	<node id="-108730" lat="61.9276888906" lon="9.40140000469">
		<tag k="name" v="Storflye" />
		<tag k="natural" v="hill" />
		<tag k="place" v="locality" />
		<tag k="ssr:stedsnr" v="314861" />
	</node>
	<node id="-108729" lat="62.1911611072" lon="9.58003056479">
		<tag k="name" v="Okseldalen" />
		<tag k="natural" v="valley" />
		<tag k="place" v="locality" />
		<tag k="ssr:stedsnr" v="314726" />
	</node>
	<node id="-108721" lat="62.0660777773" lon="9.43402500402">
		<tag k="name" v="Falkhyttkollen" />
		<tag k="natural" v="hill" />
		<tag k="place" v="locality" />
		<tag k="ssr:stedsnr" v="314664" />
	</node>
	<node id="-108720" lat="62.0634111085" lon="9.25998055742">
		<tag k="alt_name" v="Fortenakollen" />
		<tag k="fixme" v="consider natural=peak for the most distinct mountains in the district" />
		<tag k="name" v="Fortinnakollen" />
		<tag k="natural" v="hill" />
		<tag k="place" v="locality" />
		<tag k="ssr:stedsnr" v="314663" />
	</node>
	<node id="-108719" lat="62.011016668" lon="9.27867499574">
		<tag k="alt_name" v="Storhovda" />
		<tag k="fixme" v="consider natural=peak for the most distinct mountains in the district" />
		<tag k="name" v="Storhovdaet" />
		<tag k="natural" v="hill" />
		<tag k="place" v="locality" />
		<tag k="ssr:stedsnr" v="314660" />
	</node>
	<node id="-108718" lat="61.9561388844" lon="9.84357500882">
		<tag k="alt_name" v="Vidalsbotn" />
		<tag k="name" v="Vidjedalsbotn" />
		<tag k="natural" v="valley" />
		<tag k="place" v="locality" />
		<tag k="ssr:stedsnr" v="314657" />
	</node>
	<node id="-108717" lat="61.979211113" lon="9.74142500546">
		<tag k="fixme" v="consider natural=peak for the most distinct mountains in the district" />
		<tag k="name" v="Skagsnebb" />
		<tag k="natural" v="hill" />
		<tag k="place" v="locality" />
		<tag k="ssr:stedsnr" v="314652" />
	</node>
	<node id="-108716" lat="61.9694861081" lon="9.6841361164">
		<tag k="name" v="Vesleholet" />
		<tag k="natural" v="valley" />
		<tag k="place" v="locality" />
		<tag k="ssr:stedsnr" v="314646" />
	</node>
	<node id="-108712" lat="62.0532138909" lon="9.19471389393">
		<tag k="alt_name" v="Storhaug" />
		<tag k="name" v="Storhaugen" />
		<tag k="natural" v="hill" />
		<tag k="place" v="locality" />
		<tag k="ssr:stedsnr" v="314592" />
	</node>
	<node id="-108706" lat="62.2407111113" lon="9.38553887993">
		<tag k="name" v="Storkvølve" />
		<tag k="natural" v="valley" />
		<tag k="place" v="locality" />
		<tag k="ssr:stedsnr" v="314545" />
	</node>
	<node id="-108705" lat="62.0132472182" lon="9.78751111148">
		<tag k="name" v="Dørålsglupen" />
		<tag k="natural" v="valley" />
		<tag k="place" v="locality" />
		<tag k="ssr:stedsnr" v="314450" />
	</node>
	<node id="-108704" lat="62.0736305511" lon="9.88965833568">
		<tag k="fixme" v="consider natural=peak for the most distinct mountains in the district" />
		<tag k="name" v="Ørnhovda" />
		<tag k="natural" v="hill" />
		<tag k="place" v="locality" />
		<tag k="ssr:stedsnr" v="314421" />
	</node>
	<node id="-108702" lat="61.9375694439" lon="9.17578333161">
		<tag k="name" v="Øyadalen" />
		<tag k="natural" v="valley" />
		<tag k="place" v="locality" />
		<tag k="ssr:stedsnr" v="314147" />
	</node>
	<node id="-108694" lat="62.077158334" lon="9.59260000654">
		<tag k="name" v="Kattugeldalen" />
		<tag k="natural" v="valley" />
		<tag k="place" v="locality" />
		<tag k="ssr:stedsnr" v="294265" />
	</node>
	<node id="-108692" lat="62.2110583368" lon="9.53322778618">
		<tag k="name" v="Geitbergdalen" />
		<tag k="natural" v="valley" />
		<tag k="place" v="locality" />
		<tag k="ssr:stedsnr" v="294246" />
	</node>
	<node id="-108686" lat="62.0448833332" lon="9.37994443758">
		<tag k="name" v="Steinbekkdalen" />
		<tag k="natural" v="valley" />
		<tag k="place" v="locality" />
		<tag k="ssr:stedsnr" v="293889" />
	</node>
	<node id="-108683" lat="62.0059777806" lon="9.20051666696">
		<tag k="loc_name" v="Vårkinnslie" />
		<tag k="name" v="Vorkinslien" />
		<tag k="natural" v="slope" />
		<tag k="place" v="locality" />
		<tag k="ssr:stedsnr" v="293750" />
	</node>
	<node id="-108680" lat="62.0656722222" lon="9.2211777776">
		<tag k="name" v="Hestkneiken" />
		<tag k="natural" v="slope" />
		<tag k="place" v="locality" />
		<tag k="ssr:stedsnr" v="293528" />
	</node>
	<node id="-108673" lat="61.8893055537" lon="9.36713055814">
		<tag k="name" v="Gjeldbakkane" />
		<tag k="natural" v="slope" />
		<tag k="place" v="locality" />
		<tag k="ssr:stedsnr" v="292981" />
	</node>
	<node id="-108667" lat="62.0296279002" lon="9.37533762536">
		<tag k="alt_name" v="Innare Skaret;Skardet, ytre" />
		<tag k="fixme" v="multiple name tags, choose one and add the other to alt_name" />
		<tag k="name" v="Ytre Skardet;Innare Skardet" />
		<tag k="natural" v="valley" />
		<tag k="place" v="locality" />
		<tag k="ssr:stedsnr" v="283614" />
	</node>
	<node id="-108665" lat="61.9474222191" lon="9.24567777807">
		<tag k="name" v="Jettskjellen" />
		<tag k="place" v="locality" />
		<tag k="ssr:stedsnr" v="280665" />
	</node>
</osm>
