<?xml version="1.0" encoding="UTF-8"?>
<osm generator="osmapis" version="0.6">
	<node id="-108629" lat="62.281747223" lon="9.73704166035">
		<tag k="name" v="Skridulaupbekken" />
		<tag k="ssr:stedsnr" v="315677" />
		<tag k="waterway" v="stream" />
	</node>
	<node id="-109564" lat="61.9622611156" lon="9.297488897">
		<tag k="name" v="Rudiåe" />
		<tag k="ssr:stedsnr" v="678913" />
		<tag k="waterway" v="river" />
	</node>
	<node id="-108628" lat="62.2518749984" lon="9.66690832373">
		<tag k="alt_name" v="Kvitdalsvatnet, s" />
		<tag k="name" v="Søre Kvitdalsvatnet" />
		<tag k="natural" v="water" />
		<tag k="ssr:stedsnr" v="315492" />
		<tag k="water" v="lake" />
	</node>
	<node id="-109042" lat="61.9869472214" lon="9.26336666245">
		<tag k="name" v="Dragåa" />
		<tag k="ssr:stedsnr" v="172565" />
		<tag k="waterway" v="river" />
	</node>
	<node id="-109553" lat="62.2071888898" lon="9.59421666258">
		<tag k="name" v="Strypbekken" />
		<tag k="ssr:stedsnr" v="678739" />
		<tag k="waterway" v="stream" />
	</node>
	<node id="-109552" lat="62.2072472206" lon="9.65067778415">
		<tag k="name" v="Børsungbekken" />
		<tag k="ssr:stedsnr" v="678735" />
		<tag k="waterway" v="stream" />
	</node>
	<node id="-109551" lat="62.2095861116" lon="9.59361944167">
		<tag k="alt_name" v="Hjerkinndammen" />
		<tag k="name" v="Hjerkinnsdammen" />
		<tag k="ssr:stedsnr" v="678725" />
		<tag k="waterway" v="dam" />
	</node>
	<node id="-109549" lat="62.0996361085" lon="9.63703333964">
		<tag k="name" v="Tverråe" />
		<tag k="ssr:stedsnr" v="678689" />
		<tag k="waterway" v="river" />
	</node>
	<node id="-108711" lat="62.1573999978" lon="9.3677583414">
		<tag k="name" v="Furuhaugbekken" />
		<tag k="ssr:stedsnr" v="375673" />
		<tag k="waterway" v="stream" />
	</node>
	<node id="-109052" lat="62.0941305549" lon="9.84637222695">
		<tag k="name" v="Streittjønne" />
		<tag k="natural" v="water" />
		<tag k="ssr:stedsnr" v="192521" />
	</node>
	<node id="-109542" lat="62.0453999977" lon="9.38716944198">
		<tag k="name" v="Steinbekken" />
		<tag k="ssr:stedsnr" v="678655" />
		<tag k="waterway" v="stream" />
	</node>
	<node id="-109540" lat="61.9380777735" lon="9.70553888587">
		<tag k="name" v="Langholskridu" />
		<tag k="ssr:stedsnr" v="678649" />
		<tag k="waterway" v="stream" />
	</node>
	<node id="-109539" lat="61.9611916627" lon="9.78387499091">
		<tag k="name" v="Bergedalsbekken" />
		<tag k="ssr:stedsnr" v="678646" />
		<tag k="waterway" v="stream" />
	</node>
	<node id="-109537" lat="61.96015" lon="9.69870277819">
		<tag k="name" v="Vassbekken" />
		<tag k="ssr:stedsnr" v="678641" />
		<tag k="waterway" v="stream" />
	</node>
	<node id="-109531" lat="62.0716361114" lon="9.19372500748">
		<tag k="name" v="Skrebekktjørni" />
		<tag k="natural" v="water" />
		<tag k="ssr:stedsnr" v="678581" />
	</node>
	<node id="-108879" lat="62.0230527816" lon="9.13467777135">
		<tag k="name" v="Hestdalsbekken" />
		<tag k="ssr:stedsnr" v="71579" />
		<tag k="waterway" v="stream" />
	</node>
	<node id="-109525" lat="62.2471546978" lon="9.33013304738">
		<tag k="name" v="Veslvatnet" />
		<tag k="natural" v="water" />
		<tag k="ssr:stedsnr" v="678524" />
	</node>
	<node id="-109516" lat="62.0101416693" lon="9.65157778711">
		<tag k="name" v="Skriubekken" />
		<tag k="ssr:stedsnr" v="658554" />
		<tag k="waterway" v="stream" />
	</node>
	<node id="-109003" lat="61.9264277743" lon="9.24300277577">
		<tag k="name" v="Djupdalsbekken" />
		<tag k="ssr:stedsnr" v="132896" />
		<tag k="waterway" v="stream" />
	</node>
	<node id="-108876" lat="61.9979666655" lon="9.44562223124">
		<tag k="name" v="Grønbakktjønne" />
		<tag k="natural" v="water" />
		<tag k="ssr:stedsnr" v="71416" />
	</node>
	<node id="-108998" lat="62.127544448" lon="9.51545278414">
		<tag k="name" v="Gautåe" />
		<tag k="ssr:stedsnr" v="132688" />
		<tag k="waterway" v="river" />
	</node>
	<node id="-108997" lat="62.1292694446" lon="9.2980527804">
		<tag k="name" v="Urdbekktjønnin" />
		<tag k="natural" v="water" />
		<tag k="ssr:stedsnr" v="132687" />
	</node>
	<node id="-108996" lat="62.1235285509" lon="9.25232330635">
		<tag k="name" v="Horrtjønnin" />
		<tag k="natural" v="water" />
		<tag k="ssr:stedsnr" v="132685" />
		<tag k="water" v="lake" />
	</node>
	<node id="-108991" lat="62.0569999976" lon="9.19843055595">
		<tag k="alt_name" v="Storhaugtjern" />
		<tag k="name" v="Storhaugtjørni" />
		<tag k="natural" v="water" />
		<tag k="ssr:stedsnr" v="132568" />
	</node>
	<node id="-108990" lat="62.058208333" lon="9.17902221525">
		<tag k="alt_name" v="Tverråi" />
		<tag k="name" v="Tverråe" />
		<tag k="ssr:stedsnr" v="132566" />
		<tag k="waterway" v="stream" />
	</node>
	<node id="-108978" lat="62.0361888857" lon="9.63666111128">
		<tag k="name" v="Gravbekken" />
		<tag k="ssr:stedsnr" v="131669" />
		<tag k="waterway" v="stream" />
	</node>
	<node id="-108976" lat="62.0490750039" lon="9.24240278484">
		<tag k="name" v="Rådååe" />
		<tag k="ssr:stedsnr" v="131655" />
		<tag k="waterway" v="river" />
	</node>
	<node id="-108975" lat="61.9604833368" lon="9.75483332485">
		<tag k="name" v="Smedbekken" />
		<tag k="ssr:stedsnr" v="131650" />
		<tag k="waterway" v="stream" />
	</node>
	<node id="-108974" lat="61.9578972266" lon="9.71078611525">
		<tag k="name" v="Døråe" />
		<tag k="ssr:stedsnr" v="131646" />
		<tag k="waterway" v="river" />
	</node>
	<node id="-108972" lat="62.0213388893" lon="9.23827776922">
		<tag k="alt_name" v="Lenna" />
		<tag k="name" v="Leina" />
		<tag k="ssr:stedsnr" v="131636" />
		<tag k="waterway" v="stream" />
	</node>
	<node id="-108969" lat="62.0024999974" lon="9.36489722561">
		<tag k="name" v="Stokkbekken" />
		<tag k="ssr:stedsnr" v="131310" />
		<tag k="waterway" v="stream" />
	</node>
	<node id="-108967" lat="62.2122944442" lon="9.58584721711">
		<tag k="name" v="Hjerkinnsdammen" />
		<tag k="natural" v="water" />
		<tag k="ssr:stedsnr" v="120140" />
		<tag k="water" v="lake" />
	</node>
	<node id="-109476" lat="61.9340499991" lon="9.23145000745">
		<tag k="name" v="Varpebekken" />
		<tag k="ssr:stedsnr" v="617900" />
		<tag k="waterway" v="stream" />
	</node>
	<node id="-108614" lat="62.1503083363" lon="9.60433332775">
		<tag k="name" v="Veslhjerkinnstjønnin" />
		<tag k="natural" v="water" />
		<tag k="ssr:stedsnr" v="314700" />
	</node>
	<node id="-109472" lat="62.2152250033" lon="9.37530555061">
		<tag k="name" v="Grisungbekken" />
		<tag k="ssr:stedsnr" v="617762" />
		<tag k="waterway" v="river" />
	</node>
	<node id="-108613" lat="62.1520861099" lon="9.45764722748">
		<tag k="name" v="Kluftbekken" />
		<tag k="ssr:stedsnr" v="314699" />
		<tag k="waterway" v="stream" />
	</node>
	<node id="-109467" lat="62.1070583378" lon="9.27081389021">
		<tag k="alt_name" v="Gorrbekken" />
		<tag k="name" v="Gardsbekken" />
		<tag k="ssr:stedsnr" v="617695" />
		<tag k="waterway" v="stream" />
	</node>
	<node id="-109465" lat="61.9864500011" lon="9.74845832579">
		<tag k="name" v="Skagsnebbtjønne" />
		<tag k="natural" v="water" />
		<tag k="ssr:stedsnr" v="617692" />
	</node>
	<node id="-109460" lat="62.0813027811" lon="9.60418333548">
		<tag k="alt_name" v="Veslbekken" />
		<tag k="name" v="Veslebekken" />
		<tag k="ssr:stedsnr" v="617678" />
		<tag k="waterway" v="stream" />
	</node>
	<node id="-109459" lat="62.0734638881" lon="9.24196388385">
		<tag k="alt_name" v="Vesle Hundyrju" />
		<tag k="name" v="Veslhundyrju" />
		<tag k="old_name" v="Hundyrju, vesle" />
		<tag k="ssr:stedsnr" v="617677" />
		<tag k="waterway" v="stream" />
	</node>
	<node id="-108946" lat="61.9555000033" lon="9.36396943633">
		<tag k="name" v="Måsåhusbekken" />
		<tag k="ssr:stedsnr" v="111812" />
		<tag k="waterway" v="stream" />
	</node>
	<node id="-109456" lat="62.0195388854" lon="9.49071943959">
		<tag k="name" v="Fremste Bottjønne" />
		<tag k="natural" v="water" />
		<tag k="ssr:stedsnr" v="617645" />
	</node>
	<node id="-108615" lat="62.1807611116" lon="9.374672214">
		<tag k="name" v="Sandåe" />
		<tag k="ssr:stedsnr" v="314706" />
		<tag k="waterway" v="stream" />
	</node>
	<node id="-109454" lat="62.0298083297" lon="9.31492778147">
		<tag k="name" v="Einbugga" />
		<tag k="ssr:stedsnr" v="617634" />
		<tag k="waterway" v="river" />
	</node>
	<node id="-109453" lat="62.0794416641" lon="9.15305555991">
		<tag k="name" v="Tverrbekken" />
		<tag k="ssr:stedsnr" v="617591" />
		<tag k="waterway" v="stream" />
	</node>
	<node id="-109448" lat="62.0076333308" lon="9.18044444778">
		<tag k="alt_name" v="Grotåi;Nordre Grotåe" />
		<tag k="name" v="Nørdre Grotåe" />
		<tag k="old_name" v="Grotai" />
		<tag k="ssr:stedsnr" v="617546" />
		<tag k="waterway" v="stream" />
	</node>
	<node id="-109447" lat="62.2407999966" lon="9.4198500079">
		<tag k="name" v="Storkvølvbekken" />
		<tag k="ssr:stedsnr" v="617533" />
		<tag k="waterway" v="stream" />
	</node>
	<node id="-109446" lat="62.2287622176" lon="9.6203298271">
		<tag k="name" v="Skardstjønne" />
		<tag k="natural" v="water" />
		<tag k="ssr:stedsnr" v="617529" />
	</node>
	<node id="-109445" lat="62.2322833344" lon="9.65229999183">
		<tag k="name" v="Sautjønnbekken" />
		<tag k="ssr:stedsnr" v="617527" />
		<tag k="waterway" v="stream" />
	</node>
	<node id="-109441" lat="61.9012000028" lon="9.33087777537">
		<tag k="fixme" v="multiple name tags, choose one and add the other to alt_name" />
		<tag k="name" v="Djupdalsbekken;Haugomsbekken" />
		<tag k="ssr:stedsnr" v="617277" />
		<tag k="waterway" v="stream" />
	</node>
	<node id="-108928" lat="62.0522805593" lon="9.84461112043">
		<tag k="name" v="Svartbekken" />
		<tag k="ssr:stedsnr" v="112322" />
		<tag k="waterway" v="stream" />
	</node>
	<node id="-109948" lat="61.9393990946" lon="9.16886577893">
		<tag k="name" v="Øyadalsbekken" />
		<tag k="ssr:stedsnr" v="738145" />
		<tag k="waterway" v="river" />
	</node>
	<node id="-109943" lat="61.9245833291" lon="9.40658332752">
		<tag k="name" v="Bergebekken" />
		<tag k="ssr:stedsnr" v="961823" />
		<tag k="waterway" v="stream" />
	</node>
	<node id="-109245" lat="62.1530000001" lon="9.46537499764">
		<tag k="alt_name" v="Toftebekken" />
		<tag k="name" v="Toftsæterbekken" />
		<tag k="ssr:stedsnr" v="436690" />
		<tag k="waterway" v="stream" />
	</node>
	<node id="-109427" lat="62.0075111154" lon="9.13553333825">
		<tag k="name" v="Tverrgjellbekken" />
		<tag k="ssr:stedsnr" v="597331" />
		<tag k="waterway" v="stream" />
	</node>
	<node id="-109426" lat="62.0079166634" lon="9.1254638922">
		<tag k="name" v="Veslemanningen" />
		<tag k="ssr:stedsnr" v="597329" />
		<tag k="waterway" v="stream" />
	</node>
	<node id="-109937" lat="62.2382083318" lon="9.65844999087">
		<tag k="name" v="Fisketjønne" />
		<tag k="natural" v="water" />
		<tag k="ssr:stedsnr" v="961523" />
	</node>
	<node id="-109936" lat="62.2293694436" lon="9.58570277592">
		<tag k="name" v="Sagbekken" />
		<tag k="ssr:stedsnr" v="961522" />
		<tag k="waterway" v="stream" />
	</node>
	<node id="-108911" lat="61.9209499982" lon="9.29127500609">
		<tag k="name" v="Langbekken" />
		<tag k="ssr:stedsnr" v="72876" />
		<tag k="waterway" v="stream" />
	</node>
	<node id="-108908" lat="62.1733879722" lon="9.38945578526">
		<tag k="name" v="Vålåsjøen" />
		<tag k="natural" v="water" />
		<tag k="old_name" v="Vålasjøen" />
		<tag k="ssr:stedsnr" v="72691" />
		<tag k="water" v="lake" />
	</node>
	<node id="-108907" lat="62.1650833372" lon="9.28357777592">
		<tag k="alt_name" v="Nyseterbekken" />
		<tag k="name" v="Sæterbekken" />
		<tag k="ssr:stedsnr" v="72687" />
		<tag k="waterway" v="stream" />
	</node>
	<node id="-108906" lat="62.1389638915" lon="9.23962500864">
		<tag k="name" v="Studulbekken" />
		<tag k="ssr:stedsnr" v="72674" />
		<tag k="waterway" v="stream" />
	</node>
	<node id="-108903" lat="62.1087527796" lon="9.69331388401">
		<tag k="alt_name" v="Tverrlibekken" />
		<tag k="name" v="Tverrbekken" />
		<tag k="ssr:stedsnr" v="72636" />
		<tag k="waterway" v="river" />
	</node>
	<node id="-108901" lat="62.1042416691" lon="9.24688889018">
		<tag k="name" v="Gorbekken" />
		<tag k="ssr:stedsnr" v="72633" />
		<tag k="waterway" v="stream" />
	</node>
	<node id="-109406" lat="62.1575027795" lon="9.28213889124">
		<tag k="name" v="Langtjern" />
		<tag k="natural" v="water" />
		<tag k="ssr:stedsnr" v="596431" />
	</node>
	<node id="-109401" lat="62.1055555517" lon="9.11339167354">
		<tag k="name" v="Kubåsbekken" />
		<tag k="ssr:stedsnr" v="595846" />
		<tag k="waterway" v="stream" />
	</node>
	<node id="-108887" lat="62.0326777775" lon="9.56949999191">
		<tag k="alt_name" v="Hornsjøvatnet" />
		<tag k="name" v="Hornsjøen" />
		<tag k="natural" v="water" />
		<tag k="ssr:stedsnr" v="71699" />
	</node>
	<node id="-108686" lat="61.9280666706" lon="9.70963056295">
		<tag k="name" v="Langholvatnet" />
		<tag k="natural" v="water" />
		<tag k="ssr:stedsnr" v="374652" />
	</node>
	<node id="-109906" lat="62.2888666683" lon="9.3513000046">
		<tag k="name" v="Langtjørni" />
		<tag k="natural" v="water" />
		<tag k="ssr:stedsnr" v="922522" />
	</node>
	<node id="-109391" lat="61.9754277753" lon="9.24585277862">
		<tag k="name" v="Vigerusttjernet" />
		<tag k="natural" v="water" />
		<tag k="ssr:stedsnr" v="582566" />
	</node>
	<node id="-108941" lat="62.0854555517" lon="9.09953611749">
		<tag k="name" v="Simensrudfallet" />
		<tag k="ssr:stedsnr" v="111749" />
		<tag k="waterway" v="rapids" />
	</node>
	<node id="-109388" lat="62.1498833312" lon="9.32799444823">
		<tag k="name" v="Veslåe" />
		<tag k="ssr:stedsnr" v="557655" />
		<tag k="waterway" v="river" />
	</node>
	<node id="-108875" lat="61.9947444426" lon="9.80573888381">
		<tag k="name" v="Atna" />
		<tag k="ssr:stedsnr" v="71159" />
		<tag k="waterway" v="river" />
	</node>
	<node id="-109898" lat="62.1869138922" lon="9.44492222568">
		<tag k="alt_name" v="Turraren" />
		<tag k="name" v="Turaren" />
		<tag k="ssr:stedsnr" v="921746" />
		<tag k="waterway" v="stream" />
	</node>
	<node id="-109385" lat="62.1334083324" lon="9.26259999297">
		<tag k="name" v="Vesltjønn" />
		<tag k="natural" v="water" />
		<tag k="ssr:stedsnr" v="557638" />
	</node>
	<node id="-109896" lat="62.1743766985" lon="9.4710607965">
		<tag k="name" v="Avsjøen" />
		<tag k="natural" v="water" />
		<tag k="ssr:stedsnr" v="921727" />
		<tag k="water" v="lake" />
	</node>
	<node id="-108684" lat="62.046263887" lon="9.36064444691">
		<tag k="alt_name" v="Karrhustjørni" />
		<tag k="name" v="Karrustjern" />
		<tag k="natural" v="water" />
		<tag k="ssr:stedsnr" v="374649" />
	</node>
	<node id="-109893" lat="62.0755249977" lon="9.70415000771">
		<tag k="name" v="Kvannkjerrbekken" />
		<tag k="ssr:stedsnr" v="921689" />
		<tag k="waterway" v="stream" />
	</node>
	<node id="-109380" lat="62.2574833351" lon="9.39533611395">
		<tag k="name" v="Einøvlingsbekken" />
		<tag k="ssr:stedsnr" v="557493" />
		<tag k="waterway" v="stream" />
	</node>
	<node id="-109378" lat="62.2550611136" lon="9.50543611032">
		<tag k="name" v="Grautbekken" />
		<tag k="ssr:stedsnr" v="557484" />
		<tag k="waterway" v="stream" />
	</node>
	<node id="-109377" lat="62.2557223301" lon="9.6475273895">
		<tag k="alt_name" v="Kvitdalsvatnet, nordre;Nordre Kvitdalsvatnet;Kvitdalsvatnet" />
		<tag k="name" v="Nørdre Kvitdalsvatnet" />
		<tag k="natural" v="water" />
		<tag k="ssr:stedsnr" v="557483" />
		<tag k="water" v="lake" />
	</node>
	<node id="-109888" lat="62.0100805582" lon="9.33391665767">
		<tag k="alt_name" v="Eftensåe" />
		<tag k="name" v="Eftansåi" />
		<tag k="ssr:stedsnr" v="921657" />
		<tag k="waterway" v="stream" />
	</node>
	<node id="-109885" lat="62.0159222253" lon="9.25360000006">
		<tag k="name" v="Stavåe" />
		<tag k="ssr:stedsnr" v="921649" />
		<tag k="waterway" v="stream" />
	</node>
	<node id="-109884" lat="62.0236250014" lon="9.4754555513">
		<tag k="name" v="Tverrgjelbekken" />
		<tag k="ssr:stedsnr" v="921647" />
		<tag k="waterway" v="river" />
	</node>
	<node id="-109882" lat="62.0291416629" lon="9.44177500046">
		<tag k="name" v="Veslgrimsi" />
		<tag k="ssr:stedsnr" v="921644" />
		<tag k="waterway" v="stream" />
	</node>
	<node id="-109881" lat="62.0970888906" lon="9.19637499158">
		<tag k="alt_name" v="Hindåi;Hindåa" />
		<tag k="name" v="Hindåe" />
		<tag k="ssr:stedsnr" v="921632" />
		<tag k="waterway" v="river" />
	</node>
	<node id="-109879" lat="62.0456194471" lon="9.14640833605">
		<tag k="alt_name" v="Hjellåi;Hjellåa" />
		<tag k="name" v="Hjellåe" />
		<tag k="old_name" v="Hjellai" />
		<tag k="ssr:stedsnr" v="921584" />
		<tag k="waterway" v="stream" />
	</node>
	<node id="-109365" lat="62.0521749958" lon="9.33554721947">
		<tag k="name" v="Heimare Tverråe" />
		<tag k="ssr:stedsnr" v="556668" />
		<tag k="waterway" v="stream" />
	</node>
	<node id="-109870" lat="62.2280513491" lon="9.64502569352">
		<tag k="name" v="Sautjønnin" />
		<tag k="natural" v="water" />
		<tag k="ssr:stedsnr" v="921525" />
	</node>
	<node id="-109869" lat="62.0998388931" lon="9.31733889116">
		<tag k="name" v="Veslfoksåe" />
		<tag k="ssr:stedsnr" v="921677" />
		<tag k="waterway" v="stream" />
	</node>
	<node id="-109868" lat="62.0444249978" lon="9.84587777703">
		<tag k="name" v="Myrbekken" />
		<tag k="ssr:stedsnr" v="921440" />
		<tag k="waterway" v="stream" />
	</node>
	<node id="-109866" lat="61.9886111145" lon="9.28801388644">
		<tag k="name" v="Stavåe" />
		<tag k="ssr:stedsnr" v="921417" />
		<tag k="waterway" v="river" />
	</node>
	<node id="-109353" lat="62.076299996" lon="9.83200555269">
		<tag k="name" v="Streitbekken" />
		<tag k="ssr:stedsnr" v="556434" />
		<tag k="waterway" v="stream" />
	</node>
	<node id="-108765" lat="61.9221611127" lon="9.34236666187">
		<tag k="name" v="Rødølsodden" />
		<tag k="natural" v="cape" />
		<tag k="ssr:stedsnr" v="887694" />
	</node>
	<node id="-109349" lat="62.0066750013" lon="9.50072500385">
		<tag k="name" v="Persbekken" />
		<tag k="ssr:stedsnr" v="556384" />
		<tag k="waterway" v="stream" />
	</node>
	<node id="-109860" lat="61.9504305524" lon="9.47100554812">
		<tag k="name" v="Rundtjønne" />
		<tag k="natural" v="water" />
		<tag k="ssr:stedsnr" v="921893" />
	</node>
	<node id="-109859" lat="62.1060944423" lon="9.13510555825">
		<tag k="name" v="Gardsendbekken" />
		<tag k="ssr:stedsnr" v="921889" />
		<tag k="waterway" v="stream" />
	</node>
	<node id="-109261" lat="61.9612749992" lon="9.67880277001">
		<tag k="name" v="Dørålsvatnet" />
		<tag k="natural" v="water" />
		<tag k="ssr:stedsnr" v="495643" />
	</node>
	<node id="-109852" lat="62.187099999" lon="9.55193332579">
		<tag k="name" v="Gautåe" />
		<tag k="ssr:stedsnr" v="901508" />
		<tag k="waterway" v="stream" />
	</node>
	<node id="-109335" lat="62.1680749988" lon="9.37434167209">
		<tag k="name" v="Naustodden" />
		<tag k="natural" v="cape" />
		<tag k="ssr:stedsnr" v="536474" />
	</node>
	<node id="-109843" lat="62.0360194435" lon="9.35428055653">
		<tag k="name" v="Svartbekken" />
		<tag k="ssr:stedsnr" v="900986" />
		<tag k="waterway" v="stream" />
	</node>
	<node id="-108818" lat="62.1881222248" lon="9.32408055121">
		<tag k="name" v="Lesjabekken" />
		<tag k="ssr:stedsnr" v="11733" />
		<tag k="waterway" v="stream" />
	</node>
	<node id="-108815" lat="62.1059666691" lon="9.30604723117">
		<tag k="name" v="Foksåe" />
		<tag k="ssr:stedsnr" v="11691" />
		<tag k="waterway" v="river" />
	</node>
	<node id="-109837" lat="61.9978527749" lon="9.17936388369">
		<tag k="name" v="Søre Grotåe" />
		<tag k="ssr:stedsnr" v="900725" />
		<tag k="waterway" v="stream" />
	</node>
	<node id="-108812" lat="62.0995138877" lon="9.21012777403">
		<tag k="alt_name" v="Hondyrju" />
		<tag k="name" v="Hundyrju" />
		<tag k="ssr:stedsnr" v="11612" />
		<tag k="waterway" v="stream" />
	</node>
	<node id="-108811" lat="62.0496027783" lon="9.07807777482">
		<tag k="name" v="Lisbekken" />
		<tag k="ssr:stedsnr" v="11576" />
		<tag k="waterway" v="stream" />
	</node>
	<node id="-108809" lat="62.2893750036" lon="9.44030278167">
		<tag k="name" v="Kollbekken" />
		<tag k="ssr:stedsnr" v="11552" />
		<tag k="waterway" v="stream" />
	</node>
	<node id="-108807" lat="62.3068916657" lon="9.29730000581">
		<tag k="loc_name" v="Istjønne" />
		<tag k="name" v="Istjørni" />
		<tag k="natural" v="water" />
		<tag k="ssr:stedsnr" v="11549" />
	</node>
	<node id="-108804" lat="61.9650666633" lon="9.17437778289">
		<tag k="name" v="Musa" />
		<tag k="ssr:stedsnr" v="11230" />
		<tag k="waterway" v="river" />
	</node>
	<node id="-108800" lat="61.9139527801" lon="9.33563888394">
		<tag k="alt_name" v="Ørjabekken" />
		<tag k="name" v="Uråsbekken" />
		<tag k="ssr:stedsnr" v="10982" />
		<tag k="waterway" v="stream" />
	</node>
	<node id="-108799" lat="61.9892638886" lon="9.60098889735">
		<tag k="name" v="Haverdalsåe" />
		<tag k="ssr:stedsnr" v="10699" />
		<tag k="waterway" v="river" />
	</node>
	<node id="-109821" lat="62.1373083323" lon="9.60932777846">
		<tag k="name" v="Tjønnbekken" />
		<tag k="ssr:stedsnr" v="861639" />
		<tag k="waterway" v="stream" />
	</node>
	<node id="-108795" lat="61.9579138896" lon="9.59792778453">
		<tag k="name" v="Djupdalsbekken" />
		<tag k="ssr:stedsnr" v="10655" />
		<tag k="waterway" v="stream" />
	</node>
	<node id="-108794" lat="62.0181694454" lon="9.54239444754">
		<tag k="name" v="Svartknarttjønnin" />
		<tag k="natural" v="water" />
		<tag k="ssr:stedsnr" v="10652" />
	</node>
	<node id="-109304" lat="62.2026694466" lon="9.59390278551">
		<tag k="name" v="Myrbærtjønne" />
		<tag k="natural" v="water" />
		<tag k="ssr:stedsnr" v="507844" />
	</node>
	<node id="-109303" lat="62.0420555568" lon="9.5773833242">
		<tag k="alt_name" v="Steintjern" />
		<tag k="name" v="Steintjørni" />
		<tag k="natural" v="water" />
		<tag k="ssr:stedsnr" v="507834" />
	</node>
	<node id="-109302" lat="61.9042527756" lon="9.40367499721">
		<tag k="name" v="Storrustbekken" />
		<tag k="ssr:stedsnr" v="496982" />
		<tag k="waterway" v="stream" />
	</node>
	<node id="-108841" lat="62.0603305522" lon="9.10635000681">
		<tag k="name" v="Dombfossen" />
		<tag k="natural" v="waterfall" />
		<tag k="ssr:stedsnr" v="50745" />
	</node>
	<node id="-108712" lat="62.1593638902" lon="9.44495555827">
		<tag k="alt_name" v="Haukskardåe" />
		<tag k="name" v="Haukåi" />
		<tag k="ssr:stedsnr" v="375676" />
		<tag k="waterway" v="river" />
	</node>
	<node id="-109806" lat="62.2111617229" lon="9.64045575694">
		<tag k="name" v="Børsungtjønne" />
		<tag k="natural" v="water" />
		<tag k="ssr:stedsnr" v="860762" />
	</node>
	<node id="-109291" lat="62.167227775" lon="9.51478055261">
		<tag k="alt_name" v="Hytt" />
		<tag k="name" v="Hytthaugbekken" />
		<tag k="ssr:stedsnr" v="496712" />
		<tag k="waterway" v="stream" />
	</node>
	<node id="-109802" lat="62.187780559" lon="9.38889999824">
		<tag k="name" v="Kurraren" />
		<tag k="ssr:stedsnr" v="860736" />
		<tag k="waterway" v="stream" />
	</node>
	<node id="-109801" lat="62.0737361139" lon="9.541738883">
		<tag k="name" v="Buåe" />
		<tag k="ssr:stedsnr" v="860716" />
		<tag k="waterway" v="river" />
	</node>
	<node id="-109799" lat="61.9802638852" lon="9.80712777052">
		<tag k="name" v="Vidjedalsbekken" />
		<tag k="ssr:stedsnr" v="860680" />
		<tag k="waterway" v="stream" />
	</node>
	<node id="-109796" lat="62.0542555542" lon="9.07449167377">
		<tag k="name" v="Blesterbekken" />
		<tag k="ssr:stedsnr" v="860623" />
		<tag k="waterway" v="stream" />
	</node>
	<node id="-109861" lat="61.9631388884" lon="9.31135278246">
		<tag k="name" v="Kvannbekken" />
		<tag k="ssr:stedsnr" v="921917" />
		<tag k="waterway" v="stream" />
	</node>
	<node id="-108764" lat="61.9304611079" lon="9.29050555313">
		<tag k="name" v="Statshaugbekken" />
		<tag k="ssr:stedsnr" v="887686" />
		<tag k="waterway" v="stream" />
	</node>
	<node id="-109274" lat="62.0248638932" lon="9.11699445127">
		<tag k="name" v="Tungbekken" />
		<tag k="ssr:stedsnr" v="496563" />
		<tag k="waterway" v="stream" />
	</node>
	<node id="-109272" lat="62.0131416697" lon="9.13591388159">
		<tag k="alt_name" v="Manningåa" />
		<tag k="name" v="Maningi" />
		<tag k="ssr:stedsnr" v="496554" />
		<tag k="waterway" v="river" />
	</node>
	<node id="-109270" lat="62.2483944424" lon="9.46486944187">
		<tag k="name" v="Tjønnhøbekken" />
		<tag k="ssr:stedsnr" v="496537" />
		<tag k="waterway" v="stream" />
	</node>
	<node id="-109776" lat="62.024483335" lon="9.56045277048">
		<tag k="name" v="Kroktjern" />
		<tag k="ssr:stedsnr" v="840548" />
		<tag k="waterway" v="stream" />
	</node>
	<node id="-108750" lat="62.1294944417" lon="9.2988888983">
		<tag k="name" v="Urdbekktjønn" />
		<tag k="ssr:stedsnr" v="475468" />
		<tag k="waterway" v="stream" />
	</node>
	<node id="-109773" lat="62.1654138847" lon="9.36105277315">
		<tag k="name" v="Nottjern" />
		<tag k="natural" v="water" />
		<tag k="ssr:stedsnr" v="840494" />
	</node>
	<node id="-109772" lat="62.1729333373" lon="9.43870832433">
		<tag k="name" v="Anfinnsosen" />
		<tag k="natural" v="bay" />
		<tag k="ssr:stedsnr" v="840490" />
	</node>
	<node id="-108578" lat="62.101299996" lon="9.17468332862">
		<tag k="name" v="Stakstobekken" />
		<tag k="ssr:stedsnr" v="294098" />
		<tag k="waterway" v="stream" />
	</node>
	<node id="-108919" lat="62.2188222228" lon="9.324994439">
		<tag k="name" v="Svartbergbekken" />
		<tag k="ssr:stedsnr" v="83926" />
		<tag k="waterway" v="stream" />
	</node>
	<node id="-109256" lat="61.9194666699" lon="9.34799165976">
		<tag k="name" v="Langøygarden" />
		<tag k="natural" v="cape" />
		<tag k="ssr:stedsnr" v="462671" />
	</node>
	<node id="-109765" lat="62.1018194475" lon="9.76422500018">
		<tag k="name" v="Meseterbekken" />
		<tag k="ssr:stedsnr" v="840286" />
		<tag k="waterway" v="stream" />
	</node>
	<node id="-109760" lat="61.8969166674" lon="9.37070278375">
		<tag k="name" v="Øverjordsbekken" />
		<tag k="ssr:stedsnr" v="838972" />
		<tag k="waterway" v="stream" />
	</node>
	<node id="-108735" lat="62.0940416704" lon="9.21734166104">
		<tag k="name" v="Dombås vannverk" />
		<tag k="ssr:stedsnr" v="475103" />
		<tag k="waterway" v="dam" />
	</node>
	<node id="-109246" lat="62.1739111119" lon="9.33806110276">
		<tag k="name" v="Storløkebekken" />
		<tag k="ssr:stedsnr" v="436710" />
		<tag k="waterway" v="stream" />
	</node>
	<node id="-108733" lat="62.0844833356" lon="9.23110833778">
		<tag k="name" v="Gamleseterbekken" />
		<tag k="ssr:stedsnr" v="475102" />
		<tag k="waterway" v="stream" />
	</node>
	<node id="-109243" lat="62.1521916685" lon="9.33918611919">
		<tag k="name" v="Stortjønn" />
		<tag k="natural" v="water" />
		<tag k="ssr:stedsnr" v="436674" />
	</node>
	<node id="-108729" lat="62.0796305578" lon="9.11713888273">
		<tag k="name" v="Tverrbekken" />
		<tag k="ssr:stedsnr" v="474789" />
		<tag k="waterway" v="stream" />
	</node>
	<node id="-109239" lat="62.1296250007" lon="9.35120000447">
		<tag k="name" v="Storhusbekken" />
		<tag k="ssr:stedsnr" v="436658" />
		<tag k="waterway" v="stream" />
	</node>
	<node id="-108745" lat="62.0188611074" lon="9.15063332889">
		<tag k="name" v="Storfallet" />
		<tag k="natural" v="waterfall" />
		<tag k="ssr:stedsnr" v="475344" />
	</node>
	<node id="-108710" lat="62.1334361134" lon="9.28046944541">
		<tag k="name" v="Løken" />
		<tag k="old_name" v="Løkjen" />
		<tag k="ssr:stedsnr" v="375644" />
		<tag k="waterway" v="river" />
	</node>
	<node id="-109235" lat="62.2898777764" lon="9.37209723137">
		<tag k="alt_name" v="Stridåi" />
		<tag k="name" v="Stridåe" />
		<tag k="old_name" v="Stridai" />
		<tag k="ssr:stedsnr" v="436529" />
		<tag k="waterway" v="river" />
	</node>
	<node id="-109746" lat="61.981238886" lon="9.40975555959">
		<tag k="name" v="Ryddølstjønne" />
		<tag k="natural" v="water" />
		<tag k="ssr:stedsnr" v="800927" />
	</node>
	<node id="-109233" lat="62.0034611149" lon="9.09842778561">
		<tag k="name" v="Maningtjørni" />
		<tag k="natural" v="water" />
		<tag k="ssr:stedsnr" v="436498" />
	</node>
	<node id="-109232" lat="62.261600001" lon="9.63844721277">
		<tag k="name" v="Fisktjørnin" />
		<tag k="natural" v="water" />
		<tag k="ssr:stedsnr" v="436493" />
	</node>
	<node id="-108719" lat="61.9320111093" lon="9.34809999518">
		<tag k="name" v="Ryddølsåe" />
		<tag k="ssr:stedsnr" v="375907" />
		<tag k="waterway" v="stream" />
	</node>
	<node id="-109229" lat="62.2666500027" lon="9.45871111795">
		<tag k="name" v="Storfallet" />
		<tag k="natural" v="waterfall" />
		<tag k="ssr:stedsnr" v="436481" />
	</node>
	<node id="-109227" lat="61.9853416635" lon="9.57774444482">
		<tag k="name" v="Haverdalsåe" />
		<tag k="ssr:stedsnr" v="435937" />
		<tag k="waterway" v="stream" />
	</node>
	<node id="-108714" lat="62.167200002" lon="9.4850222274">
		<tag k="name" v="Skridubekken" />
		<tag k="ssr:stedsnr" v="375695" />
		<tag k="waterway" v="stream" />
	</node>
	<node id="-109737" lat="62.1513499959" lon="9.42386667115">
		<tag k="name" v="Haukskardtjørni" />
		<tag k="natural" v="water" />
		<tag k="ssr:stedsnr" v="800681" />
	</node>
	<node id="-109224" lat="62.1851499985" lon="9.52223610577">
		<tag k="name" v="Lomtjønne" />
		<tag k="natural" v="water" />
		<tag k="ssr:stedsnr" v="435747" />
	</node>
	<node id="-109223" lat="62.1908527785" lon="9.50901943888">
		<tag k="name" v="Folla" />
		<tag k="ssr:stedsnr" v="435746" />
		<tag k="waterway" v="river" />
	</node>
	<node id="-109222" lat="62.1944861144" lon="9.52733056429">
		<tag k="alt_name" v="Heglingen" />
		<tag k="name" v="Hegglingen" />
		<tag k="natural" v="water" />
		<tag k="ssr:stedsnr" v="435740" />
	</node>
	<node id="-109425" lat="62.0947277742" lon="9.78998888597">
		<tag k="name" v="Gruvbekken" />
		<tag k="ssr:stedsnr" v="597296" />
		<tag k="waterway" v="stream" />
	</node>
	<node id="-109220" lat="61.9353138868" lon="9.80329723148">
		<tag k="name" v="Bergedalstjønnin" />
		<tag k="natural" v="water" />
		<tag k="ssr:stedsnr" v="435675" />
		<tag k="water" v="lake" />
	</node>
	<node id="-109424" lat="62.1851277791" lon="9.4952833423">
		<tag k="name" v="Svartosen" />
		<tag k="natural" v="bay" />
		<tag k="ssr:stedsnr" v="597276" />
	</node>
	<node id="-108702" lat="62.2427055576" lon="9.51568611912">
		<tag k="name" v="Svone" />
		<tag k="ssr:stedsnr" v="375461" />
		<tag k="waterway" v="river" />
	</node>
	<node id="-108700" lat="61.9887527747" lon="9.2029694444">
		<tag k="name" v="Ragnhildbekken" />
		<tag k="ssr:stedsnr" v="375138" />
		<tag k="waterway" v="stream" />
	</node>
	<node id="-109722" lat="61.9951055563" lon="9.36233055962">
		<tag k="name" v="Stavåstjønne" />
		<tag k="natural" v="water" />
		<tag k="ssr:stedsnr" v="800373" />
	</node>
	<node id="-108697" lat="61.9789361112" lon="9.32004721812">
		<tag k="name" v="Gammelsæterbekken" />
		<tag k="ssr:stedsnr" v="374935" />
		<tag k="waterway" v="stream" />
	</node>
	<node id="-109720" lat="61.9954972196" lon="9.29534999776">
		<tag k="alt_name" v="Tungåe" />
		<tag k="name" v="Vesleåa" />
		<tag k="ssr:stedsnr" v="800365" />
		<tag k="waterway" v="stream" />
	</node>
	<node id="-109716" lat="62.215397226" lon="9.4062472168">
		<tag k="name" v="Grisungtjørni" />
		<tag k="natural" v="water" />
		<tag k="ssr:stedsnr" v="799767" />
	</node>
	<node id="-108689" lat="62.1870666643" lon="9.49703888703">
		<tag k="name" v="Lonin" />
		<tag k="place" v="locality" />
		<tag k="ssr:stedsnr" v="374734" />
	</node>
	<node id="-108687" lat="61.993716668" lon="9.62526110988">
		<tag k="name" v="Ytre Djupdalsbekken" />
		<tag k="ssr:stedsnr" v="374683" />
		<tag k="waterway" v="stream" />
	</node>
	<node id="-109710" lat="61.9206305529" lon="9.67731944117">
		<tag k="name" v="Verkilsåe" />
		<tag k="ssr:stedsnr" v="799678" />
		<tag k="waterway" v="stream" />
	</node>
	<node id="-109708" lat="62.0664222249" lon="9.35300278059">
		<tag k="name" v="Innare Tverråe" />
		<tag k="ssr:stedsnr" v="799668" />
		<tag k="waterway" v="stream" />
	</node>
	<node id="-109705" lat="62.0131388894" lon="9.58569444437">
		<tag k="name" v="Skortbekken" />
		<tag k="ssr:stedsnr" v="799656" />
		<tag k="waterway" v="stream" />
	</node>
	<node id="-109190" lat="62.0472111151" lon="9.13211110731">
		<tag k="name" v="Krekaeidet" />
		<tag k="natural" v="cape" />
		<tag k="ssr:stedsnr" v="415331" />
	</node>
	<node id="-109188" lat="62.0683083353" lon="9.51847778557">
		<tag k="name" v="Verkensåe" />
		<tag k="ssr:stedsnr" v="415278" />
		<tag k="waterway" v="stream" />
	</node>
	<node id="-109248" lat="61.947363892" lon="9.47517222563">
		<tag k="name" v="Langtjønne" />
		<tag k="natural" v="water" />
		<tag k="ssr:stedsnr" v="436888" />
	</node>
	<node id="-109182" lat="62.122897218" lon="9.23276945209">
		<tag k="name" v="Langmyrbekken" />
		<tag k="ssr:stedsnr" v="415057" />
		<tag k="waterway" v="stream" />
	</node>
	<node id="-109277" lat="62.042769447" lon="9.08362499264">
		<tag k="alt_name" v="Djupdalsåa" />
		<tag k="name" v="Djupdalsåi" />
		<tag k="ssr:stedsnr" v="496580" />
		<tag k="waterway" v="stream" />
	</node>
	<node id="-108667" lat="62.1045416704" lon="9.18671666508">
		<tag k="name" v="Stormyrbekken" />
		<tag k="ssr:stedsnr" v="354988" />
		<tag k="waterway" v="stream" />
	</node>
	<node id="-109176" lat="62.1181138894" lon="9.63345554921">
		<tag k="name" v="Fallfossen" />
		<tag k="natural" v="waterfall" />
		<tag k="ssr:stedsnr" v="265850" />
	</node>
	<node id="-109173" lat="62.1464222197" lon="9.3497250068">
		<tag k="name" v="Springarbekken" />
		<tag k="ssr:stedsnr" v="254665" />
		<tag k="waterway" v="stream" />
	</node>
	<node id="-109169" lat="62.1369055546" lon="9.31153333908">
		<tag k="name" v="Kringluttjønne" />
		<tag k="natural" v="water" />
		<tag k="ssr:stedsnr" v="254644" />
	</node>
	<node id="-109168" lat="62.107113891" lon="9.59628889311">
		<tag k="name" v="Nørdre Tverråe" />
		<tag k="ssr:stedsnr" v="254628" />
		<tag k="waterway" v="stream" />
	</node>
	<node id="-109165" lat="62.2467027786" lon="9.68232777294">
		<tag k="name" v="Dålåbekken" />
		<tag k="ssr:stedsnr" v="254493" />
		<tag k="waterway" v="stream" />
	</node>
	<node id="-109367" lat="62.0330204389" lon="9.59575844756">
		<tag k="name" v="Storrvatnet" />
		<tag k="natural" v="water" />
		<tag k="old_name" v="Storvatnet" />
		<tag k="ssr:stedsnr" v="556679" />
		<tag k="water" v="lake" />
	</node>
	<node id="-108649" lat="62.0517472235" lon="9.57461389062">
		<tag k="name" v="Freksbekken" />
		<tag k="ssr:stedsnr" v="354284" />
		<tag k="waterway" v="stream" />
	</node>
	<node id="-108648" lat="62.1040611083" lon="9.12634166131">
		<tag k="name" v="Vassholet" />
		<tag k="natural" v="spring" />
		<tag k="ssr:stedsnr" v="354125" />
	</node>
	<node id="-109159" lat="62.2171222213" lon="9.56785555273">
		<tag k="name" v="Kvernbekken" />
		<tag k="ssr:stedsnr" v="253754" />
		<tag k="waterway" v="stream" />
	</node>
	<node id="-109155" lat="61.9855777753" lon="9.78912222815">
		<tag k="name" v="Piktjønne" />
		<tag k="natural" v="water" />
		<tag k="ssr:stedsnr" v="253691" />
	</node>
	<node id="-109663" lat="61.9706305532" lon="9.24486111808">
		<tag k="name" v="Andgardstjern" />
		<tag k="natural" v="water" />
		<tag k="ssr:stedsnr" v="764557" />
	</node>
	<node id="-109372" lat="61.9495138861" lon="9.23880276894">
		<tag k="name" v="Musbekken" />
		<tag k="ssr:stedsnr" v="556919" />
		<tag k="waterway" v="stream" />
	</node>
	<node id="-109659" lat="61.9820833317" lon="9.35404723146">
		<tag k="name" v="Nysæterbekken" />
		<tag k="ssr:stedsnr" v="739914" />
		<tag k="waterway" v="stream" />
	</node>
	<node id="-109658" lat="61.950275" lon="9.25440000649">
		<tag k="name" v="Ilka" />
		<tag k="ssr:stedsnr" v="739907" />
		<tag k="waterway" v="river" />
	</node>
	<node id="-109655" lat="62.1227590408" lon="9.17983696435">
		<tag k="alt_name" v="Lomtjørni" />
		<tag k="name" v="Lomtjønn" />
		<tag k="natural" v="water" />
		<tag k="ssr:stedsnr" v="739860" />
	</node>
	<node id="-109653" lat="62.165100004" lon="9.24492222797">
		<tag k="fixme" v="multiple name tags, choose one and add the other to alt_name" />
		<tag k="name" v="Falketjønne;Lesjatjønne" />
		<tag k="natural" v="water" />
		<tag k="ssr:stedsnr" v="739710" />
	</node>
	<node id="-109652" lat="62.1838972253" lon="9.49439999758">
		<tag k="name" v="Burtjønne" />
		<tag k="natural" v="water" />
		<tag k="ssr:stedsnr" v="739700" />
	</node>
	<node id="-108625" lat="61.9161305568" lon="9.39052221783">
		<tag k="name" v="Kvennbekken" />
		<tag k="ssr:stedsnr" v="314979" />
		<tag k="waterway" v="stream" />
	</node>
	<node id="-109325" lat="62.0766527815" lon="9.81534167197">
		<tag k="name" v="Langtjern" />
		<tag k="natural" v="water" />
		<tag k="ssr:stedsnr" v="536276" />
	</node>
	<node id="-109132" lat="62.0173833375" lon="9.13214721298">
		<tag k="name" v="Rusthaugbekken" />
		<tag k="ssr:stedsnr" v="233370" />
		<tag k="waterway" v="stream" />
	</node>
	<node id="-109643" lat="62.2732749959" lon="9.70864722542">
		<tag k="name" v="Knutshøbekken" />
		<tag k="ssr:stedsnr" v="739518" />
		<tag k="waterway" v="stream" />
	</node>
	<node id="-109836" lat="62.0495444436" lon="9.12859444922">
		<tag k="name" v="Hjelleidet" />
		<tag k="natural" v="cape" />
		<tag k="ssr:stedsnr" v="900513" />
	</node>
	<node id="-109126" lat="62.1929694443" lon="9.51567777464">
		<tag k="name" v="Langosen" />
		<tag k="natural" v="bay" />
		<tag k="ssr:stedsnr" v="233281" />
	</node>
	<node id="-109637" lat="61.9824916691" lon="9.20048611296">
		<tag k="name" v="Breiddalsbekken" />
		<tag k="ssr:stedsnr" v="739160" />
		<tag k="waterway" v="stream" />
	</node>
	<node id="-108611" lat="62.1415916672" lon="9.40358888516">
		<tag k="name" v="Haukbekken" />
		<tag k="ssr:stedsnr" v="314697" />
		<tag k="waterway" v="stream" />
	</node>
	<node id="-109121" lat="62.1007722204" lon="9.22169999806">
		<tag k="name" v="Gorbekken" />
		<tag k="ssr:stedsnr" v="232981" />
		<tag k="waterway" v="stream" />
	</node>
	<node id="-109631" lat="62.2138166697" lon="9.53240276938">
		<tag k="name" v="Geitbergtjønne" />
		<tag k="natural" v="water" />
		<tag k="ssr:stedsnr" v="738745" />
	</node>
	<node id="-109630" lat="62.2016611114" lon="9.63151667341">
		<tag k="name" v="Holtjønne" />
		<tag k="natural" v="water" />
		<tag k="ssr:stedsnr" v="738734" />
	</node>
	<node id="-108603" lat="61.9708833368" lon="9.63199999732">
		<tag k="name" v="Langfonnskridu" />
		<tag k="ssr:stedsnr" v="314644" />
		<tag k="waterway" v="stream" />
	</node>
	<node id="-109626" lat="62.0821638899" lon="9.45256111262">
		<tag k="name" v="Verkjesåe" />
		<tag k="ssr:stedsnr" v="738675" />
		<tag k="waterway" v="river" />
	</node>
	<node id="-109625" lat="62.0398722234" lon="9.53128889742">
		<tag k="name" v="Ytre Bottjønne" />
		<tag k="natural" v="water" />
		<tag k="ssr:stedsnr" v="738658" />
	</node>
	<node id="-109623" lat="62.0548916663" lon="9.3524027777">
		<tag k="name" v="Tverråkvislin" />
		<tag k="ssr:stedsnr" v="738649" />
		<tag k="waterway" v="stream" />
	</node>
	<node id="-108595" lat="62.2431709593" lon="9.34280290259">
		<tag k="name" v="Einøvlingsvatnet" />
		<tag k="natural" v="water" />
		<tag k="ssr:stedsnr" v="314547" />
		<tag k="water" v="lake" />
	</node>
	<node id="-108723" lat="62.1803305575" lon="9.48343054949">
		<tag k="name" v="Sygardsosen" />
		<tag k="natural" v="bay" />
		<tag k="ssr:stedsnr" v="399441" />
	</node>
	<node id="-108591" lat="62.0730138858" lon="9.7422222183">
		<tag k="alt_name" v="Skriubekken" />
		<tag k="name" v="Skridubekken" />
		<tag k="ssr:stedsnr" v="314412" />
		<tag k="waterway" v="stream" />
	</node>
	<node id="-109100" lat="61.973547225" lon="9.32472500129">
		<tag k="name" v="Sjugurdsåe" />
		<tag k="ssr:stedsnr" v="193925" />
		<tag k="waterway" v="stream" />
	</node>
	<node id="-109099" lat="61.9641111104" lon="9.35750278029">
		<tag k="name" v="Måsåhustjønne" />
		<tag k="natural" v="water" />
		<tag k="ssr:stedsnr" v="193924" />
	</node>
	<node id="-108915" lat="61.9422249986" lon="9.43606389609">
		<tag k="name" v="Turrtjønnin" />
		<tag k="natural" v="water" />
		<tag k="ssr:stedsnr" v="72888" />
	</node>
	<node id="-109660" lat="61.9799000011" lon="9.35840277187">
		<tag k="name" v="Kringlotbekken" />
		<tag k="ssr:stedsnr" v="739917" />
		<tag k="waterway" v="stream" />
	</node>
	<node id="-109605" lat="61.9105388913" lon="9.3619472165">
		<tag k="name" v="Kvennbekken" />
		<tag k="ssr:stedsnr" v="718751" />
		<tag k="waterway" v="stream" />
	</node>
	<node id="-109090" lat="62.1414333318" lon="9.3217833296">
		<tag k="name" v="Steintjønne" />
		<tag k="natural" v="water" />
		<tag k="ssr:stedsnr" v="193675" />
	</node>
	<node id="-109080" lat="62.3076972192" lon="9.34115000334">
		<tag k="name" v="Stridåtjørnin" />
		<tag k="natural" v="water" />
		<tag k="ssr:stedsnr" v="193558" />
	</node>
	<node id="-109079" lat="62.3278695256" lon="9.23326144318">
		<tag k="loc_name" v="Larstjønnin" />
		<tag k="name" v="Larstjørnin" />
		<tag k="natural" v="water" />
		<tag k="ssr:stedsnr" v="193555" />
		<tag k="water" v="lake" />
	</node>
	<node id="-109580" lat="62.0836138861" lon="9.18869445273">
		<tag k="name" v="Skrebekken" />
		<tag k="ssr:stedsnr" v="718109" />
		<tag k="waterway" v="stream" />
	</node>
	<node id="-109062" lat="62.0707500011" lon="9.6754305624">
		<tag k="alt_name" v="Skriubekken" />
		<tag k="name" v="Skridubekken" />
		<tag k="ssr:stedsnr" v="192681" />
		<tag k="waterway" v="stream" />
	</node>
	<node id="-109060" lat="61.9845027745" lon="9.75901387951">
		<tag k="name" v="Gammalbubekken" />
		<tag k="ssr:stedsnr" v="192670" />
		<tag k="waterway" v="stream" />
	</node>
	<node id="-109059" lat="61.9697583355" lon="9.7020555598">
		<tag k="name" v="Ragnhildstadbekken" />
		<tag k="ssr:stedsnr" v="192669" />
		<tag k="waterway" v="stream" />
	</node>
	<node id="-109058" lat="61.9773444417" lon="9.8482666586">
		<tag k="name" v="Neverbutjønne" />
		<tag k="natural" v="water" />
		<tag k="ssr:stedsnr" v="192667" />
	</node>
</osm>
