<?xml version="1.0" encoding="UTF-8"?>
<<<<<<< HEAD
<osm version="0.6" generator="osmapis">
	<node lat="62.255063885595824" lon="5.834886106049081" id="-1333">
		<tag k="name" v="Aursnesvatnet" />
		<tag k="natural" v="water" />
		<tag k="ssr:stedsnr" v="10213" />
	</node>
	<node lat="62.31097500106745" lon="5.9105138956443675" id="-1334">
		<tag k="name" v="Fjellsvatnet" />
		<tag k="natural" v="water" />
		<tag k="ssr:stedsnr" v="11778" />
		<tag k="water" v="lake" />
	</node>
	<node lat="62.273816662313536" lon="5.933413886380547" id="-1335">
		<tag k="name" v="Kvitåa" />
		<tag k="ssr:stedsnr" v="233236" />
		<tag k="waterway" v="stream" />
	</node>
	<node lat="62.3890972259023" lon="5.930913886495528" id="-1348">
		<tag k="name" v="Brørevatnet" />
=======
<osm generator="osmapis" version="0.6">
	<node id="-62848" lat="62.3123305544" lon="5.83787499767">
		<tag k="name" v="Sundgotvatnet" />
		<tag k="natural" v="water" />
		<tag k="ssr:stedsnr" v="156557" />
	</node>
	<node id="-63125" lat="62.2993444484" lon="5.87678333784">
		<tag k="name" v="Kopane" />
		<tag k="natural" v="water" />
		<tag k="ssr:stedsnr" v="824535" />
	</node>
	<node id="-62460" lat="62.3633416682" lon="5.85525000404">
		<tag k="fixme" v="multiple name tags, choose one and add the other to alt_name" />
		<tag k="name" v="Tverrbergelva;Tverrvadelva" />
		<tag k="ssr:stedsnr" v="132851" />
		<tag k="waterway" v="river" />
	</node>
	<node id="-63099" lat="62.2816666693" lon="5.93419445191">
		<tag k="name" v="Laupsvatnet" />
		<tag k="natural" v="water" />
		<tag k="ssr:stedsnr" v="799191" />
	</node>
	<node id="-62586" lat="62.3434222207" lon="5.90928332591">
		<tag k="name" v="Hareidseidet" />
		<tag k="natural" v="strait" />
		<tag k="ssr:stedsnr" v="556855" />
	</node>
	<node id="-62968" lat="62.3099666691" lon="5.82718055458">
		<tag k="name" v="Kjerringnesvatnet" />
		<tag k="natural" v="water" />
		<tag k="ssr:stedsnr" v="520562" />
	</node>
	<node id="-63094" lat="62.2987472237" lon="5.93346388279">
		<tag k="name" v="Saudvika" />
		<tag k="natural" v="bay" />
		<tag k="ssr:stedsnr" v="783134" />
	</node>
	<node id="-62832" lat="62.3744555599" lon="5.90855000331">
		<tag k="name" v="Mosvasselva" />
		<tag k="ssr:stedsnr" v="131893" />
		<tag k="waterway" v="stream" />
	</node>
	<node id="-62952" lat="62.299716666" lon="5.94008333273">
		<tag k="name" v="Skinnstadneset" />
		<tag k="natural" v="bay" />
		<tag k="ssr:stedsnr" v="419159" />
	</node>
	<node id="-62957" lat="62.2643777814" lon="5.89083055511">
		<tag k="name" v="Havågsvatnet" />
		<tag k="natural" v="water" />
		<tag k="ssr:stedsnr" v="435201" />
	</node>
	<node id="-62444" lat="62.398427778" lon="5.86181389714">
		<tag k="name" v="Ørstagrova" />
		<tag k="ssr:stedsnr" v="96605" />
		<tag k="waterway" v="stream" />
	</node>
	<node id="-63058" lat="62.2814472212" lon="5.91460277839">
		<tag k="alt_name" v="Undelaupsvatnet" />
		<tag k="name" v="Hundelaupsvatnet" />
		<tag k="natural" v="water" />
		<tag k="ssr:stedsnr" v="738187" />
	</node>
	<node id="-62953" lat="62.3631388879" lon="5.88691667516">
		<tag k="name" v="Kleivane" />
		<tag k="ssr:stedsnr" v="423255" />
		<tag k="waterway" v="rapids" />
	</node>
	<node id="-63080" lat="62.4088944433" lon="5.89484443824">
		<tag k="name" v="Leiseelva" />
		<tag k="ssr:stedsnr" v="763577" />
		<tag k="waterway" v="stream" />
	</node>
	<node id="-63079" lat="62.2896583348" lon="5.88829721419">
		<tag k="name" v="Breidesvæelva" />
		<tag k="ssr:stedsnr" v="763575" />
		<tag k="waterway" v="stream" />
	</node>
	<node id="-62417" lat="62.2738166623" lon="5.93341388638">
		<tag k="name" v="Kvitåa" />
		<tag k="ssr:stedsnr" v="233236" />
		<tag k="waterway" v="stream" />
	</node>
	<node id="-62436" lat="62.4049944452" lon="5.92985277305">
		<tag k="name" v="Svartevatnet" />
		<tag k="natural" v="water" />
		<tag k="ssr:stedsnr" v="253938" />
	</node>
	<node id="-62459" lat="62.3392555554" lon="5.8912194502">
		<tag k="name" v="Sauneselva" />
		<tag k="ssr:stedsnr" v="132833" />
		<tag k="waterway" v="stream" />
	</node>
	<node id="-63070" lat="62.2582305566" lon="5.86066389004">
		<tag k="name" v="Selvågsvatnet" />
		<tag k="natural" v="water" />
		<tag k="ssr:stedsnr" v="763533" />
	</node>
	<node id="-62811" lat="62.3583833347" lon="5.83798054703">
		<tag k="alt_name" v="Raudelva" />
		<tag k="name" v="Raudeelva" />
		<tag k="ssr:stedsnr" v="96584" />
		<tag k="waterway" v="stream" />
	</node>
	<node id="-62937" lat="62.2588722261" lon="5.89338887967">
		<tag k="name" v="Eiksundelva" />
		<tag k="ssr:stedsnr" v="399515" />
		<tag k="waterway" v="stream" />
	</node>
	<node id="-63064" lat="62.413377776" lon="5.95000832544">
		<tag k="alt_name" v="Skinnalivatnet" />
		<tag k="name" v="Skinnalidvatnet" />
>>>>>>> e1d4bc35ff8a6074a6f2e91616a996b547c36f15
		<tag k="natural" v="water" />
		<tag k="ssr:stedsnr" v="35610" />
		<tag k="water" v="lake" />
	</node>
<<<<<<< HEAD
	<node lat="62.308111107167534" lon="5.908680565111389" id="-1351">
		<tag k="name" v="Fjellsstranda" />
		<tag k="natural" v="beach" />
		<tag k="ssr:stedsnr" v="35619" />
	</node>
	<node lat="62.39842777801886" lon="5.861813897135305" id="-1365">
		<tag k="name" v="Ørstagrova" />
		<tag k="ssr:stedsnr" v="96605" />
		<tag k="waterway" v="stream" />
	</node>
	<node lat="62.404994445199314" lon="5.929852773048377" id="-1389">
		<tag k="name" v="Svartevatnet" />
		<tag k="natural" v="water" />
		<tag k="ssr:stedsnr" v="253938" />
	</node>
	<node lat="62.41915833714923" lon="5.914277784701669" id="-1413">
		<tag k="name" v="Ytre Fløelva" />
		<tag k="ssr:stedsnr" v="233928" />
		<tag k="waterway" v="stream" />
	</node>
	<node lat="62.2409972204592" lon="5.883780559061361" id="-1463">
		<tag k="name" v="Storevatnet" />
		<tag k="natural" v="water" />
		<tag k="ssr:stedsnr" v="338410" />
	</node>
	<node lat="62.30331388866479" lon="5.930311117637259" id="-1473">
=======
	<node id="-62935" lat="62.4175527773" lon="5.91581667367">
		<tag k="name" v="Elvane" />
		<tag k="ssr:stedsnr" v="399490" />
		<tag k="waterway" v="stream" />
	</node>
	<node id="-62548" lat="62.3644805564" lon="5.84451111128">
		<tag k="name" v="Ulsteinelva" />
		<tag k="ssr:stedsnr" v="496839" />
		<tag k="waterway" v="stream" />
	</node>
	<node id="-63186" lat="62.3744410136" lon="5.9086974868">
		<tag k="alt_name" v="Mosvatnelva" />
		<tag k="name" v="Mosvasselva" />
		<tag k="ssr:stedsnr" v="763717" />
		<tag k="waterway" v="river" />
	</node>
	<node id="-62545" lat="62.3480166624" lon="5.88841943808">
		<tag k="name" v="Gamleeidet" />
		<tag k="natural" v="strait" />
		<tag k="ssr:stedsnr" v="496831" />
	</node>
	<node id="-63055" lat="62.2873166708" lon="5.89376667158">
		<tag k="alt_name" v="Ringstadelva" />
		<tag k="name" v="Haddalselva" />
		<tag k="ssr:stedsnr" v="738147" />
		<tag k="waterway" v="river" />
	</node>
	<node id="-62923" lat="62.3033138887" lon="5.93031111764">
>>>>>>> e1d4bc35ff8a6074a6f2e91616a996b547c36f15
		<tag k="name" v="Bukkholmen" />
		<tag k="place" v="islet" />
		<tag k="ssr:stedsnr" v="358150" />
	</node>
<<<<<<< HEAD
	<node lat="62.41755277731157" lon="5.915816673669514" id="-1481">
		<tag k="name" v="Elvane" />
		<tag k="ssr:stedsnr" v="399490" />
		<tag k="waterway" v="stream" />
	</node>
	<node lat="62.36313888793608" lon="5.8869166751589885" id="-1488">
		<tag k="name" v="Kleivane" />
		<tag k="ssr:stedsnr" v="423255" />
		<tag k="waterway" v="rapids" />
	</node>
	<node lat="62.309966669102906" lon="5.827180554580547" id="-1516">
		<tag k="name" v="Kjerringnesvatnet" />
		<tag k="natural" v="water" />
		<tag k="ssr:stedsnr" v="520562" />
	</node>
	<node lat="62.25525277490861" lon="5.872011107318412" id="-1521">
		<tag k="name" v="Ytste Havågselva" />
		<tag k="ssr:stedsnr" v="521504" />
		<tag k="waterway" v="stream" />
	</node>
	<node lat="62.346691667559824" lon="5.871188889191934" id="-1522">
		<tag k="name" v="Vikelva" />
		<tag k="ssr:stedsnr" v="521514" />
		<tag k="waterway" v="river" />
	</node>
	<node lat="62.30852500061737" lon="5.904486110664824" id="-1523">
		<tag k="name" v="Flåvika" />
=======
	<node id="-62791" lat="62.2850722181" lon="5.90698611318">
		<tag k="name" v="Undelaupselva" />
		<tag k="ssr:stedsnr" v="35638" />
		<tag k="waterway" v="stream" />
	</node>
	<node id="-62789" lat="62.2842527769" lon="5.83661943831">
		<tag k="name" v="Garnesvatnet" />
		<tag k="natural" v="water" />
		<tag k="ssr:stedsnr" v="35634" />
	</node>
	<node id="-62660" lat="62.3642888849" lon="5.81690555219">
		<tag k="name" v="Osen" />
>>>>>>> e1d4bc35ff8a6074a6f2e91616a996b547c36f15
		<tag k="natural" v="bay" />
		<tag k="ssr:stedsnr" v="521523" />
	</node>
<<<<<<< HEAD
	<node lat="62.34342222071101" lon="5.909283325907417" id="-1527">
		<tag k="name" v="Hareidseidet" />
		<tag k="place" v="locality" />
		<tag k="ssr:stedsnr" v="556855" />
	</node>
	<node lat="62.405366663418846" lon="5.941161116504862" id="-1529">
		<tag k="name" v="Rjupedalsvatnet" />
=======
	<node id="-62774" lat="62.2544333349" lon="5.82571389665">
		<tag k="name" v="Osen" />
		<tag k="natural" v="bay" />
		<tag k="ssr:stedsnr" v="35554" />
	</node>
	<node id="-62786" lat="62.3081111072" lon="5.90868056511">
		<tag k="name" v="Fjellsstranda" />
		<tag k="natural" v="beach" />
		<tag k="ssr:stedsnr" v="35619" />
	</node>
	<node id="-62783" lat="62.3890972259" lon="5.9309138865">
		<tag k="name" v="Brørevatnet" />
>>>>>>> e1d4bc35ff8a6074a6f2e91616a996b547c36f15
		<tag k="natural" v="water" />
		<tag k="ssr:stedsnr" v="556927" />
	</node>
<<<<<<< HEAD
	<node lat="62.39024166352122" lon="5.887347222417555" id="-1547">
=======
	<node id="-63038" lat="62.3902416635" lon="5.88734722242">
>>>>>>> e1d4bc35ff8a6074a6f2e91616a996b547c36f15
		<tag k="name" v="Litlevatnet" />
		<tag k="natural" v="water" />
		<tag k="ssr:stedsnr" v="617898" />
	</node>
<<<<<<< HEAD
	<node lat="62.30272777437189" lon="5.9004166755400815" id="-1580">
		<tag k="alt_name" v="Myrkevatnet" />
		<tag k="name" v="Mørkevatnet" />
=======
	<node id="-62905" lat="62.2409972205" lon="5.88378055906">
		<tag k="name" v="Storevatnet" />
>>>>>>> e1d4bc35ff8a6074a6f2e91616a996b547c36f15
		<tag k="natural" v="water" />
		<tag k="ssr:stedsnr" v="678771" />
	</node>
<<<<<<< HEAD
	<node lat="62.27217500432117" lon="5.8940666674977535" id="-1588">
=======
	<node id="-62840" lat="62.3100305562" lon="5.80171110561">
		<tag k="name" v="Slokevatnet" />
		<tag k="natural" v="water" />
		<tag k="ssr:stedsnr" v="132796" />
	</node>
	<node id="-62647" lat="62.2721750043" lon="5.8940666675">
>>>>>>> e1d4bc35ff8a6074a6f2e91616a996b547c36f15
		<tag k="name" v="Indre Haddalselva" />
		<tag k="ssr:stedsnr" v="703612" />
		<tag k="waterway" v="stream" />
	</node>
<<<<<<< HEAD
	<node lat="62.41337777603105" lon="5.950008325439608" id="-1605">
		<tag k="alt_name" v="Skinnalivatnet" />
		<tag k="name" v="Skinnalidvatnet" />
		<tag k="natural" v="water" />
		<tag k="ssr:stedsnr" v="739899" />
	</node>
	<node lat="62.28166666928579" lon="5.934194451913175" id="-1626">
		<tag k="name" v="Laupsvatnet" />
		<tag k="natural" v="water" />
		<tag k="ssr:stedsnr" v="799191" />
	</node>
	<node lat="62.37843055931581" lon="5.867480555079495" id="-1650">
		<tag k="alt_name" v="Kjelvatnet" />
		<tag k="name" v="Kjellstjørna" />
		<tag k="natural" v="water" />
		<tag k="ssr:stedsnr" v="860875" />
	</node>
	<node lat="62.37880555734993" lon="5.862861101388672" id="-1661">
=======
	<node id="-63158" lat="62.3193138875" lon="5.92422499653">
		<tag k="name" v="Stranda" />
		<tag k="natural" v="beach" />
		<tag k="ssr:stedsnr" v="969269" />
	</node>
	<node id="-62418" lat="62.4191583371" lon="5.9142777847">
		<tag k="name" v="Ytre Fløelva" />
		<tag k="ssr:stedsnr" v="233928" />
		<tag k="waterway" v="stream" />
	</node>
	<node id="-62639" lat="62.3788055573" lon="5.86286110139">
>>>>>>> e1d4bc35ff8a6074a6f2e91616a996b547c36f15
		<tag k="name" v="Kattatjønna" />
		<tag k="natural" v="water" />
		<tag k="old_name" v="Kattakjerna" />
		<tag k="ssr:stedsnr" v="885599" />
	</node>
<<<<<<< HEAD
	<node lat="62.383686110956035" lon="5.855955563687424" id="-1676">
		<tag k="name" v="Trollvatnet" />
=======
	<node id="-63148" lat="62.3784305593" lon="5.86748055508">
		<tag k="alt_name" v="Kjelvatnet" />
		<tag k="name" v="Kjellstjørna" />
		<tag k="natural" v="water" />
		<tag k="ssr:stedsnr" v="860875" />
	</node>
	<node id="-63019" lat="62.3786194485" lon="5.83987500874">
		<tag k="name" v="Torvikelva" />
		<tag k="ssr:stedsnr" v="581632" />
		<tag k="waterway" v="stream" />
	</node>
	<node id="-62727" lat="62.2923249991" lon="5.85906389774">
		<tag k="name" v="Garneselva" />
		<tag k="ssr:stedsnr" v="946528" />
		<tag k="waterway" v="stream" />
	</node>
	<node id="-62759" lat="62.3109750011" lon="5.91051389564">
		<tag k="name" v="Fjellsvatnet" />
>>>>>>> e1d4bc35ff8a6074a6f2e91616a996b547c36f15
		<tag k="natural" v="water" />
		<tag k="ssr:stedsnr" v="946579" />
	</node>
<<<<<<< HEAD
	<node lat="62.370347219063845" lon="5.873955560045594" id="-1686">
		<tag k="name" v="Litlevatnet" />
=======
	<node id="-62628" lat="62.3027277744" lon="5.90041667554">
		<tag k="alt_name" v="Myrkevatnet" />
		<tag k="name" v="Mørkevatnet" />
>>>>>>> e1d4bc35ff8a6074a6f2e91616a996b547c36f15
		<tag k="natural" v="water" />
		<tag k="ssr:stedsnr" v="10855" />
	</node>
<<<<<<< HEAD
	<node lat="62.30074999787114" lon="5.935994435923752" id="-1688">
=======
	<node id="-62755" lat="62.3007499979" lon="5.93599443592">
>>>>>>> e1d4bc35ff8a6074a6f2e91616a996b547c36f15
		<tag k="name" v="Løsetvatnet" />
		<tag k="natural" v="water" />
		<tag k="ssr:stedsnr" v="11141" />
		<tag k="water" v="lake" />
	</node>
<<<<<<< HEAD
	<node lat="62.25443333487188" lon="5.825713896651304" id="-1709">
		<tag k="name" v="Osen" />
		<tag k="natural" v="bay" />
		<tag k="ssr:stedsnr" v="35554" />
	</node>
	<node lat="62.28425277685775" lon="5.836619438311783" id="-1711">
		<tag k="name" v="Garnesvatnet" />
=======
	<node id="-62753" lat="62.3703472191" lon="5.87395556005">
		<tag k="name" v="Litlevatnet" />
		<tag k="natural" v="water" />
		<tag k="ssr:stedsnr" v="10855" />
	</node>
	<node id="-62752" lat="62.2550638856" lon="5.83488610605">
		<tag k="name" v="Aursnesvatnet" />
>>>>>>> e1d4bc35ff8a6074a6f2e91616a996b547c36f15
		<tag k="natural" v="water" />
		<tag k="ssr:stedsnr" v="35634" />
	</node>
<<<<<<< HEAD
	<node lat="62.28507221812408" lon="5.906986113184513" id="-1713">
		<tag k="name" v="Undelaupselva" />
		<tag k="ssr:stedsnr" v="35638" />
		<tag k="waterway" v="stream" />
	</node>
	<node lat="62.358383334742534" lon="5.837980547031645" id="-1728">
		<tag k="alt_name" v="Raudelva" />
		<tag k="name" v="Raudeelva" />
		<tag k="ssr:stedsnr" v="96584" />
		<tag k="waterway" v="stream" />
	</node>
	<node lat="62.37445555985988" lon="5.908550003310936" id="-1744">
		<tag k="name" v="Mosvasselva" />
		<tag k="ssr:stedsnr" v="131893" />
		<tag k="waterway" v="stream" />
	</node>
	<node lat="62.33925555535176" lon="5.891219450199203" id="-1750">
		<tag k="name" v="Sauneselva" />
		<tag k="ssr:stedsnr" v="132833" />
		<tag k="waterway" v="stream" />
	</node>
	<node lat="62.363341668198565" lon="5.855250004036102" id="-1751">
		<tag k="fixme" v="multiple name tags, choose one and add the other to alt_name" />
		<tag k="name" v="Tverrvadelva;Tverrbergelva" />
		<tag k="ssr:stedsnr" v="132851" />
		<tag k="waterway" v="river" />
	</node>
	<node lat="62.31003056175035" lon="5.801708614598391" id="-1755">
		<tag k="alt_name" v="Slokevatnet" />
		<tag k="name" v="Sloka" />
		<tag k="natural" v="water" />
		<tag k="ssr:stedsnr" v="132796" />
	</node>
	<node lat="62.31233055440378" lon="5.837874997669672" id="-1764">
		<tag k="name" v="Sundgotvatnet" />
=======
	<node id="-62405" lat="62.2927055576" lon="5.86294999584">
		<tag k="name" v="Svartelva" />
		<tag k="ssr:stedsnr" v="217549" />
		<tag k="waterway" v="stream" />
	</node>
	<node id="-62489" lat="62.4102361097" lon="5.92313610814">
		<tag k="alt_name" v="Fløvatnet" />
		<tag k="name" v="Ytrefløvatnet" />
		<tag k="natural" v="water" />
		<tag k="ssr:stedsnr" v="193921" />
	</node>
	<node id="-62615" lat="62.3999444427" lon="5.85849722874">
		<tag k="name" v="Fløelva" />
		<tag k="ssr:stedsnr" v="719883" />
		<tag k="waterway" v="river" />
	</node>
	<node id="-62997" lat="62.3012916639" lon="5.87838889067">
		<tag k="alt_name" v="Garnesvatnet" />
		<tag k="name" v="Gardnesvatnet" />
		<tag k="natural" v="water" />
		<tag k="ssr:stedsnr" v="557147" />
	</node>
	<node id="-62996" lat="62.4053666634" lon="5.9411611165">
		<tag k="name" v="Rjupedalsvatnet" />
>>>>>>> e1d4bc35ff8a6074a6f2e91616a996b547c36f15
		<tag k="natural" v="water" />
		<tag k="ssr:stedsnr" v="156557" />
	</node>
<<<<<<< HEAD
	<node lat="62.410236109745846" lon="5.9231361081447025" id="-1795">
		<tag k="alt_name" v="Fløvatnet" />
		<tag k="name" v="Ytrefløvatnet" />
		<tag k="natural" v="water" />
		<tag k="ssr:stedsnr" v="193921" />
	</node>
	<node lat="62.292705557559586" lon="5.862949995844752" id="-1800">
		<tag k="name" v="Svartelva" />
		<tag k="ssr:stedsnr" v="217549" />
		<tag k="waterway" v="stream" />
	</node>
	<node lat="62.25818889244431" lon="5.907922227213772" id="-1812">
=======
	<node id="-62738" lat="62.3104333369" lon="5.86354999141">
		<tag k="name" v="Garsholelva" />
		<tag k="ssr:stedsnr" v="884524" />
		<tag k="waterway" v="stream" />
	</node>
	<node id="-62467" lat="62.2581888924" lon="5.90792222721">
>>>>>>> e1d4bc35ff8a6074a6f2e91616a996b547c36f15
		<tag k="name" v="Øggardselva" />
		<tag k="ssr:stedsnr" v="278539" />
		<tag k="waterway" v="stream" />
	</node>
<<<<<<< HEAD
	<node lat="62.25828888982847" lon="5.88657222591541" id="-1819">
=======
	<node id="-63137" lat="62.3015916628" lon="5.94013610295">
		<tag k="name" v="Kattavika" />
		<tag k="natural" v="bay" />
		<tag k="ssr:stedsnr" v="844154" />
	</node>
	<node id="-62734" lat="62.383686111" lon="5.85595556369">
		<tag k="name" v="Trollvatnet" />
		<tag k="natural" v="water" />
		<tag k="ssr:stedsnr" v="946579" />
	</node>
	<node id="-62474" lat="62.2582888898" lon="5.88657222592">
>>>>>>> e1d4bc35ff8a6074a6f2e91616a996b547c36f15
		<tag k="name" v="Inste Havågselva" />
		<tag k="ssr:stedsnr" v="278561" />
		<tag k="waterway" v="stream" />
	</node>
<<<<<<< HEAD
	<node lat="62.25887222613465" lon="5.893388879671555" id="-1864">
		<tag k="name" v="Eiksundelva" />
		<tag k="ssr:stedsnr" v="399515" />
		<tag k="waterway" v="stream" />
	</node>
	<node lat="62.299716666045796" lon="5.940083332732399" id="-1872">
		<tag k="name" v="Skinnstadneset" />
		<tag k="natural" v="bay" />
		<tag k="ssr:stedsnr" v="419159" />
	</node>
	<node lat="62.26437778142119" lon="5.890830555114283" id="-1875">
		<tag k="name" v="Havågsvatnet" />
		<tag k="natural" v="water" />
		<tag k="ssr:stedsnr" v="435201" />
	</node>
	<node lat="62.34801666239856" lon="5.888419438079874" id="-1886">
		<tag k="name" v="Gamleeidet" />
		<tag k="place" v="locality" />
		<tag k="ssr:stedsnr" v="496831" />
	</node>
	<node lat="62.364480556414904" lon="5.844511111283223" id="-1889">
		<tag k="name" v="Ulsteinelva" />
		<tag k="ssr:stedsnr" v="496839" />
		<tag k="waterway" v="stream" />
	</node>
	<node lat="62.301291663870344" lon="5.87838889066752" id="-1914">
		<tag k="alt_name" v="Garnesvatnet" />
		<tag k="name" v="Gardnesvatnet" />
		<tag k="natural" v="water" />
		<tag k="ssr:stedsnr" v="557147" />
	</node>
	<node lat="62.37861944853868" lon="5.839875008738734" id="-1934">
		<tag k="name" v="Torvikelva" />
		<tag k="ssr:stedsnr" v="581632" />
		<tag k="waterway" v="stream" />
	</node>
	<node lat="62.36906111025074" lon="5.824997219896774" id="-1935">
		<tag k="name" v="Skokkeelva" />
		<tag k="ssr:stedsnr" v="581636" />
		<tag k="waterway" v="stream" />
	</node>
	<node lat="62.399944442717796" lon="5.858497228736385" id="-1966">
		<tag k="name" v="Fløelva" />
		<tag k="ssr:stedsnr" v="719883" />
		<tag k="waterway" v="river" />
	</node>
	<node lat="62.28731667076518" lon="5.893766671584568" id="-1969">
		<tag k="alt_name" v="Ringstadelva" />
		<tag k="name" v="Haddalselva" />
		<tag k="ssr:stedsnr" v="738147" />
		<tag k="waterway" v="river" />
	</node>
	<node lat="62.281447221180905" lon="5.914602778385148" id="-1971">
		<tag k="alt_name" v="Undelaupsvatnet" />
		<tag k="name" v="Hundelaupsvatnet" />
		<tag k="natural" v="water" />
		<tag k="ssr:stedsnr" v="738187" />
	</node>
	<node lat="62.25823055662444" lon="5.860663890042653" id="-1980">
		<tag k="name" v="Selvågsvatnet" />
		<tag k="natural" v="water" />
		<tag k="ssr:stedsnr" v="763533" />
	</node>
	<node lat="62.36428888486975" lon="5.81690555219244" id="-1982">
		<tag k="name" v="Osen" />
		<tag k="natural" v="bay" />
		<tag k="ssr:stedsnr" v="763471" />
	</node>
	<node lat="62.289658334806894" lon="5.888297214187929" id="-1988">
		<tag k="name" v="Breidesvæelva" />
		<tag k="ssr:stedsnr" v="763575" />
		<tag k="waterway" v="stream" />
	</node>
	<node lat="62.408894443324094" lon="5.89484443823526" id="-1989">
		<tag k="name" v="Leiseelva" />
		<tag k="ssr:stedsnr" v="763577" />
		<tag k="waterway" v="stream" />
	</node>
	<node lat="62.37444101356328" lon="5.908697486802563" id="-1996">
		<tag k="alt_name" v="Mosvatnelva" />
		<tag k="name" v="Mosvasselva" />
		<tag k="ssr:stedsnr" v="763717" />
		<tag k="waterway" v="river" />
	</node>
	<node lat="62.29874722372943" lon="5.933463882791143" id="-2008">
		<tag k="name" v="Saudvika" />
		<tag k="natural" v="bay" />
		<tag k="ssr:stedsnr" v="783134" />
	</node>
	<node lat="62.396927779083676" lon="5.8698277750518" id="-2021">
		<tag k="alt_name" v="Indrefløelva" />
		<tag k="name" v="Storelva" />
		<tag k="ssr:stedsnr" v="800862" />
		<tag k="waterway" v="stream" />
	</node>
	<node lat="62.389827777386124" lon="5.927377786112426" id="-2024">
		<tag k="name" v="Brørevatnet" />
		<tag k="natural" v="water" />
		<tag k="ssr:stedsnr" v="800886" />
		<tag k="water" v="lake" />
	</node>
	<node lat="62.29934444835807" lon="5.8767833378440875" id="-2029">
		<tag k="name" v="Kopane" />
		<tag k="natural" v="water" />
		<tag k="ssr:stedsnr" v="824535" />
	</node>
	<node lat="62.30159166276379" lon="5.9401361029521516" id="-2051">
		<tag k="name" v="Kattavika" />
		<tag k="natural" v="bay" />
		<tag k="ssr:stedsnr" v="844154" />
	</node>
	<node lat="62.31043333687935" lon="5.863549991410038" id="-2073">
		<tag k="name" v="Garsholelva" />
		<tag k="ssr:stedsnr" v="884524" />
		<tag k="waterway" v="stream" />
	</node>
	<node lat="62.29232499907618" lon="5.859063897738436" id="-2089">
		<tag k="name" v="Garneselva" />
		<tag k="ssr:stedsnr" v="946528" />
=======
	<node id="-63020" lat="62.3690611103" lon="5.8249972199">
		<tag k="name" v="Skokkeelva" />
		<tag k="ssr:stedsnr" v="581636" />
		<tag k="waterway" v="stream" />
	</node>
	<node id="-62977" lat="62.2552527749" lon="5.87201110732">
		<tag k="name" v="Ytste Havågselva" />
		<tag k="ssr:stedsnr" v="521504" />
		<tag k="waterway" v="stream" />
	</node>
	<node id="-63108" lat="62.3898277774" lon="5.92737778611">
		<tag k="name" v="Brørevatnet" />
		<tag k="natural" v="water" />
		<tag k="ssr:stedsnr" v="800886" />
		<tag k="water" v="lake" />
	</node>
	<node id="-62979" lat="62.3085250006" lon="5.90448611066">
		<tag k="name" v="Flåvika" />
		<tag k="natural" v="bay" />
		<tag k="ssr:stedsnr" v="521523" />
	</node>
	<node id="-62978" lat="62.3466916676" lon="5.87118888919">
		<tag k="name" v="Vikelva" />
		<tag k="ssr:stedsnr" v="521514" />
		<tag k="waterway" v="river" />
	</node>
	<node id="-63105" lat="62.3969277791" lon="5.86982777505">
		<tag k="alt_name" v="Indrefløelva" />
		<tag k="name" v="Storelva" />
		<tag k="ssr:stedsnr" v="800862" />
>>>>>>> e1d4bc35ff8a6074a6f2e91616a996b547c36f15
		<tag k="waterway" v="stream" />
	</node>
	<node lat="62.319313887545526" lon="5.92422499653068" id="-2098">
		<tag k="name" v="Stranda" />
		<tag k="natural" v="beach" />
		<tag k="ssr:stedsnr" v="969269" />
	</node>
</osm>
