<?xml version="1.0" encoding="UTF-8"?>
<<<<<<< HEAD
<osm version="0.6" generator="osmapis">
	<node lat="62.40196388867947" lon="5.892577785232679" id="-1363">
		<tag k="highway" v="path" />
		<tag k="name" v="Stigane" />
		<tag k="ssr:stedsnr" v="96479" />
	</node>
	<node lat="62.246588889858046" lon="5.895783334169293" id="-1423">
		<tag k="bridge" v="yes" />
		<tag k="layer" v="1" />
		<tag k="name" v="Eiksundbrua" />
		<tag k="ssr:stedsnr" v="274703" />
	</node>
	<node lat="62.41445000387593" lon="5.880722231466739" id="-1482">
		<tag k="highway" v="path" />
		<tag k="name" v="Gotene" />
		<tag k="ssr:stedsnr" v="399500" />
	</node>
	<node lat="62.349955559381776" lon="5.882697221746305" id="-1486">
=======
<osm generator="osmapis" version="0.6">
	<node id="-62911" lat="62.2707500011" lon="5.86693611179">
		<tag k="highway" v="path" />
		<tag k="name" v="Geitstigen" />
		<tag k="ssr:stedsnr" v="338533" />
	</node>
	<node id="-63087" lat="62.2824222216" lon="5.83218611323">
		<tag k="bridge" v="yes" />
		<tag k="layer" v="1" />
		<tag k="name" v="Dragsundbrua" />
		<tag k="ssr:stedsnr" v="765683" />
	</node>
	<node id="-62653" lat="62.2956361158" lon="5.78295556465">
		<tag k="bridge" v="yes" />
		<tag k="layer" v="1" />
		<tag k="name" v="Moltubrua" />
		<tag k="ssr:stedsnr" v="895876" />
	</node>
	<node id="-62687" lat="62.2510972261" lon="5.90443333818">
		<tag k="amenity" v="ferry_terminal" />
		<tag k="name" v="Eiksund ferjekai" />
		<tag k="ssr:stedsnr" v="799214" />
	</node>
	<node id="-62557" lat="62.3499555594" lon="5.88269722175">
>>>>>>> e1d4bc35ff8a6074a6f2e91616a996b547c36f15
		<tag k="ford" v="yes" />
		<tag k="name" v="Vådå" />
		<tag k="place" v="locality" />
		<tag k="ssr:stedsnr" v="423242" />
	</node>
<<<<<<< HEAD
	<node lat="62.25109722612168" lon="5.904433338179261" id="-1627">
		<tag k="amenity" v="ferry_terminal" />
		<tag k="name" v="Eiksund ferjekai" />
		<tag k="ssr:stedsnr" v="799214" />
	</node>
	<node lat="62.295636115771096" lon="5.782955564649415" id="-1662">
		<tag k="bridge" v="yes" />
		<tag k="layer" v="1" />
		<tag k="name" v="Moltubrua" />
		<tag k="ssr:stedsnr" v="895876" />
	</node>
	<node lat="62.355851097374355" lon="5.825209131276607" id="-1678">
=======
	<node id="-62936" lat="62.4144500039" lon="5.88072223147">
		<tag k="highway" v="path" />
		<tag k="name" v="Gotene" />
		<tag k="ssr:stedsnr" v="399500" />
	</node>
	<node id="-62807" lat="62.4019638887" lon="5.89257778523">
		<tag k="highway" v="path" />
		<tag k="name" v="Stigane" />
		<tag k="ssr:stedsnr" v="96479" />
	</node>
	<node id="-63181" lat="62.2821988117" lon="5.86866296581">
>>>>>>> e1d4bc35ff8a6074a6f2e91616a996b547c36f15
		<tag k="junction" v="yes" />
		<tag k="name" v="Skeidekrysset" />
		<tag k="place" v="locality" />
		<tag k="ssr:stedsnr" v="988820" />
	</node>
<<<<<<< HEAD
	<node lat="62.34566117832511" lon="5.835368716935195" id="-1679">
=======
	<node id="-63180" lat="62.2915434927" lon="5.8515033776">
>>>>>>> e1d4bc35ff8a6074a6f2e91616a996b547c36f15
		<tag k="junction" v="yes" />
		<tag k="name" v="Reitenkrysset" />
		<tag k="place" v="locality" />
		<tag k="ssr:stedsnr" v="988821" />
	</node>
<<<<<<< HEAD
	<node lat="62.34469802320303" lon="5.836636359723355" id="-1680">
=======
	<node id="-63179" lat="62.3158995698" lon="5.84078081973">
>>>>>>> e1d4bc35ff8a6074a6f2e91616a996b547c36f15
		<tag k="junction" v="yes" />
		<tag k="name" v="Osneskrysset" />
		<tag k="place" v="locality" />
		<tag k="ssr:stedsnr" v="988822" />
	</node>
<<<<<<< HEAD
	<node lat="62.34267677008618" lon="5.846849857091862" id="-1681">
=======
	<node id="-63178" lat="62.3186844605" lon="5.86580141894">
>>>>>>> e1d4bc35ff8a6074a6f2e91616a996b547c36f15
		<tag k="junction" v="yes" />
		<tag k="name" v="Sjøgatekrysset" />
		<tag k="place" v="locality" />
		<tag k="ssr:stedsnr" v="988823" />
	</node>
<<<<<<< HEAD
	<node lat="62.340055955307996" lon="5.851528632828101" id="-1682">
=======
	<node id="-63177" lat="62.3311992789" lon="5.86169328739">
>>>>>>> e1d4bc35ff8a6074a6f2e91616a996b547c36f15
		<tag k="junction" v="yes" />
		<tag k="name" v="Sauneskrysset" />
		<tag k="place" v="locality" />
		<tag k="ssr:stedsnr" v="988824" />
	</node>
<<<<<<< HEAD
	<node lat="62.34071701396877" lon="5.853395776881201" id="-1683">
=======
	<node id="-63176" lat="62.3386535138" lon="5.87051252557">
>>>>>>> e1d4bc35ff8a6074a6f2e91616a996b547c36f15
		<tag k="junction" v="yes" />
		<tag k="name" v="Brattørakrysset" />
		<tag k="place" v="locality" />
		<tag k="ssr:stedsnr" v="988825" />
	</node>
<<<<<<< HEAD
	<node lat="62.3452548169507" lon="5.851342745646839" id="-1684">
=======
	<node id="-63175" lat="62.3374285361" lon="5.87357827033">
>>>>>>> e1d4bc35ff8a6074a6f2e91616a996b547c36f15
		<tag k="junction" v="yes" />
		<tag k="name" v="Skulekrysset" />
		<tag k="place" v="locality" />
		<tag k="ssr:stedsnr" v="988826" />
	</node>
<<<<<<< HEAD
	<node lat="62.27075000106342" lon="5.866936111794864" id="-1842">
		<tag k="highway" v="path" />
		<tag k="name" v="Geitstigen" />
		<tag k="ssr:stedsnr" v="338533" />
	</node>
	<node lat="62.28242222155925" lon="5.832186113228675" id="-2004">
		<tag k="bridge" v="yes" />
		<tag k="layer" v="1" />
		<tag k="name" v="Dragsundbrua" />
		<tag k="ssr:stedsnr" v="765683" />
	</node>
	<node lat="62.34565955267103" lon="5.853291970774794" id="-2104">
=======
	<node id="-63174" lat="62.338039422" lon="5.88168456986">
		<tag k="junction" v="yes" />
		<tag k="name" v="Saunesmarkkrysset" />
		<tag k="place" v="locality" />
		<tag k="ssr:stedsnr" v="988832" />
	</node>
	<node id="-63173" lat="62.3392595004" lon="5.88600623942">
>>>>>>> e1d4bc35ff8a6074a6f2e91616a996b547c36f15
		<tag k="junction" v="yes" />
		<tag k="name" v="Vikebakkrysset" />
		<tag k="place" v="locality" />
		<tag k="ssr:stedsnr" v="988827" />
	</node>
<<<<<<< HEAD
	<node lat="62.34212534163924" lon="5.8671967725669365" id="-2105">
=======
	<node id="-63172" lat="62.3406546815" lon="5.89273432683">
>>>>>>> e1d4bc35ff8a6074a6f2e91616a996b547c36f15
		<tag k="junction" v="yes" />
		<tag k="name" v="Støylekrysset" />
		<tag k="place" v="locality" />
		<tag k="ssr:stedsnr" v="988828" />
	</node>
<<<<<<< HEAD
	<node lat="62.343438489726466" lon="5.871494360357904" id="-2106">
=======
	<node id="-63171" lat="62.3434384897" lon="5.87149436036">
>>>>>>> e1d4bc35ff8a6074a6f2e91616a996b547c36f15
		<tag k="junction" v="yes" />
		<tag k="name" v="Hovsetkrysset" />
		<tag k="place" v="locality" />
		<tag k="ssr:stedsnr" v="988829" />
	</node>
<<<<<<< HEAD
	<node lat="62.34065468147682" lon="5.892734326827405" id="-2107">
=======
	<node id="-63170" lat="62.3421253416" lon="5.86719677257">
>>>>>>> e1d4bc35ff8a6074a6f2e91616a996b547c36f15
		<tag k="junction" v="yes" />
		<tag k="name" v="Varleitekrysset" />
		<tag k="place" v="locality" />
		<tag k="ssr:stedsnr" v="988830" />
	</node>
<<<<<<< HEAD
	<node lat="62.33925950041514" lon="5.886006239415832" id="-2108">
=======
	<node id="-63169" lat="62.3456595527" lon="5.85329197077">
>>>>>>> e1d4bc35ff8a6074a6f2e91616a996b547c36f15
		<tag k="junction" v="yes" />
		<tag k="name" v="Høddkrysset" />
		<tag k="place" v="locality" />
		<tag k="ssr:stedsnr" v="988831" />
	</node>
<<<<<<< HEAD
	<node lat="62.338039421987226" lon="5.881684569859351" id="-2109">
=======
	<node id="-63168" lat="62.345254817" lon="5.85134274565">
>>>>>>> e1d4bc35ff8a6074a6f2e91616a996b547c36f15
		<tag k="junction" v="yes" />
		<tag k="name" v="Saunesmarkkrysset" />
		<tag k="place" v="locality" />
		<tag k="ssr:stedsnr" v="988832" />
	</node>
<<<<<<< HEAD
	<node lat="62.33742853606164" lon="5.873578270332642" id="-2110">
=======
	<node id="-63167" lat="62.340717014" lon="5.85339577688">
>>>>>>> e1d4bc35ff8a6074a6f2e91616a996b547c36f15
		<tag k="junction" v="yes" />
		<tag k="name" v="Holsekerkrysset" />
		<tag k="place" v="locality" />
		<tag k="ssr:stedsnr" v="988833" />
	</node>
<<<<<<< HEAD
	<node lat="62.33865351380331" lon="5.870512525566959" id="-2111">
=======
	<node id="-63166" lat="62.3400559553" lon="5.85152863283">
>>>>>>> e1d4bc35ff8a6074a6f2e91616a996b547c36f15
		<tag k="junction" v="yes" />
		<tag k="name" v="Dalakrysset" />
		<tag k="place" v="locality" />
		<tag k="ssr:stedsnr" v="988834" />
	</node>
<<<<<<< HEAD
	<node lat="62.33119927885887" lon="5.861693287388738" id="-2112">
=======
	<node id="-63165" lat="62.3426767701" lon="5.84684985709">
>>>>>>> e1d4bc35ff8a6074a6f2e91616a996b547c36f15
		<tag k="junction" v="yes" />
		<tag k="name" v="Strandkrysset" />
		<tag k="place" v="locality" />
		<tag k="ssr:stedsnr" v="988835" />
	</node>
<<<<<<< HEAD
	<node lat="62.31868446045285" lon="5.865801418944772" id="-2113">
=======
	<node id="-63164" lat="62.3446980232" lon="5.83663635972">
>>>>>>> e1d4bc35ff8a6074a6f2e91616a996b547c36f15
		<tag k="junction" v="yes" />
		<tag k="name" v="Hasundkrysset" />
		<tag k="place" v="locality" />
		<tag k="ssr:stedsnr" v="988836" />
	</node>
<<<<<<< HEAD
	<node lat="62.31589956982047" lon="5.840780819729762" id="-2114">
=======
	<node id="-63163" lat="62.3456611783" lon="5.83536871694">
>>>>>>> e1d4bc35ff8a6074a6f2e91616a996b547c36f15
		<tag k="junction" v="yes" />
		<tag k="name" v="Sundgotkrysset" />
		<tag k="place" v="locality" />
		<tag k="ssr:stedsnr" v="988837" />
	</node>
<<<<<<< HEAD
	<node lat="62.291543492664104" lon="5.851503377599995" id="-2115">
=======
	<node id="-63162" lat="62.3558510974" lon="5.82520913128">
>>>>>>> e1d4bc35ff8a6074a6f2e91616a996b547c36f15
		<tag k="junction" v="yes" />
		<tag k="name" v="Garneskrysset" />
		<tag k="place" v="locality" />
<<<<<<< HEAD
		<tag k="ssr:stedsnr" v="988838" />
	</node>
	<node lat="62.282198811720015" lon="5.868662965808701" id="-2116">
		<tag k="junction" v="yes" />
		<tag k="name" v="Haddalskrysset" />
		<tag k="place" v="locality" />
		<tag k="ssr:stedsnr" v="988839" />
=======
		<tag k="ssr:stedsnr" v="988820" />
	</node>
	<node id="-62500" lat="62.2465888899" lon="5.89578333417">
		<tag k="bridge" v="yes" />
		<tag k="layer" v="1" />
		<tag k="name" v="Eiksundbrua" />
		<tag k="ssr:stedsnr" v="274703" />
>>>>>>> e1d4bc35ff8a6074a6f2e91616a996b547c36f15
	</node>
</osm>
