<?xml version="1.0" encoding="UTF-8"?>
<osm version="0.6" generator="osmapis">
	<node lat="62.29901666957474" lon="5.868024999056591" id="-2383">
		<tag k="name" v="Garneshornet" />
		<tag k="natural" v="hill" />
		<tag k="place" v="locality" />
		<tag k="ssr:stedsnr" v="34499" />
	</node>
	<node lat="62.27131388849442" lon="5.874211101988721" id="-2385">
		<tag k="fixme" v="consider natural=peak for the most distinct mountains in the district" />
		<tag k="name" v="Hammaren" />
		<tag k="natural" v="hill" />
		<tag k="place" v="locality" />
		<tag k="ssr:stedsnr" v="35523" />
	</node>
	<node lat="62.373083331739544" lon="5.848386115435542" id="-2386">
		<tag k="fixme" v="consider natural=peak for the most distinct mountains in the district" />
		<tag k="name" v="Litlekoppen" />
		<tag k="natural" v="hill" />
		<tag k="place" v="locality" />
		<tag k="ssr:stedsnr" v="35560" />
	</node>
	<node lat="62.255122226116285" lon="5.84531388261914" id="-2389">
		<tag k="name" v="Hatledalen" />
		<tag k="natural" v="valley" />
		<tag k="place" v="locality" />
		<tag k="ssr:stedsnr" v="35568" />
	</node>
	<node lat="62.30097499763338" lon="5.884011108352941" id="-2393">
		<tag k="name" v="Bleikemyrbakkane" />
		<tag k="natural" v="slope" />
		<tag k="place" v="locality" />
		<tag k="ssr:stedsnr" v="35617" />
	</node>
	<node lat="62.30393333445534" lon="5.903861106839744" id="-2394">
		<tag k="name" v="Jarbryggja" />
		<tag k="natural" v="ridge" />
		<tag k="place" v="locality" />
		<tag k="ssr:stedsnr" v="35618" />
	</node>
	<node lat="62.40635833254988" lon="5.917755551865247" id="-2396">
		<tag k="name" v="Kjempegrava" />
		<tag k="natural" v="valley" />
		<tag k="place" v="locality" />
		<tag k="ssr:stedsnr" v="35621" />
	</node>
	<node lat="62.410941662491794" lon="5.941511111587617" id="-2397">
		<tag k="name" v="Skinnalia" />
		<tag k="natural" v="slope" />
		<tag k="place" v="locality" />
		<tag k="ssr:stedsnr" v="237142" />
	</node>
	<node lat="62.32283333183601" lon="5.902997215500938" id="-2398">
		<tag k="name" v="Bulegene" />
		<tag k="natural" v="slope" />
		<tag k="place" v="locality" />
		<tag k="ssr:stedsnr" v="241254" />
	</node>
	<node lat="62.31399722572563" lon="5.888300009003487" id="-2399">
		<tag k="name" v="Rotegåtene" />
		<tag k="place" v="locality" />
		<tag k="ssr:stedsnr" v="241262" />
	</node>
	<node lat="62.4026055512683" lon="5.938850006662892" id="-2401">
		<tag k="fixme" v="multiple name tags, choose one and add the other to alt_name; consider natural=peak for the most distinct mountains in the district" />
		<tag k="name" v="Sneldelida;Sneldelihorn" />
		<tag k="natural" v="hill" />
		<tag k="place" v="locality" />
		<tag k="ssr:stedsnr" v="72877" />
	</node>
	<node lat="62.30885555945745" lon="5.855455547773356" id="-2402">
		<tag k="name" v="Garsholhaugen" />
		<tag k="natural" v="hill" />
		<tag k="place" v="locality" />
		<tag k="ssr:stedsnr" v="95484" />
	</node>
	<node lat="62.31756667077998" lon="5.804575002483856" id="-2403">
		<tag k="name" v="Hovstøylen" />
		<tag k="natural" v="hill" />
		<tag k="place" v="locality" />
		<tag k="ssr:stedsnr" v="95510" />
	</node>
	<node lat="62.37270832893015" lon="5.827961103766959" id="-2410">
		<tag k="name" v="Oksehammaren" />
		<tag k="natural" v="cliff" />
		<tag k="ssr:stedsnr" v="96611" />
	</node>
	<node lat="62.251075001604285" lon="5.82534999137672" id="-2414">
		<tag k="name" v="Tuva" />
		<tag k="natural" v="hill" />
		<tag k="place" v="locality" />
		<tag k="ssr:stedsnr" v="96504" />
	</node>
	<node lat="62.30592778144128" lon="5.919888892869893" id="-2419">
		<tag k="name" v="Surnakkane" />
		<tag k="natural" v="ridge" />
		<tag k="place" v="locality" />
		<tag k="ssr:stedsnr" v="96567" />
	</node>
	<node lat="62.29985555743202" lon="5.784708329479201" id="-2424">
		<tag k="fixme" v="consider natural=peak for the most distinct mountains in the district" />
		<tag k="name" v="Røyrafjellet" />
		<tag k="natural" v="hill" />
		<tag k="place" v="locality" />
		<tag k="ssr:stedsnr" v="132759" />
	</node>
	<node lat="62.34953055402554" lon="5.836108342397028" id="-2426">
		<tag k="name" v="Osberget" />
		<tag k="natural" v="hill" />
		<tag k="place" v="locality" />
		<tag k="ssr:stedsnr" v="132820" />
	</node>
	<node lat="62.39328610936754" lon="5.877661112663754" id="-2431">
		<tag k="name" v="Indreflødalen" />
		<tag k="natural" v="valley" />
		<tag k="place" v="locality" />
		<tag k="ssr:stedsnr" v="132872" />
	</node>
	<node lat="62.41103611190137" lon="5.887180554434359" id="-2435">
		<tag k="name" v="Tungene" />
		<tag k="natural" v="slope" />
		<tag k="place" v="locality" />
		<tag k="ssr:stedsnr" v="253921" />
	</node>
	<node lat="62.38463889109417" lon="5.835327771999117" id="-2437">
		<tag k="alt_name" v="Bysshetta" />
		<tag k="fixme" v="consider natural=peak for the most distinct mountains in the district" />
		<tag k="name" v="Trollhetta" />
		<tag k="natural" v="hill" />
		<tag k="place" v="locality" />
		<tag k="ssr:stedsnr" v="254890" />
	</node>
	<node lat="62.32426944504611" lon="5.8090833374095325" id="-2442">
		<tag k="name" v="Skaret" />
		<tag k="natural" v="valley" />
		<tag k="place" v="locality" />
		<tag k="ssr:stedsnr" v="156489" />
	</node>
	<node lat="62.30485000386444" lon="5.792816672953369" id="-2443">
		<tag k="name" v="Notten" />
		<tag k="natural" v="hill" />
		<tag k="place" v="locality" />
		<tag k="ssr:stedsnr" v="157492" />
	</node>
	<node lat="62.30070277437356" lon="5.845219441572166" id="-2444">
		<tag k="name" v="Storefjellet" />
		<tag k="natural" v="slope" />
		<tag k="place" v="locality" />
		<tag k="ssr:stedsnr" v="157512" />
	</node>
	<node lat="62.27603889101746" lon="5.904555562134354" id="-2445">
		<tag k="name" v="Grashaugen" />
		<tag k="natural" v="hill" />
		<tag k="place" v="locality" />
		<tag k="ssr:stedsnr" v="157513" />
	</node>
	<node lat="62.36418610787303" lon="5.849586111571495" id="-2447">
		<tag k="name" v="Indregjøtene" />
		<tag k="natural" v="valley" />
		<tag k="place" v="locality" />
		<tag k="ssr:stedsnr" v="157551" />
	</node>
	<node lat="62.27223888950559" lon="5.8806083276661765" id="-2449">
		<tag k="name" v="Hestehilla" />
		<tag k="place" v="locality" />
		<tag k="ssr:stedsnr" v="157559" />
	</node>
	<node lat="62.29302222395088" lon="5.946366657250227" id="-2450">
		<tag k="name" v="Lemen" />
		<tag k="natural" v="slope" />
		<tag k="place" v="locality" />
		<tag k="ssr:stedsnr" v="176163" />
	</node>
	<node lat="62.32687222438564" lon="5.906083325114675" id="-2451">
		<tag k="fixme" v="consider natural=peak for the most distinct mountains in the district" />
		<tag k="name" v="Laugaråsen" />
		<tag k="natural" v="hill" />
		<tag k="place" v="locality" />
		<tag k="ssr:stedsnr" v="180256" />
	</node>
	<node lat="62.32146111572399" lon="5.80998889515624" id="-2453">
		<tag k="name" v="Svarane" />
		<tag k="natural" v="hill" />
		<tag k="place" v="locality" />
		<tag k="ssr:stedsnr" v="217508" />
	</node>
	<node lat="62.35781944736152" lon="5.882355548636327" id="-2461">
		<tag k="name" v="Vikeskaret" />
		<tag k="natural" v="valley" />
		<tag k="place" v="locality" />
		<tag k="ssr:stedsnr" v="241229" />
	</node>
	<node lat="62.34145833373646" lon="5.890916662378759" id="-2462">
		<tag k="name" v="Varleite" />
		<tag k="natural" v="slope" />
		<tag k="place" v="locality" />
		<tag k="ssr:stedsnr" v="241233" />
	</node>
	<node lat="62.33568663021182" lon="5.86235699374702" id="-2466">
		<tag k="name" v="Skjoranakken" />
		<tag k="natural" v="ridge" />
		<tag k="place" v="locality" />
		<tag k="ssr:stedsnr" v="459517" />
	</node>
	<node lat="62.307825002559" lon="5.793750006259493" id="-2470">
		<tag k="fixme" v="consider natural=peak for the most distinct mountains in the district" />
		<tag k="name" v="Sandvikfjellet" />
		<tag k="natural" v="hill" />
		<tag k="place" v="locality" />
		<tag k="ssr:stedsnr" v="278674" />
	</node>
	<node lat="62.345266663749875" lon="5.835500003476547" id="-2472">
		<tag k="name" v="Krushammaren" />
		<tag k="natural" v="hill" />
		<tag k="place" v="locality" />
		<tag k="ssr:stedsnr" v="278587" />
	</node>
	<node lat="62.32564999595089" lon="5.78336665990078" id="-2473">
		<tag k="name" v="Teigehaugen" />
		<tag k="natural" v="hill" />
		<tag k="place" v="locality" />
		<tag k="ssr:stedsnr" v="278589" />
	</node>
	<node lat="62.26173055947694" lon="5.897327775377414" id="-2474">
		<tag k="name" v="Aksla" />
		<tag k="natural" v="ridge" />
		<tag k="place" v="locality" />
		<tag k="ssr:stedsnr" v="460531" />
	</node>
	<node lat="62.2625777781263" lon="5.891041663936574" id="-2480">
		<tag k="name" v="Sætrehornet" />
		<tag k="natural" v="hill" />
		<tag k="place" v="locality" />
		<tag k="ssr:stedsnr" v="460545" />
	</node>
	<node lat="62.261013889832874" lon="5.911824997111127" id="-2483">
		<tag k="name" v="Øggardsberget" />
		<tag k="natural" v="slope" />
		<tag k="place" v="locality" />
		<tag k="ssr:stedsnr" v="460555" />
	</node>
	<node lat="62.300972225968835" lon="5.905255554268167" id="-2485">
		<tag k="name" v="Skaret" />
		<tag k="natural" v="valley" />
		<tag k="place" v="locality" />
		<tag k="ssr:stedsnr" v="460581" />
	</node>
	<node lat="62.31306388705228" lon="5.799897215374959" id="-2486">
		<tag k="name" v="Uleberget" />
		<tag k="natural" v="hill" />
		<tag k="place" v="locality" />
		<tag k="ssr:stedsnr" v="460593" />
	</node>
	<node lat="62.37054721894894" lon="5.840919450574128" id="-2488">
		<tag k="name" v="Brendehaugen" />
		<tag k="natural" v="hill" />
		<tag k="place" v="locality" />
		<tag k="ssr:stedsnr" v="460640" />
	</node>
	<node lat="62.388022221621206" lon="5.852202785547704" id="-2489">
		<tag k="name" v="Roppedalen" />
		<tag k="natural" v="valley" />
		<tag k="place" v="locality" />
		<tag k="ssr:stedsnr" v="460643" />
	</node>
	<node lat="62.34636389141443" lon="5.787933329687584" id="-2490">
		<tag k="name" v="Storhaugen" />
		<tag k="natural" v="hill" />
		<tag k="place" v="locality" />
		<tag k="ssr:stedsnr" v="460696" />
	</node>
	<node lat="62.3531944471892" lon="5.850938889601826" id="-2503">
		<tag k="fixme" v="consider natural=peak for the most distinct mountains in the district" />
		<tag k="name" v="Årkinna" />
		<tag k="natural" v="hill" />
		<tag k="place" v="locality" />
		<tag k="ssr:stedsnr" v="338394" />
	</node>
	<node lat="62.257511106821916" lon="5.851513892093503" id="-2504">
		<tag k="name" v="Bruna" />
		<tag k="natural" v="ridge" />
		<tag k="place" v="locality" />
		<tag k="ssr:stedsnr" v="338400" />
	</node>
	<node lat="62.26148333649207" lon="5.84109999257857" id="-2506">
		<tag k="name" v="Rabben" />
		<tag k="natural" v="ridge" />
		<tag k="place" v="locality" />
		<tag k="ssr:stedsnr" v="338404" />
	</node>
	<node lat="62.324288888571395" lon="5.79250000226242" id="-2509">
		<tag k="name" v="Sethaugen" />
		<tag k="natural" v="hill" />
		<tag k="place" v="locality" />
		<tag k="ssr:stedsnr" v="338607" />
	</node>
	<node lat="62.41712222443312" lon="5.916886104779155" id="-2519">
		<tag k="name" v="Ytreflødalen" />
		<tag k="natural" v="valley" />
		<tag k="place" v="locality" />
		<tag k="ssr:stedsnr" v="375914" />
	</node>
	<node lat="62.32526389058456" lon="5.808361118841059" id="-2522">
		<tag k="name" v="Hellestadberget" />
		<tag k="natural" v="hill" />
		<tag k="place" v="locality" />
		<tag k="ssr:stedsnr" v="398532" />
	</node>
	<node lat="62.36290555424068" lon="5.860977779461234" id="-2523">
		<tag k="name" v="Ølkona" />
		<tag k="place" v="locality" />
		<tag k="ssr:stedsnr" v="399483" />
	</node>
	<node lat="62.40073611005482" lon="5.866269448013533" id="-2528">
		<tag k="name" v="Kanefallet" />
		<tag k="natural" v="ridge" />
		<tag k="place" v="locality" />
		<tag k="ssr:stedsnr" v="399585" />
	</node>
	<node lat="62.3724916650139" lon="5.887538891266726" id="-2531">
		<tag k="name" v="Mosdalen" />
		<tag k="natural" v="valley" />
		<tag k="place" v="locality" />
		<tag k="ssr:stedsnr" v="423248" />
	</node>
	<node lat="62.27413107956592" lon="5.9118359431190495" id="-2533">
		<tag k="alt_name" v="Blåtind" />
		<tag k="fixme" v="consider natural=peak for the most distinct mountains in the district" />
		<tag k="name" v="Blåtinden" />
		<tag k="natural" v="hill" />
		<tag k="place" v="locality" />
		<tag k="ssr:stedsnr" v="435209" />
	</node>
	<node lat="62.360861106914825" lon="5.840008331863626" id="-2537">
		<tag k="fixme" v="consider natural=peak for the most distinct mountains in the district" />
		<tag k="name" v="Elekja" />
		<tag k="natural" v="hill" />
		<tag k="place" v="locality" />
		<tag k="ssr:stedsnr" v="460512" />
	</node>
	<node lat="62.3206361122825" lon="5.796897222743952" id="-2539">
		<tag k="name" v="Høgetua" />
		<tag k="natural" v="hill" />
		<tag k="place" v="locality" />
		<tag k="ssr:stedsnr" v="460602" />
	</node>
	<node lat="62.272480557406844" lon="5.907102772540819" id="-2543">
		<tag k="name" v="Dynehornet" />
		<tag k="natural" v="hill" />
		<tag k="place" v="locality" />
		<tag k="ssr:stedsnr" v="460626" />
	</node>
	<node lat="62.34363610940956" lon="5.8304611151741685" id="-2544">
		<tag k="name" v="Flotane" />
		<tag k="place" v="locality" />
		<tag k="ssr:stedsnr" v="460576" />
	</node>
	<node lat="62.29090555984389" lon="5.933416671301757" id="-2548">
		<tag k="name" v="Flåa" />
		<tag k="natural" v="slope" />
		<tag k="place" v="locality" />
		<tag k="ssr:stedsnr" v="479156" />
	</node>
	<node lat="62.30083611560843" lon="5.944347226623505" id="-2549">
		<tag k="name" v="Dalen" />
		<tag k="natural" v="valley" />
		<tag k="place" v="locality" />
		<tag k="ssr:stedsnr" v="479157" />
	</node>
	<node lat="62.35847500354955" lon="5.854191660989544" id="-2554">
		<tag k="fixme" v="consider natural=peak for the most distinct mountains in the district" />
		<tag k="name" v="Skeidshornet" />
		<tag k="natural" v="hill" />
		<tag k="place" v="locality" />
		<tag k="ssr:stedsnr" v="678854" />
	</node>
	<node lat="62.31506388662361" lon="5.805025000592501" id="-2559">
		<tag k="name" v="Hellebrauta" />
		<tag k="natural" v="slope" />
		<tag k="place" v="locality" />
		<tag k="ssr:stedsnr" v="520559" />
	</node>
	<node lat="62.4045027777089" lon="5.900697230509183" id="-2563">
		<tag k="name" v="Myrbærkoppen" />
		<tag k="natural" v="valley" />
		<tag k="place" v="locality" />
		<tag k="ssr:stedsnr" v="521609" />
	</node>
	<node lat="62.26007778147233" lon="5.872613897583113" id="-2564">
		<tag k="name" v="Havågsdalen" />
		<tag k="natural" v="valley" />
		<tag k="place" v="locality" />
		<tag k="ssr:stedsnr" v="521503" />
	</node>
	<node lat="62.290169442836884" lon="5.912227768791039" id="-2568">
		<tag k="name" v="Djupedalen" />
		<tag k="natural" v="valley" />
		<tag k="place" v="locality" />
		<tag k="ssr:stedsnr" v="521560" />
	</node>
	<node lat="62.26824999957399" lon="5.893225003876442" id="-2570">
		<tag k="alt_name" v="Haddalsfjellet" />
		<tag k="fixme" v="consider natural=peak for the most distinct mountains in the district" />
		<tag k="name" v="Haddalshornet" />
		<tag k="natural" v="hill" />
		<tag k="place" v="locality" />
		<tag k="ssr:stedsnr" v="556206" />
	</node>
	<node lat="62.41832222290835" lon="5.955997216196302" id="-2572">
		<tag k="fixme" v="consider natural=peak for the most distinct mountains in the district" />
		<tag k="name" v="Skolma" />
		<tag k="natural" v="hill" />
		<tag k="place" v="locality" />
		<tag k="ssr:stedsnr" v="556912" />
	</node>
	<node lat="62.24685277399272" lon="5.906900009031796" id="-2576">
		<tag k="name" v="Nakken" />
		<tag k="natural" v="hill" />
		<tag k="place" v="locality" />
		<tag k="ssr:stedsnr" v="581510" />
	</node>
	<node lat="62.26330277968826" lon="5.877030556343074" id="-2579">
		<tag k="fixme" v="consider natural=peak for the most distinct mountains in the district" />
		<tag k="name" v="Skjoratua" />
		<tag k="natural" v="hill" />
		<tag k="place" v="locality" />
		<tag k="ssr:stedsnr" v="581544" />
	</node>
	<node lat="62.25216111451511" lon="5.870608331815661" id="-2580">
		<tag k="name" v="Storehaugen" />
		<tag k="natural" v="hill" />
		<tag k="place" v="locality" />
		<tag k="ssr:stedsnr" v="581546" />
	</node>
	<node lat="62.29612500394869" lon="5.886041657960027" id="-2582">
		<tag k="fixme" v="consider natural=peak for the most distinct mountains in the district" />
		<tag k="name" v="Ringstadnotten" />
		<tag k="natural" v="hill" />
		<tag k="place" v="locality" />
		<tag k="ssr:stedsnr" v="581592" />
	</node>
	<node lat="62.399313887730166" lon="5.869783342518338" id="-2583">
		<tag k="name" v="Nygjerdet" />
		<tag k="natural" v="slope" />
		<tag k="place" v="locality" />
		<tag k="ssr:stedsnr" v="581599" />
	</node>
	<node lat="62.35420277670785" lon="5.859569445080181" id="-2590">
		<tag k="fixme" v="consider natural=peak for the most distinct mountains in the district" />
		<tag k="name" v="Lågskjervene" />
		<tag k="natural" v="hill" />
		<tag k="place" v="locality" />
		<tag k="ssr:stedsnr" v="617833" />
	</node>
	<node lat="62.41355832987621" lon="5.925911117297599" id="-2593">
		<tag k="name" v="Nordlia" />
		<tag k="natural" v="slope" />
		<tag k="place" v="locality" />
		<tag k="ssr:stedsnr" v="703493" />
	</node>
	<node lat="62.42012500193713" lon="5.920680560199328" id="-2595">
		<tag k="name" v="Knollane" />
		<tag k="natural" v="hill" />
		<tag k="place" v="locality" />
		<tag k="ssr:stedsnr" v="703499" />
	</node>
	<node lat="62.262730555121735" lon="5.86975556383424" id="-2599">
		<tag k="fixme" v="consider natural=peak for the most distinct mountains in the district" />
		<tag k="name" v="Arefjellet" />
		<tag k="natural" v="hill" />
		<tag k="place" v="locality" />
		<tag k="ssr:stedsnr" v="703547" />
	</node>
	<node lat="62.30566110894644" lon="5.899369447387838" id="-2602">
		<tag k="name" v="Myrkevassegga" />
		<tag k="natural" v="ridge" />
		<tag k="place" v="locality" />
		<tag k="ssr:stedsnr" v="703590" />
	</node>
	<node lat="62.304630558619" lon="5.907972214238788" id="-2603">
		<tag k="name" v="Skyrdalen" />
		<tag k="natural" v="valley" />
		<tag k="place" v="locality" />
		<tag k="ssr:stedsnr" v="703591" />
	</node>
	<node lat="62.31863888714826" lon="5.858580560140343" id="-2607">
		<tag k="name" v="Sandbakkane" />
		<tag k="natural" v="slope" />
		<tag k="place" v="locality" />
		<tag k="ssr:stedsnr" v="641496" />
	</node>
	<node lat="62.319383331433" lon="5.82081944815608" id="-2611">
		<tag k="name" v="Storenakken" />
		<tag k="natural" v="hill" />
		<tag k="place" v="locality" />
		<tag k="ssr:stedsnr" v="641526" />
	</node>
	<node lat="62.345627781504945" lon="5.827108329412462" id="-2612">
		<tag k="name" v="Oshaugen" />
		<tag k="natural" v="hill" />
		<tag k="place" v="locality" />
		<tag k="ssr:stedsnr" v="642510" />
	</node>
	<node lat="62.30679444616971" lon="5.79605554789116" id="-2613">
		<tag k="name" v="Arhuset" />
		<tag k="natural" v="slope" />
		<tag k="place" v="locality" />
		<tag k="ssr:stedsnr" v="642512" />
	</node>
	<node lat="62.39177222628266" lon="5.911675007749969" id="-2620">
		<tag k="name" v="Vasshaugen" />
		<tag k="natural" v="hill" />
		<tag k="place" v="locality" />
		<tag k="ssr:stedsnr" v="678874" />
	</node>
	<node lat="62.388625004327444" lon="5.842280549898388" id="-2621">
		<tag k="alt_name" v="Roppehetta" />
		<tag k="fixme" v="consider natural=peak for the most distinct mountains in the district" />
		<tag k="name" v="Roppehornet" />
		<tag k="natural" v="hill" />
		<tag k="place" v="locality" />
		<tag k="ssr:stedsnr" v="678879" />
	</node>
	<node lat="62.316338885649856" lon="5.8655250099820755" id="-2629">
		<tag k="name" v="Gråsteinsletta" />
		<tag k="natural" v="slope" />
		<tag k="place" v="locality" />
		<tag k="ssr:stedsnr" v="702522" />
	</node>
	<node lat="62.28113333264295" lon="5.870516669325996" id="-2631">
		<tag k="name" v="Seljehaugen" />
		<tag k="natural" v="hill" />
		<tag k="place" v="locality" />
		<tag k="ssr:stedsnr" v="703609" />
	</node>
	<node lat="62.27179166768526" lon="5.923119449280616" id="-2633">
		<tag k="name" v="Timbrenokkane" />
		<tag k="place" v="locality" />
		<tag k="ssr:stedsnr" v="703613" />
	</node>
	<node lat="62.269388885673926" lon="5.897686119107865" id="-2634">
		<tag k="name" v="Klungsdalsskaret" />
		<tag k="natural" v="valley" />
		<tag k="place" v="locality" />
		<tag k="ssr:stedsnr" v="703614" />
	</node>
	<node lat="62.374852774976794" lon="5.839975006031626" id="-2635">
		<tag k="fixme" v="multiple name tags, choose one and add the other to alt_name" />
		<tag k="name" v="Uldalsskaret;Skaret" />
		<tag k="natural" v="valley" />
		<tag k="place" v="locality" />
		<tag k="ssr:stedsnr" v="703622" />
	</node>
	<node lat="62.36881111251241" lon="5.839866674936217" id="-2637">
		<tag k="name" v="Skotlehaugen" />
		<tag k="natural" v="hill" />
		<tag k="place" v="locality" />
		<tag k="ssr:stedsnr" v="703626" />
	</node>
	<node lat="62.262586108528595" lon="5.898116670597062" id="-2639">
		<tag k="name" v="Langedalen" />
		<tag k="natural" v="valley" />
		<tag k="place" v="locality" />
		<tag k="ssr:stedsnr" v="703519" />
	</node>
	<node lat="62.29355832953049" lon="5.915383325428268" id="-2642">
		<tag k="name" v="Grådalen" />
		<tag k="natural" v="valley" />
		<tag k="place" v="locality" />
		<tag k="ssr:stedsnr" v="703571" />
	</node>
	<node lat="62.30550000236886" lon="5.943361116994974" id="-2643">
		<tag k="name" v="Løseteidet" />
		<tag k="natural" v="slope" />
		<tag k="place" v="locality" />
		<tag k="ssr:stedsnr" v="722167" />
	</node>
	<node lat="62.25848889094916" lon="5.86353055942167" id="-2647">
		<tag k="name" v="Havågsdalen" />
		<tag k="natural" v="valley" />
		<tag k="place" v="locality" />
		<tag k="ssr:stedsnr" v="738162" />
	</node>
	<node lat="62.41289444647787" lon="5.897236109698653" id="-2648">
		<tag k="fixme" v="consider natural=peak for the most distinct mountains in the district" />
		<tag k="name" v="Kjerringa" />
		<tag k="natural" v="hill" />
		<tag k="place" v="locality" />
		<tag k="ssr:stedsnr" v="739897" />
	</node>
	<node lat="62.27299444293082" lon="5.871061114653851" id="-2650">
		<tag k="name" v="Slettene" />
		<tag k="place" v="locality" />
		<tag k="ssr:stedsnr" v="763505" />
	</node>
	<node lat="62.2819305535164" lon="5.904152781410392" id="-2651">
		<tag k="name" v="Slætta" />
		<tag k="natural" v="slope" />
		<tag k="place" v="locality" />
		<tag k="ssr:stedsnr" v="763507" />
	</node>
	<node lat="62.30943055884027" lon="5.846333323564048" id="-2656">
		<tag k="name" v="Leitet" />
		<tag k="natural" v="ridge" />
		<tag k="place" v="locality" />
		<tag k="ssr:stedsnr" v="763491" />
	</node>
	<node lat="62.37900555342544" lon="5.856902779151464" id="-2657">
		<tag k="name" v="Strupen" />
		<tag k="natural" v="valley" />
		<tag k="place" v="locality" />
		<tag k="ssr:stedsnr" v="763495" />
	</node>
	<node lat="62.258399998066814" lon="5.827133334190944" id="-2659">
		<tag k="name" v="Hillehamrane" />
		<tag k="natural" v="cliff" />
		<tag k="ssr:stedsnr" v="763609" />
	</node>
	<node lat="62.41647500028091" lon="5.88284723088828" id="-2660">
		<tag k="name" v="Hardhaugen" />
		<tag k="natural" v="hill" />
		<tag k="place" v="locality" />
		<tag k="ssr:stedsnr" v="763612" />
	</node>
	<node lat="62.388080552909" lon="5.839438888997223" id="-2662">
		<tag k="name" v="Måsegylet" />
		<tag k="natural" v="gorge" />
		<tag k="ssr:stedsnr" v="763619" />
	</node>
	<node lat="62.31356388769357" lon="5.922591675428282" id="-2664">
		<tag k="name" v="Geitaryggen" />
		<tag k="natural" v="ridge" />
		<tag k="place" v="locality" />
		<tag k="ssr:stedsnr" v="908283" />
	</node>
	<node lat="62.38414444267915" lon="5.898872214936477" id="-2668">
		<tag k="name" v="Skåla" />
		<tag k="place" v="locality" />
		<tag k="ssr:stedsnr" v="787001" />
	</node>
	<node lat="62.31799444560244" lon="5.878086118195746" id="-2674">
		<tag k="fixme" v="multiple name tags, choose one and add the other to alt_name; consider natural=peak for the most distinct mountains in the district" />
		<tag k="name" v="Hasundhornet;Hasundrabben" />
		<tag k="natural" v="hill" />
		<tag k="place" v="locality" />
		<tag k="ssr:stedsnr" v="800734" />
	</node>
	<node lat="62.30033611068363" lon="5.90046944169437" id="-2682">
		<tag k="name" v="Myrkevassegga" />
		<tag k="natural" v="ridge" />
		<tag k="place" v="locality" />
		<tag k="ssr:stedsnr" v="824563" />
	</node>
	<node lat="62.34865555724222" lon="5.855700000796461" id="-2683">
		<tag k="name" v="Tytebærhaugen" />
		<tag k="natural" v="hill" />
		<tag k="place" v="locality" />
		<tag k="ssr:stedsnr" v="824569" />
	</node>
	<node lat="62.35493611544303" lon="5.848441667434028" id="-2684">
		<tag k="name" v="Årdalen" />
		<tag k="natural" v="valley" />
		<tag k="place" v="locality" />
		<tag k="ssr:stedsnr" v="824463" />
	</node>
	<node lat="62.35893055521235" lon="5.820011102518103" id="-2685">
		<tag k="name" v="Laberget" />
		<tag k="natural" v="hill" />
		<tag k="place" v="locality" />
		<tag k="ssr:stedsnr" v="824464" />
	</node>
	<node lat="62.41985833706577" lon="5.898772216962627" id="-2687">
		<tag k="name" v="Kriken" />
		<tag k="place" v="locality" />
		<tag k="ssr:stedsnr" v="824472" />
	</node>
	<node lat="62.33770277488293" lon="5.857433336895695" id="-2696">
		<tag k="name" v="Alvehaugsletta" />
		<tag k="place" v="locality" />
		<tag k="ssr:stedsnr" v="884509" />
	</node>
	<node lat="62.315369441333246" lon="5.812508328927833" id="-2697">
		<tag k="name" v="Stemnehornet" />
		<tag k="natural" v="hill" />
		<tag k="place" v="locality" />
		<tag k="ssr:stedsnr" v="884516" />
	</node>
	<node lat="62.36050832988334" lon="5.876550000292237" id="-2699">
		<tag k="name" v="Breifjellet" />
		<tag k="natural" v="hill" />
		<tag k="place" v="locality" />
		<tag k="ssr:stedsnr" v="885505" />
	</node>
	<node lat="62.30031666656912" lon="5.893774999505312" id="-2709">
		<tag k="alt_name" v="Garnestua" />
		<tag k="fixme" v="consider natural=peak for the most distinct mountains in the district" />
		<tag k="name" v="Gardnestua" />
		<tag k="natural" v="hill" />
		<tag k="place" v="locality" />
		<tag k="ssr:stedsnr" v="921157" />
	</node>
	<node lat="62.3243972219766" lon="5.7967805501895615" id="-2714">
		<tag k="name" v="Storehaugen" />
		<tag k="natural" v="hill" />
		<tag k="place" v="locality" />
		<tag k="ssr:stedsnr" v="945613" />
	</node>
	<node lat="62.32258889150536" lon="5.786119441530164" id="-2715">
		<tag k="name" v="Storhaugen" />
		<tag k="natural" v="hill" />
		<tag k="place" v="locality" />
		<tag k="ssr:stedsnr" v="946504" />
	</node>
	<node lat="62.40447777645381" lon="5.9110027775214125" id="-2740">
		<tag k="fixme" v="consider natural=peak for the most distinct mountains in the district" />
		<tag k="name" v="Smørkinna" />
		<tag k="natural" v="hill" />
		<tag k="place" v="locality" />
		<tag k="ssr:stedsnr" v="11936" />
	</node>
	<node lat="62.32777222376651" lon="5.801047225772313" id="-2749">
		<tag k="name" v="Skulehaugen" />
		<tag k="natural" v="hill" />
		<tag k="place" v="locality" />
		<tag k="ssr:stedsnr" v="35692" />
	</node>
	<node lat="62.305475001792956" lon="5.916702785536564" id="-2751">
		<tag k="name" v="Bulia" />
		<tag k="natural" v="slope" />
		<tag k="place" v="locality" />
		<tag k="ssr:stedsnr" v="35594" />
	</node>
	<node lat="62.25958611288483" lon="5.850822220293309" id="-2752">
		<tag k="name" v="Ørnetuva" />
		<tag k="natural" v="hill" />
		<tag k="place" v="locality" />
		<tag k="ssr:stedsnr" v="35553" />
	</node>
	<node lat="62.27450000196678" lon="5.893808336343093" id="-2756">
		<tag k="name" v="Sverinden" />
		<tag k="natural" v="ridge" />
		<tag k="place" v="locality" />
		<tag k="ssr:stedsnr" v="35637" />
	</node>
	<node lat="62.346783334234345" lon="5.877347214864472" id="-2760">
		<tag k="name" v="Skjervene" />
		<tag k="natural" v="slope" />
		<tag k="place" v="locality" />
		<tag k="ssr:stedsnr" v="59236" />
	</node>
	<node lat="62.33568888638052" lon="5.9135444466984755" id="-2761">
		<tag k="name" v="Stortua" />
		<tag k="natural" v="hill" />
		<tag k="place" v="locality" />
		<tag k="ssr:stedsnr" v="59241" />
	</node>
	<node lat="62.35498888634173" lon="5.874152776868904" id="-2762">
		<tag k="name" v="Vikeseterbakken" />
		<tag k="natural" v="slope" />
		<tag k="place" v="locality" />
		<tag k="ssr:stedsnr" v="59245" />
	</node>
	<node lat="62.39365833705128" lon="5.879849999968218" id="-2768">
		<tag k="name" v="Midtflødalen" />
		<tag k="natural" v="valley" />
		<tag k="place" v="locality" />
		<tag k="ssr:stedsnr" v="72859" />
	</node>
	<node lat="62.37170277985123" lon="5.8606555548359776" id="-2770">
		<tag k="name" v="Morka" />
		<tag k="natural" v="slope" />
		<tag k="place" v="locality" />
		<tag k="ssr:stedsnr" v="96489" />
	</node>
	<node lat="62.25820277547084" lon="5.847474996688168" id="-2777">
		<tag k="name" v="Knipedalen" />
		<tag k="natural" v="valley" />
		<tag k="place" v="locality" />
		<tag k="ssr:stedsnr" v="96515" />
	</node>
	<node lat="62.30005555672576" lon="5.781680553733165" id="-2780">
		<tag k="name" v="Ramnereiret" />
		<tag k="natural" v="cliff" />
		<tag k="ssr:stedsnr" v="96646" />
	</node>
	<node lat="62.29416944718786" lon="5.930541672512164" id="-2785">
		<tag k="name" v="Ringstadbotnen" />
		<tag k="natural" v="valley" />
		<tag k="place" v="locality" />
		<tag k="ssr:stedsnr" v="116137" />
	</node>
	<node lat="62.35635555943357" lon="5.866513883635635" id="-2786">
		<tag k="name" v="Skarpeidet" />
		<tag k="place" v="locality" />
		<tag k="ssr:stedsnr" v="120243" />
	</node>
	<node lat="62.27442777748599" lon="5.885163887845962" id="-2787">
		<tag k="name" v="Klungsdalen" />
		<tag k="natural" v="valley" />
		<tag k="place" v="locality" />
		<tag k="ssr:stedsnr" v="131164" />
	</node>
	<node lat="62.37719999837425" lon="5.854102780695578" id="-2789">
		<tag k="name" v="Koppen" />
		<tag k="natural" v="hill" />
		<tag k="place" v="locality" />
		<tag k="ssr:stedsnr" v="131898" />
	</node>
	<node lat="62.381863888537" lon="5.899652779069928" id="-2790">
		<tag k="fixme" v="consider natural=peak for the most distinct mountains in the district" />
		<tag k="name" v="Sarshornet" />
		<tag k="natural" v="hill" />
		<tag k="place" v="locality" />
		<tag k="ssr:stedsnr" v="131899" />
	</node>
	<node lat="62.381933330189675" lon="5.862038895835413" id="-2801">
		<tag k="name" v="Middagstua" />
		<tag k="natural" v="ridge" />
		<tag k="place" v="locality" />
		<tag k="ssr:stedsnr" v="157460" />
	</node>
	<node lat="62.29188888844302" lon="5.917455563452829" id="-2805">
		<tag k="name" v="Ringstadmarka" />
		<tag k="natural" v="slope" />
		<tag k="place" v="locality" />
		<tag k="ssr:stedsnr" v="157526" />
	</node>
	<node lat="62.396224996281404" lon="5.9209583433864665" id="-2806">
		<tag k="name" v="Sneldelibakkane" />
		<tag k="natural" v="slope" />
		<tag k="place" v="locality" />
		<tag k="ssr:stedsnr" v="157534" />
	</node>
	<node lat="62.25692500058013" lon="5.842027777718521" id="-2807">
		<tag k="name" v="Aksla" />
		<tag k="natural" v="ridge" />
		<tag k="place" v="locality" />
		<tag k="ssr:stedsnr" v="156464" />
	</node>
	<node lat="62.34260277823248" lon="5.8646027682641515" id="-2809">
		<tag k="name" v="Hovsethaugen" />
		<tag k="natural" v="hill" />
		<tag k="place" v="locality" />
		<tag k="ssr:stedsnr" v="156546" />
	</node>
	<node lat="62.327958333128045" lon="5.815038888221377" id="-2810">
		<tag k="name" v="Vågelegene" />
		<tag k="place" v="locality" />
		<tag k="ssr:stedsnr" v="156654" />
	</node>
	<node lat="62.36484167046906" lon="5.829352786533439" id="-2812">
		<tag k="name" v="Brekkene" />
		<tag k="natural" v="slope" />
		<tag k="place" v="locality" />
		<tag k="ssr:stedsnr" v="157417" />
	</node>
	<node lat="62.37758888743319" lon="5.822611113148291" id="-2813">
		<tag k="name" v="Hartua" />
		<tag k="natural" v="hill" />
		<tag k="place" v="locality" />
		<tag k="ssr:stedsnr" v="157419" />
	</node>
	<node lat="62.38265555225383" lon="5.890972224289699" id="-2822">
		<tag k="name" v="Skålahola" />
		<tag k="natural" v="valley" />
		<tag k="place" v="locality" />
		<tag k="ssr:stedsnr" v="180051" />
	</node>
	<node lat="62.367063888000615" lon="5.898038881547489" id="-2823">
		<tag k="name" v="Feilia" />
		<tag k="natural" v="slope" />
		<tag k="place" v="locality" />
		<tag k="ssr:stedsnr" v="180237" />
	</node>
	<node lat="62.3680833312067" lon="5.842063883421516" id="-2824">
		<tag k="fixme" v="consider natural=peak for the most distinct mountains in the district" />
		<tag k="name" v="Skålanausen" />
		<tag k="natural" v="hill" />
		<tag k="place" v="locality" />
		<tag k="ssr:stedsnr" v="192871" />
	</node>
	<node lat="62.38265555748044" lon="5.852391657808992" id="-2827">
		<tag k="fixme" v="consider natural=peak for the most distinct mountains in the district" />
		<tag k="name" v="Trollvassegga" />
		<tag k="natural" v="hill" />
		<tag k="place" v="locality" />
		<tag k="ssr:stedsnr" v="192915" />
	</node>
	<node lat="62.26226667030794" lon="5.855444441326788" id="-2840">
		<tag k="name" v="Brautaryggen" />
		<tag k="natural" v="ridge" />
		<tag k="place" v="locality" />
		<tag k="ssr:stedsnr" v="217491" />
	</node>
	<node lat="62.351830559827825" lon="5.851874996886628" id="-2842">
		<tag k="name" v="Årkinna" />
		<tag k="natural" v="slope" />
		<tag k="place" v="locality" />
		<tag k="ssr:stedsnr" v="217458" />
	</node>
	<node lat="62.25553611479035" lon="5.876547227230641" id="-2843">
		<tag k="name" v="Åsen" />
		<tag k="natural" v="ridge" />
		<tag k="place" v="locality" />
		<tag k="ssr:stedsnr" v="217464" />
	</node>
	<node lat="62.40326944050593" lon="5.868050001856286" id="-2845">
		<tag k="name" v="Midtfløbakkane" />
		<tag k="natural" v="slope" />
		<tag k="place" v="locality" />
		<tag k="ssr:stedsnr" v="217553" />
	</node>
	<node lat="62.333131648856174" lon="5.862032913936023" id="-2846">
		<tag k="name" v="Litlenotten" />
		<tag k="natural" v="hill" />
		<tag k="place" v="locality" />
		<tag k="ssr:stedsnr" v="217558" />
	</node>
	<node lat="62.354197226153794" lon="5.8595416635082" id="-2847">
		<tag k="fixme" v="consider natural=peak for the most distinct mountains in the district" />
		<tag k="name" v="Høgskjerva" />
		<tag k="natural" v="hill" />
		<tag k="place" v="locality" />
		<tag k="ssr:stedsnr" v="217573" />
	</node>
	<node lat="62.28257777373385" lon="5.925405555918646" id="-2850">
		<tag k="fixme" v="consider natural=peak for the most distinct mountains in the district" />
		<tag k="name" v="Myrkevasshornet" />
		<tag k="natural" v="hill" />
		<tag k="place" v="locality" />
		<tag k="ssr:stedsnr" v="217590" />
	</node>
	<node lat="62.39968889284811" lon="5.897788891659606" id="-2852">
		<tag k="name" v="Hjellberga" />
		<tag k="natural" v="slope" />
		<tag k="place" v="locality" />
		<tag k="ssr:stedsnr" v="217653" />
	</node>
	<node lat="62.31745833589986" lon="5.816769442813256" id="-2853">
		<tag k="name" v="Litlenakken" />
		<tag k="natural" v="hill" />
		<tag k="place" v="locality" />
		<tag k="ssr:stedsnr" v="277545" />
	</node>
	<node lat="62.31071666890682" lon="5.811666664129051" id="-2854">
		<tag k="name" v="Blåfjellet" />
		<tag k="natural" v="hill" />
		<tag k="place" v="locality" />
		<tag k="ssr:stedsnr" v="277552" />
	</node>
	<node lat="62.28419999577968" lon="5.926441665867699" id="-2855">
		<tag k="name" v="Skorene" />
		<tag k="natural" v="valley" />
		<tag k="place" v="locality" />
		<tag k="ssr:stedsnr" v="278533" />
	</node>
	<node lat="62.39934444500385" lon="5.85931666028093" id="-2857">
		<tag k="name" v="Blåhamrane" />
		<tag k="natural" v="slope" />
		<tag k="place" v="locality" />
		<tag k="ssr:stedsnr" v="278540" />
	</node>
	<node lat="62.25403888820055" lon="5.914958342718918" id="-2858">
		<tag k="name" v="Arehaugen" />
		<tag k="natural" v="hill" />
		<tag k="place" v="locality" />
		<tag k="ssr:stedsnr" v="278542" />
	</node>
	<node lat="62.258666668499124" lon="5.879202773376877" id="-2859">
		<tag k="fixme" v="consider natural=peak for the most distinct mountains in the district" />
		<tag k="name" v="Høgenakken" />
		<tag k="natural" v="hill" />
		<tag k="place" v="locality" />
		<tag k="ssr:stedsnr" v="278543" />
	</node>
	<node lat="62.41674444684239" lon="5.892369447783948" id="-2865">
		<tag k="name" v="Kjerringryggen" />
		<tag k="natural" v="ridge" />
		<tag k="place" v="locality" />
		<tag k="ssr:stedsnr" v="278633" />
	</node>
	<node lat="62.29133888760218" lon="5.946991662663428" id="-2868">
		<tag k="name" v="Bukketrappene" />
		<tag k="place" v="locality" />
		<tag k="ssr:stedsnr" v="298147" />
	</node>
	<node lat="62.35095000375577" lon="5.892394438178555" id="-2869">
		<tag k="name" v="Svartholen" />
		<tag k="place" v="locality" />
		<tag k="ssr:stedsnr" v="302258" />
	</node>
	<node lat="62.285997221553515" lon="5.889408338737003" id="-2870">
		<tag k="name" v="Ringstaddalen" />
		<tag k="natural" v="valley" />
		<tag k="place" v="locality" />
		<tag k="ssr:stedsnr" v="314152" />
	</node>
	<node lat="62.3380399207839" lon="5.856674889937929" id="-2872">
		<tag k="name" v="Alvehaugen" />
		<tag k="natural" v="hill" />
		<tag k="place" v="locality" />
		<tag k="ssr:stedsnr" v="314795" />
	</node>
	<node lat="62.338144442626934" lon="5.884069451057963" id="-2873">
		<tag k="name" v="Holsekredalen" />
		<tag k="natural" v="valley" />
		<tag k="old_name" v="Holsekdalen" />
		<tag k="place" v="locality" />
		<tag k="ssr:stedsnr" v="314797" />
	</node>
	<node lat="62.36235833167136" lon="5.860197219828344" id="-2876">
		<tag k="fixme" v="consider natural=peak for the most distinct mountains in the district" />
		<tag k="name" v="Tverrvadet" />
		<tag k="natural" v="hill" />
		<tag k="place" v="locality" />
		<tag k="ssr:stedsnr" v="314842" />
	</node>
	<node lat="62.2532666682103" lon="5.882319436007025" id="-2881">
		<tag k="name" v="Espehaugen" />
		<tag k="natural" v="hill" />
		<tag k="place" v="locality" />
		<tag k="ssr:stedsnr" v="338438" />
	</node>
	<node lat="62.34441388915009" lon="5.865738883159501" id="-2883">
		<tag k="name" v="Anholen" />
		<tag k="natural" v="hill" />
		<tag k="place" v="locality" />
		<tag k="ssr:stedsnr" v="338391" />
	</node>
	<node lat="62.34714721842544" lon="5.852150002668728" id="-2884">
		<tag k="name" v="Vikebakkane" />
		<tag k="natural" v="slope" />
		<tag k="place" v="locality" />
		<tag k="ssr:stedsnr" v="338464" />
	</node>
	<node lat="62.33144721978581" lon="5.900080559435775" id="-2890">
		<tag k="name" v="Høgebrua" />
		<tag k="natural" v="slope" />
		<tag k="place" v="locality" />
		<tag k="ssr:stedsnr" v="362253" />
	</node>
	<node lat="62.2568999983003" lon="5.888691664999252" id="-2892">
		<tag k="name" v="Sætrehaugen" />
		<tag k="natural" v="hill" />
		<tag k="place" v="locality" />
		<tag k="ssr:stedsnr" v="374233" />
	</node>
	<node lat="62.26774606359522" lon="5.909509132240863" id="-2899">
		<tag k="fixme" v="consider natural=peak for the most distinct mountains in the district" />
		<tag k="name" v="Grøthornet" />
		<tag k="natural" v="hill" />
		<tag k="place" v="locality" />
		<tag k="ssr:stedsnr" v="495187" />
	</node>
	<node lat="62.24079999639527" lon="5.896002780961296" id="-2900">
		<tag k="fixme" v="consider natural=peak for the most distinct mountains in the district" />
		<tag k="name" v="Grønnakken" />
		<tag k="natural" v="hill" />
		<tag k="place" v="locality" />
		<tag k="ssr:stedsnr" v="392223" />
	</node>
	<node lat="62.34706944034594" lon="5.84513610481786" id="-2906">
		<tag k="name" v="Legene" />
		<tag k="natural" v="slope" />
		<tag k="place" v="locality" />
		<tag k="ssr:stedsnr" v="399549" />
	</node>
	<node lat="62.30099722585019" lon="5.796769437368408" id="-2907">
		<tag k="name" v="Flotane" />
		<tag k="place" v="locality" />
		<tag k="ssr:stedsnr" v="399553" />
	</node>
	<node lat="62.24836388441525" lon="5.904411103321988" id="-2909">
		<tag k="name" v="Bakarhaugen" />
		<tag k="natural" v="hill" />
		<tag k="place" v="locality" />
		<tag k="ssr:stedsnr" v="399517" />
	</node>
	<node lat="62.379486112217705" lon="5.887327787235968" id="-2917">
		<tag k="name" v="Høgebrua" />
		<tag k="natural" v="slope" />
		<tag k="place" v="locality" />
		<tag k="ssr:stedsnr" v="423063" />
	</node>
	<node lat="62.32536389239395" lon="5.890252768905884" id="-2918">
		<tag k="fixme" v="consider natural=peak for the most distinct mountains in the district" />
		<tag k="name" v="Stien" />
		<tag k="natural" v="hill" />
		<tag k="place" v="locality" />
		<tag k="ssr:stedsnr" v="423276" />
	</node>
	<node lat="62.293808337325785" lon="5.881191665912151" id="-2925">
		<tag k="alt_name" v="Skålanotten" />
		<tag k="fixme" v="consider natural=peak for the most distinct mountains in the district" />
		<tag k="name" v="Ringstadhornet" />
		<tag k="natural" v="hill" />
		<tag k="place" v="locality" />
		<tag k="ssr:stedsnr" v="436133" />
	</node>
	<node lat="62.32164167103569" lon="5.826180552407972" id="-2926">
		<tag k="fixme" v="consider natural=peak for the most distinct mountains in the district" />
		<tag k="name" v="Høgåsen" />
		<tag k="natural" v="hill" />
		<tag k="place" v="locality" />
		<tag k="ssr:stedsnr" v="436776" />
	</node>
	<node lat="62.36990833436624" lon="5.893652785690795" id="-2934">
		<tag k="fixme" v="consider natural=peak for the most distinct mountains in the district" />
		<tag k="name" v="Skeidsnakken" />
		<tag k="natural" v="hill" />
		<tag k="place" v="locality" />
		<tag k="ssr:stedsnr" v="496840" />
	</node>
	<node lat="62.30099444848996" lon="5.8344805589804" id="-2938">
		<tag k="name" v="Fylhammaren" />
		<tag k="natural" v="cliff" />
		<tag k="ssr:stedsnr" v="520531" />
	</node>
	<node lat="62.32449444826745" lon="5.825644434502457" id="-2940">
		<tag k="name" v="Vågefjellet" />
		<tag k="place" v="locality" />
		<tag k="ssr:stedsnr" v="520557" />
	</node>
	<node lat="62.38543333006421" lon="5.830466661788174" id="-2945">
		<tag k="name" v="Trollet" />
		<tag k="natural" v="hill" />
		<tag k="place" v="locality" />
		<tag k="ssr:stedsnr" v="521447" />
	</node>
	<node lat="62.38287499768469" lon="5.841586113581348" id="-2946">
		<tag k="name" v="Grønlia" />
		<tag k="natural" v="slope" />
		<tag k="place" v="locality" />
		<tag k="ssr:stedsnr" v="521449" />
	</node>
	<node lat="62.3148638858731" lon="5.84554443621776" id="-2948">
		<tag k="name" v="Serkveberget" />
		<tag k="natural" v="hill" />
		<tag k="place" v="locality" />
		<tag k="ssr:stedsnr" v="521551" />
	</node>
	<node lat="62.370252773357294" lon="5.899769441789834" id="-2954">
		<tag k="name" v="Feiliskaret" />
		<tag k="natural" v="valley" />
		<tag k="place" v="locality" />
		<tag k="ssr:stedsnr" v="544240" />
	</node>
	<node lat="62.35736944602869" lon="5.895841658061152" id="-2955">
		<tag k="name" v="Kiberget" />
		<tag k="natural" v="hill" />
		<tag k="place" v="locality" />
		<tag k="ssr:stedsnr" v="556829" />
	</node>
	<node lat="62.37569444727214" lon="5.831411119103279" id="-2956">
		<tag k="fixme" v="consider natural=peak for the most distinct mountains in the district" />
		<tag k="name" v="Ulsteinhetta" />
		<tag k="natural" v="hill" />
		<tag k="place" v="locality" />
		<tag k="ssr:stedsnr" v="556893" />
	</node>
	<node lat="62.38539722031498" lon="5.9101972300654975" id="-2962">
		<tag k="fixme" v="consider natural=peak for the most distinct mountains in the district" />
		<tag k="name" v="Skålnakken" />
		<tag k="natural" v="hill" />
		<tag k="place" v="locality" />
		<tag k="ssr:stedsnr" v="557885" />
	</node>
	<node lat="62.34261944685843" lon="5.858575007075811" id="-2964">
		<tag k="name" v="Sigvaldhaugen" />
		<tag k="natural" v="hill" />
		<tag k="place" v="locality" />
		<tag k="ssr:stedsnr" v="580509" />
	</node>
	<node lat="62.348019442105596" lon="5.839463890131679" id="-2967">
		<tag k="name" v="Brunene" />
		<tag k="natural" v="slope" />
		<tag k="place" v="locality" />
		<tag k="ssr:stedsnr" v="581558" />
	</node>
	<node lat="62.315258332357104" lon="5.84119722020958" id="-2968">
		<tag k="name" v="Arhaugen" />
		<tag k="natural" v="hill" />
		<tag k="place" v="locality" />
		<tag k="ssr:stedsnr" v="581570" />
	</node>
	<node lat="62.32002500364296" lon="5.819252771345337" id="-2970">
		<tag k="name" v="Høgåsdalen" />
		<tag k="natural" v="valley" />
		<tag k="place" v="locality" />
		<tag k="ssr:stedsnr" v="581585" />
	</node>
	<node lat="62.31675277488274" lon="5.894825008139064" id="-2984">
		<tag k="name" v="Glennene" />
		<tag k="natural" v="slope" />
		<tag k="place" v="locality" />
		<tag k="ssr:stedsnr" v="605285" />
	</node>
	<node lat="62.32100000317632" lon="5.890400001759778" id="-2985">
		<tag k="name" v="Grimmedalen" />
		<tag k="natural" v="valley" />
		<tag k="place" v="locality" />
		<tag k="ssr:stedsnr" v="605290" />
	</node>
	<node lat="62.31604722092307" lon="5.922672224711461" id="-2986">
		<tag k="name" v="Løken" />
		<tag k="natural" v="valley" />
		<tag k="place" v="locality" />
		<tag k="ssr:stedsnr" v="605298" />
	</node>
	<node lat="62.28814999834894" lon="5.9377388917991105" id="-2987">
		<tag k="fixme" v="multiple name tags, choose one and add the other to alt_name; consider natural=peak for the most distinct mountains in the district" />
		<tag k="name" v="Kongsvollen;Løsethorn" />
		<tag k="natural" v="hill" />
		<tag k="place" v="locality" />
		<tag k="ssr:stedsnr" v="617168" />
	</node>
	<node lat="62.3864194400402" lon="5.876711110899649" id="-2990">
		<tag k="alt_name" v="Breifjellet" />
		<tag k="fixme" v="consider natural=peak for the most distinct mountains in the district" />
		<tag k="name" v="Breidfjellet" />
		<tag k="natural" v="hill" />
		<tag k="place" v="locality" />
		<tag k="ssr:stedsnr" v="617902" />
	</node>
	<node lat="62.31916388701921" lon="5.836641669253663" id="-2997">
		<tag k="name" v="Litleåsen" />
		<tag k="natural" v="hill" />
		<tag k="place" v="locality" />
		<tag k="ssr:stedsnr" v="642544" />
	</node>
	<node lat="62.29804166477049" lon="5.842500000003703" id="-2998">
		<tag k="name" v="Vågsleitet" />
		<tag k="natural" v="slope" />
		<tag k="place" v="locality" />
		<tag k="ssr:stedsnr" v="641498" />
	</node>
	<node lat="62.346083329816814" lon="5.779936117913615" id="-3001">
		<tag k="name" v="Jonsokhaugen" />
		<tag k="natural" v="hill" />
		<tag k="place" v="locality" />
		<tag k="ssr:stedsnr" v="641633" />
	</node>
	<node lat="62.33097500111667" lon="5.887294444280372" id="-3006">
		<tag k="name" v="Longhamrane" />
		<tag k="natural" v="slope" />
		<tag k="place" v="locality" />
		<tag k="ssr:stedsnr" v="665260" />
	</node>
	<node lat="62.30507601579293" lon="5.886153694811617" id="-3020">
		<tag k="alt_name" v="Grøthornet" />
		<tag k="fixme" v="consider natural=peak for the most distinct mountains in the district" />
		<tag k="name" v="Flåna" />
		<tag k="natural" v="hill" />
		<tag k="place" v="locality" />
		<tag k="ssr:stedsnr" v="739783" />
	</node>
	<node lat="62.374055556212" lon="5.861972214296725" id="-3027">
		<tag k="name" v="Morka" />
		<tag k="natural" v="slope" />
		<tag k="place" v="locality" />
		<tag k="ssr:stedsnr" v="763474" />
	</node>
	<node lat="62.39824444311007" lon="5.88805834272872" id="-3028">
		<tag k="alt_name" v="Lida" />
		<tag k="name" v="Lia" />
		<tag k="natural" v="slope" />
		<tag k="place" v="locality" />
		<tag k="ssr:stedsnr" v="763482" />
	</node>
	<node lat="62.25734444160512" lon="5.863000005241119" id="-3029">
		<tag k="name" v="Flatebergsheida" />
		<tag k="natural" v="hill" />
		<tag k="place" v="locality" />
		<tag k="ssr:stedsnr" v="763564" />
	</node>
	<node lat="62.30973889184032" lon="5.799066669513809" id="-3030">
		<tag k="name" v="Gotene" />
		<tag k="natural" v="hill" />
		<tag k="place" v="locality" />
		<tag k="ssr:stedsnr" v="763565" />
	</node>
	<node lat="62.31552500425706" lon="5.849944451016448" id="-3036">
		<tag k="name" v="Morteberghaugen" />
		<tag k="natural" v="hill" />
		<tag k="place" v="locality" />
		<tag k="ssr:stedsnr" v="763590" />
	</node>
	<node lat="62.38660833193708" lon="5.919547227456478" id="-3041">
		<tag k="fixme" v="consider natural=peak for the most distinct mountains in the district" />
		<tag k="name" v="Søre Broren" />
		<tag k="natural" v="hill" />
		<tag k="place" v="locality" />
		<tag k="ssr:stedsnr" v="763718" />
	</node>
	<node lat="62.34355833516787" lon="5.781652785646406" id="-3044">
		<tag k="name" v="Rogneberget" />
		<tag k="natural" v="hill" />
		<tag k="place" v="locality" />
		<tag k="ssr:stedsnr" v="763670" />
	</node>
	<node lat="62.296611110109886" lon="5.943063889553026" id="-3051">
		<tag k="name" v="Løsetbotnen" />
		<tag k="natural" v="valley" />
		<tag k="place" v="locality" />
		<tag k="ssr:stedsnr" v="783126" />
	</node>
	<node lat="62.31897499977397" lon="5.88948055758192" id="-3053">
		<tag k="name" v="Grimdalsnakken" />
		<tag k="place" v="locality" />
		<tag k="ssr:stedsnr" v="787269" />
	</node>
	<node lat="62.379580556612886" lon="5.83454443928379" id="-3057">
		<tag k="name" v="Uldalen" />
		<tag k="natural" v="valley" />
		<tag k="place" v="locality" />
		<tag k="ssr:stedsnr" v="799917" />
	</node>
	<node lat="62.38528610694563" lon="5.856333338273671" id="-3069">
		<tag k="name" v="Roppemarka" />
		<tag k="natural" v="valley" />
		<tag k="place" v="locality" />
		<tag k="ssr:stedsnr" v="800888" />
	</node>
	<node lat="62.40421944251738" lon="5.8824666718036385" id="-3071">
		<tag k="alt_name" v="Viten" />
		<tag k="fixme" v="consider natural=peak for the most distinct mountains in the district" />
		<tag k="name" v="Veten" />
		<tag k="natural" v="hill" />
		<tag k="place" v="locality" />
		<tag k="ssr:stedsnr" v="800936" />
	</node>
	<node lat="62.2881638871228" lon="5.84061389188396" id="-3074">
		<tag k="name" v="Hamrane" />
		<tag k="natural" v="cliff" />
		<tag k="ssr:stedsnr" v="824537" />
	</node>
	<node lat="62.36821666892218" lon="5.852555560506306" id="-3075">
		<tag k="name" v="Gjøtene" />
		<tag k="natural" v="valley" />
		<tag k="place" v="locality" />
		<tag k="ssr:stedsnr" v="824480" />
	</node>
	<node lat="62.26386666333451" lon="5.916758329175684" id="-3077">
		<tag k="name" v="Øggardsnakken" />
		<tag k="natural" v="ridge" />
		<tag k="place" v="locality" />
		<tag k="ssr:stedsnr" v="824491" />
	</node>
	<node lat="62.418797217796914" lon="5.9066527741360435" id="-3078">
		<tag k="alt_name" v="Børebakken" />
		<tag k="name" v="Byrabakkane" />
		<tag k="natural" v="slope" />
		<tag k="place" v="locality" />
		<tag k="ssr:stedsnr" v="824498" />
	</node>
	<node lat="62.36313889247901" lon="5.840122213933832" id="-3081">
		<tag k="name" v="Ulsteindalen" />
		<tag k="natural" v="valley" />
		<tag k="place" v="locality" />
		<tag k="ssr:stedsnr" v="824584" />
	</node>
	<node lat="62.28704444654024" lon="5.89830555956933" id="-3082">
		<tag k="name" v="Smådalane" />
		<tag k="natural" v="valley" />
		<tag k="place" v="locality" />
		<tag k="ssr:stedsnr" v="824597" />
	</node>
	<node lat="62.324311110023096" lon="5.771566665002825" id="-3085">
		<tag k="name" v="Saudehammaren" />
		<tag k="natural" v="cliff" />
		<tag k="ssr:stedsnr" v="824651" />
	</node>
	<node lat="62.30382499653227" lon="5.87210278013047" id="-3088">
		<tag k="name" v="Aksla" />
		<tag k="natural" v="ridge" />
		<tag k="place" v="locality" />
		<tag k="ssr:stedsnr" v="824540" />
	</node>
	<node lat="62.316183335438254" lon="5.845555548871669" id="-3089">
		<tag k="name" v="Varden" />
		<tag k="natural" v="hill" />
		<tag k="place" v="locality" />
		<tag k="ssr:stedsnr" v="824544" />
	</node>
	<node lat="62.29750833018405" lon="5.888905562715121" id="-3092">
		<tag k="fixme" v="consider natural=peak for the most distinct mountains in the district" />
		<tag k="name" v="Gråsteinnotten" />
		<tag k="natural" v="hill" />
		<tag k="place" v="locality" />
		<tag k="ssr:stedsnr" v="824562" />
	</node>
	<node lat="62.29914444477568" lon="5.954919436131375" id="-3094">
		<tag k="name" v="Kipskaret" />
		<tag k="natural" v="valley" />
		<tag k="place" v="locality" />
		<tag k="ssr:stedsnr" v="844150" />
	</node>
	<node lat="62.308563892874375" lon="5.9371472297590575" id="-3097">
		<tag k="name" v="Nakken" />
		<tag k="natural" v="ridge" />
		<tag k="place" v="locality" />
		<tag k="ssr:stedsnr" v="846115" />
	</node>
	<node lat="62.39026666608416" lon="5.866822212966644" id="-3099">
		<tag k="name" v="Bjørnenakken" />
		<tag k="place" v="locality" />
		<tag k="ssr:stedsnr" v="846834" />
	</node>
	<node lat="62.35468333745967" lon="5.85941943819092" id="-3100">
		<tag k="name" v="Høgskjerva" />
		<tag k="natural" v="slope" />
		<tag k="place" v="locality" />
		<tag k="ssr:stedsnr" v="848276" />
	</node>
	<node lat="62.34426388552863" lon="5.872886109434837" id="-3102">
		<tag k="name" v="Klovningen" />
		<tag k="natural" v="slope" />
		<tag k="place" v="locality" />
		<tag k="ssr:stedsnr" v="848258" />
	</node>
	<node lat="62.358475002430566" lon="5.885016675316671" id="-3103">
		<tag k="name" v="Dalsmunnen" />
		<tag k="place" v="locality" />
		<tag k="ssr:stedsnr" v="848263" />
	</node>
	<node lat="62.36004999993798" lon="5.835347214497883" id="-3110">
		<tag k="fixme" v="consider natural=peak for the most distinct mountains in the district" />
		<tag k="name" v="Nibben" />
		<tag k="natural" v="hill" />
		<tag k="place" v="locality" />
		<tag k="ssr:stedsnr" v="860895" />
	</node>
	<node lat="62.38859166281552" lon="5.951583336243389" id="-3116">
		<tag k="name" v="Tørlingehaugane" />
		<tag k="natural" v="hill" />
		<tag k="place" v="locality" />
		<tag k="ssr:stedsnr" v="861897" />
	</node>
	<node lat="62.2856472181984" lon="5.869105546921752" id="-3118">
		<tag k="name" v="Nakken" />
		<tag k="natural" v="ridge" />
		<tag k="place" v="locality" />
		<tag k="ssr:stedsnr" v="885460" />
	</node>
	<node lat="62.41520833101574" lon="5.915344442453239" id="-3119">
		<tag k="name" v="Brekkene" />
		<tag k="natural" v="slope" />
		<tag k="place" v="locality" />
		<tag k="ssr:stedsnr" v="885474" />
	</node>
	<node lat="62.26348055423647" lon="5.852499991111838" id="-3122">
		<tag k="name" v="Håheimshalsen" />
		<tag k="natural" v="ridge" />
		<tag k="place" v="locality" />
		<tag k="ssr:stedsnr" v="885542" />
	</node>
	<node lat="62.239877773436646" lon="5.889141667362978" id="-3123">
		<tag k="fixme" v="consider natural=peak for the most distinct mountains in the district" />
		<tag k="name" v="Eikenakken" />
		<tag k="natural" v="hill" />
		<tag k="place" v="locality" />
		<tag k="ssr:stedsnr" v="938192" />
	</node>
	<node lat="62.30302499595359" lon="5.91043055436387" id="-3126">
		<tag k="name" v="Naven" />
		<tag k="natural" v="slope" />
		<tag k="place" v="locality" />
		<tag k="ssr:stedsnr" v="946485" />
	</node>
	<node lat="62.257294447439" lon="5.901522217535377" id="-3127">
		<tag k="name" v="Eiksundberget" />
		<tag k="natural" v="slope" />
		<tag k="place" v="locality" />
		<tag k="ssr:stedsnr" v="946458" />
	</node>
	<node lat="62.40493889285239" lon="5.874374999730153" id="-3128">
		<tag k="fixme" v="consider natural=peak for the most distinct mountains in the district" />
		<tag k="name" v="Fløhornet" />
		<tag k="natural" v="hill" />
		<tag k="place" v="locality" />
		<tag k="ssr:stedsnr" v="946461" />
	</node>
	<node lat="62.367249996831475" lon="5.866619447343279" id="-3129">
		<tag k="name" v="Tverrberget" />
		<tag k="natural" v="hill" />
		<tag k="place" v="locality" />
		<tag k="ssr:stedsnr" v="946464" />
	</node>
	<node lat="62.3018555547125" lon="5.816613880098053" id="-3131">
		<tag k="name" v="Draget" />
		<tag k="place" v="locality" />
		<tag k="ssr:stedsnr" v="946493" />
	</node>
	<node lat="62.41474722217738" lon="5.910533335722336" id="-3134">
		<tag k="name" v="Anlekkjene" />
		<tag k="natural" v="slope" />
		<tag k="place" v="locality" />
		<tag k="ssr:stedsnr" v="946537" />
	</node>
	<node lat="62.26736666845532" lon="5.888055547320787" id="-3136">
		<tag k="name" v="Dyrskaret" />
		<tag k="natural" v="valley" />
		<tag k="place" v="locality" />
		<tag k="ssr:stedsnr" v="946563" />
	</node>
	<node lat="62.397108336160166" lon="5.854347222918815" id="-3137">
		<tag k="name" v="Indrefløbukta" />
		<tag k="natural" v="slope" />
		<tag k="place" v="locality" />
		<tag k="ssr:stedsnr" v="946571" />
	</node>
	<node lat="62.37706388663304" lon="5.830452778507677" id="-3138">
		<tag k="name" v="Hettelegdene" />
		<tag k="natural" v="slope" />
		<tag k="place" v="locality" />
		<tag k="ssr:stedsnr" v="946573" />
	</node>
	<node lat="62.39515277479096" lon="5.858669452895861" id="-3139">
		<tag k="name" v="Skjenhaugane" />
		<tag k="natural" v="hill" />
		<tag k="place" v="locality" />
		<tag k="ssr:stedsnr" v="946575" />
	</node>
	<node lat="62.403605085154226" lon="5.870689366711144" id="-3162">
		<tag k="name" v="Fløegga" />
		<tag k="place" v="locality" />
		<tag k="ssr:stedsnr" v="1077028" />
	</node>
	<node lat="62.33203012240362" lon="5.865130681481601" id="-3165">
		<tag k="name" v="Notten" />
		<tag k="natural" v="hill" />
		<tag k="place" v="locality" />
		<tag k="ssr:stedsnr" v="1079125" />
	</node>
</osm>
