<?xml version="1.0" encoding="UTF-8"?>
<osm version="0.6" generator="osmapis">
	<node lat="62.39688888611806" lon="5.8756138873636505" id="-6808">
		<tag k="name" v="Småurene" />
		<tag k="natural" v="scree" />
		<tag k="ssr:stedsnr" v="96477" />
	</node>
	<node lat="62.28213611474762" lon="5.882911109254827" id="-6814">
		<tag k="name" v="Myremarka" />
		<tag k="place" v="locality" />
		<tag k="ssr:stedsnr" v="96665" />
	</node>
	<node lat="62.30120278012283" lon="5.911269449365497" id="-6820">
		<tag k="name" v="Kroketura" />
		<tag k="natural" v="scree" />
		<tag k="ssr:stedsnr" v="96566" />
	</node>
	<node lat="62.41813333076406" lon="5.894463898257515" id="-6836">
		<tag k="name" v="Hoksteinen" />
		<tag k="natural" v="stone" />
		<tag k="ssr:stedsnr" v="253920" />
	</node>
	<node lat="62.39290555487714" lon="5.93406667094661" id="-6915">
		<tag k="name" v="Sneldelimyrane" />
		<tag k="natural" v="wetland" />
		<tag k="ssr:stedsnr" v="339298" />
	</node>
	<node lat="62.32075000004232" lon="5.910455560832435" id="-6922">
		<tag k="name" v="Fjellsmyrane" />
		<tag k="natural" v="wetland" />
		<tag k="ssr:stedsnr" v="483285" />
	</node>
	<node lat="62.24370555248815" lon="5.903161119790993" id="-6940">
		<tag k="name" v="Lågeika" />
		<tag k="natural" v="wetland" />
		<tag k="ssr:stedsnr" v="460526" />
	</node>
	<node lat="62.410636112476865" lon="5.884033329894998" id="-6942">
		<tag k="name" v="Gråsteinane" />
		<tag k="natural" v="stone" />
		<tag k="ssr:stedsnr" v="460610" />
	</node>
	<node lat="62.34840833213566" lon="5.899922216189971" id="-6989">
		<tag k="name" v="Trollsteinmyrane" />
		<tag k="natural" v="wetland" />
		<tag k="ssr:stedsnr" v="605262" />
	</node>
	<node lat="62.40020833711931" lon="5.924261112808297" id="-7022">
		<tag k="name" v="Sæmyrane" />
		<tag k="natural" v="wetland" />
		<tag k="ssr:stedsnr" v="678871" />
	</node>
	<node lat="62.26792500128458" lon="5.865169446354632" id="-7033">
		<tag k="name" v="Sæmyra" />
		<tag k="natural" v="wetland" />
		<tag k="ssr:stedsnr" v="703484" />
	</node>
	<node lat="62.39547777733619" lon="5.892561115149783" id="-7065">
		<tag k="name" v="Halvgjenget" />
		<tag k="natural" v="stone" />
		<tag k="ssr:stedsnr" v="763616" />
	</node>
	<node lat="62.318777779150636" lon="5.815158336967891" id="-7118">
		<tag k="name" v="Vågemyrane" />
		<tag k="natural" v="wetland" />
		<tag k="ssr:stedsnr" v="945511" />
	</node>
	<node lat="62.300938888061104" lon="5.842705555727517" id="-7150">
		<tag k="name" v="Botnaura" />
		<tag k="natural" v="scree" />
		<tag k="ssr:stedsnr" v="35540" />
	</node>
	<node lat="62.2867444420945" lon="5.862522227936634" id="-7178">
		<tag k="alt_name" v="Haddalsura" />
		<tag k="name" v="Haddalura" />
		<tag k="natural" v="scree" />
		<tag k="ssr:stedsnr" v="96587" />
	</node>
	<node lat="62.32028610854044" lon="5.801713883232903" id="-7186">
		<tag k="name" v="Dimnamyrane" />
		<tag k="natural" v="wetland" />
		<tag k="ssr:stedsnr" v="96650" />
	</node>
	<node lat="62.23858888463556" lon="5.884502768806417" id="-7205">
		<tag k="name" v="Kvigemyra" />
		<tag k="natural" v="wetland" />
		<tag k="ssr:stedsnr" v="157449" />
	</node>
	<node lat="62.40770555917489" lon="5.873286120222853" id="-7246">
		<tag k="name" v="Urene" />
		<tag k="natural" v="scree" />
		<tag k="ssr:stedsnr" v="217451" />
	</node>
	<node lat="62.41132222501514" lon="5.91466943594005" id="-7301">
		<tag k="alt_name" v="Djupemyrane" />
		<tag k="name" v="Djupmyrane" />
		<tag k="natural" v="wetland" />
		<tag k="ssr:stedsnr" v="375923" />
	</node>
	<node lat="62.42161666260949" lon="5.948066667335215" id="-7327">
		<tag k="name" v="Skolmeura" />
		<tag k="natural" v="scree" />
		<tag k="ssr:stedsnr" v="435926" />
	</node>
	<node lat="62.3482388903403" lon="5.832205563338633" id="-7355">
		<tag k="name" v="Ura" />
		<tag k="natural" v="scree" />
		<tag k="ssr:stedsnr" v="537775" />
	</node>
	<node lat="62.35024443989597" lon="5.839155546616981" id="-7404">
		<tag k="name" v="Bugardsmyrane" />
		<tag k="natural" v="wetland" />
		<tag k="ssr:stedsnr" v="641521" />
	</node>
	<node lat="62.33658055667778" lon="5.869091661474725" id="-7417">
		<tag k="name" v="Saunesmarka" />
		<tag k="place" v="locality" />
		<tag k="ssr:stedsnr" v="726257" />
	</node>
	<node lat="62.31176666751269" lon="5.91890278271763" id="-7459">
		<tag k="name" v="Fjellsskogen" />
		<tag k="place" v="locality" />
		<tag k="ssr:stedsnr" v="787274" />
	</node>
	<node lat="62.256288890825594" lon="5.82938334171761" id="-7526">
		<tag k="name" v="Storsteinmyra" />
		<tag k="natural" v="wetland" />
		<tag k="ssr:stedsnr" v="885589" />
	</node>
	<node lat="62.28950000140135" lon="5.867233334798311" id="-7535">
		<tag k="name" v="Blåura" />
		<tag k="natural" v="wetland" />
		<tag k="ssr:stedsnr" v="946489" />
	</node>
</osm>
