<?xml version="1.0" encoding="UTF-8"?>
<osm version="0.6" generator="osmapis">
	<node lat="62.32831111439199" lon="5.828499990063214" id="-7360">
		<tag k="name" v="Vågevågen" />
		<tag k="natural" v="bay" />
		<tag k="ssr:stedsnr" v="34522" />
	</node>
	<node lat="62.41040833591517" lon="5.860199996013036" id="-7366">
		<tag k="alt_name" v="Staberget" />
		<tag k="name" v="Storestaberget" />
		<tag k="natural" v="cape" />
		<tag k="ssr:stedsnr" v="35565" />
	</node>
	<node lat="62.264225002905" lon="5.83284722954865" id="-7368">
		<tag k="name" v="Rundeholmen" />
		<tag k="place" v="islet" />
		<tag k="ssr:stedsnr" v="35572" />
	</node>
	<node lat="62.34780277696049" lon="5.780863898251785" id="-7369">
		<tag k="name" v="Tarevika" />
		<tag k="natural" v="bay" />
		<tag k="ssr:stedsnr" v="35604" />
	</node>
	<node lat="62.37837777446842" lon="5.818766673377082" id="-7378">
		<tag k="name" v="Gåsneset" />
		<tag k="natural" v="cape" />
		<tag k="ssr:stedsnr" v="71918" />
	</node>
	<node lat="62.31717500156205" lon="5.846333327186776" id="-7382">
		<tag k="name" v="Storevågen" />
		<tag k="natural" v="bay" />
		<tag k="ssr:stedsnr" v="95518" />
	</node>
	<node lat="62.27894444142264" lon="5.869941676571443" id="-7383">
		<tag k="name" v="Årvika" />
		<tag k="natural" v="bay" />
		<tag k="ssr:stedsnr" v="96468" />
	</node>
	<node lat="62.2868694448943" lon="5.834880552743023" id="-7386">
		<tag k="name" v="Joholmen" />
		<tag k="place" v="islet" />
		<tag k="ssr:stedsnr" v="96483" />
	</node>
	<node lat="62.347888887738186" lon="5.785475003643236" id="-7389">
		<tag k="name" v="Storbåtsvika" />
		<tag k="natural" v="bay" />
		<tag k="ssr:stedsnr" v="96660" />
	</node>
	<node lat="62.259466668630616" lon="5.922680558171329" id="-7393">
		<tag k="name" v="Bjørnaneset" />
		<tag k="natural" v="cape" />
		<tag k="ssr:stedsnr" v="96509" />
	</node>
	<node lat="62.26418888632272" lon="5.925416658908898" id="-7394">
		<tag k="name" v="Alstranda" />
		<tag k="natural" v="beach" />
		<tag k="ssr:stedsnr" v="96510" />
	</node>
	<node lat="62.39462500291426" lon="5.836224991960498" id="-7395">
		<tag k="name" v="Instebarden" />
		<tag k="place" v="locality" />
		<tag k="seamark:type" v="rock" />
		<tag k="ssr:stedsnr" v="96511" />
	</node>
	<node lat="62.24905000216716" lon="5.8971694352876405" id="-7398">
		<tag k="fixme" v="consider seamark:type=rock or natural=shoal" />
		<tag k="name" v="Bakarskjeret" />
		<tag k="place" v="islet" />
		<tag k="ssr:stedsnr" v="98868" />
	</node>
	<node lat="62.42691944399063" lon="5.815586116853765" id="-7399">
		<tag k="name" v="Hella" />
		<tag k="natural" v="shoal" />
		<tag k="place" v="locality" />
		<tag k="ssr:stedsnr" v="112868" />
	</node>
	<node lat="62.44533333268822" lon="5.725133339313644" id="-7400">
		<tag k="name" v="Ufseskallen" />
		<tag k="natural" v="shoal" />
		<tag k="place" v="locality" />
		<tag k="ssr:stedsnr" v="112876" />
	</node>
	<node lat="62.34674819637994" lon="5.818599069500553" id="-7403">
		<tag k="name" v="Osneskråka" />
		<tag k="place" v="islet" />
		<tag k="ssr:stedsnr" v="132819" />
	</node>
	<node lat="62.423502773949195" lon="5.896369447343678" id="-7405">
		<tag k="name" v="Hoksteinfluda" />
		<tag k="natural" v="shoal" />
		<tag k="place" v="locality" />
		<tag k="ssr:stedsnr" v="132906" />
	</node>
	<node lat="62.42213055716509" lon="5.914627784672822" id="-7406">
		<tag k="fixme" v="consider seamark:type=rock or natural=shoal" />
		<tag k="name" v="Håskjeret" />
		<tag k="place" v="islet" />
		<tag k="ssr:stedsnr" v="132909" />
	</node>
	<node lat="62.322572221231006" lon="5.766730551253509" id="-7414">
		<tag k="name" v="Dimnaneset" />
		<tag k="natural" v="cape" />
		<tag k="ssr:stedsnr" v="254757" />
	</node>
	<node lat="62.3445749995314" lon="5.776994446800511" id="-7424">
		<tag k="name" v="Skjåvika" />
		<tag k="natural" v="bay" />
		<tag k="ssr:stedsnr" v="157520" />
	</node>
	<node lat="62.32112500027237" lon="5.8625305526218785" id="-7432">
		<tag k="name" v="Sandvika" />
		<tag k="natural" v="bay" />
		<tag k="ssr:stedsnr" v="217522" />
	</node>
	<node lat="62.413999996948796" lon="5.861111115302146" id="-7436">
		<tag k="name" v="Kleggen" />
		<tag k="natural" v="shoal" />
		<tag k="place" v="locality" />
		<tag k="ssr:stedsnr" v="233930" />
	</node>
	<node lat="62.416263890028745" lon="5.88069167146208" id="-7437">
		<tag k="name" v="Kvieneset" />
		<tag k="natural" v="cape" />
		<tag k="ssr:stedsnr" v="233932" />
	</node>
	<node lat="62.33541388587348" lon="5.833227781560212" id="-7438">
		<tag k="fixme" v="consider seamark:type=rock or natural=shoal" />
		<tag k="name" v="Kråkene" />
		<tag k="place" v="islet" />
		<tag k="ssr:stedsnr" v="234828" />
	</node>
	<node lat="62.31825000282485" lon="5.855408334305713" id="-7449">
		<tag k="name" v="Dekka" />
		<tag k="natural" v="bay" />
		<tag k="ssr:stedsnr" v="278583" />
	</node>
	<node lat="62.251016670996115" lon="5.908533339795491" id="-7459">
		<tag k="name" v="Eineneset" />
		<tag k="natural" v="cape" />
		<tag k="ssr:stedsnr" v="460548" />
	</node>
	<node lat="62.250941662621926" lon="5.904074992366303" id="-7460">
		<tag k="name" v="Årstødneset" />
		<tag k="natural" v="cape" />
		<tag k="ssr:stedsnr" v="460550" />
	</node>
	<node lat="62.23858611441434" lon="5.899952785436673" id="-7462">
		<tag k="fixme" v="consider seamark:type=rock or natural=shoal" />
		<tag k="name" v="Eikeskjeret" />
		<tag k="place" v="islet" />
		<tag k="ssr:stedsnr" v="460556" />
	</node>
	<node lat="62.34885000223406" lon="5.7994611037639165" id="-7465">
		<tag k="name" v="Kvalen" />
		<tag k="place" v="islet" />
		<tag k="ssr:stedsnr" v="460598" />
	</node>
	<node lat="62.34950833715977" lon="5.81030555844969" id="-7469">
		<tag k="name" v="Tjuvholmkråkene" />
		<tag k="natural" v="shoal" />
		<tag k="place" v="locality" />
		<tag k="ssr:stedsnr" v="294991" />
	</node>
	<node lat="62.28223611369215" lon="5.8312416618081695" id="-7472">
		<tag k="name" v="Dragsundet" />
		<tag k="natural" v="strait" />
		<tag k="ssr:stedsnr" v="314209" />
	</node>
	<node lat="62.23839166680814" lon="5.864950004733405" id="-7473">
		<tag k="alt_name" v="Meisterholmane" />
		<tag k="name" v="Meisterholmen" />
		<tag k="place" v="islet" />
		<tag k="ssr:stedsnr" v="314159" />
	</node>
	<node lat="62.341086111587124" lon="5.79656944494788" id="-7476">
		<tag k="alt_name" v="Litle Klauvholmen" />
		<tag k="name" v="Kloholmen, søre" />
		<tag k="place" v="islet" />
		<tag k="ssr:stedsnr" v="314816" />
	</node>
	<node lat="62.24737778106263" lon="5.864233330923023" id="-7483">
		<tag k="name" v="Bismaren" />
		<tag k="place" v="islet" />
		<tag k="ssr:stedsnr" v="338403" />
	</node>
	<node lat="62.34015277919023" lon="5.792888889007478" id="-7488">
		<tag k="name" v="Skarveskjeret" />
		<tag k="place" v="islet" />
		<tag k="ssr:stedsnr" v="338614" />
	</node>
	<node lat="62.34599999757101" lon="5.774349997339574" id="-7489">
		<tag k="name" v="Skjåneset" />
		<tag k="natural" v="cape" />
		<tag k="ssr:stedsnr" v="338621" />
	</node>
	<node lat="62.29665555180626" lon="5.802111114427326" id="-7492">
		<tag k="name" v="Røyraneset" />
		<tag k="natural" v="cape" />
		<tag k="ssr:stedsnr" v="355777" />
	</node>
	<node lat="62.428049997840084" lon="5.834519441897406" id="-7493">
		<tag k="name" v="Flørauden" />
		<tag k="place" v="islet" />
		<tag k="ssr:stedsnr" v="355858" />
	</node>
	<node lat="62.39401666649261" lon="5.757169443095346" id="-7494">
		<tag k="name" v="Gullmunde" />
		<tag k="place" v="locality" />
		<tag k="seamark:type" v="rock" />
		<tag k="ssr:stedsnr" v="355867" />
	</node>
	<node lat="62.28635000160829" lon="5.84033611881523" id="-7496">
		<tag k="name" v="Gardnes" />
		<tag k="natural" v="cape" />
		<tag k="ssr:stedsnr" v="375110" />
	</node>
	<node lat="62.39768333535355" lon="5.839944453186374" id="-7502">
		<tag k="fixme" v="consider seamark:type=rock or natural=shoal" />
		<tag k="name" v="Hella" />
		<tag k="place" v="islet" />
		<tag k="ssr:stedsnr" v="399489" />
	</node>
	<node lat="62.38672500302648" lon="5.830405563886691" id="-7505">
		<tag k="name" v="Fløstranda" />
		<tag k="natural" v="beach" />
		<tag k="ssr:stedsnr" v="399609" />
	</node>
	<node lat="62.25740555402006" lon="5.821800008132382" id="-7507">
		<tag k="name" v="Kakeneset" />
		<tag k="natural" v="cape" />
		<tag k="ssr:stedsnr" v="399596" />
	</node>
	<node lat="62.284213885041744" lon="5.842380555227064" id="-7519">
		<tag k="name" v="Grøtneset" />
		<tag k="natural" v="cape" />
		<tag k="ssr:stedsnr" v="460622" />
	</node>
	<node lat="62.27348888670859" lon="5.861122220280283" id="-7520">
		<tag k="name" v="Storholmen" />
		<tag k="place" v="islet" />
		<tag k="ssr:stedsnr" v="460625" />
	</node>
	<node lat="62.246630551353256" lon="5.865863894322706" id="-7523">
		<tag k="name" v="Havvågsfluda" />
		<tag k="natural" v="shoal" />
		<tag k="place" v="locality" />
		<tag k="ssr:stedsnr" v="462872" />
	</node>
	<node lat="62.39473610779803" lon="5.8355583411090155" id="-7524">
		<tag k="fixme" v="consider seamark:type=rock or natural=shoal" />
		<tag k="name" v="Bardane" />
		<tag k="place" v="islet" />
		<tag k="ssr:stedsnr" v="476905" />
	</node>
	<node lat="62.25951111328695" lon="5.872927774359176" id="-7531">
		<tag k="name" v="Hareidlandet" />
		<tag k="place" v="island" />
		<tag k="ssr:stedsnr" v="678847" />
	</node>
	<node lat="62.484302773298765" lon="5.719674991931953" id="-7533">
		<tag k="name" v="Grunnskallen" />
		<tag k="natural" v="shoal" />
		<tag k="place" v="locality" />
		<tag k="ssr:stedsnr" v="678963" />
	</node>
	<node lat="62.34977499850596" lon="5.7845638956954035" id="-7535">
		<tag k="name" v="Langeneset" />
		<tag k="natural" v="cape" />
		<tag k="ssr:stedsnr" v="496855" />
	</node>
	<node lat="62.41146388964594" lon="5.781122217548126" id="-7536">
		<tag k="alt_name" v="Fjordskallen" />
		<tag k="name" v="Fjordeskallen" />
		<tag k="natural" v="shoal" />
		<tag k="place" v="locality" />
		<tag k="ssr:stedsnr" v="496912" />
	</node>
	<node lat="62.32213055380484" lon="5.864144437154751" id="-7539">
		<tag k="name" v="Trolleneset" />
		<tag k="natural" v="cape" />
		<tag k="ssr:stedsnr" v="520568" />
	</node>
	<node lat="62.333238885822205" lon="5.772091669541413" id="-7540">
		<tag k="name" v="Svinøysundet" />
		<tag k="natural" v="strait" />
		<tag k="ssr:stedsnr" v="520663" />
	</node>
	<node lat="62.39033055283863" lon="5.8126027704686924" id="-7547">
		<tag k="name" v="Kyrkjefluda" />
		<tag k="natural" v="shoal" />
		<tag k="place" v="locality" />
		<tag k="ssr:stedsnr" v="537891" />
	</node>
	<node lat="62.34403888842629" lon="5.825108327697428" id="-7553">
		<tag k="name" v="Osnessanden" />
		<tag k="natural" v="beach" />
		<tag k="ssr:stedsnr" v="580603" />
	</node>
	<node lat="62.34028333089575" lon="5.8149888967086385" id="-7554">
		<tag k="name" v="Sandbadet" />
		<tag k="natural" v="strait" />
		<tag k="ssr:stedsnr" v="580605" />
	</node>
	<node lat="62.24415833392983" lon="5.881166662209406" id="-7556">
		<tag k="name" v="Kvennavika" />
		<tag k="natural" v="bay" />
		<tag k="ssr:stedsnr" v="581516" />
	</node>
	<node lat="62.251413885865645" lon="5.896877786001656" id="-7557">
		<tag k="name" v="Sjøbudholmen" />
		<tag k="place" v="islet" />
		<tag k="ssr:stedsnr" v="581520" />
	</node>
	<node lat="62.32365833318927" lon="5.838136111497806" id="-7560">
		<tag k="name" v="Køyla" />
		<tag k="natural" v="bay" />
		<tag k="ssr:stedsnr" v="581549" />
	</node>
	<node lat="62.332008330160335" lon="5.831983339782678" id="-7566">
		<tag k="name" v="Lyngneset" />
		<tag k="natural" v="cape" />
		<tag k="ssr:stedsnr" v="617811" />
	</node>
	<node lat="62.31442499933415" lon="5.787747228251633" id="-7567">
		<tag k="alt_name" v="Skibbeneset" />
		<tag k="name" v="Skibbenes" />
		<tag k="natural" v="cape" />
		<tag k="ssr:stedsnr" v="617814" />
	</node>
	<node lat="62.2475888925639" lon="5.8943750056513675" id="-7576">
		<tag k="name" v="Smeltholmen" />
		<tag k="place" v="islet" />
		<tag k="ssr:stedsnr" v="703539" />
	</node>
	<node lat="62.25031666570213" lon="5.907625000143643" id="-7577">
		<tag k="name" v="Eiksundet" />
		<tag k="natural" v="strait" />
		<tag k="ssr:stedsnr" v="703541" />
	</node>
	<node lat="62.3111388852936" lon="5.835819450376026" id="-7579">
		<tag k="name" v="Osen" />
		<tag k="natural" v="bay" />
		<tag k="ssr:stedsnr" v="703554" />
	</node>
	<node lat="62.32863889122859" lon="5.817694452722127" id="-7580">
		<tag k="name" v="Vågevika" />
		<tag k="natural" v="bay" />
		<tag k="ssr:stedsnr" v="703557" />
	</node>
	<node lat="62.3388222262355" lon="5.77238889790074" id="-7583">
		<tag k="alt_name" v="Grisholmen" />
		<tag k="name" v="Store Grisholmen" />
		<tag k="place" v="islet" />
		<tag k="ssr:stedsnr" v="703675" />
	</node>
	<node lat="62.34476944573916" lon="5.769947215771949" id="-7584">
		<tag k="name" v="Seideholmen" />
		<tag k="place" v="islet" />
		<tag k="ssr:stedsnr" v="703677" />
	</node>
	<node lat="62.420511109955385" lon="5.896502773984314" id="-7585">
		<tag k="name" v="Hoksteinvikane" />
		<tag k="natural" v="bay" />
		<tag k="ssr:stedsnr" v="703683" />
	</node>
	<node lat="62.35064444057839" lon="5.822466663502124" id="-7587">
		<tag k="name" v="Skeidsbukta" />
		<tag k="natural" v="bay" />
		<tag k="ssr:stedsnr" v="641608" />
	</node>
	<node lat="62.32931944412135" lon="5.799930558329628" id="-7588">
		<tag k="name" v="Spjutøysundet" />
		<tag k="natural" v="strait" />
		<tag k="ssr:stedsnr" v="641624" />
	</node>
	<node lat="62.34094999763089" lon="5.780027774190771" id="-7589">
		<tag k="name" v="Litle Grisholmen" />
		<tag k="place" v="islet" />
		<tag k="ssr:stedsnr" v="641630" />
	</node>
	<node lat="62.250044442859036" lon="5.807005554185426" id="-7593">
		<tag k="name" v="Tangane" />
		<tag k="natural" v="cape" />
		<tag k="ssr:stedsnr" v="642536" />
	</node>
	<node lat="62.35638611352115" lon="5.7929472248193665" id="-7596">
		<tag k="name" v="Byholmkråkene" />
		<tag k="natural" v="shoal" />
		<tag k="place" v="locality" />
		<tag k="ssr:stedsnr" v="658982" />
	</node>
	<node lat="62.27158610762454" lon="5.86263056204208" id="-7597">
		<tag k="name" v="Rinden" />
		<tag k="natural" v="cape" />
		<tag k="ssr:stedsnr" v="678178" />
	</node>
	<node lat="62.38806389057708" lon="5.749219439266574" id="-7601">
		<tag k="name" v="Svædet" />
		<tag k="natural" v="shoal" />
		<tag k="place" v="locality" />
		<tag k="ssr:stedsnr" v="678883" />
	</node>
	<node lat="62.37833888592462" lon="5.784600009278758" id="-7602">
		<tag k="name" v="Lyngøya" />
		<tag k="place" v="islet" />
		<tag k="ssr:stedsnr" v="678891" />
	</node>
	<node lat="62.3284333313058" lon="5.8514444359180775" id="-7605">
		<tag k="name" v="Lyngnesvika" />
		<tag k="natural" v="bay" />
		<tag k="ssr:stedsnr" v="678787" />
	</node>
	<node lat="62.412622218889254" lon="5.817938882224397" id="-7606">
		<tag k="alt_name" v="Nordre Eggholmfalla" />
		<tag k="name" v="Eggholmfalla" />
		<tag k="natural" v="shoal" />
		<tag k="place" v="locality" />
		<tag k="ssr:stedsnr" v="678906" />
	</node>
	<node lat="62.35836111544119" lon="5.81776666484626" id="-7615">
		<tag k="name" v="Ryssholmen" />
		<tag k="place" v="islet" />
		<tag k="ssr:stedsnr" v="703624" />
	</node>
	<node lat="62.262463888578964" lon="5.831886120719508" id="-7617">
		<tag k="name" v="Toholmen" />
		<tag k="place" v="islet" />
		<tag k="ssr:stedsnr" v="703515" />
	</node>
	<node lat="62.23229721986674" lon="5.8497666726337" id="-7619">
		<tag k="fixme" v="consider seamark:type=rock or natural=shoal" />
		<tag k="name" v="Høymoleskjeret" />
		<tag k="place" v="islet" />
		<tag k="ssr:stedsnr" v="703520" />
	</node>
	<node lat="62.33474721868406" lon="5.812769444240239" id="-7620">
		<tag k="name" v="Klubben" />
		<tag k="place" v="islet" />
		<tag k="ssr:stedsnr" v="703563" />
	</node>
	<node lat="62.40735000376243" lon="5.849450001755236" id="-7624">
		<tag k="alt_name" v="Ærstein" />
		<tag k="name" v="Ærsteinen" />
		<tag k="natural" v="shoal" />
		<tag k="place" v="locality" />
		<tag k="ssr:stedsnr" v="901918" />
	</node>
	<node lat="62.424938887744105" lon="5.948658329265954" id="-7625">
		<tag k="name" v="Litle Buhammaren" />
		<tag k="natural" v="cape" />
		<tag k="ssr:stedsnr" v="901920" />
	</node>
	<node lat="62.441738886796415" lon="5.859827780171248" id="-7626">
		<tag k="name" v="Fossen" />
		<tag k="natural" v="shoal" />
		<tag k="place" v="locality" />
		<tag k="ssr:stedsnr" v="901876" />
	</node>
	<node lat="62.23189721902282" lon="5.880388882406538" id="-7632">
		<tag k="name" v="Yksnøysundet" />
		<tag k="natural" v="strait" />
		<tag k="ssr:stedsnr" v="763511" />
	</node>
	<node lat="62.243658337206895" lon="5.891752774570514" id="-7633">
		<tag k="name" v="Klungsvågen" />
		<tag k="natural" v="bay" />
		<tag k="ssr:stedsnr" v="763521" />
	</node>
	<node lat="62.29671111416183" lon="5.842847215220032" id="-7634">
		<tag k="name" v="Bueneset" />
		<tag k="natural" v="cape" />
		<tag k="ssr:stedsnr" v="763558" />
	</node>
	<node lat="62.2320666688582" lon="5.85316944663175" id="-7638">
		<tag k="name" v="Straumen" />
		<tag k="natural" v="strait" />
		<tag k="ssr:stedsnr" v="763496" />
	</node>
	<node lat="62.37712222274157" lon="5.777494438732355" id="-7643">
		<tag k="name" v="Brandungane" />
		<tag k="place" v="islet" />
		<tag k="ssr:stedsnr" v="763597" />
	</node>
	<node lat="62.366008332097024" lon="5.780197224403041" id="-7646">
		<tag k="name" v="Kyrefluda" />
		<tag k="natural" v="shoal" />
		<tag k="place" v="locality" />
		<tag k="ssr:stedsnr" v="780923" />
	</node>
	<node lat="62.42614444186242" lon="5.795611108067714" id="-7647">
		<tag k="name" v="Djupefludsteinen" />
		<tag k="natural" v="shoal" />
		<tag k="place" v="locality" />
		<tag k="ssr:stedsnr" v="780857" />
	</node>
	<node lat="62.3318222226397" lon="5.777019449074026" id="-7652">
		<tag k="name" v="Roparholmen" />
		<tag k="place" v="islet" />
		<tag k="ssr:stedsnr" v="800810" />
	</node>
	<node lat="62.33421666955511" lon="5.760572215102479" id="-7653">
		<tag k="alt_name" v="Skinnabrokleia" />
		<tag k="name" v="Skinnbrokleia" />
		<tag k="natural" v="strait" />
		<tag k="ssr:stedsnr" v="800815" />
	</node>
	<node lat="62.33838611558883" lon="5.779155561989113" id="-7656">
		<tag k="name" v="Borgarøya" />
		<tag k="place" v="islet" />
		<tag k="ssr:stedsnr" v="800793" />
	</node>
	<node lat="62.2484111152475" lon="5.876677773120543" id="-7657">
		<tag k="name" v="Havågsholmane" />
		<tag k="place" v="islet" />
		<tag k="ssr:stedsnr" v="921146" />
	</node>
	<node lat="62.26522777345749" lon="5.8362111140484405" id="-7661">
		<tag k="name" v="Kjeholmen" />
		<tag k="place" v="islet" />
		<tag k="ssr:stedsnr" v="824505" />
	</node>
	<node lat="62.25016111471408" lon="5.882713884043266" id="-7662">
		<tag k="name" v="Breiholmen" />
		<tag k="place" v="island" />
		<tag k="ssr:stedsnr" v="824510" />
	</node>
	<node lat="62.33062500407501" lon="5.771891658322962" id="-7669">
		<tag k="name" v="Kalvøya" />
		<tag k="place" v="islet" />
		<tag k="ssr:stedsnr" v="921838" />
	</node>
	<node lat="62.4187222208673" lon="5.845191659956411" id="-7672">
		<tag k="name" v="Svædet" />
		<tag k="natural" v="shoal" />
		<tag k="place" v="locality" />
		<tag k="ssr:stedsnr" v="921901" />
	</node>
	<node lat="62.33359444242624" lon="5.774433330765365" id="-7673">
		<tag k="name" v="Kalvøysundet" />
		<tag k="natural" v="strait" />
		<tag k="ssr:stedsnr" v="841787" />
	</node>
	<node lat="62.36720000292034" lon="5.771605556546867" id="-7681">
		<tag k="alt_name" v="Vattøyskjeret" />
		<tag k="name" v="Ytre forløysinga" />
		<tag k="place" v="islet" />
		<tag k="ssr:stedsnr" v="885547" />
	</node>
	<node lat="62.34097222314151" lon="5.774133327929456" id="-7682">
		<tag k="name" v="Kalvøya" />
		<tag k="place" v="islet" />
		<tag k="ssr:stedsnr" v="885550" />
	</node>
	<node lat="62.371755556907104" lon="5.77480555175505" id="-7683">
		<tag k="name" v="Færvika" />
		<tag k="natural" v="bay" />
		<tag k="ssr:stedsnr" v="885553" />
	</node>
	<node lat="62.322633334800855" lon="5.843452784124871" id="-7684">
		<tag k="name" v="Dagvishola" />
		<tag k="natural" v="bay" />
		<tag k="ssr:stedsnr" v="885555" />
	</node>
	<node lat="62.40903055525195" lon="5.85807500607186" id="-7685">
		<tag k="name" v="Litlestaberget" />
		<tag k="natural" v="cape" />
		<tag k="ssr:stedsnr" v="885597" />
	</node>
	<node lat="62.34090555186095" lon="5.812397221766866" id="-7688">
		<tag k="name" v="Boholmen" />
		<tag k="place" v="islet" />
		<tag k="ssr:stedsnr" v="901809" />
	</node>
	<node lat="62.31204444874981" lon="6.05654443698448" id="-7689">
		<tag k="bay" v="fjord" />
		<tag k="name" v="Vartdalsfjorden" />
		<tag k="natural" v="bay" />
		<tag k="ssr:stedsnr" v="920141" />
	</node>
	<node lat="62.41516944133793" lon="5.7258166604078875" id="-7692">
		<tag k="alt_name" v="Tekleskjeret" />
		<tag k="fixme" v="consider seamark:type=rock or natural=shoal" />
		<tag k="name" v="Ertenskjeret" />
		<tag k="place" v="islet" />
		<tag k="ssr:stedsnr" v="921905" />
	</node>
	<node lat="62.32931666644298" lon="5.78868611664785" id="-7697">
		<tag k="alt_name" v="Buholmen" />
		<tag k="name" v="Rundholmen" />
		<tag k="place" v="islet" />
		<tag k="ssr:stedsnr" v="946510" />
	</node>
	<node lat="62.37291110737739" lon="5.790558328275291" id="-7698">
		<tag k="name" v="Hamnøya" />
		<tag k="place" v="islet" />
		<tag k="ssr:stedsnr" v="946517" />
	</node>
	<node lat="62.318941665682516" lon="5.849941664179695" id="-7700">
		<tag k="name" v="Valen" />
		<tag k="natural" v="bay" />
		<tag k="ssr:stedsnr" v="946432" />
	</node>
	<node lat="62.328516662779684" lon="5.806177786347963" id="-7716">
		<tag k="name" v="Hellestøda" />
		<tag k="natural" v="bay" />
		<tag k="ssr:stedsnr" v="11847" />
	</node>
	<node lat="62.302705559454914" lon="5.810575003563373" id="-7717">
		<tag k="alt_name" v="Ertesvågvågen" />
		<tag k="name" v="Ertesvågen" />
		<tag k="natural" v="bay" />
		<tag k="ssr:stedsnr" v="11752" />
	</node>
	<node lat="62.29374722549668" lon="5.830491669898628" id="-7718">
		<tag k="alt_name" v="Vedøya" />
		<tag k="name" v="Veøya" />
		<tag k="place" v="islet" />
		<tag k="ssr:stedsnr" v="11770" />
	</node>
	<node lat="62.386052780907406" lon="5.792655550745835" id="-7719">
		<tag k="name" v="Sandøya" />
		<tag k="place" v="islet" />
		<tag k="ssr:stedsnr" v="11891" />
	</node>
	<node lat="62.44163333638717" lon="5.958799992813189" id="-7722">
		<tag k="alt_name" v="Breidsundet" />
		<tag k="bay" v="fjord" />
		<tag k="name" v="Breisundet" />
		<tag k="natural" v="bay" />
		<tag k="ssr:stedsnr" v="11958" />
	</node>
	<node lat="62.320583329749965" lon="5.786336118824891" id="-7723">
		<tag k="name" v="Notaneset" />
		<tag k="natural" v="cape" />
		<tag k="ssr:stedsnr" v="20327" />
	</node>
	<node lat="62.234472220994626" lon="5.861944444707529" id="-7727">
		<tag k="name" v="Båtsvika" />
		<tag k="natural" v="bay" />
		<tag k="ssr:stedsnr" v="35544" />
	</node>
	<node lat="62.342280558502765" lon="5.830422225248688" id="-7728">
		<tag k="name" v="Ottavikane" />
		<tag k="natural" v="bay" />
		<tag k="ssr:stedsnr" v="34618" />
	</node>
	<node lat="62.321580556197915" lon="5.781483337101469" id="-7729">
		<tag k="name" v="Likhalneset" />
		<tag k="natural" v="cape" />
		<tag k="ssr:stedsnr" v="35687" />
	</node>
	<node lat="62.24971111143637" lon="5.892019449453593" id="-7731">
		<tag k="name" v="Kubbeteholmen" />
		<tag k="place" v="islet" />
		<tag k="ssr:stedsnr" v="35581" />
	</node>
	<node lat="62.283066668732545" lon="5.836216656944201" id="-7735">
		<tag k="name" v="Vasstranda" />
		<tag k="natural" v="beach" />
		<tag k="ssr:stedsnr" v="35633" />
	</node>
	<node lat="62.32827222296396" lon="5.791311102787629" id="-7739">
		<tag k="name" v="Kubben" />
		<tag k="place" v="islet" />
		<tag k="ssr:stedsnr" v="46457" />
	</node>
	<node lat="62.42002500366038" lon="5.795102778438228" id="-7740">
		<tag k="name" v="Djupefluda" />
		<tag k="natural" v="shoal" />
		<tag k="place" v="locality" />
		<tag k="ssr:stedsnr" v="52879" />
	</node>
	<node lat="62.467799996625146" lon="5.728899994056416" id="-7747">
		<tag k="name" v="Håfluda" />
		<tag k="natural" v="shoal" />
		<tag k="place" v="locality" />
		<tag k="ssr:stedsnr" v="71995" />
	</node>
	<node lat="62.23812221929909" lon="5.872255547821419" id="-7748">
		<tag k="name" v="Langevågen" />
		<tag k="natural" v="bay" />
		<tag k="ssr:stedsnr" v="72159" />
	</node>
	<node lat="62.32945966616852" lon="5.783848280661112" id="-7750">
		<tag k="name" v="Kyrkjeneset" />
		<tag k="natural" v="cape" />
		<tag k="ssr:stedsnr" v="81357" />
	</node>
	<node lat="62.24913611447404" lon="5.913333342281037" id="-7752">
		<tag k="name" v="Tangen" />
		<tag k="natural" v="cape" />
		<tag k="ssr:stedsnr" v="96492" />
	</node>
	<node lat="62.39569722508416" lon="5.829833326160069" id="-7755">
		<tag k="name" v="Ytstebarden" />
		<tag k="place" v="islet" />
		<tag k="ssr:stedsnr" v="96598" />
	</node>
	<node lat="62.4338361134727" lon="5.873363891269745" id="-7756">
		<tag k="name" v="Småstødene" />
		<tag k="natural" v="bay" />
		<tag k="ssr:stedsnr" v="96599" />
	</node>
	<node lat="62.24940277605642" lon="5.867833337124402" id="-7759">
		<tag k="name" v="Havågsneset" />
		<tag k="natural" v="cape" />
		<tag k="ssr:stedsnr" v="96525" />
	</node>
	<node lat="62.341883336500175" lon="5.841997213110946" id="-7760">
		<tag k="name" v="Vikhylen" />
		<tag k="natural" v="bay" />
		<tag k="ssr:stedsnr" v="96531" />
	</node>
	<node lat="62.35274453263738" lon="5.821247949507327" id="-7764">
		<tag k="fixme" v="consider seamark:type=rock or natural=shoal" />
		<tag k="name" v="Skeidskråka" />
		<tag k="place" v="islet" />
		<tag k="ssr:stedsnr" v="112989" />
	</node>
	<node lat="62.40281111328053" lon="5.79084443824494" id="-7765">
		<tag k="alt_name" v="Søre Eggholmfluda" />
		<tag k="name" v="Søre Eggholmfalla" />
		<tag k="natural" v="shoal" />
		<tag k="place" v="locality" />
		<tag k="ssr:stedsnr" v="112866" />
	</node>
	<node lat="62.37849999596545" lon="5.774133342783496" id="-7772">
		<tag k="name" v="Brenningane" />
		<tag k="place" v="islet" />
		<tag k="ssr:stedsnr" v="131934" />
	</node>
	<node lat="62.24648888775408" lon="5.835883342950099" id="-7773">
		<tag k="name" v="Aursnesholmane" />
		<tag k="place" v="islet" />
		<tag k="ssr:stedsnr" v="132144" />
	</node>
	<node lat="62.40251388560392" lon="5.836363886864948" id="-7777">
		<tag k="alt_name" v="Hæmingen" />
		<tag k="name" v="Hemingen" />
		<tag k="place" v="islet" />
		<tag k="ssr:stedsnr" v="132931" />
	</node>
	<node lat="62.26539444585991" lon="5.844274990659263" id="-7783">
		<tag k="name" v="Magerholmen" />
		<tag k="place" v="islet" />
		<tag k="ssr:stedsnr" v="157465" />
	</node>
	<node lat="62.24928610834381" lon="5.907141676424348" id="-7784">
		<tag k="name" v="Lakeneset" />
		<tag k="natural" v="cape" />
		<tag k="ssr:stedsnr" v="157474" />
	</node>
	<node lat="62.24929721899574" lon="5.896519445601105" id="-7785">
		<tag k="name" v="Langholmen" />
		<tag k="place" v="islet" />
		<tag k="ssr:stedsnr" v="157475" />
	</node>
	<node lat="62.315147224542095" lon="5.789869445105854" id="-7792">
		<tag k="name" v="Litlesandvika" />
		<tag k="natural" v="bay" />
		<tag k="ssr:stedsnr" v="156640" />
	</node>
	<node lat="62.27186389157268" lon="5.8619277834164" id="-7795">
		<tag k="name" v="Neset" />
		<tag k="natural" v="cape" />
		<tag k="ssr:stedsnr" v="157424" />
	</node>
	<node lat="62.24621111404997" lon="5.893886105433563" id="-7796">
		<tag k="name" v="Karmelen" />
		<tag k="natural" v="bay" />
		<tag k="ssr:stedsnr" v="157433" />
	</node>
	<node lat="62.42056944875752" lon="5.900361107286253" id="-7797">
		<tag k="name" v="Stakarstøda" />
		<tag k="natural" v="bay" />
		<tag k="ssr:stedsnr" v="157568" />
	</node>
	<node lat="62.406983332390176" lon="5.855261103188389" id="-7798">
		<tag k="name" v="Midtfløsanden" />
		<tag k="natural" v="beach" />
		<tag k="ssr:stedsnr" v="157577" />
	</node>
	<node lat="62.39147500127219" lon="5.8359361022393585" id="-7799">
		<tag k="name" v="Hammarsvågen" />
		<tag k="natural" v="bay" />
		<tag k="ssr:stedsnr" v="157580" />
	</node>
	<node lat="62.24566666683408" lon="5.882108329405693" id="-7800">
		<tag k="name" v="Grønevikholmen" />
		<tag k="place" v="islet" />
		<tag k="ssr:stedsnr" v="159886" />
	</node>
	<node lat="62.426069446711004" lon="5.7589111035041345" id="-7801">
		<tag k="fixme" v="consider seamark:type=rock or natural=shoal" />
		<tag k="name" v="Høgeskjeret" />
		<tag k="place" v="islet" />
		<tag k="ssr:stedsnr" v="173000" />
	</node>
	<node lat="62.43672778126" lon="5.758666656736163" id="-7802">
		<tag k="name" v="Revet" />
		<tag k="natural" v="shoal" />
		<tag k="place" v="locality" />
		<tag k="ssr:stedsnr" v="173870" />
	</node>
	<node lat="62.244280555921456" lon="5.862447222780065" id="-7810">
		<tag k="bay" v="fjord" />
		<tag k="name" v="Selvågdjupet" />
		<tag k="natural" v="bay" />
		<tag k="ssr:stedsnr" v="193137" />
	</node>
	<node lat="62.24167777356287" lon="5.8610416643689565" id="-7811">
		<tag k="alt_name" v="Søre Kubbeteholmen" />
		<tag k="name" v="Kubbholmen" />
		<tag k="place" v="islet" />
		<tag k="ssr:stedsnr" v="193139" />
	</node>
	<node lat="62.33441389277619" lon="5.820466673292636" id="-7813">
		<tag k="alt_name" v="Dimnasundholmen" />
		<tag k="name" v="Dimnaholmen" />
		<tag k="place" v="islet" />
		<tag k="ssr:stedsnr" v="193783" />
	</node>
	<node lat="62.34893833027204" lon="5.793811726628384" id="-7814">
		<tag k="name" v="Håkonsholmen" />
		<tag k="place" v="islet" />
		<tag k="ssr:stedsnr" v="193859" />
	</node>
	<node lat="62.31511666269284" lon="5.790066666445024" id="-7815">
		<tag k="name" v="Dimnavika" />
		<tag k="natural" v="bay" />
		<tag k="ssr:stedsnr" v="193793" />
	</node>
	<node lat="62.31898333528754" lon="5.811244439470226" id="-7816">
		<tag k="fixme" v="multiple name tags, choose one and add the other to alt_name" />
		<tag k="name" v="Dimna;Dimnøya" />
		<tag k="place" v="island" />
		<tag k="ssr:stedsnr" v="193797" />
	</node>
	<node lat="62.34575277427808" lon="5.7830638967918695" id="-7819">
		<tag k="alt_name" v="Store Hatløya" />
		<tag k="name" v="Hatløya" />
		<tag k="place" v="island" />
		<tag k="ssr:stedsnr" v="193824" />
	</node>
	<node lat="62.27231111330657" lon="5.861383335737359" id="-7829">
		<tag k="name" v="Litleholmen" />
		<tag k="place" v="islet" />
		<tag k="ssr:stedsnr" v="217579" />
	</node>
	<node lat="62.256069442616116" lon="5.820436107138876" id="-7830">
		<tag k="name" v="Osholmane" />
		<tag k="place" v="islet" />
		<tag k="ssr:stedsnr" v="217588" />
	</node>
	<node lat="62.30228611264876" lon="5.7808666641695545" id="-7832">
		<tag k="name" v="Koparslagaren" />
		<tag k="place" v="islet" />
		<tag k="ssr:stedsnr" v="217638" />
	</node>
	<node lat="62.24888333761014" lon="5.864169447325645" id="-7841">
		<tag k="name" v="Havågsneset" />
		<tag k="natural" v="cape" />
		<tag k="ssr:stedsnr" v="278546" />
	</node>
	<node lat="62.264977776912495" lon="5.854066657589476" id="-7842">
		<tag k="alt_name" v="Hagardsvika" />
		<tag k="name" v="Haggardsvika" />
		<tag k="natural" v="bay" />
		<tag k="ssr:stedsnr" v="278553" />
	</node>
	<node lat="62.26156388674136" lon="5.831430548911268" id="-7843">
		<tag k="name" v="Olaholmen" />
		<tag k="place" v="islet" />
		<tag k="ssr:stedsnr" v="278555" />
	</node>
	<node lat="62.32199166339989" lon="5.775558328362785" id="-7845">
		<tag k="name" v="Jaktevågen" />
		<tag k="natural" v="bay" />
		<tag k="ssr:stedsnr" v="278695" />
	</node>
	<node lat="62.24902777916012" lon="5.912277781596952" id="-7847">
		<tag k="name" v="Sundhaugen" />
		<tag k="natural" v="cape" />
		<tag k="ssr:stedsnr" v="294348" />
	</node>
	<node lat="62.25151944751324" lon="5.814277769601762" id="-7848">
		<tag k="name" v="Aursnespynten" />
		<tag k="natural" v="cape" />
		<tag k="ssr:stedsnr" v="294769" />
	</node>
	<node lat="62.279177773723816" lon="5.949355558973521" id="-7855">
		<tag k="name" v="Laupsneset" />
		<tag k="natural" v="cape" />
		<tag k="ssr:stedsnr" v="314648" />
	</node>
	<node lat="62.30426944715022" lon="5.84443888105032" id="-7856">
		<tag k="name" v="Botnavika" />
		<tag k="natural" v="bay" />
		<tag k="ssr:stedsnr" v="314745" />
	</node>
	<node lat="62.42301389064429" lon="5.746197222240017" id="-7858">
		<tag k="name" v="Skjervøya" />
		<tag k="place" v="island" />
		<tag k="ssr:stedsnr" v="314885" />
	</node>
	<node lat="62.39879444456463" lon="5.775277783847765" id="-7859">
		<tag k="name" v="Martinsfluda" />
		<tag k="natural" v="shoal" />
		<tag k="place" v="locality" />
		<tag k="ssr:stedsnr" v="314896" />
	</node>
	<node lat="62.34291666443526" lon="5.802230556534236" id="-7860">
		<tag k="name" v="Kloholmane" />
		<tag k="place" v="islet" />
		<tag k="ssr:stedsnr" v="325856" />
	</node>
	<node lat="62.24590277595429" lon="5.882072231200546" id="-7861">
		<tag k="name" v="Langeneset" />
		<tag k="natural" v="cape" />
		<tag k="ssr:stedsnr" v="338434" />
	</node>
	<node lat="62.421802778076355" lon="5.920288894631605" id="-7863">
		<tag k="name" v="Ospehola" />
		<tag k="natural" v="bay" />
		<tag k="ssr:stedsnr" v="338385" />
	</node>
	<node lat="62.29721944474274" lon="5.774313879403957" id="-7866">
		<tag k="name" v="Bentvika" />
		<tag k="natural" v="bay" />
		<tag k="ssr:stedsnr" v="338474" />
	</node>
	<node lat="62.26401110843239" lon="5.838558334244247" id="-7868">
		<tag k="name" v="Naustneset" />
		<tag k="natural" v="cape" />
		<tag k="ssr:stedsnr" v="339487" />
	</node>
	<node lat="62.39789166470876" lon="5.82109166873945" id="-7870">
		<tag k="name" v="Djupklekken" />
		<tag k="natural" v="shoal" />
		<tag k="place" v="locality" />
		<tag k="ssr:stedsnr" v="355885" />
	</node>
	<node lat="62.33750555284839" lon="5.82444722058711" id="-7876">
		<tag k="alt_name" v="Sneingen" />
		<tag k="name" v="Sneiingen" />
		<tag k="place" v="islet" />
		<tag k="ssr:stedsnr" v="375775" />
	</node>
	<node lat="62.33215277874329" lon="5.793655552383713" id="-7879">
		<tag k="alt_name" v="Litle Spjutøya;Litle Spjotøya" />
		<tag k="name" v="Litlespjøtøya" />
		<tag k="place" v="island" />
		<tag k="ssr:stedsnr" v="384353" />
	</node>
	<node lat="62.30968055647114" lon="5.84506389621242" id="-7882">
		<tag k="name" v="Sundgotstraumen" />
		<tag k="natural" v="strait" />
		<tag k="ssr:stedsnr" v="398538" />
	</node>
	<node lat="62.31303333766245" lon="5.8482055638850925" id="-7883">
		<tag k="name" v="Garsholhølen" />
		<tag k="natural" v="bay" />
		<tag k="ssr:stedsnr" v="398543" />
	</node>
	<node lat="62.33329722234091" lon="5.812111116137109" id="-7884">
		<tag k="name" v="Storholmen" />
		<tag k="place" v="islet" />
		<tag k="ssr:stedsnr" v="398623" />
	</node>
	<node lat="62.26413055524859" lon="5.854252776690353" id="-7886">
		<tag k="name" v="Håheimstranda" />
		<tag k="natural" v="beach" />
		<tag k="ssr:stedsnr" v="399530" />
	</node>
	<node lat="62.327930552699414" lon="5.7897111159362495" id="-7893">
		<tag k="name" v="Kuholmen" />
		<tag k="natural" v="cape" />
		<tag k="ssr:stedsnr" v="399568" />
	</node>
	<node lat="62.2964416683631" lon="5.791108325724023" id="-7894">
		<tag k="name" v="Leirvågen" />
		<tag k="natural" v="bay" />
		<tag k="ssr:stedsnr" v="399648" />
	</node>
	<node lat="62.43689166822662" lon="5.836102776293518" id="-7896">
		<tag k="name" v="Vallafluda" />
		<tag k="natural" v="shoal" />
		<tag k="place" v="locality" />
		<tag k="ssr:stedsnr" v="416852" />
	</node>
	<node lat="62.41920555243237" lon="5.734327787308972" id="-7902">
		<tag k="name" v="Tøyrane" />
		<tag k="place" v="islet" />
		<tag k="ssr:stedsnr" v="435920" />
	</node>
	<node lat="62.34684722014636" lon="5.79941389690088" id="-7905">
		<tag k="name" v="Flatholmen" />
		<tag k="place" v="islet" />
		<tag k="ssr:stedsnr" v="435848" />
	</node>
	<node lat="62.30971944454385" lon="5.786722218978439" id="-7908">
		<tag k="alt_name" v="Sandvikklubben" />
		<tag k="name" v="Klubben" />
		<tag k="natural" v="cape" />
		<tag k="ssr:stedsnr" v="436794" />
	</node>
	<node lat="62.229036114813574" lon="5.859816671647365" id="-7910">
		<tag k="name" v="Eiketangane" />
		<tag k="natural" v="cape" />
		<tag k="ssr:stedsnr" v="496184" />
	</node>
	<node lat="62.32785277644837" lon="5.766261108557134" id="-7917">
		<tag k="name" v="Kjeholmen" />
		<tag k="place" v="islet" />
		<tag k="ssr:stedsnr" v="505345" />
	</node>
	<node lat="62.29399166909453" lon="5.847369440381231" id="-7918">
		<tag k="name" v="Garnesstranda" />
		<tag k="natural" v="beach" />
		<tag k="ssr:stedsnr" v="520529" />
	</node>
	<node lat="62.32675555362382" lon="5.779291658365697" id="-7920">
		<tag k="name" v="Trefludavika" />
		<tag k="natural" v="bay" />
		<tag k="ssr:stedsnr" v="520657" />
	</node>
	<node lat="62.264736114190065" lon="5.846563895931709" id="-7923">
		<tag k="name" v="Trongesundneset" />
		<tag k="natural" v="cape" />
		<tag k="ssr:stedsnr" v="521490" />
	</node>
	<node lat="62.38036111112101" lon="5.790888888581362" id="-7924">
		<tag k="fixme" v="consider seamark:type=rock or natural=shoal" />
		<tag k="name" v="Småskjera" />
		<tag k="place" v="islet" />
		<tag k="ssr:stedsnr" v="521589" />
	</node>
	<node lat="62.37346110981684" lon="5.792022216289842" id="-7925">
		<tag k="name" v="Hamnholmen" />
		<tag k="place" v="islet" />
		<tag k="ssr:stedsnr" v="521591" />
	</node>
	<node lat="62.3356138881138" lon="5.767599995664703" id="-7928">
		<tag k="name" v="Guleskjeret" />
		<tag k="place" v="islet" />
		<tag k="ssr:stedsnr" v="521535" />
	</node>
	<node lat="62.246616668144526" lon="5.83517777858715" id="-7930">
		<tag k="name" v="Langholmen" />
		<tag k="place" v="islet" />
		<tag k="ssr:stedsnr" v="524877" />
	</node>
	<node lat="62.28704748578875" lon="5.8324468926896404" id="-7932">
		<tag k="name" v="Kverna" />
		<tag k="natural" v="shoal" />
		<tag k="place" v="locality" />
		<tag k="ssr:stedsnr" v="537778" />
	</node>
	<node lat="62.38373055782445" lon="5.775388884873529" id="-7944">
		<tag k="name" v="Sneldebodane" />
		<tag k="natural" v="shoal" />
		<tag k="place" v="locality" />
		<tag k="ssr:stedsnr" v="557888" />
	</node>
	<node lat="62.33129166767727" lon="5.859941657079245" id="-7947">
		<tag k="name" v="Stranda" />
		<tag k="natural" v="beach" />
		<tag k="ssr:stedsnr" v="581554" />
	</node>
	<node lat="62.327797219185705" lon="5.77171389603293" id="-7950">
		<tag k="name" v="Terneskjera" />
		<tag k="place" v="islet" />
		<tag k="ssr:stedsnr" v="581577" />
	</node>
	<node lat="62.32717222181079" lon="5.791216660358267" id="-7952">
		<tag k="name" v="Litlevågen" />
		<tag k="natural" v="bay" />
		<tag k="ssr:stedsnr" v="581667" />
	</node>
	<node lat="62.346163891130416" lon="5.797413884915063" id="-7953">
		<tag k="name" v="Rundholmen" />
		<tag k="place" v="islet" />
		<tag k="ssr:stedsnr" v="581670" />
	</node>
	<node lat="62.3693027767648" lon="5.78388055675076" id="-7954">
		<tag k="name" v="Saltbudneset" />
		<tag k="natural" v="cape" />
		<tag k="ssr:stedsnr" v="581672" />
	</node>
	<node lat="62.25102500071444" lon="5.865486104650825" id="-7955">
		<tag k="name" v="Litlevågen" />
		<tag k="natural" v="bay" />
		<tag k="ssr:stedsnr" v="581531" />
	</node>
	<node lat="62.25827500275968" lon="5.836730547317358" id="-7956">
		<tag k="alt_name" v="Sørvågen" />
		<tag k="name" v="Søre Håheimsvågen" />
		<tag k="natural" v="bay" />
		<tag k="ssr:stedsnr" v="581538" />
	</node>
	<node lat="62.402688886601304" lon="5.840344442065981" id="-7957">
		<tag k="name" v="Fanteleida" />
		<tag k="natural" v="strait" />
		<tag k="ssr:stedsnr" v="581625" />
	</node>
	<node lat="62.380586112476884" lon="5.824874993326597" id="-7958">
		<tag k="name" v="Gåsnesbukta" />
		<tag k="natural" v="bay" />
		<tag k="ssr:stedsnr" v="581627" />
	</node>
	<node lat="62.25754166506932" lon="5.824144447316726" id="-7961">
		<tag k="name" v="Skarvehamrane" />
		<tag k="natural" v="cape" />
		<tag k="ssr:stedsnr" v="597784" />
	</node>
	<node lat="62.27348610887984" lon="5.860777774421705" id="-7962">
		<tag k="name" v="Haddalsholmane" />
		<tag k="place" v="islet" />
		<tag k="ssr:stedsnr" v="597788" />
	</node>
	<node lat="62.33213888966244" lon="5.765897221860347" id="-7963">
		<tag k="name" v="Pålsfluda" />
		<tag k="natural" v="shoal" />
		<tag k="place" v="locality" />
		<tag k="ssr:stedsnr" v="597806" />
	</node>
	<node lat="62.292677780760485" lon="5.82544999341706" id="-7969">
		<tag k="alt_name" v="Høymoleskjeret" />
		<tag k="fixme" v="consider seamark:type=rock or natural=shoal" />
		<tag k="name" v="Høymolskjeret" />
		<tag k="place" v="islet" />
		<tag k="ssr:stedsnr" v="617170" />
	</node>
	<node lat="62.330348970465025" lon="5.799696469394376" id="-7972">
		<tag k="alt_name" v="Spjutøya;Store Spjotøya" />
		<tag k="name" v="Spjøtøya" />
		<tag k="place" v="islet" />
		<tag k="ssr:stedsnr" v="617843" />
	</node>
	<node lat="62.359274996797254" lon="5.803330547349961" id="-7973">
		<tag k="bay" v="fjord" />
		<tag k="name" v="Ulsteinfjorden" />
		<tag k="natural" v="bay" />
		<tag k="ssr:stedsnr" v="617850" />
	</node>
	<node lat="62.37397100646373" lon="5.781722305136708" id="-7974">
		<tag k="name" v="Vattøya" />
		<tag k="place" v="island" />
		<tag k="ssr:stedsnr" v="617851" />
	</node>
	<node lat="62.42688888647561" lon="5.819058340220883" id="-7976">
		<tag k="alt_name" v="Djupflusteinen" />
		<tag k="name" v="Djupfludsteinen" />
		<tag k="natural" v="shoal" />
		<tag k="place" v="locality" />
		<tag k="ssr:stedsnr" v="617960" />
	</node>
	<node lat="62.31805555228861" lon="5.794055550394214" id="-7981">
		<tag k="name" v="Dimnavågen" />
		<tag k="natural" v="bay" />
		<tag k="ssr:stedsnr" v="641617" />
	</node>
	<node lat="62.24532778154328" lon="5.891738886657526" id="-7983">
		<tag k="name" v="Makkevågen" />
		<tag k="natural" v="bay" />
		<tag k="ssr:stedsnr" v="642494" />
	</node>
	<node lat="62.382675002118575" lon="5.826080562378562" id="-7984">
		<tag k="name" v="Klubbeneset" />
		<tag k="natural" v="cape" />
		<tag k="ssr:stedsnr" v="642600" />
	</node>
	<node lat="62.443433336491495" lon="5.823583337477405" id="-7985">
		<tag k="name" v="Nergrunnskallen" />
		<tag k="natural" v="shoal" />
		<tag k="place" v="locality" />
		<tag k="ssr:stedsnr" v="658848" />
	</node>
	<node lat="62.44046111288424" lon="5.739627781023706" id="-7986">
		<tag k="name" v="Litlesøyla" />
		<tag k="natural" v="bay" />
		<tag k="ssr:stedsnr" v="658854" />
	</node>
	<node lat="62.248094446561105" lon="5.82556389149935" id="-7989">
		<tag k="name" v="Århaugfluda" />
		<tag k="natural" v="shoal" />
		<tag k="place" v="locality" />
		<tag k="ssr:stedsnr" v="719744" />
	</node>
	<node lat="62.242952773834105" lon="5.837661118901556" id="-7990">
		<tag k="name" v="Aursnesfludene" />
		<tag k="natural" v="shoal" />
		<tag k="place" v="locality" />
		<tag k="ssr:stedsnr" v="719745" />
	</node>
	<node lat="62.48191944273774" lon="5.727958334109035" id="-7992">
		<tag k="alt_name" v="Stattskallen" />
		<tag k="name" v="Stadskallen" />
		<tag k="natural" v="shoal" />
		<tag k="place" v="locality" />
		<tag k="ssr:stedsnr" v="719988" />
	</node>
	<node lat="62.27934999776386" lon="5.86149444920065" id="-7995">
		<tag k="alt_name" v="Haddalvika" />
		<tag k="name" v="Haddalsvika" />
		<tag k="natural" v="bay" />
		<tag k="ssr:stedsnr" v="738185" />
	</node>
	<node lat="62.233647223110026" lon="5.858313893718955" id="-7999">
		<tag k="alt_name" v="Geitholmen" />
		<tag k="name" v="Geitaholmen" />
		<tag k="natural" v="cape" />
		<tag k="ssr:stedsnr" v="739154" />
	</node>
	<node lat="62.240222226507385" lon="5.887677771533791" id="-8000">
		<tag k="name" v="Eika" />
		<tag k="place" v="island" />
		<tag k="ssr:stedsnr" v="739156" />
	</node>
	<node lat="62.34291666443526" lon="5.802230556534236" id="-8003">
		<tag k="alt_name" v="Store Klauvholmen" />
		<tag k="name" v="Kloholmen, nordre" />
		<tag k="place" v="islet" />
		<tag k="ssr:stedsnr" v="739828" />
	</node>
	<node lat="62.29180000094199" lon="5.847986119692516" id="-8012">
		<tag k="name" v="Garnesvika" />
		<tag k="natural" v="bay" />
		<tag k="ssr:stedsnr" v="763570" />
	</node>
	<node lat="62.326733332039154" lon="5.837627779092539" id="-8015">
		<tag k="name" v="Klubbeneset" />
		<tag k="natural" v="cape" />
		<tag k="ssr:stedsnr" v="763582" />
	</node>
	<node lat="62.30969999554596" lon="5.836205552205545" id="-8016">
		<tag k="name" v="Tjeldeneset" />
		<tag k="natural" v="cape" />
		<tag k="ssr:stedsnr" v="763589" />
	</node>
	<node lat="62.349786107659966" lon="5.8086194365681765" id="-8018">
		<tag k="fixme" v="consider seamark:type=rock or natural=shoal" />
		<tag k="name" v="Hatløykråka" />
		<tag k="place" v="islet" />
		<tag k="ssr:stedsnr" v="763656" />
	</node>
	<node lat="62.348338893305595" lon="5.82359999797886" id="-8019">
		<tag k="name" v="Halsneset" />
		<tag k="natural" v="cape" />
		<tag k="ssr:stedsnr" v="763658" />
	</node>
	<node lat="62.26367500393629" lon="5.843183336816108" id="-8020">
		<tag k="alt_name" v="Nordvågen" />
		<tag k="name" v="Nørdre Håheimsvågen" />
		<tag k="natural" v="bay" />
		<tag k="ssr:stedsnr" v="763538" />
	</node>
	<node lat="62.34892778242044" lon="5.801766673810534" id="-8023">
		<tag k="name" v="Tjuvholmen" />
		<tag k="place" v="islet" />
		<tag k="ssr:stedsnr" v="763663" />
	</node>
	<node lat="62.332302775435934" lon="5.803544435612859" id="-8024">
		<tag k="name" v="Grisholmen" />
		<tag k="place" v="islet" />
		<tag k="ssr:stedsnr" v="763664" />
	</node>
	<node lat="62.36924722190851" lon="5.7782777706424335" id="-8026">
		<tag k="name" v="Grisegjerdet" />
		<tag k="natural" v="cape" />
		<tag k="ssr:stedsnr" v="763671" />
	</node>
	<node lat="62.34723888554807" lon="5.7955166762457155" id="-8027">
		<tag k="fixme" v="consider seamark:type=rock or natural=shoal" />
		<tag k="name" v="Kattaskjeret" />
		<tag k="place" v="islet" />
		<tag k="ssr:stedsnr" v="763673" />
	</node>
	<node lat="62.30144166421273" lon="5.788569446328635" id="-8028">
		<tag k="name" v="Skinavågen" />
		<tag k="natural" v="bay" />
		<tag k="ssr:stedsnr" v="763674" />
	</node>
	<node lat="62.419966663035495" lon="5.720816676072421" id="-8030">
		<tag k="name" v="Olavsboden" />
		<tag k="natural" v="shoal" />
		<tag k="place" v="locality" />
		<tag k="ssr:stedsnr" v="780000" />
	</node>
	<node lat="62.375963889353244" lon="5.81368333052408" id="-8031">
		<tag k="name" v="Biskopen" />
		<tag k="place" v="locality" />
		<tag k="seamark:type" v="rock" />
		<tag k="ssr:stedsnr" v="780985" />
	</node>
	<node lat="62.30549166297506" lon="5.777138889017896" id="-8040">
		<tag k="name" v="Flatøya" />
		<tag k="place" v="islet" />
		<tag k="ssr:stedsnr" v="800720" />
	</node>
	<node lat="62.34481944535905" lon="5.8080750026084536" id="-8041">
		<tag k="name" v="Peholmen" />
		<tag k="place" v="islet" />
		<tag k="ssr:stedsnr" v="800821" />
	</node>
	<node lat="62.30313611369757" lon="5.787541674353311" id="-8042">
		<tag k="alt_name" v="Blikvågane" />
		<tag k="name" v="Blikvågen" />
		<tag k="natural" v="bay" />
		<tag k="ssr:stedsnr" v="800721" />
	</node>
	<node lat="62.348213483424985" lon="5.764206571088754" id="-8043">
		<tag k="name" v="Botnaløysa" />
		<tag k="natural" v="bay" />
		<tag k="ssr:stedsnr" v="800857" />
	</node>
	<node lat="62.35621379322366" lon="5.781168993408986" id="-8044">
		<tag k="name" v="Byholmane" />
		<tag k="place" v="islet" />
		<tag k="ssr:stedsnr" v="800858" />
	</node>
	<node lat="62.39288055943947" lon="5.754658325700799" id="-8047">
		<tag k="fixme" v="consider seamark:type=rock or natural=shoal" />
		<tag k="name" v="Mefjordskjeret" />
		<tag k="place" v="islet" />
		<tag k="ssr:stedsnr" v="800866" />
	</node>
	<node lat="62.39382777714923" lon="5.740616662156548" id="-8048">
		<tag k="alt_name" v="Rundefjorden" />
		<tag k="bay" v="fjord" />
		<tag k="name" v="Rundafjorden" />
		<tag k="natural" v="bay" />
		<tag k="ssr:stedsnr" v="800868" />
	</node>
	<node lat="62.42960278157343" lon="5.758644439603891" id="-8053">
		<tag k="alt_name" v="Grasøyane" />
		<tag k="name" v="Grasøya" />
		<tag k="place" v="islet" />
		<tag k="ssr:stedsnr" v="800963" />
	</node>
	<node lat="62.25256666949157" lon="5.8555416580867465" id="-8057">
		<tag k="name" v="Selvågen" />
		<tag k="natural" v="bay" />
		<tag k="ssr:stedsnr" v="824486" />
	</node>
	<node lat="62.31410555729103" lon="5.8531749964882085" id="-8060">
		<tag k="name" v="Hasundvågen" />
		<tag k="natural" v="bay" />
		<tag k="ssr:stedsnr" v="824577" />
	</node>
	<node lat="62.31817499833931" lon="5.850791666522452" id="-8061">
		<tag k="name" v="Grasneset" />
		<tag k="natural" v="cape" />
		<tag k="ssr:stedsnr" v="824578" />
	</node>
	<node lat="62.3106194480834" lon="5.788402782937124" id="-8064">
		<tag k="alt_name" v="Sandvika" />
		<tag k="name" v="Storesandvika" />
		<tag k="natural" v="bay" />
		<tag k="ssr:stedsnr" v="824646" />
	</node>
	<node lat="62.322363891036424" lon="5.781313879698685" id="-8065">
		<tag k="name" v="Langevågen" />
		<tag k="natural" v="bay" />
		<tag k="ssr:stedsnr" v="824650" />
	</node>
	<node lat="62.341527773299745" lon="5.76788333103026" id="-8068">
		<tag k="name" v="Grøneholmen" />
		<tag k="place" v="islet" />
		<tag k="ssr:stedsnr" v="824660" />
	</node>
	<node lat="62.39272777864907" lon="5.774713880494516" id="-8071">
		<tag k="bay" v="fjord" />
		<tag k="name" v="Grasøyfjorden" />
		<tag k="natural" v="bay" />
		<tag k="ssr:stedsnr" v="824549" />
	</node>
	<node lat="62.30317499903052" lon="5.820461113158448" id="-8072">
		<tag k="name" v="Dragholmen" />
		<tag k="place" v="islet" />
		<tag k="ssr:stedsnr" v="824555" />
	</node>
	<node lat="62.229849995562354" lon="5.874616667125205" id="-8077">
		<tag k="name" v="Eikefluda" />
		<tag k="natural" v="shoal" />
		<tag k="place" v="locality" />
		<tag k="ssr:stedsnr" v="841341" />
	</node>
	<node lat="62.26752778126259" lon="5.844488897560097" id="-8087">
		<tag k="name" v="Furøya" />
		<tag k="place" v="islet" />
		<tag k="ssr:stedsnr" v="860201" />
	</node>
	<node lat="62.25130277880559" lon="5.858402772293517" id="-8088">
		<tag k="alt_name" v="Selvågholmen" />
		<tag k="name" v="Selvågsholmen" />
		<tag k="place" v="islet" />
		<tag k="ssr:stedsnr" v="860245" />
	</node>
	<node lat="62.4091333310219" lon="5.806822215889993" id="-8089">
		<tag k="name" v="Eggholmen" />
		<tag k="place" v="islet" />
		<tag k="ssr:stedsnr" v="860936" />
	</node>
	<node lat="62.354502387166114" lon="5.77502004662222" id="-8090">
		<tag k="fixme" v="consider seamark:type=rock or natural=shoal" />
		<tag k="name" v="Galten" />
		<tag k="place" v="islet" />
		<tag k="ssr:stedsnr" v="860887" />
	</node>
	<node lat="62.294850003136496" lon="5.783911111466918" id="-8093">
		<tag k="name" v="Røyrasundet" />
		<tag k="natural" v="strait" />
		<tag k="ssr:stedsnr" v="861652" />
	</node>
	<node lat="62.33399444375019" lon="5.785847225268889" id="-8096">
		<tag k="alt_name" v="Søyla" />
		<tag k="name" v="Søylene" />
		<tag k="natural" v="strait" />
		<tag k="ssr:stedsnr" v="861840" />
	</node>
	<node lat="62.33275000277996" lon="5.8165305602543995" id="-8105">
		<tag k="alt_name" v="Vågholmane" />
		<tag k="name" v="Vågeholmane" />
		<tag k="place" v="islet" />
		<tag k="ssr:stedsnr" v="945602" />
	</node>
	<node lat="62.32733333554374" lon="5.77526667194205" id="-8106">
		<tag k="name" v="Teigesundet" />
		<tag k="natural" v="strait" />
		<tag k="ssr:stedsnr" v="945617" />
	</node>
	<node lat="62.313933331857555" lon="5.850561119435399" id="-8113">
		<tag k="name" v="Hasundholmen" />
		<tag k="place" v="islet" />
		<tag k="ssr:stedsnr" v="946499" />
	</node>
	<node lat="62.38695833326578" lon="5.796291666461591" id="-8116">
		<tag k="name" v="Sandøyklubben" />
		<tag k="place" v="islet" />
		<tag k="ssr:stedsnr" v="946554" />
	</node>
	<node lat="62.46063611166335" lon="5.7456166684137004" id="-8121">
		<tag k="name" v="Småskallane" />
		<tag k="natural" v="shoal" />
		<tag k="place" v="locality" />
		<tag k="ssr:stedsnr" v="962267" />
	</node>
	<node lat="62.43392222606218" lon="5.777194438715766" id="-8122">
		<tag k="name" v="Breifluda" />
		<tag k="natural" v="shoal" />
		<tag k="place" v="locality" />
		<tag k="ssr:stedsnr" v="962874" />
	</node>
	<node lat="62.35534649383976" lon="5.780359829413347" id="-8142">
		<tag k="fixme" v="consider seamark:type=rock or natural=shoal" />
		<tag k="name" v="Bymannen" />
		<tag k="place" v="islet" />
		<tag k="ssr:stedsnr" v="989305" />
	</node>
	<node lat="62.34793730982898" lon="5.792170149513959" id="-8298">
		<tag k="name" v="Holmesundet" />
		<tag k="natural" v="strait" />
		<tag k="ssr:stedsnr" v="1077266" />
	</node>
	<node lat="62.415436363095296" lon="5.850132804464269" id="-8299">
		<tag k="name" v="Fløleia" />
		<tag k="natural" v="strait" />
		<tag k="ssr:stedsnr" v="1077340" />
	</node>
</osm>
