<?xml version="1.0" encoding="UTF-8"?>
<osm generator="osmapis" version="0.6">
	<node id="-561152" lat="62.4187972178" lon="5.90665277414">
		<tag k="alt_name" v="Børebakken" />
		<tag k="name" v="Byrabakkane" />
		<tag k="natural" v="slope" />
		<tag k="place" v="locality" />
		<tag k="ssr:stedsnr" v="824498" />
	</node>
	<node id="-561151" lat="62.2638666633" lon="5.91675832918">
		<tag k="name" v="Øggardsnakken" />
		<tag k="natural" v="ridge" />
		<tag k="place" v="locality" />
		<tag k="ssr:stedsnr" v="824491" />
	</node>
	<node id="-561150" lat="62.2525666695" lon="5.85554165809">
		<tag k="name" v="Selvågen" />
		<tag k="natural" v="bay" />
		<tag k="ssr:stedsnr" v="824486" />
	</node>
	<node id="-561149" lat="62.3682166689" lon="5.85255556051">
		<tag k="name" v="Gjøtene" />
		<tag k="natural" v="valley" />
		<tag k="place" v="locality" />
		<tag k="ssr:stedsnr" v="824480" />
	</node>
	<node id="-561148" lat="62.4197638879" lon="5.90476110283">
		<tag k="name" v="Støylane" />
		<tag k="place" v="locality" />
		<tag k="ssr:stedsnr" v="824471" />
	</node>
	<node id="-561147" lat="62.4198583371" lon="5.89877221696">
		<tag k="name" v="Kriken" />
		<tag k="place" v="locality" />
		<tag k="ssr:stedsnr" v="824472" />
	</node>
	<node id="-561146" lat="62.3589305552" lon="5.82001110252">
		<tag k="name" v="Laberget" />
		<tag k="natural" v="hill" />
		<tag k="place" v="locality" />
		<tag k="ssr:stedsnr" v="824464" />
	</node>
	<node id="-561145" lat="62.3549361154" lon="5.84844166743">
		<tag k="name" v="Årdalen" />
		<tag k="natural" v="valley" />
		<tag k="place" v="locality" />
		<tag k="ssr:stedsnr" v="824463" />
	</node>
	<node id="-561144" lat="62.3640500011" lon="5.82089444899">
		<tag k="name" v="Huslagarden" />
		<tag k="place" v="farm" />
		<tag k="ssr:stedsnr" v="824429" />
	</node>
	<node id="-561143" lat="62.2584888909" lon="5.86353055942">
		<tag k="layer" v="-1" />
		<tag k="name" v="Selvågtunnelen" />
		<tag k="ssr:stedsnr" v="822587" />
		<tag k="tunnel" v="yes" />
	</node>
	<node id="-561142" lat="62.4296027816" lon="5.7586444396">
		<tag k="alt_name" v="Grasøyane" />
		<tag k="name" v="Grasøya" />
		<tag k="place" v="islet" />
		<tag k="ssr:stedsnr" v="800963" />
	</node>
	<node id="-561141" lat="62.4048760488" lon="5.85739830182">
		<tag k="fixme" v="consider place=hamlet" />
		<tag k="name" v="Midtflø" />
		<tag k="place" v="farm" />
		<tag k="ssr:stedsnr" v="800935" />
	</node>
	<node id="-561140" lat="62.4042194425" lon="5.8824666718">
		<tag k="alt_name" v="Viten" />
		<tag k="fixme" v="consider natural=peak for the most distinct mountains in the district" />
		<tag k="name" v="Veten" />
		<tag k="natural" v="hill" />
		<tag k="place" v="locality" />
		<tag k="ssr:stedsnr" v="800936" />
	</node>
	<node id="-561139" lat="62.3852861069" lon="5.85633333827">
		<tag k="name" v="Roppemarka" />
		<tag k="natural" v="valley" />
		<tag k="place" v="locality" />
		<tag k="ssr:stedsnr" v="800888" />
	</node>
	<node id="-561138" lat="62.3898277774" lon="5.92737778611">
		<tag k="name" v="Brørevatnet" />
		<tag k="natural" v="water" />
		<tag k="ssr:stedsnr" v="800886" />
		<tag k="water" v="lake" />
	</node>
	<node id="-561137" lat="62.3938277771" lon="5.74061666216">
		<tag k="alt_name" v="Rundefjorden" />
		<tag k="bay" v="fjord" />
		<tag k="name" v="Rundafjorden" />
		<tag k="natural" v="bay" />
		<tag k="ssr:stedsnr" v="800868" />
	</node>
	<node id="-561136" lat="62.3928805594" lon="5.7546583257">
		<tag k="fixme" v="consider seamark:type=rock or natural=shoal" />
		<tag k="name" v="Mefjordskjeret" />
		<tag k="place" v="islet" />
		<tag k="ssr:stedsnr" v="800866" />
	</node>
	<node id="-561135" lat="62.3969277791" lon="5.86982777505">
		<tag k="alt_name" v="Indrefløelva" />
		<tag k="name" v="Storelva" />
		<tag k="ssr:stedsnr" v="800862" />
		<tag k="waterway" v="stream" />
	</node>
	<node id="-561134" lat="62.3562750015" lon="5.82897778478">
		<tag k="name" v="Bakken" />
		<tag k="place" v="farm" />
		<tag k="ssr:stedsnr" v="800860" />
	</node>
	<node id="-561133" lat="62.3562137932" lon="5.78116899341">
		<tag k="name" v="Byholmane" />
		<tag k="place" v="islet" />
		<tag k="ssr:stedsnr" v="800858" />
	</node>
	<node id="-561132" lat="62.3448194454" lon="5.80807500261">
		<tag k="name" v="Peholmen" />
		<tag k="place" v="islet" />
		<tag k="ssr:stedsnr" v="800821" />
	</node>
	<node id="-561131" lat="62.3318222226" lon="5.77701944907">
		<tag k="name" v="Roparholmen" />
		<tag k="place" v="islet" />
		<tag k="ssr:stedsnr" v="800810" />
	</node>
	<node id="-561130" lat="62.3383861156" lon="5.77915556199">
		<tag k="name" v="Borgarøya" />
		<tag k="place" v="islet" />
		<tag k="ssr:stedsnr" v="800793" />
	</node>
	<node id="-561129" lat="62.3201083374" lon="5.86382778391">
		<tag k="alt_name" v="Sandvika" />
		<tag k="name" v="Sandvik" />
		<tag k="place" v="farm" />
		<tag k="ssr:stedsnr" v="800785" />
	</node>
	<node id="-561128" lat="62.3179944456" lon="5.8780861182">
		<tag k="fixme" v="multiple name tags, choose one and add the other to alt_name; consider natural=peak for the most distinct mountains in the district" />
		<tag k="name" v="Hasundhornet;Hasundrabben" />
		<tag k="natural" v="hill" />
		<tag k="place" v="locality" />
		<tag k="ssr:stedsnr" v="800734" />
	</node>
	<node id="-561127" lat="62.305491663" lon="5.77713888902">
		<tag k="name" v="Flatøya" />
		<tag k="place" v="islet" />
		<tag k="ssr:stedsnr" v="800720" />
	</node>
	<node id="-561126" lat="62.3031361137" lon="5.78754167435">
		<tag k="alt_name" v="Blikvågane" />
		<tag k="name" v="Blikvågen" />
		<tag k="natural" v="bay" />
		<tag k="ssr:stedsnr" v="800721" />
	</node>
	<node id="-561125" lat="62.3058019176" lon="5.85496402396">
		<tag k="fixme" v="consider place=hamlet" />
		<tag k="name" v="Botnen" />
		<tag k="place" v="farm" />
		<tag k="ssr:stedsnr" v="800718" />
	</node>
	<node id="-561124" lat="62.3795805566" lon="5.83454443928">
		<tag k="name" v="Uldalen" />
		<tag k="natural" v="valley" />
		<tag k="place" v="locality" />
		<tag k="ssr:stedsnr" v="799917" />
	</node>
	<node id="-561123" lat="62.3755138917" lon="5.82050277325">
		<tag k="name" v="Plassen" />
		<tag k="place" v="farm" />
		<tag k="ssr:stedsnr" v="799915" />
	</node>
	<node id="-561122" lat="62.2510972261" lon="5.90443333818">
		<tag k="amenity" v="ferry_terminal" />
		<tag k="name" v="Eiksund ferjekai" />
		<tag k="ssr:stedsnr" v="799214" />
	</node>
	<node id="-561121" lat="62.2816666693" lon="5.93419445191">
		<tag k="name" v="Laupsvatnet" />
		<tag k="natural" v="water" />
		<tag k="ssr:stedsnr" v="799191" />
	</node>
	<node id="-561119" lat="62.3117666675" lon="5.91890278272">
		<tag k="name" v="Fjellsskogen" />
		<tag k="place" v="locality" />
		<tag k="ssr:stedsnr" v="787274" />
	</node>
	<node id="-561118" lat="62.3189749998" lon="5.88948055758">
		<tag k="name" v="Grimdalsnakken" />
		<tag k="place" v="locality" />
		<tag k="ssr:stedsnr" v="787269" />
	</node>
	<node id="-561117" lat="62.33177778" lon="5.86991944095">
		<tag k="name" v="Skjoranakken" />
		<tag k="place" v="locality" />
		<tag k="ssr:stedsnr" v="787244" />
	</node>
	<node id="-561116" lat="62.3841444427" lon="5.89887221494">
		<tag k="name" v="Skåla" />
		<tag k="place" v="locality" />
		<tag k="ssr:stedsnr" v="787001" />
	</node>
	<node id="-561115" lat="62.2987472237" lon="5.93346388279">
		<tag k="name" v="Saudvika" />
		<tag k="natural" v="bay" />
		<tag k="ssr:stedsnr" v="783134" />
	</node>
	<node id="-561114" lat="62.2966111101" lon="5.94306388955">
		<tag k="name" v="Løsetbotnen" />
		<tag k="natural" v="valley" />
		<tag k="place" v="locality" />
		<tag k="ssr:stedsnr" v="783126" />
	</node>
	<node id="-561113" lat="62.3759638894" lon="5.81368333052">
		<tag k="name" v="Biskopen" />
		<tag k="place" v="locality" />
		<tag k="seamark:type" v="rock" />
		<tag k="ssr:stedsnr" v="780985" />
	</node>
	<node id="-561112" lat="62.3660083321" lon="5.7801972244">
		<tag k="name" v="Kyrefluda" />
		<tag k="natural" v="shoal" />
		<tag k="place" v="locality" />
		<tag k="ssr:stedsnr" v="780923" />
	</node>
	<node id="-561111" lat="62.4261444419" lon="5.79561110807">
		<tag k="name" v="Djupefludsteinen" />
		<tag k="natural" v="shoal" />
		<tag k="place" v="locality" />
		<tag k="ssr:stedsnr" v="780857" />
	</node>
	<node id="-561110" lat="62.3394500013" lon="5.85303612005">
		<tag k="name" v="Vik" />
		<tag k="place" v="isolated_dwelling" />
		<tag k="ssr:stedsnr" v="780765" />
	</node>
	<node id="-561109" lat="62.419966663" lon="5.72081667607">
		<tag k="name" v="Olavsboden" />
		<tag k="natural" v="shoal" />
		<tag k="place" v="locality" />
		<tag k="ssr:stedsnr" v="780000" />
	</node>
	<node id="-561108" lat="62.2824222216" lon="5.83218611323">
		<tag k="bridge" v="yes" />
		<tag k="layer" v="1" />
		<tag k="name" v="Dragsundbrua" />
		<tag k="ssr:stedsnr" v="765683" />
	</node>
	<node id="-561107" lat="62.3014416642" lon="5.78856944633">
		<tag k="name" v="Skinavågen" />
		<tag k="natural" v="bay" />
		<tag k="ssr:stedsnr" v="763674" />
	</node>
	<node id="-561106" lat="62.3472388855" lon="5.79551667625">
		<tag k="fixme" v="consider seamark:type=rock or natural=shoal" />
		<tag k="name" v="Kattaskjeret" />
		<tag k="place" v="islet" />
		<tag k="ssr:stedsnr" v="763673" />
	</node>
	<node id="-561105" lat="62.3692472219" lon="5.77827777064">
		<tag k="name" v="Grisegjerdet" />
		<tag k="natural" v="cape" />
		<tag k="ssr:stedsnr" v="763671" />
	</node>
	<node id="-561104" lat="62.3435583352" lon="5.78165278565">
		<tag k="name" v="Rogneberget" />
		<tag k="natural" v="hill" />
		<tag k="place" v="locality" />
		<tag k="ssr:stedsnr" v="763670" />
	</node>
	<node id="-561103" lat="62.3323027754" lon="5.80354443561">
		<tag k="name" v="Grisholmen" />
		<tag k="place" v="islet" />
		<tag k="ssr:stedsnr" v="763664" />
	</node>
	<node id="-561102" lat="62.3489277824" lon="5.80176667381">
		<tag k="name" v="Tjuvholmen" />
		<tag k="place" v="islet" />
		<tag k="ssr:stedsnr" v="763663" />
	</node>
	<node id="-561101" lat="62.3483388933" lon="5.82359999798">
		<tag k="name" v="Halsneset" />
		<tag k="natural" v="cape" />
		<tag k="ssr:stedsnr" v="763658" />
	</node>
	<node id="-561100" lat="62.3497861077" lon="5.80861943657">
		<tag k="fixme" v="consider seamark:type=rock or natural=shoal" />
		<tag k="name" v="Hatløykråka" />
		<tag k="place" v="islet" />
		<tag k="ssr:stedsnr" v="763656" />
	</node>
	<node id="-561099" lat="62.3880805529" lon="5.839438889">
		<tag k="name" v="Måsegylet" />
		<tag k="natural" v="gorge" />
		<tag k="ssr:stedsnr" v="763619" />
	</node>
	<node id="-561098" lat="62.3954777773" lon="5.89256111515">
		<tag k="name" v="Halvgjenget" />
		<tag k="natural" v="stone" />
		<tag k="ssr:stedsnr" v="763616" />
	</node>
	<node id="-561097" lat="62.4164750003" lon="5.88284723089">
		<tag k="name" v="Hardhaugen" />
		<tag k="natural" v="hill" />
		<tag k="place" v="locality" />
		<tag k="ssr:stedsnr" v="763612" />
	</node>
	<node id="-561096" lat="62.2583999981" lon="5.82713333419">
		<tag k="name" v="Hillehamrane" />
		<tag k="natural" v="cliff" />
		<tag k="ssr:stedsnr" v="763609" />
	</node>
	<node id="-561095" lat="62.3771222227" lon="5.77749443873">
		<tag k="name" v="Brandungane" />
		<tag k="place" v="islet" />
		<tag k="ssr:stedsnr" v="763597" />
	</node>
	<node id="-561094" lat="62.3155250043" lon="5.84994445102">
		<tag k="name" v="Morteberghaugen" />
		<tag k="natural" v="hill" />
		<tag k="place" v="locality" />
		<tag k="ssr:stedsnr" v="763590" />
	</node>
	<node id="-561093" lat="62.3096999955" lon="5.83620555221">
		<tag k="name" v="Tjeldeneset" />
		<tag k="natural" v="cape" />
		<tag k="ssr:stedsnr" v="763589" />
	</node>
	<node id="-561092" lat="62.326733332" lon="5.83762777909">
		<tag k="name" v="Klubbeneset" />
		<tag k="natural" v="cape" />
		<tag k="ssr:stedsnr" v="763582" />
	</node>
	<node id="-561091" lat="62.4088944433" lon="5.89484443824">
		<tag k="name" v="Leiseelva" />
		<tag k="ssr:stedsnr" v="763577" />
		<tag k="waterway" v="stream" />
	</node>
	<node id="-561090" lat="62.2896583348" lon="5.88829721419">
		<tag k="name" v="Breidesvæelva" />
		<tag k="ssr:stedsnr" v="763575" />
		<tag k="waterway" v="stream" />
	</node>
	<node id="-561089" lat="62.2918000009" lon="5.84798611969">
		<tag k="name" v="Garnesvika" />
		<tag k="natural" v="bay" />
		<tag k="ssr:stedsnr" v="763570" />
	</node>
	<node id="-561088" lat="62.3097388918" lon="5.79906666951">
		<tag k="name" v="Gotene" />
		<tag k="natural" v="hill" />
		<tag k="place" v="locality" />
		<tag k="ssr:stedsnr" v="763565" />
	</node>
	<node id="-561087" lat="62.2573444416" lon="5.86300000524">
		<tag k="name" v="Flatebergsheida" />
		<tag k="natural" v="hill" />
		<tag k="place" v="locality" />
		<tag k="ssr:stedsnr" v="763564" />
	</node>
	<node id="-561086" lat="62.2967111142" lon="5.84284721522">
		<tag k="name" v="Bueneset" />
		<tag k="natural" v="cape" />
		<tag k="ssr:stedsnr" v="763558" />
	</node>
	<node id="-561085" lat="62.2636750039" lon="5.84318333682">
		<tag k="alt_name" v="Nordvågen" />
		<tag k="name" v="Nørdre Håheimsvågen" />
		<tag k="natural" v="bay" />
		<tag k="ssr:stedsnr" v="763538" />
	</node>
	<node id="-561084" lat="62.2582305566" lon="5.86066389004">
		<tag k="name" v="Selvågsvatnet" />
		<tag k="natural" v="water" />
		<tag k="ssr:stedsnr" v="763533" />
	</node>
	<node id="-561083" lat="62.2436583372" lon="5.89175277457">
		<tag k="name" v="Klungsvågen" />
		<tag k="natural" v="bay" />
		<tag k="ssr:stedsnr" v="763521" />
	</node>
	<node id="-561082" lat="62.231897219" lon="5.88038888241">
		<tag k="name" v="Yksnøysundet" />
		<tag k="natural" v="strait" />
		<tag k="ssr:stedsnr" v="763511" />
	</node>
	<node id="-561081" lat="62.2819305535" lon="5.90415278141">
		<tag k="name" v="Slætta" />
		<tag k="natural" v="slope" />
		<tag k="place" v="locality" />
		<tag k="ssr:stedsnr" v="763507" />
	</node>
	<node id="-561080" lat="62.2729944429" lon="5.87106111465">
		<tag k="name" v="Slettene" />
		<tag k="place" v="locality" />
		<tag k="ssr:stedsnr" v="763505" />
	</node>
	<node id="-561079" lat="62.2320666689" lon="5.85316944663">
		<tag k="name" v="Straumen" />
		<tag k="natural" v="strait" />
		<tag k="ssr:stedsnr" v="763496" />
	</node>
	<node id="-561078" lat="62.3790055534" lon="5.85690277915">
		<tag k="name" v="Strupen" />
		<tag k="natural" v="valley" />
		<tag k="place" v="locality" />
		<tag k="ssr:stedsnr" v="763495" />
	</node>
	<node id="-561077" lat="62.3094305588" lon="5.84633332356">
		<tag k="name" v="Leitet" />
		<tag k="natural" v="ridge" />
		<tag k="place" v="locality" />
		<tag k="ssr:stedsnr" v="763491" />
	</node>
	<node id="-561076" lat="62.3982444431" lon="5.88805834273">
		<tag k="alt_name" v="Lida" />
		<tag k="name" v="Lia" />
		<tag k="natural" v="slope" />
		<tag k="place" v="locality" />
		<tag k="ssr:stedsnr" v="763482" />
	</node>
	<node id="-561075" lat="62.3740555562" lon="5.8619722143">
		<tag k="name" v="Morka" />
		<tag k="natural" v="slope" />
		<tag k="place" v="locality" />
		<tag k="ssr:stedsnr" v="763474" />
	</node>
	<node id="-561074" lat="62.3642888849" lon="5.81690555219">
		<tag k="name" v="Osen" />
		<tag k="natural" v="bay" />
		<tag k="ssr:stedsnr" v="763471" />
	</node>
	<node id="-561073" lat="62.2815388893" lon="5.86711666624">
		<tag k="name" v="Røysane" />
		<tag k="place" v="locality" />
		<tag k="ssr:stedsnr" v="763466" />
	</node>
	<node id="-561072" lat="62.3298888885" lon="5.82853889365">
		<tag k="name" v="Tueneset" />
		<tag k="place" v="farm" />
		<tag k="ssr:stedsnr" v="763442" />
	</node>
	<node id="-561071" lat="62.3700972205" lon="5.82743888283">
		<tag k="name" v="Skokken" />
		<tag k="place" v="farm" />
		<tag k="ssr:stedsnr" v="763436" />
	</node>
	<node id="-561070" lat="62.413377776" lon="5.95000832544">
		<tag k="alt_name" v="Skinnalivatnet" />
		<tag k="name" v="Skinnalidvatnet" />
		<tag k="natural" v="water" />
		<tag k="ssr:stedsnr" v="739899" />
	</node>
	<node id="-561069" lat="62.4128944465" lon="5.8972361097">
		<tag k="fixme" v="consider natural=peak for the most distinct mountains in the district" />
		<tag k="name" v="Kjerringa" />
		<tag k="natural" v="hill" />
		<tag k="place" v="locality" />
		<tag k="ssr:stedsnr" v="739897" />
	</node>
	<node id="-561068" lat="62.3862277764" lon="5.92018055053">
		<tag k="fixme" v="consider natural=peak for the most distinct mountains in the district" />
		<tag k="name" v="Brørene" />
		<tag k="natural" v="hill" />
		<tag k="place" v="locality" />
		<tag k="ssr:stedsnr" v="739878" />
	</node>
	<node id="-561066" lat="62.3429166644" lon="5.80223055653">
		<tag k="alt_name" v="Store Klauvholmen" />
		<tag k="name" v="Kloholmen, nordre" />
		<tag k="place" v="islet" />
		<tag k="ssr:stedsnr" v="739828" />
	</node>
	<node id="-561065" lat="62.3052527813" lon="5.88321111869">
		<tag k="alt_name" v="Grøthornet" />
		<tag k="fixme" v="consider natural=peak for the most distinct mountains in the district" />
		<tag k="name" v="Flåna" />
		<tag k="natural" v="hill" />
		<tag k="place" v="locality" />
		<tag k="ssr:stedsnr" v="739783" />
	</node>
	<node id="-561064" lat="62.2402222265" lon="5.88767777153">
		<tag k="name" v="Eika" />
		<tag k="place" v="island" />
		<tag k="ssr:stedsnr" v="739156" />
	</node>
	<node id="-561063" lat="62.2336472231" lon="5.85831389372">
		<tag k="alt_name" v="Geitholmen" />
		<tag k="name" v="Geitaholmen" />
		<tag k="natural" v="cape" />
		<tag k="ssr:stedsnr" v="739154" />
	</node>
	<node id="-561062" lat="62.3698777745" lon="5.82812221466">
		<tag k="name" v="Slettebø" />
		<tag k="place" v="farm" />
		<tag k="ssr:stedsnr" v="738872" />
	</node>
	<node id="-561061" lat="62.2807654776" lon="5.87715499902">
		<tag k="alt_name" v="Myra" />
		<tag k="fixme" v="consider place=hamlet" />
		<tag k="name" v="Myrane" />
		<tag k="place" v="farm" />
		<tag k="ssr:stedsnr" v="738189" />
	</node>
	<node id="-561060" lat="62.2814472212" lon="5.91460277839">
		<tag k="alt_name" v="Undelaupsvatnet" />
		<tag k="name" v="Hundelaupsvatnet" />
		<tag k="natural" v="water" />
		<tag k="ssr:stedsnr" v="738187" />
	</node>
	<node id="-561059" lat="62.2793499978" lon="5.8614944492">
		<tag k="alt_name" v="Haddalvika" />
		<tag k="name" v="Haddalsvika" />
		<tag k="natural" v="bay" />
		<tag k="ssr:stedsnr" v="738185" />
	</node>
	<node id="-561058" lat="62.2584888909" lon="5.86353055942">
		<tag k="name" v="Havågsdalen" />
		<tag k="natural" v="valley" />
		<tag k="place" v="locality" />
		<tag k="ssr:stedsnr" v="738162" />
	</node>
	<node id="-561057" lat="62.2873166708" lon="5.89376667158">
		<tag k="alt_name" v="Ringstadelva" />
		<tag k="name" v="Haddalselva" />
		<tag k="ssr:stedsnr" v="738147" />
		<tag k="waterway" v="river" />
	</node>
	<node id="-561056" lat="62.3365805567" lon="5.86909166147">
		<tag k="name" v="Saunesmarka" />
		<tag k="place" v="locality" />
		<tag k="ssr:stedsnr" v="726257" />
	</node>
	<node id="-561055" lat="62.3055000024" lon="5.94336111699">
		<tag k="name" v="Løseteidet" />
		<tag k="natural" v="slope" />
		<tag k="place" v="locality" />
		<tag k="ssr:stedsnr" v="722167" />
	</node>
	<node id="-561054" lat="62.4819194427" lon="5.72795833411">
		<tag k="alt_name" v="Stattskallen" />
		<tag k="name" v="Stadskallen" />
		<tag k="natural" v="shoal" />
		<tag k="place" v="locality" />
		<tag k="ssr:stedsnr" v="719988" />
	</node>
	<node id="-561053" lat="62.3999444427" lon="5.85849722874">
		<tag k="name" v="Fløelva" />
		<tag k="ssr:stedsnr" v="719883" />
		<tag k="waterway" v="river" />
	</node>
	<node id="-561052" lat="62.2429527738" lon="5.8376611189">
		<tag k="name" v="Aursnesfludene" />
		<tag k="natural" v="shoal" />
		<tag k="place" v="locality" />
		<tag k="ssr:stedsnr" v="719745" />
	</node>
	<node id="-561051" lat="62.2480944466" lon="5.8255638915">
		<tag k="name" v="Århaugfluda" />
		<tag k="natural" v="shoal" />
		<tag k="place" v="locality" />
		<tag k="ssr:stedsnr" v="719744" />
	</node>
	<node id="-561050" lat="62.3009472215" lon="5.84133054685">
		<tag k="layer" v="-1" />
		<tag k="name" v="Kvalnestunnelen" />
		<tag k="ssr:stedsnr" v="711299" />
		<tag k="tunnel" v="yes" />
	</node>
	<node id="-561049" lat="62.42051111" lon="5.89650277398">
		<tag k="name" v="Hoksteinvikane" />
		<tag k="natural" v="bay" />
		<tag k="ssr:stedsnr" v="703683" />
	</node>
	<node id="-561048" lat="62.3447694457" lon="5.76994721577">
		<tag k="name" v="Seideholmen" />
		<tag k="place" v="islet" />
		<tag k="ssr:stedsnr" v="703677" />
	</node>
	<node id="-561047" lat="62.3388222262" lon="5.7723888979">
		<tag k="alt_name" v="Grisholmen" />
		<tag k="name" v="Store Grisholmen" />
		<tag k="place" v="islet" />
		<tag k="ssr:stedsnr" v="703675" />
	</node>
	<node id="-561046" lat="62.3688111125" lon="5.83986667494">
		<tag k="name" v="Skotlehaugen" />
		<tag k="natural" v="hill" />
		<tag k="place" v="locality" />
		<tag k="ssr:stedsnr" v="703626" />
	</node>
	<node id="-561045" lat="62.3583611154" lon="5.81776666485">
		<tag k="name" v="Ryssholmen" />
		<tag k="place" v="islet" />
		<tag k="ssr:stedsnr" v="703624" />
	</node>
	<node id="-561044" lat="62.374852775" lon="5.83997500603">
		<tag k="fixme" v="multiple name tags, choose one and add the other to alt_name" />
		<tag k="name" v="Skaret;Uldalsskaret" />
		<tag k="natural" v="valley" />
		<tag k="place" v="locality" />
		<tag k="ssr:stedsnr" v="703622" />
	</node>
	<node id="-561043" lat="62.2693888857" lon="5.89768611911">
		<tag k="name" v="Klungsdalsskaret" />
		<tag k="natural" v="valley" />
		<tag k="place" v="locality" />
		<tag k="ssr:stedsnr" v="703614" />
	</node>
	<node id="-561042" lat="62.2721750043" lon="5.8940666675">
		<tag k="name" v="Indre Haddalselva" />
		<tag k="ssr:stedsnr" v="703612" />
		<tag k="waterway" v="stream" />
	</node>
	<node id="-561041" lat="62.2717916677" lon="5.92311944928">
		<tag k="name" v="Timbrenokkane" />
		<tag k="place" v="locality" />
		<tag k="ssr:stedsnr" v="703613" />
	</node>
	<node id="-561040" lat="62.2811333326" lon="5.87051666933">
		<tag k="name" v="Seljehaugen" />
		<tag k="natural" v="hill" />
		<tag k="place" v="locality" />
		<tag k="ssr:stedsnr" v="703609" />
	</node>
	<node id="-561039" lat="62.4201250019" lon="5.9206805602">
		<tag k="name" v="Knollane" />
		<tag k="natural" v="hill" />
		<tag k="place" v="locality" />
		<tag k="ssr:stedsnr" v="703499" />
	</node>
	<node id="-561038" lat="62.4121777746" lon="5.92570276971">
		<tag k="name" v="Støylen" />
		<tag k="place" v="locality" />
		<tag k="ssr:stedsnr" v="703495" />
	</node>
	<node id="-561037" lat="62.4135583299" lon="5.9259111173">
		<tag k="name" v="Nordlia" />
		<tag k="natural" v="slope" />
		<tag k="place" v="locality" />
		<tag k="ssr:stedsnr" v="703493" />
	</node>
	<node id="-561036" lat="62.4054305524" lon="5.82038055505">
		<tag k="name" v="Djupet" />
		<tag k="place" v="locality" />
		<tag k="ssr:stedsnr" v="703486" />
	</node>
	<node id="-561035" lat="62.2679250013" lon="5.86516944635">
		<tag k="name" v="Sæmyra" />
		<tag k="natural" v="wetland" />
		<tag k="ssr:stedsnr" v="703484" />
	</node>
	<node id="-561034" lat="62.31536389" lon="5.83676945168">
		<tag k="name" v="Legene" />
		<tag k="place" v="farm" />
		<tag k="ssr:stedsnr" v="703457" />
	</node>
	<node id="-561033" lat="62.3046305586" lon="5.90797221424">
		<tag k="name" v="Skyrdalen" />
		<tag k="natural" v="valley" />
		<tag k="place" v="locality" />
		<tag k="ssr:stedsnr" v="703591" />
	</node>
	<node id="-561032" lat="62.3056611089" lon="5.89936944739">
		<tag k="name" v="Myrkevassegga" />
		<tag k="natural" v="ridge" />
		<tag k="place" v="locality" />
		<tag k="ssr:stedsnr" v="703590" />
	</node>
	<node id="-561031" lat="62.2935583295" lon="5.91538332543">
		<tag k="name" v="Grådalen" />
		<tag k="natural" v="valley" />
		<tag k="place" v="locality" />
		<tag k="ssr:stedsnr" v="703571" />
	</node>
	<node id="-561030" lat="62.3347472187" lon="5.81276944424">
		<tag k="name" v="Klubben" />
		<tag k="place" v="islet" />
		<tag k="ssr:stedsnr" v="703563" />
	</node>
	<node id="-561029" lat="62.3286388912" lon="5.81769445272">
		<tag k="name" v="Vågevika" />
		<tag k="natural" v="bay" />
		<tag k="ssr:stedsnr" v="703557" />
	</node>
	<node id="-561028" lat="62.3111388853" lon="5.83581945038">
		<tag k="name" v="Osen" />
		<tag k="natural" v="bay" />
		<tag k="ssr:stedsnr" v="703554" />
	</node>
	<node id="-561027" lat="62.2627305551" lon="5.86975556383">
		<tag k="fixme" v="consider natural=peak for the most distinct mountains in the district" />
		<tag k="name" v="Arefjellet" />
		<tag k="natural" v="hill" />
		<tag k="place" v="locality" />
		<tag k="ssr:stedsnr" v="703547" />
	</node>
	<node id="-561026" lat="62.2503166657" lon="5.90762500014">
		<tag k="name" v="Eiksundet" />
		<tag k="natural" v="strait" />
		<tag k="ssr:stedsnr" v="703541" />
	</node>
	<node id="-561025" lat="62.2475888926" lon="5.89437500565">
		<tag k="name" v="Smeltholmen" />
		<tag k="place" v="islet" />
		<tag k="ssr:stedsnr" v="703539" />
	</node>
	<node id="-561024" lat="62.2322972199" lon="5.84976667263">
		<tag k="fixme" v="consider seamark:type=rock or natural=shoal" />
		<tag k="name" v="Høymoleskjeret" />
		<tag k="place" v="islet" />
		<tag k="ssr:stedsnr" v="703520" />
	</node>
	<node id="-561023" lat="62.2625861085" lon="5.8981166706">
		<tag k="name" v="Langedalen" />
		<tag k="natural" v="valley" />
		<tag k="place" v="locality" />
		<tag k="ssr:stedsnr" v="703519" />
	</node>
	<node id="-561022" lat="62.2624638886" lon="5.83188612072">
		<tag k="name" v="Toholmen" />
		<tag k="place" v="islet" />
		<tag k="ssr:stedsnr" v="703515" />
	</node>
	<node id="-561021" lat="62.3163388856" lon="5.86552500998">
		<tag k="name" v="Gråsteinsletta" />
		<tag k="natural" v="slope" />
		<tag k="place" v="locality" />
		<tag k="ssr:stedsnr" v="702522" />
	</node>
	<node id="-561020" lat="62.4843027733" lon="5.71967499193">
		<tag k="name" v="Grunnskallen" />
		<tag k="natural" v="shoal" />
		<tag k="place" v="locality" />
		<tag k="ssr:stedsnr" v="678963" />
	</node>
	<node id="-561019" lat="62.4056444468" lon="5.85319167229">
		<tag k="fixme" v="consider place=hamlet" />
		<tag k="name" v="Flø" />
		<tag k="place" v="village" />
		<tag k="ssr:stedsnr" v="678917" />
	</node>
	<node id="-561018" lat="62.4126222189" lon="5.81793888222">
		<tag k="alt_name" v="Nordre Eggholmfalla" />
		<tag k="name" v="Eggholmfalla" />
		<tag k="natural" v="shoal" />
		<tag k="place" v="locality" />
		<tag k="ssr:stedsnr" v="678906" />
	</node>
	<node id="-561017" lat="62.3783388859" lon="5.78460000928">
		<tag k="name" v="Lyngøya" />
		<tag k="place" v="islet" />
		<tag k="ssr:stedsnr" v="678891" />
	</node>
	<node id="-561016" lat="62.3880638906" lon="5.74921943927">
		<tag k="name" v="Svædet" />
		<tag k="natural" v="shoal" />
		<tag k="place" v="locality" />
		<tag k="ssr:stedsnr" v="678883" />
	</node>
	<node id="-561015" lat="62.3886250043" lon="5.8422805499">
		<tag k="alt_name" v="Roppehetta" />
		<tag k="fixme" v="consider natural=peak for the most distinct mountains in the district" />
		<tag k="name" v="Roppehornet" />
		<tag k="natural" v="hill" />
		<tag k="place" v="locality" />
		<tag k="ssr:stedsnr" v="678879" />
	</node>
	<node id="-561014" lat="62.3917722263" lon="5.91167500775">
		<tag k="name" v="Vasshaugen" />
		<tag k="natural" v="hill" />
		<tag k="place" v="locality" />
		<tag k="ssr:stedsnr" v="678874" />
	</node>
	<node id="-561013" lat="62.4002083371" lon="5.92426111281">
		<tag k="name" v="Sæmyrane" />
		<tag k="natural" v="wetland" />
		<tag k="ssr:stedsnr" v="678871" />
	</node>
	<node id="-561012" lat="62.3584750035" lon="5.85419166099">
		<tag k="fixme" v="consider natural=peak for the most distinct mountains in the district" />
		<tag k="name" v="Skeidshornet" />
		<tag k="natural" v="hill" />
		<tag k="place" v="locality" />
		<tag k="ssr:stedsnr" v="678854" />
	</node>
	<node id="-561011" lat="62.2595111133" lon="5.87292777436">
		<tag k="name" v="Hareidlandet" />
		<tag k="place" v="island" />
		<tag k="ssr:stedsnr" v="678847" />
	</node>
	<node id="-561010" lat="62.3284333313" lon="5.85144443592">
		<tag k="name" v="Lyngnesvika" />
		<tag k="natural" v="bay" />
		<tag k="ssr:stedsnr" v="678787" />
	</node>
	<node id="-561009" lat="62.3275792737" lon="5.82119669927">
		<tag k="alt_name" v="Våge" />
		<tag k="fixme" v="consider place=hamlet" />
		<tag k="name" v="Vågane" />
		<tag k="place" v="farm" />
		<tag k="ssr:stedsnr" v="678775" />
	</node>
	<node id="-561008" lat="62.3027277744" lon="5.90041667554">
		<tag k="alt_name" v="Myrkevatnet" />
		<tag k="name" v="Mørkevatnet" />
		<tag k="natural" v="water" />
		<tag k="ssr:stedsnr" v="678771" />
	</node>
	<node id="-561007" lat="62.3107271998" lon="5.85659135609">
		<tag k="alt_name" v="Garshol" />
		<tag k="fixme" v="consider place=hamlet" />
		<tag k="name" v="Gardshol" />
		<tag k="place" v="farm" />
		<tag k="ssr:stedsnr" v="678753" />
	</node>
	<node id="-561006" lat="62.3033924652" lon="5.80538528229">
		<tag k="fixme" v="consider place=hamlet" />
		<tag k="name" v="Ertesvåg" />
		<tag k="place" v="farm" />
		<tag k="ssr:stedsnr" v="678745" />
	</node>
	<node id="-561005" lat="62.2715861076" lon="5.86263056204">
		<tag k="name" v="Rinden" />
		<tag k="natural" v="cape" />
		<tag k="ssr:stedsnr" v="678178" />
	</node>
	<node id="-561004" lat="62.2828655565" lon="5.87039632823">
		<tag k="alt_name" v="Haddal, ytre" />
		<tag k="fixme" v="consider place=hamlet" />
		<tag k="name" v="Ytre Haddal" />
		<tag k="place" v="farm" />
		<tag k="ssr:stedsnr" v="678145" />
	</node>
	<node id="-561003" lat="62.357108333" lon="5.89119443564">
		<tag k="name" v="Nebstadnibba" />
		<tag k="place" v="locality" />
		<tag k="ssr:stedsnr" v="665272" />
	</node>
	<node id="-561002" lat="62.3309750011" lon="5.88729444428">
		<tag k="name" v="Longhamrane" />
		<tag k="natural" v="slope" />
		<tag k="place" v="locality" />
		<tag k="ssr:stedsnr" v="665260" />
	</node>
	<node id="-561001" lat="62.3563861135" lon="5.79294722482">
		<tag k="name" v="Byholmkråkene" />
		<tag k="natural" v="shoal" />
		<tag k="place" v="locality" />
		<tag k="ssr:stedsnr" v="658982" />
	</node>
	<node id="-561000" lat="62.4404611129" lon="5.73962778102">
		<tag k="name" v="Litlesøyla" />
		<tag k="place" v="locality" />
		<tag k="ssr:stedsnr" v="658854" />
	</node>
	<node id="-560999" lat="62.4434333365" lon="5.82358333748">
		<tag k="name" v="Nergrunnskallen" />
		<tag k="natural" v="shoal" />
		<tag k="place" v="locality" />
		<tag k="ssr:stedsnr" v="658848" />
	</node>
	<node id="-560998" lat="62.2911555549" lon="5.85362778359">
		<tag k="name" v="Austre Garnes" />
		<tag k="place" v="farm" />
		<tag k="ssr:stedsnr" v="658785" />
	</node>
	<node id="-560997" lat="62.3876888915" lon="5.8331361019">
		<tag k="name" v="Litleløda" />
		<tag k="place" v="locality" />
		<tag k="ssr:stedsnr" v="642609" />
	</node>
	<node id="-560996" lat="62.3826750021" lon="5.82608056238">
		<tag k="name" v="Klubbeneset" />
		<tag k="natural" v="cape" />
		<tag k="ssr:stedsnr" v="642600" />
	</node>
	<node id="-560995" lat="62.319163887" lon="5.83664166925">
		<tag k="name" v="Litleåsen" />
		<tag k="natural" v="hill" />
		<tag k="place" v="locality" />
		<tag k="ssr:stedsnr" v="642544" />
	</node>
	<node id="-560994" lat="62.2500444429" lon="5.80700555419">
		<tag k="name" v="Tangane" />
		<tag k="natural" v="cape" />
		<tag k="ssr:stedsnr" v="642536" />
	</node>
	<node id="-560993" lat="62.3067944462" lon="5.79605554789">
		<tag k="name" v="Arhuset" />
		<tag k="natural" v="slope" />
		<tag k="place" v="locality" />
		<tag k="ssr:stedsnr" v="642512" />
	</node>
	<node id="-560992" lat="62.3456277815" lon="5.82710832941">
		<tag k="name" v="Oshaugen" />
		<tag k="natural" v="hill" />
		<tag k="place" v="locality" />
		<tag k="ssr:stedsnr" v="642510" />
	</node>
	<node id="-560991" lat="62.2453277815" lon="5.89173888666">
		<tag k="name" v="Makkevågen" />
		<tag k="natural" v="bay" />
		<tag k="ssr:stedsnr" v="642494" />
	</node>
	<node id="-560990" lat="62.3144600549" lon="5.84305269109">
		<tag k="fixme" v="consider place=hamlet" />
		<tag k="name" v="Sundgot" />
		<tag k="place" v="farm" />
		<tag k="ssr:stedsnr" v="642274" />
	</node>
	<node id="-560989" lat="62.3460833298" lon="5.77993611791">
		<tag k="name" v="Jonsokhaugen" />
		<tag k="natural" v="hill" />
		<tag k="place" v="locality" />
		<tag k="ssr:stedsnr" v="641633" />
	</node>
	<node id="-560988" lat="62.3409499976" lon="5.78002777419">
		<tag k="name" v="Litle Grisholmen" />
		<tag k="place" v="islet" />
		<tag k="ssr:stedsnr" v="641630" />
	</node>
	<node id="-560987" lat="62.3293194441" lon="5.79993055833">
		<tag k="name" v="Spjutøysundet" />
		<tag k="natural" v="strait" />
		<tag k="ssr:stedsnr" v="641624" />
	</node>
	<node id="-560986" lat="62.3180555523" lon="5.79405555039">
		<tag k="name" v="Dimnavågen" />
		<tag k="natural" v="bay" />
		<tag k="ssr:stedsnr" v="641617" />
	</node>
	<node id="-560985" lat="62.3506444406" lon="5.8224666635">
		<tag k="name" v="Skeidsbukta" />
		<tag k="natural" v="bay" />
		<tag k="ssr:stedsnr" v="641608" />
	</node>
	<node id="-560984" lat="62.3193833314" lon="5.82081944816">
		<tag k="name" v="Storenakken" />
		<tag k="natural" v="hill" />
		<tag k="place" v="locality" />
		<tag k="ssr:stedsnr" v="641526" />
	</node>
	<node id="-560983" lat="62.3502444399" lon="5.83915554662">
		<tag k="name" v="Bugardsmyrane" />
		<tag k="natural" v="wetland" />
		<tag k="ssr:stedsnr" v="641521" />
	</node>
	<node id="-560982" lat="62.2980416648" lon="5.8425">
		<tag k="name" v="Vågsleitet" />
		<tag k="natural" v="slope" />
		<tag k="place" v="locality" />
		<tag k="ssr:stedsnr" v="641498" />
	</node>
	<node id="-560981" lat="62.3186388871" lon="5.85858056014">
		<tag k="name" v="Sandbakkane" />
		<tag k="natural" v="slope" />
		<tag k="place" v="locality" />
		<tag k="ssr:stedsnr" v="641496" />
	</node>
	<node id="-560980" lat="62.4268888865" lon="5.81905834022">
		<tag k="alt_name" v="Djupflusteinen" />
		<tag k="name" v="Djupfludsteinen" />
		<tag k="natural" v="shoal" />
		<tag k="place" v="locality" />
		<tag k="ssr:stedsnr" v="617960" />
	</node>
	<node id="-560978" lat="62.38641944" lon="5.8767111109">
		<tag k="alt_name" v="Breifjellet" />
		<tag k="fixme" v="consider natural=peak for the most distinct mountains in the district" />
		<tag k="name" v="Breidfjellet" />
		<tag k="natural" v="hill" />
		<tag k="place" v="locality" />
		<tag k="ssr:stedsnr" v="617902" />
	</node>
	<node id="-560977" lat="62.3902416635" lon="5.88734722242">
		<tag k="name" v="Litlevatnet" />
		<tag k="natural" v="water" />
		<tag k="ssr:stedsnr" v="617898" />
	</node>
	<node id="-560976" lat="62.3739710065" lon="5.78172230514">
		<tag k="name" v="Vattøya" />
		<tag k="place" v="island" />
		<tag k="ssr:stedsnr" v="617851" />
	</node>
	<node id="-560975" lat="62.3592749968" lon="5.80333054735">
		<tag k="bay" v="fjord" />
		<tag k="name" v="Ulsteinfjorden" />
		<tag k="natural" v="bay" />
		<tag k="ssr:stedsnr" v="617850" />
	</node>
	<node id="-560974" lat="62.3303489705" lon="5.79969646939">
		<tag k="alt_name" v="Spjutøya;Store Spjotøya" />
		<tag k="name" v="Spjøtøya" />
		<tag k="place" v="islet" />
		<tag k="ssr:stedsnr" v="617843" />
	</node>
	<node id="-560973" lat="62.3542027767" lon="5.85956944508">
		<tag k="fixme" v="consider natural=peak for the most distinct mountains in the district" />
		<tag k="name" v="Lågskjervene" />
		<tag k="natural" v="hill" />
		<tag k="place" v="locality" />
		<tag k="ssr:stedsnr" v="617833" />
	</node>
	<node id="-560972" lat="62.3150888851" lon="5.82360834214">
		<tag k="name" v="Høgtun" />
		<tag k="place" v="farm" />
		<tag k="ssr:stedsnr" v="617816" />
	</node>
	<node id="-560971" lat="62.3144249993" lon="5.78774722825">
		<tag k="alt_name" v="Skibbeneset" />
		<tag k="name" v="Skibbenes" />
		<tag k="natural" v="cape" />
		<tag k="ssr:stedsnr" v="617814" />
	</node>
	<node id="-560970" lat="62.3320083302" lon="5.83198333978">
		<tag k="name" v="Lyngneset" />
		<tag k="natural" v="cape" />
		<tag k="ssr:stedsnr" v="617811" />
	</node>
	<node id="-560969" lat="62.2424944465" lon="5.89004165777">
		<tag k="name" v="Klungsvågen" />
		<tag k="place" v="farm" />
		<tag k="ssr:stedsnr" v="617177" />
	</node>
	<node id="-560968" lat="62.2926777808" lon="5.82544999342">
		<tag k="alt_name" v="Høymoleskjeret" />
		<tag k="fixme" v="consider seamark:type=rock or natural=shoal" />
		<tag k="name" v="Høymolskjeret" />
		<tag k="place" v="islet" />
		<tag k="ssr:stedsnr" v="617170" />
	</node>
	<node id="-560967" lat="62.2881499983" lon="5.9377388918">
		<tag k="fixme" v="multiple name tags, choose one and add the other to alt_name; consider natural=peak for the most distinct mountains in the district" />
		<tag k="name" v="Kongsvollen;Løsethorn" />
		<tag k="natural" v="hill" />
		<tag k="place" v="locality" />
		<tag k="ssr:stedsnr" v="617168" />
	</node>
	<node id="-560966" lat="62.3160472209" lon="5.92267222471">
		<tag k="name" v="Løken" />
		<tag k="natural" v="valley" />
		<tag k="place" v="locality" />
		<tag k="ssr:stedsnr" v="605298" />
	</node>
	<node id="-560965" lat="62.3210000032" lon="5.89040000176">
		<tag k="name" v="Grimmedalen" />
		<tag k="natural" v="valley" />
		<tag k="place" v="locality" />
		<tag k="ssr:stedsnr" v="605290" />
	</node>
	<node id="-560964" lat="62.3167527749" lon="5.89482500814">
		<tag k="name" v="Glennene" />
		<tag k="natural" v="slope" />
		<tag k="place" v="locality" />
		<tag k="ssr:stedsnr" v="605285" />
	</node>
	<node id="-560963" lat="62.3484083321" lon="5.89992221619">
		<tag k="name" v="Trollsteinmyrane" />
		<tag k="natural" v="wetland" />
		<tag k="ssr:stedsnr" v="605262" />
	</node>
	<node id="-560962" lat="62.2882944454" lon="5.9374111014">
		<tag k="name" v="Laupen" />
		<tag k="place" v="locality" />
		<tag k="ssr:stedsnr" v="601125" />
	</node>
	<node id="-560961" lat="62.3321388897" lon="5.76589722186">
		<tag k="name" v="Pålsfluda" />
		<tag k="natural" v="shoal" />
		<tag k="place" v="locality" />
		<tag k="ssr:stedsnr" v="597806" />
	</node>
	<node id="-560960" lat="62.3487694487" lon="5.82594443637">
		<tag k="name" v="Halsen" />
		<tag k="place" v="isolated_dwelling" />
		<tag k="ssr:stedsnr" v="597801" />
	</node>
	<node id="-560959" lat="62.2734861089" lon="5.86077777442">
		<tag k="name" v="Haddalsholmane" />
		<tag k="place" v="islet" />
		<tag k="ssr:stedsnr" v="597788" />
	</node>
	<node id="-560958" lat="62.2575416651" lon="5.82414444732">
		<tag k="name" v="Skarvehamrane" />
		<tag k="natural" v="cape" />
		<tag k="ssr:stedsnr" v="597784" />
	</node>
	<node id="-560956" lat="62.3693027768" lon="5.78388055675">
		<tag k="name" v="Saltbudneset" />
		<tag k="natural" v="cape" />
		<tag k="ssr:stedsnr" v="581672" />
	</node>
	<node id="-560955" lat="62.3461638911" lon="5.79741388492">
		<tag k="name" v="Rundholmen" />
		<tag k="place" v="islet" />
		<tag k="ssr:stedsnr" v="581670" />
	</node>
	<node id="-560954" lat="62.3271722218" lon="5.79121666036">
		<tag k="name" v="Litlevågen" />
		<tag k="natural" v="bay" />
		<tag k="ssr:stedsnr" v="581667" />
	</node>
	<node id="-560953" lat="62.3690611103" lon="5.8249972199">
		<tag k="name" v="Skokkeelva" />
		<tag k="ssr:stedsnr" v="581636" />
		<tag k="waterway" v="stream" />
	</node>
	<node id="-560952" lat="62.3786194485" lon="5.83987500874">
		<tag k="name" v="Torvikelva" />
		<tag k="ssr:stedsnr" v="581632" />
		<tag k="waterway" v="stream" />
	</node>
	<node id="-560951" lat="62.3805861125" lon="5.82487499333">
		<tag k="name" v="Gåsnesbukta" />
		<tag k="natural" v="bay" />
		<tag k="ssr:stedsnr" v="581627" />
	</node>
	<node id="-560950" lat="62.4026888866" lon="5.84034444207">
		<tag k="name" v="Fanteleida" />
		<tag k="natural" v="strait" />
		<tag k="ssr:stedsnr" v="581625" />
	</node>
	<node id="-560949" lat="62.3993138877" lon="5.86978334252">
		<tag k="name" v="Nygjerdet" />
		<tag k="natural" v="slope" />
		<tag k="place" v="locality" />
		<tag k="ssr:stedsnr" v="581599" />
	</node>
	<node id="-560948" lat="62.2961250039" lon="5.88604165796">
		<tag k="fixme" v="consider natural=peak for the most distinct mountains in the district" />
		<tag k="name" v="Ringstadnotten" />
		<tag k="natural" v="hill" />
		<tag k="place" v="locality" />
		<tag k="ssr:stedsnr" v="581592" />
	</node>
	<node id="-560947" lat="62.3200250036" lon="5.81925277135">
		<tag k="name" v="Høgåsdalen" />
		<tag k="natural" v="valley" />
		<tag k="place" v="locality" />
		<tag k="ssr:stedsnr" v="581585" />
	</node>
	<node id="-560946" lat="62.3277972192" lon="5.77171389603">
		<tag k="name" v="Terneskjera" />
		<tag k="place" v="islet" />
		<tag k="ssr:stedsnr" v="581577" />
	</node>
	<node id="-560945" lat="62.3152583324" lon="5.84119722021">
		<tag k="name" v="Arhaugen" />
		<tag k="natural" v="hill" />
		<tag k="place" v="locality" />
		<tag k="ssr:stedsnr" v="581570" />
	</node>
	<node id="-560944" lat="62.3480194421" lon="5.83946389013">
		<tag k="name" v="Brunene" />
		<tag k="natural" v="slope" />
		<tag k="place" v="locality" />
		<tag k="ssr:stedsnr" v="581558" />
	</node>
	<node id="-560943" lat="62.3312916677" lon="5.85994165708">
		<tag k="name" v="Stranda" />
		<tag k="natural" v="beach" />
		<tag k="place" v="locality" />
		<tag k="ssr:stedsnr" v="581554" />
	</node>
	<node id="-560942" lat="62.3236583332" lon="5.8381361115">
		<tag k="name" v="Køyla" />
		<tag k="natural" v="bay" />
		<tag k="ssr:stedsnr" v="581549" />
	</node>
	<node id="-560941" lat="62.2521611145" lon="5.87060833182">
		<tag k="name" v="Storehaugen" />
		<tag k="natural" v="hill" />
		<tag k="place" v="locality" />
		<tag k="ssr:stedsnr" v="581546" />
	</node>
	<node id="-560940" lat="62.2633027797" lon="5.87703055634">
		<tag k="fixme" v="consider natural=peak for the most distinct mountains in the district" />
		<tag k="name" v="Skjoratua" />
		<tag k="natural" v="hill" />
		<tag k="place" v="locality" />
		<tag k="ssr:stedsnr" v="581544" />
	</node>
	<node id="-560939" lat="62.2582750028" lon="5.83673054732">
		<tag k="alt_name" v="Sørvågen" />
		<tag k="name" v="Søre Håheimsvågen" />
		<tag k="natural" v="bay" />
		<tag k="ssr:stedsnr" v="581538" />
	</node>
	<node id="-560938" lat="62.2510250007" lon="5.86548610465">
		<tag k="name" v="Litlevågen" />
		<tag k="natural" v="bay" />
		<tag k="ssr:stedsnr" v="581531" />
	</node>
	<node id="-560937" lat="62.2514138859" lon="5.896877786">
		<tag k="name" v="Sjøbudholmen" />
		<tag k="place" v="islet" />
		<tag k="ssr:stedsnr" v="581520" />
	</node>
	<node id="-560936" lat="62.2441583339" lon="5.88116666221">
		<tag k="name" v="Kvennavika" />
		<tag k="natural" v="bay" />
		<tag k="ssr:stedsnr" v="581516" />
	</node>
	<node id="-560935" lat="62.246852774" lon="5.90690000903">
		<tag k="name" v="Nakken" />
		<tag k="natural" v="hill" />
		<tag k="place" v="locality" />
		<tag k="ssr:stedsnr" v="581510" />
	</node>
	<node id="-560934" lat="62.3411388885" lon="5.85543056052">
		<tag k="name" v="Bakken" />
		<tag k="place" v="farm" />
		<tag k="ssr:stedsnr" v="581464" />
	</node>
	<node id="-560933" lat="62.3402833309" lon="5.81498889671">
		<tag k="name" v="Sandbadet" />
		<tag k="natural" v="strait" />
		<tag k="ssr:stedsnr" v="580605" />
	</node>
	<node id="-560932" lat="62.3440388884" lon="5.8251083277">
		<tag k="name" v="Osnessanden" />
		<tag k="natural" v="beach" />
		<tag k="place" v="locality" />
		<tag k="ssr:stedsnr" v="580603" />
	</node>
	<node id="-560931" lat="62.3426194469" lon="5.85857500708">
		<tag k="name" v="Sigvaldhaugen" />
		<tag k="natural" v="hill" />
		<tag k="place" v="locality" />
		<tag k="ssr:stedsnr" v="580509" />
	</node>
	<node id="-560930" lat="62.3837305578" lon="5.77538888487">
		<tag k="name" v="Sneldebodane" />
		<tag k="natural" v="shoal" />
		<tag k="place" v="locality" />
		<tag k="ssr:stedsnr" v="557888" />
	</node>
	<node id="-560929" lat="62.3853972203" lon="5.91019723007">
		<tag k="fixme" v="consider natural=peak for the most distinct mountains in the district" />
		<tag k="name" v="Skålnakken" />
		<tag k="natural" v="hill" />
		<tag k="place" v="locality" />
		<tag k="ssr:stedsnr" v="557885" />
	</node>
	<node id="-560928" lat="62.3955621083" lon="5.8442542658">
		<tag k="alt_name" v="Roppane" />
		<tag k="fixme" v="consider place=hamlet" />
		<tag k="name" v="Roppe" />
		<tag k="place" v="farm" />
		<tag k="ssr:stedsnr" v="557870" />
	</node>
	<node id="-560927" lat="62.317094445" lon="5.79211388949">
		<tag k="alt_name" v="Dimnastølen" />
		<tag k="name" v="Støylen" />
		<tag k="place" v="farm" />
		<tag k="ssr:stedsnr" v="557783" />
	</node>
	<node id="-560926" lat="62.3157052376" lon="5.84053467513">
		<tag k="alt_name" v="Sundgot" />
		<tag k="fixme" v="consider place=suburb, village or hamlet" />
		<tag k="name" v="Sundgota" />
		<tag k="place" v="quarter" />
		<tag k="ssr:stedsnr" v="557726" />
	</node>
	<node id="-560925" lat="62.3012916639" lon="5.87838889067">
		<tag k="alt_name" v="Garnesvatnet" />
		<tag k="name" v="Gardnesvatnet" />
		<tag k="natural" v="water" />
		<tag k="ssr:stedsnr" v="557147" />
	</node>
	<node id="-560924" lat="62.4053666634" lon="5.9411611165">
		<tag k="name" v="Rjupedalsvatnet" />
		<tag k="natural" v="water" />
		<tag k="ssr:stedsnr" v="556927" />
	</node>
	<node id="-560923" lat="62.4183222229" lon="5.9559972162">
		<tag k="fixme" v="consider natural=peak for the most distinct mountains in the district" />
		<tag k="name" v="Skolma" />
		<tag k="natural" v="hill" />
		<tag k="place" v="locality" />
		<tag k="ssr:stedsnr" v="556912" />
	</node>
	<node id="-560922" lat="62.3756944473" lon="5.8314111191">
		<tag k="fixme" v="consider natural=peak for the most distinct mountains in the district" />
		<tag k="name" v="Ulsteinhetta" />
		<tag k="natural" v="hill" />
		<tag k="place" v="locality" />
		<tag k="ssr:stedsnr" v="556893" />
	</node>
	<node id="-560921" lat="62.3434222207" lon="5.90928332591">
		<tag k="name" v="Hareidseidet" />
		<tag k="natural" v="strait" />
		<tag k="ssr:stedsnr" v="556855" />
	</node>
	<node id="-560920" lat="62.3433693628" lon="5.82828150694">
		<tag k="fixme" v="consider place=hamlet" />
		<tag k="name" v="Osnes" />
		<tag k="place" v="farm" />
		<tag k="ssr:stedsnr" v="556848" />
	</node>
	<node id="-560919" lat="62.357369446" lon="5.89584165806">
		<tag k="name" v="Kiberget" />
		<tag k="natural" v="hill" />
		<tag k="place" v="locality" />
		<tag k="ssr:stedsnr" v="556829" />
	</node>
	<node id="-560918" lat="62.2682499996" lon="5.89322500388">
		<tag k="alt_name" v="Haddalsfjellet" />
		<tag k="fixme" v="consider natural=peak for the most distinct mountains in the district" />
		<tag k="name" v="Haddalshornet" />
		<tag k="natural" v="hill" />
		<tag k="place" v="locality" />
		<tag k="ssr:stedsnr" v="556206" />
	</node>
	<node id="-560917" lat="62.3702527734" lon="5.89976944179">
		<tag k="name" v="Feiliskaret" />
		<tag k="natural" v="valley" />
		<tag k="place" v="locality" />
		<tag k="ssr:stedsnr" v="544240" />
	</node>
	<node id="-560916" lat="62.3443833349" lon="5.86555278233">
		<tag k="name" v="Vikeskaret" />
		<tag k="place" v="locality" />
		<tag k="ssr:stedsnr" v="544236" />
	</node>
	<node id="-560915" lat="62.3903305528" lon="5.81260277047">
		<tag k="name" v="Kyrkjefluda" />
		<tag k="natural" v="shoal" />
		<tag k="place" v="locality" />
		<tag k="ssr:stedsnr" v="537891" />
	</node>
	<node id="-560914" lat="62.3729333348" lon="5.821916669">
		<tag k="name" v="Nordre Ulstein" />
		<tag k="place" v="farm" />
		<tag k="ssr:stedsnr" v="537864" />
	</node>
	<node id="-560913" lat="62.2873277805" lon="5.83226944615">
		<tag k="name" v="Kverna" />
		<tag k="natural" v="shoal" />
		<tag k="place" v="locality" />
		<tag k="ssr:stedsnr" v="537778" />
	</node>
	<node id="-560912" lat="62.3482388903" lon="5.83220556334">
		<tag k="name" v="Ura" />
		<tag k="natural" v="scree" />
		<tag k="ssr:stedsnr" v="537775" />
	</node>
	<node id="-560911" lat="62.2466166681" lon="5.83517777859">
		<tag k="name" v="Langholmen" />
		<tag k="place" v="islet" />
		<tag k="ssr:stedsnr" v="524877" />
	</node>
	<node id="-560910" lat="62.4045027777" lon="5.90069723051">
		<tag k="name" v="Myrbærkoppen" />
		<tag k="natural" v="valley" />
		<tag k="place" v="locality" />
		<tag k="ssr:stedsnr" v="521609" />
	</node>
	<node id="-560909" lat="62.3734611098" lon="5.79202221629">
		<tag k="name" v="Hamnholmen" />
		<tag k="place" v="islet" />
		<tag k="ssr:stedsnr" v="521591" />
	</node>
	<node id="-560908" lat="62.3803611111" lon="5.79088888858">
		<tag k="fixme" v="consider seamark:type=rock or natural=shoal" />
		<tag k="name" v="Småskjera" />
		<tag k="place" v="islet" />
		<tag k="ssr:stedsnr" v="521589" />
	</node>
	<node id="-560907" lat="62.2901694428" lon="5.91222776879">
		<tag k="name" v="Djupedalen" />
		<tag k="natural" v="valley" />
		<tag k="place" v="locality" />
		<tag k="ssr:stedsnr" v="521560" />
	</node>
	<node id="-560906" lat="62.3148638859" lon="5.84554443622">
		<tag k="name" v="Serkveberget" />
		<tag k="natural" v="hill" />
		<tag k="place" v="locality" />
		<tag k="ssr:stedsnr" v="521551" />
	</node>
	<node id="-560905" lat="62.3356138881" lon="5.76759999566">
		<tag k="name" v="Guleskjeret" />
		<tag k="place" v="islet" />
		<tag k="ssr:stedsnr" v="521535" />
	</node>
	<node id="-560904" lat="62.3085250006" lon="5.90448611066">
		<tag k="name" v="Flåvika" />
		<tag k="natural" v="bay" />
		<tag k="ssr:stedsnr" v="521523" />
	</node>
	<node id="-560903" lat="62.3466916676" lon="5.87118888919">
		<tag k="name" v="Vikelva" />
		<tag k="ssr:stedsnr" v="521514" />
		<tag k="waterway" v="river" />
	</node>
	<node id="-560902" lat="62.2552527749" lon="5.87201110732">
		<tag k="name" v="Ytste Havågselva" />
		<tag k="ssr:stedsnr" v="521504" />
		<tag k="waterway" v="stream" />
	</node>
	<node id="-560901" lat="62.2600777815" lon="5.87261389758">
		<tag k="name" v="Havågsdalen" />
		<tag k="natural" v="valley" />
		<tag k="place" v="locality" />
		<tag k="ssr:stedsnr" v="521503" />
	</node>
	<node id="-560900" lat="62.2647361142" lon="5.84656389593">
		<tag k="name" v="Trongesundneset" />
		<tag k="natural" v="cape" />
		<tag k="ssr:stedsnr" v="521490" />
	</node>
	<node id="-560899" lat="62.3828749977" lon="5.84158611358">
		<tag k="name" v="Grønlia" />
		<tag k="natural" v="slope" />
		<tag k="place" v="locality" />
		<tag k="ssr:stedsnr" v="521449" />
	</node>
	<node id="-560898" lat="62.3854333301" lon="5.83046666179">
		<tag k="name" v="Trollet" />
		<tag k="natural" v="hill" />
		<tag k="place" v="locality" />
		<tag k="ssr:stedsnr" v="521447" />
	</node>
	<node id="-560897" lat="62.3480611154" lon="5.82878332542">
		<tag k="name" v="Vollane" />
		<tag k="place" v="farm" />
		<tag k="ssr:stedsnr" v="521433" />
	</node>
	<node id="-560896" lat="62.3332388858" lon="5.77209166954">
		<tag k="name" v="Svinøysundet" />
		<tag k="natural" v="strait" />
		<tag k="ssr:stedsnr" v="520663" />
	</node>
	<node id="-560895" lat="62.3267555536" lon="5.77929165837">
		<tag k="name" v="Trefludavika" />
		<tag k="natural" v="bay" />
		<tag k="ssr:stedsnr" v="520657" />
	</node>
	<node id="-560894" lat="62.3221305538" lon="5.86414443715">
		<tag k="name" v="Trolleneset" />
		<tag k="natural" v="cape" />
		<tag k="ssr:stedsnr" v="520568" />
	</node>
	<node id="-560893" lat="62.3099666691" lon="5.82718055458">
		<tag k="name" v="Kjerringnesvatnet" />
		<tag k="natural" v="water" />
		<tag k="ssr:stedsnr" v="520562" />
	</node>
	<node id="-560892" lat="62.3150638866" lon="5.80502500059">
		<tag k="name" v="Hellebrauta" />
		<tag k="natural" v="slope" />
		<tag k="place" v="locality" />
		<tag k="ssr:stedsnr" v="520559" />
	</node>
	<node id="-560891" lat="62.3244944483" lon="5.8256444345">
		<tag k="name" v="Vågefjellet" />
		<tag k="place" v="locality" />
		<tag k="ssr:stedsnr" v="520557" />
	</node>
	<node id="-560890" lat="62.3009944485" lon="5.83448055898">
		<tag k="name" v="Fylhammaren" />
		<tag k="natural" v="cliff" />
		<tag k="ssr:stedsnr" v="520531" />
	</node>
	<node id="-560889" lat="62.2939916691" lon="5.84736944038">
		<tag k="name" v="Garnesstranda" />
		<tag k="natural" v="beach" />
		<tag k="place" v="locality" />
		<tag k="ssr:stedsnr" v="520529" />
	</node>
	<node id="-560888" lat="62.3278527764" lon="5.76626110856">
		<tag k="name" v="Kjeholmen" />
		<tag k="place" v="islet" />
		<tag k="ssr:stedsnr" v="505345" />
	</node>
	<node id="-560887" lat="62.4114638896" lon="5.78112221755">
		<tag k="alt_name" v="Fjordskallen" />
		<tag k="name" v="Fjordeskallen" />
		<tag k="natural" v="shoal" />
		<tag k="place" v="locality" />
		<tag k="ssr:stedsnr" v="496912" />
	</node>
	<node id="-560886" lat="62.3497749985" lon="5.7845638957">
		<tag k="name" v="Langeneset" />
		<tag k="natural" v="cape" />
		<tag k="ssr:stedsnr" v="496855" />
	</node>
	<node id="-560885" lat="62.3699083344" lon="5.89365278569">
		<tag k="fixme" v="consider natural=peak for the most distinct mountains in the district" />
		<tag k="name" v="Skeidsnakken" />
		<tag k="natural" v="hill" />
		<tag k="place" v="locality" />
		<tag k="ssr:stedsnr" v="496840" />
	</node>
	<node id="-560884" lat="62.3644805564" lon="5.84451111128">
		<tag k="name" v="Ulsteinelva" />
		<tag k="ssr:stedsnr" v="496839" />
		<tag k="waterway" v="stream" />
	</node>
	<node id="-560883" lat="62.3383394857" lon="5.85081617354">
		<tag k="fixme" v="consider place=hamlet" />
		<tag k="name" v="Saunes" />
		<tag k="place" v="farm" />
		<tag k="ssr:stedsnr" v="496832" />
	</node>
	<node id="-560882" lat="62.3444109387" lon="5.84606577253">
		<tag k="amenity" v="place_of_worship" />
		<tag k="denomination" v="lutheran" />
		<tag k="name" v="Ulstein" />
		<tag k="religion" v="christian" />
		<tag k="ssr:stedsnr" v="496833" />
	</node>
	<node id="-560881" lat="62.3480166624" lon="5.88841943808">
		<tag k="name" v="Gamleeidet" />
		<tag k="natural" v="strait" />
		<tag k="ssr:stedsnr" v="496831" />
	</node>
	<node id="-560880" lat="62.329344089" lon="5.83390579737">
		<tag k="alt_name" v="Breivik" />
		<tag k="fixme" v="consider place=hamlet" />
		<tag k="name" v="Breidvik" />
		<tag k="place" v="farm" />
		<tag k="ssr:stedsnr" v="496802" />
	</node>
	<node id="-560879" lat="62.3165285103" lon="5.8589846393">
		<tag k="fixme" v="consider place=hamlet" />
		<tag k="name" v="Hasund" />
		<tag k="place" v="farm" />
		<tag k="ssr:stedsnr" v="496773" />
	</node>
	<node id="-560878" lat="62.2290361148" lon="5.85981667165">
		<tag k="name" v="Eiketangane" />
		<tag k="natural" v="cape" />
		<tag k="ssr:stedsnr" v="496184" />
	</node>
	<node id="-560877" lat="62.2904083349" lon="5.85754443868">
		<tag k="name" v="Elvebakken" />
		<tag k="place" v="farm" />
		<tag k="ssr:stedsnr" v="496132" />
	</node>
	<node id="-560876" lat="62.2577583327" lon="5.91824166603">
		<tag k="alt_name" v="Gjerde" />
		<tag k="name" v="Gjerdet" />
		<tag k="place" v="farm" />
		<tag k="ssr:stedsnr" v="495224" />
	</node>
	<node id="-560875" lat="62.2740722239" lon="5.91171666581">
		<tag k="fixme" v="consider natural=peak for the most distinct mountains in the district" />
		<tag k="name" v="Grøthornet" />
		<tag k="natural" v="hill" />
		<tag k="place" v="locality" />
		<tag k="ssr:stedsnr" v="495187" />
	</node>
	<node id="-560874" lat="62.32075" lon="5.91045556083">
		<tag k="name" v="Fjellsmyrane" />
		<tag k="natural" v="wetland" />
		<tag k="ssr:stedsnr" v="483285" />
	</node>
	<node id="-560873" lat="62.2466305514" lon="5.86586389432">
		<tag k="name" v="Havvågsfluda" />
		<tag k="natural" v="shoal" />
		<tag k="place" v="locality" />
		<tag k="ssr:stedsnr" v="462872" />
	</node>
	<node id="-560872" lat="62.3463638914" lon="5.78793332969">
		<tag k="name" v="Storhaugen" />
		<tag k="natural" v="hill" />
		<tag k="place" v="locality" />
		<tag k="ssr:stedsnr" v="460696" />
	</node>
	<node id="-560871" lat="62.3880222216" lon="5.85220278555">
		<tag k="name" v="Roppedalen" />
		<tag k="natural" v="valley" />
		<tag k="place" v="locality" />
		<tag k="ssr:stedsnr" v="460643" />
	</node>
	<node id="-560870" lat="62.3705472189" lon="5.84091945057">
		<tag k="name" v="Brendehaugen" />
		<tag k="natural" v="hill" />
		<tag k="place" v="locality" />
		<tag k="ssr:stedsnr" v="460640" />
	</node>
	<node id="-560869" lat="62.2724805574" lon="5.90710277254">
		<tag k="name" v="Dyrehornet" />
		<tag k="natural" v="hill" />
		<tag k="place" v="locality" />
		<tag k="ssr:stedsnr" v="460626" />
	</node>
	<node id="-560868" lat="62.2734888867" lon="5.86112222028">
		<tag k="name" v="Storholmen" />
		<tag k="place" v="islet" />
		<tag k="ssr:stedsnr" v="460625" />
	</node>
	<node id="-560867" lat="62.284213885" lon="5.84238055523">
		<tag k="name" v="Grøtneset" />
		<tag k="natural" v="cape" />
		<tag k="ssr:stedsnr" v="460622" />
	</node>
	<node id="-560866" lat="62.4106361125" lon="5.88403332989">
		<tag k="name" v="Gråsteinane" />
		<tag k="natural" v="stone" />
		<tag k="ssr:stedsnr" v="460610" />
	</node>
	<node id="-560865" lat="62.3206361123" lon="5.79689722274">
		<tag k="name" v="Høgetua" />
		<tag k="natural" v="hill" />
		<tag k="place" v="locality" />
		<tag k="ssr:stedsnr" v="460602" />
	</node>
	<node id="-560864" lat="62.3488500022" lon="5.79946110376">
		<tag k="name" v="Kvalen" />
		<tag k="place" v="islet" />
		<tag k="ssr:stedsnr" v="460598" />
	</node>
	<node id="-560863" lat="62.3130638871" lon="5.79989721537">
		<tag k="name" v="Uleberget" />
		<tag k="natural" v="hill" />
		<tag k="place" v="locality" />
		<tag k="ssr:stedsnr" v="460593" />
	</node>
	<node id="-560862" lat="62.300972226" lon="5.90525555427">
		<tag k="name" v="Skaret" />
		<tag k="natural" v="valley" />
		<tag k="place" v="locality" />
		<tag k="ssr:stedsnr" v="460581" />
	</node>
	<node id="-560861" lat="62.3436361094" lon="5.83046111517">
		<tag k="name" v="Flotane" />
		<tag k="place" v="locality" />
		<tag k="ssr:stedsnr" v="460576" />
	</node>
	<node id="-560860" lat="62.2385861144" lon="5.89995278544">
		<tag k="fixme" v="consider seamark:type=rock or natural=shoal" />
		<tag k="name" v="Eikeskjeret" />
		<tag k="place" v="islet" />
		<tag k="ssr:stedsnr" v="460556" />
	</node>
	<node id="-560859" lat="62.2610138898" lon="5.91182499711">
		<tag k="name" v="Øggardsberget" />
		<tag k="natural" v="slope" />
		<tag k="place" v="locality" />
		<tag k="ssr:stedsnr" v="460555" />
	</node>
	<node id="-560858" lat="62.2509416626" lon="5.90407499237">
		<tag k="name" v="Årstødneset" />
		<tag k="natural" v="cape" />
		<tag k="ssr:stedsnr" v="460550" />
	</node>
	<node id="-560857" lat="62.251016671" lon="5.9085333398">
		<tag k="name" v="Eineneset" />
		<tag k="natural" v="cape" />
		<tag k="ssr:stedsnr" v="460548" />
	</node>
	<node id="-560856" lat="62.2625777781" lon="5.89104166394">
		<tag k="name" v="Sætrehornet" />
		<tag k="natural" v="hill" />
		<tag k="place" v="locality" />
		<tag k="ssr:stedsnr" v="460545" />
	</node>
	<node id="-560855" lat="62.2617305595" lon="5.89732777538">
		<tag k="name" v="Aksla" />
		<tag k="natural" v="ridge" />
		<tag k="place" v="locality" />
		<tag k="ssr:stedsnr" v="460531" />
	</node>
	<node id="-560854" lat="62.2437055525" lon="5.90316111979">
		<tag k="name" v="Lågeika" />
		<tag k="natural" v="wetland" />
		<tag k="ssr:stedsnr" v="460526" />
	</node>
	<node id="-560853" lat="62.3608611069" lon="5.84000833186">
		<tag k="fixme" v="consider natural=peak for the most distinct mountains in the district" />
		<tag k="name" v="Elekja" />
		<tag k="natural" v="hill" />
		<tag k="place" v="locality" />
		<tag k="ssr:stedsnr" v="460512" />
	</node>
	<node id="-560852" lat="62.3359333315" lon="5.85435833847">
		<tag k="name" v="Haugane" />
		<tag k="place" v="farm" />
		<tag k="ssr:stedsnr" v="460485" />
	</node>
	<node id="-560851" lat="62.3419318681" lon="5.86126149602">
		<tag k="fixme" v="consider place=hamlet" />
		<tag k="name" v="Hovset" />
		<tag k="place" v="farm" />
		<tag k="ssr:stedsnr" v="460483" />
	</node>
	<node id="-560850" lat="62.3241805576" lon="5.80115555804">
		<tag k="name" v="Holane" />
		<tag k="place" v="farm" />
		<tag k="ssr:stedsnr" v="460479" />
	</node>
	<node id="-560849" lat="62.3146888847" lon="5.86139722396">
		<tag k="name" v="Hansgjerdet" />
		<tag k="place" v="farm" />
		<tag k="ssr:stedsnr" v="460478" />
	</node>
	<node id="-560848" lat="62.3675833354" lon="5.82206387908">
		<tag k="name" v="Husegarden" />
		<tag k="place" v="farm" />
		<tag k="ssr:stedsnr" v="460470" />
	</node>
	<node id="-560847" lat="62.3317555539" lon="5.87037499558">
		<tag k="name" v="Skjoranakken" />
		<tag k="natural" v="ridge" />
		<tag k="place" v="locality" />
		<tag k="ssr:stedsnr" v="459517" />
	</node>
	<node id="-560846" lat="62.3989567951" lon="5.85171166123">
		<tag k="alt_name" v="Flø, indre" />
		<tag k="fixme" v="consider place=hamlet" />
		<tag k="name" v="Indreflø" />
		<tag k="place" v="farm" />
		<tag k="ssr:stedsnr" v="436869" />
	</node>
	<node id="-560845" lat="62.3216138901" lon="5.8462694475">
		<tag k="name" v="Kvianeset" />
		<tag k="place" v="farm" />
		<tag k="ssr:stedsnr" v="436809" />
	</node>
	<node id="-560844" lat="62.3097194445" lon="5.78672221898">
		<tag k="alt_name" v="Sandvikklubben" />
		<tag k="name" v="Klubben" />
		<tag k="natural" v="cape" />
		<tag k="ssr:stedsnr" v="436794" />
	</node>
	<node id="-560843" lat="62.321641671" lon="5.82618055241">
		<tag k="fixme" v="consider natural=peak for the most distinct mountains in the district" />
		<tag k="name" v="Høgåsen" />
		<tag k="natural" v="hill" />
		<tag k="place" v="locality" />
		<tag k="ssr:stedsnr" v="436776" />
	</node>
	<node id="-560842" lat="62.3139436047" lon="5.90578438392">
		<tag k="fixme" v="consider place=hamlet" />
		<tag k="loc_name" v="Fjella" />
		<tag k="name" v="Fjelle" />
		<tag k="place" v="farm" />
		<tag k="ssr:stedsnr" v="436752" />
	</node>
	<node id="-560841" lat="62.2938083373" lon="5.88119166591">
		<tag k="alt_name" v="Skålanotten" />
		<tag k="fixme" v="consider natural=peak for the most distinct mountains in the district" />
		<tag k="name" v="Ringstadhornet" />
		<tag k="natural" v="hill" />
		<tag k="place" v="locality" />
		<tag k="ssr:stedsnr" v="436133" />
	</node>
	<node id="-560840" lat="62.2959861108" lon="5.95914999611">
		<tag k="fixme" v="consider natural=peak for the most distinct mountains in the district" />
		<tag k="name" v="Høgenausa" />
		<tag k="natural" v="hill" />
		<tag k="place" v="locality" />
		<tag k="ssr:stedsnr" v="436131" />
	</node>
	<node id="-560839" lat="62.4216166626" lon="5.94806666734">
		<tag k="name" v="Skolmeura" />
		<tag k="natural" v="scree" />
		<tag k="ssr:stedsnr" v="435926" />
	</node>
	<node id="-560838" lat="62.4192055524" lon="5.73432778731">
		<tag k="name" v="Tøyrane" />
		<tag k="place" v="islet" />
		<tag k="ssr:stedsnr" v="435920" />
	</node>
	<node id="-560836" lat="62.3598138866" lon="5.82494999319">
		<tag k="alt_name" v="Søre Ulstein" />
		<tag k="name" v="Ulstein" />
		<tag k="place" v="farm" />
		<tag k="ssr:stedsnr" v="435896" />
	</node>
	<node id="-560835" lat="62.3468472201" lon="5.7994138969">
		<tag k="name" v="Flatholmen" />
		<tag k="place" v="islet" />
		<tag k="ssr:stedsnr" v="435848" />
	</node>
	<node id="-560834" lat="62.2740638865" lon="5.91181111241">
		<tag k="alt_name" v="Blåtinden" />
		<tag k="fixme" v="consider natural=peak for the most distinct mountains in the district" />
		<tag k="name" v="Blåtind" />
		<tag k="natural" v="hill" />
		<tag k="place" v="locality" />
		<tag k="ssr:stedsnr" v="435209" />
	</node>
	<node id="-560833" lat="62.2643777814" lon="5.89083055511">
		<tag k="name" v="Havågsvatnet" />
		<tag k="natural" v="water" />
		<tag k="ssr:stedsnr" v="435201" />
	</node>
	<node id="-560832" lat="62.3253638924" lon="5.89025276891">
		<tag k="fixme" v="consider natural=peak for the most distinct mountains in the district" />
		<tag k="name" v="Stien" />
		<tag k="natural" v="hill" />
		<tag k="ssr:stedsnr" v="423276" />
	</node>
	<node id="-560831" lat="62.3631388879" lon="5.88691667516">
		<tag k="name" v="Kleivane" />
		<tag k="ssr:stedsnr" v="423255" />
		<tag k="waterway" v="rapids" />
	</node>
	<node id="-560830" lat="62.372491665" lon="5.88753889127">
		<tag k="name" v="Mosdalen" />
		<tag k="natural" v="valley" />
		<tag k="place" v="locality" />
		<tag k="ssr:stedsnr" v="423248" />
	</node>
	<node id="-560829" lat="62.3499555594" lon="5.88269722175">
		<tag k="ford" v="yes" />
		<tag k="name" v="Vådå" />
		<tag k="place" v="locality" />
		<tag k="ssr:stedsnr" v="423242" />
	</node>
	<node id="-560828" lat="62.3794861122" lon="5.88732778724">
		<tag k="name" v="Høgebrua" />
		<tag k="natural" v="slope" />
		<tag k="place" v="locality" />
		<tag k="ssr:stedsnr" v="423063" />
	</node>
	<node id="-560827" lat="62.299716666" lon="5.94008333273">
		<tag k="name" v="Skinnstadneset" />
		<tag k="natural" v="bay" />
		<tag k="ssr:stedsnr" v="419159" />
	</node>
	<node id="-560826" lat="62.4368916682" lon="5.83610277629">
		<tag k="name" v="Vallafluda" />
		<tag k="natural" v="shoal" />
		<tag k="place" v="locality" />
		<tag k="ssr:stedsnr" v="416852" />
	</node>
	<node id="-560824" lat="62.3846388911" lon="5.835327772">
		<tag k="alt_name" v="Bysshetta" />
		<tag k="fixme" v="consider natural=peak for the most distinct mountains in the district" />
		<tag k="name" v="Trollhetta" />
		<tag k="natural" v="hill" />
		<tag k="place" v="locality" />
		<tag k="ssr:stedsnr" v="254890" />
	</node>
	<node id="-560823" lat="62.3225722212" lon="5.76673055125">
		<tag k="name" v="Dimnaneset" />
		<tag k="natural" v="cape" />
		<tag k="ssr:stedsnr" v="254757" />
	</node>
	<node id="-560822" lat="62.4049944452" lon="5.92985277305">
		<tag k="name" v="Svartevatnet" />
		<tag k="natural" v="water" />
		<tag k="ssr:stedsnr" v="253938" />
	</node>
	<node id="-560821" lat="62.4110361119" lon="5.88718055443">
		<tag k="name" v="Tungene" />
		<tag k="natural" v="slope" />
		<tag k="place" v="locality" />
		<tag k="ssr:stedsnr" v="253921" />
	</node>
	<node id="-560820" lat="62.4181333308" lon="5.89446389826">
		<tag k="name" v="Hoksteinen" />
		<tag k="natural" v="stone" />
		<tag k="ssr:stedsnr" v="253920" />
	</node>
	<node id="-560818" lat="62.2525888467" lon="5.87549042597">
		<tag k="fixme" v="consider place=hamlet" />
		<tag k="name" v="Havåg" />
		<tag k="old_name" v="Havågane" />
		<tag k="place" v="farm" />
		<tag k="ssr:stedsnr" v="253243" />
	</node>
	<node id="-560817" lat="62.2543154486" lon="5.85524864581">
		<tag k="alt_name" v="Selvågane" />
		<tag k="fixme" v="consider place=hamlet" />
		<tag k="name" v="Selvåg" />
		<tag k="place" v="farm" />
		<tag k="ssr:stedsnr" v="253244" />
	</node>
	<node id="-560816" lat="62.3139972257" lon="5.888300009">
		<tag k="name" v="Rotegåtene" />
		<tag k="place" v="locality" />
		<tag k="ssr:stedsnr" v="241262" />
	</node>
	<node id="-560815" lat="62.3228333318" lon="5.9029972155">
		<tag k="name" v="Bulegene" />
		<tag k="natural" v="slope" />
		<tag k="place" v="locality" />
		<tag k="ssr:stedsnr" v="241254" />
	</node>
	<node id="-560814" lat="62.373222221" lon="5.88367500004">
		<tag k="historic" v="shieling" />
		<tag k="name" v="Brunesetra" />
		<tag k="place" v="locality" />
		<tag k="ssr:stedsnr" v="241234" />
	</node>
	<node id="-560813" lat="62.3414583337" lon="5.89091666238">
		<tag k="name" v="Varleite" />
		<tag k="natural" v="slope" />
		<tag k="place" v="locality" />
		<tag k="ssr:stedsnr" v="241233" />
	</node>
	<node id="-560812" lat="62.3578194474" lon="5.88235554864">
		<tag k="name" v="Vikeskaret" />
		<tag k="natural" v="valley" />
		<tag k="place" v="locality" />
		<tag k="ssr:stedsnr" v="241229" />
	</node>
	<node id="-560811" lat="62.4109416625" lon="5.94151111159">
		<tag k="name" v="Skinnalia" />
		<tag k="natural" v="slope" />
		<tag k="place" v="locality" />
		<tag k="ssr:stedsnr" v="237142" />
	</node>
	<node id="-560810" lat="62.3929638905" lon="5.77954721489">
		<tag k="name" v="Eggholmdjupet" />
		<tag k="place" v="locality" />
		<tag k="ssr:stedsnr" v="234898" />
	</node>
	<node id="-560809" lat="62.3354138859" lon="5.83322778156">
		<tag k="fixme" v="consider seamark:type=rock or natural=shoal" />
		<tag k="name" v="Kråkene" />
		<tag k="place" v="islet" />
		<tag k="ssr:stedsnr" v="234828" />
	</node>
	<node id="-560808" lat="62.296033333" lon="5.84520834291">
		<tag k="name" v="Garnesgrenda" />
		<tag k="place" v="hamlet" />
		<tag k="ssr:stedsnr" v="234819" />
	</node>
	<node id="-560807" lat="62.41626389" lon="5.88069167146">
		<tag k="name" v="Kvieneset" />
		<tag k="natural" v="cape" />
		<tag k="ssr:stedsnr" v="233932" />
	</node>
	<node id="-560806" lat="62.4139999969" lon="5.8611111153">
		<tag k="name" v="Kleggen" />
		<tag k="natural" v="shoal" />
		<tag k="place" v="locality" />
		<tag k="ssr:stedsnr" v="233930" />
	</node>
	<node id="-560805" lat="62.4191583371" lon="5.9142777847">
		<tag k="name" v="Ytre Fløelva" />
		<tag k="ssr:stedsnr" v="233928" />
		<tag k="waterway" v="stream" />
	</node>
	<node id="-560804" lat="62.2738166623" lon="5.93341388638">
		<tag k="name" v="Kvitåa" />
		<tag k="ssr:stedsnr" v="233236" />
		<tag k="waterway" v="stream" />
	</node>
	<node id="-560802" lat="62.3996888928" lon="5.89778889166">
		<tag k="name" v="Hjellberga" />
		<tag k="natural" v="slope" />
		<tag k="place" v="locality" />
		<tag k="ssr:stedsnr" v="217653" />
	</node>
	<node id="-560801" lat="62.3022861126" lon="5.78086666417">
		<tag k="name" v="Koparslagaren" />
		<tag k="place" v="islet" />
		<tag k="ssr:stedsnr" v="217638" />
	</node>
	<node id="-560800" lat="62.2825777737" lon="5.92540555592">
		<tag k="fixme" v="consider natural=peak for the most distinct mountains in the district" />
		<tag k="name" v="Myrkevasshornet" />
		<tag k="natural" v="hill" />
		<tag k="place" v="locality" />
		<tag k="ssr:stedsnr" v="217590" />
	</node>
	<node id="-560799" lat="62.2560694426" lon="5.82043610714">
		<tag k="name" v="Osholmane" />
		<tag k="place" v="islet" />
		<tag k="ssr:stedsnr" v="217588" />
	</node>
	<node id="-560798" lat="62.2723111133" lon="5.86138333574">
		<tag k="name" v="Litleholmen" />
		<tag k="place" v="islet" />
		<tag k="ssr:stedsnr" v="217579" />
	</node>
	<node id="-560797" lat="62.2703694435" lon="5.84104167618">
		<tag k="name" v="Breisundet" />
		<tag k="natural" v="strait" />
		<tag k="ssr:stedsnr" v="217578" />
	</node>
	<node id="-560796" lat="62.3541972262" lon="5.85954166351">
		<tag k="fixme" v="consider natural=peak for the most distinct mountains in the district" />
		<tag k="name" v="Høgskjerva" />
		<tag k="natural" v="hill" />
		<tag k="place" v="locality" />
		<tag k="ssr:stedsnr" v="217573" />
	</node>
	<node id="-560795" lat="62.3320416689" lon="5.86517499288">
		<tag k="name" v="Litlenotten" />
		<tag k="natural" v="hill" />
		<tag k="place" v="locality" />
		<tag k="ssr:stedsnr" v="217558" />
	</node>
	<node id="-560794" lat="62.4032694405" lon="5.86805000186">
		<tag k="name" v="Midtfløbakkane" />
		<tag k="natural" v="slope" />
		<tag k="place" v="locality" />
		<tag k="ssr:stedsnr" v="217553" />
	</node>
	<node id="-560793" lat="62.2927055576" lon="5.86294999584">
		<tag k="name" v="Svartelva" />
		<tag k="ssr:stedsnr" v="217549" />
		<tag k="waterway" v="stream" />
	</node>
	<node id="-560792" lat="62.3211250003" lon="5.86253055262">
		<tag k="name" v="Sandvika" />
		<tag k="natural" v="bay" />
		<tag k="ssr:stedsnr" v="217522" />
	</node>
	<node id="-560791" lat="62.3214611157" lon="5.80998889516">
		<tag k="name" v="Svarane" />
		<tag k="natural" v="hill" />
		<tag k="place" v="locality" />
		<tag k="ssr:stedsnr" v="217508" />
	</node>
	<node id="-560790" lat="62.2622666703" lon="5.85544444133">
		<tag k="name" v="Brautaryggen" />
		<tag k="natural" v="ridge" />
		<tag k="place" v="locality" />
		<tag k="ssr:stedsnr" v="217491" />
	</node>
	<node id="-560789" lat="62.2555361148" lon="5.87654722723">
		<tag k="name" v="Åsen" />
		<tag k="natural" v="ridge" />
		<tag k="place" v="locality" />
		<tag k="ssr:stedsnr" v="217464" />
	</node>
	<node id="-560788" lat="62.3518305598" lon="5.85187499689">
		<tag k="name" v="Årkinna" />
		<tag k="natural" v="slope" />
		<tag k="place" v="locality" />
		<tag k="ssr:stedsnr" v="217458" />
	</node>
	<node id="-560787" lat="62.4077055592" lon="5.87328612022">
		<tag k="name" v="Urene" />
		<tag k="natural" v="scree" />
		<tag k="ssr:stedsnr" v="217451" />
	</node>
	<node id="-560786" lat="62.37503889" lon="5.82420278352">
		<tag k="name" v="Flåna" />
		<tag k="place" v="locality" />
		<tag k="ssr:stedsnr" v="217444" />
	</node>
	<node id="-560785" lat="62.3275333342" lon="5.83343333097">
		<tag k="name" v="Skjervane" />
		<tag k="place" v="farm" />
		<tag k="ssr:stedsnr" v="217416" />
	</node>
	<node id="-560784" lat="62.4102361097" lon="5.92313610814">
		<tag k="alt_name" v="Fløvatnet" />
		<tag k="name" v="Ytrefløvatnet" />
		<tag k="natural" v="water" />
		<tag k="ssr:stedsnr" v="193921" />
	</node>
	<node id="-560783" lat="62.3489383303" lon="5.79381172663">
		<tag k="name" v="Håkonsholmen" />
		<tag k="place" v="islet" />
		<tag k="ssr:stedsnr" v="193859" />
	</node>
	<node id="-560782" lat="62.3457527743" lon="5.78306389679">
		<tag k="alt_name" v="Store Hatløya" />
		<tag k="name" v="Hatløya" />
		<tag k="place" v="island" />
		<tag k="ssr:stedsnr" v="193824" />
	</node>
	<node id="-560781" lat="62.3231476157" lon="5.83525310085">
		<tag k="fixme" v="consider place=hamlet" />
		<tag k="name" v="Kleiva" />
		<tag k="place" v="farm" />
		<tag k="ssr:stedsnr" v="193810" />
	</node>
	<node id="-560780" lat="62.3248805539" lon="5.83623056339">
		<tag k="alt_name" v="Klubbeneset" />
		<tag k="name" v="Klubbenes" />
		<tag k="place" v="farm" />
		<tag k="ssr:stedsnr" v="193807" />
	</node>
	<node id="-560779" lat="62.3189833353" lon="5.81124443947">
		<tag k="fixme" v="multiple name tags, choose one and add the other to alt_name" />
		<tag k="name" v="Dimna;Dimnøya" />
		<tag k="place" v="island" />
		<tag k="ssr:stedsnr" v="193797" />
	</node>
	<node id="-560778" lat="62.3151166627" lon="5.79006666645">
		<tag k="name" v="Dimnavika" />
		<tag k="natural" v="bay" />
		<tag k="ssr:stedsnr" v="193793" />
	</node>
	<node id="-560777" lat="62.3344138928" lon="5.82046667329">
		<tag k="alt_name" v="Dimnasundholmen" />
		<tag k="name" v="Dimnaholmen" />
		<tag k="place" v="islet" />
		<tag k="ssr:stedsnr" v="193783" />
	</node>
	<node id="-560776" lat="62.2979944478" lon="5.91738333576">
		<tag k="name" v="Framtun" />
		<tag k="place" v="farm" />
		<tag k="ssr:stedsnr" v="193144" />
	</node>
	<node id="-560775" lat="62.2416777736" lon="5.86104166437">
		<tag k="alt_name" v="Søre Kubbeteholmen" />
		<tag k="name" v="Kubbholmen" />
		<tag k="place" v="islet" />
		<tag k="ssr:stedsnr" v="193139" />
	</node>
	<node id="-560774" lat="62.2442805559" lon="5.86244722278">
		<tag k="bay" v="fjord" />
		<tag k="name" v="Selvågdjupet" />
		<tag k="natural" v="bay" />
		<tag k="ssr:stedsnr" v="193137" />
	</node>
	<node id="-560773" lat="62.2483960477" lon="5.90855475941">
		<tag k="alt_name" v="Sunde" />
		<tag k="fixme" v="consider place=hamlet" />
		<tag k="name" v="Sundet" />
		<tag k="place" v="farm" />
		<tag k="ssr:stedsnr" v="193132" />
	</node>
	<node id="-560772" lat="62.3826555575" lon="5.85239165781">
		<tag k="fixme" v="consider natural=peak for the most distinct mountains in the district" />
		<tag k="name" v="Trollvassegga" />
		<tag k="natural" v="hill" />
		<tag k="place" v="locality" />
		<tag k="ssr:stedsnr" v="192915" />
	</node>
	<node id="-560770" lat="62.3660388878" lon="5.82369165809">
		<tag k="name" v="Jensgarden" />
		<tag k="place" v="farm" />
		<tag k="ssr:stedsnr" v="192872" />
	</node>
	<node id="-560769" lat="62.3680833312" lon="5.84206388342">
		<tag k="fixme" v="consider natural=peak for the most distinct mountains in the district" />
		<tag k="name" v="Skålanausen" />
		<tag k="natural" v="hill" />
		<tag k="place" v="locality" />
		<tag k="ssr:stedsnr" v="192871" />
	</node>
	<node id="-560768" lat="62.3268722244" lon="5.90608332511">
		<tag k="fixme" v="consider natural=peak for the most distinct mountains in the district" />
		<tag k="name" v="Laugaråsen" />
		<tag k="natural" v="hill" />
		<tag k="place" v="locality" />
		<tag k="ssr:stedsnr" v="180256" />
	</node>
	<node id="-560767" lat="62.367063888" lon="5.89803888155">
		<tag k="name" v="Feilia" />
		<tag k="natural" v="slope" />
		<tag k="place" v="locality" />
		<tag k="ssr:stedsnr" v="180237" />
	</node>
	<node id="-560766" lat="62.3826555523" lon="5.89097222429">
		<tag k="name" v="Skålahola" />
		<tag k="natural" v="valley" />
		<tag k="place" v="locality" />
		<tag k="ssr:stedsnr" v="180051" />
	</node>
	<node id="-560765" lat="62.293022224" lon="5.94636665725">
		<tag k="name" v="Lemen" />
		<tag k="natural" v="slope" />
		<tag k="place" v="locality" />
		<tag k="ssr:stedsnr" v="176163" />
	</node>
	<node id="-560764" lat="62.4367277813" lon="5.75866665674">
		<tag k="name" v="Revet" />
		<tag k="natural" v="shoal" />
		<tag k="place" v="locality" />
		<tag k="ssr:stedsnr" v="173870" />
	</node>
	<node id="-560763" lat="62.4260694467" lon="5.7589111035">
		<tag k="fixme" v="consider seamark:type=rock or natural=shoal" />
		<tag k="name" v="Høgeskjeret" />
		<tag k="place" v="islet" />
		<tag k="ssr:stedsnr" v="173000" />
	</node>
	<node id="-560762" lat="62.2456666668" lon="5.88210832941">
		<tag k="name" v="Grønevikholmen" />
		<tag k="place" v="islet" />
		<tag k="ssr:stedsnr" v="159886" />
	</node>
	<node id="-560761" lat="62.3048500039" lon="5.79281667295">
		<tag k="name" v="Notten" />
		<tag k="natural" v="hill" />
		<tag k="place" v="locality" />
		<tag k="ssr:stedsnr" v="157492" />
	</node>
	<node id="-560760" lat="62.249297219" lon="5.8965194456">
		<tag k="name" v="Langholmen" />
		<tag k="place" v="islet" />
		<tag k="ssr:stedsnr" v="157475" />
	</node>
	<node id="-560759" lat="62.2492861083" lon="5.90714167642">
		<tag k="name" v="Lakeneset" />
		<tag k="natural" v="cape" />
		<tag k="ssr:stedsnr" v="157474" />
	</node>
	<node id="-560758" lat="62.2653944459" lon="5.84427499066">
		<tag k="name" v="Magerholmen" />
		<tag k="place" v="islet" />
		<tag k="ssr:stedsnr" v="157465" />
	</node>
	<node id="-560757" lat="62.3819333302" lon="5.86203889584">
		<tag k="name" v="Middagstua" />
		<tag k="natural" v="ridge" />
		<tag k="place" v="locality" />
		<tag k="ssr:stedsnr" v="157460" />
	</node>
	<node id="-560756" lat="62.2385888846" lon="5.88450276881">
		<tag k="name" v="Kvigemyra" />
		<tag k="natural" v="wetland" />
		<tag k="ssr:stedsnr" v="157449" />
	</node>
	<node id="-560755" lat="62.3914750013" lon="5.83593610224">
		<tag k="name" v="Hammarsvågen" />
		<tag k="natural" v="bay" />
		<tag k="ssr:stedsnr" v="157580" />
	</node>
	<node id="-560754" lat="62.4069833324" lon="5.85526110319">
		<tag k="name" v="Midtfløsanden" />
		<tag k="natural" v="beach" />
		<tag k="place" v="locality" />
		<tag k="ssr:stedsnr" v="157577" />
	</node>
	<node id="-560753" lat="62.4205694488" lon="5.90036110729">
		<tag k="name" v="Stakarstøda" />
		<tag k="natural" v="bay" />
		<tag k="ssr:stedsnr" v="157568" />
	</node>
	<node id="-560752" lat="62.2722388895" lon="5.88060832767">
		<tag k="name" v="Hestehilla" />
		<tag k="place" v="locality" />
		<tag k="ssr:stedsnr" v="157559" />
	</node>
	<node id="-560751" lat="62.2722916628" lon="5.92544443936">
		<tag k="barrier" v="fence" />
		<tag k="name" v="Fjellsteinane" />
		<tag k="ssr:stedsnr" v="157557" />
	</node>
	<node id="-560750" lat="62.3641861079" lon="5.84958611157">
		<tag k="name" v="Indregjøtene" />
		<tag k="natural" v="valley" />
		<tag k="place" v="locality" />
		<tag k="ssr:stedsnr" v="157551" />
	</node>
	<node id="-560749" lat="62.3962249963" lon="5.92095834339">
		<tag k="name" v="Sneldelibakkane" />
		<tag k="natural" v="slope" />
		<tag k="place" v="locality" />
		<tag k="ssr:stedsnr" v="157534" />
	</node>
	<node id="-560748" lat="62.2918888884" lon="5.91745556345">
		<tag k="name" v="Ringstadmarka" />
		<tag k="natural" v="slope" />
		<tag k="place" v="locality" />
		<tag k="ssr:stedsnr" v="157526" />
	</node>
	<node id="-560747" lat="62.3445749995" lon="5.7769944468">
		<tag k="name" v="Skjåvika" />
		<tag k="natural" v="bay" />
		<tag k="ssr:stedsnr" v="157520" />
	</node>
	<node id="-560746" lat="62.276038891" lon="5.90455556213">
		<tag k="name" v="Grashaugen" />
		<tag k="natural" v="hill" />
		<tag k="place" v="locality" />
		<tag k="ssr:stedsnr" v="157513" />
	</node>
	<node id="-560745" lat="62.3007027744" lon="5.84521944157">
		<tag k="name" v="Storefjellet" />
		<tag k="natural" v="slope" />
		<tag k="place" v="locality" />
		<tag k="ssr:stedsnr" v="157512" />
	</node>
	<node id="-560744" lat="62.246211114" lon="5.89388610543">
		<tag k="name" v="Karmelen" />
		<tag k="natural" v="bay" />
		<tag k="ssr:stedsnr" v="157433" />
	</node>
	<node id="-560743" lat="62.2718638916" lon="5.86192778342">
		<tag k="name" v="Neset" />
		<tag k="natural" v="cape" />
		<tag k="ssr:stedsnr" v="157424" />
	</node>
	<node id="-560742" lat="62.3775888874" lon="5.82261111315">
		<tag k="name" v="Hartua" />
		<tag k="natural" v="hill" />
		<tag k="place" v="locality" />
		<tag k="ssr:stedsnr" v="157419" />
	</node>
	<node id="-560741" lat="62.3648416705" lon="5.82935278653">
		<tag k="name" v="Brekkene" />
		<tag k="natural" v="slope" />
		<tag k="place" v="locality" />
		<tag k="ssr:stedsnr" v="157417" />
	</node>
	<node id="-560740" lat="62.3279583331" lon="5.81503888822">
		<tag k="name" v="Vågelegene" />
		<tag k="place" v="locality" />
		<tag k="ssr:stedsnr" v="156654" />
	</node>
	<node id="-560739" lat="62.3151472245" lon="5.78986944511">
		<tag k="name" v="Litlesandvika" />
		<tag k="natural" v="bay" />
		<tag k="ssr:stedsnr" v="156640" />
	</node>
	<node id="-560738" lat="62.3123305544" lon="5.83787499767">
		<tag k="name" v="Sundgotvatnet" />
		<tag k="natural" v="water" />
		<tag k="ssr:stedsnr" v="156557" />
	</node>
	<node id="-560737" lat="62.3263277793" lon="5.81389443882">
		<tag k="name" v="Vågeskaret" />
		<tag k="place" v="farm" />
		<tag k="ssr:stedsnr" v="156549" />
	</node>
	<node id="-560736" lat="62.3426027782" lon="5.86460276826">
		<tag k="name" v="Hovsethaugen" />
		<tag k="natural" v="hill" />
		<tag k="place" v="locality" />
		<tag k="ssr:stedsnr" v="156546" />
	</node>
	<node id="-560735" lat="62.324269445" lon="5.80908333741">
		<tag k="name" v="Skaret" />
		<tag k="natural" v="valley" />
		<tag k="place" v="locality" />
		<tag k="ssr:stedsnr" v="156489" />
	</node>
	<node id="-560734" lat="62.2569250006" lon="5.84202777772">
		<tag k="name" v="Aksla" />
		<tag k="natural" v="ridge" />
		<tag k="place" v="locality" />
		<tag k="ssr:stedsnr" v="156464" />
	</node>
	<node id="-560733" lat="62.2934926613" lon="5.90575999904">
		<tag k="fixme" v="consider place=hamlet" />
		<tag k="name" v="Svora" />
		<tag k="place" v="farm" />
		<tag k="ssr:stedsnr" v="156418" />
	</node>
	<node id="-560732" lat="62.3151222266" lon="5.82434443897">
		<tag k="name" v="Gjerdsbakkane" />
		<tag k="place" v="farm" />
		<tag k="ssr:stedsnr" v="156415" />
	</node>
	<node id="-560730" lat="62.4025138856" lon="5.83636388686">
		<tag k="alt_name" v="Hæmingen" />
		<tag k="name" v="Hemingen" />
		<tag k="place" v="islet" />
		<tag k="ssr:stedsnr" v="132931" />
	</node>
	<node id="-560729" lat="62.4221305572" lon="5.91462778467">
		<tag k="fixme" v="consider seamark:type=rock or natural=shoal" />
		<tag k="name" v="Håskjeret" />
		<tag k="place" v="islet" />
		<tag k="ssr:stedsnr" v="132909" />
	</node>
	<node id="-560728" lat="62.4235027739" lon="5.89636944734">
		<tag k="name" v="Hoksteinfluda" />
		<tag k="natural" v="shoal" />
		<tag k="place" v="locality" />
		<tag k="ssr:stedsnr" v="132906" />
	</node>
	<node id="-560727" lat="62.3932861094" lon="5.87766111266">
		<tag k="name" v="Indreflødalen" />
		<tag k="natural" v="valley" />
		<tag k="place" v="locality" />
		<tag k="ssr:stedsnr" v="132872" />
	</node>
	<node id="-560726" lat="62.3627305544" lon="5.82367499102">
		<tag k="name" v="Gjerdet" />
		<tag k="place" v="farm" />
		<tag k="ssr:stedsnr" v="132863" />
	</node>
	<node id="-560725" lat="62.3633416682" lon="5.85525000404">
		<tag k="fixme" v="multiple name tags, choose one and add the other to alt_name" />
		<tag k="name" v="Tverrbergelva;Tverrvadelva" />
		<tag k="ssr:stedsnr" v="132851" />
		<tag k="waterway" v="river" />
	</node>
	<node id="-560724" lat="62.3392555554" lon="5.8912194502">
		<tag k="name" v="Sauneselva" />
		<tag k="ssr:stedsnr" v="132833" />
		<tag k="waterway" v="stream" />
	</node>
	<node id="-560723" lat="62.3467481964" lon="5.8185990695">
		<tag k="alt_name" v="Osneskråka" />
		<tag k="loc_name" v="Osneskråka" />
		<tag k="name" v="Ryssholmen" />
		<tag k="place" v="islet" />
		<tag k="ssr:stedsnr" v="132819" />
	</node>
	<node id="-560722" lat="62.349530554" lon="5.8361083424">
		<tag k="name" v="Osberget" />
		<tag k="natural" v="hill" />
		<tag k="place" v="locality" />
		<tag k="ssr:stedsnr" v="132820" />
	</node>
	<node id="-560721" lat="62.3100305562" lon="5.80171110561">
		<tag k="name" v="Slokevatnet" />
		<tag k="natural" v="water" />
		<tag k="ssr:stedsnr" v="132796" />
	</node>
	<node id="-560720" lat="62.3228386735" lon="5.79576840213">
		<tag k="fixme" v="consider place=hamlet" />
		<tag k="name" v="Ytre-Dimna" />
		<tag k="place" v="farm" />
		<tag k="ssr:stedsnr" v="132772" />
	</node>
	<node id="-560718" lat="62.2998555574" lon="5.78470832948">
		<tag k="fixme" v="consider natural=peak for the most distinct mountains in the district" />
		<tag k="name" v="Røyrafjellet" />
		<tag k="natural" v="hill" />
		<tag k="place" v="locality" />
		<tag k="ssr:stedsnr" v="132759" />
	</node>
	<node id="-560717" lat="62.232510467" lon="5.87301436611">
		<tag k="fixme" v="consider place=hamlet" />
		<tag k="name" v="Eika" />
		<tag k="place" v="farm" />
		<tag k="ssr:stedsnr" v="132152" />
	</node>
	<node id="-560716" lat="62.2464888878" lon="5.83588334295">
		<tag k="name" v="Aursnesholmane" />
		<tag k="place" v="islet" />
		<tag k="ssr:stedsnr" v="132144" />
	</node>
	<node id="-560715" lat="62.378499996" lon="5.77413334278">
		<tag k="name" v="Brenningane" />
		<tag k="place" v="islet" />
		<tag k="ssr:stedsnr" v="131934" />
	</node>
	<node id="-560714" lat="62.3818638885" lon="5.89965277907">
		<tag k="fixme" v="consider natural=peak for the most distinct mountains in the district" />
		<tag k="name" v="Sarshornet" />
		<tag k="natural" v="hill" />
		<tag k="place" v="locality" />
		<tag k="ssr:stedsnr" v="131899" />
	</node>
	<node id="-560713" lat="62.3771999984" lon="5.8541027807">
		<tag k="name" v="Koppen" />
		<tag k="natural" v="hill" />
		<tag k="place" v="locality" />
		<tag k="ssr:stedsnr" v="131898" />
	</node>
	<node id="-560712" lat="62.3744555599" lon="5.90855000331">
		<tag k="name" v="Mosvasselva" />
		<tag k="ssr:stedsnr" v="131893" />
		<tag k="waterway" v="stream" />
	</node>
	<node id="-560711" lat="62.2772428542" lon="5.87432255808">
		<tag k="alt_name" v="Haddal, indre" />
		<tag k="fixme" v="consider place=hamlet" />
		<tag k="name" v="Indre Haddal" />
		<tag k="place" v="farm" />
		<tag k="ssr:stedsnr" v="131181" />
	</node>
	<node id="-560710" lat="62.2744277775" lon="5.88516388785">
		<tag k="name" v="Klungsdalen" />
		<tag k="natural" v="valley" />
		<tag k="place" v="locality" />
		<tag k="ssr:stedsnr" v="131164" />
	</node>
	<node id="-560709" lat="62.3563555594" lon="5.86651388364">
		<tag k="name" v="Skarpeidet" />
		<tag k="place" v="locality" />
		<tag k="ssr:stedsnr" v="120243" />
	</node>
	<node id="-560708" lat="62.2941694472" lon="5.93054167251">
		<tag k="name" v="Ringstadbotnen" />
		<tag k="natural" v="valley" />
		<tag k="place" v="locality" />
		<tag k="ssr:stedsnr" v="116137" />
	</node>
	<node id="-560707" lat="62.2886444446" lon="5.80030000475">
		<tag k="name" v="Risnesholmane" />
		<tag k="place" v="islet" />
		<tag k="ssr:stedsnr" v="113796" />
	</node>
	<node id="-560706" lat="62.3527445326" lon="5.82124794951">
		<tag k="fixme" v="consider seamark:type=rock or natural=shoal" />
		<tag k="loc_name" v="Skeidskråka" />
		<tag k="name" v="Skarveskjeret" />
		<tag k="place" v="islet" />
		<tag k="ssr:stedsnr" v="112989" />
	</node>
	<node id="-560705" lat="62.4453333327" lon="5.72513333931">
		<tag k="name" v="Ufseskallen" />
		<tag k="natural" v="shoal" />
		<tag k="place" v="locality" />
		<tag k="ssr:stedsnr" v="112876" />
	</node>
	<node id="-560704" lat="62.426919444" lon="5.81558611685">
		<tag k="name" v="Hella" />
		<tag k="natural" v="shoal" />
		<tag k="place" v="locality" />
		<tag k="ssr:stedsnr" v="112868" />
	</node>
	<node id="-560703" lat="62.4028111133" lon="5.79084443824">
		<tag k="alt_name" v="Søre Eggholmfluda" />
		<tag k="name" v="Søre Eggholmfalla" />
		<tag k="natural" v="shoal" />
		<tag k="place" v="locality" />
		<tag k="ssr:stedsnr" v="112866" />
	</node>
	<node id="-560702" lat="62.4710750017" lon="5.81714999561">
		<tag k="name" v="Breisunddjupet" />
		<tag k="place" v="locality" />
		<tag k="ssr:stedsnr" v="112916" />
	</node>
	<node id="-560701" lat="62.2490500022" lon="5.89716943529">
		<tag k="fixme" v="consider seamark:type=rock or natural=shoal" />
		<tag k="name" v="Bakarskjeret" />
		<tag k="place" v="islet" />
		<tag k="ssr:stedsnr" v="98868" />
	</node>
	<node id="-560700" lat="62.3074138908" lon="5.8212749904">
		<tag k="name" v="Kjerringneset" />
		<tag k="place" v="farm" />
		<tag k="ssr:stedsnr" v="96666" />
	</node>
	<node id="-560699" lat="62.2821361147" lon="5.88291110925">
		<tag k="name" v="Myremarka" />
		<tag k="place" v="locality" />
		<tag k="ssr:stedsnr" v="96665" />
	</node>
	<node id="-560698" lat="62.3478888877" lon="5.78547500364">
		<tag k="loc_name" v="Storbåtsvika" />
		<tag k="name" v="Storesandvika" />
		<tag k="natural" v="bay" />
		<tag k="ssr:stedsnr" v="96660" />
	</node>
	<node id="-560697" lat="62.3202861085" lon="5.80171388323">
		<tag k="name" v="Dimnamyrane" />
		<tag k="natural" v="wetland" />
		<tag k="ssr:stedsnr" v="96650" />
	</node>
	<node id="-560696" lat="62.3000555567" lon="5.78168055373">
		<tag k="name" v="Ramnereiret" />
		<tag k="natural" v="cliff" />
		<tag k="ssr:stedsnr" v="96646" />
	</node>
	<node id="-560695" lat="62.3727083289" lon="5.82796110377">
		<tag k="name" v="Oksehammaren" />
		<tag k="natural" v="cliff" />
		<tag k="ssr:stedsnr" v="96611" />
	</node>
	<node id="-560694" lat="62.398427778" lon="5.86181389714">
		<tag k="name" v="Ørstagrova" />
		<tag k="ssr:stedsnr" v="96605" />
		<tag k="waterway" v="stream" />
	</node>
	<node id="-560693" lat="62.4338361135" lon="5.87336389127">
		<tag k="name" v="Småstødene" />
		<tag k="place" v="locality" />
		<tag k="ssr:stedsnr" v="96599" />
	</node>
	<node id="-560692" lat="62.3956972251" lon="5.82983332616">
		<tag k="name" v="Ytstebarden" />
		<tag k="place" v="islet" />
		<tag k="ssr:stedsnr" v="96598" />
	</node>
	<node id="-560691" lat="62.2867444421" lon="5.86252222794">
		<tag k="alt_name" v="Haddalsura" />
		<tag k="name" v="Haddalura" />
		<tag k="natural" v="scree" />
		<tag k="ssr:stedsnr" v="96587" />
	</node>
	<node id="-560690" lat="62.3583833347" lon="5.83798054703">
		<tag k="alt_name" v="Raudelva" />
		<tag k="name" v="Raudeelva" />
		<tag k="ssr:stedsnr" v="96584" />
		<tag k="waterway" v="stream" />
	</node>
	<node id="-560689" lat="62.3059277814" lon="5.91988889287">
		<tag k="name" v="Surnakkane" />
		<tag k="natural" v="ridge" />
		<tag k="place" v="locality" />
		<tag k="ssr:stedsnr" v="96567" />
	</node>
	<node id="-560688" lat="62.3012027801" lon="5.91126944937">
		<tag k="name" v="Kroketura" />
		<tag k="natural" v="scree" />
		<tag k="ssr:stedsnr" v="96566" />
	</node>
	<node id="-560687" lat="62.3418833365" lon="5.84199721311">
		<tag k="name" v="Vikhylen" />
		<tag k="natural" v="bay" />
		<tag k="ssr:stedsnr" v="96531" />
	</node>
	<node id="-560686" lat="62.2494027761" lon="5.86783333712">
		<tag k="name" v="Havågsneset" />
		<tag k="natural" v="cape" />
		<tag k="ssr:stedsnr" v="96525" />
	</node>
	<node id="-560685" lat="62.2582027755" lon="5.84747499669">
		<tag k="name" v="Knipedalen" />
		<tag k="natural" v="valley" />
		<tag k="place" v="locality" />
		<tag k="ssr:stedsnr" v="96515" />
	</node>
	<node id="-560684" lat="62.3946250029" lon="5.83622499196">
		<tag k="name" v="Instebarden" />
		<tag k="place" v="locality" />
		<tag k="seamark:type" v="rock" />
		<tag k="ssr:stedsnr" v="96511" />
	</node>
	<node id="-560683" lat="62.2641888863" lon="5.92541665891">
		<tag k="name" v="Alstranda" />
		<tag k="natural" v="beach" />
		<tag k="place" v="locality" />
		<tag k="ssr:stedsnr" v="96510" />
	</node>
	<node id="-560682" lat="62.2594666686" lon="5.92268055817">
		<tag k="name" v="Bjørnaneset" />
		<tag k="natural" v="cape" />
		<tag k="ssr:stedsnr" v="96509" />
	</node>
	<node id="-560681" lat="62.2510750016" lon="5.82534999138">
		<tag k="name" v="Tuva" />
		<tag k="natural" v="hill" />
		<tag k="place" v="locality" />
		<tag k="ssr:stedsnr" v="96504" />
	</node>
	<node id="-560680" lat="62.2491361145" lon="5.91333334228">
		<tag k="name" v="Tangen" />
		<tag k="natural" v="cape" />
		<tag k="ssr:stedsnr" v="96492" />
	</node>
	<node id="-560679" lat="62.3717027799" lon="5.86065555484">
		<tag k="name" v="Morka" />
		<tag k="natural" v="slope" />
		<tag k="place" v="locality" />
		<tag k="ssr:stedsnr" v="96489" />
	</node>
	<node id="-560678" lat="62.2868694449" lon="5.83488055274">
		<tag k="name" v="Joholmen" />
		<tag k="place" v="islet" />
		<tag k="ssr:stedsnr" v="96483" />
	</node>
	<node id="-560677" lat="62.4019638887" lon="5.89257778523">
		<tag k="highway" v="path" />
		<tag k="name" v="Stigane" />
		<tag k="ssr:stedsnr" v="96479" />
	</node>
	<node id="-560676" lat="62.3968888861" lon="5.87561388736">
		<tag k="name" v="Småurene" />
		<tag k="natural" v="scree" />
		<tag k="ssr:stedsnr" v="96477" />
	</node>
	<node id="-560675" lat="62.2789444414" lon="5.86994167657">
		<tag k="name" v="Årvika" />
		<tag k="natural" v="bay" />
		<tag k="ssr:stedsnr" v="96468" />
	</node>
	<node id="-560674" lat="62.3088555595" lon="5.85545554777">
		<tag k="name" v="Garsholhaugen" />
		<tag k="natural" v="hill" />
		<tag k="place" v="locality" />
		<tag k="ssr:stedsnr" v="95484" />
	</node>
	<node id="-560673" lat="62.3171750016" lon="5.84633332719">
		<tag k="name" v="Storevågen" />
		<tag k="natural" v="bay" />
		<tag k="ssr:stedsnr" v="95518" />
	</node>
	<node id="-560672" lat="62.3175666708" lon="5.80457500248">
		<tag k="name" v="Hovstøylen" />
		<tag k="natural" v="hill" />
		<tag k="place" v="locality" />
		<tag k="ssr:stedsnr" v="95510" />
	</node>
	<node id="-560671" lat="62.2820861136" lon="5.86886944318">
		<tag k="name" v="Haddal" />
		<tag k="place" v="village" />
		<tag k="ssr:stedsnr" v="86916" />
	</node>
	<node id="-560670" lat="62.3292694459" lon="5.78474444436">
		<tag k="name" v="Kyrkjeneset" />
		<tag k="natural" v="cape" />
		<tag k="ssr:stedsnr" v="81357" />
	</node>
	<node id="-560669" lat="62.4026055513" lon="5.93885000666">
		<tag k="fixme" v="multiple name tags, choose one and add the other to alt_name; consider natural=peak for the most distinct mountains in the district" />
		<tag k="name" v="Sneldelida;Sneldelihorn" />
		<tag k="natural" v="hill" />
		<tag k="place" v="locality" />
		<tag k="ssr:stedsnr" v="72877" />
	</node>
	<node id="-560668" lat="62.3936583371" lon="5.87984999997">
		<tag k="name" v="Midtflødalen" />
		<tag k="natural" v="valley" />
		<tag k="place" v="locality" />
		<tag k="ssr:stedsnr" v="72859" />
	</node>
	<node id="-560667" lat="62.3280304139" lon="5.86549930029">
		<tag k="alt_name" v="Strandabø" />
		<tag k="fixme" v="consider place=hamlet" />
		<tag k="name" v="Strandabøen" />
		<tag k="place" v="farm" />
		<tag k="ssr:stedsnr" v="72785" />
	</node>
	<node id="-560666" lat="62.2381222193" lon="5.87225554782">
		<tag k="name" v="Langevågen" />
		<tag k="natural" v="bay" />
		<tag k="ssr:stedsnr" v="72159" />
	</node>
	<node id="-560665" lat="62.4677999966" lon="5.72889999406">
		<tag k="name" v="Håfluda" />
		<tag k="natural" v="shoal" />
		<tag k="place" v="locality" />
		<tag k="ssr:stedsnr" v="71995" />
	</node>
	<node id="-560664" lat="62.3783777745" lon="5.81876667338">
		<tag k="name" v="Gåsneset" />
		<tag k="natural" v="cape" />
		<tag k="ssr:stedsnr" v="71918" />
	</node>
	<node id="-560663" lat="62.3606472235" lon="5.82167222351">
		<tag k="fixme" v="consider place=hamlet" />
		<tag k="name" v="Ulstein" />
		<tag k="place" v="village" />
		<tag k="ssr:stedsnr" v="71896" />
	</node>
	<node id="-560662" lat="62.2521117904" lon="5.83706329827">
		<tag k="fixme" v="consider place=hamlet" />
		<tag k="name" v="Aursnes" />
		<tag k="place" v="farm" />
		<tag k="ssr:stedsnr" v="71230" />
	</node>
	<node id="-560661" lat="62.3549888863" lon="5.87415277687">
		<tag k="name" v="Vikeseterbakken" />
		<tag k="natural" v="slope" />
		<tag k="place" v="locality" />
		<tag k="ssr:stedsnr" v="59245" />
	</node>
	<node id="-560660" lat="62.3356888864" lon="5.9135444467">
		<tag k="name" v="Stortua" />
		<tag k="natural" v="hill" />
		<tag k="place" v="locality" />
		<tag k="ssr:stedsnr" v="59241" />
	</node>
	<node id="-560659" lat="62.3467833342" lon="5.87734721486">
		<tag k="name" v="Skjervene" />
		<tag k="natural" v="slope" />
		<tag k="place" v="locality" />
		<tag k="ssr:stedsnr" v="59236" />
	</node>
	<node id="-560658" lat="62.4200250037" lon="5.79510277844">
		<tag k="name" v="Djupefluda" />
		<tag k="natural" v="shoal" />
		<tag k="place" v="locality" />
		<tag k="ssr:stedsnr" v="52879" />
	</node>
	<node id="-560657" lat="62.328272223" lon="5.79131110279">
		<tag k="name" v="Kubben" />
		<tag k="place" v="islet" />
		<tag k="ssr:stedsnr" v="46457" />
	</node>
	<node id="-560656" lat="62.3277722238" lon="5.80104722577">
		<tag k="name" v="Skulehaugen" />
		<tag k="natural" v="hill" />
		<tag k="place" v="locality" />
		<tag k="ssr:stedsnr" v="35692" />
	</node>
	<node id="-560655" lat="62.3215805562" lon="5.7814833371">
		<tag k="name" v="Likhalneset" />
		<tag k="natural" v="cape" />
		<tag k="ssr:stedsnr" v="35687" />
	</node>
	<node id="-560654" lat="62.2850722181" lon="5.90698611318">
		<tag k="name" v="Undelaupselva" />
		<tag k="ssr:stedsnr" v="35638" />
		<tag k="waterway" v="stream" />
	</node>
	<node id="-560653" lat="62.274500002" lon="5.89380833634">
		<tag k="name" v="Sverinden" />
		<tag k="natural" v="ridge" />
		<tag k="place" v="locality" />
		<tag k="ssr:stedsnr" v="35637" />
	</node>
	<node id="-560652" lat="62.2842527769" lon="5.83661943831">
		<tag k="name" v="Garnesvatnet" />
		<tag k="natural" v="water" />
		<tag k="ssr:stedsnr" v="35634" />
	</node>
	<node id="-560651" lat="62.2830666687" lon="5.83621665694">
		<tag k="name" v="Vasstranda" />
		<tag k="natural" v="beach" />
		<tag k="place" v="locality" />
		<tag k="ssr:stedsnr" v="35633" />
	</node>
	<node id="-560650" lat="62.4063583325" lon="5.91775555187">
		<tag k="name" v="Kjempegrava" />
		<tag k="natural" v="valley" />
		<tag k="place" v="locality" />
		<tag k="ssr:stedsnr" v="35621" />
	</node>
	<node id="-560649" lat="62.3081111072" lon="5.90868056511">
		<tag k="name" v="Fjellsstranda" />
		<tag k="natural" v="beach" />
		<tag k="ssr:stedsnr" v="35619" />
	</node>
	<node id="-560648" lat="62.3009749976" lon="5.88401110835">
		<tag k="name" v="Bleikemyrbakkane" />
		<tag k="natural" v="slope" />
		<tag k="place" v="locality" />
		<tag k="ssr:stedsnr" v="35617" />
	</node>
	<node id="-560647" lat="62.3039333345" lon="5.90386110684">
		<tag k="name" v="Jarbryggja" />
		<tag k="natural" v="ridge" />
		<tag k="place" v="locality" />
		<tag k="ssr:stedsnr" v="35618" />
	</node>
	<node id="-560646" lat="62.3890972259" lon="5.9309138865">
		<tag k="name" v="Brørevatnet" />
		<tag k="natural" v="water" />
		<tag k="ssr:stedsnr" v="35610" />
		<tag k="water" v="lake" />
	</node>
	<node id="-560645" lat="62.347802777" lon="5.78086389825">
		<tag k="name" v="Tarevika" />
		<tag k="natural" v="bay" />
		<tag k="ssr:stedsnr" v="35604" />
	</node>
	<node id="-560644" lat="62.3054750018" lon="5.91670278554">
		<tag k="name" v="Bulia" />
		<tag k="natural" v="slope" />
		<tag k="place" v="locality" />
		<tag k="ssr:stedsnr" v="35594" />
	</node>
	<node id="-560643" lat="62.2497111114" lon="5.89201944945">
		<tag k="name" v="Kubbeteholmen" />
		<tag k="place" v="islet" />
		<tag k="ssr:stedsnr" v="35581" />
	</node>
	<node id="-560642" lat="62.2642250029" lon="5.83284722955">
		<tag k="name" v="Rundeholmen" />
		<tag k="place" v="islet" />
		<tag k="ssr:stedsnr" v="35572" />
	</node>
	<node id="-560641" lat="62.2551222261" lon="5.84531388262">
		<tag k="name" v="Hatledalen" />
		<tag k="natural" v="valley" />
		<tag k="place" v="locality" />
		<tag k="ssr:stedsnr" v="35568" />
	</node>
	<node id="-560640" lat="62.4104083359" lon="5.86019999601">
		<tag k="alt_name" v="Staberget" />
		<tag k="name" v="Storestaberget" />
		<tag k="natural" v="cape" />
		<tag k="ssr:stedsnr" v="35565" />
	</node>
	<node id="-560639" lat="62.3635750035" lon="5.82336110451">
		<tag k="name" v="Kolbeingarden" />
		<tag k="place" v="farm" />
		<tag k="ssr:stedsnr" v="35561" />
	</node>
	<node id="-560638" lat="62.3730833317" lon="5.84838611544">
		<tag k="fixme" v="consider natural=peak for the most distinct mountains in the district" />
		<tag k="name" v="Litlekoppen" />
		<tag k="natural" v="hill" />
		<tag k="place" v="locality" />
		<tag k="ssr:stedsnr" v="35560" />
	</node>
	<node id="-560637" lat="62.2544333349" lon="5.82571389665">
		<tag k="name" v="Osen" />
		<tag k="natural" v="bay" />
		<tag k="ssr:stedsnr" v="35554" />
	</node>
	<node id="-560636" lat="62.2595861129" lon="5.85082222029">
		<tag k="name" v="Ørnetuva" />
		<tag k="natural" v="hill" />
		<tag k="place" v="locality" />
		<tag k="ssr:stedsnr" v="35553" />
	</node>
	<node id="-560635" lat="62.234472221" lon="5.86194444471">
		<tag k="name" v="Båtsvika" />
		<tag k="natural" v="bay" />
		<tag k="ssr:stedsnr" v="35544" />
	</node>
	<node id="-560634" lat="62.3009388881" lon="5.84270555573">
		<tag k="name" v="Botnaura" />
		<tag k="natural" v="scree" />
		<tag k="ssr:stedsnr" v="35540" />
	</node>
	<node id="-560633" lat="62.4056010139" lon="5.8717899891">
		<tag k="name" v="Løkvia" />
		<tag k="place" v="locality" />
		<tag k="ssr:stedsnr" v="35533" />
	</node>
	<node id="-560632" lat="62.2713138885" lon="5.87421110199">
		<tag k="fixme" v="consider natural=peak for the most distinct mountains in the district" />
		<tag k="name" v="Hammaren" />
		<tag k="natural" v="hill" />
		<tag k="place" v="locality" />
		<tag k="ssr:stedsnr" v="35523" />
	</node>
	<node id="-560631" lat="62.3395778027" lon="5.86459171044">
		<tag k="fixme" v="consider place=hamlet" />
		<tag k="name" v="Holsekre" />
		<tag k="place" v="farm" />
		<tag k="ssr:stedsnr" v="35511" />
	</node>
	<node id="-560630" lat="62.3422805585" lon="5.83042222525">
		<tag k="name" v="Ottavikane" />
		<tag k="natural" v="bay" />
		<tag k="ssr:stedsnr" v="34618" />
	</node>
	<node id="-560629" lat="62.3283111144" lon="5.82849999006">
		<tag k="name" v="Vågevågen" />
		<tag k="natural" v="bay" />
		<tag k="ssr:stedsnr" v="34522" />
	</node>
	<node id="-560628" lat="62.2990166696" lon="5.86802499906">
		<tag k="name" v="Garneshornet" />
		<tag k="natural" v="hill" />
		<tag k="place" v="locality" />
		<tag k="ssr:stedsnr" v="34499" />
	</node>
	<node id="-560627" lat="62.2531009921" lon="5.90072505189">
		<tag k="fixme" v="consider place=hamlet" />
		<tag k="name" v="Eiksund" />
		<tag k="place" v="farm" />
		<tag k="ssr:stedsnr" v="25614" />
	</node>
	<node id="-560626" lat="62.3205833297" lon="5.78633611882">
		<tag k="name" v="Notaneset" />
		<tag k="natural" v="cape" />
		<tag k="ssr:stedsnr" v="20327" />
	</node>
	<node id="-560625" lat="62.4044777765" lon="5.91100277752">
		<tag k="fixme" v="consider natural=peak for the most distinct mountains in the district" />
		<tag k="name" v="Smørkinna" />
		<tag k="natural" v="hill" />
		<tag k="place" v="locality" />
		<tag k="ssr:stedsnr" v="11936" />
	</node>
	<node id="-560624" lat="62.4080432472" lon="5.86310045251">
		<tag k="alt_name" v="Flø, ytre" />
		<tag k="fixme" v="consider place=hamlet" />
		<tag k="name" v="Ytreflø" />
		<tag k="place" v="farm" />
		<tag k="ssr:stedsnr" v="11934" />
	</node>
	<node id="-560623" lat="62.3860527809" lon="5.79265555075">
		<tag k="name" v="Sandøya" />
		<tag k="place" v="islet" />
		<tag k="ssr:stedsnr" v="11891" />
	</node>
	<node id="-560622" lat="62.3285166628" lon="5.80617778635">
		<tag k="name" v="Hellestøda" />
		<tag k="natural" v="bay" />
		<tag k="ssr:stedsnr" v="11847" />
	</node>
	<node id="-560621" lat="62.3186371493" lon="5.79886296088">
		<tag k="alt_name" v="Dimna, indre" />
		<tag k="fixme" v="consider place=hamlet" />
		<tag k="name" v="Indre Dimna" />
		<tag k="place" v="farm" />
		<tag k="ssr:stedsnr" v="11783" />
	</node>
	<node id="-560620" lat="62.3109750011" lon="5.91051389564">
		<tag k="name" v="Fjellsvatnet" />
		<tag k="natural" v="water" />
		<tag k="ssr:stedsnr" v="11778" />
		<tag k="water" v="lake" />
	</node>
	<node id="-560619" lat="62.2937472255" lon="5.8304916699">
		<tag k="alt_name" v="Vedøya" />
		<tag k="name" v="Veøya" />
		<tag k="place" v="islet" />
		<tag k="ssr:stedsnr" v="11770" />
	</node>
	<node id="-560618" lat="62.3027055595" lon="5.81057500356">
		<tag k="alt_name" v="Ertesvågvågen" />
		<tag k="name" v="Ertesvågen" />
		<tag k="natural" v="bay" />
		<tag k="ssr:stedsnr" v="11752" />
	</node>
	<node id="-560617" lat="62.2971441357" lon="5.91017569195">
		<tag k="fixme" v="consider place=hamlet" />
		<tag k="name" v="Moldskred" />
		<tag k="place" v="farm" />
		<tag k="ssr:stedsnr" v="11142" />
	</node>
	<node id="-560616" lat="62.3007499979" lon="5.93599443592">
		<tag k="name" v="Løsetvatnet" />
		<tag k="natural" v="water" />
		<tag k="ssr:stedsnr" v="11141" />
		<tag k="water" v="lake" />
	</node>
	<node id="-560615" lat="62.2889900378" lon="5.89388514324">
		<tag k="fixme" v="consider place=hamlet" />
		<tag k="name" v="Ringstad" />
		<tag k="place" v="farm" />
		<tag k="ssr:stedsnr" v="11120" />
	</node>
	<node id="-560614" lat="62.3703472191" lon="5.87395556005">
		<tag k="name" v="Litlevatnet" />
		<tag k="natural" v="water" />
		<tag k="ssr:stedsnr" v="10855" />
	</node>
	<node id="-560613" lat="62.3673500042" lon="5.82254721475">
		<tag k="name" v="Ivagarden" />
		<tag k="place" v="farm" />
		<tag k="ssr:stedsnr" v="10850" />
	</node>
	<node id="-560612" lat="62.2550638856" lon="5.83488610605">
		<tag k="name" v="Aursnesvatnet" />
		<tag k="natural" v="water" />
		<tag k="ssr:stedsnr" v="10213" />
	</node>
	<node id="-560611" lat="62.2565585238" lon="5.91410877085">
		<tag k="alt_name" v="Ødegård" />
		<tag k="fixme" v="consider place=hamlet" />
		<tag k="name" v="Øygarden" />
		<tag k="place" v="farm" />
		<tag k="ssr:stedsnr" v="10210" />
	</node>
	<node id="-560610" lat="62.2812555572" lon="5.9392888978">
		<tag k="fixme" v="consider natural=peak for the most distinct mountains in the district" />
		<tag k="name" v="Laupen" />
		<tag k="natural" v="hill" />
		<tag k="place" v="locality" />
		<tag k="ssr:stedsnr" v="10187" />
	</node>
	<node id="-560609" lat="62.3744410136" lon="5.9086974868">
		<tag k="alt_name" v="Mosvatnelva" />
		<tag k="name" v="Mosvasselva" />
		<tag k="ssr:stedsnr" v="763717" />
		<tag k="waterway" v="river" />
	</node>
	<node id="-560608" lat="62.3553464938" lon="5.78035982941">
		<tag k="fixme" v="consider seamark:type=rock or natural=shoal" />
		<tag k="name" v="Bymannen" />
		<tag k="place" v="islet" />
		<tag k="ssr:stedsnr" v="989305" />
	</node>
	<node id="-560607" lat="62.2915434927" lon="5.8515033776">
		<tag k="junction" v="yes" />
		<tag k="name" v="Garneskrysset" />
		<tag k="place" v="locality" />
		<tag k="ssr:stedsnr" v="988838" />
	</node>
	<node id="-560606" lat="62.2821988117" lon="5.86866296581">
		<tag k="junction" v="yes" />
		<tag k="name" v="Haddalskrysset" />
		<tag k="place" v="locality" />
		<tag k="ssr:stedsnr" v="988839" />
	</node>
	<node id="-560605" lat="62.3158995698" lon="5.84078081973">
		<tag k="junction" v="yes" />
		<tag k="name" v="Sundgotkrysset" />
		<tag k="place" v="locality" />
		<tag k="ssr:stedsnr" v="988837" />
	</node>
	<node id="-560604" lat="62.3311992789" lon="5.86169328739">
		<tag k="junction" v="yes" />
		<tag k="name" v="Strandkrysset" />
		<tag k="place" v="locality" />
		<tag k="ssr:stedsnr" v="988835" />
	</node>
	<node id="-560603" lat="62.3186844605" lon="5.86580141894">
		<tag k="junction" v="yes" />
		<tag k="name" v="Hasundkrysset" />
		<tag k="place" v="locality" />
		<tag k="ssr:stedsnr" v="988836" />
	</node>
	<node id="-560602" lat="62.3386535138" lon="5.87051252557">
		<tag k="junction" v="yes" />
		<tag k="name" v="Dalakrysset" />
		<tag k="place" v="locality" />
		<tag k="ssr:stedsnr" v="988834" />
	</node>
	<node id="-560601" lat="62.338039422" lon="5.88168456986">
		<tag k="junction" v="yes" />
		<tag k="name" v="Saunesmarkkrysset" />
		<tag k="place" v="locality" />
		<tag k="ssr:stedsnr" v="988832" />
	</node>
	<node id="-560600" lat="62.3374285361" lon="5.87357827033">
		<tag k="junction" v="yes" />
		<tag k="name" v="Holsekerkrysset" />
		<tag k="place" v="locality" />
		<tag k="ssr:stedsnr" v="988833" />
	</node>
	<node id="-560599" lat="62.3406546815" lon="5.89273432683">
		<tag k="junction" v="yes" />
		<tag k="name" v="Varleitekrysset" />
		<tag k="place" v="locality" />
		<tag k="ssr:stedsnr" v="988830" />
	</node>
	<node id="-560598" lat="62.3392595004" lon="5.88600623942">
		<tag k="junction" v="yes" />
		<tag k="name" v="Høddkrysset" />
		<tag k="place" v="locality" />
		<tag k="ssr:stedsnr" v="988831" />
	</node>
	<node id="-560597" lat="62.3434384897" lon="5.87149436036">
		<tag k="junction" v="yes" />
		<tag k="name" v="Hovsetkrysset" />
		<tag k="place" v="locality" />
		<tag k="ssr:stedsnr" v="988829" />
	</node>
	<node id="-560596" lat="62.3421253416" lon="5.86719677257">
		<tag k="junction" v="yes" />
		<tag k="name" v="Støylekrysset" />
		<tag k="place" v="locality" />
		<tag k="ssr:stedsnr" v="988828" />
	</node>
	<node id="-560595" lat="62.3456595527" lon="5.85329197077">
		<tag k="junction" v="yes" />
		<tag k="name" v="Vikebakkrysset" />
		<tag k="place" v="locality" />
		<tag k="ssr:stedsnr" v="988827" />
	</node>
	<node id="-560594" lat="62.340717014" lon="5.85339577688">
		<tag k="junction" v="yes" />
		<tag k="name" v="Brattørakrysset" />
		<tag k="place" v="locality" />
		<tag k="ssr:stedsnr" v="988825" />
	</node>
	<node id="-560593" lat="62.345254817" lon="5.85134274565">
		<tag k="junction" v="yes" />
		<tag k="name" v="Skulekrysset" />
		<tag k="place" v="locality" />
		<tag k="ssr:stedsnr" v="988826" />
	</node>
	<node id="-560592" lat="62.3426767701" lon="5.84684985709">
		<tag k="junction" v="yes" />
		<tag k="name" v="Sjøgatekrysset" />
		<tag k="place" v="locality" />
		<tag k="ssr:stedsnr" v="988823" />
	</node>
	<node id="-560591" lat="62.3400559553" lon="5.85152863283">
		<tag k="junction" v="yes" />
		<tag k="name" v="Sauneskrysset" />
		<tag k="place" v="locality" />
		<tag k="ssr:stedsnr" v="988824" />
	</node>
	<node id="-560590" lat="62.3446980232" lon="5.83663635972">
		<tag k="junction" v="yes" />
		<tag k="name" v="Osneskrysset" />
		<tag k="place" v="locality" />
		<tag k="ssr:stedsnr" v="988822" />
	</node>
	<node id="-560589" lat="62.3456611783" lon="5.83536871694">
		<tag k="junction" v="yes" />
		<tag k="name" v="Reitenkrysset" />
		<tag k="place" v="locality" />
		<tag k="ssr:stedsnr" v="988821" />
	</node>
	<node id="-560588" lat="62.3558510974" lon="5.82520913128">
		<tag k="junction" v="yes" />
		<tag k="name" v="Skeidekrysset" />
		<tag k="place" v="locality" />
		<tag k="ssr:stedsnr" v="988820" />
	</node>
	<node id="-560586" lat="62.3315503715" lon="5.79953219481">
		<tag k="fixme" v="consider place=hamlet" />
		<tag k="name" v="Spjutøya" />
		<tag k="place" v="farm" />
		<tag k="ssr:stedsnr" v="982528" />
	</node>
	<node id="-560585" lat="62.3721948194" lon="5.78232166032">
		<tag k="fixme" v="consider place=hamlet" />
		<tag k="name" v="Vattøya" />
		<tag k="place" v="farm" />
		<tag k="ssr:stedsnr" v="982530" />
	</node>
	<node id="-560584" lat="62.2979737121" lon="5.79921654693">
		<tag k="fixme" v="consider place=hamlet" />
		<tag k="name" v="Røyra" />
		<tag k="place" v="farm" />
		<tag k="ssr:stedsnr" v="982513" />
	</node>
	<node id="-560583" lat="62.3630454217" lon="5.81959303669">
		<tag k="fixme" v="consider place=hamlet" />
		<tag k="name" v="Ulstein" />
		<tag k="place" v="farm" />
		<tag k="ssr:stedsnr" v="982473" />
	</node>
	<node id="-560582" lat="62.3788055573" lon="5.86286110139">
		<tag k="name" v="Kattatjønna" />
		<tag k="natural" v="water" />
		<tag k="old_name" v="Kattakjerna" />
		<tag k="ssr:stedsnr" v="885599" />
	</node>
	<node id="-560581" lat="62.4090305553" lon="5.85807500607">
		<tag k="name" v="Litlestaberget" />
		<tag k="natural" v="cape" />
		<tag k="ssr:stedsnr" v="885597" />
	</node>
	<node id="-560580" lat="62.2562888908" lon="5.82938334172">
		<tag k="name" v="Storsteinmyra" />
		<tag k="natural" v="wetland" />
		<tag k="ssr:stedsnr" v="885589" />
	</node>
	<node id="-560579" lat="62.3226333348" lon="5.84345278412">
		<tag k="name" v="Dagvishola" />
		<tag k="natural" v="bay" />
		<tag k="ssr:stedsnr" v="885555" />
	</node>
	<node id="-560578" lat="62.3717555569" lon="5.77480555176">
		<tag k="name" v="Færvika" />
		<tag k="natural" v="bay" />
		<tag k="ssr:stedsnr" v="885553" />
	</node>
	<node id="-560577" lat="62.3409722231" lon="5.77413332793">
		<tag k="name" v="Kalvøya" />
		<tag k="place" v="islet" />
		<tag k="ssr:stedsnr" v="885550" />
	</node>
	<node id="-560576" lat="62.3672000029" lon="5.77160555655">
		<tag k="alt_name" v="Vattøyskjeret" />
		<tag k="name" v="Ytre forløysinga" />
		<tag k="place" v="islet" />
		<tag k="ssr:stedsnr" v="885547" />
	</node>
	<node id="-560575" lat="62.2634805542" lon="5.85249999111">
		<tag k="name" v="Håheimshalsen" />
		<tag k="natural" v="ridge" />
		<tag k="place" v="locality" />
		<tag k="ssr:stedsnr" v="885542" />
	</node>
	<node id="-560574" lat="62.3605083299" lon="5.87655000029">
		<tag k="name" v="Breifjellet" />
		<tag k="natural" v="hill" />
		<tag k="place" v="locality" />
		<tag k="ssr:stedsnr" v="885505" />
	</node>
	<node id="-560573" lat="62.415208331" lon="5.91534444245">
		<tag k="name" v="Brekkene" />
		<tag k="natural" v="slope" />
		<tag k="place" v="locality" />
		<tag k="ssr:stedsnr" v="885474" />
	</node>
	<node id="-560572" lat="62.2856472182" lon="5.86910554692">
		<tag k="name" v="Nakken" />
		<tag k="natural" v="ridge" />
		<tag k="place" v="locality" />
		<tag k="ssr:stedsnr" v="885460" />
	</node>
	<node id="-560571" lat="62.3392954051" lon="5.77998407854">
		<tag k="fixme" v="consider place=hamlet" />
		<tag k="name" v="Litle Hatløy" />
		<tag k="place" v="farm" />
		<tag k="ssr:stedsnr" v="885439" />
	</node>
	<node id="-560570" lat="62.2888334293" lon="5.8461169558">
		<tag k="fixme" v="consider place=hamlet" />
		<tag k="name" v="Garnes" />
		<tag k="place" v="farm" />
		<tag k="ssr:stedsnr" v="885317" />
	</node>
	<node id="-560569" lat="62.3104333369" lon="5.86354999141">
		<tag k="name" v="Garsholelva" />
		<tag k="ssr:stedsnr" v="884524" />
		<tag k="waterway" v="stream" />
	</node>
	<node id="-560568" lat="62.3153694413" lon="5.81250832893">
		<tag k="name" v="Stemnehornet" />
		<tag k="natural" v="hill" />
		<tag k="place" v="locality" />
		<tag k="ssr:stedsnr" v="884516" />
	</node>
	<node id="-560567" lat="62.3377027749" lon="5.8574333369">
		<tag k="name" v="Alvehaugsletta" />
		<tag k="place" v="locality" />
		<tag k="ssr:stedsnr" v="884509" />
	</node>
	<node id="-560566" lat="62.2909055598" lon="5.9334166713">
		<tag k="name" v="Flåa" />
		<tag k="natural" v="slope" />
		<tag k="place" v="locality" />
		<tag k="ssr:stedsnr" v="479156" />
	</node>
	<node id="-560565" lat="62.3008361156" lon="5.94434722662">
		<tag k="name" v="Dalen" />
		<tag k="natural" v="valley" />
		<tag k="place" v="locality" />
		<tag k="ssr:stedsnr" v="479157" />
	</node>
	<node id="-560564" lat="62.3947361078" lon="5.83555834111">
		<tag k="fixme" v="consider seamark:type=rock or natural=shoal" />
		<tag k="name" v="Bardane" />
		<tag k="place" v="islet" />
		<tag k="ssr:stedsnr" v="476905" />
	</node>
	<node id="-560563" lat="62.3195527771" lon="5.79610277207">
		<tag k="name" v="Dimna" />
		<tag k="place" v="farm" />
		<tag k="ssr:stedsnr" v="476807" />
	</node>
	<node id="-560561" lat="62.2964416684" lon="5.79110832572">
		<tag k="name" v="Leirvågen" />
		<tag k="natural" v="bay" />
		<tag k="ssr:stedsnr" v="399648" />
	</node>
	<node id="-560560" lat="62.3731638911" lon="5.83629444489">
		<tag k="name" v="Langerysta" />
		<tag k="place" v="isolated_dwelling" />
		<tag k="ssr:stedsnr" v="399614" />
	</node>
	<node id="-560559" lat="62.386725003" lon="5.83040556389">
		<tag k="name" v="Fløstranda" />
		<tag k="natural" v="beach" />
		<tag k="place" v="locality" />
		<tag k="ssr:stedsnr" v="399609" />
	</node>
	<node id="-560558" lat="62.257405554" lon="5.82180000813">
		<tag k="name" v="Kakeneset" />
		<tag k="natural" v="cape" />
		<tag k="ssr:stedsnr" v="399596" />
	</node>
	<node id="-560557" lat="62.4007361101" lon="5.86626944801">
		<tag k="name" v="Kanefallet" />
		<tag k="natural" v="ridge" />
		<tag k="place" v="locality" />
		<tag k="ssr:stedsnr" v="399585" />
	</node>
	<node id="-560556" lat="62.3279305527" lon="5.78971111594">
		<tag k="name" v="Kuholmen" />
		<tag k="natural" v="cape" />
		<tag k="ssr:stedsnr" v="399568" />
	</node>
	<node id="-560555" lat="62.3451790225" lon="5.84786285034">
		<tag k="name" v="Einehaugen" />
		<tag k="place" v="farm" />
		<tag k="ssr:stedsnr" v="399565" />
	</node>
	<node id="-560554" lat="62.3062777754" lon="5.89431666011">
		<tag k="name" v="Flåna" />
		<tag k="place" v="locality" />
		<tag k="ssr:stedsnr" v="399560" />
	</node>
	<node id="-560553" lat="62.3009972259" lon="5.79676943737">
		<tag k="name" v="Flotane" />
		<tag k="place" v="locality" />
		<tag k="ssr:stedsnr" v="399553" />
	</node>
	<node id="-560552" lat="62.3470694403" lon="5.84513610482">
		<tag k="name" v="Legene" />
		<tag k="natural" v="slope" />
		<tag k="place" v="locality" />
		<tag k="ssr:stedsnr" v="399549" />
	</node>
	<node id="-560551" lat="62.2641305552" lon="5.85425277669">
		<tag k="name" v="Håheimstranda" />
		<tag k="natural" v="beach" />
		<tag k="place" v="locality" />
		<tag k="ssr:stedsnr" v="399530" />
	</node>
	<node id="-560550" lat="62.2483638844" lon="5.90441110332">
		<tag k="name" v="Bakarhaugen" />
		<tag k="natural" v="hill" />
		<tag k="place" v="locality" />
		<tag k="ssr:stedsnr" v="399517" />
	</node>
	<node id="-560549" lat="62.2588722261" lon="5.89338887967">
		<tag k="name" v="Eiksundelva" />
		<tag k="ssr:stedsnr" v="399515" />
		<tag k="waterway" v="stream" />
	</node>
	<node id="-560548" lat="62.4144500039" lon="5.88072223147">
		<tag k="highway" v="path" />
		<tag k="name" v="Gotene" />
		<tag k="ssr:stedsnr" v="399500" />
	</node>
	<node id="-560547" lat="62.4175527773" lon="5.91581667367">
		<tag k="name" v="Elvane" />
		<tag k="ssr:stedsnr" v="399490" />
		<tag k="waterway" v="stream" />
	</node>
	<node id="-560546" lat="62.3976833354" lon="5.83994445319">
		<tag k="fixme" v="consider seamark:type=rock or natural=shoal" />
		<tag k="name" v="Hella" />
		<tag k="place" v="islet" />
		<tag k="ssr:stedsnr" v="399489" />
	</node>
	<node id="-560545" lat="62.3629055542" lon="5.86097777946">
		<tag k="name" v="Ølkona" />
		<tag k="place" v="locality" />
		<tag k="ssr:stedsnr" v="399483" />
	</node>
	<node id="-560544" lat="62.3179444453" lon="5.8357250094">
		<tag k="name" v="Åsen" />
		<tag k="place" v="farm" />
		<tag k="ssr:stedsnr" v="399460" />
	</node>
	<node id="-560543" lat="62.3332972223" lon="5.81211111614">
		<tag k="name" v="Storholmen" />
		<tag k="place" v="islet" />
		<tag k="ssr:stedsnr" v="398623" />
	</node>
	<node id="-560542" lat="62.3130333377" lon="5.84820556389">
		<tag k="name" v="Garsholhølen" />
		<tag k="natural" v="bay" />
		<tag k="ssr:stedsnr" v="398543" />
	</node>
	<node id="-560541" lat="62.3096805565" lon="5.84506389621">
		<tag k="name" v="Sundgotstraumen" />
		<tag k="natural" v="strait" />
		<tag k="ssr:stedsnr" v="398538" />
	</node>
	<node id="-560540" lat="62.3252638906" lon="5.80836111884">
		<tag k="name" v="Hellestadberget" />
		<tag k="natural" v="hill" />
		<tag k="place" v="locality" />
		<tag k="ssr:stedsnr" v="398532" />
	</node>
	<node id="-560539" lat="62.2407999964" lon="5.89600278096">
		<tag k="fixme" v="consider natural=peak for the most distinct mountains in the district" />
		<tag k="name" v="Grønnakken" />
		<tag k="natural" v="hill" />
		<tag k="place" v="locality" />
		<tag k="ssr:stedsnr" v="392223" />
	</node>
	<node id="-560538" lat="62.3321527787" lon="5.79365555238">
		<tag k="alt_name" v="Litle Spjutøya;Litle Spjotøya" />
		<tag k="name" v="Litlespjøtøya" />
		<tag k="place" v="island" />
		<tag k="ssr:stedsnr" v="384353" />
	</node>
	<node id="-560537" lat="62.411322225" lon="5.91466943594">
		<tag k="alt_name" v="Djupemyrane" />
		<tag k="name" v="Djupmyrane" />
		<tag k="natural" v="wetland" />
		<tag k="ssr:stedsnr" v="375923" />
	</node>
	<node id="-560536" lat="62.4171222244" lon="5.91688610478">
		<tag k="name" v="Ytreflødalen" />
		<tag k="natural" v="valley" />
		<tag k="place" v="locality" />
		<tag k="ssr:stedsnr" v="375914" />
	</node>
	<node id="-560535" lat="62.3375055528" lon="5.82444722059">
		<tag k="alt_name" v="Sneingen" />
		<tag k="name" v="Sneiingen" />
		<tag k="place" v="islet" />
		<tag k="ssr:stedsnr" v="375775" />
	</node>
	<node id="-560534" lat="62.2978450774" lon="5.80213640216">
		<tag k="alt_name" v="Røyra, indre;Røyra" />
		<tag k="name" v="Indre Røyra" />
		<tag k="place" v="farm" />
		<tag k="ssr:stedsnr" v="375747" />
	</node>
	<node id="-560533" lat="62.300002776" lon="5.83614444851">
		<tag k="alt_name" v="Kvalneset" />
		<tag k="name" v="Kvalnes" />
		<tag k="place" v="farm" />
		<tag k="ssr:stedsnr" v="375125" />
	</node>
	<node id="-560532" lat="62.2863500016" lon="5.84033611882">
		<tag k="name" v="Gardnes" />
		<tag k="natural" v="cape" />
		<tag k="ssr:stedsnr" v="375110" />
	</node>
	<node id="-560531" lat="62.2568999983" lon="5.888691665">
		<tag k="name" v="Sætrehaugen" />
		<tag k="natural" v="hill" />
		<tag k="place" v="locality" />
		<tag k="ssr:stedsnr" v="374233" />
	</node>
	<node id="-560529" lat="62.3314472198" lon="5.90008055944">
		<tag k="name" v="Høgebrua" />
		<tag k="natural" v="slope" />
		<tag k="place" v="locality" />
		<tag k="ssr:stedsnr" v="362253" />
	</node>
	<node id="-560528" lat="62.3033138887" lon="5.93031111764">
		<tag k="name" v="Bukkholmen" />
		<tag k="place" v="islet" />
		<tag k="ssr:stedsnr" v="358150" />
	</node>
	<node id="-560527" lat="62.3978916647" lon="5.82109166874">
		<tag k="name" v="Djupklekken" />
		<tag k="natural" v="shoal" />
		<tag k="place" v="locality" />
		<tag k="ssr:stedsnr" v="355885" />
	</node>
	<node id="-560526" lat="62.3736166646" lon="5.82029722969">
		<tag k="name" v="Gåsnes" />
		<tag k="place" v="farm" />
		<tag k="ssr:stedsnr" v="355875" />
	</node>
	<node id="-560525" lat="62.3940166665" lon="5.7571694431">
		<tag k="name" v="Gullmunde" />
		<tag k="place" v="locality" />
		<tag k="seamark:type" v="rock" />
		<tag k="ssr:stedsnr" v="355867" />
	</node>
	<node id="-560524" lat="62.4280499978" lon="5.8345194419">
		<tag k="name" v="Flørauden" />
		<tag k="place" v="islet" />
		<tag k="ssr:stedsnr" v="355858" />
	</node>
	<node id="-560523" lat="62.2966555518" lon="5.80211111443">
		<tag k="name" v="Røyraneset" />
		<tag k="natural" v="cape" />
		<tag k="ssr:stedsnr" v="355777" />
	</node>
	<node id="-560522" lat="62.2640111084" lon="5.83855833424">
		<tag k="name" v="Naustneset" />
		<tag k="natural" v="cape" />
		<tag k="ssr:stedsnr" v="339487" />
	</node>
	<node id="-560521" lat="62.3929055549" lon="5.93406667095">
		<tag k="name" v="Sneldelimyrane" />
		<tag k="natural" v="wetland" />
		<tag k="ssr:stedsnr" v="339298" />
	</node>
	<node id="-560520" lat="62.3974916677" lon="5.91050000511">
		<tag k="name" v="Høgestøylen" />
		<tag k="place" v="locality" />
		<tag k="ssr:stedsnr" v="338628" />
	</node>
	<node id="-560519" lat="62.3459999976" lon="5.77434999734">
		<tag k="name" v="Skjåneset" />
		<tag k="natural" v="cape" />
		<tag k="ssr:stedsnr" v="338621" />
	</node>
	<node id="-560518" lat="62.3401527792" lon="5.79288888901">
		<tag k="name" v="Skarveskjeret" />
		<tag k="place" v="islet" />
		<tag k="ssr:stedsnr" v="338614" />
	</node>
	<node id="-560517" lat="62.3242888886" lon="5.79250000226">
		<tag k="name" v="Sethaugen" />
		<tag k="natural" v="hill" />
		<tag k="place" v="locality" />
		<tag k="ssr:stedsnr" v="338607" />
	</node>
	<node id="-560516" lat="62.2707500011" lon="5.86693611179">
		<tag k="highway" v="path" />
		<tag k="name" v="Geitstigen" />
		<tag k="ssr:stedsnr" v="338533" />
	</node>
	<node id="-560515" lat="62.3496583295" lon="5.8522472282">
		<tag k="name" v="Onglasætra" />
		<tag k="place" v="locality" />
		<tag k="ssr:stedsnr" v="338500" />
	</node>
	<node id="-560514" lat="62.2972194447" lon="5.7743138794">
		<tag k="name" v="Bentvika" />
		<tag k="natural" v="bay" />
		<tag k="ssr:stedsnr" v="338474" />
	</node>
	<node id="-560513" lat="62.3471472184" lon="5.85215000267">
		<tag k="name" v="Vikebakkane" />
		<tag k="natural" v="slope" />
		<tag k="place" v="locality" />
		<tag k="ssr:stedsnr" v="338464" />
	</node>
	<node id="-560512" lat="62.2532666682" lon="5.88231943601">
		<tag k="name" v="Espehaugen" />
		<tag k="natural" v="hill" />
		<tag k="place" v="locality" />
		<tag k="ssr:stedsnr" v="338438" />
	</node>
	<node id="-560511" lat="62.245902776" lon="5.8820722312">
		<tag k="name" v="Langeneset" />
		<tag k="natural" v="cape" />
		<tag k="ssr:stedsnr" v="338434" />
	</node>
	<node id="-560510" lat="62.2409972205" lon="5.88378055906">
		<tag k="name" v="Storevatnet" />
		<tag k="natural" v="water" />
		<tag k="ssr:stedsnr" v="338410" />
	</node>
	<node id="-560509" lat="62.2614833365" lon="5.84109999258">
		<tag k="name" v="Rabben" />
		<tag k="natural" v="ridge" />
		<tag k="place" v="locality" />
		<tag k="ssr:stedsnr" v="338404" />
	</node>
	<node id="-560508" lat="62.2473777811" lon="5.86423333092">
		<tag k="name" v="Bismaren" />
		<tag k="place" v="islet" />
		<tag k="ssr:stedsnr" v="338403" />
	</node>
	<node id="-560507" lat="62.2575111068" lon="5.85151389209">
		<tag k="name" v="Bruna" />
		<tag k="natural" v="ridge" />
		<tag k="place" v="locality" />
		<tag k="ssr:stedsnr" v="338400" />
	</node>
	<node id="-560506" lat="62.3531944472" lon="5.8509388896">
		<tag k="fixme" v="consider natural=peak for the most distinct mountains in the district" />
		<tag k="name" v="Årkinna" />
		<tag k="natural" v="hill" />
		<tag k="place" v="locality" />
		<tag k="ssr:stedsnr" v="338394" />
	</node>
	<node id="-560505" lat="62.3444138892" lon="5.86573888316">
		<tag k="name" v="Anholen" />
		<tag k="natural" v="hill" />
		<tag k="place" v="locality" />
		<tag k="ssr:stedsnr" v="338391" />
	</node>
	<node id="-560504" lat="62.4218027781" lon="5.92028889463">
		<tag k="name" v="Ospehola" />
		<tag k="natural" v="bay" />
		<tag k="ssr:stedsnr" v="338385" />
	</node>
	<node id="-560503" lat="62.3058222217" lon="5.81076943665">
		<tag k="name" v="Stranda" />
		<tag k="place" v="farm" />
		<tag k="ssr:stedsnr" v="338360" />
	</node>
	<node id="-560502" lat="62.3444194479" lon="5.85606388835">
		<tag k="name" v="Låna" />
		<tag k="place" v="farm" />
		<tag k="ssr:stedsnr" v="338355" />
	</node>
	<node id="-560501" lat="62.3429166644" lon="5.80223055653">
		<tag k="name" v="Kloholmane" />
		<tag k="place" v="islet" />
		<tag k="ssr:stedsnr" v="325856" />
	</node>
	<node id="-560500" lat="62.3987944446" lon="5.77527778385">
		<tag k="name" v="Martinsfluda" />
		<tag k="natural" v="shoal" />
		<tag k="place" v="locality" />
		<tag k="ssr:stedsnr" v="314896" />
	</node>
	<node id="-560499" lat="62.4230138906" lon="5.74619722224">
		<tag k="name" v="Skjervøya" />
		<tag k="place" v="island" />
		<tag k="ssr:stedsnr" v="314885" />
	</node>
	<node id="-560498" lat="62.3623583317" lon="5.86019721983">
		<tag k="fixme" v="consider natural=peak for the most distinct mountains in the district" />
		<tag k="name" v="Tverrvadet" />
		<tag k="natural" v="hill" />
		<tag k="place" v="locality" />
		<tag k="ssr:stedsnr" v="314842" />
	</node>
	<node id="-560497" lat="62.3506932354" lon="5.82874704706">
		<tag k="fixme" v="consider place=hamlet" />
		<tag k="name" v="Skeide" />
		<tag k="place" v="farm" />
		<tag k="ssr:stedsnr" v="314820" />
	</node>
	<node id="-560496" lat="62.3431638912" lon="5.84867222982">
		<tag k="name" v="Ulsteinvik" />
		<tag k="place" v="town" />
		<tag k="ssr:stedsnr" v="314818" />
	</node>
	<node id="-560495" lat="62.3410861116" lon="5.79656944495">
		<tag k="alt_name" v="Litle Klauvholmen" />
		<tag k="name" v="Kloholmen, søre" />
		<tag k="place" v="islet" />
		<tag k="ssr:stedsnr" v="314816" />
	</node>
	<node id="-560494" lat="62.3280555566" lon="5.8347750026">
		<tag k="name" v="Gjerdet" />
		<tag k="place" v="farm" />
		<tag k="ssr:stedsnr" v="314812" />
	</node>
	<node id="-560493" lat="62.3381444426" lon="5.88406945106">
		<tag k="name" v="Holsekredalen" />
		<tag k="natural" v="valley" />
		<tag k="old_name" v="Holsekdalen" />
		<tag k="place" v="locality" />
		<tag k="ssr:stedsnr" v="314797" />
	</node>
	<node id="-560492" lat="62.3317472269" lon="5.86960556186">
		<tag k="name" v="Alvehaugen" />
		<tag k="natural" v="hill" />
		<tag k="place" v="locality" />
		<tag k="ssr:stedsnr" v="314795" />
	</node>
	<node id="-560491" lat="62.3042694472" lon="5.84443888105">
		<tag k="name" v="Botnavika" />
		<tag k="natural" v="bay" />
		<tag k="ssr:stedsnr" v="314745" />
	</node>
	<node id="-560490" lat="62.2791777737" lon="5.94935555897">
		<tag k="name" v="Laupsneset" />
		<tag k="natural" v="cape" />
		<tag k="ssr:stedsnr" v="314648" />
	</node>
	<node id="-560489" lat="62.274972226" lon="5.92519722941">
		<tag k="historic" v="shieling" />
		<tag k="name" v="Eiksundsætra" />
		<tag k="place" v="locality" />
		<tag k="ssr:stedsnr" v="314186" />
	</node>
	<node id="-560488" lat="62.2958111109" lon="5.84696667589">
		<tag k="alt_name" v="Langeneset" />
		<tag k="name" v="Langenes" />
		<tag k="place" v="farm" />
		<tag k="ssr:stedsnr" v="314175" />
	</node>
	<node id="-560487" lat="62.2383916668" lon="5.86495000473">
		<tag k="alt_name" v="Meisterholmane" />
		<tag k="name" v="Meisterholmen" />
		<tag k="place" v="islet" />
		<tag k="ssr:stedsnr" v="314159" />
	</node>
	<node id="-560486" lat="62.2859972216" lon="5.88940833874">
		<tag k="name" v="Ringstaddalen" />
		<tag k="natural" v="valley" />
		<tag k="place" v="locality" />
		<tag k="ssr:stedsnr" v="314152" />
	</node>
	<node id="-560485" lat="62.3671055532" lon="5.86076666685">
		<tag k="name" v="Tverberget" />
		<tag k="place" v="locality" />
		<tag k="ssr:stedsnr" v="302278" />
	</node>
	<node id="-560484" lat="62.3542916653" lon="5.85951945096">
		<tag k="name" v="Høgskjerven" />
		<tag k="place" v="locality" />
		<tag k="ssr:stedsnr" v="302277" />
	</node>
	<node id="-560483" lat="62.3509500038" lon="5.89239443818">
		<tag k="name" v="Svartholen" />
		<tag k="place" v="locality" />
		<tag k="ssr:stedsnr" v="302258" />
	</node>
	<node id="-560482" lat="62.2913388876" lon="5.94699166266">
		<tag k="name" v="Bukketrappene" />
		<tag k="place" v="locality" />
		<tag k="ssr:stedsnr" v="298147" />
	</node>
	<node id="-560481" lat="62.3495083372" lon="5.81030555845">
		<tag k="name" v="Tjuvholmkråkene" />
		<tag k="natural" v="shoal" />
		<tag k="place" v="locality" />
		<tag k="ssr:stedsnr" v="294991" />
	</node>
	<node id="-560480" lat="62.2515194475" lon="5.8142777696">
		<tag k="name" v="Aursnespynten" />
		<tag k="natural" v="cape" />
		<tag k="ssr:stedsnr" v="294769" />
	</node>
	<node id="-560479" lat="62.2490277792" lon="5.9122777816">
		<tag k="name" v="Sundhaugen" />
		<tag k="natural" v="cape" />
		<tag k="ssr:stedsnr" v="294348" />
	</node>
	<node id="-560478" lat="62.2219833338" lon="5.880433331">
		<tag k="name" v="Ausefluda" />
		<tag k="natural" v="shoal" />
		<tag k="place" v="locality" />
		<tag k="ssr:stedsnr" v="294341" />
	</node>
	<node id="-560477" lat="62.3219916634" lon="5.77555832836">
		<tag k="name" v="Jaktevågen" />
		<tag k="natural" v="bay" />
		<tag k="ssr:stedsnr" v="278695" />
	</node>
	<node id="-560476" lat="62.3078250026" lon="5.79375000626">
		<tag k="fixme" v="consider natural=peak for the most distinct mountains in the district" />
		<tag k="name" v="Sandvikfjellet" />
		<tag k="natural" v="hill" />
		<tag k="place" v="locality" />
		<tag k="ssr:stedsnr" v="278674" />
	</node>
	<node id="-560475" lat="62.4167444468" lon="5.89236944778">
		<tag k="name" v="Kjerringryggen" />
		<tag k="natural" v="ridge" />
		<tag k="place" v="locality" />
		<tag k="ssr:stedsnr" v="278633" />
	</node>
	<node id="-560474" lat="62.325649996" lon="5.7833666599">
		<tag k="name" v="Teigehaugen" />
		<tag k="natural" v="hill" />
		<tag k="place" v="locality" />
		<tag k="ssr:stedsnr" v="278589" />
	</node>
	<node id="-560473" lat="62.3452666637" lon="5.83550000348">
		<tag k="name" v="Krushammaren" />
		<tag k="natural" v="hill" />
		<tag k="place" v="locality" />
		<tag k="ssr:stedsnr" v="278587" />
	</node>
	<node id="-560472" lat="62.3182500028" lon="5.85540833431">
		<tag k="name" v="Dekka" />
		<tag k="natural" v="bay" />
		<tag k="ssr:stedsnr" v="278583" />
	</node>
	<node id="-560471" lat="62.2582888898" lon="5.88657222592">
		<tag k="name" v="Inste Havågselva" />
		<tag k="ssr:stedsnr" v="278561" />
		<tag k="waterway" v="stream" />
	</node>
	<node id="-560470" lat="62.2615638867" lon="5.83143054891">
		<tag k="name" v="Olaholmen" />
		<tag k="place" v="islet" />
		<tag k="ssr:stedsnr" v="278555" />
	</node>
	<node id="-560469" lat="62.2649777769" lon="5.85406665759">
		<tag k="alt_name" v="Hagardsvika" />
		<tag k="name" v="Haggardsvika" />
		<tag k="natural" v="bay" />
		<tag k="ssr:stedsnr" v="278553" />
	</node>
	<node id="-560468" lat="62.2488833376" lon="5.86416944733">
		<tag k="name" v="Havågsneset" />
		<tag k="natural" v="cape" />
		<tag k="ssr:stedsnr" v="278546" />
	</node>
	<node id="-560467" lat="62.2540388882" lon="5.91495834272">
		<tag k="name" v="Arehaugen" />
		<tag k="natural" v="hill" />
		<tag k="place" v="locality" />
		<tag k="ssr:stedsnr" v="278542" />
	</node>
	<node id="-560466" lat="62.2586666685" lon="5.87920277338">
		<tag k="fixme" v="consider natural=peak for the most distinct mountains in the district" />
		<tag k="name" v="Høgenakken" />
		<tag k="natural" v="hill" />
		<tag k="place" v="locality" />
		<tag k="ssr:stedsnr" v="278543" />
	</node>
	<node id="-560465" lat="62.399344445" lon="5.85931666028">
		<tag k="name" v="Blåhamrane" />
		<tag k="natural" v="slope" />
		<tag k="place" v="locality" />
		<tag k="ssr:stedsnr" v="278540" />
	</node>
	<node id="-560464" lat="62.2581888924" lon="5.90792222721">
		<tag k="name" v="Øggardselva" />
		<tag k="ssr:stedsnr" v="278539" />
		<tag k="waterway" v="stream" />
	</node>
	<node id="-560463" lat="62.2841999958" lon="5.92644166587">
		<tag k="name" v="Skorene" />
		<tag k="natural" v="valley" />
		<tag k="place" v="locality" />
		<tag k="ssr:stedsnr" v="278533" />
	</node>
	<node id="-560462" lat="62.3461111096" lon="5.83588056007">
		<tag k="name" v="Reiten" />
		<tag k="place" v="farm" />
		<tag k="ssr:stedsnr" v="278490" />
	</node>
	<node id="-560461" lat="62.2832500014" lon="5.87070000783">
		<tag k="name" v="Bakkane" />
		<tag k="place" v="farm" />
		<tag k="ssr:stedsnr" v="278478" />
	</node>
	<node id="-560460" lat="62.3107166689" lon="5.81166666413">
		<tag k="name" v="Blåfjellet" />
		<tag k="natural" v="hill" />
		<tag k="place" v="locality" />
		<tag k="ssr:stedsnr" v="277552" />
	</node>
	<node id="-560459" lat="62.3174583359" lon="5.81676944281">
		<tag k="name" v="Litlenakken" />
		<tag k="natural" v="hill" />
		<tag k="place" v="locality" />
		<tag k="ssr:stedsnr" v="277545" />
	</node>
	<node id="-560458" lat="62.2465888899" lon="5.89578333417">
		<tag k="bridge" v="yes" />
		<tag k="layer" v="1" />
		<tag k="name" v="Eiksundbrua" />
		<tag k="ssr:stedsnr" v="274703" />
	</node>
	<node id="-561243" lat="62.3193138875" lon="5.92422499653">
		<tag k="name" v="Stranda" />
		<tag k="natural" v="beach" />
		<tag k="ssr:stedsnr" v="969269" />
	</node>
	<node id="-561242" lat="62.4339222261" lon="5.77719443872">
		<tag k="name" v="Breifluda" />
		<tag k="natural" v="shoal" />
		<tag k="place" v="locality" />
		<tag k="ssr:stedsnr" v="962874" />
	</node>
	<node id="-561241" lat="62.4606361117" lon="5.74561666841">
		<tag k="name" v="Småskallane" />
		<tag k="natural" v="shoal" />
		<tag k="place" v="locality" />
		<tag k="ssr:stedsnr" v="962267" />
	</node>
	<node id="-561240" lat="62.3622277789" lon="5.82391944143">
		<tag k="name" v="Jørnhaugane" />
		<tag k="place" v="farm" />
		<tag k="ssr:stedsnr" v="946581" />
	</node>
	<node id="-561239" lat="62.383686111" lon="5.85595556369">
		<tag k="name" v="Trollvatnet" />
		<tag k="natural" v="water" />
		<tag k="ssr:stedsnr" v="946579" />
	</node>
	<node id="-561238" lat="62.3951527748" lon="5.8586694529">
		<tag k="name" v="Skjenhaugane" />
		<tag k="natural" v="hill" />
		<tag k="place" v="locality" />
		<tag k="ssr:stedsnr" v="946575" />
	</node>
	<node id="-561237" lat="62.3770638866" lon="5.83045277851">
		<tag k="name" v="Hettelegdene" />
		<tag k="natural" v="slope" />
		<tag k="place" v="locality" />
		<tag k="ssr:stedsnr" v="946573" />
	</node>
	<node id="-561236" lat="62.3971083362" lon="5.85434722292">
		<tag k="name" v="Indrefløbukta" />
		<tag k="natural" v="slope" />
		<tag k="place" v="locality" />
		<tag k="ssr:stedsnr" v="946571" />
	</node>
	<node id="-561235" lat="62.2673666685" lon="5.88805554732">
		<tag k="name" v="Dyrskaret" />
		<tag k="natural" v="valley" />
		<tag k="place" v="locality" />
		<tag k="ssr:stedsnr" v="946563" />
	</node>
	<node id="-561234" lat="62.3869583333" lon="5.79629166646">
		<tag k="name" v="Sandøyklubben" />
		<tag k="place" v="islet" />
		<tag k="ssr:stedsnr" v="946554" />
	</node>
	<node id="-561233" lat="62.4147472222" lon="5.91053333572">
		<tag k="name" v="Anlekkjene" />
		<tag k="natural" v="slope" />
		<tag k="place" v="locality" />
		<tag k="ssr:stedsnr" v="946537" />
	</node>
	<node id="-561232" lat="62.2923249991" lon="5.85906389774">
		<tag k="name" v="Garneselva" />
		<tag k="ssr:stedsnr" v="946528" />
		<tag k="waterway" v="stream" />
	</node>
	<node id="-561231" lat="62.3729111074" lon="5.79055832828">
		<tag k="name" v="Hamnøya" />
		<tag k="place" v="islet" />
		<tag k="ssr:stedsnr" v="946517" />
	</node>
	<node id="-561230" lat="62.3293166664" lon="5.78868611665">
		<tag k="alt_name" v="Buholmen" />
		<tag k="name" v="Rundholmen" />
		<tag k="place" v="islet" />
		<tag k="ssr:stedsnr" v="946510" />
	</node>
	<node id="-561229" lat="62.3225888915" lon="5.78611944153">
		<tag k="name" v="Storhaugen" />
		<tag k="natural" v="hill" />
		<tag k="place" v="locality" />
		<tag k="ssr:stedsnr" v="946504" />
	</node>
	<node id="-561228" lat="62.3139333319" lon="5.85056111944">
		<tag k="name" v="Hasundholmen" />
		<tag k="place" v="islet" />
		<tag k="ssr:stedsnr" v="946499" />
	</node>
	<node id="-561227" lat="62.3018555547" lon="5.8166138801">
		<tag k="name" v="Draget" />
		<tag k="place" v="locality" />
		<tag k="ssr:stedsnr" v="946493" />
	</node>
	<node id="-561226" lat="62.2895000014" lon="5.8672333348">
		<tag k="name" v="Blåura" />
		<tag k="natural" v="wetland" />
		<tag k="ssr:stedsnr" v="946489" />
	</node>
	<node id="-561225" lat="62.303024996" lon="5.91043055436">
		<tag k="name" v="Naven" />
		<tag k="natural" v="slope" />
		<tag k="place" v="locality" />
		<tag k="ssr:stedsnr" v="946485" />
	</node>
	<node id="-561224" lat="62.3672499968" lon="5.86661944734">
		<tag k="name" v="Tverrberget" />
		<tag k="natural" v="hill" />
		<tag k="place" v="locality" />
		<tag k="ssr:stedsnr" v="946464" />
	</node>
	<node id="-561223" lat="62.4049388929" lon="5.87437499973">
		<tag k="fixme" v="consider natural=peak for the most distinct mountains in the district" />
		<tag k="name" v="Fløhornet" />
		<tag k="natural" v="hill" />
		<tag k="place" v="locality" />
		<tag k="ssr:stedsnr" v="946461" />
	</node>
	<node id="-561222" lat="62.2572944474" lon="5.90152221754">
		<tag k="name" v="Eiksundberget" />
		<tag k="natural" v="slope" />
		<tag k="place" v="locality" />
		<tag k="ssr:stedsnr" v="946458" />
	</node>
	<node id="-561221" lat="62.3189416657" lon="5.84994166418">
		<tag k="name" v="Valen" />
		<tag k="natural" v="bay" />
		<tag k="ssr:stedsnr" v="946432" />
	</node>
	<node id="-561220" lat="62.3667583312" lon="5.83977500589">
		<tag k="name" v="Kåpa" />
		<tag k="place" v="isolated_dwelling" />
		<tag k="ssr:stedsnr" v="946421" />
	</node>
	<node id="-561219" lat="62.3273333355" lon="5.77526667194">
		<tag k="name" v="Teigesundet" />
		<tag k="natural" v="strait" />
		<tag k="ssr:stedsnr" v="945617" />
	</node>
	<node id="-561218" lat="62.324397222" lon="5.79678055019">
		<tag k="name" v="Storehaugen" />
		<tag k="natural" v="hill" />
		<tag k="place" v="locality" />
		<tag k="ssr:stedsnr" v="945613" />
	</node>
	<node id="-561217" lat="62.3327500028" lon="5.81653056025">
		<tag k="alt_name" v="Vågholmane" />
		<tag k="name" v="Vågeholmane" />
		<tag k="place" v="islet" />
		<tag k="ssr:stedsnr" v="945602" />
	</node>
	<node id="-561216" lat="62.3187777792" lon="5.81515833697">
		<tag k="name" v="Vågemyrane" />
		<tag k="natural" v="wetland" />
		<tag k="ssr:stedsnr" v="945511" />
	</node>
	<node id="-561215" lat="62.2398777734" lon="5.88914166736">
		<tag k="fixme" v="consider natural=peak for the most distinct mountains in the district" />
		<tag k="name" v="Eikenakken" />
		<tag k="natural" v="hill" />
		<tag k="place" v="locality" />
		<tag k="ssr:stedsnr" v="938192" />
	</node>
	<node id="-561214" lat="62.2866666667" lon="5.84077777714">
		<tag k="loc_name" v="Gardnes" />
		<tag k="name" v="Garnes" />
		<tag k="place" v="farm" />
		<tag k="ssr:stedsnr" v="937095" />
	</node>
	<node id="-561212" lat="62.3411666668" lon="5.87670277003">
		<tag k="leisure" v="pitch" />
		<tag k="name" v="Høddvoll" />
		<tag k="ssr:stedsnr" v="921843" />
	</node>
	<node id="-561211" lat="62.3306250041" lon="5.77189165832">
		<tag k="name" v="Kalvøya" />
		<tag k="place" v="islet" />
		<tag k="ssr:stedsnr" v="921838" />
	</node>
	<node id="-561209" lat="62.2370138922" lon="5.89130000397">
		<tag k="name" v="Einehola" />
		<tag k="place" v="farm" />
		<tag k="ssr:stedsnr" v="921169" />
	</node>
	<node id="-561208" lat="62.3003166666" lon="5.89377499951">
		<tag k="alt_name" v="Garnestua" />
		<tag k="fixme" v="consider natural=peak for the most distinct mountains in the district" />
		<tag k="name" v="Gardnestua" />
		<tag k="natural" v="hill" />
		<tag k="place" v="locality" />
		<tag k="ssr:stedsnr" v="921157" />
	</node>
	<node id="-561207" lat="62.2484111152" lon="5.87667777312">
		<tag k="name" v="Havågsholmane" />
		<tag k="place" v="islet" />
		<tag k="ssr:stedsnr" v="921146" />
	</node>
	<node id="-561206" lat="62.4151694413" lon="5.72581666041">
		<tag k="alt_name" v="Tekleskjeret" />
		<tag k="fixme" v="consider seamark:type=rock or natural=shoal" />
		<tag k="name" v="Ertenskjeret" />
		<tag k="place" v="islet" />
		<tag k="ssr:stedsnr" v="921905" />
	</node>
	<node id="-561205" lat="62.4187222209" lon="5.84519165996">
		<tag k="name" v="Svædet" />
		<tag k="natural" v="shoal" />
		<tag k="place" v="locality" />
		<tag k="ssr:stedsnr" v="921901" />
	</node>
	<node id="-561204" lat="62.3135638877" lon="5.92259167543">
		<tag k="name" v="Geitaryggen" />
		<tag k="natural" v="ridge" />
		<tag k="place" v="locality" />
		<tag k="ssr:stedsnr" v="908283" />
	</node>
	<node id="-561203" lat="62.4073500038" lon="5.84945000176">
		<tag k="alt_name" v="Ærstein" />
		<tag k="name" v="Ærsteinen" />
		<tag k="natural" v="shoal" />
		<tag k="place" v="locality" />
		<tag k="ssr:stedsnr" v="901918" />
	</node>
	<node id="-561202" lat="62.4249388877" lon="5.94865832927">
		<tag k="name" v="Litle Buhammaren" />
		<tag k="natural" v="cape" />
		<tag k="ssr:stedsnr" v="901920" />
	</node>
	<node id="-561201" lat="62.4417388868" lon="5.85982778017">
		<tag k="name" v="Fossen" />
		<tag k="natural" v="shoal" />
		<tag k="place" v="locality" />
		<tag k="ssr:stedsnr" v="901876" />
	</node>
	<node id="-561200" lat="62.3409055519" lon="5.81239722177">
		<tag k="name" v="Boholmen" />
		<tag k="place" v="islet" />
		<tag k="ssr:stedsnr" v="901809" />
	</node>
	<node id="-561199" lat="62.3339944438" lon="5.78584722527">
		<tag k="alt_name" v="Søyla" />
		<tag k="name" v="Søylene" />
		<tag k="natural" v="strait" />
		<tag k="ssr:stedsnr" v="861840" />
	</node>
	<node id="-561198" lat="62.3192543152" lon="5.84445303241">
		<tag k="fixme" v="consider place=hamlet" />
		<tag k="name" v="Dimnasund" />
		<tag k="place" v="farm" />
		<tag k="ssr:stedsnr" v="861805" />
	</node>
	<node id="-561196" lat="62.3038416626" lon="5.85561944255">
		<tag k="name" v="Botnabakken" />
		<tag k="place" v="farm" />
		<tag k="ssr:stedsnr" v="861731" />
	</node>
	<node id="-561195" lat="62.2920916712" lon="5.90288056165">
		<tag k="name" v="Berg" />
		<tag k="place" v="farm" />
		<tag k="ssr:stedsnr" v="861125" />
	</node>
	<node id="-561194" lat="62.409133331" lon="5.80682221589">
		<tag k="name" v="Eggholmen" />
		<tag k="place" v="islet" />
		<tag k="ssr:stedsnr" v="860936" />
	</node>
	<node id="-561193" lat="62.3600499999" lon="5.8353472145">
		<tag k="fixme" v="consider natural=peak for the most distinct mountains in the district" />
		<tag k="name" v="Nibben" />
		<tag k="natural" v="hill" />
		<tag k="place" v="locality" />
		<tag k="ssr:stedsnr" v="860895" />
	</node>
	<node id="-561192" lat="62.3545023872" lon="5.77502004662">
		<tag k="fixme" v="consider seamark:type=rock or natural=shoal" />
		<tag k="name" v="Galten" />
		<tag k="place" v="islet" />
		<tag k="ssr:stedsnr" v="860887" />
	</node>
	<node id="-561191" lat="62.3784305593" lon="5.86748055508">
		<tag k="alt_name" v="Kjelvatnet" />
		<tag k="name" v="Kjellstjørna" />
		<tag k="natural" v="water" />
		<tag k="ssr:stedsnr" v="860875" />
	</node>
	<node id="-561190" lat="62.2513027788" lon="5.85840277229">
		<tag k="alt_name" v="Selvågholmen" />
		<tag k="name" v="Selvågsholmen" />
		<tag k="place" v="islet" />
		<tag k="ssr:stedsnr" v="860245" />
	</node>
	<node id="-561189" lat="62.2675277813" lon="5.84448889756">
		<tag k="name" v="Furøya" />
		<tag k="place" v="islet" />
		<tag k="ssr:stedsnr" v="860201" />
	</node>
	<node id="-561188" lat="62.2618405817" lon="5.837598684">
		<tag k="fixme" v="consider place=hamlet" />
		<tag k="name" v="Håheim" />
		<tag k="place" v="farm" />
		<tag k="ssr:stedsnr" v="860189" />
	</node>
	<node id="-561187" lat="62.2461861069" lon="5.89813888039">
		<tag k="name" v="Hjellvika" />
		<tag k="place" v="farm" />
		<tag k="ssr:stedsnr" v="860172" />
	</node>
	<node id="-561186" lat="62.3257166639" lon="5.89090278177">
		<tag k="name" v="Høgebru" />
		<tag k="place" v="locality" />
		<tag k="ssr:stedsnr" v="848292" />
	</node>
	<node id="-561185" lat="62.3546833375" lon="5.85941943819">
		<tag k="name" v="Høgskjerva" />
		<tag k="natural" v="slope" />
		<tag k="place" v="locality" />
		<tag k="ssr:stedsnr" v="848276" />
	</node>
	<node id="-561184" lat="62.3412583336" lon="5.87065278637">
		<tag k="name" v="Støylane" />
		<tag k="place" v="farm" />
		<tag k="ssr:stedsnr" v="848270" />
	</node>
	<node id="-561183" lat="62.3584750024" lon="5.88501667532">
		<tag k="name" v="Dalsmunnen" />
		<tag k="place" v="locality" />
		<tag k="ssr:stedsnr" v="848263" />
	</node>
	<node id="-561182" lat="62.3442638855" lon="5.87288610943">
		<tag k="name" v="Klovningen" />
		<tag k="natural" v="slope" />
		<tag k="place" v="locality" />
		<tag k="ssr:stedsnr" v="848258" />
	</node>
	<node id="-561181" lat="62.3902666661" lon="5.86682221297">
		<tag k="name" v="Bjørnenakken" />
		<tag k="place" v="locality" />
		<tag k="ssr:stedsnr" v="846834" />
	</node>
	<node id="-561180" lat="62.3052290198" lon="5.92912116669">
		<tag k="fixme" v="consider place=hamlet" />
		<tag k="name" v="Løset" />
		<tag k="place" v="farm" />
		<tag k="ssr:stedsnr" v="846116" />
	</node>
	<node id="-561179" lat="62.3085638929" lon="5.93714722976">
		<tag k="name" v="Nakken" />
		<tag k="natural" v="ridge" />
		<tag k="place" v="locality" />
		<tag k="ssr:stedsnr" v="846115" />
	</node>
	<node id="-561178" lat="62.3015916628" lon="5.94013610295">
		<tag k="name" v="Kattavika" />
		<tag k="natural" v="bay" />
		<tag k="ssr:stedsnr" v="844154" />
	</node>
	<node id="-561177" lat="62.2991444448" lon="5.95491943613">
		<tag k="name" v="Kipskaret" />
		<tag k="natural" v="valley" />
		<tag k="place" v="locality" />
		<tag k="ssr:stedsnr" v="844150" />
	</node>
	<node id="-561176" lat="62.3335944424" lon="5.77443333077">
		<tag k="name" v="Kalvøysundet" />
		<tag k="natural" v="strait" />
		<tag k="ssr:stedsnr" v="841787" />
	</node>
	<node id="-561175" lat="62.241724999" lon="5.82869999966">
		<tag k="fixme" v="consider seamark:type=rock or natural=shoal" />
		<tag k="name" v="Brudeskoen" />
		<tag k="place" v="islet" />
		<tag k="ssr:stedsnr" v="841750" />
	</node>
	<node id="-561174" lat="62.2298499956" lon="5.87461666713">
		<tag k="name" v="Eikefluda" />
		<tag k="natural" v="shoal" />
		<tag k="place" v="locality" />
		<tag k="ssr:stedsnr" v="841341" />
	</node>
	<node id="-561173" lat="62.3444407083" lon="5.8480910046">
		<tag k="fixme" v="consider place=hamlet" />
		<tag k="name" v="Vik" />
		<tag k="place" v="farm" />
		<tag k="ssr:stedsnr" v="825233" />
	</node>
	<node id="-561172" lat="62.3415277733" lon="5.76788333103">
		<tag k="name" v="Grøneholmen" />
		<tag k="place" v="islet" />
		<tag k="ssr:stedsnr" v="824660" />
	</node>
	<node id="-561171" lat="62.345388649" lon="5.78371095396">
		<tag k="fixme" v="consider place=hamlet" />
		<tag k="name" v="Store Hatløy" />
		<tag k="place" v="farm" />
		<tag k="ssr:stedsnr" v="824655" />
	</node>
	<node id="-561170" lat="62.32431111" lon="5.771566665">
		<tag k="name" v="Saudehammaren" />
		<tag k="natural" v="cliff" />
		<tag k="ssr:stedsnr" v="824651" />
	</node>
	<node id="-561169" lat="62.322363891" lon="5.7813138797">
		<tag k="name" v="Langevågen" />
		<tag k="natural" v="bay" />
		<tag k="ssr:stedsnr" v="824650" />
	</node>
	<node id="-561168" lat="62.3106194481" lon="5.78840278294">
		<tag k="alt_name" v="Sandvika" />
		<tag k="name" v="Storesandvika" />
		<tag k="natural" v="bay" />
		<tag k="ssr:stedsnr" v="824646" />
	</node>
	<node id="-561167" lat="62.2870444465" lon="5.89830555957">
		<tag k="name" v="Smådalane" />
		<tag k="natural" v="valley" />
		<tag k="place" v="locality" />
		<tag k="ssr:stedsnr" v="824597" />
	</node>
	<node id="-561166" lat="62.3631388925" lon="5.84012221393">
		<tag k="name" v="Ulsteindalen" />
		<tag k="natural" v="valley" />
		<tag k="place" v="locality" />
		<tag k="ssr:stedsnr" v="824584" />
	</node>
	<node id="-561165" lat="62.3181749983" lon="5.85079166652">
		<tag k="name" v="Grasneset" />
		<tag k="natural" v="cape" />
		<tag k="ssr:stedsnr" v="824578" />
	</node>
	<node id="-561164" lat="62.3141055573" lon="5.85317499649">
		<tag k="name" v="Hasundvågen" />
		<tag k="natural" v="bay" />
		<tag k="ssr:stedsnr" v="824577" />
	</node>
	<node id="-561163" lat="62.3486555572" lon="5.8557000008">
		<tag k="name" v="Tytebærhaugen" />
		<tag k="natural" v="hill" />
		<tag k="place" v="locality" />
		<tag k="ssr:stedsnr" v="824569" />
	</node>
	<node id="-561162" lat="62.3003361107" lon="5.90046944169">
		<tag k="name" v="Myrkevassegga" />
		<tag k="natural" v="ridge" />
		<tag k="place" v="locality" />
		<tag k="ssr:stedsnr" v="824563" />
	</node>
	<node id="-561161" lat="62.2975083302" lon="5.88890556272">
		<tag k="fixme" v="consider natural=peak for the most distinct mountains in the district" />
		<tag k="name" v="Gråsteinnotten" />
		<tag k="natural" v="hill" />
		<tag k="place" v="locality" />
		<tag k="ssr:stedsnr" v="824562" />
	</node>
	<node id="-561160" lat="62.303174999" lon="5.82046111316">
		<tag k="name" v="Dragholmen" />
		<tag k="place" v="islet" />
		<tag k="ssr:stedsnr" v="824555" />
	</node>
	<node id="-561159" lat="62.3927277786" lon="5.77471388049">
		<tag k="bay" v="fjord" />
		<tag k="name" v="Grasøyfjorden" />
		<tag k="natural" v="bay" />
		<tag k="ssr:stedsnr" v="824549" />
	</node>
	<node id="-561158" lat="62.3161833354" lon="5.84555554887">
		<tag k="name" v="Varden" />
		<tag k="natural" v="hill" />
		<tag k="place" v="locality" />
		<tag k="ssr:stedsnr" v="824544" />
	</node>
	<node id="-561157" lat="62.3038249965" lon="5.87210278013">
		<tag k="name" v="Aksla" />
		<tag k="natural" v="ridge" />
		<tag k="place" v="locality" />
		<tag k="ssr:stedsnr" v="824540" />
	</node>
	<node id="-561156" lat="62.2881638871" lon="5.84061389188">
		<tag k="name" v="Hamrane" />
		<tag k="natural" v="cliff" />
		<tag k="ssr:stedsnr" v="824537" />
	</node>
	<node id="-561155" lat="62.2993444484" lon="5.87678333784">
		<tag k="name" v="Kopane" />
		<tag k="natural" v="water" />
		<tag k="ssr:stedsnr" v="824535" />
	</node>
	<node id="-561154" lat="62.2501611147" lon="5.88271388404">
		<tag k="name" v="Breiholmen" />
		<tag k="place" v="island" />
		<tag k="ssr:stedsnr" v="824510" />
	</node>
	<node id="-561153" lat="62.2652277735" lon="5.83621111405">
		<tag k="name" v="Kjeholmen" />
		<tag k="place" v="islet" />
		<tag k="ssr:stedsnr" v="824505" />
	</node>
</osm>
