<?xml version="1.0" encoding="UTF-8"?>
<<<<<<< HEAD
<osm version="0.6" generator="osmapis">
	<node lat="62.25655852377828" lon="5.914108770847414" id="-1332">
		<tag k="alt_name" v="Ødegård" />
		<tag k="fixme" v="consider place=hamlet" />
		<tag k="name" v="Øygarden" />
		<tag k="place" v="farm" />
		<tag k="ssr:stedsnr" v="10210" />
	</node>
	<node lat="62.296033333042466" lon="5.845208342910832" id="-1336">
		<tag k="name" v="Garnesgrenda" />
		<tag k="place" v="hamlet" />
		<tag k="ssr:stedsnr" v="234819" />
	</node>
	<node lat="62.339577802681305" lon="5.864591710442654" id="-1340">
=======
<osm generator="osmapis" version="0.6">
	<node id="-62464" lat="62.2832500014" lon="5.87070000783">
		<tag k="name" v="Bakkane" />
		<tag k="place" v="farm" />
		<tag k="ssr:stedsnr" v="278478" />
	</node>
	<node id="-62972" lat="62.3480611154" lon="5.82878332542">
		<tag k="name" v="Vollane" />
		<tag k="place" v="farm" />
		<tag k="ssr:stedsnr" v="521433" />
	</node>
	<node id="-62965" lat="62.3216138901" lon="5.8462694475">
		<tag k="name" v="Kvianeset" />
		<tag k="place" v="farm" />
		<tag k="ssr:stedsnr" v="436809" />
	</node>
	<node id="-62962" lat="62.3139436047" lon="5.90578438392">
		<tag k="fixme" v="consider place=hamlet" />
		<tag k="loc_name" v="Fjella" />
		<tag k="name" v="Fjelle" />
		<tag k="place" v="farm" />
		<tag k="ssr:stedsnr" v="436752" />
	</node>
	<node id="-62448" lat="62.3074138908" lon="5.8212749904">
		<tag k="name" v="Kjerringneset" />
		<tag k="place" v="farm" />
		<tag k="ssr:stedsnr" v="96666" />
	</node>
	<node id="-62958" lat="62.3598138866" lon="5.82494999319">
		<tag k="alt_name" v="Søre Ulstein" />
		<tag k="name" v="Ulstein" />
		<tag k="place" v="farm" />
		<tag k="ssr:stedsnr" v="435896" />
	</node>
	<node id="-62948" lat="62.3731638911" lon="5.83629444489">
		<tag k="name" v="Langerysta" />
		<tag k="place" v="isolated_dwelling" />
		<tag k="ssr:stedsnr" v="399614" />
	</node>
	<node id="-62432" lat="62.2543154486" lon="5.85524864581">
		<tag k="alt_name" v="Selvågane" />
		<tag k="fixme" v="consider place=hamlet" />
		<tag k="name" v="Selvåg" />
		<tag k="place" v="farm" />
		<tag k="ssr:stedsnr" v="253244" />
	</node>
	<node id="-62943" lat="62.3451790225" lon="5.84786285034">
		<tag k="name" v="Einehaugen" />
		<tag k="place" v="farm" />
		<tag k="ssr:stedsnr" v="399565" />
	</node>
	<node id="-62430" lat="62.2820861136" lon="5.86886944318">
		<tag k="name" v="Haddal" />
		<tag k="place" v="village" />
		<tag k="ssr:stedsnr" v="86916" />
	</node>
	<node id="-62428" lat="62.373222221" lon="5.88367500004">
		<tag k="historic" v="shieling" />
		<tag k="name" v="Brunesetra" />
		<tag k="place" v="locality" />
		<tag k="ssr:stedsnr" v="241234" />
	</node>
	<node id="-62421" lat="62.296033333" lon="5.84520834291">
		<tag k="name" v="Garnesgrenda" />
		<tag k="place" v="hamlet" />
		<tag k="ssr:stedsnr" v="234819" />
	</node>
	<node id="-62932" lat="62.3179444453" lon="5.8357250094">
		<tag k="name" v="Åsen" />
		<tag k="place" v="farm" />
		<tag k="ssr:stedsnr" v="399460" />
	</node>
	<node id="-63139" lat="62.3052290198" lon="5.92912116669">
		<tag k="fixme" v="consider place=hamlet" />
		<tag k="name" v="Løset" />
		<tag k="place" v="farm" />
		<tag k="ssr:stedsnr" v="846116" />
	</node>
	<node id="-62414" lat="62.4080432472" lon="5.86310045251">
		<tag k="alt_name" v="Flø, ytre" />
		<tag k="fixme" v="consider place=hamlet" />
		<tag k="name" v="Ytreflø" />
		<tag k="place" v="farm" />
		<tag k="ssr:stedsnr" v="11934" />
	</node>
	<node id="-62413" lat="62.3673500042" lon="5.82254721475">
		<tag k="name" v="Ivagarden" />
		<tag k="place" v="farm" />
		<tag k="ssr:stedsnr" v="10850" />
	</node>
	<node id="-62921" lat="62.3736166646" lon="5.82029722969">
		<tag k="name" v="Gåsnes" />
		<tag k="place" v="farm" />
		<tag k="ssr:stedsnr" v="355875" />
	</node>
	<node id="-62915" lat="62.3974916677" lon="5.91050000511">
		<tag k="name" v="Høgestøylen" />
		<tag k="place" v="locality" />
		<tag k="ssr:stedsnr" v="338628" />
	</node>
	<node id="-62910" lat="62.3496583295" lon="5.8522472282">
		<tag k="name" v="Onglasætra" />
		<tag k="place" v="locality" />
		<tag k="ssr:stedsnr" v="338500" />
	</node>
	<node id="-62453" lat="62.232510467" lon="5.87301436611">
		<tag k="fixme" v="consider place=hamlet" />
		<tag k="name" v="Eika" />
		<tag k="place" v="farm" />
		<tag k="ssr:stedsnr" v="132152" />
	</node>
	<node id="-62898" lat="62.3058222217" lon="5.81076943665">
		<tag k="name" v="Stranda" />
		<tag k="place" v="farm" />
		<tag k="ssr:stedsnr" v="338360" />
	</node>
	<node id="-62897" lat="62.3444194479" lon="5.85606388835">
		<tag k="name" v="Låna" />
		<tag k="place" v="farm" />
		<tag k="ssr:stedsnr" v="338355" />
	</node>
	<node id="-62536" lat="62.3506932354" lon="5.82874704706">
		<tag k="fixme" v="consider place=hamlet" />
		<tag k="name" v="Skeide" />
		<tag k="place" v="farm" />
		<tag k="ssr:stedsnr" v="314820" />
	</node>
	<node id="-62888" lat="62.274972226" lon="5.92519722941">
		<tag k="historic" v="shieling" />
		<tag k="name" v="Eiksundsætra" />
		<tag k="place" v="locality" />
		<tag k="ssr:stedsnr" v="314186" />
	</node>
	<node id="-62879" lat="62.3660388878" lon="5.82369165809">
		<tag k="name" v="Jensgarden" />
		<tag k="place" v="farm" />
		<tag k="ssr:stedsnr" v="192872" />
	</node>
	<node id="-62533" lat="62.3280555566" lon="5.8347750026">
		<tag k="name" v="Gjerdet" />
		<tag k="place" v="farm" />
		<tag k="ssr:stedsnr" v="314812" />
	</node>
	<node id="-62867" lat="62.2722916628" lon="5.92544443936">
		<tag k="barrier" v="fence" />
		<tag k="name" v="Fjellsteinane" />
		<tag k="ssr:stedsnr" v="157557" />
	</node>
	<node id="-62847" lat="62.3263277793" lon="5.81389443882">
		<tag k="name" v="Vågeskaret" />
		<tag k="place" v="farm" />
		<tag k="ssr:stedsnr" v="156549" />
	</node>
	<node id="-62843" lat="62.2934926613" lon="5.90575999904">
		<tag k="fixme" v="consider place=hamlet" />
		<tag k="name" v="Svora" />
		<tag k="place" v="farm" />
		<tag k="ssr:stedsnr" v="156418" />
	</node>
	<node id="-62842" lat="62.3151222266" lon="5.82434443897">
		<tag k="name" v="Gjerdsbakkane" />
		<tag k="place" v="farm" />
		<tag k="ssr:stedsnr" v="156415" />
	</node>
	<node id="-62838" lat="62.3627305544" lon="5.82367499102">
		<tag k="name" v="Gjerdet" />
		<tag k="place" v="farm" />
		<tag k="ssr:stedsnr" v="132863" />
	</node>
	<node id="-62837" lat="62.3228386735" lon="5.79576840213">
		<tag k="fixme" v="consider place=hamlet" />
		<tag k="name" v="Ytre-Dimna" />
		<tag k="place" v="farm" />
		<tag k="ssr:stedsnr" v="132772" />
	</node>
	<node id="-62831" lat="62.2772428542" lon="5.87432255808">
		<tag k="alt_name" v="Haddal, indre" />
		<tag k="fixme" v="consider place=hamlet" />
		<tag k="name" v="Indre Haddal" />
		<tag k="place" v="farm" />
		<tag k="ssr:stedsnr" v="131181" />
	</node>
	<node id="-62802" lat="62.3280304139" lon="5.86549930029">
		<tag k="alt_name" v="Strandabø" />
		<tag k="fixme" v="consider place=hamlet" />
		<tag k="name" v="Strandabøen" />
		<tag k="place" v="farm" />
		<tag k="ssr:stedsnr" v="72785" />
	</node>
	<node id="-62799" lat="62.3606472235" lon="5.82167222351">
		<tag k="fixme" v="consider place=hamlet" />
		<tag k="name" v="Ulstein" />
		<tag k="place" v="village" />
		<tag k="ssr:stedsnr" v="71896" />
	</node>
	<node id="-62798" lat="62.2521117904" lon="5.83706329827">
>>>>>>> e1d4bc35ff8a6074a6f2e91616a996b547c36f15
		<tag k="fixme" v="consider place=hamlet" />
		<tag k="name" v="Holsekre" />
		<tag k="place" v="farm" />
		<tag k="ssr:stedsnr" v="35511" />
	</node>
<<<<<<< HEAD
	<node lat="62.36357500347049" lon="5.823361104514592" id="-1343">
=======
	<node id="-63115" lat="62.4048760488" lon="5.85739830182">
		<tag k="fixme" v="consider place=hamlet" />
		<tag k="name" v="Midtflø" />
		<tag k="place" v="farm" />
		<tag k="ssr:stedsnr" v="800935" />
	</node>
	<node id="-62431" lat="62.2525888467" lon="5.87549042597">
		<tag k="fixme" v="consider place=hamlet" />
		<tag k="name" v="Havåg" />
		<tag k="old_name" v="Havågane" />
		<tag k="place" v="farm" />
		<tag k="ssr:stedsnr" v="253243" />
	</node>
	<node id="-62776" lat="62.3635750035" lon="5.82336110451">
>>>>>>> e1d4bc35ff8a6074a6f2e91616a996b547c36f15
		<tag k="name" v="Kolbeingarden" />
		<tag k="place" v="farm" />
		<tag k="ssr:stedsnr" v="35561" />
	</node>
<<<<<<< HEAD
	<node lat="62.30741389082279" lon="5.821274990395231" id="-1369">
		<tag k="name" v="Kjerringneset" />
=======
	<node id="-62770" lat="62.4056010139" lon="5.8717899891">
		<tag k="name" v="Løkvia" />
		<tag k="place" v="locality" />
		<tag k="ssr:stedsnr" v="35533" />
	</node>
	<node id="-62768" lat="62.3395778027" lon="5.86459171044">
		<tag k="fixme" v="consider place=hamlet" />
		<tag k="name" v="Holsekre" />
		<tag k="place" v="farm" />
		<tag k="ssr:stedsnr" v="35511" />
	</node>
	<node id="-62764" lat="62.2531009921" lon="5.90072505189">
		<tag k="fixme" v="consider place=hamlet" />
		<tag k="name" v="Eiksund" />
>>>>>>> e1d4bc35ff8a6074a6f2e91616a996b547c36f15
		<tag k="place" v="farm" />
		<tag k="ssr:stedsnr" v="96666" />
	</node>
<<<<<<< HEAD
	<node lat="62.27724285418799" lon="5.874322558084322" id="-1379">
		<tag k="alt_name" v="Haddal, indre" />
=======
	<node id="-62760" lat="62.3186371493" lon="5.79886296088">
		<tag k="alt_name" v="Dimna, indre" />
>>>>>>> e1d4bc35ff8a6074a6f2e91616a996b547c36f15
		<tag k="fixme" v="consider place=hamlet" />
		<tag k="name" v="Indre Haddal" />
		<tag k="place" v="farm" />
		<tag k="ssr:stedsnr" v="131181" />
	</node>
<<<<<<< HEAD
	<node lat="62.36273055441903" lon="5.823674991016334" id="-1386">
		<tag k="name" v="Gjerdet" />
=======
	<node id="-62756" lat="62.2971441357" lon="5.91017569195">
		<tag k="fixme" v="consider place=hamlet" />
		<tag k="name" v="Moldskred" />
>>>>>>> e1d4bc35ff8a6074a6f2e91616a996b547c36f15
		<tag k="place" v="farm" />
		<tag k="ssr:stedsnr" v="132863" />
	</node>
<<<<<<< HEAD
	<node lat="62.32632777925103" lon="5.813894438823826" id="-1395">
		<tag k="name" v="Vågeskaret" />
=======
	<node id="-62754" lat="62.2889900378" lon="5.89388514324">
		<tag k="fixme" v="consider place=hamlet" />
		<tag k="name" v="Ringstad" />
>>>>>>> e1d4bc35ff8a6074a6f2e91616a996b547c36f15
		<tag k="place" v="farm" />
		<tag k="ssr:stedsnr" v="156549" />
	</node>
<<<<<<< HEAD
	<node lat="62.31512222661539" lon="5.824344438967963" id="-1396">
		<tag k="name" v="Gjerdsbakkane" />
=======
	<node id="-62751" lat="62.2565585238" lon="5.91410877085">
		<tag k="alt_name" v="Ødegård" />
		<tag k="fixme" v="consider place=hamlet" />
		<tag k="name" v="Øygarden" />
>>>>>>> e1d4bc35ff8a6074a6f2e91616a996b547c36f15
		<tag k="place" v="farm" />
		<tag k="ssr:stedsnr" v="156415" />
	</node>
<<<<<<< HEAD
	<node lat="62.29349266126435" lon="5.905759999044661" id="-1397">
=======
	<node id="-62750" lat="62.3721948194" lon="5.78232166032">
>>>>>>> e1d4bc35ff8a6074a6f2e91616a996b547c36f15
		<tag k="fixme" v="consider place=hamlet" />
		<tag k="name" v="Svora" />
		<tag k="place" v="farm" />
		<tag k="ssr:stedsnr" v="156418" />
	</node>
<<<<<<< HEAD
	<node lat="62.272291662765355" lon="5.925444439360048" id="-1404">
		<tag k="barrier" v="fence" />
		<tag k="name" v="Fjellsteinane" />
		<tag k="ssr:stedsnr" v="157557" />
	</node>
	<node lat="62.327533334246766" lon="5.833433330968609" id="-1411">
		<tag k="name" v="Skjervane" />
=======
	<node id="-62739" lat="62.2888334293" lon="5.8461169558">
		<tag k="fixme" v="consider place=hamlet" />
		<tag k="name" v="Garnes" />
		<tag k="place" v="farm" />
		<tag k="ssr:stedsnr" v="885317" />
	</node>
	<node id="-62735" lat="62.3622277789" lon="5.82391944143">
		<tag k="name" v="Jørnhaugane" />
>>>>>>> e1d4bc35ff8a6074a6f2e91616a996b547c36f15
		<tag k="place" v="farm" />
		<tag k="ssr:stedsnr" v="217416" />
	</node>
<<<<<<< HEAD
	<node lat="62.37322222103526" lon="5.883675000044096" id="-1419">
		<tag k="historic" v="shieling" />
		<tag k="name" v="Brunesetra" />
=======
	<node id="-62715" lat="62.3667583312" lon="5.83977500589">
		<tag k="name" v="Kåpa" />
>>>>>>> e1d4bc35ff8a6074a6f2e91616a996b547c36f15
		<tag k="place" v="isolated_dwelling" />
		<tag k="ssr:stedsnr" v="241234" />
	</node>
<<<<<<< HEAD
	<node lat="62.252588846722766" lon="5.875490425974665" id="-1420">
=======
	<node id="-62710" lat="62.3192543152" lon="5.84445303241">
>>>>>>> e1d4bc35ff8a6074a6f2e91616a996b547c36f15
		<tag k="fixme" v="consider place=hamlet" />
		<tag k="name" v="Havåg" />
		<tag k="old_name" v="Havågane" />
		<tag k="place" v="farm" />
		<tag k="ssr:stedsnr" v="253243" />
	</node>
<<<<<<< HEAD
	<node lat="62.254315448624666" lon="5.855248645807117" id="-1421">
		<tag k="alt_name" v="Selvågane" />
		<tag k="fixme" v="consider place=hamlet" />
		<tag k="name" v="Selvåg" />
=======
	<node id="-62709" lat="62.2461861069" lon="5.89813888039">
		<tag k="name" v="Hjellvika" />
>>>>>>> e1d4bc35ff8a6074a6f2e91616a996b547c36f15
		<tag k="place" v="farm" />
		<tag k="ssr:stedsnr" v="253244" />
	</node>
<<<<<<< HEAD
	<node lat="62.28325000143282" lon="5.870700007834759" id="-1424">
		<tag k="name" v="Bakkane" />
=======
	<node id="-62706" lat="62.2866666667" lon="5.84077777714">
		<tag k="loc_name" v="Gardnes" />
		<tag k="name" v="Garnes" />
>>>>>>> e1d4bc35ff8a6074a6f2e91616a996b547c36f15
		<tag k="place" v="farm" />
		<tag k="ssr:stedsnr" v="278478" />
	</node>
<<<<<<< HEAD
	<node lat="62.34611110963968" lon="5.835880560070956" id="-1425">
		<tag k="name" v="Reiten" />
=======
	<node id="-62705" lat="62.3444407083" lon="5.8480910046">
		<tag k="fixme" v="consider place=hamlet" />
		<tag k="name" v="Vik" />
>>>>>>> e1d4bc35ff8a6074a6f2e91616a996b547c36f15
		<tag k="place" v="farm" />
		<tag k="ssr:stedsnr" v="278490" />
	</node>
<<<<<<< HEAD
	<node lat="62.367583335363534" lon="5.822063879082201" id="-1431">
		<tag k="name" v="Husegarden" />
=======
	<node id="-62703" lat="62.345388649" lon="5.78371095396">
		<tag k="fixme" v="consider place=hamlet" />
		<tag k="name" v="Store Hatløy" />
>>>>>>> e1d4bc35ff8a6074a6f2e91616a996b547c36f15
		<tag k="place" v="farm" />
		<tag k="ssr:stedsnr" v="460470" />
	</node>
<<<<<<< HEAD
	<node lat="62.31468888467306" lon="5.8613972239616565" id="-1432">
		<tag k="name" v="Hansgjerdet" />
		<tag k="place" v="farm" />
		<tag k="ssr:stedsnr" v="460478" />
	</node>
	<node lat="62.32418055764297" lon="5.801155558040233" id="-1433">
		<tag k="name" v="Holane" />
=======
	<node id="-62695" lat="62.4197638879" lon="5.90476110283">
		<tag k="name" v="Støylane" />
		<tag k="place" v="locality" />
		<tag k="ssr:stedsnr" v="824471" />
	</node>
	<node id="-62691" lat="62.3201083374" lon="5.86382778391">
		<tag k="alt_name" v="Sandvika" />
		<tag k="name" v="Sandvik" />
>>>>>>> e1d4bc35ff8a6074a6f2e91616a996b547c36f15
		<tag k="place" v="farm" />
		<tag k="ssr:stedsnr" v="460479" />
	</node>
<<<<<<< HEAD
	<node lat="62.34193186811074" lon="5.8612614960237694" id="-1434">
		<tag k="fixme" v="consider place=hamlet" />
		<tag k="name" v="Hovset" />
		<tag k="place" v="farm" />
		<tag k="ssr:stedsnr" v="460483" />
	</node>
	<node lat="62.33593333153378" lon="5.85435833847368" id="-1435">
		<tag k="name" v="Haugane" />
		<tag k="place" v="farm" />
		<tag k="ssr:stedsnr" v="460485" />
	</node>
	<node lat="62.2958111109381" lon="5.846966675888333" id="-1452">
		<tag k="alt_name" v="Langeneset" />
		<tag k="name" v="Langenes" />
=======
	<node id="-62682" lat="62.3411666668" lon="5.87670277003">
		<tag k="leisure" v="pitch" />
		<tag k="name" v="Høddvoll" />
		<tag k="ssr:stedsnr" v="921843" />
	</node>
	<node id="-62679" lat="62.2370138922" lon="5.89130000397">
		<tag k="name" v="Einehola" />
>>>>>>> e1d4bc35ff8a6074a6f2e91616a996b547c36f15
		<tag k="place" v="farm" />
		<tag k="ssr:stedsnr" v="314175" />
	</node>
<<<<<<< HEAD
	<node lat="62.32805555656098" lon="5.834775002598886" id="-1453">
		<tag k="name" v="Gjerdet" />
		<tag k="place" v="farm" />
		<tag k="ssr:stedsnr" v="314812" />
	</node>
	<node lat="62.34316389115471" lon="5.848672229824905" id="-1455">
		<tag k="name" v="Ulsteinvik" />
		<tag k="place" v="town" />
		<tag k="ssr:stedsnr" v="314818" />
	</node>
	<node lat="62.35069323540436" lon="5.828747047057338" id="-1456">
		<tag k="fixme" v="consider place=hamlet" />
		<tag k="name" v="Skeide" />
		<tag k="place" v="farm" />
		<tag k="ssr:stedsnr" v="314820" />
	</node>
	<node lat="62.3444194478539" lon="5.8560638883537095" id="-1457">
		<tag k="name" v="Låna" />
=======
	<node id="-62926" lat="62.2978450774" lon="5.80213640216">
		<tag k="alt_name" v="Røyra, indre;Røyra" />
		<tag k="name" v="Indre Røyra" />
		<tag k="place" v="farm" />
		<tag k="ssr:stedsnr" v="375747" />
	</node>
	<node id="-63161" lat="62.3315503715" lon="5.79953219481">
		<tag k="fixme" v="consider place=hamlet" />
		<tag k="name" v="Spjutøya" />
>>>>>>> e1d4bc35ff8a6074a6f2e91616a996b547c36f15
		<tag k="place" v="farm" />
		<tag k="ssr:stedsnr" v="338355" />
	</node>
<<<<<<< HEAD
	<node lat="62.30582222172247" lon="5.810769436652508" id="-1458">
		<tag k="name" v="Stranda" />
=======
	<node id="-63160" lat="62.2979737121" lon="5.79921654693">
		<tag k="fixme" v="consider place=hamlet" />
		<tag k="name" v="Røyra" />
>>>>>>> e1d4bc35ff8a6074a6f2e91616a996b547c36f15
		<tag k="place" v="farm" />
		<tag k="ssr:stedsnr" v="338360" />
	</node>
<<<<<<< HEAD
	<node lat="62.3496583295233" lon="5.85224722820272" id="-1464">
		<tag k="name" v="Onglasætra" />
		<tag k="place" v="locality" />
		<tag k="ssr:stedsnr" v="338500" />
	</node>
	<node lat="62.39749166772403" lon="5.910500005109728" id="-1468">
		<tag k="name" v="Høgestøylen" />
		<tag k="place" v="locality" />
		<tag k="ssr:stedsnr" v="338628" />
	</node>
	<node lat="62.3216138900569" lon="5.846269447499567" id="-1490">
		<tag k="name" v="Kvianeset" />
=======
	<node id="-63159" lat="62.3630454217" lon="5.81959303669">
		<tag k="fixme" v="consider place=hamlet" />
		<tag k="name" v="Ulstein" />
		<tag k="place" v="farm" />
		<tag k="ssr:stedsnr" v="982473" />
	</node>
	<node id="-63154" lat="62.3038416626" lon="5.85561944255">
		<tag k="name" v="Botnabakken" />
		<tag k="place" v="farm" />
		<tag k="ssr:stedsnr" v="861731" />
	</node>
	<node id="-63152" lat="62.2920916712" lon="5.90288056165">
		<tag k="name" v="Berg" />
>>>>>>> e1d4bc35ff8a6074a6f2e91616a996b547c36f15
		<tag k="place" v="farm" />
		<tag k="ssr:stedsnr" v="436809" />
	</node>
<<<<<<< HEAD
	<node lat="62.31394360471227" lon="5.905784383921478" id="-1491">
=======
	<node id="-63145" lat="62.2618405817" lon="5.837598684">
>>>>>>> e1d4bc35ff8a6074a6f2e91616a996b547c36f15
		<tag k="fixme" v="consider place=hamlet" />
		<tag k="loc_name" v="Fjella" />
		<tag k="name" v="Fjelle" />
		<tag k="place" v="farm" />
		<tag k="ssr:stedsnr" v="436752" />
	</node>
<<<<<<< HEAD
	<node lat="62.3989567950543" lon="5.851711661234704" id="-1492">
		<tag k="alt_name" v="Flø, indre" />
=======
	<node id="-62632" lat="62.3392954051" lon="5.77998407854">
>>>>>>> e1d4bc35ff8a6074a6f2e91616a996b547c36f15
		<tag k="fixme" v="consider place=hamlet" />
		<tag k="name" v="Indreflø" />
		<tag k="place" v="farm" />
		<tag k="ssr:stedsnr" v="436869" />
	</node>
<<<<<<< HEAD
	<node lat="62.31955277712457" lon="5.7961027720717135" id="-1503">
		<tag k="name" v="Dimna" />
		<tag k="place" v="farm" />
		<tag k="ssr:stedsnr" v="476807" />
	</node>
	<node lat="62.28286555650258" lon="5.870396328231938" id="-1506">
		<tag k="alt_name" v="Haddal, ytre" />
		<tag k="fixme" v="consider place=hamlet" />
		<tag k="name" v="Ytre Haddal" />
=======
	<node id="-62631" lat="62.4056444468" lon="5.85319167229">
		<tag k="fixme" v="consider place=hamlet" />
		<tag k="name" v="Flø" />
		<tag k="place" v="village" />
		<tag k="ssr:stedsnr" v="678917" />
	</node>
	<node id="-63142" lat="62.3412583336" lon="5.87065278637">
		<tag k="name" v="Støylane" />
>>>>>>> e1d4bc35ff8a6074a6f2e91616a996b547c36f15
		<tag k="place" v="farm" />
		<tag k="ssr:stedsnr" v="678145" />
	</node>
<<<<<<< HEAD
	<node lat="62.30339246516749" lon="5.805385282286771" id="-1507">
=======
	<node id="-62629" lat="62.3275792737" lon="5.82119669927">
		<tag k="alt_name" v="Våge" />
>>>>>>> e1d4bc35ff8a6074a6f2e91616a996b547c36f15
		<tag k="fixme" v="consider place=hamlet" />
		<tag k="name" v="Ertesvåg" />
		<tag k="place" v="farm" />
		<tag k="ssr:stedsnr" v="678745" />
	</node>
<<<<<<< HEAD
	<node lat="62.310727199829024" lon="5.856591356089443" id="-1508">
=======
	<node id="-62627" lat="62.3107271998" lon="5.85659135609">
>>>>>>> e1d4bc35ff8a6074a6f2e91616a996b547c36f15
		<tag k="alt_name" v="Garshol" />
		<tag k="fixme" v="consider place=hamlet" />
		<tag k="name" v="Gardshol" />
		<tag k="place" v="farm" />
		<tag k="ssr:stedsnr" v="678753" />
	</node>
<<<<<<< HEAD
	<node lat="62.329344088950066" lon="5.833905797374134" id="-1512">
		<tag k="alt_name" v="Breivik" />
		<tag k="fixme" v="consider place=hamlet" />
		<tag k="name" v="Breidvik" />
		<tag k="place" v="farm" />
		<tag k="ssr:stedsnr" v="496802" />
	</node>
	<node lat="62.348769448703656" lon="5.825944436366193" id="-1541">
		<tag k="name" v="Halsen" />
		<tag k="place" v="isolated_dwelling" />
		<tag k="ssr:stedsnr" v="597801" />
	</node>
	<node lat="62.31508888505721" lon="5.823608342144262" id="-1545">
		<tag k="name" v="Høgtun" />
		<tag k="place" v="farm" />
		<tag k="ssr:stedsnr" v="617816" />
	</node>
	<node lat="62.41217777459001" lon="5.92570276970959" id="-1550">
		<tag k="name" v="Støylen" />
		<tag k="place" v="locality" />
		<tag k="ssr:stedsnr" v="703495" />
	</node>
	<node lat="62.31536388999393" lon="5.836769451682191" id="-1552">
=======
	<node id="-62609" lat="62.3411388885" lon="5.85543056052">
		<tag k="name" v="Bakken" />
		<tag k="place" v="farm" />
		<tag k="ssr:stedsnr" v="581464" />
	</node>
	<node id="-63117" lat="62.3640500011" lon="5.82089444899">
		<tag k="name" v="Huslagarden" />
		<tag k="place" v="farm" />
		<tag k="ssr:stedsnr" v="824429" />
	</node>
	<node id="-62603" lat="62.4121777746" lon="5.92570276971">
		<tag k="name" v="Støylen" />
		<tag k="place" v="locality" />
		<tag k="ssr:stedsnr" v="703495" />
	</node>
	<node id="-62487" lat="62.3231476157" lon="5.83525310085">
		<tag k="fixme" v="consider place=hamlet" />
		<tag k="name" v="Kleiva" />
		<tag k="place" v="farm" />
		<tag k="ssr:stedsnr" v="193810" />
	</node>
	<node id="-62599" lat="62.31536389" lon="5.83676945168">
>>>>>>> e1d4bc35ff8a6074a6f2e91616a996b547c36f15
		<tag k="name" v="Legene" />
		<tag k="place" v="farm" />
		<tag k="ssr:stedsnr" v="703457" />
	</node>
<<<<<<< HEAD
	<node lat="62.29115555492802" lon="5.853627783586327" id="-1572">
		<tag k="name" v="Austre Garnes" />
=======
	<node id="-63110" lat="62.3058019176" lon="5.85496402396">
		<tag k="fixme" v="consider place=hamlet" />
		<tag k="name" v="Botnen" />
		<tag k="place" v="farm" />
		<tag k="ssr:stedsnr" v="800718" />
	</node>
	<node id="-62486" lat="62.3248805539" lon="5.83623056339">
		<tag k="alt_name" v="Klubbeneset" />
		<tag k="name" v="Klubbenes" />
		<tag k="place" v="farm" />
		<tag k="ssr:stedsnr" v="193807" />
	</node>
	<node id="-63104" lat="62.3562750015" lon="5.82897778478">
		<tag k="name" v="Bakken" />
>>>>>>> e1d4bc35ff8a6074a6f2e91616a996b547c36f15
		<tag k="place" v="farm" />
		<tag k="ssr:stedsnr" v="658785" />
	</node>
<<<<<<< HEAD
	<node lat="62.32757927366449" lon="5.821196699273839" id="-1581">
		<tag k="alt_name" v="Våge" />
		<tag k="fixme" v="consider place=hamlet" />
		<tag k="name" v="Vågane" />
=======
	<node id="-63100" lat="62.3755138917" lon="5.82050277325">
		<tag k="name" v="Plassen" />
>>>>>>> e1d4bc35ff8a6074a6f2e91616a996b547c36f15
		<tag k="place" v="farm" />
		<tag k="ssr:stedsnr" v="678775" />
	</node>
<<<<<<< HEAD
	<node lat="62.405644446818876" lon="5.853191672286777" id="-1584">
=======
	<node id="-62580" lat="62.329344089" lon="5.83390579737">
		<tag k="alt_name" v="Breivik" />
>>>>>>> e1d4bc35ff8a6074a6f2e91616a996b547c36f15
		<tag k="fixme" v="consider place=hamlet" />
		<tag k="name" v="Flø" />
		<tag k="place" v="village" />
		<tag k="ssr:stedsnr" v="678917" />
	</node>
	<node lat="62.32988888854353" lon="5.828538893645747" id="-1611">
		<tag k="name" v="Tueneset" />
		<tag k="place" v="farm" />
		<tag k="ssr:stedsnr" v="763442" />
	</node>
<<<<<<< HEAD
	<node lat="62.33945000128141" lon="5.85303612004731" id="-1621">
=======
	<node id="-63089" lat="62.3394500013" lon="5.85303612005">
>>>>>>> e1d4bc35ff8a6074a6f2e91616a996b547c36f15
		<tag k="name" v="Vik" />
		<tag k="place" v="isolated_dwelling" />
		<tag k="ssr:stedsnr" v="780765" />
	</node>
<<<<<<< HEAD
	<node lat="62.32010833735207" lon="5.863827783913871" id="-1631">
		<tag k="alt_name" v="Sandvika" />
		<tag k="name" v="Sandvik" />
=======
	<node id="-62571" lat="62.3033924652" lon="5.80538528229">
		<tag k="fixme" v="consider place=hamlet" />
		<tag k="name" v="Ertesvåg" />
>>>>>>> e1d4bc35ff8a6074a6f2e91616a996b547c36f15
		<tag k="place" v="farm" />
		<tag k="ssr:stedsnr" v="800785" />
	</node>
<<<<<<< HEAD
	<node lat="62.36405000109515" lon="5.820894448988866" id="-1635">
		<tag k="name" v="Huslagarden" />
		<tag k="place" v="farm" />
		<tag k="ssr:stedsnr" v="824429" />
	</node>
	<node lat="62.419763887921626" lon="5.904761102825534" id="-1642">
		<tag k="name" v="Støylane" />
		<tag k="place" v="locality" />
		<tag k="ssr:stedsnr" v="824471" />
	</node>
	<node lat="62.34116666678971" lon="5.876702770031069" id="-1645">
		<tag k="leisure" v="pitch" />
		<tag k="name" v="Høddvoll" />
		<tag k="ssr:stedsnr" v="921843" />
	</node>
	<node lat="62.24618610693497" lon="5.898138880387296" id="-1649">
		<tag k="name" v="Hjellvika" />
		<tag k="place" v="farm" />
		<tag k="ssr:stedsnr" v="860172" />
	</node>
	<node lat="62.31925431515543" lon="5.844453032406627" id="-1651">
=======
	<node id="-62569" lat="62.2828655565" lon="5.87039632823">
		<tag k="alt_name" v="Haddal, ytre" />
>>>>>>> e1d4bc35ff8a6074a6f2e91616a996b547c36f15
		<tag k="fixme" v="consider place=hamlet" />
		<tag k="name" v="Dimnasund" />
		<tag k="place" v="farm" />
		<tag k="ssr:stedsnr" v="861805" />
	</node>
<<<<<<< HEAD
	<node lat="62.2888334292517" lon="5.8461169557950745" id="-1654">
		<tag k="fixme" v="consider place=hamlet" />
		<tag k="name" v="Garnes" />
=======
	<node id="-62565" lat="62.3195527771" lon="5.79610277207">
		<tag k="name" v="Dimna" />
>>>>>>> e1d4bc35ff8a6074a6f2e91616a996b547c36f15
		<tag k="place" v="farm" />
		<tag k="ssr:stedsnr" v="885317" />
	</node>
<<<<<<< HEAD
	<node lat="62.237013892199776" lon="5.891300003972911" id="-1666">
		<tag k="name" v="Einehola" />
=======
	<node id="-62563" lat="62.2911555549" lon="5.85362778359">
		<tag k="name" v="Austre Garnes" />
>>>>>>> e1d4bc35ff8a6074a6f2e91616a996b547c36f15
		<tag k="place" v="farm" />
		<tag k="ssr:stedsnr" v="921169" />
	</node>
<<<<<<< HEAD
	<node lat="62.286666666680816" lon="5.840777777143981" id="-1668">
		<tag k="loc_name" v="Gardnes" />
		<tag k="name" v="Garnes" />
		<tag k="place" v="farm" />
		<tag k="ssr:stedsnr" v="937095" />
	</node>
	<node lat="62.36675833122165" lon="5.839775005893591" id="-1674">
		<tag k="name" v="Kåpa" />
		<tag k="place" v="isolated_dwelling" />
		<tag k="ssr:stedsnr" v="946421" />
	</node>
	<node lat="62.36222777886674" lon="5.8239194414311015" id="-1677">
		<tag k="name" v="Jørnhaugane" />
=======
	<node id="-62561" lat="62.3989567951" lon="5.85171166123">
		<tag k="alt_name" v="Flø, indre" />
		<tag k="fixme" v="consider place=hamlet" />
		<tag k="name" v="Indreflø" />
		<tag k="place" v="farm" />
		<tag k="ssr:stedsnr" v="436869" />
	</node>
	<node id="-63072" lat="62.3700972205" lon="5.82743888283">
		<tag k="name" v="Skokken" />
>>>>>>> e1d4bc35ff8a6074a6f2e91616a996b547c36f15
		<tag k="place" v="farm" />
		<tag k="ssr:stedsnr" v="946581" />
	</node>
<<<<<<< HEAD
	<node lat="62.36735000421152" lon="5.822547214753909" id="-1685">
		<tag k="name" v="Ivagarden" />
=======
	<node id="-62551" lat="62.300002776" lon="5.83614444851">
		<tag k="alt_name" v="Kvalneset" />
		<tag k="name" v="Kvalnes" />
>>>>>>> e1d4bc35ff8a6074a6f2e91616a996b547c36f15
		<tag k="place" v="farm" />
		<tag k="ssr:stedsnr" v="10850" />
	</node>
<<<<<<< HEAD
	<node lat="62.28899003781707" lon="5.893885143236296" id="-1687">
		<tag k="fixme" v="consider place=hamlet" />
		<tag k="name" v="Ringstad" />
=======
	<node id="-63060" lat="62.3698777745" lon="5.82812221466">
		<tag k="name" v="Slettebø" />
>>>>>>> e1d4bc35ff8a6074a6f2e91616a996b547c36f15
		<tag k="place" v="farm" />
		<tag k="ssr:stedsnr" v="11120" />
	</node>
<<<<<<< HEAD
	<node lat="62.29714413571548" lon="5.9101756919501085" id="-1689">
=======
	<node id="-63059" lat="62.2807654776" lon="5.87715499902">
		<tag k="alt_name" v="Myra" />
>>>>>>> e1d4bc35ff8a6074a6f2e91616a996b547c36f15
		<tag k="fixme" v="consider place=hamlet" />
		<tag k="name" v="Moldskred" />
		<tag k="place" v="farm" />
		<tag k="ssr:stedsnr" v="11142" />
	</node>
<<<<<<< HEAD
	<node lat="62.318637149252474" lon="5.798862960882232" id="-1690">
		<tag k="alt_name" v="Dimna, indre" />
=======
	<node id="-62546" lat="62.3383394857" lon="5.85081617354">
>>>>>>> e1d4bc35ff8a6074a6f2e91616a996b547c36f15
		<tag k="fixme" v="consider place=hamlet" />
		<tag k="name" v="Indre Dimna" />
		<tag k="place" v="farm" />
		<tag k="ssr:stedsnr" v="11783" />
	</node>
<<<<<<< HEAD
	<node lat="62.40804324722611" lon="5.863100452509385" id="-1695">
		<tag k="alt_name" v="Flø, ytre" />
=======
	<node id="-62544" lat="62.3165285103" lon="5.8589846393">
>>>>>>> e1d4bc35ff8a6074a6f2e91616a996b547c36f15
		<tag k="fixme" v="consider place=hamlet" />
		<tag k="name" v="Ytreflø" />
		<tag k="place" v="farm" />
		<tag k="ssr:stedsnr" v="11934" />
	</node>
<<<<<<< HEAD
	<node lat="62.253100992118505" lon="5.900725051885469" id="-1699">
		<tag k="fixme" v="consider place=hamlet" />
		<tag k="name" v="Eiksund" />
=======
	<node id="-62542" lat="62.2904083349" lon="5.85754443868">
		<tag k="name" v="Elvebakken" />
>>>>>>> e1d4bc35ff8a6074a6f2e91616a996b547c36f15
		<tag k="place" v="farm" />
		<tag k="ssr:stedsnr" v="25614" />
	</node>
<<<<<<< HEAD
	<node lat="62.40560101386892" lon="5.871789989098848" id="-1700">
		<tag k="name" v="Løkvia" />
		<tag k="place" v="locality" />
		<tag k="ssr:stedsnr" v="35533" />
	</node>
	<node lat="62.25211179042257" lon="5.837063298274087" id="-1719">
		<tag k="fixme" v="consider place=hamlet" />
		<tag k="name" v="Aursnes" />
=======
	<node id="-62541" lat="62.2577583327" lon="5.91824166603">
		<tag k="alt_name" v="Gjerde" />
		<tag k="name" v="Gjerdet" />
>>>>>>> e1d4bc35ff8a6074a6f2e91616a996b547c36f15
		<tag k="place" v="farm" />
		<tag k="ssr:stedsnr" v="71230" />
	</node>
<<<<<<< HEAD
	<node lat="62.36064722350915" lon="5.821672223513904" id="-1720">
=======
	<node id="-63048" lat="62.3144600549" lon="5.84305269109">
>>>>>>> e1d4bc35ff8a6074a6f2e91616a996b547c36f15
		<tag k="fixme" v="consider place=hamlet" />
		<tag k="name" v="Ulstein" />
		<tag k="place" v="village" />
		<tag k="ssr:stedsnr" v="71896" />
	</node>
	<node lat="62.328030413850364" lon="5.865499300292371" id="-1721">
		<tag k="alt_name" v="Strandabø" />
		<tag k="fixme" v="consider place=hamlet" />
		<tag k="name" v="Strandabøen" />
		<tag k="place" v="farm" />
		<tag k="ssr:stedsnr" v="72785" />
	</node>
<<<<<<< HEAD
	<node lat="62.28208611357096" lon="5.868869443177569" id="-1732">
		<tag k="name" v="Haddal" />
		<tag k="place" v="village" />
		<tag k="ssr:stedsnr" v="86916" />
	</node>
	<node lat="62.2325104669514" lon="5.873014366107714" id="-1749">
		<tag k="fixme" v="consider place=hamlet" />
		<tag k="name" v="Eika" />
		<tag k="place" v="farm" />
		<tag k="ssr:stedsnr" v="132152" />
	</node>
	<node lat="62.32283867350621" lon="5.7957684021252875" id="-1754">
		<tag k="fixme" v="consider place=hamlet" />
		<tag k="name" v="Ytre-Dimna" />
=======
	<node id="-62535" lat="62.3431638912" lon="5.84867222982">
		<tag k="name" v="Ulsteinvik" />
		<tag k="place" v="town" />
		<tag k="ssr:stedsnr" v="314818" />
	</node>
	<node id="-63073" lat="62.3298888885" lon="5.82853889365">
		<tag k="name" v="Tueneset" />
		<tag k="place" v="farm" />
		<tag k="ssr:stedsnr" v="763442" />
	</node>
	<node id="-62531" lat="62.2958111109" lon="5.84696667589">
		<tag k="alt_name" v="Langeneset" />
		<tag k="name" v="Langenes" />
>>>>>>> e1d4bc35ff8a6074a6f2e91616a996b547c36f15
		<tag k="place" v="farm" />
		<tag k="ssr:stedsnr" v="132772" />
	</node>
<<<<<<< HEAD
	<node lat="62.36603888778656" lon="5.823691658092345" id="-1781">
		<tag k="name" v="Jensgarden" />
=======
	<node id="-63033" lat="62.3150888851" lon="5.82360834214">
		<tag k="name" v="Høgtun" />
>>>>>>> e1d4bc35ff8a6074a6f2e91616a996b547c36f15
		<tag k="place" v="farm" />
		<tag k="ssr:stedsnr" v="192872" />
	</node>
<<<<<<< HEAD
	<node lat="62.24839604773201" lon="5.908554759410775" id="-1784">
		<tag k="alt_name" v="Sunde" />
		<tag k="fixme" v="consider place=hamlet" />
		<tag k="name" v="Sundet" />
=======
	<node id="-63030" lat="62.2424944465" lon="5.89004165777">
		<tag k="name" v="Klungsvågen" />
>>>>>>> e1d4bc35ff8a6074a6f2e91616a996b547c36f15
		<tag k="place" v="farm" />
		<tag k="ssr:stedsnr" v="193132" />
	</node>
<<<<<<< HEAD
	<node lat="62.29799444784497" lon="5.9173833357593235" id="-1787">
		<tag k="name" v="Framtun" />
		<tag k="place" v="farm" />
		<tag k="ssr:stedsnr" v="193144" />
	</node>
	<node lat="62.32488055388105" lon="5.836230563391166" id="-1792">
		<tag k="alt_name" v="Klubbeneset" />
		<tag k="name" v="Klubbenes" />
=======
	<node id="-63023" lat="62.3487694487" lon="5.82594443637">
		<tag k="name" v="Halsen" />
		<tag k="place" v="isolated_dwelling" />
		<tag k="ssr:stedsnr" v="597801" />
	</node>
	<node id="-62507" lat="62.3359333315" lon="5.85435833847">
		<tag k="name" v="Haugane" />
>>>>>>> e1d4bc35ff8a6074a6f2e91616a996b547c36f15
		<tag k="place" v="farm" />
		<tag k="ssr:stedsnr" v="193807" />
	</node>
<<<<<<< HEAD
	<node lat="62.323147615690864" lon="5.835253100847208" id="-1793">
=======
	<node id="-62506" lat="62.3419318681" lon="5.86126149602">
>>>>>>> e1d4bc35ff8a6074a6f2e91616a996b547c36f15
		<tag k="fixme" v="consider place=hamlet" />
		<tag k="name" v="Kleiva" />
		<tag k="place" v="farm" />
		<tag k="ssr:stedsnr" v="193810" />
	</node>
<<<<<<< HEAD
	<node lat="62.27497222598978" lon="5.925197229411693" id="-1827">
		<tag k="historic" v="shieling" />
		<tag k="name" v="Eiksundsætra" />
		<tag k="place" v="isolated_dwelling" />
		<tag k="ssr:stedsnr" v="314186" />
	</node>
	<node lat="62.37361666463668" lon="5.8202972296917315" id="-1844">
		<tag k="name" v="Gåsnes" />
=======
	<node id="-62505" lat="62.3241805576" lon="5.80115555804">
		<tag k="name" v="Holane" />
>>>>>>> e1d4bc35ff8a6074a6f2e91616a996b547c36f15
		<tag k="place" v="farm" />
		<tag k="ssr:stedsnr" v="355875" />
	</node>
<<<<<<< HEAD
	<node lat="62.30000277603695" lon="5.836144448508501" id="-1849">
		<tag k="alt_name" v="Kvalneset" />
		<tag k="name" v="Kvalnes" />
=======
	<node id="-62504" lat="62.3146888847" lon="5.86139722396">
		<tag k="name" v="Hansgjerdet" />
>>>>>>> e1d4bc35ff8a6074a6f2e91616a996b547c36f15
		<tag k="place" v="farm" />
		<tag k="ssr:stedsnr" v="375125" />
	</node>
<<<<<<< HEAD
	<node lat="62.29784507739594" lon="5.802136402164441" id="-1850">
		<tag k="alt_name" v="Røyra, indre;Røyra" />
		<tag k="name" v="Indre Røyra" />
=======
	<node id="-62503" lat="62.3675833354" lon="5.82206387908">
		<tag k="name" v="Husegarden" />
>>>>>>> e1d4bc35ff8a6074a6f2e91616a996b547c36f15
		<tag k="place" v="farm" />
		<tag k="ssr:stedsnr" v="375747" />
	</node>
<<<<<<< HEAD
	<node lat="62.25775833269443" lon="5.918241666027732" id="-1853">
		<tag k="alt_name" v="Gjerde" />
		<tag k="name" v="Gjerdet" />
=======
	<node id="-62588" lat="62.3955621083" lon="5.8442542658">
		<tag k="alt_name" v="Roppane" />
		<tag k="fixme" v="consider place=hamlet" />
		<tag k="name" v="Roppe" />
		<tag k="place" v="farm" />
		<tag k="ssr:stedsnr" v="557870" />
	</node>
	<node id="-62494" lat="62.3275333342" lon="5.83343333097">
		<tag k="name" v="Skjervane" />
>>>>>>> e1d4bc35ff8a6074a6f2e91616a996b547c36f15
		<tag k="place" v="farm" />
		<tag k="ssr:stedsnr" v="495224" />
	</node>
<<<<<<< HEAD
	<node lat="62.31794444534613" lon="5.835725009397279" id="-1860">
		<tag k="name" v="Åsen" />
		<tag k="place" v="farm" />
		<tag k="ssr:stedsnr" v="399460" />
	</node>
	<node lat="62.37316389106876" lon="5.836294444889207" id="-1866">
		<tag k="name" v="Langerysta" />
		<tag k="place" v="isolated_dwelling" />
		<tag k="ssr:stedsnr" v="399614" />
	</node>
	<node lat="62.34517902250289" lon="5.847862850344729" id="-1867">
		<tag k="name" v="Einehaugen" />
=======
	<node id="-62999" lat="62.3157052376" lon="5.84053467513">
		<tag k="alt_name" v="Sundgot" />
		<tag k="fixme" v="consider place=suburb, village or hamlet" />
		<tag k="name" v="Sundgota" />
		<tag k="place" v="quarter" />
		<tag k="ssr:stedsnr" v="557726" />
	</node>
	<node id="-62998" lat="62.317094445" lon="5.79211388949">
		<tag k="alt_name" v="Dimnastølen" />
		<tag k="name" v="Støylen" />
>>>>>>> e1d4bc35ff8a6074a6f2e91616a996b547c36f15
		<tag k="place" v="farm" />
		<tag k="ssr:stedsnr" v="399565" />
	</node>
<<<<<<< HEAD
	<node lat="62.359813886588064" lon="5.824949993187982" id="-1879">
		<tag k="alt_name" v="Søre Ulstein" />
		<tag k="name" v="Ulstein" />
=======
	<node id="-62485" lat="62.2979944478" lon="5.91738333576">
		<tag k="name" v="Framtun" />
>>>>>>> e1d4bc35ff8a6074a6f2e91616a996b547c36f15
		<tag k="place" v="farm" />
		<tag k="ssr:stedsnr" v="435896" />
	</node>
<<<<<<< HEAD
	<node lat="62.290408334881995" lon="5.857544438683193" id="-1884">
		<tag k="name" v="Elvebakken" />
=======
	<node id="-62995" lat="62.3433693628" lon="5.82828150694">
		<tag k="fixme" v="consider place=hamlet" />
		<tag k="name" v="Osnes" />
>>>>>>> e1d4bc35ff8a6074a6f2e91616a996b547c36f15
		<tag k="place" v="farm" />
		<tag k="ssr:stedsnr" v="496132" />
	</node>
<<<<<<< HEAD
	<node lat="62.338339485693425" lon="5.850816173539966" id="-1887">
=======
	<node id="-62482" lat="62.2483960477" lon="5.90855475941">
		<tag k="alt_name" v="Sunde" />
>>>>>>> e1d4bc35ff8a6074a6f2e91616a996b547c36f15
		<tag k="fixme" v="consider place=hamlet" />
		<tag k="name" v="Saunes" />
		<tag k="place" v="farm" />
		<tag k="ssr:stedsnr" v="496832" />
	</node>
<<<<<<< HEAD
	<node lat="62.316528510342316" lon="5.858984639301384" id="-1891">
		<tag k="fixme" v="consider place=hamlet" />
		<tag k="name" v="Hasund" />
=======
	<node id="-62989" lat="62.3729333348" lon="5.821916669">
		<tag k="name" v="Nordre Ulstein" />
>>>>>>> e1d4bc35ff8a6074a6f2e91616a996b547c36f15
		<tag k="place" v="farm" />
		<tag k="ssr:stedsnr" v="496773" />
	</node>
<<<<<<< HEAD
	<node lat="62.348061115360544" lon="5.828783325416768" id="-1897">
		<tag k="name" v="Vollane" />
=======
	<node id="-62465" lat="62.3461111096" lon="5.83588056007">
		<tag k="name" v="Reiten" />
>>>>>>> e1d4bc35ff8a6074a6f2e91616a996b547c36f15
		<tag k="place" v="farm" />
		<tag k="ssr:stedsnr" v="521433" />
	</node>
<<<<<<< HEAD
	<node lat="62.3729333348344" lon="5.821916668999081" id="-1908">
		<tag k="name" v="Nordre Ulstein" />
		<tag k="place" v="farm" />
		<tag k="ssr:stedsnr" v="537864" />
	</node>
	<node lat="62.34336936278566" lon="5.828281506944064" id="-1913">
		<tag k="fixme" v="consider place=hamlet" />
		<tag k="name" v="Osnes" />
		<tag k="place" v="farm" />
		<tag k="ssr:stedsnr" v="556848" />
	</node>
	<node lat="62.31570523761076" lon="5.840534675125836" id="-1915">
		<tag k="alt_name" v="Sundgot" />
		<tag k="fixme" v="consider place=suburb, village or hamlet" />
		<tag k="name" v="Sundgota" />
		<tag k="place" v="quarter" />
		<tag k="ssr:stedsnr" v="557726" />
	</node>
	<node lat="62.3170944450146" lon="5.792113889488173" id="-1916">
		<tag k="alt_name" v="Dimnastølen" />
		<tag k="name" v="Støylen" />
		<tag k="place" v="farm" />
		<tag k="ssr:stedsnr" v="557783" />
	</node>
	<node lat="62.3955621083245" lon="5.844254265797981" id="-1917">
		<tag k="alt_name" v="Roppane" />
		<tag k="fixme" v="consider place=hamlet" />
		<tag k="name" v="Roppe" />
		<tag k="place" v="farm" />
		<tag k="ssr:stedsnr" v="557870" />
	</node>
	<node lat="62.3411388885333" lon="5.855430560516186" id="-1921">
		<tag k="name" v="Bakken" />
		<tag k="place" v="farm" />
		<tag k="ssr:stedsnr" v="581464" />
	</node>
	<node lat="62.24249444654814" lon="5.890041657767797" id="-1945">
		<tag k="name" v="Klungsvågen" />
		<tag k="place" v="farm" />
		<tag k="ssr:stedsnr" v="617177" />
	</node>
	<node lat="62.3144600548952" lon="5.843052691085852" id="-1952">
		<tag k="fixme" v="consider place=hamlet" />
		<tag k="name" v="Sundgot" />
		<tag k="place" v="farm" />
		<tag k="ssr:stedsnr" v="642274" />
	</node>
	<node lat="62.280765477591814" lon="5.877154999022446" id="-1972">
		<tag k="alt_name" v="Myra" />
		<tag k="fixme" v="consider place=hamlet" />
		<tag k="name" v="Myrane" />
		<tag k="place" v="farm" />
		<tag k="ssr:stedsnr" v="738189" />
	</node>
	<node lat="62.36987777454058" lon="5.82812221465668" id="-1973">
		<tag k="name" v="Slettebø" />
		<tag k="place" v="farm" />
		<tag k="ssr:stedsnr" v="738872" />
	</node>
	<node lat="62.370097220496675" lon="5.827438882825074" id="-1979">
		<tag k="name" v="Skokken" />
		<tag k="place" v="farm" />
		<tag k="ssr:stedsnr" v="763436" />
	</node>
	<node lat="62.28141579983461" lon="5.867752330071161" id="-1981">
		<tag k="name" v="Røysane" />
		<tag k="place" v="farm" />
		<tag k="ssr:stedsnr" v="763466" />
	</node>
	<node lat="62.37551389167611" lon="5.820502773248817" id="-2012">
		<tag k="name" v="Plassen" />
		<tag k="place" v="farm" />
		<tag k="ssr:stedsnr" v="799915" />
	</node>
	<node lat="62.30580191756702" lon="5.854964023955484" id="-2014">
		<tag k="fixme" v="consider place=hamlet" />
		<tag k="name" v="Botnen" />
		<tag k="place" v="farm" />
		<tag k="ssr:stedsnr" v="800718" />
	</node>
	<node lat="62.356275001488925" lon="5.828977784779814" id="-2020">
		<tag k="name" v="Bakken" />
		<tag k="place" v="farm" />
		<tag k="ssr:stedsnr" v="800860" />
	</node>
	<node lat="62.4048760488211" lon="5.857398301818125" id="-2026">
		<tag k="fixme" v="consider place=hamlet" />
		<tag k="name" v="Midtflø" />
		<tag k="place" v="farm" />
		<tag k="ssr:stedsnr" v="800935" />
	</node>
	<node lat="62.34538864902375" lon="5.783710953963457" id="-2042">
		<tag k="fixme" v="consider place=hamlet" />
		<tag k="name" v="Store Hatløy" />
		<tag k="place" v="farm" />
		<tag k="ssr:stedsnr" v="824655" />
	</node>
	<node lat="62.34444070826707" lon="5.848091004599961" id="-2049">
		<tag k="fixme" v="consider place=hamlet" />
		<tag k="name" v="Vik" />
		<tag k="place" v="farm" />
		<tag k="ssr:stedsnr" v="825233" />
	</node>
	<node lat="62.3052290197967" lon="5.929121166689097" id="-2054">
		<tag k="fixme" v="consider place=hamlet" />
		<tag k="name" v="Løset" />
		<tag k="place" v="farm" />
		<tag k="ssr:stedsnr" v="846116" />
	</node>
	<node lat="62.34125833364403" lon="5.870652786370497" id="-2060">
		<tag k="name" v="Støylane" />
		<tag k="place" v="farm" />
		<tag k="ssr:stedsnr" v="848270" />
	</node>
	<node lat="62.26184058169828" lon="5.837598684003713" id="-2061">
		<tag k="fixme" v="consider place=hamlet" />
		<tag k="name" v="Håheim" />
		<tag k="place" v="farm" />
		<tag k="ssr:stedsnr" v="860189" />
	</node>
	<node lat="62.29209167122523" lon="5.902880561653524" id="-2067">
		<tag k="name" v="Berg" />
		<tag k="place" v="farm" />
		<tag k="ssr:stedsnr" v="861125" />
	</node>
	<node lat="62.303841662553204" lon="5.8556194425496155" id="-2070">
		<tag k="name" v="Botnabakken" />
		<tag k="place" v="farm" />
		<tag k="ssr:stedsnr" v="861731" />
	</node>
	<node lat="62.33929540507435" lon="5.779984078536797" id="-2076">
		<tag k="fixme" v="consider place=hamlet" />
		<tag k="name" v="Litle Hatløy" />
		<tag k="place" v="farm" />
		<tag k="ssr:stedsnr" v="885439" />
	</node>
	<node lat="62.36304542173569" lon="5.819593036690775" id="-2099">
		<tag k="fixme" v="consider place=hamlet" />
		<tag k="name" v="Ulstein" />
		<tag k="place" v="farm" />
		<tag k="ssr:stedsnr" v="982473" />
	</node>
	<node lat="62.29797371210741" lon="5.7992165469304" id="-2100">
		<tag k="fixme" v="consider place=hamlet" />
		<tag k="name" v="Røyra" />
		<tag k="place" v="farm" />
		<tag k="ssr:stedsnr" v="982513" />
	</node>
	<node lat="62.331550371489485" lon="5.799532194812954" id="-2101">
		<tag k="fixme" v="consider place=hamlet" />
		<tag k="name" v="Spjutøya" />
		<tag k="place" v="farm" />
		<tag k="ssr:stedsnr" v="982528" />
	</node>
	<node lat="62.37219481942325" lon="5.782321660317907" id="-2103">
		<tag k="fixme" v="consider place=hamlet" />
		<tag k="name" v="Vattøya" />
		<tag k="place" v="farm" />
		<tag k="ssr:stedsnr" v="982530" />
	</node>
=======
>>>>>>> e1d4bc35ff8a6074a6f2e91616a996b547c36f15
</osm>
