<?xml version="1.0" encoding="UTF-8"?>
<osm version="0.6" generator="osmapis">
	<node lat="68.5233669500288" lon="17.008851935946662" id="-19553">
		<tag k="alt_name:no" v="Evenes" />
		<tag k="name" v="Evenes kommune - Evenášši suohkan" />
		<tag k="name:no" v="Evenes kommune" />
		<tag k="name:se" v="Evenášši suohkan" />
		<tag k="ssr:date" v="2021-06-14" />
		<tag k="ssr:gruppe" v="administrativeIndelinger" />
		<tag k="ssr:hovedgruppe" v="offentligAdministrasjon" />
		<tag k="ssr:stedsnr" v="268299" />
		<tag k="ssr:type" v="kommune" />
	</node>
	<node lat="68.33798873606251" lon="15.95480333777686" id="-19597">
		<tag k="name" v="Ofoten - Ufuohttá" />
		<tag k="name:no" v="Ofoten" />
		<tag k="name:se" v="Ufuohttá" />
		<tag k="ssr:date" v="2021-06-15" />
		<tag k="ssr:gruppe" v="terrengområder" />
		<tag k="ssr:hovedgruppe" v="terreng" />
		<tag k="ssr:stedsnr" v="450830" />
		<tag k="ssr:type" v="landskapsområde" />
	</node>
	<node lat="68.4650121371536" lon="16.909006996423017" id="-19707">
		<tag k="name" v="Liland" />
		<tag k="ssr:date" v="2020-09-15" />
		<tag k="ssr:gruppe" v="navigasjon" />
		<tag k="ssr:hovedgruppe" v="infrastruktur" />
		<tag k="ssr:stedsnr" v="381509" />
		<tag k="ssr:type" v="fyrlykt" />
	</node>
	<node lat="68.5158824379383" lon="16.999584602961274" id="-20059">
		<tag k="name" v="Anderssens vei" />
		<tag k="ssr:date" v="2019-05-30" />
		<tag k="ssr:gruppe" v="veg" />
		<tag k="ssr:hovedgruppe" v="infrastruktur" />
		<tag k="ssr:stedsnr" v="1001478" />
		<tag k="ssr:type" v="adressenavn" />
	</node>
	<node lat="68.49562588608286" lon="17.079410866723936" id="-20060">
		<tag k="name" v="Lappslettveien" />
		<tag k="ssr:date" v="2019-05-30" />
		<tag k="ssr:gruppe" v="veg" />
		<tag k="ssr:hovedgruppe" v="infrastruktur" />
		<tag k="ssr:stedsnr" v="1002290" />
		<tag k="ssr:type" v="adressenavn" />
	</node>
	<node lat="68.4970336700156" lon="17.07601419956334" id="-20061">
		<tag k="name" v="Silsandveien" />
		<tag k="ssr:date" v="2019-05-30" />
		<tag k="ssr:gruppe" v="veg" />
		<tag k="ssr:hovedgruppe" v="infrastruktur" />
		<tag k="ssr:stedsnr" v="1002291" />
		<tag k="ssr:type" v="adressenavn" />
	</node>
	<node lat="68.4979712082403" lon="17.07450272764521" id="-20062">
		<tag k="name" v="Mølnhågen" />
		<tag k="ssr:date" v="2019-05-30" />
		<tag k="ssr:gruppe" v="veg" />
		<tag k="ssr:hovedgruppe" v="infrastruktur" />
		<tag k="ssr:stedsnr" v="1002292" />
		<tag k="ssr:type" v="adressenavn" />
	</node>
	<node lat="68.46055660381111" lon="17.214057754137926" id="-20063">
		<tag k="name" v="Gammelveggen" />
		<tag k="ssr:date" v="2019-05-30" />
		<tag k="ssr:gruppe" v="veg" />
		<tag k="ssr:hovedgruppe" v="infrastruktur" />
		<tag k="ssr:stedsnr" v="1002293" />
		<tag k="ssr:type" v="adressenavn" />
	</node>
	<node lat="68.46772393461693" lon="17.081720563449906" id="-20064">
		<tag k="name" v="Botnmarkveien" />
		<tag k="ssr:date" v="2019-05-30" />
		<tag k="ssr:gruppe" v="veg" />
		<tag k="ssr:hovedgruppe" v="infrastruktur" />
		<tag k="ssr:stedsnr" v="1002295" />
		<tag k="ssr:type" v="adressenavn" />
	</node>
	<node lat="68.46525592719031" lon="17.036770150257652" id="-20065">
		<tag k="name" v="Seterveien" />
		<tag k="ssr:date" v="2019-05-30" />
		<tag k="ssr:gruppe" v="veg" />
		<tag k="ssr:hovedgruppe" v="infrastruktur" />
		<tag k="ssr:stedsnr" v="1002297" />
		<tag k="ssr:type" v="adressenavn" />
	</node>
	<node lat="68.46395643873898" lon="17.088479706240314" id="-20066">
		<tag k="name" v="Nerskavåsen" />
		<tag k="ssr:date" v="2019-05-30" />
		<tag k="ssr:gruppe" v="veg" />
		<tag k="ssr:hovedgruppe" v="infrastruktur" />
		<tag k="ssr:stedsnr" v="1002299" />
		<tag k="ssr:type" v="adressenavn" />
	</node>
	<node lat="68.52838635710587" lon="17.16634745238004" id="-20067">
		<tag k="name" v="Attergårdsveien" />
		<tag k="ssr:date" v="2019-05-30" />
		<tag k="ssr:gruppe" v="veg" />
		<tag k="ssr:hovedgruppe" v="infrastruktur" />
		<tag k="ssr:stedsnr" v="1002301" />
		<tag k="ssr:type" v="adressenavn" />
	</node>
	<node lat="68.5073710453191" lon="17.074445127363493" id="-20068">
		<tag k="name" v="Forraveien" />
		<tag k="ssr:date" v="2019-05-30" />
		<tag k="ssr:gruppe" v="veg" />
		<tag k="ssr:hovedgruppe" v="infrastruktur" />
		<tag k="ssr:stedsnr" v="1002303" />
		<tag k="ssr:type" v="adressenavn" />
	</node>
	<node lat="68.47700302290266" lon="17.085124178147574" id="-20069">
		<tag k="name" v="Veggenveien" />
		<tag k="ssr:date" v="2019-05-30" />
		<tag k="ssr:gruppe" v="veg" />
		<tag k="ssr:hovedgruppe" v="infrastruktur" />
		<tag k="ssr:stedsnr" v="1002305" />
		<tag k="ssr:type" v="adressenavn" />
	</node>
	<node lat="68.46621134999621" lon="17.247938736621258" id="-20070">
		<tag k="name" v="Gravlundveien" />
		<tag k="ssr:date" v="2019-05-30" />
		<tag k="ssr:gruppe" v="veg" />
		<tag k="ssr:hovedgruppe" v="infrastruktur" />
		<tag k="ssr:stedsnr" v="1002309" />
		<tag k="ssr:type" v="adressenavn" />
	</node>
	<node lat="68.50220000023565" lon="17.069916658708156" id="-20089">
		<tag k="alt_name" v="Østervik" />
		<tag k="name" v="Østervika" />
		<tag k="old_name" v="Austervik" />
		<tag k="ssr:date" v="2016-05-10" />
		<tag k="ssr:gruppe" v="navigasjon" />
		<tag k="ssr:hovedgruppe" v="infrastruktur" />
		<tag k="ssr:stedsnr" v="20629" />
		<tag k="ssr:type" v="fyrlykt" />
	</node>
	<node lat="68.51856389027371" lon="16.96356667414208" id="-20132">
		<tag k="name" v="Sletbakken" />
		<tag k="old_name" v="Slettebakk" />
		<tag k="ssr:date" v="2016-05-10" />
		<tag k="ssr:gruppe" v="navigasjon" />
		<tag k="ssr:hovedgruppe" v="infrastruktur" />
		<tag k="ssr:stedsnr" v="81642" />
		<tag k="ssr:type" v="fyrlykt" />
	</node>
	<node lat="68.46875555399396" lon="17.0354416528918" id="-20219">
		<tag k="name" v="Heimersjøen" />
		<tag k="ssr:date" v="2016-05-10" />
		<tag k="ssr:gruppe" v="sjøbunn" />
		<tag k="ssr:hovedgruppe" v="sjø" />
		<tag k="ssr:stedsnr" v="207207" />
		<tag k="ssr:type" v="bankeISjø" />
	</node>
	<node lat="68.4503194473379" lon="17.04808332493067" id="-20285">
		<tag k="alt_name" v="Skredneset lykt" />
		<tag k="name" v="Fornes" />
		<tag k="ssr:date" v="2016-05-10" />
		<tag k="ssr:gruppe" v="navigasjon" />
		<tag k="ssr:hovedgruppe" v="infrastruktur" />
		<tag k="ssr:stedsnr" v="321966" />
		<tag k="ssr:type" v="fyrlykt" />
	</node>
	<node lat="67.2804027758844" lon="14.376388898255625" id="-20423">
		<tag k="alt_name:no" v="Nordland" />
		<tag k="loc_name:se" v="Nordlándda fylka" />
		<tag k="loc_name:sma" v="Nordlaanten fylhke" />
		<tag k="name" v="Nordland fylke - Nordlánda fylkka" />
		<tag k="name:no" v="Nordland fylke" />
		<tag k="name:smj" v="Nordlánda fylkka" />
		<tag k="ssr:date" v="2021-02-03" />
		<tag k="ssr:gruppe" v="administrativeIndelinger" />
		<tag k="ssr:hovedgruppe" v="offentligAdministrasjon" />
		<tag k="ssr:stedsnr" v="511766" />
		<tag k="ssr:type" v="fylke" />
	</node>
	<node lat="68.49378055080203" lon="16.972819453521343" id="-20449">
		<tag k="name" v="Skogøy" />
		<tag k="ssr:date" v="2016-05-10" />
		<tag k="ssr:gruppe" v="navigasjon" />
		<tag k="ssr:hovedgruppe" v="infrastruktur" />
		<tag k="ssr:stedsnr" v="563508" />
		<tag k="ssr:type" v="fyrlykt" />
	</node>
	<node lat="68.51941760572035" lon="17.004792970043763" id="-20745">
		<tag k="name" v="Mellomveien" />
		<tag k="ssr:date" v="2019-05-30" />
		<tag k="ssr:gruppe" v="veg" />
		<tag k="ssr:hovedgruppe" v="infrastruktur" />
		<tag k="ssr:stedsnr" v="1001439" />
		<tag k="ssr:type" v="adressenavn" />
	</node>
	<node lat="68.51586234455225" lon="17.007967519494464" id="-20746">
		<tag k="name" v="Bergvikveien" />
		<tag k="ssr:date" v="2019-05-30" />
		<tag k="ssr:gruppe" v="veg" />
		<tag k="ssr:hovedgruppe" v="infrastruktur" />
		<tag k="ssr:stedsnr" v="1001443" />
		<tag k="ssr:type" v="adressenavn" />
	</node>
	<node lat="68.51217971253989" lon="17.026830261806538" id="-20747">
		<tag k="name" v="Kleivveien" />
		<tag k="ssr:date" v="2019-05-30" />
		<tag k="ssr:gruppe" v="veg" />
		<tag k="ssr:hovedgruppe" v="infrastruktur" />
		<tag k="ssr:stedsnr" v="1001444" />
		<tag k="ssr:type" v="adressenavn" />
	</node>
	<node lat="68.5148734031177" lon="17.00205122501337" id="-20748">
		<tag k="name" v="Nesveien" />
		<tag k="ssr:date" v="2019-05-30" />
		<tag k="ssr:gruppe" v="veg" />
		<tag k="ssr:hovedgruppe" v="infrastruktur" />
		<tag k="ssr:stedsnr" v="1001445" />
		<tag k="ssr:type" v="adressenavn" />
	</node>
	<node lat="68.5264215810638" lon="16.997849317930278" id="-20749">
		<tag k="name" v="Åsenveien" />
		<tag k="ssr:date" v="2019-05-30" />
		<tag k="ssr:gruppe" v="veg" />
		<tag k="ssr:hovedgruppe" v="infrastruktur" />
		<tag k="ssr:stedsnr" v="1001446" />
		<tag k="ssr:type" v="adressenavn" />
	</node>
	<node lat="68.52166784998055" lon="17.00378886922645" id="-20750">
		<tag k="name" v="Industriveien" />
		<tag k="ssr:date" v="2019-05-30" />
		<tag k="ssr:gruppe" v="veg" />
		<tag k="ssr:hovedgruppe" v="infrastruktur" />
		<tag k="ssr:stedsnr" v="1001447" />
		<tag k="ssr:type" v="adressenavn" />
	</node>
	<node lat="68.51522259770854" lon="17.0123883672882" id="-20751">
		<tag k="name" v="Sporet" />
		<tag k="ssr:date" v="2019-05-30" />
		<tag k="ssr:gruppe" v="veg" />
		<tag k="ssr:hovedgruppe" v="infrastruktur" />
		<tag k="ssr:stedsnr" v="1001448" />
		<tag k="ssr:type" v="adressenavn" />
	</node>
	<node lat="68.52249228157162" lon="17.01015539151913" id="-20752">
		<tag k="name" v="Geitbogveien" />
		<tag k="ssr:date" v="2019-05-30" />
		<tag k="ssr:gruppe" v="veg" />
		<tag k="ssr:hovedgruppe" v="infrastruktur" />
		<tag k="ssr:stedsnr" v="1001451" />
		<tag k="ssr:type" v="adressenavn" />
	</node>
	<node lat="68.52397822833927" lon="16.98035458126946" id="-20753">
		<tag k="name" v="Strandveien" />
		<tag k="ssr:date" v="2019-05-30" />
		<tag k="ssr:gruppe" v="veg" />
		<tag k="ssr:hovedgruppe" v="infrastruktur" />
		<tag k="ssr:stedsnr" v="1001454" />
		<tag k="ssr:type" v="adressenavn" />
	</node>
	<node lat="68.52627932237088" lon="16.993336449312725" id="-20754">
		<tag k="name" v="Niingsveien" />
		<tag k="ssr:date" v="2019-05-30" />
		<tag k="ssr:gruppe" v="veg" />
		<tag k="ssr:hovedgruppe" v="infrastruktur" />
		<tag k="ssr:stedsnr" v="1001456" />
		<tag k="ssr:type" v="adressenavn" />
	</node>
	<node lat="68.52591912573347" lon="16.997138491395003" id="-20755">
		<tag k="name" v="Ånesveien" />
		<tag k="ssr:date" v="2019-05-30" />
		<tag k="ssr:gruppe" v="veg" />
		<tag k="ssr:hovedgruppe" v="infrastruktur" />
		<tag k="ssr:stedsnr" v="1001457" />
		<tag k="ssr:type" v="adressenavn" />
	</node>
	<node lat="68.48332073597926" lon="16.884312545701164" id="-20756">
		<tag k="name" v="Stuslåtta" />
		<tag k="ssr:date" v="2019-05-30" />
		<tag k="ssr:gruppe" v="veg" />
		<tag k="ssr:hovedgruppe" v="infrastruktur" />
		<tag k="ssr:stedsnr" v="1001490" />
		<tag k="ssr:type" v="adressenavn" />
	</node>
	<node lat="68.4809482342334" lon="16.8845390070658" id="-20757">
		<tag k="name" v="Rudolfsletta" />
		<tag k="ssr:date" v="2019-05-30" />
		<tag k="ssr:gruppe" v="veg" />
		<tag k="ssr:hovedgruppe" v="infrastruktur" />
		<tag k="ssr:stedsnr" v="1001495" />
		<tag k="ssr:type" v="adressenavn" />
	</node>
	<node lat="68.48294801827086" lon="16.892727375555463" id="-20758">
		<tag k="name" v="Sundveien" />
		<tag k="ssr:date" v="2019-05-30" />
		<tag k="ssr:gruppe" v="veg" />
		<tag k="ssr:hovedgruppe" v="infrastruktur" />
		<tag k="ssr:stedsnr" v="1001498" />
		<tag k="ssr:type" v="adressenavn" />
	</node>
	<node lat="68.4826642356337" lon="16.88962266148131" id="-20759">
		<tag k="name" v="Bjellgamveien" />
		<tag k="ssr:date" v="2019-05-30" />
		<tag k="ssr:gruppe" v="veg" />
		<tag k="ssr:hovedgruppe" v="infrastruktur" />
		<tag k="ssr:stedsnr" v="1001501" />
		<tag k="ssr:type" v="adressenavn" />
	</node>
	<node lat="68.48326784870585" lon="16.893302603852913" id="-20760">
		<tag k="name" v="Ostadbakken" />
		<tag k="ssr:date" v="2019-05-30" />
		<tag k="ssr:gruppe" v="veg" />
		<tag k="ssr:hovedgruppe" v="infrastruktur" />
		<tag k="ssr:stedsnr" v="1001502" />
		<tag k="ssr:type" v="adressenavn" />
	</node>
	<node lat="68.48324074729383" lon="16.884484536293645" id="-20761">
		<tag k="name" v="Bjellundveien" />
		<tag k="ssr:date" v="2019-05-30" />
		<tag k="ssr:gruppe" v="veg" />
		<tag k="ssr:hovedgruppe" v="infrastruktur" />
		<tag k="ssr:stedsnr" v="1001503" />
		<tag k="ssr:type" v="adressenavn" />
	</node>
	<node lat="68.48106826661154" lon="16.888943040942173" id="-20762">
		<tag k="name" v="Birkelundveien" />
		<tag k="ssr:date" v="2019-05-30" />
		<tag k="ssr:gruppe" v="veg" />
		<tag k="ssr:hovedgruppe" v="infrastruktur" />
		<tag k="ssr:stedsnr" v="1001504" />
		<tag k="ssr:type" v="adressenavn" />
	</node>
	<node lat="68.4816058043936" lon="16.890121201613592" id="-20763">
		<tag k="name" v="Lilandsveien" />
		<tag k="ssr:date" v="2019-05-30" />
		<tag k="ssr:gruppe" v="veg" />
		<tag k="ssr:hovedgruppe" v="infrastruktur" />
		<tag k="ssr:stedsnr" v="1001508" />
		<tag k="ssr:type" v="adressenavn" />
	</node>
	<node lat="68.53609328928874" lon="17.266646116130868" id="-20764">
		<tag k="name" v="Svanevassveien" />
		<tag k="ssr:date" v="2019-05-30" />
		<tag k="ssr:gruppe" v="veg" />
		<tag k="ssr:hovedgruppe" v="infrastruktur" />
		<tag k="ssr:stedsnr" v="1002145" />
		<tag k="ssr:type" v="adressenavn" />
	</node>
	<node lat="68.48259473683414" lon="17.107010776543916" id="-20765">
		<tag k="name" v="Malmveien" />
		<tag k="ssr:date" v="2019-05-30" />
		<tag k="ssr:gruppe" v="veg" />
		<tag k="ssr:hovedgruppe" v="infrastruktur" />
		<tag k="ssr:stedsnr" v="1002147" />
		<tag k="ssr:type" v="adressenavn" />
	</node>
	<node lat="68.51504161742635" lon="17.004993290178614" id="-20766">
		<tag k="name" v="Lenvik" />
		<tag k="ssr:date" v="2019-05-30" />
		<tag k="ssr:gruppe" v="veg" />
		<tag k="ssr:hovedgruppe" v="infrastruktur" />
		<tag k="ssr:stedsnr" v="1002149" />
		<tag k="ssr:type" v="adressenavn" />
	</node>
	<node lat="68.51081766798224" lon="17.05490956711537" id="-20767">
		<tag k="name" v="Toppveien" />
		<tag k="ssr:date" v="2019-05-30" />
		<tag k="ssr:gruppe" v="veg" />
		<tag k="ssr:hovedgruppe" v="infrastruktur" />
		<tag k="ssr:stedsnr" v="1002152" />
		<tag k="ssr:type" v="adressenavn" />
	</node>
	<node lat="68.52981182944986" lon="17.03632052404208" id="-20768">
		<tag k="name" v="Krokslettveien" />
		<tag k="ssr:date" v="2019-05-30" />
		<tag k="ssr:gruppe" v="veg" />
		<tag k="ssr:hovedgruppe" v="infrastruktur" />
		<tag k="ssr:stedsnr" v="1002153" />
		<tag k="ssr:type" v="adressenavn" />
	</node>
	<node lat="68.53834853227075" lon="17.03677333884114" id="-20769">
		<tag k="name" v="Vassbotnveien" />
		<tag k="ssr:date" v="2019-05-30" />
		<tag k="ssr:gruppe" v="veg" />
		<tag k="ssr:hovedgruppe" v="infrastruktur" />
		<tag k="ssr:stedsnr" v="1002155" />
		<tag k="ssr:type" v="adressenavn" />
	</node>
	<node lat="68.53564439235545" lon="17.26995084840695" id="-20770">
		<tag k="name" v="Tofteveien" />
		<tag k="ssr:date" v="2019-05-30" />
		<tag k="ssr:gruppe" v="veg" />
		<tag k="ssr:hovedgruppe" v="infrastruktur" />
		<tag k="ssr:stedsnr" v="1002157" />
		<tag k="ssr:type" v="adressenavn" />
	</node>
	<node lat="68.52439940867262" lon="17.006218702533236" id="-20771">
		<tag k="name" v="Narvikveien" />
		<tag k="ssr:date" v="2019-05-30" />
		<tag k="ssr:gruppe" v="veg" />
		<tag k="ssr:hovedgruppe" v="infrastruktur" />
		<tag k="ssr:stedsnr" v="1002270" />
		<tag k="ssr:type" v="adressenavn" />
	</node>
	<node lat="68.53674281778041" lon="17.216107061156865" id="-20772">
		<tag k="name" v="Grovfjordveien" />
		<tag k="ssr:date" v="2019-05-30" />
		<tag k="ssr:gruppe" v="veg" />
		<tag k="ssr:hovedgruppe" v="infrastruktur" />
		<tag k="ssr:stedsnr" v="1002273" />
		<tag k="ssr:type" v="adressenavn" />
	</node>
	<node lat="68.5176011649757" lon="17.142471943419267" id="-20773">
		<tag k="name" v="Snubbaveien" />
		<tag k="ssr:date" v="2019-05-30" />
		<tag k="ssr:gruppe" v="veg" />
		<tag k="ssr:hovedgruppe" v="infrastruktur" />
		<tag k="ssr:stedsnr" v="1002274" />
		<tag k="ssr:type" v="adressenavn" />
	</node>
	<node lat="68.50331214022582" lon="17.078196161972127" id="-20774">
		<tag k="name" v="Nausthågen" />
		<tag k="ssr:date" v="2019-05-30" />
		<tag k="ssr:gruppe" v="veg" />
		<tag k="ssr:hovedgruppe" v="infrastruktur" />
		<tag k="ssr:stedsnr" v="1002284" />
		<tag k="ssr:type" v="adressenavn" />
	</node>
	<node lat="68.50331214022582" lon="17.078196161972127" id="-20775">
		<tag k="name" v="Høgdaveien" />
		<tag k="ssr:date" v="2019-05-30" />
		<tag k="ssr:gruppe" v="veg" />
		<tag k="ssr:hovedgruppe" v="infrastruktur" />
		<tag k="ssr:stedsnr" v="1002285" />
		<tag k="ssr:type" v="adressenavn" />
	</node>
	<node lat="68.53046678590329" lon="17.26768019019088" id="-20776">
		<tag k="name" v="Bruveien hyttefelt" />
		<tag k="ssr:date" v="2019-05-30" />
		<tag k="ssr:gruppe" v="veg" />
		<tag k="ssr:hovedgruppe" v="infrastruktur" />
		<tag k="ssr:stedsnr" v="1002286" />
		<tag k="ssr:type" v="adressenavn" />
	</node>
	<node lat="68.514345611775" lon="17.153002115209375" id="-20777">
		<tag k="name" v="Østervikvann Hyttefelt" />
		<tag k="ssr:date" v="2019-05-30" />
		<tag k="ssr:gruppe" v="veg" />
		<tag k="ssr:hovedgruppe" v="infrastruktur" />
		<tag k="ssr:stedsnr" v="1002287" />
		<tag k="ssr:type" v="adressenavn" />
	</node>
	<node lat="68.47400818765895" lon="17.079493279167384" id="-20778">
		<tag k="name" v="Sørteigveien" />
		<tag k="ssr:date" v="2019-05-30" />
		<tag k="ssr:gruppe" v="veg" />
		<tag k="ssr:hovedgruppe" v="infrastruktur" />
		<tag k="ssr:stedsnr" v="1002288" />
		<tag k="ssr:type" v="adressenavn" />
	</node>
	<node lat="68.48441205545478" lon="16.90567209523934" id="-20779">
		<tag k="name" v="Rorbuveien" />
		<tag k="ssr:date" v="2019-05-30" />
		<tag k="ssr:gruppe" v="veg" />
		<tag k="ssr:hovedgruppe" v="infrastruktur" />
		<tag k="ssr:stedsnr" v="1003850" />
		<tag k="ssr:type" v="adressenavn" />
	</node>
	<node lat="68.47723175640876" lon="16.908063709669406" id="-20780">
		<tag k="name" v="Skogøya" />
		<tag k="ssr:date" v="2019-05-30" />
		<tag k="ssr:gruppe" v="veg" />
		<tag k="ssr:hovedgruppe" v="infrastruktur" />
		<tag k="ssr:stedsnr" v="1003852" />
		<tag k="ssr:type" v="adressenavn" />
	</node>
	<node lat="68.46838241110517" lon="16.84006428673315" id="-20781">
		<tag k="name" v="Nerveien" />
		<tag k="ssr:date" v="2019-05-30" />
		<tag k="ssr:gruppe" v="veg" />
		<tag k="ssr:hovedgruppe" v="infrastruktur" />
		<tag k="ssr:stedsnr" v="1003855" />
		<tag k="ssr:type" v="adressenavn" />
	</node>
	<node lat="68.49140255900639" lon="16.71610635469102" id="-20782">
		<tag k="name" v="Evenesveien" />
		<tag k="ssr:date" v="2019-05-30" />
		<tag k="ssr:gruppe" v="veg" />
		<tag k="ssr:hovedgruppe" v="infrastruktur" />
		<tag k="ssr:stedsnr" v="1003857" />
		<tag k="ssr:type" v="adressenavn" />
	</node>
	<node lat="68.50398164205392" lon="16.90968822524355" id="-20783">
		<tag k="name" v="Laksåveien" />
		<tag k="ssr:date" v="2019-05-30" />
		<tag k="ssr:gruppe" v="veg" />
		<tag k="ssr:hovedgruppe" v="infrastruktur" />
		<tag k="ssr:stedsnr" v="1003858" />
		<tag k="ssr:type" v="adressenavn" />
	</node>
	<node lat="68.50296054042671" lon="16.928983455108842" id="-20784">
		<tag k="name" v="Aspenesveien" />
		<tag k="ssr:date" v="2019-05-30" />
		<tag k="ssr:gruppe" v="veg" />
		<tag k="ssr:hovedgruppe" v="infrastruktur" />
		<tag k="ssr:stedsnr" v="1003860" />
		<tag k="ssr:type" v="adressenavn" />
	</node>
	<node lat="68.5020716553537" lon="16.92531728902764" id="-20785">
		<tag k="name" v="Sjøveien" />
		<tag k="ssr:date" v="2019-05-30" />
		<tag k="ssr:gruppe" v="veg" />
		<tag k="ssr:hovedgruppe" v="infrastruktur" />
		<tag k="ssr:stedsnr" v="1003861" />
		<tag k="ssr:type" v="adressenavn" />
	</node>
	<node lat="68.4992700617014" lon="16.849480520355673" id="-20786">
		<tag k="name" v="Markeveien" />
		<tag k="ssr:date" v="2019-05-30" />
		<tag k="ssr:gruppe" v="veg" />
		<tag k="ssr:hovedgruppe" v="infrastruktur" />
		<tag k="ssr:stedsnr" v="1003862" />
		<tag k="ssr:type" v="adressenavn" />
	</node>
	<node lat="68.49165228682355" lon="16.70326632570539" id="-20787">
		<tag k="name" v="Harstadveien" />
		<tag k="ssr:date" v="2019-05-30" />
		<tag k="ssr:gruppe" v="veg" />
		<tag k="ssr:hovedgruppe" v="infrastruktur" />
		<tag k="ssr:stedsnr" v="1003864" />
		<tag k="ssr:type" v="adressenavn" />
	</node>
	<node lat="68.50942992762691" lon="16.93091570190919" id="-20788">
		<tag k="name" v="Leirosveien" />
		<tag k="ssr:date" v="2019-05-30" />
		<tag k="ssr:gruppe" v="veg" />
		<tag k="ssr:hovedgruppe" v="infrastruktur" />
		<tag k="ssr:stedsnr" v="1003865" />
		<tag k="ssr:type" v="adressenavn" />
	</node>
	<node lat="68.50454560629626" lon="16.916123509928006" id="-20789">
		<tag k="name" v="Dragvikveien" />
		<tag k="ssr:date" v="2019-05-30" />
		<tag k="ssr:gruppe" v="veg" />
		<tag k="ssr:hovedgruppe" v="infrastruktur" />
		<tag k="ssr:stedsnr" v="1003866" />
		<tag k="ssr:type" v="adressenavn" />
	</node>
	<node lat="68.49314174354754" lon="16.776512138174297" id="-20790">
		<tag k="name" v="Evenesmarkveien" />
		<tag k="ssr:date" v="2019-05-30" />
		<tag k="ssr:gruppe" v="veg" />
		<tag k="ssr:hovedgruppe" v="infrastruktur" />
		<tag k="ssr:stedsnr" v="1003875" />
		<tag k="ssr:type" v="adressenavn" />
	</node>
	<node lat="68.4942743024884" lon="16.743045476500868" id="-20791">
		<tag k="name" v="Finhaugveien" />
		<tag k="ssr:date" v="2019-05-30" />
		<tag k="ssr:gruppe" v="veg" />
		<tag k="ssr:hovedgruppe" v="infrastruktur" />
		<tag k="ssr:stedsnr" v="1003876" />
		<tag k="ssr:type" v="adressenavn" />
	</node>
	<node lat="68.4925545569673" lon="16.73196779360909" id="-20792">
		<tag k="name" v="Liakollveien" />
		<tag k="ssr:date" v="2019-05-30" />
		<tag k="ssr:gruppe" v="veg" />
		<tag k="ssr:hovedgruppe" v="infrastruktur" />
		<tag k="ssr:stedsnr" v="1003877" />
		<tag k="ssr:type" v="adressenavn" />
	</node>
	<node lat="68.50224740488817" lon="16.892496747764977" id="-20793">
		<tag k="name" v="Fjellveien" />
		<tag k="ssr:date" v="2019-05-30" />
		<tag k="ssr:gruppe" v="veg" />
		<tag k="ssr:hovedgruppe" v="infrastruktur" />
		<tag k="ssr:stedsnr" v="1003878" />
		<tag k="ssr:type" v="adressenavn" />
	</node>
	<node lat="68.50713060422068" lon="16.846855333324296" id="-20794">
		<tag k="name" v="Grønnliveien" />
		<tag k="ssr:date" v="2019-05-30" />
		<tag k="ssr:gruppe" v="veg" />
		<tag k="ssr:hovedgruppe" v="infrastruktur" />
		<tag k="ssr:stedsnr" v="1003879" />
		<tag k="ssr:type" v="adressenavn" />
	</node>
	<node lat="68.49800936217012" lon="16.813659499214374" id="-20795">
		<tag k="name" v="Osmarkveien" />
		<tag k="ssr:date" v="2019-05-30" />
		<tag k="ssr:gruppe" v="veg" />
		<tag k="ssr:hovedgruppe" v="infrastruktur" />
		<tag k="ssr:stedsnr" v="1003880" />
		<tag k="ssr:type" v="adressenavn" />
	</node>
	<node lat="68.49237426168105" lon="16.80813298775589" id="-20796">
		<tag k="name" v="Lensmannsparten" />
		<tag k="ssr:date" v="2019-05-30" />
		<tag k="ssr:gruppe" v="veg" />
		<tag k="ssr:hovedgruppe" v="infrastruktur" />
		<tag k="ssr:stedsnr" v="1003881" />
		<tag k="ssr:type" v="adressenavn" />
	</node>
	<node lat="68.49255351017857" lon="16.730391214728538" id="-20797">
		<tag k="name" v="Kvitforsveien" />
		<tag k="ssr:date" v="2019-05-30" />
		<tag k="ssr:gruppe" v="veg" />
		<tag k="ssr:hovedgruppe" v="infrastruktur" />
		<tag k="ssr:stedsnr" v="1004570" />
		<tag k="ssr:type" v="adressenavn" />
	</node>
	<node lat="68.51429622727474" lon="16.74902713174881" id="-20798">
		<tag k="name" v="Svartvannveien" />
		<tag k="ssr:date" v="2019-05-30" />
		<tag k="ssr:gruppe" v="veg" />
		<tag k="ssr:hovedgruppe" v="infrastruktur" />
		<tag k="ssr:stedsnr" v="1004572" />
		<tag k="ssr:type" v="adressenavn" />
	</node>
	<node lat="68.52733075199953" lon="16.76676602314232" id="-20799">
		<tag k="name" v="Øvermyrnesveien" />
		<tag k="ssr:date" v="2019-05-30" />
		<tag k="ssr:gruppe" v="veg" />
		<tag k="ssr:hovedgruppe" v="infrastruktur" />
		<tag k="ssr:stedsnr" v="1004574" />
		<tag k="ssr:type" v="adressenavn" />
	</node>
	<node lat="68.52000339574182" lon="16.758673333943253" id="-20800">
		<tag k="name" v="Fjellkroken" />
		<tag k="ssr:date" v="2019-05-30" />
		<tag k="ssr:gruppe" v="veg" />
		<tag k="ssr:hovedgruppe" v="infrastruktur" />
		<tag k="ssr:stedsnr" v="1005276" />
		<tag k="ssr:type" v="adressenavn" />
	</node>
	<node lat="68.4965462494281" lon="16.701126207109635" id="-20801">
		<tag k="name" v="Normann Skoglunds vei" />
		<tag k="ssr:date" v="2019-05-30" />
		<tag k="ssr:gruppe" v="veg" />
		<tag k="ssr:hovedgruppe" v="infrastruktur" />
		<tag k="ssr:stedsnr" v="1005281" />
		<tag k="ssr:type" v="adressenavn" />
	</node>
	<node lat="68.49251279737925" lon="16.69995455333623" id="-20802">
		<tag k="name" v="Flyplassveien" />
		<tag k="ssr:date" v="2019-05-30" />
		<tag k="ssr:gruppe" v="veg" />
		<tag k="ssr:hovedgruppe" v="infrastruktur" />
		<tag k="ssr:stedsnr" v="1005286" />
		<tag k="ssr:type" v="adressenavn" />
	</node>
	<node lat="68.49162968090074" lon="16.70189529040144" id="-20803">
		<tag k="name" v="Svanvassåsveien" />
		<tag k="ssr:date" v="2019-05-30" />
		<tag k="ssr:gruppe" v="veg" />
		<tag k="ssr:hovedgruppe" v="infrastruktur" />
		<tag k="ssr:stedsnr" v="1005291" />
		<tag k="ssr:type" v="adressenavn" />
	</node>
	<node lat="68.47613092511243" lon="16.701761357692757" id="-20804">
		<tag k="name" v="Blåakselveien" />
		<tag k="ssr:date" v="2019-05-30" />
		<tag k="ssr:gruppe" v="veg" />
		<tag k="ssr:hovedgruppe" v="infrastruktur" />
		<tag k="ssr:stedsnr" v="1005293" />
		<tag k="ssr:type" v="adressenavn" />
	</node>
	<node lat="68.45992252515818" lon="16.6993234286676" id="-20805">
		<tag k="name" v="Kirkebakken" />
		<tag k="ssr:date" v="2019-05-30" />
		<tag k="ssr:gruppe" v="veg" />
		<tag k="ssr:hovedgruppe" v="infrastruktur" />
		<tag k="ssr:stedsnr" v="1005296" />
		<tag k="ssr:type" v="adressenavn" />
	</node>
	<node lat="68.53478401736045" lon="16.769531477214166" id="-20806">
		<tag k="name" v="Sør-Kvitforsveien" />
		<tag k="ssr:date" v="2019-05-30" />
		<tag k="ssr:gruppe" v="veg" />
		<tag k="ssr:hovedgruppe" v="infrastruktur" />
		<tag k="ssr:stedsnr" v="1005302" />
		<tag k="ssr:type" v="adressenavn" />
	</node>
	<node lat="68.51483419599722" lon="16.725044900649113" id="-20807">
		<tag k="name" v="Stuneshaugveien" />
		<tag k="ssr:date" v="2019-05-30" />
		<tag k="ssr:gruppe" v="veg" />
		<tag k="ssr:hovedgruppe" v="infrastruktur" />
		<tag k="ssr:stedsnr" v="1005305" />
		<tag k="ssr:type" v="adressenavn" />
	</node>
	<node lat="68.49194840753708" lon="16.71831444692568" id="-20808">
		<tag k="name" v="Kjerkhaugveien" />
		<tag k="ssr:date" v="2019-05-30" />
		<tag k="ssr:gruppe" v="veg" />
		<tag k="ssr:hovedgruppe" v="infrastruktur" />
		<tag k="ssr:stedsnr" v="1005309" />
		<tag k="ssr:type" v="adressenavn" />
	</node>
	<node lat="68.4961758206179" lon="16.70045226931594" id="-20809">
		<tag k="name" v="Bedringens vei" />
		<tag k="ssr:date" v="2019-05-30" />
		<tag k="ssr:gruppe" v="veg" />
		<tag k="ssr:hovedgruppe" v="infrastruktur" />
		<tag k="ssr:stedsnr" v="1005313" />
		<tag k="ssr:type" v="adressenavn" />
	</node>
	<node lat="68.46277344655344" lon="16.637669127827756" id="-20810">
		<tag k="name" v="Melladalsveien" />
		<tag k="ssr:date" v="2019-05-30" />
		<tag k="ssr:gruppe" v="veg" />
		<tag k="ssr:hovedgruppe" v="infrastruktur" />
		<tag k="ssr:stedsnr" v="1005686" />
		<tag k="ssr:type" v="adressenavn" />
	</node>
	<node lat="68.45893045753712" lon="16.695565786037406" id="-20811">
		<tag k="name" v="Moloveien" />
		<tag k="ssr:date" v="2019-05-30" />
		<tag k="ssr:gruppe" v="veg" />
		<tag k="ssr:hovedgruppe" v="infrastruktur" />
		<tag k="ssr:stedsnr" v="1005689" />
		<tag k="ssr:type" v="adressenavn" />
	</node>
	<node lat="68.45968077748185" lon="16.62216529743379" id="-20812">
		<tag k="name" v="Fisketjønnveien" />
		<tag k="ssr:date" v="2019-05-30" />
		<tag k="ssr:gruppe" v="veg" />
		<tag k="ssr:hovedgruppe" v="infrastruktur" />
		<tag k="ssr:stedsnr" v="1005706" />
		<tag k="ssr:type" v="adressenavn" />
	</node>
	<node lat="68.46004781060401" lon="16.625580411343396" id="-20813">
		<tag k="name" v="Tingvoldveien" />
		<tag k="ssr:date" v="2019-05-30" />
		<tag k="ssr:gruppe" v="veg" />
		<tag k="ssr:hovedgruppe" v="infrastruktur" />
		<tag k="ssr:stedsnr" v="1005708" />
		<tag k="ssr:type" v="adressenavn" />
	</node>
	<node lat="68.45576021156354" lon="16.602892314982018" id="-20814">
		<tag k="name" v="Øverlandveien" />
		<tag k="ssr:date" v="2019-05-30" />
		<tag k="ssr:gruppe" v="veg" />
		<tag k="ssr:hovedgruppe" v="infrastruktur" />
		<tag k="ssr:stedsnr" v="1005709" />
		<tag k="ssr:type" v="adressenavn" />
	</node>
	<node lat="68.45570296152734" lon="16.59845205800993" id="-20815">
		<tag k="name" v="Nymoveien" />
		<tag k="ssr:date" v="2019-05-30" />
		<tag k="ssr:gruppe" v="veg" />
		<tag k="ssr:hovedgruppe" v="infrastruktur" />
		<tag k="ssr:stedsnr" v="1005710" />
		<tag k="ssr:type" v="adressenavn" />
	</node>
	<node lat="68.46551574231864" lon="16.639799929563875" id="-20816">
		<tag k="name" v="Brennhaugveien" />
		<tag k="ssr:date" v="2019-05-30" />
		<tag k="ssr:gruppe" v="veg" />
		<tag k="ssr:hovedgruppe" v="infrastruktur" />
		<tag k="ssr:stedsnr" v="1005665" />
		<tag k="ssr:type" v="adressenavn" />
	</node>
	<node lat="68.46215404262642" lon="16.633478296608786" id="-20817">
		<tag k="name" v="Sandvollveien" />
		<tag k="ssr:date" v="2019-05-30" />
		<tag k="ssr:gruppe" v="veg" />
		<tag k="ssr:hovedgruppe" v="infrastruktur" />
		<tag k="ssr:stedsnr" v="1005666" />
		<tag k="ssr:type" v="adressenavn" />
	</node>
	<node lat="68.4600448306282" lon="16.624962786967156" id="-20818">
		<tag k="name" v="Kalvslettveien" />
		<tag k="ssr:date" v="2019-05-30" />
		<tag k="ssr:gruppe" v="veg" />
		<tag k="ssr:hovedgruppe" v="infrastruktur" />
		<tag k="ssr:stedsnr" v="1005668" />
		<tag k="ssr:type" v="adressenavn" />
	</node>
	<node lat="68.47726213281221" lon="16.621523861084864" id="-20819">
		<tag k="name" v="Nøkktjønnveien" />
		<tag k="ssr:date" v="2019-05-30" />
		<tag k="ssr:gruppe" v="veg" />
		<tag k="ssr:hovedgruppe" v="infrastruktur" />
		<tag k="ssr:stedsnr" v="1005671" />
		<tag k="ssr:type" v="adressenavn" />
	</node>
	<node lat="68.46521744675148" lon="16.65727624999357" id="-20820">
		<tag k="name" v="Korsveien" />
		<tag k="ssr:date" v="2019-05-30" />
		<tag k="ssr:gruppe" v="veg" />
		<tag k="ssr:hovedgruppe" v="infrastruktur" />
		<tag k="ssr:stedsnr" v="1005673" />
		<tag k="ssr:type" v="adressenavn" />
	</node>
	<node lat="68.46401051330018" lon="16.645392370325624" id="-20821">
		<tag k="name" v="Nessanveien" />
		<tag k="ssr:date" v="2019-05-30" />
		<tag k="ssr:gruppe" v="veg" />
		<tag k="ssr:hovedgruppe" v="infrastruktur" />
		<tag k="ssr:stedsnr" v="1005675" />
		<tag k="ssr:type" v="adressenavn" />
	</node>
	<node lat="68.49413401111924" lon="16.630877687903556" id="-20822">
		<tag k="name" v="Høgåsenveien" />
		<tag k="ssr:date" v="2019-05-30" />
		<tag k="ssr:gruppe" v="veg" />
		<tag k="ssr:hovedgruppe" v="infrastruktur" />
		<tag k="ssr:stedsnr" v="1005678" />
		<tag k="ssr:type" v="adressenavn" />
	</node>
	<node lat="68.46357171240169" lon="16.641256655137827" id="-20823">
		<tag k="name" v="Osvollveien" />
		<tag k="ssr:date" v="2019-05-30" />
		<tag k="ssr:gruppe" v="veg" />
		<tag k="ssr:hovedgruppe" v="infrastruktur" />
		<tag k="ssr:stedsnr" v="1005680" />
		<tag k="ssr:type" v="adressenavn" />
	</node>
	<node lat="68.45866657920405" lon="16.69945566977574" id="-20824">
		<tag k="name" v="Tårstadveien" />
		<tag k="ssr:date" v="2019-05-30" />
		<tag k="ssr:gruppe" v="veg" />
		<tag k="ssr:hovedgruppe" v="infrastruktur" />
		<tag k="ssr:stedsnr" v="1005684" />
		<tag k="ssr:type" v="adressenavn" />
	</node>
</osm>
