<?xml version="1.0" encoding="UTF-8"?>
<osm version="0.6" generator="osmapis">
	<node lat="61.114633332545985" lon="10.467422216440033" id="-18604">
		<tag k="name" v="Lillehammer kommune" />
		<tag k="ssr:date" v="2019-12-27" />
		<tag k="ssr:gruppe" v="administrativeIndelinger" />
		<tag k="ssr:hovedgruppe" v="offentligAdministrasjon" />
		<tag k="ssr:stedsnr" v="390094" />
		<tag k="ssr:type" v="kommune" />
	</node>
	<node lat="61.17158157864875" lon="10.61301961378752" id="-19729">
		<tag k="name" v="Sandhellinga" />
		<tag k="ssr:date" v="2019-12-27" />
		<tag k="ssr:gruppe" v="veg" />
		<tag k="ssr:hovedgruppe" v="infrastruktur" />
		<tag k="ssr:stedsnr" v="1018415" />
		<tag k="ssr:type" v="adressenavn" />
	</node>
	<node lat="61.174574541245505" lon="10.612810284535831" id="-19730">
		<tag k="name" v="Leirvegen" />
		<tag k="ssr:date" v="2019-12-27" />
		<tag k="ssr:gruppe" v="veg" />
		<tag k="ssr:hovedgruppe" v="infrastruktur" />
		<tag k="ssr:stedsnr" v="1018418" />
		<tag k="ssr:type" v="adressenavn" />
	</node>
	<node lat="61.11755481564682" lon="10.464971809802073" id="-19731">
		<tag k="name" v="Mesnakvartalet" />
		<tag k="ssr:date" v="2019-12-27" />
		<tag k="ssr:gruppe" v="veg" />
		<tag k="ssr:hovedgruppe" v="infrastruktur" />
		<tag k="ssr:stedsnr" v="1018422" />
		<tag k="ssr:type" v="adressenavn" />
	</node>
	<node lat="61.144134792671515" lon="10.41814604216232" id="-19732">
		<tag k="name" v="Hovejordet" />
		<tag k="ssr:date" v="2019-12-27" />
		<tag k="ssr:gruppe" v="veg" />
		<tag k="ssr:hovedgruppe" v="infrastruktur" />
		<tag k="ssr:stedsnr" v="1018423" />
		<tag k="ssr:type" v="adressenavn" />
	</node>
	<node lat="61.03247642732313" lon="10.41525571594432" id="-19733">
		<tag k="name" v="Søre Vingromslia" />
		<tag k="ssr:date" v="2019-12-27" />
		<tag k="ssr:gruppe" v="veg" />
		<tag k="ssr:hovedgruppe" v="infrastruktur" />
		<tag k="ssr:stedsnr" v="1018436" />
		<tag k="ssr:type" v="adressenavn" />
	</node>
	<node lat="61.137609868491765" lon="10.241999671207346" id="-19734">
		<tag k="name" v="Lille-Ulland" />
		<tag k="ssr:date" v="2019-12-27" />
		<tag k="ssr:gruppe" v="veg" />
		<tag k="ssr:hovedgruppe" v="infrastruktur" />
		<tag k="ssr:stedsnr" v="1018438" />
		<tag k="ssr:type" v="adressenavn" />
	</node>
	<node lat="61.16286140128551" lon="10.281496453179729" id="-19735">
		<tag k="name" v="Kinna" />
		<tag k="ssr:date" v="2019-12-27" />
		<tag k="ssr:gruppe" v="veg" />
		<tag k="ssr:hovedgruppe" v="infrastruktur" />
		<tag k="ssr:stedsnr" v="1018439" />
		<tag k="ssr:type" v="adressenavn" />
	</node>
	<node lat="61.13189108766995" lon="10.339780584169715" id="-19736">
		<tag k="name" v="Ruka" />
		<tag k="ssr:date" v="2019-12-27" />
		<tag k="ssr:gruppe" v="veg" />
		<tag k="ssr:hovedgruppe" v="infrastruktur" />
		<tag k="ssr:stedsnr" v="1018441" />
		<tag k="ssr:type" v="adressenavn" />
	</node>
	<node lat="61.16291933165221" lon="10.20444585538095" id="-19737">
		<tag k="name" v="Rindåsen" />
		<tag k="ssr:date" v="2019-12-27" />
		<tag k="ssr:gruppe" v="veg" />
		<tag k="ssr:hovedgruppe" v="infrastruktur" />
		<tag k="ssr:stedsnr" v="1018443" />
		<tag k="ssr:type" v="adressenavn" />
	</node>
	<node lat="61.21213361953023" lon="10.380310054835052" id="-19738">
		<tag k="name" v="Baksetra" />
		<tag k="ssr:date" v="2019-12-27" />
		<tag k="ssr:gruppe" v="veg" />
		<tag k="ssr:hovedgruppe" v="infrastruktur" />
		<tag k="ssr:stedsnr" v="1018445" />
		<tag k="ssr:type" v="adressenavn" />
	</node>
	<node lat="61.15164292032392" lon="10.6385456842596" id="-19739">
		<tag k="name" v="Storkvanndalsvegen" />
		<tag k="ssr:date" v="2019-12-27" />
		<tag k="ssr:gruppe" v="veg" />
		<tag k="ssr:hovedgruppe" v="infrastruktur" />
		<tag k="ssr:stedsnr" v="1018447" />
		<tag k="ssr:type" v="adressenavn" />
	</node>
	<node lat="61.232620598413014" lon="10.39700741670706" id="-19740">
		<tag k="name" v="Hokna" />
		<tag k="ssr:date" v="2019-12-27" />
		<tag k="ssr:gruppe" v="veg" />
		<tag k="ssr:hovedgruppe" v="infrastruktur" />
		<tag k="ssr:stedsnr" v="1018449" />
		<tag k="ssr:type" v="adressenavn" />
	</node>
	<node lat="61.17015542326325" lon="10.458363431281965" id="-19741">
		<tag k="name" v="Gropmarka" />
		<tag k="ssr:date" v="2019-12-27" />
		<tag k="ssr:gruppe" v="veg" />
		<tag k="ssr:hovedgruppe" v="infrastruktur" />
		<tag k="ssr:stedsnr" v="1018451" />
		<tag k="ssr:type" v="adressenavn" />
	</node>
	<node lat="61.147626830980506" lon="10.417499931837487" id="-19742">
		<tag k="name" v="Blåswixvegen" />
		<tag k="ssr:date" v="2019-12-27" />
		<tag k="ssr:gruppe" v="veg" />
		<tag k="ssr:hovedgruppe" v="infrastruktur" />
		<tag k="ssr:stedsnr" v="1018428" />
		<tag k="ssr:type" v="adressenavn" />
	</node>
	<node lat="61.186865905864344" lon="10.239250194431822" id="-19743">
		<tag k="name" v="Støla" />
		<tag k="ssr:date" v="2019-12-27" />
		<tag k="ssr:gruppe" v="veg" />
		<tag k="ssr:hovedgruppe" v="infrastruktur" />
		<tag k="ssr:stedsnr" v="1018430" />
		<tag k="ssr:type" v="adressenavn" />
	</node>
	<node lat="61.211654170961985" lon="10.386815092855038" id="-19744">
		<tag k="name" v="Storsvesetra" />
		<tag k="ssr:date" v="2019-12-27" />
		<tag k="ssr:gruppe" v="veg" />
		<tag k="ssr:hovedgruppe" v="infrastruktur" />
		<tag k="ssr:stedsnr" v="1018432" />
		<tag k="ssr:type" v="adressenavn" />
	</node>
	<node lat="61.16026928616038" lon="10.65510982073939" id="-19745">
		<tag k="name" v="Øvre Heståsen" />
		<tag k="ssr:date" v="2019-12-27" />
		<tag k="ssr:gruppe" v="veg" />
		<tag k="ssr:hovedgruppe" v="infrastruktur" />
		<tag k="ssr:stedsnr" v="1018434" />
		<tag k="ssr:type" v="adressenavn" />
	</node>
	<node lat="61.136895134433054" lon="10.464444548558681" id="-19746">
		<tag k="name" v="Jernvinna" />
		<tag k="ssr:date" v="2019-12-27" />
		<tag k="ssr:gruppe" v="veg" />
		<tag k="ssr:hovedgruppe" v="infrastruktur" />
		<tag k="ssr:stedsnr" v="1018644" />
		<tag k="ssr:type" v="adressenavn" />
	</node>
	<node lat="61.136242534018265" lon="10.477285823854604" id="-19747">
		<tag k="name" v="Skårsetrønningen" />
		<tag k="ssr:date" v="2019-12-27" />
		<tag k="ssr:gruppe" v="veg" />
		<tag k="ssr:hovedgruppe" v="infrastruktur" />
		<tag k="ssr:stedsnr" v="1018647" />
		<tag k="ssr:type" v="adressenavn" />
	</node>
	<node lat="61.1276591476798" lon="10.44305444131907" id="-19748">
		<tag k="name" v="Moengvegen" />
		<tag k="ssr:date" v="2019-12-27" />
		<tag k="ssr:gruppe" v="veg" />
		<tag k="ssr:hovedgruppe" v="infrastruktur" />
		<tag k="ssr:stedsnr" v="1018651" />
		<tag k="ssr:type" v="adressenavn" />
	</node>
	<node lat="61.125090605556096" lon="10.441351608096586" id="-19749">
		<tag k="name" v="Sandheimsbakken" />
		<tag k="ssr:date" v="2019-12-27" />
		<tag k="ssr:gruppe" v="veg" />
		<tag k="ssr:hovedgruppe" v="infrastruktur" />
		<tag k="ssr:stedsnr" v="1018653" />
		<tag k="ssr:type" v="adressenavn" />
	</node>
	<node lat="61.12754874320965" lon="10.44112199118736" id="-19750">
		<tag k="name" v="Svarstadjordet" />
		<tag k="ssr:date" v="2019-12-27" />
		<tag k="ssr:gruppe" v="veg" />
		<tag k="ssr:hovedgruppe" v="infrastruktur" />
		<tag k="ssr:stedsnr" v="1018655" />
		<tag k="ssr:type" v="adressenavn" />
	</node>
	<node lat="61.097211957618384" lon="10.475352193399209" id="-19751">
		<tag k="name" v="Solheimsvegen" />
		<tag k="ssr:date" v="2019-12-27" />
		<tag k="ssr:gruppe" v="veg" />
		<tag k="ssr:hovedgruppe" v="infrastruktur" />
		<tag k="ssr:stedsnr" v="1018663" />
		<tag k="ssr:type" v="adressenavn" />
	</node>
	<node lat="61.135640089250934" lon="10.48118038857702" id="-19752">
		<tag k="name" v="Sagbakken" />
		<tag k="ssr:date" v="2019-12-27" />
		<tag k="ssr:gruppe" v="veg" />
		<tag k="ssr:hovedgruppe" v="infrastruktur" />
		<tag k="ssr:stedsnr" v="1018837" />
		<tag k="ssr:type" v="adressenavn" />
	</node>
	<node lat="61.08623739344141" lon="10.48486857075856" id="-19753">
		<tag k="name" v="Flugsrudkroken" />
		<tag k="ssr:date" v="2019-12-27" />
		<tag k="ssr:gruppe" v="veg" />
		<tag k="ssr:hovedgruppe" v="infrastruktur" />
		<tag k="ssr:stedsnr" v="1018839" />
		<tag k="ssr:type" v="adressenavn" />
	</node>
	<node lat="61.16699305281481" lon="10.619889524588084" id="-19754">
		<tag k="name" v="Seterskogen" />
		<tag k="ssr:date" v="2019-12-27" />
		<tag k="ssr:gruppe" v="veg" />
		<tag k="ssr:hovedgruppe" v="infrastruktur" />
		<tag k="ssr:stedsnr" v="1018845" />
		<tag k="ssr:type" v="adressenavn" />
	</node>
	<node lat="61.17082592153188" lon="10.61637962626798" id="-19755">
		<tag k="name" v="Vintervegen" />
		<tag k="ssr:date" v="2019-12-27" />
		<tag k="ssr:gruppe" v="veg" />
		<tag k="ssr:hovedgruppe" v="infrastruktur" />
		<tag k="ssr:stedsnr" v="1018854" />
		<tag k="ssr:type" v="adressenavn" />
	</node>
	<node lat="61.18228511963692" lon="10.61288565617646" id="-19756">
		<tag k="name" v="Grøtåssetervegen" />
		<tag k="ssr:date" v="2019-12-27" />
		<tag k="ssr:gruppe" v="veg" />
		<tag k="ssr:hovedgruppe" v="infrastruktur" />
		<tag k="ssr:stedsnr" v="1018857" />
		<tag k="ssr:type" v="adressenavn" />
	</node>
	<node lat="61.174988022482275" lon="10.61562202371224" id="-19757">
		<tag k="name" v="Krøtterråket" />
		<tag k="ssr:date" v="2019-12-27" />
		<tag k="ssr:gruppe" v="veg" />
		<tag k="ssr:hovedgruppe" v="infrastruktur" />
		<tag k="ssr:stedsnr" v="1018861" />
		<tag k="ssr:type" v="adressenavn" />
	</node>
	<node lat="61.08293193300768" lon="10.488937301306734" id="-19758">
		<tag k="name" v="Galterudringen" />
		<tag k="ssr:date" v="2019-12-27" />
		<tag k="ssr:gruppe" v="veg" />
		<tag k="ssr:hovedgruppe" v="infrastruktur" />
		<tag k="ssr:stedsnr" v="1018874" />
		<tag k="ssr:type" v="adressenavn" />
	</node>
	<node lat="61.11158641476068" lon="10.607040373723633" id="-19759">
		<tag k="name" v="Mesnasagvegen" />
		<tag k="ssr:date" v="2019-12-27" />
		<tag k="ssr:gruppe" v="veg" />
		<tag k="ssr:hovedgruppe" v="infrastruktur" />
		<tag k="ssr:stedsnr" v="1018787" />
		<tag k="ssr:type" v="adressenavn" />
	</node>
	<node lat="61.13852084447455" lon="10.464236223390852" id="-19760">
		<tag k="name" v="Malmvegen" />
		<tag k="ssr:date" v="2019-12-27" />
		<tag k="ssr:gruppe" v="veg" />
		<tag k="ssr:hovedgruppe" v="infrastruktur" />
		<tag k="ssr:stedsnr" v="1018835" />
		<tag k="ssr:type" v="adressenavn" />
	</node>
	<node lat="61.10022274767892" lon="10.465196721746018" id="-19761">
		<tag k="name" v="Mailundvegen" />
		<tag k="ssr:date" v="2019-12-27" />
		<tag k="ssr:gruppe" v="veg" />
		<tag k="ssr:hovedgruppe" v="infrastruktur" />
		<tag k="ssr:stedsnr" v="1018762" />
		<tag k="ssr:type" v="adressenavn" />
	</node>
	<node lat="61.08831789089313" lon="10.461734646066807" id="-19762">
		<tag k="name" v="Mjøsstranda" />
		<tag k="ssr:date" v="2019-12-27" />
		<tag k="ssr:gruppe" v="veg" />
		<tag k="ssr:hovedgruppe" v="infrastruktur" />
		<tag k="ssr:stedsnr" v="1018764" />
		<tag k="ssr:type" v="adressenavn" />
	</node>
	<node lat="61.17530142750849" lon="10.617200094691867" id="-19763">
		<tag k="name" v="Fjellkirkevegen" />
		<tag k="ssr:date" v="2019-12-27" />
		<tag k="ssr:gruppe" v="veg" />
		<tag k="ssr:hovedgruppe" v="infrastruktur" />
		<tag k="ssr:stedsnr" v="1018767" />
		<tag k="ssr:type" v="adressenavn" />
	</node>
	<node lat="61.111781339067555" lon="10.311830630186765" id="-19764">
		<tag k="name" v="Midttunvegen" />
		<tag k="ssr:date" v="2019-12-27" />
		<tag k="ssr:gruppe" v="veg" />
		<tag k="ssr:hovedgruppe" v="infrastruktur" />
		<tag k="ssr:stedsnr" v="1018769" />
		<tag k="ssr:type" v="adressenavn" />
	</node>
	<node lat="61.04685537192552" lon="10.4235988201523" id="-19765">
		<tag k="name" v="Haugertunet" />
		<tag k="ssr:date" v="2019-12-27" />
		<tag k="ssr:gruppe" v="veg" />
		<tag k="ssr:hovedgruppe" v="infrastruktur" />
		<tag k="ssr:stedsnr" v="1018771" />
		<tag k="ssr:type" v="adressenavn" />
	</node>
	<node lat="61.046478840899866" lon="10.423260809886044" id="-19766">
		<tag k="name" v="Haugerenga" />
		<tag k="ssr:date" v="2019-12-27" />
		<tag k="ssr:gruppe" v="veg" />
		<tag k="ssr:hovedgruppe" v="infrastruktur" />
		<tag k="ssr:stedsnr" v="1018774" />
		<tag k="ssr:type" v="adressenavn" />
	</node>
	<node lat="61.12423734645141" lon="10.571238884110073" id="-19767">
		<tag k="name" v="Mesnaelva" />
		<tag k="ssr:date" v="2019-12-27" />
		<tag k="ssr:gruppe" v="veg" />
		<tag k="ssr:hovedgruppe" v="infrastruktur" />
		<tag k="ssr:stedsnr" v="1018785" />
		<tag k="ssr:type" v="adressenavn" />
	</node>
	<node lat="61.083190238733565" lon="10.490088778453954" id="-19768">
		<tag k="name" v="Galterudkvea" />
		<tag k="ssr:date" v="2019-12-27" />
		<tag k="ssr:gruppe" v="veg" />
		<tag k="ssr:hovedgruppe" v="infrastruktur" />
		<tag k="ssr:stedsnr" v="1018878" />
		<tag k="ssr:type" v="adressenavn" />
	</node>
	<node lat="61.08223686253478" lon="10.475263384283881" id="-19769">
		<tag k="name" v="Halvorstuvegen" />
		<tag k="ssr:date" v="2019-12-27" />
		<tag k="ssr:gruppe" v="veg" />
		<tag k="ssr:hovedgruppe" v="infrastruktur" />
		<tag k="ssr:stedsnr" v="1018880" />
		<tag k="ssr:type" v="adressenavn" />
	</node>
	<node lat="61.08207630470391" lon="10.474202639702831" id="-19770">
		<tag k="name" v="Ånnerudgutua" />
		<tag k="ssr:date" v="2019-12-27" />
		<tag k="ssr:gruppe" v="veg" />
		<tag k="ssr:hovedgruppe" v="infrastruktur" />
		<tag k="ssr:stedsnr" v="1018882" />
		<tag k="ssr:type" v="adressenavn" />
	</node>
	<node lat="61.08396233904598" lon="10.492582004099779" id="-19771">
		<tag k="name" v="Galterudskogen" />
		<tag k="ssr:date" v="2019-12-27" />
		<tag k="ssr:gruppe" v="veg" />
		<tag k="ssr:hovedgruppe" v="infrastruktur" />
		<tag k="ssr:stedsnr" v="1018884" />
		<tag k="ssr:type" v="adressenavn" />
	</node>
	<node lat="61.086983009677596" lon="10.482868026296577" id="-19772">
		<tag k="name" v="Flugsrudvegen" />
		<tag k="ssr:date" v="2019-12-27" />
		<tag k="ssr:gruppe" v="veg" />
		<tag k="ssr:hovedgruppe" v="infrastruktur" />
		<tag k="ssr:stedsnr" v="1018886" />
		<tag k="ssr:type" v="adressenavn" />
	</node>
	<node lat="61.13119454540273" lon="10.478255188300448" id="-19773">
		<tag k="name" v="Ersgårdsvingen" />
		<tag k="ssr:date" v="2019-12-27" />
		<tag k="ssr:gruppe" v="veg" />
		<tag k="ssr:hovedgruppe" v="infrastruktur" />
		<tag k="ssr:stedsnr" v="1018890" />
		<tag k="ssr:type" v="adressenavn" />
	</node>
	<node lat="61.10295191647179" lon="10.464816510565017" id="-19774">
		<tag k="name" v="Dampsaglia" />
		<tag k="ssr:date" v="2019-12-27" />
		<tag k="ssr:gruppe" v="veg" />
		<tag k="ssr:hovedgruppe" v="infrastruktur" />
		<tag k="ssr:stedsnr" v="1018892" />
		<tag k="ssr:type" v="adressenavn" />
	</node>
	<node lat="61.112129563303704" lon="10.36561920406482" id="-19776">
		<tag k="name" v="Korsåsvegen" />
		<tag k="ssr:date" v="2019-12-27" />
		<tag k="ssr:gruppe" v="veg" />
		<tag k="ssr:hovedgruppe" v="infrastruktur" />
		<tag k="ssr:stedsnr" v="1073431" />
		<tag k="ssr:type" v="adressenavn" />
	</node>
	<node lat="60.795248707246294" lon="11.082591224285064" id="-19791">
		<tag k="name" v="Innlandet fylke" />
		<tag k="ssr:date" v="2021-06-08" />
		<tag k="ssr:gruppe" v="administrativeIndelinger" />
		<tag k="ssr:hovedgruppe" v="offentligAdministrasjon" />
		<tag k="ssr:stedsnr" v="1074406" />
		<tag k="ssr:type" v="fylke" />
	</node>
	<node lat="61.10013701899217" lon="10.539343099153761" id="-19792">
		<tag k="name" v="Svensrudvegen" />
		<tag k="ssr:date" v="2020-02-20" />
		<tag k="ssr:gruppe" v="veg" />
		<tag k="ssr:hovedgruppe" v="infrastruktur" />
		<tag k="ssr:stedsnr" v="1075421" />
		<tag k="ssr:type" v="adressenavn" />
	</node>
</osm>
