<?xml version="1.0" encoding="UTF-8"?>
<osm generator="osmapis" version="0.6">
	<node id="-512896" lat="61.2737944486" lon="6.90014443902">
		<tag k="name" v="Britastein" />
		<tag k="natural" v="stone" />
		<tag k="ssr:stedsnr" v="614132" />
	</node>
	<node id="-512892" lat="61.1941944476" lon="6.74467499278">
		<tag k="name" v="Kalvahagen" />
		<tag k="place" v="locality" />
		<tag k="ssr:stedsnr" v="586941" />
	</node>
	<node id="-512761" lat="61.1990583358" lon="6.78910832405">
		<tag k="alt_name" v="Storuri" />
		<tag k="name" v="Storurdi" />
		<tag k="natural" v="scree" />
		<tag k="ssr:stedsnr" v="191873" />
	</node>
	<node id="-513006" lat="61.2070833355" lon="6.71684722974">
		<tag k="name" v="Klovsteinane" />
		<tag k="natural" v="stone" />
		<tag k="ssr:stedsnr" v="798984" />
	</node>
	<node id="-512877" lat="61.1774055539" lon="6.86580833066">
		<tag k="landuse" v="meadow" />
		<tag k="name" v="Hjellene" />
		<tag k="ssr:stedsnr" v="555907" />
	</node>
	<node id="-512874" lat="61.2034583366" lon="6.82396388141">
		<tag k="alt_name" v="Vidmyrane" />
		<tag k="name" v="Viddmyrane" />
		<tag k="natural" v="wetland" />
		<tag k="ssr:stedsnr" v="555876" />
	</node>
	<node id="-512608" lat="61.2588111072" lon="6.91974166849">
		<tag k="name" v="Krekane" />
		<tag k="natural" v="wetland" />
		<tag k="ssr:stedsnr" v="324722" />
	</node>
	<node id="-512861" lat="61.1765638903" lon="6.88530278532">
		<tag k="name" v="Fatlauri" />
		<tag k="natural" v="scree" />
		<tag k="ssr:stedsnr" v="519531" />
	</node>
	<node id="-512731" lat="61.235494442" lon="6.80285555738">
		<tag k="name" v="Kjeringi" />
		<tag k="natural" v="stone" />
		<tag k="ssr:stedsnr" v="130533" />
	</node>
	<node id="-512984" lat="61.1920416637" lon="6.78950833831">
		<tag k="name" v="Bustoene" />
		<tag k="place" v="locality" />
		<tag k="ssr:stedsnr" v="768966" />
	</node>
	<node id="-512983" lat="61.1997305586" lon="6.74271389077">
		<tag k="name" v="Øygardane" />
		<tag k="place" v="locality" />
		<tag k="ssr:stedsnr" v="768943" />
	</node>
	<node id="-512852" lat="61.1985444429" lon="6.89959167246">
		<tag k="name" v="Bergsetmyrane" />
		<tag k="natural" v="wetland" />
		<tag k="ssr:stedsnr" v="494880" />
	</node>
	<node id="-512851" lat="61.2330166658" lon="6.76619167013">
		<tag k="alt_name" v="Gråurane" />
		<tag k="name" v="Gråurdane" />
		<tag k="natural" v="scree" />
		<tag k="ssr:stedsnr" v="494520" />
	</node>
	<node id="-512718" lat="61.2075555589" lon="6.72755555051">
		<tag k="name" v="Myrane" />
		<tag k="natural" v="wetland" />
		<tag k="ssr:stedsnr" v="95054" />
	</node>
	<node id="-512695" lat="61.2191666627" lon="6.9100638822">
		<tag k="name" v="Kvitastein" />
		<tag k="natural" v="stone" />
		<tag k="ssr:stedsnr" v="60000" />
	</node>
	<node id="-512582" lat="61.2393000034" lon="6.75709999506">
		<tag k="name" v="Navarsetmyrane" />
		<tag k="natural" v="wetland" />
		<tag k="ssr:stedsnr" v="277255" />
	</node>
	<node id="-512828" lat="61.1883138854" lon="6.88855000901">
		<tag k="alt_name" v="Skarsmyri" />
		<tag k="name" v="Skardsmyri" />
		<tag k="natural" v="wetland" />
		<tag k="ssr:stedsnr" v="434926" />
	</node>
	<node id="-512952" lat="61.2053305524" lon="6.87168056286">
		<tag k="landuse" v="meadow" />
		<tag k="name" v="Bustagjerde" />
		<tag k="ssr:stedsnr" v="727999" />
	</node>
	<node id="-512951" lat="61.1946972249" lon="6.8376527835">
		<tag k="name" v="Klinggjerde" />
		<tag k="place" v="locality" />
		<tag k="ssr:stedsnr" v="727994" />
	</node>
	<node id="-512694" lat="61.1936027745" lon="6.83374722902">
		<tag k="name" v="Dalene" />
		<tag k="place" v="locality" />
		<tag k="ssr:stedsnr" v="59994" />
	</node>
	<node id="-512691" lat="61.1986972262" lon="6.84073055224">
		<tag k="name" v="Heggdalene" />
		<tag k="place" v="locality" />
		<tag k="ssr:stedsnr" v="40966" />
	</node>
	<node id="-512690" lat="61.1996666712" lon="6.76256111813">
		<tag k="name" v="Kjeringamyri" />
		<tag k="natural" v="wetland" />
		<tag k="ssr:stedsnr" v="40951" />
	</node>
	<node id="-513073" lat="61.2020722189" lon="6.76644445226">
		<tag k="name" v="Langemyr" />
		<tag k="natural" v="wetland" />
		<tag k="ssr:stedsnr" v="944823" />
	</node>
	<node id="-512944" lat="61.2153166682" lon="6.66112222225">
		<tag k="name" v="Langamyri" />
		<tag k="natural" v="wetland" />
		<tag k="ssr:stedsnr" v="701319" />
	</node>
	<node id="-512683" lat="61.1958388865" lon="6.72126111378">
		<tag k="name" v="Storamyri" />
		<tag k="natural" v="wetland" />
		<tag k="ssr:stedsnr" v="34092" />
	</node>
	<node id="-512934" lat="61.1972444474" lon="6.79186110773">
		<tag k="name" v="Volamyri" />
		<tag k="natural" v="wetland" />
		<tag k="ssr:stedsnr" v="676891" />
	</node>
	<node id="-512676" lat="61.2191861134" lon="6.90154999977">
		<tag k="alt_name" v="Eivalgjerdmyri" />
		<tag k="name" v="Elvagjerdmyri" />
		<tag k="natural" v="wetland" />
		<tag k="ssr:stedsnr" v="9933" />
	</node>
	<node id="-512929" lat="61.1753750019" lon="6.87312499533">
		<tag k="landuse" v="meadow" />
		<tag k="name" v="Staurhoggene" />
		<tag k="ssr:stedsnr" v="666982" />
	</node>
	<node id="-513054" lat="61.2896722248" lon="6.79807777807">
		<tag k="name" v="Voggebreen" />
		<tag k="natural" v="glacier" />
		<tag k="ssr:stedsnr" v="918293" />
	</node>
	<node id="-512788" lat="61.1866055553" lon="6.76523611278">
		<tag k="name" v="Haugatjørni" />
		<tag k="place" v="locality" />
		<tag k="ssr:stedsnr" v="222929" />
	</node>
	<node id="-512659" lat="61.219244449" lon="6.60966389749">
		<tag k="name" v="Vasstaket" />
		<tag k="natural" v="wetland" />
		<tag k="ssr:stedsnr" v="884523" />
	</node>
	<node id="-512650" lat="61.2425249974" lon="6.75228333407">
		<tag k="name" v="Stavseteuri" />
		<tag k="natural" v="scree" />
		<tag k="ssr:stedsnr" v="398386" />
	</node>
	<node id="-512901" lat="61.2950083328" lon="6.80750833309">
		<tag k="name" v="Myrdalsbreen" />
		<tag k="natural" v="glacier" />
		<tag k="ssr:stedsnr" v="614255" />
	</node>
	<node id="-512642" lat="61.2114888923" lon="6.85737499382">
		<tag k="name" v="Maustelmyrane" />
		<tag k="natural" v="wetland" />
		<tag k="ssr:stedsnr" v="373980" />
	</node>
	<node id="-512641" lat="61.2089944409" lon="6.81025278595">
		<tag k="alt_name" v="Kagastein" />
		<tag k="name" v="Kagasteinen" />
		<tag k="natural" v="stone" />
		<tag k="ssr:stedsnr" v="373978" />
	</node>
</osm>
