<?xml version="1.0" encoding="UTF-8"?>
<osm generator="osmapis" version="0.6">
	<node id="-513661" lat="61.1743083371" lon="6.88771944147">
		<tag k="name" v="Fatlaviki" />
		<tag k="natural" v="bay" />
		<tag k="ssr:stedsnr" v="676915" />
	</node>
	<node id="-513788" lat="61.1822388914" lon="6.78267777678">
		<tag k="name" v="Torsbukti" />
		<tag k="natural" v="bay" />
		<tag k="ssr:stedsnr" v="919930" />
	</node>
	<node id="-513322" lat="61.1809500005" lon="6.73086666393">
		<tag k="name" v="Galtane" />
		<tag k="natural" v="cape" />
		<tag k="ssr:stedsnr" v="312862" />
	</node>
	<node id="-513327" lat="61.2033055577" lon="6.67316943543">
		<tag k="alt_name" v="Skjær" />
		<tag k="fixme" v="consider seamark:type=rock or natural=shoal" />
		<tag k="name" v="Skjer" />
		<tag k="place" v="islet" />
		<tag k="ssr:stedsnr" v="312977" />
	</node>
	<node id="-513784" lat="61.181750001" lon="6.71812222695">
		<tag k="alt_name" v="Kalsviki" />
		<tag k="name" v="Kallsviki" />
		<tag k="natural" v="bay" />
		<tag k="ssr:stedsnr" v="919873" />
	</node>
	<node id="-513718" lat="61.1986166663" lon="6.69408333667">
		<tag k="name" v="Supeimsviki" />
		<tag k="natural" v="bay" />
		<tag k="ssr:stedsnr" v="797292" />
	</node>
	<node id="-513621" lat="61.1921638924" lon="6.70279999566">
		<tag k="name" v="Verpeneset" />
		<tag k="natural" v="cape" />
		<tag k="ssr:stedsnr" v="600293" />
	</node>
	<node id="-513517" lat="61.2670777796" lon="6.65048611538">
		<tag k="name" v="Børtnes" />
		<tag k="natural" v="cape" />
		<tag k="ssr:stedsnr" v="250143" />
	</node>
	<node id="-513711" lat="61.2090611083" lon="6.62952776869">
		<tag k="name" v="Eitornbukti" />
		<tag k="natural" v="bay" />
		<tag k="ssr:stedsnr" v="783125" />
	</node>
	<node id="-513388" lat="61.0838833317" lon="5.29721110271">
		<tag k="bay" v="fjord" />
		<tag k="name" v="Sognefjorden" />
		<tag k="natural" v="bay" />
		<tag k="ssr:stedsnr" v="434556" />
	</node>
	<node id="-513613" lat="61.2079888859" lon="6.63802222125">
		<tag k="name" v="Kobbaneset" />
		<tag k="natural" v="cape" />
		<tag k="ssr:stedsnr" v="580704" />
	</node>
	<node id="-513804" lat="61.2267361113" lon="6.58516111579">
		<tag k="name" v="Tenninganeset" />
		<tag k="natural" v="cape" />
		<tag k="ssr:stedsnr" v="965146" />
	</node>
	<node id="-513357" lat="61.1814666675" lon="6.73551944486">
		<tag k="name" v="Rysseviki" />
		<tag k="natural" v="bay" />
		<tag k="ssr:stedsnr" v="373882" />
	</node>
	<node id="-513706" lat="61.2071250045" lon="6.61953333068">
		<tag k="name" v="Kålhamrane" />
		<tag k="natural" v="cape" />
		<tag k="ssr:stedsnr" v="762729" />
	</node>
	<node id="-513674" lat="61.1734500016" lon="6.87186111115">
		<tag k="name" v="Klovstein" />
		<tag k="natural" v="cape" />
		<tag k="ssr:stedsnr" v="722588" />
	</node>
	<node id="-513542" lat="61.178394446" lon="6.85785555091">
		<tag k="name" v="Skjeljaviki" />
		<tag k="natural" v="bay" />
		<tag k="ssr:stedsnr" v="423988" />
	</node>
	<node id="-513698" lat="61.2723833373" lon="6.66388055621">
		<tag k="name" v="Vetlabukti" />
		<tag k="natural" v="bay" />
		<tag k="ssr:stedsnr" v="762246" />
	</node>
	<node id="-513323" lat="61.1827694465" lon="6.71311945182">
		<tag k="name" v="Verkaneset" />
		<tag k="natural" v="cape" />
		<tag k="ssr:stedsnr" v="312867" />
	</node>
</osm>
