<?xml version="1.0" encoding="UTF-8"?>
<osm generator="osmapis" version="0.6">
	<node id="-513024" lat="61.2545277735" lon="6.75209722911">
		<tag k="historic" v="shieling" />
		<tag k="name" v="Stavsete" />
		<tag k="place" v="locality" />
		<tag k="ssr:stedsnr" v="857164" />
	</node>
	<node id="-513004" lat="61.2086416649" lon="6.89690832486">
		<tag k="name" v="Gamlestølen" />
		<tag k="place" v="isolated_dwelling" />
		<tag k="ssr:stedsnr" v="798978" />
	</node>
	<node id="-513001" lat="61.1992222199" lon="6.70135277649">
		<tag k="name" v="Fjellheim" />
		<tag k="place" v="farm" />
		<tag k="ssr:stedsnr" v="798963" />
	</node>
	<node id="-513000" lat="61.2167694435" lon="6.61190555457">
		<tag k="historic" v="shieling" />
		<tag k="name" v="Skare" />
		<tag k="place" v="locality" />
		<tag k="ssr:stedsnr" v="798950" />
	</node>
	<node id="-512998" lat="61.2009472242" lon="6.87512223077">
		<tag k="name" v="Pyttane" />
		<tag k="place" v="farm" />
		<tag k="ssr:stedsnr" v="798889" />
	</node>
	<node id="-512996" lat="61.1937406327" lon="6.86655550321">
		<tag k="fixme" v="consider place=hamlet" />
		<tag k="name" v="Kvålen" />
		<tag k="place" v="farm" />
		<tag k="ssr:stedsnr" v="798873" />
	</node>
	<node id="-512986" lat="61.1889000001" lon="6.8435027702">
		<tag k="name" v="Henja" />
		<tag k="place" v="hamlet" />
		<tag k="ssr:stedsnr" v="787228" />
	</node>
	<node id="-512976" lat="61.1888999974" lon="6.7924555529">
		<tag k="name" v="Skaftestad" />
		<tag k="place" v="isolated_dwelling" />
		<tag k="ssr:stedsnr" v="762646" />
	</node>
	<node id="-512968" lat="61.210638886" lon="6.65944445278">
		<tag k="historic" v="shieling" />
		<tag k="name" v="Skoparsete" />
		<tag k="place" v="locality" />
		<tag k="ssr:stedsnr" v="737999" />
	</node>
	<node id="-512963" lat="61.2177500008" lon="6.75961945021">
		<tag k="alt_name" v="Hukestølen" />
		<tag k="historic" v="shieling" />
		<tag k="name" v="Huksstølane" />
		<tag k="place" v="locality" />
		<tag k="ssr:stedsnr" v="737959" />
	</node>
	<node id="-512956" lat="61.2308250037" lon="6.64726667263">
		<tag k="historic" v="shieling" />
		<tag k="name" v="Nyanstøl" />
		<tag k="place" v="locality" />
		<tag k="ssr:stedsnr" v="737548" />
	</node>
	<node id="-512955" lat="61.2596916681" lon="6.86371389448">
		<tag k="historic" v="shieling" />
		<tag k="name" v="Nyastølen" />
		<tag k="place" v="locality" />
		<tag k="ssr:stedsnr" v="736162" />
	</node>
	<node id="-512950" lat="61.1895638884" lon="6.76928888069">
		<tag k="name" v="Djupapollen" />
		<tag k="place" v="farm" />
		<tag k="ssr:stedsnr" v="727971" />
	</node>
	<node id="-512949" lat="61.1905805532" lon="6.84761111173">
		<tag k="name" v="Røysa" />
		<tag k="place" v="hamlet" />
		<tag k="ssr:stedsnr" v="726226" />
	</node>
	<node id="-512942" lat="61.2231861146" lon="6.61400833852">
		<tag k="alt_name" v="Ruudstølen" />
		<tag k="historic" v="shieling" />
		<tag k="name" v="Rudsstølen" />
		<tag k="place" v="locality" />
		<tag k="ssr:stedsnr" v="677549" />
	</node>
	<node id="-512939" lat="61.2354027808" lon="6.85720000847">
		<tag k="historic" v="shieling" />
		<tag k="name" v="Flya" />
		<tag k="place" v="locality" />
		<tag k="ssr:stedsnr" v="677534" />
	</node>
	<node id="-512937" lat="61.1876972265" lon="6.91019166135">
		<tag k="name" v="Dalsete" />
		<tag k="place" v="locality" />
		<tag k="ssr:stedsnr" v="676924" />
	</node>
	<node id="-512933" lat="61.1995972214" lon="6.81114722853">
		<tag k="historic" v="shieling" />
		<tag k="name" v="Orrasete" />
		<tag k="place" v="locality" />
		<tag k="ssr:stedsnr" v="676892" />
	</node>
	<node id="-512927" lat="61.2099111129" lon="6.63648333622">
		<tag k="name" v="Pergjerdet" />
		<tag k="place" v="farm" />
		<tag k="ssr:stedsnr" v="665058" />
	</node>
	<node id="-512925" lat="61.1863511866" lon="6.83460598643">
		<tag k="fixme" v="consider place=hamlet" />
		<tag k="name" v="Nybø" />
		<tag k="place" v="farm" />
		<tag k="ssr:stedsnr" v="640999" />
	</node>
	<node id="-512924" lat="61.1852722184" lon="6.84269721804">
		<tag k="name" v="Palne" />
		<tag k="place" v="farm" />
		<tag k="ssr:stedsnr" v="640997" />
	</node>
	<node id="-512915" lat="61.2094722192" lon="6.60543889621">
		<tag k="alt_name" v="Flætene" />
		<tag k="name" v="Flete" />
		<tag k="place" v="farm" />
		<tag k="ssr:stedsnr" v="615991" />
	</node>
	<node id="-512908" lat="61.1830138848" lon="6.85175555364">
		<tag k="name" v="Hermansverk" />
		<tag k="place" v="village" />
		<tag k="ssr:stedsnr" v="615923" />
	</node>
	<node id="-512906" lat="61.1910749999" lon="6.78533332783">
		<tag k="historic" v="shieling" />
		<tag k="name" v="Hamrestølen" />
		<tag k="place" v="locality" />
		<tag k="ssr:stedsnr" v="615875" />
	</node>
	<node id="-512904" lat="61.1850651384" lon="6.74100900953">
		<tag k="fixme" v="consider place=hamlet" />
		<tag k="name" v="Grinde" />
		<tag k="place" v="farm" />
		<tag k="ssr:stedsnr" v="615864" />
	</node>
	<node id="-512902" lat="61.3018249985" lon="6.7450944434">
		<tag k="fixme" v="multiple name tags, choose one and add the other to alt_name" />
		<tag k="historic" v="shieling" />
		<tag k="name" v="Øvre Rommedal;Øvstedalen" />
		<tag k="place" v="locality" />
		<tag k="ssr:stedsnr" v="614761" />
	</node>
	<node id="-512890" lat="61.1865527785" lon="6.77542777835">
		<tag k="name" v="Haugane" />
		<tag k="place" v="farm" />
		<tag k="ssr:stedsnr" v="580836" />
	</node>
	<node id="-512889" lat="61.1830932752" lon="6.79751678604">
		<tag k="loc_name" v="Hanahaug" />
		<tag k="name" v="Hanehaug" />
		<tag k="place" v="locality" />
		<tag k="ssr:stedsnr" v="580821" />
	</node>
	<node id="-512884" lat="61.2260055535" lon="6.75803055951">
		<tag k="name" v="Myklebruteigane" />
		<tag k="place" v="locality" />
		<tag k="ssr:stedsnr" v="580295" />
	</node>
	<node id="-512878" lat="61.201186112" lon="6.69005277803">
		<tag k="name" v="Nygard" />
		<tag k="place" v="farm" />
		<tag k="ssr:stedsnr" v="555962" />
	</node>
	<node id="-512876" lat="61.1741138863" lon="6.86887499347">
		<tag k="alt_name" v="Klyvi" />
		<tag k="name" v="Kløvi" />
		<tag k="place" v="hamlet" />
		<tag k="ssr:stedsnr" v="555905" />
	</node>
	<node id="-512873" lat="61.191195328" lon="6.81034811224">
		<tag k="alt_name" v="Frekeland" />
		<tag k="fixme" v="consider place=hamlet" />
		<tag k="name" v="Frekaland" />
		<tag k="place" v="farm" />
		<tag k="ssr:stedsnr" v="555867" />
	</node>
	<node id="-512872" lat="61.1900881932" lon="6.84938142812">
		<tag k="alt_name" v="Røysum" />
		<tag k="fixme" v="consider place=hamlet" />
		<tag k="name" v="Røysane" />
		<tag k="place" v="farm" />
		<tag k="ssr:stedsnr" v="555864" />
	</node>
	<node id="-512858" lat="61.1894888922" lon="6.85626388308">
		<tag k="fixme" v="consider place=hamlet" />
		<tag k="name" v="Brundene" />
		<tag k="place" v="village" />
		<tag k="ssr:stedsnr" v="506487" />
	</node>
	<node id="-512849" lat="61.2533861087" lon="6.87333333699">
		<tag k="historic" v="shieling" />
		<tag k="name" v="Hovden" />
		<tag k="place" v="locality" />
		<tag k="ssr:stedsnr" v="493177" />
	</node>
	<node id="-512848" lat="61.2530083317" lon="6.90908056285">
		<tag k="name" v="Sumhaug" />
		<tag k="place" v="isolated_dwelling" />
		<tag k="ssr:stedsnr" v="493176" />
	</node>
	<node id="-512835" lat="61.2074249965" lon="6.61263056488">
		<tag k="name" v="Sanden" />
		<tag k="place" v="farm" />
		<tag k="ssr:stedsnr" v="435000" />
	</node>
	<node id="-512832" lat="61.2148888848" lon="6.6455138838">
		<tag k="alt_name" v="Myrset" />
		<tag k="historic" v="shieling" />
		<tag k="name" v="Myrsete" />
		<tag k="place" v="locality" />
		<tag k="ssr:stedsnr" v="434943" />
	</node>
	<node id="-512830" lat="61.1834976335" lon="6.76304276339">
		<tag k="fixme" v="consider place=hamlet" />
		<tag k="name" v="Fosshagen" />
		<tag k="place" v="farm" />
		<tag k="ssr:stedsnr" v="434929" />
	</node>
	<node id="-512829" lat="61.1824665805" lon="6.78950776463">
		<tag k="fixme" v="consider place=hamlet" />
		<tag k="name" v="Indre Hamre" />
		<tag k="place" v="farm" />
		<tag k="ssr:stedsnr" v="434928" />
	</node>
	<node id="-512825" lat="61.1867916654" lon="6.70875277835">
		<tag k="name" v="Verken" />
		<tag k="place" v="farm" />
		<tag k="ssr:stedsnr" v="434850" />
	</node>
	<node id="-512824" lat="61.1847965779" lon="6.74918280014">
		<tag k="fixme" v="consider place=hamlet" />
		<tag k="name" v="Huke" />
		<tag k="place" v="farm" />
		<tag k="ssr:stedsnr" v="434843" />
	</node>
	<node id="-512820" lat="61.2518388892" lon="6.93190556364">
		<tag k="alt_name" v="Fjærlandsete" />
		<tag k="name" v="Fjærlandssete" />
		<tag k="place" v="isolated_dwelling" />
		<tag k="ssr:stedsnr" v="433157" />
	</node>
	<node id="-512814" lat="61.1958250022" lon="6.81671388751">
		<tag k="historic" v="shieling" />
		<tag k="name" v="Kleppa" />
		<tag k="place" v="locality" />
		<tag k="ssr:stedsnr" v="421891" />
	</node>
	<node id="-512812" lat="61.210102142" lon="6.6251810914">
		<tag k="alt_name" v="Eithungjerde" />
		<tag k="fixme" v="consider place=hamlet" />
		<tag k="name" v="Eitorngjerdet" />
		<tag k="place" v="farm" />
		<tag k="ssr:stedsnr" v="252998" />
	</node>
	<node id="-512811" lat="61.2084431257" lon="6.5986646219">
		<tag k="fixme" v="consider place=hamlet" />
		<tag k="name" v="Hella" />
		<tag k="place" v="farm" />
		<tag k="ssr:stedsnr" v="252994" />
	</node>
	<node id="-512805" lat="61.186637715" lon="6.86358390604">
		<tag k="fixme" v="consider place=hamlet" />
		<tag k="name" v="Gjerde" />
		<tag k="place" v="farm" />
		<tag k="ssr:stedsnr" v="252911" />
	</node>
	<node id="-512803" lat="61.1918305557" lon="6.70343611333">
		<tag k="name" v="Neset" />
		<tag k="place" v="locality" />
		<tag k="ssr:stedsnr" v="252879" />
	</node>
	<node id="-512801" lat="61.1932999973" lon="6.7605555621">
		<tag k="historic" v="shieling" />
		<tag k="name" v="Fosstølen" />
		<tag k="place" v="locality" />
		<tag k="ssr:stedsnr" v="252871" />
	</node>
	<node id="-512799" lat="61.186196241" lon="6.76099307366">
		<tag k="fixme" v="consider place=hamlet" />
		<tag k="name" v="Fosse" />
		<tag k="place" v="farm" />
		<tag k="ssr:stedsnr" v="252855" />
	</node>
	<node id="-512797" lat="61.237288891" lon="6.74102777769">
		<tag k="historic" v="shieling" />
		<tag k="name" v="Gildal" />
		<tag k="place" v="locality" />
		<tag k="ssr:stedsnr" v="252486" />
	</node>
	<node id="-512796" lat="61.2167055563" lon="6.82461389736">
		<tag k="historic" v="shieling" />
		<tag k="name" v="Stokksete" />
		<tag k="place" v="locality" />
		<tag k="ssr:stedsnr" v="251964" />
	</node>
	<node id="-512793" lat="61.258075002" lon="6.83937778331">
		<tag k="historic" v="shieling" />
		<tag k="name" v="Friksdal" />
		<tag k="place" v="locality" />
		<tag k="ssr:stedsnr" v="250164" />
	</node>
	<node id="-512775" lat="61.2127138905" lon="6.63087223117">
		<tag k="name" v="Eitun" />
		<tag k="place" v="farm" />
		<tag k="ssr:stedsnr" v="202489" />
	</node>
	<node id="-512774" lat="61.2095694406" lon="6.63768055169">
		<tag k="name" v="Eikenes" />
		<tag k="place" v="farm" />
		<tag k="ssr:stedsnr" v="191997" />
	</node>
	<node id="-512767" lat="61.2122022995" lon="6.63183640743">
		<tag k="fixme" v="consider place=hamlet" />
		<tag k="name" v="Eitorn" />
		<tag k="place" v="farm" />
		<tag k="ssr:stedsnr" v="191939" />
	</node>
	<node id="-512766" lat="61.2177833299" lon="6.64101389015">
		<tag k="historic" v="shieling" />
		<tag k="name" v="Kluke" />
		<tag k="place" v="locality" />
		<tag k="ssr:stedsnr" v="191937" />
	</node>
	<node id="-512760" lat="61.1937720093" lon="6.83880424523">
		<tag k="name" v="Skahaug" />
		<tag k="place" v="farm" />
		<tag k="ssr:stedsnr" v="191854" />
	</node>
	<node id="-512742" lat="61.1825862173" lon="6.78719794078">
		<tag k="name" v="Hamre" />
		<tag k="place" v="hamlet" />
		<tag k="ssr:stedsnr" v="130929" />
	</node>
	<node id="-512741" lat="61.1813756718" lon="6.86359913496">
		<tag k="fixme" v="consider place=hamlet" />
		<tag k="name" v="Njøs" />
		<tag k="place" v="farm" />
		<tag k="ssr:stedsnr" v="130923" />
	</node>
	<node id="-512739" lat="61.1961472249" lon="6.80954444518">
		<tag k="historic" v="shieling" />
		<tag k="name" v="Husabøstølen" />
		<tag k="place" v="locality" />
		<tag k="ssr:stedsnr" v="130887" />
	</node>
	<node id="-512738" lat="61.1904277774" lon="6.72782223136">
		<tag k="historic" v="shieling" />
		<tag k="name" v="Orrasete" />
		<tag k="place" v="locality" />
		<tag k="ssr:stedsnr" v="130877" />
	</node>
	<node id="-512736" lat="61.1894472209" lon="6.81121943563">
		<tag k="name" v="Haug" />
		<tag k="place" v="farm" />
		<tag k="ssr:stedsnr" v="130869" />
	</node>
	<node id="-512726" lat="61.2613277763" lon="6.87703054771">
		<tag k="name" v="Trastå" />
		<tag k="place" v="isolated_dwelling" />
		<tag k="ssr:stedsnr" v="129174" />
	</node>
	<node id="-512725" lat="61.2627777791" lon="6.64540000087">
		<tag k="name" v="Troøyri" />
		<tag k="place" v="locality" />
		<tag k="ssr:stedsnr" v="129167" />
	</node>
	<node id="-512722" lat="61.183101491" lon="6.78267468465">
		<tag k="fixme" v="consider place=hamlet" />
		<tag k="name" v="Ytre Hamre" />
		<tag k="place" v="farm" />
		<tag k="ssr:stedsnr" v="95805" />
	</node>
	<node id="-512717" lat="61.1980583376" lon="6.88512500634">
		<tag k="name" v="Fleken" />
		<tag k="place" v="isolated_dwelling" />
		<tag k="ssr:stedsnr" v="94734" />
	</node>
	<node id="-512716" lat="61.2627305556" lon="6.66396667091">
		<tag k="historic" v="shieling" />
		<tag k="name" v="Trodalsstølen" />
		<tag k="place" v="locality" />
		<tag k="ssr:stedsnr" v="81740" />
	</node>
	<node id="-512714" lat="61.2085277749" lon="6.83886389591">
		<tag k="historic" v="shieling" />
		<tag k="name" v="Dalhjella" />
		<tag k="place" v="locality" />
		<tag k="ssr:stedsnr" v="70979" />
	</node>
	<node id="-512713" lat="61.217633337" lon="6.90748054891">
		<tag k="historic" v="shieling" />
		<tag k="name" v="Tuftahaug" />
		<tag k="place" v="locality" />
		<tag k="ssr:stedsnr" v="70945" />
	</node>
	<node id="-512712" lat="61.1834333316" lon="6.89561388629">
		<tag k="historic" v="shieling" />
		<tag k="name" v="Hangsete" />
		<tag k="place" v="locality" />
		<tag k="ssr:stedsnr" v="70931" />
	</node>
	<node id="-512710" lat="61.2018999975" lon="6.88896110909">
		<tag k="historic" v="shieling" />
		<tag k="name" v="Fadnastølen" />
		<tag k="place" v="locality" />
		<tag k="ssr:stedsnr" v="70895" />
	</node>
	<node id="-512707" lat="61.1873554406" lon="6.73249754123">
		<tag k="alt_name" v="Engesæter;Engasete" />
		<tag k="fixme" v="consider place=hamlet" />
		<tag k="name" v="Engjasete" />
		<tag k="place" v="farm" />
		<tag k="ssr:stedsnr" v="70863" />
	</node>
	<node id="-512703" lat="61.2113247169" lon="6.61278802827">
		<tag k="fixme" v="consider place=hamlet" />
		<tag k="name" v="Rud" />
		<tag k="place" v="farm" />
		<tag k="ssr:stedsnr" v="70958" />
	</node>
	<node id="-512701" lat="61.2362750002" lon="6.65172222229">
		<tag k="name" v="Gamlestølen" />
		<tag k="place" v="locality" />
		<tag k="ssr:stedsnr" v="70524" />
	</node>
	<node id="-512689" lat="61.2172111126" lon="6.75805833513">
		<tag k="historic" v="shieling" />
		<tag k="name" v="Blomsete" />
		<tag k="place" v="locality" />
		<tag k="ssr:stedsnr" v="40944" />
	</node>
	<node id="-512679" lat="61.2172638864" lon="6.71929444492">
		<tag k="alt_name" v="Dalsbotn" />
		<tag k="historic" v="shieling" />
		<tag k="name" v="Dalsbotnen" />
		<tag k="place" v="locality" />
		<tag k="ssr:stedsnr" v="9945" />
	</node>
	<node id="-512674" lat="61.1859583328" lon="6.80638055268">
		<tag k="name" v="Solbakken" />
		<tag k="place" v="farm" />
		<tag k="ssr:stedsnr" v="9930" />
	</node>
	<node id="-512673" lat="61.1886068806" lon="6.84230783492">
		<tag k="alt_name" v="Henjum" />
		<tag k="fixme" v="consider place=hamlet" />
		<tag k="name" v="Henjane" />
		<tag k="place" v="farm" />
		<tag k="ssr:stedsnr" v="9923" />
	</node>
	<node id="-512672" lat="61.1854055593" lon="6.82232778663">
		<tag k="fixme" v="consider place=suburb, village or hamlet" />
		<tag k="name" v="Systrond" />
		<tag k="place" v="quarter" />
		<tag k="ssr:stedsnr" v="9914" />
	</node>
	<node id="-512660" lat="61.1871655393" lon="6.82059689952">
		<tag k="fixme" v="consider place=hamlet" />
		<tag k="name" v="Halland" />
		<tag k="place" v="farm" />
		<tag k="ssr:stedsnr" v="884636" />
	</node>
	<node id="-512655" lat="61.1857111117" lon="6.85540555981">
		<tag k="name" v="Lundene" />
		<tag k="place" v="quarter" />
		<tag k="ssr:stedsnr" v="883994" />
	</node>
	<node id="-512647" lat="61.2074499997" lon="6.59803332423">
		<tag k="name" v="Hella" />
		<tag k="place" v="hamlet" />
		<tag k="ssr:stedsnr" v="394633" />
	</node>
	<node id="-512644" lat="61.2059527746" lon="6.73889723103">
		<tag k="historic" v="shieling" />
		<tag k="name" v="Vegaskilvollen" />
		<tag k="place" v="locality" />
		<tag k="ssr:stedsnr" v="373994" />
	</node>
	<node id="-512643" lat="61.208463887" lon="6.87455832945">
		<tag k="historic" v="shieling" />
		<tag k="name" v="Skagasete" />
		<tag k="place" v="locality" />
		<tag k="ssr:stedsnr" v="373981" />
	</node>
	<node id="-512639" lat="61.2243388928" lon="6.776922217">
		<tag k="historic" v="shieling" />
		<tag k="name" v="Dalsete" />
		<tag k="place" v="locality" />
		<tag k="ssr:stedsnr" v="373968" />
	</node>
	<node id="-512637" lat="61.222363886" lon="6.73788889217">
		<tag k="historic" v="shieling" />
		<tag k="name" v="Steinsete" />
		<tag k="place" v="locality" />
		<tag k="ssr:stedsnr" v="373962" />
	</node>
	<node id="-512633" lat="61.1930076939" lon="6.8635116808">
		<tag k="fixme" v="consider place=hamlet" />
		<tag k="name" v="Dalen" />
		<tag k="place" v="farm" />
		<tag k="ssr:stedsnr" v="373894" />
	</node>
	<node id="-512631" lat="61.1839402264" lon="6.74717317568">
		<tag k="fixme" v="consider place=hamlet" />
		<tag k="name" v="Holene" />
		<tag k="place" v="farm" />
		<tag k="ssr:stedsnr" v="373879" />
	</node>
	<node id="-512629" lat="61.2397972243" lon="6.836511106">
		<tag k="historic" v="shieling" />
		<tag k="name" v="Sevi" />
		<tag k="place" v="locality" />
		<tag k="ssr:stedsnr" v="373560" />
	</node>
	<node id="-512620" lat="61.190852775" lon="6.74515555433">
		<tag k="name" v="Huksgjerde" />
		<tag k="place" v="isolated_dwelling" />
		<tag k="ssr:stedsnr" v="343958" />
	</node>
	<node id="-512607" lat="61.2148861081" lon="6.62117222264">
		<tag k="name" v="Øygarden" />
		<tag k="place" v="locality" />
		<tag k="ssr:stedsnr" v="313970" />
	</node>
	<node id="-512603" lat="61.1984829784" lon="6.6988326783">
		<tag k="alt_name" v="Supeim;Suphamar" />
		<tag k="fixme" v="consider place=hamlet" />
		<tag k="name" v="Suppam" />
		<tag k="place" v="farm" />
		<tag k="ssr:stedsnr" v="312979" />
	</node>
	<node id="-513083" lat="61.1823561216" lon="6.85635878392">
		<tag k="fixme" v="consider place=hamlet" />
		<tag k="name" v="Bakken" />
		<tag k="place" v="farm" />
		<tag k="ssr:stedsnr" v="979578" />
	</node>
	<node id="-513081" lat="61.1849748937" lon="6.81925023003">
		<tag k="fixme" v="consider place=hamlet" />
		<tag k="name" v="Leikanger prestegard" />
		<tag k="place" v="farm" />
		<tag k="ssr:stedsnr" v="979574" />
	</node>
	<node id="-513070" lat="61.2924166623" lon="6.71963332541">
		<tag k="fixme" v="multiple name tags, choose one and add the other to alt_name" />
		<tag k="historic" v="shieling" />
		<tag k="name" v="Nedre Rommedal;Nedstedalen" />
		<tag k="place" v="locality" />
		<tag k="ssr:stedsnr" v="931757" />
	</node>
	<node id="-513069" lat="61.2325916649" lon="6.84867222021">
		<tag k="name" v="Fivelhola" />
		<tag k="place" v="locality" />
		<tag k="ssr:stedsnr" v="920965" />
	</node>
	<node id="-513067" lat="61.2092645042" lon="6.61605547916">
		<tag k="alt_name" v="Vestreim" />
		<tag k="fixme" v="consider place=hamlet" />
		<tag k="name" v="Vestrheim" />
		<tag k="place" v="farm" />
		<tag k="ssr:stedsnr" v="919992" />
	</node>
	<node id="-513066" lat="61.2043527814" lon="6.67984999997">
		<tag k="name" v="Viki" />
		<tag k="place" v="locality" />
		<tag k="ssr:stedsnr" v="919977" />
	</node>
	<node id="-513064" lat="61.1855580883" lon="6.8045443243">
		<tag k="name" v="Leikanger" />
		<tag k="place" v="village" />
		<tag k="ssr:stedsnr" v="919935" />
	</node>
	<node id="-513063" lat="61.1858224263" lon="6.79968844856">
		<tag k="fixme" v="consider place=hamlet" />
		<tag k="name" v="Husabø" />
		<tag k="place" v="farm" />
		<tag k="ssr:stedsnr" v="919931" />
	</node>
	<node id="-513061" lat="61.2016388876" lon="6.90854167031">
		<tag k="name" v="Bergsete" />
		<tag k="place" v="isolated_dwelling" />
		<tag k="ssr:stedsnr" v="919893" />
	</node>
	<node id="-513059" lat="61.1888699842" lon="6.77338358209">
		<tag k="alt_name" v="Eggum" />
		<tag k="fixme" v="consider place=hamlet" />
		<tag k="name" v="Eggjane" />
		<tag k="place" v="farm" />
		<tag k="ssr:stedsnr" v="919887" />
	</node>
	<node id="-513057" lat="61.2420499972" lon="6.76603333908">
		<tag k="alt_name" v="Nyanstøl" />
		<tag k="historic" v="shieling" />
		<tag k="name" v="Nyastølen" />
		<tag k="place" v="locality" />
		<tag k="ssr:stedsnr" v="919542" />
	</node>
	<node id="-513046" lat="61.2255638897" lon="6.90857500562">
		<tag k="historic" v="shieling" />
		<tag k="name" v="Hottadalen" />
		<tag k="place" v="locality" />
		<tag k="ssr:stedsnr" v="859996" />
	</node>
	<node id="-513045" lat="61.210355559" lon="6.73945833274">
		<tag k="historic" v="shieling" />
		<tag k="name" v="Skitstølen" />
		<tag k="place" v="locality" />
		<tag k="ssr:stedsnr" v="859993" />
	</node>
	<node id="-513044" lat="61.2152583357" lon="6.75234722128">
		<tag k="alt_name" v="Seljevoll" />
		<tag k="name" v="Seljevollen" />
		<tag k="place" v="locality" />
		<tag k="ssr:stedsnr" v="859989" />
	</node>
	<node id="-513041" lat="61.202869447" lon="6.74403610274">
		<tag k="historic" v="shieling" />
		<tag k="name" v="Holestølen" />
		<tag k="old_name" v="Marsete" />
		<tag k="place" v="locality" />
		<tag k="ssr:stedsnr" v="859967" />
	</node>
	<node id="-513035" lat="61.2216222216" lon="6.61751944486">
		<tag k="historic" v="shieling" />
		<tag k="name" v="Daurmålhaug" />
		<tag k="place" v="locality" />
		<tag k="ssr:stedsnr" v="859528" />
	</node>
	<node id="-513030" lat="61.2191999979" lon="6.67363333596">
		<tag k="name" v="Frisete" />
		<tag k="place" v="locality" />
		<tag k="ssr:stedsnr" v="858942" />
	</node>
	<node id="-513029" lat="61.2143333362" lon="6.67781110376">
		<tag k="name" v="Kleivafjellstølen" />
		<tag k="place" v="locality" />
		<tag k="ssr:stedsnr" v="858941" />
	</node>
</osm>
