<?xml version="1.0" encoding="UTF-8"?>
<osm generator="osmapis" version="0.6">
	<node id="-513536" lat="61.2117361074" lon="6.71630556062">
		<tag k="name" v="Yksnavatnet" />
		<tag k="natural" v="water" />
		<tag k="ssr:stedsnr" v="252981" />
	</node>
	<node id="-513688" lat="61.2216416703" lon="6.76742499127">
		<tag k="name" v="Dalseta" />
		<tag k="ssr:stedsnr" v="737958" />
		<tag k="waterway" v="stream" />
	</node>
	<node id="-513662" lat="61.1808305561" lon="6.89182222356">
		<tag k="alt_name" v="Fatlaelvi" />
		<tag k="name" v="Fatla" />
		<tag k="ssr:stedsnr" v="676916" />
		<tag k="waterway" v="stream" />
	</node>
	<node id="-513560" lat="61.21755833" lon="6.91184444729">
		<tag k="alt_name" v="Lomtjernene" />
		<tag k="name" v="Lomtjørni" />
		<tag k="natural" v="water" />
		<tag k="ssr:stedsnr" v="434992" />
	</node>
	<node id="-513657" lat="61.2457750007" lon="6.76090556065">
		<tag k="name" v="Pyttane" />
		<tag k="natural" v="water" />
		<tag k="ssr:stedsnr" v="676548" />
	</node>
	<node id="-513351" lat="61.2573972248" lon="6.88749444374">
		<tag k="alt_name" v="Lomavatn" />
		<tag k="name" v="Lomavatnet" />
		<tag k="natural" v="water" />
		<tag k="ssr:stedsnr" v="372166" />
	</node>
	<node id="-513321" lat="61.2554416695" lon="6.91850277672">
		<tag k="alt_name" v="Fjærlandsetvatn" />
		<tag k="name" v="Fjærlandssetvatnet" />
		<tag k="natural" v="water" />
		<tag k="ssr:stedsnr" v="311203" />
		<tag k="water" v="lake" />
	</node>
	<node id="-513534" lat="61.2117500025" lon="6.8442861166">
		<tag k="alt_name" v="Migandegrovi" />
		<tag k="name" v="Migande" />
		<tag k="ssr:stedsnr" v="252972" />
		<tag k="waterway" v="stream" />
	</node>
	<node id="-513394" lat="61.2226722256" lon="6.70854721436">
		<tag k="name" v="Fagravatnet" />
		<tag k="natural" v="water" />
		<tag k="ssr:stedsnr" v="9554" />
	</node>
	<node id="-513649" lat="61.2605611082" lon="6.93146111533">
		<tag k="name" v="Steina" />
		<tag k="ssr:stedsnr" v="640726" />
		<tag k="waterway" v="stream" />
	</node>
	<node id="-513518" lat="61.2624888883" lon="6.82275554695">
		<tag k="name" v="Friksdøla" />
		<tag k="ssr:stedsnr" v="250146" />
		<tag k="waterway" v="river" />
	</node>
	<node id="-513773" lat="61.2928250023" lon="6.74301389284">
		<tag k="name" v="Skarselvi" />
		<tag k="ssr:stedsnr" v="870730" />
		<tag k="waterway" v="river" />
	</node>
	<node id="-513389" lat="61.2737305525" lon="6.74189722834">
		<tag k="name" v="Stavatjørni" />
		<tag k="natural" v="water" />
		<tag k="ssr:stedsnr" v="7150" />
	</node>
	<node id="-513513" lat="61.2140027818" lon="6.77809999899">
		<tag k="name" v="Tomasbritakjelda" />
		<tag k="place" v="locality" />
		<tag k="ssr:stedsnr" v="216926" />
	</node>
	<node id="-513640" lat="61.2128583369" lon="6.76579444356">
		<tag k="alt_name" v="Knotla" />
		<tag k="name" v="Kotla" />
		<tag k="ssr:stedsnr" v="615983" />
		<tag k="waterway" v="stream" />
	</node>
	<node id="-513381" lat="61.2700361113" lon="6.86085000285">
		<tag k="name" v="Myrdalselvi" />
		<tag k="ssr:stedsnr" v="884143" />
		<tag k="waterway" v="river" />
	</node>
	<node id="-513764" lat="61.19658611" lon="6.87020556069">
		<tag k="name" v="Njøsaelvi" />
		<tag k="old_name" v="Njøselvi" />
		<tag k="ssr:stedsnr" v="859875" />
		<tag k="waterway" v="river" />
	</node>
	<node id="-513379" lat="61.2613361146" lon="6.65861944632">
		<tag k="name" v="Trodøla" />
		<tag k="ssr:stedsnr" v="479351" />
		<tag k="waterway" v="stream" />
	</node>
	<node id="-513762" lat="61.2474583344" lon="6.92728887975">
		<tag k="alt_name" v="Kalvavatn" />
		<tag k="name" v="Kalvavatnet" />
		<tag k="natural" v="water" />
		<tag k="ssr:stedsnr" v="859492" />
	</node>
	<node id="-513306" lat="61.2550388897" lon="6.65113611059">
		<tag k="name" v="Perelvi" />
		<tag k="ssr:stedsnr" v="277234" />
		<tag k="waterway" v="stream" />
	</node>
	<node id="-513502" lat="61.2530805585" lon="6.92664444372">
		<tag k="name" v="Olavsøyna" />
		<tag k="place" v="island" />
		<tag k="ssr:stedsnr" v="202737" />
	</node>
	<node id="-513637" lat="61.217397222" lon="6.73742499898">
		<tag k="alt_name" v="Gåsedøla" />
		<tag k="name" v="Gåsadøla" />
		<tag k="ssr:stedsnr" v="615952" />
		<tag k="waterway" v="stream" />
	</node>
	<node id="-513316" lat="61.2717888917" lon="6.88600556214">
		<tag k="name" v="Traståna" />
		<tag k="ssr:stedsnr" v="311165" />
		<tag k="waterway" v="stream" />
	</node>
	<node id="-513752" lat="61.29709722" lon="6.75147777074">
		<tag k="name" v="Ryssebotna" />
		<tag k="ssr:stedsnr" v="857258" />
		<tag k="waterway" v="stream" />
	</node>
	<node id="-513495" lat="61.2330000017" lon="6.84273611021">
		<tag k="alt_name" v="Skuleåi" />
		<tag k="name" v="Skulåna" />
		<tag k="ssr:stedsnr" v="191949" />
		<tag k="waterway" v="stream" />
	</node>
	<node id="-513749" lat="61.2644333327" lon="6.75415000264">
		<tag k="name" v="Stavseta" />
		<tag k="ssr:stedsnr" v="857157" />
		<tag k="waterway" v="river" />
	</node>
	<node id="-513614" lat="61.256691666" lon="6.93031110358">
		<tag k="name" v="Kjøhalvardneset" />
		<tag k="natural" v="cape" />
		<tag k="ssr:stedsnr" v="580714" />
	</node>
	<node id="-513741" lat="61.206654459" lon="6.90791856656">
		<tag k="name" v="Havravatni" />
		<tag k="natural" v="water" />
		<tag k="ssr:stedsnr" v="823850" />
		<tag k="water" v="lake" />
	</node>
	<node id="-513612" lat="61.2163638908" lon="6.65613611131">
		<tag k="name" v="Tjørni" />
		<tag k="natural" v="water" />
		<tag k="ssr:stedsnr" v="580684" />
	</node>
	<node id="-513739" lat="61.2513194424" lon="6.93273056082">
		<tag k="name" v="Fjærlandsetelvi" />
		<tag k="ssr:stedsnr" v="823693" />
		<tag k="waterway" v="stream" />
	</node>
	<node id="-513482" lat="61.2368055577" lon="6.74050277024">
		<tag k="name" v="Gildøla" />
		<tag k="ssr:stedsnr" v="191507" />
		<tag k="waterway" v="stream" />
	</node>
	<node id="-513479" lat="61.2327361073" lon="6.84972500699">
		<tag k="name" v="Fljotande" />
		<tag k="natural" v="water" />
		<tag k="ssr:stedsnr" v="180965" />
		<tag k="water" v="lake" />
	</node>
	<node id="-513734" lat="61.2099250009" lon="6.64774721651">
		<tag k="name" v="Kvinnefossen" />
		<tag k="natural" v="waterfall" />
		<tag k="ssr:stedsnr" v="799000" />
	</node>
	<node id="-513605" lat="61.2148749957" lon="6.83358611199">
		<tag k="name" v="Kinnagrovi" />
		<tag k="ssr:stedsnr" v="555971" />
		<tag k="waterway" v="stream" />
	</node>
	<node id="-513348" lat="61.1854777798" lon="6.88159721559">
		<tag k="name" v="Kyrafossen" />
		<tag k="natural" v="waterfall" />
		<tag k="ssr:stedsnr" v="362998" />
	</node>
	<node id="-513731" lat="61.2089111092" lon="6.68161666067">
		<tag k="alt_name" v="Ytståni" />
		<tag k="name" v="Ytståna" />
		<tag k="ssr:stedsnr" v="798983" />
		<tag k="waterway" v="stream" />
	</node>
	<node id="-513473" lat="61.2046277812" lon="6.73878332875">
		<tag k="name" v="Storøyane" />
		<tag k="place" v="island" />
		<tag k="ssr:stedsnr" v="155062" />
	</node>
	<node id="-513728" lat="61.2107638904" lon="6.83256666977">
		<tag k="alt_name" v="Høgaloftåi" />
		<tag k="name" v="Høgalofta" />
		<tag k="ssr:stedsnr" v="798971" />
		<tag k="waterway" v="stream" />
	</node>
	<node id="-513341" lat="61.2521194449" lon="6.90406387975">
		<tag k="name" v="Sumi" />
		<tag k="ssr:stedsnr" v="337705" />
		<tag k="waterway" v="stream" />
	</node>
	<node id="-513594" lat="61.2545305534" lon="6.89035278694">
		<tag k="alt_name" v="Hovdavatni" />
		<tag k="name" v="Hovdavatnet" />
		<tag k="natural" v="water" />
		<tag k="ssr:stedsnr" v="553144" />
	</node>
	<node id="-513721" lat="61.2482305562" lon="6.89107500894">
		<tag k="name" v="Osane" />
		<tag k="natural" v="water" />
		<tag k="ssr:stedsnr" v="798497" />
	</node>
	<node id="-513591" lat="61.2552249962" lon="6.63671666173">
		<tag k="name" v="Syrinja" />
		<tag k="ssr:stedsnr" v="519737" />
		<tag k="waterway" v="stream" />
	</node>
	<node id="-513590" lat="61.2551499971" lon="6.93293055634">
		<tag k="name" v="Sanden" />
		<tag k="natural" v="beach" />
		<tag k="ssr:stedsnr" v="519723" />
	</node>
	<node id="-513717" lat="61.2892583302" lon="6.87865278455">
		<tag k="alt_name" v="Trastadalsvatnet, store;Trastadalsvatnet" />
		<tag k="name" v="Stora Trastadalsvatnet" />
		<tag k="natural" v="water" />
		<tag k="ssr:stedsnr" v="796247" />
		<tag k="water" v="lake" />
	</node>
	<node id="-513716" lat="61.2543194477" lon="6.74931388299">
		<tag k="name" v="Reppa" />
		<tag k="ssr:stedsnr" v="796153" />
		<tag k="waterway" v="stream" />
	</node>
	<node id="-513331" lat="61.2404055532" lon="6.76218056192">
		<tag k="alt_name" v="Nyanstøla" />
		<tag k="name" v="Nyastøla" />
		<tag k="ssr:stedsnr" v="313547" />
		<tag k="waterway" v="stream" />
	</node>
	<node id="-513455" lat="61.243391663" lon="6.80525000308">
		<tag k="name" v="Svartavatnet" />
		<tag k="natural" v="water" />
		<tag k="ssr:stedsnr" v="130508" />
	</node>
	<node id="-513325" lat="61.2167055542" lon="6.6627555535">
		<tag k="name" v="Friseta" />
		<tag k="ssr:stedsnr" v="312949" />
		<tag k="waterway" v="river" />
	</node>
	<node id="-513708" lat="61.2489777799" lon="6.86303055546">
		<tag k="name" v="Fessefossen" />
		<tag k="natural" v="waterfall" />
		<tag k="ssr:stedsnr" v="762898" />
	</node>
	<node id="-513579" lat="61.194127782" lon="6.74376667344">
		<tag k="name" v="Øyane" />
		<tag k="place" v="island" />
		<tag k="ssr:stedsnr" v="494891" />
	</node>
	<node id="-513419" lat="61.1820222239" lon="6.87156110992">
		<tag k="name" v="Ringdøla" />
		<tag k="ssr:stedsnr" v="59988" />
		<tag k="waterway" v="stream" />
	</node>
	<node id="-513705" lat="61.2502916658" lon="6.90388332971">
		<tag k="name" v="Steintjern" />
		<tag k="natural" v="water" />
		<tag k="ssr:stedsnr" v="762720" />
	</node>
	<node id="-513576" lat="61.2471666705" lon="6.86782777476">
		<tag k="name" v="Reiseta" />
		<tag k="ssr:stedsnr" v="494511" />
		<tag k="waterway" v="stream" />
	</node>
	<node id="-513521" lat="61.2213444427" lon="6.83435278537">
		<tag k="name" v="Hjellande" />
		<tag k="ssr:stedsnr" v="251961" />
		<tag k="waterway" v="stream" />
	</node>
	<node id="-513700" lat="61.222458336" lon="6.73003332971">
		<tag k="name" v="Gryta" />
		<tag k="ssr:stedsnr" v="762432" />
		<tag k="waterway" v="river" />
	</node>
	<node id="-513570" lat="61.1853555525" lon="6.87213611883">
		<tag k="name" v="Bogagrovi" />
		<tag k="ssr:stedsnr" v="484989" />
		<tag k="waterway" v="stream" />
	</node>
	<node id="-513441" lat="61.212805558" lon="6.73880000111">
		<tag k="name" v="Skitstøla" />
		<tag k="ssr:stedsnr" v="70993" />
		<tag k="waterway" v="stream" />
	</node>
	<node id="-513695" lat="61.2505944424" lon="6.91096388778">
		<tag k="name" v="Kringlevatnet" />
		<tag k="natural" v="water" />
		<tag k="ssr:stedsnr" v="748744" />
		<tag k="water" v="lake" />
	</node>
	<node id="-513349" lat="61.2835499978" lon="6.80772777185">
		<tag k="name" v="Voggevatnet" />
		<tag k="natural" v="water" />
		<tag k="ssr:stedsnr" v="371126" />
	</node>
	<node id="-513572" lat="61.285679897" lon="6.84868638642">
		<tag k="name" v="Myrdalsvotni" />
		<tag k="natural" v="water" />
		<tag k="ssr:stedsnr" v="493145" />
		<tag k="water" v="lake" />
	</node>
	<node id="-513691" lat="61.1994833364" lon="6.7418027853">
		<tag k="name" v="Småøyane" />
		<tag k="place" v="island" />
		<tag k="ssr:stedsnr" v="737978" />
	</node>
	<node id="-513690" lat="61.2296333357" lon="6.84719721535">
		<tag k="name" v="Rjukandefossen" />
		<tag k="natural" v="waterfall" />
		<tag k="ssr:stedsnr" v="737964" />
	</node>
	<node id="-513460" lat="61.1907500036" lon="6.91985276855">
		<tag k="name" v="Fossane" />
		<tag k="natural" v="waterfall" />
		<tag k="ssr:stedsnr" v="130863" />
	</node>
	<node id="-513430" lat="61.2238222227" lon="6.75808888335">
		<tag k="name" v="Storehølen" />
		<tag k="place" v="locality" />
		<tag k="ssr:stedsnr" v="70963" />
	</node>
	<node id="-513693" lat="61.2072055589" lon="6.7422722225">
		<tag k="name" v="Grindselvi" />
		<tag k="ssr:stedsnr" v="737994" />
		<tag k="waterway" v="river" />
	</node>
	<node id="-513679" lat="61.2769166654" lon="6.88784444919">
		<tag k="alt_name" v="Trastadalsvatnet, vetla" />
		<tag k="name" v="Vetla Trastadalsvatnet" />
		<tag k="natural" v="water" />
		<tag k="ssr:stedsnr" v="736143" />
	</node>
	<node id="-513549" lat="61.2167333348" lon="6.6609611159">
		<tag k="alt_name" v="Koveelvi" />
		<tag k="name" v="Kovelvi" />
		<tag k="ssr:stedsnr" v="434525" />
		<tag k="waterway" v="stream" />
	</node>
	<node id="-513548" lat="61.2462611087" lon="6.82162223099">
		<tag k="name" v="Blankavatni" />
		<tag k="natural" v="water" />
		<tag k="ssr:stedsnr" v="434498" />
	</node>
	<node id="-513547" lat="61.2690805548" lon="6.8222222263">
		<tag k="name" v="Røsebotna" />
		<tag k="ssr:stedsnr" v="433513" />
		<tag k="waterway" v="stream" />
	</node>
	<node id="-513623" lat="61.2515249984" lon="6.90082777629">
		<tag k="alt_name" v="Vetlevatni" />
		<tag k="name" v="Vetlavatnet" />
		<tag k="natural" v="water" />
		<tag k="ssr:stedsnr" v="614157" />
	</node>
	<node id="-513671" lat="61.2609972234" lon="6.92219167125">
		<tag k="name" v="Botna" />
		<tag k="ssr:stedsnr" v="701746" />
		<tag k="waterway" v="stream" />
	</node>
	<node id="-513414" lat="61.2422916941" lon="6.88393505509">
		<tag k="name" v="Kvistalivatnet" />
		<tag k="natural" v="water" />
		<tag k="ssr:stedsnr" v="34880" />
		<tag k="water" v="lake" />
	</node>
	<node id="-513667" lat="61.2243083294" lon="6.64892777769">
		<tag k="name" v="Kvinna" />
		<tag k="ssr:stedsnr" v="677547" />
		<tag k="waterway" v="stream" />
	</node>
</osm>
