<?xml version="1.0" encoding="UTF-8"?>
<osm generator="osmapis" version="0.6">
	<node id="-513535" lat="61.2127888873" lon="6.90136112004">
		<tag k="name" v="Nummeskar" />
		<tag k="natural" v="valley" />
		<tag k="place" v="locality" />
		<tag k="ssr:stedsnr" v="252978" />
	</node>
	<node id="-513533" lat="61.223288892" lon="6.85603333643">
		<tag k="fixme" v="consider natural=peak for the most distinct mountains in the district" />
		<tag k="name" v="Brennandeholten" />
		<tag k="natural" v="hill" />
		<tag k="place" v="locality" />
		<tag k="ssr:stedsnr" v="252950" />
	</node>
	<node id="-513532" lat="61.2201916664" lon="6.89688056476">
		<tag k="name" v="Snauskoltane" />
		<tag k="natural" v="hill" />
		<tag k="place" v="locality" />
		<tag k="ssr:stedsnr" v="252924" />
	</node>
	<node id="-513530" lat="61.2033361068" lon="6.77871944654">
		<tag k="fixme" v="consider natural=peak for the most distinct mountains in the district" />
		<tag k="name" v="Svartasva" />
		<tag k="natural" v="hill" />
		<tag k="place" v="locality" />
		<tag k="ssr:stedsnr" v="252891" />
	</node>
	<node id="-513528" lat="61.1933583315" lon="6.75539722917">
		<tag k="fixme" v="consider natural=peak for the most distinct mountains in the district" />
		<tag k="name" v="Hovdanosi" />
		<tag k="natural" v="hill" />
		<tag k="place" v="locality" />
		<tag k="ssr:stedsnr" v="252873" />
	</node>
	<node id="-513526" lat="61.1895250042" lon="6.87814166366">
		<tag k="fixme" v="consider natural=peak for the most distinct mountains in the district" />
		<tag k="name" v="Seljeskredfjellet" />
		<tag k="natural" v="hill" />
		<tag k="place" v="locality" />
		<tag k="ssr:stedsnr" v="252861" />
	</node>
	<node id="-513524" lat="61.2360666707" lon="6.72225554772">
		<tag k="name" v="Vetlebotnen" />
		<tag k="natural" v="valley" />
		<tag k="place" v="locality" />
		<tag k="ssr:stedsnr" v="252492" />
	</node>
	<node id="-513520" lat="61.2073222204" lon="6.66344999328">
		<tag k="alt_name" v="Skopargjelet" />
		<tag k="name" v="Skopargilet" />
		<tag k="natural" v="valley" />
		<tag k="place" v="locality" />
		<tag k="ssr:stedsnr" v="250431" />
	</node>
	<node id="-513516" lat="61.1934888871" lon="6.89903611914">
		<tag k="name" v="Lushovden" />
		<tag k="natural" v="hill" />
		<tag k="place" v="locality" />
		<tag k="ssr:stedsnr" v="241988" />
	</node>
	<node id="-513515" lat="61.187358337" lon="6.88814999178">
		<tag k="name" v="Svahaug" />
		<tag k="natural" v="hill" />
		<tag k="place" v="locality" />
		<tag k="ssr:stedsnr" v="241987" />
	</node>
	<node id="-513512" lat="61.1847388884" lon="6.77352776926">
		<tag k="name" v="Hemseberg" />
		<tag k="natural" v="hill" />
		<tag k="place" v="locality" />
		<tag k="ssr:stedsnr" v="216820" />
	</node>
	<node id="-513511" lat="61.186394448" lon="6.80783055885">
		<tag k="name" v="Sanden" />
		<tag k="natural" v="slope" />
		<tag k="place" v="locality" />
		<tag k="ssr:stedsnr" v="216795" />
	</node>
	<node id="-513509" lat="61.2013694413" lon="6.91251665884">
		<tag k="name" v="Mjellhaugane" />
		<tag k="natural" v="hill" />
		<tag k="place" v="locality" />
		<tag k="ssr:stedsnr" v="216667" />
	</node>
	<node id="-513508" lat="61.2027749986" lon="6.85761389021">
		<tag k="name" v="Kappeldalen" />
		<tag k="natural" v="valley" />
		<tag k="place" v="locality" />
		<tag k="ssr:stedsnr" v="216580" />
	</node>
	<node id="-513507" lat="61.2369166665" lon="6.75162776869">
		<tag k="name" v="Hotten" />
		<tag k="natural" v="hill" />
		<tag k="place" v="locality" />
		<tag k="ssr:stedsnr" v="216263" />
	</node>
	<node id="-513506" lat="61.2574916695" lon="6.65209443752">
		<tag k="name" v="Bjørnafura" />
		<tag k="natural" v="hill" />
		<tag k="place" v="locality" />
		<tag k="ssr:stedsnr" v="216236" />
	</node>
	<node id="-513505" lat="61.2186222248" lon="6.89329721685">
		<tag k="fixme" v="consider natural=peak for the most distinct mountains in the district" />
		<tag k="name" v="Snauskoltanosi" />
		<tag k="natural" v="hill" />
		<tag k="place" v="locality" />
		<tag k="ssr:stedsnr" v="216657" />
	</node>
	<node id="-513504" lat="61.1904305569" lon="6.80138332966">
		<tag k="name" v="Skutlane" />
		<tag k="natural" v="hill" />
		<tag k="place" v="locality" />
		<tag k="ssr:stedsnr" v="216630" />
	</node>
	<node id="-513499" lat="61.2055277746" lon="6.74302499759">
		<tag k="name" v="Grindsdalen" />
		<tag k="natural" v="valley" />
		<tag k="place" v="locality" />
		<tag k="ssr:stedsnr" v="191994" />
	</node>
	<node id="-513498" lat="61.2061111142" lon="6.6902944403">
		<tag k="fixme" v="consider natural=peak for the most distinct mountains in the district" />
		<tag k="name" v="Blåfjell" />
		<tag k="natural" v="hill" />
		<tag k="place" v="locality" />
		<tag k="ssr:stedsnr" v="191985" />
	</node>
	<node id="-513497" lat="61.2032583318" lon="6.72712222132">
		<tag k="name" v="Hellesetberget" />
		<tag k="natural" v="hill" />
		<tag k="place" v="locality" />
		<tag k="ssr:stedsnr" v="191964" />
	</node>
	<node id="-513496" lat="61.2293083353" lon="6.88081111577">
		<tag k="alt_name" v="Storetistelen" />
		<tag k="fixme" v="consider natural=peak for the most distinct mountains in the district" />
		<tag k="name" v="Stortistelen" />
		<tag k="natural" v="hill" />
		<tag k="place" v="locality" />
		<tag k="ssr:stedsnr" v="191954" />
	</node>
	<node id="-513494" lat="61.2147333334" lon="6.59881666944">
		<tag k="name" v="Orrahaug" />
		<tag k="natural" v="hill" />
		<tag k="place" v="locality" />
		<tag k="ssr:stedsnr" v="191943" />
	</node>
	<node id="-513491" lat="61.2170861155" lon="6.63505000156">
		<tag k="alt_name" v="Kluksgjelet" />
		<tag k="name" v="Kluksgilet" />
		<tag k="natural" v="gorge" />
		<tag k="ssr:stedsnr" v="191935" />
	</node>
	<node id="-513490" lat="61.220808335" lon="6.85772777238">
		<tag k="name" v="Ulvadalen" />
		<tag k="natural" v="valley" />
		<tag k="place" v="locality" />
		<tag k="ssr:stedsnr" v="191914" />
	</node>
	<node id="-513489" lat="61.1842833317" lon="6.90485556438">
		<tag k="alt_name" v="Hangsetdalen" />
		<tag k="name" v="Hangsetedalen" />
		<tag k="natural" v="valley" />
		<tag k="place" v="locality" />
		<tag k="ssr:stedsnr" v="191903" />
	</node>
	<node id="-513485" lat="61.2339972197" lon="6.77603610982">
		<tag k="name" v="Kleiv" />
		<tag k="place" v="locality" />
		<tag k="ssr:stedsnr" v="191519" />
	</node>
	<node id="-513484" lat="61.2394277757" lon="6.86807221317">
		<tag k="name" v="Holesvoi" />
		<tag k="natural" v="cliff" />
		<tag k="ssr:stedsnr" v="191516" />
	</node>
	<node id="-513483" lat="61.2365444457" lon="6.66323888399">
		<tag k="name" v="Soleihaugen" />
		<tag k="natural" v="hill" />
		<tag k="place" v="locality" />
		<tag k="ssr:stedsnr" v="191510" />
	</node>
	<node id="-513481" lat="61.2741749971" lon="6.87554723126">
		<tag k="name" v="Trastadalen" />
		<tag k="natural" v="valley" />
		<tag k="place" v="locality" />
		<tag k="ssr:stedsnr" v="190145" />
	</node>
	<node id="-513480" lat="61.1811249956" lon="6.88825278106">
		<tag k="name" v="Ste" />
		<tag k="place" v="locality" />
		<tag k="ssr:stedsnr" v="180984" />
	</node>
	<node id="-513477" lat="61.2053888901" lon="6.89861944541">
		<tag k="name" v="Turli" />
		<tag k="natural" v="slope" />
		<tag k="place" v="locality" />
		<tag k="ssr:stedsnr" v="155673" />
	</node>
	<node id="-513476" lat="61.2080888886" lon="6.8168861158">
		<tag k="name" v="Damefall" />
		<tag k="natural" v="slope" />
		<tag k="place" v="locality" />
		<tag k="ssr:stedsnr" v="155588" />
	</node>
	<node id="-513475" lat="61.2238888856" lon="6.60391943937">
		<tag k="name" v="Tenningali" />
		<tag k="natural" v="slope" />
		<tag k="place" v="locality" />
		<tag k="ssr:stedsnr" v="155562" />
	</node>
	<node id="-513474" lat="61.2044305531" lon="6.65968334208">
		<tag k="name" v="Stegane" />
		<tag k="natural" v="hill" />
		<tag k="place" v="locality" />
		<tag k="ssr:stedsnr" v="155109" />
	</node>
	<node id="-513472" lat="61.2315999993" lon="6.90465277501">
		<tag k="fixme" v="consider natural=peak for the most distinct mountains in the district" />
		<tag k="name" v="Hottadalsnosi" />
		<tag k="natural" v="hill" />
		<tag k="place" v="locality" />
		<tag k="ssr:stedsnr" v="131979" />
	</node>
	<node id="-513471" lat="61.2153611119" lon="6.6515500001">
		<tag k="name" v="Kvinnedalen" />
		<tag k="natural" v="valley" />
		<tag k="place" v="locality" />
		<tag k="ssr:stedsnr" v="131958" />
	</node>
	<node id="-513470" lat="61.231005555" lon="6.82468888275">
		<tag k="fixme" v="consider natural=peak for the most distinct mountains in the district" />
		<tag k="name" v="Okslahaugane" />
		<tag k="natural" v="hill" />
		<tag k="place" v="locality" />
		<tag k="ssr:stedsnr" v="130964" />
	</node>
	<node id="-513469" lat="61.2170444467" lon="6.80220556032">
		<tag k="alt_name" v="Kalbakk" />
		<tag k="name" v="Kallbakk" />
		<tag k="natural" v="hill" />
		<tag k="place" v="locality" />
		<tag k="ssr:stedsnr" v="130935" />
	</node>
	<node id="-513466" lat="61.2029888897" lon="6.79061944764">
		<tag k="alt_name" v="Styggeli" />
		<tag k="name" v="Styggali" />
		<tag k="natural" v="slope" />
		<tag k="place" v="locality" />
		<tag k="ssr:stedsnr" v="130897" />
	</node>
	<node id="-513463" lat="61.1948416658" lon="6.77892778585">
		<tag k="fixme" v="consider natural=peak for the most distinct mountains in the district" />
		<tag k="name" v="Kavlshammar" />
		<tag k="natural" v="hill" />
		<tag k="place" v="locality" />
		<tag k="ssr:stedsnr" v="130873" />
	</node>
	<node id="-513461" lat="61.192213892" lon="6.79567500725">
		<tag k="name" v="Skuten" />
		<tag k="place" v="locality" />
		<tag k="ssr:stedsnr" v="130867" />
	</node>
	<node id="-513459" lat="61.23426944" lon="6.75436388461">
		<tag k="name" v="Gildalsbrekka" />
		<tag k="natural" v="slope" />
		<tag k="place" v="locality" />
		<tag k="ssr:stedsnr" v="130538" />
	</node>
	<node id="-513458" lat="61.2397083324" lon="6.75149722964">
		<tag k="alt_name" v="Tjohellerskar" />
		<tag k="name" v="Tjohillerskardet" />
		<tag k="natural" v="hill" />
		<tag k="place" v="locality" />
		<tag k="ssr:stedsnr" v="130537" />
	</node>
	<node id="-513456" lat="61.2310222191" lon="6.66217778474">
		<tag k="name" v="Kupehaugen" />
		<tag k="natural" v="hill" />
		<tag k="place" v="locality" />
		<tag k="ssr:stedsnr" v="130516" />
	</node>
	<node id="-513454" lat="61.2457805536" lon="6.92447500326">
		<tag k="name" v="Kalvahaug" />
		<tag k="natural" v="hill" />
		<tag k="place" v="locality" />
		<tag k="ssr:stedsnr" v="130504" />
	</node>
	<node id="-513453" lat="61.2480444464" lon="6.69853334201">
		<tag k="fixme" v="consider natural=peak for the most distinct mountains in the district" />
		<tag k="name" v="Midteggi" />
		<tag k="natural" v="hill" />
		<tag k="place" v="locality" />
		<tag k="ssr:stedsnr" v="130495" />
	</node>
	<node id="-513450" lat="61.2437361156" lon="6.85523611429">
		<tag k="name" v="Skredene" />
		<tag k="natural" v="valley" />
		<tag k="place" v="locality" />
		<tag k="ssr:stedsnr" v="95926" />
	</node>
	<node id="-513449" lat="61.2430638904" lon="6.86454445047">
		<tag k="name" v="Kvistali" />
		<tag k="natural" v="slope" />
		<tag k="place" v="locality" />
		<tag k="ssr:stedsnr" v="95904" />
	</node>
	<node id="-513447" lat="61.220219445" lon="6.65449722242">
		<tag k="name" v="Tjørnali" />
		<tag k="natural" v="slope" />
		<tag k="place" v="locality" />
		<tag k="ssr:stedsnr" v="95672" />
	</node>
	<node id="-513446" lat="61.1887222188" lon="6.80405555507">
		<tag k="name" v="Ramnaberg" />
		<tag k="natural" v="hill" />
		<tag k="place" v="locality" />
		<tag k="ssr:stedsnr" v="95617" />
	</node>
	<node id="-513445" lat="61.230091665" lon="6.75045278629">
		<tag k="name" v="Halsen" />
		<tag k="natural" v="valley" />
		<tag k="place" v="locality" />
		<tag k="ssr:stedsnr" v="95301" />
	</node>
	<node id="-513437" lat="61.2041666706" lon="6.76257778268">
		<tag k="name" v="Dalene" />
		<tag k="natural" v="valley" />
		<tag k="place" v="locality" />
		<tag k="ssr:stedsnr" v="70902" />
	</node>
	<node id="-513435" lat="61.1953416641" lon="6.79964166282">
		<tag k="fixme" v="consider natural=peak for the most distinct mountains in the district" />
		<tag k="name" v="Høgehaug" />
		<tag k="natural" v="hill" />
		<tag k="place" v="locality" />
		<tag k="ssr:stedsnr" v="70877" />
	</node>
	<node id="-513434" lat="61.1900277774" lon="6.90812222774">
		<tag k="name" v="Liaflatene" />
		<tag k="place" v="locality" />
		<tag k="ssr:stedsnr" v="70870" />
	</node>
	<node id="-513432" lat="61.2325472252" lon="6.88983334159">
		<tag k="fixme" v="consider natural=peak for the most distinct mountains in the district" />
		<tag k="name" v="Lusaskard" />
		<tag k="natural" v="hill" />
		<tag k="place" v="locality" />
		<tag k="ssr:stedsnr" v="70967" />
	</node>
	<node id="-513431" lat="61.2317805539" lon="6.91283889427">
		<tag k="fixme" v="consider natural=peak for the most distinct mountains in the district" />
		<tag k="name" v="Geitanipene" />
		<tag k="natural" v="hill" />
		<tag k="place" v="locality" />
		<tag k="ssr:stedsnr" v="70965" />
	</node>
	<node id="-513428" lat="61.2354972183" lon="6.8253111118">
		<tag k="name" v="Skuledalen" />
		<tag k="natural" v="valley" />
		<tag k="place" v="locality" />
		<tag k="ssr:stedsnr" v="70529" />
	</node>
	<node id="-513426" lat="61.2466194431" lon="6.79658056319">
		<tag k="alt_name" v="Kjerringafjell;Kjerringafjellet" />
		<tag k="fixme" v="consider natural=peak for the most distinct mountains in the district" />
		<tag k="name" v="Kjeringafjell" />
		<tag k="natural" v="hill" />
		<tag k="place" v="locality" />
		<tag k="ssr:stedsnr" v="70507" />
	</node>
	<node id="-513425" lat="61.30397778" lon="6.75203056327">
		<tag k="name" v="Krossuradalen" />
		<tag k="natural" v="valley" />
		<tag k="place" v="locality" />
		<tag k="ssr:stedsnr" v="69227" />
	</node>
	<node id="-513424" lat="61.2884000027" lon="6.73933888155">
		<tag k="name" v="Skarseggi" />
		<tag k="natural" v="hill" />
		<tag k="place" v="locality" />
		<tag k="ssr:stedsnr" v="68526" />
	</node>
	<node id="-513423" lat="61.2617111127" lon="6.81849999804">
		<tag k="name" v="Friksdalen" />
		<tag k="natural" v="valley" />
		<tag k="place" v="locality" />
		<tag k="ssr:stedsnr" v="68145" />
	</node>
	<node id="-513422" lat="61.2514666665" lon="6.64531389468">
		<tag k="fixme" v="consider natural=peak for the most distinct mountains in the district" />
		<tag k="name" v="Rasmusholten" />
		<tag k="natural" v="hill" />
		<tag k="place" v="locality" />
		<tag k="ssr:stedsnr" v="68157" />
	</node>
	<node id="-513418" lat="61.21286111" lon="6.82277777172">
		<tag k="name" v="Nondalen" />
		<tag k="natural" v="valley" />
		<tag k="place" v="locality" />
		<tag k="ssr:stedsnr" v="40967" />
	</node>
	<node id="-513413" lat="61.2295722189" lon="6.85415277624">
		<tag k="name" v="Trollhovden" />
		<tag k="natural" v="hill" />
		<tag k="place" v="locality" />
		<tag k="ssr:stedsnr" v="34745" />
	</node>
	<node id="-513412" lat="61.2165388862" lon="6.89199444551">
		<tag k="name" v="Dansarbakken" />
		<tag k="natural" v="slope" />
		<tag k="place" v="locality" />
		<tag k="ssr:stedsnr" v="34654" />
	</node>
	<node id="-513411" lat="61.2131472225" lon="6.63610833184">
		<tag k="name" v="Trollahaugen" />
		<tag k="natural" v="hill" />
		<tag k="place" v="locality" />
		<tag k="ssr:stedsnr" v="34448" />
	</node>
	<node id="-513410" lat="61.2153000001" lon="6.73683889403">
		<tag k="fixme" v="consider natural=peak for the most distinct mountains in the district" />
		<tag k="name" v="Veslehovden" />
		<tag k="natural" v="hill" />
		<tag k="place" v="locality" />
		<tag k="ssr:stedsnr" v="34416" />
	</node>
	<node id="-513408" lat="61.2118250012" lon="6.65617222692">
		<tag k="name" v="Vetlehaugen" />
		<tag k="natural" v="hill" />
		<tag k="place" v="locality" />
		<tag k="ssr:stedsnr" v="9999" />
	</node>
	<node id="-513407" lat="61.213077776" lon="6.72451388484">
		<tag k="name" v="Fjellgrindahaug" />
		<tag k="natural" v="hill" />
		<tag k="place" v="locality" />
		<tag k="ssr:stedsnr" v="9983" />
	</node>
	<node id="-513404" lat="61.2168277811" lon="6.86835278334">
		<tag k="name" v="Sjonarhaug" />
		<tag k="natural" v="hill" />
		<tag k="place" v="locality" />
		<tag k="ssr:stedsnr" v="9934" />
	</node>
	<node id="-513403" lat="61.2174027791" lon="6.7750638907">
		<tag k="alt_name" v="Dalseteskar" />
		<tag k="name" v="Dalseteskard" />
		<tag k="natural" v="valley" />
		<tag k="place" v="locality" />
		<tag k="ssr:stedsnr" v="9932" />
	</node>
	<node id="-513401" lat="61.2209388917" lon="6.84439999841">
		<tag k="name" v="Henjadalen" />
		<tag k="natural" v="valley" />
		<tag k="place" v="locality" />
		<tag k="ssr:stedsnr" v="9931" />
	</node>
	<node id="-513397" lat="61.2013027768" lon="6.80950277625">
		<tag k="name" v="Orradalen" />
		<tag k="natural" v="valley" />
		<tag k="place" v="locality" />
		<tag k="ssr:stedsnr" v="9882" />
	</node>
	<node id="-513396" lat="61.1829666688" lon="6.73710278509">
		<tag k="name" v="Skiphaug" />
		<tag k="natural" v="hill" />
		<tag k="place" v="locality" />
		<tag k="ssr:stedsnr" v="9863" />
	</node>
	<node id="-513395" lat="61.1823277808" lon="6.74070554825">
		<tag k="name" v="Nòtedalen" />
		<tag k="natural" v="valley" />
		<tag k="place" v="locality" />
		<tag k="ssr:stedsnr" v="9861" />
	</node>
	<node id="-513393" lat="61.2256750017" lon="6.75223610279">
		<tag k="name" v="Skorane" />
		<tag k="natural" v="slope" />
		<tag k="place" v="locality" />
		<tag k="ssr:stedsnr" v="9551" />
	</node>
	<node id="-513392" lat="61.2409833377" lon="6.72242221635">
		<tag k="alt_name" v="Storebotn" />
		<tag k="name" v="Storebotnen" />
		<tag k="natural" v="valley" />
		<tag k="place" v="locality" />
		<tag k="ssr:stedsnr" v="9540" />
	</node>
	<node id="-513391" lat="61.2556666676" lon="6.79079999215">
		<tag k="name" v="Eitrebotn" />
		<tag k="natural" v="valley" />
		<tag k="place" v="locality" />
		<tag k="ssr:stedsnr" v="8170" />
	</node>
	<node id="-513390" lat="61.2600305518" lon="6.66634445313">
		<tag k="name" v="Trodalen" />
		<tag k="natural" v="valley" />
		<tag k="place" v="locality" />
		<tag k="ssr:stedsnr" v="8159" />
	</node>
	<node id="-513386" lat="61.2300972197" lon="6.71968888511">
		<tag k="fixme" v="consider natural=peak for the most distinct mountains in the district" />
		<tag k="name" v="Gryteggi" />
		<tag k="natural" v="hill" />
		<tag k="place" v="locality" />
		<tag k="ssr:stedsnr" v="892327" />
	</node>
	<node id="-513383" lat="61.2221250021" lon="6.7427388919">
		<tag k="name" v="Soleiehaug" />
		<tag k="natural" v="hill" />
		<tag k="place" v="locality" />
		<tag k="ssr:stedsnr" v="884424" />
	</node>
	<node id="-513382" lat="61.2566222217" lon="6.66830833874">
		<tag k="name" v="Sandskreda" />
		<tag k="natural" v="valley" />
		<tag k="place" v="locality" />
		<tag k="ssr:stedsnr" v="884228" />
	</node>
	<node id="-513377" lat="61.2207805534" lon="6.90130000023">
		<tag k="name" v="Trettetungene" />
		<tag k="natural" v="valley" />
		<tag k="place" v="locality" />
		<tag k="ssr:stedsnr" v="398662" />
	</node>
	<node id="-513376" lat="61.1817638851" lon="6.88904722203">
		<tag k="name" v="Soleiholene" />
		<tag k="natural" v="slope" />
		<tag k="place" v="locality" />
		<tag k="ssr:stedsnr" v="398502" />
	</node>
	<node id="-513373" lat="61.2127388875" lon="6.66762222336">
		<tag k="name" v="Skar" />
		<tag k="natural" v="valley" />
		<tag k="place" v="locality" />
		<tag k="ssr:stedsnr" v="397297" />
	</node>
	<node id="-513370" lat="61.2563361072" lon="6.7642055502">
		<tag k="name" v="Bleiehaug" />
		<tag k="natural" v="hill" />
		<tag k="place" v="locality" />
		<tag k="ssr:stedsnr" v="384722" />
	</node>
	<node id="-513365" lat="61.2024333355" lon="6.71751944629">
		<tag k="name" v="Sjonarhaug" />
		<tag k="natural" v="hill" />
		<tag k="place" v="locality" />
		<tag k="ssr:stedsnr" v="373974" />
	</node>
	<node id="-513363" lat="61.2179583336" lon="6.62528056369">
		<tag k="alt_name" v="Kyrali" />
		<tag k="name" v="Kyralii" />
		<tag k="natural" v="slope" />
		<tag k="place" v="locality" />
		<tag k="ssr:stedsnr" v="373966" />
	</node>
	<node id="-513361" lat="61.2230833351" lon="6.89637221406">
		<tag k="name" v="Storli" />
		<tag k="natural" v="slope" />
		<tag k="place" v="locality" />
		<tag k="ssr:stedsnr" v="373950" />
	</node>
	<node id="-513360" lat="61.1800777749" lon="6.8786861083">
		<tag k="alt_name" v="Anhovden" />
		<tag k="name" v="Andhovden" />
		<tag k="natural" v="hill" />
		<tag k="place" v="locality" />
		<tag k="ssr:stedsnr" v="373933" />
	</node>
	<node id="-513359" lat="61.1766666692" lon="6.88741388899">
		<tag k="name" v="Korahola" />
		<tag k="place" v="locality" />
		<tag k="ssr:stedsnr" v="373928" />
	</node>
	<node id="-513355" lat="61.2413944461" lon="6.74485278626">
		<tag k="name" v="Henjane" />
		<tag k="natural" v="hill" />
		<tag k="place" v="locality" />
		<tag k="ssr:stedsnr" v="373565" />
	</node>
	<node id="-513353" lat="61.2397583297" lon="6.69455556277">
		<tag k="fixme" v="consider natural=peak for the most distinct mountains in the district" />
		<tag k="name" v="Hest" />
		<tag k="natural" v="hill" />
		<tag k="place" v="locality" />
		<tag k="ssr:stedsnr" v="373550" />
	</node>
	<node id="-513352" lat="61.2468305563" lon="6.66430278687">
		<tag k="fixme" v="consider natural=peak for the most distinct mountains in the district" />
		<tag k="name" v="Trodalseggi" />
		<tag k="natural" v="hill" />
		<tag k="place" v="locality" />
		<tag k="ssr:stedsnr" v="373537" />
	</node>
	<node id="-513350" lat="61.2697611089" lon="6.86220832693">
		<tag k="name" v="Slettabotn" />
		<tag k="natural" v="valley" />
		<tag k="place" v="locality" />
		<tag k="ssr:stedsnr" v="371161" />
	</node>
	<node id="-513347" lat="61.2171499993" lon="6.78761666215">
		<tag k="name" v="Skarseggene" />
		<tag k="natural" v="ridge" />
		<tag k="place" v="locality" />
		<tag k="ssr:stedsnr" v="362993" />
	</node>
	<node id="-513346" lat="61.2147611109" lon="6.89119443759">
		<tag k="name" v="Botnabakken" />
		<tag k="natural" v="slope" />
		<tag k="place" v="locality" />
		<tag k="ssr:stedsnr" v="362983" />
	</node>
	<node id="-513344" lat="61.2169805577" lon="6.83587777471">
		<tag k="name" v="Kinnaberget" />
		<tag k="natural" v="hill" />
		<tag k="place" v="locality" />
		<tag k="ssr:stedsnr" v="337941" />
	</node>
	<node id="-513343" lat="61.1920444477" lon="6.76694445256">
		<tag k="name" v="Hagane" />
		<tag k="natural" v="slope" />
		<tag k="place" v="locality" />
		<tag k="ssr:stedsnr" v="337825" />
	</node>
	<node id="-513342" lat="61.2606138889" lon="6.9189944492">
		<tag k="name" v="Botn" />
		<tag k="natural" v="valley" />
		<tag k="place" v="locality" />
		<tag k="ssr:stedsnr" v="337708" />
	</node>
	<node id="-513340" lat="61.2095000019" lon="6.91117500324">
		<tag k="name" v="Havrane" />
		<tag k="place" v="locality" />
		<tag k="ssr:stedsnr" v="337678" />
	</node>
	<node id="-513339" lat="61.2064194474" lon="6.80741388092">
		<tag k="name" v="Svoldsæt" />
		<tag k="natural" v="hill" />
		<tag k="place" v="locality" />
		<tag k="ssr:stedsnr" v="337658" />
	</node>
	<node id="-513338" lat="61.190808331" lon="6.79151665969">
		<tag k="name" v="Styggeteigen" />
		<tag k="natural" v="slope" />
		<tag k="place" v="locality" />
		<tag k="ssr:stedsnr" v="337656" />
	</node>
	<node id="-513337" lat="61.2078083348" lon="6.84701943715">
		<tag k="name" v="Kammane" />
		<tag k="natural" v="hill" />
		<tag k="place" v="locality" />
		<tag k="ssr:stedsnr" v="337618" />
	</node>
	<node id="-513336" lat="61.2378749966" lon="6.76371389604">
		<tag k="name" v="Veahaug" />
		<tag k="natural" v="hill" />
		<tag k="place" v="locality" />
		<tag k="ssr:stedsnr" v="337297" />
	</node>
	<node id="-513335" lat="61.2345805594" lon="6.84223610678">
		<tag k="name" v="Stigaflaten" />
		<tag k="place" v="locality" />
		<tag k="ssr:stedsnr" v="337165" />
	</node>
	<node id="-513334" lat="61.1892583325" lon="6.74877221837">
		<tag k="name" v="Huksdalen" />
		<tag k="natural" v="valley" />
		<tag k="place" v="locality" />
		<tag k="ssr:stedsnr" v="337125" />
	</node>
	<node id="-513330" lat="61.2373805551" lon="6.73146111651">
		<tag k="name" v="Nonhaug" />
		<tag k="natural" v="hill" />
		<tag k="place" v="locality" />
		<tag k="ssr:stedsnr" v="313530" />
	</node>
	<node id="-513329" lat="61.2039694433" lon="6.88108054686">
		<tag k="alt_name" v="Njøsdalen" />
		<tag k="name" v="Njøsadalen" />
		<tag k="natural" v="valley" />
		<tag k="place" v="locality" />
		<tag k="ssr:stedsnr" v="312982" />
	</node>
	<node id="-513326" lat="61.2205388847" lon="6.72706666236">
		<tag k="name" v="Langhaug" />
		<tag k="natural" v="hill" />
		<tag k="place" v="locality" />
		<tag k="ssr:stedsnr" v="312956" />
	</node>
	<node id="-513324" lat="61.1950000028" lon="6.77223333225">
		<tag k="name" v="Holene" />
		<tag k="natural" v="valley" />
		<tag k="place" v="locality" />
		<tag k="ssr:stedsnr" v="312884" />
	</node>
	<node id="-513320" lat="61.2630194462" lon="6.76428333107">
		<tag k="name" v="Svinadalen" />
		<tag k="natural" v="valley" />
		<tag k="place" v="locality" />
		<tag k="ssr:stedsnr" v="311180" />
	</node>
	<node id="-513319" lat="61.2678499985" lon="6.84747222667">
		<tag k="fixme" v="consider natural=peak for the most distinct mountains in the district" />
		<tag k="name" v="Svolsetfjellet" />
		<tag k="natural" v="hill" />
		<tag k="place" v="locality" />
		<tag k="ssr:stedsnr" v="311176" />
	</node>
	<node id="-513318" lat="61.2639666671" lon="6.73741388421">
		<tag k="fixme" v="consider natural=peak for the most distinct mountains in the district" />
		<tag k="name" v="Stavafjellet" />
		<tag k="natural" v="hill" />
		<tag k="place" v="locality" />
		<tag k="ssr:stedsnr" v="311177" />
	</node>
	<node id="-513317" lat="61.2759055513" lon="6.757602784">
		<tag k="name" v="Fossadalen" />
		<tag k="natural" v="valley" />
		<tag k="place" v="locality" />
		<tag k="ssr:stedsnr" v="311170" />
	</node>
	<node id="-513315" lat="61.2864750019" lon="6.74236389101">
		<tag k="name" v="Skar" />
		<tag k="natural" v="valley" />
		<tag k="place" v="locality" />
		<tag k="ssr:stedsnr" v="311160" />
	</node>
	<node id="-513314" lat="61.2086305554" lon="6.89022499508">
		<tag k="name" v="Stølengjehola" />
		<tag k="place" v="locality" />
		<tag k="ssr:stedsnr" v="302987" />
	</node>
	<node id="-513312" lat="61.2144861123" lon="6.65237777431">
		<tag k="name" v="Tunga" />
		<tag k="natural" v="slope" />
		<tag k="place" v="locality" />
		<tag k="ssr:stedsnr" v="277701" />
	</node>
	<node id="-513311" lat="61.2136138871" lon="6.64838055643">
		<tag k="name" v="Blomslåtta" />
		<tag k="natural" v="slope" />
		<tag k="place" v="locality" />
		<tag k="ssr:stedsnr" v="277678" />
	</node>
	<node id="-513310" lat="61.2223833304" lon="6.74841944037">
		<tag k="name" v="Vollabakkane" />
		<tag k="natural" v="slope" />
		<tag k="place" v="locality" />
		<tag k="ssr:stedsnr" v="277441" />
	</node>
	<node id="-513309" lat="61.1904083348" lon="6.71603333698">
		<tag k="fixme" v="consider natural=peak for the most distinct mountains in the district" />
		<tag k="name" v="Åsen" />
		<tag k="natural" v="hill" />
		<tag k="place" v="locality" />
		<tag k="ssr:stedsnr" v="277377" />
	</node>
	<node id="-513308" lat="61.2043194439" lon="6.71390832538">
		<tag k="name" v="Skrymtahola" />
		<tag k="natural" v="gorge" />
		<tag k="ssr:stedsnr" v="277376" />
	</node>
	<node id="-513305" lat="61.2625277767" lon="6.65187500087">
		<tag k="name" v="Fureranden" />
		<tag k="natural" v="ridge" />
		<tag k="place" v="locality" />
		<tag k="ssr:stedsnr" v="277230" />
	</node>
	<node id="-513304" lat="61.2134333372" lon="6.89215278577">
		<tag k="name" v="Garlebakkhaug" />
		<tag k="natural" v="hill" />
		<tag k="place" v="locality" />
		<tag k="ssr:stedsnr" v="276738" />
	</node>
	<node id="-513805" lat="61.2098138889" lon="6.75648055224">
		<tag k="name" v="Lægdene" />
		<tag k="natural" v="valley" />
		<tag k="place" v="locality" />
		<tag k="ssr:stedsnr" v="969987" />
	</node>
	<node id="-513802" lat="61.2150916707" lon="6.61348056354">
		<tag k="name" v="Flatane" />
		<tag k="place" v="locality" />
		<tag k="ssr:stedsnr" v="944611" />
	</node>
	<node id="-513801" lat="61.2165416658" lon="6.74658055642">
		<tag k="name" v="Lægdene" />
		<tag k="natural" v="valley" />
		<tag k="place" v="locality" />
		<tag k="ssr:stedsnr" v="944512" />
	</node>
	<node id="-513800" lat="61.2164361081" lon="6.73219166791">
		<tag k="name" v="Kleivholi" />
		<tag k="natural" v="gorge" />
		<tag k="ssr:stedsnr" v="944497" />
	</node>
	<node id="-513798" lat="61.1911027817" lon="6.7732555615">
		<tag k="name" v="Koldammen" />
		<tag k="place" v="locality" />
		<tag k="ssr:stedsnr" v="944821" />
	</node>
	<node id="-513794" lat="61.2111694474" lon="6.64240276908">
		<tag k="fixme" v="consider natural=peak for the most distinct mountains in the district" />
		<tag k="name" v="Nesafjellet" />
		<tag k="natural" v="hill" />
		<tag k="place" v="locality" />
		<tag k="ssr:stedsnr" v="920000" />
	</node>
	<node id="-513791" lat="61.2209888915" lon="6.87187221942">
		<tag k="alt_name" v="Storli-Rupeskar" />
		<tag k="name" v="Rjupeskar" />
		<tag k="natural" v="valley" />
		<tag k="place" v="locality" />
		<tag k="ssr:stedsnr" v="919940" />
	</node>
	<node id="-513786" lat="61.1973055523" lon="6.72286111784">
		<tag k="name" v="Vandadalen" />
		<tag k="natural" v="valley" />
		<tag k="place" v="locality" />
		<tag k="ssr:stedsnr" v="919891" />
	</node>
	<node id="-513782" lat="61.2446666636" lon="6.8941305496">
		<tag k="name" v="Ljotehaug" />
		<tag k="natural" v="hill" />
		<tag k="place" v="locality" />
		<tag k="ssr:stedsnr" v="919539" />
	</node>
	<node id="-513781" lat="61.295272224" lon="6.90619444089">
		<tag k="fixme" v="consider natural=peak for the most distinct mountains in the district" />
		<tag k="name" v="Blåfjellet" />
		<tag k="natural" v="hill" />
		<tag k="place" v="locality" />
		<tag k="ssr:stedsnr" v="918295" />
	</node>
	<node id="-513779" lat="61.2503416622" lon="6.73039721554">
		<tag k="name" v="Sauaholten" />
		<tag k="natural" v="hill" />
		<tag k="place" v="locality" />
		<tag k="ssr:stedsnr" v="918163" />
	</node>
	<node id="-513778" lat="61.2639611111" lon="6.79046110619">
		<tag k="fixme" v="consider natural=peak for the most distinct mountains in the district" />
		<tag k="name" v="Kaldekletten" />
		<tag k="natural" v="hill" />
		<tag k="place" v="locality" />
		<tag k="ssr:stedsnr" v="918149" />
	</node>
	<node id="-513777" lat="61.2708499981" lon="6.76751388422">
		<tag k="name" v="Svinadalseggi" />
		<tag k="natural" v="hill" />
		<tag k="place" v="locality" />
		<tag k="ssr:stedsnr" v="918142" />
	</node>
	<node id="-513776" lat="61.2872972243" lon="6.85498612028">
		<tag k="name" v="Myrdalen" />
		<tag k="natural" v="valley" />
		<tag k="place" v="locality" />
		<tag k="ssr:stedsnr" v="918134" />
	</node>
	<node id="-513769" lat="61.2051972231" lon="6.6661972252">
		<tag k="alt_name" v="Brandhammar" />
		<tag k="fixme" v="consider natural=peak for the most distinct mountains in the district" />
		<tag k="name" v="Bandhammar" />
		<tag k="natural" v="hill" />
		<tag k="place" v="locality" />
		<tag k="ssr:stedsnr" v="859985" />
	</node>
	<node id="-513768" lat="61.2160083343" lon="6.91848333584">
		<tag k="name" v="Sæterhaug" />
		<tag k="natural" v="hill" />
		<tag k="place" v="locality" />
		<tag k="ssr:stedsnr" v="859979" />
	</node>
	<node id="-513766" lat="61.2284666674" lon="6.91508888631">
		<tag k="name" v="Seltuftebotn" />
		<tag k="natural" v="valley" />
		<tag k="place" v="locality" />
		<tag k="ssr:stedsnr" v="859947" />
	</node>
	<node id="-513765" lat="61.2007888904" lon="6.82150833879">
		<tag k="name" v="Eggjahaugane" />
		<tag k="natural" v="hill" />
		<tag k="old_name" v="Kleppahaugen" />
		<tag k="place" v="locality" />
		<tag k="ssr:stedsnr" v="859881" />
	</node>
	<node id="-513763" lat="61.1935277785" lon="6.72194166253">
		<tag k="fixme" v="consider natural=peak for the most distinct mountains in the district" />
		<tag k="name" v="Branden" />
		<tag k="natural" v="hill" />
		<tag k="place" v="locality" />
		<tag k="ssr:stedsnr" v="859869" />
	</node>
	<node id="-513760" lat="61.237241669" lon="6.84747777741">
		<tag k="fixme" v="consider natural=peak for the most distinct mountains in the district" />
		<tag k="name" v="Hotten" />
		<tag k="natural" v="hill" />
		<tag k="place" v="locality" />
		<tag k="ssr:stedsnr" v="859518" />
	</node>
	<node id="-513759" lat="61.2401055598" lon="6.74030277307">
		<tag k="alt_name" v="Kjerringi" />
		<tag k="name" v="Kjeringi" />
		<tag k="natural" v="hill" />
		<tag k="place" v="locality" />
		<tag k="ssr:stedsnr" v="859507" />
	</node>
	<node id="-513758" lat="61.2468694464" lon="6.77229167153">
		<tag k="name" v="Rust" />
		<tag k="natural" v="slope" />
		<tag k="place" v="locality" />
		<tag k="ssr:stedsnr" v="859504" />
	</node>
	<node id="-513757" lat="61.2214749971" lon="6.65861944377">
		<tag k="alt_name" v="Storehaug" />
		<tag k="name" v="Storehaugen" />
		<tag k="natural" v="hill" />
		<tag k="place" v="locality" />
		<tag k="ssr:stedsnr" v="858944" />
	</node>
	<node id="-513754" lat="61.2902111115" lon="6.78601943904">
		<tag k="fixme" v="consider natural=peak for the most distinct mountains in the district" />
		<tag k="name" v="Skarholten" />
		<tag k="natural" v="hill" />
		<tag k="place" v="locality" />
		<tag k="ssr:stedsnr" v="857273" />
	</node>
	<node id="-513753" lat="61.298013891" lon="6.7754055538">
		<tag k="name" v="Ryssebotn" />
		<tag k="natural" v="valley" />
		<tag k="place" v="locality" />
		<tag k="ssr:stedsnr" v="857257" />
	</node>
	<node id="-513751" lat="61.2539611069" lon="6.84985833432">
		<tag k="fixme" v="multiple name tags, choose one and add the other to alt_name" />
		<tag k="name" v="Sevihovden;Sevihovdryggen" />
		<tag k="natural" v="hill" />
		<tag k="place" v="locality" />
		<tag k="ssr:stedsnr" v="857172" />
	</node>
	<node id="-513748" lat="61.2742111069" lon="6.78231389452">
		<tag k="fixme" v="consider natural=peak for the most distinct mountains in the district" />
		<tag k="name" v="Friksdalseggi" />
		<tag k="natural" v="hill" />
		<tag k="place" v="locality" />
		<tag k="ssr:stedsnr" v="857142" />
	</node>
	<node id="-513747" lat="61.1889333364" lon="6.87922500565">
		<tag k="name" v="Melatoppen" />
		<tag k="natural" v="hill" />
		<tag k="place" v="locality" />
		<tag k="ssr:stedsnr" v="848997" />
	</node>
	<node id="-513746" lat="61.2111694426" lon="6.77768333763">
		<tag k="name" v="Vassbotnen" />
		<tag k="natural" v="valley" />
		<tag k="place" v="locality" />
		<tag k="ssr:stedsnr" v="848994" />
	</node>
	<node id="-513740" lat="61.204630553" lon="6.77121944065">
		<tag k="name" v="Hammarskar" />
		<tag k="natural" v="valley" />
		<tag k="place" v="locality" />
		<tag k="ssr:stedsnr" v="823766" />
	</node>
	<node id="-513738" lat="61.2127555526" lon="6.60532500025">
		<tag k="name" v="Harekvina" />
		<tag k="natural" v="slope" />
		<tag k="place" v="locality" />
		<tag k="ssr:stedsnr" v="823544" />
	</node>
	<node id="-513737" lat="61.2104444407" lon="6.74855833628">
		<tag k="name" v="Brandarhaug" />
		<tag k="natural" v="hill" />
		<tag k="place" v="locality" />
		<tag k="ssr:stedsnr" v="823435" />
	</node>
	<node id="-513736" lat="61.2524333309" lon="6.85833610525">
		<tag k="name" v="Fessene" />
		<tag k="natural" v="slope" />
		<tag k="place" v="locality" />
		<tag k="ssr:stedsnr" v="823136" />
	</node>
	<node id="-513733" lat="61.208283332" lon="6.781369447">
		<tag k="fixme" v="consider natural=peak for the most distinct mountains in the district" />
		<tag k="name" v="Smørkletten" />
		<tag k="natural" v="hill" />
		<tag k="place" v="locality" />
		<tag k="ssr:stedsnr" v="798992" />
	</node>
	<node id="-513729" lat="61.2078444416" lon="6.86151389292">
		<tag k="name" v="Ørnagardhaug" />
		<tag k="natural" v="hill" />
		<tag k="place" v="locality" />
		<tag k="ssr:stedsnr" v="798977" />
	</node>
	<node id="-513725" lat="61.1730138846" lon="6.87329999189">
		<tag k="name" v="Grauthaug" />
		<tag k="natural" v="hill" />
		<tag k="place" v="locality" />
		<tag k="ssr:stedsnr" v="798912" />
	</node>
	<node id="-513723" lat="61.2002527741" lon="6.89785834021">
		<tag k="name" v="Kvannskar" />
		<tag k="natural" v="valley" />
		<tag k="place" v="locality" />
		<tag k="ssr:stedsnr" v="798887" />
	</node>
	<node id="-513720" lat="61.2438138898" lon="6.91218889367">
		<tag k="name" v="Skitbrekkene" />
		<tag k="natural" v="hill" />
		<tag k="place" v="locality" />
		<tag k="ssr:stedsnr" v="798494" />
	</node>
	<node id="-513719" lat="61.2431527769" lon="6.68403610607">
		<tag k="name" v="Søkjerbotnen" />
		<tag k="natural" v="valley" />
		<tag k="place" v="locality" />
		<tag k="ssr:stedsnr" v="798488" />
	</node>
	<node id="-513715" lat="61.2567333346" lon="6.73081111828">
		<tag k="name" v="Reppebotn" />
		<tag k="natural" v="valley" />
		<tag k="place" v="locality" />
		<tag k="ssr:stedsnr" v="796152" />
	</node>
	<node id="-513714" lat="61.2765333356" lon="6.82200554788">
		<tag k="name" v="Røsebotn" />
		<tag k="natural" v="valley" />
		<tag k="place" v="locality" />
		<tag k="ssr:stedsnr" v="796130" />
	</node>
	<node id="-513713" lat="61.2235749958" lon="6.60961943804">
		<tag k="fixme" v="consider natural=peak for the most distinct mountains in the district" />
		<tag k="name" v="Nipa" />
		<tag k="natural" v="hill" />
		<tag k="place" v="locality" />
		<tag k="ssr:stedsnr" v="798525" />
	</node>
	<node id="-513707" lat="61.1828694414" lon="6.75809721723">
		<tag k="name" v="Valbrekka" />
		<tag k="natural" v="hill" />
		<tag k="place" v="locality" />
		<tag k="ssr:stedsnr" v="762842" />
	</node>
	<node id="-513704" lat="61.2633277772" lon="6.93517221468">
		<tag k="name" v="Langadraget" />
		<tag k="natural" v="ridge" />
		<tag k="place" v="locality" />
		<tag k="ssr:stedsnr" v="762719" />
	</node>
	<node id="-513703" lat="61.2158555542" lon="6.89815555927">
		<tag k="name" v="Idlebakkane" />
		<tag k="natural" v="slope" />
		<tag k="place" v="locality" />
		<tag k="ssr:stedsnr" v="762666" />
	</node>
	<node id="-513701" lat="61.206744444" lon="6.82293611162">
		<tag k="name" v="Simohaug" />
		<tag k="natural" v="hill" />
		<tag k="place" v="locality" />
		<tag k="ssr:stedsnr" v="762573" />
	</node>
	<node id="-513699" lat="61.1889777771" lon="6.7401194375">
		<tag k="name" v="Eineberg" />
		<tag k="natural" v="hill" />
		<tag k="place" v="locality" />
		<tag k="ssr:stedsnr" v="762377" />
	</node>
	<node id="-513697" lat="61.1972111136" lon="6.74122778005">
		<tag k="name" v="Kleivane" />
		<tag k="natural" v="slope" />
		<tag k="place" v="locality" />
		<tag k="ssr:stedsnr" v="762120" />
	</node>
	<node id="-513696" lat="61.2212972265" lon="6.66238889118">
		<tag k="name" v="Koven" />
		<tag k="natural" v="hill" />
		<tag k="place" v="locality" />
		<tag k="ssr:stedsnr" v="761307" />
	</node>
	<node id="-513692" lat="61.2139555582" lon="6.91234443532">
		<tag k="fixme" v="consider natural=peak for the most distinct mountains in the district" />
		<tag k="name" v="Skoreggi" />
		<tag k="natural" v="hill" />
		<tag k="place" v="locality" />
		<tag k="ssr:stedsnr" v="737986" />
	</node>
	<node id="-513687" lat="61.2212444479" lon="6.90856388525">
		<tag k="name" v="Geitadalen" />
		<tag k="natural" v="valley" />
		<tag k="place" v="locality" />
		<tag k="ssr:stedsnr" v="737948" />
	</node>
	<node id="-513686" lat="61.2205277785" lon="6.87575833956">
		<tag k="fixme" v="consider natural=peak for the most distinct mountains in the district" />
		<tag k="name" v="Skagasetfjellet" />
		<tag k="natural" v="hill" />
		<tag k="place" v="locality" />
		<tag k="ssr:stedsnr" v="737944" />
	</node>
	<node id="-513685" lat="61.1905916701" lon="6.81904999565">
		<tag k="name" v="Hallandsberget" />
		<tag k="natural" v="hill" />
		<tag k="old_name" v="Berghamaren" />
		<tag k="place" v="locality" />
		<tag k="ssr:stedsnr" v="737891" />
	</node>
	<node id="-513684" lat="61.1928638928" lon="6.88880554888">
		<tag k="alt_name" v="Bjønshovden" />
		<tag k="fixme" v="consider natural=peak for the most distinct mountains in the district" />
		<tag k="name" v="Bjørnshovden" />
		<tag k="natural" v="hill" />
		<tag k="place" v="locality" />
		<tag k="ssr:stedsnr" v="737889" />
	</node>
	<node id="-513683" lat="61.2253000013" lon="6.62746666871">
		<tag k="fixme" v="consider natural=peak for the most distinct mountains in the district" />
		<tag k="name" v="Storeholten" />
		<tag k="natural" v="hill" />
		<tag k="place" v="locality" />
		<tag k="ssr:stedsnr" v="737550" />
	</node>
	<node id="-513680" lat="61.2672305552" lon="6.9054888927">
		<tag k="name" v="Høgehaug" />
		<tag k="natural" v="hill" />
		<tag k="place" v="locality" />
		<tag k="ssr:stedsnr" v="736159" />
	</node>
	<node id="-513673" lat="61.188880555" lon="6.78291666282">
		<tag k="name" v="Kalvehagen" />
		<tag k="natural" v="slope" />
		<tag k="place" v="locality" />
		<tag k="ssr:stedsnr" v="701827" />
	</node>
	<node id="-513672" lat="61.2670833365" lon="6.93743888505">
		<tag k="fixme" v="consider natural=peak for the most distinct mountains in the district" />
		<tag k="name" v="Hellerbergeggi" />
		<tag k="natural" v="hill" />
		<tag k="place" v="locality" />
		<tag k="ssr:stedsnr" v="701757" />
	</node>
	<node id="-513669" lat="61.2177777797" lon="6.59979722139">
		<tag k="alt_name" v="Alskori" />
		<tag k="name" v="Almskori" />
		<tag k="natural" v="valley" />
		<tag k="place" v="locality" />
		<tag k="ssr:stedsnr" v="677966" />
	</node>
	<node id="-513666" lat="61.2285583332" lon="6.73353056108">
		<tag k="name" v="Fagradalen" />
		<tag k="natural" v="valley" />
		<tag k="place" v="locality" />
		<tag k="ssr:stedsnr" v="677545" />
	</node>
	<node id="-513664" lat="61.2188083346" lon="6.75045555147">
		<tag k="alt_name" v="Parisgjelet" />
		<tag k="name" v="Parisgilet" />
		<tag k="natural" v="gorge" />
		<tag k="ssr:stedsnr" v="676951" />
	</node>
	<node id="-513658" lat="61.1891055551" lon="6.75143889329">
		<tag k="fixme" v="consider natural=peak for the most distinct mountains in the district" />
		<tag k="name" v="Ulvafjellet" />
		<tag k="natural" v="hill" />
		<tag k="place" v="locality" />
		<tag k="ssr:stedsnr" v="676878" />
	</node>
	<node id="-513656" lat="61.2733055568" lon="6.79635278288">
		<tag k="name" v="Vogga" />
		<tag k="natural" v="valley" />
		<tag k="place" v="locality" />
		<tag k="ssr:stedsnr" v="675154" />
	</node>
	<node id="-513654" lat="61.2108194436" lon="6.82040555812">
		<tag k="name" v="Ljomhammar" />
		<tag k="natural" v="hill" />
		<tag k="place" v="locality" />
		<tag k="ssr:stedsnr" v="666959" />
	</node>
	<node id="-513648" lat="61.2233750011" lon="6.64940000039">
		<tag k="name" v="Kolmileflatane" />
		<tag k="place" v="locality" />
		<tag k="ssr:stedsnr" v="640705" />
	</node>
	<node id="-513647" lat="61.2120805521" lon="6.89174444358">
		<tag k="name" v="Garlebakkane" />
		<tag k="natural" v="slope" />
		<tag k="place" v="locality" />
		<tag k="ssr:stedsnr" v="640696" />
	</node>
	<node id="-513646" lat="61.1796472182" lon="6.88581111902">
		<tag k="name" v="Fossane" />
		<tag k="natural" v="valley" />
		<tag k="place" v="locality" />
		<tag k="ssr:stedsnr" v="640541" />
	</node>
	<node id="-513645" lat="61.2201808671" lon="6.73285158879">
		<tag k="name" v="Gåsedalen" />
		<tag k="natural" v="valley" />
		<tag k="place" v="locality" />
		<tag k="ssr:stedsnr" v="640492" />
	</node>
	<node id="-513644" lat="61.2281027808" lon="6.75321943739">
		<tag k="name" v="Myklebruskredene" />
		<tag k="natural" v="valley" />
		<tag k="place" v="locality" />
		<tag k="ssr:stedsnr" v="640381" />
	</node>
	<node id="-513643" lat="61.231044446" lon="6.6484472228">
		<tag k="name" v="Seltuftebotn" />
		<tag k="natural" v="valley" />
		<tag k="place" v="locality" />
		<tag k="ssr:stedsnr" v="640281" />
	</node>
	<node id="-513642" lat="61.2283833324" lon="6.8051416727">
		<tag k="fixme" v="consider natural=peak for the most distinct mountains in the district" />
		<tag k="name" v="Fagreggi" />
		<tag k="natural" v="hill" />
		<tag k="place" v="locality" />
		<tag k="ssr:stedsnr" v="616973" />
	</node>
	<node id="-513639" lat="61.1999527778" lon="6.72488334121">
		<tag k="name" v="Lauvhaugane" />
		<tag k="natural" v="hill" />
		<tag k="place" v="locality" />
		<tag k="ssr:stedsnr" v="615965" />
	</node>
	<node id="-513638" lat="61.2040055597" lon="6.69998054732">
		<tag k="alt_name" v="Kvernhusgjelet" />
		<tag k="name" v="Kvernhusgilet" />
		<tag k="natural" v="gorge" />
		<tag k="ssr:stedsnr" v="615963" />
	</node>
	<node id="-513636" lat="61.2169972252" lon="6.74196110931">
		<tag k="fixme" v="consider natural=peak for the most distinct mountains in the district" />
		<tag k="name" v="Hovden" />
		<tag k="natural" v="hill" />
		<tag k="place" v="locality" />
		<tag k="ssr:stedsnr" v="615949" />
	</node>
	<node id="-513633" lat="61.206027779" lon="6.81068054963">
		<tag k="fixme" v="consider natural=peak for the most distinct mountains in the district" />
		<tag k="name" v="Svolsetfjellet" />
		<tag k="natural" v="hill" />
		<tag k="place" v="locality" />
		<tag k="ssr:stedsnr" v="615896" />
	</node>
	<node id="-513629" lat="61.2350416676" lon="6.83434444603">
		<tag k="name" v="Nuvedalen" />
		<tag k="natural" v="valley" />
		<tag k="place" v="locality" />
		<tag k="ssr:stedsnr" v="615532" />
	</node>
	<node id="-513626" lat="61.3050750046" lon="6.88576389717">
		<tag k="fixme" v="consider natural=peak for the most distinct mountains in the district" />
		<tag k="name" v="Nonsholten" />
		<tag k="natural" v="hill" />
		<tag k="place" v="locality" />
		<tag k="ssr:stedsnr" v="614244" />
	</node>
	<node id="-513625" lat="61.2966138902" lon="6.73693055661">
		<tag k="name" v="Strupen" />
		<tag k="natural" v="valley" />
		<tag k="place" v="locality" />
		<tag k="ssr:stedsnr" v="614239" />
	</node>
	<node id="-513624" lat="61.3012249971" lon="6.74143332896">
		<tag k="alt_name" v="Vetleeggi" />
		<tag k="name" v="Vetleggi" />
		<tag k="natural" v="hill" />
		<tag k="place" v="locality" />
		<tag k="ssr:stedsnr" v="614236" />
	</node>
	<node id="-513619" lat="61.2090694422" lon="6.77677221456">
		<tag k="name" v="Trollakyrkja" />
		<tag k="natural" v="hill" />
		<tag k="place" v="locality" />
		<tag k="ssr:stedsnr" v="586966" />
	</node>
	<node id="-513617" lat="61.1822027812" lon="6.77868334052">
		<tag k="name" v="Veten" />
		<tag k="natural" v="slope" />
		<tag k="place" v="locality" />
		<tag k="ssr:stedsnr" v="586938" />
	</node>
	<node id="-513611" lat="61.2042361105" lon="6.83640000256">
		<tag k="name" v="Raumålsbakkane" />
		<tag k="natural" v="slope" />
		<tag k="place" v="locality" />
		<tag k="ssr:stedsnr" v="580582" />
	</node>
	<node id="-513609" lat="61.2565444478" lon="6.85989166364">
		<tag k="name" v="Åsebakken" />
		<tag k="natural" v="slope" />
		<tag k="place" v="locality" />
		<tag k="ssr:stedsnr" v="580132" />
	</node>
	<node id="-513608" lat="61.2642666626" lon="6.85930555501">
		<tag k="fixme" v="consider natural=peak for the most distinct mountains in the district" />
		<tag k="name" v="Oksli" />
		<tag k="natural" v="hill" />
		<tag k="place" v="locality" />
		<tag k="ssr:stedsnr" v="580131" />
	</node>
	<node id="-513607" lat="61.2649027758" lon="6.81431110219">
		<tag k="name" v="Friksdalbotn" />
		<tag k="natural" v="valley" />
		<tag k="place" v="locality" />
		<tag k="ssr:stedsnr" v="580124" />
	</node>
	<node id="-513606" lat="61.2689722188" lon="6.87989722429">
		<tag k="name" v="Åsenosi" />
		<tag k="natural" v="ridge" />
		<tag k="place" v="locality" />
		<tag k="ssr:stedsnr" v="566744" />
	</node>
	<node id="-513601" lat="61.1782055548" lon="6.88368333306">
		<tag k="name" v="Horpa" />
		<tag k="natural" v="cliff" />
		<tag k="ssr:stedsnr" v="555898" />
	</node>
	<node id="-513597" lat="61.2299111094" lon="6.74021666626">
		<tag k="fixme" v="consider natural=peak for the most distinct mountains in the district" />
		<tag k="name" v="Fagraeggi" />
		<tag k="natural" v="hill" />
		<tag k="place" v="locality" />
		<tag k="ssr:stedsnr" v="555500" />
	</node>
	<node id="-513596" lat="61.220458334" lon="6.68835000029">
		<tag k="name" v="Tvangen" />
		<tag k="natural" v="valley" />
		<tag k="place" v="locality" />
		<tag k="ssr:stedsnr" v="554962" />
	</node>
	<node id="-513595" lat="61.2149861135" lon="6.70411388626">
		<tag k="fixme" v="consider natural=peak for the most distinct mountains in the district" />
		<tag k="name" v="Mælen" />
		<tag k="natural" v="hill" />
		<tag k="place" v="locality" />
		<tag k="ssr:stedsnr" v="554960" />
	</node>
	<node id="-513593" lat="61.1811166704" lon="6.88311667167">
		<tag k="name" v="Kyrkja" />
		<tag k="place" v="locality" />
		<tag k="ssr:stedsnr" v="544987" />
	</node>
	<node id="-513589" lat="61.1977555594" lon="6.82995278283">
		<tag k="name" v="Furuteigen" />
		<tag k="natural" v="slope" />
		<tag k="place" v="locality" />
		<tag k="ssr:stedsnr" v="519644" />
	</node>
	<node id="-513588" lat="61.2203277752" lon="6.64454165955">
		<tag k="name" v="Sjonarhaug" />
		<tag k="natural" v="hill" />
		<tag k="place" v="locality" />
		<tag k="ssr:stedsnr" v="519530" />
	</node>
	<node id="-513586" lat="61.2491250016" lon="6.63222776913">
		<tag k="name" v="Munkatungene" />
		<tag k="natural" v="valley" />
		<tag k="place" v="locality" />
		<tag k="ssr:stedsnr" v="519522" />
	</node>
	<node id="-513585" lat="61.2808500015" lon="6.7260722216">
		<tag k="fixme" v="consider natural=peak for the most distinct mountains in the district" />
		<tag k="name" v="Husbyggjefjellet" />
		<tag k="natural" v="hill" />
		<tag k="ssr:stedsnr" v="506717" />
	</node>
	<node id="-513583" lat="61.2264972213" lon="6.76780832961">
		<tag k="fixme" v="consider natural=peak for the most distinct mountains in the district" />
		<tag k="name" v="Myklebruholten" />
		<tag k="natural" v="hill" />
		<tag k="place" v="locality" />
		<tag k="ssr:stedsnr" v="495961" />
	</node>
	<node id="-513582" lat="61.2215555524" lon="6.79619167502">
		<tag k="name" v="Rjupeskar" />
		<tag k="natural" v="valley" />
		<tag k="place" v="locality" />
		<tag k="ssr:stedsnr" v="494941" />
	</node>
	<node id="-513581" lat="61.1835166636" lon="6.88851665803">
		<tag k="name" v="Oreholene" />
		<tag k="natural" v="valley" />
		<tag k="place" v="locality" />
		<tag k="ssr:stedsnr" v="494934" />
	</node>
	<node id="-513580" lat="61.2051861112" lon="6.88716111006">
		<tag k="name" v="Lysedalen" />
		<tag k="natural" v="valley" />
		<tag k="place" v="locality" />
		<tag k="ssr:stedsnr" v="494896" />
	</node>
	<node id="-513573" lat="61.257022226" lon="6.70046943615">
		<tag k="alt_name" v="Stavafjellet" />
		<tag k="fixme" v="consider natural=peak for the most distinct mountains in the district" />
		<tag k="name" v="Stav" />
		<tag k="natural" v="hill" />
		<tag k="place" v="locality" />
		<tag k="ssr:stedsnr" v="493162" />
	</node>
	<node id="-513568" lat="61.1828361078" lon="6.76704722299">
		<tag k="name" v="Korrane" />
		<tag k="natural" v="slope" />
		<tag k="place" v="locality" />
		<tag k="ssr:stedsnr" v="465944" />
	</node>
	<node id="-513567" lat="61.2488472243" lon="6.91496667294">
		<tag k="name" v="Leite" />
		<tag k="place" v="locality" />
		<tag k="ssr:stedsnr" v="459719" />
	</node>
	<node id="-513566" lat="61.2123388919" lon="6.59741110322">
		<tag k="name" v="Basdalen" />
		<tag k="natural" v="valley" />
		<tag k="place" v="locality" />
		<tag k="ssr:stedsnr" v="459558" />
	</node>
	<node id="-513565" lat="61.2196027744" lon="6.62695833928">
		<tag k="name" v="Raunesteinholten" />
		<tag k="natural" v="hill" />
		<tag k="place" v="locality" />
		<tag k="ssr:stedsnr" v="459509" />
	</node>
	<node id="-513564" lat="61.2354805581" lon="6.74943610627">
		<tag k="name" v="Budeiehaug" />
		<tag k="natural" v="hill" />
		<tag k="place" v="locality" />
		<tag k="ssr:stedsnr" v="459278" />
	</node>
	<node id="-513563" lat="61.2584222245" lon="6.84879444704">
		<tag k="name" v="Haugali" />
		<tag k="natural" v="slope" />
		<tag k="place" v="locality" />
		<tag k="ssr:stedsnr" v="459143" />
	</node>
	<node id="-513559" lat="61.211541669" lon="6.91522221384">
		<tag k="name" v="Slettadalen" />
		<tag k="natural" v="valley" />
		<tag k="place" v="locality" />
		<tag k="ssr:stedsnr" v="434980" />
	</node>
	<node id="-513557" lat="61.21767222" lon="6.88732778415">
		<tag k="name" v="Renndalane" />
		<tag k="natural" v="valley" />
		<tag k="place" v="locality" />
		<tag k="ssr:stedsnr" v="434940" />
	</node>
	<node id="-513553" lat="61.1877666637" lon="6.901258331">
		<tag k="fixme" v="consider natural=peak for the most distinct mountains in the district" />
		<tag k="name" v="Svarthamrane" />
		<tag k="natural" v="hill" />
		<tag k="place" v="locality" />
		<tag k="ssr:stedsnr" v="434923" />
	</node>
	<node id="-513552" lat="61.1851111087" lon="6.90141665928">
		<tag k="name" v="Stemmedalen" />
		<tag k="natural" v="valley" />
		<tag k="place" v="locality" />
		<tag k="ssr:stedsnr" v="434921" />
	</node>
	<node id="-513545" lat="61.2651777793" lon="6.66376110758">
		<tag k="fixme" v="consider natural=peak for the most distinct mountains in the district" />
		<tag k="name" v="Børtnesholten" />
		<tag k="natural" v="hill" />
		<tag k="place" v="locality" />
		<tag k="ssr:stedsnr" v="432142" />
	</node>
	<node id="-513544" lat="61.2591972222" lon="6.64773611314">
		<tag k="name" v="Trodalen" />
		<tag k="natural" v="valley" />
		<tag k="place" v="locality" />
		<tag k="ssr:stedsnr" v="432140" />
	</node>
	<node id="-513543" lat="61.210361113" lon="6.77504166269">
		<tag k="name" v="Vasslihaugane" />
		<tag k="natural" v="valley" />
		<tag k="place" v="locality" />
		<tag k="ssr:stedsnr" v="423996" />
	</node>
	<node id="-513541" lat="61.2208750017" lon="6.8122583239">
		<tag k="name" v="Oreveitane" />
		<tag k="natural" v="slope" />
		<tag k="place" v="locality" />
		<tag k="ssr:stedsnr" v="423976" />
	</node>
	<node id="-513539" lat="61.2608972193" lon="6.88044165857">
		<tag k="name" v="Pipehaug" />
		<tag k="natural" v="hill" />
		<tag k="place" v="locality" />
		<tag k="ssr:stedsnr" v="263737" />
	</node>
</osm>
