<?xml version="1.0" encoding="UTF-8"?>
<osm version="0.6" generator="osmapis">
	<node id="775811015" lat="61.8773315" lon="5.7161607" version="4" timestamp="2022-08-21T06:25:08Z" changeset="125169960" uid="3497659" user="NKA">
		<tag k="name" v="Isane" />
		<tag k="place" v="hamlet" />
		<tag k="ssr:stedsnr" v="920348" />
	</node>
	<node id="775813576" lat="61.8392137" lon="5.6762836" version="4" timestamp="2022-08-21T06:25:08Z" changeset="125169960" uid="3497659" user="NKA">
		<tag k="name" v="Ålfoten" />
		<tag k="place" v="hamlet" />
		<tag k="ssr:stedsnr" v="434265" />
	</node>
	<node id="2387604748" lat="61.8884851" lon="5.5377807" version="3" timestamp="2022-08-21T06:25:08Z" changeset="125169960" uid="3497659" user="NKA">
		<tag k="name" v="Davik" />
		<tag k="place" v="village" />
		<tag k="ssr:stedsnr" v="859373" />
	</node>
	<node id="2387635270" lat="61.7667615" lon="4.8789988" version="6" timestamp="2022-08-21T06:25:08Z" changeset="125169960" uid="3497659" user="NKA">
		<tag k="name" v="Kalvåg" />
		<tag k="place" v="village" />
		<tag k="population" v="430" />
		<tag k="population:date" v="2021-01-01" />
		<tag k="ref:ssb_tettsted" v="5672" />
		<tag k="source:population" v="SSB - befolkning i tettstedet" />
		<tag k="ssr:stedsnr" v="920864" />
	</node>
	<node id="3010032260" lat="61.8398423" lon="4.9890684" version="6" timestamp="2022-08-21T06:25:08Z" changeset="125169960" uid="3497659" user="NKA">
		<tag k="name" v="Bremanger" />
		<tag k="place" v="village" />
		<tag k="population" v="367" />
		<tag k="population:date" v="2021-01-01" />
		<tag k="ref:ssb_tettsted" v="5673" />
		<tag k="source:population" v="SSB - befolkning i tettstedet" />
		<tag k="ssr:stedsnr" v="616932" />
	</node>
	<node id="3010032261" lat="61.7683359" lon="5.2906103" version="5" timestamp="2022-08-21T06:25:08Z" changeset="125169960" uid="3497659" user="NKA">
		<tag k="name" v="Svelgen" />
		<tag k="place" v="village" />
		<tag k="population" v="1144" />
		<tag k="population:date" v="2021-01-01" />
		<tag k="ref:ssb_tettsted" v="5671" />
		<tag k="source:population" v="SSB - befolkning i tettstedet" />
		<tag k="ssr:stedsnr" v="738103" />
	</node>
	<node id="3653212498" lat="61.8771164" lon="5.2211641" version="2" timestamp="2022-08-21T06:25:08Z" changeset="125169960" uid="3497659" user="NKA">
		<tag k="name" v="Hamnen" />
		<tag k="place" v="hamlet" />
		<tag k="ssr:stedsnr" v="677173" />
	</node>
	<node id="3653212501" lat="61.8710277" lon="5.2097556" version="3" timestamp="2022-08-21T06:25:08Z" changeset="125169960" uid="3497659" user="NKA">
		<tag k="name" v="Klubben" />
		<tag k="place" v="hamlet" />
		<tag k="ssr:stedsnr" v="535554" />
	</node>
	<node id="4982348874" lat="61.8231712" lon="5.2900626" version="2" timestamp="2022-08-21T06:25:08Z" changeset="125169960" uid="3497659" user="NKA">
		<tag k="alt_name" v="Vingelven" />
		<tag k="name" v="Vingelva" />
		<tag k="place" v="hamlet" />
		<tag k="ssr:stedsnr" v="313129" />
	</node>
	<node id="6216715392" lat="61.8752761" lon="5.2218901" version="2" timestamp="2022-08-21T06:25:08Z" changeset="125169960" uid="3497659" user="NKA">
		<tag k="name" v="Skatestraumen" />
		<tag k="place" v="farm" />
		<tag k="ssr:stedsnr" v="114924" />
	</node>
	<node id="6216715415" lat="61.8843286" lon="5.3364721" version="2" timestamp="2022-08-21T06:25:08Z" changeset="125169960" uid="3497659" user="NKA">
		<tag k="name" v="Rugsund" />
		<tag k="place" v="village" />
		<tag k="ssr:stedsnr" v="555146" />
	</node>
	<node id="9967128689" lat="61.7703058" lon="4.9306978" version="1" timestamp="2022-08-21T06:25:08Z" changeset="125169960" uid="3497659" user="NKA">
		<tag k="name" v="Smørhamn" />
		<tag k="place" v="farm" />
		<tag k="ssr:stedsnr" v="973815" />
	</node>
	<node id="9967128690" lat="61.8745146" lon="5.3263046" version="1" timestamp="2022-08-21T06:25:08Z" changeset="125169960" uid="3497659" user="NKA">
		<tag k="name" v="Olsbøen" />
		<tag k="place" v="hamlet" />
		<tag k="ssr:stedsnr" v="738172" />
	</node>
	<node id="9967128691" lat="61.735733" lon="5.1978626" version="1" timestamp="2022-08-21T06:25:08Z" changeset="125169960" uid="3497659" user="NKA">
		<tag k="name" v="Runnane" />
		<tag k="place" v="farm" />
		<tag k="ssr:stedsnr" v="596871" />
	</node>
	<node id="9967128692" lat="61.8981181" lon="5.5317492" version="1" timestamp="2022-08-21T06:25:08Z" changeset="125169960" uid="3497659" user="NKA">
		<tag k="name" v="Bakken" />
		<tag k="place" v="farm" />
		<tag k="ssr:stedsnr" v="160923" />
	</node>
	<node id="9967128693" lat="61.8335565" lon="5.5151973" version="1" timestamp="2022-08-21T06:25:08Z" changeset="125169960" uid="3497659" user="NKA">
		<tag k="historic" v="shieling" />
		<tag k="name" v="Dalsete" />
		<tag k="place" v="isolated_dwelling" />
		<tag k="ssr:stedsnr" v="131351" />
	</node>
	<node id="9967128694" lat="61.7752056" lon="4.8948452" version="1" timestamp="2022-08-21T06:25:08Z" changeset="125169960" uid="3497659" user="NKA">
		<tag k="name" v="Oppigard" />
		<tag k="place" v="farm" />
		<tag k="ssr:stedsnr" v="964399" />
	</node>
	<node id="9967128695" lat="61.794125" lon="5.2954117" version="1" timestamp="2022-08-21T06:25:08Z" changeset="125169960" uid="3497659" user="NKA">
		<tag k="name" v="Sandesætra" />
		<tag k="place" v="locality" />
		<tag k="ssr:stedsnr" v="71106" />
	</node>
	<node id="9967128696" lat="61.85825" lon="5.5732365" version="1" timestamp="2022-08-21T06:25:08Z" changeset="125169960" uid="3497659" user="NKA">
		<tag k="name" v="Bortnedalsmunnen" />
		<tag k="place" v="locality" />
		<tag k="ssr:stedsnr" v="71383" />
	</node>
	<node id="9967128697" lat="61.7917549" lon="5.0201414" version="1" timestamp="2022-08-21T06:25:08Z" changeset="125169960" uid="3497659" user="NKA">
		<tag k="alt_name" v="Rylandholmen" />
		<tag k="name" v="Rylandsholmen" />
		<tag k="place" v="farm" />
		<tag k="ssr:stedsnr" v="535431" />
	</node>
	<node id="9967128698" lat="61.7763839" lon="4.8959709" version="1" timestamp="2022-08-21T06:25:08Z" changeset="125169960" uid="3497659" user="NKA">
		<tag k="alt_name" v="Frøyen øvre" />
		<tag k="name" v="Øvre Frøyen" />
		<tag k="place" v="farm" />
		<tag k="ssr:stedsnr" v="293424" />
	</node>
	<node id="9967128699" lat="61.8368275" lon="4.9290051" version="1" timestamp="2022-08-21T06:25:08Z" changeset="125169960" uid="3497659" user="NKA">
		<tag k="name" v="Vellene" />
		<tag k="place" v="farm" />
		<tag k="ssr:stedsnr" v="536006" />
	</node>
	<node id="9967128700" lat="61.8841028" lon="5.5862976" version="1" timestamp="2022-08-21T06:25:08Z" changeset="125169960" uid="3497659" user="NKA">
		<tag k="historic" v="shieling" />
		<tag k="name" v="Vassdalen" />
		<tag k="place" v="isolated_dwelling" />
		<tag k="ssr:stedsnr" v="70399" />
	</node>
	<node id="9967128701" lat="61.7722833" lon="4.8918758" version="1" timestamp="2022-08-21T06:25:08Z" changeset="125169960" uid="3497659" user="NKA">
		<tag k="name" v="Frøya" />
		<tag k="place" v="hamlet" />
		<tag k="ssr:stedsnr" v="54391" />
	</node>
	<node id="9967128702" lat="61.774559" lon="5.2827515" version="1" timestamp="2022-08-21T06:25:08Z" changeset="125169960" uid="3497659" user="NKA">
		<tag k="name" v="Sande" />
		<tag k="place" v="hamlet" />
		<tag k="ssr:stedsnr" v="374098" />
	</node>
	<node id="9967128703" lat="61.7514169" lon="5.2662977" version="1" timestamp="2022-08-21T06:25:08Z" changeset="125169960" uid="3497659" user="NKA">
		<tag k="alt_name" v="Risesetra" />
		<tag k="historic" v="shieling" />
		<tag k="name" v="Risesætra" />
		<tag k="place" v="isolated_dwelling" />
		<tag k="ssr:stedsnr" v="495092" />
	</node>
	<node id="9967128704" lat="61.8732617" lon="5.3073283" version="1" timestamp="2022-08-21T06:25:08Z" changeset="125169960" uid="3497659" user="NKA">
		<tag k="name" v="Krakevika" />
		<tag k="place" v="farm" />
		<tag k="ssr:stedsnr" v="313189" />
	</node>
	<node id="9967128705" lat="61.8328944" lon="5.5668087" version="1" timestamp="2022-08-21T06:25:08Z" changeset="125169960" uid="3497659" user="NKA">
		<tag k="name" v="Vaulegrobakken" />
		<tag k="place" v="locality" />
		<tag k="ssr:stedsnr" v="353209" />
	</node>
	<node id="9967128706" lat="61.8336611" lon="5.5806199" version="1" timestamp="2022-08-21T06:25:08Z" changeset="125169960" uid="3497659" user="NKA">
		<tag k="historic" v="shieling" />
		<tag k="name" v="Myklebustsætra" />
		<tag k="place" v="hamlet" />
		<tag k="ssr:stedsnr" v="70345" />
	</node>
	<node id="9967128707" lat="61.7764361" lon="5.1492729" version="1" timestamp="2022-08-21T06:25:08Z" changeset="125169960" uid="3497659" user="NKA">
		<tag k="historic" v="shieling" />
		<tag k="name" v="Hessvikstøylen" />
		<tag k="place" v="isolated_dwelling" />
		<tag k="ssr:stedsnr" v="445224" />
	</node>
	<node id="9967128708" lat="61.810588" lon="4.9088403" version="1" timestamp="2022-08-21T06:25:08Z" changeset="125169960" uid="3497659" user="NKA">
		<tag k="name" v="Bakke" />
		<tag k="place" v="farm" />
		<tag k="ssr:stedsnr" v="738945" />
	</node>
	<node id="9967128709" lat="61.8232055" lon="5.4849561" version="1" timestamp="2022-08-21T06:25:08Z" changeset="125169960" uid="3497659" user="NKA">
		<tag k="historic" v="shieling" />
		<tag k="name" v="Fjelleryggen" />
		<tag k="place" v="isolated_dwelling" />
		<tag k="ssr:stedsnr" v="50310" />
	</node>
	<node id="9967128710" lat="61.8325667" lon="5.5505088" version="1" timestamp="2022-08-21T06:25:08Z" changeset="125169960" uid="3497659" user="NKA">
		<tag k="name" v="Litlevassbakken" />
		<tag k="place" v="locality" />
		<tag k="ssr:stedsnr" v="50305" />
	</node>
	<node id="9967128711" lat="61.7626565" lon="5.2730721" version="1" timestamp="2022-08-21T06:25:08Z" changeset="125169960" uid="3497659" user="NKA">
		<tag k="name" v="Breivik" />
		<tag k="place" v="isolated_dwelling" />
		<tag k="ssr:stedsnr" v="295185" />
	</node>
	<node id="9967128712" lat="61.7850166" lon="4.933934" version="1" timestamp="2022-08-21T06:25:08Z" changeset="125169960" uid="3497659" user="NKA">
		<tag k="alt_name" v="Nybø" />
		<tag k="name" v="Nybøen" />
		<tag k="place" v="farm" />
		<tag k="ssr:stedsnr" v="253841" />
	</node>
	<node id="9967128713" lat="61.7200972" lon="5.2279006" version="1" timestamp="2022-08-21T06:25:08Z" changeset="125169960" uid="3497659" user="NKA">
		<tag k="name" v="Reset" />
		<tag k="place" v="isolated_dwelling" />
		<tag k="ssr:stedsnr" v="251849" />
	</node>
	<node id="9967128714" lat="61.9169491" lon="5.4324888" version="1" timestamp="2022-08-21T06:25:08Z" changeset="125169960" uid="3497659" user="NKA">
		<tag k="name" v="Oteren" />
		<tag k="place" v="hamlet" />
		<tag k="ssr:stedsnr" v="435247" />
	</node>
	<node id="9967128715" lat="61.8832306" lon="5.40147" version="1" timestamp="2022-08-21T06:25:08Z" changeset="125169960" uid="3497659" user="NKA">
		<tag k="historic" v="shieling" />
		<tag k="name" v="Skjervane" />
		<tag k="place" v="isolated_dwelling" />
		<tag k="ssr:stedsnr" v="252141" />
	</node>
	<node id="9967128716" lat="61.7265415" lon="4.9931666" version="1" timestamp="2022-08-21T06:25:08Z" changeset="125169960" uid="3497659" user="NKA">
		<tag k="alt_name" v="Botnane" />
		<tag k="name" v="Nordbotnen" />
		<tag k="place" v="hamlet" />
		<tag k="ssr:stedsnr" v="676441" />
	</node>
	<node id="9967147017" lat="61.8905611" lon="5.4586728" version="1" timestamp="2022-08-21T06:25:08Z" changeset="125169960" uid="3497659" user="NKA">
		<tag k="alt_name" v="Gamlesetra" />
		<tag k="historic" v="shieling" />
		<tag k="name" v="Gamlesætra" />
		<tag k="place" v="isolated_dwelling" />
		<tag k="ssr:stedsnr" v="799203" />
	</node>
	<node id="9967147018" lat="61.8308357" lon="5.117187" version="1" timestamp="2022-08-21T06:25:08Z" changeset="125169960" uid="3497659" user="NKA">
		<tag k="name" v="Berle" />
		<tag k="place" v="hamlet" />
		<tag k="ssr:stedsnr" v="616123" />
	</node>
	<node id="9967147019" lat="61.7878805" lon="5.2708783" version="1" timestamp="2022-08-21T06:25:08Z" changeset="125169960" uid="3497659" user="NKA">
		<tag k="name" v="Sandesætra" />
		<tag k="place" v="locality" />
		<tag k="ssr:stedsnr" v="435106" />
	</node>
	<node id="9967147020" lat="61.8590639" lon="5.390456" version="1" timestamp="2022-08-21T06:25:08Z" changeset="125169960" uid="3497659" user="NKA">
		<tag k="alt_name" v="Setra" />
		<tag k="name" v="Sætra" />
		<tag k="place" v="locality" />
		<tag k="ssr:stedsnr" v="253171" />
	</node>
	<node id="9967147021" lat="61.7612669" lon="5.1281896" version="1" timestamp="2022-08-21T06:25:08Z" changeset="125169960" uid="3497659" user="NKA">
		<tag k="name" v="Leirvika" />
		<tag k="place" v="hamlet" />
		<tag k="ssr:stedsnr" v="799056" />
	</node>
	<node id="9967147022" lat="61.8826167" lon="5.4696005" version="1" timestamp="2022-08-21T06:25:08Z" changeset="125169960" uid="3497659" user="NKA">
		<tag k="historic" v="shieling" />
		<tag k="name" v="Stabrekka" />
		<tag k="place" v="isolated_dwelling" />
		<tag k="ssr:stedsnr" v="373439" />
	</node>
	<node id="9967147023" lat="61.8880784" lon="5.5439033" version="1" timestamp="2022-08-21T06:25:08Z" changeset="125169960" uid="3497659" user="NKA">
		<tag k="name" v="Prestegarden" />
		<tag k="place" v="farm" />
		<tag k="ssr:stedsnr" v="192458" />
	</node>
	<node id="9967147024" lat="61.7659582" lon="5.1420529" version="1" timestamp="2022-08-21T06:25:08Z" changeset="125169960" uid="3497659" user="NKA">
		<tag k="name" v="Hessvika" />
		<tag k="place" v="farm" />
		<tag k="ssr:stedsnr" v="799093" />
	</node>
	<node id="9967147025" lat="61.877875" lon="5.0811034" version="1" timestamp="2022-08-21T06:25:08Z" changeset="125169960" uid="3497659" user="NKA">
		<tag k="name" v="Melsnes" />
		<tag k="place" v="isolated_dwelling" />
		<tag k="ssr:stedsnr" v="599318" />
	</node>
	<node id="9967147026" lat="61.7746732" lon="5.3037372" version="1" timestamp="2022-08-21T06:25:08Z" changeset="125169960" uid="3497659" user="NKA">
		<tag k="name" v="Borgestad" />
		<tag k="place" v="locality" />
		<tag k="ssr:stedsnr" v="172796" />
	</node>
	<node id="9967147027" lat="61.8378208" lon="4.9189138" version="1" timestamp="2022-08-21T06:25:08Z" changeset="125169960" uid="3497659" user="NKA">
		<tag k="alt_name" v="Grotle, in;Grotle Indre" />
		<tag k="name" v="Indre Grotle" />
		<tag k="place" v="farm" />
		<tag k="ssr:stedsnr" v="799926" />
	</node>
	<node id="9967147028" lat="61.8134676" lon="5.1998164" version="1" timestamp="2022-08-21T06:25:08Z" changeset="125169960" uid="3497659" user="NKA">
		<tag k="alt_name" v="Jorda" />
		<tag k="name" v="Litle Hennøyna" />
		<tag k="place" v="locality" />
		<tag k="ssr:stedsnr" v="171531" />
	</node>
	<node id="9967147029" lat="61.8865364" lon="5.5599593" version="1" timestamp="2022-08-21T06:25:08Z" changeset="125169960" uid="3497659" user="NKA">
		<tag k="name" v="Bakkelia" />
		<tag k="place" v="farm" />
		<tag k="ssr:stedsnr" v="252389" />
	</node>
	<node id="9967147030" lat="61.8131427" lon="5.2331252" version="1" timestamp="2022-08-21T06:25:08Z" changeset="125169960" uid="3497659" user="NKA">
		<tag k="name" v="Gardfjøstunet" />
		<tag k="place" v="farm" />
		<tag k="ssr:stedsnr" v="960522" />
	</node>
	<node id="9967147031" lat="61.7546965" lon="4.8644955" version="1" timestamp="2022-08-21T06:25:08Z" changeset="125169960" uid="3497659" user="NKA">
		<tag k="name" v="Liset" />
		<tag k="place" v="hamlet" />
		<tag k="ssr:stedsnr" v="798820" />
	</node>
	<node id="9967147032" lat="61.8347202" lon="5.1216627" version="1" timestamp="2022-08-21T06:25:08Z" changeset="125169960" uid="3497659" user="NKA">
		<tag k="alt_name" v="Indre Hauge;Inste Hauge" />
		<tag k="name" v="Hauge" />
		<tag k="place" v="hamlet" />
		<tag k="ssr:stedsnr" v="738152" />
	</node>
	<node id="9967147033" lat="61.8191028" lon="5.3064782" version="1" timestamp="2022-08-21T06:25:08Z" changeset="125169960" uid="3497659" user="NKA">
		<tag k="alt_name" v="Vingesetra" />
		<tag k="historic" v="shieling" />
		<tag k="name" v="Vingesætra" />
		<tag k="place" v="isolated_dwelling" />
		<tag k="ssr:stedsnr" v="71132" />
	</node>
	<node id="9967147034" lat="61.7764466" lon="5.2776467" version="1" timestamp="2022-08-21T06:25:08Z" changeset="125169960" uid="3497659" user="NKA">
		<tag k="name" v="Framstevika" />
		<tag k="place" v="neighbourhood" />
		<tag k="ssr:stedsnr" v="982070" />
	</node>
	<node id="9967147035" lat="61.7650516" lon="4.853228" version="1" timestamp="2022-08-21T06:25:08Z" changeset="125169960" uid="3497659" user="NKA">
		<tag k="name" v="Steinset" />
		<tag k="place" v="hamlet" />
		<tag k="ssr:stedsnr" v="313868" />
	</node>
	<node id="9967147036" lat="61.8700111" lon="5.1743812" version="1" timestamp="2022-08-21T06:25:08Z" changeset="125169960" uid="3497659" user="NKA">
		<tag k="alt_name" v="Klubbesetra" />
		<tag k="historic" v="shieling" />
		<tag k="name" v="Klubbesætra" />
		<tag k="place" v="isolated_dwelling" />
		<tag k="ssr:stedsnr" v="71197" />
	</node>
	<node id="9967147037" lat="61.8533639" lon="5.435106" version="1" timestamp="2022-08-21T06:25:08Z" changeset="125169960" uid="3497659" user="NKA">
		<tag k="historic" v="shieling" />
		<tag k="name" v="Nyken" />
		<tag k="place" v="isolated_dwelling" />
		<tag k="ssr:stedsnr" v="71165" />
	</node>
	<node id="9967147038" lat="61.860774" lon="5.3119065" version="1" timestamp="2022-08-21T06:25:08Z" changeset="125169960" uid="3497659" user="NKA">
		<tag k="name" v="Leirgulen" />
		<tag k="place" v="hamlet" />
		<tag k="ssr:stedsnr" v="50562" />
	</node>
	<node id="9967147039" lat="61.8971086" lon="5.5293654" version="1" timestamp="2022-08-21T06:25:08Z" changeset="125169960" uid="3497659" user="NKA">
		<tag k="name" v="Ekornbakken" />
		<tag k="place" v="farm" />
		<tag k="ssr:stedsnr" v="859376" />
	</node>
	<node id="9967147040" lat="61.7412799" lon="5.1185695" version="1" timestamp="2022-08-21T06:25:08Z" changeset="125169960" uid="3497659" user="NKA">
		<tag k="name" v="Mulehamn" />
		<tag k="place" v="hamlet" />
		<tag k="ssr:stedsnr" v="450679" />
	</node>
	<node id="9967147041" lat="61.7852896" lon="4.9678592" version="1" timestamp="2022-08-21T06:25:08Z" changeset="125169960" uid="3497659" user="NKA">
		<tag k="name" v="Vågane" />
		<tag k="place" v="hamlet" />
		<tag k="ssr:stedsnr" v="374851" />
	</node>
	<node id="9967147042" lat="61.8866859" lon="5.5242603" version="1" timestamp="2022-08-21T06:25:08Z" changeset="125169960" uid="3497659" user="NKA">
		<tag k="name" v="Hamrane" />
		<tag k="place" v="farm" />
		<tag k="ssr:stedsnr" v="859402" />
	</node>
	<node id="9967147043" lat="61.8564744" lon="5.3235161" version="1" timestamp="2022-08-21T06:25:08Z" changeset="125169960" uid="3497659" user="NKA">
		<tag k="name" v="Lofnes" />
		<tag k="place" v="hamlet" />
		<tag k="ssr:stedsnr" v="813710" />
	</node>
	<node id="9967147044" lat="61.8901306" lon="5.5366672" version="1" timestamp="2022-08-21T06:25:08Z" changeset="125169960" uid="3497659" user="NKA">
		<tag k="name" v="Frimannslund" />
		<tag k="place" v="farm" />
		<tag k="ssr:stedsnr" v="192437" />
	</node>
	<node id="9967147045" lat="61.8844053" lon="5.559052" version="1" timestamp="2022-08-21T06:25:08Z" changeset="125169960" uid="3497659" user="NKA">
		<tag k="name" v="Høyland" />
		<tag k="place" v="farm" />
		<tag k="ssr:stedsnr" v="373434" />
	</node>
	<node id="9967147046" lat="61.8137447" lon="4.947009" version="1" timestamp="2022-08-21T06:25:08Z" changeset="125169960" uid="3497659" user="NKA">
		<tag k="name" v="Myra" />
		<tag k="place" v="farm" />
		<tag k="ssr:stedsnr" v="677934" />
	</node>
	<node id="9967147047" lat="61.7291861" lon="4.9858562" version="1" timestamp="2022-08-21T06:25:08Z" changeset="125169960" uid="3497659" user="NKA">
		<tag k="name" v="Sletta" />
		<tag k="place" v="farm" />
		<tag k="ssr:stedsnr" v="8470" />
	</node>
	<node id="9967147048" lat="61.8840363" lon="5.2203544" version="1" timestamp="2022-08-21T06:25:08Z" changeset="125169960" uid="3497659" user="NKA">
		<tag k="name" v="Skorpa" />
		<tag k="place" v="farm" />
		<tag k="ssr:stedsnr" v="192228" />
	</node>
	<node id="9967147049" lat="61.8010555" lon="4.8411675" version="1" timestamp="2022-08-21T06:25:08Z" changeset="125169960" uid="3497659" user="NKA">
		<tag k="name" v="Plassen" />
		<tag k="place" v="locality" />
		<tag k="ssr:stedsnr" v="10928" />
	</node>
	<node id="9967147050" lat="61.8900851" lon="5.6423536" version="1" timestamp="2022-08-21T06:25:08Z" changeset="125169960" uid="3497659" user="NKA">
		<tag k="name" v="Høgebakken" />
		<tag k="place" v="farm" />
		<tag k="ssr:stedsnr" v="656847" />
	</node>
	<node id="9967147051" lat="61.8065088" lon="4.9117489" version="1" timestamp="2022-08-21T06:25:08Z" changeset="125169960" uid="3497659" user="NKA">
		<tag k="name" v="Bremnes" />
		<tag k="place" v="farm" />
		<tag k="ssr:stedsnr" v="475021" />
	</node>
	<node id="9967147052" lat="61.882097" lon="5.1264172" version="1" timestamp="2022-08-21T06:25:08Z" changeset="125169960" uid="3497659" user="NKA">
		<tag k="name" v="Bjørnøyna" />
		<tag k="place" v="farm" />
		<tag k="ssr:stedsnr" v="973822" />
	</node>
	<node id="9967147053" lat="61.8803944" lon="5.6380198" version="1" timestamp="2022-08-21T06:25:08Z" changeset="125169960" uid="3497659" user="NKA">
		<tag k="historic" v="shieling" />
		<tag k="name" v="Legene" />
		<tag k="place" v="isolated_dwelling" />
		<tag k="ssr:stedsnr" v="192399" />
	</node>
	<node id="9967147054" lat="61.8781278" lon="5.4593144" version="1" timestamp="2022-08-21T06:25:08Z" changeset="125169960" uid="3497659" user="NKA">
		<tag k="name" v="Rinden" />
		<tag k="place" v="locality" />
		<tag k="ssr:stedsnr" v="253193" />
	</node>
	<node id="9967147055" lat="61.7339384" lon="5.2016191" version="1" timestamp="2022-08-21T06:25:08Z" changeset="125169960" uid="3497659" user="NKA">
		<tag k="name" v="Vikabø" />
		<tag k="place" v="farm" />
		<tag k="ssr:stedsnr" v="960841" />
	</node>
	<node id="9967147056" lat="61.8783032" lon="5.2695009" version="1" timestamp="2022-08-21T06:25:08Z" changeset="125169960" uid="3497659" user="NKA">
		<tag k="historic" v="shieling" />
		<tag k="name" v="Gloføyksætra" />
		<tag k="place" v="isolated_dwelling" />
		<tag k="ssr:stedsnr" v="860215" />
	</node>
	<node id="9967147057" lat="61.8286298" lon="5.3196114" version="1" timestamp="2022-08-21T06:25:08Z" changeset="125169960" uid="3497659" user="NKA">
		<tag k="name" v="Vingen" />
		<tag k="place" v="farm" />
		<tag k="ssr:stedsnr" v="192127" />
	</node>
	<node id="9967147058" lat="61.8383367" lon="4.9381795" version="1" timestamp="2022-08-21T06:25:08Z" changeset="125169960" uid="3497659" user="NKA">
		<tag k="name" v="Iglandsvika" />
		<tag k="place" v="village" />
		<tag k="ssr:stedsnr" v="720785" />
	</node>
	<node id="9967147059" lat="61.871391" lon="5.7217075" version="1" timestamp="2022-08-21T06:25:08Z" changeset="125169960" uid="3497659" user="NKA">
		<tag k="name" v="Skogen" />
		<tag k="place" v="isolated_dwelling" />
		<tag k="ssr:stedsnr" v="585390" />
	</node>
	<node id="9967147060" lat="61.8871139" lon="5.4705004" version="1" timestamp="2022-08-21T06:25:08Z" changeset="125169960" uid="3497659" user="NKA">
		<tag k="name" v="Vasslidmuren" />
		<tag k="place" v="locality" />
		<tag k="ssr:stedsnr" v="555373" />
	</node>
	<node id="9967147061" lat="61.8626777" lon="5.4067005" version="1" timestamp="2022-08-21T06:25:08Z" changeset="125169960" uid="3497659" user="NKA">
		<tag k="name" v="Huldrehaugen" />
		<tag k="place" v="locality" />
		<tag k="ssr:stedsnr" v="556187" />
	</node>
	<node id="9967147062" lat="61.7640266" lon="5.2844016" version="1" timestamp="2022-08-21T06:25:08Z" changeset="125169960" uid="3497659" user="NKA">
		<tag k="name" v="Rise" />
		<tag k="place" v="hamlet" />
		<tag k="ssr:stedsnr" v="192077" />
	</node>
	<node id="9967147063" lat="61.8592706" lon="5.0091796" version="1" timestamp="2022-08-21T06:25:08Z" changeset="125169960" uid="3497659" user="NKA">
		<tag k="name" v="Varpe" />
		<tag k="place" v="hamlet" />
		<tag k="ssr:stedsnr" v="192914" />
	</node>
	<node id="9967147064" lat="61.8378988" lon="5.0086218" version="1" timestamp="2022-08-21T06:25:08Z" changeset="125169960" uid="3497659" user="NKA">
		<tag k="name" v="Førde" />
		<tag k="place" v="hamlet" />
		<tag k="ssr:stedsnr" v="799934" />
	</node>
	<node id="9967147065" lat="61.8635948" lon="5.7300948" version="1" timestamp="2022-08-21T06:25:08Z" changeset="125169960" uid="3497659" user="NKA">
		<tag k="name" v="Englestad" />
		<tag k="place" v="farm" />
		<tag k="ssr:stedsnr" v="556410" />
	</node>
	<node id="9967147066" lat="61.8787897" lon="5.1054767" version="1" timestamp="2022-08-21T06:25:08Z" changeset="125169960" uid="3497659" user="NKA">
		<tag k="alt_name" v="Svoren" />
		<tag k="name" v="Svora" />
		<tag k="place" v="farm" />
		<tag k="ssr:stedsnr" v="555152" />
	</node>
	<node id="9967147067" lat="61.6970944" lon="5.1359784" version="1" timestamp="2022-08-21T06:25:08Z" changeset="125169960" uid="3497659" user="NKA">
		<tag k="historic" v="shieling" />
		<tag k="name" v="Mullistøylane" />
		<tag k="place" v="isolated_dwelling" />
		<tag k="ssr:stedsnr" v="554893" />
	</node>
	<node id="9967147068" lat="61.7660121" lon="5.1228417" version="1" timestamp="2022-08-21T06:25:08Z" changeset="125169960" uid="3497659" user="NKA">
		<tag k="name" v="Nesbø" />
		<tag k="place" v="hamlet" />
		<tag k="ssr:stedsnr" v="131091" />
	</node>
	<node id="9967147069" lat="61.8324334" lon="5.1373672" version="1" timestamp="2022-08-21T06:25:08Z" changeset="125169960" uid="3497659" user="NKA">
		<tag k="name" v="Lisete" />
		<tag k="place" v="farm" />
		<tag k="ssr:stedsnr" v="556153" />
	</node>
	<node id="9967147070" lat="61.8123623" lon="5.0732431" version="1" timestamp="2022-08-21T06:25:08Z" changeset="125169960" uid="3497659" user="NKA">
		<tag k="name" v="Skarstein" />
		<tag k="place" v="hamlet" />
		<tag k="ssr:stedsnr" v="374839" />
	</node>
	<node id="9967147071" lat="61.8335547" lon="4.9981015" version="1" timestamp="2022-08-21T06:25:08Z" changeset="125169960" uid="3497659" user="NKA">
		<tag k="name" v="Naustdal" />
		<tag k="place" v="hamlet" />
		<tag k="ssr:stedsnr" v="556907" />
	</node>
	<node id="9967147072" lat="61.8759806" lon="5.3831339" version="1" timestamp="2022-08-21T06:25:08Z" changeset="125169960" uid="3497659" user="NKA">
		<tag k="historic" v="shieling" />
		<tag k="name" v="Rauddalen" />
		<tag k="place" v="isolated_dwelling" />
		<tag k="ssr:stedsnr" v="799177" />
	</node>
	<node id="9967147073" lat="61.9004973" lon="5.4604782" version="1" timestamp="2022-08-21T06:25:08Z" changeset="125169960" uid="3497659" user="NKA">
		<tag k="historic" v="shieling" />
		<tag k="name" v="Endalsætrane" />
		<tag k="place" v="isolated_dwelling" />
		<tag k="ssr:stedsnr" v="313203" />
	</node>
	<node id="9967147074" lat="61.8767889" lon="5.2997116" version="1" timestamp="2022-08-21T06:25:08Z" changeset="125169960" uid="3497659" user="NKA">
		<tag k="historic" v="shieling" />
		<tag k="name" v="Haukedalssætra" />
		<tag k="place" v="isolated_dwelling" />
		<tag k="ssr:stedsnr" v="738182" />
	</node>
	<node id="9967147075" lat="61.8755972" lon="5.4518394" version="1" timestamp="2022-08-21T06:25:08Z" changeset="125169960" uid="3497659" user="NKA">
		<tag k="name" v="Fessene" />
		<tag k="place" v="locality" />
		<tag k="ssr:stedsnr" v="374188" />
	</node>
	<node id="9967147076" lat="61.8834667" lon="5.3349144" version="1" timestamp="2022-08-21T06:25:08Z" changeset="125169960" uid="3497659" user="NKA">
		<tag k="name" v="Haugland" />
		<tag k="place" v="farm" />
		<tag k="ssr:stedsnr" v="555135" />
	</node>
	<node id="9967147077" lat="61.8744807" lon="5.2507853" version="1" timestamp="2022-08-21T06:25:08Z" changeset="125169960" uid="3497659" user="NKA">
		<tag k="name" v="Gloføyke" />
		<tag k="place" v="farm" />
		<tag k="ssr:stedsnr" v="616163" />
	</node>
	<node id="9967147078" lat="61.88775" lon="5.2795811" version="1" timestamp="2022-08-21T06:25:08Z" changeset="125169960" uid="3497659" user="NKA">
		<tag k="name" v="Plassen" />
		<tag k="place" v="farm" />
		<tag k="ssr:stedsnr" v="475584" />
	</node>
	<node id="9967147079" lat="61.8767306" lon="5.3381173" version="1" timestamp="2022-08-21T06:25:08Z" changeset="125169960" uid="3497659" user="NKA">
		<tag k="name" v="Rabben" />
		<tag k="place" v="farm" />
		<tag k="ssr:stedsnr" v="616159" />
	</node>
	<node id="9967147080" lat="61.8240282" lon="4.9544054" version="1" timestamp="2022-08-21T06:25:08Z" changeset="125169960" uid="3497659" user="NKA">
		<tag k="name" v="Nesodden" />
		<tag k="place" v="farm" />
		<tag k="ssr:stedsnr" v="354028" />
	</node>
	<node id="9967147081" lat="61.8360917" lon="5.6417032" version="1" timestamp="2022-08-21T06:25:08Z" changeset="125169960" uid="3497659" user="NKA">
		<tag k="name" v="Vollen" />
		<tag k="place" v="locality" />
		<tag k="ssr:stedsnr" v="475225" />
	</node>
	<node id="9967147082" lat="61.7528991" lon="5.0826617" version="1" timestamp="2022-08-21T06:25:08Z" changeset="125169960" uid="3497659" user="NKA">
		<tag k="name" v="Hjellen" />
		<tag k="place" v="farm" />
		<tag k="ssr:stedsnr" v="495888" />
	</node>
	<node id="9967147083" lat="61.8303111" lon="5.5800254" version="1" timestamp="2022-08-21T06:25:08Z" changeset="125169960" uid="3497659" user="NKA">
		<tag k="historic" v="shieling" />
		<tag k="name" v="Vikasætra" />
		<tag k="place" v="isolated_dwelling" />
		<tag k="ssr:stedsnr" v="192396" />
	</node>
	<node id="9967147084" lat="61.7965" lon="5.2435728" version="1" timestamp="2022-08-21T06:25:08Z" changeset="125169960" uid="3497659" user="NKA">
		<tag k="historic" v="shieling" />
		<tag k="name" v="Hennøysætra" />
		<tag k="place" v="isolated_dwelling" />
		<tag k="ssr:stedsnr" v="435131" />
	</node>
	<node id="9967147085" lat="61.7779012" lon="4.895248" version="1" timestamp="2022-08-21T06:25:08Z" changeset="125169960" uid="3497659" user="NKA">
		<tag k="name" v="Røys" />
		<tag k="place" v="farm" />
		<tag k="ssr:stedsnr" v="963752" />
	</node>
	<node id="9967147086" lat="61.883851" lon="5.331704" version="1" timestamp="2022-08-21T06:25:08Z" changeset="125169960" uid="3497659" user="NKA">
		<tag k="name" v="Storøyna" />
		<tag k="place" v="farm" />
		<tag k="ssr:stedsnr" v="474632" />
	</node>
	<node id="9967147087" lat="61.9019443" lon="5.5379597" version="1" timestamp="2022-08-21T06:25:08Z" changeset="125169960" uid="3497659" user="NKA">
		<tag k="alt_name" v="Daviknes" />
		<tag k="name" v="Davikneset" />
		<tag k="place" v="hamlet" />
		<tag k="ssr:stedsnr" v="373415" />
	</node>
	<node id="9967147088" lat="61.8856056" lon="5.4254755" version="1" timestamp="2022-08-21T06:25:08Z" changeset="125169960" uid="3497659" user="NKA">
		<tag k="name" v="Fossen" />
		<tag k="place" v="locality" />
		<tag k="ssr:stedsnr" v="435218" />
	</node>
	<node id="9967147089" lat="61.7751258" lon="4.8972467" version="1" timestamp="2022-08-21T06:25:08Z" changeset="125169960" uid="3497659" user="NKA">
		<tag k="name" v="Vollane" />
		<tag k="place" v="farm" />
		<tag k="ssr:stedsnr" v="175753" />
	</node>
	<node id="9967147090" lat="61.8990583" lon="5.5309254" version="1" timestamp="2022-08-21T06:25:08Z" changeset="125169960" uid="3497659" user="NKA">
		<tag k="name" v="Rabben" />
		<tag k="place" v="locality" />
		<tag k="ssr:stedsnr" v="111559" />
	</node>
	<node id="9967147091" lat="61.8929722" lon="5.4395865" version="1" timestamp="2022-08-21T06:25:08Z" changeset="125169960" uid="3497659" user="NKA">
		<tag k="name" v="Skarsliflata" />
		<tag k="place" v="isolated_dwelling" />
		<tag k="ssr:stedsnr" v="111567" />
	</node>
	<node id="9967147092" lat="61.7156583" lon="5.252534" version="1" timestamp="2022-08-21T06:25:08Z" changeset="125169960" uid="3497659" user="NKA">
		<tag k="name" v="Storeteigen" />
		<tag k="place" v="locality" />
		<tag k="ssr:stedsnr" v="433826" />
	</node>
	<node id="9967147093" lat="61.8690206" lon="5.2230215" version="1" timestamp="2022-08-21T06:25:08Z" changeset="125169960" uid="3497659" user="NKA">
		<tag k="name" v="Hornskor" />
		<tag k="place" v="farm" />
		<tag k="ssr:stedsnr" v="860202" />
	</node>
	<node id="9967147094" lat="61.8662333" lon="5.3089613" version="1" timestamp="2022-08-21T06:25:08Z" changeset="125169960" uid="3497659" user="NKA">
		<tag k="name" v="Ytre Kolset" />
		<tag k="place" v="farm" />
		<tag k="ssr:stedsnr" v="660013" />
	</node>
	<node id="9967147095" lat="61.8686361" lon="5.1723894" version="1" timestamp="2022-08-21T06:25:08Z" changeset="125169960" uid="3497659" user="NKA">
		<tag k="historic" v="shieling" />
		<tag k="name" v="Hornskorsætra" />
		<tag k="place" v="isolated_dwelling" />
		<tag k="ssr:stedsnr" v="799182" />
	</node>
	<node id="9967147096" lat="61.8006059" lon="4.9172656" version="1" timestamp="2022-08-21T06:25:08Z" changeset="125169960" uid="3497659" user="NKA">
		<tag k="name" v="Kjerpeset" />
		<tag k="place" v="farm" />
		<tag k="ssr:stedsnr" v="495846" />
	</node>
	<node id="9967147097" lat="61.8503494" lon="5.3471334" version="1" timestamp="2022-08-21T06:25:08Z" changeset="125169960" uid="3497659" user="NKA">
		<tag k="name" v="Mjånes" />
		<tag k="place" v="farm" />
		<tag k="ssr:stedsnr" v="813686" />
	</node>
	<node id="9967147098" lat="61.8321889" lon="5.5750753" version="1" timestamp="2022-08-21T06:25:08Z" changeset="125169960" uid="3497659" user="NKA">
		<tag k="name" v="Vaulen" />
		<tag k="place" v="locality" />
		<tag k="ssr:stedsnr" v="111180" />
	</node>
	<node id="9967147099" lat="61.7824806" lon="5.3361116" version="1" timestamp="2022-08-21T06:25:08Z" changeset="125169960" uid="3497659" user="NKA">
		<tag k="name" v="Amsterdam" />
		<tag k="place" v="locality" />
		<tag k="ssr:stedsnr" v="778972" />
	</node>
	<node id="9967147100" lat="61.8852222" lon="5.3993505" version="1" timestamp="2022-08-21T06:25:08Z" changeset="125169960" uid="3497659" user="NKA">
		<tag k="historic" v="shieling" />
		<tag k="name" v="Kyrhaugen" />
		<tag k="place" v="isolated_dwelling" />
		<tag k="ssr:stedsnr" v="799185" />
	</node>
	<node id="9967147101" lat="61.896784" lon="5.4261065" version="1" timestamp="2022-08-21T06:25:08Z" changeset="125169960" uid="3497659" user="NKA">
		<tag k="alt_name" v="Eldesetra" />
		<tag k="historic" v="shieling" />
		<tag k="name" v="Eldesætra" />
		<tag k="place" v="isolated_dwelling" />
		<tag k="ssr:stedsnr" v="799216" />
	</node>
	<node id="9967147102" lat="61.7835972" lon="5.1460783" version="1" timestamp="2022-08-21T06:25:08Z" changeset="125169960" uid="3497659" user="NKA">
		<tag k="alt_name" v="Nesbøstølen" />
		<tag k="historic" v="shieling" />
		<tag k="name" v="Nesbøstøylen" />
		<tag k="place" v="isolated_dwelling" />
		<tag k="ssr:stedsnr" v="313116" />
	</node>
	<node id="9967147103" lat="61.7619549" lon="5.2281883" version="1" timestamp="2022-08-21T06:25:08Z" changeset="125169960" uid="3497659" user="NKA">
		<tag k="name" v="Eikeland" />
		<tag k="place" v="hamlet" />
		<tag k="ssr:stedsnr" v="192081" />
	</node>
	<node id="9967147104" lat="61.8888022" lon="5.5368742" version="1" timestamp="2022-08-21T06:25:08Z" changeset="125169960" uid="3497659" user="NKA">
		<tag k="name" v="Nybø" />
		<tag k="place" v="farm" />
		<tag k="ssr:stedsnr" v="171609" />
	</node>
	<node id="9967147105" lat="61.8886694" lon="5.2712284" version="1" timestamp="2022-08-21T06:25:08Z" changeset="125169960" uid="3497659" user="NKA">
		<tag k="name" v="Nerdal" />
		<tag k="place" v="locality" />
		<tag k="ssr:stedsnr" v="353586" />
	</node>
	<node id="9967147106" lat="61.8161054" lon="5.0849895" version="1" timestamp="2022-08-21T06:25:08Z" changeset="125169960" uid="3497659" user="NKA">
		<tag k="name" v="Myrvang" />
		<tag k="place" v="farm" />
		<tag k="ssr:stedsnr" v="738936" />
	</node>
	<node id="9967147107" lat="61.8929194" lon="5.5649783" version="1" timestamp="2022-08-21T06:25:08Z" changeset="125169960" uid="3497659" user="NKA">
		<tag k="name" v="Haggarden" />
		<tag k="place" v="locality" />
		<tag k="ssr:stedsnr" v="10401" />
	</node>
	<node id="9967147108" lat="61.7126833" lon="5.0919534" version="1" timestamp="2022-08-21T06:25:08Z" changeset="125169960" uid="3497659" user="NKA">
		<tag k="historic" v="shieling" />
		<tag k="name" v="Sagebøstølen" />
		<tag k="place" v="isolated_dwelling" />
		<tag k="ssr:stedsnr" v="50875" />
	</node>
	<node id="9967147109" lat="61.8946408" lon="5.5275728" version="1" timestamp="2022-08-21T06:25:08Z" changeset="125169960" uid="3497659" user="NKA">
		<tag k="name" v="Bøen" />
		<tag k="place" v="farm" />
		<tag k="ssr:stedsnr" v="10403" />
	</node>
	<node id="9967147110" lat="61.8805097" lon="5.0749972" version="1" timestamp="2022-08-21T06:25:08Z" changeset="125169960" uid="3497659" user="NKA">
		<tag k="name" v="Oldeide" />
		<tag k="place" v="hamlet" />
		<tag k="ssr:stedsnr" v="738989" />
	</node>
	<node id="9967147111" lat="61.813475" lon="5.5869782" version="1" timestamp="2022-08-21T06:25:08Z" changeset="125169960" uid="3497659" user="NKA">
		<tag k="historic" v="shieling" />
		<tag k="name" v="Førdssætra" />
		<tag k="place" v="isolated_dwelling" />
		<tag k="ssr:stedsnr" v="738338" />
	</node>
	<node id="9967147112" lat="61.8854583" lon="5.5010033" version="1" timestamp="2022-08-21T06:25:08Z" changeset="125169960" uid="3497659" user="NKA">
		<tag k="historic" v="shieling" />
		<tag k="name" v="Gadden" />
		<tag k="place" v="isolated_dwelling" />
		<tag k="ssr:stedsnr" v="555369" />
	</node>
	<node id="9967147113" lat="61.8828777" lon="5.4543838" version="1" timestamp="2022-08-21T06:25:08Z" changeset="125169960" uid="3497659" user="NKA">
		<tag k="historic" v="shieling" />
		<tag k="name" v="Skitmunnen" />
		<tag k="place" v="isolated_dwelling" />
		<tag k="ssr:stedsnr" v="252137" />
	</node>
	<node id="9967147114" lat="61.8467017" lon="5.3287715" version="1" timestamp="2022-08-21T06:25:08Z" changeset="125169960" uid="3497659" user="NKA">
		<tag k="name" v="Bortneskår" />
		<tag k="old_name" v="Bortneskora" />
		<tag k="place" v="hamlet" />
		<tag k="ssr:stedsnr" v="720732" />
	</node>
	<node id="9967147115" lat="61.8605465" lon="5.3771613" version="1" timestamp="2022-08-21T06:25:08Z" changeset="125169960" uid="3497659" user="NKA">
		<tag k="name" v="Blålida" />
		<tag k="place" v="hamlet" />
		<tag k="ssr:stedsnr" v="10164" />
	</node>
	<node id="9967147116" lat="61.8899565" lon="5.5199573" version="1" timestamp="2022-08-21T06:25:08Z" changeset="125169960" uid="3497659" user="NKA">
		<tag k="name" v="Åsane" />
		<tag k="place" v="farm" />
		<tag k="ssr:stedsnr" v="677384" />
	</node>
	<node id="9967147117" lat="61.838122" lon="5.6730471" version="1" timestamp="2022-08-21T06:25:08Z" changeset="125169960" uid="3497659" user="NKA">
		<tag k="name" v="Myklebust" />
		<tag k="place" v="farm" />
		<tag k="ssr:stedsnr" v="555257" />
	</node>
	<node id="9967147118" lat="61.7181902" lon="5.0112622" version="1" timestamp="2022-08-21T06:25:08Z" changeset="125169960" uid="3497659" user="NKA">
		<tag k="alt_name" v="Botnane" />
		<tag k="name" v="Øvrebotnen" />
		<tag k="place" v="farm" />
		<tag k="ssr:stedsnr" v="659746" />
	</node>
	<node id="9967147119" lat="61.9048477" lon="5.4327699" version="1" timestamp="2022-08-21T06:25:08Z" changeset="125169960" uid="3497659" user="NKA">
		<tag k="historic" v="shieling" />
		<tag k="name" v="Otrasætra" />
		<tag k="place" v="isolated_dwelling" />
		<tag k="ssr:stedsnr" v="677195" />
	</node>
	<node id="9967147120" lat="61.8792807" lon="5.254807" version="1" timestamp="2022-08-21T06:25:08Z" changeset="125169960" uid="3497659" user="NKA">
		<tag k="historic" v="shieling" />
		<tag k="name" v="Nygårdssætra" />
		<tag k="place" v="isolated_dwelling" />
		<tag k="ssr:stedsnr" v="71215" />
	</node>
	<node id="9967147121" lat="61.875487" lon="5.2330429" version="1" timestamp="2022-08-21T06:25:08Z" changeset="125169960" uid="3497659" user="NKA">
		<tag k="name" v="Nygård" />
		<tag k="place" v="farm" />
		<tag k="ssr:stedsnr" v="616164" />
	</node>
	<node id="9967147122" lat="61.8844111" lon="5.4566449" version="1" timestamp="2022-08-21T06:25:08Z" changeset="125169960" uid="3497659" user="NKA">
		<tag k="historic" v="shieling" />
		<tag k="name" v="Daviknessætra" />
		<tag k="place" v="isolated_dwelling" />
		<tag k="ssr:stedsnr" v="616157" />
	</node>
	<node id="9967147123" lat="61.8840166" lon="5.6887198" version="1" timestamp="2022-08-21T06:25:08Z" changeset="125169960" uid="3497659" user="NKA">
		<tag k="name" v="Stranda" />
		<tag k="place" v="locality" />
		<tag k="ssr:stedsnr" v="900796" />
	</node>
	<node id="9967147124" lat="61.8795417" lon="5.692781" version="1" timestamp="2022-08-21T06:25:08Z" changeset="125169960" uid="3497659" user="NKA">
		<tag k="historic" v="shieling" />
		<tag k="name" v="Langemyra" />
		<tag k="place" v="isolated_dwelling" />
		<tag k="ssr:stedsnr" v="71415" />
	</node>
	<node id="9967147125" lat="61.8784326" lon="5.7147625" version="1" timestamp="2022-08-21T06:25:08Z" changeset="125169960" uid="3497659" user="NKA">
		<tag k="name" v="Ytre Isane" />
		<tag k="place" v="farm" />
		<tag k="ssr:stedsnr" v="171805" />
	</node>
	<node id="9967147126" lat="61.7015555" lon="5.2097227" version="1" timestamp="2022-08-21T06:25:08Z" changeset="125169960" uid="3497659" user="NKA">
		<tag k="historic" v="shieling" />
		<tag k="name" v="Vikastøylane" />
		<tag k="place" v="isolated_dwelling" />
		<tag k="ssr:stedsnr" v="190876" />
	</node>
	<node id="9967147127" lat="61.7391" lon="5.1636339" version="1" timestamp="2022-08-21T06:25:08Z" changeset="125169960" uid="3497659" user="NKA">
		<tag k="name" v="Furnes" />
		<tag k="place" v="farm" />
		<tag k="ssr:stedsnr" v="797842" />
	</node>
	<node id="9967147128" lat="61.8092211" lon="4.9104912" version="1" timestamp="2022-08-21T06:25:08Z" changeset="125169960" uid="3497659" user="NKA">
		<tag k="name" v="Novelandet" />
		<tag k="place" v="hamlet" />
		<tag k="ssr:stedsnr" v="799943" />
	</node>
	<node id="9967147129" lat="61.8817027" lon="5.3174339" version="1" timestamp="2022-08-21T06:25:08Z" changeset="125169960" uid="3497659" user="NKA">
		<tag k="name" v="Vaulen" />
		<tag k="place" v="farm" />
		<tag k="ssr:stedsnr" v="171623" />
	</node>
	<node id="9967147130" lat="61.8821444" lon="5.5222005" version="1" timestamp="2022-08-21T06:25:08Z" changeset="125169960" uid="3497659" user="NKA">
		<tag k="historic" v="shieling" />
		<tag k="name" v="Sætra" />
		<tag k="place" v="isolated_dwelling" />
		<tag k="ssr:stedsnr" v="677403" />
	</node>
	<node id="9967147131" lat="61.8984789" lon="5.5359452" version="1" timestamp="2022-08-21T06:25:08Z" changeset="125169960" uid="3497659" user="NKA">
		<tag k="name" v="Flata" />
		<tag k="place" v="farm" />
		<tag k="ssr:stedsnr" v="50988" />
	</node>
	<node id="9967147132" lat="61.9050725" lon="5.4820532" version="1" timestamp="2022-08-21T06:25:08Z" changeset="125169960" uid="3497659" user="NKA">
		<tag k="name" v="Endal" />
		<tag k="place" v="hamlet" />
		<tag k="ssr:stedsnr" v="555402" />
	</node>
	<node id="9967147133" lat="61.9059808" lon="5.5015787" version="1" timestamp="2022-08-21T06:25:08Z" changeset="125169960" uid="3497659" user="NKA">
		<tag k="name" v="Askeland" />
		<tag k="place" v="hamlet" />
		<tag k="ssr:stedsnr" v="555404" />
	</node>
	<node id="9967147134" lat="61.82639" lon="4.9619459" version="1" timestamp="2022-08-21T06:25:08Z" changeset="125169960" uid="3497659" user="NKA">
		<tag k="alt_name" v="Løvik" />
		<tag k="name" v="Løvika" />
		<tag k="place" v="farm" />
		<tag k="ssr:stedsnr" v="973814" />
	</node>
	<node id="9967147135" lat="61.87375" lon="5.3637367" version="1" timestamp="2022-08-21T06:25:08Z" changeset="125169960" uid="3497659" user="NKA">
		<tag k="name" v="Plassen" />
		<tag k="place" v="locality" />
		<tag k="ssr:stedsnr" v="474455" />
	</node>
	<node id="9967147136" lat="61.8642216" lon="5.3063861" version="1" timestamp="2022-08-21T06:25:08Z" changeset="125169960" uid="3497659" user="NKA">
		<tag k="name" v="Liljedal" />
		<tag k="place" v="farm" />
		<tag k="ssr:stedsnr" v="799170" />
	</node>
	<node id="9967147137" lat="61.7280885" lon="5.1468185" version="1" timestamp="2022-08-21T06:25:08Z" changeset="125169960" uid="3497659" user="NKA">
		<tag k="alt_name" v="Mullia, l;Mullia;Litle Muleli" />
		<tag k="name" v="Litle Mullia" />
		<tag k="place" v="farm" />
		<tag k="ssr:stedsnr" v="797837" />
	</node>
	<node id="9967147138" lat="61.8399389" lon="5.7504364" version="1" timestamp="2022-08-21T06:25:08Z" changeset="125169960" uid="3497659" user="NKA">
		<tag k="name" v="Gaupetegane" />
		<tag k="place" v="locality" />
		<tag k="ssr:stedsnr" v="960733" />
	</node>
	<node id="9967147139" lat="61.8625583" lon="5.7081393" version="1" timestamp="2022-08-21T06:25:08Z" changeset="125169960" uid="3497659" user="NKA">
		<tag k="historic" v="shieling" />
		<tag k="name" v="Gamlesætra" />
		<tag k="place" v="isolated_dwelling" />
		<tag k="ssr:stedsnr" v="253403" />
	</node>
	<node id="9967147140" lat="61.8318531" lon="4.9927679" version="1" timestamp="2022-08-21T06:25:08Z" changeset="125169960" uid="3497659" user="NKA">
		<tag k="alt_name" v="Fossen" />
		<tag k="name" v="Fossane" />
		<tag k="place" v="farm" />
		<tag k="ssr:stedsnr" v="738924" />
	</node>
	<node id="9967147141" lat="61.7636139" lon="5.1035951" version="1" timestamp="2022-08-21T06:25:08Z" changeset="125169960" uid="3497659" user="NKA">
		<tag k="name" v="Hatledal" />
		<tag k="place" v="locality" />
		<tag k="ssr:stedsnr" v="71083" />
	</node>
	<node id="9967147142" lat="61.8675777" lon="5.3783199" version="1" timestamp="2022-08-21T06:25:08Z" changeset="125169960" uid="3497659" user="NKA">
		<tag k="name" v="Raudehaugen" />
		<tag k="place" v="locality" />
		<tag k="ssr:stedsnr" v="920155" />
	</node>
	<node id="9967147143" lat="61.7161673" lon="5.1655262" version="1" timestamp="2022-08-21T06:25:08Z" changeset="125169960" uid="3497659" user="NKA">
		<tag k="alt_name" v="Vindspoll" />
		<tag k="name" v="Vindspollen" />
		<tag k="place" v="hamlet" />
		<tag k="ssr:stedsnr" v="737821" />
	</node>
	<node id="9967147144" lat="61.8738972" lon="5.3198393" version="1" timestamp="2022-08-21T06:25:08Z" changeset="125169960" uid="3497659" user="NKA">
		<tag k="name" v="Nybøen" />
		<tag k="place" v="farm" />
		<tag k="ssr:stedsnr" v="495184" />
	</node>
	<node id="9967147145" lat="61.8896472" lon="5.3963365" version="1" timestamp="2022-08-21T06:25:08Z" changeset="125169960" uid="3497659" user="NKA">
		<tag k="historic" v="shieling" />
		<tag k="name" v="Bakkenosa" />
		<tag k="place" v="isolated_dwelling" />
		<tag k="ssr:stedsnr" v="616169" />
	</node>
	<node id="9967147146" lat="61.7367972" lon="5.0647563" version="1" timestamp="2022-08-21T06:25:08Z" changeset="125169960" uid="3497659" user="NKA">
		<tag k="name" v="Vollane" />
		<tag k="place" v="locality" />
		<tag k="ssr:stedsnr" v="69500" />
	</node>
	<node id="9967147147" lat="61.7855437" lon="4.8885766" version="1" timestamp="2022-08-21T06:25:08Z" changeset="125169960" uid="3497659" user="NKA">
		<tag k="name" v="Stranda" />
		<tag k="place" v="farm" />
		<tag k="ssr:stedsnr" v="920849" />
	</node>
	<node id="9967147148" lat="61.8387156" lon="4.9501474" version="1" timestamp="2022-08-21T06:25:08Z" changeset="125169960" uid="3497659" user="NKA">
		<tag k="name" v="Torvanger" />
		<tag k="place" v="hamlet" />
		<tag k="ssr:stedsnr" v="616933" />
	</node>
	<node id="9967147149" lat="61.8614366" lon="5.3214792" version="1" timestamp="2022-08-21T06:25:08Z" changeset="125169960" uid="3497659" user="NKA">
		<tag k="name" v="Midtbø" />
		<tag k="place" v="farm" />
		<tag k="ssr:stedsnr" v="50425" />
	</node>
	<node id="9967147150" lat="61.8000447" lon="4.8653839" version="1" timestamp="2022-08-21T06:25:08Z" changeset="125169960" uid="3497659" user="NKA">
		<tag k="name" v="Ånnevika" />
		<tag k="place" v="hamlet" />
		<tag k="ssr:stedsnr" v="860943" />
	</node>
	<node id="9967147151" lat="61.831675" lon="5.6668777" version="1" timestamp="2022-08-21T06:25:08Z" changeset="125169960" uid="3497659" user="NKA">
		<tag k="name" v="Sigdestad" />
		<tag k="place" v="hamlet" />
		<tag k="ssr:stedsnr" v="434328" />
	</node>
	<node id="9967147152" lat="61.7213373" lon="4.9775042" version="1" timestamp="2022-08-21T06:25:08Z" changeset="125169960" uid="3497659" user="NKA">
		<tag k="alt_name" v="Botnane" />
		<tag k="name" v="Sørbotnen" />
		<tag k="place" v="hamlet" />
		<tag k="ssr:stedsnr" v="842957" />
	</node>
	<node id="9967147153" lat="61.83555" lon="5.1541717" version="1" timestamp="2022-08-21T06:25:08Z" changeset="125169960" uid="3497659" user="NKA">
		<tag k="name" v="Hestevik" />
		<tag k="place" v="hamlet" />
		<tag k="ssr:stedsnr" v="313160" />
	</node>
	<node id="9967147154" lat="61.7636695" lon="5.1064895" version="1" timestamp="2022-08-21T06:25:08Z" changeset="125169960" uid="3497659" user="NKA">
		<tag k="name" v="Løypedal" />
		<tag k="place" v="farm" />
		<tag k="ssr:stedsnr" v="253087" />
	</node>
	<node id="9967147155" lat="61.7248945" lon="5.1042839" version="1" timestamp="2022-08-21T06:25:08Z" changeset="125169960" uid="3497659" user="NKA">
		<tag k="name" v="Skjervane" />
		<tag k="place" v="isolated_dwelling" />
		<tag k="ssr:stedsnr" v="372846" />
	</node>
	<node id="9967147156" lat="61.89025" lon="5.4405615" version="1" timestamp="2022-08-21T06:25:08Z" changeset="125169960" uid="3497659" user="NKA">
		<tag k="alt_name" v="Dalesetra" />
		<tag k="historic" v="shieling" />
		<tag k="name" v="Dalesætrane" />
		<tag k="place" v="isolated_dwelling" />
		<tag k="ssr:stedsnr" v="131185" />
	</node>
	<node id="9967147157" lat="61.7565264" lon="5.0601501" version="1" timestamp="2022-08-21T06:25:08Z" changeset="125169960" uid="3497659" user="NKA">
		<tag k="alt_name" v="Gulestø" />
		<tag k="name" v="Gulestøa" />
		<tag k="place" v="hamlet" />
		<tag k="ssr:stedsnr" v="252840" />
	</node>
	<node id="9967147158" lat="61.8484278" lon="5.1477923" version="1" timestamp="2022-08-21T06:25:08Z" changeset="125169960" uid="3497659" user="NKA">
		<tag k="name" v="Kleiva" />
		<tag k="place" v="locality" />
		<tag k="ssr:stedsnr" v="313172" />
	</node>
	<node id="9967147159" lat="61.8683379" lon="5.3112034" version="1" timestamp="2022-08-21T06:25:08Z" changeset="125169960" uid="3497659" user="NKA">
		<tag k="name" v="Kolset" />
		<tag k="place" v="hamlet" />
		<tag k="ssr:stedsnr" v="435205" />
	</node>
	<node id="9967147160" lat="61.7200099" lon="5.1052448" version="1" timestamp="2022-08-21T06:25:08Z" changeset="125169960" uid="3497659" user="NKA">
		<tag k="name" v="Sagebø" />
		<tag k="place" v="hamlet" />
		<tag k="ssr:stedsnr" v="251860" />
	</node>
	<node id="9967147161" lat="61.8088698" lon="4.8473991" version="1" timestamp="2022-08-21T06:25:08Z" changeset="125169960" uid="3497659" user="NKA">
		<tag k="name" v="Nesje" />
		<tag k="place" v="hamlet" />
		<tag k="ssr:stedsnr" v="571947" />
	</node>
	<node id="9967147162" lat="61.8751666" lon="5.1476854" version="1" timestamp="2022-08-21T06:25:08Z" changeset="125169960" uid="3497659" user="NKA">
		<tag k="name" v="Lågeidet" />
		<tag k="place" v="farm" />
		<tag k="ssr:stedsnr" v="131178" />
	</node>
	<node id="9967147163" lat="61.8888824" lon="5.627222" version="1" timestamp="2022-08-21T06:25:08Z" changeset="125169960" uid="3497659" user="NKA">
		<tag k="historic" v="shieling" />
		<tag k="name" v="Sætra" />
		<tag k="place" v="isolated_dwelling" />
		<tag k="ssr:stedsnr" v="535807" />
	</node>
	<node id="9967147164" lat="61.8318161" lon="5.1122498" version="1" timestamp="2022-08-21T06:25:08Z" changeset="125169960" uid="3497659" user="NKA">
		<tag k="alt_name" v="Berle-Ødegård" />
		<tag k="name" v="Ødegård" />
		<tag k="place" v="farm" />
		<tag k="ssr:stedsnr" v="242268" />
	</node>
	<node id="9967147165" lat="61.8084896" lon="4.8487513" version="1" timestamp="2022-08-21T06:25:08Z" changeset="125169960" uid="3497659" user="NKA">
		<tag k="name" v="Sørestø" />
		<tag k="place" v="isolated_dwelling" />
		<tag k="ssr:stedsnr" v="171060" />
	</node>
	<node id="9967147166" lat="61.7601176" lon="5.133656" version="1" timestamp="2022-08-21T06:25:08Z" changeset="125169960" uid="3497659" user="NKA">
		<tag k="name" v="Roland" />
		<tag k="place" v="farm" />
		<tag k="ssr:stedsnr" v="131068" />
	</node>
	<node id="9967147167" lat="61.8401802" lon="5.1313046" version="1" timestamp="2022-08-21T06:25:08Z" changeset="125169960" uid="3497659" user="NKA">
		<tag k="name" v="Lisete" />
		<tag k="place" v="farm" />
		<tag k="ssr:stedsnr" v="131140" />
	</node>
	<node id="9967147168" lat="61.8834833" lon="4.9644118" version="1" timestamp="2022-08-21T06:25:08Z" changeset="125169960" uid="3497659" user="NKA">
		<tag k="historic" v="shieling" />
		<tag k="name" v="Hellerane" />
		<tag k="place" v="isolated_dwelling" />
		<tag k="ssr:stedsnr" v="566003" />
	</node>
	<node id="9967147169" lat="61.8578889" lon="5.1470894" version="1" timestamp="2022-08-21T06:25:08Z" changeset="125169960" uid="3497659" user="NKA">
		<tag k="name" v="Lisetfjøsane" />
		<tag k="place" v="locality" />
		<tag k="ssr:stedsnr" v="50583" />
	</node>
	<node id="9967147170" lat="61.7728277" lon="4.8905796" version="1" timestamp="2022-08-21T06:25:08Z" changeset="125169960" uid="3497659" user="NKA">
		<tag k="alt_name" v="Frøyen nedre;Negarden" />
		<tag k="name" v="Nedre Frøyen" />
		<tag k="place" v="farm" />
		<tag k="ssr:stedsnr" v="414378" />
	</node>
	<node id="9967147171" lat="61.7702134" lon="4.8838501" version="1" timestamp="2022-08-21T06:25:08Z" changeset="125169960" uid="3497659" user="NKA">
		<tag k="alt_name" v="Frøyen ytre;Utigarden" />
		<tag k="name" v="Ytre Frøyen" />
		<tag k="place" v="farm" />
		<tag k="ssr:stedsnr" v="50377" />
	</node>
	<node id="9967147172" lat="61.8301778" lon="5.1263005" version="1" timestamp="2022-08-21T06:25:08Z" changeset="125169960" uid="3497659" user="NKA">
		<tag k="name" v="Hauge" />
		<tag k="place" v="farm" />
		<tag k="ssr:stedsnr" v="799144" />
	</node>
	<node id="9967147173" lat="61.8258095" lon="5.1115802" version="1" timestamp="2022-08-21T06:25:08Z" changeset="125169960" uid="3497659" user="NKA">
		<tag k="name" v="Ytre Hauge" />
		<tag k="place" v="farm" />
		<tag k="ssr:stedsnr" v="418435" />
	</node>
	<node id="9967147174" lat="61.8565233" lon="4.993966" version="1" timestamp="2022-08-21T06:25:08Z" changeset="125169960" uid="3497659" user="NKA">
		<tag k="name" v="Svarstad" />
		<tag k="place" v="hamlet" />
		<tag k="ssr:stedsnr" v="495914" />
	</node>
	<node id="9967147175" lat="61.8423806" lon="5.0577456" version="1" timestamp="2022-08-21T06:25:08Z" changeset="125169960" uid="3497659" user="NKA">
		<tag k="historic" v="shieling" />
		<tag k="name" v="Hesjedalen" />
		<tag k="place" v="isolated_dwelling" />
		<tag k="ssr:stedsnr" v="506010" />
	</node>
	<node id="9967147176" lat="61.6911139" lon="5.1505062" version="1" timestamp="2022-08-21T06:25:08Z" changeset="125169960" uid="3497659" user="NKA">
		<tag k="historic" v="shieling" />
		<tag k="name" v="Pollastøylane" />
		<tag k="place" v="isolated_dwelling" />
		<tag k="ssr:stedsnr" v="858875" />
	</node>
	<node id="9967147177" lat="61.7475224" lon="5.0944932" version="1" timestamp="2022-08-21T06:25:08Z" changeset="125169960" uid="3497659" user="NKA">
		<tag k="name" v="Allmenningen" />
		<tag k="place" v="farm" />
		<tag k="ssr:stedsnr" v="736804" />
	</node>
	<node id="9967147178" lat="61.7235992" lon="5.1495901" version="1" timestamp="2022-08-21T06:25:08Z" changeset="125169960" uid="3497659" user="NKA">
		<tag k="name" v="Store Mullia" />
		<tag k="place" v="farm" />
		<tag k="ssr:stedsnr" v="312802" />
	</node>
	<node id="9967147179" lat="61.8585089" lon="5.0340344" version="1" timestamp="2022-08-21T06:25:08Z" changeset="125169960" uid="3497659" user="NKA">
		<tag k="name" v="Klungreset" />
		<tag k="place" v="farm" />
		<tag k="ssr:stedsnr" v="535290" />
	</node>
	<node id="9967147180" lat="61.841147" lon="4.9031096" version="1" timestamp="2022-08-21T06:25:08Z" changeset="125169960" uid="3497659" user="NKA">
		<tag k="alt_name" v="Grotle, yt;Grotle" />
		<tag k="name" v="Ytre Grotle" />
		<tag k="place" v="farm" />
		<tag k="ssr:stedsnr" v="859899" />
	</node>
	<node id="9967147181" lat="61.8926939" lon="5.5184976" version="1" timestamp="2022-08-21T06:25:08Z" changeset="125169960" uid="3497659" user="NKA">
		<tag k="name" v="Hausle" />
		<tag k="place" v="hamlet" />
		<tag k="ssr:stedsnr" v="616398" />
	</node>
	<node id="9967147182" lat="61.8399417" lon="5.7600421" version="1" timestamp="2022-08-21T06:25:08Z" changeset="125169960" uid="3497659" user="NKA">
		<tag k="name" v="Askevikteigen" />
		<tag k="place" v="locality" />
		<tag k="ssr:stedsnr" v="353762" />
	</node>
	<node id="9967147183" lat="61.8814842" lon="4.9204491" version="1" timestamp="2022-08-21T06:25:08Z" changeset="125169960" uid="3497659" user="NKA">
		<tag k="name" v="Vetvik" />
		<tag k="place" v="farm" />
		<tag k="ssr:stedsnr" v="475110" />
	</node>
	<node id="9967147184" lat="61.8253752" lon="4.9556205" version="1" timestamp="2022-08-21T06:25:08Z" changeset="125169960" uid="3497659" user="NKA">
		<tag k="name" v="Løviknes" />
		<tag k="place" v="farm" />
		<tag k="ssr:stedsnr" v="840368" />
	</node>
	<node id="9967147185" lat="61.8161581" lon="5.6367058" version="1" timestamp="2022-08-21T06:25:08Z" changeset="125169960" uid="3497659" user="NKA">
		<tag k="name" v="Førde" />
		<tag k="place" v="hamlet" />
		<tag k="ssr:stedsnr" v="839135" />
	</node>
	<node id="9967147186" lat="61.7374197" lon="5.1951096" version="1" timestamp="2022-08-21T06:25:08Z" changeset="125169960" uid="3497659" user="NKA">
		<tag k="name" v="Ytrehus" />
		<tag k="place" v="hamlet" />
		<tag k="ssr:stedsnr" v="919827" />
	</node>
	<node id="9967147187" lat="61.8896484" lon="4.9271076" version="1" timestamp="2022-08-21T06:25:08Z" changeset="125169960" uid="3497659" user="NKA">
		<tag k="name" v="Solheim" />
		<tag k="place" v="farm" />
		<tag k="ssr:stedsnr" v="374999" />
	</node>
	<node id="9967147188" lat="61.71955" lon="5.1636061" version="1" timestamp="2022-08-21T06:25:08Z" changeset="125169960" uid="3497659" user="NKA">
		<tag k="name" v="Fredheim" />
		<tag k="place" v="farm" />
		<tag k="ssr:stedsnr" v="596909" />
	</node>
	<node id="9967147189" lat="61.7797639" lon="5.1803756" version="1" timestamp="2022-08-21T06:25:08Z" changeset="125169960" uid="3497659" user="NKA">
		<tag k="alt_name" v="Dyrstadstølen" />
		<tag k="historic" v="shieling" />
		<tag k="name" v="Dyrstadstøylen" />
		<tag k="place" v="isolated_dwelling" />
		<tag k="ssr:stedsnr" v="738097" />
	</node>
	<node id="9967147190" lat="61.8121098" lon="5.2304948" version="1" timestamp="2022-08-21T06:25:08Z" changeset="125169960" uid="3497659" user="NKA">
		<tag k="name" v="Hennøyna" />
		<tag k="place" v="hamlet" />
		<tag k="ssr:stedsnr" v="71092" />
	</node>
	<node id="9967147191" lat="61.8438639" lon="5.6830671" version="1" timestamp="2022-08-21T06:25:08Z" changeset="125169960" uid="3497659" user="NKA">
		<tag k="name" v="Einehaugen" />
		<tag k="place" v="locality" />
		<tag k="ssr:stedsnr" v="839240" />
	</node>
	<node id="9967147192" lat="61.79399" lon="4.9564695" version="1" timestamp="2022-08-21T06:25:08Z" changeset="125169960" uid="3497659" user="NKA">
		<tag k="name" v="Bukta" />
		<tag k="place" v="farm" />
		<tag k="ssr:stedsnr" v="435852" />
	</node>
	<node id="9967147193" lat="61.7733514" lon="5.1728907" version="1" timestamp="2022-08-21T06:25:08Z" changeset="125169960" uid="3497659" user="NKA">
		<tag k="name" v="Dyrstad" />
		<tag k="place" v="hamlet" />
		<tag k="ssr:stedsnr" v="71086" />
	</node>
	<node id="9967147194" lat="61.7070117" lon="5.1152004" version="1" timestamp="2022-08-21T06:25:08Z" changeset="125169960" uid="3497659" user="NKA">
		<tag k="name" v="Sørgulen" />
		<tag k="place" v="hamlet" />
		<tag k="ssr:stedsnr" v="919858" />
	</node>
	<node id="9967147195" lat="61.8247139" lon="5.6353838" version="1" timestamp="2022-08-21T06:25:08Z" changeset="125169960" uid="3497659" user="NKA">
		<tag k="name" v="Litledalen" />
		<tag k="place" v="locality" />
		<tag k="ssr:stedsnr" v="414135" />
	</node>
	<node id="9967147196" lat="61.8440856" lon="5.7848574" version="1" timestamp="2022-08-21T06:25:08Z" changeset="125169960" uid="3497659" user="NKA">
		<tag k="loc_name" v="Lunden" />
		<tag k="name" v="Gjegnalunden" />
		<tag k="place" v="hamlet" />
		<tag k="ssr:stedsnr" v="495371" />
	</node>
	<node id="9967147197" lat="61.8387965" lon="4.9045653" version="1" timestamp="2022-08-21T06:25:08Z" changeset="125169960" uid="3497659" user="NKA">
		<tag k="name" v="Grotle" />
		<tag k="place" v="hamlet" />
		<tag k="ssr:stedsnr" v="121111" />
	</node>
	<node id="9967147198" lat="61.7725833" lon="5.1830061" version="1" timestamp="2022-08-21T06:25:08Z" changeset="125169960" uid="3497659" user="NKA">
		<tag k="name" v="Sagetun" />
		<tag k="place" v="farm" />
		<tag k="ssr:stedsnr" v="192097" />
	</node>
	<node id="9967147199" lat="61.7391217" lon="5.1761801" version="1" timestamp="2022-08-21T06:25:08Z" changeset="125169960" uid="3497659" user="NKA">
		<tag k="name" v="Sandvik" />
		<tag k="place" v="farm" />
		<tag k="ssr:stedsnr" v="190863" />
	</node>
	<node id="9967147200" lat="61.7572264" lon="5.1969367" version="1" timestamp="2022-08-21T06:25:08Z" changeset="125169960" uid="3497659" user="NKA">
		<tag k="name" v="Byrkjelia" />
		<tag k="place" v="hamlet" />
		<tag k="ssr:stedsnr" v="131070" />
	</node>
	<node id="9967147201" lat="61.8228806" lon="5.1094339" version="1" timestamp="2022-08-21T06:25:08Z" changeset="125169960" uid="3497659" user="NKA">
		<tag k="name" v="Steinset" />
		<tag k="place" v="farm" />
		<tag k="ssr:stedsnr" v="313126" />
	</node>
	<node id="9967147202" lat="61.8871621" lon="5.3474421" version="1" timestamp="2022-08-21T06:25:08Z" changeset="125169960" uid="3497659" user="NKA">
		<tag k="name" v="Hessevågen" />
		<tag k="place" v="farm" />
		<tag k="ssr:stedsnr" v="435222" />
	</node>
	<node id="9967147203" lat="61.8340333" lon="5.5927948" version="1" timestamp="2022-08-21T06:25:08Z" changeset="125169960" uid="3497659" user="NKA">
		<tag k="name" v="Vassbakken" />
		<tag k="place" v="locality" />
		<tag k="ssr:stedsnr" v="111179" />
	</node>
	<node id="9967147204" lat="61.8381027" lon="4.959257" version="1" timestamp="2022-08-21T06:25:08Z" changeset="125169960" uid="3497659" user="NKA">
		<tag k="name" v="Holmen" />
		<tag k="place" v="farm" />
		<tag k="ssr:stedsnr" v="973812" />
	</node>
	<node id="9967147205" lat="61.9064571" lon="5.3873594" version="1" timestamp="2022-08-21T06:25:08Z" changeset="125169960" uid="3497659" user="NKA">
		<tag k="name" v="Elde" />
		<tag k="place" v="hamlet" />
		<tag k="ssr:stedsnr" v="435249" />
	</node>
	<node id="9967147206" lat="61.8466967" lon="5.7209764" version="1" timestamp="2022-08-21T06:25:08Z" changeset="125169960" uid="3497659" user="NKA">
		<tag k="name" v="Vik" />
		<tag k="place" v="hamlet" />
		<tag k="ssr:stedsnr" v="434319" />
	</node>
	<node id="9967147207" lat="61.8399703" lon="4.9780431" version="1" timestamp="2022-08-21T06:25:08Z" changeset="125169960" uid="3497659" user="NKA">
		<tag k="alt_name" v="Hauge, in" />
		<tag k="name" v="Indre Hauge" />
		<tag k="place" v="hamlet" />
		<tag k="ssr:stedsnr" v="374921" />
	</node>
	<node id="9967147208" lat="61.7772223" lon="5.1641366" version="1" timestamp="2022-08-21T06:25:08Z" changeset="125169960" uid="3497659" user="NKA">
		<tag k="alt_name" v="Dyrstadsetra" />
		<tag k="historic" v="shieling" />
		<tag k="name" v="Dyrstadsætra" />
		<tag k="place" v="isolated_dwelling" />
		<tag k="ssr:stedsnr" v="435112" />
	</node>
	<node id="9967147209" lat="61.7416861" lon="5.263395" version="1" timestamp="2022-08-21T06:25:08Z" changeset="125169960" uid="3497659" user="NKA">
		<tag k="name" v="Ingebrekthola" />
		<tag k="place" v="isolated_dwelling" />
		<tag k="ssr:stedsnr" v="554866" />
	</node>
	<node id="9967147210" lat="61.8378801" lon="4.9886576" version="1" timestamp="2022-08-21T06:25:08Z" changeset="125169960" uid="3497659" user="NKA">
		<tag k="name" v="Struen" />
		<tag k="place" v="farm" />
		<tag k="ssr:stedsnr" v="113757" />
	</node>
	<node id="9967147211" lat="61.7580055" lon="5.0496923" version="1" timestamp="2022-08-21T06:25:08Z" changeset="125169960" uid="3497659" user="NKA">
		<tag k="name" v="Stovedalen" />
		<tag k="place" v="locality" />
		<tag k="ssr:stedsnr" v="900920" />
	</node>
	<node id="9967147212" lat="61.8523417" lon="5.3748755" version="1" timestamp="2022-08-21T06:25:08Z" changeset="125169960" uid="3497659" user="NKA">
		<tag k="historic" v="shieling" />
		<tag k="name" v="Mjånesstølen" />
		<tag k="place" v="isolated_dwelling" />
		<tag k="ssr:stedsnr" v="717383" />
	</node>
	<node id="9967147213" lat="61.8391541" lon="4.9397283" version="1" timestamp="2022-08-21T06:25:08Z" changeset="125169960" uid="3497659" user="NKA">
		<tag k="name" v="Igland" />
		<tag k="place" v="farm" />
		<tag k="ssr:stedsnr" v="738920" />
	</node>
	<node id="9967147214" lat="61.8688587" lon="5.3115507" version="1" timestamp="2022-08-21T06:25:08Z" changeset="125169960" uid="3497659" user="NKA">
		<tag k="name" v="Indre Kolset" />
		<tag k="place" v="farm" />
		<tag k="ssr:stedsnr" v="660016" />
	</node>
	<node id="9967147215" lat="61.8495028" lon="5.1814422" version="1" timestamp="2022-08-21T06:25:08Z" changeset="125169960" uid="3497659" user="NKA">
		<tag k="name" v="Hesteviksætra" />
		<tag k="place" v="locality" />
		<tag k="ssr:stedsnr" v="495174" />
	</node>
	<node id="9967147216" lat="61.7332444" lon="5.0176618" version="1" timestamp="2022-08-21T06:25:08Z" changeset="125169960" uid="3497659" user="NKA">
		<tag k="historic" v="shieling" />
		<tag k="name" v="Huldrastøylen" />
		<tag k="place" v="isolated_dwelling" />
		<tag k="ssr:stedsnr" v="433463" />
	</node>
	<node id="9967147217" lat="61.7230922" lon="5.1526557" version="1" timestamp="2022-08-21T06:25:08Z" changeset="125169960" uid="3497659" user="NKA">
		<tag k="name" v="Mullia" />
		<tag k="place" v="hamlet" />
		<tag k="ssr:stedsnr" v="973821" />
	</node>
	<node id="9967147218" lat="61.8878737" lon="5.284111" version="1" timestamp="2022-08-21T06:25:08Z" changeset="125169960" uid="3497659" user="NKA">
		<tag k="name" v="Syrhelleren" />
		<tag k="place" v="farm" />
		<tag k="ssr:stedsnr" v="677187" />
	</node>
	<node id="9967147219" lat="61.8280194" lon="5.1120138" version="1" timestamp="2022-08-21T06:25:08Z" changeset="125169960" uid="3497659" user="NKA">
		<tag k="name" v="Litle Hauge" />
		<tag k="place" v="farm" />
		<tag k="ssr:stedsnr" v="556155" />
	</node>
	<node id="9967147220" lat="61.7181945" lon="5.0041813" version="1" timestamp="2022-08-21T06:25:08Z" changeset="125169960" uid="3497659" user="NKA">
		<tag k="name" v="Skjerven" />
		<tag k="place" v="locality" />
		<tag k="ssr:stedsnr" v="110950" />
	</node>
	<node id="9967147221" lat="61.8721908" lon="5.2710449" version="1" timestamp="2022-08-21T06:25:08Z" changeset="125169960" uid="3497659" user="NKA">
		<tag k="name" v="Haukedalen" />
		<tag k="place" v="farm" />
		<tag k="ssr:stedsnr" v="555128" />
	</node>
	<node id="9967147222" lat="61.72455" lon="5.2589449" version="1" timestamp="2022-08-21T06:25:08Z" changeset="125169960" uid="3497659" user="NKA">
		<tag k="historic" v="shieling" />
		<tag k="name" v="Indrehussetra" />
		<tag k="place" v="isolated_dwelling" />
		<tag k="ssr:stedsnr" v="171932" />
	</node>
	<node id="9967147223" lat="61.6897528" lon="5.1072063" version="1" timestamp="2022-08-21T06:25:08Z" changeset="125169960" uid="3497659" user="NKA">
		<tag k="historic" v="shieling" />
		<tag k="name" v="Sørgulestøylen" />
		<tag k="place" v="isolated_dwelling" />
		<tag k="ssr:stedsnr" v="130847" />
	</node>
	<node id="9967147224" lat="61.8435889" lon="4.9943165" version="1" timestamp="2022-08-21T06:25:08Z" changeset="125169960" uid="3497659" user="NKA">
		<tag k="name" v="Senneset" />
		<tag k="place" v="farm" />
		<tag k="ssr:stedsnr" v="738930" />
	</node>
	<node id="9967147225" lat="61.8583847" lon="5.3041891" version="1" timestamp="2022-08-21T06:25:08Z" changeset="125169960" uid="3497659" user="NKA">
		<tag k="name" v="Verpe" />
		<tag k="place" v="farm" />
		<tag k="ssr:stedsnr" v="535588" />
	</node>
	<node id="9967147226" lat="61.7146611" lon="5.2391144" version="1" timestamp="2022-08-21T06:25:08Z" changeset="125169960" uid="3497659" user="NKA">
		<tag k="name" v="Litleteigen" />
		<tag k="place" v="locality" />
		<tag k="ssr:stedsnr" v="69846" />
	</node>
	<node id="9967147227" lat="61.8207677" lon="4.9652377" version="1" timestamp="2022-08-21T06:25:08Z" changeset="125169960" uid="3497659" user="NKA">
		<tag k="name" v="Eikeset" />
		<tag k="place" v="hamlet" />
		<tag k="ssr:stedsnr" v="677946" />
	</node>
	<node id="9967147228" lat="61.7539203" lon="5.247421" version="1" timestamp="2022-08-21T06:25:08Z" changeset="125169960" uid="3497659" user="NKA">
		<tag k="historic" v="shieling" />
		<tag k="name" v="Eikelandssætra" />
		<tag k="place" v="isolated_dwelling" />
		<tag k="ssr:stedsnr" v="860080" />
	</node>
	<node id="9967147229" lat="61.8186739" lon="5.0915417" version="1" timestamp="2022-08-21T06:25:08Z" changeset="125169960" uid="3497659" user="NKA">
		<tag k="name" v="Heimly" />
		<tag k="place" v="farm" />
		<tag k="ssr:stedsnr" v="599436" />
	</node>
	<node id="9967147230" lat="61.8934111" lon="5.5299476" version="1" timestamp="2022-08-21T06:25:08Z" changeset="125169960" uid="3497659" user="NKA">
		<tag k="name" v="Ytre Davik" />
		<tag k="place" v="farm" />
		<tag k="ssr:stedsnr" v="596528" />
	</node>
	<node id="9967147231" lat="61.8007222" lon="5.2924116" version="1" timestamp="2022-08-21T06:25:08Z" changeset="125169960" uid="3497659" user="NKA">
		<tag k="name" v="Vingedalssætra" />
		<tag k="place" v="locality" />
		<tag k="ssr:stedsnr" v="131110" />
	</node>
	<node id="9967147232" lat="61.8776339" lon="5.7182146" version="1" timestamp="2022-08-21T06:25:08Z" changeset="125169960" uid="3497659" user="NKA">
		<tag k="name" v="Kolmila" />
		<tag k="place" v="locality" />
		<tag k="ssr:stedsnr" v="900792" />
	</node>
	<node id="9967147233" lat="61.7215295" lon="5.1869125" version="1" timestamp="2022-08-21T06:25:08Z" changeset="125169960" uid="3497659" user="NKA">
		<tag k="name" v="Myklebust" />
		<tag k="place" v="hamlet" />
		<tag k="ssr:stedsnr" v="797834" />
	</node>
	<node id="9967147234" lat="61.6803528" lon="5.0977979" version="1" timestamp="2022-08-21T06:25:08Z" changeset="125169960" uid="3497659" user="NKA">
		<tag k="name" v="Langhamrane" />
		<tag k="place" v="locality" />
		<tag k="ssr:stedsnr" v="858873" />
	</node>
	<node id="9967147235" lat="61.7036305" lon="5.1087312" version="1" timestamp="2022-08-21T06:25:08Z" changeset="125169960" uid="3497659" user="NKA">
		<tag k="name" v="Miskje" />
		<tag k="place" v="isolated_dwelling" />
		<tag k="ssr:stedsnr" v="417723" />
	</node>
	<node id="9967147236" lat="61.8643639" lon="5.7251781" version="1" timestamp="2022-08-21T06:25:08Z" changeset="125169960" uid="3497659" user="NKA">
		<tag k="name" v="Isehaugen" />
		<tag k="place" v="farm" />
		<tag k="ssr:stedsnr" v="313341" />
	</node>
	<node id="9967147237" lat="61.8729468" lon="5.7207889" version="1" timestamp="2022-08-21T06:25:08Z" changeset="125169960" uid="3497659" user="NKA">
		<tag k="alt_name" v="Isane, midtre" />
		<tag k="name" v="Midtre Isane" />
		<tag k="place" v="farm" />
		<tag k="ssr:stedsnr" v="617427" />
	</node>
	<node id="9967147238" lat="61.8763888" lon="5.6880893" version="1" timestamp="2022-08-21T06:25:08Z" changeset="125169960" uid="3497659" user="NKA">
		<tag k="alt_name" v="Førssetra" />
		<tag k="historic" v="shieling" />
		<tag k="name" v="Forsætra" />
		<tag k="place" v="isolated_dwelling" />
		<tag k="ssr:stedsnr" v="799381" />
	</node>
	<node id="9967147239" lat="61.8797806" lon="5.7133308" version="1" timestamp="2022-08-21T06:25:08Z" changeset="125169960" uid="3497659" user="NKA">
		<tag k="name" v="Stranda" />
		<tag k="place" v="farm" />
		<tag k="ssr:stedsnr" v="860437" />
	</node>
	<node id="9967147240" lat="61.8137259" lon="4.9646812" version="1" timestamp="2022-08-21T06:25:08Z" changeset="125169960" uid="3497659" user="NKA">
		<tag k="name" v="Ryland" />
		<tag k="place" v="hamlet" />
		<tag k="ssr:stedsnr" v="313935" />
	</node>
	<node id="9967147241" lat="61.86735" lon="5.7068502" version="1" timestamp="2022-08-21T06:25:08Z" changeset="125169960" uid="3497659" user="NKA">
		<tag k="historic" v="shieling" />
		<tag k="name" v="Gunnarssætra" />
		<tag k="place" v="isolated_dwelling" />
		<tag k="ssr:stedsnr" v="131330" />
	</node>
	<node id="9967147242" lat="61.7766896" lon="5.2733372" version="1" timestamp="2022-08-21T06:25:08Z" changeset="125169960" uid="3497659" user="NKA">
		<tag k="name" v="Mevika" />
		<tag k="place" v="neighbourhood" />
		<tag k="ssr:stedsnr" v="982069" />
	</node>
	<node id="9967147243" lat="61.7184278" lon="5.1206701" version="1" timestamp="2022-08-21T06:25:08Z" changeset="125169960" uid="3497659" user="NKA">
		<tag k="name" v="Øygard" />
		<tag k="place" v="locality" />
		<tag k="ssr:stedsnr" v="111885" />
	</node>
	<node id="9967147244" lat="61.8409755" lon="4.9619261" version="1" timestamp="2022-08-21T06:25:08Z" changeset="125169960" uid="3497659" user="NKA">
		<tag k="alt_name" v="Ytre Hauge;Hauge, yt" />
		<tag k="name" v="Hauge" />
		<tag k="place" v="village" />
		<tag k="ssr:stedsnr" v="313928" />
	</node>
	<node id="9967147245" lat="61.8722306" lon="5.3150533" version="1" timestamp="2022-08-21T06:25:08Z" changeset="125169960" uid="3497659" user="NKA">
		<tag k="name" v="Strand" />
		<tag k="place" v="farm" />
		<tag k="ssr:stedsnr" v="738171" />
	</node>
	<node id="9967147246" lat="61.8876154" lon="5.5559884" version="1" timestamp="2022-08-21T06:25:08Z" changeset="125169960" uid="3497659" user="NKA">
		<tag k="name" v="Indre Davik" />
		<tag k="place" v="farm" />
		<tag k="ssr:stedsnr" v="900585" />
	</node>
	<node id="9967147247" lat="61.8897182" lon="5.644855" version="1" timestamp="2022-08-21T06:25:08Z" changeset="125169960" uid="3497659" user="NKA">
		<tag k="name" v="Dombestein" />
		<tag k="place" v="hamlet" />
		<tag k="ssr:stedsnr" v="920395" />
	</node>
	<node id="9967147248" lat="61.8533216" lon="5.4871699" version="1" timestamp="2022-08-21T06:25:08Z" changeset="125169960" uid="3497659" user="NKA">
		<tag k="historic" v="shieling" />
		<tag k="name" v="Bortnestøylen" />
		<tag k="place" v="isolated_dwelling" />
		<tag k="ssr:stedsnr" v="799387" />
	</node>
	<node id="9967147249" lat="61.7305747" lon="5.21534" version="1" timestamp="2022-08-21T06:25:08Z" changeset="125169960" uid="3497659" user="NKA">
		<tag k="name" v="Indrehus" />
		<tag k="place" v="hamlet" />
		<tag k="ssr:stedsnr" v="312805" />
	</node>
	<node id="9967147250" lat="61.7531556" lon="5.3433089" version="1" timestamp="2022-08-21T06:25:08Z" changeset="125169960" uid="3497659" user="NKA">
		<tag k="name" v="Tåene" />
		<tag k="place" v="isolated_dwelling" />
		<tag k="ssr:stedsnr" v="353902" />
	</node>
	<node id="9967147251" lat="61.8308166" lon="4.9895619" version="1" timestamp="2022-08-21T06:25:08Z" changeset="125169960" uid="3497659" user="NKA">
		<tag k="name" v="Fossheim" />
		<tag k="place" v="farm" />
		<tag k="ssr:stedsnr" v="920937" />
	</node>
	<node id="9967147252" lat="61.8831289" lon="5.3362514" version="1" timestamp="2022-08-21T06:25:08Z" changeset="125169960" uid="3497659" user="NKA">
		<tag k="name" v="Straumen" />
		<tag k="place" v="farm" />
		<tag k="ssr:stedsnr" v="495198" />
	</node>
	<node id="9967147253" lat="61.7092106" lon="5.1160245" version="1" timestamp="2022-08-21T06:25:08Z" changeset="125169960" uid="3497659" user="NKA">
		<tag k="name" v="Gamlehjellen" />
		<tag k="place" v="locality" />
		<tag k="ssr:stedsnr" v="171892" />
	</node>
	<node id="9967147254" lat="61.8146917" lon="4.9368024" version="1" timestamp="2022-08-21T06:25:08Z" changeset="125169960" uid="3497659" user="NKA">
		<tag k="name" v="Nøtset" />
		<tag k="place" v="hamlet" />
		<tag k="ssr:stedsnr" v="131949" />
	</node>
	<node id="9967147255" lat="61.8471064" lon="5.3853918" version="1" timestamp="2022-08-21T06:25:08Z" changeset="125169960" uid="3497659" user="NKA">
		<tag k="name" v="Bortnen" />
		<tag k="place" v="hamlet" />
		<tag k="ssr:stedsnr" v="860160" />
	</node>
	<node id="9967147256" lat="61.8517274" lon="5.7731872" version="1" timestamp="2022-08-21T06:25:08Z" changeset="125169960" uid="3497659" user="NKA">
		<tag k="name" v="Askevika" />
		<tag k="place" v="farm" />
		<tag k="ssr:stedsnr" v="799373" />
	</node>
	<node id="9967147257" lat="61.7845917" lon="5.3364227" version="1" timestamp="2022-08-21T06:25:08Z" changeset="125169960" uid="3497659" user="NKA">
		<tag k="name" v="Årdalshytta" />
		<tag k="place" v="isolated_dwelling" />
		<tag k="ssr:stedsnr" v="292972" />
	</node>
	<node id="9967147258" lat="61.7783694" lon="4.8986133" version="1" timestamp="2022-08-21T06:25:08Z" changeset="125169960" uid="3497659" user="NKA">
		<tag k="name" v="Frøynes" />
		<tag k="place" v="farm" />
		<tag k="ssr:stedsnr" v="50380" />
	</node>
	<node id="9967147259" lat="61.8683228" lon="5.4928122" version="1" timestamp="2022-08-21T06:25:08Z" changeset="125169960" uid="3497659" user="NKA">
		<tag k="historic" v="shieling" />
		<tag k="name" v="Kvitsanden" />
		<tag k="place" v="isolated_dwelling" />
		<tag k="ssr:stedsnr" v="616392" />
	</node>
	<node id="9967147260" lat="61.8827957" lon="4.9311987" version="1" timestamp="2022-08-21T06:25:08Z" changeset="125169960" uid="3497659" user="NKA">
		<tag k="name" v="Vollen" />
		<tag k="place" v="isolated_dwelling" />
		<tag k="ssr:stedsnr" v="840118" />
	</node>
	<node id="9967147261" lat="61.895301" lon="5.5103678" version="1" timestamp="2022-08-21T06:25:08Z" changeset="125169960" uid="3497659" user="NKA">
		<tag k="name" v="Lida" />
		<tag k="place" v="farm" />
		<tag k="ssr:stedsnr" v="313401" />
	</node>
	<node id="9967147262" lat="61.6999722" lon="5.1808616" version="1" timestamp="2022-08-21T06:25:08Z" changeset="125169960" uid="3497659" user="NKA">
		<tag k="historic" v="shieling" />
		<tag k="name" v="Myklebuststølane" />
		<tag k="place" v="isolated_dwelling" />
		<tag k="ssr:stedsnr" v="919853" />
	</node>
	<node id="9967147263" lat="61.8796333" lon="5.5107448" version="1" timestamp="2022-08-21T06:25:08Z" changeset="125169960" uid="3497659" user="NKA">
		<tag k="historic" v="shieling" />
		<tag k="name" v="Mosehaugane" />
		<tag k="place" v="isolated_dwelling" />
		<tag k="ssr:stedsnr" v="374388" />
	</node>
	<node id="9967147264" lat="61.8847916" lon="5.3437317" version="1" timestamp="2022-08-21T06:25:08Z" changeset="125169960" uid="3497659" user="NKA">
		<tag k="alt_name" v="Hessevågbakke" />
		<tag k="name" v="Hessevågbakken" />
		<tag k="place" v="farm" />
		<tag k="ssr:stedsnr" v="973832" />
	</node>
	<node id="9967147265" lat="61.8575181" lon="5.0616338" version="1" timestamp="2022-08-21T06:25:08Z" changeset="125169960" uid="3497659" user="NKA">
		<tag k="name" v="Dalsbotnen" />
		<tag k="place" v="hamlet" />
		<tag k="ssr:stedsnr" v="389358" />
	</node>
	<node id="9967147266" lat="61.7790167" lon="5.1272061" version="1" timestamp="2022-08-21T06:25:08Z" changeset="125169960" uid="3497659" user="NKA">
		<tag k="alt_name" v="Dalestølen" />
		<tag k="historic" v="shieling" />
		<tag k="name" v="Ospenessætra" />
		<tag k="place" v="isolated_dwelling" />
		<tag k="ssr:stedsnr" v="799090" />
	</node>
	<node id="9967147267" lat="61.8677495" lon="5.727779" version="1" timestamp="2022-08-21T06:25:08Z" changeset="125169960" uid="3497659" user="NKA">
		<tag k="alt_name" v="Isane, indre" />
		<tag k="name" v="Indre Isane" />
		<tag k="place" v="farm" />
		<tag k="ssr:stedsnr" v="617374" />
	</node>
	<node id="9967147268" lat="61.8746417" lon="5.6889476" version="1" timestamp="2022-08-21T06:25:08Z" changeset="125169960" uid="3497659" user="NKA">
		<tag k="historic" v="shieling" />
		<tag k="name" v="Persætra" />
		<tag k="place" v="isolated_dwelling" />
		<tag k="ssr:stedsnr" v="253447" />
	</node>
	<node id="9967147269" lat="61.8355917" lon="5.3436367" version="1" timestamp="2022-08-21T06:25:08Z" changeset="125169960" uid="3497659" user="NKA">
		<tag k="name" v="Jorda" />
		<tag k="place" v="locality" />
		<tag k="ssr:stedsnr" v="616118" />
	</node>
	<node id="9967147270" lat="61.830555" lon="4.9787091" version="1" timestamp="2022-08-21T06:25:08Z" changeset="125169960" uid="3497659" user="NKA">
		<tag k="name" v="Grasneset" />
		<tag k="place" v="isolated_dwelling" />
		<tag k="ssr:stedsnr" v="779384" />
	</node>
	<node id="9967147271" lat="61.8308352" lon="4.9847973" version="1" timestamp="2022-08-21T06:25:08Z" changeset="125169960" uid="3497659" user="NKA">
		<tag k="name" v="Heia" />
		<tag k="place" v="farm" />
		<tag k="ssr:stedsnr" v="418963" />
	</node>
	<node id="9967147272" lat="61.8443138" lon="4.9755019" version="1" timestamp="2022-08-21T06:25:08Z" changeset="125169960" uid="3497659" user="NKA">
		<tag k="name" v="Håksskaret" />
		<tag k="place" v="neighbourhood" />
		<tag k="ssr:stedsnr" v="982067" />
	</node>
	<node id="9967147273" lat="61.7411723" lon="5.157152" version="1" timestamp="2022-08-21T06:25:08Z" changeset="125169960" uid="3497659" user="NKA">
		<tag k="name" v="Kjelkenes" />
		<tag k="place" v="hamlet" />
		<tag k="ssr:stedsnr" v="973817" />
	</node>
	<node id="9967147274" lat="61.7660728" lon="5.290077" version="1" timestamp="2022-08-21T06:25:08Z" changeset="125169960" uid="3497659" user="NKA">
		<tag k="name" v="Kvelve" />
		<tag k="place" v="farm" />
		<tag k="ssr:stedsnr" v="172026" />
	</node>
	<node id="9967147275" lat="61.8595704" lon="5.309268" version="1" timestamp="2022-08-21T06:25:08Z" changeset="125169960" uid="3497659" user="NKA">
		<tag k="alt_name" v="Ytre Lognes" />
		<tag k="name" v="Lofnes" />
		<tag k="place" v="farm" />
		<tag k="ssr:stedsnr" v="778445" />
	</node>
</osm>
