<?xml version="1.0" encoding="UTF-8"?>
<<<<<<< HEAD
<osm version="0.6" generator="osmapis">
	<node lat="61.03040833096468" lon="10.059047221381567" id="-18938">
=======
<osm generator="osmapis" version="0.6">
	<node id="-391518" lat="61.030408331" lon="10.0590472214">
>>>>>>> e1d4bc35ff8a6074a6f2e91616a996b547c36f15
		<tag k="fixme" v="consider boundary=protected_area and relevant protect_class if not nature reserve" />
		<tag k="leisure" v="nature_reserve" />
		<tag k="name" v="Oddelia naturreservat" />
		<tag k="ssr:stedsnr" v="59490" />
	</node>
<<<<<<< HEAD
	<node lat="60.894477781595214" lon="10.102586102697504" id="-19555">
=======
	<node id="-392637" lat="60.9758796649" lon="10.2169225663">
		<tag k="fixme" v="consider boundary=protected_area and relevant protect_class if not nature reserve" />
		<tag k="leisure" v="nature_reserve" />
		<tag k="name" v="Bjønnhaugen naturreservat" />
		<tag k="ssr:stedsnr" v="981243" />
	</node>
	<node id="-392080" lat="60.8944777816" lon="10.1025861027">
>>>>>>> e1d4bc35ff8a6074a6f2e91616a996b547c36f15
		<tag k="fixme" v="specify shooting=range, clay_pigeon etc" />
		<tag k="leisure" v="pitch" />
		<tag k="name" v="Nordre Land sentralskytebane" />
		<tag k="sport" v="shooting" />
		<tag k="ssr:stedsnr" v="542105" />
	</node>
<<<<<<< HEAD
=======
	<node id="-391407" lat="60.8959492467" lon="10.1618215747">
		<tag k="fixme" v="consider boundary=protected_area and relevant protect_class if not nature reserve" />
		<tag k="leisure" v="nature_reserve" />
		<tag k="name" v="Budeiberget naturreservat" />
		<tag k="ssr:stedsnr" v="981225" />
	</node>
	<node id="-391406" lat="60.8375072159" lon="10.0942400378">
		<tag k="fixme" v="consider boundary=protected_area and relevant protect_class if not nature reserve" />
		<tag k="leisure" v="nature_reserve" />
		<tag k="name" v="Dokka naturreservat" />
		<tag k="ssr:stedsnr" v="981224" />
	</node>
	<node id="-392615" lat="60.9548567038" lon="9.8481877695">
		<tag k="fixme" v="consider boundary=protected_area and relevant protect_class if not nature reserve" />
		<tag k="leisure" v="nature_reserve" />
		<tag k="name" v="Turrtind naturreservat" />
		<tag k="ssr:stedsnr" v="991083" />
	</node>
	<node id="-392614" lat="61.0652422834" lon="10.0948455889">
		<tag k="fixme" v="consider boundary=protected_area and relevant protect_class if not nature reserve" />
		<tag k="leisure" v="nature_reserve" />
		<tag k="name" v="Bjørnhaugen naturreservat" />
		<tag k="ssr:stedsnr" v="989135" />
	</node>
	<node id="-392613" lat="60.8446726724" lon="9.80047900478">
		<tag k="fixme" v="consider boundary=protected_area and relevant protect_class if not nature reserve" />
		<tag k="leisure" v="nature_reserve" />
		<tag k="name" v="Nørdstebøberget naturreservat" />
		<tag k="ssr:stedsnr" v="987928" />
	</node>
>>>>>>> e1d4bc35ff8a6074a6f2e91616a996b547c36f15
</osm>
