<?xml version="1.0" encoding="UTF-8"?>
<osm generator="osmapis" version="0.6">
	<node id="-391165" lat="60.9110055586" lon="10.0976055567">
		<tag k="name" v="Kjølhus" />
		<tag k="place" v="isolated_dwelling" />
		<tag k="ssr:stedsnr" v="725181" />
	</node>
	<node id="-391162" lat="61.0739138915" lon="10.0766055622">
		<tag k="name" v="Slåttbakken" />
		<tag k="place" v="locality" />
		<tag k="ssr:stedsnr" v="723766" />
	</node>
	<node id="-392532" lat="60.8412555584" lon="9.885944442">
		<tag k="name" v="Skogstad" />
		<tag k="place" v="farm" />
		<tag k="ssr:stedsnr" v="859021" />
	</node>
	<node id="-391156" lat="60.7891638933" lon="10.1464666714">
		<tag k="name" v="Røenbakken" />
		<tag k="place" v="farm" />
		<tag k="ssr:stedsnr" v="894332" />
	</node>
	<node id="-391155" lat="60.7875194486" lon="10.1392083281">
		<tag k="name" v="Odnessveen" />
		<tag k="place" v="farm" />
		<tag k="ssr:stedsnr" v="894306" />
	</node>
	<node id="-391145" lat="60.8364138914" lon="10.0299055487">
		<tag k="name" v="Nordre Røste" />
		<tag k="place" v="farm" />
		<tag k="ssr:stedsnr" v="889059" />
	</node>
	<node id="-391144" lat="60.9588749994" lon="9.9504861059">
		<tag k="alt_name" v="Ruudsætra" />
		<tag k="historic" v="shieling" />
		<tag k="name" v="Rudsætra" />
		<tag k="place" v="locality" />
		<tag k="ssr:stedsnr" v="677922" />
	</node>
	<node id="-391143" lat="60.8234277762" lon="10.1071444528">
		<tag k="alt_name" v="Hagen" />
		<tag k="name" v="Brurudhågån" />
		<tag k="place" v="farm" />
		<tag k="ssr:stedsnr" v="677613" />
	</node>
	<node id="-391142" lat="60.8210475908" lon="10.0688419513">
		<tag k="fixme" v="consider place=hamlet" />
		<tag k="name" v="Kolbjørnshus" />
		<tag k="place" v="farm" />
		<tag k="ssr:stedsnr" v="677609" />
	</node>
	<node id="-391141" lat="60.859949997" lon="10.1916527757">
		<tag k="name" v="Solbjørg" />
		<tag k="place" v="farm" />
		<tag k="ssr:stedsnr" v="677520" />
	</node>
	<node id="-391140" lat="60.9732444474" lon="10.0642583339">
		<tag k="name" v="Røstenga" />
		<tag k="place" v="farm" />
		<tag k="ssr:stedsnr" v="677307" />
	</node>
	<node id="-391138" lat="60.9974805534" lon="10.1151944376">
		<tag k="name" v="Stubberud" />
		<tag k="place" v="farm" />
		<tag k="ssr:stedsnr" v="677165" />
	</node>
	<node id="-391136" lat="60.8032027803" lon="10.1088277866">
		<tag k="name" v="Skreddersstugua" />
		<tag k="place" v="farm" />
		<tag k="ssr:stedsnr" v="676574" />
	</node>
	<node id="-391135" lat="60.8505507342" lon="9.99161440853">
		<tag k="fixme" v="consider place=hamlet" />
		<tag k="name" v="Sogn" />
		<tag k="place" v="farm" />
		<tag k="ssr:stedsnr" v="676555" />
	</node>
	<node id="-391134" lat="60.9101583366" lon="10.021441664">
		<tag k="historic" v="shieling" />
		<tag k="name" v="Vestersætra" />
		<tag k="place" v="locality" />
		<tag k="ssr:stedsnr" v="676473" />
	</node>
	<node id="-391132" lat="60.9229750018" lon="10.0873194504">
		<tag k="name" v="Sørum" />
		<tag k="place" v="farm" />
		<tag k="ssr:stedsnr" v="676468" />
	</node>
	<node id="-391131" lat="60.9296888893" lon="10.1577138965">
		<tag k="alt_name" v="Nedre Brenner" />
		<tag k="name" v="Brenner" />
		<tag k="place" v="farm" />
		<tag k="ssr:stedsnr" v="676457" />
	</node>
	<node id="-391130" lat="60.8867083338" lon="10.0908388856">
		<tag k="alt_name" v="Trysilsætra" />
		<tag k="historic" v="shieling" />
		<tag k="name" v="Trysil" />
		<tag k="place" v="locality" />
		<tag k="ssr:stedsnr" v="676407" />
	</node>
	<node id="-391129" lat="60.8923083349" lon="10.0437222189">
		<tag k="name" v="Bekkesvea" />
		<tag k="place" v="farm" />
		<tag k="ssr:stedsnr" v="676371" />
	</node>
	<node id="-391128" lat="60.939819443" lon="10.1511416642">
		<tag k="alt_name" v="Bakken, s;Nordre Bakken;Søndre Bakken" />
		<tag k="name" v="Søre Bakken" />
		<tag k="place" v="farm" />
		<tag k="ssr:stedsnr" v="676306" />
	</node>
	<node id="-391127" lat="60.9326416688" lon="10.1765861187">
		<tag k="fixme" v="multiple name tags, choose one and add the other to alt_name" />
		<tag k="name" v="Harildstad;Kvernsvea" />
		<tag k="place" v="farm" />
		<tag k="ssr:stedsnr" v="676304" />
	</node>
	<node id="-391126" lat="60.7598750025" lon="9.93394166379">
		<tag k="historic" v="shieling" />
		<tag k="name" v="Skjellungsætra" />
		<tag k="place" v="locality" />
		<tag k="ssr:stedsnr" v="676159" />
	</node>
	<node id="-391123" lat="60.9041527774" lon="9.79252499292">
		<tag k="historic" v="shieling" />
		<tag k="name" v="Liasætra" />
		<tag k="place" v="locality" />
		<tag k="ssr:stedsnr" v="676070" />
	</node>
	<node id="-391122" lat="60.8560194484" lon="9.83063611748">
		<tag k="alt_name" v="Stuve, øvre;Stuve" />
		<tag k="name" v="Øvre Stuve" />
		<tag k="place" v="farm" />
		<tag k="ssr:stedsnr" v="676005" />
	</node>
	<node id="-391121" lat="60.8530372714" lon="9.92742222229">
		<tag k="alt_name" v="Juve" />
		<tag k="fixme" v="consider place=hamlet" />
		<tag k="name" v="Gjuve" />
		<tag k="place" v="farm" />
		<tag k="ssr:stedsnr" v="676003" />
	</node>
	<node id="-391120" lat="60.8791944469" lon="9.85610555272">
		<tag k="alt_name" v="Felerud" />
		<tag k="name" v="Fellerud" />
		<tag k="place" v="farm" />
		<tag k="ssr:stedsnr" v="676104" />
	</node>
	<node id="-391119" lat="61.0634194407" lon="9.92100833582">
		<tag k="historic" v="shieling" />
		<tag k="name" v="Rognstadsætra" />
		<tag k="place" v="locality" />
		<tag k="ssr:stedsnr" v="675655" />
	</node>
	<node id="-391118" lat="61.0205527768" lon="9.89093889802">
		<tag k="name" v="Myrstugu" />
		<tag k="place" v="farm" />
		<tag k="ssr:stedsnr" v="675403" />
	</node>
	<node id="-391117" lat="60.8534861096" lon="9.87608611283">
		<tag k="name" v="Helgerud" />
		<tag k="place" v="farm" />
		<tag k="ssr:stedsnr" v="675067" />
	</node>
	<node id="-391111" lat="60.8419583357" lon="10.0139861149">
		<tag k="name" v="Nordre Ankaltrud" />
		<tag k="place" v="farm" />
		<tag k="ssr:stedsnr" v="665056" />
	</node>
	<node id="-391110" lat="60.8268583308" lon="10.0947944452">
		<tag k="alt_name" v="Søndre Tonvoll" />
		<tag k="name" v="Søre Tonvoll" />
		<tag k="place" v="farm" />
		<tag k="ssr:stedsnr" v="665109" />
	</node>
	<node id="-390474" lat="60.9416277759" lon="9.99642776941">
		<tag k="name" v="Lundheim" />
		<tag k="place" v="farm" />
		<tag k="ssr:stedsnr" v="299778" />
	</node>
	<node id="-391098" lat="60.8839888914" lon="9.86190833912">
		<tag k="name" v="Øverlier" />
		<tag k="place" v="farm" />
		<tag k="ssr:stedsnr" v="736114" />
	</node>
	<node id="-391095" lat="60.8468694407" lon="9.91373889536">
		<tag k="name" v="Rosenberg" />
		<tag k="place" v="farm" />
		<tag k="ssr:stedsnr" v="736057" />
	</node>
	<node id="-391087" lat="61.1025916655" lon="9.89791667491">
		<tag k="historic" v="shieling" />
		<tag k="name" v="Svinningsætra" />
		<tag k="place" v="locality" />
		<tag k="ssr:stedsnr" v="735655" />
	</node>
	<node id="-391086" lat="60.9576277806" lon="10.1466138833">
		<tag k="alt_name" v="Slåttsveen" />
		<tag k="name" v="Slåttsvea" />
		<tag k="place" v="farm" />
		<tag k="ssr:stedsnr" v="736349" />
	</node>
	<node id="-391085" lat="61.0134083342" lon="9.86830000677">
		<tag k="name" v="Bjørnerud" />
		<tag k="place" v="farm" />
		<tag k="ssr:stedsnr" v="735360" />
	</node>
	<node id="-391084" lat="61.0160388903" lon="9.90716110205">
		<tag k="fixme" v="consider place=hamlet" />
		<tag k="name" v="Nordbygda" />
		<tag k="place" v="village" />
		<tag k="ssr:stedsnr" v="735357" />
	</node>
	<node id="-391083" lat="61.02073889" lon="10.1060388826">
		<tag k="alt_name" v="Haugvolden" />
		<tag k="name" v="Haugvollen" />
		<tag k="place" v="farm" />
		<tag k="ssr:stedsnr" v="735226" />
	</node>
	<node id="-391082" lat="61.0220722185" lon="10.0972888884">
		<tag k="name" v="Ringvoll" />
		<tag k="place" v="farm" />
		<tag k="ssr:stedsnr" v="735222" />
	</node>
	<node id="-391081" lat="61.0285472242" lon="10.0730527754">
		<tag k="name" v="Nervang" />
		<tag k="place" v="farm" />
		<tag k="ssr:stedsnr" v="735218" />
	</node>
	<node id="-391080" lat="61.0241444455" lon="10.0944055574">
		<tag k="name" v="Sveum" />
		<tag k="place" v="farm" />
		<tag k="ssr:stedsnr" v="735210" />
	</node>
	<node id="-391077" lat="61.0304222261" lon="9.84844444378">
		<tag k="name" v="Haugsrud" />
		<tag k="place" v="farm" />
		<tag k="ssr:stedsnr" v="645917" />
	</node>
	<node id="-391076" lat="60.9499833295" lon="9.86308333436">
		<tag k="historic" v="shieling" />
		<tag k="name" v="Øyangssætra" />
		<tag k="place" v="locality" />
		<tag k="ssr:stedsnr" v="645706" />
	</node>
	<node id="-391069" lat="60.8635916631" lon="9.99285277623">
		<tag k="name" v="Olebakken" />
		<tag k="place" v="farm" />
		<tag k="ssr:stedsnr" v="299559" />
	</node>
	<node id="-391068" lat="61.0231749969" lon="10.0843972312">
		<tag k="name" v="Solvang" />
		<tag k="place" v="farm" />
		<tag k="ssr:stedsnr" v="726343" />
	</node>
	<node id="-391066" lat="60.940494442" lon="10.0762333312">
		<tag k="leisure" v="pitch" />
		<tag k="name" v="Snyta" />
		<tag k="ssr:stedsnr" v="725943" />
	</node>
	<node id="-391064" lat="60.81484444" lon="9.94578889635">
		<tag k="name" v="Nedre Kjendset" />
		<tag k="place" v="farm" />
		<tag k="ssr:stedsnr" v="726198" />
	</node>
	<node id="-391062" lat="60.9661222239" lon="10.1078888918">
		<tag k="amenity" v="school" />
		<tag k="name" v="Torpa barne- og ungdomsskole" />
		<tag k="ssr:stedsnr" v="725492" />
	</node>
	<node id="-391060" lat="60.7955611155" lon="10.1227916744">
		<tag k="name" v="Øvre Haugen" />
		<tag k="place" v="farm" />
		<tag k="ssr:stedsnr" v="725667" />
	</node>
	<node id="-391059" lat="60.8401833297" lon="9.99431665746">
		<tag k="name" v="Skogvang" />
		<tag k="place" v="locality" />
		<tag k="ssr:stedsnr" v="725602" />
	</node>
	<node id="-390467" lat="60.9559972261" lon="9.90955556365">
		<tag k="fixme" v="multiple name tags, choose one and add the other to alt_name" />
		<tag k="historic" v="shieling" />
		<tag k="name" v="Holoa;Holosætra" />
		<tag k="place" v="locality" />
		<tag k="ssr:stedsnr" v="252896" />
	</node>
	<node id="-391055" lat="60.8644250039" lon="9.9773944354">
		<tag k="fixme" v="multiple name tags, choose one and add the other to alt_name" />
		<tag k="name" v="Søre Sveom;Brennheitsveen" />
		<tag k="place" v="farm" />
		<tag k="ssr:stedsnr" v="724886" />
	</node>
	<node id="-391049" lat="60.8639999994" lon="10.0010222145">
		<tag k="name" v="Lunden" />
		<tag k="place" v="farm" />
		<tag k="ssr:stedsnr" v="723541" />
	</node>
	<node id="-391045" lat="60.8262318553" lon="10.1022901296">
		<tag k="fixme" v="consider place=hamlet" />
		<tag k="name" v="Skålerud" />
		<tag k="place" v="farm" />
		<tag k="ssr:stedsnr" v="616627" />
	</node>
	<node id="-391042" lat="60.8935194441" lon="10.2039694461">
		<tag k="historic" v="shieling" />
		<tag k="name" v="Kolsrudsætra" />
		<tag k="place" v="locality" />
		<tag k="ssr:stedsnr" v="615360" />
	</node>
	<node id="-391041" lat="60.9486778004" lon="9.97740265964">
		<tag k="fixme" v="consider place=hamlet" />
		<tag k="name" v="Tollevsrud" />
		<tag k="place" v="farm" />
		<tag k="ssr:stedsnr" v="615232" />
	</node>
	<node id="-391040" lat="60.8129361119" lon="9.9102361194">
		<tag k="alt_name" v="Kloppbakken" />
		<tag k="name" v="Klappbakken" />
		<tag k="place" v="farm" />
		<tag k="ssr:stedsnr" v="615224" />
	</node>
	<node id="-391039" lat="60.9967500033" lon="10.0410388919">
		<tag k="name" v="Smed" />
		<tag k="place" v="farm" />
		<tag k="ssr:stedsnr" v="615152" />
	</node>
	<node id="-391038" lat="60.854574999" lon="9.8799277721">
		<tag k="name" v="Tomlesvea" />
		<tag k="place" v="farm" />
		<tag k="ssr:stedsnr" v="615004" />
	</node>
	<node id="-391037" lat="61.0058638856" lon="9.97496944784">
		<tag k="name" v="Klopp" />
		<tag k="place" v="farm" />
		<tag k="ssr:stedsnr" v="614235" />
	</node>
	<node id="-391036" lat="61.0105277819" lon="9.92224999611">
		<tag k="name" v="Hagen" />
		<tag k="place" v="farm" />
		<tag k="ssr:stedsnr" v="613365" />
	</node>
	<node id="-391035" lat="61.0158444417" lon="10.0122750005">
		<tag k="name" v="Bjørnsrud" />
		<tag k="place" v="farm" />
		<tag k="ssr:stedsnr" v="613224" />
	</node>
	<node id="-391034" lat="61.0185111141" lon="10.0205194385">
		<tag k="name" v="Østby" />
		<tag k="place" v="farm" />
		<tag k="ssr:stedsnr" v="613206" />
	</node>
	<node id="-391031" lat="60.8501916681" lon="10.096366672">
		<tag k="fixme" v="consider place=hamlet" />
		<tag k="name" v="Øvre Skjak" />
		<tag k="place" v="farm" />
		<tag k="ssr:stedsnr" v="604017" />
	</node>
	<node id="-391029" lat="60.9329222232" lon="10.0409194409">
		<tag k="alt_name" v="Søndre Stadsvoll" />
		<tag k="name" v="Søre Stadsvoll" />
		<tag k="place" v="farm" />
		<tag k="ssr:stedsnr" v="603579" />
	</node>
	<node id="-391026" lat="60.9209163643" lon="10.0705850393">
		<tag k="alt_name" v="Gårder" />
		<tag k="fixme" v="consider place=hamlet" />
		<tag k="name" v="Garder" />
		<tag k="place" v="farm" />
		<tag k="ssr:stedsnr" v="603160" />
	</node>
	<node id="-391025" lat="60.9629861118" lon="10.0062194456">
		<tag k="alt_name" v="Volden" />
		<tag k="name" v="Vollen" />
		<tag k="place" v="farm" />
		<tag k="ssr:stedsnr" v="602955" />
	</node>
	<node id="-391022" lat="60.8597638873" lon="9.96381388511">
		<tag k="name" v="Rønningen" />
		<tag k="place" v="farm" />
		<tag k="ssr:stedsnr" v="602559" />
	</node>
	<node id="-391014" lat="61.032469442" lon="9.8459250088">
		<tag k="name" v="Engevoll" />
		<tag k="place" v="farm" />
		<tag k="ssr:stedsnr" v="585905" />
	</node>
	<node id="-391012" lat="60.7700888929" lon="9.82117777631">
		<tag k="historic" v="shieling" />
		<tag k="name" v="Øvre Våvålsætra" />
		<tag k="place" v="locality" />
		<tag k="ssr:stedsnr" v="585453" />
	</node>
	<node id="-391010" lat="60.9178777748" lon="9.8341444409">
		<tag k="name" v="Godhamnlihytta" />
		<tag k="place" v="isolated_dwelling" />
		<tag k="ssr:stedsnr" v="585136" />
	</node>
	<node id="-390459" lat="60.7894472252" lon="10.1904916637">
		<tag k="alt_name" v="Fredrikstuen" />
		<tag k="name" v="Fredriksstugua" />
		<tag k="place" v="farm" />
		<tag k="ssr:stedsnr" v="252621" />
	</node>
	<node id="-391002" lat="60.8648888869" lon="10.20366389">
		<tag k="name" v="Rødde" />
		<tag k="place" v="farm" />
		<tag k="ssr:stedsnr" v="555367" />
	</node>
	<node id="-391001" lat="60.7678277794" lon="9.87349166376">
		<tag k="historic" v="shieling" />
		<tag k="loc_name" v="Kråkhugu" />
		<tag k="name" v="Kråkhugusætra" />
		<tag k="place" v="locality" />
		<tag k="ssr:stedsnr" v="555129" />
	</node>
	<node id="-390999" lat="60.9284138861" lon="10.0831861089">
		<tag k="name" v="Bakke" />
		<tag k="place" v="farm" />
		<tag k="ssr:stedsnr" v="554468" />
	</node>
	<node id="-390998" lat="60.9332000014" lon="10.0444638931">
		<tag k="name" v="Hamborg" />
		<tag k="place" v="isolated_dwelling" />
		<tag k="ssr:stedsnr" v="554466" />
	</node>
	<node id="-390997" lat="60.8655861154" lon="10.1968583331">
		<tag k="name" v="Engeset" />
		<tag k="place" v="farm" />
		<tag k="ssr:stedsnr" v="554453" />
	</node>
	<node id="-390995" lat="60.8832666641" lon="10.0310111037">
		<tag k="alt_name" v="Jørgenstuen" />
		<tag k="name" v="Jørgenstugua" />
		<tag k="place" v="farm" />
		<tag k="ssr:stedsnr" v="554419" />
	</node>
	<node id="-390991" lat="60.8619027816" lon="9.92004167487">
		<tag k="alt_name" v="Søndre Juvsvea" />
		<tag k="name" v="Søre Juvsvea" />
		<tag k="place" v="farm" />
		<tag k="ssr:stedsnr" v="299649" />
	</node>
	<node id="-390988" lat="60.8325694454" lon="9.94581388996">
		<tag k="name" v="Bakken" />
		<tag k="place" v="farm" />
		<tag k="ssr:stedsnr" v="543647" />
	</node>
	<node id="-390986" lat="60.835977778" lon="10.0919249962">
		<tag k="name" v="Moskhaug" />
		<tag k="place" v="isolated_dwelling" />
		<tag k="ssr:stedsnr" v="543164" />
	</node>
	<node id="-390983" lat="60.7894138893" lon="9.92439166902">
		<tag k="name" v="Nøsshytta" />
		<tag k="place" v="locality" />
		<tag k="ssr:stedsnr" v="543326" />
	</node>
	<node id="-390980" lat="60.8429277793" lon="10.1647694481">
		<tag k="name" v="Fredheim" />
		<tag k="place" v="farm" />
		<tag k="ssr:stedsnr" v="542995" />
	</node>
	<node id="-390454" lat="60.8608694415" lon="9.9861055565">
		<tag k="alt_name" v="Husaker" />
		<tag k="name" v="Husåker" />
		<tag k="place" v="farm" />
		<tag k="ssr:stedsnr" v="252500" />
	</node>
	<node id="-390976" lat="60.8496750023" lon="9.97315278022">
		<tag k="name" v="Hognjordet" />
		<tag k="place" v="farm" />
		<tag k="ssr:stedsnr" v="542005" />
	</node>
	<node id="-390975" lat="60.850097221" lon="9.98199999604">
		<tag k="name" v="Hogneenga" />
		<tag k="place" v="farm" />
		<tag k="ssr:stedsnr" v="542002" />
	</node>
	<node id="-390971" lat="60.8385277754" lon="9.77662777181">
		<tag k="name" v="Øisætra" />
		<tag k="place" v="farm" />
		<tag k="ssr:stedsnr" v="540560" />
	</node>
	<node id="-390970" lat="60.9240694482" lon="9.83030277053">
		<tag k="alt_name" v="Søndre Bronsætra" />
		<tag k="historic" v="shieling" />
		<tag k="name" v="Søre Brunsætra" />
		<tag k="place" v="locality" />
		<tag k="ssr:stedsnr" v="539846" />
	</node>
	<node id="-390964" lat="60.8963500004" lon="9.96657499337">
		<tag k="historic" v="shieling" />
		<tag k="name" v="Vangsjordsætra" />
		<tag k="place" v="locality" />
		<tag k="ssr:stedsnr" v="299337" />
	</node>
	<node id="-390962" lat="60.7576111091" lon="9.96907221776">
		<tag k="name" v="Lulisætra" />
		<tag k="place" v="locality" />
		<tag k="ssr:stedsnr" v="495737" />
	</node>
	<node id="-390960" lat="60.9510472208" lon="9.79502499636">
		<tag k="fixme" v="multiple name tags, choose one and add the other to alt_name" />
		<tag k="historic" v="shieling" />
		<tag k="name" v="Gjerdlisætra;Nørdstebøsætra" />
		<tag k="place" v="locality" />
		<tag k="ssr:stedsnr" v="494918" />
	</node>
	<node id="-390957" lat="60.9187361126" lon="9.90588611309">
		<tag k="historic" v="shieling" />
		<tag k="name" v="Geilhaugsætra" />
		<tag k="place" v="locality" />
		<tag k="ssr:stedsnr" v="494903" />
	</node>
	<node id="-390949" lat="60.858077777" lon="10.1091361029">
		<tag k="alt_name" v="Myrbråten" />
		<tag k="name" v="Myrbråtån" />
		<tag k="place" v="farm" />
		<tag k="ssr:stedsnr" v="677542" />
	</node>
	<node id="-390948" lat="60.8611972235" lon="10.0060333245">
		<tag k="fixme" v="consider place=hamlet" />
		<tag k="name" v="Loengbygda" />
		<tag k="place" v="village" />
		<tag k="ssr:stedsnr" v="677533" />
	</node>
	<node id="-390945" lat="60.98415833" lon="10.0591916657">
		<tag k="alt_name" v="Skogstadlien" />
		<tag k="name" v="Skogstadlia" />
		<tag k="place" v="farm" />
		<tag k="ssr:stedsnr" v="677295" />
	</node>
	<node id="-391472" lat="60.9692027776" lon="9.89263611004">
		<tag k="historic" v="shieling" />
		<tag k="name" v="Gjerddalssætra" />
		<tag k="place" v="locality" />
		<tag k="ssr:stedsnr" v="9994" />
	</node>
	<node id="-390942" lat="60.7904527777" lon="10.1437583257">
		<tag k="name" v="Våten" />
		<tag k="place" v="farm" />
		<tag k="ssr:stedsnr" v="676648" />
	</node>
	<node id="-390939" lat="60.7915305579" lon="10.0551027794">
		<tag k="alt_name" v="Bemmerudsætra" />
		<tag k="name" v="Bemmerud" />
		<tag k="place" v="locality" />
		<tag k="ssr:stedsnr" v="676655" />
	</node>
	<node id="-390938" lat="60.8417666668" lon="10.0075694363">
		<tag k="amenity" v="nursing_home" />
		<tag k="name" v="Risby" />
		<tag k="ssr:stedsnr" v="676532" />
	</node>
	<node id="-390936" lat="60.8386722227" lon="10.171697221">
		<tag k="alt_name" v="Vaslien" />
		<tag k="name" v="Vasslia" />
		<tag k="place" v="farm" />
		<tag k="ssr:stedsnr" v="676522" />
	</node>
	<node id="-390935" lat="60.8404472194" lon="10.2085777726">
		<tag k="alt_name" v="Komperudhaugen;Haugen" />
		<tag k="name" v="Kumperudhaugen" />
		<tag k="old_name" v="Komperudshaugen" />
		<tag k="place" v="farm" />
		<tag k="ssr:stedsnr" v="676512" />
	</node>
	<node id="-390934" lat="60.8390944461" lon="10.1005666675">
		<tag k="name" v="Kolbu" />
		<tag k="place" v="farm" />
		<tag k="ssr:stedsnr" v="676504" />
	</node>
	<node id="-390931" lat="60.924697219" lon="10.1205083247">
		<tag k="name" v="Brubakke" />
		<tag k="place" v="farm" />
		<tag k="ssr:stedsnr" v="676452" />
	</node>
	<node id="-390930" lat="60.894677778" lon="10.1879611037">
		<tag k="alt_name" v="Stensengsætra" />
		<tag k="historic" v="shieling" />
		<tag k="name" v="Steinsengsætra" />
		<tag k="place" v="locality" />
		<tag k="ssr:stedsnr" v="676388" />
	</node>
	<node id="-390929" lat="60.9379416785" lon="10.0084250055">
		<tag k="fixme" v="consider place=hamlet" />
		<tag k="name" v="Frøysli" />
		<tag k="old_name" v="Frøisli" />
		<tag k="place" v="farm" />
		<tag k="ssr:stedsnr" v="676281" />
	</node>
	<node id="-390928" lat="60.9446249976" lon="10.0862666628">
		<tag k="alt_name" v="Storsveen" />
		<tag k="name" v="Storsvea" />
		<tag k="place" v="farm" />
		<tag k="ssr:stedsnr" v="676272" />
	</node>
	<node id="-390926" lat="60.9482333342" lon="9.98328611573">
		<tag k="name" v="Bjørke" />
		<tag k="place" v="farm" />
		<tag k="ssr:stedsnr" v="676249" />
	</node>
	<node id="-390444" lat="60.8131584696" lon="9.92200807571">
		<tag k="fixme" v="consider place=hamlet" />
		<tag k="name" v="Nøss" />
		<tag k="place" v="farm" />
		<tag k="ssr:stedsnr" v="252218" />
	</node>
	<node id="-390907" lat="60.8670333344" lon="10.0012083416">
		<tag k="alt_name" v="Kampedokken" />
		<tag k="name" v="Kampedokka" />
		<tag k="place" v="farm" />
		<tag k="ssr:stedsnr" v="675445" />
	</node>
	<node id="-390906" lat="60.8614888928" lon="10.0737583365">
		<tag k="fixme" v="multiple name tags, choose one and add the other to alt_name" />
		<tag k="name" v="Kvernerud;Rud" />
		<tag k="place" v="isolated_dwelling" />
		<tag k="ssr:stedsnr" v="675437" />
	</node>
	<node id="-390904" lat="61.0330027776" lon="9.77883888301">
		<tag k="alt_name" v="Munkhatten, gamle" />
		<tag k="historic" v="shieling" />
		<tag k="name" v="Gamle Munkhatten" />
		<tag k="place" v="locality" />
		<tag k="ssr:stedsnr" v="675355" />
	</node>
	<node id="-390902" lat="61.0301305552" lon="10.0746611112">
		<tag k="alt_name" v="Skartlia, nordre;Skartlien" />
		<tag k="name" v="Nordre Skartlia" />
		<tag k="place" v="farm" />
		<tag k="ssr:stedsnr" v="674200" />
	</node>
	<node id="-390900" lat="61.0561861087" lon="10.0014111034">
		<tag k="historic" v="shieling" />
		<tag k="name" v="Myresætra" />
		<tag k="place" v="locality" />
		<tag k="ssr:stedsnr" v="674046" />
	</node>
	<node id="-390899" lat="61.0126721469" lon="9.99189871806">
		<tag k="fixme" v="consider place=hamlet" />
		<tag k="name" v="Brattlia" />
		<tag k="place" v="farm" />
		<tag k="ssr:stedsnr" v="485472" />
	</node>
	<node id="-390895" lat="60.8521250043" lon="10.089236105">
		<tag k="name" v="Nordgarden Skjak" />
		<tag k="place" v="farm" />
		<tag k="ssr:stedsnr" v="483021" />
	</node>
	<node id="-390892" lat="60.9124111155" lon="10.0848388903">
		<tag k="name" v="Damma" />
		<tag k="place" v="locality" />
		<tag k="ssr:stedsnr" v="482174" />
	</node>
	<node id="-390889" lat="60.9416472228" lon="9.99393610632">
		<tag k="name" v="Myre" />
		<tag k="place" v="farm" />
		<tag k="ssr:stedsnr" v="481756" />
	</node>
	<node id="-390888" lat="60.8538166642" lon="9.99742777257">
		<tag k="name" v="Vangsjordet" />
		<tag k="place" v="farm" />
		<tag k="ssr:stedsnr" v="481564" />
	</node>
	<node id="-390887" lat="60.8640750013" lon="9.99673611626">
		<tag k="name" v="Øvre Stensrud" />
		<tag k="place" v="farm" />
		<tag k="ssr:stedsnr" v="481560" />
	</node>
	<node id="-390883" lat="60.8505777783" lon="10.0874722302">
		<tag k="fixme" v="consider place=hamlet" />
		<tag k="name" v="Nedre Skjak" />
		<tag k="place" v="farm" />
		<tag k="ssr:stedsnr" v="667493" />
	</node>
	<node id="-390881" lat="60.7972277802" lon="10.0159888965">
		<tag k="name" v="Haugshytta" />
		<tag k="place" v="locality" />
		<tag k="ssr:stedsnr" v="464662" />
	</node>
	<node id="-390878" lat="60.8611111084" lon="10.0456333401">
		<tag k="alt_name" v="Fjeldsrud" />
		<tag k="name" v="Fjellsrud" />
		<tag k="place" v="farm" />
		<tag k="ssr:stedsnr" v="665375" />
	</node>
	<node id="-390876" lat="60.8140805565" lon="9.93302500133">
		<tag k="name" v="Nøssvea" />
		<tag k="place" v="farm" />
		<tag k="ssr:stedsnr" v="665183" />
	</node>
	<node id="-390874" lat="60.8477000004" lon="10.1066055556">
		<tag k="name" v="Rosenberg" />
		<tag k="place" v="farm" />
		<tag k="ssr:stedsnr" v="665022" />
	</node>
	<node id="-390873" lat="60.8468166645" lon="10.0916666711">
		<tag k="name" v="Røberg" />
		<tag k="place" v="farm" />
		<tag k="ssr:stedsnr" v="665019" />
	</node>
	<node id="-390872" lat="60.9274666695" lon="10.0499638952">
		<tag k="building" v="commercial" />
		<tag k="name" v="Skjellbakken" />
		<tag k="ssr:stedsnr" v="664893" />
	</node>
	<node id="-390871" lat="60.9217472207" lon="10.0348166702">
		<tag k="name" v="Lien" />
		<tag k="place" v="hamlet" />
		<tag k="ssr:stedsnr" v="664892" />
	</node>
	<node id="-390869" lat="60.8348111109" lon="9.96769721311">
		<tag k="name" v="Nordre Lågmoen" />
		<tag k="place" v="farm" />
		<tag k="ssr:stedsnr" v="664615" />
	</node>
	<node id="-390866" lat="61.0900972246" lon="9.89921666495">
		<tag k="historic" v="shieling" />
		<tag k="name" v="Strangsætra" />
		<tag k="place" v="locality" />
		<tag k="ssr:stedsnr" v="665152" />
	</node>
	<node id="-390864" lat="60.8649473336" lon="10.0238647071">
		<tag k="fixme" v="consider place=hamlet" />
		<tag k="name" v="Loeng" />
		<tag k="place" v="farm" />
		<tag k="ssr:stedsnr" v="664411" />
	</node>
	<node id="-390859" lat="60.8381722194" lon="9.84735556002">
		<tag k="fixme" v="multiple name tags, choose one and add the other to alt_name" />
		<tag k="name" v="Kvernstugu;Møllerstuen" />
		<tag k="place" v="farm" />
		<tag k="ssr:stedsnr" v="664156" />
	</node>
	<node id="-390857" lat="60.8370361144" lon="9.83661944246">
		<tag k="name" v="Bakken" />
		<tag k="place" v="farm" />
		<tag k="ssr:stedsnr" v="664038" />
	</node>
	<node id="-390854" lat="60.9268888908" lon="10.1247555574">
		<tag k="name" v="Brånån" />
		<tag k="place" v="locality" />
		<tag k="ssr:stedsnr" v="664114" />
	</node>
	<node id="-390433" lat="60.9225353013" lon="10.0617767233">
		<tag k="fixme" v="consider place=hamlet" />
		<tag k="name" v="Erstad" />
		<tag k="place" v="farm" />
		<tag k="ssr:stedsnr" v="251491" />
	</node>
	<node id="-390852" lat="60.9443143887" lon="10.0089046199">
		<tag k="name" v="Frøyslihågån" />
		<tag k="old_name" v="Frøislihagen" />
		<tag k="place" v="farm" />
		<tag k="ssr:stedsnr" v="663778" />
	</node>
	<node id="-392475" lat="61.0247027819" lon="9.97360556169">
		<tag k="name" v="Strømsgrenda" />
		<tag k="place" v="hamlet" />
		<tag k="ssr:stedsnr" v="845595" />
	</node>
	<node id="-390845" lat="60.8933444443" lon="9.98607499798">
		<tag k="name" v="Brandtjernshytta" />
		<tag k="place" v="locality" />
		<tag k="ssr:stedsnr" v="663294" />
	</node>
	<node id="-390843" lat="60.9626027812" lon="10.0118222263">
		<tag k="name" v="Nordre Ullsak" />
		<tag k="place" v="farm" />
		<tag k="ssr:stedsnr" v="299278" />
	</node>
	<node id="-390842" lat="60.7863083375" lon="10.1370694365">
		<tag k="name" v="Slåttsvea" />
		<tag k="old_name" v="Slottsvea" />
		<tag k="place" v="farm" />
		<tag k="ssr:stedsnr" v="434640" />
	</node>
	<node id="-390841" lat="60.7892194484" lon="10.1712138982">
		<tag k="name" v="Endrerud" />
		<tag k="place" v="farm" />
		<tag k="ssr:stedsnr" v="434637" />
	</node>
	<node id="-390839" lat="60.7725749993" lon="10.1043083329">
		<tag k="alt_name" v="Veslodnessætra" />
		<tag k="historic" v="shieling" />
		<tag k="name" v="Vesleodnessætra" />
		<tag k="place" v="locality" />
		<tag k="ssr:stedsnr" v="434627" />
	</node>
	<node id="-390837" lat="61.0089194447" lon="9.92222222871">
		<tag k="fixme" v="consider place=hamlet" />
		<tag k="name" v="Nord-Torpa" />
		<tag k="place" v="village" />
		<tag k="ssr:stedsnr" v="434723" />
	</node>
	<node id="-390836" lat="60.8548138878" lon="10.1106777689">
		<tag k="name" v="Arnesvea" />
		<tag k="place" v="farm" />
		<tag k="ssr:stedsnr" v="434519" />
	</node>
	<node id="-390835" lat="60.8521666475" lon="10.0014258958">
		<tag k="name" v="Tyndrum" />
		<tag k="place" v="hamlet" />
		<tag k="ssr:stedsnr" v="434512" />
	</node>
	<node id="-390834" lat="60.8423722259" lon="9.99581945205">
		<tag k="name" v="Øvermoen" />
		<tag k="place" v="farm" />
		<tag k="ssr:stedsnr" v="434510" />
	</node>
	<node id="-390832" lat="60.9645166661" lon="10.0153166601">
		<tag k="name" v="Husom" />
		<tag k="place" v="farm" />
		<tag k="ssr:stedsnr" v="434309" />
	</node>
	<node id="-390831" lat="60.9645638919" lon="10.1216333394">
		<tag k="name" v="Holte" />
		<tag k="place" v="farm" />
		<tag k="ssr:stedsnr" v="434306" />
	</node>
	<node id="-390830" lat="60.8365694456" lon="9.86800832685">
		<tag k="name" v="Brattland" />
		<tag k="place" v="farm" />
		<tag k="ssr:stedsnr" v="434020" />
	</node>
	<node id="-390829" lat="60.8657305553" lon="10.0846361042">
		<tag k="name" v="Fjell" />
		<tag k="place" v="farm" />
		<tag k="ssr:stedsnr" v="433403" />
	</node>
	<node id="-390827" lat="60.8581833379" lon="9.84350277066">
		<tag k="name" v="Enga" />
		<tag k="place" v="farm" />
		<tag k="ssr:stedsnr" v="433008" />
	</node>
	<node id="-390824" lat="61.0175472193" lon="9.85449999878">
		<tag k="alt_name" v="Røstelien" />
		<tag k="name" v="Røstelia" />
		<tag k="place" v="farm" />
		<tag k="ssr:stedsnr" v="432343" />
	</node>
	<node id="-390823" lat="61.0108638932" lon="9.85615278175">
		<tag k="name" v="Gjerdet" />
		<tag k="place" v="farm" />
		<tag k="ssr:stedsnr" v="432327" />
	</node>
	<node id="-390822" lat="61.0131777792" lon="9.91405833733">
		<tag k="fixme" v="multiple name tags, choose one and add the other to alt_name" />
		<tag k="name" v="Øygardssvea;Sveom" />
		<tag k="place" v="farm" />
		<tag k="ssr:stedsnr" v="432324" />
	</node>
	<node id="-390821" lat="61.0100603034" lon="9.92736063852">
		<tag k="fixme" v="consider place=hamlet" />
		<tag k="name" v="Rognholt" />
		<tag k="place" v="farm" />
		<tag k="ssr:stedsnr" v="432323" />
	</node>
	<node id="-390820" lat="61.0011222196" lon="10.1177388924">
		<tag k="name" v="Skinnerlibakken" />
		<tag k="place" v="locality" />
		<tag k="ssr:stedsnr" v="432231" />
	</node>
	<node id="-390818" lat="61.0032388877" lon="9.98167499511">
		<tag k="alt_name" v="Staum" />
		<tag k="name" v="Stadum" />
		<tag k="place" v="farm" />
		<tag k="ssr:stedsnr" v="432225" />
	</node>
	<node id="-390817" lat="61.0113540676" lon="10.0132007731">
		<tag k="alt_name" v="Goplen" />
		<tag k="name" v="Goplum" />
		<tag k="place" v="hamlet" />
		<tag k="ssr:stedsnr" v="432221" />
	</node>
	<node id="-390816" lat="61.0818222205" lon="10.0143083419">
		<tag k="historic" v="shieling" />
		<tag k="name" v="Nordsætra" />
		<tag k="place" v="locality" />
		<tag k="ssr:stedsnr" v="431048" />
	</node>
	<node id="-390815" lat="60.864125704" lon="9.97478535697">
		<tag k="name" v="Sveom" />
		<tag k="place" v="locality" />
		<tag k="ssr:stedsnr" v="424506" />
	</node>
	<node id="-390813" lat="60.8156055574" lon="10.1200944439">
		<tag k="alt_name" v="Søndre Aurlund" />
		<tag k="name" v="Søre Aurlund" />
		<tag k="place" v="farm" />
		<tag k="ssr:stedsnr" v="422808" />
	</node>
	<node id="-390808" lat="60.8418500021" lon="10.0514055554">
		<tag k="name" v="Dokken" />
		<tag k="place" v="locality" />
		<tag k="ssr:stedsnr" v="422038" />
	</node>
	<node id="-390799" lat="60.8496666653" lon="10.0036666649">
		<tag k="name" v="Grøndal" />
		<tag k="place" v="farm" />
		<tag k="ssr:stedsnr" v="299047" />
	</node>
	<node id="-390795" lat="60.8574106096" lon="10.0327448999">
		<tag k="alt_name" v="Gjeile" />
		<tag k="fixme" v="consider place=hamlet" />
		<tag k="name" v="Geile" />
		<tag k="place" v="farm" />
		<tag k="ssr:stedsnr" v="373574" />
	</node>
	<node id="-390791" lat="60.9861666671" lon="10.086333325">
		<tag k="name" v="Brurud" />
		<tag k="place" v="farm" />
		<tag k="ssr:stedsnr" v="373315" />
	</node>
	<node id="-390790" lat="60.9934201596" lon="10.0724066613">
		<tag k="fixme" v="consider place=hamlet" />
		<tag k="name" v="Frøysland" />
		<tag k="old_name" v="Frøisland" />
		<tag k="place" v="farm" />
		<tag k="ssr:stedsnr" v="373306" />
	</node>
	<node id="-390789" lat="60.769057" lon="9.82144744956">
		<tag k="alt_name" v="Vålåsætra" />
		<tag k="historic" v="shieling" />
		<tag k="name" v="Våvålsætra" />
		<tag k="place" v="locality" />
		<tag k="ssr:stedsnr" v="373160" />
	</node>
	<node id="-390785" lat="60.831988889" lon="9.90480000785">
		<tag k="name" v="Sandmoen" />
		<tag k="place" v="farm" />
		<tag k="ssr:stedsnr" v="373205" />
	</node>
	<node id="-390783" lat="60.931308129" lon="10.1644623546">
		<tag k="fixme" v="consider place=hamlet" />
		<tag k="name" v="Hogne" />
		<tag k="place" v="farm" />
		<tag k="ssr:stedsnr" v="372476" />
	</node>
	<node id="-390781" lat="60.931491663" lon="10.141263881">
		<tag k="name" v="Dalby" />
		<tag k="place" v="farm" />
		<tag k="ssr:stedsnr" v="372471" />
	</node>
	<node id="-390780" lat="60.9331555524" lon="9.9801277793">
		<tag k="name" v="Haugerud" />
		<tag k="place" v="farm" />
		<tag k="ssr:stedsnr" v="372463" />
	</node>
	<node id="-390778" lat="60.8480611121" lon="9.89395555294">
		<tag k="name" v="Rønningen" />
		<tag k="place" v="farm" />
		<tag k="ssr:stedsnr" v="372054" />
	</node>
	<node id="-390777" lat="60.8436078743" lon="9.96503346916">
		<tag k="fixme" v="consider place=hamlet" />
		<tag k="name" v="Ulvshus" />
		<tag k="place" v="farm" />
		<tag k="ssr:stedsnr" v="372052" />
	</node>
	<node id="-390775" lat="60.8828499988" lon="9.88378055683">
		<tag k="alt_name" v="Åmbusetsætra" />
		<tag k="historic" v="shieling" />
		<tag k="name" v="Åmbuset" />
		<tag k="place" v="locality" />
		<tag k="ssr:stedsnr" v="372112" />
	</node>
	<node id="-390773" lat="61.0196777784" lon="9.86238334249">
		<tag k="name" v="Røste" />
		<tag k="place" v="farm" />
		<tag k="ssr:stedsnr" v="371360" />
	</node>
	<node id="-390772" lat="61.0212916664" lon="9.89293888398">
		<tag k="name" v="Rud" />
		<tag k="place" v="farm" />
		<tag k="ssr:stedsnr" v="371358" />
	</node>
	<node id="-390771" lat="61.0099891042" lon="10.005825925">
		<tag k="fixme" v="consider place=hamlet" />
		<tag k="name" v="Sæter" />
		<tag k="place" v="farm" />
		<tag k="ssr:stedsnr" v="371218" />
	</node>
	<node id="-390770" lat="60.945236111" lon="9.96645000909">
		<tag k="alt_name" v="Sætra, øvre" />
		<tag k="name" v="Øvre Sætra" />
		<tag k="place" v="farm" />
		<tag k="ssr:stedsnr" v="495935" />
	</node>
	<node id="-390768" lat="60.8220678938" lon="10.1039916447">
		<tag k="fixme" v="consider place=hamlet" />
		<tag k="name" v="Brurud" />
		<tag k="place" v="farm" />
		<tag k="ssr:stedsnr" v="495613" />
	</node>
	<node id="-390767" lat="60.8221222182" lon="10.1204499997">
		<tag k="name" v="Bakkom" />
		<tag k="place" v="farm" />
		<tag k="ssr:stedsnr" v="495611" />
	</node>
	<node id="-390766" lat="60.8656583362" lon="10.2139500039">
		<tag k="name" v="Myrvoll" />
		<tag k="place" v="farm" />
		<tag k="ssr:stedsnr" v="495543" />
	</node>
	<node id="-390765" lat="60.8618333305" lon="9.99263333297">
		<tag k="name" v="Sørum" />
		<tag k="place" v="farm" />
		<tag k="ssr:stedsnr" v="495537" />
	</node>
	<node id="-390763" lat="60.8574888932" lon="10.1732333381">
		<tag k="name" v="Skogli" />
		<tag k="place" v="farm" />
		<tag k="ssr:stedsnr" v="495519" />
	</node>
	<node id="-390760" lat="60.8272166702" lon="10.0338027766">
		<tag k="name" v="Barlund" />
		<tag k="place" v="farm" />
		<tag k="ssr:stedsnr" v="494584" />
	</node>
	<node id="-390759" lat="60.8344416648" lon="9.97018889032">
		<tag k="alt_name" v="Søndre Lågmoen" />
		<tag k="name" v="Lauvmoen" />
		<tag k="place" v="farm" />
		<tag k="ssr:stedsnr" v="494578" />
	</node>
	<node id="-390758" lat="60.8326111104" lon="9.99827499553">
		<tag k="name" v="Olamoen" />
		<tag k="place" v="farm" />
		<tag k="ssr:stedsnr" v="494576" />
	</node>
	<node id="-390757" lat="60.821888673" lon="10.0826769287">
		<tag k="fixme" v="consider place=hamlet" />
		<tag k="name" v="Haug" />
		<tag k="place" v="farm" />
		<tag k="ssr:stedsnr" v="494573" />
	</node>
	<node id="-390756" lat="60.8486111137" lon="10.0996611171">
		<tag k="alt_name" v="Rustebakke" />
		<tag k="name" v="Ringvoll" />
		<tag k="place" v="farm" />
		<tag k="ssr:stedsnr" v="494494" />
	</node>
	<node id="-390754" lat="60.8406682485" lon="10.1064511965">
		<tag k="fixme" v="consider place=hamlet" />
		<tag k="name" v="Enger" />
		<tag k="place" v="farm" />
		<tag k="ssr:stedsnr" v="494472" />
	</node>
	<node id="-390753" lat="60.8371777786" lon="10.1067194536">
		<tag k="alt_name" v="Engerengen" />
		<tag k="name" v="Engerenga" />
		<tag k="place" v="farm" />
		<tag k="ssr:stedsnr" v="494471" />
	</node>
	<node id="-390748" lat="60.9251289832" lon="10.057299966">
		<tag k="fixme" v="consider place=hamlet" />
		<tag k="name" v="Harstad" />
		<tag k="place" v="farm" />
		<tag k="ssr:stedsnr" v="494421" />
	</node>
	<node id="-390747" lat="60.9273444486" lon="10.0469722261">
		<tag k="alt_name" v="Lunde, s;Søndre Lunde" />
		<tag k="name" v="Søre Lunde" />
		<tag k="place" v="farm" />
		<tag k="ssr:stedsnr" v="494419" />
	</node>
	<node id="-390743" lat="60.9590638914" lon="9.98805277663">
		<tag k="alt_name" v="Myrvold" />
		<tag k="name" v="Myrvoll" />
		<tag k="place" v="farm" />
		<tag k="ssr:stedsnr" v="494341" />
	</node>
	<node id="-390742" lat="60.9570361136" lon="10.0790083371">
		<tag k="name" v="Nydal" />
		<tag k="place" v="farm" />
		<tag k="ssr:stedsnr" v="494329" />
	</node>
	<node id="-390741" lat="60.9611694402" lon="9.99722222082">
		<tag k="alt_name" v="Voldheim" />
		<tag k="name" v="Vollheim" />
		<tag k="place" v="farm" />
		<tag k="ssr:stedsnr" v="494327" />
	</node>
	<node id="-390739" lat="60.9365083372" lon="10.0334888831">
		<tag k="name" v="Tomte" />
		<tag k="place" v="farm" />
		<tag k="ssr:stedsnr" v="494260" />
	</node>
	<node id="-390737" lat="60.9498143583" lon="10.1207270701">
		<tag k="fixme" v="consider place=hamlet" />
		<tag k="name" v="Haug" />
		<tag k="place" v="farm" />
		<tag k="ssr:stedsnr" v="494246" />
	</node>
	<node id="-390736" lat="60.9403138891" lon="10.1543166635">
		<tag k="name" v="Voll" />
		<tag k="place" v="farm" />
		<tag k="ssr:stedsnr" v="494241" />
	</node>
	<node id="-390735" lat="60.9435499985" lon="9.99870277258">
		<tag k="name" v="Øvergård" />
		<tag k="place" v="farm" />
		<tag k="ssr:stedsnr" v="494230" />
	</node>
	<node id="-390734" lat="60.8281765386" lon="9.93346942358">
		<tag k="fixme" v="consider place=hamlet" />
		<tag k="name" v="Nordby" />
		<tag k="place" v="farm" />
		<tag k="ssr:stedsnr" v="494190" />
	</node>
	<node id="-390733" lat="60.8305277781" lon="9.78599999776">
		<tag k="name" v="Øybakken" />
		<tag k="place" v="farm" />
		<tag k="ssr:stedsnr" v="494187" />
	</node>
	<node id="-390732" lat="60.8164472251" lon="9.95535832482">
		<tag k="alt_name" v="Svengjerdet" />
		<tag k="name" v="Sveingjerdet" />
		<tag k="place" v="farm" />
		<tag k="ssr:stedsnr" v="494172" />
	</node>
	<node id="-390724" lat="61.0906638846" lon="9.93211111573">
		<tag k="alt_name" v="Storslåttet" />
		<tag k="historic" v="shieling" />
		<tag k="name" v="Storslåtte" />
		<tag k="place" v="locality" />
		<tag k="ssr:stedsnr" v="493696" />
	</node>
	<node id="-390723" lat="61.0880805598" lon="9.94030833999">
		<tag k="name" v="Myrstreta" />
		<tag k="place" v="isolated_dwelling" />
		<tag k="ssr:stedsnr" v="493695" />
	</node>
	<node id="-390721" lat="61.1040115236" lon="9.95171969256">
		<tag k="historic" v="shieling" />
		<tag k="name" v="Klemosætra" />
		<tag k="place" v="locality" />
		<tag k="ssr:stedsnr" v="493688" />
	</node>
	<node id="-390720" lat="61.1112888906" lon="9.76016666273">
		<tag k="name" v="Sionsplassen" />
		<tag k="place" v="locality" />
		<tag k="ssr:stedsnr" v="493671" />
	</node>
	<node id="-390717" lat="60.8606972225" lon="10.1719333362">
		<tag k="alt_name" v="Sollien" />
		<tag k="name" v="Sollia" />
		<tag k="place" v="farm" />
		<tag k="ssr:stedsnr" v="493422" />
	</node>
	<node id="-390716" lat="60.8698138879" lon="10.0265805525">
		<tag k="name" v="Jakopshus" />
		<tag k="place" v="isolated_dwelling" />
		<tag k="ssr:stedsnr" v="493410" />
	</node>
	<node id="-390713" lat="61.0030749991" lon="10.0291777719">
		<tag k="name" v="Bråten" />
		<tag k="place" v="locality" />
		<tag k="ssr:stedsnr" v="493258" />
	</node>
	<node id="-390712" lat="61.0005138853" lon="10.0177055573">
		<tag k="name" v="Nedre Klemoen" />
		<tag k="place" v="farm" />
		<tag k="ssr:stedsnr" v="493257" />
	</node>
	<node id="-390711" lat="61.0030583364" lon="10.0003111201">
		<tag k="alt_name" v="Håkestad" />
		<tag k="name" v="Håkenstad" />
		<tag k="place" v="farm" />
		<tag k="ssr:stedsnr" v="493246" />
	</node>
	<node id="-390710" lat="61.0052166673" lon="10.0923666594">
		<tag k="name" v="Brattråk" />
		<tag k="place" v="farm" />
		<tag k="ssr:stedsnr" v="493233" />
	</node>
	<node id="-390708" lat="60.8540666654" lon="9.83284999973">
		<tag k="name" v="Halla" />
		<tag k="place" v="farm" />
		<tag k="ssr:stedsnr" v="493068" />
	</node>
	<node id="-390707" lat="60.8468916624" lon="9.90380277273">
		<tag k="name" v="Haraldenga" />
		<tag k="place" v="farm" />
		<tag k="ssr:stedsnr" v="493057" />
	</node>
	<node id="-390706" lat="60.8521541333" lon="9.96372077213">
		<tag k="alt_name" v="Broner" />
		<tag k="fixme" v="consider place=hamlet" />
		<tag k="name" v="Brone" />
		<tag k="place" v="farm" />
		<tag k="ssr:stedsnr" v="493053" />
	</node>
	<node id="-390705" lat="60.8406472226" lon="9.85658333857">
		<tag k="alt_name" v="Madsstuen" />
		<tag k="name" v="Matsstugu" />
		<tag k="place" v="farm" />
		<tag k="ssr:stedsnr" v="493051" />
	</node>
	<node id="-390696" lat="60.8575435242" lon="10.0249922029">
		<tag k="alt_name" v="Gjeilhaugen" />
		<tag k="name" v="Geilhaugen" />
		<tag k="place" v="farm" />
		<tag k="ssr:stedsnr" v="361365" />
	</node>
	<node id="-390693" lat="60.9650833332" lon="10.0245527859">
		<tag k="name" v="Øvre Ullsak" />
		<tag k="place" v="farm" />
		<tag k="ssr:stedsnr" v="359259" />
	</node>
	<node id="-390691" lat="61.0162225941" lon="9.92208609301">
		<tag k="alt_name" v="Synstelien" />
		<tag k="fixme" v="consider place=hamlet" />
		<tag k="name" v="Synstelia" />
		<tag k="place" v="farm" />
		<tag k="ssr:stedsnr" v="492360" />
	</node>
	<node id="-390690" lat="60.8299111116" lon="9.82609722533">
		<tag k="historic" v="shieling" />
		<tag k="loc_name" v="Sætra" />
		<tag k="name" v="Seteren" />
		<tag k="place" v="locality" />
		<tag k="ssr:stedsnr" v="358574" />
	</node>
	<node id="-390688" lat="61.0031388916" lon="9.93396389739">
		<tag k="name" v="Bergseng" />
		<tag k="place" v="farm" />
		<tag k="ssr:stedsnr" v="492330" />
	</node>
	<node id="-390687" lat="60.9225500008" lon="9.80398055416">
		<tag k="name" v="Bjørntjernshytta" />
		<tag k="place" v="locality" />
		<tag k="ssr:stedsnr" v="357865" />
	</node>
	<node id="-390405" lat="61.0453805514" lon="9.7862027846">
		<tag k="alt_name" v="Gammelsætra" />
		<tag k="historic" v="shieling" />
		<tag k="name" v="Gammalsætra" />
		<tag k="place" v="locality" />
		<tag k="ssr:stedsnr" v="250643" />
	</node>
	<node id="-390684" lat="61.0308527817" lon="10.0526388921">
		<tag k="name" v="Sørum" />
		<tag k="place" v="farm" />
		<tag k="ssr:stedsnr" v="492171" />
	</node>
	<node id="-390682" lat="61.0241111094" lon="9.97354999778">
		<tag k="alt_name" v="Strøm, midtre;Strøm" />
		<tag k="name" v="Midtre Strøm" />
		<tag k="place" v="farm" />
		<tag k="ssr:stedsnr" v="492157" />
	</node>
	<node id="-390679" lat="60.8428583295" lon="9.87702778361">
		<tag k="name" v="Granaker" />
		<tag k="place" v="isolated_dwelling" />
		<tag k="ssr:stedsnr" v="483849" />
	</node>
	<node id="-390678" lat="60.8443722255" lon="9.860969445">
		<tag k="name" v="Kapperudsvea" />
		<tag k="place" v="isolated_dwelling" />
		<tag k="ssr:stedsnr" v="483848" />
	</node>
	<node id="-390676" lat="60.7971249961" lon="10.1160305466">
		<tag k="name" v="Nordby" />
		<tag k="place" v="farm" />
		<tag k="ssr:stedsnr" v="483743" />
	</node>
	<node id="-390675" lat="60.8408333371" lon="9.99866110638">
		<tag k="name" v="Nermoen" />
		<tag k="place" v="farm" />
		<tag k="ssr:stedsnr" v="483692" />
	</node>
	<node id="-390674" lat="60.8344833368" lon="9.9596500033">
		<tag k="name" v="Kile" />
		<tag k="place" v="farm" />
		<tag k="ssr:stedsnr" v="483672" />
	</node>
	<node id="-390670" lat="60.8277055599" lon="10.0998805521">
		<tag k="name" v="Voksekollen" />
		<tag k="place" v="isolated_dwelling" />
		<tag k="ssr:stedsnr" v="483177" />
	</node>
	<node id="-390669" lat="60.8276305592" lon="10.0231333396">
		<tag k="name" v="Nøland" />
		<tag k="place" v="isolated_dwelling" />
		<tag k="ssr:stedsnr" v="483043" />
	</node>
	<node id="-390668" lat="60.9602006272" lon="9.98415388569">
		<tag k="name" v="Nedre Klette" />
		<tag k="place" v="farm" />
		<tag k="ssr:stedsnr" v="482649" />
	</node>
	<node id="-390665" lat="60.8786111146" lon="10.1104194467">
		<tag k="name" v="Hytteplassdalen" />
		<tag k="place" v="locality" />
		<tag k="ssr:stedsnr" v="482287" />
	</node>
	<node id="-390658" lat="60.8610694406" lon="9.89856944797">
		<tag k="name" v="Breibekk" />
		<tag k="place" v="locality" />
		<tag k="ssr:stedsnr" v="481634" />
	</node>
	<node id="-390398" lat="61.0096444475" lon="9.99213889297">
		<tag k="alt_name" v="Granheim, nedre" />
		<tag k="name" v="Nedre Granheim" />
		<tag k="place" v="farm" />
		<tag k="ssr:stedsnr" v="250242" />
	</node>
	<node id="-390642" lat="60.9814222207" lon="10.0789666614">
		<tag k="name" v="Mo" />
		<tag k="place" v="farm" />
		<tag k="ssr:stedsnr" v="313313" />
	</node>
	<node id="-390638" lat="60.8370527765" lon="10.0212805599">
		<tag k="alt_name" v="Kolterud" />
		<tag k="name" v="Nordre Kolterud" />
		<tag k="place" v="farm" />
		<tag k="ssr:stedsnr" v="312504" />
	</node>
	<node id="-390397" lat="61.0359009934" lon="10.0559555826">
		<tag k="fixme" v="consider place=hamlet" />
		<tag k="name" v="Odde" />
		<tag k="place" v="farm" />
		<tag k="ssr:stedsnr" v="250191" />
	</node>
	<node id="-390634" lat="60.9059000025" lon="10.220124999">
		<tag k="historic" v="shieling" />
		<tag k="name" v="Gulset" />
		<tag k="place" v="locality" />
		<tag k="ssr:stedsnr" v="312479" />
	</node>
	<node id="-390625" lat="60.8335916684" lon="9.94869722002">
		<tag k="name" v="Vestrum" />
		<tag k="place" v="locality" />
		<tag k="ssr:stedsnr" v="301667" />
	</node>
	<node id="-390624" lat="60.8305166651" lon="10.0107166639">
		<tag k="alt_name" v="Søndre Bardalen" />
		<tag k="name" v="Søre Bardalen" />
		<tag k="place" v="farm" />
		<tag k="ssr:stedsnr" v="301656" />
	</node>
	<node id="-390622" lat="60.9608499963" lon="9.98925277165">
		<tag k="name" v="Engeli" />
		<tag k="place" v="farm" />
		<tag k="ssr:stedsnr" v="299958" />
	</node>
	<node id="-390621" lat="60.9750416639" lon="10.115202774">
		<tag k="fixme" v="multiple name tags, choose one and add the other to alt_name" />
		<tag k="name" v="Parthaugen;Skogli" />
		<tag k="place" v="isolated_dwelling" />
		<tag k="ssr:stedsnr" v="300012" />
	</node>
	<node id="-390620" lat="60.8515027754" lon="9.89776944716">
		<tag k="name" v="Vestre Tomle" />
		<tag k="place" v="farm" />
		<tag k="ssr:stedsnr" v="299854" />
	</node>
	<node id="-390394" lat="61.0173027757" lon="9.98501388372">
		<tag k="name" v="Skogly" />
		<tag k="place" v="farm" />
		<tag k="ssr:stedsnr" v="249191" />
	</node>
	<node id="-390617" lat="60.853411113" lon="9.9207361114">
		<tag k="name" v="Bakken" />
		<tag k="place" v="locality" />
		<tag k="ssr:stedsnr" v="299654" />
	</node>
	<node id="-390616" lat="60.889302778" lon="10.1364027839">
		<tag k="name" v="Hansebu" />
		<tag k="place" v="locality" />
		<tag k="ssr:stedsnr" v="299132" />
	</node>
	<node id="-390615" lat="60.9404666708" lon="10.1180722302">
		<tag k="name" v="Nordre Finni" />
		<tag k="place" v="farm" />
		<tag k="ssr:stedsnr" v="465139" />
	</node>
	<node id="-390393" lat="61.0274833347" lon="10.0790111182">
		<tag k="fixme" v="consider place=hamlet" />
		<tag k="name" v="Skartlibygda" />
		<tag k="place" v="village" />
		<tag k="ssr:stedsnr" v="249189" />
	</node>
	<node id="-390611" lat="61.0297777771" lon="9.86367776974">
		<tag k="alt_name" v="Brenden" />
		<tag k="name" v="Brenna" />
		<tag k="place" v="locality" />
		<tag k="ssr:stedsnr" v="464922" />
	</node>
	<node id="-390605" lat="60.8569320357" lon="10.0848191473">
		<tag k="fixme" v="consider place=hamlet" />
		<tag k="name" v="Kolsrud" />
		<tag k="place" v="farm" />
		<tag k="ssr:stedsnr" v="252507" />
	</node>
	<node id="-390604" lat="60.9442083317" lon="10.1227444455">
		<tag k="alt_name" v="Opsal" />
		<tag k="name" v="Haugland" />
		<tag k="place" v="farm" />
		<tag k="ssr:stedsnr" v="251299" />
	</node>
	<node id="-390602" lat="60.9445111146" lon="9.97528888313">
		<tag k="alt_name" v="Brendengen" />
		<tag k="name" v="Brennenga" />
		<tag k="place" v="farm" />
		<tag k="ssr:stedsnr" v="251276" />
	</node>
	<node id="-390601" lat="60.9460416706" lon="9.98593333453">
		<tag k="alt_name" v="Lundsæteren" />
		<tag k="name" v="Lundsætra" />
		<tag k="place" v="farm" />
		<tag k="ssr:stedsnr" v="251269" />
	</node>
	<node id="-390600" lat="60.9363026273" lon="10.0274166664">
		<tag k="fixme" v="consider place=hamlet" />
		<tag k="name" v="Grøtåsen" />
		<tag k="place" v="farm" />
		<tag k="ssr:stedsnr" v="251318" />
	</node>
	<node id="-390599" lat="60.9218305521" lon="10.0712694392">
		<tag k="fixme" v="consider place=hamlet" />
		<tag k="name" v="Vest-Torpa" />
		<tag k="place" v="village" />
		<tag k="ssr:stedsnr" v="251304" />
	</node>
	<node id="-390597" lat="60.829708335" lon="9.94528889675">
		<tag k="name" v="Bergli" />
		<tag k="place" v="locality" />
		<tag k="ssr:stedsnr" v="240754" />
	</node>
	<node id="-390594" lat="60.8282138927" lon="9.92379999492">
		<tag k="name" v="Nordbysvea" />
		<tag k="place" v="locality" />
		<tag k="ssr:stedsnr" v="240687" />
	</node>
	<node id="-390587" lat="60.8537694458" lon="9.89017499153">
		<tag k="name" v="Nysvea" />
		<tag k="place" v="farm" />
		<tag k="ssr:stedsnr" v="221915" />
	</node>
	<node id="-392631" lat="61.0171559938" lon="9.89522866119">
		<tag k="name" v="Nørstelien" />
		<tag k="place" v="farm" />
		<tag k="ssr:stedsnr" v="1075381" />
	</node>
	<node id="-390581" lat="60.9528472251" lon="10.135272218">
		<tag k="alt_name" v="Søndre Røste" />
		<tag k="name" v="Søre Røste" />
		<tag k="place" v="farm" />
		<tag k="ssr:stedsnr" v="297034" />
	</node>
	<node id="-390580" lat="60.9505722262" lon="9.96275555992">
		<tag k="alt_name" v="Skredderstuen" />
		<tag k="name" v="Skreddarstugu" />
		<tag k="place" v="farm" />
		<tag k="ssr:stedsnr" v="191905" />
	</node>
	<node id="-390578" lat="60.9971761879" lon="9.83097970989">
		<tag k="alt_name" v="Jøranlisætrene" />
		<tag k="historic" v="shieling" />
		<tag k="name" v="Jøronlisætra" />
		<tag k="place" v="locality" />
		<tag k="ssr:stedsnr" v="191722" />
	</node>
	<node id="-390577" lat="60.7899416667" lon="10.1761083268">
		<tag k="alt_name" v="Mikkelstuen" />
		<tag k="name" v="Mikjelsstugua" />
		<tag k="place" v="farm" />
		<tag k="ssr:stedsnr" v="191618" />
	</node>
	<node id="-390576" lat="60.8549923649" lon="10.0757194462">
		<tag k="fixme" v="consider place=hamlet" />
		<tag k="name" v="Gjevle" />
		<tag k="place" v="farm" />
		<tag k="ssr:stedsnr" v="191526" />
	</node>
	<node id="-390575" lat="60.8562277789" lon="10.0970888853">
		<tag k="name" v="Storsvea" />
		<tag k="place" v="farm" />
		<tag k="ssr:stedsnr" v="191521" />
	</node>
	<node id="-390574" lat="60.8493999976" lon="10.0023999961">
		<tag k="fixme" v="consider place=hamlet" />
		<tag k="name" v="Dælibygda" />
		<tag k="place" v="village" />
		<tag k="ssr:stedsnr" v="191513" />
	</node>
	<node id="-390573" lat="60.8509" lon="10.1031083284">
		<tag k="name" v="Haugerud" />
		<tag k="place" v="farm" />
		<tag k="ssr:stedsnr" v="191506" />
	</node>
	<node id="-390572" lat="60.9645305536" lon="10.1310833348">
		<tag k="name" v="Berget" />
		<tag k="place" v="locality" />
		<tag k="ssr:stedsnr" v="191313" />
	</node>
	<node id="-390570" lat="60.922227782" lon="10.072161107">
		<tag k="name" v="Tune" />
		<tag k="place" v="farm" />
		<tag k="ssr:stedsnr" v="191434" />
	</node>
	<node id="-390569" lat="60.9213190504" lon="10.0347569487">
		<tag k="name" v="Lia" />
		<tag k="place" v="farm" />
		<tag k="ssr:stedsnr" v="191427" />
	</node>
	<node id="-390568" lat="60.9306194487" lon="10.0827083355">
		<tag k="name" v="Steinsli" />
		<tag k="place" v="locality" />
		<tag k="ssr:stedsnr" v="191410" />
	</node>
	<node id="-390567" lat="60.8663166712" lon="9.82626388939">
		<tag k="historic" v="shieling" />
		<tag k="name" v="Hallasætra" />
		<tag k="place" v="locality" />
		<tag k="ssr:stedsnr" v="191016" />
	</node>
	<node id="-390566" lat="60.86530222" lon="9.95637735572">
		<tag k="alt_name" v="Bratterud" />
		<tag k="name" v="Brattrud" />
		<tag k="place" v="locality" />
		<tag k="ssr:stedsnr" v="191011" />
	</node>
	<node id="-390385" lat="60.8641194432" lon="10.2002111157">
		<tag k="alt_name" v="Vollen" />
		<tag k="name" v="Voll" />
		<tag k="place" v="farm" />
		<tag k="ssr:stedsnr" v="70403" />
	</node>
	<node id="-392612" lat="60.8430214467" lon="10.1797937321">
		<tag k="fixme" v="consider place=hamlet" />
		<tag k="name" v="Skinnerud" />
		<tag k="place" v="farm" />
		<tag k="ssr:stedsnr" v="987357" />
	</node>
	<node id="-392611" lat="60.8649244157" lon="10.2009028337">
		<tag k="fixme" v="consider place=hamlet" />
		<tag k="name" v="Elton" />
		<tag k="place" v="farm" />
		<tag k="ssr:stedsnr" v="987356" />
	</node>
	<node id="-392610" lat="60.8220748317" lon="10.0608501883">
		<tag k="fixme" v="consider place=hamlet" />
		<tag k="name" v="Bjørke" />
		<tag k="place" v="farm" />
		<tag k="ssr:stedsnr" v="987354" />
	</node>
	<node id="-392609" lat="60.8273266037" lon="10.0885049177">
		<tag k="fixme" v="consider place=hamlet" />
		<tag k="name" v="Tonvoll" />
		<tag k="place" v="farm" />
		<tag k="ssr:stedsnr" v="987353" />
	</node>
	<node id="-392608" lat="60.9908059993" lon="10.0775599334">
		<tag k="fixme" v="consider place=hamlet" />
		<tag k="name" v="Vålhovd" />
		<tag k="place" v="farm" />
		<tag k="ssr:stedsnr" v="987344" />
	</node>
	<node id="-392607" lat="61.023985381" lon="9.97169876772">
		<tag k="fixme" v="consider place=hamlet" />
		<tag k="name" v="Strøm" />
		<tag k="place" v="farm" />
		<tag k="ssr:stedsnr" v="987339" />
	</node>
	<node id="-392606" lat="61.0077553512" lon="9.9658603392">
		<tag k="name" v="Søre Åsen" />
		<tag k="place" v="farm" />
		<tag k="ssr:stedsnr" v="987336" />
	</node>
	<node id="-392605" lat="60.9617524236" lon="9.98447766839">
		<tag k="fixme" v="consider place=hamlet" />
		<tag k="name" v="Klette" />
		<tag k="place" v="farm" />
		<tag k="ssr:stedsnr" v="987333" />
	</node>
	<node id="-392604" lat="60.9452467362" lon="9.96411345334">
		<tag k="fixme" v="consider place=hamlet" />
		<tag k="name" v="Sætra" />
		<tag k="place" v="farm" />
		<tag k="ssr:stedsnr" v="987331" />
	</node>
	<node id="-392603" lat="60.9385129199" lon="10.0055185109">
		<tag k="name" v="Nordre Frøysli" />
		<tag k="place" v="farm" />
		<tag k="ssr:stedsnr" v="987329" />
	</node>
	<node id="-392602" lat="60.9289143578" lon="10.0444299306">
		<tag k="fixme" v="consider place=hamlet" />
		<tag k="name" v="Lunde" />
		<tag k="place" v="farm" />
		<tag k="ssr:stedsnr" v="987325" />
	</node>
	<node id="-392601" lat="60.856283371" lon="9.83244588411">
		<tag k="fixme" v="consider place=hamlet" />
		<tag k="name" v="Stuve" />
		<tag k="place" v="farm" />
		<tag k="ssr:stedsnr" v="987319" />
	</node>
	<node id="-392600" lat="60.8432183471" lon="9.94995081891">
		<tag k="fixme" v="consider place=hamlet" />
		<tag k="name" v="Esbjug" />
		<tag k="place" v="farm" />
		<tag k="ssr:stedsnr" v="987317" />
	</node>
	<node id="-390551" lat="60.8292861091" lon="9.92473332847">
		<tag k="name" v="Hansesvea" />
		<tag k="place" v="farm" />
		<tag k="ssr:stedsnr" v="179653" />
	</node>
	<node id="-392598" lat="60.8375824792" lon="10.0239852483">
		<tag k="fixme" v="consider place=hamlet" />
		<tag k="name" v="Kolterud" />
		<tag k="place" v="farm" />
		<tag k="ssr:stedsnr" v="987311" />
	</node>
	<node id="-392597" lat="60.8317324953" lon="10.0107713288">
		<tag k="fixme" v="consider place=hamlet" />
		<tag k="name" v="Bardalen" />
		<tag k="place" v="farm" />
		<tag k="ssr:stedsnr" v="987310" />
	</node>
	<node id="-392596" lat="60.8157860587" lon="9.94308298981">
		<tag k="fixme" v="consider place=hamlet" />
		<tag k="name" v="Kjennset" />
		<tag k="place" v="farm" />
		<tag k="ssr:stedsnr" v="987309" />
	</node>
	<node id="-392594" lat="61.0288397534" lon="10.0747801647">
		<tag k="fixme" v="consider place=hamlet" />
		<tag k="name" v="Skartlia" />
		<tag k="place" v="farm" />
		<tag k="ssr:stedsnr" v="983856" />
	</node>
	<node id="-392593" lat="60.934585972" lon="10.1311282621">
		<tag k="fixme" v="consider place=hamlet" />
		<tag k="name" v="Kinn" />
		<tag k="place" v="farm" />
		<tag k="ssr:stedsnr" v="983952" />
	</node>
	<node id="-392592" lat="60.963433107" lon="10.0178869421">
		<tag k="name" v="Nedre Ullsak" />
		<tag k="place" v="farm" />
		<tag k="ssr:stedsnr" v="982685" />
	</node>
	<node id="-392591" lat="60.8720545682" lon="10.212258093">
		<tag k="historic" v="shieling" />
		<tag k="name" v="Nordgaarden sæter" />
		<tag k="place" v="locality" />
		<tag k="ssr:stedsnr" v="982247" />
	</node>
	<node id="-390542" lat="60.8492777814" lon="10.1880416696">
		<tag k="name" v="Røbergsæter" />
		<tag k="place" v="farm" />
		<tag k="ssr:stedsnr" v="178077" />
	</node>
	<node id="-392589" lat="60.9792885752" lon="9.90544027994">
		<tag k="fixme" v="consider place=hamlet" />
		<tag k="name" v="Gjerddalen" />
		<tag k="place" v="farm" />
		<tag k="ssr:stedsnr" v="978145" />
	</node>
	<node id="-392588" lat="61.0105837257" lon="10.0500709169">
		<tag k="alt_name" v="Fredtun" />
		<tag k="name" v="Hurumsæter" />
		<tag k="place" v="isolated_dwelling" />
		<tag k="ssr:stedsnr" v="976601" />
	</node>
	<node id="-390538" lat="60.8608499971" lon="9.98133611968">
		<tag k="name" v="Øygarden" />
		<tag k="place" v="farm" />
		<tag k="ssr:stedsnr" v="177571" />
	</node>
	<node id="-392584" lat="61.0201916651" lon="10.1026138979">
		<tag k="name" v="Nørdstvoll" />
		<tag k="place" v="farm" />
		<tag k="ssr:stedsnr" v="968327" />
	</node>
	<node id="-390380" lat="60.9857472249" lon="10.0885388799">
		<tag k="name" v="Sørum" />
		<tag k="place" v="farm" />
		<tag k="ssr:stedsnr" v="70308" />
	</node>
	<node id="-392582" lat="60.7792083313" lon="9.92643054719">
		<tag k="name" v="Ulvehiet" />
		<tag k="place" v="locality" />
		<tag k="ssr:stedsnr" v="968323" />
	</node>
	<node id="-390532" lat="61.0426138874" lon="9.87559723017">
		<tag k="historic" v="shieling" />
		<tag k="name" v="Synstølen" />
		<tag k="place" v="locality" />
		<tag k="ssr:stedsnr" v="282122" />
	</node>
	<node id="-390530" lat="60.8505663781" lon="9.93683082364">
		<tag k="name" v="Endrerud" />
		<tag k="place" v="locality" />
		<tag k="ssr:stedsnr" v="299860" />
	</node>
	<node id="-390529" lat="60.8538750006" lon="9.90692777025">
		<tag k="name" v="Flutua" />
		<tag k="place" v="farm" />
		<tag k="ssr:stedsnr" v="299855" />
	</node>
	<node id="-392576" lat="60.7605665006" lon="9.93509941818">
		<tag k="historic" v="shieling" />
		<tag k="name" v="Vestersætra" />
		<tag k="place" v="locality" />
		<tag k="ssr:stedsnr" v="967490" />
	</node>
	<node id="-390525" lat="60.7876523161" lon="10.2000279294">
		<tag k="alt_name" v="Røen, store;Røen" />
		<tag k="fixme" v="consider place=hamlet" />
		<tag k="name" v="Store Røen" />
		<tag k="place" v="farm" />
		<tag k="ssr:stedsnr" v="130623" />
	</node>
	<node id="-390523" lat="60.894375003" lon="10.0458722288">
		<tag k="name" v="Tomte" />
		<tag k="place" v="farm" />
		<tag k="ssr:stedsnr" v="130345" />
	</node>
	<node id="-390522" lat="60.8935777765" lon="10.0663027717">
		<tag k="alt_name" v="Stomlien" />
		<tag k="name" v="Stumlia" />
		<tag k="place" v="farm" />
		<tag k="ssr:stedsnr" v="130342" />
	</node>
	<node id="-390521" lat="60.8942222223" lon="10.0352166629">
		<tag k="name" v="Dumset" />
		<tag k="place" v="farm" />
		<tag k="ssr:stedsnr" v="130340" />
	</node>
	<node id="-390520" lat="60.8888916677" lon="10.0250694446">
		<tag k="name" v="Skolmbakken" />
		<tag k="place" v="isolated_dwelling" />
		<tag k="ssr:stedsnr" v="130336" />
	</node>
	<node id="-390519" lat="60.9611694449" lon="9.97116388433">
		<tag k="name" v="Bukkerud" />
		<tag k="place" v="farm" />
		<tag k="ssr:stedsnr" v="130334" />
	</node>
	<node id="-390518" lat="60.9612501538" lon="10.1240429728">
		<tag k="alt_name" v="Engeset" />
		<tag k="fixme" v="consider place=hamlet" />
		<tag k="name" v="Engset" />
		<tag k="place" v="farm" />
		<tag k="ssr:stedsnr" v="130315" />
	</node>
	<node id="-390515" lat="60.9988415587" lon="9.98684745384">
		<tag k="fixme" v="consider place=hamlet" />
		<tag k="name" v="Koll" />
		<tag k="place" v="farm" />
		<tag k="ssr:stedsnr" v="130133" />
	</node>
	<node id="-390514" lat="60.9962305591" lon="10.0365666705">
		<tag k="name" v="Skredderstugua" />
		<tag k="place" v="farm" />
		<tag k="ssr:stedsnr" v="130132" />
	</node>
	<node id="-390536" lat="61.0333999959" lon="9.83595555648">
		<tag k="name" v="Hugulia" />
		<tag k="ssr:stedsnr" v="282918" />
		<tag k="tourism" v="guest_house" />
	</node>
	<node id="-390509" lat="60.8554554122" lon="9.85872872857">
		<tag k="fixme" v="consider place=hamlet" />
		<tag k="name" v="Kapperud" />
		<tag k="place" v="farm" />
		<tag k="ssr:stedsnr" v="130002" />
	</node>
	<node id="-390508" lat="61.1159235515" lon="9.86782237091">
		<tag k="alt_name" v="Heggenhaugensætra" />
		<tag k="historic" v="shieling" />
		<tag k="name" v="Heggenhaugen" />
		<tag k="place" v="locality" />
		<tag k="ssr:stedsnr" v="129733" />
	</node>
	<node id="-390507" lat="61.1296694426" lon="9.83060276849">
		<tag k="alt_name" v="Sluguasætrene" />
		<tag k="historic" v="shieling" />
		<tag k="name" v="Slugua" />
		<tag k="place" v="locality" />
		<tag k="ssr:stedsnr" v="129721" />
	</node>
	<node id="-390506" lat="61.1248499973" lon="9.80122499088">
		<tag k="historic" v="shieling" />
		<tag k="name" v="Gardsætra" />
		<tag k="place" v="locality" />
		<tag k="ssr:stedsnr" v="129719" />
	</node>
	<node id="-390505" lat="61.1335250007" lon="9.76677777942">
		<tag k="alt_name" v="Lundesætrene" />
		<tag k="historic" v="shieling" />
		<tag k="name" v="Lundsætra" />
		<tag k="old_name" v="Lunde Sr;Lundesæteren" />
		<tag k="place" v="locality" />
		<tag k="ssr:stedsnr" v="129712" />
	</node>
	<node id="-390503" lat="60.8681194422" lon="10.1755194366">
		<tag k="alt_name" v="Ellingsvea" />
		<tag k="name" v="Rognlund" />
		<tag k="place" v="farm" />
		<tag k="ssr:stedsnr" v="129434" />
	</node>
	<node id="-390502" lat="60.8634127983" lon="10.0152938953">
		<tag k="name" v="Loeng" />
		<tag k="place" v="farm" />
		<tag k="ssr:stedsnr" v="129426" />
	</node>
	<node id="-392549" lat="60.7944361122" lon="10.123947216">
		<tag k="name" v="Lindal" />
		<tag k="place" v="farm" />
		<tag k="ssr:stedsnr" v="859640" />
	</node>
	<node id="-392548" lat="60.7951388927" lon="10.1153361059">
		<tag k="name" v="Øverby" />
		<tag k="place" v="locality" />
		<tag k="ssr:stedsnr" v="859639" />
	</node>
	<node id="-392547" lat="60.792527778" lon="10.1277555574">
		<tag k="name" v="Våtsvea" />
		<tag k="place" v="farm" />
		<tag k="ssr:stedsnr" v="859637" />
	</node>
	<node id="-392546" lat="60.8180006256" lon="10.0798151521">
		<tag k="fixme" v="consider place=hamlet" />
		<tag k="name" v="Skjellungen" />
		<tag k="place" v="farm" />
		<tag k="ssr:stedsnr" v="859588" />
	</node>
	<node id="-392543" lat="60.8213416641" lon="10.1963833249">
		<tag k="name" v="Veslehom" />
		<tag k="place" v="farm" />
		<tag k="ssr:stedsnr" v="859550" />
	</node>
	<node id="-392542" lat="60.8389777775" lon="10.0055555573">
		<tag k="name" v="Korsmo" />
		<tag k="place" v="farm" />
		<tag k="ssr:stedsnr" v="859489" />
	</node>
	<node id="-392541" lat="60.8401916694" lon="10.0014749924">
		<tag k="name" v="Lillo" />
		<tag k="place" v="farm" />
		<tag k="ssr:stedsnr" v="859487" />
	</node>
	<node id="-392540" lat="60.8455848199" lon="10.0927842745">
		<tag k="alt_name" v="Røberg" />
		<tag k="fixme" v="consider place=hamlet" />
		<tag k="name" v="Rødberg" />
		<tag k="place" v="farm" />
		<tag k="ssr:stedsnr" v="859480" />
	</node>
	<node id="-392539" lat="60.8349000034" lon="9.8735166674">
		<tag k="name" v="Håkenstad" />
		<tag k="place" v="farm" />
		<tag k="ssr:stedsnr" v="859198" />
	</node>
	<node id="-392538" lat="60.8284444424" lon="9.91904444251">
		<tag k="alt_name" v="Peghaugen" />
		<tag k="name" v="Pikhaugen" />
		<tag k="place" v="farm" />
		<tag k="ssr:stedsnr" v="859193" />
	</node>
	<node id="-392537" lat="60.8270944456" lon="9.79731667526">
		<tag k="alt_name" v="Høljarast" />
		<tag k="name" v="Høljerast" />
		<tag k="place" v="hamlet" />
		<tag k="ssr:stedsnr" v="859186" />
	</node>
	<node id="-390487" lat="60.9181972245" lon="10.0446055497">
		<tag k="name" v="Sveen" />
		<tag k="place" v="hamlet" />
		<tag k="ssr:stedsnr" v="118873" />
	</node>
	<node id="-392534" lat="60.9893250033" lon="10.0734305508">
		<tag k="alt_name" v="Vålhovd, nedre" />
		<tag k="name" v="Nedre Vålhovd" />
		<tag k="place" v="farm" />
		<tag k="ssr:stedsnr" v="859282" />
	</node>
	<node id="-390484" lat="60.8455861115" lon="10.2418583367">
		<tag k="name" v="Puffen" />
		<tag k="place" v="locality" />
		<tag k="ssr:stedsnr" v="117940" />
	</node>
	<node id="-392530" lat="60.8672111105" lon="10.0146194413">
		<tag k="name" v="Nybakke" />
		<tag k="place" v="farm" />
		<tag k="ssr:stedsnr" v="858444" />
	</node>
	<node id="-392529" lat="60.8768194476" lon="10.2048333284">
		<tag k="alt_name" v="Brattsveen" />
		<tag k="name" v="Brattsvea" />
		<tag k="place" v="farm" />
		<tag k="ssr:stedsnr" v="858433" />
	</node>
	<node id="-392527" lat="60.8941555543" lon="10.1746888845">
		<tag k="historic" v="shieling" />
		<tag k="name" v="Gardsætra" />
		<tag k="place" v="locality" />
		<tag k="ssr:stedsnr" v="858393" />
	</node>
	<node id="-392525" lat="60.9185388889" lon="10.042380547">
		<tag k="name" v="Øversvea" />
		<tag k="place" v="farm" />
		<tag k="ssr:stedsnr" v="858487" />
	</node>
	<node id="-392524" lat="60.9177999982" lon="10.0464666631">
		<tag k="name" v="Arnesvea" />
		<tag k="place" v="farm" />
		<tag k="ssr:stedsnr" v="858485" />
	</node>
	<node id="-392523" lat="60.9597222221" lon="10.0711944382">
		<tag k="alt_name" v="Sjåhem" />
		<tag k="name" v="Sjåheim" />
		<tag k="place" v="farm" />
		<tag k="ssr:stedsnr" v="858351" />
	</node>
	<node id="-392522" lat="60.9488296484" lon="10.0775085119">
		<tag k="fixme" v="consider place=hamlet" />
		<tag k="name" v="Felle" />
		<tag k="place" v="farm" />
		<tag k="ssr:stedsnr" v="858289" />
	</node>
	<node id="-390471" lat="60.9959715996" lon="9.9628152546">
		<tag k="fixme" v="consider place=hamlet" />
		<tag k="name" v="Bjørke" />
		<tag k="place" v="farm" />
		<tag k="ssr:stedsnr" v="252958" />
	</node>
	<node id="-392517" lat="61.0231555588" lon="9.94891111261">
		<tag k="name" v="Åsli" />
		<tag k="place" v="farm" />
		<tag k="ssr:stedsnr" v="857397" />
	</node>
	<node id="-392516" lat="61.0175416639" lon="9.93251667434">
		<tag k="name" v="Lia" />
		<tag k="place" v="farm" />
		<tag k="ssr:stedsnr" v="857394" />
	</node>
	<node id="-392515" lat="61.0154138899" lon="9.79487777458">
		<tag k="historic" v="shieling" />
		<tag k="name" v="Ørka" />
		<tag k="place" v="locality" />
		<tag k="ssr:stedsnr" v="857385" />
	</node>
	<node id="-392514" lat="61.0073722189" lon="9.94364999503">
		<tag k="alt_name" v="Finnstugu;Finstuen" />
		<tag k="name" v="Finnstugua" />
		<tag k="place" v="farm" />
		<tag k="ssr:stedsnr" v="857376" />
	</node>
	<node id="-392511" lat="60.9996980493" lon="10.10810606">
		<tag k="alt_name" v="Skinnerlien" />
		<tag k="fixme" v="consider place=hamlet" />
		<tag k="name" v="Skinnerlia" />
		<tag k="place" v="farm" />
		<tag k="ssr:stedsnr" v="857485" />
	</node>
	<node id="-392510" lat="61.0283833309" lon="9.82553334137">
		<tag k="alt_name" v="Dølsveen" />
		<tag k="name" v="Dølsveom" />
		<tag k="place" v="farm" />
		<tag k="ssr:stedsnr" v="857351" />
	</node>
	<node id="-392509" lat="60.994085472" lon="10.0494012751">
		<tag k="fixme" v="consider place=hamlet" />
		<tag k="name" v="Åmot" />
		<tag k="place" v="farm" />
		<tag k="ssr:stedsnr" v="847971" />
	</node>
	<node id="-392508" lat="60.8330333306" lon="9.90054166558">
		<tag k="name" v="Løkken" />
		<tag k="place" v="farm" />
		<tag k="ssr:stedsnr" v="847682" />
	</node>
	<node id="-392507" lat="60.8383611088" lon="9.93671389026">
		<tag k="name" v="Persmoen" />
		<tag k="place" v="farm" />
		<tag k="ssr:stedsnr" v="847674" />
	</node>
	<node id="-390458" lat="60.8292111098" lon="10.0182166599">
		<tag k="name" v="Stubberud" />
		<tag k="place" v="farm" />
		<tag k="ssr:stedsnr" v="252577" />
	</node>
	<node id="-392505" lat="60.9345222187" lon="10.0360249934">
		<tag k="name" v="Nordre Stadsvoll" />
		<tag k="place" v="farm" />
		<tag k="ssr:stedsnr" v="847634" />
	</node>
	<node id="-390456" lat="60.8227888895" lon="10.06363333">
		<tag k="alt_name" v="Bjørke" />
		<tag k="name" v="Søndre Bjørke" />
		<tag k="place" v="farm" />
		<tag k="ssr:stedsnr" v="252559" />
	</node>
	<node id="-392502" lat="60.8452805592" lon="10.1103666677">
		<tag k="name" v="Fjeldhaug" />
		<tag k="place" v="isolated_dwelling" />
		<tag k="ssr:stedsnr" v="847424" />
	</node>
	<node id="-390453" lat="60.8478111127" lon="10.2034638916">
		<tag k="name" v="Myre" />
		<tag k="place" v="farm" />
		<tag k="ssr:stedsnr" v="252475" />
	</node>
	<node id="-390452" lat="60.8390638906" lon="9.97112500576">
		<tag k="name" v="Øyom" />
		<tag k="place" v="farm" />
		<tag k="ssr:stedsnr" v="252469" />
	</node>
	<node id="-390451" lat="60.8373777766" lon="10.0163416645">
		<tag k="alt_name" v="Nøss" />
		<tag k="name" v="Nøssgård" />
		<tag k="place" v="locality" />
		<tag k="ssr:stedsnr" v="252455" />
	</node>
	<node id="-390450" lat="60.8350472196" lon="10.0958277865">
		<tag k="name" v="Braskerud" />
		<tag k="place" v="farm" />
		<tag k="ssr:stedsnr" v="252452" />
	</node>
	<node id="-390449" lat="60.9706055598" lon="10.0899777829">
		<tag k="alt_name" v="Grønvoll Bruk" />
		<tag k="building" v="industrial" />
		<tag k="industrial" v="factory" />
		<tag k="name" v="Grønvoll" />
		<tag k="ssr:stedsnr" v="252306" />
	</node>
	<node id="-392495" lat="60.8366444408" lon="9.85176665917">
		<tag k="name" v="Gråbeinrud" />
		<tag k="place" v="farm" />
		<tag k="ssr:stedsnr" v="847203" />
	</node>
	<node id="-390446" lat="60.9934361096" lon="10.1508999929">
		<tag k="historic" v="shieling" />
		<tag k="name" v="Vinjarsætra" />
		<tag k="place" v="locality" />
		<tag k="ssr:stedsnr" v="252290" />
	</node>
	<node id="-392492" lat="60.8380000025" lon="10.0304000089">
		<tag k="name" v="Hovde" />
		<tag k="place" v="isolated_dwelling" />
		<tag k="ssr:stedsnr" v="847068" />
	</node>
	<node id="-390443" lat="60.7589999994" lon="9.93626944334">
		<tag k="alt_name" v="Skøiensætra" />
		<tag k="historic" v="shieling" />
		<tag k="name" v="Bjørkesætra" />
		<tag k="place" v="locality" />
		<tag k="ssr:stedsnr" v="252145" />
	</node>
	<node id="-390441" lat="60.7611583343" lon="9.93353610629">
		<tag k="historic" v="shieling" />
		<tag k="name" v="Haugsætra" />
		<tag k="place" v="locality" />
		<tag k="ssr:stedsnr" v="252128" />
	</node>
	<node id="-390439" lat="60.8360972231" lon="9.86354445264">
		<tag k="name" v="Flata" />
		<tag k="place" v="farm" />
		<tag k="ssr:stedsnr" v="252025" />
	</node>
	<node id="-390438" lat="60.8396694423" lon="9.86757778551">
		<tag k="name" v="Støa" />
		<tag k="place" v="farm" />
		<tag k="ssr:stedsnr" v="252024" />
	</node>
	<node id="-392484" lat="60.8526760143" lon="9.97520441397">
		<tag k="fixme" v="consider place=hamlet" />
		<tag k="name" v="Hogne" />
		<tag k="place" v="farm" />
		<tag k="ssr:stedsnr" v="846006" />
	</node>
	<node id="-392482" lat="60.9276000033" lon="9.89843333646">
		<tag k="name" v="Lahytta" />
		<tag k="place" v="locality" />
		<tag k="ssr:stedsnr" v="845828" />
	</node>
	<node id="-392481" lat="60.943199999" lon="10.0070138946">
		<tag k="name" v="Øverhaugen" />
		<tag k="place" v="farm" />
		<tag k="ssr:stedsnr" v="845807" />
	</node>
	<node id="-390431" lat="60.9327861079" lon="10.0879666677">
		<tag k="name" v="Nyland" />
		<tag k="place" v="farm" />
		<tag k="ssr:stedsnr" v="251464" />
	</node>
	<node id="-390429" lat="60.8652277748" lon="10.0484194392">
		<tag k="alt_name" v="Brateng" />
		<tag k="name" v="Bratteng" />
		<tag k="place" v="farm" />
		<tag k="ssr:stedsnr" v="251443" />
	</node>
	<node id="-392476" lat="60.8552555568" lon="10.0054416612">
		<tag k="alt_name" v="Søndre Jensvoll" />
		<tag k="name" v="Søre Jensvoll" />
		<tag k="place" v="farm" />
		<tag k="ssr:stedsnr" v="845599" />
	</node>
	<node id="-390427" lat="60.8731499998" lon="10.0908916691">
		<tag k="historic" v="shieling" />
		<tag k="name" v="Lerretsdalen" />
		<tag k="place" v="locality" />
		<tag k="ssr:stedsnr" v="251424" />
	</node>
	<node id="-390426" lat="60.9505027765" lon="10.1389444417">
		<tag k="fixme" v="consider place=hamlet" />
		<tag k="name" v="Aust-Torpa" />
		<tag k="place" v="village" />
		<tag k="ssr:stedsnr" v="251383" />
	</node>
	<node id="-390425" lat="60.9642333289" lon="10.1050722245">
		<tag k="name" v="Steinsvoll" />
		<tag k="place" v="locality" />
		<tag k="ssr:stedsnr" v="251374" />
	</node>
	<node id="-392472" lat="60.9329027817" lon="10.1567611031">
		<tag k="name" v="Øvre Brenner" />
		<tag k="place" v="farm" />
		<tag k="ssr:stedsnr" v="845556" />
	</node>
	<node id="-390423" lat="60.9364733948" lon="10.155092753">
		<tag k="fixme" v="consider place=hamlet" />
		<tag k="name" v="Kjennsjord" />
		<tag k="place" v="farm" />
		<tag k="ssr:stedsnr" v="251343" />
	</node>
	<node id="-392397" lat="61.0253861138" lon="9.97235000379">
		<tag k="alt_name" v="Strøm, nordre" />
		<tag k="name" v="Nordre Strøm" />
		<tag k="place" v="farm" />
		<tag k="ssr:stedsnr" v="795231" />
	</node>
	<node id="-390419" lat="60.8783722222" lon="9.84541943697">
		<tag k="alt_name" v="Søndre Lier" />
		<tag k="name" v="Lierjordet" />
		<tag k="place" v="farm" />
		<tag k="ssr:stedsnr" v="251111" />
	</node>
	<node id="-392464" lat="60.8183555575" lon="10.1102416624">
		<tag k="name" v="Nordre Aurlund" />
		<tag k="place" v="farm" />
		<tag k="ssr:stedsnr" v="829143" />
	</node>
	<node id="-390415" lat="60.8513528553" lon="9.89998873027">
		<tag k="fixme" v="consider place=hamlet" />
		<tag k="name" v="Tomle" />
		<tag k="place" v="farm" />
		<tag k="ssr:stedsnr" v="251061" />
	</node>
	<node id="-390414" lat="60.8451638856" lon="9.95010556453">
		<tag k="alt_name" v="Esbjug, øvre" />
		<tag k="name" v="Øvre Esbjug" />
		<tag k="place" v="farm" />
		<tag k="ssr:stedsnr" v="251057" />
	</node>
	<node id="-390411" lat="60.8554694445" lon="9.84100277021">
		<tag k="alt_name" v="Lillehaug;Haug" />
		<tag k="name" v="Veslehaug" />
		<tag k="place" v="farm" />
		<tag k="ssr:stedsnr" v="251006" />
	</node>
	<node id="-390410" lat="60.7473361155" lon="9.85018611474">
		<tag k="name" v="Bardalshytta" />
		<tag k="place" v="isolated_dwelling" />
		<tag k="ssr:stedsnr" v="250785" />
	</node>
	<node id="-390359" lat="61.0260555515" lon="10.0814250043">
		<tag k="name" v="Framnes" />
		<tag k="place" v="farm" />
		<tag k="ssr:stedsnr" v="240329" />
	</node>
	<node id="-392455" lat="60.9701194485" lon="9.90574721514">
		<tag k="alt_name" v="Tollefsrudsætra" />
		<tag k="historic" v="shieling" />
		<tag k="name" v="Tolleivsrudsætra" />
		<tag k="place" v="locality" />
		<tag k="ssr:stedsnr" v="798936" />
	</node>
	<node id="-392454" lat="60.9655638847" lon="9.85382777298">
		<tag k="alt_name" v="Nysæter" />
		<tag k="historic" v="shieling" />
		<tag k="name" v="Nysætra" />
		<tag k="place" v="locality" />
		<tag k="ssr:stedsnr" v="798934" />
	</node>
	<node id="-392453" lat="60.9173555533" lon="9.90526388786">
		<tag k="alt_name" v="Hognsætrene" />
		<tag k="historic" v="shieling" />
		<tag k="name" v="Hognsætra" />
		<tag k="place" v="locality" />
		<tag k="ssr:stedsnr" v="798893" />
	</node>
	<node id="-390403" lat="61.0708333348" lon="9.92383611936">
		<tag k="historic" v="shieling" />
		<tag k="name" v="Åssætra" />
		<tag k="place" v="locality" />
		<tag k="ssr:stedsnr" v="250632" />
	</node>
	<node id="-390401" lat="61.0260361095" lon="9.84216389169">
		<tag k="alt_name" v="Undlien" />
		<tag k="name" v="Undelia" />
		<tag k="place" v="farm" />
		<tag k="ssr:stedsnr" v="250330" />
	</node>
	<node id="-390400" lat="61.0245277759" lon="9.8816500089">
		<tag k="alt_name" v="Kampelien" />
		<tag k="name" v="Kampelia" />
		<tag k="place" v="farm" />
		<tag k="ssr:stedsnr" v="250322" />
	</node>
	<node id="-392446" lat="60.7996750035" lon="10.119733336">
		<tag k="name" v="Sandåker" />
		<tag k="place" v="farm" />
		<tag k="ssr:stedsnr" v="798538" />
	</node>
	<node id="-392445" lat="60.8015606896" lon="10.1080402299">
		<tag k="fixme" v="multiple name tags, choose one and add the other to alt_name; consider place=hamlet" />
		<tag k="name" v="Kverndalskroken;Åvella" />
		<tag k="place" v="village" />
		<tag k="ssr:stedsnr" v="798537" />
	</node>
	<node id="-390395" lat="61.0185805522" lon="10.0875916585">
		<tag k="name" v="Tangen" />
		<tag k="place" v="farm" />
		<tag k="ssr:stedsnr" v="249201" />
	</node>
	<node id="-392442" lat="60.8550305539" lon="9.96897222869">
		<tag k="alt_name" v="Bergum" />
		<tag k="name" v="Bergom" />
		<tag k="place" v="farm" />
		<tag k="ssr:stedsnr" v="798513" />
	</node>
	<node id="-392441" lat="60.8594333297" lon="9.99443611576">
		<tag k="name" v="Hauglund" />
		<tag k="place" v="farm" />
		<tag k="ssr:stedsnr" v="798512" />
	</node>
	<node id="-390392" lat="61.0276638853" lon="10.0768527685">
		<tag k="alt_name" v="Skartlia, s;Søndre Skartlia" />
		<tag k="name" v="Søre Skartlia" />
		<tag k="place" v="farm" />
		<tag k="ssr:stedsnr" v="249188" />
	</node>
	<node id="-392439" lat="60.8429055562" lon="10.167269448">
		<tag k="name" v="Sverud" />
		<tag k="place" v="farm" />
		<tag k="ssr:stedsnr" v="798478" />
	</node>
	<node id="-392438" lat="60.8380249972" lon="10.1373805505">
		<tag k="alt_name" v="Kolstad" />
		<tag k="name" v="Kollstad" />
		<tag k="place" v="farm" />
		<tag k="ssr:stedsnr" v="798473" />
	</node>
	<node id="-392437" lat="60.840741668" lon="10.0169833338">
		<tag k="name" v="Søndre Ankaltrud" />
		<tag k="place" v="farm" />
		<tag k="ssr:stedsnr" v="798464" />
	</node>
	<node id="-392436" lat="60.8972638863" lon="9.97200277264">
		<tag k="historic" v="shieling" />
		<tag k="name" v="Bondlisætra" />
		<tag k="place" v="locality" />
		<tag k="ssr:stedsnr" v="798454" />
	</node>
	<node id="-392434" lat="60.9817888926" lon="10.1092111062">
		<tag k="name" v="Bjertnes" />
		<tag k="place" v="farm" />
		<tag k="ssr:stedsnr" v="798295" />
	</node>
	<node id="-392433" lat="60.9755273779" lon="10.0565228895">
		<tag k="fixme" v="consider place=hamlet" />
		<tag k="name" v="Skogstad" />
		<tag k="place" v="farm" />
		<tag k="ssr:stedsnr" v="798288" />
	</node>
	<node id="-390384" lat="60.8587083312" lon="9.97458610439">
		<tag k="name" v="Nordhaug" />
		<tag k="place" v="farm" />
		<tag k="ssr:stedsnr" v="70530" />
	</node>
	<node id="-390383" lat="60.8513311665" lon="10.0361940766">
		<tag k="alt_name" v="Lie" />
		<tag k="fixme" v="consider place=hamlet" />
		<tag k="name" v="Li" />
		<tag k="place" v="farm" />
		<tag k="ssr:stedsnr" v="70518" />
	</node>
	<node id="-390382" lat="60.8464472808" lon="10.0779893682">
		<tag k="alt_name" v="Grangård" />
		<tag k="fixme" v="consider place=hamlet" />
		<tag k="name" v="Granngard" />
		<tag k="place" v="farm" />
		<tag k="ssr:stedsnr" v="70513" />
	</node>
	<node id="-392428" lat="60.812800002" lon="9.89982778542">
		<tag k="alt_name" v="Engerjordet" />
		<tag k="name" v="Engejordet" />
		<tag k="place" v="farm" />
		<tag k="ssr:stedsnr" v="798225" />
	</node>
	<node id="-390379" lat="60.8371666701" lon="9.8581777813">
		<tag k="name" v="Jemtland" />
		<tag k="place" v="farm" />
		<tag k="ssr:stedsnr" v="70034" />
	</node>
	<node id="-390377" lat="60.8972666692" lon="10.0390666581">
		<tag k="name" v="Voll" />
		<tag k="place" v="isolated_dwelling" />
		<tag k="ssr:stedsnr" v="69527" />
	</node>
	<node id="-390376" lat="60.9088666638" lon="10.1576944443">
		<tag k="historic" v="shieling" />
		<tag k="name" v="Hovdelia" />
		<tag k="place" v="locality" />
		<tag k="ssr:stedsnr" v="69521" />
	</node>
	<node id="-390375" lat="60.9209555572" lon="10.0647277777">
		<tag k="name" v="Søndre Erstad" />
		<tag k="place" v="farm" />
		<tag k="ssr:stedsnr" v="69508" />
	</node>
	<node id="-390374" lat="60.936971304" lon="10.0256230606">
		<tag k="name" v="Granngard" />
		<tag k="place" v="farm" />
		<tag k="ssr:stedsnr" v="69311" />
	</node>
	<node id="-392420" lat="60.958694447" lon="10.1351472183">
		<tag k="alt_name" v="Opperud" />
		<tag k="name" v="Opprud" />
		<tag k="place" v="farm" />
		<tag k="ssr:stedsnr" v="797351" />
	</node>
	<node id="-392417" lat="60.9051495815" lon="10.0559758845">
		<tag k="alt_name" v="Hullet" />
		<tag k="name" v="Holet" />
		<tag k="place" v="locality" />
		<tag k="ssr:stedsnr" v="797475" />
	</node>
	<node id="-392416" lat="60.9224000014" lon="10.0320277803">
		<tag k="name" v="Sagbakken" />
		<tag k="place" v="farm" />
		<tag k="ssr:stedsnr" v="797468" />
	</node>
	<node id="-390367" lat="60.961119447" lon="10.1169333348">
		<tag k="name" v="Nordheim" />
		<tag k="place" v="farm" />
		<tag k="ssr:stedsnr" v="240570" />
	</node>
	<node id="-392413" lat="60.938522747" lon="10.1315691582">
		<tag k="alt_name" v="Presterud" />
		<tag k="fixme" v="consider place=hamlet" />
		<tag k="name" v="Prestrud" />
		<tag k="place" v="farm" />
		<tag k="ssr:stedsnr" v="797302" />
	</node>
	<node id="-390364" lat="60.8852250036" lon="10.0391055547">
		<tag k="name" v="Skomdalen" />
		<tag k="place" v="isolated_dwelling" />
		<tag k="ssr:stedsnr" v="240453" />
	</node>
	<node id="-392411" lat="60.9367083355" lon="10.085886108">
		<tag k="name" v="Granvoll" />
		<tag k="place" v="farm" />
		<tag k="ssr:stedsnr" v="797272" />
	</node>
	<node id="-392410" lat="60.9412166701" lon="10.0867027842">
		<tag k="name" v="Enger" />
		<tag k="place" v="farm" />
		<tag k="ssr:stedsnr" v="797271" />
	</node>
	<node id="-390351" lat="60.8244777797" lon="10.0982444518">
		<tag k="name" v="Vestheim" />
		<tag k="place" v="isolated_dwelling" />
		<tag k="ssr:stedsnr" v="240149" />
	</node>
	<node id="-392407" lat="61.0145888876" lon="10.0000638874">
		<tag k="name" v="Goplum" />
		<tag k="place" v="farm" />
		<tag k="ssr:stedsnr" v="796234" />
	</node>
	<node id="-392406" lat="61.0348305519" lon="10.0726666656">
		<tag k="name" v="Klettan" />
		<tag k="place" v="locality" />
		<tag k="ssr:stedsnr" v="796200" />
	</node>
	<node id="-392404" lat="61.0331222227" lon="10.0320027853">
		<tag k="name" v="Heimsætra" />
		<tag k="place" v="farm" />
		<tag k="ssr:stedsnr" v="796184" />
	</node>
	<node id="-392400" lat="61.0598916643" lon="10.102011104">
		<tag k="historic" v="shieling" />
		<tag k="name" v="Sollisætra" />
		<tag k="place" v="locality" />
		<tag k="ssr:stedsnr" v="795088" />
	</node>
	<node id="-392399" lat="61.0589194443" lon="10.0029972236">
		<tag k="historic" v="shieling" />
		<tag k="name" v="Øversætra" />
		<tag k="place" v="locality" />
		<tag k="ssr:stedsnr" v="795085" />
	</node>
	<node id="-392398" lat="61.0210805546" lon="10.0189916575">
		<tag k="alt_name" v="Ljøsbrenna" />
		<tag k="name" v="Ljosbrenna" />
		<tag k="place" v="farm" />
		<tag k="ssr:stedsnr" v="795243" />
	</node>
	<node id="-390349" lat="60.8374861138" lon="10.0268694478">
		<tag k="alt_name" v="Søndre Kolterud" />
		<tag k="name" v="Søre Kolterud" />
		<tag k="place" v="farm" />
		<tag k="ssr:stedsnr" v="240054" />
	</node>
	<node id="-390348" lat="60.8469361071" lon="10.0816055562">
		<tag k="alt_name" v="Søndre Gårder" />
		<tag k="name" v="Søre Gårder" />
		<tag k="place" v="farm" />
		<tag k="ssr:stedsnr" v="240017" />
	</node>
	<node id="-390346" lat="60.7588249958" lon="10.0015055511">
		<tag k="name" v="Fleshytta" />
		<tag k="place" v="locality" />
		<tag k="ssr:stedsnr" v="239600" />
	</node>
	<node id="-392393" lat="60.8530399835" lon="10.0014413549">
		<tag k="fixme" v="consider place=hamlet" />
		<tag k="name" v="Midtre Tyndrum" />
		<tag k="place" v="farm" />
		<tag k="ssr:stedsnr" v="788525" />
	</node>
	<node id="-390344" lat="60.847386111" lon="10.1796722241">
		<tag k="name" v="Holt" />
		<tag k="place" v="locality" />
		<tag k="ssr:stedsnr" v="239088" />
	</node>
	<node id="-392391" lat="60.8595849294" lon="10.1887018585">
		<tag k="name" v="Solberg" />
		<tag k="place" v="farm" />
		<tag k="ssr:stedsnr" v="786692" />
	</node>
	<node id="-391211" lat="60.8275138868" lon="9.94070000171">
		<tag k="alt_name" v="Søndre Knutsli" />
		<tag k="name" v="Søre Knutsli" />
		<tag k="place" v="farm" />
		<tag k="ssr:stedsnr" v="908796" />
	</node>
	<node id="-392389" lat="60.9257944427" lon="10.0580277759">
		<tag k="name" v="Harstad" />
		<tag k="place" v="hamlet" />
		<tag k="ssr:stedsnr" v="786898" />
	</node>
	<node id="-390340" lat="60.8508542251" lon="9.93981745488">
		<tag k="fixme" v="consider place=hamlet" />
		<tag k="name" v="Dårud" />
		<tag k="place" v="farm" />
		<tag k="ssr:stedsnr" v="238861" />
	</node>
	<node id="-392387" lat="60.8203055564" lon="10.0714027851">
		<tag k="alt_name" v="Søndre Kolbjørnshus" />
		<tag k="name" v="Søre Kolbjørnshus" />
		<tag k="place" v="farm" />
		<tag k="ssr:stedsnr" v="786802" />
	</node>
	<node id="-390338" lat="60.9407055517" lon="10.0044999946">
		<tag k="name" v="Nordby" />
		<tag k="place" v="farm" />
		<tag k="ssr:stedsnr" v="238780" />
	</node>
	<node id="-392383" lat="60.768213885" lon="9.82072778403">
		<tag k="historic" v="shieling" />
		<tag k="name" v="Nedre Våvålsætra" />
		<tag k="place" v="locality" />
		<tag k="ssr:stedsnr" v="786299" />
	</node>
	<node id="-392382" lat="61.1454444478" lon="9.85268056221">
		<tag k="historic" v="shieling" />
		<tag k="name" v="Goplensætra" />
		<tag k="place" v="locality" />
		<tag k="ssr:stedsnr" v="786254" />
	</node>
	<node id="-390333" lat="60.9352944416" lon="10.146919443">
		<tag k="name" v="Parthaugen" />
		<tag k="place" v="farm" />
		<tag k="ssr:stedsnr" v="238546" />
	</node>
	<node id="-392380" lat="60.8243333355" lon="10.1006861059">
		<tag k="name" v="Fagerli" />
		<tag k="place" v="isolated_dwelling" />
		<tag k="ssr:stedsnr" v="786135" />
	</node>
	<node id="-392394" lat="60.949716664" lon="10.0760277802">
		<tag k="name" v="Nordre Felle" />
		<tag k="place" v="farm" />
		<tag k="ssr:stedsnr" v="788925" />
	</node>
	<node id="-390329" lat="60.7901305601" lon="10.1686916628">
		<tag k="name" v="Høytomt" />
		<tag k="old_name" v="Høitomt" />
		<tag k="place" v="farm" />
		<tag k="ssr:stedsnr" v="238268" />
	</node>
	<node id="-392376" lat="60.8476000037" lon="10.0859527701">
		<tag k="name" v="Nystuen" />
		<tag k="place" v="farm" />
		<tag k="ssr:stedsnr" v="786025" />
	</node>
	<node id="-392375" lat="60.8587944416" lon="10.0797055592">
		<tag k="name" v="Aure Ødegården" />
		<tag k="place" v="locality" />
		<tag k="ssr:stedsnr" v="786009" />
	</node>
	<node id="-392373" lat="60.8519749957" lon="10.0095916628">
		<tag k="building" v="commercial" />
		<tag k="name" v="Svingstad" />
		<tag k="ssr:stedsnr" v="785047" />
	</node>
	<node id="-392372" lat="60.8504166682" lon="10.009027775">
		<tag k="alt_name" v="Jensvoldenga" />
		<tag k="name" v="Jensvålenga" />
		<tag k="place" v="farm" />
		<tag k="ssr:stedsnr" v="785044" />
	</node>
	<node id="-392371" lat="60.852319447" lon="9.99226388746">
		<tag k="name" v="Haugli" />
		<tag k="place" v="farm" />
		<tag k="ssr:stedsnr" v="785016" />
	</node>
	<node id="-390320" lat="61.0039999975" lon="9.96326110251">
		<tag k="amenity" v="school" />
		<tag k="name" v="Granvang" />
		<tag k="ssr:stedsnr" v="54121" />
	</node>
	<node id="-392365" lat="61.0674055591" lon="10.0788500026">
		<tag k="name" v="Øvre Torget" />
		<tag k="place" v="locality" />
		<tag k="ssr:stedsnr" v="784816" />
	</node>
	<node id="-392362" lat="60.9461666623" lon="9.98357222666">
		<tag k="name" v="Nordgarda" />
		<tag k="place" v="hamlet" />
		<tag k="ssr:stedsnr" v="784790" />
	</node>
	<node id="-390343" lat="60.8496305578" lon="9.99659721414">
		<tag k="name" v="Nedre Sogn" />
		<tag k="place" v="farm" />
		<tag k="ssr:stedsnr" v="239048" />
	</node>
	<node id="-390309" lat="60.9682472266" lon="9.92224443849">
		<tag k="name" v="Myrdal" />
		<tag k="place" v="locality" />
		<tag k="ssr:stedsnr" v="236275" />
	</node>
	<node id="-392356" lat="60.7868083311" lon="9.9767194413">
		<tag k="name" v="Sjøhytta" />
		<tag k="place" v="locality" />
		<tag k="ssr:stedsnr" v="784514" />
	</node>
	<node id="-390303" lat="60.9458333291" lon="9.9635361101">
		<tag k="alt_name" v="Sætra, nedre;Sæteren" />
		<tag k="name" v="Nedre Sætra" />
		<tag k="place" v="farm" />
		<tag k="ssr:stedsnr" v="10927" />
	</node>
	<node id="-392350" lat="61.0547972239" lon="10.0890527789">
		<tag k="historic" v="shieling" />
		<tag k="name" v="Frøyslandssætra" />
		<tag k="old_name" v="Frøislandsætra" />
		<tag k="place" v="locality" />
		<tag k="ssr:stedsnr" v="784037" />
	</node>
	<node id="-392349" lat="61.0015000016" lon="10.004680559">
		<tag k="amenity" v="school" />
		<tag k="name" v="Helgerud leirskole" />
		<tag k="ssr:stedsnr" v="782723" />
	</node>
	<node id="-392348" lat="61.010619441" lon="9.9855111128">
		<tag k="name" v="Nordengen" />
		<tag k="place" v="farm" />
		<tag k="ssr:stedsnr" v="782721" />
	</node>
	<node id="-392347" lat="60.8385534473" lon="9.77611280787">
		<tag k="historic" v="shieling" />
		<tag k="name" v="Øysætra" />
		<tag k="place" v="locality" />
		<tag k="ssr:stedsnr" v="782587" />
	</node>
	<node id="-390298" lat="60.8160305543" lon="10.0903249949">
		<tag k="alt_name" v="Sagstuen" />
		<tag k="name" v="Sagstugua" />
		<tag k="place" v="farm" />
		<tag k="ssr:stedsnr" v="9605" />
	</node>
	<node id="-390297" lat="60.8178083288" lon="10.0588000083">
		<tag k="name" v="Sjåheim" />
		<tag k="place" v="farm" />
		<tag k="ssr:stedsnr" v="9604" />
	</node>
	<node id="-390296" lat="60.9641472182" lon="10.0654499974">
		<tag k="name" v="Sæter" />
		<tag k="place" v="farm" />
		<tag k="ssr:stedsnr" v="9326" />
	</node>
	<node id="-390391" lat="61.0233194489" lon="10.0976166685">
		<tag k="name" v="Bjørkeli" />
		<tag k="place" v="farm" />
		<tag k="ssr:stedsnr" v="249183" />
	</node>
	<node id="-392337" lat="60.7956837843" lon="10.1165769914">
		<tag k="name" v="Tranby" />
		<tag k="place" v="farm" />
		<tag k="ssr:stedsnr" v="737661" />
	</node>
	<node id="-392336" lat="60.7971749973" lon="10.1175749984">
		<tag k="alt_name" v="Hansesvea" />
		<tag k="name" v="Hanssvea" />
		<tag k="place" v="farm" />
		<tag k="ssr:stedsnr" v="737660" />
	</node>
	<node id="-392335" lat="60.7952999998" lon="10.1238666624">
		<tag k="name" v="Haugen" />
		<tag k="place" v="farm" />
		<tag k="ssr:stedsnr" v="737659" />
	</node>
	<node id="-392386" lat="60.8028305538" lon="9.91749999688">
		<tag k="name" v="Håmothytta" />
		<tag k="place" v="isolated_dwelling" />
		<tag k="ssr:stedsnr" v="786344" />
	</node>
	<node id="-390282" lat="60.94126389" lon="10.0214749971">
		<tag k="name" v="Høytomt" />
		<tag k="place" v="farm" />
		<tag k="ssr:stedsnr" v="8318" />
	</node>
	<node id="-392328" lat="60.8207249961" lon="9.97378054957">
		<tag k="name" v="Dørstaden" />
		<tag k="place" v="farm" />
		<tag k="ssr:stedsnr" v="737596" />
	</node>
	<node id="-390277" lat="60.7387138893" lon="9.84018334077">
		<tag k="name" v="Austmanli" />
		<tag k="place" v="isolated_dwelling" />
		<tag k="ssr:stedsnr" v="221520" />
	</node>
	<node id="-392324" lat="60.8119935129" lon="10.1005853712">
		<tag k="fixme" v="consider place=hamlet" />
		<tag k="name" v="Berg" />
		<tag k="place" v="farm" />
		<tag k="ssr:stedsnr" v="737586" />
	</node>
	<node id="-392322" lat="60.8608138856" lon="10.0671805539">
		<tag k="fixme" v="multiple name tags, choose one and add the other to alt_name" />
		<tag k="name" v="Dal;Vestre Gjevle" />
		<tag k="place" v="farm" />
		<tag k="ssr:stedsnr" v="737549" />
	</node>
	<node id="-392321" lat="60.8535347924" lon="10.010534484">
		<tag k="fixme" v="consider place=hamlet" />
		<tag k="name" v="Dæli" />
		<tag k="place" v="farm" />
		<tag k="ssr:stedsnr" v="737536" />
	</node>
	<node id="-392320" lat="60.855616347" lon="10.0185331962">
		<tag k="fixme" v="consider place=hamlet" />
		<tag k="name" v="Vinjar" />
		<tag k="place" v="farm" />
		<tag k="ssr:stedsnr" v="737534" />
	</node>
	<node id="-392319" lat="60.8560861147" lon="10.1642333256">
		<tag k="fixme" v="multiple name tags, choose one and add the other to alt_name" />
		<tag k="name" v="Vollen;Øvre Skjaksætra" />
		<tag k="old_name" v="Skjakkssætra" />
		<tag k="place" v="locality" />
		<tag k="ssr:stedsnr" v="737525" />
	</node>
	<node id="-392317" lat="60.9035867281" lon="10.0825681091">
		<tag k="name" v="Skogen" />
		<tag k="place" v="farm" />
		<tag k="ssr:stedsnr" v="737470" />
	</node>
	<node id="-392316" lat="60.8881621742" lon="10.0388072133">
		<tag k="fixme" v="consider place=hamlet" />
		<tag k="name" v="Skolmen" />
		<tag k="place" v="farm" />
		<tag k="ssr:stedsnr" v="737378" />
	</node>
	<node id="-392314" lat="60.9513083375" lon="9.97293054888">
		<tag k="alt_name" v="Søndre Smedsrud" />
		<tag k="name" v="Smedsrudenga" />
		<tag k="place" v="farm" />
		<tag k="ssr:stedsnr" v="737350" />
	</node>
	<node id="-390335" lat="61.0174888917" lon="9.92587500504">
		<tag k="name" v="Liabygda" />
		<tag k="place" v="hamlet" />
		<tag k="ssr:stedsnr" v="238631" />
	</node>
	<node id="-392312" lat="60.9603194447" lon="10.0636805646">
		<tag k="name" v="Breien" />
		<tag k="place" v="farm" />
		<tag k="ssr:stedsnr" v="737331" />
	</node>
	<node id="-392311" lat="60.98018611" lon="10.1128527734">
		<tag k="name" v="Vinjarhågån" />
		<tag k="place" v="farm" />
		<tag k="ssr:stedsnr" v="737326" />
	</node>
	<node id="-392310" lat="60.9692722187" lon="10.0122166654">
		<tag k="alt_name" v="Vasslien" />
		<tag k="name" v="Vasslia" />
		<tag k="place" v="farm" />
		<tag k="ssr:stedsnr" v="737313" />
	</node>
	<node id="-392309" lat="60.9679638878" lon="10.0214500013">
		<tag k="name" v="Ullsakhaugen" />
		<tag k="place" v="farm" />
		<tag k="ssr:stedsnr" v="737312" />
	</node>
	<node id="-392307" lat="60.9363722182" lon="10.1699138929">
		<tag k="name" v="Espeli" />
		<tag k="place" v="farm" />
		<tag k="ssr:stedsnr" v="737288" />
	</node>
	<node id="-392305" lat="60.9475611132" lon="10.1253166726">
		<tag k="name" v="Haugtun" />
		<tag k="place" v="farm" />
		<tag k="ssr:stedsnr" v="737255" />
	</node>
	<node id="-392304" lat="60.8122472189" lon="9.92433332515">
		<tag k="alt_name" v="Nøssvollen" />
		<tag k="name" v="Nøssvoll" />
		<tag k="place" v="farm" />
		<tag k="ssr:stedsnr" v="737222" />
	</node>
	<node id="-392303" lat="60.8293316743" lon="9.91137759494">
		<tag k="fixme" v="consider place=hamlet" />
		<tag k="name" v="Ulimoen" />
		<tag k="place" v="farm" />
		<tag k="ssr:stedsnr" v="737198" />
	</node>
	<node id="-392301" lat="60.8361888845" lon="9.91978054707">
		<tag k="name" v="Svendhaugen" />
		<tag k="place" v="farm" />
		<tag k="ssr:stedsnr" v="737028" />
	</node>
	<node id="-392300" lat="60.8360692289" lon="9.90857935323">
		<tag k="fixme" v="consider place=hamlet" />
		<tag k="name" v="Tomlevoll" />
		<tag k="place" v="farm" />
		<tag k="ssr:stedsnr" v="737026" />
	</node>
	<node id="-392292" lat="61.113133332" lon="9.87305278343">
		<tag k="historic" v="shieling" />
		<tag k="name" v="Bjørkesætra" />
		<tag k="place" v="locality" />
		<tag k="ssr:stedsnr" v="736666" />
	</node>
	<node id="-392379" lat="60.8391722229" lon="10.0224166668">
		<tag k="name" v="Lengeropp" />
		<tag k="place" v="hamlet" />
		<tag k="ssr:stedsnr" v="786064" />
	</node>
	<node id="-392288" lat="60.8611583363" lon="10.1812805481">
		<tag k="alt_name" v="Spikkersveen" />
		<tag k="name" v="Spikersvea" />
		<tag k="place" v="farm" />
		<tag k="ssr:stedsnr" v="736431" />
	</node>
	<node id="-390457" lat="60.827777778" lon="10.0469361202">
		<tag k="alt_name" v="Barsok" />
		<tag k="name" v="Barsåk" />
		<tag k="place" v="farm" />
		<tag k="ssr:stedsnr" v="252575" />
	</node>
	<node id="-392273" lat="60.9904819706" lon="9.91758406073">
		<tag k="fixme" v="consider place=hamlet" />
		<tag k="name" v="Skjørlia" />
		<tag k="place" v="farm" />
		<tag k="ssr:stedsnr" v="616778" />
	</node>
	<node id="-392271" lat="60.8530388863" lon="10.103936117">
		<tag k="name" v="Bakken" />
		<tag k="place" v="farm" />
		<tag k="ssr:stedsnr" v="616541" />
	</node>
	<node id="-392270" lat="60.8520416625" lon="10.1406027796">
		<tag k="alt_name" v="Brattlien" />
		<tag k="name" v="Brattlia" />
		<tag k="place" v="farm" />
		<tag k="ssr:stedsnr" v="616521" />
	</node>
	<node id="-392267" lat="60.9735416677" lon="10.0479555577">
		<tag k="name" v="Haukedalen" />
		<tag k="place" v="farm" />
		<tag k="ssr:stedsnr" v="616313" />
	</node>
	<node id="-392263" lat="60.8500916689" lon="10.0200777708">
		<tag k="alt_name" v="Vinjarengen" />
		<tag k="name" v="Vinjarenga" />
		<tag k="place" v="farm" />
		<tag k="ssr:stedsnr" v="615540" />
	</node>
	<node id="-392262" lat="60.8446777767" lon="10.0446916751">
		<tag k="alt_name" v="Nygård" />
		<tag k="name" v="Nygard" />
		<tag k="place" v="farm" />
		<tag k="ssr:stedsnr" v="615537" />
	</node>
	<node id="-392261" lat="60.8517144899" lon="10.0857163755">
		<tag k="name" v="Skjak" />
		<tag k="old_name" v="Skjåk" />
		<tag k="place" v="hamlet" />
		<tag k="ssr:stedsnr" v="615534" />
	</node>
	<node id="-392259" lat="60.8474055543" lon="10.2219361096">
		<tag k="name" v="Hallmyra" />
		<tag k="place" v="locality" />
		<tag k="ssr:stedsnr" v="615517" />
	</node>
	<node id="-392258" lat="60.8475138882" lon="10.1087694358">
		<tag k="name" v="Nybakken" />
		<tag k="place" v="farm" />
		<tag k="ssr:stedsnr" v="615511" />
	</node>
	<node id="-392256" lat="60.8432713878" lon="10.1768549114">
		<tag k="alt_name" v="Skinnerud" />
		<tag k="name" v="Nordre Skinnerud" />
		<tag k="place" v="farm" />
		<tag k="ssr:stedsnr" v="615506" />
	</node>
	<node id="-392255" lat="60.8334138893" lon="10.0873777799">
		<tag k="name" v="Mostad" />
		<tag k="place" v="farm" />
		<tag k="ssr:stedsnr" v="615481" />
	</node>
	<node id="-392254" lat="60.9283980742" lon="10.1628634203">
		<tag k="alt_name" v="Væler" />
		<tag k="fixme" v="consider place=hamlet" />
		<tag k="name" v="Væle" />
		<tag k="place" v="farm" />
		<tag k="ssr:stedsnr" v="615443" />
	</node>
	<node id="-392253" lat="60.9307833295" lon="10.0856666627">
		<tag k="alt_name" v="Stensrud" />
		<tag k="name" v="Steinsrud" />
		<tag k="place" v="farm" />
		<tag k="ssr:stedsnr" v="615437" />
	</node>
	<node id="-392249" lat="60.956005557" lon="10.1205388982">
		<tag k="name" v="Solhaug" />
		<tag k="place" v="farm" />
		<tag k="ssr:stedsnr" v="615337" />
	</node>
	<node id="-392248" lat="60.9547666649" lon="10.1184805519">
		<tag k="name" v="Olstad" />
		<tag k="place" v="farm" />
		<tag k="ssr:stedsnr" v="615329" />
	</node>
	<node id="-392247" lat="60.9637583315" lon="10.1114472239">
		<tag k="name" v="Langset" />
		<tag k="place" v="farm" />
		<tag k="ssr:stedsnr" v="615320" />
	</node>
	<node id="-392246" lat="60.9892222187" lon="10.0872166738">
		<tag k="alt_name" v="Hagaset" />
		<tag k="name" v="Hågåset" />
		<tag k="place" v="farm" />
		<tag k="ssr:stedsnr" v="615300" />
	</node>
	<node id="-392245" lat="60.9381611101" lon="9.98330000568">
		<tag k="name" v="Vestvoll" />
		<tag k="place" v="farm" />
		<tag k="ssr:stedsnr" v="615268" />
	</node>
	<node id="-392235" lat="60.8271277789" lon="9.81550555494">
		<tag k="name" v="Kasenborg" />
		<tag k="place" v="farm" />
		<tag k="ssr:stedsnr" v="615197" />
	</node>
	<node id="-392234" lat="60.838963892" lon="9.88908332822">
		<tag k="alt_name" v="Nystuen" />
		<tag k="name" v="Nystugu" />
		<tag k="place" v="farm" />
		<tag k="ssr:stedsnr" v="615035" />
	</node>
	<node id="-392233" lat="60.8645694404" lon="9.8998833322">
		<tag k="alt_name" v="Sørbønsveen" />
		<tag k="name" v="Sørbøsvea" />
		<tag k="place" v="farm" />
		<tag k="ssr:stedsnr" v="615019" />
	</node>
	<node id="-392229" lat="61.1372333296" lon="9.78387222898">
		<tag k="historic" v="shieling" />
		<tag k="name" v="Nysætra" />
		<tag k="place" v="locality" />
		<tag k="ssr:stedsnr" v="614722" />
	</node>
	<node id="-392227" lat="61.1131000025" lon="9.90603054635">
		<tag k="alt_name" v="Synnsætra, s;Søndre Synnsætra;Synnsætra" />
		<tag k="historic" v="shieling" />
		<tag k="name" v="Søre Synnsætra" />
		<tag k="place" v="locality" />
		<tag k="ssr:stedsnr" v="614682" />
	</node>
	<node id="-392226" lat="61.0427888895" lon="9.96586389001">
		<tag k="historic" v="shieling" />
		<tag k="name" v="Nysætra" />
		<tag k="place" v="locality" />
		<tag k="ssr:stedsnr" v="614667" />
	</node>
	<node id="-392225" lat="61.0555194463" lon="9.95580556041">
		<tag k="historic" v="shieling" />
		<tag k="name" v="Rønningen" />
		<tag k="place" v="locality" />
		<tag k="ssr:stedsnr" v="614666" />
	</node>
	<node id="-392224" lat="61.0269472204" lon="9.787780562">
		<tag k="alt_name" v="Munkhattsætra" />
		<tag k="historic" v="shieling" />
		<tag k="name" v="Munkhatten" />
		<tag k="place" v="locality" />
		<tag k="ssr:stedsnr" v="614325" />
	</node>
	<node id="-392222" lat="61.0013925376" lon="10.0655437613">
		<tag k="alt_name" v="Sollien" />
		<tag k="fixme" v="consider place=hamlet" />
		<tag k="name" v="Sollia" />
		<tag k="place" v="farm" />
		<tag k="ssr:stedsnr" v="614256" />
	</node>
	<node id="-392221" lat="61.0014250015" lon="10.0906083396">
		<tag k="name" v="Brurud" />
		<tag k="place" v="farm" />
		<tag k="ssr:stedsnr" v="614251" />
	</node>
	<node id="-392212" lat="61.025947222" lon="10.0835500041">
		<tag k="name" v="Berg" />
		<tag k="place" v="farm" />
		<tag k="ssr:stedsnr" v="613198" />
	</node>
	<node id="-392208" lat="60.7946416692" lon="10.1189388932">
		<tag k="name" v="Vestli" />
		<tag k="place" v="farm" />
		<tag k="ssr:stedsnr" v="604733" />
	</node>
	<node id="-392207" lat="60.8334583372" lon="9.99535834173">
		<tag k="name" v="Rundhaug" />
		<tag k="place" v="farm" />
		<tag k="ssr:stedsnr" v="604683" />
	</node>
	<node id="-392206" lat="60.8362388921" lon="9.97004166714">
		<tag k="name" v="Rønningen" />
		<tag k="place" v="farm" />
		<tag k="ssr:stedsnr" v="604667" />
	</node>
	<node id="-392205" lat="60.8312611104" lon="9.97687777591">
		<tag k="name" v="Skogstadvollen" />
		<tag k="place" v="locality" />
		<tag k="ssr:stedsnr" v="604659" />
	</node>
	<node id="-392204" lat="60.831561115" lon="9.96899723094">
		<tag k="name" v="Kamphaug" />
		<tag k="place" v="isolated_dwelling" />
		<tag k="ssr:stedsnr" v="604657" />
	</node>
	<node id="-392201" lat="61.024458333" lon="10.0868666619">
		<tag k="name" v="Gjerdbakken" />
		<tag k="place" v="farm" />
		<tag k="ssr:stedsnr" v="604320" />
	</node>
	<node id="-392199" lat="60.9436722227" lon="10.1191083244">
		<tag k="name" v="Solstad" />
		<tag k="place" v="farm" />
		<tag k="ssr:stedsnr" v="603939" />
	</node>
	<node id="-392198" lat="60.9473416709" lon="10.0788638906">
		<tag k="name" v="Søre Felle" />
		<tag k="place" v="farm" />
		<tag k="ssr:stedsnr" v="603921" />
	</node>
	<node id="-392196" lat="60.8825750004" lon="10.0427611159">
		<tag k="name" v="Nordre Brudalen" />
		<tag k="place" v="farm" />
		<tag k="ssr:stedsnr" v="603398" />
	</node>
	<node id="-392443" lat="60.8514388851" lon="9.98380832633">
		<tag k="name" v="Skili" />
		<tag k="place" v="locality" />
		<tag k="ssr:stedsnr" v="798514" />
	</node>
	<node id="-392186" lat="60.8654250021" lon="9.95811111568">
		<tag k="alt_name" v="Søndre Bratterud;Søre Bratterud" />
		<tag k="name" v="Søre Brattrud" />
		<tag k="place" v="farm" />
		<tag k="ssr:stedsnr" v="602873" />
	</node>
	<node id="-392184" lat="60.846716669" lon="9.91905277306">
		<tag k="name" v="Vestre Rusten" />
		<tag k="place" v="farm" />
		<tag k="ssr:stedsnr" v="602867" />
	</node>
	<node id="-392181" lat="60.9354000025" lon="10.1291138825">
		<tag k="name" v="Nordre Kinn" />
		<tag k="place" v="farm" />
		<tag k="ssr:stedsnr" v="602521" />
	</node>
	<node id="-392176" lat="61.0006916659" lon="9.94613332915">
		<tag k="name" v="Nedre Fossum" />
		<tag k="place" v="farm" />
		<tag k="ssr:stedsnr" v="602252" />
	</node>
	<node id="-392171" lat="61.0065805548" lon="9.9616388862">
		<tag k="name" v="Nordre Åsen" />
		<tag k="place" v="farm" />
		<tag k="ssr:stedsnr" v="600144" />
	</node>
	<node id="-392160" lat="60.9886536615" lon="9.92726831388">
		<tag k="alt_name" v="Nordre Jørandli" />
		<tag k="fixme" v="consider place=hamlet" />
		<tag k="name" v="Jøronlia" />
		<tag k="place" v="farm" />
		<tag k="ssr:stedsnr" v="555748" />
	</node>
	<node id="-392159" lat="60.9897944427" lon="9.91046667038">
		<tag k="alt_name" v="Berg" />
		<tag k="name" v="Nordheim" />
		<tag k="place" v="farm" />
		<tag k="ssr:stedsnr" v="555747" />
	</node>
	<node id="-392157" lat="60.7912055512" lon="10.1576722169">
		<tag k="name" v="Rønningen" />
		<tag k="place" v="farm" />
		<tag k="ssr:stedsnr" v="555637" />
	</node>
	<node id="-392156" lat="60.8148213593" lon="10.0942910295">
		<tag k="fixme" v="consider place=hamlet" />
		<tag k="name" v="Mælum" />
		<tag k="place" v="farm" />
		<tag k="ssr:stedsnr" v="555545" />
	</node>
	<node id="-392155" lat="60.8182861078" lon="10.1261444486">
		<tag k="name" v="Andersgård" />
		<tag k="place" v="farm" />
		<tag k="ssr:stedsnr" v="555535" />
	</node>
	<node id="-392154" lat="60.8546209132" lon="10.0053530811">
		<tag k="fixme" v="consider place=hamlet" />
		<tag k="name" v="Jensvål" />
		<tag k="place" v="farm" />
		<tag k="ssr:stedsnr" v="555492" />
	</node>
	<node id="-392153" lat="60.8448110732" lon="10.2041894897">
		<tag k="name" v="Svensrud" />
		<tag k="place" v="farm" />
		<tag k="ssr:stedsnr" v="555473" />
	</node>
	<node id="-392151" lat="60.8272010134" lon="10.0707171112">
		<tag k="alt_name" v="Stenseng" />
		<tag k="fixme" v="consider place=hamlet" />
		<tag k="name" v="Steinseng" />
		<tag k="place" v="farm" />
		<tag k="ssr:stedsnr" v="555587" />
	</node>
	<node id="-392150" lat="60.8273001372" lon="10.1870075979">
		<tag k="fixme" v="consider place=hamlet" />
		<tag k="name" v="Hom" />
		<tag k="place" v="farm" />
		<tag k="ssr:stedsnr" v="555557" />
	</node>
	<node id="-392148" lat="60.8334435606" lon="9.77449549251">
		<tag k="fixme" v="consider place=hamlet" />
		<tag k="name" v="Øymoen" />
		<tag k="place" v="farm" />
		<tag k="ssr:stedsnr" v="555166" />
	</node>
	<node id="-392144" lat="60.9924333352" lon="10.0434749949">
		<tag k="alt_name" v="Nedre Åmot" />
		<tag k="name" v="Åmot" />
		<tag k="place" v="farm" />
		<tag k="ssr:stedsnr" v="555262" />
	</node>
	<node id="-392143" lat="61.1222277807" lon="9.88056388327">
		<tag k="alt_name" v="Synnsætra, nordre" />
		<tag k="historic" v="shieling" />
		<tag k="name" v="Nordre Synnsætra" />
		<tag k="place" v="locality" />
		<tag k="ssr:stedsnr" v="554744" />
	</node>
	<node id="-392141" lat="60.9378583377" lon="10.0460444399">
		<tag k="alt_name" v="Solly" />
		<tag k="name" v="Solli" />
		<tag k="place" v="farm" />
		<tag k="ssr:stedsnr" v="554310" />
	</node>
	<node id="-392140" lat="60.9487861117" lon="10.1651277702">
		<tag k="alt_name" v="Skaug" />
		<tag k="name" v="Skog" />
		<tag k="place" v="locality" />
		<tag k="ssr:stedsnr" v="554293" />
	</node>
	<node id="-392139" lat="60.9508205829" lon="9.96884907251">
		<tag k="fixme" v="consider place=hamlet" />
		<tag k="name" v="Smedsrud" />
		<tag k="place" v="farm" />
		<tag k="ssr:stedsnr" v="554269" />
	</node>
	<node id="-392138" lat="60.9453999994" lon="10.0093861094">
		<tag k="name" v="Åsen" />
		<tag k="place" v="farm" />
		<tag k="ssr:stedsnr" v="554267" />
	</node>
	<node id="-392134" lat="60.9538083295" lon="10.0819805465">
		<tag k="alt_name" v="Sidselstuen" />
		<tag k="name" v="Sisselstugua" />
		<tag k="place" v="farm" />
		<tag k="ssr:stedsnr" v="554376" />
	</node>
	<node id="-392131" lat="60.8517333349" lon="9.86267778672">
		<tag k="alt_name" v="Granli" />
		<tag k="name" v="Granly" />
		<tag k="place" v="farm" />
		<tag k="ssr:stedsnr" v="554043" />
	</node>
	<node id="-392130" lat="60.8735750009" lon="9.92266111745">
		<tag k="alt_name" v="Bronheimsætra" />
		<tag k="historic" v="shieling" />
		<tag k="name" v="Brunheimsætra" />
		<tag k="place" v="locality" />
		<tag k="ssr:stedsnr" v="554024" />
	</node>
	<node id="-392128" lat="60.8566722247" lon="9.83370833997">
		<tag k="alt_name" v="Stuve, nedre" />
		<tag k="name" v="Nedre Stuve" />
		<tag k="place" v="farm" />
		<tag k="ssr:stedsnr" v="554006" />
	</node>
	<node id="-392125" lat="60.9031638845" lon="9.84690277557">
		<tag k="historic" v="shieling" />
		<tag k="name" v="Baggerudsætra" />
		<tag k="place" v="locality" />
		<tag k="ssr:stedsnr" v="554068" />
	</node>
	<node id="-392124" lat="60.9024472226" lon="9.96760832617">
		<tag k="alt_name" v="Jensvollsætra" />
		<tag k="historic" v="shieling" />
		<tag k="name" v="Jensvalsætra" />
		<tag k="place" v="locality" />
		<tag k="ssr:stedsnr" v="554058" />
	</node>
	<node id="-392123" lat="60.8550861134" lon="9.9573416636">
		<tag k="name" v="Solli" />
		<tag k="place" v="farm" />
		<tag k="ssr:stedsnr" v="554052" />
	</node>
	<node id="-392122" lat="60.7458861147" lon="9.8308694419">
		<tag k="alt_name" v="Vestmanli" />
		<tag k="name" v="Vestmannli" />
		<tag k="place" v="isolated_dwelling" />
		<tag k="ssr:stedsnr" v="553792" />
	</node>
	<node id="-392119" lat="61.088236111" lon="9.89705000013">
		<tag k="alt_name" v="Røste Strangsætra" />
		<tag k="historic" v="shieling" />
		<tag k="name" v="Strangsætra" />
		<tag k="place" v="locality" />
		<tag k="ssr:stedsnr" v="553692" />
	</node>
	<node id="-392116" lat="61.0120277761" lon="9.84549166813">
		<tag k="alt_name" v="Sannerud" />
		<tag k="name" v="Sanderud" />
		<tag k="place" v="farm" />
		<tag k="ssr:stedsnr" v="553348" />
	</node>
	<node id="-392115" lat="61.0169387476" lon="9.89486093796">
		<tag k="fixme" v="consider place=hamlet" />
		<tag k="name" v="Nørdstelia" />
		<tag k="place" v="farm" />
		<tag k="ssr:stedsnr" v="553361" />
	</node>
	<node id="-392114" lat="61.0135777798" lon="9.89742222753">
		<tag k="name" v="Lundheim" />
		<tag k="place" v="farm" />
		<tag k="ssr:stedsnr" v="553346" />
	</node>
	<node id="-392113" lat="61.0105861152" lon="9.91757222804">
		<tag k="name" v="Skogland" />
		<tag k="place" v="farm" />
		<tag k="ssr:stedsnr" v="553343" />
	</node>
	<node id="-392112" lat="61.0190000002" lon="9.82118333929">
		<tag k="fixme" v="multiple name tags, choose one and add the other to alt_name" />
		<tag k="name" v="Ørkesveom;Sveom" />
		<tag k="place" v="farm" />
		<tag k="ssr:stedsnr" v="553299" />
	</node>
	<node id="-392110" lat="61.0007290141" lon="9.99390423688">
		<tag k="fixme" v="consider place=hamlet" />
		<tag k="name" v="Øystad" />
		<tag k="place" v="farm" />
		<tag k="ssr:stedsnr" v="553223" />
	</node>
	<node id="-392109" lat="61.0056416655" lon="9.97988332617">
		<tag k="name" v="Tåjet" />
		<tag k="place" v="farm" />
		<tag k="ssr:stedsnr" v="553221" />
	</node>
	<node id="-392108" lat="61.0130250043" lon="10.0183277831">
		<tag k="name" v="Nyhus" />
		<tag k="place" v="farm" />
		<tag k="ssr:stedsnr" v="553215" />
	</node>
	<node id="-392107" lat="61.0090277267" lon="10.0239006457">
		<tag k="fixme" v="consider place=hamlet" />
		<tag k="name" v="Myre" />
		<tag k="place" v="farm" />
		<tag k="ssr:stedsnr" v="553211" />
	</node>
	<node id="-392106" lat="61.0070527822" lon="10.0658888856">
		<tag k="name" v="Hanssvea" />
		<tag k="place" v="farm" />
		<tag k="ssr:stedsnr" v="553206" />
	</node>
	<node id="-390300" lat="60.8280583306" lon="10.0386499919">
		<tag k="alt_name" v="Nordre Tomte" />
		<tag k="name" v="Tomte" />
		<tag k="place" v="farm" />
		<tag k="ssr:stedsnr" v="9614" />
	</node>
	<node id="-392100" lat="61.0156101299" lon="9.98693242117">
		<tag k="alt_name" v="Aspegården" />
		<tag k="fixme" v="consider place=hamlet" />
		<tag k="name" v="Ospegarden" />
		<tag k="place" v="farm" />
		<tag k="ssr:stedsnr" v="552232" />
	</node>
	<node id="-392099" lat="61.0234194417" lon="10.0821500035">
		<tag k="alt_name" v="Bækk" />
		<tag k="name" v="Bekk" />
		<tag k="place" v="farm" />
		<tag k="ssr:stedsnr" v="552224" />
	</node>
	<node id="-392098" lat="61.0228972186" lon="9.97514166587">
		<tag k="alt_name" v="Strøm, s;Søndre Strøm" />
		<tag k="name" v="Søre Strøm" />
		<tag k="place" v="farm" />
		<tag k="ssr:stedsnr" v="552212" />
	</node>
	<node id="-390299" lat="60.8264916685" lon="10.0578166702">
		<tag k="alt_name" v="Åmotstuen" />
		<tag k="name" v="Åmotsstugua" />
		<tag k="place" v="farm" />
		<tag k="ssr:stedsnr" v="9613" />
	</node>
	<node id="-392096" lat="60.8515714595" lon="10.0042717938">
		<tag k="fixme" v="consider place=hamlet" />
		<tag k="name" v="Nedre Tyndrum" />
		<tag k="place" v="farm" />
		<tag k="ssr:stedsnr" v="545499" />
	</node>
	<node id="-392093" lat="60.9382027793" lon="10.1213527754">
		<tag k="alt_name" v="Søndre Finni" />
		<tag k="name" v="Søre Finni" />
		<tag k="place" v="farm" />
		<tag k="ssr:stedsnr" v="543929" />
	</node>
	<node id="-392090" lat="60.8638638905" lon="10.0191527695">
		<tag k="name" v="Søreng" />
		<tag k="place" v="farm" />
		<tag k="ssr:stedsnr" v="543342" />
	</node>
	<node id="-392086" lat="60.8208305541" lon="9.86655278251">
		<tag k="name" v="Hyttegjerdet" />
		<tag k="place" v="locality" />
		<tag k="ssr:stedsnr" v="543213" />
	</node>
	<node id="-392085" lat="60.8351583331" lon="9.88873888627">
		<tag k="name" v="Dalastugu" />
		<tag k="place" v="locality" />
		<tag k="ssr:stedsnr" v="543212" />
	</node>
	<node id="-392082" lat="60.8374277764" lon="10.0403888845">
		<tag k="amenity" v="nursing_home" />
		<tag k="name" v="Graner" />
		<tag k="ssr:stedsnr" v="543031" />
	</node>
	<node id="-392077" lat="60.8489555531" lon="10.0087055499">
		<tag k="name" v="Tøllerud" />
		<tag k="place" v="isolated_dwelling" />
		<tag k="ssr:stedsnr" v="542043" />
	</node>
	<node id="-392074" lat="60.8439194405" lon="10.18072222">
		<tag k="alt_name" v="Søndre Skinnerud" />
		<tag k="name" v="Søre Skinnerud" />
		<tag k="place" v="farm" />
		<tag k="ssr:stedsnr" v="541091" />
	</node>
	<node id="-392071" lat="60.9602527744" lon="9.81287221798">
		<tag k="name" v="Rykkinn" />
		<tag k="place" v="locality" />
		<tag k="ssr:stedsnr" v="540899" />
	</node>
	<node id="-392068" lat="61.0008000036" lon="9.97625832761">
		<tag k="name" v="Haugetun" />
		<tag k="place" v="isolated_dwelling" />
		<tag k="ssr:stedsnr" v="540140" />
	</node>
	<node id="-392063" lat="60.8472333369" lon="9.90366665803">
		<tag k="name" v="Rognstad" />
		<tag k="place" v="farm" />
		<tag k="ssr:stedsnr" v="525046" />
	</node>
	<node id="-392061" lat="60.9488999999" lon="9.80726666243">
		<tag k="name" v="Steinhytta" />
		<tag k="place" v="isolated_dwelling" />
		<tag k="ssr:stedsnr" v="524677" />
	</node>
	<node id="-392060" lat="61.0117805528" lon="9.85902499969">
		<tag k="name" v="Myreng" />
		<tag k="place" v="locality" />
		<tag k="ssr:stedsnr" v="524883" />
	</node>
	<node id="-392057" lat="60.7614111143" lon="9.8161861118">
		<tag k="name" v="Skålvasshytta" />
		<tag k="place" v="isolated_dwelling" />
		<tag k="ssr:stedsnr" v="524491" />
	</node>
	<node id="-392055" lat="60.9760527796" lon="9.84545278393">
		<tag k="name" v="Osvollen" />
		<tag k="place" v="locality" />
		<tag k="ssr:stedsnr" v="434990" />
	</node>
	<node id="-392053" lat="60.9705027807" lon="9.90082499298">
		<tag k="alt_name" v="Nordsætra" />
		<tag k="historic" v="shieling" />
		<tag k="name" v="Erstadsætra" />
		<tag k="place" v="locality" />
		<tag k="ssr:stedsnr" v="434939" />
	</node>
	<node id="-392049" lat="60.9239833292" lon="9.81816387996">
		<tag k="alt_name" v="Nordre Bronsætra" />
		<tag k="historic" v="shieling" />
		<tag k="name" v="Brunsætra" />
		<tag k="place" v="locality" />
		<tag k="ssr:stedsnr" v="434891" />
	</node>
	<node id="-392043" lat="60.821686112" lon="10.1276055578">
		<tag k="name" v="Lyseng" />
		<tag k="place" v="farm" />
		<tag k="ssr:stedsnr" v="434599" />
	</node>
	<node id="-392042" lat="60.8182694433" lon="9.98549167246">
		<tag k="alt_name" v="Bråten" />
		<tag k="name" v="Bråtån" />
		<tag k="place" v="farm" />
		<tag k="ssr:stedsnr" v="434597" />
	</node>
	<node id="-392041" lat="60.8252194468" lon="10.0583805512">
		<tag k="name" v="Veslejordet" />
		<tag k="place" v="farm" />
		<tag k="ssr:stedsnr" v="434593" />
	</node>
	<node id="-392039" lat="60.8167862392" lon="10.1164363003">
		<tag k="name" v="Aurlund" />
		<tag k="place" v="hamlet" />
		<tag k="ssr:stedsnr" v="434558" />
	</node>
	<node id="-392037" lat="60.8581500044" lon="10.0406750043">
		<tag k="name" v="Bondlijordet" />
		<tag k="place" v="farm" />
		<tag k="ssr:stedsnr" v="434529" />
	</node>
	<node id="-392036" lat="60.7976111146" lon="10.0223749918">
		<tag k="alt_name" v="Mælumsætra" />
		<tag k="historic" v="shieling" />
		<tag k="name" v="Mælumssætra" />
		<tag k="place" v="locality" />
		<tag k="ssr:stedsnr" v="434655" />
	</node>
	<node id="-392035" lat="60.8442577253" lon="10.0713119664">
		<tag k="fixme" v="consider place=hamlet" />
		<tag k="name" v="Rud" />
		<tag k="place" v="farm" />
		<tag k="ssr:stedsnr" v="434501" />
	</node>
	<node id="-392033" lat="60.8456944486" lon="10.1759638919">
		<tag k="name" v="Skinnerudsvea" />
		<tag k="place" v="farm" />
		<tag k="ssr:stedsnr" v="434473" />
	</node>
	<node id="-392032" lat="60.8345361091" lon="10.037186109">
		<tag k="alt_name" v="Søndre Røste" />
		<tag k="name" v="Røste" />
		<tag k="place" v="farm" />
		<tag k="ssr:stedsnr" v="434464" />
	</node>
	<node id="-392031" lat="60.8056250018" lon="9.84316944478">
		<tag k="alt_name" v="Håkensætra" />
		<tag k="historic" v="shieling" />
		<tag k="name" v="Håkenstadsætra" />
		<tag k="place" v="locality" />
		<tag k="ssr:stedsnr" v="434200" />
	</node>
	<node id="-392029" lat="60.8192083354" lon="9.96489165987">
		<tag k="name" v="Haugen" />
		<tag k="place" v="farm" />
		<tag k="ssr:stedsnr" v="434178" />
	</node>
	<node id="-392028" lat="60.8278250026" lon="9.94260278364">
		<tag k="alt_name" v="Øvre Ulvshusli" />
		<tag k="name" v="Ulvshuslia" />
		<tag k="place" v="farm" />
		<tag k="ssr:stedsnr" v="434174" />
	</node>
	<node id="-392027" lat="60.9989083331" lon="10.1192027827">
		<tag k="name" v="Granli" />
		<tag k="place" v="farm" />
		<tag k="ssr:stedsnr" v="434154" />
	</node>
	<node id="-392024" lat="60.9955999985" lon="10.0903361048">
		<tag k="alt_name" v="Hagen" />
		<tag k="name" v="Hågån" />
		<tag k="place" v="farm" />
		<tag k="ssr:stedsnr" v="434283" />
	</node>
	<node id="-392022" lat="60.9949361098" lon="10.1962694357">
		<tag k="alt_name" v="Frøsakersætra" />
		<tag k="historic" v="shieling" />
		<tag k="name" v="Finndalssætra" />
		<tag k="place" v="locality" />
		<tag k="ssr:stedsnr" v="434264" />
	</node>
	<node id="-392021" lat="61.144133331" lon="9.72652499626">
		<tag k="name" v="Leikvamlæger" />
		<tag k="place" v="isolated_dwelling" />
		<tag k="ssr:stedsnr" v="433755" />
	</node>
	<node id="-392020" lat="61.130474996" lon="9.92669167095">
		<tag k="historic" v="shieling" />
		<tag k="name" v="Kvannlia" />
		<tag k="place" v="locality" />
		<tag k="ssr:stedsnr" v="433723" />
	</node>
	<node id="-392019" lat="61.1289555545" lon="9.87220554947">
		<tag k="alt_name" v="Spåtind" />
		<tag k="name" v="Spåtind høyfjellshotell" />
		<tag k="old_name" v="Spåtind hotell" />
		<tag k="ssr:stedsnr" v="433721" />
		<tag k="tourism" v="hotel" />
	</node>
	<node id="-392015" lat="60.8776222209" lon="10.0374222142">
		<tag k="fixme" v="multiple name tags, choose one and add the other to alt_name" />
		<tag k="name" v="Sveom;Helgerudsveom" />
		<tag k="place" v="farm" />
		<tag k="ssr:stedsnr" v="433379" />
	</node>
	<node id="-392014" lat="61.0347055548" lon="9.81934999987">
		<tag k="alt_name" v="Svendstad" />
		<tag k="name" v="Svenstad" />
		<tag k="place" v="farm" />
		<tag k="ssr:stedsnr" v="433326" />
	</node>
	<node id="-392013" lat="61.0355999982" lon="9.9295666691">
		<tag k="name" v="Langhaugen" />
		<tag k="place" v="locality" />
		<tag k="ssr:stedsnr" v="433321" />
	</node>
	<node id="-392011" lat="60.9398855192" lon="10.1157830596">
		<tag k="fixme" v="consider place=hamlet" />
		<tag k="name" v="Finni" />
		<tag k="place" v="farm" />
		<tag k="ssr:stedsnr" v="433307" />
	</node>
	<node id="-392010" lat="60.9411194463" lon="10.1577777714">
		<tag k="alt_name" v="Bakken, nordre;Søndre Bakken" />
		<tag k="name" v="Nordre Bakken" />
		<tag k="place" v="farm" />
		<tag k="ssr:stedsnr" v="433302" />
	</node>
	<node id="-392009" lat="60.9431388874" lon="9.98002778368">
		<tag k="name" v="Sterud" />
		<tag k="place" v="farm" />
		<tag k="ssr:stedsnr" v="433290" />
	</node>
	<node id="-392008" lat="60.9387583343" lon="10.0222861167">
		<tag k="name" v="Grønnerud" />
		<tag k="old_name" v="Brønnerud" />
		<tag k="place" v="farm" />
		<tag k="ssr:stedsnr" v="433284" />
	</node>
	<node id="-392007" lat="60.9318472181" lon="10.120205551">
		<tag k="alt_name" v="Finsrud" />
		<tag k="name" v="Finnsrud" />
		<tag k="place" v="farm" />
		<tag k="ssr:stedsnr" v="433278" />
	</node>
	<node id="-392006" lat="60.9461055518" lon="10.1321527703">
		<tag k="name" v="Hågån" />
		<tag k="place" v="farm" />
		<tag k="ssr:stedsnr" v="433267" />
	</node>
	<node id="-392005" lat="60.9427166659" lon="10.1205888906">
		<tag k="name" v="Haugli" />
		<tag k="place" v="farm" />
		<tag k="ssr:stedsnr" v="433263" />
	</node>
	<node id="-392003" lat="60.9131305567" lon="10.0073861132">
		<tag k="name" v="Slåtten" />
		<tag k="place" v="locality" />
		<tag k="ssr:stedsnr" v="433473" />
	</node>
	<node id="-392002" lat="60.9243944449" lon="10.0649916613">
		<tag k="alt_name" v="Solås" />
		<tag k="name" v="Smedsrud" />
		<tag k="place" v="farm" />
		<tag k="ssr:stedsnr" v="433442" />
	</node>
	<node id="-392001" lat="60.9480749983" lon="9.97161389269">
		<tag k="name" v="Bekkevoll" />
		<tag k="place" v="farm" />
		<tag k="ssr:stedsnr" v="433243" />
	</node>
	<node id="-392000" lat="60.8510281061" lon="9.84430317297">
		<tag k="alt_name" v="Nørstebøen" />
		<tag k="fixme" v="consider place=hamlet" />
		<tag k="name" v="Nørdstebøen" />
		<tag k="place" v="farm" />
		<tag k="ssr:stedsnr" v="433063" />
	</node>
	<node id="-391999" lat="60.850861112" lon="9.9078166738">
		<tag k="alt_name" v="Nedre Tomle" />
		<tag k="name" v="Tomlehagan" />
		<tag k="place" v="farm" />
		<tag k="ssr:stedsnr" v="433052" />
	</node>
	<node id="-391998" lat="61.0115833293" lon="9.99549166788">
		<tag k="alt_name" v="Brattlia, nedre" />
		<tag k="name" v="Nedre Brattlia" />
		<tag k="place" v="farm" />
		<tag k="ssr:stedsnr" v="432198" />
	</node>
	<node id="-392289" lat="61.0733138848" lon="9.92242499223">
		<tag k="historic" v="shieling" />
		<tag k="name" v="Øystadsætra" />
		<tag k="place" v="locality" />
		<tag k="ssr:stedsnr" v="736619" />
	</node>
	<node id="-392330" lat="60.8265249988" lon="10.0279888847">
		<tag k="alt_name" v="Lien" />
		<tag k="name" v="Lia" />
		<tag k="place" v="farm" />
		<tag k="ssr:stedsnr" v="737617" />
	</node>
	<node id="-391994" lat="61.0669666624" lon="10.0597833356">
		<tag k="name" v="Saltstut" />
		<tag k="place" v="locality" />
		<tag k="ssr:stedsnr" v="431068" />
	</node>
	<node id="-391993" lat="61.0613611118" lon="10.0688083256">
		<tag k="name" v="Torget" />
		<tag k="place" v="isolated_dwelling" />
		<tag k="ssr:stedsnr" v="431066" />
	</node>
	<node id="-391992" lat="61.0188333293" lon="9.90911387971">
		<tag k="name" v="Holet" />
		<tag k="place" v="farm" />
		<tag k="ssr:stedsnr" v="424083" />
	</node>
	<node id="-391991" lat="61.0049805535" lon="10.0264833416">
		<tag k="name" v="Moen" />
		<tag k="place" v="hamlet" />
		<tag k="ssr:stedsnr" v="423970" />
	</node>
	<node id="-391984" lat="60.8307638896" lon="9.92124444563">
		<tag k="name" v="Sagenga" />
		<tag k="place" v="farm" />
		<tag k="ssr:stedsnr" v="422664" />
	</node>
	<node id="-391983" lat="60.8414666643" lon="9.95459722737">
		<tag k="name" v="Granheim" />
		<tag k="place" v="isolated_dwelling" />
		<tag k="ssr:stedsnr" v="422650" />
	</node>
	<node id="-391981" lat="60.7777944431" lon="9.88854444428">
		<tag k="name" v="Smørvik" />
		<tag k="place" v="isolated_dwelling" />
		<tag k="ssr:stedsnr" v="422286" />
	</node>
	<node id="-391975" lat="60.8334222209" lon="10.0925916732">
		<tag k="name" v="Tonlia" />
		<tag k="place" v="quarter" />
		<tag k="ssr:stedsnr" v="422118" />
	</node>
	<node id="-391971" lat="60.8280555552" lon="10.0309444459">
		<tag k="name" v="Mortenstuen" />
		<tag k="place" v="farm" />
		<tag k="ssr:stedsnr" v="422047" />
	</node>
	<node id="-391968" lat="60.9336138917" lon="10.1566749986">
		<tag k="building" v="commercial" />
		<tag k="name" v="Pina" />
		<tag k="ssr:stedsnr" v="421498" />
	</node>
	<node id="-391967" lat="60.9357472188" lon="10.1328555534">
		<tag k="name" v="Fredheim" />
		<tag k="place" v="farm" />
		<tag k="ssr:stedsnr" v="421495" />
	</node>
	<node id="-391957" lat="61.0006305526" lon="10.0798749952">
		<tag k="name" v="Bjørkebakken" />
		<tag k="place" v="farm" />
		<tag k="ssr:stedsnr" v="420429" />
	</node>
	<node id="-391951" lat="61.0048111128" lon="9.960438886">
		<tag k="name" v="Espeset" />
		<tag k="place" v="farm" />
		<tag k="ssr:stedsnr" v="419151" />
	</node>
	<node id="-391947" lat="60.7921999991" lon="10.1317500045">
		<tag k="name" v="Tranligrenda" />
		<tag k="place" v="hamlet" />
		<tag k="ssr:stedsnr" v="408284" />
	</node>
	<node id="-391945" lat="60.9419166689" lon="9.86352777507">
		<tag k="name" v="Øyangskoia" />
		<tag k="place" v="locality" />
		<tag k="ssr:stedsnr" v="403694" />
	</node>
	<node id="-391943" lat="60.7850888898" lon="10.0519694504">
		<tag k="name" v="Svartvatnsaga" />
		<tag k="place" v="locality" />
		<tag k="ssr:stedsnr" v="403619" />
	</node>
	<node id="-391938" lat="60.9450194416" lon="9.95311666097">
		<tag k="name" v="Rønningen" />
		<tag k="place" v="farm" />
		<tag k="ssr:stedsnr" v="373935" />
	</node>
	<node id="-391935" lat="60.7703388906" lon="10.030869441">
		<tag k="alt_name" v="Aurlundsætra" />
		<tag k="historic" v="shieling" />
		<tag k="name" v="Aurlundssætra" />
		<tag k="place" v="locality" />
		<tag k="ssr:stedsnr" v="373648" />
	</node>
	<node id="-391934" lat="60.8317640122" lon="10.0078837264">
		<tag k="alt_name" v="Bardalen" />
		<tag k="name" v="Nordre Bardalen" />
		<tag k="place" v="farm" />
		<tag k="ssr:stedsnr" v="373637" />
	</node>
	<node id="-391933" lat="60.8357361124" lon="9.97276666477">
		<tag k="name" v="Pålmoen" />
		<tag k="place" v="farm" />
		<tag k="ssr:stedsnr" v="373535" />
	</node>
	<node id="-391930" lat="60.8846111082" lon="10.1401055533">
		<tag k="historic" v="shieling" />
		<tag k="name" v="Bergsætra" />
		<tag k="place" v="locality" />
		<tag k="ssr:stedsnr" v="373396" />
	</node>
	<node id="-391929" lat="60.8817861088" lon="9.97176666499">
		<tag k="name" v="Korpestad" />
		<tag k="place" v="locality" />
		<tag k="ssr:stedsnr" v="373385" />
	</node>
	<node id="-391928" lat="60.9679305584" lon="10.030405562">
		<tag k="name" v="Sveom" />
		<tag k="place" v="farm" />
		<tag k="ssr:stedsnr" v="373334" />
	</node>
	<node id="-391924" lat="61.1265963858" lon="9.85358206051">
		<tag k="name" v="Heggenhaugen" />
		<tag k="place" v="isolated_dwelling" />
		<tag k="ssr:stedsnr" v="372729" />
	</node>
	<node id="-391923" lat="60.9216244148" lon="10.08114183">
		<tag k="alt_name" v="Ruud" />
		<tag k="fixme" v="consider place=hamlet" />
		<tag k="name" v="Rud" />
		<tag k="place" v="farm" />
		<tag k="ssr:stedsnr" v="372496" />
	</node>
	<node id="-391922" lat="60.8667805589" lon="10.1133583403">
		<tag k="alt_name" v="Fjerdingslien" />
		<tag k="name" v="Fjerdingslia" />
		<tag k="place" v="farm" />
		<tag k="ssr:stedsnr" v="372451" />
	</node>
	<node id="-391921" lat="60.8600555594" lon="10.1918833388">
		<tag k="name" v="Skogstad" />
		<tag k="place" v="farm" />
		<tag k="ssr:stedsnr" v="372449" />
	</node>
	<node id="-391919" lat="60.9414749969" lon="9.99036943538">
		<tag k="name" v="Lundgard" />
		<tag k="place" v="farm" />
		<tag k="ssr:stedsnr" v="372319" />
	</node>
	<node id="-391918" lat="60.9436611106" lon="10.154527771">
		<tag k="name" v="Austli" />
		<tag k="place" v="farm" />
		<tag k="ssr:stedsnr" v="372301" />
	</node>
	<node id="-391917" lat="60.9444833314" lon="10.0084777807">
		<tag k="name" v="Fredstad" />
		<tag k="place" v="farm" />
		<tag k="ssr:stedsnr" v="372270" />
	</node>
	<node id="-391916" lat="60.9487138924" lon="9.9998055548">
		<tag k="name" v="Høgås" />
		<tag k="place" v="farm" />
		<tag k="ssr:stedsnr" v="372265" />
	</node>
	<node id="-391913" lat="60.8505694474" lon="9.94881388404">
		<tag k="name" v="Drugen" />
		<tag k="place" v="farm" />
		<tag k="ssr:stedsnr" v="372050" />
	</node>
	<node id="-391908" lat="61.0140249991" lon="9.84898611085">
		<tag k="alt_name" v="Presterudgjerdet" />
		<tag k="name" v="Prestrudgjerdet" />
		<tag k="place" v="farm" />
		<tag k="ssr:stedsnr" v="371341" />
	</node>
	<node id="-391906" lat="61.0187583335" lon="10.1034166614">
		<tag k="alt_name" v="Sagvolden" />
		<tag k="name" v="Sagvollen" />
		<tag k="place" v="locality" />
		<tag k="ssr:stedsnr" v="370261" />
	</node>
	<node id="-391905" lat="61.0189166691" lon="10.1189083317">
		<tag k="name" v="Fjell" />
		<tag k="place" v="locality" />
		<tag k="ssr:stedsnr" v="370257" />
	</node>
	<node id="-391904" lat="61.0189708705" lon="9.9790618859">
		<tag k="fixme" v="consider place=hamlet" />
		<tag k="name" v="Nordrum" />
		<tag k="place" v="farm" />
		<tag k="ssr:stedsnr" v="370253" />
	</node>
	<node id="-391902" lat="61.0220722223" lon="10.088950005">
		<tag k="alt_name" v="Foseth" />
		<tag k="name" v="Forset" />
		<tag k="place" v="farm" />
		<tag k="ssr:stedsnr" v="370245" />
	</node>
	<node id="-391901" lat="61.0276655232" lon="9.96898820958">
		<tag k="name" v="Sveom" />
		<tag k="place" v="locality" />
		<tag k="ssr:stedsnr" v="370236" />
	</node>
	<node id="-391900" lat="61.0796944427" lon="10.0481444362">
		<tag k="historic" v="shieling" />
		<tag k="name" v="Bakkesætra" />
		<tag k="place" v="locality" />
		<tag k="ssr:stedsnr" v="370056" />
	</node>
	<node id="-391898" lat="60.9414888895" lon="10.1269111181">
		<tag k="alt_name" v="Øvre Opsal" />
		<tag k="name" v="Øvre Oppsal" />
		<tag k="place" v="farm" />
		<tag k="ssr:stedsnr" v="361947" />
	</node>
	<node id="-391897" lat="60.8281305561" lon="9.93869444098">
		<tag k="name" v="Nordli" />
		<tag k="place" v="farm" />
		<tag k="ssr:stedsnr" v="361728" />
	</node>
	<node id="-391895" lat="60.8275861152" lon="9.9148444491">
		<tag k="name" v="Moasvea" />
		<tag k="place" v="farm" />
		<tag k="ssr:stedsnr" v="361688" />
	</node>
	<node id="-391891" lat="60.8457916624" lon="10.064011119">
		<tag k="name" v="Jettestuen" />
		<tag k="place" v="farm" />
		<tag k="ssr:stedsnr" v="361348" />
	</node>
	<node id="-391887" lat="60.8120888913" lon="10.0146388974">
		<tag k="name" v="Sverdslihyttene" />
		<tag k="place" v="locality" />
		<tag k="ssr:stedsnr" v="361198" />
	</node>
	<node id="-391885" lat="60.9406916673" lon="9.995894439">
		<tag k="name" v="Ødegården" />
		<tag k="place" v="farm" />
		<tag k="ssr:stedsnr" v="361033" />
	</node>
	<node id="-391883" lat="60.8793750026" lon="9.9172305497">
		<tag k="name" v="Lorentzehytta" />
		<tag k="place" v="isolated_dwelling" />
		<tag k="ssr:stedsnr" v="360895" />
	</node>
	<node id="-391881" lat="60.8389194485" lon="10.2088694466">
		<tag k="name" v="Hallen" />
		<tag k="place" v="farm" />
		<tag k="ssr:stedsnr" v="359997" />
	</node>
	<node id="-391879" lat="60.8461888926" lon="10.1808777792">
		<tag k="amenity" v="kindergarten" />
		<tag k="name" v="Gry" />
		<tag k="ssr:stedsnr" v="360049" />
	</node>
	<node id="-391873" lat="60.9629444417" lon="9.8083777711">
		<tag k="historic" v="shieling" />
		<tag k="name" v="Skogstadsætra" />
		<tag k="place" v="locality" />
		<tag k="ssr:stedsnr" v="358896" />
	</node>
	<node id="-391871" lat="60.9957583364" lon="10.1874611094">
		<tag k="historic" v="shieling" />
		<tag k="name" v="Presterudsætra" />
		<tag k="place" v="locality" />
		<tag k="ssr:stedsnr" v="358627" />
	</node>
	<node id="-391853" lat="60.9913749961" lon="9.81634443875">
		<tag k="historic" v="shieling" />
		<tag k="name" v="Skjørlisætra" />
		<tag k="place" v="locality" />
		<tag k="ssr:stedsnr" v="313783" />
	</node>
	<node id="-391850" lat="60.8565576904" lon="10.0379576735">
		<tag k="fixme" v="consider place=hamlet" />
		<tag k="name" v="Bondli" />
		<tag k="place" v="farm" />
		<tag k="ssr:stedsnr" v="313557" />
	</node>
	<node id="-391849" lat="60.8539916691" lon="10.0790055496">
		<tag k="name" v="Litlejordet" />
		<tag k="place" v="farm" />
		<tag k="ssr:stedsnr" v="313554" />
	</node>
	<node id="-391848" lat="60.8694361134" lon="10.2131916726">
		<tag k="name" v="Sørberg" />
		<tag k="place" v="farm" />
		<tag k="ssr:stedsnr" v="313416" />
	</node>
	<node id="-391846" lat="60.9693194464" lon="10.13157223">
		<tag k="name" v="Overhalla" />
		<tag k="place" v="farm" />
		<tag k="ssr:stedsnr" v="313327" />
	</node>
	<node id="-391844" lat="60.9788833372" lon="9.90015832591">
		<tag k="fixme" v="multiple name tags, choose one and add the other to alt_name" />
		<tag k="name" v="Nordre Gjerddalen;Gjerddalssætra" />
		<tag k="place" v="farm" />
		<tag k="ssr:stedsnr" v="312997" />
	</node>
	<node id="-391843" lat="60.9817638913" lon="9.88964999383">
		<tag k="fixme" v="multiple name tags, choose one and add the other to alt_name" />
		<tag k="name" v="Gjerddalssveom;Sveom" />
		<tag k="place" v="farm" />
		<tag k="ssr:stedsnr" v="312991" />
	</node>
	<node id="-391841" lat="60.8450859058" lon="9.97534218444">
		<tag k="fixme" v="consider place=hamlet" />
		<tag k="name" v="Baggerud" />
		<tag k="place" v="farm" />
		<tag k="ssr:stedsnr" v="312549" />
	</node>
	<node id="-391837" lat="60.8885777804" lon="10.0016805591">
		<tag k="historic" v="shieling" />
		<tag k="name" v="Skolmsætra" />
		<tag k="place" v="locality" />
		<tag k="ssr:stedsnr" v="312354" />
	</node>
	<node id="-391836" lat="60.9547750011" lon="10.0742416692">
		<tag k="name" v="Brennbakkhaugen" />
		<tag k="place" v="farm" />
		<tag k="ssr:stedsnr" v="312353" />
	</node>
	<node id="-391834" lat="60.9868555567" lon="10.0733472163">
		<tag k="name" v="Berget" />
		<tag k="place" v="farm" />
		<tag k="ssr:stedsnr" v="312313" />
	</node>
	<node id="-391833" lat="60.9896694467" lon="10.0409444446">
		<tag k="alt_name" v="Vestum" />
		<tag k="name" v="Vestom" />
		<tag k="place" v="farm" />
		<tag k="ssr:stedsnr" v="312310" />
	</node>
	<node id="-391832" lat="60.9434055558" lon="10.0860583253">
		<tag k="alt_name" v="Kjelbergsengen" />
		<tag k="name" v="Kjeldbergsenga" />
		<tag k="place" v="farm" />
		<tag k="ssr:stedsnr" v="312268" />
	</node>
	<node id="-391831" lat="60.9478000038" lon="10.0741527788">
		<tag k="alt_name" v="Fjellvinn" />
		<tag k="name" v="Fjellvin" />
		<tag k="place" v="farm" />
		<tag k="ssr:stedsnr" v="312266" />
	</node>
	<node id="-391830" lat="60.9422888878" lon="10.0087944355">
		<tag k="name" v="Øverby" />
		<tag k="place" v="farm" />
		<tag k="ssr:stedsnr" v="312238" />
	</node>
	<node id="-391829" lat="60.8290527818" lon="9.94269443798">
		<tag k="alt_name" v="Håjordet" />
		<tag k="name" v="Nedre Ulvshusli" />
		<tag k="place" v="farm" />
		<tag k="ssr:stedsnr" v="312208" />
	</node>
	<node id="-391828" lat="60.8282277741" lon="9.81038333969">
		<tag k="name" v="Brusvea" />
		<tag k="place" v="farm" />
		<tag k="ssr:stedsnr" v="312204" />
	</node>
	<node id="-391827" lat="60.8375722244" lon="9.92633333399">
		<tag k="name" v="Myre" />
		<tag k="place" v="farm" />
		<tag k="ssr:stedsnr" v="312199" />
	</node>
	<node id="-391826" lat="60.8755611107" lon="9.89980556397">
		<tag k="alt_name" v="Lisetsætra" />
		<tag k="historic" v="shieling" />
		<tag k="name" v="Liset" />
		<tag k="place" v="locality" />
		<tag k="ssr:stedsnr" v="312088" />
	</node>
	<node id="-391820" lat="60.843655559" lon="9.88139167129">
		<tag k="name" v="Sagbakken" />
		<tag k="place" v="farm" />
		<tag k="ssr:stedsnr" v="312038" />
	</node>
	<node id="-391819" lat="60.8603277791" lon="9.80252500745">
		<tag k="historic" v="shieling" />
		<tag k="name" v="Stuvesætra" />
		<tag k="place" v="locality" />
		<tag k="ssr:stedsnr" v="312011" />
	</node>
	<node id="-391817" lat="61.1454388879" lon="9.8862222148">
		<tag k="name" v="Skjervungen" />
		<tag k="place" v="isolated_dwelling" />
		<tag k="ssr:stedsnr" v="311741" />
	</node>
	<node id="-391812" lat="61.0766416694" lon="9.94343055508">
		<tag k="historic" v="shieling" />
		<tag k="name" v="Nordrumsætra" />
		<tag k="place" v="locality" />
		<tag k="ssr:stedsnr" v="311660" />
	</node>
	<node id="-391810" lat="61.0337527758" lon="9.83700000261">
		<tag k="fixme" v="consider place=hamlet" />
		<tag k="name" v="Hugulia" />
		<tag k="place" v="farm" />
		<tag k="ssr:stedsnr" v="311407" />
	</node>
	<node id="-391809" lat="61.0004833368" lon="10.0415027817">
		<tag k="name" v="Rognstad" />
		<tag k="place" v="farm" />
		<tag k="ssr:stedsnr" v="311317" />
	</node>
	<node id="-391808" lat="61.001616665" lon="10.0366194439">
		<tag k="name" v="Gladbakken" />
		<tag k="place" v="farm" />
		<tag k="ssr:stedsnr" v="311315" />
	</node>
	<node id="-391807" lat="61.0030499978" lon="10.0217249962">
		<tag k="name" v="Nordre Klemoen" />
		<tag k="place" v="farm" />
		<tag k="ssr:stedsnr" v="311313" />
	</node>
	<node id="-391806" lat="61.0103416656" lon="10.0203861194">
		<tag k="name" v="Bjørklund" />
		<tag k="place" v="farm" />
		<tag k="ssr:stedsnr" v="311294" />
	</node>
	<node id="-391804" lat="61.012652776" lon="9.99626111709">
		<tag k="alt_name" v="Brattlia, s;Søndre Brattlia" />
		<tag k="name" v="Søre Brattlia" />
		<tag k="place" v="farm" />
		<tag k="ssr:stedsnr" v="311275" />
	</node>
	<node id="-391800" lat="61.0227999995" lon="9.89179722331">
		<tag k="name" v="Lysbakken" />
		<tag k="place" v="farm" />
		<tag k="ssr:stedsnr" v="310381" />
	</node>
	<node id="-391799" lat="61.0235666645" lon="9.94527776979">
		<tag k="name" v="Nordli" />
		<tag k="place" v="farm" />
		<tag k="ssr:stedsnr" v="310374" />
	</node>
	<node id="-391798" lat="61.0296222254" lon="9.84151943545">
		<tag k="name" v="Lyseng" />
		<tag k="place" v="farm" />
		<tag k="ssr:stedsnr" v="310328" />
	</node>
	<node id="-391797" lat="61.0205444487" lon="10.0877861133">
		<tag k="alt_name" v="Tangvold" />
		<tag k="name" v="Tangvoll" />
		<tag k="place" v="farm" />
		<tag k="ssr:stedsnr" v="310209" />
	</node>
	<node id="-391796" lat="61.016636111" lon="10.0073055503">
		<tag k="name" v="Haug" />
		<tag k="place" v="farm" />
		<tag k="ssr:stedsnr" v="310200" />
	</node>
	<node id="-391795" lat="61.0317250007" lon="10.0408055644">
		<tag k="name" v="Bjørnerud" />
		<tag k="place" v="farm" />
		<tag k="ssr:stedsnr" v="310199" />
	</node>
	<node id="-391791" lat="61.0762111104" lon="10.0813555535">
		<tag k="alt_name" v="Skartlidekken" />
		<tag k="historic" v="shieling" />
		<tag k="name" v="Dekken" />
		<tag k="place" v="locality" />
		<tag k="ssr:stedsnr" v="310035" />
	</node>
	<node id="-391790" lat="61.0684944418" lon="9.97798888065">
		<tag k="historic" v="shieling" />
		<tag k="name" v="Øytjernssætra" />
		<tag k="place" v="locality" />
		<tag k="ssr:stedsnr" v="310031" />
	</node>
	<node id="-391788" lat="60.8348111108" lon="10.1437583348">
		<tag k="alt_name" v="Svarttjernsveen" />
		<tag k="name" v="Svarttjernssvea" />
		<tag k="place" v="farm" />
		<tag k="ssr:stedsnr" v="312512" />
	</node>
	<node id="-391787" lat="60.8601371418" lon="9.9988064964">
		<tag k="fixme" v="consider place=hamlet" />
		<tag k="name" v="Øvre Tyndrum" />
		<tag k="place" v="farm" />
		<tag k="ssr:stedsnr" v="303535" />
	</node>
	<node id="-391786" lat="60.9997750008" lon="10.0167749914">
		<tag k="building" v="commercial" />
		<tag k="name" v="Fagerlund" />
		<tag k="ssr:stedsnr" v="301968" />
	</node>
	<node id="-391781" lat="60.7864305573" lon="9.95181944425">
		<tag k="name" v="Aksjøhytta" />
		<tag k="place" v="isolated_dwelling" />
		<tag k="ssr:stedsnr" v="301289" />
	</node>
	<node id="-391771" lat="60.7502611093" lon="10.0766083248">
		<tag k="name" v="Larsheimen" />
		<tag k="place" v="locality" />
		<tag k="ssr:stedsnr" v="191666" />
	</node>
	<node id="-390372" lat="61.0113750009" lon="10.0492166695">
		<tag k="name" v="Røste" />
		<tag k="place" v="farm" />
		<tag k="ssr:stedsnr" v="68235" />
	</node>
	<node id="-391769" lat="60.8109916706" lon="9.97120556066">
		<tag k="historic" v="shieling" />
		<tag k="name" v="Sjurshaugen" />
		<tag k="place" v="locality" />
		<tag k="ssr:stedsnr" v="191549" />
	</node>
	<node id="-391768" lat="60.8020305593" lon="10.118827786">
		<tag k="alt_name" v="Tørrisstugu" />
		<tag k="name" v="Tørrisstugua" />
		<tag k="place" v="farm" />
		<tag k="ssr:stedsnr" v="191539" />
	</node>
	<node id="-391767" lat="60.8547777754" lon="10.0664638924">
		<tag k="name" v="Skoglund" />
		<tag k="place" v="farm" />
		<tag k="ssr:stedsnr" v="191528" />
	</node>
	<node id="-391766" lat="60.8374194427" lon="10.0404250025">
		<tag k="name" v="Graner" />
		<tag k="place" v="isolated_dwelling" />
		<tag k="ssr:stedsnr" v="191479" />
	</node>
	<node id="-391761" lat="60.9724833308" lon="10.0930166702">
		<tag k="alt_name" v="Veisten" />
		<tag k="building" v="commercial" />
		<tag k="name" v="Vegstein" />
		<tag k="ssr:stedsnr" v="191298" />
	</node>
	<node id="-391759" lat="60.9886999963" lon="10.0775305575">
		<tag k="name" v="Valheim" />
		<tag k="place" v="farm" />
		<tag k="ssr:stedsnr" v="191290" />
	</node>
	<node id="-391758" lat="60.9929944406" lon="10.0803194451">
		<tag k="alt_name" v="Vålhovd, øvre;Vålhovd;Walhovd" />
		<tag k="name" v="Øvre Vålhovd" />
		<tag k="place" v="farm" />
		<tag k="ssr:stedsnr" v="191282" />
	</node>
	<node id="-391757" lat="60.9853333336" lon="10.0614833363">
		<tag k="name" v="Nygård" />
		<tag k="place" v="farm" />
		<tag k="ssr:stedsnr" v="191279" />
	</node>
	<node id="-391756" lat="60.8851777746" lon="10.0036388922">
		<tag k="historic" v="shieling" />
		<tag k="name" v="Gladheim" />
		<tag k="place" v="locality" />
		<tag k="ssr:stedsnr" v="191359" />
	</node>
	<node id="-391755" lat="60.8298194418" lon="9.78747221787">
		<tag k="name" v="Haugtun" />
		<tag k="place" v="isolated_dwelling" />
		<tag k="ssr:stedsnr" v="191179" />
	</node>
	<node id="-391754" lat="60.8258027741" lon="9.91560278168">
		<tag k="alt_name" v="Løndalen" />
		<tag k="name" v="Lønndalen" />
		<tag k="place" v="farm" />
		<tag k="ssr:stedsnr" v="191163" />
	</node>
	<node id="-391753" lat="60.816149303" lon="9.93962305797">
		<tag k="alt_name" v="Kjenset" />
		<tag k="name" v="Øvre Kjendset" />
		<tag k="place" v="farm" />
		<tag k="ssr:stedsnr" v="191212" />
	</node>
	<node id="-391752" lat="60.8123527756" lon="9.91819722532">
		<tag k="fixme" v="consider place=hamlet" />
		<tag k="name" v="Åslibygda" />
		<tag k="place" v="village" />
		<tag k="ssr:stedsnr" v="191210" />
	</node>
	<node id="-391751" lat="61.0490955481" lon="9.96218366051">
		<tag k="historic" v="shieling" />
		<tag k="name" v="Nylen" />
		<tag k="place" v="locality" />
		<tag k="ssr:stedsnr" v="190670" />
	</node>
	<node id="-391750" lat="60.8630861088" lon="10.2024194419">
		<tag k="alt_name" v="Elton, nedre" />
		<tag k="name" v="Nedre Elton" />
		<tag k="place" v="farm" />
		<tag k="ssr:stedsnr" v="190450" />
	</node>
	<node id="-391749" lat="60.8728805552" lon="10.1843694473">
		<tag k="name" v="Simensvea" />
		<tag k="place" v="isolated_dwelling" />
		<tag k="ssr:stedsnr" v="190440" />
	</node>
	<node id="-391747" lat="60.9410279783" lon="10.1235201665">
		<tag k="fixme" v="consider place=hamlet" />
		<tag k="name" v="Oppsal" />
		<tag k="place" v="farm" />
		<tag k="ssr:stedsnr" v="190318" />
	</node>
	<node id="-391746" lat="60.940763892" lon="10.00634722">
		<tag k="name" v="Smedby" />
		<tag k="place" v="farm" />
		<tag k="ssr:stedsnr" v="190304" />
	</node>
	<node id="-391745" lat="60.9380444474" lon="10.0838472135">
		<tag k="name" v="Dal" />
		<tag k="place" v="farm" />
		<tag k="ssr:stedsnr" v="190297" />
	</node>
	<node id="-391744" lat="60.9378388916" lon="10.0824361102">
		<tag k="name" v="Lauvli" />
		<tag k="place" v="farm" />
		<tag k="ssr:stedsnr" v="190296" />
	</node>
	<node id="-391742" lat="60.9476277807" lon="10.1347166747">
		<tag k="alt_name" v="Sveen" />
		<tag k="name" v="Svea" />
		<tag k="place" v="farm" />
		<tag k="ssr:stedsnr" v="190285" />
	</node>
	<node id="-392629" lat="60.8657186454" lon="9.95562063121">
		<tag k="alt_name" v="Nordre Bratterud" />
		<tag k="name" v="Nordre Brattrud" />
		<tag k="place" v="farm" />
		<tag k="ssr:stedsnr" v="1072005" />
	</node>
	<node id="-391740" lat="60.88042803" lon="9.84481339884">
		<tag k="alt_name" v="Nordre Lier" />
		<tag k="fixme" v="consider place=hamlet" />
		<tag k="name" v="Lier" />
		<tag k="place" v="farm" />
		<tag k="ssr:stedsnr" v="190124" />
	</node>
	<node id="-392590" lat="60.9409970706" lon="10.1208817332">
		<tag k="alt_name" v="Nedre Opsal" />
		<tag k="name" v="Nedre Oppsal" />
		<tag k="place" v="farm" />
		<tag k="ssr:stedsnr" v="982210" />
	</node>
	<node id="-391733" lat="61.0941999972" lon="9.89660555598">
		<tag k="alt_name" v="Nærløssætra" />
		<tag k="historic" v="shieling" />
		<tag k="name" v="Nerlaussætra" />
		<tag k="place" v="locality" />
		<tag k="ssr:stedsnr" v="189643" />
	</node>
	<node id="-391730" lat="61.0303444455" lon="9.85108888022">
		<tag k="name" v="Nereng" />
		<tag k="place" v="farm" />
		<tag k="ssr:stedsnr" v="189302" />
	</node>
	<node id="-391729" lat="61.0255361141" lon="9.8445388825">
		<tag k="alt_name" v="Engum" />
		<tag k="name" v="Engom" />
		<tag k="place" v="farm" />
		<tag k="ssr:stedsnr" v="189299" />
	</node>
	<node id="-391728" lat="61.0168888849" lon="9.92809444613">
		<tag k="name" v="Sandbakken" />
		<tag k="place" v="farm" />
		<tag k="ssr:stedsnr" v="188406" />
	</node>
	<node id="-391726" lat="61.0780388894" lon="9.99272222095">
		<tag k="name" v="Geitsætra" />
		<tag k="place" v="locality" />
		<tag k="ssr:stedsnr" v="188048" />
	</node>
	<node id="-391722" lat="60.8305456456" lon="9.95618265896">
		<tag k="alt_name" v="Munkelien" />
		<tag k="fixme" v="consider place=hamlet" />
		<tag k="name" v="Munkelia" />
		<tag k="place" v="farm" />
		<tag k="ssr:stedsnr" v="179632" />
	</node>
	<node id="-391720" lat="60.9676611104" lon="10.1062638938">
		<tag k="name" v="Pusrud" />
		<tag k="place" v="hamlet" />
		<tag k="ssr:stedsnr" v="179533" />
	</node>
	<node id="-390302" lat="60.8555805569" lon="10.1583444475">
		<tag k="name" v="Furuset" />
		<tag k="place" v="farm" />
		<tag k="ssr:stedsnr" v="10528" />
	</node>
	<node id="-391707" lat="60.7990750036" lon="9.86791110529">
		<tag k="name" v="Ingebjørgheimen" />
		<tag k="place" v="locality" />
		<tag k="ssr:stedsnr" v="179242" />
	</node>
	<node id="-391704" lat="60.8404472228" lon="10.1629111192">
		<tag k="name" v="Øvre Hovelsrud" />
		<tag k="place" v="farm" />
		<tag k="ssr:stedsnr" v="178986" />
	</node>
	<node id="-391702" lat="60.8515305573" lon="9.91341388916">
		<tag k="name" v="Tomlehagen" />
		<tag k="place" v="farm" />
		<tag k="ssr:stedsnr" v="178842" />
	</node>
	<node id="-391701" lat="61.0127850443" lon="10.0041217943">
		<tag k="fixme" v="consider place=hamlet" />
		<tag k="name" v="Torgunsbøen" />
		<tag k="place" v="farm" />
		<tag k="ssr:stedsnr" v="178750" />
	</node>
	<node id="-391700" lat="60.9360777775" lon="9.98324444184">
		<tag k="name" v="Åsødegårdene" />
		<tag k="place" v="hamlet" />
		<tag k="ssr:stedsnr" v="178777" />
	</node>
	<node id="-391699" lat="60.9480277791" lon="9.95691944786">
		<tag k="name" v="Dokken" />
		<tag k="place" v="farm" />
		<tag k="ssr:stedsnr" v="178775" />
	</node>
	<node id="-391693" lat="60.8704861087" lon="10.2123111158">
		<tag k="name" v="Linde" />
		<tag k="place" v="farm" />
		<tag k="ssr:stedsnr" v="177499" />
	</node>
	<node id="-391686" lat="60.84647222" lon="9.77998610491">
		<tag k="loc_name" v="Bjørnaskardvasshytta" />
		<tag k="name" v="Bjødnaskarvasshytta" />
		<tag k="place" v="locality" />
		<tag k="ssr:stedsnr" v="176573" />
	</node>
	<node id="-390369" lat="60.8621805535" lon="9.84315000729">
		<tag k="name" v="Bergesvea" />
		<tag k="place" v="farm" />
		<tag k="ssr:stedsnr" v="240801" />
	</node>
	<node id="-391664" lat="60.8128805589" lon="10.1249805527">
		<tag k="name" v="Fremstad" />
		<tag k="place" v="farm" />
		<tag k="ssr:stedsnr" v="131582" />
	</node>
	<node id="-391662" lat="60.8602472203" lon="10.0434500009">
		<tag k="alt_name" v="Søndre Fjeldsrud" />
		<tag k="name" v="Søre Fjeldsrud" />
		<tag k="place" v="farm" />
		<tag k="ssr:stedsnr" v="131539" />
	</node>
	<node id="-391661" lat="60.980166668" lon="9.78678888833">
		<tag k="historic" v="shieling" />
		<tag k="name" v="Fellesætra" />
		<tag k="place" v="locality" />
		<tag k="ssr:stedsnr" v="131000" />
	</node>
	<node id="-391658" lat="60.8247583334" lon="10.007555558">
		<tag k="name" v="Vollen" />
		<tag k="place" v="farm" />
		<tag k="ssr:stedsnr" v="130586" />
	</node>
	<node id="-391654" lat="60.8458611109" lon="10.0413972256">
		<tag k="alt_name" v="Baarli" />
		<tag k="name" v="Bårdli" />
		<tag k="place" v="farm" />
		<tag k="ssr:stedsnr" v="130519" />
	</node>
	<node id="-391653" lat="60.8528777755" lon="10.0267555542">
		<tag k="alt_name" v="Løvli" />
		<tag k="name" v="Lauvli" />
		<tag k="place" v="farm" />
		<tag k="ssr:stedsnr" v="130518" />
	</node>
	<node id="-391652" lat="60.9272611075" lon="10.150872224">
		<tag k="name" v="Sørum" />
		<tag k="place" v="farm" />
		<tag k="ssr:stedsnr" v="130398" />
	</node>
	<node id="-391651" lat="60.9253638871" lon="10.1171749918">
		<tag k="alt_name" v="Finstad" />
		<tag k="name" v="Finnstad" />
		<tag k="place" v="farm" />
		<tag k="ssr:stedsnr" v="130393" />
	</node>
	<node id="-391650" lat="60.84296389" lon="10.2063166742">
		<tag k="name" v="Halden" />
		<tag k="old_name" v="Nordby" />
		<tag k="place" v="farm" />
		<tag k="ssr:stedsnr" v="130499" />
	</node>
	<node id="-391647" lat="60.8495666644" lon="10.204130551">
		<tag k="name" v="Rudssætra" />
		<tag k="place" v="locality" />
		<tag k="ssr:stedsnr" v="130483" />
	</node>
	<node id="-391642" lat="60.9145000039" lon="10.0207694482">
		<tag k="historic" v="shieling" />
		<tag k="name" v="Erstadsætra" />
		<tag k="place" v="locality" />
		<tag k="ssr:stedsnr" v="130434" />
	</node>
	<node id="-391641" lat="60.9208139034" lon="10.0745175305">
		<tag k="fixme" v="consider place=hamlet" />
		<tag k="name" v="Ommelstad" />
		<tag k="place" v="farm" />
		<tag k="ssr:stedsnr" v="130428" />
	</node>
	<node id="-391639" lat="60.9216249998" lon="10.0483166665">
		<tag k="name" v="Flata" />
		<tag k="place" v="farm" />
		<tag k="ssr:stedsnr" v="130416" />
	</node>
	<node id="-391638" lat="60.976414746" lon="10.107930878">
		<tag k="fixme" v="consider place=hamlet" />
		<tag k="name" v="Vinjar" />
		<tag k="place" v="farm" />
		<tag k="ssr:stedsnr" v="130301" />
	</node>
	<node id="-391637" lat="60.9701369181" lon="10.0641044171">
		<tag k="fixme" v="consider place=hamlet" />
		<tag k="name" v="Røste" />
		<tag k="place" v="farm" />
		<tag k="ssr:stedsnr" v="130298" />
	</node>
	<node id="-391636" lat="60.9727249983" lon="10.0526944371">
		<tag k="name" v="Haukedalsveda" />
		<tag k="place" v="farm" />
		<tag k="ssr:stedsnr" v="130295" />
	</node>
	<node id="-391635" lat="60.9905472224" lon="10.0866500075">
		<tag k="name" v="Granset" />
		<tag k="place" v="farm" />
		<tag k="ssr:stedsnr" v="130292" />
	</node>
	<node id="-391632" lat="60.9403444422" lon="10.0109666688">
		<tag k="name" v="Frøyseng" />
		<tag k="place" v="farm" />
		<tag k="ssr:stedsnr" v="130264" />
	</node>
	<node id="-391631" lat="60.9329277816" lon="10.0857749939">
		<tag k="name" v="Åslund" />
		<tag k="place" v="farm" />
		<tag k="ssr:stedsnr" v="130261" />
	</node>
	<node id="-391630" lat="60.934041666" lon="10.0881388887">
		<tag k="alt_name" v="Broner" />
		<tag k="name" v="Brone" />
		<tag k="place" v="farm" />
		<tag k="ssr:stedsnr" v="130260" />
	</node>
	<node id="-391629" lat="60.9448833341" lon="9.97973055021">
		<tag k="alt_name" v="Lybæk" />
		<tag k="name" v="Lybekk" />
		<tag k="place" v="farm" />
		<tag k="ssr:stedsnr" v="130237" />
	</node>
	<node id="-391627" lat="60.8299630795" lon="9.96417141844">
		<tag k="alt_name" v="Bjørnslien" />
		<tag k="fixme" v="consider place=hamlet" />
		<tag k="name" v="Bjørnslia" />
		<tag k="place" v="farm" />
		<tag k="ssr:stedsnr" v="130165" />
	</node>
	<node id="-391624" lat="61.1570916677" lon="9.83076388016">
		<tag k="name" v="Oppsjøhytta" />
		<tag k="place" v="isolated_dwelling" />
		<tag k="ssr:stedsnr" v="129755" />
	</node>
	<node id="-391623" lat="61.1511499958" lon="9.84346944521">
		<tag k="historic" v="shieling" />
		<tag k="name" v="Nashaugsætra" />
		<tag k="place" v="locality" />
		<tag k="ssr:stedsnr" v="129754" />
	</node>
	<node id="-391622" lat="61.0360499989" lon="9.80503610239">
		<tag k="historic" v="shieling" />
		<tag k="name" v="Nersætra" />
		<tag k="place" v="locality" />
		<tag k="ssr:stedsnr" v="129345" />
	</node>
	<node id="-390561" lat="60.9970388924" lon="9.97520000509">
		<tag k="name" v="Haugen" />
		<tag k="place" v="farm" />
		<tag k="ssr:stedsnr" v="191126" />
	</node>
	<node id="-391619" lat="60.851538886" lon="9.84213334066">
		<tag k="name" v="Skogly" />
		<tag k="place" v="farm" />
		<tag k="ssr:stedsnr" v="129071" />
	</node>
	<node id="-391618" lat="60.8549527746" lon="9.85024721866">
		<tag k="alt_name" v="Nord-Garda" />
		<tag k="fixme" v="consider place=hamlet" />
		<tag k="name" v="Nordgardane" />
		<tag k="place" v="village" />
		<tag k="ssr:stedsnr" v="129070" />
	</node>
	<node id="-391613" lat="61.02095" lon="10.0986805592">
		<tag k="alt_name" v="Lystne" />
		<tag k="name" v="Lysne" />
		<tag k="place" v="farm" />
		<tag k="ssr:stedsnr" v="128192" />
	</node>
	<node id="-391611" lat="61.0329583297" lon="10.1863916589">
		<tag k="historic" v="shieling" />
		<tag k="name" v="Fjelloa" />
		<tag k="place" v="locality" />
		<tag k="ssr:stedsnr" v="128173" />
	</node>
	<node id="-391610" lat="61.0417416666" lon="10.0009555501">
		<tag k="historic" v="shieling" />
		<tag k="name" v="Lisætra" />
		<tag k="place" v="locality" />
		<tag k="ssr:stedsnr" v="128167" />
	</node>
	<node id="-391609" lat="61.0320583328" lon="10.0535500082">
		<tag k="alt_name" v="Slettum" />
		<tag k="name" v="Slettom" />
		<tag k="place" v="farm" />
		<tag k="ssr:stedsnr" v="128155" />
	</node>
	<node id="-391608" lat="61.0536388851" lon="10.125980554">
		<tag k="name" v="Kinnsdokka" />
		<tag k="place" v="locality" />
		<tag k="ssr:stedsnr" v="128043" />
	</node>
	<node id="-391607" lat="60.8537833378" lon="10.0030222144">
		<tag k="name" v="Nordre Jensvoll" />
		<tag k="place" v="farm" />
		<tag k="ssr:stedsnr" v="121790" />
	</node>
	<node id="-391606" lat="61.0015092901" lon="10.0220185004">
		<tag k="fixme" v="consider place=hamlet" />
		<tag k="name" v="Klemoen" />
		<tag k="place" v="farm" />
		<tag k="ssr:stedsnr" v="121520" />
	</node>
	<node id="-391603" lat="60.8631305569" lon="10.0128527794">
		<tag k="name" v="Nereng" />
		<tag k="place" v="farm" />
		<tag k="ssr:stedsnr" v="119342" />
	</node>
	<node id="-391597" lat="60.8294361136" lon="10.0891249919">
		<tag k="name" v="Nordre Tonvoll" />
		<tag k="place" v="farm" />
		<tag k="ssr:stedsnr" v="119111" />
	</node>
	<node id="-391596" lat="60.8527527743" lon="10.0937472259">
		<tag k="name" v="Jonstuen" />
		<tag k="place" v="farm" />
		<tag k="ssr:stedsnr" v="119023" />
	</node>
	<node id="-391595" lat="60.8486027813" lon="10.0996611069">
		<tag k="name" v="Rustebakke" />
		<tag k="place" v="farm" />
		<tag k="ssr:stedsnr" v="119016" />
	</node>
	<node id="-391594" lat="60.8459055579" lon="10.086630563">
		<tag k="name" v="Håkenstad" />
		<tag k="place" v="farm" />
		<tag k="ssr:stedsnr" v="119013" />
	</node>
	<node id="-391592" lat="60.9336799254" lon="10.1503176885">
		<tag k="fixme" v="consider place=hamlet" />
		<tag k="name" v="Frøysåk" />
		<tag k="place" v="farm" />
		<tag k="ssr:stedsnr" v="118177" />
	</node>
	<node id="-391591" lat="60.8254694444" lon="9.85970833405">
		<tag k="name" v="Brattlandskula" />
		<tag k="place" v="locality" />
		<tag k="ssr:stedsnr" v="118155" />
	</node>
	<node id="-391589" lat="60.8386166656" lon="10.2084166643">
		<tag k="alt_name" v="Søndre Haldsrud" />
		<tag k="name" v="Søre Haldsrud" />
		<tag k="place" v="farm" />
		<tag k="ssr:stedsnr" v="118000" />
	</node>
	<node id="-391586" lat="60.9615722261" lon="9.97156388499">
		<tag k="historic" v="shieling" />
		<tag k="name" v="Bokkerud" />
		<tag k="place" v="locality" />
		<tag k="ssr:stedsnr" v="117952" />
	</node>
	<node id="-391584" lat="60.9804361093" lon="9.9097000077">
		<tag k="name" v="Søre Gjerddalen" />
		<tag k="place" v="farm" />
		<tag k="ssr:stedsnr" v="117699" />
	</node>
	<node id="-391580" lat="61.0044555542" lon="9.94842499296">
		<tag k="alt_name" v="Søndre Fossum" />
		<tag k="name" v="Søre Fossum" />
		<tag k="place" v="farm" />
		<tag k="ssr:stedsnr" v="117284" />
	</node>
	<node id="-391577" lat="60.8974694434" lon="10.0391194435">
		<tag k="name" v="Dumsetrønningen" />
		<tag k="place" v="locality" />
		<tag k="ssr:stedsnr" v="117024" />
	</node>
	<node id="-391576" lat="60.8449527782" lon="9.95687222936">
		<tag k="name" v="Hansejordet" />
		<tag k="place" v="farm" />
		<tag k="ssr:stedsnr" v="117008" />
	</node>
	<node id="-391573" lat="60.9381138929" lon="10.147924991">
		<tag k="name" v="Enger" />
		<tag k="old_name" v="Fredstad" />
		<tag k="place" v="farm" />
		<tag k="ssr:stedsnr" v="103316" />
	</node>
	<node id="-391565" lat="60.9751583317" lon="9.85581944281">
		<tag k="alt_name" v="Vesterås" />
		<tag k="name" v="Slottsætra" />
		<tag k="place" v="farm" />
		<tag k="ssr:stedsnr" v="70995" />
	</node>
	<node id="-392599" lat="60.8412685362" lon="10.0153337537">
		<tag k="fixme" v="consider place=hamlet" />
		<tag k="name" v="Annkaltrud" />
		<tag k="place" v="farm" />
		<tag k="ssr:stedsnr" v="987316" />
	</node>
	<node id="-391560" lat="60.8491638902" lon="10.188000008">
		<tag k="name" v="Røbergsætra" />
		<tag k="place" v="farm" />
		<tag k="ssr:stedsnr" v="70495" />
	</node>
	<node id="-391559" lat="60.838511109" lon="10.1625111087">
		<tag k="alt_name" v="Hovelsrud" />
		<tag k="name" v="Håvålsrud" />
		<tag k="place" v="farm" />
		<tag k="ssr:stedsnr" v="70491" />
	</node>
	<node id="-391558" lat="60.8427166651" lon="10.1556888806">
		<tag k="name" v="Bjeglerud" />
		<tag k="place" v="farm" />
		<tag k="ssr:stedsnr" v="70490" />
	</node>
	<node id="-391557" lat="60.8361222232" lon="10.0420027722">
		<tag k="name" v="Mosvea" />
		<tag k="place" v="farm" />
		<tag k="ssr:stedsnr" v="70484" />
	</node>
	<node id="-391556" lat="60.8111777769" lon="10.1082472169">
		<tag k="name" v="Elveflata" />
		<tag k="place" v="farm" />
		<tag k="ssr:stedsnr" v="70576" />
	</node>
	<node id="-391555" lat="60.8358444409" lon="9.92933611307">
		<tag k="name" v="Fagertun" />
		<tag k="place" v="farm" />
		<tag k="ssr:stedsnr" v="70189" />
	</node>
	<node id="-391554" lat="60.9975361154" lon="10.1406944427">
		<tag k="alt_name" v="Storsveen" />
		<tag k="name" v="Storsvea" />
		<tag k="place" v="farm" />
		<tag k="ssr:stedsnr" v="70148" />
	</node>
	<node id="-391553" lat="60.9758416653" lon="9.99441111103">
		<tag k="name" v="Gardsætra" />
		<tag k="place" v="locality" />
		<tag k="ssr:stedsnr" v="70296" />
	</node>
	<node id="-391552" lat="60.9169916711" lon="10.1108500069">
		<tag k="name" v="Bordbakken" />
		<tag k="place" v="locality" />
		<tag k="ssr:stedsnr" v="300137" />
	</node>
	<node id="-391551" lat="60.9241138907" lon="10.085458325">
		<tag k="name" v="Smedhaugen" />
		<tag k="place" v="farm" />
		<tag k="ssr:stedsnr" v="69487" />
	</node>
	<node id="-391550" lat="60.9237833305" lon="9.98085277536">
		<tag k="name" v="Meinset" />
		<tag k="place" v="locality" />
		<tag k="ssr:stedsnr" v="69484" />
	</node>
	<node id="-391549" lat="60.8688666657" lon="10.1730250026">
		<tag k="alt_name" v="Jenstuensæter" />
		<tag k="name" v="Ellingsvea" />
		<tag k="place" v="isolated_dwelling" />
		<tag k="ssr:stedsnr" v="69475" />
	</node>
	<node id="-391548" lat="60.8668555534" lon="10.1926333378">
		<tag k="alt_name" v="Elton, øvre;Elton" />
		<tag k="name" v="Øvre Elton" />
		<tag k="place" v="farm" />
		<tag k="ssr:stedsnr" v="69472" />
	</node>
	<node id="-391547" lat="60.8644333352" lon="9.97229444072">
		<tag k="fixme" v="multiple name tags, choose one and add the other to alt_name" />
		<tag k="name" v="Nordre Sveom;Hognesveen" />
		<tag k="place" v="farm" />
		<tag k="ssr:stedsnr" v="69461" />
	</node>
	<node id="-391546" lat="60.8641555521" lon="10.0029416587">
		<tag k="alt_name" v="Stensrud" />
		<tag k="name" v="Steinsrud" />
		<tag k="place" v="farm" />
		<tag k="ssr:stedsnr" v="69460" />
	</node>
	<node id="-391545" lat="60.8669879727" lon="10.0341155844">
		<tag k="fixme" v="consider place=hamlet" />
		<tag k="name" v="Helgerud" />
		<tag k="place" v="farm" />
		<tag k="ssr:stedsnr" v="69456" />
	</node>
	<node id="-391544" lat="60.867177775" lon="10.0448361025">
		<tag k="alt_name" v="Dokkesveen" />
		<tag k="name" v="Dokkesvea" />
		<tag k="place" v="farm" />
		<tag k="ssr:stedsnr" v="69454" />
	</node>
	<node id="-391540" lat="61.1182472253" lon="9.95495277414">
		<tag k="alt_name" v="Vesle Goplensætra" />
		<tag k="historic" v="shieling" />
		<tag k="name" v="Veslgoplsætra" />
		<tag k="place" v="locality" />
		<tag k="ssr:stedsnr" v="69749" />
	</node>
	<node id="-391537" lat="60.9583833319" lon="10.0677694487">
		<tag k="name" v="Solli" />
		<tag k="place" v="farm" />
		<tag k="ssr:stedsnr" v="69373" />
	</node>
	<node id="-391536" lat="60.9536666665" lon="10.1158027772">
		<tag k="name" v="Torp" />
		<tag k="place" v="farm" />
		<tag k="ssr:stedsnr" v="69370" />
	</node>
	<node id="-391535" lat="60.9628111152" lon="10.0009500014">
		<tag k="name" v="Fossheim" />
		<tag k="place" v="farm" />
		<tag k="ssr:stedsnr" v="69365" />
	</node>
	<node id="-391534" lat="60.9601083325" lon="10.1347722257">
		<tag k="name" v="Hauger" />
		<tag k="place" v="farm" />
		<tag k="ssr:stedsnr" v="69360" />
	</node>
	<node id="-390546" lat="60.8559055556" lon="10.1069250012">
		<tag k="name" v="Midtsvea" />
		<tag k="place" v="locality" />
		<tag k="ssr:stedsnr" v="179004" />
	</node>
	<node id="-391527" lat="60.8521821862" lon="9.84582401687">
		<tag k="name" v="Sørebøen" />
		<tag k="place" v="farm" />
		<tag k="ssr:stedsnr" v="69051" />
	</node>
	<node id="-391526" lat="60.8478527776" lon="9.91555277447">
		<tag k="alt_name" v="Evenstuen" />
		<tag k="name" v="Evenstugu" />
		<tag k="place" v="farm" />
		<tag k="ssr:stedsnr" v="69044" />
	</node>
	<node id="-391525" lat="60.8638166633" lon="9.91711389707">
		<tag k="alt_name" v="Juvesvea" />
		<tag k="name" v="Gjuvsvea" />
		<tag k="place" v="farm" />
		<tag k="ssr:stedsnr" v="69007" />
	</node>
	<node id="-391524" lat="61.0068407125" lon="9.96470711132">
		<tag k="fixme" v="consider place=hamlet" />
		<tag k="name" v="Åsen" />
		<tag k="place" v="farm" />
		<tag k="ssr:stedsnr" v="68365" />
	</node>
	<node id="-391522" lat="61.0327138873" lon="9.82688055956">
		<tag k="name" v="Hugulisveom" />
		<tag k="place" v="locality" />
		<tag k="ssr:stedsnr" v="68344" />
	</node>
	<node id="-391521" lat="61.0248277798" lon="9.87825277794">
		<tag k="alt_name" v="Flatlien" />
		<tag k="name" v="Flatlia" />
		<tag k="place" v="farm" />
		<tag k="ssr:stedsnr" v="68341" />
	</node>
	<node id="-391519" lat="61.021447222" lon="9.97938889457">
		<tag k="name" v="Strand" />
		<tag k="place" v="locality" />
		<tag k="ssr:stedsnr" v="67244" />
	</node>
	<node id="-390543" lat="61.0065916634" lon="9.92812778324">
		<tag k="name" v="Rognlund" />
		<tag k="place" v="isolated_dwelling" />
		<tag k="ssr:stedsnr" v="178222" />
	</node>
	<node id="-391507" lat="60.8459944403" lon="10.0448444507">
		<tag k="name" v="Snekkerhaugen" />
		<tag k="place" v="farm" />
		<tag k="ssr:stedsnr" v="58336" />
	</node>
	<node id="-391506" lat="60.8471250023" lon="10.06111111">
		<tag k="name" v="Lukkasstuen" />
		<tag k="place" v="farm" />
		<tag k="ssr:stedsnr" v="58335" />
	</node>
	<node id="-391497" lat="61.0250444458" lon="9.93925276931">
		<tag k="name" v="Lier" />
		<tag k="place" v="farm" />
		<tag k="ssr:stedsnr" v="56642" />
	</node>
	<node id="-391496" lat="60.9369194462" lon="10.1615194449">
		<tag k="name" v="Myra" />
		<tag k="place" v="farm" />
		<tag k="ssr:stedsnr" v="56585" />
	</node>
	<node id="-391494" lat="60.8279055534" lon="10.0434083337">
		<tag k="name" v="Tomte" />
		<tag k="place" v="farm" />
		<tag k="ssr:stedsnr" v="56521" />
	</node>
	<node id="-391493" lat="60.8716058371" lon="10.2142678911">
		<tag k="historic" v="shieling" />
		<tag k="name" v="Nedre Skjaksætra" />
		<tag k="place" v="locality" />
		<tag k="ssr:stedsnr" v="56508" />
	</node>
	<node id="-391491" lat="60.9974444478" lon="10.0886805508">
		<tag k="name" v="Snurubakk" />
		<tag k="place" v="hamlet" />
		<tag k="ssr:stedsnr" v="56424" />
	</node>
	<node id="-391488" lat="60.9069611109" lon="10.1250666678">
		<tag k="name" v="Grønlia" />
		<tag k="place" v="locality" />
		<tag k="ssr:stedsnr" v="56080" />
	</node>
	<node id="-391485" lat="60.8381916662" lon="10.0847694446">
		<tag k="name" v="Holtelia" />
		<tag k="place" v="quarter" />
		<tag k="ssr:stedsnr" v="58144" />
	</node>
	<node id="-391482" lat="60.8141388868" lon="9.83418333567">
		<tag k="name" v="Bergmyrkula" />
		<tag k="place" v="locality" />
		<tag k="ssr:stedsnr" v="54537" />
	</node>
	<node id="-391480" lat="60.8412611133" lon="10.1517361149">
		<tag k="name" v="Ødegården" />
		<tag k="place" v="farm" />
		<tag k="ssr:stedsnr" v="299993" />
	</node>
	<node id="-391561" lat="60.7904305593" lon="10.1683722211">
		<tag k="name" v="Stanes" />
		<tag k="place" v="farm" />
		<tag k="ssr:stedsnr" v="70666" />
	</node>
	<node id="-391476" lat="60.8104694452" lon="10.0961083245">
		<tag k="name" v="Bergli" />
		<tag k="place" v="farm" />
		<tag k="ssr:stedsnr" v="39520" />
	</node>
	<node id="-391475" lat="60.989652776" lon="9.93280833229">
		<tag k="alt_name" v="Søndre Jørandli" />
		<tag k="name" v="Søre Jørandli" />
		<tag k="place" v="farm" />
		<tag k="ssr:stedsnr" v="27749" />
	</node>
	<node id="-391474" lat="60.8518471498" lon="10.0813904256">
		<tag k="alt_name" v="Vien" />
		<tag k="fixme" v="consider place=hamlet" />
		<tag k="name" v="Vie" />
		<tag k="place" v="farm" />
		<tag k="ssr:stedsnr" v="10556" />
	</node>
	<node id="-391473" lat="60.9709055567" lon="9.89373889305">
		<tag k="alt_name" v="Hodsætra" />
		<tag k="historic" v="shieling" />
		<tag k="name" v="Vestli" />
		<tag k="place" v="locality" />
		<tag k="ssr:stedsnr" v="9995" />
	</node>
	<node id="-390406" lat="61.0453638869" lon="9.9470861079">
		<tag k="name" v="Tverråsletta" />
		<tag k="place" v="isolated_dwelling" />
		<tag k="ssr:stedsnr" v="250645" />
	</node>
	<node id="-391471" lat="60.9886361092" lon="9.91202222696">
		<tag k="name" v="Solvang" />
		<tag k="place" v="farm" />
		<tag k="ssr:stedsnr" v="9986" />
	</node>
	<node id="-390362" lat="60.8617055552" lon="10.0498861064">
		<tag k="name" v="Eng" />
		<tag k="place" v="farm" />
		<tag k="ssr:stedsnr" v="240342" />
	</node>
	<node id="-391467" lat="60.955147222" lon="9.9570222265">
		<tag k="historic" v="shieling" />
		<tag k="name" v="Fjellsrud" />
		<tag k="place" v="locality" />
		<tag k="ssr:stedsnr" v="9900" />
	</node>
	<node id="-391741" lat="60.9500722193" lon="9.98856666834">
		<tag k="alt_name" v="Sollien" />
		<tag k="name" v="Sollia" />
		<tag k="place" v="farm" />
		<tag k="ssr:stedsnr" v="190256" />
	</node>
	<node id="-391457" lat="60.8234995312" lon="10.0141122715">
		<tag k="alt_name" v="Sverdslien" />
		<tag k="fixme" v="consider place=hamlet" />
		<tag k="name" v="Sverslia" />
		<tag k="place" v="farm" />
		<tag k="ssr:stedsnr" v="9600" />
	</node>
	<node id="-391450" lat="60.8028472256" lon="10.0894527845">
		<tag k="name" v="Perssvea" />
		<tag k="place" v="farm" />
		<tag k="ssr:stedsnr" v="9566" />
	</node>
	<node id="-391449" lat="60.8057444475" lon="10.1095472209">
		<tag k="name" v="Henriksrud" />
		<tag k="place" v="farm" />
		<tag k="ssr:stedsnr" v="9564" />
	</node>
	<node id="-391447" lat="60.8395277784" lon="9.98579721481">
		<tag k="alt_name" v="Haugnermoen" />
		<tag k="name" v="Hognmoen" />
		<tag k="place" v="farm" />
		<tag k="ssr:stedsnr" v="9526" />
	</node>
	<node id="-391446" lat="60.8460805548" lon="10.1056805524">
		<tag k="alt_name" v="Hagen" />
		<tag k="name" v="Rødbergshågån" />
		<tag k="place" v="farm" />
		<tag k="ssr:stedsnr" v="9519" />
	</node>
	<node id="-391444" lat="60.9346666664" lon="10.1501611082">
		<tag k="name" v="Frøysåk" />
		<tag k="place" v="farm" />
		<tag k="ssr:stedsnr" v="9273" />
	</node>
	<node id="-391443" lat="60.8318916643" lon="9.77823332858">
		<tag k="alt_name" v="Øylund" />
		<tag k="name" v="Øylo" />
		<tag k="place" v="farm" />
		<tag k="ssr:stedsnr" v="9182" />
	</node>
	<node id="-391442" lat="60.8256796385" lon="9.93875619031">
		<tag k="alt_name" v="Nordre Knutsli" />
		<tag k="fixme" v="consider place=hamlet" />
		<tag k="name" v="Knutslia" />
		<tag k="place" v="farm" />
		<tag k="ssr:stedsnr" v="9160" />
	</node>
	<node id="-391440" lat="60.9649714647" lon="10.0168447821">
		<tag k="fixme" v="consider place=hamlet" />
		<tag k="name" v="Ullsak" />
		<tag k="old_name" v="Ullensakeer" />
		<tag k="place" v="farm" />
		<tag k="ssr:stedsnr" v="9330" />
	</node>
	<node id="-391437" lat="61.1294027812" lon="9.82699444223">
		<tag k="historic" v="shieling" />
		<tag k="name" v="Smørslugua" />
		<tag k="place" v="locality" />
		<tag k="ssr:stedsnr" v="8754" />
	</node>
	<node id="-391436" lat="60.9575388894" lon="10.1198722295">
		<tag k="name" v="Sørheim" />
		<tag k="place" v="farm" />
		<tag k="ssr:stedsnr" v="8391" />
	</node>
	<node id="-391435" lat="60.9562508898" lon="10.1300260037">
		<tag k="alt_name" v="Ruud" />
		<tag k="fixme" v="consider place=hamlet" />
		<tag k="name" v="Rud" />
		<tag k="place" v="farm" />
		<tag k="ssr:stedsnr" v="8390" />
	</node>
	<node id="-391434" lat="61.0393638924" lon="9.88498611706">
		<tag k="historic" v="shieling" />
		<tag k="name" v="Nørdstelisætra" />
		<tag k="place" v="locality" />
		<tag k="ssr:stedsnr" v="8358" />
	</node>
	<node id="-391432" lat="60.9371527823" lon="10.0185249958">
		<tag k="alt_name" v="Engen" />
		<tag k="name" v="Enga" />
		<tag k="place" v="farm" />
		<tag k="ssr:stedsnr" v="8319" />
	</node>
	<node id="-391431" lat="60.946052779" lon="9.99191389615">
		<tag k="alt_name" v="Avranden" />
		<tag k="name" v="Avranda" />
		<tag k="place" v="farm" />
		<tag k="ssr:stedsnr" v="8284" />
	</node>
	<node id="-391430" lat="60.898108335" lon="9.90484722798">
		<tag k="name" v="Kollsætra" />
		<tag k="place" v="locality" />
		<tag k="ssr:stedsnr" v="8133" />
	</node>
	<node id="-391429" lat="60.8870472226" lon="9.81030832918">
		<tag k="fixme" v="multiple name tags, choose one and add the other to alt_name" />
		<tag k="historic" v="shieling" />
		<tag k="name" v="Holoa;Lortholoa;Holosætra" />
		<tag k="place" v="locality" />
		<tag k="ssr:stedsnr" v="8123" />
	</node>
	<node id="-391426" lat="60.8482888912" lon="9.88939722283">
		<tag k="name" v="Sirirud" />
		<tag k="place" v="farm" />
		<tag k="ssr:stedsnr" v="8061" />
	</node>
	<node id="-391425" lat="60.8464083367" lon="9.92469444491">
		<tag k="alt_name" v="Rusten" />
		<tag k="name" v="Rusta" />
		<tag k="place" v="farm" />
		<tag k="ssr:stedsnr" v="8060" />
	</node>
	<node id="-391424" lat="60.8384999965" lon="9.77682499129">
		<tag k="name" v="Øysætra" />
		<tag k="place" v="farm" />
		<tag k="ssr:stedsnr" v="8044" />
	</node>
	<node id="-390528" lat="60.9467694452" lon="9.95455555999">
		<tag k="name" v="Brandsrud" />
		<tag k="place" v="farm" />
		<tag k="ssr:stedsnr" v="131944" />
	</node>
	<node id="-391421" lat="61.0228833372" lon="9.95180833783">
		<tag k="name" v="Sørli" />
		<tag k="place" v="farm" />
		<tag k="ssr:stedsnr" v="7364" />
	</node>
	<node id="-391419" lat="61.0016699383" lon="9.94185990049">
		<tag k="fixme" v="consider place=hamlet" />
		<tag k="name" v="Fossum" />
		<tag k="place" v="farm" />
		<tag k="ssr:stedsnr" v="7348" />
	</node>
	<node id="-391418" lat="61.0047747795" lon="9.95255636376">
		<tag k="fixme" v="consider place=hamlet" />
		<tag k="name" v="Røste" />
		<tag k="place" v="farm" />
		<tag k="ssr:stedsnr" v="7345" />
	</node>
	<node id="-391417" lat="61.0291111075" lon="9.85991943745">
		<tag k="name" v="Bergli" />
		<tag k="place" v="farm" />
		<tag k="ssr:stedsnr" v="7325" />
	</node>
	<node id="-391416" lat="61.0268361084" lon="9.87740278008">
		<tag k="alt_name" v="Smeddokken" />
		<tag k="name" v="Smeddokka" />
		<tag k="place" v="farm" />
		<tag k="ssr:stedsnr" v="7320" />
	</node>
	<node id="-391415" lat="61.0026111099" lon="9.97420554918">
		<tag k="alt_name" v="Linnbær" />
		<tag k="name" v="Enger" />
		<tag k="place" v="farm" />
		<tag k="ssr:stedsnr" v="7251" />
	</node>
	<node id="-391414" lat="61.0115055535" lon="10.0099722277">
		<tag k="name" v="Lund" />
		<tag k="place" v="farm" />
		<tag k="ssr:stedsnr" v="7247" />
	</node>
	<node id="-391411" lat="60.7486916663" lon="10.0675472264">
		<tag k="name" v="Vesterås" />
		<tag k="place" v="farm" />
		<tag k="ssr:stedsnr" v="6763" />
	</node>
	<node id="-391405" lat="60.8435027764" lon="9.87599721987">
		<tag k="name" v="Leppa" />
		<tag k="place" v="isolated_dwelling" />
		<tag k="ssr:stedsnr" v="968825" />
	</node>
	<node id="-391403" lat="60.976675003" lon="9.86040554818">
		<tag k="name" v="Austli" />
		<tag k="place" v="farm" />
		<tag k="ssr:stedsnr" v="968575" />
	</node>
	<node id="-390501" lat="60.8703583359" lon="10.2153249981">
		<tag k="name" v="Båssum" />
		<tag k="old_name" v="Bossum" />
		<tag k="place" v="farm" />
		<tag k="ssr:stedsnr" v="129418" />
	</node>
	<node id="-391398" lat="61.1043805514" lon="9.72466666895">
		<tag k="historic" v="shieling" />
		<tag k="name" v="Søre Lenningen" />
		<tag k="place" v="locality" />
		<tag k="ssr:stedsnr" v="967621" />
	</node>
	<node id="-391395" lat="60.8396999984" lon="9.79595556166">
		<tag k="name" v="Rønningen" />
		<tag k="place" v="farm" />
		<tag k="ssr:stedsnr" v="965570" />
	</node>
	<node id="-390564" lat="60.8599444468" lon="9.84631111631">
		<tag k="name" v="Gurihus" />
		<tag k="place" v="farm" />
		<tag k="ssr:stedsnr" v="191005" />
	</node>
	<node id="-391387" lat="60.8233138899" lon="10.0622722284">
		<tag k="name" v="Nordre Bjørke" />
		<tag k="place" v="farm" />
		<tag k="ssr:stedsnr" v="938510" />
	</node>
	<node id="-391383" lat="60.9236666686" lon="10.1808999989">
		<tag k="alt_name" v="Slåttsvea" />
		<tag k="name" v="Slettsvea" />
		<tag k="place" v="locality" />
		<tag k="ssr:stedsnr" v="919459" />
	</node>
	<node id="-391379" lat="60.9563222192" lon="10.1416749978">
		<tag k="alt_name" v="Røstehagen" />
		<tag k="name" v="Røstehågån" />
		<tag k="place" v="farm" />
		<tag k="ssr:stedsnr" v="919354" />
	</node>
	<node id="-391378" lat="60.9573833331" lon="10.0683749925">
		<tag k="name" v="Kjellsrud" />
		<tag k="place" v="farm" />
		<tag k="ssr:stedsnr" v="919353" />
	</node>
	<node id="-391374" lat="60.8570946428" lon="9.85204451617">
		<tag k="alt_name" v="Midbøen" />
		<tag k="fixme" v="consider place=hamlet" />
		<tag k="name" v="Midtbøen" />
		<tag k="place" v="farm" />
		<tag k="ssr:stedsnr" v="919005" />
	</node>
	<node id="-391373" lat="61.1302999993" lon="9.69210278044">
		<tag k="historic" v="shieling" />
		<tag k="name" v="Tronhus" />
		<tag k="place" v="locality" />
		<tag k="ssr:stedsnr" v="918765" />
	</node>
	<node id="-391371" lat="60.8704611107" lon="10.210005564">
		<tag k="name" v="Nordberg" />
		<tag k="place" v="farm" />
		<tag k="ssr:stedsnr" v="918470" />
	</node>
	<node id="-391370" lat="60.8772000001" lon="10.0244972295">
		<tag k="name" v="Gladbakke" />
		<tag k="place" v="farm" />
		<tag k="ssr:stedsnr" v="918464" />
	</node>
	<node id="-391368" lat="61.0068916671" lon="10.0123777723">
		<tag k="name" v="Engejordet" />
		<tag k="place" v="farm" />
		<tag k="ssr:stedsnr" v="918264" />
	</node>
	<node id="-391367" lat="60.8544694479" lon="9.84180555066">
		<tag k="name" v="Haugerud" />
		<tag k="place" v="farm" />
		<tag k="ssr:stedsnr" v="918063" />
	</node>
	<node id="-391362" lat="61.0168500025" lon="9.98293054815">
		<tag k="name" v="Brennom" />
		<tag k="place" v="locality" />
		<tag k="ssr:stedsnr" v="917173" />
	</node>
	<node id="-391995" lat="61.0548194464" lon="10.0920361075">
		<tag k="historic" v="shieling" />
		<tag k="name" v="Røstesætra" />
		<tag k="place" v="locality" />
		<tag k="ssr:stedsnr" v="432042" />
	</node>
	<node id="-391353" lat="60.8640249958" lon="10.0106333299">
		<tag k="name" v="Nordeng" />
		<tag k="place" v="farm" />
		<tag k="ssr:stedsnr" v="906569" />
	</node>
	<node id="-391341" lat="60.9449083327" lon="9.95900277259">
		<tag k="name" v="Dalby" />
		<tag k="place" v="farm" />
		<tag k="ssr:stedsnr" v="859914" />
	</node>
	<node id="-391339" lat="60.8081111147" lon="10.1078472288">
		<tag k="name" v="Lundgard" />
		<tag k="place" v="farm" />
		<tag k="ssr:stedsnr" v="859558" />
	</node>
	<node id="-391338" lat="60.7720944462" lon="10.026741669">
		<tag k="alt_name" v="Tingvollsætra" />
		<tag k="historic" v="shieling" />
		<tag k="name" v="Tingvollssætra" />
		<tag k="place" v="locality" />
		<tag k="ssr:stedsnr" v="859604" />
	</node>
	<node id="-391337" lat="60.8396472251" lon="10.1441888949">
		<tag k="alt_name" v="Nordre Ødegård" />
		<tag k="name" v="Øgarden" />
		<tag k="place" v="farm" />
		<tag k="ssr:stedsnr" v="859468" />
	</node>
	<node id="-391336" lat="60.8391944469" lon="10.2061944434">
		<tag k="alt_name" v="Haldsrud" />
		<tag k="name" v="Hallsrud" />
		<tag k="place" v="farm" />
		<tag k="ssr:stedsnr" v="859466" />
	</node>
	<node id="-391335" lat="60.8399999993" lon="10.0618083261">
		<tag k="name" v="Dokka" />
		<tag k="place" v="village" />
		<tag k="ssr:stedsnr" v="859464" />
	</node>
	<node id="-391333" lat="60.8405611132" lon="10.1155583256">
		<tag k="name" v="Busk" />
		<tag k="place" v="isolated_dwelling" />
		<tag k="ssr:stedsnr" v="859457" />
	</node>
	<node id="-391332" lat="60.8637916644" lon="10.2069361098">
		<tag k="alt_name" v="Bjerkeset" />
		<tag k="name" v="Bjørkeset" />
		<tag k="place" v="farm" />
		<tag k="ssr:stedsnr" v="859403" />
	</node>
	<node id="-391331" lat="60.8589888923" lon="10.0611499953">
		<tag k="name" v="Helgerud" />
		<tag k="place" v="locality" />
		<tag k="ssr:stedsnr" v="859527" />
	</node>
	<node id="-391330" lat="60.8623861086" lon="10.2083027802">
		<tag k="alt_name" v="Nerset" />
		<tag k="name" v="Norset" />
		<tag k="place" v="farm" />
		<tag k="ssr:stedsnr" v="859521" />
	</node>
	<node id="-391329" lat="60.8614027774" lon="10.207952775">
		<tag k="alt_name" v="Sveen" />
		<tag k="name" v="Brurudssvea" />
		<tag k="place" v="farm" />
		<tag k="ssr:stedsnr" v="859519" />
	</node>
	<node id="-391327" lat="60.8489527759" lon="10.0281944534">
		<tag k="alt_name" v="Nøllumshaugen" />
		<tag k="name" v="Nølomshaugen" />
		<tag k="place" v="farm" />
		<tag k="ssr:stedsnr" v="859512" />
	</node>
	<node id="-391326" lat="60.9630972194" lon="9.98393056155">
		<tag k="alt_name" v="Klette" />
		<tag k="name" v="Øvre Klette" />
		<tag k="place" v="farm" />
		<tag k="ssr:stedsnr" v="859318" />
	</node>
	<node id="-391323" lat="60.9272055547" lon="10.1467944366">
		<tag k="name" v="Vestrum" />
		<tag k="place" v="farm" />
		<tag k="ssr:stedsnr" v="858472" />
	</node>
	<node id="-391322" lat="60.9264166626" lon="10.0827499969">
		<tag k="name" v="Rudshågån" />
		<tag k="place" v="farm" />
		<tag k="ssr:stedsnr" v="858466" />
	</node>
	<node id="-391321" lat="60.9301527757" lon="10.0427472263">
		<tag k="alt_name" v="Lunde, nordre" />
		<tag k="name" v="Nordre Lunde" />
		<tag k="place" v="farm" />
		<tag k="ssr:stedsnr" v="858464" />
	</node>
	<node id="-391320" lat="60.8640083316" lon="10.1896750061">
		<tag k="alt_name" v="Skålerudsæter" />
		<tag k="name" v="Skålerudsætra" />
		<tag k="place" v="farm" />
		<tag k="ssr:stedsnr" v="858455" />
	</node>
	<node id="-391319" lat="60.8808750045" lon="10.0425333371">
		<tag k="alt_name" v="Søndre Brudalen" />
		<tag k="name" v="Brudalen" />
		<tag k="place" v="farm" />
		<tag k="ssr:stedsnr" v="858417" />
	</node>
	<node id="-391318" lat="60.9542827043" lon="10.1331412785">
		<tag k="fixme" v="consider place=hamlet" />
		<tag k="name" v="Røste" />
		<tag k="place" v="farm" />
		<tag k="ssr:stedsnr" v="858370" />
	</node>
	<node id="-391317" lat="60.9583472184" lon="10.0780555566">
		<tag k="name" v="Skogtun" />
		<tag k="place" v="farm" />
		<tag k="ssr:stedsnr" v="858368" />
	</node>
	<node id="-391315" lat="60.9625638875" lon="10.066044437">
		<tag k="name" v="Stupstein" />
		<tag k="place" v="farm" />
		<tag k="ssr:stedsnr" v="858354" />
	</node>
	<node id="-392519" lat="61.1428249997" lon="9.85950000016">
		<tag k="alt_name" v="Goplensætra" />
		<tag k="historic" v="shieling" />
		<tag k="name" v="Goplesætra" />
		<tag k="place" v="locality" />
		<tag k="ssr:stedsnr" v="857689" />
	</node>
	<node id="-391313" lat="60.9359916631" lon="9.98137778609">
		<tag k="alt_name" v="Åsødegården" />
		<tag k="name" v="Åsøygarden" />
		<tag k="place" v="farm" />
		<tag k="ssr:stedsnr" v="858304" />
	</node>
	<node id="-391312" lat="60.7873388918" lon="9.89803055643">
		<tag k="alt_name" v="Nedre Akksjøsveum" />
		<tag k="name" v="Aksjøsvea" />
		<tag k="place" v="isolated_dwelling" />
		<tag k="ssr:stedsnr" v="858155" />
	</node>
	<node id="-391311" lat="60.9168277744" lon="9.90231667297">
		<tag k="historic" v="shieling" />
		<tag k="name" v="Stutlisætra" />
		<tag k="place" v="locality" />
		<tag k="ssr:stedsnr" v="858078" />
	</node>
	<node id="-390493" lat="61.0037055535" lon="9.96928333">
		<tag k="name" v="Dal" />
		<tag k="place" v="farm" />
		<tag k="ssr:stedsnr" v="128206" />
	</node>
	<node id="-391306" lat="61.0023500002" lon="10.1124249947">
		<tag k="name" v="Verhaug" />
		<tag k="place" v="farm" />
		<tag k="ssr:stedsnr" v="857269" />
	</node>
	<node id="-391305" lat="61.0024305569" lon="9.98666388782">
		<tag k="name" v="Stabu" />
		<tag k="place" v="farm" />
		<tag k="ssr:stedsnr" v="857259" />
	</node>
	<node id="-391304" lat="61.0096749991" lon="10.0487944498">
		<tag k="name" v="Fremstad" />
		<tag k="place" v="locality" />
		<tag k="ssr:stedsnr" v="857253" />
	</node>
	<node id="-391302" lat="61.0142638848" lon="9.99030555455">
		<tag k="fixme" v="consider place=hamlet" />
		<tag k="name" v="Øverbygda" />
		<tag k="place" v="village" />
		<tag k="ssr:stedsnr" v="856217" />
	</node>
	<node id="-391301" lat="61.0253222265" lon="10.0765333306">
		<tag k="name" v="Sørli" />
		<tag k="place" v="farm" />
		<tag k="ssr:stedsnr" v="856213" />
	</node>
	<node id="-391299" lat="60.847127779" lon="9.91133610624">
		<tag k="name" v="Lindalssvea" />
		<tag k="place" v="farm" />
		<tag k="ssr:stedsnr" v="846848" />
	</node>
	<node id="-391298" lat="60.847127779" lon="9.91133610624">
		<tag k="name" v="Terningen" />
		<tag k="place" v="farm" />
		<tag k="ssr:stedsnr" v="846847" />
	</node>
	<node id="-391295" lat="60.9897638885" lon="9.93750833081">
		<tag k="name" v="Østre Jørandli" />
		<tag k="place" v="farm" />
		<tag k="ssr:stedsnr" v="937766" />
	</node>
	<node id="-391287" lat="60.829316671" lon="10.0920388843">
		<tag k="name" v="Bakken" />
		<tag k="place" v="farm" />
		<tag k="ssr:stedsnr" v="798587" />
	</node>
	<node id="-391286" lat="60.8330305565" lon="10.042305547">
		<tag k="name" v="Ulvasvea" />
		<tag k="place" v="farm" />
		<tag k="ssr:stedsnr" v="798585" />
	</node>
	<node id="-391285" lat="60.8282970229" lon="9.99406583805">
		<tag k="fixme" v="consider place=hamlet" />
		<tag k="name" v="Rudstaden" />
		<tag k="place" v="farm" />
		<tag k="ssr:stedsnr" v="798580" />
	</node>
	<node id="-391314" lat="60.935563891" lon="10.1718583336">
		<tag k="name" v="Storre" />
		<tag k="place" v="farm" />
		<tag k="ssr:stedsnr" v="858317" />
	</node>
	<node id="-390424" lat="60.9335944462" lon="10.1335722299">
		<tag k="name" v="Søre Kinn" />
		<tag k="place" v="farm" />
		<tag k="ssr:stedsnr" v="251344" />
	</node>
	<node id="-391280" lat="60.8831611089" lon="9.99642221357">
		<tag k="historic" v="shieling" />
		<tag k="name" v="Vinjarheimsætra" />
		<tag k="place" v="locality" />
		<tag k="ssr:stedsnr" v="798362" />
	</node>
	<node id="-391279" lat="60.9249944439" lon="10.1363638895">
		<tag k="alt_name" v="Lybæk" />
		<tag k="name" v="Lybekk" />
		<tag k="place" v="farm" />
		<tag k="ssr:stedsnr" v="797448" />
	</node>
	<node id="-391278" lat="60.8612833367" lon="10.0580111082">
		<tag k="name" v="Dalby" />
		<tag k="place" v="farm" />
		<tag k="ssr:stedsnr" v="797414" />
	</node>
	<node id="-391277" lat="60.8626916686" lon="10.0546500055">
		<tag k="name" v="Elvebakken" />
		<tag k="place" v="farm" />
		<tag k="ssr:stedsnr" v="797413" />
	</node>
	<node id="-391274" lat="61.0191611132" lon="9.91375000377">
		<tag k="name" v="Li" />
		<tag k="place" v="farm" />
		<tag k="ssr:stedsnr" v="796378" />
	</node>
	<node id="-391271" lat="61.0104277734" lon="10.0137499972">
		<tag k="name" v="Øverbygda" />
		<tag k="place" v="hamlet" />
		<tag k="ssr:stedsnr" v="786975" />
	</node>
	<node id="-391266" lat="60.9277500021" lon="10.0820027754">
		<tag k="name" v="Bakke" />
		<tag k="place" v="hamlet" />
		<tag k="ssr:stedsnr" v="786166" />
	</node>
	<node id="-391264" lat="60.8199694447" lon="10.1240666693">
		<tag k="alt_name" v="Pigstad" />
		<tag k="fixme" v="consider place=hamlet" />
		<tag k="name" v="Pikstad" />
		<tag k="place" v="farm" />
		<tag k="ssr:stedsnr" v="920575" />
	</node>
	<node id="-391262" lat="60.8606722255" lon="10.1757055593">
		<tag k="alt_name" v="Langengen" />
		<tag k="name" v="Langenga" />
		<tag k="place" v="farm" />
		<tag k="ssr:stedsnr" v="920516" />
	</node>
	<node id="-391261" lat="60.8512361155" lon="10.1921444517">
		<tag k="alt_name" v="Langset" />
		<tag k="name" v="Longset" />
		<tag k="place" v="farm" />
		<tag k="ssr:stedsnr" v="920512" />
	</node>
	<node id="-391259" lat="60.8679555523" lon="10.198936112">
		<tag k="alt_name" v="Hagaset" />
		<tag k="name" v="Hågåset" />
		<tag k="place" v="farm" />
		<tag k="ssr:stedsnr" v="920400" />
	</node>
	<node id="-391251" lat="60.790325002" lon="10.1163444426">
		<tag k="name" v="Tranlia" />
		<tag k="place" v="locality" />
		<tag k="ssr:stedsnr" v="919647" />
	</node>
	<node id="-391250" lat="60.791994444" lon="10.1326250021">
		<tag k="name" v="Tranhaug" />
		<tag k="place" v="farm" />
		<tag k="ssr:stedsnr" v="919644" />
	</node>
	<node id="-391249" lat="60.8500311827" lon="10.0761050277">
		<tag k="alt_name" v="Garde;Gårder" />
		<tag k="fixme" v="consider place=hamlet" />
		<tag k="name" v="Garder" />
		<tag k="place" v="farm" />
		<tag k="ssr:stedsnr" v="919543" />
	</node>
	<node id="-391248" lat="60.8450527819" lon="10.0977722135">
		<tag k="name" v="Samsonstugua" />
		<tag k="place" v="farm" />
		<tag k="ssr:stedsnr" v="919521" />
	</node>
	<node id="-391247" lat="60.8442944471" lon="10.1529861026">
		<tag k="alt_name" v="Lyshaug" />
		<tag k="name" v="Lyshaugen" />
		<tag k="place" v="farm" />
		<tag k="ssr:stedsnr" v="919518" />
	</node>
	<node id="-391246" lat="60.8399829754" lon="10.2151336672">
		<tag k="alt_name" v="Komperud" />
		<tag k="fixme" v="consider place=hamlet" />
		<tag k="name" v="Kumperud" />
		<tag k="place" v="farm" />
		<tag k="ssr:stedsnr" v="919511" />
	</node>
	<node id="-391245" lat="60.9318361101" lon="10.121588892">
		<tag k="name" v="Kvernerud" />
		<tag k="place" v="farm" />
		<tag k="ssr:stedsnr" v="919451" />
	</node>
	<node id="-391244" lat="60.9593750021" lon="10.0659944457">
		<tag k="name" v="Rustestugua" />
		<tag k="place" v="farm" />
		<tag k="ssr:stedsnr" v="919352" />
	</node>
	<node id="-391243" lat="60.8846388932" lon="9.99792776908">
		<tag k="alt_name" v="Gladbakksætra" />
		<tag k="historic" v="shieling" />
		<tag k="name" v="Gladbakkesætra" />
		<tag k="place" v="locality" />
		<tag k="ssr:stedsnr" v="919390" />
	</node>
	<node id="-391242" lat="60.9390472228" lon="9.97988333044">
		<tag k="name" v="Solhaug" />
		<tag k="place" v="farm" />
		<tag k="ssr:stedsnr" v="919286" />
	</node>
	<node id="-391241" lat="60.9334930321" lon="10.0383902687">
		<tag k="alt_name" v="Stadsvolden" />
		<tag k="fixme" v="consider place=hamlet" />
		<tag k="name" v="Stadsvoll" />
		<tag k="place" v="farm" />
		<tag k="ssr:stedsnr" v="919274" />
	</node>
	<node id="-391240" lat="60.8407944467" lon="9.94305833828">
		<tag k="alt_name" v="Kampedokken" />
		<tag k="name" v="Kampedokka" />
		<tag k="place" v="farm" />
		<tag k="ssr:stedsnr" v="919187" />
	</node>
	<node id="-391239" lat="60.8392972252" lon="9.94801944794">
		<tag k="alt_name" v="Esbjug, nedre" />
		<tag k="name" v="Nedre Esbjug" />
		<tag k="place" v="farm" />
		<tag k="ssr:stedsnr" v="919186" />
	</node>
	<node id="-391237" lat="60.9668694467" lon="10.1045361117">
		<tag k="name" v="Elverom" />
		<tag k="place" v="farm" />
		<tag k="ssr:stedsnr" v="919342" />
	</node>
	<node id="-391235" lat="60.8125053737" lon="9.89238492453">
		<tag k="fixme" v="consider place=hamlet" />
		<tag k="name" v="Vasslia" />
		<tag k="place" v="farm" />
		<tag k="ssr:stedsnr" v="919231" />
	</node>
	<node id="-391234" lat="60.9971611139" lon="10.1114305522">
		<tag k="name" v="Myrvang" />
		<tag k="place" v="farm" />
		<tag k="ssr:stedsnr" v="919149" />
	</node>
	<node id="-391233" lat="60.7846000013" lon="9.85536110583">
		<tag k="historic" v="shieling" />
		<tag k="name" v="Bjørkelisætra" />
		<tag k="place" v="locality" />
		<tag k="ssr:stedsnr" v="919135" />
	</node>
	<node id="-391228" lat="61.074108335" lon="9.94507777473">
		<tag k="historic" v="shieling" />
		<tag k="name" v="Strømsætra" />
		<tag k="place" v="locality" />
		<tag k="ssr:stedsnr" v="918686" />
	</node>
	<node id="-391227" lat="61.0386555592" lon="9.90934722381">
		<tag k="name" v="Slåtten" />
		<tag k="place" v="isolated_dwelling" />
		<tag k="ssr:stedsnr" v="918386" />
	</node>
	<node id="-391225" lat="61.0132000014" lon="9.99099166196">
		<tag k="alt_name" v="Brattlia, nordre;Bratlien" />
		<tag k="name" v="Nordre Brattlia" />
		<tag k="place" v="farm" />
		<tag k="ssr:stedsnr" v="918251" />
	</node>
	<node id="-391224" lat="61.000275001" lon="10.0157194502">
		<tag k="name" v="Fagerlund" />
		<tag k="place" v="hamlet" />
		<tag k="ssr:stedsnr" v="918291" />
	</node>
	<node id="-391221" lat="61.0314944422" lon="9.84930555829">
		<tag k="alt_name" v="Engen" />
		<tag k="name" v="Enga" />
		<tag k="place" v="farm" />
		<tag k="ssr:stedsnr" v="917301" />
	</node>
	<node id="-391220" lat="61.0273138852" lon="9.81675277561">
		<tag k="name" v="Konglebakken" />
		<tag k="place" v="farm" />
		<tag k="ssr:stedsnr" v="917297" />
	</node>
	<node id="-390494" lat="61.0009555519" lon="10.024430549">
		<tag k="name" v="Søre Klemoen" />
		<tag k="place" v="farm" />
		<tag k="ssr:stedsnr" v="128221" />
	</node>
	<node id="-391176" lat="60.8205194418" lon="10.1090499942">
		<tag k="name" v="Ekra" />
		<tag k="place" v="isolated_dwelling" />
		<tag k="ssr:stedsnr" v="726826" />
	</node>
	<node id="-391214" lat="60.8867027739" lon="9.99672222117">
		<tag k="alt_name" v="Høistad" />
		<tag k="name" v="Høystad" />
		<tag k="place" v="farm" />
		<tag k="ssr:stedsnr" v="910091" />
	</node>
	<node id="-391213" lat="61.0115305572" lon="10.0491888964">
		<tag k="name" v="Røste" />
		<tag k="place" v="farm" />
		<tag k="ssr:stedsnr" v="908986" />
	</node>
	<node id="-390428" lat="60.8708277816" lon="10.1810138809">
		<tag k="alt_name" v="Bergum" />
		<tag k="name" v="Bergom" />
		<tag k="place" v="farm" />
		<tag k="ssr:stedsnr" v="251436" />
	</node>
	<node id="-391210" lat="60.7959222211" lon="10.1203055563">
		<tag k="name" v="Andersstuen" />
		<tag k="place" v="farm" />
		<tag k="ssr:stedsnr" v="908747" />
	</node>
	<node id="-392331" lat="60.8294916695" lon="10.102313881">
		<tag k="name" v="Skålerudssvea" />
		<tag k="place" v="farm" />
		<tag k="ssr:stedsnr" v="737621" />
	</node>
	<node id="-391207" lat="60.8159694434" lon="9.959369436">
		<tag k="name" v="Hamarslia" />
		<tag k="place" v="farm" />
		<tag k="ssr:stedsnr" v="908378" />
	</node>
	<node id="-391205" lat="60.8557000027" lon="10.0122499985">
		<tag k="name" v="Nilsejordet" />
		<tag k="place" v="farm" />
		<tag k="ssr:stedsnr" v="908352" />
	</node>
	<node id="-391204" lat="60.8511833323" lon="10.0239222166">
		<tag k="name" v="Grindaheim" />
		<tag k="place" v="farm" />
		<tag k="ssr:stedsnr" v="908351" />
	</node>
	<node id="-391200" lat="60.8264638863" lon="10.0979999926">
		<tag k="name" v="Solhaug" />
		<tag k="place" v="isolated_dwelling" />
		<tag k="ssr:stedsnr" v="908152" />
	</node>
	<node id="-391199" lat="60.9062583378" lon="9.86826111299">
		<tag k="name" v="Rotvasshytta" />
		<tag k="place" v="isolated_dwelling" />
		<tag k="ssr:stedsnr" v="908012" />
	</node>
	<node id="-391196" lat="60.9486111108" lon="9.99555555445">
		<tag k="name" v="Vangen" />
		<tag k="place" v="farm" />
		<tag k="ssr:stedsnr" v="907617" />
	</node>
	<node id="-390490" lat="60.8070555566" lon="9.9141499934">
		<tag k="name" v="Haugom" />
		<tag k="place" v="farm" />
		<tag k="ssr:stedsnr" v="119365" />
	</node>
	<node id="-391188" lat="60.9363805547" lon="10.1597083346">
		<tag k="name" v="Fredstad" />
		<tag k="place" v="farm" />
		<tag k="ssr:stedsnr" v="906590" />
	</node>
	<node id="-391186" lat="60.9008305576" lon="9.96424166825">
		<tag k="historic" v="shieling" />
		<tag k="name" v="Dokkesætra" />
		<tag k="place" v="locality" />
		<tag k="ssr:stedsnr" v="906326" />
	</node>
	<node id="-391185" lat="61.0122187474" lon="9.99965577606">
		<tag k="name" v="Lille Goplen" />
		<tag k="place" v="farm" />
		<tag k="ssr:stedsnr" v="904736" />
	</node>
	<node id="-391184" lat="60.8367194462" lon="9.82553610653">
		<tag k="name" v="Foss" />
		<tag k="place" v="isolated_dwelling" />
		<tag k="ssr:stedsnr" v="904533" />
	</node>
	<node id="-391183" lat="60.8305916654" lon="9.78289167031">
		<tag k="name" v="Lykkja" />
		<tag k="place" v="farm" />
		<tag k="ssr:stedsnr" v="904528" />
	</node>
	<node id="-391180" lat="60.8575888898" lon="10.1885333297">
		<tag k="name" v="Granum" />
		<tag k="place" v="isolated_dwelling" />
		<tag k="ssr:stedsnr" v="906959" />
	</node>
	<node id="-391177" lat="60.8668638864" lon="10.0057527804">
		<tag k="name" v="Bakken" />
		<tag k="place" v="farm" />
		<tag k="ssr:stedsnr" v="906884" />
	</node>
	<node id="-391621" lat="60.9032972246" lon="9.83101667435">
		<tag k="historic" v="shieling" />
		<tag k="name" v="Tyndrumssætra" />
		<tag k="place" v="locality" />
		<tag k="ssr:stedsnr" v="129093" />
	</node>
	<node id="-391175" lat="60.8186138852" lon="10.1137805622">
		<tag k="name" v="Midtre Aurlund" />
		<tag k="place" v="farm" />
		<tag k="ssr:stedsnr" v="726824" />
	</node>
	<node id="-391174" lat="60.7889249978" lon="9.90110556093">
		<tag k="name" v="Øvre Aksjøsveum" />
		<tag k="place" v="farm" />
		<tag k="ssr:stedsnr" v="726509" />
	</node>
	<node id="-391172" lat="60.8311166659" lon="9.9391499966">
		<tag k="name" v="Bjørnmoen" />
		<tag k="place" v="farm" />
		<tag k="ssr:stedsnr" v="725618" />
	</node>
	<node id="-391169" lat="60.9368222258" lon="10.0314305571">
		<tag k="name" v="Smedhaugen" />
		<tag k="place" v="farm" />
		<tag k="ssr:stedsnr" v="725554" />
	</node>
</osm>
