<?xml version="1.0" encoding="UTF-8"?>
<osm version="0.6" generator="osmapis">
	<node lat="60.96681111514718" lon="9.783080562552737" id="-22990">
		<tag k="name" v="Øyangshalla" />
		<tag k="natural" v="slope" />
		<tag k="place" v="locality" />
		<tag k="ssr:stedsnr" v="6910" />
	</node>
	<node lat="61.00261110990772" lon="9.974205549177043" id="-22991">
		<tag k="alt_name" v="Linnbær" />
		<tag k="name" v="Enger" />
		<tag k="place" v="farm" />
		<tag k="ssr:stedsnr" v="7251" />
	</node>
	<node lat="61.026836108429514" lon="9.877402780084296" id="-22992">
		<tag k="alt_name" v="Smeddokken" />
		<tag k="name" v="Smeddokka" />
		<tag k="place" v="farm" />
		<tag k="ssr:stedsnr" v="7320" />
	</node>
	<node lat="61.02911110749116" lon="9.859919437453321" id="-22993">
		<tag k="name" v="Bergli" />
		<tag k="place" v="farm" />
		<tag k="ssr:stedsnr" v="7325" />
	</node>
	<node lat="61.00166993832259" lon="9.941859900491467" id="-22994">
		<tag k="fixme" v="consider place=hamlet" />
		<tag k="name" v="Fossum" />
		<tag k="place" v="farm" />
		<tag k="ssr:stedsnr" v="7348" />
	</node>
	<node lat="61.00861666737934" lon="9.78884444480009" id="-22995">
		<tag k="name" v="Kyrtjernet" />
		<tag k="natural" v="water" />
		<tag k="ssr:stedsnr" v="7361" />
	</node>
	<node lat="61.022883337209144" lon="9.951808337834061" id="-22996">
		<tag k="name" v="Sørli" />
		<tag k="place" v="farm" />
		<tag k="ssr:stedsnr" v="7364" />
	</node>
	<node lat="61.09950000257136" lon="9.876477782394119" id="-22997">
		<tag k="fixme" v="consider natural=peak for the most distinct mountains in the district" />
		<tag k="name" v="Svartkampen" />
		<tag k="natural" v="hill" />
		<tag k="place" v="locality" />
		<tag k="ssr:stedsnr" v="7647" />
	</node>
	<node lat="61.092266670622635" lon="9.825305559388221" id="-22998">
		<tag k="name" v="Bjerttjernet" />
		<tag k="natural" v="water" />
		<tag k="ssr:stedsnr" v="7654" />
	</node>
	<node lat="60.83849999649216" lon="9.776824991294067" id="-22999">
		<tag k="name" v="Øysætra" />
		<tag k="place" v="farm" />
		<tag k="ssr:stedsnr" v="8044" />
	</node>
	<node lat="60.84640833671042" lon="9.924694444910461" id="-23000">
		<tag k="alt_name" v="Rusten" />
		<tag k="name" v="Rusta" />
		<tag k="place" v="farm" />
		<tag k="ssr:stedsnr" v="8060" />
	</node>
	<node lat="60.84828889117734" lon="9.889397222832764" id="-23001">
		<tag k="name" v="Sirirud" />
		<tag k="place" v="farm" />
		<tag k="ssr:stedsnr" v="8061" />
	</node>
	<node lat="60.91287222630873" lon="9.960105561916926" id="-23002">
		<tag k="alt_name" v="Nyvatnet, l;Nyvatn" />
		<tag k="name" v="Vesle Nyvatnet" />
		<tag k="natural" v="water" />
		<tag k="ssr:stedsnr" v="8095" />
	</node>
	<node lat="60.887047222634116" lon="9.81030832918413" id="-23003">
		<tag k="fixme" v="multiple name tags, choose one and add the other to alt_name" />
		<tag k="historic" v="shieling" />
		<tag k="name" v="Holoa;Lortholoa;Holosætra" />
		<tag k="place" v="isolated_dwelling" />
		<tag k="ssr:stedsnr" v="8123" />
	</node>
	<node lat="61.03644166402271" lon="9.851005546772713" id="-23004">
		<tag k="name" v="Svartbekken" />
		<tag k="ssr:stedsnr" v="8355" />
		<tag k="waterway" v="stream" />
	</node>
	<node lat="61.039363892403856" lon="9.884986117055066" id="-23005">
		<tag k="historic" v="shieling" />
		<tag k="name" v="Nørdstelisætra" />
		<tag k="place" v="isolated_dwelling" />
		<tag k="ssr:stedsnr" v="8358" />
	</node>
	<node lat="61.14451944233831" lon="9.750638884745706" id="-23006">
		<tag k="alt_name" v="Tobekktjern" />
		<tag k="name" v="Tobekktjernet" />
		<tag k="natural" v="water" />
		<tag k="ssr:stedsnr" v="8779" />
	</node>
	<node lat="60.81360278143779" lon="9.881594444482111" id="-23007">
		<tag k="alt_name" v="Olalykkjhøgda" />
		<tag k="fixme" v="consider natural=peak for the most distinct mountains in the district" />
		<tag k="name" v="Olalykkja" />
		<tag k="natural" v="hill" />
		<tag k="place" v="locality" />
		<tag k="ssr:stedsnr" v="9202" />
	</node>
	<node lat="60.811902778177824" lon="9.909816660145907" id="-23008">
		<tag k="alt_name" v="Gørrtjern" />
		<tag k="name" v="Gorrtjernet" />
		<tag k="natural" v="water" />
		<tag k="ssr:stedsnr" v="9205" />
	</node>
	<node lat="60.807583331449614" lon="9.923127783224068" id="-23009">
		<tag k="alt_name" v="Nøss-stormyra" />
		<tag k="name" v="Nøsstormyra" />
		<tag k="natural" v="wetland" />
		<tag k="ssr:stedsnr" v="9208" />
	</node>
	<node lat="60.76750833583265" lon="9.906836109946696" id="-23010">
		<tag k="fixme" v="consider natural=peak for the most distinct mountains in the district" />
		<tag k="name" v="Ormhøgda" />
		<tag k="natural" v="hill" />
		<tag k="place" v="locality" />
		<tag k="ssr:stedsnr" v="9140" />
	</node>
	<node lat="60.772574998603076" lon="9.847311110495706" id="-23011">
		<tag k="alt_name" v="Bjørkelivatnet, øvre" />
		<tag k="name" v="Øvre Bjørkelivatnet" />
		<tag k="natural" v="water" />
		<tag k="ssr:stedsnr" v="9145" />
	</node>
	<node lat="60.96414721823667" lon="10.065449997368388" id="-23012">
		<tag k="name" v="Sæter" />
		<tag k="place" v="farm" />
		<tag k="ssr:stedsnr" v="9326" />
	</node>
	<node lat="60.964971464677305" lon="10.016844782134774" id="-23013">
		<tag k="fixme" v="consider place=hamlet" />
		<tag k="name" v="Ullsak" />
		<tag k="old_name" v="Ullensakeer" />
		<tag k="place" v="farm" />
		<tag k="ssr:stedsnr" v="9330" />
	</node>
	<node lat="60.97007500193423" lon="10.185874999429494" id="-23014">
		<tag k="name" v="Bjørnmyrpullen" />
		<tag k="natural" v="water" />
		<tag k="ssr:stedsnr" v="9336" />
	</node>
	<node lat="60.81780832881684" lon="10.058800008259453" id="-23015">
		<tag k="name" v="Sjåheim" />
		<tag k="place" v="farm" />
		<tag k="ssr:stedsnr" v="9604" />
	</node>
	<node lat="60.81603055428398" lon="10.090324994893551" id="-23016">
		<tag k="alt_name" v="Sagstuen" />
		<tag k="name" v="Sagstugua" />
		<tag k="place" v="farm" />
		<tag k="ssr:stedsnr" v="9605" />
	</node>
	<node lat="60.826491668527495" lon="10.057816670157576" id="-23017">
		<tag k="alt_name" v="Åmotstuen" />
		<tag k="name" v="Åmotsstugua" />
		<tag k="place" v="farm" />
		<tag k="ssr:stedsnr" v="9613" />
	</node>
	<node lat="60.82805833058678" lon="10.03864999188869" id="-23018">
		<tag k="alt_name" v="Nordre Tomte" />
		<tag k="name" v="Tomte" />
		<tag k="place" v="farm" />
		<tag k="ssr:stedsnr" v="9614" />
	</node>
	<node lat="60.88134999918506" lon="10.151683339587454" id="-23019">
		<tag k="alt_name" v="Mårsjøhøgda" />
		<tag k="fixme" v="consider natural=peak for the most distinct mountains in the district" />
		<tag k="name" v="Mårsjøåsen" />
		<tag k="natural" v="hill" />
		<tag k="place" v="locality" />
		<tag k="ssr:stedsnr" v="9387" />
	</node>
	<node lat="60.838391663489006" lon="10.12784445052329" id="-23020">
		<tag k="alt_name" v="Engetjern" />
		<tag k="name" v="Engetjernet" />
		<tag k="natural" v="water" />
		<tag k="ssr:stedsnr" v="9508" />
	</node>
	<node lat="60.83435000321796" lon="10.190744443887743" id="-23021">
		<tag k="alt_name" v="Oksetjern" />
		<tag k="name" v="Uksetjernet" />
		<tag k="natural" v="water" />
		<tag k="ssr:stedsnr" v="9511" />
	</node>
	<node lat="60.84608055484699" lon="10.105680552410481" id="-23022">
		<tag k="alt_name" v="Hagen" />
		<tag k="name" v="Rødbergshågån" />
		<tag k="place" v="farm" />
		<tag k="ssr:stedsnr" v="9519" />
	</node>
	<node lat="60.82349953123254" lon="10.014112271536511" id="-23023">
		<tag k="alt_name" v="Sverdslien" />
		<tag k="fixme" v="consider place=hamlet" />
		<tag k="name" v="Sverslia" />
		<tag k="place" v="farm" />
		<tag k="ssr:stedsnr" v="9600" />
	</node>
	<node lat="60.92248610701972" lon="9.91935278575563" id="-23024">
		<tag k="name" v="Hognsætermyra" />
		<tag k="natural" v="wetland" />
		<tag k="ssr:stedsnr" v="9886" />
	</node>
	<node lat="60.95878888749108" lon="9.850744436099447" id="-23025">
		<tag k="alt_name" v="Skjefta" />
		<tag k="name" v="Skofta" />
		<tag k="natural" v="water" />
		<tag k="ssr:stedsnr" v="9893" />
	</node>
	<node lat="60.959058332304366" lon="9.892963883732364" id="-23026">
		<tag k="alt_name" v="Venhaug" />
		<tag k="fixme" v="consider natural=peak for the most distinct mountains in the district" />
		<tag k="name" v="Nordre Venhaugen" />
		<tag k="natural" v="hill" />
		<tag k="place" v="locality" />
		<tag k="ssr:stedsnr" v="9894" />
	</node>
	<node lat="60.9521250003751" lon="9.919397218488188" id="-23027">
		<tag k="fixme" v="consider natural=peak for the most distinct mountains in the district" />
		<tag k="name" v="Kvasshaugen" />
		<tag k="natural" v="hill" />
		<tag k="place" v="locality" />
		<tag k="ssr:stedsnr" v="9896" />
	</node>
	<node lat="60.955147222017295" lon="9.957022226504531" id="-23028">
		<tag k="historic" v="shieling" />
		<tag k="name" v="Fjellsrud" />
		<tag k="place" v="isolated_dwelling" />
		<tag k="ssr:stedsnr" v="9900" />
	</node>
	<node lat="60.975480556333494" lon="9.95389999837979" id="-23029">
		<tag k="alt_name" v="Nørstvatn" />
		<tag k="name" v="Nørdstvatn" />
		<tag k="natural" v="water" />
		<tag k="ssr:stedsnr" v="9936" />
	</node>
	<node lat="60.98863610917096" lon="9.912022226962181" id="-23030">
		<tag k="name" v="Solvang" />
		<tag k="place" v="farm" />
		<tag k="ssr:stedsnr" v="9986" />
	</node>
	<node lat="60.96920277760899" lon="9.892636110037072" id="-23031">
		<tag k="historic" v="shieling" />
		<tag k="name" v="Gjerddalssætra" />
		<tag k="place" v="isolated_dwelling" />
		<tag k="ssr:stedsnr" v="9994" />
	</node>
	<node lat="60.970905556679234" lon="9.89373889305099" id="-23032">
		<tag k="alt_name" v="Hodsætra" />
		<tag k="historic" v="shieling" />
		<tag k="name" v="Vestli" />
		<tag k="place" v="isolated_dwelling" />
		<tag k="ssr:stedsnr" v="9995" />
	</node>
	<node lat="60.961588892561245" lon="9.923158325538175" id="-23033">
		<tag k="fixme" v="consider natural=peak for the most distinct mountains in the district" />
		<tag k="name" v="Søre Venhaugen" />
		<tag k="natural" v="hill" />
		<tag k="place" v="locality" />
		<tag k="ssr:stedsnr" v="236273" />
	</node>
	<node lat="60.96824722658451" lon="9.922244438493658" id="-23034">
		<tag k="name" v="Myrdal" />
		<tag k="place" v="locality" />
		<tag k="ssr:stedsnr" v="236275" />
	</node>
	<node lat="60.95787500142623" lon="9.791372230878048" id="-23039">
		<tag k="name" v="Svartevassdammen" />
		<tag k="ssr:stedsnr" v="236918" />
		<tag k="waterway" v="dam" />
	</node>
	<node lat="60.984613892266275" lon="9.838461115466796" id="-23040">
		<tag k="name" v="Breibekken" />
		<tag k="ssr:stedsnr" v="39515" />
		<tag k="waterway" v="stream" />
	</node>
	<node lat="60.81046944518673" lon="10.09610832445422" id="-23041">
		<tag k="name" v="Bergli" />
		<tag k="place" v="farm" />
		<tag k="ssr:stedsnr" v="39520" />
	</node>
	<node lat="60.796133332343686" lon="10.066938888964492" id="-23042">
		<tag k="name" v="Vintermyrene" />
		<tag k="natural" v="wetland" />
		<tag k="ssr:stedsnr" v="39604" />
	</node>
	<node lat="60.9379555568015" lon="9.805641666983592" id="-23043">
		<tag k="name" v="Dala" />
		<tag k="natural" v="valley" />
		<tag k="place" v="locality" />
		<tag k="ssr:stedsnr" v="236934" />
	</node>
	<node lat="60.885338886452715" lon="10.163383329932426" id="-23044">
		<tag k="name" v="Ytterlia" />
		<tag k="natural" v="slope" />
		<tag k="place" v="locality" />
		<tag k="ssr:stedsnr" v="237217" />
	</node>
	<node lat="60.89780278060645" lon="10.013122218116576" id="-23045">
		<tag k="name" v="Dumsethøgda" />
		<tag k="natural" v="hill" />
		<tag k="place" v="locality" />
		<tag k="ssr:stedsnr" v="238023" />
	</node>
	<node lat="61.024816662407346" lon="10.043852774946593" id="-23046">
		<tag k="name" v="Djupbekken" />
		<tag k="ssr:stedsnr" v="238060" />
		<tag k="waterway" v="stream" />
	</node>
	<node lat="60.95799444481923" lon="10.0133555514162" id="-23047">
		<tag k="name" v="Løken" />
		<tag k="ssr:stedsnr" v="238247" />
		<tag k="waterway" v="stream" />
	</node>
	<node lat="60.790130560054436" lon="10.168691662785205" id="-23048">
		<tag k="name" v="Høytomt" />
		<tag k="old_name" v="Høitomt" />
		<tag k="place" v="farm" />
		<tag k="ssr:stedsnr" v="238268" />
	</node>
	<node lat="60.9352944416164" lon="10.146919442996879" id="-23049">
		<tag k="name" v="Parthaugen" />
		<tag k="place" v="farm" />
		<tag k="ssr:stedsnr" v="238546" />
	</node>
	<node lat="60.99208055258617" lon="9.95145834223893" id="-23050">
		<tag k="name" v="Gjerdåmot" />
		<tag k="natural" v="cape" />
		<tag k="ssr:stedsnr" v="238741" />
	</node>
	<node lat="61.06088888856576" lon="9.960616668288246" id="-23051">
		<tag k="name" v="Kristenhaugen" />
		<tag k="place" v="locality" />
		<tag k="ssr:stedsnr" v="238756" />
	</node>
	<node lat="60.850854225063756" lon="9.939817454877955" id="-23052">
		<tag k="fixme" v="consider place=hamlet" />
		<tag k="name" v="Dårud" />
		<tag k="place" v="farm" />
		<tag k="ssr:stedsnr" v="238861" />
	</node>
	<node lat="60.836699995677726" lon="10.214894446345141" id="-23053">
		<tag k="name" v="Skinnerudelva" />
		<tag k="ssr:stedsnr" v="239000" />
		<tag k="waterway" v="river" />
	</node>
	<node lat="60.96282777656327" lon="9.951674999302378" id="-23054">
		<tag k="name" v="Sollibakkene" />
		<tag k="natural" v="slope" />
		<tag k="place" v="locality" />
		<tag k="ssr:stedsnr" v="238957" />
	</node>
	<node lat="60.849630557769096" lon="9.99659721413539" id="-23055">
		<tag k="name" v="Nedre Sogn" />
		<tag k="place" v="farm" />
		<tag k="ssr:stedsnr" v="239048" />
	</node>
	<node lat="61.112180972264" lon="9.748052311533316" id="-23056">
		<tag k="name" v="Nedre Lenningsvatnet" />
		<tag k="natural" v="water" />
		<tag k="old_name" v="Lenningsv, ned" />
		<tag k="ssr:stedsnr" v="239215" />
		<tag k="water" v="lake" />
	</node>
	<node lat="61.10908888472273" lon="9.728763883844845" id="-23057">
		<tag k="name" v="Øvre Lenningsvatnet" />
		<tag k="natural" v="water" />
		<tag k="old_name" v="Lenningsv, øv" />
		<tag k="ssr:stedsnr" v="239216" />
		<tag k="water" v="lake" />
	</node>
	<node lat="61.00399999754282" lon="9.963261102506701" id="-23060">
		<tag k="amenity" v="school" />
		<tag k="name" v="Granvang" />
		<tag k="ssr:stedsnr" v="54121" />
	</node>
	<node lat="61.00047500421369" lon="10.175822218349152" id="-23063">
		<tag k="name" v="Steinpullen" />
		<tag k="natural" v="water" />
		<tag k="ssr:stedsnr" v="55588" />
	</node>
	<node lat="60.792936113352596" lon="9.958497228667529" id="-23064">
		<tag k="name" v="Nordre Skjelnetjern" />
		<tag k="natural" v="water" />
		<tag k="ssr:stedsnr" v="56503" />
	</node>
	<node lat="60.87160583707187" lon="10.214267891136936" id="-23065">
		<tag k="historic" v="shieling" />
		<tag k="name" v="Nedre Skjaksætra" />
		<tag k="place" v="isolated_dwelling" />
		<tag k="ssr:stedsnr" v="56508" />
	</node>
	<node lat="60.789933330934026" lon="9.971449991996405" id="-23066">
		<tag k="name" v="Akksjøbrenna" />
		<tag k="place" v="locality" />
		<tag k="ssr:stedsnr" v="56413" />
	</node>
	<node lat="60.997444447793086" lon="10.0886805507643" id="-23067">
		<tag k="name" v="Snurubakk" />
		<tag k="place" v="hamlet" />
		<tag k="ssr:stedsnr" v="56424" />
	</node>
	<node lat="60.837486113789666" lon="10.026869447763689" id="-23068">
		<tag k="alt_name" v="Søndre Kolterud" />
		<tag k="name" v="Søre Kolterud" />
		<tag k="place" v="farm" />
		<tag k="ssr:stedsnr" v="240054" />
	</node>
	<node lat="60.95122500047396" lon="10.1602694466119" id="-23069">
		<tag k="name" v="Båtberget" />
		<tag k="natural" v="hill" />
		<tag k="place" v="locality" />
		<tag k="ssr:stedsnr" v="56582" />
	</node>
	<node lat="60.936919446182884" lon="10.161519444874283" id="-23070">
		<tag k="name" v="Myra" />
		<tag k="place" v="farm" />
		<tag k="ssr:stedsnr" v="56585" />
	</node>
	<node lat="60.76077500312348" lon="9.91987778138773" id="-23071">
		<tag k="name" v="Rennelshaugen" />
		<tag k="natural" v="hill" />
		<tag k="place" v="locality" />
		<tag k="ssr:stedsnr" v="57481" />
	</node>
	<node lat="60.90916389031968" lon="10.11601665931273" id="-23072">
		<tag k="name" v="Etarbekken" />
		<tag k="ssr:stedsnr" v="240140" />
		<tag k="waterway" v="stream" />
	</node>
	<node lat="60.82447777973422" lon="10.098244451770581" id="-23073">
		<tag k="name" v="Vestheim" />
		<tag k="place" v="isolated_dwelling" />
		<tag k="ssr:stedsnr" v="240149" />
	</node>
	<node lat="60.81955555391985" lon="9.889666670460027" id="-23075">
		<tag k="name" v="Nysvelia" />
		<tag k="natural" v="slope" />
		<tag k="place" v="locality" />
		<tag k="ssr:stedsnr" v="240152" />
	</node>
	<node lat="60.80650000319839" lon="10.023616657646986" id="-23076">
		<tag k="name" v="Smaltjernsbekken" />
		<tag k="ssr:stedsnr" v="58212" />
		<tag k="waterway" v="stream" />
	</node>
	<node lat="60.84693610707701" lon="10.081605556177399" id="-23077">
		<tag k="alt_name" v="Søndre Gårder" />
		<tag k="name" v="Søre Gårder" />
		<tag k="place" v="farm" />
		<tag k="ssr:stedsnr" v="240017" />
	</node>
	<node lat="60.7914333345962" lon="9.860761110422835" id="-23078">
		<tag k="name" v="Ekornlia" />
		<tag k="natural" v="slope" />
		<tag k="place" v="locality" />
		<tag k="ssr:stedsnr" v="58323" />
	</node>
	<node lat="61.1396194474287" lon="9.82782222245546" id="-23080">
		<tag k="name" v="Maribekken" />
		<tag k="ssr:stedsnr" v="58645" />
		<tag k="waterway" v="stream" />
	</node>
	<node lat="60.965327775657464" lon="10.087525006882862" id="-23081">
		<tag k="name" v="Røstebekken" />
		<tag k="ssr:stedsnr" v="58572" />
		<tag k="waterway" v="stream" />
	</node>
	<node lat="61.133580557787305" lon="9.956824998012053" id="-23082">
		<tag k="name" v="Storlia" />
		<tag k="natural" v="slope" />
		<tag k="place" v="locality" />
		<tag k="ssr:stedsnr" v="58702" />
	</node>
	<node lat="60.86170555521992" lon="10.049886106436063" id="-23083">
		<tag k="name" v="Eng" />
		<tag k="place" v="farm" />
		<tag k="ssr:stedsnr" v="240342" />
	</node>
	<node lat="60.85247499712368" lon="9.872783341928475" id="-23084">
		<tag k="name" v="Leppa" />
		<tag k="ssr:stedsnr" v="58820" />
		<tag k="waterway" v="river" />
	</node>
	<node lat="60.761697221189756" lon="10.053461107099785" id="-23085">
		<tag k="name" v="Furumyra" />
		<tag k="natural" v="wetland" />
		<tag k="ssr:stedsnr" v="240359" />
	</node>
	<node lat="60.885225003596304" lon="10.03910555473286" id="-23087">
		<tag k="name" v="Skomdalen" />
		<tag k="place" v="isolated_dwelling" />
		<tag k="ssr:stedsnr" v="240453" />
	</node>
	<node lat="60.87137221899953" lon="10.058233331964416" id="-23088">
		<tag k="name" v="Fjerdingsbekken" />
		<tag k="ssr:stedsnr" v="240464" />
		<tag k="waterway" v="stream" />
	</node>
	<node lat="61.03040833096468" lon="10.059047221381567" id="-23089">
		<tag k="fixme" v="consider boundary=protected_area and relevant protect_class if not nature reserve" />
		<tag k="leisure" v="nature_reserve" />
		<tag k="name" v="Oddelia naturreservat" />
		<tag k="ssr:stedsnr" v="59490" />
	</node>
	<node lat="60.936413889898034" lon="10.035366674788197" id="-23090">
		<tag k="amenity" v="place_of_worship" />
		<tag k="fixme" v="specify religion=*, denomination=*, building=* etc" />
		<tag k="name" v="Vest-Torpa bedehus" />
		<tag k="ssr:stedsnr" v="240626" />
	</node>
	<node lat="60.8282138926799" lon="9.923799994916937" id="-23091">
		<tag k="name" v="Nordbysvea" />
		<tag k="place" v="locality" />
		<tag k="ssr:stedsnr" v="240687" />
	</node>
	<node lat="61.11429166926252" lon="9.892777781035601" id="-23092">
		<tag k="name" v="Prestpullen" />
		<tag k="natural" v="water" />
		<tag k="ssr:stedsnr" v="240694" />
	</node>
	<node lat="61.121572220608485" lon="9.921177784061996" id="-23093">
		<tag k="name" v="Fiskeskaret" />
		<tag k="natural" v="valley" />
		<tag k="place" v="locality" />
		<tag k="ssr:stedsnr" v="240697" />
	</node>
	<node lat="60.829708334984325" lon="9.945288896747218" id="-23094">
		<tag k="name" v="Bergli" />
		<tag k="place" v="locality" />
		<tag k="ssr:stedsnr" v="240754" />
	</node>
	<node lat="60.96704999571493" lon="9.868827782826738" id="-23095">
		<tag k="name" v="Rognhaugen" />
		<tag k="natural" v="hill" />
		<tag k="place" v="locality" />
		<tag k="ssr:stedsnr" v="240551" />
	</node>
	<node lat="60.96111944697174" lon="10.116933334767278" id="-23096">
		<tag k="name" v="Nordheim" />
		<tag k="place" v="farm" />
		<tag k="ssr:stedsnr" v="240570" />
	</node>
	<node lat="60.862180553510775" lon="9.843150007292172" id="-23097">
		<tag k="name" v="Bergesvea" />
		<tag k="place" v="farm" />
		<tag k="ssr:stedsnr" v="240801" />
	</node>
	<node lat="60.909522224399524" lon="10.023469452053778" id="-23098">
		<tag k="landuse" v="meadow" />
		<tag k="name" v="Vesterslåttene" />
		<tag k="ssr:stedsnr" v="240923" />
	</node>
	<node lat="60.99923611199978" lon="10.039130555898232" id="-23099">
		<tag k="name" v="Rognstadhaugen" />
		<tag k="natural" v="hill" />
		<tag k="place" v="locality" />
		<tag k="ssr:stedsnr" v="240973" />
	</node>
	<node lat="60.95754722593393" lon="9.788983325100133" id="-23100">
		<tag k="name" v="Nedre Svartevatnet" />
		<tag k="natural" v="water" />
		<tag k="ssr:stedsnr" v="66901" />
	</node>
	<node lat="61.02144722195205" lon="9.979388894566656" id="-23101">
		<tag k="name" v="Strand" />
		<tag k="place" v="locality" />
		<tag k="ssr:stedsnr" v="67244" />
	</node>
	<node lat="61.032713887265736" lon="9.826880559561852" id="-23102">
		<tag k="name" v="Hugulisveom" />
		<tag k="place" v="locality" />
		<tag k="ssr:stedsnr" v="68344" />
	</node>
	<node lat="61.01137500093968" lon="10.049216669491033" id="-23103">
		<tag k="name" v="Røste" />
		<tag k="place" v="farm" />
		<tag k="ssr:stedsnr" v="68235" />
	</node>
	<node lat="60.84785277758403" lon="9.915552774472252" id="-23104">
		<tag k="alt_name" v="Evenstuen" />
		<tag k="name" v="Evenstugu" />
		<tag k="place" v="farm" />
		<tag k="ssr:stedsnr" v="69044" />
	</node>
	<node lat="60.8521821861602" lon="9.845824016866459" id="-23105">
		<tag k="name" v="Sørebøen" />
		<tag k="place" v="farm" />
		<tag k="ssr:stedsnr" v="69051" />
	</node>
	<node lat="60.784477780637225" lon="9.95090000347287" id="-23106">
		<tag k="name" v="Meåa" />
		<tag k="natural" v="strait" />
		<tag k="ssr:stedsnr" v="69138" />
	</node>
	<node lat="60.88244444748094" lon="10.10390277117292" id="-23107">
		<tag k="name" v="Trysilmyra" />
		<tag k="natural" v="wetland" />
		<tag k="ssr:stedsnr" v="69431" />
	</node>
	<node lat="60.874802778940996" lon="10.162613883930653" id="-23108">
		<tag k="name" v="Springbekken" />
		<tag k="ssr:stedsnr" v="69443" />
		<tag k="waterway" v="stream" />
	</node>
	<node lat="60.92378333048464" lon="9.980852775357716" id="-23109">
		<tag k="name" v="Meinset" />
		<tag k="place" v="locality" />
		<tag k="ssr:stedsnr" v="69484" />
	</node>
	<node lat="60.92411389068216" lon="10.0854583249681" id="-23110">
		<tag k="name" v="Smedhaugen" />
		<tag k="place" v="farm" />
		<tag k="ssr:stedsnr" v="69487" />
	</node>
	<node lat="60.89048611009292" lon="9.972361105917303" id="-23111">
		<tag k="name" v="Måsåputten" />
		<tag k="place" v="locality" />
		<tag k="ssr:stedsnr" v="69393" />
	</node>
	<node lat="60.92095555722836" lon="10.064727777735579" id="-23112">
		<tag k="name" v="Søndre Erstad" />
		<tag k="place" v="farm" />
		<tag k="ssr:stedsnr" v="69508" />
	</node>
	<node lat="60.90886666378588" lon="10.157694444317125" id="-23113">
		<tag k="historic" v="shieling" />
		<tag k="name" v="Hovdelia" />
		<tag k="place" v="isolated_dwelling" />
		<tag k="ssr:stedsnr" v="69521" />
	</node>
	<node lat="60.89726666919896" lon="10.039066658125023" id="-23114">
		<tag k="name" v="Voll" />
		<tag k="place" v="isolated_dwelling" />
		<tag k="ssr:stedsnr" v="69527" />
	</node>
	<node lat="60.90137777978704" lon="10.121700001099143" id="-23115">
		<tag k="alt_name" v="Djupskaret" />
		<tag k="name" v="Djupskardet" />
		<tag k="natural" v="valley" />
		<tag k="place" v="locality" />
		<tag k="ssr:stedsnr" v="69533" />
	</node>
	<node lat="60.83584444087765" lon="9.92933611307024" id="-23116">
		<tag k="name" v="Fagertun" />
		<tag k="place" v="farm" />
		<tag k="ssr:stedsnr" v="70189" />
	</node>
	<node lat="60.985747224944575" lon="10.08853887989477" id="-23117">
		<tag k="name" v="Sørum" />
		<tag k="place" v="farm" />
		<tag k="ssr:stedsnr" v="70308" />
	</node>
	<node lat="60.98203610884333" lon="10.134775004210885" id="-23118">
		<tag k="name" v="Elgebakkmyra" />
		<tag k="natural" v="wetland" />
		<tag k="ssr:stedsnr" v="70310" />
	</node>
	<node lat="60.83716667006399" lon="9.858177781301691" id="-23119">
		<tag k="name" v="Jemtland" />
		<tag k="place" v="farm" />
		<tag k="ssr:stedsnr" v="70034" />
	</node>
	<node lat="60.8361222231604" lon="10.04200277219194" id="-23120">
		<tag k="name" v="Mosvea" />
		<tag k="place" v="farm" />
		<tag k="ssr:stedsnr" v="70484" />
	</node>
	<node lat="60.84271666514552" lon="10.155688880561085" id="-23121">
		<tag k="name" v="Bjeglerud" />
		<tag k="place" v="farm" />
		<tag k="ssr:stedsnr" v="70490" />
	</node>
	<node lat="60.83851110900278" lon="10.162511108685425" id="-23122">
		<tag k="alt_name" v="Hovelsrud" />
		<tag k="name" v="Håvålsrud" />
		<tag k="place" v="farm" />
		<tag k="ssr:stedsnr" v="70491" />
	</node>
	<node lat="60.84916389019074" lon="10.188000007956072" id="-23123">
		<tag k="name" v="Røbergsætra" />
		<tag k="place" v="farm" />
		<tag k="ssr:stedsnr" v="70495" />
	</node>
	<node lat="60.80897777462232" lon="9.982486109568697" id="-23124">
		<tag k="name" v="Svartputten" />
		<tag k="natural" v="water" />
		<tag k="ssr:stedsnr" v="70622" />
	</node>
	<node lat="60.84644728075108" lon="10.077989368196256" id="-23125">
		<tag k="alt_name" v="Grangård" />
		<tag k="fixme" v="consider place=hamlet" />
		<tag k="name" v="Granngard" />
		<tag k="place" v="farm" />
		<tag k="ssr:stedsnr" v="70513" />
	</node>
	<node lat="60.85870833123661" lon="9.974586104391483" id="-23126">
		<tag k="name" v="Nordhaug" />
		<tag k="place" v="farm" />
		<tag k="ssr:stedsnr" v="70530" />
	</node>
	<node lat="60.81117777694983" lon="10.108247216865282" id="-23127">
		<tag k="name" v="Elveflata" />
		<tag k="place" v="farm" />
		<tag k="ssr:stedsnr" v="70576" />
	</node>
	<node lat="60.95245555362479" lon="9.93247778188671" id="-23128">
		<tag k="name" v="Brandsrudelva" />
		<tag k="ssr:stedsnr" v="70914" />
		<tag k="waterway" v="stream" />
	</node>
	<node lat="60.94696666604517" lon="9.89506111909131" id="-23129">
		<tag k="fixme" v="consider natural=peak for the most distinct mountains in the district" />
		<tag k="name" v="Rådalshøgda" />
		<tag k="natural" v="hill" />
		<tag k="place" v="locality" />
		<tag k="ssr:stedsnr" v="70924" />
	</node>
	<node lat="60.97515833166673" lon="9.855819442808652" id="-23130">
		<tag k="alt_name" v="Vesterås" />
		<tag k="name" v="Slottsætra" />
		<tag k="place" v="farm" />
		<tag k="ssr:stedsnr" v="70995" />
	</node>
	<node lat="60.974733335266926" lon="9.864861117132422" id="-23131">
		<tag k="name" v="Gjerda" />
		<tag k="ssr:stedsnr" v="70996" />
		<tag k="waterway" v="river" />
	</node>
	<node lat="60.94651389186528" lon="9.824777776744016" id="-23132">
		<tag k="highway" v="path" />
		<tag k="name" v="Øyangsvegen" />
		<tag k="ssr:stedsnr" v="100681" />
	</node>
	<node lat="60.245433336755056" lon="10.395469440791546" id="-23133">
		<tag k="name" v="Randsfjorden" />
		<tag k="natural" v="water" />
		<tag k="ssr:stedsnr" v="248364" />
		<tag k="water" v="lake" />
	</node>
	<node lat="60.93811389288698" lon="10.1479249910142" id="-23135">
		<tag k="name" v="Enger" />
		<tag k="old_name" v="Fredstad" />
		<tag k="place" v="farm" />
		<tag k="ssr:stedsnr" v="103316" />
	</node>
	<node lat="61.02331944891607" lon="10.09761666845497" id="-23136">
		<tag k="name" v="Bjørkeli" />
		<tag k="place" v="farm" />
		<tag k="ssr:stedsnr" v="249183" />
	</node>
	<node lat="61.02766388532072" lon="10.076852768510527" id="-23137">
		<tag k="alt_name" v="Skartlia, s;Søndre Skartlia" />
		<tag k="name" v="Søre Skartlia" />
		<tag k="place" v="farm" />
		<tag k="ssr:stedsnr" v="249188" />
	</node>
	<node lat="61.02748333470139" lon="10.079011118156636" id="-23138">
		<tag k="fixme" v="consider place=hamlet" />
		<tag k="name" v="Skartlibygda" />
		<tag k="place" v="village" />
		<tag k="ssr:stedsnr" v="249189" />
	</node>
	<node lat="61.0173027756542" lon="9.985013883722658" id="-23139">
		<tag k="name" v="Skogly" />
		<tag k="place" v="farm" />
		<tag k="ssr:stedsnr" v="249191" />
	</node>
	<node lat="61.04956388687927" lon="10.032347221970943" id="-23140">
		<tag k="name" v="Geitryggmyra" />
		<tag k="natural" v="wetland" />
		<tag k="ssr:stedsnr" v="250049" />
	</node>
	<node lat="61.035900993378256" lon="10.055955582623216" id="-23141">
		<tag k="fixme" v="consider place=hamlet" />
		<tag k="name" v="Odde" />
		<tag k="place" v="farm" />
		<tag k="ssr:stedsnr" v="250191" />
	</node>
	<node lat="61.009644447546165" lon="9.99213889297114" id="-23142">
		<tag k="alt_name" v="Granheim, nedre" />
		<tag k="name" v="Nedre Granheim" />
		<tag k="place" v="farm" />
		<tag k="ssr:stedsnr" v="250242" />
	</node>
	<node lat="61.00771389227257" lon="10.191052769349858" id="-23143">
		<tag k="alt_name" v="Kråkhuggukampen" />
		<tag k="fixme" v="consider natural=peak for the most distinct mountains in the district" />
		<tag k="name" v="Kråkhugukampen" />
		<tag k="natural" v="hill" />
		<tag k="place" v="locality" />
		<tag k="ssr:stedsnr" v="250250" />
	</node>
	<node lat="61.02452777593801" lon="9.88165000889882" id="-23144">
		<tag k="alt_name" v="Kampelien" />
		<tag k="name" v="Kampelia" />
		<tag k="place" v="farm" />
		<tag k="ssr:stedsnr" v="250322" />
	</node>
	<node lat="61.02603610949241" lon="9.842163891693202" id="-23145">
		<tag k="alt_name" v="Undlien" />
		<tag k="name" v="Undelia" />
		<tag k="place" v="farm" />
		<tag k="ssr:stedsnr" v="250330" />
	</node>
	<node lat="61.00984166712227" lon="9.78049444055272" id="-23146">
		<tag k="alt_name" v="Vesle Rakaslyngen" />
		<tag k="name" v="Veslrakaslynga" />
		<tag k="natural" v="water" />
		<tag k="ssr:stedsnr" v="250363" />
	</node>
	<node lat="60.98692222000406" lon="10.190680546667918" id="-23147">
		<tag k="name" v="Sengeklærmyra" />
		<tag k="natural" v="wetland" />
		<tag k="ssr:stedsnr" v="115130" />
	</node>
	<node lat="61.041580556090615" lon="10.17273332921809" id="-23148">
		<tag k="name" v="Fjellolia" />
		<tag k="natural" v="slope" />
		<tag k="place" v="locality" />
		<tag k="ssr:stedsnr" v="115132" />
	</node>
	<node lat="61.07083333476062" lon="9.92383611936199" id="-23150">
		<tag k="historic" v="shieling" />
		<tag k="name" v="Åssætra" />
		<tag k="place" v="isolated_dwelling" />
		<tag k="ssr:stedsnr" v="250632" />
	</node>
	<node lat="61.055516668947035" lon="9.903741668916773" id="-23151">
		<tag k="ford" v="yes" />
		<tag k="name" v="Tverråvadet" />
		<tag k="place" v="locality" />
		<tag k="ssr:stedsnr" v="250639" />
	</node>
	<node lat="61.045380551392135" lon="9.786202784599473" id="-23152">
		<tag k="alt_name" v="Gammelsætra" />
		<tag k="historic" v="shieling" />
		<tag k="name" v="Gammalsætra" />
		<tag k="place" v="isolated_dwelling" />
		<tag k="ssr:stedsnr" v="250643" />
	</node>
	<node lat="61.04536388691378" lon="9.947086107897762" id="-23153">
		<tag k="name" v="Tverråsletta" />
		<tag k="place" v="isolated_dwelling" />
		<tag k="ssr:stedsnr" v="250645" />
	</node>
	<node lat="61.09089166435187" lon="9.91869167406833" id="-23154">
		<tag k="name" v="Krokhølen" />
		<tag k="place" v="locality" />
		<tag k="ssr:stedsnr" v="250669" />
	</node>
	<node lat="60.84495277823567" lon="9.956872229357879" id="-23155">
		<tag k="name" v="Hansejordet" />
		<tag k="place" v="farm" />
		<tag k="ssr:stedsnr" v="117008" />
	</node>
	<node lat="60.897469443448436" lon="10.039119443481212" id="-23156">
		<tag k="name" v="Dumsetrønningen" />
		<tag k="place" v="locality" />
		<tag k="ssr:stedsnr" v="117024" />
	</node>
	<node lat="61.08481944537725" lon="9.805699997093715" id="-23157">
		<tag k="name" v="Bjerttjerna" />
		<tag k="natural" v="water" />
		<tag k="ssr:stedsnr" v="250685" />
		<tag k="water" v="lake" />
	</node>
	<node lat="60.84497221867682" lon="10.158697221177917" id="-23158">
		<tag k="name" v="Skinnerudselva" />
		<tag k="ssr:stedsnr" v="117104" />
		<tag k="waterway" v="stream" />
	</node>
	<node lat="61.149224996105744" lon="9.914330556031292" id="-23159">
		<tag k="fixme" v="consider natural=peak for the most distinct mountains in the district" />
		<tag k="name" v="Middagstippen" />
		<tag k="natural" v="hill" />
		<tag k="place" v="locality" />
		<tag k="ssr:stedsnr" v="250739" />
	</node>
	<node lat="60.84558611147439" lon="10.24185833672235" id="-23160">
		<tag k="name" v="Puffen" />
		<tag k="place" v="locality" />
		<tag k="ssr:stedsnr" v="117940" />
	</node>
	<node lat="60.74733611554216" lon="9.850186114744233" id="-23161">
		<tag k="name" v="Bardalshytta" />
		<tag k="place" v="isolated_dwelling" />
		<tag k="ssr:stedsnr" v="250785" />
	</node>
	<node lat="60.93367992544548" lon="10.150317688517699" id="-23163">
		<tag k="fixme" v="consider place=hamlet" />
		<tag k="name" v="Frøysåk" />
		<tag k="place" v="farm" />
		<tag k="ssr:stedsnr" v="118177" />
	</node>
	<node lat="60.78078889252808" lon="9.8659305613498" id="-23164">
		<tag k="name" v="Kullsvelia" />
		<tag k="natural" v="slope" />
		<tag k="place" v="locality" />
		<tag k="ssr:stedsnr" v="118282" />
	</node>
	<node lat="60.91819722449525" lon="10.04460554965566" id="-23165">
		<tag k="name" v="Sveen" />
		<tag k="place" v="hamlet" />
		<tag k="ssr:stedsnr" v="118873" />
	</node>
	<node lat="61.125769445391725" lon="9.699855552776109" id="-23166">
		<tag k="name" v="Røssjørompa" />
		<tag k="natural" v="water" />
		<tag k="ssr:stedsnr" v="118877" />
	</node>
	<node lat="61.0665222231043" lon="9.900197230962018" id="-23167">
		<tag k="name" v="Flæene" />
		<tag k="natural" v="wetland" />
		<tag k="ssr:stedsnr" v="119229" />
	</node>
	<node lat="60.829436113591456" lon="10.089124991877311" id="-23168">
		<tag k="name" v="Nordre Tonvoll" />
		<tag k="place" v="farm" />
		<tag k="ssr:stedsnr" v="119111" />
	</node>
	<node lat="60.833202777726136" lon="10.07527500658784" id="-23169">
		<tag k="name" v="Dokka stasjon" />
		<tag k="railway" v="station" />
		<tag k="ssr:stedsnr" v="119144" />
		<tag k="train" v="yes" />
	</node>
	<node lat="60.74442499723409" lon="10.0238583307868" id="-23170">
		<tag k="name" v="Hovdedammen" />
		<tag k="place" v="locality" />
		<tag k="ssr:stedsnr" v="119324" />
	</node>
	<node lat="60.75221389164507" lon="9.994675000330053" id="-23171">
		<tag k="name" v="Flesmyrene" />
		<tag k="natural" v="wetland" />
		<tag k="ssr:stedsnr" v="119616" />
	</node>
	<node lat="60.85546944450697" lon="9.84100277021491" id="-23172">
		<tag k="alt_name" v="Lillehaug;Haug" />
		<tag k="name" v="Veslehaug" />
		<tag k="place" v="farm" />
		<tag k="ssr:stedsnr" v="251006" />
	</node>
	<node lat="60.8571472234685" lon="9.814908334255692" id="-23173">
		<tag k="fixme" v="consider natural=peak for the most distinct mountains in the district" />
		<tag k="name" v="Dronningknatten" />
		<tag k="natural" v="hill" />
		<tag k="place" v="locality" />
		<tag k="ssr:stedsnr" v="251007" />
	</node>
	<node lat="60.86016075586414" lon="9.834907342613764" id="-23174">
		<tag k="alt_name" v="Stuvkampen" />
		<tag k="fixme" v="consider natural=peak for the most distinct mountains in the district" />
		<tag k="name" v="Stuvengkampen" />
		<tag k="natural" v="hill" />
		<tag k="place" v="locality" />
		<tag k="ssr:stedsnr" v="251009" />
	</node>
	<node lat="60.91094072046382" lon="9.942230359819865" id="-23175">
		<tag k="alt_name" v="Åbortjernet, store;Søndre Abborvatn" />
		<tag k="name" v="Store Åbortjernet" />
		<tag k="natural" v="water" />
		<tag k="ssr:stedsnr" v="251089" />
	</node>
	<node lat="60.84516388557305" lon="9.950105564530217" id="-23176">
		<tag k="alt_name" v="Esbjug, øvre" />
		<tag k="name" v="Øvre Esbjug" />
		<tag k="place" v="farm" />
		<tag k="ssr:stedsnr" v="251057" />
	</node>
	<node lat="60.851352855260465" lon="9.899988730271081" id="-23177">
		<tag k="fixme" v="consider place=hamlet" />
		<tag k="name" v="Tomle" />
		<tag k="place" v="farm" />
		<tag k="ssr:stedsnr" v="251061" />
	</node>
	<node lat="60.85815929018394" lon="9.960771333650136" id="-23178">
		<tag k="fixme" v="multiple name tags, choose one and add the other to alt_name" />
		<tag k="name" v="Brundammen;Rønningsdammen" />
		<tag k="natural" v="water" />
		<tag k="ssr:stedsnr" v="251065" />
	</node>
	<node lat="60.9019361087394" lon="9.797116661004257" id="-23179">
		<tag k="alt_name" v="Leppsjøen, nedre" />
		<tag k="name" v="Nedre Leppsjøen" />
		<tag k="natural" v="water" />
		<tag k="ssr:stedsnr" v="251081" />
	</node>
	<node lat="60.87837222216231" lon="9.845419436966855" id="-23180">
		<tag k="alt_name" v="Søndre Lier" />
		<tag k="name" v="Lierjordet" />
		<tag k="place" v="farm" />
		<tag k="ssr:stedsnr" v="251111" />
	</node>
	<node lat="60.88655277621881" lon="9.882480550530296" id="-23181">
		<tag k="name" v="Flisa" />
		<tag k="ssr:stedsnr" v="251127" />
		<tag k="waterway" v="stream" />
	</node>
	<node lat="60.897988890546834" lon="9.853472223706207" id="-23182">
		<tag k="name" v="Flågamyrtjernet" />
		<tag k="natural" v="water" />
		<tag k="ssr:stedsnr" v="251132" />
	</node>
	<node lat="60.77679721970799" lon="9.852583327924668" id="-23183">
		<tag k="alt_name" v="Langvatn" />
		<tag k="name" v="Langvatnet" />
		<tag k="natural" v="water" />
		<tag k="ssr:stedsnr" v="251150" />
	</node>
	<node lat="60.94604167064327" lon="9.985933334529095" id="-23184">
		<tag k="alt_name" v="Lundsæteren" />
		<tag k="name" v="Lundsætra" />
		<tag k="place" v="farm" />
		<tag k="ssr:stedsnr" v="251269" />
	</node>
	<node lat="60.94451111460689" lon="9.97528888313161" id="-23185">
		<tag k="alt_name" v="Brendengen" />
		<tag k="name" v="Brennenga" />
		<tag k="place" v="farm" />
		<tag k="ssr:stedsnr" v="251276" />
	</node>
	<node lat="60.95807221878429" lon="10.1660749947394" id="-23186">
		<tag k="alt_name" v="Flåmyrene" />
		<tag k="name" v="Flåmyra" />
		<tag k="natural" v="wetland" />
		<tag k="ssr:stedsnr" v="251283" />
	</node>
	<node lat="60.936473394840874" lon="10.155092752976756" id="-23187">
		<tag k="fixme" v="consider place=hamlet" />
		<tag k="name" v="Kjennsjord" />
		<tag k="place" v="farm" />
		<tag k="ssr:stedsnr" v="251343" />
	</node>
	<node lat="61.001509290147204" lon="10.02201850040073" id="-23188">
		<tag k="fixme" v="consider place=hamlet" />
		<tag k="name" v="Klemoen" />
		<tag k="place" v="farm" />
		<tag k="ssr:stedsnr" v="121520" />
	</node>
	<node lat="60.94420833173899" lon="10.122744445485802" id="-23189">
		<tag k="alt_name" v="Opsal" />
		<tag k="name" v="Haugland" />
		<tag k="place" v="farm" />
		<tag k="ssr:stedsnr" v="251299" />
	</node>
	<node lat="60.92183055214801" lon="10.071269439175143" id="-23190">
		<tag k="fixme" v="consider place=hamlet" />
		<tag k="name" v="Vest-Torpa" />
		<tag k="place" v="village" />
		<tag k="ssr:stedsnr" v="251304" />
	</node>
	<node lat="60.93630262728839" lon="10.02741666640077" id="-23191">
		<tag k="fixme" v="consider place=hamlet" />
		<tag k="name" v="Grøtåsen" />
		<tag k="place" v="farm" />
		<tag k="ssr:stedsnr" v="251318" />
	</node>
	<node lat="60.93359444619382" lon="10.133572229911513" id="-23192">
		<tag k="name" v="Søre Kinn" />
		<tag k="place" v="farm" />
		<tag k="ssr:stedsnr" v="251344" />
	</node>
	<node lat="60.96423332891433" lon="10.105072224457853" id="-23193">
		<tag k="name" v="Steinsvoll" />
		<tag k="place" v="locality" />
		<tag k="ssr:stedsnr" v="251374" />
	</node>
	<node lat="60.95050277652389" lon="10.138944441739923" id="-23194">
		<tag k="fixme" v="consider place=hamlet" />
		<tag k="name" v="Aust-Torpa" />
		<tag k="place" v="village" />
		<tag k="ssr:stedsnr" v="251383" />
	</node>
	<node lat="60.87082778162431" lon="10.181013880913675" id="-23195">
		<tag k="alt_name" v="Bergum" />
		<tag k="name" v="Bergom" />
		<tag k="place" v="farm" />
		<tag k="ssr:stedsnr" v="251436" />
	</node>
	<node lat="60.87314999976778" lon="10.09089166906923" id="-23196">
		<tag k="historic" v="shieling" />
		<tag k="name" v="Lerretsdalen" />
		<tag k="place" v="isolated_dwelling" />
		<tag k="ssr:stedsnr" v="251424" />
	</node>
	<node lat="60.923630559777244" lon="9.989647223115291" id="-23197">
		<tag k="name" v="Småmyrreset" />
		<tag k="natural" v="hill" />
		<tag k="place" v="locality" />
		<tag k="ssr:stedsnr" v="251484" />
	</node>
	<node lat="60.922535301254165" lon="10.061776723288245" id="-23198">
		<tag k="fixme" v="consider place=hamlet" />
		<tag k="name" v="Erstad" />
		<tag k="place" v="farm" />
		<tag k="ssr:stedsnr" v="251491" />
	</node>
	<node lat="60.913288885207386" lon="9.97345000456992" id="-23199">
		<tag k="name" v="Femputtmyra" />
		<tag k="natural" v="wetland" />
		<tag k="ssr:stedsnr" v="251498" />
	</node>
	<node lat="60.902563890548045" lon="10.200752785173714" id="-23200">
		<tag k="name" v="Svartbekken" />
		<tag k="ssr:stedsnr" v="251521" />
		<tag k="waterway" v="stream" />
	</node>
	<node lat="60.86522777478172" lon="10.048419439159385" id="-23201">
		<tag k="alt_name" v="Brateng" />
		<tag k="name" v="Bratteng" />
		<tag k="place" v="farm" />
		<tag k="ssr:stedsnr" v="251443" />
	</node>
	<node lat="60.93162222056788" lon="10.043144451988242" id="-23202">
		<tag k="amenity" v="place_of_worship" />
		<tag k="denomination" v="lutheran" />
		<tag k="name" v="Lunde kirke" />
		<tag k="religion" v="christian" />
		<tag k="ssr:stedsnr" v="251460" />
	</node>
	<node lat="60.93278610790457" lon="10.087966667731035" id="-23203">
		<tag k="name" v="Nyland" />
		<tag k="place" v="farm" />
		<tag k="ssr:stedsnr" v="251464" />
	</node>
	<node lat="60.80472499684731" lon="10.003744441519926" id="-23204">
		<tag k="alt_name" v="Sjuputtmyrene" />
		<tag k="name" v="Sjuputtmyra" />
		<tag k="natural" v="wetland" />
		<tag k="ssr:stedsnr" v="251590" />
	</node>
	<node lat="60.927458334214684" lon="9.96080278203491" id="-23205">
		<tag k="alt_name" v="Lundmyra" />
		<tag k="name" v="Lunnmyra" />
		<tag k="natural" v="wetland" />
		<tag k="ssr:stedsnr" v="251914" />
	</node>
	<node lat="60.83966944232378" lon="9.867577785512756" id="-23206">
		<tag k="name" v="Støa" />
		<tag k="place" v="farm" />
		<tag k="ssr:stedsnr" v="252024" />
	</node>
	<node lat="60.836097223088295" lon="9.863544452636562" id="-23207">
		<tag k="name" v="Flata" />
		<tag k="place" v="farm" />
		<tag k="ssr:stedsnr" v="252025" />
	</node>
	<node lat="60.75765633803867" lon="9.86524715256105" id="-23208">
		<tag k="alt_name" v="Nordre Tverrvatn" />
		<tag k="name" v="Tverrvatnet" />
		<tag k="natural" v="water" />
		<tag k="ssr:stedsnr" v="252144" />
		<tag k="water" v="lake" />
	</node>
	<node lat="60.758999999390376" lon="9.93626944334175" id="-23209">
		<tag k="alt_name" v="Skøiensætra" />
		<tag k="historic" v="shieling" />
		<tag k="name" v="Bjørkesætra" />
		<tag k="place" v="isolated_dwelling" />
		<tag k="ssr:stedsnr" v="252145" />
	</node>
	<node lat="60.753280559335835" lon="9.884727771149372" id="-23210">
		<tag k="alt_name" v="Nyvatn" />
		<tag k="name" v="Nyvatnet" />
		<tag k="natural" v="water" />
		<tag k="ssr:stedsnr" v="252125" />
	</node>
	<node lat="60.76115833426842" lon="9.933536106287887" id="-23211">
		<tag k="historic" v="shieling" />
		<tag k="name" v="Haugsætra" />
		<tag k="place" v="isolated_dwelling" />
		<tag k="ssr:stedsnr" v="252128" />
	</node>
	<node lat="60.813158469631965" lon="9.922008075712524" id="-23212">
		<tag k="fixme" v="consider place=hamlet" />
		<tag k="name" v="Nøss" />
		<tag k="place" v="farm" />
		<tag k="ssr:stedsnr" v="252218" />
	</node>
	<node lat="61.053638885091516" lon="10.125980553957737" id="-23213">
		<tag k="name" v="Kinnsdokka" />
		<tag k="place" v="locality" />
		<tag k="ssr:stedsnr" v="128043" />
	</node>
	<node lat="60.99373610936943" lon="10.177402781716815" id="-23214">
		<tag k="alt_name" v="Julkrudshøgda" />
		<tag k="name" v="Julkerudshøgda" />
		<tag k="natural" v="hill" />
		<tag k="place" v="locality" />
		<tag k="ssr:stedsnr" v="252289" />
	</node>
	<node lat="60.99343610957624" lon="10.15089999286764" id="-23215">
		<tag k="historic" v="shieling" />
		<tag k="name" v="Vinjarsætra" />
		<tag k="place" v="isolated_dwelling" />
		<tag k="ssr:stedsnr" v="252290" />
	</node>
	<node lat="60.987138885549975" lon="10.132224997309825" id="-23216">
		<tag k="name" v="Vinjarelva" />
		<tag k="ssr:stedsnr" v="252296" />
		<tag k="waterway" v="stream" />
	</node>
	<node lat="60.99129722490749" lon="10.122150009008571" id="-23217">
		<tag k="name" v="Halvfaremyra" />
		<tag k="natural" v="wetland" />
		<tag k="ssr:stedsnr" v="252297" />
	</node>
	<node lat="60.970605559750865" lon="10.089977782853396" id="-23218">
		<tag k="alt_name" v="Grønvoll Bruk" />
		<tag k="building" v="industrial" />
		<tag k="industrial" v="factory" />
		<tag k="name" v="Grønvoll" />
		<tag k="ssr:stedsnr" v="252306" />
	</node>
	<node lat="61.02095000001613" lon="10.098680559208185" id="-23219">
		<tag k="alt_name" v="Lystne" />
		<tag k="name" v="Lysne" />
		<tag k="place" v="farm" />
		<tag k="ssr:stedsnr" v="128192" />
	</node>
	<node lat="61.00986666358691" lon="10.174763890769887" id="-23220">
		<tag k="name" v="Finnsjøen" />
		<tag k="natural" v="water" />
		<tag k="ssr:stedsnr" v="128195" />
	</node>
	<node lat="61.012661111877264" lon="10.160975004362653" id="-23221">
		<tag k="name" v="Medvatnet" />
		<tag k="natural" v="water" />
		<tag k="ssr:stedsnr" v="128196" />
	</node>
	<node lat="61.00370555347138" lon="9.969283329998335" id="-23222">
		<tag k="name" v="Dal" />
		<tag k="place" v="farm" />
		<tag k="ssr:stedsnr" v="128206" />
	</node>
	<node lat="61.030275001192784" lon="9.897352781119183" id="-23223">
		<tag k="alt_name" v="Karustjernet" />
		<tag k="name" v="Nedre Karusstjernet" />
		<tag k="natural" v="water" />
		<tag k="ssr:stedsnr" v="128291" />
	</node>
	<node lat="61.094763888854764" lon="9.71611944063675" id="-23224">
		<tag k="name" v="Regla" />
		<tag k="natural" v="water" />
		<tag k="ssr:stedsnr" v="128655" />
	</node>
	<node lat="60.87489162588659" lon="9.797153858982984" id="-23225">
		<tag k="fixme" v="multiple name tags, choose one and add the other to alt_name" />
		<tag k="name" v="Øvre Skilnadputten;Øvre Skjelnetjern" />
		<tag k="natural" v="water" />
		<tag k="ssr:stedsnr" v="129115" />
	</node>
	<node lat="60.887152782113795" lon="9.830019442776305" id="-23226">
		<tag k="fixme" v="consider natural=peak for the most distinct mountains in the district" />
		<tag k="name" v="Lierberget" />
		<tag k="natural" v="hill" />
		<tag k="place" v="locality" />
		<tag k="ssr:stedsnr" v="129134" />
	</node>
	<node lat="60.90329722462993" lon="9.831016674349998" id="-23227">
		<tag k="historic" v="shieling" />
		<tag k="name" v="Tyndrumssætra" />
		<tag k="place" v="isolated_dwelling" />
		<tag k="ssr:stedsnr" v="129093" />
	</node>
	<node lat="60.87451666804625" lon="10.01285555247344" id="-23228">
		<tag k="name" v="Vangsjøbekken" />
		<tag k="ssr:stedsnr" v="129406" />
		<tag k="waterway" v="stream" />
	</node>
	<node lat="60.87035833592448" lon="10.215324998134685" id="-23229">
		<tag k="name" v="Båssum" />
		<tag k="old_name" v="Bossum" />
		<tag k="place" v="farm" />
		<tag k="ssr:stedsnr" v="129418" />
	</node>
	<node lat="60.863412798299336" lon="10.01529389529106" id="-23230">
		<tag k="name" v="Loeng" />
		<tag k="place" v="farm" />
		<tag k="ssr:stedsnr" v="129426" />
	</node>
	<node lat="61.03604999894144" lon="9.80503610239453" id="-23231">
		<tag k="historic" v="shieling" />
		<tag k="name" v="Nersætra" />
		<tag k="place" v="isolated_dwelling" />
		<tag k="ssr:stedsnr" v="129345" />
	</node>
	<node lat="60.83504721955892" lon="10.09582778645438" id="-23232">
		<tag k="name" v="Braskerud" />
		<tag k="place" v="farm" />
		<tag k="ssr:stedsnr" v="252452" />
	</node>
	<node lat="60.8373777766311" lon="10.016341664467356" id="-23233">
		<tag k="alt_name" v="Nøss" />
		<tag k="name" v="Nøssgård" />
		<tag k="place" v="locality" />
		<tag k="ssr:stedsnr" v="252455" />
	</node>
	<node lat="60.83906389056262" lon="9.971125005759294" id="-23234">
		<tag k="name" v="Øyom" />
		<tag k="place" v="farm" />
		<tag k="ssr:stedsnr" v="252469" />
	</node>
	<node lat="60.84781111265162" lon="10.203463891581956" id="-23235">
		<tag k="name" v="Myre" />
		<tag k="place" v="farm" />
		<tag k="ssr:stedsnr" v="252475" />
	</node>
	<node lat="61.120063885706244" lon="9.787238897780707" id="-23236">
		<tag k="name" v="Lenna" />
		<tag k="old_name" v="Leina;Lænna" />
		<tag k="ssr:stedsnr" v="129711" />
		<tag k="waterway" v="river" />
	</node>
	<node lat="61.13352500071454" lon="9.766777779415786" id="-23237">
		<tag k="alt_name" v="Lundesætrene" />
		<tag k="historic" v="shieling" />
		<tag k="name" v="Lundsætra" />
		<tag k="old_name" v="Lunde Sr;Lundesæteren" />
		<tag k="place" v="isolated_dwelling" />
		<tag k="ssr:stedsnr" v="129712" />
	</node>
	<node lat="61.12484999726127" lon="9.801224990876358" id="-23238">
		<tag k="historic" v="shieling" />
		<tag k="name" v="Gardsætra" />
		<tag k="place" v="isolated_dwelling" />
		<tag k="ssr:stedsnr" v="129719" />
	</node>
	<node lat="61.129669442564655" lon="9.830602768486244" id="-23239">
		<tag k="alt_name" v="Sluguasætrene" />
		<tag k="historic" v="shieling" />
		<tag k="name" v="Slugua" />
		<tag k="place" v="isolated_dwelling" />
		<tag k="ssr:stedsnr" v="129721" />
	</node>
	<node lat="61.11592355146559" lon="9.867822370909023" id="-23240">
		<tag k="alt_name" v="Heggenhaugensætra" />
		<tag k="historic" v="shieling" />
		<tag k="name" v="Heggenhaugen" />
		<tag k="place" v="isolated_dwelling" />
		<tag k="ssr:stedsnr" v="129733" />
	</node>
	<node lat="60.86086944148603" lon="9.986105556497172" id="-23241">
		<tag k="alt_name" v="Husaker" />
		<tag k="name" v="Husåker" />
		<tag k="place" v="farm" />
		<tag k="ssr:stedsnr" v="252500" />
	</node>
	<node lat="60.856932035654985" lon="10.084819147345696" id="-23242">
		<tag k="fixme" v="consider place=hamlet" />
		<tag k="name" v="Kolsrud" />
		<tag k="place" v="farm" />
		<tag k="ssr:stedsnr" v="252507" />
	</node>
	<node lat="60.78923055398968" lon="9.818363892961084" id="-23243">
		<tag k="name" v="Karidalen" />
		<tag k="natural" v="valley" />
		<tag k="place" v="locality" />
		<tag k="ssr:stedsnr" v="130118" />
	</node>
	<node lat="60.78760000308025" lon="9.832444451216393" id="-23244">
		<tag k="alt_name" v="Styggøyvatn" />
		<tag k="name" v="Styggøyvatnet" />
		<tag k="natural" v="water" />
		<tag k="ssr:stedsnr" v="130128" />
	</node>
	<node lat="60.996230559069915" lon="10.03656667054601" id="-23245">
		<tag k="name" v="Skredderstugua" />
		<tag k="place" v="farm" />
		<tag k="ssr:stedsnr" v="130132" />
	</node>
	<node lat="60.99884155872151" lon="9.986847453840976" id="-23246">
		<tag k="fixme" v="consider place=hamlet" />
		<tag k="name" v="Koll" />
		<tag k="place" v="farm" />
		<tag k="ssr:stedsnr" v="130133" />
	</node>
	<node lat="60.855455412157625" lon="9.858728728569261" id="-23247">
		<tag k="fixme" v="consider place=hamlet" />
		<tag k="name" v="Kapperud" />
		<tag k="place" v="farm" />
		<tag k="ssr:stedsnr" v="130002" />
	</node>
	<node lat="60.868897222338795" lon="9.912372214826286" id="-23248">
		<tag k="name" v="Lisettjernet" />
		<tag k="natural" v="water" />
		<tag k="ssr:stedsnr" v="130015" />
	</node>
	<node lat="60.81750000245781" lon="10.162463886768661" id="-23249">
		<tag k="alt_name" v="Bergevatn" />
		<tag k="name" v="Bergevatnet" />
		<tag k="natural" v="water" />
		<tag k="ssr:stedsnr" v="252536" />
	</node>
	<node lat="60.8337839720425" lon="9.748522268945935" id="-23250">
		<tag k="name" v="Etna" />
		<tag k="ssr:stedsnr" v="130312" />
		<tag k="waterway" v="river" />
	</node>
	<node lat="60.92536388707277" lon="10.117174991792192" id="-23251">
		<tag k="alt_name" v="Finstad" />
		<tag k="name" v="Finnstad" />
		<tag k="place" v="farm" />
		<tag k="ssr:stedsnr" v="130393" />
	</node>
	<node lat="60.85287777547799" lon="10.026755554177287" id="-23252">
		<tag k="alt_name" v="Løvli" />
		<tag k="name" v="Lauvli" />
		<tag k="place" v="farm" />
		<tag k="ssr:stedsnr" v="130518" />
	</node>
	<node lat="60.82278888952475" lon="10.063633329998167" id="-23253">
		<tag k="alt_name" v="Bjørke" />
		<tag k="name" v="Søndre Bjørke" />
		<tag k="place" v="farm" />
		<tag k="ssr:stedsnr" v="252559" />
	</node>
	<node lat="60.98442500128534" lon="10.010808337780228" id="-23254">
		<tag k="name" v="Stormyra" />
		<tag k="natural" v="wetland" />
		<tag k="ssr:stedsnr" v="130284" />
	</node>
	<node lat="60.92162499977921" lon="10.0483166664581" id="-23255">
		<tag k="name" v="Flata" />
		<tag k="place" v="farm" />
		<tag k="ssr:stedsnr" v="130416" />
	</node>
	<node lat="60.91428055258203" lon="10.138211107433806" id="-23256">
		<tag k="name" v="Tollbarberget" />
		<tag k="natural" v="hill" />
		<tag k="place" v="locality" />
		<tag k="ssr:stedsnr" v="130424" />
	</node>
	<node lat="60.920813903386545" lon="10.074517530481746" id="-23257">
		<tag k="fixme" v="consider place=hamlet" />
		<tag k="name" v="Ommelstad" />
		<tag k="place" v="farm" />
		<tag k="ssr:stedsnr" v="130428" />
	</node>
	<node lat="60.84956666438046" lon="10.204130551006763" id="-23258">
		<tag k="name" v="Rudssætra" />
		<tag k="place" v="locality" />
		<tag k="ssr:stedsnr" v="130483" />
	</node>
	<node lat="60.84573889223248" lon="10.18419166768744" id="-23259">
		<tag k="amenity" v="place_of_worship" />
		<tag k="denomination" v="lutheran" />
		<tag k="name" v="Vølstad kirke" />
		<tag k="old_name" v="Vølstad kapell" />
		<tag k="religion" v="christian" />
		<tag k="ssr:stedsnr" v="130486" />
	</node>
	<node lat="60.84778332984135" lon="10.122961114439764" id="-23260">
		<tag k="name" v="Tvillingputtane" />
		<tag k="natural" v="water" />
		<tag k="ssr:stedsnr" v="130490" />
	</node>
	<node lat="60.787652316139464" lon="10.200027929386449" id="-23261">
		<tag k="alt_name" v="Røen, store;Store Røen" />
		<tag k="fixme" v="consider place=hamlet" />
		<tag k="name" v="Røen" />
		<tag k="place" v="farm" />
		<tag k="ssr:stedsnr" v="130623" />
	</node>
	<node lat="60.78507499631813" lon="10.039938884805066" id="-23262">
		<tag k="alt_name" v="Svartvatnet, nedre;Nedre Svartvatn" />
		<tag k="name" v="Nedre Svartvatnet" />
		<tag k="natural" v="water" />
		<tag k="ssr:stedsnr" v="130626" />
		<tag k="water" v="lake" />
	</node>
	<node lat="60.827777777969395" lon="10.046936120208107" id="-23263">
		<tag k="alt_name" v="Barsok" />
		<tag k="name" v="Barsåk" />
		<tag k="place" v="farm" />
		<tag k="ssr:stedsnr" v="252575" />
	</node>
	<node lat="60.82921110976385" lon="10.018216659882528" id="-23264">
		<tag k="name" v="Stubberud" />
		<tag k="place" v="farm" />
		<tag k="ssr:stedsnr" v="252577" />
	</node>
	<node lat="60.92452777441206" lon="9.882722223348496" id="-23265">
		<tag k="alt_name" v="Buvatn" />
		<tag k="name" v="Buvatnet" />
		<tag k="natural" v="water" />
		<tag k="ssr:stedsnr" v="130883" />
	</node>
	<node lat="60.78944722518845" lon="10.190491663739431" id="-23266">
		<tag k="alt_name" v="Fredrikstuen" />
		<tag k="name" v="Fredriksstugua" />
		<tag k="place" v="farm" />
		<tag k="ssr:stedsnr" v="252621" />
	</node>
	<node lat="60.79438610998303" lon="9.986319442279326" id="-23267">
		<tag k="alt_name" v="Rundtjern" />
		<tag k="name" v="Rundtjernet" />
		<tag k="natural" v="water" />
		<tag k="ssr:stedsnr" v="252644" />
	</node>
	<node lat="60.809036106632" lon="10.015719447275673" id="-23268">
		<tag k="alt_name" v="Sverdslitjern" />
		<tag k="name" v="Sverslitjernet" />
		<tag k="natural" v="water" />
		<tag k="ssr:stedsnr" v="131577" />
	</node>
	<node lat="60.81288055887387" lon="10.124980552701505" id="-23269">
		<tag k="name" v="Fremstad" />
		<tag k="place" v="farm" />
		<tag k="ssr:stedsnr" v="131582" />
	</node>
	<node lat="60.75401111297476" lon="10.018402770577826" id="-23270">
		<tag k="alt_name" v="Halvorsmyrbergene" />
		<tag k="name" v="Hallvordsmyrberga" />
		<tag k="natural" v="hill" />
		<tag k="old_name" v="Halvordsmyrberga" />
		<tag k="place" v="locality" />
		<tag k="ssr:stedsnr" v="252709" />
	</node>
	<node lat="60.76143055746532" lon="10.022802778262236" id="-23271">
		<tag k="alt_name" v="Nordre Høghaugpullen" />
		<tag k="name" v="Høghaugpullen" />
		<tag k="natural" v="water" />
		<tag k="ssr:stedsnr" v="252711" />
	</node>
	<node lat="60.99786111406567" lon="9.82643611055561" id="-23272">
		<tag k="name" v="Bjørnhaugen" />
		<tag k="natural" v="hill" />
		<tag k="place" v="locality" />
		<tag k="ssr:stedsnr" v="252744" />
	</node>
	<node lat="60.996947221037175" lon="9.937180562211523" id="-23273">
		<tag k="name" v="Livasselva" />
		<tag k="ssr:stedsnr" v="252749" />
		<tag k="waterway" v="river" />
	</node>
	<node lat="60.965036113825796" lon="9.945491669183044" id="-23274">
		<tag k="fixme" v="consider natural=peak for the most distinct mountains in the district" />
		<tag k="name" v="Veslhovde" />
		<tag k="natural" v="hill" />
		<tag k="place" v="locality" />
		<tag k="ssr:stedsnr" v="252939" />
	</node>
	<node lat="60.96084721808001" lon="9.9086333379488" id="-23275">
		<tag k="name" v="Venhaugpullen" />
		<tag k="natural" v="water" />
		<tag k="ssr:stedsnr" v="252893" />
	</node>
	<node lat="60.95566944104459" lon="9.891433330901936" id="-23276">
		<tag k="name" v="Holovatnet" />
		<tag k="natural" v="water" />
		<tag k="ssr:stedsnr" v="252894" />
	</node>
	<node lat="60.95599722613291" lon="9.909555563652756" id="-23277">
		<tag k="fixme" v="multiple name tags, choose one and add the other to alt_name" />
		<tag k="historic" v="shieling" />
		<tag k="name" v="Holoa;Holosætra" />
		<tag k="place" v="isolated_dwelling" />
		<tag k="ssr:stedsnr" v="252896" />
	</node>
	<node lat="60.98010555764322" lon="9.89521666367634" id="-23278">
		<tag k="name" v="Gjerddalstjernet" />
		<tag k="natural" v="water" />
		<tag k="ssr:stedsnr" v="252987" />
	</node>
	<node lat="60.99597159961767" lon="9.962815254597226" id="-23279">
		<tag k="fixme" v="consider place=hamlet" />
		<tag k="name" v="Bjørke" />
		<tag k="place" v="farm" />
		<tag k="ssr:stedsnr" v="252958" />
	</node>
	<node lat="60.9286750003304" lon="10.0493083263254" id="-23280">
		<tag k="bridge" v="yes" />
		<tag k="layer" v="1" />
		<tag k="name" v="Lunde" />
		<tag k="ssr:stedsnr" v="168175" />
	</node>
	<node lat="60.87800000374702" lon="10.176969437083779" id="-23281">
		<tag k="name" v="Mårsjøbekken" />
		<tag k="ssr:stedsnr" v="176212" />
		<tag k="waterway" v="stream" />
	</node>
	<node lat="60.828641663381475" lon="9.786025001308662" id="-23283">
		<tag k="name" v="Valdresstykkje" />
		<tag k="place" v="locality" />
		<tag k="ssr:stedsnr" v="176512" />
	</node>
	<node lat="60.84611388832908" lon="9.820680551869142" id="-23285">
		<tag k="name" v="Nørstebøenbakkene" />
		<tag k="natural" v="slope" />
		<tag k="place" v="locality" />
		<tag k="ssr:stedsnr" v="176569" />
	</node>
	<node lat="60.84647222004586" lon="9.77998610490878" id="-23286">
		<tag k="loc_name" v="Bjørnaskardvasshytta" />
		<tag k="name" v="Bjødnaskarvasshytta" />
		<tag k="place" v="locality" />
		<tag k="ssr:stedsnr" v="176573" />
	</node>
	<node lat="61.02879722196171" lon="10.174408330575098" id="-23287">
		<tag k="fixme" v="consider natural=peak for the most distinct mountains in the district" />
		<tag k="name" v="Møssmørbakken" />
		<tag k="natural" v="hill" />
		<tag k="place" v="locality" />
		<tag k="ssr:stedsnr" v="176968" />
	</node>
	<node lat="60.88801944779538" lon="10.024788882104502" id="-23288">
		<tag k="name" v="Skolmåa" />
		<tag k="ssr:stedsnr" v="178002" />
		<tag k="waterway" v="stream" />
	</node>
	<node lat="60.84927778139768" lon="10.18804166961194" id="-23289">
		<tag k="name" v="Røbergsæter" />
		<tag k="place" v="farm" />
		<tag k="ssr:stedsnr" v="178077" />
	</node>
	<node lat="60.79496666333231" lon="10.002561106858847" id="-23290">
		<tag k="name" v="Langmyra" />
		<tag k="natural" v="wetland" />
		<tag k="ssr:stedsnr" v="178406" />
	</node>
	<node lat="60.916244440693326" lon="9.911427772588596" id="-23291">
		<tag k="name" v="Bjørnholtmyrene" />
		<tag k="natural" v="wetland" />
		<tag k="ssr:stedsnr" v="178668" />
	</node>
	<node lat="60.948027779078366" lon="9.956919447860884" id="-23292">
		<tag k="name" v="Dokken" />
		<tag k="place" v="farm" />
		<tag k="ssr:stedsnr" v="178775" />
	</node>
	<node lat="60.93607777748969" lon="9.983244441839892" id="-23293">
		<tag k="name" v="Åsødegårdene" />
		<tag k="place" v="hamlet" />
		<tag k="ssr:stedsnr" v="178777" />
	</node>
	<node lat="60.85590555560374" lon="10.106925001205767" id="-23295">
		<tag k="name" v="Midtsvea" />
		<tag k="place" v="locality" />
		<tag k="ssr:stedsnr" v="179004" />
	</node>
	<node lat="60.79907500360344" lon="9.86791110528888" id="-23296">
		<tag k="name" v="Ingebjørgheimen" />
		<tag k="place" v="locality" />
		<tag k="ssr:stedsnr" v="179242" />
	</node>
	<node lat="60.79163611189966" lon="9.920927780714338" id="-23297">
		<tag k="name" v="Svartberget" />
		<tag k="natural" v="cliff" />
		<tag k="ssr:stedsnr" v="179304" />
	</node>
	<node lat="60.73640833273484" lon="10.029691674211595" id="-23298">
		<tag k="alt_name" v="Søndre Hovdevatn" />
		<tag k="loc_name" v="Søre Hovdevatnet" />
		<tag k="name" v="Søre Hovdevatn" />
		<tag k="natural" v="water" />
		<tag k="ssr:stedsnr" v="179316" />
	</node>
	<node lat="61.103536109602224" lon="9.90876110601355" id="-23299">
		<tag k="name" v="Synndammen" />
		<tag k="place" v="locality" />
		<tag k="ssr:stedsnr" v="179655" />
	</node>
	<node lat="60.998305551864235" lon="10.06182499566595" id="-23300">
		<tag k="name" v="Åsletta" />
		<tag k="place" v="locality" />
		<tag k="ssr:stedsnr" v="180003" />
	</node>
	<node lat="60.909611108810964" lon="10.061897225235287" id="-23301">
		<tag k="fixme" v="consider highway=path" />
		<tag k="highway" v="track" />
		<tag k="name" v="Åbakkvegen" />
		<tag k="ssr:stedsnr" v="179922" />
	</node>
	<node lat="61.016888884937835" lon="9.928094446129005" id="-23302">
		<tag k="name" v="Sandbakken" />
		<tag k="place" v="farm" />
		<tag k="ssr:stedsnr" v="188406" />
	</node>
	<node lat="61.10238611173874" lon="9.942952770259572" id="-23303">
		<tag k="fixme" v="consider natural=peak for the most distinct mountains in the district" />
		<tag k="name" v="Klemosæterhøgda" />
		<tag k="natural" v="hill" />
		<tag k="place" v="locality" />
		<tag k="ssr:stedsnr" v="189610" />
	</node>
	<node lat="60.90106389119348" lon="9.942516664587616" id="-23304">
		<tag k="alt_name" v="Gjeitberget" />
		<tag k="fixme" v="consider natural=peak for the most distinct mountains in the district" />
		<tag k="name" v="Geitberget" />
		<tag k="natural" v="hill" />
		<tag k="place" v="locality" />
		<tag k="ssr:stedsnr" v="190086" />
	</node>
	<node lat="60.940763891973816" lon="10.0063472199796" id="-23305">
		<tag k="name" v="Smedby" />
		<tag k="place" v="farm" />
		<tag k="ssr:stedsnr" v="190304" />
	</node>
	<node lat="60.94102797834434" lon="10.123520166547092" id="-23306">
		<tag k="fixme" v="consider place=hamlet" />
		<tag k="name" v="Oppsal" />
		<tag k="place" v="farm" />
		<tag k="ssr:stedsnr" v="190318" />
	</node>
	<node lat="60.85791944447464" lon="9.886019437013116" id="-23307">
		<tag k="alt_name" v="Trolltjern" />
		<tag k="name" v="Trolltjernet" />
		<tag k="natural" v="water" />
		<tag k="ssr:stedsnr" v="191003" />
	</node>
	<node lat="60.85994444678221" lon="9.846311116313053" id="-23308">
		<tag k="name" v="Gurihus" />
		<tag k="place" v="farm" />
		<tag k="ssr:stedsnr" v="191005" />
	</node>
	<node lat="60.85852499560694" lon="9.790105555900944" id="-23309">
		<tag k="alt_name" v="Kjøotjednet" />
		<tag k="name" v="Kjøetjernet" />
		<tag k="natural" v="water" />
		<tag k="ssr:stedsnr" v="191007" />
	</node>
	<node lat="60.865302219956796" lon="9.956377355717597" id="-23310">
		<tag k="alt_name" v="Bratterud" />
		<tag k="name" v="Brattrud" />
		<tag k="place" v="locality" />
		<tag k="ssr:stedsnr" v="191011" />
	</node>
	<node lat="60.8258027741374" lon="9.915602781680937" id="-23311">
		<tag k="alt_name" v="Løndalen" />
		<tag k="name" v="Lønndalen" />
		<tag k="place" v="farm" />
		<tag k="ssr:stedsnr" v="191163" />
	</node>
	<node lat="60.829819441776415" lon="9.78747221786855" id="-23312">
		<tag k="name" v="Haugtun" />
		<tag k="place" v="isolated_dwelling" />
		<tag k="ssr:stedsnr" v="191179" />
	</node>
	<node lat="60.971605559242306" lon="10.179116674334225" id="-23313">
		<tag k="name" v="Bjørnmyra" />
		<tag k="natural" v="wetland" />
		<tag k="ssr:stedsnr" v="191303" />
	</node>
	<node lat="60.96477074147529" lon="10.131000600826424" id="-23314">
		<tag k="name" v="Berget" />
		<tag k="place" v="locality" />
		<tag k="ssr:stedsnr" v="191313" />
	</node>
	<node lat="60.88517777463779" lon="10.00363889222992" id="-23315">
		<tag k="historic" v="shieling" />
		<tag k="name" v="Gladheim" />
		<tag k="place" v="isolated_dwelling" />
		<tag k="ssr:stedsnr" v="191359" />
	</node>
	<node lat="60.81235277558898" lon="9.918197225315305" id="-23316">
		<tag k="fixme" v="consider place=hamlet" />
		<tag k="name" v="Åslibygda" />
		<tag k="place" v="village" />
		<tag k="ssr:stedsnr" v="191210" />
	</node>
	<node lat="60.816149303019536" lon="9.939623057970037" id="-23317">
		<tag k="alt_name" v="Kjenset" />
		<tag k="name" v="Øvre Kjendset" />
		<tag k="place" v="farm" />
		<tag k="ssr:stedsnr" v="191212" />
	</node>
	<node lat="60.912777774583006" lon="10.198736118410931" id="-23318">
		<tag k="name" v="Hovdeputten" />
		<tag k="natural" v="water" />
		<tag k="ssr:stedsnr" v="191459" />
	</node>
	<node lat="60.906561110517345" lon="10.007758333479355" id="-23319">
		<tag k="name" v="Dumberga" />
		<tag k="natural" v="hill" />
		<tag k="place" v="locality" />
		<tag k="ssr:stedsnr" v="191461" />
	</node>
	<node lat="60.899224995673016" lon="10.098491675453293" id="-23320">
		<tag k="name" v="Skogpullen" />
		<tag k="natural" v="water" />
		<tag k="ssr:stedsnr" v="191468" />
	</node>
	<node lat="60.78994166665571" lon="10.176108326827661" id="-23321">
		<tag k="alt_name" v="Mikkelstuen" />
		<tag k="name" v="Mikjelsstugua" />
		<tag k="place" v="farm" />
		<tag k="ssr:stedsnr" v="191618" />
	</node>
	<node lat="60.750296063674654" lon="10.076665527616637" id="-23322">
		<tag k="name" v="Larsheimen" />
		<tag k="place" v="locality" />
		<tag k="ssr:stedsnr" v="191666" />
	</node>
	<node lat="60.850900000032574" lon="10.103108328403138" id="-23323">
		<tag k="name" v="Haugerud" />
		<tag k="place" v="farm" />
		<tag k="ssr:stedsnr" v="191506" />
	</node>
	<node lat="60.84939999758269" lon="10.002399996058223" id="-23324">
		<tag k="fixme" v="consider place=hamlet" />
		<tag k="name" v="Dælibygda" />
		<tag k="place" v="village" />
		<tag k="ssr:stedsnr" v="191513" />
	</node>
	<node lat="60.81099167059912" lon="9.971205560664519" id="-23325">
		<tag k="historic" v="shieling" />
		<tag k="name" v="Sjurshaugen" />
		<tag k="place" v="isolated_dwelling" />
		<tag k="ssr:stedsnr" v="191549" />
	</node>
	<node lat="60.777002775241186" lon="10.076891670148427" id="-23326">
		<tag k="name" v="Flåmyrene" />
		<tag k="natural" v="wetland" />
		<tag k="ssr:stedsnr" v="191601" />
	</node>
	<node lat="60.997176187881145" lon="9.830979709888817" id="-23327">
		<tag k="alt_name" v="Jøranlisætrene" />
		<tag k="historic" v="shieling" />
		<tag k="name" v="Jøronlisætra" />
		<tag k="place" v="isolated_dwelling" />
		<tag k="ssr:stedsnr" v="191722" />
	</node>
	<node lat="60.9903555573072" lon="9.779574994585769" id="-23328">
		<tag k="name" v="Kløvsteinbekken" />
		<tag k="ssr:stedsnr" v="191725" />
		<tag k="waterway" v="stream" />
	</node>
	<node lat="60.950572226234826" lon="9.962755559923725" id="-23329">
		<tag k="alt_name" v="Skredderstuen" />
		<tag k="name" v="Skreddarstugu" />
		<tag k="place" v="farm" />
		<tag k="ssr:stedsnr" v="191905" />
	</node>
	<node lat="60.73871388925201" lon="9.84018334076959" id="-23333">
		<tag k="name" v="Austmanli" />
		<tag k="place" v="isolated_dwelling" />
		<tag k="ssr:stedsnr" v="221520" />
	</node>
	<node lat="60.73858333199371" lon="9.835741663221773" id="-23334">
		<tag k="name" v="Korsika" />
		<tag k="place" v="islet" />
		<tag k="ssr:stedsnr" v="221523" />
	</node>
	<node lat="60.853769445752704" lon="9.890174991533964" id="-23335">
		<tag k="name" v="Nysvea" />
		<tag k="place" v="farm" />
		<tag k="ssr:stedsnr" v="221915" />
	</node>
	<node lat="60.84961388834998" lon="9.928719436945197" id="-23337">
		<tag k="bridge" v="yes" />
		<tag k="layer" v="1" />
		<tag k="name" v="Kvernbekken" />
		<tag k="ssr:stedsnr" v="228181" />
	</node>
	<node lat="60.979813887815276" lon="10.16358332873252" id="-23338">
		<tag k="name" v="Raumyrpullen" />
		<tag k="natural" v="water" />
		<tag k="ssr:stedsnr" v="236108" />
	</node>
	<node lat="61.04340833342308" lon="9.765341658499539" id="-23339">
		<tag k="name" v="Lundbekken" />
		<tag k="ssr:stedsnr" v="236880" />
		<tag k="waterway" v="stream" />
	</node>
	<node lat="60.95291944062214" lon="9.82132500012375" id="-23340">
		<tag k="fixme" v="consider highway=path" />
		<tag k="highway" v="track" />
		<tag k="name" v="Øyangsvegen" />
		<tag k="ssr:stedsnr" v="236908" />
	</node>
	<node lat="61.105205555133885" lon="9.90780832926561" id="-23341">
		<tag k="name" v="Synna" />
		<tag k="ssr:stedsnr" v="238081" />
		<tag k="waterway" v="river" />
	</node>
	<node lat="60.79625277700864" lon="9.992824997736609" id="-23342">
		<tag k="name" v="Lustjern" />
		<tag k="natural" v="water" />
		<tag k="ssr:stedsnr" v="238436" />
	</node>
	<node lat="60.983499996033515" lon="10.0399111053002" id="-23343">
		<tag k="name" v="Uksebekken" />
		<tag k="ssr:stedsnr" v="238502" />
		<tag k="waterway" v="stream" />
	</node>
	<node lat="61.01748889173784" lon="9.925875005042068" id="-23346">
		<tag k="name" v="Liabygda" />
		<tag k="place" v="hamlet" />
		<tag k="ssr:stedsnr" v="238631" />
	</node>
	<node lat="60.94070555173412" lon="10.004499994643169" id="-23347">
		<tag k="name" v="Nordby" />
		<tag k="place" v="farm" />
		<tag k="ssr:stedsnr" v="238780" />
	</node>
	<node lat="60.84738611097967" lon="10.179672224084328" id="-23348">
		<tag k="name" v="Holt" />
		<tag k="place" v="locality" />
		<tag k="ssr:stedsnr" v="239088" />
	</node>
	<node lat="60.7588249958364" lon="10.001505551104959" id="-23350">
		<tag k="name" v="Fleshytta" />
		<tag k="place" v="locality" />
		<tag k="ssr:stedsnr" v="239600" />
	</node>
	<node lat="60.90327500311819" lon="9.882486110979025" id="-23351">
		<tag k="name" v="Rotvasslia" />
		<tag k="natural" v="slope" />
		<tag k="place" v="locality" />
		<tag k="ssr:stedsnr" v="240011" />
	</node>
	<node lat="60.81534721781122" lon="9.946005550987573" id="-23352">
		<tag k="cemetery" v="grave" />
		<tag k="name" v="Åsli" />
		<tag k="place" v="locality" />
		<tag k="ssr:stedsnr" v="240203" />
	</node>
	<node lat="60.81705277427827" lon="10.045224990829963" id="-23355">
		<tag k="name" v="Bjørkelia" />
		<tag k="natural" v="slope" />
		<tag k="place" v="locality" />
		<tag k="ssr:stedsnr" v="240216" />
	</node>
	<node lat="61.10855555317062" lon="9.771627783455745" id="-23356">
		<tag k="name" v="Hasabekken" />
		<tag k="ssr:stedsnr" v="240280" />
		<tag k="waterway" v="stream" />
	</node>
	<node lat="60.86871111232845" lon="10.083447231192752" id="-23357">
		<tag k="name" v="Lusfjell" />
		<tag k="natural" v="hill" />
		<tag k="place" v="locality" />
		<tag k="ssr:stedsnr" v="240311" />
	</node>
	<node lat="61.02605555146907" lon="10.081425004334362" id="-23358">
		<tag k="name" v="Framnes" />
		<tag k="place" v="farm" />
		<tag k="ssr:stedsnr" v="240329" />
	</node>
	<node lat="60.746627782227755" lon="10.041061113754706" id="-23359">
		<tag k="name" v="Øyvasslia" />
		<tag k="natural" v="slope" />
		<tag k="place" v="locality" />
		<tag k="ssr:stedsnr" v="240332" />
	</node>
	<node lat="60.73841388623364" lon="10.030194453280698" id="-23360">
		<tag k="loc_name" v="Nordre Hovdevatnet" />
		<tag k="name" v="Nordre Hovdevatn" />
		<tag k="natural" v="water" />
		<tag k="ssr:stedsnr" v="240337" />
	</node>
	<node lat="61.018580552233566" lon="10.087591658503655" id="-23361">
		<tag k="name" v="Tangen" />
		<tag k="place" v="farm" />
		<tag k="ssr:stedsnr" v="249201" />
	</node>
	<node lat="60.94381944381419" lon="9.916125000116114" id="-23362">
		<tag k="alt_name" v="Dugurdshaugen" />
		<tag k="fixme" v="consider natural=peak for the most distinct mountains in the district" />
		<tag k="name" v="Dugurdshøgda" />
		<tag k="natural" v="hill" />
		<tag k="place" v="locality" />
		<tag k="ssr:stedsnr" v="252906" />
	</node>
	<node lat="60.97306944461469" lon="9.95933332945751" id="-23363">
		<tag k="name" v="Medvatnet" />
		<tag k="natural" v="water" />
		<tag k="ssr:stedsnr" v="252923" />
	</node>
	<node lat="60.76190555377893" lon="10.078152780352921" id="-23364">
		<tag k="name" v="Hølbekklia" />
		<tag k="natural" v="slope" />
		<tag k="place" v="locality" />
		<tag k="ssr:stedsnr" v="255315" />
	</node>
	<node lat="61.11857949450442" lon="9.741772302030096" id="-23365">
		<tag k="name" v="Ongletjerna" />
		<tag k="natural" v="water" />
		<tag k="ssr:stedsnr" v="267825" />
		<tag k="water" v="lake" />
	</node>
	<node lat="60.79011110707853" lon="10.070908332256938" id="-23366">
		<tag k="name" v="Hansketjern" />
		<tag k="natural" v="water" />
		<tag k="ssr:stedsnr" v="282625" />
	</node>
	<node lat="60.96194722395279" lon="9.833711104658617" id="-23367">
		<tag k="name" v="Røyskatthovde" />
		<tag k="natural" v="hill" />
		<tag k="place" v="locality" />
		<tag k="ssr:stedsnr" v="282691" />
	</node>
	<node lat="61.03339999586135" lon="9.835955556480314" id="-23368">
		<tag k="name" v="Hugulia" />
		<tag k="ssr:stedsnr" v="282918" />
		<tag k="tourism" v="guest_house" />
	</node>
	<node lat="61.00030555210644" lon="10.00317778367404" id="-23369">
		<tag k="bridge" v="yes" />
		<tag k="layer" v="1" />
		<tag k="name" v="Synna" />
		<tag k="ssr:stedsnr" v="289109" />
	</node>
	<node lat="60.962602781185396" lon="10.01182222629226" id="-23371">
		<tag k="name" v="Nordre Ullsak" />
		<tag k="place" v="farm" />
		<tag k="ssr:stedsnr" v="299278" />
	</node>
	<node lat="61.033680558229065" lon="9.894452770426492" id="-23372">
		<tag k="name" v="Øvre Karusstjern" />
		<tag k="natural" v="water" />
		<tag k="ssr:stedsnr" v="299632" />
	</node>
	<node lat="60.87868055110713" lon="9.948672228128396" id="-23373">
		<tag k="alt_name" v="Søndre Øyvatn" />
		<tag k="name" v="Søre Øyvatn" />
		<tag k="natural" v="water" />
		<tag k="ssr:stedsnr" v="299904" />
	</node>
	<node lat="60.841261113323654" lon="10.151736114905425" id="-23374">
		<tag k="name" v="Ødegården" />
		<tag k="place" v="farm" />
		<tag k="ssr:stedsnr" v="299993" />
	</node>
	<node lat="60.916991671117266" lon="10.110850006903151" id="-23375">
		<tag k="name" v="Bordbakken" />
		<tag k="place" v="locality" />
		<tag k="ssr:stedsnr" v="300137" />
	</node>
	<node lat="60.97504166385002" lon="10.115202773950314" id="-23376">
		<tag k="fixme" v="multiple name tags, choose one and add the other to alt_name" />
		<tag k="name" v="Parthaugen;Skogli" />
		<tag k="place" v="isolated_dwelling" />
		<tag k="ssr:stedsnr" v="300012" />
	</node>
	<node lat="60.95605833245699" lon="9.85636110277404" id="-23380">
		<tag k="name" v="Katthugu" />
		<tag k="natural" v="hill" />
		<tag k="place" v="locality" />
		<tag k="ssr:stedsnr" v="463713" />
	</node>
	<node lat="60.83051666505532" lon="10.010716663915185" id="-23381">
		<tag k="alt_name" v="Søndre Bardalen" />
		<tag k="name" v="Søre Bardalen" />
		<tag k="place" v="farm" />
		<tag k="ssr:stedsnr" v="301656" />
	</node>
	<node lat="60.86013714176839" lon="9.998806496399208" id="-23383">
		<tag k="fixme" v="consider place=hamlet" />
		<tag k="name" v="Øvre Tyndrum" />
		<tag k="place" v="farm" />
		<tag k="ssr:stedsnr" v="303535" />
	</node>
	<node lat="60.77068611522529" lon="9.837827777047327" id="-23384">
		<tag k="name" v="Blautmyrputten" />
		<tag k="natural" v="water" />
		<tag k="ssr:stedsnr" v="464495" />
	</node>
	<node lat="61.026583337571566" lon="9.875969451009421" id="-23385">
		<tag k="amenity" v="community_centre" />
		<tag k="name" v="Dal" />
		<tag k="ssr:stedsnr" v="464929" />
	</node>
	<node lat="60.940466670757814" lon="10.118072230192828" id="-23387">
		<tag k="name" v="Nordre Finni" />
		<tag k="place" v="farm" />
		<tag k="ssr:stedsnr" v="465139" />
	</node>
	<node lat="60.85159722593887" lon="10.134697224720393" id="-23388">
		<tag k="name" v="Kvernhusmyra" />
		<tag k="natural" v="wetland" />
		<tag k="ssr:stedsnr" v="308057" />
	</node>
	<node lat="61.06849444180593" lon="9.977988880653447" id="-23389">
		<tag k="historic" v="shieling" />
		<tag k="name" v="Øytjernssætra" />
		<tag k="place" v="isolated_dwelling" />
		<tag k="ssr:stedsnr" v="310031" />
	</node>
	<node lat="61.07621111037205" lon="10.081355553536332" id="-23390">
		<tag k="alt_name" v="Skartlidekken" />
		<tag k="historic" v="shieling" />
		<tag k="name" v="Dekken" />
		<tag k="place" v="isolated_dwelling" />
		<tag k="ssr:stedsnr" v="310035" />
	</node>
	<node lat="61.02054444873605" lon="10.087786113332722" id="-23391">
		<tag k="alt_name" v="Tangvold" />
		<tag k="name" v="Tangvoll" />
		<tag k="place" v="farm" />
		<tag k="ssr:stedsnr" v="310209" />
	</node>
	<node lat="61.0317250006756" lon="10.0408055643637" id="-23392">
		<tag k="name" v="Bjørnerud" />
		<tag k="place" v="farm" />
		<tag k="ssr:stedsnr" v="310199" />
	</node>
	<node lat="61.0166361110021" lon="10.007305550326317" id="-23393">
		<tag k="name" v="Haug" />
		<tag k="place" v="farm" />
		<tag k="ssr:stedsnr" v="310200" />
	</node>
	<node lat="61.029622225421754" lon="9.84151943544921" id="-23394">
		<tag k="name" v="Lyseng" />
		<tag k="place" v="farm" />
		<tag k="ssr:stedsnr" v="310328" />
	</node>
	<node lat="61.0227999995309" lon="9.891797223310283" id="-23395">
		<tag k="name" v="Lysbakken" />
		<tag k="place" v="farm" />
		<tag k="ssr:stedsnr" v="310381" />
	</node>
	<node lat="60.88715277877696" lon="9.930202775358534" id="-23396">
		<tag k="name" v="Rokotoa" />
		<tag k="natural" v="water" />
		<tag k="ssr:stedsnr" v="311129" />
	</node>
	<node lat="61.00304999783221" lon="10.021724996213905" id="-23397">
		<tag k="name" v="Nordre Klemoen" />
		<tag k="place" v="farm" />
		<tag k="ssr:stedsnr" v="311313" />
	</node>
	<node lat="61.0016166650187" lon="10.036619443915795" id="-23398">
		<tag k="name" v="Gladbakken" />
		<tag k="place" v="farm" />
		<tag k="ssr:stedsnr" v="311315" />
	</node>
	<node lat="61.00048333679934" lon="10.041502781739142" id="-23399">
		<tag k="name" v="Rognstad" />
		<tag k="place" v="farm" />
		<tag k="ssr:stedsnr" v="311317" />
	</node>
	<node lat="61.012652775990546" lon="9.996261117087725" id="-23400">
		<tag k="alt_name" v="Brattlia, s;Søndre Brattlia" />
		<tag k="name" v="Søre Brattlia" />
		<tag k="place" v="farm" />
		<tag k="ssr:stedsnr" v="311275" />
	</node>
	<node lat="61.016341668717814" lon="10.206100007035758" id="-23401">
		<tag k="name" v="Svarthaugen" />
		<tag k="natural" v="hill" />
		<tag k="place" v="locality" />
		<tag k="ssr:stedsnr" v="311277" />
	</node>
	<node lat="61.10447777582154" lon="9.816219435157553" id="-23402">
		<tag k="name" v="Lønvatnet" />
		<tag k="natural" v="water" />
		<tag k="ssr:stedsnr" v="311706" />
	</node>
	<node lat="61.09282221803614" lon="9.764236111732801" id="-23403">
		<tag k="name" v="Hasabekken" />
		<tag k="ssr:stedsnr" v="311716" />
		<tag k="waterway" v="stream" />
	</node>
	<node lat="60.86540000278184" lon="9.988800001714791" id="-23404">
		<tag k="alt_name" v="Stensrudtjern" />
		<tag k="name" v="Steinsrudtjernet" />
		<tag k="natural" v="water" />
		<tag k="ssr:stedsnr" v="311477" />
	</node>
	<node lat="61.066644445949876" lon="9.818933333709534" id="-23405">
		<tag k="name" v="Høgkampvatnet" />
		<tag k="natural" v="water" />
		<tag k="ssr:stedsnr" v="311675" />
	</node>
	<node lat="60.860327779083306" lon="9.80252500745416" id="-23406">
		<tag k="historic" v="shieling" />
		<tag k="name" v="Stuvesætra" />
		<tag k="place" v="isolated_dwelling" />
		<tag k="ssr:stedsnr" v="312011" />
	</node>
	<node lat="60.82822777409027" lon="9.810383339690999" id="-23407">
		<tag k="name" v="Brusvea" />
		<tag k="place" v="farm" />
		<tag k="ssr:stedsnr" v="312204" />
	</node>
	<node lat="60.829052781821964" lon="9.942694437980187" id="-23408">
		<tag k="alt_name" v="Håjordet" />
		<tag k="name" v="Nedre Ulvshusli" />
		<tag k="place" v="farm" />
		<tag k="ssr:stedsnr" v="312208" />
	</node>
	<node lat="60.947800003818706" lon="10.074152778752925" id="-23409">
		<tag k="alt_name" v="Fjellvinn" />
		<tag k="name" v="Fjellvin" />
		<tag k="place" v="farm" />
		<tag k="ssr:stedsnr" v="312266" />
	</node>
	<node lat="60.943405555784686" lon="10.086058325339335" id="-23410">
		<tag k="alt_name" v="Kjelbergsengen" />
		<tag k="name" v="Kjeldbergsenga" />
		<tag k="place" v="farm" />
		<tag k="ssr:stedsnr" v="312268" />
	</node>
	<node lat="60.98966944674394" lon="10.040944444617677" id="-23411">
		<tag k="alt_name" v="Vestum" />
		<tag k="name" v="Vestom" />
		<tag k="place" v="farm" />
		<tag k="ssr:stedsnr" v="312310" />
	</node>
	<node lat="60.98685555673797" lon="10.073347216286036" id="-23412">
		<tag k="name" v="Berget" />
		<tag k="place" v="farm" />
		<tag k="ssr:stedsnr" v="312313" />
	</node>
	<node lat="60.99359167074043" lon="10.109230547746044" id="-23413">
		<tag k="name" v="Flågån" />
		<tag k="natural" v="wetland" />
		<tag k="ssr:stedsnr" v="312318" />
	</node>
	<node lat="60.879275000747405" lon="9.987352786152453" id="-23414">
		<tag k="alt_name" v="Vangsjøhøgda" />
		<tag k="fixme" v="consider natural=peak for the most distinct mountains in the district" />
		<tag k="name" v="Vangsjøknatten" />
		<tag k="natural" v="hill" />
		<tag k="place" v="locality" />
		<tag k="ssr:stedsnr" v="312371" />
	</node>
	<node lat="60.87966388935892" lon="10.119997216284684" id="-23415">
		<tag k="name" v="Skålmyra" />
		<tag k="natural" v="wetland" />
		<tag k="ssr:stedsnr" v="312385" />
	</node>
	<node lat="60.837052776546145" lon="10.021280559877841" id="-23416">
		<tag k="alt_name" v="Kolterud" />
		<tag k="name" v="Nordre Kolterud" />
		<tag k="place" v="farm" />
		<tag k="ssr:stedsnr" v="312504" />
	</node>
	<node lat="60.929441665926475" lon="9.818741668601938" id="-23417">
		<tag k="alt_name" v="Livatnet, vesle;Vesle Livatn" />
		<tag k="name" v="Vesle Livatnet" />
		<tag k="natural" v="water" />
		<tag k="ssr:stedsnr" v="312870" />
	</node>
	<node lat="60.98142222073563" lon="10.078966661430435" id="-23418">
		<tag k="name" v="Mo" />
		<tag k="place" v="farm" />
		<tag k="ssr:stedsnr" v="313313" />
	</node>
	<node lat="60.85828611373518" lon="10.226016658320546" id="-23419">
		<tag k="name" v="Brattelva" />
		<tag k="ssr:stedsnr" v="313524" />
		<tag k="waterway" v="stream" />
	</node>
	<node lat="60.86943611337213" lon="10.21319167260851" id="-23420">
		<tag k="name" v="Sørberg" />
		<tag k="place" v="farm" />
		<tag k="ssr:stedsnr" v="313416" />
	</node>
	<node lat="60.94811667086409" lon="9.878738894499506" id="-23421">
		<tag k="alt_name" v="Killingtjern" />
		<tag k="name" v="Killingvatnet" />
		<tag k="natural" v="water" />
		<tag k="ssr:stedsnr" v="313941" />
	</node>
	<node lat="60.927300004219845" lon="9.802697214444121" id="-23423">
		<tag k="name" v="Bjørntjernhalle" />
		<tag k="natural" v="slope" />
		<tag k="place" v="locality" />
		<tag k="ssr:stedsnr" v="342345" />
	</node>
	<node lat="60.740083335292915" lon="9.842494451756433" id="-23424">
		<tag k="name" v="Øya" />
		<tag k="place" v="islet" />
		<tag k="ssr:stedsnr" v="342492" />
	</node>
	<node lat="60.79192777730631" lon="10.036322214110088" id="-23425">
		<tag k="alt_name" v="Søndre Hesttjern" />
		<tag k="name" v="Søre Hesttjern" />
		<tag k="natural" v="water" />
		<tag k="ssr:stedsnr" v="342613" />
	</node>
	<node lat="60.92254681604035" lon="9.804216203511892" id="-23426">
		<tag k="name" v="Bjørntjernshytta" />
		<tag k="place" v="isolated_dwelling" />
		<tag k="ssr:stedsnr" v="357865" />
	</node>
	<node lat="60.932411110057366" lon="9.803730556728365" id="-23428">
		<tag k="name" v="Kjørogjeldsdalsberget" />
		<tag k="natural" v="cliff" />
		<tag k="ssr:stedsnr" v="357913" />
	</node>
	<node lat="60.84618889263695" lon="10.180877779175589" id="-23431">
		<tag k="amenity" v="kindergarten" />
		<tag k="name" v="Gry" />
		<tag k="ssr:stedsnr" v="360049" />
	</node>
	<node lat="61.08592777880838" lon="9.978544446559638" id="-23432">
		<tag k="name" v="Dokkfløydammen" />
		<tag k="ssr:stedsnr" v="370051" />
		<tag k="waterway" v="dam" />
	</node>
	<node lat="61.01875833347761" lon="10.103416661434224" id="-23433">
		<tag k="alt_name" v="Sagvolden" />
		<tag k="name" v="Sagvollen" />
		<tag k="place" v="locality" />
		<tag k="ssr:stedsnr" v="370261" />
	</node>
	<node lat="61.00998910422336" lon="10.00582592501232" id="-23434">
		<tag k="fixme" v="consider place=hamlet" />
		<tag k="name" v="Sæter" />
		<tag k="place" v="farm" />
		<tag k="ssr:stedsnr" v="371218" />
	</node>
	<node lat="61.02129166641471" lon="9.892938883982037" id="-23435">
		<tag k="name" v="Rud" />
		<tag k="place" v="farm" />
		<tag k="ssr:stedsnr" v="371358" />
	</node>
	<node lat="61.01967777844841" lon="9.862383342491741" id="-23436">
		<tag k="name" v="Røste" />
		<tag k="place" v="farm" />
		<tag k="ssr:stedsnr" v="371360" />
	</node>
	<node lat="60.882849998826096" lon="9.883780556833422" id="-23437">
		<tag k="alt_name" v="Åmbusetsætra" />
		<tag k="historic" v="shieling" />
		<tag k="name" v="Åmbuset" />
		<tag k="place" v="isolated_dwelling" />
		<tag k="ssr:stedsnr" v="372112" />
	</node>
	<node lat="60.87885277471027" lon="9.867369441159175" id="-23438">
		<tag k="name" v="Flisdalen" />
		<tag k="natural" v="valley" />
		<tag k="place" v="locality" />
		<tag k="ssr:stedsnr" v="372113" />
	</node>
	<node lat="60.84444167102117" lon="9.779036109762126" id="-23439">
		<tag k="loc_name" v="Bjørnaskardrenna" />
		<tag k="name" v="Bjødnaskarrenna" />
		<tag k="place" v="locality" />
		<tag k="ssr:stedsnr" v="479593" />
	</node>
	<node lat="60.8436078742715" lon="9.965033469156616" id="-23441">
		<tag k="fixme" v="consider place=hamlet" />
		<tag k="name" v="Ulvshus" />
		<tag k="place" v="farm" />
		<tag k="ssr:stedsnr" v="372052" />
	</node>
	<node lat="60.848061112113314" lon="9.893955552944579" id="-23442">
		<tag k="name" v="Rønningen" />
		<tag k="place" v="farm" />
		<tag k="ssr:stedsnr" v="372054" />
	</node>
	<node lat="60.948713892379374" lon="9.999805554801533" id="-23443">
		<tag k="name" v="Høgås" />
		<tag k="place" v="farm" />
		<tag k="ssr:stedsnr" v="372265" />
	</node>
	<node lat="60.94448333136206" lon="10.00847778066691" id="-23444">
		<tag k="name" v="Fredstad" />
		<tag k="place" v="farm" />
		<tag k="ssr:stedsnr" v="372270" />
	</node>
	<node lat="60.83503055804651" lon="9.79008332905233" id="-23445">
		<tag k="name" v="Øybakkmyre" />
		<tag k="natural" v="wetland" />
		<tag k="ssr:stedsnr" v="479553" />
	</node>
	<node lat="60.99768333763656" lon="10.315538896253827" id="-23446">
		<tag k="name" v="Vismunda" />
		<tag k="ssr:stedsnr" v="373149" />
		<tag k="waterway" v="river" />
	</node>
	<node lat="60.76905700003484" lon="9.821447449564802" id="-23447">
		<tag k="alt_name" v="Vålåsætra" />
		<tag k="historic" v="shieling" />
		<tag k="name" v="Våvålsætra" />
		<tag k="place" v="isolated_dwelling" />
		<tag k="ssr:stedsnr" v="373160" />
	</node>
	<node lat="60.99342015962993" lon="10.072406661317881" id="-23448">
		<tag k="fixme" v="consider place=hamlet" />
		<tag k="name" v="Frøysland" />
		<tag k="old_name" v="Frøisland" />
		<tag k="place" v="farm" />
		<tag k="ssr:stedsnr" v="373306" />
	</node>
	<node lat="60.9861666671101" lon="10.08633332504766" id="-23449">
		<tag k="name" v="Brurud" />
		<tag k="place" v="farm" />
		<tag k="ssr:stedsnr" v="373315" />
	</node>
	<node lat="60.83198888902944" lon="9.904800007851156" id="-23450">
		<tag k="name" v="Sandmoen" />
		<tag k="place" v="farm" />
		<tag k="ssr:stedsnr" v="373205" />
	</node>
	<node lat="60.79686110744996" lon="9.82866110505009" id="-23451">
		<tag k="alt_name" v="Krokvatn" />
		<tag k="name" v="Krokvatna" />
		<tag k="natural" v="water" />
		<tag k="ssr:stedsnr" v="373207" />
		<tag k="water" v="lake" />
	</node>
	<node lat="60.80037500091323" lon="9.846261107934243" id="-23452">
		<tag k="name" v="Kroksjøen" />
		<tag k="natural" v="water" />
		<tag k="ssr:stedsnr" v="373210" />
	</node>
	<node lat="60.88461110824432" lon="10.140105553322536" id="-23453">
		<tag k="historic" v="shieling" />
		<tag k="name" v="Bergsætra" />
		<tag k="place" v="isolated_dwelling" />
		<tag k="ssr:stedsnr" v="373396" />
	</node>
	<node lat="60.88853818727709" lon="10.145537849820407" id="-23454">
		<tag k="fixme" v="multiple name tags, choose one and add the other to alt_name" />
		<tag k="name" v="Aursjøen;Bergsætervatnet" />
		<tag k="natural" v="water" />
		<tag k="ssr:stedsnr" v="373401" />
		<tag k="water" v="lake" />
	</node>
	<node lat="60.83366944579504" lon="10.133308342365757" id="-23455">
		<tag k="alt_name" v="Damtjern" />
		<tag k="name" v="Damtjernet" />
		<tag k="natural" v="water" />
		<tag k="ssr:stedsnr" v="373511" />
	</node>
	<node lat="60.861019443819906" lon="9.970841673044395" id="-23456">
		<tag k="alt_name" v="Fyritjern" />
		<tag k="name" v="Fyritjernet" />
		<tag k="natural" v="water" />
		<tag k="ssr:stedsnr" v="373563" />
	</node>
	<node lat="60.80696389215005" lon="10.04064167014792" id="-23457">
		<tag k="name" v="Torderudsmyra" />
		<tag k="natural" v="wetland" />
		<tag k="ssr:stedsnr" v="373610" />
	</node>
	<node lat="60.77033889059522" lon="10.03086944102883" id="-23458">
		<tag k="alt_name" v="Aurlundsætra" />
		<tag k="historic" v="shieling" />
		<tag k="name" v="Aurlundssætra" />
		<tag k="place" v="isolated_dwelling" />
		<tag k="ssr:stedsnr" v="373648" />
	</node>
	<node lat="60.95948888786834" lon="9.842011102053357" id="-23459">
		<tag k="name" v="Røstepullen" />
		<tag k="natural" v="water" />
		<tag k="ssr:stedsnr" v="373909" />
	</node>
	<node lat="60.941675004302546" lon="9.837716672130414" id="-23460">
		<tag k="alt_name" v="Øyvatnet, nordre;Nordre Øyvatn" />
		<tag k="name" v="Nordre Øyvatnet" />
		<tag k="natural" v="water" />
		<tag k="ssr:stedsnr" v="373942" />
	</node>
	<node lat="60.91040833622054" lon="9.807619437042774" id="-23461">
		<tag k="name" v="Fellingshalle" />
		<tag k="natural" v="slope" />
		<tag k="place" v="locality" />
		<tag k="ssr:stedsnr" v="479845" />
	</node>
	<node lat="60.91678888681564" lon="9.797547216704254" id="-23462">
		<tag k="name" v="Hagamyre" />
		<tag k="natural" v="wetland" />
		<tag k="ssr:stedsnr" v="479850" />
	</node>
	<node lat="61.02053888870768" lon="10.17739721828538" id="-23463">
		<tag k="name" v="Gråsteinmyra" />
		<tag k="natural" v="wetland" />
		<tag k="ssr:stedsnr" v="479994" />
	</node>
	<node lat="60.77389722595023" lon="9.910138884657067" id="-23465">
		<tag k="name" v="Aksjølia" />
		<tag k="natural" v="slope" />
		<tag k="place" v="locality" />
		<tag k="ssr:stedsnr" v="481545" />
	</node>
	<node lat="60.86106944064562" lon="9.898569447972786" id="-23466">
		<tag k="name" v="Breibekk" />
		<tag k="place" v="locality" />
		<tag k="ssr:stedsnr" v="481634" />
	</node>
	<node lat="60.84759999740665" lon="10.00413334124491" id="-23467">
		<tag k="name" v="Utkiksberget" />
		<tag k="natural" v="hill" />
		<tag k="place" v="locality" />
		<tag k="ssr:stedsnr" v="481039" />
	</node>
	<node lat="60.99249444540396" lon="9.964097230437982" id="-23469">
		<tag k="name" v="Livasselva" />
		<tag k="ssr:stedsnr" v="481734" />
		<tag k="waterway" v="river" />
	</node>
	<node lat="60.9416472228427" lon="9.993936106323995" id="-23471">
		<tag k="name" v="Myre" />
		<tag k="place" v="farm" />
		<tag k="ssr:stedsnr" v="481756" />
	</node>
	<node lat="60.93025278122353" lon="9.930850007742231" id="-23472">
		<tag k="name" v="Fløyten" />
		<tag k="place" v="locality" />
		<tag k="ssr:stedsnr" v="481951" />
	</node>
	<node lat="60.91241111547007" lon="10.08483889030107" id="-23473">
		<tag k="name" v="Damma" />
		<tag k="place" v="locality" />
		<tag k="ssr:stedsnr" v="482174" />
	</node>
	<node lat="60.76918611032844" lon="9.846544437220867" id="-23474">
		<tag k="name" v="Kringsjøen" />
		<tag k="natural" v="water" />
		<tag k="ssr:stedsnr" v="482266" />
	</node>
	<node lat="60.78373055605707" lon="9.888194450386209" id="-23475">
		<tag k="name" v="Lomholmen" />
		<tag k="place" v="islet" />
		<tag k="ssr:stedsnr" v="482286" />
	</node>
	<node lat="60.8786111145806" lon="10.110419446715" id="-23476">
		<tag k="name" v="Hytteplassdalen" />
		<tag k="place" v="locality" />
		<tag k="ssr:stedsnr" v="482287" />
	</node>
	<node lat="60.962244446820144" lon="10.091208339904421" id="-23477">
		<tag k="name" v="Fellelia" />
		<tag k="natural" v="slope" />
		<tag k="place" v="locality" />
		<tag k="ssr:stedsnr" v="482551" />
	</node>
	<node lat="60.96020062719743" lon="9.984153885690718" id="-23478">
		<tag k="name" v="Nedre Klette" />
		<tag k="place" v="farm" />
		<tag k="ssr:stedsnr" v="482649" />
	</node>
	<node lat="60.8521250043216" lon="10.08923610495927" id="-23480">
		<tag k="name" v="Nordgarden Skjak" />
		<tag k="place" v="farm" />
		<tag k="ssr:stedsnr" v="483021" />
	</node>
	<node lat="60.82763055917727" lon="10.023133339603072" id="-23481">
		<tag k="name" v="Nøland" />
		<tag k="place" v="isolated_dwelling" />
		<tag k="ssr:stedsnr" v="483043" />
	</node>
	<node lat="60.819752780585404" lon="9.953913889949346" id="-23482">
		<tag k="name" v="Damhaugen" />
		<tag k="natural" v="hill" />
		<tag k="place" v="locality" />
		<tag k="ssr:stedsnr" v="483376" />
	</node>
	<node lat="60.80650000182698" lon="9.999741671052421" id="-23483">
		<tag k="name" v="Vatntjern" />
		<tag k="natural" v="water" />
		<tag k="ssr:stedsnr" v="483382" />
	</node>
	<node lat="60.840833337110695" lon="9.998661106383649" id="-23485">
		<tag k="name" v="Nermoen" />
		<tag k="place" v="farm" />
		<tag k="ssr:stedsnr" v="483692" />
	</node>
	<node lat="60.7971249960525" lon="10.116030546569439" id="-23486">
		<tag k="name" v="Nordby" />
		<tag k="place" v="farm" />
		<tag k="ssr:stedsnr" v="483743" />
	</node>
	<node lat="61.04308055611293" lon="9.990036117987747" id="-23487">
		<tag k="name" v="Liabakkene" />
		<tag k="natural" v="slope" />
		<tag k="place" v="locality" />
		<tag k="ssr:stedsnr" v="483745" />
	</node>
	<node lat="60.844372225540745" lon="9.860969444996682" id="-23488">
		<tag k="name" v="Kapperudsvea" />
		<tag k="place" v="isolated_dwelling" />
		<tag k="ssr:stedsnr" v="483848" />
	</node>
	<node lat="60.84285832949675" lon="9.877027783609797" id="-23489">
		<tag k="name" v="Granaker" />
		<tag k="place" v="isolated_dwelling" />
		<tag k="ssr:stedsnr" v="483849" />
	</node>
	<node lat="61.00863055496755" lon="9.79559444078724" id="-23491">
		<tag k="name" v="Kyrtjernputten" />
		<tag k="natural" v="water" />
		<tag k="ssr:stedsnr" v="403146" />
	</node>
	<node lat="60.73269722158415" lon="9.834263897563217" id="-23492">
		<tag k="name" v="Snakavika" />
		<tag k="natural" v="bay" />
		<tag k="ssr:stedsnr" v="403527" />
	</node>
	<node lat="60.7800222212308" lon="10.028058331651005" id="-23493">
		<tag k="name" v="Svartvatnmarka" />
		<tag k="place" v="locality" />
		<tag k="ssr:stedsnr" v="403628" />
	</node>
	<node lat="61.031955554847464" lon="10.21522778699274" id="-23494">
		<tag k="name" v="Storlon" />
		<tag k="natural" v="water" />
		<tag k="ssr:stedsnr" v="404986" />
	</node>
	<node lat="60.823236115589175" lon="10.043383325715691" id="-23495">
		<tag k="name" v="Bjørkelia" />
		<tag k="natural" v="slope" />
		<tag k="place" v="locality" />
		<tag k="ssr:stedsnr" v="420547" />
	</node>
	<node lat="60.89745833749356" lon="10.069308339088728" id="-23496">
		<tag k="name" v="Djupåa" />
		<tag k="ssr:stedsnr" v="421001" />
		<tag k="waterway" v="stream" />
	</node>
	<node lat="60.82805555516849" lon="10.03094444586496" id="-23497">
		<tag k="name" v="Mortenstuen" />
		<tag k="place" v="farm" />
		<tag k="ssr:stedsnr" v="422047" />
	</node>
	<node lat="60.833422220899614" lon="10.092591673240804" id="-23499">
		<tag k="name" v="Tonlia" />
		<tag k="place" v="quarter" />
		<tag k="ssr:stedsnr" v="422118" />
	</node>
	<node lat="60.74608888745169" lon="10.06832221543946" id="-23500">
		<tag k="name" v="Vesteråsmyra" />
		<tag k="natural" v="wetland" />
		<tag k="ssr:stedsnr" v="422306" />
	</node>
	<node lat="60.815605557358694" lon="10.12009444389682" id="-23502">
		<tag k="alt_name" v="Søndre Aurlund" />
		<tag k="name" v="Søre Aurlund" />
		<tag k="place" v="farm" />
		<tag k="ssr:stedsnr" v="422808" />
	</node>
	<node lat="60.912741667881896" lon="10.061355552527" id="-23503">
		<tag k="name" v="Hestbekken" />
		<tag k="ssr:stedsnr" v="422915" />
		<tag k="waterway" v="stream" />
	</node>
	<node lat="60.94834722489716" lon="10.104263893438294" id="-23505">
		<tag k="name" v="Fellefossen" />
		<tag k="natural" v="waterfall" />
		<tag k="ssr:stedsnr" v="422948" />
	</node>
	<node lat="60.86412570398491" lon="9.974785356971516" id="-23506">
		<tag k="name" v="Sveom" />
		<tag k="place" v="locality" />
		<tag k="ssr:stedsnr" v="424506" />
	</node>
	<node lat="61.08182222048252" lon="10.014308341913097" id="-23507">
		<tag k="historic" v="shieling" />
		<tag k="name" v="Nordsætra" />
		<tag k="place" v="isolated_dwelling" />
		<tag k="ssr:stedsnr" v="431048" />
	</node>
	<node lat="61.06136111184308" lon="10.068808325581859" id="-23508">
		<tag k="name" v="Torget" />
		<tag k="place" v="isolated_dwelling" />
		<tag k="ssr:stedsnr" v="431066" />
	</node>
	<node lat="61.077072226150534" lon="9.789433329015223" id="-23509">
		<tag k="fixme" v="consider natural=peak for the most distinct mountains in the district" />
		<tag k="name" v="Spåtind" />
		<tag k="natural" v="hill" />
		<tag k="place" v="locality" />
		<tag k="ssr:stedsnr" v="432609" />
	</node>
	<node lat="61.105391668767886" lon="9.8930083289568" id="-23510">
		<tag k="name" v="Gråberga" />
		<tag k="natural" v="hill" />
		<tag k="place" v="locality" />
		<tag k="ssr:stedsnr" v="432633" />
	</node>
	<node lat="60.85818333786778" lon="9.843502770664605" id="-23511">
		<tag k="name" v="Enga" />
		<tag k="place" v="farm" />
		<tag k="ssr:stedsnr" v="433008" />
	</node>
	<node lat="60.90480277674129" lon="9.792933327708207" id="-23512">
		<tag k="name" v="Leppa" />
		<tag k="ssr:stedsnr" v="433126" />
		<tag k="waterway" v="river" />
	</node>
	<node lat="60.94111944629838" lon="10.157777771359356" id="-23513">
		<tag k="alt_name" v="Bakken, nordre;Søndre Bakken" />
		<tag k="name" v="Nordre Bakken" />
		<tag k="place" v="farm" />
		<tag k="ssr:stedsnr" v="433302" />
	</node>
	<node lat="60.93988551922705" lon="10.115783059620847" id="-23514">
		<tag k="fixme" v="consider place=hamlet" />
		<tag k="name" v="Finni" />
		<tag k="place" v="farm" />
		<tag k="ssr:stedsnr" v="433307" />
	</node>
	<node lat="61.03470555476054" lon="9.819349999868775" id="-23515">
		<tag k="alt_name" v="Svendstad" />
		<tag k="name" v="Svenstad" />
		<tag k="place" v="farm" />
		<tag k="ssr:stedsnr" v="433326" />
	</node>
	<node lat="60.93184721813326" lon="10.120205550956495" id="-23516">
		<tag k="alt_name" v="Finsrud" />
		<tag k="name" v="Finnsrud" />
		<tag k="place" v="farm" />
		<tag k="ssr:stedsnr" v="433278" />
	</node>
	<node lat="60.93875833425796" lon="10.022286116738044" id="-23517">
		<tag k="name" v="Grønnerud" />
		<tag k="old_name" v="Brønnerud" />
		<tag k="place" v="farm" />
		<tag k="ssr:stedsnr" v="433284" />
	</node>
	<node lat="60.9431388873886" lon="9.980027783682853" id="-23518">
		<tag k="name" v="Sterud" />
		<tag k="place" v="farm" />
		<tag k="ssr:stedsnr" v="433290" />
	</node>
	<node lat="60.86573055529699" lon="10.084636104194804" id="-23519">
		<tag k="name" v="Fjell" />
		<tag k="place" v="farm" />
		<tag k="ssr:stedsnr" v="433403" />
	</node>
	<node lat="60.877622220891" lon="10.03742221417216" id="-23520">
		<tag k="fixme" v="multiple name tags, choose one and add the other to alt_name" />
		<tag k="name" v="Sveom;Helgerudsveom" />
		<tag k="place" v="farm" />
		<tag k="ssr:stedsnr" v="433379" />
	</node>
	<node lat="61.13918888723291" lon="9.796497222667165" id="-23521">
		<tag k="name" v="Elgshaugen" />
		<tag k="natural" v="hill" />
		<tag k="place" v="locality" />
		<tag k="ssr:stedsnr" v="433706" />
	</node>
	<node lat="60.91285543230081" lon="10.007980810484336" id="-23522">
		<tag k="name" v="Slåtten" />
		<tag k="place" v="locality" />
		<tag k="ssr:stedsnr" v="433473" />
	</node>
	<node lat="61.12895555451653" lon="9.872205549468461" id="-23523">
		<tag k="alt_name" v="Spåtind" />
		<tag k="name" v="Spåtind høyfjellshotell" />
		<tag k="old_name" v="Spåtind hotell" />
		<tag k="ssr:stedsnr" v="433721" />
		<tag k="tourism" v="hotel" />
	</node>
	<node lat="61.130474995981174" lon="9.926691670954364" id="-23524">
		<tag k="historic" v="shieling" />
		<tag k="name" v="Kvannlia" />
		<tag k="place" v="isolated_dwelling" />
		<tag k="ssr:stedsnr" v="433723" />
	</node>
	<node lat="60.83656944560618" lon="9.868008326853818" id="-23525">
		<tag k="name" v="Brattland" />
		<tag k="place" v="farm" />
		<tag k="ssr:stedsnr" v="434020" />
	</node>
	<node lat="60.827825002611114" lon="9.942602783640014" id="-23526">
		<tag k="alt_name" v="Øvre Ulvshusli" />
		<tag k="name" v="Ulvshuslia" />
		<tag k="place" v="farm" />
		<tag k="ssr:stedsnr" v="434174" />
	</node>
	<node lat="60.81920833543358" lon="9.964891659868616" id="-23527">
		<tag k="name" v="Haugen" />
		<tag k="place" v="farm" />
		<tag k="ssr:stedsnr" v="434178" />
	</node>
	<node lat="60.82824999737611" lon="9.867158325187827" id="-23528">
		<tag k="name" v="Håkenstadbekken" />
		<tag k="ssr:stedsnr" v="434179" />
		<tag k="waterway" v="stream" />
	</node>
	<node lat="61.039716669999926" lon="9.982099997282958" id="-23529">
		<tag k="name" v="Nylsmyra" />
		<tag k="natural" v="wetland" />
		<tag k="ssr:stedsnr" v="492037" />
	</node>
	<node lat="60.84569444856485" lon="10.175963891943013" id="-23530">
		<tag k="name" v="Skinnerudsvea" />
		<tag k="place" v="farm" />
		<tag k="ssr:stedsnr" v="434473" />
	</node>
	<node lat="60.84388055932803" lon="10.125663897783822" id="-23531">
		<tag k="alt_name" v="Gygertjern" />
		<tag k="name" v="Gygertjernet" />
		<tag k="natural" v="water" />
		<tag k="ssr:stedsnr" v="434483" />
	</node>
	<node lat="60.84425772532976" lon="10.071311966426313" id="-23532">
		<tag k="fixme" v="consider place=hamlet" />
		<tag k="name" v="Rud" />
		<tag k="place" v="farm" />
		<tag k="ssr:stedsnr" v="434501" />
	</node>
	<node lat="60.842372225942476" lon="9.995819452045984" id="-23533">
		<tag k="name" v="Øvermoen" />
		<tag k="place" v="farm" />
		<tag k="ssr:stedsnr" v="434510" />
	</node>
	<node lat="60.85216664748069" lon="10.001425895829545" id="-23534">
		<tag k="name" v="Tyndrum" />
		<tag k="place" v="hamlet" />
		<tag k="ssr:stedsnr" v="434512" />
	</node>
	<node lat="60.85481388775276" lon="10.110677768926061" id="-23535">
		<tag k="name" v="Arnesvea" />
		<tag k="place" v="farm" />
		<tag k="ssr:stedsnr" v="434519" />
	</node>
	<node lat="60.815950004329494" lon="10.004702776735188" id="-23536">
		<tag k="alt_name" v="Bjørntjern" />
		<tag k="name" v="Bjørntjernet" />
		<tag k="natural" v="water" />
		<tag k="ssr:stedsnr" v="434570" />
	</node>
	<node lat="61.00891944465583" lon="9.922222228706799" id="-23537">
		<tag k="fixme" v="consider place=hamlet" />
		<tag k="name" v="Nord-Torpa" />
		<tag k="place" v="village" />
		<tag k="ssr:stedsnr" v="434723" />
	</node>
	<node lat="61.02411110940964" lon="9.97354999777521" id="-23538">
		<tag k="alt_name" v="Strøm, midtre;Strøm" />
		<tag k="name" v="Midtre Strøm" />
		<tag k="place" v="farm" />
		<tag k="ssr:stedsnr" v="492157" />
	</node>
	<node lat="61.035675001682456" lon="10.150927771488181" id="-23539">
		<tag k="alt_name" v="Matpullen" />
		<tag k="name" v="Matputten" />
		<tag k="natural" v="water" />
		<tag k="ssr:stedsnr" v="492161" />
	</node>
	<node lat="60.93205833022121" lon="9.850975001222801" id="-23540">
		<tag k="name" v="Råka" />
		<tag k="natural" v="water" />
		<tag k="ssr:stedsnr" v="434869" />
		<tag k="water" v="lake" />
	</node>
	<node lat="60.930258329123525" lon="9.870350001948804" id="-23541">
		<tag k="name" v="Steinsjøen" />
		<tag k="natural" v="water" />
		<tag k="ssr:stedsnr" v="434872" />
	</node>
	<node lat="60.91480000391305" lon="9.889474995982294" id="-23542">
		<tag k="name" v="Øvre Øvergardstjern" />
		<tag k="natural" v="water" />
		<tag k="ssr:stedsnr" v="434886" />
	</node>
	<node lat="61.00313889161823" lon="9.93396389738537" id="-23543">
		<tag k="name" v="Bergseng" />
		<tag k="place" v="farm" />
		<tag k="ssr:stedsnr" v="492330" />
	</node>
	<node lat="61.01622259408912" lon="9.922086093014007" id="-23544">
		<tag k="alt_name" v="Synstelien" />
		<tag k="fixme" v="consider place=hamlet" />
		<tag k="name" v="Synstelia" />
		<tag k="place" v="farm" />
		<tag k="ssr:stedsnr" v="492360" />
	</node>
	<node lat="60.878263885460946" lon="10.091377784609861" id="-23545">
		<tag k="name" v="Øytjernet" />
		<tag k="natural" v="water" />
		<tag k="ssr:stedsnr" v="493397" />
	</node>
	<node lat="60.73812863360493" lon="10.025701043532502" id="-23546">
		<tag k="alt_name" v="Vestre Hovdevatn" />
		<tag k="name" v="Hovdevatna" />
		<tag k="natural" v="water" />
		<tag k="ssr:stedsnr" v="492752" />
	</node>
	<node lat="60.84064722262635" lon="9.856583338573211" id="-23547">
		<tag k="alt_name" v="Madsstuen" />
		<tag k="name" v="Matsstugu" />
		<tag k="place" v="farm" />
		<tag k="ssr:stedsnr" v="493051" />
	</node>
	<node lat="60.8521541332892" lon="9.963720772133971" id="-23548">
		<tag k="alt_name" v="Broner" />
		<tag k="fixme" v="consider place=hamlet" />
		<tag k="name" v="Brone" />
		<tag k="place" v="farm" />
		<tag k="ssr:stedsnr" v="493053" />
	</node>
	<node lat="60.846891662427524" lon="9.903802772728657" id="-23549">
		<tag k="name" v="Haraldenga" />
		<tag k="place" v="farm" />
		<tag k="ssr:stedsnr" v="493057" />
	</node>
	<node lat="61.00521666725415" lon="10.092366659397676" id="-23550">
		<tag k="name" v="Brattråk" />
		<tag k="place" v="farm" />
		<tag k="ssr:stedsnr" v="493233" />
	</node>
	<node lat="61.00305833642576" lon="10.000311120131567" id="-23551">
		<tag k="alt_name" v="Håkestad" />
		<tag k="name" v="Håkenstad" />
		<tag k="place" v="farm" />
		<tag k="ssr:stedsnr" v="493246" />
	</node>
	<node lat="61.00051388530326" lon="10.017705557257734" id="-23552">
		<tag k="name" v="Nedre Klemoen" />
		<tag k="place" v="farm" />
		<tag k="ssr:stedsnr" v="493257" />
	</node>
	<node lat="61.00307499905644" lon="10.029177771857805" id="-23553">
		<tag k="name" v="Bråten" />
		<tag k="place" v="locality" />
		<tag k="ssr:stedsnr" v="493258" />
	</node>
	<node lat="61.111100002517055" lon="9.837277782260783" id="-23554">
		<tag k="name" v="Hita" />
		<tag k="natural" v="water" />
		<tag k="ssr:stedsnr" v="493669" />
	</node>
	<node lat="61.11128889055337" lon="9.760166662729112" id="-23555">
		<tag k="name" v="Sionsplassen" />
		<tag k="place" v="locality" />
		<tag k="ssr:stedsnr" v="493671" />
	</node>
	<node lat="61.10401152363931" lon="9.951719692556324" id="-23556">
		<tag k="historic" v="shieling" />
		<tag k="name" v="Klemosætra" />
		<tag k="place" v="isolated_dwelling" />
		<tag k="ssr:stedsnr" v="493688" />
	</node>
	<node lat="61.09339722617174" lon="9.948527772601793" id="-23557">
		<tag k="alt_name" v="Slettumspullen" />
		<tag k="name" v="Slettomstjernet" />
		<tag k="natural" v="water" />
		<tag k="ssr:stedsnr" v="493691" />
	</node>
	<node lat="61.08808055977956" lon="9.940308339986354" id="-23558">
		<tag k="name" v="Myrstreta" />
		<tag k="place" v="isolated_dwelling" />
		<tag k="ssr:stedsnr" v="493695" />
	</node>
	<node lat="61.09066388457273" lon="9.932111115726094" id="-23559">
		<tag k="alt_name" v="Storslåttet" />
		<tag k="historic" v="shieling" />
		<tag k="name" v="Storslåtte" />
		<tag k="place" v="isolated_dwelling" />
		<tag k="ssr:stedsnr" v="493696" />
	</node>
	<node lat="61.058575002804446" lon="9.785491662852195" id="-23560">
		<tag k="name" v="Smørbukktjernet" />
		<tag k="natural" v="water" />
		<tag k="ssr:stedsnr" v="493654" />
	</node>
	<node lat="61.12650555751294" lon="9.863102775850223" id="-23561">
		<tag k="name" v="Synnfjorden" />
		<tag k="natural" v="water" />
		<tag k="ssr:stedsnr" v="493723" />
		<tag k="water" v="lake" />
	</node>
	<node lat="60.86318333758202" lon="9.82489443890344" id="-23562">
		<tag k="alt_name" v="Skarvatn;Skardvatnet, store" />
		<tag k="name" v="Store Skardvatnet" />
		<tag k="natural" v="water" />
		<tag k="ssr:stedsnr" v="494027" />
	</node>
	<node lat="60.86063889138594" lon="9.879136115334406" id="-23563">
		<tag k="fixme" v="consider natural=peak for the most distinct mountains in the district" />
		<tag k="name" v="Svinkampen" />
		<tag k="natural" v="hill" />
		<tag k="place" v="locality" />
		<tag k="ssr:stedsnr" v="494004" />
	</node>
	<node lat="60.8281765386435" lon="9.933469423583256" id="-23564">
		<tag k="fixme" v="consider place=hamlet" />
		<tag k="name" v="Nordby" />
		<tag k="place" v="farm" />
		<tag k="ssr:stedsnr" v="494190" />
	</node>
	<node lat="60.998061115300665" lon="10.172422228890209" id="-23565">
		<tag k="name" v="Hølbekkmyra" />
		<tag k="natural" v="wetland" />
		<tag k="ssr:stedsnr" v="494140" />
	</node>
	<node lat="60.99693333786766" lon="10.047597217527386" id="-23566">
		<tag k="amenity" v="place_of_worship" />
		<tag k="denomination" v="lutheran" />
		<tag k="name" v="Åmot kirke" />
		<tag k="old_name" v="Torpa" />
		<tag k="religion" v="christian" />
		<tag k="ssr:stedsnr" v="494144" />
	</node>
	<node lat="60.99756666297744" lon="10.159127777729962" id="-23567">
		<tag k="name" v="Sætermyra" />
		<tag k="natural" v="wetland" />
		<tag k="ssr:stedsnr" v="494146" />
	</node>
	<node lat="60.94354999852506" lon="9.998702772577795" id="-23568">
		<tag k="name" v="Øvergård" />
		<tag k="place" v="farm" />
		<tag k="ssr:stedsnr" v="494230" />
	</node>
	<node lat="60.95703611361516" lon="10.079008337113825" id="-23569">
		<tag k="name" v="Nydal" />
		<tag k="place" v="farm" />
		<tag k="ssr:stedsnr" v="494329" />
	</node>
	<node lat="60.94031388913027" lon="10.154316663468396" id="-23570">
		<tag k="name" v="Voll" />
		<tag k="place" v="farm" />
		<tag k="ssr:stedsnr" v="494241" />
	</node>
	<node lat="60.949814358333484" lon="10.120727070121381" id="-23571">
		<tag k="fixme" v="consider place=hamlet" />
		<tag k="name" v="Haug" />
		<tag k="place" v="farm" />
		<tag k="ssr:stedsnr" v="494246" />
	</node>
	<node lat="60.948894446333796" lon="10.055725008957697" id="-23572">
		<tag k="name" v="Rundmyra" />
		<tag k="natural" v="wetland" />
		<tag k="ssr:stedsnr" v="494249" />
	</node>
	<node lat="60.93650833722545" lon="10.033488883055092" id="-23573">
		<tag k="name" v="Tomte" />
		<tag k="place" v="farm" />
		<tag k="ssr:stedsnr" v="494260" />
	</node>
	<node lat="60.883536106877266" lon="10.059863885267355" id="-23574">
		<tag k="name" v="Fleinlia" />
		<tag k="natural" v="slope" />
		<tag k="place" v="locality" />
		<tag k="ssr:stedsnr" v="494386" />
	</node>
	<node lat="60.88822222373402" lon="10.065424997878635" id="-23575">
		<tag k="alt_name" v="Stomlibekken" />
		<tag k="name" v="Stomleibekken" />
		<tag k="ssr:stedsnr" v="494387" />
		<tag k="waterway" v="stream" />
	</node>
	<node lat="60.9590638914001" lon="9.98805277662507" id="-23576">
		<tag k="alt_name" v="Myrvold" />
		<tag k="name" v="Myrvoll" />
		<tag k="place" v="farm" />
		<tag k="ssr:stedsnr" v="494341" />
	</node>
	<node lat="60.927344448633086" lon="10.046972226104007" id="-23577">
		<tag k="alt_name" v="Lunde, s;Søndre Lunde" />
		<tag k="name" v="Søre Lunde" />
		<tag k="place" v="farm" />
		<tag k="ssr:stedsnr" v="494419" />
	</node>
	<node lat="60.92512898323665" lon="10.057299965966195" id="-23578">
		<tag k="fixme" v="consider place=hamlet" />
		<tag k="name" v="Harstad" />
		<tag k="place" v="farm" />
		<tag k="ssr:stedsnr" v="494421" />
	</node>
	<node lat="60.924241664046335" lon="10.166850007621294" id="-23579">
		<tag k="alt_name" v="Vælermyra" />
		<tag k="name" v="Vælemyra" />
		<tag k="natural" v="wetland" />
		<tag k="ssr:stedsnr" v="494425" />
	</node>
	<node lat="60.83538610693103" lon="10.17786666031294" id="-23580">
		<tag k="alt_name" v="Storvatn" />
		<tag k="name" v="Storvatnet" />
		<tag k="natural" v="water" />
		<tag k="ssr:stedsnr" v="494488" />
		<tag k="water" v="lake" />
	</node>
	<node lat="60.92404721841252" lon="10.14859999690376" id="-23581">
		<tag k="name" v="Slåttsvebekken" />
		<tag k="ssr:stedsnr" v="494432" />
		<tag k="waterway" v="stream" />
	</node>
	<node lat="60.91426944762358" lon="10.184516660807558" id="-23582">
		<tag k="name" v="Store Åborvatn" />
		<tag k="natural" v="water" />
		<tag k="old_name" v="Åbborvatna, store" />
		<tag k="ssr:stedsnr" v="494433" />
		<tag k="water" v="lake" />
	</node>
	<node lat="60.9043638913131" lon="10.18317778350616" id="-23583">
		<tag k="alt_name" v="Svarthaugen" />
		<tag k="fixme" v="consider natural=peak for the most distinct mountains in the district" />
		<tag k="name" v="Mårstad" />
		<tag k="natural" v="hill" />
		<tag k="place" v="locality" />
		<tag k="ssr:stedsnr" v="494445" />
	</node>
	<node lat="60.848611113741505" lon="10.099661117120931" id="-23584">
		<tag k="alt_name" v="Rustebakke" />
		<tag k="name" v="Ringvoll" />
		<tag k="place" v="farm" />
		<tag k="ssr:stedsnr" v="494494" />
	</node>
	<node lat="60.82188867301146" lon="10.082676928712656" id="-23585">
		<tag k="fixme" v="consider place=hamlet" />
		<tag k="name" v="Haug" />
		<tag k="place" v="farm" />
		<tag k="ssr:stedsnr" v="494573" />
	</node>
	<node lat="60.832611110422775" lon="9.99827499552871" id="-23586">
		<tag k="name" v="Olamoen" />
		<tag k="place" v="farm" />
		<tag k="ssr:stedsnr" v="494576" />
	</node>
	<node lat="60.83444166482185" lon="9.970188890322365" id="-23587">
		<tag k="alt_name" v="Søndre Lågmoen" />
		<tag k="name" v="Lauvmoen" />
		<tag k="place" v="farm" />
		<tag k="ssr:stedsnr" v="494578" />
	</node>
	<node lat="60.82721667024575" lon="10.033802776638948" id="-23588">
		<tag k="name" v="Barlund" />
		<tag k="place" v="farm" />
		<tag k="ssr:stedsnr" v="494584" />
	</node>
	<node lat="60.831416668503685" lon="10.101086113211718" id="-23589">
		<tag k="alt_name" v="Damtjernbekken" />
		<tag k="name" v="Tonvollbekken" />
		<tag k="ssr:stedsnr" v="494589" />
		<tag k="waterway" v="stream" />
	</node>
	<node lat="61.05618610867696" lon="10.00141110338462" id="-23590">
		<tag k="historic" v="shieling" />
		<tag k="name" v="Myresætra" />
		<tag k="place" v="isolated_dwelling" />
		<tag k="ssr:stedsnr" v="674046" />
	</node>
	<node lat="61.030130555161" lon="10.074661111208405" id="-23591">
		<tag k="alt_name" v="Skartlia, nordre;Skartlien" />
		<tag k="name" v="Nordre Skartlia" />
		<tag k="place" v="farm" />
		<tag k="ssr:stedsnr" v="674200" />
	</node>
	<node lat="61.00734604222863" lon="9.902303750469402" id="-23592">
		<tag k="name" v="Livatnet" />
		<tag k="natural" v="water" />
		<tag k="ssr:stedsnr" v="674326" />
		<tag k="water" v="lake" />
	</node>
	<node lat="60.74941111397206" lon="9.823880548399792" id="-23593">
		<tag k="name" v="Fløyten" />
		<tag k="natural" v="water" />
		<tag k="ssr:stedsnr" v="464565" />
	</node>
	<node lat="60.79722778015691" lon="10.015988896455159" id="-23594">
		<tag k="name" v="Haugshytta" />
		<tag k="place" v="locality" />
		<tag k="ssr:stedsnr" v="464662" />
	</node>
	<node lat="61.01077499814526" lon="9.834805563506047" id="-23595">
		<tag k="name" v="Klauvsjøbekken" />
		<tag k="ssr:stedsnr" v="464904" />
		<tag k="waterway" v="stream" />
	</node>
	<node lat="61.029777777052196" lon="9.863677769737032" id="-23596">
		<tag k="alt_name" v="Brenden" />
		<tag k="name" v="Brenna" />
		<tag k="place" v="locality" />
		<tag k="ssr:stedsnr" v="464922" />
	</node>
	<node lat="61.03376111000403" lon="9.862913893004796" id="-23597">
		<tag k="name" v="Brennbekken" />
		<tag k="ssr:stedsnr" v="464923" />
		<tag k="waterway" v="stream" />
	</node>
	<node lat="60.732919446465395" lon="10.014391663567746" id="-23598">
		<tag k="alt_name" v="Skjellingshovde, store" />
		<tag k="fixme" v="consider natural=peak for the most distinct mountains in the district" />
		<tag k="name" v="Store Skjellingshovde" />
		<tag k="natural" v="hill" />
		<tag k="place" v="locality" />
		<tag k="ssr:stedsnr" v="674776" />
	</node>
	<node lat="60.74457820378286" lon="9.818011511017588" id="-23599">
		<tag k="name" v="Lendingsputten" />
		<tag k="natural" v="water" />
		<tag k="old_name" v="Lendingsputt" />
		<tag k="ssr:stedsnr" v="674798" />
	</node>
	<node lat="61.04115277779682" lon="9.826569448081266" id="-23600">
		<tag k="name" v="Hugulitjernet" />
		<tag k="natural" v="water" />
		<tag k="ssr:stedsnr" v="675370" />
	</node>
	<node lat="60.8614888927856" lon="10.07375833652156" id="-23601">
		<tag k="fixme" v="multiple name tags, choose one and add the other to alt_name" />
		<tag k="name" v="Kvernerud;Rud" />
		<tag k="place" v="isolated_dwelling" />
		<tag k="ssr:stedsnr" v="675437" />
	</node>
	<node lat="61.11725277402068" lon="9.846947225634105" id="-23602">
		<tag k="name" v="Hitbekken" />
		<tag k="ssr:stedsnr" v="675731" />
		<tag k="waterway" v="stream" />
	</node>
	<node lat="61.10010555244057" lon="9.869872216067309" id="-23603">
		<tag k="name" v="Strangtjernet" />
		<tag k="natural" v="water" />
		<tag k="ssr:stedsnr" v="675687" />
	</node>
	<node lat="61.15686667098853" lon="9.672336102851107" id="-23604">
		<tag k="alt_name" v="Torrisknatten" />
		<tag k="fixme" v="consider natural=peak for the most distinct mountains in the district" />
		<tag k="name" v="Tørrisknattane" />
		<tag k="natural" v="hill" />
		<tag k="place" v="locality" />
		<tag k="ssr:stedsnr" v="675766" />
	</node>
	<node lat="61.15102222195139" lon="9.757152784394803" id="-23605">
		<tag k="alt_name" v="Gryttjønn" />
		<tag k="name" v="Gryttjønnet" />
		<tag k="natural" v="water" />
		<tag k="ssr:stedsnr" v="675768" />
	</node>
	<node lat="61.14400277593054" lon="9.792849996466806" id="-23606">
		<tag k="fixme" v="consider natural=peak for the most distinct mountains in the district" />
		<tag k="name" v="Synnhallberga" />
		<tag k="natural" v="hill" />
		<tag k="place" v="locality" />
		<tag k="ssr:stedsnr" v="675771" />
	</node>
	<node lat="60.792047219287525" lon="10.137505555830646" id="-23607">
		<tag k="bridge" v="yes" />
		<tag k="layer" v="1" />
		<tag k="name" v="Rostad" />
		<tag k="ssr:stedsnr" v="471112" />
	</node>
	<node lat="60.790866666860246" lon="10.158297222037273" id="-23608">
		<tag k="bridge" v="yes" />
		<tag k="layer" v="1" />
		<tag k="name" v="Våtbekken" />
		<tag k="ssr:stedsnr" v="471121" />
	</node>
	<node lat="60.800516664213454" lon="10.118030561508428" id="-23609">
		<tag k="bridge" v="yes" />
		<tag k="layer" v="1" />
		<tag k="name" v="Åvella" />
		<tag k="ssr:stedsnr" v="471122" />
	</node>
	<node lat="60.865830554943464" lon="9.823747227569848" id="-23610">
		<tag k="alt_name" v="Skardvatnet, l;Skarvatn" />
		<tag k="name" v="Vesle Skardvatnet" />
		<tag k="natural" v="water" />
		<tag k="ssr:stedsnr" v="676018" />
	</node>
	<node lat="60.8691138884803" lon="9.839072228954091" id="-23611">
		<tag k="fixme" v="consider natural=peak for the most distinct mountains in the district" />
		<tag k="name" v="Ormpullhøgda" />
		<tag k="natural" v="hill" />
		<tag k="place" v="locality" />
		<tag k="ssr:stedsnr" v="676021" />
	</node>
	<node lat="60.87432222075348" lon="9.706866674435236" id="-23612">
		<tag k="name" v="Etnedalen" />
		<tag k="natural" v="valley" />
		<tag k="place" v="locality" />
		<tag k="ssr:stedsnr" v="676023" />
	</node>
	<node lat="60.90415277742" lon="9.792524992921138" id="-23613">
		<tag k="historic" v="shieling" />
		<tag k="name" v="Liasætra" />
		<tag k="place" v="isolated_dwelling" />
		<tag k="ssr:stedsnr" v="676070" />
	</node>
	<node lat="60.87139722373007" lon="9.930180547525929" id="-23614">
		<tag k="fixme" v="consider natural=peak for the most distinct mountains in the district" />
		<tag k="name" v="Høgberget" />
		<tag k="natural" v="hill" />
		<tag k="place" v="locality" />
		<tag k="ssr:stedsnr" v="676030" />
	</node>
	<node lat="60.876399998339" lon="9.93032778021147" id="-23615">
		<tag k="alt_name" v="Øyvassknatten" />
		<tag k="fixme" v="consider natural=peak for the most distinct mountains in the district" />
		<tag k="name" v="Øyvassberget" />
		<tag k="natural" v="hill" />
		<tag k="place" v="locality" />
		<tag k="ssr:stedsnr" v="676032" />
	</node>
	<node lat="60.87648889159775" lon="9.925675000556227" id="-23616">
		<tag k="alt_name" v="Storpulla" />
		<tag k="name" v="Svartpullen" />
		<tag k="natural" v="water" />
		<tag k="ssr:stedsnr" v="676033" />
	</node>
	<node lat="60.899502775298544" lon="9.921494442284137" id="-23617">
		<tag k="name" v="Kollhaugen" />
		<tag k="natural" v="hill" />
		<tag k="place" v="locality" />
		<tag k="ssr:stedsnr" v="676071" />
	</node>
	<node lat="60.91703889172917" lon="9.81932777468514" id="-23618">
		<tag k="name" v="Stormyra" />
		<tag k="natural" v="wetland" />
		<tag k="ssr:stedsnr" v="676086" />
	</node>
	<node lat="60.75987500248212" lon="9.933941663788206" id="-23619">
		<tag k="historic" v="shieling" />
		<tag k="name" v="Skjellungsætra" />
		<tag k="place" v="isolated_dwelling" />
		<tag k="ssr:stedsnr" v="676159" />
	</node>
	<node lat="60.94823333423885" lon="9.98328611572944" id="-23620">
		<tag k="name" v="Bjørke" />
		<tag k="place" v="farm" />
		<tag k="ssr:stedsnr" v="676249" />
	</node>
	<node lat="60.94282222592599" lon="10.035538882060234" id="-23621">
		<tag k="name" v="Lundelva" />
		<tag k="ssr:stedsnr" v="676269" />
		<tag k="waterway" v="stream" />
	</node>
	<node lat="60.94462499758219" lon="10.086266662849276" id="-23622">
		<tag k="alt_name" v="Storsveen" />
		<tag k="name" v="Storsvea" />
		<tag k="place" v="farm" />
		<tag k="ssr:stedsnr" v="676272" />
	</node>
	<node lat="60.937941678539026" lon="10.008425005478053" id="-23623">
		<tag k="fixme" v="consider place=hamlet" />
		<tag k="name" v="Frøysli" />
		<tag k="old_name" v="Frøisli" />
		<tag k="place" v="farm" />
		<tag k="ssr:stedsnr" v="676281" />
	</node>
	<node lat="60.892308334850576" lon="10.043722218864744" id="-23624">
		<tag k="name" v="Bekkesvea" />
		<tag k="place" v="farm" />
		<tag k="ssr:stedsnr" v="676371" />
	</node>
	<node lat="60.92469721895482" lon="10.120508324730332" id="-23625">
		<tag k="name" v="Brubakke" />
		<tag k="place" v="farm" />
		<tag k="ssr:stedsnr" v="676452" />
	</node>
	<node lat="60.83867222273266" lon="10.171697220957405" id="-23626">
		<tag k="alt_name" v="Vaslien" />
		<tag k="name" v="Vasslia" />
		<tag k="place" v="farm" />
		<tag k="ssr:stedsnr" v="676522" />
	</node>
	<node lat="60.84803611085919" lon="10.144874994256266" id="-23627">
		<tag k="name" v="Elvemyra" />
		<tag k="natural" v="wetland" />
		<tag k="ssr:stedsnr" v="676523" />
	</node>
	<node lat="60.841766666792964" lon="10.007569436341333" id="-23628">
		<tag k="amenity" v="nursing_home" />
		<tag k="name" v="Risby" />
		<tag k="ssr:stedsnr" v="676532" />
	</node>
	<node lat="60.92968888931274" lon="10.15771389649184" id="-23629">
		<tag k="alt_name" v="Nedre Brenner" />
		<tag k="name" v="Brenner" />
		<tag k="place" v="farm" />
		<tag k="ssr:stedsnr" v="676457" />
	</node>
	<node lat="60.92297500177865" lon="10.087319450423406" id="-23630">
		<tag k="name" v="Sørum" />
		<tag k="place" v="farm" />
		<tag k="ssr:stedsnr" v="676468" />
	</node>
	<node lat="60.91606666789671" lon="10.205916664585128" id="-23631">
		<tag k="fixme" v="consider natural=peak for the most distinct mountains in the district" />
		<tag k="name" v="Brattengshovde" />
		<tag k="natural" v="hill" />
		<tag k="old_name" v="Brattenghøgda;Brattenghovde" />
		<tag k="place" v="locality" />
		<tag k="ssr:stedsnr" v="676472" />
	</node>
	<node lat="60.910158336612355" lon="10.021441664030169" id="-23632">
		<tag k="historic" v="shieling" />
		<tag k="name" v="Vestersætra" />
		<tag k="place" v="isolated_dwelling" />
		<tag k="ssr:stedsnr" v="676473" />
	</node>
	<node lat="60.85055073422318" lon="9.99161440853202" id="-23633">
		<tag k="fixme" v="consider place=hamlet" />
		<tag k="name" v="Sogn" />
		<tag k="place" v="farm" />
		<tag k="ssr:stedsnr" v="676555" />
	</node>
	<node lat="60.80320278026699" lon="10.108827786603863" id="-23634">
		<tag k="name" v="Skreddersstugua" />
		<tag k="place" v="farm" />
		<tag k="ssr:stedsnr" v="676574" />
	</node>
	<node lat="60.79045277766375" lon="10.143758325708022" id="-23635">
		<tag k="name" v="Våten" />
		<tag k="place" v="farm" />
		<tag k="ssr:stedsnr" v="676648" />
	</node>
	<node lat="60.79153055792587" lon="10.055102779378196" id="-23636">
		<tag k="alt_name" v="Bemmerudsætra" />
		<tag k="name" v="Bemmerud" />
		<tag k="place" v="locality" />
		<tag k="ssr:stedsnr" v="676655" />
	</node>
	<node lat="60.79673888679406" lon="10.054980556772307" id="-23637">
		<tag k="alt_name" v="Gørrtjern" />
		<tag k="name" v="Gorrtjernet" />
		<tag k="natural" v="water" />
		<tag k="ssr:stedsnr" v="676658" />
	</node>
	<node lat="60.79286388580016" lon="9.993180546507013" id="-23638">
		<tag k="name" v="Varphøgda" />
		<tag k="natural" v="hill" />
		<tag k="place" v="locality" />
		<tag k="ssr:stedsnr" v="676660" />
	</node>
	<node lat="60.97260000309145" lon="9.827574997861332" id="-23639">
		<tag k="fixme" v="consider natural=peak for the most distinct mountains in the district" />
		<tag k="name" v="Skogstadsæterberget" />
		<tag k="natural" v="hill" />
		<tag k="place" v="locality" />
		<tag k="ssr:stedsnr" v="676995" />
	</node>
	<node lat="60.986197225600314" lon="9.775222216726867" id="-23640">
		<tag k="alt_name" v="Lundtjern" />
		<tag k="name" v="Lundtjernet" />
		<tag k="natural" v="water" />
		<tag k="ssr:stedsnr" v="676980" />
	</node>
	<node lat="60.93681388644566" lon="9.913116670463417" id="-23641">
		<tag k="fixme" v="consider natural=peak for the most distinct mountains in the district" />
		<tag k="name" v="Grotåsen" />
		<tag k="natural" v="hill" />
		<tag k="place" v="locality" />
		<tag k="ssr:stedsnr" v="677891" />
	</node>
	<node lat="60.803599998247826" lon="9.86347778450107" id="-23642">
		<tag k="alt_name" v="Orrhøgda" />
		<tag k="name" v="Orrhaugen" />
		<tag k="natural" v="hill" />
		<tag k="place" v="locality" />
		<tag k="ssr:stedsnr" v="677210" />
	</node>
	<node lat="60.99748055336932" lon="10.115194437643066" id="-23643">
		<tag k="name" v="Stubberud" />
		<tag k="place" v="farm" />
		<tag k="ssr:stedsnr" v="677165" />
	</node>
	<node lat="60.98415833003078" lon="10.059191665657991" id="-23644">
		<tag k="alt_name" v="Skogstadlien" />
		<tag k="name" v="Skogstadlia" />
		<tag k="place" v="farm" />
		<tag k="ssr:stedsnr" v="677295" />
	</node>
	<node lat="60.97324444735498" lon="10.064258333886073" id="-23645">
		<tag k="name" v="Røstenga" />
		<tag k="place" v="farm" />
		<tag k="ssr:stedsnr" v="677307" />
	</node>
	<node lat="60.95788888965297" lon="10.2271388849916" id="-23646">
		<tag k="name" v="Finna" />
		<tag k="ssr:stedsnr" v="677328" />
		<tag k="waterway" v="stream" />
	</node>
	<node lat="60.85807777702116" lon="10.109136102854949" id="-23647">
		<tag k="alt_name" v="Myrbråten" />
		<tag k="name" v="Myrbråtån" />
		<tag k="place" v="farm" />
		<tag k="ssr:stedsnr" v="677542" />
	</node>
	<node lat="60.8088972206422" lon="10.02132222718824" id="-23648">
		<tag k="name" v="Bjørkeputten" />
		<tag k="natural" v="water" />
		<tag k="ssr:stedsnr" v="677594" />
	</node>
	<node lat="60.82104759076111" lon="10.06884195128001" id="-23649">
		<tag k="fixme" v="consider place=hamlet" />
		<tag k="name" v="Kolbjørnshus" />
		<tag k="place" v="farm" />
		<tag k="ssr:stedsnr" v="677609" />
	</node>
	<node lat="60.82342777616301" lon="10.107144452840089" id="-23650">
		<tag k="alt_name" v="Hagen" />
		<tag k="name" v="Brurudhågån" />
		<tag k="place" v="farm" />
		<tag k="ssr:stedsnr" v="677613" />
	</node>
	<node lat="60.834869444795636" lon="9.797363892368631" id="-23651">
		<tag k="name" v="Bakhovde" />
		<tag k="natural" v="slope" />
		<tag k="place" v="locality" />
		<tag k="ssr:stedsnr" v="479561" />
	</node>
	<node lat="60.838641663391805" lon="9.818319448264083" id="-23652">
		<tag k="name" v="Fossmyrene" />
		<tag k="natural" v="wetland" />
		<tag k="ssr:stedsnr" v="479563" />
	</node>
	<node lat="61.1205694465668" lon="9.960516664760593" id="-23653">
		<tag k="name" v="Storlia" />
		<tag k="natural" v="slope" />
		<tag k="place" v="locality" />
		<tag k="ssr:stedsnr" v="481110" />
	</node>
	<node lat="60.86834721786397" lon="10.201436116210818" id="-23655">
		<tag k="name" v="Brattelva" />
		<tag k="ssr:stedsnr" v="481502" />
		<tag k="waterway" v="stream" />
	</node>
	<node lat="60.77882777945068" lon="9.992158329129817" id="-23657">
		<tag k="name" v="Krokevjua" />
		<tag k="ssr:stedsnr" v="481509" />
		<tag k="waterway" v="stream" />
	</node>
	<node lat="60.864075001343835" lon="9.99673611626078" id="-23658">
		<tag k="name" v="Øvre Stensrud" />
		<tag k="place" v="farm" />
		<tag k="ssr:stedsnr" v="481560" />
	</node>
	<node lat="60.85381666418287" lon="9.997427772570989" id="-23659">
		<tag k="name" v="Vangsjordet" />
		<tag k="place" v="farm" />
		<tag k="ssr:stedsnr" v="481564" />
	</node>
	<node lat="60.98619166751496" lon="10.105519443749293" id="-23660">
		<tag k="name" v="Øykjemyra" />
		<tag k="natural" v="wetland" />
		<tag k="ssr:stedsnr" v="482003" />
	</node>
	<node lat="60.976838889960106" lon="10.122361105075765" id="-23661">
		<tag k="name" v="Rundmyra" />
		<tag k="natural" v="wetland" />
		<tag k="ssr:stedsnr" v="482005" />
	</node>
	<node lat="60.771972224241416" lon="9.868775004232468" id="-23662">
		<tag k="name" v="Kråkhuguknatten" />
		<tag k="natural" v="hill" />
		<tag k="place" v="locality" />
		<tag k="ssr:stedsnr" v="482264" />
	</node>
	<node lat="60.82770555992093" lon="10.099880552108157" id="-23664">
		<tag k="name" v="Voksekollen" />
		<tag k="place" v="isolated_dwelling" />
		<tag k="ssr:stedsnr" v="483177" />
	</node>
	<node lat="60.83448333677563" lon="9.959650003302533" id="-23665">
		<tag k="name" v="Kile" />
		<tag k="place" v="farm" />
		<tag k="ssr:stedsnr" v="483672" />
	</node>
	<node lat="60.81491666622152" lon="9.969908329837422" id="-23666">
		<tag k="name" v="Hamarslivollen" />
		<tag k="place" v="locality" />
		<tag k="ssr:stedsnr" v="483374" />
	</node>
	<node lat="61.01267214686957" lon="9.991898718060048" id="-23670">
		<tag k="fixme" v="consider place=hamlet" />
		<tag k="name" v="Brattlia" />
		<tag k="place" v="farm" />
		<tag k="ssr:stedsnr" v="485472" />
	</node>
	<node lat="61.0308527816732" lon="10.052638892116384" id="-23671">
		<tag k="name" v="Sørum" />
		<tag k="place" v="farm" />
		<tag k="ssr:stedsnr" v="492171" />
	</node>
	<node lat="61.020372224615585" lon="10.130613889909906" id="-23672">
		<tag k="alt_name" v="Abborvatn" />
		<tag k="name" v="Åborvatnet" />
		<tag k="natural" v="water" />
		<tag k="ssr:stedsnr" v="492178" />
	</node>
	<node lat="60.74660555680616" lon="9.875794443378306" id="-23673">
		<tag k="alt_name" v="Svartvatnet, store;Store Svartvatn" />
		<tag k="name" v="Store Svartvatnet" />
		<tag k="natural" v="water" />
		<tag k="ssr:stedsnr" v="492789" />
	</node>
	<node lat="60.74192499615095" lon="9.839552786741013" id="-23674">
		<tag k="alt_name" v="Tverrvatnet, yt;Ytre Tverrvatn" />
		<tag k="name" v="Ytre Tverrvatnet" />
		<tag k="natural" v="water" />
		<tag k="ssr:stedsnr" v="492794" />
		<tag k="water" v="lake" />
	</node>
	<node lat="60.85406666537102" lon="9.832849999733515" id="-23675">
		<tag k="name" v="Halla" />
		<tag k="place" v="farm" />
		<tag k="ssr:stedsnr" v="493068" />
	</node>
	<node lat="60.88245000050302" lon="9.902611115791562" id="-23676">
		<tag k="fixme" v="consider natural=peak for the most distinct mountains in the district" />
		<tag k="name" v="Godhamnhøgda" />
		<tag k="natural" v="hill" />
		<tag k="place" v="locality" />
		<tag k="ssr:stedsnr" v="493113" />
	</node>
	<node lat="60.87448889151905" lon="10.11937500432317" id="-23677">
		<tag k="alt_name" v="Mærrabakken" />
		<tag k="name" v="Merrabakken" />
		<tag k="natural" v="slope" />
		<tag k="place" v="locality" />
		<tag k="ssr:stedsnr" v="493403" />
	</node>
	<node lat="60.86981388785627" lon="10.026580552477183" id="-23678">
		<tag k="name" v="Jakopshus" />
		<tag k="place" v="isolated_dwelling" />
		<tag k="ssr:stedsnr" v="493410" />
	</node>
	<node lat="60.86069722253082" lon="10.171933336185413" id="-23679">
		<tag k="alt_name" v="Sollien" />
		<tag k="name" v="Sollia" />
		<tag k="place" v="farm" />
		<tag k="ssr:stedsnr" v="493422" />
	</node>
	<node lat="60.81644722507277" lon="9.955358324818866" id="-23680">
		<tag k="alt_name" v="Svengjerdet" />
		<tag k="name" v="Sveingjerdet" />
		<tag k="place" v="farm" />
		<tag k="ssr:stedsnr" v="494172" />
	</node>
	<node lat="60.83052777806103" lon="9.785999997762868" id="-23681">
		<tag k="name" v="Øybakken" />
		<tag k="place" v="farm" />
		<tag k="ssr:stedsnr" v="494187" />
	</node>
	<node lat="60.961913892152175" lon="10.031616664743744" id="-23682">
		<tag k="name" v="Trollfuglmyra" />
		<tag k="natural" v="wetland" />
		<tag k="ssr:stedsnr" v="494320" />
	</node>
	<node lat="60.96116944024572" lon="9.997222220820081" id="-23683">
		<tag k="alt_name" v="Voldheim" />
		<tag k="name" v="Vollheim" />
		<tag k="place" v="farm" />
		<tag k="ssr:stedsnr" v="494327" />
	</node>
	<node lat="60.90251944148604" lon="9.927566672344962" id="-23684">
		<tag k="alt_name" v="Aksletjern" />
		<tag k="name" v="Aksletjernet" />
		<tag k="natural" v="water" />
		<tag k="ssr:stedsnr" v="494078" />
	</node>
	<node lat="60.83717777860745" lon="10.106719453581483" id="-23685">
		<tag k="alt_name" v="Engerengen" />
		<tag k="name" v="Engerenga" />
		<tag k="place" v="farm" />
		<tag k="ssr:stedsnr" v="494471" />
	</node>
	<node lat="60.84066824846026" lon="10.106451196515728" id="-23686">
		<tag k="fixme" v="consider place=hamlet" />
		<tag k="name" v="Enger" />
		<tag k="place" v="farm" />
		<tag k="ssr:stedsnr" v="494472" />
	</node>
	<node lat="60.88885555930917" lon="10.162497217906923" id="-23687">
		<tag k="alt_name" v="Veslevatn" />
		<tag k="name" v="Veslevatnet" />
		<tag k="natural" v="water" />
		<tag k="ssr:stedsnr" v="494364" />
	</node>
	<node lat="60.74979472017559" lon="10.043829725558092" id="-23688">
		<tag k="alt_name" v="Øyvatnet" />
		<tag k="name" v="Øyvatna" />
		<tag k="natural" v="water" />
		<tag k="ssr:stedsnr" v="494702" />
		<tag k="water" v="lake" />
	</node>
	<node lat="60.91873611259957" lon="9.905886113091267" id="-23689">
		<tag k="historic" v="shieling" />
		<tag k="name" v="Geilhaugsætra" />
		<tag k="place" v="isolated_dwelling" />
		<tag k="ssr:stedsnr" v="494903" />
	</node>
	<node lat="60.95427500285575" lon="9.814691663362705" id="-23690">
		<tag k="alt_name" v="Utsikten" />
		<tag k="fixme" v="consider natural=peak for the most distinct mountains in the district" />
		<tag k="name" v="Røyskatthovde" />
		<tag k="natural" v="hill" />
		<tag k="place" v="locality" />
		<tag k="ssr:stedsnr" v="494904" />
	</node>
	<node lat="60.95561666715434" lon="9.83006943809792" id="-23691">
		<tag k="alt_name" v="Gåstjern" />
		<tag k="name" v="Gåstjernet" />
		<tag k="natural" v="water" />
		<tag k="ssr:stedsnr" v="494907" />
	</node>
	<node lat="60.951047220771336" lon="9.795024996361587" id="-23692">
		<tag k="fixme" v="multiple name tags, choose one and add the other to alt_name" />
		<tag k="historic" v="shieling" />
		<tag k="name" v="Gjerdlisætra;Nørdstebøsætra" />
		<tag k="place" v="isolated_dwelling" />
		<tag k="ssr:stedsnr" v="494918" />
	</node>
	<node lat="60.9471341076678" lon="9.857330853084505" id="-23693">
		<tag k="name" v="Øyangen" />
		<tag k="natural" v="water" />
		<tag k="ssr:stedsnr" v="494920" />
		<tag k="water" v="lake" />
	</node>
	<node lat="60.96550833374641" lon="9.79004444505872" id="-23694">
		<tag k="name" v="Vesløyangen" />
		<tag k="natural" v="water" />
		<tag k="ssr:stedsnr" v="494952" />
	</node>
	<node lat="60.857488893218395" lon="10.173233338069775" id="-23695">
		<tag k="name" v="Skogli" />
		<tag k="place" v="farm" />
		<tag k="ssr:stedsnr" v="495519" />
	</node>
	<node lat="60.8547527739916" lon="10.124722223575715" id="-23696">
		<tag k="name" v="Vadelva" />
		<tag k="ssr:stedsnr" v="495523" />
		<tag k="waterway" v="stream" />
	</node>
	<node lat="61.03794444786046" lon="9.786388895643231" id="-23697">
		<tag k="name" v="Tverråa" />
		<tag k="ssr:stedsnr" v="524068" />
		<tag k="waterway" v="stream" />
	</node>
	<node lat="60.92797222061416" lon="9.870713884216775" id="-23698">
		<tag k="name" v="Steinsjøknatten" />
		<tag k="natural" v="hill" />
		<tag k="place" v="locality" />
		<tag k="ssr:stedsnr" v="524103" />
	</node>
	<node lat="60.89262222116889" lon="9.806138896173449" id="-23699">
		<tag k="name" v="Bikkjepullen" />
		<tag k="natural" v="water" />
		<tag k="ssr:stedsnr" v="524105" />
		<tag k="water" v="pond" />
	</node>
	<node lat="60.90538333482081" lon="10.21639166117567" id="-23700">
		<tag k="historic" v="shieling" />
		<tag k="name" v="Gulset" />
		<tag k="place" v="locality" />
		<tag k="ssr:stedsnr" v="524512" />
	</node>
	<node lat="61.02137222662433" lon="9.833972213207728" id="-23701">
		<tag k="name" v="Tverråa" />
		<tag k="ssr:stedsnr" v="524914" />
		<tag k="waterway" v="stream" />
	</node>
	<node lat="61.01211666493526" lon="10.155477773249622" id="-23704">
		<tag k="name" v="Medvasshaugen" />
		<tag k="natural" v="hill" />
		<tag k="place" v="locality" />
		<tag k="ssr:stedsnr" v="540568" />
	</node>
	<node lat="61.003320014740915" lon="10.183785105842237" id="-23705">
		<tag k="historic" v="shieling" />
		<tag k="loc_name" v="Kråkhugu" />
		<tag k="name" v="Haugsætra" />
		<tag k="place" v="locality" />
		<tag k="ssr:stedsnr" v="540578" />
	</node>
	<node lat="60.894477781595214" lon="10.102586102697504" id="-23706">
		<tag k="fixme" v="specify shooting=range, clay_pigeon etc" />
		<tag k="leisure" v="pitch" />
		<tag k="name" v="Nordre Land sentralskytebane" />
		<tag k="sport" v="shooting" />
		<tag k="ssr:stedsnr" v="542105" />
	</node>
	<node lat="60.850097220969054" lon="9.981999996040607" id="-23707">
		<tag k="name" v="Hogneenga" />
		<tag k="place" v="farm" />
		<tag k="ssr:stedsnr" v="542002" />
	</node>
	<node lat="60.84967500233135" lon="9.973152780215274" id="-23708">
		<tag k="name" v="Hognjordet" />
		<tag k="place" v="farm" />
		<tag k="ssr:stedsnr" v="542005" />
	</node>
	<node lat="61.112750003566084" lon="10.040666668096659" id="-23709">
		<tag k="name" v="Fiska" />
		<tag k="ssr:stedsnr" v="542077" />
		<tag k="waterway" v="river" />
	</node>
	<node lat="60.93369444383488" lon="10.004186116030624" id="-23710">
		<tag k="name" v="Furulybakken" />
		<tag k="place" v="locality" />
		<tag k="ssr:stedsnr" v="542772" />
	</node>
	<node lat="60.84855000148502" lon="9.926816665014067" id="-23711">
		<tag k="junction" v="yes" />
		<tag k="name" v="Endrerudresset" />
		<tag k="place" v="locality" />
		<tag k="ssr:stedsnr" v="542868" />
	</node>
	<node lat="60.898116663852555" lon="10.108847230056336" id="-23712">
		<tag k="fixme" v="consider natural=peak for the most distinct mountains in the district" />
		<tag k="name" v="Sameihøgda" />
		<tag k="natural" v="hill" />
		<tag k="place" v="locality" />
		<tag k="ssr:stedsnr" v="543074" />
	</node>
	<node lat="60.835158333073366" lon="9.88873888627488" id="-23713">
		<tag k="name" v="Dalastugu" />
		<tag k="place" v="locality" />
		<tag k="ssr:stedsnr" v="543212" />
	</node>
	<node lat="60.82083055412388" lon="9.866552782505272" id="-23714">
		<tag k="name" v="Hyttegjerdet" />
		<tag k="place" v="locality" />
		<tag k="ssr:stedsnr" v="543213" />
	</node>
	<node lat="60.794161114221744" lon="9.883230547853604" id="-23716">
		<tag k="name" v="Høglia" />
		<tag k="natural" v="slope" />
		<tag k="place" v="locality" />
		<tag k="ssr:stedsnr" v="543313" />
	</node>
	<node lat="60.78675555170721" lon="9.873547224371954" id="-23717">
		<tag k="name" v="Fløyten" />
		<tag k="natural" v="wetland" />
		<tag k="ssr:stedsnr" v="543320" />
	</node>
	<node lat="60.78939369139239" lon="9.9244627625299" id="-23718">
		<tag k="name" v="Nøsshytta" />
		<tag k="place" v="locality" />
		<tag k="ssr:stedsnr" v="543326" />
	</node>
	<node lat="60.83491111111726" lon="9.966338885626064" id="-23719">
		<tag k="junction" v="yes" />
		<tag k="name" v="Kveumskrysset" />
		<tag k="place" v="locality" />
		<tag k="ssr:stedsnr" v="543626" />
	</node>
	<node lat="61.09588610720304" lon="9.915477778010866" id="-23720">
		<tag k="name" v="Jomyrkroken" />
		<tag k="place" v="locality" />
		<tag k="ssr:stedsnr" v="544211" />
	</node>
	<node lat="60.99753889339569" lon="10.021677769949255" id="-23721">
		<tag k="name" v="Livasselva" />
		<tag k="ssr:stedsnr" v="544969" />
		<tag k="waterway" v="river" />
	</node>
	<node lat="61.02289721863797" lon="9.975141665869169" id="-23722">
		<tag k="alt_name" v="Strøm, s;Søndre Strøm" />
		<tag k="name" v="Søre Strøm" />
		<tag k="place" v="farm" />
		<tag k="ssr:stedsnr" v="552212" />
	</node>
	<node lat="61.0234194417182" lon="10.08215000352187" id="-23723">
		<tag k="alt_name" v="Bækk" />
		<tag k="name" v="Bekk" />
		<tag k="place" v="farm" />
		<tag k="ssr:stedsnr" v="552224" />
	</node>
	<node lat="61.01561012985623" lon="9.986932421168214" id="-23724">
		<tag k="alt_name" v="Aspegården" />
		<tag k="fixme" v="consider place=hamlet" />
		<tag k="name" v="Ospegarden" />
		<tag k="place" v="farm" />
		<tag k="ssr:stedsnr" v="552232" />
	</node>
	<node lat="61.01379722205729" lon="10.108386109280058" id="-23725">
		<tag k="name" v="Sagbekken" />
		<tag k="ssr:stedsnr" v="552246" />
		<tag k="waterway" v="stream" />
	</node>
	<node lat="60.73955277749439" lon="9.837033326977485" id="-23726">
		<tag k="alt_name" v="Løveøya" />
		<tag k="name" v="Lauvøya" />
		<tag k="place" v="islet" />
		<tag k="ssr:stedsnr" v="552836" />
	</node>
	<node lat="61.11014166864254" lon="9.999591666201093" id="-23727">
		<tag k="name" v="Storhaugen" />
		<tag k="natural" v="hill" />
		<tag k="place" v="locality" />
		<tag k="ssr:stedsnr" v="553004" />
	</node>
	<node lat="61.04888888869048" lon="9.992327779045732" id="-23728">
		<tag k="fixme" v="consider natural=peak for the most distinct mountains in the district" />
		<tag k="name" v="Nylsfjellet" />
		<tag k="natural" v="hill" />
		<tag k="place" v="locality" />
		<tag k="ssr:stedsnr" v="553043" />
	</node>
	<node lat="61.010586115194165" lon="9.917572228037864" id="-23729">
		<tag k="name" v="Skogland" />
		<tag k="place" v="farm" />
		<tag k="ssr:stedsnr" v="553343" />
	</node>
	<node lat="61.013577779832474" lon="9.897422227530736" id="-23730">
		<tag k="name" v="Lundheim" />
		<tag k="place" v="farm" />
		<tag k="ssr:stedsnr" v="553346" />
	</node>
	<node lat="61.01202777611679" lon="9.845491668130416" id="-23731">
		<tag k="alt_name" v="Sannerud" />
		<tag k="name" v="Sanderud" />
		<tag k="place" v="farm" />
		<tag k="ssr:stedsnr" v="553348" />
	</node>
	<node lat="61.00705278219927" lon="10.065888885609944" id="-23732">
		<tag k="name" v="Hanssvea" />
		<tag k="place" v="farm" />
		<tag k="ssr:stedsnr" v="553206" />
	</node>
	<node lat="61.00902772667996" lon="10.023900645710748" id="-23733">
		<tag k="fixme" v="consider place=hamlet" />
		<tag k="name" v="Myre" />
		<tag k="place" v="farm" />
		<tag k="ssr:stedsnr" v="553211" />
	</node>
	<node lat="61.01302500433003" lon="10.018327783097417" id="-23734">
		<tag k="name" v="Nyhus" />
		<tag k="place" v="farm" />
		<tag k="ssr:stedsnr" v="553215" />
	</node>
	<node lat="61.00564166547355" lon="9.979883326167693" id="-23735">
		<tag k="name" v="Tåjet" />
		<tag k="place" v="farm" />
		<tag k="ssr:stedsnr" v="553221" />
	</node>
	<node lat="61.00072901409756" lon="9.993904236881312" id="-23736">
		<tag k="fixme" v="consider place=hamlet" />
		<tag k="name" v="Øystad" />
		<tag k="place" v="farm" />
		<tag k="ssr:stedsnr" v="553223" />
	</node>
	<node lat="61.140044448442815" lon="9.847741663727982" id="-23737">
		<tag k="name" v="Skjervungsbekken" />
		<tag k="ssr:stedsnr" v="553703" />
		<tag k="waterway" v="stream" />
	</node>
	<node lat="61.08823611101187" lon="9.897050000127884" id="-23738">
		<tag k="alt_name" v="Røste Strangsætra" />
		<tag k="historic" v="shieling" />
		<tag k="name" v="Strangsætra" />
		<tag k="place" v="isolated_dwelling" />
		<tag k="ssr:stedsnr" v="553692" />
	</node>
	<node lat="61.07938333086216" lon="9.846950000046423" id="-23739">
		<tag k="alt_name" v="Strangen, vest;Vest Strangen" />
		<tag k="name" v="Veststrangen" />
		<tag k="ssr:stedsnr" v="553700" />
		<tag k="waterway" v="stream" />
	</node>
	<node lat="60.883469447263614" lon="9.918488893910698" id="-23740">
		<tag k="alt_name" v="Mjelvatn" />
		<tag k="name" v="Mjellvatnet" />
		<tag k="natural" v="water" />
		<tag k="ssr:stedsnr" v="554102" />
		<tag k="water" v="lake" />
	</node>
	<node lat="60.890163886020694" lon="9.85778056066848" id="-23741">
		<tag k="alt_name" v="Skrevshaug" />
		<tag k="fixme" v="consider natural=peak for the most distinct mountains in the district" />
		<tag k="name" v="Skrevsrudhøgda" />
		<tag k="natural" v="hill" />
		<tag k="place" v="locality" />
		<tag k="ssr:stedsnr" v="554120" />
	</node>
	<node lat="60.85667222474709" lon="9.833708339972837" id="-23742">
		<tag k="alt_name" v="Stuve, nedre" />
		<tag k="name" v="Nedre Stuve" />
		<tag k="place" v="farm" />
		<tag k="ssr:stedsnr" v="554006" />
	</node>
	<node lat="60.861555551136334" lon="9.793274995358022" id="-23743">
		<tag k="alt_name" v="Kringelsjøen" />
		<tag k="name" v="Kringlesjøen" />
		<tag k="natural" v="water" />
		<tag k="ssr:stedsnr" v="554008" />
	</node>
	<node lat="60.9088627487944" lon="9.864930747225024" id="-23744">
		<tag k="alt_name" v="Store Rotvatn" />
		<tag k="name" v="Rotvatnet" />
		<tag k="natural" v="water" />
		<tag k="ssr:stedsnr" v="554076" />
		<tag k="water" v="lake" />
	</node>
	<node lat="60.93785833769364" lon="10.046044439885037" id="-23745">
		<tag k="alt_name" v="Solly" />
		<tag k="name" v="Solli" />
		<tag k="place" v="farm" />
		<tag k="ssr:stedsnr" v="554310" />
	</node>
	<node lat="60.936719441333175" lon="10.12912500226733" id="-23746">
		<tag k="amenity" v="place_of_worship" />
		<tag k="denomination" v="lutheran" />
		<tag k="name" v="Kinn kirke" />
		<tag k="religion" v="christian" />
		<tag k="ssr:stedsnr" v="554335" />
	</node>
	<node lat="60.95380832948965" lon="10.081980546540683" id="-23747">
		<tag k="alt_name" v="Sidselstuen" />
		<tag k="name" v="Sisselstugua" />
		<tag k="place" v="farm" />
		<tag k="ssr:stedsnr" v="554376" />
	</node>
	<node lat="60.9633166700624" lon="10.180800002800604" id="-23748">
		<tag k="alt_name" v="Blesterlia" />
		<tag k="name" v="Blæsterlia" />
		<tag k="natural" v="slope" />
		<tag k="place" v="locality" />
		<tag k="ssr:stedsnr" v="554382" />
	</node>
	<node lat="60.95757778104022" lon="9.999363895822928" id="-23749">
		<tag k="name" v="Løken" />
		<tag k="ssr:stedsnr" v="554385" />
		<tag k="waterway" v="stream" />
	</node>
	<node lat="60.89184166672104" lon="10.215474999792905" id="-23750">
		<tag k="name" v="Kolsrudvatnet" />
		<tag k="natural" v="water" />
		<tag k="ssr:stedsnr" v="554398" />
	</node>
	<node lat="60.94877529551034" lon="10.165232235708636" id="-23751">
		<tag k="alt_name" v="Skaug" />
		<tag k="name" v="Skog" />
		<tag k="place" v="farm" />
		<tag k="ssr:stedsnr" v="554293" />
	</node>
	<node lat="60.87714764165473" lon="9.982771492058284" id="-23752">
		<tag k="name" v="Vangsjøen" />
		<tag k="natural" v="water" />
		<tag k="ssr:stedsnr" v="554425" />
		<tag k="water" v="lake" />
	</node>
	<node lat="60.79598882353406" lon="9.927858521934636" id="-23753">
		<tag k="alt_name" v="Abortjernene" />
		<tag k="name" v="Åborvatna" />
		<tag k="natural" v="water" />
		<tag k="ssr:stedsnr" v="555103" />
		<tag k="water" v="lake" />
	</node>
	<node lat="60.76782777942777" lon="9.873491663761692" id="-23754">
		<tag k="historic" v="shieling" />
		<tag k="loc_name" v="Kråkhugu" />
		<tag k="name" v="Kråkhugusætra" />
		<tag k="place" v="isolated_dwelling" />
		<tag k="ssr:stedsnr" v="555129" />
	</node>
	<node lat="60.8334435606495" lon="9.774495492506151" id="-23755">
		<tag k="fixme" v="consider place=hamlet" />
		<tag k="name" v="Øymoen" />
		<tag k="place" v="farm" />
		<tag k="ssr:stedsnr" v="555166" />
	</node>
	<node lat="60.802288891477694" lon="9.941958330036684" id="-23756">
		<tag k="alt_name" v="Båhattjern" />
		<tag k="name" v="Båhattjernet" />
		<tag k="natural" v="water" />
		<tag k="ssr:stedsnr" v="555184" />
	</node>
	<node lat="60.86488888692823" lon="10.203663889985982" id="-23757">
		<tag k="name" v="Rødde" />
		<tag k="place" v="farm" />
		<tag k="ssr:stedsnr" v="555367" />
	</node>
	<node lat="60.96823055673679" lon="9.991661116472875" id="-23758">
		<tag k="alt_name" v="Ankopdalen" />
		<tag k="name" v="Aukopdalen" />
		<tag k="natural" v="valley" />
		<tag k="place" v="locality" />
		<tag k="ssr:stedsnr" v="555268" />
	</node>
	<node lat="60.84481107319371" lon="10.204189489718841" id="-23759">
		<tag k="name" v="Svensrud" />
		<tag k="place" v="farm" />
		<tag k="ssr:stedsnr" v="555473" />
	</node>
	<node lat="60.96161666957469" lon="9.864894443378002" id="-23760">
		<tag k="name" v="Nyvatn" />
		<tag k="natural" v="water" />
		<tag k="ssr:stedsnr" v="555921" />
	</node>
	<node lat="60.92632222563765" lon="9.89767778573616" id="-23761">
		<tag k="name" v="Laen" />
		<tag k="natural" v="water" />
		<tag k="ssr:stedsnr" v="555874" />
	</node>
	<node lat="60.97648055263935" lon="9.946836118833346" id="-23762">
		<tag k="name" v="Harstadfleina" />
		<tag k="natural" v="hill" />
		<tag k="place" v="locality" />
		<tag k="ssr:stedsnr" v="565698" />
	</node>
	<node lat="60.90406667019412" lon="9.819811113429022" id="-23763">
		<tag k="name" v="Nemdalsbekken" />
		<tag k="ssr:stedsnr" v="585144" />
		<tag k="waterway" v="stream" />
	</node>
	<node lat="60.77008889294937" lon="9.821177776310186" id="-23764">
		<tag k="historic" v="shieling" />
		<tag k="name" v="Øvre Våvålsætra" />
		<tag k="place" v="isolated_dwelling" />
		<tag k="ssr:stedsnr" v="585453" />
	</node>
	<node lat="61.03246944200912" lon="9.845925008802137" id="-23765">
		<tag k="name" v="Engevoll" />
		<tag k="place" v="farm" />
		<tag k="ssr:stedsnr" v="585905" />
	</node>
	<node lat="60.899791662294184" lon="10.052283329103883" id="-23766">
		<tag k="bridge" v="yes" />
		<tag k="layer" v="1" />
		<tag k="name" v="Domma" />
		<tag k="ssr:stedsnr" v="592180" />
	</node>
	<node lat="60.81437499557096" lon="9.813380562657793" id="-23768">
		<tag k="name" v="Nedre Tinton" />
		<tag k="natural" v="hill" />
		<tag k="place" v="locality" />
		<tag k="ssr:stedsnr" v="600498" />
	</node>
	<node lat="60.88158333208854" lon="9.82595834102173" id="-23769">
		<tag k="name" v="Leppa" />
		<tag k="ssr:stedsnr" v="600610" />
		<tag k="waterway" v="river" />
	</node>
	<node lat="61.005311115229595" lon="9.989230564332672" id="-23770">
		<tag k="name" v="Synna" />
		<tag k="ssr:stedsnr" v="600747" />
		<tag k="waterway" v="river" />
	</node>
	<node lat="61.04381111396608" lon="10.074216666540135" id="-23771">
		<tag k="name" v="Nybrennlia" />
		<tag k="natural" v="slope" />
		<tag k="place" v="locality" />
		<tag k="ssr:stedsnr" v="602049" />
	</node>
	<node lat="60.8900749996398" lon="10.006961109992933" id="-23772">
		<tag k="name" v="Skolmåa" />
		<tag k="ssr:stedsnr" v="602315" />
		<tag k="waterway" v="stream" />
	</node>
	<node lat="61.00069166587017" lon="9.946133329151088" id="-23773">
		<tag k="name" v="Nedre Fossum" />
		<tag k="place" v="farm" />
		<tag k="ssr:stedsnr" v="602252" />
	</node>
	<node lat="61.08757499890301" lon="10.033497214903454" id="-23775">
		<tag k="name" v="Gravskarhaugene" />
		<tag k="natural" v="hill" />
		<tag k="place" v="locality" />
		<tag k="ssr:stedsnr" v="602602" />
	</node>
	<node lat="60.85976388727626" lon="9.963813885106159" id="-23776">
		<tag k="name" v="Rønningen" />
		<tag k="place" v="farm" />
		<tag k="ssr:stedsnr" v="602559" />
	</node>
	<node lat="61.02659444805464" lon="9.965169437964724" id="-23777">
		<tag k="name" v="Synna" />
		<tag k="ssr:stedsnr" v="602561" />
		<tag k="waterway" v="river" />
	</node>
	<node lat="60.846716669019294" lon="9.919052773055038" id="-23778">
		<tag k="name" v="Vestre Rusten" />
		<tag k="place" v="farm" />
		<tag k="ssr:stedsnr" v="602867" />
	</node>
	<node lat="60.86325833509485" lon="10.23085277113638" id="-23779">
		<tag k="name" v="Nilselia" />
		<tag k="natural" v="slope" />
		<tag k="place" v="locality" />
		<tag k="ssr:stedsnr" v="602947" />
	</node>
	<node lat="60.96298611184101" lon="10.006219445612983" id="-23781">
		<tag k="alt_name" v="Volden" />
		<tag k="name" v="Vollen" />
		<tag k="place" v="farm" />
		<tag k="ssr:stedsnr" v="602955" />
	</node>
	<node lat="60.88436666906557" lon="10.083866667753954" id="-23782">
		<tag k="name" v="Stomlibekken" />
		<tag k="ssr:stedsnr" v="603258" />
		<tag k="waterway" v="stream" />
	</node>
	<node lat="60.92091636426093" lon="10.07058503931558" id="-23783">
		<tag k="alt_name" v="Gårder" />
		<tag k="fixme" v="consider place=hamlet" />
		<tag k="name" v="Garder" />
		<tag k="place" v="farm" />
		<tag k="ssr:stedsnr" v="603160" />
	</node>
	<node lat="60.753163886196006" lon="10.046741657587392" id="-23784">
		<tag k="name" v="Johanpullen" />
		<tag k="natural" v="water" />
		<tag k="ssr:stedsnr" v="603308" />
	</node>
	<node lat="61.103455551142034" lon="9.839249996073965" id="-23785">
		<tag k="name" v="Starrputtene" />
		<tag k="natural" v="water" />
		<tag k="ssr:stedsnr" v="603311" />
	</node>
	<node lat="60.88257500036525" lon="10.042761115915917" id="-23786">
		<tag k="name" v="Nordre Brudalen" />
		<tag k="place" v="farm" />
		<tag k="ssr:stedsnr" v="603398" />
	</node>
	<node lat="60.85019166813734" lon="10.096366671977956" id="-23788">
		<tag k="fixme" v="consider place=hamlet" />
		<tag k="name" v="Øvre Skjak" />
		<tag k="place" v="farm" />
		<tag k="ssr:stedsnr" v="604017" />
	</node>
	<node lat="60.83721388776616" lon="10.043786109059086" id="-23789">
		<tag k="highway" v="path" />
		<tag k="name" v="Gamle Bergenske Kongevei" />
		<tag k="ssr:stedsnr" v="604031" />
	</node>
	<node lat="60.83156111502836" lon="9.968997230937457" id="-23791">
		<tag k="name" v="Kamphaug" />
		<tag k="place" v="isolated_dwelling" />
		<tag k="ssr:stedsnr" v="604657" />
	</node>
	<node lat="60.831261110431704" lon="9.976877775912351" id="-23792">
		<tag k="name" v="Skogstadvollen" />
		<tag k="place" v="locality" />
		<tag k="ssr:stedsnr" v="604659" />
	</node>
	<node lat="60.83623889209059" lon="9.970041667136012" id="-23793">
		<tag k="name" v="Rønningen" />
		<tag k="place" v="farm" />
		<tag k="ssr:stedsnr" v="604667" />
	</node>
	<node lat="61.04459721912512" lon="9.933108340268312" id="-23794">
		<tag k="name" v="Tverrålia" />
		<tag k="natural" v="slope" />
		<tag k="place" v="locality" />
		<tag k="ssr:stedsnr" v="604772" />
	</node>
	<node lat="61.01851111408308" lon="10.020519438481323" id="-23795">
		<tag k="name" v="Østby" />
		<tag k="place" v="farm" />
		<tag k="ssr:stedsnr" v="613206" />
	</node>
	<node lat="61.015844441748996" lon="10.012275000478294" id="-23796">
		<tag k="name" v="Bjørnsrud" />
		<tag k="place" v="farm" />
		<tag k="ssr:stedsnr" v="613224" />
	</node>
	<node lat="61.043444448437" lon="10.137361104156302" id="-23797">
		<tag k="alt_name" v="Krokvatnet, store" />
		<tag k="name" v="Store Krokvatnet" />
		<tag k="natural" v="water" />
		<tag k="ssr:stedsnr" v="613182" />
	</node>
	<node lat="61.010527781868234" lon="9.922249996105153" id="-23798">
		<tag k="name" v="Hagen" />
		<tag k="place" v="farm" />
		<tag k="ssr:stedsnr" v="613365" />
	</node>
	<node lat="60.74454444230497" lon="9.834466662274977" id="-23799">
		<tag k="alt_name" v="Bjønnholmen" />
		<tag k="name" v="Bjørnholmen" />
		<tag k="place" v="islet" />
		<tag k="ssr:stedsnr" v="613799" />
	</node>
	<node lat="60.84540000057399" lon="9.936550000412474" id="-23800">
		<tag k="alt_name" v="Esbjugkampen" />
		<tag k="fixme" v="consider natural=peak for the most distinct mountains in the district" />
		<tag k="name" v="Endrerudkampen" />
		<tag k="natural" v="hill" />
		<tag k="place" v="locality" />
		<tag k="ssr:stedsnr" v="614061" />
	</node>
	<node lat="61.001425001477415" lon="10.090608339596937" id="-23801">
		<tag k="name" v="Brurud" />
		<tag k="place" v="farm" />
		<tag k="ssr:stedsnr" v="614251" />
	</node>
	<node lat="61.001392537623474" lon="10.065543761266545" id="-23802">
		<tag k="alt_name" v="Sollien" />
		<tag k="fixme" v="consider place=hamlet" />
		<tag k="name" v="Sollia" />
		<tag k="place" v="farm" />
		<tag k="ssr:stedsnr" v="614256" />
	</node>
	<node lat="61.02227499983676" lon="9.782522214268221" id="-23803">
		<tag k="alt_name" v="Illmilkjetjernet" />
		<tag k="name" v="Elmekjetjernet" />
		<tag k="natural" v="water" />
		<tag k="ssr:stedsnr" v="614309" />
	</node>
	<node lat="61.02694722038432" lon="9.787780561995172" id="-23804">
		<tag k="alt_name" v="Munkhattsætra" />
		<tag k="historic" v="shieling" />
		<tag k="name" v="Munkhatten" />
		<tag k="place" v="isolated_dwelling" />
		<tag k="ssr:stedsnr" v="614325" />
	</node>
	<node lat="61.14682778209013" lon="9.879058336904684" id="-23805">
		<tag k="alt_name" v="Skjervungen, store" />
		<tag k="name" v="Store Skjervungen" />
		<tag k="natural" v="water" />
		<tag k="ssr:stedsnr" v="614712" />
		<tag k="water" v="lake" />
	</node>
	<node lat="61.13723332962238" lon="9.783872228979982" id="-23806">
		<tag k="historic" v="shieling" />
		<tag k="name" v="Nysætra" />
		<tag k="place" v="isolated_dwelling" />
		<tag k="ssr:stedsnr" v="614722" />
	</node>
	<node lat="60.85457499904262" lon="9.879927772097128" id="-23807">
		<tag k="name" v="Tomlesvea" />
		<tag k="place" v="farm" />
		<tag k="ssr:stedsnr" v="615004" />
	</node>
	<node lat="60.86456944043651" lon="9.899883332196213" id="-23808">
		<tag k="alt_name" v="Sørbønsveen" />
		<tag k="name" v="Sørbøsvea" />
		<tag k="place" v="farm" />
		<tag k="ssr:stedsnr" v="615019" />
	</node>
	<node lat="60.81293611189329" lon="9.910236119403569" id="-23809">
		<tag k="alt_name" v="Kloppbakken" />
		<tag k="name" v="Klappbakken" />
		<tag k="place" v="farm" />
		<tag k="ssr:stedsnr" v="615224" />
	</node>
	<node lat="60.98922221866895" lon="10.087216673815702" id="-23810">
		<tag k="alt_name" v="Hagaset" />
		<tag k="name" v="Hågåset" />
		<tag k="place" v="farm" />
		<tag k="ssr:stedsnr" v="615300" />
	</node>
	<node lat="60.88068333008512" lon="10.19139999532827" id="-23811">
		<tag k="name" v="Brasettjernet" />
		<tag k="natural" v="water" />
		<tag k="ssr:stedsnr" v="615403" />
	</node>
	<node lat="60.96375833151246" lon="10.111447223895416" id="-23812">
		<tag k="name" v="Langset" />
		<tag k="place" v="farm" />
		<tag k="ssr:stedsnr" v="615320" />
	</node>
	<node lat="60.95476666486043" lon="10.118480551856289" id="-23813">
		<tag k="name" v="Olstad" />
		<tag k="place" v="farm" />
		<tag k="ssr:stedsnr" v="615329" />
	</node>
	<node lat="60.95500555288219" lon="9.983163882662074" id="-23814">
		<tag k="alt_name" v="Kjenshaugmyra" />
		<tag k="name" v="Tjernshaugmyra" />
		<tag k="natural" v="wetland" />
		<tag k="ssr:stedsnr" v="615346" />
	</node>
	<node lat="60.893519444096015" lon="10.203969446131964" id="-23815">
		<tag k="historic" v="shieling" />
		<tag k="name" v="Kolsrudsætra" />
		<tag k="place" v="isolated_dwelling" />
		<tag k="ssr:stedsnr" v="615360" />
	</node>
	<node lat="60.870997218491794" lon="9.973600005151521" id="-23816">
		<tag k="alt_name" v="Langdamtjern" />
		<tag k="name" v="Langdamtjernet" />
		<tag k="natural" v="water" />
		<tag k="ssr:stedsnr" v="615400" />
	</node>
	<node lat="60.84327138777556" lon="10.17685491138328" id="-23817">
		<tag k="alt_name" v="Skinnerud" />
		<tag k="name" v="Nordre Skinnerud" />
		<tag k="place" v="farm" />
		<tag k="ssr:stedsnr" v="615506" />
	</node>
	<node lat="60.84506388557969" lon="10.139636102368494" id="-23818">
		<tag k="alt_name" v="Svarttjern" />
		<tag k="name" v="Svarttjernet" />
		<tag k="natural" v="water" />
		<tag k="ssr:stedsnr" v="615509" />
	</node>
	<node lat="60.84751388816051" lon="10.108769435782268" id="-23819">
		<tag k="name" v="Nybakken" />
		<tag k="place" v="farm" />
		<tag k="ssr:stedsnr" v="615511" />
	</node>
	<node lat="60.84740555425738" lon="10.221936109582542" id="-23820">
		<tag k="name" v="Hallmyra" />
		<tag k="place" v="locality" />
		<tag k="ssr:stedsnr" v="615517" />
	</node>
	<node lat="60.9283980741979" lon="10.162863420321145" id="-23821">
		<tag k="alt_name" v="Væler" />
		<tag k="fixme" v="consider place=hamlet" />
		<tag k="name" v="Væle" />
		<tag k="place" v="farm" />
		<tag k="ssr:stedsnr" v="615443" />
	</node>
	<node lat="60.753891670359856" lon="9.973058334127106" id="-23822">
		<tag k="alt_name" v="Lulivatn" />
		<tag k="name" v="Lulivatnet" />
		<tag k="natural" v="water" />
		<tag k="ssr:stedsnr" v="615717" />
	</node>
	<node lat="60.985983336134" lon="9.987908328864615" id="-23823">
		<tag k="name" v="Kollskolten" />
		<tag k="natural" v="hill" />
		<tag k="place" v="locality" />
		<tag k="ssr:stedsnr" v="616306" />
	</node>
	<node lat="60.853280553674814" lon="10.111786119864645" id="-23824">
		<tag k="name" v="Arnesvetjernet" />
		<tag k="natural" v="water" />
		<tag k="ssr:stedsnr" v="616518" />
	</node>
	<node lat="60.852041662525686" lon="10.140602779553989" id="-23825">
		<tag k="alt_name" v="Brattlien" />
		<tag k="name" v="Brattlia" />
		<tag k="place" v="farm" />
		<tag k="ssr:stedsnr" v="616521" />
	</node>
	<node lat="60.853038886261224" lon="10.103936116962997" id="-23826">
		<tag k="name" v="Bakken" />
		<tag k="place" v="farm" />
		<tag k="ssr:stedsnr" v="616541" />
	</node>
	<node lat="60.76108888805191" lon="10.041474994728363" id="-23827">
		<tag k="alt_name" v="Mottaksmyra" />
		<tag k="name" v="Mottakmyra" />
		<tag k="natural" v="wetland" />
		<tag k="ssr:stedsnr" v="616745" />
	</node>
	<node lat="60.947874997616765" lon="9.92850000288477" id="-23828">
		<tag k="alt_name" v="Veslvatn" />
		<tag k="name" v="Veslvatnet" />
		<tag k="natural" v="water" />
		<tag k="ssr:stedsnr" v="616949" />
	</node>
	<node lat="60.896850003741875" lon="9.810594435894583" id="-23830">
		<tag k="name" v="Felerudslette" />
		<tag k="place" v="locality" />
		<tag k="ssr:stedsnr" v="645131" />
	</node>
	<node lat="60.990255554034576" lon="9.860775009136676" id="-23831">
		<tag k="name" v="Oalsbakkene" />
		<tag k="natural" v="ridge" />
		<tag k="place" v="locality" />
		<tag k="ssr:stedsnr" v="706531" />
	</node>
	<node lat="60.8046277818517" lon="10.083744453135091" id="-23833">
		<tag k="name" v="Mælumsbekken" />
		<tag k="ssr:stedsnr" v="706538" />
		<tag k="waterway" v="stream" />
	</node>
	<node lat="60.963011111876085" lon="9.847147230261927" id="-23834">
		<tag k="name" v="Nysæterbekken" />
		<tag k="ssr:stedsnr" v="645699" />
		<tag k="waterway" v="stream" />
	</node>
	<node lat="60.94998332951409" lon="9.863083334356196" id="-23835">
		<tag k="historic" v="shieling" />
		<tag k="name" v="Øyangssætra" />
		<tag k="place" v="isolated_dwelling" />
		<tag k="ssr:stedsnr" v="645706" />
	</node>
	<node lat="60.87465000317974" lon="9.836424994228052" id="-23838">
		<tag k="name" v="Stuvlia" />
		<tag k="natural" v="slope" />
		<tag k="place" v="locality" />
		<tag k="ssr:stedsnr" v="706991" />
	</node>
	<node lat="60.828594445024926" lon="10.068763893497792" id="-23839">
		<tag k="bridge" v="yes" />
		<tag k="layer" v="1" />
		<tag k="name" v="Stenseng" />
		<tag k="ssr:stedsnr" v="653103" />
	</node>
	<node lat="60.828083336246294" lon="10.088633331167367" id="-23840">
		<tag k="bridge" v="yes" />
		<tag k="layer" v="1" />
		<tag k="name" v="Tonvoll" />
		<tag k="ssr:stedsnr" v="653106" />
	</node>
	<node lat="61.03745833052277" lon="9.753850001136552" id="-23841">
		<tag k="name" v="Geitlie" />
		<tag k="natural" v="slope" />
		<tag k="place" v="locality" />
		<tag k="ssr:stedsnr" v="660859" />
	</node>
	<node lat="60.96265833756601" lon="9.799211119266" id="-23842">
		<tag k="name" v="Øyangselva" />
		<tag k="ssr:stedsnr" v="661912" />
		<tag k="waterway" v="river" />
	</node>
	<node lat="60.87715555895736" lon="10.00566944385848" id="-23844">
		<tag k="name" v="Vangsjøbekken" />
		<tag k="ssr:stedsnr" v="663889" />
		<tag k="waterway" v="stream" />
	</node>
	<node lat="60.837036114372154" lon="9.836619442463082" id="-23845">
		<tag k="name" v="Bakken" />
		<tag k="place" v="farm" />
		<tag k="ssr:stedsnr" v="664038" />
	</node>
	<node lat="60.83258889312911" lon="10.223622230209479" id="-23847">
		<tag k="name" v="Saglia" />
		<tag k="natural" v="slope" />
		<tag k="place" v="locality" />
		<tag k="ssr:stedsnr" v="663987" />
	</node>
	<node lat="60.74869782905057" lon="10.048472029582811" id="-23848">
		<tag k="name" v="Store Øyvatn" />
		<tag k="natural" v="water" />
		<tag k="ssr:stedsnr" v="664296" />
		<tag k="water" v="lake" />
	</node>
	<node lat="60.864947333629395" lon="10.023864707149244" id="-23849">
		<tag k="fixme" v="consider place=hamlet" />
		<tag k="name" v="Loeng" />
		<tag k="place" v="farm" />
		<tag k="ssr:stedsnr" v="664411" />
	</node>
	<node lat="60.87197499905365" lon="10.020902776434705" id="-23850">
		<tag k="name" v="Kalsåa" />
		<tag k="ssr:stedsnr" v="664414" />
		<tag k="waterway" v="stream" />
	</node>
	<node lat="61.14205833330785" lon="9.818172219032025" id="-23851">
		<tag k="name" v="Maribekken" />
		<tag k="ssr:stedsnr" v="664519" />
		<tag k="waterway" v="stream" />
	</node>
	<node lat="60.834811110852876" lon="9.967697213108858" id="-23852">
		<tag k="name" v="Nordre Lågmoen" />
		<tag k="place" v="farm" />
		<tag k="ssr:stedsnr" v="664615" />
	</node>
	<node lat="60.92174722068482" lon="10.034816670161709" id="-23853">
		<tag k="name" v="Lien" />
		<tag k="place" v="hamlet" />
		<tag k="ssr:stedsnr" v="664892" />
	</node>
	<node lat="60.927466669451555" lon="10.049963895179573" id="-23854">
		<tag k="building" v="commercial" />
		<tag k="name" v="Skjellbakken" />
		<tag k="ssr:stedsnr" v="664893" />
	</node>
	<node lat="61.08851110703364" lon="9.920197213955538" id="-23855">
		<tag k="name" v="Synna" />
		<tag k="ssr:stedsnr" v="665236" />
		<tag k="waterway" v="river" />
	</node>
	<node lat="60.826858330754966" lon="10.094794445228706" id="-23856">
		<tag k="alt_name" v="Søndre Tonvoll" />
		<tag k="name" v="Søre Tonvoll" />
		<tag k="place" v="farm" />
		<tag k="ssr:stedsnr" v="665109" />
	</node>
	<node lat="60.81408055650197" lon="9.93302500133165" id="-23857">
		<tag k="name" v="Nøssvea" />
		<tag k="place" v="farm" />
		<tag k="ssr:stedsnr" v="665183" />
	</node>
	<node lat="60.85057777830142" lon="10.0874722302001" id="-23858">
		<tag k="fixme" v="consider place=hamlet" />
		<tag k="name" v="Nedre Skjak" />
		<tag k="place" v="farm" />
		<tag k="ssr:stedsnr" v="667493" />
	</node>
	<node lat="61.09205555582136" lon="10.005938886997617" id="-23859">
		<tag k="name" v="Langvatnet" />
		<tag k="natural" v="water" />
		<tag k="ssr:stedsnr" v="674016" />
	</node>
	<node lat="61.0346777812268" lon="10.000788881525782" id="-23860">
		<tag k="name" v="Djupbekken" />
		<tag k="ssr:stedsnr" v="674186" />
		<tag k="waterway" v="stream" />
	</node>
	<node lat="60.73571111056977" lon="10.01902499918964" id="-23861">
		<tag k="name" v="Fiskarhaugen" />
		<tag k="natural" v="hill" />
		<tag k="place" v="locality" />
		<tag k="ssr:stedsnr" v="674775" />
	</node>
	<node lat="60.853486109553124" lon="9.876086112831025" id="-23862">
		<tag k="name" v="Helgerud" />
		<tag k="place" v="farm" />
		<tag k="ssr:stedsnr" v="675067" />
	</node>
	<node lat="61.02055277676957" lon="9.890938898023142" id="-23863">
		<tag k="name" v="Myrstugu" />
		<tag k="place" v="farm" />
		<tag k="ssr:stedsnr" v="675403" />
	</node>
	<node lat="60.867033334362276" lon="10.001208341621663" id="-23864">
		<tag k="alt_name" v="Kampedokken" />
		<tag k="name" v="Kampedokka" />
		<tag k="place" v="farm" />
		<tag k="ssr:stedsnr" v="675445" />
	</node>
	<node lat="61.033002777597346" lon="9.778838883009998" id="-23865">
		<tag k="alt_name" v="Munkhatten, gamle" />
		<tag k="historic" v="shieling" />
		<tag k="name" v="Gamle Munkhatten" />
		<tag k="place" v="isolated_dwelling" />
		<tag k="ssr:stedsnr" v="675355" />
	</node>
	<node lat="61.0734999961332" lon="9.732077776334865" id="-23866">
		<tag k="name" v="Goddalen" />
		<tag k="natural" v="valley" />
		<tag k="place" v="locality" />
		<tag k="ssr:stedsnr" v="675645" />
	</node>
	<node lat="61.06341944065981" lon="9.921008335817506" id="-23867">
		<tag k="historic" v="shieling" />
		<tag k="name" v="Rognstadsætra" />
		<tag k="place" v="isolated_dwelling" />
		<tag k="ssr:stedsnr" v="675655" />
	</node>
	<node lat="61.16235353382042" lon="9.819010046365142" id="-23868">
		<tag k="name" v="Oppsjøen" />
		<tag k="natural" v="water" />
		<tag k="ssr:stedsnr" v="675751" />
		<tag k="water" v="lake" />
	</node>
	<node lat="60.85303727142658" lon="9.927422222290156" id="-23869">
		<tag k="alt_name" v="Juve" />
		<tag k="fixme" v="consider place=hamlet" />
		<tag k="name" v="Gjuve" />
		<tag k="place" v="farm" />
		<tag k="ssr:stedsnr" v="676003" />
	</node>
	<node lat="60.856019448396786" lon="9.830636117482264" id="-23870">
		<tag k="alt_name" v="Stuve, øvre;Stuve" />
		<tag k="name" v="Øvre Stuve" />
		<tag k="place" v="farm" />
		<tag k="ssr:stedsnr" v="676005" />
	</node>
	<node lat="60.86650000054447" lon="9.927313883069981" id="-23871">
		<tag k="alt_name" v="Skattumflattjern" />
		<tag k="name" v="Skattumflattjernet" />
		<tag k="natural" v="water" />
		<tag k="ssr:stedsnr" v="676012" />
	</node>
	<node lat="60.86675833075817" lon="9.940988880338532" id="-23872">
		<tag k="alt_name" v="Bronerbekken" />
		<tag k="name" v="Brunbekken" />
		<tag k="ssr:stedsnr" v="676015" />
		<tag k="waterway" v="stream" />
	</node>
	<node lat="60.869980554234694" lon="9.859516662020946" id="-23873">
		<tag k="name" v="Leppdalen" />
		<tag k="natural" v="valley" />
		<tag k="place" v="locality" />
		<tag k="ssr:stedsnr" v="676016" />
	</node>
	<node lat="60.81932777643693" lon="9.898477781966369" id="-23874">
		<tag k="name" v="Nysvellibekken" />
		<tag k="ssr:stedsnr" v="676212" />
		<tag k="waterway" v="stream" />
	</node>
	<node lat="60.86261666309654" lon="9.927588891037937" id="-23875">
		<tag k="alt_name" v="Stormyra" />
		<tag k="name" v="Storemyra" />
		<tag k="natural" v="wetland" />
		<tag k="ssr:stedsnr" v="676001" />
	</node>
	<node lat="60.87919444690964" lon="9.856105552720557" id="-23876">
		<tag k="alt_name" v="Felerud" />
		<tag k="name" v="Fellerud" />
		<tag k="place" v="farm" />
		<tag k="ssr:stedsnr" v="676104" />
	</node>
	<node lat="60.93264166876311" lon="10.176586118712738" id="-23877">
		<tag k="fixme" v="multiple name tags, choose one and add the other to alt_name" />
		<tag k="name" v="Kvernsvea;Harildstad" />
		<tag k="place" v="farm" />
		<tag k="ssr:stedsnr" v="676304" />
	</node>
	<node lat="60.93981944295791" lon="10.151141664236832" id="-23878">
		<tag k="alt_name" v="Bakken, s;Nordre Bakken;Søndre Bakken" />
		<tag k="name" v="Søre Bakken" />
		<tag k="place" v="farm" />
		<tag k="ssr:stedsnr" v="676306" />
	</node>
	<node lat="60.819466668001795" lon="10.197680554725528" id="-23879">
		<tag k="name" v="Veslehomdalen" />
		<tag k="natural" v="valley" />
		<tag k="place" v="locality" />
		<tag k="ssr:stedsnr" v="891401" />
	</node>
	<node lat="60.88670833375664" lon="10.090838885611472" id="-23880">
		<tag k="alt_name" v="Trysilsætra" />
		<tag k="historic" v="shieling" />
		<tag k="name" v="Trysil" />
		<tag k="place" v="isolated_dwelling" />
		<tag k="ssr:stedsnr" v="676407" />
	</node>
	<node lat="60.90058889013642" lon="9.99998611768401" id="-23881">
		<tag k="name" v="Dumlia" />
		<tag k="natural" v="slope" />
		<tag k="place" v="locality" />
		<tag k="ssr:stedsnr" v="676486" />
	</node>
	<node lat="60.90110555975118" lon="10.130519440208001" id="-23882">
		<tag k="name" v="Maripullen" />
		<tag k="natural" v="water" />
		<tag k="ssr:stedsnr" v="676492" />
	</node>
	<node lat="60.89467777803627" lon="10.187961103687327" id="-23883">
		<tag k="alt_name" v="Stensengsætra" />
		<tag k="historic" v="shieling" />
		<tag k="name" v="Steinsengsætra" />
		<tag k="place" v="isolated_dwelling" />
		<tag k="ssr:stedsnr" v="676388" />
	</node>
	<node lat="60.839094446056826" lon="10.100566667476995" id="-23884">
		<tag k="name" v="Kolbu" />
		<tag k="place" v="farm" />
		<tag k="ssr:stedsnr" v="676504" />
	</node>
	<node lat="60.840447219402606" lon="10.208577772571267" id="-23885">
		<tag k="alt_name" v="Komperudhaugen;Haugen" />
		<tag k="name" v="Kumperudhaugen" />
		<tag k="old_name" v="Komperudshaugen" />
		<tag k="place" v="farm" />
		<tag k="ssr:stedsnr" v="676512" />
	</node>
	<node lat="60.96500833048927" lon="9.906725002489415" id="-23886">
		<tag k="alt_name" v="Hyrningstjern" />
		<tag k="name" v="Hyrningtjernet" />
		<tag k="natural" v="water" />
		<tag k="ssr:stedsnr" v="676946" />
	</node>
	<node lat="60.85994999697971" lon="10.191652775734921" id="-23887">
		<tag k="name" v="Solbjørg" />
		<tag k="place" v="farm" />
		<tag k="ssr:stedsnr" v="677520" />
	</node>
	<node lat="60.86119722346224" lon="10.00603332449835" id="-23888">
		<tag k="fixme" v="consider place=hamlet" />
		<tag k="name" v="Loengbygda" />
		<tag k="place" v="village" />
		<tag k="ssr:stedsnr" v="677533" />
	</node>
	<node lat="60.7759305582226" lon="10.091636104771299" id="-23889">
		<tag k="name" v="Avellhaugmyra" />
		<tag k="natural" v="wetland" />
		<tag k="ssr:stedsnr" v="677638" />
	</node>
	<node lat="60.775319447155034" lon="9.980813891518292" id="-23890">
		<tag k="alt_name" v="Krokevjua" />
		<tag k="name" v="Krokevjebekken" />
		<tag k="ssr:stedsnr" v="677641" />
		<tag k="waterway" v="stream" />
	</node>
	<node lat="60.75506111473249" lon="10.00058055223713" id="-23891">
		<tag k="alt_name" v="Flesvatn" />
		<tag k="name" v="Flesvatnet" />
		<tag k="natural" v="water" />
		<tag k="ssr:stedsnr" v="677736" />
	</node>
	<node lat="60.99321388477172" lon="9.890999999302489" id="-23892">
		<tag k="fixme" v="consider natural=peak for the most distinct mountains in the district" />
		<tag k="name" v="Slotthaugen" />
		<tag k="natural" v="hill" />
		<tag k="place" v="locality" />
		<tag k="ssr:stedsnr" v="677784" />
	</node>
	<node lat="60.958874999388584" lon="9.95048610590028" id="-23893">
		<tag k="alt_name" v="Ruudsætra" />
		<tag k="historic" v="shieling" />
		<tag k="name" v="Rudsætra" />
		<tag k="place" v="isolated_dwelling" />
		<tag k="ssr:stedsnr" v="677922" />
	</node>
	<node lat="60.82913888789462" lon="10.065474993795505" id="-23894">
		<tag k="bridge" v="yes" />
		<tag k="layer" v="1" />
		<tag k="name" v="Døhlsveita" />
		<tag k="ssr:stedsnr" v="896184" />
	</node>
	<node lat="60.974130554507845" lon="10.109277773417162" id="-23895">
		<tag k="bridge" v="yes" />
		<tag k="layer" v="1" />
		<tag k="name" v="Vinjarelv" />
		<tag k="ssr:stedsnr" v="714105" />
	</node>
	<node lat="60.90772777480117" lon="10.204708327119873" id="-23896">
		<tag k="name" v="Gulsetvatnet" />
		<tag k="natural" v="water" />
		<tag k="ssr:stedsnr" v="724113" />
	</node>
	<node lat="61.004975002037206" lon="9.909736114640868" id="-23898">
		<tag k="name" v="Livassdammen" />
		<tag k="ssr:stedsnr" v="724214" />
		<tag k="waterway" v="dam" />
	</node>
	<node lat="60.812274998956404" lon="9.871963887654266" id="-23900">
		<tag k="name" v="Håkenstadbekken" />
		<tag k="ssr:stedsnr" v="725217" />
		<tag k="waterway" v="stream" />
	</node>
	<node lat="60.81861388519415" lon="10.113780562171844" id="-23903">
		<tag k="name" v="Midtre Aurlund" />
		<tag k="place" v="farm" />
		<tag k="ssr:stedsnr" v="726824" />
	</node>
	<node lat="60.820519441798076" lon="10.109049994223605" id="-23904">
		<tag k="name" v="Ekra" />
		<tag k="place" v="isolated_dwelling" />
		<tag k="ssr:stedsnr" v="726826" />
	</node>
	<node lat="60.86059444387965" lon="10.142249994383914" id="-23905">
		<tag k="alt_name" v="Søndre Midtvatn" />
		<tag k="name" v="Søre Midtvatn" />
		<tag k="natural" v="water" />
		<tag k="ssr:stedsnr" v="734082" />
	</node>
	<node lat="61.03422222448968" lon="10.129016664791262" id="-23906">
		<tag k="alt_name" v="Krokvassfjell" />
		<tag k="fixme" v="consider natural=peak for the most distinct mountains in the district" />
		<tag k="name" v="Krokvassfjellet" />
		<tag k="natural" v="hill" />
		<tag k="place" v="locality" />
		<tag k="ssr:stedsnr" v="735204" />
	</node>
	<node lat="61.02414444546049" lon="10.09440555741486" id="-23907">
		<tag k="name" v="Sveum" />
		<tag k="place" v="farm" />
		<tag k="ssr:stedsnr" v="735210" />
	</node>
	<node lat="61.02073888995408" lon="10.106038882645379" id="-23908">
		<tag k="alt_name" v="Haugvolden" />
		<tag k="name" v="Haugvollen" />
		<tag k="place" v="farm" />
		<tag k="ssr:stedsnr" v="735226" />
	</node>
	<node lat="61.07742971670746" lon="9.789672474128528" id="-23909">
		<tag k="name" v="Synnfjell" />
		<tag k="natural" v="mountain_range" />
		<tag k="ssr:stedsnr" v="735675" />
	</node>
	<node lat="60.749038891898" lon="9.870230553174832" id="-23910">
		<tag k="alt_name" v="Svartvatnet, l;Vesle Svartvatn" />
		<tag k="name" v="Vesle Svartvatnet" />
		<tag k="natural" v="water" />
		<tag k="ssr:stedsnr" v="735792" />
	</node>
	<node lat="61.08808333649493" lon="10.030547224804591" id="-23911">
		<tag k="alt_name" v="Laulielva" />
		<tag k="name" v="Fiska" />
		<tag k="ssr:stedsnr" v="736005" />
		<tag k="waterway" v="river" />
	</node>
	<node lat="60.88398889137641" lon="9.86190833911503" id="-23912">
		<tag k="name" v="Øverlier" />
		<tag k="place" v="farm" />
		<tag k="ssr:stedsnr" v="736114" />
	</node>
	<node lat="60.86930833039448" lon="10.234227776501758" id="-23913">
		<tag k="alt_name" v="Komperudelva" />
		<tag k="name" v="Kumperudelva" />
		<tag k="ssr:stedsnr" v="736409" />
		<tag k="waterway" v="river" />
	</node>
	<node lat="60.87316667032077" lon="10.198672217598642" id="-23914">
		<tag k="name" v="Bratten" />
		<tag k="natural" v="water" />
		<tag k="ssr:stedsnr" v="736412" />
	</node>
	<node lat="61.07331388480788" lon="9.922424992234397" id="-23915">
		<tag k="historic" v="shieling" />
		<tag k="name" v="Øystadsætra" />
		<tag k="place" v="isolated_dwelling" />
		<tag k="ssr:stedsnr" v="736619" />
	</node>
</osm>
