<?xml version="1.0" encoding="UTF-8"?>
<osm version="0.6" generator="osmapis">
	<node lat="60.936413889898034" lon="10.035366674788197" id="-22916">
		<tag k="amenity" v="place_of_worship" />
		<tag k="fixme" v="specify religion=*, denomination=*, building=* etc" />
		<tag k="name" v="Vest-Torpa bedehus" />
		<tag k="ssr:stedsnr" v="240626" />
	</node>
	<node lat="60.93162222056788" lon="10.043144451988242" id="-23028">
		<tag k="amenity" v="place_of_worship" />
		<tag k="denomination" v="lutheran" />
		<tag k="name" v="Lunde kirke" />
		<tag k="religion" v="christian" />
		<tag k="ssr:stedsnr" v="251460" />
	</node>
	<node lat="60.84573889223248" lon="10.18419166768744" id="-23085">
		<tag k="amenity" v="place_of_worship" />
		<tag k="denomination" v="lutheran" />
		<tag k="name" v="Vølstad kirke" />
		<tag k="old_name" v="Vølstad kapell" />
		<tag k="religion" v="christian" />
		<tag k="ssr:stedsnr" v="130486" />
	</node>
	<node lat="60.84647222004586" lon="9.77998610490878" id="-23112">
		<tag k="loc_name" v="Bjørnaskardvasshytta" />
		<tag k="name" v="Bjødnaskarvasshytta" />
		<tag k="place" v="locality" />
		<tag k="ssr:stedsnr" v="176573" />
	</node>
	<node lat="60.81534721781122" lon="9.946005550987573" id="-23178">
		<tag k="cemetery" v="grave" />
		<tag k="name" v="Åsli" />
		<tag k="place" v="locality" />
		<tag k="ssr:stedsnr" v="240203" />
	</node>
	<node lat="61.026583337571566" lon="9.875969451009421" id="-23211">
		<tag k="amenity" v="community_centre" />
		<tag k="name" v="Dal" />
		<tag k="ssr:stedsnr" v="464929" />
	</node>
</osm>
