<?xml version="1.0" encoding="UTF-8"?>
<osm version="0.6" generator="osmapis">
	<node lat="61.00861666737934" lon="9.78884444480009" id="-22995">
		<tag k="name" v="Kyrtjernet" />
		<tag k="natural" v="water" />
		<tag k="ssr:stedsnr" v="7361" />
	</node>
	<node lat="61.092266670622635" lon="9.825305559388221" id="-22998">
		<tag k="name" v="Bjerttjernet" />
		<tag k="natural" v="water" />
		<tag k="ssr:stedsnr" v="7654" />
	</node>
	<node lat="60.91287222630873" lon="9.960105561916926" id="-23002">
		<tag k="alt_name" v="Nyvatnet, l;Nyvatn" />
		<tag k="name" v="Vesle Nyvatnet" />
		<tag k="natural" v="water" />
		<tag k="ssr:stedsnr" v="8095" />
	</node>
	<node lat="61.03644166402271" lon="9.851005546772713" id="-23004">
		<tag k="name" v="Svartbekken" />
		<tag k="ssr:stedsnr" v="8355" />
		<tag k="waterway" v="stream" />
	</node>
	<node lat="61.14451944233831" lon="9.750638884745706" id="-23006">
		<tag k="alt_name" v="Tobekktjern" />
		<tag k="name" v="Tobekktjernet" />
		<tag k="natural" v="water" />
		<tag k="ssr:stedsnr" v="8779" />
	</node>
	<node lat="60.811902778177824" lon="9.909816660145907" id="-23008">
		<tag k="alt_name" v="Gørrtjern" />
		<tag k="name" v="Gorrtjernet" />
		<tag k="natural" v="water" />
		<tag k="ssr:stedsnr" v="9205" />
	</node>
	<node lat="60.772574998603076" lon="9.847311110495706" id="-23011">
		<tag k="alt_name" v="Bjørkelivatnet, øvre" />
		<tag k="name" v="Øvre Bjørkelivatnet" />
		<tag k="natural" v="water" />
		<tag k="ssr:stedsnr" v="9145" />
	</node>
	<node lat="60.97007500193423" lon="10.185874999429494" id="-23014">
		<tag k="name" v="Bjørnmyrpullen" />
		<tag k="natural" v="water" />
		<tag k="ssr:stedsnr" v="9336" />
	</node>
	<node lat="60.838391663489006" lon="10.12784445052329" id="-23020">
		<tag k="alt_name" v="Engetjern" />
		<tag k="name" v="Engetjernet" />
		<tag k="natural" v="water" />
		<tag k="ssr:stedsnr" v="9508" />
	</node>
	<node lat="60.83435000321796" lon="10.190744443887743" id="-23021">
		<tag k="alt_name" v="Oksetjern" />
		<tag k="name" v="Uksetjernet" />
		<tag k="natural" v="water" />
		<tag k="ssr:stedsnr" v="9511" />
	</node>
	<node lat="60.95878888749108" lon="9.850744436099447" id="-23025">
		<tag k="alt_name" v="Skjefta" />
		<tag k="name" v="Skofta" />
		<tag k="natural" v="water" />
		<tag k="ssr:stedsnr" v="9893" />
	</node>
	<node lat="60.975480556333494" lon="9.95389999837979" id="-23029">
		<tag k="alt_name" v="Nørstvatn" />
		<tag k="name" v="Nørdstvatn" />
		<tag k="natural" v="water" />
		<tag k="ssr:stedsnr" v="9936" />
	</node>
	<node lat="60.95787500142623" lon="9.791372230878048" id="-23039">
		<tag k="name" v="Svartevassdammen" />
		<tag k="ssr:stedsnr" v="236918" />
		<tag k="waterway" v="dam" />
	</node>
	<node lat="60.984613892266275" lon="9.838461115466796" id="-23040">
		<tag k="name" v="Breibekken" />
		<tag k="ssr:stedsnr" v="39515" />
		<tag k="waterway" v="stream" />
	</node>
	<node lat="61.024816662407346" lon="10.043852774946593" id="-23046">
		<tag k="name" v="Djupbekken" />
		<tag k="ssr:stedsnr" v="238060" />
		<tag k="waterway" v="stream" />
	</node>
	<node lat="60.95799444481923" lon="10.0133555514162" id="-23047">
		<tag k="name" v="Løken" />
		<tag k="ssr:stedsnr" v="238247" />
		<tag k="waterway" v="stream" />
	</node>
	<node lat="60.99208055258617" lon="9.95145834223893" id="-23050">
		<tag k="name" v="Gjerdåmot" />
		<tag k="natural" v="cape" />
		<tag k="ssr:stedsnr" v="238741" />
	</node>
	<node lat="60.836699995677726" lon="10.214894446345141" id="-23053">
		<tag k="name" v="Skinnerudelva" />
		<tag k="ssr:stedsnr" v="239000" />
		<tag k="waterway" v="river" />
	</node>
	<node lat="61.112180972264" lon="9.748052311533316" id="-23056">
		<tag k="name" v="Nedre Lenningsvatnet" />
		<tag k="natural" v="water" />
		<tag k="old_name" v="Lenningsv, ned" />
		<tag k="ssr:stedsnr" v="239215" />
		<tag k="water" v="lake" />
	</node>
	<node lat="61.10908888472273" lon="9.728763883844845" id="-23057">
		<tag k="name" v="Øvre Lenningsvatnet" />
		<tag k="natural" v="water" />
		<tag k="old_name" v="Lenningsv, øv" />
		<tag k="ssr:stedsnr" v="239216" />
		<tag k="water" v="lake" />
	</node>
	<node lat="61.00047500421369" lon="10.175822218349152" id="-23063">
		<tag k="name" v="Steinpullen" />
		<tag k="natural" v="water" />
		<tag k="ssr:stedsnr" v="55588" />
	</node>
	<node lat="60.792936113352596" lon="9.958497228667529" id="-23064">
		<tag k="name" v="Nordre Skjelnetjern" />
		<tag k="natural" v="water" />
		<tag k="ssr:stedsnr" v="56503" />
	</node>
	<node lat="60.90916389031968" lon="10.11601665931273" id="-23072">
		<tag k="name" v="Etarbekken" />
		<tag k="ssr:stedsnr" v="240140" />
		<tag k="waterway" v="stream" />
	</node>
	<node lat="60.80650000319839" lon="10.023616657646986" id="-23076">
		<tag k="name" v="Smaltjernsbekken" />
		<tag k="ssr:stedsnr" v="58212" />
		<tag k="waterway" v="stream" />
	</node>
	<node lat="61.1396194474287" lon="9.82782222245546" id="-23080">
		<tag k="name" v="Maribekken" />
		<tag k="ssr:stedsnr" v="58645" />
		<tag k="waterway" v="stream" />
	</node>
	<node lat="60.965327775657464" lon="10.087525006882862" id="-23081">
		<tag k="name" v="Røstebekken" />
		<tag k="ssr:stedsnr" v="58572" />
		<tag k="waterway" v="stream" />
	</node>
	<node lat="60.85247499712368" lon="9.872783341928475" id="-23084">
		<tag k="name" v="Leppa" />
		<tag k="ssr:stedsnr" v="58820" />
		<tag k="waterway" v="river" />
	</node>
	<node lat="60.87137221899953" lon="10.058233331964416" id="-23088">
		<tag k="name" v="Fjerdingsbekken" />
		<tag k="ssr:stedsnr" v="240464" />
		<tag k="waterway" v="stream" />
	</node>
	<node lat="61.11429166926252" lon="9.892777781035601" id="-23092">
		<tag k="name" v="Prestpullen" />
		<tag k="natural" v="water" />
		<tag k="ssr:stedsnr" v="240694" />
	</node>
	<node lat="60.95754722593393" lon="9.788983325100133" id="-23100">
		<tag k="name" v="Nedre Svartevatnet" />
		<tag k="natural" v="water" />
		<tag k="ssr:stedsnr" v="66901" />
	</node>
	<node lat="60.784477780637225" lon="9.95090000347287" id="-23106">
		<tag k="name" v="Meåa" />
		<tag k="natural" v="strait" />
		<tag k="ssr:stedsnr" v="69138" />
	</node>
	<node lat="60.874802778940996" lon="10.162613883930653" id="-23108">
		<tag k="name" v="Springbekken" />
		<tag k="ssr:stedsnr" v="69443" />
		<tag k="waterway" v="stream" />
	</node>
	<node lat="60.89048611009292" lon="9.972361105917303" id="-23111">
		<tag k="name" v="Måsåputten" />
		<tag k="place" v="locality" />
		<tag k="ssr:stedsnr" v="69393" />
	</node>
	<node lat="60.80897777462232" lon="9.982486109568697" id="-23124">
		<tag k="name" v="Svartputten" />
		<tag k="natural" v="water" />
		<tag k="ssr:stedsnr" v="70622" />
	</node>
	<node lat="60.95245555362479" lon="9.93247778188671" id="-23128">
		<tag k="name" v="Brandsrudelva" />
		<tag k="ssr:stedsnr" v="70914" />
		<tag k="waterway" v="stream" />
	</node>
	<node lat="60.974733335266926" lon="9.864861117132422" id="-23131">
		<tag k="name" v="Gjerda" />
		<tag k="ssr:stedsnr" v="70996" />
		<tag k="waterway" v="river" />
	</node>
	<node lat="60.245433336755056" lon="10.395469440791546" id="-23133">
		<tag k="name" v="Randsfjorden" />
		<tag k="natural" v="water" />
		<tag k="ssr:stedsnr" v="248364" />
		<tag k="water" v="lake" />
	</node>
	<node lat="61.00984166712227" lon="9.78049444055272" id="-23146">
		<tag k="alt_name" v="Vesle Rakaslyngen" />
		<tag k="name" v="Veslrakaslynga" />
		<tag k="natural" v="water" />
		<tag k="ssr:stedsnr" v="250363" />
	</node>
	<node lat="61.09089166435187" lon="9.91869167406833" id="-23154">
		<tag k="name" v="Krokhølen" />
		<tag k="place" v="locality" />
		<tag k="ssr:stedsnr" v="250669" />
	</node>
	<node lat="61.08481944537725" lon="9.805699997093715" id="-23157">
		<tag k="name" v="Bjerttjerna" />
		<tag k="natural" v="water" />
		<tag k="ssr:stedsnr" v="250685" />
		<tag k="water" v="lake" />
	</node>
	<node lat="60.84497221867682" lon="10.158697221177917" id="-23158">
		<tag k="name" v="Skinnerudselva" />
		<tag k="ssr:stedsnr" v="117104" />
		<tag k="waterway" v="stream" />
	</node>
	<node lat="61.125769445391725" lon="9.699855552776109" id="-23166">
		<tag k="name" v="Røssjørompa" />
		<tag k="natural" v="water" />
		<tag k="ssr:stedsnr" v="118877" />
	</node>
	<node lat="60.74442499723409" lon="10.0238583307868" id="-23170">
		<tag k="name" v="Hovdedammen" />
		<tag k="place" v="locality" />
		<tag k="ssr:stedsnr" v="119324" />
	</node>
	<node lat="60.91094072046382" lon="9.942230359819865" id="-23175">
		<tag k="alt_name" v="Åbortjernet, store;Søndre Abborvatn" />
		<tag k="name" v="Store Åbortjernet" />
		<tag k="natural" v="water" />
		<tag k="ssr:stedsnr" v="251089" />
	</node>
	<node lat="60.85815929018394" lon="9.960771333650136" id="-23178">
		<tag k="fixme" v="multiple name tags, choose one and add the other to alt_name" />
		<tag k="name" v="Brundammen;Rønningsdammen" />
		<tag k="natural" v="water" />
		<tag k="ssr:stedsnr" v="251065" />
	</node>
	<node lat="60.9019361087394" lon="9.797116661004257" id="-23179">
		<tag k="alt_name" v="Leppsjøen, nedre" />
		<tag k="name" v="Nedre Leppsjøen" />
		<tag k="natural" v="water" />
		<tag k="ssr:stedsnr" v="251081" />
	</node>
	<node lat="60.88655277621881" lon="9.882480550530296" id="-23181">
		<tag k="name" v="Flisa" />
		<tag k="ssr:stedsnr" v="251127" />
		<tag k="waterway" v="stream" />
	</node>
	<node lat="60.897988890546834" lon="9.853472223706207" id="-23182">
		<tag k="name" v="Flågamyrtjernet" />
		<tag k="natural" v="water" />
		<tag k="ssr:stedsnr" v="251132" />
	</node>
	<node lat="60.77679721970799" lon="9.852583327924668" id="-23183">
		<tag k="alt_name" v="Langvatn" />
		<tag k="name" v="Langvatnet" />
		<tag k="natural" v="water" />
		<tag k="ssr:stedsnr" v="251150" />
	</node>
	<node lat="60.902563890548045" lon="10.200752785173714" id="-23200">
		<tag k="name" v="Svartbekken" />
		<tag k="ssr:stedsnr" v="251521" />
		<tag k="waterway" v="stream" />
	</node>
	<node lat="60.75765633803867" lon="9.86524715256105" id="-23208">
		<tag k="alt_name" v="Nordre Tverrvatn" />
		<tag k="name" v="Tverrvatnet" />
		<tag k="natural" v="water" />
		<tag k="ssr:stedsnr" v="252144" />
		<tag k="water" v="lake" />
	</node>
	<node lat="60.753280559335835" lon="9.884727771149372" id="-23210">
		<tag k="alt_name" v="Nyvatn" />
		<tag k="name" v="Nyvatnet" />
		<tag k="natural" v="water" />
		<tag k="ssr:stedsnr" v="252125" />
	</node>
	<node lat="60.987138885549975" lon="10.132224997309825" id="-23216">
		<tag k="name" v="Vinjarelva" />
		<tag k="ssr:stedsnr" v="252296" />
		<tag k="waterway" v="stream" />
	</node>
	<node lat="61.00986666358691" lon="10.174763890769887" id="-23220">
		<tag k="name" v="Finnsjøen" />
		<tag k="natural" v="water" />
		<tag k="ssr:stedsnr" v="128195" />
	</node>
	<node lat="61.012661111877264" lon="10.160975004362653" id="-23221">
		<tag k="name" v="Medvatnet" />
		<tag k="natural" v="water" />
		<tag k="ssr:stedsnr" v="128196" />
	</node>
	<node lat="61.030275001192784" lon="9.897352781119183" id="-23223">
		<tag k="alt_name" v="Karustjernet" />
		<tag k="name" v="Nedre Karusstjernet" />
		<tag k="natural" v="water" />
		<tag k="ssr:stedsnr" v="128291" />
	</node>
	<node lat="61.094763888854764" lon="9.71611944063675" id="-23224">
		<tag k="name" v="Regla" />
		<tag k="natural" v="water" />
		<tag k="ssr:stedsnr" v="128655" />
	</node>
	<node lat="60.87489162588659" lon="9.797153858982984" id="-23225">
		<tag k="fixme" v="multiple name tags, choose one and add the other to alt_name" />
		<tag k="name" v="Øvre Skilnadputten;Øvre Skjelnetjern" />
		<tag k="natural" v="water" />
		<tag k="ssr:stedsnr" v="129115" />
	</node>
	<node lat="60.87451666804625" lon="10.01285555247344" id="-23228">
		<tag k="name" v="Vangsjøbekken" />
		<tag k="ssr:stedsnr" v="129406" />
		<tag k="waterway" v="stream" />
	</node>
	<node lat="61.120063885706244" lon="9.787238897780707" id="-23236">
		<tag k="name" v="Lenna" />
		<tag k="old_name" v="Leina;Lænna" />
		<tag k="ssr:stedsnr" v="129711" />
		<tag k="waterway" v="river" />
	</node>
	<node lat="60.78760000308025" lon="9.832444451216393" id="-23244">
		<tag k="alt_name" v="Styggøyvatn" />
		<tag k="name" v="Styggøyvatnet" />
		<tag k="natural" v="water" />
		<tag k="ssr:stedsnr" v="130128" />
	</node>
	<node lat="60.868897222338795" lon="9.912372214826286" id="-23248">
		<tag k="name" v="Lisettjernet" />
		<tag k="natural" v="water" />
		<tag k="ssr:stedsnr" v="130015" />
	</node>
	<node lat="60.81750000245781" lon="10.162463886768661" id="-23249">
		<tag k="alt_name" v="Bergevatn" />
		<tag k="name" v="Bergevatnet" />
		<tag k="natural" v="water" />
		<tag k="ssr:stedsnr" v="252536" />
	</node>
	<node lat="60.8337839720425" lon="9.748522268945935" id="-23250">
		<tag k="name" v="Etna" />
		<tag k="ssr:stedsnr" v="130312" />
		<tag k="waterway" v="river" />
	</node>
	<node lat="60.84778332984135" lon="10.122961114439764" id="-23260">
		<tag k="name" v="Tvillingputtane" />
		<tag k="natural" v="water" />
		<tag k="ssr:stedsnr" v="130490" />
	</node>
	<node lat="60.78507499631813" lon="10.039938884805066" id="-23262">
		<tag k="alt_name" v="Svartvatnet, nedre;Nedre Svartvatn" />
		<tag k="name" v="Nedre Svartvatnet" />
		<tag k="natural" v="water" />
		<tag k="ssr:stedsnr" v="130626" />
		<tag k="water" v="lake" />
	</node>
	<node lat="60.92452777441206" lon="9.882722223348496" id="-23265">
		<tag k="alt_name" v="Buvatn" />
		<tag k="name" v="Buvatnet" />
		<tag k="natural" v="water" />
		<tag k="ssr:stedsnr" v="130883" />
	</node>
	<node lat="60.79438610998303" lon="9.986319442279326" id="-23267">
		<tag k="alt_name" v="Rundtjern" />
		<tag k="name" v="Rundtjernet" />
		<tag k="natural" v="water" />
		<tag k="ssr:stedsnr" v="252644" />
	</node>
	<node lat="60.809036106632" lon="10.015719447275673" id="-23268">
		<tag k="alt_name" v="Sverdslitjern" />
		<tag k="name" v="Sverslitjernet" />
		<tag k="natural" v="water" />
		<tag k="ssr:stedsnr" v="131577" />
	</node>
	<node lat="60.76143055746532" lon="10.022802778262236" id="-23271">
		<tag k="alt_name" v="Nordre Høghaugpullen" />
		<tag k="name" v="Høghaugpullen" />
		<tag k="natural" v="water" />
		<tag k="ssr:stedsnr" v="252711" />
	</node>
	<node lat="60.996947221037175" lon="9.937180562211523" id="-23273">
		<tag k="name" v="Livasselva" />
		<tag k="ssr:stedsnr" v="252749" />
		<tag k="waterway" v="river" />
	</node>
	<node lat="60.96084721808001" lon="9.9086333379488" id="-23275">
		<tag k="name" v="Venhaugpullen" />
		<tag k="natural" v="water" />
		<tag k="ssr:stedsnr" v="252893" />
	</node>
	<node lat="60.95566944104459" lon="9.891433330901936" id="-23276">
		<tag k="name" v="Holovatnet" />
		<tag k="natural" v="water" />
		<tag k="ssr:stedsnr" v="252894" />
	</node>
	<node lat="60.98010555764322" lon="9.89521666367634" id="-23278">
		<tag k="name" v="Gjerddalstjernet" />
		<tag k="natural" v="water" />
		<tag k="ssr:stedsnr" v="252987" />
	</node>
	<node lat="60.87800000374702" lon="10.176969437083779" id="-23281">
		<tag k="name" v="Mårsjøbekken" />
		<tag k="ssr:stedsnr" v="176212" />
		<tag k="waterway" v="stream" />
	</node>
	<node lat="60.88801944779538" lon="10.024788882104502" id="-23288">
		<tag k="name" v="Skolmåa" />
		<tag k="ssr:stedsnr" v="178002" />
		<tag k="waterway" v="stream" />
	</node>
	<node lat="60.73640833273484" lon="10.029691674211595" id="-23298">
		<tag k="alt_name" v="Søndre Hovdevatn" />
		<tag k="loc_name" v="Søre Hovdevatnet" />
		<tag k="name" v="Søre Hovdevatn" />
		<tag k="natural" v="water" />
		<tag k="ssr:stedsnr" v="179316" />
	</node>
	<node lat="61.103536109602224" lon="9.90876110601355" id="-23299">
		<tag k="name" v="Synndammen" />
		<tag k="place" v="locality" />
		<tag k="ssr:stedsnr" v="179655" />
	</node>
	<node lat="60.85791944447464" lon="9.886019437013116" id="-23307">
		<tag k="alt_name" v="Trolltjern" />
		<tag k="name" v="Trolltjernet" />
		<tag k="natural" v="water" />
		<tag k="ssr:stedsnr" v="191003" />
	</node>
	<node lat="60.85852499560694" lon="9.790105555900944" id="-23309">
		<tag k="alt_name" v="Kjøotjednet" />
		<tag k="name" v="Kjøetjernet" />
		<tag k="natural" v="water" />
		<tag k="ssr:stedsnr" v="191007" />
	</node>
	<node lat="60.912777774583006" lon="10.198736118410931" id="-23318">
		<tag k="name" v="Hovdeputten" />
		<tag k="natural" v="water" />
		<tag k="ssr:stedsnr" v="191459" />
	</node>
	<node lat="60.899224995673016" lon="10.098491675453293" id="-23320">
		<tag k="name" v="Skogpullen" />
		<tag k="natural" v="water" />
		<tag k="ssr:stedsnr" v="191468" />
	</node>
	<node lat="60.9903555573072" lon="9.779574994585769" id="-23328">
		<tag k="name" v="Kløvsteinbekken" />
		<tag k="ssr:stedsnr" v="191725" />
		<tag k="waterway" v="stream" />
	</node>
	<node lat="60.73858333199371" lon="9.835741663221773" id="-23334">
		<tag k="name" v="Korsika" />
		<tag k="place" v="islet" />
		<tag k="ssr:stedsnr" v="221523" />
	</node>
	<node lat="60.979813887815276" lon="10.16358332873252" id="-23338">
		<tag k="name" v="Raumyrpullen" />
		<tag k="natural" v="water" />
		<tag k="ssr:stedsnr" v="236108" />
	</node>
	<node lat="61.04340833342308" lon="9.765341658499539" id="-23339">
		<tag k="name" v="Lundbekken" />
		<tag k="ssr:stedsnr" v="236880" />
		<tag k="waterway" v="stream" />
	</node>
	<node lat="61.105205555133885" lon="9.90780832926561" id="-23341">
		<tag k="name" v="Synna" />
		<tag k="ssr:stedsnr" v="238081" />
		<tag k="waterway" v="river" />
	</node>
	<node lat="60.79625277700864" lon="9.992824997736609" id="-23342">
		<tag k="name" v="Lustjern" />
		<tag k="natural" v="water" />
		<tag k="ssr:stedsnr" v="238436" />
	</node>
	<node lat="60.983499996033515" lon="10.0399111053002" id="-23343">
		<tag k="name" v="Uksebekken" />
		<tag k="ssr:stedsnr" v="238502" />
		<tag k="waterway" v="stream" />
	</node>
	<node lat="61.10855555317062" lon="9.771627783455745" id="-23356">
		<tag k="name" v="Hasabekken" />
		<tag k="ssr:stedsnr" v="240280" />
		<tag k="waterway" v="stream" />
	</node>
	<node lat="60.73841388623364" lon="10.030194453280698" id="-23360">
		<tag k="loc_name" v="Nordre Hovdevatnet" />
		<tag k="name" v="Nordre Hovdevatn" />
		<tag k="natural" v="water" />
		<tag k="ssr:stedsnr" v="240337" />
	</node>
	<node lat="60.97306944461469" lon="9.95933332945751" id="-23363">
		<tag k="name" v="Medvatnet" />
		<tag k="natural" v="water" />
		<tag k="ssr:stedsnr" v="252923" />
	</node>
	<node lat="61.11857949450442" lon="9.741772302030096" id="-23365">
		<tag k="name" v="Ongletjerna" />
		<tag k="natural" v="water" />
		<tag k="ssr:stedsnr" v="267825" />
		<tag k="water" v="lake" />
	</node>
	<node lat="60.79011110707853" lon="10.070908332256938" id="-23366">
		<tag k="name" v="Hansketjern" />
		<tag k="natural" v="water" />
		<tag k="ssr:stedsnr" v="282625" />
	</node>
	<node lat="61.033680558229065" lon="9.894452770426492" id="-23372">
		<tag k="name" v="Øvre Karusstjern" />
		<tag k="natural" v="water" />
		<tag k="ssr:stedsnr" v="299632" />
	</node>
	<node lat="60.87868055110713" lon="9.948672228128396" id="-23373">
		<tag k="alt_name" v="Søndre Øyvatn" />
		<tag k="name" v="Søre Øyvatn" />
		<tag k="natural" v="water" />
		<tag k="ssr:stedsnr" v="299904" />
	</node>
	<node lat="60.77068611522529" lon="9.837827777047327" id="-23384">
		<tag k="name" v="Blautmyrputten" />
		<tag k="natural" v="water" />
		<tag k="ssr:stedsnr" v="464495" />
	</node>
	<node lat="60.88715277877696" lon="9.930202775358534" id="-23396">
		<tag k="name" v="Rokotoa" />
		<tag k="natural" v="water" />
		<tag k="ssr:stedsnr" v="311129" />
	</node>
	<node lat="61.10447777582154" lon="9.816219435157553" id="-23402">
		<tag k="name" v="Lønvatnet" />
		<tag k="natural" v="water" />
		<tag k="ssr:stedsnr" v="311706" />
	</node>
	<node lat="61.09282221803614" lon="9.764236111732801" id="-23403">
		<tag k="name" v="Hasabekken" />
		<tag k="ssr:stedsnr" v="311716" />
		<tag k="waterway" v="stream" />
	</node>
	<node lat="60.86540000278184" lon="9.988800001714791" id="-23404">
		<tag k="alt_name" v="Stensrudtjern" />
		<tag k="name" v="Steinsrudtjernet" />
		<tag k="natural" v="water" />
		<tag k="ssr:stedsnr" v="311477" />
	</node>
	<node lat="61.066644445949876" lon="9.818933333709534" id="-23405">
		<tag k="name" v="Høgkampvatnet" />
		<tag k="natural" v="water" />
		<tag k="ssr:stedsnr" v="311675" />
	</node>
	<node lat="60.929441665926475" lon="9.818741668601938" id="-23417">
		<tag k="alt_name" v="Livatnet, vesle;Vesle Livatn" />
		<tag k="name" v="Vesle Livatnet" />
		<tag k="natural" v="water" />
		<tag k="ssr:stedsnr" v="312870" />
	</node>
	<node lat="60.85828611373518" lon="10.226016658320546" id="-23419">
		<tag k="name" v="Brattelva" />
		<tag k="ssr:stedsnr" v="313524" />
		<tag k="waterway" v="stream" />
	</node>
	<node lat="60.94811667086409" lon="9.878738894499506" id="-23421">
		<tag k="alt_name" v="Killingtjern" />
		<tag k="name" v="Killingvatnet" />
		<tag k="natural" v="water" />
		<tag k="ssr:stedsnr" v="313941" />
	</node>
	<node lat="60.740083335292915" lon="9.842494451756433" id="-23424">
		<tag k="name" v="Øya" />
		<tag k="place" v="islet" />
		<tag k="ssr:stedsnr" v="342492" />
	</node>
	<node lat="60.79192777730631" lon="10.036322214110088" id="-23425">
		<tag k="alt_name" v="Søndre Hesttjern" />
		<tag k="name" v="Søre Hesttjern" />
		<tag k="natural" v="water" />
		<tag k="ssr:stedsnr" v="342613" />
	</node>
	<node lat="61.08592777880838" lon="9.978544446559638" id="-23432">
		<tag k="name" v="Dokkfløydammen" />
		<tag k="ssr:stedsnr" v="370051" />
		<tag k="waterway" v="dam" />
	</node>
	<node lat="60.99768333763656" lon="10.315538896253827" id="-23446">
		<tag k="name" v="Vismunda" />
		<tag k="ssr:stedsnr" v="373149" />
		<tag k="waterway" v="river" />
	</node>
	<node lat="60.79686110744996" lon="9.82866110505009" id="-23451">
		<tag k="alt_name" v="Krokvatn" />
		<tag k="name" v="Krokvatna" />
		<tag k="natural" v="water" />
		<tag k="ssr:stedsnr" v="373207" />
		<tag k="water" v="lake" />
	</node>
	<node lat="60.80037500091323" lon="9.846261107934243" id="-23452">
		<tag k="name" v="Kroksjøen" />
		<tag k="natural" v="water" />
		<tag k="ssr:stedsnr" v="373210" />
	</node>
	<node lat="60.88853818727709" lon="10.145537849820407" id="-23454">
		<tag k="fixme" v="multiple name tags, choose one and add the other to alt_name" />
		<tag k="name" v="Aursjøen;Bergsætervatnet" />
		<tag k="natural" v="water" />
		<tag k="ssr:stedsnr" v="373401" />
		<tag k="water" v="lake" />
	</node>
	<node lat="60.83366944579504" lon="10.133308342365757" id="-23455">
		<tag k="alt_name" v="Damtjern" />
		<tag k="name" v="Damtjernet" />
		<tag k="natural" v="water" />
		<tag k="ssr:stedsnr" v="373511" />
	</node>
	<node lat="60.861019443819906" lon="9.970841673044395" id="-23456">
		<tag k="alt_name" v="Fyritjern" />
		<tag k="name" v="Fyritjernet" />
		<tag k="natural" v="water" />
		<tag k="ssr:stedsnr" v="373563" />
	</node>
	<node lat="60.95948888786834" lon="9.842011102053357" id="-23459">
		<tag k="name" v="Røstepullen" />
		<tag k="natural" v="water" />
		<tag k="ssr:stedsnr" v="373909" />
	</node>
	<node lat="60.941675004302546" lon="9.837716672130414" id="-23460">
		<tag k="alt_name" v="Øyvatnet, nordre;Nordre Øyvatn" />
		<tag k="name" v="Nordre Øyvatnet" />
		<tag k="natural" v="water" />
		<tag k="ssr:stedsnr" v="373942" />
	</node>
	<node lat="60.99249444540396" lon="9.964097230437982" id="-23469">
		<tag k="name" v="Livasselva" />
		<tag k="ssr:stedsnr" v="481734" />
		<tag k="waterway" v="river" />
	</node>
	<node lat="60.76918611032844" lon="9.846544437220867" id="-23474">
		<tag k="name" v="Kringsjøen" />
		<tag k="natural" v="water" />
		<tag k="ssr:stedsnr" v="482266" />
	</node>
	<node lat="60.78373055605707" lon="9.888194450386209" id="-23475">
		<tag k="name" v="Lomholmen" />
		<tag k="place" v="islet" />
		<tag k="ssr:stedsnr" v="482286" />
	</node>
	<node lat="60.80650000182698" lon="9.999741671052421" id="-23483">
		<tag k="name" v="Vatntjern" />
		<tag k="natural" v="water" />
		<tag k="ssr:stedsnr" v="483382" />
	</node>
	<node lat="61.00863055496755" lon="9.79559444078724" id="-23491">
		<tag k="name" v="Kyrtjernputten" />
		<tag k="natural" v="water" />
		<tag k="ssr:stedsnr" v="403146" />
	</node>
	<node lat="60.73269722158415" lon="9.834263897563217" id="-23492">
		<tag k="name" v="Snakavika" />
		<tag k="natural" v="bay" />
		<tag k="ssr:stedsnr" v="403527" />
	</node>
	<node lat="61.031955554847464" lon="10.21522778699274" id="-23494">
		<tag k="name" v="Storlon" />
		<tag k="natural" v="water" />
		<tag k="ssr:stedsnr" v="404986" />
	</node>
	<node lat="60.89745833749356" lon="10.069308339088728" id="-23496">
		<tag k="name" v="Djupåa" />
		<tag k="ssr:stedsnr" v="421001" />
		<tag k="waterway" v="stream" />
	</node>
	<node lat="60.912741667881896" lon="10.061355552527" id="-23503">
		<tag k="name" v="Hestbekken" />
		<tag k="ssr:stedsnr" v="422915" />
		<tag k="waterway" v="stream" />
	</node>
	<node lat="60.94834722489716" lon="10.104263893438294" id="-23505">
		<tag k="name" v="Fellefossen" />
		<tag k="natural" v="waterfall" />
		<tag k="ssr:stedsnr" v="422948" />
	</node>
	<node lat="60.90480277674129" lon="9.792933327708207" id="-23512">
		<tag k="name" v="Leppa" />
		<tag k="ssr:stedsnr" v="433126" />
		<tag k="waterway" v="river" />
	</node>
	<node lat="60.82824999737611" lon="9.867158325187827" id="-23528">
		<tag k="name" v="Håkenstadbekken" />
		<tag k="ssr:stedsnr" v="434179" />
		<tag k="waterway" v="stream" />
	</node>
	<node lat="60.84388055932803" lon="10.125663897783822" id="-23531">
		<tag k="alt_name" v="Gygertjern" />
		<tag k="name" v="Gygertjernet" />
		<tag k="natural" v="water" />
		<tag k="ssr:stedsnr" v="434483" />
	</node>
	<node lat="60.815950004329494" lon="10.004702776735188" id="-23536">
		<tag k="alt_name" v="Bjørntjern" />
		<tag k="name" v="Bjørntjernet" />
		<tag k="natural" v="water" />
		<tag k="ssr:stedsnr" v="434570" />
	</node>
	<node lat="61.035675001682456" lon="10.150927771488181" id="-23539">
		<tag k="alt_name" v="Matpullen" />
		<tag k="name" v="Matputten" />
		<tag k="natural" v="water" />
		<tag k="ssr:stedsnr" v="492161" />
	</node>
	<node lat="60.93205833022121" lon="9.850975001222801" id="-23540">
		<tag k="name" v="Råka" />
		<tag k="natural" v="water" />
		<tag k="ssr:stedsnr" v="434869" />
		<tag k="water" v="lake" />
	</node>
	<node lat="60.930258329123525" lon="9.870350001948804" id="-23541">
		<tag k="name" v="Steinsjøen" />
		<tag k="natural" v="water" />
		<tag k="ssr:stedsnr" v="434872" />
	</node>
	<node lat="60.91480000391305" lon="9.889474995982294" id="-23542">
		<tag k="name" v="Øvre Øvergardstjern" />
		<tag k="natural" v="water" />
		<tag k="ssr:stedsnr" v="434886" />
	</node>
	<node lat="60.878263885460946" lon="10.091377784609861" id="-23545">
		<tag k="name" v="Øytjernet" />
		<tag k="natural" v="water" />
		<tag k="ssr:stedsnr" v="493397" />
	</node>
	<node lat="60.73812863360493" lon="10.025701043532502" id="-23546">
		<tag k="alt_name" v="Vestre Hovdevatn" />
		<tag k="name" v="Hovdevatna" />
		<tag k="natural" v="water" />
		<tag k="ssr:stedsnr" v="492752" />
	</node>
	<node lat="61.111100002517055" lon="9.837277782260783" id="-23554">
		<tag k="name" v="Hita" />
		<tag k="natural" v="water" />
		<tag k="ssr:stedsnr" v="493669" />
	</node>
	<node lat="61.09339722617174" lon="9.948527772601793" id="-23557">
		<tag k="alt_name" v="Slettumspullen" />
		<tag k="name" v="Slettomstjernet" />
		<tag k="natural" v="water" />
		<tag k="ssr:stedsnr" v="493691" />
	</node>
	<node lat="61.058575002804446" lon="9.785491662852195" id="-23560">
		<tag k="name" v="Smørbukktjernet" />
		<tag k="natural" v="water" />
		<tag k="ssr:stedsnr" v="493654" />
	</node>
	<node lat="61.12650555751294" lon="9.863102775850223" id="-23561">
		<tag k="name" v="Synnfjorden" />
		<tag k="natural" v="water" />
		<tag k="ssr:stedsnr" v="493723" />
		<tag k="water" v="lake" />
	</node>
	<node lat="60.86318333758202" lon="9.82489443890344" id="-23562">
		<tag k="alt_name" v="Skarvatn;Skardvatnet, store" />
		<tag k="name" v="Store Skardvatnet" />
		<tag k="natural" v="water" />
		<tag k="ssr:stedsnr" v="494027" />
	</node>
	<node lat="60.88822222373402" lon="10.065424997878635" id="-23575">
		<tag k="alt_name" v="Stomlibekken" />
		<tag k="name" v="Stomleibekken" />
		<tag k="ssr:stedsnr" v="494387" />
		<tag k="waterway" v="stream" />
	</node>
	<node lat="60.83538610693103" lon="10.17786666031294" id="-23580">
		<tag k="alt_name" v="Storvatn" />
		<tag k="name" v="Storvatnet" />
		<tag k="natural" v="water" />
		<tag k="ssr:stedsnr" v="494488" />
		<tag k="water" v="lake" />
	</node>
	<node lat="60.92404721841252" lon="10.14859999690376" id="-23581">
		<tag k="name" v="Slåttsvebekken" />
		<tag k="ssr:stedsnr" v="494432" />
		<tag k="waterway" v="stream" />
	</node>
	<node lat="60.91426944762358" lon="10.184516660807558" id="-23582">
		<tag k="name" v="Store Åborvatn" />
		<tag k="natural" v="water" />
		<tag k="old_name" v="Åbborvatna, store" />
		<tag k="ssr:stedsnr" v="494433" />
		<tag k="water" v="lake" />
	</node>
	<node lat="60.831416668503685" lon="10.101086113211718" id="-23589">
		<tag k="alt_name" v="Damtjernbekken" />
		<tag k="name" v="Tonvollbekken" />
		<tag k="ssr:stedsnr" v="494589" />
		<tag k="waterway" v="stream" />
	</node>
	<node lat="61.00734604222863" lon="9.902303750469402" id="-23592">
		<tag k="name" v="Livatnet" />
		<tag k="natural" v="water" />
		<tag k="ssr:stedsnr" v="674326" />
		<tag k="water" v="lake" />
	</node>
	<node lat="60.74941111397206" lon="9.823880548399792" id="-23593">
		<tag k="name" v="Fløyten" />
		<tag k="natural" v="water" />
		<tag k="ssr:stedsnr" v="464565" />
	</node>
	<node lat="61.01077499814526" lon="9.834805563506047" id="-23595">
		<tag k="name" v="Klauvsjøbekken" />
		<tag k="ssr:stedsnr" v="464904" />
		<tag k="waterway" v="stream" />
	</node>
	<node lat="61.03376111000403" lon="9.862913893004796" id="-23597">
		<tag k="name" v="Brennbekken" />
		<tag k="ssr:stedsnr" v="464923" />
		<tag k="waterway" v="stream" />
	</node>
	<node lat="60.74457820378286" lon="9.818011511017588" id="-23599">
		<tag k="name" v="Lendingsputten" />
		<tag k="natural" v="water" />
		<tag k="old_name" v="Lendingsputt" />
		<tag k="ssr:stedsnr" v="674798" />
	</node>
	<node lat="61.04115277779682" lon="9.826569448081266" id="-23600">
		<tag k="name" v="Hugulitjernet" />
		<tag k="natural" v="water" />
		<tag k="ssr:stedsnr" v="675370" />
	</node>
	<node lat="61.11725277402068" lon="9.846947225634105" id="-23602">
		<tag k="name" v="Hitbekken" />
		<tag k="ssr:stedsnr" v="675731" />
		<tag k="waterway" v="stream" />
	</node>
	<node lat="61.10010555244057" lon="9.869872216067309" id="-23603">
		<tag k="name" v="Strangtjernet" />
		<tag k="natural" v="water" />
		<tag k="ssr:stedsnr" v="675687" />
	</node>
	<node lat="61.15102222195139" lon="9.757152784394803" id="-23605">
		<tag k="alt_name" v="Gryttjønn" />
		<tag k="name" v="Gryttjønnet" />
		<tag k="natural" v="water" />
		<tag k="ssr:stedsnr" v="675768" />
	</node>
	<node lat="60.865830554943464" lon="9.823747227569848" id="-23610">
		<tag k="alt_name" v="Skardvatnet, l;Skarvatn" />
		<tag k="name" v="Vesle Skardvatnet" />
		<tag k="natural" v="water" />
		<tag k="ssr:stedsnr" v="676018" />
	</node>
	<node lat="60.87648889159775" lon="9.925675000556227" id="-23616">
		<tag k="alt_name" v="Storpulla" />
		<tag k="name" v="Svartpullen" />
		<tag k="natural" v="water" />
		<tag k="ssr:stedsnr" v="676033" />
	</node>
	<node lat="60.94282222592599" lon="10.035538882060234" id="-23621">
		<tag k="name" v="Lundelva" />
		<tag k="ssr:stedsnr" v="676269" />
		<tag k="waterway" v="stream" />
	</node>
	<node lat="60.79673888679406" lon="10.054980556772307" id="-23637">
		<tag k="alt_name" v="Gørrtjern" />
		<tag k="name" v="Gorrtjernet" />
		<tag k="natural" v="water" />
		<tag k="ssr:stedsnr" v="676658" />
	</node>
	<node lat="60.986197225600314" lon="9.775222216726867" id="-23640">
		<tag k="alt_name" v="Lundtjern" />
		<tag k="name" v="Lundtjernet" />
		<tag k="natural" v="water" />
		<tag k="ssr:stedsnr" v="676980" />
	</node>
	<node lat="60.95788888965297" lon="10.2271388849916" id="-23646">
		<tag k="name" v="Finna" />
		<tag k="ssr:stedsnr" v="677328" />
		<tag k="waterway" v="stream" />
	</node>
	<node lat="60.8088972206422" lon="10.02132222718824" id="-23648">
		<tag k="name" v="Bjørkeputten" />
		<tag k="natural" v="water" />
		<tag k="ssr:stedsnr" v="677594" />
	</node>
	<node lat="60.86834721786397" lon="10.201436116210818" id="-23655">
		<tag k="name" v="Brattelva" />
		<tag k="ssr:stedsnr" v="481502" />
		<tag k="waterway" v="stream" />
	</node>
	<node lat="60.77882777945068" lon="9.992158329129817" id="-23657">
		<tag k="name" v="Krokevjua" />
		<tag k="ssr:stedsnr" v="481509" />
		<tag k="waterway" v="stream" />
	</node>
	<node lat="61.020372224615585" lon="10.130613889909906" id="-23672">
		<tag k="alt_name" v="Abborvatn" />
		<tag k="name" v="Åborvatnet" />
		<tag k="natural" v="water" />
		<tag k="ssr:stedsnr" v="492178" />
	</node>
	<node lat="60.74660555680616" lon="9.875794443378306" id="-23673">
		<tag k="alt_name" v="Svartvatnet, store;Store Svartvatn" />
		<tag k="name" v="Store Svartvatnet" />
		<tag k="natural" v="water" />
		<tag k="ssr:stedsnr" v="492789" />
	</node>
	<node lat="60.74192499615095" lon="9.839552786741013" id="-23674">
		<tag k="alt_name" v="Tverrvatnet, yt;Ytre Tverrvatn" />
		<tag k="name" v="Ytre Tverrvatnet" />
		<tag k="natural" v="water" />
		<tag k="ssr:stedsnr" v="492794" />
		<tag k="water" v="lake" />
	</node>
	<node lat="60.90251944148604" lon="9.927566672344962" id="-23684">
		<tag k="alt_name" v="Aksletjern" />
		<tag k="name" v="Aksletjernet" />
		<tag k="natural" v="water" />
		<tag k="ssr:stedsnr" v="494078" />
	</node>
	<node lat="60.88885555930917" lon="10.162497217906923" id="-23687">
		<tag k="alt_name" v="Veslevatn" />
		<tag k="name" v="Veslevatnet" />
		<tag k="natural" v="water" />
		<tag k="ssr:stedsnr" v="494364" />
	</node>
	<node lat="60.74979472017559" lon="10.043829725558092" id="-23688">
		<tag k="alt_name" v="Øyvatnet" />
		<tag k="name" v="Øyvatna" />
		<tag k="natural" v="water" />
		<tag k="ssr:stedsnr" v="494702" />
		<tag k="water" v="lake" />
	</node>
	<node lat="60.95561666715434" lon="9.83006943809792" id="-23691">
		<tag k="alt_name" v="Gåstjern" />
		<tag k="name" v="Gåstjernet" />
		<tag k="natural" v="water" />
		<tag k="ssr:stedsnr" v="494907" />
	</node>
	<node lat="60.9471341076678" lon="9.857330853084505" id="-23693">
		<tag k="name" v="Øyangen" />
		<tag k="natural" v="water" />
		<tag k="ssr:stedsnr" v="494920" />
		<tag k="water" v="lake" />
	</node>
	<node lat="60.96550833374641" lon="9.79004444505872" id="-23694">
		<tag k="name" v="Vesløyangen" />
		<tag k="natural" v="water" />
		<tag k="ssr:stedsnr" v="494952" />
	</node>
	<node lat="60.8547527739916" lon="10.124722223575715" id="-23696">
		<tag k="name" v="Vadelva" />
		<tag k="ssr:stedsnr" v="495523" />
		<tag k="waterway" v="stream" />
	</node>
	<node lat="61.03794444786046" lon="9.786388895643231" id="-23697">
		<tag k="name" v="Tverråa" />
		<tag k="ssr:stedsnr" v="524068" />
		<tag k="waterway" v="stream" />
	</node>
	<node lat="60.89262222116889" lon="9.806138896173449" id="-23699">
		<tag k="name" v="Bikkjepullen" />
		<tag k="natural" v="water" />
		<tag k="ssr:stedsnr" v="524105" />
		<tag k="water" v="pond" />
	</node>
	<node lat="61.02137222662433" lon="9.833972213207728" id="-23701">
		<tag k="name" v="Tverråa" />
		<tag k="ssr:stedsnr" v="524914" />
		<tag k="waterway" v="stream" />
	</node>
	<node lat="61.112750003566084" lon="10.040666668096659" id="-23709">
		<tag k="name" v="Fiska" />
		<tag k="ssr:stedsnr" v="542077" />
		<tag k="waterway" v="river" />
	</node>
	<node lat="61.09588610720304" lon="9.915477778010866" id="-23720">
		<tag k="name" v="Jomyrkroken" />
		<tag k="place" v="locality" />
		<tag k="ssr:stedsnr" v="544211" />
	</node>
	<node lat="60.99753889339569" lon="10.021677769949255" id="-23721">
		<tag k="name" v="Livasselva" />
		<tag k="ssr:stedsnr" v="544969" />
		<tag k="waterway" v="river" />
	</node>
	<node lat="61.01379722205729" lon="10.108386109280058" id="-23725">
		<tag k="name" v="Sagbekken" />
		<tag k="ssr:stedsnr" v="552246" />
		<tag k="waterway" v="stream" />
	</node>
	<node lat="60.73955277749439" lon="9.837033326977485" id="-23726">
		<tag k="alt_name" v="Løveøya" />
		<tag k="name" v="Lauvøya" />
		<tag k="place" v="islet" />
		<tag k="ssr:stedsnr" v="552836" />
	</node>
	<node lat="61.140044448442815" lon="9.847741663727982" id="-23737">
		<tag k="name" v="Skjervungsbekken" />
		<tag k="ssr:stedsnr" v="553703" />
		<tag k="waterway" v="stream" />
	</node>
	<node lat="61.07938333086216" lon="9.846950000046423" id="-23739">
		<tag k="alt_name" v="Strangen, vest;Vest Strangen" />
		<tag k="name" v="Veststrangen" />
		<tag k="ssr:stedsnr" v="553700" />
		<tag k="waterway" v="stream" />
	</node>
	<node lat="60.883469447263614" lon="9.918488893910698" id="-23740">
		<tag k="alt_name" v="Mjelvatn" />
		<tag k="name" v="Mjellvatnet" />
		<tag k="natural" v="water" />
		<tag k="ssr:stedsnr" v="554102" />
		<tag k="water" v="lake" />
	</node>
	<node lat="60.861555551136334" lon="9.793274995358022" id="-23743">
		<tag k="alt_name" v="Kringelsjøen" />
		<tag k="name" v="Kringlesjøen" />
		<tag k="natural" v="water" />
		<tag k="ssr:stedsnr" v="554008" />
	</node>
	<node lat="60.9088627487944" lon="9.864930747225024" id="-23744">
		<tag k="alt_name" v="Store Rotvatn" />
		<tag k="name" v="Rotvatnet" />
		<tag k="natural" v="water" />
		<tag k="ssr:stedsnr" v="554076" />
		<tag k="water" v="lake" />
	</node>
	<node lat="60.95757778104022" lon="9.999363895822928" id="-23749">
		<tag k="name" v="Løken" />
		<tag k="ssr:stedsnr" v="554385" />
		<tag k="waterway" v="stream" />
	</node>
	<node lat="60.89184166672104" lon="10.215474999792905" id="-23750">
		<tag k="name" v="Kolsrudvatnet" />
		<tag k="natural" v="water" />
		<tag k="ssr:stedsnr" v="554398" />
	</node>
	<node lat="60.87714764165473" lon="9.982771492058284" id="-23752">
		<tag k="name" v="Vangsjøen" />
		<tag k="natural" v="water" />
		<tag k="ssr:stedsnr" v="554425" />
		<tag k="water" v="lake" />
	</node>
	<node lat="60.79598882353406" lon="9.927858521934636" id="-23753">
		<tag k="alt_name" v="Abortjernene" />
		<tag k="name" v="Åborvatna" />
		<tag k="natural" v="water" />
		<tag k="ssr:stedsnr" v="555103" />
		<tag k="water" v="lake" />
	</node>
	<node lat="60.802288891477694" lon="9.941958330036684" id="-23756">
		<tag k="alt_name" v="Båhattjern" />
		<tag k="name" v="Båhattjernet" />
		<tag k="natural" v="water" />
		<tag k="ssr:stedsnr" v="555184" />
	</node>
	<node lat="60.96161666957469" lon="9.864894443378002" id="-23760">
		<tag k="name" v="Nyvatn" />
		<tag k="natural" v="water" />
		<tag k="ssr:stedsnr" v="555921" />
	</node>
	<node lat="60.92632222563765" lon="9.89767778573616" id="-23761">
		<tag k="name" v="Laen" />
		<tag k="natural" v="water" />
		<tag k="ssr:stedsnr" v="555874" />
	</node>
	<node lat="60.90406667019412" lon="9.819811113429022" id="-23763">
		<tag k="name" v="Nemdalsbekken" />
		<tag k="ssr:stedsnr" v="585144" />
		<tag k="waterway" v="stream" />
	</node>
	<node lat="60.88158333208854" lon="9.82595834102173" id="-23769">
		<tag k="name" v="Leppa" />
		<tag k="ssr:stedsnr" v="600610" />
		<tag k="waterway" v="river" />
	</node>
	<node lat="61.005311115229595" lon="9.989230564332672" id="-23770">
		<tag k="name" v="Synna" />
		<tag k="ssr:stedsnr" v="600747" />
		<tag k="waterway" v="river" />
	</node>
	<node lat="60.8900749996398" lon="10.006961109992933" id="-23772">
		<tag k="name" v="Skolmåa" />
		<tag k="ssr:stedsnr" v="602315" />
		<tag k="waterway" v="stream" />
	</node>
	<node lat="61.02659444805464" lon="9.965169437964724" id="-23777">
		<tag k="name" v="Synna" />
		<tag k="ssr:stedsnr" v="602561" />
		<tag k="waterway" v="river" />
	</node>
	<node lat="60.88436666906557" lon="10.083866667753954" id="-23782">
		<tag k="name" v="Stomlibekken" />
		<tag k="ssr:stedsnr" v="603258" />
		<tag k="waterway" v="stream" />
	</node>
	<node lat="60.753163886196006" lon="10.046741657587392" id="-23784">
		<tag k="name" v="Johanpullen" />
		<tag k="natural" v="water" />
		<tag k="ssr:stedsnr" v="603308" />
	</node>
	<node lat="61.103455551142034" lon="9.839249996073965" id="-23785">
		<tag k="name" v="Starrputtene" />
		<tag k="natural" v="water" />
		<tag k="ssr:stedsnr" v="603311" />
	</node>
	<node lat="61.043444448437" lon="10.137361104156302" id="-23797">
		<tag k="alt_name" v="Krokvatnet, store" />
		<tag k="name" v="Store Krokvatnet" />
		<tag k="natural" v="water" />
		<tag k="ssr:stedsnr" v="613182" />
	</node>
	<node lat="60.74454444230497" lon="9.834466662274977" id="-23799">
		<tag k="alt_name" v="Bjønnholmen" />
		<tag k="name" v="Bjørnholmen" />
		<tag k="place" v="islet" />
		<tag k="ssr:stedsnr" v="613799" />
	</node>
	<node lat="61.02227499983676" lon="9.782522214268221" id="-23803">
		<tag k="alt_name" v="Illmilkjetjernet" />
		<tag k="name" v="Elmekjetjernet" />
		<tag k="natural" v="water" />
		<tag k="ssr:stedsnr" v="614309" />
	</node>
	<node lat="61.14682778209013" lon="9.879058336904684" id="-23805">
		<tag k="alt_name" v="Skjervungen, store" />
		<tag k="name" v="Store Skjervungen" />
		<tag k="natural" v="water" />
		<tag k="ssr:stedsnr" v="614712" />
		<tag k="water" v="lake" />
	</node>
	<node lat="60.88068333008512" lon="10.19139999532827" id="-23811">
		<tag k="name" v="Brasettjernet" />
		<tag k="natural" v="water" />
		<tag k="ssr:stedsnr" v="615403" />
	</node>
	<node lat="60.870997218491794" lon="9.973600005151521" id="-23816">
		<tag k="alt_name" v="Langdamtjern" />
		<tag k="name" v="Langdamtjernet" />
		<tag k="natural" v="water" />
		<tag k="ssr:stedsnr" v="615400" />
	</node>
	<node lat="60.84506388557969" lon="10.139636102368494" id="-23818">
		<tag k="alt_name" v="Svarttjern" />
		<tag k="name" v="Svarttjernet" />
		<tag k="natural" v="water" />
		<tag k="ssr:stedsnr" v="615509" />
	</node>
	<node lat="60.753891670359856" lon="9.973058334127106" id="-23822">
		<tag k="alt_name" v="Lulivatn" />
		<tag k="name" v="Lulivatnet" />
		<tag k="natural" v="water" />
		<tag k="ssr:stedsnr" v="615717" />
	</node>
	<node lat="60.853280553674814" lon="10.111786119864645" id="-23824">
		<tag k="name" v="Arnesvetjernet" />
		<tag k="natural" v="water" />
		<tag k="ssr:stedsnr" v="616518" />
	</node>
	<node lat="60.947874997616765" lon="9.92850000288477" id="-23828">
		<tag k="alt_name" v="Veslvatn" />
		<tag k="name" v="Veslvatnet" />
		<tag k="natural" v="water" />
		<tag k="ssr:stedsnr" v="616949" />
	</node>
	<node lat="60.8046277818517" lon="10.083744453135091" id="-23833">
		<tag k="name" v="Mælumsbekken" />
		<tag k="ssr:stedsnr" v="706538" />
		<tag k="waterway" v="stream" />
	</node>
	<node lat="60.963011111876085" lon="9.847147230261927" id="-23834">
		<tag k="name" v="Nysæterbekken" />
		<tag k="ssr:stedsnr" v="645699" />
		<tag k="waterway" v="stream" />
	</node>
	<node lat="60.96265833756601" lon="9.799211119266" id="-23842">
		<tag k="name" v="Øyangselva" />
		<tag k="ssr:stedsnr" v="661912" />
		<tag k="waterway" v="river" />
	</node>
	<node lat="60.87715555895736" lon="10.00566944385848" id="-23844">
		<tag k="name" v="Vangsjøbekken" />
		<tag k="ssr:stedsnr" v="663889" />
		<tag k="waterway" v="stream" />
	</node>
	<node lat="60.74869782905057" lon="10.048472029582811" id="-23848">
		<tag k="name" v="Store Øyvatn" />
		<tag k="natural" v="water" />
		<tag k="ssr:stedsnr" v="664296" />
		<tag k="water" v="lake" />
	</node>
	<node lat="60.87197499905365" lon="10.020902776434705" id="-23850">
		<tag k="name" v="Kalsåa" />
		<tag k="ssr:stedsnr" v="664414" />
		<tag k="waterway" v="stream" />
	</node>
	<node lat="61.14205833330785" lon="9.818172219032025" id="-23851">
		<tag k="name" v="Maribekken" />
		<tag k="ssr:stedsnr" v="664519" />
		<tag k="waterway" v="stream" />
	</node>
	<node lat="61.08851110703364" lon="9.920197213955538" id="-23855">
		<tag k="name" v="Synna" />
		<tag k="ssr:stedsnr" v="665236" />
		<tag k="waterway" v="river" />
	</node>
	<node lat="61.09205555582136" lon="10.005938886997617" id="-23859">
		<tag k="name" v="Langvatnet" />
		<tag k="natural" v="water" />
		<tag k="ssr:stedsnr" v="674016" />
	</node>
	<node lat="61.0346777812268" lon="10.000788881525782" id="-23860">
		<tag k="name" v="Djupbekken" />
		<tag k="ssr:stedsnr" v="674186" />
		<tag k="waterway" v="stream" />
	</node>
	<node lat="61.16235353382042" lon="9.819010046365142" id="-23868">
		<tag k="name" v="Oppsjøen" />
		<tag k="natural" v="water" />
		<tag k="ssr:stedsnr" v="675751" />
		<tag k="water" v="lake" />
	</node>
	<node lat="60.86650000054447" lon="9.927313883069981" id="-23871">
		<tag k="alt_name" v="Skattumflattjern" />
		<tag k="name" v="Skattumflattjernet" />
		<tag k="natural" v="water" />
		<tag k="ssr:stedsnr" v="676012" />
	</node>
	<node lat="60.86675833075817" lon="9.940988880338532" id="-23872">
		<tag k="alt_name" v="Bronerbekken" />
		<tag k="name" v="Brunbekken" />
		<tag k="ssr:stedsnr" v="676015" />
		<tag k="waterway" v="stream" />
	</node>
	<node lat="60.81932777643693" lon="9.898477781966369" id="-23874">
		<tag k="name" v="Nysvellibekken" />
		<tag k="ssr:stedsnr" v="676212" />
		<tag k="waterway" v="stream" />
	</node>
	<node lat="60.90110555975118" lon="10.130519440208001" id="-23882">
		<tag k="name" v="Maripullen" />
		<tag k="natural" v="water" />
		<tag k="ssr:stedsnr" v="676492" />
	</node>
	<node lat="60.96500833048927" lon="9.906725002489415" id="-23886">
		<tag k="alt_name" v="Hyrningstjern" />
		<tag k="name" v="Hyrningtjernet" />
		<tag k="natural" v="water" />
		<tag k="ssr:stedsnr" v="676946" />
	</node>
	<node lat="60.775319447155034" lon="9.980813891518292" id="-23890">
		<tag k="alt_name" v="Krokevjua" />
		<tag k="name" v="Krokevjebekken" />
		<tag k="ssr:stedsnr" v="677641" />
		<tag k="waterway" v="stream" />
	</node>
	<node lat="60.75506111473249" lon="10.00058055223713" id="-23891">
		<tag k="alt_name" v="Flesvatn" />
		<tag k="name" v="Flesvatnet" />
		<tag k="natural" v="water" />
		<tag k="ssr:stedsnr" v="677736" />
	</node>
	<node lat="60.90772777480117" lon="10.204708327119873" id="-23896">
		<tag k="name" v="Gulsetvatnet" />
		<tag k="natural" v="water" />
		<tag k="ssr:stedsnr" v="724113" />
	</node>
	<node lat="61.004975002037206" lon="9.909736114640868" id="-23898">
		<tag k="name" v="Livassdammen" />
		<tag k="ssr:stedsnr" v="724214" />
		<tag k="waterway" v="dam" />
	</node>
	<node lat="60.812274998956404" lon="9.871963887654266" id="-23900">
		<tag k="name" v="Håkenstadbekken" />
		<tag k="ssr:stedsnr" v="725217" />
		<tag k="waterway" v="stream" />
	</node>
	<node lat="60.86059444387965" lon="10.142249994383914" id="-23905">
		<tag k="alt_name" v="Søndre Midtvatn" />
		<tag k="name" v="Søre Midtvatn" />
		<tag k="natural" v="water" />
		<tag k="ssr:stedsnr" v="734082" />
	</node>
	<node lat="60.749038891898" lon="9.870230553174832" id="-23910">
		<tag k="alt_name" v="Svartvatnet, l;Vesle Svartvatn" />
		<tag k="name" v="Vesle Svartvatnet" />
		<tag k="natural" v="water" />
		<tag k="ssr:stedsnr" v="735792" />
	</node>
	<node lat="61.08808333649493" lon="10.030547224804591" id="-23911">
		<tag k="alt_name" v="Laulielva" />
		<tag k="name" v="Fiska" />
		<tag k="ssr:stedsnr" v="736005" />
		<tag k="waterway" v="river" />
	</node>
	<node lat="60.86930833039448" lon="10.234227776501758" id="-23913">
		<tag k="alt_name" v="Komperudelva" />
		<tag k="name" v="Kumperudelva" />
		<tag k="ssr:stedsnr" v="736409" />
		<tag k="waterway" v="river" />
	</node>
	<node lat="60.87316667032077" lon="10.198672217598642" id="-23914">
		<tag k="name" v="Bratten" />
		<tag k="natural" v="water" />
		<tag k="ssr:stedsnr" v="736412" />
	</node>
</osm>
