<?xml version="1.0" encoding="UTF-8"?>
<osm version="0.6" generator="osmapis">
	<node lat="60.807583331449614" lon="9.923127783224068" id="-18077">
		<tag k="alt_name" v="Nøss-stormyra" />
		<tag k="name" v="Nøsstormyra" />
		<tag k="natural" v="wetland" />
		<tag k="ssr:stedsnr" v="9208" />
	</node>
	<node lat="60.92248610701972" lon="9.91935278575563" id="-18092">
		<tag k="name" v="Hognsætermyra" />
		<tag k="natural" v="wetland" />
		<tag k="ssr:stedsnr" v="9886" />
	</node>
	<node lat="60.796133332343686" lon="10.066938888964492" id="-18110">
		<tag k="name" v="Vintermyrene" />
		<tag k="natural" v="wetland" />
		<tag k="ssr:stedsnr" v="39604" />
	</node>
	<node lat="61.06088888856576" lon="9.960616668288246" id="-18119">
		<tag k="name" v="Kristenhaugen" />
		<tag k="place" v="locality" />
		<tag k="ssr:stedsnr" v="238756" />
	</node>
	<node lat="60.761697221189756" lon="10.053461107099785" id="-18153">
		<tag k="name" v="Furumyra" />
		<tag k="natural" v="wetland" />
		<tag k="ssr:stedsnr" v="240359" />
	</node>
	<node lat="60.909522224399524" lon="10.023469452053778" id="-18166">
		<tag k="landuse" v="meadow" />
		<tag k="name" v="Vesterslåttene" />
		<tag k="ssr:stedsnr" v="240923" />
	</node>
	<node lat="60.88244444748094" lon="10.10390277117292" id="-18175">
		<tag k="name" v="Trysilmyra" />
		<tag k="natural" v="wetland" />
		<tag k="ssr:stedsnr" v="69431" />
	</node>
	<node lat="60.98203610884333" lon="10.134775004210885" id="-18186">
		<tag k="name" v="Elgebakkmyra" />
		<tag k="natural" v="wetland" />
		<tag k="ssr:stedsnr" v="70310" />
	</node>
	<node lat="61.04956388687927" lon="10.032347221970943" id="-18208">
		<tag k="name" v="Geitryggmyra" />
		<tag k="natural" v="wetland" />
		<tag k="ssr:stedsnr" v="250049" />
	</node>
	<node lat="60.98692222000406" lon="10.190680546667918" id="-18215">
		<tag k="name" v="Sengeklærmyra" />
		<tag k="natural" v="wetland" />
		<tag k="ssr:stedsnr" v="115130" />
	</node>
	<node lat="61.0665222231043" lon="9.900197230962018" id="-18235">
		<tag k="name" v="Flæene" />
		<tag k="natural" v="wetland" />
		<tag k="ssr:stedsnr" v="119229" />
	</node>
	<node lat="60.75221389164507" lon="9.994675000330053" id="-18239">
		<tag k="name" v="Flesmyrene" />
		<tag k="natural" v="wetland" />
		<tag k="ssr:stedsnr" v="119616" />
	</node>
	<node lat="60.95807221878429" lon="10.1660749947394" id="-18254">
		<tag k="alt_name" v="Flåmyrene" />
		<tag k="name" v="Flåmyra" />
		<tag k="natural" v="wetland" />
		<tag k="ssr:stedsnr" v="251283" />
	</node>
	<node lat="60.913288885207386" lon="9.97345000456992" id="-18267">
		<tag k="name" v="Femputtmyra" />
		<tag k="natural" v="wetland" />
		<tag k="ssr:stedsnr" v="251498" />
	</node>
	<node lat="60.80472499684731" lon="10.003744441519926" id="-18272">
		<tag k="alt_name" v="Sjuputtmyrene" />
		<tag k="name" v="Sjuputtmyra" />
		<tag k="natural" v="wetland" />
		<tag k="ssr:stedsnr" v="251590" />
	</node>
	<node lat="60.927458334214684" lon="9.96080278203491" id="-18273">
		<tag k="alt_name" v="Lundmyra" />
		<tag k="name" v="Lunnmyra" />
		<tag k="natural" v="wetland" />
		<tag k="ssr:stedsnr" v="251914" />
	</node>
	<node lat="60.99129722490749" lon="10.122150009008571" id="-18285">
		<tag k="name" v="Halvfaremyra" />
		<tag k="natural" v="wetland" />
		<tag k="ssr:stedsnr" v="252297" />
	</node>
	<node lat="60.98442500128534" lon="10.010808337780228" id="-18322">
		<tag k="name" v="Stormyra" />
		<tag k="natural" v="wetland" />
		<tag k="ssr:stedsnr" v="130284" />
	</node>
	<node lat="60.828641663381475" lon="9.786025001308662" id="-18351">
		<tag k="name" v="Valdresstykkje" />
		<tag k="place" v="locality" />
		<tag k="ssr:stedsnr" v="176512" />
	</node>
	<node lat="60.79496666333231" lon="10.002561106858847" id="-18358">
		<tag k="name" v="Langmyra" />
		<tag k="natural" v="wetland" />
		<tag k="ssr:stedsnr" v="178406" />
	</node>
	<node lat="60.916244440693326" lon="9.911427772588596" id="-18359">
		<tag k="name" v="Bjørnholtmyrene" />
		<tag k="natural" v="wetland" />
		<tag k="ssr:stedsnr" v="178668" />
	</node>
	<node lat="60.971605559242306" lon="10.179116674334225" id="-18381">
		<tag k="name" v="Bjørnmyra" />
		<tag k="natural" v="wetland" />
		<tag k="ssr:stedsnr" v="191303" />
	</node>
	<node lat="60.777002775241186" lon="10.076891670148427" id="-18394">
		<tag k="name" v="Flåmyrene" />
		<tag k="natural" v="wetland" />
		<tag k="ssr:stedsnr" v="191601" />
	</node>
	<node lat="60.85159722593887" lon="10.134697224720393" id="-18456">
		<tag k="name" v="Kvernhusmyra" />
		<tag k="natural" v="wetland" />
		<tag k="ssr:stedsnr" v="308057" />
	</node>
	<node lat="60.99359167074043" lon="10.109230547746044" id="-18481">
		<tag k="name" v="Flågån" />
		<tag k="natural" v="wetland" />
		<tag k="ssr:stedsnr" v="312318" />
	</node>
	<node lat="60.87966388935892" lon="10.119997216284684" id="-18483">
		<tag k="name" v="Skålmyra" />
		<tag k="natural" v="wetland" />
		<tag k="ssr:stedsnr" v="312385" />
	</node>
	<node lat="60.83503055804651" lon="9.79008332905233" id="-18513">
		<tag k="name" v="Øybakkmyre" />
		<tag k="natural" v="wetland" />
		<tag k="ssr:stedsnr" v="479553" />
	</node>
	<node lat="60.80696389215005" lon="10.04064167014792" id="-18525">
		<tag k="name" v="Torderudsmyra" />
		<tag k="natural" v="wetland" />
		<tag k="ssr:stedsnr" v="373610" />
	</node>
	<node lat="60.91678888681564" lon="9.797547216704254" id="-18530">
		<tag k="name" v="Hagamyre" />
		<tag k="natural" v="wetland" />
		<tag k="ssr:stedsnr" v="479850" />
	</node>
	<node lat="61.02053888870768" lon="10.17739721828538" id="-18531">
		<tag k="name" v="Gråsteinmyra" />
		<tag k="natural" v="wetland" />
		<tag k="ssr:stedsnr" v="479994" />
	</node>
	<node lat="60.93025278122353" lon="9.930850007742231" id="-18540">
		<tag k="name" v="Fløyten" />
		<tag k="place" v="locality" />
		<tag k="ssr:stedsnr" v="481951" />
	</node>
	<node lat="60.7800222212308" lon="10.028058331651005" id="-18561">
		<tag k="name" v="Svartvatnmarka" />
		<tag k="place" v="locality" />
		<tag k="ssr:stedsnr" v="403628" />
	</node>
	<node lat="60.74608888745169" lon="10.06832221543946" id="-18568">
		<tag k="name" v="Vesteråsmyra" />
		<tag k="natural" v="wetland" />
		<tag k="ssr:stedsnr" v="422306" />
	</node>
</osm>
