<?xml version="1.0" encoding="UTF-8"?>
<osm version="0.6" generator="osmapis">
	<node lat="60.96681111514718" lon="9.783080562552737" id="-22990">
		<tag k="name" v="Øyangshalla" />
		<tag k="natural" v="slope" />
		<tag k="place" v="locality" />
		<tag k="ssr:stedsnr" v="6910" />
	</node>
	<node lat="61.09950000257136" lon="9.876477782394119" id="-22997">
		<tag k="fixme" v="consider natural=peak for the most distinct mountains in the district" />
		<tag k="name" v="Svartkampen" />
		<tag k="natural" v="hill" />
		<tag k="place" v="locality" />
		<tag k="ssr:stedsnr" v="7647" />
	</node>
	<node lat="60.81360278143779" lon="9.881594444482111" id="-23007">
		<tag k="alt_name" v="Olalykkjhøgda" />
		<tag k="fixme" v="consider natural=peak for the most distinct mountains in the district" />
		<tag k="name" v="Olalykkja" />
		<tag k="natural" v="hill" />
		<tag k="place" v="locality" />
		<tag k="ssr:stedsnr" v="9202" />
	</node>
	<node lat="60.76750833583265" lon="9.906836109946696" id="-23010">
		<tag k="fixme" v="consider natural=peak for the most distinct mountains in the district" />
		<tag k="name" v="Ormhøgda" />
		<tag k="natural" v="hill" />
		<tag k="place" v="locality" />
		<tag k="ssr:stedsnr" v="9140" />
	</node>
	<node lat="60.88134999918506" lon="10.151683339587454" id="-23019">
		<tag k="alt_name" v="Mårsjøhøgda" />
		<tag k="fixme" v="consider natural=peak for the most distinct mountains in the district" />
		<tag k="name" v="Mårsjøåsen" />
		<tag k="natural" v="hill" />
		<tag k="place" v="locality" />
		<tag k="ssr:stedsnr" v="9387" />
	</node>
	<node lat="60.959058332304366" lon="9.892963883732364" id="-23026">
		<tag k="alt_name" v="Venhaug" />
		<tag k="fixme" v="consider natural=peak for the most distinct mountains in the district" />
		<tag k="name" v="Nordre Venhaugen" />
		<tag k="natural" v="hill" />
		<tag k="place" v="locality" />
		<tag k="ssr:stedsnr" v="9894" />
	</node>
	<node lat="60.9521250003751" lon="9.919397218488188" id="-23027">
		<tag k="fixme" v="consider natural=peak for the most distinct mountains in the district" />
		<tag k="name" v="Kvasshaugen" />
		<tag k="natural" v="hill" />
		<tag k="place" v="locality" />
		<tag k="ssr:stedsnr" v="9896" />
	</node>
	<node lat="60.961588892561245" lon="9.923158325538175" id="-23033">
		<tag k="fixme" v="consider natural=peak for the most distinct mountains in the district" />
		<tag k="name" v="Søre Venhaugen" />
		<tag k="natural" v="hill" />
		<tag k="place" v="locality" />
		<tag k="ssr:stedsnr" v="236273" />
	</node>
	<node lat="60.9379555568015" lon="9.805641666983592" id="-23043">
		<tag k="name" v="Dala" />
		<tag k="natural" v="valley" />
		<tag k="place" v="locality" />
		<tag k="ssr:stedsnr" v="236934" />
	</node>
	<node lat="60.885338886452715" lon="10.163383329932426" id="-23044">
		<tag k="name" v="Ytterlia" />
		<tag k="natural" v="slope" />
		<tag k="place" v="locality" />
		<tag k="ssr:stedsnr" v="237217" />
	</node>
	<node lat="60.89780278060645" lon="10.013122218116576" id="-23045">
		<tag k="name" v="Dumsethøgda" />
		<tag k="natural" v="hill" />
		<tag k="place" v="locality" />
		<tag k="ssr:stedsnr" v="238023" />
	</node>
	<node lat="60.96282777656327" lon="9.951674999302378" id="-23054">
		<tag k="name" v="Sollibakkene" />
		<tag k="natural" v="slope" />
		<tag k="place" v="locality" />
		<tag k="ssr:stedsnr" v="238957" />
	</node>
	<node lat="60.789933330934026" lon="9.971449991996405" id="-23066">
		<tag k="name" v="Akksjøbrenna" />
		<tag k="place" v="locality" />
		<tag k="ssr:stedsnr" v="56413" />
	</node>
	<node lat="60.95122500047396" lon="10.1602694466119" id="-23069">
		<tag k="name" v="Båtberget" />
		<tag k="natural" v="hill" />
		<tag k="place" v="locality" />
		<tag k="ssr:stedsnr" v="56582" />
	</node>
	<node lat="60.76077500312348" lon="9.91987778138773" id="-23071">
		<tag k="name" v="Rennelshaugen" />
		<tag k="natural" v="hill" />
		<tag k="place" v="locality" />
		<tag k="ssr:stedsnr" v="57481" />
	</node>
	<node lat="60.81955555391985" lon="9.889666670460027" id="-23075">
		<tag k="name" v="Nysvelia" />
		<tag k="natural" v="slope" />
		<tag k="place" v="locality" />
		<tag k="ssr:stedsnr" v="240152" />
	</node>
	<node lat="60.7914333345962" lon="9.860761110422835" id="-23078">
		<tag k="name" v="Ekornlia" />
		<tag k="natural" v="slope" />
		<tag k="place" v="locality" />
		<tag k="ssr:stedsnr" v="58323" />
	</node>
	<node lat="61.133580557787305" lon="9.956824998012053" id="-23082">
		<tag k="name" v="Storlia" />
		<tag k="natural" v="slope" />
		<tag k="place" v="locality" />
		<tag k="ssr:stedsnr" v="58702" />
	</node>
	<node lat="61.121572220608485" lon="9.921177784061996" id="-23093">
		<tag k="name" v="Fiskeskaret" />
		<tag k="natural" v="valley" />
		<tag k="place" v="locality" />
		<tag k="ssr:stedsnr" v="240697" />
	</node>
	<node lat="60.96704999571493" lon="9.868827782826738" id="-23095">
		<tag k="name" v="Rognhaugen" />
		<tag k="natural" v="hill" />
		<tag k="place" v="locality" />
		<tag k="ssr:stedsnr" v="240551" />
	</node>
	<node lat="60.99923611199978" lon="10.039130555898232" id="-23099">
		<tag k="name" v="Rognstadhaugen" />
		<tag k="natural" v="hill" />
		<tag k="place" v="locality" />
		<tag k="ssr:stedsnr" v="240973" />
	</node>
	<node lat="60.90137777978704" lon="10.121700001099143" id="-23115">
		<tag k="alt_name" v="Djupskaret" />
		<tag k="name" v="Djupskardet" />
		<tag k="natural" v="valley" />
		<tag k="place" v="locality" />
		<tag k="ssr:stedsnr" v="69533" />
	</node>
	<node lat="60.94696666604517" lon="9.89506111909131" id="-23129">
		<tag k="fixme" v="consider natural=peak for the most distinct mountains in the district" />
		<tag k="name" v="Rådalshøgda" />
		<tag k="natural" v="hill" />
		<tag k="place" v="locality" />
		<tag k="ssr:stedsnr" v="70924" />
	</node>
	<node lat="61.00771389227257" lon="10.191052769349858" id="-23143">
		<tag k="alt_name" v="Kråkhuggukampen" />
		<tag k="fixme" v="consider natural=peak for the most distinct mountains in the district" />
		<tag k="name" v="Kråkhugukampen" />
		<tag k="natural" v="hill" />
		<tag k="place" v="locality" />
		<tag k="ssr:stedsnr" v="250250" />
	</node>
	<node lat="61.041580556090615" lon="10.17273332921809" id="-23148">
		<tag k="name" v="Fjellolia" />
		<tag k="natural" v="slope" />
		<tag k="place" v="locality" />
		<tag k="ssr:stedsnr" v="115132" />
	</node>
	<node lat="61.149224996105744" lon="9.914330556031292" id="-23159">
		<tag k="fixme" v="consider natural=peak for the most distinct mountains in the district" />
		<tag k="name" v="Middagstippen" />
		<tag k="natural" v="hill" />
		<tag k="place" v="locality" />
		<tag k="ssr:stedsnr" v="250739" />
	</node>
	<node lat="60.78078889252808" lon="9.8659305613498" id="-23164">
		<tag k="name" v="Kullsvelia" />
		<tag k="natural" v="slope" />
		<tag k="place" v="locality" />
		<tag k="ssr:stedsnr" v="118282" />
	</node>
	<node lat="60.8571472234685" lon="9.814908334255692" id="-23173">
		<tag k="fixme" v="consider natural=peak for the most distinct mountains in the district" />
		<tag k="name" v="Dronningknatten" />
		<tag k="natural" v="hill" />
		<tag k="place" v="locality" />
		<tag k="ssr:stedsnr" v="251007" />
	</node>
	<node lat="60.86016075586414" lon="9.834907342613764" id="-23174">
		<tag k="alt_name" v="Stuvkampen" />
		<tag k="fixme" v="consider natural=peak for the most distinct mountains in the district" />
		<tag k="name" v="Stuvengkampen" />
		<tag k="natural" v="hill" />
		<tag k="place" v="locality" />
		<tag k="ssr:stedsnr" v="251009" />
	</node>
	<node lat="60.923630559777244" lon="9.989647223115291" id="-23197">
		<tag k="name" v="Småmyrreset" />
		<tag k="natural" v="hill" />
		<tag k="place" v="locality" />
		<tag k="ssr:stedsnr" v="251484" />
	</node>
	<node lat="60.99373610936943" lon="10.177402781716815" id="-23214">
		<tag k="alt_name" v="Julkrudshøgda" />
		<tag k="name" v="Julkerudshøgda" />
		<tag k="natural" v="hill" />
		<tag k="place" v="locality" />
		<tag k="ssr:stedsnr" v="252289" />
	</node>
	<node lat="60.887152782113795" lon="9.830019442776305" id="-23226">
		<tag k="fixme" v="consider natural=peak for the most distinct mountains in the district" />
		<tag k="name" v="Lierberget" />
		<tag k="natural" v="hill" />
		<tag k="place" v="locality" />
		<tag k="ssr:stedsnr" v="129134" />
	</node>
	<node lat="60.78923055398968" lon="9.818363892961084" id="-23243">
		<tag k="name" v="Karidalen" />
		<tag k="natural" v="valley" />
		<tag k="place" v="locality" />
		<tag k="ssr:stedsnr" v="130118" />
	</node>
	<node lat="60.91428055258203" lon="10.138211107433806" id="-23256">
		<tag k="name" v="Tollbarberget" />
		<tag k="natural" v="hill" />
		<tag k="place" v="locality" />
		<tag k="ssr:stedsnr" v="130424" />
	</node>
	<node lat="60.75401111297476" lon="10.018402770577826" id="-23270">
		<tag k="alt_name" v="Halvorsmyrbergene" />
		<tag k="name" v="Hallvordsmyrberga" />
		<tag k="natural" v="hill" />
		<tag k="old_name" v="Halvordsmyrberga" />
		<tag k="place" v="locality" />
		<tag k="ssr:stedsnr" v="252709" />
	</node>
	<node lat="60.99786111406567" lon="9.82643611055561" id="-23272">
		<tag k="name" v="Bjørnhaugen" />
		<tag k="natural" v="hill" />
		<tag k="place" v="locality" />
		<tag k="ssr:stedsnr" v="252744" />
	</node>
	<node lat="60.965036113825796" lon="9.945491669183044" id="-23274">
		<tag k="fixme" v="consider natural=peak for the most distinct mountains in the district" />
		<tag k="name" v="Veslhovde" />
		<tag k="natural" v="hill" />
		<tag k="place" v="locality" />
		<tag k="ssr:stedsnr" v="252939" />
	</node>
	<node lat="60.84611388832908" lon="9.820680551869142" id="-23285">
		<tag k="name" v="Nørstebøenbakkene" />
		<tag k="natural" v="slope" />
		<tag k="place" v="locality" />
		<tag k="ssr:stedsnr" v="176569" />
	</node>
	<node lat="61.02879722196171" lon="10.174408330575098" id="-23287">
		<tag k="fixme" v="consider natural=peak for the most distinct mountains in the district" />
		<tag k="name" v="Møssmørbakken" />
		<tag k="natural" v="hill" />
		<tag k="place" v="locality" />
		<tag k="ssr:stedsnr" v="176968" />
	</node>
	<node lat="60.79163611189966" lon="9.920927780714338" id="-23297">
		<tag k="name" v="Svartberget" />
		<tag k="natural" v="cliff" />
		<tag k="ssr:stedsnr" v="179304" />
	</node>
	<node lat="60.998305551864235" lon="10.06182499566595" id="-23300">
		<tag k="name" v="Åsletta" />
		<tag k="place" v="locality" />
		<tag k="ssr:stedsnr" v="180003" />
	</node>
	<node lat="61.10238611173874" lon="9.942952770259572" id="-23303">
		<tag k="fixme" v="consider natural=peak for the most distinct mountains in the district" />
		<tag k="name" v="Klemosæterhøgda" />
		<tag k="natural" v="hill" />
		<tag k="place" v="locality" />
		<tag k="ssr:stedsnr" v="189610" />
	</node>
	<node lat="60.90106389119348" lon="9.942516664587616" id="-23304">
		<tag k="alt_name" v="Gjeitberget" />
		<tag k="fixme" v="consider natural=peak for the most distinct mountains in the district" />
		<tag k="name" v="Geitberget" />
		<tag k="natural" v="hill" />
		<tag k="place" v="locality" />
		<tag k="ssr:stedsnr" v="190086" />
	</node>
	<node lat="60.906561110517345" lon="10.007758333479355" id="-23319">
		<tag k="name" v="Dumberga" />
		<tag k="natural" v="hill" />
		<tag k="place" v="locality" />
		<tag k="ssr:stedsnr" v="191461" />
	</node>
	<node lat="60.90327500311819" lon="9.882486110979025" id="-23351">
		<tag k="name" v="Rotvasslia" />
		<tag k="natural" v="slope" />
		<tag k="place" v="locality" />
		<tag k="ssr:stedsnr" v="240011" />
	</node>
	<node lat="60.81705277427827" lon="10.045224990829963" id="-23355">
		<tag k="name" v="Bjørkelia" />
		<tag k="natural" v="slope" />
		<tag k="place" v="locality" />
		<tag k="ssr:stedsnr" v="240216" />
	</node>
	<node lat="60.86871111232845" lon="10.083447231192752" id="-23357">
		<tag k="name" v="Lusfjell" />
		<tag k="natural" v="hill" />
		<tag k="place" v="locality" />
		<tag k="ssr:stedsnr" v="240311" />
	</node>
	<node lat="60.746627782227755" lon="10.041061113754706" id="-23359">
		<tag k="name" v="Øyvasslia" />
		<tag k="natural" v="slope" />
		<tag k="place" v="locality" />
		<tag k="ssr:stedsnr" v="240332" />
	</node>
	<node lat="60.94381944381419" lon="9.916125000116114" id="-23362">
		<tag k="alt_name" v="Dugurdshaugen" />
		<tag k="fixme" v="consider natural=peak for the most distinct mountains in the district" />
		<tag k="name" v="Dugurdshøgda" />
		<tag k="natural" v="hill" />
		<tag k="place" v="locality" />
		<tag k="ssr:stedsnr" v="252906" />
	</node>
	<node lat="60.76190555377893" lon="10.078152780352921" id="-23364">
		<tag k="name" v="Hølbekklia" />
		<tag k="natural" v="slope" />
		<tag k="place" v="locality" />
		<tag k="ssr:stedsnr" v="255315" />
	</node>
	<node lat="60.96194722395279" lon="9.833711104658617" id="-23367">
		<tag k="name" v="Røyskatthovde" />
		<tag k="natural" v="hill" />
		<tag k="place" v="locality" />
		<tag k="ssr:stedsnr" v="282691" />
	</node>
	<node lat="60.95605833245699" lon="9.85636110277404" id="-23380">
		<tag k="name" v="Katthugu" />
		<tag k="natural" v="hill" />
		<tag k="place" v="locality" />
		<tag k="ssr:stedsnr" v="463713" />
	</node>
	<node lat="61.016341668717814" lon="10.206100007035758" id="-23401">
		<tag k="name" v="Svarthaugen" />
		<tag k="natural" v="hill" />
		<tag k="place" v="locality" />
		<tag k="ssr:stedsnr" v="311277" />
	</node>
	<node lat="60.879275000747405" lon="9.987352786152453" id="-23414">
		<tag k="alt_name" v="Vangsjøhøgda" />
		<tag k="fixme" v="consider natural=peak for the most distinct mountains in the district" />
		<tag k="name" v="Vangsjøknatten" />
		<tag k="natural" v="hill" />
		<tag k="place" v="locality" />
		<tag k="ssr:stedsnr" v="312371" />
	</node>
	<node lat="60.927300004219845" lon="9.802697214444121" id="-23423">
		<tag k="name" v="Bjørntjernhalle" />
		<tag k="natural" v="slope" />
		<tag k="place" v="locality" />
		<tag k="ssr:stedsnr" v="342345" />
	</node>
	<node lat="60.932411110057366" lon="9.803730556728365" id="-23428">
		<tag k="name" v="Kjørogjeldsdalsberget" />
		<tag k="natural" v="cliff" />
		<tag k="ssr:stedsnr" v="357913" />
	</node>
	<node lat="60.87885277471027" lon="9.867369441159175" id="-23438">
		<tag k="name" v="Flisdalen" />
		<tag k="natural" v="valley" />
		<tag k="place" v="locality" />
		<tag k="ssr:stedsnr" v="372113" />
	</node>
	<node lat="60.84444167102117" lon="9.779036109762126" id="-23439">
		<tag k="loc_name" v="Bjørnaskardrenna" />
		<tag k="name" v="Bjødnaskarrenna" />
		<tag k="place" v="locality" />
		<tag k="ssr:stedsnr" v="479593" />
	</node>
	<node lat="60.91040833622054" lon="9.807619437042774" id="-23461">
		<tag k="name" v="Fellingshalle" />
		<tag k="natural" v="slope" />
		<tag k="place" v="locality" />
		<tag k="ssr:stedsnr" v="479845" />
	</node>
	<node lat="60.77389722595023" lon="9.910138884657067" id="-23465">
		<tag k="name" v="Aksjølia" />
		<tag k="natural" v="slope" />
		<tag k="place" v="locality" />
		<tag k="ssr:stedsnr" v="481545" />
	</node>
	<node lat="60.84759999740665" lon="10.00413334124491" id="-23467">
		<tag k="name" v="Utkiksberget" />
		<tag k="natural" v="hill" />
		<tag k="place" v="locality" />
		<tag k="ssr:stedsnr" v="481039" />
	</node>
	<node lat="60.962244446820144" lon="10.091208339904421" id="-23477">
		<tag k="name" v="Fellelia" />
		<tag k="natural" v="slope" />
		<tag k="place" v="locality" />
		<tag k="ssr:stedsnr" v="482551" />
	</node>
	<node lat="60.819752780585404" lon="9.953913889949346" id="-23482">
		<tag k="name" v="Damhaugen" />
		<tag k="natural" v="hill" />
		<tag k="place" v="locality" />
		<tag k="ssr:stedsnr" v="483376" />
	</node>
	<node lat="61.04308055611293" lon="9.990036117987747" id="-23487">
		<tag k="name" v="Liabakkene" />
		<tag k="natural" v="slope" />
		<tag k="place" v="locality" />
		<tag k="ssr:stedsnr" v="483745" />
	</node>
	<node lat="60.823236115589175" lon="10.043383325715691" id="-23495">
		<tag k="name" v="Bjørkelia" />
		<tag k="natural" v="slope" />
		<tag k="place" v="locality" />
		<tag k="ssr:stedsnr" v="420547" />
	</node>
	<node lat="61.077072226150534" lon="9.789433329015223" id="-23509">
		<tag k="fixme" v="consider natural=peak for the most distinct mountains in the district" />
		<tag k="name" v="Spåtind" />
		<tag k="natural" v="hill" />
		<tag k="place" v="locality" />
		<tag k="ssr:stedsnr" v="432609" />
	</node>
	<node lat="61.105391668767886" lon="9.8930083289568" id="-23510">
		<tag k="name" v="Gråberga" />
		<tag k="natural" v="hill" />
		<tag k="place" v="locality" />
		<tag k="ssr:stedsnr" v="432633" />
	</node>
	<node lat="61.13918888723291" lon="9.796497222667165" id="-23521">
		<tag k="name" v="Elgshaugen" />
		<tag k="natural" v="hill" />
		<tag k="place" v="locality" />
		<tag k="ssr:stedsnr" v="433706" />
	</node>
	<node lat="60.86063889138594" lon="9.879136115334406" id="-23563">
		<tag k="fixme" v="consider natural=peak for the most distinct mountains in the district" />
		<tag k="name" v="Svinkampen" />
		<tag k="natural" v="hill" />
		<tag k="place" v="locality" />
		<tag k="ssr:stedsnr" v="494004" />
	</node>
	<node lat="60.883536106877266" lon="10.059863885267355" id="-23574">
		<tag k="name" v="Fleinlia" />
		<tag k="natural" v="slope" />
		<tag k="place" v="locality" />
		<tag k="ssr:stedsnr" v="494386" />
	</node>
	<node lat="60.9043638913131" lon="10.18317778350616" id="-23583">
		<tag k="alt_name" v="Svarthaugen" />
		<tag k="fixme" v="consider natural=peak for the most distinct mountains in the district" />
		<tag k="name" v="Mårstad" />
		<tag k="natural" v="hill" />
		<tag k="place" v="locality" />
		<tag k="ssr:stedsnr" v="494445" />
	</node>
	<node lat="60.732919446465395" lon="10.014391663567746" id="-23598">
		<tag k="alt_name" v="Skjellingshovde, store" />
		<tag k="fixme" v="consider natural=peak for the most distinct mountains in the district" />
		<tag k="name" v="Store Skjellingshovde" />
		<tag k="natural" v="hill" />
		<tag k="place" v="locality" />
		<tag k="ssr:stedsnr" v="674776" />
	</node>
	<node lat="61.15686667098853" lon="9.672336102851107" id="-23604">
		<tag k="alt_name" v="Torrisknatten" />
		<tag k="fixme" v="consider natural=peak for the most distinct mountains in the district" />
		<tag k="name" v="Tørrisknattane" />
		<tag k="natural" v="hill" />
		<tag k="place" v="locality" />
		<tag k="ssr:stedsnr" v="675766" />
	</node>
	<node lat="61.14400277593054" lon="9.792849996466806" id="-23606">
		<tag k="fixme" v="consider natural=peak for the most distinct mountains in the district" />
		<tag k="name" v="Synnhallberga" />
		<tag k="natural" v="hill" />
		<tag k="place" v="locality" />
		<tag k="ssr:stedsnr" v="675771" />
	</node>
	<node lat="60.8691138884803" lon="9.839072228954091" id="-23611">
		<tag k="fixme" v="consider natural=peak for the most distinct mountains in the district" />
		<tag k="name" v="Ormpullhøgda" />
		<tag k="natural" v="hill" />
		<tag k="place" v="locality" />
		<tag k="ssr:stedsnr" v="676021" />
	</node>
	<node lat="60.87432222075348" lon="9.706866674435236" id="-23612">
		<tag k="name" v="Etnedalen" />
		<tag k="natural" v="valley" />
		<tag k="place" v="locality" />
		<tag k="ssr:stedsnr" v="676023" />
	</node>
	<node lat="60.87139722373007" lon="9.930180547525929" id="-23614">
		<tag k="fixme" v="consider natural=peak for the most distinct mountains in the district" />
		<tag k="name" v="Høgberget" />
		<tag k="natural" v="hill" />
		<tag k="place" v="locality" />
		<tag k="ssr:stedsnr" v="676030" />
	</node>
	<node lat="60.876399998339" lon="9.93032778021147" id="-23615">
		<tag k="alt_name" v="Øyvassknatten" />
		<tag k="fixme" v="consider natural=peak for the most distinct mountains in the district" />
		<tag k="name" v="Øyvassberget" />
		<tag k="natural" v="hill" />
		<tag k="place" v="locality" />
		<tag k="ssr:stedsnr" v="676032" />
	</node>
	<node lat="60.899502775298544" lon="9.921494442284137" id="-23617">
		<tag k="name" v="Kollhaugen" />
		<tag k="natural" v="hill" />
		<tag k="place" v="locality" />
		<tag k="ssr:stedsnr" v="676071" />
	</node>
	<node lat="60.91606666789671" lon="10.205916664585128" id="-23631">
		<tag k="fixme" v="consider natural=peak for the most distinct mountains in the district" />
		<tag k="name" v="Brattengshovde" />
		<tag k="natural" v="hill" />
		<tag k="old_name" v="Brattenghøgda;Brattenghovde" />
		<tag k="place" v="locality" />
		<tag k="ssr:stedsnr" v="676472" />
	</node>
	<node lat="60.79286388580016" lon="9.993180546507013" id="-23638">
		<tag k="name" v="Varphøgda" />
		<tag k="natural" v="hill" />
		<tag k="place" v="locality" />
		<tag k="ssr:stedsnr" v="676660" />
	</node>
	<node lat="60.97260000309145" lon="9.827574997861332" id="-23639">
		<tag k="fixme" v="consider natural=peak for the most distinct mountains in the district" />
		<tag k="name" v="Skogstadsæterberget" />
		<tag k="natural" v="hill" />
		<tag k="place" v="locality" />
		<tag k="ssr:stedsnr" v="676995" />
	</node>
	<node lat="60.93681388644566" lon="9.913116670463417" id="-23641">
		<tag k="fixme" v="consider natural=peak for the most distinct mountains in the district" />
		<tag k="name" v="Grotåsen" />
		<tag k="natural" v="hill" />
		<tag k="place" v="locality" />
		<tag k="ssr:stedsnr" v="677891" />
	</node>
	<node lat="60.803599998247826" lon="9.86347778450107" id="-23642">
		<tag k="alt_name" v="Orrhøgda" />
		<tag k="name" v="Orrhaugen" />
		<tag k="natural" v="hill" />
		<tag k="place" v="locality" />
		<tag k="ssr:stedsnr" v="677210" />
	</node>
	<node lat="60.834869444795636" lon="9.797363892368631" id="-23651">
		<tag k="name" v="Bakhovde" />
		<tag k="natural" v="slope" />
		<tag k="place" v="locality" />
		<tag k="ssr:stedsnr" v="479561" />
	</node>
	<node lat="61.1205694465668" lon="9.960516664760593" id="-23653">
		<tag k="name" v="Storlia" />
		<tag k="natural" v="slope" />
		<tag k="place" v="locality" />
		<tag k="ssr:stedsnr" v="481110" />
	</node>
	<node lat="60.771972224241416" lon="9.868775004232468" id="-23662">
		<tag k="name" v="Kråkhuguknatten" />
		<tag k="natural" v="hill" />
		<tag k="place" v="locality" />
		<tag k="ssr:stedsnr" v="482264" />
	</node>
	<node lat="60.88245000050302" lon="9.902611115791562" id="-23676">
		<tag k="fixme" v="consider natural=peak for the most distinct mountains in the district" />
		<tag k="name" v="Godhamnhøgda" />
		<tag k="natural" v="hill" />
		<tag k="place" v="locality" />
		<tag k="ssr:stedsnr" v="493113" />
	</node>
	<node lat="60.87448889151905" lon="10.11937500432317" id="-23677">
		<tag k="alt_name" v="Mærrabakken" />
		<tag k="name" v="Merrabakken" />
		<tag k="natural" v="slope" />
		<tag k="place" v="locality" />
		<tag k="ssr:stedsnr" v="493403" />
	</node>
	<node lat="60.95427500285575" lon="9.814691663362705" id="-23690">
		<tag k="alt_name" v="Utsikten" />
		<tag k="fixme" v="consider natural=peak for the most distinct mountains in the district" />
		<tag k="name" v="Røyskatthovde" />
		<tag k="natural" v="hill" />
		<tag k="place" v="locality" />
		<tag k="ssr:stedsnr" v="494904" />
	</node>
	<node lat="60.92797222061416" lon="9.870713884216775" id="-23698">
		<tag k="name" v="Steinsjøknatten" />
		<tag k="natural" v="hill" />
		<tag k="place" v="locality" />
		<tag k="ssr:stedsnr" v="524103" />
	</node>
	<node lat="61.01211666493526" lon="10.155477773249622" id="-23704">
		<tag k="name" v="Medvasshaugen" />
		<tag k="natural" v="hill" />
		<tag k="place" v="locality" />
		<tag k="ssr:stedsnr" v="540568" />
	</node>
	<node lat="60.898116663852555" lon="10.108847230056336" id="-23712">
		<tag k="fixme" v="consider natural=peak for the most distinct mountains in the district" />
		<tag k="name" v="Sameihøgda" />
		<tag k="natural" v="hill" />
		<tag k="place" v="locality" />
		<tag k="ssr:stedsnr" v="543074" />
	</node>
	<node lat="60.794161114221744" lon="9.883230547853604" id="-23716">
		<tag k="name" v="Høglia" />
		<tag k="natural" v="slope" />
		<tag k="place" v="locality" />
		<tag k="ssr:stedsnr" v="543313" />
	</node>
	<node lat="61.11014166864254" lon="9.999591666201093" id="-23727">
		<tag k="name" v="Storhaugen" />
		<tag k="natural" v="hill" />
		<tag k="place" v="locality" />
		<tag k="ssr:stedsnr" v="553004" />
	</node>
	<node lat="61.04888888869048" lon="9.992327779045732" id="-23728">
		<tag k="fixme" v="consider natural=peak for the most distinct mountains in the district" />
		<tag k="name" v="Nylsfjellet" />
		<tag k="natural" v="hill" />
		<tag k="place" v="locality" />
		<tag k="ssr:stedsnr" v="553043" />
	</node>
	<node lat="60.890163886020694" lon="9.85778056066848" id="-23741">
		<tag k="alt_name" v="Skrevshaug" />
		<tag k="fixme" v="consider natural=peak for the most distinct mountains in the district" />
		<tag k="name" v="Skrevsrudhøgda" />
		<tag k="natural" v="hill" />
		<tag k="place" v="locality" />
		<tag k="ssr:stedsnr" v="554120" />
	</node>
	<node lat="60.9633166700624" lon="10.180800002800604" id="-23748">
		<tag k="alt_name" v="Blesterlia" />
		<tag k="name" v="Blæsterlia" />
		<tag k="natural" v="slope" />
		<tag k="place" v="locality" />
		<tag k="ssr:stedsnr" v="554382" />
	</node>
	<node lat="60.96823055673679" lon="9.991661116472875" id="-23758">
		<tag k="alt_name" v="Ankopdalen" />
		<tag k="name" v="Aukopdalen" />
		<tag k="natural" v="valley" />
		<tag k="place" v="locality" />
		<tag k="ssr:stedsnr" v="555268" />
	</node>
	<node lat="60.97648055263935" lon="9.946836118833346" id="-23762">
		<tag k="name" v="Harstadfleina" />
		<tag k="natural" v="hill" />
		<tag k="place" v="locality" />
		<tag k="ssr:stedsnr" v="565698" />
	</node>
	<node lat="60.81437499557096" lon="9.813380562657793" id="-23768">
		<tag k="name" v="Nedre Tinton" />
		<tag k="natural" v="hill" />
		<tag k="place" v="locality" />
		<tag k="ssr:stedsnr" v="600498" />
	</node>
	<node lat="61.04381111396608" lon="10.074216666540135" id="-23771">
		<tag k="name" v="Nybrennlia" />
		<tag k="natural" v="slope" />
		<tag k="place" v="locality" />
		<tag k="ssr:stedsnr" v="602049" />
	</node>
	<node lat="61.08757499890301" lon="10.033497214903454" id="-23775">
		<tag k="name" v="Gravskarhaugene" />
		<tag k="natural" v="hill" />
		<tag k="place" v="locality" />
		<tag k="ssr:stedsnr" v="602602" />
	</node>
	<node lat="60.86325833509485" lon="10.23085277113638" id="-23779">
		<tag k="name" v="Nilselia" />
		<tag k="natural" v="slope" />
		<tag k="place" v="locality" />
		<tag k="ssr:stedsnr" v="602947" />
	</node>
	<node lat="61.04459721912512" lon="9.933108340268312" id="-23794">
		<tag k="name" v="Tverrålia" />
		<tag k="natural" v="slope" />
		<tag k="place" v="locality" />
		<tag k="ssr:stedsnr" v="604772" />
	</node>
	<node lat="60.84540000057399" lon="9.936550000412474" id="-23800">
		<tag k="alt_name" v="Esbjugkampen" />
		<tag k="fixme" v="consider natural=peak for the most distinct mountains in the district" />
		<tag k="name" v="Endrerudkampen" />
		<tag k="natural" v="hill" />
		<tag k="place" v="locality" />
		<tag k="ssr:stedsnr" v="614061" />
	</node>
	<node lat="60.985983336134" lon="9.987908328864615" id="-23823">
		<tag k="name" v="Kollskolten" />
		<tag k="natural" v="hill" />
		<tag k="place" v="locality" />
		<tag k="ssr:stedsnr" v="616306" />
	</node>
	<node lat="60.990255554034576" lon="9.860775009136676" id="-23831">
		<tag k="name" v="Oalsbakkene" />
		<tag k="natural" v="ridge" />
		<tag k="place" v="locality" />
		<tag k="ssr:stedsnr" v="706531" />
	</node>
	<node lat="60.87465000317974" lon="9.836424994228052" id="-23838">
		<tag k="name" v="Stuvlia" />
		<tag k="natural" v="slope" />
		<tag k="place" v="locality" />
		<tag k="ssr:stedsnr" v="706991" />
	</node>
	<node lat="61.03745833052277" lon="9.753850001136552" id="-23841">
		<tag k="name" v="Geitlie" />
		<tag k="natural" v="slope" />
		<tag k="place" v="locality" />
		<tag k="ssr:stedsnr" v="660859" />
	</node>
	<node lat="60.83258889312911" lon="10.223622230209479" id="-23847">
		<tag k="name" v="Saglia" />
		<tag k="natural" v="slope" />
		<tag k="place" v="locality" />
		<tag k="ssr:stedsnr" v="663987" />
	</node>
	<node lat="60.73571111056977" lon="10.01902499918964" id="-23861">
		<tag k="name" v="Fiskarhaugen" />
		<tag k="natural" v="hill" />
		<tag k="place" v="locality" />
		<tag k="ssr:stedsnr" v="674775" />
	</node>
	<node lat="61.0734999961332" lon="9.732077776334865" id="-23866">
		<tag k="name" v="Goddalen" />
		<tag k="natural" v="valley" />
		<tag k="place" v="locality" />
		<tag k="ssr:stedsnr" v="675645" />
	</node>
	<node lat="60.869980554234694" lon="9.859516662020946" id="-23873">
		<tag k="name" v="Leppdalen" />
		<tag k="natural" v="valley" />
		<tag k="place" v="locality" />
		<tag k="ssr:stedsnr" v="676016" />
	</node>
	<node lat="60.819466668001795" lon="10.197680554725528" id="-23879">
		<tag k="name" v="Veslehomdalen" />
		<tag k="natural" v="valley" />
		<tag k="place" v="locality" />
		<tag k="ssr:stedsnr" v="891401" />
	</node>
	<node lat="60.90058889013642" lon="9.99998611768401" id="-23881">
		<tag k="name" v="Dumlia" />
		<tag k="natural" v="slope" />
		<tag k="place" v="locality" />
		<tag k="ssr:stedsnr" v="676486" />
	</node>
	<node lat="60.99321388477172" lon="9.890999999302489" id="-23892">
		<tag k="fixme" v="consider natural=peak for the most distinct mountains in the district" />
		<tag k="name" v="Slotthaugen" />
		<tag k="natural" v="hill" />
		<tag k="place" v="locality" />
		<tag k="ssr:stedsnr" v="677784" />
	</node>
	<node lat="61.03422222448968" lon="10.129016664791262" id="-23906">
		<tag k="alt_name" v="Krokvassfjell" />
		<tag k="fixme" v="consider natural=peak for the most distinct mountains in the district" />
		<tag k="name" v="Krokvassfjellet" />
		<tag k="natural" v="hill" />
		<tag k="place" v="locality" />
		<tag k="ssr:stedsnr" v="735204" />
	</node>
	<node lat="61.07742971670746" lon="9.789672474128528" id="-23909">
		<tag k="name" v="Synnfjell" />
		<tag k="natural" v="mountain_range" />
		<tag k="ssr:stedsnr" v="735675" />
	</node>
</osm>
