<?xml version="1.0" encoding="UTF-8"?>
<osm version="0.6" generator="osmapis">
	<node lat="60.94651389186528" lon="9.824777776744016" id="-13973">
		<tag k="highway" v="path" />
		<tag k="name" v="Øyangsvegen" />
		<tag k="ssr:stedsnr" v="100681" />
	</node>
	<node lat="61.055516668947035" lon="9.903741668916773" id="-13992">
		<tag k="ford" v="yes" />
		<tag k="name" v="Tverråvadet" />
		<tag k="place" v="locality" />
		<tag k="ssr:stedsnr" v="250639" />
	</node>
	<node lat="60.833202777726136" lon="10.07527500658784" id="-14010">
		<tag k="name" v="Dokka stasjon" />
		<tag k="railway" v="station" />
		<tag k="ssr:stedsnr" v="119144" />
		<tag k="train" v="yes" />
	</node>
	<node lat="60.9286750003304" lon="10.0493083263254" id="-14121">
		<tag k="bridge" v="yes" />
		<tag k="layer" v="1" />
		<tag k="name" v="Lunde" />
		<tag k="ssr:stedsnr" v="168175" />
	</node>
	<node lat="60.909611108810964" lon="10.061897225235287" id="-14142">
		<tag k="fixme" v="consider highway=path" />
		<tag k="highway" v="track" />
		<tag k="name" v="Åbakkvegen" />
		<tag k="ssr:stedsnr" v="179922" />
	</node>
	<node lat="60.84961388834998" lon="9.928719436945197" id="-14178">
		<tag k="bridge" v="yes" />
		<tag k="layer" v="1" />
		<tag k="name" v="Kvernbekken" />
		<tag k="ssr:stedsnr" v="228181" />
	</node>
	<node lat="60.95291944062214" lon="9.82132500012375" id="-14181">
		<tag k="fixme" v="consider highway=path" />
		<tag k="highway" v="track" />
		<tag k="name" v="Øyangsvegen" />
		<tag k="ssr:stedsnr" v="236908" />
	</node>
	<node lat="61.00030555210644" lon="10.00317778367404" id="-14210">
		<tag k="bridge" v="yes" />
		<tag k="layer" v="1" />
		<tag k="name" v="Synna" />
		<tag k="ssr:stedsnr" v="289109" />
	</node>
	<node lat="60.792047219287525" lon="10.137505555830646" id="-14448">
		<tag k="bridge" v="yes" />
		<tag k="layer" v="1" />
		<tag k="name" v="Rostad" />
		<tag k="ssr:stedsnr" v="471112" />
	</node>
	<node lat="60.790866666860246" lon="10.158297222037273" id="-14449">
		<tag k="bridge" v="yes" />
		<tag k="layer" v="1" />
		<tag k="name" v="Våtbekken" />
		<tag k="ssr:stedsnr" v="471121" />
	</node>
	<node lat="60.800516664213454" lon="10.118030561508428" id="-14450">
		<tag k="bridge" v="yes" />
		<tag k="layer" v="1" />
		<tag k="name" v="Åvella" />
		<tag k="ssr:stedsnr" v="471122" />
	</node>
	<node lat="60.84855000148502" lon="9.926816665014067" id="-14552">
		<tag k="junction" v="yes" />
		<tag k="name" v="Endrerudresset" />
		<tag k="place" v="locality" />
		<tag k="ssr:stedsnr" v="542868" />
	</node>
	<node lat="60.83491111111726" lon="9.966338885626064" id="-14560">
		<tag k="junction" v="yes" />
		<tag k="name" v="Kveumskrysset" />
		<tag k="place" v="locality" />
		<tag k="ssr:stedsnr" v="543626" />
	</node>
	<node lat="60.899791662294184" lon="10.052283329103883" id="-14607">
		<tag k="bridge" v="yes" />
		<tag k="layer" v="1" />
		<tag k="name" v="Domma" />
		<tag k="ssr:stedsnr" v="592180" />
	</node>
	<node lat="60.83721388776616" lon="10.043786109059086" id="-14630">
		<tag k="highway" v="path" />
		<tag k="name" v="Gamle Bergenske Kongevei" />
		<tag k="ssr:stedsnr" v="604031" />
	</node>
	<node lat="60.828594445024926" lon="10.068763893497792" id="-14680">
		<tag k="bridge" v="yes" />
		<tag k="layer" v="1" />
		<tag k="name" v="Stenseng" />
		<tag k="ssr:stedsnr" v="653103" />
	</node>
	<node lat="60.828083336246294" lon="10.088633331167367" id="-14681">
		<tag k="bridge" v="yes" />
		<tag k="layer" v="1" />
		<tag k="name" v="Tonvoll" />
		<tag k="ssr:stedsnr" v="653106" />
	</node>
	<node lat="60.82913888789462" lon="10.065474993795505" id="-14735">
		<tag k="bridge" v="yes" />
		<tag k="layer" v="1" />
		<tag k="name" v="Døhlsveita" />
		<tag k="ssr:stedsnr" v="896184" />
	</node>
	<node lat="60.974130554507845" lon="10.109277773417162" id="-14736">
		<tag k="bridge" v="yes" />
		<tag k="layer" v="1" />
		<tag k="name" v="Vinjarelv" />
		<tag k="ssr:stedsnr" v="714105" />
	</node>
	<node lat="60.969633335522396" lon="10.099672222763457" id="-14901">
		<tag k="bridge" v="yes" />
		<tag k="layer" v="1" />
		<tag k="name" v="Vinjarelv" />
		<tag k="ssr:stedsnr" v="835130" />
	</node>
	<node lat="61.02631944140614" lon="10.001652769888503" id="-14904">
		<tag k="fixme" v="consider highway=path" />
		<tag k="highway" v="track" />
		<tag k="name" v="Langholvegen" />
		<tag k="ssr:stedsnr" v="845581" />
	</node>
	<node lat="60.967352774412596" lon="10.066805560221649" id="-14968">
		<tag k="bridge" v="yes" />
		<tag k="layer" v="1" />
		<tag k="name" v="Røste" />
		<tag k="ssr:stedsnr" v="896109" />
	</node>
	<node lat="60.838463891061586" lon="10.060200004645628" id="-14969">
		<tag k="bridge" v="yes" />
		<tag k="layer" v="1" />
		<tag k="name" v="Dokka" />
		<tag k="ssr:stedsnr" v="896674" />
	</node>
	<node lat="60.77834722415191" lon="9.97095278634356" id="-14970">
		<tag k="name" v="Flesa kanal" />
		<tag k="ssr:stedsnr" v="906507" />
		<tag k="waterway" v="canal" />
	</node>
	<node lat="60.96681666540027" lon="10.111988883423034" id="-15091">
		<tag k="bridge" v="yes" />
		<tag k="layer" v="1" />
		<tag k="name" v="Pudsrud" />
		<tag k="ssr:stedsnr" v="46118" />
	</node>
	<node lat="60.790172222384676" lon="10.143330552742702" id="-15159">
		<tag k="bridge" v="yes" />
		<tag k="layer" v="1" />
		<tag k="name" v="Rønningsbekken" />
		<tag k="ssr:stedsnr" v="107093" />
	</node>
	<node lat="61.1356472227008" lon="9.769922213544609" id="-15160">
		<tag k="bridge" v="yes" />
		<tag k="layer" v="1" />
		<tag k="name" v="Geitbekken" />
		<tag k="ssr:stedsnr" v="107146" />
	</node>
	<node lat="61.03040277345572" lon="10.2182777706667" id="-15244">
		<tag k="bridge" v="yes" />
		<tag k="layer" v="1" />
		<tag k="name" v="Storlondammen" />
		<tag k="ssr:stedsnr" v="168130" />
	</node>
	<node lat="60.843061107360526" lon="9.972383331768546" id="-15245">
		<tag k="bridge" v="yes" />
		<tag k="layer" v="1" />
		<tag k="name" v="Ulfshus" />
		<tag k="ssr:stedsnr" v="168131" />
	</node>
	<node lat="60.810013886866145" lon="10.062475005201124" id="-15268">
		<tag k="fixme" v="consider highway=path" />
		<tag k="highway" v="track" />
		<tag k="name" v="Huldreputtvegen" />
		<tag k="ssr:stedsnr" v="179188" />
	</node>
	<node lat="60.84293611524849" lon="10.242936114727433" id="-15339">
		<tag k="bridge" v="yes" />
		<tag k="layer" v="1" />
		<tag k="name" v="Puffen" />
		<tag k="ssr:stedsnr" v="228170" />
	</node>
	<node lat="60.89721944355201" lon="10.072827780441056" id="-15340">
		<tag k="bridge" v="yes" />
		<tag k="layer" v="1" />
		<tag k="name" v="Djupå bru" />
		<tag k="ssr:stedsnr" v="228175" />
	</node>
	<node lat="60.932413884767755" lon="10.12111110313953" id="-15373">
		<tag k="fixme" v="consider highway=path" />
		<tag k="highway" v="track" />
		<tag k="name" v="Engevegen" />
		<tag k="ssr:stedsnr" v="300934" />
	</node>
	<node lat="60.8425638854949" lon="10.060691672809806" id="-15430">
		<tag k="bridge" v="yes" />
		<tag k="layer" v="1" />
		<tag k="name" v="Dokka" />
		<tag k="ssr:stedsnr" v="349201" />
	</node>
	<node lat="60.915763891364115" lon="10.04318055127159" id="-15471">
		<tag k="fixme" v="consider highway=path" />
		<tag k="highway" v="track" />
		<tag k="name" v="Harstad skogsbilveg" />
		<tag k="ssr:stedsnr" v="361924" />
	</node>
	<node lat="60.86999166580321" lon="10.052330556717765" id="-15521">
		<tag k="bridge" v="yes" />
		<tag k="layer" v="1" />
		<tag k="name" v="Fjordingsbekken" />
		<tag k="ssr:stedsnr" v="410173" />
	</node>
	<node lat="61.02902500292834" lon="9.865369436936327" id="-15522">
		<tag k="bridge" v="yes" />
		<tag k="layer" v="1" />
		<tag k="name" v="Kvernbekken" />
		<tag k="ssr:stedsnr" v="410176" />
	</node>
	<node lat="60.82343333714916" lon="10.073191670163903" id="-15523">
		<tag k="bridge" v="yes" />
		<tag k="layer" v="1" />
		<tag k="name" v="Kolbjørnshus" />
		<tag k="ssr:stedsnr" v="410177" />
	</node>
	<node lat="60.96653610973487" lon="10.123338894582709" id="-15632">
		<tag k="bridge" v="yes" />
		<tag k="layer" v="1" />
		<tag k="name" v="Engset" />
		<tag k="ssr:stedsnr" v="532159" />
	</node>
	<node lat="60.983694447327814" lon="10.11970278651261" id="-15651">
		<tag k="highway" v="path" />
		<tag k="name" v="Vinjarsætervegen" />
		<tag k="ssr:stedsnr" v="543006" />
	</node>
	<node lat="60.83045000302047" lon="10.059263883587393" id="-15709">
		<tag k="bridge" v="yes" />
		<tag k="layer" v="1" />
		<tag k="name" v="Døhlsholmen" />
		<tag k="ssr:stedsnr" v="592182" />
	</node>
	<node lat="61.02850555561118" lon="9.873911113757428" id="-15710">
		<tag k="bridge" v="yes" />
		<tag k="layer" v="1" />
		<tag k="name" v="Kampebekken" />
		<tag k="ssr:stedsnr" v="592184" />
	</node>
	<node lat="60.96584166541722" lon="10.10619722639543" id="-15711">
		<tag k="bridge" v="yes" />
		<tag k="layer" v="1" />
		<tag k="name" v="Pudsrud" />
		<tag k="ssr:stedsnr" v="592119" />
	</node>
	<node lat="60.966355556942986" lon="10.09162777155336" id="-15792">
		<tag k="bridge" v="yes" />
		<tag k="layer" v="1" />
		<tag k="name" v="Røstebekken" />
		<tag k="ssr:stedsnr" v="653102" />
	</node>
	<node lat="60.955208332519256" lon="10.120266663517686" id="-15793">
		<tag k="bridge" v="yes" />
		<tag k="layer" v="1" />
		<tag k="name" v="Grindbekken" />
		<tag k="ssr:stedsnr" v="653164" />
	</node>
	<node lat="61.156219446392946" lon="9.829391675170488" id="-15812">
		<tag k="junction" v="yes" />
		<tag k="name" v="Oppsjøkrysset" />
		<tag k="place" v="locality" />
		<tag k="ssr:stedsnr" v="664358" />
	</node>
	<node lat="60.84568889110652" lon="10.112313881688257" id="-15821">
		<tag k="amenity" v="parking" />
		<tag k="name" v="Nybakktåjet" />
		<tag k="ssr:stedsnr" v="665025" />
	</node>
	<node lat="60.8407500013" lon="9.882286108841397" id="-15825">
		<tag k="bridge" v="yes" />
		<tag k="layer" v="1" />
		<tag k="name" v="Leppa" />
		<tag k="ssr:stedsnr" v="714151" />
	</node>
	<node lat="60.838124999769676" lon="10.0593138840973" id="-15914">
		<tag k="bridge" v="yes" />
		<tag k="layer" v="1" />
		<tag k="name" v="Moen undergang" />
		<tag k="ssr:stedsnr" v="774191" />
	</node>
	<node lat="60.988519446738565" lon="10.138669437449982" id="-16001">
		<tag k="highway" v="path" />
		<tag k="name" v="Vinjarsætervegen" />
		<tag k="ssr:stedsnr" v="812397" />
	</node>
	<node lat="60.87098333267897" lon="10.138994446379833" id="-16010">
		<tag k="highway" v="path" />
		<tag k="name" v="Gamle Bergsætervegen" />
		<tag k="ssr:stedsnr" v="844199" />
	</node>
	<node lat="60.77346666968436" lon="9.976441674817597" id="-16018">
		<tag k="name" v="Flesa kanal" />
		<tag k="ssr:stedsnr" v="846591" />
		<tag k="waterway" v="canal" />
	</node>
	<node lat="60.98829444523092" lon="10.067513889483912" id="-16096">
		<tag k="bridge" v="yes" />
		<tag k="layer" v="1" />
		<tag k="name" v="Valhovd" />
		<tag k="ssr:stedsnr" v="957123" />
	</node>
	<node lat="60.826980555300956" lon="9.79730554672929" id="-16097">
		<tag k="bridge" v="yes" />
		<tag k="layer" v="1" />
		<tag k="name" v="Høljerasta" />
		<tag k="ssr:stedsnr" v="957171" />
	</node>
	<node lat="60.84328055118309" lon="9.875702779190354" id="-16098">
		<tag k="bridge" v="yes" />
		<tag k="layer" v="1" />
		<tag k="name" v="Leppa" />
		<tag k="ssr:stedsnr" v="957175" />
	</node>
	<node lat="61.01010751459188" lon="10.14225317837439" id="-16101">
		<tag k="name" v="Dokkfløylegga" />
		<tag k="place" v="locality" />
		<tag k="ssr:stedsnr" v="964549" />
	</node>
</osm>
