<?xml version="1.0" encoding="UTF-8"?>
<osm generator="osmapis" version="0.6">
	<node id="-151639" lat="60.5908609473" lon="9.63819281559">
		<tag k="fixme" v="multiple name tags, choose one and add the other to alt_name" />
		<tag k="name" v="Austlandet;Østlandet" />
		<tag k="ssr:date" v="2018-01-09" />
		<tag k="ssr:gruppe" v="administrativeIndelinger" />
		<tag k="ssr:hovedgruppe" v="offentligAdministrasjon" />
		<tag k="ssr:stedsnr" v="974775" />
		<tag k="ssr:type" v="annenAdministrativInndeling" />
	</node>
	<node id="-149872" lat="60.9674944435" lon="9.3486444364">
		<tag k="alt_name" v="Kælvedalslina" />
		<tag k="name" v="Kalvedalslina" />
		<tag k="ssr:date" v="2018-09-21" />
		<tag k="ssr:gruppe" v="energi" />
		<tag k="ssr:hovedgruppe" v="infrastruktur" />
		<tag k="ssr:stedsnr" v="422234" />
		<tag k="ssr:type" v="kraftledning" />
	</node>
	<node id="-148941" lat="61.1663053871" lon="9.47066474701">
		<tag k="name" v="Fullsenn" />
		<tag k="ssr:date" v="2019-05-30" />
		<tag k="ssr:gruppe" v="veg" />
		<tag k="ssr:hovedgruppe" v="infrastruktur" />
		<tag k="ssr:stedsnr" v="1015028" />
		<tag k="ssr:type" v="adressenavn" />
	</node>
	<node id="-148940" lat="61.1261898454" lon="9.60567656062">
		<tag k="name" v="Kølhus" />
		<tag k="ssr:date" v="2019-05-30" />
		<tag k="ssr:gruppe" v="veg" />
		<tag k="ssr:hovedgruppe" v="infrastruktur" />
		<tag k="ssr:stedsnr" v="1015023" />
		<tag k="ssr:type" v="adressenavn" />
	</node>
	<node id="-148939" lat="61.13316749" lon="9.58412707487">
		<tag k="name" v="Skreolægeret" />
		<tag k="ssr:date" v="2019-05-30" />
		<tag k="ssr:gruppe" v="veg" />
		<tag k="ssr:hovedgruppe" v="infrastruktur" />
		<tag k="ssr:stedsnr" v="1015022" />
		<tag k="ssr:type" v="adressenavn" />
	</node>
	<node id="-148938" lat="61.1216212804" lon="9.63057076847">
		<tag k="name" v="Hunnslægeret" />
		<tag k="ssr:date" v="2019-05-30" />
		<tag k="ssr:gruppe" v="veg" />
		<tag k="ssr:hovedgruppe" v="infrastruktur" />
		<tag k="ssr:stedsnr" v="1015020" />
		<tag k="ssr:type" v="adressenavn" />
	</node>
	<node id="-148937" lat="61.0182942831" lon="9.31437362031">
		<tag k="name" v="Leirin" />
		<tag k="ssr:date" v="2019-05-30" />
		<tag k="ssr:gruppe" v="veg" />
		<tag k="ssr:hovedgruppe" v="infrastruktur" />
		<tag k="ssr:stedsnr" v="1015019" />
		<tag k="ssr:type" v="adressenavn" />
	</node>
	<node id="-148936" lat="61.1389046645" lon="9.57175244866">
		<tag k="name" v="Smørhamar" />
		<tag k="ssr:date" v="2019-05-30" />
		<tag k="ssr:gruppe" v="veg" />
		<tag k="ssr:hovedgruppe" v="infrastruktur" />
		<tag k="ssr:stedsnr" v="1015017" />
		<tag k="ssr:type" v="adressenavn" />
	</node>
	<node id="-148935" lat="60.8327114715" lon="9.0519146068">
		<tag k="name" v="Svenisføssen" />
		<tag k="ssr:date" v="2019-05-30" />
		<tag k="ssr:gruppe" v="veg" />
		<tag k="ssr:hovedgruppe" v="infrastruktur" />
		<tag k="ssr:stedsnr" v="1014892" />
		<tag k="ssr:type" v="adressenavn" />
	</node>
	<node id="-151009" lat="61.0033805516" lon="9.31540277592">
		<tag k="name" v="Raukøllhallvegen" />
		<tag k="ssr:date" v="2016-05-11" />
		<tag k="ssr:gruppe" v="veg" />
		<tag k="ssr:hovedgruppe" v="infrastruktur" />
		<tag k="ssr:stedsnr" v="786521" />
		<tag k="ssr:type" v="vegstrekning" />
	</node>
	<node id="-150913" lat="60.9853172215" lon="9.23664391703">
		<tag k="alt_name" v="Rådhus" />
		<tag k="name" v="Nord-Aurdal kommune" />
		<tag k="ssr:date" v="2018-11-20" />
		<tag k="ssr:gruppe" v="administrativeIndelinger" />
		<tag k="ssr:hovedgruppe" v="offentligAdministrasjon" />
		<tag k="ssr:stedsnr" v="751779" />
		<tag k="ssr:type" v="kommune" />
	</node>
</osm>
