<?xml version="1.0" encoding="UTF-8"?>
<osm generator="osmapis" version="0.6">
	<node id="-110589" lat="62.1022833319" lon="9.06660833883">
		<tag k="highway" v="path" />
		<tag k="name" v="Lokkarvegen" />
		<tag k="ssr:stedsnr" v="171864" />
	</node>
	<node id="-111097" lat="62.1347166668" lon="8.66931111271">
		<tag k="fixme" v="consider highway=path" />
		<tag k="highway" v="track" />
		<tag k="name" v="Hosetveien" />
		<tag k="ssr:stedsnr" v="595381" />
	</node>
	<node id="-110071" lat="62.2165027754" lon="8.51837499603">
		<tag k="highway" v="path" />
		<tag k="name" v="Kvaslådroge" />
		<tag k="ssr:stedsnr" v="353506" />
	</node>
	<node id="-111606" lat="62.1411472219" lon="8.65721388871">
		<tag k="highway" v="path" />
		<tag k="name" v="Måsådroge" />
		<tag k="ssr:stedsnr" v="839521" />
	</node>
	<node id="-111091" lat="62.0815166684" lon="9.03156111351">
		<tag k="bridge" v="yes" />
		<tag k="layer" v="1" />
		<tag k="name" v="Kvernå" />
		<tag k="ssr:stedsnr" v="591355" />
	</node>
	<node id="-111601" lat="62.2349527806" lon="8.24534723075">
		<tag k="aeroway" v="airstrip" />
		<tag k="name" v="Bjorli flyplass" />
		<tag k="ssr:stedsnr" v="839171" />
	</node>
	<node id="-110576" lat="62.1337805535" lon="8.73399721388">
		<tag k="fixme" v="consider highway=path" />
		<tag k="highway" v="track" />
		<tag k="name" v="Brattstigen" />
		<tag k="ssr:stedsnr" v="171384" />
	</node>
	<node id="-110575" lat="62.1748916631" lon="8.5947666673">
		<tag k="ford" v="yes" />
		<tag k="name" v="Sandbrua" />
		<tag k="place" v="locality" />
		<tag k="ssr:stedsnr" v="171309" />
	</node>
	<node id="-110571" lat="62.2426694488" lon="8.19280833453">
		<tag k="fixme" v="consider highway=path" />
		<tag k="highway" v="track" />
		<tag k="name" v="Bøligeilen" />
		<tag k="ssr:stedsnr" v="171144" />
	</node>
	<node id="-111594" lat="62.2317555523" lon="8.38544166287">
		<tag k="bridge" v="yes" />
		<tag k="layer" v="1" />
		<tag k="name" v="Nordre Skottå" />
		<tag k="ssr:stedsnr" v="835530" />
	</node>
	<node id="-110566" lat="62.1239388907" lon="8.64121388326">
		<tag k="barrier" v="lift_gate" />
		<tag k="name" v="Lordalsbommen" />
		<tag k="place" v="locality" />
		<tag k="ssr:stedsnr" v="169774" />
	</node>
	<node id="-110564" lat="62.202677775" lon="8.49008334181">
		<tag k="bridge" v="yes" />
		<tag k="layer" v="1" />
		<tag k="name" v="Fotfola" />
		<tag k="ssr:stedsnr" v="167391" />
	</node>
	<node id="-110585" lat="62.0853972225" lon="8.9391694538">
		<tag k="highway" v="path" />
		<tag k="name" v="Måsådroge" />
		<tag k="ssr:stedsnr" v="171783" />
	</node>
	<node id="-111345" lat="62.1579416653" lon="8.67033889263">
		<tag k="bridge" v="yes" />
		<tag k="layer" v="1" />
		<tag k="name" v="Motterudåa" />
		<tag k="ssr:stedsnr" v="713375" />
	</node>
	<node id="-111029" lat="62.2814250013" lon="8.13758055244">
		<tag k="name" v="Stuguflåten" />
		<tag k="railway" v="station" />
		<tag k="ssr:stedsnr" v="556164" />
		<tag k="train" v="yes" />
	</node>
	<node id="-109989" lat="62.1042777751" lon="8.90649443945">
		<tag k="highway" v="path" />
		<tag k="name" v="Øyadroge" />
		<tag k="ssr:stedsnr" v="293987" />
	</node>
	<node id="-110493" lat="62.168024998" lon="8.7021472263">
		<tag k="man_made" v="cairn" />
		<tag k="name" v="Varden" />
		<tag k="place" v="locality" />
		<tag k="ssr:stedsnr" v="112701" />
	</node>
	<node id="-110234" lat="62.1393777803" lon="8.97667222764">
		<tag k="highway" v="path" />
		<tag k="name" v="Vetlkroken" />
		<tag k="ssr:stedsnr" v="475942" />
	</node>
	<node id="-109973" lat="62.137327781" lon="8.78639443935">
		<tag k="highway" v="path" />
		<tag k="name" v="Avdemsdroge" />
		<tag k="ssr:stedsnr" v="293562" />
	</node>
	<node id="-109972" lat="62.1536805518" lon="8.8121416607">
		<tag k="highway" v="path" />
		<tag k="name" v="Tandvegen" />
		<tag k="ssr:stedsnr" v="293554" />
	</node>
	<node id="-110995" lat="62.0669694446" lon="9.00011943604">
		<tag k="bridge" v="yes" />
		<tag k="layer" v="1" />
		<tag k="name" v="Øvre kloppe" />
		<tag k="ssr:stedsnr" v="535740" />
	</node>
	<node id="-111504" lat="62.2016555536" lon="8.88345555198">
		<tag k="highway" v="path" />
		<tag k="name" v="Klukkardroge" />
		<tag k="ssr:stedsnr" v="778902" />
	</node>
	<node id="-110388" lat="62.1615722267" lon="8.65075555787">
		<tag k="fixme" v="consider highway=path" />
		<tag k="highway" v="track" />
		<tag k="name" v="Risgeilen" />
		<tag k="ssr:stedsnr" v="51713" />
	</node>
	<node id="-110475" lat="62.1045444433" lon="8.80655277362">
		<tag k="highway" v="path" />
		<tag k="name" v="Søre Droge" />
		<tag k="ssr:stedsnr" v="111627" />
	</node>
	<node id="-109962" lat="62.1016472216" lon="9.04032222521">
		<tag k="highway" v="path" />
		<tag k="name" v="Slettmodroge" />
		<tag k="ssr:stedsnr" v="292903" />
	</node>
	<node id="-110472" lat="62.2203555559" lon="8.51377777798">
		<tag k="highway" v="path" />
		<tag k="name" v="Lykkjedroge" />
		<tag k="ssr:stedsnr" v="111472" />
	</node>
	<node id="-111495" lat="62.0645499998" lon="9.02569999203">
		<tag k="highway" v="path" />
		<tag k="name" v="Gamle setervegen" />
		<tag k="ssr:stedsnr" v="778737" />
	</node>
	<node id="-110470" lat="62.2006861105" lon="8.54958332715">
		<tag k="highway" v="path" />
		<tag k="name" v="Torsplassdroge" />
		<tag k="ssr:stedsnr" v="111346" />
	</node>
	<node id="-111493" lat="62.2759666696" lon="8.67287777019">
		<tag k="highway" v="path" />
		<tag k="name" v="Merrabottvegen" />
		<tag k="ssr:stedsnr" v="778718" />
	</node>
	<node id="-111490" lat="62.2398888859" lon="8.82981666961">
		<tag k="junction" v="yes" />
		<tag k="name" v="Kvitakrysset" />
		<tag k="place" v="locality" />
		<tag k="ssr:stedsnr" v="778693" />
	</node>
	<node id="-110973" lat="62.2081611134" lon="8.33567500348">
		<tag k="highway" v="path" />
		<tag k="name" v="Skriu" />
		<tag k="ssr:stedsnr" v="535063" />
	</node>
	<node id="-110058" lat="62.2628305514" lon="8.19523888694">
		<tag k="bridge" v="yes" />
		<tag k="layer" v="1" />
		<tag k="name" v="Bøverå" />
		<tag k="ssr:stedsnr" v="349440" />
	</node>
	<node id="-110970" lat="62.1251222215" lon="8.76077499702">
		<tag k="bridge" v="yes" />
		<tag k="layer" v="1" />
		<tag k="name" v="Lyftingsmo" />
		<tag k="ssr:stedsnr" v="531393" />
	</node>
	<node id="-110969" lat="62.1031444468" lon="8.86016111042">
		<tag k="bridge" v="yes" />
		<tag k="layer" v="1" />
		<tag k="name" v="Nestandå" />
		<tag k="ssr:stedsnr" v="531390" />
	</node>
	<node id="-110968" lat="62.1184222185" lon="8.85786667297">
		<tag k="bridge" v="yes" />
		<tag k="layer" v="1" />
		<tag k="name" v="Lesja" />
		<tag k="ssr:stedsnr" v="531385" />
	</node>
	<node id="-110450" lat="62.1336805572" lon="8.63332222949">
		<tag k="highway" v="path" />
		<tag k="name" v="Tverrbergdroge" />
		<tag k="ssr:stedsnr" v="110435" />
	</node>
	<node id="-110449" lat="62.1359583335" lon="8.66681111857">
		<tag k="fixme" v="consider highway=path" />
		<tag k="highway" v="track" />
		<tag k="name" v="Hågåveien" />
		<tag k="ssr:stedsnr" v="110423" />
	</node>
	<node id="-111472" lat="62.2521388879" lon="8.23190832993">
		<tag k="highway" v="path" />
		<tag k="name" v="Gustvegen" />
		<tag k="ssr:stedsnr" v="778133" />
	</node>
	<node id="-111468" lat="62.2652444402" lon="8.17968334015">
		<tag k="bridge" v="yes" />
		<tag k="layer" v="1" />
		<tag k="name" v="Bakkebekk" />
		<tag k="ssr:stedsnr" v="774417" />
	</node>
	<node id="-111454" lat="62.103508329" lon="9.00838055863">
		<tag k="alt_name" v="Bottheim" />
		<tag k="name" v="Bottheim stasjon" />
		<tag k="railway" v="station" />
		<tag k="ssr:stedsnr" v="739881" />
		<tag k="train" v="yes" />
	</node>
	<node id="-110903" lat="62.2317694426" lon="8.39760555361">
		<tag k="alt_name" v="Skottå søndre" />
		<tag k="bridge" v="yes" />
		<tag k="layer" v="1" />
		<tag k="loc_name" v="Sørskottåbrue" />
		<tag k="name" v="Søndre Skottå" />
		<tag k="ssr:stedsnr" v="470486" />
	</node>
	<node id="-110902" lat="62.2372472228" lon="8.39079999977">
		<tag k="bridge" v="yes" />
		<tag k="layer" v="1" />
		<tag k="name" v="Skottå" />
		<tag k="ssr:stedsnr" v="470485" />
	</node>
	<node id="-110901" lat="62.1184222241" lon="8.86330833275">
		<tag k="bridge" v="yes" />
		<tag k="layer" v="1" />
		<tag k="name" v="Lesja sentrum" />
		<tag k="ssr:stedsnr" v="470348" />
	</node>
	<node id="-110900" lat="62.0707944479" lon="9.04950833416">
		<tag k="bridge" v="yes" />
		<tag k="layer" v="1" />
		<tag k="name" v="Borgå" />
		<tag k="ssr:stedsnr" v="470339" />
	</node>
	<node id="-111408" lat="62.1672361085" lon="8.6815472161">
		<tag k="highway" v="path" />
		<tag k="name" v="Søre Skrøydroge" />
		<tag k="ssr:stedsnr" v="719636" />
	</node>
	<node id="-111496" lat="62.0562722199" lon="9.01252222238">
		<tag k="highway" v="path" />
		<tag k="name" v="Fauttjønnråket" />
		<tag k="ssr:stedsnr" v="778739" />
	</node>
	<node id="-110381" lat="62.2463361152" lon="8.12561943655">
		<tag k="ford" v="yes" />
		<tag k="name" v="Stølvadet" />
		<tag k="place" v="locality" />
		<tag k="ssr:stedsnr" v="51254" />
	</node>
	<node id="-111403" lat="62.1649972267" lon="8.4876638873">
		<tag k="highway" v="path" />
		<tag k="name" v="Kvitskriudroge" />
		<tag k="ssr:stedsnr" v="718521" />
	</node>
	<node id="-110372" lat="62.0818833314" lon="8.90058333682">
		<tag k="highway" v="path" />
		<tag k="name" v="Lurvedroge" />
		<tag k="ssr:stedsnr" v="50987" />
	</node>
	<node id="-111494" lat="62.1229777788" lon="8.85018888994">
		<tag k="highway" v="path" />
		<tag k="name" v="Skamsdalsdroge" />
		<tag k="ssr:stedsnr" v="778730" />
	</node>
	<node id="-110369" lat="62.1491611129" lon="8.87945277083">
		<tag k="fixme" v="consider highway=path" />
		<tag k="highway" v="track" />
		<tag k="name" v="Gamlevegen" />
		<tag k="ssr:stedsnr" v="50929" />
	</node>
	<node id="-110363" lat="62.0965666636" lon="9.09709445199">
		<tag k="highway" v="path" />
		<tag k="name" v="Steinvegen" />
		<tag k="ssr:stedsnr" v="50810" />
	</node>
	<node id="-111380" lat="62.080297224" lon="9.00168889813">
		<tag k="fixme" v="consider highway=path" />
		<tag k="highway" v="track" />
		<tag k="name" v="Bottheimsætervegen" />
		<tag k="ssr:stedsnr" v="717805" />
	</node>
	<node id="-110353" lat="62.1732361152" lon="8.70291110274">
		<tag k="highway" v="path" />
		<tag k="name" v="Åvangsdroge" />
		<tag k="ssr:stedsnr" v="50629" />
	</node>
	<node id="-110351" lat="62.2273111113" lon="8.78836667159">
		<tag k="highway" v="path" />
		<tag k="name" v="Skardråket" />
		<tag k="ssr:stedsnr" v="50618" />
	</node>
	<node id="-110343" lat="62.217930558" lon="8.51436388067">
		<tag k="highway" v="path" />
		<tag k="name" v="Merrabotdroge" />
		<tag k="ssr:stedsnr" v="50460" />
	</node>
	<node id="-110342" lat="62.1297944465" lon="8.67089444457">
		<tag k="highway" v="path" />
		<tag k="name" v="Brentsagveien" />
		<tag k="ssr:stedsnr" v="50398" />
	</node>
	<node id="-111365" lat="62.1303499982" lon="8.64906944122">
		<tag k="highway" v="path" />
		<tag k="name" v="Haukrustveien" />
		<tag k="ssr:stedsnr" v="717430" />
	</node>
	<node id="-110326" lat="62.2311083363" lon="8.38510000795">
		<tag k="bridge" v="yes" />
		<tag k="layer" v="1" />
		<tag k="name" v="Slettum" />
		<tag k="ssr:stedsnr" v="46537" />
	</node>
	<node id="-110325" lat="62.1071722252" lon="8.90545554697">
		<tag k="bridge" v="yes" />
		<tag k="layer" v="1" />
		<tag k="name" v="Hattremsbekken" />
		<tag k="ssr:stedsnr" v="46400" />
	</node>
	<node id="-110324" lat="62.1911305573" lon="8.54691665939">
		<tag k="bridge" v="yes" />
		<tag k="layer" v="1" />
		<tag k="name" v="Kirkå" />
		<tag k="ssr:stedsnr" v="46399" />
	</node>
	<node id="-111857" lat="62.1406749981" lon="9.05266389727">
		<tag k="highway" v="path" />
		<tag k="name" v="Tungråket" />
		<tag k="ssr:stedsnr" v="960862" />
	</node>
	<node id="-111344" lat="62.246441668" lon="8.21771388648">
		<tag k="bridge" v="yes" />
		<tag k="layer" v="1" />
		<tag k="name" v="Rånå" />
		<tag k="ssr:stedsnr" v="713372" />
	</node>
	<node id="-111851" lat="62.1339944463" lon="8.81462499642">
		<tag k="highway" v="path" />
		<tag k="name" v="Måsådroge" />
		<tag k="ssr:stedsnr" v="960723" />
	</node>
	<node id="-110818" lat="62.0686111068" lon="9.00428333922">
		<tag k="bridge" v="yes" />
		<tag k="layer" v="1" />
		<tag k="name" v="Nedre kloppe" />
		<tag k="ssr:stedsnr" v="414727" />
	</node>
	<node id="-111840" lat="62.1276583289" lon="8.63407778047">
		<tag k="highway" v="path" />
		<tag k="name" v="Langrustveien" />
		<tag k="ssr:stedsnr" v="960410" />
	</node>
	<node id="-110815" lat="62.1529500043" lon="8.79212500323">
		<tag k="name" v="Vassveite" />
		<tag k="ssr:stedsnr" v="414563" />
		<tag k="waterway" v="canal" />
	</node>
	<node id="-111834" lat="62.1795833324" lon="8.57792221531">
		<tag k="ford" v="yes" />
		<tag k="name" v="Vadbrua" />
		<tag k="place" v="locality" />
		<tag k="ssr:stedsnr" v="960306" />
	</node>
	<node id="-111833" lat="62.2291055565" lon="8.15484166335">
		<tag k="highway" v="path" />
		<tag k="name" v="Måsadroge" />
		<tag k="ssr:stedsnr" v="960140" />
	</node>
	<node id="-110457" lat="62.232811115" lon="8.33595556276">
		<tag k="bridge" v="yes" />
		<tag k="layer" v="1" />
		<tag k="name" v="Kråssbrue" />
		<tag k="ssr:stedsnr" v="111096" />
	</node>
	<node id="-111826" lat="62.2358805559" lon="8.31388055649">
		<tag k="bridge" v="yes" />
		<tag k="layer" v="1" />
		<tag k="name" v="Sørenebo" />
		<tag k="ssr:stedsnr" v="956546" />
	</node>
	<node id="-111825" lat="62.2305388885" lon="8.35011945207">
		<tag k="bridge" v="yes" />
		<tag k="layer" v="1" />
		<tag k="name" v="Mølmen" />
		<tag k="ssr:stedsnr" v="956417" />
	</node>
	<node id="-111274" lat="62.2585582612" lon="8.20150266411">
		<tag k="alt_name" v="Bjorli" />
		<tag k="name" v="Bjorli stasjon" />
		<tag k="railway" v="station" />
		<tag k="ssr:stedsnr" v="678152" />
		<tag k="train" v="yes" />
	</node>
	<node id="-110247" lat="62.210872218" lon="8.46781945269">
		<tag k="bridge" v="yes" />
		<tag k="layer" v="1" />
		<tag k="name" v="Sangro" />
		<tag k="ssr:stedsnr" v="895369" />
	</node>
	<node id="-110246" lat="62.2272750025" lon="8.42158888779">
		<tag k="bridge" v="yes" />
		<tag k="layer" v="1" />
		<tag k="name" v="Brandli" />
		<tag k="ssr:stedsnr" v="895367" />
	</node>
	<node id="-111387" lat="62.1370222205" lon="9.01435555555">
		<tag k="highway" v="path" />
		<tag k="name" v="Årbogvegen" />
		<tag k="ssr:stedsnr" v="717884" />
	</node>
	<node id="-111264" lat="62.1157666704" lon="8.97956945323">
		<tag k="fixme" v="consider highway=path" />
		<tag k="highway" v="track" />
		<tag k="name" v="Bottemsveien" />
		<tag k="ssr:stedsnr" v="657950" />
	</node>
	<node id="-110238" lat="62.0987361099" lon="8.92202500038">
		<tag k="fixme" v="consider highway=path" />
		<tag k="highway" v="track" />
		<tag k="name" v="Gamle Slådalsvegen" />
		<tag k="ssr:stedsnr" v="475981" />
	</node>
	<node id="-111258" lat="62.1402472195" lon="9.02943611747">
		<tag k="bridge" v="yes" />
		<tag k="layer" v="1" />
		<tag k="name" v="Kloppe" />
		<tag k="ssr:stedsnr" v="657850" />
	</node>
	<node id="-110229" lat="62.1343694468" lon="8.85695832949">
		<tag k="highway" v="path" />
		<tag k="name" v="Kvitråket" />
		<tag k="ssr:stedsnr" v="475737" />
	</node>
	<node id="-110221" lat="62.1035694402" lon="8.68328889364">
		<tag k="fixme" v="consider highway=path" />
		<tag k="highway" v="track" />
		<tag k="name" v="Viggeveien" />
		<tag k="ssr:stedsnr" v="475571" />
	</node>
	<node id="-110220" lat="62.1022583325" lon="8.73398333985">
		<tag k="fixme" v="consider highway=path" />
		<tag k="highway" v="track" />
		<tag k="name" v="Søre Viggeveien" />
		<tag k="ssr:stedsnr" v="475552" />
	</node>
	<node id="-111240" lat="62.2287250003" lon="8.26348889681">
		<tag k="fixme" v="consider highway=path" />
		<tag k="highway" v="track" />
		<tag k="name" v="Fiskemyrvegen" />
		<tag k="ssr:stedsnr" v="657060" />
	</node>
	<node id="-111234" lat="62.0891166644" lon="8.83319444886">
		<tag k="highway" v="path" />
		<tag k="name" v="Prestdroge" />
		<tag k="ssr:stedsnr" v="656654" />
	</node>
	<node id="-111232" lat="62.1498666711" lon="8.80660278628">
		<tag k="highway" v="path" />
		<tag k="name" v="Horrungsvegen" />
		<tag k="ssr:stedsnr" v="656572" />
	</node>
	<node id="-111229" lat="62.1469833346" lon="8.7015666578">
		<tag k="highway" v="path" />
		<tag k="name" v="Jøranstaddroge" />
		<tag k="ssr:stedsnr" v="656542" />
	</node>
	<node id="-111739" lat="62.0548999994" lon="8.94976389022">
		<tag k="highway" v="path" />
		<tag k="name" v="Gamle Slådalsvei" />
		<tag k="ssr:stedsnr" v="900850" />
	</node>
	<node id="-110710" lat="62.1007194429" lon="9.08007499538">
		<tag k="highway" v="path" />
		<tag k="name" v="Årbogvegen" />
		<tag k="ssr:stedsnr" v="232847" />
	</node>
	<node id="-110703" lat="62.1267749998" lon="8.80457777349">
		<tag k="highway" v="path" />
		<tag k="name" v="Svellhovddroge" />
		<tag k="ssr:stedsnr" v="232687" />
	</node>
	<node id="-110699" lat="62.2335194436" lon="8.76560277022">
		<tag k="highway" v="path" />
		<tag k="name" v="Hurrungvegen" />
		<tag k="ssr:stedsnr" v="232607" />
	</node>
	<node id="-110186" lat="62.1446027798" lon="8.78662499771">
		<tag k="name" v="Vassveite" />
		<tag k="ssr:stedsnr" v="474567" />
		<tag k="waterway" v="canal" />
	</node>
	<node id="-110693" lat="62.2056722247" lon="8.56567221838">
		<tag k="highway" v="path" />
		<tag k="name" v="Morkadroge" />
		<tag k="ssr:stedsnr" v="232450" />
	</node>
	<node id="-110181" lat="62.1730555552" lon="8.51759444713">
		<tag k="highway" v="path" />
		<tag k="name" v="Breiranddroge" />
		<tag k="ssr:stedsnr" v="474325" />
	</node>
	<node id="-111708" lat="62.2105527755" lon="8.55978333118">
		<tag k="highway" v="path" />
		<tag k="name" v="Torsplassdroge" />
		<tag k="ssr:stedsnr" v="900504" />
	</node>
	<node id="-111375" lat="62.0674527735" lon="9.00850556179">
		<tag k="highway" v="path" />
		<tag k="name" v="Timmerdrogje" />
		<tag k="ssr:stedsnr" v="717742" />
	</node>
	<node id="-111183" lat="62.1185395224" lon="8.85386685818">
		<tag k="alt_name" v="Lesja" />
		<tag k="name" v="Lesja stasjon" />
		<tag k="railway" v="station" />
		<tag k="ssr:stedsnr" v="617887" />
		<tag k="train" v="yes" />
	</node>
	<node id="-111144" lat="62.1732361152" lon="8.70291110274">
		<tag k="highway" v="path" />
		<tag k="name" v="Sveadroge" />
		<tag k="ssr:stedsnr" v="597707" />
	</node>
	<node id="-110854" lat="62.1925058675" lon="8.53819000552">
		<tag k="alt_name" v="Lesjaverk" />
		<tag k="name" v="Lesjaverk stasjon" />
		<tag k="railway" v="station" />
		<tag k="ssr:stedsnr" v="435853" />
		<tag k="train" v="yes" />
	</node>
	<node id="-110110" lat="62.1895305515" lon="8.64074444001">
		<tag k="highway" v="path" />
		<tag k="name" v="Vangdroge" />
		<tag k="ssr:stedsnr" v="354685" />
	</node>
	<node id="-111133" lat="62.1370305576" lon="9.0342944427">
		<tag k="highway" v="path" />
		<tag k="name" v="Svartdalsråket" />
		<tag k="ssr:stedsnr" v="596886" />
	</node>
	<node id="-111131" lat="62.2700583362" lon="8.674922216">
		<tag k="highway" v="path" />
		<tag k="name" v="Ylsbottvegen" />
		<tag k="ssr:stedsnr" v="596704" />
	</node>
	<node id="-111642" lat="62.1843666637" lon="8.63837777108">
		<tag k="highway" v="path" />
		<tag k="name" v="Mosenddroge" />
		<tag k="ssr:stedsnr" v="840690" />
	</node>
	<node id="-111629" lat="62.0897916633" lon="8.90946388552">
		<tag k="highway" v="path" />
		<tag k="name" v="Måsådroge" />
		<tag k="ssr:stedsnr" v="839980" />
	</node>
	<node id="-110600" lat="62.1362750011" lon="8.98458889791">
		<tag k="highway" v="path" />
		<tag k="name" v="Storløken" />
		<tag k="ssr:stedsnr" v="171937" />
	</node>
	<node id="-111107" lat="62.1033666688" lon="9.07262777658">
		<tag k="highway" v="path" />
		<tag k="name" v="Nedre Baklihaugvegen" />
		<tag k="ssr:stedsnr" v="595851" />
	</node>
</osm>
