<?xml version="1.0" encoding="UTF-8"?>
<osm generator="osmapis" version="0.6">
	<node id="-110592" lat="62.180683335" lon="8.66017499558">
		<tag k="name" v="Vangmyre" />
		<tag k="natural" v="wetland" />
		<tag k="ssr:stedsnr" v="111641" />
	</node>
	<node id="-111103" lat="62.1378277787" lon="8.76450834132">
		<tag k="name" v="Lokkarsvae" />
		<tag k="place" v="locality" />
		<tag k="ssr:stedsnr" v="535553" />
	</node>
	<node id="-110590" lat="62.1047583312" lon="8.82430833979">
		<tag k="name" v="Hoksvoldoddin" />
		<tag k="place" v="locality" />
		<tag k="ssr:stedsnr" v="111616" />
	</node>
	<node id="-111097" lat="62.1792750037" lon="8.52737222647">
		<tag k="name" v="Flittisætermyre" />
		<tag k="natural" v="wetland" />
		<tag k="ssr:stedsnr" v="535342" />
	</node>
	<node id="-111096" lat="62.1680166712" lon="8.53340555212">
		<tag k="historic" v="shieling" />
		<tag k="name" v="Kroksolbu" />
		<tag k="place" v="locality" />
		<tag k="ssr:stedsnr" v="535337" />
	</node>
	<node id="-110071" lat="62.0948527798" lon="9.09918054706">
		<tag k="name" v="Slettholen" />
		<tag k="place" v="locality" />
		<tag k="ssr:stedsnr" v="292852" />
	</node>
	<node id="-111094" lat="62.2317194469" lon="8.16795834213">
		<tag k="name" v="Gråure" />
		<tag k="natural" v="scree" />
		<tag k="ssr:stedsnr" v="535153" />
	</node>
	<node id="-111605" lat="62.1331305587" lon="8.79199444085">
		<tag k="name" v="Liabrenna" />
		<tag k="place" v="locality" />
		<tag k="ssr:stedsnr" v="778689" />
	</node>
	<node id="-111091" lat="62.261458335" lon="8.35983333533">
		<tag k="name" v="Ellandstein" />
		<tag k="natural" v="stone" />
		<tag k="ssr:stedsnr" v="535092" />
	</node>
	<node id="-111601" lat="62.1113472248" lon="8.80858055492">
		<tag k="name" v="Krekan" />
		<tag k="place" v="locality" />
		<tag k="ssr:stedsnr" v="778646" />
	</node>
	<node id="-111598" lat="62.1101944452" lon="8.71005556318">
		<tag k="name" v="Kvitsandmyra" />
		<tag k="natural" v="wetland" />
		<tag k="ssr:stedsnr" v="778535" />
	</node>
	<node id="-111596" lat="62.1553500026" lon="8.65668889063">
		<tag k="name" v="Motterudholen" />
		<tag k="place" v="locality" />
		<tag k="ssr:stedsnr" v="778524" />
	</node>
	<node id="-110570" lat="62.2286916645" lon="8.33629166403">
		<tag k="name" v="Øyom" />
		<tag k="place" v="locality" />
		<tag k="ssr:stedsnr" v="111090" />
	</node>
	<node id="-110569" lat="62.1522194428" lon="8.71140278438">
		<tag k="name" v="Hoset Brenna" />
		<tag k="place" v="locality" />
		<tag k="ssr:stedsnr" v="110988" />
	</node>
	<node id="-111591" lat="62.1770444469" lon="8.56402777163">
		<tag k="name" v="Lyumyre" />
		<tag k="natural" v="wetland" />
		<tag k="ssr:stedsnr" v="778325" />
	</node>
	<node id="-111959" lat="62.1081555515" lon="8.73619722247">
		<tag k="name" v="Lialandet" />
		<tag k="place" v="locality" />
		<tag k="ssr:stedsnr" v="960550" />
	</node>
	<node id="-111558" lat="62.0460694444" lon="8.84029721388">
		<tag k="alt_name" v="Dalfonn, s" />
		<tag k="name" v="Søre Dalfonn" />
		<tag k="natural" v="glacier" />
		<tag k="ssr:stedsnr" v="739568" />
	</node>
	<node id="-111862" lat="62.1092333376" lon="8.90788333069">
		<tag k="name" v="Kaldanmyra" />
		<tag k="natural" v="wetland" />
		<tag k="ssr:stedsnr" v="900982" />
	</node>
	<node id="-111028" lat="62.255302774" lon="8.11818332776">
		<tag k="alt_name" v="Stormyre" />
		<tag k="name" v="Stormyri" />
		<tag k="natural" v="wetland" />
		<tag k="ssr:stedsnr" v="496135" />
	</node>
	<node id="-110512" lat="62.263355557" lon="8.1113611033">
		<tag k="alt_name" v="Kvennhusmyre" />
		<tag k="name" v="Kvernhusmyri" />
		<tag k="natural" v="wetland" />
		<tag k="ssr:stedsnr" v="71164" />
	</node>
	<node id="-111532" lat="62.0988583361" lon="8.06543611672">
		<tag k="name" v="Storbreen" />
		<tag k="natural" v="glacier" />
		<tag k="ssr:stedsnr" v="738728" />
	</node>
	<node id="-110505" lat="62.1619583321" lon="8.64995555684">
		<tag k="name" v="Valldalssletta" />
		<tag k="place" v="locality" />
		<tag k="ssr:stedsnr" v="51714" />
	</node>
	<node id="-111522" lat="62.1345361094" lon="8.86336389162">
		<tag k="name" v="Gorrmyre" />
		<tag k="natural" v="wetland" />
		<tag k="ssr:stedsnr" v="718730" />
	</node>
	<node id="-110496" lat="62.2463388869" lon="8.11345833983">
		<tag k="historic" v="shieling" />
		<tag k="name" v="Midtre Stølen" />
		<tag k="place" v="locality" />
		<tag k="ssr:stedsnr" v="51251" />
	</node>
	<node id="-111516" lat="62.2066027746" lon="8.39007222808">
		<tag k="name" v="Revsteinan" />
		<tag k="natural" v="stone" />
		<tag k="ssr:stedsnr" v="718469" />
	</node>
	<node id="-111506" lat="62.2521583322" lon="8.26795278693">
		<tag k="name" v="Vetlmyrin" />
		<tag k="natural" v="wetland" />
		<tag k="ssr:stedsnr" v="718100" />
	</node>
	<node id="-110992" lat="62.0372749984" lon="8.99349721568">
		<tag k="name" v="Nonshømyrin" />
		<tag k="natural" v="wetland" />
		<tag k="ssr:stedsnr" v="436531" />
	</node>
	<node id="-111502" lat="62.0992277782" lon="9.06194445331">
		<tag k="name" v="Kvitstein" />
		<tag k="natural" v="stone" />
		<tag k="ssr:stedsnr" v="717859" />
	</node>
	<node id="-110317" lat="62.105061112" lon="9.01818054682">
		<tag k="name" v="Urmorkje" />
		<tag k="place" v="locality" />
		<tag k="ssr:stedsnr" v="474889" />
	</node>
	<node id="-110475" lat="62.1348777768" lon="8.86612776828">
		<tag k="name" v="Storstein" />
		<tag k="natural" v="stone" />
		<tag k="ssr:stedsnr" v="50691" />
	</node>
	<node id="-110468" lat="62.1752333297" lon="8.66723054657">
		<tag k="name" v="Studulsmyrin" />
		<tag k="natural" v="wetland" />
		<tag k="ssr:stedsnr" v="50627" />
	</node>
	<node id="-110466" lat="62.1018416652" lon="8.87317222695">
		<tag k="name" v="Brekkelykkja" />
		<tag k="place" v="locality" />
		<tag k="ssr:stedsnr" v="50604" />
	</node>
	<node id="-110827" lat="62.1162833361" lon="9.05741945135">
		<tag k="historic" v="shieling" />
		<tag k="name" v="Karisætre" />
		<tag k="place" v="locality" />
		<tag k="ssr:stedsnr" v="232891" />
	</node>
	<node id="-111488" lat="62.2283194478" lon="8.8086111175">
		<tag k="name" v="Breijordet" />
		<tag k="place" v="locality" />
		<tag k="ssr:stedsnr" v="717665" />
	</node>
	<node id="-110462" lat="62.152208329" lon="8.63884166129">
		<tag k="name" v="Kismorkje" />
		<tag k="place" v="locality" />
		<tag k="ssr:stedsnr" v="50507" />
	</node>
	<node id="-110461" lat="62.1470388902" lon="8.66359444545">
		<tag k="name" v="Tangan" />
		<tag k="place" v="locality" />
		<tag k="ssr:stedsnr" v="50503" />
	</node>
	<node id="-111484" lat="62.104997224" lon="8.84995554801">
		<tag k="name" v="Prestøya" />
		<tag k="place" v="locality" />
		<tag k="ssr:stedsnr" v="717639" />
	</node>
	<node id="-111483" lat="62.2448111073" lon="8.11204722974">
		<tag k="historic" v="shieling" />
		<tag k="name" v="Øvre Stølen" />
		<tag k="place" v="locality" />
		<tag k="ssr:stedsnr" v="718230" />
	</node>
	<node id="-110453" lat="62.211416667" lon="8.27253611029">
		<tag k="name" v="Brennranden" />
		<tag k="place" v="locality" />
		<tag k="ssr:stedsnr" v="50181" />
	</node>
	<node id="-111988" lat="62.1838249957" lon="8.64514999582">
		<tag k="name" v="Svaene" />
		<tag k="place" v="locality" />
		<tag k="ssr:stedsnr" v="961685" />
	</node>
	<node id="-111473" lat="62.1735722236" lon="8.54063056036">
		<tag k="name" v="Maribrenna" />
		<tag k="place" v="locality" />
		<tag k="ssr:stedsnr" v="717339" />
	</node>
	<node id="-110444" lat="62.0934138882" lon="8.93230833496">
		<tag k="alt_name" v="Viflaten" />
		<tag k="loc_name" v="Vidfloten" />
		<tag k="name" v="Vidflotten" />
		<tag k="place" v="locality" />
		<tag k="ssr:stedsnr" v="48218" />
	</node>
	<node id="-111465" lat="62.2323250024" lon="8.31620556151">
		<tag k="name" v="Øyan" />
		<tag k="place" v="locality" />
		<tag k="ssr:stedsnr" v="717077" />
	</node>
	<node id="-111974" lat="62.1421472205" lon="9.04353054697">
		<tag k="name" v="Vetlmyre" />
		<tag k="natural" v="wetland" />
		<tag k="ssr:stedsnr" v="960863" />
	</node>
	<node id="-111972" lat="62.1074138864" lon="9.07271666084">
		<tag k="name" v="Slettede" />
		<tag k="place" v="locality" />
		<tag k="ssr:stedsnr" v="960837" />
	</node>
	<node id="-110947" lat="62.0628000022" lon="8.42446944826">
		<tag k="name" v="Kvitlan" />
		<tag k="place" v="locality" />
		<tag k="ssr:stedsnr" v="415309" />
	</node>
	<node id="-111968" lat="62.0639805515" lon="9.01836111463">
		<tag k="name" v="Restbakkmyrin" />
		<tag k="natural" v="wetland" />
		<tag k="ssr:stedsnr" v="960731" />
	</node>
	<node id="-110941" lat="62.1004499986" lon="9.1031805478">
		<tag k="name" v="Bjønnstein" />
		<tag k="natural" v="stone" />
		<tag k="ssr:stedsnr" v="414844" />
	</node>
	<node id="-110936" lat="62.0814333305" lon="8.98642222718">
		<tag k="name" v="Bottemsetrene seterskog" />
		<tag k="place" v="locality" />
		<tag k="ssr:stedsnr" v="414755" />
	</node>
	<node id="-110423" lat="62.124730557" lon="8.98191667592">
		<tag k="name" v="Myrin" />
		<tag k="natural" v="wetland" />
		<tag k="ssr:stedsnr" v="11876" />
	</node>
	<node id="-110932" lat="62.1104166703" lon="8.84718332662">
		<tag k="name" v="Nedre Tollholen" />
		<tag k="place" v="locality" />
		<tag k="ssr:stedsnr" v="414636" />
	</node>
	<node id="-110222" lat="62.1852250007" lon="8.6461805614">
		<tag k="name" v="Kvilarsteinen" />
		<tag k="natural" v="stone" />
		<tag k="ssr:stedsnr" v="354680" />
	</node>
	<node id="-110928" lat="62.110663893" lon="8.72000000595">
		<tag k="name" v="Tordholodden" />
		<tag k="place" v="locality" />
		<tag k="ssr:stedsnr" v="414548" />
	</node>
	<node id="-111951" lat="62.1783111142" lon="8.6177861039">
		<tag k="name" v="Jolykkja" />
		<tag k="place" v="locality" />
		<tag k="ssr:stedsnr" v="960308" />
	</node>
	<node id="-111477" lat="62.1141305554" lon="8.6952111092">
		<tag k="name" v="Storholen" />
		<tag k="place" v="locality" />
		<tag k="ssr:stedsnr" v="717549" />
	</node>
	<node id="-110918" lat="62.113911113" lon="8.60810555469">
		<tag k="name" v="Brennranden" />
		<tag k="place" v="locality" />
		<tag k="ssr:stedsnr" v="257770" />
	</node>
	<node id="-111424" lat="62.1623944411" lon="8.91035833528">
		<tag k="alt_name" v="Svinsarmyrin;Svinsarmyre" />
		<tag k="name" v="Svinsarmyri" />
		<tag k="natural" v="wetland" />
		<tag k="ssr:stedsnr" v="678895" />
	</node>
	<node id="-110078" lat="62.206913889" lon="8.37135832515">
		<tag k="name" v="Raudbergmyre" />
		<tag k="natural" v="wetland" />
		<tag k="ssr:stedsnr" v="293090" />
	</node>
	<node id="-110197" lat="62.1783305563" lon="8.67906388409">
		<tag k="name" v="Langranden" />
		<tag k="place" v="locality" />
		<tag k="ssr:stedsnr" v="353679" />
	</node>
	<node id="-111383" lat="62.094463888" lon="8.90546666657">
		<tag k="name" v="Flaten" />
		<tag k="place" v="locality" />
		<tag k="ssr:stedsnr" v="657966" />
	</node>
	<node id="-111894" lat="62.2601083291" lon="8.37561111913">
		<tag k="alt_name" v="Teppmyre" />
		<tag k="name" v="Teppmyri" />
		<tag k="natural" v="wetland" />
		<tag k="ssr:stedsnr" v="921290" />
	</node>
	<node id="-110355" lat="62.1535083342" lon="8.61259166929">
		<tag k="historic" v="shieling" />
		<tag k="name" v="Skrøisætre" />
		<tag k="place" v="locality" />
		<tag k="ssr:stedsnr" v="476308" />
	</node>
	<node id="-110354" lat="62.1066305536" lon="8.90858611166">
		<tag k="name" v="Joflaten" />
		<tag k="place" v="locality" />
		<tag k="ssr:stedsnr" v="475989" />
	</node>
	<node id="-110864" lat="62.1945833352" lon="8.27258055056">
		<tag k="name" v="Koiesteinen" />
		<tag k="natural" v="stone" />
		<tag k="ssr:stedsnr" v="253845" />
	</node>
	<node id="-110351" lat="62.1236750031" lon="8.92581665805">
		<tag k="name" v="Svartbrenna" />
		<tag k="place" v="locality" />
		<tag k="ssr:stedsnr" v="475978" />
	</node>
	<node id="-110722" lat="62.0550694472" lon="8.37683611904">
		<tag k="name" v="Steinkloppranden" />
		<tag k="place" v="locality" />
		<tag k="ssr:stedsnr" v="172330" />
	</node>
	<node id="-111369" lat="62.2339888915" lon="8.75095278518">
		<tag k="name" v="Sandranden" />
		<tag k="place" v="locality" />
		<tag k="ssr:stedsnr" v="657666" />
	</node>
	<node id="-111876" lat="62.1547416705" lon="9.04077500011">
		<tag k="name" v="Smørbollmyrin" />
		<tag k="natural" v="wetland" />
		<tag k="ssr:stedsnr" v="921904" />
	</node>
	<node id="-111875" lat="62.1503666674" lon="9.09023055481">
		<tag k="name" v="Tungmyrin" />
		<tag k="natural" v="wetland" />
		<tag k="ssr:stedsnr" v="921899" />
	</node>
	<node id="-111362" lat="62.2356027777" lon="8.10228611888">
		<tag k="name" v="Alvsteinan" />
		<tag k="natural" v="stone" />
		<tag k="ssr:stedsnr" v="657193" />
	</node>
	<node id="-111359" lat="62.2408972247" lon="8.2594194366">
		<tag k="name" v="Fanture" />
		<tag k="natural" v="scree" />
		<tag k="ssr:stedsnr" v="657157" />
	</node>
	<node id="-111357" lat="62.2191861071" lon="8.32940554984">
		<tag k="name" v="Saustad" />
		<tag k="place" v="locality" />
		<tag k="ssr:stedsnr" v="657062" />
	</node>
	<node id="-110844" lat="62.2691749989" lon="8.19075000961">
		<tag k="name" v="Lykkjemyri" />
		<tag k="natural" v="wetland" />
		<tag k="ssr:stedsnr" v="253160" />
	</node>
	<node id="-111355" lat="62.0839194437" lon="9.06960556004">
		<tag k="name" v="Breimyrholan" />
		<tag k="place" v="locality" />
		<tag k="ssr:stedsnr" v="656804" />
	</node>
	<node id="-110329" lat="62.0728388909" lon="8.45231666163">
		<tag k="name" v="Flittimyre" />
		<tag k="natural" v="wetland" />
		<tag k="ssr:stedsnr" v="475335" />
	</node>
	<node id="-111864" lat="62.0754916626" lon="8.46160277035">
		<tag k="name" v="Klomre" />
		<tag k="place" v="locality" />
		<tag k="ssr:stedsnr" v="901384" />
	</node>
	<node id="-111351" lat="62.1049361142" lon="8.84170000256">
		<tag k="name" v="Nordsand" />
		<tag k="place" v="locality" />
		<tag k="ssr:stedsnr" v="656666" />
	</node>
	<node id="-110326" lat="62.246316665" lon="8.12057777634">
		<tag k="historic" v="shieling" />
		<tag k="name" v="Nedre Stølen" />
		<tag k="place" v="locality" />
		<tag k="ssr:stedsnr" v="475222" />
	</node>
	<node id="-111861" lat="62.1034666658" lon="8.89290277173">
		<tag k="name" v="Flagestadsætre" />
		<tag k="place" v="locality" />
		<tag k="ssr:stedsnr" v="900980" />
	</node>
	<node id="-110830" lat="62.1057416683" lon="8.8865083321">
		<tag k="name" v="Fuggelluggen" />
		<tag k="place" v="locality" />
		<tag k="ssr:stedsnr" v="232974" />
	</node>
	<node id="-111853" lat="62.1307111127" lon="8.86165554829">
		<tag k="name" v="Skaret" />
		<tag k="natural" v="stone" />
		<tag k="ssr:stedsnr" v="900739" />
	</node>
	<node id="-111851" lat="62.132069441" lon="8.80419167027">
		<tag k="name" v="Bellebrenna" />
		<tag k="place" v="locality" />
		<tag k="ssr:stedsnr" v="900717" />
	</node>
	<node id="-110313" lat="62.0691888854" lon="9.04651110547">
		<tag k="name" v="Borge" />
		<tag k="place" v="locality" />
		<tag k="ssr:stedsnr" v="474805" />
	</node>
	<node id="-111336" lat="62.1775055593" lon="8.5365611056">
		<tag k="name" v="Hesthagen" />
		<tag k="place" v="locality" />
		<tag k="ssr:stedsnr" v="656326" />
	</node>
	<node id="-111847" lat="62.148016671" lon="8.77874999283">
		<tag k="name" v="Hella" />
		<tag k="natural" v="stone" />
		<tag k="ssr:stedsnr" v="900564" />
	</node>
	<node id="-110309" lat="62.0648472249" lon="9.04266944547">
		<tag k="name" v="Borgårandan" />
		<tag k="place" v="locality" />
		<tag k="ssr:stedsnr" v="474760" />
	</node>
	<node id="-111841" lat="62.2342861081" lon="8.13572500332">
		<tag k="name" v="Svamyre" />
		<tag k="natural" v="wetland" />
		<tag k="ssr:stedsnr" v="900241" />
	</node>
	<node id="-110301" lat="62.1025361116" lon="8.83132222103">
		<tag k="historic" v="shieling" />
		<tag k="name" v="Bottilsætre" />
		<tag k="place" v="locality" />
		<tag k="ssr:stedsnr" v="474652" />
	</node>
	<node id="-110810" lat="62.1392194464" lon="8.64686388782">
		<tag k="name" v="Bårdsruste" />
		<tag k="place" v="locality" />
		<tag k="ssr:stedsnr" v="232463" />
	</node>
	<node id="-111829" lat="62.1101750037" lon="8.86361388968">
		<tag k="name" v="Åselykkja" />
		<tag k="place" v="locality" />
		<tag k="ssr:stedsnr" v="899650" />
	</node>
	<node id="-110803" lat="62.2363500014" lon="8.25174444181">
		<tag k="name" v="Øygardsmoen" />
		<tag k="place" v="locality" />
		<tag k="ssr:stedsnr" v="232172" />
	</node>
	<node id="-110800" lat="62.2437277798" lon="8.32831945278">
		<tag k="landuse" v="meadow" />
		<tag k="name" v="Kvean" />
		<tag k="ssr:stedsnr" v="232110" />
	</node>
	<node id="-110284" lat="62.1994194412" lon="8.29709443664">
		<tag k="name" v="Gråure" />
		<tag k="natural" v="scree" />
		<tag k="ssr:stedsnr" v="414190" />
	</node>
	<node id="-111819" lat="62.0994861108" lon="8.60005554645">
		<tag k="name" v="Skardåvigga" />
		<tag k="place" v="locality" />
		<tag k="ssr:stedsnr" v="864744" />
	</node>
	<node id="-110792" lat="62.1171999961" lon="8.72193055929">
		<tag k="name" v="Kråkholen" />
		<tag k="place" v="locality" />
		<tag k="ssr:stedsnr" v="204366" />
	</node>
	<node id="-110276" lat="62.2405611131" lon="8.81257777246">
		<tag k="name" v="Kvitmyrin" />
		<tag k="natural" v="wetland" />
		<tag k="ssr:stedsnr" v="375989" />
	</node>
	<node id="-111733" lat="62.10149722" lon="9.07495832922">
		<tag k="name" v="Vassbolet" />
		<tag k="natural" v="wetland" />
		<tag k="ssr:stedsnr" v="839831" />
	</node>
	<node id="-110750" lat="62.2625027817" lon="8.2869749964">
		<tag k="alt_name" v="Myran" />
		<tag k="name" v="Myrane" />
		<tag k="natural" v="wetland" />
		<tag k="ssr:stedsnr" v="193271" />
	</node>
	<node id="-111773" lat="62.0856527763" lon="9.0767916626">
		<tag k="alt_name" v="Breimyre" />
		<tag k="name" v="Breidmyri" />
		<tag k="natural" v="wetland" />
		<tag k="ssr:stedsnr" v="860640" />
	</node>
	<node id="-110234" lat="62.2634583294" lon="8.12037222385">
		<tag k="alt_name" v="Blautmyre" />
		<tag k="name" v="Blautmyri" />
		<tag k="natural" v="wetland" />
		<tag k="ssr:stedsnr" v="374165" />
	</node>
	<node id="-110227" lat="62.227044446" lon="8.29072221557">
		<tag k="name" v="Brekkeranden" />
		<tag k="place" v="locality" />
		<tag k="ssr:stedsnr" v="414060" />
	</node>
	<node id="-111246" lat="62.2316416663" lon="8.77973334001">
		<tag k="name" v="Brendranden" />
		<tag k="place" v="locality" />
		<tag k="ssr:stedsnr" v="596640" />
	</node>
	<node id="-111757" lat="62.2057805592" lon="8.45155833042">
		<tag k="name" v="Stormyre" />
		<tag k="natural" v="wetland" />
		<tag k="ssr:stedsnr" v="840470" />
	</node>
	<node id="-110220" lat="62.2171083296" lon="8.46117500005">
		<tag k="name" v="Øverjordet" />
		<tag k="place" v="locality" />
		<tag k="ssr:stedsnr" v="354454" />
	</node>
	<node id="-110218" lat="62.0593555591" lon="8.35340833307">
		<tag k="name" v="Løranden" />
		<tag k="place" v="locality" />
		<tag k="ssr:stedsnr" v="354337" />
	</node>
	<node id="-111241" lat="62.0839416706" lon="8.86479166576">
		<tag k="name" v="Vetlgutstein" />
		<tag k="natural" v="stone" />
		<tag k="ssr:stedsnr" v="596604" />
	</node>
	<node id="-111239" lat="62.1137666637" lon="8.66365833548">
		<tag k="name" v="Ekerflaten" />
		<tag k="place" v="locality" />
		<tag k="ssr:stedsnr" v="596539" />
	</node>
	<node id="-110311" lat="62.0800555529" lon="9.05943333021">
		<tag k="name" v="Tuvmyre" />
		<tag k="natural" v="wetland" />
		<tag k="ssr:stedsnr" v="474780" />
	</node>
	<node id="-110870" lat="62.1382750037" lon="8.88690833666">
		<tag k="alt_name" v="Ståkåmyre" />
		<tag k="name" v="Ståkåmyri" />
		<tag k="natural" v="wetland" />
		<tag k="ssr:stedsnr" v="253923" />
	</node>
	<node id="-111746" lat="62.1120638933" lon="8.9166861086">
		<tag k="name" v="Hattremsleira" />
		<tag k="place" v="locality" />
		<tag k="ssr:stedsnr" v="839984" />
	</node>
	<node id="-110209" lat="62.1259305581" lon="9.00441111435">
		<tag k="name" v="Buin" />
		<tag k="place" v="locality" />
		<tag k="ssr:stedsnr" v="353899" />
	</node>
	<node id="-110208" lat="62.1388305551" lon="9.01928333773">
		<tag k="name" v="Hovaukkjørre" />
		<tag k="place" v="locality" />
		<tag k="ssr:stedsnr" v="353875" />
	</node>
	<node id="-111125" lat="62.2749722244" lon="8.17573054977">
		<tag k="name" v="Rundmyre" />
		<tag k="natural" v="wetland" />
		<tag k="ssr:stedsnr" v="536135" />
	</node>
	<node id="-111228" lat="62.2439333367" lon="8.28210832591">
		<tag k="name" v="Ordran" />
		<tag k="place" v="locality" />
		<tag k="ssr:stedsnr" v="596088" />
	</node>
	<node id="-110714" lat="62.1102361132" lon="8.98637499444">
		<tag k="name" v="Ospeslette" />
		<tag k="place" v="locality" />
		<tag k="ssr:stedsnr" v="172000" />
	</node>
	<node id="-111735" lat="62.1021555592" lon="9.09389443618">
		<tag k="landuse" v="quarry" />
		<tag k="name" v="Steinbrote" />
		<tag k="ssr:stedsnr" v="839835" />
	</node>
	<node id="-111222" lat="62.0839333308" lon="9.06474444225">
		<tag k="name" v="Kolbotn" />
		<tag k="place" v="locality" />
		<tag k="ssr:stedsnr" v="595773" />
	</node>
	<node id="-111221" lat="62.0760444476" lon="9.05974721511">
		<tag k="name" v="Gråtarvollen" />
		<tag k="place" v="locality" />
		<tag k="ssr:stedsnr" v="595769" />
	</node>
	<node id="-110196" lat="62.1017694404" lon="8.85507499208">
		<tag k="name" v="Jolykkja" />
		<tag k="place" v="locality" />
		<tag k="ssr:stedsnr" v="353651" />
	</node>
	<node id="-111217" lat="62.1207111107" lon="8.71332776922">
		<tag k="name" v="Ståe" />
		<tag k="place" v="locality" />
		<tag k="ssr:stedsnr" v="595395" />
	</node>
	<node id="-111216" lat="62.1323583333" lon="8.69804167148">
		<tag k="name" v="Bjøknemyre" />
		<tag k="old_name" v="Bjørknemyre" />
		<tag k="place" v="locality" />
		<tag k="ssr:stedsnr" v="595394" />
	</node>
	<node id="-111214" lat="62.130333334" lon="8.65773055798">
		<tag k="name" v="Bjønnarspjotet" />
		<tag k="natural" v="stone" />
		<tag k="ssr:stedsnr" v="595384" />
	</node>
	<node id="-110699" lat="62.1170555561" lon="8.77103333144">
		<tag k="name" v="Brenna" />
		<tag k="place" v="locality" />
		<tag k="ssr:stedsnr" v="171689" />
	</node>
	<node id="-110181" lat="62.2428527769" lon="8.20340833425">
		<tag k="name" v="Dalan" />
		<tag k="place" v="locality" />
		<tag k="ssr:stedsnr" v="353194" />
	</node>
	<node id="-111716" lat="62.2423583357" lon="8.20941387993">
		<tag k="name" v="Storøymoen" />
		<tag k="place" v="locality" />
		<tag k="ssr:stedsnr" v="839158" />
	</node>
	<node id="-110460" lat="62.1394638895" lon="8.67690834242">
		<tag k="name" v="Hosetmoen" />
		<tag k="place" v="locality" />
		<tag k="ssr:stedsnr" v="50479" />
	</node>
	<node id="-110176" lat="62.2344083342" lon="8.26598611364">
		<tag k="name" v="Øyan" />
		<tag k="place" v="locality" />
		<tag k="ssr:stedsnr" v="353066" />
	</node>
	<node id="-110685" lat="62.197499998" lon="8.2356888959">
		<tag k="name" v="Nonshøvollan" />
		<tag k="place" v="locality" />
		<tag k="ssr:stedsnr" v="171162" />
	</node>
	<node id="-110684" lat="62.2128416664" lon="8.35034722643">
		<tag k="name" v="Ljosmyre" />
		<tag k="natural" v="wetland" />
		<tag k="ssr:stedsnr" v="171068" />
	</node>
	<node id="-110170" lat="62.1016666632" lon="8.561352774">
		<tag k="name" v="Mørkonge" />
		<tag k="place" v="locality" />
		<tag k="ssr:stedsnr" v="318727" />
	</node>
	<node id="-110948" lat="62.0798416665" lon="8.48009722734">
		<tag k="name" v="Kvannbekkmyre" />
		<tag k="natural" v="wetland" />
		<tag k="ssr:stedsnr" v="415403" />
	</node>
	<node id="-110678" lat="62.2974944452" lon="8.67574166313">
		<tag k="name" v="Storslågån" />
		<tag k="place" v="locality" />
		<tag k="ssr:stedsnr" v="133661" />
	</node>
	<node id="-111178" lat="62.1816555522" lon="7.99134722875">
		<tag k="name" v="Storløypbreen" />
		<tag k="natural" v="glacier" />
		<tag k="ssr:stedsnr" v="557162" />
	</node>
	<node id="-110177" lat="62.2288277778" lon="8.26835278507">
		<tag k="name" v="Storlie" />
		<tag k="place" v="locality" />
		<tag k="ssr:stedsnr" v="353068" />
	</node>
	<node id="-111678" lat="62.2037500005" lon="8.32057500752">
		<tag k="name" v="Stormyri" />
		<tag k="natural" v="wetland" />
		<tag k="ssr:stedsnr" v="800795" />
	</node>
	<node id="-111144" lat="62.2733000026" lon="8.18651388104">
		<tag k="alt_name" v="Ulvemyre" />
		<tag k="name" v="Ulvemyri" />
		<tag k="natural" v="wetland" />
		<tag k="ssr:stedsnr" v="556160" />
	</node>
	<node id="-111139" lat="62.2060555569" lon="8.89284721746">
		<tag k="name" v="Ljosmyre" />
		<tag k="natural" v="wetland" />
		<tag k="ssr:stedsnr" v="536922" />
	</node>
	<node id="-111135" lat="62.1627166643" lon="8.70075000592">
		<tag k="name" v="Restranden" />
		<tag k="place" v="locality" />
		<tag k="ssr:stedsnr" v="536688" />
	</node>
	<node id="-110108" lat="62.0869833323" lon="8.50287499859">
		<tag k="name" v="Bjøknesæterranden" />
		<tag k="place" v="locality" />
		<tag k="ssr:stedsnr" v="294390" />
	</node>
	<node id="-111643" lat="62.0535805543" lon="8.79924999641">
		<tag k="alt_name" v="Dalfonn, nordre" />
		<tag k="name" v="Nordre Dalfonn" />
		<tag k="natural" v="glacier" />
		<tag k="ssr:stedsnr" v="799590" />
	</node>
	<node id="-110105" lat="62.1645388904" lon="8.62731389388">
		<tag k="name" v="Langmyre" />
		<tag k="natural" v="wetland" />
		<tag k="ssr:stedsnr" v="294312" />
	</node>
	<node id="-110104" lat="62.0739138868" lon="8.45698611846">
		<tag k="name" v="Klokkarslette" />
		<tag k="place" v="locality" />
		<tag k="ssr:stedsnr" v="294310" />
	</node>
	<node id="-110084" lat="62.0651361081" lon="8.40953611291">
		<tag k="name" v="Lurverandan" />
		<tag k="place" v="locality" />
		<tag k="ssr:stedsnr" v="293341" />
	</node>
	<node id="-111637" lat="62.2406111139" lon="8.13491943611">
		<tag k="name" v="Kvennhusmyre" />
		<tag k="natural" v="wetland" />
		<tag k="ssr:stedsnr" v="794206" />
	</node>
	<node id="-111636" lat="62.1622583327" lon="8.6389055538">
		<tag k="name" v="Rundmyre" />
		<tag k="natural" v="wetland" />
		<tag k="ssr:stedsnr" v="779679" />
	</node>
	<node id="-111123" lat="62.1545611067" lon="8.69606110419">
		<tag k="name" v="Ljosmyre" />
		<tag k="natural" v="wetland" />
		<tag k="ssr:stedsnr" v="535986" />
	</node>
	<node id="-110607" lat="62.2058305512" lon="8.49942222962">
		<tag k="name" v="Kvea" />
		<tag k="place" v="locality" />
		<tag k="ssr:stedsnr" v="112468" />
	</node>
	<node id="-111117" lat="62.1434166643" lon="9.04041389269">
		<tag k="name" v="Mehenkjerandin" />
		<tag k="place" v="locality" />
		<tag k="ssr:stedsnr" v="535877" />
	</node>
	<node id="-111628" lat="62.1697472265" lon="8.57826388647">
		<tag k="name" v="Stormyre" />
		<tag k="natural" v="wetland" />
		<tag k="ssr:stedsnr" v="779345" />
	</node>
	<node id="-110338" lat="62.1125666638" lon="8.64864721624">
		<tag k="name" v="Bolkeholet" />
		<tag k="place" v="locality" />
		<tag k="ssr:stedsnr" v="475574" />
	</node>
	<node id="-111113" lat="62.0712944455" lon="9.05459166283">
		<tag k="alt_name" v="Enge" />
		<tag k="landuse" v="meadow" />
		<tag k="name" v="Engje" />
		<tag k="ssr:stedsnr" v="535792" />
	</node>
	<node id="-110358" lat="62.1631638856" lon="8.6932333261">
		<tag k="name" v="Esperanden" />
		<tag k="place" v="locality" />
		<tag k="ssr:stedsnr" v="476635" />
	</node>
	<node id="-111110" lat="62.1147805524" lon="8.61433889726">
		<tag k="name" v="Kolbotn" />
		<tag k="place" v="locality" />
		<tag k="ssr:stedsnr" v="535717" />
	</node>
	<node id="-110593" lat="62.1725555592" lon="8.67793332421">
		<tag k="name" v="Skrøymyre" />
		<tag k="natural" v="wetland" />
		<tag k="ssr:stedsnr" v="111657" />
	</node>
	<node id="-110596" lat="62.0996472187" lon="9.09353055712">
		<tag k="name" v="Bjønnmyra" />
		<tag k="natural" v="wetland" />
		<tag k="ssr:stedsnr" v="111832" />
	</node>
	<node id="-110594" lat="62.2454111153" lon="8.78123889604">
		<tag k="name" v="Kvitmyrin" />
		<tag k="natural" v="wetland" />
		<tag k="ssr:stedsnr" v="111676" />
	</node>
	<node id="-111105" lat="62.1160527781" lon="8.77948610775">
		<tag k="name" v="Lyftingsmyre" />
		<tag k="natural" v="wetland" />
		<tag k="ssr:stedsnr" v="535641" />
	</node>
</osm>
