<?xml version="1.0" encoding="UTF-8"?>
<osm generator="osmapis" version="0.6">
	<node id="-110585" lat="62.1936638889" lon="8.51197778676">
		<tag k="name" v="Dosetbotten" />
		<tag k="natural" v="bay" />
		<tag k="ssr:stedsnr" v="111340" />
	</node>
	<node id="-110584" lat="62.1982250044" lon="8.5187194504">
		<tag k="name" v="Dosetbekken" />
		<tag k="ssr:stedsnr" v="111338" />
		<tag k="waterway" v="stream" />
	</node>
	<node id="-110583" lat="62.1889722244" lon="8.52031111935">
		<tag k="name" v="Kråkholmen" />
		<tag k="place" v="islet" />
		<tag k="ssr:stedsnr" v="111335" />
	</node>
	<node id="-110582" lat="62.2397888912" lon="8.21956666669">
		<tag k="name" v="Landfall" />
		<tag k="natural" v="cape" />
		<tag k="ssr:stedsnr" v="111167" />
	</node>
	<node id="-110556" lat="62.2136416658" lon="8.82414721734">
		<tag k="alt_name" v="Storgrovi" />
		<tag k="name" v="Storgrove" />
		<tag k="ssr:stedsnr" v="72927" />
		<tag k="waterway" v="stream" />
	</node>
	<node id="-110555" lat="62.2343944484" lon="8.48555277316">
		<tag k="name" v="Damtjønne" />
		<tag k="natural" v="water" />
		<tag k="ssr:stedsnr" v="72827" />
	</node>
	<node id="-110552" lat="62.0716444445" lon="8.32322222496">
		<tag k="name" v="Søre Grove" />
		<tag k="ssr:stedsnr" v="72744" />
		<tag k="waterway" v="stream" />
	</node>
	<node id="-110550" lat="62.0916027748" lon="8.77328055952">
		<tag k="alt_name" v="Storåe" />
		<tag k="name" v="Storåi" />
		<tag k="ssr:stedsnr" v="72589" />
		<tag k="waterway" v="stream" />
	</node>
	<node id="-110549" lat="62.3421638927" lon="8.98696665728">
		<tag k="name" v="Søre Salhøtjønne" />
		<tag k="natural" v="water" />
		<tag k="ssr:stedsnr" v="72445" />
	</node>
	<node id="-110547" lat="62.3276722223" lon="9.02944443764">
		<tag k="name" v="Nedre Lustjønne" />
		<tag k="natural" v="water" />
		<tag k="ssr:stedsnr" v="72385" />
	</node>
	<node id="-110545" lat="62.2858694413" lon="9.06029999155">
		<tag k="name" v="Løypesbekken" />
		<tag k="ssr:stedsnr" v="72354" />
		<tag k="waterway" v="stream" />
	</node>
	<node id="-110541" lat="62.3264638874" lon="8.4752499986">
		<tag k="name" v="Pøyta" />
		<tag k="ssr:stedsnr" v="72264" />
		<tag k="waterway" v="stream" />
	</node>
	<node id="-110536" lat="62.1881999957" lon="9.20565278591">
		<tag k="name" v="Vindbustjønne" />
		<tag k="natural" v="water" />
		<tag k="ssr:stedsnr" v="71977" />
	</node>
	<node id="-110535" lat="62.1815040266" lon="8.81033634478">
		<tag k="name" v="Fillingstjønne" />
		<tag k="natural" v="water" />
		<tag k="ssr:stedsnr" v="71973" />
		<tag k="water" v="lake" />
	</node>
	<node id="-110529" lat="62.2429222179" lon="8.39161666722">
		<tag k="alt_name" v="Skottåe" />
		<tag k="name" v="Skottåi" />
		<tag k="ssr:stedsnr" v="71879" />
		<tag k="waterway" v="stream" />
	</node>
	<node id="-110528" lat="62.1983527762" lon="8.69733888095">
		<tag k="name" v="Djuptjønne" />
		<tag k="natural" v="water" />
		<tag k="ssr:stedsnr" v="71853" />
	</node>
	<node id="-110525" lat="62.1429000011" lon="8.32665832455">
		<tag k="name" v="Vargvasstjønnin" />
		<tag k="natural" v="water" />
		<tag k="ssr:stedsnr" v="71826" />
	</node>
	<node id="-110516" lat="62.0484944407" lon="8.99163889023">
		<tag k="name" v="Nonshøbekken" />
		<tag k="ssr:stedsnr" v="71606" />
		<tag k="waterway" v="stream" />
	</node>
	<node id="-110515" lat="62.0390583359" lon="8.97288889241">
		<tag k="name" v="Fauttjønne" />
		<tag k="natural" v="water" />
		<tag k="ssr:stedsnr" v="71603" />
	</node>
	<node id="-110513" lat="62.0762749979" lon="8.87233056354">
		<tag k="alt_name" v="Nestandåe" />
		<tag k="name" v="Nesttandåi" />
		<tag k="ssr:stedsnr" v="71653" />
		<tag k="waterway" v="river" />
	</node>
	<node id="-110510" lat="62.2685861146" lon="8.12632778678">
		<tag k="name" v="Raudgrovi" />
		<tag k="ssr:stedsnr" v="71139" />
		<tag k="waterway" v="stream" />
	</node>
	<node id="-110506" lat="62.1401749996" lon="8.13080000204">
		<tag k="name" v="Kollvatnet" />
		<tag k="natural" v="water" />
		<tag k="ssr:stedsnr" v="71225" />
	</node>
	<node id="-110502" lat="62.224841671" lon="8.40493611731">
		<tag k="name" v="Bjølsåsbotn" />
		<tag k="natural" v="bay" />
		<tag k="ssr:stedsnr" v="51519" />
	</node>
	<node id="-110501" lat="62.2200027777" lon="8.42300278329">
		<tag k="name" v="Buaholmen" />
		<tag k="place" v="islet" />
		<tag k="ssr:stedsnr" v="51500" />
	</node>
	<node id="-110499" lat="62.2226083362" lon="8.40545278731">
		<tag k="name" v="Aurvika" />
		<tag k="natural" v="bay" />
		<tag k="ssr:stedsnr" v="51489" />
	</node>
	<node id="-110491" lat="62.2691861118" lon="8.16493056484">
		<tag k="name" v="Kvernhusfossen" />
		<tag k="natural" v="waterfall" />
		<tag k="ssr:stedsnr" v="51129" />
	</node>
	<node id="-110483" lat="62.1392055568" lon="9.00775000629">
		<tag k="name" v="Fiskbekken" />
		<tag k="ssr:stedsnr" v="50887" />
		<tag k="waterway" v="stream" />
	</node>
	<node id="-110477" lat="62.0717111096" lon="9.05923055196">
		<tag k="name" v="Stubbedalsbekken" />
		<tag k="ssr:stedsnr" v="50723" />
		<tag k="waterway" v="stream" />
	</node>
	<node id="-110470" lat="62.2430444434" lon="8.73978611067">
		<tag k="name" v="Antonbekken" />
		<tag k="ssr:stedsnr" v="50639" />
		<tag k="waterway" v="stream" />
	</node>
	<node id="-110455" lat="62.1853305552" lon="8.54312777111">
		<tag k="name" v="Masmestervike" />
		<tag k="natural" v="bay" />
		<tag k="ssr:stedsnr" v="50331" />
	</node>
	<node id="-110454" lat="62.1633805537" lon="8.55374166895">
		<tag k="fixme" v="multiple name tags, choose one and add the other to alt_name" />
		<tag k="loc_name" v="Skardbekken" />
		<tag k="name" v="Skalbekken;Svabekken" />
		<tag k="ssr:stedsnr" v="50318" />
		<tag k="waterway" v="stream" />
	</node>
	<node id="-110436" lat="62.3440861129" lon="8.68458054637">
		<tag k="name" v="Naustviki" />
		<tag k="natural" v="bay" />
		<tag k="ssr:stedsnr" v="12348" />
	</node>
	<node id="-110433" lat="62.3151333299" lon="8.69466389813">
		<tag k="name" v="Grynningen" />
		<tag k="natural" v="strait" />
		<tag k="ssr:stedsnr" v="12282" />
	</node>
	<node id="-110432" lat="62.3174027815" lon="8.65586111571">
		<tag k="name" v="Turaren" />
		<tag k="ssr:stedsnr" v="12281" />
		<tag k="waterway" v="stream" />
	</node>
	<node id="-110431" lat="62.3199555594" lon="8.42199999332">
		<tag k="name" v="Leirtjønne" />
		<tag k="natural" v="water" />
		<tag k="ssr:stedsnr" v="12272" />
	</node>
	<node id="-110430" lat="62.3216693766" lon="8.27949111733">
		<tag k="alt_name" v="Bøvervatnet, ettare" />
		<tag k="name" v="Ettare Bøvervatnet" />
		<tag k="natural" v="water" />
		<tag k="ssr:stedsnr" v="12271" />
		<tag k="water" v="lake" />
	</node>
	<node id="-110429" lat="62.3282416651" lon="8.43820277835">
		<tag k="name" v="Nørdre Miutjønne" />
		<tag k="natural" v="water" />
		<tag k="ssr:stedsnr" v="12262" />
	</node>
	<node id="-110428" lat="62.33294444" lon="8.52417222254">
		<tag k="name" v="Vangstjønnin" />
		<tag k="natural" v="water" />
		<tag k="ssr:stedsnr" v="12263" />
	</node>
	<node id="-110425" lat="62.0100027755" lon="8.65345556351">
		<tag k="name" v="Skjervetjønne" />
		<tag k="natural" v="water" />
		<tag k="ssr:stedsnr" v="11980" />
	</node>
	<node id="-110424" lat="62.211652777" lon="9.17025833193">
		<tag k="name" v="Kjelsungbekken" />
		<tag k="ssr:stedsnr" v="11951" />
		<tag k="waterway" v="river" />
	</node>
	<node id="-110420" lat="62.216458337" lon="8.48529445056">
		<tag k="alt_name" v="Gravsetåe" />
		<tag k="name" v="Gravsetåi" />
		<tag k="ssr:stedsnr" v="11843" />
		<tag k="waterway" v="stream" />
	</node>
	<node id="-110418" lat="62.087744442" lon="8.71445278043">
		<tag k="alt_name" v="Galåe" />
		<tag k="name" v="Galåi" />
		<tag k="ssr:stedsnr" v="11776" />
		<tag k="waterway" v="stream" />
	</node>
	<node id="-110416" lat="62.0424500023" lon="8.93082777444">
		<tag k="name" v="Storslågåtjønne" />
		<tag k="natural" v="water" />
		<tag k="ssr:stedsnr" v="11563" />
	</node>
	<node id="-110409" lat="62.2969583335" lon="8.73782776912">
		<tag k="name" v="Nørdre Grøve" />
		<tag k="ssr:stedsnr" v="11384" />
		<tag k="waterway" v="stream" />
	</node>
	<node id="-110405" lat="62.3024805578" lon="8.84900555029">
		<tag k="name" v="Veslvatnet" />
		<tag k="natural" v="water" />
		<tag k="ssr:stedsnr" v="11397" />
	</node>
	<node id="-110403" lat="62.0500083304" lon="8.3131694371">
		<tag k="name" v="Lora" />
		<tag k="ssr:stedsnr" v="11233" />
		<tag k="waterway" v="river" />
	</node>
	<node id="-110390" lat="62.149135985" lon="8.55530971548">
		<tag k="fixme" v="multiple name tags, choose one and add the other to alt_name" />
		<tag k="loc_name" v="Skardbekktjønne" />
		<tag k="name" v="Svadalstjønne;Svatjønne" />
		<tag k="natural" v="water" />
		<tag k="ssr:stedsnr" v="987320" />
	</node>
	<node id="-110364" lat="61.2327416711" lon="10.437061112">
		<tag k="loc_name" v="Gudbrandsdalslågen" />
		<tag k="name" v="Lågen" />
		<tag k="ssr:stedsnr" v="129173" />
		<tag k="waterway" v="river" />
	</node>
	<node id="-110363" lat="62.1874472199" lon="8.5086305536">
		<tag k="name" v="Grove" />
		<tag k="ssr:stedsnr" v="899329" />
		<tag k="waterway" v="stream" />
	</node>
	<node id="-110356" lat="62.1723222226" lon="8.58524721325">
		<tag k="name" v="Myrtjønne" />
		<tag k="natural" v="water" />
		<tag k="ssr:stedsnr" v="476324" />
	</node>
	<node id="-110345" lat="62.1468333333" lon="9.05049721302">
		<tag k="name" v="Potaskbekken" />
		<tag k="ssr:stedsnr" v="475885" />
		<tag k="waterway" v="stream" />
	</node>
	<node id="-110342" lat="62.1248583368" lon="8.84376111364">
		<tag k="name" v="Kolstadbekken" />
		<tag k="ssr:stedsnr" v="475733" />
		<tag k="waterway" v="stream" />
	</node>
	<node id="-110336" lat="62.098866666" lon="8.67544999331">
		<tag k="name" v="Teppbekken" />
		<tag k="ssr:stedsnr" v="475572" />
		<tag k="waterway" v="stream" />
	</node>
	<node id="-110332" lat="62.1724555559" lon="8.49429166766">
		<tag k="name" v="Valåfossen" />
		<tag k="natural" v="waterfall" />
		<tag k="ssr:stedsnr" v="475505" />
	</node>
	<node id="-110330" lat="62.2219805551" lon="8.41085556083">
		<tag k="name" v="Langodden" />
		<tag k="natural" v="cape" />
		<tag k="ssr:stedsnr" v="475454" />
	</node>
	<node id="-110327" lat="62.2966083369" lon="8.20934166962">
		<tag k="name" v="Elmerhølen" />
		<tag k="place" v="locality" />
		<tag k="ssr:stedsnr" v="475249" />
	</node>
	<node id="-110314" lat="62.0678722236" lon="8.97819722372">
		<tag k="name" v="Grønlitjønn" />
		<tag k="natural" v="water" />
		<tag k="ssr:stedsnr" v="474848" />
	</node>
	<node id="-110307" lat="62.256600004" lon="8.76215554804">
		<tag k="name" v="Gautholman" />
		<tag k="place" v="islet" />
		<tag k="ssr:stedsnr" v="474725" />
	</node>
	<node id="-110306" lat="62.2237527743" lon="8.76782500377">
		<tag k="name" v="Follåe" />
		<tag k="ssr:stedsnr" v="474678" />
		<tag k="waterway" v="stream" />
	</node>
	<node id="-110302" lat="62.1092416654" lon="8.82812777351">
		<tag k="name" v="Hogsvoldkroken" />
		<tag k="ssr:stedsnr" v="474654" />
		<tag k="waterway" v="rapids" />
	</node>
	<node id="-110298" lat="62.1836138922" lon="8.57558611895">
		<tag k="name" v="Skåpårtjønn" />
		<tag k="natural" v="water" />
		<tag k="ssr:stedsnr" v="474515" />
	</node>
	<node id="-110294" lat="62.1871388926" lon="8.51237222687">
		<tag k="name" v="Kvitskredbekken" />
		<tag k="ssr:stedsnr" v="474319" />
		<tag k="waterway" v="stream" />
	</node>
	<node id="-110289" lat="62.1378138881" lon="8.97504166748">
		<tag k="name" v="Tjønnin" />
		<tag k="natural" v="water" />
		<tag k="ssr:stedsnr" v="412047" />
	</node>
	<node id="-110286" lat="62.0333416662" lon="8.22903333462">
		<tag k="alt_name" v="Bergebekken, nordre" />
		<tag k="name" v="Nordre Bergebekken" />
		<tag k="ssr:stedsnr" v="436964" />
		<tag k="waterway" v="stream" />
	</node>
	<node id="-110285" lat="62.0553750027" lon="8.37205555475">
		<tag k="loc_name" v="Krongelbekken" />
		<tag k="name" v="Steinkloppåe" />
		<tag k="ssr:stedsnr" v="400279" />
		<tag k="waterway" v="stream" />
	</node>
	<node id="-110281" lat="62.2821638919" lon="8.67488334159">
		<tag k="name" v="Vakkerdalsbekken" />
		<tag k="ssr:stedsnr" v="377721" />
		<tag k="waterway" v="stream" />
	</node>
	<node id="-110280" lat="62.2858250028" lon="8.61080832686">
		<tag k="name" v="Langtjønnin" />
		<tag k="natural" v="water" />
		<tag k="ssr:stedsnr" v="376306" />
	</node>
	<node id="-110277" lat="62.2219500042" lon="8.77414999842">
		<tag k="alt_name" v="Kvitåe" />
		<tag k="name" v="Kvita" />
		<tag k="ssr:stedsnr" v="375992" />
		<tag k="waterway" v="stream" />
	</node>
	<node id="-110275" lat="62.248325003" lon="8.77368611659">
		<tag k="name" v="Gautsjøen" />
		<tag k="natural" v="water" />
		<tag k="ssr:stedsnr" v="375975" />
	</node>
	<node id="-110274" lat="62.0373250033" lon="8.2970249911">
		<tag k="alt_name" v="Bergebekken, s" />
		<tag k="name" v="Søre Bergebekken" />
		<tag k="ssr:stedsnr" v="375963" />
		<tag k="waterway" v="stream" />
	</node>
	<node id="-110272" lat="62.2196055558" lon="8.66863054764">
		<tag k="alt_name" v="Ylsbottvatnet, øvre" />
		<tag k="name" v="Øvre Ylsbottvatnet" />
		<tag k="natural" v="water" />
		<tag k="ssr:stedsnr" v="375843" />
		<tag k="water" v="lake" />
	</node>
	<node id="-110269" lat="62.2027750013" lon="8.51345833141">
		<tag k="alt_name" v="Kvernbekken" />
		<tag k="name" v="Kvennbekken" />
		<tag k="ssr:stedsnr" v="375796" />
		<tag k="waterway" v="stream" />
	</node>
	<node id="-110268" lat="62.0978361079" lon="8.58676665863">
		<tag k="alt_name" v="Skardåe" />
		<tag k="name" v="Skardåi" />
		<tag k="ssr:stedsnr" v="375751" />
		<tag k="waterway" v="stream" />
	</node>
	<node id="-110267" lat="62.1046277744" lon="8.48920556389">
		<tag k="name" v="Nørdre Gravåe" />
		<tag k="ssr:stedsnr" v="375730" />
		<tag k="waterway" v="stream" />
	</node>
	<node id="-110262" lat="62.2607888858" lon="8.83686943736">
		<tag k="alt_name" v="Sørhellåe" />
		<tag k="name" v="Sørhellåi" />
		<tag k="ssr:stedsnr" v="375388" />
		<tag k="waterway" v="river" />
	</node>
	<node id="-110260" lat="62.3455916642" lon="8.51485276825">
		<tag k="name" v="Skageosen" />
		<tag k="natural" v="bay" />
		<tag k="ssr:stedsnr" v="375319" />
	</node>
	<node id="-110256" lat="62.3206944434" lon="8.53108332581">
		<tag k="name" v="Hanstjønne" />
		<tag k="natural" v="water" />
		<tag k="ssr:stedsnr" v="375226" />
	</node>
	<node id="-110254" lat="62.1256611083" lon="8.86251944126">
		<tag k="name" v="Honna" />
		<tag k="ssr:stedsnr" v="374952" />
		<tag k="waterway" v="stream" />
	</node>
	<node id="-110243" lat="62.1606499988" lon="8.30347778172">
		<tag k="name" v="Storgrøna" />
		<tag k="ssr:stedsnr" v="374802" />
		<tag k="waterway" v="river" />
	</node>
	<node id="-110241" lat="62.1975500004" lon="9.26893332549">
		<tag k="name" v="Holken" />
		<tag k="natural" v="water" />
		<tag k="ssr:stedsnr" v="374728" />
	</node>
	<node id="-110231" lat="62.2798694481" lon="8.32720556307">
		<tag k="name" v="Vatnarveite" />
		<tag k="ssr:stedsnr" v="414118" />
		<tag k="waterway" v="drain" />
	</node>
	<node id="-110229" lat="62.2701250032" lon="8.28496110408">
		<tag k="name" v="Vetlåe" />
		<tag k="ssr:stedsnr" v="414086" />
		<tag k="waterway" v="stream" />
	</node>
	<node id="-110221" lat="62.2323277819" lon="8.39734444142">
		<tag k="alt_name" v="Sør-Skottåe" />
		<tag k="name" v="Sørskottåe" />
		<tag k="ssr:stedsnr" v="354482" />
		<tag k="waterway" v="stream" />
	</node>
	<node id="-110215" lat="62.2727166664" lon="8.25288889805">
		<tag k="name" v="Nordre Systen" />
		<tag k="ssr:stedsnr" v="354143" />
		<tag k="waterway" v="stream" />
	</node>
	<node id="-110211" lat="62.1746305576" lon="8.91491666293">
		<tag k="name" v="Fillingøyan" />
		<tag k="place" v="islet" />
		<tag k="ssr:stedsnr" v="353940" />
	</node>
	<node id="-110206" lat="62.1417555551" lon="9.00156944344">
		<tag k="name" v="Raudbekken" />
		<tag k="ssr:stedsnr" v="353834" />
		<tag k="waterway" v="stream" />
	</node>
	<node id="-110203" lat="62.120908337" lon="8.80980555642">
		<tag k="fixme" v="multiple name tags, choose one and add the other to alt_name" />
		<tag k="name" v="Liaåe;Pikotsteinbekken" />
		<tag k="ssr:stedsnr" v="353737" />
		<tag k="waterway" v="stream" />
	</node>
	<node id="-110202" lat="62.2681333373" lon="8.64047777636">
		<tag k="name" v="Flybekken" />
		<tag k="ssr:stedsnr" v="353736" />
		<tag k="waterway" v="stream" />
	</node>
	<node id="-110201" lat="62.1220999975" lon="8.82781389789">
		<tag k="name" v="Holsbekken" />
		<tag k="ssr:stedsnr" v="353732" />
		<tag k="waterway" v="stream" />
	</node>
	<node id="-110198" lat="62.2619249989" lon="8.77646667185">
		<tag k="name" v="Sletthellåe" />
		<tag k="ssr:stedsnr" v="353710" />
		<tag k="waterway" v="stream" />
	</node>
	<node id="-110194" lat="62.157249998" lon="8.80066110609">
		<tag k="name" v="Horrungkjelda" />
		<tag k="natural" v="spring" />
		<tag k="ssr:stedsnr" v="353567" />
	</node>
	<node id="-110191" lat="62.1571805565" lon="8.6429499964">
		<tag k="name" v="Risøye" />
		<tag k="natural" v="cape" />
		<tag k="ssr:stedsnr" v="353553" />
	</node>
	<node id="-110184" lat="62.1917194402" lon="8.50828334181">
		<tag k="name" v="Tjuvholmen" />
		<tag k="place" v="islet" />
		<tag k="ssr:stedsnr" v="353351" />
	</node>
	<node id="-110183" lat="62.2372583341" lon="8.2132138968">
		<tag k="name" v="Motjønne" />
		<tag k="natural" v="water" />
		<tag k="ssr:stedsnr" v="353205" />
	</node>
	<node id="-110169" lat="62.3385611152" lon="8.71039445067">
		<tag k="name" v="Geitåi" />
		<tag k="ssr:stedsnr" v="315322" />
		<tag k="waterway" v="stream" />
	</node>
	<node id="-110168" lat="62.3492027757" lon="8.38591110406">
		<tag k="name" v="Simlebekken" />
		<tag k="ssr:stedsnr" v="315317" />
		<tag k="waterway" v="stream" />
	</node>
	<node id="-110166" lat="62.2694499995" lon="8.61917500532">
		<tag k="name" v="Klovbekken" />
		<tag k="ssr:stedsnr" v="315285" />
		<tag k="waterway" v="stream" />
	</node>
	<node id="-110165" lat="62.3110388866" lon="8.43661110889">
		<tag k="name" v="Istjønne" />
		<tag k="natural" v="water" />
		<tag k="ssr:stedsnr" v="315263" />
	</node>
	<node id="-110163" lat="62.3062277808" lon="8.2678666699">
		<tag k="name" v="Bøvre" />
		<tag k="ssr:stedsnr" v="315236" />
		<tag k="waterway" v="stream" />
	</node>
	<node id="-110157" lat="62.0366166653" lon="8.33821667365">
		<tag k="alt_name" v="Løgrove" />
		<tag k="name" v="Løgrovi" />
		<tag k="ssr:stedsnr" v="314960" />
		<tag k="waterway" v="stream" />
	</node>
	<node id="-110155" lat="62.1766583319" lon="8.94470832771">
		<tag k="name" v="Krokutbekken" />
		<tag k="ssr:stedsnr" v="314955" />
		<tag k="waterway" v="stream" />
	</node>
	<node id="-110151" lat="62.1336611102" lon="8.88601111308">
		<tag k="name" v="Skreda" />
		<tag k="ssr:stedsnr" v="314895" />
		<tag k="waterway" v="stream" />
	</node>
	<node id="-110149" lat="62.1548638874" lon="8.92390833176">
		<tag k="alt_name" v="Svinsarbekken" />
		<tag k="name" v="Svinsaråi" />
		<tag k="ssr:stedsnr" v="314888" />
		<tag k="waterway" v="stream" />
	</node>
	<node id="-110140" lat="62.2208500045" lon="8.60751666979">
		<tag k="alt_name" v="Veslbottvatnet, øvre" />
		<tag k="name" v="Øvre Veslbottvatnet" />
		<tag k="natural" v="water" />
		<tag k="ssr:stedsnr" v="314852" />
	</node>
	<node id="-110134" lat="62.1615444453" lon="8.68807500836">
		<tag k="name" v="Svedåi" />
		<tag k="ssr:stedsnr" v="314811" />
		<tag k="waterway" v="stream" />
	</node>
	<node id="-110133" lat="62.1342277744" lon="8.21347776942">
		<tag k="name" v="Grøntjønne" />
		<tag k="natural" v="water" />
		<tag k="ssr:stedsnr" v="314801" />
	</node>
	<node id="-110128" lat="62.2060033694" lon="9.28358615082">
		<tag k="name" v="Semundtjønnin" />
		<tag k="natural" v="water" />
		<tag k="ssr:stedsnr" v="314733" />
		<tag k="water" v="lake" />
	</node>
	<node id="-110127" lat="62.2020111126" lon="9.26758889493">
		<tag k="name" v="Storslågåvatnet" />
		<tag k="natural" v="water" />
		<tag k="ssr:stedsnr" v="314723" />
	</node>
	<node id="-110126" lat="62.086927779" lon="8.93776943853">
		<tag k="alt_name" v="Bøåe" />
		<tag k="name" v="Boåi" />
		<tag k="ssr:stedsnr" v="314626" />
		<tag k="waterway" v="stream" />
	</node>
	<node id="-110125" lat="62.0651861136" lon="8.94043333434">
		<tag k="name" v="Vetlguttjønn" />
		<tag k="natural" v="water" />
		<tag k="ssr:stedsnr" v="314606" />
	</node>
	<node id="-110124" lat="62.0648416668" lon="8.99018056431">
		<tag k="alt_name" v="Kvennåe" />
		<tag k="name" v="Kvernåi" />
		<tag k="ssr:stedsnr" v="314602" />
		<tag k="waterway" v="river" />
	</node>
	<node id="-110123" lat="62.0191055538" lon="8.83566110582">
		<tag k="name" v="Grovbekken" />
		<tag k="ssr:stedsnr" v="314561" />
		<tag k="waterway" v="stream" />
	</node>
	<node id="-110121" lat="62.3377166706" lon="9.12114445327">
		<tag k="name" v="Drugshøtjønnin" />
		<tag k="natural" v="water" />
		<tag k="ssr:stedsnr" v="314433" />
	</node>
	<node id="-110120" lat="62.2738736667" lon="9.04299439382">
		<tag k="alt_name" v="Leirsjøen" />
		<tag k="name" v="Lesjøen" />
		<tag k="natural" v="water" />
		<tag k="ssr:stedsnr" v="314418" />
		<tag k="water" v="lake" />
	</node>
	<node id="-110118" lat="62.2590499966" lon="8.30132500184">
		<tag k="alt_name" v="Søreinbuåi" />
		<tag k="name" v="Søreinbusåe" />
		<tag k="ssr:stedsnr" v="314315" />
		<tag k="waterway" v="river" />
	</node>
	<node id="-110112" lat="62.319378307" lon="9.15890954178">
		<tag k="name" v="Langvatnet" />
		<tag k="natural" v="water" />
		<tag k="ssr:stedsnr" v="315643" />
		<tag k="water" v="lake" />
	</node>
	<node id="-110111" lat="62.2635388878" lon="8.16171667528">
		<tag k="name" v="Svarttjønne" />
		<tag k="natural" v="water" />
		<tag k="ssr:stedsnr" v="314154" />
	</node>
	<node id="-110106" lat="62.1678249988" lon="8.6259388882">
		<tag k="name" v="Andtjønne" />
		<tag k="natural" v="water" />
		<tag k="ssr:stedsnr" v="294323" />
	</node>
	<node id="-110097" lat="62.0732333374" lon="8.949144443">
		<tag k="name" v="Kvivelsætertjønne" />
		<tag k="natural" v="water" />
		<tag k="ssr:stedsnr" v="293784" />
	</node>
	<node id="-110092" lat="62.2299583365" lon="8.74892222854">
		<tag k="name" v="Vetlebekken" />
		<tag k="ssr:stedsnr" v="293700" />
		<tag k="waterway" v="stream" />
	</node>
	<node id="-110091" lat="62.2546138904" lon="8.75283610795">
		<tag k="name" v="Buvike" />
		<tag k="natural" v="bay" />
		<tag k="ssr:stedsnr" v="293694" />
	</node>
	<node id="-110083" lat="62.2221500033" lon="8.23833333986">
		<tag k="name" v="Søre Helsbybekken" />
		<tag k="ssr:stedsnr" v="293216" />
		<tag k="waterway" v="stream" />
	</node>
	<node id="-110079" lat="62.259908331" lon="8.18825000839">
		<tag k="name" v="Kringelløken" />
		<tag k="natural" v="water" />
		<tag k="ssr:stedsnr" v="293160" />
	</node>
	<node id="-110067" lat="62.1699222252" lon="8.54629166102">
		<tag k="name" v="Svaåkroken" />
		<tag k="place" v="locality" />
		<tag k="ssr:stedsnr" v="292309" />
	</node>
	<node id="-111987" lat="62.1973805542" lon="8.49679721903">
		<tag k="name" v="Knipstugubotten" />
		<tag k="natural" v="bay" />
		<tag k="ssr:stedsnr" v="961462" />
	</node>
	<node id="-111983" lat="62.3002444482" lon="8.18516943548">
		<tag k="name" v="Langodden" />
		<tag k="natural" v="cape" />
		<tag k="ssr:stedsnr" v="961241" />
	</node>
	<node id="-111965" lat="62.1193694402" lon="8.82043610626">
		<tag k="name" v="Belleåe" />
		<tag k="ssr:stedsnr" v="960712" />
		<tag k="waterway" v="stream" />
	</node>
	<node id="-111964" lat="62.2506861117" lon="8.8486194366">
		<tag k="name" v="Tverråkroken" />
		<tag k="place" v="locality" />
		<tag k="ssr:stedsnr" v="960695" />
	</node>
	<node id="-111960" lat="62.1103388885" lon="8.65496943707">
		<tag k="name" v="Ekerkjelda" />
		<tag k="natural" v="spring" />
		<tag k="ssr:stedsnr" v="960574" />
	</node>
	<node id="-111955" lat="62.1237666644" lon="8.67035834267">
		<tag k="name" v="Bombeøye" />
		<tag k="place" v="island" />
		<tag k="ssr:stedsnr" v="960408" />
	</node>
	<node id="-111945" lat="62.2419611118" lon="8.28546111811">
		<tag k="name" v="Kvamsbekken" />
		<tag k="ssr:stedsnr" v="960087" />
		<tag k="waterway" v="stream" />
	</node>
	<node id="-111943" lat="62.1471690439" lon="9.02967875325">
		<tag k="name" v="Raudåe" />
		<tag k="ssr:stedsnr" v="958051" />
		<tag k="waterway" v="stream" />
	</node>
	<node id="-111940" lat="62.0609888855" lon="8.36774999122">
		<tag k="loc_name" v="Steinkloppgrove" />
		<tag k="name" v="Steinkloppåe" />
		<tag k="ssr:stedsnr" v="947291" />
		<tag k="waterway" v="stream" />
	</node>
	<node id="-111937" lat="62.2691194462" lon="8.75023889065">
		<tag k="name" v="Svartvike" />
		<tag k="natural" v="bay" />
		<tag k="ssr:stedsnr" v="923711" />
	</node>
	<node id="-111933" lat="62.3141500019" lon="8.49533610715">
		<tag k="name" v="Miuåi" />
		<tag k="ssr:stedsnr" v="922252" />
		<tag k="waterway" v="river" />
	</node>
	<node id="-111926" lat="62.0348638869" lon="8.57256666483">
		<tag k="loc_name" v="Ryggjehøtjønn" />
		<tag k="name" v="Rygghøtjønne" />
		<tag k="natural" v="water" />
		<tag k="ssr:stedsnr" v="921966" />
	</node>
	<node id="-111918" lat="62.0874888849" lon="8.66886111956">
		<tag k="alt_name" v="Stor-nesåe" />
		<tag k="name" v="Stornesåi" />
		<tag k="ssr:stedsnr" v="921787" />
		<tag k="waterway" v="stream" />
	</node>
	<node id="-111917" lat="62.1003972181" lon="8.66633333111">
		<tag k="alt_name" v="Vesle Nesåe;Veslnesåe" />
		<tag k="name" v="Veslnesåi" />
		<tag k="ssr:stedsnr" v="921782" />
		<tag k="waterway" v="stream" />
	</node>
	<node id="-111913" lat="62.1893611091" lon="8.44385555097">
		<tag k="alt_name" v="Breidbekken" />
		<tag k="name" v="Breibekken" />
		<tag k="ssr:stedsnr" v="921701" />
		<tag k="waterway" v="stream" />
	</node>
	<node id="-111906" lat="62.0418694426" lon="8.91878333129">
		<tag k="name" v="Varmlandstjønne" />
		<tag k="natural" v="water" />
		<tag k="ssr:stedsnr" v="921591" />
	</node>
	<node id="-111902" lat="62.335588891" lon="9.03148333509">
		<tag k="name" v="Veslholbekken" />
		<tag k="ssr:stedsnr" v="921431" />
		<tag k="waterway" v="stream" />
	</node>
	<node id="-111901" lat="62.3100666649" lon="8.99314999696">
		<tag k="name" v="Lågvatnet" />
		<tag k="natural" v="water" />
		<tag k="ssr:stedsnr" v="921427" />
		<tag k="water" v="lake" />
	</node>
	<node id="-111899" lat="62.2964944437" lon="9.08326665978">
		<tag k="name" v="Langvassbekken" />
		<tag k="ssr:stedsnr" v="921414" />
		<tag k="waterway" v="stream" />
	</node>
	<node id="-111897" lat="62.2941805527" lon="8.74670554974">
		<tag k="name" v="Søre Grøve" />
		<tag k="ssr:stedsnr" v="921413" />
		<tag k="waterway" v="stream" />
	</node>
	<node id="-111896" lat="62.2741277798" lon="8.6932166702">
		<tag k="name" v="Lomtjønne" />
		<tag k="natural" v="water" />
		<tag k="ssr:stedsnr" v="921321" />
	</node>
	<node id="-111881" lat="62.2086194457" lon="9.20870833772">
		<tag k="name" v="Grøntjønne" />
		<tag k="natural" v="water" />
		<tag k="ssr:stedsnr" v="921945" />
	</node>
	<node id="-111877" lat="62.1357194482" lon="8.76136943953">
		<tag k="alt_name" v="Skålrustbekken" />
		<tag k="name" v="Skårrustbekken" />
		<tag k="ssr:stedsnr" v="921908" />
		<tag k="waterway" v="stream" />
	</node>
	<node id="-111874" lat="62.1554111132" lon="8.94735834133">
		<tag k="alt_name" v="Galåe" />
		<tag k="name" v="Galåi" />
		<tag k="ssr:stedsnr" v="921898" />
		<tag k="waterway" v="stream" />
	</node>
	<node id="-111873" lat="62.1507416636" lon="8.92365000125">
		<tag k="name" v="Skråma" />
		<tag k="ssr:stedsnr" v="921896" />
		<tag k="waterway" v="stream" />
	</node>
	<node id="-111870" lat="62.2228611114" lon="8.56260832715">
		<tag k="name" v="Perstjønne" />
		<tag k="natural" v="water" />
		<tag k="ssr:stedsnr" v="921866" />
	</node>
	<node id="-111867" lat="62.1685944482" lon="8.69645278469">
		<tag k="name" v="Sveabekken" />
		<tag k="ssr:stedsnr" v="901702" />
		<tag k="waterway" v="stream" />
	</node>
	<node id="-111863" lat="62.169761111" lon="8.6276638903">
		<tag k="name" v="Slettakvernøye" />
		<tag k="natural" v="cape" />
		<tag k="ssr:stedsnr" v="901324" />
	</node>
	<node id="-111848" lat="62.1540055519" lon="8.75467500501">
		<tag k="name" v="Søre Lyftinge" />
		<tag k="ssr:stedsnr" v="900565" />
		<tag k="waterway" v="stream" />
	</node>
	<node id="-111845" lat="62.140697222" lon="8.80927499083">
		<tag k="name" v="Holebekken" />
		<tag k="ssr:stedsnr" v="900549" />
		<tag k="waterway" v="stream" />
	</node>
	<node id="-111844" lat="62.1435472236" lon="8.66883611549">
		<tag k="name" v="Jensholen" />
		<tag k="natural" v="cape" />
		<tag k="ssr:stedsnr" v="900546" />
	</node>
	<node id="-111838" lat="62.234708329" lon="8.14595276859">
		<tag k="name" v="Kvitlan" />
		<tag k="place" v="island" />
		<tag k="ssr:stedsnr" v="900175" />
	</node>
	<node id="-111836" lat="62.2342249981" lon="8.35772500664">
		<tag k="name" v="Rundtombekken" />
		<tag k="ssr:stedsnr" v="900087" />
		<tag k="waterway" v="stream" />
	</node>
	<node id="-111828" lat="62.1062722249" lon="8.83041944718">
		<tag k="name" v="Løken" />
		<tag k="ssr:stedsnr" v="899649" />
		<tag k="waterway" v="drain" />
	</node>
	<node id="-111823" lat="62.2218333339" lon="8.42383333105">
		<tag k="name" v="Tjuruholmen" />
		<tag k="place" v="islet" />
		<tag k="ssr:stedsnr" v="900456" />
	</node>
	<node id="-111822" lat="62.1968194489" lon="8.49120556088">
		<tag k="name" v="Bukkeholman" />
		<tag k="place" v="islet" />
		<tag k="ssr:stedsnr" v="900450" />
	</node>
	<node id="-111820" lat="62.2839166657" lon="8.68921388058">
		<tag k="name" v="Gåsbuosen" />
		<tag k="natural" v="bay" />
		<tag k="ssr:stedsnr" v="870750" />
	</node>
	<node id="-111817" lat="62.0626055574" lon="8.24850277979">
		<tag k="name" v="Søre Løyftåe" />
		<tag k="ssr:stedsnr" v="861756" />
		<tag k="waterway" v="stream" />
	</node>
	<node id="-111810" lat="62.3168249978" lon="8.73653055972">
		<tag k="name" v="Grynningsbekken" />
		<tag k="ssr:stedsnr" v="861373" />
		<tag k="waterway" v="stream" />
	</node>
	<node id="-111809" lat="62.3291527758" lon="9.00451389541">
		<tag k="name" v="Øvre Lustjønne" />
		<tag k="natural" v="water" />
		<tag k="ssr:stedsnr" v="861370" />
	</node>
	<node id="-111808" lat="62.3238777744" lon="9.05329444804">
		<tag k="name" v="Storholbekken" />
		<tag k="ssr:stedsnr" v="861371" />
		<tag k="waterway" v="stream" />
	</node>
	<node id="-111803" lat="62.362205558" lon="8.62854999515">
		<tag k="name" v="Aursjøen" />
		<tag k="natural" v="water" />
		<tag k="ssr:stedsnr" v="861342" />
		<tag k="water" v="lake" />
	</node>
	<node id="-111793" lat="62.2278166646" lon="9.21892500838">
		<tag k="name" v="Skredabekken" />
		<tag k="ssr:stedsnr" v="861000" />
		<tag k="waterway" v="stream" />
	</node>
	<node id="-111792" lat="62.2372749972" lon="9.05704999206">
		<tag k="name" v="Grovi" />
		<tag k="ssr:stedsnr" v="860998" />
		<tag k="waterway" v="stream" />
	</node>
	<node id="-111783" lat="62.1904333297" lon="8.60691944849">
		<tag k="alt_name" v="Buduåe" />
		<tag k="name" v="Buduåi" />
		<tag k="ssr:stedsnr" v="860862" />
		<tag k="waterway" v="stream" />
	</node>
	<node id="-111774" lat="62.1982722261" lon="9.23452500354">
		<tag k="name" v="Sandvatnet" />
		<tag k="natural" v="water" />
		<tag k="ssr:stedsnr" v="860772" />
	</node>
	<node id="-111771" lat="62.2467527764" lon="8.43383055993">
		<tag k="alt_name" v="Brandliåe" />
		<tag k="name" v="Brandliåi" />
		<tag k="ssr:stedsnr" v="860269" />
		<tag k="waterway" v="stream" />
	</node>
	<node id="-111765" lat="62.1347611147" lon="8.21472499157">
		<tag k="name" v="Simleholmen" />
		<tag k="place" v="islet" />
		<tag k="ssr:stedsnr" v="860231" />
	</node>
	<node id="-111763" lat="62.2696194477" lon="8.14827221399">
		<tag k="name" v="Lomtjønn" />
		<tag k="natural" v="water" />
		<tag k="ssr:stedsnr" v="860147" />
	</node>
	<node id="-111752" lat="62.2520555565" lon="8.11837222688">
		<tag k="name" v="Storløken" />
		<tag k="natural" v="bay" />
		<tag k="ssr:stedsnr" v="840226" />
	</node>
	<node id="-111736" lat="62.1962555583" lon="8.89777500562">
		<tag k="name" v="Matvike" />
		<tag k="natural" v="bay" />
		<tag k="ssr:stedsnr" v="839891" />
	</node>
	<node id="-111729" lat="62.122447218" lon="8.82046110601">
		<tag k="name" v="Krekan" />
		<tag k="ssr:stedsnr" v="839738" />
		<tag k="waterway" v="stream" />
	</node>
	<node id="-111727" lat="62.2494249988" lon="8.73608889712">
		<tag k="name" v="Skjervikbekken" />
		<tag k="ssr:stedsnr" v="839698" />
		<tag k="waterway" v="stream" />
	</node>
	<node id="-111725" lat="62.0494555598" lon="9.02209444973">
		<tag k="name" v="Borgåtjønnin" />
		<tag k="natural" v="water" />
		<tag k="ssr:stedsnr" v="839646" />
	</node>
	<node id="-111719" lat="62.1913055512" lon="8.51840276924">
		<tag k="name" v="Vassendodden" />
		<tag k="natural" v="cape" />
		<tag k="ssr:stedsnr" v="839349" />
	</node>
	<node id="-111712" lat="62.069491666" lon="9.02683888417">
		<tag k="name" v="Fjellvabekken" />
		<tag k="ssr:stedsnr" v="838275" />
		<tag k="waterway" v="stream" />
	</node>
	<node id="-111708" lat="62.169919447" lon="8.01626388207">
		<tag k="name" v="Storhøtjønne" />
		<tag k="natural" v="water" />
		<tag k="ssr:stedsnr" v="816744" />
		<tag k="water" v="lake" />
	</node>
	<node id="-111704" lat="62.2932666633" lon="8.6676472237">
		<tag k="name" v="Svarttjønnbekken" />
		<tag k="ssr:stedsnr" v="801661" />
		<tag k="waterway" v="stream" />
	</node>
	<node id="-111703" lat="62.2799583312" lon="8.59264444115">
		<tag k="name" v="Skardtjønnin" />
		<tag k="natural" v="water" />
		<tag k="ssr:stedsnr" v="801287" />
	</node>
	<node id="-111700" lat="62.3282833374" lon="8.45854166282">
		<tag k="name" v="Svennebyhølen" />
		<tag k="natural" v="water" />
		<tag k="ssr:stedsnr" v="801251" />
	</node>
	<node id="-111699" lat="62.27373889" lon="8.32098611204">
		<tag k="name" v="Grårandtjønne" />
		<tag k="natural" v="water" />
		<tag k="ssr:stedsnr" v="801248" />
	</node>
	<node id="-111696" lat="62.2938611151" lon="8.51009444729">
		<tag k="name" v="Sandåi" />
		<tag k="ssr:stedsnr" v="801237" />
		<tag k="waterway" v="stream" />
	</node>
	<node id="-111695" lat="62.3095305553" lon="8.46409166918">
		<tag k="name" v="Saltjønne" />
		<tag k="natural" v="water" />
		<tag k="ssr:stedsnr" v="801233" />
	</node>
	<node id="-111683" lat="62.2260670072" lon="8.671255919">
		<tag k="alt_name" v="Ylsbottvatnet, nedre" />
		<tag k="name" v="Nedre Ylsbottvatnet" />
		<tag k="natural" v="water" />
		<tag k="ssr:stedsnr" v="800841" />
		<tag k="water" v="lake" />
	</node>
	<node id="-111682" lat="62.2451722187" lon="8.66510000291">
		<tag k="name" v="Storsteintjønne" />
		<tag k="natural" v="water" />
		<tag k="ssr:stedsnr" v="800835" />
	</node>
	<node id="-111681" lat="62.2483010333" lon="8.59724521973">
		<tag k="alt_name" v="Merrabottvatnet, nedre" />
		<tag k="name" v="Nedre Merrabottvatnet" />
		<tag k="natural" v="water" />
		<tag k="ssr:stedsnr" v="800834" />
		<tag k="water" v="lake" />
	</node>
	<node id="-111676" lat="62.098374999" lon="8.69659166977">
		<tag k="name" v="Skjellbekken" />
		<tag k="ssr:stedsnr" v="800747" />
		<tag k="waterway" v="stream" />
	</node>
	<node id="-111675" lat="62.0717305589" lon="8.31361388754">
		<tag k="name" v="Nørdre Grove" />
		<tag k="ssr:stedsnr" v="800736" />
		<tag k="waterway" v="stream" />
	</node>
	<node id="-111674" lat="62.2055305575" lon="9.204266671">
		<tag k="name" v="Grisungbekken" />
		<tag k="ssr:stedsnr" v="800945" />
		<tag k="waterway" v="stream" />
	</node>
	<node id="-111673" lat="62.1105416678" lon="8.55551389541">
		<tag k="alt_name" v="Slettmoåe" />
		<tag k="name" v="Slettmoåi" />
		<tag k="ssr:stedsnr" v="800724" />
		<tag k="waterway" v="stream" />
	</node>
	<node id="-111672" lat="62.1059777743" lon="8.49994999307">
		<tag k="name" v="Søre Gravåe" />
		<tag k="ssr:stedsnr" v="800725" />
		<tag k="waterway" v="stream" />
	</node>
	<node id="-111670" lat="62.0183000008" lon="8.97600555514">
		<tag k="name" v="Svarthåmårtjønne" />
		<tag k="natural" v="water" />
		<tag k="ssr:stedsnr" v="800525" />
	</node>
	<node id="-111666" lat="62.3620472211" lon="8.45156945006">
		<tag k="name" v="Fagebottjønne" />
		<tag k="natural" v="water" />
		<tag k="ssr:stedsnr" v="800355" />
	</node>
	<node id="-111660" lat="62.1814916647" lon="8.11599444924">
		<tag k="name" v="Herrahøtjønnin" />
		<tag k="natural" v="water" />
		<tag k="ssr:stedsnr" v="800159" />
	</node>
	<node id="-111659" lat="62.257783332" lon="8.11131667112">
		<tag k="name" v="Asbjørnsåi" />
		<tag k="ssr:stedsnr" v="800135" />
		<tag k="waterway" v="stream" />
	</node>
	<node id="-111653" lat="62.1561750005" lon="8.88274165935">
		<tag k="alt_name" v="Djupdalsåe" />
		<tag k="name" v="Djupdalsbekken" />
		<tag k="ssr:stedsnr" v="799924" />
		<tag k="waterway" v="stream" />
	</node>
	<node id="-111645" lat="62.0785583353" lon="8.9540555488">
		<tag k="alt_name" v="Bjoråe" />
		<tag k="name" v="Bjoråi" />
		<tag k="ssr:stedsnr" v="799614" />
		<tag k="waterway" v="stream" />
	</node>
	<node id="-111640" lat="62.1103999985" lon="8.17195277573">
		<tag k="alt_name" v="Grønvatnet, søre" />
		<tag k="name" v="Søre Grønvatnet" />
		<tag k="natural" v="water" />
		<tag k="ssr:stedsnr" v="799201" />
		<tag k="water" v="lake" />
	</node>
	<node id="-111633" lat="62.2035805532" lon="8.45614722413">
		<tag k="name" v="Nordre Hyrjon" />
		<tag k="ssr:stedsnr" v="779477" />
		<tag k="waterway" v="stream" />
	</node>
	<node id="-111632" lat="62.2063944431" lon="8.46358888072">
		<tag k="name" v="Sagvike" />
		<tag k="natural" v="bay" />
		<tag k="ssr:stedsnr" v="779475" />
	</node>
	<node id="-111626" lat="62.2380361085" lon="8.13586666889">
		<tag k="name" v="Kvernhusfossen" />
		<tag k="natural" v="waterfall" />
		<tag k="ssr:stedsnr" v="779214" />
	</node>
	<node id="-111619" lat="62.197241667" lon="8.89594722975">
		<tag k="name" v="Kringlotholen" />
		<tag k="natural" v="cape" />
		<tag k="ssr:stedsnr" v="778899" />
	</node>
	<node id="-111617" lat="62.1268583371" lon="9.05058055644">
		<tag k="name" v="Hansstudulen" />
		<tag k="natural" v="cape" />
		<tag k="ssr:stedsnr" v="778891" />
	</node>
	<node id="-111608" lat="62.1161888897" lon="8.80956667353">
		<tag k="name" v="Lemba" />
		<tag k="ssr:stedsnr" v="778719" />
		<tag k="waterway" v="stream" />
	</node>
	<node id="-111592" lat="62.1710944441" lon="8.61356665894">
		<tag k="name" v="Løkan" />
		<tag k="place" v="locality" />
		<tag k="ssr:stedsnr" v="778327" />
	</node>
	<node id="-111577" lat="62.2061416746" lon="9.07589513436">
		<tag k="name" v="Veslstrålsjøen" />
		<tag k="natural" v="water" />
		<tag k="ssr:stedsnr" v="739936" />
		<tag k="water" v="lake" />
	</node>
	<node id="-111576" lat="62.1899583364" lon="8.78392777686">
		<tag k="name" v="Horrungtjønnin" />
		<tag k="natural" v="water" />
		<tag k="ssr:stedsnr" v="739934" />
		<tag k="water" v="lake" />
	</node>
	<node id="-111566" lat="62.0908749977" lon="8.55222500629">
		<tag k="alt_name" v="Bergutåe" />
		<tag k="name" v="Bergutåi" />
		<tag k="ssr:stedsnr" v="739782" />
		<tag k="waterway" v="stream" />
	</node>
	<node id="-111565" lat="62.0912055535" lon="8.26996667163">
		<tag k="name" v="Krokuttjønne" />
		<tag k="natural" v="water" />
		<tag k="ssr:stedsnr" v="739776" />
		<tag k="water" v="lake" />
	</node>
	<node id="-111559" lat="62.0928555522" lon="8.83432499334">
		<tag k="alt_name" v="Nore" />
		<tag k="name" v="Nora" />
		<tag k="ssr:stedsnr" v="739615" />
		<tag k="waterway" v="stream" />
	</node>
	<node id="-111556" lat="62.0214416688" lon="8.89103610199">
		<tag k="name" v="Vesleskjerva" />
		<tag k="ssr:stedsnr" v="739536" />
		<tag k="waterway" v="stream" />
	</node>
	<node id="-111553" lat="62.2539555534" lon="8.78756111182">
		<tag k="name" v="Kråkodden" />
		<tag k="natural" v="cape" />
		<tag k="ssr:stedsnr" v="739426" />
	</node>
	<node id="-111551" lat="62.306086114" lon="9.0242194456">
		<tag k="alt_name" v="Lågvassbekken, s" />
		<tag k="name" v="Søre Lågvassbekken" />
		<tag k="ssr:stedsnr" v="739389" />
		<tag k="waterway" v="stream" />
	</node>
	<node id="-111549" lat="62.3099499957" lon="8.86106110954">
		<tag k="name" v="Svartdalsåi" />
		<tag k="ssr:stedsnr" v="739381" />
		<tag k="waterway" v="river" />
	</node>
	<node id="-111546" lat="62.3603111132" lon="8.69474444243">
		<tag k="name" v="Knutsløyftbekken" />
		<tag k="ssr:stedsnr" v="739328" />
		<tag k="waterway" v="stream" />
	</node>
	<node id="-111544" lat="62.0424861156" lon="8.18519445341">
		<tag k="name" v="Nørdre Løyftåe" />
		<tag k="ssr:stedsnr" v="739231" />
		<tag k="waterway" v="stream" />
	</node>
	<node id="-111542" lat="62.1526055561" lon="8.12758332902">
		<tag k="name" v="Kjelkehøtjønne" />
		<tag k="natural" v="water" />
		<tag k="ssr:stedsnr" v="739203" />
	</node>
	<node id="-111539" lat="62.1693833347" lon="8.96321110906">
		<tag k="name" v="Hundsjøen" />
		<tag k="natural" v="water" />
		<tag k="ssr:stedsnr" v="738971" />
	</node>
	<node id="-111536" lat="62.1933138925" lon="8.33314165854">
		<tag k="name" v="Sæterbekken" />
		<tag k="ssr:stedsnr" v="738865" />
		<tag k="waterway" v="stream" />
	</node>
	<node id="-111534" lat="62.2003222189" lon="8.53890832589">
		<tag k="alt_name" v="Breibekken" />
		<tag k="name" v="Breidbekken" />
		<tag k="ssr:stedsnr" v="738834" />
		<tag k="waterway" v="stream" />
	</node>
	<node id="-111533" lat="62.1684472265" lon="8.4909888968">
		<tag k="alt_name" v="Valåe" />
		<tag k="name" v="Valåi" />
		<tag k="ssr:stedsnr" v="738799" />
		<tag k="waterway" v="river" />
	</node>
	<node id="-111531" lat="62.160383335" lon="9.12982222458">
		<tag k="name" v="Grøna" />
		<tag k="ssr:stedsnr" v="738704" />
		<tag k="waterway" v="river" />
	</node>
	<node id="-111529" lat="62.143630555" lon="8.06593610857">
		<tag k="name" v="Digerkampvatnet" />
		<tag k="natural" v="water" />
		<tag k="ssr:stedsnr" v="738213" />
	</node>
	<node id="-111528" lat="62.1170972235" lon="8.12130278664">
		<tag k="name" v="Istjønne" />
		<tag k="natural" v="water" />
		<tag k="ssr:stedsnr" v="738201" />
	</node>
	<node id="-111527" lat="62.239741665" lon="8.13196665949">
		<tag k="name" v="Elgøye" />
		<tag k="place" v="island" />
		<tag k="ssr:stedsnr" v="734241" />
	</node>
	<node id="-111517" lat="62.1945555589" lon="8.48376665809">
		<tag k="name" v="Valåbotten" />
		<tag k="natural" v="bay" />
		<tag k="ssr:stedsnr" v="718472" />
	</node>
	<node id="-111510" lat="62.1663916685" lon="8.92010833433">
		<tag k="name" v="Storkroken" />
		<tag k="natural" v="water" />
		<tag k="ssr:stedsnr" v="718939" />
		<tag k="water" v="lake" />
	</node>
	<node id="-111505" lat="62.1271083375" lon="9.05265555544">
		<tag k="name" v="Hansstudulhølen" />
		<tag k="place" v="locality" />
		<tag k="ssr:stedsnr" v="717906" />
	</node>
	<node id="-111500" lat="62.0636138867" lon="8.98779166128">
		<tag k="name" v="Tunga" />
		<tag k="natural" v="cape" />
		<tag k="ssr:stedsnr" v="717848" />
	</node>
	<node id="-111489" lat="62.2393027741" lon="8.75713333893">
		<tag k="name" v="Liaåe" />
		<tag k="ssr:stedsnr" v="717712" />
		<tag k="waterway" v="stream" />
	</node>
	<node id="-111475" lat="62.1819749983" lon="8.58599999264">
		<tag k="name" v="Olavskjelda" />
		<tag k="natural" v="spring" />
		<tag k="ssr:stedsnr" v="717529" />
	</node>
	<node id="-111474" lat="62.1958527823" lon="8.55343889762">
		<tag k="name" v="Odolsbekken" />
		<tag k="ssr:stedsnr" v="717343" />
		<tag k="waterway" v="stream" />
	</node>
	<node id="-111457" lat="62.165075001" lon="8.04046667621">
		<tag k="name" v="Skurveostjønnin" />
		<tag k="natural" v="water" />
		<tag k="ssr:stedsnr" v="695709" />
		<tag k="water" v="lake" />
	</node>
	<node id="-111455" lat="62.2533499997" lon="8.85458333181">
		<tag k="alt_name" v="Tverråe" />
		<tag k="name" v="Tverråi" />
		<tag k="ssr:stedsnr" v="679628" />
		<tag k="waterway" v="river" />
	</node>
	<node id="-111454" lat="62.3676388925" lon="8.67975277508">
		<tag k="name" v="Skjellbreidvatnet" />
		<tag k="natural" v="water" />
		<tag k="ssr:stedsnr" v="679338" />
	</node>
	<node id="-111450" lat="62.3505694455" lon="8.50970556167">
		<tag k="name" v="Langtjønne" />
		<tag k="natural" v="water" />
		<tag k="ssr:stedsnr" v="679303" />
	</node>
	<node id="-111449" lat="62.3365333321" lon="8.25536389068">
		<tag k="name" v="Hallogløyptjønne" />
		<tag k="natural" v="water" />
		<tag k="ssr:stedsnr" v="679302" />
	</node>
	<node id="-111446" lat="62.3185222237" lon="8.48256943511">
		<tag k="name" v="Søre Miutjønne" />
		<tag k="natural" v="water" />
		<tag k="ssr:stedsnr" v="679243" />
	</node>
	<node id="-111444" lat="62.2352444431" lon="8.82442500774">
		<tag k="name" v="Trælen" />
		<tag k="natural" v="water" />
		<tag k="ssr:stedsnr" v="678996" />
	</node>
	<node id="-111443" lat="62.2275361135" lon="9.0557416669">
		<tag k="name" v="Mjogsjøen" />
		<tag k="natural" v="water" />
		<tag k="ssr:stedsnr" v="678994" />
		<tag k="water" v="lake" />
	</node>
	<node id="-111442" lat="62.2481500042" lon="8.98407777597">
		<tag k="name" v="Flatbekken" />
		<tag k="ssr:stedsnr" v="678987" />
		<tag k="waterway" v="stream" />
	</node>
	<node id="-111440" lat="62.0249666632" lon="8.37109443587">
		<tag k="alt_name" v="Storfellinge" />
		<tag k="name" v="Storfellingi" />
		<tag k="ssr:stedsnr" v="678968" />
		<tag k="waterway" v="river" />
	</node>
	<node id="-111436" lat="62.1686750002" lon="9.03645278701">
		<tag k="name" v="Holbekken" />
		<tag k="ssr:stedsnr" v="678944" />
		<tag k="waterway" v="stream" />
	</node>
	<node id="-111431" lat="62.2076166706" lon="8.83308055169">
		<tag k="alt_name" v="Vetlegrove" />
		<tag k="name" v="Veslegrovi" />
		<tag k="ssr:stedsnr" v="678921" />
		<tag k="waterway" v="stream" />
	</node>
	<node id="-111425" lat="62.139941668" lon="8.80080834158">
		<tag k="alt_name" v="Liaåe" />
		<tag k="name" v="Liaåi" />
		<tag k="ssr:stedsnr" v="678904" />
		<tag k="waterway" v="stream" />
	</node>
	<node id="-111418" lat="62.2307750001" lon="8.62035278619">
		<tag k="alt_name" v="Vetlbottbekken" />
		<tag k="name" v="Veslbottbekken" />
		<tag k="ssr:stedsnr" v="678856" />
		<tag k="waterway" v="stream" />
	</node>
	<node id="-111409" lat="62.1816638881" lon="8.63506388149">
		<tag k="alt_name" v="Mosendåe" />
		<tag k="name" v="Mosendåi" />
		<tag k="ssr:stedsnr" v="678782" />
		<tag k="waterway" v="stream" />
	</node>
	<node id="-111404" lat="62.1966361068" lon="9.2216555641">
		<tag k="name" v="Korpehaugtjønne" />
		<tag k="natural" v="water" />
		<tag k="ssr:stedsnr" v="678731" />
	</node>
	<node id="-111398" lat="62.0306694449" lon="8.95565833424">
		<tag k="name" v="Fauttjønnbekken" />
		<tag k="ssr:stedsnr" v="678550" />
		<tag k="waterway" v="stream" />
	</node>
	<node id="-111396" lat="62.2550005308" lon="8.74028266781">
		<tag k="fixme" v="multiple name tags, choose one and add the other to alt_name" />
		<tag k="name" v="Fiskeviki;Skjervike" />
		<tag k="natural" v="bay" />
		<tag k="ssr:stedsnr" v="678468" />
	</node>
	<node id="-111393" lat="62.1628166678" lon="8.06908612042">
		<tag k="name" v="Buabergvatnet" />
		<tag k="natural" v="water" />
		<tag k="ssr:stedsnr" v="678233" />
	</node>
	<node id="-111387" lat="62.2391777753" lon="8.11744444453">
		<tag k="loc_name" v="Tverråe" />
		<tag k="name" v="Tverråi" />
		<tag k="ssr:stedsnr" v="678137" />
		<tag k="waterway" v="stream" />
	</node>
	<node id="-111378" lat="62.1964388879" lon="8.90444166161">
		<tag k="name" v="Kjeksosen" />
		<tag k="natural" v="water" />
		<tag k="ssr:stedsnr" v="657902" />
		<tag k="water" v="lake" />
	</node>
	<node id="-111377" lat="62.2000472267" lon="8.88900000918">
		<tag k="name" v="Feloddin" />
		<tag k="natural" v="cape" />
		<tag k="ssr:stedsnr" v="657895" />
	</node>
	<node id="-111373" lat="62.2746416632" lon="8.68461388789">
		<tag k="name" v="Raudbekken" />
		<tag k="ssr:stedsnr" v="657709" />
		<tag k="waterway" v="stream" />
	</node>
	<node id="-111368" lat="62.2562861142" lon="8.75098888614">
		<tag k="name" v="Buodden" />
		<tag k="natural" v="shoal" />
		<tag k="place" v="locality" />
		<tag k="ssr:stedsnr" v="657665" />
	</node>
	<node id="-111366" lat="62.2182611099" lon="8.43263333384">
		<tag k="name" v="Ulvesundet" />
		<tag k="natural" v="strait" />
		<tag k="ssr:stedsnr" v="657473" />
	</node>
	<node id="-111352" lat="62.1045444415" lon="8.80289444121">
		<tag k="name" v="Rotåe" />
		<tag k="ssr:stedsnr" v="656669" />
		<tag k="waterway" v="stream" />
	</node>
	<node id="-111347" lat="62.1444999993" lon="8.77845556001">
		<tag k="name" v="Svellhovdbekken" />
		<tag k="ssr:stedsnr" v="656564" />
		<tag k="waterway" v="stream" />
	</node>
	<node id="-111341" lat="62.1203722215" lon="8.70510277707">
		<tag k="name" v="Rabbin" />
		<tag k="place" v="locality" />
		<tag k="ssr:stedsnr" v="656427" />
	</node>
	<node id="-111337" lat="62.200441664" lon="8.55204166979">
		<tag k="name" v="Torsplassåe" />
		<tag k="ssr:stedsnr" v="656331" />
		<tag k="waterway" v="stream" />
	</node>
	<node id="-111334" lat="62.2443027818" lon="8.35667499545">
		<tag k="name" v="Teppfossen" />
		<tag k="natural" v="waterfall" />
		<tag k="ssr:stedsnr" v="656097" />
	</node>
	<node id="-111326" lat="62.287950004" lon="8.67883056098">
		<tag k="name" v="Vetl-Vangsåe" />
		<tag k="ssr:stedsnr" v="618719" />
		<tag k="waterway" v="stream" />
	</node>
	<node id="-111324" lat="62.3421833344" lon="8.51500834221">
		<tag k="name" v="Skagetjønne" />
		<tag k="natural" v="water" />
		<tag k="ssr:stedsnr" v="618333" />
	</node>
	<node id="-111323" lat="62.3334333367" lon="8.40178056089">
		<tag k="name" v="Butjønne" />
		<tag k="natural" v="water" />
		<tag k="ssr:stedsnr" v="618328" />
	</node>
	<node id="-111322" lat="62.3476333365" lon="8.32080000787">
		<tag k="name" v="Søre Isløyptjønne" />
		<tag k="natural" v="water" />
		<tag k="ssr:stedsnr" v="618323" />
	</node>
	<node id="-111321" lat="62.2718083328" lon="8.67231389063">
		<tag k="alt_name" v="Ylsåe" />
		<tag k="name" v="Ylsåi" />
		<tag k="ssr:stedsnr" v="618284" />
		<tag k="waterway" v="river" />
	</node>
	<node id="-111320" lat="62.3143111108" lon="8.55133889625">
		<tag k="name" v="Vangstjønne" />
		<tag k="natural" v="water" />
		<tag k="ssr:stedsnr" v="618240" />
	</node>
	<node id="-111317" lat="62.3082499994" lon="8.36327499471">
		<tag k="alt_name" v="Mølmsvatnet, inste" />
		<tag k="name" v="Inste Mølmsvatnet" />
		<tag k="natural" v="water" />
		<tag k="ssr:stedsnr" v="618215" />
	</node>
	<node id="-111313" lat="62.1874555597" lon="8.94036667244">
		<tag k="name" v="Skrubekken" />
		<tag k="ssr:stedsnr" v="617954" />
		<tag k="waterway" v="stream" />
	</node>
	<node id="-111312" lat="62.1939083333" lon="8.90873056436">
		<tag k="name" v="Dyratjønne" />
		<tag k="natural" v="water" />
		<tag k="ssr:stedsnr" v="617940" />
	</node>
	<node id="-111310" lat="62.2035194445" lon="8.83690832682">
		<tag k="name" v="Raudbekken" />
		<tag k="ssr:stedsnr" v="617930" />
		<tag k="waterway" v="stream" />
	</node>
	<node id="-111298" lat="62.2369222198" lon="8.64394721823">
		<tag k="alt_name" v="Veslbottvatnet, nedre" />
		<tag k="name" v="Nedre Vetlbottvatnet" />
		<tag k="natural" v="water" />
		<tag k="ssr:stedsnr" v="617871" />
	</node>
	<node id="-111297" lat="62.2336555522" lon="8.58882499763">
		<tag k="name" v="Rundtjønne" />
		<tag k="natural" v="water" />
		<tag k="ssr:stedsnr" v="617869" />
	</node>
	<node id="-111296" lat="62.2126083351" lon="8.3804638946">
		<tag k="name" v="Rota" />
		<tag k="ssr:stedsnr" v="617864" />
		<tag k="waterway" v="stream" />
	</node>
	<node id="-111292" lat="62.207355554" lon="8.501713892">
		<tag k="name" v="Fotfola" />
		<tag k="ssr:stedsnr" v="617832" />
		<tag k="waterway" v="stream" />
	</node>
	<node id="-111289" lat="62.1781111088" lon="8.23614443996">
		<tag k="name" v="Nonsåi" />
		<tag k="ssr:stedsnr" v="617808" />
		<tag k="waterway" v="stream" />
	</node>
	<node id="-111287" lat="62.1726547296" lon="8.55060568545">
		<tag k="alt_name" v="Svaåe" />
		<tag k="name" v="Svaåi" />
		<tag k="ssr:stedsnr" v="617797" />
		<tag k="waterway" v="stream" />
	</node>
	<node id="-111286" lat="62.0727611127" lon="8.38677777797">
		<tag k="name" v="Lurva" />
		<tag k="ssr:stedsnr" v="617781" />
		<tag k="waterway" v="stream" />
	</node>
	<node id="-111285" lat="62.1605861091" lon="8.87957778089">
		<tag k="alt_name" v="Raubekken" />
		<tag k="name" v="Raudbekken" />
		<tag k="ssr:stedsnr" v="617704" />
		<tag k="waterway" v="stream" />
	</node>
	<node id="-111279" lat="62.076602777" lon="9.04827778375">
		<tag k="name" v="Storrtjønne" />
		<tag k="natural" v="water" />
		<tag k="ssr:stedsnr" v="617592" />
	</node>
	<node id="-111276" lat="62.0329277813" lon="8.78203333091">
		<tag k="name" v="Sletthella" />
		<tag k="ssr:stedsnr" v="617565" />
		<tag k="waterway" v="stream" />
	</node>
	<node id="-111269" lat="62.2770916678" lon="9.13717499087">
		<tag k="name" v="Heinsavatnet" />
		<tag k="natural" v="water" />
		<tag k="old_name" v="Heisavatnet" />
		<tag k="ssr:stedsnr" v="617408" />
		<tag k="water" v="lake" />
	</node>
	<node id="-111264" lat="62.0324638845" lon="8.16481944979">
		<tag k="name" v="Søre Svarthaugåe" />
		<tag k="ssr:stedsnr" v="617276" />
		<tag k="waterway" v="stream" />
	</node>
	<node id="-111263" lat="62.2468138888" lon="8.2997777785">
		<tag k="name" v="Sautippen" />
		<tag k="ssr:stedsnr" v="617258" />
		<tag k="waterway" v="stream" />
	</node>
	<node id="-111258" lat="62.2227749981" lon="8.42614167487">
		<tag k="name" v="Kuodden" />
		<tag k="natural" v="cape" />
		<tag k="ssr:stedsnr" v="597456" />
	</node>
	<node id="-111252" lat="62.2120777781" lon="8.93030833745">
		<tag k="name" v="Svaåe" />
		<tag k="ssr:stedsnr" v="596923" />
		<tag k="waterway" v="stream" />
	</node>
	<node id="-111251" lat="62.2157527742" lon="8.88603055828">
		<tag k="name" v="Velonbekken" />
		<tag k="ssr:stedsnr" v="596921" />
		<tag k="waterway" v="stream" />
	</node>
	<node id="-111243" lat="62.1141277772" lon="8.78793056339">
		<tag k="name" v="Dalbekken" />
		<tag k="ssr:stedsnr" v="596623" />
		<tag k="waterway" v="stream" />
	</node>
	<node id="-111240" lat="62.0864722235" lon="8.83275277342">
		<tag k="name" v="Storhaugbekken" />
		<tag k="ssr:stedsnr" v="596600" />
		<tag k="waterway" v="stream" />
	</node>
	<node id="-111236" lat="62.1987138868" lon="8.47959166773">
		<tag k="name" v="Vetletjønnbotten" />
		<tag k="natural" v="bay" />
		<tag k="ssr:stedsnr" v="596427" />
	</node>
	<node id="-111227" lat="62.2282611137" lon="8.3745000051">
		<tag k="name" v="Bellholmen" />
		<tag k="natural" v="cape" />
		<tag k="ssr:stedsnr" v="596083" />
	</node>
	<node id="-111215" lat="62.1267416635" lon="8.67665278514">
		<tag k="name" v="Øyan" />
		<tag k="place" v="island" />
		<tag k="ssr:stedsnr" v="595387" />
	</node>
	<node id="-111210" lat="62.2530694435" lon="8.36066943928">
		<tag k="alt_name" v="Vetleåe" />
		<tag k="name" v="Vetlåe" />
		<tag k="ssr:stedsnr" v="595094" />
		<tag k="waterway" v="stream" />
	</node>
	<node id="-111208" lat="62.1505583348" lon="9.0277944353">
		<tag k="name" v="Bekken" />
		<tag k="ssr:stedsnr" v="594058" />
		<tag k="waterway" v="stream" />
	</node>
	<node id="-111205" lat="62.3060861077" lon="8.26802778453">
		<tag k="name" v="Søre Bøvre" />
		<tag k="ssr:stedsnr" v="583047" />
		<tag k="waterway" v="stream" />
	</node>
	<node id="-111202" lat="62.224900003" lon="8.75468333695">
		<tag k="alt_name" v="Svaninge" />
		<tag k="name" v="Svaningi" />
		<tag k="ssr:stedsnr" v="557989" />
		<tag k="waterway" v="stream" />
	</node>
	<node id="-111200" lat="62.21250172" lon="8.86049067184">
		<tag k="name" v="Sjongsvatnet" />
		<tag k="natural" v="water" />
		<tag k="old_name" v="Sjungsvatnet" />
		<tag k="ssr:stedsnr" v="557927" />
		<tag k="water" v="lake" />
	</node>
	<node id="-111197" lat="62.2223000018" lon="8.25830000599">
		<tag k="alt_name" v="Ellanbekken" />
		<tag k="name" v="Ellandsbekken" />
		<tag k="ssr:stedsnr" v="557858" />
		<tag k="waterway" v="stream" />
	</node>
	<node id="-111193" lat="62.0835972192" lon="8.41954445161">
		<tag k="alt_name" v="Gjelutåe" />
		<tag k="name" v="Gjelutåi" />
		<tag k="ssr:stedsnr" v="557752" />
		<tag k="waterway" v="stream" />
	</node>
	<node id="-111192" lat="62.0731138901" lon="8.50873610508">
		<tag k="alt_name" v="Storåe" />
		<tag k="name" v="Storåi" />
		<tag k="ssr:stedsnr" v="557750" />
		<tag k="waterway" v="stream" />
	</node>
	<node id="-111187" lat="62.2744333313" lon="9.23357222466">
		<tag k="name" v="Fisketjønne" />
		<tag k="natural" v="water" />
		<tag k="ssr:stedsnr" v="557475" />
	</node>
	<node id="-111186" lat="62.3540250045" lon="8.98877499104">
		<tag k="name" v="Midtre Salhøtjønne" />
		<tag k="natural" v="water" />
		<tag k="ssr:stedsnr" v="557446" />
	</node>
	<node id="-111182" lat="62.3332805587" lon="8.3665499965">
		<tag k="name" v="Mølnsløypbekken" />
		<tag k="ssr:stedsnr" v="557336" />
		<tag k="waterway" v="stream" />
	</node>
	<node id="-111181" lat="62.2721777808" lon="8.65690000369">
		<tag k="alt_name" v="Merre" />
		<tag k="name" v="Merri" />
		<tag k="ssr:stedsnr" v="557285" />
		<tag k="waterway" v="river" />
	</node>
	<node id="-111175" lat="62.2314388922" lon="8.91471667001">
		<tag k="name" v="Svabotntjønne" />
		<tag k="natural" v="water" />
		<tag k="ssr:stedsnr" v="556995" />
	</node>
	<node id="-111173" lat="62.2404194443" lon="9.14963889081">
		<tag k="name" v="Kjelsungvatnet" />
		<tag k="natural" v="water" />
		<tag k="ssr:stedsnr" v="556987" />
	</node>
	<node id="-111170" lat="62.1701666688" lon="8.89497500437">
		<tag k="alt_name" v="Rengle" />
		<tag k="name" v="Rengla" />
		<tag k="ssr:stedsnr" v="556969" />
		<tag k="waterway" v="stream" />
	</node>
	<node id="-111168" lat="62.1329861132" lon="8.79728611428">
		<tag k="name" v="Haugabekken" />
		<tag k="ssr:stedsnr" v="556921" />
		<tag k="waterway" v="stream" />
	</node>
	<node id="-111159" lat="62.2476090989" lon="8.60863243933">
		<tag k="name" v="Fiskelaustjønne" />
		<tag k="natural" v="water" />
		<tag k="ssr:stedsnr" v="556860" />
	</node>
	<node id="-111156" lat="62.1489277754" lon="8.31347500393">
		<tag k="name" v="Vargvassåi" />
		<tag k="ssr:stedsnr" v="556822" />
		<tag k="waterway" v="stream" />
	</node>
	<node id="-111155" lat="62.1835138914" lon="8.53830000098">
		<tag k="name" v="Sandbekken" />
		<tag k="ssr:stedsnr" v="556804" />
		<tag k="waterway" v="stream" />
	</node>
	<node id="-111150" lat="62.0523500036" lon="9.03128333526">
		<tag k="alt_name" v="Borgåe" />
		<tag k="name" v="Borgåi" />
		<tag k="ssr:stedsnr" v="556607" />
		<tag k="waterway" v="stream" />
	</node>
	<node id="-111148" lat="62.2391749969" lon="8.34444999751">
		<tag k="name" v="Krossbekken" />
		<tag k="ssr:stedsnr" v="556254" />
		<tag k="waterway" v="stream" />
	</node>
	<node id="-111147" lat="62.1677638848" lon="8.12409443778">
		<tag k="alt_name" v="Asbjørnsåe" />
		<tag k="name" v="Asbjørnsåi" />
		<tag k="ssr:stedsnr" v="556215" />
		<tag k="waterway" v="river" />
	</node>
	<node id="-111146" lat="62.2146722193" lon="8.16240556492">
		<tag k="loc_name" v="Tverrbekkin" />
		<tag k="name" v="Tverrbekkene" />
		<tag k="ssr:stedsnr" v="556210" />
		<tag k="waterway" v="stream" />
	</node>
	<node id="-111137" lat="62.1846555591" lon="8.92323055863">
		<tag k="name" v="Kvennhusfossen" />
		<tag k="natural" v="waterfall" />
		<tag k="ssr:stedsnr" v="536914" />
	</node>
	<node id="-111131" lat="62.2017861123" lon="8.47074444534">
		<tag k="name" v="Søre Hyrjon" />
		<tag k="ssr:stedsnr" v="536456" />
		<tag k="waterway" v="stream" />
	</node>
	<node id="-111130" lat="62.2139499999" lon="8.4430222253">
		<tag k="name" v="Bryggeosen" />
		<tag k="natural" v="strait" />
		<tag k="ssr:stedsnr" v="536449" />
	</node>
	<node id="-111126" lat="62.26975278" lon="8.25840833445">
		<tag k="name" v="Søre Systen" />
		<tag k="ssr:stedsnr" v="536138" />
		<tag k="waterway" v="stream" />
	</node>
	<node id="-111124" lat="62.2288166671" lon="8.36321111921">
		<tag k="name" v="Gammeldammen" />
		<tag k="natural" v="water" />
		<tag k="ssr:stedsnr" v="536091" />
		<tag k="water" v="lake" />
	</node>
	<node id="-111121" lat="62.1707694424" lon="8.9246944505">
		<tag k="name" v="Stamfiskedammen" />
		<tag k="natural" v="water" />
		<tag k="ssr:stedsnr" v="535938" />
	</node>
	<node id="-111108" lat="62.2577361112" lon="8.78263055218">
		<tag k="name" v="Kråkoddbekken" />
		<tag k="ssr:stedsnr" v="535705" />
		<tag k="waterway" v="stream" />
	</node>
	<node id="-111102" lat="62.1103333327" lon="8.72304165917">
		<tag k="name" v="Varpet" />
		<tag k="natural" v="water" />
		<tag k="ssr:stedsnr" v="535549" />
		<tag k="water" v="lake" />
	</node>
	<node id="-111098" lat="62.1296888891" lon="8.67924999538">
		<tag k="name" v="Djupkvisle" />
		<tag k="place" v="locality" />
		<tag k="ssr:stedsnr" v="535416" />
	</node>
	<node id="-111087" lat="62.0584888892" lon="8.95096666616">
		<tag k="name" v="Tatteråe" />
		<tag k="ssr:stedsnr" v="534188" />
		<tag k="waterway" v="river" />
	</node>
	<node id="-111082" lat="62.3372305596" lon="8.38362777076">
		<tag k="name" v="Langtjønne" />
		<tag k="natural" v="water" />
		<tag k="ssr:stedsnr" v="497357" />
	</node>
	<node id="-111080" lat="62.2694361128" lon="8.34600833149">
		<tag k="name" v="Nørdre Mølmsåe" />
		<tag k="ssr:stedsnr" v="497303" />
		<tag k="waterway" v="stream" />
	</node>
	<node id="-111079" lat="62.2840833319" lon="8.37500833618">
		<tag k="alt_name" v="Mølmsvatnet, nedre" />
		<tag k="name" v="Nedre Mølmsvatnet" />
		<tag k="natural" v="water" />
		<tag k="ssr:stedsnr" v="497252" />
	</node>
	<node id="-111077" lat="62.305385898" lon="8.53471292939">
		<tag k="name" v="Vangsvatnet" />
		<tag k="natural" v="water" />
		<tag k="ssr:stedsnr" v="497243" />
		<tag k="water" v="lake" />
	</node>
	<node id="-111074" lat="62.0071805546" lon="8.35699721374">
		<tag k="name" v="Fellingvatnet" />
		<tag k="natural" v="water" />
		<tag k="ssr:stedsnr" v="496978" />
		<tag k="water" v="lake" />
	</node>
	<node id="-111071" lat="62.183684141" lon="9.10400985728">
		<tag k="name" v="Strålsjøen" />
		<tag k="natural" v="water" />
		<tag k="ssr:stedsnr" v="496959" />
		<tag k="water" v="lake" />
	</node>
	<node id="-111069" lat="62.198599999" lon="8.94806945398">
		<tag k="alt_name" v="Fransaråe" />
		<tag k="name" v="Fransaråi" />
		<tag k="ssr:stedsnr" v="496946" />
		<tag k="waterway" v="stream" />
	</node>
	<node id="-111059" lat="62.2234444482" lon="8.3246111183">
		<tag k="name" v="Grønfossen" />
		<tag k="natural" v="waterfall" />
		<tag k="ssr:stedsnr" v="496859" />
	</node>
	<node id="-111058" lat="62.2120305549" lon="8.44776388414">
		<tag k="name" v="Lesjaskogsvatnet" />
		<tag k="natural" v="water" />
		<tag k="ssr:stedsnr" v="496851" />
		<tag k="water" v="lake" />
	</node>
	<node id="-111056" lat="62.2317083374" lon="8.51786111061">
		<tag k="name" v="Fotfoltjønnin" />
		<tag k="natural" v="water" />
		<tag k="ssr:stedsnr" v="496838" />
	</node>
	<node id="-111053" lat="62.1593611103" lon="8.69602499795">
		<tag k="alt_name" v="Sandåe" />
		<tag k="name" v="Sandåi" />
		<tag k="ssr:stedsnr" v="496814" />
		<tag k="waterway" v="stream" />
	</node>
	<node id="-111052" lat="62.1641361087" lon="8.6795638794">
		<tag k="alt_name" v="Motterudåe" />
		<tag k="name" v="Motterudåi" />
		<tag k="ssr:stedsnr" v="496811" />
		<tag k="waterway" v="stream" />
	</node>
	<node id="-111049" lat="62.0633111152" lon="8.35499166767">
		<tag k="alt_name" v="Sjogrove" />
		<tag k="name" v="Sjoggrovi" />
		<tag k="ssr:stedsnr" v="496779" />
		<tag k="waterway" v="stream" />
	</node>
	<node id="-111048" lat="62.1964777774" lon="9.24442221606">
		<tag k="name" v="Veslvatnet" />
		<tag k="natural" v="water" />
		<tag k="ssr:stedsnr" v="496739" />
	</node>
	<node id="-111046" lat="62.2118944404" lon="8.3214500095">
		<tag k="alt_name" v="Stor-Grøna" />
		<tag k="name" v="Grøna" />
		<tag k="ssr:stedsnr" v="496694" />
		<tag k="waterway" v="river" />
	</node>
	<node id="-111044" lat="62.3224361099" lon="8.60084999089">
		<tag k="name" v="Tverråi" />
		<tag k="ssr:stedsnr" v="496662" />
		<tag k="waterway" v="river" />
	</node>
	<node id="-111042" lat="62.0892194489" lon="8.91126388122">
		<tag k="alt_name" v="Hattremsåe" />
		<tag k="name" v="Hattremsåi" />
		<tag k="ssr:stedsnr" v="496620" />
		<tag k="waterway" v="stream" />
	</node>
	<node id="-111041" lat="62.0730805533" lon="9.02296388644">
		<tag k="name" v="Svarttjønne" />
		<tag k="natural" v="water" />
		<tag k="ssr:stedsnr" v="496608" />
	</node>
	<node id="-111038" lat="62.0252527742" lon="8.95903332388">
		<tag k="name" v="Sjutjønnin" />
		<tag k="natural" v="water" />
		<tag k="ssr:stedsnr" v="496564" />
	</node>
	<node id="-111036" lat="62.2680077193" lon="9.21537276577">
		<tag k="name" v="Svånåvatnet" />
		<tag k="natural" v="water" />
		<tag k="old_name" v="Svånådalsvatnet" />
		<tag k="ssr:stedsnr" v="496464" />
		<tag k="water" v="lake" />
	</node>
	<node id="-111034" lat="62.2949750019" lon="9.03581666045">
		<tag k="name" v="Grashøbekken" />
		<tag k="ssr:stedsnr" v="496427" />
		<tag k="waterway" v="stream" />
	</node>
	<node id="-111021" lat="62.1275055515" lon="8.14502222357">
		<tag k="alt_name" v="Grønvatnet, nordre" />
		<tag k="name" v="Nordre Grønvatnet" />
		<tag k="natural" v="water" />
		<tag k="ssr:stedsnr" v="495213" />
		<tag k="water" v="lake" />
	</node>
	<node id="-111014" lat="62.1121250026" lon="8.58483888674">
		<tag k="name" v="Mysubekken" />
		<tag k="ssr:stedsnr" v="439733" />
		<tag k="waterway" v="stream" />
	</node>
	<node id="-111011" lat="62.3001888912" lon="8.61875000035">
		<tag k="loc_name" v="Vangsåe" />
		<tag k="name" v="Vangsåi" />
		<tag k="ssr:stedsnr" v="437279" />
		<tag k="waterway" v="river" />
	</node>
	<node id="-111006" lat="62.2002222233" lon="8.76007500685">
		<tag k="name" v="Kvittjønnin" />
		<tag k="natural" v="water" />
		<tag k="ssr:stedsnr" v="436943" />
		<tag k="water" v="lake" />
	</node>
	<node id="-111004" lat="62.1983948413" lon="8.88659781139">
		<tag k="name" v="Flisarvatnet" />
		<tag k="natural" v="water" />
		<tag k="ssr:stedsnr" v="436939" />
		<tag k="water" v="lake" />
	</node>
	<node id="-110999" lat="62.2245055552" lon="8.27705833136">
		<tag k="name" v="Vågåbekken" />
		<tag k="ssr:stedsnr" v="436858" />
		<tag k="waterway" v="stream" />
	</node>
	<node id="-110997" lat="62.2071666664" lon="8.31091388383">
		<tag k="name" v="Kristiantjønne" />
		<tag k="natural" v="water" />
		<tag k="ssr:stedsnr" v="436815" />
	</node>
	<node id="-110991" lat="62.2590861132" lon="9.13709999195">
		<tag k="alt_name" v="Kjelsungvatnet, in" />
		<tag k="name" v="Indre Kjelsungvatnet" />
		<tag k="natural" v="water" />
		<tag k="ssr:stedsnr" v="436403" />
	</node>
	<node id="-110988" lat="62.3572749976" lon="8.35574721564">
		<tag k="name" v="Rundtjønne" />
		<tag k="natural" v="water" />
		<tag k="ssr:stedsnr" v="436351" />
	</node>
	<node id="-110986" lat="62.3273638915" lon="8.35988056025">
		<tag k="name" v="Mølmsløyptjønne" />
		<tag k="natural" v="water" />
		<tag k="ssr:stedsnr" v="436333" />
	</node>
	<node id="-110985" lat="62.2582416655" lon="8.24690278639">
		<tag k="name" v="Syste" />
		<tag k="ssr:stedsnr" v="436279" />
		<tag k="waterway" v="stream" />
	</node>
	<node id="-110981" lat="62.1792138858" lon="8.83923054986">
		<tag k="alt_name" v="Fillingi" />
		<tag k="name" v="Fillinge" />
		<tag k="ssr:stedsnr" v="435978" />
		<tag k="waterway" v="river" />
	</node>
	<node id="-110979" lat="62.1346027781" lon="8.91778054631">
		<tag k="name" v="Toretjønnin" />
		<tag k="natural" v="water" />
		<tag k="ssr:stedsnr" v="435942" />
	</node>
	<node id="-110977" lat="62.1385888862" lon="8.74863055409">
		<tag k="alt_name" v="Lyftingsåe;Lyftinge" />
		<tag k="fixme" v="multiple name tags, choose one and add the other to alt_name" />
		<tag k="name" v="Kloppadalsbekken;Lyftingsåi" />
		<tag k="ssr:stedsnr" v="435936" />
		<tag k="waterway" v="stream" />
	</node>
	<node id="-110976" lat="62.1498416697" lon="9.04525554775">
		<tag k="name" v="Reinåe" />
		<tag k="ssr:stedsnr" v="435928" />
		<tag k="waterway" v="river" />
	</node>
	<node id="-110971" lat="62.1886694401" lon="8.32104443779">
		<tag k="alt_name" v="Sandåe" />
		<tag k="name" v="Sandåi" />
		<tag k="ssr:stedsnr" v="435854" />
		<tag k="waterway" v="stream" />
	</node>
	<node id="-110969" lat="62.2040444441" lon="8.64783332642">
		<tag k="name" v="Mosendtjønnin" />
		<tag k="natural" v="water" />
		<tag k="ssr:stedsnr" v="435839" />
	</node>
	<node id="-110967" lat="62.1636055544" lon="8.63453611825">
		<tag k="name" v="Røkstjønne" />
		<tag k="natural" v="water" />
		<tag k="ssr:stedsnr" v="435831" />
	</node>
	<node id="-110964" lat="62.1446968801" lon="8.46975203668">
		<tag k="name" v="Valåvatnet" />
		<tag k="natural" v="water" />
		<tag k="ssr:stedsnr" v="435826" />
		<tag k="water" v="lake" />
	</node>
	<node id="-110962" lat="62.1546666651" lon="8.70432499157">
		<tag k="name" v="Hosetbekken" />
		<tag k="ssr:stedsnr" v="435821" />
		<tag k="waterway" v="stream" />
	</node>
	<node id="-110956" lat="62.0436611133" lon="8.87191389197">
		<tag k="name" v="Veslskjervedalsvatnet" />
		<tag k="natural" v="water" />
		<tag k="ssr:stedsnr" v="435587" />
	</node>
	<node id="-110951" lat="62.1766750028" lon="8.70212221932">
		<tag k="name" v="Motterudholet" />
		<tag k="place" v="locality" />
		<tag k="ssr:stedsnr" v="415736" />
	</node>
	<node id="-110950" lat="62.2239444483" lon="8.40991388684">
		<tag k="name" v="Tanterholmen" />
		<tag k="place" v="islet" />
		<tag k="ssr:stedsnr" v="415508" />
	</node>
	<node id="-110939" lat="62.0949666675" lon="9.09416666395">
		<tag k="name" v="Bjønnmyrbekken" />
		<tag k="ssr:stedsnr" v="414831" />
		<tag k="waterway" v="stream" />
	</node>
	<node id="-110933" lat="62.2445944464" lon="8.76158333204">
		<tag k="name" v="Langbergbekken" />
		<tag k="ssr:stedsnr" v="414696" />
		<tag k="waterway" v="stream" />
	</node>
	<node id="-110924" lat="62.1852722181" lon="8.58341111074">
		<tag k="name" v="Drågdalsbekken" />
		<tag k="ssr:stedsnr" v="414497" />
		<tag k="waterway" v="stream" />
	</node>
	<node id="-110917" lat="62.2206861073" lon="8.8786638825">
		<tag k="alt_name" v="Sjongsåe" />
		<tag k="name" v="Sjongsåi" />
		<tag k="ssr:stedsnr" v="254997" />
		<tag k="waterway" v="stream" />
	</node>
	<node id="-110916" lat="62.228255557" lon="8.83310278335">
		<tag k="name" v="Godsjøen" />
		<tag k="natural" v="water" />
		<tag k="ssr:stedsnr" v="254992" />
	</node>
	<node id="-110914" lat="62.1902027734" lon="8.88533889236">
		<tag k="name" v="Flisarbekken" />
		<tag k="ssr:stedsnr" v="254943" />
		<tag k="waterway" v="stream" />
	</node>
	<node id="-110911" lat="62.2254083353" lon="8.48974722779">
		<tag k="alt_name" v="Sandgrovåe;Sandgroåe" />
		<tag k="name" v="Sandgrovåi" />
		<tag k="ssr:stedsnr" v="254851" />
		<tag k="waterway" v="stream" />
	</node>
	<node id="-110899" lat="62.2978444462" lon="8.96621666785">
		<tag k="name" v="Tverråvatnet" />
		<tag k="natural" v="water" />
		<tag k="ssr:stedsnr" v="254353" />
		<tag k="water" v="lake" />
	</node>
	<node id="-110896" lat="62.2776555575" lon="8.84356111889">
		<tag k="name" v="Svartdalsvatnet" />
		<tag k="natural" v="water" />
		<tag k="ssr:stedsnr" v="254343" />
		<tag k="water" v="lake" />
	</node>
	<node id="-110892" lat="62.3472638873" lon="8.57614444545">
		<tag k="name" v="Tverråbottvatnet" />
		<tag k="natural" v="water" />
		<tag k="ssr:stedsnr" v="254317" />
	</node>
	<node id="-110891" lat="62.3349388906" lon="8.28089166509">
		<tag k="name" v="Røyrhøbekken" />
		<tag k="ssr:stedsnr" v="254314" />
		<tag k="waterway" v="stream" />
	</node>
	<node id="-110889" lat="62.2525500014" lon="8.62036943712">
		<tag k="name" v="Merralonene" />
		<tag k="place" v="locality" />
		<tag k="ssr:stedsnr" v="254267" />
	</node>
	<node id="-110887" lat="62.3291222252" lon="8.45183332993">
		<tag k="name" v="Miutjønnin" />
		<tag k="natural" v="water" />
		<tag k="ssr:stedsnr" v="254247" />
	</node>
	<node id="-110885" lat="62.3321916642" lon="8.41380833206">
		<tag k="name" v="Trughamartjønne" />
		<tag k="natural" v="water" />
		<tag k="ssr:stedsnr" v="254235" />
	</node>
	<node id="-110883" lat="62.2938111077" lon="8.28495833785">
		<tag k="name" v="Søreinbuvatnet" />
		<tag k="natural" v="water" />
		<tag k="ssr:stedsnr" v="254221" />
	</node>
	<node id="-110878" lat="62.0447638909" lon="8.45764444978">
		<tag k="alt_name" v="Vetlefellinge" />
		<tag k="name" v="Veslefellingi" />
		<tag k="ssr:stedsnr" v="253982" />
		<tag k="waterway" v="stream" />
	</node>
	<node id="-110877" lat="62.1692166706" lon="9.07706110778">
		<tag k="alt_name" v="Strålsjobekken" />
		<tag k="name" v="Strålsjøbekken" />
		<tag k="ssr:stedsnr" v="253973" />
		<tag k="waterway" v="stream" />
	</node>
	<node id="-110872" lat="62.1321305569" lon="8.87443889372">
		<tag k="name" v="Skiatjønne" />
		<tag k="natural" v="water" />
		<tag k="ssr:stedsnr" v="253929" />
	</node>
	<node id="-110871" lat="62.1452388851" lon="9.0760388926">
		<tag k="name" v="Lomtjønne" />
		<tag k="natural" v="water" />
		<tag k="ssr:stedsnr" v="253926" />
	</node>
	<node id="-110857" lat="62.1950638922" lon="9.25169722196">
		<tag k="name" v="Storvatnet" />
		<tag k="natural" v="water" />
		<tag k="ssr:stedsnr" v="253767" />
		<tag k="water" v="lake" />
	</node>
	<node id="-110856" lat="62.1998749991" lon="9.25653888179">
		<tag k="loc_name" v="Grisungtjønnin" />
		<tag k="name" v="Grisungvatni" />
		<tag k="natural" v="water" />
		<tag k="ssr:stedsnr" v="253748" />
		<tag k="water" v="lake" />
	</node>
	<node id="-110855" lat="62.2012083349" lon="9.25987778579">
		<tag k="name" v="Buatjønne" />
		<tag k="natural" v="water" />
		<tag k="ssr:stedsnr" v="253738" />
	</node>
	<node id="-110852" lat="62.0154083324" lon="8.71037499263">
		<tag k="name" v="Skjerva" />
		<tag k="ssr:stedsnr" v="253701" />
		<tag k="waterway" v="river" />
	</node>
	<node id="-110849" lat="62.0449972188" lon="8.15627221333">
		<tag k="loc_name" v="Skarvedalsåe" />
		<tag k="name" v="Skarvedalsåi" />
		<tag k="ssr:stedsnr" v="253274" />
		<tag k="waterway" v="stream" />
	</node>
	<node id="-110848" lat="62.2462944417" lon="8.3067972246">
		<tag k="name" v="Søreinbuåi" />
		<tag k="ssr:stedsnr" v="253267" />
		<tag k="waterway" v="stream" />
	</node>
	<node id="-110842" lat="62.2946638868" lon="8.20445833474">
		<tag k="name" v="Haugabekken" />
		<tag k="ssr:stedsnr" v="248242" />
		<tag k="waterway" v="stream" />
	</node>
	<node id="-110841" lat="62.171852781" lon="8.63234444432">
		<tag k="name" v="Breibekken" />
		<tag k="ssr:stedsnr" v="233717" />
		<tag k="waterway" v="stream" />
	</node>
	<node id="-110839" lat="62.1621250045" lon="8.4864277862">
		<tag k="name" v="Kvitskriubekken" />
		<tag k="ssr:stedsnr" v="233527" />
		<tag k="waterway" v="stream" />
	</node>
	<node id="-110838" lat="62.2025444407" lon="8.4770861203">
		<tag k="name" v="Tandsæterosen" />
		<tag k="natural" v="strait" />
		<tag k="ssr:stedsnr" v="233499" />
	</node>
	<node id="-110821" lat="62.0835777739" lon="9.05870833229">
		<tag k="name" v="Evjubekken" />
		<tag k="ssr:stedsnr" v="232747" />
		<tag k="waterway" v="stream" />
	</node>
	<node id="-110817" lat="62.2303222208" lon="8.75698610441">
		<tag k="name" v="Vetlesvaninge" />
		<tag k="ssr:stedsnr" v="232667" />
		<tag k="waterway" v="stream" />
	</node>
	<node id="-110816" lat="62.2415444478" lon="8.72578332414">
		<tag k="name" v="Kvita" />
		<tag k="ssr:stedsnr" v="232647" />
		<tag k="waterway" v="stream" />
	</node>
	<node id="-110806" lat="62.1251222265" lon="8.71059722928">
		<tag k="name" v="Djuptjønne" />
		<tag k="natural" v="water" />
		<tag k="ssr:stedsnr" v="232386" />
	</node>
	<node id="-110798" lat="62.2525305573" lon="8.35651388851">
		<tag k="name" v="Fjellfossen" />
		<tag k="natural" v="waterfall" />
		<tag k="ssr:stedsnr" v="232104" />
	</node>
	<node id="-110797" lat="62.2701277792" lon="8.28765555127">
		<tag k="name" v="Tveråe" />
		<tag k="ssr:stedsnr" v="232097" />
		<tag k="waterway" v="stream" />
	</node>
	<node id="-110796" lat="62.2293555577" lon="8.37474721366">
		<tag k="name" v="Bella" />
		<tag k="ssr:stedsnr" v="232083" />
		<tag k="waterway" v="stream" />
	</node>
	<node id="-110793" lat="62.171000001" lon="9.07888610741">
		<tag k="name" v="Søre Reinåe" />
		<tag k="ssr:stedsnr" v="220326" />
		<tag k="waterway" v="stream" />
	</node>
	<node id="-110791" lat="62.2648222181" lon="8.26861111561">
		<tag k="name" v="Systtjønnin" />
		<tag k="natural" v="water" />
		<tag k="ssr:stedsnr" v="194272" />
	</node>
	<node id="-110789" lat="62.3169694469" lon="8.29010000296">
		<tag k="name" v="Sandåi" />
		<tag k="ssr:stedsnr" v="194254" />
		<tag k="waterway" v="stream" />
	</node>
	<node id="-110787" lat="62.3290249989" lon="8.47168610878">
		<tag k="name" v="Bolltjønne" />
		<tag k="natural" v="water" />
		<tag k="ssr:stedsnr" v="194248" />
	</node>
	<node id="-110783" lat="62.3006416663" lon="8.25228889611">
		<tag k="name" v="Bøvertjønnin" />
		<tag k="natural" v="water" />
		<tag k="ssr:stedsnr" v="194225" />
	</node>
	<node id="-110782" lat="62.2312916678" lon="8.93158334185">
		<tag k="name" v="Svaåin" />
		<tag k="ssr:stedsnr" v="193998" />
		<tag k="waterway" v="stream" />
	</node>
	<node id="-110781" lat="62.2464750038" lon="8.95828611708">
		<tag k="name" v="Vesltverråi" />
		<tag k="ssr:stedsnr" v="193988" />
		<tag k="waterway" v="stream" />
	</node>
	<node id="-110780" lat="62.2445861081" lon="9.01851389756">
		<tag k="name" v="Mjogsjøbekken" />
		<tag k="ssr:stedsnr" v="193982" />
		<tag k="waterway" v="stream" />
	</node>
	<node id="-110779" lat="62.0178361091" lon="8.22361944449">
		<tag k="name" v="Bergetjønnin" />
		<tag k="natural" v="water" />
		<tag k="ssr:stedsnr" v="193976" />
	</node>
	<node id="-110777" lat="62.2063888926" lon="8.88207221312">
		<tag k="name" v="Sjongsosen" />
		<tag k="natural" v="bay" />
		<tag k="ssr:stedsnr" v="193932" />
	</node>
	<node id="-110769" lat="62.1997694403" lon="8.55103611645">
		<tag k="fixme" v="multiple name tags, choose one and add the other to alt_name" />
		<tag k="name" v="Kyrkjebekken;Torsplassåe" />
		<tag k="ssr:stedsnr" v="193828" />
		<tag k="waterway" v="stream" />
	</node>
	<node id="-110763" lat="62.0835194405" lon="8.53250000937">
		<tag k="alt_name" v="Søråe" />
		<tag k="name" v="Søråi" />
		<tag k="ssr:stedsnr" v="193750" />
		<tag k="waterway" v="stream" />
	</node>
	<node id="-110761" lat="62.1344555565" lon="8.27425555165">
		<tag k="name" v="Knutsgruvetjønne" />
		<tag k="natural" v="water" />
		<tag k="ssr:stedsnr" v="193736" />
	</node>
	<node id="-110753" lat="62.2788277819" lon="9.04859167566">
		<tag k="name" v="Vollan" />
		<tag k="natural" v="cape" />
		<tag k="ssr:stedsnr" v="193404" />
	</node>
	<node id="-110747" lat="62.2422083317" lon="8.35508333036">
		<tag k="alt_name" v="Mølmsåe" />
		<tag k="name" v="Mølmsåi" />
		<tag k="ssr:stedsnr" v="193216" />
		<tag k="waterway" v="river" />
	</node>
	<node id="-110744" lat="62.1747722221" lon="8.21339999632">
		<tag k="name" v="Nonshøtjønne" />
		<tag k="natural" v="water" />
		<tag k="ssr:stedsnr" v="193153" />
	</node>
	<node id="-110736" lat="62.1634861082" lon="8.60180832893">
		<tag k="name" v="Skråkka" />
		<tag k="ssr:stedsnr" v="192835" />
		<tag k="waterway" v="stream" />
	</node>
	<node id="-110735" lat="62.1681833312" lon="8.23738333827">
		<tag k="alt_name" v="Vetl-Grøna" />
		<tag k="name" v="Veslgrøna" />
		<tag k="ssr:stedsnr" v="192825" />
		<tag k="waterway" v="river" />
	</node>
	<node id="-110733" lat="62.0626055589" lon="8.94589167256">
		<tag k="name" v="Tjuvtjønne" />
		<tag k="natural" v="water" />
		<tag k="ssr:stedsnr" v="192614" />
	</node>
	<node id="-110731" lat="62.2989760727" lon="8.19084527972">
		<tag k="name" v="Bøvervatn" />
		<tag k="natural" v="water" />
		<tag k="ssr:stedsnr" v="192262" />
		<tag k="water" v="lake" />
	</node>
	<node id="-110727" lat="62.2239111075" lon="8.39653332877">
		<tag k="name" v="Langøyra" />
		<tag k="place" v="islet" />
		<tag k="ssr:stedsnr" v="172482" />
	</node>
	<node id="-110725" lat="62.2203916625" lon="8.41035555789">
		<tag k="name" v="Vetlevatnet" />
		<tag k="natural" v="bay" />
		<tag k="ssr:stedsnr" v="172462" />
	</node>
	<node id="-110723" lat="62.1625555522" lon="8.62837500069">
		<tag k="name" v="Sandmælhølen" />
		<tag k="place" v="locality" />
		<tag k="ssr:stedsnr" v="172333" />
	</node>
	<node id="-110707" lat="62.243724999" lon="8.81394166959">
		<tag k="name" v="Vassenden" />
		<tag k="natural" v="bay" />
		<tag k="ssr:stedsnr" v="171741" />
	</node>
	<node id="-110706" lat="62.2436527785" lon="8.79397221526">
		<tag k="name" v="Kvitvike" />
		<tag k="natural" v="bay" />
		<tag k="ssr:stedsnr" v="171739" />
	</node>
	<node id="-110694" lat="62.1491083342" lon="8.78041110691">
		<tag k="name" v="Osperustbekken" />
		<tag k="ssr:stedsnr" v="171577" />
		<tag k="waterway" v="stream" />
	</node>
	<node id="-110693" lat="62.1409583293" lon="8.79338334005">
		<tag k="name" v="Haugabekken" />
		<tag k="ssr:stedsnr" v="171567" />
		<tag k="waterway" v="stream" />
	</node>
	<node id="-110690" lat="62.1172222222" lon="8.71273611183">
		<tag k="name" v="Bråtåløken" />
		<tag k="place" v="locality" />
		<tag k="ssr:stedsnr" v="171418" />
	</node>
	<node id="-110686" lat="62.2436416679" lon="8.21519722781">
		<tag k="name" v="Storøye" />
		<tag k="natural" v="cape" />
		<tag k="ssr:stedsnr" v="171141" />
	</node>
	<node id="-110681" lat="62.1771166702" lon="9.06200278693">
		<tag k="name" v="Nørdre Reinåe" />
		<tag k="ssr:stedsnr" v="169044" />
		<tag k="waterway" v="stream" />
	</node>
	<node id="-110672" lat="62.2950355432" lon="8.36963064028">
		<tag k="alt_name" v="Mølmsvatnet, midtre" />
		<tag k="name" v="Midtre Mølmsvatnet" />
		<tag k="natural" v="water" />
		<tag k="ssr:stedsnr" v="133234" />
		<tag k="water" v="lake" />
	</node>
	<node id="-110667" lat="62.1963038221" lon="8.91882475284">
		<tag k="alt_name" v="Jore" />
		<tag k="name" v="Jori" />
		<tag k="ssr:stedsnr" v="132985" />
		<tag k="waterway" v="river" />
	</node>
	<node id="-110659" lat="62.2173499987" lon="8.23007777938">
		<tag k="name" v="Hellsbybekken" />
		<tag k="ssr:stedsnr" v="132865" />
		<tag k="waterway" v="stream" />
	</node>
	<node id="-110656" lat="62.2408309777" lon="8.5698314608">
		<tag k="alt_name" v="Merrabottvatnet, øvre" />
		<tag k="name" v="Øvre Merrabottvatnet" />
		<tag k="natural" v="water" />
		<tag k="ssr:stedsnr" v="132848" />
		<tag k="water" v="lake" />
	</node>
	<node id="-110655" lat="62.2383583325" lon="8.66517777171">
		<tag k="name" v="Langtjønne" />
		<tag k="natural" v="water" />
		<tag k="ssr:stedsnr" v="132843" />
	</node>
	<node id="-110645" lat="62.0894194459" lon="8.70401388781">
		<tag k="alt_name" v="Veslejuvsgrove" />
		<tag k="name" v="Veslerudsgrovi" />
		<tag k="ssr:stedsnr" v="132764" />
		<tag k="waterway" v="stream" />
	</node>
	<node id="-110642" lat="62.1289944404" lon="8.49552500132">
		<tag k="name" v="Gravåtjønne" />
		<tag k="natural" v="water" />
		<tag k="ssr:stedsnr" v="132743" />
	</node>
	<node id="-110640" lat="62.2620055526" lon="9.01041388156">
		<tag k="loc_name" v="Tverråe" />
		<tag k="name" v="Tverråi" />
		<tag k="ssr:stedsnr" v="132664" />
		<tag k="waterway" v="river" />
	</node>
	<node id="-110632" lat="62.3456027776" lon="8.72212499687">
		<tag k="name" v="Veslgeitåi" />
		<tag k="ssr:stedsnr" v="132450" />
		<tag k="waterway" v="stream" />
	</node>
	<node id="-110631" lat="62.2635333375" lon="8.76677500768">
		<tag k="alt_name" v="Fleskesteinvike" />
		<tag k="name" v="Fleskesteinviki" />
		<tag k="natural" v="bay" />
		<tag k="ssr:stedsnr" v="132409" />
	</node>
	<node id="-110629" lat="62.3151027787" lon="9.03068610946">
		<tag k="alt_name" v="Lågvassbekken, nordre" />
		<tag k="name" v="Nordre Lågvassbekken" />
		<tag k="ssr:stedsnr" v="132375" />
		<tag k="waterway" v="stream" />
	</node>
	<node id="-110621" lat="62.2225472184" lon="8.20894444296">
		<tag k="alt_name" v="Hellsbybekken, nordre" />
		<tag k="name" v="Nordre Helsbybekken" />
		<tag k="ssr:stedsnr" v="132164" />
		<tag k="waterway" v="stream" />
	</node>
	<node id="-110618" lat="62.1979555515" lon="8.43860278584">
		<tag k="name" v="Hyrjon" />
		<tag k="ssr:stedsnr" v="131883" />
		<tag k="waterway" v="stream" />
	</node>
	<node id="-110615" lat="62.1698916657" lon="8.4993749971">
		<tag k="fixme" v="multiple name tags, choose one and add the other to alt_name" />
		<tag k="name" v="Grove;Sprela" />
		<tag k="ssr:stedsnr" v="131824" />
		<tag k="waterway" v="stream" />
	</node>
	<node id="-110598" lat="62.2102444403" lon="8.9330444349">
		<tag k="name" v="Kvitfossen" />
		<tag k="natural" v="waterfall" />
		<tag k="ssr:stedsnr" v="111898" />
	</node>
</osm>
