<?xml version="1.0" encoding="UTF-8"?>
<osm generator="osmapis" version="0.6">
	<node id="-110560" lat="62.146638891" lon="8.05114722212">
		<tag k="fixme" v="consider boundary=protected_area and relevant protect_class if not nature reserve" />
		<tag k="leisure" v="nature_reserve" />
		<tag k="name" v="Reinheimen nasjonalpark" />
		<tag k="ssr:stedsnr" v="99302" />
	</node>
	<node id="-111254" lat="62.2516353722" lon="8.72357468841">
		<tag k="name" v="Dalsida statsallmenning" />
		<tag k="place" v="locality" />
		<tag k="ssr:stedsnr" v="596964" />
	</node>
	<node id="-110388" lat="62.1505327571" lon="9.24402097051">
		<tag k="fixme" v="consider boundary=protected_area and relevant protect_class if not nature reserve" />
		<tag k="leisure" v="nature_reserve" />
		<tag k="name" v="Fokstugu landskapsvernområde" />
		<tag k="ssr:stedsnr" v="985187" />
	</node>
	<node id="-110387" lat="62.2148386125" lon="9.49289400421">
		<tag k="fixme" v="consider boundary=protected_area and relevant protect_class if not nature reserve" />
		<tag k="leisure" v="nature_reserve" />
		<tag k="name" v="Hjerkinn landskapsvernområde" />
		<tag k="ssr:stedsnr" v="985184" />
	</node>
	<node id="-110386" lat="62.3190138905" lon="9.38895278057">
		<tag k="fixme" v="consider boundary=protected_area and relevant protect_class if not nature reserve" />
		<tag k="leisure" v="nature_reserve" />
		<tag k="name" v="Dovrefjell-Sunndalsfjella nasjonalpark" />
		<tag k="ssr:stedsnr" v="146973" />
	</node>
	<node id="-110088" lat="62.1104249999" lon="8.63638889008">
		<tag k="name" v="Lordalen statsallmenning" />
		<tag k="place" v="locality" />
		<tag k="ssr:stedsnr" v="293570" />
	</node>
</osm>
