<?xml version="1.0" encoding="UTF-8"?>
<osm version="0.6" generator="osmapis">
	<node lat="63.95319721921243" lon="10.883194447523083" id="-25731">
		<tag k="name" v="Reinstjønna" />
		<tag k="ssr:date" v="2019-12-27" />
		<tag k="ssr:gruppe" v="veg" />
		<tag k="ssr:hovedgruppe" v="infrastruktur" />
		<tag k="ssr:stedsnr" v="120220" />
		<tag k="ssr:type" v="adressenavn" />
	</node>
	<node lat="63.9475222249093" lon="10.758824990439424" id="-25732">
		<tag k="name" v="Svarttjønna" />
		<tag k="ssr:date" v="2019-12-27" />
		<tag k="ssr:gruppe" v="veg" />
		<tag k="ssr:hovedgruppe" v="infrastruktur" />
		<tag k="ssr:stedsnr" v="120225" />
		<tag k="ssr:type" v="adressenavn" />
	</node>
	<node lat="64.14018332963086" lon="11.121224993764937" id="-25985">
		<tag k="name" v="Setterstjønna" />
		<tag k="ssr:date" v="2019-12-27" />
		<tag k="ssr:gruppe" v="veg" />
		<tag k="ssr:hovedgruppe" v="infrastruktur" />
		<tag k="ssr:stedsnr" v="181216" />
		<tag k="ssr:type" v="adressenavn" />
	</node>
	<node lat="63.88618333088964" lon="10.742563896135369" id="-26246">
		<tag k="name" v="Rørtjønna" />
		<tag k="ssr:date" v="2019-12-27" />
		<tag k="ssr:gruppe" v="veg" />
		<tag k="ssr:hovedgruppe" v="infrastruktur" />
		<tag k="ssr:stedsnr" v="242196" />
		<tag k="ssr:type" v="adressenavn" />
	</node>
	<node lat="63.90696666452735" lon="10.64740278530988" id="-26493">
		<tag k="name" v="Vestre Steintjønna" />
		<tag k="ssr:date" v="2019-12-27" />
		<tag k="ssr:gruppe" v="veg" />
		<tag k="ssr:hovedgruppe" v="infrastruktur" />
		<tag k="ssr:stedsnr" v="303215" />
		<tag k="ssr:type" v="adressenavn" />
	</node>
	<node lat="63.92960277675468" lon="10.890138891419774" id="-26724">
		<tag k="name" v="Langådalsvatnet" />
		<tag k="ssr:date" v="2019-12-27" />
		<tag k="ssr:gruppe" v="veg" />
		<tag k="ssr:hovedgruppe" v="infrastruktur" />
		<tag k="ssr:stedsnr" v="363206" />
		<tag k="ssr:type" v="adressenavn" />
	</node>
	<node lat="64.01215278084645" lon="11.154086121069664" id="-26834">
		<tag k="name" v="Tømsevatnet" />
		<tag k="ssr:date" v="2019-12-27" />
		<tag k="ssr:gruppe" v="veg" />
		<tag k="ssr:hovedgruppe" v="infrastruktur" />
		<tag k="ssr:stedsnr" v="484195" />
		<tag k="ssr:type" v="adressenavn" />
	</node>
	<node lat="64.11038333344004" lon="10.96940555797112" id="-26898">
		<tag k="name" v="Nordesplingen" />
		<tag k="ssr:date" v="2019-12-27" />
		<tag k="ssr:gruppe" v="veg" />
		<tag k="ssr:hovedgruppe" v="infrastruktur" />
		<tag k="ssr:stedsnr" v="424203" />
		<tag k="ssr:type" v="adressenavn" />
	</node>
	<node lat="64.09724722271413" lon="11.06972221899412" id="-26899">
		<tag k="name" v="Svartvatnet" />
		<tag k="ssr:date" v="2019-12-27" />
		<tag k="ssr:gruppe" v="veg" />
		<tag k="ssr:hovedgruppe" v="infrastruktur" />
		<tag k="ssr:stedsnr" v="424204" />
		<tag k="ssr:type" v="adressenavn" />
	</node>
	<node lat="64.0972527749307" lon="11.148147228681713" id="-26900">
		<tag k="name" v="Måggåtjønna" />
		<tag k="ssr:date" v="2019-12-27" />
		<tag k="ssr:gruppe" v="veg" />
		<tag k="ssr:hovedgruppe" v="infrastruktur" />
		<tag k="ssr:stedsnr" v="424209" />
		<tag k="ssr:type" v="adressenavn" />
	</node>
	<node lat="63.93868055440802" lon="10.815694449708527" id="-26901">
		<tag k="name" v="Lysvatnet" />
		<tag k="ssr:date" v="2019-12-27" />
		<tag k="ssr:gruppe" v="veg" />
		<tag k="ssr:hovedgruppe" v="infrastruktur" />
		<tag k="ssr:stedsnr" v="424221" />
		<tag k="ssr:type" v="adressenavn" />
	</node>
	<node lat="63.91344722016022" lon="10.823441661009673" id="-26902">
		<tag k="name" v="Sørenvatnet" />
		<tag k="ssr:date" v="2019-12-27" />
		<tag k="ssr:gruppe" v="veg" />
		<tag k="ssr:hovedgruppe" v="infrastruktur" />
		<tag k="ssr:stedsnr" v="424227" />
		<tag k="ssr:type" v="adressenavn" />
	</node>
	<node lat="63.81330833563778" lon="10.515108340469455" id="-27090">
		<tag k="name" v="Augvatnet" />
		<tag k="ssr:date" v="2019-12-27" />
		<tag k="ssr:gruppe" v="veg" />
		<tag k="ssr:hovedgruppe" v="infrastruktur" />
		<tag k="ssr:stedsnr" v="484203" />
		<tag k="ssr:type" v="adressenavn" />
	</node>
	<node lat="63.93633889212588" lon="10.780774998893522" id="-27091">
		<tag k="name" v="Otertjønnin" />
		<tag k="ssr:date" v="2019-12-27" />
		<tag k="ssr:gruppe" v="veg" />
		<tag k="ssr:hovedgruppe" v="infrastruktur" />
		<tag k="ssr:stedsnr" v="484211" />
		<tag k="ssr:type" v="adressenavn" />
	</node>
	<node lat="63.83394444682335" lon="10.553277783694769" id="-27092">
		<tag k="name" v="Søndre Langvatnet" />
		<tag k="ssr:date" v="2019-12-27" />
		<tag k="ssr:gruppe" v="veg" />
		<tag k="ssr:hovedgruppe" v="infrastruktur" />
		<tag k="ssr:stedsnr" v="484214" />
		<tag k="ssr:type" v="adressenavn" />
	</node>
	<node lat="64.11146666532517" lon="11.305255560995207" id="-27251">
		<tag k="name" v="Alhusøra" />
		<tag k="ssr:date" v="2021-06-08" />
		<tag k="ssr:gruppe" v="sjøbunn" />
		<tag k="ssr:hovedgruppe" v="sjø" />
		<tag k="ssr:stedsnr" v="508203" />
		<tag k="ssr:type" v="bankeISjø" />
	</node>
	<node lat="63.93255277461283" lon="11.855836108097066" id="-27281">
		<tag k="loc_name" v="Innherred" />
		<tag k="name" v="Innherad" />
		<tag k="ssr:date" v="2021-04-14" />
		<tag k="ssr:gruppe" v="terrengområder" />
		<tag k="ssr:hovedgruppe" v="terreng" />
		<tag k="ssr:stedsnr" v="513804" />
		<tag k="ssr:type" v="landskapsområde" />
	</node>
	<node lat="63.93258333308425" lon="10.698133332518436" id="-27378">
		<tag k="name" v="Midtre Langvatnet" />
		<tag k="ssr:date" v="2019-12-27" />
		<tag k="ssr:gruppe" v="veg" />
		<tag k="ssr:hovedgruppe" v="infrastruktur" />
		<tag k="ssr:stedsnr" v="545203" />
		<tag k="ssr:type" v="adressenavn" />
	</node>
	<node lat="63.86730278065304" lon="10.65421943470524" id="-27379">
		<tag k="name" v="Småtjønnin" />
		<tag k="ssr:date" v="2019-12-27" />
		<tag k="ssr:gruppe" v="veg" />
		<tag k="ssr:hovedgruppe" v="infrastruktur" />
		<tag k="ssr:stedsnr" v="545204" />
		<tag k="ssr:type" v="adressenavn" />
	</node>
	<node lat="63.902572223350774" lon="10.723322223328237" id="-27666">
		<tag k="name" v="Holmtjønna" />
		<tag k="ssr:date" v="2019-12-27" />
		<tag k="ssr:gruppe" v="veg" />
		<tag k="ssr:hovedgruppe" v="infrastruktur" />
		<tag k="ssr:stedsnr" v="606207" />
		<tag k="ssr:type" v="adressenavn" />
	</node>
	<node lat="64.00169722659066" lon="11.002736111578974" id="-27667">
		<tag k="name" v="Åsavatnet" />
		<tag k="ssr:date" v="2019-12-27" />
		<tag k="ssr:gruppe" v="veg" />
		<tag k="ssr:hovedgruppe" v="infrastruktur" />
		<tag k="ssr:stedsnr" v="606213" />
		<tag k="ssr:type" v="adressenavn" />
	</node>
	<node lat="64.0806388887891" lon="10.828588896388258" id="-27668">
		<tag k="name" v="Tekssjøen" />
		<tag k="ssr:date" v="2019-12-27" />
		<tag k="ssr:gruppe" v="veg" />
		<tag k="ssr:hovedgruppe" v="infrastruktur" />
		<tag k="ssr:stedsnr" v="606188" />
		<tag k="ssr:type" v="adressenavn" />
	</node>
	<node lat="64.11703055883159" lon="11.100666664053593" id="-27669">
		<tag k="name" v="Nordre Langvatnet" />
		<tag k="ssr:date" v="2019-12-27" />
		<tag k="ssr:gruppe" v="veg" />
		<tag k="ssr:hovedgruppe" v="infrastruktur" />
		<tag k="ssr:stedsnr" v="606197" />
		<tag k="ssr:type" v="adressenavn" />
	</node>
	<node lat="64.10074166942414" lon="10.92646110524212" id="-27850">
		<tag k="name" v="Torsvatnet" />
		<tag k="ssr:date" v="2019-12-27" />
		<tag k="ssr:gruppe" v="veg" />
		<tag k="ssr:hovedgruppe" v="infrastruktur" />
		<tag k="ssr:stedsnr" v="666217" />
		<tag k="ssr:type" v="adressenavn" />
	</node>
	<node lat="63.84983055408298" lon="10.576466661817697" id="-27851">
		<tag k="name" v="Bogatjønna" />
		<tag k="ssr:date" v="2019-12-27" />
		<tag k="ssr:gruppe" v="veg" />
		<tag k="ssr:hovedgruppe" v="infrastruktur" />
		<tag k="ssr:stedsnr" v="666232" />
		<tag k="ssr:type" v="adressenavn" />
	</node>
	<node lat="63.993777777553255" lon="11.061122223132285" id="-27852">
		<tag k="name" v="Follahøgda" />
		<tag k="ssr:date" v="2019-12-27" />
		<tag k="ssr:gruppe" v="veg" />
		<tag k="ssr:hovedgruppe" v="infrastruktur" />
		<tag k="ssr:stedsnr" v="666245" />
		<tag k="ssr:type" v="adressenavn" />
	</node>
	<node lat="63.948463890069085" lon="11.738658341230868" id="-27854">
		<tag k="name" v="Aunvatna" />
		<tag k="ssr:date" v="2019-12-27" />
		<tag k="ssr:gruppe" v="veg" />
		<tag k="ssr:hovedgruppe" v="infrastruktur" />
		<tag k="ssr:stedsnr" v="890133" />
		<tag k="ssr:type" v="adressenavn" />
	</node>
	<node lat="64.12925833644903" lon="11.07569999181161" id="-28140">
		<tag k="name" v="Rundhaugvatnet" />
		<tag k="ssr:date" v="2019-12-27" />
		<tag k="ssr:gruppe" v="veg" />
		<tag k="ssr:hovedgruppe" v="infrastruktur" />
		<tag k="ssr:stedsnr" v="727224" />
		<tag k="ssr:type" v="adressenavn" />
	</node>
	<node lat="63.84390000005216" lon="10.539691673671193" id="-28141">
		<tag k="name" v="Lisskjerivatnet" />
		<tag k="ssr:date" v="2019-12-27" />
		<tag k="ssr:gruppe" v="veg" />
		<tag k="ssr:hovedgruppe" v="infrastruktur" />
		<tag k="ssr:stedsnr" v="727225" />
		<tag k="ssr:type" v="adressenavn" />
	</node>
	<node lat="64.01165000310922" lon="10.940205559329964" id="-28334">
		<tag k="name" v="Kjåppåhaugen" />
		<tag k="ssr:date" v="2019-12-27" />
		<tag k="ssr:gruppe" v="veg" />
		<tag k="ssr:hovedgruppe" v="infrastruktur" />
		<tag k="ssr:stedsnr" v="788197" />
		<tag k="ssr:type" v="adressenavn" />
	</node>
	<node lat="63.91317499737799" lon="10.711191660959878" id="-28335">
		<tag k="name" v="Midtre Trevatnet" />
		<tag k="ssr:date" v="2019-12-27" />
		<tag k="ssr:gruppe" v="veg" />
		<tag k="ssr:hovedgruppe" v="infrastruktur" />
		<tag k="ssr:stedsnr" v="788214" />
		<tag k="ssr:type" v="adressenavn" />
	</node>
	<node lat="63.96594999850741" lon="10.812233323473178" id="-28336">
		<tag k="name" v="Simadalsvatnet" />
		<tag k="ssr:date" v="2019-12-27" />
		<tag k="ssr:gruppe" v="veg" />
		<tag k="ssr:hovedgruppe" v="infrastruktur" />
		<tag k="ssr:stedsnr" v="788215" />
		<tag k="ssr:type" v="adressenavn" />
	</node>
	<node lat="64.01132221962065" lon="11.049544453437312" id="-28337">
		<tag k="name" v="Nordlisetran" />
		<tag k="ssr:date" v="2019-12-27" />
		<tag k="ssr:gruppe" v="veg" />
		<tag k="ssr:hovedgruppe" v="infrastruktur" />
		<tag k="ssr:stedsnr" v="788220" />
		<tag k="ssr:type" v="adressenavn" />
	</node>
	<node lat="63.98490833617263" lon="10.871755564645932" id="-28772">
		<tag k="name" v="Selavatnet" />
		<tag k="ssr:date" v="2019-12-27" />
		<tag k="ssr:gruppe" v="veg" />
		<tag k="ssr:hovedgruppe" v="infrastruktur" />
		<tag k="ssr:stedsnr" v="909214" />
		<tag k="ssr:type" v="adressenavn" />
	</node>
	<node lat="64.03679166995637" lon="10.836794452896362" id="-28773">
		<tag k="name" v="Øver-Silderen" />
		<tag k="ssr:date" v="2019-12-27" />
		<tag k="ssr:gruppe" v="veg" />
		<tag k="ssr:hovedgruppe" v="infrastruktur" />
		<tag k="ssr:stedsnr" v="909215" />
		<tag k="ssr:type" v="adressenavn" />
	</node>
	<node lat="63.97516944599171" lon="10.909458341285173" id="-28958">
		<tag k="name" v="Høytjønnin" />
		<tag k="ssr:date" v="2019-12-27" />
		<tag k="ssr:gruppe" v="veg" />
		<tag k="ssr:hovedgruppe" v="infrastruktur" />
		<tag k="ssr:stedsnr" v="970313" />
		<tag k="ssr:type" v="adressenavn" />
	</node>
	<node lat="63.9845111120585" lon="10.891208342673542" id="-28959">
		<tag k="name" v="Straumsetervatnet" />
		<tag k="ssr:date" v="2019-12-27" />
		<tag k="ssr:gruppe" v="veg" />
		<tag k="ssr:hovedgruppe" v="infrastruktur" />
		<tag k="ssr:stedsnr" v="970291" />
		<tag k="ssr:type" v="adressenavn" />
	</node>
	<node lat="64.014446801577" lon="11.48188662926966" id="-28964">
		<tag k="name" v="Trøndelag fylke - Trööndelagen fylhke" />
		<tag k="name:no" v="Trøndelag fylke" />
		<tag k="name:sma" v="Trööndelagen fylhke" />
		<tag k="ssr:date" v="2021-06-08" />
		<tag k="ssr:gruppe" v="administrativeIndelinger" />
		<tag k="ssr:hovedgruppe" v="offentligAdministrasjon" />
		<tag k="ssr:stedsnr" v="980645" />
		<tag k="ssr:type" v="fylke" />
	</node>
	<node lat="64.08268336883904" lon="11.188908540520568" id="-28969">
		<tag k="name" v="Tortåsvegen" />
		<tag k="ssr:date" v="2019-12-27" />
		<tag k="ssr:gruppe" v="veg" />
		<tag k="ssr:hovedgruppe" v="infrastruktur" />
		<tag k="ssr:stedsnr" v="988361" />
		<tag k="ssr:type" v="vegstrekning" />
	</node>
	<node lat="64.01291389045169" lon="11.496702781130107" id="-29124">
		<tag k="name" v="Steinkjer kommune" />
		<tag k="ssr:date" v="2019-12-27" />
		<tag k="ssr:gruppe" v="administrativeIndelinger" />
		<tag k="ssr:hovedgruppe" v="offentligAdministrasjon" />
		<tag k="ssr:stedsnr" v="25261" />
		<tag k="ssr:type" v="kommune" />
	</node>
	<node lat="64.25453332923574" lon="11.960458342930284" id="-29177">
		<tag k="name" v="Austvikbukta" />
		<tag k="old_name" v="Ausvikbukta" />
		<tag k="ssr:date" v="2019-12-27" />
		<tag k="ssr:gruppe" v="veg" />
		<tag k="ssr:hovedgruppe" v="infrastruktur" />
		<tag k="ssr:stedsnr" v="40143" />
		<tag k="ssr:type" v="adressenavn" />
	</node>
	<node lat="64.0283472198215" lon="10.91169999814855" id="-29617">
		<tag k="name" v="Sandvatna" />
		<tag k="ssr:date" v="2019-12-27" />
		<tag k="ssr:gruppe" v="veg" />
		<tag k="ssr:hovedgruppe" v="infrastruktur" />
		<tag k="ssr:stedsnr" v="120197" />
		<tag k="ssr:type" v="adressenavn" />
	</node>
	<node lat="64.00750555349306" lon="10.912833337130412" id="-29618">
		<tag k="name" v="Jovatnet" />
		<tag k="ssr:date" v="2019-12-27" />
		<tag k="ssr:gruppe" v="veg" />
		<tag k="ssr:hovedgruppe" v="infrastruktur" />
		<tag k="ssr:stedsnr" v="120199" />
		<tag k="ssr:type" v="adressenavn" />
	</node>
	<node lat="63.92549444797357" lon="10.846211105018911" id="-29907">
		<tag k="name" v="Østre Steintjønna" />
		<tag k="ssr:date" v="2019-12-27" />
		<tag k="ssr:gruppe" v="veg" />
		<tag k="ssr:hovedgruppe" v="infrastruktur" />
		<tag k="ssr:stedsnr" v="181232" />
		<tag k="ssr:type" v="adressenavn" />
	</node>
	<node lat="64.00422500039842" lon="12.297055549157703" id="-30098">
		<tag k="name" v="Andreastjønna" />
		<tag k="ssr:date" v="2019-12-27" />
		<tag k="ssr:gruppe" v="veg" />
		<tag k="ssr:hovedgruppe" v="infrastruktur" />
		<tag k="ssr:stedsnr" v="222117" />
		<tag k="ssr:type" v="adressenavn" />
	</node>
	<node lat="64.05764937817531" lon="11.230732183576906" id="-30107">
		<tag k="name" v="Bartnesholmen" />
		<tag k="ssr:date" v="2020-09-01" />
		<tag k="ssr:gruppe" v="navigasjon" />
		<tag k="ssr:hovedgruppe" v="infrastruktur" />
		<tag k="ssr:stedsnr" v="227189" />
		<tag k="ssr:type" v="lanterne" />
	</node>
	<node lat="64.01064166376253" lon="11.464224992159602" id="-30124">
		<tag k="name" v="Eggebogtangen" />
		<tag k="ssr:date" v="2019-12-27" />
		<tag k="ssr:gruppe" v="navigasjon" />
		<tag k="ssr:hovedgruppe" v="infrastruktur" />
		<tag k="ssr:stedsnr" v="288623" />
		<tag k="ssr:type" v="fyrlykt" />
	</node>
	<node lat="64.0840805595287" lon="11.074569439215761" id="-30232">
		<tag k="name" v="Skardssetran" />
		<tag k="ssr:date" v="2019-12-27" />
		<tag k="ssr:gruppe" v="veg" />
		<tag k="ssr:hovedgruppe" v="infrastruktur" />
		<tag k="ssr:stedsnr" v="303199" />
		<tag k="ssr:type" v="adressenavn" />
	</node>
	<node lat="63.90437237610319" lon="10.92349899623918" id="-30432">
		<tag k="name" v="Verrasundet" />
		<tag k="old_name" v="Værrasundet" />
		<tag k="ssr:date" v="2019-12-27" />
		<tag k="ssr:gruppe" v="navigasjon" />
		<tag k="ssr:hovedgruppe" v="infrastruktur" />
		<tag k="ssr:stedsnr" v="335900" />
		<tag k="ssr:type" v="fyrlykt" />
	</node>
	<node lat="64.07210000130767" lon="11.08940554822078" id="-30565">
		<tag k="name" v="Fagerlisetran" />
		<tag k="ssr:date" v="2019-12-27" />
		<tag k="ssr:gruppe" v="veg" />
		<tag k="ssr:hovedgruppe" v="infrastruktur" />
		<tag k="ssr:stedsnr" v="363187" />
		<tag k="ssr:type" v="adressenavn" />
	</node>
	<node lat="64.13083888561323" lon="11.141369435854324" id="-30566">
		<tag k="name" v="Lissferja" />
		<tag k="ssr:date" v="2019-12-27" />
		<tag k="ssr:gruppe" v="veg" />
		<tag k="ssr:hovedgruppe" v="infrastruktur" />
		<tag k="ssr:stedsnr" v="363188" />
		<tag k="ssr:type" v="adressenavn" />
	</node>
	<node lat="64.12730000183687" lon="11.125008343550546" id="-30567">
		<tag k="name" v="Storferja" />
		<tag k="ssr:date" v="2019-12-27" />
		<tag k="ssr:gruppe" v="veg" />
		<tag k="ssr:hovedgruppe" v="infrastruktur" />
		<tag k="ssr:stedsnr" v="363189" />
		<tag k="ssr:type" v="adressenavn" />
	</node>
	<node lat="64.02909270603894" lon="11.227479526985604" id="-30824">
		<tag k="name" v="Beitstadsundet" />
		<tag k="ssr:date" v="2021-06-08" />
		<tag k="ssr:gruppe" v="navigasjon" />
		<tag k="ssr:hovedgruppe" v="infrastruktur" />
		<tag k="ssr:stedsnr" v="408169" />
		<tag k="ssr:type" v="fyrlykt" />
	</node>
</osm>
