<?xml version="1.0" encoding="UTF-8"?>
<<<<<<< HEAD
<osm version="0.6" generator="osmapis">
	<node lat="68.4119527816316" lon="17.765705552339988" id="-4122">
		<tag k="name" v="Ofotbanen" />
		<tag k="ssr:date" v="2021-06-08" />
		<tag k="ssr:gruppe" v="bane" />
		<tag k="ssr:hovedgruppe" v="infrastruktur" />
		<tag k="ssr:stedsnr" v="264696" />
		<tag k="ssr:type" v="banestrekning" />
	</node>
	<node lat="68.3391336191846" lon="16.217719835187168" id="-4140">
		<tag k="name" v="Revlsøy" />
		<tag k="old_name" v="Revelsøya;Revlsøya" />
		<tag k="ssr:date" v="2020-09-15" />
		<tag k="ssr:gruppe" v="navigasjon" />
=======
<osm generator="osmapis" version="0.6">
	<node id="-116091" lat="68.4276111124" lon="17.4276722108">
		<tag k="name" v="Havneadministrasjon" />
		<tag k="ssr:date" v="2019-12-27" />
		<tag k="ssr:gruppe" v="administrativeIndelinger" />
		<tag k="ssr:hovedgruppe" v="offentligAdministrasjon" />
		<tag k="ssr:stedsnr" v="420943" />
		<tag k="ssr:type" v="annenAdministrativInndeling" />
	</node>
	<node id="-117108" lat="68.3144388879" lon="16.3677777676">
		<tag k="name" v="Forrneset" />
		<tag k="ssr:date" v="2019-12-27" />
		<tag k="ssr:gruppe" v="navigasjon" />
		<tag k="ssr:hovedgruppe" v="infrastruktur" />
		<tag k="ssr:stedsnr" v="867644" />
		<tag k="ssr:type" v="fyrlykt" />
	</node>
	<node id="-114286" lat="68.3251583372" lon="17.2569666601">
		<tag k="name" v="Buholmen" />
		<tag k="ssr:date" v="2019-12-27" />
		<tag k="ssr:gruppe" v="navigasjon" />
		<tag k="ssr:hovedgruppe" v="infrastruktur" />
		<tag k="ssr:stedsnr" v="880968" />
		<tag k="ssr:type" v="fyrlykt" />
	</node>
	<node id="-115949" lat="68.3626805532" lon="16.2659666634">
		<tag k="name" v="Hamnholmen" />
		<tag k="ssr:date" v="2019-12-27" />
		<tag k="ssr:gruppe" v="navigasjon" />
		<tag k="ssr:hovedgruppe" v="infrastruktur" />
		<tag k="ssr:stedsnr" v="381738" />
		<tag k="ssr:type" v="fyrlykt" />
	</node>
	<node id="-115818" lat="68.3364722223" lon="16.2680305636">
		<tag k="name" v="Straumskjeret" />
		<tag k="ssr:date" v="2019-12-27" />
		<tag k="ssr:gruppe" v="navigasjon" />
		<tag k="ssr:hovedgruppe" v="infrastruktur" />
		<tag k="ssr:stedsnr" v="340294" />
		<tag k="ssr:type" v="fyrlykt" />
	</node>
	<node id="-114798" lat="68.4395554307" lon="17.4264560323">
		<tag k="name" v="Kommuneveien" />
		<tag k="ssr:date" v="2019-12-27" />
		<tag k="ssr:gruppe" v="veg" />
>>>>>>> e1d4bc35ff8a6074a6f2e91616a996b547c36f15
		<tag k="ssr:hovedgruppe" v="infrastruktur" />
		<tag k="ssr:stedsnr" v="199323" />
		<tag k="ssr:type" v="fyrlykt" />
	</node>
<<<<<<< HEAD
	<node lat="68.33798873606251" lon="15.95480333777686" id="-4294">
		<tag k="name" v="Ofoten - Ufuohttá" />
		<tag k="name:no" v="Ofoten" />
		<tag k="name:se" v="Ufuohttá" />
		<tag k="ssr:date" v="2021-06-15" />
		<tag k="ssr:gruppe" v="terrengområder" />
		<tag k="ssr:hovedgruppe" v="terreng" />
		<tag k="ssr:stedsnr" v="450830" />
		<tag k="ssr:type" v="landskapsområde" />
	</node>
	<node lat="68.3709722207237" lon="17.234905546896737" id="-4351">
		<tag k="name" v="Skjærvikneset" />
		<tag k="ssr:date" v="2021-06-08" />
=======
	<node id="-117340" lat="69.6388889725" lon="30.5666644427">
		<tag k="fixme" v="multiple name tags, choose one and add the other to alt_name" />
		<tag k="loc_name:se" v="Norgga gonagasriika" />
		<tag k="loc_name:sma" v="Nöörjen gånkarïjhke" />
		<tag k="loc_name:smj" v="Vuona gånågisrijkka" />
		<tag k="name" v="Noreg;Norge" />
		<tag k="name:en" v="Norway" />
		<tag k="name:no" v="Noreg;Norge" />
		<tag k="ssr:date" v="2020-06-04" />
		<tag k="ssr:gruppe" v="administrativeIndelinger" />
		<tag k="ssr:hovedgruppe" v="offentligAdministrasjon" />
		<tag k="ssr:stedsnr" v="26330" />
		<tag k="ssr:type" v="nasjon" />
	</node>
	<node id="-116565" lat="68.4540194431" lon="17.7054805443">
		<tag k="name" v="Hergot" />
		<tag k="ssr:date" v="2019-12-27" />
		<tag k="ssr:gruppe" v="veg" />
		<tag k="ssr:hovedgruppe" v="infrastruktur" />
		<tag k="ssr:stedsnr" v="634434" />
		<tag k="ssr:type" v="vegstrekning" />
	</node>
	<node id="-113346" lat="68.2840861068" lon="17.3736083306">
		<tag k="name" v="Aspelund" />
		<tag k="ssr:date" v="2019-12-27" />
>>>>>>> e1d4bc35ff8a6074a6f2e91616a996b547c36f15
		<tag k="ssr:gruppe" v="navigasjon" />
		<tag k="ssr:hovedgruppe" v="infrastruktur" />
		<tag k="ssr:stedsnr" v="264642" />
		<tag k="ssr:type" v="lanterne" />
	</node>
	<node lat="68.4213800729369" lon="16.580983954591076" id="-4436">
		<tag k="name" v="Hamnesholmen" />
		<tag k="ssr:date" v="2020-09-15" />
		<tag k="ssr:gruppe" v="navigasjon" />
		<tag k="ssr:hovedgruppe" v="infrastruktur" />
		<tag k="ssr:stedsnr" v="320464" />
		<tag k="ssr:type" v="fyrlykt" />
	</node>
<<<<<<< HEAD
	<node lat="68.33647222226432" lon="16.26803056358098" id="-4530">
		<tag k="name" v="Straumskjeret" />
=======
	<node id="-114752" lat="68.3709194439" lon="17.247627775">
		<tag k="name" v="Trong-Skjomneset" />
>>>>>>> e1d4bc35ff8a6074a6f2e91616a996b547c36f15
		<tag k="ssr:date" v="2019-12-27" />
		<tag k="ssr:gruppe" v="navigasjon" />
		<tag k="ssr:hovedgruppe" v="infrastruktur" />
		<tag k="ssr:stedsnr" v="340294" />
		<tag k="ssr:type" v="fyrlykt" />
	</node>
<<<<<<< HEAD
	<node lat="68.36268435165826" lon="16.26596624534637" id="-4588">
		<tag k="name" v="Hamnholmen" />
		<tag k="ssr:date" v="2020-09-15" />
		<tag k="ssr:gruppe" v="navigasjon" />
		<tag k="ssr:hovedgruppe" v="infrastruktur" />
		<tag k="ssr:stedsnr" v="381738" />
		<tag k="ssr:type" v="fyrlykt" />
	</node>
	<node lat="68.42761111239015" lon="17.42767221075809" id="-4681">
		<tag k="name" v="Havneadministrasjon" />
=======
	<node id="-117280" lat="68.4382351924" lon="17.4237923177">
		<tag k="fixme" v="multiple name tags, choose one and add the other to alt_name" />
		<tag k="name" v="Narvik;Narvik kommune" />
		<tag k="ssr:date" v="2020-01-02" />
		<tag k="ssr:gruppe" v="administrativeIndelinger" />
		<tag k="ssr:hovedgruppe" v="offentligAdministrasjon" />
		<tag k="ssr:stedsnr" v="1073705" />
		<tag k="ssr:type" v="kommune" />
	</node>
	<node id="-113207" lat="68.3391499966" lon="16.2177722278">
		<tag k="name" v="Revlsøy" />
		<tag k="old_name" v="Revelsøya;Revlsøya" />
>>>>>>> e1d4bc35ff8a6074a6f2e91616a996b547c36f15
		<tag k="ssr:date" v="2019-12-27" />
		<tag k="ssr:gruppe" v="administrativeIndelinger" />
		<tag k="ssr:hovedgruppe" v="offentligAdministrasjon" />
		<tag k="ssr:stedsnr" v="420943" />
		<tag k="ssr:type" v="annenAdministrativInndeling" />
	</node>
	<node lat="68.45401944314213" lon="17.705480544336734" id="-5212">
		<tag k="name" v="Hergot" />
		<tag k="ssr:date" v="2021-06-08" />
		<tag k="ssr:gruppe" v="veg" />
		<tag k="ssr:hovedgruppe" v="infrastruktur" />
		<tag k="ssr:stedsnr" v="634434" />
		<tag k="ssr:type" v="vegstrekning" />
	</node>
	<node lat="68.14515485378395" lon="16.226624870569776" id="-5292">
		<tag k="name" v="Hundholmen" />
		<tag k="name:no" v="Hundholmen" />
		<tag k="ssr:date" v="2020-09-15" />
		<tag k="ssr:gruppe" v="navigasjon" />
		<tag k="ssr:hovedgruppe" v="infrastruktur" />
		<tag k="ssr:stedsnr" v="684599" />
		<tag k="ssr:type" v="fyrlykt" />
	</node>
<<<<<<< HEAD
	<node lat="68.42002221992213" lon="17.39916945314899" id="-5538">
=======
	<node id="-117039" lat="68.4200222199" lon="17.3991694531">
>>>>>>> e1d4bc35ff8a6074a6f2e91616a996b547c36f15
		<tag k="name" v="Indre Vrakbøye" />
		<tag k="ssr:date" v="2019-12-27" />
		<tag k="ssr:gruppe" v="navigasjon" />
		<tag k="ssr:hovedgruppe" v="infrastruktur" />
		<tag k="ssr:stedsnr" v="830996" />
		<tag k="ssr:type" v="lysbøye" />
	</node>
<<<<<<< HEAD
	<node lat="68.37091944392246" lon="17.24762777501889" id="-5666">
		<tag k="name" v="Trong-Skjomneset" />
		<tag k="ssr:date" v="2021-06-08" />
=======
	<node id="-115495" lat="68.3734000015" lon="16.9127611111">
		<tag k="name" v="Kårholmen" />
		<tag k="ssr:date" v="2019-12-27" />
>>>>>>> e1d4bc35ff8a6074a6f2e91616a996b547c36f15
		<tag k="ssr:gruppe" v="navigasjon" />
		<tag k="ssr:hovedgruppe" v="infrastruktur" />
		<tag k="ssr:stedsnr" v="932623" />
		<tag k="ssr:type" v="fyrlykt" />
	</node>
<<<<<<< HEAD
	<node lat="68.41321691286542" lon="16.67376623565132" id="-6009">
		<tag k="name" v="Kjeldebotn" />
		<tag k="old_name" v="Kjeldbotn lykt" />
		<tag k="ssr:date" v="2020-09-15" />
		<tag k="ssr:gruppe" v="navigasjon" />
		<tag k="ssr:hovedgruppe" v="infrastruktur" />
		<tag k="ssr:stedsnr" v="77493" />
		<tag k="ssr:type" v="fyrlykt" />
	</node>
	<node lat="68.42624095721133" lon="17.35640321528202" id="-6052">
		<tag k="name" v="Narvik" />
		<tag k="ssr:date" v="2020-09-15" />
		<tag k="ssr:gruppe" v="navigasjon" />
		<tag k="ssr:hovedgruppe" v="infrastruktur" />
		<tag k="ssr:stedsnr" v="78981" />
		<tag k="ssr:type" v="fyrlykt" />
	</node>
	<node lat="68.38786111281338" lon="17.062472213334214" id="-6119">
		<tag k="name" v="Flyndrehola" />
		<tag k="ssr:date" v="2019-12-27" />
		<tag k="ssr:gruppe" v="sjøbunn" />
		<tag k="ssr:hovedgruppe" v="sjø" />
		<tag k="ssr:stedsnr" v="86750" />
		<tag k="ssr:type" v="søkkISjø" />
	</node>
	<node lat="68.37340000147852" lon="16.912761111100604" id="-6395">
		<tag k="name" v="Kårholmen" />
=======
	<node id="-113190" lat="68.4256750027" lon="17.3792222221">
		<tag k="name" v="Ytre Vrakbøye" />
		<tag k="ssr:date" v="2019-12-27" />
		<tag k="ssr:gruppe" v="navigasjon" />
		<tag k="ssr:hovedgruppe" v="infrastruktur" />
		<tag k="ssr:stedsnr" v="284000" />
		<tag k="ssr:type" v="lysbøye" />
	</node>
	<node id="-116132" lat="68.3536777792" lon="16.0800249946">
		<tag k="name" v="Barøya" />
		<tag k="old_name" v="Barøya fyr;Barøy" />
>>>>>>> e1d4bc35ff8a6074a6f2e91616a996b547c36f15
		<tag k="ssr:date" v="2019-12-27" />
		<tag k="ssr:gruppe" v="navigasjon" />
		<tag k="ssr:hovedgruppe" v="infrastruktur" />
		<tag k="ssr:stedsnr" v="199925" />
		<tag k="ssr:type" v="fyrlykt" />
	</node>
<<<<<<< HEAD
	<node lat="68.42567500268797" lon="17.379222222115413" id="-6512">
		<tag k="name" v="Ytre Vrakbøye" />
=======
	<node id="-115619" lat="68.4211944467" lon="16.5815805533">
		<tag k="name" v="Hamnesholmen" />
>>>>>>> e1d4bc35ff8a6074a6f2e91616a996b547c36f15
		<tag k="ssr:date" v="2019-12-27" />
		<tag k="ssr:gruppe" v="navigasjon" />
		<tag k="ssr:hovedgruppe" v="infrastruktur" />
		<tag k="ssr:stedsnr" v="320464" />
		<tag k="ssr:type" v="fyrlykt" />
	</node>
<<<<<<< HEAD
	<node lat="68.28408610677492" lon="17.373608330592" id="-6927">
		<tag k="name" v="Aspelund" />
		<tag k="ssr:date" v="2021-06-08" />
		<tag k="ssr:gruppe" v="navigasjon" />
=======
	<node id="-117281" lat="68.5839724782" lon="17.7725935182">
		<tag k="name" v="Vassdalsfjellet" />
		<tag k="ssr:date" v="2020-02-17" />
		<tag k="ssr:gruppe" v="veg" />
>>>>>>> e1d4bc35ff8a6074a6f2e91616a996b547c36f15
		<tag k="ssr:hovedgruppe" v="infrastruktur" />
		<tag k="ssr:stedsnr" v="442871" />
		<tag k="ssr:type" v="fyrlykt" />
	</node>
<<<<<<< HEAD
	<node lat="67.2804027758844" lon="14.376388898255625" id="-7116">
		<tag k="alt_name:no" v="Nordland" />
		<tag k="loc_name:se" v="Nordlándda fylka" />
		<tag k="loc_name:sma" v="Nordlaanten fylhke" />
		<tag k="name" v="Nordland fylke - Nordlánda fylkka" />
		<tag k="name:no" v="Nordland fylke" />
		<tag k="name:smj" v="Nordlánda fylkka" />
		<tag k="ssr:date" v="2021-02-03" />
		<tag k="ssr:gruppe" v="administrativeIndelinger" />
		<tag k="ssr:hovedgruppe" v="offentligAdministrasjon" />
		<tag k="ssr:stedsnr" v="511766" />
		<tag k="ssr:type" v="fylke" />
	</node>
	<node lat="68.35383094896565" lon="16.080344357227418" id="-7158">
=======
	<node id="-113440" lat="68.308266664" lon="16.0186111198">
		<tag k="loc_name:se" v="Ufuohttá" />
		<tag k="name" v="Ofoten" />
		<tag k="name:no" v="Ofoten" />
		<tag k="ssr:date" v="2019-12-27" />
		<tag k="ssr:gruppe" v="terrengområder" />
		<tag k="ssr:hovedgruppe" v="terreng" />
		<tag k="ssr:stedsnr" v="450830" />
		<tag k="ssr:type" v="landskapsområde" />
	</node>
	<node id="-117279" lat="68.3372638594" lon="16.2595050548">
		<tag k="name" v="Revelsøy" />
		<tag k="ssr:date" v="2019-12-27" />
		<tag k="ssr:gruppe" v="veg" />
		<tag k="ssr:hovedgruppe" v="infrastruktur" />
		<tag k="ssr:stedsnr" v="1030102" />
		<tag k="ssr:type" v="adressenavn" />
	</node>
	<node id="-117278" lat="68.354935325" lon="16.156685376">
>>>>>>> e1d4bc35ff8a6074a6f2e91616a996b547c36f15
		<tag k="name" v="Barøya" />
		<tag k="old_name" v="Barøya fyr;Barøy" />
		<tag k="ssr:date" v="2020-09-01" />
		<tag k="ssr:gruppe" v="navigasjon" />
		<tag k="ssr:hovedgruppe" v="infrastruktur" />
		<tag k="ssr:stedsnr" v="562314" />
		<tag k="ssr:type" v="fyrstasjon" />
	</node>
<<<<<<< HEAD
	<node lat="68.30200832984237" lon="17.062258340288466" id="-7924">
		<tag k="name" v="Jensskrea" />
=======
	<node id="-117277" lat="68.3245066284" lon="16.235675398">
		<tag k="name" v="Valle" />
>>>>>>> e1d4bc35ff8a6074a6f2e91616a996b547c36f15
		<tag k="ssr:date" v="2019-12-27" />
		<tag k="ssr:gruppe" v="sjøbunn" />
		<tag k="ssr:hovedgruppe" v="sjø" />
		<tag k="ssr:stedsnr" v="814767" />
		<tag k="ssr:type" v="søkkISjø" />
	</node>
<<<<<<< HEAD
	<node lat="68.31459799688196" lon="16.368152575568747" id="-8028">
		<tag k="name" v="Forrneset" />
		<tag k="ssr:date" v="2021-06-08" />
=======
	<node id="-115099" lat="68.4262277745" lon="17.3564138939">
		<tag k="name" v="Narvik" />
		<tag k="ssr:date" v="2019-12-27" />
>>>>>>> e1d4bc35ff8a6074a6f2e91616a996b547c36f15
		<tag k="ssr:gruppe" v="navigasjon" />
		<tag k="ssr:hovedgruppe" v="infrastruktur" />
		<tag k="ssr:stedsnr" v="867644" />
		<tag k="ssr:type" v="fyrlykt" />
	</node>
<<<<<<< HEAD
	<node lat="68.32515833718496" lon="17.256966660073154" id="-8155">
		<tag k="name" v="Buholmen" />
=======
	<node id="-113939" lat="68.1451500011" lon="16.2264610994">
		<tag k="name" v="Hundholmen" />
		<tag k="name:no" v="Hundholmen" />
>>>>>>> e1d4bc35ff8a6074a6f2e91616a996b547c36f15
		<tag k="ssr:date" v="2019-12-27" />
		<tag k="ssr:gruppe" v="navigasjon" />
		<tag k="ssr:hovedgruppe" v="infrastruktur" />
		<tag k="ssr:stedsnr" v="880968" />
		<tag k="ssr:type" v="fyrlykt" />
	</node>
<<<<<<< HEAD
	<node lat="68.40530002869929" lon="17.327902206036104" id="-8202">
=======
	<node id="-113035" lat="68.4119527816" lon="17.7657055523">
		<tag k="name" v="Ofotbanen" />
		<tag k="ssr:date" v="2019-12-27" />
		<tag k="ssr:gruppe" v="bane" />
		<tag k="ssr:hovedgruppe" v="infrastruktur" />
		<tag k="ssr:stedsnr" v="264696" />
		<tag k="ssr:type" v="banestrekning" />
	</node>
	<node id="-117254" lat="68.4053000287" lon="17.327902206">
>>>>>>> e1d4bc35ff8a6074a6f2e91616a996b547c36f15
		<tag k="name" v="Grønnlisletta" />
		<tag k="ssr:date" v="2019-12-27" />
		<tag k="ssr:gruppe" v="veg" />
		<tag k="ssr:hovedgruppe" v="infrastruktur" />
		<tag k="ssr:stedsnr" v="978968" />
		<tag k="ssr:type" v="adressenavn" />
	</node>
<<<<<<< HEAD
	<node lat="68.43955543074142" lon="17.426456032290826" id="-8227">
		<tag k="name" v="Kommuneveien" />
		<tag k="ssr:date" v="2019-12-27" />
		<tag k="ssr:gruppe" v="veg" />
		<tag k="ssr:hovedgruppe" v="infrastruktur" />
		<tag k="ssr:stedsnr" v="1004434" />
		<tag k="ssr:type" v="adressenavn" />
	</node>
	<node lat="68.32450662844616" lon="16.235675398014873" id="-8228">
		<tag k="name" v="Valle" />
		<tag k="ssr:date" v="2019-12-27" />
		<tag k="ssr:gruppe" v="veg" />
		<tag k="ssr:hovedgruppe" v="infrastruktur" />
		<tag k="ssr:stedsnr" v="1030093" />
		<tag k="ssr:type" v="adressenavn" />
	</node>
	<node lat="68.35493532500392" lon="16.156685376021517" id="-8229">
		<tag k="name" v="Barøya" />
		<tag k="ssr:date" v="2019-12-27" />
		<tag k="ssr:gruppe" v="veg" />
		<tag k="ssr:hovedgruppe" v="infrastruktur" />
		<tag k="ssr:stedsnr" v="1030100" />
		<tag k="ssr:type" v="adressenavn" />
	</node>
	<node lat="68.33726385941677" lon="16.259505054772813" id="-8230">
		<tag k="name" v="Revelsøy" />
		<tag k="ssr:date" v="2019-12-27" />
		<tag k="ssr:gruppe" v="veg" />
		<tag k="ssr:hovedgruppe" v="infrastruktur" />
		<tag k="ssr:stedsnr" v="1030102" />
		<tag k="ssr:type" v="adressenavn" />
	</node>
	<node lat="68.43823519240435" lon="17.42379231769922" id="-8232">
		<tag k="fixme" v="multiple name tags, choose one and add the other to alt_name" />
		<tag k="name" v="Narvik;Narvik kommune" />
		<tag k="ssr:date" v="2021-06-08" />
		<tag k="ssr:gruppe" v="administrativeIndelinger" />
		<tag k="ssr:hovedgruppe" v="offentligAdministrasjon" />
		<tag k="ssr:stedsnr" v="1073705" />
		<tag k="ssr:type" v="kommune" />
	</node>
	<node lat="68.58397247824477" lon="17.772593518201305" id="-8233">
		<tag k="name" v="Vassdalsfjellet" />
		<tag k="ssr:date" v="2020-02-17" />
		<tag k="ssr:gruppe" v="veg" />
		<tag k="ssr:hovedgruppe" v="infrastruktur" />
		<tag k="ssr:stedsnr" v="1075215" />
		<tag k="ssr:type" v="adressenavn" />
	</node>
=======
>>>>>>> e1d4bc35ff8a6074a6f2e91616a996b547c36f15
</osm>
