<?xml version="1.0" encoding="UTF-8"?>
<osm generator="osmapis" version="0.6">
	<node id="-126929" lat="61.6421032834" lon="9.9733984295">
		<tag k="name" v="Vollahølen" />
		<tag k="place" v="locality" />
		<tag k="ssr:stedsnr" v="976745" />
	</node>
	<node id="-126926" lat="61.6645638866" lon="10.0538499996">
		<tag k="name" v="Svartfjellandet" />
		<tag k="natural" v="beach" />
		<tag k="ssr:stedsnr" v="968889" />
	</node>
	<node id="-126923" lat="61.4229361105" lon="10.2128472174">
		<tag k="name" v="Storøya" />
		<tag k="place" v="islet" />
		<tag k="ssr:stedsnr" v="968819" />
	</node>
	<node id="-126916" lat="61.6501777792" lon="9.9739638899">
		<tag k="name" v="Rolegkroken" />
		<tag k="place" v="locality" />
		<tag k="ssr:stedsnr" v="962618" />
	</node>
	<node id="-126905" lat="61.6409027772" lon="10.629822214">
		<tag k="name" v="Søre Reintjønnet" />
		<tag k="natural" v="water" />
		<tag k="ssr:stedsnr" v="951824" />
	</node>
	<node id="-126892" lat="61.5863694464" lon="10.627386112">
		<tag k="name" v="Tatervika" />
		<tag k="natural" v="bay" />
		<tag k="ssr:stedsnr" v="949749" />
	</node>
	<node id="-126889" lat="61.5838138883" lon="10.6299555474">
		<tag k="name" v="Gamlebutangen" />
		<tag k="natural" v="cape" />
		<tag k="ssr:stedsnr" v="949739" />
	</node>
	<node id="-126888" lat="61.5870027791" lon="10.6215833288">
		<tag k="name" v="Storvika" />
		<tag k="natural" v="bay" />
		<tag k="ssr:stedsnr" v="949738" />
	</node>
	<node id="-126887" lat="61.5460972224" lon="10.6606638837">
		<tag k="name" v="Tjønnet" />
		<tag k="natural" v="bay" />
		<tag k="ssr:stedsnr" v="949732" />
	</node>
	<node id="-126883" lat="61.4565805548" lon="10.0888361156">
		<tag k="name" v="Svartbekken" />
		<tag k="ssr:stedsnr" v="949687" />
		<tag k="waterway" v="stream" />
	</node>
	<node id="-126880" lat="61.507430554" lon="10.2488055595">
		<tag k="name" v="Sjøsæterbekken" />
		<tag k="ssr:stedsnr" v="949665" />
		<tag k="waterway" v="stream" />
	</node>
	<node id="-126878" lat="61.5351888893" lon="10.3357055529">
		<tag k="name" v="Kutjønnet" />
		<tag k="natural" v="water" />
		<tag k="ssr:stedsnr" v="949649" />
	</node>
	<node id="-126875" lat="61.4217194455" lon="10.110913885">
		<tag k="name" v="Myrsæterbekken" />
		<tag k="ssr:stedsnr" v="949641" />
		<tag k="waterway" v="stream" />
	</node>
	<node id="-126866" lat="61.4116777806" lon="10.3919111204">
		<tag k="name" v="Fremre Langtjønn" />
		<tag k="natural" v="water" />
		<tag k="ssr:stedsnr" v="949519" />
	</node>
	<node id="-126861" lat="61.680702775" lon="10.1650722221">
		<tag k="name" v="Søre Gråbekken" />
		<tag k="ssr:stedsnr" v="949405" />
		<tag k="waterway" v="stream" />
	</node>
	<node id="-126860" lat="61.6718945794" lon="10.1476870629">
		<tag k="name" v="Måsåtjønna" />
		<tag k="natural" v="water" />
		<tag k="ssr:stedsnr" v="949399" />
		<tag k="water" v="lake" />
	</node>
	<node id="-126859" lat="61.6234027784" lon="10.1825583242">
		<tag k="name" v="Høystadbekken" />
		<tag k="ssr:stedsnr" v="949393" />
		<tag k="waterway" v="stream" />
	</node>
	<node id="-126851" lat="61.488669441" lon="10.5586249966">
		<tag k="name" v="Indre Trolldalsbekken" />
		<tag k="ssr:stedsnr" v="949185" />
		<tag k="waterway" v="stream" />
	</node>
	<node id="-126850" lat="61.5499700231" lon="10.1403268815">
		<tag k="name" v="Johushølen" />
		<tag k="natural" v="water" />
		<tag k="ssr:stedsnr" v="949183" />
		<tag k="water" v="lake" />
	</node>
	<node id="-126849" lat="61.594874999" lon="10.1511305529">
		<tag k="name" v="Lykkjebekken" />
		<tag k="ssr:stedsnr" v="949113" />
		<tag k="waterway" v="stream" />
	</node>
	<node id="-126846" lat="61.6532805518" lon="10.0525222214">
		<tag k="name" v="Holtesæterbekken" />
		<tag k="ssr:stedsnr" v="936995" />
		<tag k="waterway" v="stream" />
	</node>
	<node id="-126836" lat="61.6574138927" lon="10.3084555586">
		<tag k="alt_name" v="Hiriåa" />
		<tag k="loc_name" v="Hirisjøåa" />
		<tag k="name" v="Hira" />
		<tag k="ssr:stedsnr" v="920988" />
		<tag k="waterway" v="river" />
	</node>
	<node id="-126834" lat="61.6701628229" lon="10.0623256579">
		<tag k="name" v="Flaksjøen" />
		<tag k="natural" v="water" />
		<tag k="ssr:stedsnr" v="920982" />
		<tag k="water" v="lake" />
	</node>
	<node id="-126830" lat="61.5131250004" lon="10.1799055575">
		<tag k="name" v="Prestbekken" />
		<tag k="ssr:stedsnr" v="920893" />
		<tag k="waterway" v="stream" />
	</node>
	<node id="-126828" lat="61.5401666622" lon="10.0684388882">
		<tag k="name" v="Langøya" />
		<tag k="place" v="islet" />
		<tag k="ssr:stedsnr" v="920853" />
	</node>
	<node id="-126827" lat="61.4327527805" lon="10.1583666598">
		<tag k="alt_name" v="Moselva" />
		<tag k="name" v="Moelva" />
		<tag k="ssr:stedsnr" v="920782" />
		<tag k="waterway" v="river" />
	</node>
	<node id="-126823" lat="61.6281138855" lon="9.99344721575">
		<tag k="alt_name" v="Myrelva" />
		<tag k="name" v="Myreelva" />
		<tag k="ssr:stedsnr" v="920754" />
		<tag k="waterway" v="stream" />
	</node>
	<node id="-126820" lat="61.7182388864" lon="10.6415027704">
		<tag k="alt_name" v="Hira" />
		<tag k="name" v="Stor-Hira" />
		<tag k="ssr:stedsnr" v="920176" />
		<tag k="waterway" v="river" />
	</node>
	<node id="-126809" lat="61.4752916633" lon="10.2595527861">
		<tag k="name" v="Myrstigbekken" />
		<tag k="ssr:stedsnr" v="919589" />
		<tag k="waterway" v="stream" />
	</node>
	<node id="-126800" lat="61.4173833377" lon="10.4003249997">
		<tag k="name" v="Gullhaugtjønnet" />
		<tag k="natural" v="water" />
		<tag k="ssr:stedsnr" v="919320" />
	</node>
	<node id="-126785" lat="61.6721749961" lon="10.0765333391">
		<tag k="name" v="Sandvika" />
		<tag k="natural" v="bay" />
		<tag k="ssr:stedsnr" v="908911" />
	</node>
	<node id="-126784" lat="61.6756166634" lon="10.0621638856">
		<tag k="alt_name" v="Sygardsødden" />
		<tag k="name" v="Sygardsodden" />
		<tag k="natural" v="cape" />
		<tag k="ssr:stedsnr" v="908909" />
	</node>
	<node id="-126781" lat="61.3861666641" lon="10.1981972265">
		<tag k="alt_name" v="Haukåa" />
		<tag k="name" v="Haukåbekken" />
		<tag k="ssr:stedsnr" v="907728" />
		<tag k="waterway" v="stream" />
	</node>
	<node id="-126777" lat="61.5557194446" lon="10.0629444383">
		<tag k="name" v="Bergsveinhølen" />
		<tag k="place" v="locality" />
		<tag k="ssr:stedsnr" v="907620" />
	</node>
	<node id="-126775" lat="61.5167500002" lon="10.1492388959">
		<tag k="name" v="Børkøya" />
		<tag k="place" v="islet" />
		<tag k="ssr:stedsnr" v="907122" />
	</node>
	<node id="-126765" lat="61.7316999987" lon="10.0533944448">
		<tag k="name" v="Svartåkluftin" />
		<tag k="place" v="locality" />
		<tag k="ssr:stedsnr" v="860968" />
	</node>
	<node id="-126764" lat="61.5076722264" lon="10.0862138869">
		<tag k="name" v="Veslestulstjønnet" />
		<tag k="natural" v="water" />
		<tag k="ssr:stedsnr" v="860891" />
	</node>
	<node id="-126761" lat="61.4361399761" lon="10.0519192243">
		<tag k="name" v="Tverråa" />
		<tag k="ssr:stedsnr" v="860800" />
		<tag k="waterway" v="river" />
	</node>
	<node id="-126754" lat="61.6586722226" lon="10.4666944427">
		<tag k="name" v="Åsdalsbekken" />
		<tag k="ssr:stedsnr" v="860207" />
		<tag k="waterway" v="stream" />
	</node>
	<node id="-126752" lat="61.6253777782" lon="10.5349888889">
		<tag k="alt_name" v="Nordre bekken" />
		<tag k="name" v="Nørdrebekken" />
		<tag k="ssr:stedsnr" v="860186" />
		<tag k="waterway" v="stream" />
	</node>
	<node id="-126751" lat="61.6318499967" lon="10.5098416648">
		<tag k="name" v="Turrtjønnet" />
		<tag k="natural" v="water" />
		<tag k="ssr:stedsnr" v="860181" />
	</node>
	<node id="-126750" lat="61.643202781" lon="10.3806805566">
		<tag k="name" v="Kvitbekken" />
		<tag k="ssr:stedsnr" v="860171" />
		<tag k="waterway" v="stream" />
	</node>
	<node id="-126745" lat="61.5298250022" lon="10.2813388827">
		<tag k="name" v="Langtjønnet" />
		<tag k="natural" v="water" />
		<tag k="ssr:stedsnr" v="859825" />
	</node>
	<node id="-126743" lat="61.5384888916" lon="10.2937916637">
		<tag k="name" v="Svarttjønnet" />
		<tag k="natural" v="water" />
		<tag k="ssr:stedsnr" v="859820" />
	</node>
	<node id="-126742" lat="61.5357820716" lon="10.069065415">
		<tag k="alt_name" v="Hæringen" />
		<tag k="name" v="Heringen" />
		<tag k="place" v="islet" />
		<tag k="ssr:stedsnr" v="859818" />
	</node>
	<node id="-126740" lat="61.4371888857" lon="10.2722500081">
		<tag k="name" v="Gamlehustjønnet" />
		<tag k="natural" v="water" />
		<tag k="ssr:stedsnr" v="858930" />
	</node>
	<node id="-126739" lat="61.4187527815" lon="10.1671027709">
		<tag k="name" v="Linvikselva" />
		<tag k="ssr:stedsnr" v="858919" />
		<tag k="waterway" v="stream" />
	</node>
	<node id="-126726" lat="61.4127027757" lon="10.4366138853">
		<tag k="name" v="Løtjønnet" />
		<tag k="natural" v="water" />
		<tag k="ssr:stedsnr" v="858342" />
	</node>
	<node id="-126717" lat="61.6654194407" lon="10.069047228">
		<tag k="alt_name" v="Langødden" />
		<tag k="name" v="Langodden" />
		<tag k="natural" v="cape" />
		<tag k="ssr:stedsnr" v="847885" />
	</node>
	<node id="-126715" lat="61.573909692" lon="10.1075543425">
		<tag k="name" v="Kvernflatodden" />
		<tag k="natural" v="cape" />
		<tag k="ssr:stedsnr" v="847693" />
	</node>
	<node id="-126713" lat="61.5166027816" lon="10.1528666603">
		<tag k="name" v="Børkevjua" />
		<tag k="natural" v="bay" />
		<tag k="ssr:stedsnr" v="847149" />
	</node>
	<node id="-126706" lat="61.511674511" lon="10.6568205376">
		<tag k="name" v="Nedre Samtjønnet" />
		<tag k="natural" v="water" />
		<tag k="ssr:stedsnr" v="828964" />
	</node>
	<node id="-126701" lat="61.4509749973" lon="10.4932027699">
		<tag k="name" v="Åmillom" />
		<tag k="natural" v="cape" />
		<tag k="ssr:stedsnr" v="828904" />
	</node>
	<node id="-126695" lat="61.526836111" lon="10.1023472186">
		<tag k="name" v="Evjemillom" />
		<tag k="natural" v="beach" />
		<tag k="ssr:stedsnr" v="828712" />
	</node>
	<node id="-126681" lat="61.3995472225" lon="10.2925916625">
		<tag k="name" v="Blåbytta" />
		<tag k="ssr:stedsnr" v="828400" />
		<tag k="waterway" v="stream" />
	</node>
	<node id="-126678" lat="61.4618527785" lon="10.28665278">
		<tag k="name" v="Harabekken" />
		<tag k="ssr:stedsnr" v="828326" />
		<tag k="waterway" v="stream" />
	</node>
	<node id="-126676" lat="61.4665027807" lon="10.2470638896">
		<tag k="name" v="Turrbekken" />
		<tag k="ssr:stedsnr" v="828311" />
		<tag k="waterway" v="stream" />
	</node>
	<node id="-126672" lat="61.4011527792" lon="10.3541361049">
		<tag k="name" v="Oksbekken" />
		<tag k="ssr:stedsnr" v="828261" />
		<tag k="waterway" v="stream" />
	</node>
	<node id="-126666" lat="61.4665083354" lon="10.3665888965">
		<tag k="name" v="Sagbekken" />
		<tag k="ssr:stedsnr" v="828174" />
		<tag k="waterway" v="stream" />
	</node>
	<node id="-126661" lat="61.6760083338" lon="10.0507444388">
		<tag k="name" v="Svartvika" />
		<tag k="natural" v="bay" />
		<tag k="ssr:stedsnr" v="815989" />
	</node>
	<node id="-126660" lat="61.6691611081" lon="10.0691388883">
		<tag k="name" v="Storodden" />
		<tag k="natural" v="cape" />
		<tag k="ssr:stedsnr" v="815978" />
	</node>
	<node id="-126657" lat="61.6217104193" lon="10.121254614">
		<tag k="name" v="Gulltjønnet" />
		<tag k="natural" v="water" />
		<tag k="ssr:stedsnr" v="810196" />
	</node>
	<node id="-126654" lat="61.6362500028" lon="10.0888111165">
		<tag k="name" v="Raudbekken" />
		<tag k="ssr:stedsnr" v="808296" />
		<tag k="waterway" v="stream" />
	</node>
	<node id="-126653" lat="61.6579333374" lon="10.0991500037">
		<tag k="name" v="Nørdre Fiskeløysa" />
		<tag k="natural" v="water" />
		<tag k="ssr:stedsnr" v="799993" />
	</node>
	<node id="-126650" lat="61.6728388876" lon="9.9876861077">
		<tag k="name" v="Slavollbekken" />
		<tag k="ssr:stedsnr" v="799986" />
		<tag k="waterway" v="stream" />
	</node>
	<node id="-126649" lat="61.6882777754" lon="9.99453333502">
		<tag k="name" v="Heillbekken" />
		<tag k="ssr:stedsnr" v="799983" />
		<tag k="waterway" v="stream" />
	</node>
	<node id="-126648" lat="61.6792944421" lon="9.96998056341">
		<tag k="name" v="Brennbekken" />
		<tag k="ssr:stedsnr" v="799984" />
		<tag k="waterway" v="stream" />
	</node>
	<node id="-126647" lat="61.687688889" lon="10.1730694401">
		<tag k="alt_name" v="Gråbekken, nordre" />
		<tag k="name" v="Nordre Gråbekken" />
		<tag k="ssr:stedsnr" v="799982" />
		<tag k="waterway" v="stream" />
	</node>
	<node id="-126646" lat="61.6973999979" lon="10.0923249936">
		<tag k="alt_name" v="Uksbekken, fremre" />
		<tag k="name" v="Fremre Uksbekken" />
		<tag k="ssr:stedsnr" v="799981" />
		<tag k="waterway" v="stream" />
	</node>
	<node id="-126642" lat="61.7371055519" lon="10.0797611042">
		<tag k="name" v="Ramsbekken" />
		<tag k="ssr:stedsnr" v="799953" />
		<tag k="waterway" v="stream" />
	</node>
	<node id="-126641" lat="61.5143666683" lon="10.1463833256">
		<tag k="name" v="Gåsøya" />
		<tag k="place" v="islet" />
		<tag k="ssr:stedsnr" v="799905" />
	</node>
	<node id="-126629" lat="61.6212444429" lon="10.1663500012">
		<tag k="name" v="Døråmot" />
		<tag k="place" v="locality" />
		<tag k="ssr:stedsnr" v="799774" />
	</node>
	<node id="-126627" lat="61.5652999998" lon="10.6072000039">
		<tag k="name" v="Orma" />
		<tag k="ssr:stedsnr" v="799246" />
		<tag k="waterway" v="river" />
	</node>
	<node id="-126622" lat="61.665547219" lon="10.5507749972">
		<tag k="name" v="Hemtjønnet" />
		<tag k="natural" v="water" />
		<tag k="ssr:stedsnr" v="798159" />
	</node>
	<node id="-126619" lat="61.4060177522" lon="9.99703906456">
		<tag k="alt_name" v="Store Røgninn" />
		<tag k="name" v="Storrøgna" />
		<tag k="natural" v="water" />
		<tag k="ssr:stedsnr" v="797913" />
		<tag k="water" v="lake" />
	</node>
	<node id="-126617" lat="61.4316444433" lon="10.2631583319">
		<tag k="name" v="Tverråtjønnet" />
		<tag k="natural" v="water" />
		<tag k="ssr:stedsnr" v="797909" />
	</node>
	<node id="-126612" lat="61.3984111135" lon="9.9996083341">
		<tag k="name" v="Fjellvatnet" />
		<tag k="natural" v="water" />
		<tag k="ssr:stedsnr" v="797883" />
	</node>
	<node id="-126600" lat="61.4748194411" lon="10.3052472183">
		<tag k="name" v="Morketjønnet" />
		<tag k="natural" v="water" />
		<tag k="ssr:stedsnr" v="798575" />
	</node>
	<node id="-126596" lat="61.6671333345" lon="10.0963305614">
		<tag k="name" v="Bulonene" />
		<tag k="natural" v="water" />
		<tag k="ssr:stedsnr" v="786893" />
		<tag k="water" v="lake" />
	</node>
	<node id="-126590" lat="61.5291194404" lon="10.1172833302">
		<tag k="name" v="Vesle Evjua" />
		<tag k="natural" v="bay" />
		<tag k="ssr:stedsnr" v="786241" />
	</node>
	<node id="-126589" lat="61.5182472248" lon="10.1471611031">
		<tag k="name" v="Vesleøyan" />
		<tag k="place" v="islet" />
		<tag k="ssr:stedsnr" v="786121" />
	</node>
	<node id="-126584" lat="61.3877805594" lon="9.97639166359">
		<tag k="name" v="Hyttjønn" />
		<tag k="natural" v="water" />
		<tag k="ssr:stedsnr" v="780337" />
	</node>
	<node id="-126578" lat="61.4441749996" lon="10.4775277837">
		<tag k="name" v="Fallet" />
		<tag k="natural" v="waterfall" />
		<tag k="ssr:stedsnr" v="769624" />
	</node>
	<node id="-126558" lat="61.5049083359" lon="10.251436118">
		<tag k="name" v="Halvfaretjønnet" />
		<tag k="natural" v="water" />
		<tag k="ssr:stedsnr" v="767680" />
	</node>
	<node id="-126550" lat="61.4891083297" lon="10.4744527782">
		<tag k="name" v="Høgåsbekken" />
		<tag k="ssr:stedsnr" v="767572" />
		<tag k="waterway" v="stream" />
	</node>
	<node id="-126545" lat="61.5007083332" lon="10.0720527817">
		<tag k="name" v="Breistulbekken" />
		<tag k="ssr:stedsnr" v="767706" />
		<tag k="waterway" v="stream" />
	</node>
	<node id="-126540" lat="61.4297999982" lon="10.3138527749">
		<tag k="name" v="Stulstretjern" />
		<tag k="natural" v="water" />
		<tag k="ssr:stedsnr" v="767284" />
	</node>
	<node id="-126539" lat="61.4315388881" lon="10.273172218">
		<tag k="name" v="Blanke kilde" />
		<tag k="natural" v="spring" />
		<tag k="ssr:stedsnr" v="767240" />
	</node>
	<node id="-126536" lat="61.4781916648" lon="10.5090305551">
		<tag k="name" v="Buduppen" />
		<tag k="natural" v="water" />
		<tag k="ssr:stedsnr" v="767172" />
	</node>
	<node id="-126530" lat="61.4591444426" lon="10.3226222304">
		<tag k="name" v="Borgedalsbekken" />
		<tag k="ssr:stedsnr" v="767325" />
		<tag k="waterway" v="stream" />
	</node>
	<node id="-126521" lat="61.661283334" lon="10.1857583324">
		<tag k="name" v="Dørfallet" />
		<tag k="natural" v="waterfall" />
		<tag k="ssr:stedsnr" v="738987" />
	</node>
	<node id="-126512" lat="61.5618805599" lon="10.2675638889">
		<tag k="name" v="Måsåtjønnet" />
		<tag k="natural" v="water" />
		<tag k="ssr:stedsnr" v="738831" />
	</node>
	<node id="-126507" lat="61.604091667" lon="10.1294722197">
		<tag k="name" v="Lauvåsåa" />
		<tag k="ssr:stedsnr" v="738785" />
		<tag k="waterway" v="stream" />
	</node>
	<node id="-126504" lat="61.6363916629" lon="10.279161118">
		<tag k="name" v="Storrtjønnet" />
		<tag k="natural" v="water" />
		<tag k="ssr:stedsnr" v="738772" />
	</node>
	<node id="-126501" lat="61.6807750032" lon="10.5903333424">
		<tag k="alt_name" v="Hellaksæterbekken" />
		<tag k="name" v="Helakbekken" />
		<tag k="ssr:stedsnr" v="738170" />
		<tag k="waterway" v="stream" />
	</node>
	<node id="-126500" lat="61.6212833295" lon="10.5932444508">
		<tag k="alt_name" v="Finnsetbekken" />
		<tag k="name" v="Finnskjeggbekken" />
		<tag k="ssr:stedsnr" v="738157" />
		<tag k="waterway" v="stream" />
	</node>
	<node id="-126496" lat="61.417677781" lon="10.1175416665">
		<tag k="alt_name" v="Tverråa" />
		<tag k="name" v="Tverrelva" />
		<tag k="ssr:stedsnr" v="736918" />
		<tag k="waterway" v="stream" />
	</node>
	<node id="-126493" lat="61.4751861155" lon="10.1215333392">
		<tag k="name" v="Mælumselva" />
		<tag k="ssr:stedsnr" v="737605" />
		<tag k="waterway" v="stream" />
	</node>
	<node id="-126480" lat="61.4142694459" lon="10.2082694506">
		<tag k="name" v="Veslesand" />
		<tag k="place" v="islet" />
		<tag k="ssr:stedsnr" v="725779" />
	</node>
	<node id="-126479" lat="61.4061083341" lon="10.1706805562">
		<tag k="name" v="Nedre Bekken" />
		<tag k="ssr:stedsnr" v="725734" />
		<tag k="waterway" v="stream" />
	</node>
	<node id="-126478" lat="61.4175388869" lon="10.1274777717">
		<tag k="name" v="Langhaugbekken" />
		<tag k="ssr:stedsnr" v="725729" />
		<tag k="waterway" v="stream" />
	</node>
	<node id="-126457" lat="61.5091888847" lon="10.5554555512">
		<tag k="name" v="Stulsbekken" />
		<tag k="ssr:stedsnr" v="706957" />
		<tag k="waterway" v="stream" />
	</node>
	<node id="-126440" lat="61.4680027741" lon="10.441419449">
		<tag k="name" v="Storrtjønna" />
		<tag k="natural" v="water" />
		<tag k="ssr:stedsnr" v="706563" />
		<tag k="water" v="pond" />
	</node>
	<node id="-126438" lat="61.5699944439" lon="10.2482666757">
		<tag k="name" v="Sagbekken" />
		<tag k="ssr:stedsnr" v="706462" />
		<tag k="waterway" v="stream" />
	</node>
	<node id="-126431" lat="61.4135805554" lon="10.2895333395">
		<tag k="name" v="Stulsåtjønn" />
		<tag k="natural" v="water" />
		<tag k="ssr:stedsnr" v="706300" />
	</node>
	<node id="-126413" lat="61.7186318602" lon="10.1611163086">
		<tag k="name" v="Muvatnet" />
		<tag k="natural" v="water" />
		<tag k="ssr:stedsnr" v="678935" />
		<tag k="water" v="lake" />
	</node>
	<node id="-126410" lat="61.5621833328" lon="10.3039055483">
		<tag k="name" v="Brumsdalsbekken" />
		<tag k="ssr:stedsnr" v="678799" />
		<tag k="waterway" v="stream" />
	</node>
	<node id="-126409" lat="61.5612888902" lon="10.2268944398">
		<tag k="alt_name" v="Hallsteinslibekken" />
		<tag k="name" v="Halsteinslibekken" />
		<tag k="ssr:stedsnr" v="678798" />
		<tag k="waterway" v="stream" />
	</node>
	<node id="-126406" lat="61.5530944428" lon="10.6503333366">
		<tag k="alt_name" v="Imssjøen, s" />
		<tag k="name" v="Søre Imssjøen" />
		<tag k="natural" v="water" />
		<tag k="ssr:stedsnr" v="678260" />
		<tag k="water" v="lake" />
	</node>
	<node id="-126403" lat="61.5786444451" lon="10.4473750063">
		<tag k="name" v="Søre Breitjønnet" />
		<tag k="natural" v="water" />
		<tag k="ssr:stedsnr" v="678136" />
	</node>
	<node id="-126402" lat="61.6343444419" lon="10.0430055512">
		<tag k="name" v="Svarttippa" />
		<tag k="natural" v="water" />
		<tag k="ssr:stedsnr" v="678000" />
	</node>
	<node id="-126396" lat="61.5278305567" lon="10.2900777723">
		<tag k="name" v="Kvisthustjønnet" />
		<tag k="natural" v="water" />
		<tag k="ssr:stedsnr" v="677850" />
	</node>
	<node id="-126393" lat="61.6415527804" lon="10.1505805518">
		<tag k="alt_name" v="Myafallet" />
		<tag k="name" v="Myfallet" />
		<tag k="natural" v="waterfall" />
		<tag k="ssr:stedsnr" v="677775" />
	</node>
	<node id="-126392" lat="61.64248611" lon="10.0688749999">
		<tag k="name" v="Øvre Lundtjønnet" />
		<tag k="natural" v="water" />
		<tag k="ssr:stedsnr" v="677773" />
	</node>
	<node id="-126391" lat="61.6381250034" lon="10.1726638959">
		<tag k="name" v="Døra" />
		<tag k="ssr:stedsnr" v="677767" />
		<tag k="waterway" v="river" />
	</node>
	<node id="-126389" lat="61.5339138859" lon="10.4639499927">
		<tag k="name" v="Svæltjønnet" />
		<tag k="natural" v="water" />
		<tag k="ssr:stedsnr" v="677227" />
	</node>
	<node id="-126385" lat="61.6310333323" lon="10.4358361151">
		<tag k="name" v="Åsdalstjønna" />
		<tag k="natural" v="water" />
		<tag k="ssr:stedsnr" v="677149" />
	</node>
	<node id="-126382" lat="61.639627776" lon="10.5462083406">
		<tag k="alt_name" v="Botnebekken, vestre;Vestre Bottenbekken" />
		<tag k="name" v="Vestre Botnebekken" />
		<tag k="ssr:stedsnr" v="677140" />
		<tag k="waterway" v="stream" />
	</node>
	<node id="-126380" lat="61.4638638893" lon="10.0741416599">
		<tag k="alt_name" v="Høgåstjørnet" />
		<tag k="name" v="Høgåstjønnet" />
		<tag k="natural" v="water" />
		<tag k="ssr:stedsnr" v="676613" />
	</node>
	<node id="-126379" lat="61.4776305514" lon="10.233588884">
		<tag k="alt_name" v="Austeråa" />
		<tag k="name" v="Østeråa" />
		<tag k="ssr:stedsnr" v="676611" />
		<tag k="waterway" v="stream" />
	</node>
	<node id="-126372" lat="61.4384249998" lon="10.2434583285">
		<tag k="alt_name" v="Fåa" />
		<tag k="name" v="Nera" />
		<tag k="ssr:stedsnr" v="675948" />
		<tag k="waterway" v="stream" />
	</node>
	<node id="-126371" lat="61.4186083325" lon="10.271886116">
		<tag k="name" v="Holmtjønnet" />
		<tag k="natural" v="water" />
		<tag k="ssr:stedsnr" v="675921" />
	</node>
	<node id="-126359" lat="61.4085527784" lon="10.1993388888">
		<tag k="name" v="Olabakkan" />
		<tag k="ssr:stedsnr" v="664815" />
		<tag k="waterway" v="stream" />
	</node>
	<node id="-126358" lat="61.4187472244" lon="10.218497214">
		<tag k="name" v="Tretterøya" />
		<tag k="place" v="islet" />
		<tag k="ssr:stedsnr" v="664809" />
	</node>
	<node id="-126355" lat="61.4169805556" lon="10.1479222233">
		<tag k="name" v="Svarttjønnbekken" />
		<tag k="ssr:stedsnr" v="664770" />
		<tag k="waterway" v="stream" />
	</node>
	<node id="-126350" lat="61.6420750203" lon="9.97416573673">
		<tag k="name" v="Vollahølen" />
		<tag k="place" v="locality" />
		<tag k="ssr:stedsnr" v="659402" />
	</node>
	<node id="-126349" lat="61.3892805527" lon="9.9699750066">
		<tag k="name" v="Stulstjønn" />
		<tag k="natural" v="water" />
		<tag k="ssr:stedsnr" v="659371" />
	</node>
	<node id="-126341" lat="61.5472361095" lon="10.6629555562">
		<tag k="name" v="Dammen" />
		<tag k="ssr:stedsnr" v="645996" />
		<tag k="waterway" v="dam" />
	</node>
	<node id="-126329" lat="61.605688892" lon="10.6415888831">
		<tag k="name" v="Nordre Skådalsbekken" />
		<tag k="ssr:stedsnr" v="645772" />
		<tag k="waterway" v="stream" />
	</node>
	<node id="-126328" lat="61.5525083319" lon="10.6535777845">
		<tag k="name" v="Storvika" />
		<tag k="natural" v="bay" />
		<tag k="ssr:stedsnr" v="645752" />
	</node>
	<node id="-126325" lat="61.4497694408" lon="10.1043861127">
		<tag k="name" v="Fossen" />
		<tag k="natural" v="waterfall" />
		<tag k="ssr:stedsnr" v="645707" />
	</node>
	<node id="-126321" lat="61.5473166635" lon="10.3119166644">
		<tag k="name" v="Moabekken" />
		<tag k="ssr:stedsnr" v="645676" />
		<tag k="waterway" v="stream" />
	</node>
	<node id="-126316" lat="61.4175083309" lon="10.369599995">
		<tag k="name" v="Botnlaustjønn" />
		<tag k="natural" v="water" />
		<tag k="ssr:stedsnr" v="645539" />
	</node>
	<node id="-126300" lat="61.439544448" lon="10.2524222298">
		<tag k="name" v="Nerslettbekken" />
		<tag k="ssr:stedsnr" v="645232" />
		<tag k="waterway" v="stream" />
	</node>
	<node id="-126293" lat="61.7453388889" lon="10.0524444534">
		<tag k="name" v="Rundhøbekken" />
		<tag k="ssr:stedsnr" v="632967" />
		<tag k="waterway" v="stream" />
	</node>
	<node id="-126283" lat="61.7060083328" lon="10.636577773">
		<tag k="alt_name" v="Hirsjøen, l;Litle Hirsjøen;Hirsjøen" />
		<tag k="name" v="Vesle-Hirsjøen" />
		<tag k="natural" v="water" />
		<tag k="ssr:stedsnr" v="617191" />
	</node>
	<node id="-126282" lat="61.5703916655" lon="10.356394438">
		<tag k="name" v="Langtjønnet" />
		<tag k="natural" v="water" />
		<tag k="ssr:stedsnr" v="617169" />
	</node>
	<node id="-126280" lat="61.6431083338" lon="10.1786638832">
		<tag k="alt_name" v="Kveinndalsbekken" />
		<tag k="loc_name" v="Kvanndalsbekken" />
		<tag k="name" v="Kverndalsbekken" />
		<tag k="ssr:stedsnr" v="617000" />
		<tag k="waterway" v="stream" />
	</node>
	<node id="-126279" lat="61.646052778" lon="10.0835888894">
		<tag k="name" v="Nedre Lundtjønnet" />
		<tag k="natural" v="water" />
		<tag k="ssr:stedsnr" v="616998" />
	</node>
	<node id="-126277" lat="61.6935416654" lon="10.1338166617">
		<tag k="name" v="Bølbekken" />
		<tag k="ssr:stedsnr" v="616978" />
		<tag k="waterway" v="stream" />
	</node>
	<node id="-126275" lat="61.5061194445" lon="10.2155305573">
		<tag k="name" v="Brandstadelva" />
		<tag k="ssr:stedsnr" v="616880" />
		<tag k="waterway" v="stream" />
	</node>
	<node id="-126268" lat="61.5023694472" lon="10.2610638902">
		<tag k="name" v="Fagerlitjønnet" />
		<tag k="natural" v="water" />
		<tag k="ssr:stedsnr" v="616156" />
	</node>
	<node id="-126259" lat="61.4897249994" lon="10.1170250011">
		<tag k="alt_name" v="Strandeelva" />
		<tag k="name" v="Strandelva" />
		<tag k="ssr:stedsnr" v="615507" />
		<tag k="waterway" v="stream" />
	</node>
	<node id="-126252" lat="61.3768694426" lon="10.2217416605">
		<tag k="name" v="Bergdøla" />
		<tag k="ssr:stedsnr" v="614995" />
		<tag k="waterway" v="stream" />
	</node>
	<node id="-126251" lat="61.4139638916" lon="10.1434722196">
		<tag k="name" v="Svarttjønnet" />
		<tag k="natural" v="water" />
		<tag k="ssr:stedsnr" v="614906" />
	</node>
	<node id="-126244" lat="61.4106999997" lon="10.2045083251">
		<tag k="name" v="Leira" />
		<tag k="natural" v="cape" />
		<tag k="ssr:stedsnr" v="603791" />
	</node>
	<node id="-126242" lat="61.4123888916" lon="10.212047214">
		<tag k="name" v="Storsand" />
		<tag k="place" v="islet" />
		<tag k="ssr:stedsnr" v="603785" />
	</node>
	<node id="-126241" lat="61.4231611114" lon="10.2011388886">
		<tag k="name" v="Hammersåla" />
		<tag k="natural" v="bay" />
		<tag k="ssr:stedsnr" v="603784" />
	</node>
	<node id="-126240" lat="61.3981166678" lon="10.1457416638">
		<tag k="name" v="Demmingan" />
		<tag k="natural" v="water" />
		<tag k="ssr:stedsnr" v="603744" />
	</node>
	<node id="-126237" lat="61.5915111102" lon="10.0435194452">
		<tag k="name" v="Hummelåa" />
		<tag k="ssr:stedsnr" v="598940" />
		<tag k="waterway" v="stream" />
	</node>
	<node id="-126215" lat="61.4283388892" lon="10.2855444462">
		<tag k="name" v="Tritjønna" />
		<tag k="natural" v="water" />
		<tag k="ssr:stedsnr" v="585226" />
	</node>
	<node id="-126201" lat="61.6706583358" lon="10.605811105">
		<tag k="name" v="Rundfløtbekken" />
		<tag k="ssr:stedsnr" v="584796" />
		<tag k="waterway" v="stream" />
	</node>
	<node id="-126199" lat="61.5649472186" lon="10.6393250005">
		<tag k="name" v="Storvika" />
		<tag k="natural" v="bay" />
		<tag k="ssr:stedsnr" v="584792" />
	</node>
	<node id="-126194" lat="61.506602775" lon="10.0969666587">
		<tag k="name" v="Haustsætertjønnet" />
		<tag k="natural" v="water" />
		<tag k="ssr:stedsnr" v="584752" />
	</node>
	<node id="-126193" lat="61.5488638933" lon="10.3019277751">
		<tag k="name" v="Flybekken" />
		<tag k="ssr:stedsnr" v="584714" />
		<tag k="waterway" v="stream" />
	</node>
	<node id="-126176" lat="61.6619777762" lon="9.99355277886">
		<tag k="name" v="Hovdbekken" />
		<tag k="ssr:stedsnr" v="566329" />
		<tag k="waterway" v="stream" />
	</node>
	<node id="-126175" lat="61.6770555548" lon="10.0225499915">
		<tag k="name" v="Haugaslettjønnet" />
		<tag k="natural" v="water" />
		<tag k="ssr:stedsnr" v="566325" />
	</node>
	<node id="-126171" lat="61.5993138912" lon="10.5506444434">
		<tag k="name" v="Åsta" />
		<tag k="ssr:stedsnr" v="556819" />
		<tag k="waterway" v="river" />
	</node>
	<node id="-126170" lat="61.5526000038" lon="10.2586611151">
		<tag k="name" v="Måsåtjønnet" />
		<tag k="natural" v="water" />
		<tag k="ssr:stedsnr" v="556816" />
	</node>
	<node id="-126169" lat="61.5851431722" lon="10.0926885898">
		<tag k="name" v="Nørdre Åborsjøen" />
		<tag k="natural" v="water" />
		<tag k="ssr:stedsnr" v="556800" />
	</node>
	<node id="-126168" lat="61.6127250032" lon="10.1391388942">
		<tag k="name" v="Nigardsbekken" />
		<tag k="ssr:stedsnr" v="556781" />
		<tag k="waterway" v="stream" />
	</node>
	<node id="-126166" lat="61.703433333" lon="10.6131388817">
		<tag k="alt_name" v="Hira, l;Hira" />
		<tag k="name" v="Vesle-Hira" />
		<tag k="ssr:stedsnr" v="556192" />
		<tag k="waterway" v="stream" />
	</node>
	<node id="-126165" lat="61.6199166651" lon="10.5731777859">
		<tag k="alt_name" v="Rundheillåa;Rundheillbekken" />
		<tag k="name" v="Rundhallåa" />
		<tag k="ssr:stedsnr" v="556186" />
		<tag k="waterway" v="river" />
	</node>
	<node id="-126160" lat="61.6693472247" lon="10.0907138951">
		<tag k="name" v="Urdtjønnet" />
		<tag k="natural" v="water" />
		<tag k="ssr:stedsnr" v="555976" />
	</node>
	<node id="-126159" lat="61.6772163667" lon="10.3469014488">
		<tag k="name" v="Hirisjøen" />
		<tag k="natural" v="water" />
		<tag k="old_name" v="Store Hiresjøen" />
		<tag k="ssr:stedsnr" v="555967" />
		<tag k="water" v="lake" />
	</node>
	<node id="-126156" lat="61.5379611131" lon="10.066972214">
		<tag k="alt_name" v="Bjørkøya" />
		<tag k="name" v="Børkøya" />
		<tag k="place" v="islet" />
		<tag k="ssr:stedsnr" v="555815" />
	</node>
	<node id="-126151" lat="61.4175111076" lon="10.4865305516">
		<tag k="name" v="Vesle Tromsa" />
		<tag k="ssr:stedsnr" v="554967" />
		<tag k="waterway" v="stream" />
	</node>
	<node id="-126149" lat="61.4275250012" lon="10.1385500079">
		<tag k="alt_name" v="Knappelven" />
		<tag k="name" v="Knappelva" />
		<tag k="ssr:stedsnr" v="554946" />
		<tag k="waterway" v="stream" />
	</node>
	<node id="-126144" lat="61.4730416668" lon="10.0749833323">
		<tag k="name" v="Svarttjønnet" />
		<tag k="natural" v="water" />
		<tag k="ssr:stedsnr" v="554645" />
	</node>
	<node id="-126142" lat="61.4794055547" lon="10.2242194414">
		<tag k="name" v="Åbbortjønnet" />
		<tag k="natural" v="water" />
		<tag k="ssr:stedsnr" v="554634" />
	</node>
	<node id="-126133" lat="61.3888750022" lon="9.96259444126">
		<tag k="name" v="Fiskeløysa" />
		<tag k="natural" v="water" />
		<tag k="ssr:stedsnr" v="553332" />
	</node>
	<node id="-126129" lat="61.6711638909" lon="10.0755138804">
		<tag k="alt_name" v="Vetlødden" />
		<tag k="name" v="Vetlodden" />
		<tag k="natural" v="cape" />
		<tag k="ssr:stedsnr" v="543854" />
	</node>
	<node id="-126128" lat="61.4246499962" lon="10.2009999984">
		<tag k="name" v="Djupåla" />
		<tag k="natural" v="bay" />
		<tag k="ssr:stedsnr" v="543792" />
	</node>
	<node id="-126114" lat="61.4870527792" lon="10.0309472148">
		<tag k="name" v="Storgompen" />
		<tag k="natural" v="bay" />
		<tag k="ssr:stedsnr" v="530256" />
	</node>
	<node id="-126063" lat="61.434708337" lon="10.49426111">
		<tag k="name" v="Goppollbekken" />
		<tag k="ssr:stedsnr" v="511759" />
		<tag k="waterway" v="stream" />
	</node>
	<node id="-126056" lat="61.7184111099" lon="10.1351305469">
		<tag k="name" v="Flåtjønnet" />
		<tag k="natural" v="water" />
		<tag k="ssr:stedsnr" v="495958" />
	</node>
	<node id="-126051" lat="61.5422055569" lon="10.1394333411">
		<tag k="name" v="Våla" />
		<tag k="ssr:stedsnr" v="495854" />
		<tag k="waterway" v="river" />
	</node>
	<node id="-126050" lat="61.5656111128" lon="10.2531416677">
		<tag k="name" v="Bustulsbekken" />
		<tag k="ssr:stedsnr" v="495835" />
		<tag k="waterway" v="stream" />
	</node>
	<node id="-126048" lat="61.5788194446" lon="10.1462611031">
		<tag k="name" v="Gluggdalstjønnet" />
		<tag k="natural" v="water" />
		<tag k="ssr:stedsnr" v="495805" />
	</node>
	<node id="-126046" lat="61.5340000014" lon="10.6701444499">
		<tag k="name" v="Samtjønnsbekken" />
		<tag k="ssr:stedsnr" v="495254" />
		<tag k="waterway" v="stream" />
	</node>
	<node id="-126045" lat="61.5327250016" lon="10.5705000078">
		<tag k="name" v="Bubekken" />
		<tag k="ssr:stedsnr" v="495252" />
		<tag k="waterway" v="stream" />
	</node>
	<node id="-126042" lat="61.5150401521" lon="10.49024894">
		<tag k="name" v="Saubutjønna" />
		<tag k="natural" v="water" />
		<tag k="ssr:stedsnr" v="495233" />
		<tag k="water" v="lake" />
	</node>
	<node id="-126040" lat="61.6778444461" lon="10.6366388883">
		<tag k="name" v="Helaktjønna" />
		<tag k="natural" v="water" />
		<tag k="ssr:stedsnr" v="495185" />
	</node>
	<node id="-126039" lat="61.6437416678" lon="10.6064638934">
		<tag k="name" v="Reintjønnet" />
		<tag k="natural" v="water" />
		<tag k="ssr:stedsnr" v="495171" />
	</node>
	<node id="-126038" lat="61.6579916631" lon="10.6081416623">
		<tag k="alt_name" v="Nordre bekken" />
		<tag k="name" v="Nørstbekken" />
		<tag k="ssr:stedsnr" v="495168" />
		<tag k="waterway" v="stream" />
	</node>
	<node id="-126035" lat="61.5897777736" lon="10.4199861174">
		<tag k="name" v="Nørdre Breitjønnet" />
		<tag k="natural" v="water" />
		<tag k="ssr:stedsnr" v="495157" />
	</node>
	<node id="-126033" lat="61.4847083302" lon="10.4218277833">
		<tag k="name" v="Urskardtjønnet" />
		<tag k="natural" v="water" />
		<tag k="ssr:stedsnr" v="494810" />
	</node>
	<node id="-126032" lat="61.4770249971" lon="10.6080611045">
		<tag k="name" v="Steintjønnet" />
		<tag k="natural" v="water" />
		<tag k="ssr:stedsnr" v="494805" />
	</node>
	<node id="-126029" lat="61.4620055582" lon="10.5179416625">
		<tag k="loc_name" v="Tritjønna" />
		<tag k="name" v="Tretjønna" />
		<tag k="natural" v="water" />
		<tag k="ssr:stedsnr" v="494333" />
	</node>
	<node id="-126027" lat="61.4057749963" lon="10.4575166692">
		<tag k="name" v="Vålsdalsbekken" />
		<tag k="ssr:stedsnr" v="494313" />
		<tag k="waterway" v="stream" />
	</node>
	<node id="-126026" lat="61.4154583336" lon="10.3536194428">
		<tag k="name" v="Fennatjønnet" />
		<tag k="natural" v="water" />
		<tag k="ssr:stedsnr" v="494308" />
	</node>
	<node id="-126018" lat="61.3883833318" lon="10.1626416669">
		<tag k="name" v="Slåsætertjønnet" />
		<tag k="natural" v="water" />
		<tag k="ssr:stedsnr" v="493893" />
	</node>
	<node id="-126004" lat="61.5046242231" lon="10.6656277239">
		<tag k="name" v="Øvre Samtjønnet" />
		<tag k="natural" v="water" />
		<tag k="ssr:stedsnr" v="464967" />
	</node>
	<node id="-126001" lat="61.550094449" lon="10.6513638865">
		<tag k="name" v="Fiskelausvika" />
		<tag k="natural" v="bay" />
		<tag k="ssr:stedsnr" v="464768" />
	</node>
	<node id="-125999" lat="61.5220583345" lon="10.2541666717">
		<tag k="name" v="Mårråbettjønnet" />
		<tag k="natural" v="water" />
		<tag k="ssr:stedsnr" v="464691" />
	</node>
	<node id="-125997" lat="61.4180000026" lon="10.3752305509">
		<tag k="name" v="Bakkatjønn" />
		<tag k="natural" v="water" />
		<tag k="ssr:stedsnr" v="464580" />
	</node>
	<node id="-125987" lat="61.4412611123" lon="10.291155564">
		<tag k="name" v="Djupdalsbekken" />
		<tag k="ssr:stedsnr" v="464260" />
		<tag k="waterway" v="stream" />
	</node>
	<node id="-125985" lat="61.4863888898" lon="10.5503027755">
		<tag k="name" v="Fremre Trolldalsbekken" />
		<tag k="ssr:stedsnr" v="464210" />
		<tag k="waterway" v="stream" />
	</node>
	<node id="-125981" lat="61.6035472249" lon="10.1920805642">
		<tag k="name" v="Storheggslåmyrene" />
		<tag k="ssr:stedsnr" v="464072" />
		<tag k="waterway" v="stream" />
	</node>
	<node id="-125974" lat="61.4633222194" lon="10.5079500033">
		<tag k="name" v="Vetåkroken" />
		<tag k="natural" v="water" />
		<tag k="ssr:stedsnr" v="463929" />
		<tag k="water" v="lake" />
	</node>
	<node id="-125966" lat="61.5309277787" lon="10.1140527705">
		<tag k="name" v="Store Evja" />
		<tag k="natural" v="bay" />
		<tag k="ssr:stedsnr" v="463759" />
	</node>
	<node id="-125959" lat="61.583311112" lon="10.0985833334">
		<tag k="name" v="Åborsjøbekken" />
		<tag k="ssr:stedsnr" v="463649" />
		<tag k="waterway" v="stream" />
	</node>
	<node id="-125950" lat="61.685955556" lon="10.0054222214">
		<tag k="name" v="Hellbekken" />
		<tag k="ssr:stedsnr" v="451980" />
		<tag k="waterway" v="stream" />
	</node>
	<node id="-125946" lat="61.5462138893" lon="10.6349750055">
		<tag k="alt_name" v="Bjørnhusbekken" />
		<tag k="name" v="Bjorhusbekken" />
		<tag k="ssr:stedsnr" v="449477" />
		<tag k="waterway" v="stream" />
	</node>
	<node id="-125935" lat="61.5063833345" lon="10.4243388945">
		<tag k="name" v="Røytjønnet" />
		<tag k="natural" v="water" />
		<tag k="ssr:stedsnr" v="435259" />
	</node>
	<node id="-125926" lat="61.5548527811" lon="10.1880194492">
		<tag k="name" v="Søråa" />
		<tag k="ssr:stedsnr" v="434759" />
		<tag k="waterway" v="river" />
	</node>
	<node id="-125922" lat="61.4108833372" lon="10.3764472309">
		<tag k="name" v="Kroktjønnet" />
		<tag k="natural" v="water" />
		<tag k="ssr:stedsnr" v="434296" />
	</node>
	<node id="-125918" lat="61.4332138928" lon="10.2892055535">
		<tag k="name" v="Djupdalstjønnet" />
		<tag k="natural" v="water" />
		<tag k="ssr:stedsnr" v="433926" />
	</node>
	<node id="-125917" lat="61.4365611136" lon="10.0266694503">
		<tag k="name" v="Lebbelva" />
		<tag k="ssr:stedsnr" v="433923" />
		<tag k="waterway" v="stream" />
	</node>
	<node id="-125900" lat="61.6779972248" lon="10.0589611123">
		<tag k="alt_name" v="Kveinnbekken" />
		<tag k="name" v="Kvannbekken" />
		<tag k="ssr:stedsnr" v="422884" />
		<tag k="waterway" v="stream" />
	</node>
	<node id="-125899" lat="61.3975333354" lon="10.1765777696">
		<tag k="name" v="Øvre Bekken" />
		<tag k="ssr:stedsnr" v="422783" />
		<tag k="waterway" v="stream" />
	</node>
	<node id="-125884" lat="61.723736112" lon="10.0304555624">
		<tag k="name" v="Svartåa" />
		<tag k="ssr:stedsnr" v="253954" />
		<tag k="waterway" v="river" />
	</node>
	<node id="-125882" lat="61.5086888884" lon="10.1554194494">
		<tag k="name" v="Olstadøya" />
		<tag k="place" v="islet" />
		<tag k="ssr:stedsnr" v="253883" />
	</node>
	<node id="-125873" lat="61.5904166706" lon="10.4581555549">
		<tag k="name" v="Indre Breitjønnet" />
		<tag k="natural" v="water" />
		<tag k="ssr:stedsnr" v="253165" />
	</node>
	<node id="-125867" lat="61.5380138915" lon="10.3077666653">
		<tag k="name" v="Jenstjønnet" />
		<tag k="natural" v="water" />
		<tag k="ssr:stedsnr" v="252806" />
	</node>
	<node id="-125865" lat="61.5459250007" lon="10.2074166719">
		<tag k="name" v="Ulveslåbekken" />
		<tag k="ssr:stedsnr" v="252794" />
		<tag k="waterway" v="stream" />
	</node>
	<node id="-125861" lat="61.4622444488" lon="10.1039583422">
		<tag k="name" v="Bjørnlitjønnet" />
		<tag k="natural" v="water" />
		<tag k="ssr:stedsnr" v="251638" />
	</node>
	<node id="-125853" lat="61.4601583294" lon="10.0895305598">
		<tag k="name" v="Raudskuttjønnet" />
		<tag k="natural" v="water" />
		<tag k="ssr:stedsnr" v="251587" />
	</node>
	<node id="-125845" lat="61.3876888892" lon="10.117052777">
		<tag k="name" v="Bårdstjønnet" />
		<tag k="natural" v="water" />
		<tag k="ssr:stedsnr" v="250870" />
	</node>
	<node id="-125844" lat="61.3932361131" lon="9.94835556137">
		<tag k="name" v="Øvre Gardtjønnet" />
		<tag k="natural" v="water" />
		<tag k="ssr:stedsnr" v="250375" />
	</node>
	<node id="-125838" lat="61.6773861077" lon="10.0955166588">
		<tag k="name" v="Storrtjønn" />
		<tag k="natural" v="water" />
		<tag k="ssr:stedsnr" v="240872" />
	</node>
	<node id="-125820" lat="61.4542361142" lon="10.5062861091">
		<tag k="name" v="Gomphølen" />
		<tag k="place" v="locality" />
		<tag k="ssr:stedsnr" v="221885" />
	</node>
	<node id="-125819" lat="61.515536115" lon="10.3783166674">
		<tag k="name" v="Langbekken" />
		<tag k="ssr:stedsnr" v="221883" />
		<tag k="waterway" v="stream" />
	</node>
	<node id="-125815" lat="61.5581694466" lon="10.647299998">
		<tag k="name" v="Bugrunna" />
		<tag k="natural" v="shoal" />
		<tag k="place" v="locality" />
		<tag k="ssr:stedsnr" v="221747" />
	</node>
	<node id="-125809" lat="61.5312333357" lon="10.0768666619">
		<tag k="name" v="Hortkroken" />
		<tag k="natural" v="bay" />
		<tag k="ssr:stedsnr" v="221689" />
	</node>
	<node id="-125806" lat="61.4549027794" lon="10.1006472154">
		<tag k="name" v="Bjørnlibekken" />
		<tag k="ssr:stedsnr" v="221667" />
		<tag k="waterway" v="stream" />
	</node>
	<node id="-125794" lat="61.4007666678" lon="10.2726222146">
		<tag k="name" v="Spjøtsbekken" />
		<tag k="ssr:stedsnr" v="221386" />
		<tag k="waterway" v="stream" />
	</node>
	<node id="-125791" lat="61.467200004" lon="10.2954305616">
		<tag k="name" v="Morkebekken" />
		<tag k="ssr:stedsnr" v="221316" />
		<tag k="waterway" v="stream" />
	</node>
	<node id="-125775" lat="61.7370305531" lon="10.0669444355">
		<tag k="name" v="Storlon" />
		<tag k="natural" v="water" />
		<tag k="ssr:stedsnr" v="208976" />
		<tag k="water" v="lake" />
	</node>
	<node id="-125771" lat="61.6536833348" lon="10.1085166664">
		<tag k="name" v="Søre Fiskeløysa" />
		<tag k="natural" v="water" />
		<tag k="ssr:stedsnr" v="204098" />
	</node>
	<node id="-125770" lat="61.6203388923" lon="10.0408583243">
		<tag k="name" v="Nørdre Steintjønnet" />
		<tag k="natural" v="water" />
		<tag k="ssr:stedsnr" v="202287" />
	</node>
	<node id="-125769" lat="61.6416527812" lon="10.1829888918">
		<tag k="name" v="Storbekken" />
		<tag k="ssr:stedsnr" v="192998" />
		<tag k="waterway" v="stream" />
	</node>
	<node id="-125767" lat="61.661399996" lon="10.0851444403">
		<tag k="name" v="Buvatnet" />
		<tag k="natural" v="water" />
		<tag k="ssr:stedsnr" v="192986" />
	</node>
	<node id="-125764" lat="61.703158333" lon="10.0947250062">
		<tag k="alt_name" v="Uksbekken, indre" />
		<tag k="name" v="Indre Uksbekken" />
		<tag k="ssr:stedsnr" v="192971" />
		<tag k="waterway" v="stream" />
	</node>
	<node id="-125758" lat="61.575255555" lon="10.1709499962">
		<tag k="name" v="Nordåa" />
		<tag k="ssr:stedsnr" v="192834" />
		<tag k="waterway" v="river" />
	</node>
	<node id="-125755" lat="61.5924805515" lon="10.2562805505">
		<tag k="alt_name" v="Kveinnåa" />
		<tag k="name" v="Kvernbekken" />
		<tag k="ssr:stedsnr" v="192823" />
		<tag k="waterway" v="stream" />
	</node>
	<node id="-125746" lat="61.4122805572" lon="10.4065805584">
		<tag k="name" v="Langtjønnet" />
		<tag k="natural" v="water" />
		<tag k="ssr:stedsnr" v="191302" />
	</node>
	<node id="-125737" lat="61.497555557" lon="10.3569250005">
		<tag k="name" v="Røya" />
		<tag k="ssr:stedsnr" v="190847" />
		<tag k="waterway" v="stream" />
	</node>
	<node id="-125736" lat="61.4931194442" lon="10.6335944439">
		<tag k="name" v="Rudderudtjønnet" />
		<tag k="natural" v="water" />
		<tag k="ssr:stedsnr" v="190846" />
	</node>
	<node id="-125728" lat="61.6481472198" lon="10.0868444411">
		<tag k="name" v="Lundtjønnbekken" />
		<tag k="ssr:stedsnr" v="179884" />
		<tag k="waterway" v="stream" />
	</node>
	<node id="-125727" lat="61.675019447" lon="10.0688444448">
		<tag k="name" v="Haugalandet" />
		<tag k="natural" v="beach" />
		<tag k="ssr:stedsnr" v="179872" />
	</node>
	<node id="-125710" lat="61.5120138877" lon="10.6857138846">
		<tag k="name" v="Bjønnbekken" />
		<tag k="ssr:stedsnr" v="160971" />
		<tag k="waterway" v="stream" />
	</node>
	<node id="-125706" lat="61.518819444" lon="10.4158583303">
		<tag k="name" v="Langtjønnet" />
		<tag k="natural" v="water" />
		<tag k="ssr:stedsnr" v="160915" />
	</node>
	<node id="-125705" lat="61.499519448" lon="10.4702583366">
		<tag k="name" v="Kappriartjønnet" />
		<tag k="natural" v="water" />
		<tag k="ssr:stedsnr" v="160912" />
	</node>
	<node id="-125702" lat="61.6817138921" lon="10.4477888928">
		<tag k="name" v="Midtbekken" />
		<tag k="ssr:stedsnr" v="160805" />
		<tag k="waterway" v="stream" />
	</node>
	<node id="-125699" lat="61.5133694469" lon="10.2483027822">
		<tag k="name" v="Byttingstulbekken" />
		<tag k="ssr:stedsnr" v="160673" />
		<tag k="waterway" v="stream" />
	</node>
	<node id="-125698" lat="61.5290694426" lon="10.3230583336">
		<tag k="name" v="Breifallet" />
		<tag k="natural" v="waterfall" />
		<tag k="ssr:stedsnr" v="160668" />
	</node>
	<node id="-125687" lat="61.6000444402" lon="10.2402916574">
		<tag k="name" v="Stormyrbekken" />
		<tag k="ssr:stedsnr" v="160487" />
		<tag k="waterway" v="stream" />
	</node>
	<node id="-125685" lat="61.551691665" lon="10.6497055635">
		<tag k="name" v="Svartvika" />
		<tag k="natural" v="bay" />
		<tag k="ssr:stedsnr" v="160755" />
	</node>
	<node id="-125672" lat="61.5579666707" lon="10.1581861057">
		<tag k="name" v="Tunga" />
		<tag k="natural" v="cape" />
		<tag k="ssr:stedsnr" v="160005" />
	</node>
	<node id="-125661" lat="61.6734932845" lon="10.1560012953">
		<tag k="loc_name" v="Indre Måsåtjønn" />
		<tag k="name" v="Måsåtjønna" />
		<tag k="natural" v="water" />
		<tag k="ssr:stedsnr" v="141324" />
	</node>
	<node id="-125655" lat="61.6765500005" lon="10.292363897">
		<tag k="name" v="Stulsbekken" />
		<tag k="ssr:stedsnr" v="131985" />
		<tag k="waterway" v="stream" />
	</node>
	<node id="-125653" lat="61.6992438185" lon="10.127860425">
		<tag k="name" v="Bølvatnet" />
		<tag k="natural" v="water" />
		<tag k="ssr:stedsnr" v="131980" />
		<tag k="water" v="lake" />
	</node>
	<node id="-125650" lat="61.702036112" lon="9.98733332886">
		<tag k="name" v="Koiebekken" />
		<tag k="ssr:stedsnr" v="131974" />
		<tag k="waterway" v="stream" />
	</node>
	<node id="-125647" lat="61.5285916698" lon="10.2449583412">
		<tag k="name" v="Ølløvtjønnet" />
		<tag k="natural" v="water" />
		<tag k="ssr:stedsnr" v="131887" />
	</node>
	<node id="-125645" lat="61.5353444469" lon="10.0845805534">
		<tag k="name" v="Risøya" />
		<tag k="place" v="islet" />
		<tag k="ssr:stedsnr" v="131881" />
	</node>
	<node id="-125643" lat="61.56530833" lon="10.1370805568">
		<tag k="name" v="Myrsæterbekken" />
		<tag k="ssr:stedsnr" v="131855" />
		<tag k="waterway" v="stream" />
	</node>
	<node id="-125642" lat="61.5660861077" lon="10.2304166666">
		<tag k="name" v="Sagbekken" />
		<tag k="ssr:stedsnr" v="131852" />
		<tag k="waterway" v="stream" />
	</node>
	<node id="-125636" lat="61.6282749964" lon="10.316913888">
		<tag k="name" v="Remma" />
		<tag k="ssr:stedsnr" v="131765" />
		<tag k="waterway" v="river" />
	</node>
	<node id="-125631" lat="61.6417222206" lon="10.560319439">
		<tag k="alt_name" v="Botnebekken, østre;Østre Bottenbekken" />
		<tag k="name" v="Østre Botnebekken" />
		<tag k="ssr:stedsnr" v="131146" />
		<tag k="waterway" v="stream" />
	</node>
	<node id="-125620" lat="61.4575111121" lon="10.0372999985">
		<tag k="name" v="Vangsbekken" />
		<tag k="ssr:stedsnr" v="130547" />
		<tag k="waterway" v="stream" />
	</node>
	<node id="-125617" lat="61.4898527757" lon="10.3163388965">
		<tag k="name" v="Kroktjønn" />
		<tag k="natural" v="water" />
		<tag k="ssr:stedsnr" v="130496" />
	</node>
	<node id="-125595" lat="61.4619999991" lon="10.2633916648">
		<tag k="name" v="Tromsa" />
		<tag k="ssr:stedsnr" v="129563" />
		<tag k="waterway" v="river" />
	</node>
	<node id="-125592" lat="61.6633861128" lon="10.0549499939">
		<tag k="name" v="Venåsbekken" />
		<tag k="ssr:stedsnr" v="118867" />
		<tag k="waterway" v="stream" />
	</node>
	<node id="-125591" lat="61.4258638924" lon="10.1968027831">
		<tag k="name" v="Linvikstjørnet" />
		<tag k="natural" v="water" />
		<tag k="ssr:stedsnr" v="118799" />
	</node>
	<node id="-125589" lat="61.4064388848" lon="10.138397222">
		<tag k="name" v="Morkabekken" />
		<tag k="ssr:stedsnr" v="118761" />
		<tag k="waterway" v="stream" />
	</node>
	<node id="-125563" lat="61.518472221" lon="10.2423444491">
		<tag k="name" v="Ølløvtjønnbekken" />
		<tag k="ssr:stedsnr" v="100672" />
		<tag k="waterway" v="stream" />
	</node>
	<node id="-125562" lat="61.5062722227" lon="10.2465694524">
		<tag k="name" v="Loesæterbekken" />
		<tag k="ssr:stedsnr" v="100661" />
		<tag k="waterway" v="stream" />
	</node>
	<node id="-125548" lat="61.4208638872" lon="10.2822027865">
		<tag k="name" v="Storrputten" />
		<tag k="natural" v="water" />
		<tag k="ssr:stedsnr" v="100282" />
	</node>
	<node id="-125545" lat="61.5523972231" lon="10.1746138951">
		<tag k="name" v="Trolldalsbekken" />
		<tag k="ssr:stedsnr" v="100182" />
		<tag k="waterway" v="stream" />
	</node>
	<node id="-125544" lat="61.5950194487" lon="10.1734472301">
		<tag k="name" v="Fremre Kollbekken" />
		<tag k="ssr:stedsnr" v="100121" />
		<tag k="waterway" v="stream" />
	</node>
	<node id="-125543" lat="61.5878361139" lon="10.2114249939">
		<tag k="name" v="Sveintjønnet" />
		<tag k="natural" v="water" />
		<tag k="ssr:stedsnr" v="100069" />
	</node>
	<node id="-125542" lat="61.5985999974" lon="10.1893194514">
		<tag k="name" v="Storheggslåbekken" />
		<tag k="ssr:stedsnr" v="100063" />
		<tag k="waterway" v="stream" />
	</node>
	<node id="-125528" lat="61.7011138913" lon="10.5803777797">
		<tag k="alt_name" v="Hølbekken" />
		<tag k="name" v="Holbekken" />
		<tag k="ssr:stedsnr" v="85427" />
		<tag k="waterway" v="stream" />
	</node>
	<node id="-125526" lat="61.6642499975" lon="10.514619452">
		<tag k="fixme" v="multiple name tags, choose one and add the other to alt_name" />
		<tag k="name" v="Skarvbekken;Vollbekken" />
		<tag k="ssr:stedsnr" v="85421" />
		<tag k="waterway" v="stream" />
	</node>
	<node id="-125524" lat="61.655650004" lon="10.1321833397">
		<tag k="name" v="Mya" />
		<tag k="ssr:stedsnr" v="71991" />
		<tag k="waterway" v="river" />
	</node>
	<node id="-125521" lat="61.7286916686" lon="10.1383111161">
		<tag k="name" v="Ramstjønnet" />
		<tag k="natural" v="water" />
		<tag k="ssr:stedsnr" v="71970" />
	</node>
	<node id="-125516" lat="61.5350194468" lon="10.2069388962">
		<tag k="name" v="Klopptjønnet" />
		<tag k="natural" v="water" />
		<tag k="ssr:stedsnr" v="71858" />
	</node>
	<node id="-125515" lat="61.5330277748" lon="10.2750027868">
		<tag k="name" v="Høgåstjønnet" />
		<tag k="natural" v="water" />
		<tag k="ssr:stedsnr" v="71856" />
	</node>
	<node id="-125512" lat="61.6429888852" lon="10.1007333281">
		<tag k="name" v="Freska" />
		<tag k="ssr:stedsnr" v="71786" />
		<tag k="waterway" v="river" />
	</node>
	<node id="-125509" lat="61.6320000031" lon="10.2580888809">
		<tag k="alt_name" v="Slibekken" />
		<tag k="name" v="Sliebekken" />
		<tag k="ssr:stedsnr" v="71774" />
		<tag k="waterway" v="stream" />
	</node>
	<node id="-125508" lat="61.62180475" lon="10.1212953144">
		<tag k="name" v="Gulltjønnet" />
		<tag k="natural" v="water" />
		<tag k="ssr:stedsnr" v="71770" />
	</node>
	<node id="-125506" lat="61.5748555547" lon="10.6350277834">
		<tag k="alt_name" v="Imssjøen, nordre" />
		<tag k="name" v="Nordre Imssjøen" />
		<tag k="natural" v="water" />
		<tag k="ssr:stedsnr" v="71161" />
		<tag k="water" v="lake" />
	</node>
	<node id="-125504" lat="61.6132999978" lon="10.6118583339">
		<tag k="alt_name" v="Kveinnbekken" />
		<tag k="name" v="Kvernbekken" />
		<tag k="ssr:stedsnr" v="71142" />
		<tag k="waterway" v="stream" />
	</node>
	<node id="-125503" lat="61.5593666693" lon="10.6443388955">
		<tag k="name" v="Stuva" />
		<tag k="ssr:stedsnr" v="71257" />
		<tag k="waterway" v="stream" />
	</node>
	<node id="-125502" lat="61.7251527747" lon="10.6060999934">
		<tag k="name" v="Skardbekken" />
		<tag k="ssr:stedsnr" v="71214" />
		<tag k="waterway" v="stream" />
	</node>
	<node id="-125498" lat="61.6924138905" lon="10.1551416662">
		<tag k="name" v="Mykjørrtjønnet" />
		<tag k="natural" v="water" />
		<tag k="ssr:stedsnr" v="70971" />
	</node>
	<node id="-125496" lat="61.4166333303" lon="10.0104999918">
		<tag k="name" v="Lorttjønnet" />
		<tag k="natural" v="water" />
		<tag k="ssr:stedsnr" v="69928" />
	</node>
	<node id="-125490" lat="61.4876862882" lon="10.0457911082">
		<tag k="name" v="Steinvåga" />
		<tag k="natural" v="water" />
		<tag k="ssr:stedsnr" v="69636" />
		<tag k="water" v="lake" />
	</node>
	<node id="-125486" lat="61.4434555531" lon="10.4819194433">
		<tag k="name" v="Spranget" />
		<tag k="natural" v="waterfall" />
		<tag k="ssr:stedsnr" v="69383" />
	</node>
	<node id="-125474" lat="61.4003666688" lon="9.99381110909">
		<tag k="alt_name" v="Skjellbreida" />
		<tag k="name" v="Skjellbreia" />
		<tag k="natural" v="water" />
		<tag k="ssr:stedsnr" v="68911" />
	</node>
	<node id="-125468" lat="61.6763138933" lon="10.0599027859">
		<tag k="alt_name" v="Kveinndalsvika" />
		<tag k="name" v="Kvanndalsvika" />
		<tag k="natural" v="bay" />
		<tag k="ssr:stedsnr" v="58893" />
	</node>
	<node id="-125467" lat="61.6775416643" lon="10.103900004">
		<tag k="name" v="Øygardsbekken" />
		<tag k="ssr:stedsnr" v="58877" />
		<tag k="waterway" v="stream" />
	</node>
	<node id="-125462" lat="61.4161111096" lon="10.1610833383">
		<tag k="name" v="Bystadbekken" />
		<tag k="ssr:stedsnr" v="58773" />
		<tag k="waterway" v="stream" />
	</node>
	<node id="-125453" lat="61.3841777812" lon="9.97260277473">
		<tag k="name" v="Dørja" />
		<tag k="natural" v="water" />
		<tag k="ssr:stedsnr" v="52337" />
	</node>
	<node id="-125452" lat="61.492050002" lon="10.053836107">
		<tag k="name" v="Gullhaugtjønnet" />
		<tag k="natural" v="water" />
		<tag k="ssr:stedsnr" v="52301" />
	</node>
	<node id="-125424" lat="61.579386112" lon="10.1039722201">
		<tag k="name" v="Kaldvassbekken" />
		<tag k="ssr:stedsnr" v="39607" />
		<tag k="waterway" v="stream" />
	</node>
	<node id="-125420" lat="61.4484638924" lon="10.4281333281">
		<tag k="name" v="Veslestulsbekken" />
		<tag k="ssr:stedsnr" v="39537" />
		<tag k="waterway" v="stream" />
	</node>
	<node id="-125417" lat="61.6678956177" lon="10.1445513367">
		<tag k="loc_name" v="Fremre Måsåtjønn" />
		<tag k="name" v="Veslefjelltjønnet" />
		<tag k="natural" v="water" />
		<tag k="ssr:stedsnr" v="39413" />
	</node>
	<node id="-125412" lat="61.4388638933" lon="10.3133416695">
		<tag k="name" v="Indre Nyhusbekken" />
		<tag k="ssr:stedsnr" v="39243" />
		<tag k="waterway" v="stream" />
	</node>
	<node id="-125404" lat="61.5637750002" lon="10.2013027833">
		<tag k="name" v="Rotbekken" />
		<tag k="ssr:stedsnr" v="39007" />
		<tag k="waterway" v="stream" />
	</node>
	<node id="-125400" lat="61.661233333" lon="10.0796305516">
		<tag k="name" v="Midtbekken" />
		<tag k="ssr:stedsnr" v="34779" />
		<tag k="waterway" v="stream" />
	</node>
	<node id="-125390" lat="61.7107332067" lon="10.0512949855">
		<tag k="name" v="Klopptjønna" />
		<tag k="natural" v="water" />
		<tag k="ssr:stedsnr" v="10964" />
	</node>
	<node id="-125388" lat="61.5201944444" lon="10.292391668">
		<tag k="name" v="Langtjønnsbekken" />
		<tag k="ssr:stedsnr" v="10876" />
		<tag k="waterway" v="stream" />
	</node>
	<node id="-125381" lat="61.6262000028" lon="10.2924694508">
		<tag k="alt_name" v="Remma, vesle" />
		<tag k="name" v="Vesle Remma" />
		<tag k="ssr:stedsnr" v="10760" />
		<tag k="waterway" v="stream" />
	</node>
	<node id="-125376" lat="61.5731250022" lon="10.141866672">
		<tag k="alt_name" v="Kveinnholsbekken" />
		<tag k="name" v="Kvannholsbekken" />
		<tag k="ssr:stedsnr" v="10803" />
		<tag k="waterway" v="stream" />
	</node>
	<node id="-125375" lat="61.5081605796" lon="10.6606531594">
		<tag k="name" v="Samtjønna" />
		<tag k="natural" v="water" />
		<tag k="ssr:stedsnr" v="10226" />
		<tag k="water" v="lake" />
	</node>
	<node id="-125368" lat="61.4458138874" lon="10.351441674">
		<tag k="name" v="Storfallet" />
		<tag k="place" v="locality" />
		<tag k="ssr:stedsnr" v="9358" />
	</node>
	<node id="-125367" lat="61.4524249963" lon="10.4730861094">
		<tag k="alt_name" v="Storskarven;Store Skarven" />
		<tag k="name" v="Storskarva" />
		<tag k="ssr:stedsnr" v="9356" />
		<tag k="waterway" v="stream" />
	</node>
	<node id="-125365" lat="61.4108083333" lon="10.3921222208">
		<tag k="name" v="Blomtjønnet" />
		<tag k="natural" v="water" />
		<tag k="ssr:stedsnr" v="9313" />
	</node>
	<node id="-125364" lat="61.4165055582" lon="10.4652444356">
		<tag k="name" v="Vesltromsa" />
		<tag k="ssr:stedsnr" v="9305" />
		<tag k="waterway" v="stream" />
	</node>
	<node id="-125363" lat="61.4211083365" lon="10.4297472146">
		<tag k="name" v="Turrhaugtjønnet" />
		<tag k="natural" v="water" />
		<tag k="ssr:stedsnr" v="9303" />
	</node>
	<node id="-125357" lat="61.411299999" lon="9.99434445234">
		<tag k="alt_name" v="Vesle Røgninn" />
		<tag k="name" v="Veslrøgna" />
		<tag k="natural" v="water" />
		<tag k="ssr:stedsnr" v="8927" />
	</node>
	<node id="-125355" lat="61.422874996" lon="10.2906333352">
		<tag k="name" v="Svarttjønnet" />
		<tag k="natural" v="water" />
		<tag k="ssr:stedsnr" v="8916" />
	</node>
	<node id="-125353" lat="61.3993634674" lon="10.0741223561">
		<tag k="name" v="Svartvatnet" />
		<tag k="natural" v="water" />
		<tag k="ssr:stedsnr" v="8897" />
		<tag k="water" v="lake" />
	</node>
	<node id="-125342" lat="61.4645972246" lon="10.6028416603">
		<tag k="name" v="Steinslåtjønnet" />
		<tag k="natural" v="water" />
		<tag k="ssr:stedsnr" v="8396" />
	</node>
	<node id="-125341" lat="61.4604166709" lon="10.471605548">
		<tag k="name" v="Veslskarva" />
		<tag k="ssr:stedsnr" v="8393" />
		<tag k="waterway" v="stream" />
	</node>
	<node id="-125338" lat="61.6321694438" lon="10.4828916692">
		<tag k="name" v="Grønfjelltjønnet" />
		<tag k="natural" v="water" />
		<tag k="ssr:stedsnr" v="267450" />
	</node>
	<node id="-125305" lat="61.2327416711" lon="10.437061112">
		<tag k="loc_name" v="Gudbrandsdalslågen" />
		<tag k="name" v="Lågen" />
		<tag k="ssr:stedsnr" v="129173" />
		<tag k="waterway" v="river" />
	</node>
	<node id="-125297" lat="61.7195000001" lon="10.5452222152">
		<tag k="name" v="Midtklettbekken" />
		<tag k="ssr:stedsnr" v="889805" />
		<tag k="waterway" v="stream" />
	</node>
	<node id="-125295" lat="61.5967916652" lon="10.6323638881">
		<tag k="name" v="Søre Skådalsbekken" />
		<tag k="ssr:stedsnr" v="889766" />
		<tag k="waterway" v="stream" />
	</node>
	<node id="-125293" lat="61.4128750018" lon="10.3678722153">
		<tag k="alt_name" v="Veslerøilla" />
		<tag k="name" v="Veslerolla" />
		<tag k="ssr:stedsnr" v="889561" />
		<tag k="waterway" v="stream" />
	</node>
	<node id="-125282" lat="61.4350749991" lon="10.2466611099">
		<tag k="name" v="Tverråa" />
		<tag k="ssr:stedsnr" v="889259" />
		<tag k="waterway" v="stream" />
	</node>
	<node id="-125273" lat="61.528133337" lon="10.5564999962">
		<tag k="name" v="Sulubergstjønnet" />
		<tag k="natural" v="water" />
		<tag k="ssr:stedsnr" v="888973" />
	</node>
	<node id="-125272" lat="61.5201416656" lon="10.5917361041">
		<tag k="name" v="Flylykkjebekken" />
		<tag k="ssr:stedsnr" v="888954" />
		<tag k="waterway" v="stream" />
	</node>
	<node id="-125260" lat="61.5453666702" lon="10.6563583337">
		<tag k="name" v="Auge" />
		<tag k="natural" v="bay" />
		<tag k="ssr:stedsnr" v="888748" />
	</node>
	<node id="-125256" lat="61.543480555" lon="10.2519055507">
		<tag k="name" v="Nyhamnbekken" />
		<tag k="ssr:stedsnr" v="888660" />
		<tag k="waterway" v="stream" />
	</node>
	<node id="-125255" lat="61.4036083356" lon="10.0606666577">
		<tag k="name" v="Svarttjønnbekken" />
		<tag k="ssr:stedsnr" v="888661" />
		<tag k="waterway" v="stream" />
	</node>
	<node id="-125245" lat="61.5639388855" lon="10.6627361151">
		<tag k="alt_name" v="Skarbekken" />
		<tag k="name" v="Skakkbekken" />
		<tag k="ssr:stedsnr" v="407883" />
		<tag k="waterway" v="stream" />
	</node>
	<node id="-125239" lat="61.5211055531" lon="10.4353583366">
		<tag k="name" v="Kringleslåtjønnet" />
		<tag k="natural" v="water" />
		<tag k="ssr:stedsnr" v="403918" />
	</node>
	<node id="-125231" lat="61.5395527743" lon="10.0885750065">
		<tag k="name" v="Storhåmmåren" />
		<tag k="natural" v="cape" />
		<tag k="ssr:stedsnr" v="403728" />
	</node>
	<node id="-125229" lat="61.5218916655" lon="10.2772055647">
		<tag k="name" v="Vesletjønnet" />
		<tag k="natural" v="water" />
		<tag k="ssr:stedsnr" v="403664" />
	</node>
	<node id="-125227" lat="61.5411361118" lon="10.3064888963">
		<tag k="name" v="Geitbekken" />
		<tag k="ssr:stedsnr" v="403660" />
		<tag k="waterway" v="stream" />
	</node>
	<node id="-125226" lat="61.5375833351" lon="10.3162750058">
		<tag k="name" v="Turrtjønnet" />
		<tag k="natural" v="water" />
		<tag k="ssr:stedsnr" v="403659" />
	</node>
	<node id="-125221" lat="61.5473833364" lon="10.0955444488">
		<tag k="name" v="Bølbekken" />
		<tag k="ssr:stedsnr" v="403608" />
		<tag k="waterway" v="stream" />
	</node>
	<node id="-125219" lat="61.4454750036" lon="10.4628777742">
		<tag k="name" v="Vesle Skarven" />
		<tag k="ssr:stedsnr" v="403577" />
		<tag k="waterway" v="stream" />
	</node>
	<node id="-125218" lat="61.4146027764" lon="10.40641111">
		<tag k="name" v="Løken" />
		<tag k="natural" v="bay" />
		<tag k="ssr:stedsnr" v="403553" />
	</node>
	<node id="-125208" lat="61.4221972193" lon="10.2701777808">
		<tag k="name" v="Storholmen" />
		<tag k="place" v="islet" />
		<tag k="ssr:stedsnr" v="403286" />
	</node>
	<node id="-125205" lat="61.5462638891" lon="10.1384083386">
		<tag k="name" v="Vinkelfossen" />
		<tag k="natural" v="waterfall" />
		<tag k="ssr:stedsnr" v="403202" />
	</node>
	<node id="-125204" lat="61.5438277781" lon="10.1396555587">
		<tag k="name" v="Gangtrefossen" />
		<tag k="natural" v="waterfall" />
		<tag k="ssr:stedsnr" v="403201" />
	</node>
	<node id="-125200" lat="61.5965166635" lon="10.1886777823">
		<tag k="name" v="Kollbekken" />
		<tag k="ssr:stedsnr" v="403059" />
		<tag k="waterway" v="stream" />
	</node>
	<node id="-125197" lat="61.6594916708" lon="10.1116111101">
		<tag k="name" v="Stormyrtjønnet" />
		<tag k="natural" v="water" />
		<tag k="ssr:stedsnr" v="435996" />
	</node>
	<node id="-125188" lat="61.7401083291" lon="10.0716138924">
		<tag k="name" v="Svabubekken" />
		<tag k="ssr:stedsnr" v="374956" />
		<tag k="waterway" v="stream" />
	</node>
	<node id="-125185" lat="61.5280555517" lon="10.3189888917">
		<tag k="alt_name" v="Breida" />
		<tag k="name" v="Breia" />
		<tag k="ssr:stedsnr" v="374866" />
		<tag k="waterway" v="river" />
	</node>
	<node id="-125178" lat="61.6048833309" lon="10.2548972183">
		<tag k="name" v="Tverrturen" />
		<tag k="ssr:stedsnr" v="374790" />
		<tag k="waterway" v="stream" />
	</node>
	<node id="-125176" lat="61.5386055588" lon="10.5395694485">
		<tag k="name" v="Gluptjønnet" />
		<tag k="natural" v="water" />
		<tag k="ssr:stedsnr" v="374268" />
	</node>
	<node id="-125168" lat="61.6551055586" lon="9.99295556358">
		<tag k="name" v="Ådalsbekken" />
		<tag k="ssr:stedsnr" v="373992" />
		<tag k="waterway" v="stream" />
	</node>
	<node id="-125167" lat="61.6723138897" lon="10.1683861197">
		<tag k="name" v="Gråbekken" />
		<tag k="ssr:stedsnr" v="373979" />
		<tag k="waterway" v="stream" />
	</node>
	<node id="-125166" lat="61.6972799235" lon="10.1520639201">
		<tag k="name" v="Langrumpa" />
		<tag k="natural" v="water" />
		<tag k="ssr:stedsnr" v="373972" />
	</node>
	<node id="-125164" lat="61.5475805544" lon="10.227727777">
		<tag k="name" v="Nyhamnbekken" />
		<tag k="ssr:stedsnr" v="373806" />
		<tag k="waterway" v="stream" />
	</node>
	<node id="-125160" lat="61.5350472256" lon="10.6253499984">
		<tag k="name" v="Samdøla" />
		<tag k="ssr:stedsnr" v="373237" />
		<tag k="waterway" v="river" />
	</node>
	<node id="-125159" lat="61.5343972246" lon="10.3741555532">
		<tag k="name" v="Svæla" />
		<tag k="ssr:stedsnr" v="373232" />
		<tag k="waterway" v="river" />
	</node>
	<node id="-125153" lat="61.408949997" lon="10.2887638839">
		<tag k="name" v="Stulsåa" />
		<tag k="ssr:stedsnr" v="372921" />
		<tag k="waterway" v="stream" />
	</node>
	<node id="-125150" lat="61.4661027743" lon="10.0273222168">
		<tag k="name" v="Småtjønna" />
		<tag k="natural" v="water" />
		<tag k="ssr:stedsnr" v="372629" />
	</node>
	<node id="-125149" lat="61.4785111138" lon="10.0738000001">
		<tag k="name" v="Skardtjønnet" />
		<tag k="natural" v="water" />
		<tag k="ssr:stedsnr" v="372611" />
	</node>
	<node id="-125145" lat="61.4481083338" lon="10.0736333299">
		<tag k="name" v="Svinåa" />
		<tag k="ssr:stedsnr" v="372580" />
		<tag k="waterway" v="river" />
	</node>
	<node id="-125142" lat="61.496158331" lon="10.0604888797">
		<tag k="name" v="Breistultjønnet" />
		<tag k="natural" v="water" />
		<tag k="ssr:stedsnr" v="372540" />
	</node>
	<node id="-125140" lat="61.5074861101" lon="10.4986527727">
		<tag k="name" v="Vetåa" />
		<tag k="old_name" v="Velåa" />
		<tag k="ssr:stedsnr" v="372389" />
		<tag k="waterway" v="river" />
	</node>
	<node id="-125139" lat="61.4770388862" lon="10.3906499907">
		<tag k="name" v="Svarttjønnet" />
		<tag k="natural" v="water" />
		<tag k="ssr:stedsnr" v="372382" />
	</node>
	<node id="-125132" lat="61.4636083354" lon="10.1588805642">
		<tag k="name" v="Bergebekken" />
		<tag k="ssr:stedsnr" v="361998" />
		<tag k="waterway" v="stream" />
	</node>
	<node id="-125128" lat="61.6805500034" lon="10.0961527825">
		<tag k="name" v="Slåggåan" />
		<tag k="ssr:stedsnr" v="361883" />
		<tag k="waterway" v="stream" />
	</node>
	<node id="-125123" lat="61.5644694426" lon="10.0556083373">
		<tag k="name" v="Svilhølen" />
		<tag k="place" v="locality" />
		<tag k="ssr:stedsnr" v="361707" />
	</node>
	<node id="-125110" lat="61.5009888911" lon="10.4637666645">
		<tag k="name" v="Høgåstjønna" />
		<tag k="natural" v="water" />
		<tag k="ssr:stedsnr" v="342876" />
	</node>
	<node id="-125109" lat="61.5959805548" lon="10.5615444373">
		<tag k="name" v="Styggbekken" />
		<tag k="ssr:stedsnr" v="342785" />
		<tag k="waterway" v="stream" />
	</node>
	<node id="-125106" lat="61.6050999959" lon="10.6069805588">
		<tag k="name" v="Dammen" />
		<tag k="ssr:stedsnr" v="342721" />
		<tag k="waterway" v="dam" />
	</node>
	<node id="-125102" lat="61.4961861107" lon="10.1135111162">
		<tag k="name" v="Haustsæterbekken" />
		<tag k="ssr:stedsnr" v="342676" />
		<tag k="waterway" v="stream" />
	</node>
	<node id="-125100" lat="61.519666667" lon="10.2527166686">
		<tag k="name" v="Lyntjønnet" />
		<tag k="natural" v="water" />
		<tag k="ssr:stedsnr" v="342628" />
	</node>
	<node id="-125091" lat="61.5779666679" lon="10.3077083254">
		<tag k="name" v="Sokkebandtjønnet" />
		<tag k="natural" v="water" />
		<tag k="ssr:stedsnr" v="342433" />
	</node>
	<node id="-125077" lat="61.5964388932" lon="10.171538894">
		<tag k="name" v="Indre Kollbekken" />
		<tag k="ssr:stedsnr" v="342104" />
		<tag k="waterway" v="stream" />
	</node>
	<node id="-125067" lat="61.6581638922" lon="10.6139166623">
		<tag k="name" v="Søbekken" />
		<tag k="ssr:stedsnr" v="101809" />
		<tag k="waterway" v="stream" />
	</node>
	<node id="-125066" lat="61.5929083353" lon="10.0429055466">
		<tag k="alt_name" v="Lundeelva" />
		<tag k="name" v="Lundelva" />
		<tag k="ssr:stedsnr" v="323294" />
		<tag k="waterway" v="stream" />
	</node>
	<node id="-125065" lat="61.617111108" lon="10.0438444507">
		<tag k="name" v="Søre Steintjønnet" />
		<tag k="natural" v="water" />
		<tag k="ssr:stedsnr" v="323289" />
	</node>
	<node id="-125064" lat="61.6967305595" lon="10.0275083393">
		<tag k="name" v="Koietjønna" />
		<tag k="natural" v="water" />
		<tag k="ssr:stedsnr" v="314948" />
	</node>
	<node id="-125063" lat="61.7069055565" lon="9.97045000352">
		<tag k="name" v="Kloppbekken" />
		<tag k="ssr:stedsnr" v="314941" />
		<tag k="waterway" v="stream" />
	</node>
	<node id="-125062" lat="61.5725747357" lon="10.1061767099">
		<tag k="name" v="Søre Åborsjøen" />
		<tag k="natural" v="water" />
		<tag k="ssr:stedsnr" v="314781" />
		<tag k="water" v="lake" />
	</node>
	<node id="-125058" lat="61.6567638855" lon="10.0754861137">
		<tag k="name" v="Fresketjønnet" />
		<tag k="natural" v="water" />
		<tag k="ssr:stedsnr" v="313989" />
	</node>
	<node id="-125056" lat="61.5195000025" lon="10.2823999962">
		<tag k="name" v="Rundtjønnet" />
		<tag k="natural" v="water" />
		<tag k="ssr:stedsnr" v="313894" />
	</node>
	<node id="-125052" lat="61.5093916637" lon="10.2031055494">
		<tag k="name" v="Svartåa" />
		<tag k="ssr:stedsnr" v="313885" />
		<tag k="waterway" v="stream" />
	</node>
	<node id="-125049" lat="61.5346138879" lon="10.3092027861">
		<tag k="name" v="Nysæterbekken" />
		<tag k="ssr:stedsnr" v="313852" />
		<tag k="waterway" v="stream" />
	</node>
	<node id="-125043" lat="61.62585556" lon="10.0159361122">
		<tag k="alt_name" v="Kveinnbekken" />
		<tag k="name" v="Kvernbekken" />
		<tag k="ssr:stedsnr" v="313765" />
		<tag k="waterway" v="stream" />
	</node>
	<node id="-125038" lat="61.4372250014" lon="10.2598194507">
		<tag k="name" v="Nerslettjønnet" />
		<tag k="natural" v="water" />
		<tag k="ssr:stedsnr" v="312930" />
	</node>
	<node id="-125031" lat="61.4784083305" lon="10.2789611035">
		<tag k="name" v="Tossa" />
		<tag k="ssr:stedsnr" v="312594" />
		<tag k="waterway" v="stream" />
	</node>
	<node id="-125030" lat="61.4605027799" lon="10.0221833361">
		<tag k="name" v="Jervåstjønnet" />
		<tag k="natural" v="water" />
		<tag k="ssr:stedsnr" v="312568" />
	</node>
	<node id="-125028" lat="61.4243083304" lon="10.4980055489">
		<tag k="name" v="Koltjønnet" />
		<tag k="natural" v="water" />
		<tag k="ssr:stedsnr" v="312343" />
	</node>
	<node id="-125023" lat="61.3769944443" lon="9.98483889757">
		<tag k="fixme" v="multiple name tags, choose one and add the other to alt_name" />
		<tag k="name" v="Fjellåa;Grasdalselva" />
		<tag k="ssr:stedsnr" v="311897" />
		<tag k="waterway" v="stream" />
	</node>
	<node id="-125015" lat="61.4313694437" lon="10.56094167">
		<tag k="name" v="Bjørgetjønn" />
		<tag k="natural" v="water" />
		<tag k="ssr:stedsnr" v="300964" />
	</node>
	<node id="-125012" lat="61.4169777773" lon="10.2152305544">
		<tag k="name" v="Kringeløya" />
		<tag k="place" v="islet" />
		<tag k="ssr:stedsnr" v="300809" />
	</node>
	<node id="-125005" lat="61.4980333322" lon="10.0553583289">
		<tag k="name" v="Goløybekken" />
		<tag k="ssr:stedsnr" v="295334" />
		<tag k="waterway" v="stream" />
	</node>
	<node id="-124999" lat="61.4904111105" lon="10.0276444459">
		<tag k="name" v="Veslegompen" />
		<tag k="natural" v="bay" />
		<tag k="ssr:stedsnr" v="288202" />
	</node>
	<node id="-124989" lat="61.448422218" lon="10.4843361102">
		<tag k="name" v="Vetåfallet" />
		<tag k="natural" v="waterfall" />
		<tag k="ssr:stedsnr" v="282924" />
	</node>
	<node id="-124986" lat="61.4409694476" lon="10.5462416584">
		<tag k="name" v="Gompa" />
		<tag k="ssr:stedsnr" v="282914" />
		<tag k="waterway" v="stream" />
	</node>
	<node id="-124985" lat="61.6225388916" lon="10.0816388803">
		<tag k="name" v="Grønnskarstjønnet" />
		<tag k="natural" v="water" />
		<tag k="ssr:stedsnr" v="282831" />
	</node>
	<node id="-124981" lat="61.562544447" lon="10.6045222304">
		<tag k="name" v="Endsæterbekken" />
		<tag k="ssr:stedsnr" v="282743" />
		<tag k="waterway" v="stream" />
	</node>
	<node id="-124978" lat="61.5489000018" lon="10.298766663">
		<tag k="name" v="Stortjønna" />
		<tag k="natural" v="water" />
		<tag k="ssr:stedsnr" v="282664" />
	</node>
	<node id="-124977" lat="61.543663885" lon="10.3530527704">
		<tag k="name" v="Styggebekken" />
		<tag k="ssr:stedsnr" v="282659" />
		<tag k="waterway" v="stream" />
	</node>
	<node id="-124971" lat="61.6122277761" lon="10.2496388802">
		<tag k="name" v="Høstadbekken" />
		<tag k="ssr:stedsnr" v="282548" />
		<tag k="waterway" v="stream" />
	</node>
	<node id="-124955" lat="61.5869861118" lon="10.2270500087">
		<tag k="name" v="Randstedbekken" />
		<tag k="ssr:stedsnr" v="282081" />
		<tag k="waterway" v="stream" />
	</node>
	<node id="-124952" lat="61.6591583313" lon="10.0754250005">
		<tag k="name" v="Friskegreina" />
		<tag k="ssr:stedsnr" v="277816" />
		<tag k="waterway" v="stream" />
	</node>
</osm>
