<?xml version="1.0" encoding="UTF-8"?>
<osm generator="osmapis" version="0.6">
	<node id="-124928" lat="61.6457499958" lon="10.3265277863">
		<tag k="fixme" v="consider natural=peak for the most distinct mountains in the district" />
		<tag k="name" v="Hellorn" />
		<tag k="natural" v="hill" />
		<tag k="place" v="locality" />
		<tag k="ssr:stedsnr" v="313994" />
	</node>
	<node id="-124926" lat="61.6632305578" lon="10.2582999998">
		<tag k="fixme" v="consider natural=peak for the most distinct mountains in the district" />
		<tag k="name" v="Stulshøgdin" />
		<tag k="natural" v="hill" />
		<tag k="place" v="locality" />
		<tag k="ssr:stedsnr" v="313985" />
	</node>
	<node id="-124914" lat="61.6393166702" lon="10.1823333381">
		<tag k="name" v="Skarvfjellet" />
		<tag k="natural" v="hill" />
		<tag k="place" v="locality" />
		<tag k="ssr:stedsnr" v="313777" />
	</node>
	<node id="-124909" lat="61.6230861092" lon="10.43418333">
		<tag k="fixme" v="consider natural=peak for the most distinct mountains in the district" />
		<tag k="name" v="Vangfjellet" />
		<tag k="natural" v="hill" />
		<tag k="place" v="locality" />
		<tag k="ssr:stedsnr" v="313171" />
	</node>
	<node id="-124908" lat="61.6071305565" lon="10.5667777794">
		<tag k="fixme" v="consider natural=peak for the most distinct mountains in the district" />
		<tag k="name" v="Åsdalstangen" />
		<tag k="natural" v="hill" />
		<tag k="place" v="locality" />
		<tag k="ssr:stedsnr" v="313147" />
	</node>
	<node id="-124905" lat="61.4240611104" lon="10.3388499983">
		<tag k="fixme" v="consider natural=peak for the most distinct mountains in the district" />
		<tag k="name" v="Svangkampen" />
		<tag k="natural" v="hill" />
		<tag k="place" v="locality" />
		<tag k="ssr:stedsnr" v="312922" />
	</node>
	<node id="-124904" lat="61.4880916691" lon="10.5066250036">
		<tag k="alt_name" v="Pineggen" />
		<tag k="fixme" v="consider natural=peak for the most distinct mountains in the district" />
		<tag k="name" v="Pinegga" />
		<tag k="natural" v="hill" />
		<tag k="place" v="locality" />
		<tag k="ssr:stedsnr" v="312799" />
	</node>
	<node id="-124903" lat="61.4851861145" lon="10.5257138958">
		<tag k="alt_name" v="Trolldalen, fremre" />
		<tag k="name" v="Fremre Trolldalen" />
		<tag k="natural" v="valley" />
		<tag k="place" v="locality" />
		<tag k="ssr:stedsnr" v="312793" />
	</node>
	<node id="-124894" lat="61.3923972202" lon="10.1084000045">
		<tag k="alt_name" v="Bånsæterkampane" />
		<tag k="fixme" v="consider natural=peak for the most distinct mountains in the district" />
		<tag k="name" v="Bånsæterkampen" />
		<tag k="natural" v="hill" />
		<tag k="place" v="locality" />
		<tag k="ssr:stedsnr" v="311914" />
	</node>
	<node id="-124877" lat="61.5315333304" lon="10.1311833265">
		<tag k="name" v="Ulberg" />
		<tag k="natural" v="hill" />
		<tag k="place" v="locality" />
		<tag k="ssr:stedsnr" v="300247" />
	</node>
	<node id="-124870" lat="61.6125111133" lon="10.0366722149">
		<tag k="name" v="Kjellarholsberga" />
		<tag k="natural" v="hill" />
		<tag k="place" v="locality" />
		<tag k="ssr:stedsnr" v="294937" />
	</node>
	<node id="-124863" lat="61.6811777741" lon="10.5153916674">
		<tag k="name" v="Skjerdklettet" />
		<tag k="natural" v="hill" />
		<tag k="place" v="locality" />
		<tag k="ssr:stedsnr" v="283831" />
	</node>
	<node id="-124862" lat="61.4842527746" lon="10.1845000023">
		<tag k="name" v="Kleivberga" />
		<tag k="natural" v="hill" />
		<tag k="place" v="locality" />
		<tag k="ssr:stedsnr" v="283000" />
	</node>
	<node id="-124856" lat="61.4355944448" lon="10.5858499913">
		<tag k="name" v="Storvidjen" />
		<tag k="natural" v="slope" />
		<tag k="place" v="locality" />
		<tag k="ssr:stedsnr" v="282913" />
	</node>
	<node id="-124852" lat="61.6082249962" lon="10.6339333383">
		<tag k="name" v="Brattlihøgda" />
		<tag k="natural" v="hill" />
		<tag k="place" v="locality" />
		<tag k="ssr:stedsnr" v="282773" />
	</node>
	<node id="-124845" lat="61.4287972221" lon="10.4250972298">
		<tag k="name" v="Åmotreset" />
		<tag k="natural" v="hill" />
		<tag k="place" v="locality" />
		<tag k="ssr:stedsnr" v="282601" />
	</node>
	<node id="-124841" lat="61.4205999984" lon="10.467877782">
		<tag k="name" v="Ulehaugan" />
		<tag k="natural" v="hill" />
		<tag k="place" v="locality" />
		<tag k="ssr:stedsnr" v="282558" />
	</node>
	<node id="-124839" lat="61.5643000032" lon="10.2935138834">
		<tag k="name" v="Limrishaugen" />
		<tag k="natural" v="hill" />
		<tag k="place" v="locality" />
		<tag k="ssr:stedsnr" v="282487" />
	</node>
	<node id="-124832" lat="61.6136166641" lon="10.2285833331">
		<tag k="name" v="Høstadslettene" />
		<tag k="place" v="locality" />
		<tag k="ssr:stedsnr" v="282385" />
	</node>
	<node id="-124831" lat="61.4567833327" lon="10.2414750014">
		<tag k="name" v="Brånnåtinnan" />
		<tag k="natural" v="hill" />
		<tag k="place" v="locality" />
		<tag k="ssr:stedsnr" v="282282" />
	</node>
	<node id="-124830" lat="61.4546888849" lon="10.2719194435">
		<tag k="name" v="Ressbakken" />
		<tag k="natural" v="slope" />
		<tag k="place" v="locality" />
		<tag k="ssr:stedsnr" v="282281" />
	</node>
	<node id="-124829" lat="61.4147972195" lon="10.2579638829">
		<tag k="fixme" v="consider natural=peak for the most distinct mountains in the district" />
		<tag k="name" v="Leirdalskampen" />
		<tag k="natural" v="hill" />
		<tag k="place" v="locality" />
		<tag k="ssr:stedsnr" v="282274" />
	</node>
	<node id="-124823" lat="61.5734249972" lon="10.1684444439">
		<tag k="name" v="Jernhaltlia" />
		<tag k="natural" v="slope" />
		<tag k="place" v="locality" />
		<tag k="ssr:stedsnr" v="282013" />
	</node>
	<node id="-124822" lat="61.5595583326" lon="10.1479777709">
		<tag k="name" v="Blakkberget" />
		<tag k="natural" v="hill" />
		<tag k="place" v="locality" />
		<tag k="ssr:stedsnr" v="282009" />
	</node>
	<node id="-124820" lat="61.5712916662" lon="10.0961583385">
		<tag k="name" v="Rudiskardet" />
		<tag k="natural" v="valley" />
		<tag k="place" v="locality" />
		<tag k="ssr:stedsnr" v="269995" />
	</node>
	<node id="-124819" lat="61.5630194485" lon="10.0933055648">
		<tag k="name" v="Bølknappen" />
		<tag k="natural" v="hill" />
		<tag k="place" v="locality" />
		<tag k="ssr:stedsnr" v="269991" />
	</node>
	<node id="-124818" lat="61.6983333342" lon="9.99943332756">
		<tag k="name" v="Knappen" />
		<tag k="natural" v="hill" />
		<tag k="place" v="locality" />
		<tag k="ssr:stedsnr" v="269978" />
	</node>
	<node id="-126792" lat="61.6667638878" lon="10.0839694421">
		<tag k="name" v="Urdtjønnshaugen" />
		<tag k="natural" v="hill" />
		<tag k="place" v="locality" />
		<tag k="ssr:stedsnr" v="968893" />
	</node>
	<node id="-126783" lat="61.527538893" lon="10.1544888953">
		<tag k="name" v="Bjørgebakkan" />
		<tag k="natural" v="slope" />
		<tag k="place" v="locality" />
		<tag k="ssr:stedsnr" v="968158" />
	</node>
	<node id="-126776" lat="61.5055972255" lon="10.0534500004">
		<tag k="name" v="Breidalen" />
		<tag k="natural" v="valley" />
		<tag k="place" v="locality" />
		<tag k="ssr:stedsnr" v="962307" />
	</node>
	<node id="-126767" lat="61.4756361148" lon="10.2309388809">
		<tag k="name" v="Vardberget" />
		<tag k="natural" v="hill" />
		<tag k="place" v="locality" />
		<tag k="ssr:stedsnr" v="949999" />
	</node>
	<node id="-126762" lat="61.4947722246" lon="10.618541659">
		<tag k="name" v="Samdalsglupen" />
		<tag k="natural" v="valley" />
		<tag k="place" v="locality" />
		<tag k="ssr:stedsnr" v="949947" />
	</node>
	<node id="-126758" lat="61.3951583306" lon="10.1259750024">
		<tag k="name" v="Midtberga" />
		<tag k="natural" v="hill" />
		<tag k="place" v="locality" />
		<tag k="ssr:stedsnr" v="949756" />
	</node>
	<node id="-126756" lat="61.594863887" lon="10.6524472215">
		<tag k="name" v="Skådalsbrote" />
		<tag k="natural" v="slope" />
		<tag k="place" v="locality" />
		<tag k="ssr:stedsnr" v="949746" />
	</node>
	<node id="-126755" lat="61.3958277736" lon="10.1854972227">
		<tag k="alt_name" v="Kveinndalen" />
		<tag k="name" v="Kvanndalen" />
		<tag k="natural" v="valley" />
		<tag k="place" v="locality" />
		<tag k="ssr:stedsnr" v="949744" />
	</node>
	<node id="-126750" lat="61.5015694467" lon="10.0951888822">
		<tag k="name" v="Hondtjønnsletta" />
		<tag k="place" v="locality" />
		<tag k="ssr:stedsnr" v="949699" />
	</node>
	<node id="-126749" lat="61.4917250004" lon="10.1008694485">
		<tag k="name" v="Geitryggen" />
		<tag k="natural" v="ridge" />
		<tag k="place" v="locality" />
		<tag k="ssr:stedsnr" v="949697" />
	</node>
	<node id="-126742" lat="61.547591671" lon="10.2880472194">
		<tag k="name" v="Storpeillen" />
		<tag k="natural" v="hill" />
		<tag k="place" v="locality" />
		<tag k="ssr:stedsnr" v="949644" />
	</node>
	<node id="-126741" lat="61.4136666629" lon="10.1102500047">
		<tag k="name" v="Langhaugen" />
		<tag k="natural" v="hill" />
		<tag k="place" v="locality" />
		<tag k="ssr:stedsnr" v="949640" />
	</node>
	<node id="-126733" lat="61.4553833362" lon="10.4500250066">
		<tag k="name" v="Rikjesletta" />
		<tag k="place" v="locality" />
		<tag k="ssr:stedsnr" v="949540" />
	</node>
	<node id="-126732" lat="61.4895277807" lon="10.4450361084">
		<tag k="name" v="Grautskarhøgda" />
		<tag k="natural" v="hill" />
		<tag k="place" v="locality" />
		<tag k="ssr:stedsnr" v="949537" />
	</node>
	<node id="-126729" lat="61.61070833" lon="10.2509999991">
		<tag k="name" v="Flatmoløpet" />
		<tag k="natural" v="valley" />
		<tag k="place" v="locality" />
		<tag k="ssr:stedsnr" v="949509" />
	</node>
	<node id="-126728" lat="61.6210555585" lon="10.2623222233">
		<tag k="name" v="Persholet" />
		<tag k="natural" v="valley" />
		<tag k="place" v="locality" />
		<tag k="ssr:stedsnr" v="949510" />
	</node>
	<node id="-126712" lat="61.6193000037" lon="10.0868805602">
		<tag k="name" v="Slæen" />
		<tag k="place" v="locality" />
		<tag k="ssr:stedsnr" v="936999" />
	</node>
	<node id="-126710" lat="61.5930499965" lon="10.0970027727">
		<tag k="name" v="Horten" />
		<tag k="natural" v="slope" />
		<tag k="place" v="locality" />
		<tag k="ssr:stedsnr" v="936992" />
	</node>
	<node id="-126708" lat="61.6802611074" lon="9.98972222975">
		<tag k="name" v="Klinkenberg" />
		<tag k="natural" v="hill" />
		<tag k="place" v="locality" />
		<tag k="ssr:stedsnr" v="936985" />
	</node>
	<node id="-126707" lat="61.6262749957" lon="10.1092694396">
		<tag k="name" v="Freskevarpet" />
		<tag k="place" v="locality" />
		<tag k="ssr:stedsnr" v="936962" />
	</node>
	<node id="-126705" lat="61.5592833315" lon="10.5773000054">
		<tag k="name" v="Bekkedalen" />
		<tag k="natural" v="valley" />
		<tag k="place" v="locality" />
		<tag k="ssr:stedsnr" v="935515" />
	</node>
	<node id="-126704" lat="61.5918888886" lon="10.5525749932">
		<tag k="name" v="Styggedalen" />
		<tag k="natural" v="valley" />
		<tag k="place" v="locality" />
		<tag k="ssr:stedsnr" v="935512" />
	</node>
	<node id="-126700" lat="61.6696750042" lon="10.0320694501">
		<tag k="fixme" v="consider natural=peak for the most distinct mountains in the district" />
		<tag k="name" v="Svartfjellet" />
		<tag k="natural" v="hill" />
		<tag k="place" v="locality" />
		<tag k="ssr:stedsnr" v="920984" />
	</node>
	<node id="-126697" lat="61.6985749969" lon="10.0512055526">
		<tag k="name" v="Dørhøgda" />
		<tag k="natural" v="hill" />
		<tag k="place" v="locality" />
		<tag k="ssr:stedsnr" v="920966" />
	</node>
	<node id="-126696" lat="61.7375805599" lon="10.102399995">
		<tag k="name" v="Ramsholet" />
		<tag k="natural" v="valley" />
		<tag k="place" v="locality" />
		<tag k="ssr:stedsnr" v="920945" />
	</node>
	<node id="-126689" lat="61.6300000041" lon="10.185919453">
		<tag k="name" v="Storhaugen" />
		<tag k="natural" v="hill" />
		<tag k="place" v="locality" />
		<tag k="ssr:stedsnr" v="920753" />
	</node>
	<node id="-126687" lat="61.5449083292" lon="10.6054722143">
		<tag k="fixme" v="consider natural=peak for the most distinct mountains in the district" />
		<tag k="name" v="Tromsneshøgda" />
		<tag k="natural" v="hill" />
		<tag k="place" v="locality" />
		<tag k="ssr:stedsnr" v="920232" />
	</node>
	<node id="-126686" lat="61.5670638926" lon="10.5392111055">
		<tag k="fixme" v="consider natural=peak for the most distinct mountains in the district" />
		<tag k="name" v="Nørdre Kvia" />
		<tag k="natural" v="hill" />
		<tag k="place" v="locality" />
		<tag k="ssr:stedsnr" v="920230" />
	</node>
	<node id="-126682" lat="61.5785861136" lon="10.3479527742">
		<tag k="fixme" v="consider natural=peak for the most distinct mountains in the district" />
		<tag k="name" v="Langtjønnshøgda" />
		<tag k="natural" v="hill" />
		<tag k="place" v="locality" />
		<tag k="ssr:stedsnr" v="920143" />
	</node>
	<node id="-126663" lat="61.4221916641" lon="10.5617222263">
		<tag k="alt_name" v="Høgtind" />
		<tag k="fixme" v="consider natural=peak for the most distinct mountains in the district" />
		<tag k="name" v="Høgtinden" />
		<tag k="natural" v="hill" />
		<tag k="ssr:stedsnr" v="919317" />
	</node>
	<node id="-126659" lat="61.4427277778" lon="10.2438555642">
		<tag k="name" v="Oppsaldalen" />
		<tag k="natural" v="valley" />
		<tag k="place" v="locality" />
		<tag k="ssr:stedsnr" v="918645" />
	</node>
	<node id="-126656" lat="61.4454888909" lon="10.1503249947">
		<tag k="name" v="Tullikampen" />
		<tag k="natural" v="hill" />
		<tag k="place" v="locality" />
		<tag k="ssr:stedsnr" v="918637" />
	</node>
	<node id="-126655" lat="61.4538611079" lon="10.2693250086">
		<tag k="fixme" v="consider natural=peak for the most distinct mountains in the district" />
		<tag k="name" v="Geiteryggen" />
		<tag k="natural" v="hill" />
		<tag k="place" v="locality" />
		<tag k="ssr:stedsnr" v="918633" />
	</node>
	<node id="-126653" lat="61.3983499991" lon="10.3800916668">
		<tag k="name" v="Flausæterlia" />
		<tag k="natural" v="slope" />
		<tag k="place" v="locality" />
		<tag k="ssr:stedsnr" v="918367" />
	</node>
	<node id="-126652" lat="61.4545083347" lon="10.2612916756">
		<tag k="name" v="Resskampene" />
		<tag k="natural" v="hill" />
		<tag k="place" v="locality" />
		<tag k="ssr:stedsnr" v="914318" />
	</node>
	<node id="-126647" lat="61.4123444403" lon="10.19571945">
		<tag k="name" v="Slåggån" />
		<tag k="natural" v="hill" />
		<tag k="place" v="locality" />
		<tag k="ssr:stedsnr" v="907773" />
	</node>
	<node id="-126634" lat="61.7022611074" lon="9.98148333316">
		<tag k="name" v="Storstulshaugen" />
		<tag k="natural" v="hill" />
		<tag k="place" v="locality" />
		<tag k="ssr:stedsnr" v="876943" />
	</node>
	<node id="-126631" lat="61.7242500026" lon="10.0972361154">
		<tag k="name" v="Flåtjønnglupen" />
		<tag k="natural" v="valley" />
		<tag k="place" v="locality" />
		<tag k="ssr:stedsnr" v="860969" />
	</node>
	<node id="-126625" lat="61.6075750031" lon="10.3003500016">
		<tag k="alt_name" v="Skinalia, vesle;Skjennalifjell" />
		<tag k="fixme" v="consider natural=peak for the most distinct mountains in the district" />
		<tag k="name" v="Vesle Skinalia" />
		<tag k="natural" v="hill" />
		<tag k="place" v="locality" />
		<tag k="ssr:stedsnr" v="860799" />
	</node>
	<node id="-126623" lat="61.6298000035" lon="10.0699083278">
		<tag k="fixme" v="consider natural=peak for the most distinct mountains in the district" />
		<tag k="name" v="Trabelifjellet" />
		<tag k="natural" v="hill" />
		<tag k="place" v="locality" />
		<tag k="ssr:stedsnr" v="860788" />
	</node>
	<node id="-126621" lat="61.5495500028" lon="10.4371138916">
		<tag k="name" v="Dokka" />
		<tag k="natural" v="valley" />
		<tag k="place" v="locality" />
		<tag k="ssr:stedsnr" v="860277" />
	</node>
	<node id="-126613" lat="61.6069583328" lon="10.4615500003">
		<tag k="fixme" v="consider natural=peak for the most distinct mountains in the district" />
		<tag k="name" v="Rundfjellet" />
		<tag k="natural" v="hill" />
		<tag k="place" v="locality" />
		<tag k="ssr:stedsnr" v="860151" />
	</node>
	<node id="-126606" lat="61.5338861151" lon="10.5504138952">
		<tag k="fixme" v="consider natural=peak for the most distinct mountains in the district" />
		<tag k="name" v="Suleberghøgda" />
		<tag k="natural" v="hill" />
		<tag k="place" v="locality" />
		<tag k="ssr:stedsnr" v="859223" />
	</node>
	<node id="-126590" lat="61.4100638855" lon="10.0348055504">
		<tag k="fixme" v="consider natural=peak for the most distinct mountains in the district" />
		<tag k="name" v="Gråkampen" />
		<tag k="natural" v="hill" />
		<tag k="place" v="locality" />
		<tag k="ssr:stedsnr" v="857911" />
	</node>
	<node id="-126586" lat="61.3843194483" lon="10.1765833249">
		<tag k="fixme" v="consider natural=peak for the most distinct mountains in the district" />
		<tag k="name" v="Linvikknappen" />
		<tag k="natural" v="hill" />
		<tag k="place" v="locality" />
		<tag k="ssr:stedsnr" v="857884" />
	</node>
	<node id="-126572" lat="61.5237416642" lon="10.6028472229">
		<tag k="name" v="Svartdalen" />
		<tag k="natural" v="valley" />
		<tag k="place" v="locality" />
		<tag k="ssr:stedsnr" v="828990" />
	</node>
	<node id="-126568" lat="61.493583332" lon="10.5700888886">
		<tag k="name" v="Svartberget" />
		<tag k="natural" v="hill" />
		<tag k="place" v="locality" />
		<tag k="ssr:stedsnr" v="828939" />
	</node>
	<node id="-126562" lat="61.6079944431" lon="10.5838305465">
		<tag k="name" v="Måsålia" />
		<tag k="natural" v="slope" />
		<tag k="place" v="locality" />
		<tag k="ssr:stedsnr" v="828797" />
	</node>
	<node id="-126561" lat="61.425477777" lon="10.1392222251">
		<tag k="name" v="Knapplia" />
		<tag k="natural" v="slope" />
		<tag k="place" v="locality" />
		<tag k="ssr:stedsnr" v="828759" />
	</node>
	<node id="-126559" lat="61.5676194403" lon="10.3078472274">
		<tag k="name" v="Bromsdalen" />
		<tag k="natural" v="valley" />
		<tag k="place" v="locality" />
		<tag k="ssr:stedsnr" v="828707" />
	</node>
	<node id="-126555" lat="61.4908583375" lon="10.3543333287">
		<tag k="name" v="Røydokka" />
		<tag k="natural" v="valley" />
		<tag k="place" v="locality" />
		<tag k="ssr:stedsnr" v="828681" />
	</node>
	<node id="-126551" lat="61.4391055517" lon="10.4541972194">
		<tag k="name" v="Tannsbakken" />
		<tag k="natural" v="slope" />
		<tag k="place" v="locality" />
		<tag k="ssr:stedsnr" v="828574" />
	</node>
	<node id="-126548" lat="61.5872555584" lon="10.2932555549">
		<tag k="fixme" v="consider natural=peak for the most distinct mountains in the district" />
		<tag k="name" v="Skardfjellet" />
		<tag k="natural" v="hill" />
		<tag k="place" v="locality" />
		<tag k="ssr:stedsnr" v="828465" />
	</node>
	<node id="-126540" lat="61.4250333334" lon="10.254908339">
		<tag k="name" v="Gunhildslaret" />
		<tag k="natural" v="valley" />
		<tag k="place" v="locality" />
		<tag k="ssr:stedsnr" v="828296" />
	</node>
	<node id="-126538" lat="61.4286055534" lon="10.3511888979">
		<tag k="name" v="Holokampen" />
		<tag k="natural" v="hill" />
		<tag k="place" v="locality" />
		<tag k="ssr:stedsnr" v="828279" />
	</node>
	<node id="-126536" lat="61.4004638903" lon="10.3576638857">
		<tag k="name" v="Okshaugen" />
		<tag k="natural" v="hill" />
		<tag k="place" v="locality" />
		<tag k="ssr:stedsnr" v="828260" />
	</node>
	<node id="-126534" lat="61.4442305544" lon="10.2654361021">
		<tag k="name" v="Kvitberget" />
		<tag k="natural" v="hill" />
		<tag k="place" v="locality" />
		<tag k="ssr:stedsnr" v="828220" />
	</node>
	<node id="-126530" lat="61.5971111074" lon="10.1693972273">
		<tag k="name" v="Kollaløypa" />
		<tag k="natural" v="hill" />
		<tag k="place" v="locality" />
		<tag k="ssr:stedsnr" v="828108" />
	</node>
	<node id="-126529" lat="61.5844611141" lon="10.2287666703">
		<tag k="name" v="Bukkeløpet" />
		<tag k="natural" v="valley" />
		<tag k="place" v="locality" />
		<tag k="ssr:stedsnr" v="828057" />
	</node>
	<node id="-126528" lat="61.5895861095" lon="10.1726194424">
		<tag k="name" v="Nordstulslia" />
		<tag k="natural" v="slope" />
		<tag k="place" v="locality" />
		<tag k="ssr:stedsnr" v="828003" />
	</node>
	<node id="-126527" lat="61.5848583329" lon="10.132108327">
		<tag k="name" v="Dippeldalen" />
		<tag k="natural" v="valley" />
		<tag k="place" v="locality" />
		<tag k="ssr:stedsnr" v="828001" />
	</node>
	<node id="-126523" lat="61.5717388908" lon="10.6626805514">
		<tag k="name" v="Tjørnhaugen" />
		<tag k="natural" v="hill" />
		<tag k="place" v="locality" />
		<tag k="ssr:stedsnr" v="813477" />
	</node>
	<node id="-126521" lat="61.6531805555" lon="10.0958638971">
		<tag k="name" v="Buhaugen" />
		<tag k="natural" v="hill" />
		<tag k="place" v="locality" />
		<tag k="ssr:stedsnr" v="808299" />
	</node>
	<node id="-126520" lat="61.6572083369" lon="10.1385805603">
		<tag k="alt_name" v="Fjellia, vesle" />
		<tag k="name" v="Veslefjellia" />
		<tag k="natural" v="slope" />
		<tag k="place" v="locality" />
		<tag k="ssr:stedsnr" v="808298" />
	</node>
	<node id="-126510" lat="61.699244446" lon="10.2870166718">
		<tag k="alt_name" v="Grøtørhøgda, vesle" />
		<tag k="fixme" v="consider natural=peak for the most distinct mountains in the district" />
		<tag k="name" v="Vesle Grøtørhøgda" />
		<tag k="natural" v="hill" />
		<tag k="place" v="locality" />
		<tag k="ssr:stedsnr" v="799979" />
	</node>
	<node id="-126509" lat="61.7123250035" lon="10.272691667">
		<tag k="name" v="Grøtørskardet" />
		<tag k="natural" v="valley" />
		<tag k="place" v="locality" />
		<tag k="ssr:stedsnr" v="799971" />
	</node>
	<node id="-126508" lat="61.7143138928" lon="10.2554083243">
		<tag k="fixme" v="consider natural=peak for the most distinct mountains in the district" />
		<tag k="name" v="Gråpiggen" />
		<tag k="natural" v="hill" />
		<tag k="place" v="locality" />
		<tag k="ssr:stedsnr" v="799970" />
	</node>
	<node id="-126497" lat="61.6147583357" lon="10.2927083273">
		<tag k="alt_name" v="Skinalia, store" />
		<tag k="fixme" v="consider natural=peak for the most distinct mountains in the district" />
		<tag k="name" v="Store Skinalia" />
		<tag k="natural" v="hill" />
		<tag k="place" v="locality" />
		<tag k="ssr:stedsnr" v="799801" />
	</node>
	<node id="-126495" lat="61.6030527786" lon="10.1063055615">
		<tag k="fixme" v="consider natural=peak for the most distinct mountains in the district" />
		<tag k="name" v="Forbundsfjellet" />
		<tag k="natural" v="hill" />
		<tag k="place" v="locality" />
		<tag k="ssr:stedsnr" v="799792" />
	</node>
	<node id="-126493" lat="61.5452083333" lon="10.4669611062">
		<tag k="fixme" v="consider natural=peak for the most distinct mountains in the district" />
		<tag k="name" v="Svælhøgda" />
		<tag k="natural" v="hill" />
		<tag k="place" v="locality" />
		<tag k="ssr:stedsnr" v="799256" />
	</node>
	<node id="-126490" lat="61.5849916682" lon="10.4831833249">
		<tag k="alt_name" v="Gråhøgda, nordre;Nordre Gråhøgda" />
		<tag k="fixme" v="consider natural=peak for the most distinct mountains in the district" />
		<tag k="name" v="Nørdre Gråhøgda" />
		<tag k="natural" v="hill" />
		<tag k="place" v="locality" />
		<tag k="ssr:stedsnr" v="799151" />
	</node>
	<node id="-126489" lat="61.6040666647" lon="10.6603444359">
		<tag k="fixme" v="consider natural=peak for the most distinct mountains in the district" />
		<tag k="name" v="Piggvola" />
		<tag k="natural" v="hill" />
		<tag k="place" v="locality" />
		<tag k="ssr:stedsnr" v="799139" />
	</node>
	<node id="-126486" lat="61.664163892" lon="10.3986138892">
		<tag k="alt_name" v="Hirsjøhøgda" />
		<tag k="fixme" v="consider natural=peak for the most distinct mountains in the district" />
		<tag k="name" v="Hirisjøhøgdene" />
		<tag k="natural" v="hill" />
		<tag k="place" v="locality" />
		<tag k="ssr:stedsnr" v="798156" />
	</node>
	<node id="-126481" lat="61.418005554" lon="10.1726611054">
		<tag k="name" v="Fuglleikhaugen" />
		<tag k="natural" v="hill" />
		<tag k="place" v="locality" />
		<tag k="ssr:stedsnr" v="797904" />
	</node>
	<node id="-126480" lat="61.4183916673" lon="10.3141138869">
		<tag k="fixme" v="consider natural=peak for the most distinct mountains in the district" />
		<tag k="name" v="Hjellhøgda" />
		<tag k="natural" v="hill" />
		<tag k="place" v="locality" />
		<tag k="ssr:stedsnr" v="797902" />
	</node>
	<node id="-126475" lat="61.4925749956" lon="10.5206694402">
		<tag k="alt_name" v="Trolldalen, indre" />
		<tag k="name" v="Indre Trolldalen" />
		<tag k="natural" v="valley" />
		<tag k="place" v="locality" />
		<tag k="ssr:stedsnr" v="797832" />
	</node>
	<node id="-126467" lat="61.4684999961" lon="10.0539527702">
		<tag k="name" v="Storhaugen" />
		<tag k="natural" v="hill" />
		<tag k="place" v="locality" />
		<tag k="ssr:stedsnr" v="798583" />
	</node>
	<node id="-126464" lat="61.4521583313" lon="10.2436083317">
		<tag k="name" v="Lekjesletta" />
		<tag k="place" v="locality" />
		<tag k="ssr:stedsnr" v="792290" />
	</node>
	<node id="-126460" lat="61.6791861072" lon="10.0584999978">
		<tag k="alt_name" v="Kveinndalen" />
		<tag k="name" v="Kvanndalen" />
		<tag k="natural" v="valley" />
		<tag k="place" v="locality" />
		<tag k="ssr:stedsnr" v="786876" />
	</node>
	<node id="-126459" lat="61.6728527814" lon="10.0496666706">
		<tag k="alt_name" v="Øiddvollhaugen" />
		<tag k="name" v="Oddvollhaugen" />
		<tag k="natural" v="hill" />
		<tag k="place" v="locality" />
		<tag k="ssr:stedsnr" v="786873" />
	</node>
	<node id="-126457" lat="61.5571305536" lon="10.0841361085">
		<tag k="name" v="Klovet" />
		<tag k="natural" v="slope" />
		<tag k="place" v="locality" />
		<tag k="ssr:stedsnr" v="786697" />
	</node>
	<node id="-126456" lat="61.5639361129" lon="10.1142722299">
		<tag k="fixme" v="consider natural=peak for the most distinct mountains in the district" />
		<tag k="name" v="Bølåsen" />
		<tag k="natural" v="hill" />
		<tag k="place" v="locality" />
		<tag k="ssr:stedsnr" v="786694" />
	</node>
	<node id="-126451" lat="61.667863892" lon="9.97512221836">
		<tag k="name" v="Trøstuggudalen" />
		<tag k="natural" v="valley" />
		<tag k="place" v="locality" />
		<tag k="ssr:stedsnr" v="780595" />
	</node>
	<node id="-126439" lat="61.4798666709" lon="10.1647611115">
		<tag k="alt_name" v="Hortumbakken" />
		<tag k="name" v="Hortombakken" />
		<tag k="natural" v="slope" />
		<tag k="place" v="locality" />
		<tag k="ssr:stedsnr" v="767967" />
	</node>
	<node id="-126438" lat="61.5270750018" lon="10.5634972203">
		<tag k="fixme" v="consider natural=peak for the most distinct mountains in the district" />
		<tag k="name" v="Sulubergshøgda" />
		<tag k="natural" v="hill" />
		<tag k="place" v="locality" />
		<tag k="ssr:stedsnr" v="767965" />
	</node>
	<node id="-126432" lat="61.6107166677" lon="10.5700611086">
		<tag k="name" v="Skjærdalen" />
		<tag k="natural" v="valley" />
		<tag k="place" v="locality" />
		<tag k="ssr:stedsnr" v="767824" />
	</node>
	<node id="-126431" lat="61.6015611132" lon="10.546180562">
		<tag k="name" v="Åsdalen" />
		<tag k="natural" v="valley" />
		<tag k="place" v="locality" />
		<tag k="ssr:stedsnr" v="767821" />
	</node>
	<node id="-126427" lat="61.5603083303" lon="10.2999277696">
		<tag k="name" v="Vangshaugen" />
		<tag k="natural" v="hill" />
		<tag k="place" v="locality" />
		<tag k="ssr:stedsnr" v="767721" />
	</node>
	<node id="-126426" lat="61.5176194482" lon="10.0620777813">
		<tag k="name" v="Heggedalen" />
		<tag k="natural" v="valley" />
		<tag k="place" v="locality" />
		<tag k="ssr:stedsnr" v="767718" />
	</node>
	<node id="-126425" lat="61.5129138854" lon="10.0782222143">
		<tag k="name" v="Bjønndalen" />
		<tag k="natural" v="valley" />
		<tag k="place" v="locality" />
		<tag k="ssr:stedsnr" v="767719" />
	</node>
	<node id="-126422" lat="61.5052138879" lon="10.286986115">
		<tag k="name" v="Stavdalen" />
		<tag k="natural" v="valley" />
		<tag k="place" v="locality" />
		<tag k="ssr:stedsnr" v="767678" />
	</node>
	<node id="-126416" lat="61.4563111125" lon="10.4613805626">
		<tag k="name" v="Tristakksletta" />
		<tag k="place" v="locality" />
		<tag k="ssr:stedsnr" v="767578" />
	</node>
	<node id="-126413" lat="61.4124638933" lon="10.3652944482">
		<tag k="alt_name" v="Veslerøillberget" />
		<tag k="name" v="Veslerollberget" />
		<tag k="natural" v="hill" />
		<tag k="place" v="locality" />
		<tag k="ssr:stedsnr" v="767561" />
	</node>
	<node id="-126411" lat="61.6819083354" lon="10.1210388883">
		<tag k="name" v="Bøllia" />
		<tag k="natural" v="slope" />
		<tag k="place" v="locality" />
		<tag k="ssr:stedsnr" v="767460" />
	</node>
	<node id="-126407" lat="61.4126222213" lon="10.3074861034">
		<tag k="name" v="Limhusbakkan" />
		<tag k="natural" v="slope" />
		<tag k="place" v="locality" />
		<tag k="ssr:stedsnr" v="767289" />
	</node>
	<node id="-126400" lat="61.5881055547" lon="10.2340944486">
		<tag k="name" v="Grådalsløpet" />
		<tag k="natural" v="valley" />
		<tag k="place" v="locality" />
		<tag k="ssr:stedsnr" v="767062" />
	</node>
	<node id="-126399" lat="61.5912583327" lon="10.1821777805">
		<tag k="fixme" v="consider natural=peak for the most distinct mountains in the district" />
		<tag k="name" v="Slettkollen" />
		<tag k="natural" v="hill" />
		<tag k="place" v="locality" />
		<tag k="ssr:stedsnr" v="767054" />
	</node>
	<node id="-126398" lat="61.5680805522" lon="10.1497416694">
		<tag k="name" v="Gluggedalen" />
		<tag k="natural" v="valley" />
		<tag k="place" v="locality" />
		<tag k="ssr:stedsnr" v="767004" />
	</node>
	<node id="-126397" lat="61.6498194484" lon="10.0758277872">
		<tag k="name" v="Vesle Granhaugen" />
		<tag k="natural" v="hill" />
		<tag k="place" v="locality" />
		<tag k="ssr:stedsnr" v="766829" />
	</node>
	<node id="-126390" lat="61.6700666628" lon="10.0064527861">
		<tag k="name" v="Veslslavollkampen" />
		<tag k="natural" v="hill" />
		<tag k="place" v="locality" />
		<tag k="ssr:stedsnr" v="754995" />
	</node>
	<node id="-126387" lat="61.6277277747" lon="10.1589138807">
		<tag k="name" v="Mytunga" />
		<tag k="natural" v="valley" />
		<tag k="place" v="locality" />
		<tag k="ssr:stedsnr" v="747267" />
	</node>
	<node id="-126385" lat="61.6615166676" lon="10.1497916616">
		<tag k="fixme" v="consider natural=peak for the most distinct mountains in the district" />
		<tag k="name" v="Veslefjellet" />
		<tag k="natural" v="hill" />
		<tag k="place" v="locality" />
		<tag k="ssr:stedsnr" v="738985" />
	</node>
	<node id="-126383" lat="61.7154138919" lon="10.2175416578">
		<tag k="fixme" v="consider natural=peak for the most distinct mountains in the district" />
		<tag k="name" v="Veslmuen" />
		<tag k="natural" v="hill" />
		<tag k="place" v="locality" />
		<tag k="ssr:stedsnr" v="738966" />
	</node>
	<node id="-126375" lat="61.5836972256" lon="10.0887805633">
		<tag k="name" v="Åborsjøkampen" />
		<tag k="natural" v="hill" />
		<tag k="place" v="locality" />
		<tag k="ssr:stedsnr" v="738813" />
	</node>
	<node id="-126371" lat="61.6030916675" lon="10.3278111074">
		<tag k="name" v="Kvannslåhøgda" />
		<tag k="natural" v="hill" />
		<tag k="place" v="locality" />
		<tag k="ssr:stedsnr" v="738783" />
	</node>
	<node id="-126364" lat="61.591011109" lon="10.3681055558">
		<tag k="fixme" v="consider natural=peak for the most distinct mountains in the district" />
		<tag k="name" v="Jammerdalshøgda" />
		<tag k="natural" v="hill" />
		<tag k="place" v="locality" />
		<tag k="ssr:stedsnr" v="738140" />
	</node>
	<node id="-126360" lat="61.427174999" lon="10.0357944495">
		<tag k="fixme" v="consider natural=peak for the most distinct mountains in the district" />
		<tag k="name" v="Høghaugen" />
		<tag k="natural" v="hill" />
		<tag k="place" v="locality" />
		<tag k="ssr:stedsnr" v="736915" />
	</node>
	<node id="-126352" lat="61.3979388893" lon="10.4096805632">
		<tag k="alt_name" v="Trehaugene" />
		<tag k="name" v="Trehaugane" />
		<tag k="natural" v="hill" />
		<tag k="place" v="locality" />
		<tag k="ssr:stedsnr" v="736314" />
	</node>
	<node id="-126351" lat="61.4534611082" lon="10.246438898">
		<tag k="name" v="Kolbotnmyra" />
		<tag k="place" v="locality" />
		<tag k="ssr:stedsnr" v="731264" />
	</node>
	<node id="-126340" lat="61.5236833372" lon="10.1403166628">
		<tag k="name" v="Åmillom" />
		<tag k="place" v="locality" />
		<tag k="ssr:stedsnr" v="725124" />
	</node>
	<node id="-126338" lat="61.4589138909" lon="10.010491671">
		<tag k="name" v="Finnstillhola" />
		<tag k="place" v="locality" />
		<tag k="ssr:stedsnr" v="720343" />
	</node>
	<node id="-126334" lat="61.5496361074" lon="10.5668250011">
		<tag k="fixme" v="consider natural=peak for the most distinct mountains in the district" />
		<tag k="name" v="Søre Kvia" />
		<tag k="natural" v="hill" />
		<tag k="place" v="locality" />
		<tag k="ssr:stedsnr" v="718265" />
	</node>
	<node id="-126332" lat="61.6232194479" lon="10.6340027851">
		<tag k="name" v="Bjøråfløyet" />
		<tag k="place" v="locality" />
		<tag k="ssr:stedsnr" v="708797" />
	</node>
	<node id="-126331" lat="61.4357361074" lon="10.4100777834">
		<tag k="name" v="Furuhaugen" />
		<tag k="natural" v="hill" />
		<tag k="place" v="locality" />
		<tag k="ssr:stedsnr" v="708636" />
	</node>
	<node id="-126325" lat="61.5147888932" lon="10.6342249957">
		<tag k="name" v="Bølglupen" />
		<tag k="natural" v="valley" />
		<tag k="place" v="locality" />
		<tag k="ssr:stedsnr" v="706981" />
	</node>
	<node id="-126324" lat="61.506374999" lon="10.1937555591">
		<tag k="name" v="Brandstadkampen" />
		<tag k="natural" v="hill" />
		<tag k="place" v="locality" />
		<tag k="ssr:stedsnr" v="706979" />
	</node>
	<node id="-126318" lat="61.5145027734" lon="10.1659444394">
		<tag k="name" v="Grovbakken" />
		<tag k="natural" v="slope" />
		<tag k="place" v="locality" />
		<tag k="ssr:stedsnr" v="706916" />
	</node>
	<node id="-126317" lat="61.6257166678" lon="10.0837416622">
		<tag k="name" v="Skaret" />
		<tag k="natural" v="valley" />
		<tag k="place" v="locality" />
		<tag k="ssr:stedsnr" v="706843" />
	</node>
	<node id="-126315" lat="61.6189111127" lon="10.609227776">
		<tag k="alt_name" v="Kveinnbekkbrote" />
		<tag k="name" v="Kvernbekkbrotet" />
		<tag k="natural" v="slope" />
		<tag k="place" v="locality" />
		<tag k="ssr:stedsnr" v="706782" />
	</node>
	<node id="-126314" lat="61.5650666652" lon="10.6151999916">
		<tag k="name" v="Ormdalen" />
		<tag k="natural" v="valley" />
		<tag k="place" v="locality" />
		<tag k="ssr:stedsnr" v="706765" />
	</node>
	<node id="-126309" lat="61.5488083331" lon="10.3096777686">
		<tag k="name" v="Storstulshaugen" />
		<tag k="natural" v="hill" />
		<tag k="place" v="locality" />
		<tag k="ssr:stedsnr" v="706671" />
	</node>
	<node id="-126308" lat="61.5945472205" lon="10.0644555496">
		<tag k="name" v="Leikarsletta" />
		<tag k="place" v="locality" />
		<tag k="ssr:stedsnr" v="706652" />
	</node>
	<node id="-126299" lat="61.6114361077" lon="10.1674472276">
		<tag k="name" v="Storskriua" />
		<tag k="natural" v="slope" />
		<tag k="place" v="locality" />
		<tag k="ssr:stedsnr" v="706366" />
	</node>
	<node id="-126298" lat="61.4754000027" lon="10.3463916598">
		<tag k="name" v="Breidalen" />
		<tag k="natural" v="valley" />
		<tag k="place" v="locality" />
		<tag k="ssr:stedsnr" v="706325" />
	</node>
	<node id="-126295" lat="61.4180666687" lon="10.3208055539">
		<tag k="name" v="Maurhaugskaret" />
		<tag k="natural" v="valley" />
		<tag k="place" v="locality" />
		<tag k="ssr:stedsnr" v="706293" />
	</node>
	<node id="-126288" lat="61.5673861129" lon="10.1957666756">
		<tag k="name" v="Stulskjølen" />
		<tag k="natural" v="hill" />
		<tag k="place" v="locality" />
		<tag k="ssr:stedsnr" v="706006" />
	</node>
	<node id="-126287" lat="61.5610138847" lon="10.1357416717">
		<tag k="name" v="Hammerhjellshaugen" />
		<tag k="natural" v="hill" />
		<tag k="place" v="locality" />
		<tag k="ssr:stedsnr" v="706004" />
	</node>
	<node id="-126286" lat="61.5632944478" lon="10.1554166578">
		<tag k="alt_name" v="Kveinnholet" />
		<tag k="name" v="Kvannholet" />
		<tag k="natural" v="valley" />
		<tag k="place" v="locality" />
		<tag k="ssr:stedsnr" v="706005" />
	</node>
	<node id="-126284" lat="61.7125638906" lon="10.1125027743">
		<tag k="fixme" v="consider natural=peak for the most distinct mountains in the district" />
		<tag k="name" v="Midtre Bølhøgda" />
		<tag k="natural" v="hill" />
		<tag k="place" v="locality" />
		<tag k="ssr:stedsnr" v="694948" />
	</node>
	<node id="-126283" lat="61.4346222252" lon="10.4903444533">
		<tag k="name" v="Goppollhaugen" />
		<tag k="natural" v="hill" />
		<tag k="place" v="locality" />
		<tag k="ssr:stedsnr" v="693788" />
	</node>
	<node id="-126279" lat="61.7097333321" lon="10.2378277843">
		<tag k="fixme" v="consider natural=peak for the most distinct mountains in the district" />
		<tag k="loc_name" v="Gråvola" />
		<tag k="name" v="Gråvorden" />
		<tag k="natural" v="hill" />
		<tag k="place" v="locality" />
		<tag k="ssr:stedsnr" v="678938" />
	</node>
	<node id="-126277" lat="61.734605552" lon="10.1219250077">
		<tag k="fixme" v="consider natural=peak for the most distinct mountains in the district" />
		<tag k="name" v="Ramstindan" />
		<tag k="natural" v="hill" />
		<tag k="place" v="locality" />
		<tag k="ssr:stedsnr" v="678923" />
	</node>
	<node id="-126276" lat="61.5636611156" lon="10.3346527787">
		<tag k="fixme" v="consider natural=peak for the most distinct mountains in the district" />
		<tag k="name" v="Øksendalfjellet" />
		<tag k="natural" v="hill" />
		<tag k="place" v="locality" />
		<tag k="ssr:stedsnr" v="678800" />
	</node>
	<node id="-126272" lat="61.5387267306" lon="10.4980592056">
		<tag k="alt_name" v="Breidjordan;Breidjordet;Breijordet" />
		<tag k="name" v="Breijordan" />
		<tag k="place" v="locality" />
		<tag k="ssr:stedsnr" v="678262" />
	</node>
	<node id="-126270" lat="61.707636113" lon="10.5185250067">
		<tag k="name" v="Brennkletten" />
		<tag k="natural" v="hill" />
		<tag k="place" v="locality" />
		<tag k="ssr:stedsnr" v="678192" />
	</node>
	<node id="-126266" lat="61.649202775" lon="10.0358805634">
		<tag k="fixme" v="consider natural=peak for the most distinct mountains in the district" />
		<tag k="name" v="Dynjefjellet" />
		<tag k="natural" v="hill" />
		<tag k="place" v="locality" />
		<tag k="ssr:stedsnr" v="677997" />
	</node>
	<node id="-126265" lat="61.6528027796" lon="10.060544448">
		<tag k="alt_name" v="Granhaugene" />
		<tag k="name" v="Granhaugen" />
		<tag k="natural" v="hill" />
		<tag k="place" v="locality" />
		<tag k="ssr:stedsnr" v="677995" />
	</node>
	<node id="-126264" lat="61.6815916703" lon="10.0804861046">
		<tag k="alt_name" v="Flaksjølihøgdene" />
		<tag k="name" v="Flaksjølihøgda" />
		<tag k="natural" v="hill" />
		<tag k="place" v="locality" />
		<tag k="ssr:stedsnr" v="677986" />
	</node>
	<node id="-126260" lat="61.5467583303" lon="10.2693916702">
		<tag k="name" v="Djupdalen" />
		<tag k="natural" v="valley" />
		<tag k="place" v="locality" />
		<tag k="ssr:stedsnr" v="677825" />
	</node>
	<node id="-126255" lat="61.6253999973" lon="10.1203638973">
		<tag k="fixme" v="consider natural=peak for the most distinct mountains in the district" />
		<tag k="name" v="Kyrkjegardsfjellet" />
		<tag k="natural" v="hill" />
		<tag k="place" v="locality" />
		<tag k="ssr:stedsnr" v="677759" />
	</node>
	<node id="-126253" lat="61.5292777781" lon="10.4274305624">
		<tag k="fixme" v="consider natural=peak for the most distinct mountains in the district" />
		<tag k="name" v="Veslefjellet" />
		<tag k="natural" v="hill" />
		<tag k="place" v="locality" />
		<tag k="ssr:stedsnr" v="677209" />
	</node>
	<node id="-126251" lat="61.6613333295" lon="10.5943249927">
		<tag k="fixme" v="consider natural=peak for the most distinct mountains in the district" />
		<tag k="name" v="Kletten" />
		<tag k="natural" v="hill" />
		<tag k="place" v="locality" />
		<tag k="ssr:stedsnr" v="677166" />
	</node>
	<node id="-126249" lat="61.6324750041" lon="10.5567749919">
		<tag k="alt_name" v="Rundheillknappen" />
		<tag k="name" v="Rundhallknappen" />
		<tag k="natural" v="hill" />
		<tag k="place" v="locality" />
		<tag k="ssr:stedsnr" v="677148" />
	</node>
	<node id="-126248" lat="61.6406222248" lon="10.6429500008">
		<tag k="alt_name" v="Breinnfjellet" />
		<tag k="fixme" v="consider natural=peak for the most distinct mountains in the district" />
		<tag k="name" v="Brennfjellet" />
		<tag k="natural" v="hill" />
		<tag k="place" v="locality" />
		<tag k="ssr:stedsnr" v="677144" />
	</node>
	<node id="-126243" lat="61.4965499979" lon="10.2880111179">
		<tag k="fixme" v="consider natural=peak for the most distinct mountains in the district" />
		<tag k="name" v="Skottåsen" />
		<tag k="natural" v="hill" />
		<tag k="place" v="locality" />
		<tag k="ssr:stedsnr" v="676530" />
	</node>
	<node id="-126242" lat="61.4614555596" lon="10.5248333344">
		<tag k="name" v="Lassehaugan" />
		<tag k="natural" v="hill" />
		<tag k="place" v="locality" />
		<tag k="ssr:stedsnr" v="676364" />
	</node>
	<node id="-126231" lat="61.4463166651" lon="10.2403972214">
		<tag k="fixme" v="consider natural=peak for the most distinct mountains in the district" />
		<tag k="name" v="Oppsalåsen" />
		<tag k="natural" v="hill" />
		<tag k="place" v="locality" />
		<tag k="ssr:stedsnr" v="675601" />
	</node>
	<node id="-126228" lat="61.4553833339" lon="10.281511117">
		<tag k="name" v="Vesle Djupdalen" />
		<tag k="natural" v="valley" />
		<tag k="place" v="locality" />
		<tag k="ssr:stedsnr" v="670314" />
	</node>
	<node id="-126219" lat="61.4112722178" lon="10.1356305576">
		<tag k="name" v="Svarttjønnhøgda" />
		<tag k="natural" v="hill" />
		<tag k="place" v="locality" />
		<tag k="ssr:stedsnr" v="664769" />
	</node>
	<node id="-126210" lat="61.6848916624" lon="10.4983666698">
		<tag k="fixme" v="consider natural=peak for the most distinct mountains in the district" />
		<tag k="name" v="Øvre Skjerdkletten" />
		<tag k="natural" v="hill" />
		<tag k="place" v="locality" />
		<tag k="ssr:stedsnr" v="647848" />
	</node>
	<node id="-126204" lat="61.4943694465" lon="10.1802333242">
		<tag k="name" v="Høgkleiva" />
		<tag k="natural" v="hill" />
		<tag k="place" v="locality" />
		<tag k="ssr:stedsnr" v="645965" />
	</node>
	<node id="-126203" lat="61.4788583349" lon="10.6297583247">
		<tag k="name" v="Eldådalen" />
		<tag k="natural" v="valley" />
		<tag k="place" v="locality" />
		<tag k="ssr:stedsnr" v="645952" />
	</node>
	<node id="-126202" lat="61.4681833356" lon="10.6374249932">
		<tag k="alt_name" v="Gamlelegeret" />
		<tag k="name" v="Gamlelægeret" />
		<tag k="place" v="locality" />
		<tag k="ssr:stedsnr" v="645953" />
	</node>
	<node id="-126198" lat="61.6342944464" lon="10.0373222191">
		<tag k="name" v="Bergstulshaugene" />
		<tag k="natural" v="hill" />
		<tag k="place" v="locality" />
		<tag k="ssr:stedsnr" v="645824" />
	</node>
	<node id="-126197" lat="61.4357583373" lon="10.2073916749">
		<tag k="fixme" v="consider natural=peak for the most distinct mountains in the district" />
		<tag k="name" v="Vardberget" />
		<tag k="natural" v="hill" />
		<tag k="place" v="locality" />
		<tag k="ssr:stedsnr" v="645784" />
	</node>
	<node id="-126196" lat="61.4301999985" lon="10.1296166602">
		<tag k="name" v="Setan" />
		<tag k="place" v="locality" />
		<tag k="ssr:stedsnr" v="645778" />
	</node>
	<node id="-126195" lat="61.4461083367" lon="10.2328472141">
		<tag k="alt_name" v="Lundhovda" />
		<tag k="name" v="Lundhovde" />
		<tag k="natural" v="slope" />
		<tag k="place" v="locality" />
		<tag k="ssr:stedsnr" v="645777" />
	</node>
	<node id="-126188" lat="61.4669861154" lon="10.0765638891">
		<tag k="name" v="Høgåsen" />
		<tag k="natural" v="hill" />
		<tag k="place" v="locality" />
		<tag k="ssr:stedsnr" v="645698" />
	</node>
	<node id="-126185" lat="61.5465583338" lon="10.3165333326">
		<tag k="name" v="Dalbakkhaugen" />
		<tag k="natural" v="hill" />
		<tag k="place" v="locality" />
		<tag k="ssr:stedsnr" v="645674" />
	</node>
	<node id="-126180" lat="61.3997722224" lon="10.4368277724">
		<tag k="name" v="Knappslåberget" />
		<tag k="natural" v="hill" />
		<tag k="place" v="locality" />
		<tag k="ssr:stedsnr" v="645536" />
	</node>
	<node id="-126175" lat="61.6175638868" lon="10.1694277739">
		<tag k="name" v="Simenstugudalen" />
		<tag k="natural" v="valley" />
		<tag k="place" v="locality" />
		<tag k="ssr:stedsnr" v="645377" />
	</node>
	<node id="-126171" lat="61.4124027764" lon="10.2558444519">
		<tag k="name" v="Leirdalen" />
		<tag k="natural" v="valley" />
		<tag k="place" v="locality" />
		<tag k="ssr:stedsnr" v="645288" />
	</node>
	<node id="-126170" lat="61.4178527813" lon="10.2623388832">
		<tag k="name" v="Betabolet" />
		<tag k="place" v="locality" />
		<tag k="ssr:stedsnr" v="645286" />
	</node>
	<node id="-126167" lat="61.4196388926" lon="10.3467055532">
		<tag k="name" v="Steinberget" />
		<tag k="natural" v="hill" />
		<tag k="place" v="locality" />
		<tag k="ssr:stedsnr" v="645275" />
	</node>
	<node id="-126163" lat="61.5772055571" lon="10.2268861195">
		<tag k="name" v="Måssåstuguranden" />
		<tag k="natural" v="hill" />
		<tag k="place" v="locality" />
		<tag k="ssr:stedsnr" v="645061" />
	</node>
	<node id="-126162" lat="61.5638999999" lon="10.1185055484">
		<tag k="name" v="Bølåsen" />
		<tag k="natural" v="hill" />
		<tag k="place" v="locality" />
		<tag k="ssr:stedsnr" v="645004" />
	</node>
	<node id="-126161" lat="61.4403027806" lon="10.0405861101">
		<tag k="name" v="Svinslålia" />
		<tag k="natural" v="slope" />
		<tag k="place" v="locality" />
		<tag k="ssr:stedsnr" v="635236" />
	</node>
	<node id="-126160" lat="61.6035722255" lon="10.349330553">
		<tag k="name" v="Ringebufjellet" />
		<tag k="natural" v="mountain_range" />
		<tag k="ssr:stedsnr" v="634901" />
	</node>
	<node id="-126159" lat="61.7026666695" lon="10.0455638966">
		<tag k="name" v="Alberthaugen" />
		<tag k="natural" v="hill" />
		<tag k="place" v="locality" />
		<tag k="ssr:stedsnr" v="632968" />
	</node>
	<node id="-126156" lat="61.7179277765" lon="10.2089361139">
		<tag k="name" v="Mumillom" />
		<tag k="natural" v="valley" />
		<tag k="place" v="locality" />
		<tag k="ssr:stedsnr" v="626480" />
	</node>
	<node id="-126155" lat="61.7030333353" lon="10.0070138831">
		<tag k="name" v="Gråurda" />
		<tag k="natural" v="hill" />
		<tag k="place" v="locality" />
		<tag k="ssr:stedsnr" v="626479" />
	</node>
	<node id="-126154" lat="61.5918222221" lon="10.0855027864">
		<tag k="name" v="Vangene" />
		<tag k="place" v="locality" />
		<tag k="ssr:stedsnr" v="626314" />
	</node>
	<node id="-126152" lat="61.5856861118" lon="10.2011055613">
		<tag k="name" v="Kollen" />
		<tag k="natural" v="hill" />
		<tag k="place" v="locality" />
		<tag k="ssr:stedsnr" v="617809" />
	</node>
	<node id="-126151" lat="61.5786666642" lon="10.3001166639">
		<tag k="name" v="Gudbrandshaugen" />
		<tag k="natural" v="hill" />
		<tag k="place" v="locality" />
		<tag k="ssr:stedsnr" v="617801" />
	</node>
	<node id="-126150" lat="61.5555027778" lon="10.6144722316">
		<tag k="fixme" v="consider natural=peak for the most distinct mountains in the district" />
		<tag k="name" v="Ormhugu" />
		<tag k="natural" v="hill" />
		<tag k="place" v="locality" />
		<tag k="ssr:stedsnr" v="617272" />
	</node>
	<node id="-126149" lat="61.7293638847" lon="10.5703305543">
		<tag k="fixme" v="multiple name tags, choose one and add the other to alt_name; consider natural=peak for the most distinct mountains in the district" />
		<tag k="name" v="Midtkletten;Storkletten" />
		<tag k="natural" v="hill" />
		<tag k="place" v="locality" />
		<tag k="ssr:stedsnr" v="617219" />
	</node>
	<node id="-126146" lat="61.5813861135" lon="10.5631055557">
		<tag k="fixme" v="consider natural=peak for the most distinct mountains in the district" />
		<tag k="name" v="Sauvola" />
		<tag k="natural" v="hill" />
		<tag k="place" v="locality" />
		<tag k="ssr:stedsnr" v="617166" />
	</node>
	<node id="-126143" lat="61.6448638887" lon="10.0504194365">
		<tag k="name" v="Nysæterkampen" />
		<tag k="natural" v="hill" />
		<tag k="place" v="locality" />
		<tag k="ssr:stedsnr" v="616997" />
	</node>
	<node id="-126139" lat="61.5386222213" lon="10.1948611176">
		<tag k="fixme" v="consider natural=peak for the most distinct mountains in the district" />
		<tag k="name" v="Strutsberget" />
		<tag k="natural" v="hill" />
		<tag k="old_name" v="Stussberget;Strussberget;Strusberg" />
		<tag k="place" v="locality" />
		<tag k="ssr:stedsnr" v="616857" />
	</node>
	<node id="-126131" lat="61.4317555525" lon="10.0083388821">
		<tag k="alt_name" v="Skarvbergene" />
		<tag k="fixme" v="consider natural=peak for the most distinct mountains in the district" />
		<tag k="name" v="Skarvberga" />
		<tag k="natural" v="hill" />
		<tag k="place" v="locality" />
		<tag k="ssr:stedsnr" v="615930" />
	</node>
	<node id="-126130" lat="61.4246083374" lon="10.2607527773">
		<tag k="fixme" v="consider natural=peak for the most distinct mountains in the district" />
		<tag k="name" v="Korstadkampen" />
		<tag k="natural" v="hill" />
		<tag k="place" v="locality" />
		<tag k="ssr:stedsnr" v="615915" />
	</node>
	<node id="-126128" lat="61.4936972233" lon="10.4266083253">
		<tag k="fixme" v="consider natural=peak for the most distinct mountains in the district" />
		<tag k="name" v="Høgåsen" />
		<tag k="natural" v="hill" />
		<tag k="place" v="locality" />
		<tag k="ssr:stedsnr" v="615806" />
	</node>
	<node id="-126127" lat="61.4929888917" lon="10.586205556">
		<tag k="fixme" v="consider natural=peak for the most distinct mountains in the district" />
		<tag k="name" v="Raudfjellet" />
		<tag k="natural" v="hill" />
		<tag k="place" v="locality" />
		<tag k="ssr:stedsnr" v="615804" />
	</node>
	<node id="-126121" lat="61.4699083337" lon="10.6172500004">
		<tag k="fixme" v="multiple name tags, choose one and add the other to alt_name" />
		<tag k="loc_name" v="Geilbupiggen" />
		<tag k="name" v="Bråstadvarden;Hjellbupiggen" />
		<tag k="natural" v="hill" />
		<tag k="place" v="locality" />
		<tag k="ssr:stedsnr" v="615332" />
	</node>
	<node id="-126101" lat="61.6824305556" lon="9.97724445365">
		<tag k="name" v="Kleiva" />
		<tag k="natural" v="slope" />
		<tag k="place" v="locality" />
		<tag k="ssr:stedsnr" v="598665" />
	</node>
	<node id="-126094" lat="61.6892277773" lon="10.5709972208">
		<tag k="name" v="Myssmøregga" />
		<tag k="natural" v="slope" />
		<tag k="place" v="locality" />
		<tag k="ssr:stedsnr" v="586834" />
	</node>
	<node id="-126092" lat="61.458141668" lon="10.5831638975">
		<tag k="name" v="Tromsdalen" />
		<tag k="natural" v="valley" />
		<tag k="place" v="locality" />
		<tag k="ssr:stedsnr" v="586199" />
	</node>
	<node id="-126086" lat="61.5724333368" lon="10.2429972189">
		<tag k="name" v="Karibrenna" />
		<tag k="natural" v="hill" />
		<tag k="place" v="locality" />
		<tag k="ssr:stedsnr" v="585449" />
	</node>
	<node id="-126083" lat="61.569036107" lon="10.209588893">
		<tag k="name" v="Svabakken" />
		<tag k="natural" v="slope" />
		<tag k="place" v="locality" />
		<tag k="ssr:stedsnr" v="585387" />
	</node>
	<node id="-126079" lat="61.5511750034" lon="10.1309416578">
		<tag k="name" v="Høystadlia" />
		<tag k="natural" v="slope" />
		<tag k="place" v="locality" />
		<tag k="ssr:stedsnr" v="585199" />
	</node>
	<node id="-126077" lat="61.612547226" lon="10.1968638913">
		<tag k="name" v="Rundhaugen" />
		<tag k="natural" v="hill" />
		<tag k="place" v="locality" />
		<tag k="ssr:stedsnr" v="585079" />
	</node>
	<node id="-126075" lat="61.4876472265" lon="10.2197138856">
		<tag k="name" v="Tjønndalen" />
		<tag k="natural" v="valley" />
		<tag k="place" v="locality" />
		<tag k="ssr:stedsnr" v="585000" />
	</node>
	<node id="-126068" lat="61.4258805559" lon="10.126944443">
		<tag k="name" v="Tunga" />
		<tag k="natural" v="slope" />
		<tag k="place" v="locality" />
		<tag k="ssr:stedsnr" v="584807" />
	</node>
	<node id="-126062" lat="61.5649055538" lon="10.3008083269">
		<tag k="name" v="Stugguhaugen" />
		<tag k="natural" v="hill" />
		<tag k="place" v="locality" />
		<tag k="ssr:stedsnr" v="584761" />
	</node>
	<node id="-126056" lat="61.5828472219" lon="10.0762444493">
		<tag k="name" v="Haugstadlia" />
		<tag k="natural" v="slope" />
		<tag k="place" v="locality" />
		<tag k="ssr:stedsnr" v="584692" />
	</node>
	<node id="-126052" lat="61.4531833345" lon="10.4681749977">
		<tag k="name" v="Skarvåsene" />
		<tag k="place" v="locality" />
		<tag k="ssr:stedsnr" v="584620" />
	</node>
	<node id="-126051" lat="61.4858111107" lon="10.4490472261">
		<tag k="name" v="Grautskaret" />
		<tag k="natural" v="valley" />
		<tag k="place" v="locality" />
		<tag k="ssr:stedsnr" v="584616" />
	</node>
	<node id="-126049" lat="61.4106055543" lon="10.0209361149">
		<tag k="name" v="Tålåberget" />
		<tag k="natural" v="hill" />
		<tag k="place" v="locality" />
		<tag k="ssr:stedsnr" v="584569" />
	</node>
	<node id="-126048" lat="61.5954194464" lon="10.156808325">
		<tag k="name" v="Ingridholet" />
		<tag k="natural" v="valley" />
		<tag k="place" v="locality" />
		<tag k="ssr:stedsnr" v="584116" />
	</node>
	<node id="-126046" lat="61.4356111081" lon="10.0892999991">
		<tag k="fixme" v="consider natural=peak for the most distinct mountains in the district" />
		<tag k="name" v="Åsendene" />
		<tag k="natural" v="hill" />
		<tag k="place" v="locality" />
		<tag k="ssr:stedsnr" v="574068" />
	</node>
	<node id="-126044" lat="61.614755552" lon="10.039975006">
		<tag k="name" v="Steintjønnlia" />
		<tag k="natural" v="slope" />
		<tag k="place" v="locality" />
		<tag k="ssr:stedsnr" v="572995" />
	</node>
	<node id="-126038" lat="61.7105777739" lon="10.0402833344">
		<tag k="fixme" v="consider natural=peak for the most distinct mountains in the district" />
		<tag k="name" v="Storfjellet" />
		<tag k="natural" v="hill" />
		<tag k="place" v="locality" />
		<tag k="ssr:stedsnr" v="556965" />
	</node>
	<node id="-126032" lat="61.5626527767" lon="10.4348000045">
		<tag k="fixme" v="consider natural=peak for the most distinct mountains in the district" />
		<tag k="name" v="Øverlihøgda" />
		<tag k="natural" v="hill" />
		<tag k="place" v="locality" />
		<tag k="ssr:stedsnr" v="556286" />
	</node>
	<node id="-126029" lat="61.6411805586" lon="10.4877749954">
		<tag k="fixme" v="consider natural=peak for the most distinct mountains in the district" />
		<tag k="name" v="Skarvvola" />
		<tag k="natural" v="hill" />
		<tag k="place" v="locality" />
		<tag k="ssr:stedsnr" v="556174" />
	</node>
	<node id="-126023" lat="61.6816999979" lon="10.2257166648">
		<tag k="fixme" v="consider natural=peak for the most distinct mountains in the district" />
		<tag k="name" v="Gråhøgdin" />
		<tag k="natural" v="hill" />
		<tag k="place" v="locality" />
		<tag k="ssr:stedsnr" v="555955" />
	</node>
	<node id="-126022" lat="61.5263916695" lon="10.2660027798">
		<tag k="alt_name" v="Klinkerberg" />
		<tag k="fixme" v="consider natural=peak for the most distinct mountains in the district" />
		<tag k="name" v="Klinkenberg" />
		<tag k="natural" v="hill" />
		<tag k="place" v="locality" />
		<tag k="ssr:stedsnr" v="555822" />
	</node>
	<node id="-126018" lat="61.68118333" lon="10.0591361107">
		<tag k="name" v="Storkvanndalen" />
		<tag k="natural" v="valley" />
		<tag k="place" v="locality" />
		<tag k="ssr:stedsnr" v="555959" />
	</node>
	<node id="-126017" lat="61.5296499985" lon="10.5939611059">
		<tag k="name" v="Samdalen" />
		<tag k="natural" v="valley" />
		<tag k="place" v="locality" />
		<tag k="ssr:stedsnr" v="555206" />
	</node>
	<node id="-126015" lat="61.4419361128" lon="10.2685583252">
		<tag k="fixme" v="consider natural=peak for the most distinct mountains in the district" />
		<tag k="name" v="Nersletthøgda" />
		<tag k="natural" v="hill" />
		<tag k="place" v="locality" />
		<tag k="ssr:stedsnr" v="554951" />
	</node>
	<node id="-126011" lat="61.4625638906" lon="10.1515166692">
		<tag k="name" v="Myrlia" />
		<tag k="natural" v="slope" />
		<tag k="place" v="locality" />
		<tag k="ssr:stedsnr" v="554663" />
	</node>
	<node id="-126001" lat="61.4356416629" lon="10.5688249906">
		<tag k="name" v="Pengsholhøgda" />
		<tag k="natural" v="hill" />
		<tag k="place" v="locality" />
		<tag k="ssr:stedsnr" v="554372" />
	</node>
	<node id="-125996" lat="61.4598638868" lon="10.21051945">
		<tag k="name" v="Hånnåkampen" />
		<tag k="natural" v="hill" />
		<tag k="place" v="locality" />
		<tag k="ssr:stedsnr" v="543994" />
	</node>
	<node id="-125991" lat="61.5618777768" lon="10.0688166732">
		<tag k="name" v="Rudiberget" />
		<tag k="natural" v="hill" />
		<tag k="place" v="locality" />
		<tag k="ssr:stedsnr" v="543670" />
	</node>
	<node id="-125989" lat="61.5805194403" lon="10.0493333345">
		<tag k="name" v="Geitberget" />
		<tag k="natural" v="hill" />
		<tag k="place" v="locality" />
		<tag k="ssr:stedsnr" v="538961" />
	</node>
	<node id="-125988" lat="61.4561111132" lon="10.0273944502">
		<tag k="name" v="Svinslålia" />
		<tag k="natural" v="slope" />
		<tag k="place" v="locality" />
		<tag k="ssr:stedsnr" v="538372" />
	</node>
	<node id="-125984" lat="61.4962805551" lon="10.0364888856">
		<tag k="name" v="Saltslettene" />
		<tag k="place" v="locality" />
		<tag k="ssr:stedsnr" v="537319" />
	</node>
	<node id="-125977" lat="61.5347805583" lon="10.6597083403">
		<tag k="name" v="Rotbekkdalen" />
		<tag k="natural" v="valley" />
		<tag k="place" v="locality" />
		<tag k="ssr:stedsnr" v="524992" />
	</node>
	<node id="-125974" lat="61.4929222222" lon="10.1866222193">
		<tag k="name" v="Vardberget" />
		<tag k="natural" v="hill" />
		<tag k="place" v="locality" />
		<tag k="ssr:stedsnr" v="524968" />
	</node>
	<node id="-125971" lat="61.4666750022" lon="10.6132916703">
		<tag k="name" v="Hjellbuglupen" />
		<tag k="natural" v="valley" />
		<tag k="place" v="locality" />
		<tag k="ssr:stedsnr" v="524949" />
	</node>
	<node id="-125960" lat="61.5587111083" lon="10.3237305641">
		<tag k="name" v="Kjørra" />
		<tag k="natural" v="slope" />
		<tag k="place" v="locality" />
		<tag k="ssr:stedsnr" v="524704" />
	</node>
	<node id="-125958" lat="61.5503944459" lon="10.3272972144">
		<tag k="name" v="Skaret" />
		<tag k="natural" v="slope" />
		<tag k="place" v="locality" />
		<tag k="ssr:stedsnr" v="524651" />
	</node>
	<node id="-125957" lat="61.5439166635" lon="10.2888499954">
		<tag k="fixme" v="consider natural=peak for the most distinct mountains in the district" />
		<tag k="name" v="Åsen" />
		<tag k="natural" v="hill" />
		<tag k="place" v="locality" />
		<tag k="ssr:stedsnr" v="524644" />
	</node>
	<node id="-125956" lat="61.5239611135" lon="10.2901055549">
		<tag k="name" v="Kvisthushaugane" />
		<tag k="natural" v="hill" />
		<tag k="place" v="locality" />
		<tag k="ssr:stedsnr" v="524640" />
	</node>
	<node id="-125951" lat="61.4235527767" lon="10.3892194378">
		<tag k="name" v="Gullhaugknappen" />
		<tag k="natural" v="hill" />
		<tag k="place" v="locality" />
		<tag k="ssr:stedsnr" v="524515" />
	</node>
	<node id="-125948" lat="61.4102333315" lon="10.1356861188">
		<tag k="name" v="Skaret" />
		<tag k="natural" v="valley" />
		<tag k="place" v="locality" />
		<tag k="ssr:stedsnr" v="524376" />
	</node>
	<node id="-125946" lat="61.474433332" lon="10.3188611139">
		<tag k="name" v="Morktjønnhøgda" />
		<tag k="natural" v="hill" />
		<tag k="place" v="locality" />
		<tag k="ssr:stedsnr" v="524301" />
	</node>
	<node id="-125944" lat="61.4501138929" lon="10.3093694425">
		<tag k="name" v="Storgeitryggen" />
		<tag k="natural" v="ridge" />
		<tag k="place" v="locality" />
		<tag k="ssr:stedsnr" v="524296" />
	</node>
	<node id="-125939" lat="61.5338722252" lon="10.1387138813">
		<tag k="name" v="Brekkebakkene" />
		<tag k="natural" v="slope" />
		<tag k="place" v="locality" />
		<tag k="ssr:stedsnr" v="524212" />
	</node>
	<node id="-125937" lat="61.5536777739" lon="10.1497416639">
		<tag k="name" v="Krokbakken" />
		<tag k="natural" v="slope" />
		<tag k="place" v="locality" />
		<tag k="ssr:stedsnr" v="524161" />
	</node>
	<node id="-125934" lat="61.554847218" lon="10.1652777829">
		<tag k="name" v="Gammeldalen" />
		<tag k="natural" v="valley" />
		<tag k="place" v="locality" />
		<tag k="ssr:stedsnr" v="524011" />
	</node>
	<node id="-125932" lat="61.5562027783" lon="10.143733334">
		<tag k="name" v="Høgberget" />
		<tag k="natural" v="hill" />
		<tag k="place" v="locality" />
		<tag k="ssr:stedsnr" v="524007" />
	</node>
	<node id="-125929" lat="61.6580611146" lon="10.0425638932">
		<tag k="name" v="Kløvbakken" />
		<tag k="natural" v="slope" />
		<tag k="place" v="locality" />
		<tag k="ssr:stedsnr" v="511967" />
	</node>
	<node id="-125925" lat="61.7098083369" lon="10.5263444379">
		<tag k="name" v="Storgrava" />
		<tag k="place" v="locality" />
		<tag k="ssr:stedsnr" v="509474" />
	</node>
	<node id="-125923" lat="61.6869416679" lon="10.1112555468">
		<tag k="name" v="Veslbøllia" />
		<tag k="natural" v="hill" />
		<tag k="place" v="locality" />
		<tag k="ssr:stedsnr" v="495977" />
	</node>
	<node id="-125922" lat="61.6926694462" lon="10.3052111085">
		<tag k="fixme" v="consider natural=peak for the most distinct mountains in the district" />
		<tag k="name" v="Hirisjøflyin" />
		<tag k="natural" v="hill" />
		<tag k="place" v="locality" />
		<tag k="ssr:stedsnr" v="495969" />
	</node>
	<node id="-125920" lat="61.7134777807" lon="10.2903416742">
		<tag k="fixme" v="consider natural=peak for the most distinct mountains in the district" />
		<tag k="name" v="Grøtørhøgda" />
		<tag k="natural" v="hill" />
		<tag k="old_name" v="Grøtøthøgda" />
		<tag k="place" v="locality" />
		<tag k="ssr:stedsnr" v="495956" />
	</node>
	<node id="-125914" lat="61.5598027789" lon="10.1298222139">
		<tag k="name" v="Hammerhjell" />
		<tag k="natural" v="hill" />
		<tag k="place" v="locality" />
		<tag k="ssr:stedsnr" v="495818" />
	</node>
	<node id="-125909" lat="61.5574944432" lon="10.5369305478">
		<tag k="fixme" v="consider natural=peak for the most distinct mountains in the district" />
		<tag k="name" v="Store Kvia" />
		<tag k="natural" v="hill" />
		<tag k="place" v="locality" />
		<tag k="ssr:stedsnr" v="495250" />
	</node>
	<node id="-125908" lat="61.5527944451" lon="10.5503611054">
		<tag k="fixme" v="consider natural=peak for the most distinct mountains in the district" />
		<tag k="name" v="Midtre Kvia" />
		<tag k="natural" v="hill" />
		<tag k="place" v="locality" />
		<tag k="ssr:stedsnr" v="495249" />
	</node>
	<node id="-125906" lat="61.7176472244" lon="10.5776055488">
		<tag k="fixme" v="consider natural=peak for the most distinct mountains in the district" />
		<tag k="name" v="Skjerdingfjellet" />
		<tag k="natural" v="hill" />
		<tag k="place" v="locality" />
		<tag k="ssr:stedsnr" v="495197" />
	</node>
	<node id="-125902" lat="61.6550611078" lon="10.3536083386">
		<tag k="alt_name" v="Hirisjøhøgda, vesle" />
		<tag k="fixme" v="consider natural=peak for the most distinct mountains in the district" />
		<tag k="name" v="Vesle Hirisjøhøgda" />
		<tag k="natural" v="hill" />
		<tag k="old_name" v="Hirisjøhøgda, vle" />
		<tag k="place" v="locality" />
		<tag k="ssr:stedsnr" v="495165" />
	</node>
	<node id="-125901" lat="61.5838138867" lon="10.4290166682">
		<tag k="fixme" v="consider natural=peak for the most distinct mountains in the district" />
		<tag k="name" v="Korsstuguhøgda" />
		<tag k="natural" v="hill" />
		<tag k="place" v="locality" />
		<tag k="ssr:stedsnr" v="495159" />
	</node>
	<node id="-125887" lat="61.4153194426" lon="10.2823000078">
		<tag k="alt_name" v="Kvelbærhøgda" />
		<tag k="name" v="Kverberget" />
		<tag k="natural" v="hill" />
		<tag k="place" v="locality" />
		<tag k="ssr:stedsnr" v="493922" />
	</node>
	<node id="-125886" lat="61.3966722255" lon="10.321891664">
		<tag k="name" v="Rolldalshaugen" />
		<tag k="natural" v="hill" />
		<tag k="place" v="locality" />
		<tag k="ssr:stedsnr" v="493907" />
	</node>
	<node id="-125880" lat="61.4596250006" lon="10.1526694398">
		<tag k="fixme" v="consider natural=peak for the most distinct mountains in the district" />
		<tag k="name" v="Høgberget" />
		<tag k="natural" v="hill" />
		<tag k="place" v="locality" />
		<tag k="ssr:stedsnr" v="482993" />
	</node>
	<node id="-125879" lat="61.6818833298" lon="10.0536638892">
		<tag k="name" v="Geitlorthøgda" />
		<tag k="natural" v="hill" />
		<tag k="place" v="locality" />
		<tag k="ssr:stedsnr" v="482858" />
	</node>
	<node id="-125878" lat="61.4201555574" lon="10.1922527761">
		<tag k="name" v="Hoppet" />
		<tag k="natural" v="hill" />
		<tag k="place" v="locality" />
		<tag k="ssr:stedsnr" v="482805" />
	</node>
	<node id="-125876" lat="61.5647500042" lon="10.0618305474">
		<tag k="name" v="Djupdalen" />
		<tag k="natural" v="valley" />
		<tag k="place" v="locality" />
		<tag k="ssr:stedsnr" v="482665" />
	</node>
	<node id="-125868" lat="61.6390972249" lon="10.560924992">
		<tag k="name" v="Botnkjørkja" />
		<tag k="place" v="locality" />
		<tag k="ssr:stedsnr" v="464842" />
	</node>
	<node id="-125861" lat="61.4249305585" lon="10.359513893">
		<tag k="name" v="Glupen" />
		<tag k="natural" v="valley" />
		<tag k="place" v="locality" />
		<tag k="ssr:stedsnr" v="464579" />
	</node>
	<node id="-125860" lat="61.4110694455" lon="10.4579583368">
		<tag k="name" v="Vålsdalen" />
		<tag k="natural" v="valley" />
		<tag k="place" v="locality" />
		<tag k="ssr:stedsnr" v="464576" />
	</node>
	<node id="-125859" lat="61.6016000008" lon="10.2482749945">
		<tag k="name" v="Stormyrløpet" />
		<tag k="natural" v="valley" />
		<tag k="place" v="locality" />
		<tag k="ssr:stedsnr" v="464568" />
	</node>
	<node id="-125858" lat="61.6215666641" lon="10.2484222268">
		<tag k="name" v="Vatninga" />
		<tag k="place" v="locality" />
		<tag k="ssr:stedsnr" v="464562" />
	</node>
	<node id="-125857" lat="61.6203722196" lon="10.1692861102">
		<tag k="name" v="Sveadalen" />
		<tag k="natural" v="valley" />
		<tag k="place" v="locality" />
		<tag k="ssr:stedsnr" v="464462" />
	</node>
	<node id="-125856" lat="61.6001694479" lon="10.1686472228">
		<tag k="name" v="Stigadalen" />
		<tag k="natural" v="valley" />
		<tag k="place" v="locality" />
		<tag k="ssr:stedsnr" v="464409" />
	</node>
	<node id="-125854" lat="61.4246583358" lon="10.320213882">
		<tag k="name" v="Myrbærskaret" />
		<tag k="natural" v="valley" />
		<tag k="place" v="locality" />
		<tag k="ssr:stedsnr" v="464300" />
	</node>
	<node id="-125844" lat="61.4891333311" lon="10.1592250022">
		<tag k="alt_name" v="Rotåsberga" />
		<tag k="fixme" v="consider natural=peak for the most distinct mountains in the district" />
		<tag k="name" v="Rotåsberget" />
		<tag k="natural" v="hill" />
		<tag k="place" v="locality" />
		<tag k="ssr:stedsnr" v="463981" />
	</node>
	<node id="-125843" lat="61.4750305596" lon="10.6019638876">
		<tag k="name" v="Torsgardsvavangen" />
		<tag k="place" v="locality" />
		<tag k="ssr:stedsnr" v="463970" />
	</node>
	<node id="-125837" lat="61.5030805557" lon="10.4698527868">
		<tag k="name" v="Kappriarslettene" />
		<tag k="place" v="locality" />
		<tag k="ssr:stedsnr" v="463921" />
	</node>
	<node id="-125835" lat="61.4994000034" lon="10.3715638804">
		<tag k="name" v="Ospehaugene" />
		<tag k="natural" v="hill" />
		<tag k="place" v="locality" />
		<tag k="ssr:stedsnr" v="463910" />
	</node>
	<node id="-125830" lat="61.5285361145" lon="10.0573555564">
		<tag k="name" v="Huarbakken" />
		<tag k="natural" v="slope" />
		<tag k="place" v="locality" />
		<tag k="ssr:stedsnr" v="463755" />
	</node>
	<node id="-125829" lat="61.5210194482" lon="10.0844999934">
		<tag k="name" v="Onshuslia" />
		<tag k="natural" v="slope" />
		<tag k="place" v="locality" />
		<tag k="ssr:stedsnr" v="463754" />
	</node>
	<node id="-125826" lat="61.588727782" lon="10.0801333331">
		<tag k="name" v="Vangkleiva" />
		<tag k="natural" v="slope" />
		<tag k="place" v="locality" />
		<tag k="ssr:stedsnr" v="463666" />
	</node>
	<node id="-125819" lat="61.5360527776" lon="10.2278611203">
		<tag k="name" v="Gusdalen" />
		<tag k="natural" v="valley" />
		<tag k="place" v="locality" />
		<tag k="ssr:stedsnr" v="463007" />
	</node>
	<node id="-125818" lat="61.4923277769" lon="10.146252777">
		<tag k="name" v="Susberga" />
		<tag k="natural" v="hill" />
		<tag k="place" v="locality" />
		<tag k="ssr:stedsnr" v="463983" />
	</node>
	<node id="-125816" lat="61.5820638884" lon="10.1240777748">
		<tag k="name" v="Blåleirsletta" />
		<tag k="place" v="locality" />
		<tag k="ssr:stedsnr" v="451988" />
	</node>
	<node id="-125814" lat="61.4603055551" lon="10.2886805622">
		<tag k="name" v="Morkeberget" />
		<tag k="natural" v="hill" />
		<tag k="place" v="locality" />
		<tag k="ssr:stedsnr" v="451342" />
	</node>
	<node id="-125810" lat="61.6651083378" lon="10.0242499924">
		<tag k="name" v="Fjellmillom" />
		<tag k="natural" v="valley" />
		<tag k="place" v="locality" />
		<tag k="ssr:stedsnr" v="444284" />
	</node>
	<node id="-125807" lat="61.6787527739" lon="10.1931750084">
		<tag k="fixme" v="consider natural=peak for the most distinct mountains in the district" />
		<tag k="name" v="Veslegråhøgda" />
		<tag k="natural" v="hill" />
		<tag k="place" v="locality" />
		<tag k="ssr:stedsnr" v="435990" />
	</node>
	<node id="-125806" lat="61.70898611" lon="10.1333055549">
		<tag k="name" v="Bånskardet" />
		<tag k="natural" v="valley" />
		<tag k="place" v="locality" />
		<tag k="ssr:stedsnr" v="435981" />
	</node>
	<node id="-125805" lat="61.7190972243" lon="10.0648500044">
		<tag k="alt_name" v="Bølhaug" />
		<tag k="name" v="Bølhaugen" />
		<tag k="natural" v="hill" />
		<tag k="place" v="locality" />
		<tag k="ssr:stedsnr" v="435972" />
	</node>
	<node id="-125799" lat="61.6921888848" lon="10.6352166738">
		<tag k="fixme" v="consider natural=peak for the most distinct mountains in the district" />
		<tag k="name" v="Hirsjøåsen" />
		<tag k="natural" v="hill" />
		<tag k="place" v="locality" />
		<tag k="ssr:stedsnr" v="435203" />
	</node>
	<node id="-125798" lat="61.6826249984" lon="10.4306750075">
		<tag k="name" v="Brettingsdalen" />
		<tag k="natural" v="valley" />
		<tag k="place" v="locality" />
		<tag k="ssr:stedsnr" v="435204" />
	</node>
	<node id="-125797" lat="61.6115388909" lon="10.555749995">
		<tag k="alt_name" v="Gråhøgda, vesle" />
		<tag k="fixme" v="consider natural=peak for the most distinct mountains in the district" />
		<tag k="name" v="Vesle Gråhøgda" />
		<tag k="natural" v="hill" />
		<tag k="old_name" v="Gråhøgda, vle" />
		<tag k="place" v="locality" />
		<tag k="ssr:stedsnr" v="435196" />
	</node>
	<node id="-125796" lat="61.6251861101" lon="10.4573749947">
		<tag k="fixme" v="consider natural=peak for the most distinct mountains in the district" />
		<tag k="name" v="Midtfjellet" />
		<tag k="natural" v="hill" />
		<tag k="place" v="locality" />
		<tag k="ssr:stedsnr" v="435192" />
	</node>
	<node id="-125795" lat="61.6388749975" lon="10.5758222309">
		<tag k="fixme" v="consider natural=peak for the most distinct mountains in the district" />
		<tag k="name" v="Reinfjellet" />
		<tag k="natural" v="hill" />
		<tag k="place" v="locality" />
		<tag k="ssr:stedsnr" v="435185" />
	</node>
	<node id="-125793" lat="61.6102583374" lon="10.3993499921">
		<tag k="fixme" v="consider natural=peak for the most distinct mountains in the district" />
		<tag k="name" v="Remdalshøgdene" />
		<tag k="natural" v="hill" />
		<tag k="place" v="locality" />
		<tag k="ssr:stedsnr" v="435162" />
	</node>
	<node id="-125786" lat="61.6680888901" lon="10.4046083288">
		<tag k="alt_name" v="Hirisjøhøgda, store;Hirsjøhøgda" />
		<tag k="fixme" v="consider natural=peak for the most distinct mountains in the district" />
		<tag k="name" v="Store Hirisjøhøgda" />
		<tag k="natural" v="hill" />
		<tag k="place" v="locality" />
		<tag k="ssr:stedsnr" v="434149" />
	</node>
	<node id="-125785" lat="61.4339222222" lon="10.1125500031">
		<tag k="fixme" v="consider natural=peak for the most distinct mountains in the district" />
		<tag k="name" v="Varden" />
		<tag k="natural" v="hill" />
		<tag k="place" v="locality" />
		<tag k="ssr:stedsnr" v="433930" />
	</node>
	<node id="-125777" lat="61.4933000037" lon="10.6982638805">
		<tag k="name" v="Gålglupen" />
		<tag k="natural" v="valley" />
		<tag k="place" v="locality" />
		<tag k="ssr:stedsnr" v="433833" />
	</node>
	<node id="-125770" lat="61.4643250023" lon="10.5924611043">
		<tag k="fixme" v="consider natural=peak for the most distinct mountains in the district" />
		<tag k="name" v="Torsgardshøgda" />
		<tag k="natural" v="hill" />
		<tag k="place" v="locality" />
		<tag k="ssr:stedsnr" v="433347" />
	</node>
	<node id="-125769" lat="61.4381277762" lon="10.5252194498">
		<tag k="name" v="Goppollen" />
		<tag k="natural" v="mountain_range" />
		<tag k="ssr:stedsnr" v="433337" />
	</node>
	<node id="-125763" lat="61.5744388851" lon="10.4853361042">
		<tag k="fixme" v="consider natural=peak for the most distinct mountains in the district" />
		<tag k="name" v="Gråhøgda" />
		<tag k="natural" v="hill" />
		<tag k="old_name" v="Graahøgda" />
		<tag k="place" v="locality" />
		<tag k="ssr:stedsnr" v="421876" />
	</node>
	<node id="-125756" lat="61.5155138907" lon="10.0533694423">
		<tag k="name" v="Veslesætersletta" />
		<tag k="place" v="locality" />
		<tag k="ssr:stedsnr" v="416310" />
	</node>
	<node id="-125754" lat="61.6874666652" lon="10.1468861086">
		<tag k="name" v="Venabygdsfjellet" />
		<tag k="natural" v="mountain_range" />
		<tag k="ssr:stedsnr" v="265159" />
	</node>
	<node id="-125753" lat="61.6885444446" lon="10.2360249935">
		<tag k="fixme" v="consider natural=peak for the most distinct mountains in the district" />
		<tag k="name" v="Storgråhøgda" />
		<tag k="natural" v="hill" />
		<tag k="place" v="locality" />
		<tag k="ssr:stedsnr" v="262278" />
	</node>
	<node id="-125752" lat="61.6265638856" lon="10.1420083329">
		<tag k="name" v="Freskelia" />
		<tag k="natural" v="slope" />
		<tag k="place" v="locality" />
		<tag k="ssr:stedsnr" v="262273" />
	</node>
	<node id="-125742" lat="61.6589694453" lon="10.4044083282">
		<tag k="fixme" v="consider natural=peak for the most distinct mountains in the district" />
		<tag k="name" v="Gravskardshøgda" />
		<tag k="natural" v="hill" />
		<tag k="place" v="locality" />
		<tag k="ssr:stedsnr" v="253202" />
	</node>
	<node id="-125741" lat="61.6246027803" lon="10.5159361173">
		<tag k="fixme" v="consider natural=peak for the most distinct mountains in the district" />
		<tag k="name" v="Hestknappen" />
		<tag k="natural" v="hill" />
		<tag k="place" v="locality" />
		<tag k="ssr:stedsnr" v="253183" />
	</node>
	<node id="-125740" lat="61.6277499996" lon="10.3582777861">
		<tag k="name" v="Remdalen" />
		<tag k="natural" v="valley" />
		<tag k="place" v="locality" />
		<tag k="ssr:stedsnr" v="253177" />
	</node>
	<node id="-125737" lat="61.6042222256" lon="10.4297166666">
		<tag k="fixme" v="consider natural=peak for the most distinct mountains in the district" />
		<tag k="name" v="Breitjønnshøgdene" />
		<tag k="natural" v="hill" />
		<tag k="place" v="locality" />
		<tag k="ssr:stedsnr" v="253158" />
	</node>
	<node id="-125735" lat="61.6834111076" lon="10.1513805549">
		<tag k="alt_name" v="Brennflyene" />
		<tag k="name" v="Brennflya" />
		<tag k="natural" v="hill" />
		<tag k="place" v="locality" />
		<tag k="ssr:stedsnr" v="252961" />
	</node>
	<node id="-125728" lat="61.4193555571" lon="10.0708666586">
		<tag k="alt_name" v="Veslefjell" />
		<tag k="fixme" v="consider natural=peak for the most distinct mountains in the district" />
		<tag k="name" v="Veslfjellet" />
		<tag k="natural" v="hill" />
		<tag k="place" v="locality" />
		<tag k="ssr:stedsnr" v="251942" />
	</node>
	<node id="-125727" lat="61.4855500036" lon="10.3506666708">
		<tag k="alt_name" v="Tunga" />
		<tag k="name" v="Tungun" />
		<tag k="place" v="locality" />
		<tag k="ssr:stedsnr" v="251863" />
	</node>
	<node id="-125715" lat="61.4710833296" lon="10.5269222272">
		<tag k="name" v="Kongsvangen" />
		<tag k="natural" v="plateau" />
		<tag k="ssr:stedsnr" v="251382" />
	</node>
	<node id="-125707" lat="61.4427833345" lon="10.5910527843">
		<tag k="name" v="Nybubrinken" />
		<tag k="natural" v="hill" />
		<tag k="place" v="locality" />
		<tag k="ssr:stedsnr" v="240979" />
	</node>
	<node id="-125704" lat="61.6769444479" lon="10.0854222167">
		<tag k="name" v="Svartberget" />
		<tag k="natural" v="hill" />
		<tag k="place" v="locality" />
		<tag k="ssr:stedsnr" v="240874" />
	</node>
	<node id="-125702" lat="61.4112499993" lon="10.1954750075">
		<tag k="name" v="Bjønnløpet" />
		<tag k="natural" v="valley" />
		<tag k="place" v="locality" />
		<tag k="ssr:stedsnr" v="240818" />
	</node>
	<node id="-125699" lat="61.4514499998" lon="10.0553972268">
		<tag k="name" v="Godlia" />
		<tag k="natural" v="slope" />
		<tag k="place" v="locality" />
		<tag k="ssr:stedsnr" v="234355" />
	</node>
	<node id="-125694" lat="61.5378444429" lon="10.6516749954">
		<tag k="name" v="Endaberga" />
		<tag k="natural" v="hill" />
		<tag k="place" v="locality" />
		<tag k="ssr:stedsnr" v="221989" />
	</node>
	<node id="-125686" lat="61.4468666665" lon="10.5701666659">
		<tag k="name" v="Springarslålia" />
		<tag k="natural" v="slope" />
		<tag k="place" v="locality" />
		<tag k="ssr:stedsnr" v="221884" />
	</node>
	<node id="-125681" lat="61.7123666633" lon="10.5784083304">
		<tag k="fixme" v="consider natural=peak for the most distinct mountains in the district" />
		<tag k="name" v="Gråvola" />
		<tag k="natural" v="hill" />
		<tag k="place" v="locality" />
		<tag k="ssr:stedsnr" v="221778" />
	</node>
	<node id="-125679" lat="61.6929138903" lon="9.99751389157">
		<tag k="name" v="Stor-Essdalen" />
		<tag k="natural" v="valley" />
		<tag k="place" v="locality" />
		<tag k="ssr:stedsnr" v="221745" />
	</node>
	<node id="-125676" lat="61.392577777" lon="10.1899138844">
		<tag k="name" v="Liaberga" />
		<tag k="natural" v="hill" />
		<tag k="place" v="locality" />
		<tag k="ssr:stedsnr" v="221733" />
	</node>
	<node id="-125673" lat="61.5676361102" lon="10.2984361199">
		<tag k="name" v="Gillebergshaugen" />
		<tag k="natural" v="hill" />
		<tag k="place" v="locality" />
		<tag k="ssr:stedsnr" v="221683" />
	</node>
	<node id="-125670" lat="61.4505555588" lon="10.0634805616">
		<tag k="name" v="Tullia" />
		<tag k="natural" v="slope" />
		<tag k="place" v="locality" />
		<tag k="ssr:stedsnr" v="221662" />
	</node>
	<node id="-125662" lat="61.5617916689" lon="10.2484499912">
		<tag k="name" v="Hallsteinslia" />
		<tag k="natural" v="valley" />
		<tag k="place" v="locality" />
		<tag k="ssr:stedsnr" v="221470" />
	</node>
	<node id="-125660" lat="61.5042027742" lon="10.1512916675">
		<tag k="name" v="Trælpeillen" />
		<tag k="natural" v="slope" />
		<tag k="place" v="locality" />
		<tag k="ssr:stedsnr" v="221393" />
	</node>
	<node id="-125651" lat="61.5343027816" lon="10.1203027704">
		<tag k="name" v="Jerpedalen" />
		<tag k="natural" v="valley" />
		<tag k="place" v="locality" />
		<tag k="ssr:stedsnr" v="221195" />
	</node>
	<node id="-125646" lat="61.5832999979" lon="10.2323416713">
		<tag k="name" v="Heggeløpet" />
		<tag k="natural" v="hill" />
		<tag k="place" v="locality" />
		<tag k="ssr:stedsnr" v="221057" />
	</node>
	<node id="-125644" lat="61.5855749996" lon="10.165705553">
		<tag k="name" v="Krokberget" />
		<tag k="natural" v="hill" />
		<tag k="place" v="locality" />
		<tag k="ssr:stedsnr" v="221003" />
	</node>
	<node id="-125641" lat="61.4302888883" lon="10.1031027697">
		<tag k="name" v="Tjønnmyrhaugen" />
		<tag k="natural" v="hill" />
		<tag k="place" v="locality" />
		<tag k="ssr:stedsnr" v="210079" />
	</node>
	<node id="-125639" lat="61.6937277814" lon="10.011875003">
		<tag k="name" v="Buranden" />
		<tag k="natural" v="ridge" />
		<tag k="place" v="locality" />
		<tag k="ssr:stedsnr" v="208974" />
	</node>
	<node id="-125638" lat="61.5963083302" lon="10.6357249914">
		<tag k="name" v="Søre Skådalen" />
		<tag k="natural" v="valley" />
		<tag k="place" v="locality" />
		<tag k="ssr:stedsnr" v="206490" />
	</node>
	<node id="-125628" lat="61.7173499983" lon="10.0924305593">
		<tag k="fixme" v="consider natural=peak for the most distinct mountains in the district" />
		<tag k="name" v="Nørdre Bølhøgda" />
		<tag k="natural" v="hill" />
		<tag k="place" v="locality" />
		<tag k="ssr:stedsnr" v="192959" />
	</node>
	<node id="-125627" lat="61.5080638875" lon="10.0656277802">
		<tag k="name" v="Høa" />
		<tag k="natural" v="hill" />
		<tag k="place" v="locality" />
		<tag k="ssr:stedsnr" v="192890" />
	</node>
	<node id="-125619" lat="61.6096666681" lon="10.2163638881">
		<tag k="fixme" v="consider natural=peak for the most distinct mountains in the district" />
		<tag k="name" v="Bakhuken" />
		<tag k="natural" v="hill" />
		<tag k="place" v="locality" />
		<tag k="ssr:stedsnr" v="192803" />
	</node>
	<node id="-125616" lat="61.5037500037" lon="10.6213861081">
		<tag k="fixme" v="consider natural=peak for the most distinct mountains in the district" />
		<tag k="name" v="Bølhøgda" />
		<tag k="natural" v="hill" />
		<tag k="place" v="locality" />
		<tag k="ssr:stedsnr" v="192233" />
	</node>
	<node id="-125613" lat="61.4260722261" lon="10.494397219">
		<tag k="name" v="Goppollhaugan" />
		<tag k="natural" v="hill" />
		<tag k="place" v="locality" />
		<tag k="ssr:stedsnr" v="191321" />
	</node>
	<node id="-125603" lat="61.4834916642" lon="10.646005562">
		<tag k="fixme" v="consider natural=peak for the most distinct mountains in the district" />
		<tag k="name" v="Gardskiveren" />
		<tag k="natural" v="hill" />
		<tag k="place" v="locality" />
		<tag k="ssr:stedsnr" v="190853" />
	</node>
	<node id="-125594" lat="61.4524222216" lon="10.2733416612">
		<tag k="name" v="Ressmyra" />
		<tag k="place" v="locality" />
		<tag k="ssr:stedsnr" v="185302" />
	</node>
	<node id="-125587" lat="61.5276666697" lon="10.1355055471">
		<tag k="name" v="Tollmoen" />
		<tag k="place" v="locality" />
		<tag k="ssr:stedsnr" v="179143" />
	</node>
	<node id="-125576" lat="61.4929333358" lon="10.1800888858">
		<tag k="name" v="Begjilskleiva" />
		<tag k="natural" v="slope" />
		<tag k="place" v="locality" />
		<tag k="ssr:stedsnr" v="160978" />
	</node>
	<node id="-125574" lat="61.5322861147" lon="10.5942611153">
		<tag k="name" v="Fuggelleikbakkene" />
		<tag k="natural" v="slope" />
		<tag k="place" v="locality" />
		<tag k="ssr:stedsnr" v="160955" />
	</node>
	<node id="-125572" lat="61.5142305528" lon="10.5679416644">
		<tag k="name" v="Sulubergsdalen" />
		<tag k="natural" v="valley" />
		<tag k="place" v="locality" />
		<tag k="ssr:stedsnr" v="160948" />
	</node>
	<node id="-125569" lat="61.7189083358" lon="10.5611305478">
		<tag k="name" v="Skjæringfjellia" />
		<tag k="natural" v="slope" />
		<tag k="place" v="locality" />
		<tag k="ssr:stedsnr" v="160809" />
	</node>
	<node id="-125568" lat="61.7252055567" lon="10.5741861205">
		<tag k="name" v="Midtklettskaret" />
		<tag k="natural" v="valley" />
		<tag k="place" v="locality" />
		<tag k="ssr:stedsnr" v="160808" />
	</node>
	<node id="-125566" lat="61.522483336" lon="10.0865361119">
		<tag k="name" v="Tverrberga" />
		<tag k="natural" v="hill" />
		<tag k="place" v="locality" />
		<tag k="ssr:stedsnr" v="160701" />
	</node>
	<node id="-125559" lat="61.5407861149" lon="10.3277972157">
		<tag k="name" v="Rishaugen" />
		<tag k="natural" v="hill" />
		<tag k="place" v="locality" />
		<tag k="ssr:stedsnr" v="160642" />
	</node>
	<node id="-125557" lat="61.5528500014" lon="10.0673888975">
		<tag k="name" v="Grådalshaugene" />
		<tag k="natural" v="hill" />
		<tag k="place" v="locality" />
		<tag k="ssr:stedsnr" v="160566" />
	</node>
	<node id="-125548" lat="61.5138111122" lon="10.0818472236">
		<tag k="name" v="Grova" />
		<tag k="natural" v="valley" />
		<tag k="place" v="locality" />
		<tag k="ssr:stedsnr" v="160702" />
	</node>
	<node id="-125543" lat="61.4184472188" lon="10.32568889">
		<tag k="name" v="Grånhøgda" />
		<tag k="natural" v="hill" />
		<tag k="place" v="locality" />
		<tag k="ssr:stedsnr" v="160274" />
	</node>
	<node id="-125539" lat="61.5906694426" lon="10.1604916698">
		<tag k="name" v="Lauvåsberga" />
		<tag k="natural" v="hill" />
		<tag k="place" v="locality" />
		<tag k="ssr:stedsnr" v="160092" />
	</node>
	<node id="-125535" lat="61.6438166664" lon="10.1727888906">
		<tag k="name" v="Fremre Dørdalen" />
		<tag k="natural" v="valley" />
		<tag k="place" v="locality" />
		<tag k="ssr:stedsnr" v="160403" />
	</node>
	<node id="-125534" lat="61.4397805522" lon="10.1081638973">
		<tag k="name" v="Varddokka" />
		<tag k="natural" v="valley" />
		<tag k="place" v="locality" />
		<tag k="ssr:stedsnr" v="149824" />
	</node>
	<node id="-125530" lat="61.6836694489" lon="10.0266833348">
		<tag k="name" v="Hellbekkluftin" />
		<tag k="natural" v="valley" />
		<tag k="place" v="locality" />
		<tag k="ssr:stedsnr" v="147982" />
	</node>
	<node id="-125529" lat="61.6600055558" lon="10.0665166756">
		<tag k="name" v="Nausterhaugen" />
		<tag k="natural" v="hill" />
		<tag k="place" v="locality" />
		<tag k="ssr:stedsnr" v="147969" />
	</node>
	<node id="-125528" lat="61.6326694478" lon="10.1012166606">
		<tag k="name" v="Sleivhaugen" />
		<tag k="natural" v="hill" />
		<tag k="place" v="locality" />
		<tag k="ssr:stedsnr" v="147958" />
	</node>
	<node id="-125527" lat="61.6762638901" lon="10.5549250066">
		<tag k="name" v="Skådalen" />
		<tag k="natural" v="valley" />
		<tag k="place" v="locality" />
		<tag k="ssr:stedsnr" v="145500" />
	</node>
	<node id="-125524" lat="61.6155388867" lon="10.0873666644">
		<tag k="fixme" v="consider natural=peak for the most distinct mountains in the district" />
		<tag k="name" v="Høgåsen" />
		<tag k="natural" v="hill" />
		<tag k="place" v="locality" />
		<tag k="ssr:stedsnr" v="140284" />
	</node>
	<node id="-125522" lat="61.6507833328" lon="10.2268750091">
		<tag k="name" v="Veslestulshøgda" />
		<tag k="natural" v="hill" />
		<tag k="place" v="locality" />
		<tag k="ssr:stedsnr" v="131996" />
	</node>
	<node id="-125519" lat="61.6787194486" lon="10.0036138873">
		<tag k="alt_name" v="Store Slavollkampen" />
		<tag k="name" v="Slavollkampen" />
		<tag k="natural" v="hill" />
		<tag k="place" v="locality" />
		<tag k="ssr:stedsnr" v="131983" />
	</node>
	<node id="-125517" lat="61.6913444453" lon="10.0832833391">
		<tag k="fixme" v="consider natural=peak for the most distinct mountains in the district" />
		<tag k="name" v="Svarthammaren" />
		<tag k="natural" v="hill" />
		<tag k="place" v="locality" />
		<tag k="ssr:stedsnr" v="131977" />
	</node>
	<node id="-125506" lat="61.591933329" lon="10.2975611023">
		<tag k="fixme" v="consider natural=peak for the most distinct mountains in the district" />
		<tag k="name" v="Oppbekkfjellet" />
		<tag k="natural" v="hill" />
		<tag k="place" v="locality" />
		<tag k="ssr:stedsnr" v="131829" />
	</node>
	<node id="-125504" lat="61.6167611156" lon="10.324588892">
		<tag k="fixme" v="consider natural=peak for the most distinct mountains in the district" />
		<tag k="name" v="Brentfjellet" />
		<tag k="natural" v="hill" />
		<tag k="place" v="locality" />
		<tag k="ssr:stedsnr" v="131807" />
	</node>
	<node id="-125500" lat="61.5430083316" lon="10.6658250006">
		<tag k="alt_name" v="Imsenden" />
		<tag k="name" v="Imsenda" />
		<tag k="place" v="locality" />
		<tag k="ssr:stedsnr" v="131232" />
	</node>
	<node id="-125495" lat="61.5806833303" lon="10.5990305616">
		<tag k="alt_name" v="Gjeillhuggu" />
		<tag k="fixme" v="consider natural=peak for the most distinct mountains in the district" />
		<tag k="name" v="Geilhugu" />
		<tag k="natural" v="hill" />
		<tag k="place" v="locality" />
		<tag k="ssr:stedsnr" v="131138" />
	</node>
	<node id="-125488" lat="61.479294445" lon="10.0921499979">
		<tag k="fixme" v="consider natural=peak for the most distinct mountains in the district" />
		<tag k="name" v="Hestknappen" />
		<tag k="natural" v="hill" />
		<tag k="place" v="locality" />
		<tag k="ssr:stedsnr" v="130585" />
	</node>
	<node id="-125480" lat="61.4483583325" lon="10.3833277771">
		<tag k="name" v="Tannsmoen" />
		<tag k="place" v="locality" />
		<tag k="ssr:stedsnr" v="130335" />
	</node>
	<node id="-125464" lat="61.4716055555" lon="10.6802250051">
		<tag k="fixme" v="consider natural=peak for the most distinct mountains in the district" />
		<tag k="name" v="Eldåhøgda" />
		<tag k="natural" v="hill" />
		<tag k="place" v="locality" />
		<tag k="ssr:stedsnr" v="129360" />
	</node>
	<node id="-125458" lat="61.4517444452" lon="10.2881611073">
		<tag k="name" v="Vesle Geitryggen" />
		<tag k="natural" v="ridge" />
		<tag k="place" v="locality" />
		<tag k="ssr:stedsnr" v="124265" />
	</node>
	<node id="-125455" lat="61.3898138883" lon="10.1391388863">
		<tag k="name" v="Kroktjønnlia" />
		<tag k="natural" v="slope" />
		<tag k="place" v="locality" />
		<tag k="ssr:stedsnr" v="118772" />
	</node>
	<node id="-125450" lat="61.5177083318" lon="10.140538895">
		<tag k="name" v="Tunnelberget" />
		<tag k="natural" v="hill" />
		<tag k="place" v="locality" />
		<tag k="ssr:stedsnr" v="118121" />
	</node>
	<node id="-125448" lat="61.3967000031" lon="9.9679999918">
		<tag k="name" v="Dørdalen" />
		<tag k="natural" v="valley" />
		<tag k="place" v="locality" />
		<tag k="ssr:stedsnr" v="113360" />
	</node>
	<node id="-125443" lat="61.5763638859" lon="10.6283583297">
		<tag k="name" v="Bubakken" />
		<tag k="natural" v="slope" />
		<tag k="place" v="locality" />
		<tag k="ssr:stedsnr" v="101770" />
	</node>
	<node id="-125440" lat="61.4599749964" lon="10.6057944434">
		<tag k="name" v="Steinslåglupen" />
		<tag k="natural" v="valley" />
		<tag k="place" v="locality" />
		<tag k="ssr:stedsnr" v="100960" />
	</node>
	<node id="-125433" lat="61.4321305598" lon="10.2143111064">
		<tag k="fixme" v="consider natural=peak for the most distinct mountains in the district" />
		<tag k="name" v="Bakkeberget" />
		<tag k="natural" v="hill" />
		<tag k="place" v="locality" />
		<tag k="ssr:stedsnr" v="100760" />
	</node>
	<node id="-125431" lat="61.6033027788" lon="10.6172555492">
		<tag k="name" v="Brattlia" />
		<tag k="natural" v="slope" />
		<tag k="place" v="locality" />
		<tag k="ssr:stedsnr" v="100728" />
	</node>
	<node id="-125430" lat="61.5458833317" lon="10.6479500027">
		<tag k="name" v="Kjørkjeberget" />
		<tag k="natural" v="hill" />
		<tag k="place" v="locality" />
		<tag k="ssr:stedsnr" v="100711" />
	</node>
	<node id="-125421" lat="61.6280583326" lon="10.2822055504">
		<tag k="name" v="Storslåhaugene" />
		<tag k="natural" v="hill" />
		<tag k="place" v="locality" />
		<tag k="ssr:stedsnr" v="100547" />
	</node>
	<node id="-125420" lat="61.5566500039" lon="10.2917388909">
		<tag k="name" v="Klopptjønnet" />
		<tag k="natural" v="valley" />
		<tag k="place" v="locality" />
		<tag k="ssr:stedsnr" v="100483" />
	</node>
	<node id="-125414" lat="61.4705277823" lon="10.3005999955">
		<tag k="name" v="Romsåskjølen" />
		<tag k="natural" v="hill" />
		<tag k="place" v="locality" />
		<tag k="ssr:stedsnr" v="100312" />
	</node>
	<node id="-125412" lat="61.4327999955" lon="10.2614805602">
		<tag k="name" v="Tverrådalen" />
		<tag k="natural" v="valley" />
		<tag k="place" v="locality" />
		<tag k="ssr:stedsnr" v="100225" />
	</node>
	<node id="-125411" lat="61.549786108" lon="10.133074999">
		<tag k="name" v="Herraberget" />
		<tag k="natural" v="hill" />
		<tag k="place" v="locality" />
		<tag k="ssr:stedsnr" v="100201" />
	</node>
	<node id="-125401" lat="61.6647777743" lon="10.6268611071">
		<tag k="name" v="Radden" />
		<tag k="natural" v="hill" />
		<tag k="place" v="locality" />
		<tag k="ssr:stedsnr" v="99821" />
	</node>
	<node id="-125399" lat="61.5116444455" lon="10.1044361107">
		<tag k="fixme" v="consider natural=peak for the most distinct mountains in the district" />
		<tag k="name" v="Storberget" />
		<tag k="natural" v="hill" />
		<tag k="place" v="locality" />
		<tag k="ssr:stedsnr" v="99794" />
	</node>
	<node id="-125395" lat="61.7034805526" lon="9.98543610726">
		<tag k="name" v="Dordivollen" />
		<tag k="place" v="locality" />
		<tag k="ssr:stedsnr" v="87930" />
	</node>
	<node id="-125392" lat="61.7090555531" lon="10.5925138847">
		<tag k="name" v="Rundhaugen" />
		<tag k="natural" v="hill" />
		<tag k="place" v="locality" />
		<tag k="ssr:stedsnr" v="85425" />
	</node>
	<node id="-125390" lat="61.6371361118" lon="10.1400027841">
		<tag k="name" v="Fresketunga" />
		<tag k="natural" v="valley" />
		<tag k="place" v="locality" />
		<tag k="ssr:stedsnr" v="80309" />
	</node>
	<node id="-125388" lat="61.7004416678" lon="10.0330249983">
		<tag k="alt_name" v="Stenbergsfjellet" />
		<tag k="fixme" v="consider natural=peak for the most distinct mountains in the district" />
		<tag k="name" v="Stebergfjellet" />
		<tag k="natural" v="hill" />
		<tag k="place" v="locality" />
		<tag k="ssr:stedsnr" v="71982" />
	</node>
	<node id="-125387" lat="61.7121194443" lon="10.0057027758">
		<tag k="alt_name" v="Skardhaugene" />
		<tag k="name" v="Skardhaugen" />
		<tag k="natural" v="hill" />
		<tag k="place" v="locality" />
		<tag k="ssr:stedsnr" v="71981" />
	</node>
	<node id="-125375" lat="61.6225250007" lon="10.2235500025">
		<tag k="fixme" v="consider natural=peak for the most distinct mountains in the district" />
		<tag k="name" v="Stakkstolia" />
		<tag k="natural" v="hill" />
		<tag k="place" v="locality" />
		<tag k="ssr:stedsnr" v="71775" />
	</node>
	<node id="-125360" lat="61.4185499978" lon="10.0439694504">
		<tag k="alt_name" v="Dugurdsnebben" />
		<tag k="fixme" v="consider natural=peak for the most distinct mountains in the district" />
		<tag k="name" v="Dugurdsnibba" />
		<tag k="natural" v="hill" />
		<tag k="place" v="locality" />
		<tag k="ssr:stedsnr" v="69926" />
	</node>
	<node id="-125358" lat="61.4820138878" lon="10.6100666636">
		<tag k="fixme" v="consider natural=peak for the most distinct mountains in the district" />
		<tag k="name" v="Samfjellet" />
		<tag k="natural" v="hill" />
		<tag k="place" v="locality" />
		<tag k="ssr:stedsnr" v="69851" />
	</node>
	<node id="-125357" lat="61.4682027753" lon="10.1065555536">
		<tag k="fixme" v="consider natural=peak for the most distinct mountains in the district" />
		<tag k="name" v="Kvitfjellet" />
		<tag k="natural" v="hill" />
		<tag k="place" v="locality" />
		<tag k="ssr:stedsnr" v="69657" />
	</node>
	<node id="-125353" lat="61.4422750029" lon="10.2935333387">
		<tag k="alt_name" v="Stordjupdalen" />
		<tag k="name" v="Djupdalen" />
		<tag k="natural" v="valley" />
		<tag k="place" v="locality" />
		<tag k="ssr:stedsnr" v="69629" />
	</node>
	<node id="-125352" lat="61.4581111133" lon="10.084936118">
		<tag k="alt_name" v="Svartskarberget" />
		<tag k="name" v="Svartskardberget" />
		<tag k="natural" v="hill" />
		<tag k="place" v="locality" />
		<tag k="ssr:stedsnr" v="69615" />
	</node>
	<node id="-125349" lat="61.4775833359" lon="10.4346388885">
		<tag k="name" v="Langslåhaugen" />
		<tag k="natural" v="hill" />
		<tag k="place" v="locality" />
		<tag k="ssr:stedsnr" v="69372" />
	</node>
	<node id="-125348" lat="61.4256611098" lon="10.4320944534">
		<tag k="alt_name" v="Riset" />
		<tag k="name" v="Reset" />
		<tag k="natural" v="hill" />
		<tag k="place" v="locality" />
		<tag k="ssr:stedsnr" v="69368" />
	</node>
	<node id="-125347" lat="61.4273805561" lon="10.5541250011">
		<tag k="name" v="Goppollfjellet" />
		<tag k="natural" v="hill" />
		<tag k="place" v="locality" />
		<tag k="ssr:stedsnr" v="69366" />
	</node>
	<node id="-125343" lat="61.4058416678" lon="10.4396277871">
		<tag k="fixme" v="consider natural=peak for the most distinct mountains in the district" />
		<tag k="name" v="Svartåsen" />
		<tag k="natural" v="hill" />
		<tag k="place" v="locality" />
		<tag k="ssr:stedsnr" v="69354" />
	</node>
	<node id="-125341" lat="61.4042499972" lon="10.0542888881">
		<tag k="alt_name" v="Skarbua" />
		<tag k="name" v="Skardbua" />
		<tag k="place" v="locality" />
		<tag k="ssr:stedsnr" v="68900" />
	</node>
	<node id="-125338" lat="61.4083750009" lon="10.1907138949">
		<tag k="name" v="Bjørnløpet" />
		<tag k="place" v="locality" />
		<tag k="ssr:stedsnr" v="68904" />
	</node>
	<node id="-125337" lat="61.4002305571" lon="10.0594999957">
		<tag k="alt_name" v="Allmannskaret;Almannaskaret" />
		<tag k="name" v="Ålmannskardet" />
		<tag k="natural" v="valley" />
		<tag k="place" v="locality" />
		<tag k="ssr:stedsnr" v="68901" />
	</node>
	<node id="-125336" lat="61.4027999999" lon="10.0857694395">
		<tag k="fixme" v="consider natural=peak for the most distinct mountains in the district" />
		<tag k="name" v="Storfjellet" />
		<tag k="natural" v="hill" />
		<tag k="place" v="locality" />
		<tag k="ssr:stedsnr" v="68902" />
	</node>
	<node id="-125335" lat="61.4659999964" lon="10.2244138978">
		<tag k="name" v="Brekkom" />
		<tag k="natural" v="slope" />
		<tag k="place" v="locality" />
		<tag k="ssr:stedsnr" v="58996" />
	</node>
	<node id="-125334" lat="61.4567694415" lon="10.162716658">
		<tag k="name" v="Kjerringdalen" />
		<tag k="natural" v="valley" />
		<tag k="place" v="locality" />
		<tag k="ssr:stedsnr" v="58992" />
	</node>
	<node id="-125329" lat="61.3990777773" lon="10.1545388816">
		<tag k="name" v="Mathaugen" />
		<tag k="natural" v="hill" />
		<tag k="place" v="locality" />
		<tag k="ssr:stedsnr" v="58786" />
	</node>
	<node id="-125325" lat="61.5219749993" lon="10.1270416675">
		<tag k="name" v="Flatleet" />
		<tag k="place" v="locality" />
		<tag k="ssr:stedsnr" v="58279" />
	</node>
	<node id="-125321" lat="61.6758055532" lon="9.96879166454">
		<tag k="name" v="Hulderhaugen" />
		<tag k="natural" v="hill" />
		<tag k="place" v="locality" />
		<tag k="ssr:stedsnr" v="52629" />
	</node>
	<node id="-125320" lat="61.6668583307" lon="9.96202499903">
		<tag k="name" v="Kvernbakkene" />
		<tag k="natural" v="slope" />
		<tag k="place" v="locality" />
		<tag k="ssr:stedsnr" v="52630" />
	</node>
	<node id="-125314" lat="61.403750002" lon="10.4521611063">
		<tag k="fixme" v="consider natural=peak for the most distinct mountains in the district" />
		<tag k="name" v="Svartåsen" />
		<tag k="natural" v="hill" />
		<tag k="place" v="locality" />
		<tag k="ssr:stedsnr" v="41071" />
	</node>
	<node id="-125310" lat="61.4955638926" lon="10.1587888979">
		<tag k="name" v="Skakkula" />
		<tag k="place" v="locality" />
		<tag k="ssr:stedsnr" v="39970" />
	</node>
	<node id="-125307" lat="61.5063166661" lon="10.5092138943">
		<tag k="name" v="Storranden" />
		<tag k="natural" v="hill" />
		<tag k="place" v="locality" />
		<tag k="ssr:stedsnr" v="39931" />
	</node>
	<node id="-125306" lat="61.4662305539" lon="10.4878222304">
		<tag k="name" v="Trekanten" />
		<tag k="place" v="locality" />
		<tag k="ssr:stedsnr" v="39904" />
	</node>
	<node id="-125302" lat="61.3640833321" lon="10.187330557">
		<tag k="name" v="Storfjellet" />
		<tag k="natural" v="hill" />
		<tag k="place" v="locality" />
		<tag k="ssr:stedsnr" v="39826" />
	</node>
	<node id="-125279" lat="61.4552138852" lon="10.2654805488">
		<tag k="name" v="Grandalen" />
		<tag k="natural" v="valley" />
		<tag k="place" v="locality" />
		<tag k="ssr:stedsnr" v="39264" />
	</node>
	<node id="-125278" lat="61.4178888888" lon="10.3370833327">
		<tag k="fixme" v="consider natural=peak for the most distinct mountains in the district" />
		<tag k="name" v="Stenumgardshøgda" />
		<tag k="natural" v="hill" />
		<tag k="place" v="locality" />
		<tag k="ssr:stedsnr" v="39249" />
	</node>
	<node id="-125276" lat="61.4427444462" lon="10.2430583412">
		<tag k="alt_name" v="Oppsalberga" />
		<tag k="name" v="Oppsaldalsberga" />
		<tag k="natural" v="hill" />
		<tag k="place" v="locality" />
		<tag k="ssr:stedsnr" v="39200" />
	</node>
	<node id="-125273" lat="61.4878055567" lon="10.5557583242">
		<tag k="name" v="Trolldalene" />
		<tag k="natural" v="valley" />
		<tag k="place" v="locality" />
		<tag k="ssr:stedsnr" v="39153" />
	</node>
	<node id="-125272" lat="61.4809638868" lon="10.5027611076">
		<tag k="name" v="Trollhaugen" />
		<tag k="natural" v="hill" />
		<tag k="place" v="locality" />
		<tag k="ssr:stedsnr" v="39151" />
	</node>
	<node id="-125271" lat="61.5956555595" lon="10.1643583398">
		<tag k="name" v="Bjørnkleiva" />
		<tag k="natural" v="slope" />
		<tag k="place" v="locality" />
		<tag k="ssr:stedsnr" v="39105" />
	</node>
	<node id="-125268" lat="61.5636416688" lon="10.1877194499">
		<tag k="name" v="Røydokka" />
		<tag k="natural" v="valley" />
		<tag k="place" v="locality" />
		<tag k="ssr:stedsnr" v="39005" />
	</node>
	<node id="-125266" lat="61.6493027754" lon="9.99460833418">
		<tag k="alt_name" v="Vøillalia" />
		<tag k="name" v="Vollalia" />
		<tag k="natural" v="slope" />
		<tag k="place" v="locality" />
		<tag k="ssr:stedsnr" v="34780" />
	</node>
	<node id="-125264" lat="61.6581361098" lon="10.0339166575">
		<tag k="name" v="Dynjeskardet" />
		<tag k="natural" v="valley" />
		<tag k="place" v="locality" />
		<tag k="ssr:stedsnr" v="26970" />
	</node>
	<node id="-125262" lat="61.688900002" lon="10.2553583352">
		<tag k="fixme" v="consider natural=peak for the most distinct mountains in the district" />
		<tag k="name" v="Rundhaugan" />
		<tag k="natural" v="hill" />
		<tag k="place" v="locality" />
		<tag k="ssr:stedsnr" v="20444" />
	</node>
	<node id="-125261" lat="61.6455750013" lon="10.0243583342">
		<tag k="name" v="Dynjelia" />
		<tag k="natural" v="slope" />
		<tag k="place" v="locality" />
		<tag k="ssr:stedsnr" v="20315" />
	</node>
	<node id="-125257" lat="61.7018000044" lon="10.0739694361">
		<tag k="fixme" v="consider natural=peak for the most distinct mountains in the district" />
		<tag k="name" v="Tverrhøgda" />
		<tag k="natural" v="hill" />
		<tag k="place" v="locality" />
		<tag k="ssr:stedsnr" v="10966" />
	</node>
	<node id="-125256" lat="61.707594447" lon="10.151808341">
		<tag k="alt_name" v="Bølhøgda, s" />
		<tag k="fixme" v="consider natural=peak for the most distinct mountains in the district" />
		<tag k="name" v="Søre Bølhøgda" />
		<tag k="natural" v="hill" />
		<tag k="place" v="locality" />
		<tag k="ssr:stedsnr" v="10965" />
	</node>
	<node id="-125252" lat="61.5076555517" lon="10.2870777743">
		<tag k="alt_name" v="Solåshaugen" />
		<tag k="name" v="Solashaugen" />
		<tag k="natural" v="hill" />
		<tag k="place" v="locality" />
		<tag k="ssr:stedsnr" v="10871" />
	</node>
	<node id="-125245" lat="61.5345527794" lon="10.2593555577">
		<tag k="fixme" v="consider natural=peak for the most distinct mountains in the district" />
		<tag k="name" v="Høgåsen" />
		<tag k="natural" v="hill" />
		<tag k="place" v="locality" />
		<tag k="ssr:stedsnr" v="10847" />
	</node>
	<node id="-125239" lat="61.6554972249" lon="10.5353499966">
		<tag k="fixme" v="consider natural=peak for the most distinct mountains in the district" />
		<tag k="name" v="Imsdalsvola" />
		<tag k="natural" v="hill" />
		<tag k="place" v="locality" />
		<tag k="ssr:stedsnr" v="10174" />
	</node>
	<node id="-125237" lat="61.6509638895" lon="10.4318888805">
		<tag k="fixme" v="consider natural=peak for the most distinct mountains in the district" />
		<tag k="name" v="Gluggen" />
		<tag k="natural" v="hill" />
		<tag k="place" v="locality" />
		<tag k="ssr:stedsnr" v="10150" />
	</node>
	<node id="-125236" lat="61.5925555511" lon="10.5201916714">
		<tag k="fixme" v="consider natural=peak for the most distinct mountains in the district" />
		<tag k="name" v="Kleberkakken" />
		<tag k="natural" v="hill" />
		<tag k="place" v="locality" />
		<tag k="ssr:stedsnr" v="10139" />
	</node>
	<node id="-125227" lat="61.4325861079" lon="10.3002166694">
		<tag k="fixme" v="consider natural=peak for the most distinct mountains in the district" />
		<tag k="name" v="Djupdalskampen" />
		<tag k="natural" v="hill" />
		<tag k="place" v="locality" />
		<tag k="ssr:stedsnr" v="8939" />
	</node>
	<node id="-125215" lat="61.4897611111" lon="10.5253916646">
		<tag k="name" v="Storøya" />
		<tag k="place" v="locality" />
		<tag k="ssr:stedsnr" v="8841" />
	</node>
	<node id="-125214" lat="61.4863027774" lon="10.0679083288">
		<tag k="fixme" v="consider natural=peak for the most distinct mountains in the district" />
		<tag k="name" v="Grøtåsen" />
		<tag k="natural" v="hill" />
		<tag k="place" v="locality" />
		<tag k="ssr:stedsnr" v="8613" />
	</node>
	<node id="-125213" lat="61.4428027799" lon="10.0222555553">
		<tag k="alt_name" v="Lebbhaugen" />
		<tag k="fixme" v="consider natural=peak for the most distinct mountains in the district" />
		<tag k="name" v="Lebbhøgda" />
		<tag k="natural" v="hill" />
		<tag k="place" v="locality" />
		<tag k="ssr:stedsnr" v="8608" />
	</node>
	<node id="-125208" lat="61.4589166706" lon="10.6209972236">
		<tag k="name" v="Bendikshøgda" />
		<tag k="natural" v="hill" />
		<tag k="place" v="locality" />
		<tag k="ssr:stedsnr" v="8398" />
	</node>
	<node id="-125205" lat="61.7083250018" lon="10.4979000013">
		<tag k="name" v="Storfjelltangen" />
		<tag k="natural" v="ridge" />
		<tag k="place" v="locality" />
		<tag k="ssr:stedsnr" v="267458" />
	</node>
	<node id="-125171" lat="61.6849722189" lon="10.5281944465">
		<tag k="name" v="Storfjellslia" />
		<tag k="natural" v="slope" />
		<tag k="place" v="locality" />
		<tag k="ssr:stedsnr" v="890847" />
	</node>
	<node id="-125168" lat="61.724280552" lon="10.593616674">
		<tag k="name" v="Skardsæterlia" />
		<tag k="natural" v="slope" />
		<tag k="place" v="locality" />
		<tag k="ssr:stedsnr" v="889837" />
	</node>
	<node id="-125161" lat="61.4190833373" lon="10.4280555479">
		<tag k="name" v="Turrhaugene" />
		<tag k="natural" v="hill" />
		<tag k="place" v="locality" />
		<tag k="ssr:stedsnr" v="889553" />
	</node>
	<node id="-125159" lat="61.5958722206" lon="10.2585527818">
		<tag k="name" v="Pull-lia" />
		<tag k="natural" v="slope" />
		<tag k="place" v="locality" />
		<tag k="ssr:stedsnr" v="889490" />
	</node>
	<node id="-125157" lat="61.646030558" lon="10.1310944519">
		<tag k="fixme" v="consider natural=peak for the most distinct mountains in the district" />
		<tag k="name" v="Myåsen" />
		<tag k="natural" v="hill" />
		<tag k="place" v="locality" />
		<tag k="ssr:stedsnr" v="889463" />
	</node>
	<node id="-125156" lat="61.6500972235" lon="10.1507527778">
		<tag k="name" v="Sæterbekkdalen" />
		<tag k="natural" v="valley" />
		<tag k="place" v="locality" />
		<tag k="ssr:stedsnr" v="889464" />
	</node>
	<node id="-125155" lat="61.6533499991" lon="10.1762638929">
		<tag k="name" v="Indre Dørdalen" />
		<tag k="natural" v="valley" />
		<tag k="place" v="locality" />
		<tag k="ssr:stedsnr" v="889456" />
	</node>
	<node id="-125154" lat="61.4116638925" lon="10.2824444416">
		<tag k="name" v="Rundhaugen" />
		<tag k="natural" v="hill" />
		<tag k="place" v="locality" />
		<tag k="ssr:stedsnr" v="889309" />
	</node>
	<node id="-125146" lat="61.5005527806" lon="10.1309638891">
		<tag k="name" v="Tjuvpeillen" />
		<tag k="place" v="locality" />
		<tag k="ssr:stedsnr" v="888982" />
	</node>
	<node id="-125140" lat="61.4189777759" lon="10.4990583267">
		<tag k="name" v="Bråstadbakken" />
		<tag k="natural" v="slope" />
		<tag k="place" v="locality" />
		<tag k="ssr:stedsnr" v="888915" />
	</node>
	<node id="-125133" lat="61.565663893" lon="10.6377611132">
		<tag k="name" v="Måsåbakken" />
		<tag k="natural" v="slope" />
		<tag k="place" v="locality" />
		<tag k="ssr:stedsnr" v="888765" />
	</node>
	<node id="-125132" lat="61.6837777772" lon="9.9958749913">
		<tag k="name" v="Kvilarsteinhaugene" />
		<tag k="natural" v="hill" />
		<tag k="place" v="locality" />
		<tag k="ssr:stedsnr" v="888766" />
	</node>
	<node id="-125127" lat="61.5172944414" lon="10.0824166665">
		<tag k="name" v="Stabbursdalen" />
		<tag k="natural" v="valley" />
		<tag k="place" v="locality" />
		<tag k="ssr:stedsnr" v="888722" />
	</node>
	<node id="-125126" lat="61.4903222202" lon="10.077280561">
		<tag k="name" v="Slettom" />
		<tag k="place" v="locality" />
		<tag k="ssr:stedsnr" v="888715" />
	</node>
	<node id="-125119" lat="61.5847833294" lon="10.16293333">
		<tag k="name" v="Sannomsløypa" />
		<tag k="natural" v="valley" />
		<tag k="place" v="locality" />
		<tag k="ssr:stedsnr" v="888006" />
	</node>
	<node id="-125117" lat="61.6077277822" lon="10.0437861149">
		<tag k="name" v="Skriarhaugen" />
		<tag k="natural" v="hill" />
		<tag k="place" v="locality" />
		<tag k="ssr:stedsnr" v="476926" />
	</node>
	<node id="-125116" lat="61.5991666711" lon="10.0275277722">
		<tag k="name" v="Forråbakkan" />
		<tag k="natural" v="slope" />
		<tag k="place" v="locality" />
		<tag k="ssr:stedsnr" v="476914" />
	</node>
	<node id="-125109" lat="61.5334722245" lon="10.5623388958">
		<tag k="name" v="Glupen" />
		<tag k="natural" v="hill" />
		<tag k="place" v="locality" />
		<tag k="ssr:stedsnr" v="403965" />
	</node>
	<node id="-125107" lat="61.6553500031" lon="10.5550083423">
		<tag k="name" v="Botnlia" />
		<tag k="natural" v="slope" />
		<tag k="place" v="locality" />
		<tag k="ssr:stedsnr" v="403831" />
	</node>
	<node id="-125105" lat="61.4365888852" lon="10.1853972228">
		<tag k="name" v="Brauta" />
		<tag k="place" v="locality" />
		<tag k="ssr:stedsnr" v="403792" />
	</node>
	<node id="-125101" lat="61.5747777748" lon="10.6321638924">
		<tag k="name" v="Midtsjøberget" />
		<tag k="natural" v="hill" />
		<tag k="place" v="locality" />
		<tag k="ssr:stedsnr" v="403758" />
	</node>
	<node id="-125094" lat="61.4102444466" lon="10.0963111156">
		<tag k="name" v="Grønnlia" />
		<tag k="natural" v="slope" />
		<tag k="place" v="locality" />
		<tag k="ssr:stedsnr" v="403657" />
	</node>
	<node id="-125085" lat="61.5715249991" lon="10.2793166731">
		<tag k="name" v="Baulhaugen" />
		<tag k="natural" v="hill" />
		<tag k="place" v="locality" />
		<tag k="ssr:stedsnr" v="403480" />
	</node>
	<node id="-125083" lat="61.6508500029" lon="10.1817222231">
		<tag k="fixme" v="consider natural=peak for the most distinct mountains in the district" />
		<tag k="loc_name" v="Kvanndalstunga" />
		<tag k="name" v="Kveinndalstunga" />
		<tag k="natural" v="hill" />
		<tag k="place" v="locality" />
		<tag k="ssr:stedsnr" v="403443" />
	</node>
	<node id="-125082" lat="61.6452305564" lon="10.1541055631">
		<tag k="name" v="Bjønndalen" />
		<tag k="natural" v="valley" />
		<tag k="place" v="locality" />
		<tag k="ssr:stedsnr" v="403441" />
	</node>
	<node id="-125080" lat="61.6146777782" lon="10.1702166601">
		<tag k="name" v="Ådalane" />
		<tag k="old_name" v="Ådalne" />
		<tag k="place" v="locality" />
		<tag k="ssr:stedsnr" v="403378" />
	</node>
	<node id="-125079" lat="61.4861333367" lon="10.2532027805">
		<tag k="fixme" v="consider natural=peak for the most distinct mountains in the district" />
		<tag k="name" v="Kvennslåhøgda" />
		<tag k="natural" v="hill" />
		<tag k="place" v="locality" />
		<tag k="ssr:stedsnr" v="403304" />
	</node>
	<node id="-125070" lat="61.5988861118" lon="10.2296277837">
		<tag k="name" v="Turrtjønnsletta" />
		<tag k="place" v="locality" />
		<tag k="ssr:stedsnr" v="403063" />
	</node>
	<node id="-125067" lat="61.5809138845" lon="10.1626833415">
		<tag k="name" v="Halmrastløypa" />
		<tag k="natural" v="hill" />
		<tag k="place" v="locality" />
		<tag k="ssr:stedsnr" v="403009" />
	</node>
	<node id="-125065" lat="61.6468166685" lon="10.0465833274">
		<tag k="name" v="Bergstulskardet" />
		<tag k="natural" v="valley" />
		<tag k="place" v="locality" />
		<tag k="ssr:stedsnr" v="390970" />
	</node>
	<node id="-125064" lat="61.4015944453" lon="10.1022472292">
		<tag k="name" v="Bakkedalen" />
		<tag k="natural" v="valley" />
		<tag k="place" v="locality" />
		<tag k="ssr:stedsnr" v="389518" />
	</node>
	<node id="-125062" lat="61.4471333324" lon="10.0486111094">
		<tag k="name" v="Svinslåvangen" />
		<tag k="place" v="locality" />
		<tag k="ssr:stedsnr" v="388834" />
	</node>
	<node id="-125060" lat="61.6728500019" lon="10.1190777859">
		<tag k="name" v="Saltashaugen" />
		<tag k="natural" v="hill" />
		<tag k="place" v="locality" />
		<tag k="ssr:stedsnr" v="384329" />
	</node>
	<node id="-125059" lat="61.6400083302" lon="9.99711389284">
		<tag k="name" v="Ljoshaugen" />
		<tag k="natural" v="hill" />
		<tag k="place" v="locality" />
		<tag k="ssr:stedsnr" v="375000" />
	</node>
	<node id="-125058" lat="61.7040527792" lon="10.0804194388">
		<tag k="name" v="Uksan" />
		<tag k="place" v="locality" />
		<tag k="ssr:stedsnr" v="374973" />
	</node>
	<node id="-125053" lat="61.5346666695" lon="10.2902638855">
		<tag k="alt_name" v="Skarfjellet" />
		<tag k="fixme" v="consider natural=peak for the most distinct mountains in the district" />
		<tag k="name" v="Skardfjellet" />
		<tag k="natural" v="hill" />
		<tag k="place" v="locality" />
		<tag k="ssr:stedsnr" v="374862" />
	</node>
	<node id="-125043" lat="61.6929750019" lon="10.4710222176">
		<tag k="fixme" v="consider natural=peak for the most distinct mountains in the district" />
		<tag k="name" v="Storfjellet" />
		<tag k="natural" v="hill" />
		<tag k="place" v="locality" />
		<tag k="ssr:stedsnr" v="374184" />
	</node>
	<node id="-125040" lat="61.6290416683" lon="10.4878138805">
		<tag k="fixme" v="consider natural=peak for the most distinct mountains in the district" />
		<tag k="name" v="Grønfjellet" />
		<tag k="natural" v="hill" />
		<tag k="place" v="locality" />
		<tag k="ssr:stedsnr" v="374170" />
	</node>
	<node id="-125039" lat="61.58601389" lon="10.6558305534">
		<tag k="fixme" v="consider natural=peak for the most distinct mountains in the district" />
		<tag k="name" v="Langvola" />
		<tag k="natural" v="hill" />
		<tag k="place" v="locality" />
		<tag k="ssr:stedsnr" v="374156" />
	</node>
	<node id="-125038" lat="61.6012000009" lon="10.6321916729">
		<tag k="alt_name" v="Skådalen" />
		<tag k="name" v="Nordre Skådalen" />
		<tag k="natural" v="valley" />
		<tag k="place" v="locality" />
		<tag k="ssr:stedsnr" v="374144" />
	</node>
	<node id="-125032" lat="61.5485027774" lon="10.3357333365">
		<tag k="fixme" v="consider natural=peak for the most distinct mountains in the district" />
		<tag k="name" v="Nysæterkampen" />
		<tag k="natural" v="hill" />
		<tag k="place" v="locality" />
		<tag k="ssr:stedsnr" v="373804" />
	</node>
	<node id="-125031" lat="61.459938887" lon="10.1304611067">
		<tag k="fixme" v="consider natural=peak for the most distinct mountains in the district" />
		<tag k="name" v="Segelstadsæterkampen" />
		<tag k="natural" v="hill" />
		<tag k="old_name" v="Segalstadsæterkampen" />
		<tag k="place" v="locality" />
		<tag k="ssr:stedsnr" v="373579" />
	</node>
	<node id="-125027" lat="61.5295722181" lon="10.6865472153">
		<tag k="alt_name" v="Bjønnskarven" />
		<tag k="fixme" v="consider natural=peak for the most distinct mountains in the district" />
		<tag k="name" v="Bjørnskarven" />
		<tag k="natural" v="hill" />
		<tag k="place" v="locality" />
		<tag k="ssr:stedsnr" v="373209" />
	</node>
	<node id="-125026" lat="61.6699138906" lon="10.5759833406">
		<tag k="alt_name" v="Hellakskletten" />
		<tag k="fixme" v="consider natural=peak for the most distinct mountains in the district" />
		<tag k="name" v="Helakskletten" />
		<tag k="natural" v="hill" />
		<tag k="place" v="locality" />
		<tag k="ssr:stedsnr" v="373150" />
	</node>
	<node id="-125021" lat="61.397830552" lon="10.0139333418">
		<tag k="name" v="Maridalen" />
		<tag k="natural" v="valley" />
		<tag k="place" v="locality" />
		<tag k="ssr:stedsnr" v="372910" />
	</node>
	<node id="-125007" lat="61.3719055533" lon="10.1784750073">
		<tag k="alt_name" v="Skjenfjellet;Skinnfjellet" />
		<tag k="fixme" v="consider natural=peak for the most distinct mountains in the district" />
		<tag k="name" v="Skjenafjellet" />
		<tag k="natural" v="hill" />
		<tag k="place" v="locality" />
		<tag k="ssr:stedsnr" v="371994" />
	</node>
	<node id="-125003" lat="61.3792666709" lon="10.2943750001">
		<tag k="name" v="Kartberget" />
		<tag k="natural" v="hill" />
		<tag k="place" v="locality" />
		<tag k="ssr:stedsnr" v="371877" />
	</node>
	<node id="-124993" lat="61.3964555515" lon="10.1541944417">
		<tag k="name" v="Tutlidalen" />
		<tag k="natural" v="valley" />
		<tag k="place" v="locality" />
		<tag k="ssr:stedsnr" v="361798" />
	</node>
	<node id="-124991" lat="61.5683638922" lon="10.0874805551">
		<tag k="name" v="Langberget" />
		<tag k="natural" v="hill" />
		<tag k="place" v="locality" />
		<tag k="ssr:stedsnr" v="361699" />
	</node>
	<node id="-124990" lat="61.5977166635" lon="10.0533861124">
		<tag k="name" v="Risbakkene" />
		<tag k="natural" v="slope" />
		<tag k="place" v="locality" />
		<tag k="ssr:stedsnr" v="355906" />
	</node>
	<node id="-124989" lat="61.6677944443" lon="9.97248056178">
		<tag k="name" v="Hovdhaugen" />
		<tag k="natural" v="hill" />
		<tag k="place" v="locality" />
		<tag k="ssr:stedsnr" v="355628" />
	</node>
	<node id="-124988" lat="61.6797611121" lon="9.98990833478">
		<tag k="name" v="Klinkenberg" />
		<tag k="natural" v="hill" />
		<tag k="place" v="locality" />
		<tag k="ssr:stedsnr" v="355622" />
	</node>
	<node id="-124984" lat="61.4265027804" lon="10.3631472192">
		<tag k="name" v="Glupen" />
		<tag k="natural" v="ridge" />
		<tag k="place" v="locality" />
		<tag k="ssr:stedsnr" v="344635" />
	</node>
	<node id="-124976" lat="61.3765722242" lon="10.1683777809">
		<tag k="name" v="Flåa" />
		<tag k="natural" v="slope" />
		<tag k="place" v="locality" />
		<tag k="ssr:stedsnr" v="342735" />
	</node>
	<node id="-124972" lat="61.4915805513" lon="10.0948444387">
		<tag k="name" v="Elvestadsletta" />
		<tag k="place" v="locality" />
		<tag k="ssr:stedsnr" v="342677" />
	</node>
	<node id="-124970" lat="61.5252638895" lon="10.3019277738">
		<tag k="name" v="Kvisthaugene" />
		<tag k="natural" v="hill" />
		<tag k="place" v="locality" />
		<tag k="ssr:stedsnr" v="342651" />
	</node>
	<node id="-124968" lat="61.5362027768" lon="10.2878111097">
		<tag k="name" v="Skaret" />
		<tag k="natural" v="valley" />
		<tag k="place" v="locality" />
		<tag k="ssr:stedsnr" v="342629" />
	</node>
	<node id="-124961" lat="61.6132083318" lon="10.2794944531">
		<tag k="name" v="Skjennalia" />
		<tag k="natural" v="slope" />
		<tag k="place" v="locality" />
		<tag k="ssr:stedsnr" v="342486" />
	</node>
	<node id="-124956" lat="61.4496722259" lon="10.3117750049">
		<tag k="name" v="Skaret" />
		<tag k="natural" v="valley" />
		<tag k="place" v="locality" />
		<tag k="ssr:stedsnr" v="342313" />
	</node>
	<node id="-124954" lat="61.4164472231" lon="10.3289527858">
		<tag k="name" v="Belsrudskaret" />
		<tag k="natural" v="valley" />
		<tag k="place" v="locality" />
		<tag k="ssr:stedsnr" v="342290" />
	</node>
	<node id="-124953" lat="61.4253111083" lon="10.3510777802">
		<tag k="name" v="Brånnåkampen" />
		<tag k="natural" v="hill" />
		<tag k="place" v="locality" />
		<tag k="ssr:stedsnr" v="342283" />
	</node>
	<node id="-124952" lat="61.4309277799" lon="10.319011111">
		<tag k="fixme" v="consider natural=peak for the most distinct mountains in the district" />
		<tag k="name" v="Stulsfjellet" />
		<tag k="natural" v="hill" />
		<tag k="place" v="locality" />
		<tag k="ssr:stedsnr" v="342280" />
	</node>
	<node id="-124944" lat="61.5837194475" lon="10.168449993">
		<tag k="name" v="Volerenna" />
		<tag k="natural" v="valley" />
		<tag k="place" v="locality" />
		<tag k="ssr:stedsnr" v="342005" />
	</node>
	<node id="-124940" lat="61.5046777781" lon="10.5422777694">
		<tag k="name" v="Middagshaugen" />
		<tag k="natural" v="hill" />
		<tag k="place" v="locality" />
		<tag k="ssr:stedsnr" v="342928" />
	</node>
	<node id="-124938" lat="61.6210027806" lon="10.0632888866">
		<tag k="name" v="Rauhaugen" />
		<tag k="natural" v="hill" />
		<tag k="place" v="locality" />
		<tag k="ssr:stedsnr" v="330000" />
	</node>
	<node id="-124937" lat="61.6685416685" lon="9.97021388977">
		<tag k="name" v="Hovdhaugen" />
		<tag k="natural" v="hill" />
		<tag k="place" v="locality" />
		<tag k="ssr:stedsnr" v="329986" />
	</node>
	<node id="-124930" lat="61.5742499957" lon="10.4856055599">
		<tag k="alt_name" v="Gråhøgda, s" />
		<tag k="fixme" v="consider natural=peak for the most distinct mountains in the district" />
		<tag k="name" v="Søre Gråhøgda" />
		<tag k="natural" v="hill" />
		<tag k="place" v="locality" />
		<tag k="ssr:stedsnr" v="314146" />
	</node>
</osm>
