<?xml version="1.0" encoding="UTF-8"?>
<osm version="0.6" generator="osmapis">
	<node lat="70.47068334075786" lon="26.915060695912462" id="-72448">
		<tag k="name" v="Friarfjord" />
		<tag k="place" v="hamlet" />
		<tag k="ssr:stedsnr" v="25089" />
	</node>
	<node lat="70.66380834028983" lon="26.544816328133255" id="-72453">
		<tag k="name" v="Myrland" />
		<tag k="place" v="farm" />
		<tag k="ssr:stedsnr" v="29915" />
	</node>
	<node lat="70.48005001338983" lon="27.10530510746545" id="-72471">
		<tag k="name" v="Prestbakken - Dážagáddi" />
		<tag k="name:no" v="Prestbakken" />
		<tag k="name:se" v="Dážagáddi" />
		<tag k="old_name:se" v="Dažsgaddi" />
		<tag k="place" v="farm" />
		<tag k="ssr:stedsnr" v="81246" />
	</node>
	<node lat="70.65768612500604" lon="26.58813020371127" id="-72477">
		<tag k="name" v="Veidnes - Sáltesávju" />
		<tag k="name:no" v="Veidnes" />
		<tag k="name:se" v="Sáltesávju" />
		<tag k="old_name:no" v="Veidneset" />
		<tag k="place" v="hamlet" />
		<tag k="ssr:stedsnr" v="87572" />
	</node>
	<node lat="70.54781112674333" lon="26.97762736227327" id="-72536">
		<tag k="name" v="Skjånes" />
		<tag k="place" v="hamlet" />
		<tag k="ssr:stedsnr" v="262637" />
	</node>
	<node lat="70.58357501497633" lon="27.24159952283227" id="-72539">
		<tag k="name" v="Elvebakken" />
		<tag k="place" v="farm" />
		<tag k="ssr:stedsnr" v="262756" />
	</node>
	<node lat="70.52607223826834" lon="27.02292456784943" id="-72541">
		<tag k="name" v="Nyrud" />
		<tag k="place" v="farm" />
		<tag k="ssr:stedsnr" v="262780" />
	</node>
	<node lat="70.83549883448357" lon="26.66335593032737" id="-72553">
		<tag k="name" v="Tømmervik" />
		<tag k="place" v="farm" />
		<tag k="ssr:stedsnr" v="263274" />
	</node>
	<node lat="70.66529723107952" lon="27.184377327267917" id="-72576">
		<tag k="name" v="Eidet" />
		<tag k="place" v="farm" />
		<tag k="ssr:stedsnr" v="202702" />
	</node>
	<node lat="70.68640834884005" lon="27.167252326008196" id="-72577">
		<tag k="alt_name" v="Breidvik" />
		<tag k="name" v="Breivika" />
		<tag k="place" v="farm" />
		<tag k="ssr:stedsnr" v="202703" />
	</node>
	<node lat="70.4709222326894" lon="26.762413491426162" id="-72582">
		<tag k="name" v="Sommarvik" />
		<tag k="place" v="isolated_dwelling" />
		<tag k="ssr:stedsnr" v="268164" />
	</node>
	<node lat="70.91610000961339" lon="27.397771777173727" id="-72586">
		<tag k="name" v="Krampenes" />
		<tag k="place" v="locality" />
		<tag k="ssr:stedsnr" v="207190" />
	</node>
	<node lat="70.37560557051121" lon="26.538857971667156" id="-72587">
		<tag k="name" v="Skjennes" />
		<tag k="place" v="farm" />
		<tag k="ssr:stedsnr" v="268719" />
	</node>
	<node lat="70.45746390399377" lon="27.10620509850091" id="-72588">
		<tag k="name" v="Skogfred" />
		<tag k="place" v="farm" />
		<tag k="ssr:stedsnr" v="208031" />
	</node>
	<node lat="70.58891390404465" lon="27.283780069273348" id="-72593">
		<tag k="name" v="Bekkarfjordbotn" />
		<tag k="place" v="farm" />
		<tag k="ssr:stedsnr" v="269452" />
	</node>
	<node lat="70.46216390549765" lon="26.972805115548315" id="-72607">
		<tag k="name" v="Holmestrand" />
		<tag k="place" v="farm" />
		<tag k="ssr:stedsnr" v="450081" />
	</node>
	<node lat="70.43207289979027" lon="26.58722326691088" id="-72611">
		<tag k="name" v="Brattholmen" />
		<tag k="place" v="farm" />
		<tag k="ssr:stedsnr" v="451237" />
	</node>
	<node lat="70.66335279248528" lon="27.165549568254924" id="-72612">
		<tag k="name" v="Rundhaugen" />
		<tag k="place" v="farm" />
		<tag k="ssr:stedsnr" v="451400" />
	</node>
	<node lat="70.65013056618572" lon="26.613569101862343" id="-72618">
		<tag k="name" v="Elvejord" />
		<tag k="place" v="farm" />
		<tag k="ssr:stedsnr" v="454946" />
	</node>
	<node lat="70.306161119107" lon="26.379607975089684" id="-72632">
		<tag k="name" v="Karlstad" />
		<tag k="place" v="isolated_dwelling" />
		<tag k="ssr:stedsnr" v="456641" />
	</node>
	<node lat="70.52322778672077" lon="26.999252335453736" id="-72644">
		<tag k="name" v="Oldervik" />
		<tag k="place" v="hamlet" />
		<tag k="ssr:stedsnr" v="262648" />
	</node>
	<node lat="70.35343889687897" lon="26.51891907331309" id="-72653">
		<tag k="name" v="Kunes" />
		<tag k="place" v="farm" />
		<tag k="ssr:stedsnr" v="268728" />
	</node>
	<node lat="70.66443889434122" lon="26.55351632355185" id="-72657">
		<tag k="name" v="Lavsnes" />
		<tag k="place" v="farm" />
		<tag k="ssr:stedsnr" v="272908" />
	</node>
	<node lat="70.9562646135472" lon="27.551890693220027" id="-72675">
		<tag k="alt_name" v="Sørbotn" />
		<tag k="name" v="Sørbotnen" />
		<tag k="place" v="farm" />
		<tag k="ssr:stedsnr" v="323222" />
	</node>
	<node lat="70.55715834922498" lon="27.01693290077297" id="-72707">
		<tag k="fixme" v="consider place=hamlet" />
		<tag k="name" v="Bukta" />
		<tag k="place" v="village" />
		<tag k="ssr:stedsnr" v="383652" />
	</node>
	<node lat="70.57278612177706" lon="27.001932919896685" id="-72708">
		<tag k="fixme" v="consider place=hamlet" />
		<tag k="name" v="Lebesby - Davvesiida" />
		<tag k="name:no" v="Lebesby" />
		<tag k="name:se" v="Davvesiida" />
		<tag k="place" v="village" />
		<tag k="ssr:stedsnr" v="383654" />
	</node>
	<node lat="70.65825278873149" lon="26.58803853485306" id="-72716">
		<tag k="alt_name" v="Veidnes øvre" />
		<tag k="name" v="Veines, øvre" />
		<tag k="place" v="farm" />
		<tag k="ssr:stedsnr" v="384619" />
	</node>
	<node lat="70.86402949392686" lon="26.667609289456838" id="-72723">
		<tag k="name" v="Hamnvær" />
		<tag k="place" v="farm" />
		<tag k="ssr:stedsnr" v="390944" />
	</node>
	<node lat="70.66268056577688" lon="26.557260764671327" id="-72725">
		<tag k="name" v="Solheim" />
		<tag k="place" v="farm" />
		<tag k="ssr:stedsnr" v="393908" />
	</node>
	<node lat="70.6603527888144" lon="26.57787465322352" id="-72726">
		<tag k="name" v="Krattås" />
		<tag k="place" v="farm" />
		<tag k="ssr:stedsnr" v="393948" />
	</node>
	<node lat="70.50653890376807" lon="27.03302455065567" id="-72761">
		<tag k="name" v="Kjellbakken" />
		<tag k="place" v="farm" />
		<tag k="ssr:stedsnr" v="272488" />
	</node>
	<node lat="70.660700011211" lon="26.557657991887336" id="-72765">
		<tag k="name" v="Slettvoll" />
		<tag k="place" v="farm" />
		<tag k="ssr:stedsnr" v="454966" />
	</node>
	<node lat="70.93315834350031" lon="27.408127313354875" id="-72771">
		<tag k="name" v="Wicklund" />
		<tag k="place" v="locality" />
		<tag k="ssr:stedsnr" v="455960" />
	</node>
	<node lat="70.79204445274931" lon="27.208230109006042" id="-72804">
		<tag k="name" v="Mårøy" />
		<tag k="place" v="farm" />
		<tag k="ssr:stedsnr" v="511346" />
	</node>
	<node lat="70.35418052355186" lon="26.518513607066843" id="-72821">
		<tag k="fixme" v="consider place=hamlet" />
		<tag k="name" v="Kunes - Gussanjárga" />
		<tag k="name:no" v="Kunes" />
		<tag k="name:se" v="Gussanjárga" />
		<tag k="old_name:se" v="Gussanjarga" />
		<tag k="place" v="village" />
		<tag k="ssr:stedsnr" v="687128" />
	</node>
	<node lat="71.01928890080669" lon="27.37029955572358" id="-72836">
		<tag k="fixme" v="consider place=hamlet" />
		<tag k="name" v="Skjøtningberg" />
		<tag k="place" v="village" />
		<tag k="ssr:stedsnr" v="687470" />
	</node>
	<node lat="70.59483335127173" lon="27.278199515076913" id="-72842">
		<tag k="name" v="Solvang" />
		<tag k="place" v="farm" />
		<tag k="ssr:stedsnr" v="687729" />
	</node>
	<node lat="70.884225006418" lon="27.413221767587075" id="-72847">
		<tag k="alt_name" v="Gamlevik" />
		<tag k="name" v="Gammelvika" />
		<tag k="place" v="farm" />
		<tag k="ssr:stedsnr" v="687763" />
	</node>
	<node lat="70.42643057028616" lon="26.6425246266297" id="-72867">
		<tag k="name" v="Elvevik" />
		<tag k="place" v="isolated_dwelling" />
		<tag k="ssr:stedsnr" v="692165" />
	</node>
	<node lat="70.46268612391802" lon="27.106113430531284" id="-72875">
		<tag k="fixme" v="consider place=hamlet" />
		<tag k="name" v="Ifjord - Idjavuotna" />
		<tag k="name:no" v="Ifjord" />
		<tag k="name:se" v="Idjavuotna" />
		<tag k="old_name:se" v="Iddjavuodna" />
		<tag k="place" v="village" />
		<tag k="ssr:stedsnr" v="566220" />
	</node>
	<node lat="70.62566591138723" lon="27.16909708251807" id="-72887">
		<tag k="name" v="Storeng" />
		<tag k="place" v="locality" />
		<tag k="ssr:stedsnr" v="566709" />
	</node>
	<node lat="70.55366945298368" lon="27.008477354685635" id="-72893">
		<tag k="name" v="Stranda" />
		<tag k="place" v="farm" />
		<tag k="ssr:stedsnr" v="692862" />
	</node>
	<node lat="70.90007501095748" lon="27.191180128505305" id="-72895">
		<tag k="name" v="Stormolla" />
		<tag k="place" v="isolated_dwelling" />
		<tag k="ssr:stedsnr" v="570034" />
	</node>
	<node lat="70.58177778751502" lon="27.24904675791542" id="-72896">
		<tag k="name" v="Sandbakken" />
		<tag k="place" v="farm" />
		<tag k="ssr:stedsnr" v="693435" />
	</node>
	<node lat="70.38085834797796" lon="26.628352388833214" id="-72900">
		<tag k="name" v="Under Fossen" />
		<tag k="place" v="farm" />
		<tag k="ssr:stedsnr" v="693743" />
	</node>
	<node lat="70.36227778560404" lon="26.475330200369342" id="-72901">
		<tag k="name" v="Båtvik" />
		<tag k="place" v="farm" />
		<tag k="ssr:stedsnr" v="571695" />
	</node>
	<node lat="70.74783334879342" lon="27.11385789915922" id="-72902">
		<tag k="name" v="Vardnes" />
		<tag k="place" v="locality" />
		<tag k="ssr:stedsnr" v="572407" />
	</node>
	<node lat="70.65389445480878" lon="26.612577420766474" id="-72906">
		<tag k="alt_name" v="Sandsletten" />
		<tag k="name" v="Sandslotten" />
		<tag k="place" v="farm" />
		<tag k="ssr:stedsnr" v="575946" />
	</node>
	<node lat="70.34308890471827" lon="26.53168017672809" id="-72925">
		<tag k="name" v="Etnedal" />
		<tag k="place" v="farm" />
		<tag k="ssr:stedsnr" v="699710" />
	</node>
	<node lat="70.63443411952514" lon="27.110434095426523" id="-72944">
		<tag k="name" v="Tordenvik" />
		<tag k="place" v="locality" />
		<tag k="ssr:stedsnr" v="627710" />
	</node>
	<node lat="70.612766676074" lon="27.06737178641132" id="-72951">
		<tag k="name" v="Sørstrand" />
		<tag k="place" v="locality" />
		<tag k="ssr:stedsnr" v="636194" />
	</node>
	<node lat="70.51963334152843" lon="26.993496789639487" id="-72952">
		<tag k="name" v="Nordre Auskarnes" />
		<tag k="place" v="farm" />
		<tag k="ssr:stedsnr" v="636527" />
	</node>
	<node lat="70.67221667654152" lon="26.605780217477264" id="-72955">
		<tag k="name" v="Holmjord" />
		<tag k="place" v="farm" />
		<tag k="ssr:stedsnr" v="636934" />
	</node>
	<node lat="70.5879805638324" lon="27.23184953638117" id="-72977">
		<tag k="name" v="Steinbakken" />
		<tag k="place" v="farm" />
		<tag k="ssr:stedsnr" v="687735" />
	</node>
	<node lat="70.84328194246352" lon="27.467104239444883" id="-72978">
		<tag k="alt_name" v="Eirsvåg" />
		<tag k="name" v="Ersvåg" />
		<tag k="place" v="isolated_dwelling" />
		<tag k="ssr:stedsnr" v="687784" />
	</node>
	<node lat="70.64799167541106" lon="26.607769092664114" id="-72982">
		<tag k="name" v="Sandbakken" />
		<tag k="place" v="farm" />
		<tag k="ssr:stedsnr" v="691782" />
	</node>
	<node lat="70.65083889433798" lon="26.2788608003359" id="-73025">
		<tag k="name" v="Solbakken" />
		<tag k="place" v="locality" />
		<tag k="ssr:stedsnr" v="757803" />
	</node>
	<node lat="70.36971112118167" lon="26.478607969650476" id="-73033">
		<tag k="name" v="Olsborg" />
		<tag k="place" v="isolated_dwelling" />
		<tag k="ssr:stedsnr" v="760704" />
	</node>
	<node lat="70.87069167871998" lon="27.504163407063725" id="-73052">
		<tag k="fixme" v="consider place=hamlet" />
		<tag k="name" v="Nordmannset" />
		<tag k="place" v="village" />
		<tag k="ssr:stedsnr" v="809785" />
	</node>
	<node lat="70.75497174039562" lon="27.35644044156107" id="-73056">
		<tag k="name" v="Elvestrand" />
		<tag k="place" v="farm" />
		<tag k="ssr:stedsnr" v="809805" />
	</node>
	<node lat="70.3527194578064" lon="26.518188520998137" id="-73078">
		<tag k="name" v="Solbakken" />
		<tag k="place" v="isolated_dwelling" />
		<tag k="ssr:stedsnr" v="821524" />
	</node>
	<node lat="70.46867501465418" lon="26.916019029315034" id="-73089">
		<tag k="name" v="Nyheim" />
		<tag k="place" v="farm" />
		<tag k="ssr:stedsnr" v="868305" />
	</node>
	<node lat="70.48174050982931" lon="27.101202611139517" id="-73114">
		<tag k="name" v="Nordmannset" />
		<tag k="place" v="farm" />
		<tag k="ssr:stedsnr" v="930224" />
	</node>
	<node lat="70.58837223497451" lon="27.283855074015495" id="-73153">
		<tag k="name" v="Kråbøl" />
		<tag k="place" v="farm" />
		<tag k="ssr:stedsnr" v="930759" />
	</node>
	<node lat="70.88771946046796" lon="27.47738007962954" id="-73156">
		<tag k="alt_name" v="Djupvik" />
		<tag k="name" v="Djupvika" />
		<tag k="place" v="isolated_dwelling" />
		<tag k="ssr:stedsnr" v="930787" />
	</node>
	<node lat="70.96429445985899" lon="27.566730068651" id="-73159">
		<tag k="alt_name" v="Oksvåg" />
		<tag k="name" v="Oksevåg" />
		<tag k="place" v="neighbourhood" />
		<tag k="ssr:stedsnr" v="875610" />
	</node>
	<node lat="70.7283416743167" lon="27.29780787887888" id="-73173">
		<tag k="name" v="Vestre Mårøyfjord" />
		<tag k="place" v="farm" />
		<tag k="ssr:stedsnr" v="935354" />
	</node>
	<node lat="70.81560388977535" lon="26.711247552155783" id="-73184">
		<tag k="name" v="Barluft - Bárluokta" />
		<tag k="name:no" v="Barluft" />
		<tag k="name:se" v="Bárluokta" />
		<tag k="old_name:se" v="Barluokta" />
		<tag k="place" v="isolated_dwelling" />
		<tag k="ssr:stedsnr" v="930255" />
	</node>
	<node lat="70.66545001205283" lon="27.20887177844273" id="-73200">
		<tag k="fixme" v="multiple name tags, choose one and add the other to alt_name" />
		<tag k="name" v="Haug;Store Torskefjord" />
		<tag k="place" v="farm" />
		<tag k="ssr:stedsnr" v="930693" />
	</node>
	<node lat="70.90405485092835" lon="27.173595406685777" id="-73256">
		<tag k="name" v="Garte - Gáica" />
		<tag k="name:no" v="Garte" />
		<tag k="name:se" v="Gáica" />
		<tag k="old_name:se" v="Gaica" />
		<tag k="place" v="isolated_dwelling" />
		<tag k="ssr:stedsnr" v="20784" />
	</node>
	<node lat="70.8967964674312" lon="27.301970581124376" id="-73267">
		<tag k="name" v="Galne Olavik" />
		<tag k="place" v="locality" />
		<tag k="ssr:stedsnr" v="25043" />
	</node>
	<node lat="70.46027550557478" lon="26.91156877839214" id="-73269">
		<tag k="name" v="Elvebakken" />
		<tag k="place" v="farm" />
		<tag k="ssr:stedsnr" v="25062" />
	</node>
	<node lat="70.4606722373463" lon="27.06927731683655" id="-73270">
		<tag k="name" v="Grasdal" />
		<tag k="place" v="farm" />
		<tag k="ssr:stedsnr" v="25016" />
	</node>
	<node lat="70.47089167934163" lon="27.076443993893214" id="-73271">
		<tag k="name" v="Leirpollen" />
		<tag k="place" v="farm" />
		<tag k="ssr:stedsnr" v="25020" />
	</node>
	<node lat="70.93690834717917" lon="27.398738428260238" id="-73285">
		<tag k="name" v="Nymo" />
		<tag k="place" v="locality" />
		<tag k="ssr:stedsnr" v="30942" />
	</node>
	<node lat="70.68068334599549" lon="27.159077327304153" id="-73346">
		<tag k="name" v="Straumen" />
		<tag k="place" v="isolated_dwelling" />
		<tag k="ssr:stedsnr" v="81693" />
	</node>
	<node lat="70.62395278262272" lon="26.607669096307674" id="-73351">
		<tag k="name" v="Skjelvika" />
		<tag k="place" v="farm" />
		<tag k="ssr:stedsnr" v="85731" />
	</node>
	<node lat="70.66458056086256" lon="26.54918299949721" id="-73352">
		<tag k="name" v="Vibukt" />
		<tag k="place" v="farm" />
		<tag k="ssr:stedsnr" v="85749" />
	</node>
	<node lat="70.48223334475134" lon="26.80932182504384" id="-73354">
		<tag k="name" v="Vestre Eikvik" />
		<tag k="place" v="farm" />
		<tag k="ssr:stedsnr" v="86095" />
	</node>
	<node lat="70.76407223052271" lon="27.291838427552275" id="-73356">
		<tag k="name" v="Sommarhamn" />
		<tag k="place" v="farm" />
		<tag k="ssr:stedsnr" v="86355" />
	</node>
	<node lat="71.03345557054097" lon="27.305252348181604" id="-73360">
		<tag k="name" v="Kjelsvik" />
		<tag k="place" v="locality" />
		<tag k="ssr:stedsnr" v="87859" />
	</node>
	<node lat="70.65271390248888" lon="26.59761631743588" id="-73363">
		<tag k="name" v="Storslett" />
		<tag k="place" v="locality" />
		<tag k="ssr:stedsnr" v="90954" />
	</node>
	<node lat="70.35046112348785" lon="26.524744070221868" id="-73372">
		<tag k="name" v="Elvebakken" />
		<tag k="place" v="farm" />
		<tag k="ssr:stedsnr" v="92732" />
	</node>
	<node lat="70.68333334365835" lon="26.418055227608544" id="-73377">
		<tag k="name" v="Skoger" />
		<tag k="place" v="locality" />
		<tag k="ssr:stedsnr" v="93519" />
	</node>
	<node lat="70.46214168403502" lon="26.91079401831828" id="-73402">
		<tag k="name" v="Heimdal" />
		<tag k="place" v="farm" />
		<tag k="ssr:stedsnr" v="140353" />
	</node>
	<node lat="70.49150834481054" lon="26.54668853775409" id="-73404">
		<tag k="alt_name:no" v="Korsnes, ytre" />
		<tag k="name" v="Ytre Korsnes - Guovdabákti" />
		<tag k="name:no" v="Ytre Korsnes" />
		<tag k="name:se" v="Guovdabákti" />
		<tag k="old_name:se" v="Guovdabakti" />
		<tag k="place" v="isolated_dwelling" />
		<tag k="ssr:stedsnr" v="140380" />
	</node>
	<node lat="70.5851027882789" lon="27.273380089769322" id="-73419">
		<tag k="name" v="Kroken" />
		<tag k="place" v="farm" />
		<tag k="ssr:stedsnr" v="140721" />
	</node>
	<node lat="70.91424445415214" lon="27.3936190014442" id="-73422">
		<tag k="fixme" v="consider place=hamlet" />
		<tag k="name" v="Kifjord" />
		<tag k="place" v="village" />
		<tag k="ssr:stedsnr" v="141190" />
	</node>
	<node lat="70.96202500956943" lon="26.684094110061384" id="-73424">
		<tag k="name" v="Sværholt" />
		<tag k="place" v="isolated_dwelling" />
		<tag k="ssr:stedsnr" v="141144" />
	</node>
	<node lat="71.11355810006111" lon="27.643916255404964" id="-73433">
		<tag k="alt_name" v="Sandfjordroren" />
		<tag k="name" v="Roren" />
		<tag k="place" v="locality" />
		<tag k="ssr:stedsnr" v="141499" />
	</node>
	<node lat="70.89518890001588" lon="27.269796777736293" id="-73436">
		<tag k="loc_name" v="Brenngammen" />
		<tag k="name" v="Brenngam" />
		<tag k="place" v="hamlet" />
		<tag k="ssr:stedsnr" v="141735" />
	</node>
	<node lat="70.73022779319268" lon="27.295227322994037" id="-73449">
		<tag k="name" v="Strandjord" />
		<tag k="place" v="farm" />
		<tag k="ssr:stedsnr" v="146331" />
	</node>
	<node lat="70.48005001160072" lon="27.105285653889645" id="-73452">
		<tag k="name" v="Prestelvbakken" />
		<tag k="place" v="farm" />
		<tag k="ssr:stedsnr" v="147282" />
	</node>
	<node lat="70.65259167692908" lon="26.286533015062492" id="-73456">
		<tag k="name" v="Elvekroken" />
		<tag k="place" v="isolated_dwelling" />
		<tag k="ssr:stedsnr" v="150799" />
	</node>
	<node lat="70.48233890029222" lon="27.101157865200395" id="-73460">
		<tag k="name" v="Leirbukt" />
		<tag k="place" v="hamlet" />
		<tag k="ssr:stedsnr" v="151576" />
	</node>
	<node lat="70.58231112802059" lon="26.991969017353362" id="-73462">
		<tag k="name" v="Karlmyr" />
		<tag k="place" v="farm" />
		<tag k="ssr:stedsnr" v="151589" />
	</node>
	<node lat="70.66656667868737" lon="26.540071889759062" id="-73466">
		<tag k="name" v="Bergvang" />
		<tag k="place" v="farm" />
		<tag k="ssr:stedsnr" v="151924" />
	</node>
	<node lat="70.54875556594499" lon="26.9740884574415" id="-73475">
		<tag k="name" v="Vestre Skjånes" />
		<tag k="place" v="farm" />
		<tag k="ssr:stedsnr" v="151984" />
	</node>
	<node lat="70.47918057057844" lon="26.928485694362603" id="-73486">
		<tag k="name" v="Storjord" />
		<tag k="place" v="locality" />
		<tag k="ssr:stedsnr" v="272996" />
	</node>
	<node lat="70.82443629087261" lon="26.721750566977075" id="-73509">
		<tag k="alt_name" v="Godviknes" />
		<tag k="name" v="Godvik" />
		<tag k="place" v="farm" />
		<tag k="ssr:stedsnr" v="202234" />
	</node>
	<node lat="70.66602223487729" lon="27.17589196512328" id="-73522">
		<tag k="name" v="Eidet" />
		<tag k="place" v="farm" />
		<tag k="ssr:stedsnr" v="202693" />
	</node>
	<node lat="70.52120834117028" lon="26.550219091686987" id="-73531">
		<tag k="name" v="Kjeldejord" />
		<tag k="place" v="farm" />
		<tag k="ssr:stedsnr" v="202668" />
	</node>
	<node lat="70.55466389676812" lon="27.028580127911546" id="-73538">
		<tag k="name" v="Sørli" />
		<tag k="place" v="farm" />
		<tag k="ssr:stedsnr" v="202751" />
	</node>
	<node lat="70.4556138986893" lon="26.949941235141747" id="-73553">
		<tag k="name" v="Solbakken" />
		<tag k="place" v="farm" />
		<tag k="ssr:stedsnr" v="207085" />
	</node>
	<node lat="70.6658250097848" lon="27.16191623347447" id="-73557">
		<tag k="name" v="Djuphol" />
		<tag k="place" v="isolated_dwelling" />
		<tag k="ssr:stedsnr" v="208471" />
	</node>
	<node lat="70.65501112335937" lon="26.598816319062458" id="-73561">
		<tag k="name" v="Mellomjord" />
		<tag k="place" v="farm" />
		<tag k="ssr:stedsnr" v="211956" />
	</node>
	<node lat="70.38854445396548" lon="26.627341290797137" id="-73585">
		<tag k="name" v="Adamsfjord - Lárehiidgieddi" />
		<tag k="name:no" v="Adamsfjord" />
		<tag k="name:se" v="Lárehiidgieddi" />
		<tag k="old_name:se" v="Larehiidgieddi" />
		<tag k="place" v="isolated_dwelling" />
		<tag k="ssr:stedsnr" v="322147" />
	</node>
	<node lat="70.43209723674593" lon="26.585982952369942" id="-73595">
		<tag k="fixme" v="consider place=hamlet" />
		<tag k="name" v="Laksefjordbotn" />
		<tag k="place" v="village" />
		<tag k="ssr:stedsnr" v="322315" />
	</node>
	<node lat="70.66043056683075" lon="26.57297743756788" id="-73638">
		<tag k="name" v="Bukta" />
		<tag k="place" v="farm" />
		<tag k="ssr:stedsnr" v="327742" />
	</node>
	<node lat="70.39023612439813" lon="26.49757464463697" id="-73639">
		<tag k="name" v="Matsjok" />
		<tag k="place" v="farm" />
		<tag k="ssr:stedsnr" v="328598" />
	</node>
	<node lat="70.6830694534349" lon="27.13922178050718" id="-73646">
		<tag k="name" v="Jonsneset" />
		<tag k="place" v="locality" />
		<tag k="ssr:stedsnr" v="329482" />
	</node>
	<node lat="71.09655001353809" lon="27.627518984718993" id="-73647">
		<tag k="name" v="Sandfjord" />
		<tag k="place" v="locality" />
		<tag k="ssr:stedsnr" v="329630" />
	</node>
	<node lat="70.89374445473287" lon="26.71120243293803" id="-73648">
		<tag k="name" v="Hellervik" />
		<tag k="old_name" v="Hellarvik" />
		<tag k="place" v="isolated_dwelling" />
		<tag k="ssr:stedsnr" v="330642" />
	</node>
	<node lat="70.65320556344687" lon="26.613646872923255" id="-73654">
		<tag k="name" v="Lyngheim" />
		<tag k="place" v="locality" />
		<tag k="ssr:stedsnr" v="333939" />
	</node>
	<node lat="70.66084167332967" lon="26.564119101442476" id="-73657">
		<tag k="name" v="Rundjord" />
		<tag k="place" v="farm" />
		<tag k="ssr:stedsnr" v="333960" />
	</node>
	<node lat="70.36909167676416" lon="26.475635738779655" id="-73663">
		<tag k="name" v="Bakkeheimen" />
		<tag k="place" v="isolated_dwelling" />
		<tag k="ssr:stedsnr" v="335726" />
	</node>
	<node lat="70.64041667101502" lon="26.260360807471955" id="-73700">
		<tag k="name" v="Gáhkkornjunni" />
		<tag k="name:se" v="Gáhkkornjunni" />
		<tag k="old_name:se" v="Gakkurnjunni" />
		<tag k="place" v="locality" />
		<tag k="ssr:stedsnr" v="383591" />
	</node>
	<node lat="70.89806111932275" lon="27.22478289002222" id="-73705">
		<tag k="fixme" v="consider place=hamlet" />
		<tag k="loc_name:se" v="Dáigevuotna;Dáigevuonna" />
		<tag k="name" v="Dyfjord" />
		<tag k="name:no" v="Dyfjord" />
		<tag k="place" v="village" />
		<tag k="ssr:stedsnr" v="383772" />
	</node>
	<node lat="70.99395000720669" lon="27.328477338669273" id="-73713">
		<tag k="name" v="Bekkaslåtten" />
		<tag k="place" v="locality" />
		<tag k="ssr:stedsnr" v="384237" />
	</node>
	<node lat="70.85413334239135" lon="27.515199510476847" id="-73725">
		<tag k="name" v="Ørntindvik" />
		<tag k="place" v="locality" />
		<tag k="ssr:stedsnr" v="389165" />
	</node>
	<node lat="70.54910556920376" lon="26.978446786647208" id="-73736">
		<tag k="name" v="Østre Skjånes" />
		<tag k="place" v="locality" />
		<tag k="ssr:stedsnr" v="393973" />
	</node>
	<node lat="70.92989723242839" lon="27.46364674963453" id="-73743">
		<tag k="name" v="Noatun" />
		<tag k="place" v="isolated_dwelling" />
		<tag k="ssr:stedsnr" v="394974" />
	</node>
	<node lat="70.65899723343409" lon="26.596921875683506" id="-73748">
		<tag k="name" v="Veidnes" />
		<tag k="place" v="farm" />
		<tag k="ssr:stedsnr" v="395343" />
	</node>
	<node lat="70.34482223353402" lon="26.51576351915309" id="-73752">
		<tag k="name" v="Moen" />
		<tag k="place" v="farm" />
		<tag k="ssr:stedsnr" v="395755" />
	</node>
	<node lat="70.34306945387235" lon="26.510582975449136" id="-73753">
		<tag k="name" v="Storli" />
		<tag k="place" v="farm" />
		<tag k="ssr:stedsnr" v="396696" />
	</node>
	<node lat="70.79279563610194" lon="26.69242745074638" id="-73799">
		<tag k="name" v="Springsteinen - Gilbegeađgi" />
		<tag k="name:no" v="Springsteinen" />
		<tag k="name:se" v="Gilbegeađgi" />
		<tag k="old_name:se" v="Gilbegæđgi" />
		<tag k="place" v="locality" />
		<tag k="ssr:stedsnr" v="445251" />
	</node>
	<node lat="70.55194168257438" lon="26.996446791765" id="-73883">
		<tag k="name" v="Stallnes" />
		<tag k="place" v="isolated_dwelling" />
		<tag k="ssr:stedsnr" v="510891" />
	</node>
	<node lat="70.6548444494739" lon="26.592785769648714" id="-73892">
		<tag k="name" v="Øvrejord" />
		<tag k="place" v="farm" />
		<tag k="ssr:stedsnr" v="514954" />
	</node>
	<node lat="70.57301112095496" lon="27.014277347572907" id="-73907">
		<tag k="name" v="Øverbygda" />
		<tag k="place" v="hamlet" />
		<tag k="ssr:stedsnr" v="516581" />
	</node>
	<node lat="70.34602223366798" lon="26.513002412603342" id="-73917">
		<tag k="name" v="Sørelv" />
		<tag k="place" v="farm" />
		<tag k="ssr:stedsnr" v="544997" />
	</node>
	<node lat="70.40104567249007" lon="26.63518710763314" id="-73921">
		<tag k="alt_name" v="Sommerset" />
		<tag k="name" v="Sommarset" />
		<tag k="place" v="farm" />
		<tag k="ssr:stedsnr" v="564150" />
	</node>
	<node lat="70.73687222896297" lon="26.65296075509582" id="-73980">
		<tag k="name" v="Veidgam" />
		<tag k="place" v="isolated_dwelling" />
		<tag k="ssr:stedsnr" v="570831" />
	</node>
	<node lat="70.34421945624244" lon="26.524649643579373" id="-74006">
		<tag k="name" v="Kvilhaug" />
		<tag k="place" v="farm" />
		<tag k="ssr:stedsnr" v="577757" />
	</node>
	<node lat="70.45860834711239" lon="27.10228564196001" id="-74007">
		<tag k="name" v="Øvermo" />
		<tag k="place" v="farm" />
		<tag k="ssr:stedsnr" v="605616" />
	</node>
	<node lat="70.94574167658017" lon="27.346332883276798" id="-74030">
		<tag k="name" v="Kjøllefjord" />
		<tag k="place" v="village" />
		<tag k="ssr:stedsnr" v="626228" />
	</node>
	<node lat="70.66619168164071" lon="27.142130120804747" id="-74056">
		<tag k="name" v="Grønmo" />
		<tag k="place" v="farm" />
		<tag k="ssr:stedsnr" v="626706" />
	</node>
	<node lat="70.51291667732895" lon="26.544377434548906" id="-74060">
		<tag k="name" v="Stordalen" />
		<tag k="place" v="farm" />
		<tag k="ssr:stedsnr" v="626676" />
	</node>
	<node lat="70.39798889927036" lon="26.608035734642403" id="-74077">
		<tag k="name" v="Adamsfjord" />
		<tag k="place" v="locality" />
		<tag k="ssr:stedsnr" v="631139" />
	</node>
	<node lat="70.75443334922312" lon="27.358241196310296" id="-74078">
		<tag k="name" v="Mårøyfjord" />
		<tag k="place" v="hamlet" />
		<tag k="ssr:stedsnr" v="631357" />
	</node>
	<node lat="70.88476668068103" lon="27.413335660714402" id="-74080">
		<tag k="fixme" v="consider place=hamlet" />
		<tag k="name" v="Vikhamn" />
		<tag k="place" v="village" />
		<tag k="ssr:stedsnr" v="632197" />
	</node>
	<node lat="70.58802778846304" lon="27.231280089107674" id="-74085">
		<tag k="name" v="Komagnes" />
		<tag k="place" v="farm" />
		<tag k="ssr:stedsnr" v="636161" />
	</node>
	<node lat="70.66036667702184" lon="26.571921881786377" id="-74090">
		<tag k="name" v="Sandmælen" />
		<tag k="place" v="farm" />
		<tag k="ssr:stedsnr" v="636964" />
	</node>
	<node lat="70.38059445163628" lon="26.633588509827348" id="-74102">
		<tag k="name" v="Adamsfjord" />
		<tag k="place" v="hamlet" />
		<tag k="ssr:stedsnr" v="747135" />
	</node>
	<node lat="70.47489723100398" lon="26.570505177637163" id="-74112">
		<tag k="name" v="Indre Korsnes - Gáššnjárga" />
		<tag k="name:no" v="Indre Korsnes" />
		<tag k="name:se" v="Gáššnjárga" />
		<tag k="old_name:no" v="Korsnes, indre" />
		<tag k="old_name:se" v="Gaššnjarga" />
		<tag k="place" v="isolated_dwelling" />
		<tag k="ssr:stedsnr" v="747302" />
	</node>
	<node lat="70.43839723312553" lon="26.512421869742152" id="-74117">
		<tag k="name" v="Reinagnvika - Boazoluokta" />
		<tag k="name:no" v="Reinagnvika" />
		<tag k="name:se" v="Boazoluokta" />
		<tag k="old_name:se" v="Boazuluokta" />
		<tag k="place" v="isolated_dwelling" />
		<tag k="ssr:stedsnr" v="747323" />
	</node>
	<node lat="70.58943056593068" lon="27.279032854847742" id="-74127">
		<tag k="fixme" v="consider place=hamlet" />
		<tag k="name" v="Bekkarfjord" />
		<tag k="place" v="village" />
		<tag k="ssr:stedsnr" v="747722" />
	</node>
	<node lat="70.9170000058867" lon="27.130941266500372" id="-74128">
		<tag k="alt_name" v="Laukvik" />
		<tag k="name" v="Laukvika" />
		<tag k="place" v="farm" />
		<tag k="ssr:stedsnr" v="748191" />
	</node>
	<node lat="70.66558334508052" lon="26.545344113698064" id="-74167">
		<tag k="name" v="Steinbukt" />
		<tag k="place" v="farm" />
		<tag k="ssr:stedsnr" v="752783" />
	</node>
	<node lat="70.6141805687195" lon="26.61969687590196" id="-74168">
		<tag k="alt_name" v="Nyhavn" />
		<tag k="loc_name" v="Boasbukta" />
		<tag k="name" v="Nyhamn" />
		<tag k="old_name" v="Bugten" />
		<tag k="place" v="locality" />
		<tag k="ssr:stedsnr" v="752737" />
	</node>
	<node lat="70.55830556834557" lon="27.020538451429115" id="-74169">
		<tag k="name" v="Bukta" />
		<tag k="place" v="farm" />
		<tag k="ssr:stedsnr" v="752849" />
	</node>
	<node lat="70.4126625746765" lon="26.69551775274934" id="-74171">
		<tag k="name" v="Landersfjord" />
		<tag k="place" v="farm" />
		<tag k="ssr:stedsnr" v="753132" />
	</node>
	<node lat="70.65896112385583" lon="26.580771871053475" id="-74180">
		<tag k="name" v="Liland" />
		<tag k="place" v="farm" />
		<tag k="ssr:stedsnr" v="757967" />
	</node>
	<node lat="70.67090834584263" lon="26.60697188462248" id="-74186">
		<tag k="name" v="Holmbukt" />
		<tag k="place" v="hamlet" />
		<tag k="ssr:stedsnr" v="758936" />
	</node>
	<node lat="70.45715557042419" lon="27.136593991124034" id="-74219">
		<tag k="name" v="Ifjord" />
		<tag k="ssr:stedsnr" v="809216" />
		<tag k="tourism" v="hotel" />
	</node>
	<node lat="70.72813056379387" lon="27.302788433860975" id="-74238">
		<tag k="name" v="Austmo" />
		<tag k="place" v="isolated_dwelling" />
		<tag k="ssr:stedsnr" v="809697" />
	</node>
	<node lat="70.61058056814706" lon="27.054974563451438" id="-74240">
		<tag k="name" v="Kalak" />
		<tag k="place" v="farm" />
		<tag k="ssr:stedsnr" v="809726" />
	</node>
	<node lat="70.61648056266762" lon="26.409244108415585" id="-74242">
		<tag k="name" v="Rognhaugen" />
		<tag k="place" v="isolated_dwelling" />
		<tag k="ssr:stedsnr" v="809575" />
	</node>
	<node lat="70.91801741584234" lon="27.417488002715277" id="-74249">
		<tag k="name" v="Mursteinvik" />
		<tag k="place" v="farm" />
		<tag k="ssr:stedsnr" v="814215" />
	</node>
	<node lat="70.46302223770331" lon="27.10741341857273" id="-74250">
		<tag k="name" v="Ifjord" />
		<tag k="place" v="farm" />
		<tag k="ssr:stedsnr" v="815034" />
	</node>
	<node lat="70.36466680770587" lon="26.476115972370422" id="-74263">
		<tag k="name" v="Nordre Skjærnes" />
		<tag k="place" v="farm" />
		<tag k="ssr:stedsnr" v="820695" />
	</node>
	<node lat="70.95878334376152" lon="27.513613421383436" id="-74282">
		<tag k="name" v="Valen" />
		<tag k="place" v="hamlet" />
		<tag k="ssr:stedsnr" v="869238" />
	</node>
	<node lat="70.50501667763366" lon="27.032910679051387" id="-74292">
		<tag k="name" v="Skogvika" />
		<tag k="place" v="hamlet" />
		<tag k="ssr:stedsnr" v="869337" />
	</node>
	<node lat="70.69661389881095" lon="27.116049563278256" id="-74324">
		<tag k="name" v="Jordelva" />
		<tag k="place" v="isolated_dwelling" />
		<tag k="ssr:stedsnr" v="870682" />
	</node>
	<node lat="70.75775000768111" lon="27.346641201198143" id="-74326">
		<tag k="name" v="Vinterplassen" />
		<tag k="place" v="isolated_dwelling" />
		<tag k="ssr:stedsnr" v="870801" />
	</node>
	<node lat="70.88769597736663" lon="27.38820453353387" id="-74329">
		<tag k="name" v="Portvik" />
		<tag k="place" v="farm" />
		<tag k="ssr:stedsnr" v="875183" />
	</node>
	<node lat="70.61055556827539" lon="27.05465233783191" id="-74331">
		<tag k="name" v="Østre Kalak" />
		<tag k="place" v="farm" />
		<tag k="ssr:stedsnr" v="875428" />
	</node>
	<node lat="70.61390278701141" lon="27.045294018625384" id="-74332">
		<tag k="name" v="Vestre Kalak" />
		<tag k="place" v="farm" />
		<tag k="ssr:stedsnr" v="875433" />
	</node>
	<node lat="70.65985834006662" lon="26.5849746568661" id="-74344">
		<tag k="name" v="Seljevoll" />
		<tag k="place" v="locality" />
		<tag k="ssr:stedsnr" v="879955" />
	</node>
	<node lat="70.65264445548553" lon="26.603352415675545" id="-74345">
		<tag k="name" v="Soltun" />
		<tag k="place" v="locality" />
		<tag k="ssr:stedsnr" v="879957" />
	</node>
	<node lat="70.91176667893095" lon="27.39009676340438" id="-74352">
		<tag k="name" v="Kistrand" />
		<tag k="place" v="locality" />
		<tag k="ssr:stedsnr" v="880894" />
	</node>
	<node lat="70.66691667806947" lon="27.1764828748679" id="-74363">
		<tag k="fixme" v="multiple name tags, choose one and add the other to alt_name" />
		<tag k="loc_name" v="Torskefjorden" />
		<tag k="name" v="Store Torskefjord;Torskefjord" />
		<tag k="place" v="hamlet" />
		<tag k="ssr:stedsnr" v="940863" />
	</node>
	<node lat="70.89660672207137" lon="27.30023048007051" id="-74425">
		<tag k="name" v="Movik" />
		<tag k="place" v="farm" />
		<tag k="ssr:stedsnr" v="1075633" />
	</node>
	<node lat="69.65483861708206" lon="18.954055597917613" id="-74517">
		<tag k="amenity" v="school" />
		<tag k="name" v="Ishavsbyen videregående skole" />
		<tag k="ssr:stedsnr" v="1075695" />
	</node>
	<node lat="70.90480171298628" lon="27.23581173294142" id="-74527">
		<tag k="name" v="Vestre Dyfjordbotn" />
		<tag k="old_name" v="Dyfjordbunden v" />
		<tag k="place" v="farm" />
		<tag k="ssr:stedsnr" v="1077045" />
	</node>
	<node lat="70.90270348879831" lon="27.239656409848635" id="-74528">
		<tag k="name" v="Østre Dyfjordbotn" />
		<tag k="old_name" v="M04/018       Dyfjordbunden ø;Dyfjordbotn" />
		<tag k="place" v="farm" />
		<tag k="ssr:stedsnr" v="1077046" />
	</node>
	<node lat="70.90465829717925" lon="27.23871237964091" id="-74529">
		<tag k="name" v="Dyfjordbotn" />
		<tag k="old_name" v="Dyfjordbotn 4" />
		<tag k="place" v="farm" />
		<tag k="ssr:stedsnr" v="1077047" />
	</node>
	<node lat="70.89960691321055" lon="27.22481876505965" id="-74530">
		<tag k="name" v="Dyfjordneset" />
		<tag k="old_name" v="M04/013       Dyfjordnæs" />
		<tag k="place" v="farm" />
		<tag k="ssr:stedsnr" v="1077057" />
	</node>
	<node lat="70.9047084833428" lon="27.237969647954973" id="-74533">
		<tag k="name" v="Dyfjordbotn" />
		<tag k="old_name" v="Dyfjordbotn 2" />
		<tag k="place" v="farm" />
		<tag k="ssr:stedsnr" v="1077009" />
	</node>
	<node lat="70.6247092082565" lon="26.607600843121197" id="-74537">
		<tag k="name" v="Skjellvika" />
		<tag k="old_name" v="M10/001       SKJÆLVIGEN" />
		<tag k="place" v="farm" />
		<tag k="ssr:stedsnr" v="1077354" />
	</node>
	<node lat="70.90939746693645" lon="27.420763827187233" id="-74548">
		<tag k="name" v="FINNGAMVIKA" />
		<tag k="place" v="farm" />
		<tag k="ssr:stedsnr" v="1079872" />
	</node>
	<node lat="70.69655553338963" lon="27.118246362950106" id="-74553">
		<tag k="name" v="Plassen" />
		<tag k="place" v="farm" />
		<tag k="ssr:stedsnr" v="1079908" />
	</node>
	<node lat="70.79315338294982" lon="26.69287405838434" id="-74568">
		<tag k="name" v="Springsteinen" />
		<tag k="old_name" v="M12/006       Springsten" />
		<tag k="place" v="farm" />
		<tag k="ssr:stedsnr" v="1082609" />
	</node>
	<node lat="70.89754128372931" lon="27.305220141562458" id="-74569">
		<tag k="name" v="Brenngammen" />
		<tag k="old_name" v="F3189 H       Brændgam 9" />
		<tag k="place" v="farm" />
		<tag k="ssr:stedsnr" v="1082696" />
	</node>
	<node lat="70.8987535285459" lon="27.31184706440639" id="-74570">
		<tag k="name" v="Brenngammen" />
		<tag k="old_name" v="F3261 H       Brændgam 7" />
		<tag k="place" v="farm" />
		<tag k="ssr:stedsnr" v="1082697" />
	</node>
	<node lat="70.8975697236838" lon="27.30899037906436" id="-74571">
		<tag k="name" v="Brenngammen" />
		<tag k="old_name" v="Brændgam 8" />
		<tag k="place" v="farm" />
		<tag k="ssr:stedsnr" v="1082698" />
	</node>
	<node lat="70.8956672361114" lon="27.27492997719502" id="-74572">
		<tag k="name" v="Brenngammen" />
		<tag k="old_name" v="M04/002       Brændgammen 1" />
		<tag k="place" v="farm" />
		<tag k="ssr:stedsnr" v="1082679" />
	</node>
</osm>
