<?xml version="1.0" encoding="UTF-8"?>
<osm version="0.6" generator="osmapis">
	<node lat="70.327116674181" lon="26.129946913665098" id="-104295">
		<tag k="name" v="Suoidneluobbalčopma" />
		<tag k="name:se" v="Suoidneluobbalčopma" />
		<tag k="natural" v="hill" />
		<tag k="old_name:se" v="Suoidneluobbalčåbma" />
		<tag k="place" v="locality" />
		<tag k="ssr:stedsnr" v="19341" />
	</node>
	<node lat="70.37090001079729" lon="26.112671930455065" id="-104298">
		<tag k="name" v="Rátnávži" />
		<tag k="name:se" v="Rátnávži" />
		<tag k="natural" v="valley" />
		<tag k="old_name:se" v="Radnavži" />
		<tag k="place" v="locality" />
		<tag k="ssr:stedsnr" v="19247" />
	</node>
	<node lat="70.29132501304815" lon="27.150685616730332" id="-104299">
		<tag k="fixme" v="consider natural=peak for the most distinct mountains in the district" />
		<tag k="name" v="Gáresgielas" />
		<tag k="name:se" v="Gáresgielas" />
		<tag k="natural" v="hill" />
		<tag k="old_name:se" v="Garesgielas" />
		<tag k="place" v="locality" />
		<tag k="ssr:stedsnr" v="20039" />
	</node>
	<node lat="70.69171945265049" lon="26.42716634827013" id="-104304">
		<tag k="name" v="Grubbedalen" />
		<tag k="natural" v="valley" />
		<tag k="place" v="locality" />
		<tag k="ssr:stedsnr" v="20643" />
	</node>
	<node lat="70.72840001526096" lon="27.110891245656067" id="-104307">
		<tag k="fixme" v="multiple name tags, choose one and add the other to alt_name; consider natural=peak for the most distinct mountains in the district" />
		<tag k="name" v="Holvikfjellet;Vardnesfjellet" />
		<tag k="natural" v="hill" />
		<tag k="place" v="locality" />
		<tag k="ssr:stedsnr" v="20696" />
	</node>
	<node lat="70.60389723426952" lon="27.281185641852005" id="-104312">
		<tag k="fixme" v="consider natural=peak for the most distinct mountains in the district" />
		<tag k="name" v="Stortuva" />
		<tag k="natural" v="hill" />
		<tag k="place" v="locality" />
		<tag k="ssr:stedsnr" v="20738" />
	</node>
	<node lat="70.59685279264237" lon="27.14948288758529" id="-104313">
		<tag k="fixme" v="consider natural=peak for the most distinct mountains in the district" />
		<tag k="name" v="Gotfiskfjellet" />
		<tag k="natural" v="hill" />
		<tag k="place" v="locality" />
		<tag k="ssr:stedsnr" v="20743" />
	</node>
	<node lat="71.00516112105159" lon="27.353924549301084" id="-104321">
		<tag k="name" v="Vesterdalen" />
		<tag k="natural" v="valley" />
		<tag k="place" v="locality" />
		<tag k="ssr:stedsnr" v="30565" />
	</node>
	<node lat="70.57773612510637" lon="27.199474532794973" id="-104322">
		<tag k="name" v="Lebesbyskaret" />
		<tag k="natural" v="valley" />
		<tag k="place" v="locality" />
		<tag k="ssr:stedsnr" v="30824" />
	</node>
	<node lat="70.95697778528216" lon="27.38934120508337" id="-104323">
		<tag k="name" v="Kirkelvhøgda" />
		<tag k="natural" v="hill" />
		<tag k="place" v="locality" />
		<tag k="ssr:stedsnr" v="30882" />
	</node>
	<node lat="70.36833334422572" lon="26.133141350644063" id="-104328">
		<tag k="name" v="Njunnás" />
		<tag k="name:se" v="Njunnás" />
		<tag k="natural" v="plateau" />
		<tag k="old_name:se" v="Njunnas" />
		<tag k="ssr:stedsnr" v="80289" />
	</node>
	<node lat="70.43866111748883" lon="26.441335769107237" id="-104331">
		<tag k="fixme" v="consider natural=peak for the most distinct mountains in the district" />
		<tag k="name" v="Liinnavárri" />
		<tag k="name:se" v="Liinnavárri" />
		<tag k="natural" v="hill" />
		<tag k="old_name:se" v="Liinavarri" />
		<tag k="place" v="locality" />
		<tag k="ssr:stedsnr" v="80343" />
	</node>
	<node lat="70.7242305652111" lon="26.289574699431736" id="-104333">
		<tag k="alt_name:se" v="Sávzavárri" />
		<tag k="fixme" v="consider natural=peak for the most distinct mountains in the district" />
		<tag k="name" v="Savzavárri" />
		<tag k="name:se" v="Savzavárri" />
		<tag k="natural" v="hill" />
		<tag k="old_name:se" v="Savzavarri" />
		<tag k="place" v="locality" />
		<tag k="ssr:stedsnr" v="80538" />
	</node>
	<node lat="70.56518890413895" lon="27.337680073459897" id="-104334">
		<tag k="name" v="Øverdalen" />
		<tag k="natural" v="valley" />
		<tag k="place" v="locality" />
		<tag k="ssr:stedsnr" v="80745" />
	</node>
	<node lat="70.66604723089156" lon="27.30119119111007" id="-104337">
		<tag k="name" v="Torskefjorddalen" />
		<tag k="natural" v="valley" />
		<tag k="place" v="locality" />
		<tag k="ssr:stedsnr" v="81711" />
	</node>
	<node lat="70.79965557070221" lon="27.304313439277898" id="-104342">
		<tag k="fixme" v="consider natural=peak for the most distinct mountains in the district" />
		<tag k="name" v="Storoksen" />
		<tag k="natural" v="hill" />
		<tag k="place" v="locality" />
		<tag k="ssr:stedsnr" v="81790" />
	</node>
	<node lat="70.66753612473218" lon="27.1252384439427" id="-104345">
		<tag k="name" v="Gárggu" />
		<tag k="name:se" v="Gárggu" />
		<tag k="natural" v="hill" />
		<tag k="old_name:se" v="Gargo" />
		<tag k="place" v="locality" />
		<tag k="ssr:stedsnr" v="81695" />
	</node>
	<node lat="70.36629723037528" lon="26.01563582566299" id="-104349">
		<tag k="name" v="Børselvfjellet" />
		<tag k="natural" v="mountain_range" />
		<tag k="ssr:stedsnr" v="87507" />
	</node>
	<node lat="70.93768056646863" lon="27.402074546574017" id="-104352">
		<tag k="name" v="Ávdán" />
		<tag k="name:se" v="Ávdán" />
		<tag k="natural" v="valley" />
		<tag k="place" v="locality" />
		<tag k="ssr:stedsnr" v="90923" />
	</node>
	<node lat="70.91977223520469" lon="27.41528008789517" id="-104354">
		<tag k="name" v="Per Pålsa-ryggen" />
		<tag k="natural" v="ridge" />
		<tag k="place" v="locality" />
		<tag k="ssr:stedsnr" v="90974" />
	</node>
	<node lat="70.39536946008798" lon="26.63746072253654" id="-104358">
		<tag k="fixme" v="consider natural=peak for the most distinct mountains in the district" />
		<tag k="name" v="Bærfjellet" />
		<tag k="natural" v="hill" />
		<tag k="place" v="locality" />
		<tag k="ssr:stedsnr" v="140136" />
	</node>
	<node lat="70.4748750120653" lon="26.504807993280327" id="-104361">
		<tag k="name" v="Elvedalen - Johkávži" />
		<tag k="name:no" v="Elvedalen" />
		<tag k="name:se" v="Johkávži" />
		<tag k="natural" v="valley" />
		<tag k="old_name:se" v="Jåkkavži" />
		<tag k="place" v="locality" />
		<tag k="ssr:stedsnr" v="140332" />
	</node>
	<node lat="70.2034472318001" lon="26.69596069666144" id="-104363">
		<tag k="fixme" v="consider natural=peak for the most distinct mountains in the district" />
		<tag k="name" v="Stálogáisá" />
		<tag k="name:se" v="Stálogáisá" />
		<tag k="natural" v="hill" />
		<tag k="old_name:se" v="Stalugaisa" />
		<tag k="place" v="locality" />
		<tag k="ssr:stedsnr" v="140395" />
	</node>
	<node lat="70.45558890153802" lon="26.79797459157714" id="-104379">
		<tag k="alt_name:no" v="Oterfjell" />
		<tag k="fixme" v="consider natural=peak for the most distinct mountains in the district" />
		<tag k="name" v="Oterfjellet - Čeavrresvárri" />
		<tag k="name:no" v="Oterfjellet" />
		<tag k="name:se" v="Čeavrresvárri" />
		<tag k="natural" v="hill" />
		<tag k="old_name:se" v="Čævresvarri" />
		<tag k="place" v="locality" />
		<tag k="ssr:stedsnr" v="147354" />
	</node>
	<node lat="70.48528612156383" lon="27.073332880904307" id="-104383">
		<tag k="name" v="Melkehaugen" />
		<tag k="natural" v="hill" />
		<tag k="place" v="locality" />
		<tag k="ssr:stedsnr" v="151552" />
	</node>
	<node lat="70.58539445742012" lon="27.361821738164306" id="-104385">
		<tag k="fixme" v="consider natural=peak for the most distinct mountains in the district" />
		<tag k="name" v="Svineryggen" />
		<tag k="natural" v="hill" />
		<tag k="place" v="locality" />
		<tag k="ssr:stedsnr" v="151854" />
	</node>
	<node lat="71.00696945560428" lon="27.253885694179818" id="-104394">
		<tag k="fixme" v="consider natural=peak for the most distinct mountains in the district" />
		<tag k="name" v="Svartnakken" />
		<tag k="natural" v="hill" />
		<tag k="place" v="locality" />
		<tag k="ssr:stedsnr" v="202505" />
	</node>
	<node lat="70.63585001008528" lon="26.15227471063105" id="-104396">
		<tag k="fixme" v="consider natural=peak for the most distinct mountains in the district" />
		<tag k="name" v="Boldni" />
		<tag k="name:se" v="Boldni" />
		<tag k="natural" v="hill" />
		<tag k="old_name:se" v="Båldni" />
		<tag k="place" v="locality" />
		<tag k="ssr:stedsnr" v="202596" />
	</node>
	<node lat="70.64786389882055" lon="27.371902291386583" id="-104400">
		<tag k="name" v="Stohkkávži" />
		<tag k="name:se" v="Stohkkávži" />
		<tag k="natural" v="valley" />
		<tag k="old_name:se" v="Ståkkavži" />
		<tag k="place" v="locality" />
		<tag k="ssr:stedsnr" v="202710" />
	</node>
	<node lat="70.80686390514529" lon="27.287616207205367" id="-104405">
		<tag k="name" v="Lilleoksen" />
		<tag k="natural" v="hill" />
		<tag k="place" v="locality" />
		<tag k="ssr:stedsnr" v="202817" />
	</node>
	<node lat="70.40824445568713" lon="26.591430190131423" id="-104406">
		<tag k="name" v="Ytre Adamsfjordklubben" />
		<tag k="natural" v="hill" />
		<tag k="place" v="locality" />
		<tag k="ssr:stedsnr" v="207147" />
	</node>
	<node lat="70.56200556849264" lon="27.036938463462814" id="-104410">
		<tag k="name" v="Riarhaugen" />
		<tag k="natural" v="hill" />
		<tag k="place" v="locality" />
		<tag k="ssr:stedsnr" v="212570" />
	</node>
	<node lat="70.57913612275425" lon="26.99401623431906" id="-104412">
		<tag k="name" v="Lillelvsletta" />
		<tag k="place" v="locality" />
		<tag k="ssr:stedsnr" v="212591" />
	</node>
	<node lat="71.01546667404918" lon="27.393138431125735" id="-104413">
		<tag k="fixme" v="consider natural=peak for the most distinct mountains in the district" />
		<tag k="name" v="Varfjell" />
		<tag k="natural" v="hill" />
		<tag k="place" v="locality" />
		<tag k="ssr:stedsnr" v="212598" />
	</node>
	<node lat="70.92928056552667" lon="27.417727308218943" id="-104414">
		<tag k="name" v="Vardvasshøgda" />
		<tag k="natural" v="hill" />
		<tag k="place" v="locality" />
		<tag k="ssr:stedsnr" v="212994" />
	</node>
	<node lat="70.42310279068236" lon="26.628705189635898" id="-104415">
		<tag k="fixme" v="consider natural=peak for the most distinct mountains in the district" />
		<tag k="name" v="Ranselfjellet" />
		<tag k="natural" v="hill" />
		<tag k="place" v="locality" />
		<tag k="ssr:stedsnr" v="214346" />
	</node>
	<node lat="70.33640834477463" lon="26.507894080264467" id="-104416">
		<tag k="name" v="Sørelvdalen" />
		<tag k="natural" v="valley" />
		<tag k="place" v="locality" />
		<tag k="ssr:stedsnr" v="214751" />
	</node>
	<node lat="70.33069723691408" lon="27.36973279955981" id="-104417">
		<tag k="fixme" v="consider natural=peak for the most distinct mountains in the district" />
		<tag k="name" v="Lođoaivi" />
		<tag k="name:se" v="Lođoaivi" />
		<tag k="natural" v="hill" />
		<tag k="old_name:se" v="Låđoaivi" />
		<tag k="place" v="locality" />
		<tag k="ssr:stedsnr" v="444051" />
	</node>
	<node lat="70.35331945751355" lon="26.9773856671897" id="-104420">
		<tag k="fixme" v="consider natural=peak for the most distinct mountains in the district" />
		<tag k="name" v="Váđasbákti" />
		<tag k="name:se" v="Váđasbákti" />
		<tag k="natural" v="hill" />
		<tag k="old_name:se" v="Vadasbakti" />
		<tag k="place" v="locality" />
		<tag k="ssr:stedsnr" v="444131" />
	</node>
	<node lat="70.36115556722872" lon="26.448232970573404" id="-104421">
		<tag k="fixme" v="consider natural=peak for the most distinct mountains in the district" />
		<tag k="name" v="Ulvefjell - Gumpevárri" />
		<tag k="name:no" v="Ulvefjell" />
		<tag k="name:se" v="Gumpevárri" />
		<tag k="natural" v="hill" />
		<tag k="old_name:se" v="Gumpevarri" />
		<tag k="place" v="locality" />
		<tag k="ssr:stedsnr" v="444138" />
	</node>
	<node lat="70.92485556535786" lon="27.112488494422063" id="-104423">
		<tag k="name" v="Kråa" />
		<tag k="place" v="locality" />
		<tag k="ssr:stedsnr" v="444177" />
	</node>
	<node lat="70.96576390189286" lon="27.227827355171232" id="-104424">
		<tag k="name" v="Mostadvikklubben" />
		<tag k="natural" v="hill" />
		<tag k="place" v="locality" />
		<tag k="ssr:stedsnr" v="444181" />
	</node>
	<node lat="70.96175834036143" lon="27.151449592015005" id="-104425">
		<tag k="fixme" v="consider natural=peak for the most distinct mountains in the district" />
		<tag k="name" v="Kjemfjellet" />
		<tag k="natural" v="hill" />
		<tag k="place" v="locality" />
		<tag k="ssr:stedsnr" v="444183" />
	</node>
	<node lat="70.02843889773803" lon="25.970371921994143" id="-104433">
		<tag k="fixme" v="consider natural=peak for the most distinct mountains in the district" />
		<tag k="name" v="Guivveráššaráhppát" />
		<tag k="name:se" v="Guivveráššaráhppát" />
		<tag k="natural" v="hill" />
		<tag k="old_name:se" v="Guiveraššarappat" />
		<tag k="place" v="locality" />
		<tag k="ssr:stedsnr" v="444338" />
	</node>
	<node lat="70.03111946068847" lon="26.221282982141606" id="-104435">
		<tag k="fixme" v="consider natural=peak for the most distinct mountains in the district" />
		<tag k="name" v="Rásttigáisseaibbuš" />
		<tag k="name:se" v="Rásttigáisseaibbuš" />
		<tag k="natural" v="hill" />
		<tag k="old_name:se" v="Rastigaissæiboš" />
		<tag k="place" v="locality" />
		<tag k="ssr:stedsnr" v="444360" />
	</node>
	<node lat="71.04755834753915" lon="27.508949544850488" id="-104440">
		<tag k="fixme" v="consider natural=peak for the most distinct mountains in the district" />
		<tag k="name" v="Kvitnakkfjellet" />
		<tag k="natural" v="hill" />
		<tag k="place" v="locality" />
		<tag k="ssr:stedsnr" v="444464" />
	</node>
	<node lat="70.70495279115892" lon="26.387219126159497" id="-104442">
		<tag k="fixme" v="consider natural=peak for the most distinct mountains in the district" />
		<tag k="name" v="Nordmannsvikfjellet" />
		<tag k="natural" v="hill" />
		<tag k="place" v="locality" />
		<tag k="ssr:stedsnr" v="444511" />
	</node>
	<node lat="70.68850278499951" lon="26.380458023662428" id="-104444">
		<tag k="fixme" v="consider natural=peak for the most distinct mountains in the district" />
		<tag k="name" v="Skogerfjellet" />
		<tag k="natural" v="hill" />
		<tag k="place" v="locality" />
		<tag k="ssr:stedsnr" v="444531" />
	</node>
	<node lat="70.52986668022463" lon="26.46872187856252" id="-104447">
		<tag k="fixme" v="consider natural=peak for the most distinct mountains in the district" />
		<tag k="name" v="Sivlenjárvárri" />
		<tag k="name:se" v="Sivlenjárvárri" />
		<tag k="natural" v="hill" />
		<tag k="old_name:se" v="Sivlenjarvarri" />
		<tag k="place" v="locality" />
		<tag k="ssr:stedsnr" v="444635" />
	</node>
	<node lat="70.59528334571694" lon="27.304599520460346" id="-104448">
		<tag k="name" v="Postskaret" />
		<tag k="natural" v="valley" />
		<tag k="place" v="locality" />
		<tag k="ssr:stedsnr" v="444712" />
	</node>
	<node lat="70.38212501706" lon="27.18887173425524" id="-104455">
		<tag k="fixme" v="consider natural=peak for the most distinct mountains in the district" />
		<tag k="name" v="Suolojároaivi" />
		<tag k="name:se" v="Suolojároaivi" />
		<tag k="natural" v="hill" />
		<tag k="old_name:se" v="Suolujaroaivi" />
		<tag k="place" v="locality" />
		<tag k="ssr:stedsnr" v="445193" />
	</node>
	<node lat="70.31091945162993" lon="26.615199614388718" id="-104461">
		<tag k="fixme" v="consider natural=peak for the most distinct mountains in the district" />
		<tag k="name" v="Gágganjunis" />
		<tag k="name:se" v="Gágganjunis" />
		<tag k="natural" v="hill" />
		<tag k="old_name:se" v="Gagganjunis;Gággánjunis" />
		<tag k="place" v="locality" />
		<tag k="ssr:stedsnr" v="445255" />
	</node>
	<node lat="70.73957500535222" lon="26.591910769670875" id="-104467">
		<tag k="fixme" v="consider natural=peak for the most distinct mountains in the district" />
		<tag k="name" v="Veidgamfjellet - Fádnobákvárri" />
		<tag k="name:no" v="Veidgamfjellet" />
		<tag k="name:se" v="Fádnobákvárri" />
		<tag k="natural" v="hill" />
		<tag k="old_name:se" v="Fadnubakvarri;Fátnobátvárri" />
		<tag k="place" v="locality" />
		<tag k="ssr:stedsnr" v="445627" />
	</node>
	<node lat="70.62732501374059" lon="27.375063390372727" id="-104472">
		<tag k="name" v="Evighetsbakken" />
		<tag k="natural" v="slope" />
		<tag k="place" v="locality" />
		<tag k="ssr:stedsnr" v="445715" />
	</node>
	<node lat="70.51802500920415" lon="26.519541317241192" id="-104474">
		<tag k="name" v="Stordalen - Lipmi" />
		<tag k="name:no" v="Stordalen" />
		<tag k="name:se" v="Lipmi" />
		<tag k="natural" v="valley" />
		<tag k="old_name:se" v="Libmi" />
		<tag k="place" v="locality" />
		<tag k="ssr:stedsnr" v="445681" />
	</node>
	<node lat="70.62064723381499" lon="27.251849533062146" id="-104477">
		<tag k="name" v="Falkeberget" />
		<tag k="natural" v="hill" />
		<tag k="place" v="locality" />
		<tag k="ssr:stedsnr" v="445721" />
	</node>
	<node lat="70.8254805654117" lon="27.542471715609047" id="-104481">
		<tag k="name" v="Tobakshøgda" />
		<tag k="natural" v="hill" />
		<tag k="place" v="locality" />
		<tag k="ssr:stedsnr" v="445777" />
	</node>
	<node lat="70.96642500785634" lon="27.19971903961668" id="-104485">
		<tag k="fixme" v="consider natural=peak for the most distinct mountains in the district" />
		<tag k="name" v="Vindhamran" />
		<tag k="natural" v="hill" />
		<tag k="place" v="locality" />
		<tag k="ssr:stedsnr" v="262206" />
	</node>
	<node lat="70.96779445714591" lon="27.49322175119167" id="-104486">
		<tag k="name" v="Svartberget" />
		<tag k="natural" v="hill" />
		<tag k="place" v="locality" />
		<tag k="ssr:stedsnr" v="262208" />
	</node>
	<node lat="70.95843056425649" lon="27.342982886659637" id="-104487">
		<tag k="fixme" v="consider natural=peak for the most distinct mountains in the district" />
		<tag k="name" v="Klubbfjellet" />
		<tag k="natural" v="hill" />
		<tag k="place" v="locality" />
		<tag k="ssr:stedsnr" v="262216" />
	</node>
	<node lat="70.34261112380273" lon="26.215158018949374" id="-104488">
		<tag k="name" v="Vuolddehat" />
		<tag k="name:se" v="Vuolddehat" />
		<tag k="old_name:se" v="Vuoldehat" />
		<tag k="place" v="locality" />
		<tag k="ssr:stedsnr" v="262272" />
	</node>
	<node lat="70.41131667422046" lon="26.644688504023488" id="-104489">
		<tag k="name" v="Riidevárri" />
		<tag k="name:se" v="Riidevárri" />
		<tag k="natural" v="hill" />
		<tag k="old_name:se" v="Riidevarri" />
		<tag k="place" v="locality" />
		<tag k="ssr:stedsnr" v="262163" />
	</node>
	<node lat="70.16731668039503" lon="26.48466905460483" id="-104493">
		<tag k="fixme" v="consider natural=peak for the most distinct mountains in the district" />
		<tag k="name" v="Borgašlatnja" />
		<tag k="name:se" v="Borgašlatnja" />
		<tag k="natural" v="hill" />
		<tag k="old_name:se" v="Bårgašladnja" />
		<tag k="place" v="locality" />
		<tag k="ssr:stedsnr" v="262407" />
	</node>
	<node lat="70.78215556573916" lon="26.596257991254095" id="-104500">
		<tag k="fixme" v="consider natural=peak for the most distinct mountains in the district" />
		<tag k="name" v="Middagsfjellet" />
		<tag k="natural" v="hill" />
		<tag k="place" v="locality" />
		<tag k="ssr:stedsnr" v="263282" />
	</node>
	<node lat="70.7242138973564" lon="26.600716323883336" id="-104503">
		<tag k="fixme" v="consider natural=peak for the most distinct mountains in the district" />
		<tag k="name" v="Fádnobákti" />
		<tag k="name:se" v="Fádnobákti" />
		<tag k="natural" v="hill" />
		<tag k="old_name:se" v="Fadnubakti" />
		<tag k="place" v="locality" />
		<tag k="ssr:stedsnr" v="263624" />
	</node>
	<node lat="70.6565639074865" lon="27.435930051579685" id="-104504">
		<tag k="name" v="Stohkkávžžegeahči" />
		<tag k="name:se" v="Stohkkávžžegeahči" />
		<tag k="natural" v="valley" />
		<tag k="old_name:se" v="Ståkkavžegæčči" />
		<tag k="place" v="locality" />
		<tag k="ssr:stedsnr" v="263709" />
	</node>
	<node lat="70.86747500748632" lon="26.583652438429944" id="-104505">
		<tag k="fixme" v="consider natural=peak for the most distinct mountains in the district" />
		<tag k="name" v="Tømmervikfjellet - Muvroaivi" />
		<tag k="name:no" v="Tømmervikfjellet" />
		<tag k="name:se" v="Muvroaivi" />
		<tag k="natural" v="hill" />
		<tag k="place" v="locality" />
		<tag k="ssr:stedsnr" v="266148" />
	</node>
	<node lat="70.47768334589811" lon="27.033863446145567" id="-104510">
		<tag k="fixme" v="consider natural=peak for the most distinct mountains in the district" />
		<tag k="name" v="Kananfjell" />
		<tag k="natural" v="hill" />
		<tag k="place" v="locality" />
		<tag k="ssr:stedsnr" v="272512" />
	</node>
	<node lat="70.41069167623647" lon="26.712657940838213" id="-104518">
		<tag k="name" v="Råveddalen" />
		<tag k="natural" v="valley" />
		<tag k="place" v="locality" />
		<tag k="ssr:stedsnr" v="274647" />
	</node>
	<node lat="70.65725001181502" lon="26.539960780610887" id="-104529">
		<tag k="name" v="Kjølen" />
		<tag k="natural" v="slope" />
		<tag k="place" v="locality" />
		<tag k="ssr:stedsnr" v="454961" />
	</node>
	<node lat="71.00953611676505" lon="27.359649570566795" id="-104532">
		<tag k="name" v="Chanonixbakken" />
		<tag k="natural" v="slope" />
		<tag k="place" v="locality" />
		<tag k="ssr:stedsnr" v="455568" />
	</node>
	<node lat="70.93341667536762" lon="27.43608286367339" id="-104533">
		<tag k="name" v="Rasmushøgda" />
		<tag k="natural" v="hill" />
		<tag k="place" v="locality" />
		<tag k="ssr:stedsnr" v="455992" />
	</node>
	<node lat="70.59515557127237" lon="27.252666184525097" id="-104534">
		<tag k="name" v="Nils Persa-jordet" />
		<tag k="natural" v="slope" />
		<tag k="place" v="locality" />
		<tag k="ssr:stedsnr" v="455830" />
	</node>
	<node lat="70.6630111223491" lon="27.159621763428365" id="-104535">
		<tag k="name" v="Stortofta" />
		<tag k="natural" v="slope" />
		<tag k="place" v="locality" />
		<tag k="ssr:stedsnr" v="455855" />
	</node>
	<node lat="70.39899722966096" lon="26.654144059442853" id="-104542">
		<tag k="alt_name:se" v="Sohkavárri" />
		<tag k="fixme" v="consider natural=peak for the most distinct mountains in the district" />
		<tag k="name" v="Sáhkkavárri" />
		<tag k="name:se" v="Sáhkkavárri" />
		<tag k="natural" v="hill" />
		<tag k="old_name:se" v="Sakkavarri" />
		<tag k="place" v="locality" />
		<tag k="ssr:stedsnr" v="322142" />
	</node>
	<node lat="70.19077500929062" lon="26.524974613981115" id="-104547">
		<tag k="fixme" v="consider natural=peak for the most distinct mountains in the district" />
		<tag k="name" v="Nuorta-Borgašgáisá" />
		<tag k="name:se" v="Nuorta-Borgašgáisá" />
		<tag k="natural" v="hill" />
		<tag k="old_name:se" v="Borgašgaisa, nuorta;Nuorta Borgašgáisá" />
		<tag k="place" v="locality" />
		<tag k="ssr:stedsnr" v="322390" />
	</node>
	<node lat="70.97998458389644" lon="27.565986210695854" id="-104551">
		<tag k="name" v="Elveholet" />
		<tag k="natural" v="valley" />
		<tag k="place" v="locality" />
		<tag k="ssr:stedsnr" v="323237" />
	</node>
	<node lat="70.2604555700508" lon="26.483210738494236" id="-104552">
		<tag k="fixme" v="consider natural=peak for the most distinct mountains in the district" />
		<tag k="name" v="Jorba Eretoaivi" />
		<tag k="name:se" v="Jorba Eretoaivi" />
		<tag k="natural" v="hill" />
		<tag k="old_name:se" v="Eretoaivi;Jårba" />
		<tag k="place" v="locality" />
		<tag k="ssr:stedsnr" v="323239" />
	</node>
	<node lat="70.7807194537289" lon="27.182191223104116" id="-104558">
		<tag k="name" v="Nordmanspynten" />
		<tag k="natural" v="hill" />
		<tag k="place" v="locality" />
		<tag k="ssr:stedsnr" v="323813" />
	</node>
	<node lat="70.2743337208207" lon="26.00520754034204" id="-104562">
		<tag k="fixme" v="consider natural=peak for the most distinct mountains in the district" />
		<tag k="name" v="Gottetvárri" />
		<tag k="natural" v="hill" />
		<tag k="place" v="locality" />
		<tag k="ssr:stedsnr" v="330622" />
	</node>
	<node lat="70.62830278325697" lon="26.495291332622337" id="-104564">
		<tag k="alt_name" v="Tverrelvhompen" />
		<tag k="name" v="Tverrelvhumpen" />
		<tag k="natural" v="hill" />
		<tag k="place" v="locality" />
		<tag k="ssr:stedsnr" v="332874" />
	</node>
	<node lat="70.5760416784535" lon="26.975588466113873" id="-104568">
		<tag k="name" v="Lebesbyvarden" />
		<tag k="natural" v="hill" />
		<tag k="place" v="locality" />
		<tag k="ssr:stedsnr" v="333965" />
	</node>
	<node lat="70.64833056063246" lon="26.241716357159312" id="-104571">
		<tag k="name" v="Lanjagurra" />
		<tag k="name:se" v="Lanjagurra" />
		<tag k="natural" v="valley" />
		<tag k="place" v="locality" />
		<tag k="ssr:stedsnr" v="335356" />
	</node>
	<node lat="70.92476668093205" lon="27.482038416252447" id="-104573">
		<tag k="fixme" v="consider natural=peak for the most distinct mountains in the district" />
		<tag k="name" v="Alitvárri" />
		<tag k="name:se" v="Alitvárri" />
		<tag k="natural" v="hill" />
		<tag k="old_name:se" v="Alitvarri" />
		<tag k="place" v="locality" />
		<tag k="ssr:stedsnr" v="383213" />
	</node>
	<node lat="70.29744167748458" lon="26.198910783692916" id="-104576">
		<tag k="fixme" v="consider natural=peak for the most distinct mountains in the district" />
		<tag k="name" v="Uhca Liŋkoaivi" />
		<tag k="name:se" v="Uhca Liŋkoaivi" />
		<tag k="natural" v="hill" />
		<tag k="old_name:se" v="Liŋkoaivi, ucca" />
		<tag k="place" v="locality" />
		<tag k="ssr:stedsnr" v="383372" />
	</node>
	<node lat="70.3131944536733" lon="26.131027476037076" id="-104577">
		<tag k="fixme" v="consider natural=peak for the most distinct mountains in the district" />
		<tag k="name" v="Meahccejárgielas" />
		<tag k="name:se" v="Meahccejárgielas" />
		<tag k="natural" v="hill" />
		<tag k="old_name:se" v="Mæccejargielas" />
		<tag k="place" v="locality" />
		<tag k="ssr:stedsnr" v="383376" />
	</node>
	<node lat="70.23541668184265" lon="26.856446780845662" id="-104581">
		<tag k="fixme" v="consider natural=peak for the most distinct mountains in the district" />
		<tag k="name" v="Deardnočohkka" />
		<tag k="name:se" v="Deardnočohkka" />
		<tag k="natural" v="hill" />
		<tag k="old_name:se" v="Dærdnučåkka" />
		<tag k="place" v="locality" />
		<tag k="ssr:stedsnr" v="383409" />
	</node>
	<node lat="70.91087501344057" lon="27.508180079395476" id="-104584">
		<tag k="fixme" v="consider natural=peak for the most distinct mountains in the district" />
		<tag k="name" v="Nordfjellet" />
		<tag k="natural" v="hill" />
		<tag k="place" v="locality" />
		<tag k="ssr:stedsnr" v="383773" />
	</node>
	<node lat="70.78945279037346" lon="26.5840857814972" id="-104589">
		<tag k="name" v="Middagsfjelldalen" />
		<tag k="natural" v="valley" />
		<tag k="place" v="locality" />
		<tag k="ssr:stedsnr" v="384258" />
	</node>
	<node lat="70.93205000874285" lon="26.708824646938385" id="-104591">
		<tag k="fixme" v="consider natural=peak for the most distinct mountains in the district" />
		<tag k="name" v="Elvenakken" />
		<tag k="natural" v="hill" />
		<tag k="place" v="locality" />
		<tag k="ssr:stedsnr" v="384162" />
	</node>
	<node lat="71.03064723447369" lon="27.295202349546763" id="-104592">
		<tag k="name" v="Geailovággi" />
		<tag k="name:se" v="Geailovággi" />
		<tag k="natural" v="valley" />
		<tag k="old_name:se" v="Gæiluvaggi" />
		<tag k="place" v="locality" />
		<tag k="ssr:stedsnr" v="384468" />
	</node>
	<node lat="70.73913889587132" lon="26.50058301644901" id="-104595">
		<tag k="fixme" v="consider natural=peak for the most distinct mountains in the district" />
		<tag k="name" v="Eggfjellet" />
		<tag k="natural" v="hill" />
		<tag k="place" v="locality" />
		<tag k="ssr:stedsnr" v="384564" />
	</node>
	<node lat="70.95451667501659" lon="27.447035639732515" id="-104604">
		<tag k="fixme" v="multiple name tags, choose one and add the other to alt_name; consider natural=peak for the most distinct mountains in the district" />
		<tag k="name" v="Gynndalsfjellet;Gynndalshøgda" />
		<tag k="natural" v="hill" />
		<tag k="place" v="locality" />
		<tag k="ssr:stedsnr" v="394946" />
	</node>
	<node lat="70.46520557018165" lon="27.097643998304818" id="-104608">
		<tag k="name" v="Petterbakken" />
		<tag k="natural" v="slope" />
		<tag k="place" v="locality" />
		<tag k="ssr:stedsnr" v="395710" />
	</node>
	<node lat="70.35767501031953" lon="26.453724653530905" id="-104609">
		<tag k="name" v="Postdalen" />
		<tag k="natural" v="valley" />
		<tag k="place" v="locality" />
		<tag k="ssr:stedsnr" v="395740" />
	</node>
	<node lat="70.35263890347986" lon="27.089868962129867" id="-104611">
		<tag k="fixme" v="consider natural=peak for the most distinct mountains in the district" />
		<tag k="name" v="Juovvagielas" />
		<tag k="name:se" v="Juovvagielas" />
		<tag k="natural" v="hill" />
		<tag k="place" v="locality" />
		<tag k="ssr:stedsnr" v="444048" />
	</node>
	<node lat="70.95417500739404" lon="27.375507886556044" id="-104612">
		<tag k="name" v="Kjerkelvdalen" />
		<tag k="natural" v="valley" />
		<tag k="place" v="locality" />
		<tag k="ssr:stedsnr" v="444189" />
	</node>
	<node lat="70.79389722691653" lon="26.40296078996871" id="-104614">
		<tag k="fixme" v="consider natural=peak for the most distinct mountains in the district" />
		<tag k="name" v="Tverrfjellet" />
		<tag k="natural" v="hill" />
		<tag k="place" v="locality" />
		<tag k="ssr:stedsnr" v="444507" />
	</node>
	<node lat="70.65108612612862" lon="27.12244400258488" id="-104625">
		<tag k="fixme" v="consider natural=peak for the most distinct mountains in the district" />
		<tag k="name" v="Bekkarfjordklubben" />
		<tag k="natural" v="hill" />
		<tag k="place" v="locality" />
		<tag k="ssr:stedsnr" v="445706" />
	</node>
	<node lat="70.79466945581864" lon="27.341055083814187" id="-104630">
		<tag k="name" v="Áhkunávži" />
		<tag k="name:se" v="Áhkunávži" />
		<tag k="natural" v="valley" />
		<tag k="old_name:se" v="Akkonavži;Áhkunavži" />
		<tag k="place" v="locality" />
		<tag k="ssr:stedsnr" v="445796" />
	</node>
	<node lat="70.40328612481841" lon="26.58693572898769" id="-104635">
		<tag k="name" v="Indre Adamsfjordklubben" />
		<tag k="natural" v="hill" />
		<tag k="place" v="locality" />
		<tag k="ssr:stedsnr" v="450134" />
	</node>
	<node lat="70.57166667605341" lon="26.984457899708385" id="-104638">
		<tag k="name" v="Prekestolen" />
		<tag k="natural" v="hill" />
		<tag k="place" v="locality" />
		<tag k="ssr:stedsnr" v="454612" />
	</node>
	<node lat="70.6487944547878" lon="26.588799652550538" id="-104640">
		<tag k="name" v="Lombakken" />
		<tag k="natural" v="slope" />
		<tag k="place" v="locality" />
		<tag k="ssr:stedsnr" v="454916" />
	</node>
	<node lat="70.58184167580868" lon="26.97474680499206" id="-104641">
		<tag k="name" v="Kakvikskaret" />
		<tag k="natural" v="valley" />
		<tag k="place" v="locality" />
		<tag k="ssr:stedsnr" v="454977" />
	</node>
	<node lat="70.99752501028466" lon="27.373021775931946" id="-104643">
		<tag k="name" v="Mollvikhaugen" />
		<tag k="natural" v="hill" />
		<tag k="place" v="locality" />
		<tag k="ssr:stedsnr" v="455573" />
	</node>
	<node lat="70.91714445809805" lon="27.39179120569054" id="-104645">
		<tag k="name" v="Høgbakken" />
		<tag k="natural" v="slope" />
		<tag k="place" v="locality" />
		<tag k="ssr:stedsnr" v="455983" />
	</node>
	<node lat="70.20897779109474" lon="26.92672455586585" id="-104651">
		<tag k="fixme" v="consider natural=peak for the most distinct mountains in the district" />
		<tag k="name" v="Njárgajárvárri" />
		<tag k="name:se" v="Njárgajárvárri" />
		<tag k="natural" v="hill" />
		<tag k="old_name:se" v="Njargajarvarri" />
		<tag k="place" v="locality" />
		<tag k="ssr:stedsnr" v="504377" />
	</node>
	<node lat="70.46400834041512" lon="26.379213544449474" id="-104656">
		<tag k="fixme" v="consider natural=peak for the most distinct mountains in the district" />
		<tag k="name" v="Saŋasoaivi" />
		<tag k="name:se" v="Saŋasoaivi" />
		<tag k="natural" v="hill" />
		<tag k="place" v="locality" />
		<tag k="ssr:stedsnr" v="505309" />
	</node>
	<node lat="70.6723527934423" lon="27.208546773828388" id="-104668">
		<tag k="alt_name" v="Rahompen" />
		<tag k="fixme" v="consider natural=peak for the most distinct mountains in the district" />
		<tag k="name" v="Rahumpen" />
		<tag k="natural" v="hill" />
		<tag k="place" v="locality" />
		<tag k="ssr:stedsnr" v="505702" />
	</node>
	<node lat="70.8967194591001" lon="27.25048845363792" id="-104672">
		<tag k="name" v="Brenngamklubben" />
		<tag k="natural" v="hill" />
		<tag k="place" v="locality" />
		<tag k="ssr:stedsnr" v="505772" />
	</node>
	<node lat="70.90102223337237" lon="27.288402331322033" id="-104673">
		<tag k="name" v="Brenngamdalen" />
		<tag k="natural" v="valley" />
		<tag k="place" v="locality" />
		<tag k="ssr:stedsnr" v="505777" />
	</node>
	<node lat="70.84965001288363" lon="27.54327450125962" id="-104674">
		<tag k="name" v="Ørntinddalen" />
		<tag k="natural" v="valley" />
		<tag k="place" v="locality" />
		<tag k="ssr:stedsnr" v="505782" />
	</node>
	<node lat="70.49363057086155" lon="27.293049516367866" id="-104676">
		<tag k="name" v="Lákkočohkka" />
		<tag k="name:se" v="Lákkočohkka" />
		<tag k="natural" v="hill" />
		<tag k="old_name:se" v="Laggučåkka" />
		<tag k="place" v="locality" />
		<tag k="ssr:stedsnr" v="511151" />
	</node>
	<node lat="70.93780834188672" lon="27.430932873374303" id="-104686">
		<tag k="name" v="Øvre Oksfjorddalen" />
		<tag k="natural" v="valley" />
		<tag k="place" v="locality" />
		<tag k="ssr:stedsnr" v="540475" />
	</node>
	<node lat="70.44113890287565" lon="26.98174679369949" id="-104689">
		<tag k="fixme" v="consider natural=peak for the most distinct mountains in the district" />
		<tag k="name" v="Storfjellet - Njallavárri" />
		<tag k="name:no" v="Storfjellet" />
		<tag k="name:se" v="Njallavárri" />
		<tag k="natural" v="hill" />
		<tag k="old_name:se" v="Njallavarri" />
		<tag k="place" v="locality" />
		<tag k="ssr:stedsnr" v="564330" />
	</node>
	<node lat="70.21424723795661" lon="27.009763408064682" id="-104692">
		<tag k="fixme" v="consider natural=peak for the most distinct mountains in the district" />
		<tag k="name" v="Juovvajároaivi" />
		<tag k="name:se" v="Juovvajároaivi" />
		<tag k="natural" v="hill" />
		<tag k="old_name:se" v="Juovvajaroaivi" />
		<tag k="place" v="locality" />
		<tag k="ssr:stedsnr" v="565371" />
	</node>
	<node lat="70.14326945806303" lon="26.742930125334773" id="-104694">
		<tag k="name" v="Ullogáisá" />
		<tag k="name:se" v="Ullogáisá" />
		<tag k="natural" v="plateau" />
		<tag k="old_name:se" v="Ullugaisa" />
		<tag k="ssr:stedsnr" v="565375" />
	</node>
	<node lat="71.00781389790367" lon="27.57369396417592" id="-104697">
		<tag k="fixme" v="consider natural=peak for the most distinct mountains in the district" />
		<tag k="name" v="Oksen - Vuoksá" />
		<tag k="name:no" v="Oksen" />
		<tag k="name:se" v="Vuoksá" />
		<tag k="natural" v="hill" />
		<tag k="old_name:se" v="Vuoksa" />
		<tag k="place" v="locality" />
		<tag k="ssr:stedsnr" v="566505" />
	</node>
	<node lat="70.58151111509027" lon="26.14659970921607" id="-104698">
		<tag k="name" v="Skadjávži" />
		<tag k="name:se" v="Skadjávži" />
		<tag k="natural" v="valley" />
		<tag k="old_name:se" v="Skaddjavži" />
		<tag k="place" v="locality" />
		<tag k="ssr:stedsnr" v="566574" />
	</node>
	<node lat="70.50123889620124" lon="26.332874685405294" id="-104699">
		<tag k="fixme" v="consider natural=peak for the most distinct mountains in the district" />
		<tag k="name" v="Lipmoaivi" />
		<tag k="name:se" v="Lipmoaivi" />
		<tag k="natural" v="hill" />
		<tag k="old_name:se" v="Libmoaivi" />
		<tag k="place" v="locality" />
		<tag k="ssr:stedsnr" v="566580" />
	</node>
	<node lat="71.02564167947274" lon="27.358563451010284" id="-104703">
		<tag k="alt_name" v="Svarthollet" />
		<tag k="name" v="Svartholet" />
		<tag k="place" v="locality" />
		<tag k="ssr:stedsnr" v="566477" />
	</node>
	<node lat="70.73851111687742" lon="26.510958005304957" id="-104706">
		<tag k="name" v="Norddalen" />
		<tag k="natural" v="valley" />
		<tag k="place" v="locality" />
		<tag k="ssr:stedsnr" v="566609" />
	</node>
	<node lat="70.70666667425526" lon="26.513274652981238" id="-104707">
		<tag k="fixme" v="consider natural=peak for the most distinct mountains in the district" />
		<tag k="name" v="Larsvikhammaren" />
		<tag k="natural" v="hill" />
		<tag k="place" v="locality" />
		<tag k="ssr:stedsnr" v="566614" />
	</node>
	<node lat="70.5443222341434" lon="27.136921765696535" id="-104712">
		<tag k="fixme" v="consider natural=peak for the most distinct mountains in the district" />
		<tag k="name" v="Blåfjellet - Davvesiiddrášša" />
		<tag k="name:no" v="Blåfjellet" />
		<tag k="name:se" v="Davvesiiddrášša" />
		<tag k="natural" v="hill" />
		<tag k="old_name:se" v="Davvesiidrašša" />
		<tag k="place" v="locality" />
		<tag k="ssr:stedsnr" v="570696" />
	</node>
	<node lat="70.55002223710089" lon="27.012405127734873" id="-104717">
		<tag k="name" v="Lia" />
		<tag k="natural" v="slope" />
		<tag k="place" v="locality" />
		<tag k="ssr:stedsnr" v="575568" />
	</node>
	<node lat="70.61040278971925" lon="27.079427341925552" id="-104719">
		<tag k="name" v="Høgda" />
		<tag k="natural" v="hill" />
		<tag k="place" v="locality" />
		<tag k="ssr:stedsnr" v="576171" />
	</node>
	<node lat="70.96309723438179" lon="27.39915787583545" id="-104720">
		<tag k="name" v="Mannhøgda" />
		<tag k="natural" v="hill" />
		<tag k="place" v="locality" />
		<tag k="ssr:stedsnr" v="576904" />
	</node>
	<node lat="70.95145000874557" lon="27.475985639726243" id="-104721">
		<tag k="name" v="Nedre Oksevågdalen" />
		<tag k="natural" v="valley" />
		<tag k="place" v="locality" />
		<tag k="ssr:stedsnr" v="576907" />
	</node>
	<node lat="71.02696667555803" lon="27.330919022467935" id="-104722">
		<tag k="fixme" v="consider natural=peak for the most distinct mountains in the district" />
		<tag k="name" v="Fuglefjellet" />
		<tag k="natural" v="hill" />
		<tag k="place" v="locality" />
		<tag k="ssr:stedsnr" v="576922" />
	</node>
	<node lat="70.4368555674274" lon="26.576332973450164" id="-104728">
		<tag k="name" v="Sølvberget" />
		<tag k="natural" v="hill" />
		<tag k="place" v="locality" />
		<tag k="ssr:stedsnr" v="686316" />
	</node>
	<node lat="70.23487222954142" lon="26.045802478151654" id="-104730">
		<tag k="fixme" v="consider natural=peak for the most distinct mountains in the district" />
		<tag k="name" v="Čuđerášša" />
		<tag k="name:se" v="Čuđerášša" />
		<tag k="natural" v="hill" />
		<tag k="old_name:se" v="Čuđerašša" />
		<tag k="place" v="locality" />
		<tag k="ssr:stedsnr" v="686337" />
	</node>
	<node lat="70.32751667712685" lon="26.864799575380037" id="-104733">
		<tag k="fixme" v="consider natural=peak for the most distinct mountains in the district" />
		<tag k="name" v="Gahpatvárri" />
		<tag k="name:se" v="Gahpatvárri" />
		<tag k="natural" v="hill" />
		<tag k="old_name:se" v="Gappatvarri" />
		<tag k="place" v="locality" />
		<tag k="ssr:stedsnr" v="687126" />
	</node>
	<node lat="70.35612778983892" lon="26.638080176190886" id="-104739">
		<tag k="name" v="Adamssletta - Áttánguolbanat" />
		<tag k="name:no" v="Adamssletta" />
		<tag k="name:se" v="Áttánguolbanat" />
		<tag k="old_name:se" v="Addanguolbanat" />
		<tag k="place" v="locality" />
		<tag k="ssr:stedsnr" v="687140" />
	</node>
	<node lat="70.94171945127984" lon="27.362910672381126" id="-104740">
		<tag k="name" v="Rundhaugen" />
		<tag k="natural" v="hill" />
		<tag k="place" v="locality" />
		<tag k="ssr:stedsnr" v="687192" />
	</node>
	<node lat="70.50200001603669" lon="27.31364950101799" id="-104742">
		<tag k="fixme" v="consider natural=peak for the most distinct mountains in the district" />
		<tag k="name" v="Lákkočohkat" />
		<tag k="name:se" v="Lákkočohkat" />
		<tag k="natural" v="hill" />
		<tag k="old_name:se" v="Laggučåkkat" />
		<tag k="place" v="locality" />
		<tag k="ssr:stedsnr" v="687228" />
	</node>
	<node lat="70.31432778949842" lon="26.888374575294684" id="-104744">
		<tag k="fixme" v="consider natural=peak for the most distinct mountains in the district" />
		<tag k="name" v="Gahpatčohkka" />
		<tag k="name:se" v="Gahpatčohkka" />
		<tag k="natural" v="hill" />
		<tag k="old_name:se" v="Gappatčåkka" />
		<tag k="place" v="locality" />
		<tag k="ssr:stedsnr" v="687241" />
	</node>
	<node lat="70.48634168082714" lon="26.406107990433064" id="-104745">
		<tag k="fixme" v="consider natural=peak for the most distinct mountains in the district" />
		<tag k="name" v="Ráškasoaivi" />
		<tag k="name:se" v="Ráškasoaivi" />
		<tag k="natural" v="hill" />
		<tag k="old_name:se" v="Raškasoaivi" />
		<tag k="place" v="locality" />
		<tag k="ssr:stedsnr" v="687294" />
	</node>
	<node lat="71.08743334409816" lon="27.521110650071208" id="-104748">
		<tag k="fixme" v="consider natural=peak for the most distinct mountains in the district" />
		<tag k="name" v="Striptinden" />
		<tag k="natural" v="hill" />
		<tag k="place" v="locality" />
		<tag k="ssr:stedsnr" v="687269" />
	</node>
	<node lat="70.46894167672377" lon="26.292202467743543" id="-104749">
		<tag k="fixme" v="consider natural=peak for the most distinct mountains in the district" />
		<tag k="name" v="Stuorra Miekta" />
		<tag k="name:se" v="Stuorra Miekta" />
		<tag k="natural" v="hill" />
		<tag k="old_name:se" v="Miekta, stuorra" />
		<tag k="place" v="locality" />
		<tag k="ssr:stedsnr" v="687300" />
	</node>
	<node lat="71.10468334635856" lon="27.585249525329992" id="-104750">
		<tag k="fixme" v="consider natural=peak for the most distinct mountains in the district" />
		<tag k="name" v="Angelsnova" />
		<tag k="natural" v="hill" />
		<tag k="place" v="locality" />
		<tag k="ssr:stedsnr" v="687275" />
	</node>
	<node lat="70.7290111192843" lon="26.390324686757115" id="-104756">
		<tag k="fixme" v="consider natural=peak for the most distinct mountains in the district" />
		<tag k="name" v="Sávzarášša" />
		<tag k="name:se" v="Sávzarášša" />
		<tag k="natural" v="hill" />
		<tag k="old_name:se" v="Savzarašša" />
		<tag k="place" v="locality" />
		<tag k="ssr:stedsnr" v="687524" />
	</node>
	<node lat="70.65580834458063" lon="26.272316362790935" id="-104758">
		<tag k="fixme" v="consider natural=peak for the most distinct mountains in the district" />
		<tag k="name" v="Jukkivárri" />
		<tag k="name:se" v="Jukkivárri" />
		<tag k="natural" v="hill" />
		<tag k="old_name:se" v="Juggivarri" />
		<tag k="place" v="locality" />
		<tag k="ssr:stedsnr" v="687538" />
	</node>
	<node lat="70.60569722773946" lon="26.53954131906581" id="-104759">
		<tag k="fixme" v="consider natural=peak for the most distinct mountains in the district" />
		<tag k="name" v="Austerfjellet" />
		<tag k="natural" v="hill" />
		<tag k="place" v="locality" />
		<tag k="ssr:stedsnr" v="687624" />
	</node>
	<node lat="70.68790557122806" lon="27.232224554302796" id="-104760">
		<tag k="name" v="Mårøyfjordskaret" />
		<tag k="natural" v="valley" />
		<tag k="place" v="locality" />
		<tag k="ssr:stedsnr" v="687693" />
	</node>
	<node lat="70.71082778562162" lon="26.55456354915944" id="-104780">
		<tag k="name" v="Snøbakken" />
		<tag k="natural" v="slope" />
		<tag k="place" v="locality" />
		<tag k="ssr:stedsnr" v="688617" />
	</node>
	<node lat="70.61213056336952" lon="26.590221855790265" id="-104781">
		<tag k="fixme" v="consider natural=peak for the most distinct mountains in the district" />
		<tag k="name" v="Reindalsfjellet - Boazovárri" />
		<tag k="name:no" v="Reindalsfjellet" />
		<tag k="name:se" v="Boazovárri" />
		<tag k="natural" v="hill" />
		<tag k="old_name:se" v="Boazuvarri" />
		<tag k="place" v="locality" />
		<tag k="ssr:stedsnr" v="688621" />
	</node>
	<node lat="70.66047778325715" lon="26.495810767236097" id="-104782">
		<tag k="name" v="Bjørnskaret - Guovžávži" />
		<tag k="name:no" v="Bjørnskaret" />
		<tag k="name:se" v="Guovžávži" />
		<tag k="natural" v="valley" />
		<tag k="old_name:se" v="Guovžavži" />
		<tag k="place" v="locality" />
		<tag k="ssr:stedsnr" v="688629" />
	</node>
	<node lat="70.76361390367941" lon="27.34739399339984" id="-104783">
		<tag k="fixme" v="consider natural=peak for the most distinct mountains in the district" />
		<tag k="name" v="Storfjellet" />
		<tag k="natural" v="hill" />
		<tag k="place" v="locality" />
		<tag k="ssr:stedsnr" v="688816" />
	</node>
	<node lat="70.78687501111874" lon="27.325963436873966" id="-104784">
		<tag k="fixme" v="consider natural=peak for the most distinct mountains in the district" />
		<tag k="name" v="Kvalkeilfjellet" />
		<tag k="natural" v="hill" />
		<tag k="place" v="locality" />
		<tag k="ssr:stedsnr" v="688818" />
	</node>
	<node lat="70.39863056469609" lon="26.50082464652334" id="-104785">
		<tag k="fixme" v="consider natural=peak for the most distinct mountains in the district" />
		<tag k="name" v="Langneshøgda" />
		<tag k="natural" v="hill" />
		<tag k="place" v="locality" />
		<tag k="ssr:stedsnr" v="625167" />
	</node>
	<node lat="70.41099445685559" lon="26.61731350080533" id="-104787">
		<tag k="fixme" v="consider natural=peak for the most distinct mountains in the district" />
		<tag k="name" v="Njárgasaš" />
		<tag k="name:se" v="Njárgasaš" />
		<tag k="natural" v="hill" />
		<tag k="old_name:se" v="Njargasaš" />
		<tag k="place" v="locality" />
		<tag k="ssr:stedsnr" v="625173" />
	</node>
	<node lat="70.4690500131684" lon="26.504444095388227" id="-104789">
		<tag k="name" v="Kudalen - Gussarohtu" />
		<tag k="name:no" v="Kudalen" />
		<tag k="name:se" v="Gussarohtu" />
		<tag k="natural" v="valley" />
		<tag k="old_name:se" v="Gussaråtto" />
		<tag k="place" v="locality" />
		<tag k="ssr:stedsnr" v="625313" />
	</node>
	<node lat="70.42839168269003" lon="27.095499553293976" id="-104795">
		<tag k="fixme" v="consider natural=peak for the most distinct mountains in the district" />
		<tag k="name" v="Gussavárri" />
		<tag k="name:se" v="Gussavárri" />
		<tag k="natural" v="hill" />
		<tag k="old_name:se" v="Gussavarri" />
		<tag k="place" v="locality" />
		<tag k="ssr:stedsnr" v="626216" />
	</node>
	<node lat="70.7792333438957" lon="26.66253299029631" id="-104796">
		<tag k="name" v="Loađđonvággi" />
		<tag k="name:se" v="Loađđonvággi" />
		<tag k="natural" v="valley" />
		<tag k="old_name:se" v="Loađđunvaggi" />
		<tag k="place" v="locality" />
		<tag k="ssr:stedsnr" v="626258" />
	</node>
	<node lat="70.6231472299983" lon="26.46139409605214" id="-104799">
		<tag k="name" v="Veidnesdalen" />
		<tag k="natural" v="valley" />
		<tag k="place" v="locality" />
		<tag k="ssr:stedsnr" v="626603" />
	</node>
	<node lat="70.53031667749083" lon="26.353480241434934" id="-104800">
		<tag k="fixme" v="consider natural=peak for the most distinct mountains in the district" />
		<tag k="name" v="Orošoaivi" />
		<tag k="name:se" v="Orošoaivi" />
		<tag k="natural" v="hill" />
		<tag k="old_name:se" v="Årošoaivi;Orušoaivi" />
		<tag k="place" v="locality" />
		<tag k="ssr:stedsnr" v="626612" />
	</node>
	<node lat="70.70332223446353" lon="27.078424563890966" id="-104803">
		<tag k="alt_name" v="Store Torskefjordklubben" />
		<tag k="fixme" v="consider natural=peak for the most distinct mountains in the district" />
		<tag k="name" v="Torskefjordklubben" />
		<tag k="natural" v="hill" />
		<tag k="old_name" v="Torskefjordklubben, store" />
		<tag k="place" v="locality" />
		<tag k="ssr:stedsnr" v="626704" />
	</node>
	<node lat="70.66265834461376" lon="27.19712733366966" id="-104805">
		<tag k="name" v="Moen" />
		<tag k="place" v="locality" />
		<tag k="ssr:stedsnr" v="626707" />
	</node>
	<node lat="70.53660556882622" lon="27.259885617640712" id="-104806">
		<tag k="fixme" v="consider natural=peak for the most distinct mountains in the district" />
		<tag k="name" v="Govrá" />
		<tag k="name:se" v="Govrá" />
		<tag k="natural" v="hill" />
		<tag k="old_name:se" v="Gåvra" />
		<tag k="place" v="locality" />
		<tag k="ssr:stedsnr" v="626765" />
	</node>
	<node lat="70.65144722838473" lon="26.299610805324264" id="-104816">
		<tag k="name" v="Hálgomielli" />
		<tag k="name:se" v="Hálgomielli" />
		<tag k="natural" v="slope" />
		<tag k="place" v="locality" />
		<tag k="ssr:stedsnr" v="635805" />
	</node>
	<node lat="70.58341390117553" lon="27.016196785337158" id="-104819">
		<tag k="name" v="Lillelvvarden" />
		<tag k="natural" v="hill" />
		<tag k="place" v="locality" />
		<tag k="ssr:stedsnr" v="636615" />
	</node>
	<node lat="70.48510001465233" lon="27.120296764144047" id="-104828">
		<tag k="name" v="Rávnnabunjunni" />
		<tag k="name:se" v="Rávnnabunjunni" />
		<tag k="natural" v="hill" />
		<tag k="place" v="locality" />
		<tag k="ssr:stedsnr" v="637611" />
	</node>
	<node lat="70.79399167806577" lon="27.713257783591096" id="-104831">
		<tag k="name" v="Reindalen" />
		<tag k="natural" v="valley" />
		<tag k="place" v="locality" />
		<tag k="ssr:stedsnr" v="638509" />
	</node>
	<node lat="70.63480278939907" lon="26.550171881497374" id="-104844">
		<tag k="name" v="Tverrbakken" />
		<tag k="natural" v="slope" />
		<tag k="place" v="locality" />
		<tag k="ssr:stedsnr" v="879893" />
	</node>
	<node lat="70.91634445952799" lon="27.370043993076653" id="-104848">
		<tag k="fixme" v="consider natural=peak for the most distinct mountains in the district" />
		<tag k="name" v="Kistrandhøgda" />
		<tag k="natural" v="hill" />
		<tag k="place" v="locality" />
		<tag k="ssr:stedsnr" v="879999" />
	</node>
	<node lat="70.99740556835093" lon="27.349027347303313" id="-104851">
		<tag k="name" v="Strupen" />
		<tag k="natural" v="valley" />
		<tag k="place" v="locality" />
		<tag k="ssr:stedsnr" v="880590" />
	</node>
	<node lat="70.91761945600354" lon="27.457796767060767" id="-104856">
		<tag k="fixme" v="consider natural=peak for the most distinct mountains in the district" />
		<tag k="name" v="Blåfjellet" />
		<tag k="natural" v="hill" />
		<tag k="place" v="locality" />
		<tag k="ssr:stedsnr" v="880898" />
	</node>
	<node lat="70.43717501019064" lon="26.795227371373528" id="-104858">
		<tag k="alt_name" v="Holmfjell" />
		<tag k="fixme" v="consider natural=peak for the most distinct mountains in the district" />
		<tag k="name" v="Holmfjellet" />
		<tag k="natural" v="hill" />
		<tag k="place" v="locality" />
		<tag k="ssr:stedsnr" v="686176" />
	</node>
	<node lat="70.05462500651052" lon="26.130744109451307" id="-104859">
		<tag k="fixme" v="consider natural=peak for the most distinct mountains in the district" />
		<tag k="name" v="Heastoaivi" />
		<tag k="name:se" v="Heastoaivi" />
		<tag k="natural" v="hill" />
		<tag k="old_name:se" v="Hæstoaivi" />
		<tag k="place" v="locality" />
		<tag k="ssr:stedsnr" v="686358" />
	</node>
	<node lat="70.92561389337128" lon="26.692824663476895" id="-104862">
		<tag k="fixme" v="consider natural=peak for the most distinct mountains in the district" />
		<tag k="name" v="Risseluovtvárri" />
		<tag k="name:se" v="Risseluovtvárri" />
		<tag k="natural" v="hill" />
		<tag k="old_name:se" v="Risseluovtvarri" />
		<tag k="place" v="locality" />
		<tag k="ssr:stedsnr" v="687146" />
	</node>
	<node lat="70.4006305686689" lon="26.050908033812195" id="-104864">
		<tag k="name" v="Gámajohleahki" />
		<tag k="name:se" v="Gámajohleahki" />
		<tag k="natural" v="valley" />
		<tag k="old_name:se" v="Gamajåklækki" />
		<tag k="place" v="locality" />
		<tag k="ssr:stedsnr" v="687253" />
	</node>
	<node lat="70.54389167624517" lon="26.148333025153285" id="-104868">
		<tag k="fixme" v="consider natural=peak for the most distinct mountains in the district" />
		<tag k="name" v="Muvroaivi" />
		<tag k="name:se" v="Muvroaivi" />
		<tag k="natural" v="hill" />
		<tag k="place" v="locality" />
		<tag k="ssr:stedsnr" v="687615" />
	</node>
	<node lat="70.66581390496461" lon="27.247041216007776" id="-104869">
		<tag k="name" v="Fossbakken" />
		<tag k="natural" v="hill" />
		<tag k="place" v="locality" />
		<tag k="ssr:stedsnr" v="687703" />
	</node>
	<node lat="70.57137501252976" lon="27.32235229110901" id="-104871">
		<tag k="fixme" v="consider natural=peak for the most distinct mountains in the district" />
		<tag k="name" v="Svineryggen - Suolovárri" />
		<tag k="name:no" v="Svineryggen" />
		<tag k="name:se" v="Suolovárri" />
		<tag k="natural" v="hill" />
		<tag k="old_name:se" v="Suoluvarri" />
		<tag k="place" v="locality" />
		<tag k="ssr:stedsnr" v="687748" />
	</node>
	<node lat="71.10983612002852" lon="27.674466175476287" id="-104873">
		<tag k="fixme" v="consider natural=peak for the most distinct mountains in the district" />
		<tag k="name" v="Nordkinnfjellet" />
		<tag k="natural" v="hill" />
		<tag k="place" v="locality" />
		<tag k="ssr:stedsnr" v="688495" />
	</node>
	<node lat="70.60865193223293" lon="27.070162957289522" id="-104882">
		<tag k="name" v="Slogarbakken" />
		<tag k="natural" v="slope" />
		<tag k="place" v="locality" />
		<tag k="ssr:stedsnr" v="697211" />
	</node>
	<node lat="70.61323056653819" lon="27.071205123983635" id="-104883">
		<tag k="name" v="Varden" />
		<tag k="natural" v="hill" />
		<tag k="place" v="locality" />
		<tag k="ssr:stedsnr" v="697213" />
	</node>
	<node lat="70.34019167592935" lon="26.454724641458668" id="-104893">
		<tag k="name" v="Slettatoppen" />
		<tag k="natural" v="hill" />
		<tag k="place" v="locality" />
		<tag k="ssr:stedsnr" v="699627" />
	</node>
	<node lat="70.4554694537708" lon="26.22968579704471" id="-104898">
		<tag k="fixme" v="consider natural=peak for the most distinct mountains in the district" />
		<tag k="name" v="Juovvajároaivi" />
		<tag k="name:se" v="Juovvajároaivi" />
		<tag k="natural" v="hill" />
		<tag k="old_name:se" v="Juovvajaroaivi" />
		<tag k="place" v="locality" />
		<tag k="ssr:stedsnr" v="747283" />
	</node>
	<node lat="70.5771277884592" lon="26.58822185328058" id="-104901">
		<tag k="name" v="Sáideluovtgoarvi" />
		<tag k="name:se" v="Sáideluovtgoarvi" />
		<tag k="natural" v="slope" />
		<tag k="old_name:se" v="Saideluovtgoarvi" />
		<tag k="place" v="locality" />
		<tag k="ssr:stedsnr" v="747621" />
	</node>
	<node lat="70.99234445216517" lon="27.36206343879183" id="-104913">
		<tag k="name" v="Grapeskaret" />
		<tag k="natural" v="valley" />
		<tag k="place" v="locality" />
		<tag k="ssr:stedsnr" v="748220" />
	</node>
	<node lat="70.47379446144524" lon="27.236491193170405" id="-104914">
		<tag k="fixme" v="consider natural=peak for the most distinct mountains in the district" />
		<tag k="name" v="Jiekŋaluoddananvárri" />
		<tag k="name:se" v="Jiekŋaluoddananvárri" />
		<tag k="natural" v="hill" />
		<tag k="old_name:se" v="Jiegŋaluoddananvarri" />
		<tag k="place" v="locality" />
		<tag k="ssr:stedsnr" v="748222" />
	</node>
	<node lat="70.61142222634213" lon="26.117158043403222" id="-104917">
		<tag k="fixme" v="consider natural=peak for the most distinct mountains in the district" />
		<tag k="name" v="Uhca Suolovárri - Lille-Øyfjellet" />
		<tag k="name:no" v="Lille-Øyfjellet" />
		<tag k="name:se" v="Uhca Suolovárri" />
		<tag k="natural" v="hill" />
		<tag k="old_name:se" v="Suoluvarri ucca" />
		<tag k="place" v="locality" />
		<tag k="ssr:stedsnr" v="748566" />
	</node>
	<node lat="70.65808056872609" lon="27.250941216295264" id="-104921">
		<tag k="name" v="Bjørndalen" />
		<tag k="natural" v="valley" />
		<tag k="place" v="locality" />
		<tag k="ssr:stedsnr" v="748715" />
	</node>
	<node lat="70.65555278815586" lon="27.249638437806613" id="-104922">
		<tag k="name" v="Bekkarfjordskaret" />
		<tag k="natural" v="valley" />
		<tag k="place" v="locality" />
		<tag k="ssr:stedsnr" v="748716" />
	</node>
	<node lat="70.62721667963906" lon="27.362238400552968" id="-104923">
		<tag k="name" v="Nikolasdalen" />
		<tag k="natural" v="valley" />
		<tag k="place" v="locality" />
		<tag k="ssr:stedsnr" v="748720" />
	</node>
	<node lat="70.65995278635492" lon="26.433163562623477" id="-104932">
		<tag k="name" v="Indre Vassberget" />
		<tag k="natural" v="hill" />
		<tag k="place" v="locality" />
		<tag k="ssr:stedsnr" v="752667" />
	</node>
	<node lat="70.41020278875257" lon="26.516216308048126" id="-104934">
		<tag k="name" v="Trollberget" />
		<tag k="natural" v="hill" />
		<tag k="place" v="locality" />
		<tag k="ssr:stedsnr" v="752923" />
	</node>
	<node lat="70.63872778669017" lon="26.633221866998667" id="-104939">
		<tag k="name" v="Skarvbergan" />
		<tag k="natural" v="hill" />
		<tag k="place" v="locality" />
		<tag k="ssr:stedsnr" v="757956" />
	</node>
	<node lat="70.90215556465373" lon="27.2276773450655" id="-104946">
		<tag k="name" v="Rossmollskorra" />
		<tag k="natural" v="valley" />
		<tag k="place" v="locality" />
		<tag k="ssr:stedsnr" v="758816" />
	</node>
	<node lat="70.43358612559163" lon="26.730744052322322" id="-104948">
		<tag k="name" v="Krokvikbakken" />
		<tag k="natural" v="slope" />
		<tag k="place" v="locality" />
		<tag k="ssr:stedsnr" v="760673" />
	</node>
	<node lat="70.91178334373485" lon="26.685863542500314" id="-104952">
		<tag k="name" v="Siskkit Rissevággi" />
		<tag k="name:se" v="Siskkit Rissevággi" />
		<tag k="natural" v="valley" />
		<tag k="old_name:se" v="Rissevaggi, siskit" />
		<tag k="place" v="locality" />
		<tag k="ssr:stedsnr" v="809141" />
	</node>
	<node lat="70.92635001036082" lon="27.5168439550724" id="-104953">
		<tag k="fixme" v="consider natural=peak for the most distinct mountains in the district" />
		<tag k="name" v="Blåfjellet" />
		<tag k="natural" v="hill" />
		<tag k="place" v="locality" />
		<tag k="ssr:stedsnr" v="809208" />
	</node>
	<node lat="70.28151390220592" lon="26.80855514412962" id="-104956">
		<tag k="fixme" v="consider natural=peak for the most distinct mountains in the district" />
		<tag k="name" v="Meađđenčohkka" />
		<tag k="name:se" v="Meađđenčohkka" />
		<tag k="natural" v="hill" />
		<tag k="old_name:se" v="Mæddenčåkka" />
		<tag k="place" v="locality" />
		<tag k="ssr:stedsnr" v="809248" />
	</node>
	<node lat="70.28883612333809" lon="26.593766287505357" id="-104957">
		<tag k="fixme" v="consider natural=peak for the most distinct mountains in the district" />
		<tag k="name" v="Uhcaskáimuvra" />
		<tag k="name:se" v="Uhcaskáimuvra" />
		<tag k="natural" v="hill" />
		<tag k="old_name:se" v="Uccaskaimuvra" />
		<tag k="place" v="locality" />
		<tag k="ssr:stedsnr" v="809249" />
	</node>
	<node lat="71.06118057071917" lon="27.561893977383626" id="-104959">
		<tag k="fixme" v="consider natural=peak for the most distinct mountains in the district" />
		<tag k="name" v="Bjørnvikfjellet" />
		<tag k="natural" v="hill" />
		<tag k="place" v="locality" />
		<tag k="ssr:stedsnr" v="809293" />
	</node>
	<node lat="70.71957501045667" lon="27.130499566135605" id="-104961">
		<tag k="name" v="Holvikdalen" />
		<tag k="natural" v="valley" />
		<tag k="place" v="locality" />
		<tag k="ssr:stedsnr" v="809690" />
	</node>
	<node lat="70.57258056766885" lon="26.286977454920716" id="-104966">
		<tag k="name" v="Ávžžasmas" />
		<tag k="name:se" v="Ávžžasmas" />
		<tag k="natural" v="valley" />
		<tag k="old_name:se" v="Avžasmas" />
		<tag k="place" v="locality" />
		<tag k="ssr:stedsnr" v="809589" />
	</node>
	<node lat="70.61162778814675" lon="26.46448023032988" id="-104979">
		<tag k="fixme" v="consider natural=peak for the most distinct mountains in the district" />
		<tag k="name" v="Blåfjellet" />
		<tag k="natural" v="hill" />
		<tag k="place" v="locality" />
		<tag k="ssr:stedsnr" v="818905" />
	</node>
	<node lat="70.56908334338338" lon="27.024716221878414" id="-104981">
		<tag k="name" v="Lille Rundhaugen" />
		<tag k="natural" v="hill" />
		<tag k="place" v="locality" />
		<tag k="ssr:stedsnr" v="819623" />
	</node>
	<node lat="70.4776694623216" lon="27.059496767336704" id="-104982">
		<tag k="name" v="Ørneberg" />
		<tag k="natural" v="hill" />
		<tag k="place" v="locality" />
		<tag k="ssr:stedsnr" v="819572" />
	</node>
	<node lat="70.53996112602117" lon="26.9923079115987" id="-104987">
		<tag k="name" v="Skjåneshøgda" />
		<tag k="natural" v="hill" />
		<tag k="place" v="locality" />
		<tag k="ssr:stedsnr" v="819976" />
	</node>
	<node lat="70.30747500961488" lon="26.741907914243576" id="-104993">
		<tag k="fixme" v="consider natural=peak for the most distinct mountains in the district" />
		<tag k="name" v="Áttánmohkki" />
		<tag k="name:se" v="Áttánmohkki" />
		<tag k="natural" v="hill" />
		<tag k="old_name:se" v="Addanmåkki" />
		<tag k="place" v="locality" />
		<tag k="ssr:stedsnr" v="869273" />
	</node>
	<node lat="70.34653056516055" lon="26.43390798958583" id="-104997">
		<tag k="fixme" v="consider natural=peak for the most distinct mountains in the district" />
		<tag k="name" v="Elleskáidi" />
		<tag k="name:se" v="Elleskáidi" />
		<tag k="natural" v="hill" />
		<tag k="old_name:se" v="Elleskaidi" />
		<tag k="place" v="locality" />
		<tag k="ssr:stedsnr" v="869306" />
	</node>
	<node lat="70.60740556486974" lon="26.453505225497057" id="-105007">
		<tag k="fixme" v="consider natural=peak for the most distinct mountains in the district" />
		<tag k="name" v="Lyselvfjellet" />
		<tag k="natural" v="hill" />
		<tag k="place" v="locality" />
		<tag k="ssr:stedsnr" v="870607" />
	</node>
	<node lat="70.23743612142168" lon="26.68899126509754" id="-105032">
		<tag k="fixme" v="consider natural=peak for the most distinct mountains in the district" />
		<tag k="name" v="Stálogáisnjunni" />
		<tag k="name:se" v="Stálogáisnjunni" />
		<tag k="natural" v="hill" />
		<tag k="old_name:se" v="Stalugaisnjunni" />
		<tag k="place" v="locality" />
		<tag k="ssr:stedsnr" v="929364" />
	</node>
	<node lat="70.47277778840406" lon="26.092499693905253" id="-105033">
		<tag k="fixme" v="consider natural=peak for the most distinct mountains in the district" />
		<tag k="name" v="Duoddaraš" />
		<tag k="name:se" v="Duoddaraš" />
		<tag k="natural" v="hill" />
		<tag k="place" v="locality" />
		<tag k="ssr:stedsnr" v="930311" />
	</node>
	<node lat="70.67854167746577" lon="27.140921793072863" id="-105042">
		<tag k="name" v="Skálnjuovčča" />
		<tag k="name:se" v="Skálnjuovčča" />
		<tag k="natural" v="hill" />
		<tag k="old_name:se" v="Skalnjuovča" />
		<tag k="place" v="locality" />
		<tag k="ssr:stedsnr" v="930704" />
	</node>
	<node lat="70.83088612125353" lon="27.376649535535933" id="-105047">
		<tag k="fixme" v="consider natural=peak for the most distinct mountains in the district" />
		<tag k="name" v="Nova" />
		<tag k="natural" v="hill" />
		<tag k="place" v="locality" />
		<tag k="ssr:stedsnr" v="930797" />
	</node>
	<node lat="70.49297223735562" lon="27.066813435178855" id="-105055">
		<tag k="name" v="Skaret" />
		<tag k="natural" v="valley" />
		<tag k="place" v="locality" />
		<tag k="ssr:stedsnr" v="940540" />
	</node>
	<node lat="70.93775556985456" lon="27.513241201554514" id="-105058">
		<tag k="fixme" v="consider natural=peak for the most distinct mountains in the district" />
		<tag k="name" v="Sørbotnfjell" />
		<tag k="natural" v="hill" />
		<tag k="place" v="locality" />
		<tag k="ssr:stedsnr" v="940939" />
	</node>
	<node lat="70.9576500088668" lon="27.560827286790506" id="-105059">
		<tag k="alt_name" v="Storhompen" />
		<tag k="name" v="Storhumpen" />
		<tag k="natural" v="hill" />
		<tag k="place" v="locality" />
		<tag k="ssr:stedsnr" v="940944" />
	</node>
	<node lat="70.4211250121261" lon="26.62609407694906" id="-105061">
		<tag k="fixme" v="consider natural=peak for the most distinct mountains in the district" />
		<tag k="name" v="Per-Laukfjellet" />
		<tag k="natural" v="hill" />
		<tag k="place" v="locality" />
		<tag k="ssr:stedsnr" v="942332" />
	</node>
	<node lat="70.42006668117673" lon="26.75866071861916" id="-105065">
		<tag k="fixme" v="consider natural=peak for the most distinct mountains in the district" />
		<tag k="name" v="Garnvikhøgda - Fierbmeluohvárri" />
		<tag k="name:no" v="Garnvikhøgda" />
		<tag k="name:se" v="Fierbmeluohvárri" />
		<tag k="natural" v="hill" />
		<tag k="old_name:se" v="Fierbmeluohvarri" />
		<tag k="place" v="locality" />
		<tag k="ssr:stedsnr" v="19174" />
	</node>
	<node lat="70.04898056418325" lon="25.95851636924415" id="-105071">
		<tag k="name" v="Gállotbuolžžat" />
		<tag k="name:se" v="Gállotbuolžžat" />
		<tag k="natural" v="ridge" />
		<tag k="old_name:se" v="Gallutbuolžat" />
		<tag k="place" v="locality" />
		<tag k="ssr:stedsnr" v="19358" />
	</node>
	<node lat="70.48685556458318" lon="26.496502422812604" id="-105072">
		<tag k="name" v="Ráškasávži" />
		<tag k="name:se" v="Ráškasávži" />
		<tag k="natural" v="valley" />
		<tag k="old_name:se" v="Raškasavži" />
		<tag k="place" v="locality" />
		<tag k="ssr:stedsnr" v="19360" />
	</node>
	<node lat="70.21598612357003" lon="26.88489400049767" id="-105074">
		<tag k="fixme" v="consider natural=peak for the most distinct mountains in the district" />
		<tag k="name" v="Guovlloaivi" />
		<tag k="name:se" v="Guovlloaivi" />
		<tag k="natural" v="hill" />
		<tag k="old_name:se" v="Guovlaoaivi" />
		<tag k="place" v="locality" />
		<tag k="ssr:stedsnr" v="19383" />
	</node>
	<node lat="70.19778612694567" lon="26.959543992738972" id="-105075">
		<tag k="fixme" v="consider natural=peak for the most distinct mountains in the district" />
		<tag k="name" v="Beaskajároaivi" />
		<tag k="name:se" v="Beaskajároaivi" />
		<tag k="natural" v="hill" />
		<tag k="old_name:se" v="Bæskajaroaivi" />
		<tag k="place" v="locality" />
		<tag k="ssr:stedsnr" v="19386" />
	</node>
	<node lat="70.12479445796203" lon="26.535255159184985" id="-105079">
		<tag k="fixme" v="consider natural=peak for the most distinct mountains in the district" />
		<tag k="name" v="Važžečearru" />
		<tag k="name:se" v="Važžečearru" />
		<tag k="natural" v="hill" />
		<tag k="old_name:se" v="Važžečærro" />
		<tag k="place" v="locality" />
		<tag k="ssr:stedsnr" v="19400" />
	</node>
	<node lat="70.24240001319401" lon="27.11124950851001" id="-105080">
		<tag k="name" v="Lavnnjosbuolžžat" />
		<tag k="name:se" v="Lavnnjosbuolžžat" />
		<tag k="natural" v="ridge" />
		<tag k="old_name:se" v="Lavnjusbuolžat" />
		<tag k="place" v="locality" />
		<tag k="ssr:stedsnr" v="19413" />
	</node>
	<node lat="70.28729167830326" lon="27.032880081369843" id="-105081">
		<tag k="fixme" v="consider natural=peak for the most distinct mountains in the district" />
		<tag k="name" v="Čoarvvošoaivi" />
		<tag k="name:se" v="Čoarvvošoaivi" />
		<tag k="natural" v="hill" />
		<tag k="old_name:se" v="Čoarvušoaivi" />
		<tag k="place" v="locality" />
		<tag k="ssr:stedsnr" v="20031" />
	</node>
	<node lat="70.3297861302725" lon="27.194132836969068" id="-105082">
		<tag k="fixme" v="consider natural=peak for the most distinct mountains in the district" />
		<tag k="name" v="Galbmatoaivi" />
		<tag k="name:se" v="Galbmatoaivi" />
		<tag k="natural" v="hill" />
		<tag k="place" v="locality" />
		<tag k="ssr:stedsnr" v="20059" />
	</node>
	<node lat="70.35007223837654" lon="26.577938503907287" id="-105088">
		<tag k="alt_name" v="Jammerdal" />
		<tag k="name" v="Jammerdalen" />
		<tag k="natural" v="valley" />
		<tag k="place" v="locality" />
		<tag k="ssr:stedsnr" v="20133" />
	</node>
	<node lat="70.97775000808052" lon="27.30543288921944" id="-105094">
		<tag k="name" v="Oksen" />
		<tag k="natural" v="hill" />
		<tag k="place" v="locality" />
		<tag k="ssr:stedsnr" v="20232" />
	</node>
	<node lat="70.50344445351267" lon="27.07783844919737" id="-105095">
		<tag k="fixme" v="consider natural=peak for the most distinct mountains in the district" />
		<tag k="name" v="Stuorrariiddevárri" />
		<tag k="name:se" v="Stuorrariiddevárri" />
		<tag k="natural" v="hill" />
		<tag k="old_name:se" v="Stuorrariidevarri" />
		<tag k="place" v="locality" />
		<tag k="ssr:stedsnr" v="20312" />
	</node>
	<node lat="70.39323890649871" lon="27.23617451612016" id="-105096">
		<tag k="fixme" v="consider natural=peak for the most distinct mountains in the district" />
		<tag k="name" v="Gáissážat" />
		<tag k="name:se" v="Gáissážat" />
		<tag k="natural" v="hill" />
		<tag k="old_name:se" v="Gaisažat" />
		<tag k="place" v="locality" />
		<tag k="ssr:stedsnr" v="20183" />
	</node>
	<node lat="70.61847778382234" lon="26.508849668741586" id="-105098">
		<tag k="name" v="Tverrelvskaret - Skáhpávži" />
		<tag k="name:no" v="Tverrelvskaret" />
		<tag k="name:se" v="Skáhpávži" />
		<tag k="natural" v="valley" />
		<tag k="old_name:se" v="Skappavži" />
		<tag k="place" v="locality" />
		<tag k="ssr:stedsnr" v="20647" />
	</node>
	<node lat="70.67780556396838" lon="26.230644142967144" id="-105101">
		<tag k="fixme" v="consider natural=peak for the most distinct mountains in the district" />
		<tag k="name" v="Reatkavárri" />
		<tag k="name:se" v="Reatkavárri" />
		<tag k="natural" v="hill" />
		<tag k="old_name:se" v="Rætkavarri" />
		<tag k="place" v="locality" />
		<tag k="ssr:stedsnr" v="20561" />
	</node>
	<node lat="70.56706112417963" lon="27.237349517431447" id="-105104">
		<tag k="name" v="Middagstuva" />
		<tag k="natural" v="hill" />
		<tag k="place" v="locality" />
		<tag k="ssr:stedsnr" v="20761" />
	</node>
	<node lat="70.66990834415012" lon="27.14610788326717" id="-105106">
		<tag k="name" v="Riimmačohkka" />
		<tag k="name:se" v="Riimmačohkka" />
		<tag k="natural" v="hill" />
		<tag k="old_name:se" v="Riimačåkka" />
		<tag k="place" v="locality" />
		<tag k="ssr:stedsnr" v="20708" />
	</node>
	<node lat="70.64105557087348" lon="27.097827332115454" id="-105109">
		<tag k="name" v="Jakobsdalen" />
		<tag k="natural" v="valley" />
		<tag k="place" v="locality" />
		<tag k="ssr:stedsnr" v="20722" />
	</node>
	<node lat="70.61683334028247" lon="27.04997180136019" id="-105110">
		<tag k="fixme" v="consider natural=peak for the most distinct mountains in the district" />
		<tag k="name" v="Kalakklubben" />
		<tag k="natural" v="hill" />
		<tag k="place" v="locality" />
		<tag k="ssr:stedsnr" v="20726" />
	</node>
	<node lat="70.77351112686407" lon="27.32246065527028" id="-105111">
		<tag k="fixme" v="consider natural=peak for the most distinct mountains in the district" />
		<tag k="name" v="Ivarsfjellet" />
		<tag k="natural" v="hill" />
		<tag k="place" v="locality" />
		<tag k="ssr:stedsnr" v="20822" />
	</node>
	<node lat="70.78242501376529" lon="27.31321899774863" id="-105112">
		<tag k="name" v="Stokkelvdalen" />
		<tag k="natural" v="valley" />
		<tag k="place" v="locality" />
		<tag k="ssr:stedsnr" v="20824" />
	</node>
	<node lat="70.54041945720833" lon="27.00783012531843" id="-105113">
		<tag k="fixme" v="consider natural=peak for the most distinct mountains in the district" />
		<tag k="name" v="Buktafjellet - Gohpivárri" />
		<tag k="name:no" v="Buktafjellet" />
		<tag k="name:se" v="Gohpivárri" />
		<tag k="natural" v="hill" />
		<tag k="old_name:se" v="Gåppivarri" />
		<tag k="place" v="locality" />
		<tag k="ssr:stedsnr" v="20678" />
	</node>
	<node lat="70.50615278885971" lon="26.542855209521857" id="-105114">
		<tag k="alt_name" v="Raudbergan" />
		<tag k="name" v="Rødbergan" />
		<tag k="natural" v="hill" />
		<tag k="place" v="locality" />
		<tag k="ssr:stedsnr" v="20681" />
	</node>
	<node lat="70.42081945115528" lon="26.468344095059948" id="-105122">
		<tag k="name" v="Elendalen" />
		<tag k="natural" v="valley" />
		<tag k="place" v="locality" />
		<tag k="ssr:stedsnr" v="24928" />
	</node>
	<node lat="70.6398388938963" lon="26.30717747142511" id="-105132">
		<tag k="name" v="Fjordbotnskaret" />
		<tag k="natural" v="valley" />
		<tag k="place" v="locality" />
		<tag k="ssr:stedsnr" v="29822" />
	</node>
	<node lat="70.518600010272" lon="27.08543566419609" id="-105133">
		<tag k="fixme" v="consider natural=peak for the most distinct mountains in the district" />
		<tag k="name" v="Auskarfjellet" />
		<tag k="natural" v="hill" />
		<tag k="place" v="locality" />
		<tag k="ssr:stedsnr" v="29545" />
	</node>
	<node lat="70.5135639036023" lon="27.150549532449304" id="-105134">
		<tag k="name" v="Harredalen" />
		<tag k="natural" v="valley" />
		<tag k="place" v="locality" />
		<tag k="ssr:stedsnr" v="29546" />
	</node>
	<node lat="70.57366667853435" lon="27.053663453569882" id="-105139">
		<tag k="fixme" v="consider natural=peak for the most distinct mountains in the district" />
		<tag k="name" v="Nilsfjellet" />
		<tag k="natural" v="hill" />
		<tag k="place" v="locality" />
		<tag k="ssr:stedsnr" v="30592" />
	</node>
	<node lat="71.01201112491043" lon="27.364291221357337" id="-105140">
		<tag k="name" v="Raet" />
		<tag k="natural" v="hill" />
		<tag k="place" v="locality" />
		<tag k="ssr:stedsnr" v="30556" />
	</node>
	<node lat="70.66298612323116" lon="27.14736344967692" id="-105142">
		<tag k="name" v="Middagshaugen" />
		<tag k="natural" v="hill" />
		<tag k="place" v="locality" />
		<tag k="ssr:stedsnr" v="30855" />
	</node>
	<node lat="70.35101668070618" lon="26.531766287863622" id="-105144">
		<tag k="name" v="Bekkeli" />
		<tag k="natural" v="slope" />
		<tag k="place" v="locality" />
		<tag k="ssr:stedsnr" v="31728" />
	</node>
	<node lat="70.33178612262647" lon="26.372924642765486" id="-105146">
		<tag k="fixme" v="consider natural=peak for the most distinct mountains in the district" />
		<tag k="name" v="Fávrresskáidi" />
		<tag k="name:se" v="Fávrresskáidi" />
		<tag k="natural" v="hill" />
		<tag k="place" v="locality" />
		<tag k="ssr:stedsnr" v="31664" />
	</node>
	<node lat="70.32205001711888" lon="27.056749543319047" id="-105151">
		<tag k="fixme" v="consider natural=peak for the most distinct mountains in the district" />
		<tag k="name" v="Váđasbákseaibbuš" />
		<tag k="name:se" v="Váđasbákseaibbuš" />
		<tag k="natural" v="hill" />
		<tag k="old_name:se" v="Vađasbaksæiboš;Váđasbáktseaibbuš" />
		<tag k="place" v="locality" />
		<tag k="ssr:stedsnr" v="80060" />
	</node>
	<node lat="70.3230361241925" lon="26.975827334879952" id="-105154">
		<tag k="fixme" v="consider natural=peak for the most distinct mountains in the district" />
		<tag k="name" v="Goahtečohkka" />
		<tag k="name:se" v="Goahtečohkka" />
		<tag k="natural" v="hill" />
		<tag k="old_name:se" v="Goattečåkka" />
		<tag k="place" v="locality" />
		<tag k="ssr:stedsnr" v="80134" />
	</node>
	<node lat="70.9249889012045" lon="27.511424521775776" id="-105157">
		<tag k="name" v="Blåfjellhøgda" />
		<tag k="natural" v="hill" />
		<tag k="place" v="locality" />
		<tag k="ssr:stedsnr" v="80220" />
	</node>
	<node lat="70.95476112061785" lon="27.60742729723289" id="-105159">
		<tag k="alt_name" v="Nordosthompen" />
		<tag k="name" v="Nordosthumpen" />
		<tag k="natural" v="hill" />
		<tag k="place" v="locality" />
		<tag k="ssr:stedsnr" v="80232" />
	</node>
	<node lat="70.37687500941777" lon="26.474341317810193" id="-105163">
		<tag k="fixme" v="consider natural=peak for the most distinct mountains in the district" />
		<tag k="name" v="Gohppevárri" />
		<tag k="name:se" v="Gohppevárri" />
		<tag k="natural" v="hill" />
		<tag k="old_name:se" v="Gåppevarri" />
		<tag k="place" v="locality" />
		<tag k="ssr:stedsnr" v="80177" />
	</node>
	<node lat="70.3893861155809" lon="26.101441371655312" id="-105170">
		<tag k="name" v="Varetávži" />
		<tag k="name:se" v="Varetávži" />
		<tag k="natural" v="valley" />
		<tag k="old_name:se" v="Varetavži" />
		<tag k="place" v="locality" />
		<tag k="ssr:stedsnr" v="80274" />
	</node>
	<node lat="70.36715556291901" lon="26.300771879306186" id="-105171">
		<tag k="fixme" v="consider natural=peak for the most distinct mountains in the district" />
		<tag k="name" v="Vilgesráhppát" />
		<tag k="name:se" v="Vilgesráhppát" />
		<tag k="natural" v="hill" />
		<tag k="old_name:se" v="Vilgesrappat" />
		<tag k="place" v="locality" />
		<tag k="ssr:stedsnr" v="80281" />
	</node>
	<node lat="71.03486390059436" lon="27.278341251086964" id="-105178">
		<tag k="fixme" v="consider natural=peak for the most distinct mountains in the district" />
		<tag k="name" v="Kjelsnæringen - Gievdnegeahči" />
		<tag k="name:no" v="Kjelsnæringen" />
		<tag k="name:se" v="Gievdnegeahči" />
		<tag k="natural" v="hill" />
		<tag k="old_name:se" v="Gievdnegæčči" />
		<tag k="place" v="locality" />
		<tag k="ssr:stedsnr" v="80484" />
	</node>
	<node lat="70.55735557013921" lon="27.38135228050048" id="-105185">
		<tag k="name" v="Lákkomohkki" />
		<tag k="name:se" v="Lákkomohkki" />
		<tag k="natural" v="valley" />
		<tag k="old_name:se" v="Laggumåkki" />
		<tag k="place" v="locality" />
		<tag k="ssr:stedsnr" v="80752" />
	</node>
	<node lat="71.00334445274966" lon="27.48559121718985" id="-105190">
		<tag k="fixme" v="consider natural=peak for the most distinct mountains in the district" />
		<tag k="name" v="Avløysinga" />
		<tag k="natural" v="hill" />
		<tag k="place" v="locality" />
		<tag k="ssr:stedsnr" v="81525" />
	</node>
	<node lat="70.49307501494988" lon="27.14006620177416" id="-105194">
		<tag k="fixme" v="consider natural=peak for the most distinct mountains in the district" />
		<tag k="name" v="Sommerhaugen - Áhkočohkka" />
		<tag k="name:no" v="Sommerhaugen" />
		<tag k="name:se" v="Áhkočohkka" />
		<tag k="natural" v="hill" />
		<tag k="old_name:se" v="Akkučåkka;Ahkočohkka" />
		<tag k="place" v="locality" />
		<tag k="ssr:stedsnr" v="81250" />
	</node>
	<node lat="70.75961112042917" lon="27.331124546556758" id="-105197">
		<tag k="name" v="Vassberga" />
		<tag k="natural" v="hill" />
		<tag k="place" v="locality" />
		<tag k="ssr:stedsnr" v="81815" />
	</node>
	<node lat="70.7793639032769" lon="27.32324954225363" id="-105198">
		<tag k="fixme" v="consider natural=peak for the most distinct mountains in the district" />
		<tag k="name" v="Fuglefjellet" />
		<tag k="natural" v="hill" />
		<tag k="place" v="locality" />
		<tag k="ssr:stedsnr" v="81825" />
	</node>
	<node lat="70.61046667442656" lon="26.584449642008995" id="-105199">
		<tag k="name" v="Reindalen - Boazojorranávži" />
		<tag k="name:no" v="Reindalen" />
		<tag k="name:se" v="Boazojorranávži" />
		<tag k="natural" v="valley" />
		<tag k="old_name:se" v="Boazujårranavži" />
		<tag k="place" v="locality" />
		<tag k="ssr:stedsnr" v="81637" />
	</node>
	<node lat="70.58538890460018" lon="27.327021732002233" id="-105214">
		<tag k="name" v="Storbakken" />
		<tag k="natural" v="slope" />
		<tag k="place" v="locality" />
		<tag k="ssr:stedsnr" v="90830" />
	</node>
	<node lat="70.56908334338338" lon="27.024716221878414" id="-105220">
		<tag k="name" v="Snebakken" />
		<tag k="natural" v="slope" />
		<tag k="place" v="locality" />
		<tag k="ssr:stedsnr" v="91618" />
	</node>
	<node lat="70.95663056643724" lon="27.46965510268554" id="-105222">
		<tag k="fixme" v="consider natural=peak for the most distinct mountains in the district" />
		<tag k="name" v="Halsen" />
		<tag k="natural" v="hill" />
		<tag k="place" v="locality" />
		<tag k="ssr:stedsnr" v="91940" />
	</node>
	<node lat="70.41297779189019" lon="26.68400239733" id="-105225">
		<tag k="name" v="Kråkeberget" />
		<tag k="natural" v="hill" />
		<tag k="place" v="locality" />
		<tag k="ssr:stedsnr" v="92682" />
	</node>
	<node lat="70.37342779049666" lon="26.477099634462647" id="-105227">
		<tag k="fixme" v="consider natural=peak for the most distinct mountains in the district" />
		<tag k="name" v="Buktfjell - Soppevárri" />
		<tag k="name:no" v="Buktfjell" />
		<tag k="name:se" v="Soppevárri" />
		<tag k="natural" v="hill" />
		<tag k="place" v="locality" />
		<tag k="ssr:stedsnr" v="92701" />
	</node>
	<node lat="70.40738612115096" lon="26.606774613371375" id="-105230">
		<tag k="fixme" v="consider natural=peak for the most distinct mountains in the district" />
		<tag k="name" v="Adamsfjordklubben" />
		<tag k="natural" v="hill" />
		<tag k="place" v="locality" />
		<tag k="ssr:stedsnr" v="140145" />
	</node>
	<node lat="70.9654472288125" lon="27.351513448050888" id="-105232">
		<tag k="fixme" v="consider natural=peak for the most distinct mountains in the district" />
		<tag k="name" v="Oksefjellet" />
		<tag k="natural" v="hill" />
		<tag k="place" v="locality" />
		<tag k="ssr:stedsnr" v="140195" />
	</node>
	<node lat="70.96693056892616" lon="27.38222456063452" id="-105233">
		<tag k="name" v="Halvorshøgda" />
		<tag k="natural" v="hill" />
		<tag k="place" v="locality" />
		<tag k="ssr:stedsnr" v="140199" />
	</node>
	<node lat="70.96655556884275" lon="27.202621811460993" id="-105234">
		<tag k="name" v="Svartbergan" />
		<tag k="natural" v="hill" />
		<tag k="place" v="locality" />
		<tag k="ssr:stedsnr" v="140200" />
	</node>
	<node lat="70.96645001364801" lon="27.58902452906898" id="-105236">
		<tag k="fixme" v="consider natural=peak for the most distinct mountains in the district" />
		<tag k="name" v="Falkefjellet" />
		<tag k="natural" v="hill" />
		<tag k="place" v="locality" />
		<tag k="ssr:stedsnr" v="140209" />
	</node>
	<node lat="70.42179167940536" lon="26.300191336078967" id="-105238">
		<tag k="fixme" v="consider natural=peak for the most distinct mountains in the district" />
		<tag k="name" v="Gárggoaivvit" />
		<tag k="name:se" v="Gárggoaivvit" />
		<tag k="natural" v="hill" />
		<tag k="old_name:se" v="Gargoaivit" />
		<tag k="place" v="locality" />
		<tag k="ssr:stedsnr" v="140248" />
	</node>
	<node lat="70.40306390095887" lon="26.187971924910826" id="-105239">
		<tag k="fixme" v="consider natural=peak for the most distinct mountains in the district" />
		<tag k="name" v="Čiersanoaivi" />
		<tag k="name:se" v="Čiersanoaivi" />
		<tag k="natural" v="hill" />
		<tag k="place" v="locality" />
		<tag k="ssr:stedsnr" v="140253" />
	</node>
	<node lat="70.37338056469743" lon="26.257744112615605" id="-105241">
		<tag k="fixme" v="consider natural=peak for the most distinct mountains in the district" />
		<tag k="name" v="Guorahanoaivi" />
		<tag k="name:se" v="Guorahanoaivi" />
		<tag k="natural" v="hill" />
		<tag k="place" v="locality" />
		<tag k="ssr:stedsnr" v="140274" />
	</node>
	<node lat="70.33930556524005" lon="26.371735774399475" id="-105249">
		<tag k="fixme" v="consider natural=peak for the most distinct mountains in the district" />
		<tag k="name" v="Fávrresoaivi" />
		<tag k="name:se" v="Fávrresoaivi" />
		<tag k="natural" v="hill" />
		<tag k="old_name:se" v="Favresoaivi" />
		<tag k="place" v="locality" />
		<tag k="ssr:stedsnr" v="140367" />
	</node>
	<node lat="70.4520444554836" lon="26.158135804671225" id="-105250">
		<tag k="fixme" v="consider natural=peak for the most distinct mountains in the district" />
		<tag k="name" v="Uhca Miekta" />
		<tag k="name:se" v="Uhca Miekta" />
		<tag k="natural" v="hill" />
		<tag k="old_name:se" v="Miekta, ucca" />
		<tag k="place" v="locality" />
		<tag k="ssr:stedsnr" v="140315" />
	</node>
	<node lat="70.4347333423767" lon="26.261033004988555" id="-105251">
		<tag k="fixme" v="consider natural=peak for the most distinct mountains in the district" />
		<tag k="name" v="Várdánoaivi" />
		<tag k="name:se" v="Várdánoaivi" />
		<tag k="natural" v="hill" />
		<tag k="old_name:se" v="Vardanoaivi" />
		<tag k="place" v="locality" />
		<tag k="ssr:stedsnr" v="140322" />
	</node>
	<node lat="70.47934167635262" lon="26.562863520792074" id="-105253">
		<tag k="fixme" v="consider natural=peak for the most distinct mountains in the district" />
		<tag k="name" v="Korsnesklubben - Issáluohklubbu" />
		<tag k="name:no" v="Korsnesklubben" />
		<tag k="name:se" v="Issáluohklubbu" />
		<tag k="natural" v="hill" />
		<tag k="old_name:se" v="Issaluohklubbo" />
		<tag k="place" v="locality" />
		<tag k="ssr:stedsnr" v="140327" />
	</node>
	<node lat="70.67732222691801" lon="26.336755243578843" id="-105256">
		<tag k="alt_name" v="Jutul" />
		<tag k="fixme" v="consider natural=peak for the most distinct mountains in the district" />
		<tag k="name" v="Jotunfjellet" />
		<tag k="natural" v="hill" />
		<tag k="place" v="locality" />
		<tag k="ssr:stedsnr" v="140519" />
	</node>
	<node lat="70.66880834342608" lon="26.36626912168753" id="-105257">
		<tag k="name" v="Perhaugen - Pieračohkka" />
		<tag k="name:no" v="Perhaugen" />
		<tag k="name:se" v="Pieračohkka" />
		<tag k="natural" v="hill" />
		<tag k="old_name:se" v="Pieračåkka" />
		<tag k="place" v="locality" />
		<tag k="ssr:stedsnr" v="140524" />
	</node>
	<node lat="70.66988889820233" lon="26.29955526330717" id="-105258">
		<tag k="fixme" v="consider natural=peak for the most distinct mountains in the district" />
		<tag k="name" v="Perhatten" />
		<tag k="natural" v="hill" />
		<tag k="place" v="locality" />
		<tag k="ssr:stedsnr" v="140527" />
	</node>
	<node lat="70.58696945459846" lon="26.970885695422474" id="-105260">
		<tag k="name" v="Kakvikklubben" />
		<tag k="natural" v="hill" />
		<tag k="place" v="locality" />
		<tag k="ssr:stedsnr" v="140616" />
	</node>
	<node lat="70.5847639022954" lon="27.296985618699953" id="-105264">
		<tag k="name" v="Ørntinden" />
		<tag k="natural" v="hill" />
		<tag k="place" v="locality" />
		<tag k="ssr:stedsnr" v="140722" />
	</node>
	<node lat="70.34281390527049" lon="26.84879958214721" id="-105265">
		<tag k="name" v="Gárdevuopmi" />
		<tag k="name:se" v="Gárdevuopmi" />
		<tag k="natural" v="valley" />
		<tag k="old_name:se" v="Gardevuobmi" />
		<tag k="place" v="locality" />
		<tag k="ssr:stedsnr" v="141128" />
	</node>
	<node lat="70.9228250090359" lon="27.248749567312014" id="-105267">
		<tag k="fixme" v="consider natural=peak for the most distinct mountains in the district" />
		<tag k="name" v="Gartefjellet" />
		<tag k="natural" v="hill" />
		<tag k="place" v="locality" />
		<tag k="ssr:stedsnr" v="141195" />
	</node>
	<node lat="70.77028612216479" lon="26.65315521248356" id="-105269">
		<tag k="fixme" v="consider natural=peak for the most distinct mountains in the district" />
		<tag k="name" v="Rokvikfjellet" />
		<tag k="natural" v="hill" />
		<tag k="place" v="locality" />
		<tag k="ssr:stedsnr" v="141224" />
	</node>
	<node lat="70.57980834664839" lon="26.381488567753536" id="-105274">
		<tag k="fixme" v="consider natural=peak for the most distinct mountains in the district" />
		<tag k="name" v="Gulponjunis" />
		<tag k="name:se" v="Gulponjunis" />
		<tag k="natural" v="hill" />
		<tag k="old_name:se" v="Gulpunjunis" />
		<tag k="place" v="locality" />
		<tag k="ssr:stedsnr" v="141583" />
	</node>
	<node lat="70.64756945560917" lon="26.13789972639732" id="-105284">
		<tag k="fixme" v="consider natural=peak for the most distinct mountains in the district" />
		<tag k="name" v="Hesteryggen - Heasttačielgi" />
		<tag k="name:no" v="Hesteryggen" />
		<tag k="name:se" v="Heasttačielgi" />
		<tag k="natural" v="hill" />
		<tag k="old_name:se" v="Hæstačielgi" />
		<tag k="place" v="locality" />
		<tag k="ssr:stedsnr" v="141546" />
	</node>
	<node lat="70.67791390092543" lon="27.171010662252478" id="-105287">
		<tag k="fixme" v="consider natural=peak for the most distinct mountains in the district" />
		<tag k="name" v="Sørentinden - Rivdnječohkka" />
		<tag k="name:no" v="Sørentinden" />
		<tag k="name:se" v="Rivdnječohkka" />
		<tag k="natural" v="hill" />
		<tag k="old_name:no" v="Tinden" />
		<tag k="old_name:se" v="Rivdnječåkka" />
		<tag k="place" v="locality" />
		<tag k="ssr:stedsnr" v="141663" />
	</node>
	<node lat="70.80639168099079" lon="27.525157836422647" id="-105299">
		<tag k="name" v="Bringen" />
		<tag k="natural" v="hill" />
		<tag k="place" v="locality" />
		<tag k="ssr:stedsnr" v="141770" />
	</node>
	<node lat="70.83966668192383" lon="27.49112729907077" id="-105304">
		<tag k="fixme" v="consider natural=peak for the most distinct mountains in the district" />
		<tag k="name" v="Ersvågtinden" />
		<tag k="natural" v="hill" />
		<tag k="place" v="locality" />
		<tag k="ssr:stedsnr" v="147114" />
	</node>
	<node lat="71.00585557022885" lon="27.372174554348135" id="-105314">
		<tag k="fixme" v="consider natural=peak for the most distinct mountains in the district" />
		<tag k="name" v="Moltebærfjellet" />
		<tag k="natural" v="hill" />
		<tag k="place" v="locality" />
		<tag k="ssr:stedsnr" v="151592" />
	</node>
	<node lat="71.01955000645692" lon="27.360160667203562" id="-105317">
		<tag k="name" v="Brønnbakken" />
		<tag k="natural" v="slope" />
		<tag k="place" v="locality" />
		<tag k="ssr:stedsnr" v="151912" />
	</node>
	<node lat="70.95845834140343" lon="27.57757728257901" id="-105319">
		<tag k="name" v="Strupen" />
		<tag k="natural" v="valley" />
		<tag k="place" v="locality" />
		<tag k="ssr:stedsnr" v="151935" />
	</node>
	<node lat="70.9561083451634" lon="27.566799526045276" id="-105320">
		<tag k="alt_name" v="Kulehompen" />
		<tag k="name" v="Kulehumpen" />
		<tag k="natural" v="hill" />
		<tag k="place" v="locality" />
		<tag k="ssr:stedsnr" v="151937" />
	</node>
	<node lat="70.94556667800919" lon="27.424738424702362" id="-105321">
		<tag k="fixme" v="consider natural=peak for the most distinct mountains in the district" />
		<tag k="name" v="Tverrelvhøgda" />
		<tag k="natural" v="hill" />
		<tag k="place" v="locality" />
		<tag k="ssr:stedsnr" v="151942" />
	</node>
	<node lat="70.95500556334432" lon="27.357010654220556" id="-105324">
		<tag k="name" v="Monsdalen" />
		<tag k="natural" v="valley" />
		<tag k="place" v="locality" />
		<tag k="ssr:stedsnr" v="151975" />
	</node>
	<node lat="70.91925278952641" lon="27.395260642937806" id="-105327">
		<tag k="name" v="Hundbergan" />
		<tag k="natural" v="hill" />
		<tag k="place" v="locality" />
		<tag k="ssr:stedsnr" v="151985" />
	</node>
	<node lat="70.42936389940782" lon="26.638221855080083" id="-105330">
		<tag k="name" v="Garnberget" />
		<tag k="natural" v="hill" />
		<tag k="place" v="locality" />
		<tag k="ssr:stedsnr" v="153362" />
	</node>
	<node lat="70.42096668037543" lon="26.900119031523666" id="-105332">
		<tag k="fixme" v="consider natural=peak for the most distinct mountains in the district" />
		<tag k="name" v="Rássačohkka" />
		<tag k="name:se" v="Rássačohkka" />
		<tag k="natural" v="hill" />
		<tag k="old_name:se" v="Rassačåkka" />
		<tag k="place" v="locality" />
		<tag k="ssr:stedsnr" v="201161" />
	</node>
	<node lat="70.36266667729261" lon="26.584155188191804" id="-105334">
		<tag k="fixme" v="consider natural=peak for the most distinct mountains in the district" />
		<tag k="name" v="Lovddeš" />
		<tag k="name:se" v="Lovddeš" />
		<tag k="natural" v="hill" />
		<tag k="old_name:se" v="Låvdes" />
		<tag k="place" v="locality" />
		<tag k="ssr:stedsnr" v="201129" />
	</node>
	<node lat="70.41597779213143" lon="26.51483019177588" id="-105336">
		<tag k="fixme" v="consider natural=peak for the most distinct mountains in the district" />
		<tag k="name" v="Klokkarvikklubben - Gomufanas" />
		<tag k="name:no" v="Klokkarvikklubben" />
		<tag k="name:se" v="Gomufanas" />
		<tag k="natural" v="hill" />
		<tag k="old_name:se" v="Gåmofanas" />
		<tag k="place" v="locality" />
		<tag k="ssr:stedsnr" v="201154" />
	</node>
	<node lat="70.40193334007286" lon="26.09525526223749" id="-105337">
		<tag k="fixme" v="consider natural=peak for the most distinct mountains in the district" />
		<tag k="name" v="Gámačohkka" />
		<tag k="name:se" v="Gámačohkka" />
		<tag k="natural" v="hill" />
		<tag k="old_name:se" v="Gamačåkka" />
		<tag k="place" v="locality" />
		<tag k="ssr:stedsnr" v="201225" />
	</node>
	<node lat="70.36756945394725" lon="26.02020803062799" id="-105341">
		<tag k="fixme" v="consider natural=peak for the most distinct mountains in the district" />
		<tag k="name" v="Njukčoaivi" />
		<tag k="name:se" v="Njukčoaivi" />
		<tag k="natural" v="hill" />
		<tag k="place" v="locality" />
		<tag k="ssr:stedsnr" v="201239" />
	</node>
	<node lat="70.27816668005553" lon="26.34305798637696" id="-105344">
		<tag k="fixme" v="consider natural=peak for the most distinct mountains in the district" />
		<tag k="name" v="Guorgápmir" />
		<tag k="name:se" v="Guorgápmir" />
		<tag k="natural" v="hill" />
		<tag k="place" v="locality" />
		<tag k="ssr:stedsnr" v="201342" />
	</node>
	<node lat="70.29956389582989" lon="26.236310777200003" id="-105345">
		<tag k="fixme" v="consider natural=peak for the most distinct mountains in the district" />
		<tag k="name" v="Stuorra Liŋkoaivi" />
		<tag k="name:se" v="Stuorra Liŋkoaivi" />
		<tag k="natural" v="hill" />
		<tag k="old_name:se" v="Liŋkoaivi, stuorra;Liŋkoaivi" />
		<tag k="place" v="locality" />
		<tag k="ssr:stedsnr" v="201349" />
	</node>
	<node lat="70.33740557069073" lon="26.581232952368687" id="-105347">
		<tag k="fixme" v="consider natural=peak for the most distinct mountains in the district" />
		<tag k="name" v="Ehtemasvárri" />
		<tag k="name:se" v="Ehtemasvárri" />
		<tag k="natural" v="hill" />
		<tag k="old_name:se" v="Ettemasvarri" />
		<tag k="place" v="locality" />
		<tag k="ssr:stedsnr" v="202131" />
	</node>
	<node lat="70.3456055630697" lon="26.565774627373855" id="-105348">
		<tag k="fixme" v="consider natural=peak for the most distinct mountains in the district" />
		<tag k="name" v="Lille Lovdes - Unna Lovddeš" />
		<tag k="name:no" v="Lille Lovdes" />
		<tag k="name:se" v="Unna Lovddeš" />
		<tag k="natural" v="hill" />
		<tag k="old_name:se" v="Låvdeš, unna" />
		<tag k="place" v="locality" />
		<tag k="ssr:stedsnr" v="202138" />
	</node>
	<node lat="70.34509723286419" lon="26.683638479227255" id="-105349">
		<tag k="name" v="Adamsfjorddalen" />
		<tag k="natural" v="valley" />
		<tag k="place" v="locality" />
		<tag k="ssr:stedsnr" v="202139" />
	</node>
	<node lat="70.81735556824415" lon="26.635235777065397" id="-105359">
		<tag k="name" v="Rundhaugen" />
		<tag k="natural" v="hill" />
		<tag k="place" v="locality" />
		<tag k="ssr:stedsnr" v="202236" />
	</node>
	<node lat="70.80283612117688" lon="26.682060761550517" id="-105360">
		<tag k="fixme" v="consider natural=peak for the most distinct mountains in the district" />
		<tag k="name" v="Barluftfjellet" />
		<tag k="natural" v="hill" />
		<tag k="place" v="locality" />
		<tag k="ssr:stedsnr" v="202245" />
	</node>
	<node lat="71.10983890080203" lon="27.674466174840102" id="-105364">
		<tag k="fixme" v="consider natural=peak for the most distinct mountains in the district" />
		<tag k="name" v="Reipnakktinden" />
		<tag k="natural" v="hill" />
		<tag k="place" v="locality" />
		<tag k="ssr:stedsnr" v="202497" />
	</node>
	<node lat="71.12553056623315" lon="27.63798009169743" id="-105365">
		<tag k="fixme" v="multiple name tags, choose one and add the other to alt_name; consider natural=peak for the most distinct mountains in the district" />
		<tag k="name" v="Nordkinn;Kinnaren - Gidni" />
		<tag k="name:no" v="Nordkinn;Kinnaren" />
		<tag k="name:se" v="Gidni" />
		<tag k="natural" v="hill" />
		<tag k="place" v="locality" />
		<tag k="ssr:stedsnr" v="202499" />
	</node>
	<node lat="70.55744167172033" lon="26.162349709380983" id="-105366">
		<tag k="fixme" v="consider natural=peak for the most distinct mountains in the district" />
		<tag k="name" v="Lille Porsangfjellet" />
		<tag k="natural" v="hill" />
		<tag k="old_name" v="Porsangfjellet, l" />
		<tag k="place" v="locality" />
		<tag k="ssr:stedsnr" v="202621" />
	</node>
	<node lat="70.728255563303" lon="26.56575521248684" id="-105368">
		<tag k="name" v="Kvannberget" />
		<tag k="natural" v="hill" />
		<tag k="place" v="locality" />
		<tag k="ssr:stedsnr" v="202635" />
	</node>
	<node lat="70.6195805707382" lon="27.327352298665964" id="-105381">
		<tag k="fixme" v="consider natural=peak for the most distinct mountains in the district" />
		<tag k="name" v="Beahkkirrášša" />
		<tag k="name:se" v="Beahkkirrášša" />
		<tag k="natural" v="hill" />
		<tag k="old_name:se" v="Bækkirrašša" />
		<tag k="place" v="locality" />
		<tag k="ssr:stedsnr" v="202727" />
	</node>
	<node lat="70.90817779364909" lon="27.444893975684703" id="-105388">
		<tag k="name" v="Vikaskaret" />
		<tag k="natural" v="valley" />
		<tag k="place" v="locality" />
		<tag k="ssr:stedsnr" v="202777" />
	</node>
	<node lat="70.4717944557683" lon="27.02431067293431" id="-105401">
		<tag k="fixme" v="consider natural=peak for the most distinct mountains in the district" />
		<tag k="name" v="Garrisfjellet" />
		<tag k="natural" v="hill" />
		<tag k="place" v="locality" />
		<tag k="ssr:stedsnr" v="207012" />
	</node>
	<node lat="70.95028056965312" lon="27.134949593581158" id="-105407">
		<tag k="fixme" v="consider natural=peak for the most distinct mountains in the district" />
		<tag k="name" v="Kjemtinden" />
		<tag k="natural" v="hill" />
		<tag k="place" v="locality" />
		<tag k="ssr:stedsnr" v="208979" />
	</node>
	<node lat="70.61643612252975" lon="26.578766329230028" id="-105416">
		<tag k="name" v="Reinskaret" />
		<tag k="natural" v="valley" />
		<tag k="place" v="locality" />
		<tag k="ssr:stedsnr" v="212908" />
	</node>
	<node lat="70.92309445244565" lon="27.401477326000084" id="-105417">
		<tag k="name" v="Løklia" />
		<tag k="natural" v="slope" />
		<tag k="place" v="locality" />
		<tag k="ssr:stedsnr" v="212977" />
	</node>
	<node lat="70.41678056786903" lon="26.624527412090465" id="-105420">
		<tag k="fixme" v="consider natural=peak for the most distinct mountains in the district" />
		<tag k="name" v="Njárgačohkka" />
		<tag k="name:se" v="Njárgačohkka" />
		<tag k="natural" v="hill" />
		<tag k="old_name:se" v="Njargačåkka" />
		<tag k="place" v="locality" />
		<tag k="ssr:stedsnr" v="262179" />
	</node>
	<node lat="70.43728056199211" lon="26.32846910629165" id="-105427">
		<tag k="name" v="Čistenávži" />
		<tag k="name:se" v="Čistenávži" />
		<tag k="natural" v="valley" />
		<tag k="old_name:se" v="Čistenavži" />
		<tag k="place" v="locality" />
		<tag k="ssr:stedsnr" v="262295" />
	</node>
	<node lat="70.74201390159155" lon="27.22153565858779" id="-105432">
		<tag k="fixme" v="consider natural=peak for the most distinct mountains in the district" />
		<tag k="name" v="Skredfjellet" />
		<tag k="natural" v="hill" />
		<tag k="place" v="locality" />
		<tag k="ssr:stedsnr" v="262670" />
	</node>
	<node lat="70.37706389697524" lon="26.209171912659418" id="-105434">
		<tag k="fixme" v="consider natural=peak for the most distinct mountains in the district" />
		<tag k="name" v="Alloaivi" />
		<tag k="name:se" v="Alloaivi" />
		<tag k="natural" v="hill" />
		<tag k="place" v="locality" />
		<tag k="ssr:stedsnr" v="262553" />
	</node>
	<node lat="70.59335888876628" lon="26.988824136031713" id="-105436">
		<tag k="alt_name" v="Kalakhøgda" />
		<tag k="name" v="Storsteinhøgda" />
		<tag k="natural" v="hill" />
		<tag k="place" v="locality" />
		<tag k="ssr:stedsnr" v="262634" />
	</node>
	<node lat="70.52603056721458" lon="27.267407856705287" id="-105445">
		<tag k="fixme" v="consider natural=peak for the most distinct mountains in the district" />
		<tag k="name" v="Gátkkogielas" />
		<tag k="name:se" v="Gátkkogielas" />
		<tag k="natural" v="hill" />
		<tag k="old_name:se" v="Gatkugielas" />
		<tag k="place" v="locality" />
		<tag k="ssr:stedsnr" v="262781" />
	</node>
	<node lat="70.75452501160603" lon="26.61061911310432" id="-105451">
		<tag k="name" v="Veidgamdalen" />
		<tag k="natural" v="valley" />
		<tag k="place" v="locality" />
		<tag k="ssr:stedsnr" v="263258" />
	</node>
	<node lat="70.75800833964038" lon="26.658680192314655" id="-105452">
		<tag k="fixme" v="consider natural=peak for the most distinct mountains in the district" />
		<tag k="name" v="Veidgamklubben" />
		<tag k="natural" v="hill" />
		<tag k="place" v="locality" />
		<tag k="ssr:stedsnr" v="263260" />
	</node>
	<node lat="70.25461945297563" lon="26.79144958502149" id="-105454">
		<tag k="fixme" v="consider natural=peak for the most distinct mountains in the district" />
		<tag k="name" v="Deardnočohkka" />
		<tag k="name:se" v="Deardnočohkka" />
		<tag k="natural" v="hill" />
		<tag k="old_name:se" v="Dærdnučåkka" />
		<tag k="place" v="locality" />
		<tag k="ssr:stedsnr" v="263264" />
	</node>
	<node lat="70.68552779126965" lon="27.104466234393534" id="-105458">
		<tag k="name" v="Lille Torskefjordklubben - Stállu" />
		<tag k="name:no" v="Lille Torskefjordklubben" />
		<tag k="name:se" v="Stállu" />
		<tag k="natural" v="hill" />
		<tag k="old_name:no" v="Torskefjordklubben, l" />
		<tag k="old_name:se" v="Stallo" />
		<tag k="place" v="locality" />
		<tag k="ssr:stedsnr" v="263686" />
	</node>
	<node lat="70.81501945546644" lon="27.342638416707292" id="-105463">
		<tag k="fixme" v="consider natural=peak for the most distinct mountains in the district" />
		<tag k="name" v="Skuohki" />
		<tag k="name:se" v="Skuohki" />
		<tag k="natural" v="hill" />
		<tag k="old_name:se" v="Skuokki" />
		<tag k="place" v="locality" />
		<tag k="ssr:stedsnr" v="263796" />
	</node>
	<node lat="70.01860834027062" lon="25.991255239024785" id="-105471">
		<tag k="loc_name:se" v="Gáissát" />
		<tag k="name" v="Gaissane" />
		<tag k="name:no" v="Gaissane" />
		<tag k="natural" v="mountain_range" />
		<tag k="ssr:stedsnr" v="269518" />
	</node>
	<node lat="70.62016112490812" lon="27.051655116950357" id="-105477">
		<tag k="name" v="Kattugleberget" />
		<tag k="natural" v="hill" />
		<tag k="place" v="locality" />
		<tag k="ssr:stedsnr" v="273179" />
	</node>
	<node lat="70.9489777875276" lon="27.359207899612155" id="-105478">
		<tag k="fixme" v="consider natural=peak for the most distinct mountains in the district" />
		<tag k="name" v="Kirkefjellet" />
		<tag k="natural" v="hill" />
		<tag k="place" v="locality" />
		<tag k="ssr:stedsnr" v="272959" />
	</node>
	<node lat="70.94517223497925" lon="27.36122456441483" id="-105479">
		<tag k="name" v="Elvedalen" />
		<tag k="natural" v="valley" />
		<tag k="place" v="locality" />
		<tag k="ssr:stedsnr" v="272964" />
	</node>
	<node lat="70.55567778772067" lon="27.020616246968192" id="-105481">
		<tag k="name" v="Løkholla" />
		<tag k="natural" v="valley" />
		<tag k="place" v="locality" />
		<tag k="ssr:stedsnr" v="273576" />
	</node>
	<node lat="70.66197778893934" lon="27.17352177686935" id="-105482">
		<tag k="name" v="Flatfjellet" />
		<tag k="natural" v="hill" />
		<tag k="place" v="locality" />
		<tag k="ssr:stedsnr" v="273877" />
	</node>
	<node lat="70.92218056670947" lon="27.40159676227232" id="-105484">
		<tag k="name" v="Kjelen" />
		<tag k="natural" v="valley" />
		<tag k="place" v="locality" />
		<tag k="ssr:stedsnr" v="273983" />
	</node>
	<node lat="70.91811390204778" lon="27.385780093852155" id="-105485">
		<tag k="name" v="Reinbenkan" />
		<tag k="natural" v="valley" />
		<tag k="place" v="locality" />
		<tag k="ssr:stedsnr" v="273985" />
	</node>
	<node lat="70.57778889852784" lon="27.269882849227407" id="-105489">
		<tag k="name" v="Sørelvskaret" />
		<tag k="natural" v="valley" />
		<tag k="place" v="locality" />
		<tag k="ssr:stedsnr" v="273890" />
	</node>
	<node lat="70.36124167538547" lon="26.525560729944576" id="-105496">
		<tag k="alt_name:no" v="Vassberg" />
		<tag k="name" v="Vassberget - Čáhcebákti" />
		<tag k="name:no" v="Vassberget" />
		<tag k="name:se" v="Čáhcebákti" />
		<tag k="natural" v="hill" />
		<tag k="old_name:se" v="Čaccebakti" />
		<tag k="place" v="locality" />
		<tag k="ssr:stedsnr" v="322124" />
	</node>
	<node lat="70.42830834346118" lon="26.748291260954737" id="-105505">
		<tag k="fixme" v="consider natural=peak for the most distinct mountains in the district" />
		<tag k="name" v="Krokviknakken - Oamebálgávárri" />
		<tag k="name:no" v="Krokviknakken" />
		<tag k="name:se" v="Oamebálgávárri" />
		<tag k="natural" v="hill" />
		<tag k="old_name:se" v="Oamebalgavarri" />
		<tag k="place" v="locality" />
		<tag k="ssr:stedsnr" v="322165" />
	</node>
	<node lat="70.46333890605001" lon="26.863941248672887" id="-105507">
		<tag k="fixme" v="consider natural=peak for the most distinct mountains in the district" />
		<tag k="name" v="Tverrfjellet" />
		<tag k="natural" v="hill" />
		<tag k="place" v="locality" />
		<tag k="ssr:stedsnr" v="322309" />
	</node>
	<node lat="70.37790278936635" lon="27.254543952891048" id="-105509">
		<tag k="fixme" v="consider natural=peak for the most distinct mountains in the district" />
		<tag k="name" v="Gáisamuvra" />
		<tag k="name:se" v="Gáisamuvra" />
		<tag k="natural" v="hill" />
		<tag k="old_name:se" v="Gaisamuvra;Gáissamuvra" />
		<tag k="place" v="locality" />
		<tag k="ssr:stedsnr" v="323055" />
	</node>
	<node lat="70.32905556824834" lon="26.783474578321506" id="-105516">
		<tag k="fixme" v="consider natural=peak for the most distinct mountains in the district" />
		<tag k="name" v="Botnjalanoaivi" />
		<tag k="name:se" v="Botnjalanoaivi" />
		<tag k="natural" v="hill" />
		<tag k="old_name:se" v="Bådnjalanoaivi" />
		<tag k="place" v="locality" />
		<tag k="ssr:stedsnr" v="323148" />
	</node>
	<node lat="70.3516138975695" lon="26.524402399402256" id="-105519">
		<tag k="name" v="Luobbu" />
		<tag k="name:se" v="Luobbu" />
		<tag k="old_name:se" v="Luobbo" />
		<tag k="place" v="locality" />
		<tag k="ssr:stedsnr" v="323154" />
	</node>
	<node lat="70.7749250091326" lon="26.668102430262262" id="-105520">
		<tag k="name" v="Rokvikklubben" />
		<tag k="natural" v="hill" />
		<tag k="place" v="locality" />
		<tag k="ssr:stedsnr" v="323252" />
	</node>
	<node lat="71.00658889483981" lon="27.23481625358202" id="-105531">
		<tag k="fixme" v="consider natural=peak for the most distinct mountains in the district" />
		<tag k="name" v="Kvitnakken" />
		<tag k="natural" v="hill" />
		<tag k="place" v="locality" />
		<tag k="ssr:stedsnr" v="323506" />
	</node>
	<node lat="71.0042889028039" lon="27.408071779748997" id="-105532">
		<tag k="name" v="Rubbeskarhøgda" />
		<tag k="natural" v="hill" />
		<tag k="place" v="locality" />
		<tag k="ssr:stedsnr" v="323507" />
	</node>
	<node lat="70.53155001117335" lon="27.15629677332629" id="-105542">
		<tag k="name" v="Ráššavuolli" />
		<tag k="name:se" v="Ráššavuolli" />
		<tag k="natural" v="slope" />
		<tag k="old_name:se" v="Raššavuolli" />
		<tag k="place" v="locality" />
		<tag k="ssr:stedsnr" v="323747" />
	</node>
	<node lat="70.53748057036282" lon="27.324316176679798" id="-105543">
		<tag k="fixme" v="consider natural=peak for the most distinct mountains in the district" />
		<tag k="name" v="Krokryggen" />
		<tag k="natural" v="hill" />
		<tag k="place" v="locality" />
		<tag k="ssr:stedsnr" v="323749" />
	</node>
	<node lat="70.81828890511962" lon="27.58560783515051" id="-105548">
		<tag k="name" v="Ytter-Bonjorda" />
		<tag k="place" v="locality" />
		<tag k="ssr:stedsnr" v="323798" />
	</node>
	<node lat="70.80311112577084" lon="27.7156550143492" id="-105551">
		<tag k="name" v="Postnesbakkan" />
		<tag k="natural" v="slope" />
		<tag k="place" v="locality" />
		<tag k="ssr:stedsnr" v="323867" />
	</node>
	<node lat="70.6429361223365" lon="26.269358041682427" id="-105568">
		<tag k="name" v="Lomvannsbakken" />
		<tag k="natural" v="slope" />
		<tag k="place" v="locality" />
		<tag k="ssr:stedsnr" v="332815" />
	</node>
	<node lat="70.62971111774951" lon="26.625307962317493" id="-105570">
		<tag k="name" v="Lille Klubben" />
		<tag k="natural" v="hill" />
		<tag k="place" v="locality" />
		<tag k="ssr:stedsnr" v="333933" />
	</node>
	<node lat="70.94881389725695" lon="27.408230103437617" id="-105573">
		<tag k="fixme" v="consider natural=peak for the most distinct mountains in the district" />
		<tag k="name" v="Kirkehøgda" />
		<tag k="natural" v="hill" />
		<tag k="place" v="locality" />
		<tag k="ssr:stedsnr" v="333942" />
	</node>
	<node lat="70.34401389899523" lon="26.89407455411332" id="-105580">
		<tag k="fixme" v="consider natural=peak for the most distinct mountains in the district" />
		<tag k="name" v="Måstangen - Sopmirskáidi" />
		<tag k="name:no" v="Måstangen" />
		<tag k="name:se" v="Sopmirskáidi" />
		<tag k="natural" v="hill" />
		<tag k="old_name:se" v="Såbmirskaidi" />
		<tag k="place" v="locality" />
		<tag k="ssr:stedsnr" v="383125" />
	</node>
	<node lat="70.39590556983279" lon="26.886432895849143" id="-105581">
		<tag k="name" v="Suolovárri" />
		<tag k="name:se" v="Suolovárri" />
		<tag k="natural" v="hill" />
		<tag k="old_name:se" v="Svoluvarri" />
		<tag k="place" v="locality" />
		<tag k="ssr:stedsnr" v="383164" />
	</node>
	<node lat="70.38801390063108" lon="27.00912454862458" id="-105582">
		<tag k="fixme" v="consider natural=peak for the most distinct mountains in the district" />
		<tag k="name" v="Urttasvárri" />
		<tag k="name:se" v="Urttasvárri" />
		<tag k="natural" v="hill" />
		<tag k="old_name:se" v="Urtasvarri" />
		<tag k="place" v="locality" />
		<tag k="ssr:stedsnr" v="383169" />
	</node>
	<node lat="70.35735556464394" lon="26.059438582482567" id="-105584">
		<tag k="fixme" v="consider natural=peak for the most distinct mountains in the district" />
		<tag k="name" v="Suolojárgielas" />
		<tag k="name:se" v="Suolojárgielas" />
		<tag k="natural" v="hill" />
		<tag k="old_name:se" v="Suolujargielas" />
		<tag k="place" v="locality" />
		<tag k="ssr:stedsnr" v="383296" />
	</node>
	<node lat="70.4013750138306" lon="26.716235716204615" id="-105592">
		<tag k="fixme" v="multiple name tags, choose one and add the other to alt_name; consider natural=peak for the most distinct mountains in the district" />
		<tag k="loc_name" v="Jerkkon" />
		<tag k="name" v="Jerkum;Jerkumvarre" />
		<tag k="natural" v="hill" />
		<tag k="place" v="locality" />
		<tag k="ssr:stedsnr" v="383184" />
	</node>
	<node lat="70.43348056553592" lon="26.9100634636563" id="-105594">
		<tag k="fixme" v="consider natural=peak for the most distinct mountains in the district" />
		<tag k="name" v="Gresskildetoppene" />
		<tag k="natural" v="hill" />
		<tag k="place" v="locality" />
		<tag k="ssr:stedsnr" v="383195" />
	</node>
	<node lat="70.93432223565247" lon="27.493593988612396" id="-105596">
		<tag k="name" v="Avdalen - Ávdángurra" />
		<tag k="name:no" v="Avdalen" />
		<tag k="name:se" v="Ávdángurra" />
		<tag k="natural" v="valley" />
		<tag k="old_name:se" v="Avdangurra" />
		<tag k="place" v="locality" />
		<tag k="ssr:stedsnr" v="383199" />
	</node>
	<node lat="70.51205001205909" lon="27.329524489687053" id="-105598">
		<tag k="alt_name" v="Laggohompen" />
		<tag k="fixme" v="consider natural=peak for the most distinct mountains in the district" />
		<tag k="name" v="Laggohumpen" />
		<tag k="natural" v="hill" />
		<tag k="place" v="locality" />
		<tag k="ssr:stedsnr" v="383323" />
	</node>
	<node lat="70.16783612495027" lon="26.903930111634086" id="-105603">
		<tag k="fixme" v="consider natural=peak for the most distinct mountains in the district" />
		<tag k="name" v="Beaskajároaivi" />
		<tag k="name:se" v="Beaskajároaivi" />
		<tag k="natural" v="hill" />
		<tag k="old_name:se" v="Bæskajaroaivi" />
		<tag k="place" v="locality" />
		<tag k="ssr:stedsnr" v="383422" />
	</node>
	<node lat="70.26234723419962" lon="26.11956078632634" id="-105604">
		<tag k="name" v="Heandaratávži" />
		<tag k="name:se" v="Heandaratávži" />
		<tag k="natural" v="valley" />
		<tag k="old_name:se" v="Hændaratavži" />
		<tag k="place" v="locality" />
		<tag k="ssr:stedsnr" v="383381" />
	</node>
	<node lat="70.13797500901094" lon="26.258624654848294" id="-105606">
		<tag k="fixme" v="consider natural=peak for the most distinct mountains in the district" />
		<tag k="name" v="Vuonjalrášša" />
		<tag k="name:se" v="Vuonjalrášša" />
		<tag k="natural" v="hill" />
		<tag k="old_name:se" v="Vuonjalrašša" />
		<tag k="place" v="locality" />
		<tag k="ssr:stedsnr" v="383388" />
	</node>
	<node lat="71.09366667404583" lon="27.58454674518406" id="-105619">
		<tag k="fixme" v="consider natural=peak for the most distinct mountains in the district" />
		<tag k="name" v="Bønestinden" />
		<tag k="natural" v="hill" />
		<tag k="place" v="locality" />
		<tag k="ssr:stedsnr" v="384293" />
	</node>
	<node lat="70.90304167612389" lon="26.69700242968084" id="-105620">
		<tag k="fixme" v="consider natural=peak for the most distinct mountains in the district" />
		<tag k="name" v="Risvikklubben" />
		<tag k="natural" v="hill" />
		<tag k="place" v="locality" />
		<tag k="ssr:stedsnr" v="384149" />
	</node>
	<node lat="70.29046946175758" lon="26.975305107680548" id="-105624">
		<tag k="fixme" v="consider natural=peak for the most distinct mountains in the district" />
		<tag k="name" v="Muorahisvárri" />
		<tag k="name:se" v="Muorahisvárri" />
		<tag k="natural" v="hill" />
		<tag k="old_name:se" v="Muorahisvarri" />
		<tag k="place" v="locality" />
		<tag k="ssr:stedsnr" v="384244" />
	</node>
	<node lat="70.74828056860318" lon="27.2334662277008" id="-105631">
		<tag k="name" v="Skreda" />
		<tag k="natural" v="hill" />
		<tag k="place" v="locality" />
		<tag k="ssr:stedsnr" v="384672" />
	</node>
	<node lat="70.80446945381858" lon="27.441096747338932" id="-105634">
		<tag k="fixme" v="consider natural=peak for the most distinct mountains in the district" />
		<tag k="loc_name:se" v="Čoallevárri" />
		<tag k="name" v="Tårnfjellet" />
		<tag k="name:no" v="Tårnfjellet" />
		<tag k="natural" v="hill" />
		<tag k="place" v="locality" />
		<tag k="ssr:stedsnr" v="384776" />
	</node>
	<node lat="70.78118890124371" lon="27.454824518659542" id="-105635">
		<tag k="name" v="Hovdenakkdalen" />
		<tag k="natural" v="valley" />
		<tag k="place" v="locality" />
		<tag k="ssr:stedsnr" v="384797" />
	</node>
	<node lat="70.81879723325216" lon="26.435033033805496" id="-105636">
		<tag k="fixme" v="consider natural=peak for the most distinct mountains in the district" />
		<tag k="name" v="Russevikfjellet - Stuorra Giđđa" />
		<tag k="name:no" v="Russevikfjellet" />
		<tag k="name:se" v="Stuorra Giđđa" />
		<tag k="natural" v="hill" />
		<tag k="old_name:se" v="Giđđa, stuorra;Gidda, stuorra" />
		<tag k="place" v="locality" />
		<tag k="ssr:stedsnr" v="388133" />
	</node>
	<node lat="70.55872778637391" lon="27.060432898803086" id="-105652">
		<tag k="name" v="Buktadalen" />
		<tag k="natural" v="valley" />
		<tag k="place" v="locality" />
		<tag k="ssr:stedsnr" v="394566" />
	</node>
	<node lat="70.9246750096902" lon="27.412557877783343" id="-105655">
		<tag k="name" v="Botnberget" />
		<tag k="natural" v="hill" />
		<tag k="place" v="locality" />
		<tag k="ssr:stedsnr" v="394980" />
	</node>
	<node lat="70.91406111980358" lon="27.390524535746273" id="-105656">
		<tag k="name" v="Lillehammeren" />
		<tag k="natural" v="slope" />
		<tag k="place" v="locality" />
		<tag k="ssr:stedsnr" v="394981" />
	</node>
	<node lat="70.66608612362378" lon="27.22808842362208" id="-105661">
		<tag k="fixme" v="consider natural=peak for the most distinct mountains in the district" />
		<tag k="name" v="Bertrandtinden" />
		<tag k="natural" v="hill" />
		<tag k="place" v="locality" />
		<tag k="ssr:stedsnr" v="394871" />
	</node>
	<node lat="70.66181945408775" lon="27.160152331211254" id="-105662">
		<tag k="name" v="Lilletofta" />
		<tag k="natural" v="slope" />
		<tag k="place" v="locality" />
		<tag k="ssr:stedsnr" v="394878" />
	</node>
	<node lat="70.36143056825667" lon="26.549188516435628" id="-105672">
		<tag k="alt_name:se" v="Jovssetlássa" />
		<tag k="fixme" v="consider natural=peak for the most distinct mountains in the district" />
		<tag k="name" v="Jovssetlássevárri" />
		<tag k="name:se" v="Jovssetlássevárri" />
		<tag k="natural" v="hill" />
		<tag k="old_name:se" v="Jåvsetlassevarri" />
		<tag k="place" v="locality" />
		<tag k="ssr:stedsnr" v="504111" />
	</node>
	<node lat="70.37878890354563" lon="26.687069067233548" id="-105673">
		<tag k="fixme" v="consider natural=peak for the most distinct mountains in the district" />
		<tag k="name" v="Váddavárri" />
		<tag k="name:se" v="Váddavárri" />
		<tag k="natural" v="hill" />
		<tag k="old_name:se" v="Vaddavarri" />
		<tag k="place" v="locality" />
		<tag k="ssr:stedsnr" v="504116" />
	</node>
	<node lat="70.42059445230275" lon="26.48512464166953" id="-105675">
		<tag k="name" v="Ellásnuiba" />
		<tag k="name:se" v="Ellásnuiba" />
		<tag k="natural" v="hill" />
		<tag k="old_name:se" v="Ellasnuiba" />
		<tag k="place" v="locality" />
		<tag k="ssr:stedsnr" v="504145" />
	</node>
	<node lat="70.52026946058446" lon="27.19818286274022" id="-105684">
		<tag k="fixme" v="consider natural=peak for the most distinct mountains in the district" />
		<tag k="name" v="Gikšduottar" />
		<tag k="name:se" v="Gikšduottar" />
		<tag k="natural" v="hill" />
		<tag k="old_name:se" v="Giksduoddar" />
		<tag k="place" v="locality" />
		<tag k="ssr:stedsnr" v="505320" />
	</node>
	<node lat="70.44071390269613" lon="26.213146900809054" id="-105685">
		<tag k="name" v="Iisoaivi" />
		<tag k="name:se" v="Iisoaivi" />
		<tag k="natural" v="hill" />
		<tag k="place" v="locality" />
		<tag k="ssr:stedsnr" v="505322" />
	</node>
	<node lat="70.93778611709948" lon="26.69242464701278" id="-105689">
		<tag k="name" v="Olggut Rissevággi" />
		<tag k="name:se" v="Olggut Rissevággi" />
		<tag k="natural" v="valley" />
		<tag k="old_name:se" v="Rissevaggi, ålgot" />
		<tag k="place" v="locality" />
		<tag k="ssr:stedsnr" v="505153" />
	</node>
	<node lat="70.42447500991541" lon="27.211205079257464" id="-105692">
		<tag k="fixme" v="consider natural=peak for the most distinct mountains in the district" />
		<tag k="name" v="Sieđgoloaivi" />
		<tag k="name:se" v="Sieđgoloaivi" />
		<tag k="natural" v="hill" />
		<tag k="old_name:se" v="Sieđguloaivi" />
		<tag k="place" v="locality" />
		<tag k="ssr:stedsnr" v="505209" />
	</node>
	<node lat="70.41096668253348" lon="27.275952271751766" id="-105693">
		<tag k="name" v="Ifjordfjellet - Idjavuonduottar" />
		<tag k="name:no" v="Ifjordfjellet" />
		<tag k="name:se" v="Idjavuonduottar" />
		<tag k="natural" v="mountain_range" />
		<tag k="old_name:se" v="Iddjavuonduoddar" />
		<tag k="ssr:stedsnr" v="505213" />
	</node>
	<node lat="70.9817000121043" lon="27.14534126161925" id="-105701">
		<tag k="name" v="Finnkjerka - Finnagirku" />
		<tag k="name:no" v="Finnkjerka" />
		<tag k="name:se" v="Finnagirku" />
		<tag k="natural" v="hill" />
		<tag k="old_name:se" v="Finnagirko" />
		<tag k="place" v="locality" />
		<tag k="ssr:stedsnr" v="505246" />
	</node>
	<node lat="70.83471112167285" lon="26.722257990690686" id="-105703">
		<tag k="fixme" v="consider natural=peak for the most distinct mountains in the district" />
		<tag k="name" v="Tømmervikklubben" />
		<tag k="natural" v="hill" />
		<tag k="place" v="locality" />
		<tag k="ssr:stedsnr" v="505254" />
	</node>
	<node lat="70.3976666789935" lon="26.302538565992307" id="-105704">
		<tag k="fixme" v="consider natural=peak for the most distinct mountains in the district" />
		<tag k="name" v="Láhpačohkka" />
		<tag k="name:se" v="Láhpačohkka" />
		<tag k="natural" v="hill" />
		<tag k="old_name:se" v="Lappačåkka" />
		<tag k="place" v="locality" />
		<tag k="ssr:stedsnr" v="505267" />
	</node>
	<node lat="70.42371111538817" lon="26.12216359495359" id="-105705">
		<tag k="fixme" v="consider natural=peak for the most distinct mountains in the district" />
		<tag k="name" v="Gálvagoahtemuoroaivvit" />
		<tag k="name:se" v="Gálvagoahtemuoroaivvit" />
		<tag k="natural" v="hill" />
		<tag k="old_name:se" v="Galvagoattemuoroaivit" />
		<tag k="place" v="locality" />
		<tag k="ssr:stedsnr" v="505333" />
	</node>
	<node lat="70.66505278834126" lon="26.205224699822203" id="-105716">
		<tag k="alt_name" v="Einefjell" />
		<tag k="fixme" v="consider natural=peak for the most distinct mountains in the district" />
		<tag k="name" v="Einerfjellet" />
		<tag k="natural" v="hill" />
		<tag k="place" v="locality" />
		<tag k="ssr:stedsnr" v="505547" />
	</node>
	<node lat="70.61458334414542" lon="26.071610844570998" id="-105717">
		<tag k="name" v="Kjæsdalen" />
		<tag k="natural" v="valley" />
		<tag k="place" v="locality" />
		<tag k="ssr:stedsnr" v="505557" />
	</node>
	<node lat="70.69996667189055" lon="26.48765244494396" id="-105721">
		<tag k="name" v="Ordnevággi" />
		<tag k="name:se" v="Ordnevággi" />
		<tag k="natural" v="valley" />
		<tag k="old_name:se" v="Årdnevaggi" />
		<tag k="place" v="locality" />
		<tag k="ssr:stedsnr" v="505621" />
	</node>
	<node lat="70.697075016648" lon="27.168124553361583" id="-105723">
		<tag k="name" v="Ørntinden" />
		<tag k="natural" v="hill" />
		<tag k="place" v="locality" />
		<tag k="ssr:stedsnr" v="505696" />
	</node>
	<node lat="70.51646667679248" lon="27.01274955400348" id="-105727">
		<tag k="alt_name" v="Urdfjellet" />
		<tag k="fixme" v="consider natural=peak for the most distinct mountains in the district" />
		<tag k="name" v="Urfjellet" />
		<tag k="natural" v="hill" />
		<tag k="place" v="locality" />
		<tag k="ssr:stedsnr" v="505670" />
	</node>
	<node lat="70.5733750161993" lon="27.259630072725503" id="-105729">
		<tag k="fixme" v="consider natural=peak for the most distinct mountains in the district" />
		<tag k="name" v="Mellomtuva" />
		<tag k="natural" v="hill" />
		<tag k="place" v="locality" />
		<tag k="ssr:stedsnr" v="505746" />
	</node>
	<node lat="70.56545556716578" lon="27.04856066227188" id="-105730">
		<tag k="name" v="Rundhaugen" />
		<tag k="natural" v="hill" />
		<tag k="place" v="locality" />
		<tag k="ssr:stedsnr" v="505751" />
	</node>
	<node lat="70.5367194577989" lon="27.10382178456085" id="-105731">
		<tag k="fixme" v="consider natural=peak for the most distinct mountains in the district" />
		<tag k="name" v="Juovvavárri" />
		<tag k="name:se" v="Juovvavárri" />
		<tag k="natural" v="hill" />
		<tag k="old_name:se" v="Juovvavarri" />
		<tag k="place" v="locality" />
		<tag k="ssr:stedsnr" v="505759" />
	</node>
	<node lat="70.51448335039005" lon="27.12715786736254" id="-105739">
		<tag k="name" v="Skogvikdalen" />
		<tag k="natural" v="valley" />
		<tag k="place" v="locality" />
		<tag k="ssr:stedsnr" v="514556" />
	</node>
	<node lat="70.4958416820255" lon="27.104124545613374" id="-105740">
		<tag k="fixme" v="consider natural=peak for the most distinct mountains in the district" />
		<tag k="name" v="Seibošfjellet" />
		<tag k="natural" v="hill" />
		<tag k="place" v="locality" />
		<tag k="ssr:stedsnr" v="514612" />
	</node>
	<node lat="70.63487222945285" lon="26.628994080067443" id="-105741">
		<tag k="name" v="Lille klubben" />
		<tag k="natural" v="hill" />
		<tag k="place" v="locality" />
		<tag k="ssr:stedsnr" v="514946" />
	</node>
	<node lat="70.61584445295654" lon="27.06181900231123" id="-105745">
		<tag k="name" v="Fremstedalen" />
		<tag k="natural" v="valley" />
		<tag k="place" v="locality" />
		<tag k="ssr:stedsnr" v="515197" />
	</node>
	<node lat="70.49738611921526" lon="27.05925789724699" id="-105746">
		<tag k="name" v="Julgammebakken" />
		<tag k="natural" v="slope" />
		<tag k="place" v="locality" />
		<tag k="ssr:stedsnr" v="515536" />
	</node>
	<node lat="70.48349168171502" lon="27.072010676309215" id="-105747">
		<tag k="name" v="Fierrangeđgi" />
		<tag k="name:se" v="Fierrangeđgi" />
		<tag k="natural" v="hill" />
		<tag k="place" v="locality" />
		<tag k="ssr:stedsnr" v="515550" />
	</node>
	<node lat="70.48534167747671" lon="27.068235650880396" id="-105751">
		<tag k="name" v="Sieđggrohtu" />
		<tag k="name:se" v="Sieđggrohtu" />
		<tag k="natural" v="valley" />
		<tag k="place" v="locality" />
		<tag k="ssr:stedsnr" v="515561" />
	</node>
	<node lat="70.9570055643346" lon="27.333980111021717" id="-105752">
		<tag k="name" v="Klubbhøgda" />
		<tag k="natural" v="hill" />
		<tag k="place" v="locality" />
		<tag k="ssr:stedsnr" v="515911" />
	</node>
	<node lat="70.92515834783941" lon="27.412813431347654" id="-105753">
		<tag k="name" v="Grønnlia" />
		<tag k="natural" v="slope" />
		<tag k="place" v="locality" />
		<tag k="ssr:stedsnr" v="515997" />
	</node>
	<node lat="70.94260834357573" lon="27.37017732533929" id="-105754">
		<tag k="name" v="Finnsåta" />
		<tag k="place" v="locality" />
		<tag k="ssr:stedsnr" v="515968" />
	</node>
	<node lat="70.34267500756219" lon="26.52705519209828" id="-105760">
		<tag k="name" v="Solbakklia" />
		<tag k="natural" v="slope" />
		<tag k="place" v="locality" />
		<tag k="ssr:stedsnr" v="517731" />
	</node>
	<node lat="70.37407779260374" lon="26.6064662770163" id="-105766">
		<tag k="fixme" v="consider natural=peak for the most distinct mountains in the district" />
		<tag k="name" v="Gurrajárvárri" />
		<tag k="name:se" v="Gurrajárvárri" />
		<tag k="natural" v="hill" />
		<tag k="old_name:se" v="Gurrajarvarri" />
		<tag k="place" v="locality" />
		<tag k="ssr:stedsnr" v="564145" />
	</node>
	<node lat="70.96081112131984" lon="27.48128287005645" id="-105776">
		<tag k="name" v="Gynndalen" />
		<tag k="natural" v="valley" />
		<tag k="place" v="locality" />
		<tag k="ssr:stedsnr" v="565197" />
	</node>
	<node lat="70.32596667815568" lon="26.47144407847177" id="-105779">
		<tag k="fixme" v="consider natural=peak for the most distinct mountains in the district" />
		<tag k="name" v="Stor Skaidejnunni - Stuorraskáinjunni" />
		<tag k="name:no" v="Stor Skaidejnunni" />
		<tag k="name:se" v="Stuorraskáinjunni" />
		<tag k="natural" v="hill" />
		<tag k="old_name:se" v="Stuorraskainjunni" />
		<tag k="place" v="locality" />
		<tag k="ssr:stedsnr" v="565115" />
	</node>
	<node lat="70.42146112211971" lon="26.357391336137816" id="-105785">
		<tag k="fixme" v="consider natural=peak for the most distinct mountains in the district" />
		<tag k="name" v="Uhca Liinnavárri" />
		<tag k="name:se" v="Uhca Liinnavárri" />
		<tag k="natural" v="hill" />
		<tag k="old_name:se" v="Liinavarri, ucca" />
		<tag k="place" v="locality" />
		<tag k="ssr:stedsnr" v="565245" />
	</node>
	<node lat="70.35711945845665" lon="26.13630801886752" id="-105786">
		<tag k="name" v="Geinnodatleahki" />
		<tag k="name:se" v="Geinnodatleahki" />
		<tag k="natural" v="valley" />
		<tag k="old_name:se" v="Geinudatlækki" />
		<tag k="place" v="locality" />
		<tag k="ssr:stedsnr" v="565260" />
	</node>
	<node lat="70.34533333985695" lon="26.30642189197754" id="-105787">
		<tag k="fixme" v="consider natural=peak for the most distinct mountains in the district" />
		<tag k="name" v="Dápmotoaivvit" />
		<tag k="name:se" v="Dápmotoaivvit" />
		<tag k="natural" v="hill" />
		<tag k="old_name:se" v="Dabmutoaivit" />
		<tag k="place" v="locality" />
		<tag k="ssr:stedsnr" v="565269" />
	</node>
	<node lat="70.63145556468794" lon="26.323055237813005" id="-105791">
		<tag k="fixme" v="multiple name tags, choose one and add the other to alt_name; consider natural=peak for the most distinct mountains in the district" />
		<tag k="name" v="Øyfjellet;Stor-Øyfjellet - Stuorra Suolovárri" />
		<tag k="name:no" v="Øyfjellet;Stor-Øyfjellet" />
		<tag k="name:se" v="Stuorra Suolovárri" />
		<tag k="natural" v="hill" />
		<tag k="old_name:no" v="Store Holmfjellet;Holmfjellet, store" />
		<tag k="old_name:se" v="Suoluvarri stuorra" />
		<tag k="place" v="locality" />
		<tag k="ssr:stedsnr" v="565561" />
	</node>
	<node lat="70.56612501454896" lon="27.15383564672987" id="-105792">
		<tag k="name" v="Geitpallen" />
		<tag k="natural" v="valley" />
		<tag k="place" v="locality" />
		<tag k="ssr:stedsnr" v="565741" />
	</node>
	<node lat="70.52587501350317" lon="26.50899410691976" id="-105796">
		<tag k="fixme" v="consider natural=peak for the most distinct mountains in the district" />
		<tag k="name" v="Stordalsfjellet" />
		<tag k="natural" v="hill" />
		<tag k="place" v="locality" />
		<tag k="ssr:stedsnr" v="565651" />
	</node>
	<node lat="70.49011112429035" lon="27.041449553921236" id="-105807">
		<tag k="name" v="Trollberget - Álda" />
		<tag k="name:no" v="Trollberget" />
		<tag k="name:se" v="Álda" />
		<tag k="natural" v="hill" />
		<tag k="old_name:se" v="Alda" />
		<tag k="place" v="locality" />
		<tag k="ssr:stedsnr" v="566239" />
	</node>
	<node lat="70.25983056808194" lon="26.916099562637964" id="-105808">
		<tag k="fixme" v="consider natural=peak for the most distinct mountains in the district" />
		<tag k="name" v="Biertnoaivi" />
		<tag k="name:se" v="Biertnoaivi" />
		<tag k="natural" v="hill" />
		<tag k="old_name:se" v="Bierdnoaivi" />
		<tag k="place" v="locality" />
		<tag k="ssr:stedsnr" v="566244" />
	</node>
	<node lat="71.0908833484954" lon="27.681624508426545" id="-105812">
		<tag k="fixme" v="consider natural=peak for the most distinct mountains in the district" />
		<tag k="name" v="Magkeilfjordfjellet" />
		<tag k="natural" v="hill" />
		<tag k="place" v="locality" />
		<tag k="ssr:stedsnr" v="566459" />
	</node>
	<node lat="70.73729723175296" lon="27.20971065299268" id="-105813">
		<tag k="name" v="Jensmolldalen" />
		<tag k="natural" v="valley" />
		<tag k="place" v="locality" />
		<tag k="ssr:stedsnr" v="566660" />
	</node>
	<node lat="70.7704444548928" lon="27.289982881710205" id="-105815">
		<tag k="name" v="Sukkertoppen" />
		<tag k="natural" v="hill" />
		<tag k="place" v="locality" />
		<tag k="ssr:stedsnr" v="566820" />
	</node>
	<node lat="70.85168529792229" lon="27.511994722785648" id="-105819">
		<tag k="fixme" v="multiple name tags, choose one and add the other to alt_name; consider natural=peak for the most distinct mountains in the district" />
		<tag k="loc_name:se" v="Stáva" />
		<tag k="name" v="Hus-Ørntinden;Ørntinden" />
		<tag k="name:no" v="Hus-Ørntinden;Ørntinden" />
		<tag k="natural" v="hill" />
		<tag k="place" v="locality" />
		<tag k="ssr:stedsnr" v="566777" />
	</node>
	<node lat="70.57239167749006" lon="27.32961340259407" id="-105831">
		<tag k="fixme" v="consider natural=peak for the most distinct mountains in the district" />
		<tag k="name" v="Ørntindfjellet" />
		<tag k="natural" v="hill" />
		<tag k="place" v="locality" />
		<tag k="ssr:stedsnr" v="575830" />
	</node>
	<node lat="70.58168612572763" lon="27.360516181526787" id="-105832">
		<tag k="name" v="Nerdalen" />
		<tag k="natural" v="valley" />
		<tag k="place" v="locality" />
		<tag k="ssr:stedsnr" v="575833" />
	</node>
	<node lat="70.64370000903462" lon="26.635860749980697" id="-105833">
		<tag k="name" v="Saulia" />
		<tag k="natural" v="slope" />
		<tag k="place" v="locality" />
		<tag k="ssr:stedsnr" v="575933" />
	</node>
	<node lat="70.6587416776314" lon="26.56730520279761" id="-105834">
		<tag k="name" v="Storbakken" />
		<tag k="natural" v="slope" />
		<tag k="place" v="locality" />
		<tag k="ssr:stedsnr" v="575942" />
	</node>
	<node lat="70.54661668095126" lon="26.952488469926006" id="-105837">
		<tag k="name" v="Bukkesteinan" />
		<tag k="natural" v="hill" />
		<tag k="place" v="locality" />
		<tag k="ssr:stedsnr" v="575992" />
	</node>
	<node lat="71.00097778636218" lon="27.33202455603217" id="-105838">
		<tag k="fixme" v="consider natural=peak for the most distinct mountains in the district" />
		<tag k="name" v="Strupfjellet" />
		<tag k="natural" v="hill" />
		<tag k="place" v="locality" />
		<tag k="ssr:stedsnr" v="576580" />
	</node>
	<node lat="70.93269446033636" lon="27.438535647944914" id="-105840">
		<tag k="name" v="Rasmusbakken" />
		<tag k="natural" v="hill" />
		<tag k="place" v="locality" />
		<tag k="ssr:stedsnr" v="576975" />
	</node>
	<node lat="70.92227778696936" lon="27.421471774304074" id="-105841">
		<tag k="name" v="Heien" />
		<tag k="natural" v="hill" />
		<tag k="place" v="locality" />
		<tag k="ssr:stedsnr" v="576984" />
	</node>
	<node lat="70.36442501019398" lon="26.470955198381432" id="-105845">
		<tag k="name" v="Skjærnesli" />
		<tag k="natural" v="slope" />
		<tag k="place" v="locality" />
		<tag k="ssr:stedsnr" v="577731" />
	</node>
	<node lat="70.33429167694312" lon="26.560182952575616" id="-105846">
		<tag k="name" v="Etnedalen" />
		<tag k="natural" v="valley" />
		<tag k="place" v="locality" />
		<tag k="ssr:stedsnr" v="577733" />
	</node>
	<node lat="70.38641945267209" lon="26.646269052378805" id="-105847">
		<tag k="fixme" v="consider natural=peak for the most distinct mountains in the district" />
		<tag k="name" v="Fjellhalsen" />
		<tag k="natural" v="hill" />
		<tag k="place" v="locality" />
		<tag k="ssr:stedsnr" v="577734" />
	</node>
	<node lat="70.35638611845386" lon="26.46679409541719" id="-105848">
		<tag k="name" v="Aspeli" />
		<tag k="natural" v="slope" />
		<tag k="place" v="locality" />
		<tag k="ssr:stedsnr" v="577738" />
	</node>
	<node lat="70.40936112198224" lon="26.66831904536154" id="-105851">
		<tag k="name" v="Ildtoppen" />
		<tag k="natural" v="hill" />
		<tag k="place" v="locality" />
		<tag k="ssr:stedsnr" v="577689" />
	</node>
	<node lat="70.37628056442843" lon="26.77546069127709" id="-105853">
		<tag k="fixme" v="consider natural=peak for the most distinct mountains in the district" />
		<tag k="name" v="Sopmirčohkka" />
		<tag k="name:se" v="Sopmirčohkka" />
		<tag k="natural" v="hill" />
		<tag k="old_name:se" v="Såbmirčåkka" />
		<tag k="place" v="locality" />
		<tag k="ssr:stedsnr" v="625150" />
	</node>
	<node lat="70.47004445569958" lon="26.787538476624054" id="-105856">
		<tag k="name" v="Kjerringtoppen" />
		<tag k="natural" v="hill" />
		<tag k="place" v="locality" />
		<tag k="ssr:stedsnr" v="625324" />
	</node>
	<node lat="70.32556111870537" lon="26.00574136954148" id="-105871">
		<tag k="fixme" v="consider natural=peak for the most distinct mountains in the district" />
		<tag k="name" v="Ullogahpir" />
		<tag k="name:se" v="Ullogahpir" />
		<tag k="natural" v="hill" />
		<tag k="old_name:se" v="Ullugappir" />
		<tag k="place" v="locality" />
		<tag k="ssr:stedsnr" v="626382" />
	</node>
	<node lat="70.263916681063" lon="26.147599671291164" id="-105874">
		<tag k="fixme" v="consider natural=peak for the most distinct mountains in the district" />
		<tag k="name" v="Heandaratoaivvit" />
		<tag k="name:se" v="Heandaratoaivvit" />
		<tag k="natural" v="hill" />
		<tag k="old_name:se" v="Hændaratoaivit" />
		<tag k="place" v="locality" />
		<tag k="ssr:stedsnr" v="626395" />
	</node>
	<node lat="70.03071112000809" lon="26.140530230256505" id="-105875">
		<tag k="fixme" v="consider natural=peak for the most distinct mountains in the district" />
		<tag k="name" v="Dávgesoaivi" />
		<tag k="name:se" v="Dávgesoaivi" />
		<tag k="natural" v="hill" />
		<tag k="old_name:se" v="Davgesoaivi" />
		<tag k="place" v="locality" />
		<tag k="ssr:stedsnr" v="626401" />
	</node>
	<node lat="70.26929723212234" lon="26.53823850205952" id="-105878">
		<tag k="name" v="Eretoaivvit" />
		<tag k="name:se" v="Eretoaivvit" />
		<tag k="natural" v="plateau" />
		<tag k="old_name:se" v="Eretoaivit" />
		<tag k="ssr:stedsnr" v="626247" />
	</node>
	<node lat="70.35185556188372" lon="26.1626635716645" id="-105882">
		<tag k="fixme" v="consider natural=peak for the most distinct mountains in the district" />
		<tag k="name" v="Sáttoleagičohkka" />
		<tag k="name:se" v="Sáttoleagičohkka" />
		<tag k="natural" v="hill" />
		<tag k="old_name:se" v="Saddulægičåkka" />
		<tag k="place" v="locality" />
		<tag k="ssr:stedsnr" v="626290" />
	</node>
	<node lat="70.24537501134196" lon="26.92883565007999" id="-105885">
		<tag k="fixme" v="consider natural=peak for the most distinct mountains in the district" />
		<tag k="name" v="Bierdnačohkka" />
		<tag k="name:se" v="Bierdnačohkka" />
		<tag k="natural" v="hill" />
		<tag k="old_name:se" v="Bierdnačåkka" />
		<tag k="place" v="locality" />
		<tag k="ssr:stedsnr" v="626425" />
	</node>
	<node lat="71.02613612675628" lon="27.64664950938544" id="-105886">
		<tag k="fixme" v="consider natural=peak for the most distinct mountains in the district" />
		<tag k="name" v="Bjørnviktuva" />
		<tag k="natural" v="hill" />
		<tag k="place" v="locality" />
		<tag k="ssr:stedsnr" v="626428" />
	</node>
	<node lat="70.17378334930434" lon="26.77720789245983" id="-105887">
		<tag k="fixme" v="consider natural=peak for the most distinct mountains in the district" />
		<tag k="name" v="Gáisagierdu" />
		<tag k="name:se" v="Gáisagierdu" />
		<tag k="natural" v="hill" />
		<tag k="old_name:se" v="Gaisagierdo" />
		<tag k="place" v="locality" />
		<tag k="ssr:stedsnr" v="626436" />
	</node>
	<node lat="70.68635278744706" lon="26.323563578534774" id="-105895">
		<tag k="fixme" v="consider natural=peak for the most distinct mountains in the district" />
		<tag k="name" v="Ráigebákvárri" />
		<tag k="name:se" v="Ráigebákvárri" />
		<tag k="natural" v="hill" />
		<tag k="old_name:se" v="Raigebakvarri;Raigebakvárri" />
		<tag k="place" v="locality" />
		<tag k="ssr:stedsnr" v="626546" />
	</node>
	<node lat="70.71236668235558" lon="27.11851067595818" id="-105899">
		<tag k="fixme" v="consider natural=peak for the most distinct mountains in the district" />
		<tag k="name" v="Lomtind" />
		<tag k="natural" v="hill" />
		<tag k="place" v="locality" />
		<tag k="ssr:stedsnr" v="626691" />
	</node>
	<node lat="70.70831112049792" lon="27.291166212330122" id="-105900">
		<tag k="fixme" v="consider natural=peak for the most distinct mountains in the district" />
		<tag k="name" v="Oalunvákrášša" />
		<tag k="name:se" v="Oalunvákrášša" />
		<tag k="natural" v="hill" />
		<tag k="old_name:se" v="Oalonvagrašša;Oalunvakrášša" />
		<tag k="place" v="locality" />
		<tag k="ssr:stedsnr" v="626694" />
	</node>
	<node lat="70.57834445799153" lon="27.344816179588488" id="-105903">
		<tag k="name" v="Nerdalen" />
		<tag k="natural" v="valley" />
		<tag k="place" v="locality" />
		<tag k="ssr:stedsnr" v="626751" />
	</node>
	<node lat="70.81493612683224" lon="27.612413380192287" id="-105906">
		<tag k="alt_name" v="Bonjorda" />
		<tag k="name" v="Inner-Bonjorda" />
		<tag k="old_name" v="Bondejorda" />
		<tag k="place" v="locality" />
		<tag k="ssr:stedsnr" v="626812" />
	</node>
	<node lat="70.76285279257068" lon="27.320085641076133" id="-105907">
		<tag k="name" v="Ottvikklubben" />
		<tag k="natural" v="hill" />
		<tag k="place" v="locality" />
		<tag k="ssr:stedsnr" v="626824" />
	</node>
	<node lat="70.40583057216982" lon="27.045752320267326" id="-105908">
		<tag k="fixme" v="consider natural=peak for the most distinct mountains in the district" />
		<tag k="name" v="Skávhlevárit" />
		<tag k="name:se" v="Skávhlevárit" />
		<tag k="natural" v="hill" />
		<tag k="old_name:se" v="Skavhlevarit" />
		<tag k="place" v="locality" />
		<tag k="ssr:stedsnr" v="627216" />
	</node>
	<node lat="70.3965444551754" lon="27.09125507968515" id="-105909">
		<tag k="fixme" v="consider natural=peak for the most distinct mountains in the district" />
		<tag k="name" v="Skávhlegielas" />
		<tag k="name:se" v="Skávhlegielas" />
		<tag k="natural" v="hill" />
		<tag k="old_name:se" v="Skavhlegielas" />
		<tag k="place" v="locality" />
		<tag k="ssr:stedsnr" v="627217" />
	</node>
	<node lat="70.63701945021661" lon="26.62513575594114" id="-105911">
		<tag k="fixme" v="multiple name tags, choose one and add the other to alt_name" />
		<tag k="name" v="Klubben;Veidnesklubben - Čiesti" />
		<tag k="name:no" v="Klubben;Veidnesklubben" />
		<tag k="name:se" v="Čiesti" />
		<tag k="natural" v="hill" />
		<tag k="place" v="locality" />
		<tag k="ssr:stedsnr" v="627640" />
	</node>
	<node lat="70.49340278727405" lon="27.06831621964711" id="-105922">
		<tag k="name" v="Geađgebázaldat" />
		<tag k="name:se" v="Geađgebázaldat" />
		<tag k="natural" v="valley" />
		<tag k="place" v="locality" />
		<tag k="ssr:stedsnr" v="636551" />
	</node>
	<node lat="70.66818333989528" lon="26.52409131259997" id="-105924">
		<tag k="name" v="Gjerdbergan" />
		<tag k="natural" v="hill" />
		<tag k="place" v="locality" />
		<tag k="ssr:stedsnr" v="636859" />
	</node>
	<node lat="70.3384305632174" lon="26.53349130328125" id="-105926">
		<tag k="fixme" v="consider natural=peak for the most distinct mountains in the district" />
		<tag k="name" v="Lille Skaidi" />
		<tag k="natural" v="hill" />
		<tag k="place" v="locality" />
		<tag k="ssr:stedsnr" v="638719" />
	</node>
	<node lat="70.94146945705938" lon="27.544399533315968" id="-105931">
		<tag k="alt_name" v="Rundhompen" />
		<tag k="name" v="Rundhumpen" />
		<tag k="natural" v="hill" />
		<tag k="place" v="locality" />
		<tag k="ssr:stedsnr" v="697925" />
	</node>
	<node lat="70.65306112800529" lon="27.15591899743278" id="-105936">
		<tag k="name" v="Haretoppen" />
		<tag k="natural" v="hill" />
		<tag k="place" v="locality" />
		<tag k="ssr:stedsnr" v="697868" />
	</node>
	<node lat="70.34835834753572" lon="27.34658836389976" id="-105939">
		<tag k="fixme" v="consider natural=peak for the most distinct mountains in the district" />
		<tag k="name" v="Guorgoaivi" />
		<tag k="name:se" v="Guorgoaivi" />
		<tag k="natural" v="hill" />
		<tag k="place" v="locality" />
		<tag k="ssr:stedsnr" v="747038" />
	</node>
	<node lat="70.35718334648797" lon="26.615466287895266" id="-105941">
		<tag k="fixme" v="consider natural=peak for the most distinct mountains in the district" />
		<tag k="name" v="Kvitfjell" />
		<tag k="natural" v="hill" />
		<tag k="place" v="locality" />
		<tag k="ssr:stedsnr" v="747133" />
	</node>
	<node lat="70.92461389736222" lon="27.386482875959167" id="-105966">
		<tag k="alt_name" v="Kifjordhøgda" />
		<tag k="name" v="Kifjordhumpen" />
		<tag k="natural" v="hill" />
		<tag k="place" v="locality" />
		<tag k="ssr:stedsnr" v="748198" />
	</node>
	<node lat="70.29084168297294" lon="26.873713456142895" id="-105973">
		<tag k="fixme" v="consider natural=peak for the most distinct mountains in the district" />
		<tag k="name" v="Muorahisoaivi" />
		<tag k="name:se" v="Muorahisoaivi" />
		<tag k="natural" v="hill" />
		<tag k="place" v="locality" />
		<tag k="ssr:stedsnr" v="748247" />
	</node>
	<node lat="70.8034583410175" lon="26.47028301810391" id="-105975">
		<tag k="name" v="Tømmervikdalen" />
		<tag k="natural" v="valley" />
		<tag k="place" v="locality" />
		<tag k="ssr:stedsnr" v="748253" />
	</node>
	<node lat="70.46582223182857" lon="27.025296779358133" id="-105976">
		<tag k="fixme" v="consider natural=peak for the most distinct mountains in the district" />
		<tag k="name" v="Hjordfjellet - Gánačohkka" />
		<tag k="name:no" v="Hjordfjellet" />
		<tag k="name:se" v="Gánačohkka" />
		<tag k="natural" v="hill" />
		<tag k="old_name:se" v="Ganačåkka" />
		<tag k="place" v="locality" />
		<tag k="ssr:stedsnr" v="748217" />
	</node>
	<node lat="71.01755846491776" lon="27.45197852337997" id="-105981">
		<tag k="fixme" v="consider natural=peak for the most distinct mountains in the district" />
		<tag k="name" v="Smørbringen" />
		<tag k="natural" v="hill" />
		<tag k="place" v="locality" />
		<tag k="ssr:stedsnr" v="748478" />
	</node>
	<node lat="71.11910834777454" lon="27.65934674618734" id="-105984">
		<tag k="name" v="Nordavindskardet" />
		<tag k="natural" v="valley" />
		<tag k="place" v="locality" />
		<tag k="ssr:stedsnr" v="748497" />
	</node>
	<node lat="70.66348334159699" lon="26.45525800225194" id="-105986">
		<tag k="name" v="Kinomelen - Kinomielli" />
		<tag k="name:no" v="Kinomelen" />
		<tag k="name:se" v="Kinomielli" />
		<tag k="natural" v="slope" />
		<tag k="old_name:no" v="Kollbakken;Kaldbakken" />
		<tag k="place" v="locality" />
		<tag k="ssr:stedsnr" v="748623" />
	</node>
	<node lat="70.71468612177843" lon="26.520527456657593" id="-105988">
		<tag k="name" v="Stordalen" />
		<tag k="natural" v="valley" />
		<tag k="place" v="locality" />
		<tag k="ssr:stedsnr" v="748629" />
	</node>
	<node lat="70.60419723737101" lon="27.058332899866752" id="-105993">
		<tag k="fixme" v="consider natural=peak for the most distinct mountains in the district" />
		<tag k="name" v="Kalaktinden" />
		<tag k="natural" v="hill" />
		<tag k="place" v="locality" />
		<tag k="ssr:stedsnr" v="748732" />
	</node>
	<node lat="70.79065279163773" lon="27.644121710965297" id="-105996">
		<tag k="name" v="Smielvdalen" />
		<tag k="natural" v="valley" />
		<tag k="place" v="locality" />
		<tag k="ssr:stedsnr" v="748890" />
	</node>
	<node lat="71.00512778979204" lon="27.38880233391176" id="-106012">
		<tag k="fixme" v="consider natural=peak for the most distinct mountains in the district" />
		<tag k="name" v="Tverrelvfjellet" />
		<tag k="natural" v="hill" />
		<tag k="place" v="locality" />
		<tag k="ssr:stedsnr" v="758631" />
	</node>
	<node lat="70.66958612076631" lon="26.532369110557475" id="-106016">
		<tag k="name" v="Seivatasbovdna" />
		<tag k="name:se" v="Seivatasbovdna" />
		<tag k="natural" v="hill" />
		<tag k="place" v="locality" />
		<tag k="ssr:stedsnr" v="758937" />
	</node>
	<node lat="70.94513334598349" lon="27.413724541892783" id="-106017">
		<tag k="name" v="Tverrelvdalen" />
		<tag k="natural" v="valley" />
		<tag k="place" v="locality" />
		<tag k="ssr:stedsnr" v="758942" />
	</node>
	<node lat="70.32689723602782" lon="26.426705201475077" id="-106018">
		<tag k="name" v="Storbakken" />
		<tag k="natural" v="slope" />
		<tag k="place" v="locality" />
		<tag k="ssr:stedsnr" v="760533" />
	</node>
	<node lat="70.27645001645978" lon="27.294218919910133" id="-106019">
		<tag k="name" v="Laksefjordvidda - Lágesduottar" />
		<tag k="name:no" v="Laksefjordvidda" />
		<tag k="name:se" v="Lágesduottar" />
		<tag k="natural" v="plateau" />
		<tag k="old_name:se" v="Lagesduoddar;Lagesduottar" />
		<tag k="ssr:stedsnr" v="808022" />
	</node>
	<node lat="70.04136390266798" lon="25.976496904781182" id="-106029">
		<tag k="name" v="Njearrinjalggat" />
		<tag k="name:se" v="Njearrinjalggat" />
		<tag k="old_name:se" v="Njærrinjalgat" />
		<tag k="place" v="locality" />
		<tag k="ssr:stedsnr" v="808361" />
	</node>
	<node lat="70.48753056709408" lon="26.25905801822251" id="-106033">
		<tag k="fixme" v="consider natural=peak for the most distinct mountains in the district" />
		<tag k="name" v="Sáttaláš" />
		<tag k="name:se" v="Sáttaláš" />
		<tag k="natural" v="hill" />
		<tag k="old_name:se" v="Saddalaš" />
		<tag k="place" v="locality" />
		<tag k="ssr:stedsnr" v="808278" />
	</node>
	<node lat="70.45897501205538" lon="26.49007463999637" id="-106034">
		<tag k="fixme" v="consider natural=peak for the most distinct mountains in the district" />
		<tag k="name" v="Liinnavárčohkka" />
		<tag k="name:se" v="Liinnavárčohkka" />
		<tag k="natural" v="hill" />
		<tag k="old_name:se" v="Liinavarčåkka" />
		<tag k="place" v="locality" />
		<tag k="ssr:stedsnr" v="808309" />
	</node>
	<node lat="70.2127972369907" lon="26.362080209265322" id="-106037">
		<tag k="fixme" v="consider natural=peak for the most distinct mountains in the district" />
		<tag k="name" v="Aškkasgáisá" />
		<tag k="name:se" v="Aškkasgáisá" />
		<tag k="natural" v="hill" />
		<tag k="old_name:se" v="Aškasgaisa" />
		<tag k="place" v="locality" />
		<tag k="ssr:stedsnr" v="808336" />
	</node>
	<node lat="71.08218056840143" lon="27.67518006820561" id="-106039">
		<tag k="name" v="Østavindskardet" />
		<tag k="natural" v="valley" />
		<tag k="place" v="locality" />
		<tag k="ssr:stedsnr" v="808446" />
	</node>
	<node lat="70.24737779537901" lon="26.624171818866536" id="-106040">
		<tag k="fixme" v="consider natural=peak for the most distinct mountains in the district" />
		<tag k="name" v="Ruksesbákčohkat" />
		<tag k="name:se" v="Ruksesbákčohkat" />
		<tag k="natural" v="hill" />
		<tag k="old_name:se" v="Ruksesbakčåkkat" />
		<tag k="place" v="locality" />
		<tag k="ssr:stedsnr" v="808379" />
	</node>
	<node lat="70.15887778973905" lon="26.434063525314123" id="-106042">
		<tag k="fixme" v="consider natural=peak for the most distinct mountains in the district" />
		<tag k="name" v="Oarje-Borgašgáisá" />
		<tag k="name:se" v="Oarje-Borgašgáisá" />
		<tag k="natural" v="hill" />
		<tag k="old_name:se" v="Bårgašgaisa, oarje;Oarje Borgašgáisá" />
		<tag k="place" v="locality" />
		<tag k="ssr:stedsnr" v="808388" />
	</node>
	<node lat="70.69844723153435" lon="26.334352460498152" id="-106044">
		<tag k="name" v="Nordmannsvikdalen - Dášvággi" />
		<tag k="name:no" v="Nordmannsvikdalen" />
		<tag k="name:se" v="Dášvággi" />
		<tag k="natural" v="valley" />
		<tag k="old_name:se" v="Dašvaggi" />
		<tag k="place" v="locality" />
		<tag k="ssr:stedsnr" v="808504" />
	</node>
	<node lat="70.56763335080933" lon="27.04799122309021" id="-106045">
		<tag k="name" v="Storelvdalen" />
		<tag k="natural" v="valley" />
		<tag k="place" v="locality" />
		<tag k="ssr:stedsnr" v="808736" />
	</node>
	<node lat="69.9982305677593" lon="26.26563853386748" id="-106049">
		<tag k="fixme" v="consider natural=peak for the most distinct mountains in the district" />
		<tag k="name" v="Rásttigáisá" />
		<tag k="name:se" v="Rásttigáisá" />
		<tag k="natural" v="hill" />
		<tag k="old_name:se" v="Rastigaisa" />
		<tag k="place" v="locality" />
		<tag k="ssr:stedsnr" v="808973" />
	</node>
	<node lat="70.31918056456482" lon="26.711824588800646" id="-106052">
		<tag k="name" v="Áttánleahki" />
		<tag k="name:se" v="Áttánleahki" />
		<tag k="natural" v="valley" />
		<tag k="old_name:se" v="Addanlækki" />
		<tag k="place" v="locality" />
		<tag k="ssr:stedsnr" v="809264" />
	</node>
	<node lat="70.7853750112735" lon="26.521366328918635" id="-106053">
		<tag k="fixme" v="consider natural=peak for the most distinct mountains in the district" />
		<tag k="name" v="Durebákti" />
		<tag k="name:se" v="Durebákti" />
		<tag k="natural" v="hill" />
		<tag k="old_name:se" v="Durebakti" />
		<tag k="place" v="locality" />
		<tag k="ssr:stedsnr" v="809265" />
	</node>
	<node lat="70.38276390419507" lon="27.308180033882127" id="-106055">
		<tag k="fixme" v="consider natural=peak for the most distinct mountains in the district" />
		<tag k="name" v="Eaštorgeahčealáš" />
		<tag k="name:se" v="Eaštorgeahčealáš" />
		<tag k="natural" v="hill" />
		<tag k="old_name:se" v="Æšturgæččealaš" />
		<tag k="place" v="locality" />
		<tag k="ssr:stedsnr" v="809198" />
	</node>
	<node lat="70.73627500805462" lon="26.48457745350623" id="-106061">
		<tag k="name" v="Vestdalen" />
		<tag k="natural" v="valley" />
		<tag k="place" v="locality" />
		<tag k="ssr:stedsnr" v="809610" />
	</node>
	<node lat="71.02402223327034" lon="27.338727338863013" id="-106063">
		<tag k="fixme" v="consider natural=peak for the most distinct mountains in the district" />
		<tag k="name" v="Utsikten" />
		<tag k="natural" v="hill" />
		<tag k="place" v="locality" />
		<tag k="ssr:stedsnr" v="809493" />
	</node>
	<node lat="71.01088612055709" lon="27.409652343320584" id="-106066">
		<tag k="fixme" v="consider natural=peak for the most distinct mountains in the district" />
		<tag k="name" v="Vardefjellet" />
		<tag k="natural" v="hill" />
		<tag k="place" v="locality" />
		<tag k="ssr:stedsnr" v="809519" />
	</node>
	<node lat="71.0105666761281" lon="27.21475237633294" id="-106067">
		<tag k="name" v="Skredan" />
		<tag k="natural" v="slope" />
		<tag k="place" v="locality" />
		<tag k="ssr:stedsnr" v="809525" />
	</node>
	<node lat="70.61098333939925" lon="26.33823856907924" id="-106068">
		<tag k="name" v="Rievanašávži" />
		<tag k="name:se" v="Rievanašávži" />
		<tag k="natural" v="valley" />
		<tag k="old_name:se" v="Rievanašavži" />
		<tag k="place" v="locality" />
		<tag k="ssr:stedsnr" v="809574" />
	</node>
	<node lat="70.70510001153066" lon="26.53714134263797" id="-106070">
		<tag k="name" v="Elvevikklubben" />
		<tag k="natural" v="hill" />
		<tag k="place" v="locality" />
		<tag k="ssr:stedsnr" v="809640" />
	</node>
	<node lat="70.52477779363394" lon="27.066274557183625" id="-106073">
		<tag k="fixme" v="consider natural=peak for the most distinct mountains in the district" />
		<tag k="name" v="Hávskárvárri" />
		<tag k="name:se" v="Hávskárvárri" />
		<tag k="natural" v="hill" />
		<tag k="old_name:se" v="Havskarvarri" />
		<tag k="place" v="locality" />
		<tag k="ssr:stedsnr" v="809757" />
	</node>
	<node lat="70.51291667674542" lon="27.010019018986437" id="-106081">
		<tag k="fixme" v="consider natural=peak for the most distinct mountains in the district" />
		<tag k="name" v="Auskarnesfjellet" />
		<tag k="natural" v="hill" />
		<tag k="place" v="locality" />
		<tag k="ssr:stedsnr" v="818553" />
	</node>
	<node lat="70.60665279234793" lon="27.03278569918737" id="-106083">
		<tag k="name" v="Lebesbyskaret" />
		<tag k="natural" v="valley" />
		<tag k="place" v="locality" />
		<tag k="ssr:stedsnr" v="819193" />
	</node>
	<node lat="70.49423890004994" lon="27.056566220273545" id="-106085">
		<tag k="name" v="Gjennomgangsskaret" />
		<tag k="natural" v="valley" />
		<tag k="place" v="locality" />
		<tag k="ssr:stedsnr" v="819550" />
	</node>
	<node lat="70.48118334752017" lon="27.11394398931982" id="-106086">
		<tag k="name" v="Čohkadievvá" />
		<tag k="name:se" v="Čohkadievvá" />
		<tag k="natural" v="hill" />
		<tag k="place" v="locality" />
		<tag k="ssr:stedsnr" v="819585" />
	</node>
	<node lat="70.48508612438694" lon="27.11292176120727" id="-106087">
		<tag k="name" v="Rundhaugen" />
		<tag k="natural" v="hill" />
		<tag k="place" v="locality" />
		<tag k="ssr:stedsnr" v="819587" />
	</node>
	<node lat="70.95832501324459" lon="27.57452452704006" id="-106089">
		<tag k="name" v="Lilledalen" />
		<tag k="natural" v="valley" />
		<tag k="place" v="locality" />
		<tag k="ssr:stedsnr" v="819936" />
	</node>
	<node lat="70.57928612262022" lon="26.96917181038408" id="-106093">
		<tag k="name" v="Storkløfta" />
		<tag k="natural" v="valley" />
		<tag k="place" v="locality" />
		<tag k="ssr:stedsnr" v="819969" />
	</node>
	<node lat="70.92793890167441" lon="27.40053287177946" id="-106095">
		<tag k="fixme" v="consider natural=peak for the most distinct mountains in the district" />
		<tag k="name" v="Høgvarden" />
		<tag k="natural" v="hill" />
		<tag k="place" v="locality" />
		<tag k="ssr:stedsnr" v="819995" />
	</node>
	<node lat="70.31448611924475" lon="26.370074663189122" id="-106098">
		<tag k="name" v="Storfjorddalen" />
		<tag k="natural" v="valley" />
		<tag k="place" v="locality" />
		<tag k="ssr:stedsnr" v="821651" />
	</node>
	<node lat="70.3466305670699" lon="26.487960760717534" id="-106106">
		<tag k="name" v="Sletta" />
		<tag k="place" v="locality" />
		<tag k="ssr:stedsnr" v="869146" />
	</node>
	<node lat="70.97630834540496" lon="27.380807890748123" id="-106113">
		<tag k="name" v="Jomfruhøgda" />
		<tag k="natural" v="hill" />
		<tag k="place" v="locality" />
		<tag k="ssr:stedsnr" v="869248" />
	</node>
	<node lat="70.93851667964041" lon="27.41029398853937" id="-106116">
		<tag k="name" v="Oksevågdalen" />
		<tag k="natural" v="valley" />
		<tag k="place" v="locality" />
		<tag k="ssr:stedsnr" v="869211" />
	</node>
	<node lat="70.90694168024517" lon="27.236963459298796" id="-106118">
		<tag k="name" v="Dyfjorddalen" />
		<tag k="natural" v="valley" />
		<tag k="place" v="locality" />
		<tag k="ssr:stedsnr" v="869220" />
	</node>
	<node lat="70.51054445573571" lon="27.175932875478946" id="-106120">
		<tag k="fixme" v="consider natural=peak for the most distinct mountains in the district" />
		<tag k="name" v="Gáttávžževárri" />
		<tag k="name:se" v="Gáttávžževárri" />
		<tag k="natural" v="hill" />
		<tag k="old_name:se" v="Gaddavževarri" />
		<tag k="place" v="locality" />
		<tag k="ssr:stedsnr" v="869775" />
	</node>
	<node lat="70.91115001395507" lon="27.33424677413611" id="-106123">
		<tag k="fixme" v="consider natural=peak for the most distinct mountains in the district" />
		<tag k="name" v="Brenngamfjellet" />
		<tag k="natural" v="hill" />
		<tag k="place" v="locality" />
		<tag k="ssr:stedsnr" v="869791" />
	</node>
	<node lat="70.2580222311538" lon="26.592607940229563" id="-106124">
		<tag k="fixme" v="consider natural=peak for the most distinct mountains in the district" />
		<tag k="name" v="Ruksesbákčohkka" />
		<tag k="name:se" v="Ruksesbákčohkka" />
		<tag k="natural" v="hill" />
		<tag k="old_name:se" v="Ruskebakčåkka" />
		<tag k="place" v="locality" />
		<tag k="ssr:stedsnr" v="869259" />
	</node>
	<node lat="70.44673334236296" lon="26.293927442088112" id="-106127">
		<tag k="fixme" v="consider natural=peak for the most distinct mountains in the district" />
		<tag k="name" v="Borjjasbuolžžat" />
		<tag k="name:se" v="Borjjasbuolžžat" />
		<tag k="natural" v="hill" />
		<tag k="old_name:se" v="Bårjasbuolžat" />
		<tag k="place" v="locality" />
		<tag k="ssr:stedsnr" v="869340" />
	</node>
	<node lat="70.30520001314109" lon="26.149571899625457" id="-106131">
		<tag k="fixme" v="consider natural=peak for the most distinct mountains in the district" />
		<tag k="name" v="Čullojárgielas" />
		<tag k="name:se" v="Čullojárgielas" />
		<tag k="natural" v="hill" />
		<tag k="old_name:se" v="Čallujargielas" />
		<tag k="place" v="locality" />
		<tag k="ssr:stedsnr" v="869389" />
	</node>
	<node lat="70.92538056386427" lon="27.34978289845418" id="-106138">
		<tag k="name" v="Rundfjellet" />
		<tag k="natural" v="hill" />
		<tag k="place" v="locality" />
		<tag k="ssr:stedsnr" v="869550" />
	</node>
	<node lat="71.02323334326523" lon="27.3638745633518" id="-106147">
		<tag k="name" v="Landkomberget" />
		<tag k="natural" v="hill" />
		<tag k="place" v="locality" />
		<tag k="ssr:stedsnr" v="870481" />
	</node>
	<node lat="71.0168027879587" lon="27.405982891251707" id="-106148">
		<tag k="alt_name" v="Skjøtningberg, l" />
		<tag k="name" v="Lille Skjøtningberg" />
		<tag k="natural" v="valley" />
		<tag k="place" v="locality" />
		<tag k="ssr:stedsnr" v="870484" />
	</node>
	<node lat="70.45095556754329" lon="27.313266175107138" id="-106150">
		<tag k="fixme" v="consider natural=peak for the most distinct mountains in the district" />
		<tag k="name" v="Eaštoroaivi" />
		<tag k="name:se" v="Eaštoroaivi" />
		<tag k="natural" v="hill" />
		<tag k="old_name:se" v="Æšturoaivi" />
		<tag k="place" v="locality" />
		<tag k="ssr:stedsnr" v="870235" />
	</node>
	<node lat="70.7588138973122" lon="26.544963554440464" id="-106151">
		<tag k="fixme" v="consider natural=peak for the most distinct mountains in the district" />
		<tag k="name" v="Durevárri" />
		<tag k="name:se" v="Durevárri" />
		<tag k="natural" v="hill" />
		<tag k="old_name:se" v="Durevarri" />
		<tag k="place" v="locality" />
		<tag k="ssr:stedsnr" v="870247" />
	</node>
	<node lat="70.65906668018317" lon="26.44563021876687" id="-106154">
		<tag k="name" v="Vassbergan" />
		<tag k="natural" v="hill" />
		<tag k="place" v="locality" />
		<tag k="ssr:stedsnr" v="870589" />
	</node>
	<node lat="70.6409186130058" lon="26.519957757493692" id="-106156">
		<tag k="name" v="Fjellaksla" />
		<tag k="place" v="locality" />
		<tag k="ssr:stedsnr" v="870626" />
	</node>
	<node lat="71.00967501466988" lon="27.393724550983894" id="-106158">
		<tag k="name" v="Rubbeskaret" />
		<tag k="natural" v="valley" />
		<tag k="place" v="locality" />
		<tag k="ssr:stedsnr" v="870502" />
	</node>
	<node lat="70.41479445839072" lon="26.74458572505552" id="-106167">
		<tag k="name" v="Garnvikdalen" />
		<tag k="natural" v="valley" />
		<tag k="place" v="locality" />
		<tag k="ssr:stedsnr" v="929163" />
	</node>
	<node lat="70.06678056357497" lon="25.923413583274566" id="-106174">
		<tag k="fixme" v="consider natural=peak for the most distinct mountains in the district" />
		<tag k="name" v="Másealoaivi" />
		<tag k="name:se" v="Másealoaivi" />
		<tag k="natural" v="hill" />
		<tag k="old_name:se" v="Masæloaivi" />
		<tag k="place" v="locality" />
		<tag k="ssr:stedsnr" v="929343" />
	</node>
	<node lat="70.96726667697165" lon="26.68008022191064" id="-106180">
		<tag k="fixme" v="consider natural=peak for the most distinct mountains in the district" />
		<tag k="name" v="Sværholtklubben - Spierta" />
		<tag k="name:no" v="Sværholtklubben" />
		<tag k="name:se" v="Spierta" />
		<tag k="natural" v="hill" />
		<tag k="place" v="locality" />
		<tag k="ssr:stedsnr" v="930145" />
	</node>
	<node lat="70.41407500748035" lon="26.24984411960318" id="-106181">
		<tag k="fixme" v="consider natural=peak for the most distinct mountains in the district" />
		<tag k="name" v="Namahisoaivi" />
		<tag k="name:se" v="Namahisoaivi" />
		<tag k="natural" v="hill" />
		<tag k="place" v="locality" />
		<tag k="ssr:stedsnr" v="930259" />
	</node>
	<node lat="70.99060001318018" lon="27.359232906846415" id="-106189">
		<tag k="name" v="Finnskaret" />
		<tag k="natural" v="valley" />
		<tag k="place" v="locality" />
		<tag k="ssr:stedsnr" v="930225" />
	</node>
	<node lat="70.45493056734895" lon="26.097977494915426" id="-106193">
		<tag k="fixme" v="consider natural=peak for the most distinct mountains in the district" />
		<tag k="name" v="Geahčaláš" />
		<tag k="name:se" v="Geahčaláš" />
		<tag k="natural" v="hill" />
		<tag k="old_name:se" v="Gæččalaš" />
		<tag k="place" v="locality" />
		<tag k="ssr:stedsnr" v="930322" />
	</node>
	<node lat="70.32890278249415" lon="26.052871922011285" id="-106197">
		<tag k="fixme" v="consider natural=peak for the most distinct mountains in the district" />
		<tag k="name" v="Rátkkačopma" />
		<tag k="name:se" v="Rátkkačopma" />
		<tag k="natural" v="hill" />
		<tag k="old_name:se" v="Ratkačåbma" />
		<tag k="place" v="locality" />
		<tag k="ssr:stedsnr" v="930368" />
	</node>
	<node lat="70.807430563383" lon="27.352210652337963" id="-106202">
		<tag k="fixme" v="consider natural=peak for the most distinct mountains in the district" />
		<tag k="name" v="Olnilsavikfjellet" />
		<tag k="natural" v="hill" />
		<tag k="place" v="locality" />
		<tag k="ssr:stedsnr" v="930812" />
	</node>
	<node lat="70.65997500344541" lon="26.154063606650194" id="-106205">
		<tag k="alt_name:no" v="Russelvdalen" />
		<tag k="name" v="Russedalen - Ruoššaleahki" />
		<tag k="name:no" v="Russedalen" />
		<tag k="name:se" v="Ruoššaleahki" />
		<tag k="natural" v="valley" />
		<tag k="old_name:se" v="Ruoššalækki" />
		<tag k="place" v="locality" />
		<tag k="ssr:stedsnr" v="930571" />
	</node>
	<node lat="70.74319168148499" lon="27.382271747467357" id="-106208">
		<tag k="fixme" v="consider natural=peak for the most distinct mountains in the district" />
		<tag k="name" v="Langfjellet" />
		<tag k="natural" v="hill" />
		<tag k="place" v="locality" />
		<tag k="ssr:stedsnr" v="930674" />
	</node>
	<node lat="70.725150015342" lon="27.269230109440482" id="-106210">
		<tag k="name" v="Dalhaugen" />
		<tag k="natural" v="hill" />
		<tag k="place" v="locality" />
		<tag k="ssr:stedsnr" v="930678" />
	</node>
	<node lat="70.7000916789934" lon="27.40455228911314" id="-106211">
		<tag k="name" v="Kabelhaugen" />
		<tag k="natural" v="hill" />
		<tag k="place" v="locality" />
		<tag k="ssr:stedsnr" v="930686" />
	</node>
	<node lat="70.56876945669885" lon="27.22879674293573" id="-106217">
		<tag k="name" v="Martadalen" />
		<tag k="natural" v="valley" />
		<tag k="place" v="locality" />
		<tag k="ssr:stedsnr" v="930773" />
	</node>
	<node lat="70.66641112814274" lon="27.43032449339226" id="-106218">
		<tag k="fixme" v="consider natural=peak for the most distinct mountains in the district" />
		<tag k="name" v="Njearrin" />
		<tag k="name:se" v="Njearrin" />
		<tag k="natural" v="hill" />
		<tag k="old_name:se" v="Njærrin" />
		<tag k="place" v="locality" />
		<tag k="ssr:stedsnr" v="930700" />
	</node>
	<node lat="70.76620557115241" lon="27.27398287174186" id="-106225">
		<tag k="name" v="Mårøyfjordklubben" />
		<tag k="natural" v="hill" />
		<tag k="place" v="locality" />
		<tag k="ssr:stedsnr" v="930822" />
	</node>
	<node lat="70.66120278612745" lon="26.44254411974502" id="-106229">
		<tag k="name" v="Ytre Vassberget" />
		<tag k="natural" v="hill" />
		<tag k="place" v="locality" />
		<tag k="ssr:stedsnr" v="934658" />
	</node>
	<node lat="70.61750001132383" lon="27.066280131630798" id="-106236">
		<tag k="name" v="Ystedalen" />
		<tag k="natural" v="valley" />
		<tag k="place" v="locality" />
		<tag k="ssr:stedsnr" v="940187" />
	</node>
	<node lat="70.5279611252997" lon="27.019863448071334" id="-106237">
		<tag k="name" v="Oldervikdalen" />
		<tag k="natural" v="valley" />
		<tag k="place" v="locality" />
		<tag k="ssr:stedsnr" v="940571" />
	</node>
	<node lat="70.95781390309209" lon="27.33717733201128" id="-106239">
		<tag k="fixme" v="consider natural=peak for the most distinct mountains in the district" />
		<tag k="name" v="Hustadvarden" />
		<tag k="natural" v="hill" />
		<tag k="place" v="locality" />
		<tag k="ssr:stedsnr" v="940920" />
	</node>
	<node lat="70.40152222872455" lon="26.67154406489059" id="-106246">
		<tag k="name" v="Storlandersfjorddalen" />
		<tag k="natural" v="valley" />
		<tag k="place" v="locality" />
		<tag k="ssr:stedsnr" v="942679" />
	</node>
	<node lat="70.45665785620646" lon="27.13189260638941" id="-106419">
		<tag k="name" v="Ifjorddalen" />
		<tag k="natural" v="valley" />
		<tag k="place" v="locality" />
		<tag k="ssr:stedsnr" v="1075665" />
	</node>
	<node lat="70.3129033729819" lon="26.48107411834669" id="-106420">
		<tag k="name" v="Kunesdalen" />
		<tag k="natural" v="valley" />
		<tag k="place" v="locality" />
		<tag k="ssr:stedsnr" v="1075675" />
	</node>
	<node lat="70.88621590877057" lon="27.460314037103313" id="-106424">
		<tag k="name" v="Djupvikbakken" />
		<tag k="natural" v="slope" />
		<tag k="place" v="locality" />
		<tag k="ssr:stedsnr" v="1076527" />
	</node>
	<node lat="70.64458659961424" lon="26.515716699008106" id="-106440">
		<tag k="fixme" v="consider natural=peak for the most distinct mountains in the district" />
		<tag k="name" v="Fjellakselhumpen" />
		<tag k="natural" v="hill" />
		<tag k="place" v="locality" />
		<tag k="ssr:stedsnr" v="1077267" />
	</node>
	<node lat="70.85933840062721" lon="27.523754810654978" id="-106458">
		<tag k="name" v="Elv-Ørntinden" />
		<tag k="natural" v="hill" />
		<tag k="place" v="locality" />
		<tag k="ssr:stedsnr" v="1079876" />
	</node>
</osm>
