<?xml version="1.0" encoding="UTF-8"?>
<osm version="0.6" generator="osmapis">
	<node lat="70.51143890399" lon="27.03367179822679" id="-104780">
		<tag k="name" v="Muorraveaivuovdi" />
		<tag k="name:se" v="Muorraveaivuovdi" />
		<tag k="old_name:se" v="Muorravæjvuovdi" />
		<tag k="place" v="locality" />
		<tag k="ssr:stedsnr" v="262786" />
	</node>
	<node lat="70.56908334338338" lon="27.024716221878414" id="-104837">
		<tag k="name" v="Bergnesmyra" />
		<tag k="natural" v="wetland" />
		<tag k="ssr:stedsnr" v="212603" />
	</node>
	<node lat="70.33944167298405" lon="26.564360743761814" id="-104885">
		<tag k="name" v="Eineskog" />
		<tag k="place" v="locality" />
		<tag k="ssr:stedsnr" v="457689" />
	</node>
	<node lat="70.36679167893215" lon="26.476655188801903" id="-104902">
		<tag k="landuse" v="meadow" />
		<tag k="name" v="Bjørkli" />
		<tag k="ssr:stedsnr" v="274678" />
	</node>
	<node lat="70.35458890045969" lon="26.657452401317148" id="-104933">
		<tag k="name" v="Adamsmyra" />
		<tag k="natural" v="wetland" />
		<tag k="ssr:stedsnr" v="335708" />
	</node>
	<node lat="70.79108334690372" lon="27.181855113913645" id="-104996">
		<tag k="name" v="Torvmyra" />
		<tag k="natural" v="wetland" />
		<tag k="ssr:stedsnr" v="445802" />
	</node>
	<node lat="70.47849168174997" lon="27.1022662054675" id="-105004">
		<tag k="name" v="Fiskestein" />
		<tag k="natural" v="stone" />
		<tag k="ssr:stedsnr" v="455559" />
	</node>
	<node lat="70.43253334236252" lon="26.727841261262828" id="-105103">
		<tag k="name" v="Øyra" />
		<tag k="place" v="locality" />
		<tag k="ssr:stedsnr" v="692154" />
	</node>
	<node lat="70.3417611198134" lon="26.425302415266934" id="-105149">
		<tag k="name" v="Tjernamyran" />
		<tag k="natural" v="wetland" />
		<tag k="ssr:stedsnr" v="577657" />
	</node>
	<node lat="70.6422750119001" lon="26.328502462917676" id="-105150">
		<tag k="name" v="Ávnnasvuovdi" />
		<tag k="name:se" v="Ávnnasvuovdi" />
		<tag k="place" v="locality" />
		<tag k="ssr:stedsnr" v="696837" />
	</node>
	<node lat="70.35799167459099" lon="26.47589409004564" id="-105162">
		<tag k="landuse" v="meadow" />
		<tag k="name" v="Båtjorda - Fanasgieddi" />
		<tag k="name:no" v="Båtjorda" />
		<tag k="name:se" v="Fanasgieddi" />
		<tag k="ssr:stedsnr" v="699687" />
	</node>
	<node lat="70.34799723223239" lon="26.528957959914724" id="-105164">
		<tag k="name" v="Myrbakken" />
		<tag k="place" v="locality" />
		<tag k="ssr:stedsnr" v="699711" />
	</node>
	<node lat="70.61732223805261" lon="27.035124569521106" id="-105224">
		<tag k="name" v="Einebakkmyra" />
		<tag k="natural" v="wetland" />
		<tag k="ssr:stedsnr" v="697205" />
	</node>
	<node lat="70.92237501551753" lon="27.397568986892008" id="-105230">
		<tag k="name" v="Kjelmyran" />
		<tag k="natural" v="wetland" />
		<tag k="ssr:stedsnr" v="697974" />
	</node>
	<node lat="71.00818889968964" lon="27.36534956939619" id="-105306">
		<tag k="name" v="Stormyra" />
		<tag k="natural" v="wetland" />
		<tag k="ssr:stedsnr" v="819576" />
	</node>
	<node lat="70.64557501197929" lon="26.290377480325088" id="-105348">
		<tag k="name" v="Stormyra" />
		<tag k="natural" v="wetland" />
		<tag k="ssr:stedsnr" v="869571" />
	</node>
	<node lat="70.51045556695348" lon="27.068902322523147" id="-105374">
		<tag k="name" v="Gállatvuovddejeaggi" />
		<tag k="name:se" v="Gállatvuovddejeaggi" />
		<tag k="natural" v="wetland" />
		<tag k="old_name:se" v="Gallatvuovdejæggi" />
		<tag k="ssr:stedsnr" v="930329" />
	</node>
	<node lat="70.5906194538489" lon="27.30499674009613" id="-105400">
		<tag k="name" v="Lensmannsmyra" />
		<tag k="natural" v="wetland" />
		<tag k="ssr:stedsnr" v="879807" />
	</node>
	<node lat="70.34218057089294" lon="26.636405167823945" id="-105548">
		<tag k="name" v="Stuorrabovdnajeaggi" />
		<tag k="name:se" v="Stuorrabovdnajeaggi" />
		<tag k="natural" v="wetland" />
		<tag k="old_name:se" v="Stuorrabåvdnajæggi" />
		<tag k="ssr:stedsnr" v="80153" />
	</node>
	<node lat="70.6700777861938" lon="26.5876051976176" id="-105599">
		<tag k="alt_name" v="Hompen" />
		<tag k="landuse" v="quarry" />
		<tag k="name" v="Humpen" />
		<tag k="ssr:stedsnr" v="90920" />
	</node>
	<node lat="70.48265556946924" lon="27.137632872772233" id="-105607">
		<tag k="name" v="Prestelvmyra" />
		<tag k="natural" v="wetland" />
		<tag k="ssr:stedsnr" v="91595" />
	</node>
	<node lat="70.63513890085963" lon="26.533169096555046" id="-105695">
		<tag k="name" v="Langnesmyran" />
		<tag k="natural" v="wetland" />
		<tag k="ssr:stedsnr" v="150879" />
	</node>
	<node lat="70.92353611751201" lon="27.407902322028097" id="-105712">
		<tag k="name" v="Uran" />
		<tag k="natural" v="scree" />
		<tag k="ssr:stedsnr" v="151979" />
	</node>
	<node lat="70.63221112188995" lon="26.575952436018476" id="-105798">
		<tag k="name" v="Ørretmyran" />
		<tag k="natural" v="wetland" />
		<tag k="ssr:stedsnr" v="211899" />
	</node>
	<node lat="70.46283889883973" lon="26.566380180811986" id="-105821">
		<tag k="name" v="Geađgegárggu" />
		<tag k="name:no" v="Langøra" />
		<tag k="name:se" v="Geađgegárggu" />
		<tag k="old_name:se" v="Gædgegargo" />
		<tag k="place" v="locality" />
		<tag k="ssr:stedsnr" v="322299" />
	</node>
	<node lat="70.65402778936875" lon="26.604027427866466" id="-105889">
		<tag k="name" v="Stormyra" />
		<tag k="natural" v="wetland" />
		<tag k="ssr:stedsnr" v="332933" />
	</node>
	<node lat="70.61976112330056" lon="26.610749644425855" id="-105893">
		<tag k="name" v="Boazojeaggi" />
		<tag k="name:se" v="Boazojeaggi" />
		<tag k="natural" v="wetland" />
		<tag k="ssr:stedsnr" v="333940" />
	</node>
	<node lat="70.92925556682636" lon="27.432507885481314" id="-105897">
		<tag k="name" v="Tverrmyra" />
		<tag k="natural" v="wetland" />
		<tag k="ssr:stedsnr" v="333967" />
	</node>
	<node lat="70.92506111827251" lon="27.42043566032024" id="-105898">
		<tag k="landuse" v="meadow" />
		<tag k="name" v="Botnjorda" />
		<tag k="ssr:stedsnr" v="333974" />
	</node>
	<node lat="70.64246667730474" lon="26.582357980028156" id="-105905">
		<tag k="name" v="Stormyra" />
		<tag k="natural" v="wetland" />
		<tag k="ssr:stedsnr" v="384621" />
	</node>
	<node lat="70.49905834521844" lon="27.045977329009897" id="-105970">
		<tag k="name" v="Skogvikmyra" />
		<tag k="natural" v="wetland" />
		<tag k="ssr:stedsnr" v="393527" />
	</node>
	<node lat="70.54795556591172" lon="26.96620513210392" id="-105973">
		<tag k="name" v="Stormyra" />
		<tag k="natural" v="wetland" />
		<tag k="ssr:stedsnr" v="393972" />
	</node>
	<node lat="70.95495556772539" lon="27.56849673429476" id="-105985">
		<tag k="name" v="Østerbotnmyra" />
		<tag k="natural" v="wetland" />
		<tag k="ssr:stedsnr" v="394928" />
	</node>
	<node lat="70.22400000931437" lon="26.772177357303292" id="-106012">
		<tag k="name" v="Gáissavuolesrohtu" />
		<tag k="name:se" v="Gáissavuolesrohtu" />
		<tag k="old_name:se" v="Gaisavuolesråtto" />
		<tag k="place" v="locality" />
		<tag k="ssr:stedsnr" v="444369" />
	</node>
	<node lat="70.32263056368471" lon="26.07665525708969" id="-106094">
		<tag k="name" v="Stuorrarohtu" />
		<tag k="name:se" v="Stuorrarohtu" />
		<tag k="old_name:se" v="Stuorraråtto" />
		<tag k="place" v="locality" />
		<tag k="ssr:stedsnr" v="505356" />
	</node>
	<node lat="70.60704723128804" lon="27.015705130537054" id="-106131">
		<tag k="name" v="Oterura" />
		<tag k="natural" v="scree" />
		<tag k="ssr:stedsnr" v="515189" />
	</node>
	<node lat="70.61747223295163" lon="27.046166226493476" id="-106132">
		<tag k="name" v="Kalvvikmyra" />
		<tag k="natural" v="wetland" />
		<tag k="ssr:stedsnr" v="515193" />
	</node>
	<node lat="70.51420834868362" lon="27.11473566228517" id="-106196">
		<tag k="name" v="Luomejeakkit" />
		<tag k="name:se" v="Luomejeakkit" />
		<tag k="natural" v="wetland" />
		<tag k="old_name:se" v="Luomejæggit" />
		<tag k="ssr:stedsnr" v="565768" />
	</node>
	<node lat="70.9292972347306" lon="27.45614675904094" id="-106233">
		<tag k="name" v="Klokkerslåtta" />
		<tag k="natural" v="wetland" />
		<tag k="ssr:stedsnr" v="576972" />
	</node>
	<node lat="70.32649167746267" lon="26.102771927412665" id="-106286">
		<tag k="name" v="Stuorrajunjeaggi" />
		<tag k="name:se" v="Stuorrajunjeaggi" />
		<tag k="natural" v="wetland" />
		<tag k="old_name:se" v="Stuorrajunjæggi" />
		<tag k="ssr:stedsnr" v="626383" />
	</node>
	<node lat="70.33217500948302" lon="26.137505247571717" id="-106287">
		<tag k="name" v="Suoidneluobbaljeaggi" />
		<tag k="name:se" v="Suoidneluobbaljeaggi" />
		<tag k="natural" v="wetland" />
		<tag k="old_name:se" v="Suoidneluobbaljæggi" />
		<tag k="ssr:stedsnr" v="626388" />
	</node>
	<node lat="70.29882223214557" lon="26.37071354727899" id="-106334">
		<tag k="landuse" v="meadow" />
		<tag k="name" v="Øvre Karlstad" />
		<tag k="ssr:stedsnr" v="638637" />
	</node>
	<node lat="70.35293611916626" lon="26.479060737850432" id="-106368">
		<tag k="alt_name:no" v="Øra" />
		<tag k="name" v="Øyra - Gárggu" />
		<tag k="name:no" v="Øyra" />
		<tag k="name:se" v="Gárggu" />
		<tag k="old_name:se" v="Gargo" />
		<tag k="place" v="locality" />
		<tag k="ssr:stedsnr" v="748139" />
	</node>
	<node lat="70.9294777826651" lon="27.210966255159992" id="-106379">
		<tag k="name" v="Gartemyran" />
		<tag k="natural" v="wetland" />
		<tag k="ssr:stedsnr" v="748196" />
	</node>
	<node lat="70.59795278484405" lon="26.13747747334064" id="-106474">
		<tag k="name" v="Stuorralánjas" />
		<tag k="name:se" v="Stuorralánjas" />
		<tag k="old_name:se" v="Stuorralanjas" />
		<tag k="place" v="locality" />
		<tag k="ssr:stedsnr" v="809602" />
	</node>
	<node lat="70.6637638995215" lon="26.534371889834446" id="-106504">
		<tag k="name" v="Bjørnskogen" />
		<tag k="place" v="locality" />
		<tag k="ssr:stedsnr" v="819958" />
	</node>
	<node lat="70.10786667478963" lon="26.095310795878177" id="-106535">
		<tag k="name" v="Stárossieđga" />
		<tag k="name:se" v="Stárossieđga" />
		<tag k="natural" v="wetland" />
		<tag k="old_name:se" v="Starossieđga" />
		<tag k="ssr:stedsnr" v="869407" />
	</node>
	<node lat="71.01528056393265" lon="27.37468011229172" id="-106576">
		<tag k="name" v="Sanden" />
		<tag k="natural" v="beach" />
		<tag k="ssr:stedsnr" v="880628" />
		<tag k="surface" v="sand" />
	</node>
	<node lat="70.62856945558812" lon="26.616088542171894" id="-106581">
		<tag k="name" v="Klausjord" />
		<tag k="natural" v="wetland" />
		<tag k="ssr:stedsnr" v="879937" />
	</node>
	<node lat="70.91573612097858" lon="27.391955109916506" id="-106586">
		<tag k="name" v="Storsteinmyra" />
		<tag k="natural" v="wetland" />
		<tag k="ssr:stedsnr" v="879974" />
	</node>
	<node lat="70.48523612826929" lon="27.13958286438451" id="-106608">
		<tag k="name" v="Torvsletta" />
		<tag k="natural" v="wetland" />
		<tag k="ssr:stedsnr" v="941569" />
	</node>
</osm>
