<?xml version="1.0" encoding="UTF-8"?>
<osm version="0.6" generator="osmapis">
	<node lat="70.78766667380583" lon="26.685057982225356" id="-67346">
		<tag k="alt_name" v="Kobbeskjærbukta" />
		<tag k="name" v="Kobbskjærbukta" />
		<tag k="natural" v="bay" />
		<tag k="ssr:stedsnr" v="20241" />
	</node>
	<node lat="70.93841111708228" lon="27.123682923559" id="-67347">
		<tag k="name" v="Trottvika" />
		<tag k="natural" v="bay" />
		<tag k="ssr:stedsnr" v="20187" />
	</node>
	<node lat="71.04207779046536" lon="27.25741903047153" id="-67349">
		<tag k="name" v="Vesterneset" />
		<tag k="natural" v="cape" />
		<tag k="ssr:stedsnr" v="20396" />
	</node>
	<node lat="70.84053334698348" lon="27.52354395511603" id="-67354">
		<tag k="name" v="Lákšnjárga" />
		<tag k="name:se" v="Lákšnjárga" />
		<tag k="natural" v="cape" />
		<tag k="old_name:se" v="Lakšnjarga" />
		<tag k="ssr:stedsnr" v="20795" />
	</node>
	<node lat="70.70909446000543" lon="27.081035679224644" id="-67357">
		<tag k="name" v="Klubbvika" />
		<tag k="natural" v="bay" />
		<tag k="ssr:stedsnr" v="20692" />
	</node>
	<node lat="70.73072223410757" lon="27.304388418198496" id="-67359">
		<tag k="name" v="Sørbotn" />
		<tag k="natural" v="bay" />
		<tag k="ssr:stedsnr" v="20698" />
	</node>
	<node lat="70.80318334752015" lon="27.202174558444806" id="-67360">
		<tag k="name" v="Skagen" />
		<tag k="natural" v="cape" />
		<tag k="ssr:stedsnr" v="20809" />
	</node>
	<node lat="70.70566667643737" lon="26.545710763402766" id="-67361">
		<tag k="name" v="Elveneset" />
		<tag k="natural" v="cape" />
		<tag k="ssr:stedsnr" v="24691" />
	</node>
	<node lat="70.86381668216268" lon="27.476727300486573" id="-67363">
		<tag k="name" v="Nordmannsetgrunnen" />
		<tag k="natural" v="shoal" />
		<tag k="place" v="locality" />
		<tag k="ssr:stedsnr" v="25087" />
	</node>
	<node lat="70.77742500594394" lon="26.692452426266986" id="-67365">
		<tag k="name" v="Henrikholmsundet" />
		<tag k="natural" v="strait" />
		<tag k="ssr:stedsnr" v="26384" />
	</node>
	<node lat="70.67190556455432" lon="27.12208844559143" id="-67366">
		<tag k="name" v="Seimaneset" />
		<tag k="natural" v="cape" />
		<tag k="ssr:stedsnr" v="26487" />
	</node>
	<node lat="70.51527501596361" lon="26.991752353387522" id="-67370">
		<tag k="fixme" v="consider seamark:type=rock or natural=shoal" />
		<tag k="name" v="Auskarnesskjæret" />
		<tag k="place" v="islet" />
		<tag k="ssr:stedsnr" v="30510" />
	</node>
	<node lat="70.4801194568734" lon="27.046577342547327" id="-67372">
		<tag k="name" v="Soldatvik" />
		<tag k="natural" v="bay" />
		<tag k="ssr:stedsnr" v="30539" />
	</node>
	<node lat="70.44550001655033" lon="26.75798293317428" id="-67380">
		<tag k="name" v="Snordeneset - Snurronnjárga" />
		<tag k="name:no" v="Snordeneset" />
		<tag k="name:se" v="Snurronnjárga" />
		<tag k="natural" v="cape" />
		<tag k="old_name:se" v="Snurrunnjarga" />
		<tag k="ssr:stedsnr" v="80345" />
	</node>
	<node lat="70.53661389783922" lon="26.9727051212333" id="-67381">
		<tag k="name" v="Skjåneslandet - Vánnjárriddu" />
		<tag k="name:no" v="Skjåneslandet" />
		<tag k="name:se" v="Vánnjárriddu" />
		<tag k="natural" v="beach" />
		<tag k="old_name:se" v="Vannjarriddo" />
		<tag k="ssr:stedsnr" v="80647" />
	</node>
	<node lat="70.86923334328462" lon="27.456107850984736" id="-67391">
		<tag k="name" v="Klubbgrunnen" />
		<tag k="natural" v="shoal" />
		<tag k="place" v="locality" />
		<tag k="ssr:stedsnr" v="86108" />
	</node>
	<node lat="70.92367501166343" lon="27.419060651707227" id="-67396">
		<tag k="name" v="Elvenes" />
		<tag k="natural" v="cape" />
		<tag k="ssr:stedsnr" v="90963" />
	</node>
	<node lat="70.56627778587968" lon="26.987960692585435" id="-67398">
		<tag k="name" v="Flua" />
		<tag k="natural" v="shoal" />
		<tag k="place" v="locality" />
		<tag k="ssr:stedsnr" v="91611" />
	</node>
	<node lat="70.75063889810406" lon="27.230366228961383" id="-67407">
		<tag k="name" v="Lille Mårøyneset" />
		<tag k="natural" v="cape" />
		<tag k="old_name" v="Mårøyneset, l" />
		<tag k="ssr:stedsnr" v="140795" />
	</node>
	<node lat="70.83595278406298" lon="26.748619087573882" id="-67410">
		<tag k="name" v="Kartøysundet" />
		<tag k="natural" v="strait" />
		<tag k="ssr:stedsnr" v="141241" />
	</node>
	<node lat="70.61816945374326" lon="26.622088530491247" id="-67414">
		<tag k="name" v="Boasneset - Boazonjárga" />
		<tag k="name:no" v="Boasneset" />
		<tag k="name:se" v="Boazonjárga" />
		<tag k="natural" v="cape" />
		<tag k="old_name:se" v="Boazunjarga" />
		<tag k="ssr:stedsnr" v="141622" />
	</node>
	<node lat="70.62417500948875" lon="26.619260762616136" id="-67415">
		<tag k="name" v="Skjellvika - Čiesteluokta" />
		<tag k="name:no" v="Skjellvika" />
		<tag k="name:se" v="Čiesteluokta" />
		<tag k="natural" v="bay" />
		<tag k="ssr:stedsnr" v="141623" />
	</node>
	<node lat="70.60634723457797" lon="27.231035656273825" id="-67417">
		<tag k="name" v="Falleluft - Fálleluokta" />
		<tag k="name:no" v="Falleluft" />
		<tag k="name:se" v="Fálleluokta" />
		<tag k="natural" v="bay" />
		<tag k="old_name:se" v="Falleluokta" />
		<tag k="ssr:stedsnr" v="141685" />
	</node>
	<node lat="70.4355222381664" lon="26.5869524038027" id="-67419">
		<tag k="name" v="Ytre Hamn" />
		<tag k="natural" v="bay" />
		<tag k="ssr:stedsnr" v="145685" />
	</node>
	<node lat="70.44767778803424" lon="26.527346858689242" id="-67420">
		<tag k="name" v="Agnvika" />
		<tag k="natural" v="bay" />
		<tag k="ssr:stedsnr" v="145809" />
	</node>
	<node lat="70.98370278901778" lon="27.19039403290658" id="-67424">
		<tag k="name" v="Skjærgrunnen" />
		<tag k="natural" v="shoal" />
		<tag k="place" v="locality" />
		<tag k="ssr:stedsnr" v="147976" />
	</node>
	<node lat="70.9813916769829" lon="27.256388461335572" id="-67446">
		<tag k="bay" v="fjord" />
		<tag k="name" v="Kjøllefjorden - Gilevuotna" />
		<tag k="name:no" v="Kjøllefjorden" />
		<tag k="name:se" v="Gilevuotna" />
		<tag k="natural" v="bay" />
		<tag k="old_name:se" v="Gilevuodna" />
		<tag k="ssr:stedsnr" v="262538" />
	</node>
	<node lat="70.55333889709236" lon="26.610082965194625" id="-67454">
		<tag k="name" v="Masterneset - Sivlenjárga" />
		<tag k="name:no" v="Masterneset" />
		<tag k="name:se" v="Sivlenjárga" />
		<tag k="natural" v="cape" />
		<tag k="old_name:se" v="Sivlenjarga" />
		<tag k="ssr:stedsnr" v="262640" />
	</node>
	<node lat="70.85144167525905" lon="26.66689965922526" id="-67460">
		<tag k="alt_name" v="Grunnvikneset, in" />
		<tag k="name" v="Indre Grunnvikneset" />
		<tag k="natural" v="cape" />
		<tag k="ssr:stedsnr" v="263158" />
	</node>
	<node lat="70.48611112706084" lon="27.069471763470382" id="-67464">
		<tag k="name" v="Čáhppesnjárga" />
		<tag k="name:se" v="Čáhppesnjárga" />
		<tag k="natural" v="cape" />
		<tag k="old_name:se" v="Čappesnjarga" />
		<tag k="ssr:stedsnr" v="263261" />
	</node>
	<node lat="70.80461667459855" lon="26.714560764918314" id="-67471">
		<tag k="name" v="Måseneset" />
		<tag k="natural" v="cape" />
		<tag k="ssr:stedsnr" v="263284" />
	</node>
	<node lat="70.69036945638362" lon="26.47523299979079" id="-67473">
		<tag k="alt_name" v="Larsvika, yt" />
		<tag k="name" v="Ytre Larsvika" />
		<tag k="natural" v="bay" />
		<tag k="ssr:stedsnr" v="263613" />
	</node>
	<node lat="70.82491112314985" lon="27.28181620698647" id="-67477">
		<tag k="name" v="Keila" />
		<tag k="natural" v="bay" />
		<tag k="ssr:stedsnr" v="263773" />
	</node>
	<node lat="70.84550556819184" lon="27.456493967203773" id="-67478">
		<tag k="fixme" v="multiple name tags, choose one and add the other to alt_name" />
		<tag k="name" v="Nordneset;Nordre Ersvågneset" />
		<tag k="natural" v="cape" />
		<tag k="ssr:stedsnr" v="263779" />
	</node>
	<node lat="70.8968889037872" lon="27.209919015340258" id="-67480">
		<tag k="name" v="Dyfjordneset" />
		<tag k="natural" v="cape" />
		<tag k="ssr:stedsnr" v="267027" />
	</node>
	<node lat="70.39505278649241" lon="26.53097740830244" id="-67481">
		<tag k="name" v="Langneset - Niehtenjárga" />
		<tag k="name:no" v="Langneset" />
		<tag k="name:se" v="Niehtenjárga" />
		<tag k="natural" v="cape" />
		<tag k="old_name:se" v="Niettenjarga" />
		<tag k="ssr:stedsnr" v="201150" />
	</node>
	<node lat="70.86415834737271" lon="27.530482839838918" id="-67496">
		<tag k="name" v="Ettervika" />
		<tag k="natural" v="bay" />
		<tag k="ssr:stedsnr" v="202800" />
	</node>
	<node lat="70.80259167778972" lon="27.676238369263253" id="-67499">
		<tag k="alt_name" v="Teltneset" />
		<tag k="name" v="Hjellneset" />
		<tag k="natural" v="cape" />
		<tag k="ssr:stedsnr" v="268254" />
	</node>
	<node lat="70.94885001052752" lon="27.330957900999156" id="-67506">
		<tag k="name" v="Galgeneset" />
		<tag k="natural" v="cape" />
		<tag k="ssr:stedsnr" v="208997" />
	</node>
	<node lat="70.46015556983558" lon="26.620421858574385" id="-67508">
		<tag k="name" v="Passergrunnen" />
		<tag k="natural" v="shoal" />
		<tag k="place" v="locality" />
		<tag k="ssr:stedsnr" v="269237" />
	</node>
	<node lat="70.58561112254009" lon="27.248260627469367" id="-67511">
		<tag k="name" v="Sjøholmen" />
		<tag k="natural" v="cape" />
		<tag k="ssr:stedsnr" v="212125" />
	</node>
	<node lat="70.5575000125608" lon="27.010713446307108" id="-67513">
		<tag k="name" v="Bukta" />
		<tag k="natural" v="bay" />
		<tag k="ssr:stedsnr" v="212574" />
	</node>
	<node lat="70.58589724058059" lon="27.267510631632423" id="-67521">
		<tag k="name" v="Sørelvneset" />
		<tag k="natural" v="cape" />
		<tag k="ssr:stedsnr" v="212830" />
	</node>
	<node lat="70.67878890147445" lon="26.446496905802316" id="-67522">
		<tag k="name" v="Midterøyra" />
		<tag k="natural" v="shoal" />
		<tag k="place" v="locality" />
		<tag k="ssr:stedsnr" v="449673" />
	</node>
	<node lat="70.8665972321339" lon="27.345102320259134" id="-67524">
		<tag k="name" v="Storgrunnen" />
		<tag k="natural" v="shoal" />
		<tag k="place" v="locality" />
		<tag k="ssr:stedsnr" v="450093" />
	</node>
	<node lat="70.44128334605851" lon="26.613438529540797" id="-67526">
		<tag k="name" v="Jobukta" />
		<tag k="natural" v="bay" />
		<tag k="ssr:stedsnr" v="451233" />
	</node>
	<node lat="70.95024445066733" lon="27.32296623533891" id="-67530">
		<tag k="name" v="Galgenesgrunnen" />
		<tag k="natural" v="shoal" />
		<tag k="place" v="locality" />
		<tag k="ssr:stedsnr" v="451989" />
	</node>
	<node lat="70.50121390358487" lon="27.025527330833743" id="-67531">
		<tag k="name" v="Skogvikneset" />
		<tag k="natural" v="cape" />
		<tag k="ssr:stedsnr" v="454534" />
	</node>
	<node lat="70.47825000868919" lon="27.06201899399492" id="-67532">
		<tag k="name" v="Ørnebukta" />
		<tag k="natural" v="bay" />
		<tag k="ssr:stedsnr" v="454573" />
	</node>
	<node lat="70.66801389651351" lon="26.541230223107313" id="-67533">
		<tag k="name" v="Neset" />
		<tag k="natural" v="cape" />
		<tag k="ssr:stedsnr" v="454931" />
	</node>
	<node lat="70.66728056939874" lon="26.58771631516771" id="-67535">
		<tag k="name" v="Holmspira" />
		<tag k="place" v="locality" />
		<tag k="ssr:stedsnr" v="454957" />
	</node>
	<node lat="70.66261945583962" lon="26.580641330100182" id="-67536">
		<tag k="name" v="Langnes" />
		<tag k="natural" v="cape" />
		<tag k="ssr:stedsnr" v="454958" />
	</node>
	<node lat="70.6072277880164" lon="27.024313449683767" id="-67538">
		<tag k="name" v="Lille-Molla" />
		<tag k="natural" v="bay" />
		<tag k="ssr:stedsnr" v="455172" />
	</node>
	<node lat="70.95640556728723" lon="27.545221749680373" id="-67542">
		<tag k="name" v="Sørbotn" />
		<tag k="natural" v="bay" />
		<tag k="ssr:stedsnr" v="455890" />
	</node>
	<node lat="70.36913889967387" lon="26.528096850402715" id="-67550">
		<tag k="alt_name:no" v="Leirbukt" />
		<tag k="name" v="Leirbukta - Čitnagohppi" />
		<tag k="name:no" v="Leirbukta" />
		<tag k="name:se" v="Čitnagohppi" />
		<tag k="natural" v="bay" />
		<tag k="old_name:se" v="Čidnagåppi" />
		<tag k="ssr:stedsnr" v="262156" />
	</node>
	<node lat="71.0418777898537" lon="27.29160514862775" id="-67556">
		<tag k="name" v="Hylneset" />
		<tag k="natural" v="cape" />
		<tag k="ssr:stedsnr" v="262504" />
	</node>
	<node lat="71.04928611993161" lon="27.49770510030968" id="-67557">
		<tag k="name" v="Flyndrevika" />
		<tag k="natural" v="bay" />
		<tag k="ssr:stedsnr" v="262507" />
	</node>
	<node lat="70.5506111226047" lon="26.611349641494556" id="-67559">
		<tag k="name" v="Sauvika" />
		<tag k="natural" v="bay" />
		<tag k="ssr:stedsnr" v="262643" />
	</node>
	<node lat="70.54829723115074" lon="26.9484940093503" id="-67561">
		<tag k="name" v="Vánnjárgeahči" />
		<tag k="name:se" v="Vánnjárgeahči" />
		<tag k="natural" v="shoal" />
		<tag k="old_name:se" v="Vannjargæčči" />
		<tag k="place" v="locality" />
		<tag k="ssr:stedsnr" v="262652" />
	</node>
	<node lat="70.8961222325377" lon="27.29739123344051" id="-67562">
		<tag k="name" v="Brenngamvika" />
		<tag k="natural" v="bay" />
		<tag k="ssr:stedsnr" v="262794" />
	</node>
	<node lat="70.92825278546698" lon="26.712274646782262" id="-67563">
		<tag k="name" v="Sørenkeila" />
		<tag k="natural" v="bay" />
		<tag k="ssr:stedsnr" v="263174" />
	</node>
	<node lat="70.48563612255977" lon="27.03768566512904" id="-67572">
		<tag k="name" v="Ifjordmunningen" />
		<tag k="natural" v="strait" />
		<tag k="ssr:stedsnr" v="272513" />
	</node>
	<node lat="70.35634167644172" lon="26.520582976482462" id="-67580">
		<tag k="name" v="Henrikbukt" />
		<tag k="natural" v="bay" />
		<tag k="ssr:stedsnr" v="274504" />
	</node>
	<node lat="70.95603611976463" lon="27.146907921696734" id="-67582">
		<tag k="name" v="Kjemen" />
		<tag k="natural" v="cape" />
		<tag k="ssr:stedsnr" v="275874" />
	</node>
	<node lat="70.45299167917392" lon="26.53279408342347" id="-67585">
		<tag k="name" v="Jernkeila - Ruovdeluokta" />
		<tag k="name:no" v="Jernkeila" />
		<tag k="name:se" v="Ruovdeluokta" />
		<tag k="natural" v="bay" />
		<tag k="ssr:stedsnr" v="322306" />
	</node>
	<node lat="70.93370278495803" lon="27.262910672420713" id="-67586">
		<tag k="name" v="Dyfjordhalvøya - Roahtoviiknjárga" />
		<tag k="name:no" v="Dyfjordhalvøya" />
		<tag k="name:se" v="Roahtoviiknjárga" />
		<tag k="natural" v="cape" />
		<tag k="old_name:se" v="Roattuviiknjarga" />
		<tag k="ssr:stedsnr" v="323213" />
	</node>
	<node lat="70.95485278521112" lon="27.32337178135161" id="-67592">
		<tag k="name" v="Klubben" />
		<tag k="natural" v="cape" />
		<tag k="ssr:stedsnr" v="323226" />
	</node>
	<node lat="70.9641194514392" lon="27.55908840704643" id="-67593">
		<tag k="name" v="Østerbotn" />
		<tag k="natural" v="bay" />
		<tag k="ssr:stedsnr" v="323229" />
	</node>
	<node lat="70.68543056366725" lon="26.450385786059172" id="-67594">
		<tag k="name" v="Selneset" />
		<tag k="natural" v="cape" />
		<tag k="ssr:stedsnr" v="323607" />
	</node>
	<node lat="70.69351945362826" lon="26.49344967831817" id="-67595">
		<tag k="name" v="Ordnevaggneset" />
		<tag k="natural" v="cape" />
		<tag k="ssr:stedsnr" v="323608" />
	</node>
	<node lat="70.68891389562525" lon="26.471674656128062" id="-67596">
		<tag k="fixme" v="consider seamark:type=rock or natural=shoal" />
		<tag k="name" v="Larsvikholmen" />
		<tag k="place" v="islet" />
		<tag k="ssr:stedsnr" v="323612" />
	</node>
	<node lat="71.01056945497535" lon="27.50670786283884" id="-67599">
		<tag k="fixme" v="consider seamark:type=rock or natural=shoal" />
		<tag k="name" v="Avløysinga" />
		<tag k="place" v="islet" />
		<tag k="ssr:stedsnr" v="323510" />
	</node>
	<node lat="70.84161945552506" lon="27.469418950233276" id="-67601">
		<tag k="name" v="Ersvågneset" />
		<tag k="natural" v="cape" />
		<tag k="ssr:stedsnr" v="323777" />
	</node>
	<node lat="70.50003889911261" lon="26.737324622426144" id="-67602">
		<tag k="name" v="Flatneset" />
		<tag k="natural" v="cape" />
		<tag k="ssr:stedsnr" v="328105" />
	</node>
	<node lat="70.48690834546017" lon="26.79007182333365" id="-67604">
		<tag k="name" v="Storvika" />
		<tag k="natural" v="bay" />
		<tag k="ssr:stedsnr" v="328164" />
	</node>
	<node lat="70.77714167609132" lon="26.716324647787573" id="-67605">
		<tag k="name" v="Indre Henrikholmen" />
		<tag k="place" v="islet" />
		<tag k="ssr:stedsnr" v="329362" />
	</node>
	<node lat="70.48719167942629" lon="27.05960511270206" id="-67607">
		<tag k="name" v="Larsvik" />
		<tag k="natural" v="bay" />
		<tag k="ssr:stedsnr" v="332563" />
	</node>
	<node lat="70.3766805710629" lon="26.5386079562999" id="-67613">
		<tag k="name" v="Skjellnes - Bealkanjárga" />
		<tag k="name:no" v="Skjellnes" />
		<tag k="name:se" v="Bealkanjárga" />
		<tag k="natural" v="cape" />
		<tag k="old_name:se" v="Bælkanjarga" />
		<tag k="ssr:stedsnr" v="383154" />
	</node>
	<node lat="70.96905278323574" lon="27.149705159505743" id="-67618">
		<tag k="name" v="Finnkjerkvika - Čalmmasvággi" />
		<tag k="name:no" v="Finnkjerkvika" />
		<tag k="name:se" v="Čalmmasvággi" />
		<tag k="natural" v="bay" />
		<tag k="old_name:se" v="Čalmasvaggi" />
		<tag k="ssr:stedsnr" v="383252" />
	</node>
	<node lat="71.03539445575596" lon="27.42293565995867" id="-67622">
		<tag k="name" v="Megrunnen" />
		<tag k="natural" v="shoal" />
		<tag k="place" v="locality" />
		<tag k="ssr:stedsnr" v="383510" />
	</node>
	<node lat="70.55791390260147" lon="26.94941346442026" id="-67623">
		<tag k="name" v="Skjåholmen - Vánnjá" />
		<tag k="name:no" v="Skjåholmen" />
		<tag k="name:se" v="Vánnjá" />
		<tag k="old_name:se" v="Vannja" />
		<tag k="place" v="island" />
		<tag k="ssr:stedsnr" v="383650" />
	</node>
	<node lat="70.84108056690647" lon="26.72612464091581" id="-67627">
		<tag k="name" v="Tømmervikneset" />
		<tag k="natural" v="cape" />
		<tag k="ssr:stedsnr" v="384158" />
	</node>
	<node lat="70.83346111568409" lon="26.67065521038277" id="-67629">
		<tag k="name" v="Tømmervika - Stohkkavuotna" />
		<tag k="name:no" v="Tømmervika" />
		<tag k="name:se" v="Stohkkavuotna" />
		<tag k="natural" v="bay" />
		<tag k="old_name:se" v="Ståkkavuodna" />
		<tag k="ssr:stedsnr" v="384248" />
	</node>
	<node lat="70.77773889809079" lon="26.67244964712516" id="-67630">
		<tag k="alt_name" v="Rokvika, yt" />
		<tag k="name" v="Ytre Rokvika" />
		<tag k="natural" v="bay" />
		<tag k="ssr:stedsnr" v="384254" />
	</node>
	<node lat="70.5239722365389" lon="26.78191628409041" id="-67634">
		<tag k="name" v="Indre Bondøyskjær" />
		<tag k="natural" v="shoal" />
		<tag k="place" v="locality" />
		<tag k="ssr:stedsnr" v="384645" />
	</node>
	<node lat="70.5103888970602" lon="26.745402393479505" id="-67635">
		<tag k="name" v="Gierbálásis" />
		<tag k="name:se" v="Gierbálásis" />
		<tag k="natural" v="shoal" />
		<tag k="old_name:se" v="Gierbalasis" />
		<tag k="place" v="locality" />
		<tag k="ssr:stedsnr" v="384660" />
	</node>
	<node lat="71.10657223156586" lon="27.594816202595794" id="-67637">
		<tag k="name" v="Fuglestappen" />
		<tag k="natural" v="cape" />
		<tag k="ssr:stedsnr" v="389290" />
	</node>
	<node lat="70.35890834650979" lon="26.521482968791393" id="-67638">
		<tag k="alt_name" v="Kvitnes" />
		<tag k="name" v="Kvitneset" />
		<tag k="natural" v="cape" />
		<tag k="ssr:stedsnr" v="389713" />
	</node>
	<node lat="70.4922639003013" lon="27.03710787984268" id="-67641">
		<tag k="name" v="Aldavik" />
		<tag k="natural" v="bay" />
		<tag k="ssr:stedsnr" v="393538" />
	</node>
	<node lat="70.91637223107963" lon="27.416549525604243" id="-67647">
		<tag k="name" v="Mursteinsvika" />
		<tag k="natural" v="bay" />
		<tag k="ssr:stedsnr" v="394985" />
	</node>
	<node lat="70.91618056322406" lon="27.398077320458" id="-67648">
		<tag k="name" v="Krampenes" />
		<tag k="natural" v="cape" />
		<tag k="ssr:stedsnr" v="394994" />
	</node>
	<node lat="71.1500000088401" lon="27.449999577611596" id="-67650">
		<tag k="name" v="Rundingen" />
		<tag k="natural" v="shoal" />
		<tag k="place" v="locality" />
		<tag k="ssr:stedsnr" v="396877" />
	</node>
	<node lat="71.08888889825052" lon="27.016666300842168" id="-67652">
		<tag k="name" v="Sværholthavet" />
		<tag k="place" v="sea" />
		<tag k="ssr:stedsnr" v="424403" />
	</node>
	<node lat="70.47023612693307" lon="26.75493016107523" id="-67659">
		<tag k="alt_name:no" v="Revnes" />
		<tag k="name" v="Revneset - Rievannjárga" />
		<tag k="name:no" v="Revneset" />
		<tag k="name:se" v="Rievannjárga" />
		<tag k="natural" v="cape" />
		<tag k="old_name:se" v="Rievannjarga" />
		<tag k="ssr:stedsnr" v="444296" />
	</node>
	<node lat="71.1211722316021" lon="27.58569952446422" id="-67670">
		<tag k="name" v="Middagsgrunnen" />
		<tag k="natural" v="shoal" />
		<tag k="place" v="locality" />
		<tag k="ssr:stedsnr" v="445283" />
	</node>
	<node lat="70.68586112032794" lon="27.12260790942629" id="-67671">
		<tag k="name" v="Hamna" />
		<tag k="natural" v="bay" />
		<tag k="ssr:stedsnr" v="445702" />
	</node>
	<node lat="70.79547501162352" lon="27.1817384608185" id="-67676">
		<tag k="name" v="Mårøya" />
		<tag k="place" v="island" />
		<tag k="ssr:stedsnr" v="445803" />
	</node>
	<node lat="70.49829723267958" lon="27.036474546100713" id="-67677">
		<tag k="name" v="Paddeneset" />
		<tag k="natural" v="cape" />
		<tag k="ssr:stedsnr" v="451066" />
	</node>
	<node lat="70.90639953624338" lon="27.417130201292114" id="-67700">
		<tag k="name" v="Krokvika" />
		<tag k="natural" v="bay" />
		<tag k="ssr:stedsnr" v="505208" />
	</node>
	<node lat="71.10465834632203" lon="27.56313565200106" id="-67703">
		<tag k="name" v="Bønesmolla" />
		<tag k="natural" v="cape" />
		<tag k="ssr:stedsnr" v="505275" />
	</node>
	<node lat="70.6726361256512" lon="27.131685684495004" id="-67707">
		<tag k="bay" v="fjord" />
		<tag k="name" v="Lille Torskefjorden - Uhca Dorskavuotna" />
		<tag k="name:no" v="Lille Torskefjorden" />
		<tag k="name:se" v="Uhca Dorskavuotna" />
		<tag k="natural" v="bay" />
		<tag k="old_name:se" v="Dårskavuodna ucca" />
		<tag k="ssr:stedsnr" v="505703" />
	</node>
	<node lat="70.73844445784174" lon="26.661282979090657" id="-67712">
		<tag k="name" v="Veidgambukta" />
		<tag k="natural" v="bay" />
		<tag k="ssr:stedsnr" v="505613" />
	</node>
	<node lat="70.70912500569803" lon="26.55756076630511" id="-67713">
		<tag k="name" v="Stordalsbukta" />
		<tag k="natural" v="bay" />
		<tag k="ssr:stedsnr" v="505617" />
	</node>
	<node lat="70.50461112606979" lon="26.755641270177307" id="-67714">
		<tag k="alt_name" v="Rekvika, yt" />
		<tag k="name" v="Ytre Rekvika" />
		<tag k="natural" v="bay" />
		<tag k="ssr:stedsnr" v="505666" />
	</node>
	<node lat="70.73297223708038" lon="27.100469021871486" id="-67717">
		<tag k="name" v="Lillemolla" />
		<tag k="natural" v="bay" />
		<tag k="ssr:stedsnr" v="505678" />
	</node>
	<node lat="70.65906390184624" lon="26.41243578189321" id="-67719">
		<tag k="name" v="Vassbergbukta" />
		<tag k="natural" v="bay" />
		<tag k="ssr:stedsnr" v="509661" />
	</node>
	<node lat="70.43041389846434" lon="26.558191312818238" id="-67720">
		<tag k="name" v="Elvevika" />
		<tag k="natural" v="bay" />
		<tag k="ssr:stedsnr" v="511212" />
	</node>
	<node lat="70.65165834573712" lon="26.329380233831348" id="-67722">
		<tag k="name" v="Elvenes" />
		<tag k="natural" v="cape" />
		<tag k="ssr:stedsnr" v="514803" />
	</node>
	<node lat="70.37735556497212" lon="26.500549626576255" id="-67723">
		<tag k="name" v="Gávanjárga" />
		<tag k="name:se" v="Gávanjárga" />
		<tag k="natural" v="cape" />
		<tag k="old_name:se" v="Gavanjarga" />
		<tag k="ssr:stedsnr" v="686128" />
	</node>
	<node lat="70.44649445983848" lon="26.644594057481292" id="-67728">
		<tag k="fixme" v="consider seamark:type=rock or natural=shoal" />
		<tag k="name" v="Rundskjæret" />
		<tag k="place" v="islet" />
		<tag k="ssr:stedsnr" v="686324" />
	</node>
	<node lat="70.91253056199236" lon="26.725566332572644" id="-67735">
		<tag k="name" v="Ørnkeila" />
		<tag k="natural" v="bay" />
		<tag k="ssr:stedsnr" v="687125" />
	</node>
	<node lat="70.84519167746524" lon="26.747557968596887" id="-67741">
		<tag k="name" v="Nessegrunnen" />
		<tag k="natural" v="shoal" />
		<tag k="place" v="locality" />
		<tag k="ssr:stedsnr" v="687132" />
	</node>
	<node lat="71.0312722311596" lon="27.332927349203878" id="-67754">
		<tag k="alt_name" v="Fugleberget;Fuglfjellet" />
		<tag k="name" v="Fuglstauran" />
		<tag k="natural" v="cape" />
		<tag k="ssr:stedsnr" v="687480" />
	</node>
	<node lat="70.53071667636429" lon="26.985241238673243" id="-67756">
		<tag k="name" v="Bukkesteinneset" />
		<tag k="natural" v="cape" />
		<tag k="ssr:stedsnr" v="687648" />
	</node>
	<node lat="70.54278612441617" lon="26.606980190831628" id="-67757">
		<tag k="name" v="Myggvika - Čuoikaluokta" />
		<tag k="name:no" v="Myggvika" />
		<tag k="name:se" v="Čuoikaluokta" />
		<tag k="natural" v="bay" />
		<tag k="ssr:stedsnr" v="687654" />
	</node>
	<node lat="70.51658889677044" lon="26.993494015172942" id="-67760">
		<tag k="name" v="Lille Auskarneset - Uhca Hávskár" />
		<tag k="name:no" v="Lille Auskarneset" />
		<tag k="name:se" v="Uhca Hávskár" />
		<tag k="natural" v="cape" />
		<tag k="old_name:se" v="Havskar ucca" />
		<tag k="ssr:stedsnr" v="687659" />
	</node>
	<node lat="70.8914944577268" lon="27.39764953038772" id="-67765">
		<tag k="name" v="Viikkanjárga" />
		<tag k="name:se" v="Viikkanjárga" />
		<tag k="natural" v="cape" />
		<tag k="old_name:se" v="Viikanjarga" />
		<tag k="ssr:stedsnr" v="687764" />
	</node>
	<node lat="70.89291390107624" lon="27.306569007359165" id="-67766">
		<tag k="name" v="Bukkeneset" />
		<tag k="natural" v="cape" />
		<tag k="ssr:stedsnr" v="687765" />
	</node>
	<node lat="70.83188057053636" lon="27.47669951130848" id="-67767">
		<tag k="alt_name" v="Hysvikneset" />
		<tag k="name" v="Hysneset" />
		<tag k="natural" v="cape" />
		<tag k="ssr:stedsnr" v="687773" />
	</node>
	<node lat="70.7992805729467" lon="27.725277240302248" id="-67768">
		<tag k="name" v="Hopseidet - Nuorri" />
		<tag k="name:no" v="Hopseidet" />
		<tag k="name:se" v="Nuorri" />
		<tag k="place" v="locality" />
		<tag k="ssr:stedsnr" v="687871" />
	</node>
	<node lat="70.78246389701195" lon="26.680869088559085" id="-67774">
		<tag k="name" v="Bukkekeila" />
		<tag k="natural" v="bay" />
		<tag k="ssr:stedsnr" v="688261" />
	</node>
	<node lat="70.43562500907865" lon="26.733016283773804" id="-67783">
		<tag k="name" v="Moskeneset" />
		<tag k="natural" v="cape" />
		<tag k="ssr:stedsnr" v="692158" />
	</node>
	<node lat="70.42944445646798" lon="26.63014130172204" id="-67785">
		<tag k="alt_name:no" v="Revvik" />
		<tag k="name" v="Revvika - Rievanluokta" />
		<tag k="name:no" v="Revvika" />
		<tag k="name:se" v="Rievanluokta" />
		<tag k="natural" v="bay" />
		<tag k="ssr:stedsnr" v="564325" />
	</node>
	<node lat="70.98309445210853" lon="27.41815789136115" id="-67786">
		<tag k="name" v="Skjøtningberghalvøya - Geailonjárga" />
		<tag k="name:no" v="Skjøtningberghalvøya" />
		<tag k="name:se" v="Geailonjárga" />
		<tag k="natural" v="cape" />
		<tag k="old_name:se" v="Gæilunjarga" />
		<tag k="ssr:stedsnr" v="565215" />
	</node>
	<node lat="70.94613056744902" lon="27.312441224834483" id="-67788">
		<tag k="name" v="Breivika" />
		<tag k="natural" v="bay" />
		<tag k="ssr:stedsnr" v="565174" />
	</node>
	<node lat="70.4779694984812" lon="30.901573022960466" id="-67790">
		<tag k="alt_name" v="Østhavet" />
		<tag k="name" v="Austhavet" />
		<tag k="place" v="sea" />
		<tag k="ssr:stedsnr" v="565913" />
	</node>
	<node lat="70.47584168170452" lon="27.075899550551114" id="-67794">
		<tag k="name" v="Soldatbukta" />
		<tag k="natural" v="bay" />
		<tag k="ssr:stedsnr" v="566234" />
	</node>
	<node lat="70.61605556481824" lon="27.120877319250123" id="-67805">
		<tag k="bay" v="fjord" />
		<tag k="name" v="Bekkarfjorden - Beahkkirvuotna" />
		<tag k="name:no" v="Bekkarfjorden" />
		<tag k="name:se" v="Beahkkirvuotna" />
		<tag k="natural" v="bay" />
		<tag k="old_name:se" v="Bækkirvuodna" />
		<tag k="ssr:stedsnr" v="566716" />
	</node>
	<node lat="70.81080834481409" lon="27.577099484349336" id="-67807">
		<tag k="fixme" v="consider seamark:type=rock or natural=shoal" />
		<tag k="name" v="Eidsfjordskjæret" />
		<tag k="place" v="islet" />
		<tag k="ssr:stedsnr" v="566802" />
	</node>
	<node lat="70.8069666790958" lon="27.282885655006588" id="-67808">
		<tag k="name" v="Olnilsavikneset" />
		<tag k="natural" v="cape" />
		<tag k="ssr:stedsnr" v="566810" />
	</node>
	<node lat="70.44438612080316" lon="26.627138524615365" id="-67811">
		<tag k="name" v="Russeneset" />
		<tag k="natural" v="cape" />
		<tag k="ssr:stedsnr" v="693248" />
	</node>
	<node lat="70.8484666839947" lon="27.49463839934793" id="-67814">
		<tag k="name" v="Juobmolufta" />
		<tag k="natural" v="bay" />
		<tag k="ssr:stedsnr" v="571108" />
	</node>
	<node lat="71.02382521071775" lon="27.43166093591417" id="-67815">
		<tag k="fixme" v="consider seamark:type=rock or natural=shoal" />
		<tag k="name" v="Kvalen" />
		<tag k="place" v="islet" />
		<tag k="ssr:stedsnr" v="693681" />
	</node>
	<node lat="70.48717223760458" lon="27.023846779598287" id="-67816">
		<tag k="name" v="Trollgrunnen" />
		<tag k="natural" v="shoal" />
		<tag k="place" v="locality" />
		<tag k="ssr:stedsnr" v="693738" />
	</node>
	<node lat="70.69637223358609" lon="27.117982904097506" id="-67820">
		<tag k="name" v="Elvenes" />
		<tag k="natural" v="cape" />
		<tag k="ssr:stedsnr" v="572410" />
	</node>
	<node lat="70.68653612474603" lon="27.162977345864334" id="-67821">
		<tag k="name" v="Breivika" />
		<tag k="natural" v="bay" />
		<tag k="ssr:stedsnr" v="694492" />
	</node>
	<node lat="70.68069723646359" lon="27.11986901110413" id="-67830">
		<tag k="name" v="Eidemolla" />
		<tag k="natural" v="bay" />
		<tag k="ssr:stedsnr" v="697147" />
	</node>
	<node lat="70.6824389005441" lon="27.129466234730813" id="-67831">
		<tag k="name" v="Jovnnašnjárga" />
		<tag k="name:se" v="Jovnnašnjárga" />
		<tag k="natural" v="cape" />
		<tag k="ssr:stedsnr" v="697152" />
	</node>
	<node lat="70.49816390439938" lon="27.036663439265034" id="-67832">
		<tag k="name" v="Paddenes - Nammanjárga" />
		<tag k="name:no" v="Paddenes" />
		<tag k="name:se" v="Nammanjárga" />
		<tag k="natural" v="cape" />
		<tag k="ssr:stedsnr" v="697521" />
	</node>
	<node lat="70.5899389061509" lon="27.257102310789595" id="-67834">
		<tag k="name" v="Gámasgohppi" />
		<tag k="name:se" v="Gámasgohppi" />
		<tag k="natural" v="bay" />
		<tag k="ssr:stedsnr" v="697840" />
	</node>
	<node lat="71.01583612008551" lon="27.20366348761924" id="-67853">
		<tag k="name" v="Kjøllefjordneset" />
		<tag k="natural" v="cape" />
		<tag k="ssr:stedsnr" v="626508" />
	</node>
	<node lat="70.5669055662991" lon="26.987827342998877" id="-67862">
		<tag k="name" v="Lillegrunnen" />
		<tag k="natural" v="shoal" />
		<tag k="place" v="locality" />
		<tag k="ssr:stedsnr" v="630800" />
	</node>
	<node lat="70.49435279147394" lon="26.69008851426863" id="-67863">
		<tag k="name" v="Ytre Storgrunnen" />
		<tag k="natural" v="shoal" />
		<tag k="place" v="locality" />
		<tag k="ssr:stedsnr" v="631178" />
	</node>
	<node lat="70.66900834110041" lon="27.15046622838829" id="-67865">
		<tag k="name" v="Kvitnes" />
		<tag k="natural" v="cape" />
		<tag k="ssr:stedsnr" v="631610" />
	</node>
	<node lat="70.51917501245522" lon="26.990327357932497" id="-67870">
		<tag k="name" v="Oldervika" />
		<tag k="natural" v="bay" />
		<tag k="ssr:stedsnr" v="636531" />
	</node>
	<node lat="70.94705556296461" lon="27.29988566805688" id="-67871">
		<tag k="name" v="Snattvika" />
		<tag k="natural" v="bay" />
		<tag k="ssr:stedsnr" v="636792" />
	</node>
	<node lat="70.66571667485225" lon="26.468802452885374" id="-67896">
		<tag k="name" v="Josefneset" />
		<tag k="natural" v="cape" />
		<tag k="ssr:stedsnr" v="688603" />
	</node>
	<node lat="70.79743889698175" lon="27.293327320763872" id="-67897">
		<tag k="name" v="Kvalvika" />
		<tag k="natural" v="bay" />
		<tag k="ssr:stedsnr" v="688803" />
	</node>
	<node lat="70.80285279079165" lon="27.188580113722256" id="-67898">
		<tag k="name" v="Emilberget" />
		<tag k="natural" v="cape" />
		<tag k="ssr:stedsnr" v="688800" />
	</node>
	<node lat="70.92171390200173" lon="27.405538443878857" id="-67900">
		<tag k="name" v="Postneset" />
		<tag k="natural" v="cape" />
		<tag k="ssr:stedsnr" v="693222" />
	</node>
	<node lat="71.0608083458555" lon="27.488457880846557" id="-67901">
		<tag k="name" v="Engelskmannsvika" />
		<tag k="natural" v="bay" />
		<tag k="ssr:stedsnr" v="693671" />
	</node>
	<node lat="70.55168334283022" lon="26.95718568078132" id="-67902">
		<tag k="name" v="Skjåholmsundet" />
		<tag k="natural" v="strait" />
		<tag k="ssr:stedsnr" v="696983" />
	</node>
	<node lat="70.653850006988" lon="26.389677455158736" id="-67907">
		<tag k="name" v="Langnes" />
		<tag k="natural" v="cape" />
		<tag k="ssr:stedsnr" v="697874" />
	</node>
	<node lat="71.02884167904209" lon="27.543238426068534" id="-67916">
		<tag k="alt_name" v="Rekvedholet" />
		<tag k="name" v="Rekvedhola" />
		<tag k="natural" v="bay" />
		<tag k="ssr:stedsnr" v="747465" />
	</node>
	<node lat="71.12125000759522" lon="27.59776898854264" id="-67924">
		<tag k="name" v="Mellomgrunnen" />
		<tag k="natural" v="shoal" />
		<tag k="place" v="locality" />
		<tag k="ssr:stedsnr" v="748275" />
	</node>
	<node lat="71.12770833829447" lon="27.60819953966018" id="-67925">
		<tag k="name" v="Straumsnesgrunnen" />
		<tag k="natural" v="shoal" />
		<tag k="place" v="locality" />
		<tag k="ssr:stedsnr" v="748279" />
	</node>
	<node lat="71.022494451759" lon="27.21513570954823" id="-67926">
		<tag k="name" v="Kordelvika" />
		<tag k="natural" v="bay" />
		<tag k="ssr:stedsnr" v="748474" />
	</node>
	<node lat="71.02528612214529" lon="27.556191202542895" id="-67928">
		<tag k="alt_name" v="Bjørnsvika" />
		<tag k="name" v="Bjørnvika" />
		<tag k="natural" v="bay" />
		<tag k="ssr:stedsnr" v="748479" />
	</node>
	<node lat="70.53128056318964" lon="26.579544069848843" id="-67931">
		<tag k="name" v="Fossvika - Gorželuokta" />
		<tag k="name:no" v="Fossvika" />
		<tag k="name:se" v="Gorželuokta" />
		<tag k="natural" v="bay" />
		<tag k="old_name:se" v="Gårželuokta" />
		<tag k="ssr:stedsnr" v="748663" />
	</node>
	<node lat="70.51432223507916" lon="26.990913470597295" id="-67932">
		<tag k="name" v="Auskarnesbukta - Biššaluokta" />
		<tag k="name:no" v="Auskarnesbukta" />
		<tag k="name:se" v="Biššaluokta" />
		<tag k="natural" v="bay" />
		<tag k="ssr:stedsnr" v="748669" />
	</node>
	<node lat="70.51360278456927" lon="26.880141261280187" id="-67933">
		<tag k="name" v="Rypøya - Čoatni" />
		<tag k="name:no" v="Rypøya" />
		<tag k="name:se" v="Čoatni" />
		<tag k="old_name:se" v="Čoadni" />
		<tag k="place" v="island" />
		<tag k="ssr:stedsnr" v="748673" />
	</node>
	<node lat="70.80261390177162" lon="27.295793995994366" id="-67934">
		<tag k="name" v="Olnilsavika" />
		<tag k="natural" v="bay" />
		<tag k="ssr:stedsnr" v="748806" />
	</node>
	<node lat="70.75415001289137" lon="27.249052338320602" id="-67935">
		<tag k="name" v="Lille Mårøya - Báktesuolu" />
		<tag k="name:no" v="Lille Mårøya" />
		<tag k="name:se" v="Báktesuolu" />
		<tag k="old_name:no" v="Mårøya, l" />
		<tag k="old_name:se" v="Baktesuolo" />
		<tag k="place" v="islet" />
		<tag k="ssr:stedsnr" v="748812" />
	</node>
	<node lat="70.75425000900141" lon="27.353266206576546" id="-67936">
		<tag k="name" v="Austerbotn" />
		<tag k="natural" v="bay" />
		<tag k="ssr:stedsnr" v="748814" />
	</node>
	<node lat="70.64540278666482" lon="27.13080233583262" id="-67937">
		<tag k="name" v="Beahkkirnjárga" />
		<tag k="name:se" v="Beahkkirnjárga" />
		<tag k="natural" v="cape" />
		<tag k="old_name:se" v="Bækkirnjarga" />
		<tag k="ssr:stedsnr" v="748711" />
	</node>
	<node lat="70.89170834453004" lon="27.32015234154817" id="-67938">
		<tag k="name" v="Torveneset" />
		<tag k="natural" v="cape" />
		<tag k="ssr:stedsnr" v="748764" />
	</node>
	<node lat="70.48114445284114" lon="26.684391278825586" id="-67940">
		<tag k="name" v="Indre Storgrunnen" />
		<tag k="natural" v="shoal" />
		<tag k="place" v="locality" />
		<tag k="ssr:stedsnr" v="754256" />
	</node>
	<node lat="70.48702223285589" lon="27.057430111028566" id="-67941">
		<tag k="name" v="Brennes" />
		<tag k="natural" v="cape" />
		<tag k="ssr:stedsnr" v="757549" />
	</node>
	<node lat="70.62205278648807" lon="27.04817456535041" id="-67945">
		<tag k="name" v="Klubbneset" />
		<tag k="natural" v="cape" />
		<tag k="ssr:stedsnr" v="758207" />
	</node>
	<node lat="70.6727861244361" lon="27.122393996302236" id="-67946">
		<tag k="name" v="Gárggu" />
		<tag k="name:se" v="Gárggu" />
		<tag k="natural" v="beach" />
		<tag k="ssr:stedsnr" v="758159" />
	</node>
	<node lat="70.76830001130347" lon="27.278230097160645" id="-67954">
		<tag k="name" v="Klubbvika" />
		<tag k="natural" v="bay" />
		<tag k="ssr:stedsnr" v="808492" />
	</node>
	<node lat="70.52950278806316" lon="26.57340520584467" id="-67955">
		<tag k="name" v="Fossvikneset" />
		<tag k="natural" v="cape" />
		<tag k="ssr:stedsnr" v="808643" />
	</node>
	<node lat="71.07467501139891" lon="27.49853565125751" id="-67962">
		<tag k="name" v="Sommarkeila" />
		<tag k="natural" v="bay" />
		<tag k="ssr:stedsnr" v="809290" />
	</node>
	<node lat="71.01310001363765" lon="27.47403566140416" id="-67964">
		<tag k="name" v="Smørbringvika" />
		<tag k="natural" v="bay" />
		<tag k="ssr:stedsnr" v="809496" />
	</node>
	<node lat="71.05600000786863" lon="27.491399555932798" id="-67965">
		<tag k="alt_name" v="Mandelneset" />
		<tag k="name" v="Mannelneset" />
		<tag k="natural" v="cape" />
		<tag k="ssr:stedsnr" v="809501" />
	</node>
	<node lat="70.86733612581955" lon="27.517527280790098" id="-67968">
		<tag k="name" v="Siktvika" />
		<tag k="natural" v="bay" />
		<tag k="ssr:stedsnr" v="809783" />
	</node>
	<node lat="70.67640278949472" lon="26.389888575057906" id="-67974">
		<tag k="name" v="Skjelneset" />
		<tag k="natural" v="cape" />
		<tag k="ssr:stedsnr" v="813704" />
	</node>
	<node lat="70.45522223255824" lon="26.961244000329508" id="-67976">
		<tag k="name" v="Storbukta" />
		<tag k="natural" v="bay" />
		<tag k="ssr:stedsnr" v="814108" />
	</node>
	<node lat="70.41091668000485" lon="26.595305174093255" id="-67977">
		<tag k="name" v="Hanevika" />
		<tag k="natural" v="bay" />
		<tag k="ssr:stedsnr" v="814188" />
	</node>
	<node lat="70.41498334614867" lon="26.710566272845142" id="-67978">
		<tag k="alt_name" v="Seivik" />
		<tag k="name" v="Seivika" />
		<tag k="natural" v="bay" />
		<tag k="ssr:stedsnr" v="814192" />
	</node>
	<node lat="71.12069445068802" lon="27.634663419666676" id="-67979">
		<tag k="name" v="Indre Straumsnesbukta" />
		<tag k="natural" v="bay" />
		<tag k="ssr:stedsnr" v="814709" />
	</node>
	<node lat="70.68067778651135" lon="27.156160671192595" id="-67980">
		<tag k="name" v="Straumsneset" />
		<tag k="natural" v="cape" />
		<tag k="ssr:stedsnr" v="815474" />
	</node>
	<node lat="70.66026389950163" lon="26.37436078750175" id="-67986">
		<tag k="name" v="Rivdnji" />
		<tag k="name:se" v="Rivdnji" />
		<tag k="natural" v="strait" />
		<tag k="ssr:stedsnr" v="819874" />
	</node>
	<node lat="70.66502779056191" lon="26.415969124699846" id="-67987">
		<tag k="name" v="Vollnesøra" />
		<tag k="natural" v="shoal" />
		<tag k="place" v="locality" />
		<tag k="ssr:stedsnr" v="819876" />
	</node>
	<node lat="70.92200556468411" lon="27.414832867410794" id="-67993">
		<tag k="name" v="Holmestranda" />
		<tag k="natural" v="beach" />
		<tag k="ssr:stedsnr" v="819987" />
	</node>
	<node lat="70.47128612530234" lon="27.09657453268193" id="-67994">
		<tag k="name" v="Hansnes" />
		<tag k="natural" v="cape" />
		<tag k="ssr:stedsnr" v="820669" />
	</node>
	<node lat="70.36388334363099" lon="26.480210757550413" id="-67996">
		<tag k="fixme" v="multiple name tags, choose one and add the other to alt_name" />
		<tag k="name" v="Skjærnes;Lasseneset;Skjørneset - Lássánjárga" />
		<tag k="name:no" v="Skjærnes;Lasseneset;Skjørneset" />
		<tag k="name:se" v="Lássánjárga" />
		<tag k="natural" v="cape" />
		<tag k="old_name:se" v="Lassanjarga" />
		<tag k="ssr:stedsnr" v="929131" />
	</node>
	<node lat="70.42101945502885" lon="26.683235719948463" id="-67999">
		<tag k="alt_name" v="Landersfjordnes" />
		<tag k="name" v="Landersfjordneset" />
		<tag k="natural" v="cape" />
		<tag k="ssr:stedsnr" v="929170" />
	</node>
	<node lat="70.48755834387994" lon="26.914349564634687" id="-68001">
		<tag k="fixme" v="consider seamark:type=rock or natural=shoal" />
		<tag k="name" v="Skarvskjæret" />
		<tag k="place" v="islet" />
		<tag k="ssr:stedsnr" v="929286" />
	</node>
	<node lat="70.46528612755544" lon="26.94678289882333" id="-68002">
		<tag k="bay" v="fjord" />
		<tag k="name" v="Friarfjorden - Irgavuotna" />
		<tag k="name:no" v="Friarfjorden" />
		<tag k="name:se" v="Irgavuotna" />
		<tag k="natural" v="bay" />
		<tag k="old_name:se" v="Irgavuodna" />
		<tag k="ssr:stedsnr" v="929290" />
	</node>
	<node lat="70.45695278471409" lon="26.650688515532142" id="-68005">
		<tag k="fixme" v="consider seamark:type=rock or natural=shoal" />
		<tag k="name" v="Skarvskjæret - Skárfalásis" />
		<tag k="name:no" v="Skarvskjæret" />
		<tag k="name:se" v="Skárfalásis" />
		<tag k="old_name:se" v="Skarfalasis" />
		<tag k="place" v="islet" />
		<tag k="ssr:stedsnr" v="868304" />
	</node>
	<node lat="70.44715001563462" lon="26.6079718410394" id="-68007">
		<tag k="alt_name:no" v="Tomasvik" />
		<tag k="name" v="Tomasvågen - Tommaváhki" />
		<tag k="name:no" v="Tomasvågen" />
		<tag k="name:se" v="Tommaváhki" />
		<tag k="natural" v="bay" />
		<tag k="old_name:se" v="Tåmmavakki" />
		<tag k="ssr:stedsnr" v="868312" />
	</node>
	<node lat="70.42813334436534" lon="26.570002398346737" id="-68008">
		<tag k="name" v="Brattholmen - Báktesuolu" />
		<tag k="name:no" v="Brattholmen" />
		<tag k="name:se" v="Báktesuolu" />
		<tag k="old_name:se" v="Baktesuolo" />
		<tag k="place" v="islet" />
		<tag k="ssr:stedsnr" v="868320" />
	</node>
	<node lat="70.87878889530698" lon="26.696699645141397" id="-68010">
		<tag k="name" v="Nubbenesbukta" />
		<tag k="natural" v="bay" />
		<tag k="ssr:stedsnr" v="930132" />
	</node>
	<node lat="70.84243056669582" lon="26.762841299995195" id="-68012">
		<tag k="name" v="Mellomgrunnen" />
		<tag k="natural" v="shoal" />
		<tag k="place" v="locality" />
		<tag k="ssr:stedsnr" v="930139" />
	</node>
	<node lat="70.9464166741193" lon="26.708699661416556" id="-68014">
		<tag k="alt_name" v="Risvika, l" />
		<tag k="name" v="Lille Risvika" />
		<tag k="natural" v="bay" />
		<tag k="ssr:stedsnr" v="869169" />
	</node>
	<node lat="70.36866945774538" lon="26.478046860408288" id="-68015">
		<tag k="name" v="Bukta - Gohppi" />
		<tag k="name:no" v="Bukta" />
		<tag k="name:se" v="Gohppi" />
		<tag k="natural" v="bay" />
		<tag k="old_name:se" v="Gåppi" />
		<tag k="ssr:stedsnr" v="869175" />
	</node>
	<node lat="71.0438000075359" lon="27.27924958207404" id="-68018">
		<tag k="name" v="Kjelen" />
		<tag k="natural" v="cape" />
		<tag k="ssr:stedsnr" v="869514" />
	</node>
	<node lat="70.50615278959148" lon="27.011774561639147" id="-68025">
		<tag k="name" v="Skogvika - Muorraveadji" />
		<tag k="name:no" v="Skogvika" />
		<tag k="name:se" v="Muorraveadji" />
		<tag k="natural" v="bay" />
		<tag k="old_name:se" v="Muorravæddji" />
		<tag k="ssr:stedsnr" v="869674" />
	</node>
	<node lat="70.88197501276488" lon="27.314235656338358" id="-68029">
		<tag k="name" v="Bukkenesgrunnen" />
		<tag k="natural" v="shoal" />
		<tag k="place" v="locality" />
		<tag k="ssr:stedsnr" v="869782" />
	</node>
	<node lat="70.8935194566516" lon="27.335238438397763" id="-68030">
		<tag k="name" v="Hestvikneset" />
		<tag k="natural" v="cape" />
		<tag k="ssr:stedsnr" v="869783" />
	</node>
	<node lat="70.83771112308246" lon="26.783207964632982" id="-68034">
		<tag k="name" v="Kartøya - Stohkkasuolu" />
		<tag k="name:no" v="Kartøya" />
		<tag k="name:se" v="Stohkkasuolu" />
		<tag k="old_name:se" v="Ståkkasuolo" />
		<tag k="place" v="island" />
		<tag k="ssr:stedsnr" v="930238" />
	</node>
	<node lat="70.83193334150705" lon="26.731844094705473" id="-68035">
		<tag k="name" v="Urdekeila" />
		<tag k="natural" v="bay" />
		<tag k="ssr:stedsnr" v="930240" />
	</node>
	<node lat="71.00628056304245" lon="27.220927353460564" id="-68038">
		<tag k="name" v="Altertavla - Čáhppesbákti" />
		<tag k="name:no" v="Altertavla" />
		<tag k="name:se" v="Čáhppesbákti" />
		<tag k="natural" v="cape" />
		<tag k="old_name:se" v="Čappesbakti" />
		<tag k="ssr:stedsnr" v="870503" />
	</node>
	<node lat="70.6490833461978" lon="26.636249640587902" id="-68042">
		<tag k="name" v="Klubbodden" />
		<tag k="natural" v="cape" />
		<tag k="ssr:stedsnr" v="870622" />
	</node>
	<node lat="71.0859111212546" lon="27.503702320183596" id="-68046">
		<tag k="name" v="Striptindmolla" />
		<tag k="natural" v="cape" />
		<tag k="ssr:stedsnr" v="930290" />
	</node>
	<node lat="70.7653444577608" lon="27.180224567999865" id="-68047">
		<tag k="name" v="Vardnessundet" />
		<tag k="natural" v="strait" />
		<tag k="ssr:stedsnr" v="870804" />
	</node>
	<node lat="71.12621390325876" lon="27.633332863707615" id="-68054">
		<tag k="alt_name" v="Straumsneset" />
		<tag k="name" v="Straumsnes" />
		<tag k="natural" v="cape" />
		<tag k="ssr:stedsnr" v="930511" />
	</node>
	<node lat="70.73007778807596" lon="26.707244098821914" id="-68057">
		<tag k="bay" v="fjord" />
		<tag k="name" v="Lille-Porsangen - Skiessvuotna" />
		<tag k="name:no" v="Lille-Porsangen" />
		<tag k="name:se" v="Skiessvuotna" />
		<tag k="natural" v="bay" />
		<tag k="old_name:se" v="Skiessvuodna" />
		<tag k="ssr:stedsnr" v="930575" />
	</node>
	<node lat="70.67763890096009" lon="26.61426075598816" id="-68058">
		<tag k="name" v="Veidnesholmen - Sáltesávjjosuolu" />
		<tag k="name:no" v="Veidnesholmen" />
		<tag k="name:se" v="Sáltesávjjosuolu" />
		<tag k="old_name:se" v="Saltesavjusuolo" />
		<tag k="place" v="island" />
		<tag k="ssr:stedsnr" v="930627" />
	</node>
	<node lat="70.59972500826086" lon="27.18633288369296" id="-68062">
		<tag k="alt_name" v="Ytre Lebesnes" />
		<tag k="name" v="Ytterneset" />
		<tag k="natural" v="cape" />
		<tag k="ssr:stedsnr" v="930733" />
	</node>
	<node lat="70.61688334179838" lon="27.186549553856942" id="-68063">
		<tag k="name" v="Krampeneset" />
		<tag k="natural" v="cape" />
		<tag k="ssr:stedsnr" v="930734" />
	</node>
	<node lat="70.74989723630799" lon="27.20888843600656" id="-68067">
		<tag k="name" v="Jensmolla" />
		<tag k="natural" v="bay" />
		<tag k="ssr:stedsnr" v="930676" />
	</node>
	<node lat="70.61772778856228" lon="27.026349565220947" id="-68077">
		<tag k="name" v="Vestre Kalakklubbneset" />
		<tag k="natural" v="cape" />
		<tag k="ssr:stedsnr" v="876465" />
	</node>
	<node lat="70.41491945193886" lon="26.68803572610783" id="-68082">
		<tag k="name" v="Svellisvik" />
		<tag k="natural" v="bay" />
		<tag k="ssr:stedsnr" v="881665" />
	</node>
	<node lat="70.39119723585576" lon="26.619619061886326" id="-68083">
		<tag k="name" v="Bærneset" />
		<tag k="natural" v="cape" />
		<tag k="ssr:stedsnr" v="934175" />
	</node>
	<node lat="70.44752779000414" lon="26.548930203018454" id="-68085">
		<tag k="name" v="Jernkeilgrunnen" />
		<tag k="natural" v="shoal" />
		<tag k="place" v="locality" />
		<tag k="ssr:stedsnr" v="934669" />
	</node>
	<node lat="70.43301112550583" lon="26.515060759954547" id="-68087">
		<tag k="name" v="Reinvikneset" />
		<tag k="natural" v="cape" />
		<tag k="ssr:stedsnr" v="934928" />
	</node>
	<node lat="70.83312778742535" lon="26.68197742501777" id="-68088">
		<tag k="name" v="Lillebukta" />
		<tag k="natural" v="bay" />
		<tag k="ssr:stedsnr" v="935025" />
	</node>
	<node lat="70.50968056755391" lon="26.751110735100124" id="-68089">
		<tag k="name" v="Bondøyskjær" />
		<tag k="place" v="islet" />
		<tag k="ssr:stedsnr" v="935348" />
	</node>
	<node lat="70.96925278407464" lon="27.306407898805567" id="-68099">
		<tag k="name" v="Sprengsneset" />
		<tag k="natural" v="cape" />
		<tag k="ssr:stedsnr" v="930209" />
	</node>
	<node lat="71.034358344351" lon="27.313627362361295" id="-68104">
		<tag k="alt_name" v="Slottodden" />
		<tag k="name" v="Slottet" />
		<tag k="natural" v="cape" />
		<tag k="ssr:stedsnr" v="930505" />
	</node>
	<node lat="71.03470000760599" lon="27.23537458538203" id="-68105">
		<tag k="name" v="Flatneset" />
		<tag k="natural" v="cape" />
		<tag k="ssr:stedsnr" v="930506" />
	</node>
	<node lat="71.02701390035648" lon="27.216441268371707" id="-68106">
		<tag k="alt_name" v="Raudnakken" />
		<tag k="name" v="Rødnakken" />
		<tag k="natural" v="cape" />
		<tag k="ssr:stedsnr" v="930494" />
	</node>
	<node lat="71.04381667456359" lon="27.477677317013608" id="-68107">
		<tag k="name" v="Kvitnakkgrunnen" />
		<tag k="natural" v="shoal" />
		<tag k="place" v="locality" />
		<tag k="ssr:stedsnr" v="930498" />
	</node>
	<node lat="70.57681389904485" lon="26.946249578015202" id="-68108">
		<tag k="name" v="Løkholmen - Lávkesuolu" />
		<tag k="name:no" v="Løkholmen" />
		<tag k="name:se" v="Lávkesuolu" />
		<tag k="old_name:se" v="Lavkesuolo" />
		<tag k="place" v="islet" />
		<tag k="ssr:stedsnr" v="930644" />
	</node>
	<node lat="70.59668334208023" lon="26.88226625016236" id="-68109">
		<tag k="fixme" v="consider seamark:type=rock or natural=shoal" />
		<tag k="name" v="Langholmskjæran - Ráigefeallá" />
		<tag k="name:no" v="Langholmskjæran" />
		<tag k="name:se" v="Ráigefeallá" />
		<tag k="old_name:se" v="Raigefælla" />
		<tag k="place" v="islet" />
		<tag k="ssr:stedsnr" v="930648" />
	</node>
	<node lat="70.66663889943229" lon="27.107638445028762" id="-68116">
		<tag k="name" v="Slåttvika" />
		<tag k="natural" v="bay" />
		<tag k="ssr:stedsnr" v="930692" />
	</node>
	<node lat="70.74063334392376" lon="27.299613421975753" id="-68118">
		<tag k="bay" v="fjord" />
		<tag k="name" v="Sørfjorden - Máttavuotna" />
		<tag k="name:no" v="Sørfjorden" />
		<tag k="name:se" v="Máttavuotna" />
		<tag k="natural" v="bay" />
		<tag k="old_name:se" v="Maddavuodna" />
		<tag k="ssr:stedsnr" v="931111" />
	</node>
	<node lat="70.60110834349545" lon="27.23793841184838" id="-68119">
		<tag k="fixme" v="multiple name tags, choose one and add the other to alt_name" />
		<tag k="name" v="Tønnvika;Store Tynnvik" />
		<tag k="natural" v="bay" />
		<tag k="ssr:stedsnr" v="931746" />
	</node>
	<node lat="70.69397223067061" lon="26.506732987720195" id="-68120">
		<tag k="name" v="Ordnevaggeøyra" />
		<tag k="natural" v="shoal" />
		<tag k="place" v="locality" />
		<tag k="ssr:stedsnr" v="934649" />
	</node>
	<node lat="70.83583612136653" lon="26.662921867455502" id="-68121">
		<tag k="name" v="Hamnneset" />
		<tag k="natural" v="cape" />
		<tag k="ssr:stedsnr" v="935941" />
	</node>
	<node lat="70.61898890395602" lon="27.07144123479283" id="-68122">
		<tag k="name" v="Østre Kalakklubbneset" />
		<tag k="natural" v="cape" />
		<tag k="ssr:stedsnr" v="936441" />
	</node>
	<node lat="70.68787779227469" lon="27.109780123575693" id="-68123">
		<tag k="name" v="Hamnneset" />
		<tag k="natural" v="cape" />
		<tag k="ssr:stedsnr" v="936494" />
	</node>
	<node lat="71.11899723521405" lon="27.619293991619895" id="-68124">
		<tag k="name" v="Reipnakkgrunnen" />
		<tag k="natural" v="shoal" />
		<tag k="place" v="locality" />
		<tag k="ssr:stedsnr" v="936698" />
	</node>
	<node lat="70.46962779382565" lon="27.079091222159246" id="-68126">
		<tag k="name" v="Vesterbukta" />
		<tag k="natural" v="bay" />
		<tag k="ssr:stedsnr" v="20210" />
	</node>
	<node lat="70.41591667765266" lon="26.5552329557515" id="-68129">
		<tag k="name" v="Sandbukta - Sáttoluokta" />
		<tag k="name:no" v="Sandbukta" />
		<tag k="name:se" v="Sáttoluokta" />
		<tag k="natural" v="bay" />
		<tag k="old_name:se" v="Sadduluokta" />
		<tag k="ssr:stedsnr" v="19168" />
	</node>
	<node lat="70.36310000873057" lon="26.47927463241467" id="-68134">
		<tag k="name" v="Båtvika" />
		<tag k="natural" v="bay" />
		<tag k="ssr:stedsnr" v="19135" />
	</node>
	<node lat="70.46242223377685" lon="26.76155237208356" id="-68139">
		<tag k="alt_name" v="Sommervikneset" />
		<tag k="name" v="Sommarvikneset" />
		<tag k="natural" v="cape" />
		<tag k="ssr:stedsnr" v="19306" />
	</node>
	<node lat="70.44072223501519" lon="26.755085703690256" id="-68142">
		<tag k="alt_name:no" v="Tornvik" />
		<tag k="name" v="Tårnvika - Doarrunluokta" />
		<tag k="name:no" v="Tårnvika" />
		<tag k="name:se" v="Doarrunluokta" />
		<tag k="natural" v="bay" />
		<tag k="old_name:se" v="Doarronluokta" />
		<tag k="ssr:stedsnr" v="19332" />
	</node>
	<node lat="70.90001111892218" lon="26.719710770762788" id="-68149">
		<tag k="name" v="Hyskeila" />
		<tag k="natural" v="bay" />
		<tag k="ssr:stedsnr" v="20125" />
	</node>
	<node lat="70.91377778863723" lon="26.72124965798481" id="-68154">
		<tag k="name" v="Risvikneset" />
		<tag k="natural" v="cape" />
		<tag k="ssr:stedsnr" v="20153" />
	</node>
	<node lat="70.91853889390511" lon="26.709396889835517" id="-68155">
		<tag k="alt_name:no" v="Risvika, store" />
		<tag k="name" v="Store Risvika - Risseluokta" />
		<tag k="name:no" v="Store Risvika" />
		<tag k="name:se" v="Risseluokta" />
		<tag k="natural" v="bay" />
		<tag k="ssr:stedsnr" v="20155" />
	</node>
	<node lat="70.99628890355766" lon="27.267949570273863" id="-68157">
		<tag k="alt_name" v="Raudbergodden" />
		<tag k="name" v="Rødbergodden" />
		<tag k="natural" v="cape" />
		<tag k="old_name" v="Raudberget" />
		<tag k="ssr:stedsnr" v="20223" />
	</node>
	<node lat="70.56227501271906" lon="26.602513541821324" id="-68165">
		<tag k="name" v="Masternesskjæret" />
		<tag k="natural" v="cape" />
		<tag k="ssr:stedsnr" v="20673" />
	</node>
	<node lat="70.50549445228219" lon="26.55227465005335" id="-68168">
		<tag k="name" v="Kvernvika" />
		<tag k="natural" v="bay" />
		<tag k="ssr:stedsnr" v="20683" />
	</node>
	<node lat="70.63385279125251" lon="27.107871771670407" id="-68176">
		<tag k="name" v="Dordeluokta" />
		<tag k="name:se" v="Dordeluokta" />
		<tag k="natural" v="bay" />
		<tag k="old_name:se" v="Dårdeluokta" />
		<tag k="ssr:stedsnr" v="20719" />
	</node>
	<node lat="70.4191305631498" lon="26.6652718434876" id="-68183">
		<tag k="name" v="Grasvika" />
		<tag k="natural" v="bay" />
		<tag k="ssr:stedsnr" v="24206" />
	</node>
	<node lat="70.48880834741195" lon="26.955305131651553" id="-68185">
		<tag k="name" v="Hammarnesgrunnen" />
		<tag k="natural" v="shoal" />
		<tag k="place" v="locality" />
		<tag k="ssr:stedsnr" v="25060" />
	</node>
	<node lat="70.88481484934913" lon="27.477648115174205" id="-68189">
		<tag k="name" v="Lille Djupvika" />
		<tag k="natural" v="bay" />
		<tag k="ssr:stedsnr" v="25105" />
	</node>
	<node lat="70.61454167706322" lon="27.06508288792462" id="-68191">
		<tag k="name" v="Øster-Kalak" />
		<tag k="natural" v="bay" />
		<tag k="ssr:stedsnr" v="26462" />
	</node>
	<node lat="71.08421389739995" lon="27.50429677142194" id="-68192">
		<tag k="name" v="Striptindbukta" />
		<tag k="natural" v="bay" />
		<tag k="ssr:stedsnr" v="26646" />
	</node>
	<node lat="71.01624723527696" lon="27.378969001664338" id="-68198">
		<tag k="name" v="Russekeila" />
		<tag k="natural" v="bay" />
		<tag k="ssr:stedsnr" v="30590" />
	</node>
	<node lat="70.34784445358544" lon="26.515480196926717" id="-68204">
		<tag k="name" v="Sørelvnes" />
		<tag k="natural" v="cape" />
		<tag k="ssr:stedsnr" v="31734" />
	</node>
	<node lat="70.41986667971183" lon="26.671169058528395" id="-68205">
		<tag k="name" v="Store Landersfjordbukt" />
		<tag k="natural" v="bay" />
		<tag k="ssr:stedsnr" v="31683" />
	</node>
	<node lat="70.42011945550666" lon="26.732016280636778" id="-68207">
		<tag k="name" v="Indre Molvik" />
		<tag k="natural" v="bay" />
		<tag k="ssr:stedsnr" v="32643" />
	</node>
	<node lat="70.79138057057901" lon="27.27818844484941" id="-68210">
		<tag k="name" v="Kvalkeilneset" />
		<tag k="natural" v="cape" />
		<tag k="ssr:stedsnr" v="81787" />
	</node>
	<node lat="70.78987779104926" lon="27.277788453451613" id="-68211">
		<tag k="name" v="Kvalkeila" />
		<tag k="natural" v="bay" />
		<tag k="ssr:stedsnr" v="81788" />
	</node>
	<node lat="70.82043889817477" lon="27.533105066920026" id="-68213">
		<tag k="alt_name:no" v="Tobakksneset" />
		<tag k="name" v="Tobaksneset - Duhpátnjárga" />
		<tag k="name:no" v="Tobaksneset" />
		<tag k="name:se" v="Duhpátnjárga" />
		<tag k="natural" v="cape" />
		<tag k="old_name:se" v="Duppatnjarga" />
		<tag k="ssr:stedsnr" v="81801" />
	</node>
	<node lat="70.42169722941532" lon="26.50771075039967" id="-68219">
		<tag k="name" v="Luhkkaluokta" />
		<tag k="name:se" v="Luhkkaluokta" />
		<tag k="natural" v="bay" />
		<tag k="old_name:se" v="Lukkaluokta" />
		<tag k="ssr:stedsnr" v="80199" />
	</node>
	<node lat="70.92978056256058" lon="27.1075801590013" id="-68220">
		<tag k="name" v="Trottviknæringen - Bákteneret" />
		<tag k="name:no" v="Trottviknæringen" />
		<tag k="name:se" v="Bákteneret" />
		<tag k="natural" v="cape" />
		<tag k="old_name:se" v="Bakteneret" />
		<tag k="ssr:stedsnr" v="80202" />
	</node>
	<node lat="70.93078056414218" lon="27.46725508486795" id="-68221">
		<tag k="name" v="Gihpovuonmuotki" />
		<tag k="name:se" v="Gihpovuonmuotki" />
		<tag k="old_name:se" v="Gippuvuonmuotki" />
		<tag k="place" v="locality" />
		<tag k="ssr:stedsnr" v="80205" />
	</node>
	<node lat="70.91334445892406" lon="27.155174588691747" id="-68222">
		<tag k="name" v="Gartebukta" />
		<tag k="natural" v="bay" />
		<tag k="ssr:stedsnr" v="80215" />
	</node>
	<node lat="70.96682778262823" lon="27.137691269094923" id="-68225">
		<tag k="name" v="Kjemstauren" />
		<tag k="natural" v="cape" />
		<tag k="ssr:stedsnr" v="80225" />
	</node>
	<node lat="70.96589445071153" lon="26.7009163225481" id="-68228">
		<tag k="alt_name" v="Sasponspira" />
		<tag k="name" v="Sagsponspira" />
		<tag k="natural" v="cape" />
		<tag k="ssr:stedsnr" v="80157" />
	</node>
	<node lat="70.9518888965924" lon="26.70061911204131" id="-68229">
		<tag k="name" v="Kvalkeila" />
		<tag k="natural" v="bay" />
		<tag k="ssr:stedsnr" v="80171" />
	</node>
	<node lat="70.4717583418963" lon="26.565982969565464" id="-68236">
		<tag k="name" v="Kjeldebukta - Ádjaluokta" />
		<tag k="name:no" v="Kjeldebukta" />
		<tag k="name:se" v="Ádjaluokta" />
		<tag k="natural" v="bay" />
		<tag k="old_name:se" v="Addjaluokta" />
		<tag k="ssr:stedsnr" v="80320" />
	</node>
	<node lat="70.48565834209914" lon="26.934930139834165" id="-68237">
		<tag k="name" v="Hammarneset - Veahčanjárga" />
		<tag k="name:no" v="Hammarneset" />
		<tag k="name:se" v="Veahčanjárga" />
		<tag k="natural" v="cape" />
		<tag k="old_name:se" v="Væččanjarga" />
		<tag k="ssr:stedsnr" v="80322" />
	</node>
	<node lat="70.49466389758706" lon="26.819135709768982" id="-68238">
		<tag k="name" v="Skallneset - Gállonjárga" />
		<tag k="name:no" v="Skallneset" />
		<tag k="name:se" v="Gállonjárga" />
		<tag k="natural" v="cape" />
		<tag k="old_name:se" v="Gallunjarga" />
		<tag k="ssr:stedsnr" v="80323" />
	</node>
	<node lat="70.48141945979397" lon="26.791974602225213" id="-68239">
		<tag k="alt_name" v="Eikvika, vestre" />
		<tag k="name" v="Vestre Eikvika" />
		<tag k="natural" v="bay" />
		<tag k="ssr:stedsnr" v="80324" />
	</node>
	<node lat="70.46380001712177" lon="26.97045511754218" id="-68240">
		<tag k="name" v="Holmen" />
		<tag k="natural" v="cape" />
		<tag k="ssr:stedsnr" v="80333" />
	</node>
	<node lat="70.52079167808238" lon="26.923824568361066" id="-68242">
		<tag k="bay" v="fjord" />
		<tag k="name" v="Ifjorden - Idjavuotna" />
		<tag k="name:no" v="Ifjorden" />
		<tag k="name:se" v="Idjavuotna" />
		<tag k="natural" v="bay" />
		<tag k="old_name:se" v="Iddjavuodna" />
		<tag k="ssr:stedsnr" v="80382" />
	</node>
	<node lat="70.75503056934973" lon="27.112810695254502" id="-68243">
		<tag k="name" v="Vardnesodden - Oalunnjárga" />
		<tag k="name:no" v="Vardnesodden" />
		<tag k="name:se" v="Oalunnjárga" />
		<tag k="natural" v="cape" />
		<tag k="old_name:se" v="Oalonnjarga" />
		<tag k="ssr:stedsnr" v="80659" />
	</node>
	<node lat="70.59556112557792" lon="27.208318970496393" id="-68248">
		<tag k="fixme" v="multiple name tags, choose one and add the other to alt_name" />
		<tag k="name" v="Innerneset;Indre Lebesnes" />
		<tag k="natural" v="cape" />
		<tag k="ssr:stedsnr" v="80720" />
	</node>
	<node lat="70.58512501460123" lon="27.064235684004025" id="-68249">
		<tag k="name" v="Davvesiiddnjárga" />
		<tag k="name:se" v="Davvesiiddnjárga" />
		<tag k="natural" v="cape" />
		<tag k="old_name:se" v="Davvesiidnjarga" />
		<tag k="ssr:stedsnr" v="80730" />
	</node>
	<node lat="70.89023612348021" lon="26.712691317171775" id="-68251">
		<tag k="alt_name" v="Hellarvika, in" />
		<tag k="name" v="Indre Hellarvika" />
		<tag k="natural" v="bay" />
		<tag k="ssr:stedsnr" v="81134" />
	</node>
	<node lat="70.979891677086" lon="27.302452357545732" id="-68257">
		<tag k="name" v="Mollvika" />
		<tag k="natural" v="bay" />
		<tag k="ssr:stedsnr" v="81255" />
	</node>
	<node lat="70.88560279018607" lon="27.441935655809587" id="-68258">
		<tag k="name" v="Vika" />
		<tag k="natural" v="cape" />
		<tag k="ssr:stedsnr" v="81755" />
	</node>
	<node lat="70.66248611649794" lon="26.59728576015272" id="-68262">
		<tag k="name" v="Henrikneset" />
		<tag k="natural" v="cape" />
		<tag k="ssr:stedsnr" v="81626" />
	</node>
	<node lat="70.6779027884564" lon="27.15310510411414" id="-68264">
		<tag k="name" v="Straumen" />
		<tag k="natural" v="strait" />
		<tag k="ssr:stedsnr" v="81694" />
	</node>
	<node lat="70.42417778566607" lon="26.6501329551547" id="-68267">
		<tag k="alt_name:se" v="Bohtaras" />
		<tag k="name" v="Bohtorasmuotki" />
		<tag k="name:se" v="Bohtorasmuotki" />
		<tag k="natural" v="bay" />
		<tag k="ssr:stedsnr" v="85640" />
	</node>
	<node lat="70.87964723116562" lon="27.463188423102967" id="-68270">
		<tag k="alt_name" v="Urdneset" />
		<tag k="name" v="Urneset" />
		<tag k="natural" v="cape" />
		<tag k="ssr:stedsnr" v="86171" />
	</node>
	<node lat="70.84637223245454" lon="27.46892729678341" id="-68272">
		<tag k="name" v="Ersvågsiktevika" />
		<tag k="natural" v="bay" />
		<tag k="ssr:stedsnr" v="86097" />
	</node>
	<node lat="70.7757166734075" lon="26.730141297770995" id="-68274">
		<tag k="name" v="Ytre Henrikholmen" />
		<tag k="place" v="islet" />
		<tag k="ssr:stedsnr" v="86359" />
	</node>
	<node lat="70.75718056343959" lon="27.34747176069693" id="-68275">
		<tag k="name" v="Oterneset" />
		<tag k="natural" v="cape" />
		<tag k="ssr:stedsnr" v="86393" />
	</node>
	<node lat="71.0416722347833" lon="27.291316252267716" id="-68276">
		<tag k="name" v="Seibergodden" />
		<tag k="natural" v="cape" />
		<tag k="ssr:stedsnr" v="86859" />
	</node>
	<node lat="70.48078612706585" lon="27.028774566215432" id="-68282">
		<tag k="name" v="Kjerringvik" />
		<tag k="natural" v="bay" />
		<tag k="ssr:stedsnr" v="90545" />
	</node>
	<node lat="70.57050834807052" lon="26.97616070472418" id="-68283">
		<tag k="name" v="Prestegardsneset" />
		<tag k="natural" v="cape" />
		<tag k="ssr:stedsnr" v="90958" />
	</node>
	<node lat="70.55322223421256" lon="26.999730119100192" id="-68288">
		<tag k="name" v="Stallnesstranda" />
		<tag k="natural" v="beach" />
		<tag k="ssr:stedsnr" v="91600" />
	</node>
	<node lat="70.37028611968752" lon="26.52828295452165" id="-68290">
		<tag k="fixme" v="consider seamark:type=rock or natural=shoal" />
		<tag k="name" v="Leirbuktsøret" />
		<tag k="place" v="islet" />
		<tag k="ssr:stedsnr" v="92548" />
	</node>
	<node lat="70.41248612720729" lon="26.691546833902525" id="-68291">
		<tag k="name" v="Issátgohppi" />
		<tag k="name:se" v="Issátgohppi" />
		<tag k="natural" v="bay" />
		<tag k="ssr:stedsnr" v="92681" />
	</node>
	<node lat="70.44714167618582" lon="26.75796348724381" id="-68295">
		<tag k="name" v="Rypvik" />
		<tag k="natural" v="bay" />
		<tag k="ssr:stedsnr" v="117732" />
	</node>
	<node lat="70.95662500845722" lon="27.513613421753814" id="-68299">
		<tag k="alt_name" v="Valen" />
		<tag k="name" v="Valvågen" />
		<tag k="natural" v="bay" />
		<tag k="ssr:stedsnr" v="140205" />
	</node>
	<node lat="70.42670834477997" lon="26.508963540092218" id="-68305">
		<tag k="name" v="Skovika" />
		<tag k="natural" v="bay" />
		<tag k="ssr:stedsnr" v="140176" />
	</node>
	<node lat="70.44972778597597" lon="26.611938516368554" id="-68318">
		<tag k="fixme" v="consider seamark:type=rock or natural=shoal" />
		<tag k="name" v="Sagskjæret - Sávalássát" />
		<tag k="name:no" v="Sagskjæret" />
		<tag k="name:se" v="Sávalássát" />
		<tag k="old_name:se" v="Savalassat" />
		<tag k="place" v="islet" />
		<tag k="ssr:stedsnr" v="140348" />
	</node>
	<node lat="70.4441138967026" lon="26.62792740879992" id="-68320">
		<tag k="name" v="Fyrneset - Fyranjárga" />
		<tag k="name:no" v="Fyrneset" />
		<tag k="name:se" v="Fyranjárga" />
		<tag k="natural" v="cape" />
		<tag k="old_name:se" v="Fyranjarga" />
		<tag k="ssr:stedsnr" v="140359" />
	</node>
	<node lat="70.77952778192645" lon="26.72485242731617" id="-68328">
		<tag k="name" v="Henriksholman - Loađđun" />
		<tag k="name:no" v="Henriksholman" />
		<tag k="name:se" v="Loađđun" />
		<tag k="old_name:se" v="Loađđon" />
		<tag k="place" v="islet" />
		<tag k="ssr:stedsnr" v="141248" />
	</node>
	<node lat="70.82174167758778" lon="26.71494131379494" id="-68329">
		<tag k="name" v="Godvika" />
		<tag k="natural" v="bay" />
		<tag k="ssr:stedsnr" v="141252" />
	</node>
	<node lat="70.58044445667625" lon="26.867474608662643" id="-68333">
		<tag k="name" v="Langholmgrunnen" />
		<tag k="natural" v="shoal" />
		<tag k="place" v="locality" />
		<tag k="ssr:stedsnr" v="140617" />
	</node>
	<node lat="70.57188889873014" lon="26.98079123939643" id="-68334">
		<tag k="name" v="Kirkeneset - Girkonjárga" />
		<tag k="name:no" v="Kirkeneset" />
		<tag k="name:se" v="Girkonjárga" />
		<tag k="natural" v="cape" />
		<tag k="old_name:se" v="Girkunjarga" />
		<tag k="ssr:stedsnr" v="140631" />
	</node>
	<node lat="70.47378889704109" lon="27.080241220050905" id="-68342">
		<tag k="alt_name" v="Løktneset" />
		<tag k="name" v="Løktnes" />
		<tag k="natural" v="cape" />
		<tag k="ssr:stedsnr" v="141219" />
	</node>
	<node lat="71.07057778977479" lon="27.499699554786606" id="-68346">
		<tag k="name" v="Molla" />
		<tag k="natural" v="cape" />
		<tag k="ssr:stedsnr" v="141294" />
	</node>
	<node lat="70.65295279159457" lon="26.337694125680848" id="-68349">
		<tag k="alt_name:se" v="Rivdnjijávri" />
		<tag k="name" v="Fjordbotn - Rivdnjejávri" />
		<tag k="name:no" v="Fjordbotn" />
		<tag k="name:se" v="Rivdnjejávri" />
		<tag k="natural" v="bay" />
		<tag k="old_name:se" v="Rivdnjejavri" />
		<tag k="ssr:stedsnr" v="141548" />
	</node>
	<node lat="70.75246112199669" lon="27.27753566776788" id="-68351">
		<tag k="bay" v="fjord" />
		<tag k="name" v="Mårøyfjorden - Dáibáravuotna" />
		<tag k="name:no" v="Mårøyfjorden" />
		<tag k="name:se" v="Dáibáravuotna" />
		<tag k="natural" v="bay" />
		<tag k="old_name:se" v="Daibaravuodna" />
		<tag k="ssr:stedsnr" v="141656" />
	</node>
	<node lat="70.82328890022873" lon="27.4225161887892" id="-68354">
		<tag k="name" v="Båtvika" />
		<tag k="natural" v="bay" />
		<tag k="ssr:stedsnr" v="141746" />
	</node>
	<node lat="70.7936111239864" lon="27.21101624265527" id="-68355">
		<tag k="name" v="Nordstrand" />
		<tag k="natural" v="beach" />
		<tag k="ssr:stedsnr" v="141761" />
	</node>
	<node lat="70.8094083487425" lon="27.50560229302179" id="-68356">
		<tag k="name" v="Inner-Hovdenakkbukta" />
		<tag k="natural" v="bay" />
		<tag k="ssr:stedsnr" v="141769" />
	</node>
	<node lat="70.81550279500347" lon="27.45949951463299" id="-68358">
		<tag k="name" v="Ytter-Hovdenakkbukta" />
		<tag k="natural" v="bay" />
		<tag k="ssr:stedsnr" v="141774" />
	</node>
	<node lat="70.612944459308" lon="27.037546795148415" id="-68359">
		<tag k="name" v="Vester-Kalak" />
		<tag k="natural" v="bay" />
		<tag k="ssr:stedsnr" v="141676" />
	</node>
	<node lat="70.89419445361733" lon="27.339574544831393" id="-68362">
		<tag k="name" v="Hestvika" />
		<tag k="natural" v="bay" />
		<tag k="ssr:stedsnr" v="141730" />
	</node>
	<node lat="70.80089446066451" lon="27.70494669064186" id="-68364">
		<tag k="name" v="Valan" />
		<tag k="place" v="locality" />
		<tag k="ssr:stedsnr" v="141859" />
	</node>
	<node lat="70.73730278901968" lon="27.28699120095805" id="-68367">
		<tag k="name" v="Hjellneset" />
		<tag k="natural" v="cape" />
		<tag k="ssr:stedsnr" v="146334" />
	</node>
	<node lat="70.50541667824892" lon="26.734971833051354" id="-68368">
		<tag k="name" v="Måseneset" />
		<tag k="natural" v="cape" />
		<tag k="ssr:stedsnr" v="146722" />
	</node>
	<node lat="70.66869445978436" lon="27.17263288185377" id="-68371">
		<tag k="name" v="Finnbukta" />
		<tag k="natural" v="bay" />
		<tag k="ssr:stedsnr" v="147455" />
	</node>
	<node lat="70.48840001397957" lon="27.0371801044442" id="-68372">
		<tag k="name" v="Trollberggrunnen" />
		<tag k="natural" v="shoal" />
		<tag k="place" v="locality" />
		<tag k="ssr:stedsnr" v="150551" />
	</node>
	<node lat="70.54818612448949" lon="26.95590234544086" id="-68375">
		<tag k="name" v="Badebukta" />
		<tag k="natural" v="bay" />
		<tag k="ssr:stedsnr" v="150984" />
	</node>
	<node lat="71.01431667194473" lon="27.376702346314396" id="-68382">
		<tag k="name" v="Østre Skjøtningberg" />
		<tag k="natural" v="cape" />
		<tag k="ssr:stedsnr" v="151596" />
	</node>
	<node lat="70.67198889689817" lon="26.620863527224774" id="-68388">
		<tag k="name" v="Holmodden" />
		<tag k="natural" v="cape" />
		<tag k="ssr:stedsnr" v="151948" />
	</node>
	<node lat="70.4270444574203" lon="26.645296842973103" id="-68407">
		<tag k="alt_name:no" v="Elvevik" />
		<tag k="name" v="Elvevika - Johkaluokta" />
		<tag k="name:no" v="Elvevika" />
		<tag k="name:se" v="Johkaluokta" />
		<tag k="natural" v="bay" />
		<tag k="old_name:se" v="Jåkkaluokta" />
		<tag k="ssr:stedsnr" v="201173" />
	</node>
	<node lat="70.45185834190988" lon="26.6599273942389" id="-68414">
		<tag k="alt_name:no" v="Vannholmen" />
		<tag k="name" v="Vassholmen - Sávja" />
		<tag k="name:no" v="Vassholmen" />
		<tag k="name:se" v="Sávja" />
		<tag k="old_name:se" v="Savja" />
		<tag k="place" v="islet" />
		<tag k="ssr:stedsnr" v="201312" />
	</node>
	<node lat="70.48187500827065" lon="27.034274558650335" id="-68423">
		<tag k="name" v="Njárgasaš" />
		<tag k="name:se" v="Njárgasaš" />
		<tag k="natural" v="cape" />
		<tag k="old_name:se" v="Njargasaš" />
		<tag k="ssr:stedsnr" v="202220" />
	</node>
	<node lat="70.98730000827553" lon="27.533918958397376" id="-68424">
		<tag k="bay" v="fjord" />
		<tag k="name" v="Oksfjorden - Vuoksavuotna" />
		<tag k="name:no" v="Oksfjorden" />
		<tag k="name:se" v="Vuoksavuotna" />
		<tag k="natural" v="bay" />
		<tag k="old_name:se" v="Vuoksavuodna" />
		<tag k="ssr:stedsnr" v="202226" />
	</node>
	<node lat="71.10796667926597" lon="27.583874537433065" id="-68433">
		<tag k="name" v="Bøneset" />
		<tag k="natural" v="cape" />
		<tag k="ssr:stedsnr" v="202284" />
	</node>
	<node lat="70.42199445681955" lon="26.587810751441413" id="-68434">
		<tag k="name" v="Stolpeneset - Stoalponjárga" />
		<tag k="name:no" v="Stolpeneset" />
		<tag k="name:se" v="Stoalponjárga" />
		<tag k="natural" v="cape" />
		<tag k="old_name:se" v="Stoalpunjarga" />
		<tag k="ssr:stedsnr" v="202565" />
	</node>
	<node lat="70.89061111997769" lon="27.370807884735118" id="-68435">
		<tag k="bay" v="fjord" />
		<tag k="name" v="Kifjorden - Gihpovuotna" />
		<tag k="name:no" v="Kifjorden" />
		<tag k="name:se" v="Gihpovuotna" />
		<tag k="natural" v="bay" />
		<tag k="old_name:se" v="Gippuvuodna" />
		<tag k="ssr:stedsnr" v="202525" />
	</node>
	<node lat="70.66718889605738" lon="26.545360763707798" id="-68437">
		<tag k="name" v="Steinbukta" />
		<tag k="natural" v="bay" />
		<tag k="ssr:stedsnr" v="202630" />
	</node>
	<node lat="70.62161946104472" lon="27.092855111866413" id="-68440">
		<tag k="fixme" v="consider seamark:type=rock or natural=shoal" />
		<tag k="name" v="Storskjæret" />
		<tag k="place" v="islet" />
		<tag k="ssr:stedsnr" v="202716" />
	</node>
	<node lat="70.60806340543628" lon="27.09338686886894" id="-68441">
		<tag k="name" v="Sommarvika" />
		<tag k="natural" v="bay" />
		<tag k="ssr:stedsnr" v="202720" />
	</node>
	<node lat="70.59790278523569" lon="26.988749580327053" id="-68445">
		<tag k="name" v="Bjørnvika - Guovžaluokta" />
		<tag k="name:no" v="Bjørnvika" />
		<tag k="name:se" v="Guovžaluokta" />
		<tag k="natural" v="bay" />
		<tag k="ssr:stedsnr" v="202661" />
	</node>
	<node lat="70.56134445383984" lon="27.011096780676592" id="-68446">
		<tag k="name" v="Bergeneset" />
		<tag k="natural" v="cape" />
		<tag k="ssr:stedsnr" v="202665" />
	</node>
	<node lat="70.52100833953233" lon="26.8709940443804" id="-68447">
		<tag k="name" v="Kråkegrunnen" />
		<tag k="natural" v="shoal" />
		<tag k="place" v="locality" />
		<tag k="ssr:stedsnr" v="202667" />
	</node>
	<node lat="70.54116945027734" lon="26.598374640985675" id="-68449">
		<tag k="name" v="Myggvikneset" />
		<tag k="natural" v="cape" />
		<tag k="ssr:stedsnr" v="202670" />
	</node>
	<node lat="70.50996668219244" lon="26.99594123084096" id="-68450">
		<tag k="name" v="Store Auskarneset - Stuorra Hávskár" />
		<tag k="name:no" v="Store Auskarneset" />
		<tag k="name:se" v="Stuorra Hávskár" />
		<tag k="natural" v="cape" />
		<tag k="old_name:se" v="Havskar stuorra" />
		<tag k="ssr:stedsnr" v="202672" />
	</node>
	<node lat="70.88226112157325" lon="27.440285647218214" id="-68459">
		<tag k="name" v="Vikaholmen" />
		<tag k="place" v="islet" />
		<tag k="ssr:stedsnr" v="202763" />
	</node>
	<node lat="70.90563612334365" lon="27.375732884665965" id="-68461">
		<tag k="name" v="Kvitsteinneset" />
		<tag k="natural" v="cape" />
		<tag k="ssr:stedsnr" v="202784" />
	</node>
	<node lat="70.8145361249178" lon="27.481549518034008" id="-68464">
		<tag k="fixme" v="multiple name tags, choose one and add the other to alt_name" />
		<tag k="name" v="Hovdenakken;Hovdenakklubben" />
		<tag k="natural" v="cape" />
		<tag k="ssr:stedsnr" v="202813" />
	</node>
	<node lat="70.75198889954537" lon="27.25114953985672" id="-68466">
		<tag k="alt_name" v="Mårøysundet, l" />
		<tag k="name" v="Lille Mårøysundet" />
		<tag k="natural" v="strait" />
		<tag k="ssr:stedsnr" v="202821" />
	</node>
	<node lat="70.39866112412619" lon="26.584680175462207" id="-68467">
		<tag k="name" v="Skjelgrunnen" />
		<tag k="natural" v="shoal" />
		<tag k="place" v="locality" />
		<tag k="ssr:stedsnr" v="206182" />
	</node>
	<node lat="70.69041112121594" lon="26.476933000068783" id="-68468">
		<tag k="name" v="Langøyra" />
		<tag k="natural" v="shoal" />
		<tag k="place" v="locality" />
		<tag k="ssr:stedsnr" v="206671" />
	</node>
	<node lat="70.42794168084329" lon="26.585580194472467" id="-68469">
		<tag k="name" v="Indre Hamn" />
		<tag k="natural" v="bay" />
		<tag k="ssr:stedsnr" v="206683" />
	</node>
	<node lat="70.92160556781064" lon="27.409313439618842" id="-68472">
		<tag k="fixme" v="multiple name tags, choose one and add the other to alt_name" />
		<tag k="name" v="Kifjordpollen;Kifjordvågen" />
		<tag k="natural" v="bay" />
		<tag k="ssr:stedsnr" v="207172" />
	</node>
	<node lat="70.73191945627589" lon="27.313716198790058" id="-68473">
		<tag k="name" v="Jervelvneset" />
		<tag k="natural" v="cape" />
		<tag k="ssr:stedsnr" v="207343" />
	</node>
	<node lat="70.65502500599081" lon="26.60952742349943" id="-68475">
		<tag k="name" v="Veidnesklubben" />
		<tag k="natural" v="cape" />
		<tag k="ssr:stedsnr" v="208610" />
	</node>
	<node lat="70.97603334754331" lon="27.50703287546614" id="-68476">
		<tag k="name" v="Sandvikneset" />
		<tag k="natural" v="cape" />
		<tag k="ssr:stedsnr" v="208639" />
	</node>
	<node lat="70.49550001079243" lon="27.035235662222945" id="-68481">
		<tag k="name" v="Geitvika" />
		<tag k="natural" v="bay" />
		<tag k="ssr:stedsnr" v="212535" />
	</node>
	<node lat="70.48238056853175" lon="27.03886066847698" id="-68482">
		<tag k="name" v="Forbannervik" />
		<tag k="natural" v="bay" />
		<tag k="ssr:stedsnr" v="212549" />
	</node>
	<node lat="70.58975834641467" lon="27.27033840442752" id="-68484">
		<tag k="name" v="Slipsteinvika" />
		<tag k="natural" v="bay" />
		<tag k="ssr:stedsnr" v="212846" />
	</node>
	<node lat="70.58624723533751" lon="27.243146743976407" id="-68490">
		<tag k="name" v="Øra" />
		<tag k="natural" v="cape" />
		<tag k="ssr:stedsnr" v="273829" />
	</node>
	<node lat="71.02037778476704" lon="27.40287734087451" id="-68494">
		<tag k="name" v="Lille Skjøtningberg" />
		<tag k="natural" v="bay" />
		<tag k="ssr:stedsnr" v="273932" />
	</node>
	<node lat="70.95880834450597" lon="27.523371735302618" id="-68495">
		<tag k="name" v="Bergenes" />
		<tag k="natural" v="cape" />
		<tag k="ssr:stedsnr" v="273950" />
	</node>
	<node lat="70.47942779200706" lon="26.83713292307794" id="-68499">
		<tag k="name" v="Eikvika - Áikaluokta" />
		<tag k="name:no" v="Eikvika" />
		<tag k="name:se" v="Áikaluokta" />
		<tag k="natural" v="bay" />
		<tag k="old_name:se" v="Aikaluokta" />
		<tag k="ssr:stedsnr" v="322294" />
	</node>
	<node lat="70.4033944507998" lon="26.519682979811712" id="-68503">
		<tag k="alt_name:no" v="Springarvika, in" />
		<tag k="name" v="Indre Springarvika - Fáhkanluokta" />
		<tag k="name:no" v="Indre Springarvika" />
		<tag k="name:se" v="Fáhkanluokta" />
		<tag k="natural" v="bay" />
		<tag k="old_name:se" v="Fakkanluokta" />
		<tag k="ssr:stedsnr" v="322150" />
	</node>
	<node lat="70.4163805638235" lon="26.703382945635532" id="-68506">
		<tag k="alt_name" v="Seiviknes" />
		<tag k="name" v="Seivikneset" />
		<tag k="natural" v="cape" />
		<tag k="ssr:stedsnr" v="322161" />
	</node>
	<node lat="71.06154445128962" lon="27.588410642308347" id="-68523">
		<tag k="name" v="Gidnenjárga" />
		<tag k="name:se" v="Gidnenjárga" />
		<tag k="natural" v="cape" />
		<tag k="ssr:stedsnr" v="323281" />
	</node>
	<node lat="71.1007583414595" lon="27.54464953543918" id="-68524">
		<tag k="fixme" v="consider seamark:type=rock or natural=shoal" />
		<tag k="name" v="Elseskjæret" />
		<tag k="place" v="islet" />
		<tag k="ssr:stedsnr" v="323283" />
	</node>
	<node lat="70.76981667924781" lon="26.671635765660394" id="-68525">
		<tag k="alt_name" v="Rokvika, in" />
		<tag k="name" v="Indre Rokvika" />
		<tag k="natural" v="bay" />
		<tag k="ssr:stedsnr" v="323234" />
	</node>
	<node lat="70.48380834284222" lon="27.085155095898095" id="-68526">
		<tag k="name" v="Leirbukta" />
		<tag k="natural" v="bay" />
		<tag k="ssr:stedsnr" v="323235" />
	</node>
	<node lat="70.97884167547565" lon="27.19414125797853" id="-68529">
		<tag k="name" v="Lille-Finnkjerka" />
		<tag k="natural" v="cape" />
		<tag k="ssr:stedsnr" v="323242" />
	</node>
	<node lat="71.0901722283939" lon="27.513941207922553" id="-68535">
		<tag k="name" v="Pipekeila" />
		<tag k="natural" v="bay" />
		<tag k="ssr:stedsnr" v="323286" />
	</node>
	<node lat="71.00585279019077" lon="27.51160507847633" id="-68538">
		<tag k="name" v="Otervika" />
		<tag k="natural" v="bay" />
		<tag k="ssr:stedsnr" v="323512" />
	</node>
	<node lat="70.72893612113198" lon="26.63359410130415" id="-68539">
		<tag k="name" v="Langneset" />
		<tag k="natural" v="cape" />
		<tag k="ssr:stedsnr" v="323618" />
	</node>
	<node lat="70.60756712379865" lon="27.008250558037986" id="-68540">
		<tag k="name" v="Stamneset" />
		<tag k="natural" v="cape" />
		<tag k="ssr:stedsnr" v="323631" />
	</node>
	<node lat="70.65872501185899" lon="26.60323299031126" id="-68541">
		<tag k="name" v="Hamnnes - Geassenjárga" />
		<tag k="name:no" v="Hamnnes" />
		<tag k="name:se" v="Geassenjárga" />
		<tag k="natural" v="cape" />
		<tag k="ssr:stedsnr" v="323633" />
	</node>
	<node lat="70.66250000532317" lon="26.615849654403576" id="-68542">
		<tag k="name" v="Veidnesgrunnen" />
		<tag k="natural" v="shoal" />
		<tag k="place" v="locality" />
		<tag k="ssr:stedsnr" v="323634" />
	</node>
	<node lat="70.55063612586653" lon="26.984952342243968" id="-68543">
		<tag k="name" v="Stallneset - Stállonjárga" />
		<tag k="name:no" v="Stallneset" />
		<tag k="name:se" v="Stállonjárga" />
		<tag k="natural" v="cape" />
		<tag k="old_name:se" v="Stallunjarga" />
		<tag k="ssr:stedsnr" v="323650" />
	</node>
	<node lat="70.51481667564829" lon="26.844632925387526" id="-68544">
		<tag k="name" v="Eidgrunnen" />
		<tag k="natural" v="shoal" />
		<tag k="place" v="locality" />
		<tag k="ssr:stedsnr" v="323672" />
	</node>
	<node lat="70.8828833494636" lon="27.385682870332584" id="-68547">
		<tag k="name" v="Skjellbukta - Gávvaluokta" />
		<tag k="name:no" v="Skjellbukta" />
		<tag k="name:se" v="Gávvaluokta" />
		<tag k="natural" v="bay" />
		<tag k="old_name:se" v="Gavvaluokta" />
		<tag k="ssr:stedsnr" v="323757" />
	</node>
	<node lat="70.88022501187538" lon="27.413935654760472" id="-68548">
		<tag k="fixme" v="consider seamark:type=rock or natural=shoal" />
		<tag k="name" v="Vikaskjæret" />
		<tag k="place" v="islet" />
		<tag k="ssr:stedsnr" v="323758" />
	</node>
	<node lat="70.74824205715515" lon="27.325510670793335" id="-68552">
		<tag k="name" v="Nisneset" />
		<tag k="natural" v="cape" />
		<tag k="ssr:stedsnr" v="323800" />
	</node>
	<node lat="70.4948250146221" lon="26.77413015413845" id="-68554">
		<tag k="name" v="Hamna" />
		<tag k="natural" v="bay" />
		<tag k="ssr:stedsnr" v="327672" />
	</node>
	<node lat="70.54635001148111" lon="26.95846068409614" id="-68557">
		<tag k="name" v="Skjånesodden" />
		<tag k="natural" v="cape" />
		<tag k="ssr:stedsnr" v="327795" />
	</node>
	<node lat="70.91779167389451" lon="27.115544023082464" id="-68558">
		<tag k="name" v="Laukvikneset" />
		<tag k="natural" v="cape" />
		<tag k="ssr:stedsnr" v="328041" />
	</node>
	<node lat="70.47877778882783" lon="26.85485515526566" id="-68559">
		<tag k="name" v="Bjørnneset" />
		<tag k="natural" v="cape" />
		<tag k="ssr:stedsnr" v="328052" />
	</node>
	<node lat="70.4876472326253" lon="26.91453291126054" id="-68560">
		<tag k="fixme" v="consider seamark:type=rock or natural=shoal" />
		<tag k="name" v="Hammarnesskjæret" />
		<tag k="place" v="islet" />
		<tag k="ssr:stedsnr" v="328061" />
	</node>
	<node lat="71.03266945920303" lon="27.33446067746834" id="-68562">
		<tag k="fixme" v="multiple name tags, choose one and add the other to alt_name; consider seamark:type=rock or natural=shoal" />
		<tag k="name" v="Fuglebergskjæret;Fuglefjellskjæret" />
		<tag k="place" v="islet" />
		<tag k="ssr:stedsnr" v="329844" />
	</node>
	<node lat="70.50927779118769" lon="27.006310683135954" id="-68566">
		<tag k="name" v="Nordre Skogviklandet" />
		<tag k="natural" v="beach" />
		<tag k="ssr:stedsnr" v="332527" />
	</node>
	<node lat="70.67297223266095" lon="26.59908019519209" id="-68569">
		<tag k="name" v="Holmeidet" />
		<tag k="place" v="locality" />
		<tag k="ssr:stedsnr" v="333930" />
	</node>
	<node lat="70.42169445811987" lon="26.507196871534315" id="-68591">
		<tag k="name" v="Klokkarvika" />
		<tag k="natural" v="bay" />
		<tag k="ssr:stedsnr" v="383193" />
	</node>
	<node lat="70.97703890037768" lon="27.507385655680956" id="-68596">
		<tag k="name" v="Sandvika" />
		<tag k="natural" v="bay" />
		<tag k="ssr:stedsnr" v="383249" />
	</node>
	<node lat="70.48985278796623" lon="26.55247464397136" id="-68607">
		<tag k="name" v="Korsnesbukta" />
		<tag k="natural" v="bay" />
		<tag k="ssr:stedsnr" v="383391" />
	</node>
	<node lat="70.49553889843735" lon="26.557907959896145" id="-68608">
		<tag k="name" v="Gomuluokta" />
		<tag k="name:se" v="Gomuluokta" />
		<tag k="natural" v="bay" />
		<tag k="old_name:se" v="Gåmoluokta" />
		<tag k="ssr:stedsnr" v="383398" />
	</node>
	<node lat="70.4334500093078" lon="26.626969059782773" id="-68610">
		<tag k="name" v="Straumholmen - Rávdnjesuolu" />
		<tag k="name:no" v="Straumholmen" />
		<tag k="name:se" v="Rávdnjesuolu" />
		<tag k="old_name:se" v="Ravdnjesuolo" />
		<tag k="place" v="islet" />
		<tag k="ssr:stedsnr" v="383343" />
	</node>
	<node lat="70.55933611628357" lon="25.934035834448192" id="-68614">
		<tag k="name" v="Spierttanjárga - Sværholthalvøya" />
		<tag k="name:no" v="Sværholthalvøya" />
		<tag k="name:se" v="Spierttanjárga" />
		<tag k="natural" v="cape" />
		<tag k="old_name:se" v="Spiertanjarga" />
		<tag k="ssr:stedsnr" v="383525" />
	</node>
	<node lat="70.59943334128522" lon="26.622794074667723" id="-68615">
		<tag k="name" v="Aronneset - Árjjonjárga" />
		<tag k="name:no" v="Aronneset" />
		<tag k="name:se" v="Árjjonjárga" />
		<tag k="natural" v="cape" />
		<tag k="old_name:se" v="Arjunjarga" />
		<tag k="ssr:stedsnr" v="383623" />
	</node>
	<node lat="70.58376945501483" lon="26.93318292078293" id="-68616">
		<tag k="name" v="Lille Brattholmen - Čearggadat" />
		<tag k="name:no" v="Lille Brattholmen" />
		<tag k="name:se" v="Čearggadat" />
		<tag k="old_name:no" v="Brattholmen, l" />
		<tag k="old_name:se" v="Čærgadat" />
		<tag k="place" v="islet" />
		<tag k="ssr:stedsnr" v="383635" />
	</node>
	<node lat="70.58491667962502" lon="26.62573575825857" id="-68618">
		<tag k="name" v="Seigrunnen" />
		<tag k="natural" v="shoal" />
		<tag k="place" v="locality" />
		<tag k="ssr:stedsnr" v="383641" />
	</node>
	<node lat="70.58485001540134" lon="27.251474534557403" id="-68620">
		<tag k="name" v="Komagneset" />
		<tag k="natural" v="cape" />
		<tag k="ssr:stedsnr" v="383728" />
	</node>
	<node lat="70.8991583469639" lon="27.191624572485374" id="-68621">
		<tag k="name" v="Gartemolla" />
		<tag k="natural" v="bay" />
		<tag k="ssr:stedsnr" v="383771" />
	</node>
	<node lat="70.99131389909641" lon="27.27966624891664" id="-68629">
		<tag k="name" v="Rødbergan" />
		<tag k="natural" v="cape" />
		<tag k="ssr:stedsnr" v="384230" />
	</node>
	<node lat="70.84481112453291" lon="26.852252411406603" id="-68633">
		<tag k="name" v="Mårøyskallen" />
		<tag k="natural" v="shoal" />
		<tag k="place" v="locality" />
		<tag k="ssr:stedsnr" v="384246" />
	</node>
	<node lat="70.58853889752436" lon="26.965463477013508" id="-68640">
		<tag k="name" v="Mannskarvikneset" />
		<tag k="natural" v="cape" />
		<tag k="ssr:stedsnr" v="388824" />
	</node>
	<node lat="70.496441676151" lon="26.748588491291063" id="-68641">
		<tag k="name" v="Vestervågen" />
		<tag k="natural" v="bay" />
		<tag k="ssr:stedsnr" v="389123" />
	</node>
	<node lat="70.80232223848043" lon="27.694424461478654" id="-68643">
		<tag k="alt_name" v="Postnes" />
		<tag k="name" v="Postneset" />
		<tag k="natural" v="cape" />
		<tag k="ssr:stedsnr" v="389270" />
	</node>
	<node lat="70.42410000942024" lon="26.587424626142447" id="-68644">
		<tag k="name" v="Måseholmen" />
		<tag k="place" v="islet" />
		<tag k="ssr:stedsnr" v="390225" />
	</node>
	<node lat="70.68081945291766" lon="27.147521774413747" id="-68645">
		<tag k="name" v="Skoleneset" />
		<tag k="natural" v="cape" />
		<tag k="ssr:stedsnr" v="390461" />
	</node>
	<node lat="70.60888334269472" lon="27.033785676085426" id="-68646">
		<tag k="fixme" v="multiple name tags, choose one and add the other to alt_name" />
		<tag k="name" v="Store Molla;Buktamolla" />
		<tag k="natural" v="bay" />
		<tag k="ssr:stedsnr" v="390422" />
	</node>
	<node lat="70.96353889680688" lon="27.304585683769293" id="-68648">
		<tag k="name" v="Sprengsnesbåen" />
		<tag k="natural" v="shoal" />
		<tag k="place" v="locality" />
		<tag k="ssr:stedsnr" v="390992" />
	</node>
	<node lat="70.56698612379458" lon="26.973805147819334" id="-68651">
		<tag k="name" v="Lebesbybukta" />
		<tag k="natural" v="bay" />
		<tag k="ssr:stedsnr" v="393995" />
	</node>
	<node lat="70.89665278771224" lon="27.219702352509255" id="-68661">
		<tag k="name" v="Nils Monsa-keila" />
		<tag k="natural" v="bay" />
		<tag k="ssr:stedsnr" v="394821" />
	</node>
	<node lat="71.02187501504204" lon="27.39839121572427" id="-68662">
		<tag k="name" v="Lille Skjøtningbergodden" />
		<tag k="natural" v="cape" />
		<tag k="ssr:stedsnr" v="394923" />
	</node>
	<node lat="71.02175000670974" lon="27.410677334427533" id="-68663">
		<tag k="name" v="Oterkeila" />
		<tag k="natural" v="bay" />
		<tag k="ssr:stedsnr" v="394927" />
	</node>
	<node lat="70.42510556420203" lon="26.652763511973877" id="-68666">
		<tag k="fixme" v="consider seamark:type=rock or natural=shoal" />
		<tag k="name" v="Bohtoraslássá" />
		<tag k="name:se" v="Bohtoraslássá" />
		<tag k="place" v="islet" />
		<tag k="ssr:stedsnr" v="395364" />
	</node>
	<node lat="70.43560556616042" lon="26.745110716078234" id="-68667">
		<tag k="name" v="Krokvik" />
		<tag k="natural" v="bay" />
		<tag k="ssr:stedsnr" v="395699" />
	</node>
	<node lat="70.94880556640427" lon="27.29379124161268" id="-68676">
		<tag k="alt_name" v="Snappvika" />
		<tag k="name" v="Seglvika" />
		<tag k="natural" v="bay" />
		<tag k="ssr:stedsnr" v="444187" />
	</node>
	<node lat="70.44079167965457" lon="26.57533574574007" id="-68682">
		<tag k="name" v="Stolpeneset - Gáđis" />
		<tag k="name:no" v="Stolpeneset" />
		<tag k="name:se" v="Gáđis" />
		<tag k="natural" v="cape" />
		<tag k="old_name:se" v="Gadis" />
		<tag k="ssr:stedsnr" v="444298" />
	</node>
	<node lat="71.04215834468489" lon="27.499255086056184" id="-68694">
		<tag k="name" v="Kvitnakkodden" />
		<tag k="natural" v="cape" />
		<tag k="ssr:stedsnr" v="444466" />
	</node>
	<node lat="70.59046945093264" lon="26.970630144347247" id="-68695">
		<tag k="name" v="Mannskarvika - Olmmoščuohppanluokta" />
		<tag k="name:no" v="Mannskarvika" />
		<tag k="name:se" v="Olmmoščuohppanluokta" />
		<tag k="natural" v="bay" />
		<tag k="old_name:se" v="Ålmuščuoppanluokta" />
		<tag k="ssr:stedsnr" v="444615" />
	</node>
	<node lat="70.72627500904358" lon="27.099041246490106" id="-68700">
		<tag k="name" v="Holvika - Ráigeluokta" />
		<tag k="name:no" v="Holvika" />
		<tag k="name:se" v="Ráigeluokta" />
		<tag k="natural" v="bay" />
		<tag k="old_name:se" v="Raigeluokta" />
		<tag k="ssr:stedsnr" v="445693" />
	</node>
	<node lat="70.61995001309116" lon="27.13998289148782" id="-68702">
		<tag k="fixme" v="consider seamark:type=rock or natural=shoal" />
		<tag k="name" v="Lilleskjæret" />
		<tag k="place" v="islet" />
		<tag k="ssr:stedsnr" v="445717" />
	</node>
	<node lat="70.83251112461473" lon="27.28826622125386" id="-68705">
		<tag k="name" v="Ersneset - Skuohkegeahči" />
		<tag k="name:no" v="Ersneset" />
		<tag k="name:se" v="Skuohkegeahči" />
		<tag k="natural" v="cape" />
		<tag k="old_name:se" v="Skuokkegæčči" />
		<tag k="ssr:stedsnr" v="445782" />
	</node>
	<node lat="70.90731112116069" lon="26.729549662913985" id="-68707">
		<tag k="name" v="Storkeila" />
		<tag k="natural" v="bay" />
		<tag k="ssr:stedsnr" v="445134" />
	</node>
	<node lat="70.89342778534117" lon="26.713782981787038" id="-68708">
		<tag k="alt_name" v="Hellarvika, yt" />
		<tag k="name" v="Ytre Hellarvika" />
		<tag k="natural" v="bay" />
		<tag k="ssr:stedsnr" v="445136" />
	</node>
	<node lat="70.96082223162513" lon="26.693602438404525" id="-68710">
		<tag k="name" v="Sværholtbukta" />
		<tag k="natural" v="bay" />
		<tag k="ssr:stedsnr" v="445148" />
	</node>
	<node lat="70.95516112290693" lon="26.697249671863407" id="-68711">
		<tag k="name" v="Oterstokkeila" />
		<tag k="natural" v="bay" />
		<tag k="ssr:stedsnr" v="445153" />
	</node>
	<node lat="70.99060834557281" lon="27.504057870366406" id="-68712">
		<tag k="fixme" v="multiple name tags, choose one and add the other to alt_name" />
		<tag k="name" v="Stokkvika;Store Stokkvika" />
		<tag k="natural" v="bay" />
		<tag k="ssr:stedsnr" v="445235" />
	</node>
	<node lat="70.98119445754836" lon="27.188880139165825" id="-68713">
		<tag k="fixme" v="consider seamark:type=rock or natural=shoal" />
		<tag k="name" v="Finnkjerkskjæret" />
		<tag k="place" v="islet" />
		<tag k="ssr:stedsnr" v="445237" />
	</node>
	<node lat="70.8390583383175" lon="26.665685777633836" id="-68715">
		<tag k="name" v="Kvalvikneset" />
		<tag k="natural" v="cape" />
		<tag k="ssr:stedsnr" v="445244" />
	</node>
	<node lat="70.68385278975515" lon="26.62584966370848" id="-68719">
		<tag k="name" v="Skipsnova" />
		<tag k="natural" v="cape" />
		<tag k="ssr:stedsnr" v="445618" />
	</node>
	<node lat="70.66953334267488" lon="26.514344101483612" id="-68720">
		<tag k="name" v="Bjørnnes - Guovžanjárga" />
		<tag k="name:no" v="Bjørnnes" />
		<tag k="name:se" v="Guovžanjárga" />
		<tag k="natural" v="cape" />
		<tag k="old_name:se" v="Guovžanjarga" />
		<tag k="ssr:stedsnr" v="445619" />
	</node>
	<node lat="70.61217982928423" lon="27.078700915766856" id="-68721">
		<tag k="fixme" v="multiple name tags, choose one and add the other to alt_name" />
		<tag k="name" v="Brennvika;Brennbukta - Buollánluokta" />
		<tag k="name:no" v="Brennvika;Brennbukta" />
		<tag k="name:se" v="Buollánluokta" />
		<tag k="natural" v="bay" />
		<tag k="old_name:se" v="Buollanluokta" />
		<tag k="ssr:stedsnr" v="445730" />
	</node>
	<node lat="70.36781667813035" lon="26.499752403663305" id="-68723">
		<tag k="alt_name:no" v="Storfjord" />
		<tag k="bay" v="fjord" />
		<tag k="name" v="Storfjorden - Stuorravuotna" />
		<tag k="name:no" v="Storfjorden" />
		<tag k="name:se" v="Stuorravuotna" />
		<tag k="natural" v="bay" />
		<tag k="old_name:se" v="Stuorravuodna" />
		<tag k="ssr:stedsnr" v="445552" />
	</node>
	<node lat="70.653683339979" lon="26.61649131406374" id="-68728">
		<tag k="name" v="Hamnneset" />
		<tag k="natural" v="cape" />
		<tag k="ssr:stedsnr" v="445644" />
	</node>
	<node lat="70.87267501062446" lon="27.461955069118762" id="-68730">
		<tag k="name" v="Nordmannsetklubben - Riimmanjárga" />
		<tag k="name:no" v="Nordmannsetklubben" />
		<tag k="name:se" v="Riimmanjárga" />
		<tag k="natural" v="cape" />
		<tag k="old_name:se" v="Riimanjarga" />
		<tag k="ssr:stedsnr" v="445762" />
	</node>
	<node lat="70.86036946025237" lon="27.429207853918857" id="-68731">
		<tag k="name" v="Holmegrunnen" />
		<tag k="natural" v="shoal" />
		<tag k="place" v="locality" />
		<tag k="ssr:stedsnr" v="445787" />
	</node>
	<node lat="70.78015834429945" lon="27.231780122616023" id="-68733">
		<tag k="name" v="Mårøysundet" />
		<tag k="natural" v="strait" />
		<tag k="ssr:stedsnr" v="445793" />
	</node>
	<node lat="70.76265835015941" lon="27.3066412038612" id="-68736">
		<tag k="name" v="Ottvika" />
		<tag k="natural" v="bay" />
		<tag k="ssr:stedsnr" v="445819" />
	</node>
	<node lat="70.38251667578463" lon="26.59410794749284" id="-68737">
		<tag k="name" v="Makkneset" />
		<tag k="natural" v="cape" />
		<tag k="ssr:stedsnr" v="510742" />
	</node>
	<node lat="70.39446945063803" lon="26.595482962056433" id="-68739">
		<tag k="alt_name:no" v="Adamsfjord" />
		<tag k="bay" v="fjord" />
		<tag k="name" v="Adamsfjorden - Áttánvuotna" />
		<tag k="name:no" v="Adamsfjorden" />
		<tag k="name:se" v="Áttánvuotna" />
		<tag k="natural" v="bay" />
		<tag k="old_name:se" v="Addanvuodna" />
		<tag k="ssr:stedsnr" v="504133" />
	</node>
	<node lat="70.41826112224194" lon="26.724102377175868" id="-68741">
		<tag k="alt_name:no" v="Garnvik" />
		<tag k="name" v="Garnvika - Fierbmeluokta" />
		<tag k="name:no" v="Garnvika" />
		<tag k="name:se" v="Fierbmeluokta" />
		<tag k="natural" v="bay" />
		<tag k="ssr:stedsnr" v="504155" />
	</node>
	<node lat="70.49032223130396" lon="26.76470794945714" id="-68742">
		<tag k="name" v="Bonøysundet" />
		<tag k="natural" v="strait" />
		<tag k="ssr:stedsnr" v="504354" />
	</node>
	<node lat="70.47322501470656" lon="26.621652401410643" id="-68745">
		<tag k="bay" v="fjord" />
		<tag k="name" v="Laksefjorden - Lágesvuotna" />
		<tag k="name:no" v="Laksefjorden" />
		<tag k="name:se" v="Lágesvuotna" />
		<tag k="natural" v="bay" />
		<tag k="old_name:se" v="Lagesvuodna" />
		<tag k="ssr:stedsnr" v="504286" />
	</node>
	<node lat="70.46803612134225" lon="26.772774612153857" id="-68746">
		<tag k="alt_name:no" v="Sommervik" />
		<tag k="name" v="Sommarvika - Geassegohppi" />
		<tag k="name:no" v="Sommarvika" />
		<tag k="name:se" v="Geassegohppi" />
		<tag k="natural" v="bay" />
		<tag k="old_name:se" v="Gæssegåppi" />
		<tag k="ssr:stedsnr" v="504295" />
	</node>
	<node lat="70.43240279184782" lon="26.52176353019014" id="-68747">
		<tag k="name" v="Reinagnvikneset - Boazoluohnjárga" />
		<tag k="name:no" v="Reinagnvikneset" />
		<tag k="name:se" v="Boazoluohnjárga" />
		<tag k="natural" v="cape" />
		<tag k="old_name:se" v="Boazuluohnjarga" />
		<tag k="ssr:stedsnr" v="504313" />
	</node>
	<node lat="70.85776389629413" lon="26.660149660950577" id="-68749">
		<tag k="alt_name" v="Grunnvikneset, yt" />
		<tag k="name" v="Ytre Grunnvikneset" />
		<tag k="natural" v="cape" />
		<tag k="ssr:stedsnr" v="505140" />
	</node>
	<node lat="70.88115001200862" lon="26.70696909975854" id="-68750">
		<tag k="name" v="Nubbeneset" />
		<tag k="natural" v="cape" />
		<tag k="ssr:stedsnr" v="505141" />
	</node>
	<node lat="71.06274445313629" lon="27.488524539147992" id="-68753">
		<tag k="alt_name" v="Engelsknæringen" />
		<tag k="name" v="Engelsnæringen" />
		<tag k="natural" v="cape" />
		<tag k="ssr:stedsnr" v="505284" />
	</node>
	<node lat="70.95516945745685" lon="27.124260712668214" id="-68757">
		<tag k="name" v="Kjemneset" />
		<tag k="natural" v="cape" />
		<tag k="ssr:stedsnr" v="505229" />
	</node>
	<node lat="70.95829723450804" lon="27.525549517590914" id="-68758">
		<tag k="name" v="Valneset" />
		<tag k="natural" v="cape" />
		<tag k="ssr:stedsnr" v="505232" />
	</node>
	<node lat="70.76014444985093" lon="26.6820246513453" id="-68761">
		<tag k="name" v="Storkeila" />
		<tag k="natural" v="bay" />
		<tag k="ssr:stedsnr" v="505240" />
	</node>
	<node lat="70.65851389591569" lon="26.407991330502274" id="-68778">
		<tag k="alt_name" v="Vollnes" />
		<tag k="name" v="Vollneset" />
		<tag k="natural" v="cape" />
		<tag k="ssr:stedsnr" v="505543" />
	</node>
	<node lat="70.62177778944323" lon="26.93425236601662" id="-68782">
		<tag k="name" v="Nordskjærbåen" />
		<tag k="natural" v="shoal" />
		<tag k="place" v="locality" />
		<tag k="ssr:stedsnr" v="505626" />
	</node>
	<node lat="70.6147027907128" lon="26.926063485781935" id="-68783">
		<tag k="fixme" v="consider seamark:type=rock or natural=shoal" />
		<tag k="name" v="Nordskjæran - Davvelásis" />
		<tag k="name:no" v="Nordskjæran" />
		<tag k="name:se" v="Davvelásis" />
		<tag k="old_name:se" v="Davvelasis" />
		<tag k="place" v="islet" />
		<tag k="ssr:stedsnr" v="505627" />
	</node>
	<node lat="70.5745972355202" lon="26.956769036765944" id="-68784">
		<tag k="name" v="Løkholmneset" />
		<tag k="natural" v="cape" />
		<tag k="ssr:stedsnr" v="505638" />
	</node>
	<node lat="70.5260111243371" lon="26.990874580900687" id="-68785">
		<tag k="name" v="Kvitneset" />
		<tag k="natural" v="cape" />
		<tag k="ssr:stedsnr" v="505657" />
	</node>
	<node lat="70.79423612446513" lon="27.167780128015938" id="-68791">
		<tag k="name" v="Skarvberget" />
		<tag k="natural" v="cape" />
		<tag k="ssr:stedsnr" v="505797" />
	</node>
	<node lat="70.80488057218555" lon="27.6697966928059" id="-68797">
		<tag k="alt_name" v="Vargvik" />
		<tag k="name" v="Vargvika" />
		<tag k="natural" v="bay" />
		<tag k="ssr:stedsnr" v="505861" />
	</node>
	<node lat="70.87987050604481" lon="27.37512322517709" id="-68798">
		<tag k="name" v="Stokkvika" />
		<tag k="natural" v="bay" />
		<tag k="ssr:stedsnr" v="510119" />
	</node>
	<node lat="70.87925834709687" lon="27.442160631561144" id="-68802">
		<tag k="name" v="Vikaholmgrunnen" />
		<tag k="natural" v="shoal" />
		<tag k="place" v="locality" />
		<tag k="ssr:stedsnr" v="511164" />
	</node>
	<node lat="70.4801000151833" lon="27.05408566532533" id="-68815">
		<tag k="name" v="Løktneset - Lavvanjárga" />
		<tag k="name:no" v="Løktneset" />
		<tag k="name:se" v="Lavvanjárga" />
		<tag k="natural" v="cape" />
		<tag k="ssr:stedsnr" v="515555" />
	</node>
	<node lat="70.36300278600932" lon="26.523438519326994" id="-68826">
		<tag k="name" v="Indre-Elvebukt" />
		<tag k="natural" v="bay" />
		<tag k="ssr:stedsnr" v="517547" />
	</node>
	<node lat="70.42399723397085" lon="26.735069059211146" id="-68828">
		<tag k="name" v="Ytre Molvik" />
		<tag k="natural" v="bay" />
		<tag k="ssr:stedsnr" v="517684" />
	</node>
	<node lat="70.45613057172123" lon="26.760888487634787" id="-68833">
		<tag k="name" v="Elvevik" />
		<tag k="natural" v="bay" />
		<tag k="ssr:stedsnr" v="542737" />
	</node>
	<node lat="70.37973334078437" lon="26.546216298965074" id="-68835">
		<tag k="name" v="Kobbvika - Njuorjoluokta" />
		<tag k="name:no" v="Kobbvika" />
		<tag k="name:se" v="Njuorjoluokta" />
		<tag k="natural" v="bay" />
		<tag k="old_name:se" v="Njuorjuluokta" />
		<tag k="ssr:stedsnr" v="564138" />
	</node>
	<node lat="70.38071389545722" lon="26.495538535100078" id="-68836">
		<tag k="name" v="Gávva" />
		<tag k="name:se" v="Gávva" />
		<tag k="natural" v="bay" />
		<tag k="old_name:se" v="Gavva" />
		<tag k="ssr:stedsnr" v="564140" />
	</node>
	<node lat="70.39205834417767" lon="26.578935746590247" id="-68839">
		<tag k="name" v="Adamsfjordholmen" />
		<tag k="place" v="islet" />
		<tag k="ssr:stedsnr" v="564153" />
	</node>
	<node lat="70.4281027905726" lon="26.583255195119037" id="-68842">
		<tag k="name" v="Innervågen - Siskkitváhki" />
		<tag k="name:no" v="Innervågen" />
		<tag k="name:se" v="Siskkitváhki" />
		<tag k="natural" v="bay" />
		<tag k="old_name:se" v="Siskitvakki" />
		<tag k="ssr:stedsnr" v="564326" />
	</node>
	<node lat="70.47904723396108" lon="26.91086902222349" id="-68843">
		<tag k="name" v="Hammarnes" />
		<tag k="natural" v="cape" />
		<tag k="ssr:stedsnr" v="564299" />
	</node>
	<node lat="70.96751112023415" lon="27.55837451879404" id="-68850">
		<tag k="name" v="Russeneset" />
		<tag k="natural" v="cape" />
		<tag k="ssr:stedsnr" v="565186" />
	</node>
	<node lat="70.86131112060481" lon="26.81349964961069" id="-68864">
		<tag k="name" v="Storskallen" />
		<tag k="natural" v="shoal" />
		<tag k="place" v="locality" />
		<tag k="ssr:stedsnr" v="566137" />
	</node>
	<node lat="70.86626667342536" lon="26.67490521089813" id="-68865">
		<tag k="name" v="Ytre Saltijærvivika" />
		<tag k="natural" v="bay" />
		<tag k="ssr:stedsnr" v="566139" />
	</node>
	<node lat="70.84570556205281" lon="26.663574662788857" id="-68866">
		<tag k="name" v="Kvalvika" />
		<tag k="natural" v="bay" />
		<tag k="ssr:stedsnr" v="566142" />
	</node>
	<node lat="70.59088056632875" lon="26.910657919473465" id="-68870">
		<tag k="name" v="Langholmen - Ratnjan" />
		<tag k="name:no" v="Langholmen" />
		<tag k="name:se" v="Ratnjan" />
		<tag k="old_name:se" v="Radnjan" />
		<tag k="place" v="island" />
		<tag k="ssr:stedsnr" v="565640" />
	</node>
	<node lat="70.5020416752571" lon="26.76684405368957" id="-68872">
		<tag k="alt_name" v="Indre Rekvika" />
		<tag k="name" v="Rekvika" />
		<tag k="natural" v="bay" />
		<tag k="ssr:stedsnr" v="565657" />
	</node>
	<node lat="70.51178611928204" lon="26.709355162027595" id="-68873">
		<tag k="name" v="Måsegrunnen" />
		<tag k="natural" v="shoal" />
		<tag k="place" v="locality" />
		<tag k="ssr:stedsnr" v="565661" />
	</node>
	<node lat="70.8247805620066" lon="26.73014964559281" id="-68879">
		<tag k="name" v="Godvikneset" />
		<tag k="natural" v="cape" />
		<tag k="ssr:stedsnr" v="566248" />
	</node>
	<node lat="71.01111945656295" lon="27.572124513415083" id="-68881">
		<tag k="name" v="Oksevika" />
		<tag k="natural" v="bay" />
		<tag k="ssr:stedsnr" v="566479" />
	</node>
	<node lat="71.0206555670544" lon="27.39838844626466" id="-68882">
		<tag k="name" v="Skjøtningbergneset" />
		<tag k="natural" v="cape" />
		<tag k="ssr:stedsnr" v="566481" />
	</node>
	<node lat="71.02798056942422" lon="27.530463414778637" id="-68883">
		<tag k="fixme" v="consider seamark:type=rock or natural=shoal" />
		<tag k="name" v="Bjørnvikskjæret" />
		<tag k="place" v="islet" />
		<tag k="ssr:stedsnr" v="566483" />
	</node>
	<node lat="70.67341389807868" lon="26.567591323815968" id="-68886">
		<tag k="name" v="Krokholmen" />
		<tag k="natural" v="cape" />
		<tag k="ssr:stedsnr" v="566600" />
	</node>
	<node lat="70.72784446005625" lon="27.19248288677595" id="-68887">
		<tag k="name" v="Oalunváknjárga" />
		<tag k="name:se" v="Oalunváknjárga" />
		<tag k="natural" v="cape" />
		<tag k="old_name:se" v="Oalonvagnjarga" />
		<tag k="ssr:stedsnr" v="566675" />
	</node>
	<node lat="70.6917916807309" lon="27.110982895251475" id="-68889">
		<tag k="bay" v="fjord" />
		<tag k="fixme" v="multiple name tags, choose one and add the other to alt_name" />
		<tag k="name" v="Torskefjorden;Store Torskefjorden - Stuorra Dorskavuotna" />
		<tag k="name:no" v="Torskefjorden;Store Torskefjorden" />
		<tag k="name:se" v="Stuorra Dorskavuotna" />
		<tag k="natural" v="bay" />
		<tag k="old_name:no" v="Torskefjorden, store" />
		<tag k="old_name:se" v="Dårskavuodna stuorra" />
		<tag k="ssr:stedsnr" v="566682" />
	</node>
	<node lat="70.79160000663839" lon="27.2111856772506" id="-68892">
		<tag k="name" v="Sørstrand" />
		<tag k="natural" v="beach" />
		<tag k="ssr:stedsnr" v="566790" />
	</node>
	<node lat="70.78373890283468" lon="27.158213463460537" id="-68893">
		<tag k="name" v="Alkeberget" />
		<tag k="natural" v="cape" />
		<tag k="ssr:stedsnr" v="566793" />
	</node>
	<node lat="70.89982501212569" lon="27.234660685744256" id="-68895">
		<tag k="bay" v="fjord" />
		<tag k="name" v="Dyfjorden - Dáigevuonna" />
		<tag k="name:no" v="Dyfjorden" />
		<tag k="name:se" v="Dáigevuonna" />
		<tag k="natural" v="bay" />
		<tag k="ssr:stedsnr" v="570044" />
	</node>
	<node lat="70.97234723194663" lon="27.554374522189686" id="-68898">
		<tag k="name" v="Slettneset" />
		<tag k="natural" v="cape" />
		<tag k="ssr:stedsnr" v="572658" />
	</node>
	<node lat="70.67071390008763" lon="27.189107895774903" id="-68899">
		<tag k="name" v="Leirbukta" />
		<tag k="natural" v="bay" />
		<tag k="ssr:stedsnr" v="572496" />
	</node>
	<node lat="70.3686277894173" lon="26.52493574445067" id="-68916">
		<tag k="name" v="Leirbuktsneset" />
		<tag k="natural" v="cape" />
		<tag k="ssr:stedsnr" v="577551" />
	</node>
	<node lat="70.43255834302825" lon="26.72730517122121" id="-68921">
		<tag k="name" v="Steinnes" />
		<tag k="natural" v="cape" />
		<tag k="ssr:stedsnr" v="577687" />
	</node>
	<node lat="70.41266945817783" lon="26.60099128901687" id="-68929">
		<tag k="alt_name" v="Andvik" />
		<tag k="name" v="Annvika" />
		<tag k="natural" v="bay" />
		<tag k="ssr:stedsnr" v="625174" />
	</node>
	<node lat="70.4269777903217" lon="26.5089552005378" id="-68930">
		<tag k="name" v="Skuovvaluokta" />
		<tag k="name:se" v="Skuovvaluokta" />
		<tag k="natural" v="bay" />
		<tag k="ssr:stedsnr" v="625186" />
	</node>
	<node lat="70.48821390280385" lon="26.74621348853784" id="-68933">
		<tag k="name" v="Brenneset - Buollánnjárga" />
		<tag k="name:no" v="Brenneset" />
		<tag k="name:se" v="Buollánnjárga" />
		<tag k="natural" v="cape" />
		<tag k="old_name:se" v="Buollannjarga" />
		<tag k="ssr:stedsnr" v="625372" />
	</node>
	<node lat="70.89116390107999" lon="26.71334686703695" id="-68939">
		<tag k="name" v="Hellarvikneset" />
		<tag k="natural" v="cape" />
		<tag k="ssr:stedsnr" v="626168" />
	</node>
	<node lat="70.80878889682974" lon="27.535113395885915" id="-68943">
		<tag k="name" v="Sprengsneset" />
		<tag k="natural" v="cape" />
		<tag k="ssr:stedsnr" v="626544" />
	</node>
	<node lat="70.54708334173579" lon="26.796527377641393" id="-68945">
		<tag k="name" v="Ytre Bondøyskjær" />
		<tag k="natural" v="shoal" />
		<tag k="place" v="locality" />
		<tag k="ssr:stedsnr" v="626659" />
	</node>
	<node lat="70.55800556732687" lon="26.60882463659541" id="-68946">
		<tag k="name" v="Storbukta" />
		<tag k="natural" v="bay" />
		<tag k="ssr:stedsnr" v="626660" />
	</node>
	<node lat="71.07563056425532" lon="27.3717606940713" id="-68958">
		<tag k="alt_name" v="Raudgrunnen;Raudnakkgrunnen" />
		<tag k="name" v="Rødgrunnen" />
		<tag k="natural" v="shoal" />
		<tag k="place" v="locality" />
		<tag k="ssr:stedsnr" v="626291" />
	</node>
	<node lat="71.10157778759744" lon="27.61053007722354" id="-68959">
		<tag k="name" v="Skjerneset" />
		<tag k="natural" v="cape" />
		<tag k="ssr:stedsnr" v="626295" />
	</node>
	<node lat="70.73600834357222" lon="26.6546635461081" id="-68968">
		<tag k="name" v="Veidgamneset" />
		<tag k="natural" v="cape" />
		<tag k="ssr:stedsnr" v="626630" />
	</node>
	<node lat="70.68025834595386" lon="26.40482744857693" id="-68970">
		<tag k="name" v="Nordmannsvika" />
		<tag k="natural" v="bay" />
		<tag k="ssr:stedsnr" v="626573" />
	</node>
	<node lat="70.60860834810245" lon="26.966824574447006" id="-68975">
		<tag k="alt_name:no" v="Brattholmen, store" />
		<tag k="name" v="Store Brattholmen - Báhpasuolu" />
		<tag k="name:no" v="Store Brattholmen" />
		<tag k="name:se" v="Báhpasuolu" />
		<tag k="old_name:se" v="Bappasuolo" />
		<tag k="place" v="island" />
		<tag k="ssr:stedsnr" v="626639" />
	</node>
	<node lat="70.90026667377802" lon="27.361482889410187" id="-68982">
		<tag k="name" v="Bjørnvika" />
		<tag k="natural" v="bay" />
		<tag k="ssr:stedsnr" v="626774" />
	</node>
	<node lat="70.82622501461418" lon="27.40976620676073" id="-68983">
		<tag k="name" v="Inner-Dreggvika" />
		<tag k="natural" v="bay" />
		<tag k="ssr:stedsnr" v="626781" />
	</node>
	<node lat="70.65075278965787" lon="26.63036076682519" id="-68991">
		<tag k="name" v="Klubbukta" />
		<tag k="natural" v="bay" />
		<tag k="ssr:stedsnr" v="627639" />
	</node>
	<node lat="70.47881390243447" lon="26.881535695081723" id="-68993">
		<tag k="fixme" v="consider seamark:type=rock or natural=shoal" />
		<tag k="name" v="Skjankeskjæret" />
		<tag k="place" v="islet" />
		<tag k="ssr:stedsnr" v="631056" />
	</node>
	<node lat="70.46773612231019" lon="26.562685745395218" id="-68996">
		<tag k="name" v="Brenneset" />
		<tag k="natural" v="cape" />
		<tag k="ssr:stedsnr" v="631846" />
	</node>
	<node lat="70.91792500851251" lon="27.409555094815587" id="-68998">
		<tag k="name" v="Per Pålsa-neset" />
		<tag k="natural" v="cape" />
		<tag k="ssr:stedsnr" v="632222" />
	</node>
	<node lat="70.95725001400524" lon="27.131263487414927" id="-68999">
		<tag k="name" v="Kjemkeila" />
		<tag k="natural" v="bay" />
		<tag k="ssr:stedsnr" v="632973" />
	</node>
	<node lat="70.59963612193171" lon="27.240907850393885" id="-69005">
		<tag k="name" v="Lille Tynnvik" />
		<tag k="natural" v="bay" />
		<tag k="ssr:stedsnr" v="636840" />
	</node>
	<node lat="70.93652501193256" lon="27.110782939970296" id="-69015">
		<tag k="name" v="Trottvikneset" />
		<tag k="natural" v="cape" />
		<tag k="ssr:stedsnr" v="747184" />
	</node>
	<node lat="70.38530001316619" lon="26.581824626944833" id="-69021">
		<tag k="name" v="Ánssegávva" />
		<tag k="name:se" v="Ánssegávva" />
		<tag k="natural" v="bay" />
		<tag k="old_name:se" v="Ansegavva" />
		<tag k="ssr:stedsnr" v="747147" />
	</node>
	<node lat="70.39784723620545" lon="26.61289963347336" id="-69022">
		<tag k="alt_name:no" v="Adamsfjord, yt" />
		<tag k="name" v="Ytre Adamsfjord - Ketsavonnaniemi" />
		<tag k="name:fkv" v="Ketsavonnaniemi" />
		<tag k="name:no" v="Ytre Adamsfjord" />
		<tag k="natural" v="cape" />
		<tag k="ssr:stedsnr" v="747151" />
	</node>
	<node lat="70.97767778540255" lon="27.157382938408393" id="-69026">
		<tag k="name" v="Finnkjerknæringen" />
		<tag k="natural" v="cape" />
		<tag k="ssr:stedsnr" v="747222" />
	</node>
	<node lat="70.47168890423404" lon="26.995399567390223" id="-69030">
		<tag k="name" v="Roddeluokta" />
		<tag k="name:se" v="Roddeluokta" />
		<tag k="natural" v="bay" />
		<tag k="old_name:se" v="Råddeluokta" />
		<tag k="ssr:stedsnr" v="747314" />
	</node>
	<node lat="71.03485556794223" lon="27.306980124673604" id="-69032">
		<tag k="alt_name" v="Lille Kjelsvika" />
		<tag k="name" v="Kjelsvika" />
		<tag k="natural" v="bay" />
		<tag k="ssr:stedsnr" v="747470" />
	</node>
	<node lat="70.4829805642748" lon="26.75180238348788" id="-69037">
		<tag k="name" v="Svanvika - Njuvččaluokta" />
		<tag k="name:no" v="Svanvika" />
		<tag k="name:se" v="Njuvččaluokta" />
		<tag k="natural" v="bay" />
		<tag k="old_name:se" v="Njuvčaluokta" />
		<tag k="ssr:stedsnr" v="747356" />
	</node>
	<node lat="70.49791112480834" lon="26.558019082623183" id="-69039">
		<tag k="name" v="Kvelvikneset" />
		<tag k="natural" v="cape" />
		<tag k="ssr:stedsnr" v="747363" />
	</node>
	<node lat="70.5815361178932" lon="26.963696808242812" id="-69041">
		<tag k="name" v="Kakvika" />
		<tag k="natural" v="bay" />
		<tag k="ssr:stedsnr" v="747620" />
	</node>
	<node lat="70.95746389423459" lon="26.692469098453806" id="-69049">
		<tag k="name" v="Kortneset" />
		<tag k="natural" v="cape" />
		<tag k="ssr:stedsnr" v="748148" />
	</node>
	<node lat="71.10959168066168" lon="27.602924521878293" id="-69060">
		<tag k="bay" v="fjord" />
		<tag k="name" v="Kinnar-Sandfjorden - Sáttovuotna" />
		<tag k="name:no" v="Kinnar-Sandfjorden" />
		<tag k="name:se" v="Sáttovuotna" />
		<tag k="natural" v="bay" />
		<tag k="old_name:se" v="Sadduvuodna" />
		<tag k="ssr:stedsnr" v="748382" />
	</node>
	<node lat="71.13100834520561" lon="27.647141187202873" id="-69061">
		<tag k="name" v="Kinnarodden - Gidnegeahči" />
		<tag k="name:no" v="Kinnarodden" />
		<tag k="name:se" v="Gidnegeahči" />
		<tag k="natural" v="cape" />
		<tag k="ssr:stedsnr" v="748492" />
	</node>
	<node lat="70.74910143749963" lon="27.17416243584939" id="-69064">
		<tag k="name" v="Storkeila" />
		<tag k="natural" v="cape" />
		<tag k="ssr:stedsnr" v="748682" />
	</node>
	<node lat="70.68422501132574" lon="26.441349669876157" id="-69065">
		<tag k="alt_name" v="Larsvika, in" />
		<tag k="name" v="Indre Larsvika" />
		<tag k="natural" v="bay" />
		<tag k="ssr:stedsnr" v="748614" />
	</node>
	<node lat="70.5224750075398" lon="26.99109679636286" id="-69070">
		<tag k="name" v="Oldervik - Leaibbášveadji" />
		<tag k="name:no" v="Oldervik" />
		<tag k="name:se" v="Leaibbášveadji" />
		<tag k="natural" v="bay" />
		<tag k="old_name:se" v="Læibašvæddji" />
		<tag k="ssr:stedsnr" v="748659" />
	</node>
	<node lat="70.69880834764963" lon="27.084291256510788" id="-69076">
		<tag k="name" v="Øra - Gárgu" />
		<tag k="name:no" v="Øra" />
		<tag k="name:se" v="Gárgu" />
		<tag k="natural" v="cape" />
		<tag k="ssr:stedsnr" v="748701" />
	</node>
	<node lat="70.90011721801142" lon="27.40617621206726" id="-69078">
		<tag k="name" v="Simmelvika" />
		<tag k="natural" v="bay" />
		<tag k="old_name" v="Fjellfinnvika" />
		<tag k="ssr:stedsnr" v="748779" />
	</node>
	<node lat="70.83244167632208" lon="27.441068969479808" id="-69079">
		<tag k="bay" v="fjord" />
		<tag k="name" v="Eidsfjorden - Oarjjit Nuorevuotna" />
		<tag k="name:no" v="Eidsfjorden" />
		<tag k="name:se" v="Oarjjit Nuorevuotna" />
		<tag k="natural" v="bay" />
		<tag k="old_name:se" v="Nuorevuodna, oarjit" />
		<tag k="ssr:stedsnr" v="748783" />
	</node>
	<node lat="70.83278334451066" lon="27.3565245528961" id="-69080">
		<tag k="name" v="Trollvika" />
		<tag k="natural" v="bay" />
		<tag k="ssr:stedsnr" v="748787" />
	</node>
	<node lat="70.7778611232763" lon="27.19636345311414" id="-69083">
		<tag k="name" v="Øyra" />
		<tag k="natural" v="cape" />
		<tag k="ssr:stedsnr" v="748822" />
	</node>
	<node lat="70.47878056302049" lon="26.744435717392303" id="-69090">
		<tag k="name" v="Elseskjærneset" />
		<tag k="natural" v="cape" />
		<tag k="ssr:stedsnr" v="753141" />
	</node>
	<node lat="71.0148889019239" lon="27.37767456355501" id="-69091">
		<tag k="name" v="Tareholet" />
		<tag k="natural" v="bay" />
		<tag k="ssr:stedsnr" v="754676" />
	</node>
	<node lat="70.61277223904719" lon="27.04871901056552" id="-69098">
		<tag k="name" v="Kalakeidet" />
		<tag k="place" v="locality" />
		<tag k="ssr:stedsnr" v="758229" />
	</node>
	<node lat="70.48639446165073" lon="27.057027333726023" id="-69099">
		<tag k="name" v="Vinterbukt" />
		<tag k="natural" v="bay" />
		<tag k="ssr:stedsnr" v="758597" />
	</node>
	<node lat="70.58980557254185" lon="27.263868965128037" id="-69102">
		<tag k="name" v="Nikolineneset" />
		<tag k="natural" v="cape" />
		<tag k="ssr:stedsnr" v="758833" />
	</node>
	<node lat="70.40901389702289" lon="26.5191440764437" id="-69114">
		<tag k="alt_name" v="Springarvika yt" />
		<tag k="name" v="Ytre Springarvika" />
		<tag k="natural" v="bay" />
		<tag k="ssr:stedsnr" v="808152" />
	</node>
	<node lat="70.37320000694586" lon="26.494819088859515" id="-69117">
		<tag k="name" v="Klubbneset" />
		<tag k="natural" v="cape" />
		<tag k="ssr:stedsnr" v="808137" />
	</node>
	<node lat="70.97136945689373" lon="27.307288472980396" id="-69118">
		<tag k="name" v="Oksekeila" />
		<tag k="natural" v="bay" />
		<tag k="ssr:stedsnr" v="808185" />
	</node>
	<node lat="70.4419305625226" lon="26.620869069471794" id="-69119">
		<tag k="name" v="Tjæreneset - Bihkkanjárga" />
		<tag k="name:no" v="Tjæreneset" />
		<tag k="name:se" v="Bihkkanjárga" />
		<tag k="natural" v="cape" />
		<tag k="old_name:se" v="Bikkanjarga" />
		<tag k="ssr:stedsnr" v="808317" />
	</node>
	<node lat="70.43783056689345" lon="26.698816287332132" id="-69120">
		<tag k="alt_name:no" v="Landersfjord" />
		<tag k="bay" v="fjord" />
		<tag k="name" v="Landersfjorden - Lánavuotna" />
		<tag k="name:no" v="Landersfjorden" />
		<tag k="name:se" v="Lánavuotna" />
		<tag k="natural" v="bay" />
		<tag k="old_name:se" v="Lanavuodna" />
		<tag k="ssr:stedsnr" v="808333" />
	</node>
	<node lat="70.5019722341597" lon="26.746963500653163" id="-69126">
		<tag k="name" v="Bonøya - Gierbá" />
		<tag k="name:no" v="Bonøya" />
		<tag k="name:se" v="Gierbá" />
		<tag k="old_name:se" v="Gierba" />
		<tag k="place" v="island" />
		<tag k="ssr:stedsnr" v="808372" />
	</node>
	<node lat="70.5910500082863" lon="27.255243979957108" id="-69132">
		<tag k="name" v="Perneset" />
		<tag k="natural" v="cape" />
		<tag k="ssr:stedsnr" v="808722" />
	</node>
	<node lat="70.91780278891255" lon="27.116955138007825" id="-69135">
		<tag k="name" v="Fuglstauren" />
		<tag k="natural" v="cape" />
		<tag k="ssr:stedsnr" v="809209" />
	</node>
	<node lat="70.95044445250132" lon="26.702424670571396" id="-69139">
		<tag k="name" v="Stokkeila" />
		<tag k="natural" v="bay" />
		<tag k="ssr:stedsnr" v="809153" />
	</node>
	<node lat="71.09720834241124" lon="27.54633841628812" id="-69147">
		<tag k="name" v="Elseskjærbukta" />
		<tag k="natural" v="bay" />
		<tag k="ssr:stedsnr" v="809300" />
	</node>
	<node lat="70.99670000834618" lon="27.507477315062868" id="-69148">
		<tag k="name" v="Lille Stokkvika" />
		<tag k="natural" v="bay" />
		<tag k="old_name" v="Stokkvika, l" />
		<tag k="ssr:stedsnr" v="809228" />
	</node>
	<node lat="70.99970279147985" lon="27.558749536885948" id="-69149">
		<tag k="name" v="Hundkeilneset" />
		<tag k="natural" v="cape" />
		<tag k="ssr:stedsnr" v="809229" />
	</node>
	<node lat="70.67913056485733" lon="26.623599634746462" id="-69154">
		<tag k="name" v="Flatskjæret" />
		<tag k="natural" v="cape" />
		<tag k="ssr:stedsnr" v="809623" />
	</node>
	<node lat="70.8813388958108" lon="27.374135652179085" id="-69162">
		<tag k="name" v="Kifjordneset" />
		<tag k="natural" v="cape" />
		<tag k="ssr:stedsnr" v="809760" />
	</node>
	<node lat="70.8345361239729" lon="27.471932856246582" id="-69163">
		<tag k="name" v="Hysvika" />
		<tag k="natural" v="bay" />
		<tag k="ssr:stedsnr" v="809776" />
	</node>
	<node lat="70.86085278606657" lon="27.5155189578086" id="-69164">
		<tag k="name" v="Ettervikneset" />
		<tag k="natural" v="cape" />
		<tag k="ssr:stedsnr" v="814135" />
	</node>
	<node lat="70.4623166797086" lon="26.76243293391668" id="-69165">
		<tag k="name" v="Meneletneset" />
		<tag k="natural" v="cape" />
		<tag k="ssr:stedsnr" v="814202" />
	</node>
	<node lat="71.12792501203329" lon="27.636530076739096" id="-69168">
		<tag k="name" v="Ytre Straumsnesbukta" />
		<tag k="natural" v="bay" />
		<tag k="ssr:stedsnr" v="815635" />
	</node>
	<node lat="71.10634723218486" lon="27.57119120474321" id="-69169">
		<tag k="name" v="Bønesmolla" />
		<tag k="natural" v="bay" />
		<tag k="ssr:stedsnr" v="815651" />
	</node>
	<node lat="70.62022223476684" lon="27.056135695137364" id="-69175">
		<tag k="name" v="Kalvevika" />
		<tag k="natural" v="bay" />
		<tag k="ssr:stedsnr" v="819197" />
	</node>
	<node lat="70.43518890279039" lon="26.735030172901038" id="-69184">
		<tag k="name" v="Krokviknes" />
		<tag k="natural" v="cape" />
		<tag k="ssr:stedsnr" v="821680" />
	</node>
	<node lat="70.47462501368989" lon="26.7552218224374" id="-69186">
		<tag k="name" v="Nordre Sommervik" />
		<tag k="natural" v="bay" />
		<tag k="ssr:stedsnr" v="845765" />
	</node>
	<node lat="70.39801390486197" lon="26.624835726237134" id="-69189">
		<tag k="name" v="Evapollen - Geazzevuotna" />
		<tag k="name:no" v="Evapollen" />
		<tag k="name:se" v="Geazzevuotna" />
		<tag k="natural" v="bay" />
		<tag k="old_name:se" v="Gazzevuodna" />
		<tag k="ssr:stedsnr" v="868156" />
	</node>
	<node lat="70.96103890170943" lon="27.253799592046605" id="-69198">
		<tag k="name" v="Mostadvika" />
		<tag k="natural" v="bay" />
		<tag k="ssr:stedsnr" v="869225" />
	</node>
	<node lat="70.98372778698656" lon="27.50555786242129" id="-69201">
		<tag k="name" v="Kveitneset" />
		<tag k="natural" v="cape" />
		<tag k="ssr:stedsnr" v="869250" />
	</node>
	<node lat="71.0799500094743" lon="27.50601344323046" id="-69208">
		<tag k="name" v="Nyhamna" />
		<tag k="natural" v="bay" />
		<tag k="ssr:stedsnr" v="869299" />
	</node>
	<node lat="71.03528611868644" lon="27.246277364229083" id="-69216">
		<tag k="name" v="Mannskarvika" />
		<tag k="natural" v="bay" />
		<tag k="ssr:stedsnr" v="869522" />
	</node>
	<node lat="70.61451667550038" lon="26.624213527485228" id="-69219">
		<tag k="name" v="Boasbukta - Boazoluokta" />
		<tag k="name:no" v="Boasbukta" />
		<tag k="name:se" v="Boazoluokta" />
		<tag k="natural" v="bay" />
		<tag k="old_name:se" v="Boazuluokta" />
		<tag k="ssr:stedsnr" v="869654" />
	</node>
	<node lat="70.58118056564038" lon="26.608682968506674" id="-69220">
		<tag k="name" v="Seivika - Sáideluokta" />
		<tag k="name:no" v="Seivika" />
		<tag k="name:se" v="Sáideluokta" />
		<tag k="natural" v="bay" />
		<tag k="old_name:se" v="Saideluokta" />
		<tag k="ssr:stedsnr" v="869662" />
	</node>
	<node lat="70.84147223267628" lon="27.455443976228864" id="-69222">
		<tag k="fixme" v="multiple name tags, choose one and add the other to alt_name" />
		<tag k="name" v="Sørneset;Søndre Ersvågneset" />
		<tag k="natural" v="cape" />
		<tag k="ssr:stedsnr" v="869799" />
	</node>
	<node lat="70.8612527844218" lon="27.49974396859736" id="-69225">
		<tag k="alt_name:no" v="Nordmannsettholmen" />
		<tag k="name" v="Nordmannsetholmen - Riimmasuolu" />
		<tag k="name:no" v="Nordmannsetholmen" />
		<tag k="name:se" v="Riimmasuolu" />
		<tag k="old_name:se" v="Riimasuolo" />
		<tag k="place" v="islet" />
		<tag k="ssr:stedsnr" v="869810" />
	</node>
	<node lat="70.86282500917815" lon="26.665524649214543" id="-69226">
		<tag k="name" v="Indre Saltijærvivika" />
		<tag k="natural" v="bay" />
		<tag k="ssr:stedsnr" v="870142" />
	</node>
	<node lat="70.86525834594387" lon="26.795185751018273" id="-69227">
		<tag k="name" v="Nyklakken" />
		<tag k="natural" v="shoal" />
		<tag k="place" v="locality" />
		<tag k="ssr:stedsnr" v="870143" />
	</node>
	<node lat="70.85493611951743" lon="26.657444111366296" id="-69228">
		<tag k="name" v="Grunnvika" />
		<tag k="natural" v="bay" />
		<tag k="ssr:stedsnr" v="870148" />
	</node>
	<node lat="70.83451945573286" lon="26.729738546375724" id="-69232">
		<tag k="name" v="Kvitbergan" />
		<tag k="natural" v="cape" />
		<tag k="ssr:stedsnr" v="870270" />
	</node>
	<node lat="70.48852778829684" lon="27.05715788322929" id="-69234">
		<tag k="alt_name:no" v="Trollbukt" />
		<tag k="name" v="Trollbukta - Álddagohppi" />
		<tag k="name:no" v="Trollbukta" />
		<tag k="name:se" v="Álddagohppi" />
		<tag k="natural" v="bay" />
		<tag k="old_name:se" v="Aldagåppi" />
		<tag k="ssr:stedsnr" v="870254" />
	</node>
	<node lat="70.66518612310057" lon="26.551177436084096" id="-69240">
		<tag k="name" v="Larsneset" />
		<tag k="natural" v="cape" />
		<tag k="ssr:stedsnr" v="870592" />
	</node>
	<node lat="70.7557861269409" lon="27.310699539665666" id="-69242">
		<tag k="name" v="Torveholmen - Lavdnjesuolu" />
		<tag k="name:no" v="Torveholmen" />
		<tag k="name:se" v="Lavdnjesuolu" />
		<tag k="old_name:se" v="Lavdnjesuolo" />
		<tag k="place" v="islet" />
		<tag k="ssr:stedsnr" v="870799" />
	</node>
	<node lat="70.43701668016878" lon="26.516596858110372" id="-69244">
		<tag k="name" v="Reinvika" />
		<tag k="natural" v="bay" />
		<tag k="ssr:stedsnr" v="873801" />
	</node>
	<node lat="70.48113890016073" lon="26.57977463247737" id="-69245">
		<tag k="name" v="Korsneset" />
		<tag k="natural" v="cape" />
		<tag k="ssr:stedsnr" v="874831" />
	</node>
	<node lat="70.73222223860265" lon="27.293493983891125" id="-69247">
		<tag k="name" v="Norskeneset" />
		<tag k="natural" v="cape" />
		<tag k="ssr:stedsnr" v="875375" />
	</node>
	<node lat="70.67361389807867" lon="26.581685751550047" id="-69252">
		<tag k="name" v="Krokholmeidet" />
		<tag k="place" v="locality" />
		<tag k="ssr:stedsnr" v="879874" />
	</node>
	<node lat="70.57640556652198" lon="26.960257912522803" id="-69264">
		<tag k="name" v="Løkholmnesmolla" />
		<tag k="natural" v="bay" />
		<tag k="ssr:stedsnr" v="879968" />
	</node>
	<node lat="70.4846416764494" lon="27.0874634463545" id="-69268">
		<tag k="fixme" v="consider seamark:type=rock or natural=shoal" />
		<tag k="name" v="Leirbuktskjæret" />
		<tag k="place" v="islet" />
		<tag k="ssr:stedsnr" v="880592" />
	</node>
	<node lat="70.65392778486401" lon="26.322055243793454" id="-69273">
		<tag k="name" v="Elvenes" />
		<tag k="natural" v="cape" />
		<tag k="ssr:stedsnr" v="939829" />
	</node>
	<node lat="70.48565834480942" lon="27.054182871971907" id="-69276">
		<tag k="name" v="Svartnes" />
		<tag k="natural" v="cape" />
		<tag k="ssr:stedsnr" v="940538" />
	</node>
	<node lat="70.55007223901092" lon="26.974841238022076" id="-69284">
		<tag k="name" v="Skjånesbukta" />
		<tag k="natural" v="bay" />
		<tag k="ssr:stedsnr" v="940988" />
	</node>
	<node lat="70.36504723300796" lon="26.52387185176752" id="-69291">
		<tag k="name" v="Ytre-Elvebukt" />
		<tag k="natural" v="bay" />
		<tag k="ssr:stedsnr" v="942531" />
	</node>
	<node lat="70.45602779328986" lon="26.96084124814659" id="-69292">
		<tag k="name" v="Bukta" />
		<tag k="natural" v="bay" />
		<tag k="ssr:stedsnr" v="942668" />
	</node>
	<node lat="70.88228752364695" lon="27.393113288824114" id="-69468">
		<tag k="name" v="Kaggvika" />
		<tag k="natural" v="bay" />
		<tag k="ssr:stedsnr" v="1076525" />
	</node>
	<node lat="70.88489625950274" lon="27.442617940645338" id="-69469">
		<tag k="name" v="Gamnes" />
		<tag k="natural" v="cape" />
		<tag k="ssr:stedsnr" v="1076526" />
	</node>
	<node lat="70.87850824709797" lon="27.468310619655444" id="-69476">
		<tag k="name" v="Klubbvika" />
		<tag k="natural" v="bay" />
		<tag k="ssr:stedsnr" v="1076534" />
	</node>
	<node lat="70.54300249215802" lon="26.958809956330157" id="-69485">
		<tag k="name" v="Skjånesstranda" />
		<tag k="natural" v="beach" />
		<tag k="ssr:stedsnr" v="1077265" />
	</node>
	<node lat="70.59728871141255" lon="27.1998889300308" id="-69491">
		<tag k="name" v="Lebesnes - Leaibbesnjárga" />
		<tag k="name:no" v="Lebesnes" />
		<tag k="name:se" v="Leaibbesnjárga" />
		<tag k="natural" v="cape" />
		<tag k="old_name:se" v="Læibesnjarga" />
		<tag k="ssr:stedsnr" v="1077207" />
	</node>
	<node lat="70.75382838186295" lon="27.113261426507602" id="-69495">
		<tag k="name" v="Vardneset" />
		<tag k="natural" v="cape" />
		<tag k="ssr:stedsnr" v="1077394" />
	</node>
	<node lat="70.88798890865468" lon="27.386598380998656" id="-69500">
		<tag k="name" v="Portvika" />
		<tag k="natural" v="bay" />
		<tag k="ssr:stedsnr" v="1079868" />
	</node>
	<node lat="70.91467082106635" lon="27.423543094514415" id="-69502">
		<tag k="name" v="Storvika" />
		<tag k="natural" v="bay" />
		<tag k="ssr:stedsnr" v="1079873" />
	</node>
	<node lat="70.92403776991625" lon="27.415571604961173" id="-69503">
		<tag k="name" v="Kifjordbotn" />
		<tag k="natural" v="bay" />
		<tag k="ssr:stedsnr" v="1079874" />
	</node>
	<node lat="70.7520605154007" lon="27.3310883616568" id="-69505">
		<tag k="name" v="Hamnneset" />
		<tag k="natural" v="cape" />
		<tag k="ssr:stedsnr" v="1079886" />
	</node>
	<node lat="70.86431653419405" lon="26.670973814848047" id="-69507">
		<tag k="name" v="Saltijærvineset" />
		<tag k="natural" v="cape" />
		<tag k="ssr:stedsnr" v="1079949" />
	</node>
	<node lat="70.82898449795769" lon="27.39943665153272" id="-69510">
		<tag k="name" v="Ytter-Dreggvika" />
		<tag k="natural" v="bay" />
		<tag k="ssr:stedsnr" v="1080021" />
	</node>
	<node lat="70.91882718823301" lon="27.404730516644005" id="-69511">
		<tag k="name" v="Revet" />
		<tag k="natural" v="shoal" />
		<tag k="place" v="locality" />
		<tag k="ssr:stedsnr" v="1080033" />
	</node>
</osm>
