<?xml version="1.0" encoding="UTF-8"?>
<osm generator="osmapis" version="0.6">
	<node id="-905088" lat="70.3136750132" lon="26.9236162206">
		<tag k="name" v="Gabbatkanalen" />
		<tag k="ssr:stedsnr" v="700619" />
		<tag k="waterway" v="canal" />
	</node>
	<node id="-904575" lat="70.4892055633" lon="27.0674162263">
		<tag k="junction" v="yes" />
		<tag k="name" v="Trollbuktkrysset" />
		<tag k="place" v="locality" />
		<tag k="ssr:stedsnr" v="151549" />
	</node>
	<node id="-904574" lat="70.6483472325" lon="26.3068302575">
		<tag k="ford" v="yes" />
		<tag k="name" v="Jontilvadel" />
		<tag k="place" v="locality" />
		<tag k="ssr:stedsnr" v="150804" />
	</node>
	<node id="-904701" lat="70.9204722331" lon="27.4114828809">
		<tag k="fixme" v="verify maritime location" />
		<tag k="mooring" v="yes" />
		<tag k="name" v="Lisestøa" />
		<tag k="place" v="locality" />
		<tag k="ssr:stedsnr" v="455985" />
	</node>
	<node id="-906011" lat="70.4894777919" lon="27.0564467744">
		<tag k="man_made" v="quay" />
		<tag k="name" v="Trollbukt kai" />
		<tag k="place" v="locality" />
		<tag k="ssr:stedsnr" v="575552" />
	</node>
	<node id="-904730" lat="70.6090222341" lon="27.07715512">
		<tag k="highway" v="path" />
		<tag k="name" v="Jørgenveien" />
		<tag k="ssr:stedsnr" v="333217" />
	</node>
	<node id="-906228" lat="70.5700444549" lon="27.0013190289">
		<tag k="landuse" v="harbour" />
		<tag k="name" v="Havnebassenget" />
		<tag k="seamark:type" v="harbour" />
		<tag k="ssr:stedsnr" v="758623" />
	</node>
	<node id="-904883" lat="70.6588000087" lon="26.604580195">
		<tag k="name" v="Sommarhamn" />
		<tag k="place" v="locality" />
		<tag k="ssr:stedsnr" v="451904" />
	</node>
	<node id="-906130" lat="70.9351889004" lon="27.4261356392">
		<tag k="junction" v="yes" />
		<tag k="name" v="Kifjord krysset" />
		<tag k="place" v="locality" />
		<tag k="ssr:stedsnr" v="636987" />
	</node>
	<node id="-905359" lat="70.6485416725" lon="26.3302413614">
		<tag k="ford" v="yes" />
		<tag k="name" v="Fjordbotnvadel" />
		<tag k="place" v="locality" />
		<tag k="ssr:stedsnr" v="29818" />
	</node>
	<node id="-904846" lat="70.5559277888" lon="26.9633412531">
		<tag k="name" v="Ankerplassen" />
		<tag k="place" v="locality" />
		<tag k="ssr:stedsnr" v="514990" />
	</node>
	<node id="-905037" lat="70.6115611262" lon="27.0470162288">
		<tag k="junction" v="yes" />
		<tag k="name" v="Kalakkrysset" />
		<tag k="place" v="locality" />
		<tag k="ssr:stedsnr" v="879172" />
	</node>
	<node id="-906315" lat="70.6542416803" lon="26.3171496853">
		<tag k="ford" v="yes" />
		<tag k="name" v="Elvenesvadel" />
		<tag k="place" v="locality" />
		<tag k="ssr:stedsnr" v="818836" />
	</node>
	<node id="-905475" lat="71.0215166814" lon="27.3760384493">
		<tag k="man_made" v="breakwater" />
		<tag k="name" v="Ytre Molo" />
		<tag k="place" v="locality" />
		<tag k="ssr:stedsnr" v="91930" />
	</node>
	<node id="-905025" lat="70.5806611248" lon="27.009646799">
		<tag k="man_made" v="pipeline" />
		<tag k="name" v="Vannkummen" />
		<tag k="ssr:stedsnr" v="636610" />
	</node>
</osm>
