<?xml version="1.0" encoding="UTF-8"?>
<osm version="0.6" generator="osmapis">
	<node lat="70.17426945832084" lon="26.943607879274566" id="-41059">
		<tag k="name" v="Beaskajávri" />
		<tag k="name:se" v="Beaskajávri" />
		<tag k="natural" v="water" />
		<tag k="old_name:se" v="Bæskajavri" />
		<tag k="ssr:stedsnr" v="19392" />
		<tag k="water" v="lake" />
	</node>
	<node lat="70.46995001579648" lon="27.37329947936098" id="-41062">
		<tag k="name" v="Eahpárašjávri" />
		<tag k="name:se" v="Eahpárašjávri" />
		<tag k="natural" v="water" />
		<tag k="old_name:se" v="Æpparašjavri" />
		<tag k="ssr:stedsnr" v="20205" />
	</node>
	<node lat="70.69634723252175" lon="27.275960651675614" id="-41067">
		<tag k="name" v="Storsteinvannet" />
		<tag k="natural" v="water" />
		<tag k="ssr:stedsnr" v="20701" />
		<tag k="water" v="lake" />
	</node>
	<node lat="70.69595834661514" lon="27.17963844190801" id="-41068">
		<tag k="name" v="Rasmusvannet" />
		<tag k="natural" v="water" />
		<tag k="ssr:stedsnr" v="20702" />
	</node>
	<node lat="70.74186945621011" lon="27.45346061620686" id="-41073">
		<tag k="name" v="Sarvvesjohka" />
		<tag k="name:se" v="Sarvvesjohka" />
		<tag k="old_name:se" v="Sarvesjåkka" />
		<tag k="ssr:stedsnr" v="20687" />
		<tag k="waterway" v="stream" />
	</node>
	<node lat="70.36863890059162" lon="26.61225239046389" id="-41091">
		<tag k="name" v="Lovddešjávri" />
		<tag k="name:se" v="Lovddešjávri" />
		<tag k="natural" v="water" />
		<tag k="ssr:stedsnr" v="31706" />
	</node>
	<node lat="70.44556112026919" lon="26.888046798592452" id="-41093">
		<tag k="name" v="Badevannet" />
		<tag k="natural" v="water" />
		<tag k="ssr:stedsnr" v="31678" />
	</node>
	<node lat="70.33326112664528" lon="26.596163511673716" id="-41094">
		<tag k="name" v="Anders Beritvannet" />
		<tag k="natural" v="water" />
		<tag k="ssr:stedsnr" v="80127" />
	</node>
	<node lat="70.16965834508318" lon="26.79456068461494" id="-41095">
		<tag k="name" v="Biersájávri" />
		<tag k="name:se" v="Biersájávri" />
		<tag k="natural" v="water" />
		<tag k="old_name:se" v="Biersajavri" />
		<tag k="ssr:stedsnr" v="80406" />
		<tag k="water" v="lake" />
	</node>
	<node lat="70.5638277948278" lon="27.304807842177343" id="-41101">
		<tag k="name" v="Steinvannet" />
		<tag k="natural" v="water" />
		<tag k="ssr:stedsnr" v="80748" />
		<tag k="water" v="lake" />
	</node>
	<node lat="70.36910835030311" lon="27.3359133824016" id="-41102">
		<tag k="name" v="Duolbajávri" />
		<tag k="name:se" v="Duolbajávri" />
		<tag k="natural" v="water" />
		<tag k="old_name:se" v="Duolbajavri" />
		<tag k="ssr:stedsnr" v="81048" />
	</node>
	<node lat="70.99241390159189" lon="27.343105126640356" id="-41103">
		<tag k="name" v="Mollvikelva" />
		<tag k="ssr:stedsnr" v="81243" />
		<tag k="waterway" v="river" />
	</node>
	<node lat="70.64586667477286" lon="26.36501912433456" id="-41111">
		<tag k="name" v="Tørrelva" />
		<tag k="ssr:stedsnr" v="90814" />
		<tag k="waterway" v="stream" />
	</node>
	<node lat="70.9474416771819" lon="27.475196745513124" id="-41118">
		<tag k="fixme" v="multiple name tags, choose one and add the other to alt_name" />
		<tag k="name" v="Nedre Oksevågvannet;Nedrevannet" />
		<tag k="natural" v="water" />
		<tag k="ssr:stedsnr" v="140188" />
		<tag k="water" v="lake" />
	</node>
	<node lat="70.49236945674303" lon="26.20154135709849" id="-41120">
		<tag k="name" v="Veidneselva - Ráhkojohka" />
		<tag k="name:no" v="Veidneselva" />
		<tag k="name:se" v="Ráhkojohka" />
		<tag k="old_name:se" v="Rakkujåkka" />
		<tag k="ssr:stedsnr" v="140302" />
		<tag k="waterway" v="river" />
	</node>
	<node lat="70.22975279618794" lon="26.81379678278527" id="-41122">
		<tag k="name" v="Deardnojávri" />
		<tag k="name:se" v="Deardnojávri" />
		<tag k="natural" v="water" />
		<tag k="old_name:se" v="Dærdnujavri" />
		<tag k="ssr:stedsnr" v="140390" />
		<tag k="water" v="lake" />
	</node>
	<node lat="70.4433666789358" lon="27.1917634086956" id="-41125">
		<tag k="name" v="Soagŋojohka" />
		<tag k="name:se" v="Soagŋojohka" />
		<tag k="old_name:se" v="Soagŋujåkka" />
		<tag k="ssr:stedsnr" v="141204" />
		<tag k="waterway" v="stream" />
	</node>
	<node lat="70.28928056985288" lon="26.707016259636628" id="-41126">
		<tag k="name" v="Suololuoppal" />
		<tag k="name:se" v="Suololuoppal" />
		<tag k="natural" v="water" />
		<tag k="old_name:se" v="Suoluluobbal" />
		<tag k="ssr:stedsnr" v="141238" />
		<tag k="water" v="lake" />
	</node>
	<node lat="70.31344445861605" lon="26.47304408414518" id="-41128">
		<tag k="name" v="Fierranjohka" />
		<tag k="name:se" v="Fierranjohka" />
		<tag k="old_name:se" v="Fierranjåkka" />
		<tag k="ssr:stedsnr" v="141132" />
		<tag k="waterway" v="stream" />
	</node>
	<node lat="70.36106390120867" lon="27.000030094414296" id="-41129">
		<tag k="name" v="Váđasjávri" />
		<tag k="name:se" v="Váđasjávri" />
		<tag k="natural" v="water" />
		<tag k="old_name:se" v="Vadasjavri" />
		<tag k="ssr:stedsnr" v="141136" />
		<tag k="water" v="lake" />
	</node>
	<node lat="70.93493334042162" lon="27.364410666351517" id="-41130">
		<tag k="name" v="Jernsteinvannet" />
		<tag k="natural" v="water" />
		<tag k="ssr:stedsnr" v="141185" />
		<tag k="water" v="lake" />
	</node>
	<node lat="70.76079167919256" lon="27.399188421940778" id="-41135">
		<tag k="name" v="Skogsvannet" />
		<tag k="natural" v="water" />
		<tag k="ssr:stedsnr" v="141781" />
	</node>
	<node lat="71.06968056570383" lon="27.648260627707515" id="-41138">
		<tag k="name" v="Sandfjordelva" />
		<tag k="ssr:stedsnr" v="146925" />
		<tag k="waterway" v="river" />
	</node>
	<node lat="71.01410834225616" lon="27.594352284553427" id="-41140">
		<tag k="name" v="Sløkelva" />
		<tag k="ssr:stedsnr" v="147615" />
		<tag k="waterway" v="river" />
	</node>
	<node lat="70.95761112120375" lon="27.36416901255982" id="-41144">
		<tag k="name" v="Monsdalsvannet" />
		<tag k="natural" v="water" />
		<tag k="ssr:stedsnr" v="151903" />
	</node>
	<node lat="70.33741945768675" lon="26.7246023826079" id="-41148">
		<tag k="name" v="Válljohka" />
		<tag k="name:se" v="Válljohka" />
		<tag k="old_name:se" v="Valljåkka" />
		<tag k="ssr:stedsnr" v="262128" />
		<tag k="waterway" v="stream" />
	</node>
	<node lat="70.29402501180171" lon="27.11776895544792" id="-41149">
		<tag k="name" v="Sileselva - Silisjohka" />
		<tag k="name:no" v="Sileselva" />
		<tag k="name:se" v="Silisjohka" />
		<tag k="old_name:se" v="Silisjåkka" />
		<tag k="ssr:stedsnr" v="262028" />
		<tag k="waterway" v="stream" />
	</node>
	<node lat="70.29385834635225" lon="26.510169073922473" id="-41154">
		<tag k="name" v="Ádjatjohka" />
		<tag k="name:se" v="Ádjatjohka" />
		<tag k="old_name:se" v="Addjatjåkka" />
		<tag k="ssr:stedsnr" v="262240" />
		<tag k="waterway" v="stream" />
	</node>
	<node lat="70.2457805668548" lon="26.39136907849128" id="-41155">
		<tag k="name" v="Borgašjohka" />
		<tag k="name:se" v="Borgašjohka" />
		<tag k="old_name:se" v="Bårgašjåkka" />
		<tag k="ssr:stedsnr" v="262342" />
		<tag k="waterway" v="river" />
	</node>
	<node lat="70.38742267765458" lon="26.332055594757094" id="-41156">
		<tag k="name" v="Krattvannet - Rohtojávri" />
		<tag k="name:no" v="Krattvannet" />
		<tag k="name:se" v="Rohtojávri" />
		<tag k="natural" v="water" />
		<tag k="old_name:se" v="Råttujavri" />
		<tag k="ssr:stedsnr" v="262256" />
		<tag k="water" v="lake" />
	</node>
	<node lat="70.31567500669212" lon="26.36160521510592" id="-41158">
		<tag k="alt_name:se" v="Guopparjávri" />
		<tag k="name" v="Guohperjávri" />
		<tag k="name:se" v="Guohperjávri" />
		<tag k="natural" v="water" />
		<tag k="old_name:se" v="Guopperjavri" />
		<tag k="ssr:stedsnr" v="262358" />
	</node>
	<node lat="70.27938611879578" lon="26.3772579703709" id="-41159">
		<tag k="name" v="Karlstadvannan - Guorgápmirjávrrit" />
		<tag k="name:no" v="Karlstadvannan" />
		<tag k="name:se" v="Guorgápmirjávrrit" />
		<tag k="natural" v="water" />
		<tag k="ssr:stedsnr" v="262361" />
		<tag k="water" v="lake" />
	</node>
	<node lat="70.05833334332085" lon="26.041655224779095" id="-41160">
		<tag k="name" v="Njearrinjohka" />
		<tag k="name:se" v="Njearrinjohka" />
		<tag k="old_name:se" v="Njærrinjåkka" />
		<tag k="ssr:stedsnr" v="262364" />
		<tag k="waterway" v="river" />
	</node>
	<node lat="70.29056112027261" lon="26.27004965530917" id="-41161">
		<tag k="name" v="Luoppaljohka" />
		<tag k="name:se" v="Luoppaljohka" />
		<tag k="old_name:se" v="Luobbaljåkka" />
		<tag k="ssr:stedsnr" v="262369" />
		<tag k="waterway" v="river" />
	</node>
	<node lat="70.12958056234007" lon="26.137094110772935" id="-41162">
		<tag k="name" v="Lohkkaskáidi" />
		<tag k="name:se" v="Lohkkaskáidi" />
		<tag k="natural" v="cape" />
		<tag k="old_name:se" v="Låkkaskaidi" />
		<tag k="ssr:stedsnr" v="262377" />
	</node>
	<node lat="70.74198334974022" lon="27.42250228256845" id="-41165">
		<tag k="name" v="Reinkalvvannan" />
		<tag k="natural" v="water" />
		<tag k="ssr:stedsnr" v="262659" />
		<tag k="water" v="lake" />
	</node>
	<node lat="70.53633056867173" lon="26.573119089582196" id="-41170">
		<tag k="name" v="Stupelva - Goržejohka" />
		<tag k="name:no" v="Stupelva" />
		<tag k="name:se" v="Goržejohka" />
		<tag k="old_name:se" v="Gåršejåkka" />
		<tag k="ssr:stedsnr" v="262638" />
		<tag k="waterway" v="river" />
	</node>
	<node lat="70.56859167495466" lon="27.03576345800915" id="-41173">
		<tag k="name" v="Storelva - Davvesiiddjohka" />
		<tag k="name:no" v="Storelva" />
		<tag k="name:se" v="Davvesiiddjohka" />
		<tag k="old_name:se" v="Davvesiidjåkka" />
		<tag k="ssr:stedsnr" v="262763" />
		<tag k="waterway" v="river" />
	</node>
	<node lat="70.46372223251181" lon="27.237555068478514" id="-41178">
		<tag k="name" v="Iskløvervannet - Jiekŋaluoddananjávri" />
		<tag k="name:no" v="Iskløvervannet" />
		<tag k="name:se" v="Jiekŋaluoddananjávri" />
		<tag k="natural" v="water" />
		<tag k="old_name:se" v="Jiegŋaluoddananjavri" />
		<tag k="ssr:stedsnr" v="263251" />
		<tag k="water" v="lake" />
	</node>
	<node lat="70.41833334881359" lon="27.13926898798476" id="-41182">
		<tag k="name" v="Stuorraluohkajávri" />
		<tag k="name:se" v="Stuorraluohkajávri" />
		<tag k="natural" v="water" />
		<tag k="old_name:se" v="Stuorraluokkajavri;Stuorraluohkájávri" />
		<tag k="ssr:stedsnr" v="263227" />
		<tag k="water" v="lake" />
	</node>
	<node lat="70.44928612778469" lon="27.0704967783533" id="-41183">
		<tag k="name" v="Kuvannet - Gussajávri" />
		<tag k="name:no" v="Kuvannet" />
		<tag k="name:se" v="Gussajávri" />
		<tag k="natural" v="water" />
		<tag k="old_name:se" v="Gussajavri" />
		<tag k="ssr:stedsnr" v="263240" />
		<tag k="water" v="lake" />
	</node>
	<node lat="70.26221112146513" lon="26.963868999172334" id="-41185">
		<tag k="name" v="Márddašjávri" />
		<tag k="name:se" v="Márddašjávri" />
		<tag k="natural" v="water" />
		<tag k="old_name:se" v="Mardašjavri" />
		<tag k="ssr:stedsnr" v="263268" />
		<tag k="water" v="lake" />
	</node>
	<node lat="70.65146667987979" lon="26.618194090288718" id="-41189">
		<tag k="name" v="Klubbelva" />
		<tag k="ssr:stedsnr" v="263637" />
		<tag k="waterway" v="river" />
	</node>
	<node lat="70.6115639018253" lon="27.3610161855039" id="-41193">
		<tag k="name" v="Ørretvannan" />
		<tag k="natural" v="water" />
		<tag k="ssr:stedsnr" v="263725" />
		<tag k="water" v="lake" />
	</node>
	<node lat="70.19840001430245" lon="26.771080130706093" id="-41200">
		<tag k="name" v="Gáisabogejohka" />
		<tag k="name:se" v="Gáisabogejohka" />
		<tag k="old_name:se" v="Gaisabågejåkka" />
		<tag k="ssr:stedsnr" v="201371" />
		<tag k="waterway" v="river" />
	</node>
	<node lat="70.48048334049784" lon="26.49359408487112" id="-41201">
		<tag k="name" v="Saŋasskáidi" />
		<tag k="name:se" v="Saŋasskáidi" />
		<tag k="natural" v="cape" />
		<tag k="old_name:se" v="Sanasskaidi" />
		<tag k="ssr:stedsnr" v="201295" />
	</node>
	<node lat="70.46674723973679" lon="27.32337173274584" id="-41202">
		<tag k="name" v="Pinevannet - Geŋgejávri" />
		<tag k="name:no" v="Pinevannet" />
		<tag k="name:se" v="Geŋgejávri" />
		<tag k="natural" v="water" />
		<tag k="old_name:se" v="Geŋgejavri" />
		<tag k="ssr:stedsnr" v="202208" />
		<tag k="water" v="lake" />
	</node>
	<node lat="70.95250834662977" lon="27.58553007011987" id="-41206">
		<tag k="alt_name" v="Stordalselva;Østerbotnelva" />
		<tag k="name" v="Storelva" />
		<tag k="ssr:stedsnr" v="202542" />
		<tag k="waterway" v="river" />
	</node>
	<node lat="70.63754167483857" lon="26.27662469258433" id="-41208">
		<tag k="name" v="Lomvannet - Gáhkkorjávri" />
		<tag k="name:no" v="Lomvannet" />
		<tag k="name:se" v="Gáhkkorjávri" />
		<tag k="natural" v="water" />
		<tag k="old_name:se" v="Gakkurjavri" />
		<tag k="ssr:stedsnr" v="202598" />
	</node>
	<node lat="70.83444445990897" lon="27.479760632965185" id="-41212">
		<tag k="name" v="Hysneselva" />
		<tag k="ssr:stedsnr" v="202793" />
		<tag k="waterway" v="stream" />
	</node>
	<node lat="70.53270556687008" lon="27.00088289730233" id="-41214">
		<tag k="name" v="Kvitelva" />
		<tag k="ssr:stedsnr" v="267857" />
		<tag k="waterway" v="river" />
	</node>
	<node lat="70.6598944591552" lon="27.118607912010415" id="-41229">
		<tag k="name" v="Slåttvikvannet" />
		<tag k="natural" v="water" />
		<tag k="ssr:stedsnr" v="212132" />
	</node>
	<node lat="70.98733612484656" lon="27.585966199081767" id="-41232">
		<tag k="name" v="Brattelva" />
		<tag k="ssr:stedsnr" v="269718" />
		<tag k="waterway" v="stream" />
	</node>
	<node lat="70.91847223154019" lon="27.426899540386025" id="-41236">
		<tag k="name" v="Gås-vannet" />
		<tag k="natural" v="water" />
		<tag k="ssr:stedsnr" v="212988" />
	</node>
	<node lat="70.93925000871002" lon="27.39357454874505" id="-41262">
		<tag k="name" v="Kordelvannet" />
		<tag k="natural" v="water" />
		<tag k="ssr:stedsnr" v="455946" />
		<tag k="water" v="lake" />
	</node>
	<node lat="70.94220278712604" lon="27.374643993335816" id="-41263">
		<tag k="name" v="Finnsåtvannet" />
		<tag k="natural" v="water" />
		<tag k="ssr:stedsnr" v="455948" />
	</node>
	<node lat="70.94133611976766" lon="27.46545231401508" id="-41264">
		<tag k="name" v="Sundholmen" />
		<tag k="place" v="islet" />
		<tag k="ssr:stedsnr" v="455958" />
	</node>
	<node lat="70.37602501325836" lon="26.625057946196456" id="-41266">
		<tag k="name" v="Gurrajávri" />
		<tag k="name:se" v="Gurrajávri" />
		<tag k="natural" v="water" />
		<tag k="old_name:se" v="Gurrajavri" />
		<tag k="ssr:stedsnr" v="262145" />
	</node>
	<node lat="70.11343889875232" lon="26.47150517966383" id="-41271">
		<tag k="name" v="Važžejohgeahči" />
		<tag k="name:se" v="Važžejohgeahči" />
		<tag k="old_name:se" v="Važžejåkgæčči" />
		<tag k="ssr:stedsnr" v="262411" />
		<tag k="waterway" v="river" />
	</node>
	<node lat="70.31155000658622" lon="26.173344119085478" id="-41272">
		<tag k="name" v="Čullojávri" />
		<tag k="name:se" v="Čullojávri" />
		<tag k="natural" v="water" />
		<tag k="old_name:se" v="Čullujavri" />
		<tag k="ssr:stedsnr" v="262352" />
		<tag k="water" v="lake" />
	</node>
	<node lat="70.80386389942339" lon="27.594002260779853" id="-41284">
		<tag k="name" v="Skjerelva" />
		<tag k="ssr:stedsnr" v="268287" />
		<tag k="waterway" v="stream" />
	</node>
	<node lat="70.64388612049802" lon="26.564027436698183" id="-41291">
		<tag k="name" v="Viastilla" />
		<tag k="natural" v="water" />
		<tag k="ssr:stedsnr" v="272892" />
		<tag k="water" v="lake" />
	</node>
	<node lat="70.28651111853394" lon="26.37850243013773" id="-41296">
		<tag k="name" v="Karlstadbekken" />
		<tag k="ssr:stedsnr" v="274620" />
		<tag k="waterway" v="stream" />
	</node>
	<node lat="70.35854445388956" lon="26.634332951587517" id="-41300">
		<tag k="name" v="Årstefielma - Orešfielbmá" />
		<tag k="name:no" v="Årstefielma" />
		<tag k="name:se" v="Orešfielbmá" />
		<tag k="old_name:se" v="Årešfielbma" />
		<tag k="ssr:stedsnr" v="322127" />
		<tag k="waterway" v="stream" />
	</node>
	<node lat="70.45000001043599" lon="26.909660695020357" id="-41301">
		<tag k="name" v="Friarfjordvannet" />
		<tag k="natural" v="water" />
		<tag k="ssr:stedsnr" v="322303" />
	</node>
	<node lat="70.96339167748165" lon="27.4517967495791" id="-41304">
		<tag k="name" v="Gynndalselva" />
		<tag k="ssr:stedsnr" v="323215" />
		<tag k="waterway" v="river" />
	</node>
	<node lat="70.97465556221525" lon="27.407349556196543" id="-41305">
		<tag k="name" v="Storvannet" />
		<tag k="natural" v="water" />
		<tag k="ssr:stedsnr" v="323216" />
		<tag k="water" v="lake" />
	</node>
	<node lat="70.45486390016826" lon="27.181652287242" id="-41306">
		<tag k="name" v="Fiskeløsvannet - Roggejávri" />
		<tag k="name:no" v="Fiskeløsvannet" />
		<tag k="name:se" v="Roggejávri" />
		<tag k="natural" v="water" />
		<tag k="old_name:se" v="Råggejavri" />
		<tag k="ssr:stedsnr" v="323218" />
	</node>
	<node lat="70.944319452137" lon="27.263207909505805" id="-41307">
		<tag k="name" v="Seglvikvannet" />
		<tag k="natural" v="water" />
		<tag k="ssr:stedsnr" v="323220" />
		<tag k="water" v="lake" />
	</node>
	<node lat="70.94650834441369" lon="27.591143948118724" id="-41326">
		<tag k="name" v="Setervannet" />
		<tag k="natural" v="water" />
		<tag k="ssr:stedsnr" v="333922" />
	</node>
	<node lat="70.37702501323892" lon="26.72492737623713" id="-41330">
		<tag k="name" v="Pieralemetjávrrit" />
		<tag k="name:se" v="Pieralemetjávrrit" />
		<tag k="natural" v="water" />
		<tag k="old_name:se" v="Pieralemetjavrit" />
		<tag k="ssr:stedsnr" v="383159" />
		<tag k="water" v="lake" />
	</node>
	<node lat="70.96899816036924" lon="27.58012337157862" id="-41333">
		<tag k="name" v="Falkeelva" />
		<tag k="ssr:stedsnr" v="383251" />
		<tag k="waterway" v="stream" />
	</node>
	<node lat="70.02473612677589" lon="26.167255205794845" id="-41335">
		<tag k="name" v="Čoarvvošjávri" />
		<tag k="name:se" v="Čoarvvošjávri" />
		<tag k="natural" v="water" />
		<tag k="old_name:se" v="Čoarvušjavri" />
		<tag k="ssr:stedsnr" v="383402" />
		<tag k="water" v="lake" />
	</node>
	<node lat="70.32671111724231" lon="26.143110803294547" id="-41336">
		<tag k="name" v="Suoidneluoppal" />
		<tag k="name:se" v="Suoidneluoppal" />
		<tag k="natural" v="water" />
		<tag k="old_name:se" v="Suoidneluobbal" />
		<tag k="ssr:stedsnr" v="383361" />
	</node>
	<node lat="70.33132223358226" lon="26.10885802288867" id="-41337">
		<tag k="name" v="Stuorrajunjávri" />
		<tag k="name:se" v="Stuorrajunjávri" />
		<tag k="natural" v="water" />
		<tag k="old_name:se" v="Stuorrajunjavri" />
		<tag k="ssr:stedsnr" v="383363" />
	</node>
	<node lat="70.62304168137722" lon="26.609363523699" id="-41348">
		<tag k="name" v="Skjellvikelva" />
		<tag k="ssr:stedsnr" v="384603" />
		<tag k="waterway" v="stream" />
	</node>
	<node lat="70.36490001389966" lon="26.461796858583067" id="-41355">
		<tag k="name" v="Skjærnesvannet" />
		<tag k="natural" v="water" />
		<tag k="ssr:stedsnr" v="389719" />
	</node>
	<node lat="70.70376111956402" lon="27.102544005067926" id="-41360">
		<tag k="name" v="Klubbvannet" />
		<tag k="natural" v="water" />
		<tag k="ssr:stedsnr" v="394112" />
	</node>
	<node lat="70.28976945606502" lon="27.060138412385765" id="-41369">
		<tag k="name" v="Čoarvvošjávri" />
		<tag k="name:se" v="Čoarvvošjávri" />
		<tag k="natural" v="water" />
		<tag k="old_name:se" v="Čoarušjavri;Čoarušjávri" />
		<tag k="ssr:stedsnr" v="444022" />
		<tag k="water" v="lake" />
	</node>
	<node lat="70.3107888970975" lon="26.107766349674677" id="-41372">
		<tag k="name" v="Meahccejávri" />
		<tag k="name:se" v="Meahccejávri" />
		<tag k="natural" v="water" />
		<tag k="old_name:se" v="Mæccejavri" />
		<tag k="ssr:stedsnr" v="444330" />
	</node>
	<node lat="70.4184250091876" lon="26.329574674860567" id="-41373">
		<tag k="name" v="Gárggojávrrit" />
		<tag k="name:se" v="Gárggojávrrit" />
		<tag k="natural" v="water" />
		<tag k="old_name:se" v="Gargujavrit" />
		<tag k="ssr:stedsnr" v="444230" />
		<tag k="water" v="lake" />
	</node>
	<node lat="70.38166945376595" lon="26.060255251521806" id="-41374">
		<tag k="name" v="Juovvaluoppal" />
		<tag k="name:se" v="Juovvaluoppal" />
		<tag k="natural" v="water" />
		<tag k="old_name:se" v="Joavvaluobbal" />
		<tag k="ssr:stedsnr" v="444235" />
	</node>
	<node lat="70.65005278992199" lon="26.190085808367012" id="-41378">
		<tag k="name" v="Russelva - Ruoššajohka" />
		<tag k="name:no" v="Russelva" />
		<tag k="name:se" v="Ruoššajohka" />
		<tag k="old_name:se" v="Ruoššajåkka" />
		<tag k="ssr:stedsnr" v="444520" />
		<tag k="waterway" v="stream" />
	</node>
	<node lat="70.75877501441653" lon="27.358585646435174" id="-41381">
		<tag k="name" v="Vinterplasselva" />
		<tag k="ssr:stedsnr" v="444789" />
		<tag k="waterway" v="stream" />
	</node>
	<node lat="69.98206389784136" lon="26.075713560283976" id="-41382">
		<tag k="name" v="Barttánddejávri" />
		<tag k="name:se" v="Barttánddejávri" />
		<tag k="natural" v="water" />
		<tag k="old_name:se" v="Bartandejavri" />
		<tag k="ssr:stedsnr" v="444978" />
	</node>
	<node lat="70.47672223860181" lon="27.157435637202248" id="-41383">
		<tag k="name" v="Sáhppalatjávrrit" />
		<tag k="name:se" v="Sáhppalatjávrrit" />
		<tag k="natural" v="water" />
		<tag k="old_name:se" v="Sappalatjavrit" />
		<tag k="ssr:stedsnr" v="445225" />
		<tag k="water" v="lake" />
	</node>
	<node lat="70.40142501482954" lon="27.114549535096696" id="-41384">
		<tag k="name" v="Gorrojávri" />
		<tag k="name:se" v="Gorrojávri" />
		<tag k="natural" v="water" />
		<tag k="old_name:se" v="Gårrujavri;Gorrujávri" />
		<tag k="ssr:stedsnr" v="445191" />
		<tag k="water" v="lake" />
	</node>
	<node lat="70.60374168190506" lon="27.334699503202557" id="-41389">
		<tag k="name" v="Rundvannet" />
		<tag k="natural" v="water" />
		<tag k="ssr:stedsnr" v="445738" />
	</node>
	<node lat="71.00388889870584" lon="27.37991066300933" id="-41402">
		<tag k="name" v="Tverrelva" />
		<tag k="ssr:stedsnr" v="455576" />
		<tag k="waterway" v="stream" />
	</node>
	<node lat="71.02292223556391" lon="27.359755121645687" id="-41403">
		<tag k="name" v="Brønndalselva" />
		<tag k="ssr:stedsnr" v="455918" />
		<tag k="waterway" v="stream" />
	</node>
	<node lat="70.94281667693984" lon="27.29825789085175" id="-41406">
		<tag k="name" v="Nedre Snattvikvannet" />
		<tag k="natural" v="water" />
		<tag k="ssr:stedsnr" v="272762" />
	</node>
	<node lat="70.3668166833879" lon="26.7037995952891" id="-41407">
		<tag k="name" v="Váddajávrrit" />
		<tag k="name:se" v="Váddajávrrit" />
		<tag k="natural" v="water" />
		<tag k="old_name:se" v="Vaddajavrit" />
		<tag k="ssr:stedsnr" v="504108" />
		<tag k="water" v="lake" />
	</node>
	<node lat="70.22318889807241" lon="26.17561634119212" id="-41409">
		<tag k="name" v="Storelva - Stuorrajohka" />
		<tag k="name:no" v="Storelva" />
		<tag k="name:se" v="Stuorrajohka" />
		<tag k="old_name:se" v="Stuorrajåkka" />
		<tag k="ssr:stedsnr" v="504317" />
		<tag k="waterway" v="river" />
	</node>
	<node lat="70.22691946011233" lon="26.212610772514417" id="-41410">
		<tag k="name" v="Vuonjalskáidi" />
		<tag k="name:se" v="Vuonjalskáidi" />
		<tag k="natural" v="cape" />
		<tag k="old_name:se" v="Vuonjalskaidi" />
		<tag k="ssr:stedsnr" v="504320" />
	</node>
	<node lat="70.1991138978908" lon="26.736080134187727" id="-41411">
		<tag k="fixme" v="multiple name tags, choose one and add the other to alt_name" />
		<tag k="name" v="Fasttesjávri;Gáisabogejávri" />
		<tag k="name:se" v="Fasttesjávri;Gáisabogejávri" />
		<tag k="natural" v="water" />
		<tag k="old_name:se" v="Fastesjavri;Gaisabågejavri;Gáissábohkijávri" />
		<tag k="ssr:stedsnr" v="504373" />
		<tag k="water" v="lake" />
	</node>
	<node lat="70.29970556350338" lon="26.302705227259615" id="-41414">
		<tag k="name" v="Guohperskáidi" />
		<tag k="name:se" v="Guohperskáidi" />
		<tag k="natural" v="cape" />
		<tag k="old_name:se" v="Guopperskaidi" />
		<tag k="ssr:stedsnr" v="505371" />
	</node>
	<node lat="70.28897501224179" lon="26.257385780795993" id="-41415">
		<tag k="name" v="Vuolit Luoppal" />
		<tag k="name:se" v="Vuolit Luoppal" />
		<tag k="natural" v="water" />
		<tag k="old_name:se" v="Luobbal, vuolit" />
		<tag k="ssr:stedsnr" v="505374" />
	</node>
	<node lat="70.5986694563946" lon="26.221652483841343" id="-41420">
		<tag k="name" v="Ráhppáidjohka" />
		<tag k="name:se" v="Ráhppáidjohka" />
		<tag k="old_name:se" v="Rappaidjåkka" />
		<tag k="ssr:stedsnr" v="505577" />
		<tag k="waterway" v="stream" />
	</node>
	<node lat="70.5926833379264" lon="26.14680526767884" id="-41421">
		<tag k="fixme" v="multiple name tags, choose one and add the other to alt_name" />
		<tag k="name" v="Kjæsvannet - Stuorrajávri;Keaisajávri" />
		<tag k="name:no" v="Kjæsvannet" />
		<tag k="name:se" v="Stuorrajávri;Keaisajávri" />
		<tag k="natural" v="water" />
		<tag k="old_name:se" v="Kæisajavri" />
		<tag k="ssr:stedsnr" v="505580" />
		<tag k="water" v="lake" />
	</node>
	<node lat="70.66773889990031" lon="27.26813563534127" id="-41424">
		<tag k="name" v="Kråvannet" />
		<tag k="natural" v="water" />
		<tag k="ssr:stedsnr" v="505709" />
	</node>
	<node lat="70.64811112513532" lon="27.08356622823243" id="-41425">
		<tag k="name" v="Harelvvannet" />
		<tag k="natural" v="water" />
		<tag k="ssr:stedsnr" v="505710" />
	</node>
	<node lat="70.63515279240234" lon="27.14306065801585" id="-41426">
		<tag k="name" v="Kvitelva - Leađđojohka" />
		<tag k="name:no" v="Kvitelva" />
		<tag k="name:se" v="Leađđojohka" />
		<tag k="old_name:se" v="Læđđujåkka" />
		<tag k="ssr:stedsnr" v="505718" />
		<tag k="waterway" v="stream" />
	</node>
	<node lat="70.56023056071373" lon="26.534260764663784" id="-41427">
		<tag k="name" v="Orošjohka" />
		<tag k="name:se" v="Orošjohka" />
		<tag k="old_name:se" v="Årošjåkka" />
		<tag k="ssr:stedsnr" v="505603" />
		<tag k="waterway" v="river" />
	</node>
	<node lat="70.7354916760744" lon="27.348127314237967" id="-41432">
		<tag k="name" v="Ytre Sørfjordvannet" />
		<tag k="natural" v="water" />
		<tag k="ssr:stedsnr" v="505677" />
	</node>
	<node lat="70.77975556479343" lon="27.38398009189833" id="-41434">
		<tag k="fixme" v="multiple name tags, choose one and add the other to alt_name" />
		<tag k="name" v="Holmevannet;Lille Holmevannet" />
		<tag k="natural" v="water" />
		<tag k="ssr:stedsnr" v="505816" />
		<tag k="water" v="lake" />
	</node>
	<node lat="70.40383612493275" lon="26.874952348108575" id="-41440">
		<tag k="name" v="Anderslangvannet" />
		<tag k="natural" v="water" />
		<tag k="ssr:stedsnr" v="686156" />
		<tag k="water" v="lake" />
	</node>
	<node lat="70.41948056620765" lon="26.422632974597533" id="-41441">
		<tag k="name" v="Rundvannet - Jorbajávri" />
		<tag k="name:no" v="Rundvannet" />
		<tag k="name:se" v="Jorbajávri" />
		<tag k="natural" v="water" />
		<tag k="old_name:se" v="Jårbajavri;Jorbajavri" />
		<tag k="ssr:stedsnr" v="686169" />
		<tag k="water" v="lake" />
	</node>
	<node lat="70.48449445594592" lon="26.520488522922054" id="-41447">
		<tag k="name" v="Skáidejávri" />
		<tag k="name:se" v="Skáidejávri" />
		<tag k="natural" v="water" />
		<tag k="old_name:se" v="Skaidejavri" />
		<tag k="ssr:stedsnr" v="686363" />
	</node>
	<node lat="70.33181668064728" lon="27.23238838319782" id="-41449">
		<tag k="name" v="Lávvosaijávrrit" />
		<tag k="name:se" v="Lávvosaijávrrit" />
		<tag k="natural" v="water" />
		<tag k="old_name:se" v="Lavvusajjavrit;Lávvosajjávrrit" />
		<tag k="ssr:stedsnr" v="687067" />
		<tag k="water" v="lake" />
	</node>
	<node lat="70.3585111197158" lon="26.692524596790165" id="-41453">
		<tag k="name" v="Látnjajohka" />
		<tag k="name:se" v="Látnjajohka" />
		<tag k="old_name:se" v="Ladnjajåkka" />
		<tag k="ssr:stedsnr" v="687127" />
		<tag k="waterway" v="river" />
	</node>
	<node lat="70.86697778949699" lon="26.66146909491534" id="-41455">
		<tag k="name" v="Saltijærvivannet - Sáltejávrrádat" />
		<tag k="name:no" v="Saltijærvivannet" />
		<tag k="name:se" v="Sáltejávrrádat" />
		<tag k="natural" v="water" />
		<tag k="old_name:se" v="Saltejavradat" />
		<tag k="ssr:stedsnr" v="687129" />
	</node>
	<node lat="70.35104723407092" lon="26.817071801648368" id="-41456">
		<tag k="name" v="Gjerdeskogvannet - Gárdevuomejávri" />
		<tag k="name:no" v="Gjerdeskogvannet" />
		<tag k="name:se" v="Gárdevuomejávri" />
		<tag k="natural" v="water" />
		<tag k="old_name:se" v="Gardevuomejavri" />
		<tag k="ssr:stedsnr" v="687131" />
		<tag k="water" v="lake" />
	</node>
	<node lat="70.93738889989432" lon="26.681705215001145" id="-41458">
		<tag k="alt_name" v="Risvikelva, l" />
		<tag k="name" v="Lille Risvikelva" />
		<tag k="ssr:stedsnr" v="687143" />
		<tag k="waterway" v="river" />
	</node>
	<node lat="70.47552224166779" lon="27.32530782456218" id="-41461">
		<tag k="name" v="Gikšjohka" />
		<tag k="name:se" v="Gikšjohka" />
		<tag k="old_name:se" v="Gikšjåkka" />
		<tag k="ssr:stedsnr" v="687220" />
		<tag k="waterway" v="stream" />
	</node>
	<node lat="70.26723612100545" lon="26.65149959990965" id="-41463">
		<tag k="name" v="Ruksesbákjávri" />
		<tag k="name:se" v="Ruksesbákjávri" />
		<tag k="natural" v="water" />
		<tag k="old_name:se" v="Ruksesbakjavri" />
		<tag k="ssr:stedsnr" v="687234" />
		<tag k="water" v="lake" />
	</node>
	<node lat="70.39955556528447" lon="26.286546908162887" id="-41464">
		<tag k="name" v="Čiersanjohka" />
		<tag k="name:se" v="Čiersanjohka" />
		<tag k="old_name:se" v="Čiersanjåkka" />
		<tag k="ssr:stedsnr" v="687256" />
		<tag k="waterway" v="river" />
	</node>
	<node lat="70.23803612431415" lon="26.868707891783952" id="-41468">
		<tag k="name" v="Duolbajohka" />
		<tag k="name:se" v="Duolbajohka" />
		<tag k="old_name:se" v="Duolbajåkka" />
		<tag k="ssr:stedsnr" v="687456" />
		<tag k="waterway" v="river" />
	</node>
	<node lat="70.59378335078364" lon="27.038910671865835" id="-41474">
		<tag k="name" v="Bjørnvikvannet" />
		<tag k="natural" v="water" />
		<tag k="ssr:stedsnr" v="687726" />
	</node>
	<node lat="70.7272416770369" lon="27.14903846601631" id="-41477">
		<tag k="name" v="Holvikvannet" />
		<tag k="natural" v="water" />
		<tag k="ssr:stedsnr" v="687672" />
		<tag k="water" v="lake" />
	</node>
	<node lat="70.57118889973614" lon="27.287410617927677" id="-41478">
		<tag k="name" v="Småvannan" />
		<tag k="natural" v="water" />
		<tag k="ssr:stedsnr" v="687746" />
		<tag k="water" v="lake" />
	</node>
	<node lat="70.37514723489679" lon="27.222227294499575" id="-41485">
		<tag k="name" v="Holmvannet - Suolojávri" />
		<tag k="name:no" v="Holmvannet" />
		<tag k="name:se" v="Suolojávri" />
		<tag k="natural" v="water" />
		<tag k="old_name:se" v="Suolujavri" />
		<tag k="ssr:stedsnr" v="688046" />
		<tag k="water" v="lake" />
	</node>
	<node lat="70.4406305734554" lon="27.335430052257248" id="-41486">
		<tag k="name" v="Eaštorjávri" />
		<tag k="name:se" v="Eaštorjávri" />
		<tag k="natural" v="water" />
		<tag k="old_name:se" v="Æšturjavri" />
		<tag k="ssr:stedsnr" v="688218" />
		<tag k="water" v="lake" />
	</node>
	<node lat="70.43402501161223" lon="27.173493963688784" id="-41487">
		<tag k="name" v="Stuorraluohkajohka" />
		<tag k="name:se" v="Stuorraluohkajohka" />
		<tag k="old_name:se" v="Stuorraluokkajåkka" />
		<tag k="ssr:stedsnr" v="688220" />
		<tag k="waterway" v="stream" />
	</node>
	<node lat="70.44078612541499" lon="27.11666341410869" id="-41488">
		<tag k="name" v="Ørretvannan - Dápmotjávrrit" />
		<tag k="name:no" v="Ørretvannan" />
		<tag k="name:se" v="Dápmotjávrrit" />
		<tag k="natural" v="water" />
		<tag k="old_name:se" v="Dabmutjavrit" />
		<tag k="ssr:stedsnr" v="688227" />
		<tag k="water" v="lake" />
	</node>
	<node lat="70.81919167758709" lon="26.694746882815007" id="-41489">
		<tag k="name" v="Godvikelva" />
		<tag k="ssr:stedsnr" v="688259" />
		<tag k="waterway" v="stream" />
	</node>
	<node lat="70.51597223030932" lon="26.506752437535706" id="-41507">
		<tag k="name" v="Stordalselva - Lipmejohka" />
		<tag k="name:no" v="Stordalselva" />
		<tag k="name:se" v="Lipmejohka" />
		<tag k="old_name:se" v="Libmejåkka" />
		<tag k="ssr:stedsnr" v="566107" />
		<tag k="waterway" v="river" />
	</node>
	<node lat="70.45880001375458" lon="27.03543844261071" id="-41509">
		<tag k="name" v="Skredvannan - Njirranjávrrit" />
		<tag k="name:no" v="Skredvannan" />
		<tag k="name:se" v="Njirranjávrrit" />
		<tag k="natural" v="water" />
		<tag k="old_name:se" v="Njirranjavrit" />
		<tag k="ssr:stedsnr" v="566223" />
		<tag k="water" v="lake" />
	</node>
	<node lat="70.7473722342816" lon="27.40188286686427" id="-41518">
		<tag k="name" v="Fossvannet - Borsejávri" />
		<tag k="name:no" v="Fossvannet" />
		<tag k="name:se" v="Borsejávri" />
		<tag k="natural" v="water" />
		<tag k="old_name:se" v="Bårsejavri" />
		<tag k="ssr:stedsnr" v="566664" />
		<tag k="water" v="lake" />
	</node>
	<node lat="70.63548890024167" lon="27.360893966646273" id="-41519">
		<tag k="name" v="Nikolasvannet" />
		<tag k="natural" v="water" />
		<tag k="ssr:stedsnr" v="566703" />
	</node>
	<node lat="70.81803612038755" lon="27.293080090414065" id="-41522">
		<tag k="name" v="Innerelva" />
		<tag k="ssr:stedsnr" v="566770" />
		<tag k="waterway" v="stream" />
	</node>
	<node lat="70.92861112499887" lon="27.413105106734903" id="-41543">
		<tag k="name" v="Vardvannet" />
		<tag k="natural" v="water" />
		<tag k="ssr:stedsnr" v="576997" />
	</node>
	<node lat="70.49445001443155" lon="27.06839955044475" id="-41549">
		<tag k="name" v="Paddeelva" />
		<tag k="ssr:stedsnr" v="697524" />
		<tag k="waterway" v="stream" />
	</node>
	<node lat="70.58960001069477" lon="27.29762173763559" id="-41551">
		<tag k="name" v="Geitelva" />
		<tag k="ssr:stedsnr" v="697842" />
		<tag k="waterway" v="stream" />
	</node>
	<node lat="70.93858056505672" lon="27.541605068827717" id="-41553">
		<tag k="name" v="Sørbotnvannet" />
		<tag k="natural" v="water" />
		<tag k="ssr:stedsnr" v="697927" />
		<tag k="water" v="lake" />
	</node>
	<node lat="70.95198611899181" lon="27.428171767952236" id="-41554">
		<tag k="name" v="Tverrelvvannet" />
		<tag k="natural" v="water" />
		<tag k="ssr:stedsnr" v="697940" />
		<tag k="water" v="lake" />
	</node>
	<node lat="70.94929722805988" lon="27.365032890107013" id="-41555">
		<tag k="name" v="Kirkeelva" />
		<tag k="ssr:stedsnr" v="697962" />
		<tag k="waterway" v="river" />
	</node>
	<node lat="70.34990556818236" lon="26.467735747590485" id="-41561">
		<tag k="name" v="Linjekulpen" />
		<tag k="place" v="locality" />
		<tag k="ssr:stedsnr" v="699631" />
	</node>
	<node lat="70.3966750097436" lon="26.759244051772793" id="-41562">
		<tag k="name" v="Tørrvedvannet - Stohkkemuorjávri" />
		<tag k="name:no" v="Tørrvedvannet" />
		<tag k="name:se" v="Stohkkemuorjávri" />
		<tag k="natural" v="water" />
		<tag k="old_name:se" v="Ståkkemuorjavri;Stokkemuorjávri" />
		<tag k="ssr:stedsnr" v="625157" />
		<tag k="water" v="lake" />
	</node>
	<node lat="70.19596390066982" lon="26.354871878811128" id="-41563">
		<tag k="name" v="Aškkasjávrrit" />
		<tag k="name:se" v="Aškkasjávrrit" />
		<tag k="natural" v="water" />
		<tag k="old_name:se" v="Aškasjavrit" />
		<tag k="ssr:stedsnr" v="625373" />
		<tag k="water" v="lake" />
	</node>
	<node lat="70.34593334230381" lon="26.68578293554592" id="-41565">
		<tag k="alt_name:no" v="Adamselva" />
		<tag k="name" v="Adamsfjordelva - Áttánjohka" />
		<tag k="name:no" v="Adamsfjordelva" />
		<tag k="name:se" v="Áttánjohka" />
		<tag k="old_name:se" v="Addanjåkka;Åttánjohka" />
		<tag k="ssr:stedsnr" v="626158" />
		<tag k="waterway" v="river" />
	</node>
	<node lat="70.94825834134873" lon="26.6745024561487" id="-41570">
		<tag k="name" v="Langdalselva" />
		<tag k="ssr:stedsnr" v="626547" />
		<tag k="waterway" v="river" />
	</node>
	<node lat="70.58825557067146" lon="27.317927303665773" id="-41573">
		<tag k="name" v="Geitvannet" />
		<tag k="natural" v="water" />
		<tag k="ssr:stedsnr" v="626747" />
		<tag k="water" v="lake" />
	</node>
	<node lat="70.34531945639932" lon="26.51729686039639" id="-41580">
		<tag k="name" v="Austerelva" />
		<tag k="ssr:stedsnr" v="631732" />
		<tag k="waterway" v="river" />
	</node>
	<node lat="70.63699167600649" lon="26.543177434099345" id="-41583">
		<tag k="name" v="Langnes" />
		<tag k="natural" v="cape" />
		<tag k="ssr:stedsnr" v="635884" />
	</node>
	<node lat="70.48239723438668" lon="27.111885655764066" id="-41589">
		<tag k="name" v="Prestelva" />
		<tag k="ssr:stedsnr" v="637605" />
		<tag k="waterway" v="stream" />
	</node>
	<node lat="70.5570916807416" lon="27.039838469240703" id="-41591">
		<tag k="name" v="Buktaelva" />
		<tag k="ssr:stedsnr" v="637613" />
		<tag k="waterway" v="river" />
	</node>
	<node lat="70.35676112715757" lon="27.316916150652407" id="-41593">
		<tag k="name" v="Vinkelvannet" />
		<tag k="natural" v="water" />
		<tag k="ssr:stedsnr" v="639612" />
	</node>
	<node lat="70.47672223860181" lon="27.157435637202248" id="-41594">
		<tag k="name" v="Sáhppalatjávri" />
		<tag k="name:se" v="Sáhppalatjávri" />
		<tag k="natural" v="water" />
		<tag k="ssr:stedsnr" v="662200" />
	</node>
	<node lat="70.41703334021713" lon="26.22748857430938" id="-41596">
		<tag k="name" v="Spiellajávri" />
		<tag k="name:se" v="Spiellajávri" />
		<tag k="natural" v="water" />
		<tag k="old_name:se" v="Spiellajavri" />
		<tag k="ssr:stedsnr" v="687243" />
	</node>
	<node lat="70.44154167456463" lon="26.201194122391573" id="-41600">
		<tag k="name" v="Iisajávri" />
		<tag k="name:se" v="Iisajávri" />
		<tag k="natural" v="water" />
		<tag k="old_name:se" v="Jisajavri;Iisajavri" />
		<tag k="ssr:stedsnr" v="687303" />
	</node>
	<node lat="70.50198057035031" lon="27.242513407779686" id="-41601">
		<tag k="name" v="Suolojárluoppal" />
		<tag k="name:se" v="Suolojárluoppal" />
		<tag k="natural" v="water" />
		<tag k="old_name:se" v="Suolujarluobbal" />
		<tag k="ssr:stedsnr" v="687305" />
	</node>
	<node lat="70.20615834362556" lon="26.999543984555842" id="-41602">
		<tag k="name" v="Juovvajávrrit" />
		<tag k="name:se" v="Juovvajávrrit" />
		<tag k="natural" v="water" />
		<tag k="old_name:se" v="Juovvajavrit" />
		<tag k="ssr:stedsnr" v="687390" />
		<tag k="water" v="lake" />
	</node>
	<node lat="70.21757223583131" lon="26.89269954804062" id="-41603">
		<tag k="name" v="Guovllajávri" />
		<tag k="name:se" v="Guovllajávri" />
		<tag k="natural" v="water" />
		<tag k="old_name:se" v="Guovlajavri" />
		<tag k="ssr:stedsnr" v="687392" />
		<tag k="water" v="lake" />
	</node>
	<node lat="70.19175279516608" lon="26.885099542690224" id="-41604">
		<tag k="name" v="Beaskajohka" />
		<tag k="name:se" v="Beaskajohka" />
		<tag k="old_name:se" v="Bæskajåkka" />
		<tag k="ssr:stedsnr" v="687395" />
		<tag k="waterway" v="river" />
	</node>
	<node lat="70.65861945601341" lon="26.252555246119993" id="-41607">
		<tag k="alt_name:no" v="Einebekken" />
		<tag k="name" v="Einerbekken - Reatkajohka" />
		<tag k="name:no" v="Einerbekken" />
		<tag k="name:se" v="Reatkajohka" />
		<tag k="old_name:se" v="Rætkajåkka" />
		<tag k="ssr:stedsnr" v="687537" />
		<tag k="waterway" v="stream" />
	</node>
	<node lat="70.95968334102452" lon="27.381785667773848" id="-41624">
		<tag k="name" v="Kirkelvvannet" />
		<tag k="natural" v="water" />
		<tag k="ssr:stedsnr" v="697888" />
		<tag k="water" v="lake" />
	</node>
	<node lat="70.9192472318232" lon="27.384405113322046" id="-41626">
		<tag k="name" v="Bruna" />
		<tag k="ssr:stedsnr" v="697984" />
		<tag k="waterway" v="stream" />
	</node>
	<node lat="70.01914167558404" lon="26.109702437402085" id="-41629">
		<tag k="name" v="Dávgesjávri" />
		<tag k="name:se" v="Dávgesjávri" />
		<tag k="natural" v="water" />
		<tag k="old_name:se" v="Davgesjavri" />
		<tag k="ssr:stedsnr" v="747367" />
	</node>
	<node lat="70.23908890717021" lon="26.926868994660918" id="-41630">
		<tag k="name" v="Bierdnajávri" />
		<tag k="name:se" v="Bierdnajávri" />
		<tag k="natural" v="water" />
		<tag k="old_name:se" v="Bierdnajavri" />
		<tag k="ssr:stedsnr" v="747374" />
		<tag k="water" v="lake" />
	</node>
	<node lat="70.2304694583728" lon="26.644141270546577" id="-41631">
		<tag k="name" v="Važžejohka" />
		<tag k="name:se" v="Važžejohka" />
		<tag k="old_name:se" v="Važžejåkka" />
		<tag k="ssr:stedsnr" v="747375" />
		<tag k="waterway" v="river" />
	</node>
	<node lat="70.59773335027354" lon="27.123627330008212" id="-41633">
		<tag k="name" v="Gotfiskelva - Gáretjohka" />
		<tag k="name:no" v="Gotfiskelva" />
		<tag k="name:se" v="Gáretjohka" />
		<tag k="old_name:se" v="Garetjåkka" />
		<tag k="ssr:stedsnr" v="747708" />
		<tag k="waterway" v="stream" />
	</node>
	<node lat="70.4471305678568" lon="27.21202452665405" id="-41634">
		<tag k="name" v="Soagŋoluoppal" />
		<tag k="name:se" v="Soagŋoluoppal" />
		<tag k="natural" v="water" />
		<tag k="old_name:se" v="Soagŋuluobbal" />
		<tag k="ssr:stedsnr" v="748204" />
	</node>
	<node lat="70.44893056443831" lon="27.10989676966148" id="-41635">
		<tag k="name" v="Dápmotjohka" />
		<tag k="name:se" v="Dápmotjohka" />
		<tag k="old_name:se" v="Dabmutjåkka" />
		<tag k="ssr:stedsnr" v="748206" />
		<tag k="waterway" v="stream" />
	</node>
	<node lat="70.46823612613989" lon="27.285063402516336" id="-41636">
		<tag k="alt_name:se" v="Heargahávkanjávri" />
		<tag k="name" v="Heargehávkalanjávri" />
		<tag k="name:se" v="Heargehávkalanjávri" />
		<tag k="natural" v="water" />
		<tag k="old_name:se" v="Hærgehavkalanjavri" />
		<tag k="ssr:stedsnr" v="748214" />
	</node>
	<node lat="70.47429445681438" lon="27.364991166122678" id="-41638">
		<tag k="name" v="Geŋgeskáidi" />
		<tag k="name:se" v="Geŋgeskáidi" />
		<tag k="natural" v="cape" />
		<tag k="old_name:se" v="Geŋgeskaidi" />
		<tag k="ssr:stedsnr" v="748218" />
	</node>
	<node lat="70.71361112187705" lon="26.518966322824543" id="-41639">
		<tag k="name" v="Stordalselva" />
		<tag k="ssr:stedsnr" v="748107" />
		<tag k="waterway" v="river" />
	</node>
	<node lat="70.62849722641792" lon="26.15733305002799" id="-41646">
		<tag k="name" v="Eidevannan - Muotkejávrrit" />
		<tag k="name:no" v="Eidevannan" />
		<tag k="name:se" v="Muotkejávrrit" />
		<tag k="natural" v="water" />
		<tag k="old_name:se" v="Muotkejavrit" />
		<tag k="ssr:stedsnr" v="748572" />
		<tag k="water" v="lake" />
	</node>
	<node lat="70.63357500656927" lon="26.58802741677528" id="-41659">
		<tag k="name" v="Ørretvannan" />
		<tag k="natural" v="water" />
		<tag k="ssr:stedsnr" v="757896" />
		<tag k="water" v="lake" />
	</node>
	<node lat="70.96225279224548" lon="27.316707902662746" id="-41665">
		<tag k="name" v="Sprengsnesbekken" />
		<tag k="ssr:stedsnr" v="758906" />
		<tag k="waterway" v="stream" />
	</node>
	<node lat="70.75324723593378" lon="27.575152259351153" id="-41673">
		<tag k="name" v="Smielva - Readdjojohka" />
		<tag k="name:no" v="Smielva" />
		<tag k="name:se" v="Readdjojohka" />
		<tag k="old_name:se" v="Ræddjujåkka" />
		<tag k="ssr:stedsnr" v="808800" />
		<tag k="waterway" v="river" />
	</node>
	<node lat="70.49865001289831" lon="27.083246765332138" id="-41674">
		<tag k="name" v="Seibošvannet - Seibošjávri" />
		<tag k="name:no" v="Seibošvannet" />
		<tag k="name:se" v="Seibošjávri" />
		<tag k="natural" v="water" />
		<tag k="old_name:se" v="Seibušjavri" />
		<tag k="ssr:stedsnr" v="809242" />
		<tag k="water" v="lake" />
	</node>
	<node lat="70.26242223862901" lon="26.51159128857135" id="-41675">
		<tag k="name" v="Eretjávrrit" />
		<tag k="name:se" v="Eretjávrrit" />
		<tag k="natural" v="water" />
		<tag k="old_name:se" v="Eretjavrit" />
		<tag k="ssr:stedsnr" v="809245" />
		<tag k="water" v="lake" />
	</node>
	<node lat="70.38501945669361" lon="27.111749539103982" id="-41676">
		<tag k="name" v="Bordejávrrit" />
		<tag k="name:se" v="Bordejávrrit" />
		<tag k="natural" v="water" />
		<tag k="old_name:se" v="Bårdejavrit" />
		<tag k="ssr:stedsnr" v="809196" />
		<tag k="water" v="lake" />
	</node>
	<node lat="70.79765834485374" lon="27.328991216192914" id="-41686">
		<tag k="name" v="Olnilsavikvannan" />
		<tag k="natural" v="water" />
		<tag k="ssr:stedsnr" v="809792" />
		<tag k="water" v="lake" />
	</node>
	<node lat="70.71517223702516" lon="27.448355055677155" id="-41688">
		<tag k="name" v="Reinoksvannan" />
		<tag k="natural" v="water" />
		<tag k="ssr:stedsnr" v="809693" />
		<tag k="water" v="lake" />
	</node>
	<node lat="70.89502142804668" lon="27.438911782877536" id="-41691">
		<tag k="loc_name:se" v="Doaresjávri" />
		<tag k="name" v="Tverrvannet" />
		<tag k="name:no" v="Tverrvannet" />
		<tag k="natural" v="water" />
		<tag k="ssr:stedsnr" v="814203" />
		<tag k="water" v="lake" />
	</node>
	<node lat="70.58039167905393" lon="27.00698012634898" id="-41698">
		<tag k="name" v="Lillelva" />
		<tag k="ssr:stedsnr" v="819613" />
		<tag k="waterway" v="river" />
	</node>
	<node lat="70.92154722922298" lon="27.428199544798634" id="-41704">
		<tag k="name" v="Vestre Blåfjellvannet" />
		<tag k="natural" v="water" />
		<tag k="ssr:stedsnr" v="819968" />
		<tag k="water" v="lake" />
	</node>
	<node lat="70.930747236658" lon="27.460732869018237" id="-41706">
		<tag k="name" v="Klokkervannet" />
		<tag k="natural" v="water" />
		<tag k="ssr:stedsnr" v="819970" />
	</node>
	<node lat="70.92466667588322" lon="27.423907871027083" id="-41707">
		<tag k="name" v="Botnelva" />
		<tag k="ssr:stedsnr" v="819971" />
		<tag k="waterway" v="river" />
	</node>
	<node lat="70.38138334711938" lon="26.471788540604688" id="-41713">
		<tag k="name" v="Matsjokvannet - Máhtosjávri" />
		<tag k="name:no" v="Matsjokvannet" />
		<tag k="name:se" v="Máhtosjávri" />
		<tag k="natural" v="water" />
		<tag k="old_name:se" v="Mattusjavri" />
		<tag k="ssr:stedsnr" v="929138" />
		<tag k="water" v="lake" />
	</node>
	<node lat="70.22206945894929" lon="26.961646749975177" id="-41720">
		<tag k="name" v="Njárgajávri" />
		<tag k="name:se" v="Njárgajávri" />
		<tag k="natural" v="water" />
		<tag k="old_name:se" v="Njargajavri" />
		<tag k="ssr:stedsnr" v="929369" />
		<tag k="water" v="lake" />
	</node>
	<node lat="70.32644723313516" lon="26.593852402137244" id="-41725">
		<tag k="name" v="Coappajávri" />
		<tag k="name:se" v="Coappajávri" />
		<tag k="natural" v="water" />
		<tag k="old_name:se" v="Coabbajavri" />
		<tag k="ssr:stedsnr" v="930131" />
	</node>
	<node lat="70.355338900772" lon="26.422788538335325" id="-41727">
		<tag k="name" v="Dápmotjohka" />
		<tag k="name:se" v="Dápmotjohka" />
		<tag k="old_name:se" v="Dabmutjåkka" />
		<tag k="ssr:stedsnr" v="930135" />
		<tag k="waterway" v="stream" />
	</node>
	<node lat="70.91627779041856" lon="27.21455513301185" id="-41729">
		<tag k="name" v="Gartevannan" />
		<tag k="natural" v="water" />
		<tag k="ssr:stedsnr" v="930198" />
		<tag k="water" v="lake" />
	</node>
	<node lat="70.49180556941275" lon="26.310102450185262" id="-41733">
		<tag k="name" v="Lipmejávri" />
		<tag k="name:se" v="Lipmejávri" />
		<tag k="natural" v="water" />
		<tag k="old_name:se" v="Libmejavri" />
		<tag k="ssr:stedsnr" v="869315" />
		<tag k="water" v="lake" />
	</node>
	<node lat="70.93769445291554" lon="27.324102331404568" id="-41735">
		<tag k="name" v="Øvre Snattvikvannet" />
		<tag k="natural" v="water" />
		<tag k="ssr:stedsnr" v="930186" />
		<tag k="water" v="lake" />
	</node>
	<node lat="70.30585834389427" lon="26.94956899864182" id="-41736">
		<tag k="name" v="Dápmotluoppal" />
		<tag k="name:se" v="Dápmotluoppal" />
		<tag k="natural" v="water" />
		<tag k="old_name:se" v="Dabmutluobbal" />
		<tag k="ssr:stedsnr" v="869271" />
	</node>
	<node lat="70.24631945474324" lon="26.470660729335926" id="-41737">
		<tag k="name" v="Šuoššjohjávri" />
		<tag k="name:se" v="Šuoššjohjávri" />
		<tag k="natural" v="water" />
		<tag k="old_name:se" v="Šuoššjåkjavri" />
		<tag k="ssr:stedsnr" v="869424" />
		<tag k="water" v="lake" />
	</node>
	<node lat="70.93933334626247" lon="27.30690233406005" id="-41738">
		<tag k="name" v="Mellomste Snattvikvannet" />
		<tag k="natural" v="water" />
		<tag k="ssr:stedsnr" v="930191" />
		<tag k="water" v="lake" />
	</node>
	<node lat="70.94603334165984" lon="27.59099396616586" id="-41739">
		<tag k="name" v="Setervasselva" />
		<tag k="ssr:stedsnr" v="930193" />
		<tag k="waterway" v="stream" />
	</node>
	<node lat="70.96998890441093" lon="27.634374502603954" id="-41742">
		<tag k="name" v="Tverrelvvannan" />
		<tag k="natural" v="water" />
		<tag k="ssr:stedsnr" v="869837" />
		<tag k="water" v="lake" />
	</node>
	<node lat="70.26349723083888" lon="26.677916271945467" id="-41749">
		<tag k="name" v="Ruksesbákjohka" />
		<tag k="name:se" v="Ruksesbákjohka" />
		<tag k="old_name:se" v="Ruksesbakjåkka" />
		<tag k="ssr:stedsnr" v="930235" />
		<tag k="waterway" v="stream" />
	</node>
	<node lat="70.40626945901306" lon="27.07017452883473" id="-41752">
		<tag k="name" v="Skávhlejávri" />
		<tag k="name:se" v="Skávhlejávri" />
		<tag k="natural" v="water" />
		<tag k="old_name:se" v="Skavhlejavri" />
		<tag k="ssr:stedsnr" v="870214" />
		<tag k="water" v="lake" />
	</node>
	<node lat="70.43171390506548" lon="27.237738408328465" id="-41753">
		<tag k="name" v="Guolehisjávri" />
		<tag k="name:se" v="Guolehisjávri" />
		<tag k="natural" v="water" />
		<tag k="old_name:se" v="Guolehisjavri" />
		<tag k="ssr:stedsnr" v="870226" />
	</node>
	<node lat="70.57811389842853" lon="26.27464414464752" id="-41755">
		<tag k="name" v="Veidnesfossen" />
		<tag k="natural" v="waterfall" />
		<tag k="ssr:stedsnr" v="870564" />
	</node>
	<node lat="70.62882223347601" lon="26.596607981191056" id="-41760">
		<tag k="name" v="Skjellvikvannet" />
		<tag k="natural" v="water" />
		<tag k="ssr:stedsnr" v="870630" />
	</node>
	<node lat="70.39730001140919" lon="26.156538589014243" id="-41761">
		<tag k="name" v="Njárgajávri" />
		<tag k="name:se" v="Njárgajávri" />
		<tag k="natural" v="water" />
		<tag k="old_name:se" v="Njargajavri" />
		<tag k="ssr:stedsnr" v="930275" />
		<tag k="water" v="lake" />
	</node>
	<node lat="70.33593334320301" lon="26.1497968963965" id="-41765">
		<tag k="name" v="Guhkesjávri" />
		<tag k="name:se" v="Guhkesjávri" />
		<tag k="natural" v="water" />
		<tag k="old_name:se" v="Gukkesjavri;Gukkesjávri" />
		<tag k="ssr:stedsnr" v="930369" />
	</node>
	<node lat="70.50675834530061" lon="27.14843843367953" id="-41768">
		<tag k="name" v="Gáhkkorjávri" />
		<tag k="name:se" v="Gáhkkorjávri" />
		<tag k="natural" v="water" />
		<tag k="old_name:se" v="Gakkurjavri" />
		<tag k="ssr:stedsnr" v="930327" />
	</node>
	<node lat="71.03126668185865" lon="27.622960623509837" id="-41771">
		<tag k="name" v="Bjørnvikvannan" />
		<tag k="natural" v="water" />
		<tag k="ssr:stedsnr" v="930493" />
		<tag k="water" v="lake" />
	</node>
	<node lat="70.65300556717429" lon="26.564480208372476" id="-41775">
		<tag k="name" v="Lomvannet" />
		<tag k="natural" v="water" />
		<tag k="ssr:stedsnr" v="930639" />
	</node>
	<node lat="70.68697778645566" lon="27.187616222448742" id="-41777">
		<tag k="fixme" v="multiple name tags, choose one and add the other to alt_name" />
		<tag k="name" v="Breivikvannan;Breidvikvannan" />
		<tag k="natural" v="water" />
		<tag k="ssr:stedsnr" v="930702" />
		<tag k="water" v="lake" />
	</node>
	<node lat="70.73637223734073" lon="27.334355090293222" id="-41781">
		<tag k="name" v="Ytterelva" />
		<tag k="ssr:stedsnr" v="930672" />
		<tag k="waterway" v="stream" />
	</node>
	<node lat="70.57740279124889" lon="27.282541199759997" id="-41787">
		<tag k="fixme" v="multiple name tags, choose one and add the other to alt_name" />
		<tag k="name" v="Sørelvvannet;Sørvannet" />
		<tag k="natural" v="water" />
		<tag k="ssr:stedsnr" v="930763" />
	</node>
	<node lat="70.90071668223669" lon="27.473635640625023" id="-41790">
		<tag k="name" v="Vikavannan" />
		<tag k="natural" v="water" />
		<tag k="ssr:stedsnr" v="930789" />
		<tag k="water" v="lake" />
	</node>
	<node lat="70.5221055662378" lon="27.06669401037498" id="-41794">
		<tag k="name" v="Skogvikvannet" />
		<tag k="natural" v="water" />
		<tag k="ssr:stedsnr" v="879566" />
	</node>
	<node lat="71.01105279212017" lon="27.38933289722626" id="-41796">
		<tag k="name" v="Rubbeskarelva" />
		<tag k="ssr:stedsnr" v="880607" />
		<tag k="waterway" v="river" />
	</node>
	<node lat="71.01493334238724" lon="27.331077354948878" id="-41797">
		<tag k="name" v="Nonselva" />
		<tag k="ssr:stedsnr" v="880600" />
		<tag k="waterway" v="stream" />
	</node>
	<node lat="70.65220278719744" lon="26.606552430630714" id="-41802">
		<tag k="name" v="Klubbekken" />
		<tag k="ssr:stedsnr" v="934771" />
		<tag k="waterway" v="stream" />
	</node>
	<node lat="70.45280556839747" lon="26.487249638269393" id="-41807">
		<tag k="name" v="Kalvevannan - Gálbbejávrrit" />
		<tag k="name:no" v="Kalvevannan" />
		<tag k="name:se" v="Gálbbejávrrit" />
		<tag k="natural" v="water" />
		<tag k="old_name:se" v="Galbejavrit" />
		<tag k="ssr:stedsnr" v="929303" />
		<tag k="water" v="lake" />
	</node>
	<node lat="70.49253612004885" lon="26.45961355658291" id="-41808">
		<tag k="name" v="Gomuluohjohka" />
		<tag k="name:se" v="Gomuluohjohka" />
		<tag k="old_name:se" v="Gåmoluohjåkka" />
		<tag k="ssr:stedsnr" v="929350" />
		<tag k="waterway" v="stream" />
	</node>
	<node lat="70.24830000958089" lon="26.847960671109025" id="-41809">
		<tag k="name" v="Duolbaluobbalat" />
		<tag k="name:se" v="Duolbaluobbalat" />
		<tag k="natural" v="water" />
		<tag k="ssr:stedsnr" v="929354" />
	</node>
	<node lat="70.23087779037985" lon="26.96691342125119" id="-41810">
		<tag k="name" v="Njárgajárjohka" />
		<tag k="name:se" v="Njárgajárjohka" />
		<tag k="old_name:se" v="Njargajarjåkka" />
		<tag k="ssr:stedsnr" v="929360" />
		<tag k="waterway" v="river" />
	</node>
	<node lat="70.24401112778288" lon="27.034396756889162" id="-41811">
		<tag k="name" v="Dollajohka" />
		<tag k="name:se" v="Dollajohka" />
		<tag k="old_name:se" v="Dållajåkka" />
		<tag k="ssr:stedsnr" v="929407" />
		<tag k="waterway" v="stream" />
	</node>
	<node lat="70.45778057261826" lon="27.12672452601456" id="-41814">
		<tag k="name" v="Ifjordelva - Idjavuonjohka" />
		<tag k="name:no" v="Ifjordelva" />
		<tag k="name:se" v="Idjavuonjohka" />
		<tag k="old_name:se" v="Iddjavuonjåkka" />
		<tag k="ssr:stedsnr" v="930208" />
		<tag k="waterway" v="river" />
	</node>
	<node lat="70.28855001489356" lon="26.472299643289652" id="-41816">
		<tag k="name" v="Sørelva - Šuoššjohka" />
		<tag k="name:no" v="Sørelva" />
		<tag k="name:se" v="Šuoššjohka" />
		<tag k="old_name:se" v="Šuoššjåkka" />
		<tag k="ssr:stedsnr" v="930250" />
		<tag k="waterway" v="river" />
	</node>
	<node lat="70.31602778997411" lon="26.92571622907061" id="-41818">
		<tag k="name" v="Gahpatjávri" />
		<tag k="name:se" v="Gahpatjávri" />
		<tag k="natural" v="water" />
		<tag k="old_name:se" v="Gappatjavri" />
		<tag k="ssr:stedsnr" v="930256" />
		<tag k="water" v="lake" />
	</node>
	<node lat="70.43691668235797" lon="27.30151616342754" id="-41819">
		<tag k="name" v="Jernvannet - Ruovdejávri" />
		<tag k="name:no" v="Jernvannet" />
		<tag k="name:se" v="Ruovdejávri" />
		<tag k="natural" v="water" />
		<tag k="old_name:se" v="Ruovdejavri" />
		<tag k="ssr:stedsnr" v="930194" />
		<tag k="water" v="lake" />
	</node>
	<node lat="70.66586945946334" lon="27.30032175541501" id="-41827">
		<tag k="name" v="Stohkášjohka" />
		<tag k="name:se" v="Stohkášjohka" />
		<tag k="old_name:se" v="Ståkkašjåkka" />
		<tag k="ssr:stedsnr" v="930706" />
		<tag k="waterway" v="river" />
	</node>
	<node lat="70.59581667800852" lon="27.066385670752236" id="-41828">
		<tag k="name" v="Tindvannet" />
		<tag k="natural" v="water" />
		<tag k="ssr:stedsnr" v="930742" />
		<tag k="water" v="lake" />
	</node>
	<node lat="70.59709723620158" lon="27.373224518644296" id="-41829">
		<tag k="name" v="Holmevannan" />
		<tag k="natural" v="water" />
		<tag k="ssr:stedsnr" v="930749" />
		<tag k="water" v="lake" />
	</node>
	<node lat="70.82860278879035" lon="27.607102271442173" id="-41830">
		<tag k="name" v="Bonjordvannet" />
		<tag k="natural" v="water" />
		<tag k="ssr:stedsnr" v="930794" />
		<tag k="water" v="lake" />
	</node>
	<node lat="70.48382779369301" lon="27.209030073295626" id="-41843">
		<tag k="name" v="Geassejávri" />
		<tag k="name:se" v="Geassejávri" />
		<tag k="natural" v="water" />
		<tag k="old_name:se" v="Gæssejavri" />
		<tag k="ssr:stedsnr" v="20215" />
	</node>
	<node lat="70.9970611231927" lon="27.435210656577276" id="-41844">
		<tag k="name" v="Rubbeskarvannan" />
		<tag k="natural" v="water" />
		<tag k="ssr:stedsnr" v="20216" />
		<tag k="water" v="lake" />
	</node>
	<node lat="70.43921946007735" lon="26.87023291545744" id="-41846">
		<tag k="name" v="Ellesiidjohka" />
		<tag k="name:se" v="Ellesiidjohka" />
		<tag k="old_name:se" v="Eellesiidjåkka" />
		<tag k="ssr:stedsnr" v="19169" />
		<tag k="waterway" v="stream" />
	</node>
	<node lat="70.35941667634935" lon="26.422594082981124" id="-41848">
		<tag k="fixme" v="multiple name tags, choose one and add the other to alt_name" />
		<tag k="name" v="Suicesjávri;Guivvošjávri" />
		<tag k="name:se" v="Suicesjávri;Guivvošjávri" />
		<tag k="natural" v="water" />
		<tag k="old_name:se" v="Guivušjavri" />
		<tag k="ssr:stedsnr" v="19128" />
	</node>
	<node lat="70.37439723094421" lon="26.85159125094821" id="-41849">
		<tag k="name" v="Sopmirsuolu" />
		<tag k="name:se" v="Sopmirsuolu" />
		<tag k="old_name:se" v="Såbmirsuolo" />
		<tag k="place" v="islet" />
		<tag k="ssr:stedsnr" v="19131" />
	</node>
	<node lat="70.30550556715356" lon="26.091935805321256" id="-41852">
		<tag k="name" v="Ruostajohka" />
		<tag k="name:se" v="Ruostajohka" />
		<tag k="old_name:se" v="Ruostajåkka" />
		<tag k="ssr:stedsnr" v="19346" />
		<tag k="waterway" v="stream" />
	</node>
	<node lat="70.30034445218917" lon="26.091058014278914" id="-41853">
		<tag k="name" v="Ruostajávri" />
		<tag k="name:se" v="Ruostajávri" />
		<tag k="natural" v="water" />
		<tag k="old_name:se" v="Ruostajavri" />
		<tag k="ssr:stedsnr" v="19349" />
	</node>
	<node lat="70.31395147846148" lon="26.23679477956073" id="-41854">
		<tag k="name" v="Lomvannet - Njunnásjávri" />
		<tag k="name:no" v="Lomvannet" />
		<tag k="name:se" v="Njunnásjávri" />
		<tag k="natural" v="water" />
		<tag k="old_name:se" v="Njunnasjavri" />
		<tag k="ssr:stedsnr" v="19353" />
	</node>
	<node lat="70.44522501196724" lon="26.931710669043138" id="-41856">
		<tag k="name" v="Friarfjordelva - Irgavuonjohka" />
		<tag k="name:no" v="Friarfjordelva" />
		<tag k="name:se" v="Irgavuonjohka" />
		<tag k="old_name:se" v="Irgavuonjåkka" />
		<tag k="ssr:stedsnr" v="19321" />
		<tag k="waterway" v="river" />
	</node>
	<node lat="70.42665279232135" lon="26.56583019501235" id="-41857">
		<tag k="name" v="Storvannet" />
		<tag k="natural" v="water" />
		<tag k="ssr:stedsnr" v="19331" />
	</node>
	<node lat="70.15533334399518" lon="26.103135784698225" id="-41861">
		<tag k="name" v="Reatkajohskáidi" />
		<tag k="name:se" v="Reatkajohskáidi" />
		<tag k="natural" v="cape" />
		<tag k="old_name:se" v="Rætkajåkskaidi;Reatkájohkskáidi" />
		<tag k="ssr:stedsnr" v="19365" />
	</node>
	<node lat="70.33627778438607" lon="26.54656907955436" id="-41866">
		<tag k="name" v="Etnedalselva - Ehtemasjohka" />
		<tag k="name:no" v="Etnedalselva" />
		<tag k="name:se" v="Ehtemasjohka" />
		<tag k="old_name:se" v="Ettemasjåkka" />
		<tag k="ssr:stedsnr" v="20127" />
		<tag k="waterway" v="stream" />
	</node>
	<node lat="70.91220556471745" lon="26.688246892345443" id="-41869">
		<tag k="alt_name:no" v="Risvikelva, store" />
		<tag k="name" v="Store Risvikelva - Risseluovtjohka" />
		<tag k="name:no" v="Store Risvikelva" />
		<tag k="name:se" v="Risseluovtjohka" />
		<tag k="old_name:se" v="Risseluovtjåkka" />
		<tag k="ssr:stedsnr" v="20152" />
		<tag k="waterway" v="river" />
	</node>
	<node lat="70.96024168164935" lon="27.675491163581615" id="-41872">
		<tag k="name" v="Storvannet" />
		<tag k="natural" v="water" />
		<tag k="ssr:stedsnr" v="20520" />
		<tag k="water" v="lake" />
	</node>
	<node lat="70.26575001129594" lon="26.80371345376174" id="-41874">
		<tag k="name" v="Deardnoluobbalat" />
		<tag k="name:se" v="Deardnoluobbalat" />
		<tag k="natural" v="water" />
		<tag k="old_name:se" v="Dærdnuluobbalat" />
		<tag k="ssr:stedsnr" v="20230" />
		<tag k="water" v="lake" />
	</node>
	<node lat="70.39262501448276" lon="27.223982852420047" id="-41877">
		<tag k="name" v="Suolojárluobbalat" />
		<tag k="name:se" v="Suolojárluobbalat" />
		<tag k="natural" v="water" />
		<tag k="old_name:se" v="Suolujarluobbalat" />
		<tag k="ssr:stedsnr" v="20184" />
	</node>
	<node lat="70.45577500799325" lon="26.836391261931112" id="-41878">
		<tag k="name" v="Storvannet" />
		<tag k="natural" v="water" />
		<tag k="ssr:stedsnr" v="20554" />
	</node>
	<node lat="70.56852501024036" lon="27.116532870990085" id="-41885">
		<tag k="name" v="Tverrelva" />
		<tag k="ssr:stedsnr" v="20759" />
		<tag k="waterway" v="stream" />
	</node>
	<node lat="70.5255889000019" lon="27.095271764778516" id="-41887">
		<tag k="name" v="Skogvikvannet - Muorraveaijávri" />
		<tag k="name:no" v="Skogvikvannet" />
		<tag k="name:se" v="Muorraveaijávri" />
		<tag k="natural" v="water" />
		<tag k="old_name:se" v="Muorravæjjavri" />
		<tag k="ssr:stedsnr" v="20772" />
		<tag k="water" v="lake" />
	</node>
	<node lat="70.52009445311855" lon="27.221438418447637" id="-41888">
		<tag k="name" v="Gikšjávri" />
		<tag k="name:se" v="Gikšjávri" />
		<tag k="natural" v="water" />
		<tag k="old_name:se" v="Gikšjavri" />
		<tag k="ssr:stedsnr" v="20776" />
	</node>
	<node lat="70.66970834546149" lon="27.24723286558125" id="-41891">
		<tag k="name" v="Magervannet" />
		<tag k="natural" v="water" />
		<tag k="ssr:stedsnr" v="20714" />
	</node>
	<node lat="70.8451055677356" lon="27.63776336597456" id="-41897">
		<tag k="name" v="Ørntindvannan - Stávaidjávrrit" />
		<tag k="name:no" v="Ørntindvannan" />
		<tag k="name:se" v="Stávaidjávrrit" />
		<tag k="natural" v="water" />
		<tag k="old_name:se" v="Stavaidjavrit" />
		<tag k="ssr:stedsnr" v="20863" />
		<tag k="water" v="lake" />
	</node>
	<node lat="70.82443890109133" lon="27.72403001579645" id="-41898">
		<tag k="name" v="Hopseidvannan - Basášjávrrit" />
		<tag k="name:no" v="Hopseidvannan" />
		<tag k="name:se" v="Basášjávrrit" />
		<tag k="natural" v="water" />
		<tag k="old_name:se" v="Basašjavrit" />
		<tag k="ssr:stedsnr" v="20866" />
		<tag k="water" v="lake" />
	</node>
	<node lat="70.44070279151785" lon="26.798496829136834" id="-41906">
		<tag k="name" v="Tormvikvannet" />
		<tag k="natural" v="water" />
		<tag k="ssr:stedsnr" v="25742" />
	</node>
	<node lat="70.6001889025299" lon="27.25677452840645" id="-41916">
		<tag k="name" v="Tynnvikvannet" />
		<tag k="natural" v="water" />
		<tag k="ssr:stedsnr" v="30840" />
	</node>
	<node lat="70.40805834215028" lon="26.7557968252477" id="-41922">
		<tag k="name" v="Garnvikluoppal" />
		<tag k="name:se" v="Garnvikluoppal" />
		<tag k="natural" v="water" />
		<tag k="ssr:stedsnr" v="31692" />
	</node>
	<node lat="70.86439445445185" lon="27.539099505220847" id="-41925">
		<tag k="name" v="Ettervikelva" />
		<tag k="ssr:stedsnr" v="81782" />
		<tag k="waterway" v="stream" />
	</node>
	<node lat="70.10402779490937" lon="26.433966284139693" id="-41931">
		<tag k="name" v="Jiekŋajohka" />
		<tag k="name:se" v="Jiekŋajohka" />
		<tag k="old_name:se" v="Jiegŋajåkka" />
		<tag k="ssr:stedsnr" v="80409" />
		<tag k="waterway" v="river" />
	</node>
	<node lat="70.33179168087756" lon="26.82155790722933" id="-41933">
		<tag k="name" v="Vuollaluobbalat" />
		<tag k="name:se" v="Vuollaluobbalat" />
		<tag k="natural" v="water" />
		<tag k="ssr:stedsnr" v="80133" />
		<tag k="water" v="lake" />
	</node>
	<node lat="70.91756945428338" lon="27.182494037165018" id="-41939">
		<tag k="name" v="Garteelva - Oarluovttjohka" />
		<tag k="name:no" v="Garteelva" />
		<tag k="name:se" v="Oarluovttjohka" />
		<tag k="old_name:se" v="Oarluovtjåkka" />
		<tag k="ssr:stedsnr" v="80216" />
		<tag k="waterway" v="stream" />
	</node>
	<node lat="70.39123056516704" lon="26.484030200694463" id="-41947">
		<tag k="name" v="Matselva - Máhtosjohka" />
		<tag k="name:no" v="Matselva" />
		<tag k="name:se" v="Máhtosjohka" />
		<tag k="old_name:se" v="Mattusjåkka" />
		<tag k="ssr:stedsnr" v="80178" />
		<tag k="waterway" v="river" />
	</node>
	<node lat="70.34671112432669" lon="26.141460801199255" id="-41950">
		<tag k="name" v="Sáttoleagijohka" />
		<tag k="name:se" v="Sáttoleagijohka" />
		<tag k="old_name:se" v="Saddulægijåkka" />
		<tag k="ssr:stedsnr" v="80284" />
		<tag k="waterway" v="stream" />
	</node>
	<node lat="70.31012778534493" lon="26.31182743900201" id="-41957">
		<tag k="alt_name:se" v="Guopparjohka" />
		<tag k="name" v="Guohperjohka" />
		<tag k="name:se" v="Guohperjohka" />
		<tag k="old_name:se" v="Guopperjåkka" />
		<tag k="ssr:stedsnr" v="80360" />
		<tag k="waterway" v="stream" />
	</node>
	<node lat="70.61730556099447" lon="26.2504052469607" id="-41961">
		<tag k="fixme" v="multiple name tags, choose one and add the other to alt_name" />
		<tag k="name" v="Nervannet;Nedre Kjæsvannet" />
		<tag k="natural" v="water" />
		<tag k="ssr:stedsnr" v="80561" />
		<tag k="water" v="lake" />
	</node>
	<node lat="70.56135834284032" lon="27.268988403830154" id="-41962">
		<tag k="name" v="Linjevannan" />
		<tag k="natural" v="water" />
		<tag k="ssr:stedsnr" v="80751" />
		<tag k="water" v="lake" />
	</node>
	<node lat="69.99442778728326" lon="26.088821890259585" id="-41966">
		<tag k="name" v="Gurrojávri" />
		<tag k="name:se" v="Gurrojávri" />
		<tag k="natural" v="water" />
		<tag k="old_name:se" v="Gurrujavri" />
		<tag k="ssr:stedsnr" v="80981" />
		<tag k="water" v="lake" />
	</node>
	<node lat="70.44267779050561" lon="27.029844000874476" id="-41968">
		<tag k="name" v="Lássájávri" />
		<tag k="name:se" v="Lássájávri" />
		<tag k="natural" v="water" />
		<tag k="old_name:se" v="Lassajavri" />
		<tag k="ssr:stedsnr" v="81220" />
	</node>
	<node lat="70.43853890511288" lon="27.031399550894474" id="-41969">
		<tag k="name" v="Skávhlejohka" />
		<tag k="name:se" v="Skávhlejohka" />
		<tag k="old_name:se" v="Skavhlejåkka" />
		<tag k="ssr:stedsnr" v="81221" />
		<tag k="waterway" v="stream" />
	</node>
	<node lat="70.45383335085542" lon="27.08612731268788" id="-41970">
		<tag k="name" v="Kuelva - Gussajohka" />
		<tag k="name:no" v="Kuelva" />
		<tag k="name:se" v="Gussajohka" />
		<tag k="old_name:se" v="Gussajåkka" />
		<tag k="ssr:stedsnr" v="81231" />
		<tag k="waterway" v="stream" />
	</node>
	<node lat="70.45360001492226" lon="27.38404115174921" id="-41971">
		<tag k="name" v="Eaštorjohka" />
		<tag k="name:se" v="Eaštorjohka" />
		<tag k="old_name:se" v="Æšturjåkka" />
		<tag k="ssr:stedsnr" v="81232" />
		<tag k="waterway" v="river" />
	</node>
	<node lat="70.83404445474439" lon="27.53221062707372" id="-41975">
		<tag k="name" v="Hysnesvannan" />
		<tag k="natural" v="water" />
		<tag k="ssr:stedsnr" v="81775" />
		<tag k="water" v="lake" />
	</node>
	<node lat="70.86239445750782" lon="27.601613386599837" id="-41976">
		<tag k="name" v="Ettervikvannan" />
		<tag k="natural" v="water" />
		<tag k="ssr:stedsnr" v="81781" />
		<tag k="water" v="lake" />
	</node>
	<node lat="70.65538612226499" lon="26.557916322666067" id="-41977">
		<tag k="name" v="Steinvannet" />
		<tag k="natural" v="water" />
		<tag k="ssr:stedsnr" v="81643" />
	</node>
	<node lat="71.00842500665418" lon="27.390107886136228" id="-42003">
		<tag k="name" v="Nedre Rubbeskarvannet" />
		<tag k="natural" v="water" />
		<tag k="ssr:stedsnr" v="91599" />
	</node>
	<node lat="70.34845279299685" lon="27.204835623047376" id="-42012">
		<tag k="name" v="Galbmatjávri" />
		<tag k="name:se" v="Galbmatjávri" />
		<tag k="natural" v="water" />
		<tag k="old_name:se" v="Galbmatjavri" />
		<tag k="ssr:stedsnr" v="140046" />
		<tag k="water" v="lake" />
	</node>
	<node lat="70.41490834240666" lon="26.96019122617136" id="-42018">
		<tag k="name" v="Loavddajohka" />
		<tag k="name:se" v="Loavddajohka" />
		<tag k="old_name:se" v="Loavdajåkka" />
		<tag k="ssr:stedsnr" v="140147" />
		<tag k="waterway" v="river" />
	</node>
	<node lat="70.4204000153207" lon="26.85021904196533" id="-42019">
		<tag k="name" v="Gresskildevannet - Rássajávri" />
		<tag k="name:no" v="Gresskildevannet" />
		<tag k="name:se" v="Rássajávri" />
		<tag k="natural" v="water" />
		<tag k="old_name:se" v="Rassajavri" />
		<tag k="ssr:stedsnr" v="140155" />
		<tag k="water" v="lake" />
	</node>
	<node lat="70.42212778809515" lon="26.635907962805096" id="-42020">
		<tag k="alt_name:se" v="Bohtorasjávri" />
		<tag k="name" v="Bohtarasjávri" />
		<tag k="name:se" v="Bohtarasjávri" />
		<tag k="natural" v="water" />
		<tag k="old_name:se" v="Båttarasjavri" />
		<tag k="ssr:stedsnr" v="140170" />
	</node>
	<node lat="70.41071667850183" lon="26.06565803916948" id="-42022">
		<tag k="name" v="Gámajohka" />
		<tag k="name:se" v="Gámajohka" />
		<tag k="old_name:se" v="Gamajåkka" />
		<tag k="ssr:stedsnr" v="140247" />
		<tag k="waterway" v="stream" />
	</node>
	<node lat="70.38258612398946" lon="26.042855252272023" id="-42025">
		<tag k="name" v="Čuvgesluoppal" />
		<tag k="name:se" v="Čuvgesluoppal" />
		<tag k="natural" v="water" />
		<tag k="old_name:se" v="Čuvgesluobbal" />
		<tag k="ssr:stedsnr" v="140260" />
	</node>
	<node lat="70.37058889957923" lon="26.275474675097215" id="-42027">
		<tag k="name" v="Guorahanjávrrit" />
		<tag k="name:se" v="Guorahanjávrrit" />
		<tag k="natural" v="water" />
		<tag k="old_name:se" v="Guorahanjavrit" />
		<tag k="ssr:stedsnr" v="140279" />
	</node>
	<node lat="70.46763056296491" lon="26.467082993033724" id="-42030">
		<tag k="name" v="Korsneselva - Saŋasjohka" />
		<tag k="name:no" v="Korsneselva" />
		<tag k="name:se" v="Saŋasjohka" />
		<tag k="old_name:se" v="Sanasjåkka" />
		<tag k="ssr:stedsnr" v="140324" />
		<tag k="waterway" v="river" />
	</node>
	<node lat="70.4765611219836" lon="26.548444074719622" id="-42032">
		<tag k="name" v="Korsnesvannet" />
		<tag k="natural" v="water" />
		<tag k="ssr:stedsnr" v="140331" />
	</node>
	<node lat="70.27593889850378" lon="26.463363520069187" id="-42041">
		<tag k="alt_name:se" v="Suoššjohluoppal" />
		<tag k="name" v="Šuoššjohluobbalat" />
		<tag k="name:se" v="Šuoššjohluobbalat" />
		<tag k="natural" v="water" />
		<tag k="old_name:se" v="Šuoššjåkluobbalat" />
		<tag k="ssr:stedsnr" v="141242" />
		<tag k="water" v="lake" />
	</node>
	<node lat="70.29945835020959" lon="26.998093987484587" id="-42042">
		<tag k="name" v="Gorsageašjávri" />
		<tag k="name:se" v="Gorsageašjávri" />
		<tag k="natural" v="water" />
		<tag k="old_name:se" v="Gårsagæšjavri" />
		<tag k="ssr:stedsnr" v="141243" />
		<tag k="water" v="lake" />
	</node>
	<node lat="70.29560556805927" lon="26.79174959008496" id="-42043">
		<tag k="name" v="Cuoppojávrrit" />
		<tag k="name:se" v="Cuoppojávrrit" />
		<tag k="natural" v="water" />
		<tag k="old_name:se" v="Cuobbujavrit" />
		<tag k="ssr:stedsnr" v="141244" />
		<tag k="water" v="lake" />
	</node>
	<node lat="70.31968889781396" lon="26.670413493896646" id="-42046">
		<tag k="name" v="Áldoskáidi" />
		<tag k="name:se" v="Áldoskáidi" />
		<tag k="natural" v="cape" />
		<tag k="old_name:se" v="Alduskaidi" />
		<tag k="ssr:stedsnr" v="141257" />
	</node>
	<node lat="70.57977223252067" lon="26.988438466336795" id="-42047">
		<tag k="fixme" v="multiple name tags, choose one and add the other to alt_name" />
		<tag k="name" v="Kirkevannet;Prestvannet" />
		<tag k="natural" v="water" />
		<tag k="ssr:stedsnr" v="140614" />
	</node>
	<node lat="70.59921667854155" lon="27.31029397499347" id="-42051">
		<tag k="name" v="Langvannet" />
		<tag k="natural" v="water" />
		<tag k="ssr:stedsnr" v="140710" />
	</node>
	<node lat="70.49967779240373" lon="27.21994119709487" id="-42060">
		<tag k="name" v="Luhkkárjávri" />
		<tag k="name:se" v="Luhkkárjávri" />
		<tag k="natural" v="water" />
		<tag k="old_name:se" v="Lukkarjavri" />
		<tag k="ssr:stedsnr" v="141226" />
	</node>
	<node lat="70.49289168344626" lon="27.396135612424313" id="-42061">
		<tag k="name" v="Langfjordelva - Lákkojohka" />
		<tag k="name:no" v="Langfjordelva" />
		<tag k="name:se" v="Lákkojohka" />
		<tag k="old_name:se" v="Laggujåkka" />
		<tag k="ssr:stedsnr" v="141229" />
		<tag k="waterway" v="river" />
	</node>
	<node lat="70.64923056465446" lon="26.27336913759466" id="-42063">
		<tag k="name" v="Elvekroken" />
		<tag k="place" v="locality" />
		<tag k="ssr:stedsnr" v="141545" />
	</node>
	<node lat="70.54957779020397" lon="27.065027342357794" id="-42076">
		<tag k="name" v="Buktavannet" />
		<tag k="natural" v="water" />
		<tag k="ssr:stedsnr" v="141709" />
	</node>
	<node lat="70.8889944542702" lon="27.4383939854052" id="-42077">
		<tag k="name" v="Vikaelva" />
		<tag k="ssr:stedsnr" v="141728" />
		<tag k="waterway" v="stream" />
	</node>
	<node lat="70.8281277916522" lon="27.633407805152572" id="-42079">
		<tag k="name" v="Andreasvannet" />
		<tag k="natural" v="water" />
		<tag k="ssr:stedsnr" v="141853" />
		<tag k="water" v="lake" />
	</node>
	<node lat="70.54798612360783" lon="27.057416215435463" id="-42094">
		<tag k="name" v="Buktavasselva" />
		<tag k="ssr:stedsnr" v="151585" />
		<tag k="waterway" v="stream" />
	</node>
	<node lat="70.57511111811745" lon="26.991135691324164" id="-42097">
		<tag k="name" v="Badestrand" />
		<tag k="natural" v="beach" />
		<tag k="ssr:stedsnr" v="151593" />
	</node>
	<node lat="70.94319723342277" lon="27.409816206319746" id="-42103">
		<tag k="name" v="Tverrelv" />
		<tag k="ssr:stedsnr" v="151945" />
		<tag k="waterway" v="stream" />
	</node>
	<node lat="70.93343056568322" lon="27.422613422649096" id="-42105">
		<tag k="name" v="Store Finngamvannet" />
		<tag k="natural" v="water" />
		<tag k="ssr:stedsnr" v="151951" />
		<tag k="water" v="lake" />
	</node>
	<node lat="70.92013889870958" lon="27.3877384281413" id="-42110">
		<tag k="name" v="Krampeneselva" />
		<tag k="ssr:stedsnr" v="151986" />
		<tag k="waterway" v="river" />
	</node>
	<node lat="70.62365278518742" lon="26.130827501644863" id="-42111">
		<tag k="name" v="Eidevannet" />
		<tag k="natural" v="water" />
		<tag k="ssr:stedsnr" v="153361" />
	</node>
	<node lat="70.31725834468001" lon="26.38645520984245" id="-42113">
		<tag k="name" v="Karlstadkulpen" />
		<tag k="natural" v="water" />
		<tag k="ssr:stedsnr" v="153668" />
		<tag k="water" v="lake" />
	</node>
	<node lat="70.93576667659694" lon="27.465513408638472" id="-42115">
		<tag k="name" v="Trollelv" />
		<tag k="ssr:stedsnr" v="272991" />
		<tag k="waterway" v="stream" />
	</node>
	<node lat="70.65640279196109" lon="26.603738530511826" id="-42116">
		<tag k="name" v="Lilleelva" />
		<tag k="ssr:stedsnr" v="272950" />
		<tag k="waterway" v="stream" />
	</node>
	<node lat="70.3799361178503" lon="26.103827472166106" id="-42125">
		<tag k="name" v="Mohkkája" />
		<tag k="name:se" v="Mohkkája" />
		<tag k="old_name:se" v="Måkkaja" />
		<tag k="ssr:stedsnr" v="201233" />
		<tag k="waterway" v="stream" />
	</node>
	<node lat="70.37040834162195" lon="26.228974663480297" id="-42126">
		<tag k="name" v="Alloaijávri" />
		<tag k="name:se" v="Alloaijávri" />
		<tag k="natural" v="water" />
		<tag k="old_name:se" v="Alloaijavri" />
		<tag k="ssr:stedsnr" v="201236" />
	</node>
	<node lat="70.46740834624761" lon="26.794069044133536" id="-42128">
		<tag k="name" v="Kjerringvannet - Áhkajávri" />
		<tag k="name:no" v="Kjerringvannet" />
		<tag k="name:se" v="Áhkajávri" />
		<tag k="natural" v="water" />
		<tag k="old_name:se" v="Akkajavri" />
		<tag k="ssr:stedsnr" v="201302" />
	</node>
	<node lat="70.46710278936898" lon="26.535288526976693" id="-42129">
		<tag k="name" v="Gárgojávri" />
		<tag k="name:se" v="Gárgojávri" />
		<tag k="natural" v="water" />
		<tag k="old_name:se" v="Gargujavri" />
		<tag k="ssr:stedsnr" v="201305" />
	</node>
	<node lat="70.43748334262109" lon="26.821755149915205" id="-42131">
		<tag k="name" v="Bergvannet - Báktejávri" />
		<tag k="name:no" v="Bergvannet" />
		<tag k="name:se" v="Báktejávri" />
		<tag k="natural" v="water" />
		<tag k="old_name:se" v="Baktejavri" />
		<tag k="ssr:stedsnr" v="201323" />
		<tag k="water" v="lake" />
	</node>
	<node lat="70.35193278155889" lon="26.03126511261446" id="-42133">
		<tag k="name" v="Svanevannet - Njukčajávri" />
		<tag k="name:no" v="Svanevannet" />
		<tag k="name:se" v="Njukčajávri" />
		<tag k="natural" v="water" />
		<tag k="old_name:se" v="Njukčajavri" />
		<tag k="ssr:stedsnr" v="201251" />
	</node>
	<node lat="70.36593056669275" lon="27.0345328678966" id="-42134">
		<tag k="name" v="Skjærvannet - Skierrajávri" />
		<tag k="name:no" v="Skjærvannet" />
		<tag k="name:se" v="Skierrajávri" />
		<tag k="natural" v="water" />
		<tag k="old_name:se" v="Skierrajavri" />
		<tag k="ssr:stedsnr" v="202042" />
		<tag k="water" v="lake" />
	</node>
	<node lat="70.98672500867941" lon="27.369524568886657" id="-42138">
		<tag k="name" v="Finnskarvannan" />
		<tag k="natural" v="water" />
		<tag k="ssr:stedsnr" v="202219" />
		<tag k="water" v="lake" />
	</node>
	<node lat="70.27582501604408" lon="26.786716256956076" id="-42141">
		<tag k="name" v="Meađđenluoppal" />
		<tag k="name:se" v="Meađđenluoppal" />
		<tag k="natural" v="water" />
		<tag k="old_name:se" v="Mæddenluobbal" />
		<tag k="ssr:stedsnr" v="202232" />
		<tag k="water" v="lake" />
	</node>
	<node lat="70.39941112192082" lon="27.056168992938638" id="-42144">
		<tag k="name" v="Urttasjohka" />
		<tag k="name:se" v="Urttasjohka" />
		<tag k="old_name:se" v="Urtasjåkka" />
		<tag k="ssr:stedsnr" v="202182" />
		<tag k="waterway" v="stream" />
	</node>
	<node lat="70.9346694535764" lon="27.59369951135082" id="-42145">
		<tag k="name" v="Sætervannet" />
		<tag k="natural" v="water" />
		<tag k="ssr:stedsnr" v="202183" />
		<tag k="water" v="lake" />
	</node>
	<node lat="70.40568890482633" lon="27.21372172433875" id="-42146">
		<tag k="name" v="Suolojárjohka" />
		<tag k="name:se" v="Suolojárjohka" />
		<tag k="old_name:se" v="Suolujarjåkka" />
		<tag k="ssr:stedsnr" v="202187" />
		<tag k="waterway" v="stream" />
	</node>
	<node lat="70.31578612310913" lon="27.006799544070965" id="-42148">
		<tag k="name" v="Geatkejávri" />
		<tag k="name:se" v="Geatkejávri" />
		<tag k="natural" v="water" />
		<tag k="old_name:se" v="Gætkejavri" />
		<tag k="ssr:stedsnr" v="202248" />
	</node>
	<node lat="70.61110556471445" lon="26.241077466479155" id="-42159">
		<tag k="name" v="Mellomvannet" />
		<tag k="natural" v="water" />
		<tag k="ssr:stedsnr" v="202579" />
		<tag k="water" v="lake" />
	</node>
	<node lat="70.58692778734407" lon="26.584405213398167" id="-42160">
		<tag k="name" v="Aronneselva" />
		<tag k="ssr:stedsnr" v="202659" />
		<tag k="waterway" v="river" />
	</node>
	<node lat="70.73983612041538" lon="27.20225510931383" id="-42167">
		<tag k="name" v="Jensmolltjørna" />
		<tag k="natural" v="water" />
		<tag k="ssr:stedsnr" v="202680" />
	</node>
	<node lat="70.71826667571483" lon="27.186010656071858" id="-42168">
		<tag k="name" v="Gardevannet" />
		<tag k="natural" v="water" />
		<tag k="ssr:stedsnr" v="202684" />
		<tag k="water" v="lake" />
	</node>
	<node lat="70.57331112675503" lon="27.234652299287603" id="-42169">
		<tag k="fixme" v="multiple name tags, choose one and add the other to alt_name" />
		<tag k="name" v="Storelva;Martadalselva" />
		<tag k="ssr:stedsnr" v="202740" />
		<tag k="waterway" v="stream" />
	</node>
	<node lat="70.56383612486293" lon="27.17837730433571" id="-42170">
		<tag k="name" v="Langvannet" />
		<tag k="natural" v="water" />
		<tag k="ssr:stedsnr" v="202748" />
	</node>
	<node lat="70.52503890205818" lon="27.012910672060915" id="-42172">
		<tag k="name" v="Oldervikelva" />
		<tag k="ssr:stedsnr" v="202752" />
		<tag k="waterway" v="stream" />
	</node>
	<node lat="70.52882779285578" lon="27.324149516918276" id="-42173">
		<tag k="name" v="Krokryggvannet" />
		<tag k="natural" v="water" />
		<tag k="ssr:stedsnr" v="202757" />
	</node>
	<node lat="70.51221390263485" lon="27.09960233557475" id="-42174">
		<tag k="name" v="Skogvikelva" />
		<tag k="ssr:stedsnr" v="202760" />
		<tag k="waterway" v="river" />
	</node>
	<node lat="70.82860279328962" lon="27.285549549663347" id="-42178">
		<tag k="name" v="Ytterelva" />
		<tag k="ssr:stedsnr" v="202789" />
		<tag k="waterway" v="stream" />
	</node>
	<node lat="70.94228890181517" lon="27.653582820192472" id="-42179">
		<tag k="name" v="Sandfjordvannet" />
		<tag k="natural" v="water" />
		<tag k="ssr:stedsnr" v="202851" />
		<tag k="water" v="lake" />
	</node>
	<node lat="70.92494167598467" lon="27.437030094907755" id="-42187">
		<tag k="fixme" v="multiple name tags, choose one and add the other to alt_name" />
		<tag k="name" v="Holmvannet;Kifjordvannet" />
		<tag k="natural" v="water" />
		<tag k="ssr:stedsnr" v="207171" />
		<tag k="water" v="lake" />
	</node>
	<node lat="70.94600001040243" lon="27.298496801771254" id="-42196">
		<tag k="name" v="Snattvikelva" />
		<tag k="ssr:stedsnr" v="212796" />
		<tag k="waterway" v="stream" />
	</node>
	<node lat="71.01416667631328" lon="27.375099568929564" id="-42203">
		<tag k="name" v="Melen" />
		<tag k="natural" v="bay" />
		<tag k="ssr:stedsnr" v="273595" />
	</node>
	<node lat="70.57616945973729" lon="26.999030141879576" id="-42204">
		<tag k="name" v="Kirkelva" />
		<tag k="ssr:stedsnr" v="273601" />
		<tag k="waterway" v="stream" />
	</node>
	<node lat="70.48733612477066" lon="27.08170788162619" id="-42205">
		<tag k="name" v="Leirbuktelva" />
		<tag k="ssr:stedsnr" v="273568" />
		<tag k="waterway" v="stream" />
	</node>
	<node lat="70.9212027917883" lon="27.397052311828684" id="-42209">
		<tag k="name" v="Skjellelva" />
		<tag k="ssr:stedsnr" v="273986" />
		<tag k="waterway" v="stream" />
	</node>
	<node lat="70.40319167527716" lon="26.79923015414471" id="-42220">
		<tag k="name" v="Biello-Biret-skáidi" />
		<tag k="name:se" v="Biello-Biret-skáidi" />
		<tag k="natural" v="cape" />
		<tag k="old_name:se" v="Biellu-Biret-skaidi" />
		<tag k="ssr:stedsnr" v="322156" />
	</node>
	<node lat="70.41215556756686" lon="26.451338526157482" id="-42221">
		<tag k="name" v="Luhkkaluohjohka" />
		<tag k="name:se" v="Luhkkaluohjohka" />
		<tag k="old_name:se" v="Lukkaluohjåkka" />
		<tag k="ssr:stedsnr" v="322158" />
		<tag k="waterway" v="stream" />
	</node>
	<node lat="70.42921945663831" lon="26.946024562678957" id="-42223">
		<tag k="name" v="Fossevannet - Irgavuonluobbalat" />
		<tag k="name:no" v="Fossevannet" />
		<tag k="name:se" v="Irgavuonluobbalat" />
		<tag k="natural" v="water" />
		<tag k="ssr:stedsnr" v="322164" />
		<tag k="water" v="lake" />
	</node>
	<node lat="70.02662500873708" lon="26.115491325294517" id="-42226">
		<tag k="name" v="Stuorrajohgeahči" />
		<tag k="name:se" v="Stuorrajohgeahči" />
		<tag k="old_name:se" v="Stuorrajåkgæčči" />
		<tag k="ssr:stedsnr" v="322347" />
		<tag k="waterway" v="river" />
	</node>
	<node lat="70.23169168113321" lon="27.07155230385308" id="-42230">
		<tag k="name" v="Vuolimus Lavnnjosjávri" />
		<tag k="name:se" v="Vuolimus Lavnnjosjávri" />
		<tag k="natural" v="water" />
		<tag k="old_name:se" v="Lavnjusjavri, vuolimus" />
		<tag k="ssr:stedsnr" v="322423" />
	</node>
	<node lat="70.28745279634609" lon="27.10358007131794" id="-42231">
		<tag k="name" v="Silisluoppal" />
		<tag k="name:se" v="Silisluoppal" />
		<tag k="natural" v="water" />
		<tag k="old_name:se" v="Silisluobbal" />
		<tag k="ssr:stedsnr" v="323035" />
	</node>
	<node lat="70.28311390696908" lon="27.291985581393224" id="-42232">
		<tag k="name" v="Uhcilisjávrrit" />
		<tag k="name:se" v="Uhcilisjávrrit" />
		<tag k="natural" v="water" />
		<tag k="old_name:se" v="Uccilisjavrit" />
		<tag k="ssr:stedsnr" v="323041" />
		<tag k="water" v="lake" />
	</node>
	<node lat="70.2560250156458" lon="27.076991186148415" id="-42233">
		<tag k="name" v="Dollajávri" />
		<tag k="name:se" v="Dollajávri" />
		<tag k="natural" v="water" />
		<tag k="old_name:se" v="Dållajavri" />
		<tag k="ssr:stedsnr" v="323044" />
		<tag k="water" v="lake" />
	</node>
	<node lat="70.26462778873308" lon="27.139560625799135" id="-42234">
		<tag k="name" v="Guorroláddot" />
		<tag k="name:se" v="Guorroláddot" />
		<tag k="natural" v="water" />
		<tag k="old_name:se" v="Guorruladdut" />
		<tag k="ssr:stedsnr" v="323045" />
	</node>
	<node lat="70.37996668001178" lon="26.13210802121591" id="-42238">
		<tag k="name" v="Mohkkejávri" />
		<tag k="name:se" v="Mohkkejávri" />
		<tag k="natural" v="water" />
		<tag k="old_name:se" v="Måkkejavri" />
		<tag k="ssr:stedsnr" v="323276" />
	</node>
	<node lat="70.27822778887199" lon="26.915032887548975" id="-42246">
		<tag k="name" v="Krokvannet - Mohkkejávri" />
		<tag k="name:no" v="Krokvannet" />
		<tag k="name:se" v="Mohkkejávri" />
		<tag k="natural" v="water" />
		<tag k="old_name:se" v="Måkkejavri" />
		<tag k="ssr:stedsnr" v="323244" />
		<tag k="water" v="lake" />
	</node>
	<node lat="70.82262223131875" lon="26.56425799833866" id="-42247">
		<tag k="name" v="Tømmervikelva" />
		<tag k="ssr:stedsnr" v="323245" />
		<tag k="waterway" v="river" />
	</node>
	<node lat="70.3199944556832" lon="26.842649581467615" id="-42249">
		<tag k="name" v="Máhtojávrrit" />
		<tag k="name:se" v="Máhtojávrrit" />
		<tag k="natural" v="water" />
		<tag k="old_name:se" v="Mattujavrit" />
		<tag k="ssr:stedsnr" v="323254" />
		<tag k="water" v="lake" />
	</node>
	<node lat="70.4149416738415" lon="26.271363572464615" id="-42250">
		<tag k="name" v="Namahisjávri" />
		<tag k="name:se" v="Namahisjávri" />
		<tag k="natural" v="water" />
		<tag k="old_name:se" v="Namahisjavri" />
		<tag k="ssr:stedsnr" v="323262" />
	</node>
	<node lat="70.32049445265227" lon="26.316330209509402" id="-42252">
		<tag k="name" v="Doktatjohka" />
		<tag k="name:se" v="Doktatjohka" />
		<tag k="old_name:se" v="Dåktatjåkka" />
		<tag k="ssr:stedsnr" v="323351" />
		<tag k="waterway" v="river" />
	</node>
	<node lat="70.2802916801338" lon="26.12558578901951" id="-42253">
		<tag k="name" v="Heandaratjávri" />
		<tag k="name:se" v="Heandaratjávri" />
		<tag k="natural" v="water" />
		<tag k="old_name:se" v="Hændaratjavri" />
		<tag k="ssr:stedsnr" v="323364" />
	</node>
	<node lat="70.79765834276967" lon="27.496191176376307" id="-42266">
		<tag k="name" v="Hovdenakkelva" />
		<tag k="ssr:stedsnr" v="323789" />
		<tag k="waterway" v="river" />
	</node>
	<node lat="70.80082223699806" lon="27.66107724477551" id="-42277">
		<tag k="alt_name" v="Småelva" />
		<tag k="name" v="Smielva" />
		<tag k="ssr:stedsnr" v="328249" />
		<tag k="waterway" v="river" />
	</node>
	<node lat="70.93916945665096" lon="27.46359120466876" id="-42294">
		<tag k="name" v="Havai" />
		<tag k="place" v="islet" />
		<tag k="ssr:stedsnr" v="333989" />
	</node>
	<node lat="70.33082223086191" lon="26.54183574305842" id="-42297">
		<tag k="name" v="Lille Skarsvannet" />
		<tag k="natural" v="water" />
		<tag k="ssr:stedsnr" v="335729" />
	</node>
	<node lat="70.70254167396985" lon="27.12440512148334" id="-42302">
		<tag k="name" v="Jordelva" />
		<tag k="ssr:stedsnr" v="384688" />
		<tag k="waterway" v="stream" />
	</node>
	<node lat="70.40391389699829" lon="26.497574627510136" id="-42305">
		<tag k="name" v="Springarvikvannet" />
		<tag k="natural" v="water" />
		<tag k="ssr:stedsnr" v="383180" />
	</node>
	<node lat="70.43515278674768" lon="26.856482910097615" id="-42309">
		<tag k="name" v="Bestefarsvannet - Ádjajávri" />
		<tag k="name:no" v="Bestefarsvannet" />
		<tag k="name:se" v="Ádjajávri" />
		<tag k="natural" v="water" />
		<tag k="old_name:se" v="Addjajavri" />
		<tag k="ssr:stedsnr" v="383197" />
	</node>
	<node lat="70.29379167689707" lon="26.544913505928637" id="-42311">
		<tag k="name" v="Uhcaskáidi" />
		<tag k="name:se" v="Uhcaskáidi" />
		<tag k="natural" v="cape" />
		<tag k="old_name:se" v="Uccaskaidi" />
		<tag k="ssr:stedsnr" v="383267" />
	</node>
	<node lat="70.45677500947974" lon="26.412805201184348" id="-42313">
		<tag k="name" v="Korsnesvannet - Saŋasjávri" />
		<tag k="name:no" v="Korsnesvannet" />
		<tag k="name:se" v="Saŋasjávri" />
		<tag k="natural" v="water" />
		<tag k="old_name:se" v="Sanasjavri;Saŋasjavri" />
		<tag k="ssr:stedsnr" v="383322" />
	</node>
	<node lat="70.42709723323597" lon="26.407844110224485" id="-42315">
		<tag k="name" v="Liinnajávri" />
		<tag k="name:se" v="Liinnajávri" />
		<tag k="natural" v="water" />
		<tag k="old_name:se" v="Liinajavri" />
		<tag k="ssr:stedsnr" v="383280" />
	</node>
	<node lat="70.31569167705905" lon="26.27736633414528" id="-42319">
		<tag k="name" v="Gárdatjohka" />
		<tag k="name:se" v="Gárdatjohka" />
		<tag k="old_name:se" v="Gardatjåkka" />
		<tag k="ssr:stedsnr" v="383378" />
		<tag k="waterway" v="stream" />
	</node>
	<node lat="70.2900777846972" lon="26.22735800999601" id="-42321">
		<tag k="name" v="Bajit Luoppal" />
		<tag k="name:se" v="Bajit Luoppal" />
		<tag k="natural" v="water" />
		<tag k="old_name:se" v="Luobbal, bajit" />
		<tag k="ssr:stedsnr" v="383382" />
	</node>
	<node lat="70.45675834341014" lon="26.987232904739532" id="-42325">
		<tag k="name" v="Lássájohka" />
		<tag k="name:se" v="Lássájohka" />
		<tag k="old_name:se" v="Lassajåkka" />
		<tag k="ssr:stedsnr" v="383342" />
		<tag k="waterway" v="stream" />
	</node>
	<node lat="70.1629583457629" lon="26.64178293915907" id="-42328">
		<tag k="name" v="Ullogáisjohka" />
		<tag k="name:se" v="Ullogáisjohka" />
		<tag k="old_name:se" v="Ullugaisjåkka" />
		<tag k="ssr:stedsnr" v="383420" />
		<tag k="waterway" v="river" />
	</node>
	<node lat="70.54462778572719" lon="26.585055183624664" id="-42335">
		<tag k="name" v="Masterneselva" />
		<tag k="ssr:stedsnr" v="383645" />
		<tag k="waterway" v="river" />
	</node>
	<node lat="70.90857778669009" lon="27.545202298151825" id="-42340">
		<tag k="name" v="Nordfjellvannan" />
		<tag k="natural" v="water" />
		<tag k="ssr:stedsnr" v="383775" />
		<tag k="water" v="lake" />
	</node>
	<node lat="70.85450556884638" lon="27.626841154886908" id="-42341">
		<tag k="name" v="Ørntindelva" />
		<tag k="ssr:stedsnr" v="383859" />
		<tag k="waterway" v="river" />
	</node>
	<node lat="70.81435000937877" lon="27.68520225289804" id="-42342">
		<tag k="name" v="Båtelva" />
		<tag k="ssr:stedsnr" v="383869" />
		<tag k="waterway" v="river" />
	</node>
	<node lat="70.41769445726456" lon="27.190274522647428" id="-42343">
		<tag k="name" v="Sieđgoljávrrit" />
		<tag k="name:se" v="Sieđgoljávrrit" />
		<tag k="natural" v="water" />
		<tag k="old_name:se" v="Sieđguljavrit" />
		<tag k="ssr:stedsnr" v="384211" />
		<tag k="water" v="lake" />
	</node>
	<node lat="70.43411390291524" lon="27.27375783158328" id="-42344">
		<tag k="name" v="Ruovdejohka" />
		<tag k="name:se" v="Ruovdejohka" />
		<tag k="old_name:se" v="Ruovdejåkka" />
		<tag k="ssr:stedsnr" v="384212" />
		<tag k="waterway" v="stream" />
	</node>
	<node lat="70.26697223853535" lon="26.475294069637087" id="-42347">
		<tag k="name" v="Eretjohka" />
		<tag k="name:se" v="Eretjohka" />
		<tag k="old_name:se" v="Eretjåkka" />
		<tag k="ssr:stedsnr" v="384243" />
		<tag k="waterway" v="stream" />
	</node>
	<node lat="70.50270834858665" lon="27.2244911974948" id="-42351">
		<tag k="name" v="Suolojávri" />
		<tag k="name:se" v="Suolojávri" />
		<tag k="natural" v="water" />
		<tag k="old_name:se" v="Suolujavri" />
		<tag k="ssr:stedsnr" v="384334" />
		<tag k="water" v="lake" />
	</node>
	<node lat="70.49152501538244" lon="27.1497689960785" id="-42366">
		<tag k="name" v="Luhkkárjávri" />
		<tag k="name:se" v="Luhkkárjávri" />
		<tag k="natural" v="water" />
		<tag k="ssr:stedsnr" v="393579" />
	</node>
	<node lat="70.95446667928704" lon="27.35788012597398" id="-42375">
		<tag k="name" v="Monsdalselva" />
		<tag k="ssr:stedsnr" v="394972" />
		<tag k="waterway" v="stream" />
	</node>
	<node lat="70.35444445898607" lon="26.72563015058374" id="-42394">
		<tag k="name" v="Válljohskáidi" />
		<tag k="name:se" v="Válljohskáidi" />
		<tag k="natural" v="cape" />
		<tag k="old_name:se" v="Valljåkskaidi" />
		<tag k="ssr:stedsnr" v="444125" />
	</node>
	<node lat="70.36250556418933" lon="26.03423304796141" id="-42395">
		<tag k="name" v="Bajemusluoppal" />
		<tag k="name:se" v="Bajemusluoppal" />
		<tag k="natural" v="water" />
		<tag k="old_name:se" v="Bajemusluobbal" />
		<tag k="ssr:stedsnr" v="444243" />
	</node>
	<node lat="70.0393389030976" lon="26.19720800367657" id="-42396">
		<tag k="name" v="Heastoaivveláddot" />
		<tag k="name:se" v="Heastoaivveláddot" />
		<tag k="natural" v="water" />
		<tag k="old_name:se" v="Hæstoaiveladdut" />
		<tag k="ssr:stedsnr" v="444335" />
	</node>
	<node lat="70.4861111231382" lon="26.441669107609123" id="-42400">
		<tag k="alt_name:no" v="Storurddalselva" />
		<tag k="name" v="Storurdalselva - Ráškasjohka" />
		<tag k="name:no" v="Storurdalselva" />
		<tag k="name:se" v="Ráškasjohka" />
		<tag k="old_name:se" v="Raškasjåkka" />
		<tag k="ssr:stedsnr" v="444347" />
		<tag k="waterway" v="river" />
	</node>
	<node lat="70.49792501324426" lon="26.481438545328462" id="-42401">
		<tag k="name" v="Vuolit Gomuluohjávri" />
		<tag k="name:se" v="Vuolit Gomuluohjávri" />
		<tag k="natural" v="water" />
		<tag k="old_name:se" v="Gåmoluohjavri, vuolit" />
		<tag k="ssr:stedsnr" v="444351" />
	</node>
	<node lat="70.2040750122497" lon="26.24758298277607" id="-42402">
		<tag k="name" v="Vuonjaljohka" />
		<tag k="name:se" v="Vuonjaljohka" />
		<tag k="old_name:se" v="Vuonjaljåkka" />
		<tag k="ssr:stedsnr" v="444354" />
		<tag k="waterway" v="river" />
	</node>
	<node lat="70.01074722886293" lon="26.149927439033767" id="-42403">
		<tag k="name" v="Geaidnojávri" />
		<tag k="name:se" v="Geaidnojávri" />
		<tag k="natural" v="water" />
		<tag k="old_name:se" v="Gæidnujavri" />
		<tag k="ssr:stedsnr" v="444358" />
		<tag k="water" v="lake" />
	</node>
	<node lat="70.24466390157639" lon="27.001957860158857" id="-42405">
		<tag k="name" v="Lavnnjosjohka" />
		<tag k="name:se" v="Lavnnjosjohka" />
		<tag k="old_name:se" v="Lavnjusjåkka" />
		<tag k="ssr:stedsnr" v="444363" />
		<tag k="waterway" v="river" />
	</node>
	<node lat="70.22781390278077" lon="26.87458009997452" id="-42406">
		<tag k="name" v="Duolbajávri" />
		<tag k="name:se" v="Duolbajávri" />
		<tag k="natural" v="water" />
		<tag k="old_name:se" v="Duolbajavri" />
		<tag k="ssr:stedsnr" v="444368" />
		<tag k="water" v="lake" />
	</node>
	<node lat="71.0880972287192" lon="27.64655230800203" id="-42408">
		<tag k="name" v="Sandfjordvannet" />
		<tag k="natural" v="water" />
		<tag k="ssr:stedsnr" v="444423" />
	</node>
	<node lat="70.56745279184767" lon="26.579338528414613" id="-42412">
		<tag k="name" v="Orošjohgorži" />
		<tag k="name:se" v="Orošjohgorži" />
		<tag k="natural" v="waterfall" />
		<tag k="old_name:se" v="Årošjåkgårži" />
		<tag k="ssr:stedsnr" v="444627" />
	</node>
	<node lat="70.58612779181308" lon="27.160088431973172" id="-42414">
		<tag k="name" v="Gotfiskvannet" />
		<tag k="natural" v="water" />
		<tag k="ssr:stedsnr" v="444717" />
		<tag k="water" v="lake" />
	</node>
	<node lat="70.57294167617178" lon="27.161966211403985" id="-42415">
		<tag k="name" v="Storelvdalsvannet" />
		<tag k="natural" v="water" />
		<tag k="ssr:stedsnr" v="444733" />
	</node>
	<node lat="70.39163612041452" lon="27.04017454860838" id="-42422">
		<tag k="name" v="Urttasjávri" />
		<tag k="name:se" v="Urttasjávri" />
		<tag k="natural" v="water" />
		<tag k="old_name:se" v="Urtasjavri;Urtasjávri" />
		<tag k="ssr:stedsnr" v="445197" />
		<tag k="water" v="lake" />
	</node>
	<node lat="70.8912388982748" lon="26.610833015505033" id="-42425">
		<tag k="name" v="Risseluovtláddot" />
		<tag k="name:se" v="Risseluovtláddot" />
		<tag k="natural" v="water" />
		<tag k="old_name:se" v="Russeluovtladdut" />
		<tag k="ssr:stedsnr" v="445137" />
	</node>
</osm>
