<?xml version="1.0" encoding="UTF-8"?>
<<<<<<< HEAD
<osm version="0.6" generator="osmapis">
	<node lat="59.88276869965145" lon="5.4918655406174315" id="-27662">
		<tag k="name" v="Svartavatnet" />
		<tag k="natural" v="water" />
		<tag k="ssr:stedsnr" v="64273" />
	</node>
	<node lat="59.773914357274066" lon="5.477274745569922" id="-27668">
		<tag k="name" v="Tveitavatnet" />
=======
<osm generator="osmapis" version="0.6">
	<node id="-605184" lat="59.7909250044" lon="5.49953888779">
		<tag k="name" v="Sevhølen" />
		<tag k="ssr:stedsnr" v="948873" />
		<tag k="waterway" v="river" />
	</node>
	<node id="-605181" lat="59.8428027783" lon="5.51262499289">
		<tag k="name" v="Gravaelva" />
		<tag k="ssr:stedsnr" v="948222" />
		<tag k="waterway" v="river" />
	</node>
	<node id="-605170" lat="59.8139922899" lon="5.42396168765">
		<tag k="name" v="Stuvasetertjørna" />
>>>>>>> e1d4bc35ff8a6074a6f2e91616a996b547c36f15
		<tag k="natural" v="water" />
		<tag k="ssr:stedsnr" v="948171" />
	</node>
<<<<<<< HEAD
	<node lat="59.88807777573046" lon="5.512441675263746" id="-27678">
		<tag k="name" v="Nonstad" />
		<tag k="ssr:stedsnr" v="98208" />
		<tag k="waterway" v="stream" />
	</node>
	<node lat="59.89640833138484" lon="5.489574993936796" id="-27699">
		<tag k="alt_name" v="Bortveitelvi" />
		<tag k="name" v="Bortveitelva" />
		<tag k="ssr:stedsnr" v="124657" />
		<tag k="waterway" v="river" />
	</node>
	<node lat="59.806540528257365" lon="5.357941964137469" id="-27707">
		<tag k="name" v="Stokketjørna" />
		<tag k="natural" v="water" />
		<tag k="ssr:stedsnr" v="159105" />
	</node>
	<node lat="59.86889708469735" lon="5.587163763233739" id="-27723">
		<tag k="alt_name" v="Berrføtvatnet;Berføttevatnet" />
		<tag k="name" v="Berrføttevatnet" />
		<tag k="natural" v="water" />
		<tag k="ssr:stedsnr" v="186314" />
	</node>
	<node lat="59.799491663412276" lon="5.492250005284235" id="-27725">
		<tag k="name" v="Sagneset" />
		<tag k="natural" v="cape" />
		<tag k="ssr:stedsnr" v="186633" />
	</node>
	<node lat="59.8351059545255" lon="5.368396852449519" id="-27727">
		<tag k="name" v="Stemmetjørna" />
		<tag k="natural" v="water" />
		<tag k="ssr:stedsnr" v="186980" />
	</node>
	<node lat="59.869811110749545" lon="5.528038891056414" id="-27740">
		<tag k="name" v="Nordelva" />
		<tag k="ssr:stedsnr" v="220085" />
		<tag k="waterway" v="river" />
	</node>
	<node lat="59.8134717111001" lon="5.364070636373876" id="-27753">
		<tag k="alt_name" v="Petarteigsvatnet, nedre" />
		<tag k="name" v="Nedre Petarteigsvatnet" />
		<tag k="natural" v="water" />
		<tag k="ssr:stedsnr" v="247515" />
	</node>
	<node lat="59.76414626456485" lon="5.4507069810187545" id="-27754">
		<tag k="name" v="Meatjørna" />
=======
	<node id="-605169" lat="59.8191527398" lon="5.37964409001">
		<tag k="name" v="Søre Ellingsdalsvatnet" />
		<tag k="natural" v="water" />
		<tag k="ssr:stedsnr" v="948170" />
		<tag k="water" v="lake" />
	</node>
	<node id="-605163" lat="59.8627375841" lon="5.59108046162">
		<tag k="name" v="Ålatjørna" />
		<tag k="natural" v="water" />
		<tag k="ssr:stedsnr" v="947803" />
	</node>
	<node id="-605161" lat="59.8289083351" lon="5.39626111785">
		<tag k="name" v="Mørkatjørna" />
		<tag k="natural" v="water" />
		<tag k="ssr:stedsnr" v="914981" />
	</node>
	<node id="-605147" lat="59.7989274789" lon="5.41240347406">
		<tag k="name" v="Fureåsdammen" />
		<tag k="natural" v="water" />
		<tag k="ssr:stedsnr" v="887126" />
	</node>
	<node id="-605648" lat="59.801394446" lon="5.44205000774">
		<tag k="name" v="Ulvatjørna" />
		<tag k="natural" v="water" />
		<tag k="ssr:stedsnr" v="793540" />
	</node>
	<node id="-605647" lat="59.8611094428" lon="5.57993187942">
		<tag k="alt_name" v="Stemmevatnet;Storavatnet" />
		<tag k="name" v="Huglavatnet" />
		<tag k="natural" v="water" />
		<tag k="ssr:stedsnr" v="793322" />
	</node>
	<node id="-605637" lat="59.8771111137" lon="5.51149444639">
		<tag k="alt_name" v="Klokaholsbekken" />
		<tag k="name" v="Klokaholbekken" />
		<tag k="ssr:stedsnr" v="792263" />
		<tag k="waterway" v="stream" />
	</node>
	<node id="-605636" lat="59.8705565361" lon="5.46803015447">
		<tag k="name" v="Martetjørna" />
		<tag k="natural" v="water" />
		<tag k="ssr:stedsnr" v="792255" />
	</node>
	<node id="-605113" lat="59.8069525405" lon="5.45401008312">
		<tag k="name" v="Iglatjørna" />
		<tag k="natural" v="water" />
		<tag k="ssr:stedsnr" v="854520" />
	</node>
	<node id="-605616" lat="59.7855819859" lon="5.47828004382">
		<tag k="name" v="Lønningsstemma" />
		<tag k="natural" v="water" />
		<tag k="ssr:stedsnr" v="765753" />
	</node>
	<node id="-605097" lat="59.8525624078" lon="5.44296079838">
		<tag k="name" v="Tysevatnet" />
>>>>>>> e1d4bc35ff8a6074a6f2e91616a996b547c36f15
		<tag k="natural" v="water" />
		<tag k="ssr:stedsnr" v="247561" />
	</node>
<<<<<<< HEAD
	<node lat="59.784252774919594" lon="5.352461109606888" id="-27775">
		<tag k="name" v="Vasseidet" />
		<tag k="place" v="locality" />
		<tag k="ssr:stedsnr" v="462099" />
	</node>
	<node lat="59.868622226401854" lon="5.527272213896833" id="-27811">
		<tag k="name" v="Kammarebekken" />
		<tag k="ssr:stedsnr" v="341043" />
		<tag k="waterway" v="stream" />
	</node>
	<node lat="59.78389015191252" lon="5.460700154813545" id="-27845">
		<tag k="name" v="Hestatjørna" />
=======
	<node id="-605091" lat="59.8186027795" lon="5.3660500061">
		<tag k="name" v="Langavatnet" />
		<tag k="natural" v="water" />
		<tag k="ssr:stedsnr" v="914949" />
	</node>
	<node id="-605090" lat="59.8806079847" lon="5.46504010345">
		<tag k="name" v="Stemmetjørna" />
>>>>>>> e1d4bc35ff8a6074a6f2e91616a996b547c36f15
		<tag k="natural" v="water" />
		<tag k="ssr:stedsnr" v="489629" />
	</node>
<<<<<<< HEAD
	<node lat="59.8615394857604" lon="5.429276559621806" id="-27849">
		<tag k="name" v="Aravatnet" />
		<tag k="natural" v="water" />
		<tag k="ssr:stedsnr" v="428905" />
	</node>
	<node lat="59.81675555279956" lon="5.402430556107109" id="-27850">
		<tag k="name" v="Holmedalsvatnet" />
		<tag k="natural" v="water" />
		<tag k="ssr:stedsnr" v="429510" />
	</node>
	<node lat="59.812770850408015" lon="5.37201803752904" id="-27851">
		<tag k="alt_name" v="Petarteigsvatnet, øvre" />
		<tag k="name" v="Øvre Petarteigsvatnet" />
		<tag k="natural" v="water" />
		<tag k="ssr:stedsnr" v="429513" />
	</node>
	<node lat="59.785426508487184" lon="5.3514985714908265" id="-27885">
		<tag k="name" v="Stokktjørna" />
		<tag k="natural" v="water" />
		<tag k="ssr:stedsnr" v="489548" />
	</node>
	<node lat="59.79454829216143" lon="5.484530618196576" id="-27887">
		<tag k="alt_name" v="Årlandsvatnet" />
		<tag k="name" v="Ådlandsvatnet" />
		<tag k="natural" v="water" />
		<tag k="ssr:stedsnr" v="489402" />
		<tag k="water" v="lake" />
	</node>
	<node lat="59.77212838085964" lon="5.430470136488772" id="-27903">
		<tag k="name" v="Valvatnaflæet" />
=======
	<node id="-605086" lat="59.779756737" lon="5.45453447439">
		<tag k="name" v="Mortjørna" />
>>>>>>> e1d4bc35ff8a6074a6f2e91616a996b547c36f15
		<tag k="natural" v="water" />
		<tag k="ssr:stedsnr" v="914614" />
	</node>
<<<<<<< HEAD
	<node lat="59.772757203639586" lon="5.442182224339223" id="-27912">
		<tag k="name" v="Røyrtjørna" />
=======
	<node id="-605083" lat="59.7655055602" lon="5.42391667392">
		<tag k="alt_name" v="Kroktjørn" />
		<tag k="name" v="Krokatjørna" />
>>>>>>> e1d4bc35ff8a6074a6f2e91616a996b547c36f15
		<tag k="natural" v="water" />
		<tag k="ssr:stedsnr" v="550561" />
	</node>
<<<<<<< HEAD
	<node lat="59.817730551790625" lon="5.469819445739481" id="-27917">
		<tag k="name" v="Tverrelva" />
		<tag k="ssr:stedsnr" v="583100" />
		<tag k="waterway" v="river" />
	</node>
	<node lat="59.79040827238046" lon="5.534504052151484" id="-27932">
		<tag k="name" v="Straumen" />
=======
	<node id="-605082" lat="59.7698226174" lon="5.40334181981">
		<tag k="name" v="Nestjørna" />
>>>>>>> e1d4bc35ff8a6074a6f2e91616a996b547c36f15
		<tag k="natural" v="water" />
		<tag k="ssr:stedsnr" v="610426" />
	</node>
	<node lat="59.77404505675679" lon="5.4003469502580295" id="-27940">
		<tag k="name" v="Vasspollen" />
		<tag k="natural" v="water" />
		<tag k="ssr:stedsnr" v="705077" />
		<tag k="water" v="lake" />
	</node>
<<<<<<< HEAD
	<node lat="59.826672222391345" lon="5.510852771970923" id="-27963">
		<tag k="name" v="Orrastegen" />
		<tag k="ssr:stedsnr" v="643809" />
		<tag k="waterway" v="stream" />
	</node>
	<node lat="59.79519295016109" lon="5.419806648373973" id="-27969">
=======
	<node id="-605593" lat="59.7951929502" lon="5.41980664837">
>>>>>>> e1d4bc35ff8a6074a6f2e91616a996b547c36f15
		<tag k="name" v="Lappetjørna" />
		<tag k="natural" v="water" />
		<tag k="ssr:stedsnr" v="644097" />
	</node>
<<<<<<< HEAD
	<node lat="59.8284611100934" lon="5.58802777385691" id="-27984">
		<tag k="name" v="Vassvika" />
		<tag k="natural" v="bay" />
		<tag k="ssr:stedsnr" v="705107" />
	</node>
	<node lat="59.84970832961842" lon="5.522502771754158" id="-27990">
		<tag k="name" v="Tverrelva" />
		<tag k="ssr:stedsnr" v="705225" />
		<tag k="waterway" v="river" />
	</node>
	<node lat="59.81047777896051" lon="5.472555558280009" id="-27998">
		<tag k="name" v="Vatnaelva" />
		<tag k="ssr:stedsnr" v="732369" />
		<tag k="waterway" v="river" />
	</node>
	<node lat="59.769538886949924" lon="5.464688887236358" id="-28002">
		<tag k="name" v="Skiphaugsvatnet" />
		<tag k="natural" v="water" />
		<tag k="ssr:stedsnr" v="732602" />
	</node>
	<node lat="59.84197745090946" lon="5.424648878697219" id="-28004">
		<tag k="name" v="Budalsvatnet" />
		<tag k="natural" v="water" />
		<tag k="ssr:stedsnr" v="732997" />
	</node>
	<node lat="59.785581985945896" lon="5.478280043817755" id="-28007">
		<tag k="name" v="Lønningsstemma" />
		<tag k="natural" v="water" />
		<tag k="ssr:stedsnr" v="765753" />
	</node>
	<node lat="59.86110944277893" lon="5.579931879424044" id="-28029">
		<tag k="alt_name" v="Storavatnet;Stemmevatnet" />
		<tag k="name" v="Huglavatnet" />
		<tag k="natural" v="water" />
		<tag k="ssr:stedsnr" v="793322" />
	</node>
	<node lat="59.76550556018637" lon="5.423916673921341" id="-28037">
		<tag k="alt_name" v="Kroktjørn" />
		<tag k="name" v="Krokatjørna" />
		<tag k="natural" v="water" />
		<tag k="ssr:stedsnr" v="914599" />
	</node>
	<node lat="59.81860277949271" lon="5.3660500060989165" id="-28040">
		<tag k="name" v="Langavatnet" />
		<tag k="natural" v="water" />
		<tag k="ssr:stedsnr" v="914949" />
	</node>
	<node lat="59.82890833505118" lon="5.3962611178470805" id="-28042">
		<tag k="name" v="Mørkatjørna" />
		<tag k="natural" v="water" />
		<tag k="ssr:stedsnr" v="914981" />
	</node>
	<node lat="59.79892747886283" lon="5.4124034740625895" id="-28069">
		<tag k="name" v="Fureåsdammen" />
		<tag k="natural" v="water" />
		<tag k="ssr:stedsnr" v="887126" />
	</node>
	<node lat="59.83353333080876" lon="5.362161116783891" id="-28077">
		<tag k="name" v="Tinnselva" />
		<tag k="ssr:stedsnr" v="887447" />
		<tag k="waterway" v="stream" />
	</node>
	<node lat="59.76982261742279" lon="5.4033418198087455" id="-28090">
		<tag k="name" v="Nestjørna" />
		<tag k="natural" v="water" />
		<tag k="ssr:stedsnr" v="914581" />
	</node>
	<node lat="59.77975673703043" lon="5.454534474388828" id="-28092">
		<tag k="name" v="Mortjørna" />
		<tag k="natural" v="water" />
		<tag k="ssr:stedsnr" v="914614" />
	</node>
	<node lat="59.88060798472447" lon="5.465040103446279" id="-28096">
		<tag k="name" v="Stemmetjørna" />
		<tag k="natural" v="water" />
		<tag k="ssr:stedsnr" v="914941" />
	</node>
	<node lat="59.8627375841308" lon="5.591080461616494" id="-28098">
		<tag k="name" v="Ålatjørna" />
		<tag k="natural" v="water" />
		<tag k="ssr:stedsnr" v="947803" />
	</node>
	<node lat="59.842802778278894" lon="5.512624992887352" id="-28107">
		<tag k="name" v="Gravaelva" />
		<tag k="ssr:stedsnr" v="948222" />
		<tag k="waterway" v="river" />
	</node>
	<node lat="59.86292400364297" lon="5.494472154077468" id="-28127">
		<tag k="name" v="Hetlesætertjørna" />
		<tag k="natural" v="water" />
		<tag k="ssr:stedsnr" v="4252" />
	</node>
	<node lat="59.83488771734639" lon="5.396518128390894" id="-28133">
		<tag k="name" v="Mørkavatnet" />
		<tag k="natural" v="water" />
		<tag k="ssr:stedsnr" v="4984" />
	</node>
	<node lat="59.83956357545591" lon="5.446108442164992" id="-28134">
		<tag k="name" v="Ravatnet" />
=======
	<node id="-605064" lat="59.7972000039" lon="5.46005000712">
		<tag k="name" v="Gauksløken" />
		<tag k="ssr:stedsnr" v="765855" />
		<tag k="waterway" v="stream" />
	</node>
	<node id="-605575" lat="59.8266722224" lon="5.51085277197">
		<tag k="name" v="Orrastegen" />
		<tag k="ssr:stedsnr" v="643809" />
		<tag k="waterway" v="stream" />
	</node>
	<node id="-605557" lat="59.7904082724" lon="5.53450405215">
		<tag k="name" v="Straumen" />
		<tag k="natural" v="water" />
		<tag k="ssr:stedsnr" v="610426" />
	</node>
	<node id="-605038" lat="59.8335333308" lon="5.36216111678">
		<tag k="name" v="Tinnselva" />
		<tag k="ssr:stedsnr" v="887447" />
		<tag k="waterway" v="stream" />
	</node>
	<node id="-605539" lat="59.8387499986" lon="5.43269999941">
		<tag k="name" v="Hovtrongsvatnet" />
		<tag k="natural" v="water" />
		<tag k="ssr:stedsnr" v="583154" />
		<tag k="water" v="lake" />
	</node>
	<node id="-605499" lat="59.7721283809" lon="5.43047013649">
		<tag k="name" v="Valvatnaflæet" />
		<tag k="natural" v="water" />
		<tag k="ssr:stedsnr" v="523819" />
		<tag k="water" v="lake" />
	</node>
	<node id="-605022" lat="59.8419774509" lon="5.4246488787">
		<tag k="name" v="Budalsvatnet" />
		<tag k="natural" v="water" />
		<tag k="ssr:stedsnr" v="732997" />
	</node>
	<node id="-605020" lat="59.7695388869" lon="5.46468888724">
		<tag k="name" v="Skiphaugsvatnet" />
		<tag k="natural" v="water" />
		<tag k="ssr:stedsnr" v="732602" />
	</node>
	<node id="-605014" lat="59.810477779" lon="5.47255555828">
		<tag k="name" v="Vatnaelva" />
		<tag k="ssr:stedsnr" v="732369" />
		<tag k="waterway" v="river" />
	</node>
	<node id="-605524" lat="59.7772100616" lon="5.46803496262">
		<tag k="name" v="Landåsvatnet" />
		<tag k="natural" v="water" />
		<tag k="ssr:stedsnr" v="550366" />
	</node>
	<node id="-605009" lat="59.7888018681" lon="5.41040485943">
		<tag k="alt_name" v="Hustrudalsvatnet" />
		<tag k="name" v="Hustredalsvatnet" />
		<tag k="natural" v="water" />
		<tag k="ssr:stedsnr" v="732559" />
	</node>
	<node id="-605002" lat="59.8421055513" lon="5.57865000308">
		<tag k="name" v="Morkavatnet" />
		<tag k="natural" v="water" />
		<tag k="ssr:stedsnr" v="610374" />
	</node>
	<node id="-604995" lat="59.7923796415" lon="5.45564335028">
		<tag k="name" v="Nonstjørna" />
		<tag k="natural" v="water" />
		<tag k="ssr:stedsnr" v="583876" />
	</node>
	<node id="-604989" lat="59.8177305518" lon="5.46981944574">
		<tag k="name" v="Tverrelva" />
		<tag k="ssr:stedsnr" v="583100" />
		<tag k="waterway" v="river" />
	</node>
	<node id="-604987" lat="59.8599833337" lon="5.52160832891">
		<tag k="name" v="Agdesteinelva" />
		<tag k="ssr:stedsnr" v="583078" />
		<tag k="waterway" v="river" />
	</node>
	<node id="-605485" lat="59.8633250019" lon="5.48546388361">
		<tag k="name" v="Fossen" />
		<tag k="natural" v="waterfall" />
		<tag k="ssr:stedsnr" v="523068" />
	</node>
	<node id="-604972" lat="59.8497083296" lon="5.52250277175">
		<tag k="name" v="Tverrelva" />
		<tag k="ssr:stedsnr" v="705225" />
		<tag k="waterway" v="river" />
	</node>
	<node id="-605475" lat="59.8279861115" lon="5.41085833525">
		<tag k="name" v="Barlindedalsvatnet" />
		<tag k="natural" v="water" />
		<tag k="ssr:stedsnr" v="429986" />
	</node>
	<node id="-604959" lat="59.8284611101" lon="5.58802777386">
		<tag k="name" v="Vassvika" />
		<tag k="natural" v="bay" />
		<tag k="ssr:stedsnr" v="705107" />
	</node>
	<node id="-604957" lat="59.7740450568" lon="5.40034695026">
		<tag k="name" v="Vasspollen" />
		<tag k="natural" v="water" />
		<tag k="ssr:stedsnr" v="705077" />
		<tag k="water" v="lake" />
	</node>
	<node id="-605446" lat="59.8587472256" lon="5.50506667351">
		<tag k="name" v="Hetlesæterelva" />
		<tag k="ssr:stedsnr" v="402062" />
		<tag k="waterway" v="river" />
	</node>
	<node id="-604920" lat="59.8075750726" lon="5.40260923995">
		<tag k="name" v="Dalskardvatnet" />
		<tag k="natural" v="water" />
		<tag k="ssr:stedsnr" v="429527" />
	</node>
	<node id="-604918" lat="59.8127708504" lon="5.37201803753">
		<tag k="alt_name" v="Petarteigsvatnet, øvre" />
		<tag k="name" v="Øvre Petarteigsvatnet" />
>>>>>>> e1d4bc35ff8a6074a6f2e91616a996b547c36f15
		<tag k="natural" v="water" />
		<tag k="ssr:stedsnr" v="4997" />
	</node>
<<<<<<< HEAD
	<node lat="59.865943941443696" lon="5.473798647054031" id="-28163">
		<tag k="name" v="Martetjørnane" />
=======
	<node id="-604917" lat="59.8167555528" lon="5.40243055611">
		<tag k="name" v="Holmedalsvatnet" />
>>>>>>> e1d4bc35ff8a6074a6f2e91616a996b547c36f15
		<tag k="natural" v="water" />
		<tag k="ssr:stedsnr" v="38044" />
		<tag k="water" v="lake" />
	</node>
<<<<<<< HEAD
	<node lat="59.8451877341985" lon="5.585816847229505" id="-28178">
		<tag k="alt_name" v="Lomtjørna" />
		<tag k="name" v="Lomatjørna" />
		<tag k="natural" v="water" />
		<tag k="ssr:stedsnr" v="65261" />
	</node>
	<node lat="59.81011819538687" lon="5.491952584973097" id="-28181">
		<tag k="name" v="Iglatjørna" />
		<tag k="natural" v="water" />
		<tag k="ssr:stedsnr" v="65348" />
	</node>
	<node lat="59.779615456134394" lon="5.425630041803088" id="-28217">
		<tag k="name" v="Storavatnet" />
		<tag k="natural" v="water" />
		<tag k="ssr:stedsnr" v="125606" />
		<tag k="water" v="lake" />
	</node>
	<node lat="59.829864061109554" lon="5.590806723573212" id="-28221">
		<tag k="alt_name" v="Tveitevatnet" />
		<tag k="name" v="Tveitvatnet" />
=======
	<node id="-604915" lat="59.8615394858" lon="5.42927655962">
		<tag k="name" v="Aravatnet" />
		<tag k="natural" v="water" />
		<tag k="ssr:stedsnr" v="428905" />
	</node>
	<node id="-605419" lat="59.7983583331" lon="5.34258888359">
		<tag k="name" v="Prestekonevatnet" />
		<tag k="natural" v="water" />
		<tag k="ssr:stedsnr" v="368538" />
	</node>
	<node id="-605417" lat="59.8318750039" lon="5.4760944433">
		<tag k="name" v="Vadelva" />
		<tag k="ssr:stedsnr" v="368356" />
		<tag k="waterway" v="river" />
	</node>
	<node id="-604901" lat="59.7838901519" lon="5.46070015481">
		<tag k="name" v="Hestatjørna" />
>>>>>>> e1d4bc35ff8a6074a6f2e91616a996b547c36f15
		<tag k="natural" v="water" />
		<tag k="ssr:stedsnr" v="489629" />
	</node>
<<<<<<< HEAD
	<node lat="59.9069472258214" lon="5.478941660127372" id="-28227">
		<tag k="name" v="Mehammarelva" />
		<tag k="ssr:stedsnr" v="125713" />
		<tag k="waterway" v="stream" />
	</node>
	<node lat="59.862153611672575" lon="5.601540126151307" id="-28248">
		<tag k="name" v="Haukanestjørna" />
		<tag k="natural" v="water" />
		<tag k="ssr:stedsnr" v="159237" />
	</node>
	<node lat="59.87082152955979" lon="5.592158756545966" id="-28253">
		<tag k="name" v="Holatjørna" />
		<tag k="natural" v="water" />
		<tag k="ssr:stedsnr" v="159850" />
	</node>
	<node lat="59.79799867711286" lon="5.387944990052003" id="-28264">
		<tag k="name" v="Rutletjørna" />
=======
	<node id="-604896" lat="59.7854265085" lon="5.35149857149">
		<tag k="name" v="Stokktjørna" />
		<tag k="natural" v="water" />
		<tag k="ssr:stedsnr" v="489548" />
	</node>
	<node id="-604893" lat="59.7945482922" lon="5.4845306182">
		<tag k="alt_name" v="Årlandsvatnet" />
		<tag k="name" v="Ådlandsvatnet" />
		<tag k="natural" v="water" />
		<tag k="ssr:stedsnr" v="489402" />
		<tag k="water" v="lake" />
	</node>
	<node id="-604883" lat="59.7904861138" lon="5.50138333526">
		<tag k="name" v="Frugardselva" />
		<tag k="ssr:stedsnr" v="550385" />
		<tag k="waterway" v="stream" />
	</node>
	<node id="-605383" lat="59.8686222264" lon="5.5272722139">
		<tag k="name" v="Kammarebekken" />
		<tag k="ssr:stedsnr" v="341043" />
		<tag k="waterway" v="stream" />
	</node>
	<node id="-605381" lat="59.7825361125" lon="5.42254721866">
		<tag k="name" v="Rossneset" />
		<tag k="natural" v="cape" />
		<tag k="ssr:stedsnr" v="341037" />
	</node>
	<node id="-604860" lat="59.7842527749" lon="5.35246110961">
		<tag k="name" v="Vasseidet" />
		<tag k="natural" v="strait" />
		<tag k="ssr:stedsnr" v="462099" />
	</node>
	<node id="-605469" lat="59.8390993026" lon="5.37702618836">
		<tag k="alt_name" v="Flono" />
		<tag k="name" v="Flona" />
>>>>>>> e1d4bc35ff8a6074a6f2e91616a996b547c36f15
		<tag k="natural" v="water" />
		<tag k="ssr:stedsnr" v="186556" />
	</node>
<<<<<<< HEAD
	<node lat="59.83764039706769" lon="5.590979912336065" id="-28266">
		<tag k="name" v="Tveittjørna" />
		<tag k="natural" v="water" />
		<tag k="ssr:stedsnr" v="186343" />
	</node>
	<node lat="59.82571167153901" lon="5.370305316819023" id="-28270">
=======
	<node id="-604835" lat="59.8121027757" lon="5.43151945345">
		<tag k="name" v="Fossane" />
		<tag k="natural" v="waterfall" />
		<tag k="ssr:stedsnr" v="220130" />
	</node>
	<node id="-605345" lat="59.8257116715" lon="5.37030531682">
>>>>>>> e1d4bc35ff8a6074a6f2e91616a996b547c36f15
		<tag k="name" v="Ellingsdalsvatnet" />
		<tag k="natural" v="water" />
		<tag k="ssr:stedsnr" v="186933" />
	</node>
<<<<<<< HEAD
	<node lat="59.781499995995425" lon="5.411416666170539" id="-28271">
		<tag k="name" v="Knurrøya" />
		<tag k="place" v="islet" />
		<tag k="ssr:stedsnr" v="186650" />
	</node>
	<node lat="59.81210277566495" lon="5.431519453449848" id="-28280">
		<tag k="name" v="Fossane" />
		<tag k="natural" v="waterfall" />
		<tag k="ssr:stedsnr" v="220130" />
	</node>
	<node lat="59.858730572746815" lon="5.578937519571971" id="-28321">
		<tag k="name" v="Lomatjørna" />
		<tag k="natural" v="water" />
		<tag k="ssr:stedsnr" v="281851" />
	</node>
	<node lat="59.832493207016356" lon="5.3591267765601955" id="-28328">
		<tag k="alt_name" v="Røytetjørn;Røytetjørna" />
		<tag k="name" v="Kvernatjørna" />
=======
	<node id="-605343" lat="59.781499996" lon="5.41141666617">
		<tag k="name" v="Knurrøya" />
		<tag k="place" v="islet" />
		<tag k="ssr:stedsnr" v="186650" />
	</node>
	<node id="-605342" lat="59.7994916634" lon="5.49225000528">
		<tag k="name" v="Sagneset" />
		<tag k="natural" v="cape" />
		<tag k="ssr:stedsnr" v="186633" />
	</node>
	<node id="-605339" lat="59.7979986771" lon="5.38794499005">
		<tag k="name" v="Rutletjørna" />
		<tag k="natural" v="water" />
		<tag k="ssr:stedsnr" v="186556" />
	</node>
	<node id="-605336" lat="59.8376403971" lon="5.59097991234">
		<tag k="name" v="Tveittjørna" />
		<tag k="natural" v="water" />
		<tag k="ssr:stedsnr" v="186343" />
	</node>
	<node id="-605334" lat="59.8688970847" lon="5.58716376323">
		<tag k="alt_name" v="Berrføtvatnet;Berføttevatnet" />
		<tag k="name" v="Berrføttevatnet" />
		<tag k="natural" v="water" />
		<tag k="ssr:stedsnr" v="186314" />
	</node>
	<node id="-605324" lat="59.8708215296" lon="5.59215875655">
		<tag k="name" v="Holatjørna" />
		<tag k="natural" v="water" />
		<tag k="ssr:stedsnr" v="159850" />
	</node>
	<node id="-605315" lat="59.8621536117" lon="5.60154012615">
		<tag k="name" v="Haukanestjørna" />
		<tag k="natural" v="water" />
		<tag k="ssr:stedsnr" v="159237" />
	</node>
	<node id="-605303" lat="59.9069472258" lon="5.47894166013">
		<tag k="name" v="Mehammarelva" />
		<tag k="ssr:stedsnr" v="125713" />
		<tag k="waterway" v="stream" />
	</node>
	<node id="-604831" lat="59.8587305727" lon="5.57893751957">
		<tag k="name" v="Lomatjørna" />
		<tag k="natural" v="water" />
		<tag k="ssr:stedsnr" v="281851" />
	</node>
	<node id="-605295" lat="59.8298640611" lon="5.59080672357">
		<tag k="alt_name" v="Tveitevatnet" />
		<tag k="name" v="Tveitvatnet" />
		<tag k="natural" v="water" />
		<tag k="ssr:stedsnr" v="125343" />
		<tag k="water" v="lake" />
	</node>
	<node id="-604779" lat="59.8065405283" lon="5.35794196414">
		<tag k="name" v="Stokketjørna" />
		<tag k="natural" v="water" />
		<tag k="ssr:stedsnr" v="159105" />
	</node>
	<node id="-605287" lat="59.8964083314" lon="5.48957499394">
		<tag k="alt_name" v="Bortveitelvi" />
		<tag k="name" v="Bortveitelva" />
		<tag k="ssr:stedsnr" v="124657" />
		<tag k="waterway" v="river" />
	</node>
	<node id="-604769" lat="59.7796154561" lon="5.4256300418">
		<tag k="name" v="Storavatnet" />
>>>>>>> e1d4bc35ff8a6074a6f2e91616a996b547c36f15
		<tag k="natural" v="water" />
		<tag k="ssr:stedsnr" v="307985" />
	</node>
<<<<<<< HEAD
	<node lat="59.78253611248339" lon="5.4225472186647306" id="-28347">
		<tag k="name" v="Rossneset" />
		<tag k="natural" v="cape" />
		<tag k="ssr:stedsnr" v="341037" />
	</node>
	<node lat="59.83187500385009" lon="5.476094443301569" id="-28363">
		<tag k="name" v="Vadelva" />
		<tag k="ssr:stedsnr" v="368356" />
		<tag k="waterway" v="river" />
	</node>
	<node lat="59.79835833311346" lon="5.342588883590585" id="-28364">
		<tag k="name" v="Prestekonevatnet" />
		<tag k="natural" v="water" />
		<tag k="ssr:stedsnr" v="368538" />
	</node>
	<node lat="59.85874722556785" lon="5.505066673514699" id="-28386">
		<tag k="name" v="Hetlesæterelva" />
		<tag k="ssr:stedsnr" v="402062" />
		<tag k="waterway" v="river" />
	</node>
	<node lat="59.83909930264699" lon="5.37702618836422" id="-28401">
		<tag k="alt_name" v="Flono" />
		<tag k="name" v="Flona" />
		<tag k="natural" v="water" />
		<tag k="ssr:stedsnr" v="428997" />
	</node>
	<node lat="59.80757507259128" lon="5.402609239946776" id="-28406">
		<tag k="name" v="Dalskardvatnet" />
		<tag k="natural" v="water" />
		<tag k="ssr:stedsnr" v="429527" />
	</node>
	<node lat="59.82798611149299" lon="5.4108583352537" id="-28407">
		<tag k="name" v="Barlindedalsvatnet" />
		<tag k="natural" v="water" />
		<tag k="ssr:stedsnr" v="429986" />
	</node>
	<node lat="59.86332500193917" lon="5.485463883609097" id="-28416">
		<tag k="name" v="Fossen" />
		<tag k="natural" v="waterfall" />
		<tag k="ssr:stedsnr" v="523068" />
	</node>
	<node lat="59.77721006155379" lon="5.468034962615773" id="-28452">
		<tag k="name" v="Landåsvatnet" />
=======
	<node id="-604758" lat="59.8880777757" lon="5.51244167526">
		<tag k="name" v="Nonstad" />
		<tag k="ssr:stedsnr" v="98208" />
		<tag k="waterway" v="stream" />
	</node>
	<node id="-604740" lat="59.7641462646" lon="5.45070698102">
		<tag k="name" v="Meatjørna" />
		<tag k="natural" v="water" />
		<tag k="ssr:stedsnr" v="247561" />
	</node>
	<node id="-604739" lat="59.8134717111" lon="5.36407063637">
		<tag k="alt_name" v="Petarteigsvatnet, nedre" />
		<tag k="name" v="Nedre Petarteigsvatnet" />
		<tag k="natural" v="water" />
		<tag k="ssr:stedsnr" v="247515" />
	</node>
	<node id="-605249" lat="59.8101181954" lon="5.49195258497">
		<tag k="name" v="Iglatjørna" />
		<tag k="natural" v="water" />
		<tag k="ssr:stedsnr" v="65348" />
	</node>
	<node id="-605248" lat="59.8451877342" lon="5.58581684723">
		<tag k="alt_name" v="Lomtjørna" />
		<tag k="name" v="Lomatjørna" />
		<tag k="natural" v="water" />
		<tag k="ssr:stedsnr" v="65261" />
	</node>
	<node id="-604734" lat="59.7739143573" lon="5.47727474557">
		<tag k="name" v="Tveitavatnet" />
		<tag k="natural" v="water" />
		<tag k="ssr:stedsnr" v="246395" />
	</node>
	<node id="-605243" lat="59.8827686997" lon="5.49186554062">
		<tag k="name" v="Svartavatnet" />
>>>>>>> e1d4bc35ff8a6074a6f2e91616a996b547c36f15
		<tag k="natural" v="water" />
		<tag k="ssr:stedsnr" v="64273" />
	</node>
<<<<<<< HEAD
	<node lat="59.79048611384025" lon="5.5013833352562616" id="-28453">
		<tag k="name" v="Frugardselva" />
		<tag k="ssr:stedsnr" v="550385" />
		<tag k="waterway" v="stream" />
	</node>
	<node lat="59.85998333366571" lon="5.521608328905137" id="-28460">
		<tag k="name" v="Agdesteinelva" />
		<tag k="ssr:stedsnr" v="583078" />
		<tag k="waterway" v="river" />
	</node>
	<node lat="59.838749998614944" lon="5.4326999994144565" id="-28462">
		<tag k="name" v="Hovtrongsvatnet" />
		<tag k="natural" v="water" />
		<tag k="ssr:stedsnr" v="583154" />
		<tag k="water" v="lake" />
	</node>
	<node lat="59.79237964153905" lon="5.455643350279983" id="-28475">
		<tag k="name" v="Nonstjørna" />
		<tag k="natural" v="water" />
		<tag k="ssr:stedsnr" v="583876" />
	</node>
	<node lat="59.84210555130397" lon="5.578650003084253" id="-28481">
		<tag k="name" v="Morkavatnet" />
		<tag k="natural" v="water" />
		<tag k="ssr:stedsnr" v="610374" />
	</node>
	<node lat="59.78880186810137" lon="5.410404859434595" id="-28526">
		<tag k="alt_name" v="Hustrudalsvatnet" />
		<tag k="name" v="Hustredalsvatnet" />
=======
	<node id="-605233" lat="59.8654805595" lon="5.47177221714">
		<tag k="name" v="Martetjørnane" />
		<tag k="natural" v="water" />
		<tag k="ssr:stedsnr" v="38044" />
	</node>
	<node id="-605735" lat="59.8705673042" lon="5.42193912272">
		<tag k="alt_name" v="Sørlivatnet, inste;Øvre Sørlivatnet" />
		<tag k="name" v="Inste Sørlivatnet" />
		<tag k="natural" v="water" />
		<tag k="ssr:stedsnr" v="792900" />
		<tag k="water" v="lake" />
	</node>
	<node id="-605734" lat="59.8351059545" lon="5.36839685245">
		<tag k="name" v="Stemmetjørna" />
>>>>>>> e1d4bc35ff8a6074a6f2e91616a996b547c36f15
		<tag k="natural" v="water" />
		<tag k="ssr:stedsnr" v="186980" />
	</node>
<<<<<<< HEAD
	<node lat="59.858095457975985" lon="5.411455013690326" id="-28528">
		<tag k="name" v="Gavlavatna" />
		<tag k="natural" v="water" />
		<tag k="ssr:stedsnr" v="732886" />
		<tag k="water" v="lake" />
	</node>
	<node lat="59.797200003941576" lon="5.460050007116584" id="-28541">
		<tag k="name" v="Gauksløken" />
		<tag k="ssr:stedsnr" v="765855" />
		<tag k="waterway" v="stream" />
	</node>
	<node lat="59.870556536075625" lon="5.468030154471287" id="-28554">
		<tag k="name" v="Martetjørna" />
		<tag k="natural" v="water" />
		<tag k="ssr:stedsnr" v="792255" />
	</node>
	<node lat="59.87711111373696" lon="5.5114944463908095" id="-28555">
		<tag k="alt_name" v="Klokaholsbekken" />
		<tag k="name" v="Klokaholbekken" />
		<tag k="ssr:stedsnr" v="792263" />
		<tag k="waterway" v="stream" />
	</node>
	<node lat="59.852562407784674" lon="5.4429607983758554" id="-28556">
		<tag k="name" v="Tysevatnet" />
		<tag k="natural" v="water" />
		<tag k="ssr:stedsnr" v="792991" />
		<tag k="water" v="lake" />
	</node>
	<node lat="59.87056730423206" lon="5.421939122720582" id="-28557">
		<tag k="alt_name" v="Sørlivatnet, inste;Øvre Sørlivatnet" />
		<tag k="name" v="Inste Sørlivatnet" />
		<tag k="natural" v="water" />
		<tag k="ssr:stedsnr" v="792900" />
		<tag k="water" v="lake" />
	</node>
	<node lat="59.80139444595564" lon="5.442050007744952" id="-28559">
		<tag k="name" v="Ulvatjørna" />
		<tag k="natural" v="water" />
		<tag k="ssr:stedsnr" v="793540" />
	</node>
	<node lat="59.813444440671766" lon="5.481897231366203" id="-28601">
		<tag k="loc_name" v="Rongabekken" />
		<tag k="name" v="Rognabekken" />
		<tag k="ssr:stedsnr" v="853298" />
		<tag k="waterway" v="stream" />
	</node>
	<node lat="59.80695254047286" lon="5.454010083117808" id="-28606">
		<tag k="name" v="Iglatjørna" />
		<tag k="natural" v="water" />
		<tag k="ssr:stedsnr" v="854520" />
	</node>
	<node lat="59.90996666799555" lon="5.4702111094564465" id="-28607">
=======
	<node id="-605733" lat="59.832493207" lon="5.35912677656">
		<tag k="alt_name" v="Røytetjørn;Røytetjørna" />
		<tag k="name" v="Kvernatjørna" />
		<tag k="natural" v="water" />
		<tag k="ssr:stedsnr" v="307985" />
	</node>
	<node id="-605732" lat="59.858095458" lon="5.41145501369">
		<tag k="name" v="Gavlavatna" />
		<tag k="natural" v="water" />
		<tag k="ssr:stedsnr" v="732886" />
		<tag k="water" v="lake" />
	</node>
	<node id="-604699" lat="59.8698111107" lon="5.52803889106">
		<tag k="name" v="Nordelva" />
		<tag k="ssr:stedsnr" v="220085" />
		<tag k="waterway" v="river" />
	</node>
	<node id="-605206" lat="59.8395635755" lon="5.44610844216">
		<tag k="name" v="Ravatnet" />
		<tag k="natural" v="water" />
		<tag k="ssr:stedsnr" v="4997" />
	</node>
	<node id="-605205" lat="59.8348877173" lon="5.39651812839">
		<tag k="name" v="Mørkavatnet" />
		<tag k="natural" v="water" />
		<tag k="ssr:stedsnr" v="4984" />
	</node>
	<node id="-605197" lat="59.8629240036" lon="5.49447215408">
		<tag k="name" v="Hetlesætertjørna" />
		<tag k="natural" v="water" />
		<tag k="ssr:stedsnr" v="4252" />
	</node>
	<node id="-605707" lat="59.909966668" lon="5.47021110946">
>>>>>>> e1d4bc35ff8a6074a6f2e91616a996b547c36f15
		<tag k="name" v="Tverrelva" />
		<tag k="ssr:stedsnr" v="854677" />
		<tag k="waterway" v="stream" />
	</node>
<<<<<<< HEAD
	<node lat="59.819152739833264" lon="5.379644090011129" id="-28672">
		<tag k="name" v="Søre Ellingsdalsvatnet" />
		<tag k="natural" v="water" />
		<tag k="ssr:stedsnr" v="948170" />
		<tag k="water" v="lake" />
	</node>
	<node lat="59.813992289858646" lon="5.423961687645347" id="-28673">
		<tag k="name" v="Stuvasetertjørna" />
		<tag k="natural" v="water" />
		<tag k="ssr:stedsnr" v="948171" />
	</node>
	<node lat="59.79092500440888" lon="5.4995388877883045" id="-28678">
		<tag k="name" v="Sevhølen" />
		<tag k="ssr:stedsnr" v="948873" />
		<tag k="waterway" v="river" />
=======
	<node id="-605701" lat="59.8134444407" lon="5.48189723137">
		<tag k="loc_name" v="Rongabekken" />
		<tag k="name" v="Rognabekken" />
		<tag k="ssr:stedsnr" v="853298" />
		<tag k="waterway" v="stream" />
	</node>
	<node id="-605526" lat="59.7727572036" lon="5.44218222434">
		<tag k="name" v="Røyrtjørna" />
		<tag k="natural" v="water" />
		<tag k="ssr:stedsnr" v="550561" />
>>>>>>> e1d4bc35ff8a6074a6f2e91616a996b547c36f15
	</node>
</osm>
