<?xml version="1.0" encoding="UTF-8"?>
<osm version="0.6" generator="osmapis">
	<node lat="59.79443336928622" lon="5.435988536815351" id="-69261">
		<tag k="name" v="Isdal" />
		<tag k="place" v="farm" />
		<tag k="ssr:stedsnr" v="4502" />
	</node>
	<node lat="59.81859721865349" lon="5.492644437339169" id="-69281">
		<tag k="name" v="Haugland" />
		<tag k="place" v="farm" />
		<tag k="ssr:stedsnr" v="220221" />
	</node>
	<node lat="59.78886355432561" lon="5.509008720543467" id="-69287">
		<tag k="alt_name" v="Orninggård" />
		<tag k="name" v="Orninggard" />
		<tag k="place" v="farm" />
		<tag k="ssr:stedsnr" v="26208" />
	</node>
	<node lat="59.81702974237648" lon="5.519053060498082" id="-69300">
		<tag k="name" v="Rommetveit" />
		<tag k="place" v="farm" />
		<tag k="ssr:stedsnr" v="64311" />
	</node>
	<node lat="59.76907996434718" lon="5.475099790118438" id="-69303">
		<tag k="alt_name" v="Langland" />
		<tag k="name" v="Langeland" />
		<tag k="place" v="farm" />
		<tag k="ssr:stedsnr" v="64413" />
	</node>
	<node lat="59.76137500171844" lon="5.478455560549211" id="-69304">
		<tag k="name" v="Eldøy" />
		<tag k="place" v="quarter" />
		<tag k="ssr:stedsnr" v="64424" />
	</node>
	<node lat="59.769147470318856" lon="5.423651680103736" id="-69307">
		<tag k="name" v="Valvatna" />
		<tag k="place" v="farm" />
		<tag k="ssr:stedsnr" v="65557" />
	</node>
	<node lat="59.889469443722746" lon="5.486927774268508" id="-69313">
		<tag k="historic" v="shieling" />
		<tag k="name" v="Bortveitsetra" />
		<tag k="place" v="isolated_dwelling" />
		<tag k="ssr:stedsnr" v="98206" />
	</node>
	<node lat="59.89162222555498" lon="5.514149993999984" id="-69315">
		<tag k="historic" v="shieling" />
		<tag k="name" v="Olderstølen" />
		<tag k="place" v="isolated_dwelling" />
		<tag k="ssr:stedsnr" v="98209" />
	</node>
	<node lat="59.78800548060632" lon="5.4180603069453" id="-69321">
		<tag k="name" v="Øvre Litlabø" />
		<tag k="place" v="farm" />
		<tag k="ssr:stedsnr" v="98115" />
	</node>
	<node lat="59.78758581378896" lon="5.463300939138383" id="-69337">
		<tag k="name" v="Kanaløning" />
		<tag k="place" v="farm" />
		<tag k="ssr:stedsnr" v="124455" />
	</node>
	<node lat="59.75413424135055" lon="5.459620601290307" id="-69349">
		<tag k="alt_name" v="Honaland;Horneland" />
		<tag k="name" v="Hornaland" />
		<tag k="place" v="farm" />
		<tag k="ssr:stedsnr" v="125594" />
	</node>
	<node lat="59.75172911722252" lon="5.4105696135780255" id="-69350">
		<tag k="name" v="Digernes" />
		<tag k="place" v="farm" />
		<tag k="ssr:stedsnr" v="125601" />
	</node>
	<node lat="59.772636111182635" lon="5.481599997565899" id="-69353">
		<tag k="historic" v="shieling" />
		<tag k="name" v="Høylandstølen" />
		<tag k="place" v="isolated_dwelling" />
		<tag k="ssr:stedsnr" v="158861" />
	</node>
	<node lat="59.842366608271206" lon="5.590747921050041" id="-69365">
		<tag k="name" v="Litla Brandvik" />
		<tag k="place" v="farm" />
		<tag k="ssr:stedsnr" v="163203" />
	</node>
	<node lat="59.793584163701084" lon="5.527024712944466" id="-69369">
		<tag k="name" v="Hysstad" />
		<tag k="place" v="farm" />
		<tag k="ssr:stedsnr" v="247381" />
	</node>
	<node lat="59.81554444171339" lon="5.475427779539005" id="-69371">
		<tag k="name" v="Vad" />
		<tag k="place" v="farm" />
		<tag k="ssr:stedsnr" v="186324" />
	</node>
	<node lat="59.80482777844377" lon="5.487730558933098" id="-69372">
		<tag k="name" v="Åsen" />
		<tag k="place" v="farm" />
		<tag k="ssr:stedsnr" v="186374" />
	</node>
	<node lat="59.877838885839026" lon="5.500072227080202" id="-69380">
		<tag k="name" v="Stord fjellsameige" />
		<tag k="place" v="locality" />
		<tag k="ssr:stedsnr" v="219229" />
	</node>
	<node lat="59.76766111212917" lon="5.471255554870466" id="-69382">
		<tag k="amenity" v="school" />
		<tag k="name" v="Langeland skule" />
		<tag k="ssr:stedsnr" v="219786" />
	</node>
	<node lat="59.76868296085456" lon="5.482167526196663" id="-69391">
		<tag k="name" v="Høyland" />
		<tag k="place" v="farm" />
		<tag k="ssr:stedsnr" v="246396" />
	</node>
	<node lat="59.785372221407165" lon="5.353524997305313" id="-69403">
		<tag k="name" v="Stokken" />
		<tag k="place" v="farm" />
		<tag k="ssr:stedsnr" v="280086" />
	</node>
	<node lat="59.757819445688135" lon="5.456052779432201" id="-69407">
		<tag k="alt_name" v="Hornelandsstølen" />
		<tag k="historic" v="shieling" />
		<tag k="name" v="Hornalandsstølen" />
		<tag k="place" v="isolated_dwelling" />
		<tag k="ssr:stedsnr" v="280795" />
	</node>
	<node lat="59.75161944793154" lon="5.422455547151134" id="-69416">
		<tag k="historic" v="shieling" />
		<tag k="name" v="Høgestølen" />
		<tag k="place" v="isolated_dwelling" />
		<tag k="ssr:stedsnr" v="281136" />
	</node>
	<node lat="59.84686666419422" lon="5.48415276971576" id="-69424">
		<tag k="historic" v="shieling" />
		<tag k="name" v="Lundastølen" />
		<tag k="place" v="isolated_dwelling" />
		<tag k="ssr:stedsnr" v="307323" />
	</node>
	<node lat="59.835012955310056" lon="5.517659743722143" id="-69425">
		<tag k="name" v="Førland" />
		<tag k="place" v="farm" />
		<tag k="ssr:stedsnr" v="307349" />
	</node>
	<node lat="59.77331110909762" lon="5.47403889455324" id="-69447">
		<tag k="historic" v="shieling" />
		<tag k="name" v="Tveitastølen" />
		<tag k="place" v="isolated_dwelling" />
		<tag k="ssr:stedsnr" v="462758" />
	</node>
	<node lat="59.8012229164568" lon="5.479102111638436" id="-69466">
		<tag k="name" v="Vatna" />
		<tag k="place" v="farm" />
		<tag k="ssr:stedsnr" v="368371" />
	</node>
	<node lat="59.774363890433925" lon="5.397955549823176" id="-69476">
		<tag k="name" v="Vassneset" />
		<tag k="place" v="farm" />
		<tag k="ssr:stedsnr" v="402044" />
	</node>
	<node lat="59.78490555587594" lon="5.367974992015133" id="-69489">
		<tag k="name" v="Knutemyr" />
		<tag k="place" v="farm" />
		<tag k="ssr:stedsnr" v="428480" />
	</node>
	<node lat="59.80381611096792" lon="5.528766060606535" id="-69491">
		<tag k="name" v="Haga" />
		<tag k="place" v="farm" />
		<tag k="ssr:stedsnr" v="429317" />
	</node>
	<node lat="59.79968611410115" lon="5.388075005658095" id="-69496">
		<tag k="name" v="Rutle" />
		<tag k="place" v="farm" />
		<tag k="ssr:stedsnr" v="429483" />
	</node>
	<node lat="59.76779631763699" lon="5.4064638826828855" id="-69517">
		<tag k="name" v="Nes" />
		<tag k="place" v="farm" />
		<tag k="ssr:stedsnr" v="489605" />
	</node>
	<node lat="59.77834999718704" lon="5.413949997614532" id="-69518">
		<tag k="name" v="Sandvik" />
		<tag k="place" v="farm" />
		<tag k="ssr:stedsnr" v="489626" />
	</node>
	<node lat="59.78670000073238" lon="5.428813891352514" id="-69520">
		<tag k="name" v="Botsvik" />
		<tag k="place" v="farm" />
		<tag k="ssr:stedsnr" v="489544" />
	</node>
	<node lat="59.78803874697852" lon="5.3522349425229345" id="-69522">
		<tag k="name" v="Stokken" />
		<tag k="place" v="farm" />
		<tag k="ssr:stedsnr" v="489549" />
	</node>
	<node lat="59.85925142618511" lon="5.509413329949637" id="-69524">
		<tag k="name" v="Hetlesæter" />
		<tag k="place" v="farm" />
		<tag k="ssr:stedsnr" v="671259" />
	</node>
	<node lat="59.84800766816924" lon="5.5961685039456395" id="-69525">
		<tag k="name" v="Stora Brandvik" />
		<tag k="place" v="farm" />
		<tag k="ssr:stedsnr" v="671283" />
	</node>
	<node lat="59.854197703792714" lon="5.527497175167684" id="-69526">
		<tag k="alt_name" v="Bordavik" />
		<tag k="name" v="Boravik" />
		<tag k="place" v="farm" />
		<tag k="ssr:stedsnr" v="671297" />
	</node>
	<node lat="59.78887816003349" lon="5.483919589380115" id="-69529">
		<tag k="name" v="Løning" />
		<tag k="place" v="farm" />
		<tag k="ssr:stedsnr" v="671389" />
	</node>
	<node lat="59.83260343265061" lon="5.5107337811112584" id="-69531">
		<tag k="alt_name" v="Eskeland, øvre" />
		<tag k="name" v="Øvre Eskeland" />
		<tag k="place" v="farm" />
		<tag k="ssr:stedsnr" v="671338" />
	</node>
	<node lat="59.838233329870825" lon="5.480244442551363" id="-69532">
		<tag k="name" v="Eikekleiv" />
		<tag k="place" v="isolated_dwelling" />
		<tag k="ssr:stedsnr" v="671340" />
	</node>
	<node lat="59.81020277845627" lon="5.525666661765466" id="-69534">
		<tag k="name" v="Okland" />
		<tag k="place" v="farm" />
		<tag k="ssr:stedsnr" v="671362" />
	</node>
	<node lat="59.761075000453225" lon="5.472608328082181" id="-69539">
		<tag k="name" v="Hildal" />
		<tag k="place" v="farm" />
		<tag k="ssr:stedsnr" v="510665" />
	</node>
	<node lat="59.8246805579881" lon="5.523972230671334" id="-69546">
		<tag k="name" v="Gjerde" />
		<tag k="place" v="farm" />
		<tag k="ssr:stedsnr" v="523185" />
	</node>
	<node lat="59.756699995768784" lon="5.470700006923422" id="-69556">
		<tag k="alt_name" v="Kåravik" />
		<tag k="name" v="Kåravika" />
		<tag k="place" v="quarter" />
		<tag k="ssr:stedsnr" v="549419" />
	</node>
	<node lat="59.83315833194772" lon="5.572180564368219" id="-69558">
		<tag k="alt_name" v="Sør-Huglo" />
		<tag k="name" v="Sørhuglo" />
		<tag k="place" v="farm" />
		<tag k="ssr:stedsnr" v="550321" />
	</node>
	<node lat="59.77976944669878" lon="5.500527769633653" id="-69561">
		<tag k="name" v="Leirvik" />
		<tag k="place" v="village" />
		<tag k="ssr:stedsnr" v="550363" />
	</node>
	<node lat="59.819499998164666" lon="5.485480559631587" id="-69569">
		<tag k="historic" v="shieling" />
		<tag k="name" v="Kvernastølen" />
		<tag k="place" v="isolated_dwelling" />
		<tag k="ssr:stedsnr" v="583169" />
	</node>
	<node lat="59.78261111063439" lon="5.404722215412163" id="-69570">
		<tag k="name" v="Nysæter" />
		<tag k="place" v="farm" />
		<tag k="ssr:stedsnr" v="583069" />
	</node>
	<node lat="59.7874916684731" lon="5.459422225022335" id="-69576">
		<tag k="name" v="Kannelønning" />
		<tag k="place" v="farm" />
		<tag k="ssr:stedsnr" v="583753" />
	</node>
	<node lat="59.849791665837614" lon="5.5765416580519265" id="-69579">
		<tag k="name" v="Myrvoll" />
		<tag k="place" v="farm" />
		<tag k="ssr:stedsnr" v="584211" />
	</node>
	<node lat="59.81687833577521" lon="5.490270765931624" id="-69585">
		<tag k="name" v="Haugland" />
		<tag k="place" v="farm" />
		<tag k="ssr:stedsnr" v="610348" />
	</node>
	<node lat="59.766091668318985" lon="5.469272216746117" id="-69593">
		<tag k="name" v="Langeland" />
		<tag k="place" v="farm" />
		<tag k="ssr:stedsnr" v="643780" />
	</node>
	<node lat="59.76331111024305" lon="5.477949998047529" id="-69595">
		<tag k="name" v="Eldøy" />
		<tag k="place" v="farm" />
		<tag k="ssr:stedsnr" v="643789" />
	</node>
	<node lat="59.775658337130594" lon="5.405763890011149" id="-69601">
		<tag k="name" v="Lamannen" />
		<tag k="place" v="farm" />
		<tag k="ssr:stedsnr" v="644030" />
	</node>
	<node lat="59.78095126900541" lon="5.379088388503926" id="-69603">
		<tag k="amenity" v="school" />
		<tag k="name" v="Sagvåg skule" />
		<tag k="ssr:stedsnr" v="644044" />
	</node>
	<node lat="59.86535832965131" lon="5.572036106826654" id="-69613">
		<tag k="historic" v="shieling" />
		<tag k="name" v="Litlestølen" />
		<tag k="place" v="isolated_dwelling" />
		<tag k="ssr:stedsnr" v="644831" />
	</node>
	<node lat="59.73883611198677" lon="5.420469445836206" id="-69617">
		<tag k="name" v="Haugatun" />
		<tag k="place" v="farm" />
		<tag k="ssr:stedsnr" v="670589" />
	</node>
	<node lat="59.83189045403301" lon="5.589816183691444" id="-69618">
		<tag k="name" v="Tveit" />
		<tag k="place" v="farm" />
		<tag k="ssr:stedsnr" v="671318" />
	</node>
	<node lat="59.79694999664904" lon="5.4355999977678024" id="-69619">
		<tag k="name" v="Myra" />
		<tag k="place" v="farm" />
		<tag k="ssr:stedsnr" v="671510" />
	</node>
	<node lat="59.8253723325139" lon="5.504323144497076" id="-69629">
		<tag k="name" v="Geitåsen" />
		<tag k="place" v="farm" />
		<tag k="ssr:stedsnr" v="705205" />
	</node>
	<node lat="59.83753333431962" lon="5.574791674741677" id="-69631">
		<tag k="name" v="Tjøregrova" />
		<tag k="place" v="farm" />
		<tag k="ssr:stedsnr" v="705215" />
	</node>
	<node lat="59.770897912155384" lon="5.406474437240339" id="-69646">
		<tag k="amenity" v="school" />
		<tag k="name" v="Tjødnalia skule" />
		<tag k="ssr:stedsnr" v="887045" />
	</node>
	<node lat="59.81132777832595" lon="5.356277776624655" id="-69648">
		<tag k="historic" v="shieling" />
		<tag k="name" v="Stølen" />
		<tag k="place" v="isolated_dwelling" />
		<tag k="ssr:stedsnr" v="887091" />
	</node>
	<node lat="59.78949721827918" lon="5.41637777482924" id="-69653">
		<tag k="name" v="Dyråsen" />
		<tag k="place" v="farm" />
		<tag k="ssr:stedsnr" v="887136" />
	</node>
	<node lat="59.75606944224057" lon="5.456102770990615" id="-69663">
		<tag k="name" v="Horneland" />
		<tag k="place" v="farm" />
		<tag k="ssr:stedsnr" v="887791" />
	</node>
	<node lat="59.80993381025579" lon="5.5067243094480895" id="-69674">
		<tag k="alt_name" v="Tveita, nordre;Tveita" />
		<tag k="name" v="Nordre Tveita" />
		<tag k="place" v="farm" />
		<tag k="ssr:stedsnr" v="732371" />
	</node>
	<node lat="59.78887778025527" lon="5.491566660633737" id="-69675">
		<tag k="name" v="Kattatveit" />
		<tag k="place" v="farm" />
		<tag k="ssr:stedsnr" v="732415" />
	</node>
	<node lat="59.830313502971435" lon="5.5085518579819635" id="-69699">
		<tag k="alt_name" v="Eskeland, nedre" />
		<tag k="name" v="Nedre Eskeland" />
		<tag k="place" v="farm" />
		<tag k="ssr:stedsnr" v="792305" />
	</node>
	<node lat="59.81334818257666" lon="5.508241132010407" id="-69700">
		<tag k="name" v="Lunde" />
		<tag k="place" v="farm" />
		<tag k="ssr:stedsnr" v="792289" />
	</node>
	<node lat="59.821024998296494" lon="5.519899994448285" id="-69701">
		<tag k="alt_name" v="Kyvik, øvre;Kivik" />
		<tag k="name" v="Øvre Kyvik" />
		<tag k="place" v="farm" />
		<tag k="ssr:stedsnr" v="792291" />
	</node>
	<node lat="59.866187471239634" lon="5.524468205939839" id="-69707">
		<tag k="name" v="Agdestein" />
		<tag k="place" v="farm" />
		<tag k="ssr:stedsnr" v="814201" />
	</node>
	<node lat="59.77987777359879" lon="5.493330554886285" id="-69709">
		<tag k="name" v="Bandadalen" />
		<tag k="place" v="farm" />
		<tag k="ssr:stedsnr" v="826815" />
	</node>
	<node lat="59.86709444217969" lon="5.5200472161851035" id="-69716">
		<tag k="name" v="Grutle" />
		<tag k="place" v="farm" />
		<tag k="ssr:stedsnr" v="827065" />
	</node>
	<node lat="59.82467777791632" lon="5.574727774572343" id="-69718">
		<tag k="name" v="Kalfaret" />
		<tag k="place" v="farm" />
		<tag k="ssr:stedsnr" v="827082" />
	</node>
	<node lat="59.84719166778647" lon="5.603302770708077" id="-69729">
		<tag k="name" v="Brandviketræet" />
		<tag k="place" v="farm" />
		<tag k="ssr:stedsnr" v="827266" />
	</node>
	<node lat="59.82867594392437" lon="5.503563276257013" id="-69730">
		<tag k="name" v="Solhaug" />
		<tag k="place" v="farm" />
		<tag k="ssr:stedsnr" v="853316" />
	</node>
	<node lat="59.82517713318539" lon="5.474697314339646" id="-69731">
		<tag k="name" v="Hauglandskverna" />
		<tag k="place" v="locality" />
		<tag k="ssr:stedsnr" v="853321" />
	</node>
	<node lat="59.79663265224441" lon="5.502883998727637" id="-69734">
		<tag k="alt_name" v="Årland" />
		<tag k="name" v="Ådland" />
		<tag k="place" v="farm" />
		<tag k="ssr:stedsnr" v="854320" />
	</node>
	<node lat="59.823325847128274" lon="5.498062961633894" id="-69737">
		<tag k="name" v="Presthaug" />
		<tag k="place" v="farm" />
		<tag k="ssr:stedsnr" v="914322" />
	</node>
	<node lat="59.84617085294735" lon="5.569593134964498" id="-69762">
		<tag k="name" v="Rossbø" />
		<tag k="place" v="farm" />
		<tag k="ssr:stedsnr" v="914289" />
	</node>
	<node lat="59.75504334282592" lon="5.452707133510219" id="-69767">
		<tag k="alt_name" v="Barkeland" />
		<tag k="name" v="Byrkjeland" />
		<tag k="place" v="farm" />
		<tag k="ssr:stedsnr" v="914601" />
	</node>
	<node lat="59.78920833570367" lon="5.421825002501245" id="-69770">
		<tag k="name" v="Litlabø" />
		<tag k="place" v="quarter" />
		<tag k="ssr:stedsnr" v="914617" />
	</node>
	<node lat="59.82331762007876" lon="5.525485232530807" id="-69799">
		<tag k="name" v="Kyvik" />
		<tag k="place" v="farm" />
		<tag k="ssr:stedsnr" v="990045" />
	</node>
	<node lat="59.80859284944529" lon="5.516196334417681" id="-69800">
		<tag k="name" v="Stord prestegard" />
		<tag k="place" v="farm" />
		<tag k="ssr:stedsnr" v="990055" />
	</node>
	<node lat="59.810400855852365" lon="5.360583865610242" id="-69801">
		<tag k="name" v="Morken" />
		<tag k="place" v="farm" />
		<tag k="ssr:stedsnr" v="990083" />
	</node>
	<node lat="59.89270157904369" lon="5.5138345320063396" id="-69804">
		<tag k="name" v="Bortveit" />
		<tag k="place" v="farm" />
		<tag k="ssr:stedsnr" v="3255" />
	</node>
	<node lat="59.8444388867735" lon="5.570519440172378" id="-69821">
		<tag k="alt_name" v="Ryssbøvik" />
		<tag k="name" v="Røssbøvik" />
		<tag k="place" v="farm" />
		<tag k="ssr:stedsnr" v="25156" />
	</node>
	<node lat="59.800669448742546" lon="5.524230559011526" id="-69837">
		<tag k="name" v="Sævarhagen" />
		<tag k="place" v="farm" />
		<tag k="ssr:stedsnr" v="37849" />
	</node>
	<node lat="59.81071666258182" lon="5.511469450792284" id="-69839">
		<tag k="name" v="Lundemannsverk" />
		<tag k="place" v="farm" />
		<tag k="ssr:stedsnr" v="38194" />
	</node>
	<node lat="59.82445409339662" lon="5.526327652739421" id="-69849">
		<tag k="alt_name" v="Kyvik, nedre" />
		<tag k="name" v="Nedre Kyvik" />
		<tag k="place" v="farm" />
		<tag k="ssr:stedsnr" v="64331" />
	</node>
	<node lat="59.864436114720114" lon="5.524994441418303" id="-69858">
		<tag k="name" v="Sagi" />
		<tag k="place" v="locality" />
		<tag k="ssr:stedsnr" v="86162" />
	</node>
	<node lat="59.84668332931386" lon="5.598547226678096" id="-69864">
		<tag k="name" v="Stora Brandvik" />
		<tag k="place" v="farm" />
		<tag k="ssr:stedsnr" v="94747" />
	</node>
	<node lat="59.77020536754353" lon="5.495451370841642" id="-69877">
		<tag k="alt_name" v="Bjelland nordre" />
		<tag k="name" v="Nordre Bjelland" />
		<tag k="place" v="farm" />
		<tag k="ssr:stedsnr" v="98853" />
	</node>
	<node lat="59.839327777708164" lon="5.4770638842405575" id="-69880">
		<tag k="historic" v="shieling" />
		<tag k="name" v="Lundsæter" />
		<tag k="place" v="isolated_dwelling" />
		<tag k="ssr:stedsnr" v="99155" />
	</node>
	<node lat="59.76705277726055" lon="5.40350556353236" id="-69893">
		<tag k="alt_name" v="Øvrebø" />
		<tag k="name" v="Øvrabø" />
		<tag k="place" v="farm" />
		<tag k="ssr:stedsnr" v="125633" />
	</node>
	<node lat="59.767533332103625" lon="5.4332555556479605" id="-69897">
		<tag k="name" v="Gjerde" />
		<tag k="place" v="farm" />
		<tag k="ssr:stedsnr" v="146634" />
	</node>
	<node lat="59.78033888838407" lon="5.369388890535956" id="-69904">
		<tag k="alt_name" v="Vikanes Nedre" />
		<tag k="name" v="Nedre Vikanes" />
		<tag k="place" v="farm" />
		<tag k="ssr:stedsnr" v="158790" />
	</node>
	<node lat="59.78701944170948" lon="5.418186113465899" id="-69907">
		<tag k="name" v="Kattanes" />
		<tag k="place" v="farm" />
		<tag k="ssr:stedsnr" v="159031" />
	</node>
	<node lat="59.78121024922698" lon="5.388579317299107" id="-69925">
		<tag k="name" v="Sagvåg" />
		<tag k="place" v="village" />
		<tag k="ssr:stedsnr" v="185471" />
	</node>
	<node lat="59.91359986750904" lon="5.487868441187652" id="-69937">
		<tag k="alt_name" v="Midhamar;Midhammar" />
		<tag k="name" v="Mehammar" />
		<tag k="place" v="farm" />
		<tag k="ssr:stedsnr" v="186768" />
	</node>
	<node lat="59.78458055857976" lon="5.4563638949328395" id="-69966">
		<tag k="name" v="Heimdal" />
		<tag k="place" v="farm" />
		<tag k="ssr:stedsnr" v="307535" />
	</node>
	<node lat="59.78862125725483" lon="5.368266294232108" id="-69967">
		<tag k="name" v="Dyvik" />
		<tag k="place" v="farm" />
		<tag k="ssr:stedsnr" v="307539" />
	</node>
	<node lat="59.758097610592024" lon="5.445370243052988" id="-69969">
		<tag k="alt_name" v="Hattland" />
		<tag k="name" v="Hatland" />
		<tag k="place" v="farm" />
		<tag k="ssr:stedsnr" v="307601" />
	</node>
	<node lat="59.76752280357843" lon="5.397180178893133" id="-69975">
		<tag k="alt_name" v="Sætrevik" />
		<tag k="name" v="Sætravik" />
		<tag k="place" v="farm" />
		<tag k="ssr:stedsnr" v="328171" />
	</node>
	<node lat="59.78082428784625" lon="5.49965619032271" id="-69976">
		<tag k="name" v="Stord" />
		<tag k="place" v="town" />
		<tag k="ssr:stedsnr" v="328700" />
	</node>
	<node lat="59.78902222634356" lon="5.420125004491688" id="-69988">
		<tag k="amenity" v="school" />
		<tag k="name" v="Litlabø skule" />
		<tag k="ssr:stedsnr" v="341094" />
	</node>
	<node lat="59.81402778082894" lon="5.506944440231642" id="-69992">
		<tag k="name" v="Lundstræet" />
		<tag k="place" v="farm" />
		<tag k="ssr:stedsnr" v="341190" />
	</node>
	<node lat="59.74012777535685" lon="5.413033338987242" id="-69996">
		<tag k="historic" v="shieling" />
		<tag k="name" v="Høgestølen" />
		<tag k="place" v="isolated_dwelling" />
		<tag k="ssr:stedsnr" v="341127" />
	</node>
	<node lat="59.77254405998637" lon="5.472338779102745" id="-70010">
		<tag k="alt_name" v="Tveita, s" />
		<tag k="name" v="Søre Tveita" />
		<tag k="place" v="farm" />
		<tag k="ssr:stedsnr" v="367353" />
	</node>
	<node lat="59.76524444430084" lon="5.4964361197957565" id="-70011">
		<tag k="building" v="industrial" />
		<tag k="industrial" v="factory" />
		<tag k="name" v="Stord verft" />
		<tag k="ssr:stedsnr" v="367366" />
	</node>
	<node lat="59.784294440567706" lon="5.4097638881912715" id="-70021">
		<tag k="name" v="Åkervik åsen" />
		<tag k="place" v="farm" />
		<tag k="ssr:stedsnr" v="402027" />
	</node>
	<node lat="59.78906666878999" lon="5.507441673078708" id="-70025">
		<tag k="name" v="Frugarden" />
		<tag k="place" v="farm" />
		<tag k="ssr:stedsnr" v="401801" />
	</node>
	<node lat="59.76935832921131" lon="5.487724992444837" id="-70027">
		<tag k="alt_name" v="Bjelland Søre" />
		<tag k="name" v="Søre Bjelland" />
		<tag k="place" v="farm" />
		<tag k="ssr:stedsnr" v="401821" />
	</node>
	<node lat="59.79240555457409" lon="5.427291672168845" id="-70028">
		<tag k="name" v="Øvre Dale" />
		<tag k="place" v="farm" />
		<tag k="ssr:stedsnr" v="401824" />
	</node>
	<node lat="59.79219722444217" lon="5.430822226653407" id="-70029">
		<tag k="name" v="Nedre Dale" />
		<tag k="place" v="farm" />
		<tag k="ssr:stedsnr" v="401826" />
	</node>
	<node lat="59.75038055117952" lon="5.4317888882517105" id="-70052">
		<tag k="alt_name" v="Tømmervik" />
		<tag k="name" v="Timbervik" />
		<tag k="place" v="farm" />
		<tag k="ssr:stedsnr" v="429581" />
	</node>
	<node lat="59.808020089309494" lon="5.365416012552627" id="-70056">
		<tag k="name" v="Petarteigen" />
		<tag k="place" v="farm" />
		<tag k="ssr:stedsnr" v="489585" />
	</node>
	<node lat="59.75279444659676" lon="5.468938895151543" id="-70058">
		<tag k="name" v="Sæbø" />
		<tag k="place" v="farm" />
		<tag k="ssr:stedsnr" v="489458" />
	</node>
	<node lat="59.78421666795988" lon="5.369486112452037" id="-70059">
		<tag k="name" v="Bjørnvik" />
		<tag k="place" v="farm" />
		<tag k="ssr:stedsnr" v="506759" />
	</node>
	<node lat="59.77933873995247" lon="5.366114073971376" id="-70061">
		<tag k="name" v="Vikenes" />
		<tag k="place" v="farm" />
		<tag k="ssr:stedsnr" v="510168" />
	</node>
	<node lat="59.85718184080827" lon="5.609718500168849" id="-70066">
		<tag k="name" v="Haukanes" />
		<tag k="place" v="farm" />
		<tag k="ssr:stedsnr" v="510877" />
	</node>
	<node lat="59.789661108593336" lon="5.514894453499785" id="-70092">
		<tag k="name" v="Døso" />
		<tag k="place" v="farm" />
		<tag k="ssr:stedsnr" v="523845" />
	</node>
	<node lat="59.77905277581263" lon="5.489697226809977" id="-70095">
		<tag k="name" v="Kringsjå" />
		<tag k="place" v="farm" />
		<tag k="ssr:stedsnr" v="523860" />
	</node>
	<node lat="59.792023142348135" lon="5.4311527747239765" id="-70100">
		<tag k="name" v="Dale" />
		<tag k="place" v="farm" />
		<tag k="ssr:stedsnr" v="549485" />
	</node>
	<node lat="59.77360833409021" lon="5.503113880977944" id="-70131">
		<tag k="name" v="Bjelland" />
		<tag k="place" v="farm" />
		<tag k="ssr:stedsnr" v="610455" />
	</node>
	<node lat="59.81106389072153" lon="5.51093055730434" id="-70137">
		<tag k="name" v="Tyso" />
		<tag k="place" v="farm" />
		<tag k="ssr:stedsnr" v="632223" />
	</node>
	<node lat="59.840155559128405" lon="5.592930560500825" id="-70138">
		<tag k="name" v="Litla Brandvik" />
		<tag k="place" v="farm" />
		<tag k="ssr:stedsnr" v="640718" />
	</node>
	<node lat="59.7899250021846" lon="5.524686106643558" id="-70151">
		<tag k="alt_name" v="Hystadtræet" />
		<tag k="name" v="Hysstadtræet" />
		<tag k="place" v="farm" />
		<tag k="ssr:stedsnr" v="643828" />
	</node>
	<node lat="59.843798219579334" lon="5.526890410640288" id="-70178">
		<tag k="name" v="Grov" />
		<tag k="place" v="farm" />
		<tag k="ssr:stedsnr" v="732290" />
	</node>
	<node lat="59.77506919413836" lon="5.40987953534832" id="-70179">
		<tag k="name" v="Almås" />
		<tag k="place" v="farm" />
		<tag k="ssr:stedsnr" v="732606" />
	</node>
	<node lat="59.77831111455206" lon="5.367808332294033" id="-70192">
		<tag k="alt_name" v="Vikanes Øvre" />
		<tag k="name" v="Øvre Vikanes" />
		<tag k="place" v="farm" />
		<tag k="ssr:stedsnr" v="765777" />
	</node>
	<node lat="59.81087777367741" lon="5.5225000047863935" id="-70204">
		<tag k="name" v="Nedre Økland" />
		<tag k="place" v="farm" />
		<tag k="ssr:stedsnr" v="766163" />
	</node>
	<node lat="59.789734821594436" lon="5.469649103304671" id="-70216">
		<tag k="name" v="Stuva" />
		<tag k="place" v="farm" />
		<tag k="ssr:stedsnr" v="793411" />
	</node>
	<node lat="59.80752777951314" lon="5.4647999937297635" id="-70219">
		<tag k="alt_name" v="Økland, øvre" />
		<tag k="name" v="Øvre Økland" />
		<tag k="place" v="farm" />
		<tag k="ssr:stedsnr" v="793581" />
	</node>
	<node lat="59.79868333195835" lon="5.5235305571071995" id="-70230">
		<tag k="name" v="Svinshammaren" />
		<tag k="place" v="farm" />
		<tag k="ssr:stedsnr" v="826821" />
	</node>
	<node lat="59.78329999660881" lon="5.39747777930836" id="-70238">
		<tag k="amenity" v="school" />
		<tag k="name" v="Nysæter ungdomsskule" />
		<tag k="ssr:stedsnr" v="827056" />
	</node>
	<node lat="59.86367222261016" lon="5.5650861109302765" id="-70256">
		<tag k="alt_name" v="Nord-Huglo" />
		<tag k="name" v="Nordhuglo" />
		<tag k="place" v="farm" />
		<tag k="ssr:stedsnr" v="854276" />
	</node>
	<node lat="59.75861111061106" lon="5.474952782618941" id="-70259">
		<tag k="name" v="Haugen" />
		<tag k="place" v="farm" />
		<tag k="ssr:stedsnr" v="874648" />
	</node>
	<node lat="59.75033376246179" lon="5.4446933964159205" id="-70261">
		<tag k="name" v="Grindevik" />
		<tag k="place" v="farm" />
		<tag k="ssr:stedsnr" v="874653" />
	</node>
	<node lat="59.78339640351451" lon="5.455762996102312" id="-70271">
		<tag k="name" v="Nedre Litlabø" />
		<tag k="place" v="farm" />
		<tag k="ssr:stedsnr" v="947741" />
	</node>
	<node lat="59.78842149477814" lon="5.358383861902754" id="-70287">
		<tag k="name" v="Mjelkevik" />
		<tag k="place" v="farm" />
		<tag k="ssr:stedsnr" v="948123" />
	</node>
	<node lat="59.74919668702013" lon="5.4535510296070155" id="-70311">
		<tag k="name" v="Hornalandsvågen" />
		<tag k="place" v="farm" />
		<tag k="ssr:stedsnr" v="990056" />
	</node>
	<node lat="59.741506264499215" lon="5.415508247686844" id="-70312">
		<tag k="name" v="Føyno" />
		<tag k="place" v="farm" />
		<tag k="ssr:stedsnr" v="990057" />
	</node>
	<node lat="59.844850166109694" lon="5.5973258552369245" id="-70640">
		<tag k="name" v="Brandvik" />
		<tag k="place" v="farm" />
		<tag k="ssr:stedsnr" v="1080305" />
	</node>
	<node lat="59.83138988441916" lon="5.5098477185750285" id="-70641">
		<tag k="name" v="Eskeland" />
		<tag k="place" v="farm" />
		<tag k="ssr:stedsnr" v="1080309" />
	</node>
	<node lat="59.78501820377177" lon="5.387554289600261" id="-70645">
		<tag k="name" v="Utsletteslottet" />
		<tag k="place" v="locality" />
		<tag k="ssr:stedsnr" v="1085535" />
	</node>
</osm>
