<?xml version="1.0" encoding="UTF-8"?>
<osm generator="osmapis" version="0.6">
	<node id="-62496" lat="59.7543083354" lon="5.41776110508">
		<tag k="name" v="Valvatnamyra" />
		<tag k="natural" v="wetland" />
		<tag k="ssr:stedsnr" v="584144" />
	</node>
	<node id="-62016" lat="59.797447218" lon="5.3370805537">
		<tag k="name" v="Prestekoneskogen" />
		<tag k="place" v="locality" />
		<tag k="ssr:stedsnr" v="766075" />
	</node>
	<node id="-62398" lat="59.7938694451" lon="5.34438888667">
		<tag k="name" v="Storeskogen" />
		<tag k="place" v="locality" />
		<tag k="ssr:stedsnr" v="402084" />
	</node>
	<node id="-61946" lat="59.900036113" lon="5.49366388537">
		<tag k="name" v="Soljemyrane" />
		<tag k="natural" v="wetland" />
		<tag k="ssr:stedsnr" v="584254" />
	</node>
	<node id="-62616" lat="59.8036305584" lon="5.43570555787">
		<tag k="name" v="Revasteinane" />
		<tag k="natural" v="stone" />
		<tag k="ssr:stedsnr" v="826868" />
	</node>
	<node id="-62102" lat="59.8186833307" lon="5.40385833497">
		<tag k="name" v="Geitura" />
		<tag k="natural" v="scree" />
		<tag k="ssr:stedsnr" v="887168" />
	</node>
	<node id="-62067" lat="59.8694944411" lon="5.56942222853">
		<tag k="name" v="Flatesteinen" />
		<tag k="natural" v="stone" />
		<tag k="ssr:stedsnr" v="947787" />
	</node>
	<node id="-62257" lat="59.87514167" lon="5.49717221767">
		<tag k="name" v="Agdesteinen" />
		<tag k="natural" v="stone" />
		<tag k="ssr:stedsnr" v="158261" />
	</node>
	<node id="-61933" lat="59.779625002" lon="5.3982972263">
		<tag k="name" v="Myro" />
		<tag k="natural" v="wetland" />
		<tag k="ssr:stedsnr" v="705924" />
	</node>
	<node id="-62072" lat="59.8088833358" lon="5.53331110314">
		<tag k="name" v="Tednesteinen" />
		<tag k="natural" v="stone" />
		<tag k="ssr:stedsnr" v="947830" />
	</node>
	<node id="-61805" lat="59.8672333351" lon="5.51676110817">
		<tag k="name" v="Øyjorda" />
		<tag k="place" v="locality" />
		<tag k="ssr:stedsnr" v="462074" />
	</node>
	<node id="-61740" lat="59.9022888848" lon="5.48299166704">
		<tag k="name" v="Mattismyrane" />
		<tag k="natural" v="wetland" />
		<tag k="ssr:stedsnr" v="159260" />
	</node>
	<node id="-62538" lat="59.8777138881" lon="5.43207777524">
		<tag k="name" v="Steinen" />
		<tag k="natural" v="stone" />
		<tag k="ssr:stedsnr" v="644056" />
	</node>
	<node id="-62471" lat="59.8383967418" lon="5.50885966256">
		<tag k="loc_name" v="Langehøljane" />
		<tag k="name" v="Langehølane" />
		<tag k="natural" v="wetland" />
		<tag k="ssr:stedsnr" v="550326" />
	</node>
	<node id="-62214" lat="59.8247305535" lon="5.59173333481">
		<tag k="name" v="Svinasteinen" />
		<tag k="natural" v="stone" />
		<tag k="ssr:stedsnr" v="98091" />
	</node>
	<node id="-62148" lat="59.7982916643" lon="5.52624722013">
		<tag k="name" v="Sævarhagen" />
		<tag k="place" v="locality" />
		<tag k="ssr:stedsnr" v="4334" />
	</node>
	<node id="-62563" lat="59.8774138873" lon="5.51650832906">
		<tag k="name" v="Fureskogen" />
		<tag k="place" v="locality" />
		<tag k="ssr:stedsnr" v="765221" />
	</node>
</osm>
