<?xml version="1.0" encoding="UTF-8"?>
<osm generator="osmapis" version="0.6">
	<node id="-595968" lat="59.8714250017" lon="5.56187777524">
		<tag k="name" v="Flatholmen" />
		<tag k="place" v="islet" />
		<tag k="ssr:stedsnr" v="583810" />
	</node>
	<node id="-595965" lat="59.7860916667" lon="5.42685832769">
		<tag k="name" v="Båtsvika" />
		<tag k="natural" v="bay" />
		<tag k="ssr:stedsnr" v="583774" />
	</node>
	<node id="-595963" lat="59.8349305595" lon="5.5681055633">
		<tag k="name" v="Skotahola" />
		<tag k="natural" v="bay" />
		<tag k="ssr:stedsnr" v="583177" />
	</node>
	<node id="-595960" lat="59.7403416671" lon="5.42177778277">
		<tag k="name" v="Gardsendevika" />
		<tag k="natural" v="bay" />
		<tag k="ssr:stedsnr" v="583136" />
	</node>
	<node id="-595959" lat="59.7377004571" lon="5.40614666355">
		<tag k="name" v="Tingholmen" />
		<tag k="place" v="islet" />
		<tag k="ssr:stedsnr" v="583130" />
	</node>
	<node id="-595954" lat="59.9168390001" lon="5.48616295619">
		<tag k="alt_name" v="Midhamarvik;Mehammervika;Midhammarvika" />
		<tag k="name" v="Mehammarvika" />
		<tag k="natural" v="bay" />
		<tag k="ssr:stedsnr" v="571246" />
	</node>
	<node id="-595953" lat="59.8106749959" lon="5.53356111095">
		<tag k="name" v="Grønneset" />
		<tag k="natural" v="cape" />
		<tag k="ssr:stedsnr" v="571184" />
	</node>
	<node id="-595952" lat="59.7664333313" lon="5.3805361172">
		<tag k="name" v="Sagvågbleikja" />
		<tag k="place" v="islet" />
		<tag k="ssr:stedsnr" v="571174" />
	</node>
	<node id="-595951" lat="59.8425249999" lon="5.56946666867">
		<tag k="alt_name" v="Røsbøvika;Ryssbøvik" />
		<tag k="name" v="Røssbøvika" />
		<tag k="natural" v="bay" />
		<tag k="ssr:stedsnr" v="571157" />
	</node>
	<node id="-595950" lat="59.8413666671" lon="5.53597500681">
		<tag k="name" v="Store Grovaholmen" />
		<tag k="place" v="islet" />
		<tag k="ssr:stedsnr" v="571148" />
	</node>
	<node id="-595949" lat="59.8291555562" lon="5.53063611044">
		<tag k="name" v="Kvernaneset" />
		<tag k="natural" v="cape" />
		<tag k="ssr:stedsnr" v="550564" />
	</node>
	<node id="-595947" lat="59.7957722225" lon="5.3529888962">
		<tag k="alt_name" v="Dåfjorden, s" />
		<tag k="bay" v="fjord" />
		<tag k="name" v="Søre Dåfjorden" />
		<tag k="natural" v="bay" />
		<tag k="ssr:stedsnr" v="550492" />
	</node>
	<node id="-595943" lat="59.8360249963" lon="5.53181388226">
		<tag k="alt_name" v="Buvik" />
		<tag k="name" v="Buvika" />
		<tag k="natural" v="bay" />
		<tag k="ssr:stedsnr" v="550323" />
	</node>
	<node id="-595941" lat="59.7830916668" lon="5.35838055541">
		<tag k="alt_name" v="Dyvikvågen" />
		<tag k="name" v="Dyvikevågen" />
		<tag k="natural" v="bay" />
		<tag k="ssr:stedsnr" v="549567" />
	</node>
	<node id="-595940" lat="59.743141669" lon="5.39318888321">
		<tag k="name" v="Ruvika" />
		<tag k="natural" v="bay" />
		<tag k="ssr:stedsnr" v="549554" />
	</node>
	<node id="-595936" lat="59.8770527803" lon="5.58156388282">
		<tag k="name" v="Kvarvaneset" />
		<tag k="natural" v="cape" />
		<tag k="ssr:stedsnr" v="549272" />
	</node>
	<node id="-595935" lat="59.8749611611" lon="5.5266531132">
		<tag k="name" v="Træet" />
		<tag k="natural" v="cape" />
		<tag k="ssr:stedsnr" v="549262" />
	</node>
	<node id="-595934" lat="59.7322916682" lon="5.39386111874">
		<tag k="name" v="Nautøytangen" />
		<tag k="natural" v="cape" />
		<tag k="ssr:stedsnr" v="548612" />
	</node>
	<node id="-595930" lat="59.8365444476" lon="5.62213055553">
		<tag k="name" v="Tveitøygrunnen" />
		<tag k="natural" v="shoal" />
		<tag k="place" v="locality" />
		<tag k="ssr:stedsnr" v="529631" />
	</node>
	<node id="-595929" lat="59.7960944406" lon="5.48049999169">
		<tag k="name" v="Klubben" />
		<tag k="natural" v="cape" />
		<tag k="ssr:stedsnr" v="523881" />
	</node>
	<node id="-595925" lat="59.784459306" lon="5.52669812042">
		<tag k="name" v="Husøysundet" />
		<tag k="natural" v="strait" />
		<tag k="ssr:stedsnr" v="523854" />
	</node>
	<node id="-595920" lat="59.8846361152" lon="5.52453333633">
		<tag k="name" v="Tausatøket" />
		<tag k="natural" v="cape" />
		<tag k="ssr:stedsnr" v="523252" />
	</node>
	<node id="-595919" lat="59.8487805596" lon="5.61082777028">
		<tag k="name" v="Oldervika" />
		<tag k="natural" v="bay" />
		<tag k="ssr:stedsnr" v="523242" />
	</node>
	<node id="-595918" lat="59.857544441" lon="5.61210278049">
		<tag k="name" v="Gamlastøa" />
		<tag k="natural" v="bay" />
		<tag k="ssr:stedsnr" v="523235" />
	</node>
	<node id="-595917" lat="59.7659261012" lon="5.42174113334">
		<tag k="name" v="Krokneset" />
		<tag k="natural" v="cape" />
		<tag k="ssr:stedsnr" v="523151" />
	</node>
	<node id="-595914" lat="59.7355111137" lon="5.39075555758">
		<tag k="name" v="Jensavika" />
		<tag k="natural" v="bay" />
		<tag k="ssr:stedsnr" v="523147" />
	</node>
	<node id="-595911" lat="59.8044277824" lon="5.33507500596">
		<tag k="name" v="Storaneset" />
		<tag k="natural" v="cape" />
		<tag k="ssr:stedsnr" v="523111" />
	</node>
	<node id="-595910" lat="59.7926916678" lon="5.36106667009">
		<tag k="name" v="Ingebersvika" />
		<tag k="natural" v="bay" />
		<tag k="ssr:stedsnr" v="523108" />
	</node>
	<node id="-595909" lat="59.8158194452" lon="5.58271388542">
		<tag k="name" v="Hardingekroken" />
		<tag k="natural" v="bay" />
		<tag k="ssr:stedsnr" v="523101" />
	</node>
	<node id="-595902" lat="59.8708527774" lon="5.56281388158">
		<tag k="name" v="Klungerholmane" />
		<tag k="place" v="islet" />
		<tag k="ssr:stedsnr" v="522784" />
	</node>
	<node id="-595901" lat="59.7485205546" lon="5.44330007984">
		<tag k="name" v="Vombaneset" />
		<tag k="natural" v="cape" />
		<tag k="ssr:stedsnr" v="522777" />
	</node>
	<node id="-595899" lat="59.88858889" lon="5.51911111357">
		<tag k="name" v="Klubbestranda" />
		<tag k="natural" v="cape" />
		<tag k="ssr:stedsnr" v="522251" />
	</node>
	<node id="-595894" lat="59.7531499991" lon="5.40327500512">
		<tag k="alt_name" v="Hillevik;Hillersvika" />
		<tag k="name" v="Hellevika" />
		<tag k="natural" v="bay" />
		<tag k="ssr:stedsnr" v="429555" />
	</node>
	<node id="-595892" lat="59.8348183637" lon="5.59827124848">
		<tag k="name" v="Tveitvågen" />
		<tag k="natural" v="bay" />
		<tag k="ssr:stedsnr" v="429301" />
	</node>
	<node id="-595890" lat="59.7418751986" lon="5.41985204985">
		<tag k="alt_name" v="Jonavikjo" />
		<tag k="name" v="Jonavika" />
		<tag k="natural" v="bay" />
		<tag k="ssr:stedsnr" v="428533" />
	</node>
	<node id="-595889" lat="59.7426916666" lon="5.4007694396">
		<tag k="alt_name" v="Steinholmane" />
		<tag k="name" v="Steinsholmen" />
		<tag k="place" v="islet" />
		<tag k="ssr:stedsnr" v="428531" />
	</node>
	<node id="-595888" lat="59.7623666645" lon="5.50445278258">
		<tag k="alt_name" v="Kjøtteigen" />
		<tag k="name" v="Kjøtteintåa" />
		<tag k="natural" v="cape" />
		<tag k="ssr:stedsnr" v="428394" />
	</node>
	<node id="-595881" lat="59.9119527744" lon="5.49885833702">
		<tag k="alt_name" v="Midhammarklubben" />
		<tag k="name" v="Mehammarklubben" />
		<tag k="natural" v="cape" />
		<tag k="ssr:stedsnr" v="402245" />
	</node>
	<node id="-595880" lat="59.8491361098" lon="5.61244721388">
		<tag k="name" v="Oldervikneset" />
		<tag k="natural" v="cape" />
		<tag k="ssr:stedsnr" v="402240" />
	</node>
	<node id="-595879" lat="59.8566166623" lon="5.61389999886">
		<tag k="name" v="Haukaneshavna" />
		<tag k="natural" v="bay" />
		<tag k="ssr:stedsnr" v="402232" />
	</node>
	<node id="-595878" lat="59.8196333318" lon="5.52783056079">
		<tag k="name" v="Kråkeholmen" />
		<tag k="place" v="islet" />
		<tag k="ssr:stedsnr" v="402179" />
	</node>
	<node id="-595876" lat="59.7360477843" lon="5.40120480774">
		<tag k="name" v="Risholmen" />
		<tag k="place" v="islet" />
		<tag k="ssr:stedsnr" v="402122" />
	</node>
	<node id="-595870" lat="59.8182750042" lon="5.57628055624">
		<tag k="fixme" v="consider seamark:type=rock or natural=shoal" />
		<tag k="name" v="Storaskjeret" />
		<tag k="place" v="islet" />
		<tag k="ssr:stedsnr" v="402077" />
	</node>
	<node id="-595848" lat="59.7710944414" lon="5.38185832863">
		<tag k="name" v="Søre Grunnavågsneset" />
		<tag k="natural" v="cape" />
		<tag k="ssr:stedsnr" v="401753" />
	</node>
	<node id="-595847" lat="59.7758277807" lon="5.38242221454">
		<tag k="name" v="Jensaneset" />
		<tag k="natural" v="cape" />
		<tag k="ssr:stedsnr" v="401750" />
	</node>
	<node id="-595843" lat="59.803783332" lon="5.3346305561">
		<tag k="name" v="Prestkoneneset" />
		<tag k="natural" v="cape" />
		<tag k="ssr:stedsnr" v="389201" />
	</node>
	<node id="-595842" lat="59.8666270507" lon="5.52784943487">
		<tag k="name" v="Naustvik" />
		<tag k="natural" v="bay" />
		<tag k="ssr:stedsnr" v="389150" />
	</node>
	<node id="-595838" lat="59.841996674" lon="5.59537287449">
		<tag k="name" v="Litla Brandvik" />
		<tag k="natural" v="bay" />
		<tag k="ssr:stedsnr" v="368346" />
	</node>
	<node id="-595837" lat="59.8437166663" lon="5.56285832519">
		<tag k="alt_name" v="Røssbøneset;Ryssbøneset" />
		<tag k="name" v="Rossbøneset" />
		<tag k="natural" v="cape" />
		<tag k="ssr:stedsnr" v="368304" />
	</node>
	<node id="-595836" lat="59.7375611071" lon="5.40109167535">
		<tag k="name" v="Nautøysundet" />
		<tag k="natural" v="strait" />
		<tag k="ssr:stedsnr" v="367582" />
	</node>
	<node id="-595835" lat="59.7374194438" lon="5.38251666029">
		<tag k="alt_name" v="Brumsholmen" />
		<tag k="name" v="Brunsholmen" />
		<tag k="place" v="islet" />
		<tag k="ssr:stedsnr" v="367579" />
	</node>
	<node id="-595834" lat="59.7388131834" lon="5.42443496914">
		<tag k="alt_name" v="Føynetongjen" />
		<tag k="name" v="Føynetangen" />
		<tag k="natural" v="cape" />
		<tag k="ssr:stedsnr" v="367572" />
	</node>
	<node id="-595825" lat="59.8392944474" lon="5.61937223072">
		<tag k="alt_name" v="Stora Tveitøy" />
		<tag k="name" v="Storøya" />
		<tag k="place" v="island" />
		<tag k="ssr:stedsnr" v="341240" />
	</node>
	<node id="-595824" lat="59.8354444416" lon="5.60137499268">
		<tag k="name" v="Raudaneset" />
		<tag k="natural" v="cape" />
		<tag k="ssr:stedsnr" v="341239" />
	</node>
	<node id="-595823" lat="59.8703166707" lon="5.6060777685">
		<tag k="name" v="Purkevika" />
		<tag k="natural" v="bay" />
		<tag k="ssr:stedsnr" v="341231" />
	</node>
	<node id="-595822" lat="59.8502444485" lon="5.53030832841">
		<tag k="name" v="Kvernavika" />
		<tag k="natural" v="bay" />
		<tag k="ssr:stedsnr" v="341211" />
	</node>
	<node id="-595821" lat="59.8477500013" lon="5.53313055092">
		<tag k="name" v="Våganeset" />
		<tag k="natural" v="cape" />
		<tag k="ssr:stedsnr" v="341207" />
	</node>
	<node id="-595815" lat="59.7412416298" lon="5.42056366616">
		<tag k="alt_name" v="Søravikjo" />
		<tag k="name" v="Søravika" />
		<tag k="natural" v="bay" />
		<tag k="ssr:stedsnr" v="341132" />
	</node>
	<node id="-595809" lat="59.8200444447" lon="5.59461666135">
		<tag k="name" v="Kuhindervika" />
		<tag k="natural" v="bay" />
		<tag k="ssr:stedsnr" v="341073" />
	</node>
	<node id="-595799" lat="59.8004027824" lon="5.53636667394">
		<tag k="fixme" v="consider seamark:type=rock or natural=shoal" />
		<tag k="name" v="Tysseskjeret" />
		<tag k="place" v="islet" />
		<tag k="ssr:stedsnr" v="340835" />
	</node>
	<node id="-595797" lat="59.7976527758" lon="5.53971111236">
		<tag k="name" v="Nordre Tyneset" />
		<tag k="natural" v="cape" />
		<tag k="ssr:stedsnr" v="340814" />
	</node>
	<node id="-595796" lat="59.7482083364" lon="5.43575278301">
		<tag k="name" v="Humpen" />
		<tag k="natural" v="cape" />
		<tag k="ssr:stedsnr" v="340788" />
	</node>
	<node id="-595791" lat="59.8634388872" lon="5.61218332924">
		<tag k="name" v="Midtnesflua" />
		<tag k="natural" v="shoal" />
		<tag k="place" v="locality" />
		<tag k="ssr:stedsnr" v="328855" />
	</node>
	<node id="-595788" lat="59.7722861116" lon="5.36954723066">
		<tag k="alt_name" v="Kappelholmen" />
		<tag k="name" v="Kapelholmen" />
		<tag k="place" v="islet" />
		<tag k="ssr:stedsnr" v="328169" />
	</node>
	<node id="-595787" lat="59.8718111147" lon="5.57177222995">
		<tag k="name" v="Salthella" />
		<tag k="natural" v="shoal" />
		<tag k="place" v="locality" />
		<tag k="ssr:stedsnr" v="328148" />
	</node>
	<node id="-595786" lat="59.7937555565" lon="5.33394166707">
		<tag k="name" v="Krabbavika" />
		<tag k="natural" v="bay" />
		<tag k="ssr:stedsnr" v="308548" />
	</node>
	<node id="-595785" lat="59.9239999962" lon="5.44958056241">
		<tag k="name" v="Stord" />
		<tag k="place" v="island" />
		<tag k="ssr:stedsnr" v="307988" />
	</node>
	<node id="-595784" lat="59.7618249981" lon="5.4131750046">
		<tag k="name" v="Valvatnavågen" />
		<tag k="natural" v="bay" />
		<tag k="ssr:stedsnr" v="307603" />
	</node>
	<node id="-595782" lat="59.8043361139" lon="5.3384361043">
		<tag k="alt_name" v="Prestekonevika, nordre" />
		<tag k="name" v="Nordre Prestekonevika" />
		<tag k="natural" v="bay" />
		<tag k="ssr:stedsnr" v="307564" />
	</node>
	<node id="-595781" lat="59.8097269232" lon="5.34151761873">
		<tag k="alt_name" v="Nordre Straumen" />
		<tag k="name" v="Straumen" />
		<tag k="natural" v="strait" />
		<tag k="ssr:stedsnr" v="307556" />
	</node>
	<node id="-595777" lat="59.7831166658" lon="5.52574166533">
		<tag k="fixme" v="multiple name tags, choose one and add the other to alt_name" />
		<tag k="name" v="Husøy;Hysstadøyane" />
		<tag k="place" v="island" />
		<tag k="ssr:stedsnr" v="307375" />
	</node>
	<node id="-595776" lat="59.8174694491" lon="5.58028611864">
		<tag k="alt_name" v="Grønavik" />
		<tag k="name" v="Grønevika" />
		<tag k="natural" v="bay" />
		<tag k="ssr:stedsnr" v="307371" />
	</node>
	<node id="-595773" lat="59.7488083369" lon="5.4364805627">
		<tag k="name" v="Neset" />
		<tag k="natural" v="cape" />
		<tag k="ssr:stedsnr" v="306549" />
	</node>
	<node id="-595772" lat="59.7788166706" lon="5.38821388371">
		<tag k="alt_name" v="Tømbervika" />
		<tag k="name" v="Tymbervik" />
		<tag k="natural" v="bay" />
		<tag k="ssr:stedsnr" v="207831" />
	</node>
	<node id="-595771" lat="59.7510611089" lon="5.48900000727">
		<tag k="name" v="Sørøy" />
		<tag k="natural" v="cape" />
		<tag k="ssr:stedsnr" v="207629" />
	</node>
	<node id="-595770" lat="59.8445944407" lon="5.6038305639">
		<tag k="name" v="Brandvikneset" />
		<tag k="natural" v="cape" />
		<tag k="ssr:stedsnr" v="207149" />
	</node>
	<node id="-595763" lat="59.7511277811" lon="5.4029750037">
		<tag k="fixme" v="multiple name tags, choose one and add the other to alt_name" />
		<tag k="name" v="Digernesklubben;Klubben" />
		<tag k="natural" v="cape" />
		<tag k="ssr:stedsnr" v="186627" />
	</node>
	<node id="-595755" lat="59.8663499958" lon="5.56572221376">
		<tag k="alt_name" v="Huglavik" />
		<tag k="name" v="Huglavika" />
		<tag k="natural" v="bay" />
		<tag k="ssr:stedsnr" v="186313" />
	</node>
	<node id="-595753" lat="59.8492985446" lon="5.53156342983">
		<tag k="name" v="Limbuvika" />
		<tag k="natural" v="bay" />
		<tag k="ssr:stedsnr" v="186295" />
	</node>
	<node id="-595750" lat="59.749388472" lon="5.43298048534">
		<tag k="alt_name" v="Tømbervika" />
		<tag k="name" v="Timbervik" />
		<tag k="natural" v="bay" />
		<tag k="ssr:stedsnr" v="185525" />
	</node>
	<node id="-595749" lat="59.7453249987" lon="5.42240833949">
		<tag k="name" v="Digernessundet" />
		<tag k="natural" v="strait" />
		<tag k="ssr:stedsnr" v="185521" />
	</node>
	<node id="-595744" lat="59.7429892472" lon="5.40503061768">
		<tag k="name" v="Bukkaneset" />
		<tag k="natural" v="cape" />
		<tag k="ssr:stedsnr" v="159142" />
	</node>
	<node id="-595739" lat="59.8420222253" lon="5.60330277704">
		<tag k="name" v="Brandvikeholmen" />
		<tag k="place" v="islet" />
		<tag k="ssr:stedsnr" v="159242" />
	</node>
	<node id="-595735" lat="59.8208500005" lon="5.52456666708">
		<tag k="name" v="Kyvikøyra" />
		<tag k="natural" v="cape" />
		<tag k="ssr:stedsnr" v="159186" />
	</node>
	<node id="-595729" lat="59.7486333347" lon="5.45213889437">
		<tag k="alt_name" v="Vågen;Hornelandsvågen" />
		<tag k="name" v="Hornalandsvågen" />
		<tag k="natural" v="bay" />
		<tag k="ssr:stedsnr" v="147396" />
	</node>
	<node id="-595727" lat="59.7522610564" lon="5.47572678272">
		<tag k="alt_name" v="Krenkjelsneset" />
		<tag k="name" v="Krenkelsneset" />
		<tag k="natural" v="cape" />
		<tag k="ssr:stedsnr" v="146633" />
	</node>
	<node id="-595721" lat="59.7663694418" lon="5.39306666395">
		<tag k="name" v="Sætravika" />
		<tag k="natural" v="bay" />
		<tag k="ssr:stedsnr" v="125592" />
	</node>
	<node id="-595720" lat="59.8243055586" lon="5.57321389239">
		<tag k="alt_name" v="Korsnes;Krossnes" />
		<tag k="name" v="Korsneset" />
		<tag k="natural" v="cape" />
		<tag k="ssr:stedsnr" v="125348" />
	</node>
	<node id="-595718" lat="59.8266416711" lon="5.52804167247">
		<tag k="alt_name" v="Fuglavik" />
		<tag k="name" v="Fuglevika" />
		<tag k="natural" v="bay" />
		<tag k="ssr:stedsnr" v="125345" />
	</node>
	<node id="-595715" lat="59.8644081265" lon="5.60814153305">
		<tag k="name" v="Midtneset" />
		<tag k="natural" v="cape" />
		<tag k="ssr:stedsnr" v="125321" />
	</node>
	<node id="-595714" lat="59.8679194457" lon="5.56082223011">
		<tag k="name" v="Huglaneset" />
		<tag k="natural" v="cape" />
		<tag k="ssr:stedsnr" v="125320" />
	</node>
	<node id="-595713" lat="59.8575194458" lon="5.55939721921">
		<tag k="name" v="Leira" />
		<tag k="natural" v="bay" />
		<tag k="ssr:stedsnr" v="125315" />
	</node>
	<node id="-595712" lat="59.8588583364" lon="5.61130833394">
		<tag k="name" v="Haukanes" />
		<tag k="natural" v="cape" />
		<tag k="ssr:stedsnr" v="125314" />
	</node>
	<node id="-595708" lat="59.7357222204" lon="5.39172777297">
		<tag k="name" v="Venjavika" />
		<tag k="natural" v="bay" />
		<tag k="ssr:stedsnr" v="124549" />
	</node>
	<node id="-595707" lat="59.7411972252" lon="5.3950361095">
		<tag k="name" v="Kobbavika" />
		<tag k="natural" v="bay" />
		<tag k="ssr:stedsnr" v="124520" />
	</node>
	<node id="-595703" lat="59.8562638884" lon="5.6214722248">
		<tag k="name" v="Brandviknesflua" />
		<tag k="place" v="locality" />
		<tag k="seamark:type" v="rock" />
		<tag k="ssr:stedsnr" v="105653" />
	</node>
	<node id="-595701" lat="59.8431777734" lon="5.60237777227">
		<tag k="name" v="Sandvika" />
		<tag k="natural" v="bay" />
		<tag k="ssr:stedsnr" v="99239" />
	</node>
	<node id="-595700" lat="59.8337472206" lon="5.60093611684">
		<tag k="name" v="Brakaholmen" />
		<tag k="place" v="islet" />
		<tag k="ssr:stedsnr" v="99234" />
	</node>
	<node id="-595696" lat="59.8390611141" lon="5.56811665929">
		<tag k="name" v="Djupevika" />
		<tag k="natural" v="bay" />
		<tag k="ssr:stedsnr" v="99198" />
	</node>
	<node id="-595695" lat="59.7558171715" lon="5.47883568171">
		<tag k="name" v="Sveneset" />
		<tag k="natural" v="cape" />
		<tag k="ssr:stedsnr" v="98788" />
	</node>
	<node id="-595692" lat="59.7751249964" lon="5.42701111321">
		<tag k="name" v="Oksnabergvika" />
		<tag k="natural" v="bay" />
		<tag k="ssr:stedsnr" v="98777" />
	</node>
	<node id="-595685" lat="59.7506555568" lon="5.40171388566">
		<tag k="name" v="Digernes" />
		<tag k="natural" v="cape" />
		<tag k="ssr:stedsnr" v="98134" />
	</node>
	<node id="-595684" lat="59.7436784616" lon="5.40701903453">
		<tag k="name" v="Litle Lonkjølsholmen" />
		<tag k="place" v="islet" />
		<tag k="ssr:stedsnr" v="98133" />
	</node>
	<node id="-595683" lat="59.7385611116" lon="5.38494999849">
		<tag k="name" v="Brumsholmtangane" />
		<tag k="natural" v="cape" />
		<tag k="ssr:stedsnr" v="98130" />
	</node>
	<node id="-595681" lat="59.8657388898" lon="5.52840555996">
		<tag k="fixme" v="consider seamark:type=rock or natural=shoal" />
		<tag k="name" v="Kråkeskjeret" />
		<tag k="place" v="islet" />
		<tag k="ssr:stedsnr" v="98051" />
	</node>
	<node id="-595677" lat="59.7704444417" lon="5.37935278128">
		<tag k="name" v="Grunnevågflua" />
		<tag k="natural" v="shoal" />
		<tag k="place" v="locality" />
		<tag k="ssr:stedsnr" v="86834" />
	</node>
	<node id="-595676" lat="59.7757138889" lon="5.36509167384">
		<tag k="name" v="Djupavik" />
		<tag k="natural" v="bay" />
		<tag k="ssr:stedsnr" v="86189" />
	</node>
	<node id="-595675" lat="59.7882749987" lon="5.54162777948">
		<tag k="name" v="Valøyodden" />
		<tag k="natural" v="cape" />
		<tag k="ssr:stedsnr" v="86173" />
	</node>
	<node id="-595674" lat="59.7591305601" lon="5.40410833514">
		<tag k="alt_name" v="Saugavik" />
		<tag k="name" v="Sauavika" />
		<tag k="natural" v="bay" />
		<tag k="ssr:stedsnr" v="65574" />
	</node>
	<node id="-595672" lat="59.7885232521" lon="5.5342219518">
		<tag k="alt_name" v="Vålevågen;Valvågen" />
		<tag k="name" v="Valevågen" />
		<tag k="natural" v="bay" />
		<tag k="ssr:stedsnr" v="65376" />
	</node>
	<node id="-595668" lat="59.7772444462" lon="5.37151667211">
		<tag k="name" v="Vikanes" />
		<tag k="natural" v="cape" />
		<tag k="ssr:stedsnr" v="64580" />
	</node>
	<node id="-595667" lat="59.7888583335" lon="5.33653055686">
		<tag k="name" v="Apalevika" />
		<tag k="natural" v="bay" />
		<tag k="ssr:stedsnr" v="64522" />
	</node>
	<node id="-595664" lat="59.8714935791" lon="5.56118548247">
		<tag k="name" v="Rubbholmen" />
		<tag k="place" v="islet" />
		<tag k="ssr:stedsnr" v="64259" />
	</node>
	<node id="-595663" lat="59.7394638857" lon="5.38888610521">
		<tag k="name" v="Breidavika" />
		<tag k="natural" v="bay" />
		<tag k="ssr:stedsnr" v="63594" />
	</node>
	<node id="-595660" lat="59.8712083329" lon="5.5693083261">
		<tag k="name" v="Salthella" />
		<tag k="natural" v="cape" />
		<tag k="ssr:stedsnr" v="38846" />
	</node>
	<node id="-595657" lat="59.7380111084" lon="5.4041305554">
		<tag k="name" v="Tingvika" />
		<tag k="natural" v="bay" />
		<tag k="ssr:stedsnr" v="38141" />
	</node>
	<node id="-595654" lat="59.8613638852" lon="5.52761667304">
		<tag k="name" v="Hanavika" />
		<tag k="natural" v="bay" />
		<tag k="ssr:stedsnr" v="38041" />
	</node>
	<node id="-595650" lat="59.797872222" lon="5.35639721522">
		<tag k="name" v="Kviteklubben" />
		<tag k="natural" v="cape" />
		<tag k="ssr:stedsnr" v="38086" />
	</node>
	<node id="-595649" lat="59.8153750014" lon="5.58872777124">
		<tag k="fixme" v="consider seamark:type=rock or natural=shoal" />
		<tag k="name" v="Bukkaskjeret" />
		<tag k="place" v="islet" />
		<tag k="ssr:stedsnr" v="38081" />
	</node>
	<node id="-595648" lat="59.7856305555" lon="5.33658611299">
		<tag k="name" v="Seiavika" />
		<tag k="natural" v="bay" />
		<tag k="ssr:stedsnr" v="38069" />
	</node>
	<node id="-595643" lat="59.7916194434" lon="5.47480833525">
		<tag k="name" v="Stuvvika" />
		<tag k="natural" v="bay" />
		<tag k="ssr:stedsnr" v="37889" />
	</node>
	<node id="-595642" lat="59.7676555529" lon="5.38187499568">
		<tag k="name" v="Bleikjevika" />
		<tag k="natural" v="bay" />
		<tag k="ssr:stedsnr" v="37784" />
	</node>
	<node id="-595641" lat="59.8943138908" lon="5.51601945044">
		<tag k="name" v="Sandekerneset" />
		<tag k="natural" v="cape" />
		<tag k="ssr:stedsnr" v="37235" />
	</node>
	<node id="-595640" lat="59.8880611099" lon="5.51938889289">
		<tag k="name" v="Jektavik" />
		<tag k="natural" v="bay" />
		<tag k="ssr:stedsnr" v="34684" />
	</node>
	<node id="-595637" lat="59.771913887" lon="5.38240278346">
		<tag k="name" v="Grunnevågen" />
		<tag k="natural" v="bay" />
		<tag k="ssr:stedsnr" v="25838" />
	</node>
	<node id="-595636" lat="59.742052778" lon="5.38428055214">
		<tag k="name" v="Avløypet" />
		<tag k="place" v="islet" />
		<tag k="ssr:stedsnr" v="25677" />
	</node>
	<node id="-595635" lat="59.7479416636" lon="5.46754722149">
		<tag k="name" v="Skjersholmane" />
		<tag k="place" v="islet" />
		<tag k="ssr:stedsnr" v="25661" />
	</node>
	<node id="-595634" lat="59.782761107" lon="5.36764166083">
		<tag k="name" v="Nordvik" />
		<tag k="natural" v="bay" />
		<tag k="ssr:stedsnr" v="25172" />
	</node>
	<node id="-595632" lat="59.8838861101" lon="5.52469722489">
		<tag k="name" v="Steinneset" />
		<tag k="natural" v="cape" />
		<tag k="ssr:stedsnr" v="25151" />
	</node>
	<node id="-595630" lat="59.871991671" lon="5.5289250004">
		<tag k="alt_name" v="Træsneset" />
		<tag k="name" v="Træneset" />
		<tag k="natural" v="cape" />
		<tag k="ssr:stedsnr" v="25146" />
	</node>
	<node id="-595622" lat="59.7892641388" lon="5.52093831132">
		<tag k="alt_name" v="Hystadvika" />
		<tag k="name" v="Hysstadvika" />
		<tag k="natural" v="bay" />
		<tag k="ssr:stedsnr" v="4390" />
	</node>
	<node id="-595617" lat="59.7346583293" lon="5.39656111639">
		<tag k="name" v="Nautøybogen" />
		<tag k="natural" v="bay" />
		<tag k="ssr:stedsnr" v="3575" />
	</node>
	<node id="-595616" lat="59.7431388887" lon="5.38323610289">
		<tag k="name" v="Seiavikklubben" />
		<tag k="natural" v="cape" />
		<tag k="ssr:stedsnr" v="3541" />
	</node>
	<node id="-595615" lat="59.7433555549" lon="5.38497499842">
		<tag k="name" v="Seiavika" />
		<tag k="natural" v="bay" />
		<tag k="ssr:stedsnr" v="3540" />
	</node>
	<node id="-595614" lat="59.7476972218" lon="5.38927778648">
		<tag k="name" v="Ramsholmen" />
		<tag k="place" v="islet" />
		<tag k="ssr:stedsnr" v="3530" />
	</node>
	<node id="-595604" lat="59.8722499975" lon="5.56691944488">
		<tag k="name" v="Midtflua" />
		<tag k="natural" v="shoal" />
		<tag k="place" v="locality" />
		<tag k="ssr:stedsnr" v="948868" />
	</node>
	<node id="-595601" lat="59.8403222214" lon="5.53437222032">
		<tag k="name" v="Gjelhammaren" />
		<tag k="natural" v="cape" />
		<tag k="ssr:stedsnr" v="948213" />
	</node>
	<node id="-595600" lat="59.8466027797" lon="5.53384445184">
		<tag k="name" v="Litleholmen" />
		<tag k="place" v="islet" />
		<tag k="ssr:stedsnr" v="948211" />
	</node>
	<node id="-595599" lat="59.8380027818" lon="5.56882777482">
		<tag k="name" v="Klubben" />
		<tag k="natural" v="cape" />
		<tag k="ssr:stedsnr" v="948204" />
	</node>
	<node id="-595590" lat="59.7632444469" lon="5.39329999197">
		<tag k="name" v="Slåttevikneset" />
		<tag k="natural" v="cape" />
		<tag k="ssr:stedsnr" v="948162" />
	</node>
	<node id="-595589" lat="59.7611611085" lon="5.39858888296">
		<tag k="name" v="Otratangen" />
		<tag k="natural" v="cape" />
		<tag k="ssr:stedsnr" v="948161" />
	</node>
	<node id="-595588" lat="59.7974194429" lon="5.35047500747">
		<tag k="name" v="Følavika" />
		<tag k="natural" v="bay" />
		<tag k="ssr:stedsnr" v="948108" />
	</node>
	<node id="-595578" lat="59.7771777799" lon="5.43414722942">
		<tag k="name" v="Vedavika" />
		<tag k="natural" v="bay" />
		<tag k="ssr:stedsnr" v="887756" />
	</node>
	<node id="-595577" lat="59.866472222" lon="5.52768055541">
		<tag k="name" v="Agdesteinsvika" />
		<tag k="natural" v="bay" />
		<tag k="ssr:stedsnr" v="887057" />
	</node>
	<node id="-595567" lat="59.7988055513" lon="5.33149166288">
		<tag k="name" v="Litlaneset" />
		<tag k="natural" v="cape" />
		<tag k="ssr:stedsnr" v="887112" />
	</node>
	<node id="-595566" lat="59.7960916691" lon="5.36049721914">
		<tag k="name" v="Pilavika" />
		<tag k="natural" v="bay" />
		<tag k="ssr:stedsnr" v="887107" />
	</node>
	<node id="-595565" lat="59.7326250002" lon="5.43126388802">
		<tag k="name" v="Klasen" />
		<tag k="place" v="islet" />
		<tag k="ssr:stedsnr" v="875654" />
	</node>
	<node id="-595564" lat="59.8897527751" lon="5.51880833073">
		<tag k="name" v="Klubben" />
		<tag k="natural" v="cape" />
		<tag k="ssr:stedsnr" v="875272" />
	</node>
	<node id="-595563" lat="59.9051694447" lon="5.50595556209">
		<tag k="name" v="Såta" />
		<tag k="natural" v="cape" />
		<tag k="ssr:stedsnr" v="875271" />
	</node>
	<node id="-595561" lat="59.7863867866" lon="5.53844259655">
		<tag k="name" v="Valesundet" />
		<tag k="natural" v="strait" />
		<tag k="ssr:stedsnr" v="948896" />
	</node>
	<node id="-595556" lat="59.7857501106" lon="5.36071392619">
		<tag k="name" v="Kjerringetona" />
		<tag k="natural" v="cape" />
		<tag k="ssr:stedsnr" v="948098" />
	</node>
	<node id="-595555" lat="59.7866556302" lon="5.35744513759">
		<tag k="name" v="Fredriksstranda" />
		<tag k="natural" v="beach" />
		<tag k="place" v="locality" />
		<tag k="ssr:stedsnr" v="948097" />
	</node>
	<node id="-595541" lat="59.8717190416" lon="5.57398207107">
		<tag k="name" v="Storsteinsneset" />
		<tag k="natural" v="cape" />
		<tag k="ssr:stedsnr" v="947788" />
	</node>
	<node id="-595533" lat="59.836083329" lon="5.60283889138">
		<tag k="name" v="Tveitneset" />
		<tag k="natural" v="cape" />
		<tag k="ssr:stedsnr" v="854303" />
	</node>
	<node id="-595532" lat="59.7556111127" lon="5.4877555609">
		<tag k="name" v="Eldøyane" />
		<tag k="natural" v="cape" />
		<tag k="ssr:stedsnr" v="853409" />
	</node>
	<node id="-595529" lat="59.7427689742" lon="5.40764997873">
		<tag k="alt_name" v="Lonkjølsvikjo" />
		<tag k="name" v="Kjølsvika" />
		<tag k="natural" v="bay" />
		<tag k="ssr:stedsnr" v="852569" />
	</node>
	<node id="-595528" lat="59.8470055569" lon="5.61446110774">
		<tag k="name" v="Oldervikflua" />
		<tag k="place" v="locality" />
		<tag k="seamark:type" v="rock" />
		<tag k="ssr:stedsnr" v="833662" />
	</node>
	<node id="-595527" lat="59.7826527768" lon="5.54322778152">
		<tag k="fixme" v="consider seamark:type=rock or natural=shoal" />
		<tag k="name" v="Lyrskjer" />
		<tag k="place" v="islet" />
		<tag k="ssr:stedsnr" v="936152" />
	</node>
	<node id="-595526" lat="59.7501416711" lon="5.4163749967">
		<tag k="alt_name" v="Skjerjavika" />
		<tag k="name" v="Skjerjavik" />
		<tag k="natural" v="bay" />
		<tag k="ssr:stedsnr" v="935657" />
	</node>
	<node id="-595525" lat="59.8088694456" lon="5.34263611222">
		<tag k="name" v="Sjøbuholmen" />
		<tag k="place" v="islet" />
		<tag k="ssr:stedsnr" v="935439" />
	</node>
	<node id="-595524" lat="59.7813638934" lon="5.34454444862">
		<tag k="name" v="Stokknebba" />
		<tag k="natural" v="cape" />
		<tag k="ssr:stedsnr" v="935181" />
	</node>
	<node id="-595514" lat="59.8252250031" lon="5.35202777955">
		<tag k="alt_name" v="Nordre Dåfjorden" />
		<tag k="bay" v="fjord" />
		<tag k="name" v="Dåfjorden" />
		<tag k="natural" v="bay" />
		<tag k="ssr:stedsnr" v="914951" />
	</node>
	<node id="-595510" lat="59.7733888932" lon="5.38257499517">
		<tag k="alt_name" v="Sagvåg" />
		<tag k="name" v="Sagvågen" />
		<tag k="natural" v="bay" />
		<tag k="ssr:stedsnr" v="914629" />
	</node>
	<node id="-595503" lat="59.8469111148" lon="5.60595000432">
		<tag k="name" v="Buneset" />
		<tag k="natural" v="cape" />
		<tag k="ssr:stedsnr" v="914580" />
	</node>
	<node id="-595501" lat="59.7957027792" lon="5.54087500449">
		<tag k="alt_name" v="Søre Tyneset" />
		<tag k="name" v="Tyneset" />
		<tag k="natural" v="cape" />
		<tag k="ssr:stedsnr" v="914395" />
	</node>
	<node id="-595499" lat="59.80232222" lon="5.53970555973">
		<tag k="name" v="Hovaneset" />
		<tag k="natural" v="cape" />
		<tag k="ssr:stedsnr" v="914349" />
	</node>
	<node id="-595497" lat="59.8564138923" lon="5.61857777068">
		<tag k="name" v="Brandvikneset" />
		<tag k="natural" v="cape" />
		<tag k="ssr:stedsnr" v="914307" />
	</node>
	<node id="-595495" lat="59.8790166704" lon="5.66787777457">
		<tag k="bay" v="fjord" />
		<tag k="name" v="Husnesfjorden" />
		<tag k="natural" v="bay" />
		<tag k="ssr:stedsnr" v="914275" />
	</node>
	<node id="-595493" lat="59.7389305596" lon="5.39945277333">
		<tag k="name" v="Sømingjo" />
		<tag k="natural" v="cape" />
		<tag k="ssr:stedsnr" v="766118" />
	</node>
	<node id="-595488" lat="59.7941555592" lon="5.35095277296">
		<tag k="name" v="Vedavika" />
		<tag k="natural" v="bay" />
		<tag k="ssr:stedsnr" v="766073" />
	</node>
	<node id="-595484" lat="59.7795249986" lon="5.50758054679">
		<tag k="name" v="Teinevika" />
		<tag k="natural" v="bay" />
		<tag k="ssr:stedsnr" v="765834" />
	</node>
	<node id="-595481" lat="59.875236107" lon="5.5248138834">
		<tag k="name" v="Garpahylla" />
		<tag k="natural" v="cape" />
		<tag k="ssr:stedsnr" v="753125" />
	</node>
	<node id="-595480" lat="59.8401194469" lon="5.53367499588">
		<tag k="name" v="Gilhamaren" />
		<tag k="natural" v="cape" />
		<tag k="ssr:stedsnr" v="753120" />
	</node>
	<node id="-595479" lat="59.7507786632" lon="5.46489892881">
		<tag k="name" v="Alnavågen" />
		<tag k="natural" v="bay" />
		<tag k="ssr:stedsnr" v="732621" />
	</node>
	<node id="-595476" lat="59.8336138891" lon="5.61644722245">
		<tag k="name" v="Fureholmgrunnen" />
		<tag k="natural" v="shoal" />
		<tag k="place" v="locality" />
		<tag k="ssr:stedsnr" v="894673" />
	</node>
	<node id="-595475" lat="59.7795472225" lon="5.50290554868">
		<tag k="name" v="Evjo" />
		<tag k="natural" v="bay" />
		<tag k="ssr:stedsnr" v="693203" />
	</node>
	<node id="-595470" lat="59.9102444425" lon="5.50033611011">
		<tag k="name" v="Klubbavika" />
		<tag k="natural" v="bay" />
		<tag k="ssr:stedsnr" v="888202" />
	</node>
	<node id="-595469" lat="59.9157388848" lon="5.48814166137">
		<tag k="name" v="Litlavika" />
		<tag k="natural" v="bay" />
		<tag k="ssr:stedsnr" v="888199" />
	</node>
	<node id="-595468" lat="59.8297750011" lon="5.52997222232">
		<tag k="name" v="Høybyvika" />
		<tag k="natural" v="bay" />
		<tag k="ssr:stedsnr" v="888136" />
	</node>
	<node id="-595461" lat="59.7577194412" lon="5.52916389757">
		<tag k="bay" v="fjord" />
		<tag k="name" v="Halsnøyfjorden" />
		<tag k="natural" v="bay" />
		<tag k="ssr:stedsnr" v="887828" />
	</node>
	<node id="-595459" lat="59.7414861152" lon="5.42074444641">
		<tag k="name" v="Sjøbuneset" />
		<tag k="natural" v="cape" />
		<tag k="ssr:stedsnr" v="887151" />
	</node>
	<node id="-595458" lat="59.7337416645" lon="5.40851667254">
		<tag k="name" v="Grønaneset" />
		<tag k="natural" v="cape" />
		<tag k="ssr:stedsnr" v="887150" />
	</node>
	<node id="-595456" lat="59.7400333357" lon="5.39591111942">
		<tag k="name" v="Furuvika" />
		<tag k="natural" v="bay" />
		<tag k="ssr:stedsnr" v="887142" />
	</node>
	<node id="-595452" lat="59.8149722242" lon="5.34916111079">
		<tag k="name" v="Veravika" />
		<tag k="natural" v="bay" />
		<tag k="ssr:stedsnr" v="887089" />
	</node>
	<node id="-595449" lat="59.8157111087" lon="5.58664166654">
		<tag k="name" v="Bruskjer" />
		<tag k="natural" v="cape" />
		<tag k="ssr:stedsnr" v="671357" />
	</node>
	<node id="-595435" lat="59.8563666665" lon="5.5541194468">
		<tag k="alt_name" v="Håmannaneset;Hommandeneset" />
		<tag k="name" v="Homannaneset" />
		<tag k="natural" v="cape" />
		<tag k="ssr:stedsnr" v="732305" />
	</node>
	<node id="-595432" lat="59.8728916651" lon="5.56091666734">
		<tag k="name" v="Storholmen" />
		<tag k="place" v="islet" />
		<tag k="ssr:stedsnr" v="732279" />
	</node>
	<node id="-595429" lat="59.7727611097" lon="5.38541111391">
		<tag k="alt_name" v="Nordre Grunnavågsneset" />
		<tag k="name" v="Grunnevågneset" />
		<tag k="natural" v="cape" />
		<tag k="ssr:stedsnr" v="631854" />
	</node>
	<node id="-595428" lat="59.7742750016" lon="5.38815277478">
		<tag k="name" v="Pollen" />
		<tag k="natural" v="bay" />
		<tag k="ssr:stedsnr" v="631853" />
	</node>
	<node id="-595426" lat="59.7386527813" lon="5.41016111847">
		<tag k="name" v="Føyno" />
		<tag k="place" v="island" />
		<tag k="ssr:stedsnr" v="610608" />
	</node>
	<node id="-595425" lat="59.8365388923" lon="5.57263334006">
		<tag k="alt_name" v="Leira" />
		<tag k="name" v="Leirvika" />
		<tag k="natural" v="bay" />
		<tag k="ssr:stedsnr" v="610377" />
	</node>
	<node id="-595423" lat="59.8283861072" lon="5.57227500141">
		<tag k="name" v="Kumleneset" />
		<tag k="natural" v="cape" />
		<tag k="ssr:stedsnr" v="610362" />
	</node>
	<node id="-595422" lat="59.7907805563" lon="5.35032222578">
		<tag k="name" v="Sørstokken" />
		<tag k="natural" v="cape" />
		<tag k="ssr:stedsnr" v="610551" />
	</node>
	<node id="-595418" lat="59.8753583373" lon="5.52550276891">
		<tag k="name" v="Garpahytta" />
		<tag k="natural" v="bay" />
		<tag k="ssr:stedsnr" v="584252" />
	</node>
	<node id="-595414" lat="59.7714194433" lon="5.5124472226">
		<tag k="name" v="Gullbergstranda" />
		<tag k="natural" v="cape" />
		<tag k="ssr:stedsnr" v="583852" />
	</node>
	<node id="-595410" lat="59.7778027796" lon="5.34967777788">
		<tag k="name" v="Stokknebben" />
		<tag k="natural" v="cape" />
		<tag k="ssr:stedsnr" v="583084" />
	</node>
	<node id="-595399" lat="59.8914555543" lon="5.51749444068">
		<tag k="name" v="Nothusneset" />
		<tag k="natural" v="cape" />
		<tag k="ssr:stedsnr" v="705272" />
	</node>
	<node id="-595398" lat="59.777508331" lon="5.34806666452">
		<tag k="alt_name" v="Bleikjo" />
		<tag k="name" v="Bleikja" />
		<tag k="place" v="island" />
		<tag k="ssr:stedsnr" v="705249" />
	</node>
	<node id="-595397" lat="59.8723825264" lon="5.60049563165">
		<tag k="name" v="Horningekroken" />
		<tag k="natural" v="bay" />
		<tag k="ssr:stedsnr" v="705242" />
	</node>
	<node id="-595393" lat="59.8495666645" lon="5.53181944186">
		<tag k="name" v="Kvernaneset" />
		<tag k="natural" v="cape" />
		<tag k="ssr:stedsnr" v="705218" />
	</node>
	<node id="-595388" lat="59.8255416674" lon="5.52838055887">
		<tag k="name" v="Haugavika" />
		<tag k="natural" v="bay" />
		<tag k="ssr:stedsnr" v="705198" />
	</node>
	<node id="-595383" lat="59.8024611075" lon="5.34824999401">
		<tag k="name" v="Kuavika" />
		<tag k="natural" v="bay" />
		<tag k="ssr:stedsnr" v="705110" />
	</node>
	<node id="-595378" lat="59.8723555539" lon="5.5289083396">
		<tag k="name" v="Træsvika" />
		<tag k="natural" v="bay" />
		<tag k="ssr:stedsnr" v="705060" />
	</node>
	<node id="-595376" lat="59.7831222218" lon="5.40862777915">
		<tag k="name" v="Åkervika" />
		<tag k="natural" v="bay" />
		<tag k="ssr:stedsnr" v="705044" />
	</node>
	<node id="-595374" lat="59.7672194457" lon="5.50066667359">
		<tag k="name" v="Naustvågen" />
		<tag k="natural" v="bay" />
		<tag k="ssr:stedsnr" v="692626" />
	</node>
	<node id="-595369" lat="59.7492805526" lon="5.42354721484">
		<tag k="name" v="Avløypet" />
		<tag k="natural" v="cape" />
		<tag k="ssr:stedsnr" v="523152" />
	</node>
	<node id="-595365" lat="59.8401111076" lon="5.61648054789">
		<tag k="name" v="Tveitøyane" />
		<tag k="place" v="islet" />
		<tag k="ssr:stedsnr" v="489340" />
	</node>
	<node id="-595364" lat="59.8660620863" lon="5.52787866692">
		<tag k="name" v="Agdestein" />
		<tag k="natural" v="cape" />
		<tag k="ssr:stedsnr" v="489324" />
	</node>
	<node id="-595362" lat="59.7801666635" lon="5.34433056286">
		<tag k="name" v="Beinavika" />
		<tag k="natural" v="bay" />
		<tag k="ssr:stedsnr" v="671587" />
	</node>
	<node id="-595361" lat="59.8013055529" lon="5.35746388714">
		<tag k="name" v="Sandpollen" />
		<tag k="natural" v="bay" />
		<tag k="ssr:stedsnr" v="671546" />
	</node>
	<node id="-595359" lat="59.7638638853" lon="5.49725833304">
		<tag k="alt_name" v="Killingvik;Killingvika" />
		<tag k="name" v="Kjøtteinen" />
		<tag k="natural" v="bay" />
		<tag k="ssr:stedsnr" v="671419" />
	</node>
	<node id="-595349" lat="59.7404388913" lon="5.38281389368">
		<tag k="alt_name" v="Slottholmen" />
		<tag k="name" v="Slåtteholmen" />
		<tag k="place" v="islet" />
		<tag k="ssr:stedsnr" v="670553" />
	</node>
	<node id="-595348" lat="59.7467110107" lon="5.45923574143">
		<tag k="name" v="Hornalandsneset" />
		<tag k="natural" v="cape" />
		<tag k="ssr:stedsnr" v="670551" />
	</node>
	<node id="-595344" lat="59.8823333314" lon="5.52407221792">
		<tag k="alt_name" v="Klokkahola" />
		<tag k="name" v="Klokkeholet" />
		<tag k="natural" v="bay" />
		<tag k="ssr:stedsnr" v="450131" />
	</node>
	<node id="-595343" lat="59.8764444487" lon="5.55236389176">
		<tag k="alt_name" v="Fjereflu" />
		<tag k="name" v="Fjæreflu" />
		<tag k="natural" v="shoal" />
		<tag k="place" v="locality" />
		<tag k="ssr:stedsnr" v="450129" />
	</node>
	<node id="-595341" lat="59.7990361069" lon="5.33377499216">
		<tag k="alt_name" v="Prestekonevika, s" />
		<tag k="name" v="Søre Prestekonevika" />
		<tag k="natural" v="bay" />
		<tag k="ssr:stedsnr" v="429525" />
	</node>
	<node id="-595335" lat="59.75755556" lon="5.36795833672">
		<tag k="name" v="Sagvågsfjorden" />
		<tag k="natural" v="strait" />
		<tag k="ssr:stedsnr" v="511377" />
	</node>
	<node id="-595333" lat="59.7732388854" lon="5.37824723037">
		<tag k="name" v="Tjøregrovneset" />
		<tag k="natural" v="cape" />
		<tag k="ssr:stedsnr" v="510870" />
	</node>
	<node id="-595332" lat="59.8022888889" lon="5.35546945116">
		<tag k="name" v="Meiavik" />
		<tag k="natural" v="bay" />
		<tag k="ssr:stedsnr" v="510184" />
	</node>
	<node id="-595330" lat="59.8708258277" lon="5.6049680977">
		<tag k="alt_name" v="Seldalsneset" />
		<tag k="name" v="Sevdalsneset" />
		<tag k="natural" v="cape" />
		<tag k="ssr:stedsnr" v="510144" />
	</node>
	<node id="-595329" lat="59.8536777747" lon="5.5303888924">
		<tag k="name" v="Sundvorneset" />
		<tag k="natural" v="cape" />
		<tag k="ssr:stedsnr" v="510142" />
	</node>
	<node id="-595327" lat="59.816297225" lon="5.5307444455">
		<tag k="alt_name" v="Breivikeneset" />
		<tag k="name" v="Breidvikneset" />
		<tag k="natural" v="cape" />
		<tag k="ssr:stedsnr" v="389182" />
	</node>
	<node id="-595326" lat="59.8201166662" lon="5.52597499915">
		<tag k="name" v="Kivikøyri" />
		<tag k="natural" v="beach" />
		<tag k="place" v="locality" />
		<tag k="ssr:stedsnr" v="389181" />
	</node>
	<node id="-595325" lat="59.7930833353" lon="5.53863333376">
		<tag k="name" v="Russeklubben" />
		<tag k="natural" v="cape" />
		<tag k="ssr:stedsnr" v="389168" />
	</node>
	<node id="-595324" lat="59.908149998" lon="5.5035305592">
		<tag k="alt_name" v="Tjuvavika" />
		<tag k="name" v="Tjuvavik" />
		<tag k="natural" v="bay" />
		<tag k="ssr:stedsnr" v="389264" />
	</node>
	<node id="-595313" lat="59.8290138873" lon="5.54604167229">
		<tag k="bay" v="fjord" />
		<tag k="name" v="Langenuen" />
		<tag k="natural" v="bay" />
		<tag k="ssr:stedsnr" v="489190" />
	</node>
	<node id="-595312" lat="59.7363583375" lon="5.39491666562">
		<tag k="alt_name" v="Nautøy" />
		<tag k="name" v="Nautøya" />
		<tag k="place" v="island" />
		<tag k="ssr:stedsnr" v="488598" />
	</node>
	<node id="-595310" lat="59.7431249965" lon="5.41618054896">
		<tag k="name" v="Nordavika" />
		<tag k="natural" v="bay" />
		<tag k="ssr:stedsnr" v="488568" />
	</node>
	<node id="-595309" lat="59.7442416651" lon="5.40606944357">
		<tag k="alt_name" v="Store Lonkjølsholmen;Langekilsholmane" />
		<tag k="name" v="Longkjølsholmen" />
		<tag k="place" v="islet" />
		<tag k="ssr:stedsnr" v="488566" />
	</node>
	<node id="-595308" lat="59.8847888883" lon="5.57129444006">
		<tag k="name" v="Litla Storsøya" />
		<tag k="place" v="island" />
		<tag k="ssr:stedsnr" v="346003" />
	</node>
	<node id="-595307" lat="59.7328166659" lon="5.42184443805">
		<tag k="name" v="Klasasundet" />
		<tag k="natural" v="strait" />
		<tag k="ssr:stedsnr" v="329643" />
	</node>
	<node id="-595306" lat="59.7769833336" lon="5.38205000321">
		<tag k="alt_name" v="Breiavika" />
		<tag k="name" v="Breidavik" />
		<tag k="natural" v="bay" />
		<tag k="ssr:stedsnr" v="328840" />
	</node>
	<node id="-595299" lat="59.7946444484" lon="5.47288610664">
		<tag k="name" v="Grønevika" />
		<tag k="natural" v="bay" />
		<tag k="ssr:stedsnr" v="462882" />
	</node>
	<node id="-595296" lat="59.7744222245" lon="5.51558610423">
		<tag k="name" v="Sponavika" />
		<tag k="natural" v="bay" />
		<tag k="ssr:stedsnr" v="462846" />
	</node>
	<node id="-595295" lat="59.7941638859" lon="5.53608889743">
		<tag k="name" v="Mjelkevika" />
		<tag k="natural" v="bay" />
		<tag k="ssr:stedsnr" v="462843" />
	</node>
	<node id="-595293" lat="59.7914111075" lon="5.5390166708">
		<tag k="name" v="Tyttebærholmen" />
		<tag k="place" v="islet" />
		<tag k="ssr:stedsnr" v="462832" />
	</node>
	<node id="-595291" lat="59.8674500016" lon="5.55791944996">
		<tag k="name" v="Gurevika" />
		<tag k="natural" v="bay" />
		<tag k="ssr:stedsnr" v="462786" />
	</node>
	<node id="-595290" lat="59.867552778" lon="5.56825555723">
		<tag k="name" v="Breivika" />
		<tag k="natural" v="bay" />
		<tag k="ssr:stedsnr" v="462784" />
	</node>
	<node id="-595289" lat="59.7728079263" lon="5.39452814127">
		<tag k="name" v="Sjøpollen" />
		<tag k="natural" v="strait" />
		<tag k="ssr:stedsnr" v="462774" />
	</node>
	<node id="-595288" lat="59.7708250023" lon="5.43271666152">
		<tag k="name" v="Buvika" />
		<tag k="natural" v="bay" />
		<tag k="ssr:stedsnr" v="462769" />
	</node>
	<node id="-595285" lat="59.7415" lon="5.40018610418">
		<tag k="name" v="Kuholmen" />
		<tag k="place" v="islet" />
		<tag k="ssr:stedsnr" v="462120" />
	</node>
	<node id="-595275" lat="59.8551055517" lon="5.52960833636">
		<tag k="name" v="Lita Boravika" />
		<tag k="natural" v="bay" />
		<tag k="ssr:stedsnr" v="462058" />
	</node>
	<node id="-595273" lat="59.846883335" lon="5.60701944973">
		<tag k="name" v="Bunesvika" />
		<tag k="natural" v="bay" />
		<tag k="ssr:stedsnr" v="281251" />
	</node>
	<node id="-595272" lat="59.859597221" lon="5.61082778621">
		<tag k="name" v="Nausthammaren" />
		<tag k="natural" v="cape" />
		<tag k="ssr:stedsnr" v="281239" />
	</node>
	<node id="-595269" lat="59.8385305569" lon="5.53297222135">
		<tag k="name" v="Gjelhammarvika" />
		<tag k="natural" v="bay" />
		<tag k="ssr:stedsnr" v="281219" />
	</node>
	<node id="-595268" lat="59.8432277738" lon="5.56639722258">
		<tag k="name" v="Ellingneset" />
		<tag k="natural" v="cape" />
		<tag k="ssr:stedsnr" v="281206" />
	</node>
	<node id="-595267" lat="59.7442833331" lon="5.40202500486">
		<tag k="fixme" v="consider seamark:type=rock or natural=shoal" />
		<tag k="name" v="Slottet" />
		<tag k="place" v="islet" />
		<tag k="ssr:stedsnr" v="268655" />
	</node>
	<node id="-595266" lat="59.8290777783" lon="5.60159166095">
		<tag k="name" v="Rotaneset" />
		<tag k="natural" v="cape" />
		<tag k="ssr:stedsnr" v="268157" />
	</node>
	<node id="-595265" lat="59.7831444472" lon="5.35358333691">
		<tag k="name" v="Vasseidet" />
		<tag k="natural" v="bay" />
		<tag k="ssr:stedsnr" v="450184" />
	</node>
	<node id="-595264" lat="59.8135972211" lon="5.53157776994">
		<tag k="alt_name" v="Breidvik" />
		<tag k="name" v="Breivika" />
		<tag k="natural" v="bay" />
		<tag k="ssr:stedsnr" v="450154" />
	</node>
	<node id="-595263" lat="59.7846749034" lon="5.53911750791">
		<tag k="alt_name" v="Valeøya" />
		<tag k="name" v="Valøy" />
		<tag k="place" v="islet" />
		<tag k="ssr:stedsnr" v="450141" />
	</node>
	<node id="-595262" lat="59.7565833352" lon="5.4917861079">
		<tag k="name" v="Storøy" />
		<tag k="natural" v="cape" />
		<tag k="ssr:stedsnr" v="449633" />
	</node>
	<node id="-595261" lat="59.8464249992" lon="5.56198889574">
		<tag k="name" v="Orevik" />
		<tag k="natural" v="bay" />
		<tag k="ssr:stedsnr" v="247256" />
	</node>
	<node id="-595260" lat="59.8602249993" lon="5.52790277098">
		<tag k="name" v="Sjømedvika" />
		<tag k="natural" v="bay" />
		<tag k="ssr:stedsnr" v="220058" />
	</node>
	<node id="-595254" lat="59.8055055593" lon="5.35005555028">
		<tag k="name" v="Brotaneset" />
		<tag k="natural" v="cape" />
		<tag k="ssr:stedsnr" v="220117" />
	</node>
	<node id="-595251" lat="59.8364611073" lon="5.56895832589">
		<tag k="fixme" v="consider seamark:type=rock or natural=shoal" />
		<tag k="name" v="Tongaskjeret" />
		<tag k="place" v="islet" />
		<tag k="ssr:stedsnr" v="281201" />
	</node>
	<node id="-595248" lat="59.8128138916" lon="5.53301944998">
		<tag k="name" v="Knasterneset" />
		<tag k="natural" v="cape" />
		<tag k="ssr:stedsnr" v="281181" />
	</node>
	<node id="-595243" lat="59.7645444403" lon="5.39832777574">
		<tag k="name" v="Klubbane" />
		<tag k="natural" v="cape" />
		<tag k="ssr:stedsnr" v="281143" />
	</node>
	<node id="-595236" lat="59.7782638908" lon="5.51292500811">
		<tag k="name" v="Djupevikneset" />
		<tag k="natural" v="cape" />
		<tag k="ssr:stedsnr" v="280849" />
	</node>
	<node id="-595235" lat="59.7865138885" lon="5.52221110978">
		<tag k="fixme" v="consider seamark:type=rock or natural=shoal" />
		<tag k="name" v="Notaskjeret" />
		<tag k="place" v="islet" />
		<tag k="ssr:stedsnr" v="280848" />
	</node>
	<node id="-595234" lat="59.7735472211" lon="5.51889444746">
		<tag k="name" v="Sponholmen" />
		<tag k="place" v="islet" />
		<tag k="ssr:stedsnr" v="280846" />
	</node>
	<node id="-595233" lat="59.7465047283" lon="5.45052318534">
		<tag k="name" v="Vågodden" />
		<tag k="natural" v="cape" />
		<tag k="ssr:stedsnr" v="280804" />
	</node>
	<node id="-595228" lat="59.7374111092" lon="5.4243944463">
		<tag k="fixme" v="consider seamark:type=rock or natural=shoal" />
		<tag k="name" v="Lyraskeret" />
		<tag k="place" v="islet" />
		<tag k="ssr:stedsnr" v="280110" />
	</node>
	<node id="-595222" lat="59.8255472229" lon="5.35287777233">
		<tag k="name" v="Bjørkevika" />
		<tag k="natural" v="bay" />
		<tag k="ssr:stedsnr" v="280071" />
	</node>
	<node id="-595221" lat="59.8733750008" lon="5.52798055956">
		<tag k="name" v="Djupevika" />
		<tag k="natural" v="bay" />
		<tag k="ssr:stedsnr" v="280068" />
	</node>
	<node id="-595217" lat="59.8543805542" lon="5.53031666452">
		<tag k="name" v="Tømbervika" />
		<tag k="natural" v="bay" />
		<tag k="ssr:stedsnr" v="280046" />
	</node>
	<node id="-595216" lat="59.7788527764" lon="5.40005833271">
		<tag k="name" v="Myravågen" />
		<tag k="natural" v="strait" />
		<tag k="ssr:stedsnr" v="280038" />
	</node>
	<node id="-595214" lat="59.8797222252" lon="5.52571943568">
		<tag k="name" v="Laukhelleneset" />
		<tag k="natural" v="cape" />
		<tag k="ssr:stedsnr" v="159261" />
	</node>
	<node id="-595212" lat="59.8762638914" lon="5.52507776914">
		<tag k="name" v="Begardsskorane" />
		<tag k="natural" v="cape" />
		<tag k="ssr:stedsnr" v="159257" />
	</node>
	<node id="-595211" lat="59.8415027803" lon="5.53331943566">
		<tag k="name" v="Naustvika" />
		<tag k="natural" v="bay" />
		<tag k="ssr:stedsnr" v="159211" />
	</node>
	<node id="-595209" lat="59.7804583338" lon="5.35309444103">
		<tag k="name" v="Innersvikane" />
		<tag k="natural" v="bay" />
		<tag k="ssr:stedsnr" v="159074" />
	</node>
	<node id="-595208" lat="59.8188611101" lon="5.34966666559">
		<tag k="name" v="Klenevågen" />
		<tag k="natural" v="bay" />
		<tag k="ssr:stedsnr" v="159069" />
	</node>
	<node id="-595195" lat="59.8372027787" lon="5.56637222943">
		<tag k="name" v="Leirflua" />
		<tag k="natural" v="shoal" />
		<tag k="place" v="locality" />
		<tag k="ssr:stedsnr" v="268137" />
	</node>
	<node id="-595194" lat="59.7859972177" lon="5.35892499581">
		<tag k="name" v="Vestrevik" />
		<tag k="natural" v="bay" />
		<tag k="ssr:stedsnr" v="268199" />
	</node>
	<node id="-595193" lat="59.8237749976" lon="5.53175276933">
		<tag k="alt_name" v="Kyvikeskjeret" />
		<tag k="fixme" v="consider seamark:type=rock or natural=shoal" />
		<tag k="name" v="Kivikskjeret" />
		<tag k="place" v="islet" />
		<tag k="ssr:stedsnr" v="268183" />
	</node>
	<node id="-595188" lat="59.7660111086" lon="5.38130278544">
		<tag k="name" v="Nordre Hillersvika" />
		<tag k="natural" v="bay" />
		<tag k="ssr:stedsnr" v="98774" />
	</node>
	<node id="-595187" lat="59.777337596" lon="5.38484673211">
		<tag k="name" v="Seglneset" />
		<tag k="natural" v="cape" />
		<tag k="ssr:stedsnr" v="98772" />
	</node>
	<node id="-595185" lat="59.7798749983" lon="5.43509444698">
		<tag k="name" v="Storeholmen" />
		<tag k="place" v="islet" />
		<tag k="ssr:stedsnr" v="98764" />
	</node>
	<node id="-595183" lat="59.7702222207" lon="5.50456389444">
		<tag k="name" v="Urdastranda" />
		<tag k="natural" v="bay" />
		<tag k="ssr:stedsnr" v="98860" />
	</node>
	<node id="-595168" lat="59.7314111141" lon="5.43196388407">
		<tag k="name" v="Klasaboen" />
		<tag k="natural" v="shoal" />
		<tag k="place" v="locality" />
		<tag k="ssr:stedsnr" v="86663" />
	</node>
	<node id="-595167" lat="59.7780305564" lon="5.53459722556">
		<tag k="alt_name" v="Ystøya" />
		<tag k="name" v="Ytstøy" />
		<tag k="place" v="islet" />
		<tag k="ssr:stedsnr" v="86170" />
	</node>
	<node id="-595166" lat="59.8713744353" lon="5.55964513738">
		<tag k="name" v="Klubbholmen" />
		<tag k="place" v="islet" />
		<tag k="ssr:stedsnr" v="86169" />
	</node>
	<node id="-595165" lat="59.8618555601" lon="5.55435555589">
		<tag k="alt_name" v="Søra Krossvik;Søre Korsvika" />
		<tag k="name" v="Søra Korsvik" />
		<tag k="natural" v="bay" />
		<tag k="ssr:stedsnr" v="86168" />
	</node>
	<node id="-595163" lat="59.7625805597" lon="5.48180277">
		<tag k="name" v="Fureneset" />
		<tag k="natural" v="cape" />
		<tag k="ssr:stedsnr" v="85574" />
	</node>
	<node id="-595155" lat="59.8232472245" lon="5.59829444664">
		<tag k="alt_name" v="Langeskjer" />
		<tag k="fixme" v="consider seamark:type=rock or natural=shoal" />
		<tag k="name" v="Langaskjeret" />
		<tag k="place" v="islet" />
		<tag k="ssr:stedsnr" v="246362" />
	</node>
	<node id="-595154" lat="59.8828666646" lon="5.57463610379">
		<tag k="alt_name" v="Storsøy;Store Storsøy" />
		<tag k="name" v="Storsøya" />
		<tag k="place" v="island" />
		<tag k="ssr:stedsnr" v="246266" />
	</node>
	<node id="-595153" lat="59.7348305566" lon="5.41893888831">
		<tag k="name" v="Orevika" />
		<tag k="natural" v="bay" />
		<tag k="ssr:stedsnr" v="245595" />
	</node>
	<node id="-595148" lat="59.8327944427" lon="5.6036388955">
		<tag k="name" v="Fureholmen" />
		<tag k="place" v="islet" />
		<tag k="ssr:stedsnr" v="64323" />
	</node>
	<node id="-595142" lat="59.7822444407" lon="5.4406944474">
		<tag k="name" v="Grønaneset" />
		<tag k="natural" v="cape" />
		<tag k="ssr:stedsnr" v="37773" />
	</node>
	<node id="-595141" lat="59.7744500039" lon="5.43076389696">
		<tag k="name" v="Kråkesundet" />
		<tag k="natural" v="strait" />
		<tag k="ssr:stedsnr" v="37771" />
	</node>
	<node id="-595137" lat="59.7911859369" lon="5.53652068117">
		<tag k="name" v="Apalvika" />
		<tag k="natural" v="bay" />
		<tag k="ssr:stedsnr" v="37852" />
	</node>
	<node id="-595136" lat="59.864983329" lon="5.55326388917">
		<tag k="name" v="Basaneset" />
		<tag k="natural" v="cape" />
		<tag k="ssr:stedsnr" v="37810" />
	</node>
	<node id="-595135" lat="59.7488121802" lon="5.4444196651">
		<tag k="name" v="Grindevika" />
		<tag k="natural" v="bay" />
		<tag k="ssr:stedsnr" v="37809" />
	</node>
	<node id="-595134" lat="59.7764805597" lon="5.35393332732">
		<tag k="name" v="Nordholmen" />
		<tag k="place" v="islet" />
		<tag k="ssr:stedsnr" v="307611" />
	</node>
	<node id="-595132" lat="59.9140916651" lon="5.49236110464">
		<tag k="name" v="Naustneset" />
		<tag k="natural" v="cape" />
		<tag k="ssr:stedsnr" v="25263" />
	</node>
	<node id="-595128" lat="59.8357194443" lon="5.59725277533">
		<tag k="name" v="Omnsneset" />
		<tag k="natural" v="cape" />
		<tag k="ssr:stedsnr" v="220273" />
	</node>
	<node id="-595127" lat="59.8358805594" lon="5.5701444456">
		<tag k="name" v="Reinertsvika" />
		<tag k="natural" v="bay" />
		<tag k="ssr:stedsnr" v="220231" />
	</node>
	<node id="-595116" lat="59.7692777742" lon="5.50454444726">
		<tag k="name" v="Håklubben" />
		<tag k="natural" v="cape" />
		<tag k="ssr:stedsnr" v="219852" />
	</node>
	<node id="-595115" lat="59.7985250031" lon="5.53546944528">
		<tag k="name" v="Nordre Tynesvika" />
		<tag k="natural" v="bay" />
		<tag k="ssr:stedsnr" v="219849" />
	</node>
	<node id="-595112" lat="59.7664555593" lon="5.37880278188">
		<tag k="name" v="Bleikja" />
		<tag k="place" v="island" />
		<tag k="ssr:stedsnr" v="219790" />
	</node>
	<node id="-596144" lat="59.7854927525" lon="5.52574894431">
		<tag k="alt_name" v="Aslaksvikjo" />
		<tag k="name" v="Aslaksvika" />
		<tag k="natural" v="bay" />
		<tag k="ssr:stedsnr" v="975939" />
	</node>
	<node id="-596136" lat="59.8075833302" lon="5.5335416584">
		<tag k="alt_name" v="Hagavika" />
		<tag k="name" v="Hagavik" />
		<tag k="natural" v="bay" />
		<tag k="ssr:stedsnr" v="875201" />
	</node>
	<node id="-596135" lat="59.7587000005" lon="5.48696944514">
		<tag k="name" v="Husøy" />
		<tag k="natural" v="cape" />
		<tag k="ssr:stedsnr" v="874650" />
	</node>
	<node id="-596133" lat="59.785572218" lon="5.33785833271">
		<tag k="name" v="Seiavik" />
		<tag k="natural" v="bay" />
		<tag k="ssr:stedsnr" v="874215" />
	</node>
	<node id="-596131" lat="59.8582638918" lon="5.52842777831">
		<tag k="alt_name" v="Ørevika" />
		<tag k="name" v="Ørevik" />
		<tag k="natural" v="bay" />
		<tag k="ssr:stedsnr" v="874164" />
	</node>
	<node id="-596130" lat="59.9035833332" lon="5.5078749962">
		<tag k="alt_name" v="Ankervik" />
		<tag k="name" v="Ankervika" />
		<tag k="natural" v="bay" />
		<tag k="ssr:stedsnr" v="854678" />
	</node>
	<node id="-596127" lat="59.8507999986" lon="5.58497499649">
		<tag k="name" v="Huglo" />
		<tag k="place" v="island" />
		<tag k="ssr:stedsnr" v="854275" />
	</node>
	<node id="-596124" lat="59.8745222241" lon="5.5990027745">
		<tag k="name" v="Laukhammarsundet" />
		<tag k="natural" v="strait" />
		<tag k="ssr:stedsnr" v="853241" />
	</node>
	<node id="-596122" lat="59.7331222255" lon="5.41625555654">
		<tag k="name" v="Helganeset" />
		<tag k="natural" v="cape" />
		<tag k="ssr:stedsnr" v="852595" />
	</node>
	<node id="-596121" lat="59.8443222266" lon="5.61287777475">
		<tag k="name" v="Bunesflua" />
		<tag k="place" v="locality" />
		<tag k="seamark:type" v="rock" />
		<tag k="ssr:stedsnr" v="833652" />
	</node>
	<node id="-596118" lat="59.8461003915" lon="5.60229043628">
		<tag k="name" v="Stora Brandvik" />
		<tag k="natural" v="bay" />
		<tag k="ssr:stedsnr" v="827258" />
	</node>
	<node id="-596117" lat="59.8518722203" lon="5.61747778273">
		<tag k="alt_name" v="Langetongen" />
		<tag k="name" v="Langetangen" />
		<tag k="natural" v="cape" />
		<tag k="ssr:stedsnr" v="827256" />
	</node>
	<node id="-596115" lat="59.8696693686" lon="5.60623690265">
		<tag k="name" v="Furemannsneset" />
		<tag k="natural" v="cape" />
		<tag k="ssr:stedsnr" v="827249" />
	</node>
	<node id="-596114" lat="59.8446388899" lon="5.53389444621">
		<tag k="name" v="Nordra Øravika" />
		<tag k="natural" v="bay" />
		<tag k="ssr:stedsnr" v="827224" />
	</node>
	<node id="-596103" lat="59.8078262336" lon="5.34352252108">
		<tag k="name" v="Straumholmen" />
		<tag k="place" v="islet" />
		<tag k="ssr:stedsnr" v="827086" />
	</node>
	<node id="-596101" lat="59.7915055577" lon="5.35758055478">
		<tag k="name" v="Eidet" />
		<tag k="natural" v="bay" />
		<tag k="ssr:stedsnr" v="827084" />
	</node>
	<node id="-596099" lat="59.7867845839" lon="5.36350357573">
		<tag k="name" v="Klenevågen" />
		<tag k="natural" v="bay" />
		<tag k="ssr:stedsnr" v="827080" />
	</node>
	<node id="-596093" lat="59.8558361104" lon="5.52836667485">
		<tag k="name" v="Boravika" />
		<tag k="natural" v="bay" />
		<tag k="ssr:stedsnr" v="827047" />
	</node>
	<node id="-596088" lat="59.7845999416" lon="5.50617874354">
		<tag k="name" v="Spelemannsneset" />
		<tag k="natural" v="cape" />
		<tag k="ssr:stedsnr" v="826834" />
	</node>
	<node id="-596087" lat="59.8005944408" lon="5.53278056303">
		<tag k="name" v="Sævarhaugsvika" />
		<tag k="natural" v="bay" />
		<tag k="ssr:stedsnr" v="826830" />
	</node>
	<node id="-596083" lat="59.8543805522" lon="5.56009722561">
		<tag k="name" v="Klubben" />
		<tag k="natural" v="cape" />
		<tag k="ssr:stedsnr" v="826790" />
	</node>
	<node id="-596081" lat="59.7741194489" lon="5.38557222164">
		<tag k="name" v="Flatholmen" />
		<tag k="place" v="islet" />
		<tag k="ssr:stedsnr" v="826772" />
	</node>
	<node id="-596076" lat="59.7775833323" lon="5.36376388593">
		<tag k="alt_name" v="Limbuvika" />
		<tag k="name" v="Limbuvik" />
		<tag k="natural" v="bay" />
		<tag k="ssr:stedsnr" v="814221" />
	</node>
	<node id="-596074" lat="59.7758666713" lon="5.51566111906">
		<tag k="name" v="Sponavikneset" />
		<tag k="natural" v="cape" />
		<tag k="ssr:stedsnr" v="814199" />
	</node>
	<node id="-596073" lat="59.8787333309" lon="5.56805554712">
		<tag k="name" v="Tyskeflua" />
		<tag k="natural" v="shoal" />
		<tag k="place" v="locality" />
		<tag k="ssr:stedsnr" v="814185" />
	</node>
	<node id="-596072" lat="59.8445638861" lon="5.53415834162">
		<tag k="name" v="Grovavågen" />
		<tag k="natural" v="bay" />
		<tag k="ssr:stedsnr" v="814169" />
	</node>
	<node id="-596071" lat="59.8316305536" lon="5.56906945111">
		<tag k="alt_name" v="Taravik" />
		<tag k="name" v="Turavik" />
		<tag k="natural" v="bay" />
		<tag k="ssr:stedsnr" v="814155" />
	</node>
	<node id="-596067" lat="59.9499999976" lon="5.70833333021">
		<tag k="bay" v="fjord" />
		<tag k="name" v="Hardangerfjorden" />
		<tag k="natural" v="bay" />
		<tag k="ssr:stedsnr" v="793474" />
	</node>
	<node id="-596066" lat="59.7799416688" lon="5.53992221795">
		<tag k="alt_name" v="Midtøya" />
		<tag k="name" v="Midtøy" />
		<tag k="place" v="islet" />
		<tag k="ssr:stedsnr" v="793389" />
	</node>
	<node id="-596064" lat="59.7422855708" lon="5.42020544521">
		<tag k="name" v="Jonaklubben" />
		<tag k="natural" v="cape" />
		<tag k="ssr:stedsnr" v="792549" />
	</node>
	<node id="-596053" lat="59.8611527796" lon="5.61187778076">
		<tag k="name" v="Fluena" />
		<tag k="natural" v="shoal" />
		<tag k="place" v="locality" />
		<tag k="ssr:stedsnr" v="766218" />
	</node>
	<node id="-596052" lat="59.8602499967" lon="5.62127777225">
		<tag k="alt_name" v="Apalen" />
		<tag k="name" v="Apaleflua" />
		<tag k="place" v="locality" />
		<tag k="seamark:type" v="rock" />
		<tag k="ssr:stedsnr" v="766217" />
	</node>
	<node id="-596045" lat="59.7560138907" lon="5.40134166741">
		<tag k="name" v="Leirhola" />
		<tag k="natural" v="bay" />
		<tag k="ssr:stedsnr" v="766137" />
	</node>
	<node id="-596044" lat="59.7506249991" lon="5.47151666777">
		<tag k="fixme" v="consider seamark:type=rock or natural=shoal" />
		<tag k="name" v="Sæbøskjera" />
		<tag k="place" v="islet" />
		<tag k="ssr:stedsnr" v="765784" />
	</node>
	<node id="-596041" lat="59.7814250023" lon="5.43444166417">
		<tag k="name" v="Store Dalsholmen" />
		<tag k="place" v="islet" />
		<tag k="ssr:stedsnr" v="765763" />
	</node>
	<node id="-596040" lat="59.774947221" lon="5.43160832795">
		<tag k="name" v="Tømbervika" />
		<tag k="natural" v="bay" />
		<tag k="ssr:stedsnr" v="765761" />
	</node>
	<node id="-596035" lat="59.8854916706" lon="5.52296666405">
		<tag k="name" v="Koven" />
		<tag k="natural" v="bay" />
		<tag k="ssr:stedsnr" v="765218" />
	</node>
	<node id="-596034" lat="59.7806527784" lon="5.36553332494">
		<tag k="name" v="Falteinsvik" />
		<tag k="natural" v="bay" />
		<tag k="ssr:stedsnr" v="753149" />
	</node>
	<node id="-596027" lat="59.8320916677" lon="5.59999445282">
		<tag k="name" v="Kvernavika" />
		<tag k="natural" v="bay" />
		<tag k="ssr:stedsnr" v="644233" />
	</node>
	<node id="-596026" lat="59.8575361129" lon="5.61738610472">
		<tag k="name" v="Sarestøa" />
		<tag k="natural" v="bay" />
		<tag k="ssr:stedsnr" v="644222" />
	</node>
	<node id="-596025" lat="59.860516663" lon="5.60945833489">
		<tag k="name" v="Jektastøa" />
		<tag k="natural" v="bay" />
		<tag k="ssr:stedsnr" v="644220" />
	</node>
	<node id="-596022" lat="59.8478694436" lon="5.53180833557">
		<tag k="name" v="Vågen" />
		<tag k="natural" v="bay" />
		<tag k="ssr:stedsnr" v="644203" />
	</node>
	<node id="-596020" lat="59.8437611134" lon="5.56523055077">
		<tag k="name" v="Klumpavika" />
		<tag k="natural" v="bay" />
		<tag k="ssr:stedsnr" v="644190" />
	</node>
	<node id="-596017" lat="59.749472223" lon="5.41822500843">
		<tag k="name" v="Sekkjaneset" />
		<tag k="natural" v="cape" />
		<tag k="ssr:stedsnr" v="644129" />
	</node>
	<node id="-596014" lat="59.7752444451" lon="5.35847222265">
		<tag k="name" v="Midtholmen" />
		<tag k="place" v="islet" />
		<tag k="ssr:stedsnr" v="644069" />
	</node>
	<node id="-596013" lat="59.8113472261" lon="5.34959444935">
		<tag k="name" v="Orraklubben" />
		<tag k="natural" v="cape" />
		<tag k="ssr:stedsnr" v="644065" />
	</node>
	<node id="-596008" lat="59.7790694487" lon="5.41670000557">
		<tag k="name" v="Knurrøysundet" />
		<tag k="natural" v="strait" />
		<tag k="ssr:stedsnr" v="644033" />
	</node>
	<node id="-596006" lat="59.7999055563" lon="5.47941944571">
		<tag k="name" v="Vatnavika" />
		<tag k="natural" v="bay" />
		<tag k="ssr:stedsnr" v="643863" />
	</node>
	<node id="-596003" lat="59.7795666702" lon="5.5356027713">
		<tag k="name" v="Ystøysundet" />
		<tag k="natural" v="strait" />
		<tag k="ssr:stedsnr" v="643838" />
	</node>
	<node id="-596002" lat="59.7839333322" lon="5.52780834151">
		<tag k="name" v="Husøyholmen" />
		<tag k="place" v="islet" />
		<tag k="ssr:stedsnr" v="643837" />
	</node>
	<node id="-596001" lat="59.7776722203" lon="5.51309444136">
		<tag k="name" v="Djupevika" />
		<tag k="natural" v="bay" />
		<tag k="ssr:stedsnr" v="643833" />
	</node>
	<node id="-595998" lat="59.8041138855" lon="5.5383083385">
		<tag k="name" v="Lahammaren" />
		<tag k="natural" v="cape" />
		<tag k="ssr:stedsnr" v="643814" />
	</node>
	<node id="-595992" lat="59.7528092004" lon="5.47378761179">
		<tag k="name" v="Dagfinnsvika" />
		<tag k="natural" v="bay" />
		<tag k="ssr:stedsnr" v="643779" />
	</node>
	<node id="-595989" lat="59.7775611092" lon="5.42970834205">
		<tag k="name" v="Gråtareholmen" />
		<tag k="place" v="islet" />
		<tag k="ssr:stedsnr" v="643759" />
	</node>
	<node id="-595986" lat="59.7847888886" lon="5.54482500602">
		<tag k="name" v="Hysstadflua" />
		<tag k="natural" v="shoal" />
		<tag k="place" v="locality" />
		<tag k="ssr:stedsnr" v="632196" />
	</node>
	<node id="-595985" lat="59.7664388873" lon="5.5038138821">
		<tag k="alt_name" v="Naustvågholmen" />
		<tag k="name" v="Naustholmen" />
		<tag k="place" v="islet" />
		<tag k="ssr:stedsnr" v="631641" />
	</node>
	<node id="-595984" lat="59.8632111142" lon="5.5553249918">
		<tag k="alt_name" v="Nordre Korsvika" />
		<tag k="name" v="Nordra Korsvik" />
		<tag k="natural" v="bay" />
		<tag k="ssr:stedsnr" v="631147" />
	</node>
	<node id="-595983" lat="59.7749628549" lon="5.36186354738">
		<tag k="name" v="Sørholmen" />
		<tag k="place" v="islet" />
		<tag k="ssr:stedsnr" v="610624" />
	</node>
	<node id="-595975" lat="59.8397888882" lon="5.61442499577">
		<tag k="alt_name" v="Litleøya" />
		<tag k="name" v="Litle Tveitøy" />
		<tag k="place" v="island" />
		<tag k="ssr:stedsnr" v="584244" />
	</node>
	<node id="-595972" lat="59.8433444457" lon="5.53339721451">
		<tag k="name" v="Søra Ørevika" />
		<tag k="natural" v="bay" />
		<tag k="ssr:stedsnr" v="584209" />
	</node>
</osm>
