<?xml version="1.0" encoding="UTF-8"?>
<<<<<<< HEAD
<osm version="0.6" generator="osmapis">
	<node lat="59.75063055610127" lon="5.454338883677342" id="-27803">
		<tag k="bridge" v="yes" />
		<tag k="layer" v="1" />
		<tag k="name" v="Hornelandsvågen" />
		<tag k="ssr:stedsnr" v="470836" />
	</node>
	<node lat="59.853852778537316" lon="5.5231555516555" id="-27819">
		<tag k="bridge" v="yes" />
		<tag k="layer" v="1" />
		<tag k="name" v="Agdestein" />
		<tag k="ssr:stedsnr" v="350824" />
	</node>
	<node lat="59.792391664754604" lon="5.340588896858551" id="-27893">
		<tag k="aeroway" v="aerodrome" />
		<tag k="name" v="Stord lufthamn, Sørstokken" />
		<tag k="old_name" v="Stord lufthamn" />
		<tag k="ssr:stedsnr" v="511105" />
	</node>
	<node lat="59.78786944292554" lon="5.489758339548487" id="-27905">
		<tag k="bridge" v="yes" />
		<tag k="layer" v="1" />
		<tag k="name" v="Kattatveit" />
		<tag k="ssr:stedsnr" v="531855" />
	</node>
	<node lat="59.791508328956276" lon="5.4311611062311425" id="-27995">
		<tag k="bridge" v="yes" />
		<tag k="layer" v="1" />
		<tag k="name" v="Dale" />
		<tag k="ssr:stedsnr" v="715831" />
	</node>
	<node lat="59.78699722016399" lon="5.507444436068567" id="-28023">
=======
<osm generator="osmapis" version="0.6">
	<node id="-605055" lat="59.791508329" lon="5.43116110623">
		<tag k="bridge" v="yes" />
		<tag k="layer" v="1" />
		<tag k="name" v="Dale" />
		<tag k="ssr:stedsnr" v="715831" />
	</node>
	<node id="-604925" lat="59.7506305561" lon="5.45433888368">
		<tag k="bridge" v="yes" />
		<tag k="layer" v="1" />
		<tag k="name" v="Hornelandsvågen" />
		<tag k="ssr:stedsnr" v="470836" />
	</node>
	<node id="-605556" lat="59.8986027762" lon="5.51000555695">
		<tag k="bridge" v="yes" />
		<tag k="layer" v="1" />
		<tag k="name" v="Børtveit" />
		<tag k="ssr:stedsnr" v="593781" />
	</node>
	<node id="-605555" lat="59.8899527745" lon="5.51724721896">
		<tag k="bridge" v="yes" />
		<tag k="layer" v="1" />
		<tag k="name" v="Jektevik" />
		<tag k="ssr:stedsnr" v="592890" />
	</node>
	<node id="-604914" lat="59.749624947" lon="5.46596898211">
		<tag k="amenity" v="ferry_terminal" />
		<tag k="name" v="Skjersholmane ferjekai" />
		<tag k="ssr:stedsnr" v="511385" />
	</node>
	<node id="-605160" lat="59.8485861144" lon="5.52360555396">
>>>>>>> e1d4bc35ff8a6074a6f2e91616a996b547c36f15
		<tag k="bridge" v="yes" />
		<tag k="layer" v="1" />
		<tag k="name" v="Slettedalen" />
		<tag k="ssr:stedsnr" v="896871" />
	</node>
<<<<<<< HEAD
	<node lat="59.73855277527086" lon="5.398074992081635" id="-28024">
		<tag k="bridge" v="yes" />
		<tag k="layer" v="1" />
		<tag k="name" v="Nautøy" />
		<tag k="ssr:stedsnr" v="774857" />
	</node>
	<node lat="59.777161111221105" lon="5.395205563531948" id="-28025">
		<tag k="bridge" v="yes" />
		<tag k="layer" v="1" />
		<tag k="name" v="Sagvåg" />
		<tag k="ssr:stedsnr" v="774860" />
	</node>
	<node lat="59.74072777628658" lon="5.4069583332348685" id="-28083">
		<tag k="bridge" v="yes" />
		<tag k="layer" v="1" />
		<tag k="name" v="Føyno" />
		<tag k="ssr:stedsnr" v="896869" />
	</node>
	<node lat="59.84858611442046" lon="5.523605553962101" id="-28084">
		<tag k="bridge" v="yes" />
		<tag k="layer" v="1" />
		<tag k="name" v="Slettedalen" />
		<tag k="ssr:stedsnr" v="896871" />
	</node>
	<node lat="59.78509166985681" lon="5.481572217760084" id="-28109">
		<tag k="bridge" v="yes" />
		<tag k="layer" v="1" />
		<tag k="name" v="Lønning" />
		<tag k="ssr:stedsnr" v="956840" />
	</node>
	<node lat="59.8613611140034" lon="5.523194447376956" id="-28110">
		<tag k="bridge" v="yes" />
		<tag k="layer" v="1" />
		<tag k="name" v="Lova" />
		<tag k="ssr:stedsnr" v="956842" />
	</node>
	<node lat="59.77712499694119" lon="5.493058339821713" id="-28111">
		<tag k="bridge" v="yes" />
		<tag k="layer" v="1" />
		<tag k="name" v="Saghaugen" />
		<tag k="ssr:stedsnr" v="956845" />
	</node>
	<node lat="59.79155277936768" lon="5.495375006514473" id="-28112">
		<tag k="bridge" v="yes" />
		<tag k="layer" v="1" />
		<tag k="name" v="Ådland" />
		<tag k="ssr:stedsnr" v="956848" />
	</node>
	<node lat="59.866852927389196" lon="5.563648883283615" id="-28114">
		<tag k="amenity" v="ferry_terminal" />
		<tag k="name" v="Nordhuglo ferjekai" />
		<tag k="ssr:stedsnr" v="978598" />
	</node>
	<node lat="59.88626388839257" lon="5.520747228628644" id="-28140">
		<tag k="man_made" v="quay" />
		<tag k="name" v="Raudholmen" />
		<tag k="place" v="locality" />
		<tag k="ssr:stedsnr" v="25262" />
	</node>
	<node lat="59.825030559480886" lon="5.519316675044635" id="-28146">
		<tag k="bridge" v="yes" />
		<tag k="layer" v="1" />
		<tag k="name" v="Tveita" />
		<tag k="ssr:stedsnr" v="46855" />
	</node>
	<node lat="59.886160987701494" lon="5.521483435148903" id="-28173">
		<tag k="amenity" v="ferry_terminal" />
		<tag k="name" v="Jektavik ferjekai" />
		<tag k="ssr:stedsnr" v="64290" />
	</node>
	<node lat="59.8340777737754" lon="5.364041671081678" id="-28214">
		<tag k="bridge" v="yes" />
		<tag k="layer" v="1" />
		<tag k="name" v="Flono" />
		<tag k="ssr:stedsnr" v="107849" />
	</node>
	<node lat="59.78828610998865" lon="5.418063891729282" id="-28215">
=======
	<node id="-605159" lat="59.7407277763" lon="5.40695833323">
		<tag k="bridge" v="yes" />
		<tag k="layer" v="1" />
		<tag k="name" v="Føyno" />
		<tag k="ssr:stedsnr" v="896869" />
	</node>
	<node id="-605283" lat="59.78828611" lon="5.41806389173">
		<tag k="bridge" v="yes" />
		<tag k="layer" v="1" />
		<tag k="name" v="Litlabø" />
		<tag k="ssr:stedsnr" v="107852" />
	</node>
	<node id="-605282" lat="59.8340777738" lon="5.36404167108">
		<tag k="bridge" v="yes" />
		<tag k="layer" v="1" />
		<tag k="name" v="Flono" />
		<tag k="ssr:stedsnr" v="107849" />
	</node>
	<node id="-605409" lat="59.8106194476" lon="5.3485444453">
		<tag k="bridge" v="yes" />
		<tag k="layer" v="1" />
		<tag k="name" v="Trulsastraumen" />
		<tag k="ssr:stedsnr" v="349872" />
	</node>
	<node id="-604709" lat="59.8862638884" lon="5.52074722863">
		<tag k="man_made" v="quay" />
		<tag k="name" v="Raudholmen" />
		<tag k="place" v="locality" />
		<tag k="ssr:stedsnr" v="25262" />
	</node>
	<node id="-604889" lat="59.8538527785" lon="5.52315555166">
		<tag k="bridge" v="yes" />
		<tag k="layer" v="1" />
		<tag k="name" v="Agdestein" />
		<tag k="ssr:stedsnr" v="350824" />
	</node>
	<node id="-605511" lat="59.7716249966" lon="5.47780277659">
		<tag k="bridge" v="yes" />
		<tag k="layer" v="1" />
		<tag k="name" v="Tveita" />
		<tag k="ssr:stedsnr" v="531864" />
	</node>
	<node id="-605510" lat="59.7756527792" lon="5.4845527803">
		<tag k="bridge" v="yes" />
		<tag k="layer" v="1" />
		<tag k="name" v="Vabakken" />
		<tag k="ssr:stedsnr" v="531862" />
	</node>
	<node id="-605509" lat="59.7878694429" lon="5.48975833955">
		<tag k="bridge" v="yes" />
		<tag k="layer" v="1" />
		<tag k="name" v="Kattatveit" />
		<tag k="ssr:stedsnr" v="531855" />
	</node>
	<node id="-605634" lat="59.7549500016" lon="5.44653610469">
		<tag k="bridge" v="yes" />
		<tag k="layer" v="1" />
		<tag k="name" v="Byrkjelandsløken" />
		<tag k="ssr:stedsnr" v="775829" />
	</node>
	<node id="-605633" lat="59.8814444404" lon="5.52312777855">
		<tag k="layer" v="-1" />
		<tag k="name" v="Klokahole" />
		<tag k="ssr:stedsnr" v="772283" />
		<tag k="tunnel" v="yes" />
	</node>
	<node id="-605244" lat="59.8861609877" lon="5.52148343515">
		<tag k="amenity" v="ferry_terminal" />
		<tag k="name" v="Jektavik ferjekai" />
		<tag k="ssr:stedsnr" v="64290" />
	</node>
	<node id="-605240" lat="59.8250305595" lon="5.51931667504">
		<tag k="bridge" v="yes" />
		<tag k="layer" v="1" />
		<tag k="name" v="Tveita" />
		<tag k="ssr:stedsnr" v="46855" />
	</node>
	<node id="-605611" lat="59.7602055557" lon="5.42182777345">
		<tag k="bridge" v="yes" />
		<tag k="layer" v="1" />
		<tag k="name" v="Valvatnavågen" />
		<tag k="ssr:stedsnr" v="652827" />
	</node>
	<node id="-604999" lat="59.8340777738" lon="5.36404167108">
		<tag k="bridge" v="yes" />
		<tag k="layer" v="1" />
		<tag k="name" v="Flono" />
		<tag k="ssr:stedsnr" v="713853" />
	</node>
	<node id="-605095" lat="59.7771611112" lon="5.39520556353">
		<tag k="bridge" v="yes" />
		<tag k="layer" v="1" />
		<tag k="name" v="Sagvåg" />
		<tag k="ssr:stedsnr" v="774860" />
	</node>
	<node id="-605094" lat="59.7385527753" lon="5.39807499208">
>>>>>>> e1d4bc35ff8a6074a6f2e91616a996b547c36f15
		<tag k="bridge" v="yes" />
		<tag k="layer" v="1" />
		<tag k="name" v="Nautøy" />
		<tag k="ssr:stedsnr" v="774857" />
	</node>
<<<<<<< HEAD
	<node lat="59.80884722075596" lon="5.3574444393086" id="-28256">
		<tag k="bridge" v="yes" />
		<tag k="layer" v="1" />
		<tag k="name" v="Petterteig" />
		<tag k="ssr:stedsnr" v="167847" />
	</node>
	<node lat="59.810619447591925" lon="5.348544445299187" id="-28359">
=======
	<node id="-605093" lat="59.7869972202" lon="5.50744443607">
		<tag k="bridge" v="yes" />
		<tag k="layer" v="1" />
		<tag k="name" v="Frugård" />
		<tag k="ssr:stedsnr" v="774854" />
	</node>
	<node id="-605723" lat="59.8668529274" lon="5.56364888328">
		<tag k="amenity" v="ferry_terminal" />
		<tag k="name" v="Nordhuglo ferjekai" />
		<tag k="ssr:stedsnr" v="978598" />
	</node>
	<node id="-605718" lat="59.7915527794" lon="5.49537500651">
>>>>>>> e1d4bc35ff8a6074a6f2e91616a996b547c36f15
		<tag k="bridge" v="yes" />
		<tag k="layer" v="1" />
		<tag k="name" v="Ådland" />
		<tag k="ssr:stedsnr" v="956848" />
	</node>
<<<<<<< HEAD
	<node lat="59.77913888602759" lon="5.499008325595109" id="-28396">
		<tag k="bridge" v="yes" />
		<tag k="layer" v="1" />
		<tag k="name" v="Hamnegata" />
		<tag k="ssr:stedsnr" v="410834" />
	</node>
	<node lat="59.74962494695088" lon="5.46596898210849" id="-28414">
		<tag k="amenity" v="ferry_terminal" />
		<tag k="name" v="Skjersholmane ferjekai" />
		<tag k="ssr:stedsnr" v="511385" />
	</node>
	<node lat="59.7756527791822" lon="5.484552780296866" id="-28442">
		<tag k="bridge" v="yes" />
		<tag k="layer" v="1" />
		<tag k="name" v="Vabakken" />
		<tag k="ssr:stedsnr" v="531862" />
	</node>
	<node lat="59.771624996560064" lon="5.477802776585995" id="-28443">
=======
	<node id="-605717" lat="59.7771249969" lon="5.49305833982">
		<tag k="bridge" v="yes" />
		<tag k="layer" v="1" />
		<tag k="name" v="Saghaugen" />
		<tag k="ssr:stedsnr" v="956845" />
	</node>
	<node id="-605716" lat="59.861361114" lon="5.52319444738">
>>>>>>> e1d4bc35ff8a6074a6f2e91616a996b547c36f15
		<tag k="bridge" v="yes" />
		<tag k="layer" v="1" />
		<tag k="name" v="Lova" />
		<tag k="ssr:stedsnr" v="956842" />
	</node>
<<<<<<< HEAD
	<node lat="59.88995277454083" lon="5.517247218957005" id="-28477">
		<tag k="bridge" v="yes" />
		<tag k="layer" v="1" />
		<tag k="name" v="Jektevik" />
		<tag k="ssr:stedsnr" v="592890" />
	</node>
	<node lat="59.898602776217594" lon="5.510005556953709" id="-28478">
		<tag k="bridge" v="yes" />
		<tag k="layer" v="1" />
		<tag k="name" v="Børtveit" />
		<tag k="ssr:stedsnr" v="593781" />
	</node>
	<node lat="59.76020555574529" lon="5.421827773446281" id="-28516">
		<tag k="bridge" v="yes" />
		<tag k="layer" v="1" />
		<tag k="name" v="Valvatnavågen" />
		<tag k="ssr:stedsnr" v="652827" />
	</node>
	<node lat="59.8340777737754" lon="5.364041671081678" id="-28520">
		<tag k="bridge" v="yes" />
		<tag k="layer" v="1" />
		<tag k="name" v="Flono" />
		<tag k="ssr:stedsnr" v="713853" />
	</node>
	<node lat="59.754950001634086" lon="5.446536104693869" id="-28548">
=======
	<node id="-605715" lat="59.7850916699" lon="5.48157221776">
		<tag k="bridge" v="yes" />
		<tag k="layer" v="1" />
		<tag k="name" v="Lønning" />
		<tag k="ssr:stedsnr" v="956840" />
	</node>
	<node id="-604945" lat="59.7923916648" lon="5.34058889686">
		<tag k="aeroway" v="aerodrome" />
		<tag k="name" v="Stord lufthamn, Sørstokken" />
		<tag k="old_name" v="Stord lufthamn" />
		<tag k="ssr:stedsnr" v="511105" />
	</node>
	<node id="-605325" lat="59.8088472208" lon="5.35744443931">
		<tag k="bridge" v="yes" />
		<tag k="layer" v="1" />
		<tag k="name" v="Petterteig" />
		<tag k="ssr:stedsnr" v="167847" />
	</node>
	<node id="-605461" lat="59.779138886" lon="5.4990083256">
>>>>>>> e1d4bc35ff8a6074a6f2e91616a996b547c36f15
		<tag k="bridge" v="yes" />
		<tag k="layer" v="1" />
		<tag k="name" v="Hamnegata" />
		<tag k="ssr:stedsnr" v="410834" />
	</node>
</osm>
