<?xml version="1.0" encoding="UTF-8"?>
<<<<<<< HEAD
<osm version="0.6" generator="osmapis">
	<node lat="59.78718055472801" lon="5.510458325208046" id="-28524">
=======
<osm generator="osmapis" version="0.6">
	<node id="-605016" lat="59.7871805547" lon="5.51045832521">
>>>>>>> e1d4bc35ff8a6074a6f2e91616a996b547c36f15
		<tag k="alt_name" v="Stord" />
		<tag k="amenity" v="place_of_worship" />
		<tag k="denomination" v="lutheran" />
		<tag k="name" v="Stord kyrkje" />
		<tag k="religion" v="christian" />
		<tag k="ssr:stedsnr" v="732384" />
	</node>
<<<<<<< HEAD
	<node lat="59.79703008903911" lon="5.538299632959893" id="-28654">
		<tag k="cemetery" v="grave" />
		<tag k="name" v="Kolerakyrkjegarden" />
		<tag k="place" v="locality" />
		<tag k="ssr:stedsnr" v="947831" />
	</node>
	<node lat="59.78240849831543" lon="5.3979149977801555" id="-28689">
=======
	<node id="-605187" lat="59.7824084983" lon="5.39791499778">
>>>>>>> e1d4bc35ff8a6074a6f2e91616a996b547c36f15
		<tag k="amenity" v="place_of_worship" />
		<tag k="denomination" v="lutheran" />
		<tag k="name" v="NysÃ¦ter kyrkje" />
		<tag k="religion" v="christian" />
		<tag k="ssr:stedsnr" v="990362" />
	</node>
</osm>
