<?xml version="1.0" encoding="UTF-8"?>
<<<<<<< HEAD
<osm version="0.6" generator="osmapis">
	<node lat="59.900047221643874" lon="5.491588884290445" id="-27644">
		<tag k="fixme" v="consider natural=peak for the most distinct mountains in the district" />
		<tag k="name" v="Åsane" />
		<tag k="natural" v="hill" />
		<tag k="place" v="locality" />
		<tag k="ssr:stedsnr" v="3688" />
	</node>
	<node lat="59.82833055716307" lon="5.464363895865661" id="-27655">
		<tag k="name" v="Tveitalia" />
		<tag k="natural" v="slope" />
		<tag k="place" v="locality" />
		<tag k="ssr:stedsnr" v="38109" />
	</node>
	<node lat="59.826278743894946" lon="5.4745758580655" id="-27656">
		<tag k="fixme" v="consider natural=peak for the most distinct mountains in the district" />
		<tag k="name" v="Kvernåsen" />
		<tag k="natural" v="hill" />
		<tag k="place" v="locality" />
		<tag k="ssr:stedsnr" v="38110" />
	</node>
	<node lat="59.82047499823553" lon="5.45047222119273" id="-27657">
		<tag k="name" v="Gjøteigen" />
		<tag k="place" v="locality" />
		<tag k="ssr:stedsnr" v="38116" />
	</node>
	<node lat="59.8460194438758" lon="5.585747226681646" id="-27659">
		<tag k="name" v="Lomatjørnshaugen" />
=======
<osm generator="osmapis" version="0.6">
	<node id="-605710" lat="59.8198444402" lon="5.59241388215">
		<tag k="name" v="Skarvaberget" />
		<tag k="natural" v="hill" />
		<tag k="place" v="locality" />
		<tag k="ssr:stedsnr" v="874168" />
	</node>
	<node id="-605704" lat="59.8205444401" lon="5.43332777207">
		<tag k="fixme" v="consider natural=peak for the most distinct mountains in the district" />
		<tag k="name" v="Mennene" />
		<tag k="natural" v="hill" />
		<tag k="place" v="locality" />
		<tag k="ssr:stedsnr" v="853939" />
	</node>
	<node id="-605703" lat="59.8691888931" lon="5.50629999926">
		<tag k="fixme" v="consider natural=peak for the most distinct mountains in the district" />
		<tag k="name" v="Agdesteinfjellet" />
		<tag k="natural" v="hill" />
		<tag k="place" v="locality" />
		<tag k="ssr:stedsnr" v="853245" />
	</node>
	<node id="-605698" lat="59.8655250046" lon="5.58890000615">
		<tag k="fixme" v="consider natural=peak for the most distinct mountains in the district" />
		<tag k="name" v="Såta" />
>>>>>>> e1d4bc35ff8a6074a6f2e91616a996b547c36f15
		<tag k="natural" v="hill" />
		<tag k="ssr:stedsnr" v="827853" />
	</node>
	<node id="-605694" lat="59.8577500019" lon="5.60617499769">
		<tag k="name" v="Brunaksla" />
		<tag k="place" v="locality" />
<<<<<<< HEAD
		<tag k="ssr:stedsnr" v="38211" />
	</node>
	<node lat="59.837174996260345" lon="5.532691663463267" id="-27660">
		<tag k="name" v="Ladberget" />
		<tag k="natural" v="hill" />
		<tag k="place" v="locality" />
		<tag k="ssr:stedsnr" v="38224" />
	</node>
	<node lat="59.803652774095596" lon="5.45543611090236" id="-27670">
		<tag k="fixme" v="consider natural=peak for the most distinct mountains in the district" />
		<tag k="name" v="Baståsen" />
		<tag k="natural" v="hill" />
		<tag k="place" v="locality" />
		<tag k="ssr:stedsnr" v="247480" />
	</node>
	<node lat="59.824533337761665" lon="5.467211108709474" id="-27671">
		<tag k="name" v="Skoltane" />
		<tag k="natural" v="hill" />
		<tag k="place" v="locality" />
		<tag k="ssr:stedsnr" v="246931" />
	</node>
	<node lat="59.87001666587284" lon="5.47619166337412" id="-27674">
		<tag k="name" v="Kudalen" />
		<tag k="natural" v="valley" />
		<tag k="place" v="locality" />
		<tag k="ssr:stedsnr" v="98060" />
	</node>
	<node lat="59.786158333873125" lon="5.392472227184038" id="-27675">
		<tag k="name" v="Lurane" />
		<tag k="place" v="locality" />
		<tag k="ssr:stedsnr" v="98068" />
	</node>
	<node lat="59.857155551330706" lon="5.50830555640027" id="-27676">
		<tag k="name" v="Rusta" />
		<tag k="natural" v="hill" />
		<tag k="place" v="locality" />
		<tag k="ssr:stedsnr" v="98084" />
	</node>
	<node lat="59.80154166406503" lon="5.413758338716239" id="-27680">
		<tag k="name" v="Dalskardalen" />
		<tag k="natural" v="valley" />
		<tag k="place" v="locality" />
		<tag k="ssr:stedsnr" v="98110" />
	</node>
	<node lat="59.81539166922162" lon="5.4401916733314115" id="-27681">
		<tag k="fixme" v="consider natural=peak for the most distinct mountains in the district" />
		<tag k="name" v="Silsåsen" />
		<tag k="natural" v="hill" />
		<tag k="place" v="locality" />
		<tag k="ssr:stedsnr" v="98114" />
	</node>
	<node lat="59.81948611377644" lon="5.469688881672728" id="-27683">
		<tag k="name" v="Høgabrotet" />
		<tag k="natural" v="hill" />
		<tag k="place" v="locality" />
		<tag k="ssr:stedsnr" v="98124" />
	</node>
	<node lat="59.8116166626012" lon="5.448852774382763" id="-27684">
		<tag k="name" v="Setralia" />
		<tag k="natural" v="slope" />
		<tag k="place" v="locality" />
		<tag k="ssr:stedsnr" v="98126" />
	</node>
	<node lat="59.807738887532096" lon="5.407402780775398" id="-27685">
		<tag k="fixme" v="consider natural=peak for the most distinct mountains in the district" />
		<tag k="name" v="Hesthammaren" />
		<tag k="natural" v="hill" />
		<tag k="place" v="locality" />
		<tag k="ssr:stedsnr" v="98129" />
	</node>
	<node lat="59.797591670273505" lon="5.450066662463572" id="-27688">
		<tag k="fixme" v="consider natural=peak for the most distinct mountains in the district" />
		<tag k="name" v="Tornesteisåsen" />
		<tag k="natural" v="hill" />
		<tag k="place" v="locality" />
		<tag k="ssr:stedsnr" v="98870" />
	</node>
	<node lat="59.77651110905747" lon="5.478702775433462" id="-27690">
		<tag k="name" v="Rekemåsen" />
		<tag k="place" v="locality" />
		<tag k="ssr:stedsnr" v="98770" />
	</node>
	<node lat="59.750911108360775" lon="5.449238888405115" id="-27694">
		<tag k="name" v="Apalhaugen" />
		<tag k="natural" v="hill" />
		<tag k="place" v="locality" />
		<tag k="ssr:stedsnr" v="98779" />
	</node>
	<node lat="59.75419722159936" lon="5.4396444435396765" id="-27695">
		<tag k="name" v="Skaråsdalen" />
		<tag k="natural" v="valley" />
		<tag k="place" v="locality" />
		<tag k="ssr:stedsnr" v="98781" />
	</node>
	<node lat="59.82240555726772" lon="5.390630559330877" id="-27696">
		<tag k="fixme" v="consider natural=peak for the most distinct mountains in the district" />
		<tag k="name" v="Holmedalsheiane" />
		<tag k="natural" v="hill" />
		<tag k="place" v="locality" />
		<tag k="ssr:stedsnr" v="99162" />
	</node>
	<node lat="59.84481111058633" lon="5.52570277129663" id="-27697">
		<tag k="name" v="Storhaugen" />
		<tag k="natural" v="hill" />
		<tag k="place" v="locality" />
		<tag k="ssr:stedsnr" v="99214" />
	</node>
	<node lat="59.868111111425904" lon="5.577122217888318" id="-27704">
		<tag k="name" v="Raudberget" />
		<tag k="natural" v="hill" />
		<tag k="place" v="locality" />
		<tag k="ssr:stedsnr" v="125323" />
	</node>
	<node lat="59.80196666766714" lon="5.421983341025239" id="-27708">
		<tag k="name" v="Olderlia" />
		<tag k="natural" v="slope" />
		<tag k="place" v="locality" />
		<tag k="ssr:stedsnr" v="159111" />
	</node>
	<node lat="59.824369442075934" lon="5.428636119336642" id="-27709">
		<tag k="name" v="Tjørnadalen" />
		<tag k="natural" v="valley" />
		<tag k="place" v="locality" />
		<tag k="ssr:stedsnr" v="159112" />
	</node>
	<node lat="59.853391667361784" lon="5.465916660262423" id="-27711">
		<tag k="name" v="Dyrdalane" />
		<tag k="natural" v="valley" />
		<tag k="place" v="locality" />
		<tag k="ssr:stedsnr" v="159050" />
	</node>
	<node lat="59.89009166743657" lon="5.465302786338533" id="-27712">
		<tag k="name" v="Bortveitkalderassen" />
		<tag k="place" v="locality" />
		<tag k="ssr:stedsnr" v="159061" />
	</node>
	<node lat="59.86408055988212" lon="5.516241662231301" id="-27713">
		<tag k="name" v="Løkene" />
		<tag k="place" v="locality" />
		<tag k="ssr:stedsnr" v="159062" />
	</node>
	<node lat="59.870336113492314" lon="5.520300006219141" id="-27714">
		<tag k="fixme" v="consider natural=peak for the most distinct mountains in the district" />
		<tag k="name" v="Bjørkåsen" />
		<tag k="natural" v="hill" />
		<tag k="place" v="locality" />
		<tag k="ssr:stedsnr" v="159065" />
	</node>
	<node lat="59.86210833422663" lon="5.521091666098896" id="-27715">
		<tag k="name" v="Bandadalen" />
		<tag k="natural" v="valley" />
		<tag k="place" v="locality" />
		<tag k="ssr:stedsnr" v="159068" />
	</node>
	<node lat="59.81888888466104" lon="5.499733336309231" id="-27720">
		<tag k="fixme" v="consider natural=peak for the most distinct mountains in the district" />
		<tag k="loc_name" v="Lundarås" />
		<tag k="name" v="Lundaråsen" />
		<tag k="natural" v="hill" />
		<tag k="place" v="locality" />
		<tag k="ssr:stedsnr" v="159199" />
	</node>
	<node lat="59.83042777457631" lon="5.434200009243217" id="-27726">
		<tag k="alt_name" v="Kløvfjellet" />
		<tag k="fixme" v="consider natural=peak for the most distinct mountains in the district" />
		<tag k="name" v="Klovfjellet" />
		<tag k="natural" v="hill" />
		<tag k="place" v="locality" />
		<tag k="ssr:stedsnr" v="186978" />
	</node>
	<node lat="59.7929583337223" lon="5.353758338280987" id="-27734">
		<tag k="fixme" v="consider natural=peak for the most distinct mountains in the district" />
		<tag k="name" v="Sjobubrotet" />
		<tag k="natural" v="hill" />
		<tag k="place" v="locality" />
		<tag k="ssr:stedsnr" v="220120" />
	</node>
	<node lat="59.80405000027998" lon="5.412997220683478" id="-27735">
		<tag k="fixme" v="consider natural=peak for the most distinct mountains in the district" />
		<tag k="name" v="Bordkleivfjellet" />
		<tag k="natural" v="hill" />
		<tag k="place" v="locality" />
		<tag k="ssr:stedsnr" v="220122" />
	</node>
	<node lat="59.79099166356467" lon="5.457097216366956" id="-27736">
		<tag k="fixme" v="consider natural=peak for the most distinct mountains in the district" />
		<tag k="name" v="Bjørkåsen" />
		<tag k="natural" v="hill" />
		<tag k="place" v="locality" />
		<tag k="ssr:stedsnr" v="219876" />
	</node>
	<node lat="59.79544444188537" lon="5.461044443314217" id="-27737">
		<tag k="name" v="Rindane" />
		<tag k="place" v="locality" />
		<tag k="ssr:stedsnr" v="219879" />
	</node>
	<node lat="59.835402776775894" lon="5.399483325268626" id="-27738">
		<tag k="name" v="Mørkavasslia" />
		<tag k="natural" v="slope" />
		<tag k="place" v="locality" />
		<tag k="ssr:stedsnr" v="220022" />
	</node>
	<node lat="59.86943610727779" lon="5.489252777617458" id="-27739">
		<tag k="name" v="Hetlesæter-kalderassen" />
		<tag k="place" v="locality" />
		<tag k="ssr:stedsnr" v="220073" />
	</node>
	<node lat="59.85660277603349" lon="5.5137194481400655" id="-27741">
		<tag k="name" v="Brøkleiva" />
		<tag k="natural" v="valley" />
		<tag k="place" v="locality" />
		<tag k="ssr:stedsnr" v="220088" />
	</node>
	<node lat="59.827166665331745" lon="5.358530559364173" id="-27742">
		<tag k="name" v="Mjåbekkebrotet" />
		<tag k="natural" v="hill" />
		<tag k="place" v="locality" />
		<tag k="ssr:stedsnr" v="220100" />
	</node>
	<node lat="59.83811388762857" lon="5.599947218344034" id="-27745">
		<tag k="fixme" v="consider natural=peak for the most distinct mountains in the district" />
		<tag k="name" v="Graveåsen" />
		<tag k="natural" v="hill" />
		<tag k="place" v="locality" />
		<tag k="ssr:stedsnr" v="220279" />
	</node>
	<node lat="59.80431111134955" lon="5.456805557421161" id="-27760">
		<tag k="name" v="Kulpalia" />
		<tag k="natural" v="slope" />
		<tag k="place" v="locality" />
		<tag k="ssr:stedsnr" v="280870" />
	</node>
	<node lat="59.80149166301049" lon="5.470236109949708" id="-27761">
		<tag k="name" v="Djupedalshaugane" />
		<tag k="natural" v="hill" />
		<tag k="place" v="locality" />
		<tag k="ssr:stedsnr" v="280874" />
	</node>
	<node lat="59.79059444084907" lon="5.395036109765704" id="-27762">
		<tag k="name" v="Grønedalane" />
		<tag k="natural" v="valley" />
		<tag k="place" v="locality" />
		<tag k="ssr:stedsnr" v="281099" />
	</node>
	<node lat="59.84153889301237" lon="5.530980559817375" id="-27765">
		<tag k="name" v="Brestehaugen" />
		<tag k="natural" v="hill" />
		<tag k="place" v="locality" />
		<tag k="ssr:stedsnr" v="281226" />
	</node>
	<node lat="59.839680552978855" lon="5.5004944496165695" id="-27766">
		<tag k="name" v="Eskelandslia" />
		<tag k="natural" v="slope" />
=======
		<tag k="ssr:stedsnr" v="827250" />
	</node>
	<node id="-605690" lat="59.8211499981" lon="5.50618333596">
		<tag k="fixme" v="consider natural=peak for the most distinct mountains in the district" />
		<tag k="name" v="Lyåsen" />
		<tag k="natural" v="hill" />
		<tag k="place" v="locality" />
		<tag k="ssr:stedsnr" v="827196" />
	</node>
	<node id="-605689" lat="59.8402166691" lon="5.4584972188">
		<tag k="name" v="Steingjelshædda" />
		<tag k="natural" v="gorge" />
		<tag k="ssr:stedsnr" v="827172" />
	</node>
	<node id="-605688" lat="59.8445916678" lon="5.46113055421">
		<tag k="name" v="Tysseskaret" />
		<tag k="natural" v="hill" />
		<tag k="place" v="locality" />
		<tag k="ssr:stedsnr" v="827171" />
	</node>
	<node id="-605687" lat="59.8441833374" lon="5.44670833225">
		<tag k="name" v="Ramnaskolten" />
		<tag k="natural" v="hill" />
		<tag k="place" v="locality" />
		<tag k="ssr:stedsnr" v="827168" />
	</node>
	<node id="-605686" lat="59.8203916706" lon="5.40851389227">
		<tag k="name" v="Midthaugen" />
		<tag k="natural" v="hill" />
		<tag k="place" v="locality" />
		<tag k="ssr:stedsnr" v="827143" />
	</node>
	<node id="-605685" lat="59.7595333301" lon="5.41249999581">
		<tag k="name" v="Sylvikehaugane" />
		<tag k="natural" v="hill" />
		<tag k="place" v="locality" />
		<tag k="ssr:stedsnr" v="827141" />
	</node>
	<node id="-605684" lat="59.7983194485" lon="5.39593611405">
		<tag k="name" v="Søre Grova" />
		<tag k="natural" v="hill" />
		<tag k="place" v="locality" />
		<tag k="ssr:stedsnr" v="827119" />
	</node>
	<node id="-605683" lat="59.794069444" lon="5.4022722295">
		<tag k="name" v="Skjevlelurane" />
		<tag k="natural" v="hill" />
		<tag k="place" v="locality" />
		<tag k="ssr:stedsnr" v="827118" />
	</node>
	<node id="-605682" lat="59.7959527765" lon="5.37902500145">
		<tag k="name" v="Hillersleitet" />
		<tag k="natural" v="hill" />
		<tag k="place" v="locality" />
		<tag k="ssr:stedsnr" v="827114" />
	</node>
	<node id="-605680" lat="59.8045194466" lon="5.34191666725">
		<tag k="fixme" v="consider natural=peak for the most distinct mountains in the district" />
		<tag k="name" v="Straumheiane" />
		<tag k="natural" v="hill" />
		<tag k="place" v="locality" />
		<tag k="ssr:stedsnr" v="827085" />
	</node>
	<node id="-605674" lat="59.7830361137" lon="5.39862222307">
		<tag k="name" v="Krekahaugane" />
		<tag k="natural" v="hill" />
		<tag k="place" v="locality" />
		<tag k="ssr:stedsnr" v="827053" />
	</node>
	<node id="-605673" lat="59.838022226" lon="5.38523610713">
		<tag k="name" v="Uvegbotn" />
		<tag k="natural" v="valley" />
		<tag k="place" v="locality" />
		<tag k="ssr:stedsnr" v="827049" />
	</node>
	<node id="-605672" lat="59.8676527745" lon="5.45741666705">
		<tag k="name" v="Litle Tjørnadalen" />
		<tag k="natural" v="valley" />
		<tag k="place" v="locality" />
		<tag k="ssr:stedsnr" v="827048" />
	</node>
	<node id="-605670" lat="59.766802777" lon="5.41018888571">
		<tag k="fixme" v="consider natural=peak for the most distinct mountains in the district" />
		<tag k="name" v="Åsen" />
		<tag k="natural" v="hill" />
		<tag k="place" v="locality" />
		<tag k="ssr:stedsnr" v="827031" />
	</node>
	<node id="-605669" lat="59.8388944455" lon="5.46586944541">
		<tag k="name" v="Steingjelsdalen" />
		<tag k="natural" v="valley" />
		<tag k="place" v="locality" />
		<tag k="ssr:stedsnr" v="826938" />
	</node>
	<node id="-605668" lat="59.7693027746" lon="5.42991666823">
		<tag k="name" v="Hilgjesgjerdet" />
		<tag k="place" v="locality" />
		<tag k="ssr:stedsnr" v="826871" />
	</node>
	<node id="-605663" lat="59.7949305551" lon="5.50195000358">
		<tag k="name" v="Storhaug" />
		<tag k="natural" v="hill" />
		<tag k="place" v="locality" />
		<tag k="ssr:stedsnr" v="826817" />
	</node>
	<node id="-605660" lat="59.7525722249" lon="5.47080554862">
		<tag k="name" v="Langehaugen" />
		<tag k="natural" v="hill" />
		<tag k="place" v="locality" />
		<tag k="ssr:stedsnr" v="826782" />
	</node>
	<node id="-605658" lat="59.773847225" lon="5.45920277811">
		<tag k="name" v="Nordre Skarhaugen" />
		<tag k="natural" v="hill" />
		<tag k="place" v="locality" />
		<tag k="ssr:stedsnr" v="826755" />
	</node>
	<node id="-605657" lat="59.7751749961" lon="5.45711389209">
		<tag k="name" v="Dovsteinehaugen" />
		<tag k="natural" v="hill" />
		<tag k="place" v="locality" />
		<tag k="ssr:stedsnr" v="826753" />
	</node>
	<node id="-605656" lat="59.8890750002" lon="5.49765278571">
		<tag k="name" v="Steinahaugen" />
		<tag k="natural" v="hill" />
		<tag k="place" v="locality" />
		<tag k="ssr:stedsnr" v="826247" />
	</node>
	<node id="-605655" lat="59.8957777742" lon="5.48912500578">
		<tag k="name" v="Bortveitdalen" />
		<tag k="natural" v="hill" />
		<tag k="place" v="locality" />
		<tag k="ssr:stedsnr" v="814307" />
	</node>
	<node id="-605646" lat="59.8491249965" lon="5.52955555332">
		<tag k="name" v="Slettedalen" />
		<tag k="natural" v="valley" />
		<tag k="place" v="locality" />
		<tag k="ssr:stedsnr" v="793308" />
	</node>
	<node id="-605643" lat="59.8639972197" lon="5.47274722585">
		<tag k="fixme" v="consider natural=peak for the most distinct mountains in the district" />
		<tag k="name" v="Skorafjellet" />
		<tag k="natural" v="hill" />
		<tag k="place" v="locality" />
		<tag k="ssr:stedsnr" v="793263" />
	</node>
	<node id="-605635" lat="59.7727666684" lon="5.51023610563">
		<tag k="name" v="Store Gullberg" />
		<tag k="natural" v="hill" />
		<tag k="place" v="locality" />
		<tag k="ssr:stedsnr" v="780638" />
	</node>
	<node id="-605632" lat="59.8551138915" lon="5.57668055208">
		<tag k="fixme" v="consider natural=peak for the most distinct mountains in the district" />
		<tag k="name" v="Midtfjellet" />
		<tag k="natural" v="hill" />
		<tag k="place" v="locality" />
		<tag k="ssr:stedsnr" v="766821" />
	</node>
	<node id="-605629" lat="59.8703965482" lon="5.60387014188">
		<tag k="name" v="Sevdalen" />
		<tag k="natural" v="valley" />
		<tag k="place" v="locality" />
		<tag k="ssr:stedsnr" v="766214" />
	</node>
	<node id="-605628" lat="59.8597666711" lon="5.41274722471">
		<tag k="name" v="Gavlane" />
		<tag k="place" v="locality" />
		<tag k="ssr:stedsnr" v="766046" />
	</node>
	<node id="-605627" lat="59.8340003235" lon="5.53176995708">
		<tag k="name" v="Hundaskora" />
		<tag k="place" v="locality" />
		<tag k="ssr:stedsnr" v="766207" />
	</node>
	<node id="-605626" lat="59.8396194443" lon="5.57832777872">
		<tag k="name" v="Morkavasshaugen" />
		<tag k="natural" v="hill" />
		<tag k="place" v="locality" />
		<tag k="ssr:stedsnr" v="766197" />
	</node>
	<node id="-605625" lat="59.8434666664" lon="5.58273334089">
		<tag k="name" v="Niphaugen" />
		<tag k="natural" v="hill" />
		<tag k="place" v="locality" />
		<tag k="ssr:stedsnr" v="766194" />
	</node>
	<node id="-605620" lat="59.7562222234" lon="5.44273889313">
		<tag k="fixme" v="consider natural=peak for the most distinct mountains in the district" />
		<tag k="name" v="Hatlandsåsen" />
		<tag k="natural" v="hill" />
		<tag k="place" v="locality" />
		<tag k="ssr:stedsnr" v="765774" />
	</node>
	<node id="-605617" lat="59.7718249981" lon="5.45295555725">
		<tag k="name" v="Røyrtjørnebrotet" />
		<tag k="natural" v="hill" />
		<tag k="place" v="locality" />
		<tag k="ssr:stedsnr" v="765758" />
	</node>
	<node id="-605615" lat="59.8805611106" lon="5.51793888844">
		<tag k="name" v="Ramnaskukken" />
		<tag k="natural" v="hill" />
		<tag k="place" v="locality" />
		<tag k="ssr:stedsnr" v="765223" />
	</node>
	<node id="-605610" lat="59.7948888895" lon="5.49833332746">
		<tag k="name" v="Ådlandshaugen" />
		<tag k="natural" v="hill" />
		<tag k="place" v="locality" />
		<tag k="ssr:stedsnr" v="644845" />
	</node>
	<node id="-605609" lat="59.864419447" lon="5.57053056388">
		<tag k="name" v="Småhaugane" />
		<tag k="natural" v="hill" />
		<tag k="place" v="locality" />
		<tag k="ssr:stedsnr" v="644832" />
	</node>
	<node id="-605607" lat="59.8556333341" lon="5.58630833391">
		<tag k="fixme" v="consider natural=peak for the most distinct mountains in the district" />
		<tag k="name" v="Fløyfjellet" />
		<tag k="natural" v="hill" />
		<tag k="place" v="locality" />
		<tag k="ssr:stedsnr" v="644829" />
	</node>
	<node id="-605606" lat="59.8650527785" lon="5.58167777327">
		<tag k="name" v="Hestasmetet" />
		<tag k="natural" v="hill" />
		<tag k="place" v="locality" />
		<tag k="ssr:stedsnr" v="644826" />
	</node>
	<node id="-605602" lat="59.8739138902" lon="5.59553055265">
		<tag k="fixme" v="consider natural=peak for the most distinct mountains in the district" />
		<tag k="name" v="Utføro" />
		<tag k="natural" v="hill" />
		<tag k="ssr:stedsnr" v="644215" />
	</node>
	<node id="-605601" lat="59.8454249987" lon="5.50869443752">
		<tag k="name" v="Grovalia" />
		<tag k="natural" v="slope" />
		<tag k="place" v="locality" />
		<tag k="ssr:stedsnr" v="644212" />
	</node>
	<node id="-605599" lat="59.8457916657" lon="5.57986388449">
		<tag k="name" v="Moskamyrshaugen" />
		<tag k="natural" v="hill" />
		<tag k="place" v="locality" />
		<tag k="ssr:stedsnr" v="644199" />
	</node>
	<node id="-605597" lat="59.8242583339" lon="5.52649165847">
		<tag k="name" v="Haugen" />
		<tag k="natural" v="hill" />
		<tag k="place" v="locality" />
		<tag k="ssr:stedsnr" v="644163" />
	</node>
	<node id="-605596" lat="59.8248611143" lon="5.37610278168">
		<tag k="name" v="Nordre Ellingsdalen" />
		<tag k="natural" v="valley" />
		<tag k="place" v="locality" />
		<tag k="ssr:stedsnr" v="644144" />
	</node>
	<node id="-605594" lat="59.8074972261" lon="5.38084167411">
		<tag k="name" v="Nedstedalen" />
		<tag k="natural" v="valley" />
>>>>>>> e1d4bc35ff8a6074a6f2e91616a996b547c36f15
		<tag k="place" v="locality" />
		<tag k="ssr:stedsnr" v="644124" />
	</node>
<<<<<<< HEAD
	<node lat="59.82070000468502" lon="5.510308341436636" id="-27767">
		<tag k="name" v="Hundshilleren" />
		<tag k="place" v="locality" />
		<tag k="ssr:stedsnr" v="281169" />
	</node>
	<node lat="59.88688610788674" lon="5.485544446662876" id="-27769">
		<tag k="fixme" v="consider natural=peak for the most distinct mountains in the district" />
		<tag k="name" v="Nipen" />
		<tag k="natural" v="hill" />
		<tag k="place" v="locality" />
		<tag k="ssr:stedsnr" v="462195" />
	</node>
	<node lat="59.86170277504754" lon="5.421186120265126" id="-27771">
		<tag k="name" v="Helledalen" />
		<tag k="natural" v="valley" />
		<tag k="place" v="locality" />
		<tag k="ssr:stedsnr" v="462054" />
	</node>
	<node lat="59.822363891453804" lon="5.575241661520859" id="-27772">
		<tag k="name" v="Tømmerskotet" />
		<tag k="place" v="locality" />
		<tag k="ssr:stedsnr" v="462087" />
	</node>
	<node lat="59.7991277801519" lon="5.364566667797074" id="-27773">
		<tag k="fixme" v="consider natural=peak for the most distinct mountains in the district" />
		<tag k="name" v="Heia" />
		<tag k="natural" v="hill" />
		<tag k="place" v="locality" />
		<tag k="ssr:stedsnr" v="462097" />
	</node>
	<node lat="59.78357500468059" lon="5.341811119417511" id="-27774">
		<tag k="name" v="Kultane" />
		<tag k="place" v="locality" />
		<tag k="ssr:stedsnr" v="462098" />
	</node>
	<node lat="59.78783888894727" lon="5.340169452978299" id="-27776">
		<tag k="fixme" v="consider natural=peak for the most distinct mountains in the district" />
		<tag k="name" v="Apalvikeåsen" />
		<tag k="natural" v="hill" />
		<tag k="place" v="locality" />
		<tag k="ssr:stedsnr" v="462103" />
	</node>
	<node lat="59.79357777775459" lon="5.528777780177371" id="-27778">
		<tag k="name" v="Vardhaug" />
		<tag k="natural" v="hill" />
		<tag k="place" v="locality" />
		<tag k="ssr:stedsnr" v="462840" />
	</node>
	<node lat="59.80367222497162" lon="5.460541668747012" id="-27785">
		<tag k="fixme" v="consider natural=peak for the most distinct mountains in the district" />
		<tag k="name" v="Heiane" />
		<tag k="natural" v="hill" />
		<tag k="place" v="locality" />
		<tag k="ssr:stedsnr" v="462877" />
	</node>
	<node lat="59.84486944830201" lon="5.477325004278018" id="-27788">
		<tag k="name" v="Ormahaugen" />
		<tag k="natural" v="hill" />
		<tag k="place" v="locality" />
		<tag k="ssr:stedsnr" v="463131" />
	</node>
	<node lat="59.81533055818446" lon="5.380022218382585" id="-27789">
		<tag k="name" v="Hansalopet" />
		<tag k="natural" v="hill" />
		<tag k="place" v="locality" />
		<tag k="ssr:stedsnr" v="463134" />
	</node>
	<node lat="59.83494444702817" lon="5.527055549623283" id="-27790">
		<tag k="fixme" v="consider natural=peak for the most distinct mountains in the district" />
		<tag k="name" v="Buvikåsen" />
		<tag k="natural" v="hill" />
		<tag k="place" v="locality" />
		<tag k="ssr:stedsnr" v="463186" />
	</node>
	<node lat="59.84455833160355" lon="5.520658340731449" id="-27791">
		<tag k="fixme" v="consider natural=peak for the most distinct mountains in the district" />
		<tag k="name" v="Høgåsen" />
		<tag k="natural" v="hill" />
		<tag k="place" v="locality" />
		<tag k="ssr:stedsnr" v="463189" />
	</node>
	<node lat="59.80030833450736" lon="5.3734499988080175" id="-27796">
		<tag k="alt_name" v="Såta" />
		<tag k="name" v="Dyviksåta" />
		<tag k="natural" v="hill" />
		<tag k="place" v="locality" />
		<tag k="ssr:stedsnr" v="307524" />
	</node>
	<node lat="59.77330555314903" lon="5.466741666719741" id="-27804">
		<tag k="fixme" v="consider natural=peak for the most distinct mountains in the district" />
		<tag k="name" v="Kollane" />
		<tag k="natural" v="hill" />
		<tag k="place" v="locality" />
		<tag k="ssr:stedsnr" v="340749" />
	</node>
	<node lat="59.77288889046316" lon="5.453541664928744" id="-27805">
		<tag k="name" v="Røyrnedalen" />
		<tag k="natural" v="valley" />
		<tag k="place" v="locality" />
		<tag k="ssr:stedsnr" v="340757" />
	</node>
	<node lat="59.77273333591806" lon="5.502405557375297" id="-27807">
		<tag k="name" v="Gullskar" />
		<tag k="natural" v="hill" />
		<tag k="place" v="locality" />
		<tag k="ssr:stedsnr" v="340847" />
	</node>
	<node lat="59.82157222073668" lon="5.456336110738454" id="-27808">
		<tag k="name" v="Lodda" />
		<tag k="place" v="locality" />
		<tag k="ssr:stedsnr" v="341105" />
	</node>
	<node lat="59.83738889327606" lon="5.4409111100389005" id="-27809">
		<tag k="name" v="Kløv" />
		<tag k="place" v="locality" />
		<tag k="ssr:stedsnr" v="341143" />
	</node>
	<node lat="59.833147221573626" lon="5.4715888837485425" id="-27810">
		<tag k="alt_name" v="Rossekleiva" />
		<tag k="loc_name" v="Russekleiv" />
		<tag k="name" v="Rossekleiv" />
		<tag k="place" v="locality" />
		<tag k="ssr:stedsnr" v="341148" />
	</node>
	<node lat="59.87770277657077" lon="5.468969450957977" id="-27812">
		<tag k="name" v="Midtrindo" />
		<tag k="natural" v="hill" />
		<tag k="place" v="locality" />
		<tag k="ssr:stedsnr" v="341057" />
	</node>
	<node lat="59.83876389145149" lon="5.595319439704074" id="-27815">
		<tag k="name" v="Hundastegshaugen" />
		<tag k="natural" v="hill" />
		<tag k="place" v="locality" />
		<tag k="ssr:stedsnr" v="341249" />
	</node>
	<node lat="59.845641670786115" lon="5.595672228542021" id="-27816">
		<tag k="name" v="Høgehaugen" />
		<tag k="natural" v="hill" />
		<tag k="place" v="locality" />
		<tag k="ssr:stedsnr" v="341250" />
	</node>
	<node lat="59.91181111299885" lon="5.480702777843116" id="-27817">
		<tag k="name" v="Brunene" />
		<tag k="natural" v="hill" />
		<tag k="place" v="locality" />
		<tag k="ssr:stedsnr" v="341254" />
	</node>
	<node lat="59.806830554526734" lon="5.371444438604826" id="-27827">
		<tag k="name" v="Petarteigsdalen" />
		<tag k="natural" v="valley" />
		<tag k="place" v="locality" />
		<tag k="ssr:stedsnr" v="401786" />
	</node>
	<node lat="59.86236666865517" lon="5.571633336578181" id="-27828">
		<tag k="name" v="Spannstighaugane" />
		<tag k="natural" v="hill" />
		<tag k="place" v="locality" />
		<tag k="ssr:stedsnr" v="401792" />
	</node>
	<node lat="59.86384444662521" lon="5.590619441400265" id="-27829">
		<tag k="name" v="Furedalen" />
		<tag k="natural" v="valley" />
		<tag k="place" v="locality" />
		<tag k="ssr:stedsnr" v="401793" />
	</node>
	<node lat="59.80816111029871" lon="5.382216660551314" id="-27830">
		<tag k="fixme" v="consider natural=peak for the most distinct mountains in the district" />
		<tag k="name" v="Åsen" />
		<tag k="natural" v="hill" />
		<tag k="place" v="locality" />
		<tag k="ssr:stedsnr" v="402108" />
	</node>
	<node lat="59.803488891968925" lon="5.390008336666759" id="-27831">
		<tag k="fixme" v="consider natural=peak for the most distinct mountains in the district" />
		<tag k="name" v="Rutleåsen" />
		<tag k="natural" v="hill" />
		<tag k="place" v="locality" />
		<tag k="ssr:stedsnr" v="402109" />
	</node>
	<node lat="59.79662499869916" lon="5.405500006127732" id="-27832">
		<tag k="name" v="Bjørkesmoget" />
		<tag k="place" v="locality" />
		<tag k="ssr:stedsnr" v="402112" />
	</node>
	<node lat="59.7718888926524" lon="5.503652772094523" id="-27846">
		<tag k="alt_name" v="Litla Gullberg" />
		<tag k="name" v="Gullberg" />
		<tag k="natural" v="hill" />
		<tag k="place" v="locality" />
		<tag k="ssr:stedsnr" v="428383" />
	</node>
	<node lat="59.789911115293705" lon="5.3800194460384105" id="-27847">
		<tag k="fixme" v="consider natural=peak for the most distinct mountains in the district" />
		<tag k="name" v="Altersfjell" />
		<tag k="natural" v="hill" />
		<tag k="place" v="locality" />
		<tag k="ssr:stedsnr" v="428474" />
	</node>
	<node lat="59.78493055584181" lon="5.3877999913361325" id="-27848">
		<tag k="fixme" v="consider natural=peak for the most distinct mountains in the district" />
		<tag k="name" v="Utslettefjellet" />
		<tag k="natural" v="hill" />
		<tag k="place" v="locality" />
		<tag k="ssr:stedsnr" v="428475" />
	</node>
	<node lat="59.756108330101824" lon="5.418491674700879" id="-27853">
		<tag k="fixme" v="consider natural=peak for the most distinct mountains in the district" />
		<tag k="name" v="Geitåsen" />
		<tag k="natural" v="hill" />
		<tag k="place" v="locality" />
		<tag k="ssr:stedsnr" v="429578" />
	</node>
	<node lat="59.85765555543738" lon="5.496449996472768" id="-27857">
		<tag k="fixme" v="consider natural=peak for the most distinct mountains in the district" />
		<tag k="name" v="Kalderåsen" />
		<tag k="natural" v="hill" />
		<tag k="place" v="locality" />
		<tag k="ssr:stedsnr" v="671298" />
	</node>
	<node lat="59.85845277874271" lon="5.588586112941141" id="-27858">
		<tag k="fixme" v="consider natural=peak for the most distinct mountains in the district" />
		<tag k="name" v="Høgafjellet" />
		<tag k="natural" v="hill" />
		<tag k="place" v="locality" />
		<tag k="ssr:stedsnr" v="671300" />
	</node>
	<node lat="59.82296388686574" lon="5.5887722154893344" id="-27868">
		<tag k="name" v="Skjønhammaren" />
		<tag k="natural" v="hill" />
		<tag k="place" v="locality" />
		<tag k="ssr:stedsnr" v="671365" />
	</node>
	<node lat="59.82960278162838" lon="5.378313885991477" id="-27870">
		<tag k="alt_name" v="Sæteråsane" />
		<tag k="fixme" v="consider natural=peak for the most distinct mountains in the district" />
		<tag k="name" v="Sætråsen" />
		<tag k="natural" v="hill" />
		<tag k="place" v="locality" />
		<tag k="ssr:stedsnr" v="671982" />
	</node>
	<node lat="59.852802774005845" lon="5.4730277772457905" id="-27872">
		<tag k="name" v="Vardabrotet" />
		<tag k="natural" v="hill" />
		<tag k="place" v="locality" />
		<tag k="ssr:stedsnr" v="462060" />
	</node>
	<node lat="59.8594416655269" lon="5.4841555623767455" id="-27873">
		<tag k="name" v="Fossabrekka" />
		<tag k="natural" v="valley" />
		<tag k="place" v="locality" />
		<tag k="ssr:stedsnr" v="462067" />
	</node>
	<node lat="59.81850833599599" lon="5.463788890661082" id="-27875">
		<tag k="name" v="Stemmelia" />
		<tag k="natural" v="slope" />
		<tag k="place" v="locality" />
		<tag k="ssr:stedsnr" v="462111" />
	</node>
	<node lat="59.908158337144414" lon="5.480533332530209" id="-27876">
		<tag k="name" v="Såtedalen" />
		<tag k="natural" v="valley" />
		<tag k="place" v="locality" />
		<tag k="ssr:stedsnr" v="462829" />
	</node>
	<node lat="59.7867200861466" lon="5.5106529901383" id="-27877">
		<tag k="name" v="Kyrkjeberget" />
		<tag k="natural" v="hill" />
		<tag k="place" v="locality" />
		<tag k="ssr:stedsnr" v="462857" />
	</node>
	<node lat="59.755891669710145" lon="5.409244440126689" id="-27878">
		<tag k="name" v="Midthaugen" />
		<tag k="natural" v="hill" />
		<tag k="place" v="locality" />
		<tag k="ssr:stedsnr" v="463121" />
	</node>
	<node lat="59.87170782240792" lon="5.602068868050175" id="-27879">
		<tag k="name" v="Lyraberget" />
		<tag k="natural" v="hill" />
		<tag k="place" v="locality" />
		<tag k="ssr:stedsnr" v="463205" />
	</node>
	<node lat="59.81485826095654" lon="5.4967937324735425" id="-27880">
		<tag k="fixme" v="consider natural=peak for the most distinct mountains in the district" />
		<tag k="loc_name" v="Hansåsen" />
		<tag k="name" v="Hundsåsen" />
		<tag k="natural" v="hill" />
		<tag k="place" v="locality" />
		<tag k="ssr:stedsnr" v="463162" />
	</node>
	<node lat="59.77661389133333" lon="5.473786112338168" id="-27894">
		<tag k="name" v="Rindahaugane" />
		<tag k="natural" v="hill" />
		<tag k="place" v="locality" />
		<tag k="ssr:stedsnr" v="522759" />
	</node>
	<node lat="59.789333331744416" lon="5.35568611616774" id="-27899">
		<tag k="name" v="Folkarhaugen" />
		<tag k="natural" v="hill" />
		<tag k="place" v="locality" />
		<tag k="ssr:stedsnr" v="523115" />
	</node>
	<node lat="59.83590555398152" lon="5.464283331863623" id="-27900">
		<tag k="name" v="Litla Steingjelshædda" />
		<tag k="natural" v="gorge" />
		<tag k="ssr:stedsnr" v="523167" />
	</node>
	<node lat="59.86053888875338" lon="5.504002786089355" id="-27901">
		<tag k="name" v="Hetlesæterbrunene" />
		<tag k="natural" v="hill" />
		<tag k="place" v="locality" />
		<tag k="ssr:stedsnr" v="523059" />
	</node>
	<node lat="59.86483611217421" lon="5.434925008086816" id="-27902">
		<tag k="name" v="Sørliknatten" />
		<tag k="natural" v="hill" />
		<tag k="place" v="locality" />
		<tag k="ssr:stedsnr" v="523065" />
	</node>
	<node lat="59.79163055422315" lon="5.413486105097688" id="-27916">
		<tag k="name" v="Andreashaugen" />
		<tag k="natural" v="hill" />
		<tag k="place" v="locality" />
		<tag k="ssr:stedsnr" v="583111" />
	</node>
	<node lat="59.88523055632719" lon="5.516238897585908" id="-27918">
		<tag k="name" v="Middagsskaret" />
		<tag k="natural" v="hill" />
		<tag k="place" v="locality" />
		<tag k="ssr:stedsnr" v="583214" />
	</node>
	<node lat="59.78667777572918" lon="5.471991664107281" id="-27919">
		<tag k="name" v="Lindeberget" />
		<tag k="natural" v="hill" />
		<tag k="place" v="locality" />
		<tag k="ssr:stedsnr" v="583746" />
	</node>
	<node lat="59.754202780670084" lon="5.454338888594828" id="-27921">
		<tag k="name" v="Brakahaugen" />
		<tag k="natural" v="hill" />
		<tag k="place" v="locality" />
		<tag k="ssr:stedsnr" v="583791" />
	</node>
	<node lat="59.81210555446748" lon="5.382797213818984" id="-27924">
		<tag k="name" v="Øvstedalen" />
		<tag k="natural" v="valley" />
		<tag k="place" v="locality" />
		<tag k="ssr:stedsnr" v="584155" />
	</node>
	<node lat="59.834522220273" lon="5.578616671034592" id="-27925">
		<tag k="name" v="Urdahaugen" />
		<tag k="natural" v="hill" />
		<tag k="place" v="locality" />
		<tag k="ssr:stedsnr" v="584205" />
	</node>
	<node lat="59.81196666320436" lon="5.4421666657768135" id="-27935">
		<tag k="fixme" v="consider natural=peak for the most distinct mountains in the district" />
		<tag k="name" v="Sætraåsen" />
		<tag k="natural" v="hill" />
		<tag k="place" v="locality" />
		<tag k="ssr:stedsnr" v="610582" />
	</node>
	<node lat="59.903258335832575" lon="5.473163891111276" id="-27938">
		<tag k="name" v="Såtedalen" />
		<tag k="natural" v="valley" />
		<tag k="place" v="locality" />
		<tag k="ssr:stedsnr" v="705049" />
	</node>
	<node lat="59.85548888549454" lon="5.496269440117169" id="-27941">
		<tag k="name" v="Horsehuset" />
		<tag k="natural" v="hill" />
		<tag k="place" v="locality" />
		<tag k="ssr:stedsnr" v="705093" />
	</node>
	<node lat="59.8364694405686" lon="5.4481499944395875" id="-27942">
		<tag k="name" v="Trollahola" />
		<tag k="natural" v="valley" />
		<tag k="place" v="locality" />
		<tag k="ssr:stedsnr" v="705184" />
	</node>
	<node lat="59.80213055211988" lon="5.3756222238231395" id="-27943">
		<tag k="name" v="Såtedalane" />
		<tag k="natural" v="valley" />
		<tag k="place" v="locality" />
		<tag k="ssr:stedsnr" v="705146" />
	</node>
	<node lat="59.843163891564" lon="5.4857555502466395" id="-27944">
		<tag k="name" v="Husasmoget" />
		<tag k="natural" v="valley" />
		<tag k="place" v="locality" />
		<tag k="ssr:stedsnr" v="705230" />
	</node>
	<node lat="59.85680000381588" lon="5.601622215845316" id="-27945">
		<tag k="name" v="Renhaugen" />
		<tag k="natural" v="hill" />
		<tag k="place" v="locality" />
		<tag k="ssr:stedsnr" v="705238" />
	</node>
	<node lat="59.83509444888688" lon="5.459125005004495" id="-27949">
		<tag k="name" v="Beinadalen" />
		<tag k="natural" v="valley" />
		<tag k="place" v="locality" />
		<tag k="ssr:stedsnr" v="705190" />
	</node>
	<node lat="59.82826666689984" lon="5.52767778468354" id="-27952">
		<tag k="name" v="Ladberget" />
		<tag k="natural" v="hill" />
		<tag k="place" v="locality" />
		<tag k="ssr:stedsnr" v="705199" />
	</node>
	<node lat="59.7922722261398" lon="5.450574993020528" id="-27954">
		<tag k="fixme" v="consider natural=peak for the most distinct mountains in the district" />
		<tag k="name" v="Klovsteinsåsen" />
		<tag k="natural" v="hill" />
		<tag k="place" v="locality" />
		<tag k="ssr:stedsnr" v="705880" />
	</node>
	<node lat="59.76830555735692" lon="5.45479722003569" id="-27956">
		<tag k="fixme" v="consider natural=peak for the most distinct mountains in the district" />
		<tag k="name" v="Basåsen" />
		<tag k="natural" v="hill" />
		<tag k="place" v="locality" />
		<tag k="ssr:stedsnr" v="705886" />
	</node>
	<node lat="59.756097221329924" lon="5.446477774772396" id="-27957">
		<tag k="name" v="Hatlandsdalen" />
		<tag k="natural" v="valley" />
		<tag k="place" v="locality" />
		<tag k="ssr:stedsnr" v="643774" />
	</node>
	<node lat="59.74981666785857" lon="5.461124999134933" id="-27960">
		<tag k="name" v="Alnavåghaugen" />
		<tag k="natural" v="hill" />
		<tag k="place" v="locality" />
		<tag k="ssr:stedsnr" v="643783" />
	</node>
	<node lat="59.77551666857531" lon="5.502377779865555" id="-27962">
		<tag k="name" v="Skotaberget" />
		<tag k="natural" v="hill" />
		<tag k="place" v="locality" />
		<tag k="ssr:stedsnr" v="643807" />
	</node>
	<node lat="59.85354166422942" lon="5.606375005281527" id="-27965">
		<tag k="name" v="Brunene" />
		<tag k="place" v="locality" />
		<tag k="ssr:stedsnr" v="643815" />
	</node>
	<node lat="59.86505277853322" lon="5.5816777732706555" id="-27974">
		<tag k="name" v="Hestasmetet" />
		<tag k="natural" v="hill" />
		<tag k="place" v="locality" />
		<tag k="ssr:stedsnr" v="644826" />
	</node>
	<node lat="59.85563333405954" lon="5.5863083339090265" id="-27975">
		<tag k="fixme" v="consider natural=peak for the most distinct mountains in the district" />
		<tag k="name" v="Fløyfjellet" />
		<tag k="natural" v="hill" />
		<tag k="place" v="locality" />
		<tag k="ssr:stedsnr" v="644829" />
	</node>
	<node lat="59.782058329162695" lon="5.4694805581520125" id="-27978">
		<tag k="fixme" v="consider natural=peak for the most distinct mountains in the district" />
		<tag k="name" v="Landåsen" />
		<tag k="natural" v="hill" />
		<tag k="place" v="locality" />
		<tag k="ssr:stedsnr" v="671367" />
	</node>
	<node lat="59.813055559229504" lon="5.42989721789867" id="-27983">
		<tag k="name" v="Bjørnastegen" />
		<tag k="place" v="locality" />
		<tag k="ssr:stedsnr" v="705022" />
	</node>
	<node lat="59.81752222307565" lon="5.589552776772176" id="-27985">
		<tag k="name" v="Svoberget" />
		<tag k="natural" v="hill" />
		<tag k="place" v="locality" />
		<tag k="ssr:stedsnr" v="705108" />
	</node>
	<node lat="59.84009166920897" lon="5.585172220935132" id="-27987">
		<tag k="name" v="Nonshaugen" />
		<tag k="natural" v="hill" />
		<tag k="place" v="locality" />
		<tag k="ssr:stedsnr" v="705213" />
	</node>
	<node lat="59.784236114106015" lon="5.4368111094414155" id="-27991">
		<tag k="name" v="Osalopet" />
		<tag k="place" v="locality" />
		<tag k="ssr:stedsnr" v="705808" />
	</node>
	<node lat="59.770397223042266" lon="5.478486109513227" id="-27992">
		<tag k="name" v="Tveitahaugen" />
		<tag k="natural" v="hill" />
		<tag k="place" v="locality" />
		<tag k="ssr:stedsnr" v="705809" />
	</node>
	<node lat="59.76379444321036" lon="5.430427773360413" id="-27993">
		<tag k="fixme" v="consider natural=peak for the most distinct mountains in the district" />
		<tag k="name" v="Åsen" />
		<tag k="natural" v="hill" />
		<tag k="place" v="locality" />
		<tag k="ssr:stedsnr" v="705820" />
	</node>
	<node lat="59.818908334548425" lon="5.357558324497749" id="-28003">
		<tag k="name" v="Hodnalandshaugen" />
		<tag k="natural" v="hill" />
		<tag k="place" v="locality" />
		<tag k="ssr:stedsnr" v="732941" />
	</node>
	<node lat="59.77182499807131" lon="5.452955557251904" id="-28008">
		<tag k="name" v="Røyrtjørnebrotet" />
		<tag k="natural" v="hill" />
		<tag k="place" v="locality" />
		<tag k="ssr:stedsnr" v="765758" />
	</node>
	<node lat="59.79674166377526" lon="5.39092500405977" id="-28011">
		<tag k="fixme" v="consider natural=peak for the most distinct mountains in the district" />
		<tag k="name" v="Grovaåsen" />
		<tag k="natural" v="hill" />
		<tag k="place" v="locality" />
		<tag k="ssr:stedsnr" v="766103" />
	</node>
	<node lat="59.80694444807144" lon="5.420961115359312" id="-28014">
		<tag k="fixme" v="consider natural=peak for the most distinct mountains in the district" />
		<tag k="name" v="Markasteinsfjellet" />
		<tag k="natural" v="hill" />
		<tag k="place" v="locality" />
		<tag k="ssr:stedsnr" v="766089" />
	</node>
	<node lat="59.79363055838619" lon="5.409672215628995" id="-28015">
		<tag k="name" v="Beindalen" />
		<tag k="natural" v="valley" />
		<tag k="place" v="locality" />
		<tag k="ssr:stedsnr" v="766096" />
	</node>
	<node lat="59.83400032348658" lon="5.531769957083996" id="-28016">
		<tag k="name" v="Hundaskora" />
		<tag k="place" v="locality" />
		<tag k="ssr:stedsnr" v="766207" />
	</node>
	<node lat="59.870396548205534" lon="5.60387014187766" id="-28017">
		<tag k="name" v="Sevdalen" />
		<tag k="natural" v="valley" />
		<tag k="place" v="locality" />
		<tag k="ssr:stedsnr" v="766214" />
	</node>
	<node lat="59.843466666404964" lon="5.5827333408934185" id="-28020">
		<tag k="name" v="Niphaugen" />
		<tag k="natural" v="hill" />
		<tag k="place" v="locality" />
		<tag k="ssr:stedsnr" v="766194" />
	</node>
	<node lat="59.83961944425717" lon="5.578327778717846" id="-28021">
		<tag k="name" v="Morkavasshaugen" />
		<tag k="natural" v="hill" />
		<tag k="place" v="locality" />
		<tag k="ssr:stedsnr" v="766197" />
	</node>
	<node lat="59.855113891519025" lon="5.5766805520809255" id="-28022">
		<tag k="fixme" v="consider natural=peak for the most distinct mountains in the district" />
		<tag k="name" v="Midtfjellet" />
		<tag k="natural" v="hill" />
		<tag k="place" v="locality" />
		<tag k="ssr:stedsnr" v="766821" />
	</node>
	<node lat="59.818374996507146" lon="5.583674993455109" id="-28027">
		<tag k="alt_name" v="Huglhamaren" />
		<tag k="name" v="Huglahammaren" />
		<tag k="natural" v="hill" />
		<tag k="place" v="locality" />
		<tag k="ssr:stedsnr" v="792357" />
	</node>
	<node lat="59.84912499651198" lon="5.529555553322217" id="-28028">
		<tag k="name" v="Slettedalen" />
		<tag k="natural" v="valley" />
		<tag k="place" v="locality" />
		<tag k="ssr:stedsnr" v="793308" />
	</node>
	<node lat="59.810724998791805" lon="5.4218694432187196" id="-28033">
		<tag k="fixme" v="consider natural=peak for the most distinct mountains in the district" />
		<tag k="name" v="Bjørnahifjellet" />
		<tag k="natural" v="hill" />
		<tag k="place" v="locality" />
		<tag k="ssr:stedsnr" v="793569" />
	</node>
	<node lat="59.80548055174405" lon="5.487572227113977" id="-28036">
		<tag k="fixme" v="consider natural=peak for the most distinct mountains in the district" />
		<tag k="name" v="Grimsåsen" />
		<tag k="natural" v="hill" />
		<tag k="place" v="locality" />
		<tag k="ssr:stedsnr" v="914366" />
	</node>
	<node lat="59.79471666644939" lon="5.387988894702179" id="-28039">
		<tag k="alt_name" v="Hustrudalen" />
		<tag k="name" v="Hustredalen" />
		<tag k="natural" v="valley" />
		<tag k="place" v="locality" />
		<tag k="ssr:stedsnr" v="914527" />
	</node>
	<node lat="59.89577777423872" lon="5.489125005777908" id="-28044">
		<tag k="name" v="Bortveitdalen" />
		<tag k="natural" v="hill" />
		<tag k="place" v="locality" />
		<tag k="ssr:stedsnr" v="814307" />
	</node>
	<node lat="59.83889444545262" lon="5.465869445406678" id="-28045">
		<tag k="name" v="Steingjelsdalen" />
		<tag k="natural" v="valley" />
=======
	<node id="-605590" lat="59.8593361139" lon="5.51678055788">
		<tag k="name" v="Øvravadhaugen" />
		<tag k="natural" v="hill" />
		<tag k="place" v="locality" />
		<tag k="ssr:stedsnr" v="644062" />
	</node>
	<node id="-605588" lat="59.875822225" lon="5.43666667409">
		<tag k="name" v="Brudlaupsstovo" />
		<tag k="place" v="locality" />
		<tag k="ssr:stedsnr" v="644054" />
	</node>
	<node id="-605583" lat="59.8024611101" lon="5.44677221905">
		<tag k="fixme" v="consider natural=peak for the most distinct mountains in the district" />
		<tag k="name" v="Brotåsen" />
		<tag k="natural" v="hill" />
		<tag k="place" v="locality" />
		<tag k="ssr:stedsnr" v="643856" />
	</node>
	<node id="-605582" lat="59.8001555523" lon="5.43949167427">
		<tag k="name" v="Stemmehaugen" />
		<tag k="natural" v="hill" />
		<tag k="place" v="locality" />
		<tag k="ssr:stedsnr" v="643848" />
	</node>
	<node id="-605577" lat="59.8535416642" lon="5.60637500528">
		<tag k="name" v="Brunene" />
		<tag k="place" v="locality" />
		<tag k="ssr:stedsnr" v="643815" />
	</node>
	<node id="-605574" lat="59.7755166686" lon="5.50237777987">
		<tag k="name" v="Skotaberget" />
		<tag k="natural" v="hill" />
		<tag k="place" v="locality" />
		<tag k="ssr:stedsnr" v="643807" />
	</node>
	<node id="-605572" lat="59.7498166679" lon="5.46112499913">
		<tag k="name" v="Alnavåghaugen" />
		<tag k="natural" v="hill" />
		<tag k="place" v="locality" />
		<tag k="ssr:stedsnr" v="643783" />
	</node>
	<node id="-605569" lat="59.7560972213" lon="5.44647777477">
		<tag k="name" v="Hatlandsdalen" />
		<tag k="natural" v="valley" />
		<tag k="place" v="locality" />
		<tag k="ssr:stedsnr" v="643774" />
	</node>
	<node id="-605568" lat="59.7777527789" lon="5.46963611501">
		<tag k="name" v="Kuskjehaugen" />
		<tag k="natural" v="hill" />
		<tag k="place" v="locality" />
		<tag k="ssr:stedsnr" v="643764" />
	</node>
	<node id="-605566" lat="59.770166665" lon="5.46909167418">
		<tag k="name" v="Jonshaugen" />
		<tag k="natural" v="hill" />
		<tag k="place" v="locality" />
		<tag k="ssr:stedsnr" v="643747" />
	</node>
	<node id="-605559" lat="59.8119666632" lon="5.44216666578">
		<tag k="fixme" v="consider natural=peak for the most distinct mountains in the district" />
		<tag k="name" v="Sætraåsen" />
		<tag k="natural" v="hill" />
		<tag k="place" v="locality" />
		<tag k="ssr:stedsnr" v="610582" />
	</node>
	<node id="-605554" lat="59.8596916672" lon="5.5716888957">
		<tag k="name" v="Høgsetehaugen" />
		<tag k="natural" v="hill" />
		<tag k="place" v="locality" />
		<tag k="ssr:stedsnr" v="584821" />
	</node>
	<node id="-605552" lat="59.8432277823" lon="5.52205277874">
		<tag k="fixme" v="consider natural=peak for the most distinct mountains in the district" />
		<tag k="name" v="Åsen" />
		<tag k="natural" v="hill" />
		<tag k="place" v="locality" />
		<tag k="ssr:stedsnr" v="584219" />
	</node>
	<node id="-605549" lat="59.8345222203" lon="5.57861667103">
		<tag k="name" v="Urdahaugen" />
		<tag k="natural" v="hill" />
		<tag k="place" v="locality" />
		<tag k="ssr:stedsnr" v="584205" />
	</node>
	<node id="-605548" lat="59.8121055545" lon="5.38279721382">
		<tag k="name" v="Øvstedalen" />
		<tag k="natural" v="valley" />
		<tag k="place" v="locality" />
		<tag k="ssr:stedsnr" v="584155" />
	</node>
	<node id="-605545" lat="59.7542027807" lon="5.45433888859">
		<tag k="name" v="Brakahaugen" />
		<tag k="natural" v="hill" />
		<tag k="place" v="locality" />
		<tag k="ssr:stedsnr" v="583791" />
	</node>
	<node id="-605544" lat="59.7817333315" lon="5.37502223105">
		<tag k="fixme" v="consider natural=peak for the most distinct mountains in the district" />
		<tag k="name" v="Drengjafjellsenden" />
		<tag k="natural" v="hill" />
		<tag k="place" v="locality" />
		<tag k="ssr:stedsnr" v="583783" />
	</node>
	<node id="-605542" lat="59.8852305563" lon="5.51623889759">
		<tag k="name" v="Middagsskaret" />
		<tag k="natural" v="hill" />
		<tag k="place" v="locality" />
		<tag k="ssr:stedsnr" v="583214" />
	</node>
	<node id="-605536" lat="59.8043749988" lon="5.40201667021">
		<tag k="fixme" v="consider natural=peak for the most distinct mountains in the district" />
		<tag k="name" v="Ørnungefjellet" />
		<tag k="natural" v="hill" />
		<tag k="place" v="locality" />
		<tag k="ssr:stedsnr" v="583128" />
	</node>
	<node id="-605535" lat="59.8067055557" lon="5.39092499212">
		<tag k="fixme" v="consider natural=peak for the most distinct mountains in the district" />
		<tag k="name" v="Sauganuten" />
		<tag k="natural" v="hill" />
		<tag k="ssr:stedsnr" v="583127" />
	</node>
	<node id="-605534" lat="59.8280888934" lon="5.44293611453">
		<tag k="name" v="Prestastegen" />
		<tag k="place" v="locality" />
		<tag k="ssr:stedsnr" v="583123" />
	</node>
	<node id="-605533" lat="59.7916305542" lon="5.4134861051">
		<tag k="name" v="Andreashaugen" />
		<tag k="natural" v="hill" />
		<tag k="place" v="locality" />
		<tag k="ssr:stedsnr" v="583111" />
	</node>
	<node id="-605515" lat="59.8898111099" lon="5.48286665904">
		<tag k="alt_name" v="Tjørnadalen, store;Store Tjødnadalen" />
		<tag k="name" v="Store Tjørnadalen" />
		<tag k="natural" v="valley" />
		<tag k="place" v="locality" />
		<tag k="ssr:stedsnr" v="549278" />
	</node>
	<node id="-605506" lat="59.7900305529" lon="5.46085555807">
		<tag k="name" v="Skarhaugen" />
		<tag k="natural" v="hill" />
		<tag k="place" v="locality" />
		<tag k="ssr:stedsnr" v="523880" />
	</node>
	<node id="-605504" lat="59.7707611115" lon="5.4941972225">
		<tag k="name" v="Marihaugen" />
		<tag k="natural" v="hill" />
		<tag k="place" v="locality" />
		<tag k="ssr:stedsnr" v="523858" />
	</node>
	<node id="-605501" lat="59.8636230828" lon="5.59424225237">
		<tag k="name" v="Skardhaugen" />
		<tag k="natural" v="hill" />
		<tag k="place" v="locality" />
		<tag k="ssr:stedsnr" v="523835" />
	</node>
	<node id="-605500" lat="59.8541694413" lon="5.56621944543">
		<tag k="fixme" v="consider natural=peak for the most distinct mountains in the district" />
		<tag k="name" v="Hagalefjellet" />
		<tag k="natural" v="hill" />
		<tag k="place" v="locality" />
		<tag k="ssr:stedsnr" v="523833" />
	</node>
	<node id="-605494" lat="59.7923388849" lon="5.36924722029">
		<tag k="name" v="Stølshaugen" />
		<tag k="natural" v="hill" />
		<tag k="place" v="locality" />
		<tag k="ssr:stedsnr" v="523149" />
	</node>
	<node id="-605493" lat="59.7936805553" lon="5.36964722137">
		<tag k="name" v="Smoget" />
		<tag k="place" v="locality" />
		<tag k="ssr:stedsnr" v="523148" />
	</node>
	<node id="-605491" lat="59.7957166703" lon="5.41223333071">
		<tag k="name" v="Underburdshaugen" />
		<tag k="natural" v="hill" />
		<tag k="place" v="locality" />
		<tag k="ssr:stedsnr" v="523130" />
	</node>
	<node id="-605490" lat="59.7893333317" lon="5.35568611617">
		<tag k="name" v="Folkarhaugen" />
		<tag k="natural" v="hill" />
		<tag k="place" v="locality" />
		<tag k="ssr:stedsnr" v="523115" />
	</node>
	<node id="-605486" lat="59.8160083354" lon="5.58796944511">
		<tag k="name" v="Bukkaskåra" />
		<tag k="natural" v="hill" />
		<tag k="place" v="locality" />
		<tag k="ssr:stedsnr" v="523095" />
	</node>
	<node id="-605484" lat="59.8648361122" lon="5.43492500809">
		<tag k="name" v="Sørliknatten" />
		<tag k="natural" v="hill" />
		<tag k="place" v="locality" />
		<tag k="ssr:stedsnr" v="523065" />
	</node>
	<node id="-605483" lat="59.8605388888" lon="5.50400278609">
		<tag k="name" v="Hetlesæterbrunene" />
		<tag k="natural" v="hill" />
		<tag k="place" v="locality" />
		<tag k="ssr:stedsnr" v="523059" />
	</node>
	<node id="-605482" lat="59.7902500031" lon="5.44988054943">
		<tag k="fixme" v="consider natural=peak for the most distinct mountains in the district" />
		<tag k="name" v="Persåsen" />
		<tag k="natural" v="hill" />
		<tag k="place" v="locality" />
		<tag k="ssr:stedsnr" v="522840" />
	</node>
	<node id="-605481" lat="59.7935166705" lon="5.4250638813">
		<tag k="fixme" v="consider natural=peak for the most distinct mountains in the district" />
		<tag k="name" v="Toppåsen" />
		<tag k="natural" v="hill" />
		<tag k="place" v="locality" />
		<tag k="ssr:stedsnr" v="522835" />
	</node>
	<node id="-605478" lat="59.7766138913" lon="5.47378611234">
		<tag k="name" v="Rindahaugane" />
		<tag k="natural" v="hill" />
		<tag k="place" v="locality" />
		<tag k="ssr:stedsnr" v="522759" />
	</node>
	<node id="-605476" lat="59.8365138876" lon="5.49245000533">
		<tag k="name" v="Eikekleiva" />
		<tag k="place" v="locality" />
		<tag k="ssr:stedsnr" v="523230" />
	</node>
	<node id="-605473" lat="59.7561083301" lon="5.4184916747">
		<tag k="fixme" v="consider natural=peak for the most distinct mountains in the district" />
		<tag k="name" v="Geitåsen" />
		<tag k="natural" v="hill" />
		<tag k="place" v="locality" />
		<tag k="ssr:stedsnr" v="429578" />
	</node>
	<node id="-605465" lat="59.7718888927" lon="5.50365277209">
		<tag k="alt_name" v="Litla Gullberg" />
		<tag k="name" v="Gullberg" />
		<tag k="natural" v="hill" />
		<tag k="place" v="locality" />
		<tag k="ssr:stedsnr" v="428383" />
	</node>
	<node id="-605463" lat="59.7849305558" lon="5.38779999134">
		<tag k="fixme" v="consider natural=peak for the most distinct mountains in the district" />
		<tag k="name" v="Utslettefjellet" />
		<tag k="natural" v="hill" />
		<tag k="place" v="locality" />
		<tag k="ssr:stedsnr" v="428475" />
	</node>
	<node id="-605462" lat="59.7899111153" lon="5.38001944604">
		<tag k="fixme" v="consider natural=peak for the most distinct mountains in the district" />
		<tag k="name" v="Altersfjell" />
		<tag k="natural" v="hill" />
		<tag k="place" v="locality" />
		<tag k="ssr:stedsnr" v="428474" />
	</node>
	<node id="-605460" lat="59.8804416662" lon="5.52420832888">
		<tag k="name" v="Laukhellebakkane" />
		<tag k="natural" v="slope" />
		<tag k="place" v="locality" />
		<tag k="ssr:stedsnr" v="402257" />
	</node>
	<node id="-605455" lat="59.7638833377" lon="5.41366388589">
		<tag k="name" v="Otrasetrabakken" />
		<tag k="natural" v="slope" />
		<tag k="place" v="locality" />
		<tag k="ssr:stedsnr" v="402146" />
	</node>
	<node id="-605453" lat="59.7966249987" lon="5.40550000613">
		<tag k="name" v="Bjørkesmoget" />
		<tag k="place" v="locality" />
		<tag k="ssr:stedsnr" v="402112" />
	</node>
	<node id="-605452" lat="59.803488892" lon="5.39000833667">
		<tag k="fixme" v="consider natural=peak for the most distinct mountains in the district" />
		<tag k="name" v="Rutleåsen" />
		<tag k="natural" v="hill" />
		<tag k="place" v="locality" />
		<tag k="ssr:stedsnr" v="402109" />
	</node>
	<node id="-605451" lat="59.8081611103" lon="5.38221666055">
		<tag k="fixme" v="consider natural=peak for the most distinct mountains in the district" />
		<tag k="name" v="Åsen" />
		<tag k="natural" v="hill" />
		<tag k="place" v="locality" />
		<tag k="ssr:stedsnr" v="402108" />
	</node>
	<node id="-605450" lat="59.8166638927" lon="5.45895555387">
		<tag k="name" v="Svarteika" />
		<tag k="place" v="locality" />
		<tag k="ssr:stedsnr" v="402101" />
	</node>
	<node id="-605447" lat="59.8237583363" lon="5.3605638888">
		<tag k="name" v="Longavassbrotet" />
		<tag k="natural" v="hill" />
		<tag k="place" v="locality" />
		<tag k="ssr:stedsnr" v="402071" />
	</node>
	<node id="-605445" lat="59.8535749985" lon="5.50434722056">
		<tag k="name" v="Låvadalen" />
		<tag k="natural" v="valley" />
		<tag k="place" v="locality" />
		<tag k="ssr:stedsnr" v="402060" />
	</node>
	<node id="-605444" lat="59.8635833296" lon="5.51949722578">
		<tag k="name" v="Djupedalen" />
		<tag k="natural" v="valley" />
		<tag k="place" v="locality" />
		<tag k="ssr:stedsnr" v="402055" />
	</node>
	<node id="-605443" lat="59.8875333363" lon="5.44552221477">
		<tag k="fixme" v="consider natural=peak for the most distinct mountains in the district" />
		<tag k="name" v="Steinfjellet" />
		<tag k="natural" v="hill" />
		<tag k="place" v="locality" />
		<tag k="ssr:stedsnr" v="402050" />
	</node>
	<node id="-605441" lat="59.8566472252" lon="5.59088056256">
		<tag k="name" v="Kaldedalen" />
		<tag k="natural" v="valley" />
		<tag k="place" v="locality" />
		<tag k="ssr:stedsnr" v="402039" />
	</node>
	<node id="-605439" lat="59.7938000012" lon="5.46680833914">
		<tag k="fixme" v="consider natural=peak for the most distinct mountains in the district" />
		<tag k="name" v="Nonsåsen" />
		<tag k="natural" v="hill" />
		<tag k="place" v="locality" />
		<tag k="ssr:stedsnr" v="401840" />
	</node>
	<node id="-605438" lat="59.8054861105" lon="5.47078888302">
		<tag k="name" v="Urahaugane" />
		<tag k="natural" v="hill" />
		<tag k="place" v="locality" />
		<tag k="ssr:stedsnr" v="401837" />
	</node>
	<node id="-605437" lat="59.8031916652" lon="5.44346388927">
		<tag k="name" v="Ulvatjørndalen" />
		<tag k="natural" v="valley" />
		<tag k="place" v="locality" />
		<tag k="ssr:stedsnr" v="401831" />
	</node>
	<node id="-605436" lat="59.7895611145" lon="5.43144165779">
		<tag k="fixme" v="consider natural=peak for the most distinct mountains in the district" />
		<tag k="name" v="Middagsåsen" />
		<tag k="natural" v="hill" />
		<tag k="place" v="locality" />
		<tag k="ssr:stedsnr" v="401827" />
	</node>
	<node id="-605432" lat="59.7801500034" lon="5.48998054924">
		<tag k="name" v="Lyhaugen" />
		<tag k="natural" v="hill" />
		<tag k="place" v="locality" />
		<tag k="ssr:stedsnr" v="401820" />
	</node>
	<node id="-605430" lat="59.7945611123" lon="5.52555555049">
		<tag k="name" v="Sjølshaugen" />
		<tag k="natural" v="hill" />
		<tag k="place" v="locality" />
		<tag k="ssr:stedsnr" v="401800" />
	</node>
	<node id="-605429" lat="59.8638444466" lon="5.5906194414">
		<tag k="name" v="Furedalen" />
		<tag k="natural" v="valley" />
		<tag k="place" v="locality" />
		<tag k="ssr:stedsnr" v="401793" />
	</node>
	<node id="-605428" lat="59.8623666687" lon="5.57163333658">
		<tag k="name" v="Spannstighaugane" />
		<tag k="natural" v="hill" />
		<tag k="place" v="locality" />
		<tag k="ssr:stedsnr" v="401792" />
	</node>
	<node id="-605427" lat="59.8068305545" lon="5.3714444386">
		<tag k="name" v="Petarteigsdalen" />
		<tag k="natural" v="valley" />
		<tag k="place" v="locality" />
		<tag k="ssr:stedsnr" v="401786" />
	</node>
	<node id="-605424" lat="59.7688611144" lon="5.46833333765">
		<tag k="name" v="Skiphaugen" />
		<tag k="natural" v="hill" />
		<tag k="place" v="locality" />
		<tag k="ssr:stedsnr" v="401738" />
	</node>
	<node id="-605423" lat="59.8571666653" lon="5.58532221397">
		<tag k="name" v="Skogadalen" />
		<tag k="natural" v="valley" />
		<tag k="place" v="locality" />
		<tag k="ssr:stedsnr" v="402843" />
	</node>
	<node id="-605422" lat="59.8558638889" lon="5.56812223014">
		<tag k="fixme" v="consider natural=peak for the most distinct mountains in the district" />
		<tag k="name" v="Lurastegfjellet" />
		<tag k="natural" v="hill" />
		<tag k="place" v="locality" />
		<tag k="ssr:stedsnr" v="402835" />
	</node>
	<node id="-605408" lat="59.8531444452" lon="5.5777611131">
		<tag k="name" v="Rongedalen" />
		<tag k="natural" v="valley" />
		<tag k="place" v="locality" />
		<tag k="ssr:stedsnr" v="341840" />
	</node>
	<node id="-605407" lat="59.8569805571" lon="5.57672500235">
		<tag k="name" v="Veadalen" />
		<tag k="natural" v="valley" />
		<tag k="place" v="locality" />
		<tag k="ssr:stedsnr" v="341838" />
	</node>
	<node id="-605406" lat="59.911811113" lon="5.48070277784">
		<tag k="name" v="Brunene" />
		<tag k="natural" v="hill" />
		<tag k="place" v="locality" />
		<tag k="ssr:stedsnr" v="341254" />
	</node>
	<node id="-605405" lat="59.8456416708" lon="5.59567222854">
		<tag k="name" v="Høgehaugen" />
		<tag k="natural" v="hill" />
		<tag k="place" v="locality" />
		<tag k="ssr:stedsnr" v="341250" />
	</node>
	<node id="-605404" lat="59.8387638915" lon="5.5953194397">
		<tag k="name" v="Hundastegshaugen" />
		<tag k="natural" v="hill" />
		<tag k="place" v="locality" />
		<tag k="ssr:stedsnr" v="341249" />
	</node>
	<node id="-605397" lat="59.8185962235" lon="5.49656363535">
		<tag k="name" v="Skitnadalen" />
		<tag k="natural" v="valley" />
		<tag k="place" v="locality" />
		<tag k="ssr:stedsnr" v="341185" />
	</node>
	<node id="-605396" lat="59.8412111136" lon="5.44078610542">
		<tag k="name" v="Ravasslia" />
		<tag k="natural" v="slope" />
		<tag k="place" v="locality" />
		<tag k="ssr:stedsnr" v="341166" />
	</node>
	<node id="-605395" lat="59.8331472216" lon="5.47158888375">
		<tag k="alt_name" v="Rossekleiva" />
		<tag k="loc_name" v="Russekleiv" />
		<tag k="name" v="Rossekleiv" />
		<tag k="place" v="locality" />
		<tag k="ssr:stedsnr" v="341148" />
	</node>
	<node id="-605394" lat="59.8373888933" lon="5.44091111004">
		<tag k="name" v="Kløv" />
		<tag k="place" v="locality" />
		<tag k="ssr:stedsnr" v="341143" />
	</node>
	<node id="-605392" lat="59.7375833353" lon="5.42108333382">
		<tag k="name" v="Duberget" />
		<tag k="natural" v="hill" />
		<tag k="place" v="locality" />
		<tag k="ssr:stedsnr" v="341128" />
	</node>
	<node id="-605390" lat="59.8215722207" lon="5.45633611074">
		<tag k="name" v="Lodda" />
		<tag k="place" v="locality" />
		<tag k="ssr:stedsnr" v="341105" />
	</node>
	<node id="-605389" lat="59.7925722239" lon="5.4210388967">
		<tag k="fixme" v="consider natural=peak for the most distinct mountains in the district" />
		<tag k="name" v="Høgåsen" />
		<tag k="natural" v="hill" />
		<tag k="place" v="locality" />
		<tag k="ssr:stedsnr" v="341096" />
	</node>
	<node id="-605385" lat="59.8539194423" lon="5.51801110741">
		<tag k="fixme" v="consider natural=peak for the most distinct mountains in the district" />
		<tag k="name" v="Hjartåsen" />
		<tag k="natural" v="hill" />
		<tag k="place" v="locality" />
		<tag k="ssr:stedsnr" v="341065" />
	</node>
	<node id="-605384" lat="59.8777027766" lon="5.46896945096">
		<tag k="name" v="Midtrindo" />
		<tag k="natural" v="hill" />
		<tag k="place" v="locality" />
		<tag k="ssr:stedsnr" v="341057" />
	</node>
	<node id="-605382" lat="59.8640416678" lon="5.58786666266">
		<tag k="name" v="Anatjørnsdalen" />
		<tag k="natural" v="valley" />
		<tag k="place" v="locality" />
		<tag k="ssr:stedsnr" v="341039" />
	</node>
	<node id="-605380" lat="59.805427781" lon="5.44178332917">
		<tag k="fixme" v="consider natural=peak for the most distinct mountains in the district" />
		<tag k="name" v="Moldbrekkeåsen" />
		<tag k="natural" v="hill" />
		<tag k="place" v="locality" />
		<tag k="ssr:stedsnr" v="340862" />
	</node>
	<node id="-605379" lat="59.7980472266" lon="5.42854166325">
		<tag k="fixme" v="consider natural=peak for the most distinct mountains in the district" />
		<tag k="name" v="Isdalsåsen" />
		<tag k="natural" v="hill" />
		<tag k="place" v="locality" />
		<tag k="ssr:stedsnr" v="340856" />
	</node>
	<node id="-605378" lat="59.7727333359" lon="5.50240555738">
		<tag k="name" v="Gullskar" />
		<tag k="natural" v="hill" />
		<tag k="place" v="locality" />
		<tag k="ssr:stedsnr" v="340847" />
	</node>
	<node id="-605376" lat="59.8005472235" lon="5.5184944393">
		<tag k="name" v="Dalen" />
		<tag k="natural" v="valley" />
		<tag k="place" v="locality" />
		<tag k="ssr:stedsnr" v="340828" />
	</node>
	<node id="-605373" lat="59.7595388861" lon="5.46548889098">
		<tag k="name" v="Trollhaugen" />
		<tag k="natural" v="hill" />
		<tag k="place" v="locality" />
		<tag k="ssr:stedsnr" v="340779" />
	</node>
	<node id="-605372" lat="59.7766611104" lon="5.44099444531">
		<tag k="fixme" v="consider natural=peak for the most distinct mountains in the district" />
		<tag k="name" v="Halvgjengeåsen" />
		<tag k="natural" v="hill" />
		<tag k="place" v="locality" />
		<tag k="ssr:stedsnr" v="340762" />
	</node>
	<node id="-605371" lat="59.7728888905" lon="5.45354166493">
		<tag k="name" v="Røyrnedalen" />
		<tag k="natural" v="valley" />
		<tag k="place" v="locality" />
		<tag k="ssr:stedsnr" v="340757" />
	</node>
	<node id="-605370" lat="59.7733055531" lon="5.46674166672">
		<tag k="fixme" v="consider natural=peak for the most distinct mountains in the district" />
		<tag k="name" v="Kollane" />
		<tag k="natural" v="hill" />
		<tag k="place" v="locality" />
		<tag k="ssr:stedsnr" v="340749" />
	</node>
	<node id="-605356" lat="59.8003083345" lon="5.37344999881">
		<tag k="alt_name" v="Såta" />
		<tag k="name" v="Dyviksåta" />
		<tag k="natural" v="hill" />
		<tag k="place" v="locality" />
		<tag k="ssr:stedsnr" v="307524" />
	</node>
	<node id="-605346" lat="59.8304277746" lon="5.43420000924">
		<tag k="alt_name" v="Kløvfjellet" />
		<tag k="fixme" v="consider natural=peak for the most distinct mountains in the district" />
		<tag k="name" v="Klovfjellet" />
		<tag k="natural" v="hill" />
>>>>>>> e1d4bc35ff8a6074a6f2e91616a996b547c36f15
		<tag k="place" v="locality" />
		<tag k="ssr:stedsnr" v="186978" />
	</node>
<<<<<<< HEAD
	<node lat="59.76930277462088" lon="5.429916668228312" id="-28047">
		<tag k="name" v="Hilgjesgjerdet" />
=======
	<node id="-605340" lat="59.7762500038" lon="5.42326388894">
		<tag k="alt_name" v="Skaråsen" />
		<tag k="fixme" v="consider natural=peak for the most distinct mountains in the district" />
		<tag k="name" v="Skardåsen" />
		<tag k="natural" v="hill" />
>>>>>>> e1d4bc35ff8a6074a6f2e91616a996b547c36f15
		<tag k="place" v="locality" />
		<tag k="ssr:stedsnr" v="186623" />
	</node>
<<<<<<< HEAD
	<node lat="59.79595277649519" lon="5.379025001447725" id="-28048">
		<tag k="name" v="Hillersleitet" />
		<tag k="natural" v="hill" />
		<tag k="place" v="locality" />
		<tag k="ssr:stedsnr" v="827114" />
	</node>
	<node lat="59.794069443979346" lon="5.402272229499262" id="-28049">
		<tag k="name" v="Skjevlelurane" />
		<tag k="natural" v="hill" />
		<tag k="place" v="locality" />
		<tag k="ssr:stedsnr" v="827118" />
	</node>
	<node lat="59.79831944854402" lon="5.39593611405249" id="-28050">
		<tag k="name" v="Søre Grova" />
		<tag k="natural" v="hill" />
		<tag k="place" v="locality" />
		<tag k="ssr:stedsnr" v="827119" />
	</node>
	<node lat="59.844183337390255" lon="5.446708332253099" id="-28051">
		<tag k="name" v="Ramnaskolten" />
		<tag k="natural" v="hill" />
		<tag k="place" v="locality" />
		<tag k="ssr:stedsnr" v="827168" />
	</node>
	<node lat="59.84459166780331" lon="5.461130554211816" id="-28052">
		<tag k="alt_name" v="Tyseskar" />
		<tag k="name" v="Tysseskaret" />
		<tag k="natural" v="hill" />
		<tag k="place" v="locality" />
		<tag k="ssr:stedsnr" v="827171" />
	</node>
	<node lat="59.840216669062315" lon="5.4584972188038074" id="-28053">
		<tag k="name" v="Steingjelshædda" />
		<tag k="natural" v="gorge" />
		<tag k="ssr:stedsnr" v="827172" />
	</node>
	<node lat="59.80316388914537" lon="5.433116674748999" id="-28064">
		<tag k="fixme" v="consider natural=peak for the most distinct mountains in the district" />
		<tag k="name" v="Hjartåsen" />
		<tag k="natural" v="hill" />
		<tag k="place" v="locality" />
		<tag k="ssr:stedsnr" v="854557" />
	</node>
	<node lat="59.79921111298321" lon="5.420091662934439" id="-28068">
		<tag k="fixme" v="consider natural=peak for the most distinct mountains in the district" />
		<tag k="name" v="Løkåsen" />
		<tag k="natural" v="hill" />
		<tag k="place" v="locality" />
		<tag k="ssr:stedsnr" v="887125" />
	</node>
	<node lat="59.8096416678817" lon="5.3701222273819615" id="-28072">
		<tag k="name" v="Illekleiv" />
		<tag k="place" v="locality" />
		<tag k="ssr:stedsnr" v="887154" />
	</node>
	<node lat="59.84637499645626" lon="5.468591666144454" id="-28073">
		<tag k="name" v="Askedalen" />
		<tag k="natural" v="valley" />
		<tag k="place" v="locality" />
		<tag k="ssr:stedsnr" v="887160" />
	</node>
	<node lat="59.84163611141053" lon="5.468997219288745" id="-28074">
		<tag k="name" v="Lundekollen" />
		<tag k="natural" v="hill" />
		<tag k="place" v="locality" />
		<tag k="ssr:stedsnr" v="887161" />
	</node>
	<node lat="59.838227779479325" lon="5.46968055662925" id="-28075">
		<tag k="name" v="Trasjo" />
		<tag k="place" v="locality" />
		<tag k="ssr:stedsnr" v="887164" />
	</node>
	<node lat="59.77069722088989" lon="5.508686114231855" id="-28080">
		<tag k="name" v="Litlehagen" />
		<tag k="place" v="locality" />
		<tag k="ssr:stedsnr" v="887857" />
	</node>
	<node lat="59.77758889166455" lon="5.374508327936917" id="-28091">
		<tag k="name" v="Ruken" />
		<tag k="natural" v="hill" />
		<tag k="place" v="locality" />
		<tag k="ssr:stedsnr" v="914612" />
	</node>
	<node lat="59.8849694485311" lon="5.4435500066731395" id="-28095">
		<tag k="name" v="Dyrdalen" />
		<tag k="natural" v="valley" />
		<tag k="place" v="locality" />
		<tag k="ssr:stedsnr" v="914815" />
	</node>
	<node lat="59.813566662372395" lon="5.471199994443031" id="-28100">
		<tag k="fixme" v="consider natural=peak for the most distinct mountains in the district" />
		<tag k="name" v="Brunståsen" />
		<tag k="natural" v="hill" />
		<tag k="place" v="locality" />
		<tag k="ssr:stedsnr" v="948112" />
	</node>
	<node lat="59.824561106747595" lon="5.470741669776464" id="-28101">
		<tag k="fixme" v="consider natural=peak for the most distinct mountains in the district" />
		<tag k="name" v="Stokkliåsen" />
		<tag k="natural" v="hill" />
		<tag k="place" v="locality" />
		<tag k="ssr:stedsnr" v="948134" />
	</node>
	<node lat="59.87689721905753" lon="5.475338885891091" id="-28102">
		<tag k="fixme" v="consider natural=peak for the most distinct mountains in the district" />
		<tag k="name" v="Martebrotet" />
		<tag k="natural" v="hill" />
		<tag k="place" v="locality" />
		<tag k="ssr:stedsnr" v="948080" />
	</node>
	<node lat="59.8314055524502" lon="5.517908338859053" id="-28106">
		<tag k="name" v="Førlandsbruna" />
		<tag k="natural" v="slope" />
		<tag k="place" v="locality" />
		<tag k="ssr:stedsnr" v="948218" />
	</node>
	<node lat="59.82596110923239" lon="5.51899444288185" id="-28108">
		<tag k="name" v="Gråsmog" />
		<tag k="place" v="locality" />
		<tag k="ssr:stedsnr" v="948186" />
	</node>
	<node lat="59.88943055939888" lon="5.492477773349264" id="-28117">
		<tag k="fixme" v="consider natural=peak for the most distinct mountains in the district" />
		<tag k="name" v="Brunene" />
		<tag k="natural" v="hill" />
		<tag k="place" v="locality" />
		<tag k="ssr:stedsnr" v="3246" />
	</node>
	<node lat="59.79213055853939" lon="5.439805550017637" id="-28119">
		<tag k="fixme" v="consider natural=peak for the most distinct mountains in the district" />
		<tag k="name" v="Lauvåsen" />
		<tag k="natural" v="hill" />
		<tag k="place" v="locality" />
		<tag k="ssr:stedsnr" v="3465" />
	</node>
	<node lat="59.89738210723765" lon="5.464522316239644" id="-28121">
		<tag k="alt_name" v="Midhamarsåta;Mehamarsåta" />
		<tag k="fixme" v="consider natural=peak for the most distinct mountains in the district" />
		<tag k="name" v="Mehammarsåta" />
		<tag k="natural" v="hill" />
		<tag k="place" v="locality" />
		<tag k="ssr:stedsnr" v="3834" />
	</node>
	<node lat="59.85156111017571" lon="5.5037749935404525" id="-28126">
		<tag k="alt_name" v="Branddalen" />
		<tag k="name" v="Branndalen" />
		<tag k="natural" v="valley" />
		<tag k="place" v="locality" />
		<tag k="ssr:stedsnr" v="4297" />
	</node>
	<node lat="59.76120833710176" lon="5.428794440709683" id="-28130">
		<tag k="name" v="Djupedalen" />
		<tag k="natural" v="valley" />
		<tag k="place" v="locality" />
		<tag k="ssr:stedsnr" v="4584" />
	</node>
	<node lat="59.84078055269539" lon="5.460633342348824" id="-28131">
		<tag k="alt_name" v="Steingjelshædda" />
		<tag k="name" v="Steingilshøgda" />
		<tag k="natural" v="hill" />
		<tag k="place" v="locality" />
		<tag k="ssr:stedsnr" v="4974" />
	</node>
	<node lat="59.8363999988973" lon="5.412522227132548" id="-28132">
		<tag k="name" v="Prestavarden" />
		<tag k="natural" v="hill" />
		<tag k="place" v="locality" />
		<tag k="ssr:stedsnr" v="4982" />
	</node>
	<node lat="59.871491664824575" lon="5.579133324818893" id="-28137">
		<tag k="alt_name" v="Barfotdalen;Berføttedalen" />
		<tag k="name" v="Berrføttedalen" />
		<tag k="natural" v="valley" />
		<tag k="place" v="locality" />
		<tag k="ssr:stedsnr" v="25147" />
	</node>
	<node lat="59.91053611532872" lon="5.497605554006575" id="-28142">
		<tag k="name" v="Klubben" />
		<tag k="natural" v="hill" />
		<tag k="place" v="locality" />
		<tag k="ssr:stedsnr" v="25266" />
	</node>
	<node lat="59.78332500060046" lon="5.483158329259777" id="-28148">
		<tag k="name" v="Skitnasmoget" />
		<tag k="place" v="locality" />
		<tag k="ssr:stedsnr" v="37865" />
	</node>
	<node lat="59.806736112180936" lon="5.437358327383854" id="-28149">
		<tag k="fixme" v="consider natural=peak for the most distinct mountains in the district" />
		<tag k="name" v="Stuvasetråsen" />
		<tag k="natural" v="hill" />
		<tag k="place" v="locality" />
		<tag k="ssr:stedsnr" v="37870" />
	</node>
	<node lat="59.79569999685479" lon="5.44666388385919" id="-28150">
		<tag k="fixme" v="consider natural=peak for the most distinct mountains in the district" />
		<tag k="name" v="Falkåsen" />
		<tag k="natural" v="hill" />
		<tag k="place" v="locality" />
		<tag k="ssr:stedsnr" v="37873" />
	</node>
	<node lat="59.79158055323023" lon="5.376558342452147" id="-28151">
		<tag k="name" v="Hetledalen" />
		<tag k="natural" v="valley" />
		<tag k="place" v="locality" />
		<tag k="ssr:stedsnr" v="37831" />
	</node>
	<node lat="59.77641666689056" lon="5.419636114991718" id="-28154">
		<tag k="name" v="Revadalsrinda" />
		<tag k="natural" v="hill" />
		<tag k="place" v="locality" />
		<tag k="ssr:stedsnr" v="38032" />
	</node>
	<node lat="59.767386114246534" lon="5.459477786146453" id="-28156">
		<tag k="name" v="Bjelkarhaugen" />
		<tag k="natural" v="hill" />
		<tag k="place" v="locality" />
		<tag k="ssr:stedsnr" v="37891" />
	</node>
	<node lat="59.77064722608207" lon="5.4543111053389" id="-28157">
		<tag k="name" v="Søre Skarhaugen" />
		<tag k="natural" v="hill" />
		<tag k="place" v="locality" />
		<tag k="ssr:stedsnr" v="37892" />
	</node>
	<node lat="59.821052777850696" lon="5.508324995851084" id="-28161">
		<tag k="name" v="Hundsryggen" />
		<tag k="natural" v="ridge" />
		<tag k="place" v="locality" />
		<tag k="ssr:stedsnr" v="38195" />
	</node>
	<node lat="59.83363611456964" lon="5.510419438365984" id="-28165">
		<tag k="name" v="Brumlehaugen" />
		<tag k="natural" v="hill" />
		<tag k="place" v="locality" />
		<tag k="ssr:stedsnr" v="38233" />
	</node>
	<node lat="59.86895000107916" lon="5.602597221969179" id="-28166">
		<tag k="name" v="Skotet" />
		<tag k="place" v="locality" />
		<tag k="ssr:stedsnr" v="38242" />
	</node>
	<node lat="59.85821944636437" lon="5.555041673623061" id="-28168">
		<tag k="name" v="Hommandehaugane" />
		<tag k="natural" v="hill" />
		<tag k="place" v="locality" />
		<tag k="ssr:stedsnr" v="38848" />
	</node>
	<node lat="59.86430278150631" lon="5.450405552938515" id="-28174">
		<tag k="fixme" v="consider natural=peak for the most distinct mountains in the district" />
		<tag k="name" v="Såta" />
		<tag k="natural" v="hill" />
		<tag k="place" v="locality" />
		<tag k="ssr:stedsnr" v="64895" />
	</node>
	<node lat="59.79872500012276" lon="5.509669448973425" id="-28180">
		<tag k="name" v="Havåsen" />
		<tag k="natural" v="hill" />
		<tag k="place" v="locality" />
		<tag k="ssr:stedsnr" v="65328" />
	</node>
	<node lat="59.76992777596447" lon="5.419527778263779" id="-28191">
		<tag k="fixme" v="consider natural=peak for the most distinct mountains in the district" />
		<tag k="name" v="Dyråsen" />
		<tag k="natural" v="hill" />
		<tag k="place" v="locality" />
		<tag k="ssr:stedsnr" v="98035" />
	</node>
	<node lat="59.86222222177443" lon="5.5159138810482835" id="-28192">
		<tag k="fixme" v="consider natural=peak for the most distinct mountains in the district" />
		<tag k="name" v="Løkjelsåsen" />
		<tag k="natural" v="hill" />
		<tag k="place" v="locality" />
		<tag k="ssr:stedsnr" v="98048" />
	</node>
	<node lat="59.82957499902822" lon="5.573747224169245" id="-28197">
		<tag k="name" v="Hjalmarhaugen" />
		<tag k="natural" v="hill" />
		<tag k="place" v="locality" />
		<tag k="ssr:stedsnr" v="98094" />
	</node>
	<node lat="59.828472223755426" lon="5.578808331714168" id="-28198">
		<tag k="name" v="Hushammaren" />
		<tag k="natural" v="hill" />
		<tag k="place" v="locality" />
		<tag k="ssr:stedsnr" v="98095" />
	</node>
	<node lat="59.79634999591906" lon="5.345261117075696" id="-28199">
		<tag k="name" v="Tverrdalen" />
		<tag k="natural" v="valley" />
		<tag k="place" v="locality" />
		<tag k="ssr:stedsnr" v="98105" />
	</node>
	<node lat="59.79111944684546" lon="5.349236111899465" id="-28200">
		<tag k="name" v="Furehaugen" />
		<tag k="natural" v="hill" />
		<tag k="place" v="locality" />
		<tag k="ssr:stedsnr" v="98106" />
	</node>
	<node lat="59.78940000342659" lon="5.3648555486736305" id="-28201">
		<tag k="name" v="Sjonarhaugen" />
		<tag k="natural" v="hill" />
		<tag k="place" v="locality" />
		<tag k="ssr:stedsnr" v="98108" />
	</node>
	<node lat="59.81224444604803" lon="5.4123944420485595" id="-28202">
		<tag k="name" v="Setradalen" />
		<tag k="natural" v="valley" />
		<tag k="place" v="locality" />
		<tag k="ssr:stedsnr" v="99147" />
	</node>
	<node lat="59.85528888488695" lon="5.610883328152142" id="-28204">
		<tag k="name" v="Lindehaugen" />
		<tag k="natural" v="hill" />
		<tag k="place" v="locality" />
		<tag k="ssr:stedsnr" v="99229" />
	</node>
	<node lat="59.77727777386032" lon="5.457341668026121" id="-28208">
		<tag k="name" v="Vindfallehaugen" />
		<tag k="natural" v="hill" />
		<tag k="place" v="locality" />
		<tag k="ssr:stedsnr" v="98749" />
	</node>
	<node lat="59.83985555333867" lon="5.488913883238107" id="-28209">
		<tag k="name" v="Ormabrekka" />
		<tag k="natural" v="slope" />
		<tag k="place" v="locality" />
		<tag k="ssr:stedsnr" v="98835" />
	</node>
	<node lat="59.85724444190765" lon="5.567244439896282" id="-28212">
		<tag k="name" v="Luren" />
		<tag k="place" v="locality" />
		<tag k="ssr:stedsnr" v="99834" />
	</node>
	<node lat="59.87360000116412" lon="5.492358332231703" id="-28219">
		<tag k="fixme" v="consider natural=peak for the most distinct mountains in the district" />
		<tag k="name" v="Kattnakken" />
		<tag k="natural" v="hill" />
		<tag k="place" v="locality" />
		<tag k="ssr:stedsnr" v="125292" />
	</node>
	<node lat="59.88681944111101" lon="5.498027772342104" id="-28220">
		<tag k="name" v="Sjonarhaug" />
		<tag k="natural" v="hill" />
		<tag k="place" v="locality" />
		<tag k="ssr:stedsnr" v="125297" />
	</node>
	<node lat="59.83431110751364" lon="5.567900008777454" id="-28223">
		<tag k="name" v="Nakken" />
		<tag k="natural" v="hill" />
		<tag k="place" v="locality" />
		<tag k="ssr:stedsnr" v="125347" />
	</node>
	<node lat="59.77027500118392" lon="5.391574997224388" id="-28229">
		<tag k="fixme" v="consider natural=peak for the most distinct mountains in the district" />
		<tag k="name" v="Høgåsen" />
		<tag k="natural" v="hill" />
		<tag k="place" v="locality" />
		<tag k="ssr:stedsnr" v="125634" />
	</node>
	<node lat="59.82597777984464" lon="5.451383328755982" id="-28230">
		<tag k="name" v="Vatnadalen" />
		<tag k="natural" v="valley" />
		<tag k="place" v="locality" />
		<tag k="ssr:stedsnr" v="125949" />
	</node>
	<node lat="59.77855277536681" lon="5.447636111127781" id="-28235">
		<tag k="fixme" v="consider natural=peak for the most distinct mountains in the district" />
		<tag k="name" v="Krokateigåsen" />
		<tag k="natural" v="hill" />
		<tag k="place" v="locality" />
		<tag k="ssr:stedsnr" v="158770" />
	</node>
	<node lat="59.78645277867869" lon="5.456002772750673" id="-28236">
		<tag k="name" v="Skarhaugen" />
		<tag k="natural" v="hill" />
		<tag k="place" v="locality" />
		<tag k="ssr:stedsnr" v="158771" />
	</node>
	<node lat="59.776791663852364" lon="5.44971388440735" id="-28237">
		<tag k="name" v="Koladalen" />
		<tag k="natural" v="valley" />
		<tag k="place" v="locality" />
		<tag k="ssr:stedsnr" v="158775" />
	</node>
	<node lat="59.76281111372218" lon="5.436977772221528" id="-28238">
		<tag k="fixme" v="consider natural=peak for the most distinct mountains in the district" />
		<tag k="name" v="Ospåsen" />
		<tag k="natural" v="hill" />
		<tag k="place" v="locality" />
		<tag k="ssr:stedsnr" v="158788" />
	</node>
	<node lat="59.789480551873666" lon="5.4368055479402555" id="-28239">
		<tag k="fixme" v="consider natural=peak for the most distinct mountains in the district" />
		<tag k="name" v="Grønåsen" />
		<tag k="natural" v="hill" />
		<tag k="place" v="locality" />
		<tag k="ssr:stedsnr" v="158865" />
	</node>
	<node lat="59.80668055917018" lon="5.4584749908508226" id="-28240">
		<tag k="name" v="Bukkhilleren" />
		<tag k="place" v="locality" />
		<tag k="ssr:stedsnr" v="158872" />
	</node>
	<node lat="59.7730694444227" lon="5.406649993064572" id="-28242">
		<tag k="fixme" v="consider natural=peak for the most distinct mountains in the district" />
		<tag k="name" v="Almåsen" />
		<tag k="natural" v="hill" />
		<tag k="place" v="locality" />
		<tag k="ssr:stedsnr" v="159025" />
	</node>
	<node lat="59.80065000026608" lon="5.395124994462773" id="-28244">
		<tag k="name" v="Nordre Grova" />
		<tag k="natural" v="hill" />
		<tag k="place" v="locality" />
		<tag k="ssr:stedsnr" v="159136" />
	</node>
	<node lat="59.84655277577299" lon="5.592197215669933" id="-28246">
		<tag k="name" v="Orrahaugen" />
		<tag k="natural" v="hill" />
		<tag k="place" v="locality" />
		<tag k="ssr:stedsnr" v="159206" />
	</node>
	<node lat="59.83062222451699" lon="5.519741664560201" id="-28249">
		<tag k="fixme" v="consider natural=peak for the most distinct mountains in the district" />
		<tag k="name" v="Kjosaåsen" />
		<tag k="natural" v="hill" />
		<tag k="place" v="locality" />
		<tag k="ssr:stedsnr" v="159180" />
	</node>
	<node lat="59.86539722593967" lon="5.601094440324564" id="-28251">
		<tag k="fixme" v="consider natural=peak for the most distinct mountains in the district" />
		<tag k="name" v="Geitanuten" />
		<tag k="natural" v="hill" />
		<tag k="place" v="locality" />
		<tag k="ssr:stedsnr" v="159241" />
	</node>
	<node lat="59.79179444436455" lon="5.522911103651973" id="-28254">
		<tag k="name" v="Sjoarhaugen" />
		<tag k="natural" v="hill" />
		<tag k="place" v="locality" />
		<tag k="ssr:stedsnr" v="159859" />
	</node>
	<node lat="59.854569440411055" lon="5.572530556374461" id="-28255">
		<tag k="name" v="Rongedalsstrupen" />
		<tag k="natural" v="hill" />
		<tag k="place" v="locality" />
		<tag k="ssr:stedsnr" v="159840" />
	</node>
	<node lat="59.84484166849011" lon="5.5002277857782" id="-28259">
		<tag k="fixme" v="consider natural=peak for the most distinct mountains in the district" />
		<tag k="name" v="Tindane" />
		<tag k="natural" v="hill" />
		<tag k="place" v="locality" />
		<tag k="ssr:stedsnr" v="186292" />
	</node>
	<node lat="59.85267499585537" lon="5.468766665855825" id="-28261">
		<tag k="fixme" v="consider natural=peak for the most distinct mountains in the district" />
		<tag k="name" v="Stovegolvet" />
		<tag k="natural" v="hill" />
		<tag k="place" v="locality" />
		<tag k="ssr:stedsnr" v="186298" />
	</node>
	<node lat="59.861613893533566" lon="5.488083339320604" id="-28263">
		<tag k="name" v="Heia" />
		<tag k="natural" v="hill" />
		<tag k="place" v="locality" />
		<tag k="ssr:stedsnr" v="186259" />
	</node>
	<node lat="59.835433330969956" lon="5.5916750039869925" id="-28267">
		<tag k="name" v="Ørnahaugen" />
		<tag k="natural" v="hill" />
		<tag k="place" v="locality" />
		<tag k="ssr:stedsnr" v="186345" />
	</node>
	<node lat="59.77625000379111" lon="5.4232638889352875" id="-28269">
		<tag k="alt_name" v="Skaråsen" />
		<tag k="fixme" v="consider natural=peak for the most distinct mountains in the district" />
		<tag k="name" v="Skardåsen" />
		<tag k="natural" v="hill" />
		<tag k="place" v="locality" />
		<tag k="ssr:stedsnr" v="186623" />
	</node>
	<node lat="59.76476666914637" lon="5.4425472193082225" id="-28278">
		<tag k="name" v="Tornehaugane" />
		<tag k="natural" v="hill" />
		<tag k="place" v="locality" />
		<tag k="ssr:stedsnr" v="219793" />
	</node>
	<node lat="59.75300277972962" lon="5.439719450759137" id="-28279">
		<tag k="fixme" v="consider natural=peak for the most distinct mountains in the district" />
		<tag k="name" v="Skaråsen" />
		<tag k="natural" v="hill" />
		<tag k="place" v="locality" />
		<tag k="ssr:stedsnr" v="219796" />
	</node>
	<node lat="59.79958055883395" lon="5.385880547931308" id="-28281">
		<tag k="name" v="Hillerhaugen" />
		<tag k="natural" v="hill" />
		<tag k="place" v="locality" />
		<tag k="ssr:stedsnr" v="220139" />
	</node>
	<node lat="59.794222218985084" lon="5.382622228737634" id="-28282">
		<tag k="fixme" v="consider natural=peak for the most distinct mountains in the district" />
		<tag k="name" v="Kuhillerfjellet" />
		<tag k="natural" v="hill" />
		<tag k="place" v="locality" />
		<tag k="ssr:stedsnr" v="220141" />
	</node>
	<node lat="59.77307778072006" lon="5.503075005490302" id="-28285">
		<tag k="name" v="Midthaugen" />
		<tag k="natural" v="hill" />
		<tag k="place" v="locality" />
		<tag k="ssr:stedsnr" v="219861" />
	</node>
	<node lat="59.846486111348334" lon="5.4459333327754935" id="-28286">
		<tag k="name" v="Vaulane" />
		<tag k="place" v="locality" />
		<tag k="ssr:stedsnr" v="220198" />
	</node>
	<node lat="59.84031944166897" lon="5.451449994873104" id="-28287">
		<tag k="name" v="Botnabakken" />
		<tag k="natural" v="slope" />
		<tag k="place" v="locality" />
		<tag k="ssr:stedsnr" v="220200" />
	</node>
	<node lat="59.75628888908847" lon="5.4631611129446105" id="-28291">
		<tag k="name" v="Sæbøhaugen" />
		<tag k="natural" v="hill" />
		<tag k="place" v="locality" />
		<tag k="ssr:stedsnr" v="280797" />
	</node>
	<node lat="59.80188611023611" lon="5.341152771363507" id="-28293">
		<tag k="name" v="Stemmehaugen" />
		<tag k="natural" v="hill" />
		<tag k="place" v="locality" />
		<tag k="ssr:stedsnr" v="280080" />
	</node>
	<node lat="59.78269722362241" lon="5.348630552049448" id="-28294">
		<tag k="fixme" v="consider natural=peak for the most distinct mountains in the district" />
		<tag k="name" v="Stokkåsen" />
		<tag k="natural" v="hill" />
		<tag k="place" v="locality" />
		<tag k="ssr:stedsnr" v="280085" />
	</node>
	<node lat="59.82002558548217" lon="5.474433548779331" id="-28296">
		<tag k="name" v="Moldbrekka" />
		<tag k="natural" v="hill" />
		<tag k="place" v="locality" />
		<tag k="ssr:stedsnr" v="280094" />
	</node>
	<node lat="59.82749999845385" lon="5.459297224031123" id="-28297">
		<tag k="name" v="Arahaugen" />
		<tag k="natural" v="hill" />
		<tag k="place" v="locality" />
		<tag k="ssr:stedsnr" v="280101" />
	</node>
	<node lat="59.85986111478571" lon="5.477438889760041" id="-28300">
		<tag k="name" v="Nibba" />
		<tag k="natural" v="hill" />
		<tag k="place" v="locality" />
		<tag k="ssr:stedsnr" v="280051" />
	</node>
	<node lat="59.781791666502286" lon="5.400605557534447" id="-28301">
		<tag k="name" v="Mosahaugen" />
		<tag k="natural" v="hill" />
		<tag k="place" v="locality" />
		<tag k="ssr:stedsnr" v="280061" />
	</node>
	<node lat="59.86887777956589" lon="5.504005555350934" id="-28302">
		<tag k="fixme" v="consider natural=peak for the most distinct mountains in the district" />
		<tag k="name" v="Agdesteinsbrunene" />
		<tag k="natural" v="hill" />
		<tag k="place" v="locality" />
		<tag k="ssr:stedsnr" v="280062" />
	</node>
	<node lat="59.77356944760867" lon="5.453725003906097" id="-28304">
		<tag k="name" v="Trettehaugen" />
		<tag k="natural" v="hill" />
		<tag k="place" v="locality" />
		<tag k="ssr:stedsnr" v="280766" />
	</node>
	<node lat="59.825575442160144" lon="5.507107689926328" id="-28305">
		<tag k="loc_name" v="Setraledhaugen" />
		<tag k="name" v="Lauvhaugen" />
		<tag k="natural" v="hill" />
		<tag k="place" v="locality" />
		<tag k="ssr:stedsnr" v="281192" />
	</node>
	<node lat="59.82238611364121" lon="5.482186110018519" id="-28306">
		<tag k="name" v="Lyningehaugen" />
		<tag k="natural" v="hill" />
		<tag k="place" v="locality" />
		<tag k="ssr:stedsnr" v="281198" />
	</node>
	<node lat="59.79379166267663" lon="5.437758334951503" id="-28311">
		<tag k="fixme" v="consider natural=peak for the most distinct mountains in the district" />
		<tag k="name" v="Smalåsen" />
		<tag k="natural" v="hill" />
		<tag k="place" v="locality" />
		<tag k="ssr:stedsnr" v="280864" />
	</node>
	<node lat="59.81452500188949" lon="5.4106416713479675" id="-28313">
		<tag k="name" v="Setralia" />
		<tag k="natural" v="slope" />
		<tag k="place" v="locality" />
		<tag k="ssr:stedsnr" v="281139" />
	</node>
	<node lat="59.76542222065818" lon="5.407102784332053" id="-28315">
		<tag k="fixme" v="consider natural=peak for the most distinct mountains in the district" />
		<tag k="name" v="Nesfjellet" />
		<tag k="natural" v="hill" />
		<tag k="place" v="locality" />
		<tag k="ssr:stedsnr" v="281146" />
	</node>
	<node lat="59.844236114972226" lon="5.431274993482279" id="-28316">
		<tag k="name" v="Breidalsbrekka" />
		<tag k="natural" v="slope" />
		<tag k="place" v="locality" />
		<tag k="ssr:stedsnr" v="281159" />
	</node>
	<node lat="59.848863891228255" lon="5.455150001819468" id="-28317">
		<tag k="name" v="Eldhushøgda" />
		<tag k="natural" v="hill" />
		<tag k="place" v="locality" />
		<tag k="ssr:stedsnr" v="281166" />
	</node>
	<node lat="59.85824722105976" lon="5.573886112379172" id="-28320">
		<tag k="name" v="Ljosolderhaugen" />
		<tag k="natural" v="hill" />
		<tag k="place" v="locality" />
		<tag k="ssr:stedsnr" v="281843" />
	</node>
	<node lat="59.853919442272876" lon="5.518011107407221" id="-28334">
		<tag k="fixme" v="consider natural=peak for the most distinct mountains in the district" />
		<tag k="name" v="Hjartåsen" />
		<tag k="natural" v="hill" />
		<tag k="place" v="locality" />
		<tag k="ssr:stedsnr" v="341065" />
	</node>
	<node lat="59.841211113649194" lon="5.440786105416766" id="-28337">
		<tag k="name" v="Ravasslia" />
		<tag k="natural" v="slope" />
=======
	<node id="-605337" lat="59.835433331" lon="5.59167500399">
		<tag k="name" v="Ørnahaugen" />
		<tag k="natural" v="hill" />
		<tag k="place" v="locality" />
		<tag k="ssr:stedsnr" v="186345" />
	</node>
	<node id="-605332" lat="59.8526749959" lon="5.46876666586">
		<tag k="fixme" v="consider natural=peak for the most distinct mountains in the district" />
		<tag k="name" v="Stovegolvet" />
		<tag k="natural" v="hill" />
		<tag k="place" v="locality" />
		<tag k="ssr:stedsnr" v="186298" />
	</node>
	<node id="-605330" lat="59.8448416685" lon="5.50022778578">
		<tag k="fixme" v="consider natural=peak for the most distinct mountains in the district" />
		<tag k="name" v="Tindane" />
		<tag k="natural" v="hill" />
		<tag k="place" v="locality" />
		<tag k="ssr:stedsnr" v="186292" />
	</node>
	<node id="-605329" lat="59.8616138935" lon="5.48808333932">
		<tag k="name" v="Heia" />
		<tag k="natural" v="hill" />
		<tag k="place" v="locality" />
		<tag k="ssr:stedsnr" v="186259" />
	</node>
	<node id="-605323" lat="59.8545694404" lon="5.57253055637">
		<tag k="name" v="Rongedalsstrupen" />
		<tag k="natural" v="hill" />
		<tag k="place" v="locality" />
		<tag k="ssr:stedsnr" v="159840" />
	</node>
	<node id="-605321" lat="59.8006500003" lon="5.39512499446">
		<tag k="name" v="Nordre Grova" />
		<tag k="natural" v="hill" />
		<tag k="place" v="locality" />
		<tag k="ssr:stedsnr" v="159136" />
	</node>
	<node id="-605320" lat="59.8533916674" lon="5.46591666026">
		<tag k="name" v="Dyrdalane" />
		<tag k="natural" v="valley" />
		<tag k="place" v="locality" />
		<tag k="ssr:stedsnr" v="159050" />
	</node>
	<node id="-605318" lat="59.7730694444" lon="5.40664999306">
		<tag k="fixme" v="consider natural=peak for the most distinct mountains in the district" />
		<tag k="name" v="Almåsen" />
		<tag k="natural" v="hill" />
		<tag k="place" v="locality" />
		<tag k="ssr:stedsnr" v="159025" />
	</node>
	<node id="-605316" lat="59.8653972259" lon="5.60109444032">
		<tag k="fixme" v="consider natural=peak for the most distinct mountains in the district" />
		<tag k="name" v="Geitanuten" />
		<tag k="natural" v="hill" />
		<tag k="ssr:stedsnr" v="159241" />
	</node>
	<node id="-605314" lat="59.8188888847" lon="5.49973333631">
		<tag k="fixme" v="consider natural=peak for the most distinct mountains in the district" />
		<tag k="loc_name" v="Lundarås" />
		<tag k="name" v="Lundaråsen" />
		<tag k="natural" v="hill" />
		<tag k="place" v="locality" />
		<tag k="ssr:stedsnr" v="159199" />
	</node>
	<node id="-605312" lat="59.8306222245" lon="5.51974166456">
		<tag k="fixme" v="consider natural=peak for the most distinct mountains in the district" />
		<tag k="name" v="Kjosaåsen" />
		<tag k="natural" v="hill" />
		<tag k="place" v="locality" />
		<tag k="ssr:stedsnr" v="159180" />
	</node>
	<node id="-605310" lat="59.7628111137" lon="5.43697777222">
		<tag k="fixme" v="consider natural=peak for the most distinct mountains in the district" />
		<tag k="name" v="Ospåsen" />
		<tag k="natural" v="hill" />
		<tag k="place" v="locality" />
		<tag k="ssr:stedsnr" v="158788" />
	</node>
	<node id="-605309" lat="59.7767916639" lon="5.44971388441">
		<tag k="name" v="Koladalen" />
		<tag k="natural" v="valley" />
		<tag k="place" v="locality" />
		<tag k="ssr:stedsnr" v="158775" />
	</node>
	<node id="-605304" lat="59.8259777798" lon="5.45138332876">
		<tag k="name" v="Vatnadalen" />
		<tag k="natural" v="valley" />
		<tag k="place" v="locality" />
		<tag k="ssr:stedsnr" v="125949" />
	</node>
	<node id="-605302" lat="59.7702750012" lon="5.39157499722">
		<tag k="fixme" v="consider natural=peak for the most distinct mountains in the district" />
		<tag k="name" v="Høgåsen" />
		<tag k="natural" v="hill" />
		<tag k="place" v="locality" />
		<tag k="ssr:stedsnr" v="125634" />
	</node>
	<node id="-605297" lat="59.8343111075" lon="5.56790000878">
		<tag k="name" v="Nakken" />
		<tag k="natural" v="hill" />
		<tag k="place" v="locality" />
		<tag k="ssr:stedsnr" v="125347" />
	</node>
	<node id="-605294" lat="59.8681111114" lon="5.57712221789">
		<tag k="name" v="Raudberget" />
		<tag k="natural" v="hill" />
		<tag k="place" v="locality" />
		<tag k="ssr:stedsnr" v="125323" />
	</node>
	<node id="-605289" lat="59.8868194411" lon="5.49802777234">
		<tag k="name" v="Sjonarhaug" />
		<tag k="natural" v="hill" />
		<tag k="place" v="locality" />
		<tag k="ssr:stedsnr" v="125297" />
	</node>
	<node id="-605288" lat="59.8736000012" lon="5.49235833223">
		<tag k="fixme" v="consider natural=peak for the most distinct mountains in the district" />
		<tag k="name" v="Kattnakken" />
		<tag k="natural" v="hill" />
		<tag k="place" v="locality" />
		<tag k="ssr:stedsnr" v="125292" />
	</node>
	<node id="-605280" lat="59.8572444419" lon="5.5672444399">
		<tag k="name" v="Luren" />
		<tag k="place" v="locality" />
		<tag k="ssr:stedsnr" v="99834" />
	</node>
	<node id="-605277" lat="59.8552888849" lon="5.61088332815">
		<tag k="name" v="Lindehaugen" />
		<tag k="natural" v="hill" />
		<tag k="place" v="locality" />
		<tag k="ssr:stedsnr" v="99229" />
	</node>
	<node id="-605276" lat="59.8448111106" lon="5.5257027713">
		<tag k="name" v="Storhaugen" />
		<tag k="natural" v="hill" />
		<tag k="place" v="locality" />
		<tag k="ssr:stedsnr" v="99214" />
	</node>
	<node id="-605275" lat="59.812244446" lon="5.41239444205">
		<tag k="name" v="Setradalen" />
		<tag k="natural" v="valley" />
		<tag k="place" v="locality" />
		<tag k="ssr:stedsnr" v="99147" />
	</node>
	<node id="-605272" lat="59.7541972216" lon="5.43964444354">
		<tag k="name" v="Skaråsdalen" />
		<tag k="natural" v="valley" />
		<tag k="place" v="locality" />
		<tag k="ssr:stedsnr" v="98781" />
	</node>
	<node id="-605271" lat="59.7509111084" lon="5.44923888841">
		<tag k="name" v="Apalhaugen" />
		<tag k="natural" v="hill" />
		<tag k="place" v="locality" />
		<tag k="ssr:stedsnr" v="98779" />
	</node>
	<node id="-605269" lat="59.8398555533" lon="5.48891388324">
		<tag k="name" v="Ormabrekka" />
		<tag k="natural" v="slope" />
		<tag k="place" v="locality" />
		<tag k="ssr:stedsnr" v="98835" />
	</node>
	<node id="-605268" lat="59.7772777739" lon="5.45734166803">
		<tag k="name" v="Vindfallehaugen" />
		<tag k="natural" v="hill" />
		<tag k="place" v="locality" />
		<tag k="ssr:stedsnr" v="98749" />
	</node>
	<node id="-605267" lat="59.8284722238" lon="5.57880833171">
		<tag k="name" v="Hushammaren" />
		<tag k="natural" v="hill" />
		<tag k="place" v="locality" />
		<tag k="ssr:stedsnr" v="98095" />
	</node>
	<node id="-605266" lat="59.829574999" lon="5.57374722417">
		<tag k="name" v="Hjalmarhaugen" />
		<tag k="natural" v="hill" />
		<tag k="place" v="locality" />
		<tag k="ssr:stedsnr" v="98094" />
	</node>
	<node id="-605264" lat="59.8571555513" lon="5.5083055564">
		<tag k="name" v="Rusta" />
		<tag k="natural" v="hill" />
		<tag k="place" v="locality" />
		<tag k="ssr:stedsnr" v="98084" />
	</node>
	<node id="-605260" lat="59.8077388875" lon="5.40740278078">
		<tag k="fixme" v="consider natural=peak for the most distinct mountains in the district" />
		<tag k="name" v="Hesthammaren" />
		<tag k="natural" v="hill" />
		<tag k="ssr:stedsnr" v="98129" />
	</node>
	<node id="-605258" lat="59.8622222218" lon="5.51591388105">
		<tag k="fixme" v="consider natural=peak for the most distinct mountains in the district" />
		<tag k="name" v="Løkjelsåsen" />
		<tag k="natural" v="hill" />
		<tag k="place" v="locality" />
		<tag k="ssr:stedsnr" v="98048" />
	</node>
	<node id="-605257" lat="59.769927776" lon="5.41952777826">
		<tag k="fixme" v="consider natural=peak for the most distinct mountains in the district" />
		<tag k="name" v="Dyråsen" />
		<tag k="natural" v="hill" />
		<tag k="place" v="locality" />
		<tag k="ssr:stedsnr" v="98035" />
	</node>
	<node id="-605247" lat="59.8643027815" lon="5.45040555294">
		<tag k="fixme" v="consider natural=peak for the most distinct mountains in the district" />
		<tag k="name" v="Såta" />
		<tag k="natural" v="hill" />
		<tag k="place" v="locality" />
		<tag k="ssr:stedsnr" v="64895" />
	</node>
	<node id="-605239" lat="59.8582194464" lon="5.55504167362">
		<tag k="name" v="Hommandehaugane" />
		<tag k="natural" v="hill" />
		<tag k="place" v="locality" />
		<tag k="ssr:stedsnr" v="38848" />
	</node>
	<node id="-605237" lat="59.8689500011" lon="5.60259722197">
		<tag k="name" v="Skotet" />
		<tag k="place" v="locality" />
		<tag k="ssr:stedsnr" v="38242" />
	</node>
	<node id="-605236" lat="59.8336361146" lon="5.51041943837">
		<tag k="name" v="Brumlehaugen" />
		<tag k="natural" v="hill" />
		<tag k="place" v="locality" />
		<tag k="ssr:stedsnr" v="38233" />
	</node>
	<node id="-605234" lat="59.8204749982" lon="5.45047222119">
		<tag k="name" v="Gjøteigen" />
		<tag k="place" v="locality" />
		<tag k="ssr:stedsnr" v="38116" />
	</node>
	<node id="-605231" lat="59.7764166669" lon="5.41963611499">
		<tag k="name" v="Revadalsrinda" />
		<tag k="natural" v="hill" />
		<tag k="place" v="locality" />
		<tag k="ssr:stedsnr" v="38032" />
	</node>
	<node id="-605230" lat="59.8210527779" lon="5.50832499585">
		<tag k="name" v="Hundsryggen" />
		<tag k="natural" v="ridge" />
		<tag k="place" v="locality" />
		<tag k="ssr:stedsnr" v="38195" />
	</node>
	<node id="-605224" lat="59.7915805532" lon="5.37655834245">
		<tag k="name" v="Hetledalen" />
		<tag k="natural" v="valley" />
		<tag k="place" v="locality" />
		<tag k="ssr:stedsnr" v="37831" />
	</node>
	<node id="-605223" lat="59.7706472261" lon="5.45431110534">
		<tag k="name" v="Søre Skarhaugen" />
		<tag k="natural" v="hill" />
		<tag k="place" v="locality" />
		<tag k="ssr:stedsnr" v="37892" />
	</node>
	<node id="-605222" lat="59.7673861142" lon="5.45947778615">
		<tag k="name" v="Bjelkarhaugen" />
		<tag k="natural" v="hill" />
		<tag k="place" v="locality" />
		<tag k="ssr:stedsnr" v="37891" />
	</node>
	<node id="-605209" lat="59.8714916648" lon="5.57913332482">
		<tag k="alt_name" v="Barfotdalen;Berføttedalen" />
		<tag k="name" v="Berrføttedalen" />
		<tag k="natural" v="valley" />
		<tag k="place" v="locality" />
		<tag k="ssr:stedsnr" v="25147" />
	</node>
	<node id="-605204" lat="59.8363999989" lon="5.41252222713">
		<tag k="name" v="Prestavarden" />
		<tag k="natural" v="hill" />
		<tag k="place" v="locality" />
		<tag k="ssr:stedsnr" v="4982" />
	</node>
	<node id="-605203" lat="59.8407805527" lon="5.46063334235">
		<tag k="alt_name" v="Steingjelshædda" />
		<tag k="name" v="Steingilshøgda" />
		<tag k="natural" v="hill" />
		<tag k="place" v="locality" />
		<tag k="ssr:stedsnr" v="4974" />
	</node>
	<node id="-605202" lat="59.7612083371" lon="5.42879444071">
		<tag k="name" v="Djupedalen" />
		<tag k="natural" v="valley" />
		<tag k="place" v="locality" />
		<tag k="ssr:stedsnr" v="4584" />
	</node>
	<node id="-605198" lat="59.8515611102" lon="5.50377499354">
		<tag k="alt_name" v="Branddalen" />
		<tag k="name" v="Branndalen" />
		<tag k="natural" v="valley" />
		<tag k="place" v="locality" />
		<tag k="ssr:stedsnr" v="4297" />
	</node>
	<node id="-605196" lat="59.8973821072" lon="5.46452231624">
		<tag k="alt_name" v="Midhamarsåta;Mehamarsåta" />
		<tag k="fixme" v="consider natural=peak for the most distinct mountains in the district" />
		<tag k="name" v="Mehammarsåta" />
		<tag k="natural" v="hill" />
		<tag k="place" v="locality" />
		<tag k="ssr:stedsnr" v="3834" />
	</node>
	<node id="-605190" lat="59.7921305585" lon="5.43980555002">
		<tag k="fixme" v="consider natural=peak for the most distinct mountains in the district" />
		<tag k="name" v="Lauvåsen" />
		<tag k="natural" v="hill" />
		<tag k="place" v="locality" />
		<tag k="ssr:stedsnr" v="3465" />
	</node>
	<node id="-605188" lat="59.8894305594" lon="5.49247777335">
		<tag k="fixme" v="consider natural=peak for the most distinct mountains in the district" />
		<tag k="name" v="Brunene" />
		<tag k="natural" v="hill" />
		<tag k="place" v="locality" />
		<tag k="ssr:stedsnr" v="3246" />
	</node>
	<node id="-605183" lat="59.8203222197" lon="5.44461111114">
		<tag k="name" v="Balterslopet" />
		<tag k="natural" v="hill" />
		<tag k="place" v="locality" />
		<tag k="ssr:stedsnr" v="948872" />
	</node>
	<node id="-605180" lat="59.8314055525" lon="5.51790833886">
		<tag k="name" v="Førlandsbruna" />
		<tag k="natural" v="slope" />
		<tag k="place" v="locality" />
		<tag k="ssr:stedsnr" v="948218" />
	</node>
	<node id="-605176" lat="59.7681083371" lon="5.39861388295">
		<tag k="name" v="Skifteskolten" />
		<tag k="natural" v="hill" />
		<tag k="place" v="locality" />
		<tag k="ssr:stedsnr" v="948072" />
	</node>
	<node id="-605175" lat="59.8326000023" lon="5.39932499848">
		<tag k="name" v="Barlindedalen" />
		<tag k="natural" v="valley" />
		<tag k="place" v="locality" />
		<tag k="ssr:stedsnr" v="948071" />
	</node>
	<node id="-605174" lat="59.8646416709" lon="5.59503611861">
		<tag k="name" v="Haukanesskaret" />
		<tag k="natural" v="valley" />
		<tag k="place" v="locality" />
		<tag k="ssr:stedsnr" v="948056" />
	</node>
	<node id="-605173" lat="59.8795249954" lon="5.47709721546">
		<tag k="name" v="Kudalen" />
		<tag k="natural" v="valley" />
		<tag k="place" v="locality" />
		<tag k="ssr:stedsnr" v="948053" />
	</node>
	<node id="-605172" lat="59.8493499984" lon="5.43269722053">
		<tag k="name" v="Breidalen" />
		<tag k="natural" v="valley" />
		<tag k="place" v="locality" />
		<tag k="ssr:stedsnr" v="948174" />
	</node>
	<node id="-605171" lat="59.8489638893" lon="5.42658611342">
		<tag k="fixme" v="consider natural=peak for the most distinct mountains in the district" />
		<tag k="name" v="Stavlifjellet" />
		<tag k="natural" v="hill" />
		<tag k="place" v="locality" />
		<tag k="ssr:stedsnr" v="948173" />
	</node>
	<node id="-605165" lat="59.7915083315" lon="5.47035833647">
		<tag k="name" v="Kulten" />
		<tag k="natural" v="hill" />
		<tag k="place" v="locality" />
		<tag k="ssr:stedsnr" v="947870" />
	</node>
	<node id="-605164" lat="59.8081944434" lon="5.47373610649">
		<tag k="name" v="Flota" />
		<tag k="place" v="locality" />
		<tag k="ssr:stedsnr" v="947868" />
	</node>
	<node id="-605158" lat="59.7986472199" lon="5.44511389754">
		<tag k="name" v="Dalshaugen" />
		<tag k="natural" v="hill" />
		<tag k="place" v="locality" />
		<tag k="ssr:stedsnr" v="887869" />
	</node>
	<node id="-605157" lat="59.7706972209" lon="5.50868611423">
		<tag k="name" v="Litlehagen" />
		<tag k="place" v="locality" />
		<tag k="ssr:stedsnr" v="887857" />
	</node>
	<node id="-605154" lat="59.8426694474" lon="5.43585555051">
		<tag k="fixme" v="consider natural=peak for the most distinct mountains in the district" />
		<tag k="name" v="Budalsfjellet" />
		<tag k="natural" v="hill" />
		<tag k="place" v="locality" />
		<tag k="ssr:stedsnr" v="887171" />
	</node>
	<node id="-605152" lat="59.8382277795" lon="5.46968055663">
		<tag k="name" v="Trasjo" />
		<tag k="place" v="locality" />
		<tag k="ssr:stedsnr" v="887164" />
	</node>
	<node id="-605151" lat="59.8416361114" lon="5.46899721929">
		<tag k="name" v="Lundekollen" />
		<tag k="natural" v="hill" />
		<tag k="place" v="locality" />
		<tag k="ssr:stedsnr" v="887161" />
	</node>
	<node id="-605150" lat="59.8463749965" lon="5.46859166614">
		<tag k="name" v="Askedalen" />
		<tag k="natural" v="valley" />
		<tag k="place" v="locality" />
		<tag k="ssr:stedsnr" v="887160" />
	</node>
	<node id="-605149" lat="59.8096416679" lon="5.37012222738">
		<tag k="name" v="Illekleiv" />
		<tag k="place" v="locality" />
		<tag k="ssr:stedsnr" v="887154" />
	</node>
	<node id="-605148" lat="59.821661657" lon="5.47748518298">
		<tag k="alt_name" v="Haukareilet" />
		<tag k="name" v="Haukareiret" />
		<tag k="natural" v="hill" />
		<tag k="place" v="locality" />
		<tag k="ssr:stedsnr" v="887128" />
	</node>
	<node id="-605146" lat="59.799211113" lon="5.42009166293">
		<tag k="fixme" v="consider natural=peak for the most distinct mountains in the district" />
		<tag k="name" v="Løkåsen" />
		<tag k="natural" v="hill" />
		<tag k="place" v="locality" />
		<tag k="ssr:stedsnr" v="887125" />
	</node>
	<node id="-605138" lat="59.7845583323" lon="5.44214721473">
		<tag k="name" v="Djupedalen" />
		<tag k="natural" v="valley" />
		<tag k="place" v="locality" />
		<tag k="ssr:stedsnr" v="948882" />
	</node>
	<node id="-605137" lat="59.827722221" lon="5.49158055441">
		<tag k="fixme" v="consider natural=peak for the most distinct mountains in the district" />
		<tag k="name" v="Dyråsen" />
		<tag k="natural" v="hill" />
		<tag k="place" v="locality" />
		<tag k="ssr:stedsnr" v="948200" />
	</node>
	<node id="-605136" lat="59.8194444479" lon="5.48927778019">
		<tag k="fixme" v="consider natural=peak for the most distinct mountains in the district" />
		<tag k="name" v="Hauglandsåsen" />
		<tag k="natural" v="hill" />
		<tag k="place" v="locality" />
		<tag k="ssr:stedsnr" v="948196" />
	</node>
	<node id="-605135" lat="59.8259611092" lon="5.51899444288">
		<tag k="name" v="Gråsmog" />
		<tag k="place" v="locality" />
		<tag k="ssr:stedsnr" v="948186" />
	</node>
	<node id="-605132" lat="59.738247221" lon="5.41218054773">
		<tag k="name" v="Lyngshaugen" />
		<tag k="natural" v="hill" />
		<tag k="place" v="locality" />
		<tag k="ssr:stedsnr" v="948148" />
	</node>
	<node id="-605131" lat="59.8108527818" lon="5.46814721844">
		<tag k="fixme" v="consider natural=peak for the most distinct mountains in the district" />
		<tag k="name" v="Eikåsen" />
		<tag k="natural" v="hill" />
		<tag k="place" v="locality" />
		<tag k="ssr:stedsnr" v="948141" />
	</node>
	<node id="-605130" lat="59.8165999956" lon="5.45483888126">
		<tag k="fixme" v="consider natural=peak for the most distinct mountains in the district" />
		<tag k="name" v="Slokåsen" />
		<tag k="natural" v="hill" />
		<tag k="place" v="locality" />
		<tag k="ssr:stedsnr" v="948140" />
	</node>
	<node id="-605129" lat="59.8245611067" lon="5.47074166978">
		<tag k="fixme" v="consider natural=peak for the most distinct mountains in the district" />
		<tag k="name" v="Stokkliåsen" />
		<tag k="natural" v="hill" />
		<tag k="place" v="locality" />
		<tag k="ssr:stedsnr" v="948134" />
	</node>
	<node id="-605127" lat="59.7791416713" lon="5.36343056265">
		<tag k="name" v="Nonshaugen" />
		<tag k="natural" v="hill" />
		<tag k="place" v="locality" />
		<tag k="ssr:stedsnr" v="948119" />
	</node>
	<node id="-605126" lat="59.8135666624" lon="5.47119999444">
		<tag k="fixme" v="consider natural=peak for the most distinct mountains in the district" />
		<tag k="name" v="Brunståsen" />
		<tag k="natural" v="hill" />
		<tag k="place" v="locality" />
		<tag k="ssr:stedsnr" v="948112" />
	</node>
	<node id="-605125" lat="59.7713888892" lon="5.4084444387">
		<tag k="name" v="Svartasmoget" />
		<tag k="place" v="locality" />
		<tag k="ssr:stedsnr" v="948047" />
	</node>
	<node id="-605121" lat="59.8768972191" lon="5.47533888589">
		<tag k="fixme" v="consider natural=peak for the most distinct mountains in the district" />
		<tag k="name" v="Martebrotet" />
		<tag k="natural" v="hill" />
		<tag k="ssr:stedsnr" v="948080" />
	</node>
	<node id="-605120" lat="59.8596027776" lon="5.49045278102">
		<tag k="name" v="Sjonarhaugen" />
		<tag k="natural" v="hill" />
		<tag k="place" v="locality" />
		<tag k="ssr:stedsnr" v="948075" />
	</node>
	<node id="-605117" lat="59.7587305575" lon="5.45538056402">
		<tag k="name" v="Svinshammaren" />
		<tag k="natural" v="hill" />
		<tag k="place" v="locality" />
		<tag k="ssr:stedsnr" v="947782" />
	</node>
	<node id="-605116" lat="59.8914555534" lon="5.501972219">
		<tag k="name" v="Engedalen" />
		<tag k="natural" v="valley" />
		<tag k="place" v="locality" />
		<tag k="ssr:stedsnr" v="947246" />
	</node>
	<node id="-605115" lat="59.8855611092" lon="5.48801388785">
		<tag k="name" v="Nipalia" />
		<tag k="natural" v="slope" />
		<tag k="place" v="locality" />
		<tag k="ssr:stedsnr" v="947244" />
	</node>
	<node id="-605114" lat="59.8031638891" lon="5.43311667475">
		<tag k="fixme" v="consider natural=peak for the most distinct mountains in the district" />
		<tag k="name" v="Hjartåsen" />
		<tag k="natural" v="hill" />
		<tag k="place" v="locality" />
		<tag k="ssr:stedsnr" v="854557" />
	</node>
	<node id="-605101" lat="59.8071833353" lon="5.40805000453">
		<tag k="fixme" v="consider natural=peak for the most distinct mountains in the district" />
		<tag k="name" v="Litlabøfjellet" />
		<tag k="natural" v="hill" />
		<tag k="place" v="locality" />
		<tag k="ssr:stedsnr" v="793591" />
	</node>
	<node id="-605099" lat="59.8107249988" lon="5.42186944322">
		<tag k="fixme" v="consider natural=peak for the most distinct mountains in the district" />
		<tag k="name" v="Bjørnahifjellet" />
		<tag k="natural" v="hill" />
		<tag k="place" v="locality" />
		<tag k="ssr:stedsnr" v="793569" />
	</node>
	<node id="-605096" lat="59.8183749965" lon="5.58367499346">
		<tag k="alt_name" v="Huglhamaren" />
		<tag k="name" v="Huglahammaren" />
		<tag k="natural" v="hill" />
		<tag k="place" v="locality" />
		<tag k="ssr:stedsnr" v="792357" />
	</node>
	<node id="-605089" lat="59.8849694485" lon="5.44355000667">
		<tag k="name" v="Dyrdalen" />
		<tag k="natural" v="valley" />
		<tag k="place" v="locality" />
		<tag k="ssr:stedsnr" v="914815" />
	</node>
	<node id="-605085" lat="59.7775888917" lon="5.37450832794">
		<tag k="name" v="Ruken" />
		<tag k="natural" v="hill" />
		<tag k="place" v="locality" />
		<tag k="ssr:stedsnr" v="914612" />
	</node>
	<node id="-605080" lat="59.7947166664" lon="5.3879888947">
		<tag k="alt_name" v="Hustrudalen" />
		<tag k="name" v="Hustredalen" />
		<tag k="natural" v="valley" />
		<tag k="place" v="locality" />
		<tag k="ssr:stedsnr" v="914527" />
	</node>
	<node id="-605078" lat="59.8054805517" lon="5.48757222711">
		<tag k="fixme" v="consider natural=peak for the most distinct mountains in the district" />
		<tag k="name" v="Grimsåsen" />
		<tag k="natural" v="hill" />
		<tag k="place" v="locality" />
		<tag k="ssr:stedsnr" v="914366" />
	</node>
	<node id="-605072" lat="59.7939694473" lon="5.37559167145">
		<tag k="name" v="Dyvikdalen" />
		<tag k="natural" v="valley" />
		<tag k="place" v="locality" />
		<tag k="ssr:stedsnr" v="766121" />
	</node>
	<node id="-605070" lat="59.7967416638" lon="5.39092500406">
		<tag k="fixme" v="consider natural=peak for the most distinct mountains in the district" />
		<tag k="name" v="Grovaåsen" />
		<tag k="natural" v="hill" />
		<tag k="place" v="locality" />
		<tag k="ssr:stedsnr" v="766103" />
	</node>
	<node id="-605069" lat="59.7936305584" lon="5.40967221563">
		<tag k="name" v="Beindalen" />
		<tag k="natural" v="valley" />
		<tag k="place" v="locality" />
		<tag k="ssr:stedsnr" v="766096" />
	</node>
	<node id="-605068" lat="59.8069444481" lon="5.42096111536">
		<tag k="fixme" v="consider natural=peak for the most distinct mountains in the district" />
		<tag k="name" v="Markasteinsfjellet" />
		<tag k="natural" v="hill" />
		<tag k="place" v="locality" />
		<tag k="ssr:stedsnr" v="766089" />
	</node>
	<node id="-605065" lat="59.8300833327" lon="5.58290555668">
		<tag k="name" v="Skrapastykket" />
		<tag k="place" v="locality" />
		<tag k="ssr:stedsnr" v="766070" />
	</node>
	<node id="-605063" lat="59.7917055587" lon="5.46235555179">
		<tag k="name" v="Erikshaugen" />
		<tag k="natural" v="hill" />
		<tag k="place" v="locality" />
		<tag k="ssr:stedsnr" v="765853" />
	</node>
	<node id="-605061" lat="59.7914555517" lon="5.52786666729">
		<tag k="name" v="Storhaug" />
		<tag k="natural" v="hill" />
		<tag k="place" v="locality" />
		<tag k="ssr:stedsnr" v="765825" />
	</node>
	<node id="-605060" lat="59.8738027762" lon="5.58119721493">
		<tag k="name" v="Kvarvadalen" />
		<tag k="natural" v="valley" />
		<tag k="place" v="locality" />
		<tag k="ssr:stedsnr" v="765820" />
	</node>
	<node id="-605052" lat="59.8680916678" lon="5.58336665911">
		<tag k="name" v="Svena" />
		<tag k="natural" v="hill" />
>>>>>>> e1d4bc35ff8a6074a6f2e91616a996b547c36f15
		<tag k="place" v="locality" />
		<tag k="ssr:stedsnr" v="888801" />
	</node>
<<<<<<< HEAD
	<node lat="59.818596223526406" lon="5.496563635345565" id="-28338">
		<tag k="name" v="Skitnadalen" />
		<tag k="natural" v="valley" />
		<tag k="place" v="locality" />
		<tag k="ssr:stedsnr" v="341185" />
	</node>
	<node lat="59.80054722351018" lon="5.518494439301906" id="-28340">
		<tag k="name" v="Dalen" />
		<tag k="natural" v="valley" />
		<tag k="place" v="locality" />
		<tag k="ssr:stedsnr" v="340828" />
	</node>
	<node lat="59.77666111041821" lon="5.440994445312651" id="-28341">
		<tag k="fixme" v="consider natural=peak for the most distinct mountains in the district" />
		<tag k="name" v="Halvgjengeåsen" />
		<tag k="natural" v="hill" />
		<tag k="place" v="locality" />
		<tag k="ssr:stedsnr" v="340762" />
	</node>
	<node lat="59.759538886140156" lon="5.465488890982351" id="-28342">
		<tag k="name" v="Trollhaugen" />
		<tag k="natural" v="hill" />
		<tag k="place" v="locality" />
		<tag k="ssr:stedsnr" v="340779" />
	</node>
	<node lat="59.79804722659428" lon="5.4285416632499475" id="-28344">
		<tag k="fixme" v="consider natural=peak for the most distinct mountains in the district" />
		<tag k="name" v="Isdalsåsen" />
		<tag k="natural" v="hill" />
		<tag k="place" v="locality" />
		<tag k="ssr:stedsnr" v="340856" />
	</node>
	<node lat="59.805427781043726" lon="5.441783329166298" id="-28345">
		<tag k="fixme" v="consider natural=peak for the most distinct mountains in the district" />
		<tag k="name" v="Moldbrekkeåsen" />
		<tag k="natural" v="hill" />
		<tag k="place" v="locality" />
		<tag k="ssr:stedsnr" v="340862" />
	</node>
	<node lat="59.86404166776901" lon="5.587866662657171" id="-28348">
		<tag k="name" v="Anatjørnsdalen" />
		<tag k="natural" v="valley" />
=======
	<node id="-605051" lat="59.8668111108" lon="5.57644166226">
		<tag k="name" v="Kleivadalen" />
		<tag k="natural" v="valley" />
		<tag k="place" v="locality" />
		<tag k="ssr:stedsnr" v="888798" />
	</node>
	<node id="-605050" lat="59.8637888925" lon="5.58517776947">
		<tag k="name" v="Nonshaugen" />
		<tag k="natural" v="hill" />
		<tag k="place" v="locality" />
		<tag k="ssr:stedsnr" v="888796" />
	</node>
	<node id="-605049" lat="59.8592222181" lon="5.56864444258">
		<tag k="alt_name" v="Gullrompa" />
		<tag k="name" v="Gullrumpa" />
		<tag k="natural" v="hill" />
		<tag k="place" v="locality" />
		<tag k="ssr:stedsnr" v="888785" />
	</node>
	<node id="-605045" lat="59.769022225" lon="5.44430277203">
		<tag k="fixme" v="consider natural=peak for the most distinct mountains in the district" />
		<tag k="name" v="Moldfalleåsen" />
		<tag k="natural" v="hill" />
		<tag k="place" v="locality" />
		<tag k="ssr:stedsnr" v="887885" />
	</node>
	<node id="-605044" lat="59.7611527783" lon="5.45686666072">
		<tag k="name" v="Grønhaugane" />
		<tag k="natural" v="hill" />
		<tag k="place" v="locality" />
		<tag k="ssr:stedsnr" v="887793" />
	</node>
	<node id="-605042" lat="59.7828055547" lon="5.38491666722">
		<tag k="name" v="Underburdshaugen" />
		<tag k="natural" v="hill" />
		<tag k="place" v="locality" />
		<tag k="ssr:stedsnr" v="887782" />
	</node>
	<node id="-605041" lat="59.7602527741" lon="5.43154444048">
		<tag k="fixme" v="consider natural=peak for the most distinct mountains in the district" />
		<tag k="name" v="Areåsen" />
		<tag k="natural" v="hill" />
		<tag k="place" v="locality" />
		<tag k="ssr:stedsnr" v="887781" />
	</node>
	<node id="-605040" lat="59.8334333341" lon="5.47343889037">
		<tag k="name" v="Storefosslia" />
		<tag k="natural" v="slope" />
>>>>>>> e1d4bc35ff8a6074a6f2e91616a996b547c36f15
		<tag k="place" v="locality" />
		<tag k="ssr:stedsnr" v="887837" />
	</node>
<<<<<<< HEAD
	<node lat="59.79257222391099" lon="5.421038896698011" id="-28350">
		<tag k="fixme" v="consider natural=peak for the most distinct mountains in the district" />
		<tag k="name" v="Høgåsen" />
		<tag k="natural" v="hill" />
		<tag k="place" v="locality" />
		<tag k="ssr:stedsnr" v="341096" />
	</node>
	<node lat="59.73758333531877" lon="5.421083333815762" id="-28352">
		<tag k="name" v="Duberget" />
		<tag k="natural" v="hill" />
		<tag k="place" v="locality" />
		<tag k="ssr:stedsnr" v="341128" />
	</node>
	<node lat="59.856980557120536" lon="5.576725002353625" id="-28357">
		<tag k="name" v="Veadalen" />
		<tag k="natural" v="valley" />
		<tag k="place" v="locality" />
		<tag k="ssr:stedsnr" v="341838" />
	</node>
	<node lat="59.85314444515313" lon="5.577761113099511" id="-28358">
		<tag k="name" v="Rongedalen" />
		<tag k="natural" v="valley" />
		<tag k="place" v="locality" />
		<tag k="ssr:stedsnr" v="341840" />
	</node>
	<node lat="59.79456111225445" lon="5.525555550486729" id="-28369">
		<tag k="name" v="Sjølshaugen" />
		<tag k="natural" v="hill" />
		<tag k="place" v="locality" />
		<tag k="ssr:stedsnr" v="401800" />
	</node>
	<node lat="59.78015000339929" lon="5.489980549235367" id="-28371">
		<tag k="name" v="Lyhaugen" />
		<tag k="natural" v="hill" />
		<tag k="place" v="locality" />
		<tag k="ssr:stedsnr" v="401820" />
	</node>
	<node lat="59.76886111442139" lon="5.468333337649514" id="-28374">
		<tag k="name" v="Skiphaugen" />
		<tag k="natural" v="hill" />
		<tag k="place" v="locality" />
		<tag k="ssr:stedsnr" v="401738" />
	</node>
	<node lat="59.78956111446525" lon="5.4314416577860545" id="-28377">
		<tag k="fixme" v="consider natural=peak for the most distinct mountains in the district" />
		<tag k="name" v="Middagsåsen" />
		<tag k="natural" v="hill" />
		<tag k="place" v="locality" />
		<tag k="ssr:stedsnr" v="401827" />
	</node>
	<node lat="59.8031916652364" lon="5.443463889272167" id="-28378">
		<tag k="name" v="Ulvatjørndalen" />
		<tag k="natural" v="valley" />
		<tag k="place" v="locality" />
		<tag k="ssr:stedsnr" v="401831" />
	</node>
	<node lat="59.80548611045568" lon="5.470788883018014" id="-28379">
		<tag k="name" v="Urahaugane" />
		<tag k="natural" v="hill" />
		<tag k="place" v="locality" />
		<tag k="ssr:stedsnr" v="401837" />
	</node>
	<node lat="59.79380000123345" lon="5.466808339139043" id="-28380">
		<tag k="fixme" v="consider natural=peak for the most distinct mountains in the district" />
		<tag k="name" v="Nonsåsen" />
		<tag k="natural" v="hill" />
		<tag k="place" v="locality" />
		<tag k="ssr:stedsnr" v="401840" />
	</node>
	<node lat="59.856647225192305" lon="5.59088056255624" id="-28381">
		<tag k="name" v="Kaldedalen" />
		<tag k="natural" v="valley" />
		<tag k="place" v="locality" />
		<tag k="ssr:stedsnr" v="402039" />
	</node>
	<node lat="59.88753333634674" lon="5.445522214766714" id="-28383">
		<tag k="fixme" v="consider natural=peak for the most distinct mountains in the district" />
		<tag k="name" v="Steinfjellet" />
		<tag k="natural" v="hill" />
		<tag k="place" v="locality" />
		<tag k="ssr:stedsnr" v="402050" />
	</node>
	<node lat="59.863583329561884" lon="5.519497225781355" id="-28384">
		<tag k="name" v="Djupedalen" />
		<tag k="natural" v="valley" />
		<tag k="place" v="locality" />
		<tag k="ssr:stedsnr" v="402055" />
	</node>
	<node lat="59.853574998457184" lon="5.504347220557573" id="-28385">
		<tag k="name" v="Låvadalen" />
		<tag k="natural" v="valley" />
		<tag k="place" v="locality" />
		<tag k="ssr:stedsnr" v="402060" />
	</node>
	<node lat="59.82375833628769" lon="5.360563888804167" id="-28387">
		<tag k="name" v="Longavassbrotet" />
		<tag k="natural" v="hill" />
		<tag k="place" v="locality" />
		<tag k="ssr:stedsnr" v="402071" />
	</node>
	<node lat="59.76388333766816" lon="5.413663885891751" id="-28388">
		<tag k="name" v="Otrasetrabakken" />
		<tag k="natural" v="slope" />
		<tag k="place" v="locality" />
		<tag k="ssr:stedsnr" v="402146" />
	</node>
	<node lat="59.816663892698" lon="5.4589555538655565" id="-28390">
		<tag k="name" v="Svarteika" />
		<tag k="place" v="locality" />
		<tag k="ssr:stedsnr" v="402101" />
	</node>
	<node lat="59.88044166617942" lon="5.524208328875408" id="-28393">
		<tag k="name" v="Laukhellebakkane" />
		<tag k="natural" v="slope" />
		<tag k="place" v="locality" />
		<tag k="ssr:stedsnr" v="402257" />
	</node>
	<node lat="59.85586388891368" lon="5.56812223013646" id="-28394">
		<tag k="fixme" v="consider natural=peak for the most distinct mountains in the district" />
		<tag k="name" v="Lurastegfjellet" />
		<tag k="natural" v="hill" />
		<tag k="place" v="locality" />
		<tag k="ssr:stedsnr" v="402835" />
	</node>
	<node lat="59.85716666528953" lon="5.585322213972211" id="-28395">
		<tag k="name" v="Skogadalen" />
		<tag k="natural" v="valley" />
		<tag k="place" v="locality" />
		<tag k="ssr:stedsnr" v="402843" />
	</node>
	<node lat="59.793516670476045" lon="5.425063881303131" id="-28417">
		<tag k="fixme" v="consider natural=peak for the most distinct mountains in the district" />
		<tag k="name" v="Toppåsen" />
		<tag k="natural" v="hill" />
		<tag k="place" v="locality" />
		<tag k="ssr:stedsnr" v="522835" />
	</node>
	<node lat="59.790250003085056" lon="5.449880549432658" id="-28418">
		<tag k="fixme" v="consider natural=peak for the most distinct mountains in the district" />
		<tag k="name" v="Persåsen" />
		<tag k="natural" v="hill" />
		<tag k="place" v="locality" />
		<tag k="ssr:stedsnr" v="522840" />
	</node>
	<node lat="59.79571667025952" lon="5.412233330705175" id="-28419">
		<tag k="name" v="Underburdshaugen" />
		<tag k="natural" v="hill" />
		<tag k="place" v="locality" />
		<tag k="ssr:stedsnr" v="523130" />
	</node>
	<node lat="59.79368055532461" lon="5.369647221372624" id="-28421">
		<tag k="name" v="Smoget" />
		<tag k="place" v="locality" />
		<tag k="ssr:stedsnr" v="523148" />
	</node>
	<node lat="59.79233888485969" lon="5.369247220288265" id="-28422">
		<tag k="name" v="Stølshaugen" />
		<tag k="natural" v="hill" />
		<tag k="place" v="locality" />
		<tag k="ssr:stedsnr" v="523149" />
	</node>
	<node lat="59.836513887566554" lon="5.4924500053258924" id="-28425">
		<tag k="name" v="Eikekleiva" />
		<tag k="place" v="locality" />
		<tag k="ssr:stedsnr" v="523230" />
	</node>
	<node lat="59.81600833543948" lon="5.587969445110305" id="-28429">
		<tag k="name" v="Bukkaskåra" />
		<tag k="natural" v="hill" />
		<tag k="place" v="locality" />
		<tag k="ssr:stedsnr" v="523095" />
	</node>
	<node lat="59.82187222043382" lon="5.492286112250361" id="-28432">
		<tag k="fixme" v="consider natural=peak for the most distinct mountains in the district" />
		<tag k="name" v="Presthaugåsen" />
		<tag k="natural" v="hill" />
		<tag k="place" v="locality" />
		<tag k="ssr:stedsnr" v="523194" />
	</node>
	<node lat="59.81882221943758" lon="5.48809444713413" id="-28433">
=======
	<node id="-605035" lat="59.7947111142" lon="5.37303055595">
		<tag k="name" v="Rindane" />
		<tag k="natural" v="hill" />
		<tag k="place" v="locality" />
		<tag k="ssr:stedsnr" v="887145" />
	</node>
	<node id="-605029" lat="59.8731055586" lon="5.49122500159">
		<tag k="fixme" v="consider natural=peak for the most distinct mountains in the district" />
		<tag k="name" v="Sauganutane" />
		<tag k="natural" v="hill" />
		<tag k="ssr:stedsnr" v="887078" />
	</node>
	<node id="-605021" lat="59.8189083345" lon="5.3575583245">
		<tag k="name" v="Hodnalandshaugen" />
		<tag k="natural" v="hill" />
		<tag k="place" v="locality" />
		<tag k="ssr:stedsnr" v="732941" />
	</node>
	<node id="-605019" lat="59.8034444473" lon="5.42823333325">
		<tag k="name" v="Storedalen" />
		<tag k="natural" v="valley" />
		<tag k="place" v="locality" />
		<tag k="ssr:stedsnr" v="732593" />
	</node>
	<node id="-605017" lat="59.7847277818" lon="5.48898888274">
		<tag k="fixme" v="consider natural=peak for the most distinct mountains in the district" />
		<tag k="name" v="Løningåsen" />
		<tag k="natural" v="hill" />
		<tag k="place" v="locality" />
		<tag k="ssr:stedsnr" v="732385" />
	</node>
	<node id="-605011" lat="59.875252776" lon="5.47210833428">
		<tag k="fixme" v="consider natural=peak for the most distinct mountains in the district" />
		<tag k="name" v="Midtfjellet" />
		<tag k="natural" v="hill" />
		<tag k="place" v="locality" />
		<tag k="ssr:stedsnr" v="732283" />
	</node>
	<node id="-605005" lat="59.747950004" lon="5.45758333762">
		<tag k="fixme" v="consider natural=peak for the most distinct mountains in the district" />
		<tag k="name" v="Spikeråsen" />
		<tag k="natural" v="hill" />
		<tag k="place" v="locality" />
		<tag k="ssr:stedsnr" v="765785" />
	</node>
	<node id="-604994" lat="59.7951666654" lon="5.4533722291">
		<tag k="fixme" v="consider natural=peak for the most distinct mountains in the district" />
		<tag k="name" v="Rapåsen" />
		<tag k="natural" v="hill" />
		<tag k="place" v="locality" />
		<tag k="ssr:stedsnr" v="583875" />
	</node>
	<node id="-604993" lat="59.808616671" lon="5.42536666168">
		<tag k="name" v="Bjørnastegen" />
		<tag k="place" v="locality" />
		<tag k="ssr:stedsnr" v="583866" />
	</node>
	<node id="-604990" lat="59.7866777757" lon="5.47199166411">
		<tag k="name" v="Lindeberget" />
		<tag k="natural" v="hill" />
		<tag k="place" v="locality" />
		<tag k="ssr:stedsnr" v="583746" />
	</node>
	<node id="-604986" lat="59.8746222206" lon="5.47270278287">
		<tag k="name" v="Litle Tjørndalen" />
		<tag k="natural" v="valley" />
		<tag k="place" v="locality" />
		<tag k="ssr:stedsnr" v="583074" />
	</node>
	<node id="-604983" lat="59.7683055574" lon="5.45479722004">
		<tag k="fixme" v="consider natural=peak for the most distinct mountains in the district" />
		<tag k="name" v="Basåsen" />
		<tag k="natural" v="hill" />
		<tag k="place" v="locality" />
		<tag k="ssr:stedsnr" v="705886" />
	</node>
	<node id="-604981" lat="59.7922722261" lon="5.45057499302">
		<tag k="fixme" v="consider natural=peak for the most distinct mountains in the district" />
		<tag k="name" v="Klovsteinsåsen" />
		<tag k="natural" v="hill" />
		<tag k="place" v="locality" />
		<tag k="ssr:stedsnr" v="705880" />
	</node>
	<node id="-604980" lat="59.7637944432" lon="5.43042777336">
		<tag k="fixme" v="consider natural=peak for the most distinct mountains in the district" />
		<tag k="name" v="Åsen" />
		<tag k="natural" v="hill" />
		<tag k="place" v="locality" />
		<tag k="ssr:stedsnr" v="705820" />
	</node>
	<node id="-604979" lat="59.770397223" lon="5.47848610951">
		<tag k="name" v="Tveitahaugen" />
		<tag k="natural" v="hill" />
		<tag k="place" v="locality" />
		<tag k="ssr:stedsnr" v="705809" />
	</node>
	<node id="-604978" lat="59.7842361141" lon="5.43681110944">
		<tag k="name" v="Osalopet" />
		<tag k="place" v="locality" />
		<tag k="ssr:stedsnr" v="705808" />
	</node>
	<node id="-604974" lat="59.8568000038" lon="5.60162221585">
		<tag k="name" v="Renhaugen" />
		<tag k="natural" v="hill" />
		<tag k="place" v="locality" />
		<tag k="ssr:stedsnr" v="705238" />
	</node>
	<node id="-604973" lat="59.8431638916" lon="5.48575555025">
		<tag k="name" v="Husasmoget" />
		<tag k="natural" v="valley" />
		<tag k="place" v="locality" />
		<tag k="ssr:stedsnr" v="705230" />
	</node>
	<node id="-604969" lat="59.8400916692" lon="5.58517222094">
		<tag k="name" v="Nonshaugen" />
		<tag k="natural" v="hill" />
		<tag k="place" v="locality" />
		<tag k="ssr:stedsnr" v="705213" />
	</node>
	<node id="-604967" lat="59.8282666669" lon="5.52767778468">
		<tag k="name" v="Ladberget" />
		<tag k="natural" v="hill" />
		<tag k="place" v="locality" />
		<tag k="ssr:stedsnr" v="705199" />
	</node>
	<node id="-604964" lat="59.8350944489" lon="5.459125005">
		<tag k="name" v="Beinadalen" />
		<tag k="natural" v="valley" />
		<tag k="place" v="locality" />
		<tag k="ssr:stedsnr" v="705190" />
	</node>
	<node id="-604963" lat="59.8364694406" lon="5.44814999444">
		<tag k="name" v="Trollahola" />
		<tag k="natural" v="valley" />
		<tag k="place" v="locality" />
		<tag k="ssr:stedsnr" v="705184" />
	</node>
	<node id="-604962" lat="59.8021305521" lon="5.37562222382">
		<tag k="name" v="Såtedalane" />
		<tag k="natural" v="valley" />
		<tag k="place" v="locality" />
		<tag k="ssr:stedsnr" v="705146" />
	</node>
	<node id="-604960" lat="59.8175222231" lon="5.58955277677">
		<tag k="name" v="Svoberget" />
		<tag k="natural" v="hill" />
		<tag k="place" v="locality" />
		<tag k="ssr:stedsnr" v="705108" />
	</node>
	<node id="-604958" lat="59.8554888855" lon="5.49626944012">
		<tag k="name" v="Horsehuset" />
		<tag k="natural" v="hill" />
		<tag k="place" v="locality" />
		<tag k="ssr:stedsnr" v="705093" />
	</node>
	<node id="-604955" lat="59.9032583358" lon="5.47316389111">
		<tag k="name" v="Såtedalen" />
		<tag k="natural" v="valley" />
		<tag k="place" v="locality" />
		<tag k="ssr:stedsnr" v="705049" />
	</node>
	<node id="-604953" lat="59.8130555592" lon="5.4298972179">
		<tag k="name" v="Bjørnastegen" />
		<tag k="place" v="locality" />
		<tag k="ssr:stedsnr" v="705022" />
	</node>
	<node id="-604951" lat="59.8188222194" lon="5.48809444713">
>>>>>>> e1d4bc35ff8a6074a6f2e91616a996b547c36f15
		<tag k="name" v="Kulthaugen" />
		<tag k="natural" v="hill" />
		<tag k="place" v="locality" />
		<tag k="ssr:stedsnr" v="523195" />
	</node>
<<<<<<< HEAD
	<node lat="59.8541694412741" lon="5.566219445427315" id="-28434">
		<tag k="fixme" v="consider natural=peak for the most distinct mountains in the district" />
		<tag k="name" v="Hagalefjellet" />
		<tag k="natural" v="hill" />
		<tag k="place" v="locality" />
		<tag k="ssr:stedsnr" v="523833" />
	</node>
	<node lat="59.86362308276625" lon="5.5942422523718385" id="-28435">
		<tag k="name" v="Skardhaugen" />
		<tag k="natural" v="hill" />
		<tag k="place" v="locality" />
		<tag k="ssr:stedsnr" v="523835" />
	</node>
	<node lat="59.77076111145459" lon="5.494197222497377" id="-28438">
		<tag k="name" v="Marihaugen" />
		<tag k="natural" v="hill" />
		<tag k="place" v="locality" />
		<tag k="ssr:stedsnr" v="523858" />
	</node>
	<node lat="59.79003055291861" lon="5.460855558069327" id="-28439">
		<tag k="name" v="Skarhaugen" />
		<tag k="natural" v="hill" />
		<tag k="place" v="locality" />
		<tag k="ssr:stedsnr" v="523880" />
	</node>
	<node lat="59.88981110990467" lon="5.482866659036484" id="-28447">
		<tag k="alt_name" v="Tjørnadalen, store;Store Tjødnadalen" />
		<tag k="name" v="Store Tjørnadalen" />
		<tag k="natural" v="valley" />
		<tag k="place" v="locality" />
		<tag k="ssr:stedsnr" v="549278" />
	</node>
	<node lat="59.874622220621475" lon="5.472702782867092" id="-28459">
		<tag k="name" v="Litle Tjørndalen" />
		<tag k="natural" v="valley" />
		<tag k="place" v="locality" />
		<tag k="ssr:stedsnr" v="583074" />
	</node>
	<node lat="59.828088893390245" lon="5.442936114527033" id="-28464">
		<tag k="name" v="Prestastegen" />
		<tag k="place" v="locality" />
		<tag k="ssr:stedsnr" v="583123" />
	</node>
	<node lat="59.806705555708696" lon="5.390924992123207" id="-28465">
		<tag k="fixme" v="consider natural=peak for the most distinct mountains in the district" />
		<tag k="name" v="Sauganuten" />
		<tag k="natural" v="hill" />
		<tag k="place" v="locality" />
		<tag k="ssr:stedsnr" v="583127" />
	</node>
	<node lat="59.80437499881222" lon="5.402016670214168" id="-28466">
		<tag k="fixme" v="consider natural=peak for the most distinct mountains in the district" />
		<tag k="name" v="Ørnungefjellet" />
		<tag k="natural" v="hill" />
		<tag k="place" v="locality" />
		<tag k="ssr:stedsnr" v="583128" />
	</node>
	<node lat="59.843227782316234" lon="5.522052778740462" id="-28469">
		<tag k="fixme" v="consider natural=peak for the most distinct mountains in the district" />
		<tag k="name" v="Åsen" />
		<tag k="natural" v="hill" />
		<tag k="place" v="locality" />
		<tag k="ssr:stedsnr" v="584219" />
	</node>
	<node lat="59.781733331535094" lon="5.375022231048533" id="-28472">
		<tag k="fixme" v="consider natural=peak for the most distinct mountains in the district" />
		<tag k="name" v="Drengjafjellsenden" />
		<tag k="natural" v="hill" />
		<tag k="place" v="locality" />
		<tag k="ssr:stedsnr" v="583783" />
	</node>
	<node lat="59.80861667097342" lon="5.425366661678939" id="-28473">
		<tag k="name" v="Bjørnastegen" />
		<tag k="place" v="locality" />
		<tag k="ssr:stedsnr" v="583866" />
	</node>
	<node lat="59.79516666543719" lon="5.453372229096944" id="-28474">
		<tag k="fixme" v="consider natural=peak for the most distinct mountains in the district" />
		<tag k="name" v="Rapåsen" />
		<tag k="natural" v="hill" />
		<tag k="place" v="locality" />
		<tag k="ssr:stedsnr" v="583875" />
	</node>
	<node lat="59.85969166720006" lon="5.5716888957021595" id="-28476">
		<tag k="name" v="Høgsetehaugen" />
		<tag k="natural" v="hill" />
		<tag k="place" v="locality" />
		<tag k="ssr:stedsnr" v="584821" />
	</node>
	<node lat="59.770166664983684" lon="5.469091674178785" id="-28491">
		<tag k="name" v="Jonshaugen" />
		<tag k="natural" v="hill" />
		<tag k="place" v="locality" />
		<tag k="ssr:stedsnr" v="643747" />
	</node>
	<node lat="59.77775277888577" lon="5.469636115005984" id="-28493">
		<tag k="name" v="Kuskjehaugen" />
		<tag k="natural" v="hill" />
		<tag k="place" v="locality" />
		<tag k="ssr:stedsnr" v="643764" />
	</node>
	<node lat="59.80015555231004" lon="5.439491674267605" id="-28496">
		<tag k="name" v="Stemmehaugen" />
		<tag k="natural" v="hill" />
		<tag k="place" v="locality" />
		<tag k="ssr:stedsnr" v="643848" />
	</node>
	<node lat="59.80246111009408" lon="5.446772219049909" id="-28497">
		<tag k="fixme" v="consider natural=peak for the most distinct mountains in the district" />
		<tag k="name" v="Brotåsen" />
		<tag k="natural" v="hill" />
		<tag k="place" v="locality" />
		<tag k="ssr:stedsnr" v="643856" />
	</node>
	<node lat="59.8644194470289" lon="5.570530563876011" id="-28499">
		<tag k="name" v="Småhaugane" />
		<tag k="natural" v="hill" />
		<tag k="place" v="locality" />
		<tag k="ssr:stedsnr" v="644832" />
	</node>
	<node lat="59.79488888953538" lon="5.498333327463183" id="-28500">
		<tag k="name" v="Ådlandshaugen" />
		<tag k="natural" v="hill" />
		<tag k="place" v="locality" />
		<tag k="ssr:stedsnr" v="644845" />
	</node>
	<node lat="59.87582222496586" lon="5.436666674092764" id="-28503">
		<tag k="name" v="Brudlaupsstovo" />
		<tag k="place" v="locality" />
		<tag k="ssr:stedsnr" v="644054" />
	</node>
	<node lat="59.859336113918246" lon="5.516780557883635" id="-28505">
		<tag k="name" v="Øvravadhaugen" />
		<tag k="natural" v="hill" />
		<tag k="place" v="locality" />
		<tag k="ssr:stedsnr" v="644062" />
	</node>
	<node lat="59.80749722608797" lon="5.380841674113286" id="-28508">
		<tag k="name" v="Nedstedalen" />
		<tag k="natural" v="valley" />
		<tag k="place" v="locality" />
		<tag k="ssr:stedsnr" v="644124" />
	</node>
	<node lat="59.82486111426246" lon="5.376102781680695" id="-28509">
		<tag k="name" v="Nordre Ellingsdalen" />
		<tag k="natural" v="valley" />
		<tag k="place" v="locality" />
		<tag k="ssr:stedsnr" v="644144" />
	</node>
	<node lat="59.845791665713364" lon="5.5798638844940465" id="-28510">
		<tag k="name" v="Moskamyrshaugen" />
		<tag k="natural" v="hill" />
		<tag k="place" v="locality" />
		<tag k="ssr:stedsnr" v="644199" />
	</node>
	<node lat="59.84542499874108" lon="5.508694437518028" id="-28511">
		<tag k="name" v="Grovalia" />
		<tag k="natural" v="slope" />
		<tag k="place" v="locality" />
		<tag k="ssr:stedsnr" v="644212" />
	</node>
	<node lat="59.87391389024501" lon="5.595530552652752" id="-28512">
		<tag k="fixme" v="consider natural=peak for the most distinct mountains in the district" />
		<tag k="name" v="Utføro" />
		<tag k="natural" v="hill" />
		<tag k="place" v="locality" />
		<tag k="ssr:stedsnr" v="644215" />
	</node>
	<node lat="59.8242583339374" lon="5.5264916584706985" id="-28515">
		<tag k="name" v="Haugen" />
		<tag k="natural" v="hill" />
		<tag k="place" v="locality" />
		<tag k="ssr:stedsnr" v="644163" />
	</node>
	<node lat="59.875252775990425" lon="5.472108334275717" id="-28522">
		<tag k="fixme" v="consider natural=peak for the most distinct mountains in the district" />
		<tag k="name" v="Midtfjellet" />
		<tag k="natural" v="hill" />
		<tag k="place" v="locality" />
		<tag k="ssr:stedsnr" v="732283" />
	</node>
	<node lat="59.784727781778955" lon="5.488988882735041" id="-28525">
		<tag k="fixme" v="consider natural=peak for the most distinct mountains in the district" />
		<tag k="name" v="Løningåsen" />
		<tag k="natural" v="hill" />
		<tag k="place" v="locality" />
		<tag k="ssr:stedsnr" v="732385" />
	</node>
	<node lat="59.80344444728836" lon="5.428233333245228" id="-28527">
		<tag k="name" v="Storedalen" />
		<tag k="natural" v="valley" />
		<tag k="place" v="locality" />
		<tag k="ssr:stedsnr" v="732593" />
	</node>
	<node lat="59.87380277618625" lon="5.581197214931743" id="-28530">
		<tag k="name" v="Kvarvadalen" />
		<tag k="natural" v="valley" />
		<tag k="place" v="locality" />
		<tag k="ssr:stedsnr" v="765820" />
	</node>
	<node lat="59.79145555165066" lon="5.527866667286957" id="-28531">
		<tag k="name" v="Storhaug" />
		<tag k="natural" v="hill" />
		<tag k="place" v="locality" />
		<tag k="ssr:stedsnr" v="765825" />
	</node>
	<node lat="59.88056111063498" lon="5.5179388884370715" id="-28535">
		<tag k="name" v="Ramnaskukken" />
		<tag k="natural" v="hill" />
		<tag k="place" v="locality" />
		<tag k="ssr:stedsnr" v="765223" />
	</node>
	<node lat="59.75622222342182" lon="5.442738893131248" id="-28536">
		<tag k="fixme" v="consider natural=peak for the most distinct mountains in the district" />
		<tag k="name" v="Hatlandsåsen" />
		<tag k="natural" v="hill" />
		<tag k="place" v="locality" />
		<tag k="ssr:stedsnr" v="765774" />
	</node>
	<node lat="59.74795000398552" lon="5.457583337620635" id="-28539">
		<tag k="fixme" v="consider natural=peak for the most distinct mountains in the district" />
		<tag k="name" v="Spikeråsen" />
		<tag k="natural" v="hill" />
		<tag k="place" v="locality" />
		<tag k="ssr:stedsnr" v="765785" />
	</node>
	<node lat="59.79170555874549" lon="5.462355551793934" id="-28540">
		<tag k="name" v="Erikshaugen" />
		<tag k="natural" v="hill" />
		<tag k="place" v="locality" />
		<tag k="ssr:stedsnr" v="765853" />
	</node>
	<node lat="59.793969447312094" lon="5.375591671447119" id="-28543">
		<tag k="name" v="Dyvikdalen" />
		<tag k="natural" v="valley" />
		<tag k="place" v="locality" />
		<tag k="ssr:stedsnr" v="766121" />
	</node>
	<node lat="59.85976667109454" lon="5.412747224712602" id="-28545">
		<tag k="name" v="Gavlane" />
		<tag k="place" v="locality" />
		<tag k="ssr:stedsnr" v="766046" />
	</node>
	<node lat="59.83008333269626" lon="5.582905556676707" id="-28546">
		<tag k="name" v="Skrapastykket" />
		<tag k="place" v="locality" />
		<tag k="ssr:stedsnr" v="766070" />
	</node>
	<node lat="59.7727666684096" lon="5.510236105629147" id="-28549">
		<tag k="name" v="Store Gullberg" />
		<tag k="natural" v="hill" />
		<tag k="place" v="locality" />
		<tag k="ssr:stedsnr" v="780638" />
	</node>
	<node lat="59.86399721970219" lon="5.472747225849335" id="-28560">
		<tag k="fixme" v="consider natural=peak for the most distinct mountains in the district" />
		<tag k="name" v="Skorafjellet" />
		<tag k="natural" v="hill" />
		<tag k="place" v="locality" />
		<tag k="ssr:stedsnr" v="793263" />
	</node>
	<node lat="59.807183335325156" lon="5.408050004526317" id="-28562">
		<tag k="fixme" v="consider natural=peak for the most distinct mountains in the district" />
		<tag k="name" v="Litlabøfjellet" />
		<tag k="natural" v="hill" />
		<tag k="place" v="locality" />
		<tag k="ssr:stedsnr" v="793591" />
	</node>
	<node lat="59.88907500017335" lon="5.49765278570701" id="-28568">
		<tag k="name" v="Steinahaugen" />
		<tag k="natural" v="hill" />
		<tag k="place" v="locality" />
		<tag k="ssr:stedsnr" v="826247" />
	</node>
	<node lat="59.775174996073225" lon="5.457113892086327" id="-28569">
		<tag k="name" v="Dovsteinehaugen" />
		<tag k="natural" v="hill" />
		<tag k="place" v="locality" />
		<tag k="ssr:stedsnr" v="826753" />
	</node>
	<node lat="59.773847224992174" lon="5.459202778108865" id="-28570">
		<tag k="name" v="Nordre Skarhaugen" />
		<tag k="natural" v="hill" />
		<tag k="place" v="locality" />
		<tag k="ssr:stedsnr" v="826755" />
	</node>
	<node lat="59.752572224873106" lon="5.470805548615917" id="-28572">
		<tag k="name" v="Langehaugen" />
		<tag k="natural" v="hill" />
		<tag k="place" v="locality" />
		<tag k="ssr:stedsnr" v="826782" />
	</node>
	<node lat="59.794930555062066" lon="5.501950003577991" id="-28575">
		<tag k="name" v="Storhaug" />
		<tag k="natural" v="hill" />
		<tag k="place" v="locality" />
		<tag k="ssr:stedsnr" v="826817" />
	</node>
	<node lat="59.759533330060975" lon="5.412499995806746" id="-28579">
		<tag k="name" v="Sylvikehaugane" />
		<tag k="natural" v="hill" />
		<tag k="place" v="locality" />
		<tag k="ssr:stedsnr" v="827141" />
	</node>
	<node lat="59.820391670579255" lon="5.408513892265489" id="-28580">
		<tag k="name" v="Midthaugen" />
		<tag k="natural" v="hill" />
		<tag k="place" v="locality" />
		<tag k="ssr:stedsnr" v="827143" />
	</node>
	<node lat="59.85775000186336" lon="5.606174997689753" id="-28582">
		<tag k="name" v="Brunaksla" />
		<tag k="place" v="locality" />
		<tag k="ssr:stedsnr" v="827250" />
	</node>
	<node lat="59.7668027770206" lon="5.4101888857094425" id="-28585">
		<tag k="fixme" v="consider natural=peak for the most distinct mountains in the district" />
		<tag k="name" v="Åsen" />
		<tag k="natural" v="hill" />
		<tag k="place" v="locality" />
		<tag k="ssr:stedsnr" v="827031" />
	</node>
	<node lat="59.867652774499945" lon="5.457416667051513" id="-28587">
		<tag k="name" v="Litle Tjørnadalen" />
		<tag k="natural" v="valley" />
		<tag k="place" v="locality" />
		<tag k="ssr:stedsnr" v="827048" />
	</node>
	<node lat="59.83802222599136" lon="5.385236107128804" id="-28588">
		<tag k="name" v="Uvegbotn" />
		<tag k="natural" v="valley" />
		<tag k="place" v="locality" />
		<tag k="ssr:stedsnr" v="827049" />
	</node>
	<node lat="59.7830361137265" lon="5.398622223067931" id="-28589">
		<tag k="name" v="Krekahaugane" />
		<tag k="natural" v="hill" />
		<tag k="place" v="locality" />
		<tag k="ssr:stedsnr" v="827053" />
	</node>
	<node lat="59.80451944659915" lon="5.341916667249724" id="-28593">
		<tag k="fixme" v="consider natural=peak for the most distinct mountains in the district" />
		<tag k="name" v="Straumheiane" />
		<tag k="natural" v="hill" />
		<tag k="place" v="locality" />
		<tag k="ssr:stedsnr" v="827085" />
	</node>
	<node lat="59.82114999809944" lon="5.506183335955048" id="-28595">
		<tag k="fixme" v="consider natural=peak for the most distinct mountains in the district" />
		<tag k="name" v="Lyåsen" />
		<tag k="natural" v="hill" />
		<tag k="place" v="locality" />
		<tag k="ssr:stedsnr" v="827196" />
	</node>
	<node lat="59.865525004645" lon="5.588900006149765" id="-28596">
		<tag k="fixme" v="consider natural=peak for the most distinct mountains in the district" />
		<tag k="name" v="Såta" />
		<tag k="natural" v="hill" />
		<tag k="place" v="locality" />
		<tag k="ssr:stedsnr" v="827853" />
	</node>
	<node lat="59.82054444007694" lon="5.4333277720721584" id="-28599">
		<tag k="fixme" v="consider natural=peak for the most distinct mountains in the district" />
		<tag k="name" v="Mennene" />
		<tag k="natural" v="hill" />
		<tag k="place" v="locality" />
		<tag k="ssr:stedsnr" v="853939" />
	</node>
	<node lat="59.86918889308867" lon="5.506299999261276" id="-28603">
		<tag k="fixme" v="consider natural=peak for the most distinct mountains in the district" />
		<tag k="name" v="Agdesteinfjellet" />
		<tag k="natural" v="hill" />
		<tag k="place" v="locality" />
		<tag k="ssr:stedsnr" v="853245" />
	</node>
	<node lat="59.81984444019916" lon="5.592413882146033" id="-28610">
		<tag k="name" v="Skarvaberget" />
		<tag k="natural" v="hill" />
		<tag k="place" v="locality" />
		<tag k="ssr:stedsnr" v="874168" />
	</node>
	<node lat="59.873105558554414" lon="5.491225001589147" id="-28618">
		<tag k="fixme" v="consider natural=peak for the most distinct mountains in the district" />
		<tag k="name" v="Sauganutane" />
		<tag k="natural" v="hill" />
		<tag k="place" v="locality" />
		<tag k="ssr:stedsnr" v="887078" />
	</node>
	<node lat="59.84266944744309" lon="5.435855550507983" id="-28622">
		<tag k="fixme" v="consider natural=peak for the most distinct mountains in the district" />
		<tag k="name" v="Budalsfjellet" />
		<tag k="natural" v="hill" />
		<tag k="place" v="locality" />
		<tag k="ssr:stedsnr" v="887171" />
	</node>
	<node lat="59.821661657007304" lon="5.477485182975311" id="-28624">
		<tag k="alt_name" v="Haukareilet" />
		<tag k="name" v="Haukareiret" />
		<tag k="natural" v="hill" />
		<tag k="place" v="locality" />
		<tag k="ssr:stedsnr" v="887128" />
	</node>
	<node lat="59.79471111417806" lon="5.37303055595005" id="-28627">
		<tag k="name" v="Rindane" />
		<tag k="natural" v="hill" />
		<tag k="place" v="locality" />
		<tag k="ssr:stedsnr" v="887145" />
	</node>
	<node lat="59.798647219864854" lon="5.445113897539631" id="-28629">
		<tag k="name" v="Dalshaugen" />
		<tag k="natural" v="hill" />
		<tag k="place" v="locality" />
		<tag k="ssr:stedsnr" v="887869" />
	</node>
	<node lat="59.76902222500288" lon="5.444302772031683" id="-28630">
		<tag k="fixme" v="consider natural=peak for the most distinct mountains in the district" />
		<tag k="name" v="Moldfalleåsen" />
		<tag k="natural" v="hill" />
		<tag k="place" v="locality" />
		<tag k="ssr:stedsnr" v="887885" />
	</node>
	<node lat="59.76025277413106" lon="5.431544440476612" id="-28631">
		<tag k="fixme" v="consider natural=peak for the most distinct mountains in the district" />
		<tag k="name" v="Areåsen" />
		<tag k="natural" v="hill" />
		<tag k="place" v="locality" />
		<tag k="ssr:stedsnr" v="887781" />
	</node>
	<node lat="59.78280555473865" lon="5.384916667217893" id="-28632">
		<tag k="name" v="Underburdshaugen" />
		<tag k="natural" v="hill" />
		<tag k="place" v="locality" />
		<tag k="ssr:stedsnr" v="887782" />
	</node>
	<node lat="59.76115277830221" lon="5.456866660716652" id="-28634">
		<tag k="name" v="Grønhaugane" />
		<tag k="natural" v="hill" />
		<tag k="place" v="locality" />
		<tag k="ssr:stedsnr" v="887793" />
	</node>
	<node lat="59.83343333410832" lon="5.4734388903711295" id="-28635">
		<tag k="name" v="Storefosslia" />
		<tag k="natural" v="slope" />
		<tag k="place" v="locality" />
		<tag k="ssr:stedsnr" v="887837" />
	</node>
	<node lat="59.85922221806845" lon="5.568644442576171" id="-28639">
		<tag k="alt_name" v="Gullrompa" />
		<tag k="name" v="Gullrumpa" />
		<tag k="natural" v="hill" />
		<tag k="place" v="locality" />
		<tag k="ssr:stedsnr" v="888785" />
	</node>
	<node lat="59.86378889251464" lon="5.585177769468171" id="-28640">
		<tag k="name" v="Nonshaugen" />
		<tag k="natural" v="hill" />
		<tag k="place" v="locality" />
		<tag k="ssr:stedsnr" v="888796" />
	</node>
	<node lat="59.866811110827705" lon="5.576441662256465" id="-28641">
		<tag k="name" v="Kleivadalen" />
		<tag k="natural" v="valley" />
		<tag k="place" v="locality" />
		<tag k="ssr:stedsnr" v="888798" />
	</node>
	<node lat="59.86809166781463" lon="5.5833666591123485" id="-28642">
		<tag k="name" v="Svena" />
		<tag k="natural" v="hill" />
		<tag k="place" v="locality" />
		<tag k="ssr:stedsnr" v="888801" />
	</node>
	<node lat="59.885561109215494" lon="5.488013887853623" id="-28645">
		<tag k="name" v="Nipalia" />
		<tag k="natural" v="slope" />
		<tag k="place" v="locality" />
		<tag k="ssr:stedsnr" v="947244" />
	</node>
	<node lat="59.891455553412115" lon="5.501972219002406" id="-28646">
		<tag k="name" v="Engedalen" />
		<tag k="natural" v="valley" />
		<tag k="place" v="locality" />
		<tag k="ssr:stedsnr" v="947246" />
	</node>
	<node lat="59.758730557510326" lon="5.455380564023737" id="-28647">
		<tag k="name" v="Svinshammaren" />
		<tag k="natural" v="hill" />
		<tag k="place" v="locality" />
		<tag k="ssr:stedsnr" v="947782" />
	</node>
	<node lat="59.819444447851964" lon="5.4892777801867805" id="-28650">
		<tag k="fixme" v="consider natural=peak for the most distinct mountains in the district" />
		<tag k="name" v="Hauglandsåsen" />
		<tag k="natural" v="hill" />
		<tag k="place" v="locality" />
		<tag k="ssr:stedsnr" v="948196" />
	</node>
	<node lat="59.82772222102415" lon="5.491580554413795" id="-28651">
		<tag k="fixme" v="consider natural=peak for the most distinct mountains in the district" />
		<tag k="name" v="Dyråsen" />
		<tag k="natural" v="hill" />
		<tag k="place" v="locality" />
		<tag k="ssr:stedsnr" v="948200" />
	</node>
	<node lat="59.80819444339137" lon="5.473736106486341" id="-28655">
		<tag k="name" v="Flota" />
		<tag k="place" v="locality" />
		<tag k="ssr:stedsnr" v="947868" />
	</node>
	<node lat="59.79150833149553" lon="5.47035833647163" id="-28656">
		<tag k="name" v="Kulten" />
		<tag k="natural" v="hill" />
		<tag k="place" v="locality" />
		<tag k="ssr:stedsnr" v="947870" />
	</node>
	<node lat="59.7713888892498" lon="5.408444438695956" id="-28657">
		<tag k="name" v="Svartasmoget" />
		<tag k="place" v="locality" />
		<tag k="ssr:stedsnr" v="948047" />
	</node>
	<node lat="59.87952499540914" lon="5.477097215464473" id="-28658">
		<tag k="name" v="Kudalen" />
		<tag k="natural" v="valley" />
		<tag k="place" v="locality" />
		<tag k="ssr:stedsnr" v="948053" />
	</node>
	<node lat="59.864641670940664" lon="5.5950361186093245" id="-28659">
		<tag k="name" v="Haukanesskaret" />
		<tag k="natural" v="valley" />
		<tag k="place" v="locality" />
		<tag k="ssr:stedsnr" v="948056" />
	</node>
	<node lat="59.832600002335234" lon="5.399324998478699" id="-28660">
		<tag k="name" v="Barlindedalen" />
		<tag k="natural" v="valley" />
		<tag k="place" v="locality" />
		<tag k="ssr:stedsnr" v="948071" />
	</node>
	<node lat="59.7681083371178" lon="5.398613882954363" id="-28661">
		<tag k="name" v="Skifteskolten" />
		<tag k="natural" v="hill" />
		<tag k="place" v="locality" />
		<tag k="ssr:stedsnr" v="948072" />
	</node>
	<node lat="59.85960277761675" lon="5.490452781016282" id="-28662">
		<tag k="name" v="Sjonarhaugen" />
		<tag k="natural" v="hill" />
		<tag k="place" v="locality" />
		<tag k="ssr:stedsnr" v="948075" />
	</node>
	<node lat="59.779141671307954" lon="5.363430562649492" id="-28665">
		<tag k="name" v="Nonshaugen" />
		<tag k="natural" v="hill" />
		<tag k="place" v="locality" />
		<tag k="ssr:stedsnr" v="948119" />
	</node>
	<node lat="59.816599995599894" lon="5.454838881258136" id="-28667">
		<tag k="fixme" v="consider natural=peak for the most distinct mountains in the district" />
		<tag k="name" v="Slokåsen" />
		<tag k="natural" v="hill" />
		<tag k="place" v="locality" />
		<tag k="ssr:stedsnr" v="948140" />
	</node>
	<node lat="59.81085278179747" lon="5.468147218438305" id="-28668">
		<tag k="fixme" v="consider natural=peak for the most distinct mountains in the district" />
		<tag k="name" v="Eikåsen" />
		<tag k="natural" v="hill" />
		<tag k="place" v="locality" />
		<tag k="ssr:stedsnr" v="948141" />
	</node>
	<node lat="59.73824722097488" lon="5.412180547727016" id="-28669">
		<tag k="name" v="Lyngshaugen" />
		<tag k="natural" v="hill" />
		<tag k="place" v="locality" />
		<tag k="ssr:stedsnr" v="948148" />
	</node>
	<node lat="59.848963889338215" lon="5.426586113418776" id="-28674">
		<tag k="fixme" v="consider natural=peak for the most distinct mountains in the district" />
		<tag k="name" v="Stavlifjellet" />
		<tag k="natural" v="hill" />
		<tag k="place" v="locality" />
		<tag k="ssr:stedsnr" v="948173" />
	</node>
	<node lat="59.84934999841843" lon="5.432697220530442" id="-28675">
		<tag k="name" v="Breidalen" />
		<tag k="natural" v="valley" />
		<tag k="place" v="locality" />
		<tag k="ssr:stedsnr" v="948174" />
	</node>
	<node lat="59.82032221974976" lon="5.444611111135348" id="-28677">
		<tag k="name" v="Balterslopet" />
		<tag k="natural" v="hill" />
		<tag k="place" v="locality" />
		<tag k="ssr:stedsnr" v="948872" />
	</node>
	<node lat="59.78455833228973" lon="5.44214721472529" id="-28679">
		<tag k="name" v="Djupedalen" />
		<tag k="natural" v="valley" />
		<tag k="place" v="locality" />
		<tag k="ssr:stedsnr" v="948882" />
=======
	<node id="-604950" lat="59.8218722204" lon="5.49228611225">
		<tag k="fixme" v="consider natural=peak for the most distinct mountains in the district" />
		<tag k="name" v="Presthaugåsen" />
		<tag k="natural" v="hill" />
		<tag k="place" v="locality" />
		<tag k="ssr:stedsnr" v="523194" />
	</node>
	<node id="-604948" lat="59.835905554" lon="5.46428333186">
		<tag k="name" v="Litla Steingjelshædda" />
		<tag k="natural" v="gorge" />
		<tag k="ssr:stedsnr" v="523167" />
	</node>
	<node id="-604941" lat="59.8296027816" lon="5.37831388599">
		<tag k="alt_name" v="Sæteråsane" />
		<tag k="fixme" v="consider natural=peak for the most distinct mountains in the district" />
		<tag k="name" v="Sætråsen" />
		<tag k="natural" v="hill" />
		<tag k="place" v="locality" />
		<tag k="ssr:stedsnr" v="671982" />
	</node>
	<node id="-604935" lat="59.7820583292" lon="5.46948055815">
		<tag k="fixme" v="consider natural=peak for the most distinct mountains in the district" />
		<tag k="name" v="Landåsen" />
		<tag k="natural" v="hill" />
		<tag k="place" v="locality" />
		<tag k="ssr:stedsnr" v="671367" />
	</node>
	<node id="-604934" lat="59.8229638869" lon="5.58877221549">
		<tag k="name" v="Skjønhammaren" />
		<tag k="natural" v="hill" />
		<tag k="place" v="locality" />
		<tag k="ssr:stedsnr" v="671365" />
	</node>
	<node id="-604933" lat="59.8584527787" lon="5.58858611294">
		<tag k="fixme" v="consider natural=peak for the most distinct mountains in the district" />
		<tag k="name" v="Høgafjellet" />
		<tag k="natural" v="hill" />
		<tag k="place" v="locality" />
		<tag k="ssr:stedsnr" v="671300" />
	</node>
	<node id="-604932" lat="59.8576555554" lon="5.49644999647">
		<tag k="fixme" v="consider natural=peak for the most distinct mountains in the district" />
		<tag k="name" v="Kalderåsen" />
		<tag k="natural" v="hill" />
		<tag k="place" v="locality" />
		<tag k="ssr:stedsnr" v="671298" />
	</node>
	<node id="-604924" lat="59.8717078224" lon="5.60206886805">
		<tag k="name" v="Lyraberget" />
		<tag k="natural" v="hill" />
		<tag k="place" v="locality" />
		<tag k="ssr:stedsnr" v="463205" />
	</node>
	<node id="-604923" lat="59.814858261" lon="5.49679373247">
		<tag k="fixme" v="consider natural=peak for the most distinct mountains in the district" />
		<tag k="loc_name" v="Hansåsen" />
		<tag k="name" v="Hundsåsen" />
		<tag k="natural" v="hill" />
		<tag k="place" v="locality" />
		<tag k="ssr:stedsnr" v="463162" />
	</node>
	<node id="-604882" lat="59.8445583316" lon="5.52065834073">
		<tag k="fixme" v="consider natural=peak for the most distinct mountains in the district" />
		<tag k="name" v="Høgåsen" />
		<tag k="natural" v="hill" />
		<tag k="place" v="locality" />
		<tag k="ssr:stedsnr" v="463189" />
	</node>
	<node id="-604881" lat="59.834944447" lon="5.52705554962">
		<tag k="fixme" v="consider natural=peak for the most distinct mountains in the district" />
		<tag k="name" v="Buvikåsen" />
		<tag k="natural" v="hill" />
		<tag k="place" v="locality" />
		<tag k="ssr:stedsnr" v="463186" />
	</node>
	<node id="-604880" lat="59.8153305582" lon="5.38002221838">
		<tag k="name" v="Hansalopet" />
		<tag k="natural" v="hill" />
		<tag k="place" v="locality" />
		<tag k="ssr:stedsnr" v="463134" />
	</node>
	<node id="-604879" lat="59.8448694483" lon="5.47732500428">
		<tag k="name" v="Ormahaugen" />
		<tag k="natural" v="hill" />
		<tag k="place" v="locality" />
		<tag k="ssr:stedsnr" v="463131" />
	</node>
	<node id="-604878" lat="59.7558916697" lon="5.40924444013">
		<tag k="name" v="Midthaugen" />
		<tag k="natural" v="hill" />
		<tag k="place" v="locality" />
		<tag k="ssr:stedsnr" v="463121" />
	</node>
	<node id="-604876" lat="59.803672225" lon="5.46054166875">
		<tag k="fixme" v="consider natural=peak for the most distinct mountains in the district" />
		<tag k="name" v="Heiane" />
		<tag k="natural" v="hill" />
		<tag k="place" v="locality" />
		<tag k="ssr:stedsnr" v="462877" />
	</node>
	<node id="-604875" lat="59.7867200861" lon="5.51065299014">
		<tag k="name" v="Kyrkjeberget" />
		<tag k="natural" v="hill" />
		<tag k="place" v="locality" />
		<tag k="ssr:stedsnr" v="462857" />
	</node>
	<node id="-604872" lat="59.7935777778" lon="5.52877778018">
		<tag k="name" v="Vardhaug" />
		<tag k="natural" v="hill" />
		<tag k="place" v="locality" />
		<tag k="ssr:stedsnr" v="462840" />
	</node>
	<node id="-604870" lat="59.9081583371" lon="5.48053333253">
		<tag k="name" v="Såtedalen" />
		<tag k="natural" v="valley" />
		<tag k="place" v="locality" />
		<tag k="ssr:stedsnr" v="462829" />
	</node>
	<node id="-604864" lat="59.8868861079" lon="5.48554444666">
		<tag k="fixme" v="consider natural=peak for the most distinct mountains in the district" />
		<tag k="name" v="Nipen" />
		<tag k="natural" v="hill" />
		<tag k="ssr:stedsnr" v="462195" />
	</node>
	<node id="-604862" lat="59.818508336" lon="5.46378889066">
		<tag k="name" v="Stemmelia" />
		<tag k="natural" v="slope" />
		<tag k="place" v="locality" />
		<tag k="ssr:stedsnr" v="462111" />
	</node>
	<node id="-604861" lat="59.7878388889" lon="5.34016945298">
		<tag k="fixme" v="consider natural=peak for the most distinct mountains in the district" />
		<tag k="name" v="Apalvikeåsen" />
		<tag k="natural" v="hill" />
		<tag k="place" v="locality" />
		<tag k="ssr:stedsnr" v="462103" />
	</node>
	<node id="-604859" lat="59.7835750047" lon="5.34181111942">
		<tag k="name" v="Kultane" />
		<tag k="place" v="locality" />
		<tag k="ssr:stedsnr" v="462098" />
	</node>
	<node id="-604858" lat="59.7991277802" lon="5.3645666678">
		<tag k="fixme" v="consider natural=peak for the most distinct mountains in the district" />
		<tag k="name" v="Heia" />
		<tag k="natural" v="hill" />
		<tag k="place" v="locality" />
		<tag k="ssr:stedsnr" v="462097" />
	</node>
	<node id="-604857" lat="59.8223638915" lon="5.57524166152">
		<tag k="name" v="Tømmerskotet" />
		<tag k="place" v="locality" />
		<tag k="ssr:stedsnr" v="462087" />
	</node>
	<node id="-604855" lat="59.8594416655" lon="5.48415556238">
		<tag k="name" v="Fossabrekka" />
		<tag k="natural" v="valley" />
		<tag k="place" v="locality" />
		<tag k="ssr:stedsnr" v="462067" />
	</node>
	<node id="-604854" lat="59.852802774" lon="5.47302777725">
		<tag k="name" v="Vardabrotet" />
		<tag k="natural" v="hill" />
		<tag k="place" v="locality" />
		<tag k="ssr:stedsnr" v="462060" />
	</node>
	<node id="-604852" lat="59.861702775" lon="5.42118612027">
		<tag k="name" v="Helledalen" />
		<tag k="natural" v="valley" />
		<tag k="place" v="locality" />
		<tag k="ssr:stedsnr" v="462054" />
	</node>
	<node id="-604849" lat="59.839680553" lon="5.50049444962">
		<tag k="name" v="Eskelandslia" />
		<tag k="natural" v="slope" />
		<tag k="place" v="locality" />
		<tag k="ssr:stedsnr" v="281230" />
	</node>
	<node id="-604848" lat="59.841538893" lon="5.53098055982">
		<tag k="name" v="Brestehaugen" />
		<tag k="natural" v="hill" />
		<tag k="place" v="locality" />
		<tag k="ssr:stedsnr" v="281226" />
	</node>
	<node id="-604837" lat="59.794222219" lon="5.38262222874">
		<tag k="fixme" v="consider natural=peak for the most distinct mountains in the district" />
		<tag k="name" v="Kuhillerfjellet" />
		<tag k="natural" v="hill" />
		<tag k="place" v="locality" />
		<tag k="ssr:stedsnr" v="220141" />
	</node>
	<node id="-604836" lat="59.7995805588" lon="5.38588054793">
		<tag k="name" v="Hillerhaugen" />
		<tag k="natural" v="hill" />
		<tag k="place" v="locality" />
		<tag k="ssr:stedsnr" v="220139" />
	</node>
	<node id="-604834" lat="59.8040500003" lon="5.41299722068">
		<tag k="fixme" v="consider natural=peak for the most distinct mountains in the district" />
		<tag k="name" v="Bordkleivfjellet" />
		<tag k="natural" v="hill" />
		<tag k="place" v="locality" />
		<tag k="ssr:stedsnr" v="220122" />
	</node>
	<node id="-604833" lat="59.7929583337" lon="5.35375833828">
		<tag k="fixme" v="consider natural=peak for the most distinct mountains in the district" />
		<tag k="name" v="Sjobubrotet" />
		<tag k="natural" v="hill" />
		<tag k="ssr:stedsnr" v="220120" />
	</node>
	<node id="-604830" lat="59.8582472211" lon="5.57388611238">
		<tag k="name" v="Ljosolderhaugen" />
		<tag k="natural" v="hill" />
		<tag k="place" v="locality" />
		<tag k="ssr:stedsnr" v="281843" />
	</node>
	<node id="-604828" lat="59.8223861136" lon="5.48218611002">
		<tag k="name" v="Lyningehaugen" />
		<tag k="natural" v="hill" />
		<tag k="place" v="locality" />
		<tag k="ssr:stedsnr" v="281198" />
	</node>
	<node id="-604827" lat="59.8255754422" lon="5.50710768993">
		<tag k="loc_name" v="Setraledhaugen" />
		<tag k="name" v="Lauvhaugen" />
		<tag k="natural" v="hill" />
		<tag k="place" v="locality" />
		<tag k="ssr:stedsnr" v="281192" />
	</node>
	<node id="-604825" lat="59.8207000047" lon="5.51030834144">
		<tag k="name" v="Hundshilleren" />
		<tag k="place" v="locality" />
		<tag k="ssr:stedsnr" v="281169" />
	</node>
	<node id="-604824" lat="59.8488638912" lon="5.45515000182">
		<tag k="name" v="Eldhushøgda" />
		<tag k="natural" v="hill" />
		<tag k="place" v="locality" />
		<tag k="ssr:stedsnr" v="281166" />
	</node>
	<node id="-604823" lat="59.844236115" lon="5.43127499348">
		<tag k="name" v="Breidalsbrekka" />
		<tag k="natural" v="slope" />
		<tag k="place" v="locality" />
		<tag k="ssr:stedsnr" v="281159" />
	</node>
	<node id="-604822" lat="59.7654222207" lon="5.40710278433">
		<tag k="fixme" v="consider natural=peak for the most distinct mountains in the district" />
		<tag k="name" v="Nesfjellet" />
		<tag k="natural" v="hill" />
		<tag k="place" v="locality" />
		<tag k="ssr:stedsnr" v="281146" />
	</node>
	<node id="-604820" lat="59.8145250019" lon="5.41064167135">
		<tag k="name" v="Setralia" />
		<tag k="natural" v="slope" />
		<tag k="place" v="locality" />
		<tag k="ssr:stedsnr" v="281139" />
	</node>
	<node id="-604818" lat="59.7905944408" lon="5.39503610977">
		<tag k="name" v="Grønedalane" />
		<tag k="natural" v="valley" />
		<tag k="place" v="locality" />
		<tag k="ssr:stedsnr" v="281099" />
	</node>
	<node id="-604817" lat="59.801491663" lon="5.47023610995">
		<tag k="name" v="Djupedalshaugane" />
		<tag k="natural" v="hill" />
		<tag k="place" v="locality" />
		<tag k="ssr:stedsnr" v="280874" />
	</node>
	<node id="-604816" lat="59.8043111113" lon="5.45680555742">
		<tag k="name" v="Kulpalia" />
		<tag k="natural" v="slope" />
		<tag k="place" v="locality" />
		<tag k="ssr:stedsnr" v="280870" />
	</node>
	<node id="-604815" lat="59.7937916627" lon="5.43775833495">
		<tag k="fixme" v="consider natural=peak for the most distinct mountains in the district" />
		<tag k="name" v="Smalåsen" />
		<tag k="natural" v="hill" />
		<tag k="place" v="locality" />
		<tag k="ssr:stedsnr" v="280864" />
	</node>
	<node id="-604810" lat="59.7562888891" lon="5.46316111294">
		<tag k="name" v="Sæbøhaugen" />
		<tag k="natural" v="hill" />
		<tag k="place" v="locality" />
		<tag k="ssr:stedsnr" v="280797" />
	</node>
	<node id="-604808" lat="59.7735694476" lon="5.45372500391">
		<tag k="name" v="Trettehaugen" />
		<tag k="natural" v="hill" />
		<tag k="place" v="locality" />
		<tag k="ssr:stedsnr" v="280766" />
	</node>
	<node id="-604805" lat="59.8274999985" lon="5.45929722403">
		<tag k="name" v="Arahaugen" />
		<tag k="natural" v="hill" />
		<tag k="place" v="locality" />
		<tag k="ssr:stedsnr" v="280101" />
	</node>
	<node id="-604804" lat="59.8200255855" lon="5.47443354878">
		<tag k="name" v="Moldbrekka" />
		<tag k="natural" v="hill" />
		<tag k="place" v="locality" />
		<tag k="ssr:stedsnr" v="280094" />
	</node>
	<node id="-604802" lat="59.7826972236" lon="5.34863055205">
		<tag k="fixme" v="consider natural=peak for the most distinct mountains in the district" />
		<tag k="name" v="Stokkåsen" />
		<tag k="natural" v="hill" />
		<tag k="place" v="locality" />
		<tag k="ssr:stedsnr" v="280085" />
	</node>
	<node id="-604801" lat="59.8018861102" lon="5.34115277136">
		<tag k="name" v="Stemmehaugen" />
		<tag k="natural" v="hill" />
		<tag k="place" v="locality" />
		<tag k="ssr:stedsnr" v="280080" />
	</node>
	<node id="-604798" lat="59.8688777796" lon="5.50400555535">
		<tag k="fixme" v="consider natural=peak for the most distinct mountains in the district" />
		<tag k="name" v="Agdesteinsbrunene" />
		<tag k="natural" v="hill" />
		<tag k="place" v="locality" />
		<tag k="ssr:stedsnr" v="280062" />
	</node>
	<node id="-604797" lat="59.7817916665" lon="5.40060555753">
		<tag k="name" v="Mosahaugen" />
		<tag k="natural" v="hill" />
		<tag k="place" v="locality" />
		<tag k="ssr:stedsnr" v="280061" />
	</node>
	<node id="-604796" lat="59.8598611148" lon="5.47743888976">
		<tag k="name" v="Nibba" />
		<tag k="natural" v="hill" />
		<tag k="place" v="locality" />
		<tag k="ssr:stedsnr" v="280051" />
	</node>
	<node id="-604793" lat="59.7917944444" lon="5.52291110365">
		<tag k="name" v="Sjoarhaugen" />
		<tag k="natural" v="hill" />
		<tag k="place" v="locality" />
		<tag k="ssr:stedsnr" v="159859" />
	</node>
	<node id="-604788" lat="59.8465527758" lon="5.59219721567">
		<tag k="name" v="Orrahaugen" />
		<tag k="natural" v="hill" />
		<tag k="place" v="locality" />
		<tag k="ssr:stedsnr" v="159206" />
	</node>
	<node id="-604785" lat="59.8621083342" lon="5.5210916661">
		<tag k="name" v="Bandadalen" />
		<tag k="natural" v="valley" />
		<tag k="place" v="locality" />
		<tag k="ssr:stedsnr" v="159068" />
	</node>
	<node id="-604784" lat="59.8703361135" lon="5.52030000622">
		<tag k="fixme" v="consider natural=peak for the most distinct mountains in the district" />
		<tag k="name" v="Bjørkåsen" />
		<tag k="natural" v="hill" />
		<tag k="place" v="locality" />
		<tag k="ssr:stedsnr" v="159065" />
	</node>
	<node id="-604783" lat="59.8640805599" lon="5.51624166223">
		<tag k="name" v="Løkene" />
		<tag k="place" v="locality" />
		<tag k="ssr:stedsnr" v="159062" />
	</node>
	<node id="-604782" lat="59.8900916674" lon="5.46530278634">
		<tag k="name" v="Bortveitkalderassen" />
		<tag k="place" v="locality" />
		<tag k="ssr:stedsnr" v="159061" />
	</node>
	<node id="-604781" lat="59.8243694421" lon="5.42863611934">
		<tag k="name" v="Tjørnadalen" />
		<tag k="natural" v="valley" />
		<tag k="place" v="locality" />
		<tag k="ssr:stedsnr" v="159112" />
	</node>
	<node id="-604780" lat="59.8019666677" lon="5.42198334103">
		<tag k="name" v="Olderlia" />
		<tag k="natural" v="slope" />
		<tag k="place" v="locality" />
		<tag k="ssr:stedsnr" v="159111" />
	</node>
	<node id="-604778" lat="59.8066805592" lon="5.45847499085">
		<tag k="name" v="Bukkhilleren" />
		<tag k="place" v="locality" />
		<tag k="ssr:stedsnr" v="158872" />
	</node>
	<node id="-604777" lat="59.7894805519" lon="5.43680554794">
		<tag k="fixme" v="consider natural=peak for the most distinct mountains in the district" />
		<tag k="name" v="Grønåsen" />
		<tag k="natural" v="hill" />
		<tag k="place" v="locality" />
		<tag k="ssr:stedsnr" v="158865" />
	</node>
	<node id="-604775" lat="59.7864527787" lon="5.45600277275">
		<tag k="name" v="Skarhaugen" />
		<tag k="natural" v="hill" />
		<tag k="place" v="locality" />
		<tag k="ssr:stedsnr" v="158771" />
	</node>
	<node id="-604774" lat="59.7785527754" lon="5.44763611113">
		<tag k="fixme" v="consider natural=peak for the most distinct mountains in the district" />
		<tag k="name" v="Krokateigåsen" />
		<tag k="natural" v="hill" />
		<tag k="place" v="locality" />
		<tag k="ssr:stedsnr" v="158770" />
	</node>
	<node id="-604768" lat="59.8224055573" lon="5.39063055933">
		<tag k="fixme" v="consider natural=peak for the most distinct mountains in the district" />
		<tag k="name" v="Holmedalsheiane" />
		<tag k="natural" v="hill" />
		<tag k="place" v="locality" />
		<tag k="ssr:stedsnr" v="99162" />
	</node>
	<node id="-604764" lat="59.7765111091" lon="5.47870277543">
		<tag k="name" v="Rekemåsen" />
		<tag k="place" v="locality" />
		<tag k="ssr:stedsnr" v="98770" />
	</node>
	<node id="-604762" lat="59.7975916703" lon="5.45006666246">
		<tag k="fixme" v="consider natural=peak for the most distinct mountains in the district" />
		<tag k="name" v="Tornesteisåsen" />
		<tag k="natural" v="hill" />
		<tag k="place" v="locality" />
		<tag k="ssr:stedsnr" v="98870" />
	</node>
	<node id="-604756" lat="59.7861583339" lon="5.39247222718">
		<tag k="name" v="Lurane" />
		<tag k="place" v="locality" />
		<tag k="ssr:stedsnr" v="98068" />
	</node>
	<node id="-604755" lat="59.8700166659" lon="5.47619166337">
		<tag k="name" v="Kudalen" />
		<tag k="natural" v="valley" />
		<tag k="place" v="locality" />
		<tag k="ssr:stedsnr" v="98060" />
	</node>
	<node id="-604754" lat="59.8116166626" lon="5.44885277438">
		<tag k="name" v="Setralia" />
		<tag k="natural" v="slope" />
		<tag k="place" v="locality" />
		<tag k="ssr:stedsnr" v="98126" />
	</node>
	<node id="-604753" lat="59.8194861138" lon="5.46968888167">
		<tag k="name" v="Høgabrotet" />
		<tag k="natural" v="hill" />
		<tag k="place" v="locality" />
		<tag k="ssr:stedsnr" v="98124" />
	</node>
	<node id="-604751" lat="59.8153916692" lon="5.44019167333">
		<tag k="fixme" v="consider natural=peak for the most distinct mountains in the district" />
		<tag k="name" v="Silsåsen" />
		<tag k="natural" v="hill" />
		<tag k="place" v="locality" />
		<tag k="ssr:stedsnr" v="98114" />
	</node>
	<node id="-604750" lat="59.8015416641" lon="5.41375833872">
		<tag k="name" v="Dalskardalen" />
		<tag k="natural" v="valley" />
		<tag k="place" v="locality" />
		<tag k="ssr:stedsnr" v="98110" />
	</node>
	<node id="-604749" lat="59.7894000034" lon="5.36485554867">
		<tag k="name" v="Sjonarhaugen" />
		<tag k="natural" v="hill" />
		<tag k="place" v="locality" />
		<tag k="ssr:stedsnr" v="98108" />
	</node>
	<node id="-604748" lat="59.7911194468" lon="5.3492361119">
		<tag k="name" v="Furehaugen" />
		<tag k="natural" v="hill" />
		<tag k="place" v="locality" />
		<tag k="ssr:stedsnr" v="98106" />
	</node>
	<node id="-604747" lat="59.7963499959" lon="5.34526111708">
		<tag k="name" v="Tverrdalen" />
		<tag k="natural" v="valley" />
		<tag k="place" v="locality" />
		<tag k="ssr:stedsnr" v="98105" />
	</node>
	<node id="-604738" lat="59.8036527741" lon="5.4554361109">
		<tag k="fixme" v="consider natural=peak for the most distinct mountains in the district" />
		<tag k="name" v="Baståsen" />
		<tag k="natural" v="hill" />
		<tag k="place" v="locality" />
		<tag k="ssr:stedsnr" v="247480" />
	</node>
	<node id="-604736" lat="59.8245333378" lon="5.46721110871">
		<tag k="name" v="Skoltane" />
		<tag k="natural" v="hill" />
		<tag k="place" v="locality" />
		<tag k="ssr:stedsnr" v="246931" />
	</node>
	<node id="-604730" lat="59.7987250001" lon="5.50966944897">
		<tag k="name" v="Havåsen" />
		<tag k="natural" v="hill" />
		<tag k="place" v="locality" />
		<tag k="ssr:stedsnr" v="65328" />
	</node>
	<node id="-604724" lat="59.8371749963" lon="5.53269166346">
		<tag k="name" v="Ladberget" />
		<tag k="natural" v="hill" />
		<tag k="place" v="locality" />
		<tag k="ssr:stedsnr" v="38224" />
	</node>
	<node id="-604723" lat="59.8460194439" lon="5.58574722668">
		<tag k="name" v="Lomatjørnshaugen" />
		<tag k="natural" v="hill" />
		<tag k="place" v="locality" />
		<tag k="ssr:stedsnr" v="38211" />
	</node>
	<node id="-604722" lat="59.8262787439" lon="5.47457585807">
		<tag k="fixme" v="consider natural=peak for the most distinct mountains in the district" />
		<tag k="name" v="Kvernåsen" />
		<tag k="natural" v="hill" />
		<tag k="place" v="locality" />
		<tag k="ssr:stedsnr" v="38110" />
	</node>
	<node id="-604721" lat="59.8283305572" lon="5.46436389587">
		<tag k="name" v="Tveitalia" />
		<tag k="natural" v="slope" />
		<tag k="place" v="locality" />
		<tag k="ssr:stedsnr" v="38109" />
	</node>
	<node id="-604718" lat="59.7956999969" lon="5.44666388386">
		<tag k="fixme" v="consider natural=peak for the most distinct mountains in the district" />
		<tag k="name" v="Falkåsen" />
		<tag k="natural" v="hill" />
		<tag k="place" v="locality" />
		<tag k="ssr:stedsnr" v="37873" />
	</node>
	<node id="-604717" lat="59.8067361122" lon="5.43735832738">
		<tag k="fixme" v="consider natural=peak for the most distinct mountains in the district" />
		<tag k="name" v="Stuvasetråsen" />
		<tag k="natural" v="hill" />
		<tag k="place" v="locality" />
		<tag k="ssr:stedsnr" v="37870" />
	</node>
	<node id="-604716" lat="59.7833250006" lon="5.48315832926">
		<tag k="name" v="Skitnasmoget" />
		<tag k="place" v="locality" />
		<tag k="ssr:stedsnr" v="37865" />
	</node>
	<node id="-604711" lat="59.9105361153" lon="5.49760555401">
		<tag k="name" v="Klubben" />
		<tag k="natural" v="hill" />
		<tag k="place" v="locality" />
		<tag k="ssr:stedsnr" v="25266" />
	</node>
	<node id="-604707" lat="59.8381138876" lon="5.59994721834">
		<tag k="fixme" v="consider natural=peak for the most distinct mountains in the district" />
		<tag k="name" v="Graveåsen" />
		<tag k="natural" v="hill" />
		<tag k="place" v="locality" />
		<tag k="ssr:stedsnr" v="220279" />
	</node>
	<node id="-604703" lat="59.8403194417" lon="5.45144999487">
		<tag k="name" v="Botnabakken" />
		<tag k="natural" v="slope" />
		<tag k="place" v="locality" />
		<tag k="ssr:stedsnr" v="220200" />
	</node>
	<node id="-604702" lat="59.8464861113" lon="5.44593333278">
		<tag k="name" v="Vaulane" />
		<tag k="place" v="locality" />
		<tag k="ssr:stedsnr" v="220198" />
	</node>
	<node id="-604701" lat="59.8271666653" lon="5.35853055936">
		<tag k="name" v="Mjåbekkebrotet" />
		<tag k="natural" v="hill" />
		<tag k="place" v="locality" />
		<tag k="ssr:stedsnr" v="220100" />
	</node>
	<node id="-604700" lat="59.856602776" lon="5.51371944814">
		<tag k="name" v="Brøkleiva" />
		<tag k="natural" v="valley" />
		<tag k="place" v="locality" />
		<tag k="ssr:stedsnr" v="220088" />
	</node>
	<node id="-604698" lat="59.8354027768" lon="5.39948332527">
		<tag k="name" v="Mørkavasslia" />
		<tag k="natural" v="slope" />
		<tag k="place" v="locality" />
		<tag k="ssr:stedsnr" v="220022" />
	</node>
	<node id="-604697" lat="59.7954444419" lon="5.46104444331">
		<tag k="name" v="Rindane" />
		<tag k="place" v="locality" />
		<tag k="ssr:stedsnr" v="219879" />
	</node>
	<node id="-604696" lat="59.7909916636" lon="5.45709721637">
		<tag k="fixme" v="consider natural=peak for the most distinct mountains in the district" />
		<tag k="name" v="Bjørkåsen" />
		<tag k="natural" v="hill" />
		<tag k="place" v="locality" />
		<tag k="ssr:stedsnr" v="219876" />
	</node>
	<node id="-604695" lat="59.7730777807" lon="5.50307500549">
		<tag k="name" v="Midthaugen" />
		<tag k="natural" v="hill" />
		<tag k="place" v="locality" />
		<tag k="ssr:stedsnr" v="219861" />
	</node>
	<node id="-604692" lat="59.7530027797" lon="5.43971945076">
		<tag k="fixme" v="consider natural=peak for the most distinct mountains in the district" />
		<tag k="name" v="Skaråsen" />
		<tag k="natural" v="hill" />
		<tag k="place" v="locality" />
		<tag k="ssr:stedsnr" v="219796" />
	</node>
	<node id="-604691" lat="59.7647666691" lon="5.44254721931">
		<tag k="name" v="Tornehaugane" />
		<tag k="natural" v="hill" />
		<tag k="place" v="locality" />
		<tag k="ssr:stedsnr" v="219793" />
	</node>
	<node id="-604688" lat="59.8694361073" lon="5.48925277762">
		<tag k="name" v="Hetlesæter-kalderassen" />
		<tag k="place" v="locality" />
		<tag k="ssr:stedsnr" v="220073" />
	</node>
	<node id="-604687" lat="59.9000472216" lon="5.49158888429">
		<tag k="fixme" v="consider natural=peak for the most distinct mountains in the district" />
		<tag k="name" v="Åsane" />
		<tag k="natural" v="hill" />
		<tag k="place" v="locality" />
		<tag k="ssr:stedsnr" v="3688" />
>>>>>>> e1d4bc35ff8a6074a6f2e91616a996b547c36f15
	</node>
</osm>
