<?xml version="1.0" encoding="UTF-8"?>
<osm generator="osmapis" version="0.6">
	<node id="-186143" lat="59.6689444433" lon="9.70970555427">
		<tag k="name" v="Østre Minde" />
		<tag k="ssr:date" v="2016-05-10" />
		<tag k="ssr:gruppe" v="veg" />
		<tag k="ssr:hovedgruppe" v="infrastruktur" />
		<tag k="ssr:stedsnr" v="181766" />
		<tag k="ssr:type" v="vegstrekning" />
	</node>
	<node id="-186898" lat="59.6696694469" lon="9.70561111119">
		<tag k="name" v="Vestre Minde" />
		<tag k="ssr:date" v="2019-05-30" />
		<tag k="ssr:gruppe" v="veg" />
		<tag k="ssr:hovedgruppe" v="infrastruktur" />
		<tag k="ssr:stedsnr" v="813992" />
		<tag k="ssr:type" v="adressenavn" />
	</node>
	<node id="-187025" lat="59.7410583314" lon="9.87576666676">
		<tag k="name" v="Sørlandsbanen" />
		<tag k="ssr:date" v="2016-05-11" />
		<tag k="ssr:gruppe" v="bane" />
		<tag k="ssr:hovedgruppe" v="infrastruktur" />
		<tag k="ssr:stedsnr" v="876848" />
		<tag k="ssr:type" v="banestrekning" />
	</node>
	<node id="-187141" lat="60.5908609473" lon="9.63819281559">
		<tag k="fixme" v="multiple name tags, choose one and add the other to alt_name" />
		<tag k="name" v="Austlandet;Østlandet" />
		<tag k="ssr:date" v="2018-01-09" />
		<tag k="ssr:gruppe" v="administrativeIndelinger" />
		<tag k="ssr:hovedgruppe" v="offentligAdministrasjon" />
		<tag k="ssr:stedsnr" v="974775" />
		<tag k="ssr:type" v="annenAdministrativInndeling" />
	</node>
	<node id="-186435" lat="59.7711111135" lon="9.90840555262">
		<tag k="name" v="Øvre Eiker kommune" />
		<tag k="ssr:date" v="2016-05-10" />
		<tag k="ssr:gruppe" v="administrativeIndelinger" />
		<tag k="ssr:hovedgruppe" v="offentligAdministrasjon" />
		<tag k="ssr:stedsnr" v="510327" />
		<tag k="ssr:type" v="kommune" />
	</node>
	<node id="-185826" lat="59.8382085482" lon="9.74485510162">
		<tag k="name" v="Sandtjern" />
		<tag k="ssr:date" v="2019-05-30" />
		<tag k="ssr:gruppe" v="veg" />
		<tag k="ssr:hovedgruppe" v="infrastruktur" />
		<tag k="ssr:stedsnr" v="1034151" />
		<tag k="ssr:type" v="adressenavn" />
	</node>
	<node id="-185825" lat="59.8182897631" lon="10.0001271982">
		<tag k="name" v="Øyvann" />
		<tag k="ssr:date" v="2019-05-30" />
		<tag k="ssr:gruppe" v="veg" />
		<tag k="ssr:hovedgruppe" v="infrastruktur" />
		<tag k="ssr:stedsnr" v="1034181" />
		<tag k="ssr:type" v="adressenavn" />
	</node>
</osm>
