<?xml version="1.0" encoding="UTF-8"?>
<<<<<<< HEAD
<osm version="0.6" generator="osmapis">
	<node lat="60.20643888526262" lon="10.538024997263781" id="-16442">
		<tag k="name" v="Velomyra" />
=======
<osm generator="osmapis" version="0.6">
	<node id="-296832" lat="60.1966944416" lon="10.5612638947">
		<tag k="name" v="Roensetermyra" />
		<tag k="natural" v="wetland" />
		<tag k="ssr:stedsnr" v="213508" />
	</node>
	<node id="-297471" lat="60.2745388923" lon="10.5115805588">
		<tag k="name" v="Liesmarka" />
		<tag k="place" v="locality" />
		<tag k="ssr:stedsnr" v="821935" />
	</node>
	<node id="-296958" lat="60.2687722198" lon="10.3190861132">
		<tag k="name" v="Puttmyrene" />
		<tag k="natural" v="wetland" />
		<tag k="ssr:stedsnr" v="674401" />
	</node>
	<node id="-297350" lat="60.3280777819" lon="10.3282027756">
		<tag k="name" v="Vælsandmarka" />
		<tag k="place" v="locality" />
		<tag k="ssr:stedsnr" v="423481" />
	</node>
	<node id="-297337" lat="60.2226499995" lon="10.3477277785">
		<tag k="name" v="Eggestein" />
		<tag k="natural" v="stone" />
		<tag k="ssr:stedsnr" v="415631" />
	</node>
	<node id="-297336" lat="60.3875638926" lon="10.2592999948">
		<tag k="name" v="Lortemyrene" />
		<tag k="natural" v="wetland" />
		<tag k="ssr:stedsnr" v="415496" />
	</node>
	<node id="-296823" lat="60.2489444455" lon="10.4792361085">
		<tag k="name" v="Klokkermarka" />
		<tag k="place" v="locality" />
		<tag k="ssr:stedsnr" v="179163" />
	</node>
	<node id="-297462" lat="60.2955361119" lon="10.3193527786">
		<tag k="name" v="Stormyra" />
		<tag k="natural" v="wetland" />
		<tag k="ssr:stedsnr" v="795435" />
	</node>
	<node id="-297332" lat="60.3495166703" lon="10.2771194411">
		<tag k="name" v="Godmyrene" />
		<tag k="natural" v="wetland" />
		<tag k="ssr:stedsnr" v="402481" />
	</node>
	<node id="-296819" lat="60.365425001" lon="10.2983388869">
		<tag k="name" v="Dalamyrene" />
>>>>>>> e1d4bc35ff8a6074a6f2e91616a996b547c36f15
		<tag k="natural" v="wetland" />
		<tag k="ssr:stedsnr" v="32881" />
	</node>
<<<<<<< HEAD
	<node lat="60.22867500106431" lon="10.342405551026436" id="-16446">
		<tag k="name" v="Musemyra" />
=======
	<node id="-297074" lat="60.2071833363" lon="10.4918333321">
		<tag k="name" v="Gulborgmyra" />
		<tag k="natural" v="wetland" />
		<tag k="ssr:stedsnr" v="942950" />
	</node>
	<node id="-297328" lat="60.301230559" lon="10.2830194376">
		<tag k="name" v="Kalveholen" />
>>>>>>> e1d4bc35ff8a6074a6f2e91616a996b547c36f15
		<tag k="natural" v="wetland" />
		<tag k="ssr:stedsnr" v="51623" />
	</node>
<<<<<<< HEAD
	<node lat="60.24378611067981" lon="10.476436118178754" id="-16449">
		<tag k="name" v="Bratvalsmyra" />
=======
	<node id="-297071" lat="60.2110222208" lon="10.5372055566">
		<tag k="name" v="Spinnermyra" />
>>>>>>> e1d4bc35ff8a6074a6f2e91616a996b547c36f15
		<tag k="natural" v="wetland" />
		<tag k="ssr:stedsnr" v="240174" />
	</node>
<<<<<<< HEAD
	<node lat="60.20343611108892" lon="10.505438884408635" id="-16453">
		<tag k="name" v="Villingmyra" />
=======
	<node id="-297454" lat="60.2296166665" lon="10.5100666698">
		<tag k="alt_name" v="Puttmyrane" />
		<tag k="name" v="Puttmyrene" />
>>>>>>> e1d4bc35ff8a6074a6f2e91616a996b547c36f15
		<tag k="natural" v="wetland" />
		<tag k="ssr:stedsnr" v="66409" />
	</node>
<<<<<<< HEAD
	<node lat="60.26220555399545" lon="10.34763610427262" id="-16459">
		<tag k="alt_name" v="Nøklebysætra, nedre;Nedre Nøkleby seter" />
		<tag k="historic" v="shieling" />
		<tag k="name" v="Nedre Nøklebysætra" />
=======
	<node id="-296813" lat="60.236191667" lon="10.4917916746">
		<tag k="name" v="Tvelessingsmyra" />
		<tag k="natural" v="wetland" />
		<tag k="ssr:stedsnr" v="275849" />
	</node>
	<node id="-296940" lat="60.2242916661" lon="10.4501416644">
		<tag k="name" v="Kølabonn" />
>>>>>>> e1d4bc35ff8a6074a6f2e91616a996b547c36f15
		<tag k="place" v="locality" />
		<tag k="ssr:stedsnr" v="67799" />
	</node>
<<<<<<< HEAD
	<node lat="60.26388332954404" lon="10.35422777027976" id="-16460">
		<tag k="alt_name" v="Stormyr" />
		<tag k="name" v="Stormyra" />
=======
	<node id="-297067" lat="60.2052500036" lon="10.4760499963">
		<tag k="name" v="Seksputtmyrene" />
>>>>>>> e1d4bc35ff8a6074a6f2e91616a996b547c36f15
		<tag k="natural" v="wetland" />
		<tag k="ssr:stedsnr" v="67800" />
	</node>
<<<<<<< HEAD
	<node lat="60.2781333318355" lon="10.301727782688268" id="-16465">
		<tag k="name" v="Trettestykkene" />
		<tag k="place" v="locality" />
		<tag k="ssr:stedsnr" v="95226" />
	</node>
	<node lat="60.28959722551124" lon="10.308108331270132" id="-16466">
		<tag k="name" v="Toputtmyrene" />
		<tag k="natural" v="wetland" />
		<tag k="ssr:stedsnr" v="95230" />
	</node>
	<node lat="60.31229166618133" lon="10.315038896291949" id="-16469">
=======
	<node id="-296937" lat="60.245744444" lon="10.4471138826">
		<tag k="name" v="Rønnerudmarka" />
		<tag k="place" v="locality" />
		<tag k="ssr:stedsnr" v="482152" />
	</node>
	<node id="-296806" lat="60.3133638905" lon="10.2879583339">
		<tag k="name" v="Svarttjernsmyra" />
		<tag k="natural" v="wetland" />
		<tag k="ssr:stedsnr" v="127528" />
	</node>
	<node id="-297105" lat="60.2266555532" lon="10.4582444436">
		<tag k="historic" v="shieling" />
		<tag k="name" v="Gammelsæter" />
		<tag k="place" v="locality" />
		<tag k="ssr:stedsnr" v="968430" />
	</node>
	<node id="-297060" lat="60.2548305595" lon="10.4675749937">
		<tag k="name" v="Røstemarka" />
		<tag k="place" v="locality" />
		<tag k="ssr:stedsnr" v="786162" />
	</node>
	<node id="-296800" lat="60.3122916662" lon="10.3150388963">
>>>>>>> e1d4bc35ff8a6074a6f2e91616a996b547c36f15
		<tag k="alt_name" v="Butjennsmyrene" />
		<tag k="name" v="Butjernsmyrene" />
		<tag k="natural" v="wetland" />
		<tag k="ssr:stedsnr" v="98823" />
	</node>
<<<<<<< HEAD
	<node lat="60.20538610711576" lon="10.444547217534362" id="-16509">
		<tag k="historic" v="shieling" />
		<tag k="name" v="Mosetervollen" />
		<tag k="place" v="locality" />
		<tag k="ssr:stedsnr" v="155654" />
	</node>
	<node lat="60.19669444158375" lon="10.561263894749608" id="-16524">
		<tag k="name" v="Roensetermyra" />
=======
	<node id="-297296" lat="60.2963388922" lon="10.328836111">
		<tag k="name" v="Merramyra" />
		<tag k="natural" v="wetland" />
		<tag k="ssr:stedsnr" v="355274" />
	</node>
	<node id="-296925" lat="60.1938944414" lon="10.4577194398">
		<tag k="alt_name" v="Stormyr" />
		<tag k="name" v="Nedre Stormyra" />
		<tag k="natural" v="wetland" />
		<tag k="ssr:stedsnr" v="672061" />
	</node>
	<node id="-296922" lat="60.2248583313" lon="10.4328888938">
		<tag k="name" v="Åssnaret" />
>>>>>>> e1d4bc35ff8a6074a6f2e91616a996b547c36f15
		<tag k="natural" v="wetland" />
		<tag k="ssr:stedsnr" v="213508" />
	</node>
<<<<<<< HEAD
	<node lat="60.236122220519654" lon="10.43419166848101" id="-16530">
		<tag k="name" v="Tosobråtan" />
=======
	<node id="-296921" lat="60.2357805542" lon="10.4678055596">
		<tag k="name" v="Øvre Søtbakken" />
>>>>>>> e1d4bc35ff8a6074a6f2e91616a996b547c36f15
		<tag k="place" v="locality" />
		<tag k="ssr:stedsnr" v="240248" />
	</node>
<<<<<<< HEAD
	<node lat="60.254680556178165" lon="10.48290833595158" id="-16532">
		<tag k="name" v="Hestehagen" />
=======
	<node id="-297048" lat="60.2605583364" lon="10.4911333393">
		<tag k="name" v="Myrskogen" />
>>>>>>> e1d4bc35ff8a6074a6f2e91616a996b547c36f15
		<tag k="place" v="locality" />
		<tag k="ssr:stedsnr" v="240186" />
	</node>
<<<<<<< HEAD
	<node lat="60.24169444578373" lon="10.468122213469245" id="-16533">
		<tag k="fixme" v="multiple name tags, choose one and add the other to alt_name" />
		<tag k="name" v="Furumyra;Rundhaugmyra" />
=======
	<node id="-297175" lat="60.2307361141" lon="10.3634444394">
		<tag k="name" v="Puttemyra" />
>>>>>>> e1d4bc35ff8a6074a6f2e91616a996b547c36f15
		<tag k="natural" v="wetland" />
		<tag k="ssr:stedsnr" v="248359" />
	</node>
<<<<<<< HEAD
	<node lat="60.32590277528901" lon="10.28298334087256" id="-16534">
=======
	<node id="-296789" lat="60.3259027753" lon="10.2829833409">
>>>>>>> e1d4bc35ff8a6074a6f2e91616a996b547c36f15
		<tag k="alt_name" v="Malinemyrene" />
		<tag k="name" v="Malenemyra" />
		<tag k="natural" v="wetland" />
		<tag k="ssr:stedsnr" v="248453" />
	</node>
<<<<<<< HEAD
	<node lat="60.18809167034356" lon="10.502963897086893" id="-16540">
		<tag k="name" v="Ellingsmyra" />
=======
	<node id="-297171" lat="60.2895972255" lon="10.3081083313">
		<tag k="name" v="Toputtmyrene" />
>>>>>>> e1d4bc35ff8a6074a6f2e91616a996b547c36f15
		<tag k="natural" v="wetland" />
		<tag k="ssr:stedsnr" v="457939" />
	</node>
<<<<<<< HEAD
	<node lat="60.23916666435626" lon="10.430786103463728" id="-16547">
		<tag k="name" v="Brenna" />
		<tag k="place" v="locality" />
		<tag k="ssr:stedsnr" v="300203" />
	</node>
	<node lat="60.29352777862961" lon="10.305255550129422" id="-16550">
		<tag k="alt_name" v="Gråmerrmyrene" />
		<tag k="name" v="Gråmerra" />
		<tag k="natural" v="wetland" />
		<tag k="ssr:stedsnr" v="309439" />
	</node>
	<node lat="60.24574444403847" lon="10.447113882648765" id="-16580">
		<tag k="name" v="Rønnerudmarka" />
		<tag k="place" v="locality" />
		<tag k="ssr:stedsnr" v="482152" />
	</node>
	<node lat="60.34951667032778" lon="10.27711944113653" id="-16584">
		<tag k="name" v="Godmyrene" />
		<tag k="natural" v="wetland" />
		<tag k="ssr:stedsnr" v="402481" />
	</node>
	<node lat="60.21699166576749" lon="10.440936116545219" id="-16594">
		<tag k="name" v="Flisemyra" />
		<tag k="natural" v="wetland" />
		<tag k="ssr:stedsnr" v="490469" />
	</node>
	<node lat="60.19389444138559" lon="10.457719439775207" id="-16611">
=======
	<node id="-297170" lat="60.2781333318" lon="10.3017277827">
		<tag k="name" v="Trettestykkene" />
		<tag k="place" v="locality" />
		<tag k="ssr:stedsnr" v="95226" />
	</node>
	<node id="-296784" lat="60.2416944458" lon="10.4681222135">
		<tag k="fixme" v="multiple name tags, choose one and add the other to alt_name" />
		<tag k="name" v="Furumyra;Rundhaugmyra" />
		<tag k="natural" v="wetland" />
		<tag k="ssr:stedsnr" v="248359" />
	</node>
	<node id="-297039" lat="60.246074997" lon="10.4821583337">
		<tag k="name" v="Kolhus" />
		<tag k="place" v="locality" />
		<tag k="ssr:stedsnr" v="907153" />
	</node>
	<node id="-296910" lat="60.1821388894" lon="10.4907833412">
		<tag k="name" v="Elgemyra" />
		<tag k="natural" v="wetland" />
		<tag k="ssr:stedsnr" v="517936" />
	</node>
	<node id="-297037" lat="60.2381555544" lon="10.4087805543">
		<tag k="landuse" v="meadow" />
		<tag k="name" v="Stampeenga" />
		<tag k="ssr:stedsnr" v="907131" />
	</node>
	<node id="-297163" lat="60.1859666661" lon="10.5337944381">
		<tag k="name" v="Kloppmyrene" />
		<tag k="natural" v="wetland" />
		<tag k="ssr:stedsnr" v="93887" />
	</node>
	<node id="-296777" lat="60.2034361111" lon="10.5054388844">
		<tag k="name" v="Villingmyra" />
		<tag k="natural" v="wetland" />
		<tag k="ssr:stedsnr" v="66409" />
	</node>
	<node id="-297416" lat="60.2337638913" lon="10.4553999947">
		<tag k="name" v="Rønnerudbråtåsletta" />
		<tag k="place" v="locality" />
		<tag k="ssr:stedsnr" v="603198" />
	</node>
	<node id="-297158" lat="60.2638833295" lon="10.3542277703">
>>>>>>> e1d4bc35ff8a6074a6f2e91616a996b547c36f15
		<tag k="alt_name" v="Stormyr" />
		<tag k="name" v="Nedre Stormyra" />
		<tag k="natural" v="wetland" />
		<tag k="ssr:stedsnr" v="672061" />
	</node>
<<<<<<< HEAD
	<node lat="60.22429166605575" lon="10.450141664372175" id="-16639">
		<tag k="name" v="Kølabonn" />
		<tag k="place" v="locality" />
		<tag k="ssr:stedsnr" v="482512" />
	</node>
	<node lat="60.24569444098914" lon="10.495500002879437" id="-16647">
		<tag k="name" v="Klokkermarka" />
		<tag k="place" v="locality" />
		<tag k="ssr:stedsnr" v="517926" />
	</node>
	<node lat="60.25263610743533" lon="10.320113893595567" id="-16652">
		<tag k="name" v="Setermyrdalen" />
=======
	<node id="-296773" lat="60.2361222205" lon="10.4341916685">
		<tag k="name" v="Tosobråtan" />
		<tag k="place" v="locality" />
		<tag k="ssr:stedsnr" v="240248" />
	</node>
	<node id="-296961" lat="60.3300777792" lon="10.3302583355">
		<tag k="name" v="Elnesmarka" />
		<tag k="place" v="locality" />
		<tag k="ssr:stedsnr" v="544454" />
	</node>
	<node id="-296771" lat="60.2546805562" lon="10.482908336">
		<tag k="name" v="Hestehagen" />
		<tag k="place" v="locality" />
		<tag k="ssr:stedsnr" v="240186" />
	</node>
	<node id="-296770" lat="60.2437861107" lon="10.4764361182">
		<tag k="name" v="Bratvalsmyra" />
>>>>>>> e1d4bc35ff8a6074a6f2e91616a996b547c36f15
		<tag k="natural" v="wetland" />
		<tag k="ssr:stedsnr" v="536984" />
	</node>
<<<<<<< HEAD
	<node lat="60.221955553632796" lon="10.407850000638625" id="-16653">
		<tag k="name" v="Mosmarka" />
		<tag k="place" v="locality" />
		<tag k="ssr:stedsnr" v="543190" />
	</node>
	<node lat="60.32418889317864" lon="10.301294452613055" id="-16665">
		<tag k="alt_name" v="Kløyvtjennsmyrene" />
		<tag k="name" v="Kløvtjernsmyra" />
=======
	<node id="-296909" lat="60.245694441" lon="10.4955000029">
		<tag k="name" v="Klokkermarka" />
		<tag k="place" v="locality" />
		<tag k="ssr:stedsnr" v="517926" />
	</node>
	<node id="-296766" lat="60.2720944478" lon="10.3140944386">
		<tag k="name" v="Trettestykke" />
		<tag k="natural" v="wetland" />
		<tag k="ssr:stedsnr" v="52896" />
	</node>
	<node id="-296893" lat="60.3459277777" lon="10.3400916605">
		<tag k="name" v="Onsakermarka" />
		<tag k="place" v="locality" />
		<tag k="ssr:stedsnr" v="422714" />
	</node>
	<node id="-296763" lat="60.2286750011" lon="10.342405551">
		<tag k="name" v="Musemyra" />
>>>>>>> e1d4bc35ff8a6074a6f2e91616a996b547c36f15
		<tag k="natural" v="wetland" />
		<tag k="ssr:stedsnr" v="552535" />
	</node>
<<<<<<< HEAD
	<node lat="60.2287583301868" lon="10.501011113850646" id="-16671">
		<tag k="name" v="Stormyr" />
=======
	<node id="-297273" lat="60.2935277786" lon="10.3052555501">
		<tag k="alt_name" v="Gråmerrmyrene" />
		<tag k="name" v="Gråmerra" />
>>>>>>> e1d4bc35ff8a6074a6f2e91616a996b547c36f15
		<tag k="natural" v="wetland" />
		<tag k="ssr:stedsnr" v="578846" />
	</node>
<<<<<<< HEAD
	<node lat="60.236030555780985" lon="10.487966660073516" id="-16672">
=======
	<node id="-297400" lat="60.2360305558" lon="10.4879666601">
>>>>>>> e1d4bc35ff8a6074a6f2e91616a996b547c36f15
		<tag k="name" v="Vinterlunnmyra" />
		<tag k="natural" v="wetland" />
		<tag k="ssr:stedsnr" v="578847" />
	</node>
<<<<<<< HEAD
	<node lat="60.233763891302395" lon="10.455399994738261" id="-16684">
		<tag k="name" v="Rønnerudbråtåsletta" />
		<tag k="place" v="locality" />
		<tag k="ssr:stedsnr" v="603198" />
	</node>
	<node lat="60.371983332851386" lon="10.326002769183669" id="-16688">
		<tag k="name" v="Stormyrene" />
=======
	<node id="-297399" lat="60.2287583302" lon="10.5010111139">
		<tag k="name" v="Stormyr" />
>>>>>>> e1d4bc35ff8a6074a6f2e91616a996b547c36f15
		<tag k="natural" v="wetland" />
		<tag k="ssr:stedsnr" v="611607" />
	</node>
<<<<<<< HEAD
	<node lat="60.268772219790065" lon="10.31908611315163" id="-16712">
		<tag k="name" v="Puttmyrene" />
		<tag k="natural" v="wetland" />
		<tag k="ssr:stedsnr" v="674401" />
	</node>
	<node lat="60.289300001595564" lon="10.350291666789486" id="-16721">
		<tag k="name" v="Larsbråtan" />
		<tag k="place" v="locality" />
		<tag k="ssr:stedsnr" v="901228" />
	</node>
	<node lat="60.222455553605386" lon="10.529616658902754" id="-16724">
		<tag k="alt_name" v="Torvmyra" />
		<tag k="name" v="Stavangermyra" />
=======
	<node id="-297142" lat="60.2263611138" lon="10.4441111161">
		<tag k="name" v="Masseløkka" />
		<tag k="place" v="locality" />
		<tag k="ssr:stedsnr" v="58436" />
	</node>
	<node id="-297289" lat="60.2420027817" lon="10.5170083419">
		<tag k="name" v="Snålstykkene" />
		<tag k="place" v="locality" />
		<tag k="ssr:stedsnr" v="335933" />
	</node>
	<node id="-297009" lat="60.276608334" lon="10.3160444466">
		<tag k="name" v="Trollmyra" />
>>>>>>> e1d4bc35ff8a6074a6f2e91616a996b547c36f15
		<tag k="natural" v="wetland" />
		<tag k="ssr:stedsnr" v="733436" />
	</node>
<<<<<<< HEAD
	<node lat="60.23815555443363" lon="10.40878055432826" id="-16738">
		<tag k="landuse" v="meadow" />
		<tag k="name" v="Stampeenga" />
		<tag k="ssr:stedsnr" v="907131" />
	</node>
	<node lat="60.25483055950891" lon="10.467574993663778" id="-16743">
		<tag k="name" v="Røstemarka" />
		<tag k="place" v="locality" />
		<tag k="ssr:stedsnr" v="786162" />
	</node>
	<node lat="60.2052500035921" lon="10.476049996308179" id="-16764">
		<tag k="name" v="Seksputtmyrene" />
=======
	<node id="-297288" lat="60.2696388911" lon="10.3077749977">
		<tag k="name" v="Nysetermyrene" />
		<tag k="natural" v="wetland" />
		<tag k="ssr:stedsnr" v="330881" />
	</node>
	<node id="-297260" lat="60.2120944487" lon="10.4928111026">
		<tag k="name" v="Kjippmyra" />
>>>>>>> e1d4bc35ff8a6074a6f2e91616a996b547c36f15
		<tag k="natural" v="wetland" />
		<tag k="ssr:stedsnr" v="823611" />
	</node>
<<<<<<< HEAD
	<node lat="60.24607499702032" lon="10.482158333734862" id="-16787">
		<tag k="name" v="Kolhus" />
		<tag k="place" v="locality" />
		<tag k="ssr:stedsnr" v="907153" />
	</node>
	<node lat="60.30028055265121" lon="10.297483327374904" id="-16796">
		<tag k="alt_name" v="Flekkerøymyra" />
		<tag k="name" v="Flekkrøymyra" />
		<tag k="natural" v="wetland" />
		<tag k="ssr:stedsnr" v="916526" />
	</node>
	<node lat="60.267886111176765" lon="10.338283336269917" id="-16802">
		<tag k="name" v="Saumyra" />
=======
	<node id="-297131" lat="60.2589416647" lon="10.4958222281">
		<tag k="name" v="Orhagen" />
		<tag k="place" v="locality" />
		<tag k="ssr:stedsnr" v="32938" />
	</node>
	<node id="-297326" lat="60.2633638882" lon="10.5054027715">
		<tag k="alt_name" v="Olimbsvaet" />
		<tag k="name" v="Olumsvaet" />
		<tag k="place" v="locality" />
		<tag k="ssr:stedsnr" v="396974" />
	</node>
	<node id="-297129" lat="60.2064388853" lon="10.5380249973">
		<tag k="name" v="Velomyra" />
>>>>>>> e1d4bc35ff8a6074a6f2e91616a996b547c36f15
		<tag k="natural" v="wetland" />
		<tag k="ssr:stedsnr" v="962897" />
	</node>
<<<<<<< HEAD
	<node lat="60.197886106730124" lon="10.454566674570652" id="-16816">
		<tag k="name" v="Øvre Stormyra" />
=======
	<node id="-296871" lat="60.2169916658" lon="10.4409361165">
		<tag k="name" v="Flisemyra" />
>>>>>>> e1d4bc35ff8a6074a6f2e91616a996b547c36f15
		<tag k="natural" v="wetland" />
		<tag k="ssr:stedsnr" v="5438" />
	</node>
<<<<<<< HEAD
	<node lat="60.25894166466279" lon="10.495822228069477" id="-16834">
		<tag k="name" v="Orhagen" />
		<tag k="place" v="locality" />
		<tag k="ssr:stedsnr" v="32938" />
	</node>
	<node lat="60.27209444775035" lon="10.314094438637612" id="-16843">
		<tag k="name" v="Trettestykke" />
		<tag k="natural" v="wetland" />
		<tag k="ssr:stedsnr" v="52896" />
	</node>
	<node lat="60.22636111376416" lon="10.444111116141604" id="-16846">
		<tag k="name" v="Masseløkka" />
		<tag k="place" v="locality" />
		<tag k="ssr:stedsnr" v="58436" />
	</node>
	<node lat="60.18596666605939" lon="10.533794438108618" id="-16863">
		<tag k="name" v="Kloppmyrene" />
		<tag k="natural" v="wetland" />
		<tag k="ssr:stedsnr" v="93887" />
	</node>
	<node lat="60.206752775964226" lon="10.502855556257305" id="-16865">
		<tag k="name" v="Abrahamsløkka" />
		<tag k="place" v="locality" />
		<tag k="ssr:stedsnr" v="93929" />
	</node>
	<node lat="60.230736114138864" lon="10.363444439362397" id="-16872">
		<tag k="name" v="Puttemyra" />
		<tag k="natural" v="wetland" />
		<tag k="ssr:stedsnr" v="112583" />
	</node>
	<node lat="60.31336389045093" lon="10.287958333895805" id="-16887">
		<tag k="name" v="Svarttjernsmyra" />
=======
	<node id="-297030" lat="60.2893000016" lon="10.3502916668">
		<tag k="name" v="Larsbråtan" />
		<tag k="place" v="locality" />
		<tag k="ssr:stedsnr" v="901228" />
	</node>
	<node id="-297168" lat="60.206752776" lon="10.5028555563">
		<tag k="name" v="Abrahamsløkka" />
		<tag k="place" v="locality" />
		<tag k="ssr:stedsnr" v="93929" />
	</node>
	<node id="-296992" lat="60.2224555536" lon="10.5296166589">
		<tag k="alt_name" v="Torvmyra" />
		<tag k="name" v="Stavangermyra" />
		<tag k="natural" v="wetland" />
		<tag k="ssr:stedsnr" v="733436" />
	</node>
	<node id="-297072" lat="60.1896888887" lon="10.4918138902">
		<tag k="name" v="Minkmyra" />
		<tag k="natural" v="wetland" />
		<tag k="ssr:stedsnr" v="942929" />
	</node>
	<node id="-297157" lat="60.262205554" lon="10.3476361043">
		<tag k="alt_name" v="Nøklebysætra, nedre;Nedre Nøkleby seter" />
		<tag k="historic" v="shieling" />
		<tag k="name" v="Nedre Nøklebysætra" />
		<tag k="place" v="locality" />
		<tag k="ssr:stedsnr" v="67799" />
	</node>
	<node id="-297236" lat="60.2429611071" lon="10.5096555531">
		<tag k="alt_name" v="Kråkmyra" />
		<tag k="name" v="Kråkemyrene" />
		<tag k="natural" v="wetland" />
		<tag k="ssr:stedsnr" v="187355" />
	</node>
	<node id="-297503" lat="60.2678861112" lon="10.3382833363">
		<tag k="name" v="Saumyra" />
		<tag k="natural" v="wetland" />
		<tag k="ssr:stedsnr" v="962897" />
	</node>
	<node id="-297108" lat="60.1978861067" lon="10.4545666746">
		<tag k="name" v="Øvre Stormyra" />
>>>>>>> e1d4bc35ff8a6074a6f2e91616a996b547c36f15
		<tag k="natural" v="wetland" />
		<tag k="ssr:stedsnr" v="127528" />
	</node>
<<<<<<< HEAD
	<node lat="60.248944445515335" lon="10.479236108480546" id="-16909">
		<tag k="name" v="Klokkermarka" />
=======
	<node id="-297366" lat="60.2219555536" lon="10.4078500006">
		<tag k="name" v="Mosmarka" />
>>>>>>> e1d4bc35ff8a6074a6f2e91616a996b547c36f15
		<tag k="place" v="locality" />
		<tag k="ssr:stedsnr" v="179163" />
	</node>
<<<<<<< HEAD
	<node lat="60.23653888988642" lon="10.41714444436838" id="-16910">
		<tag k="landuse" v="meadow" />
		<tag k="name" v="Haugerenga" />
		<tag k="ssr:stedsnr" v="179137" />
	</node>
	<node lat="60.23753333670292" lon="10.414044450590623" id="-16911">
		<tag k="landuse" v="meadow" />
		<tag k="name" v="Støm" />
		<tag k="ssr:stedsnr" v="179140" />
	</node>
	<node lat="60.24296110713932" lon="10.509655553093992" id="-16916">
		<tag k="alt_name" v="Kråkmyra" />
		<tag k="name" v="Kråkemyrene" />
=======
	<node id="-296852" lat="60.3401333333" lon="10.3169722273">
		<tag k="name" v="Lauvlimyra" />
>>>>>>> e1d4bc35ff8a6074a6f2e91616a996b547c36f15
		<tag k="natural" v="wetland" />
		<tag k="ssr:stedsnr" v="301720" />
	</node>
<<<<<<< HEAD
	<node lat="60.21209444868742" lon="10.492811102623282" id="-16931">
		<tag k="name" v="Kjippmyra" />
=======
	<node id="-297363" lat="60.2526361074" lon="10.3201138936">
		<tag k="name" v="Setermyrdalen" />
>>>>>>> e1d4bc35ff8a6074a6f2e91616a996b547c36f15
		<tag k="natural" v="wetland" />
		<tag k="ssr:stedsnr" v="214964" />
	</node>
<<<<<<< HEAD
	<node lat="60.23619166699867" lon="10.491791674553161" id="-16941">
		<tag k="name" v="Tvelessingsmyra" />
=======
	<node id="-296978" lat="60.3719833329" lon="10.3260027692">
		<tag k="name" v="Stormyrene" />
>>>>>>> e1d4bc35ff8a6074a6f2e91616a996b547c36f15
		<tag k="natural" v="wetland" />
		<tag k="ssr:stedsnr" v="275849" />
	</node>
<<<<<<< HEAD
	<node lat="60.36542500098422" lon="10.298338886881961" id="-16946">
		<tag k="name" v="Dalamyrene" />
		<tag k="natural" v="wetland" />
		<tag k="ssr:stedsnr" v="280459" />
	</node>
	<node lat="60.23644721850692" lon="10.442261106588251" id="-16958">
		<tag k="name" v="Gråmetra" />
		<tag k="place" v="locality" />
		<tag k="ssr:stedsnr" v="300226" />
	</node>
	<node lat="60.34013333334808" lon="10.316972227276356" id="-16959">
		<tag k="name" v="Lauvlimyra" />
		<tag k="natural" v="wetland" />
		<tag k="ssr:stedsnr" v="301720" />
	</node>
	<node lat="60.269638891080916" lon="10.307774997729284" id="-16977">
		<tag k="name" v="Nysetermyrene" />
		<tag k="natural" v="wetland" />
		<tag k="ssr:stedsnr" v="330881" />
	</node>
	<node lat="60.24200278173059" lon="10.517008341881361" id="-16978">
		<tag k="name" v="Snålstykkene" />
		<tag k="place" v="locality" />
		<tag k="ssr:stedsnr" v="335933" />
	</node>
	<node lat="60.29633889219523" lon="10.328836111032194" id="-16982">
		<tag k="name" v="Merramyra" />
=======
	<node id="-296849" lat="60.2364472185" lon="10.4422611066">
		<tag k="name" v="Gråmetra" />
		<tag k="place" v="locality" />
		<tag k="ssr:stedsnr" v="300226" />
	</node>
	<node id="-296848" lat="60.2391666644" lon="10.4307861035">
		<tag k="name" v="Brenna" />
		<tag k="place" v="locality" />
		<tag k="ssr:stedsnr" v="300203" />
	</node>
	<node id="-297304" lat="60.2354777797" lon="10.4742388804">
		<tag k="historic" v="shieling" />
		<tag k="name" v="Svarstadvollen" />
		<tag k="place" v="locality" />
		<tag k="ssr:stedsnr" v="361248" />
	</node>
	<node id="-297230" lat="60.2365388899" lon="10.4171444444">
		<tag k="landuse" v="meadow" />
		<tag k="name" v="Haugerenga" />
		<tag k="ssr:stedsnr" v="179137" />
	</node>
	<node id="-297101" lat="60.2469972218" lon="10.3091277835">
		<tag k="name" v="Skillemyr" />
>>>>>>> e1d4bc35ff8a6074a6f2e91616a996b547c36f15
		<tag k="natural" v="wetland" />
		<tag k="ssr:stedsnr" v="355274" />
	</node>
<<<<<<< HEAD
	<node lat="60.23547777965717" lon="10.474238880400524" id="-16991">
		<tag k="historic" v="shieling" />
		<tag k="name" v="Svarstadvollen" />
		<tag k="place" v="locality" />
		<tag k="ssr:stedsnr" v="361248" />
	</node>
	<node lat="60.26336388822191" lon="10.505402771511205" id="-17006">
		<tag k="alt_name" v="Olimbsvaet" />
		<tag k="name" v="Olumsvaet" />
=======
	<node id="-296920" lat="60.2386972188" lon="10.4502166659">
		<tag k="name" v="Rønnerudmarka" />
>>>>>>> e1d4bc35ff8a6074a6f2e91616a996b547c36f15
		<tag k="place" v="locality" />
		<tag k="ssr:stedsnr" v="664200" />
	</node>
<<<<<<< HEAD
	<node lat="60.301230558970175" lon="10.283019437555874" id="-17009">
		<tag k="name" v="Kalveholen" />
=======
	<node id="-297096" lat="60.3002805527" lon="10.2974833274">
		<tag k="alt_name" v="Flekkerøymyra" />
		<tag k="name" v="Flekkrøymyra" />
>>>>>>> e1d4bc35ff8a6074a6f2e91616a996b547c36f15
		<tag k="natural" v="wetland" />
		<tag k="ssr:stedsnr" v="398258" />
	</node>
	<node lat="60.22264999947532" lon="10.347727778533244" id="-17015">
		<tag k="name" v="Eggestein" />
		<tag k="natural" v="stone" />
		<tag k="ssr:stedsnr" v="415631" />
	</node>
<<<<<<< HEAD
	<node lat="60.38756389259874" lon="10.259299994830998" id="-17016">
		<tag k="name" v="Lortemyrene" />
		<tag k="natural" v="wetland" />
		<tag k="ssr:stedsnr" v="415496" />
	</node>
	<node lat="60.34592777770501" lon="10.340091660529565" id="-17029">
		<tag k="name" v="Onsakermarka" />
		<tag k="place" v="locality" />
		<tag k="ssr:stedsnr" v="422714" />
	</node>
	<node lat="60.3280777819286" lon="10.328202775559923" id="-17031">
		<tag k="name" v="Vælsandmarka" />
		<tag k="place" v="locality" />
		<tag k="ssr:stedsnr" v="423481" />
	</node>
	<node lat="60.22584722068007" lon="10.343311103468677" id="-17032">
=======
	<node id="-297351" lat="60.2258472207" lon="10.3433111035">
>>>>>>> e1d4bc35ff8a6074a6f2e91616a996b547c36f15
		<tag k="landuse" v="landfill" />
		<tag k="name" v="Trollmyra" />
		<tag k="ssr:stedsnr" v="429478" />
	</node>
<<<<<<< HEAD
	<node lat="60.18213888935736" lon="10.49078334121948" id="-17046">
		<tag k="name" v="Elgemyra" />
		<tag k="natural" v="wetland" />
		<tag k="ssr:stedsnr" v="517936" />
	</node>
	<node lat="60.33007777919456" lon="10.330258335453435" id="-17053">
		<tag k="name" v="Elnesmarka" />
		<tag k="place" v="locality" />
		<tag k="ssr:stedsnr" v="544454" />
	</node>
	<node lat="60.276608333967246" lon="10.316044446632201" id="-17096">
		<tag k="name" v="Trollmyra" />
=======
	<node id="-296838" lat="60.1880916703" lon="10.5029638971">
		<tag k="name" v="Ellingsmyra" />
>>>>>>> e1d4bc35ff8a6074a6f2e91616a996b547c36f15
		<tag k="natural" v="wetland" />
		<tag k="ssr:stedsnr" v="658878" />
	</node>
<<<<<<< HEAD
	<node lat="60.224858331287216" lon="10.432888893825114" id="-17098">
		<tag k="name" v="Åssnaret" />
		<tag k="natural" v="wetland" />
		<tag k="ssr:stedsnr" v="664486" />
	</node>
	<node lat="60.238697218762375" lon="10.450216665854457" id="-17099">
		<tag k="name" v="Rønnerudmarka" />
=======
	<node id="-297231" lat="60.2375333367" lon="10.4140444506">
		<tag k="landuse" v="meadow" />
		<tag k="name" v="Støm" />
		<tag k="ssr:stedsnr" v="179140" />
	</node>
	<node id="-297219" lat="60.2053861071" lon="10.4445472175">
		<tag k="historic" v="shieling" />
		<tag k="name" v="Mosetervollen" />
>>>>>>> e1d4bc35ff8a6074a6f2e91616a996b547c36f15
		<tag k="place" v="locality" />
		<tag k="ssr:stedsnr" v="664200" />
	</node>
<<<<<<< HEAD
	<node lat="60.23578055420962" lon="10.467805559553737" id="-17100">
		<tag k="name" v="Øvre Søtbakken" />
		<tag k="place" v="locality" />
		<tag k="ssr:stedsnr" v="664202" />
	</node>
	<node lat="60.260558336445875" lon="10.491133339314691" id="-17125">
		<tag k="name" v="Myrskogen" />
		<tag k="place" v="locality" />
		<tag k="ssr:stedsnr" v="760926" />
	</node>
	<node lat="60.22961666649233" lon="10.510066669760603" id="-17133">
		<tag k="alt_name" v="Puttmyrane" />
		<tag k="name" v="Puttmyrene" />
		<tag k="natural" v="wetland" />
		<tag k="ssr:stedsnr" v="781473" />
	</node>
	<node lat="60.29553611188451" lon="10.31935277857062" id="-17142">
		<tag k="name" v="Stormyra" />
		<tag k="natural" v="wetland" />
		<tag k="ssr:stedsnr" v="795435" />
	</node>
	<node lat="60.35378333438929" lon="10.303380549050516" id="-17185">
=======
	<node id="-297086" lat="60.3537833344" lon="10.3033805491">
>>>>>>> e1d4bc35ff8a6074a6f2e91616a996b547c36f15
		<tag k="name" v="Peismyra" />
		<tag k="natural" v="wetland" />
		<tag k="ssr:stedsnr" v="887471" />
	</node>
<<<<<<< HEAD
	<node lat="60.24699722182528" lon="10.309127783509014" id="-17186">
		<tag k="name" v="Skillemyr" />
		<tag k="natural" v="wetland" />
		<tag k="ssr:stedsnr" v="937830" />
	</node>
	<node lat="60.18968888874214" lon="10.491813890162955" id="-17187">
		<tag k="name" v="Minkmyra" />
		<tag k="natural" v="wetland" />
		<tag k="ssr:stedsnr" v="942929" />
	</node>
	<node lat="60.207183336281624" lon="10.491833332070973" id="-17189">
		<tag k="name" v="Gulborgmyra" />
		<tag k="natural" v="wetland" />
		<tag k="ssr:stedsnr" v="942950" />
	</node>
	<node lat="60.21102222079491" lon="10.537205556576973" id="-17190">
		<tag k="name" v="Spinnermyra" />
		<tag k="natural" v="wetland" />
		<tag k="ssr:stedsnr" v="942882" />
	</node>
	<node lat="60.226655553220105" lon="10.458244443647" id="-17197">
		<tag k="historic" v="shieling" />
		<tag k="name" v="Gammelsæter" />
		<tag k="place" v="locality" />
		<tag k="ssr:stedsnr" v="968430" />
=======
	<node id="-297387" lat="60.3241888932" lon="10.3012944526">
		<tag k="alt_name" v="Kløyvtjennsmyrene" />
		<tag k="name" v="Kløvtjernsmyra" />
		<tag k="natural" v="wetland" />
		<tag k="ssr:stedsnr" v="552535" />
>>>>>>> e1d4bc35ff8a6074a6f2e91616a996b547c36f15
	</node>
</osm>
