<?xml version="1.0" encoding="UTF-8"?>
<osm generator="osmapis" version="0.6">
	<node id="-263165" lat="60.3722861115" lon="10.2099250086">
		<tag k="fixme" v="consider natural=peak for the most distinct mountains in the district" />
		<tag k="name" v="Søndre Klæstad" />
		<tag k="natural" v="hill" />
		<tag k="place" v="locality" />
		<tag k="ssr:stedsnr" v="901373" />
	</node>
	<node id="-263164" lat="60.2676166698" lon="10.4332916706">
		<tag k="name" v="Vangsmoen" />
		<tag k="natural" v="slope" />
		<tag k="place" v="locality" />
		<tag k="ssr:stedsnr" v="889920" />
	</node>
	<node id="-263162" lat="60.1990722208" lon="10.4641611195">
		<tag k="fixme" v="consider natural=peak for the most distinct mountains in the district" />
		<tag k="name" v="Brannen" />
		<tag k="natural" v="hill" />
		<tag k="place" v="locality" />
		<tag k="ssr:stedsnr" v="883705" />
	</node>
	<node id="-263161" lat="60.2425444446" lon="10.3152750047">
		<tag k="name" v="Skilledalen" />
		<tag k="natural" v="valley" />
		<tag k="place" v="locality" />
		<tag k="ssr:stedsnr" v="944316" />
	</node>
	<node id="-262996" lat="60.2296666687" lon="10.3816361117">
		<tag k="name" v="Stordalen" />
		<tag k="natural" v="valley" />
		<tag k="place" v="locality" />
		<tag k="ssr:stedsnr" v="664113" />
	</node>
	<node id="-262995" lat="60.1887444475" lon="10.5714861051">
		<tag k="name" v="Vangshøgda" />
		<tag k="natural" v="hill" />
		<tag k="place" v="locality" />
		<tag k="ssr:stedsnr" v="457478" />
	</node>
	<node id="-263143" lat="60.1749888867" lon="10.5586666752">
		<tag k="fixme" v="consider natural=peak for the most distinct mountains in the district" />
		<tag k="name" v="Fyllingsmana" />
		<tag k="natural" v="hill" />
		<tag k="place" v="locality" />
		<tag k="ssr:stedsnr" v="821866" />
	</node>
	<node id="-262907" lat="60.2443444414" lon="10.3479499984">
		<tag k="name" v="Furumoen" />
		<tag k="place" v="locality" />
		<tag k="ssr:stedsnr" v="295000" />
	</node>
	<node id="-263130" lat="60.1853027805" lon="10.4843833323">
		<tag k="alt_name" v="Sinnerbrenna" />
		<tag k="fixme" v="consider natural=peak for the most distinct mountains in the district" />
		<tag k="name" v="Sinderbrenna" />
		<tag k="natural" v="hill" />
		<tag k="place" v="locality" />
		<tag k="ssr:stedsnr" v="916477" />
	</node>
	<node id="-263129" lat="60.2064722194" lon="10.4971055482">
		<tag k="name" v="Abrahamshaugen" />
		<tag k="natural" v="hill" />
		<tag k="place" v="locality" />
		<tag k="ssr:stedsnr" v="916468" />
	</node>
	<node id="-263126" lat="60.2177638853" lon="10.4205750015">
		<tag k="name" v="Elvelia" />
		<tag k="natural" v="slope" />
		<tag k="place" v="locality" />
		<tag k="ssr:stedsnr" v="216870" />
	</node>
	<node id="-262905" lat="60.2632194484" lon="10.320074995">
		<tag k="name" v="Ruggesteinene" />
		<tag k="place" v="locality" />
		<tag k="ssr:stedsnr" v="294897" />
	</node>
	<node id="-263124" lat="60.2480472186" lon="10.5072388915">
		<tag k="name" v="Lushattdalen" />
		<tag k="natural" v="valley" />
		<tag k="place" v="locality" />
		<tag k="ssr:stedsnr" v="760915" />
	</node>
	<node id="-263123" lat="60.1747055538" lon="10.5005111121">
		<tag k="fixme" v="consider natural=peak for the most distinct mountains in the district" />
		<tag k="name" v="Finnstadbrenna" />
		<tag k="natural" v="hill" />
		<tag k="place" v="locality" />
		<tag k="ssr:stedsnr" v="760883" />
	</node>
	<node id="-263115" lat="60.2256472221" lon="10.4034388898">
		<tag k="name" v="Hesjebråtalia" />
		<tag k="natural" v="slope" />
		<tag k="place" v="locality" />
		<tag k="ssr:stedsnr" v="907150" />
	</node>
	<node id="-262903" lat="60.2392638911" lon="10.3540888972">
		<tag k="name" v="Merradokka" />
		<tag k="place" v="locality" />
		<tag k="ssr:stedsnr" v="294750" />
	</node>
	<node id="-263111" lat="60.3565333359" lon="10.2302111139">
		<tag k="name" v="Fosshøgget" />
		<tag k="natural" v="hill" />
		<tag k="place" v="locality" />
		<tag k="ssr:stedsnr" v="906242" />
	</node>
	<node id="-263108" lat="60.3045305568" lon="10.3372027862">
		<tag k="name" v="Gransberget" />
		<tag k="natural" v="hill" />
		<tag k="place" v="locality" />
		<tag k="ssr:stedsnr" v="901263" />
	</node>
	<node id="-263106" lat="60.233336111" lon="10.3427861078">
		<tag k="name" v="Håvardsbråtadalen" />
		<tag k="natural" v="valley" />
		<tag k="place" v="locality" />
		<tag k="ssr:stedsnr" v="719590" />
	</node>
	<node id="-263097" lat="60.2133499989" lon="10.477469442">
		<tag k="name" v="Myrheimdalen" />
		<tag k="natural" v="valley" />
		<tag k="place" v="locality" />
		<tag k="ssr:stedsnr" v="883750" />
	</node>
	<node id="-263096" lat="60.217369449" lon="10.5024972196">
		<tag k="alt_name" v="Svarttjennslia" />
		<tag k="name" v="Svarttjernslia" />
		<tag k="natural" v="slope" />
		<tag k="place" v="locality" />
		<tag k="ssr:stedsnr" v="882951" />
	</node>
	<node id="-263095" lat="60.2013222204" lon="10.5026583389">
		<tag k="name" v="Port Arthur" />
		<tag k="natural" v="valley" />
		<tag k="place" v="locality" />
		<tag k="ssr:stedsnr" v="882944" />
	</node>
	<node id="-263094" lat="60.2103555589" lon="10.5003055524">
		<tag k="name" v="Tverrsjølia" />
		<tag k="natural" v="slope" />
		<tag k="place" v="locality" />
		<tag k="ssr:stedsnr" v="882942" />
	</node>
	<node id="-263093" lat="60.1926972241" lon="10.5105583265">
		<tag k="name" v="Skarvannsoppganga" />
		<tag k="place" v="locality" />
		<tag k="ssr:stedsnr" v="882913" />
	</node>
	<node id="-262899" lat="60.2233583345" lon="10.3443444355">
		<tag k="name" v="Bjønnputten" />
		<tag k="natural" v="valley" />
		<tag k="place" v="locality" />
		<tag k="ssr:stedsnr" v="172603" />
	</node>
	<node id="-263084" lat="60.31342222" lon="10.4319055526">
		<tag k="alt_name" v="Velotoppen" />
		<tag k="fixme" v="consider natural=peak for the most distinct mountains in the district" />
		<tag k="name" v="Velohøgda" />
		<tag k="natural" v="hill" />
		<tag k="place" v="locality" />
		<tag k="ssr:stedsnr" v="734927" />
	</node>
	<node id="-263074" lat="60.2005360982" lon="10.4668632823">
		<tag k="fixme" v="consider natural=peak for the most distinct mountains in the district" />
		<tag k="name" v="Langvassbrenna" />
		<tag k="natural" v="hill" />
		<tag k="place" v="locality" />
		<tag k="ssr:stedsnr" v="734489" />
	</node>
	<node id="-263584" lat="60.2293083339" lon="10.3960138959">
		<tag k="name" v="Jordbrudalen" />
		<tag k="natural" v="valley" />
		<tag k="place" v="locality" />
		<tag k="ssr:stedsnr" v="968137" />
	</node>
	<node id="-263579" lat="60.2366722205" lon="10.3518638875">
		<tag k="name" v="Styggdalen" />
		<tag k="natural" v="valley" />
		<tag k="place" v="locality" />
		<tag k="ssr:stedsnr" v="961635" />
	</node>
	<node id="-263578" lat="60.1347222237" lon="10.5716611029">
		<tag k="name" v="Nordmarka" />
		<tag k="natural" v="wood" />
		<tag k="ssr:stedsnr" v="874528" />
	</node>
	<node id="-263065" lat="60.1941361122" lon="10.4996222138">
		<tag k="alt_name" v="Sinnerdalen" />
		<tag k="name" v="Sinderdalen" />
		<tag k="natural" v="valley" />
		<tag k="place" v="locality" />
		<tag k="ssr:stedsnr" v="733067" />
	</node>
	<node id="-263044" lat="60.1870583349" lon="10.5428000012">
		<tag k="name" v="Karidalen" />
		<tag k="natural" v="valley" />
		<tag k="place" v="locality" />
		<tag k="ssr:stedsnr" v="578916" />
	</node>
	<node id="-263053" lat="60.2516888863" lon="10.3151527726">
		<tag k="alt_name" v="Buttentjennshaugen" />
		<tag k="name" v="Buttentjernshaugen" />
		<tag k="natural" v="hill" />
		<tag k="place" v="locality" />
		<tag k="ssr:stedsnr" v="719873" />
	</node>
	<node id="-263052" lat="60.2259861086" lon="10.3436472307">
		<tag k="name" v="Hansedokka" />
		<tag k="place" v="locality" />
		<tag k="ssr:stedsnr" v="719542" />
	</node>
	<node id="-263563" lat="60.3547472202" lon="10.2796027715">
		<tag k="fixme" v="consider natural=peak for the most distinct mountains in the district" />
		<tag k="name" v="Kjerringåsen" />
		<tag k="natural" v="hill" />
		<tag k="place" v="locality" />
		<tag k="ssr:stedsnr" v="855594" />
	</node>
	<node id="-263050" lat="60.2873166696" lon="10.3501694376">
		<tag k="name" v="Sandbakken" />
		<tag k="natural" v="slope" />
		<tag k="place" v="locality" />
		<tag k="ssr:stedsnr" v="719255" />
	</node>
	<node id="-262977" lat="60.2054416686" lon="10.4371888942">
		<tag k="alt_name" v="Seterhaugen" />
		<tag k="fixme" v="consider natural=peak for the most distinct mountains in the district" />
		<tag k="name" v="Sæterhaugen" />
		<tag k="natural" v="hill" />
		<tag k="place" v="locality" />
		<tag k="ssr:stedsnr" v="430433" />
	</node>
	<node id="-263556" lat="60.2305861096" lon="10.3880694425">
		<tag k="name" v="Mosmoen" />
		<tag k="place" v="locality" />
		<tag k="ssr:stedsnr" v="847144" />
	</node>
	<node id="-263043" lat="60.3099472183" lon="10.3331972146">
		<tag k="fixme" v="consider natural=peak for the most distinct mountains in the district" />
		<tag k="name" v="Myremarka" />
		<tag k="natural" v="hill" />
		<tag k="place" v="locality" />
		<tag k="ssr:stedsnr" v="705855" />
	</node>
	<node id="-263551" lat="60.2138861141" lon="10.4321722224">
		<tag k="name" v="Sagfossletta" />
		<tag k="place" v="locality" />
		<tag k="ssr:stedsnr" v="823649" />
	</node>
	<node id="-263036" lat="60.2727111147" lon="10.3395666593">
		<tag k="name" v="Saumyrdalen" />
		<tag k="natural" v="valley" />
		<tag k="place" v="locality" />
		<tag k="ssr:stedsnr" v="674407" />
	</node>
	<node id="-263547" lat="60.2553500011" lon="10.4950527741">
		<tag k="name" v="Torvet" />
		<tag k="place" v="locality" />
		<tag k="ssr:stedsnr" v="821928" />
	</node>
	<node id="-263545" lat="60.240869448" lon="10.5085861043">
		<tag k="name" v="Slettdalen" />
		<tag k="natural" v="valley" />
		<tag k="place" v="locality" />
		<tag k="ssr:stedsnr" v="821883" />
	</node>
	<node id="-263544" lat="60.3162722206" lon="10.3846722239">
		<tag k="name" v="Bjertnesbråtan" />
		<tag k="natural" v="slope" />
		<tag k="place" v="locality" />
		<tag k="ssr:stedsnr" v="818677" />
	</node>
	<node id="-263537" lat="60.3627694469" lon="10.2923388808">
		<tag k="fixme" v="consider natural=peak for the most distinct mountains in the district" />
		<tag k="name" v="Riggesteinhøgda" />
		<tag k="natural" v="hill" />
		<tag k="place" v="locality" />
		<tag k="ssr:stedsnr" v="794601" />
	</node>
	<node id="-263536" lat="60.21481111" lon="10.5444166585">
		<tag k="alt_name" v="Kolleren" />
		<tag k="fixme" v="consider natural=peak for the most distinct mountains in the district" />
		<tag k="name" v="Kollern" />
		<tag k="natural" v="hill" />
		<tag k="place" v="locality" />
		<tag k="ssr:stedsnr" v="794472" />
	</node>
	<node id="-263534" lat="60.225738885" lon="10.4639805564">
		<tag k="name" v="Tysklandshaugen" />
		<tag k="natural" v="hill" />
		<tag k="place" v="locality" />
		<tag k="ssr:stedsnr" v="786533" />
	</node>
	<node id="-263529" lat="60.2478722209" lon="10.3393333391">
		<tag k="name" v="Klebersteinsfjellet" />
		<tag k="place" v="locality" />
		<tag k="ssr:stedsnr" v="779996" />
	</node>
	<node id="-263528" lat="60.236474997" lon="10.3438166621">
		<tag k="name" v="Midtbråten" />
		<tag k="place" v="locality" />
		<tag k="ssr:stedsnr" v="779619" />
	</node>
	<node id="-263522" lat="60.2152722215" lon="10.5338611175">
		<tag k="name" v="Kastet" />
		<tag k="place" v="locality" />
		<tag k="ssr:stedsnr" v="760977" />
	</node>
	<node id="-263005" lat="60.3004083339" lon="10.340055555">
		<tag k="name" v="Skarvehaugen" />
		<tag k="natural" v="hill" />
		<tag k="place" v="locality" />
		<tag k="ssr:stedsnr" v="476265" />
	</node>
	<node id="-263516" lat="60.3565888927" lon="10.2565861051">
		<tag k="name" v="Børklidalen" />
		<tag k="natural" v="valley" />
		<tag k="place" v="locality" />
		<tag k="ssr:stedsnr" v="644479" />
	</node>
	<node id="-263515" lat="60.2183777803" lon="10.3990472166">
		<tag k="name" v="Brandalen" />
		<tag k="natural" v="valley" />
		<tag k="place" v="locality" />
		<tag k="ssr:stedsnr" v="640877" />
	</node>
	<node id="-263513" lat="60.2851111068" lon="10.3024888886">
		<tag k="fixme" v="consider natural=peak for the most distinct mountains in the district" />
		<tag k="name" v="Toputthaugene" />
		<tag k="natural" v="hill" />
		<tag k="place" v="locality" />
		<tag k="ssr:stedsnr" v="640301" />
	</node>
	<node id="-263508" lat="60.1760749997" lon="10.5527166678">
		<tag k="name" v="Målvikdalen" />
		<tag k="natural" v="valley" />
		<tag k="place" v="locality" />
		<tag k="ssr:stedsnr" v="638857" />
	</node>
	<node id="-263507" lat="60.1795527754" lon="10.549255559">
		<tag k="name" v="Målvikdalen" />
		<tag k="natural" v="valley" />
		<tag k="place" v="locality" />
		<tag k="ssr:stedsnr" v="638423" />
	</node>
	<node id="-263505" lat="60.3539527815" lon="10.3451722218">
		<tag k="fixme" v="consider natural=peak for the most distinct mountains in the district" />
		<tag k="name" v="Onsberget" />
		<tag k="natural" v="hill" />
		<tag k="place" v="locality" />
		<tag k="ssr:stedsnr" v="613068" />
	</node>
	<node id="-262991" lat="60.2274916677" lon="10.3550527742">
		<tag k="name" v="Firsprangsletta" />
		<tag k="place" v="locality" />
		<tag k="ssr:stedsnr" v="658580" />
	</node>
	<node id="-262990" lat="60.273350001" lon="10.3104833284">
		<tag k="name" v="Nyseterdalen" />
		<tag k="natural" v="valley" />
		<tag k="place" v="locality" />
		<tag k="ssr:stedsnr" v="519290" />
	</node>
	<node id="-263499" lat="60.3283944405" lon="10.2610416728">
		<tag k="fixme" v="consider natural=peak for the most distinct mountains in the district" />
		<tag k="name" v="Midtskoghøgda" />
		<tag k="natural" v="hill" />
		<tag k="place" v="locality" />
		<tag k="ssr:stedsnr" v="612493" />
	</node>
	<node id="-263498" lat="60.2032888891" lon="10.5533333306">
		<tag k="name" v="Kalvedalen" />
		<tag k="natural" v="valley" />
		<tag k="place" v="locality" />
		<tag k="ssr:stedsnr" v="612470" />
	</node>
	<node id="-263494" lat="60.3302888862" lon="10.3405000016">
		<tag k="name" v="Elnesenga" />
		<tag k="place" v="locality" />
		<tag k="ssr:stedsnr" v="604460" />
	</node>
	<node id="-263489" lat="60.2548833325" lon="10.3418499993">
		<tag k="name" v="Brubekkdalen" />
		<tag k="natural" v="valley" />
		<tag k="place" v="locality" />
		<tag k="ssr:stedsnr" v="597991" />
	</node>
	<node id="-262975" lat="60.1789527744" lon="10.5356361079">
		<tag k="fixme" v="consider natural=peak for the most distinct mountains in the district" />
		<tag k="name" v="Aklangsbrenna" />
		<tag k="natural" v="hill" />
		<tag k="place" v="locality" />
		<tag k="ssr:stedsnr" v="430043" />
	</node>
	<node id="-263486" lat="60.2378111148" lon="10.3544861118">
		<tag k="name" v="Trangdalen" />
		<tag k="natural" v="valley" />
		<tag k="place" v="locality" />
		<tag k="ssr:stedsnr" v="597628" />
	</node>
	<node id="-262973" lat="60.2163999993" lon="10.476383333">
		<tag k="name" v="Luserudsletta" />
		<tag k="place" v="locality" />
		<tag k="ssr:stedsnr" v="519708" />
	</node>
	<node id="-263480" lat="60.2126222201" lon="10.4130638893">
		<tag k="name" v="Skollerudhaugen" />
		<tag k="natural" v="hill" />
		<tag k="place" v="locality" />
		<tag k="ssr:stedsnr" v="580842" />
	</node>
	<node id="-263479" lat="60.2030194476" lon="10.4420777726">
		<tag k="name" v="Sauetangen" />
		<tag k="place" v="locality" />
		<tag k="ssr:stedsnr" v="580648" />
	</node>
	<node id="-263473" lat="60.2653333301" lon="10.4320666669">
		<tag k="fixme" v="consider natural=peak for the most distinct mountains in the district" />
		<tag k="name" v="Vangsåsen" />
		<tag k="natural" v="hill" />
		<tag k="place" v="locality" />
		<tag k="ssr:stedsnr" v="552806" />
	</node>
	<node id="-263465" lat="60.318175004" lon="10.2723527792">
		<tag k="alt_name" v="Røyberget" />
		<tag k="fixme" v="consider natural=peak for the most distinct mountains in the district" />
		<tag k="name" v="Røyberga" />
		<tag k="natural" v="hill" />
		<tag k="place" v="locality" />
		<tag k="ssr:stedsnr" v="552541" />
	</node>
	<node id="-262950" lat="60.3985888909" lon="10.192550002">
		<tag k="fixme" v="consider natural=peak for the most distinct mountains in the district" />
		<tag k="name" v="Tungeåsen" />
		<tag k="natural" v="hill" />
		<tag k="place" v="locality" />
		<tag k="ssr:stedsnr" v="491283" />
	</node>
	<node id="-263460" lat="60.3728166706" lon="10.2293472155">
		<tag k="alt_name" v="Samsjøbergene" />
		<tag k="fixme" v="consider natural=peak for the most distinct mountains in the district" />
		<tag k="name" v="Samsjøberga" />
		<tag k="natural" v="hill" />
		<tag k="place" v="locality" />
		<tag k="ssr:stedsnr" v="551614" />
	</node>
	<node id="-263458" lat="60.3497194465" lon="10.2262027811">
		<tag k="alt_name" v="Flåtjernhøgda" />
		<tag k="fixme" v="consider natural=peak for the most distinct mountains in the district" />
		<tag k="name" v="Flåtjernshøgda" />
		<tag k="natural" v="hill" />
		<tag k="place" v="locality" />
		<tag k="ssr:stedsnr" v="551582" />
	</node>
	<node id="-263457" lat="60.3629194431" lon="10.3262055517">
		<tag k="fixme" v="consider natural=peak for the most distinct mountains in the district" />
		<tag k="name" v="Skavdalshøgda" />
		<tag k="natural" v="hill" />
		<tag k="place" v="locality" />
		<tag k="ssr:stedsnr" v="551575" />
	</node>
	<node id="-262944" lat="60.2396583313" lon="10.3346250036">
		<tag k="fixme" v="consider natural=peak for the most distinct mountains in the district" />
		<tag k="name" v="Brenteberga" />
		<tag k="natural" v="hill" />
		<tag k="place" v="locality" />
		<tag k="ssr:stedsnr" v="490988" />
	</node>
	<node id="-262941" lat="60.2207611112" lon="10.3975638896">
		<tag k="name" v="Brandalen" />
		<tag k="natural" v="valley" />
		<tag k="place" v="locality" />
		<tag k="ssr:stedsnr" v="482147" />
	</node>
	<node id="-263452" lat="60.1965000027" lon="10.5428555549">
		<tag k="alt_name" v="Roenseterbrenna" />
		<tag k="fixme" v="consider natural=peak for the most distinct mountains in the district" />
		<tag k="name" v="Roensæterhøgda" />
		<tag k="natural" v="hill" />
		<tag k="place" v="locality" />
		<tag k="ssr:stedsnr" v="551439" />
	</node>
	<node id="-262939" lat="60.2326111111" lon="10.3919999982">
		<tag k="name" v="Eksersisplassen" />
		<tag k="place" v="locality" />
		<tag k="ssr:stedsnr" v="482116" />
	</node>
	<node id="-263447" lat="60.2402638861" lon="10.4899583355">
		<tag k="fixme" v="consider natural=peak for the most distinct mountains in the district" />
		<tag k="name" v="Lamannshaugen" />
		<tag k="natural" v="hill" />
		<tag k="place" v="locality" />
		<tag k="ssr:stedsnr" v="551370" />
	</node>
	<node id="-263445" lat="60.338961107" lon="10.3557666669">
		<tag k="name" v="Hvitberget" />
		<tag k="natural" v="slope" />
		<tag k="place" v="locality" />
		<tag k="ssr:stedsnr" v="544477" />
	</node>
	<node id="-262928" lat="60.2217916682" lon="10.4189972258">
		<tag k="name" v="Elvelia" />
		<tag k="natural" v="slope" />
		<tag k="place" v="locality" />
		<tag k="ssr:stedsnr" v="300166" />
	</node>
	<node id="-262924" lat="60.3078992705" lon="10.4052366601">
		<tag k="alt_name" v="Kjerkehøgda" />
		<tag k="loc_name" v="Kjørkehaugen" />
		<tag k="name" v="Kjørkhaugen" />
		<tag k="natural" v="hill" />
		<tag k="place" v="locality" />
		<tag k="ssr:stedsnr" v="465890" />
	</node>
	<node id="-262923" lat="60.2676111105" lon="10.4430555646">
		<tag k="name" v="Prestmoen" />
		<tag k="place" v="locality" />
		<tag k="ssr:stedsnr" v="282107" />
	</node>
	<node id="-263433" lat="60.3082805575" lon="10.2787083404">
		<tag k="fixme" v="consider natural=peak for the most distinct mountains in the district" />
		<tag k="name" v="Kalveholen" />
		<tag k="natural" v="hill" />
		<tag k="place" v="locality" />
		<tag k="ssr:stedsnr" v="431542" />
	</node>
	<node id="-262919" lat="60.2148416699" lon="10.4884972281">
		<tag k="name" v="Rykinhaugen" />
		<tag k="natural" v="hill" />
		<tag k="place" v="locality" />
		<tag k="ssr:stedsnr" v="275957" />
	</node>
	<node id="-262918" lat="60.2245138903" lon="10.5384277758">
		<tag k="name" v="Kollerlia" />
		<tag k="natural" v="slope" />
		<tag k="place" v="locality" />
		<tag k="ssr:stedsnr" v="275857" />
	</node>
	<node id="-263426" lat="60.2238944473" lon="10.4462416746">
		<tag k="name" v="Karisnaret" />
		<tag k="natural" v="hill" />
		<tag k="place" v="locality" />
		<tag k="ssr:stedsnr" v="422519" />
	</node>
	<node id="-263425" lat="60.2399111099" lon="10.4300777707">
		<tag k="name" v="Kongehaugen" />
		<tag k="natural" v="hill" />
		<tag k="place" v="locality" />
		<tag k="ssr:stedsnr" v="422182" />
	</node>
	<node id="-262910" lat="60.3005749966" lon="10.4029194498">
		<tag k="alt_name" v="Igelsrudhaugen" />
		<tag k="name" v="Igulsrudhaugen" />
		<tag k="natural" v="hill" />
		<tag k="old_name" v="Ingelsrudhaugen" />
		<tag k="place" v="locality" />
		<tag k="ssr:stedsnr" v="216335" />
	</node>
	<node id="-263419" lat="60.3340111097" lon="10.2471861027">
		<tag k="name" v="Midtskauhøgda" />
		<tag k="natural" v="hill" />
		<tag k="place" v="locality" />
		<tag k="ssr:stedsnr" v="416952" />
	</node>
	<node id="-262906" lat="60.2664972237" lon="10.3235944463">
		<tag k="fixme" v="consider natural=peak for the most distinct mountains in the district" />
		<tag k="name" v="Sameia" />
		<tag k="natural" v="hill" />
		<tag k="place" v="locality" />
		<tag k="ssr:stedsnr" v="294905" />
	</node>
	<node id="-263417" lat="60.2467083344" lon="10.3589361064">
		<tag k="name" v="Grønsletta" />
		<tag k="place" v="locality" />
		<tag k="ssr:stedsnr" v="415998" />
	</node>
	<node id="-263416" lat="60.2468527817" lon="10.3274999939">
		<tag k="name" v="Sauehaugen" />
		<tag k="natural" v="hill" />
		<tag k="place" v="locality" />
		<tag k="ssr:stedsnr" v="415995" />
	</node>
	<node id="-263415" lat="60.2366444479" lon="10.3477305488">
		<tag k="name" v="Offerdalen" />
		<tag k="natural" v="valley" />
		<tag k="place" v="locality" />
		<tag k="ssr:stedsnr" v="415667" />
	</node>
	<node id="-263411" lat="60.2963138851" lon="10.3521111179">
		<tag k="name" v="Auendal" />
		<tag k="natural" v="valley" />
		<tag k="place" v="locality" />
		<tag k="ssr:stedsnr" v="416243" />
	</node>
	<node id="-262897" lat="60.3598750029" lon="10.2564666705">
		<tag k="name" v="Samsjøputthøgda" />
		<tag k="natural" v="hill" />
		<tag k="place" v="locality" />
		<tag k="ssr:stedsnr" v="280469" />
	</node>
	<node id="-262894" lat="60.313544447" lon="10.3384194374">
		<tag k="name" v="Ormeberga" />
		<tag k="natural" v="hill" />
		<tag k="place" v="locality" />
		<tag k="ssr:stedsnr" v="159853" />
	</node>
	<node id="-263399" lat="60.191600002" lon="10.5498777706">
		<tag k="name" v="Karidalen" />
		<tag k="natural" v="valley" />
		<tag k="place" v="locality" />
		<tag k="ssr:stedsnr" v="395485" />
	</node>
	<node id="-262884" lat="60.3147833305" lon="10.3057444481">
		<tag k="fixme" v="consider natural=peak for the most distinct mountains in the district" />
		<tag k="name" v="Mjørbråtahaugane" />
		<tag k="natural" v="hill" />
		<tag k="place" v="locality" />
		<tag k="ssr:stedsnr" v="127530" />
	</node>
	<node id="-262880" lat="60.2477388881" lon="10.3513055525">
		<tag k="alt_name" v="Loftberga" />
		<tag k="fixme" v="consider natural=peak for the most distinct mountains in the district" />
		<tag k="name" v="Loftberget" />
		<tag k="natural" v="hill" />
		<tag k="place" v="locality" />
		<tag k="ssr:stedsnr" v="127405" />
	</node>
	<node id="-262879" lat="60.326044444" lon="10.2611472259">
		<tag k="name" v="Midtskauhøgda" />
		<tag k="natural" v="hill" />
		<tag k="place" v="locality" />
		<tag k="ssr:stedsnr" v="112834" />
	</node>
	<node id="-262869" lat="60.2571611122" lon="10.3332777779">
		<tag k="alt_name" v="Kølamyrhøgda" />
		<tag k="fixme" v="consider natural=peak for the most distinct mountains in the district" />
		<tag k="name" v="Kolamyrhøgda" />
		<tag k="natural" v="hill" />
		<tag k="place" v="locality" />
		<tag k="ssr:stedsnr" v="249329" />
	</node>
	<node id="-262865" lat="60.2328944429" lon="10.4575805515">
		<tag k="name" v="Søtbakkdalen" />
		<tag k="natural" v="valley" />
		<tag k="place" v="locality" />
		<tag k="ssr:stedsnr" v="248384" />
	</node>
	<node id="-263376" lat="60.2441222261" lon="10.3757083368">
		<tag k="name" v="Kryteruddalen" />
		<tag k="natural" v="valley" />
		<tag k="place" v="locality" />
		<tag k="ssr:stedsnr" v="361079" />
	</node>
	<node id="-263372" lat="60.2563694476" lon="10.3228388883">
		<tag k="alt_name" v="Buttentjennshøgda" />
		<tag k="name" v="Buttentjernshøgda" />
		<tag k="natural" v="hill" />
		<tag k="place" v="locality" />
		<tag k="ssr:stedsnr" v="354986" />
	</node>
	<node id="-262946" lat="60.2304416661" lon="10.5044666684">
		<tag k="alt_name" v="Juthaugene" />
		<tag k="fixme" v="consider natural=peak for the most distinct mountains in the district" />
		<tag k="name" v="Juthaugen" />
		<tag k="natural" v="hill" />
		<tag k="place" v="locality" />
		<tag k="ssr:stedsnr" v="490380" />
	</node>
	<node id="-263370" lat="60.3205666647" lon="10.3216500018">
		<tag k="alt_name" v="Skarvetjennsdalen" />
		<tag k="name" v="Skarvetjernsdalen" />
		<tag k="natural" v="valley" />
		<tag k="place" v="locality" />
		<tag k="ssr:stedsnr" v="341855" />
	</node>
	<node id="-263369" lat="60.3200194454" lon="10.3330583341">
		<tag k="fixme" v="consider natural=peak for the most distinct mountains in the district" />
		<tag k="name" v="Velsandmarka" />
		<tag k="natural" v="hill" />
		<tag k="place" v="locality" />
		<tag k="ssr:stedsnr" v="341853" />
	</node>
	<node id="-262852" lat="60.3255305555" lon="10.3152416698">
		<tag k="alt_name" v="Skarvtjennsbrenna;Skarvetjennsbrenna" />
		<tag k="fixme" v="consider natural=peak for the most distinct mountains in the district" />
		<tag k="name" v="Skarvetjernsbrenna" />
		<tag k="natural" v="hill" />
		<tag k="place" v="locality" />
		<tag k="ssr:stedsnr" v="240469" />
	</node>
	<node id="-262851" lat="60.2299027755" lon="10.4395722211">
		<tag k="name" v="Korpeberget" />
		<tag k="natural" v="hill" />
		<tag k="place" v="locality" />
		<tag k="ssr:stedsnr" v="240250" />
	</node>
	<node id="-262849" lat="60.2382750001" lon="10.374991665">
		<tag k="name" v="Piperbekkhaugen" />
		<tag k="natural" v="hill" />
		<tag k="place" v="locality" />
		<tag k="ssr:stedsnr" v="240205" />
	</node>
	<node id="-262846" lat="60.2385666657" lon="10.3928138924">
		<tag k="name" v="Løkhaugen" />
		<tag k="natural" v="hill" />
		<tag k="place" v="locality" />
		<tag k="ssr:stedsnr" v="240150" />
	</node>
	<node id="-263356" lat="60.3405277758" lon="10.2918555492">
		<tag k="fixme" v="consider natural=peak for the most distinct mountains in the district" />
		<tag k="name" v="Bikjebråtabrenna" />
		<tag k="natural" v="hill" />
		<tag k="place" v="locality" />
		<tag k="ssr:stedsnr" v="309612" />
	</node>
	<node id="-263355" lat="60.3220999984" lon="10.2874333297">
		<tag k="name" v="Borstudalen" />
		<tag k="natural" v="valley" />
		<tag k="place" v="locality" />
		<tag k="ssr:stedsnr" v="309501" />
	</node>
	<node id="-262842" lat="60.2767416681" lon="10.3462583278">
		<tag k="name" v="Godbakka" />
		<tag k="natural" v="slope" />
		<tag k="place" v="locality" />
		<tag k="ssr:stedsnr" v="52911" />
	</node>
	<node id="-262841" lat="60.2331638926" lon="10.3358222271">
		<tag k="name" v="Snøplogdalen" />
		<tag k="natural" v="valley" />
		<tag k="place" v="locality" />
		<tag k="ssr:stedsnr" v="51652" />
	</node>
	<node id="-263351" lat="60.2843166668" lon="10.3018111137">
		<tag k="alt_name" v="Bjønnberget" />
		<tag k="fixme" v="consider natural=peak for the most distinct mountains in the district" />
		<tag k="name" v="Bjørnberget" />
		<tag k="natural" v="hill" />
		<tag k="place" v="locality" />
		<tag k="ssr:stedsnr" v="309440" />
	</node>
	<node id="-263346" lat="60.3474916654" lon="10.3224499939">
		<tag k="fixme" v="consider natural=peak for the most distinct mountains in the district" />
		<tag k="name" v="Halvorshaugen" />
		<tag k="natural" v="hill" />
		<tag k="place" v="locality" />
		<tag k="ssr:stedsnr" v="308564" />
	</node>
	<node id="-263345" lat="60.3549388896" lon="10.333008337">
		<tag k="name" v="Skavdalen" />
		<tag k="natural" v="valley" />
		<tag k="place" v="locality" />
		<tag k="ssr:stedsnr" v="308563" />
	</node>
	<node id="-263344" lat="60.2212638922" lon="10.5022527822">
		<tag k="alt_name" v="Svarttjennshøgda" />
		<tag k="fixme" v="consider natural=peak for the most distinct mountains in the district" />
		<tag k="name" v="Svarttjernshøgda" />
		<tag k="natural" v="hill" />
		<tag k="place" v="locality" />
		<tag k="ssr:stedsnr" v="308435" />
	</node>
	<node id="-263343" lat="60.2286333317" lon="10.4374055561">
		<tag k="name" v="Svenådalen" />
		<tag k="natural" v="valley" />
		<tag k="place" v="locality" />
		<tag k="ssr:stedsnr" v="308431" />
	</node>
	<node id="-263341" lat="60.2805333347" lon="10.3054583332">
		<tag k="name" v="Bjønnbergdalen" />
		<tag k="natural" v="valley" />
		<tag k="place" v="locality" />
		<tag k="ssr:stedsnr" v="216244" />
	</node>
	<node id="-263339" lat="60.2196083315" lon="10.5107083344">
		<tag k="alt_name" v="Øljeberga" />
		<tag k="name" v="Oljeberga" />
		<tag k="natural" v="slope" />
		<tag k="place" v="locality" />
		<tag k="ssr:stedsnr" v="214979" />
	</node>
	<node id="-263338" lat="60.2141777772" lon="10.5211861147">
		<tag k="alt_name" v="Johannstjennsbrenna" />
		<tag k="fixme" v="consider natural=peak for the most distinct mountains in the district" />
		<tag k="name" v="Johannestjernsbrenna" />
		<tag k="natural" v="hill" />
		<tag k="place" v="locality" />
		<tag k="ssr:stedsnr" v="214972" />
	</node>
	<node id="-263025" lat="60.2177666686" lon="10.4927166577">
		<tag k="alt_name" v="Skjennumseterflakene" />
		<tag k="fixme" v="consider natural=peak for the most distinct mountains in the district" />
		<tag k="name" v="Skjennumsflaka" />
		<tag k="natural" v="hill" />
		<tag k="place" v="locality" />
		<tag k="ssr:stedsnr" v="673502" />
	</node>
	<node id="-263024" lat="60.2120638848" lon="10.4200861179">
		<tag k="fixme" v="multiple name tags, choose one and add the other to alt_name; consider natural=peak for the most distinct mountains in the district" />
		<tag k="name" v="Kavlebruhaugen;Kavlebruhøgda" />
		<tag k="natural" v="hill" />
		<tag k="place" v="locality" />
		<tag k="ssr:stedsnr" v="673500" />
	</node>
	<node id="-263022" lat="60.1996472195" lon="10.45620556">
		<tag k="fixme" v="consider natural=peak for the most distinct mountains in the district" />
		<tag k="name" v="Mosjøbrenna" />
		<tag k="natural" v="hill" />
		<tag k="place" v="locality" />
		<tag k="ssr:stedsnr" v="673481" />
	</node>
	<node id="-263314" lat="60.2256707806" lon="10.4291708958">
		<tag k="fixme" v="consider natural=peak for the most distinct mountains in the district" />
		<tag k="name" v="Ås" />
		<tag k="natural" v="hill" />
		<tag k="place" v="locality" />
		<tag k="ssr:stedsnr" v="187438" />
	</node>
	<node id="-263311" lat="60.2403583345" lon="10.5208277741">
		<tag k="alt_name" v="Elgkollen" />
		<tag k="fixme" v="consider natural=peak for the most distinct mountains in the district" />
		<tag k="name" v="Helgehaugen" />
		<tag k="natural" v="hill" />
		<tag k="place" v="locality" />
		<tag k="ssr:stedsnr" v="187353" />
	</node>
	<node id="-263310" lat="60.188972219" lon="10.5589027832">
		<tag k="alt_name" v="Grasdalkollen" />
		<tag k="fixme" v="consider natural=peak for the most distinct mountains in the district" />
		<tag k="name" v="Grasdalskollen" />
		<tag k="natural" v="hill" />
		<tag k="place" v="locality" />
		<tag k="ssr:stedsnr" v="187044" />
	</node>
	<node id="-263303" lat="60.3666527749" lon="10.3510944506">
		<tag k="name" v="Kringelhaugen" />
		<tag k="natural" v="hill" />
		<tag k="place" v="locality" />
		<tag k="ssr:stedsnr" v="173399" />
	</node>
	<node id="-263301" lat="60.3791027819" lon="10.2020027754">
		<tag k="fixme" v="consider natural=peak for the most distinct mountains in the district" />
		<tag k="name" v="Nordre Klæstad" />
		<tag k="natural" v="hill" />
		<tag k="place" v="locality" />
		<tag k="ssr:stedsnr" v="172375" />
	</node>
	<node id="-263297" lat="60.2151833291" lon="10.4554666625">
		<tag k="alt_name" v="Branntjennsdalen" />
		<tag k="name" v="Branntjernsdalen" />
		<tag k="natural" v="valley" />
		<tag k="place" v="locality" />
		<tag k="ssr:stedsnr" v="155688" />
	</node>
	<node id="-263293" lat="60.2524944459" lon="10.493808335">
		<tag k="name" v="Gullenmarka" />
		<tag k="natural" v="slope" />
		<tag k="place" v="locality" />
		<tag k="ssr:stedsnr" v="153954" />
	</node>
	<node id="-263291" lat="60.2470222185" lon="10.4954166656">
		<tag k="name" v="Høgsetberget" />
		<tag k="natural" v="hill" />
		<tag k="place" v="locality" />
		<tag k="ssr:stedsnr" v="153941" />
	</node>
	<node id="-263290" lat="60.202530554" lon="10.5428972297">
		<tag k="name" v="Gryta" />
		<tag k="natural" v="valley" />
		<tag k="place" v="locality" />
		<tag k="ssr:stedsnr" v="153909" />
	</node>
	<node id="-263289" lat="60.2365222231" lon="10.5025305542">
		<tag k="name" v="Blautholet" />
		<tag k="natural" v="valley" />
		<tag k="place" v="locality" />
		<tag k="ssr:stedsnr" v="153897" />
	</node>
	<node id="-263288" lat="60.1959250029" lon="10.5489888862">
		<tag k="fixme" v="consider natural=peak for the most distinct mountains in the district" />
		<tag k="name" v="Roenseterbrenna" />
		<tag k="natural" v="hill" />
		<tag k="place" v="locality" />
		<tag k="ssr:stedsnr" v="152510" />
	</node>
	<node id="-263286" lat="60.1830861089" lon="10.4786916724">
		<tag k="name" v="Bjønnputtdalen" />
		<tag k="natural" v="valley" />
		<tag k="place" v="locality" />
		<tag k="ssr:stedsnr" v="147291" />
	</node>
	<node id="-263271" lat="60.3029500041" lon="10.3268361047">
		<tag k="fixme" v="consider natural=peak for the most distinct mountains in the district" />
		<tag k="name" v="Kilehaugen" />
		<tag k="natural" v="hill" />
		<tag k="place" v="locality" />
		<tag k="ssr:stedsnr" v="127541" />
	</node>
	<node id="-263051" lat="60.299091668" lon="10.3138305567">
		<tag k="name" v="Gulberget" />
		<tag k="natural" v="hill" />
		<tag k="place" v="locality" />
		<tag k="ssr:stedsnr" v="719264" />
	</node>
	<node id="-263262" lat="60.1906111069" lon="10.5632583327">
		<tag k="fixme" v="consider natural=peak for the most distinct mountains in the district" />
		<tag k="name" v="Vangshaugen" />
		<tag k="natural" v="hill" />
		<tag k="place" v="locality" />
		<tag k="ssr:stedsnr" v="126052" />
	</node>
	<node id="-263257" lat="60.2266638915" lon="10.3903944401">
		<tag k="name" v="Midtmoen" />
		<tag k="place" v="locality" />
		<tag k="ssr:stedsnr" v="118139" />
	</node>
	<node id="-263253" lat="60.2754611153" lon="10.3673083418">
		<tag k="name" v="Trengslebergvollen" />
		<tag k="place" v="locality" />
		<tag k="ssr:stedsnr" v="112598" />
	</node>
	<node id="-262839" lat="60.3635972227" lon="10.2434944492">
		<tag k="name" v="Hammeren" />
		<tag k="natural" v="hill" />
		<tag k="place" v="locality" />
		<tag k="ssr:stedsnr" v="234988" />
	</node>
	<node id="-263265" lat="60.2058305527" lon="10.4702194427">
		<tag k="fixme" v="consider natural=peak for the most distinct mountains in the district" />
		<tag k="name" v="Seksputthøgda" />
		<tag k="natural" v="hill" />
		<tag k="place" v="locality" />
		<tag k="ssr:stedsnr" v="126437" />
	</node>
	<node id="-263233" lat="60.2674805541" lon="10.3409277712">
		<tag k="alt_name" v="Gammalseteråsen" />
		<tag k="fixme" v="consider natural=peak for the most distinct mountains in the district" />
		<tag k="name" v="Gammalsæteråsen" />
		<tag k="natural" v="hill" />
		<tag k="place" v="locality" />
		<tag k="ssr:stedsnr" v="67798" />
	</node>
	<node id="-262921" lat="60.2036861069" lon="10.4698222309">
		<tag k="name" v="Styggdalen" />
		<tag k="natural" v="valley" />
		<tag k="place" v="locality" />
		<tag k="ssr:stedsnr" v="459635" />
	</node>
	<node id="-263217" lat="60.2944620906" lon="10.4222404564">
		<tag k="alt_name" v="Lunndal" />
		<tag k="name" v="Lurendal" />
		<tag k="natural" v="valley" />
		<tag k="place" v="locality" />
		<tag k="ssr:stedsnr" v="56852" />
	</node>
	<node id="-263215" lat="60.3789166661" lon="10.226011103">
		<tag k="name" v="Sjursholen" />
		<tag k="natural" v="hill" />
		<tag k="place" v="locality" />
		<tag k="ssr:stedsnr" v="51427" />
	</node>
	<node id="-263213" lat="60.3680194413" lon="10.2276972211">
		<tag k="name" v="Kaffehyttdalen" />
		<tag k="natural" v="valley" />
		<tag k="place" v="locality" />
		<tag k="ssr:stedsnr" v="51407" />
	</node>
	<node id="-263212" lat="60.2154638862" lon="10.4274499997">
		<tag k="name" v="Sagfoss-sletta" />
		<tag k="place" v="locality" />
		<tag k="ssr:stedsnr" v="34852" />
	</node>
	<node id="-263004" lat="60.2844861141" lon="10.3454666581">
		<tag k="name" v="Fikerud" />
		<tag k="natural" v="hill" />
		<tag k="place" v="locality" />
		<tag k="ssr:stedsnr" v="476252" />
	</node>
	<node id="-263066" lat="60.1851361109" lon="10.5066222133">
		<tag k="fixme" v="consider natural=peak for the most distinct mountains in the district" />
		<tag k="name" v="Pershusfjellet" />
		<tag k="natural" v="hill" />
		<tag k="place" v="locality" />
		<tag k="ssr:stedsnr" v="733069" />
	</node>
	<node id="-263003" lat="60.3860888876" lon="10.2306166706">
		<tag k="name" v="Grymyrsdalen" />
		<tag k="natural" v="valley" />
		<tag k="place" v="locality" />
		<tag k="ssr:stedsnr" v="476368" />
	</node>
	<node id="-262832" lat="60.2739194456" lon="10.4199527707">
		<tag k="name" v="Rundhaugen" />
		<tag k="natural" v="hill" />
		<tag k="place" v="locality" />
		<tag k="ssr:stedsnr" v="221104" />
	</node>
	<node id="-263194" lat="60.3299611083" lon="10.2904416603">
		<tag k="alt_name" v="Kimtjennshaugen" />
		<tag k="fixme" v="consider natural=peak for the most distinct mountains in the district" />
		<tag k="name" v="Kimetjernshøgda" />
		<tag k="natural" v="hill" />
		<tag k="place" v="locality" />
		<tag k="ssr:stedsnr" v="6488" />
	</node>
	<node id="-263181" lat="60.2436722236" lon="10.4655388929">
		<tag k="name" v="Rundhaugen" />
		<tag k="natural" v="hill" />
		<tag k="place" v="locality" />
		<tag k="ssr:stedsnr" v="968176" />
	</node>
	<node id="-263180" lat="60.2989499962" lon="10.3320416677">
		<tag k="name" v="Lortsnaret" />
		<tag k="place" v="locality" />
		<tag k="ssr:stedsnr" v="962262" />
	</node>
	<node id="-262913" lat="60.2264722258" lon="10.5256222146">
		<tag k="name" v="Stavangerleite" />
		<tag k="place" v="locality" />
		<tag k="ssr:stedsnr" v="457869" />
	</node>
	<node id="-263170" lat="60.3453250011" lon="10.2937305501">
		<tag k="name" v="Raberget" />
		<tag k="natural" v="hill" />
		<tag k="place" v="locality" />
		<tag k="ssr:stedsnr" v="916606" />
	</node>
</osm>
