<?xml version="1.0" encoding="UTF-8"?>
<<<<<<< HEAD
<osm version="0.6" generator="osmapis">
	<node lat="60.30686111381911" lon="10.419480553119431" id="-16440">
		<tag k="junction" v="yes" />
		<tag k="name" v="Sognstoppen" />
		<tag k="place" v="locality" />
		<tag k="ssr:stedsnr" v="29678" />
	</node>
	<node lat="60.22193333422417" lon="10.468538896266464" id="-16513">
=======
<osm generator="osmapis" version="0.6">
	<node id="-296825" lat="60.2391666706" lon="10.3909055522">
		<tag k="bridge" v="yes" />
		<tag k="layer" v="1" />
		<tag k="name" v="Hermannstjern" />
		<tag k="ssr:stedsnr" v="289059" />
	</node>
	<node id="-296824" lat="60.2219333342" lon="10.4685388963">
>>>>>>> e1d4bc35ff8a6074a6f2e91616a996b547c36f15
		<tag k="fixme" v="consider highway=path" />
		<tag k="highway" v="track" />
		<tag k="name" v="Finnerudvegen" />
		<tag k="ssr:stedsnr" v="179505" />
	</node>
<<<<<<< HEAD
	<node lat="60.18193333339974" lon="10.496733332858902" id="-16539">
		<tag k="name" v="Kingevelta" />
		<tag k="place" v="locality" />
		<tag k="ssr:stedsnr" v="457935" />
	</node>
	<node lat="60.285558333378525" lon="10.41224166014412" id="-16678">
=======
	<node id="-297333" lat="60.2791472222" lon="10.5222166631">
		<tag k="bridge" v="yes" />
		<tag k="layer" v="1" />
		<tag k="name" v="Svenskeenga" />
		<tag k="ssr:stedsnr" v="410061" />
	</node>
	<node id="-297455" lat="60.2442750005" lon="10.3808805513">
		<tag k="name" v="Randsfjord stasjon" />
		<tag k="railway" v="station" />
		<tag k="ssr:stedsnr" v="786082" />
		<tag k="train" v="yes" />
	</node>
	<node id="-297449" lat="60.2352861112" lon="10.3632555584">
>>>>>>> e1d4bc35ff8a6074a6f2e91616a996b547c36f15
		<tag k="bridge" v="yes" />
		<tag k="layer" v="1" />
		<tag k="name" v="Sløvika" />
		<tag k="ssr:stedsnr" v="592065" />
	</node>
<<<<<<< HEAD
	<node lat="60.22231388659191" lon="10.369094447053008" id="-16704">
		<tag k="landuse" v="industrial" />
		<tag k="name" v="Kistefoss" />
		<tag k="power" v="plant" />
		<tag k="ssr:stedsnr" v="658582" />
	</node>
	<node lat="60.367011115501995" lon="10.207886108836636" id="-16715">
		<tag k="man_made" v="cairn" />
		<tag k="name" v="Langebrurøysa" />
		<tag k="place" v="locality" />
		<tag k="ssr:stedsnr" v="694989" />
	</node>
	<node lat="60.236772220748904" lon="10.367655553953878" id="-16783">
=======
	<node id="-297448" lat="60.2287805561" lon="10.3567249985">
		<tag k="bridge" v="yes" />
		<tag k="layer" v="1" />
		<tag k="name" v="Samsmoen" />
		<tag k="ssr:stedsnr" v="774074" />
	</node>
	<node id="-297447" lat="60.2368861075" lon="10.3797055503">
>>>>>>> e1d4bc35ff8a6074a6f2e91616a996b547c36f15
		<tag k="bridge" v="yes" />
		<tag k="layer" v="1" />
		<tag k="name" v="Bergerbakken" />
		<tag k="ssr:stedsnr" v="896066" />
	</node>
<<<<<<< HEAD
	<node lat="60.23888888979807" lon="10.370377769417988" id="-16870">
=======
	<node id="-297174" lat="60.2388888898" lon="10.3703777694">
>>>>>>> e1d4bc35ff8a6074a6f2e91616a996b547c36f15
		<tag k="bridge" v="yes" />
		<tag k="layer" v="1" />
		<tag k="name" v="Sulland" />
		<tag k="ssr:stedsnr" v="107061" />
	</node>
<<<<<<< HEAD
	<node lat="60.281730559540314" lon="10.528183331247849" id="-16902">
=======
	<node id="-296915" lat="60.2223138866" lon="10.3690944471">
		<tag k="landuse" v="industrial" />
		<tag k="name" v="Kistefoss" />
		<tag k="power" v="plant" />
		<tag k="ssr:stedsnr" v="658582" />
	</node>
	<node id="-297027" lat="60.2367722207" lon="10.367655554">
>>>>>>> e1d4bc35ff8a6074a6f2e91616a996b547c36f15
		<tag k="bridge" v="yes" />
		<tag k="layer" v="1" />
		<tag k="name" v="Bekkehallum" />
		<tag k="ssr:stedsnr" v="168083" />
	</node>
<<<<<<< HEAD
	<node lat="60.237286111502094" lon="10.371038881246104" id="-16903">
=======
	<node id="-297407" lat="60.2855583334" lon="10.4122416601">
>>>>>>> e1d4bc35ff8a6074a6f2e91616a996b547c36f15
		<tag k="bridge" v="yes" />
		<tag k="layer" v="1" />
		<tag k="name" v="Bergertjern" />
		<tag k="ssr:stedsnr" v="168086" />
	</node>
<<<<<<< HEAD
	<node lat="60.22845277874022" lon="10.43163611704272" id="-16912">
		<tag k="highway" v="path" />
		<tag k="name" v="Delebakken" />
		<tag k="ssr:stedsnr" v="179393" />
	</node>
	<node lat="60.24036110755171" lon="10.408988890244483" id="-16939">
=======
	<node id="-296757" lat="60.2403611076" lon="10.4089888902">
>>>>>>> e1d4bc35ff8a6074a6f2e91616a996b547c36f15
		<tag k="bridge" v="yes" />
		<tag k="layer" v="1" />
		<tag k="name" v="Mo" />
		<tag k="ssr:stedsnr" v="228073" />
	</node>
<<<<<<< HEAD
	<node lat="60.23916667064436" lon="10.390905552185421" id="-16949">
		<tag k="bridge" v="yes" />
		<tag k="layer" v="1" />
		<tag k="name" v="Hermannstjern" />
		<tag k="ssr:stedsnr" v="289059" />
	</node>
	<node lat="60.27914722222073" lon="10.522216663094449" id="-17014">
		<tag k="bridge" v="yes" />
		<tag k="layer" v="1" />
		<tag k="name" v="Svenskeenga" />
		<tag k="ssr:stedsnr" v="410061" />
	</node>
	<node lat="60.25406944574464" lon="10.429088889364104" id="-17049">
=======
	<node id="-297127" lat="60.3068611138" lon="10.4194805531">
		<tag k="junction" v="yes" />
		<tag k="name" v="Sognstoppen" />
		<tag k="place" v="locality" />
		<tag k="ssr:stedsnr" v="29678" />
	</node>
	<node id="-297362" lat="60.2540694457" lon="10.4290888894">
>>>>>>> e1d4bc35ff8a6074a6f2e91616a996b547c36f15
		<tag k="bridge" v="yes" />
		<tag k="layer" v="1" />
		<tag k="name" v="Vang" />
		<tag k="ssr:stedsnr" v="532056" />
	</node>
<<<<<<< HEAD
	<node lat="60.30071666399246" lon="10.445777780554032" id="-17101">
		<tag k="bridge" v="yes" />
		<tag k="layer" v="1" />
		<tag k="name" v="Velofoss" />
		<tag k="ssr:stedsnr" v="714060" />
	</node>
	<node lat="60.23320277943368" lon="10.359716663197766" id="-17102">
=======
	<node id="-297232" lat="60.2284527787" lon="10.431636117">
		<tag k="highway" v="path" />
		<tag k="name" v="Delebakken" />
		<tag k="ssr:stedsnr" v="179393" />
	</node>
	<node id="-296971" lat="60.2332027794" lon="10.3597166632">
>>>>>>> e1d4bc35ff8a6074a6f2e91616a996b547c36f15
		<tag k="bridge" v="yes" />
		<tag k="layer" v="1" />
		<tag k="name" v="Bergermoen" />
		<tag k="ssr:stedsnr" v="714066" />
	</node>
<<<<<<< HEAD
	<node lat="60.23688610745777" lon="10.379705550282344" id="-17127">
=======
	<node id="-296970" lat="60.300716664" lon="10.4457777806">
>>>>>>> e1d4bc35ff8a6074a6f2e91616a996b547c36f15
		<tag k="bridge" v="yes" />
		<tag k="layer" v="1" />
		<tag k="name" v="Moløkkavegen" />
		<tag k="ssr:stedsnr" v="774071" />
	</node>
<<<<<<< HEAD
	<node lat="60.228780556051404" lon="10.35672499850338" id="-17128">
=======
	<node id="-297223" lat="60.2372861115" lon="10.3710388812">
>>>>>>> e1d4bc35ff8a6074a6f2e91616a996b547c36f15
		<tag k="bridge" v="yes" />
		<tag k="layer" v="1" />
		<tag k="name" v="Samsmoen" />
		<tag k="ssr:stedsnr" v="774074" />
	</node>
<<<<<<< HEAD
	<node lat="60.2352861112327" lon="10.363255558366786" id="-17129">
=======
	<node id="-297222" lat="60.2817305595" lon="10.5281833312">
>>>>>>> e1d4bc35ff8a6074a6f2e91616a996b547c36f15
		<tag k="bridge" v="yes" />
		<tag k="layer" v="1" />
		<tag k="name" v="Bergergrinda" />
		<tag k="ssr:stedsnr" v="774079" />
	</node>
	<node lat="60.24427500046747" lon="10.380880551333508" id="-17134">
		<tag k="name" v="Randsfjord stasjon" />
		<tag k="railway" v="station" />
		<tag k="ssr:stedsnr" v="786082" />
		<tag k="train" v="yes" />
	</node>
<<<<<<< HEAD
	<node lat="60.26743889065785" lon="10.499997219032803" id="-17152">
=======
	<node id="-296837" lat="60.1819333334" lon="10.4967333329">
		<tag k="name" v="Kingevelta" />
		<tag k="place" v="locality" />
		<tag k="ssr:stedsnr" v="457935" />
	</node>
	<node id="-297476" lat="60.2674388907" lon="10.499997219">
>>>>>>> e1d4bc35ff8a6074a6f2e91616a996b547c36f15
		<tag k="alt_name" v="Olimb" />
		<tag k="bridge" v="yes" />
		<tag k="layer" v="1" />
		<tag k="name" v="Olum" />
		<tag k="ssr:stedsnr" v="835058" />
	</node>
<<<<<<< HEAD
=======
	<node id="-296962" lat="60.3670111155" lon="10.2078861088">
		<tag k="man_made" v="cairn" />
		<tag k="name" v="Langebrurøysa" />
		<tag k="place" v="locality" />
		<tag k="ssr:stedsnr" v="694989" />
	</node>
>>>>>>> e1d4bc35ff8a6074a6f2e91616a996b547c36f15
</osm>
