<?xml version="1.0" encoding="UTF-8"?>
<<<<<<< HEAD
<osm version="0.6" generator="osmapis">
	<node lat="60.22808055986407" lon="10.533427783698281" id="-16673">
		<tag k="name" v="Rampestokk" />
		<tag k="place" v="locality" />
		<tag k="ssr:stedsnr" v="578854" />
	</node>
	<node lat="60.3436222203422" lon="10.36099722060305" id="-16720">
		<tag k="name" v="Onsaker teglverk" />
		<tag k="place" v="locality" />
		<tag k="ssr:stedsnr" v="725673" />
	</node>
	<node lat="60.233047223749494" lon="10.431133333556733" id="-16739">
		<tag k="name" v="Hauerbakken" />
		<tag k="place" v="locality" />
		<tag k="ssr:stedsnr" v="907194" />
	</node>
	<node lat="60.257699995605996" lon="10.43437777167498" id="-16971">
=======
<osm generator="osmapis" version="0.6">
	<node id="-296768" lat="60.2576999956" lon="10.4343777717">
>>>>>>> e1d4bc35ff8a6074a6f2e91616a996b547c36f15
		<tag k="amenity" v="place_of_worship" />
		<tag k="denomination" v="lutheran" />
		<tag k="name" v="Jevnaker kirke" />
		<tag k="religion" v="christian" />
		<tag k="ssr:stedsnr" v="309763" />
	</node>
<<<<<<< HEAD
	<node lat="60.228091664818855" lon="10.401541665843347" id="-17052">
		<tag k="name" v="Follum-Minne" />
		<tag k="place" v="locality" />
		<tag k="ssr:stedsnr" v="543194" />
	</node>
	<node lat="60.23801667052639" lon="10.38175276905306" id="-17055">
=======
	<node id="-297500" lat="60.2858194434" lon="10.4057916601">
		<tag k="name" v="Roenland" />
		<tag k="ssr:stedsnr" v="874231" />
		<tag k="tourism" v="museum" />
	</node>
	<node id="-297371" lat="60.2380166705" lon="10.3817527691">
>>>>>>> e1d4bc35ff8a6074a6f2e91616a996b547c36f15
		<tag k="amenity" v="place_of_worship" />
		<tag k="denomination" v="lutheran" />
		<tag k="name" v="Randsfjord kirke" />
		<tag k="religion" v="christian" />
		<tag k="ssr:stedsnr" v="551386" />
	</node>
<<<<<<< HEAD
	<node lat="60.285819443381634" lon="10.40579166010042" id="-17179">
		<tag k="name" v="Roenland" />
		<tag k="ssr:stedsnr" v="874231" />
		<tag k="tourism" v="museum" />
=======
	<node id="-296986" lat="60.3436222203" lon="10.3609972206">
		<tag k="name" v="Onsaker teglverk" />
		<tag k="place" v="locality" />
		<tag k="ssr:stedsnr" v="725673" />
>>>>>>> e1d4bc35ff8a6074a6f2e91616a996b547c36f15
	</node>
	<node id="-297367" lat="60.2280916648" lon="10.4015416658">
		<tag k="name" v="Follum-Minne" />
		<tag k="place" v="locality" />
		<tag k="ssr:stedsnr" v="543194" />
	</node>
	<node id="-296968" lat="60.2280805599" lon="10.5334277837">
		<tag k="name" v="Rampestokk" />
		<tag k="place" v="locality" />
		<tag k="ssr:stedsnr" v="578854" />
	</node>
</osm>
